<?xml version="1.0" encoding="UTF-8"?>
<osm version="0.6" generator="Overpass API 0.7.62.5 1bd436f1">
<note>The data included in this document is from www.openstreetmap.org. The data is made available under ODbL.</note>
<meta osm_base="2025-05-17T21:29:02Z" areas="2024-12-31T00:49:33Z"/>

  <node id="602459" lat="55.9335181" lon="-3.2454636" version="5" timestamp="2020-08-24T08:38:47Z" changeset="89843691" uid="9482689" user="OlegKukharchik">
    <tag k="highway" v="traffic_signals"/>
  </node>
  <node id="606177" lat="55.9429206" lon="-3.2158349" version="13" timestamp="2015-08-28T15:22:24Z" changeset="33646407" uid="388774" user="drnoble"/>
  <node id="610588" lat="55.9411901" lon="-3.2385734" version="1" timestamp="2007-01-13T15:27:04Z" changeset="193343" uid="4435" user="Chris Fleming">
    <tag k="created_by" v="JOSM"/>
  </node>
  <node id="610602" lat="55.9365968" lon="-3.2391635" version="4" timestamp="2015-07-06T21:32:54Z" changeset="32459077" uid="199963" user="TheBaron">
    <tag k="highway" v="traffic_signals"/>
  </node>
  <node id="614614" lat="55.9372527" lon="-3.2264654" version="8" timestamp="2017-06-12T08:28:37Z" changeset="49460151" uid="2234934" user="sophiemccallum">
    <tag k="highway" v="traffic_signals"/>
  </node>
  <node id="614620" lat="55.9390790" lon="-3.2234072" version="10" timestamp="2020-11-24T23:22:01Z" changeset="94734322" uid="3432400" user="GinaroZ">
    <tag k="highway" v="traffic_signals"/>
    <tag k="source" v="Bing;survey"/>
  </node>
  <node id="1003406" lat="55.9432959" lon="-3.2295694" version="7" timestamp="2015-02-20T17:55:52Z" changeset="28983160" uid="1939732" user="eisa"/>
  <node id="13865642" lat="55.9352560" lon="-3.2466381" version="8" timestamp="2017-06-06T16:53:50Z" changeset="49311406" uid="2234934" user="sophiemccallum"/>
  <node id="24942472" lat="55.9368714" lon="-3.2368859" version="5" timestamp="2015-03-04T01:57:45Z" changeset="29235473" uid="1798469" user="eric_">
    <tag k="highway" v="traffic_signals"/>
  </node>
  <node id="24942481" lat="55.9349162" lon="-3.2432553" version="2" timestamp="2013-07-05T18:53:45Z" changeset="16840047" uid="199963" user="TheBaron"/>
  <node id="24942487" lat="55.9342700" lon="-3.2442483" version="4" timestamp="2017-06-12T10:57:03Z" changeset="49464396" uid="2234934" user="sophiemccallum"/>
  <node id="24942496" lat="55.9341080" lon="-3.2334914" version="9" timestamp="2023-01-19T22:37:24Z" changeset="131485083" uid="3432400" user="GinaroZ">
    <tag k="highway" v="traffic_signals"/>
    <tag k="traffic_signals" v="signal"/>
  </node>
  <node id="24943629" lat="55.9401131" lon="-3.2213156" version="6" timestamp="2015-08-18T15:19:54Z" changeset="33417893" uid="1798469" user="eric_"/>
  <node id="24943766" lat="55.9346255" lon="-3.2436938" version="4" timestamp="2016-02-24T17:12:26Z" changeset="37416927" uid="2234934" user="sophiemccallum"/>
  <node id="25873831" lat="55.9391024" lon="-3.2251920" version="9" timestamp="2015-08-18T15:19:54Z" changeset="33417893" uid="1798469" user="eric_"/>
  <node id="530575610" lat="55.9352974" lon="-3.2463473" version="7" timestamp="2017-06-06T16:53:50Z" changeset="49311406" uid="2234934" user="sophiemccallum"/>
  <node id="883172832" lat="55.9354735" lon="-3.2354288" version="3" timestamp="2015-08-29T19:20:29Z" changeset="33669816" uid="388774" user="drnoble"/>
  <node id="986467208" lat="55.9427880" lon="-3.2211201" version="6" timestamp="2014-10-02T19:22:59Z" changeset="25817653" uid="1798469" user="eric_"/>
  <node id="2301965389" lat="55.9339421" lon="-3.2458304" version="2" timestamp="2020-08-24T08:38:47Z" changeset="89843691" uid="9482689" user="OlegKukharchik"/>
  <node id="2398530366" lat="55.9426675" lon="-3.2164852" version="3" timestamp="2021-01-09T12:13:40Z" changeset="97209974" uid="388774" user="drnoble"/>
  <node id="2398544497" lat="55.9398106" lon="-3.2221588" version="2" timestamp="2015-02-17T16:05:15Z" changeset="28912187" uid="2107672" user="leilaz"/>
  <node id="2570065733" lat="55.9359783" lon="-3.2393964" version="2" timestamp="2021-03-13T13:34:06Z" changeset="100953770" uid="388774" user="drnoble"/>
  <node id="2830921102" lat="55.9358361" lon="-3.2359516" version="3" timestamp="2015-08-29T19:20:28Z" changeset="33669816" uid="388774" user="drnoble"/>
  <node id="4026071557" lat="55.9362119" lon="-3.2441213" version="4" timestamp="2024-11-02T14:18:24Z" changeset="158660685" uid="16721418" user="SmithyScotland">
    <tag k="addr:city" v="Edinburgh"/>
    <tag k="addr:housenumber" v="60"/>
    <tag k="addr:street" v="Stevenson Road"/>
    <tag k="building" v="retail"/>
    <tag k="check_date" v="2024-11-02"/>
    <tag k="name" v="Richard F Mackay"/>
    <tag k="phone" v="+44 131 313 3300"/>
    <tag k="shop" v="furniture"/>
    <tag k="source" v="survey"/>
    <tag k="website" v="https://www.richardfmackay.co.uk/"/>
  </node>
  <node id="7839241470" lat="55.9332354" lon="-3.2459826" version="1" timestamp="2020-08-24T08:38:47Z" changeset="89843691" uid="9482689" user="OlegKukharchik"/>
  <way id="2956345" version="13" timestamp="2023-03-24T11:51:40Z" changeset="134064110" uid="3500921" user="camlewwri">
    <nd ref="606184"/>
    <nd ref="2398530374"/>
    <nd ref="10758883321"/>
    <nd ref="805649544"/>
    <nd ref="2398530381"/>
    <nd ref="2398530372"/>
    <nd ref="606183"/>
    <nd ref="250234764"/>
    <tag k="bicycle" v="no"/>
    <tag k="foot" v="no"/>
    <tag k="highway" v="tertiary"/>
    <tag k="lanes" v="2"/>
    <tag k="lit" v="yes"/>
    <tag k="maxspeed" v="40 mph"/>
    <tag k="name" v="West Approach Road"/>
    <tag k="source" v="OS_OpenData_StreetView"/>
    <tag k="surface" v="asphalt"/>
  </way>
  <way id="3849560" version="22" timestamp="2024-01-31T09:54:19Z" changeset="146896688" uid="8556201" user="LonMcGregor">
    <nd ref="614620"/>
    <nd ref="3703060981"/>
    <nd ref="8162713628"/>
    <nd ref="3703060980"/>
    <nd ref="3637947554"/>
    <nd ref="3703060978"/>
    <nd ref="3637947553"/>
    <nd ref="3703060977"/>
    <nd ref="2398541664"/>
    <nd ref="3703060979"/>
    <nd ref="3637947552"/>
    <nd ref="25873831"/>
    <nd ref="8241598659"/>
    <nd ref="3360172208"/>
    <nd ref="8905240679"/>
    <nd ref="3339593447"/>
    <nd ref="501896800"/>
    <tag k="highway" v="tertiary"/>
    <tag k="lanes" v="2"/>
    <tag k="lit" v="yes"/>
    <tag k="maxspeed" v="20 mph"/>
    <tag k="name" v="Henderson Terrace"/>
    <tag k="sidewalk" v="both"/>
    <tag k="source" v="Bing;survey"/>
    <tag k="surface" v="asphalt"/>
  </way>
  <way id="3850463" version="22" timestamp="2024-08-27T16:46:49Z" changeset="155841699" uid="21762849" user="jSeke">
    <nd ref="3703060973"/>
    <nd ref="2617645320"/>
    <nd ref="2375455114"/>
    <nd ref="588985919"/>
    <nd ref="1003383"/>
    <nd ref="8905240682"/>
    <nd ref="3703060976"/>
    <nd ref="8905240681"/>
    <nd ref="3703060982"/>
    <nd ref="501896800"/>
    <tag k="cycleway:both" v="no"/>
    <tag k="highway" v="primary"/>
    <tag k="lanes" v="2"/>
    <tag k="lit" v="yes"/>
    <tag k="maxspeed" v="20 mph"/>
    <tag k="name" v="Ardmillan Terrace"/>
    <tag k="name:gd" v="Barraid Àird a' Mhaolain"/>
    <tag k="ref" v="A70"/>
    <tag k="sidewalk" v="both"/>
    <tag k="sidewalk:both:surface" v="asphalt"/>
    <tag k="surface" v="asphalt"/>
  </way>
  <way id="4196468" version="9" timestamp="2019-10-24T10:24:54Z" changeset="76145014" uid="8155596" user="Lanthanus">
    <nd ref="24665509"/>
    <nd ref="4760558824"/>
    <nd ref="262283599"/>
    <nd ref="262283600"/>
    <nd ref="480064791"/>
    <tag k="highway" v="residential"/>
    <tag k="maxspeed" v="20 mph"/>
    <tag k="name" v="Richmond Terrace"/>
    <tag k="surface" v="paving_stones"/>
  </way>
  <way id="4196470" version="9" timestamp="2019-04-28T17:16:40Z" changeset="69669617" uid="53626" user="jambamkin">
    <nd ref="610654"/>
    <nd ref="2782019096"/>
    <nd ref="24665570"/>
    <tag k="highway" v="residential"/>
    <tag k="lit" v="yes"/>
    <tag k="maxspeed" v="20 mph"/>
    <tag k="name" v="Caledonian Road"/>
    <tag k="source" v="Bing;survey"/>
    <tag k="surface" v="asphalt"/>
  </way>
  <way id="4196471" version="6" timestamp="2019-10-24T10:24:09Z" changeset="76145014" uid="8155596" user="Lanthanus">
    <nd ref="610653"/>
    <nd ref="24665566"/>
    <tag k="highway" v="residential"/>
    <tag k="maxspeed" v="20 mph"/>
    <tag k="name" v="Caledonian Place"/>
    <tag k="source" v="Bing;survey"/>
    <tag k="surface" v="asphalt"/>
  </way>
  <way id="4196472" version="7" timestamp="2024-08-18T10:29:39Z" changeset="155407157" uid="45452" user="Simon Eilting">
    <nd ref="610652"/>
    <nd ref="24665575"/>
    <tag k="cycleway:both" v="no"/>
    <tag k="highway" v="residential"/>
    <tag k="maxspeed" v="20 mph"/>
    <tag k="name" v="Orwell Place"/>
    <tag k="source" v="Bing;survey"/>
    <tag k="surface" v="asphalt"/>
  </way>
  <way id="4196473" version="10" timestamp="2024-01-31T09:54:17Z" changeset="146896688" uid="8556201" user="LonMcGregor">
    <nd ref="610651"/>
    <nd ref="3701852451"/>
    <nd ref="3701852449"/>
    <nd ref="3701852445"/>
    <nd ref="3701852443"/>
    <nd ref="24667522"/>
    <nd ref="3701851320"/>
    <nd ref="3701851319"/>
    <nd ref="3701851318"/>
    <nd ref="24556889"/>
    <tag k="highway" v="residential"/>
    <tag k="maxspeed" v="20 mph"/>
    <tag k="name" v="Orwell Terrace"/>
    <tag k="sidewalk" v="both"/>
    <tag k="source" v="Bing;survey"/>
    <tag k="surface" v="asphalt"/>
  </way>
  <way id="4196474" version="12" timestamp="2019-04-28T17:15:58Z" changeset="69669617" uid="53626" user="jambamkin">
    <nd ref="24665570"/>
    <nd ref="2782019094"/>
    <nd ref="2782019092"/>
    <nd ref="2782019091"/>
    <nd ref="2782019089"/>
    <nd ref="2782019087"/>
    <nd ref="2782019085"/>
    <nd ref="2782019083"/>
    <nd ref="2782019081"/>
    <nd ref="2782019080"/>
    <nd ref="2782019078"/>
    <nd ref="2631165236"/>
    <nd ref="2782019076"/>
    <nd ref="2782019074"/>
    <nd ref="2782019072"/>
    <nd ref="2782019070"/>
    <nd ref="1129317794"/>
    <nd ref="2782019068"/>
    <nd ref="2782019066"/>
    <nd ref="2782019064"/>
    <nd ref="2782019062"/>
    <nd ref="2631165235"/>
    <nd ref="2782019060"/>
    <nd ref="2782019058"/>
    <nd ref="2782019056"/>
    <nd ref="2782019054"/>
    <nd ref="24665566"/>
    <nd ref="2782019052"/>
    <nd ref="2782019050"/>
    <nd ref="2782019048"/>
    <nd ref="2782019046"/>
    <nd ref="2782019044"/>
    <nd ref="2631165234"/>
    <nd ref="2782019042"/>
    <nd ref="2782019040"/>
    <nd ref="2782019038"/>
    <nd ref="1129317624"/>
    <nd ref="2782019036"/>
    <nd ref="2782019034"/>
    <nd ref="2782019026"/>
    <nd ref="2782019025"/>
    <nd ref="2782019023"/>
    <nd ref="2782019021"/>
    <nd ref="2782019017"/>
    <nd ref="2631165231"/>
    <nd ref="2631165229"/>
    <nd ref="24665575"/>
    <nd ref="2631165227"/>
    <nd ref="2104243454"/>
    <nd ref="3701851316"/>
    <nd ref="3701851314"/>
    <nd ref="3701851315"/>
    <nd ref="3701851317"/>
    <nd ref="24556889"/>
    <tag k="highway" v="residential"/>
    <tag k="lit" v="yes"/>
    <tag k="maxspeed" v="20 mph"/>
    <tag k="name" v="Caledonian Crescent"/>
    <tag k="source" v="Bing;survey"/>
    <tag k="surface" v="asphalt"/>
  </way>
  <way id="4210518" version="6" timestamp="2023-07-08T11:28:36Z" changeset="138260095" uid="53626" user="jambamkin">
    <nd ref="24942496"/>
    <nd ref="24942525"/>
    <nd ref="480096772"/>
    <nd ref="3382228961"/>
    <nd ref="3382228963"/>
    <tag k="highway" v="residential"/>
    <tag k="lit" v="yes"/>
    <tag k="maxspeed" v="20 mph"/>
    <tag k="name" v="Stewart Terrace"/>
    <tag k="oneway" v="yes"/>
    <tag k="surface" v="asphalt"/>
  </way>
  <way id="4210569" version="31" timestamp="2023-01-11T21:16:46Z" changeset="131162416" uid="16721418" user="SmithyScotland">
    <nd ref="614620"/>
    <nd ref="3356230031"/>
    <nd ref="10541874335"/>
    <nd ref="25754783"/>
    <nd ref="3356230033"/>
    <nd ref="3356230036"/>
    <tag k="cycleway:left" v="track"/>
    <tag k="highway" v="tertiary"/>
    <tag k="lanes" v="2"/>
    <tag k="lit" v="yes"/>
    <tag k="maxspeed" v="20 mph"/>
    <tag k="name" v="Dundee Street"/>
    <tag k="sidewalk" v="both"/>
    <tag k="source" v="Bing;survey"/>
    <tag k="surface" v="asphalt"/>
  </way>
  <way id="4210630" version="20" timestamp="2024-12-24T22:38:02Z" changeset="160589479" uid="53626" user="jambamkin">
    <nd ref="3703060993"/>
    <nd ref="7548018710"/>
    <tag k="bicycle" v="no"/>
    <tag k="bridge" v="yes"/>
    <tag k="foot" v="no"/>
    <tag k="highway" v="tertiary"/>
    <tag k="lanes" v="1"/>
    <tag k="layer" v="1"/>
    <tag k="lit" v="yes"/>
    <tag k="maxspeed" v="20 mph"/>
    <tag k="maxweight" v="1.5"/>
    <tag k="name" v="West Approach Road"/>
    <tag k="oneway" v="yes"/>
    <tag k="sidewalk" v="no"/>
    <tag k="source" v="OS_OpenData_StreetView"/>
    <tag k="surface" v="asphalt"/>
  </way>
  <way id="4211277" version="27" timestamp="2024-08-23T01:44:48Z" changeset="155631129" uid="21762849" user="jSeke">
    <nd ref="501896800"/>
    <nd ref="3703060985"/>
    <nd ref="8905240680"/>
    <nd ref="3703060986"/>
    <nd ref="8241598658"/>
    <nd ref="3703060988"/>
    <nd ref="24942559"/>
    <nd ref="2362574349"/>
    <tag k="cycleway:both" v="no"/>
    <tag k="cycleway:width" v="1.2"/>
    <tag k="highway" v="primary"/>
    <tag k="lanes" v="2"/>
    <tag k="lit" v="yes"/>
    <tag k="maxspeed" v="20 mph"/>
    <tag k="name" v="Dalry Road"/>
    <tag k="name:gd" v="Rathad Dhail Fhraoich"/>
    <tag k="ref" v="A70"/>
    <tag k="sidewalk" v="both"/>
    <tag k="sidewalk:left:surface" v="paving_stones"/>
    <tag k="sidewalk:right:surface" v="asphalt"/>
    <tag k="surface" v="asphalt"/>
  </way>
  <way id="4252291" version="6" timestamp="2021-12-19T15:09:41Z" changeset="115129233" uid="11026711" user="mbenntll">
    <nd ref="24942558"/>
    <nd ref="24942557"/>
    <tag k="highway" v="residential"/>
    <tag k="maxspeed" v="20 mph"/>
    <tag k="name" v="Murieston Lane"/>
    <tag k="oneway" v="yes"/>
    <tag k="parking:condition:both" v="residents"/>
    <tag k="parking:condition:both:default" v="free"/>
    <tag k="parking:condition:both:residents" v="S4"/>
    <tag k="parking:condition:both:time_interval" v="Mo-Fr 08:30-17:30"/>
    <tag k="sidewalk" v="both"/>
    <tag k="surface" v="sett"/>
  </way>
  <way id="4252292" version="11" timestamp="2024-08-12T18:15:13Z" changeset="155162383" uid="21143475" user="Htf4">
    <nd ref="24942557"/>
    <nd ref="24942556"/>
    <nd ref="24942555"/>
    <nd ref="4618119191"/>
    <nd ref="2450281591"/>
    <nd ref="24942554"/>
    <nd ref="3329758623"/>
    <nd ref="4589340226"/>
    <nd ref="24942553"/>
    <nd ref="4564978711"/>
    <nd ref="2266150523"/>
    <tag k="highway" v="residential"/>
    <tag k="maxspeed" v="20 mph"/>
    <tag k="name" v="Murieston Lane"/>
    <tag k="parking:condition:both" v="residents"/>
    <tag k="parking:condition:both:default" v="free"/>
    <tag k="parking:condition:both:residents" v="S4"/>
    <tag k="parking:condition:both:time_interval" v="Mo-Fr 08:30-17:30"/>
    <tag k="sidewalk:right" v="yes"/>
    <tag k="surface" v="sett"/>
  </way>
  <way id="4252297" version="20" timestamp="2024-08-27T16:46:49Z" changeset="155841699" uid="21762849" user="jSeke">
    <nd ref="610602"/>
    <nd ref="7616157064"/>
    <nd ref="24942480"/>
    <nd ref="2570216659"/>
    <nd ref="2531369620"/>
    <tag k="cycleway:both" v="no"/>
    <tag k="highway" v="primary"/>
    <tag k="lanes" v="2"/>
    <tag k="lit" v="yes"/>
    <tag k="maxspeed" v="20 mph"/>
    <tag k="name" v="Gorgie Road"/>
    <tag k="name:gd" v="Rathad Ghorgain"/>
    <tag k="ref" v="A71"/>
    <tag k="sidewalk" v="both"/>
    <tag k="surface" v="asphalt"/>
  </way>
  <way id="4252298" version="20" timestamp="2024-08-27T16:46:49Z" changeset="155841699" uid="21762849" user="jSeke">
    <nd ref="602459"/>
    <nd ref="8439494288"/>
    <nd ref="2301965388"/>
    <tag k="highway" v="primary"/>
    <tag k="lit" v="yes"/>
    <tag k="maxspeed" v="30 mph"/>
    <tag k="name" v="Gorgie Road"/>
    <tag k="name:gd" v="Rathad Ghorgain"/>
    <tag k="ref" v="A71"/>
    <tag k="sidewalk:left" v="separate"/>
    <tag k="sidewalk:right" v="yes"/>
    <tag k="surface" v="asphalt"/>
  </way>
  <way id="4262023" version="11" timestamp="2019-10-24T10:24:19Z" changeset="76145014" uid="8155596" user="Lanthanus">
    <nd ref="25574266"/>
    <nd ref="4889286627"/>
    <nd ref="4889286636"/>
    <nd ref="4889286632"/>
    <nd ref="25574265"/>
    <nd ref="4889286631"/>
    <nd ref="4889286635"/>
    <nd ref="4889286634"/>
    <nd ref="4889286633"/>
    <nd ref="4889286626"/>
    <nd ref="4889286625"/>
    <nd ref="25574264"/>
    <nd ref="3396645355"/>
    <nd ref="3396645352"/>
    <nd ref="3396645344"/>
    <nd ref="2036498775"/>
    <nd ref="3107554224"/>
    <nd ref="3107554222"/>
    <nd ref="3396645335"/>
    <nd ref="3107554219"/>
    <nd ref="3328541801"/>
    <nd ref="25574263"/>
    <tag k="highway" v="residential"/>
    <tag k="maxspeed" v="20 mph"/>
    <tag k="name" v="Dalry Gait"/>
    <tag k="source" v="Bing;survey"/>
    <tag k="surface" v="paving_stones"/>
  </way>
  <way id="4262029" version="12" timestamp="2025-04-25T18:05:48Z" changeset="165436809" uid="22810574" user="MagicMapper">
    <nd ref="24665623"/>
    <nd ref="3567226317"/>
    <nd ref="3999684735"/>
    <nd ref="3328541795"/>
    <nd ref="3567226327"/>
    <tag k="highway" v="unclassified"/>
    <tag k="lane_markings" v="no"/>
    <tag k="maxspeed" v="20 mph"/>
    <tag k="name" v="West Park Place"/>
    <tag k="surface" v="sett"/>
  </way>
  <way id="4262030" version="10" timestamp="2022-09-17T15:16:44Z" changeset="126303112" uid="493595" user="Yorvik Prestigitator">
    <nd ref="25574287"/>
    <nd ref="4888066728"/>
    <nd ref="10031808995"/>
    <nd ref="25574277"/>
    <nd ref="10031808996"/>
    <nd ref="25574274"/>
    <nd ref="25574273"/>
    <nd ref="25574272"/>
    <tag k="highway" v="residential"/>
    <tag k="lit" v="yes"/>
    <tag k="maxspeed" v="20 mph"/>
    <tag k="name" v="Easter Dalry Road"/>
    <tag k="surface" v="asphalt"/>
  </way>
  <way id="4262031" version="9" timestamp="2020-12-11T13:18:14Z" changeset="95683703" uid="2110168" user="TheEditor101">
    <nd ref="25574277"/>
    <nd ref="4888017681"/>
    <nd ref="2631496253"/>
    <nd ref="2631496242"/>
    <nd ref="4888017680"/>
    <nd ref="25574279"/>
    <tag k="highway" v="residential"/>
    <tag k="lit" v="yes"/>
    <tag k="maxspeed" v="20 mph"/>
    <tag k="name" v="Easter Dalry Drive"/>
    <tag k="surface" v="asphalt"/>
  </way>
  <way id="4262032" version="11" timestamp="2024-08-12T18:36:28Z" changeset="155162383" uid="21143475" user="Htf4">
    <nd ref="25574277"/>
    <nd ref="4888091514"/>
    <nd ref="25574289"/>
    <nd ref="3396645338"/>
    <nd ref="3396645341"/>
    <nd ref="25574290"/>
    <nd ref="3396645350"/>
    <nd ref="4888101508"/>
    <nd ref="25574293"/>
    <nd ref="4888101480"/>
    <nd ref="25574296"/>
    <tag k="highway" v="residential"/>
    <tag k="lit" v="yes"/>
    <tag k="maxspeed" v="20 mph"/>
    <tag k="name" v="Easter Dalry Wynd"/>
    <tag k="sidewalk:left" v="yes"/>
    <tag k="surface" v="asphalt"/>
  </way>
  <way id="4262033" version="7" timestamp="2024-08-12T18:36:43Z" changeset="155162383" uid="21143475" user="Htf4">
    <nd ref="25574293"/>
    <nd ref="4888091474"/>
    <nd ref="4888091477"/>
    <nd ref="4888091500"/>
    <nd ref="4888091496"/>
    <nd ref="4888091497"/>
    <nd ref="4888091498"/>
    <nd ref="4888091495"/>
    <nd ref="4888091499"/>
    <nd ref="4888091494"/>
    <nd ref="25574294"/>
    <nd ref="4888091493"/>
    <nd ref="4888091501"/>
    <nd ref="4888091484"/>
    <nd ref="4888091483"/>
    <nd ref="25574295"/>
    <tag k="highway" v="residential"/>
    <tag k="maxspeed" v="20 mph"/>
    <tag k="name" v="Easter Dalry Wynd"/>
    <tag k="sidewalk" v="no"/>
  </way>
  <way id="4262034" version="9" timestamp="2017-05-31T15:24:29Z" changeset="49139502" uid="2234934" user="sophiemccallum">
    <nd ref="25574286"/>
    <nd ref="4887989179"/>
    <nd ref="3396645329"/>
    <nd ref="4887989184"/>
    <nd ref="25574285"/>
    <nd ref="4887989183"/>
    <nd ref="3396645328"/>
    <nd ref="4887989182"/>
    <nd ref="3396645327"/>
    <nd ref="4887989181"/>
    <nd ref="3396645326"/>
    <nd ref="4887989180"/>
    <nd ref="4888017718"/>
    <nd ref="4888017717"/>
    <nd ref="4888017716"/>
    <nd ref="25574279"/>
    <tag k="highway" v="residential"/>
    <tag k="maxspeed" v="20 mph"/>
    <tag k="name" v="Easter Dalry Place"/>
  </way>
  <way id="4262035" version="8" timestamp="2017-05-30T10:46:14Z" changeset="49100164" uid="2234934" user="sophiemccallum">
    <nd ref="25574280"/>
    <nd ref="4885397903"/>
    <nd ref="4885397901"/>
    <nd ref="2143139522"/>
    <nd ref="4885397900"/>
    <nd ref="4885397902"/>
    <nd ref="3701852457"/>
    <nd ref="4885397898"/>
    <nd ref="2143139499"/>
    <nd ref="4885397899"/>
    <nd ref="4885397891"/>
    <nd ref="4885397894"/>
    <nd ref="4885397892"/>
    <nd ref="25574282"/>
    <tag k="highway" v="residential"/>
    <tag k="maxspeed" v="20 mph"/>
    <tag k="name" v="Easter Dalry Rigg"/>
    <tag k="source" v="Bing;survey"/>
  </way>
  <way id="4287676" version="12" timestamp="2019-03-17T12:44:17Z" changeset="68226949" uid="53626" user="jambamkin">
    <nd ref="25574273"/>
    <nd ref="3328534380"/>
    <nd ref="4889286652"/>
    <nd ref="530604867"/>
    <tag k="highway" v="residential"/>
    <tag k="lit" v="yes"/>
    <tag k="maxspeed" v="20 mph"/>
    <tag k="name" v="Easter Dalry Road"/>
    <tag k="surface" v="asphalt"/>
  </way>
  <way id="4287677" version="9" timestamp="2021-01-17T18:00:39Z" changeset="97647525" uid="2110168" user="TheEditor101">
    <nd ref="25574279"/>
    <nd ref="4888017714"/>
    <nd ref="4888017713"/>
    <nd ref="4888017712"/>
    <nd ref="4888017715"/>
    <nd ref="25574280"/>
    <nd ref="4885397862"/>
    <nd ref="4885397908"/>
    <nd ref="25574281"/>
    <tag k="highway" v="residential"/>
    <tag k="maxspeed" v="20 mph"/>
    <tag k="name" v="Easter Dalry Rigg"/>
    <tag k="surface" v="paving_stones"/>
  </way>
  <way id="4287678" version="10" timestamp="2024-08-12T18:40:24Z" changeset="155162383" uid="21143475" user="Htf4">
    <nd ref="24943634"/>
    <nd ref="25873121"/>
    <nd ref="24943635"/>
    <nd ref="25873122"/>
    <nd ref="25873112"/>
    <nd ref="2167074746"/>
    <nd ref="25873113"/>
    <tag k="highway" v="residential"/>
    <tag k="lit" v="yes"/>
    <tag k="maxspeed" v="20 mph"/>
    <tag k="name" v="Duff Street"/>
    <tag k="sidewalk" v="both"/>
    <tag k="surface" v="sett"/>
  </way>
  <way id="4287679" version="4" timestamp="2014-12-31T17:00:27Z" changeset="27827178" uid="42123" user="Ropino">
    <nd ref="25873118"/>
    <nd ref="25873115"/>
    <tag k="highway" v="residential"/>
    <tag k="maxspeed" v="20 mph"/>
    <tag k="name" v="Duff Road"/>
  </way>
  <way id="4287680" version="6" timestamp="2017-05-31T15:08:57Z" changeset="49139084" uid="2234934" user="sophiemccallum">
    <nd ref="25873116"/>
    <nd ref="25873115"/>
    <nd ref="4887993122"/>
    <nd ref="4887989174"/>
    <nd ref="25873117"/>
    <tag k="highway" v="residential"/>
    <tag k="maxspeed" v="20 mph"/>
    <tag k="name" v="Duff Road"/>
  </way>
  <way id="4287681" version="7" timestamp="2021-01-17T18:00:40Z" changeset="97647525" uid="2110168" user="TheEditor101">
    <nd ref="25873119"/>
    <nd ref="4885398088"/>
    <nd ref="4887989150"/>
    <nd ref="4887989147"/>
    <nd ref="4887989148"/>
    <nd ref="4887989145"/>
    <nd ref="4887989149"/>
    <nd ref="4887989146"/>
    <nd ref="25873127"/>
    <tag k="highway" v="residential"/>
    <tag k="maxspeed" v="20 mph"/>
    <tag k="name" v="Duff Street"/>
    <tag k="surface" v="asphalt"/>
  </way>
  <way id="4287682" version="7" timestamp="2017-05-31T15:08:57Z" changeset="49139084" uid="2234934" user="sophiemccallum">
    <nd ref="25873129"/>
    <nd ref="4883382011"/>
    <nd ref="4883382012"/>
    <nd ref="4887989151"/>
    <nd ref="4887989144"/>
    <nd ref="25873127"/>
    <tag k="highway" v="residential"/>
    <tag k="maxspeed" v="20 mph"/>
    <tag k="name" v="Duff Street"/>
  </way>
  <way id="4287683" version="7" timestamp="2024-08-12T18:40:52Z" changeset="155162383" uid="21143475" user="Htf4">
    <nd ref="25873121"/>
    <nd ref="2145237625"/>
    <nd ref="25873123"/>
    <nd ref="25873124"/>
    <tag k="highway" v="residential"/>
    <tag k="lit" v="yes"/>
    <tag k="maxspeed" v="20 mph"/>
    <tag k="name" v="Northcote Street"/>
    <tag k="sidewalk" v="both"/>
    <tag k="surface" v="asphalt"/>
  </way>
  <way id="4287684" version="8" timestamp="2020-04-10T12:07:44Z" changeset="83362773" uid="53626" user="jambamkin">
    <nd ref="25873131"/>
    <nd ref="4883350108"/>
    <nd ref="4883350102"/>
    <nd ref="25873123"/>
    <tag k="highway" v="residential"/>
    <tag k="lit" v="yes"/>
    <tag k="maxspeed" v="20 mph"/>
    <tag k="name" v="Northcote Street"/>
    <tag k="surface" v="asphalt"/>
  </way>
  <way id="4287685" version="9" timestamp="2020-04-10T12:09:58Z" changeset="83362773" uid="53626" user="jambamkin">
    <nd ref="25873122"/>
    <nd ref="25873125"/>
    <nd ref="4883349834"/>
    <nd ref="4883349847"/>
    <nd ref="4883349848"/>
    <nd ref="25873126"/>
    <tag k="highway" v="residential"/>
    <tag k="lit" v="yes"/>
    <tag k="maxspeed" v="20 mph"/>
    <tag k="name" v="Duff Street"/>
    <tag k="surface" v="asphalt"/>
  </way>
  <way id="4287686" version="5" timestamp="2017-05-30T10:46:14Z" changeset="49100164" uid="2234934" user="sophiemccallum">
    <nd ref="25873120"/>
    <nd ref="4885398037"/>
    <nd ref="4885398038"/>
    <nd ref="25873132"/>
    <tag k="highway" v="residential"/>
    <tag k="maxspeed" v="20 mph"/>
    <tag k="name" v="Duff Road"/>
  </way>
  <way id="4287687" version="8" timestamp="2024-08-04T11:26:40Z" changeset="154807651" uid="21143475" user="Htf4">
    <nd ref="25873112"/>
    <nd ref="24943639"/>
    <tag k="highway" v="residential"/>
    <tag k="lit" v="yes"/>
    <tag k="maxspeed" v="20 mph"/>
    <tag k="name" v="Downfield Place"/>
    <tag k="sidewalk" v="both"/>
    <tag k="surface" v="sett"/>
  </way>
  <way id="4287689" version="9" timestamp="2024-08-12T18:41:10Z" changeset="155162383" uid="21143475" user="Htf4">
    <nd ref="24943630"/>
    <nd ref="8375060901"/>
    <nd ref="24943635"/>
    <tag k="highway" v="residential"/>
    <tag k="lit" v="yes"/>
    <tag k="maxspeed" v="20 mph"/>
    <tag k="name" v="Springwell Place"/>
    <tag k="sidewalk" v="both"/>
    <tag k="surface" v="sett"/>
  </way>
  <way id="4287690" version="9" timestamp="2024-08-12T18:40:17Z" changeset="155162383" uid="21143475" user="Htf4">
    <nd ref="24943631"/>
    <nd ref="8375060902"/>
    <nd ref="24943634"/>
    <tag k="highway" v="residential"/>
    <tag k="lit" v="yes"/>
    <tag k="maxspeed" v="20 mph"/>
    <tag k="name" v="Cathcart Place"/>
    <tag k="sidewalk" v="both"/>
    <tag k="surface" v="sett"/>
  </way>
  <way id="4287771" version="13" timestamp="2024-08-27T16:46:49Z" changeset="155841699" uid="21762849" user="jSeke">
    <nd ref="25873831"/>
    <nd ref="25873833"/>
    <nd ref="25873834"/>
    <nd ref="25873835"/>
    <nd ref="2398544498"/>
    <nd ref="3339593176"/>
    <nd ref="3339593156"/>
    <nd ref="3360165982"/>
    <nd ref="3339593132"/>
    <nd ref="3360165978"/>
    <nd ref="3339593125"/>
    <nd ref="3360165969"/>
    <nd ref="25873832"/>
    <tag k="highway" v="residential"/>
    <tag k="maxspeed" v="20 mph"/>
    <tag k="name" v="Ardmillan Place"/>
    <tag k="name:gd" v="Ceàrn Àird a' Mhaolain"/>
    <tag k="source" v="Bing;survey"/>
    <tag k="surface" v="asphalt"/>
  </way>
  <way id="4288423" version="8" timestamp="2023-02-16T16:52:03Z" changeset="132638453" uid="9498565" user="CycleAlex">
    <nd ref="25873113"/>
    <nd ref="10670921378"/>
    <nd ref="2631496236"/>
    <nd ref="3328405582"/>
    <nd ref="3328405579"/>
    <nd ref="2631496228"/>
    <nd ref="25873114"/>
    <tag k="highway" v="residential"/>
    <tag k="lit" v="yes"/>
    <tag k="maxspeed" v="20 mph"/>
    <tag k="name" v="Duff Street Lane"/>
    <tag k="surface" v="asphalt"/>
  </way>
  <way id="4288424" version="9" timestamp="2020-12-11T13:18:15Z" changeset="95683703" uid="2110168" user="TheEditor101">
    <nd ref="25574994"/>
    <nd ref="4887989143"/>
    <nd ref="4887989158"/>
    <nd ref="4887989159"/>
    <nd ref="25873118"/>
    <nd ref="4887989157"/>
    <nd ref="4887989156"/>
    <nd ref="4887989155"/>
    <nd ref="25873120"/>
    <tag k="highway" v="residential"/>
    <tag k="lit" v="yes"/>
    <tag k="maxspeed" v="20 mph"/>
    <tag k="name" v="Duff Road"/>
    <tag k="surface" v="asphalt"/>
  </way>
  <way id="4526643" version="12" timestamp="2024-08-24T14:17:09Z" changeset="155699037" uid="16721418" user="SmithyScotland">
    <nd ref="13865642"/>
    <nd ref="530575562"/>
    <nd ref="509177704"/>
    <nd ref="530575570"/>
    <nd ref="530575579"/>
    <nd ref="509177712"/>
    <nd ref="530575610"/>
    <tag k="direction" v="clockwise"/>
    <tag k="highway" v="tertiary"/>
    <tag k="junction" v="roundabout"/>
    <tag k="lanes" v="2"/>
    <tag k="lit" v="yes"/>
    <tag k="maxspeed" v="30 mph"/>
    <tag k="surface" v="asphalt"/>
  </way>
  <way id="4526644" version="18" timestamp="2024-01-31T09:54:34Z" changeset="146896688" uid="8556201" user="LonMcGregor">
    <nd ref="602459"/>
    <nd ref="7839241471"/>
    <nd ref="8439494290"/>
    <nd ref="2301965389"/>
    <tag k="highway" v="tertiary"/>
    <tag k="lit" v="yes"/>
    <tag k="maxspeed" v="30 mph"/>
    <tag k="name" v="Balgreen Road"/>
    <tag k="sidewalk:both" v="separate"/>
    <tag k="surface" v="asphalt"/>
  </way>
  <way id="4604614" version="12" timestamp="2024-08-03T10:57:24Z" changeset="154767116" uid="21143475" user="Htf4">
    <nd ref="4719166210"/>
    <nd ref="4632480123"/>
    <nd ref="4632480122"/>
    <nd ref="24942489"/>
    <nd ref="7973600296"/>
    <nd ref="3961472238"/>
    <nd ref="2112986547"/>
    <nd ref="1882457732"/>
    <nd ref="7973600294"/>
    <nd ref="24942490"/>
    <tag k="highway" v="residential"/>
    <tag k="maxspeed" v="20 mph"/>
    <tag k="name" v="Westfield Avenue"/>
    <tag k="sidewalk:right" v="yes"/>
    <tag k="surface" v="asphalt"/>
  </way>
  <way id="4604615" version="13" timestamp="2024-01-31T09:54:28Z" changeset="146896688" uid="8556201" user="LonMcGregor">
    <nd ref="610602"/>
    <nd ref="7616157065"/>
    <nd ref="5839837041"/>
    <nd ref="610614"/>
    <nd ref="670862019"/>
    <nd ref="610615"/>
    <tag k="highway" v="residential"/>
    <tag k="lit" v="yes"/>
    <tag k="maxspeed" v="20 mph"/>
    <tag k="name" v="Gorgie Park Road"/>
    <tag k="sidewalk" v="both"/>
    <tag k="surface" v="asphalt"/>
  </way>
  <way id="4604619" version="34" timestamp="2024-06-23T17:13:53Z" changeset="153077925" uid="20487713" user="iiBus">
    <nd ref="530575610"/>
    <nd ref="12003512809"/>
    <nd ref="368980822"/>
    <nd ref="2375487307"/>
    <nd ref="368981399"/>
    <nd ref="3734736716"/>
    <nd ref="368980742"/>
    <nd ref="2375487308"/>
    <nd ref="3851641636"/>
    <nd ref="7598779501"/>
    <nd ref="7598779504"/>
    <nd ref="1827483434"/>
    <nd ref="670861988"/>
    <nd ref="606194"/>
    <nd ref="5094930500"/>
    <nd ref="503350878"/>
    <nd ref="1126465777"/>
    <nd ref="8905240675"/>
    <nd ref="2398530796"/>
    <nd ref="2375478718"/>
    <nd ref="248499133"/>
    <tag k="highway" v="tertiary"/>
    <tag k="lanes" v="2"/>
    <tag k="lit" v="yes"/>
    <tag k="maxspeed" v="30 mph"/>
    <tag k="name" v="Stevenson Road"/>
    <tag k="oneway" v="no"/>
    <tag k="sidewalk" v="both"/>
    <tag k="surface" v="asphalt"/>
  </way>
  <way id="4604624" version="16" timestamp="2024-08-24T14:17:08Z" changeset="155699037" uid="16721418" user="SmithyScotland">
    <nd ref="4719166209"/>
    <nd ref="1129288512"/>
    <nd ref="2398531962"/>
    <nd ref="2398531961"/>
    <nd ref="610604"/>
    <nd ref="4899868346"/>
    <nd ref="4899867689"/>
    <nd ref="670862033"/>
    <nd ref="5839837042"/>
    <nd ref="610602"/>
    <tag k="highway" v="tertiary"/>
    <tag k="lanes" v="2"/>
    <tag k="lit" v="yes"/>
    <tag k="maxspeed" v="20 mph"/>
    <tag k="name" v="Westfield Road"/>
    <tag k="oneway" v="no"/>
    <tag k="sidewalk" v="both"/>
    <tag k="surface" v="asphalt"/>
  </way>
  <way id="4604626" version="25" timestamp="2024-08-03T11:00:20Z" changeset="154767613" uid="21143475" user="Htf4">
    <nd ref="248499133"/>
    <nd ref="3319896759"/>
    <nd ref="2398530383"/>
    <nd ref="708270895"/>
    <nd ref="248499136"/>
    <nd ref="2334546432"/>
    <nd ref="3261706021"/>
    <nd ref="9985934104"/>
    <nd ref="3261706025"/>
    <nd ref="4632480095"/>
    <nd ref="7829043386"/>
    <nd ref="4632479885"/>
    <nd ref="3720325371"/>
    <nd ref="606190"/>
    <nd ref="2375478719"/>
    <nd ref="25161341"/>
    <nd ref="2375478721"/>
    <nd ref="2398530368"/>
    <nd ref="25161342"/>
    <nd ref="2375478714"/>
    <nd ref="2398530376"/>
    <nd ref="2375478716"/>
    <nd ref="1225130478"/>
    <nd ref="606189"/>
    <tag k="highway" v="tertiary"/>
    <tag k="lanes" v="2"/>
    <tag k="lit" v="yes"/>
    <tag k="maxheight" v="default"/>
    <tag k="maxspeed" v="30 mph"/>
    <tag k="name" v="Westfield Road"/>
    <tag k="oneway" v="no"/>
    <tag k="sidewalk:left" v="yes"/>
    <tag k="surface" v="asphalt"/>
  </way>
  <way id="4626456" version="7" timestamp="2019-10-21T17:16:28Z" changeset="76010577" uid="8155596" user="Lanthanus">
    <nd ref="24942481"/>
    <nd ref="3075548455"/>
    <nd ref="4900049758"/>
    <nd ref="24943765"/>
    <tag k="highway" v="residential"/>
    <tag k="lit" v="yes"/>
    <tag k="maxspeed" v="30 mph"/>
    <tag k="name" v="Coxfield"/>
    <tag k="surface" v="asphalt"/>
  </way>
  <way id="4626457" version="6" timestamp="2024-01-31T09:54:32Z" changeset="146896688" uid="8556201" user="LonMcGregor">
    <nd ref="24943766"/>
    <nd ref="24943767"/>
    <nd ref="24943769"/>
    <nd ref="24943770"/>
    <nd ref="24943771"/>
    <tag k="highway" v="residential"/>
    <tag k="maxspeed" v="30 mph"/>
    <tag k="name" v="Coxfield Lane"/>
    <tag k="sidewalk" v="right"/>
    <tag k="surface" v="asphalt"/>
  </way>
  <way id="4626459" version="7" timestamp="2023-08-30T20:29:00Z" changeset="140607124" uid="19790906" user="Flyto_">
    <nd ref="24942487"/>
    <nd ref="24942488"/>
    <nd ref="4910613347"/>
    <nd ref="4910613346"/>
    <nd ref="4910613345"/>
    <nd ref="4910613344"/>
    <tag k="highway" v="residential"/>
    <tag k="lane_markings" v="no"/>
    <tag k="maxspeed" v="30 mph"/>
    <tag k="name" v="GlenleaCottages"/>
    <tag k="surface" v="asphalt"/>
  </way>
  <way id="4626460" version="5" timestamp="2019-01-03T19:09:31Z" changeset="65998899" uid="53626" user="jambamkin">
    <nd ref="24942485"/>
    <nd ref="24942486"/>
    <tag k="highway" v="residential"/>
    <tag k="maxspeed" v="30 mph"/>
    <tag k="name" v="Saughton Avenue"/>
    <tag k="surface" v="sett"/>
  </way>
  <way id="4626462" version="10" timestamp="2024-01-31T09:54:29Z" changeset="146896688" uid="8556201" user="LonMcGregor">
    <nd ref="24943641"/>
    <nd ref="1881756190"/>
    <nd ref="24943640"/>
    <nd ref="670861979"/>
    <nd ref="24942537"/>
    <tag k="highway" v="residential"/>
    <tag k="lit" v="yes"/>
    <tag k="maxspeed" v="20 mph"/>
    <tag k="name" v="Alexander Drive"/>
    <tag k="sidewalk" v="both"/>
    <tag k="source" v="Bing;survey"/>
    <tag k="surface" v="asphalt"/>
  </way>
  <way id="4641048" version="22" timestamp="2024-01-31T09:54:25Z" changeset="146896688" uid="8556201" user="LonMcGregor">
    <nd ref="24942472"/>
    <nd ref="2398541669"/>
    <nd ref="24942491"/>
    <nd ref="2536591164"/>
    <nd ref="2536591151"/>
    <nd ref="3382452228"/>
    <nd ref="24942492"/>
    <nd ref="3924327844"/>
    <nd ref="2830921102"/>
    <nd ref="2188447333"/>
    <nd ref="883172832"/>
    <nd ref="3720347312"/>
    <nd ref="889317300"/>
    <nd ref="3320983209"/>
    <nd ref="10568807743"/>
    <nd ref="24942496"/>
    <tag k="highway" v="residential"/>
    <tag k="lit" v="yes"/>
    <tag k="maxspeed" v="20 mph"/>
    <tag k="name" v="Robertson Avenue"/>
    <tag k="sidewalk" v="both"/>
    <tag k="surface" v="asphalt"/>
  </way>
  <way id="4641049" version="14" timestamp="2025-04-27T03:43:00Z" changeset="165488956" uid="22810574" user="MagicMapper">
    <nd ref="24942530"/>
    <nd ref="8399263462"/>
    <nd ref="3825429860"/>
    <nd ref="24942527"/>
    <nd ref="4872473368"/>
    <nd ref="3924327903"/>
    <nd ref="4872473367"/>
    <nd ref="3924327857"/>
    <nd ref="4872473366"/>
    <nd ref="3924327785"/>
    <nd ref="4872473365"/>
    <nd ref="24942526"/>
    <nd ref="3720347322"/>
    <nd ref="8399263481"/>
    <nd ref="24942523"/>
    <tag k="highway" v="residential"/>
    <tag k="lanes" v="2"/>
    <tag k="lit" v="yes"/>
    <tag k="maxspeed" v="20 mph"/>
    <tag k="name" v="Stewart Terrace"/>
    <tag k="parking:left" v="lane"/>
    <tag k="parking:left:orientation" v="parallel"/>
    <tag k="parking:right" v="separate"/>
    <tag k="sidewalk" v="both"/>
    <tag k="source" v="Bing;survey"/>
    <tag k="surface" v="asphalt"/>
  </way>
  <way id="4641050" version="8" timestamp="2025-03-17T14:03:28Z" changeset="163733913" uid="16721418" user="SmithyScotland">
    <nd ref="24942531"/>
    <nd ref="12673120896"/>
    <nd ref="24942522"/>
    <tag k="highway" v="residential"/>
    <tag k="lit" v="yes"/>
    <tag k="maxspeed" v="20 mph"/>
    <tag k="name" v="Wardlaw Place"/>
    <tag k="sidewalk" v="both"/>
    <tag k="source" v="Bing;survey"/>
    <tag k="surface" v="asphalt"/>
  </way>
  <way id="4641051" version="8" timestamp="2025-03-17T14:03:28Z" changeset="163733913" uid="16721418" user="SmithyScotland">
    <nd ref="24942518"/>
    <nd ref="12673120897"/>
    <nd ref="24942521"/>
    <tag k="highway" v="residential"/>
    <tag k="lit" v="yes"/>
    <tag k="maxspeed" v="20 mph"/>
    <tag k="name" v="Wardlaw Street"/>
    <tag k="sidewalk" v="both"/>
    <tag k="source" v="Bing;survey"/>
    <tag k="surface" v="asphalt"/>
  </way>
  <way id="4641052" version="11" timestamp="2025-03-22T14:22:34Z" changeset="163949702" uid="16721418" user="SmithyScotland">
    <nd ref="24942515"/>
    <nd ref="12691020872"/>
    <nd ref="3639574227"/>
    <nd ref="3639574230"/>
    <nd ref="24942516"/>
    <nd ref="3639575581"/>
    <nd ref="4875840756"/>
    <nd ref="4875840755"/>
    <nd ref="4875840754"/>
    <nd ref="4875840746"/>
    <tag k="highway" v="residential"/>
    <tag k="lit" v="yes"/>
    <tag k="maxspeed" v="20 mph"/>
    <tag k="name" v="White Park"/>
    <tag k="sidewalk" v="both"/>
    <tag k="source" v="Bing;survey"/>
    <tag k="surface" v="asphalt"/>
  </way>
  <way id="4641053" version="6" timestamp="2025-03-17T14:03:28Z" changeset="163733913" uid="16721418" user="SmithyScotland">
    <nd ref="602461"/>
    <nd ref="12673120898"/>
    <nd ref="24942514"/>
    <tag k="highway" v="residential"/>
    <tag k="maxspeed" v="20 mph"/>
    <tag k="name" v="Newton Street"/>
    <tag k="sidewalk" v="both"/>
    <tag k="source" v="Bing;survey"/>
    <tag k="surface" v="sett"/>
  </way>
  <way id="4806900" version="9" timestamp="2024-08-12T18:15:59Z" changeset="155162383" uid="21143475" user="Htf4">
    <nd ref="1699540165"/>
    <nd ref="4557339191"/>
    <nd ref="2266150523"/>
    <nd ref="1003387"/>
    <tag k="highway" v="residential"/>
    <tag k="lit" v="yes"/>
    <tag k="maxspeed" v="20 mph"/>
    <tag k="name" v="Murieston Road"/>
    <tag k="parking:condition:both" v="residents"/>
    <tag k="parking:condition:both:default" v="free"/>
    <tag k="parking:condition:both:residents" v="S4"/>
    <tag k="parking:condition:both:time_interval" v="Mo-Fr 08:30-17:30"/>
    <tag k="sidewalk" v="both"/>
    <tag k="surface" v="asphalt"/>
  </way>
  <way id="4806901" version="11" timestamp="2024-08-04T11:26:01Z" changeset="154807651" uid="21143475" user="Htf4">
    <nd ref="1003387"/>
    <nd ref="2266150525"/>
    <nd ref="3329770789"/>
    <nd ref="6937725652"/>
    <nd ref="3329758646"/>
    <nd ref="2266150529"/>
    <tag k="highway" v="residential"/>
    <tag k="lit" v="yes"/>
    <tag k="maxspeed" v="20 mph"/>
    <tag k="name" v="Murieston Place"/>
    <tag k="parking:condition:both" v="residents"/>
    <tag k="parking:condition:both:default" v="free"/>
    <tag k="parking:condition:both:residents" v="S4"/>
    <tag k="parking:condition:both:time_interval" v="Mo-Fr 08:30-17:30"/>
    <tag k="sidewalk" v="both"/>
    <tag k="surface" v="asphalt"/>
  </way>
  <way id="4936351" version="12" timestamp="2024-08-18T10:29:20Z" changeset="155407157" uid="45452" user="Simon Eilting">
    <nd ref="24943632"/>
    <nd ref="3328407198"/>
    <nd ref="4889286667"/>
    <nd ref="3328407216"/>
    <tag k="cycleway:both" v="no"/>
    <tag k="highway" v="residential"/>
    <tag k="maxspeed" v="20 mph"/>
    <tag k="name" v="Washington Lane"/>
    <tag k="surface" v="sett"/>
  </way>
  <way id="4936352" version="13" timestamp="2021-01-17T11:58:20Z" changeset="97634477" uid="53626" user="jambamkin">
    <nd ref="25755903"/>
    <nd ref="7389928493"/>
    <nd ref="2364206028"/>
    <nd ref="3701851312"/>
    <nd ref="3701851313"/>
    <nd ref="3703084682"/>
    <nd ref="25755902"/>
    <tag k="cycleway:both" v="no"/>
    <tag k="highway" v="residential"/>
    <tag k="lit" v="yes"/>
    <tag k="maxspeed" v="20 mph"/>
    <tag k="name" v="West End Place"/>
    <tag k="surface" v="asphalt"/>
  </way>
  <way id="4936465" version="10" timestamp="2017-06-01T18:33:05Z" changeset="49173475" uid="2234934" user="sophiemccallum">
    <nd ref="24667522"/>
    <nd ref="2375455096"/>
    <nd ref="4890365748"/>
    <nd ref="24668770"/>
    <tag k="highway" v="residential"/>
    <tag k="maxspeed" v="20 mph"/>
    <tag k="name" v="Orwell Terrace"/>
    <tag k="source" v="Bing;survey"/>
  </way>
  <way id="4936969" version="12" timestamp="2025-03-22T14:22:34Z" changeset="163949702" uid="16721418" user="SmithyScotland">
    <nd ref="24942538"/>
    <nd ref="3459735770"/>
    <nd ref="387266756"/>
    <tag k="highway" v="residential"/>
    <tag k="lane_markings" v="no"/>
    <tag k="name" v="Tynecastle Terrace"/>
    <tag k="sidewalk" v="both"/>
    <tag k="surface" v="asphalt"/>
  </way>
  <way id="5001383" version="28" timestamp="2024-08-27T16:46:49Z" changeset="155841699" uid="21762849" user="jSeke">
    <nd ref="602461"/>
    <nd ref="3382452440"/>
    <nd ref="2375394203"/>
    <nd ref="3459735790"/>
    <nd ref="2398541682"/>
    <nd ref="3459735792"/>
    <nd ref="24942540"/>
    <nd ref="3459740797"/>
    <nd ref="3459740799"/>
    <nd ref="24943772"/>
    <nd ref="24943774"/>
    <nd ref="3851590033"/>
    <nd ref="8241598655"/>
    <nd ref="24942558"/>
    <nd ref="2192558990"/>
    <nd ref="2362574347"/>
    <nd ref="8241598657"/>
    <nd ref="3382452441"/>
    <nd ref="8241598656"/>
    <nd ref="3637948009"/>
    <nd ref="3637948010"/>
    <nd ref="501896800"/>
    <tag k="cycleway" v="lane"/>
    <tag k="highway" v="primary"/>
    <tag k="lanes" v="2"/>
    <tag k="lit" v="yes"/>
    <tag k="maxheight" v="default"/>
    <tag k="maxspeed" v="20 mph"/>
    <tag k="name" v="Gorgie Road"/>
    <tag k="name:gd" v="Rathad Ghorgain"/>
    <tag k="ref" v="A71"/>
    <tag k="sidewalk" v="both"/>
    <tag k="source" v="Bing;survey"/>
    <tag k="surface" v="asphalt"/>
  </way>
  <way id="5001411" version="15" timestamp="2020-01-14T22:34:49Z" changeset="79584702" uid="2127380" user="jdtoy">
    <nd ref="606189"/>
    <nd ref="805649539"/>
    <nd ref="805649526"/>
    <nd ref="2375478720"/>
    <nd ref="2375478717"/>
    <nd ref="2398530369"/>
    <nd ref="33216831"/>
    <tag k="bicycle" v="no"/>
    <tag k="foot" v="no"/>
    <tag k="highway" v="tertiary"/>
    <tag k="lanes" v="2"/>
    <tag k="lit" v="yes"/>
    <tag k="maxspeed" v="30 mph"/>
    <tag k="name" v="West Approach Road"/>
    <tag k="source" v="OS_OpenData_StreetView"/>
    <tag k="surface" v="asphalt"/>
  </way>
  <way id="5001412" version="12" timestamp="2019-10-21T10:15:49Z" changeset="75987014" uid="8155596" user="Lanthanus">
    <nd ref="33216831"/>
    <nd ref="606188"/>
    <tag k="bicycle" v="no"/>
    <tag k="bridge" v="yes"/>
    <tag k="foot" v="no"/>
    <tag k="highway" v="tertiary"/>
    <tag k="lanes" v="2"/>
    <tag k="layer" v="1"/>
    <tag k="lit" v="yes"/>
    <tag k="maxspeed" v="30 mph"/>
    <tag k="name" v="West Approach Road"/>
    <tag k="source" v="OS_OpenData_StreetView"/>
    <tag k="surface" v="asphalt"/>
  </way>
  <way id="5014297" version="10" timestamp="2024-01-31T09:54:25Z" changeset="146896688" uid="8556201" user="LonMcGregor">
    <nd ref="24942472"/>
    <nd ref="8905240677"/>
    <nd ref="24942471"/>
    <nd ref="24942470"/>
    <tag k="highway" v="residential"/>
    <tag k="lit" v="yes"/>
    <tag k="maxspeed" v="20 mph"/>
    <tag k="name" v="Wheatfield Road"/>
    <tag k="parking:both" v="lane"/>
    <tag k="parking:both:orientation" v="parallel"/>
    <tag k="sidewalk" v="both"/>
    <tag k="surface" v="asphalt"/>
  </way>
  <way id="5014298" version="13" timestamp="2024-12-23T12:21:39Z" changeset="160536139" uid="16721418" user="SmithyScotland">
    <nd ref="24942466"/>
    <nd ref="3720321819"/>
    <nd ref="3720321824"/>
    <nd ref="24942467"/>
    <nd ref="2560099842"/>
    <nd ref="1129288511"/>
    <nd ref="3720325250"/>
    <nd ref="3720325256"/>
    <nd ref="24942469"/>
    <tag k="highway" v="residential"/>
    <tag k="lit" v="yes"/>
    <tag k="maxheight" v="4.4"/>
    <tag k="maxheight:signed" v="no"/>
    <tag k="maxspeed" v="20 mph"/>
    <tag k="name" v="Wheatfield Road"/>
  </way>
  <way id="5014299" version="10" timestamp="2024-07-31T21:42:06Z" changeset="154669343" uid="21143475" user="Htf4">
    <nd ref="24942471"/>
    <nd ref="24942473"/>
    <nd ref="24942475"/>
    <tag k="highway" v="residential"/>
    <tag k="lit" v="yes"/>
    <tag k="maxspeed" v="20 mph"/>
    <tag k="name" v="Wheatfield Place"/>
    <tag k="parking:both" v="lane"/>
    <tag k="parking:both:orientation" v="parallel"/>
    <tag k="sidewalk" v="both"/>
    <tag k="surface" v="sett"/>
  </way>
  <way id="5014300" version="10" timestamp="2023-12-04T03:11:10Z" changeset="144738565" uid="20647594" user="alakbarz">
    <nd ref="24942476"/>
    <nd ref="3459925153"/>
    <nd ref="24942477"/>
    <tag k="highway" v="residential"/>
    <tag k="lanes" v="2"/>
    <tag k="lit" v="yes"/>
    <tag k="maxspeed" v="20 mph"/>
    <tag k="name" v="Wheatfield Terrace"/>
    <tag k="parking:both" v="lane"/>
    <tag k="parking:both:orientation" v="parallel"/>
    <tag k="sidewalk" v="left"/>
    <tag k="surface" v="sett"/>
  </way>
  <way id="5014301" version="11" timestamp="2024-08-08T18:09:26Z" changeset="154991709" uid="21143475" user="Htf4">
    <nd ref="24942473"/>
    <nd ref="1129288514"/>
    <nd ref="24942474"/>
    <tag k="cycleway:both" v="no"/>
    <tag k="highway" v="residential"/>
    <tag k="lit" v="yes"/>
    <tag k="maxspeed" v="20 mph"/>
    <tag k="name" v="Smithfield Street"/>
    <tag k="parking:both" v="lane"/>
    <tag k="parking:left:orientation" v="parallel"/>
    <tag k="parking:right:orientation" v="perpendicular"/>
    <tag k="sidewalk" v="both"/>
    <tag k="surface" v="sett"/>
  </way>
  <way id="5014302" version="12" timestamp="2024-08-04T14:30:20Z" changeset="154815318" uid="21143475" user="Htf4">
    <nd ref="24942480"/>
    <nd ref="3924352520"/>
    <nd ref="1126465788"/>
    <nd ref="1126465803"/>
    <nd ref="3382228989"/>
    <nd ref="24942479"/>
    <tag k="cycleway:both" v="no"/>
    <tag k="highway" v="residential"/>
    <tag k="lit" v="yes"/>
    <tag k="maxspeed" v="20 mph"/>
    <tag k="name" v="Westfield Street"/>
    <tag k="surface" v="sett"/>
  </way>
  <way id="5014303" version="8" timestamp="2017-05-25T09:42:40Z" changeset="48968229" uid="2234934" user="sophiemccallum">
    <nd ref="24942527"/>
    <nd ref="4875696907"/>
    <nd ref="4875696911"/>
    <nd ref="24942528"/>
    <nd ref="4875696821"/>
    <nd ref="4875696912"/>
    <nd ref="24942529"/>
    <tag k="highway" v="residential"/>
    <tag k="lit" v="yes"/>
    <tag k="maxspeed" v="20 mph"/>
    <tag k="name" v="Sinclair Place"/>
    <tag k="source" v="Bing;survey"/>
  </way>
  <way id="5014304" version="8" timestamp="2017-05-24T16:06:21Z" changeset="48951459" uid="2234934" user="sophiemccallum">
    <nd ref="24942500"/>
    <nd ref="4874458771"/>
    <nd ref="3924327799"/>
    <nd ref="24942502"/>
    <nd ref="4874458770"/>
    <nd ref="24942501"/>
    <tag k="highway" v="residential"/>
    <tag k="lit" v="yes"/>
    <tag k="maxspeed" v="20 mph"/>
    <tag k="name" v="Sinclair Place"/>
    <tag k="surface" v="paving_stones"/>
  </way>
  <way id="5014305" version="14" timestamp="2017-05-24T16:06:21Z" changeset="48951459" uid="2234934" user="sophiemccallum">
    <nd ref="24942492"/>
    <nd ref="3924327863"/>
    <nd ref="3382452248"/>
    <nd ref="4874459238"/>
    <nd ref="24942493"/>
    <nd ref="4874459237"/>
    <nd ref="24942497"/>
    <nd ref="3924327876"/>
    <nd ref="4874459236"/>
    <nd ref="3924327869"/>
    <nd ref="4874459239"/>
    <nd ref="4874459241"/>
    <nd ref="4874459240"/>
    <nd ref="24942498"/>
    <nd ref="24942500"/>
    <nd ref="24942504"/>
    <nd ref="4872300926"/>
    <nd ref="3924327783"/>
    <nd ref="4872300927"/>
    <nd ref="24942506"/>
    <nd ref="1369869304"/>
    <nd ref="4872239785"/>
    <nd ref="4872239786"/>
    <nd ref="24942510"/>
    <nd ref="4872473411"/>
    <nd ref="4872347023"/>
    <nd ref="24942509"/>
    <tag k="highway" v="residential"/>
    <tag k="lit" v="yes"/>
    <tag k="maxspeed" v="20 mph"/>
    <tag k="name" v="Sinclair Place"/>
    <tag k="surface" v="paving_stones"/>
  </way>
  <way id="5014306" version="8" timestamp="2017-05-25T09:42:40Z" changeset="48968229" uid="2234934" user="sophiemccallum">
    <nd ref="24942493"/>
    <nd ref="3459914044"/>
    <nd ref="4875696886"/>
    <nd ref="3459914048"/>
    <nd ref="3924327904"/>
    <nd ref="3924327914"/>
    <nd ref="24942494"/>
    <tag k="highway" v="residential"/>
    <tag k="lit" v="yes"/>
    <tag k="maxspeed" v="20 mph"/>
    <tag k="name" v="Sinclair Place"/>
    <tag k="source" v="Bing;survey"/>
  </way>
  <way id="5014307" version="8" timestamp="2017-05-23T15:07:11Z" changeset="48919837" uid="2234934" user="sophiemccallum">
    <nd ref="24942510"/>
    <nd ref="4872345719"/>
    <nd ref="4872239787"/>
    <nd ref="24942511"/>
    <nd ref="24942513"/>
    <tag k="highway" v="residential"/>
    <tag k="lit" v="yes"/>
    <tag k="maxspeed" v="20 mph"/>
    <tag k="name" v="Sinclair Place"/>
    <tag k="surface" v="paving_stones"/>
  </way>
  <way id="5014308" version="7" timestamp="2017-05-23T14:22:37Z" changeset="48918726" uid="2234934" user="sophiemccallum">
    <nd ref="24942506"/>
    <nd ref="4872239820"/>
    <nd ref="4872239816"/>
    <nd ref="24942507"/>
    <nd ref="4872239818"/>
    <nd ref="4872239817"/>
    <nd ref="4872239815"/>
    <nd ref="4872239819"/>
    <nd ref="4872239810"/>
    <nd ref="24942508"/>
    <tag k="highway" v="residential"/>
    <tag k="lit" v="yes"/>
    <tag k="maxspeed" v="20 mph"/>
    <tag k="name" v="Sinclair Place"/>
    <tag k="surface" v="paving_stones"/>
  </way>
  <way id="5014309" version="8" timestamp="2025-04-27T03:43:37Z" changeset="165489007" uid="22810574" user="MagicMapper">
    <nd ref="24942526"/>
    <nd ref="4872241527"/>
    <nd ref="4872241543"/>
    <nd ref="4872241526"/>
    <nd ref="24942532"/>
    <tag k="highway" v="residential"/>
    <tag k="lit" v="yes"/>
    <tag k="maxspeed" v="20 mph"/>
    <tag k="name" v="Sinclair Gardens"/>
    <tag k="parking:both" v="street_side"/>
    <tag k="parking:both:orientation" v="perpendicular"/>
    <tag k="sidewalk" v="no"/>
    <tag k="surface" v="paving_stones"/>
  </way>
  <way id="5014310" version="8" timestamp="2017-05-23T16:28:03Z" changeset="48921841" uid="2234934" user="sophiemccallum">
    <nd ref="3894352871"/>
    <nd ref="4872473397"/>
    <nd ref="24942534"/>
    <nd ref="4022442250"/>
    <nd ref="3382228972"/>
    <nd ref="4872473398"/>
    <nd ref="4022442248"/>
    <nd ref="3382228971"/>
    <nd ref="4022442246"/>
    <nd ref="4022442244"/>
    <nd ref="3382228969"/>
    <nd ref="24942524"/>
    <tag k="highway" v="residential"/>
    <tag k="lit" v="yes"/>
    <tag k="maxspeed" v="20 mph"/>
    <tag k="name" v="Sinclair Close"/>
    <tag k="surface" v="paving_stones"/>
  </way>
  <way id="5014311" version="7" timestamp="2017-05-23T16:28:03Z" changeset="48921841" uid="2234934" user="sophiemccallum">
    <nd ref="24942502"/>
    <nd ref="4872473391"/>
    <nd ref="24942503"/>
    <tag k="highway" v="residential"/>
    <tag k="lit" v="yes"/>
    <tag k="maxspeed" v="20 mph"/>
    <tag k="name" v="Sinclair Place"/>
    <tag k="surface" v="paving_stones"/>
  </way>
  <way id="5014312" version="8" timestamp="2017-05-24T16:18:50Z" changeset="48951772" uid="2234934" user="sophiemccallum">
    <nd ref="24942498"/>
    <nd ref="4874458820"/>
    <nd ref="4874458819"/>
    <nd ref="4874479425"/>
    <nd ref="4874479426"/>
    <nd ref="24942499"/>
    <tag k="highway" v="residential"/>
    <tag k="lit" v="yes"/>
    <tag k="maxspeed" v="20 mph"/>
    <tag k="name" v="Sinclair Place"/>
    <tag k="surface" v="paving_stones"/>
  </way>
  <way id="5014313" version="7" timestamp="2017-05-23T16:28:03Z" changeset="48921841" uid="2234934" user="sophiemccallum">
    <nd ref="24942504"/>
    <nd ref="4872473353"/>
    <nd ref="4872473357"/>
    <nd ref="24942505"/>
    <tag k="highway" v="residential"/>
    <tag k="lit" v="yes"/>
    <tag k="maxspeed" v="20 mph"/>
    <tag k="name" v="Sinclair Place"/>
    <tag k="surface" v="paving_stones"/>
  </way>
  <way id="5014314" version="8" timestamp="2017-05-23T15:07:11Z" changeset="48919837" uid="2234934" user="sophiemccallum">
    <nd ref="24942511"/>
    <nd ref="4872347030"/>
    <nd ref="4872347035"/>
    <nd ref="24942512"/>
    <tag k="highway" v="residential"/>
    <tag k="lit" v="yes"/>
    <tag k="maxspeed" v="20 mph"/>
    <tag k="name" v="Sinclair Place"/>
    <tag k="source" v="Bing;survey"/>
    <tag k="surface" v="paving_stones"/>
  </way>
  <way id="5144707" version="13" timestamp="2023-12-30T18:25:45Z" changeset="145708451" uid="20600508" user="Annie_11">
    <nd ref="30349905"/>
    <nd ref="8399385301"/>
    <nd ref="10670921372"/>
    <nd ref="10655850501"/>
    <nd ref="8399388428"/>
    <nd ref="35675569"/>
    <tag k="cycleway:both" v="no"/>
    <tag k="highway" v="unclassified"/>
    <tag k="incline" v="up"/>
    <tag k="lanes" v="2"/>
    <tag k="lit" v="yes"/>
    <tag k="maxspeed" v="20 mph"/>
    <tag k="name" v="Sauchiebank"/>
    <tag k="sidewalk" v="right"/>
    <tag k="surface" v="asphalt"/>
  </way>
  <way id="5144708" version="9" timestamp="2023-12-30T18:25:46Z" changeset="145708451" uid="20600508" user="Annie_11">
    <nd ref="35675571"/>
    <nd ref="35675569"/>
    <nd ref="8399388430"/>
    <nd ref="8399388429"/>
    <nd ref="35675570"/>
    <tag k="cycleway:both" v="no"/>
    <tag k="highway" v="unclassified"/>
    <tag k="lanes" v="2"/>
    <tag k="lit" v="yes"/>
    <tag k="maxspeed" v="20 mph"/>
    <tag k="name" v="Sauchiebank"/>
    <tag k="sidewalk" v="no"/>
    <tag k="surface" v="asphalt"/>
  </way>
  <way id="5197312" version="11" timestamp="2025-03-17T14:03:28Z" changeset="163733913" uid="16721418" user="SmithyScotland">
    <nd ref="24942475"/>
    <nd ref="7634903189"/>
    <nd ref="24942476"/>
    <nd ref="12673120895"/>
    <nd ref="24942478"/>
    <tag k="highway" v="residential"/>
    <tag k="lanes" v="2"/>
    <tag k="lit" v="yes"/>
    <tag k="maxspeed" v="20 mph"/>
    <tag k="name" v="Wheatfield Street"/>
    <tag k="parking:both" v="lane"/>
    <tag k="parking:both:orientation" v="parallel"/>
    <tag k="sidewalk" v="both"/>
    <tag k="surface" v="sett"/>
  </way>
  <way id="5197318" version="13" timestamp="2019-10-21T10:15:56Z" changeset="75987014" uid="8155596" user="Lanthanus">
    <nd ref="606188"/>
    <nd ref="2375478715"/>
    <nd ref="606187"/>
    <tag k="bicycle" v="no"/>
    <tag k="foot" v="no"/>
    <tag k="highway" v="tertiary"/>
    <tag k="lanes" v="2"/>
    <tag k="lit" v="yes"/>
    <tag k="maxspeed" v="30 mph"/>
    <tag k="name" v="West Approach Road"/>
    <tag k="source" v="OS_OpenData_StreetView"/>
    <tag k="surface" v="asphalt"/>
  </way>
  <way id="5197319" version="10" timestamp="2021-03-10T09:08:13Z" changeset="100764865" uid="52797" user="hofoen">
    <nd ref="606185"/>
    <nd ref="606184"/>
    <tag k="bicycle" v="no"/>
    <tag k="bridge" v="yes"/>
    <tag k="foot" v="no"/>
    <tag k="heritage" v="yes"/>
    <tag k="highway" v="tertiary"/>
    <tag k="lanes" v="2"/>
    <tag k="layer" v="1"/>
    <tag k="lit" v="yes"/>
    <tag k="maxspeed" v="40 mph"/>
    <tag k="name" v="West Approach Road"/>
    <tag k="source" v="OS_OpenData_StreetView"/>
    <tag k="surface" v="asphalt"/>
    <tag k="wikidata" v="Q17807640"/>
  </way>
  <way id="23143571" version="5" timestamp="2021-02-06T11:37:03Z" changeset="98809315" uid="388774" user="drnoble">
    <nd ref="24942523"/>
    <nd ref="24942522"/>
    <nd ref="24942521"/>
    <tag k="highway" v="residential"/>
    <tag k="lanes" v="2"/>
    <tag k="lit" v="yes"/>
    <tag k="maxspeed" v="20 mph"/>
    <tag k="name" v="Wardlaw Terrace"/>
    <tag k="sidewalk" v="left"/>
    <tag k="surface" v="asphalt"/>
  </way>
  <way id="23143573" version="13" timestamp="2019-10-21T10:17:25Z" changeset="75987014" uid="8155596" user="Lanthanus">
    <nd ref="249966951"/>
    <nd ref="3703061020"/>
    <nd ref="3703084633"/>
    <nd ref="606178"/>
    <tag k="bicycle" v="no"/>
    <tag k="foot" v="no"/>
    <tag k="highway" v="tertiary"/>
    <tag k="lanes" v="1"/>
    <tag k="lit" v="yes"/>
    <tag k="maxspeed" v="20 mph"/>
    <tag k="maxweight" v="1.5"/>
    <tag k="name" v="West Approach Road"/>
    <tag k="oneway" v="yes"/>
    <tag k="source" v="OS_OpenData_StreetView"/>
    <tag k="surface" v="asphalt"/>
  </way>
  <way id="23158059" version="10" timestamp="2019-10-21T10:17:06Z" changeset="75987014" uid="8155596" user="Lanthanus">
    <nd ref="250234764"/>
    <nd ref="606182"/>
    <tag k="bicycle" v="no"/>
    <tag k="bridge" v="yes"/>
    <tag k="foot" v="no"/>
    <tag k="highway" v="tertiary"/>
    <tag k="lanes" v="2"/>
    <tag k="layer" v="1"/>
    <tag k="lit" v="yes"/>
    <tag k="maxspeed" v="40 mph"/>
    <tag k="name" v="West Approach Road"/>
    <tag k="source" v="OS_OpenData_StreetView"/>
    <tag k="surface" v="asphalt"/>
  </way>
  <way id="23186963" version="20" timestamp="2024-12-09T19:57:38Z" changeset="160105313" uid="9498565" user="CycleAlex">
    <nd ref="606180"/>
    <nd ref="2414424550"/>
    <nd ref="1226763308"/>
    <nd ref="2414424553"/>
    <nd ref="251812374"/>
    <nd ref="2414424555"/>
    <nd ref="2398530377"/>
    <nd ref="2414424556"/>
    <nd ref="251812375"/>
    <nd ref="2414424557"/>
    <nd ref="606179"/>
    <nd ref="2414424558"/>
    <nd ref="2398530382"/>
    <nd ref="3703061012"/>
    <nd ref="3703061023"/>
    <nd ref="3703084640"/>
    <nd ref="3703084647"/>
    <nd ref="606178"/>
    <nd ref="11998052941"/>
    <nd ref="2414424554"/>
    <nd ref="2414424551"/>
    <nd ref="2414424552"/>
    <nd ref="12408008988"/>
    <nd ref="1226763307"/>
    <nd ref="8305657903"/>
    <nd ref="2398530366"/>
    <tag k="bicycle" v="no"/>
    <tag k="foot" v="no"/>
    <tag k="highway" v="tertiary"/>
    <tag k="lanes" v="1"/>
    <tag k="lit" v="yes"/>
    <tag k="maxspeed" v="40 mph"/>
    <tag k="maxweight" v="1.5"/>
    <tag k="name" v="West Approach Road"/>
    <tag k="oneway" v="yes"/>
    <tag k="source" v="OS_OpenData_StreetView"/>
    <tag k="surface" v="asphalt"/>
  </way>
  <way id="23268778" version="14" timestamp="2019-10-21T10:17:10Z" changeset="75987014" uid="8155596" user="Lanthanus">
    <nd ref="606182"/>
    <nd ref="2398530371"/>
    <nd ref="805649553"/>
    <nd ref="3703084635"/>
    <nd ref="1226763315"/>
    <nd ref="2398530380"/>
    <nd ref="3703061021"/>
    <nd ref="251812100"/>
    <nd ref="3703061019"/>
    <nd ref="3703061016"/>
    <nd ref="3703061013"/>
    <nd ref="3703061009"/>
    <nd ref="606180"/>
    <tag k="bicycle" v="no"/>
    <tag k="foot" v="no"/>
    <tag k="highway" v="tertiary"/>
    <tag k="lanes" v="2"/>
    <tag k="lit" v="yes"/>
    <tag k="maxspeed" v="40 mph"/>
    <tag k="name" v="West Approach Road"/>
    <tag k="source" v="OS_OpenData_StreetView"/>
    <tag k="surface" v="asphalt"/>
  </way>
  <way id="23268804" version="16" timestamp="2019-10-21T10:17:16Z" changeset="75987014" uid="8155596" user="Lanthanus">
    <nd ref="24943629"/>
    <nd ref="2398530379"/>
    <nd ref="2414426778"/>
    <nd ref="1226763314"/>
    <nd ref="2414426779"/>
    <nd ref="2398530384"/>
    <nd ref="24943628"/>
    <nd ref="2398530378"/>
    <nd ref="2414426782"/>
    <nd ref="2414426781"/>
    <nd ref="251812295"/>
    <nd ref="2398530373"/>
    <nd ref="2414426780"/>
    <nd ref="1226763318"/>
    <nd ref="2414426783"/>
    <nd ref="251812294"/>
    <nd ref="606180"/>
    <tag k="bicycle" v="no"/>
    <tag k="foot" v="no"/>
    <tag k="highway" v="tertiary"/>
    <tag k="lanes" v="1"/>
    <tag k="lit" v="yes"/>
    <tag k="maxspeed" v="40 mph"/>
    <tag k="maxweight" v="1.5"/>
    <tag k="name" v="West Approach Road"/>
    <tag k="oneway" v="yes"/>
    <tag k="source" v="OS_OpenData_StreetView"/>
    <tag k="surface" v="asphalt"/>
  </way>
  <way id="41127498" version="10" timestamp="2024-09-14T09:32:34Z" changeset="156603293" uid="16721418" user="SmithyScotland">
    <nd ref="3329935897"/>
    <nd ref="3329935898"/>
    <nd ref="3329935894"/>
    <nd ref="3329935790"/>
    <nd ref="3329935785"/>
    <nd ref="3329935777"/>
    <nd ref="3329935783"/>
    <nd ref="3329935779"/>
    <nd ref="3329935775"/>
    <nd ref="3329935771"/>
    <nd ref="3329935776"/>
    <nd ref="3329935772"/>
    <nd ref="3329935770"/>
    <nd ref="501896796"/>
    <nd ref="3329935769"/>
    <nd ref="3329935767"/>
    <nd ref="3329935768"/>
    <nd ref="3329935773"/>
    <nd ref="3329935781"/>
    <nd ref="3329935778"/>
    <nd ref="3329935780"/>
    <nd ref="3329935782"/>
    <nd ref="3329935788"/>
    <nd ref="3329935786"/>
    <nd ref="3329935787"/>
    <nd ref="3329935789"/>
    <nd ref="3329935893"/>
    <nd ref="3329935791"/>
    <nd ref="3329935792"/>
    <nd ref="3329935896"/>
    <nd ref="3329935899"/>
    <nd ref="3329935895"/>
    <nd ref="501896797"/>
    <nd ref="3329935919"/>
    <nd ref="3329935921"/>
    <nd ref="3329935926"/>
    <nd ref="3329935928"/>
    <nd ref="3329935931"/>
    <nd ref="3329935930"/>
    <nd ref="3329935929"/>
    <nd ref="501896798"/>
    <nd ref="3329935925"/>
    <nd ref="3329935927"/>
    <nd ref="3329935924"/>
    <nd ref="3329935922"/>
    <nd ref="3329935920"/>
    <nd ref="3329935917"/>
    <nd ref="3329935918"/>
    <nd ref="3329935916"/>
    <nd ref="3329935915"/>
    <nd ref="3329935908"/>
    <nd ref="3329935911"/>
    <nd ref="3329935907"/>
    <nd ref="3329935912"/>
    <nd ref="3329935913"/>
    <nd ref="3329935914"/>
    <nd ref="3329935910"/>
    <nd ref="3329935904"/>
    <nd ref="3329935905"/>
    <nd ref="3329935903"/>
    <nd ref="3329935902"/>
    <nd ref="3329935897"/>
    <tag k="amenity" v="place_of_worship"/>
    <tag k="building" v="church"/>
    <tag k="check_date" v="2024-09-14"/>
    <tag k="denomination" v="scottish_episcopal"/>
    <tag k="heritage" v="yes"/>
    <tag k="name" v="Saint Martin of Tours Episcopal Church"/>
    <tag k="religion" v="christian"/>
    <tag k="source" v="NLS_OS_Edinburgh_map_1940s;Bing"/>
    <tag k="website" v="http://stmartinsedinburgh.org.uk/"/>
    <tag k="wikidata" v="Q17806061"/>
  </way>
  <way id="41225016" version="9" timestamp="2025-04-25T18:05:48Z" changeset="165436806" uid="22810574" user="MagicMapper">
    <nd ref="503719235"/>
    <nd ref="503719236"/>
    <nd ref="503719237"/>
    <nd ref="1226719980"/>
    <nd ref="503719238"/>
    <nd ref="503719235"/>
    <tag k="addr:housenumber" v="193"/>
    <tag k="addr:street" v="Dalry Road"/>
    <tag k="building" v="apartments"/>
    <tag k="building:levels" v="3"/>
  </way>
  <way id="41433586" version="8" timestamp="2020-02-17T12:56:19Z" changeset="81115466" uid="10788651" user="56th">
    <nd ref="506782291"/>
    <nd ref="506782292"/>
    <nd ref="506782293"/>
    <nd ref="3329758823"/>
    <nd ref="506782294"/>
    <tag k="highway" v="residential"/>
    <tag k="lit" v="yes"/>
    <tag k="maxspeed" v="20 mph"/>
    <tag k="name" v="Murieston Crescent Lane"/>
    <tag k="sidewalk" v="left"/>
    <tag k="surface" v="paving_stones"/>
  </way>
  <way id="42125191" version="6" timestamp="2024-08-24T14:17:10Z" changeset="155698419" uid="16721418" user="SmithyScotland">
    <nd ref="523762499"/>
    <nd ref="7093847190"/>
    <nd ref="523762500"/>
    <nd ref="4634480425"/>
    <nd ref="523762501"/>
    <nd ref="523762503"/>
    <nd ref="523762510"/>
    <nd ref="523762507"/>
    <nd ref="523762499"/>
    <tag k="addr:city" v="Edinburgh"/>
    <tag k="addr:housenumber" v="173"/>
    <tag k="addr:postcode" v="EH11 3AT"/>
    <tag k="addr:street" v="Balgreen Road"/>
    <tag k="amenity" v="library"/>
    <tag k="building" v="yes"/>
    <tag k="check_date" v="2024-08-24"/>
    <tag k="name" v="Balgreen Library"/>
  </way>
  <way id="43327356" version="9" timestamp="2023-09-06T16:51:21Z" changeset="140903961" uid="16721418" user="SmithyScotland">
    <nd ref="544535670"/>
    <nd ref="3329935938"/>
    <nd ref="3329935939"/>
    <nd ref="3329935941"/>
    <nd ref="3329935943"/>
    <nd ref="3329935945"/>
    <nd ref="3329935944"/>
    <nd ref="3329935946"/>
    <nd ref="3329935947"/>
    <nd ref="3329935949"/>
    <nd ref="3329935948"/>
    <nd ref="3329935951"/>
    <nd ref="3329935950"/>
    <nd ref="544535673"/>
    <nd ref="11172225950"/>
    <nd ref="3329953689"/>
    <nd ref="11172225949"/>
    <nd ref="3329935942"/>
    <nd ref="11172225948"/>
    <nd ref="3329935940"/>
    <nd ref="544535676"/>
    <nd ref="11172225947"/>
    <nd ref="3329935934"/>
    <nd ref="3329935936"/>
    <nd ref="544535678"/>
    <nd ref="11172225944"/>
    <nd ref="11172225943"/>
    <nd ref="3329935935"/>
    <nd ref="3329935933"/>
    <nd ref="11172228077"/>
    <nd ref="11172225945"/>
    <nd ref="11172225942"/>
    <nd ref="544535670"/>
    <tag k="building" v="detached"/>
    <tag k="building:levels" v="1"/>
    <tag k="heritage" v="yes"/>
    <tag k="name" v="Dalry Cemetery Lodge"/>
    <tag k="roof:levels" v="1"/>
    <tag k="source" v="NLS_OS_Edinburgh_map_1940s;Bing"/>
    <tag k="wikidata" v="Q17805944"/>
  </way>
  <way id="46194288" version="4" timestamp="2022-10-27T18:28:50Z" changeset="128142016" uid="4435" user="Chris Fleming">
    <nd ref="588985926"/>
    <nd ref="588985915"/>
    <nd ref="588985900"/>
    <nd ref="588985912"/>
    <nd ref="3342026755"/>
    <nd ref="588985926"/>
    <tag k="amenity" v="clinic"/>
    <tag k="building" v="yes"/>
    <tag k="healthcare" v="clinic"/>
    <tag k="healthcare:speciality" v="diagnostic;breast_screening"/>
    <tag k="name" v="Ardmillan House"/>
    <tag k="note" v="Breast screening"/>
    <tag k="operator" v="NHS Scotland"/>
    <tag k="operator:wikidata" v="Q16933548"/>
  </way>
  <way id="52056986" version="12" timestamp="2024-10-27T19:01:09Z" changeset="158427218" uid="16721418" user="SmithyScotland">
    <nd ref="663544081"/>
    <nd ref="2192558911"/>
    <nd ref="2192558912"/>
    <nd ref="2192558902"/>
    <nd ref="493515479"/>
    <nd ref="663544082"/>
    <nd ref="663544083"/>
    <nd ref="3342030963"/>
    <nd ref="3342030962"/>
    <nd ref="3342030965"/>
    <nd ref="2192558891"/>
    <nd ref="3342026754"/>
    <nd ref="2192558910"/>
    <nd ref="2192558913"/>
    <nd ref="2192558928"/>
    <nd ref="2192558932"/>
    <nd ref="663544084"/>
    <nd ref="663544081"/>
    <tag k="addr:city" v="Edinburgh"/>
    <tag k="addr:housenumber" v="39"/>
    <tag k="addr:postcode" v="EH11 2JL"/>
    <tag k="addr:street" v="Ardmillan Terrace"/>
    <tag k="amenity" v="doctors"/>
    <tag k="building" v="surgery"/>
    <tag k="check_date" v="2024-10-27"/>
    <tag k="healthcare" v="doctor"/>
    <tag k="name" v="Springwell Medical Centre"/>
    <tag k="opening_hours" v="Mo-Fr 08:00-18:00"/>
    <tag k="phone" v="+44 844 477 8712"/>
    <tag k="source" v="bing"/>
    <tag k="website" v="https://www.springwellmedical.org.uk/"/>
  </way>
  <way id="52944307" version="6" timestamp="2019-10-23T08:36:59Z" changeset="76088737" uid="8155596" user="Lanthanus">
    <nd ref="670861988"/>
    <nd ref="2334546392"/>
    <nd ref="2334546449"/>
    <nd ref="4899837738"/>
    <nd ref="2334546362"/>
    <nd ref="2334546461"/>
    <nd ref="2334546439"/>
    <nd ref="2334546380"/>
    <nd ref="4899837735"/>
    <nd ref="4899837737"/>
    <nd ref="4899837734"/>
    <nd ref="4899837736"/>
    <nd ref="2334546384"/>
    <tag k="highway" v="residential"/>
    <tag k="lit" v="yes"/>
    <tag k="maxspeed" v="20 mph"/>
    <tag k="name" v="Westfield Court"/>
    <tag k="surface" v="asphalt"/>
  </way>
  <way id="61333942" version="12" timestamp="2023-01-27T16:30:09Z" changeset="131780303" uid="16721418" user="SmithyScotland">
    <nd ref="2398544497"/>
    <nd ref="2398530375"/>
    <nd ref="614625"/>
    <tag k="bridge" v="yes"/>
    <tag k="cycleway:left" v="track"/>
    <tag k="highway" v="tertiary"/>
    <tag k="lanes" v="2"/>
    <tag k="layer" v="1"/>
    <tag k="lit" v="yes"/>
    <tag k="maxspeed" v="20 mph"/>
    <tag k="maxweight:signed" v="no"/>
    <tag k="name" v="Dundee Street"/>
    <tag k="sidewalk" v="both"/>
    <tag k="surface" v="asphalt"/>
  </way>
  <way id="61601839" version="4" timestamp="2020-02-17T13:10:57Z" changeset="81116344" uid="10788651" user="56th">
    <nd ref="768245634"/>
    <nd ref="768245641"/>
    <nd ref="768245620"/>
    <nd ref="768245643"/>
    <nd ref="768245634"/>
    <tag k="building" v="office"/>
    <tag k="building:levels" v="2"/>
    <tag k="name" v="Scottish Secondary Teacher's Association"/>
    <tag k="roof:levels" v="0"/>
  </way>
  <way id="61884105" version="8" timestamp="2021-02-06T11:37:03Z" changeset="98809315" uid="388774" user="drnoble">
    <nd ref="25160146"/>
    <nd ref="771222059"/>
    <nd ref="8399263431"/>
    <nd ref="25160149"/>
    <nd ref="25160146"/>
    <tag k="building" v="grandstand"/>
    <tag k="name" v="Roseburn Stand"/>
    <tag k="source" v="OS_OpenData _StreetView"/>
  </way>
  <way id="61884108" version="7" timestamp="2021-02-06T11:37:03Z" changeset="98809315" uid="388774" user="drnoble">
    <nd ref="771222065"/>
    <nd ref="25160157"/>
    <nd ref="8399263441"/>
    <nd ref="8399263440"/>
    <nd ref="25160155"/>
    <nd ref="5050498844"/>
    <nd ref="771222065"/>
    <tag k="building" v="grandstand"/>
    <tag k="name" v="Gorgie 'Family' Stand"/>
    <tag k="source" v="OS_OpenData _StreetView"/>
  </way>
  <way id="61884110" version="7" timestamp="2021-02-06T11:37:03Z" changeset="98809315" uid="388774" user="drnoble">
    <nd ref="25160127"/>
    <nd ref="771222077"/>
    <nd ref="771222071"/>
    <nd ref="25160159"/>
    <nd ref="387266714"/>
    <nd ref="25160127"/>
    <tag k="building" v="grandstand"/>
    <tag k="name" v="Wheatfield Stand"/>
    <tag k="source" v="OS_OpenData _StreetView"/>
  </way>
  <way id="61884114" version="7" timestamp="2024-10-23T09:05:43Z" changeset="158243243" uid="16721418" user="SmithyScotland">
    <nd ref="771222072"/>
    <nd ref="771222063"/>
    <nd ref="12281384440"/>
    <nd ref="12281384439"/>
    <nd ref="771222070"/>
    <nd ref="771222066"/>
    <nd ref="771222058"/>
    <nd ref="8399232497"/>
    <nd ref="8399232496"/>
    <nd ref="8399232495"/>
    <nd ref="8399232498"/>
    <nd ref="2549023411"/>
    <nd ref="2549023413"/>
    <nd ref="771222079"/>
    <nd ref="771222073"/>
    <nd ref="771222067"/>
    <nd ref="771222060"/>
    <nd ref="771222082"/>
    <nd ref="771222075"/>
    <nd ref="771222072"/>
    <tag k="addr:city" v="Edinburgh"/>
    <tag k="addr:housenumber" v="17"/>
    <tag k="addr:postcode" v="EH11 2NJ"/>
    <tag k="addr:street" v="McLeod Street"/>
    <tag k="building" v="yes"/>
    <tag k="name" v="Former Tynecastle High School"/>
    <tag k="source" v="OS_OpenData _StreetView"/>
  </way>
  <way id="61884319" version="4" timestamp="2021-02-06T11:37:03Z" changeset="98809315" uid="388774" user="drnoble">
    <nd ref="771223808"/>
    <nd ref="771223822"/>
    <nd ref="771223804"/>
    <nd ref="3459925157"/>
    <nd ref="3459925158"/>
    <nd ref="8399263437"/>
    <nd ref="3459925161"/>
    <nd ref="3459925160"/>
    <nd ref="771223873"/>
    <nd ref="771223808"/>
    <tag k="amenity" v="place_of_worship"/>
    <tag k="building" v="yes"/>
    <tag k="denomination" v="evangelical"/>
    <tag k="name" v="Gorgie Mission"/>
    <tag k="religion" v="christian"/>
    <tag k="source" v="NLS_OS_Edinburgh_map_1940s;Bing;survey"/>
    <tag k="website" v="http://gorgiemissionchurch.com/"/>
  </way>
  <way id="61884321" version="8" timestamp="2025-03-22T12:08:31Z" changeset="163944549" uid="16721418" user="SmithyScotland">
    <nd ref="771223860"/>
    <nd ref="2530347605"/>
    <nd ref="771223874"/>
    <nd ref="4116691659"/>
    <nd ref="4116691661"/>
    <nd ref="4116691664"/>
    <nd ref="4116691662"/>
    <nd ref="4116691663"/>
    <nd ref="4116691665"/>
    <nd ref="4116691668"/>
    <nd ref="4116691666"/>
    <nd ref="4116691667"/>
    <nd ref="4116691669"/>
    <nd ref="771223856"/>
    <nd ref="4116691670"/>
    <nd ref="4116691671"/>
    <nd ref="4116691673"/>
    <nd ref="4116691672"/>
    <nd ref="4116691676"/>
    <nd ref="4116691677"/>
    <nd ref="4116691680"/>
    <nd ref="4116691678"/>
    <nd ref="4116691682"/>
    <nd ref="4116691683"/>
    <nd ref="4116691685"/>
    <nd ref="4116691684"/>
    <nd ref="4116691686"/>
    <nd ref="4116691687"/>
    <nd ref="771223831"/>
    <nd ref="4116691989"/>
    <nd ref="4116691990"/>
    <nd ref="4116691688"/>
    <nd ref="4116691991"/>
    <nd ref="771223860"/>
    <tag k="addr:city" v="Edinburgh"/>
    <tag k="addr:housenumber" v="190-192"/>
    <tag k="addr:postcode" v="EH11 2NX"/>
    <tag k="addr:street" v="Gorgie Road"/>
    <tag k="amenity" v="place_of_worship"/>
    <tag k="building" v="church"/>
    <tag k="check_date" v="2025-03-22"/>
    <tag k="denomination" v="church_of_scotland"/>
    <tag k="name" v="Gorgie Dalry Stenhouse (GDS) Church"/>
    <tag k="religion" v="christian"/>
    <tag k="wikidata" v="Q17806563"/>
  </way>
  <way id="71951249" version="18" timestamp="2025-03-11T13:40:24Z" changeset="163485541" uid="22459109" user="MainFlag0681">
    <nd ref="855236943"/>
    <nd ref="3261706018"/>
    <nd ref="1129288606"/>
    <nd ref="2560095796"/>
    <nd ref="2560095785"/>
    <nd ref="6329316293"/>
    <nd ref="855236902"/>
    <nd ref="2560095788"/>
    <nd ref="855236855"/>
    <nd ref="855236911"/>
    <nd ref="855236948"/>
    <nd ref="855236872"/>
    <nd ref="855236959"/>
    <nd ref="855236874"/>
    <nd ref="855236919"/>
    <nd ref="855236866"/>
    <nd ref="855236843"/>
    <nd ref="855236907"/>
    <nd ref="1126465814"/>
    <nd ref="855236859"/>
    <nd ref="855236916"/>
    <nd ref="4899778579"/>
    <nd ref="855236952"/>
    <nd ref="855236943"/>
    <tag k="addr:city" v="Edinburgh"/>
    <tag k="addr:country" v="GB"/>
    <tag k="addr:housenumber" v="39"/>
    <tag k="addr:postcode" v="EH11 2QW"/>
    <tag k="addr:street" v="Westfield Road"/>
    <tag k="brand" v="Sainsbury's"/>
    <tag k="brand:wikidata" v="Q152096"/>
    <tag k="brand:wikipedia" v="en:Sainsbury's"/>
    <tag k="building" v="yes"/>
    <tag k="check_date" v="2024-10-20"/>
    <tag k="fhrs:id" v="662074"/>
    <tag k="money_transfer" v="western_union"/>
    <tag k="money_transfer:website" v="https://location.westernunion.com/gb/midlothian/edinburgh/5450409e16e4dad388e9f96b1f3303a2"/>
    <tag k="name" v="Sainsbury's"/>
    <tag k="opening_hours" v="Mo-Sa 07:00-22:00; Su 08:00-22:00"/>
    <tag k="shop" v="supermarket"/>
    <tag k="website" v="https://stores.sainsburys.co.uk/2154/murrayfield"/>
    <tag k="wheelchair" v="yes"/>
  </way>
  <way id="71951250" version="4" timestamp="2017-06-06T14:17:23Z" changeset="49306735" uid="2234934" user="sophiemccallum">
    <nd ref="855236876"/>
    <nd ref="4899778577"/>
    <nd ref="4899778578"/>
    <nd ref="4009572992"/>
    <nd ref="855236955"/>
    <nd ref="855236910"/>
    <nd ref="855236964"/>
    <nd ref="855236869"/>
    <nd ref="855236939"/>
    <nd ref="855236876"/>
    <tag k="building" v="yes"/>
    <tag k="name" v="BMC Social Club"/>
  </way>
  <way id="74755174" version="9" timestamp="2020-11-01T17:05:55Z" changeset="93375550" uid="388774" user="drnoble">
    <nd ref="883172832"/>
    <nd ref="3720347323"/>
    <nd ref="8071956843"/>
    <nd ref="883172695"/>
    <nd ref="883172708"/>
    <nd ref="883172737"/>
    <nd ref="883172796"/>
    <nd ref="883172698"/>
    <nd ref="883172770"/>
    <nd ref="883172733"/>
    <nd ref="883172829"/>
    <nd ref="883172712"/>
    <nd ref="883172700"/>
    <nd ref="883172795"/>
    <nd ref="883172739"/>
    <nd ref="883172728"/>
    <nd ref="883172692"/>
    <nd ref="883172824"/>
    <nd ref="883172734"/>
    <nd ref="883172740"/>
    <tag k="highway" v="residential"/>
    <tag k="lit" v="yes"/>
    <tag k="maxspeed" v="20 mph"/>
    <tag k="name" v="Robertson Gait"/>
    <tag k="surface" v="asphalt"/>
  </way>
  <way id="97245959" version="5" timestamp="2016-01-02T21:07:20Z" changeset="36327112" uid="388774" user="drnoble">
    <nd ref="1126465787"/>
    <nd ref="1126465802"/>
    <nd ref="3734737101"/>
    <nd ref="3734737096"/>
    <nd ref="3734737097"/>
    <nd ref="3734737102"/>
    <nd ref="3734737112"/>
    <nd ref="3734737105"/>
    <nd ref="3734737110"/>
    <nd ref="1126465798"/>
    <nd ref="3734737115"/>
    <nd ref="3734737113"/>
    <nd ref="3734737114"/>
    <nd ref="3734737116"/>
    <nd ref="3734737120"/>
    <nd ref="3734737118"/>
    <nd ref="3734737119"/>
    <nd ref="3734737121"/>
    <nd ref="1126465801"/>
    <nd ref="1126465781"/>
    <nd ref="3924352485"/>
    <nd ref="1126465776"/>
    <nd ref="3734737257"/>
    <nd ref="3734737253"/>
    <nd ref="3734737247"/>
    <nd ref="3734737252"/>
    <nd ref="3734737248"/>
    <nd ref="3734737246"/>
    <nd ref="3734737243"/>
    <nd ref="3734737251"/>
    <nd ref="3734737249"/>
    <nd ref="3734737244"/>
    <nd ref="3734737237"/>
    <nd ref="3734737240"/>
    <nd ref="3734737239"/>
    <nd ref="3734737236"/>
    <nd ref="1126465787"/>
    <tag k="addr:city" v="Edinburgh"/>
    <tag k="addr:housenumber" v="338"/>
    <tag k="addr:postcode" v="EH11 2QU"/>
    <tag k="addr:street" v="Gorgie Road"/>
    <tag k="building" v="yes"/>
    <tag k="name" v="Gorgie War Memorial Hall"/>
  </way>
  <way id="105601029" version="12" timestamp="2024-11-01T12:19:17Z" changeset="158616227" uid="16721418" user="SmithyScotland">
    <nd ref="1216008328"/>
    <nd ref="1216008323"/>
    <nd ref="9026169630"/>
    <nd ref="3107921759"/>
    <nd ref="3107921760"/>
    <nd ref="9026145909"/>
    <nd ref="3107921758"/>
    <nd ref="3107921757"/>
    <nd ref="3107921753"/>
    <nd ref="3107921754"/>
    <nd ref="3107921752"/>
    <nd ref="1216008315"/>
    <nd ref="1216008332"/>
    <nd ref="1216008325"/>
    <nd ref="1216008329"/>
    <nd ref="1216008324"/>
    <nd ref="3107921750"/>
    <nd ref="1216008330"/>
    <nd ref="3107921751"/>
    <nd ref="1216008319"/>
    <nd ref="1216008320"/>
    <nd ref="1216008317"/>
    <nd ref="1216008321"/>
    <nd ref="1216008316"/>
    <nd ref="3107921755"/>
    <nd ref="3107921756"/>
    <nd ref="1216008334"/>
    <nd ref="1216008327"/>
    <nd ref="3107921761"/>
    <nd ref="1216008328"/>
    <tag k="addr:city" v="Edinburgh"/>
    <tag k="addr:country" v="GB"/>
    <tag k="addr:housenumber" v="10"/>
    <tag k="addr:postcode" v="EH11 2DZ"/>
    <tag k="addr:street" v="Orwell Terrace"/>
    <tag k="amenity" v="community_centre"/>
    <tag k="building" v="yes"/>
    <tag k="check_date" v="2024-11-01"/>
    <tag k="name" v="St Brides Centre"/>
    <tag k="source" v="NLS_OS_Edinburgh_map_1940s;Bing;survey"/>
  </way>
  <way id="106346426" version="9" timestamp="2020-12-13T17:40:24Z" changeset="95764655" uid="2110168" user="TheEditor101">
    <nd ref="1223848516"/>
    <nd ref="1223848482"/>
    <nd ref="1223848497"/>
    <nd ref="1223848494"/>
    <nd ref="1223848504"/>
    <nd ref="1223848495"/>
    <nd ref="1223848511"/>
    <nd ref="3396652541"/>
    <nd ref="3396652540"/>
    <nd ref="1223848518"/>
    <nd ref="1223848492"/>
    <nd ref="1223848496"/>
    <nd ref="3292608079"/>
    <nd ref="1223848483"/>
    <nd ref="3292608080"/>
    <nd ref="3292608082"/>
    <nd ref="3292608081"/>
    <nd ref="3292610574"/>
    <nd ref="1223848481"/>
    <nd ref="1223848502"/>
    <nd ref="1223848509"/>
    <nd ref="1223848493"/>
    <nd ref="1223848490"/>
    <nd ref="1223848508"/>
    <nd ref="656676119"/>
    <nd ref="1223848523"/>
    <nd ref="1223848525"/>
    <nd ref="1223848513"/>
    <nd ref="1223848516"/>
    <tag k="addr:city" v="Edinburgh"/>
    <tag k="addr:housenumber" v="4"/>
    <tag k="addr:postcode" v="EH11 2JB"/>
    <tag k="addr:street" v="Cathcart Place"/>
    <tag k="building" v="school"/>
    <tag k="building:levels" v="2"/>
    <tag k="source" v="NLS_OS_Edinburgh_map_1940s;Bing"/>
  </way>
  <way id="106347260" version="11" timestamp="2022-02-19T22:02:52Z" changeset="117620891" uid="7708371" user="Alexy_">
    <nd ref="1223849748"/>
    <nd ref="1223849714"/>
    <nd ref="1223849753"/>
    <nd ref="1223849724"/>
    <nd ref="1223849746"/>
    <nd ref="8399232499"/>
    <nd ref="8399232500"/>
    <nd ref="9520572952"/>
    <nd ref="1223849750"/>
    <nd ref="1223849719"/>
    <nd ref="1223849710"/>
    <nd ref="7220918204"/>
    <nd ref="1223849745"/>
    <nd ref="9520569275"/>
    <nd ref="9520569268"/>
    <nd ref="1223849732"/>
    <nd ref="2549023331"/>
    <nd ref="8399232507"/>
    <nd ref="1223849723"/>
    <nd ref="8399232508"/>
    <nd ref="2549023336"/>
    <nd ref="8399232504"/>
    <nd ref="8399232505"/>
    <nd ref="7220918213"/>
    <nd ref="2549023333"/>
    <nd ref="2549023334"/>
    <nd ref="1223849752"/>
    <nd ref="7220918232"/>
    <nd ref="1223849727"/>
    <nd ref="1223849730"/>
    <nd ref="3999685973"/>
    <nd ref="1223849722"/>
    <nd ref="1223849739"/>
    <nd ref="8399232503"/>
    <nd ref="2549023340"/>
    <nd ref="8399232502"/>
    <nd ref="8399232501"/>
    <nd ref="2549023339"/>
    <nd ref="1223849711"/>
    <nd ref="2549023337"/>
    <nd ref="1223849716"/>
    <nd ref="1223849748"/>
    <tag k="addr:city" v="Edinburgh"/>
    <tag k="addr:housenumber" v="2"/>
    <tag k="addr:postcode" v="EH11 2ND"/>
    <tag k="addr:street" v="McLeod Street"/>
    <tag k="building" v="school"/>
    <tag k="building:levels" v="4"/>
  </way>
  <way id="112317627" version="13" timestamp="2020-09-22T18:15:08Z" changeset="91313986" uid="3432400" user="GinaroZ">
    <nd ref="1276939062"/>
    <nd ref="2134628577"/>
    <nd ref="3107552523"/>
    <nd ref="3107552522"/>
    <nd ref="2134397420"/>
    <nd ref="1276939044"/>
    <nd ref="1276939063"/>
    <nd ref="1276939014"/>
    <nd ref="1276939031"/>
    <nd ref="1276939047"/>
    <nd ref="1226763305"/>
    <nd ref="1226763324"/>
    <nd ref="1276939035"/>
    <nd ref="2782019019"/>
    <nd ref="1276939052"/>
    <nd ref="1276939069"/>
    <nd ref="2506599545"/>
    <nd ref="3107552505"/>
    <nd ref="1276939062"/>
    <tag k="addr:city" v="Edinburgh"/>
    <tag k="addr:housenumber" v="25-27-29"/>
    <tag k="addr:street" v="Caledonian Crescent"/>
    <tag k="building" v="yes"/>
    <tag k="leisure" v="sports_centre"/>
    <tag k="name" v="Dalry Swim Centre"/>
    <tag k="opening_hours" v="Mo-Fr 07:00-22:00; Sa-Su 09:00-18:00"/>
    <tag k="operator" v="Edinburgh Council"/>
    <tag k="source" v="NLS_OS_Edinburgh_map_1940s;Bing;survey"/>
    <tag k="sport" v="swimming"/>
    <tag k="website" v="https://www.edinburghleisure.co.uk/venues/dalry-swim-centre"/>
  </way>
  <way id="113869790" version="7" timestamp="2017-06-06T14:17:24Z" changeset="49306735" uid="2234934" user="sophiemccallum">
    <nd ref="24943640"/>
    <nd ref="24943642"/>
    <nd ref="4899778307"/>
    <nd ref="4899778308"/>
    <nd ref="4899778309"/>
    <nd ref="24943643"/>
    <nd ref="4899778313"/>
    <nd ref="4009573061"/>
    <nd ref="4899778311"/>
    <nd ref="4899778312"/>
    <nd ref="24943644"/>
    <nd ref="4009573063"/>
    <nd ref="4899778310"/>
    <nd ref="24943645"/>
    <nd ref="4009573070"/>
    <nd ref="24943647"/>
    <nd ref="4009573080"/>
    <nd ref="4009573290"/>
    <nd ref="4009573302"/>
    <nd ref="24943648"/>
    <nd ref="4009573315"/>
    <nd ref="2400291973"/>
    <nd ref="24943649"/>
    <nd ref="4009573336"/>
    <nd ref="24943651"/>
    <nd ref="24943641"/>
    <nd ref="24943652"/>
    <tag k="highway" v="residential"/>
    <tag k="lanes" v="1"/>
    <tag k="maxspeed" v="20 mph"/>
    <tag k="name" v="Alexander Drive"/>
    <tag k="source" v="Bing;survey"/>
  </way>
  <way id="122647650" version="5" timestamp="2023-03-12T08:48:39Z" changeset="133577766" uid="16721418" user="SmithyScotland">
    <nd ref="1369869384"/>
    <nd ref="1369869261"/>
    <nd ref="1369869296"/>
    <nd ref="3459740810"/>
    <nd ref="1369869384"/>
    <tag k="addr:housenumber" v="5"/>
    <tag k="addr:street" v="McLeod Street"/>
    <tag k="building" v="apartments"/>
    <tag k="building:levels" v="4"/>
    <tag k="source" v="NLS_OS_Edinburgh_map_1940s;Bing"/>
  </way>
  <way id="123564625" version="15" timestamp="2024-08-27T16:46:49Z" changeset="155841699" uid="21762849" user="jSeke">
    <nd ref="1377476879"/>
    <nd ref="1003405"/>
    <nd ref="2450281532"/>
    <nd ref="30349905"/>
    <nd ref="8399385300"/>
    <nd ref="4548174990"/>
    <nd ref="1003404"/>
    <nd ref="2450281533"/>
    <nd ref="2645862406"/>
    <nd ref="2807238040"/>
    <tag k="highway" v="unclassified"/>
    <tag k="lanes" v="2"/>
    <tag k="lit" v="yes"/>
    <tag k="maxspeed" v="20 mph"/>
    <tag k="name" v="Russell Road"/>
    <tag k="name:gd" v="Rathad nan Ruisealach"/>
    <tag k="sidewalk" v="both"/>
    <tag k="smoothness" v="intermediate"/>
    <tag k="surface" v="asphalt"/>
  </way>
  <way id="123564630" version="15" timestamp="2024-08-27T16:46:49Z" changeset="155841699" uid="21762849" user="jSeke">
    <nd ref="1003406"/>
    <nd ref="1377476879"/>
    <tag k="cycleway:left" v="separate"/>
    <tag k="cycleway:right" v="no"/>
    <tag k="highway" v="unclassified"/>
    <tag k="lanes" v="2"/>
    <tag k="lit" v="yes"/>
    <tag k="maxheight" v="4"/>
    <tag k="maxspeed" v="20 mph"/>
    <tag k="name" v="Russell Road"/>
    <tag k="name:gd" v="Rathad nan Ruisealach"/>
    <tag k="sidewalk:left" v="separate"/>
    <tag k="sidewalk:right" v="yes"/>
    <tag k="surface" v="asphalt"/>
  </way>
  <way id="129834120" version="23" timestamp="2025-03-22T14:22:34Z" changeset="163949702" uid="16721418" user="SmithyScotland">
    <nd ref="24942472"/>
    <nd ref="8905240676"/>
    <nd ref="3637944411"/>
    <nd ref="264237089"/>
    <nd ref="24942530"/>
    <nd ref="3382228992"/>
    <nd ref="3637944410"/>
    <nd ref="2375394199"/>
    <nd ref="24942531"/>
    <nd ref="3851590030"/>
    <nd ref="24942478"/>
    <nd ref="24942518"/>
    <nd ref="12691020873"/>
    <nd ref="24942515"/>
    <nd ref="24942538"/>
    <nd ref="1129317679"/>
    <nd ref="2375394206"/>
    <nd ref="3382452427"/>
    <nd ref="602461"/>
    <tag k="cycleway:both" v="lane"/>
    <tag k="cycleway:both:lane" v="exclusive"/>
    <tag k="cycleway:width" v="1.2"/>
    <tag k="highway" v="primary"/>
    <tag k="lanes" v="2"/>
    <tag k="lit" v="yes"/>
    <tag k="maxspeed" v="20 mph"/>
    <tag k="name" v="Gorgie Road"/>
    <tag k="name:gd" v="Rathad Ghorgain"/>
    <tag k="ref" v="A71"/>
    <tag k="sidewalk" v="both"/>
    <tag k="source" v="Bing;survey"/>
    <tag k="surface" v="asphalt"/>
  </way>
  <way id="157694252" version="12" timestamp="2024-01-31T09:54:19Z" changeset="146896688" uid="8556201" user="LonMcGregor">
    <nd ref="501896800"/>
    <nd ref="3637948008"/>
    <nd ref="3382452442"/>
    <nd ref="4557376666"/>
    <nd ref="1699540165"/>
    <tag k="highway" v="residential"/>
    <tag k="lit" v="yes"/>
    <tag k="maxspeed" v="20 mph"/>
    <tag k="name" v="Murieston Road"/>
    <tag k="oneway" v="yes"/>
    <tag k="parking:condition:both" v="residents"/>
    <tag k="parking:condition:both:default" v="free"/>
    <tag k="parking:condition:both:residents" v="S4"/>
    <tag k="parking:condition:both:time_interval" v="Mo-Fr 08:30-17:30"/>
    <tag k="sidewalk" v="both"/>
    <tag k="surface" v="asphalt"/>
  </way>
  <way id="157694253" version="11" timestamp="2024-08-18T10:28:06Z" changeset="155406287" uid="45452" user="Simon Eilting">
    <nd ref="24942559"/>
    <nd ref="4070565000"/>
    <nd ref="1699540175"/>
    <nd ref="1699540183"/>
    <nd ref="2398541698"/>
    <nd ref="1699540181"/>
    <nd ref="2398541673"/>
    <nd ref="2398541690"/>
    <nd ref="3811695572"/>
    <nd ref="2398541686"/>
    <nd ref="2398541688"/>
    <nd ref="2266150529"/>
    <tag k="cycleway:both" v="no"/>
    <tag k="highway" v="residential"/>
    <tag k="lit" v="yes"/>
    <tag k="maxspeed" v="20 mph"/>
    <tag k="name" v="Murieston Crescent"/>
    <tag k="parking:condition:both" v="residents"/>
    <tag k="parking:condition:both:default" v="free"/>
    <tag k="parking:condition:both:residents" v="S4"/>
    <tag k="parking:condition:both:time_interval" v="Mo-Fr 08:30-17:30"/>
    <tag k="sidewalk" v="both"/>
    <tag k="surface" v="asphalt"/>
  </way>
  <way id="157694255" version="9" timestamp="2024-08-04T11:26:09Z" changeset="154807651" uid="21143475" user="Htf4">
    <nd ref="1699540165"/>
    <nd ref="4553825585"/>
    <nd ref="1699540175"/>
    <tag k="highway" v="residential"/>
    <tag k="maxspeed" v="20 mph"/>
    <tag k="name" v="Murieston Terrace"/>
    <tag k="oneway" v="yes"/>
    <tag k="parking:condition:both" v="residents"/>
    <tag k="parking:condition:both:default" v="free"/>
    <tag k="parking:condition:both:residents" v="S4"/>
    <tag k="parking:condition:both:time_interval" v="Mo-Fr 08:30-17:30"/>
    <tag k="sidewalk" v="both"/>
    <tag k="surface" v="asphalt"/>
  </way>
  <way id="171768920" version="8" timestamp="2019-12-30T20:04:21Z" changeset="79029149" uid="388774" user="drnoble">
    <nd ref="368980742"/>
    <nd ref="368980740"/>
    <tag k="highway" v="residential"/>
    <tag k="lit" v="yes"/>
    <tag k="maxspeed" v="30 mph"/>
    <tag k="name" v="Stevenson Grove"/>
    <tag k="sidewalk" v="both"/>
    <tag k="source" v="Bing;survey"/>
    <tag k="surface" v="asphalt"/>
  </way>
  <way id="171768921" version="7" timestamp="2019-10-23T08:34:42Z" changeset="76088737" uid="8155596" user="Lanthanus">
    <nd ref="368980822"/>
    <nd ref="368980821"/>
    <tag k="highway" v="residential"/>
    <tag k="lit" v="yes"/>
    <tag k="maxspeed" v="30 mph"/>
    <tag k="name" v="Stevenson Terrace"/>
    <tag k="source" v="Bing;survey"/>
    <tag k="surface" v="asphalt"/>
  </way>
  <way id="171768928" version="9" timestamp="2019-12-30T20:04:21Z" changeset="79029149" uid="388774" user="drnoble">
    <nd ref="4719166207"/>
    <nd ref="3737488613"/>
    <nd ref="3737488618"/>
    <nd ref="3737488621"/>
    <nd ref="368981400"/>
    <nd ref="3737488624"/>
    <nd ref="3737488647"/>
    <nd ref="3737488648"/>
    <nd ref="3737488649"/>
    <nd ref="368981401"/>
    <nd ref="1433152439"/>
    <nd ref="1827483440"/>
    <nd ref="3737488667"/>
    <nd ref="3737488668"/>
    <nd ref="3737488670"/>
    <nd ref="3737488669"/>
    <nd ref="1827483438"/>
    <nd ref="3737488666"/>
    <nd ref="3737488664"/>
    <nd ref="3737488663"/>
    <nd ref="1827483437"/>
    <nd ref="3737488660"/>
    <nd ref="4719166208"/>
    <tag k="highway" v="residential"/>
    <tag k="lit" v="yes"/>
    <tag k="maxspeed" v="20 mph"/>
    <tag k="name" v="Stevenson Avenue"/>
    <tag k="sidewalk" v="both"/>
    <tag k="source" v="Bing;survey"/>
    <tag k="surface" v="asphalt"/>
  </way>
  <way id="177845942" version="11" timestamp="2024-08-12T18:17:49Z" changeset="155162383" uid="21143475" user="Htf4">
    <nd ref="1003401"/>
    <nd ref="2450281535"/>
    <nd ref="2450281534"/>
    <nd ref="1003400"/>
    <nd ref="1003397"/>
    <tag k="highway" v="residential"/>
    <tag k="lit" v="yes"/>
    <tag k="maxspeed" v="20 mph"/>
    <tag k="name" v="Murieston Crescent"/>
    <tag k="sidewalk" v="both"/>
    <tag k="surface" v="asphalt"/>
  </way>
  <way id="200434464" version="5" timestamp="2023-04-15T21:06:40Z" changeset="134955854" uid="211175" user="cmagowan">
    <nd ref="2104243446"/>
    <nd ref="2104243442"/>
    <nd ref="3107851772"/>
    <nd ref="4890419469"/>
    <nd ref="2104243434"/>
    <nd ref="4890419473"/>
    <nd ref="3107851770"/>
    <nd ref="4890419474"/>
    <nd ref="4890419472"/>
    <nd ref="2104243429"/>
    <nd ref="2104243432"/>
    <nd ref="4890419471"/>
    <nd ref="3107851771"/>
    <nd ref="4890419470"/>
    <nd ref="3107552508"/>
    <nd ref="2104243441"/>
    <nd ref="4890419465"/>
    <nd ref="4890419466"/>
    <nd ref="3107851773"/>
    <nd ref="4890419467"/>
    <nd ref="2104243449"/>
    <nd ref="4890419468"/>
    <nd ref="2104243442"/>
    <tag k="access" v="private"/>
    <tag k="highway" v="residential"/>
    <tag k="oneway" v="no"/>
  </way>
  <way id="203470282" version="5" timestamp="2015-12-10T06:48:11Z" changeset="35859570" uid="1798469" user="eric_">
    <nd ref="2134865065"/>
    <nd ref="2134865087"/>
    <nd ref="2564994127"/>
    <nd ref="3885693915"/>
    <nd ref="2564994097"/>
    <nd ref="2564994047"/>
    <nd ref="3885693924"/>
    <nd ref="2564994006"/>
    <nd ref="2564993968"/>
    <nd ref="3885693948"/>
    <nd ref="2564993937"/>
    <nd ref="2564993906"/>
    <nd ref="3885693962"/>
    <nd ref="2564994540"/>
    <nd ref="2134865071"/>
    <nd ref="2134865063"/>
    <nd ref="2564993871"/>
    <nd ref="2564994179"/>
    <nd ref="2564994224"/>
    <nd ref="2564994283"/>
    <nd ref="2564994331"/>
    <nd ref="2564994378"/>
    <nd ref="2564994428"/>
    <nd ref="2564994475"/>
    <nd ref="2134865065"/>
    <tag k="building" v="terrace"/>
    <tag k="name" v="Argyll Terrace"/>
    <tag k="source" v="NLS_OS_Edinburgh_map_1940s;Bing"/>
  </way>
  <way id="203470284" version="5" timestamp="2015-12-10T04:58:24Z" changeset="35858642" uid="1798469" user="eric_">
    <nd ref="2134865064"/>
    <nd ref="2564994571"/>
    <nd ref="3885576591"/>
    <nd ref="2564993927"/>
    <nd ref="2564993957"/>
    <nd ref="3885576599"/>
    <nd ref="2564993995"/>
    <nd ref="2564994019"/>
    <nd ref="3885576610"/>
    <nd ref="2564994079"/>
    <nd ref="2564994115"/>
    <nd ref="3885576616"/>
    <nd ref="2564994162"/>
    <nd ref="2134865079"/>
    <nd ref="2134865062"/>
    <nd ref="2564994509"/>
    <nd ref="2564994458"/>
    <nd ref="2564994411"/>
    <nd ref="2564994360"/>
    <nd ref="2564994317"/>
    <nd ref="2564994256"/>
    <nd ref="2564994214"/>
    <nd ref="2564993895"/>
    <nd ref="2134865055"/>
    <nd ref="2134865064"/>
    <tag k="building" v="terrace"/>
    <tag k="name" v="Cobden Terrace"/>
    <tag k="source" v="NLS_OS_Edinburgh_map_1940s;Bing"/>
  </way>
  <way id="203470285" version="6" timestamp="2017-03-28T20:13:57Z" changeset="47241215" uid="51722" user="Chris Parker">
    <nd ref="2134865082"/>
    <nd ref="2564993878"/>
    <nd ref="2564994187"/>
    <nd ref="2564994232"/>
    <nd ref="2564994291"/>
    <nd ref="2564994336"/>
    <nd ref="2564994386"/>
    <nd ref="2564994436"/>
    <nd ref="4760556920"/>
    <nd ref="2564994484"/>
    <nd ref="2134865058"/>
    <nd ref="4760558828"/>
    <nd ref="4760558825"/>
    <nd ref="2134865091"/>
    <nd ref="2564994135"/>
    <nd ref="3885693906"/>
    <nd ref="2564994104"/>
    <nd ref="2564994055"/>
    <nd ref="3885693916"/>
    <nd ref="2564994008"/>
    <nd ref="2564993980"/>
    <nd ref="3885693928"/>
    <nd ref="2564993942"/>
    <nd ref="2564993912"/>
    <nd ref="3885693950"/>
    <nd ref="2564994549"/>
    <nd ref="2134865074"/>
    <nd ref="2134865082"/>
    <tag k="building" v="terrace"/>
    <tag k="name" v="Atholl Terrace"/>
    <tag k="source" v="NLS_OS_Edinburgh_map_1940s;Bing"/>
  </way>
  <way id="203470286" version="5" timestamp="2015-12-10T06:48:12Z" changeset="35859570" uid="1798469" user="eric_">
    <nd ref="2705975925"/>
    <nd ref="2564993901"/>
    <nd ref="2564994220"/>
    <nd ref="2564994264"/>
    <nd ref="2564994324"/>
    <nd ref="2564994370"/>
    <nd ref="2564994419"/>
    <nd ref="2564994467"/>
    <nd ref="2564994516"/>
    <nd ref="2705975893"/>
    <nd ref="2134865086"/>
    <nd ref="2564994170"/>
    <nd ref="3885693923"/>
    <nd ref="2564994121"/>
    <nd ref="2564994089"/>
    <nd ref="3885693945"/>
    <nd ref="2564994027"/>
    <nd ref="2564994001"/>
    <nd ref="3885693961"/>
    <nd ref="2564993963"/>
    <nd ref="2564993932"/>
    <nd ref="3885693970"/>
    <nd ref="2564994578"/>
    <nd ref="2134865077"/>
    <nd ref="2705975925"/>
    <tag k="building" v="terrace"/>
    <tag k="name" v="Douglas Terrace"/>
    <tag k="source" v="NLS_OS_Edinburgh_map_1940s;Bing"/>
  </way>
  <way id="203470287" version="5" timestamp="2015-12-10T04:58:25Z" changeset="35858642" uid="1798469" user="eric_">
    <nd ref="2572758080"/>
    <nd ref="2572758076"/>
    <nd ref="2572758072"/>
    <nd ref="2572758067"/>
    <nd ref="2572758042"/>
    <nd ref="2134865075"/>
    <nd ref="2134865090"/>
    <nd ref="2572758089"/>
    <nd ref="3885576584"/>
    <nd ref="2572758093"/>
    <nd ref="2572758102"/>
    <nd ref="3885576588"/>
    <nd ref="2572758044"/>
    <nd ref="2134865081"/>
    <nd ref="2572758085"/>
    <nd ref="2134865073"/>
    <nd ref="2572758080"/>
    <tag k="building" v="terrace"/>
    <tag k="name" v="McLaren Terrace"/>
    <tag k="source" v="NLS_OS_Edinburgh_map_1940s;Bing"/>
  </way>
  <way id="203470288" version="5" timestamp="2015-12-10T04:58:25Z" changeset="35858642" uid="1798469" user="eric_">
    <nd ref="2134865053"/>
    <nd ref="2134865076"/>
    <nd ref="2572758064"/>
    <nd ref="3885576621"/>
    <nd ref="2572758056"/>
    <nd ref="2572758053"/>
    <nd ref="3885576615"/>
    <nd ref="2572758051"/>
    <nd ref="2572758049"/>
    <nd ref="3885576608"/>
    <nd ref="2572758047"/>
    <nd ref="2572758045"/>
    <nd ref="3885576598"/>
    <nd ref="2572758106"/>
    <nd ref="2134865069"/>
    <nd ref="2705975936"/>
    <nd ref="3885576606"/>
    <nd ref="3885576617"/>
    <nd ref="3885576620"/>
    <nd ref="2134865053"/>
    <tag k="building" v="terrace"/>
    <tag k="name" v="Walker Terrace"/>
    <tag k="source" v="NLS_OS_Edinburgh_map_1940s;Bing"/>
  </way>
  <way id="203470289" version="6" timestamp="2017-06-01T10:24:03Z" changeset="49160656" uid="2234934" user="sophiemccallum">
    <nd ref="2134865089"/>
    <nd ref="2134865066"/>
    <nd ref="2564994565"/>
    <nd ref="3885576587"/>
    <nd ref="2564993922"/>
    <nd ref="2564993952"/>
    <nd ref="3885576593"/>
    <nd ref="2564993990"/>
    <nd ref="2564994014"/>
    <nd ref="3885576601"/>
    <nd ref="2564994070"/>
    <nd ref="2564994113"/>
    <nd ref="3885576611"/>
    <nd ref="2564994153"/>
    <nd ref="69092719"/>
    <nd ref="2134865080"/>
    <nd ref="2564994500"/>
    <nd ref="2564994451"/>
    <nd ref="2564994403"/>
    <nd ref="2564994352"/>
    <nd ref="2564994309"/>
    <nd ref="2564994248"/>
    <nd ref="2564994205"/>
    <nd ref="2564993889"/>
    <nd ref="2134865089"/>
    <tag k="building" v="terrace"/>
    <tag k="name" v="Bright Terrace"/>
    <tag k="source" v="NLS_OS_Edinburgh_map_1940s;Bing"/>
  </way>
  <way id="203470291" version="6" timestamp="2015-12-10T06:48:11Z" changeset="35859570" uid="1798469" user="eric_">
    <nd ref="2134865057"/>
    <nd ref="2564993884"/>
    <nd ref="2564994197"/>
    <nd ref="2564994240"/>
    <nd ref="2564994300"/>
    <nd ref="2564994343"/>
    <nd ref="2564994394"/>
    <nd ref="2564994445"/>
    <nd ref="2564994492"/>
    <nd ref="2134865072"/>
    <nd ref="2781855264"/>
    <nd ref="2134865067"/>
    <nd ref="2564994145"/>
    <nd ref="3885693902"/>
    <nd ref="2564994110"/>
    <nd ref="2564994062"/>
    <nd ref="3885693907"/>
    <nd ref="2564994010"/>
    <nd ref="2564993985"/>
    <nd ref="3885693917"/>
    <nd ref="2564993947"/>
    <nd ref="2564993917"/>
    <nd ref="3885693929"/>
    <nd ref="2564994557"/>
    <nd ref="2134865088"/>
    <nd ref="2134865057"/>
    <tag k="building" v="terrace"/>
    <tag k="name" v="Breadalbane Terrace"/>
    <tag k="source" v="NLS_OS_Edinburgh_map_1940s;Bing"/>
  </way>
  <way id="203470292" version="5" timestamp="2015-12-10T06:48:13Z" changeset="35859570" uid="1798469" user="eric_">
    <nd ref="2134865052"/>
    <nd ref="2572758060"/>
    <nd ref="3885693943"/>
    <nd ref="2572758054"/>
    <nd ref="2572758052"/>
    <nd ref="3885693959"/>
    <nd ref="2572758050"/>
    <nd ref="2572758048"/>
    <nd ref="3885693968"/>
    <nd ref="2572758046"/>
    <nd ref="2572758043"/>
    <nd ref="3885693976"/>
    <nd ref="2572758098"/>
    <nd ref="2134865068"/>
    <nd ref="2134865061"/>
    <nd ref="3885693975"/>
    <nd ref="3885693966"/>
    <nd ref="3885693957"/>
    <nd ref="1129317852"/>
    <nd ref="2134865052"/>
    <tag k="building" v="terrace"/>
    <tag k="name" v="Lewis Terrace"/>
    <tag k="source" v="NLS_OS_Edinburgh_map_1940s;Bing"/>
  </way>
  <way id="204535886" version="5" timestamp="2021-01-17T18:00:40Z" changeset="97647525" uid="2110168" user="TheEditor101">
    <nd ref="25873120"/>
    <nd ref="4887989152"/>
    <nd ref="4887989153"/>
    <nd ref="4887989154"/>
    <nd ref="25873119"/>
    <tag k="highway" v="residential"/>
    <tag k="maxspeed" v="20 mph"/>
    <tag k="name" v="Duff Road"/>
    <tag k="surface" v="asphalt"/>
  </way>
  <way id="204535887" version="5" timestamp="2021-01-17T18:00:40Z" changeset="97647525" uid="2110168" user="TheEditor101">
    <nd ref="25873119"/>
    <nd ref="3701852453"/>
    <nd ref="24943634"/>
    <tag k="highway" v="residential"/>
    <tag k="maxspeed" v="20 mph"/>
    <tag k="name" v="Duff Street"/>
    <tag k="surface" v="sett"/>
  </way>
  <way id="206665570" version="5" timestamp="2023-08-02T09:49:06Z" changeset="139338267" uid="18571702" user="anon98">
    <nd ref="2167074772"/>
    <nd ref="2167074764"/>
    <nd ref="2167074774"/>
    <nd ref="2167074755"/>
    <nd ref="2167074744"/>
    <nd ref="2167074765"/>
    <nd ref="2167074745"/>
    <nd ref="2167074758"/>
    <nd ref="2167074766"/>
    <nd ref="2167074747"/>
    <nd ref="2167074760"/>
    <nd ref="2167074772"/>
    <tag k="addr:housenumber" v="3"/>
    <tag k="addr:street" v="Distillery Lane"/>
    <tag k="building" v="office"/>
    <tag k="name" v="Easter Dalry House"/>
    <tag k="office" v="yes"/>
    <tag k="source" v="Bing"/>
  </way>
  <way id="206665574" version="6" timestamp="2021-11-29T10:39:08Z" changeset="114355683" uid="2922304" user="smeòrach">
    <nd ref="2143139542"/>
    <nd ref="2143139514"/>
    <nd ref="2167074756"/>
    <nd ref="2143139576"/>
    <nd ref="2167074753"/>
    <nd ref="2167074773"/>
    <nd ref="2506599447"/>
    <nd ref="2167074754"/>
    <nd ref="2631865320"/>
    <nd ref="2143139542"/>
    <tag k="amenity" v="arts_centre"/>
    <tag k="building" v="yes"/>
    <tag k="name" v="WASPS Artists' Studios"/>
    <tag k="operator" v="WASPS"/>
    <tag k="source" v="NLS_OS_Edinburgh_map_1940s;Bing"/>
  </way>
  <way id="206665576" version="6" timestamp="2023-08-02T09:49:06Z" changeset="139338267" uid="18571702" user="anon98">
    <nd ref="2167074772"/>
    <nd ref="2167074764"/>
    <nd ref="2167074774"/>
    <nd ref="2167074755"/>
    <nd ref="4889286624"/>
    <nd ref="2167074772"/>
    <tag k="addr:housenumber" v="3"/>
    <tag k="addr:street" v="Distillery Lane"/>
    <tag k="building" v="office"/>
    <tag k="office" v="yes"/>
    <tag k="source" v="Bing"/>
  </way>
  <way id="208356734" version="10" timestamp="2024-12-03T13:36:31Z" changeset="159881612" uid="4435" user="Chris Fleming">
    <nd ref="24943629"/>
    <nd ref="805649570"/>
    <nd ref="1002244493"/>
    <nd ref="3356230025"/>
    <nd ref="2398541706"/>
    <nd ref="3382232717"/>
    <nd ref="2398541702"/>
    <nd ref="3382232716"/>
    <nd ref="251814971"/>
    <nd ref="3382232715"/>
    <nd ref="3382232714"/>
    <nd ref="3356230017"/>
    <nd ref="614620"/>
    <tag k="bicycle" v="no"/>
    <tag k="foot" v="no"/>
    <tag k="highway" v="tertiary"/>
    <tag k="lanes" v="2"/>
    <tag k="level" v="0"/>
    <tag k="lit" v="yes"/>
    <tag k="maxspeed" v="40 mph"/>
    <tag k="maxweight" v="1.5"/>
    <tag k="name" v="West Approach Road"/>
    <tag k="oneway" v="yes"/>
    <tag k="source" v="Bing;survey"/>
    <tag k="surface" v="asphalt"/>
  </way>
  <way id="209010710" version="11" timestamp="2023-01-05T13:37:36Z" changeset="130905571" uid="16721418" user="SmithyScotland">
    <nd ref="2192558959"/>
    <nd ref="2192558904"/>
    <nd ref="9350910494"/>
    <nd ref="2192558921"/>
    <nd ref="2192558937"/>
    <nd ref="2192558942"/>
    <nd ref="2192558947"/>
    <nd ref="2192558950"/>
    <nd ref="2192558955"/>
    <nd ref="2192558954"/>
    <nd ref="2192558956"/>
    <nd ref="2192558963"/>
    <nd ref="2192558964"/>
    <nd ref="2192558965"/>
    <nd ref="2192558966"/>
    <nd ref="2192558962"/>
    <nd ref="2192558961"/>
    <nd ref="2192558958"/>
    <nd ref="10294019291"/>
    <nd ref="2192558957"/>
    <nd ref="10294019294"/>
    <nd ref="10294019295"/>
    <nd ref="2192558975"/>
    <nd ref="3342026750"/>
    <nd ref="2192586238"/>
    <nd ref="2192558976"/>
    <nd ref="2192558982"/>
    <nd ref="2192558983"/>
    <nd ref="2192558977"/>
    <nd ref="2192558979"/>
    <nd ref="2192558973"/>
    <nd ref="2192558972"/>
    <nd ref="2192558971"/>
    <nd ref="2192558969"/>
    <nd ref="2192558968"/>
    <nd ref="4875881049"/>
    <nd ref="2192558959"/>
    <tag k="building" v="apartments"/>
    <tag k="name" v="Springwell House"/>
    <tag k="source" v="NLS_OS_Edinburgh_map_1940s;Bing"/>
  </way>
  <way id="221138026" version="10" timestamp="2024-01-31T09:54:33Z" changeset="146896688" uid="8556201" user="LonMcGregor">
    <nd ref="2301965389"/>
    <nd ref="7839241478"/>
    <nd ref="9053006056"/>
    <nd ref="2301965387"/>
    <nd ref="2301965392"/>
    <nd ref="7839241479"/>
    <nd ref="2301965386"/>
    <nd ref="2301965391"/>
    <nd ref="2301965388"/>
    <tag k="cycleway" v="lane"/>
    <tag k="highway" v="tertiary"/>
    <tag k="lit" v="yes"/>
    <tag k="maxspeed" v="30 mph"/>
    <tag k="name" v="Balgreen Road"/>
    <tag k="oneway" v="yes"/>
    <tag k="sidewalk:left" v="yes"/>
    <tag k="sidewalk:right" v="separate"/>
    <tag k="surface" v="asphalt"/>
  </way>
  <way id="227409912" version="10" timestamp="2024-08-12T18:17:53Z" changeset="155162383" uid="21143475" user="Htf4">
    <nd ref="1003397"/>
    <nd ref="1003395"/>
    <tag k="highway" v="residential"/>
    <tag k="lit" v="yes"/>
    <tag k="maxheight" v="4.1"/>
    <tag k="maxheight:ft" v="13'6&quot;"/>
    <tag k="maxspeed" v="20 mph"/>
    <tag k="name" v="Murieston Crescent"/>
    <tag k="parking:condition:both" v="residents"/>
    <tag k="parking:condition:both:default" v="free"/>
    <tag k="parking:condition:both:residents" v="S4"/>
    <tag k="parking:condition:both:time_interval" v="Mo-Fr 08:30-17:30"/>
    <tag k="sidewalk" v="both"/>
    <tag k="surface" v="asphalt"/>
  </way>
  <way id="227409913" version="8" timestamp="2024-08-12T18:17:28Z" changeset="155162383" uid="21143475" user="Htf4">
    <nd ref="1003395"/>
    <nd ref="3329758691"/>
    <nd ref="3329758674"/>
    <nd ref="2266150529"/>
    <tag k="highway" v="residential"/>
    <tag k="lit" v="yes"/>
    <tag k="maxspeed" v="20 mph"/>
    <tag k="name" v="Murieston Crescent"/>
    <tag k="parking:condition:both" v="residents"/>
    <tag k="parking:condition:both:default" v="free"/>
    <tag k="parking:condition:both:residents" v="S4"/>
    <tag k="parking:condition:both:time_interval" v="Mo-Fr 08:30-17:30"/>
    <tag k="sidewalk" v="both"/>
    <tag k="surface" v="asphalt"/>
  </way>
  <way id="227604412" version="11" timestamp="2024-08-23T01:44:48Z" changeset="155631129" uid="21762849" user="jSeke">
    <nd ref="2362574349"/>
    <nd ref="2362574352"/>
    <tag k="cycleway:both" v="no"/>
    <tag k="cycleway:width" v="1.2"/>
    <tag k="highway" v="primary"/>
    <tag k="lanes" v="2"/>
    <tag k="lit" v="yes"/>
    <tag k="maxspeed" v="20 mph"/>
    <tag k="name" v="Dalry Road"/>
    <tag k="name:gd" v="Rathad Dhail Fhraoich"/>
    <tag k="ref" v="A70"/>
    <tag k="sidewalk" v="both"/>
    <tag k="sidewalk:left:surface" v="paving_stones"/>
    <tag k="sidewalk:right:surface" v="asphalt"/>
    <tag k="surface" v="asphalt"/>
  </way>
  <way id="227604413" version="8" timestamp="2024-08-23T01:44:48Z" changeset="155631129" uid="21762849" user="jSeke">
    <nd ref="1350296218"/>
    <nd ref="2398631880"/>
    <tag k="cycleway:both" v="no"/>
    <tag k="highway" v="primary"/>
    <tag k="lanes" v="2"/>
    <tag k="maxspeed" v="20 mph"/>
    <tag k="name" v="Dalry Road"/>
    <tag k="name:gd" v="Rathad Dhail Fhraoich"/>
    <tag k="ref" v="A70"/>
    <tag k="sidewalk" v="both"/>
    <tag k="surface" v="asphalt"/>
  </way>
  <way id="227604414" version="17" timestamp="2024-08-23T01:44:48Z" changeset="155631129" uid="21762849" user="jSeke">
    <nd ref="2398631880"/>
    <nd ref="24943630"/>
    <nd ref="3703084680"/>
    <nd ref="519288834"/>
    <nd ref="24943631"/>
    <nd ref="25755902"/>
    <nd ref="24943632"/>
    <nd ref="986467208"/>
    <tag k="cycleway:both" v="no"/>
    <tag k="highway" v="primary"/>
    <tag k="lanes" v="2"/>
    <tag k="maxspeed" v="20 mph"/>
    <tag k="name" v="Dalry Road"/>
    <tag k="name:gd" v="Rathad Dhail Fhraoich"/>
    <tag k="ref" v="A70"/>
    <tag k="sidewalk" v="both"/>
    <tag k="sidewalk:both:surface" v="paving_stones"/>
    <tag k="surface" v="asphalt"/>
  </way>
  <way id="227604416" version="8" timestamp="2024-08-27T16:46:49Z" changeset="155841699" uid="21762849" user="jSeke">
    <nd ref="2807238040"/>
    <nd ref="509176797"/>
    <nd ref="1003402"/>
    <nd ref="8399385259"/>
    <nd ref="1003401"/>
    <tag k="cycleway:both" v="no"/>
    <tag k="highway" v="unclassified"/>
    <tag k="lanes" v="2"/>
    <tag k="lit" v="yes"/>
    <tag k="maxheight" v="default"/>
    <tag k="maxspeed" v="20 mph"/>
    <tag k="name" v="Russell Road"/>
    <tag k="name:gd" v="Rathad nan Ruisealach"/>
    <tag k="surface" v="asphalt"/>
  </way>
  <way id="228886954" version="3" timestamp="2023-02-01T13:28:25Z" changeset="131963613" uid="16721418" user="SmithyScotland">
    <nd ref="2375455099"/>
    <nd ref="2375455125"/>
    <nd ref="8399385258"/>
    <nd ref="2375455121"/>
    <nd ref="2375455116"/>
    <nd ref="2375455099"/>
    <tag k="building" v="industrial"/>
    <tag k="building:levels" v="2"/>
    <tag k="name" v="Roseburn Business Centre"/>
    <tag k="source" v="Bing"/>
  </way>
  <way id="233665854" version="4" timestamp="2016-02-24T17:12:08Z" changeset="37416927" uid="2234934" user="sophiemccallum">
    <nd ref="3734736667"/>
    <nd ref="4023945452"/>
    <nd ref="2420139507"/>
    <nd ref="3851589985"/>
    <nd ref="2420139559"/>
    <nd ref="2420139528"/>
    <nd ref="3734736661"/>
    <nd ref="3734736667"/>
    <tag k="building" v="house"/>
    <tag k="name" v="Bona Vista"/>
    <tag k="source" v="NLS_OS_Edinburgh_map_1940s;Bing"/>
  </way>
  <way id="233665856" version="5" timestamp="2023-08-20T17:36:04Z" changeset="140144126" uid="12657446" user="iv-nn">
    <nd ref="3734736638"/>
    <nd ref="3734736644"/>
    <nd ref="2420139540"/>
    <nd ref="2420139513"/>
    <nd ref="3851589987"/>
    <nd ref="3734736523"/>
    <nd ref="3734736638"/>
    <tag k="building" v="house"/>
    <tag k="building:levels" v="2"/>
    <tag k="name" v="Annfield"/>
    <tag k="roof:levels" v="1"/>
    <tag k="source" v="NLS_OS_Edinburgh_map_1940s;Bing"/>
  </way>
  <way id="233665857" version="5" timestamp="2023-08-20T17:36:04Z" changeset="140144126" uid="12657446" user="iv-nn">
    <nd ref="3734736658"/>
    <nd ref="3734736654"/>
    <nd ref="4023945454"/>
    <nd ref="4023945455"/>
    <nd ref="3734736652"/>
    <nd ref="2420139549"/>
    <nd ref="2420139480"/>
    <nd ref="3851589986"/>
    <nd ref="2420139543"/>
    <nd ref="3734736659"/>
    <nd ref="3734736658"/>
    <tag k="building" v="house"/>
    <tag k="building:levels" v="2"/>
    <tag k="name" v="Hayfield"/>
    <tag k="roof:levels" v="1"/>
    <tag k="source" v="NLS_OS_Edinburgh_map_1940s;Bing"/>
  </way>
  <way id="243239395" version="5" timestamp="2020-09-22T18:15:08Z" changeset="91313986" uid="3432400" user="GinaroZ">
    <nd ref="2506599500"/>
    <nd ref="2506599502"/>
    <nd ref="2506599496"/>
    <nd ref="3328407221"/>
    <nd ref="2506599504"/>
    <nd ref="2506599506"/>
    <nd ref="2506599507"/>
    <nd ref="3328407227"/>
    <nd ref="3328407226"/>
    <nd ref="2506599508"/>
    <nd ref="3328407236"/>
    <nd ref="3328407234"/>
    <nd ref="3328407232"/>
    <nd ref="3328407230"/>
    <nd ref="3328407231"/>
    <nd ref="3328407233"/>
    <nd ref="2506599500"/>
    <tag k="addr:city" v="Edinburgh"/>
    <tag k="addr:housenumber" v="7"/>
    <tag k="addr:street" v="Washington Lane"/>
    <tag k="building" v="office"/>
    <tag k="name" v="EMMS"/>
    <tag k="source" v="Bing;NLS_OS_Edinburgh_map_1940s"/>
  </way>
  <way id="246054842" version="12" timestamp="2024-08-27T16:46:49Z" changeset="155841699" uid="21762849" user="jSeke">
    <nd ref="2531369620"/>
    <nd ref="8905240678"/>
    <nd ref="24942472"/>
    <tag k="highway" v="primary"/>
    <tag k="lanes" v="3"/>
    <tag k="lanes:backward" v="1"/>
    <tag k="lanes:forward" v="2"/>
    <tag k="lit" v="yes"/>
    <tag k="maxheight" v="15'6&quot;"/>
    <tag k="maxspeed" v="20 mph"/>
    <tag k="name" v="Gorgie Road"/>
    <tag k="name:gd" v="Rathad Ghorgain"/>
    <tag k="ref" v="A71"/>
    <tag k="sidewalk" v="both"/>
    <tag k="surface" v="asphalt"/>
  </way>
  <way id="248056209" version="8" timestamp="2024-11-11T15:22:46Z" changeset="159013694" uid="16721418" user="SmithyScotland">
    <nd ref="2549023291"/>
    <nd ref="3329935369"/>
    <nd ref="2549023304"/>
    <nd ref="2549023276"/>
    <nd ref="3851590035"/>
    <nd ref="2549023279"/>
    <nd ref="2549023293"/>
    <nd ref="2549023296"/>
    <nd ref="2549023298"/>
    <nd ref="2549023291"/>
    <tag k="addr:city" v="Edinburgh"/>
    <tag k="addr:housenumber" v="60"/>
    <tag k="addr:postcode" v="EH11 2LX"/>
    <tag k="addr:street" v="Gorgie Road"/>
    <tag k="building" v="yes"/>
    <tag k="check_date" v="2024-09-14"/>
  </way>
  <way id="248056215" version="4" timestamp="2022-09-04T18:58:09Z" changeset="125785009" uid="16721418" user="SmithyScotland">
    <nd ref="2549023384"/>
    <nd ref="2549023389"/>
    <nd ref="2549023391"/>
    <nd ref="2549023394"/>
    <nd ref="3999685962"/>
    <nd ref="2549023396"/>
    <nd ref="2549023399"/>
    <nd ref="2549023384"/>
    <tag k="building" v="yes"/>
    <tag k="name" v="Gorgie Social Club"/>
    <tag k="old_name" v="Edinburgh Prison Officers Social Club"/>
  </way>
  <way id="250582190" version="4" timestamp="2024-01-31T09:54:31Z" changeset="146896688" uid="8556201" user="LonMcGregor">
    <nd ref="2570065733"/>
    <nd ref="8513521183"/>
    <nd ref="8513521182"/>
    <nd ref="8513521181"/>
    <nd ref="8513521180"/>
    <nd ref="8513521179"/>
    <nd ref="8513521178"/>
    <nd ref="2570065730"/>
    <nd ref="8513521177"/>
    <nd ref="8513521176"/>
    <nd ref="8513521175"/>
    <nd ref="24942537"/>
    <tag k="highway" v="residential"/>
    <tag k="lanes" v="2"/>
    <tag k="lit" v="yes"/>
    <tag k="maxspeed" v="20 mph"/>
    <tag k="name" v="St Nicholas Place"/>
    <tag k="sidewalk" v="right"/>
    <tag k="surface" v="paved"/>
  </way>
  <way id="259169859" version="4" timestamp="2017-03-06T10:39:23Z" changeset="46619735" uid="33764" user="Rostranimin">
    <nd ref="506782294"/>
    <nd ref="2645273498"/>
    <tag k="highway" v="residential"/>
    <tag k="maxspeed" v="20 mph"/>
    <tag k="name" v="Murieston Crescent Lane"/>
    <tag k="oneway" v="no"/>
    <tag k="tunnel" v="building_passage"/>
  </way>
  <way id="259169860" version="3" timestamp="2014-12-31T17:35:49Z" changeset="27827178" uid="42123" user="Ropino">
    <nd ref="2645273498"/>
    <nd ref="2645273499"/>
    <tag k="highway" v="residential"/>
    <tag k="maxspeed" v="30 mph"/>
    <tag k="name" v="Murieston Crescent Lane"/>
  </way>
  <way id="259233305" version="3" timestamp="2021-02-06T12:46:55Z" changeset="98811961" uid="388774" user="drnoble">
    <nd ref="2645862390"/>
    <nd ref="2645862391"/>
    <nd ref="2645862392"/>
    <nd ref="2645862393"/>
    <nd ref="2645862390"/>
    <tag k="building" v="industrial"/>
    <tag k="building:levels" v="1"/>
    <tag k="name" v="Haymarket Relay Room"/>
    <tag k="operator" v="Network Rail"/>
    <tag k="ref" v="EGM2"/>
    <tag k="source" v="Bing"/>
  </way>
  <way id="273334866" version="6" timestamp="2020-09-22T18:15:08Z" changeset="91313986" uid="3432400" user="GinaroZ">
    <nd ref="2782000354"/>
    <nd ref="2782000355"/>
    <nd ref="2782000325"/>
    <nd ref="2782000353"/>
    <nd ref="3107554195"/>
    <nd ref="2781855236"/>
    <nd ref="2134397455"/>
    <nd ref="2782000351"/>
    <nd ref="2134397435"/>
    <nd ref="2782000354"/>
    <tag k="addr:city" v="Edinburgh"/>
    <tag k="addr:housenumber" v="15A"/>
    <tag k="addr:street" v="Richmond Terrace"/>
    <tag k="building" v="yes"/>
    <tag k="name" v="Scott of Dalry (MOT)"/>
    <tag k="note" v="MOT Test Station"/>
    <tag k="shop" v="car_repair"/>
    <tag k="source" v="NLS_OS_Edinburgh_map_1940s;Bing;survey"/>
  </way>
  <way id="276094794" version="8" timestamp="2024-08-27T16:46:49Z" changeset="155841699" uid="21762849" user="jSeke">
    <nd ref="610588"/>
    <nd ref="606189"/>
    <tag k="highway" v="tertiary"/>
    <tag k="lanes" v="2"/>
    <tag k="lit" v="yes"/>
    <tag k="maxheight" v="12'9&quot;"/>
    <tag k="maxspeed" v="30 mph"/>
    <tag k="name" v="Roseburn Street"/>
    <tag k="name:gd" v="Sràid Allt nan Ròsan"/>
    <tag k="sidewalk" v="right"/>
    <tag k="surface" v="asphalt"/>
  </way>
  <way id="278785133" version="6" timestamp="2020-11-01T17:05:55Z" changeset="93375550" uid="388774" user="drnoble">
    <nd ref="2830921102"/>
    <nd ref="3924327808"/>
    <nd ref="2868598758"/>
    <nd ref="8071966068"/>
    <nd ref="8071966065"/>
    <nd ref="2830921101"/>
    <tag k="highway" v="residential"/>
    <tag k="lanes" v="2"/>
    <tag k="lit" v="yes"/>
    <tag k="maxspeed" v="20 mph"/>
    <tag k="name" v="Handyside Place"/>
    <tag k="note" v="not signed"/>
    <tag k="sidewalk" v="both"/>
    <tag k="source:name" v="OS_OpenData_Locator"/>
    <tag k="surface" v="asphalt"/>
  </way>
  <way id="279461887" version="5" timestamp="2020-09-22T18:15:08Z" changeset="91313986" uid="3432400" user="GinaroZ">
    <nd ref="4874458809"/>
    <nd ref="4874458811"/>
    <nd ref="4874458810"/>
    <nd ref="2836815206"/>
    <nd ref="2836815207"/>
    <nd ref="3924327832"/>
    <nd ref="3924327835"/>
    <nd ref="4874458809"/>
    <tag k="addr:city" v="Edinburgh"/>
    <tag k="addr:housenumber" v="2"/>
    <tag k="addr:street" v="Sinclair Place"/>
    <tag k="building" v="apartments"/>
    <tag k="source" v="Bing"/>
  </way>
  <way id="279461894" version="7" timestamp="2020-09-22T18:15:08Z" changeset="91313986" uid="3432400" user="GinaroZ">
    <nd ref="3924327805"/>
    <nd ref="3924327806"/>
    <nd ref="3924327790"/>
    <nd ref="3924327789"/>
    <nd ref="3924327787"/>
    <nd ref="3924327782"/>
    <nd ref="3924327780"/>
    <nd ref="3924327781"/>
    <nd ref="3924327776"/>
    <nd ref="3924327773"/>
    <nd ref="3924327771"/>
    <nd ref="3924327772"/>
    <nd ref="3924327775"/>
    <nd ref="3924327778"/>
    <nd ref="4874459226"/>
    <nd ref="3924327798"/>
    <nd ref="3924327801"/>
    <nd ref="3924327805"/>
    <tag k="addr:city" v="Edinburgh"/>
    <tag k="addr:housenumber" v="24"/>
    <tag k="addr:street" v="Sinclair Place"/>
    <tag k="building" v="apartments"/>
    <tag k="building:levels" v="4"/>
    <tag k="source" v="Bing"/>
  </way>
  <way id="322480870" version="6" timestamp="2025-04-25T18:05:47Z" changeset="165436806" uid="22810574" user="MagicMapper">
    <nd ref="3292543313"/>
    <nd ref="3292543298"/>
    <nd ref="3292543292"/>
    <nd ref="3292543302"/>
    <nd ref="3292543313"/>
    <tag k="addr:housenumber" v="172"/>
    <tag k="addr:street" v="Dalry Road"/>
    <tag k="building" v="apartments"/>
    <tag k="source" v="NLS_OS_Edinburgh_map_1940s;Bing"/>
  </way>
  <way id="327244819" version="2" timestamp="2017-02-13T12:28:24Z" changeset="46045700" uid="2234934" user="sophiemccallum">
    <nd ref="3339725151"/>
    <nd ref="2242288424"/>
    <nd ref="2242288412"/>
    <nd ref="2242288379"/>
    <nd ref="3360165963"/>
    <nd ref="3360165968"/>
    <nd ref="2242288440"/>
    <nd ref="3339725155"/>
    <nd ref="2192586233"/>
    <nd ref="3339725156"/>
    <nd ref="3339725151"/>
    <tag k="building" v="club_house"/>
    <tag k="name" v="Ardmillan Bowling Club Pavilion"/>
    <tag k="source" v="Bing"/>
  </way>
  <way id="332517441" version="4" timestamp="2020-04-10T12:07:56Z" changeset="83362773" uid="53626" user="jambamkin">
    <nd ref="2145237625"/>
    <nd ref="4883382009"/>
    <nd ref="4883382010"/>
    <nd ref="25873130"/>
    <tag k="highway" v="residential"/>
    <tag k="lit" v="yes"/>
    <tag k="maxspeed" v="20 mph"/>
    <tag k="name" v="Northcote Street"/>
    <tag k="surface" v="asphalt"/>
  </way>
  <way id="332517444" version="3" timestamp="2024-11-13T16:44:56Z" changeset="159099049" uid="16721418" user="SmithyScotland">
    <nd ref="3396645334"/>
    <nd ref="3396645336"/>
    <nd ref="3396645333"/>
    <nd ref="3396645330"/>
    <nd ref="3396645334"/>
    <tag k="building" v="yes"/>
    <tag k="name" v="Easter Dalry Place"/>
    <tag k="operator" v="SP Energy Networks"/>
    <tag k="operator:wikidata" v="Q116022116"/>
    <tag k="power" v="substation"/>
    <tag k="source" v="Bing"/>
    <tag k="substation" v="minor_distribution"/>
  </way>
  <way id="338827529" version="4" timestamp="2023-03-12T08:48:43Z" changeset="133577766" uid="16721418" user="SmithyScotland">
    <nd ref="3459740810"/>
    <nd ref="1369869302"/>
    <nd ref="1369869272"/>
    <nd ref="1369869384"/>
    <nd ref="3459740810"/>
    <tag k="addr:housenumber" v="3"/>
    <tag k="addr:street" v="McLeod Street"/>
    <tag k="building" v="apartments"/>
    <tag k="building:levels" v="4"/>
    <tag k="source" v="NLS_OS_Edinburgh_map_1940s;Bing"/>
  </way>
  <way id="351002188" version="7" timestamp="2021-11-29T10:39:08Z" changeset="114355683" uid="2922304" user="smeòrach">
    <nd ref="3567226329"/>
    <nd ref="3567226331"/>
    <nd ref="3567226337"/>
    <nd ref="2506599462"/>
    <nd ref="3567226339"/>
    <nd ref="3567226340"/>
    <nd ref="3567226336"/>
    <nd ref="3567226335"/>
    <nd ref="2506599464"/>
    <nd ref="2626082131"/>
    <nd ref="3567226324"/>
    <nd ref="3567226326"/>
    <nd ref="3567226320"/>
    <nd ref="3567226325"/>
    <nd ref="3567226315"/>
    <nd ref="3567226322"/>
    <nd ref="3567226329"/>
    <tag k="addr:city" v="Edinburgh"/>
    <tag k="addr:housenumber" v="5"/>
    <tag k="addr:street" v="West Park Place"/>
    <tag k="building" v="dormitory"/>
    <tag k="name" v="Nido Haymarket"/>
    <tag k="phone" v="+44 131 3707 317"/>
    <tag k="website" v="https://www.nidostudent.com/locations/edinburgh/haymarket/"/>
  </way>
  <way id="358972239" version="11" timestamp="2025-03-18T12:51:11Z" changeset="163773710" uid="16721418" user="SmithyScotland">
    <nd ref="2484958310"/>
    <nd ref="1699532845"/>
    <nd ref="1699532848"/>
    <nd ref="6825461497"/>
    <nd ref="8399232485"/>
    <nd ref="8241598672"/>
    <nd ref="1699532846"/>
    <nd ref="3637969576"/>
    <nd ref="3637969578"/>
    <nd ref="12676421299"/>
    <nd ref="6937781992"/>
    <nd ref="7220918205"/>
    <nd ref="24942541"/>
    <nd ref="3459740816"/>
    <nd ref="12673120894"/>
    <nd ref="24942540"/>
    <tag k="highway" v="residential"/>
    <tag k="lanes" v="2"/>
    <tag k="lit" v="yes"/>
    <tag k="maxspeed" v="20 mph"/>
    <tag k="name" v="McLeod Street"/>
    <tag k="sidewalk" v="both"/>
    <tag k="surface" v="asphalt"/>
  </way>
  <way id="359204039" version="2" timestamp="2017-03-05T20:58:17Z" changeset="46606336" uid="33764" user="Rostranimin">
    <nd ref="24942516"/>
    <nd ref="24942517"/>
    <tag k="highway" v="residential"/>
    <tag k="lit" v="yes"/>
    <tag k="maxspeed" v="20 mph"/>
    <tag k="name" v="White Park"/>
    <tag k="source" v="Bing;survey"/>
  </way>
  <way id="362445600" version="11" timestamp="2025-05-16T01:16:01Z" changeset="166327864" uid="9498565" user="CycleAlex">
    <nd ref="2362574352"/>
    <nd ref="501896794"/>
    <nd ref="506782291"/>
    <nd ref="24942560"/>
    <nd ref="12772007705"/>
    <nd ref="24943639"/>
    <nd ref="1350296218"/>
    <tag k="cycleway:both" v="no"/>
    <tag k="cycleway:width" v="1.2"/>
    <tag k="highway" v="primary"/>
    <tag k="lit" v="yes"/>
    <tag k="maxspeed" v="20 mph"/>
    <tag k="name" v="Dalry Road"/>
    <tag k="name:gd" v="Rathad Dhail Fhraoich"/>
    <tag k="ref" v="A70"/>
    <tag k="sidewalk" v="both"/>
    <tag k="surface" v="asphalt"/>
  </way>
  <way id="368003200" version="3" timestamp="2019-10-20T09:10:29Z" changeset="75947897" uid="8155596" user="Lanthanus">
    <nd ref="606177"/>
    <nd ref="2398530367"/>
    <tag k="bicycle" v="no"/>
    <tag k="foot" v="no"/>
    <tag k="highway" v="tertiary"/>
    <tag k="lanes" v="2"/>
    <tag k="lit" v="yes"/>
    <tag k="maxspeed" v="30 mph"/>
    <tag k="maxweight" v="1.5"/>
    <tag k="name" v="West Approach Road"/>
    <tag k="oneway" v="yes"/>
    <tag k="source" v="OS_OpenData_StreetView"/>
    <tag k="surface" v="asphalt"/>
  </way>
  <way id="368003201" version="2" timestamp="2019-10-20T09:10:23Z" changeset="75947897" uid="8155596" user="Lanthanus">
    <nd ref="2398530366"/>
    <nd ref="3718677202"/>
    <nd ref="3718677204"/>
    <nd ref="2242688132"/>
    <tag k="bicycle" v="no"/>
    <tag k="foot" v="no"/>
    <tag k="highway" v="tertiary"/>
    <tag k="lanes" v="1"/>
    <tag k="lit" v="yes"/>
    <tag k="maxspeed" v="30 mph"/>
    <tag k="maxweight" v="1.5"/>
    <tag k="name" v="West Approach Road"/>
    <tag k="oneway" v="yes"/>
    <tag k="source" v="OS_OpenData_StreetView"/>
    <tag k="surface" v="asphalt"/>
  </way>
  <way id="368003202" version="5" timestamp="2024-12-20T10:43:37Z" changeset="160427370" uid="16721418" user="SmithyScotland">
    <nd ref="2398530367"/>
    <nd ref="2300754617"/>
    <nd ref="12435525679"/>
    <nd ref="3703084679"/>
    <nd ref="687889909"/>
    <nd ref="12408008987"/>
    <nd ref="805649590"/>
    <nd ref="3703060999"/>
    <nd ref="24943629"/>
    <tag k="bicycle" v="no"/>
    <tag k="foot" v="no"/>
    <tag k="highway" v="tertiary"/>
    <tag k="lanes" v="2"/>
    <tag k="lit" v="yes"/>
    <tag k="maxspeed" v="40 mph"/>
    <tag k="maxweight" v="1.5"/>
    <tag k="name" v="West Approach Road"/>
    <tag k="oneway" v="yes"/>
    <tag k="shoulder" v="no"/>
    <tag k="source" v="OS_OpenData_StreetView"/>
    <tag k="surface" v="asphalt"/>
  </way>
  <way id="368175553" version="6" timestamp="2024-08-03T11:04:22Z" changeset="154769380" uid="21143475" user="Htf4">
    <nd ref="4683343782"/>
    <nd ref="8473703372"/>
    <nd ref="3720325255"/>
    <nd ref="1129288544"/>
    <nd ref="3720325276"/>
    <nd ref="4683343782"/>
    <tag k="addr:city" v="Edinburgh"/>
    <tag k="addr:housenumber" v="9"/>
    <tag k="addr:postcode" v="EH11 2PX"/>
    <tag k="addr:street" v="Wheatfield Road"/>
    <tag k="amenity" v="clubhouse"/>
    <tag k="building" v="yes"/>
    <tag k="check_date" v="2024-08-03"/>
    <tag k="club" v="sport"/>
    <tag k="name" v="North British Distillery Bowling Club Pavilion"/>
    <tag k="phone" v="+44 131 337 3363"/>
    <tag k="sport" v="bowls"/>
  </way>
  <way id="368177835" version="6" timestamp="2021-02-06T11:37:03Z" changeset="98809315" uid="388774" user="drnoble">
    <nd ref="3382228963"/>
    <nd ref="24942524"/>
    <nd ref="3382228970"/>
    <nd ref="3382228973"/>
    <nd ref="3382228974"/>
    <nd ref="3382228975"/>
    <nd ref="24942533"/>
    <nd ref="3382228976"/>
    <nd ref="3382228977"/>
    <nd ref="3382228978"/>
    <nd ref="24942523"/>
    <tag k="highway" v="residential"/>
    <tag k="lanes" v="2"/>
    <tag k="lit" v="yes"/>
    <tag k="maxspeed" v="20 mph"/>
    <tag k="name" v="Stewart Terrace"/>
    <tag k="oneway" v="no"/>
    <tag k="sidewalk" v="both"/>
    <tag k="surface" v="asphalt"/>
  </way>
  <way id="369703935" version="4" timestamp="2023-08-20T17:36:04Z" changeset="140144126" uid="12657446" user="iv-nn">
    <nd ref="3734736523"/>
    <nd ref="3851589988"/>
    <nd ref="2420139517"/>
    <nd ref="2420139532"/>
    <nd ref="4023945440"/>
    <nd ref="3734736625"/>
    <nd ref="3734736638"/>
    <nd ref="3734736523"/>
    <tag k="building" v="house"/>
    <tag k="building:levels" v="2"/>
    <tag k="name" v="Benfield"/>
    <tag k="roof:levels" v="1"/>
    <tag k="source" v="NLS_OS_Edinburgh_map_1940s;Bing"/>
  </way>
  <way id="389271219" version="2" timestamp="2017-03-05T20:58:18Z" changeset="46606336" uid="33764" user="Rostranimin">
    <nd ref="24942528"/>
    <nd ref="3924327890"/>
    <tag k="highway" v="residential"/>
    <tag k="lit" v="yes"/>
    <tag k="maxspeed" v="20 mph"/>
    <tag k="name" v="Sinclair Place"/>
    <tag k="source" v="Bing;survey"/>
  </way>
  <way id="392960091" version="3" timestamp="2024-12-01T16:00:06Z" changeset="159811459" uid="16721418" user="SmithyScotland">
    <nd ref="3961472246"/>
    <nd ref="3961472245"/>
    <nd ref="3961472243"/>
    <nd ref="3961472242"/>
    <nd ref="3961472246"/>
    <tag k="building" v="shed"/>
    <tag k="name" v="Westfield Avenue"/>
    <tag k="operator" v="SP Energy Networks"/>
    <tag k="operator:wikidata" v="Q116022116"/>
    <tag k="power" v="substation"/>
  </way>
  <way id="397147638" version="2" timestamp="2017-03-05T19:57:43Z" changeset="46604986" uid="33764" user="Rostranimin">
    <nd ref="3567226327"/>
    <nd ref="25574271"/>
    <tag k="highway" v="unclassified"/>
    <tag k="lanes" v="1"/>
    <tag k="maxspeed" v="20 mph"/>
    <tag k="name" v="West Park Place"/>
  </way>
  <way id="464543846" version="2" timestamp="2019-01-01T18:07:09Z" changeset="65938900" uid="388774" user="drnoble">
    <nd ref="4596439608"/>
    <nd ref="6177003466"/>
    <nd ref="4596439644"/>
    <nd ref="4596439643"/>
    <nd ref="4596439609"/>
    <nd ref="4596439610"/>
    <nd ref="4596439611"/>
    <nd ref="6177003445"/>
    <nd ref="6177003446"/>
    <nd ref="4596439608"/>
    <tag k="addr:city" v="Edinburgh"/>
    <tag k="addr:housename" v="Carnethy House"/>
    <tag k="addr:housenumber" v="24A"/>
    <tag k="addr:postcode" v="EH11 2DY"/>
    <tag k="addr:street" v="Orwell Terrace"/>
    <tag k="building" v="residential"/>
    <tag k="building:levels" v="6"/>
  </way>
  <way id="464543847" version="2" timestamp="2019-01-01T18:07:09Z" changeset="65938900" uid="388774" user="drnoble">
    <nd ref="6177003466"/>
    <nd ref="4596439644"/>
    <nd ref="4596439615"/>
    <nd ref="4596439612"/>
    <nd ref="4596439641"/>
    <nd ref="4596439640"/>
    <nd ref="4596439613"/>
    <nd ref="6177003447"/>
    <nd ref="6177003464"/>
    <nd ref="6177003466"/>
    <tag k="addr:city" v="Edinburgh"/>
    <tag k="addr:flats" v="2-11"/>
    <tag k="addr:housename" v="East Kip House"/>
    <tag k="addr:housenumber" v="24B"/>
    <tag k="addr:postcode" v="EH11 2DY"/>
    <tag k="addr:street" v="Orwell Terrace"/>
    <tag k="building" v="residential"/>
    <tag k="building:levels" v="5"/>
  </way>
  <way id="464543848" version="2" timestamp="2019-01-01T18:07:09Z" changeset="65938900" uid="388774" user="drnoble">
    <nd ref="4596439616"/>
    <nd ref="4596439617"/>
    <nd ref="4596439618"/>
    <nd ref="6177003444"/>
    <nd ref="6177003465"/>
    <nd ref="6177003449"/>
    <nd ref="4596439619"/>
    <nd ref="6177003450"/>
    <nd ref="4596439620"/>
    <nd ref="4596439621"/>
    <nd ref="4596439622"/>
    <nd ref="4596439642"/>
    <nd ref="4596439623"/>
    <nd ref="4596439616"/>
    <tag k="addr:city" v="Edinburgh"/>
    <tag k="addr:flats" v="1-8"/>
    <tag k="addr:housename" v="Caerketton House"/>
    <tag k="addr:housenumber" v="22A"/>
    <tag k="addr:postcode" v="EH11 2DY"/>
    <tag k="addr:street" v="Orwell Terrace"/>
    <tag k="building" v="residential"/>
    <tag k="building:levels" v="4"/>
  </way>
  <way id="464543849" version="2" timestamp="2019-01-01T18:07:09Z" changeset="65938900" uid="388774" user="drnoble">
    <nd ref="4596439624"/>
    <nd ref="4596439639"/>
    <nd ref="4596439628"/>
    <nd ref="4596439629"/>
    <nd ref="4596439625"/>
    <nd ref="4596439631"/>
    <nd ref="4596439630"/>
    <nd ref="4596439632"/>
    <nd ref="4596439626"/>
    <nd ref="4596439634"/>
    <nd ref="4596439633"/>
    <nd ref="4596439635"/>
    <nd ref="4596439627"/>
    <nd ref="4596439638"/>
    <nd ref="4596439636"/>
    <nd ref="4596439637"/>
    <nd ref="4596439624"/>
    <tag k="addr:city" v="Edinburgh"/>
    <tag k="addr:flats" v="1-7"/>
    <tag k="addr:housename" v="Scald Law House"/>
    <tag k="addr:housenumber" v="22B"/>
    <tag k="addr:postcode" v="EH11 2DY"/>
    <tag k="addr:street" v="Orwell Terrace"/>
    <tag k="building" v="residential"/>
    <tag k="building:levels" v="7"/>
  </way>
  <way id="464543850" version="3" timestamp="2019-01-17T12:58:39Z" changeset="66395081" uid="3432400" user="GinaroZ">
    <nd ref="4596439646"/>
    <nd ref="4596439647"/>
    <nd ref="4596439648"/>
    <nd ref="4596439649"/>
    <nd ref="4596439646"/>
    <tag k="building" v="yes"/>
    <tag k="name" v="Orwell Place"/>
    <tag k="power" v="substation"/>
    <tag k="substation" v="yes"/>
  </way>
  <way id="467158119" version="4" timestamp="2024-11-11T15:22:46Z" changeset="159013694" uid="16721418" user="SmithyScotland">
    <nd ref="4618113268"/>
    <nd ref="4618113270"/>
    <nd ref="4618113271"/>
    <nd ref="4618113272"/>
    <nd ref="4618113273"/>
    <nd ref="4618113268"/>
    <tag k="addr:city" v="Edinburgh"/>
    <tag k="addr:housenumber" v="3"/>
    <tag k="addr:postcode" v="EH11 2LX"/>
    <tag k="addr:street" v="Murieston Lane"/>
    <tag k="building" v="commercial"/>
    <tag k="phone" v="+44 131 3378189"/>
    <tag k="website" v="https://www.earth-electricalcontractors.co.uk/"/>
  </way>
  <way id="473380615" version="4" timestamp="2024-10-27T19:01:09Z" changeset="158427218" uid="16721418" user="SmithyScotland">
    <nd ref="4675020660"/>
    <nd ref="4675020659"/>
    <nd ref="4675020658"/>
    <nd ref="4675020657"/>
    <nd ref="4675020660"/>
    <tag k="addr:city" v="Edinburgh"/>
    <tag k="addr:street" v="Orwell Terrace"/>
    <tag k="building" v="shed"/>
    <tag k="check_date" v="2023-07-21"/>
    <tag k="disused:amenity" v="cafe"/>
    <tag k="historic" v="police_call_box"/>
    <tag k="internet_access" v="no"/>
    <tag k="name" v="Coffee Crawler"/>
    <tag k="old_name" v="Old Police Call Box"/>
    <tag k="opening_hours" v="Mo-Fr 07:30-15:00, Sa 09:00-14:00"/>
    <tag k="outdoor_seating" v="no"/>
    <tag k="source" v="NLS_OS_Edinburgh_map_1940s;Bing"/>
    <tag k="toilets" v="no"/>
    <tag k="website" v="https://www.instagram.com/coffeecrawler_"/>
  </way>
  <way id="474361024" version="1" timestamp="2017-02-13T12:28:12Z" changeset="46045700" uid="2234934" user="sophiemccallum">
    <nd ref="4634480411"/>
    <nd ref="4634480409"/>
    <nd ref="4634480407"/>
    <nd ref="4634480408"/>
    <nd ref="4634480410"/>
    <nd ref="4634480412"/>
    <nd ref="4634480413"/>
    <nd ref="1819537858"/>
    <nd ref="1819537867"/>
    <nd ref="1819537849"/>
    <nd ref="1819537865"/>
    <nd ref="4634480414"/>
    <nd ref="4634480411"/>
    <tag k="building" v="club_house"/>
    <tag k="name" v="Balgreen Bowling Green Pavilion"/>
    <tag k="source" v="Bing"/>
  </way>
  <way id="478702800" version="8" timestamp="2024-08-27T16:46:49Z" changeset="155841699" uid="21762849" user="jSeke">
    <nd ref="2536592147"/>
    <nd ref="24942537"/>
    <nd ref="2484960113"/>
    <nd ref="1129288502"/>
    <nd ref="2484960110"/>
    <nd ref="602460"/>
    <nd ref="2484960116"/>
    <nd ref="2375398125"/>
    <nd ref="5839837044"/>
    <nd ref="610602"/>
    <tag k="cycleway:left" v="share_busway"/>
    <tag k="highway" v="primary"/>
    <tag k="lanes" v="2"/>
    <tag k="lit" v="yes"/>
    <tag k="maxspeed" v="20 mph"/>
    <tag k="name" v="Gorgie Road"/>
    <tag k="name:gd" v="Rathad Ghorgain"/>
    <tag k="ref" v="A71"/>
    <tag k="sidewalk" v="both"/>
    <tag k="surface" v="asphalt"/>
  </way>
  <way id="478702801" version="5" timestamp="2024-08-04T14:21:26Z" changeset="154813792" uid="21143475" user="Htf4">
    <nd ref="602459"/>
    <nd ref="10064451306"/>
    <nd ref="3737488536"/>
    <tag k="highway" v="residential"/>
    <tag k="lanes" v="2"/>
    <tag k="lit" v="yes"/>
    <tag k="maxspeed" v="30 mph"/>
    <tag k="name" v="Hutchison Crossway"/>
    <tag k="sidewalk" v="both"/>
    <tag k="source" v="Bing;survey"/>
    <tag k="surface" v="asphalt"/>
  </way>
  <way id="478702813" version="3" timestamp="2019-12-30T20:04:21Z" changeset="79029149" uid="388774" user="drnoble">
    <nd ref="368981399"/>
    <nd ref="4719166207"/>
    <tag k="highway" v="residential"/>
    <tag k="lit" v="yes"/>
    <tag k="maxspeed" v="30 mph"/>
    <tag k="name" v="Stevenson Avenue"/>
    <tag k="sidewalk" v="both"/>
    <tag k="source" v="Bing;survey"/>
    <tag k="surface" v="asphalt"/>
  </way>
  <way id="478702814" version="4" timestamp="2024-07-13T09:47:59Z" changeset="153886044" uid="648268" user="lrnzo">
    <nd ref="4719166208"/>
    <nd ref="1827483434"/>
    <tag k="highway" v="residential"/>
    <tag k="lanes" v="2"/>
    <tag k="lit" v="yes"/>
    <tag k="maxspeed" v="30 mph"/>
    <tag k="name" v="Stevenson Avenue"/>
    <tag k="sidewalk" v="both"/>
    <tag k="source" v="Bing;survey"/>
    <tag k="surface" v="asphalt"/>
  </way>
  <way id="478702815" version="4" timestamp="2024-06-22T13:30:31Z" changeset="153029902" uid="20491848" user="4eyez">
    <nd ref="248499133"/>
    <nd ref="610605"/>
    <nd ref="4719166209"/>
    <tag k="highway" v="tertiary"/>
    <tag k="lanes" v="2"/>
    <tag k="lit" v="yes"/>
    <tag k="maxspeed" v="30 mph"/>
    <tag k="name" v="Westfield Road"/>
    <tag k="oneway" v="no"/>
    <tag k="surface" v="asphalt"/>
  </way>
  <way id="478702816" version="4" timestamp="2024-09-08T12:28:18Z" changeset="156349696" uid="20491848" user="4eyez">
    <nd ref="248499133"/>
    <nd ref="610606"/>
    <nd ref="4719166210"/>
    <tag k="highway" v="unclassified"/>
    <tag k="lanes" v="2"/>
    <tag k="maxspeed" v="30 mph"/>
    <tag k="name" v="Westfield Avenue"/>
    <tag k="surface" v="asphalt"/>
  </way>
  <way id="495661855" version="5" timestamp="2020-09-22T18:15:08Z" changeset="91313986" uid="3432400" user="GinaroZ">
    <nd ref="3924327802"/>
    <nd ref="3924327800"/>
    <nd ref="6380611282"/>
    <nd ref="3924327795"/>
    <nd ref="3924327793"/>
    <nd ref="3924327791"/>
    <nd ref="3924327792"/>
    <nd ref="3924327794"/>
    <nd ref="3924327796"/>
    <nd ref="2836815234"/>
    <nd ref="3924327809"/>
    <nd ref="3924327807"/>
    <nd ref="3924327802"/>
    <tag k="addr:city" v="Edinburgh"/>
    <tag k="addr:housenumber" v="26"/>
    <tag k="addr:street" v="Sinclair Place"/>
    <tag k="building" v="apartments"/>
    <tag k="source" v="Bing"/>
  </way>
  <way id="495715930" version="3" timestamp="2020-09-22T18:15:08Z" changeset="91313986" uid="3432400" user="GinaroZ">
    <nd ref="3924327835"/>
    <nd ref="2836815208"/>
    <nd ref="2836815209"/>
    <nd ref="2836815210"/>
    <nd ref="4874458808"/>
    <nd ref="4874458807"/>
    <nd ref="2836815211"/>
    <nd ref="4874458809"/>
    <nd ref="3924327835"/>
    <tag k="addr:city" v="Edinburgh"/>
    <tag k="addr:housenumber" v="1"/>
    <tag k="addr:street" v="Sinclair Place"/>
    <tag k="building" v="apartments"/>
    <tag k="source" v="Bing"/>
  </way>
  <way id="495715936" version="3" timestamp="2020-09-22T18:15:08Z" changeset="91313986" uid="3432400" user="GinaroZ">
    <nd ref="3924327864"/>
    <nd ref="3924327860"/>
    <nd ref="3924327859"/>
    <nd ref="3924327855"/>
    <nd ref="3924327852"/>
    <nd ref="3924327848"/>
    <nd ref="3924327849"/>
    <nd ref="3924327838"/>
    <nd ref="3924327851"/>
    <nd ref="4874459232"/>
    <nd ref="4874459231"/>
    <nd ref="3924327862"/>
    <nd ref="3924327864"/>
    <tag k="addr:city" v="Edinburgh"/>
    <tag k="addr:housenumber" v="28"/>
    <tag k="addr:street" v="Sinclair Place"/>
    <tag k="building" v="apartments"/>
    <tag k="source" v="Bing"/>
  </way>
  <way id="495715937" version="3" timestamp="2020-09-22T18:15:08Z" changeset="91313986" uid="3432400" user="GinaroZ">
    <nd ref="3924327801"/>
    <nd ref="4874459233"/>
    <nd ref="4874459234"/>
    <nd ref="3924327802"/>
    <nd ref="3924327807"/>
    <nd ref="3924327820"/>
    <nd ref="3924327823"/>
    <nd ref="3924327825"/>
    <nd ref="3924327824"/>
    <nd ref="3924327822"/>
    <nd ref="3924327818"/>
    <nd ref="3924327805"/>
    <nd ref="3924327801"/>
    <tag k="addr:city" v="Edinburgh"/>
    <tag k="addr:housenumber" v="25"/>
    <tag k="addr:street" v="Sinclair Place"/>
    <tag k="building" v="apartments"/>
    <tag k="source" v="Bing"/>
  </way>
  <way id="495715938" version="3" timestamp="2020-09-22T18:15:08Z" changeset="91313986" uid="3432400" user="GinaroZ">
    <nd ref="3924327838"/>
    <nd ref="3924327836"/>
    <nd ref="3924327817"/>
    <nd ref="3924327815"/>
    <nd ref="3924327813"/>
    <nd ref="3924327814"/>
    <nd ref="3924327816"/>
    <nd ref="3924327821"/>
    <nd ref="3924327826"/>
    <nd ref="3924327827"/>
    <nd ref="3924327830"/>
    <nd ref="3924327834"/>
    <nd ref="3924327839"/>
    <nd ref="3924327837"/>
    <nd ref="3924327854"/>
    <nd ref="3924327851"/>
    <nd ref="3924327838"/>
    <tag k="addr:city" v="Edinburgh"/>
    <tag k="addr:housenumber" v="27"/>
    <tag k="addr:street" v="Sinclair Place"/>
    <tag k="building" v="apartments"/>
    <tag k="source" v="Bing"/>
  </way>
  <way id="498588445" version="2" timestamp="2024-12-01T15:54:21Z" changeset="159811268" uid="16721418" user="SmithyScotland">
    <nd ref="4899778281"/>
    <nd ref="4899778276"/>
    <nd ref="4899778283"/>
    <nd ref="4899778278"/>
    <nd ref="4899778281"/>
    <tag k="building" v="yes"/>
    <tag k="name" v="Alexander Drive"/>
    <tag k="operator" v="SP Energy Networks"/>
    <tag k="operator:wikidata" v="Q116022116"/>
    <tag k="power" v="substation"/>
    <tag k="source" v="Bing"/>
    <tag k="substation" v="minor_distribution"/>
  </way>
  <way id="517565591" version="5" timestamp="2021-02-06T11:37:03Z" changeset="98809315" uid="388774" user="drnoble">
    <nd ref="4875697002"/>
    <nd ref="8399263439"/>
    <nd ref="8399263434"/>
    <nd ref="8399263433"/>
    <nd ref="25160153"/>
    <nd ref="8399263425"/>
    <nd ref="8399263428"/>
    <nd ref="8399263426"/>
    <nd ref="8399263429"/>
    <nd ref="8399263427"/>
    <nd ref="6289932736"/>
    <nd ref="8399263430"/>
    <nd ref="8399263424"/>
    <nd ref="6289932737"/>
    <nd ref="771222062"/>
    <nd ref="8399263432"/>
    <nd ref="8399232464"/>
    <nd ref="4875697002"/>
    <tag k="building" v="grandstand"/>
    <tag k="name" v="Main Stand"/>
  </way>
  <way id="542308528" version="4" timestamp="2021-03-13T13:50:44Z" changeset="100954287" uid="388774" user="drnoble">
    <nd ref="5243177142"/>
    <nd ref="8513549348"/>
    <nd ref="5243177141"/>
    <nd ref="5243177140"/>
    <nd ref="5243177136"/>
    <nd ref="8513549370"/>
    <nd ref="8513549371"/>
    <nd ref="5243177134"/>
    <nd ref="8513549369"/>
    <nd ref="8513549367"/>
    <nd ref="8513549366"/>
    <nd ref="8513549368"/>
    <nd ref="5243177133"/>
    <nd ref="5243177132"/>
    <nd ref="8513549377"/>
    <nd ref="8513549376"/>
    <nd ref="5243177139"/>
    <nd ref="5243177138"/>
    <nd ref="5243177128"/>
    <nd ref="8513549379"/>
    <nd ref="8513549378"/>
    <nd ref="5243177127"/>
    <nd ref="5243177130"/>
    <nd ref="5243177129"/>
    <nd ref="5243177135"/>
    <nd ref="5243177144"/>
    <nd ref="8513549374"/>
    <nd ref="8513549375"/>
    <nd ref="8513549372"/>
    <nd ref="8513549373"/>
    <nd ref="5243177143"/>
    <nd ref="8513549350"/>
    <nd ref="5243177142"/>
    <tag k="addr:city" v="Edinburgh"/>
    <tag k="addr:housenumber" v="396-400"/>
    <tag k="addr:street" v="Gorgie Road"/>
    <tag k="building" v="residential"/>
    <tag k="building:levels" v="5"/>
    <tag k="name" v="The Mill House"/>
    <tag k="residential" v="student"/>
    <tag k="roof:levels" v="1"/>
    <tag k="source" v="survey;estimate"/>
  </way>
  <way id="574218753" version="9" timestamp="2025-01-01T21:34:26Z" changeset="160886246" uid="21673926" user="ThePeeinator">
    <nd ref="986467208"/>
    <nd ref="3349691807"/>
    <nd ref="3701852447"/>
    <nd ref="3701852452"/>
    <nd ref="610651"/>
    <nd ref="10031808989"/>
    <nd ref="25574272"/>
    <nd ref="3701852454"/>
    <nd ref="2398631867"/>
    <nd ref="2362574359"/>
    <nd ref="3701852456"/>
    <nd ref="610652"/>
    <nd ref="3107851811"/>
    <nd ref="24665623"/>
    <nd ref="610653"/>
    <nd ref="7908084265"/>
    <nd ref="25574263"/>
    <nd ref="3107554218"/>
    <nd ref="2398631858"/>
    <nd ref="2783250787"/>
    <nd ref="2398631864"/>
    <nd ref="2783250789"/>
    <nd ref="610654"/>
    <nd ref="2783250791"/>
    <nd ref="2398631874"/>
    <nd ref="2398631857"/>
    <nd ref="480064791"/>
    <nd ref="24665509"/>
    <nd ref="24665504"/>
    <nd ref="344204016"/>
    <nd ref="2242245646"/>
    <tag k="cycleway:both" v="no"/>
    <tag k="highway" v="primary"/>
    <tag k="lanes" v="2"/>
    <tag k="maxspeed" v="20 mph"/>
    <tag k="name" v="Dalry Road"/>
    <tag k="name:gd" v="Rathad Dhail Fhraoich"/>
    <tag k="ref" v="A70"/>
    <tag k="sidewalk" v="both"/>
    <tag k="surface" v="asphalt"/>
  </way>
  <way id="617713588" version="7" timestamp="2024-08-27T16:46:49Z" changeset="155841699" uid="21762849" user="jSeke">
    <nd ref="2301965388"/>
    <nd ref="7839241480"/>
    <nd ref="4900050563"/>
    <tag k="cycleway" v="lane"/>
    <tag k="highway" v="primary"/>
    <tag k="lanes" v="3"/>
    <tag k="lanes:backward" v="2"/>
    <tag k="lanes:forward" v="1"/>
    <tag k="lit" v="yes"/>
    <tag k="maxspeed" v="30 mph"/>
    <tag k="name" v="Gorgie Road"/>
    <tag k="name:gd" v="Rathad Ghorgain"/>
    <tag k="ref" v="A71"/>
    <tag k="sidewalk" v="both"/>
    <tag k="surface" v="asphalt"/>
  </way>
  <way id="617713589" version="10" timestamp="2024-12-01T16:00:06Z" changeset="159811459" uid="16721418" user="SmithyScotland">
    <nd ref="4900050563"/>
    <nd ref="4910612903"/>
    <nd ref="24942487"/>
    <nd ref="24942485"/>
    <nd ref="24943766"/>
    <nd ref="7646250531"/>
    <nd ref="24942482"/>
    <nd ref="24942481"/>
    <nd ref="8288809796"/>
    <nd ref="5243177153"/>
    <nd ref="3637974789"/>
    <nd ref="12388323059"/>
    <nd ref="24943759"/>
    <nd ref="2536592147"/>
    <tag k="cycleway:left" v="share_busway"/>
    <tag k="highway" v="primary"/>
    <tag k="lanes" v="2"/>
    <tag k="lit" v="yes"/>
    <tag k="maxspeed" v="30 mph"/>
    <tag k="name" v="Gorgie Road"/>
    <tag k="name:gd" v="Rathad Ghorgain"/>
    <tag k="ref" v="A71"/>
    <tag k="sidewalk" v="both"/>
    <tag k="surface" v="asphalt"/>
  </way>
  <way id="622459373" version="3" timestamp="2024-06-25T19:56:09Z" changeset="153173379" uid="20487713" user="iiBus">
    <nd ref="606187"/>
    <nd ref="12010189624"/>
    <nd ref="606185"/>
    <tag k="bicycle" v="no"/>
    <tag k="foot" v="no"/>
    <tag k="highway" v="tertiary"/>
    <tag k="lanes" v="2"/>
    <tag k="lit" v="yes"/>
    <tag k="maxspeed" v="40 mph"/>
    <tag k="name" v="West Approach Road"/>
    <tag k="source" v="OS_OpenData_StreetView"/>
    <tag k="surface" v="asphalt"/>
  </way>
  <way id="807148180" version="4" timestamp="2021-08-04T20:35:20Z" changeset="109163832" uid="197905" user="FraserKp">
    <nd ref="614623"/>
    <nd ref="2398530365"/>
    <nd ref="2398544497"/>
    <tag k="highway" v="tertiary"/>
    <tag k="lanes" v="2"/>
    <tag k="lit" v="yes"/>
    <tag k="maxspeed" v="20 mph"/>
    <tag k="name" v="Dundee Street"/>
    <tag k="sidewalk" v="both"/>
    <tag k="surface" v="asphalt"/>
  </way>
  <way id="807148181" version="2" timestamp="2024-12-24T22:38:02Z" changeset="160589479" uid="53626" user="jambamkin">
    <nd ref="7548018710"/>
    <nd ref="249966951"/>
    <tag k="bicycle" v="no"/>
    <tag k="foot" v="no"/>
    <tag k="highway" v="tertiary"/>
    <tag k="lanes" v="1"/>
    <tag k="lit" v="yes"/>
    <tag k="maxspeed" v="20 mph"/>
    <tag k="maxweight" v="1.5"/>
    <tag k="name" v="West Approach Road"/>
    <tag k="oneway" v="yes"/>
    <tag k="sidewalk" v="no"/>
    <tag k="source" v="OS_OpenData_StreetView"/>
    <tag k="surface" v="asphalt"/>
  </way>
  <way id="807148182" version="2" timestamp="2024-12-24T22:38:02Z" changeset="160589479" uid="53626" user="jambamkin">
    <nd ref="614623"/>
    <nd ref="3703060989"/>
    <nd ref="7548018709"/>
    <nd ref="3703060993"/>
    <tag k="bicycle" v="no"/>
    <tag k="foot" v="no"/>
    <tag k="highway" v="tertiary"/>
    <tag k="lanes" v="1"/>
    <tag k="lit" v="yes"/>
    <tag k="maxspeed" v="20 mph"/>
    <tag k="maxweight" v="1.5"/>
    <tag k="name" v="West Approach Road"/>
    <tag k="oneway" v="yes"/>
    <tag k="sidewalk" v="no"/>
    <tag k="source" v="OS_OpenData_StreetView"/>
    <tag k="surface" v="asphalt"/>
  </way>
  <way id="820117163" version="1" timestamp="2020-06-27T07:58:21Z" changeset="87220149" uid="388774" user="drnoble">
    <nd ref="7658115006"/>
    <nd ref="7658115005"/>
    <nd ref="7658115004"/>
    <nd ref="7658115003"/>
    <nd ref="7658115006"/>
    <tag k="building" v="service"/>
    <tag k="gas" v="substation"/>
    <tag k="height" v="2"/>
    <tag k="name" v="Balgreen Road DG"/>
    <tag k="operator" v="Scotland Gas Networks"/>
  </way>
  <way id="904404508" version="1" timestamp="2021-02-06T11:37:03Z" changeset="98809315" uid="388774" user="drnoble">
    <nd ref="1003401"/>
    <nd ref="2302248340"/>
    <nd ref="1699532847"/>
    <nd ref="2484958313"/>
    <nd ref="2484958310"/>
    <tag k="highway" v="residential"/>
    <tag k="lanes" v="2"/>
    <tag k="lit" v="yes"/>
    <tag k="maxspeed" v="20 mph"/>
    <tag k="name" v="McLeod Street"/>
    <tag k="sidewalk" v="left"/>
    <tag k="surface" v="asphalt"/>
  </way>
  <way id="916657187" version="2" timestamp="2024-12-01T16:00:06Z" changeset="159811459" uid="16721418" user="SmithyScotland">
    <nd ref="8513455497"/>
    <nd ref="8513455498"/>
    <nd ref="8513455496"/>
    <nd ref="8513455495"/>
    <nd ref="8513455497"/>
    <tag k="building" v="service"/>
    <tag k="building:levels" v="1"/>
    <tag k="name" v="Westfield Road"/>
    <tag k="operator" v="SP Energy Networks"/>
    <tag k="operator:wikidata" v="Q116022116"/>
    <tag k="power" v="substation"/>
  </way>
  <way id="970453667" version="1" timestamp="2021-08-04T20:21:22Z" changeset="109163480" uid="197905" user="FraserKp">
    <nd ref="614620"/>
    <nd ref="25755268"/>
    <nd ref="8162713627"/>
    <nd ref="2536535381"/>
    <nd ref="25873832"/>
    <tag k="cycleway:right" v="track"/>
    <tag k="highway" v="tertiary"/>
    <tag k="lanes" v="2"/>
    <tag k="lit" v="yes"/>
    <tag k="maxspeed" v="20 mph"/>
    <tag k="name" v="Angle Park Terrace"/>
    <tag k="source" v="Bing;survey"/>
    <tag k="surface" v="asphalt"/>
  </way>
  <way id="970455621" version="1" timestamp="2021-08-04T20:35:20Z" changeset="109163832" uid="197905" user="FraserKp">
    <nd ref="3356230036"/>
    <nd ref="24942561"/>
    <nd ref="614623"/>
    <tag k="highway" v="tertiary"/>
    <tag k="lanes" v="2"/>
    <tag k="lit" v="yes"/>
    <tag k="maxspeed" v="20 mph"/>
    <tag k="name" v="Dundee Street"/>
    <tag k="sidewalk" v="both"/>
    <tag k="source" v="Bing;survey"/>
    <tag k="surface" v="asphalt"/>
  </way>
  <way id="1013181618" version="3" timestamp="2024-08-03T11:04:00Z" changeset="154767613" uid="21143475" user="Htf4">
    <nd ref="24942469"/>
    <nd ref="1225130430"/>
    <nd ref="3720325278"/>
    <nd ref="24942470"/>
    <tag k="highway" v="residential"/>
    <tag k="lit" v="yes"/>
    <tag k="maxheight" v="14'3&quot;"/>
    <tag k="maxspeed" v="20 mph"/>
    <tag k="name" v="Wheatfield Road"/>
    <tag k="sidewalk:left" v="yes"/>
    <tag k="surface" v="asphalt"/>
  </way>
  <way id="1082761836" version="4" timestamp="2024-08-27T16:46:49Z" changeset="155841699" uid="21762849" user="jSeke">
    <nd ref="7839241470"/>
    <nd ref="2375438965"/>
    <nd ref="10064451302"/>
    <nd ref="602459"/>
    <tag k="highway" v="primary"/>
    <tag k="lit" v="yes"/>
    <tag k="maxspeed" v="30 mph"/>
    <tag k="name" v="Gorgie Road"/>
    <tag k="name:gd" v="Rathad Ghorgain"/>
    <tag k="ref" v="A71"/>
    <tag k="surface" v="asphalt"/>
  </way>
  <way id="1088915551" version="2" timestamp="2023-06-06T18:02:22Z" changeset="137025902" uid="417398" user="saintam1">
    <nd ref="9975727052"/>
    <nd ref="9975727053"/>
    <nd ref="10960107142"/>
    <nd ref="9975727054"/>
    <nd ref="9975727055"/>
    <nd ref="9975727056"/>
    <nd ref="9975727057"/>
    <nd ref="9975727058"/>
    <nd ref="9975727059"/>
    <nd ref="9975727060"/>
    <nd ref="9975727061"/>
    <nd ref="9975727052"/>
    <tag k="building" v="residential"/>
    <tag k="building:levels" v="6"/>
    <tag k="description" v="Student housing"/>
    <tag k="name" v="Capitol Students Westfield"/>
  </way>
  <way id="1091875564" version="1" timestamp="2022-09-04T15:21:36Z" changeset="125777009" uid="16721418" user="SmithyScotland">
    <nd ref="9999892310"/>
    <nd ref="506782332"/>
    <nd ref="506782333"/>
    <nd ref="9999892309"/>
    <nd ref="9999892308"/>
    <nd ref="9999892307"/>
    <nd ref="9999892306"/>
    <nd ref="9999892305"/>
    <nd ref="9999892304"/>
    <nd ref="9999892310"/>
    <tag k="addr:city" v="Edinburgh"/>
    <tag k="addr:housenumber" v="27"/>
    <tag k="addr:street" v="Murieston Crescent"/>
    <tag k="building" v="dormitory"/>
    <tag k="building:levels" v="5"/>
    <tag k="name" v="27 Murieston Crescent"/>
  </way>
  <way id="1104605978" version="3" timestamp="2024-08-27T16:46:49Z" changeset="155841699" uid="21762849" user="jSeke">
    <nd ref="614614"/>
    <nd ref="3703060969"/>
    <nd ref="3703060970"/>
    <nd ref="3703060972"/>
    <nd ref="3703060973"/>
    <tag k="cycleway:both" v="no"/>
    <tag k="highway" v="primary"/>
    <tag k="lanes" v="2"/>
    <tag k="lit" v="yes"/>
    <tag k="maxspeed" v="20 mph"/>
    <tag k="name" v="Ardmillan Terrace"/>
    <tag k="name:gd" v="Barraid Àird a' Mhaolain"/>
    <tag k="ref" v="A70"/>
    <tag k="sidewalk" v="both"/>
    <tag k="sidewalk:both:surface" v="asphalt"/>
    <tag k="surface" v="asphalt"/>
  </way>
  <way id="1107193645" version="2" timestamp="2024-09-14T09:24:19Z" changeset="156602940" uid="16721418" user="SmithyScotland">
    <nd ref="2134648807"/>
    <nd ref="10131170451"/>
    <nd ref="10131170450"/>
    <nd ref="10131170449"/>
    <nd ref="4890366030"/>
    <nd ref="4890366029"/>
    <nd ref="4890365749"/>
    <nd ref="4888212475"/>
    <nd ref="4888212477"/>
    <nd ref="2134648791"/>
    <nd ref="2134648807"/>
    <tag k="addr:city" v="Edinburgh"/>
    <tag k="addr:housenumber" v="183"/>
    <tag k="addr:postcode" v="EH11 2EB"/>
    <tag k="addr:street" v="Dalry Road"/>
    <tag k="amenity" v="community_centre"/>
    <tag k="building" v="yes"/>
    <tag k="building:levels" v="1"/>
    <tag k="check_date" v="2024-09-14"/>
    <tag k="name" v="The Space"/>
  </way>
  <way id="1185360315" version="2" timestamp="2024-08-24T14:17:09Z" changeset="155699037" uid="16721418" user="SmithyScotland">
    <nd ref="530575610"/>
    <nd ref="2375487306"/>
    <nd ref="606197"/>
    <nd ref="2375487310"/>
    <nd ref="530575625"/>
    <nd ref="13865646"/>
    <nd ref="530575643"/>
    <nd ref="509177716"/>
    <nd ref="530575539"/>
    <nd ref="13865644"/>
    <tag k="direction" v="clockwise"/>
    <tag k="highway" v="tertiary"/>
    <tag k="junction" v="roundabout"/>
    <tag k="lanes" v="2"/>
    <tag k="lit" v="yes"/>
    <tag k="maxspeed" v="30 mph"/>
    <tag k="surface" v="asphalt"/>
  </way>
  <way id="1201496336" version="2" timestamp="2024-02-25T19:37:42Z" changeset="147905456" uid="6816132" user="CjMalone">
    <nd ref="11139372498"/>
    <nd ref="11139372499"/>
    <nd ref="5412080634"/>
    <nd ref="5412080635"/>
    <nd ref="11139372498"/>
    <tag k="addr:city" v="Edinburgh"/>
    <tag k="addr:housename" v="Russel Road Industrial Estate"/>
    <tag k="addr:housenumber" v="4"/>
    <tag k="addr:postcode" v="EH11 2NN"/>
    <tag k="addr:street" v="Sauchiebank"/>
    <tag k="building" v="yes"/>
    <tag k="check_date" v="2023-08-23"/>
    <tag k="fhrs:id" v="834126"/>
    <tag k="name" v="Il Panino"/>
    <tag k="phone" v="+44 131 346 1818"/>
    <tag k="shop" v="bakery"/>
  </way>
  <way id="1201496339" version="1" timestamp="2023-08-23T15:53:23Z" changeset="140282882" uid="18571702" user="anon98">
    <nd ref="11139372503"/>
    <nd ref="2550006704"/>
    <nd ref="2550006703"/>
    <nd ref="11139372502"/>
    <nd ref="11139372503"/>
    <tag k="addr:city" v="Edinburgh"/>
    <tag k="addr:housename" v="Russel Road Industrial Estate"/>
    <tag k="addr:housenumber" v="7"/>
    <tag k="addr:postcode" v="EH11 2NN"/>
    <tag k="addr:street" v="Sauchiebank"/>
    <tag k="building" v="yes"/>
    <tag k="check_date" v="2023-08-23"/>
    <tag k="craft" v="roofer"/>
    <tag k="email" v="saltire.roofing@btconnect.com"/>
    <tag k="name" v="Saltire Roofing &amp; Building Ltd"/>
    <tag k="opening_hours" v="Mo-Sa 09:00-18:00"/>
    <tag k="website" v="https://saltireroofing.co.uk/contact-us/"/>
  </way>
  <way id="1339251329" version="2" timestamp="2024-12-01T16:22:31Z" changeset="159812231" uid="16721418" user="SmithyScotland">
    <nd ref="4899778278"/>
    <nd ref="12388346712"/>
    <nd ref="12388346713"/>
    <nd ref="4899778282"/>
    <nd ref="4899778278"/>
    <tag k="building" v="yes"/>
    <tag k="name" v="Student Flats Gorgie Road"/>
    <tag k="operator" v="SP Energy Networks"/>
    <tag k="operator:wikidata" v="Q116022116"/>
    <tag k="power" v="substation"/>
    <tag k="substation" v="minor_distribution"/>
  </way>

</osm>
