<?xml version="1.0" encoding="UTF-8"?>
<osm version="0.6" generator="Overpass API 0.7.62.4 2390de5a">
<note>The data included in this document is from www.openstreetmap.org. The data is made available under ODbL.</note>
<meta osm_base="2025-01-21T14:38:40Z" areas="2024-12-31T00:49:33Z"/>

  <node id="111497234" lat="52.2159579" lon="-0.0107713" version="3" timestamp="2020-10-08T11:15:29Z" changeset="92171196" uid="5173844" user="ndrw6">
    <tag k="addr:city" v="Cambridge"/>
    <tag k="addr:housename" v="The Shieling"/>
    <tag k="addr:postcode" v="CB23 7NX"/>
    <tag k="addr:street" v="Off Highfields Road"/>
    <tag k="addr:village" v="Highfields Caldecote"/>
    <tag k="amenity" v="animal_boarding"/>
    <tag k="name" v="Cozy Pets Hotel"/>
    <tag k="operator" v="Cozy Pets Hotel"/>
    <tag k="phone" v="+441954212008"/>
    <tag k="website" v="https://www.cozypetshotel.co.uk/"/>
  </node>
  <node id="7950867657" lat="52.2153526" lon="-0.0154924" version="1" timestamp="2020-09-28T11:16:35Z" changeset="91636642" uid="5173844" user="ndrw6">
    <tag k="addr:city" v="Cambridge"/>
    <tag k="addr:postcode" v="CB23 7NS"/>
    <tag k="addr:street" v="Highfields Road"/>
    <tag k="addr:village" v="Highfields Caldecote"/>
    <tag k="leisure" v="fitness_centre"/>
    <tag k="name" v="Fortitude Fitness Centre"/>
    <tag k="sport" v="fitness"/>
    <tag k="website" v="https://www.fortitudefitnesscentre.co.uk/"/>
  </node>
  <node id="8461471076" lat="52.2136106" lon="-0.0193595" version="2" timestamp="2021-07-10T22:08:46Z" changeset="107764043" uid="175702" user="AxelBoldt">
    <tag k="addr:city" v="Cambridge"/>
    <tag k="addr:housenumber" v="109A"/>
    <tag k="addr:postcode" v="CB23 7NX"/>
    <tag k="addr:street" v="Highfields Road"/>
    <tag k="addr:village" v="Highfields Caldecote"/>
    <tag k="name" v="Divas"/>
    <tag k="phone" v="+441954432104"/>
    <tag k="shop" v="beauty"/>
    <tag k="website" v="https://mydivasalon.co.uk/"/>
  </node>
  <node id="8461480938" lat="52.2138973" lon="-0.0181579" version="1" timestamp="2021-02-26T15:24:52Z" changeset="100059938" uid="5173844" user="ndrw6">
    <tag k="addr:city" v="Cambridge"/>
    <tag k="addr:housenumber" v="117"/>
    <tag k="addr:postcode" v="CB23 7NX"/>
    <tag k="addr:street" v="Highfields Road"/>
    <tag k="addr:village" v="Highfields Caldecote"/>
    <tag k="craft" v="plumber"/>
    <tag k="email" v="info@uniplumb.com"/>
    <tag k="name" v="Uniplumb"/>
    <tag k="phone" v="+441954212553"/>
    <tag k="website" v="https://www.uniplumb.com/"/>
  </node>
  <way id="12301822" version="13" timestamp="2023-09-11T12:56:57Z" changeset="141111862" uid="242345" user="confusedbuffalo">
    <nd ref="111497383"/>
    <nd ref="2512895347"/>
    <nd ref="7352918862"/>
    <nd ref="7455198299"/>
    <nd ref="7455198258"/>
    <nd ref="111497309"/>
    <nd ref="111497255"/>
    <nd ref="111497258"/>
    <nd ref="7352918984"/>
    <nd ref="7352918990"/>
    <nd ref="2512894754"/>
    <nd ref="111497373"/>
    <nd ref="7455198211"/>
    <nd ref="7352918606"/>
    <nd ref="7455198212"/>
    <nd ref="111497383"/>
    <tag k="addr:postcode" v="CB23 7NX"/>
    <tag k="addr:street" v="Highfields Road"/>
    <tag k="amenity" v="school"/>
    <tag k="capacity" v="210"/>
    <tag k="email" v="office@caldecote.cambs.sch.uk"/>
    <tag k="fax" v="+44 1954 213440"/>
    <tag k="isced:level" v="1"/>
    <tag k="max_age" v="11"/>
    <tag k="min_age" v="4"/>
    <tag k="name" v="Caldecote Primary School"/>
    <tag k="phone" v="+44 1954 210263"/>
    <tag k="ref:GB:uprn" v="10003185902"/>
    <tag k="ref:edubase" v="110603"/>
    <tag k="school:trust" v="no"/>
    <tag k="school:type" v="community"/>
    <tag k="website" v="https://www.caldecoteprimaryschool.org.uk/"/>
    <tag k="wikidata" v="Q67148322"/>
  </way>
  <way id="243567273" version="5" timestamp="2019-02-04T10:43:53Z" changeset="66899076" uid="5173844" user="ndrw6">
    <nd ref="2509564791"/>
    <nd ref="2509564836"/>
    <nd ref="2509564783"/>
    <nd ref="2509564820"/>
    <nd ref="2509564818"/>
    <nd ref="2509564823"/>
    <nd ref="2509564803"/>
    <nd ref="2509564844"/>
    <nd ref="2509564789"/>
    <nd ref="2509564835"/>
    <nd ref="2509564794"/>
    <nd ref="2509564840"/>
    <nd ref="2509564791"/>
    <tag k="addr:city" v="Cambridge"/>
    <tag k="addr:housename" v="The Old Rectory"/>
    <tag k="addr:postcode" v="CB23 7NU"/>
    <tag k="addr:street" v="Main Street"/>
    <tag k="addr:village" v="Caldecote"/>
    <tag k="building" v="residential"/>
    <tag k="name" v="The Old Rectory"/>
    <tag k="wikidata" v="Q26420103"/>
  </way>
  <way id="243567277" version="3" timestamp="2022-02-13T15:15:46Z" changeset="117358021" uid="742701" user="kerr smith">
    <nd ref="2509564827"/>
    <nd ref="2509564788"/>
    <nd ref="2509564824"/>
    <nd ref="2509564828"/>
    <nd ref="2509564793"/>
    <nd ref="2509564809"/>
    <nd ref="2509564801"/>
    <nd ref="2509564816"/>
    <nd ref="2509564814"/>
    <nd ref="2509564825"/>
    <nd ref="2509564831"/>
    <nd ref="2509564812"/>
    <nd ref="2509564827"/>
    <tag k="addr:city" v="Cambridge"/>
    <tag k="addr:housename" v="Meunier House"/>
    <tag k="addr:postcode" v="CB23 7NU"/>
    <tag k="addr:street" v="Main Street"/>
    <tag k="addr:village" v="Caldecote"/>
    <tag k="building" v="residential"/>
    <tag k="name" v="Meunier House"/>
  </way>
  <way id="243567278" version="2" timestamp="2022-02-13T15:15:46Z" changeset="117358021" uid="742701" user="kerr smith">
    <nd ref="2509564839"/>
    <nd ref="2509564799"/>
    <nd ref="2509564826"/>
    <nd ref="2509564838"/>
    <nd ref="2509564839"/>
    <tag k="addr:city" v="Cambridge"/>
    <tag k="addr:housename" v="Church Cottage"/>
    <tag k="addr:postcode" v="CB23 7NU"/>
    <tag k="addr:street" v="Main Street"/>
    <tag k="addr:village" v="Caldecote"/>
    <tag k="building" v="residential"/>
    <tag k="name" v="Church Cottage"/>
  </way>
  <way id="243567280" version="2" timestamp="2022-02-13T15:15:46Z" changeset="117358021" uid="742701" user="kerr smith">
    <nd ref="2509564795"/>
    <nd ref="2509564786"/>
    <nd ref="2509564846"/>
    <nd ref="2509564830"/>
    <nd ref="2509564795"/>
    <tag k="addr:city" v="Cambridge"/>
    <tag k="addr:housename" v="Burleigh House"/>
    <tag k="addr:postcode" v="CB23 7NU"/>
    <tag k="addr:street" v="Main Street"/>
    <tag k="addr:village" v="Caldecote"/>
    <tag k="building" v="residential"/>
    <tag k="name" v="Burleigh House"/>
  </way>
  <way id="243818696" version="4" timestamp="2019-02-04T10:43:54Z" changeset="66899076" uid="5173844" user="ndrw6">
    <nd ref="2511775065"/>
    <nd ref="2511775028"/>
    <nd ref="2511775023"/>
    <nd ref="2511775107"/>
    <nd ref="2511774999"/>
    <nd ref="2511775187"/>
    <nd ref="2511775022"/>
    <nd ref="2511775091"/>
    <nd ref="2511775180"/>
    <nd ref="2511775002"/>
    <nd ref="2511775065"/>
    <tag k="addr:city" v="Cambridge"/>
    <tag k="addr:postcode" v="CB23 7NU"/>
    <tag k="addr:street" v="Main Street"/>
    <tag k="addr:village" v="Caldecote"/>
    <tag k="building" v="house"/>
    <tag k="name" v="Mill Farm"/>
    <tag k="wikidata" v="Q26616314"/>
  </way>
  <way id="243818702" version="3" timestamp="2019-02-04T10:43:54Z" changeset="66899076" uid="5173844" user="ndrw6">
    <nd ref="2511775162"/>
    <nd ref="2511775142"/>
    <nd ref="2511775211"/>
    <nd ref="2511775168"/>
    <nd ref="2511775162"/>
    <tag k="addr:city" v="Cambridge"/>
    <tag k="addr:postcode" v="CB23 7NU"/>
    <tag k="addr:street" v="Main Street"/>
    <tag k="addr:village" v="Caldecote"/>
    <tag k="building" v="house"/>
    <tag k="name" v="The Barn"/>
  </way>
  <way id="243926820" version="4" timestamp="2020-04-29T18:34:48Z" changeset="84357824" uid="5173844" user="ndrw6">
    <nd ref="2512808450"/>
    <nd ref="2512808420"/>
    <nd ref="2512808342"/>
    <nd ref="2512808507"/>
    <nd ref="2512808265"/>
    <nd ref="2512808148"/>
    <nd ref="2512808620"/>
    <nd ref="2512808144"/>
    <nd ref="2512808450"/>
    <tag k="addr:city" v="Cambridge"/>
    <tag k="addr:postcode" v="CB23 7ZH"/>
    <tag k="addr:street" v="Furlong Way"/>
    <tag k="addr:village" v="Highfields Caldecote"/>
    <tag k="alt_name" v="Caldecote Village Institute"/>
    <tag k="building" v="yes"/>
    <tag k="name" v="Caldecote Village Hall"/>
  </way>
  <way id="243926850" version="5" timestamp="2020-05-08T12:38:25Z" changeset="84895210" uid="5173844" user="ndrw6">
    <nd ref="7455198192"/>
    <nd ref="2512808670"/>
    <nd ref="2512808151"/>
    <nd ref="7455198191"/>
    <nd ref="7455198192"/>
    <tag k="addr:city" v="Cambridge"/>
    <tag k="addr:housename" v="School Court"/>
    <tag k="addr:postcode" v="CB23 7AA"/>
    <tag k="addr:street" v="Furlong Way"/>
    <tag k="addr:unit" v="2"/>
    <tag k="addr:village" v="Highfields Caldecote"/>
    <tag k="building" v="yes"/>
    <tag k="name" v="CaldeCuts"/>
    <tag k="shop" v="hairdresser"/>
  </way>
  <way id="546363048" version="5" timestamp="2024-02-16T23:18:47Z" changeset="147552142" uid="5173844" user="ndrw6">
    <nd ref="5279864161"/>
    <nd ref="11073284220"/>
    <nd ref="11073284221"/>
    <nd ref="11632427524"/>
    <nd ref="11632427526"/>
    <nd ref="11632427525"/>
    <nd ref="11632427523"/>
    <nd ref="5279864164"/>
    <nd ref="5279864161"/>
    <tag k="addr:postcode" v="CB23 8AY"/>
    <tag k="addr:street" v="Saint Neots Road"/>
    <tag k="brand" v="Budgens"/>
    <tag k="brand:wikidata" v="Q4985016"/>
    <tag k="building" v="yes"/>
    <tag k="name" v="Childerley Gate Services"/>
    <tag k="opening_hours" v="Mo-Th 06:00-21:30; Fr 06:30-21:30; Sa-Su 07:00-21:00"/>
    <tag k="shop" v="convenience"/>
    <tag k="website" v="https://www.budgens.co.uk/our-stores/childerley-gate"/>
  </way>
  <way id="554540090" version="5" timestamp="2021-02-26T15:04:21Z" changeset="100058893" uid="5173844" user="ndrw6">
    <nd ref="5351498622"/>
    <nd ref="5351498623"/>
    <nd ref="5351498624"/>
    <nd ref="5351498625"/>
    <nd ref="5351498626"/>
    <nd ref="5351498627"/>
    <nd ref="5351498622"/>
    <tag k="addr:city" v="Cambridge"/>
    <tag k="addr:housenumber" v="54"/>
    <tag k="addr:postcode" v="CB23 7NX"/>
    <tag k="addr:street" v="Highfields Road"/>
    <tag k="addr:village" v="Highfields Caldecote"/>
    <tag k="amenity" v="community_centre"/>
    <tag k="building" v="public"/>
    <tag k="name" v="Caldecote Village Club"/>
    <tag k="phone" v="+441954210791"/>
  </way>
  <way id="797141712" version="4" timestamp="2020-10-08T11:15:31Z" changeset="92171196" uid="5173844" user="ndrw6">
    <nd ref="7455198191"/>
    <nd ref="2512808621"/>
    <nd ref="2512808516"/>
    <nd ref="7455198192"/>
    <nd ref="7455198191"/>
    <tag k="addr:city" v="Cambridge"/>
    <tag k="addr:housename" v="School Court"/>
    <tag k="addr:postcode" v="CB23 7AA"/>
    <tag k="addr:street" v="Furlong Way"/>
    <tag k="addr:unit" v="1"/>
    <tag k="addr:village" v="Highfields Caldecote"/>
    <tag k="building" v="yes"/>
    <tag k="name" v="Brookeâ€™s Beauty &amp; Spa"/>
    <tag k="shop" v="beauty"/>
    <tag k="website" v="https://brookesspa.co.uk"/>
  </way>
  <way id="914691248" version="2" timestamp="2024-09-21T16:50:56Z" changeset="156920749" uid="5173844" user="ndrw6">
    <nd ref="8496918404"/>
    <nd ref="8496918403"/>
    <nd ref="8496918402"/>
    <nd ref="8496918397"/>
    <nd ref="8496918399"/>
    <nd ref="8496918398"/>
    <nd ref="8496918400"/>
    <nd ref="8496918401"/>
    <nd ref="8496918404"/>
    <tag k="addr:housenumber" v="4"/>
    <tag k="addr:postcode" v="CB23 8AY"/>
    <tag k="addr:street" v="Saint Neots Road"/>
    <tag k="addr:village" v="Dry Drayton"/>
    <tag k="building" v="residential"/>
    <tag k="name" v="Cosy Nook Apartments"/>
  </way>

</osm>
