<?xml version="1.0" encoding="UTF-8"?>
<osm version="0.6" generator="Overpass API 0.7.62.5 1bd436f1">
<note>The data included in this document is from www.openstreetmap.org. The data is made available under ODbL.</note>
<meta osm_base="2025-02-19T01:24:32Z" areas="2025-02-06T02:17:44Z"/>

  <node id="23765391" lat="52.2129127" lon="0.0678524" version="6" timestamp="2017-11-19T23:13:55Z" changeset="53935569" uid="5173844" user="ndrw6">
    <tag k="addr:postcode" v="CB23 7PJ"/>
    <tag k="addr:street" v="Cambridge Road"/>
    <tag k="name" v="Coton Orchard Garden Centre"/>
    <tag k="shop" v="garden_centre"/>
    <tag k="website" v="https://www.bluediamond.gg/garden-centre/coton-orchard-garden-centre"/>
  </node>
  <node id="4512294828" lat="52.2129348" lon="0.0673927" version="2" timestamp="2017-11-19T22:53:45Z" changeset="53935321" uid="5173844" user="ndrw6">
    <tag k="addr:postcode" v="CB23 7PJ"/>
    <tag k="addr:street" v="Cambridge Road"/>
    <tag k="name" v="Coton Farm Shop"/>
    <tag k="shop" v="farm"/>
    <tag k="website" v="http://www.cotonfarmshop.co.uk/"/>
  </node>
  <node id="5238648821" lat="52.2127900" lon="0.0683297" version="1" timestamp="2017-11-19T23:25:50Z" changeset="53935686" uid="5173844" user="ndrw6">
    <tag k="addr:postcode" v="CB23 7PJ"/>
    <tag k="addr:street" v="Cambridge Road"/>
    <tag k="name" v="Maidenhead Aquatics"/>
    <tag k="shop" v="pet"/>
    <tag k="website" v="https://www.fishkeeper.co.uk/store/cambridge"/>
  </node>
  <node id="5421251859" lat="52.2084046" lon="0.0558407" version="3" timestamp="2020-10-10T23:41:07Z" changeset="92289177" uid="5173844" user="ndrw6">
    <tag k="addr:city" v="Cambridge"/>
    <tag k="addr:housenumber" v="66"/>
    <tag k="addr:postcode" v="CB23 7PP"/>
    <tag k="addr:street" v="Silverdale Avenue"/>
    <tag k="addr:village" v="Coton"/>
  </node>
  <node id="5421251860" lat="52.2085000" lon="0.0557635" version="3" timestamp="2020-10-10T23:41:07Z" changeset="92289177" uid="5173844" user="ndrw6">
    <tag k="addr:city" v="Cambridge"/>
    <tag k="addr:housenumber" v="63"/>
    <tag k="addr:postcode" v="CB23 7PP"/>
    <tag k="addr:street" v="Silverdale Avenue"/>
    <tag k="addr:village" v="Coton"/>
  </node>
  <node id="10118555284" lat="52.2083339" lon="0.0552556" version="1" timestamp="2022-10-21T11:08:30Z" changeset="127877149" uid="6476359" user="NSiecw">
    <tag k="addr:city" v="Cambridge"/>
    <tag k="addr:housenumber" v="62"/>
    <tag k="addr:postcode" v="CB23 7PP"/>
    <tag k="addr:street" v="Silverdale Avenue"/>
    <tag k="addr:village" v="Coton"/>
  </node>
  <node id="10118555285" lat="52.2082848" lon="0.0550878" version="1" timestamp="2022-10-21T11:08:30Z" changeset="127877149" uid="6476359" user="NSiecw">
    <tag k="addr:city" v="Cambridge"/>
    <tag k="addr:housenumber" v="59"/>
    <tag k="addr:postcode" v="CB23 7PP"/>
    <tag k="addr:street" v="Silverdale Avenue"/>
    <tag k="addr:village" v="Coton"/>
  </node>
  <node id="10118555286" lat="52.2081976" lon="0.0549839" version="1" timestamp="2022-10-21T11:08:30Z" changeset="127877149" uid="6476359" user="NSiecw">
    <tag k="addr:city" v="Cambridge"/>
    <tag k="addr:housenumber" v="58"/>
    <tag k="addr:postcode" v="CB23 7PP"/>
    <tag k="addr:street" v="Silverdale Avenue"/>
    <tag k="addr:village" v="Coton"/>
  </node>
  <node id="10118555287" lat="52.2080965" lon="0.0550698" version="1" timestamp="2022-10-21T11:08:30Z" changeset="127877149" uid="6476359" user="NSiecw">
    <tag k="addr:city" v="Cambridge"/>
    <tag k="addr:housenumber" v="55"/>
    <tag k="addr:postcode" v="CB23 7PP"/>
    <tag k="addr:street" v="Silverdale Avenue"/>
    <tag k="addr:village" v="Coton"/>
  </node>
  <way id="175888410" version="5" timestamp="2022-04-14T18:10:09Z" changeset="119724126" uid="242345" user="confusedbuffalo">
    <nd ref="1864451054"/>
    <nd ref="1864451058"/>
    <nd ref="1864451046"/>
    <nd ref="1864451227"/>
    <nd ref="1864451117"/>
    <nd ref="1864451040"/>
    <nd ref="1864451054"/>
    <tag k="addr:city" v="Cambridge"/>
    <tag k="addr:housenumber" v="116"/>
    <tag k="addr:postcode" v="CB3 9LH"/>
    <tag k="addr:street" v="Barton Road"/>
    <tag k="building" v="house"/>
    <tag k="building:levels" v="2"/>
    <tag k="roof:levels" v="1"/>
    <tag k="source" v="survey,Bing"/>
  </way>
  <way id="175888417" version="5" timestamp="2022-04-14T18:10:05Z" changeset="119724126" uid="242345" user="confusedbuffalo">
    <nd ref="1864450930"/>
    <nd ref="1864450962"/>
    <nd ref="1864450953"/>
    <nd ref="1864450986"/>
    <nd ref="1864450933"/>
    <nd ref="1864450940"/>
    <nd ref="1864451342"/>
    <nd ref="1864450941"/>
    <nd ref="1864450930"/>
    <tag k="addr:city" v="Cambridge"/>
    <tag k="addr:housenumber" v="114"/>
    <tag k="addr:postcode" v="CB3 9LH"/>
    <tag k="addr:street" v="Barton Road"/>
    <tag k="building" v="house"/>
    <tag k="building:levels" v="2"/>
    <tag k="roof:levels" v="1"/>
    <tag k="source" v="survey,Bing"/>
  </way>
  <way id="242965667" version="8" timestamp="2020-04-26T23:55:13Z" changeset="84161958" uid="5173844" user="ndrw6">
    <nd ref="7450582732"/>
    <nd ref="2504025596"/>
    <nd ref="2504024914"/>
    <nd ref="2504025684"/>
    <nd ref="2504025199"/>
    <nd ref="7450582731"/>
    <nd ref="7450582732"/>
    <tag k="addr:city" v="Cambridge"/>
    <tag k="addr:housenumber" v="46"/>
    <tag k="addr:postcode" v="CB23 7PL"/>
    <tag k="addr:street" v="High Street"/>
    <tag k="addr:village" v="Coton"/>
    <tag k="building" v="residential"/>
    <tag k="wikidata" v="Q26456180"/>
  </way>
  <way id="242965669" version="8" timestamp="2023-02-01T13:14:11Z" changeset="131963283" uid="2969887" user="eastender">
    <nd ref="7450578569"/>
    <nd ref="7450578571"/>
    <nd ref="7450578572"/>
    <nd ref="7450578570"/>
    <nd ref="7450578569"/>
    <tag k="addr:city" v="Cambridge"/>
    <tag k="addr:housenumber" v="2"/>
    <tag k="addr:postcode" v="CB23 7GX"/>
    <tag k="addr:street" v="Peake's Court"/>
    <tag k="addr:village" v="Coton"/>
    <tag k="building" v="residential"/>
  </way>
  <way id="242965671" version="4" timestamp="2019-02-04T10:43:33Z" changeset="66899076" uid="5173844" user="ndrw6">
    <nd ref="2504024734"/>
    <nd ref="2504025129"/>
    <nd ref="2504025485"/>
    <nd ref="2504024971"/>
    <nd ref="2504024734"/>
    <tag k="addr:city" v="Cambridge"/>
    <tag k="addr:housenumber" v="8"/>
    <tag k="addr:postcode" v="CB23 7PF"/>
    <tag k="addr:street" v="Sadlers Close"/>
    <tag k="addr:village" v="Coton"/>
    <tag k="building" v="house"/>
  </way>
  <way id="242965675" version="5" timestamp="2023-07-15T17:27:20Z" changeset="138553324" uid="5173844" user="ndrw6">
    <nd ref="2504024889"/>
    <nd ref="2504024792"/>
    <nd ref="2504024707"/>
    <nd ref="4263506502"/>
    <nd ref="2504025132"/>
    <nd ref="7450582726"/>
    <nd ref="2504024889"/>
    <tag k="addr:city" v="Cambridge"/>
    <tag k="addr:housenumber" v="1"/>
    <tag k="addr:postcode" v="CB23 7PJ"/>
    <tag k="addr:street" v="Cambridge Road"/>
    <tag k="addr:village" v="Coton"/>
    <tag k="building" v="house"/>
  </way>
  <way id="242965677" version="4" timestamp="2019-02-04T10:43:34Z" changeset="66899076" uid="5173844" user="ndrw6">
    <nd ref="2504024724"/>
    <nd ref="2504025510"/>
    <nd ref="2504025592"/>
    <nd ref="2504025138"/>
    <nd ref="2504024724"/>
    <tag k="addr:city" v="Cambridge"/>
    <tag k="addr:housenumber" v="7"/>
    <tag k="addr:postcode" v="CB23 7PF"/>
    <tag k="addr:street" v="Sadlers Close"/>
    <tag k="addr:village" v="Coton"/>
    <tag k="building" v="house"/>
  </way>
  <way id="242965680" version="5" timestamp="2019-02-04T10:43:34Z" changeset="66899076" uid="5173844" user="ndrw6">
    <nd ref="2504024720"/>
    <nd ref="2504024754"/>
    <nd ref="2504024712"/>
    <nd ref="2504025183"/>
    <nd ref="2504024720"/>
    <tag k="addr:city" v="Cambridge"/>
    <tag k="addr:housenumber" v="58"/>
    <tag k="addr:postcode" v="CB23 7PL"/>
    <tag k="addr:street" v="High Street"/>
    <tag k="addr:village" v="Coton"/>
    <tag k="building" v="house"/>
  </way>
  <way id="242965681" version="5" timestamp="2019-06-24T19:11:16Z" changeset="71573520" uid="5173844" user="ndrw6">
    <nd ref="2504025576"/>
    <nd ref="2504025659"/>
    <nd ref="2504025024"/>
    <nd ref="2504025066"/>
    <nd ref="2504024975"/>
    <nd ref="2504025348"/>
    <nd ref="2504025576"/>
    <tag k="addr:city" v="Cambridge"/>
    <tag k="addr:housenumber" v="3"/>
    <tag k="addr:postcode" v="CB23 7PX"/>
    <tag k="addr:street" v="The Footpath"/>
    <tag k="addr:village" v="Coton"/>
    <tag k="building" v="house"/>
  </way>
  <way id="242965682" version="5" timestamp="2019-06-24T18:59:55Z" changeset="71573179" uid="5173844" user="ndrw6">
    <nd ref="2504025529"/>
    <nd ref="2504025270"/>
    <nd ref="2504025392"/>
    <nd ref="2504025077"/>
    <nd ref="2504025529"/>
    <tag k="addr:city" v="Cambridge"/>
    <tag k="addr:housenumber" v="49"/>
    <tag k="addr:postcode" v="CB23 7PX"/>
    <tag k="addr:street" v="The Footpath"/>
    <tag k="addr:village" v="Coton"/>
    <tag k="building" v="house"/>
  </way>
  <way id="242965683" version="4" timestamp="2019-02-04T10:43:34Z" changeset="66899076" uid="5173844" user="ndrw6">
    <nd ref="2504025454"/>
    <nd ref="2504025326"/>
    <nd ref="2504025682"/>
    <nd ref="2504025641"/>
    <nd ref="2504025454"/>
    <tag k="addr:city" v="Cambridge"/>
    <tag k="addr:housenumber" v="10"/>
    <tag k="addr:postcode" v="CB23 7PF"/>
    <tag k="addr:street" v="Sadlers Close"/>
    <tag k="addr:village" v="Coton"/>
    <tag k="building" v="house"/>
  </way>
  <way id="242965684" version="5" timestamp="2019-02-04T10:43:34Z" changeset="66899076" uid="5173844" user="ndrw6">
    <nd ref="2504025666"/>
    <nd ref="2504025186"/>
    <nd ref="2504025557"/>
    <nd ref="2504024922"/>
    <nd ref="2504025031"/>
    <nd ref="2504025494"/>
    <nd ref="2504025104"/>
    <nd ref="2504024986"/>
    <nd ref="2504025037"/>
    <nd ref="2504025013"/>
    <nd ref="2504025666"/>
    <tag k="addr:city" v="Cambridge"/>
    <tag k="addr:housenumber" v="53"/>
    <tag k="addr:postcode" v="CB23 7PL"/>
    <tag k="addr:street" v="High Street"/>
    <tag k="addr:village" v="Coton"/>
    <tag k="building" v="residential"/>
  </way>
  <way id="242965685" version="5" timestamp="2019-02-04T10:43:34Z" changeset="66899076" uid="5173844" user="ndrw6">
    <nd ref="2504025126"/>
    <nd ref="2504025524"/>
    <nd ref="2504025563"/>
    <nd ref="2504024963"/>
    <nd ref="2504025126"/>
    <tag k="addr:city" v="Cambridge"/>
    <tag k="addr:housenumber" v="23"/>
    <tag k="addr:postcode" v="CB23 7PW"/>
    <tag k="addr:street" v="Whitwell Way"/>
    <tag k="addr:village" v="Coton"/>
    <tag k="building" v="house"/>
  </way>
  <way id="242965687" version="5" timestamp="2020-04-26T23:55:13Z" changeset="84161958" uid="5173844" user="ndrw6">
    <nd ref="2504025566"/>
    <nd ref="2504025288"/>
    <nd ref="7450582849"/>
    <nd ref="2504024778"/>
    <nd ref="2504024798"/>
    <nd ref="2504025566"/>
    <tag k="addr:city" v="Cambridge"/>
    <tag k="addr:housenumber" v="5"/>
    <tag k="addr:postcode" v="CB23 7PF"/>
    <tag k="addr:street" v="Sadlers Close"/>
    <tag k="addr:village" v="Coton"/>
    <tag k="building" v="house"/>
  </way>
  <way id="242965688" version="7" timestamp="2020-04-26T23:55:13Z" changeset="84161958" uid="5173844" user="ndrw6">
    <nd ref="7450582695"/>
    <nd ref="7450582696"/>
    <nd ref="5280778584"/>
    <nd ref="2504025081"/>
    <nd ref="2504024843"/>
    <nd ref="2504025499"/>
    <nd ref="7450582695"/>
    <tag k="addr:city" v="Cambridge"/>
    <tag k="addr:housenumber" v="74"/>
    <tag k="addr:postcode" v="CB23 7PL"/>
    <tag k="addr:street" v="High Street"/>
    <tag k="addr:village" v="Coton"/>
    <tag k="building" v="house"/>
  </way>
  <way id="242965689" version="5" timestamp="2019-02-04T10:43:35Z" changeset="66899076" uid="5173844" user="ndrw6">
    <nd ref="2504024950"/>
    <nd ref="2504025704"/>
    <nd ref="2504025043"/>
    <nd ref="2504024766"/>
    <nd ref="2504024879"/>
    <nd ref="2504024738"/>
    <nd ref="2504025087"/>
    <nd ref="2504025585"/>
    <nd ref="2504025307"/>
    <nd ref="2504025279"/>
    <nd ref="2504024950"/>
    <tag k="addr:city" v="Cambridge"/>
    <tag k="addr:housenumber" v="82"/>
    <tag k="addr:postcode" v="CB23 7PL"/>
    <tag k="addr:street" v="High Street"/>
    <tag k="addr:village" v="Coton"/>
    <tag k="building" v="house"/>
  </way>
  <way id="242965693" version="6" timestamp="2020-04-26T23:55:13Z" changeset="84161958" uid="5173844" user="ndrw6">
    <nd ref="2504024996"/>
    <nd ref="7450582853"/>
    <nd ref="2504025701"/>
    <nd ref="2504025141"/>
    <nd ref="2504025000"/>
    <nd ref="2504024996"/>
    <tag k="addr:city" v="Cambridge"/>
    <tag k="addr:housenumber" v="19"/>
    <tag k="addr:postcode" v="CB23 7PW"/>
    <tag k="addr:street" v="Whitwell Way"/>
    <tag k="addr:village" v="Coton"/>
    <tag k="building" v="house"/>
  </way>
  <way id="242965695" version="4" timestamp="2019-02-04T10:43:35Z" changeset="66899076" uid="5173844" user="ndrw6">
    <nd ref="2504024699"/>
    <nd ref="2504025606"/>
    <nd ref="2504025531"/>
    <nd ref="2504025542"/>
    <nd ref="2504024699"/>
    <tag k="addr:city" v="Cambridge"/>
    <tag k="addr:housenumber" v="4"/>
    <tag k="addr:postcode" v="CB23 7PF"/>
    <tag k="addr:street" v="Sadlers Close"/>
    <tag k="addr:village" v="Coton"/>
    <tag k="building" v="house"/>
  </way>
  <way id="242965696" version="4" timestamp="2022-10-21T11:08:30Z" changeset="127877149" uid="6476359" user="NSiecw">
    <nd ref="2504025120"/>
    <nd ref="2504025536"/>
    <nd ref="2504025657"/>
    <nd ref="2504024730"/>
    <nd ref="2504025171"/>
    <nd ref="2504025621"/>
    <nd ref="2504025120"/>
    <tag k="addr:city" v="Cambridge"/>
    <tag k="addr:housename" v="Rectory Farm"/>
    <tag k="addr:housenumber" v="81"/>
    <tag k="addr:postcode" v="CB23 7PL"/>
    <tag k="addr:street" v="High Street"/>
    <tag k="addr:village" v="Coton"/>
    <tag k="building" v="house"/>
    <tag k="name" v="Rectory Farm"/>
    <tag k="source:addr:housename" v="sign"/>
  </way>
  <way id="242965697" version="5" timestamp="2019-02-04T10:43:35Z" changeset="66899076" uid="5173844" user="ndrw6">
    <nd ref="2504025398"/>
    <nd ref="2504024965"/>
    <nd ref="2504025214"/>
    <nd ref="2504025243"/>
    <nd ref="2504025398"/>
    <tag k="addr:city" v="Cambridge"/>
    <tag k="addr:housenumber" v="21"/>
    <tag k="addr:postcode" v="CB23 7PW"/>
    <tag k="addr:street" v="Whitwell Way"/>
    <tag k="addr:village" v="Coton"/>
    <tag k="building" v="house"/>
  </way>
  <way id="242965698" version="6" timestamp="2020-04-26T23:55:13Z" changeset="84161958" uid="5173844" user="ndrw6">
    <nd ref="7450582793"/>
    <nd ref="2504024760"/>
    <nd ref="2504025088"/>
    <nd ref="7450582794"/>
    <nd ref="7450582793"/>
    <tag k="addr:city" v="Cambridge"/>
    <tag k="addr:housenumber" v="51"/>
    <tag k="addr:postcode" v="CB23 7PX"/>
    <tag k="addr:street" v="The Footpath"/>
    <tag k="addr:village" v="Coton"/>
    <tag k="building" v="house"/>
  </way>
  <way id="242965699" version="5" timestamp="2019-06-24T18:59:54Z" changeset="71573179" uid="5173844" user="ndrw6">
    <nd ref="2504025518"/>
    <nd ref="2504025053"/>
    <nd ref="2504024746"/>
    <nd ref="2504025094"/>
    <nd ref="2504024846"/>
    <nd ref="2504025553"/>
    <nd ref="2504024910"/>
    <nd ref="2504024930"/>
    <nd ref="2504025518"/>
    <tag k="addr:city" v="Cambridge"/>
    <tag k="addr:housenumber" v="57,59,61"/>
    <tag k="addr:postcode" v="CB23 7PX"/>
    <tag k="addr:street" v="The Footpath"/>
    <tag k="addr:village" v="Coton"/>
    <tag k="building" v="house"/>
  </way>
  <way id="242965707" version="5" timestamp="2019-02-04T10:43:36Z" changeset="66899076" uid="5173844" user="ndrw6">
    <nd ref="2504025149"/>
    <nd ref="2504025240"/>
    <nd ref="2504025262"/>
    <nd ref="2504025612"/>
    <nd ref="2504025149"/>
    <tag k="addr:city" v="Cambridge"/>
    <tag k="addr:housenumber" v="9"/>
    <tag k="addr:postcode" v="CB23 7PU"/>
    <tag k="addr:street" v="St John's Road"/>
    <tag k="addr:village" v="Coton"/>
    <tag k="building" v="house"/>
    <tag k="building:levels" v="1"/>
  </way>
  <way id="242965708" version="5" timestamp="2019-06-24T19:11:16Z" changeset="71573520" uid="5173844" user="ndrw6">
    <nd ref="2504025590"/>
    <nd ref="2504024782"/>
    <nd ref="2504024756"/>
    <nd ref="2504025618"/>
    <nd ref="2504025590"/>
    <tag k="addr:city" v="Cambridge"/>
    <tag k="addr:housenumber" v="1"/>
    <tag k="addr:postcode" v="CB23 7PX"/>
    <tag k="addr:street" v="The Footpath"/>
    <tag k="addr:village" v="Coton"/>
    <tag k="building" v="house"/>
  </way>
  <way id="242965709" version="5" timestamp="2019-02-04T10:43:36Z" changeset="66899076" uid="5173844" user="ndrw6">
    <nd ref="2504025352"/>
    <nd ref="2504025381"/>
    <nd ref="2504024794"/>
    <nd ref="2504024871"/>
    <nd ref="2504025322"/>
    <nd ref="2504024845"/>
    <nd ref="2504025352"/>
    <tag k="addr:city" v="Cambridge"/>
    <tag k="addr:housenumber" v="68"/>
    <tag k="addr:postcode" v="CB23 7PL"/>
    <tag k="addr:street" v="High Street"/>
    <tag k="addr:village" v="Coton"/>
    <tag k="building" v="house"/>
  </way>
  <way id="242965710" version="5" timestamp="2019-06-24T18:53:39Z" changeset="71572989" uid="5173844" user="ndrw6">
    <nd ref="2504024774"/>
    <nd ref="2504024750"/>
    <nd ref="2504025420"/>
    <nd ref="2504025036"/>
    <nd ref="2504024774"/>
    <tag k="addr:city" v="Cambridge"/>
    <tag k="addr:housenumber" v="15"/>
    <tag k="addr:postcode" v="CB23 7PX"/>
    <tag k="addr:street" v="The Footpath"/>
    <tag k="addr:village" v="Coton"/>
    <tag k="building" v="house"/>
  </way>
  <way id="242965711" version="7" timestamp="2019-02-04T10:43:36Z" changeset="66899076" uid="5173844" user="ndrw6">
    <nd ref="2504024804"/>
    <nd ref="2504024875"/>
    <nd ref="2504024864"/>
    <nd ref="2504024821"/>
    <nd ref="2504024804"/>
    <tag k="addr:city" v="Cambridge"/>
    <tag k="addr:housenumber" v="75"/>
    <tag k="addr:postcode" v="CB23 7PX"/>
    <tag k="addr:street" v="The Footpath"/>
    <tag k="addr:village" v="Coton"/>
    <tag k="building" v="house"/>
  </way>
  <way id="242965712" version="6" timestamp="2020-10-10T23:41:08Z" changeset="92289177" uid="5173844" user="ndrw6">
    <nd ref="2504025633"/>
    <nd ref="7996105995"/>
    <nd ref="7996105994"/>
    <nd ref="2504024808"/>
    <nd ref="2504025631"/>
    <nd ref="2504024716"/>
    <nd ref="2504024748"/>
    <nd ref="2504024752"/>
    <nd ref="2504025633"/>
    <tag k="addr:city" v="Cambridge"/>
    <tag k="addr:housenumber" v="5"/>
    <tag k="addr:postcode" v="CB23 7PX"/>
    <tag k="addr:street" v="The Footpath"/>
    <tag k="addr:village" v="Coton"/>
    <tag k="building" v="house"/>
  </way>
  <way id="242965713" version="5" timestamp="2019-06-24T19:11:17Z" changeset="71573520" uid="5173844" user="ndrw6">
    <nd ref="2504025364"/>
    <nd ref="2504025090"/>
    <nd ref="2504025423"/>
    <nd ref="2504025629"/>
    <nd ref="2504025364"/>
    <tag k="addr:city" v="Cambridge"/>
    <tag k="addr:housenumber" v="17"/>
    <tag k="addr:postcode" v="CB23 7PX"/>
    <tag k="addr:street" v="The Footpath"/>
    <tag k="addr:village" v="Coton"/>
    <tag k="building" v="house"/>
  </way>
  <way id="242965716" version="5" timestamp="2023-09-24T11:32:15Z" changeset="141678304" uid="61942" user="SomeoneElse">
    <nd ref="2504025370"/>
    <nd ref="2504025445"/>
    <nd ref="2504025033"/>
    <nd ref="2504024847"/>
    <nd ref="2504025177"/>
    <nd ref="2504025448"/>
    <nd ref="2504024740"/>
    <nd ref="2504024926"/>
    <nd ref="2504025370"/>
    <tag k="addr:housenumber" v="2"/>
    <tag k="addr:postcode" v="CB23 7PL"/>
    <tag k="addr:street" v="High Street"/>
    <tag k="amenity" v="pub"/>
    <tag k="beer_garden" v="yes"/>
    <tag k="building" v="yes"/>
    <tag k="floor:material" v="lino"/>
    <tag k="food" v="yes"/>
    <tag k="name" v="The Plough"/>
    <tag k="outdoor_seating" v="yes"/>
    <tag k="parking" v="yes"/>
    <tag k="real_ale" v="3 or so, may vary"/>
    <tag k="website" v="https://theploughcoton.co.uk/"/>
    <tag k="wheelchair" v="limited"/>
    <tag k="wheelchair:description" v="Flat entrance, step down between levels inside"/>
  </way>
  <way id="242965717" version="4" timestamp="2019-02-04T10:43:37Z" changeset="66899076" uid="5173844" user="ndrw6">
    <nd ref="2504024936"/>
    <nd ref="2504025017"/>
    <nd ref="2504025268"/>
    <nd ref="2504025205"/>
    <nd ref="2504024936"/>
    <tag k="addr:city" v="Cambridge"/>
    <tag k="addr:housenumber" v="6"/>
    <tag k="addr:postcode" v="CB23 7PF"/>
    <tag k="addr:street" v="Sadlers Close"/>
    <tag k="addr:village" v="Coton"/>
    <tag k="building" v="house"/>
  </way>
  <way id="242965718" version="5" timestamp="2019-06-24T18:53:38Z" changeset="71572989" uid="5173844" user="ndrw6">
    <nd ref="2504025668"/>
    <nd ref="2504025464"/>
    <nd ref="2504025221"/>
    <nd ref="2504025282"/>
    <nd ref="2504025668"/>
    <tag k="addr:city" v="Cambridge"/>
    <tag k="addr:housenumber" v="11"/>
    <tag k="addr:postcode" v="CB23 7PX"/>
    <tag k="addr:street" v="The Footpath"/>
    <tag k="addr:village" v="Coton"/>
    <tag k="building" v="house"/>
  </way>
  <way id="242965719" version="9" timestamp="2024-03-09T13:30:56Z" changeset="148422637" uid="742701" user="kerr smith">
    <nd ref="2504024814"/>
    <nd ref="7996105932"/>
    <nd ref="7996105933"/>
    <nd ref="11708360811"/>
    <nd ref="7996105934"/>
    <nd ref="11708360812"/>
    <nd ref="11708360815"/>
    <nd ref="11708360813"/>
    <nd ref="2504024850"/>
    <nd ref="11708360814"/>
    <nd ref="7450582748"/>
    <nd ref="2504025166"/>
    <nd ref="2504025540"/>
    <nd ref="11708360809"/>
    <nd ref="11708360810"/>
    <nd ref="2504025345"/>
    <nd ref="2504024814"/>
    <tag k="addr:city" v="Cambridge"/>
    <tag k="addr:housenumber" v="56"/>
    <tag k="addr:postcode" v="CB23 7PL"/>
    <tag k="addr:street" v="High Street"/>
    <tag k="addr:village" v="Coton"/>
    <tag k="amenity" v="community_centre"/>
    <tag k="building" v="public"/>
    <tag k="community_centre" v="village_hall"/>
    <tag k="ele" v="21.0"/>
    <tag k="name" v="Coton Village Hall"/>
  </way>
  <way id="242965721" version="5" timestamp="2019-06-24T18:53:38Z" changeset="71572989" uid="5173844" user="ndrw6">
    <nd ref="2504025230"/>
    <nd ref="2504025616"/>
    <nd ref="2504025488"/>
    <nd ref="2504025496"/>
    <nd ref="2504025230"/>
    <tag k="addr:city" v="Cambridge"/>
    <tag k="addr:housenumber" v="13"/>
    <tag k="addr:postcode" v="CB23 7PX"/>
    <tag k="addr:street" v="The Footpath"/>
    <tag k="addr:village" v="Coton"/>
    <tag k="building" v="house"/>
  </way>
  <way id="242965725" version="4" timestamp="2019-02-04T10:43:37Z" changeset="66899076" uid="5173844" user="ndrw6">
    <nd ref="2504025211"/>
    <nd ref="2504024906"/>
    <nd ref="2504025300"/>
    <nd ref="2504025097"/>
    <nd ref="2504025211"/>
    <tag k="addr:city" v="Cambridge"/>
    <tag k="addr:housenumber" v="2"/>
    <tag k="addr:postcode" v="CB23 7PF"/>
    <tag k="addr:street" v="Sadlers Close"/>
    <tag k="addr:village" v="Coton"/>
    <tag k="building" v="house"/>
  </way>
  <way id="242965726" version="4" timestamp="2019-02-04T10:43:37Z" changeset="66899076" uid="5173844" user="ndrw6">
    <nd ref="2504025051"/>
    <nd ref="2504024932"/>
    <nd ref="2504025439"/>
    <nd ref="2504024934"/>
    <nd ref="2504025051"/>
    <tag k="addr:city" v="Cambridge"/>
    <tag k="addr:housenumber" v="3"/>
    <tag k="addr:postcode" v="CB23 7PF"/>
    <tag k="addr:street" v="Sadlers Close"/>
    <tag k="addr:village" v="Coton"/>
    <tag k="building" v="house"/>
  </way>
  <way id="242965729" version="3" timestamp="2022-10-21T11:08:30Z" changeset="127877149" uid="6476359" user="NSiecw">
    <nd ref="2504024924"/>
    <nd ref="2504025224"/>
    <nd ref="7450582754"/>
    <nd ref="7450582753"/>
    <nd ref="2504025437"/>
    <nd ref="2504025319"/>
    <nd ref="2504024885"/>
    <nd ref="2504025378"/>
    <nd ref="7450582756"/>
    <nd ref="7450582755"/>
    <nd ref="2504024924"/>
    <tag k="addr:city" v="Cambridge"/>
    <tag k="addr:housename" v="Wisteria Barn"/>
    <tag k="addr:postcode" v="CB23 7PL"/>
    <tag k="addr:street" v="High Street"/>
    <tag k="addr:village" v="Coton"/>
    <tag k="building" v="yes"/>
    <tag k="name" v="Wisteria Barn"/>
    <tag k="source:addr:housename" v="sign"/>
  </way>
  <way id="242965732" version="5" timestamp="2019-02-04T10:43:38Z" changeset="66899076" uid="5173844" user="ndrw6">
    <nd ref="2504024902"/>
    <nd ref="2504025386"/>
    <nd ref="2504024992"/>
    <nd ref="2504024776"/>
    <nd ref="2504024902"/>
    <tag k="addr:city" v="Cambridge"/>
    <tag k="addr:housenumber" v="84"/>
    <tag k="addr:postcode" v="CB23 7PL"/>
    <tag k="addr:street" v="High Street"/>
    <tag k="addr:village" v="Coton"/>
    <tag k="building" v="house"/>
  </way>
  <way id="242965734" version="5" timestamp="2019-06-24T19:11:14Z" changeset="71573520" uid="5173844" user="ndrw6">
    <nd ref="2504025466"/>
    <nd ref="2504024718"/>
    <nd ref="2504024703"/>
    <nd ref="2504025115"/>
    <nd ref="2504025316"/>
    <nd ref="2504025019"/>
    <nd ref="2504025466"/>
    <tag k="addr:city" v="Cambridge"/>
    <tag k="addr:housenumber" v="39-47"/>
    <tag k="addr:postcode" v="CB23 7PX"/>
    <tag k="addr:street" v="The Footpath"/>
    <tag k="addr:village" v="Coton"/>
    <tag k="building" v="house"/>
  </way>
  <way id="242965735" version="5" timestamp="2019-02-04T10:43:38Z" changeset="66899076" uid="5173844" user="ndrw6">
    <nd ref="2504025551"/>
    <nd ref="2504024961"/>
    <nd ref="2504025339"/>
    <nd ref="2504025152"/>
    <nd ref="2504025443"/>
    <nd ref="2504024825"/>
    <nd ref="2504025551"/>
    <tag k="addr:city" v="Cambridge"/>
    <tag k="addr:housenumber" v="1"/>
    <tag k="addr:postcode" v="CB23 7PW"/>
    <tag k="addr:street" v="Whitwell Way"/>
    <tag k="addr:village" v="Coton"/>
    <tag k="building" v="house"/>
  </way>
  <way id="242965736" version="2" timestamp="2022-10-21T11:08:30Z" changeset="127877149" uid="6476359" user="NSiecw">
    <nd ref="2504025112"/>
    <nd ref="2504025235"/>
    <nd ref="2504025020"/>
    <nd ref="2504024849"/>
    <nd ref="2504025112"/>
    <tag k="addr:city" v="Cambridge"/>
    <tag k="addr:housenumber" v="48"/>
    <tag k="addr:postcode" v="CB23 7PL"/>
    <tag k="addr:street" v="High Street"/>
    <tag k="addr:village" v="Coton"/>
    <tag k="building" v="yes"/>
  </way>
  <way id="242965738" version="6" timestamp="2023-07-15T17:27:20Z" changeset="138553324" uid="5173844" user="ndrw6">
    <nd ref="11048284559"/>
    <nd ref="2504025064"/>
    <nd ref="2504024705"/>
    <nd ref="11048284558"/>
    <nd ref="11048284559"/>
    <tag k="addr:city" v="Cambridge"/>
    <tag k="addr:housenumber" v="69"/>
    <tag k="addr:postcode" v="CB23 7PX"/>
    <tag k="addr:street" v="The Footpath"/>
    <tag k="addr:village" v="Coton"/>
    <tag k="building" v="house"/>
  </way>
  <way id="242965739" version="7" timestamp="2019-02-04T10:43:38Z" changeset="66899076" uid="5173844" user="ndrw6">
    <nd ref="2504025009"/>
    <nd ref="2504025358"/>
    <nd ref="2504025227"/>
    <nd ref="2504025041"/>
    <nd ref="2504025333"/>
    <nd ref="5280778602"/>
    <nd ref="5280778601"/>
    <nd ref="5280778600"/>
    <nd ref="5280778599"/>
    <nd ref="2504025237"/>
    <nd ref="2504025009"/>
    <tag k="addr:city" v="Cambridge"/>
    <tag k="addr:housenumber" v="57"/>
    <tag k="addr:postcode" v="CB23 7PL"/>
    <tag k="addr:street" v="High Street"/>
    <tag k="addr:village" v="Coton"/>
    <tag k="building" v="house"/>
    <tag k="wikidata" v="Q26420656"/>
  </way>
  <way id="242965740" version="4" timestamp="2019-02-04T10:43:38Z" changeset="66899076" uid="5173844" user="ndrw6">
    <nd ref="2504025274"/>
    <nd ref="2504025373"/>
    <nd ref="2504025099"/>
    <nd ref="2504025277"/>
    <nd ref="2504025274"/>
    <tag k="addr:city" v="Cambridge"/>
    <tag k="addr:housenumber" v="12"/>
    <tag k="addr:postcode" v="CB23 7PF"/>
    <tag k="addr:street" v="Sadlers Close"/>
    <tag k="addr:village" v="Coton"/>
    <tag k="building" v="house"/>
  </way>
  <way id="242965741" version="7" timestamp="2020-04-26T23:55:13Z" changeset="84161958" uid="5173844" user="ndrw6">
    <nd ref="7450582733"/>
    <nd ref="2504025588"/>
    <nd ref="2504024977"/>
    <nd ref="2504024856"/>
    <nd ref="2504025653"/>
    <nd ref="2504025608"/>
    <nd ref="2504024867"/>
    <nd ref="2504025441"/>
    <nd ref="2504025330"/>
    <nd ref="7450582733"/>
    <tag k="addr:city" v="Cambridge"/>
    <tag k="addr:housenumber" v="50"/>
    <tag k="addr:postcode" v="CB23 7PL"/>
    <tag k="addr:street" v="High Street"/>
    <tag k="addr:village" v="Coton"/>
    <tag k="building" v="house"/>
  </way>
  <way id="242965742" version="5" timestamp="2019-02-04T10:43:38Z" changeset="66899076" uid="5173844" user="ndrw6">
    <nd ref="2504025663"/>
    <nd ref="2504025191"/>
    <nd ref="2504024940"/>
    <nd ref="2504025645"/>
    <nd ref="2504025663"/>
    <tag k="addr:city" v="Cambridge"/>
    <tag k="addr:housenumber" v="19"/>
    <tag k="addr:postcode" v="CB23 7PX"/>
    <tag k="addr:street" v="The Footpath"/>
    <tag k="addr:village" v="Coton"/>
    <tag k="building" v="house"/>
  </way>
  <way id="242965743" version="5" timestamp="2019-06-24T18:59:56Z" changeset="71573179" uid="5173844" user="ndrw6">
    <nd ref="2504024848"/>
    <nd ref="2504025079"/>
    <nd ref="2504025085"/>
    <nd ref="2504024946"/>
    <nd ref="2504024908"/>
    <nd ref="2504025026"/>
    <nd ref="2504024848"/>
    <tag k="addr:city" v="Cambridge"/>
    <tag k="addr:housenumber" v="73"/>
    <tag k="addr:postcode" v="CB23 7PX"/>
    <tag k="addr:street" v="The Footpath"/>
    <tag k="addr:village" v="Coton"/>
    <tag k="building" v="house"/>
  </way>
  <way id="242965744" version="4" timestamp="2019-02-04T10:43:39Z" changeset="66899076" uid="5173844" user="ndrw6">
    <nd ref="2504025691"/>
    <nd ref="2504025202"/>
    <nd ref="2504024817"/>
    <nd ref="2504024823"/>
    <nd ref="2504025691"/>
    <tag k="addr:city" v="Cambridge"/>
    <tag k="addr:housenumber" v="11"/>
    <tag k="addr:postcode" v="CB23 7PF"/>
    <tag k="addr:street" v="Sadlers Close"/>
    <tag k="addr:village" v="Coton"/>
    <tag k="building" v="house"/>
  </way>
  <way id="242965745" version="5" timestamp="2019-02-04T10:43:39Z" changeset="66899076" uid="5173844" user="ndrw6">
    <nd ref="2504025535"/>
    <nd ref="2504024728"/>
    <nd ref="2504024726"/>
    <nd ref="2504024852"/>
    <nd ref="2504024858"/>
    <nd ref="2504024838"/>
    <nd ref="2504024899"/>
    <nd ref="2504025275"/>
    <nd ref="2504025535"/>
    <tag k="addr:city" v="Cambridge"/>
    <tag k="addr:housenumber" v="54"/>
    <tag k="addr:postcode" v="CB23 7PL"/>
    <tag k="addr:street" v="High Street"/>
    <tag k="addr:village" v="Coton"/>
    <tag k="building" v="house"/>
  </way>
  <way id="242965747" version="4" timestamp="2019-02-04T10:43:40Z" changeset="66899076" uid="5173844" user="ndrw6">
    <nd ref="2504025568"/>
    <nd ref="2504024928"/>
    <nd ref="2504024744"/>
    <nd ref="2504024742"/>
    <nd ref="2504025568"/>
    <tag k="addr:city" v="Cambridge"/>
    <tag k="addr:housenumber" v="9"/>
    <tag k="addr:postcode" v="CB23 7PF"/>
    <tag k="addr:street" v="Sadlers Close"/>
    <tag k="addr:village" v="Coton"/>
    <tag k="building" v="house"/>
  </way>
  <way id="242965748" version="2" timestamp="2023-12-25T13:59:08Z" changeset="145498838" uid="493595" user="Yorvik Prestigitator">
    <nd ref="2504025672"/>
    <nd ref="2504025062"/>
    <nd ref="2504025038"/>
    <nd ref="2504025045"/>
    <nd ref="2504025672"/>
    <tag k="addr:street" v="The Footpath"/>
    <tag k="amenity" v="community_centre"/>
    <tag k="building" v="public"/>
    <tag k="community_centre" v="village_hall"/>
    <tag k="name" v="Coton Village Hall"/>
  </way>
  <way id="242965749" version="4" timestamp="2019-02-04T10:43:40Z" changeset="66899076" uid="5173844" user="ndrw6">
    <nd ref="2504025216"/>
    <nd ref="2504024916"/>
    <nd ref="2504024694"/>
    <nd ref="2504024768"/>
    <nd ref="2504025216"/>
    <tag k="addr:city" v="Cambridge"/>
    <tag k="addr:housenumber" v="1"/>
    <tag k="addr:postcode" v="CB23 7PF"/>
    <tag k="addr:street" v="Sadlers Close"/>
    <tag k="addr:village" v="Coton"/>
    <tag k="building" v="house"/>
  </way>
  <way id="242965751" version="3" timestamp="2023-07-15T17:27:20Z" changeset="138553324" uid="5173844" user="ndrw6">
    <nd ref="2504025676"/>
    <nd ref="2504024979"/>
    <nd ref="2504024710"/>
    <nd ref="2504025414"/>
    <nd ref="2504025561"/>
    <nd ref="2504025533"/>
    <nd ref="2504025491"/>
    <nd ref="2504024959"/>
    <nd ref="2504025676"/>
    <tag k="addr:city" v="Cambridge"/>
    <tag k="addr:housenumber" v="42"/>
    <tag k="addr:postcode" v="CB23 7PL"/>
    <tag k="addr:street" v="High Street"/>
    <tag k="addr:village" v="Coton"/>
    <tag k="building" v="residential"/>
    <tag k="wikidata" v="Q26456180"/>
  </way>
  <way id="242965752" version="3" timestamp="2022-10-21T11:08:30Z" changeset="127877149" uid="6476359" user="NSiecw">
    <nd ref="2504024772"/>
    <nd ref="2504024938"/>
    <nd ref="2504025265"/>
    <nd ref="5280708512"/>
    <nd ref="5280708511"/>
    <nd ref="5280708510"/>
    <nd ref="5280708509"/>
    <nd ref="2504025164"/>
    <nd ref="2504025623"/>
    <nd ref="2504025610"/>
    <nd ref="2504024772"/>
    <tag k="addr:city" v="Cambridge"/>
    <tag k="addr:housenumber" v="73"/>
    <tag k="addr:postcode" v="CB23 7PL"/>
    <tag k="addr:street" v="High Street"/>
    <tag k="addr:village" v="Coton"/>
    <tag k="building" v="yes"/>
  </way>
  <way id="242965755" version="8" timestamp="2019-02-04T10:43:40Z" changeset="66899076" uid="5173844" user="ndrw6">
    <nd ref="2504025680"/>
    <nd ref="2504025232"/>
    <nd ref="2504025355"/>
    <nd ref="2504024953"/>
    <nd ref="2504025549"/>
    <nd ref="2504025678"/>
    <nd ref="2504025680"/>
    <tag k="addr:city" v="Cambridge"/>
    <tag k="addr:housenumber" v="77"/>
    <tag k="addr:postcode" v="CB23 7PX"/>
    <tag k="addr:street" v="The Footpath"/>
    <tag k="addr:village" v="Coton"/>
    <tag k="building" v="house"/>
  </way>
  <way id="242966613" version="5" timestamp="2018-10-15T22:53:22Z" changeset="63557919" uid="5173844" user="ndrw6">
    <nd ref="2504033735"/>
    <nd ref="2504033955"/>
    <nd ref="2504033837"/>
    <nd ref="2504033711"/>
    <nd ref="2504033740"/>
    <nd ref="2504033681"/>
    <nd ref="2504033713"/>
    <nd ref="2504033777"/>
    <nd ref="2504033735"/>
    <tag k="addr:housenumber" v="12"/>
    <tag k="addr:postcode" v="CB23 7PL"/>
    <tag k="addr:street" v="High Street"/>
    <tag k="building" v="house"/>
    <tag k="wikidata" v="Q26616043"/>
  </way>
  <way id="242966615" version="5" timestamp="2019-06-24T19:11:15Z" changeset="71573520" uid="5173844" user="ndrw6">
    <nd ref="2504033940"/>
    <nd ref="2504033744"/>
    <nd ref="2504033737"/>
    <nd ref="2504033857"/>
    <nd ref="2504033940"/>
    <tag k="addr:city" v="Cambridge"/>
    <tag k="addr:housenumber" v="10"/>
    <tag k="addr:postcode" v="CB23 7PY"/>
    <tag k="addr:street" v="Brook Lane"/>
    <tag k="addr:village" v="Coton"/>
    <tag k="building" v="house"/>
  </way>
  <way id="242966616" version="6" timestamp="2023-07-15T17:27:20Z" changeset="138553324" uid="5173844" user="ndrw6">
    <nd ref="7450582713"/>
    <nd ref="2504033775"/>
    <nd ref="2504033811"/>
    <nd ref="7450582712"/>
    <nd ref="7450582713"/>
    <tag k="addr:city" v="Cambridge"/>
    <tag k="addr:housenumber" v="11"/>
    <tag k="addr:postcode" v="CB23 7PJ"/>
    <tag k="addr:street" v="Cambridge Road"/>
    <tag k="addr:village" v="Coton"/>
    <tag k="building" v="house"/>
  </way>
  <way id="242966617" version="2" timestamp="2023-07-15T17:27:20Z" changeset="138553324" uid="5173844" user="ndrw6">
    <nd ref="2504033825"/>
    <nd ref="2504033679"/>
    <nd ref="2504033769"/>
    <nd ref="2504033752"/>
    <nd ref="2504033972"/>
    <nd ref="2504033820"/>
    <nd ref="2504033825"/>
    <tag k="addr:city" v="Cambridge"/>
    <tag k="addr:housenumber" v="6"/>
    <tag k="addr:postcode" v="CB23 7PL"/>
    <tag k="addr:street" v="High Street"/>
    <tag k="addr:village" v="Coton"/>
    <tag k="building" v="house"/>
  </way>
  <way id="242966618" version="6" timestamp="2020-10-10T23:41:08Z" changeset="92289177" uid="5173844" user="ndrw6">
    <nd ref="2504033929"/>
    <nd ref="7996105944"/>
    <nd ref="7996105945"/>
    <nd ref="2504033809"/>
    <nd ref="7996105946"/>
    <nd ref="7996105947"/>
    <nd ref="2504033727"/>
    <nd ref="2504033729"/>
    <nd ref="2504033929"/>
    <tag k="addr:city" v="Cambridge"/>
    <tag k="addr:housenumber" v="12"/>
    <tag k="addr:postcode" v="CB23 7PJ"/>
    <tag k="addr:street" v="Cambridge Road"/>
    <tag k="addr:village" v="Coton"/>
    <tag k="building" v="house"/>
  </way>
  <way id="242966619" version="5" timestamp="2023-07-15T17:27:20Z" changeset="138553324" uid="5173844" user="ndrw6">
    <nd ref="2504033764"/>
    <nd ref="2504033759"/>
    <nd ref="2504033875"/>
    <nd ref="2504033748"/>
    <nd ref="2504033764"/>
    <tag k="addr:city" v="Cambridge"/>
    <tag k="addr:housenumber" v="1"/>
    <tag k="addr:postcode" v="CB23 7PY"/>
    <tag k="addr:street" v="Brook Lane"/>
    <tag k="addr:village" v="Coton"/>
    <tag k="building" v="house"/>
  </way>
  <way id="242966620" version="6" timestamp="2023-07-15T17:27:20Z" changeset="138553324" uid="5173844" user="ndrw6">
    <nd ref="7450582707"/>
    <nd ref="2504033731"/>
    <nd ref="2504033756"/>
    <nd ref="7450582706"/>
    <nd ref="7450582707"/>
    <tag k="addr:city" v="Cambridge"/>
    <tag k="addr:housenumber" v="15"/>
    <tag k="addr:postcode" v="CB23 7PJ"/>
    <tag k="addr:street" v="Cambridge Road"/>
    <tag k="addr:village" v="Coton"/>
    <tag k="building" v="house"/>
  </way>
  <way id="242966621" version="5" timestamp="2019-09-08T09:35:01Z" changeset="74222341" uid="5173844" user="ndrw6">
    <nd ref="2504033760"/>
    <nd ref="2504033781"/>
    <nd ref="2504033884"/>
    <nd ref="2504033887"/>
    <nd ref="2504033760"/>
    <tag k="addr:city" v="Cambridge"/>
    <tag k="addr:housenumber" v="8"/>
    <tag k="addr:postcode" v="CB23 7PJ"/>
    <tag k="addr:street" v="Cambridge Road"/>
    <tag k="addr:village" v="Coton"/>
    <tag k="building" v="house"/>
  </way>
  <way id="242966622" version="7" timestamp="2020-10-10T23:41:08Z" changeset="92289177" uid="5173844" user="ndrw6">
    <nd ref="2504033905"/>
    <nd ref="5280778535"/>
    <nd ref="5280778536"/>
    <nd ref="5280778537"/>
    <nd ref="2504033896"/>
    <nd ref="7996105941"/>
    <nd ref="7996105940"/>
    <nd ref="2504033832"/>
    <nd ref="2504033921"/>
    <nd ref="2504033905"/>
    <tag k="addr:city" v="Cambridge"/>
    <tag k="addr:housenumber" v="16"/>
    <tag k="addr:postcode" v="CB23 7PJ"/>
    <tag k="addr:street" v="Cambridge Road"/>
    <tag k="addr:village" v="Coton"/>
    <tag k="building" v="house"/>
  </way>
  <way id="242966623" version="6" timestamp="2023-07-15T17:27:20Z" changeset="138553324" uid="5173844" user="ndrw6">
    <nd ref="7450582701"/>
    <nd ref="2504033965"/>
    <nd ref="2504033864"/>
    <nd ref="7450582700"/>
    <nd ref="7450582701"/>
    <tag k="addr:city" v="Cambridge"/>
    <tag k="addr:housenumber" v="19"/>
    <tag k="addr:postcode" v="CB23 7PJ"/>
    <tag k="addr:street" v="Cambridge Road"/>
    <tag k="addr:village" v="Coton"/>
    <tag k="building" v="house"/>
  </way>
  <way id="242966624" version="3" timestamp="2020-10-10T23:41:08Z" changeset="92289177" uid="5173844" user="ndrw6">
    <nd ref="2504033841"/>
    <nd ref="2504033695"/>
    <nd ref="2504033793"/>
    <nd ref="2504033770"/>
    <nd ref="2504033942"/>
    <nd ref="2504033705"/>
    <nd ref="7996105942"/>
    <nd ref="7996105943"/>
    <nd ref="2504033841"/>
    <tag k="addr:housenumber" v="14"/>
    <tag k="addr:postcode" v="CB23 7PJ"/>
    <tag k="addr:street" v="Cambridge Road"/>
    <tag k="building" v="yes"/>
  </way>
  <way id="242966625" version="6" timestamp="2020-04-26T23:55:13Z" changeset="84161958" uid="5173844" user="ndrw6">
    <nd ref="7450582805"/>
    <nd ref="2504033959"/>
    <nd ref="2504033843"/>
    <nd ref="7450582804"/>
    <nd ref="7450582805"/>
    <tag k="addr:city" v="Cambridge"/>
    <tag k="addr:housenumber" v="13"/>
    <tag k="addr:postcode" v="CB23 7PL"/>
    <tag k="addr:street" v="High Street"/>
    <tag k="addr:village" v="Coton"/>
    <tag k="building" v="house"/>
  </way>
  <way id="242966626" version="8" timestamp="2020-10-10T23:41:08Z" changeset="92289177" uid="5173844" user="ndrw6">
    <nd ref="7450582803"/>
    <nd ref="2504033949"/>
    <nd ref="2504033925"/>
    <nd ref="7996105962"/>
    <nd ref="7450582802"/>
    <nd ref="7450582803"/>
    <tag k="addr:city" v="Cambridge"/>
    <tag k="addr:housenumber" v="9"/>
    <tag k="addr:postcode" v="CB23 7PL"/>
    <tag k="addr:street" v="High Street"/>
    <tag k="addr:village" v="Coton"/>
    <tag k="building" v="house"/>
  </way>
  <way id="242966627" version="7" timestamp="2020-10-10T23:41:08Z" changeset="92289177" uid="5173844" user="ndrw6">
    <nd ref="7450582796"/>
    <nd ref="2504033786"/>
    <nd ref="2504033944"/>
    <nd ref="7450582795"/>
    <nd ref="7450582796"/>
    <tag k="addr:city" v="Cambridge"/>
    <tag k="addr:housenumber" v="8"/>
    <tag k="addr:postcode" v="CB23 7PY"/>
    <tag k="addr:street" v="Brook Lane"/>
    <tag k="addr:village" v="Coton"/>
    <tag k="building" v="house"/>
  </way>
  <way id="242966628" version="6" timestamp="2020-04-26T23:55:13Z" changeset="84161958" uid="5173844" user="ndrw6">
    <nd ref="2504033870"/>
    <nd ref="2504033724"/>
    <nd ref="7450578555"/>
    <nd ref="7450578554"/>
    <nd ref="2504033880"/>
    <nd ref="2504033868"/>
    <nd ref="2504033666"/>
    <nd ref="2504033828"/>
    <nd ref="2504033870"/>
    <tag k="addr:city" v="Cambridge"/>
    <tag k="addr:housenumber" v="2"/>
    <tag k="addr:postcode" v="CB23 7PJ"/>
    <tag k="addr:street" v="Cambridge Road"/>
    <tag k="addr:village" v="Coton"/>
    <tag k="building" v="house"/>
  </way>
  <way id="242966629" version="5" timestamp="2019-02-04T10:43:41Z" changeset="66899076" uid="5173844" user="ndrw6">
    <nd ref="2504033768"/>
    <nd ref="2504033702"/>
    <nd ref="2504033802"/>
    <nd ref="2504033963"/>
    <nd ref="2504033912"/>
    <nd ref="2504033807"/>
    <nd ref="2504033768"/>
    <tag k="addr:city" v="Cambridge"/>
    <tag k="addr:housenumber" v="22"/>
    <tag k="addr:postcode" v="CB23 7PL"/>
    <tag k="addr:street" v="High Street"/>
    <tag k="addr:village" v="Coton"/>
    <tag k="building" v="house"/>
  </way>
  <way id="242966630" version="5" timestamp="2019-02-04T10:43:41Z" changeset="66899076" uid="5173844" user="ndrw6">
    <nd ref="2504033835"/>
    <nd ref="2504033671"/>
    <nd ref="2504033951"/>
    <nd ref="2504033958"/>
    <nd ref="2504033835"/>
    <tag k="addr:city" v="Cambridge"/>
    <tag k="addr:housenumber" v="3A"/>
    <tag k="addr:postcode" v="CB23 7PJ"/>
    <tag k="addr:street" v="Cambridge Road"/>
    <tag k="addr:village" v="Coton"/>
    <tag k="building" v="house"/>
  </way>
  <way id="242966631" version="6" timestamp="2020-04-26T23:55:13Z" changeset="84161958" uid="5173844" user="ndrw6">
    <nd ref="7450582807"/>
    <nd ref="7450582811"/>
    <nd ref="7450582810"/>
    <nd ref="7450582806"/>
    <nd ref="7450582807"/>
    <tag k="addr:city" v="Cambridge"/>
    <tag k="addr:housenumber" v="18"/>
    <tag k="addr:postcode" v="CB23 7PL"/>
    <tag k="addr:street" v="High Street"/>
    <tag k="addr:village" v="Coton"/>
    <tag k="building" v="house"/>
  </way>
  <way id="242966632" version="5" timestamp="2019-09-08T09:35:02Z" changeset="74222341" uid="5173844" user="ndrw6">
    <nd ref="2504033866"/>
    <nd ref="2504033718"/>
    <nd ref="2504033894"/>
    <nd ref="2504033669"/>
    <nd ref="2504033866"/>
    <tag k="addr:city" v="Cambridge"/>
    <tag k="addr:housenumber" v="10"/>
    <tag k="addr:postcode" v="CB23 7PJ"/>
    <tag k="addr:street" v="Cambridge Road"/>
    <tag k="addr:village" v="Coton"/>
    <tag k="building" v="house"/>
  </way>
  <way id="242966633" version="5" timestamp="2022-12-26T12:49:23Z" changeset="130515174" uid="242345" user="confusedbuffalo">
    <nd ref="2504033946"/>
    <nd ref="2504033830"/>
    <nd ref="2504033953"/>
    <nd ref="2504033823"/>
    <nd ref="2504033753"/>
    <nd ref="2504033898"/>
    <nd ref="2504033934"/>
    <nd ref="2504033700"/>
    <nd ref="2504033946"/>
    <tag k="addr:city" v="Cambridge"/>
    <tag k="addr:housenumber" v="7"/>
    <tag k="addr:postcode" v="CB23 7PY"/>
    <tag k="addr:street" v="Brook Lane"/>
    <tag k="addr:village" v="Coton"/>
    <tag k="building" v="house"/>
  </way>
  <way id="242966634" version="4" timestamp="2023-07-15T17:27:20Z" changeset="138553324" uid="5173844" user="ndrw6">
    <nd ref="2504033773"/>
    <nd ref="2504033761"/>
    <nd ref="2504033762"/>
    <nd ref="2504033758"/>
    <nd ref="2504033691"/>
    <nd ref="2504033882"/>
    <nd ref="2504033773"/>
    <tag k="addr:city" v="Cambridge"/>
    <tag k="addr:housenumber" v="4"/>
    <tag k="addr:postcode" v="CB23 7PL"/>
    <tag k="addr:street" v="High Street"/>
    <tag k="addr:village" v="Coton"/>
    <tag k="building" v="house"/>
  </way>
  <way id="242966635" version="4" timestamp="2023-07-15T17:27:20Z" changeset="138553324" uid="5173844" user="ndrw6">
    <nd ref="2504033846"/>
    <nd ref="2504033674"/>
    <nd ref="2504033814"/>
    <nd ref="2504033804"/>
    <nd ref="2504033767"/>
    <nd ref="2504033779"/>
    <nd ref="2504033908"/>
    <nd ref="2504033795"/>
    <nd ref="2504033846"/>
    <tag k="addr:city" v="Cambridge"/>
    <tag k="addr:housenumber" v="9"/>
    <tag k="addr:postcode" v="CB23 7PY"/>
    <tag k="addr:street" v="Brook Lane"/>
    <tag k="addr:village" v="Coton"/>
    <tag k="building" v="house"/>
  </way>
  <way id="242966636" version="6" timestamp="2023-07-15T17:27:20Z" changeset="138553324" uid="5173844" user="ndrw6">
    <nd ref="2504033878"/>
    <nd ref="6514970692"/>
    <nd ref="6514970691"/>
    <nd ref="6514970693"/>
    <nd ref="2504033688"/>
    <nd ref="2504033754"/>
    <nd ref="6514970696"/>
    <nd ref="6514970697"/>
    <nd ref="6514970695"/>
    <nd ref="6514970694"/>
    <nd ref="2504033878"/>
    <tag k="addr:city" v="Cambridge"/>
    <tag k="addr:housenumber" v="16"/>
    <tag k="addr:postcode" v="CB23 7PY"/>
    <tag k="addr:street" v="Brook Lane"/>
    <tag k="addr:village" v="Coton"/>
    <tag k="building" v="house"/>
  </way>
  <way id="242966637" version="3" timestamp="2018-05-26T18:28:16Z" changeset="59299283" uid="5173844" user="ndrw6">
    <nd ref="2504033816"/>
    <nd ref="2504033751"/>
    <nd ref="2504033873"/>
    <nd ref="2504033784"/>
    <nd ref="2504033901"/>
    <nd ref="2504033839"/>
    <nd ref="2504033917"/>
    <nd ref="2504033772"/>
    <nd ref="2504033816"/>
    <tag k="addr:housenumber" v="24"/>
    <tag k="addr:street" v="High Street"/>
    <tag k="building" v="house"/>
  </way>
  <way id="242966638" version="6" timestamp="2023-07-15T17:27:20Z" changeset="138553324" uid="5173844" user="ndrw6">
    <nd ref="7450582719"/>
    <nd ref="2504033733"/>
    <nd ref="2504033889"/>
    <nd ref="7450582718"/>
    <nd ref="7450582719"/>
    <tag k="addr:city" v="Cambridge"/>
    <tag k="addr:housenumber" v="7"/>
    <tag k="addr:postcode" v="CB23 7PJ"/>
    <tag k="addr:street" v="Cambridge Road"/>
    <tag k="addr:village" v="Coton"/>
    <tag k="building" v="house"/>
  </way>
  <way id="242966639" version="5" timestamp="2023-07-15T17:27:20Z" changeset="138553324" uid="5173844" user="ndrw6">
    <nd ref="2504033766"/>
    <nd ref="2504033771"/>
    <nd ref="2504033763"/>
    <nd ref="2504033765"/>
    <nd ref="2504033766"/>
    <tag k="addr:city" v="Cambridge"/>
    <tag k="addr:housenumber" v="12"/>
    <tag k="addr:postcode" v="CB23 7PY"/>
    <tag k="addr:street" v="Brook Lane"/>
    <tag k="addr:village" v="Coton"/>
    <tag k="building" v="house"/>
  </way>
  <way id="242966640" version="5" timestamp="2023-07-15T17:27:20Z" changeset="138553324" uid="5173844" user="ndrw6">
    <nd ref="2504033967"/>
    <nd ref="2504033923"/>
    <nd ref="2504033818"/>
    <nd ref="2504033661"/>
    <nd ref="2504033919"/>
    <nd ref="2504033961"/>
    <nd ref="2504033967"/>
    <tag k="addr:city" v="Cambridge"/>
    <tag k="addr:housenumber" v="28"/>
    <tag k="addr:postcode" v="CB23 7PY"/>
    <tag k="addr:street" v="Brook Lane"/>
    <tag k="addr:village" v="Coton"/>
    <tag k="building" v="house"/>
  </way>
  <way id="242966641" version="5" timestamp="2023-07-15T17:27:20Z" changeset="138553324" uid="5173844" user="ndrw6">
    <nd ref="2504033693"/>
    <nd ref="2504033720"/>
    <nd ref="2504033749"/>
    <nd ref="2504033750"/>
    <nd ref="2504033693"/>
    <tag k="addr:city" v="Cambridge"/>
    <tag k="addr:housenumber" v="18"/>
    <tag k="addr:postcode" v="CB23 7PY"/>
    <tag k="addr:street" v="Brook Lane"/>
    <tag k="addr:village" v="Coton"/>
    <tag k="building" v="house"/>
  </way>
  <way id="242969149" version="4" timestamp="2019-02-04T10:43:42Z" changeset="66899076" uid="5173844" user="ndrw6">
    <nd ref="2504076546"/>
    <nd ref="2504076052"/>
    <nd ref="2504075937"/>
    <nd ref="2504075932"/>
    <nd ref="2504076546"/>
    <tag k="addr:city" v="Cambridge"/>
    <tag k="addr:housenumber" v="10"/>
    <tag k="addr:postcode" v="CB23 7PT"/>
    <tag k="addr:street" v="Brookfield Road"/>
    <tag k="addr:village" v="Coton"/>
    <tag k="building" v="house"/>
    <tag k="building:levels" v="2"/>
  </way>
  <way id="242969151" version="4" timestamp="2020-05-09T19:44:35Z" changeset="84949436" uid="5173844" user="ndrw6">
    <nd ref="2504076057"/>
    <nd ref="2504075713"/>
    <nd ref="2504075825"/>
    <nd ref="2504075558"/>
    <nd ref="2504076057"/>
    <tag k="addr:city" v="Cambridge"/>
    <tag k="addr:housenumber" v="1"/>
    <tag k="addr:postcode" v="CB23 7PS"/>
    <tag k="addr:street" v="Benny's Way"/>
    <tag k="addr:village" v="Coton"/>
    <tag k="building" v="house"/>
  </way>
  <way id="242969152" version="5" timestamp="2020-05-09T14:11:23Z" changeset="84939385" uid="5173844" user="ndrw6">
    <nd ref="2504075455"/>
    <nd ref="2504076071"/>
    <nd ref="5280708485"/>
    <nd ref="5280708486"/>
    <nd ref="2504076473"/>
    <nd ref="2504076136"/>
    <nd ref="2504075639"/>
    <nd ref="2504075819"/>
    <nd ref="2504075455"/>
    <tag k="addr:city" v="Cambridge"/>
    <tag k="addr:housenumber" v="91a"/>
    <tag k="addr:postcode" v="CB23 7PW"/>
    <tag k="addr:street" v="Whitwell Way"/>
    <tag k="addr:village" v="Coton"/>
    <tag k="building" v="yes"/>
  </way>
  <way id="242969153" version="4" timestamp="2020-05-09T19:44:35Z" changeset="84949436" uid="5173844" user="ndrw6">
    <nd ref="7450583263"/>
    <nd ref="2504075781"/>
    <nd ref="2504075527"/>
    <nd ref="7450583262"/>
    <nd ref="7450583263"/>
    <tag k="addr:city" v="Cambridge"/>
    <tag k="addr:housenumber" v="4a"/>
    <tag k="addr:postcode" v="CB23 7PP"/>
    <tag k="addr:street" v="Silverdale Avenue"/>
    <tag k="addr:village" v="Coton"/>
    <tag k="building" v="house"/>
  </way>
  <way id="242969154" version="6" timestamp="2020-04-26T23:55:13Z" changeset="84161958" uid="5173844" user="ndrw6">
    <nd ref="7450583496"/>
    <nd ref="2504076497"/>
    <nd ref="2504075369"/>
    <nd ref="7450583497"/>
    <nd ref="7450583496"/>
    <tag k="addr:city" v="Cambridge"/>
    <tag k="addr:housenumber" v="91"/>
    <tag k="addr:postcode" v="CB23 7PW"/>
    <tag k="addr:street" v="Whitwell Way"/>
    <tag k="addr:village" v="Coton"/>
    <tag k="building" v="house"/>
    <tag k="building:levels" v="1"/>
  </way>
  <way id="242969156" version="5" timestamp="2020-05-09T14:11:21Z" changeset="84939385" uid="5173844" user="ndrw6">
    <nd ref="2504075602"/>
    <nd ref="2504076089"/>
    <nd ref="2504075761"/>
    <nd ref="2504076241"/>
    <nd ref="2504075602"/>
    <tag k="addr:city" v="Cambridge"/>
    <tag k="addr:housenumber" v="99"/>
    <tag k="addr:postcode" v="CB23 7PW"/>
    <tag k="addr:street" v="Whitwell Way"/>
    <tag k="addr:village" v="Coton"/>
    <tag k="building" v="house"/>
  </way>
  <way id="242969157" version="3" timestamp="2020-05-09T19:44:35Z" changeset="84949436" uid="5173844" user="ndrw6">
    <nd ref="7501823691"/>
    <nd ref="2504076183"/>
    <nd ref="2504075572"/>
    <nd ref="7501823690"/>
    <nd ref="7501823691"/>
    <tag k="addr:city" v="Cambridge"/>
    <tag k="addr:housenumber" v="11a"/>
    <tag k="addr:postcode" v="CB23 7PP"/>
    <tag k="addr:street" v="Silverdale Avenue"/>
    <tag k="addr:village" v="Coton"/>
    <tag k="building" v="house"/>
  </way>
  <way id="242969158" version="4" timestamp="2019-02-04T10:43:43Z" changeset="66899076" uid="5173844" user="ndrw6">
    <nd ref="2504076232"/>
    <nd ref="2504076113"/>
    <nd ref="2504075400"/>
    <nd ref="2504075612"/>
    <nd ref="2504075614"/>
    <nd ref="2504075598"/>
    <nd ref="2504076232"/>
    <tag k="addr:city" v="Cambridge"/>
    <tag k="addr:housenumber" v="10"/>
    <tag k="addr:postcode" v="CB23 7PR"/>
    <tag k="addr:street" v="St Peter's Road"/>
    <tag k="addr:village" v="Coton"/>
    <tag k="building" v="house"/>
    <tag k="building:levels" v="2"/>
  </way>
  <way id="242969160" version="4" timestamp="2019-02-04T10:43:43Z" changeset="66899076" uid="5173844" user="ndrw6">
    <nd ref="2504075637"/>
    <nd ref="2504075892"/>
    <nd ref="2504075681"/>
    <nd ref="2504076274"/>
    <nd ref="2504075637"/>
    <tag k="addr:city" v="Cambridge"/>
    <tag k="addr:housenumber" v="4"/>
    <tag k="addr:postcode" v="CB23 7PT"/>
    <tag k="addr:street" v="Brookfield Road"/>
    <tag k="addr:village" v="Coton"/>
    <tag k="building" v="house"/>
    <tag k="building:levels" v="1"/>
  </way>
  <way id="242969162" version="4" timestamp="2019-02-04T10:43:43Z" changeset="66899076" uid="5173844" user="ndrw6">
    <nd ref="2504075915"/>
    <nd ref="2504075843"/>
    <nd ref="5421252098"/>
    <nd ref="5421252097"/>
    <nd ref="2504075915"/>
    <tag k="addr:city" v="Cambridge"/>
    <tag k="addr:housenumber" v="49"/>
    <tag k="addr:postcode" v="CB23 7PP"/>
    <tag k="addr:street" v="Silverdale Avenue"/>
    <tag k="addr:village" v="Coton"/>
    <tag k="building" v="house"/>
    <tag k="building:levels" v="2"/>
  </way>
  <way id="242969166" version="5" timestamp="2020-10-10T23:41:08Z" changeset="92289177" uid="5173844" user="ndrw6">
    <nd ref="2504076324"/>
    <nd ref="2504075325"/>
    <nd ref="2504075749"/>
    <nd ref="5421252486"/>
    <nd ref="2504076324"/>
    <tag k="addr:city" v="Cambridge"/>
    <tag k="addr:housenumber" v="3"/>
    <tag k="addr:postcode" v="CB23 7PR"/>
    <tag k="addr:street" v="St Peter's Road"/>
    <tag k="addr:village" v="Coton"/>
    <tag k="building" v="house"/>
    <tag k="building:levels" v="2"/>
  </way>
  <way id="242969168" version="7" timestamp="2020-05-09T19:13:18Z" changeset="84948748" uid="5173844" user="ndrw6">
    <nd ref="7450582917"/>
    <nd ref="2504075655"/>
    <nd ref="2504075431"/>
    <nd ref="7450582916"/>
    <nd ref="7450582917"/>
    <tag k="addr:city" v="Cambridge"/>
    <tag k="addr:housenumber" v="95"/>
    <tag k="addr:postcode" v="CB23 7PW"/>
    <tag k="addr:street" v="Whitwell Way"/>
    <tag k="addr:village" v="Coton"/>
    <tag k="building" v="house"/>
  </way>
  <way id="242969171" version="6" timestamp="2020-05-09T19:44:35Z" changeset="84949436" uid="5173844" user="ndrw6">
    <nd ref="2504076005"/>
    <nd ref="5280778576"/>
    <nd ref="5280778577"/>
    <nd ref="2504076341"/>
    <nd ref="2504076093"/>
    <nd ref="2504076335"/>
    <nd ref="2504076005"/>
    <tag k="addr:city" v="Cambridge"/>
    <tag k="addr:housenumber" v="14"/>
    <tag k="addr:postcode" v="CB23 7PS"/>
    <tag k="addr:street" v="Benny's Way"/>
    <tag k="addr:village" v="Coton"/>
    <tag k="building" v="house"/>
  </way>
  <way id="242969172" version="6" timestamp="2020-10-10T23:41:08Z" changeset="92289177" uid="5173844" user="ndrw6">
    <nd ref="2504075759"/>
    <nd ref="2504075315"/>
    <nd ref="2504075605"/>
    <nd ref="2504076407"/>
    <nd ref="7996105908"/>
    <nd ref="2504075759"/>
    <tag k="addr:city" v="Cambridge"/>
    <tag k="addr:housenumber" v="5"/>
    <tag k="addr:postcode" v="CB23 7PW"/>
    <tag k="addr:street" v="Whitwell Way"/>
    <tag k="addr:village" v="Coton"/>
    <tag k="building" v="house"/>
  </way>
  <way id="242969173" version="5" timestamp="2024-06-15T21:07:53Z" changeset="152738592" uid="5173844" user="ndrw6">
    <nd ref="5421250912"/>
    <nd ref="5421250911"/>
    <nd ref="2504076233"/>
    <nd ref="2504076411"/>
    <nd ref="5421250912"/>
    <tag k="addr:city" v="Cambridge"/>
    <tag k="addr:housenumber" v="55"/>
    <tag k="addr:postcode" v="CB23 7PW"/>
    <tag k="addr:street" v="Whitwell Way"/>
    <tag k="addr:village" v="Coton"/>
    <tag k="building" v="house"/>
    <tag k="building:levels" v="2"/>
    <tag k="building:material" v="brick"/>
    <tag k="roof:levels" v="1"/>
    <tag k="roof:shape" v="gabled"/>
  </way>
  <way id="242969174" version="7" timestamp="2020-10-10T23:41:08Z" changeset="92289177" uid="5173844" user="ndrw6">
    <nd ref="5421250916"/>
    <nd ref="5421250915"/>
    <nd ref="2504075685"/>
    <nd ref="7450582967"/>
    <nd ref="7450582966"/>
    <nd ref="5421250916"/>
    <tag k="addr:city" v="Cambridge"/>
    <tag k="addr:housenumber" v="51"/>
    <tag k="addr:postcode" v="CB23 7PW"/>
    <tag k="addr:street" v="Whitwell Way"/>
    <tag k="addr:village" v="Coton"/>
    <tag k="building" v="house"/>
    <tag k="building:levels" v="2"/>
  </way>
  <way id="242969175" version="4" timestamp="2020-05-09T19:44:35Z" changeset="84949436" uid="5173844" user="ndrw6">
    <nd ref="2504075802"/>
    <nd ref="2504075384"/>
    <nd ref="2504076360"/>
    <nd ref="2504076507"/>
    <nd ref="2504075802"/>
    <tag k="addr:city" v="Cambridge"/>
    <tag k="addr:housenumber" v="2"/>
    <tag k="addr:postcode" v="CB23 7PS"/>
    <tag k="addr:street" v="Benny's Way"/>
    <tag k="addr:village" v="Coton"/>
    <tag k="building" v="house"/>
  </way>
  <way id="242969176" version="4" timestamp="2019-02-04T10:43:44Z" changeset="66899076" uid="5173844" user="ndrw6">
    <nd ref="2504075942"/>
    <nd ref="2504075719"/>
    <nd ref="2504075895"/>
    <nd ref="2504075986"/>
    <nd ref="2504075589"/>
    <nd ref="2504075899"/>
    <nd ref="2504075942"/>
    <tag k="addr:city" v="Cambridge"/>
    <tag k="addr:housenumber" v="13"/>
    <tag k="addr:postcode" v="CB23 7PR"/>
    <tag k="addr:street" v="St Peter's Road"/>
    <tag k="addr:village" v="Coton"/>
    <tag k="building" v="house"/>
    <tag k="building:levels" v="2"/>
  </way>
  <way id="242969177" version="4" timestamp="2019-02-04T10:43:44Z" changeset="66899076" uid="5173844" user="ndrw6">
    <nd ref="2504075331"/>
    <nd ref="2504075466"/>
    <nd ref="5421252481"/>
    <nd ref="5421252480"/>
    <nd ref="2504075331"/>
    <tag k="addr:city" v="Cambridge"/>
    <tag k="addr:housenumber" v="7"/>
    <tag k="addr:postcode" v="CB23 7PR"/>
    <tag k="addr:street" v="St Peter's Road"/>
    <tag k="addr:village" v="Coton"/>
    <tag k="building" v="house"/>
    <tag k="building:levels" v="2"/>
  </way>
  <way id="242969179" version="5" timestamp="2020-04-26T23:55:13Z" changeset="84161958" uid="5173844" user="ndrw6">
    <nd ref="7450583325"/>
    <nd ref="2504076224"/>
    <nd ref="2504076068"/>
    <nd ref="7450583324"/>
    <nd ref="7450583325"/>
    <tag k="addr:city" v="Cambridge"/>
    <tag k="addr:housenumber" v="1"/>
    <tag k="addr:postcode" v="CB23 7PP"/>
    <tag k="addr:street" v="Silverdale Avenue"/>
    <tag k="addr:village" v="Coton"/>
    <tag k="building" v="house"/>
  </way>
  <way id="242969180" version="4" timestamp="2019-02-04T10:43:44Z" changeset="66899076" uid="5173844" user="ndrw6">
    <nd ref="2504075454"/>
    <nd ref="2504075930"/>
    <nd ref="2504076216"/>
    <nd ref="5421251828"/>
    <nd ref="2504076048"/>
    <nd ref="2504075454"/>
    <tag k="addr:city" v="Cambridge"/>
    <tag k="addr:housenumber" v="41"/>
    <tag k="addr:postcode" v="CB23 7PW"/>
    <tag k="addr:street" v="Whitwell Way"/>
    <tag k="addr:village" v="Coton"/>
    <tag k="building" v="house"/>
    <tag k="building:levels" v="2"/>
  </way>
  <way id="242969181" version="4" timestamp="2019-02-04T10:43:45Z" changeset="66899076" uid="5173844" user="ndrw6">
    <nd ref="2504075620"/>
    <nd ref="2504075906"/>
    <nd ref="2504076120"/>
    <nd ref="2504076028"/>
    <nd ref="2504076137"/>
    <nd ref="2504075909"/>
    <nd ref="2504075620"/>
    <tag k="addr:city" v="Cambridge"/>
    <tag k="addr:housenumber" v="2"/>
    <tag k="addr:postcode" v="CB23 7PT"/>
    <tag k="addr:street" v="Brookfield Road"/>
    <tag k="addr:village" v="Coton"/>
    <tag k="building" v="house"/>
    <tag k="building:levels" v="2"/>
  </way>
  <way id="242969182" version="7" timestamp="2020-10-10T23:41:08Z" changeset="92289177" uid="5173844" user="ndrw6">
    <nd ref="2504075889"/>
    <nd ref="2504075800"/>
    <nd ref="2504075796"/>
    <nd ref="7450582985"/>
    <nd ref="7450582984"/>
    <nd ref="2504075340"/>
    <nd ref="2504075889"/>
    <tag k="addr:city" v="Cambridge"/>
    <tag k="addr:housenumber" v="3"/>
    <tag k="addr:postcode" v="CB23 7PS"/>
    <tag k="addr:street" v="Benny's Way"/>
    <tag k="addr:village" v="Coton"/>
    <tag k="building" v="house"/>
  </way>
  <way id="242969184" version="4" timestamp="2019-02-04T10:43:45Z" changeset="66899076" uid="5173844" user="ndrw6">
    <nd ref="2504075357"/>
    <nd ref="2504075922"/>
    <nd ref="5421251862"/>
    <nd ref="5421251861"/>
    <nd ref="2504075357"/>
    <tag k="addr:city" v="Cambridge"/>
    <tag k="addr:housenumber" v="50"/>
    <tag k="addr:postcode" v="CB23 7PP"/>
    <tag k="addr:street" v="Silverdale Avenue"/>
    <tag k="addr:village" v="Coton"/>
    <tag k="building" v="house"/>
    <tag k="building:levels" v="2"/>
  </way>
  <way id="242969190" version="4" timestamp="2019-02-04T10:43:45Z" changeset="66899076" uid="5173844" user="ndrw6">
    <nd ref="2504075917"/>
    <nd ref="2504075738"/>
    <nd ref="2504076196"/>
    <nd ref="2504075885"/>
    <nd ref="2504075917"/>
    <tag k="addr:city" v="Cambridge"/>
    <tag k="addr:housenumber" v="16"/>
    <tag k="addr:postcode" v="CB23 7PR"/>
    <tag k="addr:street" v="St Peter's Road"/>
    <tag k="addr:village" v="Coton"/>
    <tag k="building" v="house"/>
    <tag k="building:levels" v="2"/>
  </way>
  <way id="242969191" version="4" timestamp="2019-02-04T10:43:45Z" changeset="66899076" uid="5173844" user="ndrw6">
    <nd ref="2504075691"/>
    <nd ref="2504075726"/>
    <nd ref="2504075645"/>
    <nd ref="2504075607"/>
    <nd ref="2504075523"/>
    <nd ref="2504076319"/>
    <nd ref="2504075691"/>
    <tag k="addr:city" v="Cambridge"/>
    <tag k="addr:housenumber" v="17"/>
    <tag k="addr:postcode" v="CB23 7PR"/>
    <tag k="addr:street" v="St Peter's Road"/>
    <tag k="addr:village" v="Coton"/>
    <tag k="building" v="house"/>
    <tag k="building:levels" v="1"/>
  </way>
  <way id="242969192" version="5" timestamp="2019-02-04T10:43:45Z" changeset="66899076" uid="5173844" user="ndrw6">
    <nd ref="2504075851"/>
    <nd ref="2504076256"/>
    <nd ref="2504075463"/>
    <nd ref="2504075642"/>
    <nd ref="2504075851"/>
    <tag k="addr:city" v="Cambridge"/>
    <tag k="addr:housenumber" v="9"/>
    <tag k="addr:postcode" v="CB23 7PW"/>
    <tag k="addr:street" v="Whitwell Way"/>
    <tag k="addr:village" v="Coton"/>
    <tag k="building" v="house"/>
  </way>
  <way id="242969194" version="4" timestamp="2019-02-04T10:43:45Z" changeset="66899076" uid="5173844" user="ndrw6">
    <nd ref="2504076306"/>
    <nd ref="2504075337"/>
    <nd ref="2504075461"/>
    <nd ref="2504076146"/>
    <nd ref="2504076306"/>
    <tag k="addr:city" v="Cambridge"/>
    <tag k="addr:housenumber" v="4"/>
    <tag k="addr:postcode" v="CB23 7PR"/>
    <tag k="addr:street" v="St Peter's Road"/>
    <tag k="addr:village" v="Coton"/>
    <tag k="building" v="house"/>
    <tag k="building:levels" v="1"/>
  </way>
  <way id="242969195" version="6" timestamp="2024-03-16T12:56:27Z" changeset="148730540" uid="742701" user="kerr smith">
    <nd ref="2504076428"/>
    <nd ref="2504076235"/>
    <nd ref="2504075758"/>
    <nd ref="2504076172"/>
    <nd ref="2504076428"/>
    <tag k="addr:city" v="Cambridge"/>
    <tag k="addr:housename" v="Breckfoot"/>
    <tag k="addr:housenumber" v="3"/>
    <tag k="addr:postcode" v="CB23 7PW"/>
    <tag k="addr:street" v="Whitwell Way"/>
    <tag k="addr:village" v="Coton"/>
    <tag k="building" v="house"/>
  </way>
  <way id="242969196" version="6" timestamp="2020-10-10T23:41:08Z" changeset="92289177" uid="5173844" user="ndrw6">
    <nd ref="7501818077"/>
    <nd ref="7450583326"/>
    <nd ref="2504075711"/>
    <nd ref="7501823686"/>
    <nd ref="7501818077"/>
    <tag k="addr:city" v="Cambridge"/>
    <tag k="addr:housenumber" v="7a"/>
    <tag k="addr:postcode" v="CB23 7GZ"/>
    <tag k="addr:street" v="Silverdale Avenue"/>
    <tag k="addr:village" v="Coton"/>
    <tag k="building" v="house"/>
  </way>
  <way id="242969197" version="5" timestamp="2020-05-09T19:13:18Z" changeset="84948748" uid="5173844" user="ndrw6">
    <nd ref="2504075903"/>
    <nd ref="2504076518"/>
    <nd ref="2504075794"/>
    <nd ref="2504075367"/>
    <nd ref="2504075903"/>
    <tag k="addr:city" v="Cambridge"/>
    <tag k="addr:housenumber" v="85"/>
    <tag k="addr:postcode" v="CB23 7PW"/>
    <tag k="addr:street" v="Whitwell Way"/>
    <tag k="addr:village" v="Coton"/>
    <tag k="building" v="house"/>
  </way>
  <way id="242969199" version="5" timestamp="2019-02-04T10:43:46Z" changeset="66899076" uid="5173844" user="ndrw6">
    <nd ref="2504075805"/>
    <nd ref="2504076544"/>
    <nd ref="5280778572"/>
    <nd ref="5280778573"/>
    <nd ref="5280778574"/>
    <nd ref="5280778575"/>
    <nd ref="2504076549"/>
    <nd ref="2504076032"/>
    <nd ref="2504075805"/>
    <tag k="addr:city" v="Cambridge"/>
    <tag k="addr:housenumber" v="2"/>
    <tag k="addr:postcode" v="CB23 7PR"/>
    <tag k="addr:street" v="St Peter's Road"/>
    <tag k="addr:village" v="Coton"/>
    <tag k="building" v="house"/>
    <tag k="building:levels" v="1"/>
  </way>
  <way id="242969200" version="4" timestamp="2019-02-04T10:43:46Z" changeset="66899076" uid="5173844" user="ndrw6">
    <nd ref="2504076289"/>
    <nd ref="2504076107"/>
    <nd ref="2504076105"/>
    <nd ref="2504075636"/>
    <nd ref="2504076289"/>
    <tag k="addr:city" v="Cambridge"/>
    <tag k="addr:housenumber" v="3"/>
    <tag k="addr:postcode" v="CB23 7PT"/>
    <tag k="addr:street" v="Brookfield Road"/>
    <tag k="addr:village" v="Coton"/>
    <tag k="building" v="house"/>
    <tag k="building:levels" v="1"/>
  </way>
  <way id="242969201" version="6" timestamp="2020-05-09T19:13:18Z" changeset="84948748" uid="5173844" user="ndrw6">
    <nd ref="7450583500"/>
    <nd ref="2504075998"/>
    <nd ref="2504075893"/>
    <nd ref="7450583501"/>
    <nd ref="7450583500"/>
    <tag k="addr:city" v="Cambridge"/>
    <tag k="addr:housenumber" v="73"/>
    <tag k="addr:postcode" v="CB23 7PW"/>
    <tag k="addr:street" v="Whitwell Way"/>
    <tag k="addr:village" v="Coton"/>
    <tag k="building" v="house"/>
  </way>
  <way id="242969202" version="5" timestamp="2020-05-09T19:13:18Z" changeset="84948748" uid="5173844" user="ndrw6">
    <nd ref="2504075733"/>
    <nd ref="2504075352"/>
    <nd ref="2504075468"/>
    <nd ref="2504075465"/>
    <nd ref="2504075733"/>
    <tag k="addr:city" v="Cambridge"/>
    <tag k="addr:housenumber" v="83"/>
    <tag k="addr:postcode" v="CB23 7PW"/>
    <tag k="addr:street" v="Whitwell Way"/>
    <tag k="addr:village" v="Coton"/>
    <tag k="building" v="house"/>
  </way>
  <way id="242969206" version="6" timestamp="2020-05-09T19:13:18Z" changeset="84948748" uid="5173844" user="ndrw6">
    <nd ref="7450583502"/>
    <nd ref="2504075427"/>
    <nd ref="2504075969"/>
    <nd ref="7450583503"/>
    <nd ref="7450583502"/>
    <tag k="addr:city" v="Cambridge"/>
    <tag k="addr:housenumber" v="69"/>
    <tag k="addr:postcode" v="CB23 7PW"/>
    <tag k="addr:street" v="Whitwell Way"/>
    <tag k="addr:village" v="Coton"/>
    <tag k="building" v="house"/>
  </way>
  <way id="242969207" version="5" timestamp="2020-10-10T23:41:08Z" changeset="92289177" uid="5173844" user="ndrw6">
    <nd ref="2504076015"/>
    <nd ref="7996105876"/>
    <nd ref="7996105875"/>
    <nd ref="2504075695"/>
    <nd ref="2504075836"/>
    <nd ref="7996105873"/>
    <nd ref="7996105874"/>
    <nd ref="2504075871"/>
    <nd ref="2504076015"/>
    <tag k="addr:city" v="Cambridge"/>
    <tag k="addr:housenumber" v="6"/>
    <tag k="addr:postcode" v="CB23 7PT"/>
    <tag k="addr:street" v="Brookfield Road"/>
    <tag k="addr:village" v="Coton"/>
    <tag k="building" v="house"/>
    <tag k="building:levels" v="2"/>
  </way>
  <way id="242969208" version="6" timestamp="2024-03-16T12:56:27Z" changeset="148730540" uid="742701" user="kerr smith">
    <nd ref="2504075520"/>
    <nd ref="2504075460"/>
    <nd ref="2504076018"/>
    <nd ref="2504075801"/>
    <nd ref="2504075520"/>
    <tag k="addr:city" v="Cambridge"/>
    <tag k="addr:housename" v="College Farm"/>
    <tag k="addr:housenumber" v="7"/>
    <tag k="addr:postcode" v="CB23 7PW"/>
    <tag k="addr:street" v="Whitwell Way"/>
    <tag k="addr:village" v="Coton"/>
    <tag k="building" v="house"/>
  </way>
  <way id="242969212" version="4" timestamp="2019-02-04T10:43:46Z" changeset="66899076" uid="5173844" user="ndrw6">
    <nd ref="2504075650"/>
    <nd ref="2504075623"/>
    <nd ref="2504076330"/>
    <nd ref="2504076352"/>
    <nd ref="2504075650"/>
    <tag k="addr:city" v="Cambridge"/>
    <tag k="addr:housenumber" v="18"/>
    <tag k="addr:postcode" v="CB23 7PT"/>
    <tag k="addr:street" v="Brookfield Road"/>
    <tag k="addr:village" v="Coton"/>
    <tag k="building" v="house"/>
    <tag k="building:levels" v="1"/>
  </way>
  <way id="242969213" version="5" timestamp="2020-10-10T23:41:08Z" changeset="92289177" uid="5173844" user="ndrw6">
    <nd ref="2504075441"/>
    <nd ref="5421251831"/>
    <nd ref="5421251834"/>
    <nd ref="7996090666"/>
    <nd ref="7996090665"/>
    <nd ref="2504075705"/>
    <nd ref="2504075441"/>
    <tag k="addr:city" v="Cambridge"/>
    <tag k="addr:housenumber" v="35"/>
    <tag k="addr:postcode" v="CB23 7PW"/>
    <tag k="addr:street" v="Whitwell Way"/>
    <tag k="addr:village" v="Coton"/>
    <tag k="building" v="house"/>
    <tag k="building:levels" v="2"/>
  </way>
  <way id="242969214" version="4" timestamp="2019-02-04T10:43:47Z" changeset="66899076" uid="5173844" user="ndrw6">
    <nd ref="2504075576"/>
    <nd ref="2504075838"/>
    <nd ref="2504076194"/>
    <nd ref="2504075585"/>
    <nd ref="2504075432"/>
    <nd ref="2504076476"/>
    <nd ref="2504075576"/>
    <tag k="addr:city" v="Cambridge"/>
    <tag k="addr:housenumber" v="9"/>
    <tag k="addr:postcode" v="CB23 7PR"/>
    <tag k="addr:street" v="St Peter's Road"/>
    <tag k="addr:village" v="Coton"/>
    <tag k="building" v="house"/>
    <tag k="building:levels" v="2"/>
  </way>
  <way id="242969219" version="4" timestamp="2020-05-09T19:44:35Z" changeset="84949436" uid="5173844" user="ndrw6">
    <nd ref="7501818080"/>
    <nd ref="7501818082"/>
    <nd ref="7450582978"/>
    <nd ref="7450582979"/>
    <nd ref="7501818081"/>
    <nd ref="7501818080"/>
    <tag k="addr:city" v="Cambridge"/>
    <tag k="addr:housenumber" v="8a"/>
    <tag k="addr:postcode" v="CB23 7PP"/>
    <tag k="addr:street" v="Silverdale Avenue"/>
    <tag k="addr:village" v="Coton"/>
    <tag k="building" v="house"/>
  </way>
  <way id="242969221" version="6" timestamp="2020-10-10T23:41:08Z" changeset="92289177" uid="5173844" user="ndrw6">
    <nd ref="2504075444"/>
    <nd ref="2504076167"/>
    <nd ref="2504076239"/>
    <nd ref="2504075625"/>
    <nd ref="7996105904"/>
    <nd ref="7996105903"/>
    <nd ref="2504075444"/>
    <tag k="addr:city" v="Cambridge"/>
    <tag k="addr:housenumber" v="9"/>
    <tag k="addr:postcode" v="CB23 7PS"/>
    <tag k="addr:street" v="Benny's Way"/>
    <tag k="addr:village" v="Coton"/>
    <tag k="building" v="house"/>
  </way>
  <way id="242969222" version="6" timestamp="2019-02-04T10:43:47Z" changeset="66899076" uid="5173844" user="ndrw6">
    <nd ref="2504075502"/>
    <nd ref="5829431312"/>
    <nd ref="5829431311"/>
    <nd ref="2504075715"/>
    <nd ref="2504075502"/>
    <tag k="addr:city" v="Cambridge"/>
    <tag k="addr:housenumber" v="4"/>
    <tag k="addr:postcode" v="CB23 7PS"/>
    <tag k="addr:street" v="Benny's Way"/>
    <tag k="addr:village" v="Coton"/>
    <tag k="building" v="house"/>
  </way>
  <way id="242969225" version="4" timestamp="2019-02-04T10:43:47Z" changeset="66899076" uid="5173844" user="ndrw6">
    <nd ref="2504075354"/>
    <nd ref="2504076168"/>
    <nd ref="2504075813"/>
    <nd ref="2504076548"/>
    <nd ref="2504075354"/>
    <tag k="addr:city" v="Cambridge"/>
    <tag k="addr:housenumber" v="18"/>
    <tag k="addr:postcode" v="CB23 7PR"/>
    <tag k="addr:street" v="St Peter's Road"/>
    <tag k="addr:village" v="Coton"/>
    <tag k="building" v="house"/>
    <tag k="building:levels" v="2"/>
  </way>
  <way id="242969226" version="6" timestamp="2020-04-26T23:55:13Z" changeset="84161958" uid="5173844" user="ndrw6">
    <nd ref="7450583510"/>
    <nd ref="2504075395"/>
    <nd ref="2504075653"/>
    <nd ref="7450583511"/>
    <nd ref="7450583510"/>
    <tag k="addr:city" v="Cambridge"/>
    <tag k="addr:housenumber" v="7"/>
    <tag k="addr:postcode" v="CB23 7PS"/>
    <tag k="addr:street" v="Benny's Way"/>
    <tag k="addr:village" v="Coton"/>
    <tag k="building" v="house"/>
  </way>
  <way id="242969227" version="6" timestamp="2020-04-26T23:55:13Z" changeset="84161958" uid="5173844" user="ndrw6">
    <nd ref="7450583498"/>
    <nd ref="2504075766"/>
    <nd ref="2504076382"/>
    <nd ref="7450583499"/>
    <nd ref="7450583498"/>
    <tag k="addr:city" v="Cambridge"/>
    <tag k="addr:housenumber" v="77"/>
    <tag k="addr:postcode" v="CB23 7PW"/>
    <tag k="addr:street" v="Whitwell Way"/>
    <tag k="addr:village" v="Coton"/>
    <tag k="building" v="house"/>
  </way>
  <way id="242969228" version="5" timestamp="2020-05-09T14:11:21Z" changeset="84939385" uid="5173844" user="ndrw6">
    <nd ref="2504075420"/>
    <nd ref="2504076064"/>
    <nd ref="2504075990"/>
    <nd ref="2504075824"/>
    <nd ref="2504075658"/>
    <nd ref="2504075613"/>
    <nd ref="2504075420"/>
    <tag k="addr:city" v="Cambridge"/>
    <tag k="addr:housenumber" v="97"/>
    <tag k="addr:postcode" v="CB23 7PW"/>
    <tag k="addr:street" v="Whitwell Way"/>
    <tag k="addr:village" v="Coton"/>
    <tag k="building" v="house"/>
  </way>
  <way id="242969229" version="4" timestamp="2019-02-04T10:43:48Z" changeset="66899076" uid="5173844" user="ndrw6">
    <nd ref="2504076462"/>
    <nd ref="2504075399"/>
    <nd ref="2504075812"/>
    <nd ref="2504075975"/>
    <nd ref="2504076462"/>
    <tag k="addr:city" v="Cambridge"/>
    <tag k="addr:housenumber" v="15"/>
    <tag k="addr:postcode" v="CB23 7PS"/>
    <tag k="addr:street" v="Benny's Way"/>
    <tag k="addr:village" v="Coton"/>
    <tag k="building" v="house"/>
    <tag k="building:levels" v="1"/>
  </way>
  <way id="242969231" version="5" timestamp="2020-05-09T19:13:18Z" changeset="84948748" uid="5173844" user="ndrw6">
    <nd ref="2504076109"/>
    <nd ref="2504075339"/>
    <nd ref="2504076512"/>
    <nd ref="2504075669"/>
    <nd ref="2504075740"/>
    <nd ref="2504076372"/>
    <nd ref="2504076109"/>
    <tag k="addr:city" v="Cambridge"/>
    <tag k="addr:housenumber" v="79"/>
    <tag k="addr:postcode" v="CB23 7PW"/>
    <tag k="addr:street" v="Whitwell Way"/>
    <tag k="addr:village" v="Coton"/>
    <tag k="building" v="house"/>
  </way>
  <way id="242969232" version="4" timestamp="2019-02-04T10:43:48Z" changeset="66899076" uid="5173844" user="ndrw6">
    <nd ref="2504076020"/>
    <nd ref="2504075846"/>
    <nd ref="2504076493"/>
    <nd ref="2504076541"/>
    <nd ref="2504076020"/>
    <tag k="addr:city" v="Cambridge"/>
    <tag k="addr:housenumber" v="9"/>
    <tag k="addr:postcode" v="CB23 7PT"/>
    <tag k="addr:street" v="Brookfield Road"/>
    <tag k="addr:village" v="Coton"/>
    <tag k="building" v="house"/>
    <tag k="building:levels" v="1"/>
  </way>
  <way id="242969233" version="6" timestamp="2020-05-09T19:13:18Z" changeset="84948748" uid="5173844" user="ndrw6">
    <nd ref="7450583504"/>
    <nd ref="7450582965"/>
    <nd ref="7450582964"/>
    <nd ref="7450583505"/>
    <nd ref="7450583504"/>
    <tag k="addr:city" v="Cambridge"/>
    <tag k="addr:housenumber" v="65"/>
    <tag k="addr:postcode" v="CB23 7PW"/>
    <tag k="addr:street" v="Whitwell Way"/>
    <tag k="addr:village" v="Coton"/>
    <tag k="building" v="house"/>
  </way>
  <way id="242969237" version="4" timestamp="2019-02-04T10:43:48Z" changeset="66899076" uid="5173844" user="ndrw6">
    <nd ref="5421250920"/>
    <nd ref="5421250919"/>
    <nd ref="2504076343"/>
    <nd ref="2504076303"/>
    <nd ref="5421250920"/>
    <tag k="addr:city" v="Cambridge"/>
    <tag k="addr:housenumber" v="47"/>
    <tag k="addr:postcode" v="CB23 7PW"/>
    <tag k="addr:street" v="Whitwell Way"/>
    <tag k="addr:village" v="Coton"/>
    <tag k="building" v="house"/>
    <tag k="building:levels" v="2"/>
  </way>
  <way id="242969238" version="6" timestamp="2020-10-10T23:41:08Z" changeset="92289177" uid="5173844" user="ndrw6">
    <nd ref="2504075545"/>
    <nd ref="2504076470"/>
    <nd ref="2504076086"/>
    <nd ref="2504076354"/>
    <nd ref="2504075840"/>
    <nd ref="2504075730"/>
    <nd ref="2504075545"/>
    <tag k="addr:city" v="Cambridge"/>
    <tag k="addr:housenumber" v="91b"/>
    <tag k="addr:postcode" v="CB23 7PW"/>
    <tag k="addr:street" v="Whitwell Way"/>
    <tag k="addr:village" v="Coton"/>
    <tag k="building" v="yes"/>
  </way>
  <way id="242969241" version="4" timestamp="2019-02-04T10:43:48Z" changeset="66899076" uid="5173844" user="ndrw6">
    <nd ref="2504075941"/>
    <nd ref="2504076264"/>
    <nd ref="2504075448"/>
    <nd ref="2504075720"/>
    <nd ref="2504075941"/>
    <tag k="addr:city" v="Cambridge"/>
    <tag k="addr:housenumber" v="13"/>
    <tag k="addr:postcode" v="CB23 7PU"/>
    <tag k="addr:street" v="St John's Road"/>
    <tag k="addr:village" v="Coton"/>
    <tag k="building" v="house"/>
    <tag k="building:levels" v="2"/>
  </way>
  <way id="242969243" version="4" timestamp="2019-02-04T10:43:49Z" changeset="66899076" uid="5173844" user="ndrw6">
    <nd ref="2504075404"/>
    <nd ref="2504075875"/>
    <nd ref="2504075776"/>
    <nd ref="2504075779"/>
    <nd ref="2504075404"/>
    <tag k="addr:city" v="Cambridge"/>
    <tag k="addr:housenumber" v="25"/>
    <tag k="addr:postcode" v="CB23 7PW"/>
    <tag k="addr:street" v="Whitwell Way"/>
    <tag k="addr:village" v="Coton"/>
    <tag k="building" v="house"/>
    <tag k="building:levels" v="1"/>
  </way>
  <way id="242969245" version="4" timestamp="2019-02-04T10:43:49Z" changeset="66899076" uid="5173844" user="ndrw6">
    <nd ref="2504075882"/>
    <nd ref="2504075561"/>
    <nd ref="2504076210"/>
    <nd ref="2504075586"/>
    <nd ref="2504076448"/>
    <nd ref="2504076346"/>
    <nd ref="2504075882"/>
    <tag k="addr:city" v="Cambridge"/>
    <tag k="addr:housenumber" v="12"/>
    <tag k="addr:postcode" v="CB23 7PR"/>
    <tag k="addr:street" v="St Peter's Road"/>
    <tag k="addr:village" v="Coton"/>
    <tag k="building" v="house"/>
    <tag k="building:levels" v="2"/>
  </way>
  <way id="242969247" version="6" timestamp="2019-02-04T10:43:49Z" changeset="66899076" uid="5173844" user="ndrw6">
    <nd ref="2504075978"/>
    <nd ref="5829431310"/>
    <nd ref="5829431309"/>
    <nd ref="2504075999"/>
    <nd ref="2504075978"/>
    <tag k="addr:city" v="Cambridge"/>
    <tag k="addr:housenumber" v="11"/>
    <tag k="addr:postcode" v="CB23 7PS"/>
    <tag k="addr:street" v="Benny's Way"/>
    <tag k="addr:village" v="Coton"/>
    <tag k="building" v="house"/>
  </way>
  <way id="242969248" version="5" timestamp="2020-04-26T23:55:13Z" changeset="84161958" uid="5173844" user="ndrw6">
    <nd ref="7450583370"/>
    <nd ref="5421251850"/>
    <nd ref="5421251852"/>
    <nd ref="5421251849"/>
    <nd ref="7450583371"/>
    <nd ref="7450583370"/>
    <tag k="addr:city" v="Cambridge"/>
    <tag k="addr:housenumber" v="69"/>
    <tag k="addr:postcode" v="CB23 7PP"/>
    <tag k="addr:street" v="Silverdale Avenue"/>
    <tag k="addr:village" v="Coton"/>
    <tag k="building" v="house"/>
  </way>
  <way id="242969250" version="4" timestamp="2019-02-04T10:43:49Z" changeset="66899076" uid="5173844" user="ndrw6">
    <nd ref="2504075788"/>
    <nd ref="2504075955"/>
    <nd ref="2504075518"/>
    <nd ref="2504076370"/>
    <nd ref="2504075788"/>
    <tag k="addr:city" v="Cambridge"/>
    <tag k="addr:housenumber" v="12"/>
    <tag k="addr:postcode" v="CB23 7PU"/>
    <tag k="addr:street" v="St John's Road"/>
    <tag k="addr:village" v="Coton"/>
    <tag k="building" v="house"/>
    <tag k="building:levels" v="2"/>
  </way>
  <way id="242969251" version="6" timestamp="2020-04-26T23:55:13Z" changeset="84161958" uid="5173844" user="ndrw6">
    <nd ref="2504076033"/>
    <nd ref="7450583126"/>
    <nd ref="7450583125"/>
    <nd ref="5280778564"/>
    <nd ref="5280778565"/>
    <nd ref="2504075443"/>
    <nd ref="2504076033"/>
    <tag k="addr:city" v="Cambridge"/>
    <tag k="addr:housenumber" v="16"/>
    <tag k="addr:postcode" v="CB23 7PT"/>
    <tag k="addr:street" v="Brookfield Road"/>
    <tag k="addr:village" v="Coton"/>
    <tag k="building" v="house"/>
    <tag k="building:levels" v="1"/>
  </way>
  <way id="242969252" version="6" timestamp="2020-05-09T19:13:18Z" changeset="84948748" uid="5173844" user="ndrw6">
    <nd ref="7450583506"/>
    <nd ref="2504076465"/>
    <nd ref="2504076041"/>
    <nd ref="7450583507"/>
    <nd ref="7450583506"/>
    <tag k="addr:city" v="Cambridge"/>
    <tag k="addr:housenumber" v="61"/>
    <tag k="addr:postcode" v="CB23 7PW"/>
    <tag k="addr:street" v="Whitwell Way"/>
    <tag k="addr:village" v="Coton"/>
    <tag k="building" v="house"/>
  </way>
  <way id="242969255" version="6" timestamp="2019-02-04T10:43:50Z" changeset="66899076" uid="5173844" user="ndrw6">
    <nd ref="2504075557"/>
    <nd ref="2504075670"/>
    <nd ref="5421251882"/>
    <nd ref="5421251881"/>
    <nd ref="2504075557"/>
    <tag k="addr:city" v="Cambridge"/>
    <tag k="addr:housenumber" v="14"/>
    <tag k="addr:postcode" v="CB23 7GY"/>
    <tag k="addr:street" v="Silverdale Close"/>
    <tag k="addr:village" v="Coton"/>
    <tag k="building" v="house"/>
    <tag k="building:levels" v="2"/>
  </way>
  <way id="242969258" version="4" timestamp="2019-02-04T10:43:50Z" changeset="66899076" uid="5173844" user="ndrw6">
    <nd ref="2504075816"/>
    <nd ref="2504075477"/>
    <nd ref="2504075478"/>
    <nd ref="2504076054"/>
    <nd ref="2504075765"/>
    <nd ref="2504075646"/>
    <nd ref="2504075816"/>
    <tag k="addr:city" v="Cambridge"/>
    <tag k="addr:housenumber" v="1"/>
    <tag k="addr:postcode" v="CB23 7PT"/>
    <tag k="addr:street" v="Brookfield Road"/>
    <tag k="addr:village" v="Coton"/>
    <tag k="building" v="house"/>
    <tag k="building:levels" v="1"/>
  </way>
  <way id="242969260" version="4" timestamp="2019-02-04T10:43:50Z" changeset="66899076" uid="5173844" user="ndrw6">
    <nd ref="2504076037"/>
    <nd ref="2504075994"/>
    <nd ref="5421252398"/>
    <nd ref="5421252399"/>
    <nd ref="2504076521"/>
    <nd ref="2504076110"/>
    <nd ref="2504076037"/>
    <tag k="addr:city" v="Cambridge"/>
    <tag k="addr:housenumber" v="14"/>
    <tag k="addr:postcode" v="CB23 7PT"/>
    <tag k="addr:street" v="Brookfield Road"/>
    <tag k="addr:village" v="Coton"/>
    <tag k="building" v="house"/>
    <tag k="building:levels" v="2"/>
  </way>
  <way id="242969263" version="4" timestamp="2019-02-04T10:43:50Z" changeset="66899076" uid="5173844" user="ndrw6">
    <nd ref="2504075526"/>
    <nd ref="2504075783"/>
    <nd ref="2504075422"/>
    <nd ref="2504076509"/>
    <nd ref="2504075526"/>
    <tag k="addr:city" v="Cambridge"/>
    <tag k="addr:housenumber" v="14"/>
    <tag k="addr:postcode" v="CB23 7PR"/>
    <tag k="addr:street" v="St Peter's Road"/>
    <tag k="addr:village" v="Coton"/>
    <tag k="building" v="house"/>
    <tag k="building:levels" v="2"/>
  </way>
  <way id="242969269" version="4" timestamp="2019-02-04T10:43:50Z" changeset="66899076" uid="5173844" user="ndrw6">
    <nd ref="2504075591"/>
    <nd ref="2504076374"/>
    <nd ref="2504075992"/>
    <nd ref="2504075513"/>
    <nd ref="2504076540"/>
    <nd ref="2504075857"/>
    <nd ref="2504076554"/>
    <nd ref="2504076365"/>
    <nd ref="2504076418"/>
    <nd ref="2504075471"/>
    <nd ref="2504075591"/>
    <tag k="addr:city" v="Cambridge"/>
    <tag k="addr:housenumber" v="6"/>
    <tag k="addr:postcode" v="CB23 7PU"/>
    <tag k="addr:street" v="St John's Road"/>
    <tag k="addr:village" v="Coton"/>
    <tag k="building" v="house"/>
    <tag k="building:levels" v="2"/>
  </way>
  <way id="242969270" version="6" timestamp="2019-02-04T10:43:50Z" changeset="66899076" uid="5173844" user="ndrw6">
    <nd ref="5421251872"/>
    <nd ref="5421251871"/>
    <nd ref="2504075686"/>
    <nd ref="2504076043"/>
    <nd ref="5421251872"/>
    <tag k="addr:city" v="Cambridge"/>
    <tag k="addr:housenumber" v="52"/>
    <tag k="addr:postcode" v="CB23 7PP"/>
    <tag k="addr:street" v="Silverdale Avenue"/>
    <tag k="addr:village" v="Coton"/>
    <tag k="building" v="house"/>
    <tag k="building:levels" v="1"/>
  </way>
  <way id="242969273" version="4" timestamp="2019-02-04T10:43:50Z" changeset="66899076" uid="5173844" user="ndrw6">
    <nd ref="5421252411"/>
    <nd ref="5421252410"/>
    <nd ref="2504075378"/>
    <nd ref="2504075373"/>
    <nd ref="5421252411"/>
    <tag k="addr:city" v="Cambridge"/>
    <tag k="addr:housenumber" v="1"/>
    <tag k="addr:postcode" v="CB23 7PU"/>
    <tag k="addr:street" v="St John's Road"/>
    <tag k="addr:village" v="Coton"/>
    <tag k="building" v="house"/>
    <tag k="building:levels" v="1"/>
  </way>
  <way id="242969278" version="4" timestamp="2020-05-09T19:44:35Z" changeset="84949436" uid="5173844" user="ndrw6">
    <nd ref="2504075829"/>
    <nd ref="2504076121"/>
    <nd ref="5280818579"/>
    <nd ref="2504076180"/>
    <nd ref="2504075829"/>
    <tag k="addr:city" v="Cambridge"/>
    <tag k="addr:housenumber" v="13"/>
    <tag k="addr:postcode" v="CB23 7PP"/>
    <tag k="addr:street" v="Silverdale Avenue"/>
    <tag k="addr:village" v="Coton"/>
    <tag k="building" v="house"/>
  </way>
  <way id="242969279" version="6" timestamp="2020-05-09T19:44:35Z" changeset="84949436" uid="5173844" user="ndrw6">
    <nd ref="7450583509"/>
    <nd ref="2504075842"/>
    <nd ref="2504075964"/>
    <nd ref="7450583508"/>
    <nd ref="7450583509"/>
    <tag k="addr:city" v="Cambridge"/>
    <tag k="addr:housenumber" v="12"/>
    <tag k="addr:postcode" v="CB23 7PS"/>
    <tag k="addr:street" v="Benny's Way"/>
    <tag k="addr:village" v="Coton"/>
    <tag k="building" v="house"/>
  </way>
  <way id="242969280" version="4" timestamp="2019-02-04T10:43:51Z" changeset="66899076" uid="5173844" user="ndrw6">
    <nd ref="2504075381"/>
    <nd ref="2504076482"/>
    <nd ref="2504075426"/>
    <nd ref="2504075434"/>
    <nd ref="2504075381"/>
    <tag k="addr:city" v="Cambridge"/>
    <tag k="addr:housenumber" v="8"/>
    <tag k="addr:postcode" v="CB23 7PR"/>
    <tag k="addr:street" v="St Peter's Road"/>
    <tag k="addr:village" v="Coton"/>
    <tag k="building" v="house"/>
    <tag k="building:levels" v="2"/>
  </way>
  <way id="242969282" version="4" timestamp="2019-02-04T10:43:51Z" changeset="66899076" uid="5173844" user="ndrw6">
    <nd ref="2504076063"/>
    <nd ref="2504075497"/>
    <nd ref="2504076555"/>
    <nd ref="2504075897"/>
    <nd ref="2504076063"/>
    <tag k="addr:city" v="Cambridge"/>
    <tag k="addr:housenumber" v="8"/>
    <tag k="addr:postcode" v="CB23 7PT"/>
    <tag k="addr:street" v="Brookfield Road"/>
    <tag k="addr:village" v="Coton"/>
    <tag k="building" v="house"/>
    <tag k="building:levels" v="2"/>
  </way>
  <way id="242969284" version="6" timestamp="2020-05-09T19:13:18Z" changeset="84948748" uid="5173844" user="ndrw6">
    <nd ref="2504076003"/>
    <nd ref="2504075728"/>
    <nd ref="5280778578"/>
    <nd ref="5280778579"/>
    <nd ref="2504076298"/>
    <nd ref="2504076322"/>
    <nd ref="2504075509"/>
    <nd ref="2504075847"/>
    <nd ref="2504076003"/>
    <tag k="addr:city" v="Cambridge"/>
    <tag k="addr:housenumber" v="87"/>
    <tag k="addr:postcode" v="CB23 7PW"/>
    <tag k="addr:street" v="Whitwell Way"/>
    <tag k="addr:village" v="Coton"/>
    <tag k="building" v="house"/>
  </way>
  <way id="242969286" version="6" timestamp="2020-05-09T19:13:18Z" changeset="84948748" uid="5173844" user="ndrw6">
    <nd ref="2504075532"/>
    <nd ref="2504076174"/>
    <nd ref="2504075313"/>
    <nd ref="2504075784"/>
    <nd ref="2504075532"/>
    <tag k="addr:city" v="Cambridge"/>
    <tag k="addr:housenumber" v="81"/>
    <tag k="addr:postcode" v="CB23 7PW"/>
    <tag k="addr:street" v="Whitwell Way"/>
    <tag k="addr:village" v="Coton"/>
    <tag k="building" v="house"/>
  </way>
  <way id="242969287" version="4" timestamp="2019-02-04T10:43:51Z" changeset="66899076" uid="5173844" user="ndrw6">
    <nd ref="2504075770"/>
    <nd ref="2504076501"/>
    <nd ref="2504075344"/>
    <nd ref="2504075723"/>
    <nd ref="2504075770"/>
    <tag k="addr:city" v="Cambridge"/>
    <tag k="addr:housenumber" v="12"/>
    <tag k="addr:postcode" v="CB23 7PT"/>
    <tag k="addr:street" v="Brookfield Road"/>
    <tag k="addr:village" v="Coton"/>
    <tag k="building" v="house"/>
    <tag k="building:levels" v="2"/>
  </way>
  <way id="242969288" version="4" timestamp="2019-02-04T10:43:51Z" changeset="66899076" uid="5173844" user="ndrw6">
    <nd ref="2504075419"/>
    <nd ref="2504076049"/>
    <nd ref="2504076190"/>
    <nd ref="2504075754"/>
    <nd ref="2504075419"/>
    <tag k="addr:city" v="Cambridge"/>
    <tag k="addr:housenumber" v="31"/>
    <tag k="addr:postcode" v="CB23 7PR"/>
    <tag k="addr:street" v="St Peter's Road"/>
    <tag k="addr:village" v="Coton"/>
    <tag k="building" v="house"/>
    <tag k="building:levels" v="2"/>
  </way>
  <way id="242969289" version="6" timestamp="2019-02-04T10:43:51Z" changeset="66899076" uid="5173844" user="ndrw6">
    <nd ref="2504075865"/>
    <nd ref="5280778571"/>
    <nd ref="5280778570"/>
    <nd ref="5280778569"/>
    <nd ref="5280778568"/>
    <nd ref="2504076104"/>
    <nd ref="2504075388"/>
    <nd ref="5280778566"/>
    <nd ref="5280778567"/>
    <nd ref="2504076199"/>
    <nd ref="2504075865"/>
    <tag k="addr:city" v="Cambridge"/>
    <tag k="addr:housenumber" v="8"/>
    <tag k="addr:postcode" v="CB23 7PS"/>
    <tag k="addr:street" v="Benny's Way"/>
    <tag k="addr:village" v="Coton"/>
    <tag k="building" v="house"/>
  </way>
  <way id="254668037" version="2" timestamp="2020-05-09T19:44:35Z" changeset="84949436" uid="5173844" user="ndrw6">
    <nd ref="2604734436"/>
    <nd ref="2604734441"/>
    <nd ref="2604734444"/>
    <nd ref="2604734446"/>
    <nd ref="7501823689"/>
    <nd ref="2604734436"/>
    <tag k="addr:city" v="Cambridge"/>
    <tag k="addr:housenumber" v="9"/>
    <tag k="addr:postcode" v="CB23 7PP"/>
    <tag k="addr:street" v="Silverdale Avenue"/>
    <tag k="addr:village" v="Coton"/>
    <tag k="building" v="house"/>
  </way>
  <way id="543024408" version="4" timestamp="2019-02-04T10:44:16Z" changeset="66899076" uid="5173844" user="ndrw6">
    <nd ref="5249758875"/>
    <nd ref="5249758876"/>
    <nd ref="5249758877"/>
    <nd ref="5249758878"/>
    <nd ref="5249758875"/>
    <tag k="addr:city" v="Cambridge"/>
    <tag k="addr:postcode" v="CB23 7PL"/>
    <tag k="addr:street" v="High Street"/>
    <tag k="addr:village" v="Coton"/>
    <tag k="building" v="house"/>
    <tag k="name" v="Old Baptist Church"/>
  </way>
  <way id="546434966" version="2" timestamp="2022-10-21T11:08:30Z" changeset="127877149" uid="6476359" user="NSiecw">
    <nd ref="5280708467"/>
    <nd ref="5280708468"/>
    <nd ref="5280708469"/>
    <nd ref="5280708470"/>
    <nd ref="5280708467"/>
    <tag k="addr:city" v="Cambridge"/>
    <tag k="addr:housename" v="Little Barn"/>
    <tag k="addr:postcode" v="CB23 7PL"/>
    <tag k="addr:street" v="High Street"/>
    <tag k="addr:village" v="Coton"/>
    <tag k="building" v="yes"/>
    <tag k="name" v="Little Barn"/>
    <tag k="source:addr:housename" v="sign"/>
  </way>
  <way id="546434971" version="4" timestamp="2020-05-09T19:44:35Z" changeset="84949436" uid="5173844" user="ndrw6">
    <nd ref="7501818076"/>
    <nd ref="5280708490"/>
    <nd ref="5280708491"/>
    <nd ref="5280708492"/>
    <nd ref="5280708493"/>
    <nd ref="7501818076"/>
    <tag k="addr:city" v="Cambridge"/>
    <tag k="addr:housenumber" v="5a"/>
    <tag k="addr:postcode" v="CB23 7PP"/>
    <tag k="addr:street" v="Silverdale Avenue"/>
    <tag k="addr:village" v="Coton"/>
    <tag k="building" v="house"/>
  </way>
  <way id="546434974" version="5" timestamp="2020-10-10T23:41:08Z" changeset="92289177" uid="5173844" user="ndrw6">
    <nd ref="5280818580"/>
    <nd ref="5280708501"/>
    <nd ref="5280708502"/>
    <nd ref="5280818577"/>
    <nd ref="5280818580"/>
    <tag k="addr:city" v="Cambridge"/>
    <tag k="addr:housenumber" v="13a"/>
    <tag k="addr:postcode" v="CB23 7PP"/>
    <tag k="addr:street" v="Silverdale Avenue"/>
    <tag k="addr:village" v="Coton"/>
    <tag k="building" v="house"/>
  </way>
  <way id="546434975" version="5" timestamp="2020-05-09T19:44:35Z" changeset="84949436" uid="5173844" user="ndrw6">
    <nd ref="5280708503"/>
    <nd ref="5280708504"/>
    <nd ref="5280708505"/>
    <nd ref="5280708506"/>
    <nd ref="5280708503"/>
    <tag k="addr:city" v="Cambridge"/>
    <tag k="addr:housenumber" v="13b"/>
    <tag k="addr:postcode" v="CB23 7PP"/>
    <tag k="addr:street" v="Silverdale Avenue"/>
    <tag k="addr:village" v="Coton"/>
    <tag k="building" v="house"/>
    <tag k="building:levels" v="2"/>
  </way>
  <way id="546444695" version="3" timestamp="2020-05-09T19:44:35Z" changeset="84949436" uid="5173844" user="ndrw6">
    <nd ref="5280818581"/>
    <nd ref="5280818582"/>
    <nd ref="5280818583"/>
    <nd ref="5280818584"/>
    <nd ref="5280818581"/>
    <tag k="addr:city" v="Cambridge"/>
    <tag k="addr:housenumber" v="12"/>
    <tag k="addr:postcode" v="CB23 7PP"/>
    <tag k="addr:street" v="Silverdale Avenue"/>
    <tag k="addr:village" v="Coton"/>
    <tag k="building" v="house"/>
  </way>
  <way id="562329923" version="3" timestamp="2024-06-15T21:07:53Z" changeset="152738592" uid="5173844" user="ndrw6">
    <nd ref="5421250909"/>
    <nd ref="5421250910"/>
    <nd ref="5421250911"/>
    <nd ref="5421250912"/>
    <nd ref="5421250909"/>
    <tag k="addr:city" v="Cambridge"/>
    <tag k="addr:housenumber" v="57"/>
    <tag k="addr:postcode" v="CB23 7PW"/>
    <tag k="addr:street" v="Whitwell Way"/>
    <tag k="addr:village" v="Coton"/>
    <tag k="building" v="house"/>
    <tag k="building:levels" v="2"/>
    <tag k="building:material" v="brick"/>
    <tag k="roof:levels" v="1"/>
    <tag k="roof:shape" v="gabled"/>
  </way>
  <way id="562329924" version="2" timestamp="2019-02-04T10:44:36Z" changeset="66899076" uid="5173844" user="ndrw6">
    <nd ref="5421250913"/>
    <nd ref="5421250914"/>
    <nd ref="5421250915"/>
    <nd ref="5421250916"/>
    <nd ref="5421250913"/>
    <tag k="addr:city" v="Cambridge"/>
    <tag k="addr:housenumber" v="53"/>
    <tag k="addr:postcode" v="CB23 7PW"/>
    <tag k="addr:street" v="Whitwell Way"/>
    <tag k="addr:village" v="Coton"/>
    <tag k="building" v="house"/>
    <tag k="building:levels" v="2"/>
  </way>
  <way id="562329925" version="2" timestamp="2019-02-04T10:44:36Z" changeset="66899076" uid="5173844" user="ndrw6">
    <nd ref="5421250917"/>
    <nd ref="5421250918"/>
    <nd ref="5421250919"/>
    <nd ref="5421250920"/>
    <nd ref="5421250917"/>
    <tag k="addr:city" v="Cambridge"/>
    <tag k="addr:housenumber" v="49"/>
    <tag k="addr:postcode" v="CB23 7PW"/>
    <tag k="addr:street" v="Whitwell Way"/>
    <tag k="addr:village" v="Coton"/>
    <tag k="building" v="house"/>
    <tag k="building:levels" v="2"/>
  </way>
  <way id="562329926" version="2" timestamp="2019-02-04T10:44:36Z" changeset="66899076" uid="5173844" user="ndrw6">
    <nd ref="5421251821"/>
    <nd ref="5421251822"/>
    <nd ref="5421251823"/>
    <nd ref="5421251824"/>
    <nd ref="5421251821"/>
    <tag k="addr:city" v="Cambridge"/>
    <tag k="addr:housenumber" v="43"/>
    <tag k="addr:postcode" v="CB23 7PW"/>
    <tag k="addr:street" v="Whitwell Way"/>
    <tag k="addr:village" v="Coton"/>
    <tag k="building" v="house"/>
    <tag k="building:levels" v="2"/>
  </way>
  <way id="562329927" version="2" timestamp="2019-02-04T10:44:36Z" changeset="66899076" uid="5173844" user="ndrw6">
    <nd ref="5421251825"/>
    <nd ref="5421251826"/>
    <nd ref="5421251822"/>
    <nd ref="5421251821"/>
    <nd ref="5421251825"/>
    <tag k="addr:city" v="Cambridge"/>
    <tag k="addr:housenumber" v="45"/>
    <tag k="addr:postcode" v="CB23 7PW"/>
    <tag k="addr:street" v="Whitwell Way"/>
    <tag k="addr:village" v="Coton"/>
    <tag k="building" v="house"/>
    <tag k="building:levels" v="2"/>
  </way>
  <way id="562329928" version="2" timestamp="2019-02-04T10:44:36Z" changeset="66899076" uid="5173844" user="ndrw6">
    <nd ref="5421251827"/>
    <nd ref="5421251828"/>
    <nd ref="5421251829"/>
    <nd ref="5421251830"/>
    <nd ref="5421251827"/>
    <tag k="addr:city" v="Cambridge"/>
    <tag k="addr:housenumber" v="39"/>
    <tag k="addr:postcode" v="CB23 7PW"/>
    <tag k="addr:street" v="Whitwell Way"/>
    <tag k="addr:village" v="Coton"/>
    <tag k="building" v="house"/>
    <tag k="building:levels" v="2"/>
  </way>
  <way id="562329929" version="3" timestamp="2019-06-01T11:43:27Z" changeset="70833596" uid="5173844" user="ndrw6">
    <nd ref="5421251831"/>
    <nd ref="6514970707"/>
    <nd ref="6514970706"/>
    <nd ref="5421251832"/>
    <nd ref="5421251833"/>
    <nd ref="5421251834"/>
    <nd ref="5421251831"/>
    <tag k="addr:city" v="Cambridge"/>
    <tag k="addr:housenumber" v="37"/>
    <tag k="addr:postcode" v="CB23 7PW"/>
    <tag k="addr:street" v="Whitwell Way"/>
    <tag k="addr:village" v="Coton"/>
    <tag k="building" v="house"/>
    <tag k="building:levels" v="2"/>
  </way>
  <way id="562329930" version="3" timestamp="2020-10-10T23:41:08Z" changeset="92289177" uid="5173844" user="ndrw6">
    <nd ref="5421251835"/>
    <nd ref="5421251836"/>
    <nd ref="5421251837"/>
    <nd ref="7996090664"/>
    <nd ref="7996090663"/>
    <nd ref="5421251838"/>
    <nd ref="5421251835"/>
    <tag k="addr:city" v="Cambridge"/>
    <tag k="addr:housenumber" v="31"/>
    <tag k="addr:postcode" v="CB23 7PW"/>
    <tag k="addr:street" v="Whitwell Way"/>
    <tag k="addr:village" v="Coton"/>
    <tag k="building" v="house"/>
    <tag k="building:levels" v="2"/>
  </way>
  <way id="562329931" version="2" timestamp="2019-02-04T10:44:37Z" changeset="66899076" uid="5173844" user="ndrw6">
    <nd ref="5421251836"/>
    <nd ref="5421251839"/>
    <nd ref="5421251840"/>
    <nd ref="5421251837"/>
    <nd ref="5421251836"/>
    <tag k="addr:city" v="Cambridge"/>
    <tag k="addr:housenumber" v="33"/>
    <tag k="addr:postcode" v="CB23 7PW"/>
    <tag k="addr:street" v="Whitwell Way"/>
    <tag k="addr:village" v="Coton"/>
    <tag k="building" v="house"/>
    <tag k="building:levels" v="2"/>
  </way>
  <way id="562329932" version="2" timestamp="2019-02-04T10:44:37Z" changeset="66899076" uid="5173844" user="ndrw6">
    <nd ref="5421251841"/>
    <nd ref="5421251842"/>
    <nd ref="5421251843"/>
    <nd ref="5421251844"/>
    <nd ref="5421251841"/>
    <tag k="addr:city" v="Cambridge"/>
    <tag k="addr:housenumber" v="29"/>
    <tag k="addr:postcode" v="CB23 7PW"/>
    <tag k="addr:street" v="Whitwell Way"/>
    <tag k="addr:village" v="Coton"/>
    <tag k="building" v="house"/>
    <tag k="building:levels" v="1"/>
  </way>
  <way id="562329933" version="2" timestamp="2019-02-04T10:44:37Z" changeset="66899076" uid="5173844" user="ndrw6">
    <nd ref="5421251845"/>
    <nd ref="5421251841"/>
    <nd ref="5421251844"/>
    <nd ref="5421251846"/>
    <nd ref="5421251845"/>
    <tag k="addr:city" v="Cambridge"/>
    <tag k="addr:housenumber" v="27"/>
    <tag k="addr:postcode" v="CB23 7PW"/>
    <tag k="addr:street" v="Whitwell Way"/>
    <tag k="addr:village" v="Coton"/>
    <tag k="building" v="house"/>
    <tag k="building:levels" v="1"/>
  </way>
  <way id="562329937" version="2" timestamp="2019-02-04T10:44:37Z" changeset="66899076" uid="5173844" user="ndrw6">
    <nd ref="5421251861"/>
    <nd ref="5421251862"/>
    <nd ref="5421251863"/>
    <nd ref="5421251866"/>
    <nd ref="5421251865"/>
    <nd ref="5421251864"/>
    <nd ref="5421251861"/>
    <tag k="addr:city" v="Cambridge"/>
    <tag k="addr:housenumber" v="50A"/>
    <tag k="addr:postcode" v="CB23 7PP"/>
    <tag k="addr:street" v="Silverdale Avenue"/>
    <tag k="addr:village" v="Coton"/>
    <tag k="building" v="house"/>
    <tag k="building:levels" v="2"/>
  </way>
  <way id="562329938" version="2" timestamp="2019-02-04T10:44:37Z" changeset="66899076" uid="5173844" user="ndrw6">
    <nd ref="5421251865"/>
    <nd ref="5421251866"/>
    <nd ref="5421251867"/>
    <nd ref="5421251868"/>
    <nd ref="5421251865"/>
    <tag k="addr:city" v="Cambridge"/>
    <tag k="addr:housenumber" v="51"/>
    <tag k="addr:postcode" v="CB23 7PP"/>
    <tag k="addr:street" v="Silverdale Avenue"/>
    <tag k="addr:village" v="Coton"/>
    <tag k="building" v="house"/>
    <tag k="building:levels" v="2"/>
  </way>
  <way id="562329939" version="2" timestamp="2019-02-04T10:44:37Z" changeset="66899076" uid="5173844" user="ndrw6">
    <nd ref="5421251868"/>
    <nd ref="5421251867"/>
    <nd ref="5421251869"/>
    <nd ref="5421251870"/>
    <nd ref="5421251868"/>
    <tag k="addr:city" v="Cambridge"/>
    <tag k="addr:housenumber" v="51A"/>
    <tag k="addr:postcode" v="CB23 7PP"/>
    <tag k="addr:street" v="Silverdale Avenue"/>
    <tag k="addr:village" v="Coton"/>
    <tag k="building" v="house"/>
    <tag k="building:levels" v="2"/>
  </way>
  <way id="562329940" version="2" timestamp="2019-02-04T10:44:38Z" changeset="66899076" uid="5173844" user="ndrw6">
    <nd ref="5421251876"/>
    <nd ref="5421251875"/>
    <nd ref="5421251871"/>
    <nd ref="5421251872"/>
    <nd ref="5421251876"/>
    <tag k="addr:city" v="Cambridge"/>
    <tag k="addr:housenumber" v="52A"/>
    <tag k="addr:postcode" v="CB23 7PP"/>
    <tag k="addr:street" v="Silverdale Avenue"/>
    <tag k="addr:village" v="Coton"/>
    <tag k="building" v="house"/>
    <tag k="building:levels" v="1"/>
  </way>
  <way id="562329941" version="2" timestamp="2019-02-04T10:44:38Z" changeset="66899076" uid="5173844" user="ndrw6">
    <nd ref="5421251873"/>
    <nd ref="5421251880"/>
    <nd ref="5421251879"/>
    <nd ref="5421251874"/>
    <nd ref="5421251875"/>
    <nd ref="5421251876"/>
    <nd ref="5421251873"/>
    <tag k="addr:city" v="Cambridge"/>
    <tag k="addr:housenumber" v="53"/>
    <tag k="addr:postcode" v="CB23 7PP"/>
    <tag k="addr:street" v="Silverdale Avenue"/>
    <tag k="addr:village" v="Coton"/>
    <tag k="building" v="house"/>
    <tag k="building:levels" v="1"/>
  </way>
  <way id="562329942" version="2" timestamp="2019-02-04T10:44:38Z" changeset="66899076" uid="5173844" user="ndrw6">
    <nd ref="5421251877"/>
    <nd ref="5421251878"/>
    <nd ref="5421251879"/>
    <nd ref="5421251880"/>
    <nd ref="5421251877"/>
    <tag k="addr:city" v="Cambridge"/>
    <tag k="addr:housenumber" v="54"/>
    <tag k="addr:postcode" v="CB23 7PP"/>
    <tag k="addr:street" v="Silverdale Avenue"/>
    <tag k="addr:village" v="Coton"/>
    <tag k="building" v="house"/>
    <tag k="building:levels" v="1"/>
  </way>
  <way id="562329943" version="2" timestamp="2019-02-04T10:44:38Z" changeset="66899076" uid="5173844" user="ndrw6">
    <nd ref="5421251881"/>
    <nd ref="5421251882"/>
    <nd ref="5421251883"/>
    <nd ref="5421251884"/>
    <nd ref="5421251881"/>
    <tag k="addr:city" v="Cambridge"/>
    <tag k="addr:housenumber" v="13"/>
    <tag k="addr:postcode" v="CB23 7GY"/>
    <tag k="addr:street" v="Silverdale Close"/>
    <tag k="addr:village" v="Coton"/>
    <tag k="building" v="house"/>
    <tag k="building:levels" v="2"/>
  </way>
  <way id="562329944" version="2" timestamp="2019-02-04T10:44:38Z" changeset="66899076" uid="5173844" user="ndrw6">
    <nd ref="5421251885"/>
    <nd ref="5421251886"/>
    <nd ref="5421251887"/>
    <nd ref="5421251888"/>
    <nd ref="5421251885"/>
    <tag k="addr:city" v="Cambridge"/>
    <tag k="addr:housenumber" v="16"/>
    <tag k="addr:postcode" v="CB23 7GY"/>
    <tag k="addr:street" v="Silverdale Close"/>
    <tag k="addr:village" v="Coton"/>
    <tag k="building" v="house"/>
    <tag k="building:levels" v="2"/>
  </way>
  <way id="562329945" version="2" timestamp="2019-02-04T10:44:38Z" changeset="66899076" uid="5173844" user="ndrw6">
    <nd ref="5421251888"/>
    <nd ref="5421251887"/>
    <nd ref="5421251889"/>
    <nd ref="5421251890"/>
    <nd ref="5421251888"/>
    <tag k="addr:city" v="Cambridge"/>
    <tag k="addr:housenumber" v="15"/>
    <tag k="addr:postcode" v="CB23 7GY"/>
    <tag k="addr:street" v="Silverdale Close"/>
    <tag k="addr:village" v="Coton"/>
    <tag k="building" v="house"/>
    <tag k="building:levels" v="2"/>
  </way>
  <way id="562329946" version="2" timestamp="2019-02-04T10:44:38Z" changeset="66899076" uid="5173844" user="ndrw6">
    <nd ref="5421251891"/>
    <nd ref="5421251892"/>
    <nd ref="5421251893"/>
    <nd ref="5421251894"/>
    <nd ref="5421251891"/>
    <tag k="addr:city" v="Cambridge"/>
    <tag k="addr:housenumber" v="12"/>
    <tag k="addr:postcode" v="CB23 7GY"/>
    <tag k="addr:street" v="Silverdale Close"/>
    <tag k="addr:village" v="Coton"/>
    <tag k="building" v="house"/>
    <tag k="building:levels" v="2"/>
  </way>
  <way id="562329947" version="2" timestamp="2019-02-04T10:44:38Z" changeset="66899076" uid="5173844" user="ndrw6">
    <nd ref="5421251895"/>
    <nd ref="5421251896"/>
    <nd ref="5421251892"/>
    <nd ref="5421251891"/>
    <nd ref="5421251895"/>
    <tag k="addr:city" v="Cambridge"/>
    <tag k="addr:housenumber" v="11"/>
    <tag k="addr:postcode" v="CB23 7GY"/>
    <tag k="addr:street" v="Silverdale Close"/>
    <tag k="addr:village" v="Coton"/>
    <tag k="building" v="house"/>
    <tag k="building:levels" v="2"/>
  </way>
  <way id="562329948" version="2" timestamp="2019-02-04T10:44:39Z" changeset="66899076" uid="5173844" user="ndrw6">
    <nd ref="5421251897"/>
    <nd ref="5421251898"/>
    <nd ref="5421251899"/>
    <nd ref="5421251900"/>
    <nd ref="5421251897"/>
    <tag k="addr:city" v="Cambridge"/>
    <tag k="addr:housenumber" v="9"/>
    <tag k="addr:postcode" v="CB23 7GY"/>
    <tag k="addr:street" v="Silverdale Close"/>
    <tag k="addr:village" v="Coton"/>
    <tag k="building" v="house"/>
    <tag k="building:levels" v="2"/>
  </way>
  <way id="562329949" version="2" timestamp="2019-02-04T10:44:39Z" changeset="66899076" uid="5173844" user="ndrw6">
    <nd ref="5421251900"/>
    <nd ref="5421251899"/>
    <nd ref="5421251901"/>
    <nd ref="5421251902"/>
    <nd ref="5421251900"/>
    <tag k="addr:city" v="Cambridge"/>
    <tag k="addr:housenumber" v="10"/>
    <tag k="addr:postcode" v="CB23 7GY"/>
    <tag k="addr:street" v="Silverdale Close"/>
    <tag k="addr:village" v="Coton"/>
    <tag k="building" v="house"/>
    <tag k="building:levels" v="2"/>
  </way>
  <way id="562329950" version="2" timestamp="2019-02-04T10:44:39Z" changeset="66899076" uid="5173844" user="ndrw6">
    <nd ref="5421251903"/>
    <nd ref="5421251904"/>
    <nd ref="5421251905"/>
    <nd ref="5421251906"/>
    <nd ref="5421251903"/>
    <tag k="addr:city" v="Cambridge"/>
    <tag k="addr:housenumber" v="8"/>
    <tag k="addr:postcode" v="CB23 7GY"/>
    <tag k="addr:street" v="Silverdale Close"/>
    <tag k="addr:village" v="Coton"/>
    <tag k="building" v="house"/>
    <tag k="building:levels" v="2"/>
  </way>
  <way id="562329951" version="2" timestamp="2019-02-04T10:44:39Z" changeset="66899076" uid="5173844" user="ndrw6">
    <nd ref="5421251906"/>
    <nd ref="5421251905"/>
    <nd ref="5421251907"/>
    <nd ref="5421251908"/>
    <nd ref="5421251906"/>
    <tag k="addr:city" v="Cambridge"/>
    <tag k="addr:housenumber" v="7"/>
    <tag k="addr:postcode" v="CB23 7GY"/>
    <tag k="addr:street" v="Silverdale Close"/>
    <tag k="addr:village" v="Coton"/>
    <tag k="building" v="house"/>
    <tag k="building:levels" v="2"/>
  </way>
  <way id="562329952" version="2" timestamp="2019-02-04T10:44:39Z" changeset="66899076" uid="5173844" user="ndrw6">
    <nd ref="5421251909"/>
    <nd ref="5421251910"/>
    <nd ref="5421251911"/>
    <nd ref="5421251912"/>
    <nd ref="5421251909"/>
    <tag k="addr:city" v="Cambridge"/>
    <tag k="addr:housenumber" v="1"/>
    <tag k="addr:postcode" v="CB23 7GY"/>
    <tag k="addr:street" v="Silverdale Close"/>
    <tag k="addr:village" v="Coton"/>
    <tag k="building" v="house"/>
    <tag k="building:levels" v="1"/>
  </way>
  <way id="562329953" version="2" timestamp="2019-02-04T10:44:39Z" changeset="66899076" uid="5173844" user="ndrw6">
    <nd ref="5421251912"/>
    <nd ref="5421251911"/>
    <nd ref="5421251913"/>
    <nd ref="5421251914"/>
    <nd ref="5421251912"/>
    <tag k="addr:city" v="Cambridge"/>
    <tag k="addr:housenumber" v="2"/>
    <tag k="addr:postcode" v="CB23 7GY"/>
    <tag k="addr:street" v="Silverdale Close"/>
    <tag k="addr:village" v="Coton"/>
    <tag k="building" v="house"/>
    <tag k="building:levels" v="1"/>
  </way>
  <way id="562329954" version="2" timestamp="2019-02-04T10:44:39Z" changeset="66899076" uid="5173844" user="ndrw6">
    <nd ref="5421251915"/>
    <nd ref="5421251916"/>
    <nd ref="5421251917"/>
    <nd ref="5421251919"/>
    <nd ref="5421251918"/>
    <nd ref="5421251915"/>
    <tag k="addr:city" v="Cambridge"/>
    <tag k="addr:housenumber" v="3"/>
    <tag k="addr:postcode" v="CB23 7GY"/>
    <tag k="addr:street" v="Silverdale Close"/>
    <tag k="addr:village" v="Coton"/>
    <tag k="building" v="house"/>
    <tag k="building:levels" v="1"/>
  </way>
  <way id="562329955" version="2" timestamp="2019-02-04T10:44:39Z" changeset="66899076" uid="5173844" user="ndrw6">
    <nd ref="5421251919"/>
    <nd ref="5421251917"/>
    <nd ref="5421251920"/>
    <nd ref="5421252021"/>
    <nd ref="5421252022"/>
    <nd ref="5421251919"/>
    <tag k="addr:city" v="Cambridge"/>
    <tag k="addr:housenumber" v="4"/>
    <tag k="addr:postcode" v="CB23 7GY"/>
    <tag k="addr:street" v="Silverdale Close"/>
    <tag k="addr:village" v="Coton"/>
    <tag k="building" v="house"/>
    <tag k="building:levels" v="1"/>
  </way>
  <way id="562329956" version="2" timestamp="2019-02-04T10:44:40Z" changeset="66899076" uid="5173844" user="ndrw6">
    <nd ref="5421252023"/>
    <nd ref="5421252024"/>
    <nd ref="5421252025"/>
    <nd ref="5421252026"/>
    <nd ref="5421252023"/>
    <tag k="addr:city" v="Cambridge"/>
    <tag k="addr:housenumber" v="5"/>
    <tag k="addr:postcode" v="CB23 7GY"/>
    <tag k="addr:street" v="Silverdale Close"/>
    <tag k="addr:village" v="Coton"/>
    <tag k="building" v="house"/>
    <tag k="building:levels" v="1"/>
  </way>
  <way id="562329957" version="2" timestamp="2019-02-04T10:44:40Z" changeset="66899076" uid="5173844" user="ndrw6">
    <nd ref="5421252027"/>
    <nd ref="5421252028"/>
    <nd ref="5421252024"/>
    <nd ref="5421252023"/>
    <nd ref="5421252027"/>
    <tag k="addr:city" v="Cambridge"/>
    <tag k="addr:housenumber" v="6"/>
    <tag k="addr:postcode" v="CB23 7GY"/>
    <tag k="addr:street" v="Silverdale Close"/>
    <tag k="addr:village" v="Coton"/>
    <tag k="building" v="house"/>
    <tag k="building:levels" v="1"/>
  </way>
  <way id="562329959" version="2" timestamp="2019-02-04T10:44:40Z" changeset="66899076" uid="5173844" user="ndrw6">
    <nd ref="5421252033"/>
    <nd ref="5421252034"/>
    <nd ref="5421252035"/>
    <nd ref="5421252036"/>
    <nd ref="5421252033"/>
    <tag k="addr:city" v="Cambridge"/>
    <tag k="addr:housenumber" v="2"/>
    <tag k="addr:postcode" v="CB23 7GZ"/>
    <tag k="addr:street" v="Pendrick Close"/>
    <tag k="addr:village" v="Coton"/>
    <tag k="building" v="house"/>
    <tag k="building:levels" v="2"/>
  </way>
  <way id="562329960" version="2" timestamp="2019-02-04T10:44:40Z" changeset="66899076" uid="5173844" user="ndrw6">
    <nd ref="5421252036"/>
    <nd ref="5421252035"/>
    <nd ref="5421252037"/>
    <nd ref="5421252038"/>
    <nd ref="5421252036"/>
    <tag k="addr:city" v="Cambridge"/>
    <tag k="addr:housenumber" v="1"/>
    <tag k="addr:postcode" v="CB23 7GZ"/>
    <tag k="addr:street" v="Pendrick Close"/>
    <tag k="addr:village" v="Coton"/>
    <tag k="building" v="house"/>
    <tag k="building:levels" v="2"/>
  </way>
  <way id="562329961" version="2" timestamp="2019-02-04T10:44:40Z" changeset="66899076" uid="5173844" user="ndrw6">
    <nd ref="5421252039"/>
    <nd ref="5421252040"/>
    <nd ref="5421252041"/>
    <nd ref="5421252042"/>
    <nd ref="5421252039"/>
    <tag k="addr:city" v="Cambridge"/>
    <tag k="addr:housenumber" v="4"/>
    <tag k="addr:postcode" v="CB23 7GZ"/>
    <tag k="addr:street" v="Pendrick Close"/>
    <tag k="addr:village" v="Coton"/>
    <tag k="building" v="house"/>
    <tag k="building:levels" v="2"/>
  </way>
  <way id="562329962" version="2" timestamp="2019-02-04T10:44:40Z" changeset="66899076" uid="5173844" user="ndrw6">
    <nd ref="5421252042"/>
    <nd ref="5421252041"/>
    <nd ref="5421252043"/>
    <nd ref="5421252044"/>
    <nd ref="5421252042"/>
    <tag k="addr:city" v="Cambridge"/>
    <tag k="addr:housenumber" v="3"/>
    <tag k="addr:postcode" v="CB23 7GZ"/>
    <tag k="addr:street" v="Pendrick Close"/>
    <tag k="addr:village" v="Coton"/>
    <tag k="building" v="house"/>
    <tag k="building:levels" v="2"/>
  </way>
  <way id="562329964" version="2" timestamp="2019-02-04T10:44:40Z" changeset="66899076" uid="5173844" user="ndrw6">
    <nd ref="5421252047"/>
    <nd ref="5421252048"/>
    <nd ref="5421252049"/>
    <nd ref="5421252050"/>
    <nd ref="5421252047"/>
    <tag k="addr:city" v="Cambridge"/>
    <tag k="addr:housenumber" v="19"/>
    <tag k="addr:postcode" v="CB23 7GZ"/>
    <tag k="addr:street" v="Pendrick Close"/>
    <tag k="addr:village" v="Coton"/>
    <tag k="building" v="house"/>
    <tag k="building:levels" v="2"/>
  </way>
  <way id="562329965" version="2" timestamp="2019-02-04T10:44:41Z" changeset="66899076" uid="5173844" user="ndrw6">
    <nd ref="5421252051"/>
    <nd ref="5421252052"/>
    <nd ref="5421252048"/>
    <nd ref="5421252047"/>
    <nd ref="5421252051"/>
    <tag k="addr:city" v="Cambridge"/>
    <tag k="addr:housenumber" v="18"/>
    <tag k="addr:postcode" v="CB23 7GZ"/>
    <tag k="addr:street" v="Pendrick Close"/>
    <tag k="addr:village" v="Coton"/>
    <tag k="building" v="house"/>
    <tag k="building:levels" v="2"/>
  </way>
  <way id="562329966" version="2" timestamp="2019-02-04T10:44:41Z" changeset="66899076" uid="5173844" user="ndrw6">
    <nd ref="5421252053"/>
    <nd ref="5421252054"/>
    <nd ref="5421252055"/>
    <nd ref="5421252056"/>
    <nd ref="5421252053"/>
    <tag k="addr:city" v="Cambridge"/>
    <tag k="addr:housenumber" v="16"/>
    <tag k="addr:postcode" v="CB23 7GZ"/>
    <tag k="addr:street" v="Pendrick Close"/>
    <tag k="addr:village" v="Coton"/>
    <tag k="building" v="house"/>
    <tag k="building:levels" v="2"/>
  </way>
  <way id="562329967" version="2" timestamp="2019-02-04T10:44:41Z" changeset="66899076" uid="5173844" user="ndrw6">
    <nd ref="5421252056"/>
    <nd ref="5421252055"/>
    <nd ref="5421252057"/>
    <nd ref="5421252058"/>
    <nd ref="5421252056"/>
    <tag k="addr:city" v="Cambridge"/>
    <tag k="addr:housenumber" v="17"/>
    <tag k="addr:postcode" v="CB23 7GZ"/>
    <tag k="addr:street" v="Pendrick Close"/>
    <tag k="addr:village" v="Coton"/>
    <tag k="building" v="house"/>
    <tag k="building:levels" v="2"/>
  </way>
  <way id="562329968" version="2" timestamp="2019-02-04T10:44:41Z" changeset="66899076" uid="5173844" user="ndrw6">
    <nd ref="5421252059"/>
    <nd ref="5421252060"/>
    <nd ref="5421252061"/>
    <nd ref="5421252062"/>
    <nd ref="5421252059"/>
    <tag k="addr:city" v="Cambridge"/>
    <tag k="addr:housenumber" v="15"/>
    <tag k="addr:postcode" v="CB23 7GZ"/>
    <tag k="addr:street" v="Pendrick Close"/>
    <tag k="addr:village" v="Coton"/>
    <tag k="building" v="house"/>
    <tag k="building:levels" v="2"/>
  </way>
  <way id="562329969" version="2" timestamp="2019-02-04T10:44:41Z" changeset="66899076" uid="5173844" user="ndrw6">
    <nd ref="5421252063"/>
    <nd ref="5421252064"/>
    <nd ref="5421252060"/>
    <nd ref="5421252059"/>
    <nd ref="5421252063"/>
    <tag k="addr:city" v="Cambridge"/>
    <tag k="addr:housenumber" v="14"/>
    <tag k="addr:postcode" v="CB23 7GZ"/>
    <tag k="addr:street" v="Pendrick Close"/>
    <tag k="addr:village" v="Coton"/>
    <tag k="building" v="house"/>
    <tag k="building:levels" v="2"/>
  </way>
  <way id="562329970" version="2" timestamp="2019-02-04T10:44:41Z" changeset="66899076" uid="5173844" user="ndrw6">
    <nd ref="5421252065"/>
    <nd ref="5421252066"/>
    <nd ref="5421252067"/>
    <nd ref="5421252068"/>
    <nd ref="5421252065"/>
    <tag k="addr:city" v="Cambridge"/>
    <tag k="addr:housenumber" v="13"/>
    <tag k="addr:postcode" v="CB23 7GZ"/>
    <tag k="addr:street" v="Pendrick Close"/>
    <tag k="addr:village" v="Coton"/>
    <tag k="building" v="house"/>
    <tag k="building:levels" v="2"/>
  </way>
  <way id="562329971" version="2" timestamp="2019-02-04T10:44:41Z" changeset="66899076" uid="5173844" user="ndrw6">
    <nd ref="5421252068"/>
    <nd ref="5421252067"/>
    <nd ref="5421252069"/>
    <nd ref="5421252070"/>
    <nd ref="5421252068"/>
    <tag k="addr:city" v="Cambridge"/>
    <tag k="addr:housenumber" v="12"/>
    <tag k="addr:postcode" v="CB23 7GZ"/>
    <tag k="addr:street" v="Pendrick Close"/>
    <tag k="addr:village" v="Coton"/>
    <tag k="building" v="house"/>
    <tag k="building:levels" v="2"/>
  </way>
  <way id="562329972" version="2" timestamp="2019-02-04T10:44:41Z" changeset="66899076" uid="5173844" user="ndrw6">
    <nd ref="5421252071"/>
    <nd ref="5421252072"/>
    <nd ref="5421252076"/>
    <nd ref="5421252075"/>
    <nd ref="5421252071"/>
    <tag k="addr:city" v="Cambridge"/>
    <tag k="addr:housenumber" v="10"/>
    <tag k="addr:postcode" v="CB23 7GZ"/>
    <tag k="addr:street" v="Pendrick Close"/>
    <tag k="addr:village" v="Coton"/>
    <tag k="building" v="house"/>
    <tag k="building:levels" v="2"/>
  </way>
  <way id="562329973" version="2" timestamp="2019-02-04T10:44:42Z" changeset="66899076" uid="5173844" user="ndrw6">
    <nd ref="5421252073"/>
    <nd ref="5421252074"/>
    <nd ref="5421252072"/>
    <nd ref="5421252071"/>
    <nd ref="5421252073"/>
    <tag k="addr:city" v="Cambridge"/>
    <tag k="addr:housenumber" v="11"/>
    <tag k="addr:postcode" v="CB23 7GZ"/>
    <tag k="addr:street" v="Pendrick Close"/>
    <tag k="addr:village" v="Coton"/>
    <tag k="building" v="house"/>
    <tag k="building:levels" v="2"/>
  </way>
  <way id="562329974" version="2" timestamp="2019-02-04T10:44:42Z" changeset="66899076" uid="5173844" user="ndrw6">
    <nd ref="5421252075"/>
    <nd ref="5421252076"/>
    <nd ref="5421252077"/>
    <nd ref="5421252078"/>
    <nd ref="5421252075"/>
    <tag k="addr:city" v="Cambridge"/>
    <tag k="addr:housenumber" v="9"/>
    <tag k="addr:postcode" v="CB23 7GZ"/>
    <tag k="addr:street" v="Pendrick Close"/>
    <tag k="addr:village" v="Coton"/>
    <tag k="building" v="house"/>
    <tag k="building:levels" v="2"/>
  </way>
  <way id="562329975" version="2" timestamp="2019-02-04T10:44:42Z" changeset="66899076" uid="5173844" user="ndrw6">
    <nd ref="5421252079"/>
    <nd ref="5421252080"/>
    <nd ref="5421252081"/>
    <nd ref="5421252082"/>
    <nd ref="5421252079"/>
    <tag k="addr:city" v="Cambridge"/>
    <tag k="addr:housenumber" v="7"/>
    <tag k="addr:postcode" v="CB23 7GZ"/>
    <tag k="addr:street" v="Pendrick Close"/>
    <tag k="addr:village" v="Coton"/>
    <tag k="building" v="house"/>
    <tag k="building:levels" v="2"/>
  </way>
  <way id="562329976" version="2" timestamp="2019-02-04T10:44:42Z" changeset="66899076" uid="5173844" user="ndrw6">
    <nd ref="5421252083"/>
    <nd ref="5421252084"/>
    <nd ref="5421252080"/>
    <nd ref="5421252079"/>
    <nd ref="5421252083"/>
    <tag k="addr:city" v="Cambridge"/>
    <tag k="addr:housenumber" v="8"/>
    <tag k="addr:postcode" v="CB23 7GZ"/>
    <tag k="addr:street" v="Pendrick Close"/>
    <tag k="addr:village" v="Coton"/>
    <tag k="building" v="house"/>
    <tag k="building:levels" v="2"/>
  </way>
  <way id="562329977" version="2" timestamp="2019-02-04T10:44:42Z" changeset="66899076" uid="5173844" user="ndrw6">
    <nd ref="5421252085"/>
    <nd ref="5421252086"/>
    <nd ref="5421252087"/>
    <nd ref="5421252088"/>
    <nd ref="5421252085"/>
    <tag k="addr:city" v="Cambridge"/>
    <tag k="addr:housenumber" v="5"/>
    <tag k="addr:postcode" v="CB23 7GZ"/>
    <tag k="addr:street" v="Pendrick Close"/>
    <tag k="addr:village" v="Coton"/>
    <tag k="building" v="house"/>
    <tag k="building:levels" v="1"/>
  </way>
  <way id="562329978" version="2" timestamp="2019-02-04T10:44:42Z" changeset="66899076" uid="5173844" user="ndrw6">
    <nd ref="5421252089"/>
    <nd ref="5421252092"/>
    <nd ref="5421252093"/>
    <nd ref="5421252094"/>
    <nd ref="5421252091"/>
    <nd ref="5421252090"/>
    <nd ref="5421252086"/>
    <nd ref="5421252085"/>
    <nd ref="5421252089"/>
    <tag k="addr:city" v="Cambridge"/>
    <tag k="addr:housenumber" v="6"/>
    <tag k="addr:postcode" v="CB23 7GZ"/>
    <tag k="addr:street" v="Pendrick Close"/>
    <tag k="addr:village" v="Coton"/>
    <tag k="building" v="house"/>
    <tag k="building:levels" v="1"/>
  </way>
  <way id="562329980" version="2" timestamp="2019-02-04T10:44:42Z" changeset="66899076" uid="5173844" user="ndrw6">
    <nd ref="5421252097"/>
    <nd ref="5421252098"/>
    <nd ref="5421252099"/>
    <nd ref="5421252100"/>
    <nd ref="5421252097"/>
    <tag k="addr:city" v="Cambridge"/>
    <tag k="addr:housenumber" v="48"/>
    <tag k="addr:postcode" v="CB23 7PP"/>
    <tag k="addr:street" v="Silverdale Avenue"/>
    <tag k="addr:village" v="Coton"/>
    <tag k="building" v="house"/>
    <tag k="building:levels" v="2"/>
  </way>
  <way id="562329981" version="2" timestamp="2019-02-04T10:44:43Z" changeset="66899076" uid="5173844" user="ndrw6">
    <nd ref="5421252101"/>
    <nd ref="5421252102"/>
    <nd ref="5421252103"/>
    <nd ref="5421252104"/>
    <nd ref="5421252101"/>
    <tag k="addr:city" v="Cambridge"/>
    <tag k="addr:housenumber" v="47"/>
    <tag k="addr:postcode" v="CB23 7PP"/>
    <tag k="addr:street" v="Silverdale Avenue"/>
    <tag k="addr:village" v="Coton"/>
    <tag k="building" v="house"/>
    <tag k="building:levels" v="2"/>
  </way>
  <way id="562329982" version="2" timestamp="2019-02-04T10:44:43Z" changeset="66899076" uid="5173844" user="ndrw6">
    <nd ref="5421252104"/>
    <nd ref="5421252103"/>
    <nd ref="5421252106"/>
    <nd ref="5421252105"/>
    <nd ref="5421252104"/>
    <tag k="addr:city" v="Cambridge"/>
    <tag k="addr:housenumber" v="46A"/>
    <tag k="addr:postcode" v="CB23 7PP"/>
    <tag k="addr:street" v="Silverdale Avenue"/>
    <tag k="addr:village" v="Coton"/>
    <tag k="building" v="house"/>
    <tag k="building:levels" v="2"/>
  </way>
  <way id="562329983" version="2" timestamp="2019-02-04T10:44:43Z" changeset="66899076" uid="5173844" user="ndrw6">
    <nd ref="5421252105"/>
    <nd ref="5421252106"/>
    <nd ref="5421252107"/>
    <nd ref="5421252108"/>
    <nd ref="5421252105"/>
    <tag k="addr:city" v="Cambridge"/>
    <tag k="addr:housenumber" v="46"/>
    <tag k="addr:postcode" v="CB23 7PP"/>
    <tag k="addr:street" v="Silverdale Avenue"/>
    <tag k="addr:village" v="Coton"/>
    <tag k="building" v="house"/>
    <tag k="building:levels" v="2"/>
  </way>
  <way id="562329984" version="2" timestamp="2019-02-04T10:44:43Z" changeset="66899076" uid="5173844" user="ndrw6">
    <nd ref="5421252109"/>
    <nd ref="5421252110"/>
    <nd ref="5421252111"/>
    <nd ref="5421252112"/>
    <nd ref="5421252109"/>
    <tag k="addr:city" v="Cambridge"/>
    <tag k="addr:housenumber" v="45"/>
    <tag k="addr:postcode" v="CB23 7PP"/>
    <tag k="addr:street" v="Silverdale Avenue"/>
    <tag k="addr:village" v="Coton"/>
    <tag k="building" v="house"/>
    <tag k="building:levels" v="2"/>
  </way>
  <way id="562329985" version="2" timestamp="2019-02-04T10:44:43Z" changeset="66899076" uid="5173844" user="ndrw6">
    <nd ref="5421252112"/>
    <nd ref="5421252111"/>
    <nd ref="5421252113"/>
    <nd ref="5421252114"/>
    <nd ref="5421252112"/>
    <tag k="addr:city" v="Cambridge"/>
    <tag k="addr:housenumber" v="44"/>
    <tag k="addr:postcode" v="CB23 7PP"/>
    <tag k="addr:street" v="Silverdale Avenue"/>
    <tag k="addr:village" v="Coton"/>
    <tag k="building" v="house"/>
    <tag k="building:levels" v="2"/>
  </way>
  <way id="562329986" version="2" timestamp="2019-02-04T10:44:43Z" changeset="66899076" uid="5173844" user="ndrw6">
    <nd ref="5421252115"/>
    <nd ref="5421252116"/>
    <nd ref="5421252117"/>
    <nd ref="5421252118"/>
    <nd ref="5421252115"/>
    <tag k="addr:city" v="Cambridge"/>
    <tag k="addr:housenumber" v="42"/>
    <tag k="addr:postcode" v="CB23 7PP"/>
    <tag k="addr:street" v="Silverdale Avenue"/>
    <tag k="addr:village" v="Coton"/>
    <tag k="building" v="house"/>
    <tag k="building:levels" v="2"/>
  </way>
  <way id="562329987" version="2" timestamp="2019-02-04T10:44:43Z" changeset="66899076" uid="5173844" user="ndrw6">
    <nd ref="5421252119"/>
    <nd ref="5421252120"/>
    <nd ref="5421252116"/>
    <nd ref="5421252115"/>
    <nd ref="5421252119"/>
    <tag k="addr:city" v="Cambridge"/>
    <tag k="addr:housenumber" v="43"/>
    <tag k="addr:postcode" v="CB23 7PP"/>
    <tag k="addr:street" v="Silverdale Avenue"/>
    <tag k="addr:village" v="Coton"/>
    <tag k="building" v="house"/>
    <tag k="building:levels" v="2"/>
  </way>
  <way id="562329988" version="2" timestamp="2019-02-04T10:44:44Z" changeset="66899076" uid="5173844" user="ndrw6">
    <nd ref="5421252321"/>
    <nd ref="5421252322"/>
    <nd ref="5421252323"/>
    <nd ref="5421252324"/>
    <nd ref="5421252321"/>
    <tag k="addr:city" v="Cambridge"/>
    <tag k="addr:housenumber" v="41"/>
    <tag k="addr:postcode" v="CB23 7PP"/>
    <tag k="addr:street" v="Silverdale Avenue"/>
    <tag k="addr:village" v="Coton"/>
    <tag k="building" v="house"/>
    <tag k="building:levels" v="2"/>
  </way>
  <way id="562329989" version="2" timestamp="2019-02-04T10:44:44Z" changeset="66899076" uid="5173844" user="ndrw6">
    <nd ref="5421252324"/>
    <nd ref="5421252323"/>
    <nd ref="5421252325"/>
    <nd ref="5421252326"/>
    <nd ref="5421252324"/>
    <tag k="addr:city" v="Cambridge"/>
    <tag k="addr:housenumber" v="40"/>
    <tag k="addr:postcode" v="CB23 7PP"/>
    <tag k="addr:street" v="Silverdale Avenue"/>
    <tag k="addr:village" v="Coton"/>
    <tag k="building" v="house"/>
    <tag k="building:levels" v="2"/>
  </way>
  <way id="562329990" version="2" timestamp="2019-02-04T10:44:44Z" changeset="66899076" uid="5173844" user="ndrw6">
    <nd ref="5421252329"/>
    <nd ref="5421252330"/>
    <nd ref="5421252331"/>
    <nd ref="5421252332"/>
    <nd ref="5421252329"/>
    <tag k="addr:city" v="Cambridge"/>
    <tag k="addr:housenumber" v="38"/>
    <tag k="addr:postcode" v="CB23 7PP"/>
    <tag k="addr:street" v="Silverdale Avenue"/>
    <tag k="addr:village" v="Coton"/>
    <tag k="building" v="house"/>
    <tag k="building:levels" v="2"/>
  </way>
  <way id="562329991" version="2" timestamp="2019-02-04T10:44:44Z" changeset="66899076" uid="5173844" user="ndrw6">
    <nd ref="5421252333"/>
    <nd ref="5421252334"/>
    <nd ref="5421252330"/>
    <nd ref="5421252329"/>
    <nd ref="5421252333"/>
    <tag k="addr:city" v="Cambridge"/>
    <tag k="addr:housenumber" v="39"/>
    <tag k="addr:postcode" v="CB23 7PP"/>
    <tag k="addr:street" v="Silverdale Avenue"/>
    <tag k="addr:village" v="Coton"/>
    <tag k="building" v="house"/>
    <tag k="building:levels" v="2"/>
  </way>
  <way id="562329992" version="2" timestamp="2019-02-04T10:44:44Z" changeset="66899076" uid="5173844" user="ndrw6">
    <nd ref="5421252335"/>
    <nd ref="5421252336"/>
    <nd ref="5421252337"/>
    <nd ref="5421252338"/>
    <nd ref="5421252335"/>
    <tag k="addr:city" v="Cambridge"/>
    <tag k="addr:housenumber" v="37"/>
    <tag k="addr:postcode" v="CB23 7PP"/>
    <tag k="addr:street" v="Silverdale Avenue"/>
    <tag k="addr:village" v="Coton"/>
    <tag k="building" v="house"/>
    <tag k="building:levels" v="2"/>
  </way>
  <way id="562329993" version="2" timestamp="2019-02-04T10:44:44Z" changeset="66899076" uid="5173844" user="ndrw6">
    <nd ref="5421252339"/>
    <nd ref="5421252340"/>
    <nd ref="5421252336"/>
    <nd ref="5421252335"/>
    <nd ref="5421252339"/>
    <tag k="addr:city" v="Cambridge"/>
    <tag k="addr:housenumber" v="36"/>
    <tag k="addr:postcode" v="CB23 7PP"/>
    <tag k="addr:street" v="Silverdale Avenue"/>
    <tag k="addr:village" v="Coton"/>
    <tag k="building" v="house"/>
    <tag k="building:levels" v="2"/>
  </way>
  <way id="562329994" version="2" timestamp="2019-02-04T10:44:44Z" changeset="66899076" uid="5173844" user="ndrw6">
    <nd ref="5421252341"/>
    <nd ref="5421252342"/>
    <nd ref="5421252343"/>
    <nd ref="5421252344"/>
    <nd ref="5421252341"/>
    <tag k="addr:city" v="Cambridge"/>
    <tag k="addr:housenumber" v="34"/>
    <tag k="addr:postcode" v="CB23 7PP"/>
    <tag k="addr:street" v="Silverdale Avenue"/>
    <tag k="addr:village" v="Coton"/>
    <tag k="building" v="house"/>
    <tag k="building:levels" v="2"/>
  </way>
  <way id="562329995" version="2" timestamp="2019-02-04T10:44:45Z" changeset="66899076" uid="5173844" user="ndrw6">
    <nd ref="5421252344"/>
    <nd ref="5421252343"/>
    <nd ref="5421252345"/>
    <nd ref="5421252346"/>
    <nd ref="5421252344"/>
    <tag k="addr:city" v="Cambridge"/>
    <tag k="addr:housenumber" v="35"/>
    <tag k="addr:postcode" v="CB23 7PP"/>
    <tag k="addr:street" v="Silverdale Avenue"/>
    <tag k="addr:village" v="Coton"/>
    <tag k="building" v="house"/>
    <tag k="building:levels" v="2"/>
  </way>
  <way id="562329996" version="3" timestamp="2020-04-26T23:55:13Z" changeset="84161958" uid="5173844" user="ndrw6">
    <nd ref="7450583154"/>
    <nd ref="7450583156"/>
    <nd ref="7450583155"/>
    <nd ref="7450583153"/>
    <nd ref="7450583154"/>
    <tag k="addr:city" v="Cambridge"/>
    <tag k="addr:housenumber" v="31"/>
    <tag k="addr:postcode" v="CB23 7PP"/>
    <tag k="addr:street" v="Silverdale Avenue"/>
    <tag k="addr:village" v="Coton"/>
    <tag k="building" v="house"/>
    <tag k="building:levels" v="2"/>
  </way>
  <way id="562329998" version="2" timestamp="2019-02-04T10:44:45Z" changeset="66899076" uid="5173844" user="ndrw6">
    <nd ref="5421252353"/>
    <nd ref="5421252354"/>
    <nd ref="5421252355"/>
    <nd ref="5421252356"/>
    <nd ref="5421252353"/>
    <tag k="addr:city" v="Cambridge"/>
    <tag k="addr:housenumber" v="29"/>
    <tag k="addr:postcode" v="CB23 7PP"/>
    <tag k="addr:street" v="Silverdale Avenue"/>
    <tag k="addr:village" v="Coton"/>
    <tag k="building" v="house"/>
    <tag k="building:levels" v="2"/>
  </way>
  <way id="562329999" version="2" timestamp="2019-02-04T10:44:45Z" changeset="66899076" uid="5173844" user="ndrw6">
    <nd ref="5421252357"/>
    <nd ref="5421252358"/>
    <nd ref="5421252354"/>
    <nd ref="5421252353"/>
    <nd ref="5421252357"/>
    <tag k="addr:city" v="Cambridge"/>
    <tag k="addr:housenumber" v="28"/>
    <tag k="addr:postcode" v="CB23 7PP"/>
    <tag k="addr:street" v="Silverdale Avenue"/>
    <tag k="addr:village" v="Coton"/>
    <tag k="building" v="house"/>
    <tag k="building:levels" v="2"/>
  </way>
  <way id="562330000" version="2" timestamp="2019-02-04T10:44:45Z" changeset="66899076" uid="5173844" user="ndrw6">
    <nd ref="5421252359"/>
    <nd ref="5421252360"/>
    <nd ref="5421252361"/>
    <nd ref="5421252362"/>
    <nd ref="5421252359"/>
    <tag k="addr:city" v="Cambridge"/>
    <tag k="addr:housenumber" v="27"/>
    <tag k="addr:postcode" v="CB23 7PP"/>
    <tag k="addr:street" v="Silverdale Avenue"/>
    <tag k="addr:village" v="Coton"/>
    <tag k="building" v="house"/>
    <tag k="building:levels" v="2"/>
  </way>
  <way id="562330001" version="2" timestamp="2019-02-04T10:44:45Z" changeset="66899076" uid="5173844" user="ndrw6">
    <nd ref="5421252363"/>
    <nd ref="5421252364"/>
    <nd ref="5421252360"/>
    <nd ref="5421252359"/>
    <nd ref="5421252363"/>
    <tag k="addr:city" v="Cambridge"/>
    <tag k="addr:housenumber" v="26"/>
    <tag k="addr:postcode" v="CB23 7PP"/>
    <tag k="addr:street" v="Silverdale Avenue"/>
    <tag k="addr:village" v="Coton"/>
    <tag k="building" v="house"/>
    <tag k="building:levels" v="2"/>
  </way>
  <way id="562330003" version="3" timestamp="2020-04-26T23:55:13Z" changeset="84161958" uid="5173844" user="ndrw6">
    <nd ref="7450583105"/>
    <nd ref="7450583109"/>
    <nd ref="7450583108"/>
    <nd ref="7450583104"/>
    <nd ref="7450583105"/>
    <tag k="addr:city" v="Cambridge"/>
    <tag k="addr:housenumber" v="16"/>
    <tag k="addr:postcode" v="CB23 7PP"/>
    <tag k="addr:street" v="Silverdale Avenue"/>
    <tag k="addr:village" v="Coton"/>
    <tag k="building" v="house"/>
    <tag k="building:levels" v="2"/>
  </way>
  <way id="562330005" version="3" timestamp="2020-04-26T23:55:13Z" changeset="84161958" uid="5173844" user="ndrw6">
    <nd ref="7450583110"/>
    <nd ref="7450583114"/>
    <nd ref="7450583115"/>
    <nd ref="7450583111"/>
    <nd ref="7450583110"/>
    <tag k="addr:city" v="Cambridge"/>
    <tag k="addr:housenumber" v="20"/>
    <tag k="addr:postcode" v="CB23 7PP"/>
    <tag k="addr:street" v="Silverdale Avenue"/>
    <tag k="addr:village" v="Coton"/>
    <tag k="building" v="house"/>
    <tag k="building:levels" v="2"/>
  </way>
  <way id="562330007" version="3" timestamp="2020-04-26T23:55:13Z" changeset="84161958" uid="5173844" user="ndrw6">
    <nd ref="7450583116"/>
    <nd ref="7450583120"/>
    <nd ref="7450583121"/>
    <nd ref="7450583117"/>
    <nd ref="7450583116"/>
    <tag k="addr:city" v="Cambridge"/>
    <tag k="addr:housenumber" v="24"/>
    <tag k="addr:postcode" v="CB23 7PP"/>
    <tag k="addr:street" v="Silverdale Avenue"/>
    <tag k="addr:village" v="Coton"/>
    <tag k="building" v="house"/>
    <tag k="building:levels" v="2"/>
  </way>
  <way id="562330009" version="3" timestamp="2020-05-09T19:44:35Z" changeset="84949436" uid="5173844" user="ndrw6">
    <nd ref="5421252384"/>
    <nd ref="5421252385"/>
    <nd ref="5421252386"/>
    <nd ref="5421252387"/>
    <nd ref="5421252384"/>
    <tag k="addr:city" v="Cambridge"/>
    <tag k="addr:housenumber" v="14a"/>
    <tag k="addr:postcode" v="CB23 7PP"/>
    <tag k="addr:street" v="Silverdale Avenue"/>
    <tag k="addr:village" v="Coton"/>
    <tag k="building" v="house"/>
    <tag k="building:levels" v="2"/>
  </way>
  <way id="562330011" version="2" timestamp="2019-02-04T10:44:46Z" changeset="66899076" uid="5173844" user="ndrw6">
    <nd ref="5421252400"/>
    <nd ref="5421252401"/>
    <nd ref="5421252402"/>
    <nd ref="5421252403"/>
    <nd ref="5421252400"/>
    <tag k="addr:city" v="Cambridge"/>
    <tag k="addr:housenumber" v="7"/>
    <tag k="addr:postcode" v="CB23 7PT"/>
    <tag k="addr:street" v="Brookfield Road"/>
    <tag k="addr:village" v="Coton"/>
    <tag k="building" v="house"/>
    <tag k="building:levels" v="1"/>
  </way>
  <way id="562330012" version="2" timestamp="2019-02-04T10:44:46Z" changeset="66899076" uid="5173844" user="ndrw6">
    <nd ref="5421252404"/>
    <nd ref="5421252405"/>
    <nd ref="5421252406"/>
    <nd ref="5421252407"/>
    <nd ref="5421252404"/>
    <tag k="addr:city" v="Cambridge"/>
    <tag k="addr:housenumber" v="5"/>
    <tag k="addr:postcode" v="CB23 7PT"/>
    <tag k="addr:street" v="Brookfield Road"/>
    <tag k="addr:village" v="Coton"/>
    <tag k="building" v="house"/>
    <tag k="building:levels" v="1"/>
  </way>
  <way id="562330013" version="2" timestamp="2019-02-04T10:44:46Z" changeset="66899076" uid="5173844" user="ndrw6">
    <nd ref="5421252408"/>
    <nd ref="5421252409"/>
    <nd ref="5421252410"/>
    <nd ref="5421252411"/>
    <nd ref="5421252408"/>
    <tag k="addr:city" v="Cambridge"/>
    <tag k="addr:housenumber" v="2"/>
    <tag k="addr:postcode" v="CB23 7PU"/>
    <tag k="addr:street" v="St John's Road"/>
    <tag k="addr:village" v="Coton"/>
    <tag k="building" v="house"/>
    <tag k="building:levels" v="1"/>
  </way>
  <way id="562330014" version="2" timestamp="2019-02-04T10:44:46Z" changeset="66899076" uid="5173844" user="ndrw6">
    <nd ref="5421252412"/>
    <nd ref="5421252413"/>
    <nd ref="5421252414"/>
    <nd ref="5421252415"/>
    <nd ref="5421252412"/>
    <tag k="addr:city" v="Cambridge"/>
    <tag k="addr:housenumber" v="3"/>
    <tag k="addr:postcode" v="CB23 7PU"/>
    <tag k="addr:street" v="St John's Road"/>
    <tag k="addr:village" v="Coton"/>
    <tag k="building" v="house"/>
    <tag k="building:levels" v="2"/>
  </way>
  <way id="562330015" version="2" timestamp="2019-02-04T10:44:46Z" changeset="66899076" uid="5173844" user="ndrw6">
    <nd ref="5421252416"/>
    <nd ref="5421252417"/>
    <nd ref="5421252418"/>
    <nd ref="5421252419"/>
    <nd ref="5421252416"/>
    <tag k="addr:city" v="Cambridge"/>
    <tag k="addr:housenumber" v="4"/>
    <tag k="addr:postcode" v="CB23 7PU"/>
    <tag k="addr:street" v="St John's Road"/>
    <tag k="addr:village" v="Coton"/>
    <tag k="building" v="house"/>
    <tag k="building:levels" v="2"/>
  </way>
  <way id="562330016" version="2" timestamp="2019-02-04T10:44:46Z" changeset="66899076" uid="5173844" user="ndrw6">
    <nd ref="5421252420"/>
    <nd ref="5421252421"/>
    <nd ref="5421252422"/>
    <nd ref="5421252423"/>
    <nd ref="5421252425"/>
    <nd ref="5421252424"/>
    <nd ref="5421252420"/>
    <tag k="addr:city" v="Cambridge"/>
    <tag k="addr:housenumber" v="5"/>
    <tag k="addr:postcode" v="CB23 7PU"/>
    <tag k="addr:street" v="St John's Road"/>
    <tag k="addr:village" v="Coton"/>
    <tag k="building" v="house"/>
    <tag k="building:levels" v="2"/>
  </way>
  <way id="562330018" version="2" timestamp="2019-02-04T10:44:47Z" changeset="66899076" uid="5173844" user="ndrw6">
    <nd ref="5421252426"/>
    <nd ref="5421252427"/>
    <nd ref="5421252428"/>
    <nd ref="5421252429"/>
    <nd ref="5421252426"/>
    <tag k="addr:city" v="Cambridge"/>
    <tag k="addr:housenumber" v="7"/>
    <tag k="addr:postcode" v="CB23 7PU"/>
    <tag k="addr:street" v="St John's Road"/>
    <tag k="addr:village" v="Coton"/>
    <tag k="building" v="house"/>
    <tag k="building:levels" v="2"/>
  </way>
  <way id="562330020" version="2" timestamp="2019-02-04T10:44:47Z" changeset="66899076" uid="5173844" user="ndrw6">
    <nd ref="5421252430"/>
    <nd ref="5421252431"/>
    <nd ref="5421252427"/>
    <nd ref="5421252426"/>
    <nd ref="5421252430"/>
    <tag k="addr:city" v="Cambridge"/>
    <tag k="addr:housenumber" v="8"/>
    <tag k="addr:postcode" v="CB23 7PU"/>
    <tag k="addr:street" v="St John's Road"/>
    <tag k="addr:village" v="Coton"/>
    <tag k="building" v="house"/>
    <tag k="building:levels" v="2"/>
  </way>
  <way id="562330022" version="2" timestamp="2019-02-04T10:44:47Z" changeset="66899076" uid="5173844" user="ndrw6">
    <nd ref="5421252432"/>
    <nd ref="5421252433"/>
    <nd ref="5421252434"/>
    <nd ref="5421252435"/>
    <nd ref="5421252432"/>
    <tag k="addr:city" v="Cambridge"/>
    <tag k="addr:housenumber" v="11"/>
    <tag k="addr:postcode" v="CB23 7PU"/>
    <tag k="addr:street" v="St John's Road"/>
    <tag k="addr:village" v="Coton"/>
    <tag k="building" v="house"/>
    <tag k="building:levels" v="2"/>
  </way>
  <way id="562330024" version="2" timestamp="2019-02-04T10:44:47Z" changeset="66899076" uid="5173844" user="ndrw6">
    <nd ref="5421252435"/>
    <nd ref="5421252434"/>
    <nd ref="5421252436"/>
    <nd ref="5421252437"/>
    <nd ref="5421252435"/>
    <tag k="addr:city" v="Cambridge"/>
    <tag k="addr:housenumber" v="10"/>
    <tag k="addr:postcode" v="CB23 7PU"/>
    <tag k="addr:street" v="St John's Road"/>
    <tag k="addr:village" v="Coton"/>
    <tag k="building" v="house"/>
    <tag k="building:levels" v="2"/>
  </way>
  <way id="562330026" version="2" timestamp="2019-02-04T10:44:47Z" changeset="66899076" uid="5173844" user="ndrw6">
    <nd ref="5421252438"/>
    <nd ref="5421252439"/>
    <nd ref="5421252440"/>
    <nd ref="5421252441"/>
    <nd ref="5421252438"/>
    <tag k="addr:city" v="Cambridge"/>
    <tag k="addr:housenumber" v="14"/>
    <tag k="addr:postcode" v="CB23 7PU"/>
    <tag k="addr:street" v="St John's Road"/>
    <tag k="addr:village" v="Coton"/>
    <tag k="building" v="house"/>
    <tag k="building:levels" v="2"/>
  </way>
  <way id="562330028" version="2" timestamp="2019-02-04T10:44:47Z" changeset="66899076" uid="5173844" user="ndrw6">
    <nd ref="5421252442"/>
    <nd ref="5421252443"/>
    <nd ref="5421252444"/>
    <nd ref="5421252445"/>
    <nd ref="5421252442"/>
    <tag k="addr:city" v="Cambridge"/>
    <tag k="addr:housenumber" v="15"/>
    <tag k="addr:postcode" v="CB23 7PU"/>
    <tag k="addr:street" v="St John's Road"/>
    <tag k="addr:village" v="Coton"/>
    <tag k="building" v="house"/>
    <tag k="building:levels" v="2"/>
  </way>
  <way id="562330030" version="2" timestamp="2019-02-04T10:44:48Z" changeset="66899076" uid="5173844" user="ndrw6">
    <nd ref="5421252446"/>
    <nd ref="5421252447"/>
    <nd ref="5421252448"/>
    <nd ref="5421252449"/>
    <nd ref="5421252446"/>
    <tag k="addr:city" v="Cambridge"/>
    <tag k="addr:housenumber" v="16"/>
    <tag k="addr:postcode" v="CB23 7PU"/>
    <tag k="addr:street" v="St John's Road"/>
    <tag k="addr:village" v="Coton"/>
    <tag k="building" v="house"/>
    <tag k="building:levels" v="2"/>
  </way>
  <way id="562330032" version="2" timestamp="2019-02-04T10:44:48Z" changeset="66899076" uid="5173844" user="ndrw6">
    <nd ref="5421252450"/>
    <nd ref="5421252451"/>
    <nd ref="5421252452"/>
    <nd ref="5421252453"/>
    <nd ref="5421252450"/>
    <tag k="addr:city" v="Cambridge"/>
    <tag k="addr:housenumber" v="29"/>
    <tag k="addr:postcode" v="CB23 7PR"/>
    <tag k="addr:street" v="St Peter's Road"/>
    <tag k="addr:village" v="Coton"/>
    <tag k="building" v="house"/>
    <tag k="building:levels" v="2"/>
  </way>
  <way id="562330034" version="2" timestamp="2019-02-04T10:44:48Z" changeset="66899076" uid="5173844" user="ndrw6">
    <nd ref="5421252454"/>
    <nd ref="5421252455"/>
    <nd ref="5421252456"/>
    <nd ref="5421252457"/>
    <nd ref="5421252454"/>
    <tag k="addr:city" v="Cambridge"/>
    <tag k="addr:housenumber" v="27"/>
    <tag k="addr:postcode" v="CB23 7PR"/>
    <tag k="addr:street" v="St Peter's Road"/>
    <tag k="addr:village" v="Coton"/>
    <tag k="building" v="house"/>
    <tag k="building:levels" v="2"/>
  </way>
  <way id="562330037" version="2" timestamp="2019-02-04T10:44:48Z" changeset="66899076" uid="5173844" user="ndrw6">
    <nd ref="5421252458"/>
    <nd ref="5421252459"/>
    <nd ref="5421252460"/>
    <nd ref="5421252461"/>
    <nd ref="5421252458"/>
    <tag k="addr:city" v="Cambridge"/>
    <tag k="addr:housenumber" v="25"/>
    <tag k="addr:postcode" v="CB23 7PR"/>
    <tag k="addr:street" v="St Peter's Road"/>
    <tag k="addr:village" v="Coton"/>
    <tag k="building" v="house"/>
    <tag k="building:levels" v="2"/>
  </way>
  <way id="562330039" version="2" timestamp="2019-02-04T10:44:48Z" changeset="66899076" uid="5173844" user="ndrw6">
    <nd ref="5421252462"/>
    <nd ref="5421252463"/>
    <nd ref="5421252464"/>
    <nd ref="5421252465"/>
    <nd ref="5421252462"/>
    <tag k="addr:city" v="Cambridge"/>
    <tag k="addr:housenumber" v="23"/>
    <tag k="addr:postcode" v="CB23 7PR"/>
    <tag k="addr:street" v="St Peter's Road"/>
    <tag k="addr:village" v="Coton"/>
    <tag k="building" v="house"/>
    <tag k="building:levels" v="2"/>
  </way>
  <way id="562330040" version="2" timestamp="2019-02-04T10:44:48Z" changeset="66899076" uid="5173844" user="ndrw6">
    <nd ref="5421252466"/>
    <nd ref="5421252467"/>
    <nd ref="5421252468"/>
    <nd ref="5421252469"/>
    <nd ref="5421252466"/>
    <tag k="addr:city" v="Cambridge"/>
    <tag k="addr:housenumber" v="21"/>
    <tag k="addr:postcode" v="CB23 7PR"/>
    <tag k="addr:street" v="St Peter's Road"/>
    <tag k="addr:village" v="Coton"/>
    <tag k="building" v="house"/>
    <tag k="building:levels" v="1"/>
  </way>
  <way id="562330041" version="2" timestamp="2019-02-04T10:44:48Z" changeset="66899076" uid="5173844" user="ndrw6">
    <nd ref="5421252470"/>
    <nd ref="5421252471"/>
    <nd ref="5421252472"/>
    <nd ref="5421252473"/>
    <nd ref="5421252470"/>
    <tag k="addr:city" v="Cambridge"/>
    <tag k="addr:housenumber" v="19"/>
    <tag k="addr:postcode" v="CB23 7PR"/>
    <tag k="addr:street" v="St Peter's Road"/>
    <tag k="addr:village" v="Coton"/>
    <tag k="building" v="house"/>
    <tag k="building:levels" v="1"/>
  </way>
  <way id="562330042" version="2" timestamp="2019-02-04T10:44:48Z" changeset="66899076" uid="5173844" user="ndrw6">
    <nd ref="5421252474"/>
    <nd ref="5421252475"/>
    <nd ref="5421252476"/>
    <nd ref="5421252477"/>
    <nd ref="5421252474"/>
    <tag k="addr:city" v="Cambridge"/>
    <tag k="addr:housenumber" v="15"/>
    <tag k="addr:postcode" v="CB23 7PR"/>
    <tag k="addr:street" v="St Peter's Road"/>
    <tag k="addr:village" v="Coton"/>
    <tag k="building" v="house"/>
    <tag k="building:levels" v="1"/>
  </way>
  <way id="562330043" version="2" timestamp="2019-02-04T10:44:49Z" changeset="66899076" uid="5173844" user="ndrw6">
    <nd ref="2504075585"/>
    <nd ref="5421252478"/>
    <nd ref="5421252479"/>
    <nd ref="2504076194"/>
    <nd ref="2504075585"/>
    <tag k="addr:city" v="Cambridge"/>
    <tag k="addr:housenumber" v="11"/>
    <tag k="addr:postcode" v="CB23 7PR"/>
    <tag k="addr:street" v="St Peter's Road"/>
    <tag k="addr:village" v="Coton"/>
    <tag k="building" v="house"/>
    <tag k="building:levels" v="2"/>
  </way>
  <way id="562330044" version="2" timestamp="2019-02-04T10:44:49Z" changeset="66899076" uid="5173844" user="ndrw6">
    <nd ref="5421252480"/>
    <nd ref="5421252481"/>
    <nd ref="5421252482"/>
    <nd ref="5421252483"/>
    <nd ref="5421252480"/>
    <tag k="addr:city" v="Cambridge"/>
    <tag k="addr:housenumber" v="5"/>
    <tag k="addr:postcode" v="CB23 7PR"/>
    <tag k="addr:street" v="St Peter's Road"/>
    <tag k="addr:village" v="Coton"/>
    <tag k="building" v="house"/>
    <tag k="building:levels" v="2"/>
  </way>
  <way id="562330045" version="2" timestamp="2019-02-04T10:44:49Z" changeset="66899076" uid="5173844" user="ndrw6">
    <nd ref="2504076324"/>
    <nd ref="5421252484"/>
    <nd ref="5421252485"/>
    <nd ref="5421252486"/>
    <nd ref="2504076324"/>
    <tag k="addr:city" v="Cambridge"/>
    <tag k="addr:housenumber" v="1"/>
    <tag k="addr:postcode" v="CB23 7PR"/>
    <tag k="addr:street" v="St Peter's Road"/>
    <tag k="addr:village" v="Coton"/>
    <tag k="building" v="house"/>
    <tag k="building:levels" v="2"/>
  </way>
  <way id="562330046" version="2" timestamp="2019-02-04T10:44:49Z" changeset="66899076" uid="5173844" user="ndrw6">
    <nd ref="5421252487"/>
    <nd ref="5421252488"/>
    <nd ref="5421252489"/>
    <nd ref="5421252490"/>
    <nd ref="5421252487"/>
    <tag k="addr:city" v="Cambridge"/>
    <tag k="addr:housenumber" v="6"/>
    <tag k="addr:postcode" v="CB23 7PR"/>
    <tag k="addr:street" v="St Peter's Road"/>
    <tag k="addr:village" v="Coton"/>
    <tag k="building" v="house"/>
    <tag k="building:levels" v="1"/>
  </way>
  <way id="616597510" version="3" timestamp="2019-02-04T10:45:24Z" changeset="66899076" uid="5173844" user="ndrw6">
    <nd ref="5829431310"/>
    <nd ref="2504076170"/>
    <nd ref="2504076237"/>
    <nd ref="5829431309"/>
    <nd ref="5829431310"/>
    <tag k="addr:city" v="Cambridge"/>
    <tag k="addr:housenumber" v="10"/>
    <tag k="addr:postcode" v="CB23 7PS"/>
    <tag k="addr:street" v="Benny's Way"/>
    <tag k="addr:village" v="Coton"/>
    <tag k="building" v="house"/>
  </way>
  <way id="616597513" version="3" timestamp="2019-02-04T10:45:24Z" changeset="66899076" uid="5173844" user="ndrw6">
    <nd ref="5829431312"/>
    <nd ref="2504076006"/>
    <nd ref="2504075641"/>
    <nd ref="5829431311"/>
    <nd ref="5829431312"/>
    <tag k="addr:city" v="Cambridge"/>
    <tag k="addr:housenumber" v="5"/>
    <tag k="addr:postcode" v="CB23 7PS"/>
    <tag k="addr:street" v="Benny's Way"/>
    <tag k="addr:village" v="Coton"/>
    <tag k="building" v="house"/>
  </way>
  <way id="693906811" version="2" timestamp="2020-05-09T19:44:35Z" changeset="84949436" uid="5173844" user="ndrw6">
    <nd ref="6514970711"/>
    <nd ref="6514970708"/>
    <nd ref="6514970709"/>
    <nd ref="6514970710"/>
    <nd ref="6514970711"/>
    <tag k="addr:city" v="Cambridge"/>
    <tag k="addr:housenumber" v="10"/>
    <tag k="addr:postcode" v="CB23 7PP"/>
    <tag k="addr:street" v="Silverdale Avenue"/>
    <tag k="addr:village" v="Coton"/>
    <tag k="building" v="house"/>
  </way>
  <way id="693906812" version="2" timestamp="2020-05-09T19:44:35Z" changeset="84949436" uid="5173844" user="ndrw6">
    <nd ref="6514970715"/>
    <nd ref="6514970712"/>
    <nd ref="6514970713"/>
    <nd ref="6514970714"/>
    <nd ref="6514970715"/>
    <tag k="addr:city" v="Cambridge"/>
    <tag k="addr:housenumber" v="13c"/>
    <tag k="addr:postcode" v="CB23 7PP"/>
    <tag k="addr:street" v="Silverdale Avenue"/>
    <tag k="addr:village" v="Coton"/>
    <tag k="building" v="house"/>
  </way>
  <way id="796674275" version="3" timestamp="2023-02-01T13:14:11Z" changeset="131963283" uid="2969887" user="eastender">
    <nd ref="7450578567"/>
    <nd ref="2504025546"/>
    <nd ref="2504024722"/>
    <nd ref="7450578568"/>
    <nd ref="7450578567"/>
    <tag k="addr:city" v="Cambridge"/>
    <tag k="addr:housenumber" v="4"/>
    <tag k="addr:postcode" v="CB23 7GX"/>
    <tag k="addr:street" v="Peake's Court"/>
    <tag k="addr:village" v="Coton"/>
    <tag k="building" v="residential"/>
  </way>
  <way id="796674276" version="3" timestamp="2023-02-01T13:14:11Z" changeset="131963283" uid="2969887" user="eastender">
    <nd ref="7450578570"/>
    <nd ref="2504024912"/>
    <nd ref="2504025168"/>
    <nd ref="7450578569"/>
    <nd ref="7450578570"/>
    <tag k="addr:city" v="Cambridge"/>
    <tag k="addr:housenumber" v="1"/>
    <tag k="addr:postcode" v="CB23 7GX"/>
    <tag k="addr:street" v="Peake's Court"/>
    <tag k="addr:village" v="Coton"/>
    <tag k="building" v="residential"/>
  </way>
  <way id="796674277" version="3" timestamp="2023-02-01T13:14:11Z" changeset="131963283" uid="2969887" user="eastender">
    <nd ref="7450578568"/>
    <nd ref="7450578572"/>
    <nd ref="7450578571"/>
    <nd ref="7450578567"/>
    <nd ref="7450578568"/>
    <tag k="addr:city" v="Cambridge"/>
    <tag k="addr:housenumber" v="3"/>
    <tag k="addr:postcode" v="CB23 7GX"/>
    <tag k="addr:street" v="Peake's Court"/>
    <tag k="addr:village" v="Coton"/>
    <tag k="building" v="residential"/>
  </way>
  <way id="796674285" version="1" timestamp="2020-04-26T23:55:13Z" changeset="84161958" uid="5173844" user="ndrw6">
    <nd ref="2504025499"/>
    <nd ref="2504024758"/>
    <nd ref="2504024869"/>
    <nd ref="7450582695"/>
    <nd ref="2504025499"/>
    <tag k="addr:city" v="Cambridge"/>
    <tag k="addr:housenumber" v="76"/>
    <tag k="addr:postcode" v="CB23 7PL"/>
    <tag k="addr:street" v="High Street"/>
    <tag k="addr:village" v="Coton"/>
    <tag k="building" v="house"/>
  </way>
  <way id="796674286" version="2" timestamp="2020-10-10T23:41:08Z" changeset="92289177" uid="5173844" user="ndrw6">
    <nd ref="7450582696"/>
    <nd ref="2504024854"/>
    <nd ref="7996105936"/>
    <nd ref="5280778585"/>
    <nd ref="5280778584"/>
    <nd ref="7450582696"/>
    <tag k="addr:city" v="Cambridge"/>
    <tag k="addr:housenumber" v="72"/>
    <tag k="addr:postcode" v="CB23 7PL"/>
    <tag k="addr:street" v="High Street"/>
    <tag k="addr:village" v="Coton"/>
    <tag k="building" v="house"/>
  </way>
  <way id="796674288" version="2" timestamp="2023-07-15T17:27:20Z" changeset="138553324" uid="5173844" user="ndrw6">
    <nd ref="7450582700"/>
    <nd ref="2504033974"/>
    <nd ref="2504033970"/>
    <nd ref="7450582701"/>
    <nd ref="7450582700"/>
    <tag k="addr:city" v="Cambridge"/>
    <tag k="addr:housenumber" v="17"/>
    <tag k="addr:postcode" v="CB23 7PJ"/>
    <tag k="addr:street" v="Cambridge Road"/>
    <tag k="addr:village" v="Coton"/>
    <tag k="building" v="house"/>
  </way>
  <way id="796674291" version="2" timestamp="2023-07-15T17:27:20Z" changeset="138553324" uid="5173844" user="ndrw6">
    <nd ref="7450582706"/>
    <nd ref="2504033698"/>
    <nd ref="2504033859"/>
    <nd ref="7450582707"/>
    <nd ref="7450582706"/>
    <tag k="addr:city" v="Cambridge"/>
    <tag k="addr:housenumber" v="13"/>
    <tag k="addr:postcode" v="CB23 7PJ"/>
    <tag k="addr:street" v="Cambridge Road"/>
    <tag k="addr:village" v="Coton"/>
    <tag k="building" v="house"/>
  </way>
  <way id="796674294" version="2" timestamp="2023-07-15T17:27:20Z" changeset="138553324" uid="5173844" user="ndrw6">
    <nd ref="7450582712"/>
    <nd ref="2504033854"/>
    <nd ref="2504033957"/>
    <nd ref="7450582713"/>
    <nd ref="7450582712"/>
    <tag k="addr:city" v="Cambridge"/>
    <tag k="addr:housenumber" v="9"/>
    <tag k="addr:postcode" v="CB23 7PJ"/>
    <tag k="addr:street" v="Cambridge Road"/>
    <tag k="addr:village" v="Coton"/>
    <tag k="building" v="house"/>
  </way>
  <way id="796674297" version="2" timestamp="2023-07-15T17:27:20Z" changeset="138553324" uid="5173844" user="ndrw6">
    <nd ref="7450582718"/>
    <nd ref="2504033862"/>
    <nd ref="2504033707"/>
    <nd ref="7450582719"/>
    <nd ref="7450582718"/>
    <tag k="addr:city" v="Cambridge"/>
    <tag k="addr:housenumber" v="5"/>
    <tag k="addr:postcode" v="CB23 7PJ"/>
    <tag k="addr:street" v="Cambridge Road"/>
    <tag k="addr:village" v="Coton"/>
    <tag k="building" v="house"/>
  </way>
  <way id="796674302" version="2" timestamp="2023-07-15T17:27:20Z" changeset="138553324" uid="5173844" user="ndrw6">
    <nd ref="7450582726"/>
    <nd ref="2504024764"/>
    <nd ref="2504025246"/>
    <nd ref="2504024889"/>
    <nd ref="7450582726"/>
    <tag k="addr:city" v="Cambridge"/>
    <tag k="addr:housenumber" v="3"/>
    <tag k="addr:postcode" v="CB23 7PJ"/>
    <tag k="addr:street" v="Cambridge Road"/>
    <tag k="addr:village" v="Coton"/>
    <tag k="building" v="house"/>
  </way>
  <way id="796674306" version="1" timestamp="2020-04-26T23:55:13Z" changeset="84161958" uid="5173844" user="ndrw6">
    <nd ref="7450582731"/>
    <nd ref="2504025342"/>
    <nd ref="2504025350"/>
    <nd ref="7450582732"/>
    <nd ref="7450582731"/>
    <tag k="addr:city" v="Cambridge"/>
    <tag k="addr:housenumber" v="44"/>
    <tag k="addr:postcode" v="CB23 7PL"/>
    <tag k="addr:street" v="High Street"/>
    <tag k="addr:village" v="Coton"/>
    <tag k="building" v="residential"/>
    <tag k="wikidata" v="Q26456180"/>
  </way>
  <way id="796674307" version="1" timestamp="2020-04-26T23:55:13Z" changeset="84161958" uid="5173844" user="ndrw6">
    <nd ref="2504025330"/>
    <nd ref="2504024988"/>
    <nd ref="2504025604"/>
    <nd ref="7450582733"/>
    <nd ref="2504025330"/>
    <tag k="addr:city" v="Cambridge"/>
    <tag k="addr:housenumber" v="52"/>
    <tag k="addr:postcode" v="CB23 7PL"/>
    <tag k="addr:street" v="High Street"/>
    <tag k="addr:village" v="Coton"/>
    <tag k="building" v="house"/>
  </way>
  <way id="796674325" version="1" timestamp="2020-04-26T23:55:13Z" changeset="84161958" uid="5173844" user="ndrw6">
    <nd ref="7450582792"/>
    <nd ref="2504025699"/>
    <nd ref="2504024786"/>
    <nd ref="7450582791"/>
    <nd ref="7450582792"/>
    <tag k="addr:city" v="Cambridge"/>
    <tag k="addr:housenumber" v="55"/>
    <tag k="addr:postcode" v="CB23 7PX"/>
    <tag k="addr:street" v="The Footpath"/>
    <tag k="addr:village" v="Coton"/>
    <tag k="building" v="house"/>
  </way>
  <way id="796674326" version="1" timestamp="2020-04-26T23:55:13Z" changeset="84161958" uid="5173844" user="ndrw6">
    <nd ref="7450582791"/>
    <nd ref="7450582793"/>
    <nd ref="7450582794"/>
    <nd ref="7450582792"/>
    <nd ref="7450582791"/>
    <tag k="addr:city" v="Cambridge"/>
    <tag k="addr:housenumber" v="53"/>
    <tag k="addr:postcode" v="CB23 7PX"/>
    <tag k="addr:street" v="The Footpath"/>
    <tag k="addr:village" v="Coton"/>
    <tag k="building" v="house"/>
  </way>
  <way id="796674327" version="1" timestamp="2020-04-26T23:55:13Z" changeset="84161958" uid="5173844" user="ndrw6">
    <nd ref="7450582795"/>
    <nd ref="7450582799"/>
    <nd ref="7450582800"/>
    <nd ref="7450582796"/>
    <nd ref="7450582795"/>
    <tag k="addr:city" v="Cambridge"/>
    <tag k="addr:housenumber" v="6"/>
    <tag k="addr:postcode" v="CB23 7PY"/>
    <tag k="addr:street" v="Brook Lane"/>
    <tag k="addr:village" v="Coton"/>
    <tag k="building" v="house"/>
  </way>
  <way id="796674328" version="1" timestamp="2020-04-26T23:55:13Z" changeset="84161958" uid="5173844" user="ndrw6">
    <nd ref="7450582797"/>
    <nd ref="2504033757"/>
    <nd ref="2504033716"/>
    <nd ref="7450582798"/>
    <nd ref="7450582797"/>
    <tag k="addr:city" v="Cambridge"/>
    <tag k="addr:housenumber" v="2"/>
    <tag k="addr:postcode" v="CB23 7PY"/>
    <tag k="addr:street" v="Brook Lane"/>
    <tag k="addr:village" v="Coton"/>
    <tag k="building" v="house"/>
  </way>
  <way id="796674329" version="1" timestamp="2020-04-26T23:55:13Z" changeset="84161958" uid="5173844" user="ndrw6">
    <nd ref="7450582798"/>
    <nd ref="7450582800"/>
    <nd ref="7450582799"/>
    <nd ref="7450582797"/>
    <nd ref="7450582798"/>
    <tag k="addr:city" v="Cambridge"/>
    <tag k="addr:housenumber" v="4"/>
    <tag k="addr:postcode" v="CB23 7PY"/>
    <tag k="addr:street" v="Brook Lane"/>
    <tag k="addr:village" v="Coton"/>
    <tag k="building" v="house"/>
  </way>
  <way id="796674330" version="1" timestamp="2020-04-26T23:55:13Z" changeset="84161958" uid="5173844" user="ndrw6">
    <nd ref="7450582802"/>
    <nd ref="2504033927"/>
    <nd ref="2504033910"/>
    <nd ref="7450582803"/>
    <nd ref="7450582802"/>
    <tag k="addr:city" v="Cambridge"/>
    <tag k="addr:housenumber" v="7"/>
    <tag k="addr:postcode" v="CB23 7PL"/>
    <tag k="addr:street" v="High Street"/>
    <tag k="addr:village" v="Coton"/>
    <tag k="building" v="house"/>
  </way>
  <way id="796674331" version="2" timestamp="2020-10-10T23:41:08Z" changeset="92289177" uid="5173844" user="ndrw6">
    <nd ref="7450582804"/>
    <nd ref="7996105964"/>
    <nd ref="7996105963"/>
    <nd ref="2504033903"/>
    <nd ref="2504033797"/>
    <nd ref="7450582805"/>
    <nd ref="7450582804"/>
    <tag k="addr:city" v="Cambridge"/>
    <tag k="addr:housenumber" v="11"/>
    <tag k="addr:postcode" v="CB23 7PL"/>
    <tag k="addr:street" v="High Street"/>
    <tag k="addr:village" v="Coton"/>
    <tag k="building" v="house"/>
  </way>
  <way id="796674332" version="1" timestamp="2020-04-26T23:55:13Z" changeset="84161958" uid="5173844" user="ndrw6">
    <nd ref="7450582806"/>
    <nd ref="2504033938"/>
    <nd ref="2504033892"/>
    <nd ref="7450582807"/>
    <nd ref="7450582806"/>
    <tag k="addr:city" v="Cambridge"/>
    <tag k="addr:housenumber" v="20"/>
    <tag k="addr:postcode" v="CB23 7PL"/>
    <tag k="addr:street" v="High Street"/>
    <tag k="addr:village" v="Coton"/>
    <tag k="building" v="house"/>
  </way>
  <way id="796674333" version="1" timestamp="2020-04-26T23:55:13Z" changeset="84161958" uid="5173844" user="ndrw6">
    <nd ref="7450582809"/>
    <nd ref="2504033664"/>
    <nd ref="2504033746"/>
    <nd ref="7450582808"/>
    <nd ref="7450582809"/>
    <tag k="addr:city" v="Cambridge"/>
    <tag k="addr:housenumber" v="14"/>
    <tag k="addr:postcode" v="CB23 7PL"/>
    <tag k="addr:street" v="High Street"/>
    <tag k="addr:village" v="Coton"/>
    <tag k="building" v="house"/>
  </way>
  <way id="796674334" version="1" timestamp="2020-04-26T23:55:13Z" changeset="84161958" uid="5173844" user="ndrw6">
    <nd ref="7450582808"/>
    <nd ref="7450582810"/>
    <nd ref="7450582811"/>
    <nd ref="7450582809"/>
    <nd ref="7450582808"/>
    <tag k="addr:city" v="Cambridge"/>
    <tag k="addr:housenumber" v="16"/>
    <tag k="addr:postcode" v="CB23 7PL"/>
    <tag k="addr:street" v="High Street"/>
    <tag k="addr:village" v="Coton"/>
    <tag k="building" v="house"/>
  </way>
  <way id="796674339" version="2" timestamp="2022-10-21T11:08:30Z" changeset="127877149" uid="6476359" user="NSiecw">
    <nd ref="2504025161"/>
    <nd ref="2504025581"/>
    <nd ref="2504025049"/>
    <nd ref="7450582757"/>
    <nd ref="7450582759"/>
    <nd ref="7450582758"/>
    <nd ref="2504025161"/>
    <tag k="addr:city" v="Cambridge"/>
    <tag k="addr:housename" v="Dovecote Barn"/>
    <tag k="addr:postcode" v="CB23 7PL"/>
    <tag k="addr:street" v="High Street"/>
    <tag k="addr:village" v="Coton"/>
    <tag k="building" v="yes"/>
    <tag k="name" v="Dovecote Barn"/>
    <tag k="source:addr:housename" v="sign"/>
  </way>
  <way id="796674389" version="2" timestamp="2020-05-09T19:13:18Z" changeset="84948748" uid="5173844" user="ndrw6">
    <nd ref="7450582916"/>
    <nd ref="2504076075"/>
    <nd ref="2504075371"/>
    <nd ref="7450582917"/>
    <nd ref="7450582916"/>
    <tag k="addr:city" v="Cambridge"/>
    <tag k="addr:housenumber" v="93"/>
    <tag k="addr:postcode" v="CB23 7PW"/>
    <tag k="addr:street" v="Whitwell Way"/>
    <tag k="addr:village" v="Coton"/>
    <tag k="building" v="house"/>
  </way>
  <way id="796674450" version="1" timestamp="2020-04-26T23:55:13Z" changeset="84161958" uid="5173844" user="ndrw6">
    <nd ref="7450583104"/>
    <nd ref="5421252366"/>
    <nd ref="5421252367"/>
    <nd ref="7450583105"/>
    <nd ref="7450583104"/>
    <tag k="addr:city" v="Cambridge"/>
    <tag k="addr:housenumber" v="17"/>
    <tag k="addr:postcode" v="CB23 7PP"/>
    <tag k="addr:street" v="Silverdale Avenue"/>
    <tag k="addr:village" v="Coton"/>
    <tag k="building" v="house"/>
    <tag k="building:levels" v="2"/>
  </way>
  <way id="796674451" version="1" timestamp="2020-04-26T23:55:13Z" changeset="84161958" uid="5173844" user="ndrw6">
    <nd ref="7450583107"/>
    <nd ref="5421252368"/>
    <nd ref="5421252369"/>
    <nd ref="7450583106"/>
    <nd ref="7450583107"/>
    <tag k="addr:city" v="Cambridge"/>
    <tag k="addr:housenumber" v="14"/>
    <tag k="addr:postcode" v="CB23 7PP"/>
    <tag k="addr:street" v="Silverdale Avenue"/>
    <tag k="addr:village" v="Coton"/>
    <tag k="building" v="house"/>
    <tag k="building:levels" v="2"/>
  </way>
  <way id="796674452" version="1" timestamp="2020-04-26T23:55:13Z" changeset="84161958" uid="5173844" user="ndrw6">
    <nd ref="7450583106"/>
    <nd ref="7450583108"/>
    <nd ref="7450583109"/>
    <nd ref="7450583107"/>
    <nd ref="7450583106"/>
    <tag k="addr:city" v="Cambridge"/>
    <tag k="addr:housenumber" v="15"/>
    <tag k="addr:postcode" v="CB23 7PP"/>
    <tag k="addr:street" v="Silverdale Avenue"/>
    <tag k="addr:village" v="Coton"/>
    <tag k="building" v="house"/>
    <tag k="building:levels" v="2"/>
  </way>
  <way id="796674453" version="1" timestamp="2020-04-26T23:55:13Z" changeset="84161958" uid="5173844" user="ndrw6">
    <nd ref="7450583111"/>
    <nd ref="5421252372"/>
    <nd ref="5421252373"/>
    <nd ref="7450583110"/>
    <nd ref="7450583111"/>
    <tag k="addr:city" v="Cambridge"/>
    <tag k="addr:housenumber" v="21"/>
    <tag k="addr:postcode" v="CB23 7PP"/>
    <tag k="addr:street" v="Silverdale Avenue"/>
    <tag k="addr:village" v="Coton"/>
    <tag k="building" v="house"/>
    <tag k="building:levels" v="2"/>
  </way>
  <way id="796674454" version="1" timestamp="2020-04-26T23:55:13Z" changeset="84161958" uid="5173844" user="ndrw6">
    <nd ref="7450583112"/>
    <nd ref="5421252374"/>
    <nd ref="5421252375"/>
    <nd ref="7450583113"/>
    <nd ref="7450583112"/>
    <tag k="addr:city" v="Cambridge"/>
    <tag k="addr:housenumber" v="18"/>
    <tag k="addr:postcode" v="CB23 7PP"/>
    <tag k="addr:street" v="Silverdale Avenue"/>
    <tag k="addr:village" v="Coton"/>
    <tag k="building" v="house"/>
    <tag k="building:levels" v="2"/>
  </way>
  <way id="796674455" version="1" timestamp="2020-04-26T23:55:13Z" changeset="84161958" uid="5173844" user="ndrw6">
    <nd ref="7450583113"/>
    <nd ref="7450583115"/>
    <nd ref="7450583114"/>
    <nd ref="7450583112"/>
    <nd ref="7450583113"/>
    <tag k="addr:city" v="Cambridge"/>
    <tag k="addr:housenumber" v="19"/>
    <tag k="addr:postcode" v="CB23 7PP"/>
    <tag k="addr:street" v="Silverdale Avenue"/>
    <tag k="addr:village" v="Coton"/>
    <tag k="building" v="house"/>
    <tag k="building:levels" v="2"/>
  </way>
  <way id="796674456" version="1" timestamp="2020-04-26T23:55:13Z" changeset="84161958" uid="5173844" user="ndrw6">
    <nd ref="7450583117"/>
    <nd ref="5421252378"/>
    <nd ref="5421252379"/>
    <nd ref="7450583116"/>
    <nd ref="7450583117"/>
    <tag k="addr:city" v="Cambridge"/>
    <tag k="addr:housenumber" v="25"/>
    <tag k="addr:postcode" v="CB23 7PP"/>
    <tag k="addr:street" v="Silverdale Avenue"/>
    <tag k="addr:village" v="Coton"/>
    <tag k="building" v="house"/>
    <tag k="building:levels" v="2"/>
  </way>
  <way id="796674457" version="1" timestamp="2020-04-26T23:55:13Z" changeset="84161958" uid="5173844" user="ndrw6">
    <nd ref="7450583118"/>
    <nd ref="5421252380"/>
    <nd ref="5421252381"/>
    <nd ref="7450583119"/>
    <nd ref="7450583118"/>
    <tag k="addr:city" v="Cambridge"/>
    <tag k="addr:housenumber" v="22"/>
    <tag k="addr:postcode" v="CB23 7PP"/>
    <tag k="addr:street" v="Silverdale Avenue"/>
    <tag k="addr:village" v="Coton"/>
    <tag k="building" v="house"/>
    <tag k="building:levels" v="2"/>
  </way>
  <way id="796674458" version="1" timestamp="2020-04-26T23:55:13Z" changeset="84161958" uid="5173844" user="ndrw6">
    <nd ref="7450583119"/>
    <nd ref="7450583121"/>
    <nd ref="7450583120"/>
    <nd ref="7450583118"/>
    <nd ref="7450583119"/>
    <tag k="addr:city" v="Cambridge"/>
    <tag k="addr:housenumber" v="23"/>
    <tag k="addr:postcode" v="CB23 7PP"/>
    <tag k="addr:street" v="Silverdale Avenue"/>
    <tag k="addr:village" v="Coton"/>
    <tag k="building" v="house"/>
    <tag k="building:levels" v="2"/>
  </way>
  <way id="796674474" version="1" timestamp="2020-04-26T23:55:13Z" changeset="84161958" uid="5173844" user="ndrw6">
    <nd ref="7450583152"/>
    <nd ref="5421252349"/>
    <nd ref="5421252350"/>
    <nd ref="7450583151"/>
    <nd ref="7450583152"/>
    <tag k="addr:city" v="Cambridge"/>
    <tag k="addr:housenumber" v="33"/>
    <tag k="addr:postcode" v="CB23 7PP"/>
    <tag k="addr:street" v="Silverdale Avenue"/>
    <tag k="addr:village" v="Coton"/>
    <tag k="building" v="house"/>
    <tag k="building:levels" v="2"/>
  </way>
  <way id="796674475" version="1" timestamp="2020-04-26T23:55:13Z" changeset="84161958" uid="5173844" user="ndrw6">
    <nd ref="7450583153"/>
    <nd ref="5421252348"/>
    <nd ref="5421252347"/>
    <nd ref="7450583154"/>
    <nd ref="7450583153"/>
    <tag k="addr:city" v="Cambridge"/>
    <tag k="addr:housenumber" v="30"/>
    <tag k="addr:postcode" v="CB23 7PP"/>
    <tag k="addr:street" v="Silverdale Avenue"/>
    <tag k="addr:village" v="Coton"/>
    <tag k="building" v="house"/>
    <tag k="building:levels" v="2"/>
  </way>
  <way id="796674476" version="1" timestamp="2020-04-26T23:55:13Z" changeset="84161958" uid="5173844" user="ndrw6">
    <nd ref="7450583151"/>
    <nd ref="7450583155"/>
    <nd ref="7450583156"/>
    <nd ref="7450583152"/>
    <nd ref="7450583151"/>
    <tag k="addr:city" v="Cambridge"/>
    <tag k="addr:housenumber" v="32"/>
    <tag k="addr:postcode" v="CB23 7PP"/>
    <tag k="addr:street" v="Silverdale Avenue"/>
    <tag k="addr:village" v="Coton"/>
    <tag k="building" v="house"/>
    <tag k="building:levels" v="2"/>
  </way>
  <way id="796674504" version="2" timestamp="2020-05-09T19:44:35Z" changeset="84949436" uid="5173844" user="ndrw6">
    <nd ref="7450583262"/>
    <nd ref="2504076097"/>
    <nd ref="2504076131"/>
    <nd ref="7450583263"/>
    <nd ref="7450583262"/>
    <tag k="addr:city" v="Cambridge"/>
    <tag k="addr:housenumber" v="4"/>
    <tag k="addr:postcode" v="CB23 7PP"/>
    <tag k="addr:street" v="Silverdale Avenue"/>
    <tag k="addr:village" v="Coton"/>
    <tag k="building" v="house"/>
  </way>
  <way id="796674527" version="1" timestamp="2020-04-26T23:55:13Z" changeset="84161958" uid="5173844" user="ndrw6">
    <nd ref="7450583322"/>
    <nd ref="2504076242"/>
    <nd ref="2504075457"/>
    <nd ref="7450583323"/>
    <nd ref="7450583322"/>
    <tag k="addr:city" v="Cambridge"/>
    <tag k="addr:housenumber" v="3"/>
    <tag k="addr:postcode" v="CB23 7PP"/>
    <tag k="addr:street" v="Silverdale Avenue"/>
    <tag k="addr:village" v="Coton"/>
    <tag k="building" v="house"/>
  </way>
  <way id="796674528" version="1" timestamp="2020-04-26T23:55:13Z" changeset="84161958" uid="5173844" user="ndrw6">
    <nd ref="7450583323"/>
    <nd ref="7450583325"/>
    <nd ref="7450583324"/>
    <nd ref="7450583322"/>
    <nd ref="7450583323"/>
    <tag k="addr:city" v="Cambridge"/>
    <tag k="addr:housenumber" v="2"/>
    <tag k="addr:postcode" v="CB23 7PP"/>
    <tag k="addr:street" v="Silverdale Avenue"/>
    <tag k="addr:village" v="Coton"/>
    <tag k="building" v="house"/>
  </way>
  <way id="796674547" version="1" timestamp="2020-04-26T23:55:13Z" changeset="84161958" uid="5173844" user="ndrw6">
    <nd ref="7450583371"/>
    <nd ref="2504075554"/>
    <nd ref="2504075632"/>
    <nd ref="7450583370"/>
    <nd ref="7450583371"/>
    <tag k="addr:city" v="Cambridge"/>
    <tag k="addr:housenumber" v="70"/>
    <tag k="addr:postcode" v="CB23 7PP"/>
    <tag k="addr:street" v="Silverdale Avenue"/>
    <tag k="addr:village" v="Coton"/>
    <tag k="building" v="house"/>
  </way>
  <way id="796674548" version="1" timestamp="2020-04-26T23:55:13Z" changeset="84161958" uid="5173844" user="ndrw6">
    <nd ref="7450583372"/>
    <nd ref="2504076083"/>
    <nd ref="2504076338"/>
    <nd ref="7450583373"/>
    <nd ref="7450583372"/>
    <tag k="addr:city" v="Cambridge"/>
    <tag k="addr:housenumber" v="67"/>
    <tag k="addr:postcode" v="CB23 7PP"/>
    <tag k="addr:street" v="Silverdale Avenue"/>
    <tag k="addr:village" v="Coton"/>
    <tag k="building" v="house"/>
  </way>
  <way id="796674549" version="1" timestamp="2020-04-26T23:55:13Z" changeset="84161958" uid="5173844" user="ndrw6">
    <nd ref="7450583373"/>
    <nd ref="5421251852"/>
    <nd ref="5421251850"/>
    <nd ref="5421251851"/>
    <nd ref="7450583372"/>
    <nd ref="7450583373"/>
    <tag k="addr:city" v="Cambridge"/>
    <tag k="addr:housenumber" v="68"/>
    <tag k="addr:postcode" v="CB23 7PP"/>
    <tag k="addr:street" v="Silverdale Avenue"/>
    <tag k="addr:village" v="Coton"/>
    <tag k="building" v="house"/>
  </way>
  <way id="796674602" version="1" timestamp="2020-04-26T23:55:13Z" changeset="84161958" uid="5173844" user="ndrw6">
    <nd ref="7450583497"/>
    <nd ref="2504075555"/>
    <nd ref="2504076425"/>
    <nd ref="7450583496"/>
    <nd ref="7450583497"/>
    <tag k="addr:city" v="Cambridge"/>
    <tag k="addr:housenumber" v="89"/>
    <tag k="addr:postcode" v="CB23 7PW"/>
    <tag k="addr:street" v="Whitwell Way"/>
    <tag k="addr:village" v="Coton"/>
    <tag k="building" v="house"/>
    <tag k="building:levels" v="1"/>
  </way>
  <way id="796674603" version="1" timestamp="2020-04-26T23:55:13Z" changeset="84161958" uid="5173844" user="ndrw6">
    <nd ref="7450583499"/>
    <nd ref="2504075739"/>
    <nd ref="2504075379"/>
    <nd ref="7450583498"/>
    <nd ref="7450583499"/>
    <tag k="addr:city" v="Cambridge"/>
    <tag k="addr:housenumber" v="75"/>
    <tag k="addr:postcode" v="CB23 7PW"/>
    <tag k="addr:street" v="Whitwell Way"/>
    <tag k="addr:village" v="Coton"/>
    <tag k="building" v="house"/>
  </way>
  <way id="796674604" version="2" timestamp="2020-05-09T19:13:18Z" changeset="84948748" uid="5173844" user="ndrw6">
    <nd ref="7450583501"/>
    <nd ref="2504075806"/>
    <nd ref="2504075983"/>
    <nd ref="7450583500"/>
    <nd ref="7450583501"/>
    <tag k="addr:city" v="Cambridge"/>
    <tag k="addr:housenumber" v="71"/>
    <tag k="addr:postcode" v="CB23 7PW"/>
    <tag k="addr:street" v="Whitwell Way"/>
    <tag k="addr:village" v="Coton"/>
    <tag k="building" v="house"/>
  </way>
  <way id="796674605" version="2" timestamp="2020-05-09T19:13:18Z" changeset="84948748" uid="5173844" user="ndrw6">
    <nd ref="7450583503"/>
    <nd ref="2504075569"/>
    <nd ref="2504076036"/>
    <nd ref="7450583502"/>
    <nd ref="7450583503"/>
    <tag k="addr:city" v="Cambridge"/>
    <tag k="addr:housenumber" v="67"/>
    <tag k="addr:postcode" v="CB23 7PW"/>
    <tag k="addr:street" v="Whitwell Way"/>
    <tag k="addr:village" v="Coton"/>
    <tag k="building" v="house"/>
  </way>
  <way id="796674606" version="2" timestamp="2020-05-09T19:13:18Z" changeset="84948748" uid="5173844" user="ndrw6">
    <nd ref="7450583505"/>
    <nd ref="2504075311"/>
    <nd ref="2504076414"/>
    <nd ref="7450583504"/>
    <nd ref="7450583505"/>
    <tag k="addr:city" v="Cambridge"/>
    <tag k="addr:housenumber" v="63"/>
    <tag k="addr:postcode" v="CB23 7PW"/>
    <tag k="addr:street" v="Whitwell Way"/>
    <tag k="addr:village" v="Coton"/>
    <tag k="building" v="house"/>
  </way>
  <way id="796674607" version="3" timestamp="2024-06-15T21:07:53Z" changeset="152738592" uid="5173844" user="ndrw6">
    <nd ref="7450583507"/>
    <nd ref="2504076008"/>
    <nd ref="2504076184"/>
    <nd ref="7450583506"/>
    <nd ref="7450583507"/>
    <tag k="addr:city" v="Cambridge"/>
    <tag k="addr:housenumber" v="59"/>
    <tag k="addr:postcode" v="CB23 7PW"/>
    <tag k="addr:street" v="Whitwell Way"/>
    <tag k="addr:village" v="Coton"/>
    <tag k="building" v="house"/>
    <tag k="building:levels" v="2"/>
    <tag k="roof:levels" v="1"/>
    <tag k="roof:shape" v="gabled"/>
  </way>
  <way id="796674608" version="2" timestamp="2020-05-09T19:44:35Z" changeset="84949436" uid="5173844" user="ndrw6">
    <nd ref="7450583508"/>
    <nd ref="2504076214"/>
    <nd ref="2504075486"/>
    <nd ref="7450583509"/>
    <nd ref="7450583508"/>
    <tag k="addr:city" v="Cambridge"/>
    <tag k="addr:housenumber" v="13"/>
    <tag k="addr:postcode" v="CB23 7PS"/>
    <tag k="addr:street" v="Benny's Way"/>
    <tag k="addr:village" v="Coton"/>
    <tag k="building" v="house"/>
  </way>
  <way id="796674609" version="1" timestamp="2020-04-26T23:55:13Z" changeset="84161958" uid="5173844" user="ndrw6">
    <nd ref="7450583511"/>
    <nd ref="2504076377"/>
    <nd ref="2504075982"/>
    <nd ref="7450583510"/>
    <nd ref="7450583511"/>
    <tag k="addr:city" v="Cambridge"/>
    <tag k="addr:housenumber" v="6"/>
    <tag k="addr:postcode" v="CB23 7PS"/>
    <tag k="addr:street" v="Benny's Way"/>
    <tag k="addr:village" v="Coton"/>
    <tag k="building" v="house"/>
  </way>
  <way id="802015316" version="1" timestamp="2020-05-09T19:44:35Z" changeset="84949436" uid="5173844" user="ndrw6">
    <nd ref="5280708493"/>
    <nd ref="5280708494"/>
    <nd ref="5280708489"/>
    <nd ref="7501818076"/>
    <nd ref="5280708493"/>
    <tag k="addr:city" v="Cambridge"/>
    <tag k="addr:housenumber" v="5"/>
    <tag k="addr:postcode" v="CB23 7PP"/>
    <tag k="addr:street" v="Silverdale Avenue"/>
    <tag k="addr:village" v="Coton"/>
    <tag k="building" v="house"/>
  </way>
  <way id="802015317" version="1" timestamp="2020-05-09T19:44:35Z" changeset="84949436" uid="5173844" user="ndrw6">
    <nd ref="7501818079"/>
    <nd ref="2504076175"/>
    <nd ref="2504076163"/>
    <nd ref="7501818078"/>
    <nd ref="7501818079"/>
    <tag k="addr:city" v="Cambridge"/>
    <tag k="addr:housenumber" v="8c"/>
    <tag k="addr:postcode" v="CB23 7PP"/>
    <tag k="addr:street" v="Silverdale Avenue"/>
    <tag k="addr:village" v="Coton"/>
    <tag k="building" v="house"/>
  </way>
  <way id="802015318" version="1" timestamp="2020-05-09T19:44:35Z" changeset="84949436" uid="5173844" user="ndrw6">
    <nd ref="7501818078"/>
    <nd ref="7501818080"/>
    <nd ref="7501818081"/>
    <nd ref="7501818079"/>
    <nd ref="7501818078"/>
    <tag k="addr:city" v="Cambridge"/>
    <tag k="addr:housenumber" v="8b"/>
    <tag k="addr:postcode" v="CB23 7PP"/>
    <tag k="addr:street" v="Silverdale Avenue"/>
    <tag k="addr:village" v="Coton"/>
    <tag k="building" v="house"/>
  </way>
  <way id="802015319" version="1" timestamp="2020-05-09T19:44:35Z" changeset="84949436" uid="5173844" user="ndrw6">
    <nd ref="7501818082"/>
    <nd ref="2504076039"/>
    <nd ref="2504076245"/>
    <nd ref="7450582978"/>
    <nd ref="7501818082"/>
    <tag k="addr:city" v="Cambridge"/>
    <tag k="addr:housenumber" v="8"/>
    <tag k="addr:postcode" v="CB23 7PP"/>
    <tag k="addr:street" v="Silverdale Avenue"/>
    <tag k="addr:village" v="Coton"/>
    <tag k="building" v="house"/>
  </way>
  <way id="802015320" version="1" timestamp="2020-05-09T19:44:35Z" changeset="84949436" uid="5173844" user="ndrw6">
    <nd ref="7501818084"/>
    <nd ref="2504075360"/>
    <nd ref="2504075581"/>
    <nd ref="7501818083"/>
    <nd ref="7501818084"/>
    <tag k="addr:city" v="Cambridge"/>
    <tag k="addr:housenumber" v="6"/>
    <tag k="addr:postcode" v="CB23 7GZ"/>
    <tag k="addr:street" v="Silverdale Avenue"/>
    <tag k="addr:village" v="Coton"/>
    <tag k="building" v="house"/>
  </way>
  <way id="802015321" version="2" timestamp="2020-10-10T23:41:09Z" changeset="92289177" uid="5173844" user="ndrw6">
    <nd ref="7501823686"/>
    <nd ref="7501823688"/>
    <nd ref="7501823687"/>
    <nd ref="7501818077"/>
    <nd ref="7501823686"/>
    <tag k="addr:city" v="Cambridge"/>
    <tag k="addr:housenumber" v="7"/>
    <tag k="addr:postcode" v="CB23 7GZ"/>
    <tag k="addr:street" v="Silverdale Avenue"/>
    <tag k="addr:village" v="Coton"/>
    <tag k="building" v="house"/>
  </way>
  <way id="802015322" version="1" timestamp="2020-05-09T19:44:35Z" changeset="84949436" uid="5173844" user="ndrw6">
    <nd ref="7501818083"/>
    <nd ref="7501823687"/>
    <nd ref="7501823688"/>
    <nd ref="7501818084"/>
    <nd ref="7501818083"/>
    <tag k="addr:city" v="Cambridge"/>
    <tag k="addr:housenumber" v="6a"/>
    <tag k="addr:postcode" v="CB23 7GZ"/>
    <tag k="addr:street" v="Silverdale Avenue"/>
    <tag k="addr:village" v="Coton"/>
    <tag k="building" v="house"/>
  </way>
  <way id="802015323" version="1" timestamp="2020-05-09T19:44:35Z" changeset="84949436" uid="5173844" user="ndrw6">
    <nd ref="7501823689"/>
    <nd ref="2604734439"/>
    <nd ref="2604734433"/>
    <nd ref="2604734436"/>
    <nd ref="7501823689"/>
    <tag k="addr:city" v="Cambridge"/>
    <tag k="addr:housenumber" v="9a"/>
    <tag k="addr:postcode" v="CB23 7PP"/>
    <tag k="addr:street" v="Silverdale Avenue"/>
    <tag k="addr:village" v="Coton"/>
    <tag k="building" v="house"/>
  </way>
  <way id="802015324" version="1" timestamp="2020-05-09T19:44:35Z" changeset="84949436" uid="5173844" user="ndrw6">
    <nd ref="7501823690"/>
    <nd ref="2504075666"/>
    <nd ref="2504075663"/>
    <nd ref="7501823691"/>
    <nd ref="7501823690"/>
    <tag k="addr:city" v="Cambridge"/>
    <tag k="addr:housenumber" v="11"/>
    <tag k="addr:postcode" v="CB23 7PP"/>
    <tag k="addr:street" v="Silverdale Avenue"/>
    <tag k="addr:village" v="Coton"/>
    <tag k="building" v="house"/>
  </way>
  <way id="857656406" version="1" timestamp="2020-10-10T23:41:07Z" changeset="92289177" uid="5173844" user="ndrw6">
    <nd ref="7996105908"/>
    <nd ref="2504075926"/>
    <nd ref="2504075988"/>
    <nd ref="2504075759"/>
    <nd ref="7996105908"/>
    <tag k="addr:city" v="Cambridge"/>
    <tag k="addr:housenumber" v="5A"/>
    <tag k="addr:postcode" v="CB23 7PW"/>
    <tag k="addr:street" v="Whitwell Way"/>
    <tag k="addr:village" v="Coton"/>
    <tag k="building" v="house"/>
  </way>
  <way id="857656410" version="1" timestamp="2020-10-10T23:41:07Z" changeset="92289177" uid="5173844" user="ndrw6">
    <nd ref="2504025651"/>
    <nd ref="2504024881"/>
    <nd ref="2504025252"/>
    <nd ref="2504025060"/>
    <nd ref="2504025651"/>
    <tag k="addr:city" v="Cambridge"/>
    <tag k="addr:housenumber" v="70"/>
    <tag k="addr:postcode" v="CB23 7PL"/>
    <tag k="addr:street" v="High Street"/>
    <tag k="addr:village" v="Coton"/>
    <tag k="building" v="house"/>
  </way>
  <way id="857656413" version="2" timestamp="2023-07-15T17:27:20Z" changeset="138553324" uid="5173844" user="ndrw6">
    <nd ref="7996105975"/>
    <nd ref="7996105969"/>
    <nd ref="7996105967"/>
    <nd ref="7996105966"/>
    <nd ref="7996105968"/>
    <nd ref="7996105974"/>
    <nd ref="7996105973"/>
    <nd ref="7996105971"/>
    <nd ref="7996105970"/>
    <nd ref="7996105972"/>
    <nd ref="7996105975"/>
    <tag k="addr:city" v="Cambridge"/>
    <tag k="addr:housenumber" v="71A"/>
    <tag k="addr:postcode" v="CB23 7PX"/>
    <tag k="addr:street" v="The Footpath"/>
    <tag k="addr:village" v="Coton"/>
    <tag k="building" v="house"/>
  </way>
  <way id="857656414" version="2" timestamp="2023-07-15T17:27:20Z" changeset="138553324" uid="5173844" user="ndrw6">
    <nd ref="7996105983"/>
    <nd ref="7996105980"/>
    <nd ref="7996105978"/>
    <nd ref="7996105977"/>
    <nd ref="7996105976"/>
    <nd ref="7996105979"/>
    <nd ref="7996105981"/>
    <nd ref="7996105982"/>
    <nd ref="7996105983"/>
    <tag k="addr:city" v="Cambridge"/>
    <tag k="addr:housenumber" v="9"/>
    <tag k="addr:postcode" v="CB23 7PX"/>
    <tag k="addr:street" v="The Footpath"/>
    <tag k="addr:village" v="Coton"/>
    <tag k="building" v="house"/>
  </way>
  <way id="857656415" version="2" timestamp="2023-07-15T17:27:20Z" changeset="138553324" uid="5173844" user="ndrw6">
    <nd ref="7996105985"/>
    <nd ref="7996105986"/>
    <nd ref="7996105988"/>
    <nd ref="7996105991"/>
    <nd ref="7996105990"/>
    <nd ref="7996105984"/>
    <nd ref="7996105985"/>
    <tag k="addr:city" v="Cambridge"/>
    <tag k="addr:housenumber" v="7A"/>
    <tag k="addr:postcode" v="CB23 7PX"/>
    <tag k="addr:street" v="The Footpath"/>
    <tag k="addr:village" v="Coton"/>
    <tag k="building" v="house"/>
  </way>
  <way id="857656416" version="2" timestamp="2023-07-15T17:27:20Z" changeset="138553324" uid="5173844" user="ndrw6">
    <nd ref="7996105984"/>
    <nd ref="7996105993"/>
    <nd ref="7996105992"/>
    <nd ref="7996105989"/>
    <nd ref="7996105987"/>
    <nd ref="7996105985"/>
    <nd ref="7996105984"/>
    <tag k="addr:city" v="Cambridge"/>
    <tag k="addr:housenumber" v="7"/>
    <tag k="addr:postcode" v="CB23 7PX"/>
    <tag k="addr:street" v="The Footpath"/>
    <tag k="addr:village" v="Coton"/>
    <tag k="building" v="house"/>
  </way>
  <way id="1020969033" version="5" timestamp="2024-03-15T21:46:47Z" changeset="148709312" uid="742701" user="kerr smith">
    <nd ref="5537845341"/>
    <nd ref="11735202201"/>
    <nd ref="2616391016"/>
    <nd ref="11735202227"/>
    <nd ref="2616391029"/>
    <nd ref="9416583091"/>
    <nd ref="8699560003"/>
    <nd ref="8699560002"/>
    <nd ref="2504025174"/>
    <nd ref="2504024834"/>
    <nd ref="5537845341"/>
    <tag k="addr:city" v="Coton"/>
    <tag k="addr:street" v="Whitwell Way"/>
    <tag k="description" v="Is supplied by water from Cambridge via Grantchester Road booster. Sends water through Coton A Booster to Madingley Reservoir, and through Coton B Booster to Bourne Reservoir and Madingley Tower. Can also supply Eversden Reservoir via Eversden Booster."/>
    <tag k="landuse" v="industrial"/>
    <tag k="man_made" v="water_works"/>
    <tag k="name" v="Coton Booster Station"/>
    <tag k="utility" v="water"/>
  </way>
  <way id="1105762476" version="1" timestamp="2022-10-21T11:08:30Z" changeset="127877149" uid="6476359" user="NSiecw">
    <nd ref="10118555298"/>
    <nd ref="10118555291"/>
    <nd ref="10118555290"/>
    <nd ref="10118555294"/>
    <nd ref="10118555295"/>
    <nd ref="10118555305"/>
    <nd ref="10118555296"/>
    <nd ref="10118555293"/>
    <nd ref="10118555289"/>
    <nd ref="10118555292"/>
    <nd ref="10118555297"/>
    <nd ref="10118555298"/>
    <tag k="addr:housenumber" v="5"/>
    <tag k="addr:postcode" v="CB23 7GU"/>
    <tag k="addr:street" v="St Catharine's Hall"/>
    <tag k="building" v="yes"/>
  </way>
  <way id="1105762477" version="1" timestamp="2022-10-21T11:08:30Z" changeset="127877149" uid="6476359" user="NSiecw">
    <nd ref="10118555300"/>
    <nd ref="10118555298"/>
    <nd ref="10118555297"/>
    <nd ref="10118555299"/>
    <nd ref="10118555300"/>
    <tag k="addr:housenumber" v="4"/>
    <tag k="addr:postcode" v="CB23 7GU"/>
    <tag k="addr:street" v="St Catharine's Hall"/>
    <tag k="building" v="yes"/>
  </way>
  <way id="1105762478" version="1" timestamp="2022-10-21T11:08:30Z" changeset="127877149" uid="6476359" user="NSiecw">
    <nd ref="10118555302"/>
    <nd ref="10118555300"/>
    <nd ref="10118555299"/>
    <nd ref="10118555301"/>
    <nd ref="10118555302"/>
    <tag k="addr:housenumber" v="3"/>
    <tag k="addr:postcode" v="CB23 7GU"/>
    <tag k="addr:street" v="St Catharine's Hall"/>
    <tag k="building" v="yes"/>
  </way>
  <way id="1105762479" version="1" timestamp="2022-10-21T11:08:30Z" changeset="127877149" uid="6476359" user="NSiecw">
    <nd ref="10118555304"/>
    <nd ref="10118555302"/>
    <nd ref="10118555301"/>
    <nd ref="10118555303"/>
    <nd ref="10118555304"/>
    <tag k="addr:housenumber" v="2"/>
    <tag k="addr:postcode" v="CB23 7GU"/>
    <tag k="addr:street" v="St Catharine's Hall"/>
    <tag k="building" v="yes"/>
  </way>
  <way id="1105762480" version="1" timestamp="2022-10-21T11:08:30Z" changeset="127877149" uid="6476359" user="NSiecw">
    <nd ref="2504025015"/>
    <nd ref="10118555304"/>
    <nd ref="10118555303"/>
    <nd ref="2504025661"/>
    <nd ref="2504025015"/>
    <tag k="addr:housenumber" v="1"/>
    <tag k="addr:postcode" v="CB23 7GU"/>
    <tag k="addr:street" v="St Catharine's Hall"/>
    <tag k="building" v="yes"/>
  </way>
  <way id="1187830509" version="3" timestamp="2024-10-02T20:12:16Z" changeset="157394140" uid="5113580" user="Craske">
    <nd ref="11029901961"/>
    <nd ref="11029901958"/>
    <nd ref="12188670341"/>
    <nd ref="12188670343"/>
    <nd ref="12188670344"/>
    <nd ref="12188670342"/>
    <nd ref="11029901959"/>
    <nd ref="11029901960"/>
    <nd ref="12188670346"/>
    <nd ref="12188670347"/>
    <nd ref="12188670348"/>
    <nd ref="12188670345"/>
    <nd ref="11029901961"/>
    <tag k="addr:city" v="Cambridge"/>
    <tag k="addr:housenumber" v="22c"/>
    <tag k="addr:postcode" v="CB23 7PL"/>
    <tag k="addr:street" v="High Street"/>
    <tag k="building" v="yes"/>
  </way>
  <way id="1187830510" version="2" timestamp="2024-10-02T20:12:16Z" changeset="157394140" uid="5113580" user="Craske">
    <nd ref="11029901969"/>
    <nd ref="11029901968"/>
    <nd ref="11029901967"/>
    <nd ref="11029901966"/>
    <nd ref="11029901965"/>
    <nd ref="11029901964"/>
    <nd ref="11029901963"/>
    <nd ref="11029901962"/>
    <nd ref="11029901969"/>
    <tag k="addr:city" v="Cambridge"/>
    <tag k="addr:housenumber" v="22b"/>
    <tag k="addr:postcode" v="CB23 7PL"/>
    <tag k="addr:street" v="High Street"/>
    <tag k="building" v="yes"/>
  </way>
  <way id="1187830511" version="2" timestamp="2024-10-02T20:12:16Z" changeset="157394140" uid="5113580" user="Craske">
    <nd ref="11029901977"/>
    <nd ref="11029901971"/>
    <nd ref="11029901970"/>
    <nd ref="11029901974"/>
    <nd ref="11029901975"/>
    <nd ref="11029901972"/>
    <nd ref="11029901973"/>
    <nd ref="11029901976"/>
    <nd ref="11029901977"/>
    <tag k="addr:city" v="Cambridge"/>
    <tag k="addr:housenumber" v="22a"/>
    <tag k="addr:postcode" v="CB23 7PL"/>
    <tag k="addr:street" v="High Street"/>
    <tag k="building" v="yes"/>
  </way>
  <way id="1189862910" version="1" timestamp="2023-07-15T17:27:20Z" changeset="138553324" uid="5173844" user="ndrw6">
    <nd ref="11048284558"/>
    <nd ref="2504025189"/>
    <nd ref="2504024790"/>
    <nd ref="11048284559"/>
    <nd ref="11048284558"/>
    <tag k="addr:city" v="Cambridge"/>
    <tag k="addr:housenumber" v="71"/>
    <tag k="addr:postcode" v="CB23 7PX"/>
    <tag k="addr:street" v="The Footpath"/>
    <tag k="addr:village" v="Coton"/>
    <tag k="building" v="house"/>
  </way>

</osm>
