<?xml version="1.0" encoding="UTF-8"?>
<osm version="0.6" generator="Overpass API 0.7.62.5 1bd436f1">
<note>The data included in this document is from www.openstreetmap.org. The data is made available under ODbL.</note>
<meta osm_base="2025-02-19T00:59:51Z" areas="2025-02-06T02:17:44Z"/>

  <node id="671787559" lat="52.3652545" lon="-0.0791064" version="5" timestamp="2024-05-19T18:32:21Z" changeset="151546914" uid="95856" user="john paul jones &amp; gringo">
    <tag k="addr:city" v="Huntingdon"/>
    <tag k="addr:country" v="GB"/>
    <tag k="addr:postcode" v="PE28 3BQ"/>
    <tag k="addr:street" v="Old Hurst Road"/>
    <tag k="addr:suburb" v="Woodhurst"/>
    <tag k="landuse" v="farm"/>
    <tag k="name" v="Grange Farm"/>
    <tag k="note:retag" v="CS #48756035"/>
  </node>
  <way id="440208480" version="3" timestamp="2024-05-23T09:31:14Z" changeset="151712992" uid="95856" user="john paul jones &amp; gringo">
    <nd ref="4379291203"/>
    <nd ref="4379291204"/>
    <nd ref="4379291205"/>
    <nd ref="4379291206"/>
    <nd ref="4379291203"/>
    <tag k="addr:city" v="Huntingdon"/>
    <tag k="addr:country" v="GB"/>
    <tag k="addr:housename" v="M R J Joinery"/>
    <tag k="addr:postcode" v="PE28 3BP"/>
    <tag k="addr:street" v="Somersham Road"/>
    <tag k="addr:suburb" v="Woodhurst"/>
    <tag k="building" v="yes"/>
    <tag k="craft" v="carpenter"/>
    <tag k="name" v="MRJ Joinery"/>
  </way>
  <way id="657081787" version="4" timestamp="2024-05-19T18:29:01Z" changeset="151546816" uid="95856" user="john paul jones &amp; gringo">
    <nd ref="6154406528"/>
    <nd ref="6154406527"/>
    <nd ref="6154406526"/>
    <nd ref="11289264029"/>
    <nd ref="11289264030"/>
    <nd ref="11289264031"/>
    <nd ref="11289264034"/>
    <nd ref="6154406528"/>
    <tag k="addr:city" v="Huntingdon"/>
    <tag k="addr:country" v="GB"/>
    <tag k="addr:housenumber" v="1"/>
    <tag k="addr:postcode" v="PE28 3BW"/>
    <tag k="addr:street" v="South Street"/>
    <tag k="addr:suburb" v="Woodhurst"/>
    <tag k="building" v="semidetached_house"/>
  </way>
  <way id="657081788" version="4" timestamp="2024-05-19T18:29:01Z" changeset="151546816" uid="95856" user="john paul jones &amp; gringo">
    <nd ref="6154406534"/>
    <nd ref="11293188915"/>
    <nd ref="6154406531"/>
    <nd ref="6154406532"/>
    <nd ref="6154406533"/>
    <nd ref="11293188917"/>
    <nd ref="11293188916"/>
    <nd ref="6154406530"/>
    <nd ref="6154406529"/>
    <nd ref="6154406534"/>
    <tag k="addr:city" v="Huntingdon"/>
    <tag k="addr:country" v="GB"/>
    <tag k="addr:housenumber" v="3"/>
    <tag k="addr:postcode" v="PE28 3BA"/>
    <tag k="addr:street" v="Fullards Close"/>
    <tag k="addr:suburb" v="Woodhurst"/>
    <tag k="building" v="yes"/>
  </way>
  <way id="657081790" version="4" timestamp="2024-05-19T18:29:01Z" changeset="151546816" uid="95856" user="john paul jones &amp; gringo">
    <nd ref="6154406544"/>
    <nd ref="6154406541"/>
    <nd ref="6154406542"/>
    <nd ref="6154406543"/>
    <nd ref="6154406544"/>
    <tag k="addr:city" v="Huntingdon"/>
    <tag k="addr:country" v="GB"/>
    <tag k="addr:housenumber" v="7"/>
    <tag k="addr:postcode" v="PE28 3BG"/>
    <tag k="addr:street" v="St Johns Close"/>
    <tag k="addr:suburb" v="Woodhurst"/>
    <tag k="building" v="detached"/>
  </way>
  <way id="657081792" version="5" timestamp="2024-05-19T18:29:01Z" changeset="151546816" uid="95856" user="john paul jones &amp; gringo">
    <nd ref="6154406556"/>
    <nd ref="6154406553"/>
    <nd ref="11291867514"/>
    <nd ref="11291867515"/>
    <nd ref="6154406552"/>
    <nd ref="6154406551"/>
    <nd ref="6154406554"/>
    <nd ref="11291867516"/>
    <nd ref="11291867517"/>
    <nd ref="6154406555"/>
    <nd ref="11291867518"/>
    <nd ref="11291867519"/>
    <nd ref="6154406556"/>
    <tag k="addr:city" v="Huntingdon"/>
    <tag k="addr:country" v="GB"/>
    <tag k="addr:housenumber" v="3"/>
    <tag k="addr:postcode" v="PE28 3BU"/>
    <tag k="addr:street" v="Harradine Close"/>
    <tag k="addr:suburb" v="Woodhurst"/>
    <tag k="building" v="detached"/>
  </way>
  <way id="657081793" version="4" timestamp="2024-05-19T18:29:01Z" changeset="151546816" uid="95856" user="john paul jones &amp; gringo">
    <nd ref="6154406560"/>
    <nd ref="6154406559"/>
    <nd ref="6154406558"/>
    <nd ref="6154406557"/>
    <nd ref="6154406560"/>
    <tag k="addr:city" v="Huntingdon"/>
    <tag k="addr:country" v="GB"/>
    <tag k="addr:housenumber" v="7"/>
    <tag k="addr:postcode" v="PE28 3BL"/>
    <tag k="addr:street" v="Abbots Close"/>
    <tag k="addr:suburb" v="Woodhurst"/>
    <tag k="building" v="semidetached_house"/>
  </way>
  <way id="1218337089" version="2" timestamp="2023-10-29T21:49:01Z" changeset="143333246" uid="5173844" user="ndrw6">
    <nd ref="6154406528"/>
    <nd ref="11289264032"/>
    <nd ref="11289264033"/>
    <nd ref="11289264034"/>
    <nd ref="6154406528"/>
    <tag k="addr:housenumber" v="2"/>
    <tag k="addr:street" v="South Street"/>
    <tag k="building" v="semidetached_house"/>
  </way>
  <way id="1218340340" version="2" timestamp="2023-10-29T21:49:01Z" changeset="143333246" uid="5173844" user="ndrw6">
    <nd ref="11289311923"/>
    <nd ref="11289311933"/>
    <nd ref="11289311924"/>
    <nd ref="11289311925"/>
    <nd ref="11289311930"/>
    <nd ref="11289311926"/>
    <nd ref="11289311927"/>
    <nd ref="11289311928"/>
    <nd ref="11289311929"/>
    <nd ref="11289311923"/>
    <tag k="addr:housenumber" v="3"/>
    <tag k="addr:street" v="South Street"/>
    <tag k="building" v="semidetached_house"/>
  </way>
  <way id="1218340341" version="2" timestamp="2023-10-29T21:49:01Z" changeset="143333246" uid="5173844" user="ndrw6">
    <nd ref="11289311924"/>
    <nd ref="11289311931"/>
    <nd ref="11289311932"/>
    <nd ref="11289311933"/>
    <nd ref="11289311924"/>
    <tag k="addr:housenumber" v="4"/>
    <tag k="addr:street" v="South Street"/>
    <tag k="building" v="semidetached_house"/>
  </way>
  <way id="1218455072" version="3" timestamp="2024-05-19T18:29:01Z" changeset="151546816" uid="95856" user="john paul jones &amp; gringo">
    <nd ref="11290349391"/>
    <nd ref="11290349399"/>
    <nd ref="11290349392"/>
    <nd ref="11290349393"/>
    <nd ref="11290349394"/>
    <nd ref="11290349395"/>
    <nd ref="11290349396"/>
    <nd ref="11290349391"/>
    <tag k="addr:city" v="Huntingdon"/>
    <tag k="addr:country" v="GB"/>
    <tag k="addr:housenumber" v="14"/>
    <tag k="addr:postcode" v="PE28 3BJ"/>
    <tag k="addr:street" v="Moot Way"/>
    <tag k="addr:suburb" v="Woodhurst"/>
    <tag k="building" v="semidetached_house"/>
  </way>
  <way id="1218455073" version="2" timestamp="2023-10-29T21:49:01Z" changeset="143333246" uid="5173844" user="ndrw6">
    <nd ref="11290349391"/>
    <nd ref="11290349397"/>
    <nd ref="11290349398"/>
    <nd ref="11290349399"/>
    <nd ref="11290349391"/>
    <tag k="addr:housenumber" v="13"/>
    <tag k="addr:street" v="Moot Way"/>
    <tag k="building" v="semidetached_house"/>
  </way>
  <way id="1218455075" version="2" timestamp="2023-10-29T21:49:01Z" changeset="143333246" uid="5173844" user="ndrw6">
    <nd ref="11290349404"/>
    <nd ref="11290349405"/>
    <nd ref="11290349406"/>
    <nd ref="11290349407"/>
    <nd ref="11290349408"/>
    <nd ref="11290349409"/>
    <nd ref="11290349404"/>
    <tag k="addr:housenumber" v="12"/>
    <tag k="addr:street" v="Moot Way"/>
    <tag k="building" v="semidetached_house"/>
  </way>
  <way id="1218455076" version="3" timestamp="2023-10-29T21:49:01Z" changeset="143333246" uid="5173844" user="ndrw6">
    <nd ref="11290349408"/>
    <nd ref="11290349410"/>
    <nd ref="11290349411"/>
    <nd ref="11290349412"/>
    <nd ref="11290349413"/>
    <nd ref="11290349414"/>
    <nd ref="11290349415"/>
    <nd ref="11290349409"/>
    <nd ref="11290349408"/>
    <tag k="addr:housenumber" v="11"/>
    <tag k="addr:street" v="Moot Way"/>
    <tag k="building" v="semidetached_house"/>
  </way>
  <way id="1218508346" version="3" timestamp="2023-10-29T21:49:01Z" changeset="143333246" uid="5173844" user="ndrw6">
    <nd ref="11290787615"/>
    <nd ref="11290787616"/>
    <nd ref="11290787617"/>
    <nd ref="11290787618"/>
    <nd ref="11290787615"/>
    <tag k="addr:housenumber" v="10"/>
    <tag k="addr:street" v="Moot Way"/>
    <tag k="building" v="semidetached_house"/>
  </way>
  <way id="1218508347" version="3" timestamp="2023-10-29T21:49:01Z" changeset="143333246" uid="5173844" user="ndrw6">
    <nd ref="11290787616"/>
    <nd ref="11290787617"/>
    <nd ref="11290787619"/>
    <nd ref="11290787620"/>
    <nd ref="11290787616"/>
    <tag k="addr:housenumber" v="9"/>
    <tag k="addr:street" v="Moot Way"/>
    <tag k="building" v="semidetached_house"/>
  </way>
  <way id="1218508928" version="3" timestamp="2023-10-29T21:49:01Z" changeset="143333246" uid="5173844" user="ndrw6">
    <nd ref="11290800610"/>
    <nd ref="11290800611"/>
    <nd ref="11290800612"/>
    <nd ref="11290800613"/>
    <nd ref="11290800610"/>
    <tag k="addr:housenumber" v="8"/>
    <tag k="addr:street" v="Moot Way"/>
    <tag k="building" v="semidetached_house"/>
  </way>
  <way id="1218508929" version="3" timestamp="2023-10-29T21:49:01Z" changeset="143333246" uid="5173844" user="ndrw6">
    <nd ref="11290800610"/>
    <nd ref="11290800611"/>
    <nd ref="11290800614"/>
    <nd ref="11290800615"/>
    <nd ref="11290800610"/>
    <tag k="addr:housenumber" v="7"/>
    <tag k="addr:street" v="Moot Way"/>
    <tag k="building" v="semidetached_house"/>
  </way>
  <way id="1218509860" version="3" timestamp="2023-10-29T21:49:01Z" changeset="143333246" uid="5173844" user="ndrw6">
    <nd ref="11290804163"/>
    <nd ref="11290804164"/>
    <nd ref="11290804165"/>
    <nd ref="11290804166"/>
    <nd ref="11290804167"/>
    <nd ref="11290804168"/>
    <nd ref="11290804163"/>
    <tag k="addr:housenumber" v="5"/>
    <tag k="addr:street" v="Moot Way"/>
    <tag k="building" v="semidetached_house"/>
  </way>
  <way id="1218509861" version="3" timestamp="2023-10-29T21:49:01Z" changeset="143333246" uid="5173844" user="ndrw6">
    <nd ref="11290804166"/>
    <nd ref="11290804165"/>
    <nd ref="11290808769"/>
    <nd ref="11290808770"/>
    <nd ref="11290808771"/>
    <nd ref="11290808772"/>
    <nd ref="11290808773"/>
    <nd ref="11290808774"/>
    <nd ref="11290808775"/>
    <nd ref="11290808776"/>
    <nd ref="11290804166"/>
    <tag k="addr:housenumber" v="6"/>
    <tag k="addr:street" v="Moot Way"/>
    <tag k="building" v="semidetached_house"/>
  </way>
  <way id="1218509864" version="3" timestamp="2023-10-29T21:49:01Z" changeset="143333246" uid="5173844" user="ndrw6">
    <nd ref="11290808785"/>
    <nd ref="11290808786"/>
    <nd ref="11290808787"/>
    <nd ref="11290808788"/>
    <nd ref="11290808789"/>
    <nd ref="11290808790"/>
    <nd ref="11290808785"/>
    <tag k="addr:housenumber" v="4"/>
    <tag k="addr:street" v="Moot Way"/>
    <tag k="building" v="semidetached_house"/>
  </way>
  <way id="1218509865" version="3" timestamp="2023-10-29T21:49:01Z" changeset="143333246" uid="5173844" user="ndrw6">
    <nd ref="11290808788"/>
    <nd ref="11290808789"/>
    <nd ref="11290808791"/>
    <nd ref="11290808792"/>
    <nd ref="11290808793"/>
    <nd ref="11290808794"/>
    <nd ref="11290808788"/>
    <tag k="addr:housenumber" v="3"/>
    <tag k="addr:street" v="Moot Way"/>
    <tag k="building" v="semidetached_house"/>
  </way>
  <way id="1218509866" version="3" timestamp="2023-10-29T21:49:01Z" changeset="143333246" uid="5173844" user="ndrw6">
    <nd ref="11290808795"/>
    <nd ref="11290808796"/>
    <nd ref="11290808797"/>
    <nd ref="11290808798"/>
    <nd ref="11290808799"/>
    <nd ref="11290808800"/>
    <nd ref="11290808795"/>
    <tag k="addr:housenumber" v="2"/>
    <tag k="addr:street" v="Moot Way"/>
    <tag k="building" v="semidetached_house"/>
  </way>
  <way id="1218509867" version="2" timestamp="2023-10-29T21:49:01Z" changeset="143333246" uid="5173844" user="ndrw6">
    <nd ref="11290808799"/>
    <nd ref="11290808798"/>
    <nd ref="11290808801"/>
    <nd ref="11290808802"/>
    <nd ref="11290808803"/>
    <nd ref="11290808804"/>
    <nd ref="11290808799"/>
    <tag k="addr:housenumber" v="1"/>
    <tag k="addr:street" v="Moot Way"/>
    <tag k="building" v="semidetached_house"/>
  </way>
  <way id="1218512377" version="2" timestamp="2023-10-29T21:49:01Z" changeset="143333246" uid="5173844" user="ndrw6">
    <nd ref="11290791813"/>
    <nd ref="11290791814"/>
    <nd ref="11290791815"/>
    <nd ref="11290791816"/>
    <nd ref="11290791817"/>
    <nd ref="11290791818"/>
    <nd ref="11290791819"/>
    <nd ref="11290791820"/>
    <nd ref="11290791813"/>
    <tag k="addr:housenumber" v="2"/>
    <tag k="addr:street" v="Abbots Close"/>
    <tag k="building" v="semidetached_house"/>
  </way>
  <way id="1218512378" version="2" timestamp="2023-10-29T21:49:01Z" changeset="143333246" uid="5173844" user="ndrw6">
    <nd ref="11290791813"/>
    <nd ref="11290791821"/>
    <nd ref="11290791822"/>
    <nd ref="11290791823"/>
    <nd ref="11290791824"/>
    <nd ref="11290791825"/>
    <nd ref="11290791814"/>
    <nd ref="11290791813"/>
    <tag k="addr:housenumber" v="1"/>
    <tag k="addr:street" v="Abbots Close"/>
    <tag k="building" v="semidetached_house"/>
  </way>
  <way id="1218554693" version="3" timestamp="2023-10-29T21:49:01Z" changeset="143333246" uid="5173844" user="ndrw6">
    <nd ref="11291161829"/>
    <nd ref="11291161830"/>
    <nd ref="11291161831"/>
    <nd ref="11291161832"/>
    <nd ref="11291161829"/>
    <tag k="addr:housenumber" v="15"/>
    <tag k="addr:street" v="Abbots Close"/>
    <tag k="building" v="semidetached_house"/>
  </way>
  <way id="1218554694" version="3" timestamp="2023-10-29T21:49:01Z" changeset="143333246" uid="5173844" user="ndrw6">
    <nd ref="11291161832"/>
    <nd ref="11291161831"/>
    <nd ref="11291161833"/>
    <nd ref="11291161834"/>
    <nd ref="11291161832"/>
    <tag k="addr:housenumber" v="13"/>
    <tag k="addr:street" v="Abbots Close"/>
    <tag k="building" v="semidetached_house"/>
  </way>
  <way id="1218554697" version="3" timestamp="2023-10-29T21:49:01Z" changeset="143333246" uid="5173844" user="ndrw6">
    <nd ref="11291161841"/>
    <nd ref="11291161842"/>
    <nd ref="11291161843"/>
    <nd ref="11291161844"/>
    <nd ref="11291161845"/>
    <nd ref="11291161846"/>
    <nd ref="11291161841"/>
    <tag k="addr:housenumber" v="12"/>
    <tag k="addr:street" v="Abbots Close"/>
    <tag k="building" v="semidetached_house"/>
  </way>
  <way id="1218554698" version="3" timestamp="2023-10-29T21:49:01Z" changeset="143333246" uid="5173844" user="ndrw6">
    <nd ref="11291161841"/>
    <nd ref="11291161842"/>
    <nd ref="11291161847"/>
    <nd ref="11291161848"/>
    <nd ref="11291161849"/>
    <nd ref="11291161850"/>
    <nd ref="11291161841"/>
    <tag k="addr:housenumber" v="10"/>
    <tag k="addr:street" v="Abbots Close"/>
    <tag k="building" v="semidetached_house"/>
  </way>
  <way id="1218555653" version="3" timestamp="2023-10-29T21:49:01Z" changeset="143333246" uid="5173844" user="ndrw6">
    <nd ref="11291176561"/>
    <nd ref="11291176560"/>
    <nd ref="11291216880"/>
    <nd ref="11291216881"/>
    <nd ref="11291216882"/>
    <nd ref="11291216883"/>
    <nd ref="11291176561"/>
    <tag k="addr:housenumber" v="8"/>
    <tag k="addr:street" v="Abbots Close"/>
    <tag k="building" v="semidetached_house"/>
  </way>
  <way id="1218612109" version="2" timestamp="2023-10-29T21:49:01Z" changeset="143333246" uid="5173844" user="ndrw6">
    <nd ref="11291827343"/>
    <nd ref="11291827344"/>
    <nd ref="11291827345"/>
    <nd ref="11291827346"/>
    <nd ref="11291827347"/>
    <nd ref="11291827348"/>
    <nd ref="11291827343"/>
    <tag k="addr:housenumber" v="11"/>
    <tag k="addr:street" v="Abbots Close"/>
    <tag k="building" v="semidetached_house"/>
  </way>
  <way id="1218615175" version="2" timestamp="2023-10-29T21:49:01Z" changeset="143333246" uid="5173844" user="ndrw6">
    <nd ref="11291827344"/>
    <nd ref="11291827345"/>
    <nd ref="11291807260"/>
    <nd ref="11291807261"/>
    <nd ref="11291807262"/>
    <nd ref="11291807263"/>
    <nd ref="11291827344"/>
    <tag k="addr:housenumber" v="9"/>
    <tag k="addr:street" v="Abbots Close"/>
    <tag k="building" v="semidetached_house"/>
  </way>
  <way id="1218615178" version="2" timestamp="2023-10-29T21:49:01Z" changeset="143333246" uid="5173844" user="ndrw6">
    <nd ref="6154406557"/>
    <nd ref="6154406560"/>
    <nd ref="11291867472"/>
    <nd ref="11291867473"/>
    <nd ref="6154406557"/>
    <tag k="addr:housenumber" v="5"/>
    <tag k="addr:street" v="Abbots Close"/>
    <tag k="building" v="semidetached_house"/>
  </way>
  <way id="1218615184" version="3" timestamp="2023-10-29T21:49:01Z" changeset="143333246" uid="5173844" user="ndrw6">
    <nd ref="11291867492"/>
    <nd ref="11291867493"/>
    <nd ref="11291867494"/>
    <nd ref="11291867495"/>
    <nd ref="11291867496"/>
    <nd ref="11291867497"/>
    <nd ref="11291867492"/>
    <tag k="addr:housenumber" v="1"/>
    <tag k="addr:street" v="Harradine Close"/>
    <tag k="building" v="detached"/>
  </way>
  <way id="1218615186" version="3" timestamp="2023-10-29T21:49:01Z" changeset="143333246" uid="5173844" user="ndrw6">
    <nd ref="11291867502"/>
    <nd ref="11291867503"/>
    <nd ref="11291867504"/>
    <nd ref="11291867505"/>
    <nd ref="11291867506"/>
    <nd ref="11291867507"/>
    <nd ref="11291867508"/>
    <nd ref="11291867509"/>
    <nd ref="6154406556"/>
    <nd ref="6154406553"/>
    <nd ref="11291867510"/>
    <nd ref="11291867511"/>
    <nd ref="11291867512"/>
    <nd ref="11291867513"/>
    <nd ref="11291867502"/>
    <tag k="addr:housenumber" v="2"/>
    <tag k="addr:street" v="Harradine Close"/>
    <tag k="building" v="detached"/>
  </way>
  <way id="1218615974" version="3" timestamp="2023-10-29T21:49:01Z" changeset="143333246" uid="5173844" user="ndrw6">
    <nd ref="11291855183"/>
    <nd ref="11291855184"/>
    <nd ref="11291855185"/>
    <nd ref="11291855186"/>
    <nd ref="11291855187"/>
    <nd ref="11291855188"/>
    <nd ref="11291855189"/>
    <nd ref="11291855190"/>
    <nd ref="11291855191"/>
    <nd ref="11291855192"/>
    <nd ref="11291855183"/>
    <tag k="addr:housenumber" v="4"/>
    <tag k="addr:street" v="Harradine Close"/>
    <tag k="building" v="detached"/>
  </way>
  <way id="1218615975" version="3" timestamp="2023-10-29T21:49:01Z" changeset="143333246" uid="5173844" user="ndrw6">
    <nd ref="11291855193"/>
    <nd ref="11291855194"/>
    <nd ref="11291855195"/>
    <nd ref="11291855196"/>
    <nd ref="11291855197"/>
    <nd ref="11291855198"/>
    <nd ref="11291855199"/>
    <nd ref="11291855200"/>
    <nd ref="11291855201"/>
    <nd ref="11291855202"/>
    <nd ref="11291855193"/>
    <tag k="addr:housenumber" v="5"/>
    <tag k="addr:street" v="Harradine Close"/>
    <tag k="building" v="detached"/>
  </way>
  <way id="1218776783" version="2" timestamp="2023-10-29T21:49:01Z" changeset="143333246" uid="5173844" user="ndrw6">
    <nd ref="11293192316"/>
    <nd ref="11293192317"/>
    <nd ref="11293192318"/>
    <nd ref="11293192319"/>
    <nd ref="11293192320"/>
    <nd ref="11293192321"/>
    <nd ref="11293192322"/>
    <nd ref="11293192323"/>
    <nd ref="11293192316"/>
    <tag k="addr:housenumber" v="1"/>
    <tag k="addr:street" v="Fullards Close"/>
    <tag k="building" v="detached"/>
  </way>
  <way id="1218776786" version="2" timestamp="2023-10-29T21:49:01Z" changeset="143333246" uid="5173844" user="ndrw6">
    <nd ref="11293192332"/>
    <nd ref="11293192333"/>
    <nd ref="11293192334"/>
    <nd ref="11293192335"/>
    <nd ref="11293192336"/>
    <nd ref="11293192337"/>
    <nd ref="11293192338"/>
    <nd ref="11293192339"/>
    <nd ref="11293192340"/>
    <nd ref="11293192341"/>
    <nd ref="11293192332"/>
    <tag k="addr:housenumber" v="2"/>
    <tag k="addr:street" v="Fullards Close"/>
    <tag k="building" v="detached"/>
  </way>
  <way id="1218776787" version="2" timestamp="2023-10-29T21:49:01Z" changeset="143333246" uid="5173844" user="ndrw6">
    <nd ref="11293192346"/>
    <nd ref="11293192347"/>
    <nd ref="11293192348"/>
    <nd ref="11293192349"/>
    <nd ref="11293192350"/>
    <nd ref="11293192351"/>
    <nd ref="11293192352"/>
    <nd ref="11293192353"/>
    <nd ref="11293192346"/>
    <tag k="addr:housenumber" v="7"/>
    <tag k="addr:street" v="Fullards Close"/>
    <tag k="building" v="detached"/>
  </way>
  <way id="1218778239" version="2" timestamp="2023-10-29T21:49:01Z" changeset="143333246" uid="5173844" user="ndrw6">
    <nd ref="11293188911"/>
    <nd ref="11293188912"/>
    <nd ref="11293188913"/>
    <nd ref="11293188914"/>
    <nd ref="11293188915"/>
    <nd ref="6154406531"/>
    <nd ref="11293188911"/>
    <tag k="addr:housenumber" v="4"/>
    <tag k="addr:street" v="Fullards Close"/>
    <tag k="building" v="semidetached_house"/>
  </way>
  <way id="1218778242" version="2" timestamp="2023-10-29T21:49:01Z" changeset="143333246" uid="5173844" user="ndrw6">
    <nd ref="11293188926"/>
    <nd ref="11293188927"/>
    <nd ref="11293188928"/>
    <nd ref="11293188929"/>
    <nd ref="11293188930"/>
    <nd ref="11293188932"/>
    <nd ref="11293188931"/>
    <nd ref="11293188926"/>
    <tag k="addr:housenumber" v="5"/>
    <tag k="addr:street" v="Fullards Close"/>
    <tag k="building" v="semidetached_house"/>
  </way>
  <way id="1218778244" version="2" timestamp="2023-10-29T21:49:01Z" changeset="143333246" uid="5173844" user="ndrw6">
    <nd ref="11293188933"/>
    <nd ref="11293188935"/>
    <nd ref="11293188936"/>
    <nd ref="11293188937"/>
    <nd ref="11293188938"/>
    <nd ref="11293188939"/>
    <nd ref="11293188940"/>
    <nd ref="11293188941"/>
    <nd ref="11293188906"/>
    <nd ref="11293188905"/>
    <nd ref="11293188934"/>
    <nd ref="11293188933"/>
    <tag k="addr:housenumber" v="6"/>
    <tag k="addr:street" v="Fullards Close"/>
    <tag k="building" v="semidetached_house"/>
  </way>
  <way id="1218780210" version="2" timestamp="2023-10-29T21:49:01Z" changeset="143333246" uid="5173844" user="ndrw6">
    <nd ref="11293199050"/>
    <nd ref="11293199051"/>
    <nd ref="11293199052"/>
    <nd ref="11293199053"/>
    <nd ref="11293199050"/>
    <tag k="addr:housenumber" v="8"/>
    <tag k="addr:street" v="St Johns Close"/>
    <tag k="building" v="detached"/>
  </way>
  <way id="1219259413" version="2" timestamp="2023-10-29T21:49:01Z" changeset="143333246" uid="5173844" user="ndrw6">
    <nd ref="11297324854"/>
    <nd ref="11297324855"/>
    <nd ref="11297324856"/>
    <nd ref="11297324857"/>
    <nd ref="11297324854"/>
    <tag k="addr:housenumber" v="6"/>
    <tag k="addr:street" v="Harradine Close"/>
    <tag k="building" v="semidetached_house"/>
  </way>
  <way id="1219259414" version="2" timestamp="2023-10-29T21:49:01Z" changeset="143333246" uid="5173844" user="ndrw6">
    <nd ref="11297324848"/>
    <nd ref="11297324858"/>
    <nd ref="11297324855"/>
    <nd ref="11297324854"/>
    <nd ref="11297324859"/>
    <nd ref="11297324860"/>
    <nd ref="11297324861"/>
    <nd ref="11297324862"/>
    <nd ref="11297324849"/>
    <nd ref="11297324848"/>
    <tag k="addr:housenumber" v="7"/>
    <tag k="addr:street" v="Harradine Close"/>
    <tag k="building" v="semidetached_house"/>
  </way>
  <way id="1219260365" version="2" timestamp="2023-10-29T21:49:01Z" changeset="143333246" uid="5173844" user="ndrw6">
    <nd ref="11293273595"/>
    <nd ref="11297364420"/>
    <nd ref="11297364421"/>
    <nd ref="11297364422"/>
    <nd ref="11297364423"/>
    <nd ref="11297364424"/>
    <nd ref="11297364425"/>
    <nd ref="11297364426"/>
    <nd ref="11293273595"/>
    <tag k="addr:housenumber" v="6"/>
    <tag k="addr:street" v="St Johns Close"/>
    <tag k="building" v="detached"/>
  </way>
  <way id="1219262218" version="2" timestamp="2023-10-29T21:49:01Z" changeset="143333246" uid="5173844" user="ndrw6">
    <nd ref="11297334563"/>
    <nd ref="11297334564"/>
    <nd ref="11297334565"/>
    <nd ref="11297334566"/>
    <nd ref="11297334567"/>
    <nd ref="11297334568"/>
    <nd ref="11297334563"/>
    <tag k="addr:housenumber" v="5"/>
    <tag k="addr:street" v="St Johns Close"/>
    <tag k="building" v="detached"/>
  </way>
  <way id="1219262219" version="2" timestamp="2023-10-29T21:49:01Z" changeset="143333246" uid="5173844" user="ndrw6">
    <nd ref="11297402969"/>
    <nd ref="11297402970"/>
    <nd ref="11297402971"/>
    <nd ref="11297402972"/>
    <nd ref="11297402973"/>
    <nd ref="11297402974"/>
    <nd ref="11297402975"/>
    <nd ref="11297402976"/>
    <nd ref="11297402977"/>
    <nd ref="11297402978"/>
    <nd ref="11297402979"/>
    <nd ref="11297402969"/>
    <tag k="addr:housenumber" v="4"/>
    <tag k="addr:street" v="St Johns Close"/>
    <tag k="building" v="detached"/>
  </way>
  <way id="1219262222" version="2" timestamp="2023-10-29T21:49:01Z" changeset="143333246" uid="5173844" user="ndrw6">
    <nd ref="11297402988"/>
    <nd ref="11297402989"/>
    <nd ref="11297402990"/>
    <nd ref="11297402991"/>
    <nd ref="11297402992"/>
    <nd ref="11297402993"/>
    <nd ref="11297402988"/>
    <tag k="addr:housenumber" v="2"/>
    <tag k="addr:street" v="St Johns Close"/>
    <tag k="building" v="detached"/>
  </way>
  <way id="1219262225" version="2" timestamp="2023-10-29T21:49:01Z" changeset="143333246" uid="5173844" user="ndrw6">
    <nd ref="11297403002"/>
    <nd ref="11297403003"/>
    <nd ref="11297403004"/>
    <nd ref="11297403005"/>
    <nd ref="11297403006"/>
    <nd ref="11297403007"/>
    <nd ref="11297403008"/>
    <nd ref="11297403009"/>
    <nd ref="11297403010"/>
    <nd ref="11297403011"/>
    <nd ref="11297403012"/>
    <nd ref="11297403013"/>
    <nd ref="11297403002"/>
    <tag k="addr:housenumber" v="3"/>
    <tag k="addr:street" v="St Johns Close"/>
    <tag k="building" v="detached"/>
  </way>
  <way id="1219281782" version="2" timestamp="2023-10-29T21:49:01Z" changeset="143333246" uid="5173844" user="ndrw6">
    <nd ref="11297583412"/>
    <nd ref="11297583413"/>
    <nd ref="11297583414"/>
    <nd ref="11297583415"/>
    <nd ref="11297583416"/>
    <nd ref="11297583421"/>
    <nd ref="11297583412"/>
    <tag k="addr:housenumber" v="1"/>
    <tag k="addr:street" v="St Johns Close"/>
    <tag k="building" v="detached"/>
  </way>

</osm>
