<?xml version="1.0" encoding="UTF-8"?>
<osm version="0.6" generator="Overpass API 0.7.62.5 1bd436f1">
<note>The data included in this document is from www.openstreetmap.org. The data is made available under ODbL.</note>
<meta osm_base="2025-05-17T21:24:59Z" areas="2024-12-31T00:49:33Z"/>

  <node id="630876" lat="55.9606709" lon="-3.2490096" version="5" timestamp="2015-09-03T19:22:36Z" changeset="33780567" uid="1798469" user="eric_"/>
  <node id="26462405" lat="55.9680563" lon="-3.2408332" version="3" timestamp="2016-08-12T10:05:04Z" changeset="41407346" uid="3670347" user="rob_michel"/>
  <node id="26462407" lat="55.9669698" lon="-3.2506647" version="3" timestamp="2020-12-15T20:51:05Z" changeset="95900098" uid="3432400" user="GinaroZ">
    <tag k="highway" v="traffic_signals"/>
  </node>
  <node id="32031576" lat="55.9657040" lon="-3.2610407" version="2" timestamp="2012-03-16T21:11:40Z" changeset="11002466" uid="27824" user="phut">
    <tag k="highway" v="turning_circle"/>
  </node>
  <node id="32031662" lat="55.9659200" lon="-3.2594129" version="6" timestamp="2021-04-25T15:32:27Z" changeset="103579862" uid="388774" user="drnoble"/>
  <node id="32895574" lat="55.9609022" lon="-3.2462808" version="10" timestamp="2016-05-21T15:01:13Z" changeset="39470936" uid="1798469" user="eric_"/>
  <node id="32895627" lat="55.9658541" lon="-3.2540057" version="8" timestamp="2016-08-28T17:19:37Z" changeset="41760470" uid="388774" user="drnoble"/>
  <node id="32895722" lat="55.9654051" lon="-3.2421326" version="3" timestamp="2016-08-12T14:05:51Z" changeset="41411426" uid="3670347" user="rob_michel"/>
  <node id="35882133" lat="55.9663674" lon="-3.2542297" version="2" timestamp="2010-05-23T23:33:43Z" changeset="4789000" uid="227402" user="Loose Cannon"/>
  <node id="35883053" lat="55.9666093" lon="-3.2504709" version="5" timestamp="2016-08-12T10:05:04Z" changeset="41407346" uid="3670347" user="rob_michel"/>
  <node id="36971759" lat="55.9600998" lon="-3.2438814" version="4" timestamp="2017-09-12T14:35:37Z" changeset="51975407" uid="388774" user="drnoble">
    <tag k="note" v="right turn lane for bikes turning into Craigleith Hill Avenue"/>
  </node>
  <node id="43506958" lat="55.9656459" lon="-3.2378912" version="6" timestamp="2016-07-28T11:50:23Z" changeset="41084122" uid="2234934" user="sophiemccallum"/>
  <node id="4065233357" lat="55.9683675" lon="-3.2364308" version="1" timestamp="2016-03-17T13:42:28Z" changeset="37896682" uid="3432400" user="GinaroZ"/>
  <node id="4065233358" lat="55.9682698" lon="-3.2361829" version="1" timestamp="2016-03-17T13:42:28Z" changeset="37896682" uid="3432400" user="GinaroZ"/>
  <way id="4270676" version="22" timestamp="2024-08-27T16:46:49Z" changeset="155841699" uid="21762849" user="jSeke">
    <nd ref="630875"/>
    <nd ref="3728247575"/>
    <nd ref="4033201671"/>
    <nd ref="32895577"/>
    <tag k="cycleway:both" v="no"/>
    <tag k="highway" v="primary"/>
    <tag k="lanes" v="4"/>
    <tag k="lit" v="yes"/>
    <tag k="maxspeed" v="30 mph"/>
    <tag k="name" v="Telford Road"/>
    <tag k="name:gd" v="Rathad Telford"/>
    <tag k="old_ref" v="A982"/>
    <tag k="ref" v="A902"/>
    <tag k="sidewalk" v="both"/>
    <tag k="surface" v="asphalt"/>
  </way>
  <way id="4878397" version="14" timestamp="2025-03-16T12:04:31Z" changeset="163685263" uid="7400464" user="Moohan">
    <nd ref="630876"/>
    <nd ref="630875"/>
    <tag k="bridge" v="yes"/>
    <tag k="cycleway:both" v="no"/>
    <tag k="highway" v="primary"/>
    <tag k="lanes" v="4"/>
    <tag k="layer" v="1"/>
    <tag k="lit" v="yes"/>
    <tag k="maxspeed" v="30 mph"/>
    <tag k="name" v="Telford Road"/>
    <tag k="name:gd" v="Rathad Telford"/>
    <tag k="old_ref" v="A982"/>
    <tag k="ref" v="A902"/>
    <tag k="surface" v="asphalt"/>
  </way>
  <way id="4906105" version="8" timestamp="2024-08-22T20:24:21Z" changeset="155625297" uid="21762849" user="jSeke">
    <nd ref="32031576"/>
    <nd ref="32031577"/>
    <nd ref="1677411269"/>
    <nd ref="32031579"/>
    <nd ref="8664815162"/>
    <nd ref="32031580"/>
    <tag k="highway" v="residential"/>
    <tag k="lanes" v="2"/>
    <tag k="lit" v="yes"/>
    <tag k="maxspeed" v="20 mph"/>
    <tag k="name" v="Ferry Road"/>
    <tag k="name:gd" v="Rathad a' Phuirt"/>
    <tag k="sidewalk" v="right"/>
    <tag k="surface" v="asphalt"/>
    <tag k="wikidata" v="Q5445503"/>
  </way>
  <way id="4906108" version="14" timestamp="2021-04-25T17:03:31Z" changeset="103583480" uid="388774" user="drnoble">
    <nd ref="32031662"/>
    <nd ref="8664815158"/>
    <nd ref="32031580"/>
    <nd ref="8664815157"/>
    <nd ref="8664815156"/>
    <nd ref="32031582"/>
    <nd ref="32031583"/>
    <nd ref="8664815155"/>
    <nd ref="8664815154"/>
    <nd ref="32031584"/>
    <nd ref="8664815153"/>
    <nd ref="8664815152"/>
    <nd ref="32031585"/>
    <nd ref="8664815151"/>
    <nd ref="32031587"/>
    <nd ref="32031588"/>
    <nd ref="8664815150"/>
    <nd ref="32031589"/>
    <nd ref="288418232"/>
    <nd ref="8664815101"/>
    <nd ref="8664815100"/>
    <nd ref="4371657121"/>
    <nd ref="8664815102"/>
    <nd ref="32031590"/>
    <nd ref="295522459"/>
    <nd ref="8664815099"/>
    <nd ref="32031591"/>
    <nd ref="4371657068"/>
    <nd ref="1244272271"/>
    <nd ref="32031594"/>
    <nd ref="4371657008"/>
    <nd ref="32031595"/>
    <nd ref="8665186612"/>
    <nd ref="8665186589"/>
    <nd ref="32031597"/>
    <nd ref="32031598"/>
    <nd ref="4371656966"/>
    <nd ref="1854832114"/>
    <nd ref="32031599"/>
    <nd ref="1244272292"/>
    <nd ref="4371656905"/>
    <nd ref="1244272219"/>
    <nd ref="32031601"/>
    <nd ref="4371656485"/>
    <nd ref="32031602"/>
    <nd ref="8665186399"/>
    <nd ref="32031606"/>
    <nd ref="8665186398"/>
    <nd ref="4371656468"/>
    <nd ref="32031609"/>
    <nd ref="32031614"/>
    <nd ref="32031616"/>
    <nd ref="4371656483"/>
    <nd ref="4371656903"/>
    <nd ref="32031633"/>
    <tag k="highway" v="residential"/>
    <tag k="lanes" v="2"/>
    <tag k="lit" v="yes"/>
    <tag k="maxspeed" v="20 mph"/>
    <tag k="name" v="Wester Drylaw Drive"/>
    <tag k="sidewalk" v="both"/>
    <tag k="surface" v="asphalt"/>
  </way>
  <way id="4906110" version="4" timestamp="2021-04-25T17:03:31Z" changeset="103583480" uid="388774" user="drnoble">
    <nd ref="32031616"/>
    <nd ref="32031636"/>
    <tag k="highway" v="residential"/>
    <tag k="lanes" v="2"/>
    <tag k="lit" v="yes"/>
    <tag k="maxspeed" v="20 mph"/>
    <tag k="name" v="Wester Drylaw Drive"/>
    <tag k="sidewalk" v="both"/>
    <tag k="surface" v="asphalt"/>
  </way>
  <way id="4906123" version="5" timestamp="2021-04-25T17:03:31Z" changeset="103583480" uid="388774" user="drnoble">
    <nd ref="32031595"/>
    <nd ref="8665186631"/>
    <nd ref="32031596"/>
    <tag k="highway" v="residential"/>
    <tag k="lit" v="yes"/>
    <tag k="maxspeed" v="20 mph"/>
    <tag k="name" v="Wester Drylaw Drive"/>
  </way>
  <way id="4967137" version="12" timestamp="2025-03-16T12:04:19Z" changeset="163685263" uid="7400464" user="Moohan">
    <nd ref="32895574"/>
    <nd ref="4304541127"/>
    <nd ref="3728247561"/>
    <nd ref="7503955699"/>
    <nd ref="36971910"/>
    <nd ref="7503955698"/>
    <nd ref="7503951819"/>
    <nd ref="1439342554"/>
    <nd ref="254964402"/>
    <nd ref="7503951820"/>
    <nd ref="32895576"/>
    <nd ref="4198799892"/>
    <nd ref="1439342619"/>
    <nd ref="4198799891"/>
    <nd ref="36971859"/>
    <tag k="cycleway:both" v="no"/>
    <tag k="highway" v="residential"/>
    <tag k="incline" v="down"/>
    <tag k="lanes" v="2"/>
    <tag k="lit" v="yes"/>
    <tag k="maxspeed" v="20 mph"/>
    <tag k="name" v="Groathill Road South"/>
    <tag k="sidewalk" v="both"/>
    <tag k="surface" v="asphalt"/>
  </way>
  <way id="4967143" version="10" timestamp="2021-08-03T16:28:47Z" changeset="109104291" uid="4007299" user="FrenchyF">
    <nd ref="26462407"/>
    <nd ref="8232347630"/>
    <nd ref="8232347629"/>
    <nd ref="35883053"/>
    <nd ref="32895602"/>
    <nd ref="32895601"/>
    <nd ref="844661185"/>
    <nd ref="4030565622"/>
    <nd ref="32895600"/>
    <nd ref="7149290418"/>
    <nd ref="36747240"/>
    <tag k="highway" v="tertiary"/>
    <tag k="lit" v="yes"/>
    <tag k="maxspeed" v="20 mph"/>
    <tag k="name" v="Groathill Road North"/>
    <tag k="source" v="Bing"/>
    <tag k="surface" v="asphalt"/>
  </way>
  <way id="4967148" version="13" timestamp="2018-02-12T21:42:32Z" changeset="56306651" uid="91225" user="tms13">
    <nd ref="32895636"/>
    <nd ref="32895624"/>
    <nd ref="32895625"/>
    <nd ref="343398328"/>
    <nd ref="32895626"/>
    <nd ref="343398329"/>
    <nd ref="32895627"/>
    <nd ref="343398330"/>
    <nd ref="32895628"/>
    <nd ref="343398331"/>
    <nd ref="32895629"/>
    <nd ref="343398332"/>
    <nd ref="32895630"/>
    <nd ref="4371657283"/>
    <nd ref="343398334"/>
    <nd ref="32895631"/>
    <nd ref="343398335"/>
    <nd ref="32895632"/>
    <nd ref="343398336"/>
    <nd ref="32895633"/>
    <nd ref="1282485853"/>
    <nd ref="343398338"/>
    <nd ref="32895634"/>
    <nd ref="343398340"/>
    <nd ref="32895635"/>
    <nd ref="343398342"/>
    <nd ref="4371657243"/>
    <nd ref="32895636"/>
    <tag k="highway" v="residential"/>
    <tag k="lit" v="yes"/>
    <tag k="maxspeed" v="20 mph"/>
    <tag k="name" v="Wester Drylaw Place"/>
  </way>
  <way id="4967150" version="7" timestamp="2018-02-12T21:42:32Z" changeset="56306651" uid="91225" user="tms13">
    <nd ref="32895630"/>
    <nd ref="4371657407"/>
    <nd ref="1244272316"/>
    <nd ref="38251279"/>
    <nd ref="4371657449"/>
    <nd ref="4347308418"/>
    <nd ref="32895602"/>
    <tag k="highway" v="residential"/>
    <tag k="lit" v="yes"/>
    <tag k="maxspeed" v="20 mph"/>
    <tag k="name" v="Wester Drylaw Place"/>
  </way>
  <way id="4967151" version="4" timestamp="2018-02-12T21:42:32Z" changeset="56306651" uid="91225" user="tms13">
    <nd ref="32895627"/>
    <nd ref="35882133"/>
    <nd ref="32895664"/>
    <tag k="highway" v="residential"/>
    <tag k="lit" v="yes"/>
    <tag k="maxspeed" v="20 mph"/>
    <tag k="name" v="Wester Drylaw Place"/>
  </way>
  <way id="4967154" version="12" timestamp="2018-02-12T21:42:32Z" changeset="56306651" uid="91225" user="tms13">
    <nd ref="32895602"/>
    <nd ref="4347308419"/>
    <nd ref="32895675"/>
    <nd ref="262701814"/>
    <nd ref="32895776"/>
    <nd ref="1854832554"/>
    <nd ref="262701817"/>
    <nd ref="32895818"/>
    <nd ref="1152023811"/>
    <nd ref="2000201256"/>
    <nd ref="32895677"/>
    <nd ref="4347084684"/>
    <nd ref="32895678"/>
    <tag k="highway" v="residential"/>
    <tag k="lit" v="yes"/>
    <tag k="maxspeed" v="20 mph"/>
    <tag k="name" v="Easter Drylaw Place"/>
    <tag k="source" v="Bing"/>
  </way>
  <way id="4967161" version="11" timestamp="2018-02-12T21:42:33Z" changeset="56306651" uid="91225" user="tms13">
    <nd ref="26462405"/>
    <nd ref="4347086592"/>
    <nd ref="4347086591"/>
    <nd ref="4347086590"/>
    <nd ref="4347086589"/>
    <nd ref="4347084687"/>
    <nd ref="32895678"/>
    <nd ref="4347396029"/>
    <nd ref="32895722"/>
    <nd ref="262701805"/>
    <nd ref="32895809"/>
    <nd ref="32895724"/>
    <nd ref="32895725"/>
    <nd ref="38250573"/>
    <nd ref="746873936"/>
    <nd ref="4347396020"/>
    <nd ref="32895726"/>
    <nd ref="4347396019"/>
    <nd ref="1439342595"/>
    <nd ref="262701803"/>
    <nd ref="4347396014"/>
    <nd ref="4347396012"/>
    <nd ref="32895728"/>
    <tag k="highway" v="residential"/>
    <tag k="lit" v="yes"/>
    <tag k="maxspeed" v="20 mph"/>
    <tag k="name" v="Easter Drylaw Drive"/>
    <tag k="source" v="Bing"/>
  </way>
  <way id="4967173" version="7" timestamp="2018-09-20T14:26:01Z" changeset="62765343" uid="5234632" user="safirat">
    <nd ref="32895600"/>
    <nd ref="4347308381"/>
    <nd ref="32895765"/>
    <nd ref="32895766"/>
    <nd ref="4347308409"/>
    <nd ref="32895767"/>
    <nd ref="32895768"/>
    <nd ref="4347308412"/>
    <nd ref="32895769"/>
    <nd ref="32895770"/>
    <nd ref="32895771"/>
    <nd ref="5918475216"/>
    <nd ref="4347308411"/>
    <nd ref="32895601"/>
    <tag k="highway" v="residential"/>
    <tag k="lit" v="yes"/>
    <tag k="maxspeed" v="20 mph"/>
    <tag k="name" v="Easter Drylaw Gardens"/>
    <tag k="source" v="Bing"/>
  </way>
  <way id="4967174" version="8" timestamp="2018-02-12T21:42:34Z" changeset="56306651" uid="91225" user="tms13">
    <nd ref="32895771"/>
    <nd ref="4347193220"/>
    <nd ref="4347193222"/>
    <nd ref="4347193238"/>
    <nd ref="32895675"/>
    <tag k="highway" v="residential"/>
    <tag k="lit" v="yes"/>
    <tag k="maxspeed" v="20 mph"/>
    <tag k="name" v="Easter Drylaw Loan"/>
    <tag k="source" v="Bing"/>
  </way>
  <way id="4967178" version="7" timestamp="2018-02-12T21:42:34Z" changeset="56306651" uid="91225" user="tms13">
    <nd ref="32895776"/>
    <nd ref="4347193239"/>
    <nd ref="1244272263"/>
    <nd ref="4347193230"/>
    <tag k="highway" v="residential"/>
    <tag k="lit" v="yes"/>
    <tag k="maxspeed" v="20 mph"/>
    <tag k="name" v="Easter Drylaw Place"/>
    <tag k="source" v="Bing"/>
  </way>
  <way id="4967182" version="8" timestamp="2018-02-12T21:42:33Z" changeset="56306651" uid="91225" user="tms13">
    <nd ref="4347308376"/>
    <nd ref="4347308377"/>
    <nd ref="32895748"/>
    <nd ref="1854832248"/>
    <nd ref="32895808"/>
    <nd ref="32895814"/>
    <nd ref="32895809"/>
    <tag k="highway" v="residential"/>
    <tag k="lit" v="yes"/>
    <tag k="maxspeed" v="20 mph"/>
    <tag k="name" v="Easter Drylaw Avenue"/>
    <tag k="source" v="Bing"/>
  </way>
  <way id="4967185" version="6" timestamp="2018-02-12T21:42:34Z" changeset="56306651" uid="91225" user="tms13">
    <nd ref="32895808"/>
    <nd ref="4347396025"/>
    <nd ref="32895813"/>
    <tag k="highway" v="residential"/>
    <tag k="lit" v="yes"/>
    <tag k="maxspeed" v="20 mph"/>
    <tag k="name" v="Easter Drylaw Avenue"/>
  </way>
  <way id="4967192" version="9" timestamp="2018-02-12T21:42:33Z" changeset="56306651" uid="91225" user="tms13">
    <nd ref="32895722"/>
    <nd ref="4347396026"/>
    <nd ref="4347396027"/>
    <nd ref="4347396028"/>
    <nd ref="32895820"/>
    <nd ref="4347122716"/>
    <nd ref="4347084679"/>
    <nd ref="32895677"/>
    <nd ref="4347084680"/>
    <nd ref="4347084688"/>
    <nd ref="32895828"/>
    <tag k="highway" v="residential"/>
    <tag k="lit" v="yes"/>
    <tag k="maxspeed" v="20 mph"/>
    <tag k="name" v="Easter Drylaw View"/>
    <tag k="source" v="Bing"/>
  </way>
  <way id="5169699" version="9" timestamp="2024-08-22T20:24:21Z" changeset="155625297" uid="21762849" user="jSeke">
    <nd ref="32031580"/>
    <nd ref="8664815161"/>
    <nd ref="4041755106"/>
    <nd ref="1677411273"/>
    <nd ref="35882129"/>
    <nd ref="4041755109"/>
    <nd ref="4041755104"/>
    <nd ref="35882133"/>
    <tag k="highway" v="residential"/>
    <tag k="maxspeed" v="20 mph"/>
    <tag k="name" v="Ferry Road"/>
    <tag k="name:gd" v="Rathad a' Phuirt"/>
    <tag k="sidewalk" v="right"/>
    <tag k="wikidata" v="Q5445503"/>
  </way>
  <way id="5169716" version="8" timestamp="2024-08-22T20:24:21Z" changeset="155625297" uid="21762849" user="jSeke">
    <nd ref="35882133"/>
    <nd ref="3636645861"/>
    <nd ref="8232347632"/>
    <nd ref="35883055"/>
    <nd ref="8232347623"/>
    <nd ref="35883056"/>
    <nd ref="35883053"/>
    <tag k="highway" v="residential"/>
    <tag k="lit" v="yes"/>
    <tag k="maxspeed" v="20 mph"/>
    <tag k="name" v="Ferry Road"/>
    <tag k="name:gd" v="Rathad a' Phuirt"/>
    <tag k="wikidata" v="Q5445503"/>
  </way>
  <way id="5182109" version="10" timestamp="2024-08-22T20:24:21Z" changeset="155625297" uid="21762849" user="jSeke">
    <nd ref="35883053"/>
    <nd ref="746873997"/>
    <nd ref="4347084675"/>
    <nd ref="4347084676"/>
    <nd ref="4347084677"/>
    <nd ref="8232347626"/>
    <nd ref="4347084678"/>
    <nd ref="36131808"/>
    <nd ref="1282485852"/>
    <nd ref="36131809"/>
    <tag k="highway" v="residential"/>
    <tag k="lit" v="yes"/>
    <tag k="maxspeed" v="20 mph"/>
    <tag k="name" v="Ferry Road"/>
    <tag k="name:gd" v="Rathad a' Phuirt"/>
    <tag k="wikidata" v="Q5445503"/>
  </way>
  <way id="5229445" version="7" timestamp="2020-03-23T06:21:23Z" changeset="82506570" uid="10455643" user="kotamadh">
    <nd ref="36747238"/>
    <nd ref="32895751"/>
    <nd ref="7321085629"/>
    <nd ref="844661131"/>
    <nd ref="2661415284"/>
    <nd ref="844661142"/>
    <nd ref="2661415277"/>
    <nd ref="844661133"/>
    <nd ref="2661415267"/>
    <nd ref="1854832153"/>
    <nd ref="4371656975"/>
    <nd ref="4371656973"/>
    <nd ref="32031598"/>
    <tag k="highway" v="residential"/>
    <tag k="lanes" v="2"/>
    <tag k="lit" v="yes"/>
    <tag k="maxspeed" v="20 mph"/>
    <tag k="name" v="Wester Drylaw Avenue"/>
    <tag k="surface" v="asphalt"/>
  </way>
  <way id="5229446" version="10" timestamp="2025-03-16T12:04:26Z" changeset="163685263" uid="7400464" user="Moohan">
    <nd ref="36747239"/>
    <nd ref="11999245797"/>
    <nd ref="32895728"/>
    <nd ref="9634497863"/>
    <nd ref="32031633"/>
    <nd ref="38250644"/>
    <nd ref="36753476"/>
    <nd ref="32895577"/>
    <tag k="cycleway:both" v="no"/>
    <tag k="highway" v="tertiary"/>
    <tag k="lit" v="yes"/>
    <tag k="maxspeed" v="20 mph"/>
    <tag k="name" v="Groathill Road North"/>
    <tag k="source" v="Bing"/>
    <tag k="surface" v="asphalt"/>
  </way>
  <way id="5230002" version="11" timestamp="2023-10-11T12:37:32Z" changeset="142435057" uid="463360" user="John-O">
    <nd ref="343401373"/>
    <nd ref="288418689"/>
    <nd ref="343401372"/>
    <nd ref="7149290417"/>
    <nd ref="36747240"/>
    <tag k="highway" v="tertiary"/>
    <tag k="junction" v="roundabout"/>
    <tag k="lit" v="yes"/>
    <tag k="maxspeed" v="20 mph"/>
    <tag k="name" v="Groathill Road North"/>
    <tag k="source" v="Bing"/>
    <tag k="surface" v="asphalt"/>
  </way>
  <way id="5230059" version="3" timestamp="2014-12-31T17:40:48Z" changeset="27827178" uid="42123" user="Ropino">
    <nd ref="36753472"/>
    <nd ref="36753473"/>
    <nd ref="36753475"/>
    <nd ref="36753476"/>
    <tag k="highway" v="residential"/>
    <tag k="maxspeed" v="20 mph"/>
    <tag k="name" v="Wester Drylaw Row"/>
  </way>
  <way id="5253375" version="7" timestamp="2018-02-12T21:42:34Z" changeset="56306651" uid="91225" user="tms13">
    <nd ref="32895765"/>
    <nd ref="4347308396"/>
    <nd ref="4347396024"/>
    <nd ref="32895748"/>
    <nd ref="4347396023"/>
    <nd ref="4347396015"/>
    <nd ref="4347396014"/>
    <nd ref="4347396013"/>
    <nd ref="38250604"/>
    <tag k="highway" v="residential"/>
    <tag k="lit" v="yes"/>
    <tag k="maxspeed" v="20 mph"/>
    <tag k="name" v="Easter Drylaw Grove"/>
    <tag k="source" v="Bing"/>
  </way>
  <way id="5352815" version="6" timestamp="2018-02-12T21:42:32Z" changeset="56306651" uid="91225" user="tms13">
    <nd ref="38251279"/>
    <nd ref="4347308417"/>
    <nd ref="38251283"/>
    <nd ref="1244272184"/>
    <nd ref="1244272168"/>
    <nd ref="1244272192"/>
    <nd ref="1244272183"/>
    <nd ref="1244272332"/>
    <nd ref="4347308416"/>
    <nd ref="1244272316"/>
    <tag k="highway" v="residential"/>
    <tag k="lit" v="yes"/>
    <tag k="maxspeed" v="20 mph"/>
    <tag k="name" v="Wester Drylaw Place"/>
  </way>
  <way id="5352822" version="9" timestamp="2016-08-12T14:45:57Z" changeset="41412083" uid="3670347" user="rob_michel">
    <nd ref="38250584"/>
    <nd ref="4347308415"/>
    <nd ref="4347122709"/>
    <nd ref="4347122707"/>
    <nd ref="4347122708"/>
    <nd ref="4347122710"/>
    <nd ref="4347122711"/>
    <nd ref="4347122712"/>
    <nd ref="4347122714"/>
    <nd ref="4347122718"/>
    <tag k="highway" v="residential"/>
    <tag k="maxspeed" v="20 mph"/>
    <tag k="name" v="Easter Drylaw Way"/>
    <tag k="source" v="Bing"/>
  </way>
  <way id="5352826" version="4" timestamp="2014-12-31T17:33:18Z" changeset="27827178" uid="42123" user="Ropino">
    <nd ref="38250608"/>
    <nd ref="38250611"/>
    <tag k="highway" v="residential"/>
    <tag k="maxspeed" v="20 mph"/>
    <tag k="name" v="Groathill Loan"/>
  </way>
  <way id="5352827" version="5" timestamp="2016-08-12T14:45:58Z" changeset="41412083" uid="3670347" user="rob_michel">
    <nd ref="38250639"/>
    <nd ref="38250642"/>
    <nd ref="4347461850"/>
    <nd ref="38250644"/>
    <tag k="highway" v="residential"/>
    <tag k="maxspeed" v="20 mph"/>
    <tag k="name" v="Groathill Loan"/>
    <tag k="source" v="Bing"/>
  </way>
  <way id="5732399" version="9" timestamp="2018-05-02T15:05:52Z" changeset="58617912" uid="91225" user="tms13">
    <nd ref="43506958"/>
    <nd ref="251349822"/>
    <nd ref="43507231"/>
    <nd ref="3732953836"/>
    <nd ref="3732953831"/>
    <nd ref="43507232"/>
    <nd ref="3732953723"/>
    <nd ref="1417790502"/>
    <nd ref="43507237"/>
    <nd ref="3732953647"/>
    <nd ref="43507241"/>
    <nd ref="43507243"/>
    <tag k="highway" v="residential"/>
    <tag k="lit" v="yes"/>
    <tag k="maxspeed" v="20 mph"/>
    <tag k="name" v="Grigor Drive"/>
  </way>
  <way id="5887128" version="7" timestamp="2018-05-02T15:06:00Z" changeset="58617912" uid="91225" user="tms13">
    <nd ref="38250550"/>
    <nd ref="4325082996"/>
    <nd ref="4325082999"/>
    <nd ref="4325083001"/>
    <nd ref="4325082998"/>
    <nd ref="4325082997"/>
    <nd ref="38250556"/>
    <nd ref="38250560"/>
    <nd ref="4325082986"/>
    <nd ref="4325082985"/>
    <nd ref="38250563"/>
    <nd ref="4325082980"/>
    <nd ref="4325082977"/>
    <nd ref="4325082974"/>
    <nd ref="4325082972"/>
    <nd ref="4325082965"/>
    <tag k="highway" v="residential"/>
    <tag k="lit" v="yes"/>
    <tag k="maxspeed" v="20 mph"/>
    <tag k="name" v="Telford March"/>
  </way>
  <way id="5887130" version="6" timestamp="2018-05-02T15:06:00Z" changeset="58617912" uid="91225" user="tms13">
    <nd ref="38250560"/>
    <nd ref="38250568"/>
    <tag k="highway" v="residential"/>
    <tag k="lit" v="yes"/>
    <tag k="maxspeed" v="20 mph"/>
    <tag k="name" v="Telford March"/>
  </way>
  <way id="24264347" version="5" timestamp="2024-08-27T16:46:49Z" changeset="155841699" uid="21762849" user="jSeke">
    <nd ref="262701709"/>
    <nd ref="4347502111"/>
    <nd ref="4347502112"/>
    <nd ref="4347502113"/>
    <nd ref="4347502114"/>
    <nd ref="4347502115"/>
    <nd ref="262701711"/>
    <nd ref="262701712"/>
    <tag k="highway" v="residential"/>
    <tag k="maxspeed" v="20 mph"/>
    <tag k="name" v="Telford Road"/>
    <tag k="name:gd" v="Rathad Telford"/>
    <tag k="source" v="Bing"/>
  </way>
  <way id="24264352" version="9" timestamp="2024-08-27T16:46:49Z" changeset="155841699" uid="21762849" user="jSeke">
    <nd ref="38250543"/>
    <nd ref="262701743"/>
    <nd ref="4325082938"/>
    <nd ref="4325082937"/>
    <nd ref="4325082936"/>
    <nd ref="262701744"/>
    <nd ref="262701745"/>
    <nd ref="4325082907"/>
    <nd ref="4325082901"/>
    <nd ref="4325082896"/>
    <nd ref="4325082889"/>
    <nd ref="4325082784"/>
    <nd ref="1417790564"/>
    <nd ref="4325082777"/>
    <nd ref="4325082774"/>
    <nd ref="4325082772"/>
    <nd ref="1417790513"/>
    <nd ref="4325082765"/>
    <nd ref="4325082760"/>
    <nd ref="38250532"/>
    <tag k="highway" v="residential"/>
    <tag k="lit" v="yes"/>
    <tag k="maxspeed" v="20 mph"/>
    <tag k="name" v="Telford Drive"/>
    <tag k="name:gd" v="Dràibh Telford"/>
  </way>
  <way id="24264353" version="9" timestamp="2024-08-27T16:46:49Z" changeset="155841699" uid="21762849" user="jSeke">
    <nd ref="38250528"/>
    <nd ref="4325082733"/>
    <nd ref="262701746"/>
    <nd ref="4325082725"/>
    <nd ref="4325082722"/>
    <nd ref="4325082721"/>
    <nd ref="4325082719"/>
    <nd ref="262701747"/>
    <nd ref="4325082716"/>
    <nd ref="262701748"/>
    <nd ref="4325082710"/>
    <nd ref="4325082707"/>
    <nd ref="262701749"/>
    <nd ref="1417790544"/>
    <nd ref="4325082480"/>
    <nd ref="4325082478"/>
    <nd ref="4325082477"/>
    <nd ref="262701750"/>
    <nd ref="4325082479"/>
    <nd ref="4325082481"/>
    <nd ref="4325082482"/>
    <nd ref="262701751"/>
    <tag k="highway" v="residential"/>
    <tag k="lit" v="yes"/>
    <tag k="maxspeed" v="20 mph"/>
    <tag k="name" v="Telford Drive"/>
    <tag k="name:gd" v="Dràibh Telford"/>
  </way>
  <way id="24264354" version="13" timestamp="2025-03-16T12:03:38Z" changeset="163685375" uid="7400464" user="Moohan">
    <nd ref="630830"/>
    <nd ref="262701731"/>
    <nd ref="4325082400"/>
    <nd ref="4325082405"/>
    <nd ref="4325082409"/>
    <nd ref="262701739"/>
    <nd ref="4325082414"/>
    <nd ref="4325082419"/>
    <nd ref="1417790499"/>
    <nd ref="1439342616"/>
    <nd ref="4325082442"/>
    <nd ref="4325082448"/>
    <nd ref="1417790552"/>
    <nd ref="4325082453"/>
    <nd ref="4325082454"/>
    <nd ref="4325082457"/>
    <nd ref="262701741"/>
    <nd ref="262701742"/>
    <nd ref="262701751"/>
    <nd ref="38250527"/>
    <nd ref="4325082736"/>
    <nd ref="38250528"/>
    <nd ref="4325082749"/>
    <nd ref="38250532"/>
    <nd ref="38250535"/>
    <nd ref="38250539"/>
    <nd ref="2409607870"/>
    <nd ref="4325082906"/>
    <nd ref="4325082917"/>
    <nd ref="38250543"/>
    <nd ref="4325082944"/>
    <nd ref="4325082953"/>
    <nd ref="1417790536"/>
    <nd ref="4325082961"/>
    <nd ref="38250546"/>
    <nd ref="4325082968"/>
    <nd ref="4325082978"/>
    <nd ref="38250550"/>
    <nd ref="4325082995"/>
    <nd ref="4325083004"/>
    <nd ref="4325083006"/>
    <nd ref="1417790511"/>
    <nd ref="4325083011"/>
    <nd ref="38250553"/>
    <nd ref="4325083020"/>
    <nd ref="4325083024"/>
    <nd ref="4325083025"/>
    <nd ref="4325083028"/>
    <nd ref="4325083031"/>
    <nd ref="262701752"/>
    <nd ref="1417790496"/>
    <nd ref="4325083034"/>
    <nd ref="262701757"/>
    <tag k="cycleway:both" v="no"/>
    <tag k="highway" v="residential"/>
    <tag k="lit" v="yes"/>
    <tag k="maxspeed" v="20 mph"/>
    <tag k="name" v="Telford Drive"/>
    <tag k="name:gd" v="Dràibh Telford"/>
    <tag k="surface" v="asphalt"/>
  </way>
  <way id="24264355" version="14" timestamp="2025-05-05T15:32:10Z" changeset="165852207" uid="3432400" user="GinaroZ">
    <nd ref="262701731"/>
    <nd ref="4325082074"/>
    <nd ref="4325082082"/>
    <nd ref="4325082087"/>
    <nd ref="4325082392"/>
    <nd ref="4325082393"/>
    <nd ref="4325082394"/>
    <nd ref="4325082395"/>
    <nd ref="4325082397"/>
    <nd ref="4325082402"/>
    <nd ref="262701771"/>
    <nd ref="12811902443"/>
    <nd ref="4325082418"/>
    <nd ref="262701777"/>
    <nd ref="4325082459"/>
    <nd ref="4325082465"/>
    <nd ref="4325082470"/>
    <nd ref="262701779"/>
    <nd ref="4325082694"/>
    <nd ref="262701780"/>
    <nd ref="12811902447"/>
    <nd ref="262701781"/>
    <nd ref="4325082755"/>
    <nd ref="4325082758"/>
    <nd ref="262701782"/>
    <nd ref="4325082950"/>
    <nd ref="4325082959"/>
    <nd ref="262701783"/>
    <nd ref="4325082990"/>
    <nd ref="4325083003"/>
    <nd ref="4325083007"/>
    <nd ref="262701784"/>
    <nd ref="4325083013"/>
    <nd ref="4325083016"/>
    <nd ref="4325083019"/>
    <nd ref="4325083022"/>
    <nd ref="4325083023"/>
    <nd ref="262701785"/>
    <nd ref="4326681224"/>
    <nd ref="4326681226"/>
    <nd ref="4326681227"/>
    <nd ref="4326681229"/>
    <nd ref="4326681231"/>
    <nd ref="1024948303"/>
    <nd ref="4326681233"/>
    <nd ref="4326681235"/>
    <nd ref="4326681236"/>
    <nd ref="262701786"/>
    <nd ref="4326681248"/>
    <nd ref="262701787"/>
    <nd ref="4326681249"/>
    <nd ref="262701788"/>
    <nd ref="1417790535"/>
    <nd ref="4326681250"/>
    <nd ref="4326681252"/>
    <nd ref="4326681253"/>
    <nd ref="1417790547"/>
    <nd ref="262701789"/>
    <nd ref="262701790"/>
    <nd ref="4326681247"/>
    <nd ref="4326681246"/>
    <nd ref="1417790495"/>
    <nd ref="4326681245"/>
    <nd ref="4326681244"/>
    <nd ref="262701792"/>
    <nd ref="4326681243"/>
    <nd ref="4326681242"/>
    <nd ref="4326681241"/>
    <nd ref="4326681239"/>
    <nd ref="4326681238"/>
    <nd ref="262701786"/>
    <tag k="cycleway:both" v="no"/>
    <tag k="highway" v="residential"/>
    <tag k="lit" v="yes"/>
    <tag k="maxspeed" v="20 mph"/>
    <tag k="name" v="Telford Road"/>
    <tag k="name:gd" v="Rathad Telford"/>
    <tag k="surface" v="asphalt"/>
  </way>
  <way id="24264356" version="7" timestamp="2024-08-27T16:46:49Z" changeset="155841699" uid="21762849" user="jSeke">
    <nd ref="262701781"/>
    <nd ref="38250539"/>
    <tag k="highway" v="residential"/>
    <tag k="lit" v="yes"/>
    <tag k="maxspeed" v="20 mph"/>
    <tag k="name" v="Telford Gardens"/>
    <tag k="name:gd" v="Gàrradh Telford"/>
  </way>
  <way id="24264357" version="4" timestamp="2014-12-31T17:40:07Z" changeset="27827178" uid="42123" user="Ropino">
    <nd ref="630850"/>
    <nd ref="262701794"/>
    <nd ref="262701795"/>
    <nd ref="262701796"/>
    <tag k="highway" v="residential"/>
    <tag k="maxspeed" v="30 mph"/>
    <tag k="name" v="Telford Grove"/>
  </way>
  <way id="24264358" version="3" timestamp="2014-12-31T17:40:07Z" changeset="27827178" uid="42123" user="Ropino">
    <nd ref="262701794"/>
    <nd ref="262701797"/>
    <tag k="highway" v="residential"/>
    <tag k="maxspeed" v="30 mph"/>
    <tag k="name" v="Telford Grove"/>
  </way>
  <way id="24264360" version="6" timestamp="2016-08-12T14:45:58Z" changeset="41412083" uid="3670347" user="rob_michel">
    <nd ref="262701801"/>
    <nd ref="38250611"/>
    <nd ref="4347461870"/>
    <nd ref="38250616"/>
    <nd ref="4347461869"/>
    <nd ref="38250620"/>
    <nd ref="4347461867"/>
    <nd ref="38250623"/>
    <nd ref="2000201278"/>
    <nd ref="4347461858"/>
    <nd ref="38250626"/>
    <nd ref="4347461855"/>
    <nd ref="2000201263"/>
    <nd ref="38250630"/>
    <nd ref="4347461854"/>
    <nd ref="38250635"/>
    <nd ref="4347461853"/>
    <nd ref="508504577"/>
    <nd ref="4347461852"/>
    <nd ref="2000201276"/>
    <nd ref="4347461851"/>
    <nd ref="38250639"/>
    <tag k="highway" v="residential"/>
    <tag k="maxspeed" v="20 mph"/>
    <tag k="name" v="Groathill Loan"/>
    <tag k="source" v="Bing"/>
  </way>
  <way id="24264363" version="6" timestamp="2018-02-12T21:42:34Z" changeset="56306651" uid="91225" user="tms13">
    <nd ref="32895724"/>
    <nd ref="4347308378"/>
    <nd ref="4347308379"/>
    <nd ref="32895814"/>
    <nd ref="4347308382"/>
    <nd ref="38250584"/>
    <nd ref="4347308420"/>
    <nd ref="32895818"/>
    <tag k="highway" v="residential"/>
    <tag k="lit" v="yes"/>
    <tag k="maxspeed" v="20 mph"/>
    <tag k="name" v="Easter Drylaw Bank"/>
    <tag k="source" v="Bing"/>
  </way>
  <way id="26325472" version="5" timestamp="2020-07-13T12:27:08Z" changeset="87923348" uid="636803" user="michau">
    <nd ref="288418550"/>
    <nd ref="288418551"/>
    <tag k="highway" v="residential"/>
    <tag k="lit" v="yes"/>
    <tag k="maxspeed" v="20 mph"/>
    <tag k="name" v="Wester Drylaw Place"/>
  </way>
  <way id="29056910" version="27" timestamp="2025-05-05T15:32:10Z" changeset="165852207" uid="3432400" user="GinaroZ">
    <nd ref="630868"/>
    <nd ref="630825"/>
    <nd ref="607765731"/>
    <nd ref="630827"/>
    <nd ref="607765736"/>
    <nd ref="630828"/>
    <nd ref="11568696156"/>
    <nd ref="630829"/>
    <nd ref="630830"/>
    <nd ref="630831"/>
    <nd ref="12811902446"/>
    <nd ref="630832"/>
    <nd ref="630833"/>
    <nd ref="3858823374"/>
    <nd ref="630834"/>
    <nd ref="630835"/>
    <nd ref="1930344688"/>
    <nd ref="630836"/>
    <nd ref="630837"/>
    <nd ref="630838"/>
    <nd ref="12811902450"/>
    <nd ref="630839"/>
    <nd ref="630840"/>
    <nd ref="630841"/>
    <nd ref="630842"/>
    <nd ref="630843"/>
    <nd ref="4325082984"/>
    <nd ref="630844"/>
    <nd ref="43506958"/>
    <nd ref="630845"/>
    <nd ref="630847"/>
    <nd ref="630848"/>
    <nd ref="1417790559"/>
    <nd ref="630849"/>
    <nd ref="3732954659"/>
    <nd ref="630850"/>
    <nd ref="11568696155"/>
    <nd ref="630851"/>
    <nd ref="510560000"/>
    <nd ref="4030565723"/>
    <tag k="cycleway:both" v="no"/>
    <tag k="highway" v="primary"/>
    <tag k="lanes" v="4"/>
    <tag k="lit" v="yes"/>
    <tag k="maxspeed" v="30 mph"/>
    <tag k="name" v="Telford Road"/>
    <tag k="name:gd" v="Rathad Telford"/>
    <tag k="old_ref" v="A982"/>
    <tag k="ref" v="A902"/>
    <tag k="surface" v="asphalt"/>
  </way>
  <way id="29056914" version="16" timestamp="2025-03-16T12:04:08Z" changeset="163685263" uid="7400464" user="Moohan">
    <nd ref="630869"/>
    <nd ref="630868"/>
    <tag k="bridge" v="yes"/>
    <tag k="cycleway:both" v="no"/>
    <tag k="highway" v="primary"/>
    <tag k="layer" v="1"/>
    <tag k="lit" v="yes"/>
    <tag k="maxspeed" v="30 mph"/>
    <tag k="name" v="Telford Road"/>
    <tag k="name:gd" v="Rathad Telford"/>
    <tag k="old_ref" v="A982"/>
    <tag k="ref" v="A902"/>
    <tag k="surface" v="asphalt"/>
  </way>
  <way id="30885407" version="8" timestamp="2021-04-25T15:32:27Z" changeset="103579862" uid="388774" user="drnoble">
    <nd ref="32895636"/>
    <nd ref="4371657241"/>
    <nd ref="1244272307"/>
    <nd ref="288418551"/>
    <nd ref="38251277"/>
    <nd ref="3636645815"/>
    <nd ref="4371657181"/>
    <nd ref="288418305"/>
    <nd ref="8664815106"/>
    <nd ref="288418234"/>
    <nd ref="8664815105"/>
    <nd ref="4371657150"/>
    <nd ref="8664815104"/>
    <nd ref="288418306"/>
    <nd ref="8664815103"/>
    <nd ref="288418232"/>
    <tag k="highway" v="residential"/>
    <tag k="lit" v="yes"/>
    <tag k="maxspeed" v="20 mph"/>
    <tag k="name" v="Wester Drylaw Place"/>
  </way>
  <way id="30885530" version="6" timestamp="2021-10-31T14:34:50Z" changeset="113195787" uid="3432400" user="GinaroZ">
    <nd ref="343399554"/>
    <nd ref="343399560"/>
    <nd ref="343399561"/>
    <nd ref="343399562"/>
    <nd ref="343399563"/>
    <nd ref="343399565"/>
    <nd ref="343399566"/>
    <nd ref="343399567"/>
    <nd ref="343399554"/>
    <tag k="addr:city" v="Edinburgh"/>
    <tag k="addr:housenumber" v="32"/>
    <tag k="addr:street" v="Groathill Road North"/>
    <tag k="building" v="yes"/>
    <tag k="name" v="Drylaw House"/>
    <tag k="wikidata" v="Q17571099"/>
  </way>
  <way id="61460757" version="9" timestamp="2025-03-16T12:02:33Z" changeset="163685263" uid="7400464" user="Moohan">
    <nd ref="262701757"/>
    <nd ref="1417790562"/>
    <nd ref="262701785"/>
    <nd ref="630845"/>
    <tag k="cycleway:both" v="no"/>
    <tag k="highway" v="residential"/>
    <tag k="lit" v="yes"/>
    <tag k="maxspeed" v="20 mph"/>
    <tag k="name" v="Telford Place"/>
    <tag k="name:gd" v="Ceàrn Telford"/>
  </way>
  <way id="70844988" version="6" timestamp="2023-08-04T11:26:14Z" changeset="139437091" uid="2244257" user="andrum99">
    <nd ref="844661220"/>
    <nd ref="11088977216"/>
    <nd ref="844661133"/>
    <tag k="highway" v="residential"/>
    <tag k="maxspeed" v="20 mph"/>
    <tag k="name" v="Drylaw House Paddock"/>
    <tag k="oneway" v="no"/>
    <tag k="source" v="OS_OpenData_StreetView"/>
  </way>
  <way id="70844991" version="5" timestamp="2020-01-21T16:48:01Z" changeset="79867130" uid="3432400" user="GinaroZ">
    <nd ref="844661141"/>
    <nd ref="844661192"/>
    <nd ref="7149290439"/>
    <nd ref="6184715066"/>
    <nd ref="844661170"/>
    <nd ref="6184715068"/>
    <nd ref="844661144"/>
    <nd ref="844661131"/>
    <tag k="highway" v="residential"/>
    <tag k="maxspeed" v="20 mph"/>
    <tag k="name" v="Wester Drylaw Park"/>
    <tag k="source" v="OS_OpenData_StreetView"/>
  </way>
  <way id="70844992" version="4" timestamp="2023-08-04T11:26:14Z" changeset="139437091" uid="2244257" user="andrum99">
    <nd ref="7149290540"/>
    <nd ref="844661164"/>
    <nd ref="844661142"/>
    <tag k="highway" v="residential"/>
    <tag k="maxspeed" v="20 mph"/>
    <tag k="name" v="Drylaw House Gardens"/>
    <tag k="source" v="OS_OpenData_StreetView"/>
  </way>
  <way id="124894500" version="6" timestamp="2023-12-29T17:37:47Z" changeset="145671396" uid="14047157" user="osmuser63783">
    <nd ref="4347308393"/>
    <nd ref="4347308391"/>
    <nd ref="4347308390"/>
    <nd ref="4347308392"/>
    <nd ref="4347308395"/>
    <nd ref="4347308399"/>
    <nd ref="4347308400"/>
    <nd ref="4347308397"/>
    <nd ref="4347308398"/>
    <nd ref="4347308403"/>
    <nd ref="4347308402"/>
    <nd ref="4030562287"/>
    <nd ref="4030562286"/>
    <nd ref="9970605593"/>
    <nd ref="4030562285"/>
    <nd ref="1388602894"/>
    <nd ref="1388602872"/>
    <nd ref="4030565599"/>
    <nd ref="4030565600"/>
    <nd ref="4347308410"/>
    <nd ref="4347308408"/>
    <nd ref="4030565625"/>
    <nd ref="4030565626"/>
    <nd ref="4030565597"/>
    <nd ref="4030565596"/>
    <nd ref="4347308389"/>
    <nd ref="4347308394"/>
    <nd ref="4347308393"/>
    <tag k="amenity" v="place_of_worship"/>
    <tag k="building" v="yes"/>
    <tag k="denomination" v="church_of_scotland"/>
    <tag k="name" v="Drylaw Parish Church"/>
    <tag k="religion" v="christian"/>
    <tag k="wikidata" v="Q114710485"/>
  </way>
  <way id="154214826" version="13" timestamp="2025-03-16T12:04:06Z" changeset="163685263" uid="7400464" user="Moohan">
    <nd ref="32895577"/>
    <nd ref="262701709"/>
    <nd ref="32895574"/>
    <nd ref="3728247592"/>
    <nd ref="262701712"/>
    <nd ref="630869"/>
    <tag k="cycleway:both" v="no"/>
    <tag k="highway" v="primary"/>
    <tag k="lanes" v="4"/>
    <tag k="lit" v="yes"/>
    <tag k="maxspeed" v="30 mph"/>
    <tag k="name" v="Telford Road"/>
    <tag k="name:gd" v="Rathad Telford"/>
    <tag k="old_ref" v="A982"/>
    <tag k="ref" v="A902"/>
    <tag k="surface" v="asphalt"/>
  </way>
  <way id="174827746" version="3" timestamp="2016-08-28T17:19:35Z" changeset="41760470" uid="388774" user="drnoble">
    <nd ref="1854832153"/>
    <nd ref="2661415260"/>
    <nd ref="4371656968"/>
    <nd ref="4371656963"/>
    <nd ref="1854832114"/>
    <tag k="highway" v="residential"/>
    <tag k="lanes" v="2"/>
    <tag k="lit" v="yes"/>
    <tag k="maxspeed" v="20 mph"/>
    <tag k="name" v="Wester Drylaw Avenue"/>
    <tag k="surface" v="asphalt"/>
  </way>
  <way id="276269812" version="5" timestamp="2025-03-16T12:04:03Z" changeset="163685263" uid="7400464" user="Moohan">
    <nd ref="36971759"/>
    <nd ref="630820"/>
    <nd ref="630822"/>
    <nd ref="630823"/>
    <nd ref="630824"/>
    <nd ref="630825"/>
    <tag k="cycleway:both" v="no"/>
    <tag k="highway" v="tertiary"/>
    <tag k="lanes" v="2"/>
    <tag k="lit" v="yes"/>
    <tag k="maxspeed" v="20 mph"/>
    <tag k="name" v="Groathill Avenue"/>
    <tag k="surface" v="asphalt"/>
  </way>
  <way id="400509603" version="8" timestamp="2024-08-22T20:24:21Z" changeset="155625297" uid="21762849" user="jSeke">
    <nd ref="4065233357"/>
    <nd ref="504011296"/>
    <tag k="highway" v="secondary"/>
    <tag k="maxspeed" v="30 mph"/>
    <tag k="name" v="Ferry Road"/>
    <tag k="name:gd" v="Rathad a' Phuirt"/>
    <tag k="oneway" v="yes"/>
    <tag k="surface" v="asphalt"/>
    <tag k="wikidata" v="Q5445503"/>
  </way>
  <way id="400509604" version="12" timestamp="2025-03-16T12:02:15Z" changeset="163685263" uid="7400464" user="Moohan">
    <nd ref="4030565723"/>
    <nd ref="7902514243"/>
    <nd ref="7902514242"/>
    <nd ref="4065233356"/>
    <tag k="cycleway:both" v="no"/>
    <tag k="highway" v="primary"/>
    <tag k="maxspeed" v="30 mph"/>
    <tag k="name" v="Telford Road"/>
    <tag k="name:gd" v="Rathad Telford"/>
    <tag k="oneway" v="yes"/>
    <tag k="surface" v="asphalt"/>
  </way>
  <way id="400509605" version="13" timestamp="2025-03-16T12:02:10Z" changeset="163685263" uid="7400464" user="Moohan">
    <nd ref="4065233358"/>
    <nd ref="12042571056"/>
    <nd ref="7902514245"/>
    <nd ref="7902514244"/>
    <nd ref="4030565723"/>
    <tag k="cycleway:both" v="no"/>
    <tag k="highway" v="primary"/>
    <tag k="maxspeed" v="30 mph"/>
    <tag k="name" v="Telford Road"/>
    <tag k="name:gd" v="Rathad Telford"/>
    <tag k="oneway" v="yes"/>
    <tag k="surface" v="asphalt"/>
  </way>
  <way id="410312266" version="2" timestamp="2016-04-21T22:14:00Z" changeset="38770024" uid="2922304" user="smeòrach">
    <nd ref="4121422754"/>
    <nd ref="4121422755"/>
    <nd ref="4121422758"/>
    <nd ref="4121422760"/>
    <nd ref="4121422757"/>
    <nd ref="4121422759"/>
    <nd ref="4121422762"/>
    <nd ref="4121422765"/>
    <nd ref="4121422761"/>
    <nd ref="4121422763"/>
    <nd ref="4121422752"/>
    <nd ref="4121422749"/>
    <nd ref="4121422754"/>
    <tag k="amenity" v="community_centre"/>
    <tag k="building" v="yes"/>
    <tag k="name" v="Drylaw Neighbourhood Centre"/>
    <tag k="source" v="bing"/>
  </way>
  <way id="439539534" version="3" timestamp="2020-09-22T18:15:08Z" changeset="91313986" uid="3432400" user="GinaroZ">
    <nd ref="4371657126"/>
    <nd ref="4371657110"/>
    <nd ref="4371657109"/>
    <nd ref="4371657124"/>
    <nd ref="4371657125"/>
    <nd ref="4371657126"/>
    <tag k="addr:city" v="Edinburgh"/>
    <tag k="addr:housenumber" v="93"/>
    <tag k="addr:street" v="Wester Drylaw Place"/>
    <tag k="building" v="house"/>
    <tag k="source" v="Bing"/>
  </way>
  <way id="997958341" version="2" timestamp="2024-02-18T06:53:12Z" changeset="147596988" uid="23421" user="chdot">
    <nd ref="9214487111"/>
    <nd ref="9214487112"/>
    <nd ref="9214487113"/>
    <nd ref="9214487115"/>
    <nd ref="9214487111"/>
    <tag k="building" v="ruins"/>
    <tag k="name" v="Drylaw House Dovecot"/>
    <tag k="note" v="https://www.buildingsatrisk.org.uk/details/926695"/>
    <tag k="wikidata" v="Q56631717"/>
  </way>
  <way id="1012486050" version="1" timestamp="2021-12-15T14:41:31Z" changeset="114967460" uid="636803" user="michau">
    <nd ref="4065233357"/>
    <nd ref="59775868"/>
    <nd ref="4030565704"/>
    <nd ref="2906481204"/>
    <nd ref="4065233354"/>
    <tag k="highway" v="primary"/>
    <tag k="junction" v="roundabout"/>
    <tag k="lit" v="yes"/>
    <tag k="maxspeed" v="30 mph"/>
    <tag k="name" v="Crewe Toll"/>
    <tag k="surface" v="asphalt"/>
  </way>
  <way id="1012486052" version="3" timestamp="2023-07-24T08:28:44Z" changeset="138927160" uid="463360" user="John-O">
    <nd ref="4065233358"/>
    <nd ref="504011294"/>
    <nd ref="2906481205"/>
    <nd ref="4030565714"/>
    <nd ref="4065233356"/>
    <tag k="highway" v="primary"/>
    <tag k="junction" v="roundabout"/>
    <tag k="lit" v="yes"/>
    <tag k="maxspeed" v="30 mph"/>
    <tag k="name" v="Crewe Toll"/>
    <tag k="surface" v="asphalt"/>
  </way>
  <way id="1191743041" version="1" timestamp="2023-07-24T08:28:44Z" changeset="138927160" uid="463360" user="John-O">
    <nd ref="4065233356"/>
    <nd ref="4065233357"/>
    <tag k="highway" v="primary"/>
    <tag k="junction" v="roundabout"/>
    <tag k="lit" v="yes"/>
    <tag k="maxspeed" v="30 mph"/>
    <tag k="name" v="Crewe Toll"/>
    <tag k="surface" v="asphalt"/>
  </way>
  <way id="1194715589" version="1" timestamp="2023-08-04T11:26:14Z" changeset="139437091" uid="2244257" user="andrum99">
    <nd ref="11088977216"/>
    <nd ref="11088977217"/>
    <tag k="highway" v="residential"/>
    <tag k="maxspeed" v="20 mph"/>
    <tag k="name" v="Drylaw House Paddock"/>
    <tag k="oneway" v="no"/>
  </way>
  <way id="1214797646" version="1" timestamp="2023-10-11T12:37:32Z" changeset="142435057" uid="463360" user="John-O">
    <nd ref="36747239"/>
    <nd ref="343401375"/>
    <nd ref="288418692"/>
    <nd ref="343401374"/>
    <nd ref="683652027"/>
    <nd ref="36747238"/>
    <tag k="highway" v="tertiary"/>
    <tag k="junction" v="roundabout"/>
    <tag k="lit" v="yes"/>
    <tag k="maxspeed" v="20 mph"/>
    <tag k="name" v="Groathill Road North"/>
    <tag k="source" v="Bing"/>
    <tag k="surface" v="asphalt"/>
  </way>
  <way id="1214797647" version="1" timestamp="2023-10-11T12:37:32Z" changeset="142435057" uid="463360" user="John-O">
    <nd ref="36747238"/>
    <nd ref="343401373"/>
    <tag k="highway" v="tertiary"/>
    <tag k="junction" v="roundabout"/>
    <tag k="lit" v="yes"/>
    <tag k="maxspeed" v="20 mph"/>
    <tag k="name" v="Groathill Road North"/>
    <tag k="source" v="Bing"/>
    <tag k="surface" v="asphalt"/>
  </way>
  <way id="1214797648" version="2" timestamp="2024-06-21T16:22:19Z" changeset="152999922" uid="20487713" user="iiBus">
    <nd ref="36747240"/>
    <nd ref="288418690"/>
    <nd ref="343401379"/>
    <nd ref="11999245800"/>
    <nd ref="36747241"/>
    <nd ref="7149290416"/>
    <nd ref="4347308376"/>
    <tag k="highway" v="tertiary"/>
    <tag k="junction" v="roundabout"/>
    <tag k="lit" v="yes"/>
    <tag k="maxspeed" v="20 mph"/>
    <tag k="name" v="Groathill Road North"/>
    <tag k="source" v="Bing"/>
    <tag k="surface" v="asphalt"/>
  </way>
  <way id="1214797649" version="2" timestamp="2024-06-21T16:22:19Z" changeset="152999922" uid="20487713" user="iiBus">
    <nd ref="4347308376"/>
    <nd ref="343401378"/>
    <nd ref="288418691"/>
    <nd ref="11999245801"/>
    <nd ref="343401376"/>
    <nd ref="36747239"/>
    <tag k="highway" v="tertiary"/>
    <tag k="junction" v="roundabout"/>
    <tag k="lit" v="yes"/>
    <tag k="maxspeed" v="20 mph"/>
    <tag k="name" v="Groathill Road North"/>
    <tag k="source" v="Bing"/>
    <tag k="surface" v="asphalt"/>
  </way>

</osm>
