<?xml version="1.0" encoding="UTF-8"?>
<osm version="0.6" generator="Overpass API 0.7.62.5 1bd436f1">
<note>The data included in this document is from www.openstreetmap.org. The data is made available under ODbL.</note>
<meta osm_base="2025-04-27T07:26:58Z" areas="2025-02-06T02:17:44Z"/>

  <node id="5276241" lat="52.1525126" lon="0.0437300" version="4" timestamp="2012-07-19T10:17:29Z" changeset="12318077" uid="714383" user="alterain"/>
  <node id="5276266" lat="52.1540752" lon="0.0121895" version="3" timestamp="2018-11-01T15:29:07Z" changeset="64082872" uid="1257159" user="Jean-Pierre Rondeau"/>
  <node id="21076393" lat="52.1613449" lon="0.0217910" version="3" timestamp="2015-04-19T17:02:24Z" changeset="30335536" uid="2020" user="comsomol"/>
  <node id="21076409" lat="52.1489186" lon="0.0062495" version="2" timestamp="2015-09-21T10:25:56Z" changeset="34157287" uid="281267" user="smb1001"/>
  <node id="32129542" lat="52.1712672" lon="0.0203819" version="4" timestamp="2016-01-07T00:26:19Z" changeset="36415921" uid="493595" user="Yorvik Prestigitator"/>
  <node id="60851463" lat="52.1745102" lon="0.0206960" version="3" timestamp="2016-01-07T00:26:19Z" changeset="36415921" uid="493595" user="Yorvik Prestigitator"/>
  <node id="1698547726" lat="52.1712094" lon="0.0387463" version="1" timestamp="2012-03-30T21:19:49Z" changeset="11160285" uid="24119" user="Mauls"/>
  <node id="8998692563" lat="52.1624265" lon="0.0233674" version="1" timestamp="2021-08-11T12:52:57Z" changeset="109517619" uid="742701" user="kerr smith"/>
  <way id="4006083" version="4" timestamp="2024-02-08T16:15:32Z" changeset="147224262" uid="742701" user="kerr smith">
    <nd ref="21098265"/>
    <nd ref="6029985794"/>
    <nd ref="1742113821"/>
    <nd ref="5276265"/>
    <nd ref="1742113818"/>
    <nd ref="21098266"/>
    <nd ref="1742113817"/>
    <nd ref="21098267"/>
    <nd ref="1742113816"/>
    <nd ref="1742113815"/>
    <nd ref="1742113814"/>
    <nd ref="5276263"/>
    <nd ref="5276262"/>
    <nd ref="1742113813"/>
    <nd ref="21076374"/>
    <nd ref="1742113812"/>
    <nd ref="6029985795"/>
    <nd ref="11598728114"/>
    <nd ref="11598728119"/>
    <nd ref="60850823"/>
    <nd ref="6029985796"/>
    <nd ref="1742113811"/>
    <nd ref="60850822"/>
    <tag k="highway" v="tertiary"/>
    <tag k="name" v="Eversden Road"/>
    <tag k="source:name" v="dictaphone"/>
  </way>
  <way id="4006084" version="7" timestamp="2023-12-25T13:54:03Z" changeset="145498663" uid="493595" user="Yorvik Prestigitator">
    <nd ref="60850811"/>
    <nd ref="5276250"/>
    <nd ref="60850810"/>
    <nd ref="6029985821"/>
    <nd ref="3130811969"/>
    <nd ref="6029985822"/>
    <nd ref="11452115835"/>
    <nd ref="5276251"/>
    <nd ref="6029985823"/>
    <nd ref="60851477"/>
    <nd ref="21076373"/>
    <nd ref="6029985820"/>
    <nd ref="60850808"/>
    <nd ref="2072212067"/>
    <nd ref="5276253"/>
    <nd ref="60850807"/>
    <nd ref="6029985819"/>
    <nd ref="8020591136"/>
    <nd ref="5276254"/>
    <nd ref="60850816"/>
    <nd ref="6029985807"/>
    <nd ref="60850815"/>
    <nd ref="6029985806"/>
    <tag k="abutters" v="residential"/>
    <tag k="highway" v="tertiary"/>
    <tag k="name" v="High Street"/>
    <tag k="source:name" v="dictaphone"/>
  </way>
  <way id="4917168" version="7" timestamp="2023-12-29T13:23:37Z" changeset="145661248" uid="242345" user="confusedbuffalo">
    <nd ref="21076393"/>
    <nd ref="3465721421"/>
    <nd ref="5296679299"/>
    <nd ref="3931453627"/>
    <nd ref="32129189"/>
    <nd ref="3931453625"/>
    <nd ref="1827387875"/>
    <nd ref="32129187"/>
    <nd ref="1827387916"/>
    <nd ref="1827387976"/>
    <nd ref="1827387914"/>
    <nd ref="32129191"/>
    <nd ref="1827387913"/>
    <nd ref="1827387920"/>
    <nd ref="1827387955"/>
    <nd ref="32124209"/>
    <nd ref="1827387929"/>
    <nd ref="1827387898"/>
    <nd ref="1827387978"/>
    <nd ref="1827387917"/>
    <nd ref="32129291"/>
    <nd ref="1827387940"/>
    <nd ref="1827387965"/>
    <nd ref="32124151"/>
    <tag k="highway" v="tertiary"/>
    <tag k="lit" v="no"/>
    <tag k="name" v="Comberton Road"/>
    <tag k="source:ref" v="GPS survey"/>
    <tag k="surface" v="asphalt"/>
  </way>
  <way id="4991437" version="14" timestamp="2023-09-10T10:12:58Z" changeset="141055808" uid="664409" user="cmh_germany">
    <nd ref="5276266"/>
    <nd ref="5296696993"/>
    <nd ref="21098265"/>
    <tag k="cycleway:both" v="no"/>
    <tag k="highway" v="primary"/>
    <tag k="lanes" v="2"/>
    <tag k="lit" v="no"/>
    <tag k="maxspeed" v="50 mph"/>
    <tag k="maxspeed:type" v="sign"/>
    <tag k="name" v="Hillside"/>
    <tag k="ref" v="A603"/>
    <tag k="surface" v="asphalt"/>
  </way>
  <way id="5236370" version="26" timestamp="2023-09-10T10:12:58Z" changeset="141055808" uid="664409" user="cmh_germany">
    <nd ref="1698547726"/>
    <nd ref="367855024"/>
    <nd ref="280368135"/>
    <nd ref="3465721420"/>
    <nd ref="5296752149"/>
    <nd ref="5296752147"/>
    <nd ref="3465721425"/>
    <nd ref="367861098"/>
    <nd ref="21076391"/>
    <nd ref="3465721426"/>
    <nd ref="3465721419"/>
    <nd ref="21076392"/>
    <nd ref="3465721423"/>
    <tag k="highway" v="primary"/>
    <tag k="lanes" v="2"/>
    <tag k="lit" v="no"/>
    <tag k="maxspeed" v="60 mph"/>
    <tag k="maxspeed:type" v="GB:nsl_single"/>
    <tag k="name" v="Cambridge Road"/>
    <tag k="ref" v="A603"/>
    <tag k="smoothness" v="good"/>
    <tag k="surface" v="asphalt"/>
  </way>
  <way id="8107941" version="4" timestamp="2016-09-24T19:11:13Z" changeset="42410497" uid="16089" user="Ben Harris">
    <nd ref="32129482"/>
    <nd ref="3465721427"/>
    <nd ref="32129103"/>
    <nd ref="32129406"/>
    <nd ref="32129619"/>
    <nd ref="368332232"/>
    <tag k="hgv" v="unsuitable"/>
    <tag k="highway" v="unclassified"/>
    <tag k="name" v="Washpit Lane"/>
    <tag k="source:hgv" v="sign"/>
    <tag k="source:ref" v="GPS survey"/>
  </way>
  <way id="8107942" version="2" timestamp="2022-03-17T18:53:38Z" changeset="118607019" uid="5173844" user="ndrw6">
    <nd ref="6029985806"/>
    <nd ref="9586179029"/>
    <nd ref="9586179028"/>
    <nd ref="32129638"/>
    <tag k="highway" v="residential"/>
    <tag k="name" v="Washpit Lane"/>
    <tag k="source:ref" v="GPS survey"/>
  </way>
  <way id="8113837" version="3" timestamp="2016-06-17T10:14:46Z" changeset="40088781" uid="281267" user="smb1001">
    <nd ref="5276253"/>
    <nd ref="60851268"/>
    <nd ref="4248165933"/>
    <nd ref="60851269"/>
    <nd ref="2072212068"/>
    <nd ref="60851270"/>
    <tag k="highway" v="unclassified"/>
    <tag k="name" v="Coach Drive"/>
    <tag k="source:name" v="dictaphone"/>
  </way>
  <way id="8113869" version="10" timestamp="2024-02-06T11:25:54Z" changeset="147130908" uid="742701" user="kerr smith">
    <nd ref="32129254"/>
    <nd ref="2069490909"/>
    <nd ref="1250769784"/>
    <nd ref="11591442698"/>
    <nd ref="32129722"/>
    <nd ref="1250769795"/>
    <nd ref="10770513891"/>
    <nd ref="5296696393"/>
    <nd ref="32129181"/>
    <nd ref="9586179027"/>
    <nd ref="32129638"/>
    <nd ref="6029985803"/>
    <nd ref="2072212069"/>
    <nd ref="6029985804"/>
    <nd ref="5276254"/>
    <tag k="hgv" v="unsuitable"/>
    <tag k="highway" v="residential"/>
    <tag k="name" v="Washpit Lane"/>
    <tag k="source:hgv" v="sign"/>
    <tag k="source:ref" v="GPS survey"/>
  </way>
  <way id="8113870" version="7" timestamp="2023-03-29T09:32:16Z" changeset="134254431" uid="742701" user="kerr smith">
    <nd ref="5276241"/>
    <nd ref="6029985826"/>
    <nd ref="5276242"/>
    <nd ref="8668545981"/>
    <nd ref="1290474430"/>
    <nd ref="1471323045"/>
    <nd ref="1290474440"/>
    <nd ref="10770514519"/>
    <nd ref="5276244"/>
    <tag k="highway" v="tertiary"/>
    <tag k="name" v="Harlton Road"/>
  </way>
  <way id="8113871" version="4" timestamp="2022-03-17T18:53:38Z" changeset="118607019" uid="5173844" user="ndrw6">
    <nd ref="60850822"/>
    <nd ref="6029985799"/>
    <nd ref="60850821"/>
    <nd ref="6029985798"/>
    <nd ref="5276258"/>
    <nd ref="60850820"/>
    <nd ref="60850819"/>
    <nd ref="6029985800"/>
    <nd ref="5857143959"/>
    <nd ref="6029985802"/>
    <nd ref="5276257"/>
    <nd ref="6029985801"/>
    <nd ref="5857143960"/>
    <nd ref="60850818"/>
    <nd ref="9586179030"/>
    <nd ref="6029985806"/>
    <tag k="abutters" v="residential"/>
    <tag k="highway" v="tertiary"/>
    <tag k="name" v="Eversden Road"/>
    <tag k="source:name" v="dictaphone"/>
  </way>
  <way id="8113872" version="4" timestamp="2021-03-30T11:08:43Z" changeset="101979808" uid="12558789" user="Tim457">
    <nd ref="5276266"/>
    <nd ref="6029985793"/>
    <nd ref="60851361"/>
    <tag k="cycleway:both" v="no"/>
    <tag k="highway" v="tertiary"/>
    <tag k="name" v="Harlton Road"/>
    <tag k="source:name" v="dictaphone"/>
    <tag k="surface" v="asphalt"/>
  </way>
  <way id="8113906" version="7" timestamp="2023-12-31T14:26:26Z" changeset="145735455" uid="742701" user="kerr smith">
    <nd ref="60851463"/>
    <nd ref="32124149"/>
    <tag k="bridge" v="yes"/>
    <tag k="bridge:name" v="Fox's Bridge"/>
    <tag k="cycleway:both" v="no"/>
    <tag k="highway" v="tertiary"/>
    <tag k="layer" v="1"/>
    <tag k="name" v="Royston Lane"/>
    <tag k="source" v="GPS survey"/>
    <tag k="surface" v="asphalt"/>
  </way>
  <way id="8113908" version="9" timestamp="2023-04-07T14:13:42Z" changeset="134618351" uid="742701" user="kerr smith">
    <nd ref="32129542"/>
    <nd ref="1827387946"/>
    <nd ref="1827387951"/>
    <nd ref="1827387925"/>
    <nd ref="1827387908"/>
    <nd ref="8680320830"/>
    <nd ref="1827387864"/>
    <nd ref="739592789"/>
    <nd ref="8680320842"/>
    <nd ref="3931453624"/>
    <nd ref="60851463"/>
    <tag k="highway" v="tertiary"/>
    <tag k="lanes" v="2"/>
    <tag k="name" v="Royston Lane"/>
    <tag k="source" v="GPS survey"/>
    <tag k="surface" v="asphalt"/>
  </way>
  <way id="8113911" version="3" timestamp="2018-11-01T15:29:20Z" changeset="64082872" uid="1257159" user="Jean-Pierre Rondeau">
    <nd ref="60850813"/>
    <nd ref="1250769775"/>
    <nd ref="5276247"/>
    <nd ref="60850812"/>
    <nd ref="6029985824"/>
    <nd ref="5276249"/>
    <nd ref="60850811"/>
    <tag k="abutters" v="residential"/>
    <tag k="highway" v="tertiary"/>
    <tag k="name" v="Haslingfield Road"/>
    <tag k="source:name" v="dictaphone"/>
  </way>
  <way id="32733794" version="4" timestamp="2017-04-29T15:41:07Z" changeset="48258464" uid="1778799" user="SomeoneElse_Revert">
    <nd ref="368332232"/>
    <nd ref="368332234"/>
    <tag k="bridge" v="yes"/>
    <tag k="hgv" v="unsuitable"/>
    <tag k="highway" v="unclassified"/>
    <tag k="name" v="Washpit Lane"/>
    <tag k="source:hgv" v="sign"/>
    <tag k="source:ref" v="GPS survey"/>
  </way>
  <way id="32733798" version="3" timestamp="2021-04-01T09:02:18Z" changeset="102110032" uid="10457692" user="pravallg">
    <nd ref="368332234"/>
    <nd ref="32129312"/>
    <nd ref="8582204999"/>
    <nd ref="32129610"/>
    <nd ref="32129514"/>
    <nd ref="32129254"/>
    <tag k="hgv" v="unsuitable"/>
    <tag k="highway" v="unclassified"/>
    <tag k="name" v="Washpit Lane"/>
    <tag k="source:hgv" v="sign"/>
    <tag k="source:ref" v="GPS survey"/>
  </way>
  <way id="32733804" version="5" timestamp="2020-02-22T13:16:59Z" changeset="81345700" uid="115894" user="DaveF">
    <nd ref="368332249"/>
    <nd ref="368332250"/>
    <nd ref="368332251"/>
    <nd ref="1772858256"/>
    <nd ref="1772858258"/>
    <nd ref="368332252"/>
    <nd ref="368332249"/>
    <tag k="building" v="university"/>
    <tag k="name" v="MRAO"/>
    <tag k="operator" v="University of Cambridge"/>
    <tag k="ref" v="R020"/>
  </way>
  <way id="97253022" version="1" timestamp="2011-01-29T18:22:08Z" changeset="7125365" uid="4951" user="PeterEastern">
    <nd ref="5276244"/>
    <nd ref="60850814"/>
    <nd ref="5276245"/>
    <nd ref="60850813"/>
    <tag k="highway" v="tertiary"/>
    <tag k="name" v="Haslingfield Road"/>
  </way>
  <way id="172457740" version="3" timestamp="2012-12-16T09:57:11Z" changeset="14290414" uid="1106095" user="mziehm">
    <nd ref="60851270"/>
    <nd ref="1833633115"/>
    <nd ref="1833633138"/>
    <nd ref="1833633125"/>
    <nd ref="1833633100"/>
    <nd ref="1833633099"/>
    <nd ref="1833633133"/>
    <nd ref="1833633134"/>
    <nd ref="2069489699"/>
    <nd ref="1833633123"/>
    <nd ref="1833633128"/>
    <tag k="highway" v="unclassified"/>
  </way>
  <way id="172458260" version="5" timestamp="2020-10-15T11:14:13Z" changeset="92519477" uid="281267" user="smb1001">
    <nd ref="1833637828"/>
    <nd ref="1833637804"/>
    <nd ref="1833637875"/>
    <nd ref="1833637802"/>
    <nd ref="1833637803"/>
    <nd ref="1833637834"/>
    <nd ref="1833637798"/>
    <nd ref="1833637854"/>
    <nd ref="1833637830"/>
    <nd ref="1833637838"/>
    <nd ref="1833637837"/>
    <nd ref="1833637843"/>
    <nd ref="1833637863"/>
    <nd ref="1833637850"/>
    <nd ref="1833637796"/>
    <nd ref="1833637829"/>
    <nd ref="1833637844"/>
    <nd ref="1833637872"/>
    <nd ref="1833637808"/>
    <nd ref="1833637823"/>
    <nd ref="1833637862"/>
    <nd ref="1833637851"/>
    <nd ref="1833637868"/>
    <nd ref="1833637807"/>
    <nd ref="1833637828"/>
    <tag k="amenity" v="place_of_worship"/>
    <tag k="building" v="church"/>
    <tag k="denomination" v="anglican"/>
    <tag k="name" v="Church of the Assumption (Harlton Parish Church)"/>
    <tag k="religion" v="christian"/>
    <tag k="wikidata" v="Q17528091"/>
  </way>
  <way id="172651941" version="3" timestamp="2019-03-27T11:37:03Z" changeset="68583040" uid="1428841" user="BarnabasBaggs">
    <nd ref="1835351882"/>
    <nd ref="1835351755"/>
    <nd ref="1835351738"/>
    <nd ref="1835351799"/>
    <nd ref="1835351882"/>
    <tag k="building" v="university"/>
    <tag k="name" v="South Site Store 2"/>
    <tag k="operator" v="University of Cambridge"/>
    <tag k="ref" v="R025"/>
  </way>
  <way id="172651945" version="3" timestamp="2019-03-27T11:37:03Z" changeset="68583040" uid="1428841" user="BarnabasBaggs">
    <nd ref="1835351763"/>
    <nd ref="1835351859"/>
    <nd ref="1835351792"/>
    <nd ref="1835351872"/>
    <nd ref="1835351763"/>
    <tag k="building" v="yes"/>
    <tag k="name" v="South Site Store 3"/>
    <tag k="operator" v="University of Cambridge"/>
    <tag k="ref" v="R026"/>
  </way>
  <way id="172651947" version="4" timestamp="2019-04-01T16:04:01Z" changeset="68760026" uid="1428841" user="BarnabasBaggs">
    <nd ref="1835351866"/>
    <nd ref="1835351805"/>
    <nd ref="1835351806"/>
    <nd ref="1835351756"/>
    <nd ref="1835351866"/>
    <tag k="building" v="university"/>
    <tag k="name" v="South Site Store 5"/>
    <tag k="operator" v="University of Cambridge"/>
    <tag k="ref" v="R030"/>
  </way>
  <way id="264454412" version="10" timestamp="2023-09-10T10:12:58Z" changeset="141055808" uid="664409" user="cmh_germany">
    <nd ref="21098265"/>
    <nd ref="21076407"/>
    <nd ref="1475130083"/>
    <nd ref="21076412"/>
    <nd ref="3752629007"/>
    <nd ref="21076409"/>
    <tag k="highway" v="primary"/>
    <tag k="lanes" v="2"/>
    <tag k="lit" v="no"/>
    <tag k="maxspeed" v="50 mph"/>
    <tag k="maxspeed:type" v="sign"/>
    <tag k="name" v="Hillside"/>
    <tag k="ref" v="A603"/>
    <tag k="smoothness" v="good"/>
    <tag k="surface" v="asphalt"/>
  </way>
  <way id="339385862" version="5" timestamp="2022-12-27T20:15:19Z" changeset="130572366" uid="242345" user="confusedbuffalo">
    <nd ref="3465721421"/>
    <nd ref="3465721424"/>
    <nd ref="3465721418"/>
    <tag k="cycleway:both" v="no"/>
    <tag k="highway" v="tertiary"/>
    <tag k="lit" v="no"/>
    <tag k="name" v="Comberton Road"/>
    <tag k="source:ref" v="GPS survey"/>
    <tag k="surface" v="asphalt"/>
  </way>
  <way id="500940666" version="2" timestamp="2019-03-27T11:37:03Z" changeset="68583040" uid="1428841" user="BarnabasBaggs">
    <nd ref="1835351713"/>
    <nd ref="1835351722"/>
    <nd ref="1835351721"/>
    <nd ref="1835351902"/>
    <nd ref="1835351713"/>
    <tag k="building" v="university"/>
    <tag k="name" v="North Hangar"/>
    <tag k="operator" v="University of Cambridge"/>
    <tag k="ref" v="R031"/>
  </way>
  <way id="500940667" version="2" timestamp="2019-03-27T11:37:03Z" changeset="68583040" uid="1428841" user="BarnabasBaggs">
    <nd ref="1835351904"/>
    <nd ref="1835351878"/>
    <nd ref="1835351826"/>
    <nd ref="1835351830"/>
    <nd ref="1835351855"/>
    <nd ref="1835351802"/>
    <nd ref="1835351904"/>
    <tag k="building" v="university"/>
    <tag k="name" v="South Hangar"/>
    <tag k="operator" v="University of Cambridge"/>
  </way>
  <way id="500940668" version="2" timestamp="2019-03-27T11:37:03Z" changeset="68583040" uid="1428841" user="BarnabasBaggs">
    <nd ref="1835351717"/>
    <nd ref="1835351852"/>
    <nd ref="1835351890"/>
    <nd ref="1835351860"/>
    <nd ref="1835351717"/>
    <tag k="building" v="university"/>
    <tag k="name" v="South Site Store 4"/>
    <tag k="operator" v="University of Cambridge"/>
    <tag k="ref" v="R033"/>
  </way>
  <way id="500943573" version="1" timestamp="2017-06-16T10:50:39Z" changeset="49587806" uid="5844915" user="University Of Cambridge Space Data Team">
    <nd ref="4918723312"/>
    <nd ref="4918723313"/>
    <nd ref="4918723314"/>
    <nd ref="4918723315"/>
    <nd ref="4918723312"/>
    <tag k="building" v="university"/>
    <tag k="name" v="Workshop and Storage Building"/>
    <tag k="ref" v="R043"/>
  </way>
  <way id="548260548" version="4" timestamp="2023-12-25T13:54:03Z" changeset="145498663" uid="493595" user="Yorvik Prestigitator">
    <nd ref="5296696359"/>
    <nd ref="5296696360"/>
    <nd ref="5296696361"/>
    <nd ref="5296696362"/>
    <nd ref="5296696363"/>
    <nd ref="5296696364"/>
    <nd ref="5296696359"/>
    <tag k="addr:city" v="Cambridge"/>
    <tag k="addr:postcode" v="CB23 1EN"/>
    <tag k="addr:street" v="Coach Drive"/>
    <tag k="addr:village" v="Harlton"/>
    <tag k="amenity" v="community_centre"/>
    <tag k="building" v="public"/>
    <tag k="community_centre" v="village_hall"/>
    <tag k="name" v="Harlton Village Hall"/>
  </way>
  <way id="548260570" version="4" timestamp="2023-08-09T20:39:40Z" changeset="139677501" uid="3199858" user="Mateusz Konieczny - bot account">
    <nd ref="5296696477"/>
    <nd ref="5296696478"/>
    <nd ref="5296696479"/>
    <nd ref="5296696480"/>
    <nd ref="5296696481"/>
    <nd ref="5296696482"/>
    <nd ref="5296696477"/>
    <tag k="amenity" v="pub"/>
    <tag k="building" v="commercial"/>
    <tag k="name" v="Hare &amp; Hounds"/>
    <tag k="phone" v="+447511940441"/>
    <tag k="smoking" v="outside"/>
    <tag k="website" v="https://hareandhoundsharlton.co.uk/"/>
    <tag k="wikidata" v="Q26616052"/>
  </way>
  <way id="548260617" version="2" timestamp="2024-11-10T21:09:58Z" changeset="158985808" uid="10633286" user="Moorit">
    <nd ref="5296696712"/>
    <nd ref="5296696713"/>
    <nd ref="5296696714"/>
    <nd ref="5296696715"/>
    <nd ref="5296696712"/>
    <tag k="addr:housenumber" v="46"/>
    <tag k="addr:street" v="Eversden Road"/>
    <tag k="building" v="yes"/>
  </way>
  <way id="972269577" version="5" timestamp="2023-09-10T10:12:58Z" changeset="141055808" uid="664409" user="cmh_germany">
    <nd ref="32129482"/>
    <nd ref="8998692563"/>
    <tag k="alt_name" v="Cambridge Road"/>
    <tag k="highway" v="primary"/>
    <tag k="lanes" v="3"/>
    <tag k="lanes:backward" v="2"/>
    <tag k="lanes:forward" v="1"/>
    <tag k="lit" v="no"/>
    <tag k="maxspeed" v="50 mph"/>
    <tag k="maxspeed:type" v="sign"/>
    <tag k="name" v="Cambridge Road"/>
    <tag k="ref" v="A603"/>
    <tag k="smoothness" v="good"/>
    <tag k="surface" v="asphalt"/>
    <tag k="turn:lanes:backward" v="through|right"/>
  </way>
  <way id="972269578" version="8" timestamp="2024-10-06T21:24:59Z" changeset="157558368" uid="20475686" user="Dan200">
    <nd ref="8998692563"/>
    <nd ref="3465721422"/>
    <nd ref="3465721418"/>
    <nd ref="21076393"/>
    <nd ref="3465721428"/>
    <nd ref="8998692558"/>
    <nd ref="3465721417"/>
    <nd ref="10770513864"/>
    <nd ref="639154978"/>
    <nd ref="21076394"/>
    <nd ref="1475247539"/>
    <nd ref="8998692550"/>
    <nd ref="1475247534"/>
    <nd ref="1475247532"/>
    <nd ref="1475247536"/>
    <nd ref="1475247540"/>
    <nd ref="1475137933"/>
    <nd ref="1475247537"/>
    <nd ref="12230431615"/>
    <nd ref="5276266"/>
    <tag k="alt_name" v="Cambridge Road"/>
    <tag k="highway" v="primary"/>
    <tag k="lanes" v="2"/>
    <tag k="lit" v="no"/>
    <tag k="maxspeed" v="50 mph"/>
    <tag k="maxspeed:type" v="sign"/>
    <tag k="name" v="Cambridge Road"/>
    <tag k="ref" v="A603"/>
    <tag k="smoothness" v="good"/>
    <tag k="surface" v="asphalt"/>
  </way>
  <way id="1206571186" version="2" timestamp="2024-12-20T22:38:37Z" changeset="160452125" uid="742701" user="kerr smith">
    <nd ref="21076409"/>
    <nd ref="21076415"/>
    <nd ref="12437777438"/>
    <nd ref="12437777442"/>
    <nd ref="21076418"/>
    <nd ref="3118616324"/>
    <nd ref="3118616325"/>
    <nd ref="21076420"/>
    <tag k="highway" v="primary"/>
    <tag k="lanes" v="2"/>
    <tag k="lit" v="no"/>
    <tag k="maxspeed" v="60 mph"/>
    <tag k="maxspeed:type" v="GB:nsl_single"/>
    <tag k="name" v="Hillside"/>
    <tag k="ref" v="A603"/>
    <tag k="smoothness" v="good"/>
    <tag k="surface" v="asphalt"/>
  </way>
  <way id="1206571187" version="1" timestamp="2023-09-10T10:12:58Z" changeset="141055808" uid="664409" user="cmh_germany">
    <nd ref="3465721423"/>
    <nd ref="368332172"/>
    <nd ref="8998692546"/>
    <nd ref="32129482"/>
    <tag k="highway" v="primary"/>
    <tag k="lanes" v="2"/>
    <tag k="lit" v="no"/>
    <tag k="maxspeed" v="50 mph"/>
    <tag k="maxspeed:type" v="sign"/>
    <tag k="name" v="Cambridge Road"/>
    <tag k="ref" v="A603"/>
    <tag k="smoothness" v="good"/>
    <tag k="surface" v="asphalt"/>
  </way>

</osm>
