<?xml version="1.0" encoding="UTF-8"?>
<osm version="0.6" generator="Overpass API 0.7.62.5 1bd436f1">
<note>The data included in this document is from www.openstreetmap.org. The data is made available under ODbL.</note>
<meta osm_base="2025-03-25T15:33:45Z" areas="2025-02-06T02:17:44Z"/>

  <node id="255589803" lat="52.3342240" lon="0.2245304" version="5" timestamp="2023-11-10T21:58:58Z" changeset="143880969" uid="13097056" user="PCarew_EG">
    <tag k="addr:city" v="Stretham"/>
    <tag k="addr:postcode" v="CB6 3LF"/>
    <tag k="addr:street" v="Green End"/>
    <tag k="fee" v="yes"/>
    <tag k="name" v="Stretham Old Engine"/>
    <tag k="nohousenumber" v="yes"/>
    <tag k="opening_hours:url" v="https://strethamoldengine.com/visit-us"/>
    <tag k="tourism" v="museum"/>
    <tag k="website" v="https://strethamoldengine.com/"/>
    <tag k="wikidata" v="Q7623510"/>
  </node>
  <node id="255594710" lat="52.3486154" lon="0.2189977" version="7" timestamp="2021-06-30T00:47:49Z" changeset="107174784" uid="493595" user="Yorvik Prestigitator">
    <tag k="addr:city" v="Ely"/>
    <tag k="addr:housenumber" v="47"/>
    <tag k="addr:postcode" v="CB6 3LD"/>
    <tag k="addr:street" v="High Street"/>
    <tag k="addr:village" v="Stretham"/>
    <tag k="amenity" v="pub"/>
    <tag k="fhrs:id" v="922018"/>
    <tag k="food" v="yes"/>
    <tag k="name" v="Red Lion"/>
    <tag k="real_ale" v="usually 4"/>
    <tag k="rooms" v="yes"/>
    <tag k="source:addr" v="FHRS Open Data"/>
  </node>
  <way id="4020517" version="23" timestamp="2023-12-06T20:41:18Z" changeset="144843658" uid="145964" user="Andy Frigaard">
    <nd ref="1151762189"/>
    <nd ref="26052872"/>
    <tag k="foot" v="yes"/>
    <tag k="highway" v="trunk"/>
    <tag k="lanes" v="2"/>
    <tag k="maxspeed" v="60 mph"/>
    <tag k="maxspeed:type" v="GB:nsl_single"/>
    <tag k="name" v="Cambridge Road"/>
    <tag k="ref" v="A10"/>
  </way>
  <way id="4020521" version="15" timestamp="2025-02-22T21:59:34Z" changeset="162833007" uid="5008136" user="JayTurnr">
    <nd ref="3870668"/>
    <nd ref="805658575"/>
    <nd ref="805658493"/>
    <tag k="highway" v="trunk"/>
    <tag k="lanes" v="1"/>
    <tag k="maxspeed" v="40 mph"/>
    <tag k="oneway" v="yes"/>
    <tag k="ref" v="A10"/>
  </way>
  <way id="4020522" version="13" timestamp="2023-08-27T08:13:26Z" changeset="140440525" uid="19332" user="Colin Watson">
    <nd ref="8001720195"/>
    <nd ref="3870668"/>
    <nd ref="1373939554"/>
    <nd ref="8001720191"/>
    <nd ref="255598031"/>
    <nd ref="1373939552"/>
    <nd ref="1373939550"/>
    <nd ref="8001720192"/>
    <nd ref="805658458"/>
    <nd ref="3870664"/>
    <nd ref="1373939548"/>
    <nd ref="24965739"/>
    <nd ref="1373939549"/>
    <nd ref="8001720193"/>
    <nd ref="3870653"/>
    <nd ref="255598068"/>
    <nd ref="24965740"/>
    <nd ref="805658866"/>
    <nd ref="8001720194"/>
    <nd ref="3870660"/>
    <nd ref="24965737"/>
    <nd ref="8001720195"/>
    <tag k="highway" v="trunk"/>
    <tag k="junction" v="roundabout"/>
    <tag k="lane_markings" v="no"/>
    <tag k="maxspeed" v="40 mph"/>
  </way>
  <way id="4214198" version="25" timestamp="2021-06-17T06:15:34Z" changeset="106505475" uid="13563954" user="LongSnoot">
    <nd ref="1373939552"/>
    <nd ref="1373939551"/>
    <nd ref="805658438"/>
    <tag k="cycleway:left" v="no"/>
    <tag k="highway" v="primary"/>
    <tag k="lanes" v="1"/>
    <tag k="maxspeed" v="40 mph"/>
    <tag k="name" v="Wilburton Road"/>
    <tag k="oneway" v="yes"/>
    <tag k="ref" v="A1123"/>
    <tag k="surface" v="asphalt"/>
  </way>
  <way id="4306123" version="15" timestamp="2023-08-15T17:44:04Z" changeset="139927273" uid="576091" user="craghead">
    <nd ref="24965765"/>
    <nd ref="314072584"/>
    <nd ref="24965767"/>
    <nd ref="7806971821"/>
    <nd ref="24965769"/>
    <nd ref="6905195283"/>
    <nd ref="24965770"/>
    <nd ref="806108551"/>
    <nd ref="7806971800"/>
    <nd ref="1313504858"/>
    <nd ref="24965772"/>
    <nd ref="24965774"/>
    <nd ref="2187493197"/>
    <nd ref="18101425"/>
    <nd ref="24965775"/>
    <nd ref="1059015044"/>
    <nd ref="1313504409"/>
    <nd ref="24965777"/>
    <nd ref="24965779"/>
    <nd ref="24965780"/>
    <nd ref="1313504790"/>
    <nd ref="24965782"/>
    <nd ref="1313504386"/>
    <nd ref="24965783"/>
    <nd ref="24965785"/>
    <nd ref="24965786"/>
    <nd ref="24965787"/>
    <nd ref="2302341556"/>
    <nd ref="24965788"/>
    <nd ref="24965789"/>
    <nd ref="2302341557"/>
    <nd ref="24965790"/>
    <tag k="highway" v="primary"/>
    <tag k="lanes" v="2"/>
    <tag k="maxspeed" v="60 mph"/>
    <tag k="maxspeed:type" v="GB:nsl_single"/>
    <tag k="ref" v="A1123"/>
    <tag k="source:maxspeed" v="Stats19"/>
    <tag k="surface" v="asphalt"/>
  </way>
  <way id="4306153" version="12" timestamp="2025-02-22T21:47:08Z" changeset="162832680" uid="5008136" user="JayTurnr">
    <nd ref="26052871"/>
    <nd ref="1151762189"/>
    <tag k="bridge" v="yes"/>
    <tag k="foot" v="yes"/>
    <tag k="highway" v="trunk"/>
    <tag k="lanes" v="2"/>
    <tag k="layer" v="1"/>
    <tag k="maxspeed" v="60 mph"/>
    <tag k="maxspeed:type" v="GB:nsl_single"/>
    <tag k="maxweight:signed" v="no"/>
    <tag k="name" v="Cambridge Road"/>
    <tag k="ref" v="A10"/>
  </way>
  <way id="4306155" version="4" timestamp="2021-08-26T13:28:05Z" changeset="110289039" uid="242345" user="confusedbuffalo">
    <nd ref="26052873"/>
    <nd ref="24965765"/>
    <tag k="bridge" v="yes"/>
    <tag k="highway" v="primary"/>
    <tag k="layer" v="1"/>
    <tag k="maxspeed" v="60 mph"/>
    <tag k="maxspeed:type" v="GB:nsl_single"/>
    <tag k="ref" v="A1123"/>
    <tag k="source:maxspeed" v="Stats19"/>
  </way>
  <way id="4708717" version="8" timestamp="2023-03-05T15:23:03Z" changeset="133329467" uid="251221" user="spiregrain">
    <nd ref="29976747"/>
    <nd ref="29976748"/>
    <nd ref="1495911574"/>
    <nd ref="29976749"/>
    <nd ref="29976750"/>
    <nd ref="29976751"/>
    <nd ref="29976752"/>
    <nd ref="29976753"/>
    <nd ref="29976754"/>
    <nd ref="29976755"/>
    <nd ref="29976756"/>
    <nd ref="8887575267"/>
    <nd ref="29976757"/>
    <nd ref="29976758"/>
    <nd ref="29976759"/>
    <nd ref="29976760"/>
    <nd ref="29976761"/>
    <nd ref="29976762"/>
    <nd ref="29976763"/>
    <nd ref="2870208993"/>
    <tag k="foot" v="yes"/>
    <tag k="highway" v="unclassified"/>
    <tag k="source" v="GPS"/>
  </way>
  <way id="4708718" version="5" timestamp="2014-06-27T12:38:59Z" changeset="23212723" uid="90142" user="andy mackey">
    <nd ref="29976766"/>
    <nd ref="29976767"/>
    <tag k="highway" v="unclassified"/>
    <tag k="source" v="GPS"/>
  </way>
  <way id="4790463" version="5" timestamp="2024-11-25T00:05:43Z" changeset="159553470" uid="10420541" user="Thingummy">
    <nd ref="12372616516"/>
    <nd ref="1445363763"/>
    <nd ref="1445363578"/>
    <nd ref="1445363812"/>
    <nd ref="30728791"/>
    <nd ref="1445364143"/>
    <nd ref="1445363757"/>
    <nd ref="1445364010"/>
    <nd ref="30728789"/>
    <nd ref="1445364142"/>
    <nd ref="1445364041"/>
    <nd ref="1445363925"/>
    <nd ref="1445364125"/>
    <nd ref="30728787"/>
    <tag k="highway" v="tertiary"/>
    <tag k="name" v="Broad Baulk"/>
    <tag k="source" v="OS OpenData StreetView; Bing"/>
  </way>
  <way id="23600674" version="12" timestamp="2024-12-19T18:41:31Z" changeset="160406485" uid="5173844" user="ndrw6">
    <nd ref="255588841"/>
    <nd ref="12434159176"/>
    <nd ref="255588975"/>
    <nd ref="255588977"/>
    <nd ref="12434159170"/>
    <nd ref="255588979"/>
    <nd ref="255588981"/>
    <nd ref="12433259518"/>
    <nd ref="255589240"/>
    <nd ref="6012777889"/>
    <nd ref="8111545694"/>
    <nd ref="6012777888"/>
    <nd ref="12434159165"/>
    <nd ref="255588984"/>
    <tag k="cycleway:both" v="no"/>
    <tag k="highway" v="residential"/>
    <tag k="lane_markings" v="no"/>
    <tag k="lit" v="yes"/>
    <tag k="maxspeed" v="30 mph"/>
    <tag k="maxspeed:type" v="sign"/>
    <tag k="name" v="Short Road"/>
    <tag k="sidewalk" v="right"/>
    <tag k="surface" v="asphalt"/>
  </way>
  <way id="23600678" version="9" timestamp="2024-12-19T18:41:31Z" changeset="160406485" uid="5173844" user="ndrw6">
    <nd ref="12433259518"/>
    <nd ref="12434159182"/>
    <nd ref="6012777890"/>
    <nd ref="255589118"/>
    <nd ref="6819574665"/>
    <nd ref="255589556"/>
    <nd ref="255589119"/>
    <tag k="highway" v="residential"/>
    <tag k="lit" v="yes"/>
    <tag k="name" v="Fieldside"/>
    <tag k="surface" v="asphalt"/>
  </way>
  <way id="23600699" version="6" timestamp="2024-12-19T18:41:31Z" changeset="160406485" uid="5173844" user="ndrw6">
    <nd ref="255589118"/>
    <nd ref="12434130175"/>
    <nd ref="255589284"/>
    <tag k="highway" v="residential"/>
    <tag k="lit" v="no"/>
    <tag k="name" v="Starlock Close"/>
    <tag k="surface" v="asphalt"/>
  </way>
  <way id="23600740" version="10" timestamp="2024-12-19T18:41:31Z" changeset="160406485" uid="5173844" user="ndrw6">
    <nd ref="12433259506"/>
    <nd ref="255589544"/>
    <nd ref="1373945301"/>
    <nd ref="1373945312"/>
    <nd ref="1373945314"/>
    <nd ref="6491284339"/>
    <nd ref="1373945315"/>
    <nd ref="1373945317"/>
    <nd ref="1373945320"/>
    <nd ref="1373945322"/>
    <nd ref="12434159190"/>
    <nd ref="255593565"/>
    <tag k="highway" v="residential"/>
    <tag k="lit" v="yes"/>
    <tag k="name" v="Cage Lane"/>
    <tag k="surface" v="asphalt"/>
  </way>
  <way id="23600760" version="14" timestamp="2020-11-12T11:59:43Z" changeset="93993796" uid="5173844" user="ndrw6">
    <nd ref="255589636"/>
    <nd ref="8111545430"/>
    <nd ref="8021948756"/>
    <nd ref="255590410"/>
    <nd ref="8111543570"/>
    <nd ref="255589523"/>
    <nd ref="8090747465"/>
    <nd ref="255590327"/>
    <nd ref="3396988732"/>
    <nd ref="6907811662"/>
    <nd ref="7994214927"/>
    <nd ref="255589766"/>
    <nd ref="3070301710"/>
    <nd ref="3070302550"/>
    <nd ref="255589767"/>
    <nd ref="3070302572"/>
    <nd ref="255589768"/>
    <nd ref="7918857460"/>
    <nd ref="255589936"/>
    <nd ref="255589769"/>
    <tag k="highway" v="unclassified"/>
    <tag k="name" v="Green End"/>
  </way>
  <way id="23600779" version="9" timestamp="2021-06-15T20:16:07Z" changeset="106422226" uid="13563954" user="LongSnoot">
    <nd ref="255589769"/>
    <nd ref="255589770"/>
    <tag k="bridge" v="yes"/>
    <tag k="created_by" v="Potlatch 0.8a"/>
    <tag k="cycleway:both" v="no"/>
    <tag k="highway" v="unclassified"/>
    <tag k="lane_markings" v="no"/>
    <tag k="layer" v="1"/>
    <tag k="maxspeed:type" v="GB:nsl_dual"/>
    <tag k="maxweight:signed" v="no"/>
    <tag k="name" v="Green End"/>
    <tag k="surface" v="asphalt"/>
  </way>
  <way id="23600780" version="9" timestamp="2021-06-15T20:05:49Z" changeset="106421909" uid="13563954" user="LongSnoot">
    <nd ref="255589770"/>
    <nd ref="255589771"/>
    <nd ref="1313504506"/>
    <nd ref="1313504383"/>
    <nd ref="255589772"/>
    <nd ref="255589773"/>
    <nd ref="314072294"/>
    <tag k="highway" v="unclassified"/>
    <tag k="lane_markings" v="no"/>
    <tag k="maxspeed:type" v="GB:nsl_dual"/>
    <tag k="name" v="Green End"/>
    <tag k="surface" v="asphalt"/>
  </way>
  <way id="23600858" version="8" timestamp="2024-12-19T18:41:31Z" changeset="160406485" uid="5173844" user="ndrw6">
    <nd ref="255590327"/>
    <nd ref="12434159133"/>
    <nd ref="255590330"/>
    <nd ref="255590331"/>
    <tag k="highway" v="residential"/>
    <tag k="lit" v="no"/>
    <tag k="name" v="Green End"/>
    <tag k="surface" v="asphalt"/>
  </way>
  <way id="23600871" version="15" timestamp="2024-12-19T18:41:31Z" changeset="160406485" uid="5173844" user="ndrw6">
    <nd ref="255590410"/>
    <nd ref="12434159142"/>
    <nd ref="8090747352"/>
    <nd ref="8090747351"/>
    <nd ref="8090747350"/>
    <nd ref="255590441"/>
    <nd ref="255590615"/>
    <nd ref="12434159105"/>
    <nd ref="6012777864"/>
    <nd ref="255590626"/>
    <nd ref="255590612"/>
    <tag k="highway" v="residential"/>
    <tag k="lit" v="yes"/>
    <tag k="name" v="King Cob"/>
    <tag k="sidewalk" v="both"/>
    <tag k="surface" v="asphalt"/>
  </way>
  <way id="23600883" version="13" timestamp="2024-12-19T18:41:31Z" changeset="160406485" uid="5173844" user="ndrw6">
    <nd ref="255590519"/>
    <nd ref="12434159113"/>
    <nd ref="255590531"/>
    <nd ref="255590532"/>
    <tag k="highway" v="residential"/>
    <tag k="lit" v="no"/>
    <tag k="name" v="The Grove"/>
    <tag k="surface" v="concrete"/>
  </way>
  <way id="23600884" version="7" timestamp="2024-12-19T18:41:31Z" changeset="160406485" uid="5173844" user="ndrw6">
    <nd ref="255590531"/>
    <nd ref="12434159109"/>
    <nd ref="255590539"/>
    <tag k="highway" v="residential"/>
    <tag k="lit" v="yes"/>
    <tag k="name" v="The Grove"/>
    <tag k="surface" v="concrete"/>
  </way>
  <way id="23600927" version="10" timestamp="2024-12-19T18:41:31Z" changeset="160406485" uid="5173844" user="ndrw6">
    <nd ref="255590441"/>
    <nd ref="12434159117"/>
    <nd ref="255590728"/>
    <nd ref="255590727"/>
    <nd ref="12434130181"/>
    <nd ref="12434130180"/>
    <tag k="highway" v="residential"/>
    <tag k="lit" v="yes"/>
    <tag k="name" v="Andrews Close"/>
    <tag k="sidewalk" v="none"/>
    <tag k="surface" v="asphalt"/>
  </way>
  <way id="23600945" version="3" timestamp="2017-08-21T13:38:05Z" changeset="51306575" uid="84681" user="SK53">
    <nd ref="5048381674"/>
    <nd ref="255590897"/>
    <nd ref="255590898"/>
    <nd ref="255590899"/>
    <nd ref="255590900"/>
    <nd ref="255590901"/>
    <nd ref="255590902"/>
    <nd ref="255590922"/>
    <nd ref="255590903"/>
    <tag k="highway" v="residential"/>
    <tag k="name" v="Sennitt Way"/>
  </way>
  <way id="23600958" version="4" timestamp="2011-09-25T11:56:15Z" changeset="9391839" uid="383983" user="Ben Wheatley">
    <nd ref="255590998"/>
    <nd ref="1445363681"/>
    <nd ref="255591031"/>
    <nd ref="255590999"/>
    <nd ref="255590917"/>
    <tag k="highway" v="residential"/>
    <tag k="name" v="Meadowcroft"/>
  </way>
  <way id="23600963" version="2" timestamp="2008-04-03T20:40:31Z" changeset="34525" uid="15683" user="Donald Allwright">
    <nd ref="255590999"/>
    <nd ref="255591028"/>
    <nd ref="255591029"/>
    <tag k="created_by" v="Potlatch 0.8a"/>
    <tag k="highway" v="residential"/>
    <tag k="name" v="Meadowcroft"/>
  </way>
  <way id="23600967" version="4" timestamp="2011-09-25T11:56:15Z" changeset="9391839" uid="383983" user="Ben Wheatley">
    <nd ref="255591031"/>
    <nd ref="1445363585"/>
    <nd ref="255591120"/>
    <nd ref="255591057"/>
    <tag k="highway" v="residential"/>
    <tag k="name" v="Meadowcroft"/>
  </way>
  <way id="23600983" version="4" timestamp="2013-09-09T18:48:14Z" changeset="17755124" uid="4663" user="G3YAC">
    <nd ref="255591155"/>
    <nd ref="255591248"/>
    <nd ref="255591249"/>
    <nd ref="255591250"/>
    <nd ref="255590998"/>
    <nd ref="1445364007"/>
    <nd ref="255591251"/>
    <nd ref="2452114811"/>
    <nd ref="255591252"/>
    <nd ref="255591253"/>
    <nd ref="255591254"/>
    <nd ref="2452114813"/>
    <nd ref="255591255"/>
    <nd ref="2452114814"/>
    <nd ref="2452114815"/>
    <nd ref="255591257"/>
    <tag k="highway" v="residential"/>
    <tag k="name" v="Brook Lane"/>
  </way>
  <way id="23601003" version="8" timestamp="2025-01-13T11:43:50Z" changeset="161306083" uid="5229644" user="Nathan_A_RF">
    <nd ref="255591252"/>
    <nd ref="6881637051"/>
    <nd ref="1445363995"/>
    <nd ref="2397430712"/>
    <nd ref="255592102"/>
    <nd ref="255591368"/>
    <nd ref="255591369"/>
    <tag k="highway" v="residential"/>
    <tag k="lit" v="no"/>
    <tag k="name" v="Plantation Gate"/>
  </way>
  <way id="23601013" version="5" timestamp="2024-12-19T11:49:39Z" changeset="160390746" uid="5173844" user="ndrw6">
    <nd ref="255591373"/>
    <nd ref="2452114810"/>
    <nd ref="255591413"/>
    <nd ref="255594514"/>
    <nd ref="12433259526"/>
    <nd ref="12433259499"/>
    <nd ref="255591415"/>
    <nd ref="255591416"/>
    <nd ref="2452114812"/>
    <nd ref="255591417"/>
    <nd ref="255591257"/>
    <nd ref="255592857"/>
    <nd ref="255591418"/>
    <tag k="highway" v="residential"/>
    <tag k="name" v="Read's Street"/>
  </way>
  <way id="23601015" version="4" timestamp="2020-11-07T12:33:26Z" changeset="93705568" uid="5173844" user="ndrw6">
    <nd ref="255591418"/>
    <nd ref="8090747661"/>
    <nd ref="6012778030"/>
    <nd ref="6012778029"/>
    <nd ref="255591425"/>
    <tag k="highway" v="residential"/>
    <tag k="name" v="Kitson Gardens"/>
  </way>
  <way id="23601021" version="3" timestamp="2024-12-19T11:49:39Z" changeset="160390746" uid="5173844" user="ndrw6">
    <nd ref="255591426"/>
    <nd ref="255591425"/>
    <nd ref="8090747770"/>
    <nd ref="12433259349"/>
    <nd ref="8090747771"/>
    <nd ref="255591521"/>
    <tag k="highway" v="residential"/>
    <tag k="name" v="Kitson Gardens"/>
  </way>
  <way id="23601056" version="6" timestamp="2020-11-07T12:33:26Z" changeset="93705568" uid="5173844" user="ndrw6">
    <nd ref="255591418"/>
    <nd ref="2366168024"/>
    <nd ref="2366168039"/>
    <nd ref="255591937"/>
    <nd ref="2452114820"/>
    <nd ref="255591939"/>
    <nd ref="2452114826"/>
    <nd ref="2452114827"/>
    <nd ref="2452114829"/>
    <nd ref="2491258685"/>
    <nd ref="255591983"/>
    <nd ref="8090747069"/>
    <nd ref="255591941"/>
    <tag k="highway" v="residential"/>
    <tag k="name" v="Wood Lane"/>
  </way>
  <way id="23601059" version="5" timestamp="2024-12-19T11:49:39Z" changeset="160390746" uid="5173844" user="ndrw6">
    <nd ref="8090747069"/>
    <nd ref="2452114824"/>
    <nd ref="8090747068"/>
    <nd ref="2452114818"/>
    <nd ref="255592027"/>
    <tag k="highway" v="unclassified"/>
  </way>
  <way id="23601070" version="3" timestamp="2020-11-07T12:33:26Z" changeset="93705568" uid="5173844" user="ndrw6">
    <nd ref="255591983"/>
    <nd ref="2452114836"/>
    <nd ref="2452114838"/>
    <nd ref="255592127"/>
    <tag k="highway" v="residential"/>
    <tag k="name" v="Berry Green"/>
  </way>
  <way id="23601084" version="7" timestamp="2013-09-09T18:48:14Z" changeset="17755124" uid="4663" user="G3YAC">
    <nd ref="255591939"/>
    <nd ref="255592416"/>
    <nd ref="2452114833"/>
    <nd ref="2452114834"/>
    <nd ref="2452114835"/>
    <nd ref="2452114837"/>
    <nd ref="255592417"/>
    <nd ref="2397404567"/>
    <nd ref="255592600"/>
    <nd ref="255592418"/>
    <nd ref="255592707"/>
    <nd ref="255592419"/>
    <tag k="highway" v="residential"/>
    <tag k="name" v="Berry Close"/>
  </way>
  <way id="23601088" version="5" timestamp="2024-12-19T11:49:39Z" changeset="160390746" uid="5173844" user="ndrw6">
    <nd ref="255592417"/>
    <nd ref="12433259321"/>
    <nd ref="255592470"/>
    <nd ref="2397416875"/>
    <tag k="highway" v="residential"/>
    <tag k="name" v="Berry Close"/>
  </way>
  <way id="23601092" version="2" timestamp="2008-04-04T13:43:13Z" changeset="44052" uid="15683" user="Donald Allwright">
    <nd ref="255592470"/>
    <nd ref="255592569"/>
    <tag k="created_by" v="Potlatch 0.8a"/>
    <tag k="highway" v="residential"/>
    <tag k="name" v="Berry Close"/>
  </way>
  <way id="23601112" version="3" timestamp="2024-12-19T11:49:39Z" changeset="160390746" uid="5173844" user="ndrw6">
    <nd ref="255592600"/>
    <nd ref="12433259316"/>
    <nd ref="255592690"/>
    <nd ref="255592691"/>
    <nd ref="255592692"/>
    <nd ref="255592693"/>
    <nd ref="255592694"/>
    <nd ref="255592695"/>
    <nd ref="8090747175"/>
    <tag k="highway" v="residential"/>
    <tag k="name" v="The Crofters"/>
  </way>
  <way id="23601113" version="2" timestamp="2008-04-03T20:49:42Z" changeset="34525" uid="15683" user="Donald Allwright">
    <nd ref="255592694"/>
    <nd ref="255592696"/>
    <tag k="created_by" v="Potlatch 0.8a"/>
    <tag k="highway" v="residential"/>
    <tag k="name" v="The Crofters"/>
  </way>
  <way id="23601116" version="3" timestamp="2013-09-09T18:48:13Z" changeset="17755124" uid="4663" user="G3YAC">
    <nd ref="255592707"/>
    <nd ref="2452114848"/>
    <nd ref="2452114847"/>
    <nd ref="2452114846"/>
    <nd ref="255592728"/>
    <nd ref="255592729"/>
    <tag k="highway" v="residential"/>
    <tag k="name" v="Akeman Close"/>
  </way>
  <way id="23601130" version="1" timestamp="2008-04-03T20:50:09Z" changeset="34525" uid="15683" user="Donald Allwright">
    <nd ref="255592789"/>
    <nd ref="255592729"/>
    <nd ref="255592790"/>
    <tag k="created_by" v="Potlatch 0.8a"/>
    <tag k="highway" v="residential"/>
    <tag k="name" v="Akeman Close"/>
  </way>
  <way id="23601143" version="4" timestamp="2024-12-19T11:49:39Z" changeset="160390746" uid="5173844" user="ndrw6">
    <nd ref="255592857"/>
    <nd ref="12433259412"/>
    <nd ref="255592909"/>
    <nd ref="2452114816"/>
    <nd ref="255592910"/>
    <nd ref="12433259379"/>
    <nd ref="255592911"/>
    <tag k="highway" v="residential"/>
    <tag k="name" v="Top Street"/>
  </way>
  <way id="23601144" version="3" timestamp="2020-11-12T11:59:43Z" changeset="93993796" uid="5173844" user="ndrw6">
    <nd ref="255592909"/>
    <nd ref="255592916"/>
    <tag k="highway" v="residential"/>
    <tag k="name" v="Top Street"/>
  </way>
  <way id="23601146" version="4" timestamp="2020-11-12T11:59:43Z" changeset="93993796" uid="5173844" user="ndrw6">
    <nd ref="255592917"/>
    <nd ref="255592916"/>
    <nd ref="255592938"/>
    <tag k="highway" v="residential"/>
    <tag k="name" v="Top Street"/>
  </way>
  <way id="23601216" version="18" timestamp="2023-08-25T18:17:55Z" changeset="140384171" uid="19332" user="Colin Watson">
    <nd ref="255593559"/>
    <nd ref="2452114817"/>
    <nd ref="8111524090"/>
    <nd ref="8111524092"/>
    <nd ref="255592911"/>
    <nd ref="8111524093"/>
    <nd ref="8111544841"/>
    <nd ref="3152712650"/>
    <nd ref="8111544837"/>
    <nd ref="255593560"/>
    <nd ref="255593561"/>
    <nd ref="8090747227"/>
    <nd ref="255593562"/>
    <nd ref="255593563"/>
    <nd ref="1373946476"/>
    <nd ref="255593564"/>
    <nd ref="8111545566"/>
    <nd ref="1373945336"/>
    <nd ref="24965745"/>
    <tag k="cycleway:both" v="no"/>
    <tag k="highway" v="tertiary"/>
    <tag k="lane_markings" v="no"/>
    <tag k="lit" v="yes"/>
    <tag k="maxspeed:type" v="GB:nsl_restricted"/>
    <tag k="name" v="High Street"/>
    <tag k="sidewalk" v="both"/>
    <tag k="source:width" v="ARCore"/>
    <tag k="surface" v="asphalt"/>
    <tag k="width" v="6.5"/>
  </way>
  <way id="23601217" version="12" timestamp="2025-02-22T22:01:53Z" changeset="162833061" uid="5008136" user="JayTurnr">
    <nd ref="255593284"/>
    <nd ref="2452114841"/>
    <nd ref="701221244"/>
    <nd ref="12610668368"/>
    <nd ref="255593566"/>
    <nd ref="701221246"/>
    <nd ref="2452114839"/>
    <nd ref="255593567"/>
    <nd ref="2397416879"/>
    <nd ref="255593568"/>
    <nd ref="255593569"/>
    <nd ref="255593559"/>
    <tag k="abutters" v="residential"/>
    <tag k="cycleway:both" v="no"/>
    <tag k="highway" v="tertiary"/>
    <tag k="lanes" v="2"/>
    <tag k="maxspeed" v="30 mph"/>
    <tag k="maxspeed:type" v="sign"/>
    <tag k="name" v="Ely Road"/>
    <tag k="surface" v="asphalt"/>
  </way>
  <way id="23601225" version="4" timestamp="2013-09-09T18:48:14Z" changeset="17755124" uid="4663" user="G3YAC">
    <nd ref="255593566"/>
    <nd ref="2452114840"/>
    <nd ref="701221243"/>
    <nd ref="2452114842"/>
    <nd ref="2452114843"/>
    <nd ref="2452114844"/>
    <nd ref="2452114845"/>
    <nd ref="255593617"/>
    <tag k="highway" v="residential"/>
    <tag k="name" v="Ely Road"/>
  </way>
  <way id="23601231" version="6" timestamp="2024-10-07T01:04:10Z" changeset="157561467" uid="5173844" user="ndrw6">
    <nd ref="255593568"/>
    <nd ref="12230720565"/>
    <nd ref="255593686"/>
    <tag k="highway" v="residential"/>
    <tag k="lit" v="no"/>
    <tag k="name" v="Ely Road"/>
    <tag k="sidewalk" v="none"/>
    <tag k="surface" v="compacted"/>
  </way>
  <way id="23601232" version="3" timestamp="2024-10-07T01:04:10Z" changeset="157561467" uid="5173844" user="ndrw6">
    <nd ref="255593569"/>
    <nd ref="12230720566"/>
    <nd ref="255593734"/>
    <nd ref="2452114831"/>
    <nd ref="255593735"/>
    <nd ref="255593736"/>
    <tag k="highway" v="residential"/>
  </way>
  <way id="23601316" version="5" timestamp="2024-10-07T01:04:10Z" changeset="157561467" uid="5173844" user="ndrw6">
    <nd ref="255593564"/>
    <nd ref="1373945341"/>
    <nd ref="255594128"/>
    <nd ref="1373945347"/>
    <nd ref="1373945345"/>
    <nd ref="1373945343"/>
    <nd ref="255594129"/>
    <nd ref="12230720561"/>
    <nd ref="255594130"/>
    <tag k="highway" v="residential"/>
    <tag k="name" v="St James Close"/>
    <tag k="surface" v="asphalt"/>
  </way>
  <way id="23601343" version="11" timestamp="2024-12-19T11:49:39Z" changeset="160390746" uid="5173844" user="ndrw6">
    <nd ref="255594134"/>
    <nd ref="8090747276"/>
    <nd ref="255594306"/>
    <nd ref="255594307"/>
    <nd ref="8111545114"/>
    <nd ref="255594425"/>
    <nd ref="255594308"/>
    <nd ref="255594309"/>
    <nd ref="11943420924"/>
    <nd ref="2811348052"/>
    <nd ref="255594310"/>
    <nd ref="8090747228"/>
    <nd ref="255593560"/>
    <tag k="highway" v="residential"/>
    <tag k="lit" v="yes"/>
    <tag k="name" v="Chapel Street"/>
    <tag k="oneway" v="no"/>
    <tag k="surface" v="asphalt"/>
  </way>
  <way id="23601347" version="10" timestamp="2024-12-19T11:49:39Z" changeset="160390746" uid="5173844" user="ndrw6">
    <nd ref="255593559"/>
    <nd ref="2452114822"/>
    <nd ref="8111544829"/>
    <nd ref="255594345"/>
    <nd ref="255594323"/>
    <tag k="highway" v="residential"/>
    <tag k="lit" v="no"/>
    <tag k="name" v="Walnut Tree Close"/>
    <tag k="surface" v="asphalt"/>
  </way>
  <way id="23601350" version="6" timestamp="2024-12-19T11:49:39Z" changeset="160390746" uid="5173844" user="ndrw6">
    <nd ref="255594345"/>
    <nd ref="255594351"/>
    <tag k="highway" v="residential"/>
    <tag k="lit" v="yes"/>
    <tag k="name" v="Walnut Close"/>
    <tag k="sidewalk" v="both"/>
    <tag k="surface" v="asphalt"/>
  </way>
  <way id="23601358" version="8" timestamp="2024-12-19T11:49:39Z" changeset="160390746" uid="5173844" user="ndrw6">
    <nd ref="255594425"/>
    <nd ref="8111545113"/>
    <nd ref="8111545112"/>
    <nd ref="255594448"/>
    <nd ref="255594449"/>
    <tag k="highway" v="residential"/>
    <tag k="lit" v="yes"/>
    <tag k="name" v="Middle Close"/>
    <tag k="sidewalk" v="right"/>
    <tag k="surface" v="asphalt"/>
  </way>
  <way id="23601363" version="6" timestamp="2024-12-19T11:49:39Z" changeset="160390746" uid="5173844" user="ndrw6">
    <nd ref="255594448"/>
    <nd ref="255594474"/>
    <tag k="highway" v="residential"/>
    <tag k="lit" v="yes"/>
    <tag k="name" v="Middle Close"/>
    <tag k="sidewalk" v="both"/>
    <tag k="surface" v="asphalt"/>
  </way>
  <way id="23601367" version="8" timestamp="2024-12-19T11:49:39Z" changeset="160390746" uid="5173844" user="ndrw6">
    <nd ref="7931705725"/>
    <nd ref="255594483"/>
    <tag k="highway" v="residential"/>
    <tag k="lit" v="no"/>
    <tag k="name" v="Middle Close (rear)"/>
    <tag k="sidewalk" v="none"/>
    <tag k="surface" v="asphalt"/>
  </way>
  <way id="23601382" version="5" timestamp="2024-12-19T11:49:39Z" changeset="160390746" uid="5173844" user="ndrw6">
    <nd ref="255594307"/>
    <nd ref="255594555"/>
    <nd ref="255594556"/>
    <nd ref="255594557"/>
    <nd ref="255594558"/>
    <nd ref="255594559"/>
    <nd ref="255593562"/>
    <tag k="highway" v="residential"/>
    <tag k="lit" v="yes"/>
    <tag k="name" v="Pump Lane"/>
    <tag k="surface" v="asphalt"/>
  </way>
  <way id="23601383" version="7" timestamp="2024-12-19T11:49:39Z" changeset="160390746" uid="5173844" user="ndrw6">
    <nd ref="255594559"/>
    <nd ref="255593563"/>
    <tag k="highway" v="residential"/>
    <tag k="lit" v="no"/>
    <tag k="name" v="Pump Lane"/>
    <tag k="sidewalk" v="both"/>
    <tag k="surface" v="asphalt"/>
  </way>
  <way id="23601749" version="14" timestamp="2024-05-30T00:14:39Z" changeset="152010730" uid="493595" user="Yorvik Prestigitator">
    <nd ref="24965745"/>
    <nd ref="1373945328"/>
    <nd ref="11943420927"/>
    <nd ref="24965746"/>
    <nd ref="24965747"/>
    <nd ref="255589636"/>
    <nd ref="24965748"/>
    <nd ref="8111545533"/>
    <nd ref="24965749"/>
    <nd ref="8090747277"/>
    <nd ref="255594134"/>
    <nd ref="24965750"/>
    <nd ref="3396988764"/>
    <nd ref="255591373"/>
    <nd ref="255591155"/>
    <nd ref="5048381671"/>
    <nd ref="5048381672"/>
    <nd ref="5048381667"/>
    <nd ref="24965755"/>
    <nd ref="24965757"/>
    <nd ref="5048381674"/>
    <nd ref="5048381670"/>
    <nd ref="24965759"/>
    <nd ref="24965760"/>
    <nd ref="1445363958"/>
    <nd ref="24965762"/>
    <tag k="highway" v="primary"/>
    <tag k="lanes" v="2"/>
    <tag k="maxspeed" v="40 mph"/>
    <tag k="name" v="Newmarket Road"/>
    <tag k="ref" v="A1123"/>
    <tag k="surface" v="asphalt"/>
  </way>
  <way id="24265385" version="2" timestamp="2016-05-03T13:09:23Z" changeset="39065771" uid="281267" user="smb1001">
    <nd ref="29976772"/>
    <nd ref="4163279649"/>
    <nd ref="4163279816"/>
    <nd ref="4163279594"/>
    <nd ref="262711317"/>
    <tag k="highway" v="residential"/>
    <tag k="name" v="Lazy Otter Meadows"/>
  </way>
  <way id="24265386" version="1" timestamp="2008-05-07T22:56:14Z" changeset="361528" uid="3582" user="davidearl">
    <nd ref="255589905"/>
    <nd ref="29976766"/>
    <tag k="bridge" v="yes"/>
    <tag k="created_by" v="Potlatch 0.8a"/>
    <tag k="highway" v="unclassified"/>
    <tag k="layer" v="1"/>
  </way>
  <way id="24265387" version="11" timestamp="2025-02-22T21:56:46Z" changeset="162832941" uid="5008136" user="JayTurnr">
    <nd ref="262711325"/>
    <nd ref="3396988776"/>
    <nd ref="3396987092"/>
    <nd ref="255588841"/>
    <nd ref="3870644"/>
    <nd ref="7358155274"/>
    <nd ref="12610659228"/>
    <nd ref="805658592"/>
    <tag k="abutters" v="residential"/>
    <tag k="alt_name" v="Cambridge Road"/>
    <tag k="highway" v="trunk"/>
    <tag k="lanes" v="2"/>
    <tag k="maxspeed" v="40 mph"/>
    <tag k="ref" v="A10"/>
  </way>
  <way id="55824126" version="6" timestamp="2021-06-15T07:38:52Z" changeset="106377095" uid="13563954" user="LongSnoot">
    <nd ref="255593565"/>
    <nd ref="24965745"/>
    <tag k="cycleway:both" v="no"/>
    <tag k="highway" v="primary"/>
    <tag k="lanes" v="2"/>
    <tag k="lit" v="yes"/>
    <tag k="maxspeed:type" v="GB:nsl_restricted"/>
    <tag k="name" v="Wilburton Road"/>
    <tag k="ref" v="A1123"/>
    <tag k="sidewalk" v="both"/>
    <tag k="surface" v="asphalt"/>
  </way>
  <way id="55824128" version="15" timestamp="2025-02-22T22:04:38Z" changeset="162833144" uid="5008136" user="JayTurnr">
    <nd ref="255593284"/>
    <nd ref="12610668367"/>
    <nd ref="3870789"/>
    <nd ref="805665739"/>
    <nd ref="3870790"/>
    <nd ref="8090747216"/>
    <nd ref="6771245243"/>
    <nd ref="805665750"/>
    <nd ref="3870799"/>
    <nd ref="805665753"/>
    <nd ref="3870808"/>
    <nd ref="805665764"/>
    <nd ref="1005058730"/>
    <nd ref="805665770"/>
    <nd ref="3870815"/>
    <nd ref="30728787"/>
    <nd ref="12610681928"/>
    <nd ref="805665793"/>
    <nd ref="8013741097"/>
    <nd ref="3870998"/>
    <nd ref="8013741104"/>
    <nd ref="805665800"/>
    <nd ref="12610682352"/>
    <nd ref="12610682353"/>
    <nd ref="21345245"/>
    <nd ref="805665809"/>
    <nd ref="6901819490"/>
    <nd ref="3871014"/>
    <tag k="highway" v="trunk"/>
    <tag k="lanes" v="2"/>
    <tag k="maxspeed" v="60 mph"/>
    <tag k="maxspeed:type" v="GB:nsl_single"/>
    <tag k="ref" v="A10"/>
  </way>
  <way id="66571666" version="7" timestamp="2021-06-15T18:02:12Z" changeset="106417369" uid="13563954" user="LongSnoot">
    <nd ref="24965740"/>
    <nd ref="805658412"/>
    <nd ref="805658649"/>
    <tag k="cycleway:left" v="no"/>
    <tag k="highway" v="primary"/>
    <tag k="lanes" v="1"/>
    <tag k="maxspeed" v="40 mph"/>
    <tag k="oneway" v="yes"/>
    <tag k="ref" v="A1123"/>
    <tag k="surface" v="asphalt"/>
  </way>
  <way id="66571670" version="6" timestamp="2021-06-15T18:04:12Z" changeset="106417369" uid="13563954" user="LongSnoot">
    <nd ref="805658438"/>
    <nd ref="24965741"/>
    <nd ref="807742042"/>
    <tag k="cycleway:both" v="no"/>
    <tag k="highway" v="primary"/>
    <tag k="lanes" v="2"/>
    <tag k="maxspeed" v="40 mph"/>
    <tag k="name" v="Wilburton Road"/>
    <tag k="ref" v="A1123"/>
    <tag k="surface" v="asphalt"/>
  </way>
  <way id="66571673" version="8" timestamp="2021-06-17T06:15:39Z" changeset="106505475" uid="13563954" user="LongSnoot">
    <nd ref="805658438"/>
    <nd ref="805658455"/>
    <nd ref="805658458"/>
    <tag k="cycleway:left" v="no"/>
    <tag k="highway" v="primary"/>
    <tag k="lanes" v="2"/>
    <tag k="maxspeed" v="40 mph"/>
    <tag k="name" v="Wilburton Road"/>
    <tag k="oneway" v="yes"/>
    <tag k="ref" v="A1123"/>
    <tag k="surface" v="asphalt"/>
  </way>
  <way id="66571676" version="10" timestamp="2025-01-26T11:26:26Z" changeset="161776325" uid="1782504" user="corgicity">
    <nd ref="805658493"/>
    <nd ref="8090747226"/>
    <nd ref="3870781"/>
    <nd ref="12533781488"/>
    <nd ref="3152712633"/>
    <nd ref="255593376"/>
    <nd ref="255593378"/>
    <nd ref="3396988699"/>
    <nd ref="255598753"/>
    <nd ref="255593284"/>
    <tag k="alt_name" v="Cambridge Road"/>
    <tag k="highway" v="trunk"/>
    <tag k="lanes" v="2"/>
    <tag k="maxspeed" v="60 mph"/>
    <tag k="maxspeed:type" v="GB:nsl_single"/>
    <tag k="ref" v="A10"/>
  </way>
  <way id="66571680" version="5" timestamp="2025-02-22T21:59:34Z" changeset="162833007" uid="5008136" user="JayTurnr">
    <nd ref="805658493"/>
    <nd ref="12610666285"/>
    <nd ref="805658496"/>
    <nd ref="255598031"/>
    <tag k="highway" v="trunk"/>
    <tag k="lanes" v="2"/>
    <tag k="maxspeed" v="40 mph"/>
    <tag k="oneway" v="yes"/>
    <tag k="ref" v="A10"/>
  </way>
  <way id="66571699" version="4" timestamp="2025-02-22T21:59:34Z" changeset="162833007" uid="5008136" user="JayTurnr">
    <nd ref="805658592"/>
    <nd ref="805658601"/>
    <nd ref="3870653"/>
    <tag k="abutters" v="residential"/>
    <tag k="highway" v="trunk"/>
    <tag k="lanes" v="2"/>
    <tag k="maxspeed" v="40 mph"/>
    <tag k="oneway" v="yes"/>
    <tag k="ref" v="A10"/>
  </way>
  <way id="66571703" version="4" timestamp="2025-02-22T21:59:34Z" changeset="162833007" uid="5008136" user="JayTurnr">
    <nd ref="24965739"/>
    <nd ref="805658629"/>
    <nd ref="805658592"/>
    <tag k="abutters" v="residential"/>
    <tag k="highway" v="trunk"/>
    <tag k="lanes" v="1"/>
    <tag k="maxspeed" v="40 mph"/>
    <tag k="oneway" v="yes"/>
    <tag k="ref" v="A10"/>
  </way>
  <way id="66571707" version="9" timestamp="2025-02-22T21:59:34Z" changeset="162833007" uid="5008136" user="JayTurnr">
    <nd ref="805658649"/>
    <nd ref="1373939553"/>
    <nd ref="3870660"/>
    <tag k="cycleway:left" v="no"/>
    <tag k="highway" v="primary"/>
    <tag k="lanes" v="2"/>
    <tag k="maxspeed" v="40 mph"/>
    <tag k="oneway" v="yes"/>
    <tag k="ref" v="A1123"/>
    <tag k="surface" v="asphalt"/>
  </way>
  <way id="66617570" version="6" timestamp="2017-04-22T08:24:35Z" changeset="48025594" uid="133272" user="wongataa">
    <nd ref="805927089"/>
    <nd ref="3870635"/>
    <nd ref="262711325"/>
    <tag k="highway" v="trunk"/>
    <tag k="lanes" v="2"/>
    <tag k="maxspeed" v="60 mph"/>
    <tag k="maxspeed:type" v="GB:nsl_single"/>
    <tag k="ref" v="A10"/>
  </way>
  <way id="66833348" version="3" timestamp="2021-08-26T13:28:05Z" changeset="110289039" uid="242345" user="confusedbuffalo">
    <nd ref="24965762"/>
    <nd ref="24965763"/>
    <nd ref="314072915"/>
    <nd ref="26052873"/>
    <tag k="highway" v="primary"/>
    <tag k="maxspeed" v="60 mph"/>
    <tag k="maxspeed:type" v="GB:nsl_single"/>
    <tag k="ref" v="A1123"/>
    <tag k="source:maxspeed" v="Stats19"/>
  </way>
  <way id="66833360" version="9" timestamp="2021-06-15T18:04:34Z" changeset="106417369" uid="13563954" user="LongSnoot">
    <nd ref="807742042"/>
    <nd ref="255594026"/>
    <nd ref="24965742"/>
    <nd ref="1373945335"/>
    <nd ref="255588984"/>
    <nd ref="24965743"/>
    <nd ref="1373945334"/>
    <nd ref="24965744"/>
    <nd ref="5048660767"/>
    <nd ref="255593565"/>
    <tag k="cycleway:both" v="no"/>
    <tag k="highway" v="primary"/>
    <tag k="lanes" v="2"/>
    <tag k="maxspeed" v="40 mph"/>
    <tag k="name" v="Wilburton Road"/>
    <tag k="ref" v="A1123"/>
    <tag k="surface" v="asphalt"/>
  </way>
  <way id="66833391" version="8" timestamp="2024-05-07T05:05:44Z" changeset="150990692" uid="1983103" user="Jorisbo">
    <nd ref="807744973"/>
    <nd ref="6560285702"/>
    <nd ref="11885708180"/>
    <nd ref="11885708181"/>
    <nd ref="805658649"/>
    <tag k="cycleway:left" v="track"/>
    <tag k="cycleway:left:segregated" v="no"/>
    <tag k="cycleway:right" v="no"/>
    <tag k="highway" v="primary"/>
    <tag k="lanes" v="2"/>
    <tag k="maxspeed" v="40 mph"/>
    <tag k="ref" v="A1123"/>
    <tag k="surface" v="asphalt"/>
  </way>
  <way id="66833413" version="9" timestamp="2021-07-10T13:24:07Z" changeset="107746207" uid="700479" user="Huwdiprose">
    <nd ref="807746136"/>
    <nd ref="21345106"/>
    <nd ref="21345107"/>
    <nd ref="21345116"/>
    <nd ref="21345124"/>
    <nd ref="21345130"/>
    <nd ref="7589188342"/>
    <nd ref="21345139"/>
    <nd ref="3258922930"/>
    <nd ref="21345147"/>
    <nd ref="21345149"/>
    <nd ref="2811344500"/>
    <nd ref="1120495723"/>
    <tag k="cycleway:left" v="track"/>
    <tag k="cycleway:left:segregated" v="no"/>
    <tag k="cycleway:right" v="no"/>
    <tag k="highway" v="primary"/>
    <tag k="lanes" v="2"/>
    <tag k="maxspeed" v="60 mph"/>
    <tag k="maxspeed:type" v="GB:nsl_single"/>
    <tag k="name" v="Stretham Road"/>
    <tag k="ref" v="A1123"/>
    <tag k="surface" v="asphalt"/>
  </way>
  <way id="96747043" version="6" timestamp="2017-04-22T08:25:01Z" changeset="48025594" uid="133272" user="wongataa">
    <nd ref="805658711"/>
    <nd ref="805658715"/>
    <nd ref="3870128"/>
    <nd ref="293273707"/>
    <nd ref="534220150"/>
    <nd ref="1313504617"/>
    <nd ref="29976747"/>
    <tag k="alt_name" v="Cambridge Road"/>
    <tag k="highway" v="trunk"/>
    <tag k="lanes" v="2"/>
    <tag k="maxspeed" v="60 mph"/>
    <tag k="maxspeed:type" v="GB:nsl_single"/>
    <tag k="ref" v="A10"/>
  </way>
  <way id="96765025" version="8" timestamp="2023-08-27T08:12:44Z" changeset="140440499" uid="19332" user="Colin Watson">
    <nd ref="1120495723"/>
    <nd ref="2291898306"/>
    <nd ref="21345152"/>
    <nd ref="21345159"/>
    <nd ref="21345167"/>
    <nd ref="21345175"/>
    <nd ref="21345182"/>
    <nd ref="21345191"/>
    <nd ref="21345198"/>
    <nd ref="21345206"/>
    <nd ref="21345213"/>
    <nd ref="21345221"/>
    <nd ref="21345230"/>
    <nd ref="21345237"/>
    <nd ref="807744973"/>
    <tag k="cycleway:left" v="track"/>
    <tag k="highway" v="primary"/>
    <tag k="lanes" v="2"/>
    <tag k="maxspeed" v="60 mph"/>
    <tag k="maxspeed:type" v="GB:nsl_single"/>
    <tag k="name" v="Wilburton Road"/>
    <tag k="ref" v="A1123"/>
    <tag k="surface" v="asphalt"/>
  </way>
  <way id="97047172" version="5" timestamp="2021-08-26T13:28:05Z" changeset="110289039" uid="242345" user="confusedbuffalo">
    <nd ref="24965790"/>
    <nd ref="24965791"/>
    <nd ref="24965792"/>
    <nd ref="1394926014"/>
    <nd ref="24965793"/>
    <nd ref="315645453"/>
    <tag k="highway" v="primary"/>
    <tag k="maxspeed" v="60 mph"/>
    <tag k="maxspeed:type" v="GB:nsl_single"/>
    <tag k="name" v="Dimmock's Cote Road"/>
    <tag k="ref" v="A1123"/>
    <tag k="source:maxspeed" v="Stats19"/>
  </way>
  <way id="97047466" version="10" timestamp="2025-02-22T22:05:33Z" changeset="162833177" uid="5008136" user="JayTurnr">
    <nd ref="3871014"/>
    <nd ref="3391155771"/>
    <nd ref="8094387340"/>
    <nd ref="805665815"/>
    <nd ref="3871022"/>
    <nd ref="805665819"/>
    <nd ref="805665823"/>
    <nd ref="3871027"/>
    <nd ref="12610680614"/>
    <nd ref="805665825"/>
    <nd ref="12610680615"/>
    <nd ref="30745900"/>
    <nd ref="12497910949"/>
    <nd ref="11259808290"/>
    <tag k="highway" v="trunk"/>
    <tag k="lanes" v="2"/>
    <tag k="maxspeed" v="60 mph"/>
    <tag k="maxspeed:type" v="GB:nsl_single"/>
    <tag k="ref" v="A10"/>
  </way>
  <way id="97924649" version="2" timestamp="2024-12-19T11:49:39Z" changeset="160390746" uid="5173844" user="ndrw6">
    <nd ref="1133433607"/>
    <nd ref="12433259399"/>
    <nd ref="255591413"/>
    <tag k="highway" v="residential"/>
    <tag k="name" v="Hay Fen Close"/>
    <tag k="source" v="OS OpenData StreetView"/>
  </way>
  <way id="97924650" version="10" timestamp="2024-12-19T18:41:31Z" changeset="160406485" uid="5173844" user="ndrw6">
    <nd ref="255590615"/>
    <nd ref="6012777865"/>
    <nd ref="255590519"/>
    <nd ref="12434130179"/>
    <nd ref="8021948746"/>
    <tag k="highway" v="residential"/>
    <tag k="lit" v="yes"/>
    <tag k="name" v="The Grove"/>
    <tag k="surface" v="asphalt"/>
  </way>
  <way id="131301618" version="7" timestamp="2023-12-29T00:20:15Z" changeset="145641356" uid="242345" user="confusedbuffalo">
    <nd ref="1445363628"/>
    <nd ref="1445363548"/>
    <nd ref="1445363535"/>
    <nd ref="1445363825"/>
    <nd ref="1445364147"/>
    <nd ref="1445363631"/>
    <nd ref="1445364036"/>
    <nd ref="1445363844"/>
    <nd ref="11464400309"/>
    <nd ref="10866138919"/>
    <nd ref="255591369"/>
    <tag k="cycleway:both" v="no"/>
    <tag k="highway" v="unclassified"/>
    <tag k="lane_markings" v="no"/>
    <tag k="source" v="Bing"/>
    <tag k="surface" v="concrete"/>
  </way>
  <way id="224413575" version="4" timestamp="2013-06-11T17:49:40Z" changeset="16513531" uid="1119200" user="Bugali">
    <nd ref="2332314187"/>
    <nd ref="2338253512"/>
    <nd ref="2332314161"/>
    <nd ref="2332314165"/>
    <nd ref="2332314162"/>
    <nd ref="2332314187"/>
    <tag k="addr:housenumber" v="19;21"/>
    <tag k="addr:postcode" v="CB6 3JQ"/>
    <tag k="addr:street" v="High Street"/>
    <tag k="building" v="yes"/>
  </way>
  <way id="227992918" version="3" timestamp="2024-12-19T11:49:39Z" changeset="160390746" uid="5173844" user="ndrw6">
    <nd ref="2366168039"/>
    <nd ref="12433259415"/>
    <nd ref="2366168041"/>
    <nd ref="2366168043"/>
    <nd ref="2366168045"/>
    <nd ref="2366168047"/>
    <nd ref="2366168049"/>
    <nd ref="2366168051"/>
    <tag k="highway" v="residential"/>
    <tag k="name" v="Ash Place"/>
  </way>
  <way id="227992919" version="5" timestamp="2021-06-15T06:58:47Z" changeset="106375959" uid="13563954" user="LongSnoot">
    <nd ref="2366168053"/>
    <nd ref="2366168055"/>
    <nd ref="2366168057"/>
    <nd ref="2366168059"/>
    <nd ref="2366168061"/>
    <nd ref="2366168063"/>
    <nd ref="2366168065"/>
    <nd ref="2366168068"/>
    <nd ref="2366168070"/>
    <nd ref="2366168072"/>
    <nd ref="2366168074"/>
    <nd ref="2366168076"/>
    <nd ref="2366168078"/>
    <nd ref="2366168080"/>
    <nd ref="2366168082"/>
    <nd ref="2366168085"/>
    <nd ref="2366168087"/>
    <nd ref="2366168089"/>
    <nd ref="2366168091"/>
    <nd ref="2366168035"/>
    <nd ref="2366168093"/>
    <nd ref="2366168095"/>
    <nd ref="2366168097"/>
    <nd ref="2366168099"/>
    <nd ref="2366168100"/>
    <nd ref="2366168101"/>
    <nd ref="2366168102"/>
    <nd ref="2366168103"/>
    <nd ref="2366168053"/>
    <tag k="addr:city" v="Stretham"/>
    <tag k="addr:postcode" v="CB6 3JN"/>
    <tag k="addr:street" v="Wood Lane"/>
    <tag k="building" v="school"/>
    <tag k="name" v="Stretham Primary School"/>
    <tag k="phone" v="+44 1353 649271"/>
    <tag k="website" v="http://www.strethamschool.co.uk/"/>
  </way>
  <way id="227993128" version="11" timestamp="2023-09-18T14:31:29Z" changeset="141428036" uid="37791" user="Fradeve11">
    <nd ref="2366170430"/>
    <nd ref="2366170433"/>
    <nd ref="737932967"/>
    <nd ref="737922471"/>
    <nd ref="737916509"/>
    <nd ref="737901925"/>
    <nd ref="737902456"/>
    <nd ref="2811348026"/>
    <nd ref="8090747654"/>
    <nd ref="2811348025"/>
    <nd ref="2366170441"/>
    <nd ref="2811348024"/>
    <nd ref="2811348023"/>
    <nd ref="2811348022"/>
    <nd ref="8090747652"/>
    <nd ref="2811348021"/>
    <nd ref="2811348020"/>
    <nd ref="2811348019"/>
    <nd ref="3396988721"/>
    <nd ref="2366170430"/>
    <tag k="addr:city" v="Stretham"/>
    <tag k="addr:postcode" v="CB6 3JN"/>
    <tag k="addr:street" v="Wood Lane"/>
    <tag k="amenity" v="school"/>
    <tag k="capacity" v="210"/>
    <tag k="isced:level" v="1"/>
    <tag k="max_age" v="11"/>
    <tag k="min_age" v="5"/>
    <tag k="name" v="Stretham Community Primary School"/>
    <tag k="phone" v="+44 1353 649271"/>
    <tag k="ref:GB:uprn" v="10002598228"/>
    <tag k="ref:edubase" v="110645"/>
    <tag k="school:trust" v="no"/>
    <tag k="school:type" v="community"/>
    <tag k="website" v="https://www.strethamschool.co.uk/"/>
    <tag k="wikidata" v="Q66223530"/>
  </way>
  <way id="231350331" version="3" timestamp="2020-11-07T12:33:26Z" changeset="93705568" uid="5173844" user="ndrw6">
    <nd ref="2397404567"/>
    <nd ref="2397404569"/>
    <nd ref="2397404573"/>
    <nd ref="2397404575"/>
    <nd ref="2397404577"/>
    <nd ref="2397404580"/>
    <tag k="highway" v="residential"/>
    <tag k="name" v="Berry Close"/>
  </way>
  <way id="231354131" version="5" timestamp="2023-05-03T22:42:00Z" changeset="135678636" uid="3999" user="BarryMyles">
    <nd ref="2397433546"/>
    <nd ref="2397433548"/>
    <nd ref="2397433550"/>
    <nd ref="2397433552"/>
    <nd ref="2397433554"/>
    <nd ref="2397433556"/>
    <nd ref="2397433558"/>
    <nd ref="2397433560"/>
    <nd ref="2397433562"/>
    <nd ref="2397433564"/>
    <nd ref="2397433566"/>
    <nd ref="2397433568"/>
    <nd ref="2397433546"/>
    <tag k="addr:city" v="Stretham"/>
    <tag k="addr:postcode" v="CB6 3XN"/>
    <tag k="addr:street" v="Chapel Lane"/>
    <tag k="building" v="yes"/>
    <tag k="name" v="Stretham Telephone Exchange"/>
    <tag k="operator" v="Openreach"/>
    <tag k="operator:wikidata" v="Q7096543"/>
    <tag k="ref" v="EASRM"/>
    <tag k="telecom" v="exchange"/>
  </way>
  <way id="283108951" version="1" timestamp="2014-05-20T11:52:26Z" changeset="22444060" uid="67929" user="StephenRD">
    <nd ref="2870208993"/>
    <nd ref="29976764"/>
    <nd ref="29976765"/>
    <nd ref="255589905"/>
    <tag k="highway" v="unclassified"/>
    <tag k="source" v="GPS"/>
  </way>
  <way id="283108952" version="4" timestamp="2023-12-06T20:41:18Z" changeset="144843658" uid="145964" user="Andy Frigaard">
    <nd ref="29976747"/>
    <nd ref="26052871"/>
    <tag k="foot" v="yes"/>
    <tag k="highway" v="trunk"/>
    <tag k="lanes" v="2"/>
    <tag k="maxspeed" v="60 mph"/>
    <tag k="maxspeed:type" v="GB:nsl_single"/>
    <tag k="name" v="Cambridge Road"/>
    <tag k="ref" v="A10"/>
  </way>
  <way id="283108957" version="8" timestamp="2025-02-22T21:50:54Z" changeset="162832800" uid="5008136" user="JayTurnr">
    <nd ref="29976746"/>
    <nd ref="2291898128"/>
    <nd ref="12610676004"/>
    <nd ref="8088163135"/>
    <nd ref="805658767"/>
    <nd ref="2296423057"/>
    <nd ref="3870451"/>
    <nd ref="12610650955"/>
    <nd ref="255588666"/>
    <nd ref="1870721009"/>
    <nd ref="3870457"/>
    <nd ref="255588667"/>
    <nd ref="805658771"/>
    <nd ref="1870721008"/>
    <nd ref="3870463"/>
    <nd ref="805658775"/>
    <nd ref="262711322"/>
    <nd ref="12610650957"/>
    <nd ref="3870471"/>
    <nd ref="255688028"/>
    <nd ref="12610650958"/>
    <tag k="alt_name" v="Cambridge Road"/>
    <tag k="highway" v="trunk"/>
    <tag k="lanes" v="2"/>
    <tag k="maxspeed" v="60 mph"/>
    <tag k="maxspeed:type" v="GB:nsl_single"/>
    <tag k="name" v="Cambridge Road"/>
    <tag k="ref" v="A10"/>
  </way>
  <way id="290006794" version="3" timestamp="2020-10-20T11:08:22Z" changeset="92763469" uid="10170576" user="sabodige">
    <nd ref="29976767"/>
    <nd ref="29976768"/>
    <nd ref="29976770"/>
    <nd ref="29976771"/>
    <nd ref="8024947139"/>
    <nd ref="29976772"/>
    <nd ref="29976773"/>
    <nd ref="29976774"/>
    <nd ref="29976775"/>
    <nd ref="29976776"/>
    <nd ref="29976746"/>
    <tag k="highway" v="unclassified"/>
    <tag k="source" v="GPS"/>
  </way>
  <way id="332552309" version="7" timestamp="2021-06-15T18:15:44Z" changeset="106417246" uid="13563954" user="LongSnoot">
    <nd ref="3396988756"/>
    <nd ref="4440943422"/>
    <nd ref="3396988737"/>
    <nd ref="3396987074"/>
    <nd ref="3396988774"/>
    <nd ref="3396988707"/>
    <nd ref="3396988770"/>
    <nd ref="3396988756"/>
    <tag k="addr:housenumber" v="45"/>
    <tag k="addr:postcode" v="CB6 3JQ"/>
    <tag k="addr:street" v="High Street"/>
    <tag k="building" v="retail"/>
    <tag k="building:levels" v="2"/>
    <tag k="fhrs:id" v="336277"/>
    <tag k="name" v="Stretham Stores"/>
    <tag k="opening_hours" v="Mo-Sa 06:00-20:00; Su 08:00-16:00"/>
    <tag k="roof:levels" v="0"/>
    <tag k="roof:shape" v="gabled"/>
    <tag k="shop" v="convenience"/>
  </way>
  <way id="415288475" version="2" timestamp="2022-06-09T18:13:53Z" changeset="122178344" uid="165" user="Richard">
    <nd ref="29976777"/>
    <nd ref="4163279790"/>
    <nd ref="4163279807"/>
    <nd ref="4163279663"/>
    <nd ref="29976777"/>
    <tag k="addr:postcode" v="CB6 3LU"/>
    <tag k="addr:street" v="Cambridge Road"/>
    <tag k="building" v="yes"/>
    <tag k="disused:amenity" v="pub"/>
    <tag k="name" v="The Lazy Otter"/>
  </way>
  <way id="415288476" version="3" timestamp="2020-11-06T12:31:31Z" changeset="93664299" uid="5173844" user="ndrw6">
    <nd ref="4163279627"/>
    <nd ref="4163279638"/>
    <nd ref="8088163188"/>
    <nd ref="4163279633"/>
    <nd ref="7896998138"/>
    <nd ref="4163279598"/>
    <nd ref="4163279592"/>
    <nd ref="4163279649"/>
    <tag k="highway" v="residential"/>
    <tag k="name" v="Lazy Otter Meadows"/>
  </way>
  <way id="415288480" version="1" timestamp="2016-05-03T13:09:22Z" changeset="39065771" uid="281267" user="smb1001">
    <nd ref="4163279816"/>
    <nd ref="4163279823"/>
    <nd ref="4163279642"/>
    <nd ref="4163279644"/>
    <nd ref="4163279623"/>
    <nd ref="4163279595"/>
    <nd ref="4163279594"/>
    <tag k="highway" v="residential"/>
    <tag k="name" v="Lazy Otter Meadows"/>
  </way>
  <way id="485364058" version="6" timestamp="2021-06-15T20:16:50Z" changeset="106421860" uid="13563954" user="LongSnoot">
    <nd ref="4590513552"/>
    <nd ref="4781352261"/>
    <nd ref="4781352255"/>
    <nd ref="4781352245"/>
    <nd ref="4590513552"/>
    <tag k="addr:housenumber" v="Bridge House"/>
    <tag k="addr:street" v="Green End"/>
    <tag k="building" v="hotel"/>
    <tag k="building:levels" v="2"/>
    <tag k="roof:levels" v="0"/>
    <tag k="roof:shape" v="gabled"/>
  </way>
  <way id="517344596" version="3" timestamp="2024-12-11T19:31:06Z" changeset="160182213" uid="22284288" user="GeeGoo1234">
    <nd ref="5048617251"/>
    <nd ref="5048617250"/>
    <nd ref="5048617249"/>
    <nd ref="5048617248"/>
    <nd ref="5048617251"/>
    <tag k="addr:housenumber" v="6A"/>
    <tag k="addr:postcode" v="CB6 3JZ"/>
    <tag k="addr:street" v="Newmarket Road"/>
    <tag k="amenity" v="fast_food"/>
    <tag k="building" v="retail"/>
    <tag k="cuisine" v="chinese;fish_and_chips"/>
    <tag k="drive_through" v="no"/>
    <tag k="fhrs:id" v="631861"/>
    <tag k="name" v="Will Wok"/>
    <tag k="opening_hours" v="Tu-Th,Su 16:30-22:00; Fr,Sa 16:00-22:30; PH,Mo off"/>
    <tag k="source" v="survey"/>
    <tag k="source:addr" v="FHRS Open Data"/>
    <tag k="source:geometry" v="Bing"/>
  </way>
  <way id="588594569" version="7" timestamp="2021-06-17T06:36:52Z" changeset="106504868" uid="13563954" user="LongSnoot">
    <nd ref="5621519243"/>
    <nd ref="5621519277"/>
    <nd ref="5621519273"/>
    <nd ref="5621519245"/>
    <nd ref="5621519252"/>
    <nd ref="8090747241"/>
    <nd ref="8090747240"/>
    <nd ref="5621519285"/>
    <nd ref="5621519243"/>
    <tag k="addr:housenumber" v="Red Lion"/>
    <tag k="addr:street" v="High Street"/>
    <tag k="building" v="retail"/>
    <tag k="building:levels" v="2"/>
    <tag k="roof:levels" v="0"/>
    <tag k="roof:shape" v="gabled"/>
  </way>
  <way id="588594572" version="6" timestamp="2021-06-17T06:32:36Z" changeset="106504868" uid="13563954" user="LongSnoot">
    <nd ref="5621519305"/>
    <nd ref="5621519293"/>
    <nd ref="5621519265"/>
    <nd ref="5621519275"/>
    <nd ref="5621519305"/>
    <tag k="addr:housenumber" v="53"/>
    <tag k="addr:street" v="High Street"/>
    <tag k="building" v="detached"/>
    <tag k="building:levels" v="2"/>
    <tag k="roof:levels" v="0"/>
    <tag k="roof:shape" v="many"/>
  </way>
  <way id="588594573" version="6" timestamp="2021-06-17T06:34:11Z" changeset="106504868" uid="13563954" user="LongSnoot">
    <nd ref="5621519295"/>
    <nd ref="5621519283"/>
    <nd ref="5621519290"/>
    <nd ref="5621519279"/>
    <nd ref="5621519304"/>
    <nd ref="5621519310"/>
    <nd ref="5621519307"/>
    <nd ref="5621519317"/>
    <nd ref="5621519295"/>
    <tag k="addr:housenumber" v="51"/>
    <tag k="addr:street" v="High Street"/>
    <tag k="building" v="detached"/>
    <tag k="building:levels" v="2"/>
    <tag k="roof:levels" v="0"/>
    <tag k="roof:shape" v="gabled"/>
  </way>
  <way id="588594578" version="5" timestamp="2025-03-20T23:32:17Z" changeset="163884106" uid="21226027" user="DorneyLake123">
    <nd ref="5621519247"/>
    <nd ref="12433259457"/>
    <nd ref="5621519311"/>
    <nd ref="5621519286"/>
    <nd ref="5621519291"/>
    <nd ref="5621519253"/>
    <nd ref="5621519247"/>
    <tag k="addr:housenumber" v="55"/>
    <tag k="addr:street" v="High Street"/>
    <tag k="building" v="semidetached_house"/>
  </way>
  <way id="588714812" version="6" timestamp="2021-06-17T06:43:55Z" changeset="106504868" uid="13563954" user="LongSnoot">
    <nd ref="5622319863"/>
    <nd ref="5622319982"/>
    <nd ref="5622319962"/>
    <nd ref="5622319313"/>
    <nd ref="5622319893"/>
    <nd ref="5622319980"/>
    <nd ref="5622319863"/>
    <tag k="addr:housenumber" v="13"/>
    <tag k="addr:street" v="Chapel Street"/>
    <tag k="building" v="detached"/>
    <tag k="building:levels" v="2"/>
    <tag k="roof:levels" v="0"/>
    <tag k="roof:shape" v="gabled"/>
  </way>
  <way id="588714815" version="6" timestamp="2021-06-17T06:45:28Z" changeset="106504868" uid="13563954" user="LongSnoot">
    <nd ref="5622319975"/>
    <nd ref="5622319921"/>
    <nd ref="5622319833"/>
    <nd ref="5622319957"/>
    <nd ref="5622319975"/>
    <tag k="addr:housenumber" v="9"/>
    <tag k="addr:street" v="Chapel Street"/>
    <tag k="building" v="detached"/>
    <tag k="building:levels" v="2"/>
    <tag k="roof:levels" v="0"/>
    <tag k="roof:shape" v="gabled"/>
  </way>
  <way id="588714824" version="7" timestamp="2021-06-17T06:39:30Z" changeset="106504868" uid="13563954" user="LongSnoot">
    <nd ref="5622319881"/>
    <nd ref="5622319885"/>
    <nd ref="5622319864"/>
    <nd ref="5622319303"/>
    <nd ref="5622319881"/>
    <tag k="addr:housenumber" v="15"/>
    <tag k="addr:postcode" v="CB6 3JG"/>
    <tag k="addr:street" v="Chapel Street"/>
    <tag k="building" v="detached"/>
    <tag k="building:levels" v="2"/>
    <tag k="roof:levels" v="0"/>
    <tag k="roof:shape" v="gabled"/>
  </way>
  <way id="637877233" version="7" timestamp="2024-12-19T11:49:39Z" changeset="160390746" uid="5173844" user="ndrw6">
    <nd ref="24965743"/>
    <nd ref="12230720581"/>
    <nd ref="6012777956"/>
    <nd ref="6012777955"/>
    <nd ref="6012777954"/>
    <nd ref="6012777953"/>
    <nd ref="6012777952"/>
    <nd ref="6012777951"/>
    <nd ref="6012777950"/>
    <tag k="highway" v="residential"/>
    <tag k="lit" v="no"/>
    <tag k="name" v="Sadler Way"/>
    <tag k="surface" v="asphalt"/>
  </way>
  <way id="637877235" version="4" timestamp="2023-08-25T18:21:01Z" changeset="140384267" uid="19332" user="Colin Watson">
    <nd ref="6012777964"/>
    <nd ref="6012777961"/>
    <nd ref="6012777962"/>
    <nd ref="8111545557"/>
    <nd ref="8111545556"/>
    <nd ref="6012777963"/>
    <nd ref="8111545558"/>
    <nd ref="8111545559"/>
    <nd ref="6012777964"/>
    <tag k="addr:housenumber" v="18"/>
    <tag k="addr:postcode" v="CB6 3LA"/>
    <tag k="addr:street" v="Pump Lane"/>
    <tag k="building" v="detached"/>
  </way>
  <way id="653919348" version="2" timestamp="2020-10-12T09:42:44Z" changeset="92342981" uid="10252548" user="singhiyv">
    <nd ref="6127994224"/>
    <nd ref="7999503283"/>
    <nd ref="6127994257"/>
    <nd ref="6127994218"/>
    <nd ref="6127994250"/>
    <tag k="fixme" v="approximate from survey"/>
    <tag k="highway" v="residential"/>
    <tag k="name" v="Chadwick Way"/>
    <tag k="source" v="Bing"/>
  </way>
  <way id="653919349" version="6" timestamp="2023-12-29T00:20:15Z" changeset="145641356" uid="242345" user="confusedbuffalo">
    <nd ref="11464400309"/>
    <nd ref="6127994252"/>
    <nd ref="6127994227"/>
    <nd ref="8111544224"/>
    <nd ref="6127994223"/>
    <nd ref="6127994242"/>
    <nd ref="10866138905"/>
    <nd ref="10866135002"/>
    <nd ref="10866138906"/>
    <nd ref="6127994245"/>
    <nd ref="10866135001"/>
    <nd ref="10866138907"/>
    <nd ref="6127994226"/>
    <nd ref="10866138908"/>
    <nd ref="6127994250"/>
    <nd ref="6127994234"/>
    <nd ref="8090747820"/>
    <nd ref="6283111903"/>
    <nd ref="1445363622"/>
    <nd ref="1445364026"/>
    <nd ref="1445363871"/>
    <nd ref="1445363835"/>
    <nd ref="1445363958"/>
    <tag k="highway" v="residential"/>
    <tag k="name" v="Petersfield"/>
    <tag k="oneway" v="no"/>
    <tag k="source" v="Bing"/>
  </way>
  <way id="653919350" version="1" timestamp="2018-12-10T10:13:41Z" changeset="65338169" uid="281267" user="smb1001">
    <nd ref="6127994234"/>
    <nd ref="6127994260"/>
    <nd ref="6127994251"/>
    <nd ref="6127994243"/>
    <tag k="highway" v="residential"/>
    <tag k="name" v="Poacher's Way"/>
  </way>
  <way id="670954120" version="3" timestamp="2020-11-12T11:59:43Z" changeset="93993796" uid="5173844" user="ndrw6">
    <nd ref="6127994223"/>
    <nd ref="8025546998"/>
    <nd ref="8025546986"/>
    <nd ref="6283111896"/>
    <nd ref="8111544110"/>
    <tag k="highway" v="residential"/>
    <tag k="name" v="Feast Green"/>
  </way>
  <way id="670954123" version="2" timestamp="2021-11-22T23:28:55Z" changeset="114117905" uid="5173844" user="ndrw6">
    <nd ref="6283111903"/>
    <nd ref="6283111902"/>
    <nd ref="9276419986"/>
    <nd ref="9276419985"/>
    <nd ref="9276419984"/>
    <nd ref="9276419983"/>
    <tag k="highway" v="residential"/>
    <tag k="name" v="Dockey Court"/>
  </way>
  <way id="691691474" version="7" timestamp="2024-12-19T11:49:39Z" changeset="160390746" uid="5173844" user="ndrw6">
    <nd ref="6491284339"/>
    <nd ref="6491284340"/>
    <nd ref="6491284341"/>
    <tag k="highway" v="residential"/>
    <tag k="lit" v="no"/>
    <tag k="name" v="Cage Lane"/>
    <tag k="sidewalk" v="none"/>
    <tag k="surface" v="asphalt"/>
  </way>
  <way id="734805510" version="2" timestamp="2020-11-07T12:33:26Z" changeset="93705568" uid="5173844" user="ndrw6">
    <nd ref="6881637051"/>
    <nd ref="6881637052"/>
    <nd ref="6881637053"/>
    <nd ref="6881637059"/>
    <nd ref="6881637054"/>
    <nd ref="6881637056"/>
    <nd ref="6881637057"/>
    <tag k="highway" v="residential"/>
  </way>
  <way id="826985964" version="8" timestamp="2024-12-19T18:41:31Z" changeset="160406485" uid="5173844" user="ndrw6">
    <nd ref="7720754867"/>
    <nd ref="7720754868"/>
    <nd ref="7720754869"/>
    <nd ref="7720754870"/>
    <nd ref="7720754871"/>
    <nd ref="7720754872"/>
    <nd ref="12434130177"/>
    <nd ref="12434130176"/>
    <nd ref="6819574665"/>
    <tag k="highway" v="residential"/>
    <tag k="lit" v="no"/>
    <tag k="name" v="Old Orchard Lane"/>
    <tag k="surface" v="asphalt"/>
  </way>
  <way id="850189092" version="8" timestamp="2024-12-19T11:49:39Z" changeset="160390746" uid="5173844" user="ndrw6">
    <nd ref="7931705725"/>
    <nd ref="8090747275"/>
    <nd ref="255594306"/>
    <tag k="highway" v="residential"/>
    <tag k="lit" v="yes"/>
    <tag k="name" v="Chapel Street"/>
    <tag k="oneway" v="no"/>
    <tag k="sidewalk" v="left"/>
    <tag k="surface" v="asphalt"/>
  </way>
  <way id="858071556" version="2" timestamp="2024-12-19T11:49:39Z" changeset="160390746" uid="5173844" user="ndrw6">
    <nd ref="7999503283"/>
    <nd ref="7999503284"/>
    <nd ref="12433259497"/>
    <tag k="highway" v="residential"/>
  </way>
  <way id="860669647" version="4" timestamp="2024-12-19T18:41:31Z" changeset="160406485" uid="5173844" user="ndrw6">
    <nd ref="255588981"/>
    <nd ref="12434159181"/>
    <nd ref="8021948747"/>
    <nd ref="8021948748"/>
    <nd ref="8021948749"/>
    <nd ref="8021948751"/>
    <nd ref="8021948752"/>
    <tag k="highway" v="residential"/>
  </way>
  <way id="861081721" version="4" timestamp="2023-10-10T08:42:13Z" changeset="142382072" uid="7345137" user="magrej">
    <nd ref="6283111895"/>
    <nd ref="10866135004"/>
    <nd ref="8025546987"/>
    <nd ref="8025546988"/>
    <nd ref="11252440076"/>
    <nd ref="8025546989"/>
    <nd ref="11252440073"/>
    <nd ref="10866135003"/>
    <nd ref="8025546990"/>
    <nd ref="11252440072"/>
    <nd ref="8025546991"/>
    <nd ref="8025546993"/>
    <nd ref="11252440075"/>
    <nd ref="8025546994"/>
    <nd ref="8025546995"/>
    <nd ref="8025546996"/>
    <nd ref="11252440074"/>
    <nd ref="8025546997"/>
    <nd ref="8025546998"/>
    <tag k="highway" v="residential"/>
    <tag k="name" v="Feast Green"/>
  </way>
  <way id="867996873" version="1" timestamp="2020-11-07T12:33:26Z" changeset="93705568" uid="5173844" user="ndrw6">
    <nd ref="8090747070"/>
    <nd ref="255592127"/>
    <nd ref="255592128"/>
    <tag k="highway" v="residential"/>
    <tag k="name" v="Berry Green"/>
  </way>
  <way id="867996961" version="6" timestamp="2024-12-19T11:49:39Z" changeset="160390746" uid="5173844" user="ndrw6">
    <nd ref="8090747463"/>
    <nd ref="8021948746"/>
    <nd ref="255590458"/>
    <tag k="highway" v="residential"/>
    <tag k="lit" v="no"/>
    <tag k="name" v="The Grove"/>
    <tag k="sidewalk" v="right"/>
    <tag k="surface" v="paving_stones"/>
  </way>
  <way id="867996991" version="1" timestamp="2020-11-07T12:33:26Z" changeset="93705568" uid="5173844" user="ndrw6">
    <nd ref="8090747771"/>
    <nd ref="8090747662"/>
    <tag k="highway" v="residential"/>
    <tag k="name" v="Kitson Gardens"/>
  </way>
  <way id="870766572" version="7" timestamp="2022-03-27T19:09:30Z" changeset="118992832" uid="242345" user="confusedbuffalo">
    <nd ref="8111543670"/>
    <nd ref="8111543676"/>
    <nd ref="8111543673"/>
    <nd ref="8111543669"/>
    <nd ref="8111543670"/>
    <tag k="addr:housenumber" v="1"/>
    <tag k="addr:street" v="The Grove"/>
    <tag k="building" v="house"/>
    <tag k="building:levels" v="2"/>
    <tag k="house" v="terraced"/>
    <tag k="roof:levels" v="0"/>
    <tag k="roof:shape" v="gabled"/>
  </way>
  <way id="870766573" version="7" timestamp="2022-03-27T19:09:30Z" changeset="118992832" uid="242345" user="confusedbuffalo">
    <nd ref="8111543672"/>
    <nd ref="8111543670"/>
    <nd ref="8111543669"/>
    <nd ref="8111543671"/>
    <nd ref="8111543672"/>
    <tag k="addr:housenumber" v="3"/>
    <tag k="addr:street" v="The Grove"/>
    <tag k="building" v="house"/>
    <tag k="building:levels" v="2"/>
    <tag k="house" v="terraced"/>
    <tag k="roof:levels" v="0"/>
    <tag k="roof:shape" v="gabled"/>
  </way>
  <way id="870766574" version="7" timestamp="2022-03-27T19:09:30Z" changeset="118992832" uid="242345" user="confusedbuffalo">
    <nd ref="8111543675"/>
    <nd ref="8111543672"/>
    <nd ref="8111543671"/>
    <nd ref="8111543674"/>
    <nd ref="8111543675"/>
    <tag k="addr:housenumber" v="5"/>
    <tag k="addr:street" v="The Grove"/>
    <tag k="building" v="house"/>
    <tag k="building:levels" v="2"/>
    <tag k="house" v="terraced"/>
    <tag k="roof:levels" v="0"/>
    <tag k="roof:shape" v="gabled"/>
  </way>
  <way id="870766580" version="6" timestamp="2021-06-15T07:55:57Z" changeset="106377067" uid="13563954" user="LongSnoot">
    <nd ref="8111543701"/>
    <nd ref="8111543706"/>
    <nd ref="8111543705"/>
    <nd ref="8111543703"/>
    <nd ref="8111543701"/>
    <tag k="addr:housenumber" v="Little Haven"/>
    <tag k="addr:street" v="King Cob"/>
    <tag k="building" v="semidetached_house"/>
    <tag k="building:levels" v="1"/>
    <tag k="roof:levels" v="0"/>
    <tag k="roof:shape" v="gabled"/>
  </way>
  <way id="870766581" version="6" timestamp="2021-06-15T20:46:14Z" changeset="106423266" uid="13563954" user="LongSnoot">
    <nd ref="8111543703"/>
    <nd ref="8111543702"/>
    <nd ref="8111543704"/>
    <nd ref="8111543707"/>
    <nd ref="8111543701"/>
    <nd ref="8111543703"/>
    <tag k="addr:housenumber" v="6"/>
    <tag k="addr:street" v="Green End"/>
    <tag k="building" v="semidetached_house"/>
    <tag k="building:levels" v="2"/>
    <tag k="roof:levels" v="0"/>
    <tag k="roof:shape" v="gabled"/>
  </way>
  <way id="870766582" version="6" timestamp="2021-06-15T06:49:00Z" changeset="106377067" uid="13563954" user="LongSnoot">
    <nd ref="8111543712"/>
    <nd ref="8111543709"/>
    <nd ref="8111543708"/>
    <nd ref="8111543711"/>
    <nd ref="8111543712"/>
    <tag k="addr:housenumber" v="4"/>
    <tag k="addr:street" v="Green End"/>
    <tag k="building" v="semidetached_house"/>
    <tag k="building:levels" v="2"/>
    <tag k="roof:levels" v="0"/>
    <tag k="roof:shape" v="gabled"/>
  </way>
  <way id="870766583" version="6" timestamp="2021-06-15T06:49:03Z" changeset="106377067" uid="13563954" user="LongSnoot">
    <nd ref="8111543713"/>
    <nd ref="8111543712"/>
    <nd ref="8111543711"/>
    <nd ref="8111543710"/>
    <nd ref="8111543713"/>
    <tag k="addr:housenumber" v="5"/>
    <tag k="addr:street" v="Green End"/>
    <tag k="building" v="semidetached_house"/>
    <tag k="building:levels" v="2"/>
    <tag k="roof:levels" v="0"/>
    <tag k="roof:shape" v="gabled"/>
  </way>
  <way id="870766584" version="6" timestamp="2021-06-15T06:48:54Z" changeset="106377067" uid="13563954" user="LongSnoot">
    <nd ref="8111543715"/>
    <nd ref="8111543719"/>
    <nd ref="8111543716"/>
    <nd ref="8111543714"/>
    <nd ref="8111543715"/>
    <tag k="addr:housenumber" v="2"/>
    <tag k="addr:street" v="Green End"/>
    <tag k="building" v="semidetached_house"/>
    <tag k="building:levels" v="2"/>
    <tag k="roof:levels" v="0"/>
    <tag k="roof:shape" v="gabled"/>
  </way>
  <way id="870766585" version="6" timestamp="2021-06-15T06:48:57Z" changeset="106377067" uid="13563954" user="LongSnoot">
    <nd ref="8111543718"/>
    <nd ref="8111543715"/>
    <nd ref="8111543714"/>
    <nd ref="8111543717"/>
    <nd ref="8111543718"/>
    <tag k="addr:housenumber" v="3"/>
    <tag k="addr:street" v="Green End"/>
    <tag k="building" v="semidetached_house"/>
    <tag k="building:levels" v="2"/>
    <tag k="roof:levels" v="0"/>
    <tag k="roof:shape" v="gabled"/>
  </way>
  <way id="870766587" version="6" timestamp="2021-06-15T20:48:45Z" changeset="106423266" uid="13563954" user="LongSnoot">
    <nd ref="8111543727"/>
    <nd ref="8111543726"/>
    <nd ref="8111543725"/>
    <nd ref="8111543724"/>
    <nd ref="8111543727"/>
    <tag k="addr:housenumber" v="1d"/>
    <tag k="addr:street" v="Green End"/>
    <tag k="building" v="semidetached_house"/>
    <tag k="building:levels" v="2"/>
    <tag k="roof:levels" v="0"/>
    <tag k="roof:shape" v="gabled"/>
  </way>
  <way id="870766588" version="6" timestamp="2021-06-15T20:49:22Z" changeset="106423266" uid="13563954" user="LongSnoot">
    <nd ref="8111543731"/>
    <nd ref="8111543730"/>
    <nd ref="8111543729"/>
    <nd ref="8111543728"/>
    <nd ref="8111543731"/>
    <tag k="addr:housenumber" v="1c"/>
    <tag k="addr:street" v="Green End"/>
    <tag k="building" v="semidetached_house"/>
    <tag k="building:levels" v="2"/>
    <tag k="roof:levels" v="0"/>
    <tag k="roof:shape" v="gabled"/>
  </way>
  <way id="870766589" version="6" timestamp="2021-06-17T06:06:21Z" changeset="106504868" uid="13563954" user="LongSnoot">
    <nd ref="8111543735"/>
    <nd ref="8111543734"/>
    <nd ref="8111543733"/>
    <nd ref="8111543732"/>
    <nd ref="8111543735"/>
    <tag k="addr:housenumber" v="1b"/>
    <tag k="addr:street" v="Green End"/>
    <tag k="building" v="semidetached_house"/>
    <tag k="building:levels" v="2"/>
    <tag k="roof:levels" v="0"/>
    <tag k="roof:shape" v="gabled"/>
  </way>
  <way id="870766590" version="6" timestamp="2021-06-17T06:06:46Z" changeset="106504868" uid="13563954" user="LongSnoot">
    <nd ref="8111543739"/>
    <nd ref="8111543736"/>
    <nd ref="8111543737"/>
    <nd ref="8111543738"/>
    <nd ref="8111543739"/>
    <tag k="addr:housenumber" v="1a"/>
    <tag k="addr:street" v="Green End"/>
    <tag k="building" v="semidetached_house"/>
    <tag k="building:levels" v="2"/>
    <tag k="roof:levels" v="0"/>
    <tag k="roof:shape" v="gabled"/>
  </way>
  <way id="870766633" version="6" timestamp="2021-06-15T07:38:50Z" changeset="106377067" uid="13563954" user="LongSnoot">
    <nd ref="8111543931"/>
    <nd ref="8111543930"/>
    <nd ref="8111543929"/>
    <nd ref="8111543928"/>
    <nd ref="8111543931"/>
    <tag k="addr:housenumber" v="2"/>
    <tag k="addr:street" v="Newmarket Road"/>
    <tag k="building" v="detached"/>
    <tag k="building:levels" v="2"/>
    <tag k="roof:levels" v="0"/>
    <tag k="roof:shape" v="gabled"/>
  </way>
  <way id="870766670" version="1" timestamp="2020-11-12T11:59:42Z" changeset="93993796" uid="5173844" user="ndrw6">
    <nd ref="6283111896"/>
    <nd ref="6283111895"/>
    <tag k="highway" v="residential"/>
    <tag k="name" v="Feast Green"/>
  </way>
  <way id="870766701" version="1" timestamp="2020-11-12T11:59:42Z" changeset="93993796" uid="5173844" user="ndrw6">
    <nd ref="8111544224"/>
    <nd ref="8111544223"/>
    <nd ref="8111544222"/>
    <tag k="highway" v="residential"/>
  </way>
  <way id="870766825" version="1" timestamp="2020-11-12T11:59:42Z" changeset="93993796" uid="5173844" user="ndrw6">
    <nd ref="2452114846"/>
    <nd ref="8111544664"/>
    <tag k="highway" v="residential"/>
    <tag k="name" v="Akeman Close"/>
  </way>
  <way id="870766928" version="2" timestamp="2024-12-19T11:49:39Z" changeset="160390746" uid="5173844" user="ndrw6">
    <nd ref="255592909"/>
    <nd ref="255593250"/>
    <nd ref="8111544998"/>
    <tag k="highway" v="residential"/>
    <tag k="name" v="Hazel Court"/>
  </way>
  <way id="870767043" version="3" timestamp="2023-08-25T18:22:32Z" changeset="140384267" uid="19332" user="Colin Watson">
    <nd ref="8111545397"/>
    <nd ref="8111545394"/>
    <nd ref="8111545395"/>
    <nd ref="8111545396"/>
    <nd ref="8111545397"/>
    <tag k="addr:housenumber" v="8"/>
    <tag k="addr:street" v="Chapel Street"/>
    <tag k="building" v="detached"/>
  </way>
  <way id="870767051" version="3" timestamp="2023-08-25T18:23:57Z" changeset="140384267" uid="19332" user="Colin Watson">
    <nd ref="8111545528"/>
    <nd ref="8111545523"/>
    <nd ref="8111545524"/>
    <nd ref="8111545527"/>
    <nd ref="8111545526"/>
    <nd ref="8111545525"/>
    <nd ref="8111545522"/>
    <nd ref="8111545521"/>
    <nd ref="8111545518"/>
    <nd ref="8111545519"/>
    <nd ref="8111545520"/>
    <nd ref="8111545517"/>
    <nd ref="8111545528"/>
    <tag k="addr:housenumber" v="7,9"/>
    <tag k="addr:street" v="Newmarket Road"/>
    <tag k="building" v="semidetached_house"/>
  </way>
  <way id="870767085" version="6" timestamp="2021-06-17T06:27:58Z" changeset="106504868" uid="13563954" user="LongSnoot">
    <nd ref="8111545666"/>
    <nd ref="8111545663"/>
    <nd ref="8111545664"/>
    <nd ref="8111545665"/>
    <nd ref="8111545666"/>
    <tag k="addr:housenumber" v="16"/>
    <tag k="addr:street" v="Pump Lane"/>
    <tag k="building" v="detached"/>
    <tag k="building:levels" v="2"/>
    <tag k="roof:levels" v="0"/>
    <tag k="roof:shape" v="gabled"/>
  </way>
  <way id="870767086" version="9" timestamp="2024-12-19T11:49:39Z" changeset="160390746" uid="5173844" user="ndrw6">
    <nd ref="8111545667"/>
    <nd ref="8111545671"/>
    <nd ref="8111545672"/>
    <nd ref="8111545670"/>
    <nd ref="8111545667"/>
    <tag k="addr:housenumber" v="2"/>
    <tag k="addr:street" v="Pump Lane"/>
    <tag k="building" v="terrace"/>
    <tag k="building:levels" v="1"/>
    <tag k="roof:levels" v="1"/>
    <tag k="roof:shape" v="gabled"/>
  </way>
  <way id="870767087" version="6" timestamp="2021-06-17T06:24:34Z" changeset="106504868" uid="13563954" user="LongSnoot">
    <nd ref="8111545680"/>
    <nd ref="8111545679"/>
    <nd ref="8111545678"/>
    <nd ref="8111545676"/>
    <nd ref="8111545675"/>
    <nd ref="8111545677"/>
    <nd ref="8111545673"/>
    <nd ref="8111545674"/>
    <nd ref="8111545680"/>
    <tag k="addr:housenumber" v="57"/>
    <tag k="addr:street" v="High Street"/>
    <tag k="building" v="semidetached_house"/>
    <tag k="building:levels" v="2"/>
    <tag k="roof:levels" v="0"/>
    <tag k="roof:shape" v="quadruple_saltbox"/>
  </way>
  <way id="954707751" version="6" timestamp="2024-12-19T11:49:39Z" changeset="160390746" uid="5173844" user="ndrw6">
    <nd ref="255594307"/>
    <nd ref="7931705725"/>
    <tag k="highway" v="residential"/>
    <tag k="lit" v="no"/>
    <tag k="name" v="Chapel Street"/>
    <tag k="oneway" v="no"/>
    <tag k="sidewalk" v="left"/>
    <tag k="surface" v="asphalt"/>
  </way>
  <way id="1235072601" version="4" timestamp="2024-12-19T11:49:39Z" changeset="160390746" uid="5173844" user="ndrw6">
    <nd ref="11464400298"/>
    <nd ref="11464400307"/>
    <nd ref="11464400306"/>
    <nd ref="11464400305"/>
    <nd ref="11464400304"/>
    <nd ref="11464400303"/>
    <nd ref="11464400302"/>
    <nd ref="11464400301"/>
    <nd ref="11464400300"/>
    <nd ref="11464400299"/>
    <nd ref="11464400298"/>
    <tag k="highway" v="residential"/>
  </way>
  <way id="1337598738" version="1" timestamp="2024-11-25T00:05:43Z" changeset="159553470" uid="10420541" user="Thingummy">
    <nd ref="12372616517"/>
    <nd ref="12372616516"/>
    <tag k="bridge" v="yes"/>
    <tag k="highway" v="tertiary"/>
    <tag k="layer" v="1"/>
    <tag k="name" v="Broad Baulk"/>
    <tag k="source" v="OS OpenData StreetView; Bing"/>
  </way>
  <way id="1342036298" version="2" timestamp="2024-12-19T11:49:39Z" changeset="160390746" uid="5173844" user="ndrw6">
    <nd ref="11464400309"/>
    <nd ref="11464400308"/>
    <nd ref="11464400298"/>
    <tag k="highway" v="residential"/>
  </way>
  <way id="1343741218" version="1" timestamp="2024-12-19T11:49:39Z" changeset="160390746" uid="5173844" user="ndrw6">
    <nd ref="255593250"/>
    <nd ref="12433259438"/>
    <tag k="highway" v="residential"/>
    <tag k="name" v="Hazel Court"/>
  </way>
  <way id="1343741234" version="2" timestamp="2025-03-20T23:32:17Z" changeset="163884106" uid="21226027" user="DorneyLake123">
    <nd ref="5621519253"/>
    <nd ref="5621519300"/>
    <nd ref="5621519276"/>
    <nd ref="5621519247"/>
    <nd ref="5621519253"/>
    <tag k="addr:housenumber" v="1"/>
    <tag k="addr:street" v="Pump Lane"/>
    <tag k="building" v="semidetached_house"/>
  </way>
  <way id="1343741235" version="1" timestamp="2024-12-19T11:49:39Z" changeset="160390746" uid="5173844" user="ndrw6">
    <nd ref="12433259458"/>
    <nd ref="8111545669"/>
    <nd ref="8111545668"/>
    <nd ref="12433259459"/>
    <nd ref="12433259458"/>
    <tag k="addr:housenumber" v="10"/>
    <tag k="addr:street" v="Pump Lane"/>
    <tag k="building" v="terrace"/>
    <tag k="building:levels" v="1"/>
    <tag k="roof:levels" v="1"/>
    <tag k="roof:shape" v="gabled"/>
  </way>
  <way id="1343741236" version="1" timestamp="2024-12-19T11:49:39Z" changeset="160390746" uid="5173844" user="ndrw6">
    <nd ref="12433259459"/>
    <nd ref="12433259461"/>
    <nd ref="12433259460"/>
    <nd ref="12433259458"/>
    <nd ref="12433259459"/>
    <tag k="addr:housenumber" v="8"/>
    <tag k="addr:street" v="Pump Lane"/>
    <tag k="building" v="terrace"/>
    <tag k="building:levels" v="1"/>
    <tag k="roof:levels" v="1"/>
    <tag k="roof:shape" v="gabled"/>
  </way>
  <way id="1343741237" version="1" timestamp="2024-12-19T11:49:39Z" changeset="160390746" uid="5173844" user="ndrw6">
    <nd ref="12433259461"/>
    <nd ref="12433259463"/>
    <nd ref="12433259462"/>
    <nd ref="12433259460"/>
    <nd ref="12433259461"/>
    <tag k="addr:housenumber" v="6"/>
    <tag k="addr:street" v="Pump Lane"/>
    <tag k="building" v="terrace"/>
    <tag k="building:levels" v="1"/>
    <tag k="roof:levels" v="1"/>
    <tag k="roof:shape" v="gabled"/>
  </way>
  <way id="1343741238" version="1" timestamp="2024-12-19T11:49:39Z" changeset="160390746" uid="5173844" user="ndrw6">
    <nd ref="12433259463"/>
    <nd ref="8111545667"/>
    <nd ref="8111545670"/>
    <nd ref="12433259462"/>
    <nd ref="12433259463"/>
    <tag k="addr:housenumber" v="4"/>
    <tag k="addr:street" v="Pump Lane"/>
    <tag k="building" v="terrace"/>
    <tag k="building:levels" v="1"/>
    <tag k="roof:levels" v="1"/>
    <tag k="roof:shape" v="gabled"/>
  </way>
  <way id="1343741248" version="1" timestamp="2024-12-19T11:49:39Z" changeset="160390746" uid="5173844" user="ndrw6">
    <nd ref="12433259496"/>
    <nd ref="12433259495"/>
    <nd ref="12433259497"/>
    <nd ref="12433259494"/>
    <nd ref="12433259493"/>
    <nd ref="12433259492"/>
    <nd ref="12433259491"/>
    <nd ref="12433259490"/>
    <nd ref="12433259489"/>
    <tag k="highway" v="residential"/>
  </way>
  <way id="1343741250" version="1" timestamp="2024-12-19T11:49:39Z" changeset="160390746" uid="5173844" user="ndrw6">
    <nd ref="12433259501"/>
    <nd ref="1133433607"/>
    <nd ref="12433259500"/>
    <tag k="highway" v="residential"/>
    <tag k="name" v="Hay Fen Close"/>
    <tag k="source" v="OS OpenData StreetView"/>
  </way>
  <way id="1343741254" version="1" timestamp="2024-12-19T11:49:39Z" changeset="160390746" uid="5173844" user="ndrw6">
    <nd ref="12433259520"/>
    <nd ref="8021948752"/>
    <nd ref="12433259519"/>
    <tag k="highway" v="residential"/>
  </way>
  <way id="1362047955" version="1" timestamp="2025-02-22T21:48:17Z" changeset="162832718" uid="5008136" user="JayTurnr">
    <nd ref="26052872"/>
    <nd ref="3870224"/>
    <nd ref="1495911575"/>
    <nd ref="805658756"/>
    <nd ref="30967668"/>
    <nd ref="12610676003"/>
    <tag k="alt_name" v="Cambridge Road"/>
    <tag k="highway" v="trunk"/>
    <tag k="lanes" v="2"/>
    <tag k="maxspeed" v="60 mph"/>
    <tag k="maxspeed:type" v="GB:nsl_single"/>
    <tag k="name" v="Cambridge Road"/>
    <tag k="ref" v="A10"/>
  </way>
  <way id="1362047956" version="1" timestamp="2025-02-22T21:48:17Z" changeset="162832718" uid="5008136" user="JayTurnr">
    <nd ref="12610676003"/>
    <nd ref="29976746"/>
    <tag k="alt_name" v="Cambridge Road"/>
    <tag k="highway" v="trunk"/>
    <tag k="lanes" v="3"/>
    <tag k="lanes:backward" v="1"/>
    <tag k="lanes:forward" v="2"/>
    <tag k="maxspeed" v="60 mph"/>
    <tag k="maxspeed:type" v="GB:nsl_single"/>
    <tag k="name" v="Cambridge Road"/>
    <tag k="ref" v="A10"/>
  </way>
  <way id="1362048248" version="5" timestamp="2025-02-22T21:54:32Z" changeset="162832892" uid="5008136" user="JayTurnr">
    <nd ref="7962467896"/>
    <nd ref="12610661522"/>
    <nd ref="3870615"/>
    <nd ref="30967667"/>
    <nd ref="12610676005"/>
    <nd ref="3870629"/>
    <nd ref="12610641320"/>
    <nd ref="805658782"/>
    <nd ref="3870634"/>
    <nd ref="12610661526"/>
    <nd ref="262711324"/>
    <nd ref="805927089"/>
    <tag k="alt_name" v="Cambridge Road"/>
    <tag k="highway" v="trunk"/>
    <tag k="lanes" v="2"/>
    <tag k="maxspeed" v="60 mph"/>
    <tag k="maxspeed:type" v="GB:nsl_single"/>
    <tag k="name" v="Cambridge Road"/>
    <tag k="ref" v="A10"/>
  </way>
  <way id="1362048249" version="1" timestamp="2025-02-22T21:50:54Z" changeset="162832800" uid="5008136" user="JayTurnr">
    <nd ref="12610650958"/>
    <nd ref="805658777"/>
    <nd ref="3870481"/>
    <nd ref="7962467896"/>
    <tag k="alt_name" v="Cambridge Road"/>
    <tag k="highway" v="trunk"/>
    <tag k="lanes" v="3"/>
    <tag k="lanes:backward" v="1"/>
    <tag k="lanes:forward" v="2"/>
    <tag k="maxspeed" v="60 mph"/>
    <tag k="maxspeed:type" v="GB:nsl_single"/>
    <tag k="name" v="Cambridge Road"/>
    <tag k="ref" v="A10"/>
  </way>

</osm>
