<?xml version="1.0" encoding="UTF-8"?>
<osm version="0.6" generator="Overpass API 0.7.62.5 1bd436f1">
<note>The data included in this document is from www.openstreetmap.org. The data is made available under ODbL.</note>
<meta osm_base="2025-04-27T07:28:05Z" areas="2025-02-06T02:17:44Z"/>

  <node id="620901" lat="52.2315868" lon="0.0762471" version="22" timestamp="2025-03-12T11:07:49Z" changeset="163522564" uid="5229644" user="Nathan_A_RF">
    <tag k="highway" v="motorway_junction"/>
    <tag k="name" v="Girton"/>
    <tag k="ref" v="31"/>
  </node>
  <node id="5313604" lat="52.2154886" lon="0.0408640" version="2" timestamp="2009-07-12T21:44:15Z" changeset="1811197" uid="84263" user="Robert Whittaker"/>
  <node id="5313626" lat="52.2147217" lon="0.0666986" version="14" timestamp="2024-10-29T00:26:33Z" changeset="158478329" uid="1102246" user="jtn20"/>
  <node id="18237879" lat="52.2309040" lon="0.0704423" version="5" timestamp="2014-04-23T16:51:18Z" changeset="21890656" uid="1723158" user="ozhiker2"/>
  <node id="18237880" lat="52.2308405" lon="0.0702242" version="7" timestamp="2014-04-23T16:51:18Z" changeset="21890656" uid="1723158" user="ozhiker2"/>
  <node id="23767379" lat="52.2153405" lon="0.0531936" version="7" timestamp="2024-06-23T14:38:16Z" changeset="153071206" uid="742701" user="kerr smith"/>
  <node id="23767782" lat="52.2157279" lon="0.0373966" version="3" timestamp="2021-08-02T15:03:07Z" changeset="109039556" uid="742701" user="kerr smith"/>
  <node id="32520566" lat="52.2190601" lon="0.0077160" version="5" timestamp="2020-04-01T11:39:25Z" changeset="82920827" uid="5173844" user="ndrw6"/>
  <node id="32520619" lat="52.2167684" lon="0.0317077" version="4" timestamp="2024-11-04T14:48:37Z" changeset="158744059" uid="5229644" user="Nathan_A_RF"/>
  <node id="304439934" lat="52.2345526" lon="0.0318293" version="4" timestamp="2024-04-15T15:40:35Z" changeset="150045285" uid="742701" user="kerr smith"/>
  <node id="311546287" lat="52.2155342" lon="0.0582096" version="6" timestamp="2024-06-23T14:38:16Z" changeset="153071206" uid="742701" user="kerr smith"/>
  <node id="682026550" lat="52.2101201" lon="0.0772684" version="3" timestamp="2010-08-08T23:04:22Z" changeset="5438937" uid="21502" user="Kevin Steinhardt">
    <tag k="exit_to" v="Cambridge A1303, Bedford (A428)"/>
    <tag k="highway" v="motorway_junction"/>
    <tag k="ref" v="13"/>
  </node>
  <node id="1208072386" lat="52.2308751" lon="0.0720822" version="4" timestamp="2025-03-12T11:07:49Z" changeset="163522564" uid="5229644" user="Nathan_A_RF">
    <tag k="highway" v="motorway_junction"/>
    <tag k="name" v="Girton"/>
    <tag k="ref" v="31"/>
  </node>
  <node id="1290836844" lat="52.2349234" lon="0.0540185" version="2" timestamp="2012-07-12T12:01:29Z" changeset="12194698" uid="504708" user="HillWithSmallFields"/>
  <node id="1545109340" lat="52.2150830" lon="0.0611864" version="3" timestamp="2015-01-13T13:39:17Z" changeset="28110525" uid="669183" user="Andy_W"/>
  <node id="3227988055" lat="52.2297036" lon="0.0652834" version="7" timestamp="2025-03-20T17:19:46Z" changeset="163873309" uid="8061502" user="galacticism"/>
  <node id="4584005354" lat="52.2297604" lon="0.0657777" version="5" timestamp="2024-01-09T11:59:43Z" changeset="146064087" uid="5229644" user="Nathan_A_RF"/>
  <node id="8974828759" lat="52.2159045" lon="0.0384229" version="2" timestamp="2024-04-09T22:18:54Z" changeset="149796574" uid="5229644" user="Nathan_A_RF"/>
  <node id="12294470163" lat="52.2160688" lon="0.0636515" version="1" timestamp="2024-10-28T18:39:09Z" changeset="158468897" uid="1102246" user="jtn20"/>
  <node id="12294951315" lat="52.2147789" lon="0.0671896" version="1" timestamp="2024-10-29T00:26:33Z" changeset="158478329" uid="1102246" user="jtn20"/>
  <way id="3678089" version="30" timestamp="2025-03-12T11:07:49Z" changeset="163522564" uid="5229644" user="Nathan_A_RF">
    <nd ref="18237880"/>
    <nd ref="1565572268"/>
    <nd ref="1565571924"/>
    <nd ref="1565572482"/>
    <nd ref="1565572310"/>
    <nd ref="1565572408"/>
    <nd ref="1565572384"/>
    <nd ref="1565572364"/>
    <nd ref="1565572461"/>
    <nd ref="1565572002"/>
    <nd ref="1565572305"/>
    <nd ref="1565572377"/>
    <nd ref="1565572096"/>
    <nd ref="1565572396"/>
    <nd ref="1565572334"/>
    <nd ref="1565572171"/>
    <nd ref="1565572184"/>
    <nd ref="1565572176"/>
    <nd ref="1565572010"/>
    <nd ref="1565571897"/>
    <nd ref="1565571920"/>
    <nd ref="1565571879"/>
    <nd ref="1565572449"/>
    <nd ref="1565572235"/>
    <nd ref="1565572152"/>
    <nd ref="1565572466"/>
    <nd ref="1565572373"/>
    <nd ref="1565572474"/>
    <nd ref="1565571976"/>
    <nd ref="1565571854"/>
    <nd ref="1565572034"/>
    <nd ref="1565572014"/>
    <nd ref="1565572469"/>
    <nd ref="1565572328"/>
    <nd ref="1565572331"/>
    <nd ref="1565572390"/>
    <nd ref="1565572028"/>
    <nd ref="1565571834"/>
    <nd ref="1565572167"/>
    <nd ref="1565572086"/>
    <nd ref="1565572146"/>
    <nd ref="1565572368"/>
    <nd ref="1565571902"/>
    <nd ref="1565572082"/>
    <nd ref="12655866558"/>
    <nd ref="328619"/>
    <tag k="destination" v="Newmarket;Ely"/>
    <tag k="destination:ref" v="A14(E)"/>
    <tag k="highway" v="motorway_link"/>
    <tag k="lanes" v="1"/>
    <tag k="lit" v="yes"/>
    <tag k="maxheight" v="default"/>
    <tag k="maxspeed" v="70 mph"/>
    <tag k="maxspeed:type" v="GB:motorway"/>
    <tag k="national_highways:area" v="8"/>
    <tag k="oneway" v="yes"/>
    <tag k="operator" v="National Highways"/>
    <tag k="operator:wikidata" v="Q5760006"/>
    <tag k="ref" v="M11"/>
    <tag k="surface" v="asphalt"/>
  </way>
  <way id="4162077" version="15" timestamp="2024-04-09T22:18:54Z" changeset="149796574" uid="5229644" user="Nathan_A_RF">
    <nd ref="5313603"/>
    <nd ref="2302145953"/>
    <nd ref="1545109328"/>
    <nd ref="5313602"/>
    <tag k="alt_name" v="St Neots Road"/>
    <tag k="bicycle" v="yes"/>
    <tag k="highway" v="trunk"/>
    <tag k="lit" v="yes"/>
    <tag k="maxspeed" v="60 mph"/>
    <tag k="maxspeed:type" v="GB:nsl_single"/>
    <tag k="name" v="Saint Neots Road"/>
    <tag k="note:name" v="No name signs along this stretch, but Web sites of places along it all call it &quot;Madingley Road&quot;.Government sources call the parts in the parish of Madingley &quot;St Neots Road&quot; and some give the two sides different names where the boundary follows the road."/>
    <tag k="oneway" v="yes"/>
    <tag k="ref" v="A1303"/>
    <tag k="source:highway" v="signs"/>
    <tag k="source:name" v="local_knowledge"/>
  </way>
  <way id="4162080" version="14" timestamp="2024-11-04T14:48:37Z" changeset="158744059" uid="5229644" user="Nathan_A_RF">
    <nd ref="3285760419"/>
    <nd ref="8889517136"/>
    <nd ref="8889517139"/>
    <nd ref="8889517140"/>
    <nd ref="23768157"/>
    <nd ref="1126289533"/>
    <nd ref="23768120"/>
    <nd ref="23768067"/>
    <nd ref="23768315"/>
    <nd ref="9019633341"/>
    <nd ref="23768061"/>
    <tag k="abutters" v="residential"/>
    <tag k="cycleway:both" v="no"/>
    <tag k="highway" v="tertiary"/>
    <tag k="maxspeed" v="30 mph"/>
    <tag k="name" v="Cambridge Road"/>
    <tag k="sidewalk:left" v="no"/>
    <tag k="sidewalk:right" v="yes"/>
    <tag k="source:name" v="local knowledge"/>
    <tag k="surface" v="asphalt"/>
  </way>
  <way id="4162081" version="9" timestamp="2024-11-04T14:48:37Z" changeset="158744059" uid="5229644" user="Nathan_A_RF">
    <nd ref="23768179"/>
    <nd ref="23768173"/>
    <tag k="bridge" v="yes"/>
    <tag k="highway" v="tertiary"/>
    <tag k="layer" v="1"/>
    <tag k="maxspeed" v="40 mph"/>
    <tag k="maxspeed:type" v="sign"/>
    <tag k="sidewalk:right" v="yes"/>
    <tag k="surface" v="asphalt"/>
  </way>
  <way id="4162082" version="31" timestamp="2024-11-04T14:48:37Z" changeset="158744059" uid="5229644" user="Nathan_A_RF">
    <nd ref="23769250"/>
    <nd ref="23768262"/>
    <nd ref="23768235"/>
    <nd ref="280371766"/>
    <nd ref="2298295729"/>
    <nd ref="23768232"/>
    <nd ref="279409816"/>
    <nd ref="8889517155"/>
    <nd ref="3285780684"/>
    <nd ref="2298295811"/>
    <nd ref="23768203"/>
    <nd ref="3285760416"/>
    <nd ref="3285760418"/>
    <nd ref="8889517150"/>
    <nd ref="3285772601"/>
    <nd ref="23768179"/>
    <tag k="cycleway:both" v="no"/>
    <tag k="highway" v="tertiary"/>
    <tag k="lit" v="no"/>
    <tag k="maxspeed" v="40 mph"/>
    <tag k="maxspeed:type" v="sign"/>
    <tag k="name" v="Cambridge Road"/>
    <tag k="sidewalk" v="no"/>
    <tag k="source:lit" v="survey"/>
    <tag k="source:name" v="local_knowledge"/>
    <tag k="surface" v="asphalt"/>
  </way>
  <way id="4162088" version="11" timestamp="2024-11-04T14:48:37Z" changeset="158744059" uid="5229644" user="Nathan_A_RF">
    <nd ref="765951212"/>
    <nd ref="11805937989"/>
    <nd ref="11805937988"/>
    <nd ref="506801088"/>
    <tag k="hgv" v="discouraged"/>
    <tag k="highway" v="tertiary"/>
    <tag k="lit" v="yes"/>
    <tag k="maxspeed" v="60 mph"/>
    <tag k="maxspeed:type" v="GB:nsl_single"/>
    <tag k="name" v="Church Lane"/>
    <tag k="oneway" v="yes"/>
    <tag k="source" v="aerials"/>
    <tag k="source:name" v="local knowledge"/>
    <tag k="surface" v="asphalt"/>
  </way>
  <way id="4162090" version="7" timestamp="2022-11-15T21:09:01Z" changeset="128959616" uid="16089" user="Ben Harris">
    <nd ref="23767900"/>
    <nd ref="3285789575"/>
    <nd ref="23767923"/>
    <tag k="bridge" v="yes"/>
    <tag k="hgv" v="discouraged"/>
    <tag k="highway" v="tertiary"/>
    <tag k="layer" v="1"/>
    <tag k="maxspeed" v="60 mph"/>
    <tag k="maxspeed:type" v="GB:nsl_single"/>
    <tag k="name" v="Church Lane"/>
    <tag k="source" v="aerials"/>
  </way>
  <way id="4162091" version="11" timestamp="2022-11-15T21:09:01Z" changeset="128959616" uid="16089" user="Ben Harris">
    <nd ref="23767923"/>
    <nd ref="3285789570"/>
    <nd ref="23767926"/>
    <nd ref="1495698001"/>
    <nd ref="1495698007"/>
    <nd ref="1495698038"/>
    <nd ref="1495698051"/>
    <nd ref="23767931"/>
    <nd ref="455488159"/>
    <nd ref="3771821826"/>
    <tag k="abutters" v="residential"/>
    <tag k="hgv" v="discouraged"/>
    <tag k="highway" v="tertiary"/>
    <tag k="maxspeed" v="60 mph"/>
    <tag k="maxspeed:type" v="GB:nsl_single"/>
    <tag k="name" v="Church Lane"/>
    <tag k="source:name" v="survey"/>
  </way>
  <way id="4162100" version="5" timestamp="2024-10-28T18:39:09Z" changeset="158468897" uid="1102246" user="jtn20">
    <nd ref="23768573"/>
    <nd ref="12294470153"/>
    <nd ref="8565602262"/>
    <nd ref="23768569"/>
    <tag k="abutters" v="residential"/>
    <tag k="hgv" v="discouraged"/>
    <tag k="highway" v="tertiary"/>
    <tag k="maxspeed" v="40 mph"/>
    <tag k="maxspeed:type" v="sign"/>
    <tag k="name" v="The Avenue"/>
    <tag k="source:name" v="local knowledge"/>
  </way>
  <way id="4162101" version="4" timestamp="2024-10-28T18:39:09Z" changeset="158468897" uid="1102246" user="jtn20">
    <nd ref="8804505833"/>
    <nd ref="12294470157"/>
    <nd ref="12294470156"/>
    <nd ref="8804505839"/>
    <tag k="abutters" v="residential"/>
    <tag k="highway" v="tertiary"/>
    <tag k="maxspeed" v="30 mph"/>
    <tag k="name" v="Dry Drayton Road"/>
    <tag k="source:name" v="local knowledge"/>
  </way>
  <way id="4162102" version="13" timestamp="2024-12-31T17:59:13Z" changeset="160843518" uid="5229644" user="Nathan_A_RF">
    <nd ref="8804505839"/>
    <nd ref="4595254112"/>
    <nd ref="23768746"/>
    <nd ref="756782753"/>
    <nd ref="23768754"/>
    <nd ref="4398839787"/>
    <nd ref="756782754"/>
    <nd ref="23768766"/>
    <nd ref="26661047"/>
    <nd ref="4398839783"/>
    <nd ref="26661055"/>
    <nd ref="4398839785"/>
    <nd ref="756782755"/>
    <nd ref="4398839788"/>
    <nd ref="292405312"/>
    <nd ref="4398839784"/>
    <nd ref="756782756"/>
    <nd ref="26661059"/>
    <nd ref="26661222"/>
    <nd ref="2503950318"/>
    <nd ref="4398839786"/>
    <nd ref="756782757"/>
    <nd ref="26661084"/>
    <nd ref="26661217"/>
    <nd ref="26661071"/>
    <nd ref="4398827861"/>
    <nd ref="4398827859"/>
    <nd ref="4595254041"/>
    <nd ref="26661247"/>
    <nd ref="4398827860"/>
    <nd ref="4398827864"/>
    <nd ref="26661110"/>
    <nd ref="4398827866"/>
    <nd ref="4398827854"/>
    <nd ref="304439934"/>
    <tag k="highway" v="tertiary"/>
    <tag k="maxspeed" v="60 mph"/>
    <tag k="maxspeed:type" v="GB:nsl_single"/>
    <tag k="name" v="Dry Drayton Road"/>
  </way>
  <way id="4162104" version="13" timestamp="2024-11-04T14:48:37Z" changeset="158744059" uid="5229644" user="Nathan_A_RF">
    <nd ref="8804505833"/>
    <nd ref="8804505841"/>
    <nd ref="8804505842"/>
    <nd ref="8804505838"/>
    <nd ref="8804505836"/>
    <nd ref="8804505837"/>
    <nd ref="23768522"/>
    <nd ref="23768520"/>
    <nd ref="756694937"/>
    <nd ref="1126289537"/>
    <nd ref="23768516"/>
    <nd ref="756694951"/>
    <nd ref="467610380"/>
    <nd ref="2503950427"/>
    <nd ref="756694973"/>
    <nd ref="23768503"/>
    <nd ref="320914126"/>
    <nd ref="1495781782"/>
    <nd ref="8499528424"/>
    <nd ref="23768061"/>
    <tag k="abutters" v="residential"/>
    <tag k="hgv" v="discouraged"/>
    <tag k="highway" v="tertiary"/>
    <tag k="maxspeed" v="30 mph"/>
    <tag k="name" v="High Street"/>
    <tag k="source:name" v="local knowledge"/>
  </way>
  <way id="4162119" version="15" timestamp="2024-11-04T14:48:37Z" changeset="158744059" uid="5229644" user="Nathan_A_RF">
    <nd ref="23769134"/>
    <nd ref="1545109323"/>
    <nd ref="23769137"/>
    <nd ref="1545109329"/>
    <nd ref="247824878"/>
    <tag k="expressway" v="yes"/>
    <tag k="foot" v="no"/>
    <tag k="highway" v="trunk_link"/>
    <tag k="lit" v="yes"/>
    <tag k="maxspeed" v="70 mph"/>
    <tag k="maxspeed:type" v="GB:nsl_dual"/>
    <tag k="national_highways:area" v="8"/>
    <tag k="oneway" v="yes"/>
    <tag k="operator" v="National Highways"/>
    <tag k="operator:wikidata" v="Q5760006"/>
  </way>
  <way id="4210432" version="23" timestamp="2025-03-12T11:07:49Z" changeset="163522564" uid="5229644" user="Nathan_A_RF">
    <nd ref="16711416"/>
    <nd ref="1198329003"/>
    <nd ref="16711417"/>
    <nd ref="4584016920"/>
    <nd ref="11170944338"/>
    <nd ref="9403798904"/>
    <nd ref="1565572342"/>
    <nd ref="3880821"/>
    <tag k="destination" v="Newmarket;Ely"/>
    <tag k="destination:ref" v="A14(E)"/>
    <tag k="highway" v="motorway_link"/>
    <tag k="lanes" v="1"/>
    <tag k="lit" v="yes"/>
    <tag k="maxspeed" v="70 mph"/>
    <tag k="maxspeed:type" v="GB:motorway"/>
    <tag k="national_highways:area" v="8"/>
    <tag k="oneway" v="yes"/>
    <tag k="operator" v="National Highways"/>
    <tag k="operator:wikidata" v="Q5760006"/>
    <tag k="ref" v="M11"/>
    <tag k="surface" v="asphalt"/>
  </way>
  <way id="4258568" version="24" timestamp="2024-01-09T14:24:03Z" changeset="146069100" uid="5229644" user="Nathan_A_RF">
    <nd ref="18237879"/>
    <nd ref="231485"/>
    <nd ref="445043865"/>
    <nd ref="23769428"/>
    <nd ref="4755210226"/>
    <tag k="carriageway_ref" v="A"/>
    <tag k="description" v="Cambridge Western Bypass"/>
    <tag k="destination:ref" v="A14"/>
    <tag k="highway" v="motorway"/>
    <tag k="lanes" v="2"/>
    <tag k="lit" v="yes"/>
    <tag k="maxspeed" v="70 mph"/>
    <tag k="national_highways:area" v="8"/>
    <tag k="oneway" v="yes"/>
    <tag k="operator" v="National Highways"/>
    <tag k="operator:wikidata" v="Q5760006"/>
    <tag k="ref" v="M11"/>
    <tag k="surface" v="asphalt"/>
  </way>
  <way id="4258569" version="20" timestamp="2023-09-06T02:32:29Z" changeset="140873821" uid="13341565" user="Falsernet">
    <nd ref="25526770"/>
    <nd ref="18237879"/>
    <tag k="bridge" v="yes"/>
    <tag k="carriageway_ref" v="A"/>
    <tag k="description" v="Cambridge Western Bypass"/>
    <tag k="destination:ref" v="A14"/>
    <tag k="highway" v="motorway"/>
    <tag k="lanes" v="2"/>
    <tag k="layer" v="1"/>
    <tag k="lit" v="yes"/>
    <tag k="maxspeed" v="70 mph"/>
    <tag k="national_highways:area" v="8"/>
    <tag k="oneway" v="yes"/>
    <tag k="operator" v="National Highways"/>
    <tag k="operator:wikidata" v="Q5760006"/>
    <tag k="ref" v="M11"/>
    <tag k="source:ref" v="local knowledge"/>
    <tag k="surface" v="asphalt"/>
  </way>
  <way id="4258570" version="21" timestamp="2024-01-09T11:59:43Z" changeset="146064087" uid="5229644" user="Nathan_A_RF">
    <nd ref="3880821"/>
    <nd ref="18237880"/>
    <tag k="bridge" v="yes"/>
    <tag k="destination" v="Newmarket;Ely"/>
    <tag k="destination:ref" v="A14(E)"/>
    <tag k="highway" v="motorway_link"/>
    <tag k="lanes" v="1"/>
    <tag k="layer" v="1"/>
    <tag k="lit" v="yes"/>
    <tag k="maxspeed" v="70 mph"/>
    <tag k="maxspeed:type" v="GB:motorway"/>
    <tag k="national_highways:area" v="8"/>
    <tag k="oneway" v="yes"/>
    <tag k="operator" v="National Highways"/>
    <tag k="operator:wikidata" v="Q5760006"/>
    <tag k="ref" v="M11"/>
    <tag k="surface" v="asphalt"/>
  </way>
  <way id="4258571" version="39" timestamp="2025-03-12T11:07:49Z" changeset="163522564" uid="5229644" user="Nathan_A_RF">
    <nd ref="620901"/>
    <nd ref="12655866554"/>
    <nd ref="12655866553"/>
    <nd ref="320912512"/>
    <nd ref="1565572246"/>
    <nd ref="1565572260"/>
    <nd ref="1565571980"/>
    <tag k="alt_description" v="Ipswich - Weedon Trunk Road"/>
    <tag k="bicycle" v="no"/>
    <tag k="description" v="Cambridge Northern Bypass"/>
    <tag k="expressway" v="yes"/>
    <tag k="foot" v="no"/>
    <tag k="highway" v="trunk"/>
    <tag k="horse" v="no"/>
    <tag k="lanes" v="1"/>
    <tag k="lit" v="yes"/>
    <tag k="maxheight" v="default"/>
    <tag k="maxspeed" v="70 mph"/>
    <tag k="maxspeed:type" v="GB:nsl_dual"/>
    <tag k="national_highways:area" v="8"/>
    <tag k="old_ref" v="A45"/>
    <tag k="oneway" v="yes"/>
    <tag k="operator" v="National Highways"/>
    <tag k="operator:wikidata" v="Q5760006"/>
    <tag k="ref" v="A428"/>
    <tag k="surface" v="asphalt"/>
  </way>
  <way id="4287102" version="15" timestamp="2024-05-31T20:34:43Z" changeset="152097991" uid="19529281" user="Nebulans">
    <nd ref="21288201"/>
    <nd ref="1545114322"/>
    <nd ref="1545114314"/>
    <nd ref="687044521"/>
    <nd ref="32520616"/>
    <nd ref="687044522"/>
    <nd ref="21288191"/>
    <nd ref="32520613"/>
    <nd ref="21288193"/>
    <nd ref="687044523"/>
    <nd ref="32520614"/>
    <nd ref="687044524"/>
    <nd ref="21288194"/>
    <nd ref="687044525"/>
    <nd ref="687044526"/>
    <nd ref="21288195"/>
    <nd ref="1545114309"/>
    <nd ref="21288196"/>
    <tag k="expressway" v="yes"/>
    <tag k="foot" v="no"/>
    <tag k="highway" v="trunk_link"/>
    <tag k="lit" v="no"/>
    <tag k="maxspeed" v="70 mph"/>
    <tag k="maxspeed:type" v="GB:nsl_dual"/>
    <tag k="national_highways:area" v="8"/>
    <tag k="oneway" v="yes"/>
    <tag k="operator" v="National Highways"/>
    <tag k="operator:wikidata" v="Q5760006"/>
  </way>
  <way id="4372301" version="7" timestamp="2024-12-31T17:59:13Z" changeset="160843518" uid="5229644" user="Nathan_A_RF">
    <nd ref="304439934"/>
    <nd ref="26661261"/>
    <nd ref="4398827865"/>
    <nd ref="26661114"/>
    <nd ref="4398827862"/>
    <nd ref="4398827857"/>
    <nd ref="4398827863"/>
    <nd ref="26661241"/>
    <nd ref="26661386"/>
    <nd ref="26661102"/>
    <nd ref="4398827858"/>
    <nd ref="474655805"/>
    <nd ref="473734011"/>
    <tag k="highway" v="tertiary"/>
    <tag k="maxspeed" v="60 mph"/>
    <tag k="maxspeed:type" v="GB:nsl_single"/>
    <tag k="name" v="Madingley Road"/>
    <tag k="source:name" v="local knowledge"/>
  </way>
  <way id="4678964" version="17" timestamp="2024-04-09T22:18:54Z" changeset="149796574" uid="5229644" user="Nathan_A_RF">
    <nd ref="23767772"/>
    <nd ref="1545109352"/>
    <nd ref="682049967"/>
    <nd ref="5313603"/>
    <tag k="alt_name" v="St Neots Road"/>
    <tag k="bicycle" v="yes"/>
    <tag k="highway" v="trunk"/>
    <tag k="lit" v="yes"/>
    <tag k="maxspeed" v="60 mph"/>
    <tag k="maxspeed:type" v="GB:nsl_single"/>
    <tag k="name" v="Saint Neots Road"/>
    <tag k="note:name" v="No name signs along this stretch, but Web sites of places along it all call it &quot;Madingley Road&quot;.Government sources call the parts in the parish of Madingley &quot;St Neots Road&quot; and some give the two sides different names where the boundary follows the road."/>
    <tag k="oneway" v="yes"/>
    <tag k="ref" v="A1303"/>
    <tag k="source:highway" v="signs"/>
    <tag k="source:name" v="local_knowledge"/>
  </way>
  <way id="4936068" version="13" timestamp="2024-11-04T14:48:37Z" changeset="158744059" uid="5229644" user="Nathan_A_RF">
    <nd ref="21288197"/>
    <nd ref="32520611"/>
    <nd ref="1545109351"/>
    <nd ref="1545109308"/>
    <nd ref="23767594"/>
    <tag k="expressway" v="yes"/>
    <tag k="foot" v="no"/>
    <tag k="highway" v="trunk_link"/>
    <tag k="lit" v="yes"/>
    <tag k="maxspeed" v="70 mph"/>
    <tag k="maxspeed:type" v="GB:nsl_dual"/>
    <tag k="national_highways:area" v="8"/>
    <tag k="oneway" v="yes"/>
    <tag k="operator" v="National Highways"/>
    <tag k="operator:wikidata" v="Q5760006"/>
  </way>
  <way id="4936070" version="25" timestamp="2024-11-04T14:48:37Z" changeset="158744059" uid="5229644" user="Nathan_A_RF">
    <nd ref="32520566"/>
    <nd ref="32520621"/>
    <nd ref="32520624"/>
    <nd ref="32520623"/>
    <nd ref="513767224"/>
    <nd ref="32520626"/>
    <nd ref="1309636460"/>
    <nd ref="32520625"/>
    <nd ref="3475053430"/>
    <nd ref="513767055"/>
    <nd ref="1545114316"/>
    <nd ref="32520612"/>
    <nd ref="1545114307"/>
    <nd ref="21288202"/>
    <nd ref="12312200165"/>
    <nd ref="21288201"/>
    <tag k="expressway" v="yes"/>
    <tag k="foot" v="no"/>
    <tag k="highway" v="trunk"/>
    <tag k="lanes" v="2"/>
    <tag k="lit" v="no"/>
    <tag k="maxspeed" v="70 mph"/>
    <tag k="national_highways:area" v="8"/>
    <tag k="oneway" v="yes"/>
    <tag k="operator" v="National Highways"/>
    <tag k="operator:wikidata" v="Q5760006"/>
    <tag k="ref" v="A428"/>
    <tag k="source:ref" v="dictaphone"/>
  </way>
  <way id="4936071" version="12" timestamp="2024-11-04T14:48:37Z" changeset="158744059" uid="5229644" user="Nathan_A_RF">
    <nd ref="21288196"/>
    <nd ref="21288197"/>
    <tag k="bridge" v="yes"/>
    <tag k="expressway" v="yes"/>
    <tag k="foot" v="no"/>
    <tag k="highway" v="trunk_link"/>
    <tag k="layer" v="1"/>
    <tag k="lit" v="no"/>
    <tag k="maxspeed" v="70 mph"/>
    <tag k="maxspeed:type" v="GB:nsl_dual"/>
    <tag k="national_highways:area" v="8"/>
    <tag k="oneway" v="yes"/>
    <tag k="operator" v="National Highways"/>
    <tag k="operator:wikidata" v="Q5760006"/>
  </way>
  <way id="27421488" version="19" timestamp="2024-03-16T12:36:11Z" changeset="148729696" uid="742701" user="kerr smith">
    <nd ref="23767379"/>
    <nd ref="2503972970"/>
    <nd ref="23767404"/>
    <nd ref="1545109332"/>
    <nd ref="11736657750"/>
    <nd ref="1545109346"/>
    <nd ref="5313617"/>
    <nd ref="2298295720"/>
    <nd ref="5313618"/>
    <nd ref="311546287"/>
    <tag k="alt_name" v="St Neots Road"/>
    <tag k="bracket_ref" v="A428"/>
    <tag k="highway" v="trunk"/>
    <tag k="lanes" v="2"/>
    <tag k="lit" v="no"/>
    <tag k="maxspeed" v="50 mph"/>
    <tag k="name" v="Saint Neots Road"/>
    <tag k="note:name" v="No name signs along this stretch, but Web sites of places along it all call it &quot;Madingley Road&quot;.Government sources call the parts in the parish of Madingley &quot;St Neots Road&quot; and some give the two sides different names where the boundary follows the road."/>
    <tag k="ref" v="A1303"/>
    <tag k="source:highway" v="signs"/>
  </way>
  <way id="31479581" version="13" timestamp="2024-04-09T22:18:54Z" changeset="149796574" uid="5229644" user="Nathan_A_RF">
    <nd ref="5313603"/>
    <nd ref="11805937986"/>
    <nd ref="1545109325"/>
    <nd ref="440947572"/>
    <tag k="alt_name" v="St Neots Road"/>
    <tag k="bicycle" v="yes"/>
    <tag k="highway" v="trunk"/>
    <tag k="lanes" v="2"/>
    <tag k="lit" v="yes"/>
    <tag k="maxspeed" v="50 mph"/>
    <tag k="maxspeed:type" v="sign"/>
    <tag k="name" v="Saint Neots Road"/>
    <tag k="note:name" v="No name signs along this stretch, but Web sites of places along it all call it &quot;Madingley Road&quot;.Government sources call the parts in the parish of Madingley &quot;St Neots Road&quot; and some give the two sides different names where the boundary follows the road."/>
    <tag k="ref" v="A1303"/>
    <tag k="source:highway" v="signs"/>
    <tag k="source:name" v="local_knowledge"/>
  </way>
  <way id="38167144" version="17" timestamp="2024-11-04T14:48:37Z" changeset="158744059" uid="5229644" user="Nathan_A_RF">
    <nd ref="32520619"/>
    <nd ref="620931"/>
    <nd ref="620932"/>
    <nd ref="620933"/>
    <nd ref="620934"/>
    <nd ref="3475053429"/>
    <nd ref="620945"/>
    <nd ref="513767395"/>
    <nd ref="620946"/>
    <nd ref="513767407"/>
    <nd ref="620943"/>
    <nd ref="29850038"/>
    <nd ref="620944"/>
    <nd ref="620942"/>
    <tag k="expressway" v="yes"/>
    <tag k="foot" v="no"/>
    <tag k="highway" v="trunk"/>
    <tag k="lanes" v="2"/>
    <tag k="lit" v="no"/>
    <tag k="maxspeed" v="70 mph"/>
    <tag k="national_highways:area" v="8"/>
    <tag k="oneway" v="yes"/>
    <tag k="operator" v="National Highways"/>
    <tag k="operator:wikidata" v="Q5760006"/>
    <tag k="ref" v="A428"/>
  </way>
  <way id="41435309" version="18" timestamp="2024-11-04T14:48:37Z" changeset="158744059" uid="5229644" user="Nathan_A_RF">
    <nd ref="21288198"/>
    <nd ref="1728019293"/>
    <nd ref="506801088"/>
    <nd ref="23767772"/>
    <nd ref="2302145954"/>
    <nd ref="765932978"/>
    <nd ref="506801083"/>
    <nd ref="5313602"/>
    <nd ref="506801058"/>
    <nd ref="8974828759"/>
    <nd ref="23767689"/>
    <nd ref="506801061"/>
    <nd ref="765932981"/>
    <nd ref="765951204"/>
    <nd ref="23769134"/>
    <nd ref="765932976"/>
    <nd ref="506801070"/>
    <nd ref="506801072"/>
    <nd ref="23767594"/>
    <nd ref="506801086"/>
    <nd ref="682050146"/>
    <nd ref="1728019359"/>
    <nd ref="21288198"/>
    <tag k="bicycle" v="yes"/>
    <tag k="highway" v="trunk"/>
    <tag k="junction" v="roundabout"/>
    <tag k="lit" v="yes"/>
    <tag k="maxspeed" v="60 mph"/>
    <tag k="maxspeed:type" v="GB:nsl_single"/>
    <tag k="oneway" v="yes"/>
    <tag k="source:highway" v="signs"/>
  </way>
  <way id="52983684" version="18" timestamp="2024-01-09T14:24:03Z" changeset="146069100" uid="5229644" user="Nathan_A_RF">
    <nd ref="1536000780"/>
    <nd ref="320911155"/>
    <nd ref="231503"/>
    <nd ref="3295233261"/>
    <nd ref="671222139"/>
    <nd ref="16711416"/>
    <tag k="carriageway_ref" v="A"/>
    <tag k="description" v="Cambridge Western Bypass"/>
    <tag k="highway" v="motorway"/>
    <tag k="lanes" v="2"/>
    <tag k="lit" v="yes"/>
    <tag k="maxspeed" v="70 mph"/>
    <tag k="national_highways:area" v="8"/>
    <tag k="oneway" v="yes"/>
    <tag k="operator" v="National Highways"/>
    <tag k="operator:wikidata" v="Q5760006"/>
    <tag k="ref" v="M11"/>
    <tag k="source:lit" v="2010-12-07"/>
    <tag k="surface" v="asphalt"/>
  </way>
  <way id="52983689" version="17" timestamp="2023-09-06T02:32:29Z" changeset="140873821" uid="13341565" user="Falsernet">
    <nd ref="16711416"/>
    <nd ref="231482"/>
    <nd ref="25526770"/>
    <tag k="carriageway_ref" v="A"/>
    <tag k="description" v="Cambridge Western Bypass"/>
    <tag k="destination:ref" v="A14"/>
    <tag k="highway" v="motorway"/>
    <tag k="lanes" v="2"/>
    <tag k="lit" v="yes"/>
    <tag k="maxspeed" v="70 mph"/>
    <tag k="national_highways:area" v="8"/>
    <tag k="oneway" v="yes"/>
    <tag k="operator" v="National Highways"/>
    <tag k="operator:wikidata" v="Q5760006"/>
    <tag k="ref" v="M11"/>
    <tag k="source:ref" v="local knowledge"/>
    <tag k="surface" v="asphalt"/>
  </way>
  <way id="54126042" version="12" timestamp="2024-10-29T00:26:33Z" changeset="158478329" uid="1102246" user="jtn20">
    <nd ref="12294951315"/>
    <nd ref="12294951316"/>
    <nd ref="1773712558"/>
    <nd ref="440947587"/>
    <nd ref="4200374207"/>
    <nd ref="5313628"/>
    <nd ref="1495487057"/>
    <nd ref="440947588"/>
    <nd ref="1545109347"/>
    <nd ref="1545109310"/>
    <tag k="bracket_ref" v="A428"/>
    <tag k="highway" v="trunk"/>
    <tag k="lanes" v="2"/>
    <tag k="lit" v="yes"/>
    <tag k="maxspeed" v="40 mph"/>
    <tag k="name" v="Madingley Road"/>
    <tag k="ref" v="A1303"/>
    <tag k="source:highway" v="signs"/>
    <tag k="surface" v="asphalt"/>
  </way>
  <way id="61320235" version="11" timestamp="2024-04-09T22:18:54Z" changeset="149796574" uid="5229644" user="Nathan_A_RF">
    <nd ref="23767782"/>
    <nd ref="8974828760"/>
    <nd ref="2302145955"/>
    <nd ref="1545114311"/>
    <nd ref="765951204"/>
    <tag k="highway" v="tertiary"/>
    <tag k="lit" v="yes"/>
    <tag k="maxspeed" v="60 mph"/>
    <tag k="maxspeed:type" v="GB:nsl_single"/>
    <tag k="name" v="Saint Neots Road"/>
    <tag k="old_ref" v="A45"/>
    <tag k="oneway" v="yes"/>
    <tag k="surface" v="asphalt"/>
  </way>
  <way id="61320236" version="10" timestamp="2024-11-04T14:48:37Z" changeset="158744059" uid="5229644" user="Nathan_A_RF">
    <nd ref="682050146"/>
    <nd ref="11805937987"/>
    <nd ref="765951212"/>
    <tag k="hgv" v="discouraged"/>
    <tag k="highway" v="tertiary"/>
    <tag k="lit" v="yes"/>
    <tag k="maxspeed" v="60 mph"/>
    <tag k="maxspeed:type" v="GB:nsl_single"/>
    <tag k="name" v="Church Lane"/>
    <tag k="oneway" v="yes"/>
    <tag k="source" v="aerials"/>
    <tag k="source:name" v="local knowledge"/>
    <tag k="surface" v="asphalt"/>
  </way>
  <way id="61320237" version="6" timestamp="2024-11-04T14:48:37Z" changeset="158744059" uid="5229644" user="Nathan_A_RF">
    <nd ref="765951212"/>
    <nd ref="23767840"/>
    <nd ref="23767862"/>
    <nd ref="682050371"/>
    <nd ref="23767887"/>
    <nd ref="23767900"/>
    <tag k="hgv" v="discouraged"/>
    <tag k="highway" v="tertiary"/>
    <tag k="lit" v="yes"/>
    <tag k="maxspeed" v="60 mph"/>
    <tag k="maxspeed:type" v="GB:nsl_single"/>
    <tag k="name" v="Church Lane"/>
    <tag k="source" v="aerials"/>
    <tag k="source:name" v="local knowledge"/>
  </way>
  <way id="61320238" version="9" timestamp="2024-04-09T22:18:54Z" changeset="149796574" uid="5229644" user="Nathan_A_RF">
    <nd ref="8974828759"/>
    <nd ref="8974828761"/>
    <nd ref="682050558"/>
    <nd ref="8974828762"/>
    <nd ref="23767782"/>
    <tag k="highway" v="tertiary"/>
    <tag k="lit" v="yes"/>
    <tag k="maxspeed" v="60 mph"/>
    <tag k="maxspeed:type" v="GB:nsl_single"/>
    <tag k="name" v="Saint Neots Road"/>
    <tag k="old_ref" v="A45"/>
    <tag k="oneway" v="yes"/>
    <tag k="surface" v="asphalt"/>
  </way>
  <way id="97230402" version="2" timestamp="2022-01-05T02:01:25Z" changeset="115777158" uid="335826" user="Strumpfe">
    <nd ref="1126289540"/>
    <nd ref="1126289554"/>
    <nd ref="1126289537"/>
    <tag k="access" v="private"/>
    <tag k="highway" v="residential"/>
    <tag k="name" v="Park Lane"/>
    <tag k="source" v="OS OpenData StreetView"/>
  </way>
  <way id="99027437" version="20" timestamp="2022-10-30T20:02:11Z" changeset="128261539" uid="3560" user="Firefishy">
    <nd ref="682026550"/>
    <nd ref="682027062"/>
    <nd ref="23689901"/>
    <nd ref="231505"/>
    <nd ref="3295229787"/>
    <nd ref="3295229786"/>
    <nd ref="3295229789"/>
    <nd ref="513763851"/>
    <nd ref="231507"/>
    <nd ref="513763854"/>
    <nd ref="3295229788"/>
    <nd ref="231504"/>
    <nd ref="320911195"/>
    <nd ref="320911050"/>
    <nd ref="3295232659"/>
    <nd ref="1536000780"/>
    <tag k="carriageway_ref" v="A"/>
    <tag k="description" v="Cambridge Western Bypass"/>
    <tag k="highway" v="motorway"/>
    <tag k="lanes" v="2"/>
    <tag k="lit" v="no"/>
    <tag k="maxheight" v="default"/>
    <tag k="maxspeed" v="70 mph"/>
    <tag k="national_highways:area" v="8"/>
    <tag k="oneway" v="yes"/>
    <tag k="operator" v="National Highways"/>
    <tag k="operator:wikidata" v="Q5760006"/>
    <tag k="ref" v="M11"/>
    <tag k="source:lit" v="2010-12-07"/>
    <tag k="source:ref" v="local knowledge"/>
    <tag k="surface" v="asphalt"/>
  </way>
  <way id="136339441" version="3" timestamp="2018-10-15T22:53:16Z" changeset="63557919" uid="5173844" user="ndrw6">
    <nd ref="1495698054"/>
    <nd ref="1495698070"/>
    <nd ref="1495698061"/>
    <nd ref="1495698043"/>
    <nd ref="1495698041"/>
    <nd ref="1495698072"/>
    <nd ref="1495698083"/>
    <nd ref="1495698084"/>
    <nd ref="1495698088"/>
    <nd ref="1495698086"/>
    <nd ref="1495698082"/>
    <nd ref="1495698081"/>
    <nd ref="1495698059"/>
    <nd ref="1495698054"/>
    <tag k="addr:postcode" v="CB23 8AG"/>
    <tag k="building" v="yes"/>
    <tag k="name" v="Highfield Farm"/>
    <tag k="operator" v="University of Cambridge"/>
  </way>
  <way id="136339443" version="5" timestamp="2021-08-02T15:03:07Z" changeset="109039556" uid="742701" user="kerr smith">
    <nd ref="1495698095"/>
    <nd ref="1495698093"/>
    <nd ref="1495840294"/>
    <nd ref="1495698069"/>
    <nd ref="1495698071"/>
    <nd ref="1495698095"/>
    <tag k="building" v="yes"/>
    <tag k="name" v="Highfield Farm"/>
    <tag k="operator" v="University of Cambridge"/>
    <tag k="ref" v="F217"/>
  </way>
  <way id="136339444" version="4" timestamp="2021-08-02T15:03:07Z" changeset="109039556" uid="742701" user="kerr smith">
    <nd ref="1495698049"/>
    <nd ref="1495698047"/>
    <nd ref="1495698045"/>
    <nd ref="1495698025"/>
    <nd ref="1495698030"/>
    <nd ref="1495698049"/>
    <tag k="building" v="yes"/>
    <tag k="name" v="Highfield Farm"/>
    <tag k="operator" v="University of Cambridge"/>
  </way>
  <way id="136339446" version="2" timestamp="2017-06-16T09:37:01Z" changeset="49585779" uid="5844915" user="University Of Cambridge Space Data Team">
    <nd ref="1495698114"/>
    <nd ref="1495698111"/>
    <nd ref="1495698107"/>
    <nd ref="1495698109"/>
    <nd ref="1495698114"/>
    <tag k="building" v="yes"/>
    <tag k="name" v="Park Farm Barn (Park Farm)"/>
    <tag k="operator" v="University of Cambridge"/>
    <tag k="ref" v="F036"/>
  </way>
  <way id="136339448" version="3" timestamp="2017-06-16T09:37:01Z" changeset="49585779" uid="5844915" user="University Of Cambridge Space Data Team">
    <nd ref="1495698125"/>
    <nd ref="1495698112"/>
    <nd ref="1495698105"/>
    <nd ref="1495698110"/>
    <nd ref="4071986289"/>
    <nd ref="1495698125"/>
    <tag k="building" v="yes"/>
    <tag k="name" v="New Dairy Unit (Park Farm)"/>
    <tag k="operator" v="University of Cambridge"/>
    <tag k="ref" v="F220"/>
  </way>
  <way id="136339450" version="2" timestamp="2017-06-16T09:37:01Z" changeset="49585779" uid="5844915" user="University Of Cambridge Space Data Team">
    <nd ref="1495698131"/>
    <nd ref="1495698133"/>
    <nd ref="1495698128"/>
    <nd ref="1495698116"/>
    <nd ref="1495698131"/>
    <tag k="building" v="yes"/>
    <tag k="name" v="Workshop and Store (Park Farm)"/>
    <tag k="operator" v="University of Cambridge"/>
    <tag k="ref" v="F330"/>
  </way>
  <way id="136339452" version="3" timestamp="2018-10-26T21:51:32Z" changeset="63915686" uid="5173844" user="ndrw6">
    <nd ref="1495698166"/>
    <nd ref="1495698164"/>
    <nd ref="1495698141"/>
    <nd ref="1495698137"/>
    <nd ref="1495698134"/>
    <nd ref="1495698139"/>
    <nd ref="1495698143"/>
    <nd ref="1495698160"/>
    <nd ref="1495698166"/>
    <tag k="addr:postcode" v="CB23 8YW"/>
    <tag k="building" v="yes"/>
    <tag k="name" v="Woodside Cottage (Park Farm)"/>
    <tag k="operator" v="University of Cambridge"/>
    <tag k="ref" v="F213"/>
  </way>
  <way id="136344018" version="4" timestamp="2020-02-22T13:16:59Z" changeset="81345700" uid="115894" user="DaveF">
    <nd ref="1495782008"/>
    <nd ref="1495782002"/>
    <nd ref="1495781977"/>
    <nd ref="1495781979"/>
    <nd ref="1495781995"/>
    <nd ref="1495781944"/>
    <nd ref="1517895013"/>
    <nd ref="1495781898"/>
    <nd ref="1495781877"/>
    <nd ref="1495781882"/>
    <nd ref="1495781902"/>
    <nd ref="1495781901"/>
    <nd ref="1495781926"/>
    <nd ref="1495781931"/>
    <nd ref="1495781992"/>
    <nd ref="1495781986"/>
    <nd ref="1495781998"/>
    <nd ref="1495782004"/>
    <nd ref="1495782040"/>
    <nd ref="1495782024"/>
    <nd ref="1495782008"/>
    <tag k="building" v="university"/>
    <tag k="name" v="Courtyard Building"/>
    <tag k="occupier" v="Institute of Continuing Education"/>
    <tag k="operator" v="University of Cambridge"/>
    <tag k="ref" v="F097"/>
  </way>
  <way id="136344019" version="4" timestamp="2021-08-19T12:50:11Z" changeset="109933455" uid="742701" user="kerr smith">
    <nd ref="1495781898"/>
    <nd ref="1495781895"/>
    <nd ref="1495781886"/>
    <nd ref="1495781861"/>
    <nd ref="1495781863"/>
    <nd ref="9020046481"/>
    <nd ref="1495781833"/>
    <nd ref="1495781839"/>
    <nd ref="1495781867"/>
    <nd ref="1495781877"/>
    <nd ref="1495781898"/>
    <tag k="building" v="university"/>
    <tag k="name" v="Dart Building"/>
    <tag k="occupier" v="Institute of Continuing Education"/>
    <tag k="operator" v="University of Cambridge"/>
    <tag k="ref" v="F098"/>
  </way>
  <way id="136344022" version="4" timestamp="2021-07-05T17:38:37Z" changeset="107453773" uid="742701" user="kerr smith">
    <nd ref="1495781915"/>
    <nd ref="1495781903"/>
    <nd ref="8895610146"/>
    <nd ref="1495781876"/>
    <nd ref="1495781886"/>
    <nd ref="1495781895"/>
    <nd ref="1495781915"/>
    <tag k="building" v="university"/>
    <tag k="name" v="Library"/>
    <tag k="occupier" v="Institute of Continuing Education"/>
    <tag k="operator" v="University of Cambridge"/>
    <tag k="ref" v="F099"/>
  </way>
  <way id="136344023" version="6" timestamp="2020-02-22T13:16:59Z" changeset="81345700" uid="115894" user="DaveF">
    <nd ref="1517895025"/>
    <nd ref="1517895023"/>
    <nd ref="1517895022"/>
    <nd ref="1517895020"/>
    <nd ref="1517895018"/>
    <nd ref="1517895019"/>
    <nd ref="1517895016"/>
    <nd ref="1517895015"/>
    <nd ref="1517895012"/>
    <nd ref="1517895007"/>
    <nd ref="1517895009"/>
    <nd ref="1517895001"/>
    <nd ref="1517895004"/>
    <nd ref="1517895003"/>
    <nd ref="1517895000"/>
    <nd ref="1517894997"/>
    <nd ref="1517894994"/>
    <nd ref="1517894995"/>
    <nd ref="1495781923"/>
    <nd ref="1495781925"/>
    <nd ref="1495781934"/>
    <nd ref="1495781936"/>
    <nd ref="1517895011"/>
    <nd ref="1517895002"/>
    <nd ref="1517895005"/>
    <nd ref="1495781961"/>
    <nd ref="1495781963"/>
    <nd ref="1495781975"/>
    <nd ref="1495781977"/>
    <nd ref="1495782002"/>
    <nd ref="1495782008"/>
    <nd ref="1495782066"/>
    <nd ref="1495782062"/>
    <nd ref="1495782044"/>
    <nd ref="1495782041"/>
    <nd ref="1495782048"/>
    <nd ref="1495782039"/>
    <nd ref="1495782017"/>
    <nd ref="1495782016"/>
    <nd ref="1495781988"/>
    <nd ref="1495781984"/>
    <nd ref="1495781997"/>
    <nd ref="1495782000"/>
    <nd ref="1495782046"/>
    <nd ref="1495782053"/>
    <nd ref="1495782063"/>
    <nd ref="1495782065"/>
    <nd ref="1495782064"/>
    <nd ref="1495782061"/>
    <nd ref="1495782020"/>
    <nd ref="1495782028"/>
    <nd ref="1495782026"/>
    <nd ref="1495782018"/>
    <nd ref="1495782013"/>
    <nd ref="1495782010"/>
    <nd ref="1495781971"/>
    <nd ref="1517895029"/>
    <nd ref="1517895028"/>
    <nd ref="1517895026"/>
    <nd ref="1517895024"/>
    <nd ref="1517895025"/>
    <tag k="addr:postcode" v="CB23 8AQ"/>
    <tag k="building" v="university"/>
    <tag k="name" v="Madingley Hall"/>
    <tag k="occupier" v="Institute of Continuing Education"/>
    <tag k="operator" v="University of Cambridge"/>
    <tag k="ref" v="F096"/>
    <tag k="wikidata" v="Q17528195"/>
  </way>
  <way id="136344024" version="5" timestamp="2017-06-22T08:51:19Z" changeset="49740478" uid="364" user="Edward">
    <nd ref="1495781707"/>
    <nd ref="1495781706"/>
    <nd ref="1495781702"/>
    <nd ref="1495781703"/>
    <nd ref="1495781705"/>
    <nd ref="1495781704"/>
    <nd ref="1495781715"/>
    <nd ref="1495781720"/>
    <nd ref="1495781722"/>
    <nd ref="1495781724"/>
    <nd ref="1495781717"/>
    <nd ref="1495781718"/>
    <nd ref="1495781708"/>
    <nd ref="1495781709"/>
    <nd ref="1495781707"/>
    <tag k="amenity" v="place_of_worship"/>
    <tag k="building" v="church"/>
    <tag k="denomination" v="anglican"/>
    <tag k="name" v="St Mary Magdalene"/>
    <tag k="religion" v="christian"/>
    <tag k="wikidata" v="Q17550193"/>
  </way>
  <way id="136344025" version="2" timestamp="2017-09-23T18:17:43Z" changeset="52310890" uid="16089" user="Ben Harris">
    <nd ref="1495781742"/>
    <nd ref="1495781745"/>
    <nd ref="1495781730"/>
    <nd ref="1495781729"/>
    <nd ref="1495781735"/>
    <nd ref="1495781731"/>
    <nd ref="1495781727"/>
    <nd ref="1495781726"/>
    <nd ref="1495781733"/>
    <nd ref="1495781737"/>
    <nd ref="1495781739"/>
    <nd ref="1495781740"/>
    <nd ref="1495781742"/>
    <tag k="building" v="yes"/>
    <tag k="name" v="The Lodge"/>
    <tag k="operator" v="University of Cambridge"/>
    <tag k="ref" v="F025"/>
    <tag k="wikidata" v="Q26457169"/>
  </way>
  <way id="136344026" version="5" timestamp="2021-08-19T12:33:08Z" changeset="109932509" uid="742701" user="kerr smith">
    <nd ref="1495782024"/>
    <nd ref="1495782040"/>
    <nd ref="1495782051"/>
    <nd ref="1495782085"/>
    <nd ref="1495782091"/>
    <nd ref="1495782094"/>
    <nd ref="1495782095"/>
    <nd ref="1495782100"/>
    <nd ref="1495782108"/>
    <nd ref="1495782109"/>
    <nd ref="1495782106"/>
    <nd ref="1495782101"/>
    <nd ref="1495782096"/>
    <nd ref="1495782092"/>
    <nd ref="1495782088"/>
    <nd ref="1495782089"/>
    <nd ref="1495782090"/>
    <nd ref="1495782086"/>
    <nd ref="1495782082"/>
    <nd ref="1495782071"/>
    <nd ref="1495782069"/>
    <nd ref="1495782024"/>
    <tag k="building" v="university"/>
    <tag k="name" v="Tower Building"/>
    <tag k="occupier" v="Institute of Continuing Education"/>
    <tag k="operator" v="University of Cambridge"/>
    <tag k="ref" v="F101"/>
  </way>
  <way id="136344027" version="4" timestamp="2021-08-19T13:01:08Z" changeset="109933994" uid="742701" user="kerr smith">
    <nd ref="1495781913"/>
    <nd ref="1495781878"/>
    <nd ref="1495781881"/>
    <nd ref="1495781919"/>
    <nd ref="1495781913"/>
    <tag k="building" v="university"/>
    <tag k="name" v="Lesley Wayper Building"/>
    <tag k="occupier" v="Institute of Continuing Education"/>
    <tag k="operator" v="University of Cambridge"/>
    <tag k="ref" v="F100"/>
  </way>
  <way id="136353233" version="4" timestamp="2025-03-12T16:12:14Z" changeset="163534970" uid="8061502" user="galacticism">
    <nd ref="1495827824"/>
    <nd ref="1495827822"/>
    <nd ref="1495827776"/>
    <nd ref="1495827781"/>
    <nd ref="1495827824"/>
    <tag k="building" v="greenhouse"/>
    <tag k="name" v="Greenhouses"/>
    <tag k="occupier" v="Department of Zoology"/>
    <tag k="operator" v="University of Cambridge"/>
    <tag k="ref" v="F112"/>
  </way>
  <way id="136353234" version="3" timestamp="2020-02-22T13:16:59Z" changeset="81345700" uid="115894" user="DaveF">
    <nd ref="1495827611"/>
    <nd ref="1495827600"/>
    <nd ref="1495827579"/>
    <nd ref="1495827599"/>
    <nd ref="1495827611"/>
    <tag k="building" v="university"/>
    <tag k="name" v="Building 20"/>
    <tag k="occupier" v="Department of Zoology"/>
    <tag k="operator" v="University of Cambridge"/>
    <tag k="ref" v="F116"/>
  </way>
  <way id="136353235" version="3" timestamp="2020-02-22T13:16:59Z" changeset="81345700" uid="115894" user="DaveF">
    <nd ref="1495827620"/>
    <nd ref="1495827617"/>
    <nd ref="1495827613"/>
    <nd ref="1495827603"/>
    <nd ref="1495827597"/>
    <nd ref="1495827605"/>
    <nd ref="1495827620"/>
    <tag k="building" v="university"/>
    <tag k="name" v="Building 21"/>
    <tag k="occupier" v="Department of Zoology"/>
    <tag k="operator" v="University of Cambridge"/>
    <tag k="ref" v="F117"/>
  </way>
  <way id="136353236" version="3" timestamp="2020-02-22T13:16:59Z" changeset="81345700" uid="115894" user="DaveF">
    <nd ref="1495827786"/>
    <nd ref="1495827779"/>
    <nd ref="1495827778"/>
    <nd ref="1495827750"/>
    <nd ref="1495827754"/>
    <nd ref="1495827758"/>
    <nd ref="1495827786"/>
    <tag k="building" v="university"/>
    <tag k="name" v="Building 6"/>
    <tag k="occupier" v="Department of Zoology"/>
    <tag k="operator" v="University of Cambridge"/>
    <tag k="ref" v="F118"/>
  </way>
  <way id="136353237" version="1" timestamp="2011-11-08T21:37:54Z" changeset="9777295" uid="3582" user="davidearl">
    <nd ref="1495827884"/>
    <nd ref="1495827875"/>
    <nd ref="1495827876"/>
    <nd ref="1495827872"/>
    <nd ref="1495827871"/>
    <nd ref="1495827874"/>
    <nd ref="1495827873"/>
    <nd ref="1495827869"/>
    <nd ref="1495827865"/>
    <nd ref="1495827863"/>
    <nd ref="1495827857"/>
    <nd ref="1495827850"/>
    <nd ref="1495827852"/>
    <nd ref="1495827861"/>
    <nd ref="1495827867"/>
    <nd ref="1495827855"/>
    <nd ref="1495827859"/>
    <nd ref="1495827888"/>
    <nd ref="1495827884"/>
    <tag k="building" v="yes"/>
    <tag k="name" v="Burnt Farm"/>
    <tag k="operator" v="University of Cambridge"/>
    <tag k="ref" v="F307"/>
  </way>
  <way id="136353239" version="1" timestamp="2011-11-08T21:37:54Z" changeset="9777295" uid="3582" user="davidearl">
    <nd ref="1495827891"/>
    <nd ref="1495827890"/>
    <nd ref="1495827886"/>
    <nd ref="1495827889"/>
    <nd ref="1495827891"/>
    <tag k="building" v="yes"/>
    <tag k="name" v="Burnt Farm"/>
    <tag k="operator" v="University of Cambridge"/>
    <tag k="ref" v="F308"/>
  </way>
  <way id="136353240" version="1" timestamp="2011-11-08T21:37:54Z" changeset="9777295" uid="3582" user="davidearl">
    <nd ref="1495827844"/>
    <nd ref="1495827842"/>
    <nd ref="1495827836"/>
    <nd ref="1495827837"/>
    <nd ref="1495827844"/>
    <tag k="building" v="yes"/>
    <tag k="name" v="Burnt Farm"/>
    <tag k="operator" v="University of Cambridge"/>
    <tag k="ref" v="F310"/>
  </way>
  <way id="136353241" version="1" timestamp="2011-11-08T21:37:54Z" changeset="9777295" uid="3582" user="davidearl">
    <nd ref="1495827848"/>
    <nd ref="1495827846"/>
    <nd ref="1495827840"/>
    <nd ref="1495827842"/>
    <nd ref="1495827844"/>
    <nd ref="1495827848"/>
    <tag k="building" v="yes"/>
    <tag k="name" v="Burnt Farm"/>
    <tag k="operator" v="University of Cambridge"/>
    <tag k="ref" v="F309"/>
  </way>
  <way id="136353245" version="4" timestamp="2025-03-12T16:12:14Z" changeset="163534970" uid="8061502" user="galacticism">
    <nd ref="1495827767"/>
    <nd ref="1495827766"/>
    <nd ref="1495827731"/>
    <nd ref="1495827740"/>
    <nd ref="1495827767"/>
    <tag k="building" v="university"/>
    <tag k="name" v="Bird House"/>
    <tag k="occupier" v="Department of Zoology"/>
    <tag k="operator" v="University of Cambridge"/>
    <tag k="ref" v="F030.1"/>
  </way>
  <way id="136353251" version="4" timestamp="2025-03-12T16:12:14Z" changeset="163534970" uid="8061502" user="galacticism">
    <nd ref="1495827635"/>
    <nd ref="1495827624"/>
    <nd ref="1495827607"/>
    <nd ref="1495827576"/>
    <nd ref="1495827594"/>
    <nd ref="1495827598"/>
    <nd ref="1495827581"/>
    <nd ref="1495827586"/>
    <nd ref="1495827578"/>
    <nd ref="1495827596"/>
    <nd ref="1495827583"/>
    <nd ref="1495827601"/>
    <nd ref="1495827618"/>
    <nd ref="1495827635"/>
    <tag k="building" v="university"/>
    <tag k="name" v="Avian Research Facility"/>
    <tag k="occupier" v="Department of Zoology"/>
    <tag k="operator" v="University of Cambridge"/>
    <tag k="ref" v="F074"/>
  </way>
  <way id="136353258" version="4" timestamp="2025-03-12T16:12:14Z" changeset="163534970" uid="8061502" user="galacticism">
    <nd ref="1495827709"/>
    <nd ref="12656860768"/>
    <nd ref="1495827703"/>
    <nd ref="1495827683"/>
    <nd ref="1495827689"/>
    <nd ref="12656860780"/>
    <nd ref="12656860782"/>
    <nd ref="1495827709"/>
    <tag k="building" v="university"/>
    <tag k="building:levels" v="1"/>
    <tag k="name" v="Evolutionary Genetics Laboratory"/>
    <tag k="occupier" v="Department of Zoology"/>
    <tag k="operator" v="University of Cambridge"/>
    <tag k="ref" v="F113"/>
  </way>
  <way id="136353261" version="4" timestamp="2025-03-12T16:12:14Z" changeset="163534970" uid="8061502" user="galacticism">
    <nd ref="1495827833"/>
    <nd ref="1495827835"/>
    <nd ref="1495827812"/>
    <nd ref="1495827802"/>
    <nd ref="1495827833"/>
    <tag k="building" v="university"/>
    <tag k="name" v="Madingley Aviary"/>
    <tag k="occupier" v="Department of Zoology"/>
    <tag k="operator" v="University of Cambridge"/>
    <tag k="ref" v="F302"/>
  </way>
  <way id="136353264" version="7" timestamp="2025-03-13T13:02:01Z" changeset="163569611" uid="8061502" user="galacticism">
    <nd ref="1495827662"/>
    <nd ref="1495827653"/>
    <nd ref="1495827645"/>
    <nd ref="12656860777"/>
    <nd ref="1495827628"/>
    <nd ref="1495827609"/>
    <nd ref="1495827630"/>
    <nd ref="1495827626"/>
    <nd ref="1495827634"/>
    <nd ref="1517895031"/>
    <nd ref="1495827662"/>
    <tag k="addr:postcode" v="CB23 8AA"/>
    <tag k="building" v="university"/>
    <tag k="name" v="Main Laboratory Building"/>
    <tag k="occupier" v="Department of Zoology"/>
    <tag k="operator" v="University of Cambridge"/>
    <tag k="ref" v="F103"/>
  </way>
  <way id="136353265" version="5" timestamp="2025-03-13T13:02:01Z" changeset="163569611" uid="8061502" user="galacticism">
    <nd ref="1495827685"/>
    <nd ref="1495827663"/>
    <nd ref="1495827680"/>
    <nd ref="1495827710"/>
    <nd ref="12656860767"/>
    <nd ref="1495827692"/>
    <nd ref="1495827670"/>
    <nd ref="1495827685"/>
    <tag k="building" v="university"/>
    <tag k="name" v="New Building"/>
    <tag k="occupier" v="Department of Zoology"/>
    <tag k="operator" v="University of Cambridge"/>
    <tag k="ref" v="F104"/>
  </way>
  <way id="136354092" version="2" timestamp="2017-06-16T09:37:01Z" changeset="49585779" uid="5844915" user="University Of Cambridge Space Data Team">
    <nd ref="1495834406"/>
    <nd ref="1495834405"/>
    <nd ref="1495834402"/>
    <nd ref="1495834403"/>
    <nd ref="1495834406"/>
    <tag k="building" v="yes"/>
    <tag k="name" v="Pump House (Park Farm)"/>
    <tag k="operator" v="University of Cambridge"/>
    <tag k="ref" v="F215"/>
  </way>
  <way id="136354093" version="2" timestamp="2017-06-16T09:37:01Z" changeset="49585779" uid="5844915" user="University Of Cambridge Space Data Team">
    <nd ref="1495834410"/>
    <nd ref="1495834407"/>
    <nd ref="1495834401"/>
    <nd ref="1495834404"/>
    <nd ref="1495834410"/>
    <tag k="building" v="yes"/>
    <tag k="name" v="Dutch Barn (Park Farm)"/>
    <tag k="operator" v="University of Cambridge"/>
    <tag k="ref" v="F218"/>
  </way>
  <way id="136354094" version="2" timestamp="2017-06-16T09:37:01Z" changeset="49585779" uid="5844915" user="University Of Cambridge Space Data Team">
    <nd ref="1495834413"/>
    <nd ref="1495834412"/>
    <nd ref="1495834408"/>
    <nd ref="1495834411"/>
    <nd ref="1495834413"/>
    <tag k="building" v="yes"/>
    <tag k="name" v="Loose Box Garage (Park Farm)"/>
    <tag k="operator" v="University of Cambridge"/>
    <tag k="ref" v="F214"/>
  </way>
  <way id="136354095" version="2" timestamp="2017-06-16T09:37:01Z" changeset="49585779" uid="5844915" user="University Of Cambridge Space Data Team">
    <nd ref="1495834396"/>
    <nd ref="1495834395"/>
    <nd ref="1495834392"/>
    <nd ref="1495834394"/>
    <nd ref="1495834398"/>
    <nd ref="1495834397"/>
    <nd ref="1495834400"/>
    <nd ref="1495834399"/>
    <nd ref="1495834396"/>
    <tag k="building" v="yes"/>
    <tag k="name" v="Park Farmhouse (Park Farm)"/>
    <tag k="operator" v="University of Cambridge"/>
    <tag k="ref" v="F211"/>
  </way>
  <way id="141145520" version="16" timestamp="2023-09-06T00:54:34Z" changeset="140872543" uid="13341565" user="Falsernet">
    <nd ref="1545109307"/>
    <nd ref="687044536"/>
    <nd ref="620919"/>
    <nd ref="687044537"/>
    <tag k="bicycle" v="no"/>
    <tag k="description" v="Cambridge Northern Bypass"/>
    <tag k="expressway" v="yes"/>
    <tag k="foot" v="no"/>
    <tag k="highway" v="trunk"/>
    <tag k="horse" v="no"/>
    <tag k="lanes" v="2"/>
    <tag k="lit" v="no"/>
    <tag k="maxspeed" v="70 mph"/>
    <tag k="maxspeed:type" v="GB:nsl_dual"/>
    <tag k="national_highways:area" v="8"/>
    <tag k="old_ref" v="A45"/>
    <tag k="oneway" v="yes"/>
    <tag k="operator" v="National Highways"/>
    <tag k="operator:wikidata" v="Q5760006"/>
    <tag k="ref" v="A428"/>
  </way>
  <way id="141145524" version="14" timestamp="2024-11-04T14:48:37Z" changeset="158744059" uid="5229644" user="Nathan_A_RF">
    <nd ref="247824878"/>
    <nd ref="23769121"/>
    <nd ref="1545109320"/>
    <nd ref="247824879"/>
    <nd ref="1545109331"/>
    <nd ref="23769119"/>
    <nd ref="12312200166"/>
    <nd ref="32520619"/>
    <tag k="expressway" v="yes"/>
    <tag k="foot" v="no"/>
    <tag k="highway" v="trunk_link"/>
    <tag k="lit" v="no"/>
    <tag k="maxspeed" v="70 mph"/>
    <tag k="maxspeed:type" v="GB:nsl_dual"/>
    <tag k="national_highways:area" v="8"/>
    <tag k="oneway" v="yes"/>
    <tag k="operator" v="National Highways"/>
    <tag k="operator:wikidata" v="Q5760006"/>
  </way>
  <way id="142873133" version="7" timestamp="2024-11-04T14:48:37Z" changeset="158744059" uid="5229644" user="Nathan_A_RF">
    <nd ref="440947572"/>
    <nd ref="5313604"/>
    <tag k="alt_name" v="St Neots Road"/>
    <tag k="bracket_ref" v="A428"/>
    <tag k="highway" v="trunk"/>
    <tag k="lanes" v="2"/>
    <tag k="lit" v="no"/>
    <tag k="maxspeed" v="50 mph"/>
    <tag k="maxspeed:type" v="sign"/>
    <tag k="name" v="Saint Neots Road"/>
    <tag k="note:name" v="No name signs along this stretch, but Web sites of places along it all call it &quot;Madingley Road&quot;.Government sources call the parts in the parish of Madingley &quot;St Neots Road&quot; and some give the two sides different names where the boundary follows the road."/>
    <tag k="ref" v="A1303"/>
    <tag k="source:highway" v="signs"/>
    <tag k="source:name" v="local_knowledge"/>
  </way>
  <way id="148818414" version="18" timestamp="2023-10-12T08:42:48Z" changeset="142467971" uid="14205271" user="thumnus">
    <nd ref="21288201"/>
    <nd ref="1618865599"/>
    <nd ref="1618865602"/>
    <nd ref="1618865604"/>
    <nd ref="1618865606"/>
    <nd ref="1618865609"/>
    <nd ref="1618865610"/>
    <nd ref="1618865611"/>
    <nd ref="1618865620"/>
    <nd ref="1618865621"/>
    <nd ref="1618865622"/>
    <nd ref="3285823664"/>
    <nd ref="1618865623"/>
    <nd ref="1618865624"/>
    <nd ref="1618865625"/>
    <nd ref="1618865626"/>
    <nd ref="3285823672"/>
    <nd ref="1618865628"/>
    <nd ref="3285823676"/>
    <nd ref="3285823677"/>
    <nd ref="1618865630"/>
    <nd ref="3285822062"/>
    <nd ref="1618865634"/>
    <nd ref="1618865636"/>
    <nd ref="3285822066"/>
    <nd ref="3285822067"/>
    <nd ref="1618865641"/>
    <nd ref="1618865642"/>
    <nd ref="1618865644"/>
    <nd ref="1618865646"/>
    <nd ref="8433451546"/>
    <tag k="bicycle" v="no"/>
    <tag k="description" v="Cambridge Northern Bypass"/>
    <tag k="expressway" v="yes"/>
    <tag k="foot" v="no"/>
    <tag k="highway" v="trunk"/>
    <tag k="lanes" v="2"/>
    <tag k="lit" v="no"/>
    <tag k="maxspeed" v="70 mph"/>
    <tag k="maxspeed:type" v="GB:nsl_dual"/>
    <tag k="national_highways:area" v="8"/>
    <tag k="old_ref" v="A45"/>
    <tag k="oneway" v="yes"/>
    <tag k="operator" v="National Highways"/>
    <tag k="operator:wikidata" v="Q5760006"/>
    <tag k="ref" v="A428"/>
    <tag k="source:ref" v="dictaphone"/>
  </way>
  <way id="204492312" version="9" timestamp="2024-11-04T14:48:37Z" changeset="158744059" uid="5229644" user="Nathan_A_RF">
    <nd ref="5313604"/>
    <nd ref="2503973203"/>
    <nd ref="11724789911"/>
    <nd ref="5313606"/>
    <nd ref="1545109315"/>
    <nd ref="5313607"/>
    <nd ref="4286095136"/>
    <nd ref="5313610"/>
    <nd ref="1545109318"/>
    <nd ref="440947576"/>
    <nd ref="1545109339"/>
    <nd ref="5313612"/>
    <nd ref="280371757"/>
    <nd ref="23767379"/>
    <tag k="alt_name" v="St Neots Road"/>
    <tag k="bracket_ref" v="A428"/>
    <tag k="highway" v="trunk"/>
    <tag k="lanes" v="2"/>
    <tag k="lit" v="no"/>
    <tag k="maxspeed" v="50 mph"/>
    <tag k="maxspeed:type" v="sign"/>
    <tag k="name" v="Saint Neots Road"/>
    <tag k="note:name" v="No name signs along this stretch, but Web sites of places along it all call it &quot;Madingley Road&quot;.Government sources call the parts in the parish of Madingley &quot;St Neots Road&quot; and some give the two sides different names where the boundary follows the road."/>
    <tag k="old_ref" v="A45"/>
    <tag k="ref" v="A1303"/>
    <tag k="source:highway" v="signs"/>
    <tag k="source:name" v="local_knowledge"/>
  </way>
  <way id="242958372" version="2" timestamp="2021-08-10T18:36:14Z" changeset="109479365" uid="5173844" user="ndrw6">
    <nd ref="8996759737"/>
    <nd ref="2503950324"/>
    <nd ref="2503950170"/>
    <nd ref="2503950259"/>
    <nd ref="2503950312"/>
    <nd ref="8996759736"/>
    <nd ref="8996759737"/>
    <tag k="addr:housenumber" v="19"/>
    <tag k="addr:postcode" v="CB23 8AF"/>
    <tag k="addr:street" v="Church Lane"/>
    <tag k="building" v="yes"/>
  </way>
  <way id="242958373" version="2" timestamp="2021-08-10T18:36:14Z" changeset="109479365" uid="5173844" user="ndrw6">
    <nd ref="8996759735"/>
    <nd ref="2503950320"/>
    <nd ref="2503950277"/>
    <nd ref="2503950085"/>
    <nd ref="2503950184"/>
    <nd ref="8996759734"/>
    <nd ref="8996759735"/>
    <tag k="addr:housenumber" v="17"/>
    <tag k="addr:postcode" v="CB23 8AF"/>
    <tag k="addr:street" v="Church Lane"/>
    <tag k="building" v="yes"/>
  </way>
  <way id="242958376" version="2" timestamp="2022-10-04T20:54:41Z" changeset="127015867" uid="6476359" user="NSiecw">
    <nd ref="2503950253"/>
    <nd ref="2503950152"/>
    <nd ref="2503950329"/>
    <nd ref="2503950457"/>
    <nd ref="2503950253"/>
    <tag k="addr:city" v="Cambridge"/>
    <tag k="addr:housenumber" v="4"/>
    <tag k="addr:postcode" v="CB23 8AE"/>
    <tag k="addr:street" v="Dry Drayton Road"/>
    <tag k="addr:village" v="Madingley"/>
    <tag k="building" v="yes"/>
  </way>
  <way id="242958377" version="3" timestamp="2019-03-25T06:51:12Z" changeset="68495030" uid="9451067" user="b-jazz-bot">
    <nd ref="2503950322"/>
    <nd ref="2503950183"/>
    <nd ref="2503950276"/>
    <nd ref="2503950099"/>
    <nd ref="2503950334"/>
    <nd ref="2503950383"/>
    <nd ref="2503950322"/>
    <tag k="addr:postcode" v="CB23 8AB"/>
    <tag k="addr:street" v="High Street"/>
    <tag k="amenity" v="restaurant"/>
    <tag k="building" v="yes"/>
    <tag k="name" v="The Three Horseshoes"/>
    <tag k="website" v="https://threehorseshoesmadingley.co.uk/"/>
  </way>
  <way id="242958382" version="4" timestamp="2020-08-22T16:32:52Z" changeset="89786367" uid="16089" user="Ben Harris">
    <nd ref="2503950100"/>
    <nd ref="2503950358"/>
    <nd ref="2503950195"/>
    <nd ref="2503950270"/>
    <nd ref="2503950100"/>
    <tag k="addr:city" v="Cambridge"/>
    <tag k="addr:housenumber" v="5"/>
    <tag k="addr:postcode" v="CB23 8AF"/>
    <tag k="addr:street" v="Church Lane"/>
    <tag k="addr:village" v="Madingley"/>
    <tag k="building" v="yes"/>
  </way>
  <way id="242958384" version="2" timestamp="2021-08-10T18:36:14Z" changeset="109479365" uid="5173844" user="ndrw6">
    <nd ref="8996759733"/>
    <nd ref="2503950224"/>
    <nd ref="2503950098"/>
    <nd ref="2503950193"/>
    <nd ref="2503950216"/>
    <nd ref="8996759732"/>
    <nd ref="8996759733"/>
    <tag k="addr:housenumber" v="15"/>
    <tag k="addr:postcode" v="CB23 8AF"/>
    <tag k="addr:street" v="Church Lane"/>
    <tag k="building" v="yes"/>
  </way>
  <way id="242958385" version="3" timestamp="2021-05-09T12:24:04Z" changeset="104394536" uid="281267" user="smb1001">
    <nd ref="2503950210"/>
    <nd ref="2503950109"/>
    <nd ref="2503950316"/>
    <nd ref="2503950310"/>
    <nd ref="2503950107"/>
    <nd ref="2503950134"/>
    <nd ref="2503950511"/>
    <nd ref="2503950305"/>
    <nd ref="2503950210"/>
    <tag k="addr:housenumber" v="9"/>
    <tag k="addr:postcode" v="CB23 8AF"/>
    <tag k="addr:street" v="Church Lane"/>
    <tag k="building" v="yes"/>
  </way>
  <way id="242958387" version="2" timestamp="2021-08-10T18:36:14Z" changeset="109479365" uid="5173844" user="ndrw6">
    <nd ref="8996759731"/>
    <nd ref="2503950189"/>
    <nd ref="2503950412"/>
    <nd ref="2503950130"/>
    <nd ref="2503950452"/>
    <nd ref="8996759731"/>
    <tag k="addr:housenumber" v="2"/>
    <tag k="addr:postcode" v="CB23 8AF"/>
    <tag k="addr:street" v="Church Lane"/>
    <tag k="building" v="yes"/>
  </way>
  <way id="242958393" version="2" timestamp="2021-08-10T18:36:14Z" changeset="109479365" uid="5173844" user="ndrw6">
    <nd ref="8996759726"/>
    <nd ref="2503950332"/>
    <nd ref="2503950092"/>
    <nd ref="2503950466"/>
    <nd ref="2503950379"/>
    <nd ref="8996759726"/>
    <tag k="addr:housenumber" v="10"/>
    <tag k="addr:postcode" v="CB23 8AF"/>
    <tag k="addr:street" v="Church Lane"/>
    <tag k="building" v="yes"/>
  </way>
  <way id="242958396" version="2" timestamp="2021-08-10T18:36:14Z" changeset="109479365" uid="5173844" user="ndrw6">
    <nd ref="2503950255"/>
    <nd ref="8996759730"/>
    <nd ref="8996759729"/>
    <nd ref="2503950353"/>
    <nd ref="2503950255"/>
    <tag k="addr:housenumber" v="4"/>
    <tag k="addr:postcode" v="CB23 8AF"/>
    <tag k="addr:street" v="Church Lane"/>
    <tag k="building" v="yes"/>
  </way>
  <way id="242958399" version="3" timestamp="2021-05-09T12:24:04Z" changeset="104394536" uid="281267" user="smb1001">
    <nd ref="2503950173"/>
    <nd ref="2503950095"/>
    <nd ref="2503950307"/>
    <nd ref="2503950325"/>
    <nd ref="2503950293"/>
    <nd ref="2503950271"/>
    <nd ref="2503950167"/>
    <nd ref="2503950446"/>
    <nd ref="2503950173"/>
    <tag k="addr:housenumber" v="13"/>
    <tag k="addr:postcode" v="CB23 8AF"/>
    <tag k="addr:street" v="Church Lane"/>
    <tag k="building" v="yes"/>
    <tag k="note" v="This may be two houses"/>
  </way>
  <way id="242958404" version="3" timestamp="2017-06-15T13:15:01Z" changeset="49562372" uid="5844915" user="University Of Cambridge Space Data Team">
    <nd ref="2503950295"/>
    <nd ref="2503950391"/>
    <nd ref="2503950223"/>
    <nd ref="2503950180"/>
    <nd ref="2503950295"/>
    <tag k="building" v="yes"/>
    <tag k="name" v="The View Madingley"/>
    <tag k="ref" v="F064"/>
  </way>
  <way id="242958405" version="3" timestamp="2024-03-04T01:37:49Z" changeset="148186765" uid="493595" user="Yorvik Prestigitator">
    <nd ref="2503950336"/>
    <nd ref="11688966800"/>
    <nd ref="11688966801"/>
    <nd ref="11688966799"/>
    <nd ref="2503950395"/>
    <nd ref="11688966798"/>
    <nd ref="11688966797"/>
    <nd ref="2503950168"/>
    <nd ref="2503950204"/>
    <nd ref="8734280054"/>
    <nd ref="2503950336"/>
    <tag k="addr:housenumber" v="19/20"/>
    <tag k="addr:postcode" v="CB23 8AB"/>
    <tag k="addr:street" v="High Street"/>
    <tag k="amenity" v="community_centre"/>
    <tag k="building" v="public"/>
    <tag k="community_centre" v="village_hall"/>
    <tag k="name" v="Madingley Village Hall"/>
  </way>
  <way id="242958407" version="5" timestamp="2021-08-10T18:36:14Z" changeset="109479365" uid="5173844" user="ndrw6">
    <nd ref="2503950280"/>
    <nd ref="8996759728"/>
    <nd ref="8996759727"/>
    <nd ref="2503950174"/>
    <nd ref="2503950280"/>
    <tag k="addr:housenumber" v="7"/>
    <tag k="addr:postcode" v="CB23 8AF"/>
    <tag k="addr:street" v="Church Lane"/>
    <tag k="building" v="house"/>
  </way>
  <way id="242958415" version="3" timestamp="2023-06-04T16:33:10Z" changeset="136940125" uid="281267" user="smb1001">
    <nd ref="2503950287"/>
    <nd ref="2503950196"/>
    <nd ref="2503950142"/>
    <nd ref="10951761770"/>
    <nd ref="10951761782"/>
    <nd ref="2503950287"/>
    <tag k="addr:housenumber" v="25"/>
    <tag k="addr:postcode" v="CB23 8AB"/>
    <tag k="addr:street" v="High Street"/>
    <tag k="building" v="yes"/>
  </way>
  <way id="242958416" version="4" timestamp="2023-06-04T16:33:10Z" changeset="136940125" uid="281267" user="smb1001">
    <nd ref="2503950356"/>
    <nd ref="2503950372"/>
    <nd ref="2503950110"/>
    <nd ref="2503950514"/>
    <nd ref="2503950356"/>
    <tag k="addr:housenumber" v="19"/>
    <tag k="addr:postcode" v="CB23 8AB"/>
    <tag k="addr:street" v="High Street"/>
    <tag k="building" v="yes"/>
  </way>
  <way id="242958418" version="2" timestamp="2023-06-04T16:33:10Z" changeset="136940125" uid="281267" user="smb1001">
    <nd ref="2503950076"/>
    <nd ref="2503950344"/>
    <nd ref="2503950206"/>
    <nd ref="2503950294"/>
    <nd ref="2503950355"/>
    <nd ref="2503950209"/>
    <nd ref="2503950076"/>
    <tag k="addr:housenumber" v="21"/>
    <tag k="addr:postcode" v="CB23 8AB"/>
    <tag k="addr:street" v="High Street"/>
    <tag k="building" v="yes"/>
  </way>
  <way id="242958419" version="2" timestamp="2021-08-10T18:36:14Z" changeset="109479365" uid="5173844" user="ndrw6">
    <nd ref="8996759738"/>
    <nd ref="2503950273"/>
    <nd ref="2503950147"/>
    <nd ref="2503950060"/>
    <nd ref="2503950102"/>
    <nd ref="2503950052"/>
    <nd ref="2503950311"/>
    <nd ref="8996759738"/>
    <tag k="addr:housenumber" v="22"/>
    <tag k="addr:postcode" v="CB23 8AF"/>
    <tag k="addr:street" v="Church Lane"/>
    <tag k="building" v="yes"/>
  </way>
  <way id="242958422" version="3" timestamp="2023-06-04T16:33:10Z" changeset="136940125" uid="281267" user="smb1001">
    <nd ref="2503950419"/>
    <nd ref="8996719195"/>
    <nd ref="8996719194"/>
    <nd ref="2503950187"/>
    <nd ref="2503950419"/>
    <tag k="addr:housenumber" v="30"/>
    <tag k="addr:postcode" v="CB23 8AB"/>
    <tag k="addr:street" v="High Street"/>
    <tag k="building" v="yes"/>
  </way>
  <way id="242958423" version="2" timestamp="2013-10-21T14:53:57Z" changeset="18469957" uid="281267" user="smb1001">
    <nd ref="2503950080"/>
    <nd ref="2503950214"/>
    <nd ref="2503950154"/>
    <nd ref="2503950251"/>
    <nd ref="2503950250"/>
    <nd ref="2503950175"/>
    <nd ref="2503950227"/>
    <nd ref="2503950244"/>
    <nd ref="2503950366"/>
    <nd ref="2503950246"/>
    <nd ref="2503950080"/>
    <tag k="building" v="yes"/>
    <tag k="name" v="New Farm"/>
  </way>
  <way id="242958425" version="3" timestamp="2021-05-09T12:24:04Z" changeset="104394536" uid="281267" user="smb1001">
    <nd ref="2503950155"/>
    <nd ref="2503950463"/>
    <nd ref="2503950484"/>
    <nd ref="2503950288"/>
    <nd ref="2503950254"/>
    <nd ref="2503950238"/>
    <nd ref="2503950155"/>
    <tag k="addr:housenumber" v="23"/>
    <tag k="addr:postcode" v="CB23 8AF"/>
    <tag k="addr:street" v="Church Lane"/>
    <tag k="building" v="yes"/>
  </way>
  <way id="242958427" version="3" timestamp="2023-08-20T11:47:41Z" changeset="140129162" uid="13001300" user="simonc11">
    <nd ref="2503950281"/>
    <nd ref="2503950425"/>
    <nd ref="2503950097"/>
    <nd ref="2503950381"/>
    <nd ref="2503950351"/>
    <nd ref="2503950430"/>
    <nd ref="2503950281"/>
    <tag k="addr:housenumber" v="31"/>
    <tag k="addr:postcode" v="CB23 8AB"/>
    <tag k="addr:street" v="High Street"/>
    <tag k="building" v="yes"/>
    <tag k="wikidata" v="Q26633571"/>
  </way>
  <way id="242960659" version="3" timestamp="2024-06-23T14:38:16Z" changeset="153071206" uid="742701" user="kerr smith">
    <nd ref="12003281295"/>
    <nd ref="2503973093"/>
    <nd ref="2503972950"/>
    <nd ref="12003281296"/>
    <nd ref="12003281295"/>
    <tag k="building" v="yes"/>
    <tag k="name" v="Visitors Building"/>
  </way>
  <way id="242960667" version="4" timestamp="2024-06-23T14:38:16Z" changeset="153071206" uid="742701" user="kerr smith">
    <nd ref="23769080"/>
    <nd ref="2503972979"/>
    <nd ref="12003281199"/>
    <nd ref="12003281246"/>
    <nd ref="12003281198"/>
    <nd ref="2503973123"/>
    <nd ref="12003281194"/>
    <nd ref="2503973037"/>
    <nd ref="12003281252"/>
    <nd ref="12003281251"/>
    <nd ref="12003281250"/>
    <nd ref="12003281253"/>
    <nd ref="12003281249"/>
    <nd ref="12003281248"/>
    <nd ref="12003281247"/>
    <nd ref="23769080"/>
    <tag k="amenity" v="place_of_worship"/>
    <tag k="building" v="chapel"/>
    <tag k="historic" v="memorial"/>
    <tag k="name" v="American Cemetery Chapel"/>
    <tag k="religion" v="christian"/>
  </way>
  <way id="242960674" version="3" timestamp="2019-02-04T10:43:33Z" changeset="66899076" uid="5173844" user="ndrw6">
    <nd ref="2503972981"/>
    <nd ref="2503973112"/>
    <nd ref="2503973122"/>
    <nd ref="2503972954"/>
    <nd ref="2503972940"/>
    <nd ref="2503973065"/>
    <nd ref="2503972975"/>
    <nd ref="2503973019"/>
    <nd ref="2503972981"/>
    <tag k="addr:city" v="Cambridge"/>
    <tag k="addr:housenumber" v="4"/>
    <tag k="addr:postcode" v="CB23 7PH"/>
    <tag k="addr:street" v="Crome Lea Business Park"/>
    <tag k="addr:village" v="Coton"/>
    <tag k="building" v="commercial"/>
    <tag k="building:levels" v="1"/>
    <tag k="name" v="EMIS Health Ophthalmology"/>
    <tag k="smoking" v="no"/>
  </way>
  <way id="242960677" version="4" timestamp="2019-02-04T10:43:33Z" changeset="66899076" uid="5173844" user="ndrw6">
    <nd ref="2503973030"/>
    <nd ref="2503973189"/>
    <nd ref="2503973026"/>
    <nd ref="2503972956"/>
    <nd ref="2503973030"/>
    <tag k="addr:city" v="Cambridge"/>
    <tag k="addr:postcode" v="CB23 7PH"/>
    <tag k="addr:street" v="Crome Lea Business Park"/>
    <tag k="addr:village" v="Coton"/>
    <tag k="building" v="yes"/>
    <tag k="name" v="iCheque"/>
    <tag k="office" v="company"/>
    <tag k="website" v="https://www.icheque.com/"/>
    <tag k="wheelchair" v="yes"/>
  </way>
  <way id="242960690" version="3" timestamp="2024-04-07T22:01:53Z" changeset="149711608" uid="10420541" user="Thingummy">
    <nd ref="11800432136"/>
    <nd ref="2503973054"/>
    <nd ref="11800432143"/>
    <nd ref="2503973024"/>
    <nd ref="11800122577"/>
    <nd ref="11800122576"/>
    <nd ref="2503972992"/>
    <nd ref="11800432136"/>
    <tag k="building" v="yes"/>
    <tag k="delivery" v="yes"/>
    <tag k="name" v="Madingly Mulch"/>
    <tag k="shop" v="garden_supplies"/>
  </way>
  <way id="242960698" version="3" timestamp="2021-05-09T12:15:40Z" changeset="104394226" uid="281267" user="smb1001">
    <nd ref="2503972953"/>
    <nd ref="2503973133"/>
    <nd ref="2503973077"/>
    <nd ref="2503973108"/>
    <nd ref="2503973124"/>
    <nd ref="2503973068"/>
    <nd ref="2503972989"/>
    <nd ref="2503972978"/>
    <nd ref="2503973006"/>
    <nd ref="2503973064"/>
    <nd ref="2503972953"/>
    <tag k="addr:postcode" v="CB23 7PH"/>
    <tag k="addr:street" v="Madingley Road"/>
    <tag k="building" v="residential"/>
    <tag k="name" v="Woodfield House"/>
    <tag k="tourism" v="guest_house"/>
  </way>
  <way id="463089417" version="13" timestamp="2025-03-12T11:07:49Z" changeset="163522564" uid="5229644" user="Nathan_A_RF">
    <nd ref="1565571980"/>
    <nd ref="4584016925"/>
    <nd ref="4584016924"/>
    <nd ref="1545109307"/>
    <tag k="alt_description" v="Ipswich - Weedon Trunk Road"/>
    <tag k="bicycle" v="no"/>
    <tag k="description" v="Cambridge Northern Bypass"/>
    <tag k="expressway" v="yes"/>
    <tag k="foot" v="no"/>
    <tag k="highway" v="trunk"/>
    <tag k="horse" v="no"/>
    <tag k="lanes" v="2"/>
    <tag k="lit" v="yes"/>
    <tag k="maxspeed" v="70 mph"/>
    <tag k="maxspeed:type" v="GB:nsl_dual"/>
    <tag k="national_highways:area" v="8"/>
    <tag k="old_ref" v="A45"/>
    <tag k="oneway" v="yes"/>
    <tag k="operator" v="National Highways"/>
    <tag k="operator:wikidata" v="Q5760006"/>
    <tag k="ref" v="A428"/>
    <tag k="source:ref" v="local knowledge"/>
    <tag k="surface" v="asphalt"/>
  </way>
  <way id="478474831" version="11" timestamp="2024-10-28T18:39:09Z" changeset="158468897" uid="1102246" user="jtn20">
    <nd ref="1290836844"/>
    <nd ref="6454070469"/>
    <nd ref="6454070470"/>
    <nd ref="8565602265"/>
    <nd ref="4716883152"/>
    <nd ref="6584638828"/>
    <nd ref="320913430"/>
    <nd ref="23768600"/>
    <nd ref="8635982168"/>
    <nd ref="23768580"/>
    <tag k="cycleway:both" v="no"/>
    <tag k="est_width" v="7"/>
    <tag k="hgv" v="discouraged"/>
    <tag k="highway" v="tertiary"/>
    <tag k="lanes" v="2"/>
    <tag k="maxspeed" v="60 mph"/>
    <tag k="maxspeed:type" v="GB:nsl_single"/>
    <tag k="name" v="The Avenue"/>
    <tag k="source:name" v="local_knowledge"/>
    <tag k="surface" v="asphalt"/>
  </way>
  <way id="500913723" version="1" timestamp="2017-06-16T09:37:00Z" changeset="49585779" uid="5844915" user="University Of Cambridge Space Data Team">
    <nd ref="4918536567"/>
    <nd ref="4918536568"/>
    <nd ref="4918536569"/>
    <nd ref="4918536570"/>
    <nd ref="4918536571"/>
    <nd ref="4918536572"/>
    <nd ref="4918536573"/>
    <nd ref="4918536574"/>
    <nd ref="4918536575"/>
    <nd ref="4918536567"/>
    <tag k="building" v="yes"/>
    <tag k="name" v="Small Slurry Tank (Park Farm)"/>
    <tag k="operator" v="University of Cambridge"/>
    <tag k="ref" v="F332"/>
  </way>
  <way id="500913725" version="1" timestamp="2017-06-16T09:37:00Z" changeset="49585779" uid="5844915" user="University Of Cambridge Space Data Team">
    <nd ref="4918536576"/>
    <nd ref="4918536577"/>
    <nd ref="4918536578"/>
    <nd ref="4918536579"/>
    <nd ref="4918536580"/>
    <nd ref="4918536581"/>
    <nd ref="4918536582"/>
    <nd ref="4918536583"/>
    <nd ref="4918536584"/>
    <nd ref="4918536585"/>
    <nd ref="4918536586"/>
    <nd ref="4918536576"/>
    <tag k="building" v="yes"/>
    <tag k="name" v="Large Slurry Tank (Park Farm)"/>
    <tag k="operator" v="University of Cambridge"/>
    <tag k="ref" v="F331"/>
  </way>
  <way id="500913728" version="1" timestamp="2017-06-16T09:37:00Z" changeset="49585779" uid="5844915" user="University Of Cambridge Space Data Team">
    <nd ref="4918536587"/>
    <nd ref="4918536588"/>
    <nd ref="4918536589"/>
    <nd ref="4918536590"/>
    <nd ref="4918536587"/>
    <tag k="building" v="yes"/>
    <tag k="name" v="Manure Pad (Park Farm)"/>
    <tag k="operator" v="University of Cambridge"/>
    <tag k="ref" v="F333"/>
  </way>
  <way id="500913730" version="1" timestamp="2017-06-16T09:37:00Z" changeset="49585779" uid="5844915" user="University Of Cambridge Space Data Team">
    <nd ref="4918536591"/>
    <nd ref="4918536592"/>
    <nd ref="4918536593"/>
    <nd ref="4918536594"/>
    <nd ref="4918536591"/>
    <tag k="building" v="yes"/>
    <tag k="name" v="RGC Silage Clamps (Park Farm)"/>
    <tag k="operator" v="University of Cambridge"/>
    <tag k="ref" v="F319"/>
  </way>
  <way id="500913732" version="1" timestamp="2017-06-16T09:37:00Z" changeset="49585779" uid="5844915" user="University Of Cambridge Space Data Team">
    <nd ref="4918536595"/>
    <nd ref="4918536596"/>
    <nd ref="4918536597"/>
    <nd ref="4918536598"/>
    <nd ref="4918536595"/>
    <tag k="building" v="yes"/>
    <tag k="name" v="Calf Shed (Park Farm)"/>
    <tag k="operator" v="University of Cambridge"/>
    <tag k="ref" v="F317"/>
  </way>
  <way id="500913734" version="1" timestamp="2017-06-16T09:37:00Z" changeset="49585779" uid="5844915" user="University Of Cambridge Space Data Team">
    <nd ref="4918536599"/>
    <nd ref="4918536600"/>
    <nd ref="4918536601"/>
    <nd ref="4918536602"/>
    <nd ref="4918536599"/>
    <tag k="building" v="yes"/>
    <tag k="name" v="Lambing Shed (Park Farm)"/>
    <tag k="ref" v="F313"/>
  </way>
  <way id="500913736" version="1" timestamp="2017-06-16T09:37:00Z" changeset="49585779" uid="5844915" user="University Of Cambridge Space Data Team">
    <nd ref="4918536603"/>
    <nd ref="4918536604"/>
    <nd ref="4918536605"/>
    <nd ref="4918536606"/>
    <nd ref="4918536603"/>
    <tag k="building" v="yes"/>
    <tag k="name" v="Grain Store (Park Farm)"/>
    <tag k="operator" v="University of Cambridge"/>
    <tag k="ref" v="F318"/>
  </way>
  <way id="500913739" version="1" timestamp="2017-06-16T09:37:00Z" changeset="49585779" uid="5844915" user="University Of Cambridge Space Data Team">
    <nd ref="4918536607"/>
    <nd ref="4918536608"/>
    <nd ref="4918536609"/>
    <nd ref="4918536610"/>
    <nd ref="4918536607"/>
    <tag k="building" v="yes"/>
    <tag k="name" v="Young Stock Building (Park Farm)"/>
    <tag k="operator" v="University of Cambridge"/>
    <tag k="ref" v="F316"/>
  </way>
  <way id="500932607" version="3" timestamp="2020-03-13T16:47:39Z" changeset="82173370" uid="3582" user="davidearl">
    <nd ref="4918628974"/>
    <nd ref="4918628975"/>
    <nd ref="4918628976"/>
    <nd ref="4918628977"/>
    <nd ref="4918628974"/>
    <tag k="building" v="university"/>
    <tag k="name" v="New Farm Barn"/>
    <tag k="operator" v="University of Cambridge"/>
    <tag k="ref" v="F312"/>
    <tag k="ref_1" v="University Farm"/>
  </way>
  <way id="500938618" version="4" timestamp="2019-03-31T12:45:18Z" changeset="68723366" uid="8662577" user="Nuka_z_lego">
    <nd ref="4918686380"/>
    <nd ref="4918686381"/>
    <nd ref="4918686382"/>
    <nd ref="4918686383"/>
    <nd ref="4918686380"/>
    <tag k="addr:city" v="Cambridge"/>
    <tag k="addr:housenumber" v="1-6"/>
    <tag k="addr:postcode" v="CB23 8AN"/>
    <tag k="addr:street" v="Granary Court"/>
    <tag k="addr:village" v="Madingley"/>
    <tag k="building" v="university"/>
    <tag k="name" v="Q026-8 Granary Court, Madingley"/>
    <tag k="ref" v="University of Cambridge"/>
  </way>
  <way id="582387766" version="7" timestamp="2024-11-04T14:48:37Z" changeset="158744059" uid="5229644" user="Nathan_A_RF">
    <nd ref="23768569"/>
    <nd ref="10684995702"/>
    <nd ref="10684995695"/>
    <nd ref="12294470154"/>
    <nd ref="12294470155"/>
    <nd ref="8804505833"/>
    <tag k="abutters" v="residential"/>
    <tag k="hgv" v="discouraged"/>
    <tag k="highway" v="tertiary"/>
    <tag k="maxspeed" v="30 mph"/>
    <tag k="name" v="The Avenue"/>
    <tag k="sidewalk:left" v="no"/>
    <tag k="sidewalk:right" v="yes"/>
    <tag k="source:name" v="local knowledge"/>
    <tag k="surface" v="asphalt"/>
  </way>
  <way id="610782980" version="14" timestamp="2025-03-12T11:07:49Z" changeset="163522564" uid="5229644" user="Nathan_A_RF">
    <nd ref="4584005354"/>
    <nd ref="4584005350"/>
    <nd ref="4584005352"/>
    <nd ref="8252553406"/>
    <nd ref="4584005353"/>
    <nd ref="5784048026"/>
    <nd ref="2811414722"/>
    <nd ref="12655866557"/>
    <nd ref="328619"/>
    <tag k="bicycle" v="no"/>
    <tag k="description" v="Cambridge Northern Bypass"/>
    <tag k="expressway" v="yes"/>
    <tag k="foot" v="no"/>
    <tag k="highway" v="trunk"/>
    <tag k="horse" v="no"/>
    <tag k="lanes" v="2"/>
    <tag k="lit" v="yes"/>
    <tag k="maxheight" v="default"/>
    <tag k="maxspeed" v="70 mph"/>
    <tag k="maxspeed:type" v="GB:nsl_dual"/>
    <tag k="national_highways:area" v="8"/>
    <tag k="old_ref" v="A45"/>
    <tag k="oneway" v="yes"/>
    <tag k="operator" v="National Highways"/>
    <tag k="operator:wikidata" v="Q5760006"/>
    <tag k="ref" v="A428"/>
    <tag k="source:ref" v="dictaphone"/>
    <tag k="surface" v="asphalt"/>
  </way>
  <way id="610782982" version="8" timestamp="2024-11-04T14:48:37Z" changeset="158744059" uid="5229644" user="Nathan_A_RF">
    <nd ref="687044537"/>
    <nd ref="687044538"/>
    <nd ref="3285821659"/>
    <nd ref="620920"/>
    <nd ref="3285822061"/>
    <nd ref="687044539"/>
    <nd ref="620922"/>
    <nd ref="21288174"/>
    <nd ref="687044540"/>
    <nd ref="620923"/>
    <nd ref="1618865632"/>
    <nd ref="620924"/>
    <nd ref="620925"/>
    <nd ref="513768410"/>
    <nd ref="687044541"/>
    <nd ref="620927"/>
    <nd ref="687044543"/>
    <nd ref="513768167"/>
    <nd ref="3285789589"/>
    <nd ref="687044545"/>
    <nd ref="687044547"/>
    <nd ref="620929"/>
    <nd ref="1545109330"/>
    <nd ref="620930"/>
    <nd ref="513768038"/>
    <nd ref="1545109316"/>
    <nd ref="12312200167"/>
    <nd ref="32520619"/>
    <tag k="bicycle" v="no"/>
    <tag k="description" v="Cambridge Northern Bypass"/>
    <tag k="expressway" v="yes"/>
    <tag k="foot" v="no"/>
    <tag k="highway" v="trunk"/>
    <tag k="lanes" v="2"/>
    <tag k="lit" v="no"/>
    <tag k="maxspeed" v="70 mph"/>
    <tag k="maxspeed:type" v="GB:nsl_dual"/>
    <tag k="national_highways:area" v="8"/>
    <tag k="old_ref" v="A45"/>
    <tag k="oneway" v="yes"/>
    <tag k="operator" v="National Highways"/>
    <tag k="operator:wikidata" v="Q5760006"/>
    <tag k="ref" v="A428"/>
  </way>
  <way id="620164541" version="28" timestamp="2025-03-19T12:48:14Z" changeset="163816160" uid="8061502" user="galacticism">
    <nd ref="3227988055"/>
    <nd ref="8252557731"/>
    <nd ref="4584006841"/>
    <nd ref="8252557730"/>
    <nd ref="12680733350"/>
    <nd ref="3227988056"/>
    <nd ref="8044438066"/>
    <nd ref="4584006842"/>
    <nd ref="8252557729"/>
    <nd ref="3227988050"/>
    <nd ref="8252557728"/>
    <nd ref="4584006844"/>
    <nd ref="8252557727"/>
    <nd ref="3227988052"/>
    <nd ref="8252557724"/>
    <nd ref="8252557726"/>
    <nd ref="8252557725"/>
    <nd ref="3227988053"/>
    <nd ref="8252557723"/>
    <nd ref="8252557722"/>
    <nd ref="6514805186"/>
    <nd ref="11503234174"/>
    <tag k="agricultural" v="no"/>
    <tag k="bicycle" v="no"/>
    <tag k="carriage" v="no"/>
    <tag k="carriageway_ref" v="B"/>
    <tag k="dual_carriageway" v="yes"/>
    <tag k="embankment" v="yes"/>
    <tag k="expressway" v="yes"/>
    <tag k="foot" v="no"/>
    <tag k="highway" v="trunk"/>
    <tag k="horse" v="no"/>
    <tag k="int_ref" v="E 24"/>
    <tag k="lanes" v="2"/>
    <tag k="lit" v="yes"/>
    <tag k="maxspeed" v="50 mph"/>
    <tag k="maxspeed:type" v="sign"/>
    <tag k="maxspeed:variable" v="no"/>
    <tag k="motorcycle:conditional" v="no @ (displacement &lt; 50 cc)"/>
    <tag k="motorroad" v="yes"/>
    <tag k="national_highways:area" v="8"/>
    <tag k="oneway" v="yes"/>
    <tag k="operator" v="National Highways"/>
    <tag k="operator:wikidata" v="Q5760006"/>
    <tag k="ref" v="A14"/>
    <tag k="surface" v="asphalt"/>
  </way>
  <way id="620164543" version="22" timestamp="2024-01-09T14:24:03Z" changeset="146069100" uid="5229644" user="Nathan_A_RF">
    <nd ref="8252553405"/>
    <nd ref="8252557733"/>
    <nd ref="8252553404"/>
    <nd ref="3227988055"/>
    <tag k="agricultural" v="no"/>
    <tag k="bicycle" v="no"/>
    <tag k="bridge" v="yes"/>
    <tag k="carriage" v="no"/>
    <tag k="carriageway_ref" v="B"/>
    <tag k="dual_carriageway" v="yes"/>
    <tag k="expressway" v="yes"/>
    <tag k="foot" v="no"/>
    <tag k="highway" v="trunk"/>
    <tag k="horse" v="no"/>
    <tag k="int_ref" v="E 24"/>
    <tag k="lanes" v="2"/>
    <tag k="layer" v="1"/>
    <tag k="maxspeed" v="50 mph"/>
    <tag k="maxspeed:type" v="sign"/>
    <tag k="maxspeed:variable" v="no"/>
    <tag k="motorcycle:conditional" v="no @ (displacement &lt; 50 cc)"/>
    <tag k="motorroad" v="yes"/>
    <tag k="national_highways:area" v="8"/>
    <tag k="oneway" v="yes"/>
    <tag k="operator" v="National Highways"/>
    <tag k="operator:wikidata" v="Q5760006"/>
    <tag k="ref" v="A14"/>
    <tag k="surface" v="asphalt"/>
  </way>
  <way id="733911023" version="1" timestamp="2019-10-12T15:33:26Z" changeset="75603514" uid="16089" user="Ben Harris">
    <nd ref="1545109340"/>
    <nd ref="5313620"/>
    <tag k="alt_name" v="St Neots Road"/>
    <tag k="bracket_ref" v="A428"/>
    <tag k="highway" v="trunk"/>
    <tag k="lanes" v="3"/>
    <tag k="lit" v="no"/>
    <tag k="maxspeed" v="50 mph"/>
    <tag k="name" v="Madingley Road"/>
    <tag k="note:name" v="No name signs along this stretch, but Web sites of places along it all call it &quot;Madingley Road&quot;.Government sources call the parts in the parish of Madingley &quot;St Neots Road&quot; and some give the two sides different names where the boundary follows the road."/>
    <tag k="ref" v="A1303"/>
    <tag k="source:highway" v="signs"/>
  </way>
  <way id="753963729" version="2" timestamp="2022-11-15T21:09:01Z" changeset="128959616" uid="16089" user="Ben Harris">
    <nd ref="3771821826"/>
    <nd ref="1495781682"/>
    <nd ref="23768001"/>
    <nd ref="23768011"/>
    <nd ref="23768037"/>
    <nd ref="1495781683"/>
    <nd ref="1495781684"/>
    <nd ref="1495781686"/>
    <nd ref="23768041"/>
    <nd ref="1495781688"/>
    <nd ref="1495781700"/>
    <nd ref="23768050"/>
    <nd ref="23768061"/>
    <tag k="abutters" v="residential"/>
    <tag k="hgv" v="discouraged"/>
    <tag k="highway" v="tertiary"/>
    <tag k="maxspeed" v="30 mph"/>
    <tag k="name" v="Church Lane"/>
    <tag k="source:name" v="survey"/>
  </way>
  <way id="753971245" version="5" timestamp="2024-11-04T14:48:37Z" changeset="158744059" uid="5229644" user="Nathan_A_RF">
    <nd ref="23768173"/>
    <nd ref="12294470162"/>
    <nd ref="3285760419"/>
    <tag k="highway" v="tertiary"/>
    <tag k="maxspeed" v="40 mph"/>
    <tag k="maxspeed:type" v="sign"/>
    <tag k="name" v="Cambridge Road"/>
    <tag k="sidewalk:right" v="yes"/>
    <tag k="source:name" v="local knowledge"/>
    <tag k="surface" v="asphalt"/>
  </way>
  <way id="801788526" version="14" timestamp="2025-03-20T17:19:46Z" changeset="163873309" uid="8061502" user="galacticism">
    <nd ref="620912"/>
    <nd ref="4584020699"/>
    <nd ref="4584020698"/>
    <nd ref="9393792834"/>
    <nd ref="12685224170"/>
    <nd ref="8252553405"/>
    <tag k="agricultural" v="no"/>
    <tag k="bicycle" v="no"/>
    <tag k="carriage" v="no"/>
    <tag k="carriageway_ref" v="B"/>
    <tag k="dual_carriageway" v="yes"/>
    <tag k="embankment" v="yes"/>
    <tag k="expressway" v="yes"/>
    <tag k="foot" v="no"/>
    <tag k="highway" v="trunk"/>
    <tag k="horse" v="no"/>
    <tag k="int_ref" v="E 24"/>
    <tag k="lanes" v="2"/>
    <tag k="maxspeed" v="50 mph"/>
    <tag k="maxspeed:type" v="sign"/>
    <tag k="maxspeed:variable" v="no"/>
    <tag k="motorcycle:conditional" v="no @ (displacement &lt; 50 cc)"/>
    <tag k="motorroad" v="yes"/>
    <tag k="national_highways:area" v="8"/>
    <tag k="oneway" v="yes"/>
    <tag k="operator" v="National Highways"/>
    <tag k="operator:wikidata" v="Q5760006"/>
    <tag k="ref" v="A14"/>
    <tag k="surface" v="asphalt"/>
  </way>
  <way id="908248231" version="7" timestamp="2023-09-06T00:54:34Z" changeset="140872543" uid="13341565" user="Falsernet">
    <nd ref="8433451546"/>
    <nd ref="1618865648"/>
    <nd ref="4584005349"/>
    <nd ref="8252553408"/>
    <nd ref="4584005351"/>
    <nd ref="8252553407"/>
    <nd ref="4584005354"/>
    <tag k="bicycle" v="no"/>
    <tag k="description" v="Cambridge Northern Bypass"/>
    <tag k="expressway" v="yes"/>
    <tag k="foot" v="no"/>
    <tag k="highway" v="trunk"/>
    <tag k="horse" v="no"/>
    <tag k="lanes" v="1"/>
    <tag k="lit" v="no"/>
    <tag k="maxspeed" v="70 mph"/>
    <tag k="maxspeed:type" v="GB:nsl_dual"/>
    <tag k="national_highways:area" v="8"/>
    <tag k="old_ref" v="A45"/>
    <tag k="oneway" v="yes"/>
    <tag k="operator" v="National Highways"/>
    <tag k="operator:wikidata" v="Q5760006"/>
    <tag k="ref" v="A428"/>
    <tag k="source:ref" v="dictaphone"/>
  </way>
  <way id="972062460" version="2" timestamp="2023-06-04T16:33:10Z" changeset="136940125" uid="281267" user="smb1001">
    <nd ref="8996719195"/>
    <nd ref="2503950440"/>
    <nd ref="2503950164"/>
    <nd ref="8996719194"/>
    <nd ref="8996719195"/>
    <tag k="addr:housenumber" v="29"/>
    <tag k="addr:postcode" v="CB23 8AB"/>
    <tag k="addr:street" v="High Street"/>
    <tag k="building" v="yes"/>
  </way>
  <way id="972062469" version="1" timestamp="2021-08-10T18:36:14Z" changeset="109479365" uid="5173844" user="ndrw6">
    <nd ref="2503950379"/>
    <nd ref="2503950077"/>
    <nd ref="2503950074"/>
    <nd ref="8996759726"/>
    <nd ref="2503950379"/>
    <tag k="addr:housenumber" v="11"/>
    <tag k="addr:postcode" v="CB23 8AF"/>
    <tag k="addr:street" v="Church Lane"/>
    <tag k="building" v="yes"/>
  </way>
  <way id="972062470" version="1" timestamp="2021-08-10T18:36:14Z" changeset="109479365" uid="5173844" user="ndrw6">
    <nd ref="8996759728"/>
    <nd ref="2503950323"/>
    <nd ref="2503950141"/>
    <nd ref="8996759727"/>
    <nd ref="8996759728"/>
    <tag k="addr:housenumber" v="6"/>
    <tag k="addr:postcode" v="CB23 8AF"/>
    <tag k="addr:street" v="Church Lane"/>
    <tag k="building" v="house"/>
  </way>
  <way id="972062472" version="1" timestamp="2021-08-10T18:36:14Z" changeset="109479365" uid="5173844" user="ndrw6">
    <nd ref="8996759730"/>
    <nd ref="2503950217"/>
    <nd ref="2503950438"/>
    <nd ref="8996759729"/>
    <nd ref="8996759730"/>
    <tag k="addr:housenumber" v="3"/>
    <tag k="addr:postcode" v="CB23 8AF"/>
    <tag k="addr:street" v="Church Lane"/>
    <tag k="building" v="yes"/>
  </way>
  <way id="972062473" version="1" timestamp="2021-08-10T18:36:14Z" changeset="109479365" uid="5173844" user="ndrw6">
    <nd ref="2503950452"/>
    <nd ref="2503950449"/>
    <nd ref="2503950388"/>
    <nd ref="8996759731"/>
    <nd ref="2503950452"/>
    <tag k="addr:housenumber" v="1"/>
    <tag k="addr:postcode" v="CB23 8AF"/>
    <tag k="addr:street" v="Church Lane"/>
    <tag k="building" v="yes"/>
  </way>
  <way id="972062474" version="1" timestamp="2021-08-10T18:36:14Z" changeset="109479365" uid="5173844" user="ndrw6">
    <nd ref="8996759732"/>
    <nd ref="2503950171"/>
    <nd ref="2503950151"/>
    <nd ref="2503950314"/>
    <nd ref="2503950201"/>
    <nd ref="8996759733"/>
    <nd ref="8996759732"/>
    <tag k="addr:housenumber" v="16"/>
    <tag k="addr:postcode" v="CB23 8AF"/>
    <tag k="addr:street" v="Church Lane"/>
    <tag k="building" v="yes"/>
  </way>
  <way id="972062475" version="1" timestamp="2021-08-10T18:36:14Z" changeset="109479365" uid="5173844" user="ndrw6">
    <nd ref="8996759734"/>
    <nd ref="2503950178"/>
    <nd ref="2503950158"/>
    <nd ref="2503950519"/>
    <nd ref="2503950302"/>
    <nd ref="8996759735"/>
    <nd ref="8996759734"/>
    <tag k="addr:housenumber" v="18"/>
    <tag k="addr:postcode" v="CB23 8AF"/>
    <tag k="addr:street" v="Church Lane"/>
    <tag k="building" v="yes"/>
  </way>
  <way id="972062476" version="1" timestamp="2021-08-10T18:36:14Z" changeset="109479365" uid="5173844" user="ndrw6">
    <nd ref="8996759736"/>
    <nd ref="2503950423"/>
    <nd ref="2503950321"/>
    <nd ref="2503950203"/>
    <nd ref="2503950298"/>
    <nd ref="8996759737"/>
    <nd ref="8996759736"/>
    <tag k="addr:housenumber" v="20"/>
    <tag k="addr:postcode" v="CB23 8AF"/>
    <tag k="addr:street" v="Church Lane"/>
    <tag k="building" v="yes"/>
  </way>
  <way id="972062477" version="1" timestamp="2021-08-10T18:36:14Z" changeset="109479365" uid="5173844" user="ndrw6">
    <nd ref="2503950311"/>
    <nd ref="2503950272"/>
    <nd ref="2503950049"/>
    <nd ref="2503950230"/>
    <nd ref="2503950199"/>
    <nd ref="8996759738"/>
    <nd ref="2503950311"/>
    <tag k="addr:housenumber" v="21"/>
    <tag k="addr:postcode" v="CB23 8AF"/>
    <tag k="addr:street" v="Church Lane"/>
    <tag k="building" v="yes"/>
  </way>
  <way id="974657255" version="1" timestamp="2021-08-19T13:01:08Z" changeset="109933994" uid="742701" user="kerr smith">
    <nd ref="9020031602"/>
    <nd ref="9020031601"/>
    <nd ref="9020031600"/>
    <nd ref="9020031599"/>
    <nd ref="9020031602"/>
    <tag k="building" v="yes"/>
    <tag k="name" v="Game Larder"/>
  </way>
  <way id="1086559821" version="1" timestamp="2022-08-16T01:02:36Z" changeset="124949268" uid="13341565" user="Falsernet">
    <nd ref="311546287"/>
    <nd ref="2298277386"/>
    <nd ref="5313619"/>
    <nd ref="3285803982"/>
    <nd ref="440947581"/>
    <nd ref="440947582"/>
    <nd ref="1545109340"/>
    <tag k="alt_name" v="St Neots Road"/>
    <tag k="bracket_ref" v="A428"/>
    <tag k="highway" v="trunk"/>
    <tag k="lanes" v="2"/>
    <tag k="lit" v="no"/>
    <tag k="maxspeed" v="50 mph"/>
    <tag k="name" v="Madingley Road"/>
    <tag k="note:name" v="No name signs along this stretch, but Web sites of places along it all call it &quot;Madingley Road&quot;.Government sources call the parts in the parish of Madingley &quot;St Neots Road&quot; and some give the two sides different names where the boundary follows the road."/>
    <tag k="ref" v="A1303"/>
    <tag k="source:highway" v="signs"/>
  </way>
  <way id="1112310624" version="4" timestamp="2024-10-28T18:39:09Z" changeset="158468897" uid="1102246" user="jtn20">
    <nd ref="5313626"/>
    <nd ref="391794710"/>
    <nd ref="12070584697"/>
    <nd ref="23768305"/>
    <nd ref="294008602"/>
    <nd ref="294008601"/>
    <nd ref="1495487052"/>
    <nd ref="294008600"/>
    <nd ref="23768302"/>
    <nd ref="12294470163"/>
    <tag k="cycleway:right" v="lane"/>
    <tag k="highway" v="tertiary"/>
    <tag k="lanes" v="1"/>
    <tag k="lit" v="no"/>
    <tag k="maxspeed" v="40 mph"/>
    <tag k="maxspeed:type" v="sign"/>
    <tag k="name" v="Cambridge Road"/>
    <tag k="oneway" v="yes"/>
    <tag k="oneway:bicycle" v="no"/>
    <tag k="sidewalk" v="no"/>
    <tag k="source:lit" v="survey"/>
    <tag k="source:name" v="local_knowledge"/>
    <tag k="surface" v="asphalt"/>
  </way>
  <way id="1112310626" version="5" timestamp="2024-11-20T14:34:54Z" changeset="159368737" uid="20475686" user="Dan200">
    <nd ref="12294470163"/>
    <nd ref="10176101399"/>
    <nd ref="294008599"/>
    <nd ref="10176101397"/>
    <nd ref="8891918991"/>
    <nd ref="8891918996"/>
    <nd ref="279406438"/>
    <nd ref="23768299"/>
    <nd ref="23768294"/>
    <nd ref="23768269"/>
    <nd ref="2298295789"/>
    <nd ref="2298295735"/>
    <nd ref="2298295807"/>
    <nd ref="2298295823"/>
    <nd ref="2298295775"/>
    <nd ref="8891147958"/>
    <nd ref="23769250"/>
    <tag k="cycleway:both" v="no"/>
    <tag k="highway" v="tertiary"/>
    <tag k="lit" v="no"/>
    <tag k="maxspeed" v="40 mph"/>
    <tag k="maxspeed:type" v="sign"/>
    <tag k="motor_vehicle" v="destination"/>
    <tag k="name" v="Cambridge Road"/>
    <tag k="oneway" v="no"/>
    <tag k="sidewalk" v="no"/>
    <tag k="source:lit" v="survey"/>
    <tag k="source:name" v="local_knowledge"/>
    <tag k="surface" v="asphalt"/>
  </way>
  <way id="1178795702" version="1" timestamp="2023-06-04T16:33:10Z" changeset="136940125" uid="281267" user="smb1001">
    <nd ref="2503950206"/>
    <nd ref="10951761773"/>
    <nd ref="10951761780"/>
    <nd ref="10951761775"/>
    <nd ref="10951761767"/>
    <nd ref="2503950294"/>
    <nd ref="2503950206"/>
    <tag k="addr:housenumber" v="22"/>
    <tag k="addr:postcode" v="CB23 8AB"/>
    <tag k="addr:street" v="High Street"/>
    <tag k="building" v="yes"/>
  </way>
  <way id="1178795704" version="1" timestamp="2023-06-04T16:33:10Z" changeset="136940125" uid="281267" user="smb1001">
    <nd ref="2503950372"/>
    <nd ref="10951761772"/>
    <nd ref="10951761784"/>
    <nd ref="2503950356"/>
    <nd ref="2503950372"/>
    <tag k="addr:housenumber" v="20"/>
    <tag k="addr:postcode" v="CB23 8AB"/>
    <tag k="addr:street" v="High Street"/>
    <tag k="building" v="yes"/>
  </way>
  <way id="1178795705" version="1" timestamp="2023-06-04T16:33:10Z" changeset="136940125" uid="281267" user="smb1001">
    <nd ref="10951761770"/>
    <nd ref="10951761764"/>
    <nd ref="10951761777"/>
    <nd ref="10951761782"/>
    <nd ref="10951761770"/>
    <tag k="addr:housenumber" v="26"/>
    <tag k="addr:postcode" v="CB23 8AB"/>
    <tag k="addr:street" v="High Street"/>
    <tag k="building" v="yes"/>
  </way>
  <way id="1328866094" version="1" timestamp="2024-10-28T18:39:09Z" changeset="158468897" uid="1102246" user="jtn20">
    <nd ref="23768580"/>
    <nd ref="23768576"/>
    <nd ref="8565602259"/>
    <nd ref="8565602256"/>
    <nd ref="23768573"/>
    <tag k="cycleway:both" v="no"/>
    <tag k="est_width" v="7"/>
    <tag k="hgv" v="discouraged"/>
    <tag k="highway" v="tertiary"/>
    <tag k="lanes" v="2"/>
    <tag k="maxspeed" v="40 mph"/>
    <tag k="maxspeed:type" v="sign"/>
    <tag k="name" v="The Avenue"/>
    <tag k="source:name" v="local_knowledge"/>
    <tag k="surface" v="asphalt"/>
  </way>
  <way id="1366534438" version="1" timestamp="2025-03-12T11:07:49Z" changeset="163522564" uid="5229644" user="Nathan_A_RF">
    <nd ref="1208072386"/>
    <nd ref="12655866555"/>
    <nd ref="12655866556"/>
    <nd ref="1565571980"/>
    <tag k="alt_description" v="Ipswich - Weedon Trunk Road"/>
    <tag k="bicycle" v="no"/>
    <tag k="description" v="Cambridge Northern Bypass"/>
    <tag k="expressway" v="yes"/>
    <tag k="foot" v="no"/>
    <tag k="highway" v="trunk"/>
    <tag k="horse" v="no"/>
    <tag k="lanes" v="1"/>
    <tag k="lit" v="yes"/>
    <tag k="maxheight" v="default"/>
    <tag k="maxspeed" v="70 mph"/>
    <tag k="maxspeed:type" v="GB:nsl_dual"/>
    <tag k="national_highways:area" v="8"/>
    <tag k="old_ref" v="A45"/>
    <tag k="oneway" v="yes"/>
    <tag k="operator" v="National Highways"/>
    <tag k="operator:wikidata" v="Q5760006"/>
    <tag k="ref" v="A428"/>
    <tag k="surface" v="asphalt"/>
  </way>
  <way id="1366534439" version="1" timestamp="2025-03-12T11:07:49Z" changeset="163522564" uid="5229644" user="Nathan_A_RF">
    <nd ref="1208072386"/>
    <nd ref="620912"/>
    <tag k="agricultural" v="no"/>
    <tag k="bicycle" v="no"/>
    <tag k="carriage" v="no"/>
    <tag k="carriageway_ref" v="B"/>
    <tag k="dual_carriageway" v="yes"/>
    <tag k="expressway" v="yes"/>
    <tag k="foot" v="no"/>
    <tag k="highway" v="trunk"/>
    <tag k="horse" v="no"/>
    <tag k="int_ref" v="E 24"/>
    <tag k="lanes" v="2"/>
    <tag k="maxheight" v="default"/>
    <tag k="maxspeed" v="70 mph"/>
    <tag k="maxspeed:type" v="GB:nsl_dual"/>
    <tag k="maxspeed:variable" v="no"/>
    <tag k="motorcycle:conditional" v="no @ (displacement &lt; 50 cc)"/>
    <tag k="motorroad" v="yes"/>
    <tag k="national_highways:area" v="8"/>
    <tag k="oneway" v="yes"/>
    <tag k="operator" v="National Highways"/>
    <tag k="operator:wikidata" v="Q5760006"/>
    <tag k="ref" v="A14"/>
    <tag k="surface" v="asphalt"/>
  </way>

</osm>
