<?xml version="1.0" encoding="UTF-8"?>
<osm version="0.6" generator="Overpass API 0.7.62.5 1bd436f1">
<note>The data included in this document is from www.openstreetmap.org. The data is made available under ODbL.</note>
<meta osm_base="2025-03-25T15:31:43Z" areas="2025-02-06T02:17:44Z"/>

  <way id="3997322" version="16" timestamp="2025-02-27T19:55:50Z" changeset="163026871" uid="5229644" user="Nathan_A_RF">
    <nd ref="13337304"/>
    <nd ref="12164530371"/>
    <nd ref="13337303"/>
    <nd ref="1856992810"/>
    <nd ref="20960398"/>
    <nd ref="13337302"/>
    <nd ref="16569617"/>
    <nd ref="9075120130"/>
    <nd ref="1857156088"/>
    <nd ref="16569618"/>
    <nd ref="1857156230"/>
    <nd ref="16569619"/>
    <nd ref="3391219941"/>
    <nd ref="16569621"/>
    <nd ref="16569622"/>
    <nd ref="12616300195"/>
    <nd ref="249448018"/>
    <nd ref="16569624"/>
    <nd ref="698075794"/>
    <tag k="highway" v="primary"/>
    <tag k="historic" v="roman_road"/>
    <tag k="lanes" v="2"/>
    <tag k="maxspeed" v="60 mph"/>
    <tag k="maxspeed:type" v="GB:nsl_single"/>
    <tag k="old_ref" v="A11"/>
    <tag k="ref" v="A1304"/>
    <tag k="surface" v="asphalt"/>
  </way>
  <way id="3997353" version="7" timestamp="2022-04-16T19:38:55Z" changeset="119796653" uid="456597" user="4004">
    <nd ref="20960397"/>
    <nd ref="1239219202"/>
    <nd ref="265710052"/>
    <nd ref="20960509"/>
    <nd ref="265710050"/>
    <nd ref="265710049"/>
    <nd ref="265710048"/>
    <nd ref="265710045"/>
    <nd ref="1854371205"/>
    <nd ref="265710047"/>
    <nd ref="265710046"/>
    <nd ref="265710044"/>
    <nd ref="262786663"/>
    <nd ref="265710043"/>
    <nd ref="265710041"/>
    <nd ref="265710042"/>
    <nd ref="262786664"/>
    <nd ref="265710040"/>
    <nd ref="262786665"/>
    <nd ref="262786673"/>
    <tag k="highway" v="unclassified"/>
    <tag k="name" v="Westley Bottom Road"/>
    <tag k="source" v="gps"/>
    <tag k="surface" v="unpaved"/>
  </way>
  <way id="4333146" version="6" timestamp="2025-02-27T21:48:37Z" changeset="163029758" uid="5229644" user="Nathan_A_RF">
    <nd ref="26370218"/>
    <nd ref="26370219"/>
    <nd ref="6819618174"/>
    <nd ref="26370220"/>
    <nd ref="2605341522"/>
    <tag k="highway" v="secondary"/>
    <tag k="maxspeed" v="60 mph"/>
    <tag k="maxspeed:type" v="GB:nsl_single"/>
    <tag k="ref" v="B1061"/>
  </way>
  <way id="4743286" version="6" timestamp="2020-06-08T07:05:39Z" changeset="86335882" uid="10219369" user="pjij">
    <nd ref="30226559"/>
    <nd ref="30226560"/>
    <nd ref="2952507601"/>
    <nd ref="3708039919"/>
    <nd ref="30226561"/>
    <nd ref="2952507599"/>
    <nd ref="30226562"/>
    <nd ref="30226563"/>
    <nd ref="30226564"/>
    <nd ref="7601827339"/>
    <nd ref="30226565"/>
    <nd ref="30226566"/>
    <nd ref="2952507602"/>
    <nd ref="30226567"/>
    <nd ref="30226568"/>
    <nd ref="2952507596"/>
    <nd ref="30226569"/>
    <nd ref="1885757544"/>
    <nd ref="30226570"/>
    <nd ref="30226571"/>
    <nd ref="30226572"/>
    <nd ref="30226573"/>
    <nd ref="30226574"/>
    <nd ref="30226575"/>
    <nd ref="30226576"/>
    <nd ref="30226577"/>
    <nd ref="30226578"/>
    <nd ref="30226580"/>
    <nd ref="30226581"/>
    <nd ref="30226582"/>
    <nd ref="30226583"/>
    <nd ref="30226584"/>
    <nd ref="30226585"/>
    <nd ref="2952507592"/>
    <nd ref="30226586"/>
    <nd ref="2952507593"/>
    <nd ref="30226589"/>
    <tag k="highway" v="tertiary"/>
  </way>
  <way id="24388291" version="11" timestamp="2025-02-27T21:48:37Z" changeset="163029758" uid="5229644" user="Nathan_A_RF">
    <nd ref="26370205"/>
    <nd ref="12624222888"/>
    <nd ref="26370207"/>
    <nd ref="4853905030"/>
    <nd ref="1449537810"/>
    <nd ref="26370208"/>
    <nd ref="6839744355"/>
    <nd ref="26370210"/>
    <nd ref="264658450"/>
    <nd ref="26370211"/>
    <nd ref="3729192384"/>
    <nd ref="26370212"/>
    <nd ref="264658451"/>
    <nd ref="26370213"/>
    <nd ref="4853908796"/>
    <nd ref="26370215"/>
    <nd ref="26370216"/>
    <nd ref="6584115272"/>
    <nd ref="264658438"/>
    <nd ref="8812265193"/>
    <nd ref="26370218"/>
    <tag k="highway" v="secondary"/>
    <tag k="maxspeed" v="60 mph"/>
    <tag k="maxspeed:type" v="GB:nsl_single"/>
    <tag k="name" v="Brinkley Road"/>
    <tag k="ref" v="B1061"/>
    <tag k="source:name" v="dictaphone"/>
  </way>
  <way id="24388294" version="5" timestamp="2021-06-07T14:28:03Z" changeset="105978689" uid="281267" user="smb1001">
    <nd ref="30318696"/>
    <nd ref="264657901"/>
    <nd ref="264657904"/>
    <nd ref="8811925128"/>
    <nd ref="30318699"/>
    <nd ref="8811925059"/>
    <nd ref="264657888"/>
    <nd ref="264658440"/>
    <nd ref="26370218"/>
    <tag k="highway" v="secondary"/>
    <tag k="name" v="Brinkley Road"/>
    <tag k="ref" v="B1052"/>
  </way>
  <way id="24388321" version="3" timestamp="2017-05-16T13:17:50Z" changeset="48731600" uid="84263" user="Robert Whittaker">
    <nd ref="264658390"/>
    <nd ref="264658386"/>
    <nd ref="1948286571"/>
    <nd ref="1948286576"/>
    <nd ref="1948286563"/>
    <nd ref="264658385"/>
    <nd ref="4857764512"/>
    <tag k="highway" v="residential"/>
    <tag k="name" v="The Green"/>
    <tag k="source:name" v="dictaphone"/>
    <tag k="surface" v="unpaved"/>
  </way>
  <way id="24388322" version="2" timestamp="2012-10-06T00:19:09Z" changeset="13379543" uid="836540" user="AndrewBrown">
    <nd ref="264658328"/>
    <nd ref="264658376"/>
    <nd ref="1948286867"/>
    <nd ref="264658375"/>
    <nd ref="1948286921"/>
    <tag k="highway" v="residential"/>
    <tag k="name" v="Elizabeth Way"/>
    <tag k="source:name" v="dictaphone"/>
  </way>
  <way id="24388323" version="5" timestamp="2019-05-29T09:46:20Z" changeset="70726525" uid="9196095" user="mhdrahm">
    <nd ref="264658730"/>
    <nd ref="1448843925"/>
    <nd ref="264658323"/>
    <nd ref="4857764509"/>
    <nd ref="1948286662"/>
    <nd ref="6508432241"/>
    <nd ref="264658327"/>
    <nd ref="1948286664"/>
    <nd ref="264658328"/>
    <nd ref="264658329"/>
    <tag k="highway" v="residential"/>
    <tag k="maxspeed" v="30 mph"/>
    <tag k="name" v="Church Lane"/>
    <tag k="source:name" v="dictaphone"/>
  </way>
  <way id="24388324" version="2" timestamp="2012-10-06T00:19:10Z" changeset="13379543" uid="836540" user="AndrewBrown">
    <nd ref="264658337"/>
    <nd ref="264658736"/>
    <nd ref="1948287029"/>
    <nd ref="1948286922"/>
    <nd ref="264658377"/>
    <tag k="highway" v="unclassified"/>
    <tag k="name" v="The Green"/>
    <tag k="source:name" v="dictaphone"/>
  </way>
  <way id="24388325" version="1" timestamp="2008-05-15T12:53:59Z" changeset="450106" uid="3582" user="davidearl">
    <nd ref="26370225"/>
    <nd ref="264658338"/>
    <tag k="created_by" v="JOSM"/>
    <tag k="highway" v="residential"/>
    <tag k="name" v="Walnut Tree Cottages"/>
    <tag k="source:name" v="dictaphone"/>
  </way>
  <way id="24388326" version="2" timestamp="2012-10-06T00:19:07Z" changeset="13379543" uid="836540" user="AndrewBrown">
    <nd ref="264658311"/>
    <nd ref="1948286691"/>
    <tag k="highway" v="residential"/>
    <tag k="name" v="Back Lane"/>
    <tag k="source:name" v="dictaphone"/>
  </way>
  <way id="24388341" version="8" timestamp="2022-09-18T14:34:59Z" changeset="126333344" uid="1782504" user="corgicity">
    <nd ref="264657729"/>
    <nd ref="8811925101"/>
    <nd ref="8811925222"/>
    <nd ref="6771703667"/>
    <nd ref="264657735"/>
    <nd ref="7153259470"/>
    <nd ref="264657736"/>
    <nd ref="264658468"/>
    <nd ref="6559459174"/>
    <nd ref="2869728297"/>
    <nd ref="6559459169"/>
    <nd ref="262786668"/>
    <nd ref="3502955408"/>
    <nd ref="2869728296"/>
    <nd ref="262786670"/>
    <nd ref="2869728295"/>
    <nd ref="2869728294"/>
    <nd ref="2869728293"/>
    <nd ref="264657733"/>
    <nd ref="2869728292"/>
    <nd ref="10033885595"/>
    <nd ref="264658466"/>
    <tag k="abutters" v="residential"/>
    <tag k="highway" v="tertiary"/>
    <tag k="name" v="Main Street"/>
    <tag k="source" v="gps"/>
    <tag k="source:name" v="dictaphone"/>
  </way>
  <way id="24388344" version="2" timestamp="2020-06-10T06:30:17Z" changeset="86442108" uid="10219373" user="sidhrk">
    <nd ref="264658466"/>
    <nd ref="7607794361"/>
    <nd ref="30318696"/>
    <tag k="highway" v="tertiary"/>
    <tag k="name" v="Main Street"/>
    <tag k="source" v="gps"/>
    <tag k="source:name" v="dictaphone"/>
  </way>
  <way id="24388407" version="8" timestamp="2025-02-27T21:48:37Z" changeset="163029758" uid="5229644" user="Nathan_A_RF">
    <nd ref="12624222887"/>
    <nd ref="30318689"/>
    <nd ref="3502955402"/>
    <nd ref="3502621585"/>
    <nd ref="7097460689"/>
    <nd ref="264658392"/>
    <nd ref="30318696"/>
    <tag k="highway" v="secondary"/>
    <tag k="maxspeed" v="60 mph"/>
    <tag k="maxspeed:type" v="GB:nsl_single"/>
    <tag k="name" v="Brinkley Road"/>
    <tag k="ref" v="B1052"/>
  </way>
  <way id="24388408" version="2" timestamp="2018-11-26T23:45:48Z" changeset="64915489" uid="5173844" user="ndrw6">
    <nd ref="264657904"/>
    <nd ref="6094037747"/>
    <nd ref="264657887"/>
    <tag k="highway" v="residential"/>
    <tag k="name" v="Hartfield Road"/>
    <tag k="source:name" v="dictaphone"/>
  </way>
  <way id="24388409" version="4" timestamp="2023-07-02T17:47:33Z" changeset="138033209" uid="1782504" user="corgicity">
    <nd ref="6094037741"/>
    <nd ref="6094037742"/>
    <nd ref="264657903"/>
    <nd ref="264658393"/>
    <tag k="highway" v="residential"/>
    <tag k="name" v="Brinkley Road"/>
    <tag k="source:name" v="dictaphone"/>
  </way>
  <way id="24388464" version="6" timestamp="2025-02-27T21:48:37Z" changeset="163029758" uid="5229644" user="Nathan_A_RF">
    <nd ref="264658697"/>
    <nd ref="264658395"/>
    <nd ref="7693548444"/>
    <nd ref="7693548437"/>
    <nd ref="264658700"/>
    <tag k="abutters" v="residential"/>
    <tag k="highway" v="secondary"/>
    <tag k="maxspeed" v="30 mph"/>
    <tag k="name" v="Bradley Road"/>
    <tag k="ref" v="B1061"/>
    <tag k="source:name" v="dictaphone"/>
  </way>
  <way id="24388469" version="5" timestamp="2023-11-02T17:50:36Z" changeset="143543460" uid="1287673" user="sloerunner">
    <nd ref="264658388"/>
    <nd ref="7621177600"/>
    <nd ref="264658390"/>
    <tag k="designation" v="public_footpath"/>
    <tag k="foot" v="designated"/>
    <tag k="highway" v="residential"/>
    <tag k="name" v="Sheriffs Court"/>
    <tag k="prow_ref" v="Burrough Green FP 11"/>
    <tag k="source:name" v="dictaphone"/>
  </way>
  <way id="24388472" version="4" timestamp="2021-05-10T00:18:49Z" changeset="104414607" uid="493595" user="Yorvik Prestigitator">
    <nd ref="264658329"/>
    <nd ref="4359112823"/>
    <nd ref="8716083688"/>
    <nd ref="264658391"/>
    <nd ref="26370225"/>
    <tag k="highway" v="residential"/>
    <tag k="maxspeed" v="30 mph"/>
    <tag k="name" v="The Green"/>
    <tag k="source:name" v="dictaphone"/>
  </way>
  <way id="24388477" version="3" timestamp="2015-05-07T09:34:23Z" changeset="30867339" uid="1302721" user="Glucosamine">
    <nd ref="264658384"/>
    <nd ref="1948286441"/>
    <nd ref="264658383"/>
    <nd ref="264658382"/>
    <nd ref="264658381"/>
    <nd ref="3502626274"/>
    <tag k="highway" v="residential"/>
    <tag k="name" v="The Green"/>
    <tag k="source:name" v="dictaphone"/>
    <tag k="surface" v="unpaved"/>
  </way>
  <way id="24388479" version="5" timestamp="2025-02-27T21:48:37Z" changeset="163029758" uid="5229644" user="Nathan_A_RF">
    <nd ref="264658755"/>
    <nd ref="12624222891"/>
    <nd ref="3502626751"/>
    <nd ref="264658753"/>
    <nd ref="26370230"/>
    <nd ref="2952507612"/>
    <nd ref="26370231"/>
    <nd ref="2952507611"/>
    <nd ref="2952507610"/>
    <nd ref="26370233"/>
    <nd ref="26370235"/>
    <nd ref="2952507608"/>
    <nd ref="26370236"/>
    <nd ref="2952507607"/>
    <nd ref="26370238"/>
    <nd ref="2952507605"/>
    <nd ref="26370239"/>
    <nd ref="2952507603"/>
    <nd ref="26370240"/>
    <nd ref="2952507600"/>
    <nd ref="2952507598"/>
    <nd ref="2952507597"/>
    <nd ref="26370241"/>
    <nd ref="2952507595"/>
    <nd ref="2952507594"/>
    <nd ref="30226589"/>
    <tag k="highway" v="secondary"/>
    <tag k="maxspeed" v="60 mph"/>
    <tag k="maxspeed:type" v="GB:nsl_single"/>
    <tag k="ref" v="B1061"/>
    <tag k="source" v="gps"/>
  </way>
  <way id="24388481" version="3" timestamp="2020-07-10T06:28:47Z" changeset="87798279" uid="10255276" user="contrai1">
    <nd ref="30226589"/>
    <nd ref="26370242"/>
    <nd ref="26370244"/>
    <nd ref="2952507591"/>
    <nd ref="2952507590"/>
    <nd ref="30226587"/>
    <nd ref="2952507589"/>
    <nd ref="7701317421"/>
    <nd ref="264658778"/>
    <tag k="highway" v="secondary"/>
    <tag k="ref" v="B1061"/>
    <tag k="source" v="gps"/>
  </way>
  <way id="24388482" version="3" timestamp="2011-03-08T06:39:09Z" changeset="7491324" uid="4951" user="PeterEastern">
    <nd ref="264658778"/>
    <nd ref="1192325700"/>
    <tag k="bridge" v="yes"/>
    <tag k="highway" v="secondary"/>
    <tag k="layer" v="1"/>
    <tag k="ref" v="B1061"/>
    <tag k="source" v="gps"/>
  </way>
  <way id="58000779" version="3" timestamp="2012-05-14T15:49:06Z" changeset="11596997" uid="504708" user="HillWithSmallFields">
    <nd ref="262786673"/>
    <nd ref="430855727"/>
    <nd ref="265710039"/>
    <nd ref="1419272509"/>
    <nd ref="430855725"/>
    <nd ref="430855726"/>
    <nd ref="265710038"/>
    <nd ref="430855724"/>
    <nd ref="1419272547"/>
    <nd ref="262786674"/>
    <nd ref="265710037"/>
    <nd ref="265710036"/>
    <nd ref="430855723"/>
    <nd ref="262786675"/>
    <nd ref="265710035"/>
    <nd ref="430855722"/>
    <nd ref="265710034"/>
    <nd ref="1752637950"/>
    <nd ref="262786677"/>
    <nd ref="430855721"/>
    <nd ref="264658162"/>
    <tag k="highway" v="tertiary"/>
    <tag k="name" v="Balsham Lane"/>
    <tag k="source" v="gps"/>
  </way>
  <way id="184361138" version="2" timestamp="2015-09-04T09:20:49Z" changeset="33789132" uid="1302721" user="Glucosamine">
    <nd ref="264658312"/>
    <nd ref="1948286691"/>
    <nd ref="264658338"/>
    <nd ref="3728923191"/>
    <nd ref="1948287044"/>
    <nd ref="264658317"/>
    <nd ref="1948287194"/>
    <nd ref="1948287363"/>
    <tag k="highway" v="residential"/>
    <tag k="name" v="Back Lane"/>
    <tag k="source:name" v="dictaphone"/>
  </way>
  <way id="184361153" version="1" timestamp="2012-10-06T00:18:49Z" changeset="13379543" uid="836540" user="AndrewBrown">
    <nd ref="1948286751"/>
    <nd ref="1948286736"/>
    <nd ref="1948286732"/>
    <nd ref="1948286720"/>
    <nd ref="1948286700"/>
    <nd ref="1948286708"/>
    <nd ref="1948286703"/>
    <nd ref="1948286715"/>
    <nd ref="1948286751"/>
    <tag k="addr:city" v="Church Lane"/>
    <tag k="addr:housenumber" v="1"/>
    <tag k="addr:street" v="Elizabeth Way"/>
    <tag k="building" v="house"/>
  </way>
  <way id="184361154" version="2" timestamp="2023-02-01T13:02:38Z" changeset="131962812" uid="2969887" user="eastender">
    <nd ref="1948286549"/>
    <nd ref="1948286544"/>
    <nd ref="1948286537"/>
    <nd ref="1948286540"/>
    <nd ref="1948286549"/>
    <tag k="addr:housenumber" v="1"/>
    <tag k="addr:street" v="Sheriffs Court"/>
    <tag k="building" v="house"/>
  </way>
  <way id="184361155" version="1" timestamp="2012-10-06T00:18:49Z" changeset="13379543" uid="836540" user="AndrewBrown">
    <nd ref="1948286905"/>
    <nd ref="1948286918"/>
    <nd ref="1948286870"/>
    <nd ref="1948286853"/>
    <nd ref="1948286905"/>
    <tag k="addr:city" v="Church Lane"/>
    <tag k="addr:housenumber" v="10"/>
    <tag k="addr:street" v="Elizabeth Way"/>
    <tag k="building" v="house"/>
  </way>
  <way id="184361156" version="1" timestamp="2012-10-06T00:18:49Z" changeset="13379543" uid="836540" user="AndrewBrown">
    <nd ref="1948286715"/>
    <nd ref="1948286722"/>
    <nd ref="1948286733"/>
    <nd ref="1948286742"/>
    <nd ref="1948286759"/>
    <nd ref="1948286754"/>
    <nd ref="1948286756"/>
    <nd ref="1948286751"/>
    <nd ref="1948286715"/>
    <tag k="addr:city" v="Church Lane"/>
    <tag k="addr:housenumber" v="2"/>
    <tag k="addr:street" v="Elizabeth Way"/>
    <tag k="building" v="house"/>
  </way>
  <way id="184361157" version="2" timestamp="2023-02-01T13:02:38Z" changeset="131962812" uid="2969887" user="eastender">
    <nd ref="1948286354"/>
    <nd ref="1948286351"/>
    <nd ref="1948286370"/>
    <nd ref="1948286373"/>
    <nd ref="1948286375"/>
    <nd ref="1948286354"/>
    <tag k="addr:housenumber" v="25"/>
    <tag k="addr:street" v="Sheriffs Court"/>
    <tag k="building" v="house"/>
  </way>
  <way id="184361158" version="2" timestamp="2023-02-01T13:02:38Z" changeset="131962812" uid="2969887" user="eastender">
    <nd ref="1948286383"/>
    <nd ref="1948286381"/>
    <nd ref="1948286377"/>
    <nd ref="1948286360"/>
    <nd ref="1948286355"/>
    <nd ref="1948286362"/>
    <nd ref="1948286383"/>
    <tag k="addr:housenumber" v="29"/>
    <tag k="addr:street" v="Sheriffs Court"/>
    <tag k="building" v="house"/>
  </way>
  <way id="184361159" version="2" timestamp="2018-11-26T23:45:51Z" changeset="64915489" uid="5173844" user="ndrw6">
    <nd ref="1948286843"/>
    <nd ref="1948286840"/>
    <nd ref="1948286836"/>
    <nd ref="1948286819"/>
    <nd ref="1948286828"/>
    <nd ref="1948286824"/>
    <nd ref="1948286831"/>
    <nd ref="1948286850"/>
    <nd ref="1948286843"/>
    <tag k="addr:city" v="Church Lane"/>
    <tag k="addr:housenumber" v="3"/>
    <tag k="addr:postcode" v="CB8 9NF"/>
    <tag k="addr:street" v="Elizabeth Way"/>
    <tag k="building" v="house"/>
  </way>
  <way id="184361160" version="2" timestamp="2023-02-01T13:02:38Z" changeset="131962812" uid="2969887" user="eastender">
    <nd ref="1948286540"/>
    <nd ref="1948286527"/>
    <nd ref="1948286523"/>
    <nd ref="1948286537"/>
    <nd ref="1948286540"/>
    <tag k="addr:housenumber" v="3"/>
    <tag k="addr:street" v="Sheriffs Court"/>
    <tag k="building" v="house"/>
  </way>
  <way id="184361161" version="3" timestamp="2023-02-01T13:02:38Z" changeset="131962812" uid="2969887" user="eastender">
    <nd ref="1948286416"/>
    <nd ref="1948286411"/>
    <nd ref="1948286391"/>
    <nd ref="1948286395"/>
    <nd ref="1948286416"/>
    <tag k="addr:housenumber" v="31"/>
    <tag k="addr:postcode" v="CB8 9NJ"/>
    <tag k="addr:street" v="Sheriffs Court"/>
    <tag k="building" v="house"/>
  </way>
  <way id="184361162" version="3" timestamp="2023-02-01T13:02:38Z" changeset="131962812" uid="2969887" user="eastender">
    <nd ref="1948286429"/>
    <nd ref="1948286422"/>
    <nd ref="1948286421"/>
    <nd ref="1948286401"/>
    <nd ref="1948286398"/>
    <nd ref="1948286402"/>
    <nd ref="1948286429"/>
    <tag k="addr:housenumber" v="35"/>
    <tag k="addr:postcode" v="CB8 9NJ"/>
    <tag k="addr:street" v="Sheriffs Court"/>
    <tag k="building" v="house"/>
  </way>
  <way id="184361163" version="1" timestamp="2012-10-06T00:18:50Z" changeset="13379543" uid="836540" user="AndrewBrown">
    <nd ref="1948286850"/>
    <nd ref="1948286856"/>
    <nd ref="1948286860"/>
    <nd ref="1948286855"/>
    <nd ref="1948286863"/>
    <nd ref="1948286849"/>
    <nd ref="1948286842"/>
    <nd ref="1948286839"/>
    <nd ref="1948286831"/>
    <nd ref="1948286850"/>
    <tag k="addr:city" v="Church Lane"/>
    <tag k="addr:housenumber" v="4"/>
    <tag k="addr:street" v="Elizabeth Way"/>
    <tag k="building" v="house"/>
  </way>
  <way id="184361164" version="1" timestamp="2012-10-06T00:18:51Z" changeset="13379543" uid="836540" user="AndrewBrown">
    <nd ref="1948286980"/>
    <nd ref="1948286919"/>
    <nd ref="1948286917"/>
    <nd ref="1948286906"/>
    <nd ref="1948286901"/>
    <nd ref="1948286910"/>
    <nd ref="1948286907"/>
    <nd ref="1948286961"/>
    <nd ref="1948286980"/>
    <tag k="addr:city" v="Church Lane"/>
    <tag k="addr:housenumber" v="5"/>
    <tag k="addr:street" v="Elizabeth Way"/>
    <tag k="building" v="house"/>
  </way>
  <way id="184361165" version="2" timestamp="2023-02-01T13:02:38Z" changeset="131962812" uid="2969887" user="eastender">
    <nd ref="1948286514"/>
    <nd ref="1948286518"/>
    <nd ref="1948286470"/>
    <nd ref="1948286465"/>
    <nd ref="1948286514"/>
    <tag k="addr:housenumber" v="5"/>
    <tag k="addr:street" v="Sheriffs Court"/>
    <tag k="building" v="house"/>
  </way>
  <way id="184361166" version="1" timestamp="2012-10-06T00:18:51Z" changeset="13379543" uid="836540" user="AndrewBrown">
    <nd ref="1948286961"/>
    <nd ref="1948287022"/>
    <nd ref="1948287030"/>
    <nd ref="1948286980"/>
    <nd ref="1948286961"/>
    <tag k="addr:city" v="Church Lane"/>
    <tag k="addr:housenumber" v="6"/>
    <tag k="addr:street" v="Elizabeth Way"/>
    <tag k="building" v="house"/>
  </way>
  <way id="184361167" version="1" timestamp="2012-10-06T00:18:51Z" changeset="13379543" uid="836540" user="AndrewBrown">
    <nd ref="1948287037"/>
    <nd ref="1948287068"/>
    <nd ref="1948287040"/>
    <nd ref="1948287051"/>
    <nd ref="1948287038"/>
    <nd ref="1948287064"/>
    <nd ref="1948287031"/>
    <nd ref="1948287027"/>
    <nd ref="1948287016"/>
    <nd ref="1948287000"/>
    <nd ref="1948287037"/>
    <tag k="addr:city" v="Church Lane"/>
    <tag k="addr:housenumber" v="7"/>
    <tag k="addr:street" v="Elizabeth Way"/>
    <tag k="building" v="house"/>
  </way>
  <way id="184361168" version="1" timestamp="2012-10-06T00:18:51Z" changeset="13379543" uid="836540" user="AndrewBrown">
    <nd ref="1948287000"/>
    <nd ref="1948286988"/>
    <nd ref="1948287014"/>
    <nd ref="1948287010"/>
    <nd ref="1948287025"/>
    <nd ref="1948287037"/>
    <nd ref="1948287000"/>
    <tag k="addr:city" v="Church Lane"/>
    <tag k="addr:housenumber" v="8"/>
    <tag k="addr:street" v="Elizabeth Way"/>
    <tag k="building" v="house"/>
  </way>
  <way id="184361169" version="1" timestamp="2012-10-06T00:18:51Z" changeset="13379543" uid="836540" user="AndrewBrown">
    <nd ref="1948286918"/>
    <nd ref="1948286966"/>
    <nd ref="1948286976"/>
    <nd ref="1948286992"/>
    <nd ref="1948286973"/>
    <nd ref="1948286933"/>
    <nd ref="1948286945"/>
    <nd ref="1948286905"/>
    <nd ref="1948286918"/>
    <tag k="addr:city" v="Church Lane"/>
    <tag k="addr:housenumber" v="9"/>
    <tag k="addr:street" v="Elizabeth Way"/>
    <tag k="building" v="house"/>
  </way>
  <way id="184361170" version="2" timestamp="2023-02-01T13:02:38Z" changeset="131962812" uid="2969887" user="eastender">
    <nd ref="1948286494"/>
    <nd ref="1948286481"/>
    <nd ref="1948286453"/>
    <nd ref="1948286459"/>
    <nd ref="1948286494"/>
    <tag k="addr:housenumber" v="9"/>
    <tag k="addr:street" v="Sheriffs Court"/>
    <tag k="building" v="house"/>
  </way>
  <way id="254733288" version="3" timestamp="2025-02-27T21:48:37Z" changeset="163029758" uid="5229644" user="Nathan_A_RF">
    <nd ref="2605341522"/>
    <nd ref="26370221"/>
    <nd ref="12624222889"/>
    <nd ref="264658695"/>
    <nd ref="264658697"/>
    <tag k="highway" v="secondary"/>
    <tag k="maxspeed" v="60 mph"/>
    <tag k="maxspeed:type" v="GB:nsl_single"/>
    <tag k="ref" v="B1061"/>
  </way>
  <way id="254733291" version="10" timestamp="2017-07-15T12:03:04Z" changeset="50304608" uid="6121452" user="Toddington Tom">
    <nd ref="264658700"/>
    <nd ref="26370223"/>
    <nd ref="264658702"/>
    <nd ref="264658710"/>
    <nd ref="3728883165"/>
    <tag k="abutters" v="residential"/>
    <tag k="highway" v="secondary"/>
    <tag k="maxspeed" v="30 mph"/>
    <tag k="name" v="Bradley Road"/>
    <tag k="ref" v="B1061"/>
    <tag k="source:name" v="dictaphone"/>
  </way>
  <way id="366521851" version="7" timestamp="2025-02-24T17:50:16Z" changeset="162903004" uid="5008136" user="JayTurnr">
    <nd ref="13337305"/>
    <nd ref="12164530374"/>
    <nd ref="3705051654"/>
    <nd ref="3705049899"/>
    <nd ref="12164530373"/>
    <nd ref="3705049879"/>
    <nd ref="12164530369"/>
    <nd ref="13337304"/>
    <tag k="dual_carriageway" v="yes"/>
    <tag k="highway" v="primary"/>
    <tag k="lanes" v="1"/>
    <tag k="maxspeed" v="70 mph"/>
    <tag k="maxspeed:type" v="GB:nsl_dual"/>
    <tag k="old_ref" v="A11"/>
    <tag k="oneway" v="yes"/>
    <tag k="ref" v="A1304"/>
    <tag k="surface" v="asphalt"/>
  </way>
  <way id="507759205" version="1" timestamp="2017-07-15T12:03:03Z" changeset="50304608" uid="6121452" user="Toddington Tom">
    <nd ref="3728883165"/>
    <nd ref="264658337"/>
    <tag k="abutters" v="residential"/>
    <tag k="highway" v="secondary"/>
    <tag k="maxspeed" v="30 mph"/>
    <tag k="name" v="Bradley Road"/>
    <tag k="ref" v="B1061"/>
    <tag k="source:name" v="dictaphone"/>
  </way>
  <way id="507759206" version="5" timestamp="2025-02-27T21:48:37Z" changeset="163029758" uid="5229644" user="Nathan_A_RF">
    <nd ref="264658337"/>
    <nd ref="4857764825"/>
    <nd ref="26370225"/>
    <nd ref="6508432234"/>
    <nd ref="264658335"/>
    <nd ref="1948286496"/>
    <nd ref="26370226"/>
    <nd ref="3502626274"/>
    <nd ref="264658751"/>
    <nd ref="4861273163"/>
    <nd ref="26370227"/>
    <nd ref="4857775067"/>
    <nd ref="264658750"/>
    <nd ref="12624222890"/>
    <nd ref="26370228"/>
    <nd ref="4857780896"/>
    <nd ref="7113719149"/>
    <nd ref="4857780900"/>
    <nd ref="264658752"/>
    <nd ref="264658755"/>
    <tag k="abutters" v="residential"/>
    <tag k="highway" v="secondary"/>
    <tag k="maxspeed" v="30 mph"/>
    <tag k="name" v="Bradley Road"/>
    <tag k="ref" v="B1061"/>
    <tag k="source:name" v="dictaphone"/>
  </way>
  <way id="760615693" version="1" timestamp="2020-01-03T20:51:29Z" changeset="79172997" uid="6146371" user="bervan">
    <nd ref="264658387"/>
    <nd ref="264658388"/>
    <tag k="highway" v="residential"/>
    <tag k="name" v="Sheriffs Court"/>
    <tag k="source:name" v="dictaphone"/>
  </way>
  <way id="816033256" version="3" timestamp="2023-10-11T07:51:30Z" changeset="142424187" uid="8774347" user="Misa_zumba">
    <nd ref="7621177600"/>
    <nd ref="7621177601"/>
    <nd ref="7621177602"/>
    <nd ref="7621177603"/>
    <nd ref="7621177604"/>
    <nd ref="7621177605"/>
    <nd ref="7621177606"/>
    <nd ref="7621177607"/>
    <nd ref="7621177608"/>
    <nd ref="7621177609"/>
    <nd ref="7621177610"/>
    <nd ref="7621177612"/>
    <nd ref="9677252054"/>
    <tag k="highway" v="residential"/>
    <tag k="name" v="Sheriffs Court"/>
  </way>
  <way id="1053027203" version="1" timestamp="2022-04-19T13:22:56Z" changeset="119907662" uid="5173844" user="ndrw6">
    <nd ref="7621177610"/>
    <nd ref="9677252055"/>
    <tag k="highway" v="residential"/>
  </way>
  <way id="1186562158" version="2" timestamp="2023-07-05T16:02:41Z" changeset="138154283" uid="474183" user="ratrun">
    <nd ref="264657901"/>
    <nd ref="264657902"/>
    <nd ref="6094037741"/>
    <nd ref="11020704336"/>
    <nd ref="11020704337"/>
    <nd ref="11020704338"/>
    <nd ref="11020704339"/>
    <nd ref="11020704340"/>
    <nd ref="11020704341"/>
    <tag k="highway" v="residential"/>
    <tag k="source:name" v="dictaphone"/>
  </way>
  <way id="1220341435" version="1" timestamp="2023-11-02T17:50:36Z" changeset="143543460" uid="1287673" user="sloerunner">
    <nd ref="264658390"/>
    <nd ref="1948286609"/>
    <nd ref="264658329"/>
    <tag k="highway" v="residential"/>
    <tag k="name" v="Sheriffs Court"/>
    <tag k="source:name" v="dictaphone"/>
  </way>
  <way id="1285245521" version="3" timestamp="2025-02-24T17:48:16Z" changeset="162902929" uid="5008136" user="JayTurnr">
    <nd ref="13337305"/>
    <nd ref="12164530376"/>
    <nd ref="1432087237"/>
    <nd ref="1432087309"/>
    <nd ref="1432087241"/>
    <nd ref="13337306"/>
    <nd ref="20960480"/>
    <tag k="highway" v="primary"/>
    <tag k="historic" v="roman_road"/>
    <tag k="lanes" v="2"/>
    <tag k="maxspeed" v="60 mph"/>
    <tag k="maxspeed:type" v="GB:nsl_single"/>
    <tag k="old_ref" v="A11"/>
    <tag k="ref" v="A1304"/>
    <tag k="source:ref" v="local knowledge"/>
    <tag k="surface" v="asphalt"/>
  </way>
  <way id="1285245522" version="4" timestamp="2025-02-26T14:38:18Z" changeset="162974731" uid="5229644" user="Nathan_A_RF">
    <nd ref="13337304"/>
    <nd ref="12164530370"/>
    <nd ref="12164530372"/>
    <nd ref="12620686154"/>
    <nd ref="1417293288"/>
    <nd ref="12164530375"/>
    <nd ref="13337305"/>
    <tag k="dual_carriageway" v="yes"/>
    <tag k="highway" v="primary"/>
    <tag k="historic" v="roman_road"/>
    <tag k="lanes" v="2"/>
    <tag k="maxspeed" v="70 mph"/>
    <tag k="maxspeed:type" v="GB:nsl_dual"/>
    <tag k="old_ref" v="A11"/>
    <tag k="oneway" v="yes"/>
    <tag k="ref" v="A1304"/>
    <tag k="surface" v="asphalt"/>
  </way>

</osm>
