<?xml version="1.0" encoding="UTF-8"?>
<osm version="0.6" generator="Overpass API 0.7.62.5 1bd436f1">
<note>The data included in this document is from www.openstreetmap.org. The data is made available under ODbL.</note>
<meta osm_base="2025-03-25T16:04:30Z" areas="2025-02-06T02:17:44Z"/>

  <way id="4991255" version="4" timestamp="2024-06-09T09:43:28Z" changeset="152446488" uid="5173844" user="ndrw6">
    <nd ref="33129153"/>
    <nd ref="11966191612"/>
    <nd ref="33129154"/>
    <nd ref="33129133"/>
    <nd ref="33129129"/>
    <nd ref="33129127"/>
    <nd ref="925853377"/>
    <nd ref="770568766"/>
    <nd ref="33129126"/>
    <nd ref="33129124"/>
    <tag k="abutters" v="residential"/>
    <tag k="highway" v="tertiary"/>
    <tag k="name" v="Whittlesford Road"/>
    <tag k="source:name" v="dictaphone"/>
  </way>
  <way id="4991257" version="9" timestamp="2024-06-09T09:43:28Z" changeset="152446488" uid="5173844" user="ndrw6">
    <nd ref="33129103"/>
    <nd ref="33129150"/>
    <nd ref="33129777"/>
    <nd ref="33129104"/>
    <nd ref="6528375485"/>
    <nd ref="33129105"/>
    <nd ref="33129106"/>
    <nd ref="8646341380"/>
    <nd ref="1933642715"/>
    <nd ref="33129108"/>
    <nd ref="33129109"/>
    <nd ref="33129110"/>
    <nd ref="33129112"/>
    <nd ref="6537168246"/>
    <nd ref="1193490276"/>
    <tag k="highway" v="unclassified"/>
    <tag k="name" v="Town Street"/>
    <tag k="source:name" v="dictaphone"/>
    <tag k="surface" v="asphalt"/>
  </way>
  <way id="4991259" version="2" timestamp="2012-07-16T18:38:26Z" changeset="12249064" uid="714383" user="alterain">
    <nd ref="33129127"/>
    <nd ref="1827836866"/>
    <nd ref="1827836994"/>
    <nd ref="33129128"/>
    <tag k="highway" v="residential"/>
    <tag k="name" v="Cockle Close"/>
    <tag k="source:name" v="dictaphone"/>
  </way>
  <way id="4991260" version="2" timestamp="2024-06-09T09:43:28Z" changeset="152446488" uid="5173844" user="ndrw6">
    <nd ref="33129129"/>
    <nd ref="33129130"/>
    <nd ref="33129131"/>
    <nd ref="11966191634"/>
    <tag k="highway" v="residential"/>
    <tag k="name" v="Kidmans Close"/>
    <tag k="source:name" v="dictaphone"/>
  </way>
  <way id="4991261" version="1" timestamp="2007-07-30T15:52:16Z" changeset="178050" uid="3582" user="davidearl">
    <nd ref="33129130"/>
    <nd ref="33129132"/>
    <tag k="created_by" v="JOSM"/>
    <tag k="highway" v="residential"/>
    <tag k="name" v="Kidmans Close"/>
    <tag k="source:name" v="dictaphone"/>
  </way>
  <way id="4991262" version="1" timestamp="2007-07-30T15:52:16Z" changeset="178050" uid="3582" user="davidearl">
    <nd ref="33129154"/>
    <nd ref="33129161"/>
    <tag k="created_by" v="JOSM"/>
    <tag k="highway" v="residential"/>
    <tag k="name" v="The Green"/>
    <tag k="source:name" v="dictaphone"/>
  </way>
  <way id="4991263" version="6" timestamp="2024-06-09T09:43:28Z" changeset="152446488" uid="5173844" user="ndrw6">
    <nd ref="33129133"/>
    <nd ref="33129134"/>
    <nd ref="1820188763"/>
    <nd ref="33129135"/>
    <nd ref="11966191653"/>
    <nd ref="33129136"/>
    <nd ref="1827805304"/>
    <nd ref="1827805302"/>
    <nd ref="1827805294"/>
    <tag k="highway" v="residential"/>
    <tag k="name" v="Offa Lea"/>
    <tag k="source:name" v="dictaphone"/>
  </way>
  <way id="4991265" version="2" timestamp="2024-06-09T09:43:28Z" changeset="152446488" uid="5173844" user="ndrw6">
    <nd ref="33129101"/>
    <nd ref="11966191523"/>
    <nd ref="33129117"/>
    <nd ref="33129119"/>
    <tag k="highway" v="residential"/>
    <tag k="name" v="New Farm Road"/>
    <tag k="source:name" v="dictaphone"/>
  </way>
  <way id="4991266" version="2" timestamp="2024-06-09T09:43:28Z" changeset="152446488" uid="5173844" user="ndrw6">
    <nd ref="33129117"/>
    <nd ref="33129118"/>
    <nd ref="11966191524"/>
    <tag k="highway" v="residential"/>
    <tag k="name" v="New Farm Road"/>
    <tag k="source:name" v="dictaphone"/>
  </way>
  <way id="4991267" version="2" timestamp="2010-12-08T21:46:10Z" changeset="6589818" uid="21502" user="Kevin Steinhardt">
    <nd ref="33129119"/>
    <nd ref="33129120"/>
    <tag k="fixme" v="Check access restrictions: I think there's a public footpath along this road"/>
    <tag k="highway" v="unclassified"/>
    <tag k="name" v="New Farm Road"/>
    <tag k="source:name" v="dictaphone"/>
  </way>
  <way id="4991273" version="13" timestamp="2023-06-23T09:27:01Z" changeset="137680224" uid="242345" user="confusedbuffalo">
    <nd ref="33129145"/>
    <nd ref="8647877987"/>
    <nd ref="33129171"/>
    <nd ref="1846700718"/>
    <nd ref="33129173"/>
    <nd ref="7730170213"/>
    <nd ref="33129174"/>
    <nd ref="33129175"/>
    <nd ref="33129176"/>
    <nd ref="9219907243"/>
    <nd ref="3174333864"/>
    <tag k="FIXME:nsl" v="inferred single-carriageway NSL - remove this tag once verified"/>
    <tag k="highway" v="tertiary"/>
    <tag k="maxspeed" v="60 mph"/>
    <tag k="maxspeed:type" v="GB:nsl_single"/>
    <tag k="name" v="Newton Road"/>
    <tag k="source" v="GPS"/>
    <tag k="surface" v="asphalt"/>
  </way>
  <way id="4991481" version="4" timestamp="2020-11-03T08:27:05Z" changeset="93466075" uid="10252538" user="Raihas">
    <nd ref="33129103"/>
    <nd ref="33129148"/>
    <nd ref="968831658"/>
    <nd ref="33129143"/>
    <nd ref="8077088868"/>
    <nd ref="33129144"/>
    <nd ref="33129145"/>
    <tag k="abutters" v="residential"/>
    <tag k="highway" v="tertiary"/>
    <tag k="name" v="Harston Road"/>
    <tag k="source" v="GPS"/>
    <tag k="source:name" v="dictaphone"/>
  </way>
  <way id="5015804" version="13" timestamp="2024-12-29T21:34:11Z" changeset="160768719" uid="5229644" user="Nathan_A_RF">
    <nd ref="33408925"/>
    <nd ref="622204321"/>
    <nd ref="33408959"/>
    <nd ref="622204322"/>
    <nd ref="622204323"/>
    <nd ref="622204324"/>
    <nd ref="33408986"/>
    <nd ref="622204325"/>
    <nd ref="622204327"/>
    <nd ref="622204328"/>
    <nd ref="33408958"/>
    <nd ref="622204329"/>
    <nd ref="622204330"/>
    <nd ref="33408984"/>
    <nd ref="33408985"/>
    <nd ref="33408983"/>
    <nd ref="622204331"/>
    <nd ref="622204315"/>
    <nd ref="33408957"/>
    <nd ref="622204316"/>
    <nd ref="33408956"/>
    <nd ref="622204317"/>
    <nd ref="927329118"/>
    <nd ref="33408955"/>
    <nd ref="622204318"/>
    <nd ref="622204319"/>
    <nd ref="927329111"/>
    <nd ref="622204314"/>
    <nd ref="927329163"/>
    <nd ref="927329038"/>
    <nd ref="33408944"/>
    <tag k="highway" v="tertiary"/>
    <tag k="maxspeed" v="60 mph"/>
    <tag k="maxspeed:type" v="GB:nsl_single"/>
    <tag k="name" v="Brook Road"/>
    <tag k="source:name" v="Local knowledge"/>
  </way>
  <way id="5015966" version="18" timestamp="2024-12-29T21:34:11Z" changeset="160768719" uid="5229644" user="Nathan_A_RF">
    <nd ref="33129142"/>
    <nd ref="968831657"/>
    <nd ref="33129169"/>
    <nd ref="33408940"/>
    <nd ref="11580315562"/>
    <nd ref="33408941"/>
    <nd ref="33408942"/>
    <nd ref="927329154"/>
    <nd ref="33408943"/>
    <nd ref="33408944"/>
    <tag k="highway" v="secondary"/>
    <tag k="lit" v="no"/>
    <tag k="maxspeed" v="60 mph"/>
    <tag k="maxspeed:type" v="GB:nsl_single"/>
    <tag k="name" v="Fowlmere Road"/>
    <tag k="ref" v="B1368"/>
    <tag k="source:lit" v="survey (Oct 2010)"/>
    <tag k="source:name" v="OS Opendata StreetView"/>
    <tag k="source:ref" v="dictaphone"/>
  </way>
  <way id="43340384" version="6" timestamp="2024-10-21T15:49:28Z" changeset="158176621" uid="953779" user="Adam Edwards">
    <nd ref="544548699"/>
    <nd ref="12276821937"/>
    <nd ref="33129101"/>
    <nd ref="12276821936"/>
    <nd ref="12276821935"/>
    <nd ref="33129102"/>
    <nd ref="33129151"/>
    <nd ref="33129103"/>
    <tag k="abutters" v="residential"/>
    <tag k="highway" v="secondary"/>
    <tag k="lit" v="yes"/>
    <tag k="maxspeed" v="30 mph"/>
    <tag k="name" v="Cambridge Road"/>
    <tag k="ref" v="B1368"/>
    <tag k="source:lit" v="survey (Oct 2010)"/>
    <tag k="source:name" v="dictaphone"/>
    <tag k="source:ref" v="dictaphone"/>
  </way>
  <way id="48067026" version="8" timestamp="2024-06-09T09:43:28Z" changeset="152446488" uid="5173844" user="ndrw6">
    <nd ref="33129103"/>
    <nd ref="33129153"/>
    <nd ref="1819209050"/>
    <nd ref="3531041389"/>
    <nd ref="33129138"/>
    <nd ref="968831676"/>
    <tag k="abutters" v="residential"/>
    <tag k="highway" v="secondary"/>
    <tag k="lit" v="yes"/>
    <tag k="maxspeed" v="30 mph"/>
    <tag k="name" v="Fowlmere Road"/>
    <tag k="ref" v="B1368"/>
    <tag k="source:lit" v="survey (Oct 2010)"/>
    <tag k="source:name" v="dictaphone"/>
    <tag k="source:ref" v="dictaphone"/>
  </way>
  <way id="49990961" version="7" timestamp="2024-12-29T21:34:11Z" changeset="160768719" uid="5229644" user="Nathan_A_RF">
    <nd ref="33408944"/>
    <nd ref="927328994"/>
    <nd ref="927329098"/>
    <nd ref="927329057"/>
    <nd ref="544548694"/>
    <tag k="highway" v="secondary"/>
    <tag k="maxspeed" v="60 mph"/>
    <tag k="maxspeed:type" v="GB:nsl_single"/>
    <tag k="ref" v="B1368"/>
    <tag k="source:name" v="dictaphone"/>
    <tag k="source:ref" v="dictaphone"/>
  </way>
  <way id="79272848" version="7" timestamp="2024-06-09T09:43:28Z" changeset="152446488" uid="5173844" user="ndrw6">
    <nd ref="33129124"/>
    <nd ref="925853670"/>
    <nd ref="11966191650"/>
    <nd ref="925853780"/>
    <nd ref="1818724840"/>
    <nd ref="925853875"/>
    <nd ref="925853208"/>
    <nd ref="925853291"/>
    <nd ref="33129121"/>
    <nd ref="33129160"/>
    <nd ref="925853217"/>
    <nd ref="925853305"/>
    <nd ref="925853381"/>
    <nd ref="925853695"/>
    <nd ref="1815862269"/>
    <nd ref="925853900"/>
    <nd ref="33129734"/>
    <nd ref="11966184727"/>
    <nd ref="33129735"/>
    <nd ref="925853084"/>
    <nd ref="1484679621"/>
    <nd ref="33129736"/>
    <nd ref="925853938"/>
    <nd ref="770568712"/>
    <nd ref="770568715"/>
    <nd ref="33129737"/>
    <nd ref="770568718"/>
    <nd ref="925853175"/>
    <nd ref="33129738"/>
    <nd ref="770568722"/>
    <nd ref="33129739"/>
    <nd ref="925853855"/>
    <tag k="highway" v="tertiary"/>
    <tag k="name" v="Whittlesford Road"/>
    <tag k="source" v="OS Opendata StreetView"/>
    <tag k="source:name" v="OS Opendata StreetView"/>
  </way>
  <way id="79272878" version="2" timestamp="2010-10-29T15:45:36Z" changeset="6219706" uid="21502" user="Kevin Steinhardt">
    <nd ref="33129140"/>
    <nd ref="33129141"/>
    <tag k="bridge" v="yes"/>
    <tag k="highway" v="secondary"/>
    <tag k="layer" v="1"/>
    <tag k="lit" v="no"/>
    <tag k="maxspeed" v="30 mph"/>
    <tag k="source:lit" v="survey (Oct 2010)"/>
  </way>
  <way id="79272889" version="2" timestamp="2010-10-29T15:45:48Z" changeset="6219706" uid="21502" user="Kevin Steinhardt">
    <nd ref="33129141"/>
    <nd ref="622204312"/>
    <nd ref="544548695"/>
    <nd ref="544548697"/>
    <nd ref="33129142"/>
    <tag k="abutters" v="residential"/>
    <tag k="highway" v="secondary"/>
    <tag k="lit" v="no"/>
    <tag k="maxspeed" v="30 mph"/>
    <tag k="name" v="Fowlmere Road"/>
    <tag k="ref" v="B1368"/>
    <tag k="source:lit" v="survey (Oct 2010)"/>
    <tag k="source:name" v="dictaphone"/>
    <tag k="source:ref" v="dictaphone"/>
  </way>
  <way id="79432931" version="2" timestamp="2024-12-29T21:34:11Z" changeset="160768719" uid="5229644" user="Nathan_A_RF">
    <nd ref="927329098"/>
    <nd ref="927329163"/>
    <tag k="highway" v="tertiary"/>
    <tag k="maxspeed" v="60 mph"/>
    <tag k="maxspeed:type" v="GB:nsl_single"/>
    <tag k="name" v="Brook Road"/>
    <tag k="source" v="OS Opendata StreetView"/>
    <tag k="source:name" v="Local knowledge"/>
  </way>
  <way id="79432932" version="3" timestamp="2024-12-29T21:34:11Z" changeset="160768719" uid="5229644" user="Nathan_A_RF">
    <nd ref="544548694"/>
    <nd ref="544548692"/>
    <tag k="bridge" v="yes"/>
    <tag k="highway" v="secondary"/>
    <tag k="layer" v="1"/>
    <tag k="maxspeed" v="60 mph"/>
    <tag k="maxspeed:type" v="GB:nsl_single"/>
    <tag k="ref" v="B1368"/>
    <tag k="source" v="OS Opendata StreetView"/>
  </way>
  <way id="79432937" version="10" timestamp="2024-12-29T21:34:11Z" changeset="160768719" uid="5229644" user="Nathan_A_RF">
    <nd ref="544548692"/>
    <nd ref="927329089"/>
    <nd ref="544548691"/>
    <nd ref="544548688"/>
    <nd ref="33408945"/>
    <nd ref="33408946"/>
    <nd ref="927329071"/>
    <nd ref="927329069"/>
    <nd ref="671631016"/>
    <nd ref="1193490380"/>
    <nd ref="33408947"/>
    <nd ref="927329113"/>
    <nd ref="33408948"/>
    <nd ref="531923596"/>
    <nd ref="927329035"/>
    <nd ref="927328999"/>
    <nd ref="927329029"/>
    <nd ref="927328993"/>
    <nd ref="33408949"/>
    <nd ref="527868251"/>
    <nd ref="927328975"/>
    <nd ref="33408950"/>
    <nd ref="559787156"/>
    <nd ref="927329092"/>
    <nd ref="33408951"/>
    <nd ref="927329136"/>
    <nd ref="927329150"/>
    <nd ref="33408952"/>
    <nd ref="559787172"/>
    <nd ref="790565060"/>
    <nd ref="790565066"/>
    <nd ref="790565057"/>
    <nd ref="790565061"/>
    <nd ref="559787173"/>
    <nd ref="9722350099"/>
    <nd ref="33408954"/>
    <nd ref="790565058"/>
    <nd ref="559787175"/>
    <nd ref="1041219969"/>
    <nd ref="1041219962"/>
    <nd ref="33408798"/>
    <tag k="highway" v="secondary"/>
    <tag k="lit" v="no"/>
    <tag k="maxspeed" v="60 mph"/>
    <tag k="maxspeed:type" v="GB:nsl_single"/>
    <tag k="name" v="Cambridge Road"/>
    <tag k="ref" v="B1368"/>
    <tag k="source:lit" v="local_knowledge (2010)"/>
  </way>
  <way id="83270541" version="1" timestamp="2010-10-29T15:45:34Z" changeset="6219706" uid="21502" user="Kevin Steinhardt">
    <nd ref="968831676"/>
    <nd ref="622204311"/>
    <nd ref="968831660"/>
    <nd ref="33129140"/>
    <tag k="abutters" v="residential"/>
    <tag k="highway" v="secondary"/>
    <tag k="lit" v="no"/>
    <tag k="maxspeed" v="30 mph"/>
    <tag k="name" v="Fowlmere Road"/>
    <tag k="ref" v="B1368"/>
    <tag k="source:lit" v="survey (Oct 2010)"/>
    <tag k="source:name" v="dictaphone"/>
    <tag k="source:ref" v="dictaphone"/>
  </way>
  <way id="88573082" version="6" timestamp="2023-06-23T09:42:28Z" changeset="137680912" uid="242345" user="confusedbuffalo">
    <nd ref="544548699"/>
    <nd ref="33129170"/>
    <nd ref="8020640889"/>
    <nd ref="33129100"/>
    <nd ref="33129099"/>
    <nd ref="33129096"/>
    <nd ref="622204293"/>
    <nd ref="33129095"/>
    <nd ref="622204292"/>
    <tag k="FIXME:nsl" v="inferred single-carriageway NSL - remove this tag once verified"/>
    <tag k="highway" v="secondary"/>
    <tag k="incline" v="yes"/>
    <tag k="lanes" v="2"/>
    <tag k="lit" v="no"/>
    <tag k="maxspeed" v="60 mph"/>
    <tag k="maxspeed:type" v="GB:nsl_single"/>
    <tag k="name" v="St Margaret's Mount"/>
    <tag k="ref" v="B1368"/>
    <tag k="source:lit" v="survey (Oct 2010)"/>
    <tag k="source:ref" v="dictaphone"/>
  </way>
  <way id="88762735" version="5" timestamp="2023-06-23T09:42:28Z" changeset="137680912" uid="242345" user="confusedbuffalo">
    <nd ref="25779998"/>
    <nd ref="544548713"/>
    <nd ref="25780000"/>
    <nd ref="33129093"/>
    <nd ref="33129094"/>
    <nd ref="622204292"/>
    <tag k="FIXME:nsl" v="inferred single-carriageway NSL - remove this tag once verified"/>
    <tag k="highway" v="secondary"/>
    <tag k="incline" v="yes"/>
    <tag k="lanes" v="2"/>
    <tag k="lit" v="no"/>
    <tag k="maxspeed" v="60 mph"/>
    <tag k="maxspeed:type" v="GB:nsl_single"/>
    <tag k="name" v="St Margaret's Mount"/>
    <tag k="ref" v="B1368"/>
    <tag k="source:lit" v="survey (Oct 2010)"/>
    <tag k="source:ref" v="dictaphone"/>
  </way>
  <way id="170776784" version="2" timestamp="2012-07-09T18:48:55Z" changeset="12165252" uid="714383" user="alterain">
    <nd ref="33129777"/>
    <nd ref="1819209050"/>
    <tag k="highway" v="unclassified"/>
  </way>
  <way id="346592987" version="1" timestamp="2015-05-20T17:04:07Z" changeset="31321031" uid="1952553" user="Matthew Law">
    <nd ref="33129777"/>
    <nd ref="3531041390"/>
    <nd ref="3531041391"/>
    <nd ref="3531041389"/>
    <tag k="highway" v="unclassified"/>
  </way>
  <way id="1290617451" version="1" timestamp="2024-06-09T09:43:28Z" changeset="152446488" uid="5173844" user="ndrw6">
    <nd ref="11966191553"/>
    <nd ref="33129128"/>
    <nd ref="11966191552"/>
    <tag k="highway" v="residential"/>
    <tag k="name" v="Cockle Close"/>
    <tag k="source:name" v="dictaphone"/>
  </way>

</osm>
