<?xml version="1.0" encoding="UTF-8"?>
<osm version="0.6" generator="Overpass API 0.7.62.5 1bd436f1">
<note>The data included in this document is from www.openstreetmap.org. The data is made available under ODbL.</note>
<meta osm_base="2025-04-05T17:15:13Z" areas="2025-02-06T02:17:44Z"/>

  <node id="231478" lat="52.2547852" lon="0.0291072" version="12" timestamp="2021-06-29T00:53:48Z" changeset="107114558" uid="5229644" user="Nathan_A_RF">
    <tag k="highway" v="motorway_junction"/>
    <tag k="name" v="Bar Hill"/>
    <tag k="ref" v="25"/>
  </node>
  <node id="2758993" lat="52.2602165" lon="0.0175109" version="8" timestamp="2021-06-29T00:53:48Z" changeset="107114558" uid="5229644" user="Nathan_A_RF">
    <tag k="highway" v="motorway_junction"/>
    <tag k="name" v="Bar Hill"/>
    <tag k="ref" v="25"/>
  </node>
  <node id="20938934" lat="52.2411953" lon="0.0564226" version="12" timestamp="2022-01-05T07:58:04Z" changeset="115784275" uid="11211647" user="wermak"/>
  <node id="25277881" lat="52.2471731" lon="0.0441601" version="7" timestamp="2021-07-13T22:27:17Z" changeset="107935985" uid="742701" user="kerr smith"/>
  <node id="303202266" lat="52.2468287" lon="0.0829277" version="3" timestamp="2014-10-24T13:04:40Z" changeset="26298472" uid="669183" user="Andy_W"/>
  <node id="320910352" lat="52.2416691" lon="0.0559092" version="4" timestamp="2020-05-08T17:34:45Z" changeset="84908256" uid="8198058" user="ACarlotti"/>
  <node id="474726336" lat="52.2712646" lon="0.0888662" version="3" timestamp="2023-04-25T22:01:50Z" changeset="135361819" uid="1102246" user="jtn20"/>
  <node id="1707747025" lat="52.2598908" lon="0.0641568" version="3" timestamp="2019-01-31T12:44:01Z" changeset="66800768" uid="669183" user="Andy_W">
    <tag k="addr:city" v="Cambridge"/>
    <tag k="addr:housenumber" v="27"/>
    <tag k="addr:postcode" v="CB24 3BB"/>
    <tag k="addr:street" v="Longstanton Road"/>
    <tag k="addr:village" v="Oakington"/>
    <tag k="name" v="Nisa Local"/>
    <tag k="shop" v="convenience"/>
  </node>
  <node id="3571818593" lat="52.2598618" lon="0.0641753" version="7" timestamp="2023-10-21T10:05:08Z" changeset="142916462" uid="6816132" user="CjMalone">
    <tag k="addr:city" v="Cambridge"/>
    <tag k="addr:housenumber" v="27"/>
    <tag k="addr:postcode" v="CB24 3BB"/>
    <tag k="addr:street" v="Longstanton Road"/>
    <tag k="addr:village" v="Oakington"/>
    <tag k="amenity" v="post_office"/>
    <tag k="brand" v="Post Office"/>
    <tag k="brand:wikidata" v="Q1783168"/>
    <tag k="name" v="Oakington Post Office"/>
    <tag k="opening_hours" v="Mo,Tu,Th,Fr 09:00-13:00,14:00-16:30; We 09:00-13:00; Sa 09:00-12:30"/>
    <tag k="ref:pol_id" v="1939"/>
    <tag k="source:opening_hours" v="pol_branch_list_2018-02"/>
    <tag k="website" v="https://www.postoffice.co.uk/branch-finder/1201131/oakington"/>
  </node>
  <node id="4584275673" lat="52.2570038" lon="0.0255392" version="8" timestamp="2024-06-04T17:01:27Z" changeset="152253012" uid="13341565" user="Falsernet"/>
  <node id="5570014032" lat="52.2582605" lon="0.0646093" version="3" timestamp="2019-01-31T12:42:20Z" changeset="66800706" uid="669183" user="Andy_W">
    <tag k="addr:city" v="Cambridge"/>
    <tag k="addr:housenumber" v="1"/>
    <tag k="addr:postcode" v="CB24 3BB"/>
    <tag k="addr:street" v="Longstanton Road"/>
    <tag k="addr:village" v="Oakington"/>
    <tag k="amenity" v="cafe"/>
    <tag k="fhrs:id" v="1024881"/>
    <tag k="name" v="Crossways Communitea Cafe"/>
  </node>
  <node id="5570014033" lat="52.2582278" lon="0.0645002" version="2" timestamp="2019-01-31T12:42:19Z" changeset="66800706" uid="669183" user="Andy_W">
    <tag k="addr:city" v="Cambridge"/>
    <tag k="addr:housenumber" v="1"/>
    <tag k="addr:postcode" v="CB24 3BB"/>
    <tag k="addr:street" v="Longstanton Road"/>
    <tag k="addr:village" v="Oakington"/>
    <tag k="amenity" v="clinic"/>
    <tag k="healthcare" v="clinic"/>
    <tag k="healthcare:speciality" v="osteopathy"/>
    <tag k="name" v="Oakingtons"/>
  </node>
  <node id="5570014044" lat="52.2558638" lon="0.0635943" version="1" timestamp="2018-04-21T23:55:03Z" changeset="58300345" uid="5173844" user="ndrw6">
    <tag k="addr:city" v="Oakington"/>
    <tag k="addr:postcode" v="CB24 3BD"/>
    <tag k="addr:street" v="Dry Drayton Road"/>
    <tag k="amenity" v="animal_boarding"/>
    <tag k="name" v="Oakington Dog Day Care Centre"/>
    <tag k="website" v="https://www.oakingtondogdaycare.co.uk/"/>
  </node>
  <node id="5923016945" lat="52.2553991" lon="0.0301641" version="4" timestamp="2021-07-18T14:49:05Z" changeset="108195466" uid="16089" user="Ben Harris"/>
  <node id="6199591924" lat="52.2640790" lon="0.0316980" version="6" timestamp="2024-06-04T17:31:09Z" changeset="152254217" uid="13341565" user="Falsernet"/>
  <node id="6199591925" lat="52.2637182" lon="0.0316307" version="6" timestamp="2024-06-04T17:31:09Z" changeset="152254217" uid="13341565" user="Falsernet"/>
  <node id="9921509451" lat="52.2583632" lon="0.0653500" version="1" timestamp="2022-07-30T21:11:01Z" changeset="124283085" uid="1102246" user="jtn20">
    <tag k="addr:city" v="Oakington"/>
    <tag k="addr:housenumber" v="2a"/>
    <tag k="addr:street" v="Water Lane"/>
  </node>
  <node id="9921509452" lat="52.2584038" lon="0.0654324" version="1" timestamp="2022-07-30T21:11:01Z" changeset="124283085" uid="1102246" user="jtn20">
    <tag k="addr:city" v="Oakington"/>
    <tag k="addr:housenumber" v="4"/>
    <tag k="addr:street" v="Water Lane"/>
  </node>
  <node id="9921509453" lat="52.2583030" lon="0.0652878" version="1" timestamp="2022-07-30T21:11:01Z" changeset="124283085" uid="1102246" user="jtn20">
    <tag k="addr:city" v="Oakington"/>
    <tag k="addr:housenumber" v="2"/>
    <tag k="addr:street" v="Water Lane"/>
  </node>
  <node id="10840566449" lat="52.2660697" lon="0.0776126" version="1" timestamp="2023-04-25T23:07:04Z" changeset="135362156" uid="1102246" user="jtn20">
    <tag k="addr:housenumber" v="47"/>
    <tag k="addr:street" v="Station Road"/>
  </node>
  <node id="10840566450" lat="52.2661799" lon="0.0779445" version="1" timestamp="2023-04-25T23:07:04Z" changeset="135362156" uid="1102246" user="jtn20">
    <tag k="addr:housenumber" v="57"/>
    <tag k="addr:street" v="Station Road"/>
  </node>
  <node id="11283915107" lat="52.2688774" lon="0.0629611" version="2" timestamp="2023-10-27T15:46:42Z" changeset="143217664" uid="669183" user="Andy_W"/>
  <node id="12098753565" lat="52.2524722" lon="0.0840752" version="1" timestamp="2024-08-08T12:19:36Z" changeset="154976241" uid="8061502" user="galacticism"/>
  <way id="3678095" version="43" timestamp="2024-01-09T14:24:03Z" changeset="146069100" uid="5229644" user="Nathan_A_RF">
    <nd ref="2147730871"/>
    <nd ref="7498891760"/>
    <nd ref="6535897332"/>
    <nd ref="2003839839"/>
    <nd ref="25318807"/>
    <nd ref="7498891761"/>
    <nd ref="6538487345"/>
    <nd ref="26661085"/>
    <nd ref="6780677399"/>
    <nd ref="320909970"/>
    <tag k="agricultural" v="no"/>
    <tag k="bicycle" v="no"/>
    <tag k="carriage" v="no"/>
    <tag k="carriageway_ref" v="A"/>
    <tag k="dual_carriageway" v="yes"/>
    <tag k="expressway" v="yes"/>
    <tag k="foot" v="no"/>
    <tag k="highway" v="trunk"/>
    <tag k="horse" v="no"/>
    <tag k="int_ref" v="E 24"/>
    <tag k="lanes" v="4"/>
    <tag k="lit" v="no"/>
    <tag k="maxspeed" v="70 mph"/>
    <tag k="maxspeed:type" v="GB:nsl_dual"/>
    <tag k="maxspeed:variable" v="peak_traffic"/>
    <tag k="motorcycle:conditional" v="no @ (displacement &lt; 50 cc)"/>
    <tag k="motorroad" v="yes"/>
    <tag k="name" v="Huntingdon Road"/>
    <tag k="national_highways:area" v="8"/>
    <tag k="old_ref" v="A604"/>
    <tag k="oneway" v="yes"/>
    <tag k="operator" v="National Highways"/>
    <tag k="operator:wikidata" v="Q5760006"/>
    <tag k="ref" v="A14"/>
    <tag k="shoulder" v="no"/>
    <tag k="surface" v="asphalt"/>
  </way>
  <way id="4237171" version="7" timestamp="2024-06-01T13:06:55Z" changeset="152119444" uid="104519" user="Rupert Swarbrick">
    <nd ref="25277834"/>
    <nd ref="25277836"/>
    <nd ref="25277837"/>
    <nd ref="25277838"/>
    <nd ref="25277839"/>
    <nd ref="25277840"/>
    <nd ref="25277841"/>
    <nd ref="8648295002"/>
    <nd ref="25277842"/>
    <nd ref="25277843"/>
    <nd ref="25277844"/>
    <nd ref="25277845"/>
    <nd ref="25277846"/>
    <nd ref="25277847"/>
    <nd ref="25277848"/>
    <nd ref="6474959143"/>
    <nd ref="25277849"/>
    <tag k="highway" v="tertiary"/>
    <tag k="lanes" v="2"/>
    <tag k="maxspeed" v="40 mph"/>
    <tag k="maxspeed:type" v="sign"/>
    <tag k="name" v="Cambridge Road"/>
    <tag k="surface" v="asphalt"/>
  </way>
  <way id="4237172" version="17" timestamp="2024-06-01T12:45:56Z" changeset="152119444" uid="104519" user="Rupert Swarbrick">
    <nd ref="1380763277"/>
    <nd ref="25277867"/>
    <nd ref="1105431247"/>
    <nd ref="665508202"/>
    <nd ref="25277868"/>
    <nd ref="25277869"/>
    <tag k="cycleway:both" v="no"/>
    <tag k="highway" v="tertiary"/>
    <tag k="lanes" v="2"/>
    <tag k="maxspeed" v="60 mph"/>
    <tag k="maxspeed:type" v="GB:nsl_single"/>
    <tag k="name" v="Dry Drayton Road"/>
    <tag k="surface" v="asphalt"/>
  </way>
  <way id="4372225" version="13" timestamp="2024-06-01T12:40:20Z" changeset="152119444" uid="104519" user="Rupert Swarbrick">
    <nd ref="25277880"/>
    <nd ref="25277881"/>
    <tag k="bridge" v="yes"/>
    <tag k="highway" v="primary"/>
    <tag k="lanes" v="2"/>
    <tag k="layer" v="1"/>
    <tag k="lit" v="no"/>
    <tag k="maxspeed" v="60 mph"/>
    <tag k="maxspeed:type" v="GB:nsl_single"/>
    <tag k="maxweight:signed" v="no"/>
    <tag k="name" v="Dry Drayton Road"/>
    <tag k="ref" v="A1307"/>
    <tag k="source:lit" v="survey"/>
    <tag k="surface" v="asphalt"/>
  </way>
  <way id="4372242" version="16" timestamp="2024-06-01T12:40:37Z" changeset="152119444" uid="104519" user="Rupert Swarbrick">
    <nd ref="25277875"/>
    <nd ref="1380764971"/>
    <nd ref="4584073022"/>
    <nd ref="6835747549"/>
    <nd ref="1380764498"/>
    <nd ref="25277877"/>
    <nd ref="25277878"/>
    <nd ref="25277879"/>
    <nd ref="25277880"/>
    <tag k="highway" v="primary"/>
    <tag k="lanes" v="2"/>
    <tag k="lit" v="no"/>
    <tag k="maxspeed" v="60 mph"/>
    <tag k="maxspeed:type" v="GB:nsl_single"/>
    <tag k="name" v="Dry Drayton Road"/>
    <tag k="ref" v="A1307"/>
    <tag k="source:lit" v="survey"/>
    <tag k="surface" v="asphalt"/>
  </way>
  <way id="4372758" version="5" timestamp="2024-06-01T12:54:41Z" changeset="152119444" uid="104519" user="Rupert Swarbrick">
    <nd ref="25277858"/>
    <nd ref="5320578052"/>
    <nd ref="5320578053"/>
    <nd ref="5320578050"/>
    <nd ref="5320578051"/>
    <nd ref="26664095"/>
    <tag k="highway" v="residential"/>
    <tag k="lanes" v="2"/>
    <tag k="name" v="The Broadway"/>
    <tag k="source:name" v="dictaphone"/>
    <tag k="surface" v="asphalt"/>
  </way>
  <way id="4372760" version="5" timestamp="2023-04-25T22:01:50Z" changeset="135361819" uid="1102246" user="jtn20">
    <nd ref="25277853"/>
    <nd ref="5323196623"/>
    <nd ref="5320578111"/>
    <nd ref="5320578110"/>
    <nd ref="26664101"/>
    <tag k="highway" v="residential"/>
    <tag k="maxspeed" v="20 mph"/>
    <tag k="maxspeed:type" v="GB:zone20"/>
    <tag k="name" v="Kettles Close"/>
  </way>
  <way id="4372761" version="2" timestamp="2023-04-25T22:01:50Z" changeset="135361819" uid="1102246" user="jtn20">
    <nd ref="25589832"/>
    <nd ref="26664158"/>
    <tag k="highway" v="residential"/>
    <tag k="maxspeed" v="20 mph"/>
    <tag k="maxspeed:type" v="GB:zone20"/>
    <tag k="name" v="Holme Close"/>
    <tag k="source:name" v="local knowledge"/>
  </way>
  <way id="4372762" version="5" timestamp="2023-11-14T10:05:36Z" changeset="144003433" uid="5173844" user="ndrw6">
    <nd ref="26664159"/>
    <nd ref="11348129660"/>
    <nd ref="26664102"/>
    <nd ref="11348129659"/>
    <nd ref="26664106"/>
    <nd ref="11348129663"/>
    <nd ref="1997324142"/>
    <tag k="highway" v="residential"/>
    <tag k="maxspeed" v="20 mph"/>
    <tag k="maxspeed:type" v="GB:zone20"/>
    <tag k="name" v="Arcadia Gardens"/>
  </way>
  <way id="4372763" version="2" timestamp="2023-11-14T10:05:36Z" changeset="144003433" uid="5173844" user="ndrw6">
    <nd ref="26664102"/>
    <nd ref="11348129661"/>
    <nd ref="26664103"/>
    <tag k="highway" v="residential"/>
    <tag k="name" v="Arcadia Gardens"/>
    <tag k="source:name" v="local knowledge"/>
  </way>
  <way id="4372764" version="2" timestamp="2023-11-14T10:05:36Z" changeset="144003433" uid="5173844" user="ndrw6">
    <nd ref="26664104"/>
    <nd ref="11348129656"/>
    <nd ref="26664103"/>
    <nd ref="11348129658"/>
    <nd ref="26664105"/>
    <tag k="highway" v="residential"/>
    <tag k="name" v="Arcadia Gardens"/>
    <tag k="source:name" v="local knowledge"/>
  </way>
  <way id="4372765" version="5" timestamp="2023-11-14T10:05:36Z" changeset="144003433" uid="5173844" user="ndrw6">
    <nd ref="26664100"/>
    <nd ref="5323196610"/>
    <nd ref="26664107"/>
    <nd ref="11348129044"/>
    <nd ref="5323196560"/>
    <nd ref="5323196559"/>
    <nd ref="11348129266"/>
    <nd ref="26664111"/>
    <nd ref="11348129267"/>
    <tag k="highway" v="residential"/>
    <tag k="maxspeed" v="20 mph"/>
    <tag k="maxspeed:type" v="GB:zone20"/>
    <tag k="name" v="Cherry Orchard"/>
  </way>
  <way id="4372766" version="1" timestamp="2007-03-21T15:28:40Z" changeset="240589" uid="3582" user="davidearl">
    <nd ref="26664107"/>
    <nd ref="26664108"/>
    <tag k="created_by" v="JOSM"/>
    <tag k="highway" v="residential"/>
    <tag k="name" v="Cherry Orchard"/>
    <tag k="source:name" v="local knowledge"/>
  </way>
  <way id="4372767" version="3" timestamp="2023-11-14T10:05:36Z" changeset="144003433" uid="5173844" user="ndrw6">
    <nd ref="26664108"/>
    <nd ref="5286729619"/>
    <nd ref="5286729618"/>
    <nd ref="11348129209"/>
    <nd ref="26664109"/>
    <tag k="highway" v="residential"/>
    <tag k="name" v="Cherry Gardens"/>
    <tag k="source:name" v="local knowledge"/>
  </way>
  <way id="4372769" version="2" timestamp="2018-01-06T05:36:49Z" changeset="55203450" uid="5173844" user="ndrw6">
    <nd ref="26664112"/>
    <nd ref="26664113"/>
    <nd ref="5323196615"/>
    <nd ref="26664110"/>
    <tag k="highway" v="residential"/>
    <tag k="name" v="Coles Road"/>
    <tag k="source:name" v="local knowledge"/>
  </way>
  <way id="4372770" version="16" timestamp="2023-11-14T10:05:36Z" changeset="144003433" uid="5173844" user="ndrw6">
    <nd ref="1605269742"/>
    <nd ref="5286729612"/>
    <nd ref="5320512217"/>
    <nd ref="26664307"/>
    <nd ref="26664121"/>
    <nd ref="26664120"/>
    <nd ref="26664161"/>
    <nd ref="320908142"/>
    <nd ref="26664160"/>
    <nd ref="5323197045"/>
    <nd ref="26664162"/>
    <nd ref="5322800623"/>
    <nd ref="3555570162"/>
    <nd ref="26664163"/>
    <nd ref="8647210588"/>
    <nd ref="26664319"/>
    <nd ref="1552088227"/>
    <nd ref="1552088353"/>
    <nd ref="26664164"/>
    <nd ref="26664165"/>
    <tag k="alt_name" v="High Street"/>
    <tag k="highway" v="residential"/>
    <tag k="maxspeed" v="20 mph"/>
    <tag k="maxspeed:type" v="GB:zone20"/>
    <tag k="name" v="High Street"/>
  </way>
  <way id="4372771" version="6" timestamp="2023-04-25T22:01:50Z" changeset="135361819" uid="1102246" user="jtn20">
    <nd ref="26664165"/>
    <nd ref="1552088425"/>
    <nd ref="1552088189"/>
    <nd ref="5323197005"/>
    <nd ref="26664321"/>
    <tag k="highway" v="residential"/>
    <tag k="maxspeed" v="20 mph"/>
    <tag k="maxspeed:type" v="GB:zone20"/>
    <tag k="name" v="Mill Road"/>
    <tag k="note" v="False one-way street"/>
    <tag k="oneway" v="no"/>
  </way>
  <way id="4372772" version="2" timestamp="2011-12-18T15:47:01Z" changeset="10147751" uid="383983" user="Ben Wheatley">
    <nd ref="26664165"/>
    <nd ref="1552088413"/>
    <nd ref="1552088248"/>
    <nd ref="26664166"/>
    <nd ref="26664167"/>
    <nd ref="26664168"/>
    <nd ref="26664169"/>
    <tag k="highway" v="residential"/>
    <tag k="name" v="Church View"/>
    <tag k="source:name" v="local knowledge"/>
  </way>
  <way id="4372773" version="2" timestamp="2011-12-18T15:47:07Z" changeset="10147751" uid="383983" user="Ben Wheatley">
    <nd ref="26664168"/>
    <nd ref="1552088086"/>
    <nd ref="1552088140"/>
    <nd ref="1552088144"/>
    <nd ref="26664170"/>
    <nd ref="26664171"/>
    <nd ref="1552088087"/>
    <nd ref="1552088130"/>
    <nd ref="1552088410"/>
    <tag k="highway" v="residential"/>
    <tag k="name" v="Church View"/>
    <tag k="source:name" v="local knowledge"/>
  </way>
  <way id="4372774" version="4" timestamp="2018-04-12T18:48:28Z" changeset="58044544" uid="90142" user="andy mackey">
    <nd ref="26664160"/>
    <nd ref="4783670064"/>
    <nd ref="5548674939"/>
    <nd ref="26664172"/>
    <nd ref="5548674937"/>
    <nd ref="26664173"/>
    <nd ref="5548674940"/>
    <nd ref="26664174"/>
    <nd ref="5323196842"/>
    <nd ref="26664175"/>
    <tag k="highway" v="residential"/>
    <tag k="name" v="Manor Farm Close"/>
    <tag k="source:name" v="local knowledge"/>
  </way>
  <way id="4372775" version="2" timestamp="2017-12-15T23:27:59Z" changeset="54668300" uid="5173844" user="ndrw6">
    <nd ref="26664119"/>
    <nd ref="5286729613"/>
    <nd ref="5286729614"/>
    <nd ref="26664123"/>
    <nd ref="26664124"/>
    <tag k="highway" v="residential"/>
    <tag k="name" v="Days Meadow"/>
    <tag k="source:name" v="local knowledge"/>
  </way>
  <way id="4372776" version="4" timestamp="2023-11-14T10:05:36Z" changeset="144003433" uid="5173844" user="ndrw6">
    <nd ref="26664126"/>
    <nd ref="5323196796"/>
    <nd ref="5286729616"/>
    <nd ref="26664125"/>
    <nd ref="26664124"/>
    <nd ref="5286729615"/>
    <nd ref="26664128"/>
    <nd ref="11348129508"/>
    <nd ref="26664129"/>
    <nd ref="11348129507"/>
    <nd ref="26664130"/>
    <nd ref="26664131"/>
    <tag k="highway" v="residential"/>
    <tag k="name" v="Days Meadow"/>
    <tag k="source:name" v="local knowledge"/>
  </way>
  <way id="4372778" version="6" timestamp="2023-11-14T10:05:36Z" changeset="144003433" uid="5173844" user="ndrw6">
    <nd ref="26664120"/>
    <nd ref="4783670066"/>
    <nd ref="26664119"/>
    <nd ref="5548674935"/>
    <nd ref="26664118"/>
    <nd ref="5548674934"/>
    <nd ref="5548674938"/>
    <nd ref="26664117"/>
    <nd ref="5322800175"/>
    <nd ref="26664116"/>
    <nd ref="11348129060"/>
    <nd ref="26664112"/>
    <nd ref="26664132"/>
    <nd ref="5323196617"/>
    <nd ref="26664135"/>
    <tag k="highway" v="residential"/>
    <tag k="name" v="Coles Lane"/>
    <tag k="source:name" v="local knowledge"/>
  </way>
  <way id="4372779" version="3" timestamp="2023-11-14T10:05:36Z" changeset="144003433" uid="5173844" user="ndrw6">
    <nd ref="26664116"/>
    <nd ref="5322800897"/>
    <nd ref="26664114"/>
    <nd ref="11348129061"/>
    <nd ref="26664115"/>
    <tag k="highway" v="residential"/>
    <tag k="name" v="The Vines"/>
    <tag k="source:name" v="local knowledge"/>
  </way>
  <way id="4372780" version="5" timestamp="2018-04-12T18:48:28Z" changeset="58044544" uid="90142" user="andy mackey">
    <nd ref="26664132"/>
    <nd ref="5548674925"/>
    <nd ref="26664133"/>
    <nd ref="5323196618"/>
    <nd ref="26664134"/>
    <tag k="highway" v="residential"/>
    <tag k="name" v="Croft Lane"/>
    <tag k="postal_code" v="CB24 3AA"/>
    <tag k="source:name" v="survey"/>
  </way>
  <way id="4372781" version="4" timestamp="2023-11-14T10:05:36Z" changeset="144003433" uid="5173844" user="ndrw6">
    <nd ref="26664097"/>
    <nd ref="26664189"/>
    <nd ref="11348129519"/>
    <tag k="highway" v="residential"/>
    <tag k="maxspeed" v="20 mph"/>
    <tag k="maxspeed:type" v="GB:zone20"/>
    <tag k="name" v="Vicarage Close"/>
  </way>
  <way id="4372784" version="3" timestamp="2023-04-25T22:01:50Z" changeset="135361819" uid="1102246" user="jtn20">
    <nd ref="26664098"/>
    <nd ref="26664176"/>
    <tag k="highway" v="residential"/>
    <tag k="maxspeed" v="20 mph"/>
    <tag k="maxspeed:type" v="GB:zone20"/>
    <tag k="name" v="Queens Way"/>
  </way>
  <way id="4372785" version="2" timestamp="2016-12-04T18:31:55Z" changeset="44163530" uid="322785" user="BCNorwich">
    <nd ref="26664178"/>
    <nd ref="4538275523"/>
    <nd ref="4538275522"/>
    <nd ref="4538275520"/>
    <nd ref="4538275521"/>
    <nd ref="26664176"/>
    <nd ref="26664177"/>
    <tag k="highway" v="residential"/>
    <tag k="name" v="Queens Way"/>
    <tag k="source:name" v="local knowledge"/>
  </way>
  <way id="4372786" version="15" timestamp="2023-04-25T22:01:50Z" changeset="135361819" uid="1102246" user="jtn20">
    <nd ref="26664096"/>
    <nd ref="26664320"/>
    <nd ref="258932883"/>
    <nd ref="26664097"/>
    <nd ref="25589826"/>
    <nd ref="3555564949"/>
    <nd ref="1552088075"/>
    <nd ref="6178520163"/>
    <nd ref="25589827"/>
    <nd ref="320908134"/>
    <nd ref="26664098"/>
    <nd ref="320908133"/>
    <nd ref="320908145"/>
    <nd ref="1602194346"/>
    <nd ref="1602194345"/>
    <nd ref="1602191617"/>
    <nd ref="1602191609"/>
    <nd ref="5320512240"/>
    <nd ref="26664099"/>
    <nd ref="1605269742"/>
    <tag k="abutters" v="residential"/>
    <tag k="highway" v="tertiary"/>
    <tag k="maxspeed" v="20 mph"/>
    <tag k="maxspeed:type" v="GB:zone20"/>
    <tag k="name" v="Water Lane"/>
    <tag k="source:name" v="local knowledge"/>
    <tag k="surface" v="asphalt"/>
  </way>
  <way id="4372787" version="15" timestamp="2025-01-13T11:56:20Z" changeset="161306498" uid="5229644" user="Nathan_A_RF">
    <nd ref="1585130045"/>
    <nd ref="60751754"/>
    <nd ref="7591504188"/>
    <nd ref="60751753"/>
    <nd ref="26664141"/>
    <nd ref="26664140"/>
    <nd ref="26664139"/>
    <nd ref="26664138"/>
    <nd ref="26664137"/>
    <nd ref="26664136"/>
    <nd ref="26664135"/>
    <nd ref="5322800056"/>
    <nd ref="26664134"/>
    <nd ref="6268291737"/>
    <nd ref="26664149"/>
    <nd ref="320908116"/>
    <nd ref="5548674926"/>
    <nd ref="1012808694"/>
    <nd ref="5322800225"/>
    <nd ref="1012808676"/>
    <nd ref="6268291738"/>
    <nd ref="5322800306"/>
    <nd ref="6268291739"/>
    <nd ref="26664152"/>
    <tag k="highway" v="residential"/>
    <tag k="maxspeed" v="30 mph"/>
    <tag k="name" v="Longstanton Road"/>
    <tag k="source:name" v="local knowledge"/>
  </way>
  <way id="4372789" version="3" timestamp="2023-11-14T10:05:36Z" changeset="144003433" uid="5173844" user="ndrw6">
    <nd ref="26664138"/>
    <nd ref="26664142"/>
    <nd ref="5320577967"/>
    <nd ref="26664143"/>
    <nd ref="5320577904"/>
    <nd ref="26664144"/>
    <nd ref="26664145"/>
    <nd ref="26664146"/>
    <nd ref="11348129440"/>
    <tag k="highway" v="residential"/>
    <tag k="name" v="Mead View"/>
    <tag k="source:name" v="local knowledge"/>
  </way>
  <way id="4372790" version="2" timestamp="2018-01-05T22:01:37Z" changeset="55199007" uid="5173844" user="ndrw6">
    <nd ref="5322800056"/>
    <nd ref="26664147"/>
    <tag k="highway" v="residential"/>
    <tag k="name" v="The Drift"/>
  </way>
  <way id="4372791" version="3" timestamp="2020-12-04T20:27:00Z" changeset="95314594" uid="90142" user="andy mackey">
    <nd ref="26664149"/>
    <nd ref="5323196795"/>
    <nd ref="26664150"/>
    <nd ref="8195117812"/>
    <nd ref="8195117813"/>
    <tag k="highway" v="residential"/>
    <tag k="name" v="Lowbury Crescent"/>
    <tag k="source:name" v="local knowledge"/>
  </way>
  <way id="4372792" version="3" timestamp="2023-04-25T22:01:50Z" changeset="135361819" uid="1102246" user="jtn20">
    <nd ref="25589826"/>
    <nd ref="26664187"/>
    <nd ref="26664188"/>
    <tag k="highway" v="residential"/>
    <tag k="maxspeed" v="20 mph"/>
    <tag k="maxspeed:type" v="GB:zone20"/>
    <tag k="name" v="Meadow Farm Close"/>
  </way>
  <way id="4372793" version="6" timestamp="2024-06-01T13:01:43Z" changeset="152118799" uid="104519" user="Rupert Swarbrick">
    <nd ref="25277851"/>
    <nd ref="26664190"/>
    <nd ref="5286730124"/>
    <nd ref="26664191"/>
    <nd ref="26664195"/>
    <nd ref="26664192"/>
    <nd ref="9085258693"/>
    <nd ref="6190715146"/>
    <nd ref="26664193"/>
    <tag k="highway" v="residential"/>
    <tag k="maxspeed" v="20 mph"/>
    <tag k="maxspeed:type" v="GB:zone20"/>
    <tag k="name" v="Orchard Way"/>
    <tag k="source:name" v="local knowledge"/>
    <tag k="surface" v="asphalt"/>
  </way>
  <way id="4372794" version="1" timestamp="2007-03-21T15:28:43Z" changeset="240589" uid="3582" user="davidearl">
    <nd ref="26664191"/>
    <nd ref="26664194"/>
    <tag k="created_by" v="JOSM"/>
    <tag k="highway" v="residential"/>
    <tag k="name" v="Orchard Way"/>
    <tag k="source:name" v="local knowledge"/>
  </way>
  <way id="4372821" version="8" timestamp="2024-06-01T13:02:17Z" changeset="152119444" uid="104519" user="Rupert Swarbrick">
    <nd ref="25277849"/>
    <nd ref="6474959148"/>
    <nd ref="25277850"/>
    <nd ref="320908155"/>
    <nd ref="25277851"/>
    <nd ref="9197761635"/>
    <nd ref="26664304"/>
    <tag k="abutters" v="residential"/>
    <tag k="highway" v="tertiary"/>
    <tag k="lanes" v="2"/>
    <tag k="maxspeed" v="20 mph"/>
    <tag k="maxspeed:type" v="GB:zone20"/>
    <tag k="name" v="Cambridge Road"/>
    <tag k="surface" v="asphalt"/>
  </way>
  <way id="4372822" version="8" timestamp="2023-04-25T22:01:50Z" changeset="135361819" uid="1102246" user="jtn20">
    <nd ref="25589825"/>
    <nd ref="6178520166"/>
    <nd ref="6178520165"/>
    <nd ref="26664096"/>
    <tag k="abutters" v="residential"/>
    <tag k="highway" v="tertiary"/>
    <tag k="maxspeed" v="30 mph"/>
    <tag k="maxspeed:type" v="sign"/>
    <tag k="name" v="Station Road"/>
    <tag k="source:name" v="local knowledge"/>
  </way>
  <way id="4372825" version="11" timestamp="2023-11-14T10:05:36Z" changeset="144003433" uid="5173844" user="ndrw6">
    <nd ref="26664312"/>
    <nd ref="1605059588"/>
    <nd ref="11348129218"/>
    <nd ref="26664311"/>
    <nd ref="5323196769"/>
    <nd ref="26664310"/>
    <nd ref="5323196767"/>
    <nd ref="11348129220"/>
    <nd ref="11348129222"/>
    <nd ref="11348129221"/>
    <nd ref="26664313"/>
    <nd ref="26664312"/>
    <tag k="addr:postcode" v="CB24 3AL"/>
    <tag k="addr:street" v="Water Lane"/>
    <tag k="amenity" v="school"/>
    <tag k="capacity" v="149"/>
    <tag k="denomination" v="anglican"/>
    <tag k="diocese" v="Diocese of Ely"/>
    <tag k="email" v="office@oakington.cambs.sch.uk"/>
    <tag k="fax" v="+44 1223 232273"/>
    <tag k="isced:level" v="1"/>
    <tag k="max_age" v="11"/>
    <tag k="min_age" v="5"/>
    <tag k="name" v="Oakington CofE Primary School"/>
    <tag k="phone" v="+44 1223 232328"/>
    <tag k="ref:GB:uprn" v="100091421073"/>
    <tag k="ref:edubase" v="147110"/>
    <tag k="ref:edubase:group" v="2905"/>
    <tag k="religion" v="christian"/>
    <tag k="school:trust" v="yes"/>
    <tag k="school:trust:name" v="The Diocese of Ely Multi-Academy Trust"/>
    <tag k="school:trust:type" v="multi_academy"/>
    <tag k="school:type" v="academy"/>
    <tag k="website" v="http://www.oakingtonschool.org.uk/"/>
    <tag k="wikidata" v="Q66232930"/>
  </way>
  <way id="4372830" version="3" timestamp="2023-04-25T22:01:50Z" changeset="135361819" uid="1102246" user="jtn20">
    <nd ref="26664321"/>
    <nd ref="1552088267"/>
    <nd ref="26664096"/>
    <tag k="highway" v="residential"/>
    <tag k="maxspeed" v="20 mph"/>
    <tag k="maxspeed:type" v="GB:zone20"/>
    <tag k="oneway" v="yes"/>
    <tag k="source:name" v="local knowledge"/>
  </way>
  <way id="8100513" version="11" timestamp="2024-06-01T13:01:16Z" changeset="152120305" uid="104519" user="Rupert Swarbrick">
    <nd ref="26664304"/>
    <nd ref="3760837529"/>
    <tag k="abutters" v="residential"/>
    <tag k="bridge" v="yes"/>
    <tag k="highway" v="tertiary"/>
    <tag k="lane_markings" v="no"/>
    <tag k="layer" v="1"/>
    <tag k="maxspeed" v="20 mph"/>
    <tag k="maxspeed:type" v="GB:zone20"/>
    <tag k="maxweight:signed" v="no"/>
    <tag k="name" v="Cambridge Road"/>
    <tag k="oneway" v="no"/>
    <tag k="source:width" v="ARCore"/>
    <tag k="surface" v="asphalt"/>
    <tag k="width" v="2.9"/>
  </way>
  <way id="27612498" version="13" timestamp="2024-08-08T12:36:49Z" changeset="154977003" uid="8061502" user="galacticism">
    <nd ref="303202266"/>
    <nd ref="3147335069"/>
    <nd ref="5862674068"/>
    <nd ref="1105431318"/>
    <nd ref="5862674074"/>
    <nd ref="3147335034"/>
    <nd ref="26664047"/>
    <nd ref="8814075953"/>
    <nd ref="6905499874"/>
    <nd ref="26664048"/>
    <nd ref="3147335049"/>
    <nd ref="1290836644"/>
    <nd ref="12098767331"/>
    <nd ref="26664049"/>
    <tag k="highway" v="tertiary"/>
    <tag k="lanes" v="2"/>
    <tag k="maxspeed" v="40 mph"/>
    <tag k="maxspeed:type" v="sign"/>
    <tag k="name" v="Oakington Road"/>
    <tag k="source:name" v="local knowledge"/>
    <tag k="surface" v="asphalt"/>
  </way>
  <way id="48684085" version="12" timestamp="2024-08-08T12:36:49Z" changeset="154977003" uid="8061502" user="galacticism">
    <nd ref="25277833"/>
    <nd ref="7255898578"/>
    <nd ref="26664270"/>
    <nd ref="12098767329"/>
    <nd ref="25277834"/>
    <tag k="highway" v="tertiary"/>
    <tag k="lanes" v="2"/>
    <tag k="maxspeed" v="60 mph"/>
    <tag k="maxspeed:type" v="GB:nsl_single"/>
    <tag k="name" v="Gatehouse Road"/>
    <tag k="surface" v="asphalt"/>
  </way>
  <way id="49071498" version="5" timestamp="2024-06-01T12:50:46Z" changeset="152119778" uid="104519" user="Rupert Swarbrick">
    <nd ref="622595839"/>
    <nd ref="11348128675"/>
    <nd ref="11348128674"/>
    <nd ref="622595838"/>
    <nd ref="622595839"/>
    <tag k="addr:housenumber" v="2"/>
    <tag k="addr:postcode" v="CB24 3YW"/>
    <tag k="addr:street" v="Dry Drayton Road"/>
    <tag k="building" v="house"/>
  </way>
  <way id="53165608" version="37" timestamp="2024-01-09T14:24:03Z" changeset="146069100" uid="5229644" user="Nathan_A_RF">
    <nd ref="20938934"/>
    <nd ref="1380764094"/>
    <nd ref="672799711"/>
    <nd ref="774470287"/>
    <nd ref="231479"/>
    <nd ref="26661016"/>
    <nd ref="320909965"/>
    <nd ref="6780677395"/>
    <nd ref="26661167"/>
    <nd ref="4582807162"/>
    <tag k="agricultural" v="no"/>
    <tag k="bicycle" v="no"/>
    <tag k="carriage" v="no"/>
    <tag k="carriageway_ref" v="B"/>
    <tag k="dual_carriageway" v="yes"/>
    <tag k="expressway" v="yes"/>
    <tag k="foot" v="no"/>
    <tag k="highway" v="trunk"/>
    <tag k="horse" v="no"/>
    <tag k="int_ref" v="E 24"/>
    <tag k="lanes" v="4"/>
    <tag k="lit" v="no"/>
    <tag k="maxheight" v="default"/>
    <tag k="maxspeed" v="70 mph"/>
    <tag k="maxspeed:type" v="GB:nsl_dual"/>
    <tag k="maxspeed:variable" v="peak_traffic"/>
    <tag k="motorcycle:conditional" v="no @ (displacement &lt; 50 cc)"/>
    <tag k="motorroad" v="yes"/>
    <tag k="name" v="Huntingdon Road"/>
    <tag k="national_highways:area" v="8"/>
    <tag k="old_ref" v="A604"/>
    <tag k="oneway" v="yes"/>
    <tag k="operator" v="National Highways"/>
    <tag k="operator:wikidata" v="Q5760006"/>
    <tag k="ref" v="A14"/>
    <tag k="shoulder" v="no"/>
    <tag k="surface" v="asphalt"/>
  </way>
  <way id="55364954" version="10" timestamp="2023-04-25T22:01:50Z" changeset="135361819" uid="1102246" user="jtn20">
    <nd ref="5320512225"/>
    <nd ref="26664306"/>
    <nd ref="1605269725"/>
    <nd ref="26664100"/>
    <nd ref="6178520161"/>
    <nd ref="26664159"/>
    <nd ref="25589832"/>
    <nd ref="1602191608"/>
    <nd ref="6178520160"/>
    <nd ref="1602191607"/>
    <nd ref="25277853"/>
    <nd ref="5320578084"/>
    <nd ref="25589834"/>
    <nd ref="1585130045"/>
    <tag k="abutters" v="residential"/>
    <tag k="highway" v="tertiary"/>
    <tag k="maxspeed" v="20 mph"/>
    <tag k="maxspeed:type" v="GB:zone20"/>
    <tag k="name" v="Water Lane"/>
    <tag k="source:name" v="local knowledge"/>
  </way>
  <way id="59533546" version="27" timestamp="2024-01-09T14:24:03Z" changeset="146069100" uid="5229644" user="Nathan_A_RF">
    <nd ref="2758993"/>
    <nd ref="7498891749"/>
    <nd ref="2360725753"/>
    <nd ref="2360725751"/>
    <nd ref="4584275631"/>
    <nd ref="4626811718"/>
    <nd ref="26661236"/>
    <nd ref="26661112"/>
    <nd ref="2147730871"/>
    <tag k="agricultural" v="no"/>
    <tag k="bicycle" v="no"/>
    <tag k="carriage" v="no"/>
    <tag k="carriageway_ref" v="A"/>
    <tag k="dual_carriageway" v="yes"/>
    <tag k="expressway" v="yes"/>
    <tag k="foot" v="no"/>
    <tag k="highway" v="trunk"/>
    <tag k="horse" v="no"/>
    <tag k="int_ref" v="E 24"/>
    <tag k="lanes" v="3"/>
    <tag k="lit" v="no"/>
    <tag k="maxheight" v="default"/>
    <tag k="maxspeed" v="70 mph"/>
    <tag k="maxspeed:type" v="GB:nsl_dual"/>
    <tag k="maxspeed:variable" v="peak_traffic"/>
    <tag k="motorcycle:conditional" v="no @ (displacement &lt; 50 cc)"/>
    <tag k="motorroad" v="yes"/>
    <tag k="name" v="Huntingdon Road"/>
    <tag k="national_highways:area" v="8"/>
    <tag k="old_ref" v="A604"/>
    <tag k="oneway" v="yes"/>
    <tag k="operator" v="National Highways"/>
    <tag k="operator:wikidata" v="Q5760006"/>
    <tag k="ref" v="A14"/>
    <tag k="shoulder" v="no"/>
    <tag k="surface" v="asphalt"/>
  </way>
  <way id="83204294" version="5" timestamp="2024-12-03T10:02:16Z" changeset="159873869" uid="374342" user="hocu">
    <nd ref="968160408"/>
    <nd ref="968160149"/>
    <nd ref="968160281"/>
    <nd ref="968160554"/>
    <nd ref="968160435"/>
    <nd ref="968160408"/>
    <tag k="addr:county" v="Cambridgeshire"/>
    <tag k="addr:housename" v="Oakington Garden Centre"/>
    <tag k="addr:postcode" v="CB24 3BD"/>
    <tag k="addr:street" v="Dry Drayton Road"/>
    <tag k="amenity" v="cafe"/>
    <tag k="building" v="yes"/>
    <tag k="fhrs:id" v="1433024"/>
    <tag k="name" v="Olive Tree Cafe"/>
    <tag k="nohousenumber" v="yes"/>
    <tag k="opening_hours" v="Mo-Sa 09:30-16:00; Su 10:00-16:00"/>
    <tag k="operator" v="Oakington Garden Centre"/>
    <tag k="source" v="survey"/>
    <tag k="source:addr" v="FHRS Open Data"/>
  </way>
  <way id="83204296" version="6" timestamp="2023-11-14T10:05:36Z" changeset="144003433" uid="5173844" user="ndrw6">
    <nd ref="968160408"/>
    <nd ref="11348128676"/>
    <nd ref="11348128677"/>
    <nd ref="11348128678"/>
    <nd ref="11348128679"/>
    <nd ref="11348128680"/>
    <nd ref="11348128681"/>
    <nd ref="11348128682"/>
    <nd ref="968160225"/>
    <nd ref="4459272822"/>
    <nd ref="968160435"/>
    <nd ref="968160408"/>
    <tag k="addr:city" v="Cambridge"/>
    <tag k="addr:postcode" v="CB24 3BD"/>
    <tag k="addr:street" v="Dry Drayton Road"/>
    <tag k="addr:village" v="Oakington"/>
    <tag k="landuse" v="retail"/>
    <tag k="name" v="Oakington Garden Centre"/>
    <tag k="shop" v="garden_centre"/>
    <tag k="source" v="Yahoo! (2006?)"/>
    <tag k="website" v="https://www.oakingtongardencentre.co.uk/"/>
  </way>
  <way id="96748170" version="9" timestamp="2024-08-08T12:36:49Z" changeset="154977003" uid="8061502" user="galacticism">
    <nd ref="26664049"/>
    <nd ref="3147335077"/>
    <nd ref="3147335062"/>
    <nd ref="12098767327"/>
    <nd ref="26664050"/>
    <nd ref="3147335042"/>
    <nd ref="25277834"/>
    <tag k="highway" v="tertiary"/>
    <tag k="lanes" v="2"/>
    <tag k="maxspeed" v="40 mph"/>
    <tag k="maxspeed:type" v="sign"/>
    <tag k="name" v="Oakington Road"/>
    <tag k="surface" v="asphalt"/>
  </way>
  <way id="97011000" version="11" timestamp="2025-01-13T11:56:20Z" changeset="161306498" uid="5229644" user="Nathan_A_RF">
    <nd ref="5322800319"/>
    <nd ref="26664153"/>
    <nd ref="6268291740"/>
    <nd ref="26664152"/>
    <tag k="highway" v="residential"/>
    <tag k="maxspeed" v="60 mph"/>
    <tag k="maxspeed:type" v="GB:nsl_single"/>
    <tag k="name" v="Longstanton Road"/>
    <tag k="source" v="GPS"/>
    <tag k="source:name" v="local knowledge"/>
  </way>
  <way id="125552228" version="5" timestamp="2023-04-26T17:12:16Z" changeset="135395917" uid="1102246" user="jtn20">
    <nd ref="1394157135"/>
    <nd ref="1394157136"/>
    <nd ref="1394157137"/>
    <nd ref="1394157144"/>
    <nd ref="1394157146"/>
    <nd ref="1394157135"/>
    <tag k="addr:housenumber" v="Westwick Hall Farm"/>
    <tag k="addr:place" v="Westwick"/>
    <tag k="addr:postcode" v="CB24 3AR"/>
    <tag k="addr:street" v="Station Road"/>
    <tag k="amenity" v="kindergarten"/>
    <tag k="fhrs:id" v="1433762"/>
    <tag k="name" v="Busy Bees Nursery"/>
    <tag k="phone" v="+44 1223 232400"/>
    <tag k="website" v="https://www.busybeeschildcare.co.uk/nursery/westwick"/>
  </way>
  <way id="136551772" version="3" timestamp="2019-01-31T12:39:28Z" changeset="66800586" uid="669183" user="Andy_W">
    <nd ref="1497905395"/>
    <nd ref="1497905400"/>
    <nd ref="1497905406"/>
    <nd ref="1497905401"/>
    <nd ref="1497905395"/>
    <tag k="addr:city" v="Cambridge"/>
    <tag k="addr:housenumber" v="1A"/>
    <tag k="addr:postcode" v="CB24 3DQ"/>
    <tag k="addr:street" v="Oakington Business Park"/>
    <tag k="addr:village" v="Oakington"/>
    <tag k="building" v="yes"/>
    <tag k="name" v="Ingleton Wood"/>
    <tag k="office" v="company"/>
    <tag k="website" v="https://www.ingletonwood.co.uk/"/>
  </way>
  <way id="136551773" version="3" timestamp="2019-01-31T12:39:28Z" changeset="66800586" uid="669183" user="Andy_W">
    <nd ref="1497905395"/>
    <nd ref="1497905401"/>
    <nd ref="1497905396"/>
    <nd ref="1497905393"/>
    <nd ref="1497905390"/>
    <nd ref="1497905395"/>
    <tag k="addr:city" v="Cambridge"/>
    <tag k="addr:housenumber" v="1A"/>
    <tag k="addr:postcode" v="CB24 3DQ"/>
    <tag k="addr:street" v="Oakington Business Park"/>
    <tag k="addr:village" v="Oakington"/>
    <tag k="building" v="yes"/>
    <tag k="name" v="Martindales"/>
    <tag k="office" v="architect"/>
  </way>
  <way id="136551789" version="6" timestamp="2022-05-24T11:39:00Z" changeset="121418919" uid="4709" user="DerekLLaw">
    <nd ref="1497905391"/>
    <nd ref="1497905377"/>
    <nd ref="1497905375"/>
    <nd ref="1497905356"/>
    <nd ref="1497905353"/>
    <nd ref="1497905368"/>
    <nd ref="1497905358"/>
    <nd ref="1497905387"/>
    <nd ref="1497905391"/>
    <tag k="addr:city" v="Cambridge"/>
    <tag k="addr:housename" v="Vision House"/>
    <tag k="addr:housenumber" v="7/8"/>
    <tag k="addr:postcode" v="CB24 3DQ"/>
    <tag k="addr:street" v="Oakington Business Park"/>
    <tag k="addr:village" v="Oakington"/>
    <tag k="building" v="yes"/>
    <tag k="name" v="Munro Building Services"/>
    <tag k="office" v="charity"/>
    <tag k="phone" v="+44 1223 702100"/>
    <tag k="website" v="https://www.munrobuildingservices.co.uk/"/>
  </way>
  <way id="136551792" version="4" timestamp="2019-01-31T12:39:29Z" changeset="66800586" uid="669183" user="Andy_W">
    <nd ref="1497905373"/>
    <nd ref="1497905378"/>
    <nd ref="1497905371"/>
    <nd ref="1497905366"/>
    <nd ref="1497905369"/>
    <nd ref="1497905365"/>
    <nd ref="1497905376"/>
    <nd ref="1497905361"/>
    <nd ref="1497905373"/>
    <tag k="addr:city" v="Cambridge"/>
    <tag k="addr:housenumber" v="4"/>
    <tag k="addr:postcode" v="CB24 3DQ"/>
    <tag k="addr:street" v="Oakington Business Park"/>
    <tag k="addr:village" v="Oakington"/>
    <tag k="building" v="yes"/>
    <tag k="name" v="Fen Technology"/>
    <tag k="office" v="company"/>
  </way>
  <way id="141799825" version="1" timestamp="2011-12-18T15:46:48Z" changeset="10147751" uid="383983" user="Ben Wheatley">
    <nd ref="1552088359"/>
    <nd ref="1552088130"/>
    <tag k="highway" v="residential"/>
    <tag k="name" v="Church View"/>
    <tag k="source:name" v="local knowledge"/>
  </way>
  <way id="141799849" version="1" timestamp="2011-12-18T15:46:53Z" changeset="10147751" uid="383983" user="Ben Wheatley">
    <nd ref="26664187"/>
    <nd ref="1552088200"/>
    <tag k="highway" v="residential"/>
    <tag k="name" v="Meadow Farm Close"/>
    <tag k="source:name" v="dictaphone"/>
  </way>
  <way id="209904661" version="5" timestamp="2023-04-25T23:07:04Z" changeset="135362156" uid="1102246" user="jtn20">
    <nd ref="2200627878"/>
    <nd ref="474726333"/>
    <nd ref="1380763028"/>
    <nd ref="25589822"/>
    <nd ref="1552088378"/>
    <nd ref="1552088375"/>
    <nd ref="25589824"/>
    <nd ref="1552088092"/>
    <nd ref="10840566493"/>
    <nd ref="1552088149"/>
    <nd ref="10840567322"/>
    <nd ref="474726328"/>
    <nd ref="1552088128"/>
    <nd ref="474717705"/>
    <nd ref="474717707"/>
    <nd ref="474717703"/>
    <nd ref="258932563"/>
    <nd ref="4226834372"/>
    <tag k="highway" v="tertiary"/>
    <tag k="maxspeed" v="30 mph"/>
    <tag k="maxspeed:type" v="sign"/>
    <tag k="name" v="Oakington Road"/>
  </way>
  <way id="209904667" version="9" timestamp="2024-10-06T10:19:16Z" changeset="157532581" uid="10420541" user="Thingummy">
    <nd ref="5570014051"/>
    <nd ref="5570014034"/>
    <nd ref="474711594"/>
    <nd ref="25277861"/>
    <nd ref="5320578255"/>
    <nd ref="25277860"/>
    <nd ref="25277859"/>
    <nd ref="25277858"/>
    <nd ref="25277857"/>
    <nd ref="25277856"/>
    <tag k="abutters" v="residential"/>
    <tag k="cycleway:both" v="no"/>
    <tag k="highway" v="tertiary"/>
    <tag k="lanes" v="2"/>
    <tag k="maxspeed" v="20 mph"/>
    <tag k="maxspeed:type" v="GB:zone20"/>
    <tag k="name" v="Dry Drayton Road"/>
    <tag k="surface" v="asphalt"/>
  </way>
  <way id="316891744" version="31" timestamp="2023-08-26T13:35:21Z" changeset="140412358" uid="12992" user="trigpoint">
    <nd ref="5923016945"/>
    <nd ref="7683158050"/>
    <nd ref="437481540"/>
    <nd ref="5923016949"/>
    <nd ref="8917419834"/>
    <nd ref="4584072687"/>
    <nd ref="6538487355"/>
    <nd ref="8917419838"/>
    <nd ref="6538487343"/>
    <nd ref="3230759211"/>
    <nd ref="6538487346"/>
    <nd ref="7683158051"/>
    <nd ref="6538487356"/>
    <nd ref="8917419729"/>
    <nd ref="8917419842"/>
    <nd ref="8443180517"/>
    <nd ref="3230759195"/>
    <nd ref="8443180518"/>
    <nd ref="3230759209"/>
    <nd ref="4584072688"/>
    <nd ref="8917402842"/>
    <nd ref="4584072995"/>
    <nd ref="5923034441"/>
    <nd ref="4584073020"/>
    <nd ref="6754294212"/>
    <nd ref="5923034427"/>
    <tag k="highway" v="primary"/>
    <tag k="lanes" v="2"/>
    <tag k="maxspeed" v="60 mph"/>
    <tag k="maxspeed:type" v="GB:nsl_single"/>
    <tag k="name" v="Huntingdon Road"/>
    <tag k="ref" v="A1307"/>
    <tag k="shoulder" v="no"/>
    <tag k="surface" v="asphalt"/>
  </way>
  <way id="372525464" version="7" timestamp="2023-04-25T22:01:50Z" changeset="135361819" uid="1102246" user="jtn20">
    <nd ref="3760837529"/>
    <nd ref="6436206041"/>
    <nd ref="26664157"/>
    <nd ref="1585130045"/>
    <tag k="abutters" v="residential"/>
    <tag k="highway" v="tertiary"/>
    <tag k="lane_markings" v="no"/>
    <tag k="maxspeed" v="20 mph"/>
    <tag k="maxspeed:type" v="GB:zone20"/>
    <tag k="name" v="Cambridge Road"/>
    <tag k="surface" v="asphalt"/>
  </way>
  <way id="422964973" version="7" timestamp="2023-04-25T23:07:04Z" changeset="135362156" uid="1102246" user="jtn20">
    <nd ref="4226834371"/>
    <nd ref="10840566451"/>
    <nd ref="7996478778"/>
    <nd ref="8976181660"/>
    <nd ref="513928675"/>
    <nd ref="25634065"/>
    <nd ref="513928676"/>
    <nd ref="3143644639"/>
    <nd ref="3143643163"/>
    <nd ref="3143643131"/>
    <nd ref="3143643149"/>
    <nd ref="3143643135"/>
    <nd ref="3143643139"/>
    <nd ref="3143643147"/>
    <nd ref="25589825"/>
    <tag k="highway" v="tertiary"/>
    <tag k="maxspeed" v="30 mph"/>
    <tag k="maxspeed:type" v="sign"/>
    <tag k="name" v="Oakington Road"/>
  </way>
  <way id="422964974" version="3" timestamp="2023-04-25T22:01:50Z" changeset="135361819" uid="1102246" user="jtn20">
    <nd ref="4226834372"/>
    <nd ref="4226834371"/>
    <tag k="bridge" v="yes"/>
    <tag k="bridge:structure" v="beam"/>
    <tag k="highway" v="tertiary"/>
    <tag k="layer" v="1"/>
    <tag k="maxspeed" v="30 mph"/>
    <tag k="maxspeed:type" v="sign"/>
    <tag k="name" v="Oakington Road"/>
  </way>
  <way id="457668885" version="3" timestamp="2016-12-04T18:35:43Z" changeset="44163620" uid="322785" user="BCNorwich">
    <nd ref="4537774185"/>
    <nd ref="4537774186"/>
    <nd ref="4537774187"/>
    <nd ref="4537774188"/>
    <nd ref="4537774189"/>
    <nd ref="4537774190"/>
    <nd ref="4537774185"/>
    <tag k="addr:city" v="Cambridge"/>
    <tag k="addr:housenumber" v="14"/>
    <tag k="addr:postcode" v="CB24 3AZ"/>
    <tag k="addr:street" v="Saxon Close"/>
    <tag k="building" v="house"/>
  </way>
  <way id="457668886" version="4" timestamp="2016-12-04T18:35:43Z" changeset="44163620" uid="322785" user="BCNorwich">
    <nd ref="4537774191"/>
    <nd ref="4537774192"/>
    <nd ref="4537774193"/>
    <nd ref="4537774194"/>
    <nd ref="4537774195"/>
    <nd ref="4537774196"/>
    <nd ref="4537774191"/>
    <tag k="addr:city" v="Cambridge"/>
    <tag k="addr:housenumber" v="15"/>
    <tag k="addr:postcode" v="CB24 3AZ"/>
    <tag k="addr:street" v="Saxon Close"/>
    <tag k="building" v="house"/>
    <tag k="building:levels" v="2"/>
  </way>
  <way id="457727280" version="1" timestamp="2016-12-04T18:30:53Z" changeset="44163502" uid="322785" user="BCNorwich">
    <nd ref="1552088132"/>
    <nd ref="1552088083"/>
    <tag k="highway" v="residential"/>
    <tag k="source" v="Bing"/>
  </way>
  <way id="457727281" version="2" timestamp="2023-04-25T22:01:50Z" changeset="135361819" uid="1102246" user="jtn20">
    <nd ref="25589827"/>
    <nd ref="1552088391"/>
    <nd ref="26664181"/>
    <nd ref="26664182"/>
    <nd ref="1552088132"/>
    <nd ref="26664183"/>
    <nd ref="1552088089"/>
    <tag k="highway" v="residential"/>
    <tag k="maxspeed" v="20 mph"/>
    <tag k="maxspeed:type" v="GB:zone20"/>
    <tag k="name" v="Saxon Close"/>
    <tag k="oneway" v="no"/>
    <tag k="source:name" v="local knowledge"/>
    <tag k="surface" v="asphalt"/>
  </way>
  <way id="462955941" version="22" timestamp="2024-01-09T14:24:03Z" changeset="146069100" uid="5229644" user="Nathan_A_RF">
    <nd ref="4582807162"/>
    <nd ref="25318806"/>
    <nd ref="7498891756"/>
    <nd ref="7498891757"/>
    <nd ref="7498891758"/>
    <nd ref="7498891759"/>
    <nd ref="231478"/>
    <tag k="agricultural" v="no"/>
    <tag k="bicycle" v="no"/>
    <tag k="carriage" v="no"/>
    <tag k="carriageway_ref" v="B"/>
    <tag k="destination:lanes" v="Bar Hill;Longstanton|Longstanton;The North;Huntingdon|The North;Huntingdon|The North;Huntingdon"/>
    <tag k="dual_carriageway" v="yes"/>
    <tag k="expressway" v="yes"/>
    <tag k="foot" v="no"/>
    <tag k="highway" v="trunk"/>
    <tag k="horse" v="no"/>
    <tag k="int_ref" v="E 24"/>
    <tag k="lanes" v="4"/>
    <tag k="lit" v="no"/>
    <tag k="maxspeed" v="70 mph"/>
    <tag k="maxspeed:type" v="GB:nsl_dual"/>
    <tag k="maxspeed:variable" v="peak_traffic"/>
    <tag k="motorcycle:conditional" v="no @ (displacement &lt; 50 cc)"/>
    <tag k="motorroad" v="yes"/>
    <tag k="name" v="Huntingdon Road"/>
    <tag k="national_highways:area" v="8"/>
    <tag k="old_ref" v="A604"/>
    <tag k="oneway" v="yes"/>
    <tag k="operator" v="National Highways"/>
    <tag k="operator:wikidata" v="Q5760006"/>
    <tag k="ref" v="A14"/>
    <tag k="surface" v="asphalt"/>
  </way>
  <way id="463038009" version="22" timestamp="2024-01-09T14:24:03Z" changeset="146069100" uid="5229644" user="Nathan_A_RF">
    <nd ref="320909970"/>
    <nd ref="26661160"/>
    <nd ref="7498891762"/>
    <nd ref="320910288"/>
    <nd ref="7498891763"/>
    <nd ref="320910352"/>
    <tag k="agricultural" v="no"/>
    <tag k="bicycle" v="no"/>
    <tag k="carriage" v="no"/>
    <tag k="carriageway_ref" v="A"/>
    <tag k="destination:ref:lanes" v="A14|A14;A1307|M11|M11"/>
    <tag k="dual_carriageway" v="yes"/>
    <tag k="expressway" v="yes"/>
    <tag k="foot" v="no"/>
    <tag k="highway" v="trunk"/>
    <tag k="horse" v="no"/>
    <tag k="int_ref" v="E 24"/>
    <tag k="lanes" v="4"/>
    <tag k="lit" v="no"/>
    <tag k="maxheight" v="default"/>
    <tag k="maxspeed" v="70 mph"/>
    <tag k="maxspeed:type" v="GB:nsl_dual"/>
    <tag k="maxspeed:variable" v="peak_traffic"/>
    <tag k="motorcycle:conditional" v="no @ (displacement &lt; 50 cc)"/>
    <tag k="motorroad" v="yes"/>
    <tag k="name" v="Huntingdon Road"/>
    <tag k="national_highways:area" v="8"/>
    <tag k="old_ref" v="A604"/>
    <tag k="oneway" v="yes"/>
    <tag k="operator" v="National Highways"/>
    <tag k="operator:wikidata" v="Q5760006"/>
    <tag k="ref" v="A14"/>
    <tag k="shoulder" v="no"/>
    <tag k="surface" v="asphalt"/>
  </way>
  <way id="463095720" version="7" timestamp="2021-10-16T16:43:38Z" changeset="112586163" uid="2400059" user="Pablo Rodriguez">
    <nd ref="4584072681"/>
    <nd ref="7683158062"/>
    <nd ref="25277872"/>
    <tag k="highway" v="tertiary"/>
    <tag k="lane_markings" v="no"/>
    <tag k="name" v="Dry Drayton Road"/>
    <tag k="oneway" v="yes"/>
    <tag k="surface" v="asphalt"/>
  </way>
  <way id="463095721" version="15" timestamp="2023-08-26T13:35:24Z" changeset="140412358" uid="12992" user="trigpoint">
    <nd ref="4584073011"/>
    <nd ref="4584073017"/>
    <nd ref="4584073015"/>
    <nd ref="5923034426"/>
    <tag k="cycleway:left" v="no"/>
    <tag k="highway" v="primary"/>
    <tag k="junction" v="roundabout"/>
    <tag k="lane_markings" v="no"/>
    <tag k="maxspeed" v="60 mph"/>
    <tag k="maxspeed:type" v="GB:nsl_single"/>
    <tag k="surface" v="asphalt"/>
  </way>
  <way id="463117469" version="22" timestamp="2024-01-09T14:24:03Z" changeset="146069100" uid="5229644" user="Nathan_A_RF">
    <nd ref="4584275673"/>
    <nd ref="4584275680"/>
    <nd ref="8873689047"/>
    <nd ref="8873689046"/>
    <nd ref="2147730871"/>
    <tag k="agricultural" v="no"/>
    <tag k="bicycle" v="no"/>
    <tag k="carriage" v="no"/>
    <tag k="expressway" v="yes"/>
    <tag k="foot" v="no"/>
    <tag k="highway" v="trunk_link"/>
    <tag k="horse" v="no"/>
    <tag k="lanes" v="2"/>
    <tag k="maxheight" v="default"/>
    <tag k="maxspeed" v="70 mph"/>
    <tag k="maxspeed:type" v="GB:nsl_dual"/>
    <tag k="maxspeed:variable" v="peak_traffic"/>
    <tag k="motorcycle:conditional" v="no @ (displacement &lt; 50 cc)"/>
    <tag k="motorroad" v="yes"/>
    <tag k="national_highways:area" v="8"/>
    <tag k="oneway" v="yes"/>
    <tag k="operator" v="National Highways"/>
    <tag k="operator:wikidata" v="Q5760006"/>
    <tag k="ref" v="A14"/>
    <tag k="surface" v="asphalt"/>
  </way>
  <way id="517287952" version="1" timestamp="2017-08-21T12:33:32Z" changeset="51303963" uid="6476359" user="NSiecw">
    <nd ref="5048192443"/>
    <nd ref="5048192441"/>
    <nd ref="5048192440"/>
    <nd ref="5048192442"/>
    <nd ref="5048192443"/>
    <tag k="addr:city" v="Cambridge"/>
    <tag k="addr:housenumber" v="7"/>
    <tag k="addr:postcode" v="CB24 3GS"/>
    <tag k="addr:street" v="Days Meadow"/>
    <tag k="building" v="house"/>
    <tag k="source" v="Bing"/>
  </way>
  <way id="517287955" version="1" timestamp="2017-08-21T12:33:33Z" changeset="51303963" uid="6476359" user="NSiecw">
    <nd ref="5048192445"/>
    <nd ref="5048192443"/>
    <nd ref="5048192442"/>
    <nd ref="5048192444"/>
    <nd ref="5048192445"/>
    <tag k="addr:city" v="Cambridge"/>
    <tag k="addr:housenumber" v="5"/>
    <tag k="addr:postcode" v="CB24 3GS"/>
    <tag k="addr:street" v="Days Meadow"/>
    <tag k="building" v="house"/>
    <tag k="source" v="Bing"/>
  </way>
  <way id="517287958" version="1" timestamp="2017-08-21T12:33:33Z" changeset="51303963" uid="6476359" user="NSiecw">
    <nd ref="5048192447"/>
    <nd ref="5048192446"/>
    <nd ref="5048192445"/>
    <nd ref="5048192444"/>
    <nd ref="5048192447"/>
    <tag k="addr:city" v="Cambridge"/>
    <tag k="addr:housenumber" v="3"/>
    <tag k="addr:postcode" v="CB24 3GS"/>
    <tag k="addr:street" v="Days Meadow"/>
    <tag k="building" v="house"/>
    <tag k="source" v="Bing"/>
  </way>
  <way id="517287963" version="1" timestamp="2017-08-21T12:33:33Z" changeset="51303963" uid="6476359" user="NSiecw">
    <nd ref="5048192451"/>
    <nd ref="5048192449"/>
    <nd ref="5048192448"/>
    <nd ref="5048192450"/>
    <nd ref="5048192451"/>
    <tag k="addr:city" v="Cambridge"/>
    <tag k="addr:housenumber" v="36"/>
    <tag k="addr:postcode" v="CB24 3GS"/>
    <tag k="addr:street" v="Days Meadow"/>
    <tag k="building" v="house"/>
    <tag k="source" v="Bing"/>
  </way>
  <way id="517287969" version="1" timestamp="2017-08-21T12:33:33Z" changeset="51303963" uid="6476359" user="NSiecw">
    <nd ref="5048192453"/>
    <nd ref="5048192451"/>
    <nd ref="5048192450"/>
    <nd ref="5048192452"/>
    <nd ref="5048192453"/>
    <tag k="addr:city" v="Cambridge"/>
    <tag k="addr:housenumber" v="38"/>
    <tag k="addr:postcode" v="CB24 3GS"/>
    <tag k="addr:street" v="Days Meadow"/>
    <tag k="building" v="house"/>
    <tag k="source" v="Bing"/>
  </way>
  <way id="517287975" version="1" timestamp="2017-08-21T12:33:33Z" changeset="51303963" uid="6476359" user="NSiecw">
    <nd ref="5048192455"/>
    <nd ref="5048192454"/>
    <nd ref="5048192453"/>
    <nd ref="5048192452"/>
    <nd ref="5048192455"/>
    <tag k="addr:city" v="Cambridge"/>
    <tag k="addr:housenumber" v="40"/>
    <tag k="addr:postcode" v="CB24 3GS"/>
    <tag k="addr:street" v="Days Meadow"/>
    <tag k="building" v="house"/>
    <tag k="source" v="Bing"/>
  </way>
  <way id="517287980" version="1" timestamp="2017-08-21T12:33:33Z" changeset="51303963" uid="6476359" user="NSiecw">
    <nd ref="5048192459"/>
    <nd ref="5048192457"/>
    <nd ref="5048192456"/>
    <nd ref="5048192458"/>
    <nd ref="5048192459"/>
    <tag k="addr:city" v="Cambridge"/>
    <tag k="addr:housenumber" v="34"/>
    <tag k="addr:postcode" v="CB24 3GS"/>
    <tag k="addr:street" v="Days Meadow"/>
    <tag k="building" v="house"/>
    <tag k="source" v="Bing"/>
  </way>
  <way id="517287987" version="1" timestamp="2017-08-21T12:33:33Z" changeset="51303963" uid="6476359" user="NSiecw">
    <nd ref="5048192461"/>
    <nd ref="5048192459"/>
    <nd ref="5048192458"/>
    <nd ref="5048192462"/>
    <nd ref="5048192461"/>
    <tag k="addr:city" v="Cambridge"/>
    <tag k="addr:housenumber" v="32"/>
    <tag k="addr:postcode" v="CB24 3GS"/>
    <tag k="addr:street" v="Days Meadow"/>
    <tag k="building" v="house"/>
    <tag k="source" v="Bing"/>
  </way>
  <way id="517287993" version="1" timestamp="2017-08-21T12:33:33Z" changeset="51303963" uid="6476359" user="NSiecw">
    <nd ref="5048192463"/>
    <nd ref="5048192462"/>
    <nd ref="5048192461"/>
    <nd ref="5048192460"/>
    <nd ref="5048192463"/>
    <tag k="addr:city" v="Cambridge"/>
    <tag k="addr:housenumber" v="30"/>
    <tag k="addr:postcode" v="CB24 3GS"/>
    <tag k="addr:street" v="Days Meadow"/>
    <tag k="building" v="house"/>
    <tag k="source" v="Bing"/>
  </way>
  <way id="517287996" version="1" timestamp="2017-08-21T12:33:34Z" changeset="51303963" uid="6476359" user="NSiecw">
    <nd ref="5048192467"/>
    <nd ref="5048192465"/>
    <nd ref="5048192464"/>
    <nd ref="5048192466"/>
    <nd ref="5048192467"/>
    <tag k="addr:city" v="Cambridge"/>
    <tag k="addr:housenumber" v="42"/>
    <tag k="addr:postcode" v="CB24 3GS"/>
    <tag k="addr:street" v="Days Meadow"/>
    <tag k="building" v="house"/>
    <tag k="source" v="Bing"/>
  </way>
  <way id="517287999" version="1" timestamp="2017-08-21T12:33:34Z" changeset="51303963" uid="6476359" user="NSiecw">
    <nd ref="5048192469"/>
    <nd ref="5048192467"/>
    <nd ref="5048192466"/>
    <nd ref="5048192468"/>
    <nd ref="5048192469"/>
    <tag k="addr:city" v="Cambridge"/>
    <tag k="addr:housenumber" v="44"/>
    <tag k="addr:postcode" v="CB24 3GS"/>
    <tag k="addr:street" v="Days Meadow"/>
    <tag k="building" v="house"/>
    <tag k="source" v="Bing"/>
  </way>
  <way id="517288002" version="1" timestamp="2017-08-21T12:33:34Z" changeset="51303963" uid="6476359" user="NSiecw">
    <nd ref="5048192468"/>
    <nd ref="5048192470"/>
    <nd ref="5048192471"/>
    <nd ref="5048192469"/>
    <nd ref="5048192468"/>
    <tag k="addr:city" v="Cambridge"/>
    <tag k="addr:housenumber" v="46"/>
    <tag k="addr:postcode" v="CB24 3GS"/>
    <tag k="addr:street" v="Days Meadow"/>
    <tag k="building" v="house"/>
    <tag k="source" v="Bing"/>
  </way>
  <way id="517288005" version="2" timestamp="2022-10-05T10:41:11Z" changeset="127040682" uid="16979073" user="kitg">
    <nd ref="5048192473"/>
    <nd ref="5048192472"/>
    <nd ref="5048192471"/>
    <nd ref="5048192470"/>
    <nd ref="5048192473"/>
    <tag k="addr:city" v="Cambridge"/>
    <tag k="addr:housenumber" v="48"/>
    <tag k="addr:postcode" v="CB24 3GS"/>
    <tag k="addr:street" v="Days Meadow"/>
    <tag k="building" v="house"/>
    <tag k="building:levels" v="2"/>
    <tag k="source" v="Bing"/>
  </way>
  <way id="517288008" version="1" timestamp="2017-08-21T12:33:34Z" changeset="51303963" uid="6476359" user="NSiecw">
    <nd ref="5048192477"/>
    <nd ref="5048192475"/>
    <nd ref="5048192474"/>
    <nd ref="5048192476"/>
    <nd ref="5048192477"/>
    <tag k="addr:city" v="Cambridge"/>
    <tag k="addr:housenumber" v="27"/>
    <tag k="addr:postcode" v="CB24 3GS"/>
    <tag k="addr:street" v="Days Meadow"/>
    <tag k="building" v="house"/>
    <tag k="source" v="Bing"/>
  </way>
  <way id="517288011" version="1" timestamp="2017-08-21T12:33:34Z" changeset="51303963" uid="6476359" user="NSiecw">
    <nd ref="5048192479"/>
    <nd ref="5048192477"/>
    <nd ref="5048192476"/>
    <nd ref="5048192478"/>
    <nd ref="5048192479"/>
    <tag k="addr:city" v="Cambridge"/>
    <tag k="addr:housenumber" v="29"/>
    <tag k="addr:postcode" v="CB24 3GS"/>
    <tag k="addr:street" v="Days Meadow"/>
    <tag k="building" v="house"/>
    <tag k="source" v="Bing"/>
  </way>
  <way id="517288014" version="1" timestamp="2017-08-21T12:33:34Z" changeset="51303963" uid="6476359" user="NSiecw">
    <nd ref="5048192480"/>
    <nd ref="5048192479"/>
    <nd ref="5048192478"/>
    <nd ref="5048192481"/>
    <nd ref="5048192480"/>
    <tag k="addr:city" v="Cambridge"/>
    <tag k="addr:housenumber" v="31"/>
    <tag k="addr:postcode" v="CB24 3GS"/>
    <tag k="addr:street" v="Days Meadow"/>
    <tag k="building" v="house"/>
    <tag k="source" v="Bing"/>
  </way>
  <way id="517288018" version="1" timestamp="2017-08-21T12:33:34Z" changeset="51303963" uid="6476359" user="NSiecw">
    <nd ref="5048192483"/>
    <nd ref="5048192482"/>
    <nd ref="5048192481"/>
    <nd ref="5048192480"/>
    <nd ref="5048192483"/>
    <tag k="addr:city" v="Cambridge"/>
    <tag k="addr:housenumber" v="33"/>
    <tag k="addr:postcode" v="CB24 3GS"/>
    <tag k="addr:street" v="Days Meadow"/>
    <tag k="building" v="house"/>
    <tag k="source" v="Bing"/>
  </way>
  <way id="517288021" version="1" timestamp="2017-08-21T12:33:35Z" changeset="51303963" uid="6476359" user="NSiecw">
    <nd ref="5048192488"/>
    <nd ref="5048192485"/>
    <nd ref="5048192484"/>
    <nd ref="5048192487"/>
    <nd ref="5048192488"/>
    <tag k="addr:city" v="Cambridge"/>
    <tag k="addr:housenumber" v="35"/>
    <tag k="addr:postcode" v="CB24 3GS"/>
    <tag k="addr:street" v="Days Meadow"/>
    <tag k="building" v="house"/>
    <tag k="source" v="Bing"/>
  </way>
  <way id="517288024" version="1" timestamp="2017-08-21T12:33:35Z" changeset="51303963" uid="6476359" user="NSiecw">
    <nd ref="5048192489"/>
    <nd ref="5048192488"/>
    <nd ref="5048192487"/>
    <nd ref="5048192486"/>
    <nd ref="5048192489"/>
    <tag k="addr:city" v="Cambridge"/>
    <tag k="addr:housenumber" v="37"/>
    <tag k="addr:postcode" v="CB24 3GS"/>
    <tag k="addr:street" v="Days Meadow"/>
    <tag k="building" v="house"/>
    <tag k="source" v="Bing"/>
  </way>
  <way id="517288027" version="1" timestamp="2017-08-21T12:33:35Z" changeset="51303963" uid="6476359" user="NSiecw">
    <nd ref="5048192493"/>
    <nd ref="5048192491"/>
    <nd ref="5048192490"/>
    <nd ref="5048192492"/>
    <nd ref="5048192493"/>
    <tag k="addr:city" v="Cambridge"/>
    <tag k="addr:housenumber" v="28"/>
    <tag k="addr:postcode" v="CB24 3GS"/>
    <tag k="addr:street" v="Days Meadow"/>
    <tag k="building" v="house"/>
    <tag k="source" v="Bing"/>
  </way>
  <way id="517288031" version="1" timestamp="2017-08-21T12:33:35Z" changeset="51303963" uid="6476359" user="NSiecw">
    <nd ref="5048192494"/>
    <nd ref="5048192493"/>
    <nd ref="5048192492"/>
    <nd ref="5048192495"/>
    <nd ref="5048192494"/>
    <tag k="addr:city" v="Cambridge"/>
    <tag k="addr:housenumber" v="26"/>
    <tag k="addr:postcode" v="CB24 3GS"/>
    <tag k="addr:street" v="Days Meadow"/>
    <tag k="building" v="house"/>
    <tag k="source" v="Bing"/>
  </way>
  <way id="517288034" version="1" timestamp="2017-08-21T12:33:35Z" changeset="51303963" uid="6476359" user="NSiecw">
    <nd ref="5048192497"/>
    <nd ref="5048192496"/>
    <nd ref="5048192495"/>
    <nd ref="5048192494"/>
    <nd ref="5048192497"/>
    <tag k="addr:city" v="Cambridge"/>
    <tag k="addr:housenumber" v="24"/>
    <tag k="addr:postcode" v="CB24 3GS"/>
    <tag k="addr:street" v="Days Meadow"/>
    <tag k="building" v="house"/>
    <tag k="source" v="Bing"/>
  </way>
  <way id="517288038" version="1" timestamp="2017-08-21T12:33:35Z" changeset="51303963" uid="6476359" user="NSiecw">
    <nd ref="5048192501"/>
    <nd ref="5048192500"/>
    <nd ref="5048192499"/>
    <nd ref="5048192498"/>
    <nd ref="5048192501"/>
    <tag k="addr:city" v="Cambridge"/>
    <tag k="addr:housenumber" v="22"/>
    <tag k="addr:postcode" v="CB24 3GS"/>
    <tag k="addr:street" v="Days Meadow"/>
    <tag k="building" v="house"/>
    <tag k="source" v="Bing"/>
  </way>
  <way id="517288041" version="1" timestamp="2017-08-21T12:33:35Z" changeset="51303963" uid="6476359" user="NSiecw">
    <nd ref="5048192505"/>
    <nd ref="5048192504"/>
    <nd ref="5048192503"/>
    <nd ref="5048192502"/>
    <nd ref="5048192505"/>
    <tag k="addr:city" v="Cambridge"/>
    <tag k="addr:housenumber" v="20"/>
    <tag k="addr:postcode" v="CB24 3GS"/>
    <tag k="addr:street" v="Days Meadow"/>
    <tag k="building" v="house"/>
    <tag k="source" v="Bing"/>
  </way>
  <way id="517288046" version="1" timestamp="2017-08-21T12:33:35Z" changeset="51303963" uid="6476359" user="NSiecw">
    <nd ref="5048192509"/>
    <nd ref="5048192507"/>
    <nd ref="5048192506"/>
    <nd ref="5048192508"/>
    <nd ref="5048192509"/>
    <tag k="addr:city" v="Cambridge"/>
    <tag k="addr:housenumber" v="18"/>
    <tag k="addr:postcode" v="CB24 3GS"/>
    <tag k="addr:street" v="Days Meadow"/>
    <tag k="building" v="house"/>
    <tag k="source" v="Bing"/>
  </way>
  <way id="517288050" version="1" timestamp="2017-08-21T12:33:35Z" changeset="51303963" uid="6476359" user="NSiecw">
    <nd ref="5048192511"/>
    <nd ref="5048192510"/>
    <nd ref="5048192509"/>
    <nd ref="5048192508"/>
    <nd ref="5048192511"/>
    <tag k="addr:city" v="Cambridge"/>
    <tag k="addr:housenumber" v="16"/>
    <tag k="addr:postcode" v="CB24 3GS"/>
    <tag k="addr:street" v="Days Meadow"/>
    <tag k="building" v="house"/>
    <tag k="source" v="Bing"/>
  </way>
  <way id="517288053" version="1" timestamp="2017-08-21T12:33:36Z" changeset="51303963" uid="6476359" user="NSiecw">
    <nd ref="5048192515"/>
    <nd ref="5048192513"/>
    <nd ref="5048192512"/>
    <nd ref="5048192514"/>
    <nd ref="5048192515"/>
    <tag k="addr:city" v="Cambridge"/>
    <tag k="addr:housenumber" v="14"/>
    <tag k="addr:postcode" v="CB24 3GS"/>
    <tag k="addr:street" v="Days Meadow"/>
    <tag k="building" v="house"/>
    <tag k="source" v="Bing"/>
  </way>
  <way id="517288058" version="1" timestamp="2017-08-21T12:33:36Z" changeset="51303963" uid="6476359" user="NSiecw">
    <nd ref="5048192517"/>
    <nd ref="5048192515"/>
    <nd ref="5048192514"/>
    <nd ref="5048192516"/>
    <nd ref="5048192517"/>
    <tag k="addr:city" v="Cambridge"/>
    <tag k="addr:housenumber" v="12"/>
    <tag k="addr:postcode" v="CB24 3GS"/>
    <tag k="addr:street" v="Days Meadow"/>
    <tag k="building" v="house"/>
    <tag k="source" v="Bing"/>
  </way>
  <way id="517288064" version="1" timestamp="2017-08-21T12:33:36Z" changeset="51303963" uid="6476359" user="NSiecw">
    <nd ref="5048192518"/>
    <nd ref="5048192517"/>
    <nd ref="5048192516"/>
    <nd ref="5048192519"/>
    <nd ref="5048192518"/>
    <tag k="addr:city" v="Cambridge"/>
    <tag k="addr:housenumber" v="10"/>
    <tag k="addr:postcode" v="CB24 3GS"/>
    <tag k="addr:street" v="Days Meadow"/>
    <tag k="building" v="house"/>
    <tag k="source" v="Bing"/>
  </way>
  <way id="517288069" version="1" timestamp="2017-08-21T12:33:36Z" changeset="51303963" uid="6476359" user="NSiecw">
    <nd ref="5048193721"/>
    <nd ref="5048192519"/>
    <nd ref="5048192518"/>
    <nd ref="5048192520"/>
    <nd ref="5048193721"/>
    <tag k="addr:city" v="Cambridge"/>
    <tag k="addr:housenumber" v="8"/>
    <tag k="addr:postcode" v="CB24 3GS"/>
    <tag k="addr:street" v="Days Meadow"/>
    <tag k="building" v="house"/>
    <tag k="source" v="Bing"/>
  </way>
  <way id="517288075" version="1" timestamp="2017-08-21T12:33:36Z" changeset="51303963" uid="6476359" user="NSiecw">
    <nd ref="5048193723"/>
    <nd ref="5048193722"/>
    <nd ref="5048193721"/>
    <nd ref="5048192520"/>
    <nd ref="5048193723"/>
    <tag k="addr:city" v="Cambridge"/>
    <tag k="addr:housenumber" v="6"/>
    <tag k="addr:postcode" v="CB24 3GS"/>
    <tag k="addr:street" v="Days Meadow"/>
    <tag k="building" v="house"/>
    <tag k="source" v="Bing"/>
  </way>
  <way id="517288080" version="1" timestamp="2017-08-21T12:33:36Z" changeset="51303963" uid="6476359" user="NSiecw">
    <nd ref="5048193726"/>
    <nd ref="5048193725"/>
    <nd ref="5048193724"/>
    <nd ref="5048193727"/>
    <nd ref="5048193726"/>
    <tag k="addr:city" v="Cambridge"/>
    <tag k="addr:housenumber" v="25"/>
    <tag k="addr:postcode" v="CB24 3GS"/>
    <tag k="addr:street" v="Days Meadow"/>
    <tag k="building" v="house"/>
    <tag k="source" v="Bing"/>
  </way>
  <way id="517288085" version="1" timestamp="2017-08-21T12:33:36Z" changeset="51303963" uid="6476359" user="NSiecw">
    <nd ref="5048193729"/>
    <nd ref="5048193727"/>
    <nd ref="5048193726"/>
    <nd ref="5048193728"/>
    <nd ref="5048193729"/>
    <tag k="addr:city" v="Cambridge"/>
    <tag k="addr:housenumber" v="23"/>
    <tag k="addr:postcode" v="CB24 3GS"/>
    <tag k="addr:street" v="Days Meadow"/>
    <tag k="building" v="house"/>
    <tag k="source" v="Bing"/>
  </way>
  <way id="517288092" version="1" timestamp="2017-08-21T12:33:36Z" changeset="51303963" uid="6476359" user="NSiecw">
    <nd ref="5048193730"/>
    <nd ref="5048193729"/>
    <nd ref="5048193728"/>
    <nd ref="5048193731"/>
    <nd ref="5048193730"/>
    <tag k="addr:city" v="Cambridge"/>
    <tag k="addr:housenumber" v="21"/>
    <tag k="addr:postcode" v="CB24 3GS"/>
    <tag k="addr:street" v="Days Meadow"/>
    <tag k="building" v="house"/>
    <tag k="source" v="Bing"/>
  </way>
  <way id="517288094" version="1" timestamp="2017-08-21T12:33:37Z" changeset="51303963" uid="6476359" user="NSiecw">
    <nd ref="5048193733"/>
    <nd ref="5048193732"/>
    <nd ref="5048193731"/>
    <nd ref="5048193730"/>
    <nd ref="5048193733"/>
    <tag k="addr:city" v="Cambridge"/>
    <tag k="addr:housenumber" v="19"/>
    <tag k="addr:postcode" v="CB24 3GS"/>
    <tag k="addr:street" v="Days Meadow"/>
    <tag k="building" v="house"/>
    <tag k="source" v="Bing"/>
  </way>
  <way id="517288095" version="1" timestamp="2017-08-21T12:33:37Z" changeset="51303963" uid="6476359" user="NSiecw">
    <nd ref="5048193737"/>
    <nd ref="5048193736"/>
    <nd ref="5048193735"/>
    <nd ref="5048193734"/>
    <nd ref="5048193737"/>
    <tag k="addr:city" v="Cambridge"/>
    <tag k="addr:housenumber" v="4"/>
    <tag k="addr:postcode" v="CB24 3GS"/>
    <tag k="addr:street" v="Days Meadow"/>
    <tag k="building" v="house"/>
    <tag k="source" v="Bing"/>
  </way>
  <way id="517288096" version="1" timestamp="2017-08-21T12:33:37Z" changeset="51303963" uid="6476359" user="NSiecw">
    <nd ref="5048193741"/>
    <nd ref="5048193740"/>
    <nd ref="5048193739"/>
    <nd ref="5048193738"/>
    <nd ref="5048193741"/>
    <tag k="addr:city" v="Cambridge"/>
    <tag k="addr:housenumber" v="2"/>
    <tag k="addr:postcode" v="CB24 3GS"/>
    <tag k="addr:street" v="Days Meadow"/>
    <tag k="building" v="house"/>
    <tag k="source" v="Bing"/>
  </way>
  <way id="517288097" version="1" timestamp="2017-08-21T12:33:37Z" changeset="51303963" uid="6476359" user="NSiecw">
    <nd ref="5048193745"/>
    <nd ref="5048193744"/>
    <nd ref="5048193743"/>
    <nd ref="5048193742"/>
    <nd ref="5048193745"/>
    <tag k="addr:city" v="Cambridge"/>
    <tag k="addr:housenumber" v="1"/>
    <tag k="addr:postcode" v="CB24 3GS"/>
    <tag k="addr:street" v="Days Meadow"/>
    <tag k="building" v="house"/>
    <tag k="source" v="Bing"/>
  </way>
  <way id="517288098" version="1" timestamp="2017-08-21T12:33:37Z" changeset="51303963" uid="6476359" user="NSiecw">
    <nd ref="5048193749"/>
    <nd ref="5048193748"/>
    <nd ref="5048193747"/>
    <nd ref="5048193746"/>
    <nd ref="5048193749"/>
    <tag k="addr:city" v="Cambridge"/>
    <tag k="addr:housename" v="Orchard End"/>
    <tag k="addr:housenumber" v="9"/>
    <tag k="addr:postcode" v="CB24 3GS"/>
    <tag k="addr:street" v="Days Meadow"/>
    <tag k="building" v="house"/>
    <tag k="source" v="Bing"/>
  </way>
  <way id="517288099" version="1" timestamp="2017-08-21T12:33:37Z" changeset="51303963" uid="6476359" user="NSiecw">
    <nd ref="5048193752"/>
    <nd ref="5048193751"/>
    <nd ref="5048193750"/>
    <nd ref="5048193753"/>
    <nd ref="5048193752"/>
    <tag k="addr:city" v="Cambridge"/>
    <tag k="addr:housenumber" v="17"/>
    <tag k="addr:postcode" v="CB24 3GS"/>
    <tag k="addr:street" v="Days Meadow"/>
    <tag k="building" v="house"/>
    <tag k="source" v="Bing"/>
  </way>
  <way id="517288100" version="1" timestamp="2017-08-21T12:33:37Z" changeset="51303963" uid="6476359" user="NSiecw">
    <nd ref="5048193754"/>
    <nd ref="5048193753"/>
    <nd ref="5048193752"/>
    <nd ref="5048193755"/>
    <nd ref="5048193754"/>
    <tag k="addr:city" v="Cambridge"/>
    <tag k="addr:housenumber" v="15"/>
    <tag k="addr:postcode" v="CB24 3GS"/>
    <tag k="addr:street" v="Days Meadow"/>
    <tag k="building" v="house"/>
    <tag k="source" v="Bing"/>
  </way>
  <way id="517288101" version="1" timestamp="2017-08-21T12:33:37Z" changeset="51303963" uid="6476359" user="NSiecw">
    <nd ref="5048193756"/>
    <nd ref="5048193755"/>
    <nd ref="5048193754"/>
    <nd ref="5048193757"/>
    <nd ref="5048193756"/>
    <tag k="addr:city" v="Cambridge"/>
    <tag k="addr:housenumber" v="13"/>
    <tag k="addr:postcode" v="CB24 3GS"/>
    <tag k="addr:street" v="Days Meadow"/>
    <tag k="building" v="house"/>
    <tag k="source" v="Bing"/>
  </way>
  <way id="517288102" version="1" timestamp="2017-08-21T12:33:38Z" changeset="51303963" uid="6476359" user="NSiecw">
    <nd ref="5048193759"/>
    <nd ref="5048193758"/>
    <nd ref="5048193757"/>
    <nd ref="5048193756"/>
    <nd ref="5048193759"/>
    <tag k="addr:city" v="Cambridge"/>
    <tag k="addr:housenumber" v="11"/>
    <tag k="addr:postcode" v="CB24 3GS"/>
    <tag k="addr:street" v="Days Meadow"/>
    <tag k="building" v="house"/>
    <tag k="source" v="Bing"/>
  </way>
  <way id="550906414" version="3" timestamp="2023-11-14T10:05:36Z" changeset="144003433" uid="5173844" user="ndrw6">
    <nd ref="5320510967"/>
    <nd ref="11348129032"/>
    <nd ref="11348129033"/>
    <nd ref="5320510968"/>
    <nd ref="5320510969"/>
    <nd ref="5320510970"/>
    <nd ref="5320510967"/>
    <tag k="addr:housenumber" v="5"/>
    <tag k="addr:street" v="High Street"/>
    <tag k="building" v="yes"/>
  </way>
  <way id="550914023" version="2" timestamp="2023-10-02T18:36:48Z" changeset="142052272" uid="10633286" user="Moorit">
    <nd ref="5320576414"/>
    <nd ref="5320576415"/>
    <nd ref="5320576416"/>
    <nd ref="5320576417"/>
    <nd ref="5320576414"/>
    <tag k="addr:housenumber" v="8"/>
    <tag k="addr:street" v="Croft Lane"/>
    <tag k="building" v="yes"/>
  </way>
  <way id="550914024" version="2" timestamp="2023-10-02T18:36:48Z" changeset="142052272" uid="10633286" user="Moorit">
    <nd ref="5320576418"/>
    <nd ref="5320576419"/>
    <nd ref="5320576420"/>
    <nd ref="5320577821"/>
    <nd ref="5320577822"/>
    <nd ref="5320577823"/>
    <nd ref="5320576418"/>
    <tag k="addr:housenumber" v="7"/>
    <tag k="addr:street" v="Croft Lane"/>
    <tag k="building" v="yes"/>
  </way>
  <way id="550914034" version="4" timestamp="2019-01-31T12:44:01Z" changeset="66800768" uid="669183" user="Andy_W">
    <nd ref="5320577868"/>
    <nd ref="5320577869"/>
    <nd ref="5320577870"/>
    <nd ref="5320577871"/>
    <nd ref="5320577872"/>
    <nd ref="5320577873"/>
    <nd ref="5320577868"/>
    <tag k="addr:city" v="Cambridge"/>
    <tag k="addr:housenumber" v="27"/>
    <tag k="addr:postcode" v="CB24 3BB"/>
    <tag k="addr:street" v="Longstanton Road"/>
    <tag k="addr:village" v="Oakington"/>
    <tag k="building" v="retail"/>
  </way>
  <way id="550914073" version="6" timestamp="2024-10-15T10:09:07Z" changeset="157913501" uid="1287673" user="sloerunner">
    <nd ref="5320578054"/>
    <nd ref="11348128690"/>
    <nd ref="11348128689"/>
    <nd ref="5320578057"/>
    <nd ref="5320578054"/>
    <tag k="addr:housenumber" v="19"/>
    <tag k="addr:postcode" v="CB24 3BD"/>
    <tag k="addr:street" v="Dry Drayton Road"/>
    <tag k="building" v="house"/>
    <tag k="building:levels" v="2"/>
  </way>
  <way id="550914074" version="6" timestamp="2024-10-15T10:09:07Z" changeset="157913501" uid="1287673" user="sloerunner">
    <nd ref="5320578058"/>
    <nd ref="11348128688"/>
    <nd ref="11348128687"/>
    <nd ref="5320578061"/>
    <nd ref="5320578058"/>
    <tag k="addr:housenumber" v="15"/>
    <tag k="addr:postcode" v="CB24 3BD"/>
    <tag k="addr:street" v="Dry Drayton Road"/>
    <tag k="building" v="house"/>
    <tag k="building:levels" v="2"/>
  </way>
  <way id="550914076" version="2" timestamp="2024-10-15T10:09:07Z" changeset="157913501" uid="1287673" user="sloerunner">
    <nd ref="5320578068"/>
    <nd ref="5320578069"/>
    <nd ref="5320578070"/>
    <nd ref="5320578071"/>
    <nd ref="12252603755"/>
    <nd ref="12252603756"/>
    <nd ref="12252603757"/>
    <nd ref="5320578068"/>
    <tag k="addr:housenumber" v="1"/>
    <tag k="addr:postcode" v="CB24 3BD"/>
    <tag k="addr:street" v="Dry Drayton Road"/>
    <tag k="building" v="house"/>
    <tag k="building:levels" v="2"/>
  </way>
  <way id="550914086" version="1" timestamp="2018-01-04T17:34:03Z" changeset="55164636" uid="5173844" user="ndrw6">
    <nd ref="5320578111"/>
    <nd ref="5320578112"/>
    <tag k="highway" v="residential"/>
    <tag k="name" v="Kettles Close"/>
  </way>
  <way id="550914092" version="4" timestamp="2024-06-01T13:01:33Z" changeset="152119778" uid="104519" user="Rupert Swarbrick">
    <nd ref="5320578135"/>
    <nd ref="5320578136"/>
    <nd ref="5320578137"/>
    <nd ref="5320578138"/>
    <nd ref="5320578135"/>
    <tag k="addr:housenumber" v="1"/>
    <tag k="addr:street" v="Cambridge Road"/>
    <tag k="building" v="house"/>
  </way>
  <way id="551152953" version="1" timestamp="2018-01-05T22:01:26Z" changeset="55199007" uid="5173844" user="ndrw6">
    <nd ref="5322800175"/>
    <nd ref="5322800176"/>
    <nd ref="5322800177"/>
    <tag k="highway" v="residential"/>
  </way>
  <way id="551152954" version="2" timestamp="2022-05-22T18:22:03Z" changeset="121330770" uid="10633286" user="Moorit">
    <nd ref="5322800178"/>
    <nd ref="5322800179"/>
    <nd ref="5322800180"/>
    <nd ref="5322800181"/>
    <nd ref="5322800182"/>
    <nd ref="5322800183"/>
    <nd ref="5322800184"/>
    <nd ref="5322800185"/>
    <nd ref="5322800178"/>
    <tag k="addr:housenumber" v="21"/>
    <tag k="addr:street" v="Coles Lane"/>
    <tag k="building" v="yes"/>
  </way>
  <way id="551187237" version="1" timestamp="2018-01-06T05:36:40Z" changeset="55203450" uid="5173844" user="ndrw6">
    <nd ref="5323196560"/>
    <nd ref="5323196561"/>
    <tag k="highway" v="residential"/>
  </way>
  <way id="551187245" version="1" timestamp="2018-01-06T05:36:40Z" changeset="55203450" uid="5173844" user="ndrw6">
    <nd ref="5323196615"/>
    <nd ref="5323196616"/>
    <tag k="highway" v="residential"/>
  </way>
  <way id="551187303" version="2" timestamp="2021-03-30T09:25:19Z" changeset="101971552" uid="281267" user="smb1001">
    <nd ref="5323196879"/>
    <nd ref="5323196880"/>
    <nd ref="5323196881"/>
    <nd ref="5323196882"/>
    <nd ref="5323196879"/>
    <tag k="addr:housenumber" v="20"/>
    <tag k="addr:postcode" v="CB24 3AU"/>
    <tag k="addr:street" v="Church View"/>
    <tag k="building" v="yes"/>
  </way>
  <way id="551187304" version="2" timestamp="2021-03-30T09:25:19Z" changeset="101971552" uid="281267" user="smb1001">
    <nd ref="5323196883"/>
    <nd ref="5323196884"/>
    <nd ref="5323196885"/>
    <nd ref="5323196886"/>
    <nd ref="5323196883"/>
    <tag k="addr:housenumber" v="21"/>
    <tag k="addr:postcode" v="CB24 3AU"/>
    <tag k="addr:street" v="Church View"/>
    <tag k="building" v="yes"/>
  </way>
  <way id="551187305" version="2" timestamp="2021-03-30T09:25:19Z" changeset="101971552" uid="281267" user="smb1001">
    <nd ref="5323196887"/>
    <nd ref="5323196888"/>
    <nd ref="5323196889"/>
    <nd ref="5323196890"/>
    <nd ref="5323196887"/>
    <tag k="addr:housenumber" v="22"/>
    <tag k="addr:postcode" v="CB24 3AU"/>
    <tag k="addr:street" v="Church View"/>
    <tag k="building" v="yes"/>
  </way>
  <way id="551187306" version="2" timestamp="2021-03-30T09:25:19Z" changeset="101971552" uid="281267" user="smb1001">
    <nd ref="5323196891"/>
    <nd ref="5323196892"/>
    <nd ref="5323196893"/>
    <nd ref="5323196894"/>
    <nd ref="5323196891"/>
    <tag k="addr:housenumber" v="28"/>
    <tag k="addr:postcode" v="CB24 3AU"/>
    <tag k="addr:street" v="Church View"/>
    <tag k="building" v="yes"/>
  </way>
  <way id="551187307" version="2" timestamp="2021-03-30T09:25:19Z" changeset="101971552" uid="281267" user="smb1001">
    <nd ref="5323196895"/>
    <nd ref="5323196896"/>
    <nd ref="5323196897"/>
    <nd ref="5323196898"/>
    <nd ref="5323196895"/>
    <tag k="addr:housenumber" v="27"/>
    <tag k="addr:postcode" v="CB24 3AU"/>
    <tag k="addr:street" v="Church View"/>
    <tag k="building" v="yes"/>
  </way>
  <way id="551187308" version="2" timestamp="2021-03-30T09:25:19Z" changeset="101971552" uid="281267" user="smb1001">
    <nd ref="5323196899"/>
    <nd ref="5323196900"/>
    <nd ref="5323196901"/>
    <nd ref="5323196902"/>
    <nd ref="5323196899"/>
    <tag k="addr:housenumber" v="26"/>
    <tag k="addr:postcode" v="CB24 3AU"/>
    <tag k="addr:street" v="Church View"/>
    <tag k="building" v="yes"/>
  </way>
  <way id="551187309" version="3" timestamp="2021-03-30T09:25:19Z" changeset="101971552" uid="281267" user="smb1001">
    <nd ref="5323196903"/>
    <nd ref="5323196904"/>
    <nd ref="5323196905"/>
    <nd ref="5323196906"/>
    <nd ref="5323196903"/>
    <tag k="addr:housenumber" v="25"/>
    <tag k="addr:postcode" v="CB24 3AU"/>
    <tag k="addr:street" v="Church View"/>
    <tag k="building" v="yes"/>
  </way>
  <way id="551187310" version="2" timestamp="2021-03-30T09:25:19Z" changeset="101971552" uid="281267" user="smb1001">
    <nd ref="5323196907"/>
    <nd ref="5323196908"/>
    <nd ref="5323196909"/>
    <nd ref="5323196910"/>
    <nd ref="5323196907"/>
    <tag k="addr:housenumber" v="23"/>
    <tag k="addr:postcode" v="CB24 3AU"/>
    <tag k="addr:street" v="Church View"/>
    <tag k="building" v="yes"/>
  </way>
  <way id="551187311" version="2" timestamp="2021-03-30T09:25:19Z" changeset="101971552" uid="281267" user="smb1001">
    <nd ref="5323196911"/>
    <nd ref="5323196912"/>
    <nd ref="5323196913"/>
    <nd ref="5323196914"/>
    <nd ref="5323196911"/>
    <tag k="addr:housenumber" v="12"/>
    <tag k="addr:postcode" v="CB24 3AU"/>
    <tag k="addr:street" v="Church View"/>
    <tag k="building" v="yes"/>
  </way>
  <way id="551187312" version="2" timestamp="2021-03-30T09:25:19Z" changeset="101971552" uid="281267" user="smb1001">
    <nd ref="5323196915"/>
    <nd ref="5323196916"/>
    <nd ref="5323196917"/>
    <nd ref="5323196918"/>
    <nd ref="5323196915"/>
    <tag k="addr:housenumber" v="11"/>
    <tag k="addr:postcode" v="CB24 3AU"/>
    <tag k="addr:street" v="Church View"/>
    <tag k="building" v="yes"/>
  </way>
  <way id="551187313" version="2" timestamp="2021-03-30T09:25:19Z" changeset="101971552" uid="281267" user="smb1001">
    <nd ref="5323196919"/>
    <nd ref="5323196920"/>
    <nd ref="5323196921"/>
    <nd ref="5323196922"/>
    <nd ref="5323196919"/>
    <tag k="addr:housenumber" v="10"/>
    <tag k="addr:postcode" v="CB24 3AU"/>
    <tag k="addr:street" v="Church View"/>
    <tag k="building" v="yes"/>
  </way>
  <way id="551187314" version="3" timestamp="2023-11-14T10:05:36Z" changeset="144003433" uid="5173844" user="ndrw6">
    <nd ref="5323196923"/>
    <nd ref="5323196924"/>
    <nd ref="11348129580"/>
    <nd ref="11348129581"/>
    <nd ref="5323196925"/>
    <nd ref="5323196926"/>
    <nd ref="5323196923"/>
    <tag k="addr:housenumber" v="9"/>
    <tag k="addr:postcode" v="CB24 3AU"/>
    <tag k="addr:street" v="Church View"/>
    <tag k="building" v="yes"/>
  </way>
  <way id="551187315" version="2" timestamp="2021-03-30T09:25:19Z" changeset="101971552" uid="281267" user="smb1001">
    <nd ref="5323196927"/>
    <nd ref="5323196928"/>
    <nd ref="5323196929"/>
    <nd ref="5323196930"/>
    <nd ref="5323196927"/>
    <tag k="addr:housenumber" v="13"/>
    <tag k="addr:postcode" v="CB24 3AU"/>
    <tag k="addr:street" v="Church View"/>
    <tag k="building" v="yes"/>
  </way>
  <way id="551187316" version="2" timestamp="2021-03-30T09:25:19Z" changeset="101971552" uid="281267" user="smb1001">
    <nd ref="5323196931"/>
    <nd ref="5323196932"/>
    <nd ref="5323196933"/>
    <nd ref="5323196934"/>
    <nd ref="5323196931"/>
    <tag k="addr:housenumber" v="14"/>
    <tag k="addr:postcode" v="CB24 3AU"/>
    <tag k="addr:street" v="Church View"/>
    <tag k="building" v="yes"/>
  </way>
  <way id="551187317" version="2" timestamp="2021-03-30T09:25:19Z" changeset="101971552" uid="281267" user="smb1001">
    <nd ref="5323196935"/>
    <nd ref="5323196936"/>
    <nd ref="5323196937"/>
    <nd ref="5323196938"/>
    <nd ref="5323196935"/>
    <tag k="addr:housenumber" v="15"/>
    <tag k="addr:postcode" v="CB24 3AU"/>
    <tag k="addr:street" v="Church View"/>
    <tag k="building" v="yes"/>
  </way>
  <way id="551187318" version="2" timestamp="2023-11-14T10:05:36Z" changeset="144003433" uid="5173844" user="ndrw6">
    <nd ref="5323196942"/>
    <nd ref="11348129588"/>
    <nd ref="11348129587"/>
    <nd ref="5323196941"/>
    <nd ref="5323196942"/>
    <tag k="addr:housenumber" v="16"/>
    <tag k="addr:postcode" v="CB24 3AU"/>
    <tag k="addr:street" v="Church View"/>
    <tag k="building" v="yes"/>
  </way>
  <way id="551187319" version="2" timestamp="2021-03-30T09:25:19Z" changeset="101971552" uid="281267" user="smb1001">
    <nd ref="5323196943"/>
    <nd ref="5323196944"/>
    <nd ref="5323196945"/>
    <nd ref="5323196946"/>
    <nd ref="5323196943"/>
    <tag k="addr:housenumber" v="18"/>
    <tag k="addr:postcode" v="CB24 3AU"/>
    <tag k="addr:street" v="Church View"/>
    <tag k="building" v="yes"/>
  </way>
  <way id="551187320" version="2" timestamp="2021-03-30T09:25:19Z" changeset="101971552" uid="281267" user="smb1001">
    <nd ref="5323196947"/>
    <nd ref="5323196948"/>
    <nd ref="5323196949"/>
    <nd ref="5323196950"/>
    <nd ref="5323196947"/>
    <tag k="addr:housenumber" v="19"/>
    <tag k="addr:postcode" v="CB24 3AU"/>
    <tag k="addr:street" v="Church View"/>
    <tag k="building" v="yes"/>
  </way>
  <way id="551187321" version="2" timestamp="2023-11-14T10:05:36Z" changeset="144003433" uid="5173844" user="ndrw6">
    <nd ref="5323196951"/>
    <nd ref="11348129586"/>
    <nd ref="11348129585"/>
    <nd ref="5323196954"/>
    <nd ref="5323196951"/>
    <tag k="addr:housenumber" v="6"/>
    <tag k="addr:postcode" v="CB24 3AU"/>
    <tag k="addr:street" v="Church View"/>
    <tag k="building" v="yes"/>
  </way>
  <way id="551187322" version="2" timestamp="2021-03-30T09:25:19Z" changeset="101971552" uid="281267" user="smb1001">
    <nd ref="5323196955"/>
    <nd ref="5323196956"/>
    <nd ref="5323196957"/>
    <nd ref="5323196958"/>
    <nd ref="5323196955"/>
    <tag k="addr:housenumber" v="4"/>
    <tag k="addr:postcode" v="CB24 3AU"/>
    <tag k="addr:street" v="Church View"/>
    <tag k="building" v="yes"/>
  </way>
  <way id="551187323" version="2" timestamp="2021-03-30T09:25:19Z" changeset="101971552" uid="281267" user="smb1001">
    <nd ref="5323196959"/>
    <nd ref="5323196960"/>
    <nd ref="5323196961"/>
    <nd ref="5323196962"/>
    <nd ref="5323196959"/>
    <tag k="addr:housenumber" v="3"/>
    <tag k="addr:postcode" v="CB24 3AU"/>
    <tag k="addr:street" v="Church View"/>
    <tag k="building" v="yes"/>
  </way>
  <way id="551187324" version="2" timestamp="2023-11-14T10:05:36Z" changeset="144003433" uid="5173844" user="ndrw6">
    <nd ref="5323196966"/>
    <nd ref="11348129584"/>
    <nd ref="11348129583"/>
    <nd ref="5323196965"/>
    <nd ref="5323196966"/>
    <tag k="addr:housenumber" v="8"/>
    <tag k="addr:postcode" v="CB24 3AU"/>
    <tag k="addr:street" v="Church View"/>
    <tag k="building" v="yes"/>
  </way>
  <way id="551187325" version="2" timestamp="2021-03-30T09:25:19Z" changeset="101971552" uid="281267" user="smb1001">
    <nd ref="5323196967"/>
    <nd ref="5323196968"/>
    <nd ref="5323196969"/>
    <nd ref="5323196970"/>
    <nd ref="5323196967"/>
    <tag k="addr:housenumber" v="2"/>
    <tag k="addr:postcode" v="CB24 3AU"/>
    <tag k="addr:street" v="Church View"/>
    <tag k="building" v="yes"/>
  </way>
  <way id="551187326" version="2" timestamp="2021-03-30T09:25:19Z" changeset="101971552" uid="281267" user="smb1001">
    <nd ref="5323196971"/>
    <nd ref="5323196972"/>
    <nd ref="5323196973"/>
    <nd ref="5323196974"/>
    <nd ref="5323196971"/>
    <tag k="addr:housenumber" v="1"/>
    <tag k="addr:postcode" v="CB24 3AU"/>
    <tag k="addr:street" v="Church View"/>
    <tag k="building" v="yes"/>
  </way>
  <way id="582387757" version="6" timestamp="2023-04-25T22:01:50Z" changeset="135361819" uid="1102246" user="jtn20">
    <nd ref="5570014051"/>
    <nd ref="5570014035"/>
    <nd ref="5570014045"/>
    <nd ref="26664094"/>
    <tag k="abutters" v="residential"/>
    <tag k="cycleway:both" v="no"/>
    <tag k="highway" v="tertiary"/>
    <tag k="lanes" v="2"/>
    <tag k="maxspeed" v="40 mph"/>
    <tag k="maxspeed:type" v="sign"/>
    <tag k="name" v="Dry Drayton Road"/>
    <tag k="surface" v="asphalt"/>
  </way>
  <way id="582387758" version="2" timestamp="2019-01-02T13:43:16Z" changeset="65958934" uid="669183" user="Andy_W">
    <nd ref="5570014052"/>
    <nd ref="5570014053"/>
    <nd ref="5570014054"/>
    <nd ref="5570014055"/>
    <nd ref="5570014052"/>
    <tag k="addr:place" v="Oakington"/>
    <tag k="addr:postcode" v="CB24 3BD"/>
    <tag k="addr:street" v="Dry Drayton Road"/>
    <tag k="landuse" v="retail"/>
    <tag k="name" v="Fare Acres Farm"/>
  </way>
  <way id="582387764" version="8" timestamp="2024-06-01T12:43:47Z" changeset="152119444" uid="104519" user="Rupert Swarbrick">
    <nd ref="25277869"/>
    <nd ref="9537321219"/>
    <nd ref="25277870"/>
    <nd ref="1380763483"/>
    <nd ref="1380762868"/>
    <nd ref="25277871"/>
    <nd ref="6754293949"/>
    <nd ref="25277872"/>
    <tag k="highway" v="tertiary"/>
    <tag k="lanes" v="2"/>
    <tag k="maxspeed" v="40 mph"/>
    <tag k="name" v="Dry Drayton Road"/>
    <tag k="surface" v="asphalt"/>
  </way>
  <way id="627447191" version="14" timestamp="2023-08-26T13:35:26Z" changeset="140412358" uid="12992" user="trigpoint">
    <nd ref="5923034427"/>
    <nd ref="5923034428"/>
    <nd ref="4584073003"/>
    <tag k="highway" v="primary"/>
    <tag k="lane_markings" v="no"/>
    <tag k="maxspeed" v="60 mph"/>
    <tag k="maxspeed:type" v="GB:nsl_single"/>
    <tag k="name" v="Huntingdon Road"/>
    <tag k="oneway" v="yes"/>
    <tag k="ref" v="A1307"/>
    <tag k="surface" v="asphalt"/>
  </way>
  <way id="627447192" version="11" timestamp="2023-08-26T13:35:26Z" changeset="140412358" uid="12992" user="trigpoint">
    <nd ref="5923034426"/>
    <nd ref="7683158065"/>
    <nd ref="5923034427"/>
    <tag k="cycleway:left" v="no"/>
    <tag k="highway" v="primary"/>
    <tag k="lane_markings" v="no"/>
    <tag k="maxspeed" v="60 mph"/>
    <tag k="maxspeed:type" v="GB:nsl_single"/>
    <tag k="name" v="Huntingdon Road"/>
    <tag k="oneway" v="yes"/>
    <tag k="ref" v="A1307"/>
    <tag k="surface" v="asphalt"/>
  </way>
  <way id="636365246" version="2" timestamp="2021-03-30T09:25:19Z" changeset="101971552" uid="281267" user="smb1001">
    <nd ref="6001157265"/>
    <nd ref="6001157264"/>
    <nd ref="6001157263"/>
    <nd ref="6001157262"/>
    <nd ref="6001157265"/>
    <tag k="addr:housenumber" v="24"/>
    <tag k="addr:postcode" v="CB24 3AU"/>
    <tag k="addr:street" v="Church View"/>
    <tag k="building" v="yes"/>
  </way>
  <way id="660110771" version="3" timestamp="2023-04-25T22:01:50Z" changeset="135361819" uid="1102246" user="jtn20">
    <nd ref="1605269742"/>
    <nd ref="5320512225"/>
    <tag k="abutters" v="residential"/>
    <tag k="highway" v="tertiary"/>
    <tag k="maxspeed" v="20 mph"/>
    <tag k="maxspeed:type" v="GB:zone20"/>
    <tag k="name" v="Water Lane"/>
    <tag k="surface" v="asphalt"/>
  </way>
  <way id="662208467" version="6" timestamp="2024-01-09T12:02:06Z" changeset="146064155" uid="5229644" user="Nathan_A_RF">
    <nd ref="6199591906"/>
    <nd ref="6199591905"/>
    <nd ref="6199591904"/>
    <nd ref="6199591903"/>
    <nd ref="6199591902"/>
    <nd ref="6199591901"/>
    <nd ref="6199591900"/>
    <nd ref="6199591915"/>
    <nd ref="6199591899"/>
    <nd ref="9739618926"/>
    <nd ref="6199591898"/>
    <nd ref="6199591897"/>
    <nd ref="6199591896"/>
    <nd ref="8211719220"/>
    <nd ref="6199591895"/>
    <nd ref="6199591907"/>
    <nd ref="6199591906"/>
    <tag k="highway" v="tertiary"/>
    <tag k="junction" v="roundabout"/>
    <tag k="oneway" v="yes"/>
    <tag k="surface" v="asphalt"/>
  </way>
  <way id="662208468" version="15" timestamp="2024-12-26T22:52:22Z" changeset="160656444" uid="3468173" user="Hugh24">
    <nd ref="6199591900"/>
    <nd ref="8211719218"/>
    <nd ref="6512266806"/>
    <nd ref="6512266807"/>
    <nd ref="6512266805"/>
    <nd ref="6199591894"/>
    <nd ref="6512266804"/>
    <nd ref="6512266803"/>
    <nd ref="8211689256"/>
    <nd ref="6199591916"/>
    <nd ref="9739618868"/>
    <nd ref="9441063102"/>
    <nd ref="8211689257"/>
    <nd ref="6512266802"/>
    <nd ref="6199591917"/>
    <nd ref="9739618758"/>
    <nd ref="11956277582"/>
    <nd ref="8211689316"/>
    <nd ref="11956277581"/>
    <nd ref="11956277580"/>
    <nd ref="11956277579"/>
    <nd ref="11956277578"/>
    <nd ref="6199591925"/>
    <tag k="highway" v="tertiary"/>
    <tag k="maxspeed" v="70 mph"/>
    <tag k="maxspeed:type" v="GB:nsl_dual"/>
    <tag k="name" v="Northstowe Avenue"/>
    <tag k="note" v="As of 2023-10, speed temporarily(?) limited to 50mph with average speed checks"/>
    <tag k="oneway" v="yes"/>
    <tag k="surface" v="asphalt"/>
  </way>
  <way id="662208469" version="9" timestamp="2024-01-02T16:34:13Z" changeset="145805817" uid="3468173" user="Hugh24">
    <nd ref="6512266808"/>
    <nd ref="1012808682"/>
    <nd ref="6199591908"/>
    <nd ref="11293441724"/>
    <nd ref="6199591914"/>
    <nd ref="11283915107"/>
    <tag k="highway" v="residential"/>
    <tag k="maxspeed" v="40 mph"/>
    <tag k="maxspeed:type" v="sign"/>
    <tag k="name" v="Southern Access Road"/>
    <tag k="surface" v="asphalt"/>
  </way>
  <way id="696267893" version="7" timestamp="2021-10-16T16:43:35Z" changeset="112586163" uid="2400059" user="Pablo Rodriguez">
    <nd ref="25277872"/>
    <nd ref="6764173982"/>
    <nd ref="7683158061"/>
    <nd ref="6764173983"/>
    <nd ref="4584072989"/>
    <tag k="highway" v="tertiary"/>
    <tag k="lane_markings" v="no"/>
    <tag k="name" v="Dry Drayton Road"/>
    <tag k="oneway" v="yes"/>
    <tag k="surface" v="asphalt"/>
  </way>
  <way id="696267894" version="8" timestamp="2023-08-26T13:35:26Z" changeset="140412358" uid="12992" user="trigpoint">
    <nd ref="4584072676"/>
    <nd ref="7683158066"/>
    <nd ref="25277875"/>
    <tag k="highway" v="primary"/>
    <tag k="lane_markings" v="no"/>
    <tag k="maxspeed" v="60 mph"/>
    <tag k="maxspeed:type" v="GB:nsl_single"/>
    <tag k="oneway" v="yes"/>
    <tag k="ref" v="A1307"/>
    <tag k="surface" v="asphalt"/>
  </way>
  <way id="696267895" version="9" timestamp="2024-06-01T12:41:20Z" changeset="152119444" uid="104519" user="Rupert Swarbrick">
    <nd ref="25277875"/>
    <nd ref="7683158067"/>
    <nd ref="4584073011"/>
    <tag k="highway" v="primary"/>
    <tag k="lane_markings" v="no"/>
    <tag k="maxspeed" v="60 mph"/>
    <tag k="maxspeed:type" v="GB:nsl_single"/>
    <tag k="name" v="Dry Drayton Road"/>
    <tag k="oneway" v="yes"/>
    <tag k="ref" v="A1307"/>
    <tag k="surface" v="asphalt"/>
  </way>
  <way id="704981165" version="8" timestamp="2024-06-01T12:41:33Z" changeset="152119444" uid="104519" user="Rupert Swarbrick">
    <nd ref="4584072989"/>
    <nd ref="25277876"/>
    <nd ref="4584072676"/>
    <tag k="highway" v="primary"/>
    <tag k="junction" v="roundabout"/>
    <tag k="lane_markings" v="no"/>
    <tag k="maxspeed" v="60 mph"/>
    <tag k="maxspeed:type" v="GB:nsl_single"/>
    <tag k="surface" v="asphalt"/>
  </way>
  <way id="719533149" version="8" timestamp="2023-08-26T13:35:26Z" changeset="140412358" uid="12992" user="trigpoint">
    <nd ref="4584073003"/>
    <nd ref="8446029014"/>
    <nd ref="4584072683"/>
    <nd ref="4584072681"/>
    <tag k="highway" v="primary"/>
    <tag k="junction" v="roundabout"/>
    <tag k="lane_markings" v="no"/>
    <tag k="maxspeed" v="60 mph"/>
    <tag k="maxspeed:type" v="GB:nsl_single"/>
    <tag k="surface" v="asphalt"/>
  </way>
  <way id="719942427" version="7" timestamp="2023-08-26T13:35:26Z" changeset="140412358" uid="12992" user="trigpoint">
    <nd ref="4584072676"/>
    <nd ref="4584073010"/>
    <nd ref="4584072672"/>
    <nd ref="4584073011"/>
    <tag k="highway" v="primary"/>
    <tag k="junction" v="roundabout"/>
    <tag k="lane_markings" v="no"/>
    <tag k="maxspeed" v="60 mph"/>
    <tag k="maxspeed:type" v="GB:nsl_single"/>
    <tag k="surface" v="asphalt"/>
  </way>
  <way id="719942428" version="7" timestamp="2024-06-01T12:41:41Z" changeset="152119444" uid="104519" user="Rupert Swarbrick">
    <nd ref="4584072681"/>
    <nd ref="4584072992"/>
    <nd ref="4584073002"/>
    <nd ref="4584072990"/>
    <nd ref="4584072989"/>
    <tag k="highway" v="primary"/>
    <tag k="junction" v="roundabout"/>
    <tag k="lane_markings" v="no"/>
    <tag k="maxspeed" v="60 mph"/>
    <tag k="maxspeed:type" v="GB:nsl_single"/>
    <tag k="ref" v="A1307"/>
    <tag k="surface" v="asphalt"/>
  </way>
  <way id="744188996" version="8" timestamp="2024-06-01T12:41:31Z" changeset="152119444" uid="104519" user="Rupert Swarbrick">
    <nd ref="5923034426"/>
    <nd ref="4584072678"/>
    <nd ref="8443180521"/>
    <nd ref="4584073009"/>
    <nd ref="4584073003"/>
    <tag k="highway" v="primary"/>
    <tag k="junction" v="roundabout"/>
    <tag k="lane_markings" v="no"/>
    <tag k="maxspeed" v="60 mph"/>
    <tag k="maxspeed:type" v="GB:nsl_single"/>
    <tag k="surface" v="asphalt"/>
  </way>
  <way id="766793794" version="6" timestamp="2023-04-25T22:01:50Z" changeset="135361819" uid="1102246" user="jtn20">
    <nd ref="26664094"/>
    <nd ref="25277862"/>
    <nd ref="25277863"/>
    <nd ref="26664081"/>
    <nd ref="622595843"/>
    <nd ref="507398079"/>
    <nd ref="25277864"/>
    <nd ref="622595842"/>
    <nd ref="25277865"/>
    <nd ref="25277866"/>
    <nd ref="26664080"/>
    <nd ref="1380763277"/>
    <tag k="cycleway:both" v="no"/>
    <tag k="highway" v="tertiary"/>
    <tag k="lanes" v="2"/>
    <tag k="maxspeed" v="40 mph"/>
    <tag k="maxspeed:type" v="sign"/>
    <tag k="name" v="Dry Drayton Road"/>
    <tag k="surface" v="asphalt"/>
  </way>
  <way id="883039179" version="11" timestamp="2024-12-26T22:52:22Z" changeset="160656444" uid="3468173" user="Hugh24">
    <nd ref="6199591924"/>
    <nd ref="11956277570"/>
    <nd ref="11956277571"/>
    <nd ref="11956277572"/>
    <nd ref="11956277573"/>
    <nd ref="11956242321"/>
    <nd ref="9443212181"/>
    <nd ref="9739618771"/>
    <nd ref="9443212183"/>
    <nd ref="9443212184"/>
    <nd ref="9739618860"/>
    <nd ref="9443212185"/>
    <nd ref="9443212186"/>
    <nd ref="9443212187"/>
    <nd ref="9443212188"/>
    <nd ref="9443212189"/>
    <nd ref="9443212190"/>
    <nd ref="9443212191"/>
    <nd ref="9443212192"/>
    <nd ref="9443212182"/>
    <nd ref="6199591899"/>
    <tag k="highway" v="tertiary"/>
    <tag k="maxspeed" v="70 mph"/>
    <tag k="maxspeed:type" v="GB:nsl_dual"/>
    <tag k="name" v="Northstowe Avenue"/>
    <tag k="note" v="As of 2023-10, speed temporarily(?) limited to 50mph with average speed checks"/>
    <tag k="oneway" v="yes"/>
    <tag k="surface" v="asphalt"/>
  </way>
  <way id="883039180" version="3" timestamp="2023-10-23T16:06:54Z" changeset="143025299" uid="1102246" user="jtn20">
    <nd ref="6512266808"/>
    <nd ref="8211719217"/>
    <nd ref="6199591906"/>
    <tag k="highway" v="residential"/>
    <tag k="oneway" v="yes"/>
    <tag k="surface" v="asphalt"/>
  </way>
  <way id="883039181" version="3" timestamp="2023-10-23T16:06:54Z" changeset="143025299" uid="1102246" user="jtn20">
    <nd ref="6199591895"/>
    <nd ref="6512266808"/>
    <tag k="highway" v="residential"/>
    <tag k="oneway" v="yes"/>
    <tag k="surface" v="asphalt"/>
  </way>
  <way id="1165496236" version="1" timestamp="2023-04-25T22:01:50Z" changeset="135361819" uid="1102246" user="jtn20">
    <nd ref="474726336"/>
    <nd ref="4226021898"/>
    <nd ref="25589543"/>
    <nd ref="164488641"/>
    <nd ref="4226021894"/>
    <nd ref="3147284154"/>
    <nd ref="25589819"/>
    <nd ref="320905847"/>
    <nd ref="3147284151"/>
    <nd ref="1394157156"/>
    <nd ref="3147284150"/>
    <nd ref="320905850"/>
    <nd ref="3147284155"/>
    <nd ref="1394157110"/>
    <nd ref="1394157112"/>
    <nd ref="25589820"/>
    <nd ref="1394157111"/>
    <nd ref="25589821"/>
    <nd ref="4226887252"/>
    <nd ref="3147284144"/>
    <nd ref="1394157113"/>
    <nd ref="2200627878"/>
    <tag k="highway" v="tertiary"/>
    <tag k="maxspeed" v="40 mph"/>
    <tag k="maxspeed:type" v="sign"/>
    <tag k="name" v="Oakington Road"/>
  </way>
  <way id="1223411334" version="3" timestamp="2024-06-01T12:50:48Z" changeset="152119778" uid="104519" user="Rupert Swarbrick">
    <nd ref="11348128675"/>
    <nd ref="622595836"/>
    <nd ref="622595837"/>
    <nd ref="11348128674"/>
    <nd ref="11348128675"/>
    <tag k="addr:housenumber" v="1"/>
    <tag k="addr:postcode" v="CB24 3YW"/>
    <tag k="addr:street" v="Dry Drayton Road"/>
    <tag k="building" v="house"/>
  </way>
  <way id="1223411337" version="3" timestamp="2024-10-15T10:09:07Z" changeset="157913501" uid="1287673" user="sloerunner">
    <nd ref="11348128688"/>
    <nd ref="5320578059"/>
    <nd ref="5320578060"/>
    <nd ref="11348128687"/>
    <nd ref="11348128688"/>
    <tag k="addr:housenumber" v="13"/>
    <tag k="addr:postcode" v="CB24 3BD"/>
    <tag k="addr:street" v="Dry Drayton Road"/>
    <tag k="building" v="house"/>
    <tag k="building:levels" v="2"/>
  </way>
  <way id="1223411338" version="2" timestamp="2024-10-15T10:09:07Z" changeset="157913501" uid="1287673" user="sloerunner">
    <nd ref="11348128690"/>
    <nd ref="5320578055"/>
    <nd ref="5320578056"/>
    <nd ref="11348128689"/>
    <nd ref="11348128690"/>
    <tag k="addr:housenumber" v="17"/>
    <tag k="addr:postcode" v="CB24 3BD"/>
    <tag k="addr:street" v="Dry Drayton Road"/>
    <tag k="building" v="house"/>
    <tag k="building:levels" v="2"/>
  </way>
  <way id="1223411435" version="1" timestamp="2023-11-14T10:05:36Z" changeset="144003433" uid="5173844" user="ndrw6">
    <nd ref="5286729619"/>
    <nd ref="11348129045"/>
    <tag k="highway" v="residential"/>
    <tag k="name" v="Cherry Gardens"/>
    <tag k="source:name" v="local knowledge"/>
  </way>
  <way id="1223411501" version="1" timestamp="2023-11-14T10:05:36Z" changeset="144003433" uid="5173844" user="ndrw6">
    <nd ref="11348129253"/>
    <nd ref="26664158"/>
    <nd ref="11348129252"/>
    <tag k="highway" v="residential"/>
    <tag k="maxspeed" v="20 mph"/>
    <tag k="maxspeed:type" v="GB:zone20"/>
    <tag k="name" v="Holme Close"/>
    <tag k="source:name" v="local knowledge"/>
  </way>
  <way id="1223411536" version="1" timestamp="2023-11-14T10:05:36Z" changeset="144003433" uid="5173844" user="ndrw6">
    <nd ref="26664127"/>
    <nd ref="26664126"/>
    <nd ref="11348129504"/>
    <tag k="highway" v="residential"/>
    <tag k="name" v="Days Meadow"/>
    <tag k="source:name" v="local knowledge"/>
  </way>
  <way id="1223411537" version="1" timestamp="2023-11-14T10:05:36Z" changeset="144003433" uid="5173844" user="ndrw6">
    <nd ref="11348129506"/>
    <nd ref="26664131"/>
    <nd ref="11348129505"/>
    <tag k="highway" v="residential"/>
    <tag k="name" v="Days Meadow"/>
    <tag k="source:name" v="local knowledge"/>
  </way>
  <way id="1223411548" version="1" timestamp="2023-11-14T10:05:36Z" changeset="144003433" uid="5173844" user="ndrw6">
    <nd ref="11348129584"/>
    <nd ref="5323196963"/>
    <nd ref="5323196964"/>
    <nd ref="11348129583"/>
    <nd ref="11348129584"/>
    <tag k="addr:housenumber" v="7"/>
    <tag k="addr:postcode" v="CB24 3AU"/>
    <tag k="addr:street" v="Church View"/>
    <tag k="building" v="yes"/>
  </way>
  <way id="1223411549" version="1" timestamp="2023-11-14T10:05:36Z" changeset="144003433" uid="5173844" user="ndrw6">
    <nd ref="11348129586"/>
    <nd ref="5323196952"/>
    <nd ref="5323196953"/>
    <nd ref="11348129585"/>
    <nd ref="11348129586"/>
    <tag k="addr:housenumber" v="5"/>
    <tag k="addr:postcode" v="CB24 3AU"/>
    <tag k="addr:street" v="Church View"/>
    <tag k="building" v="yes"/>
  </way>
  <way id="1223411550" version="1" timestamp="2023-11-14T10:05:36Z" changeset="144003433" uid="5173844" user="ndrw6">
    <nd ref="11348129588"/>
    <nd ref="5323196939"/>
    <nd ref="5323196940"/>
    <nd ref="11348129587"/>
    <nd ref="11348129588"/>
    <tag k="addr:housenumber" v="17"/>
    <tag k="addr:postcode" v="CB24 3AU"/>
    <tag k="addr:street" v="Church View"/>
    <tag k="building" v="yes"/>
  </way>
  <way id="1223411555" version="1" timestamp="2023-11-14T10:05:36Z" changeset="144003433" uid="5173844" user="ndrw6">
    <nd ref="11348129656"/>
    <nd ref="11348129655"/>
    <tag k="highway" v="residential"/>
    <tag k="name" v="Arcadia Gardens"/>
    <tag k="source:name" v="local knowledge"/>
  </way>
  <way id="1223411556" version="1" timestamp="2023-11-14T10:05:36Z" changeset="144003433" uid="5173844" user="ndrw6">
    <nd ref="11348129658"/>
    <nd ref="11348129657"/>
    <tag k="highway" v="residential"/>
    <tag k="name" v="Arcadia Gardens"/>
    <tag k="source:name" v="local knowledge"/>
  </way>
  <way id="1223411557" version="1" timestamp="2023-11-14T10:05:36Z" changeset="144003433" uid="5173844" user="ndrw6">
    <nd ref="11348129663"/>
    <nd ref="11348129662"/>
    <tag k="highway" v="residential"/>
    <tag k="maxspeed" v="20 mph"/>
    <tag k="maxspeed:type" v="GB:zone20"/>
    <tag k="name" v="Arcadia Gardens"/>
  </way>
  <way id="1306351170" version="1" timestamp="2024-08-08T12:19:36Z" changeset="154976241" uid="8061502" user="galacticism">
    <nd ref="12098753565"/>
    <nd ref="25277833"/>
    <tag k="bridge" v="yes"/>
    <tag k="highway" v="tertiary"/>
    <tag k="lanes" v="2"/>
    <tag k="layer" v="1"/>
    <tag k="maxspeed" v="60 mph"/>
    <tag k="maxspeed:type" v="GB:nsl_single"/>
    <tag k="maxweight:signed" v="no"/>
    <tag k="name" v="Gatehouse Road"/>
    <tag k="surface" v="asphalt"/>
  </way>
  <way id="1321579992" version="1" timestamp="2024-10-06T10:19:16Z" changeset="157532581" uid="10420541" user="Thingummy">
    <nd ref="12229394835"/>
    <nd ref="5320578030"/>
    <nd ref="25277855"/>
    <nd ref="1585130045"/>
    <tag k="abutters" v="residential"/>
    <tag k="cycleway:both" v="no"/>
    <tag k="highway" v="tertiary"/>
    <tag k="lanes" v="2"/>
    <tag k="maxspeed" v="20 mph"/>
    <tag k="maxspeed:type" v="GB:zone20"/>
    <tag k="name" v="Dry Drayton Road"/>
    <tag k="surface" v="asphalt"/>
  </way>
  <way id="1321579993" version="1" timestamp="2024-10-06T10:19:16Z" changeset="157532581" uid="10420541" user="Thingummy">
    <nd ref="25277856"/>
    <nd ref="12229394835"/>
    <tag k="abutters" v="residential"/>
    <tag k="bridge" v="yes"/>
    <tag k="cycleway:both" v="no"/>
    <tag k="highway" v="tertiary"/>
    <tag k="lanes" v="2"/>
    <tag k="layer" v="1"/>
    <tag k="maxspeed" v="20 mph"/>
    <tag k="maxspeed:type" v="GB:zone20"/>
    <tag k="name" v="Dry Drayton Road"/>
    <tag k="surface" v="asphalt"/>
  </way>

</osm>
