<?xml version="1.0" encoding="UTF-8"?>
<osm version="0.6" generator="Overpass API 0.7.62.5 1bd436f1">
<note>The data included in this document is from www.openstreetmap.org. The data is made available under ODbL.</note>
<meta osm_base="2025-04-27T07:26:58Z" areas="2024-12-31T00:49:33Z"/>

  <node id="5276368" lat="52.1723467" lon="-0.0892259" version="4" timestamp="2015-08-27T22:01:52Z" changeset="33631980" uid="2032231" user="narboy"/>
  <node id="111490481" lat="52.1789819" lon="-0.0804873" version="5" timestamp="2024-07-07T11:48:26Z" changeset="153658578" uid="742701" user="kerr smith"/>
  <node id="192484154" lat="52.1563294" lon="-0.0705385" version="5" timestamp="2024-07-07T11:48:26Z" changeset="153658578" uid="742701" user="kerr smith"/>
  <node id="275939921" lat="52.1720996" lon="-0.0770211" version="2" timestamp="2024-07-07T11:48:26Z" changeset="153658578" uid="742701" user="kerr smith"/>
  <node id="2380348023" lat="52.1736141" lon="-0.0778427" version="2" timestamp="2024-07-07T11:48:26Z" changeset="153658578" uid="742701" user="kerr smith"/>
  <node id="9064136254" lat="52.1744371" lon="-0.0782945" version="2" timestamp="2024-07-07T11:48:26Z" changeset="153658578" uid="742701" user="kerr smith"/>
  <way id="12301918" version="2" timestamp="2021-09-05T15:18:34Z" changeset="110754032" uid="5173844" user="ndrw6">
    <nd ref="111490427"/>
    <nd ref="9064136570"/>
    <nd ref="111490441"/>
    <tag k="highway" v="residential"/>
    <tag k="name" v="Rushbrook Close"/>
    <tag k="source:name" v="dictaphone"/>
  </way>
  <way id="12301919" version="21" timestamp="2024-09-01T10:41:50Z" changeset="156048417" uid="742701" user="kerr smith">
    <nd ref="5276368"/>
    <nd ref="3717625494"/>
    <nd ref="577296619"/>
    <nd ref="3717625491"/>
    <nd ref="5276369"/>
    <nd ref="579908855"/>
    <nd ref="12149509524"/>
    <nd ref="3717625488"/>
    <nd ref="3717625503"/>
    <nd ref="577296620"/>
    <nd ref="3717625493"/>
    <nd ref="5276371"/>
    <nd ref="3717625490"/>
    <nd ref="1523259089"/>
    <nd ref="276329065"/>
    <nd ref="1523259121"/>
    <nd ref="1523259114"/>
    <nd ref="5276372"/>
    <nd ref="3717625505"/>
    <nd ref="3717625502"/>
    <nd ref="5276373"/>
    <nd ref="1523259195"/>
    <nd ref="3717618563"/>
    <nd ref="1523259175"/>
    <nd ref="5276375"/>
    <nd ref="1523259155"/>
    <nd ref="276328501"/>
    <nd ref="3717618562"/>
    <nd ref="1523259071"/>
    <nd ref="5276377"/>
    <nd ref="3717618568"/>
    <nd ref="3717618567"/>
    <nd ref="1523259108"/>
    <nd ref="3717618565"/>
    <nd ref="12017171272"/>
    <nd ref="12017171271"/>
    <nd ref="374419997"/>
    <tag k="highway" v="secondary"/>
    <tag k="lit" v="no"/>
    <tag k="ref" v="B1046"/>
    <tag k="source" v="Class and ref from NPE"/>
  </way>
  <way id="12301920" version="4" timestamp="2021-09-05T15:18:34Z" changeset="110754032" uid="5173844" user="ndrw6">
    <nd ref="9064136254"/>
    <nd ref="9064136253"/>
    <nd ref="9064136255"/>
    <nd ref="111490443"/>
    <nd ref="5991846592"/>
    <nd ref="111490541"/>
    <nd ref="111490545"/>
    <tag k="highway" v="residential"/>
    <tag k="name" v="The Station Works"/>
    <tag k="source:name" v="dictaphone"/>
  </way>
  <way id="12301951" version="4" timestamp="2015-08-27T22:03:55Z" changeset="33632015" uid="2032231" user="narboy">
    <nd ref="5276359"/>
    <nd ref="3717626213"/>
    <nd ref="3717626214"/>
    <nd ref="111490423"/>
    <tag k="highway" v="residential"/>
    <tag k="lit" v="yes"/>
    <tag k="name" v="High Street"/>
  </way>
  <way id="12301952" version="3" timestamp="2024-09-02T21:32:53Z" changeset="156117622" uid="742701" user="kerr smith">
    <nd ref="5276356"/>
    <nd ref="12152467212"/>
    <nd ref="111490423"/>
    <nd ref="111490420"/>
    <tag k="highway" v="residential"/>
    <tag k="lit" v="no"/>
    <tag k="name" v="Park Lane"/>
    <tag k="source:name" v="dictaphone"/>
  </way>
  <way id="12301953" version="2" timestamp="2021-09-05T15:18:34Z" changeset="110754032" uid="5173844" user="ndrw6">
    <nd ref="111490415"/>
    <nd ref="9064136571"/>
    <nd ref="111490427"/>
    <nd ref="111490425"/>
    <tag k="highway" v="residential"/>
    <tag k="name" v="Rushbrook Close"/>
    <tag k="source:name" v="dictaphone"/>
  </way>
  <way id="12301954" version="5" timestamp="2021-09-05T15:18:34Z" changeset="110754032" uid="5173844" user="ndrw6">
    <nd ref="111490496"/>
    <nd ref="111490415"/>
    <nd ref="4163427424"/>
    <nd ref="111490432"/>
    <nd ref="9064136465"/>
    <nd ref="111490429"/>
    <tag k="highway" v="residential"/>
    <tag k="lit" v="yes"/>
    <tag k="name" v="Rushbrook Close"/>
    <tag k="source:name" v="dictaphone;survey"/>
  </way>
  <way id="12301959" version="11" timestamp="2024-09-02T21:32:53Z" changeset="156117622" uid="742701" user="kerr smith">
    <nd ref="111490481"/>
    <nd ref="3717626754"/>
    <nd ref="3717626753"/>
    <nd ref="111490480"/>
    <nd ref="1766475525"/>
    <nd ref="575672496"/>
    <nd ref="5276355"/>
    <nd ref="3717626752"/>
    <nd ref="111490503"/>
    <nd ref="3717626751"/>
    <nd ref="3717627240"/>
    <nd ref="3717627239"/>
    <nd ref="111497909"/>
    <nd ref="111490492"/>
    <nd ref="3717626216"/>
    <nd ref="12147756385"/>
    <nd ref="5276356"/>
    <nd ref="12152467210"/>
    <nd ref="1766475512"/>
    <nd ref="12147756384"/>
    <nd ref="5276358"/>
    <nd ref="1766475511"/>
    <nd ref="12152467211"/>
    <nd ref="5276359"/>
    <tag k="abutters" v="residential"/>
    <tag k="highway" v="secondary"/>
    <tag k="lit" v="yes"/>
    <tag k="maxspeed" v="40 mph"/>
    <tag k="name" v="School Lane"/>
    <tag k="ref" v="B1046"/>
    <tag k="source" v="gps"/>
    <tag k="source:name" v="dictaphone;survey"/>
    <tag k="source:ref" v="dictaphone;survey"/>
  </way>
  <way id="12302059" version="12" timestamp="2024-09-02T09:39:56Z" changeset="156088994" uid="742701" user="kerr smith">
    <nd ref="5276359"/>
    <nd ref="3717626212"/>
    <nd ref="576932794"/>
    <nd ref="3717626217"/>
    <nd ref="111490496"/>
    <nd ref="3717625501"/>
    <nd ref="576932789"/>
    <nd ref="3717625498"/>
    <nd ref="5276361"/>
    <nd ref="5276362"/>
    <nd ref="5276364"/>
    <nd ref="1766475513"/>
    <nd ref="1766475514"/>
    <nd ref="12151288661"/>
    <nd ref="111490438"/>
    <nd ref="5276365"/>
    <nd ref="3717625495"/>
    <nd ref="1766475515"/>
    <nd ref="111490436"/>
    <nd ref="12147756460"/>
    <nd ref="575672483"/>
    <nd ref="111490434"/>
    <nd ref="3717625492"/>
    <nd ref="5276366"/>
    <nd ref="12147756459"/>
    <nd ref="1766475516"/>
    <nd ref="3717625489"/>
    <nd ref="111490449"/>
    <nd ref="3717625504"/>
    <nd ref="3717625500"/>
    <nd ref="111490452"/>
    <nd ref="3717625497"/>
    <nd ref="3224043498"/>
    <nd ref="5276368"/>
    <tag k="highway" v="secondary"/>
    <tag k="lit" v="yes"/>
    <tag k="maxspeed" v="40 mph"/>
    <tag k="name" v="High Street"/>
    <tag k="ref" v="B1046"/>
    <tag k="source" v="gps"/>
    <tag k="source:name" v="dictaphone"/>
    <tag k="source:ref" v="dictaphone"/>
  </way>
  <way id="24558475" version="8" timestamp="2024-02-24T20:10:26Z" changeset="147869359" uid="742701" user="kerr smith">
    <nd ref="5276371"/>
    <nd ref="267023814"/>
    <nd ref="267023815"/>
    <nd ref="267023816"/>
    <nd ref="267023817"/>
    <nd ref="11659531428"/>
    <nd ref="267023818"/>
    <nd ref="11659531423"/>
    <nd ref="579908845"/>
    <nd ref="11659490832"/>
    <nd ref="267023819"/>
    <nd ref="11660275303"/>
    <nd ref="2377761930"/>
    <tag k="highway" v="unclassified"/>
    <tag k="surface" v="asphalt"/>
  </way>
  <way id="25327996" version="9" timestamp="2017-10-10T15:37:36Z" changeset="52797955" uid="281267" user="smb1001">
    <nd ref="275939921"/>
    <nd ref="111490547"/>
    <nd ref="25609418"/>
    <tag k="abutters" v="residential"/>
    <tag k="alt_name" v="Old North Road"/>
    <tag k="highway" v="primary"/>
    <tag k="lanes" v="2"/>
    <tag k="lit" v="no"/>
    <tag k="maxspeed" v="40 mph"/>
    <tag k="name" v="Ermine Way"/>
    <tag k="old_ref" v="A14"/>
    <tag k="ref" v="A1198"/>
    <tag k="source:name" v="dictaphone"/>
  </way>
  <way id="25328060" version="19" timestamp="2024-07-07T11:48:26Z" changeset="153658578" uid="742701" user="kerr smith">
    <nd ref="192484154"/>
    <nd ref="12039833319"/>
    <nd ref="25609412"/>
    <nd ref="275941755"/>
    <nd ref="7994382803"/>
    <nd ref="275939872"/>
    <nd ref="260377071"/>
    <nd ref="12039739619"/>
    <nd ref="25609413"/>
    <nd ref="12039739618"/>
    <nd ref="275939883"/>
    <nd ref="275939878"/>
    <nd ref="3752628956"/>
    <nd ref="275939866"/>
    <nd ref="12039739617"/>
    <nd ref="25609414"/>
    <nd ref="1479005696"/>
    <nd ref="25609415"/>
    <nd ref="12039739616"/>
    <nd ref="12039739615"/>
    <nd ref="275939865"/>
    <nd ref="12039739614"/>
    <nd ref="275939871"/>
    <nd ref="275941744"/>
    <nd ref="2377928557"/>
    <nd ref="1478978544"/>
    <nd ref="275939869"/>
    <nd ref="25609416"/>
    <nd ref="11660275412"/>
    <nd ref="11660275449"/>
    <nd ref="260377142"/>
    <nd ref="12039739613"/>
    <nd ref="3717998115"/>
    <nd ref="12039739612"/>
    <nd ref="275939919"/>
    <nd ref="12039739611"/>
    <nd ref="25609417"/>
    <nd ref="12039739610"/>
    <nd ref="275939921"/>
    <tag k="highway" v="primary"/>
    <tag k="lanes" v="2"/>
    <tag k="lit" v="no"/>
    <tag k="maxspeed" v="50 mph"/>
    <tag k="maxspeed:type" v="sign"/>
    <tag k="name" v="Ermine Way"/>
    <tag k="old_ref" v="A14"/>
    <tag k="ref" v="A1198"/>
    <tag k="surface" v="asphalt"/>
  </way>
  <way id="45397319" version="3" timestamp="2019-01-01T18:41:48Z" changeset="65939666" uid="242345" user="confusedbuffalo">
    <nd ref="267023814"/>
    <nd ref="3717625499"/>
    <nd ref="3717625496"/>
    <nd ref="577296620"/>
    <tag k="highway" v="unclassified"/>
    <tag k="surface" v="asphalt"/>
  </way>
  <way id="218753161" version="6" timestamp="2024-08-31T12:51:24Z" changeset="156013789" uid="742701" user="kerr smith">
    <nd ref="2279777642"/>
    <nd ref="2279777640"/>
    <nd ref="2279777652"/>
    <nd ref="2279777638"/>
    <nd ref="2279777637"/>
    <nd ref="2279777639"/>
    <nd ref="12147756303"/>
    <nd ref="2279777643"/>
    <nd ref="2279777641"/>
    <nd ref="2279777647"/>
    <nd ref="2279777635"/>
    <nd ref="2279777649"/>
    <nd ref="12147756304"/>
    <nd ref="2279777644"/>
    <nd ref="12147756307"/>
    <nd ref="12147756308"/>
    <nd ref="2279777645"/>
    <nd ref="2279777646"/>
    <nd ref="2279777650"/>
    <nd ref="12147756302"/>
    <nd ref="2279777636"/>
    <nd ref="12147756306"/>
    <nd ref="12147756305"/>
    <nd ref="2279777642"/>
    <tag k="amenity" v="place_of_worship"/>
    <tag k="building" v="church"/>
    <tag k="denomination" v="anglican"/>
    <tag k="name" v="Saint Mary The Virgin (Longstowe Parish Church)"/>
    <tag k="religion" v="christian"/>
    <tag k="wikidata" v="Q17550346"/>
  </way>
  <way id="218870922" version="2" timestamp="2018-10-17T00:03:30Z" changeset="63594214" uid="5173844" user="ndrw6">
    <nd ref="2280800804"/>
    <nd ref="2280800826"/>
    <nd ref="2280800834"/>
    <nd ref="2280800974"/>
    <nd ref="2280800911"/>
    <nd ref="2280800936"/>
    <nd ref="2280800928"/>
    <nd ref="2280800907"/>
    <nd ref="2280801045"/>
    <nd ref="2280800954"/>
    <nd ref="2280800960"/>
    <nd ref="2280800951"/>
    <nd ref="2280800841"/>
    <nd ref="2280800866"/>
    <nd ref="2280801008"/>
    <nd ref="2280801004"/>
    <nd ref="2280800804"/>
    <tag k="addr:postcode" v="CB23 2UH"/>
    <tag k="building" v="yes"/>
    <tag k="name" v="Longstowe Hall"/>
    <tag k="website" v="https://longstowehall.co.uk/"/>
    <tag k="wikidata" v="Q26493587"/>
  </way>
  <way id="218870929" version="1" timestamp="2013-04-25T12:16:13Z" changeset="15860154" uid="281267" user="smb1001">
    <nd ref="2280800903"/>
    <nd ref="2280800971"/>
    <nd ref="2280800972"/>
    <nd ref="2280800980"/>
    <nd ref="2280800990"/>
    <nd ref="2280800986"/>
    <nd ref="2280800948"/>
    <nd ref="2280800930"/>
    <nd ref="2280800932"/>
    <nd ref="2280800956"/>
    <nd ref="2280800903"/>
    <tag k="building" v="yes"/>
    <tag k="name" v="Home Farm"/>
  </way>
  <way id="229165416" version="7" timestamp="2024-02-24T20:10:26Z" changeset="147869359" uid="742701" user="kerr smith">
    <nd ref="2377935717"/>
    <nd ref="2377935730"/>
    <nd ref="2377935726"/>
    <nd ref="2377935771"/>
    <nd ref="2377935784"/>
    <nd ref="11660275467"/>
    <nd ref="11660275468"/>
    <nd ref="2377935717"/>
    <tag k="addr:postcode" v="CB23 2UT"/>
    <tag k="amenity" v="restaurant"/>
    <tag k="building" v="yes"/>
    <tag k="name" v="The Red House"/>
    <tag k="phone" v="+44 1954 264777"/>
    <tag k="source:name" v="survey"/>
    <tag k="website" v="https://www.the-redhouse.co.uk/"/>
    <tag k="wikidata" v="Q26457678"/>
  </way>
  <way id="229435837" version="8" timestamp="2024-08-31T12:51:24Z" changeset="156013789" uid="742701" user="kerr smith">
    <nd ref="2380348023"/>
    <nd ref="579257644"/>
    <nd ref="9064136254"/>
    <nd ref="111490446"/>
    <nd ref="3718023119"/>
    <nd ref="12039739609"/>
    <nd ref="12147756526"/>
    <nd ref="575672494"/>
    <nd ref="12039739608"/>
    <nd ref="25609419"/>
    <nd ref="12039739607"/>
    <nd ref="3718023118"/>
    <nd ref="12039739605"/>
    <nd ref="12039739606"/>
    <nd ref="5276353"/>
    <nd ref="111490481"/>
    <nd ref="12039739604"/>
    <nd ref="111490500"/>
    <tag k="abutters" v="residential"/>
    <tag k="alt_name" v="Old North Road"/>
    <tag k="highway" v="primary"/>
    <tag k="lanes" v="2"/>
    <tag k="lit" v="no"/>
    <tag k="maxspeed" v="40 mph"/>
    <tag k="name" v="Ermine Way"/>
    <tag k="old_ref" v="A14"/>
    <tag k="ref" v="A1198"/>
    <tag k="source:name" v="dictaphone"/>
    <tag k="surface" v="asphalt"/>
  </way>
  <way id="303110128" version="2" timestamp="2024-09-02T14:58:59Z" changeset="156103182" uid="742701" user="kerr smith">
    <nd ref="3074128925"/>
    <nd ref="111497918"/>
    <nd ref="12151754173"/>
    <nd ref="3074128918"/>
    <nd ref="12151754177"/>
    <nd ref="3074128920"/>
    <nd ref="12151754174"/>
    <nd ref="3074128925"/>
    <tag k="amenity" v="townhall"/>
    <tag k="building" v="yes"/>
    <tag k="name" v="Longstowe Village Hall"/>
  </way>
  <way id="303110130" version="2" timestamp="2023-09-03T21:35:11Z" changeset="140778038" uid="10633286" user="Moorit">
    <nd ref="3074128436"/>
    <nd ref="3074128435"/>
    <nd ref="3074128434"/>
    <nd ref="3074128433"/>
    <nd ref="3074126629"/>
    <nd ref="3074126631"/>
    <nd ref="3074126627"/>
    <nd ref="3074126628"/>
    <nd ref="3074126630"/>
    <nd ref="3074126632"/>
    <nd ref="3074128436"/>
    <tag k="addr:housenumber" v="74"/>
    <tag k="addr:postcode" v="CB23 2UN"/>
    <tag k="addr:street" v="High Street"/>
    <tag k="building" v="yes"/>
  </way>
  <way id="303110140" version="2" timestamp="2024-12-11T08:16:41Z" changeset="160157651" uid="10633286" user="Moorit">
    <nd ref="3074128508"/>
    <nd ref="3074128507"/>
    <nd ref="3074128505"/>
    <nd ref="3074128506"/>
    <nd ref="3074128508"/>
    <tag k="addr:housenumber" v="51"/>
    <tag k="addr:street" v="High Street"/>
    <tag k="building" v="yes"/>
  </way>
  <way id="303110142" version="2" timestamp="2024-12-11T08:16:41Z" changeset="160157651" uid="10633286" user="Moorit">
    <nd ref="3074128494"/>
    <nd ref="3074128503"/>
    <nd ref="3074128500"/>
    <nd ref="3074128492"/>
    <nd ref="3074128494"/>
    <tag k="addr:housenumber" v="53"/>
    <tag k="addr:street" v="High Street"/>
    <tag k="building" v="yes"/>
  </way>
  <way id="316296065" version="2" timestamp="2021-09-05T15:18:34Z" changeset="110754032" uid="5173844" user="ndrw6">
    <nd ref="9064136431"/>
    <nd ref="3224043507"/>
    <nd ref="3224043506"/>
    <nd ref="9064136433"/>
    <nd ref="9064136432"/>
    <nd ref="9064136430"/>
    <nd ref="9064136431"/>
    <tag k="addr:housenumber" v="141"/>
    <tag k="addr:postcode" v="CB23 2UN"/>
    <tag k="addr:street" v="High Street"/>
    <tag k="building" v="residential"/>
  </way>
  <way id="316296068" version="2" timestamp="2021-09-05T15:18:34Z" changeset="110754032" uid="5173844" user="ndrw6">
    <nd ref="3224043522"/>
    <nd ref="3224043520"/>
    <nd ref="3224043526"/>
    <nd ref="3224043528"/>
    <nd ref="3224043525"/>
    <nd ref="3224043529"/>
    <nd ref="3224043522"/>
    <tag k="addr:housenumber" v="131"/>
    <tag k="addr:postcode" v="CB23 2UN"/>
    <tag k="addr:street" v="High Street"/>
    <tag k="building" v="residential"/>
  </way>
  <way id="345428806" version="3" timestamp="2024-06-28T10:44:31Z" changeset="153286980" uid="742701" user="kerr smith">
    <nd ref="3521113574"/>
    <nd ref="3521113575"/>
    <nd ref="12017171320"/>
    <nd ref="12017171319"/>
    <nd ref="3521113574"/>
    <tag k="addr:postcode" v="CB23 2UR"/>
    <tag k="building" v="house"/>
    <tag k="name" v="Crossing Keeper Cottage"/>
  </way>
  <way id="979821068" version="2" timestamp="2023-10-21T10:05:08Z" changeset="142916462" uid="6816132" user="CjMalone">
    <nd ref="9064136430"/>
    <nd ref="3224043503"/>
    <nd ref="3224043502"/>
    <nd ref="3224043504"/>
    <nd ref="3224043505"/>
    <nd ref="9064136431"/>
    <nd ref="9064136430"/>
    <tag k="addr:city" v="Cambridge"/>
    <tag k="addr:housenumber" v="143"/>
    <tag k="addr:postcode" v="CB23 2UN"/>
    <tag k="addr:street" v="High Street"/>
    <tag k="addr:village" v="Longstow"/>
    <tag k="amenity" v="post_office"/>
    <tag k="brand" v="Post Office"/>
    <tag k="brand:wikidata" v="Q1783168"/>
    <tag k="building" v="residential"/>
    <tag k="name" v="Longstow Post Office"/>
    <tag k="opening_hours" v="Mo,We,Th 09:00-12:30"/>
    <tag k="ref:pol_id" v="16334"/>
    <tag k="source:opening_hours" v="pol_branch_list_2018-02"/>
    <tag k="website" v="https://www.postoffice.co.uk/branch-finder/2351137/longstow"/>
  </way>
  <way id="979821069" version="1" timestamp="2021-09-05T15:18:34Z" changeset="110754032" uid="5173844" user="ndrw6">
    <nd ref="9064136433"/>
    <nd ref="3224043509"/>
    <nd ref="3224043510"/>
    <nd ref="9064136435"/>
    <nd ref="9064136434"/>
    <nd ref="9064136432"/>
    <nd ref="9064136433"/>
    <tag k="addr:housenumber" v="139"/>
    <tag k="addr:postcode" v="CB23 2UN"/>
    <tag k="addr:street" v="High Street"/>
    <tag k="building" v="residential"/>
  </way>
  <way id="979821070" version="1" timestamp="2021-09-05T15:18:34Z" changeset="110754032" uid="5173844" user="ndrw6">
    <nd ref="9064136435"/>
    <nd ref="3224043512"/>
    <nd ref="3224043511"/>
    <nd ref="9064136437"/>
    <nd ref="9064136436"/>
    <nd ref="9064136434"/>
    <nd ref="9064136435"/>
    <tag k="addr:housenumber" v="137"/>
    <tag k="addr:postcode" v="CB23 2UN"/>
    <tag k="addr:street" v="High Street"/>
    <tag k="building" v="residential"/>
  </way>
  <way id="979821071" version="1" timestamp="2021-09-05T15:18:34Z" changeset="110754032" uid="5173844" user="ndrw6">
    <nd ref="9064136437"/>
    <nd ref="3224043514"/>
    <nd ref="3224043515"/>
    <nd ref="9064136439"/>
    <nd ref="9064136438"/>
    <nd ref="9064136436"/>
    <nd ref="9064136437"/>
    <tag k="addr:housenumber" v="135"/>
    <tag k="addr:postcode" v="CB23 2UN"/>
    <tag k="addr:street" v="High Street"/>
    <tag k="building" v="residential"/>
  </way>
  <way id="979821072" version="1" timestamp="2021-09-05T15:18:34Z" changeset="110754032" uid="5173844" user="ndrw6">
    <nd ref="9064136439"/>
    <nd ref="3224043518"/>
    <nd ref="3224043516"/>
    <nd ref="3224043519"/>
    <nd ref="3224043521"/>
    <nd ref="9064136438"/>
    <nd ref="9064136439"/>
    <tag k="addr:housenumber" v="133"/>
    <tag k="addr:postcode" v="CB23 2UN"/>
    <tag k="addr:street" v="High Street"/>
    <tag k="building" v="residential"/>
  </way>
  <way id="979821076" version="1" timestamp="2021-09-05T15:18:34Z" changeset="110754032" uid="5173844" user="ndrw6">
    <nd ref="9064136465"/>
    <nd ref="9064136464"/>
    <tag k="highway" v="residential"/>
    <tag k="lit" v="yes"/>
    <tag k="name" v="Rushbrook Close"/>
    <tag k="source:name" v="dictaphone;survey"/>
  </way>
  <way id="979821098" version="1" timestamp="2021-09-05T15:18:34Z" changeset="110754032" uid="5173844" user="ndrw6">
    <nd ref="9064136570"/>
    <nd ref="9064136569"/>
    <tag k="highway" v="residential"/>
    <tag k="name" v="Rushbrook Close"/>
    <tag k="source:name" v="dictaphone"/>
  </way>
  <way id="979821110" version="2" timestamp="2024-01-15T21:23:00Z" changeset="146298673" uid="10633286" user="Moorit">
    <nd ref="9064136598"/>
    <nd ref="3074128849"/>
    <nd ref="3074128847"/>
    <nd ref="9064136597"/>
    <nd ref="9064136598"/>
    <tag k="addr:housenumber" v="25"/>
    <tag k="addr:street" v="High Street"/>
    <tag k="building" v="yes"/>
  </way>

</osm>
