<?xml version="1.0" encoding="UTF-8"?>
<osm version="0.6" generator="Overpass API 0.7.62.5 1bd436f1">
<note>The data included in this document is from www.openstreetmap.org. The data is made available under ODbL.</note>
<meta osm_base="2025-04-27T07:24:01Z" areas="2024-12-31T00:49:33Z"/>

  <node id="608662" lat="52.2180723" lon="0.3121219" version="2" timestamp="2011-12-19T22:54:21Z" changeset="10159843" uid="5926" user="c2r"/>
  <node id="608754" lat="52.2141780" lon="0.2161535" version="15" timestamp="2014-05-09T09:21:47Z" changeset="22226314" uid="1723158" user="ozhiker2"/>
  <node id="608760" lat="52.2150568" lon="0.2227659" version="8" timestamp="2025-03-12T11:07:49Z" changeset="163522564" uid="5229644" user="Nathan_A_RF"/>
  <node id="5249905" lat="52.2301019" lon="0.2345656" version="2" timestamp="2008-12-22T14:07:57Z" changeset="547380" uid="74897" user="Rowland"/>
  <node id="18352520" lat="52.2322908" lon="0.1717787" version="10" timestamp="2014-05-08T10:40:46Z" changeset="22206539" uid="1723158" user="ozhiker2"/>
  <node id="20960179" lat="52.2049258" lon="0.2624816" version="2" timestamp="2011-08-12T16:24:18Z" changeset="8997157" uid="504708" user="HillWithSmallFields"/>
  <node id="20960496" lat="52.2191290" lon="0.2382144" version="4" timestamp="2014-10-12T08:13:34Z" changeset="26020424" uid="1700634" user="sommerluk">
    <tag k="junction" v="yes"/>
    <tag k="name" v="Dunsley Corner"/>
  </node>
  <node id="316821837" lat="52.2125824" lon="0.2080820" version="11" timestamp="2011-09-29T19:34:59Z" changeset="9429919" uid="499318" user="jpsa"/>
  <node id="979773018" lat="52.2128145" lon="0.2091097" version="3" timestamp="2011-09-29T19:34:59Z" changeset="9429919" uid="499318" user="jpsa"/>
  <way id="1881406" version="34" timestamp="2025-03-12T11:07:49Z" changeset="163522564" uid="5229644" user="Nathan_A_RF">
    <nd ref="608754"/>
    <nd ref="620848"/>
    <nd ref="320896594"/>
    <nd ref="1554829608"/>
    <nd ref="620850"/>
    <nd ref="12655866536"/>
    <nd ref="620852"/>
    <nd ref="2845556377"/>
    <nd ref="620853"/>
    <nd ref="1554829610"/>
    <nd ref="620854"/>
    <nd ref="1554829603"/>
    <nd ref="620855"/>
    <nd ref="24942304"/>
    <nd ref="2845556387"/>
    <nd ref="620857"/>
    <nd ref="2845556388"/>
    <nd ref="2845556390"/>
    <nd ref="620858"/>
    <nd ref="2845556391"/>
    <nd ref="24942307"/>
    <nd ref="1239233898"/>
    <nd ref="620860"/>
    <nd ref="620859"/>
    <nd ref="620861"/>
    <nd ref="620862"/>
    <nd ref="2843814048"/>
    <nd ref="620864"/>
    <nd ref="2843814050"/>
    <nd ref="620865"/>
    <nd ref="1239233911"/>
    <nd ref="320928318"/>
    <nd ref="620867"/>
    <nd ref="2843814074"/>
    <nd ref="1239233961"/>
    <nd ref="320928309"/>
    <nd ref="1239233943"/>
    <nd ref="620866"/>
    <nd ref="12655866542"/>
    <nd ref="12655866541"/>
    <nd ref="12655866540"/>
    <nd ref="12655866539"/>
    <nd ref="620870"/>
    <tag k="alt_description" v="Ipswich - Weedon Trunk Road"/>
    <tag k="bicycle" v="no"/>
    <tag k="description" v="Cambridge Northern Bypass"/>
    <tag k="expressway" v="yes"/>
    <tag k="foot" v="no"/>
    <tag k="highway" v="trunk"/>
    <tag k="int_ref" v="E 24"/>
    <tag k="lanes" v="2"/>
    <tag k="lit" v="no"/>
    <tag k="maxheight" v="default"/>
    <tag k="maxspeed" v="70 mph"/>
    <tag k="maxspeed:type" v="GB:nsl_dual"/>
    <tag k="national_highways:area" v="8"/>
    <tag k="oneway" v="yes"/>
    <tag k="operator" v="National Highways"/>
    <tag k="operator:wikidata" v="Q5760006"/>
    <tag k="ref" v="A14"/>
    <tag k="surface" v="asphalt"/>
  </way>
  <way id="1881407" version="24" timestamp="2025-03-12T11:07:49Z" changeset="163522564" uid="5229644" user="Nathan_A_RF">
    <nd ref="608758"/>
    <nd ref="320896635"/>
    <nd ref="320896636"/>
    <nd ref="2845556380"/>
    <nd ref="320896637"/>
    <nd ref="608760"/>
    <tag k="expressway" v="yes"/>
    <tag k="foot" v="no"/>
    <tag k="highway" v="trunk"/>
    <tag k="int_ref" v="E 24"/>
    <tag k="lanes" v="2"/>
    <tag k="lit" v="no"/>
    <tag k="maxheight" v="default"/>
    <tag k="maxspeed" v="70 mph"/>
    <tag k="maxspeed:type" v="GB:nsl_dual"/>
    <tag k="national_highways:area" v="8"/>
    <tag k="oneway" v="yes"/>
    <tag k="operator" v="National Highways"/>
    <tag k="operator:wikidata" v="Q5760006"/>
    <tag k="ref" v="A14"/>
    <tag k="source:ref" v="local knowledge"/>
    <tag k="surface" v="asphalt"/>
  </way>
  <way id="3678139" version="22" timestamp="2024-11-18T12:59:48Z" changeset="159282389" uid="21765171" user="themightymere">
    <nd ref="608761"/>
    <nd ref="1952317712"/>
    <nd ref="1367909448"/>
    <nd ref="1952317713"/>
    <nd ref="248968203"/>
    <nd ref="1567036199"/>
    <nd ref="1567036205"/>
    <nd ref="248968204"/>
    <nd ref="1567036276"/>
    <nd ref="5249751"/>
    <tag k="bicycle" v="no"/>
    <tag k="destination" v="Newmarket;Cambridge"/>
    <tag k="destination:ref" v="A1303"/>
    <tag k="expressway" v="yes"/>
    <tag k="foot" v="no"/>
    <tag k="highway" v="trunk_link"/>
    <tag k="lit" v="no"/>
    <tag k="maxspeed" v="70 mph"/>
    <tag k="maxspeed:type" v="GB:nsl_dual"/>
    <tag k="national_highways:area" v="8"/>
    <tag k="oneway" v="yes"/>
    <tag k="operator" v="National Highways"/>
    <tag k="operator:wikidata" v="Q5760006"/>
  </way>
  <way id="3678140" version="21" timestamp="2024-11-18T12:59:48Z" changeset="159282389" uid="21765171" user="themightymere">
    <nd ref="620847"/>
    <nd ref="1567036286"/>
    <nd ref="1567036176"/>
    <nd ref="1567036274"/>
    <nd ref="320896564"/>
    <nd ref="1567036225"/>
    <nd ref="1567036305"/>
    <nd ref="1567036280"/>
    <nd ref="320896563"/>
    <nd ref="2845556376"/>
    <nd ref="620850"/>
    <tag k="bicycle" v="no"/>
    <tag k="destination" v="The Midlands;Newmarket;Bedford"/>
    <tag k="destination:ref" v="A14"/>
    <tag k="expressway" v="yes"/>
    <tag k="foot" v="no"/>
    <tag k="highway" v="trunk_link"/>
    <tag k="lit" v="no"/>
    <tag k="maxspeed" v="70 mph"/>
    <tag k="maxspeed:type" v="GB:nsl_dual"/>
    <tag k="national_highways:area" v="8"/>
    <tag k="oneway" v="yes"/>
    <tag k="operator" v="National Highways"/>
    <tag k="operator:wikidata" v="Q5760006"/>
  </way>
  <way id="3678141" version="18" timestamp="2024-11-18T12:59:48Z" changeset="159282389" uid="21765171" user="themightymere">
    <nd ref="18238157"/>
    <nd ref="1567036316"/>
    <nd ref="1567036251"/>
    <nd ref="1567036315"/>
    <nd ref="1567036188"/>
    <nd ref="320896638"/>
    <nd ref="1449525690"/>
    <nd ref="320896639"/>
    <nd ref="2845556384"/>
    <nd ref="608760"/>
    <tag k="destination" v="Bury St Edmunds;Norwich"/>
    <tag k="destination:ref" v="A14"/>
    <tag k="expressway" v="yes"/>
    <tag k="foot" v="no"/>
    <tag k="highway" v="trunk_link"/>
    <tag k="lit" v="no"/>
    <tag k="maxspeed" v="70 mph"/>
    <tag k="maxspeed:type" v="GB:nsl_dual"/>
    <tag k="national_highways:area" v="8"/>
    <tag k="oneway" v="yes"/>
    <tag k="operator" v="National Highways"/>
    <tag k="operator:wikidata" v="Q5760006"/>
  </way>
  <way id="3702179" version="7" timestamp="2024-12-31T22:52:14Z" changeset="160849930" uid="5229644" user="Nathan_A_RF">
    <nd ref="5249762"/>
    <nd ref="1367909484"/>
    <nd ref="12466180059"/>
    <nd ref="18351895"/>
    <tag k="highway" v="secondary"/>
    <tag k="lit" v="yes"/>
    <tag k="maxspeed" v="50 mph"/>
    <tag k="maxspeed:type" v="sign"/>
    <tag k="name" v="Church Road"/>
    <tag k="oneway" v="yes"/>
    <tag k="ref" v="B1102"/>
  </way>
  <way id="3702259" version="8" timestamp="2024-12-31T22:52:14Z" changeset="160849930" uid="5229644" user="Nathan_A_RF">
    <nd ref="5249758"/>
    <nd ref="25733676"/>
    <nd ref="698836889"/>
    <nd ref="5249760"/>
    <nd ref="12466180058"/>
    <nd ref="5249762"/>
    <tag k="highway" v="primary"/>
    <tag k="maxspeed" v="50 mph"/>
    <tag k="maxspeed:type" v="sign"/>
    <tag k="oneway" v="yes"/>
    <tag k="ref" v="A1303"/>
  </way>
  <way id="3702261" version="9" timestamp="2024-12-31T22:52:14Z" changeset="160849930" uid="5229644" user="Nathan_A_RF">
    <nd ref="18351895"/>
    <nd ref="1367909488"/>
    <nd ref="12466180061"/>
    <nd ref="18351910"/>
    <nd ref="1567036320"/>
    <nd ref="18352512"/>
    <tag k="highway" v="secondary"/>
    <tag k="lit" v="yes"/>
    <tag k="maxspeed" v="50 mph"/>
    <tag k="maxspeed:type" v="sign"/>
    <tag k="name" v="Church Road"/>
    <tag k="oneway" v="yes"/>
    <tag k="ref" v="B1102"/>
  </way>
  <way id="3702275" version="10" timestamp="2024-12-31T22:52:14Z" changeset="160849930" uid="5229644" user="Nathan_A_RF">
    <nd ref="18352170"/>
    <nd ref="12466180063"/>
    <nd ref="12466180062"/>
    <nd ref="2149654830"/>
    <nd ref="2149654832"/>
    <nd ref="6909342728"/>
    <nd ref="799816392"/>
    <nd ref="2006839544"/>
    <nd ref="1430514626"/>
    <nd ref="8041717050"/>
    <nd ref="20960534"/>
    <tag k="highway" v="primary"/>
    <tag k="lit" v="no"/>
    <tag k="maxspeed" v="50 mph"/>
    <tag k="maxspeed:type" v="sign"/>
    <tag k="old_ref" v="A45"/>
    <tag k="ref" v="A1303"/>
    <tag k="sidewalk" v="separate"/>
  </way>
  <way id="3702770" version="23" timestamp="2024-11-18T12:59:48Z" changeset="159282389" uid="21765171" user="themightymere">
    <nd ref="608749"/>
    <nd ref="2845556381"/>
    <nd ref="320896401"/>
    <nd ref="1449525691"/>
    <nd ref="1449525688"/>
    <nd ref="320896377"/>
    <nd ref="1567036184"/>
    <nd ref="698836899"/>
    <nd ref="1567036237"/>
    <nd ref="1567036213"/>
    <nd ref="608753"/>
    <tag k="destination" v="Cambridge"/>
    <tag k="destination:ref" v="A1303"/>
    <tag k="expressway" v="yes"/>
    <tag k="foot" v="no"/>
    <tag k="highway" v="trunk_link"/>
    <tag k="lanes" v="2"/>
    <tag k="lit" v="no"/>
    <tag k="maxspeed" v="70 mph"/>
    <tag k="maxspeed:type" v="GB:nsl_dual"/>
    <tag k="national_highways:area" v="8"/>
    <tag k="oneway" v="yes"/>
    <tag k="operator" v="National Highways"/>
    <tag k="operator:wikidata" v="Q5760006"/>
  </way>
  <way id="3997351" version="4" timestamp="2017-12-23T19:55:11Z" changeset="54871700" uid="1287673" user="sloerunner">
    <nd ref="20960297"/>
    <nd ref="20960438"/>
    <nd ref="20960653"/>
    <nd ref="1664537562"/>
    <nd ref="25904857"/>
    <nd ref="25904849"/>
    <tag k="highway" v="unclassified"/>
    <tag k="name" v="Albert Road"/>
  </way>
  <way id="3997377" version="5" timestamp="2024-12-31T22:56:40Z" changeset="160850000" uid="5229644" user="Nathan_A_RF">
    <nd ref="20960179"/>
    <nd ref="20960542"/>
    <nd ref="12466187781"/>
    <nd ref="1397524267"/>
    <nd ref="20960199"/>
    <nd ref="1397635249"/>
    <nd ref="20960495"/>
    <nd ref="1397635244"/>
    <nd ref="20960602"/>
    <nd ref="797449557"/>
    <nd ref="1397635242"/>
    <nd ref="20960625"/>
    <nd ref="20960341"/>
    <nd ref="797449559"/>
    <nd ref="20960416"/>
    <nd ref="1120289225"/>
    <nd ref="797449562"/>
    <tag k="highway" v="tertiary"/>
    <tag k="maxspeed" v="60 mph"/>
    <tag k="maxspeed:type" v="GB:nsl_single"/>
    <tag k="name" v="Little Wilbraham Road"/>
  </way>
  <way id="3997378" version="2" timestamp="2010-06-30T19:17:53Z" changeset="5115807" uid="5926" user="c2r">
    <nd ref="20960619"/>
    <nd ref="20960229"/>
    <tag k="bridge" v="yes"/>
    <tag k="highway" v="tertiary"/>
    <tag k="layer" v="1"/>
  </way>
  <way id="4211521" version="35" timestamp="2025-03-12T11:07:49Z" changeset="163522564" uid="5229644" user="Nathan_A_RF">
    <nd ref="18352520"/>
    <nd ref="12655866538"/>
    <nd ref="609826"/>
    <nd ref="1239233932"/>
    <nd ref="1239233929"/>
    <nd ref="609827"/>
    <nd ref="2843814082"/>
    <nd ref="320928336"/>
    <nd ref="2843814076"/>
    <nd ref="609831"/>
    <nd ref="2843814069"/>
    <nd ref="1239233923"/>
    <nd ref="609833"/>
    <nd ref="2843814053"/>
    <nd ref="18352482"/>
    <nd ref="609834"/>
    <nd ref="2843814047"/>
    <nd ref="18352180"/>
    <nd ref="18352125"/>
    <nd ref="609835"/>
    <nd ref="1239233941"/>
    <nd ref="609836"/>
    <nd ref="1239233931"/>
    <nd ref="609837"/>
    <nd ref="1239233939"/>
    <nd ref="2845556389"/>
    <nd ref="608793"/>
    <nd ref="1554829606"/>
    <nd ref="608794"/>
    <nd ref="1554829604"/>
    <nd ref="608795"/>
    <nd ref="1554829589"/>
    <nd ref="608796"/>
    <nd ref="1554829607"/>
    <nd ref="608765"/>
    <nd ref="2845556378"/>
    <nd ref="608764"/>
    <nd ref="12655866535"/>
    <nd ref="608761"/>
    <nd ref="1554829591"/>
    <nd ref="320896619"/>
    <nd ref="608762"/>
    <nd ref="608758"/>
    <tag k="alt_description" v="Ipswich - Weedon Trunk Road"/>
    <tag k="bicycle" v="no"/>
    <tag k="description" v="Cambridge Northern Bypass"/>
    <tag k="expressway" v="yes"/>
    <tag k="foot" v="no"/>
    <tag k="highway" v="trunk"/>
    <tag k="int_ref" v="E 24"/>
    <tag k="lanes" v="2"/>
    <tag k="lit" v="no"/>
    <tag k="maxheight" v="default"/>
    <tag k="maxspeed" v="70 mph"/>
    <tag k="maxspeed:type" v="GB:nsl_dual"/>
    <tag k="national_highways:area" v="8"/>
    <tag k="oneway" v="yes"/>
    <tag k="operator" v="National Highways"/>
    <tag k="operator:wikidata" v="Q5760006"/>
    <tag k="ref" v="A14"/>
    <tag k="surface" v="asphalt"/>
  </way>
  <way id="4211522" version="25" timestamp="2025-03-12T11:07:49Z" changeset="163522564" uid="5229644" user="Nathan_A_RF">
    <nd ref="608662"/>
    <nd ref="608660"/>
    <nd ref="608659"/>
    <nd ref="608676"/>
    <nd ref="608674"/>
    <nd ref="608672"/>
    <nd ref="608670"/>
    <nd ref="608669"/>
    <nd ref="608692"/>
    <nd ref="608690"/>
    <nd ref="1554841222"/>
    <nd ref="608688"/>
    <nd ref="608686"/>
    <nd ref="608684"/>
    <nd ref="608683"/>
    <nd ref="608680"/>
    <nd ref="608678"/>
    <nd ref="608704"/>
    <nd ref="608702"/>
    <nd ref="608700"/>
    <nd ref="608698"/>
    <nd ref="608696"/>
    <nd ref="608694"/>
    <nd ref="608718"/>
    <nd ref="1554841153"/>
    <nd ref="608716"/>
    <nd ref="608715"/>
    <nd ref="608712"/>
    <nd ref="608710"/>
    <nd ref="608708"/>
    <nd ref="608706"/>
    <nd ref="608732"/>
    <nd ref="608730"/>
    <nd ref="608728"/>
    <nd ref="608727"/>
    <nd ref="608724"/>
    <nd ref="608722"/>
    <nd ref="797449548"/>
    <nd ref="608720"/>
    <nd ref="320896353"/>
    <nd ref="797449549"/>
    <nd ref="608741"/>
    <nd ref="797449550"/>
    <nd ref="608740"/>
    <nd ref="1554841182"/>
    <nd ref="608737"/>
    <nd ref="1554841154"/>
    <nd ref="608736"/>
    <nd ref="608734"/>
    <nd ref="1554841207"/>
    <nd ref="608748"/>
    <nd ref="320896916"/>
    <nd ref="12655866534"/>
    <nd ref="608749"/>
    <tag k="expressway" v="yes"/>
    <tag k="highway" v="trunk"/>
    <tag k="int_ref" v="E 24"/>
    <tag k="lanes" v="2"/>
    <tag k="lit" v="no"/>
    <tag k="maxheight" v="default"/>
    <tag k="maxspeed" v="70 mph"/>
    <tag k="maxspeed:type" v="GB:nsl_dual"/>
    <tag k="national_highways:area" v="8"/>
    <tag k="oneway" v="yes"/>
    <tag k="operator" v="National Highways"/>
    <tag k="operator:wikidata" v="Q5760006"/>
    <tag k="ref" v="A14"/>
    <tag k="source:ref" v="local knowledge"/>
    <tag k="surface" v="asphalt"/>
  </way>
  <way id="4211523" version="16" timestamp="2023-12-22T22:02:34Z" changeset="145420800" uid="242345" user="confusedbuffalo">
    <nd ref="608760"/>
    <nd ref="608746"/>
    <nd ref="608747"/>
    <nd ref="1554841141"/>
    <nd ref="608733"/>
    <nd ref="608735"/>
    <nd ref="1554841136"/>
    <nd ref="608738"/>
    <nd ref="608739"/>
    <nd ref="797449556"/>
    <nd ref="608742"/>
    <nd ref="320896354"/>
    <nd ref="1554841205"/>
    <nd ref="608719"/>
    <nd ref="608721"/>
    <nd ref="608723"/>
    <nd ref="608726"/>
    <nd ref="608725"/>
    <nd ref="608729"/>
    <nd ref="608731"/>
    <nd ref="1554841209"/>
    <nd ref="608705"/>
    <nd ref="1554841180"/>
    <nd ref="608707"/>
    <nd ref="608709"/>
    <nd ref="608711"/>
    <nd ref="608713"/>
    <nd ref="608714"/>
    <nd ref="608717"/>
    <nd ref="608693"/>
    <nd ref="608695"/>
    <nd ref="608697"/>
    <nd ref="608699"/>
    <nd ref="608701"/>
    <nd ref="608703"/>
    <nd ref="608677"/>
    <nd ref="608679"/>
    <nd ref="608681"/>
    <nd ref="608682"/>
    <nd ref="608685"/>
    <nd ref="1554841171"/>
    <nd ref="608687"/>
    <nd ref="608689"/>
    <nd ref="608691"/>
    <nd ref="608667"/>
    <nd ref="608668"/>
    <nd ref="608671"/>
    <nd ref="608673"/>
    <nd ref="608675"/>
    <nd ref="608657"/>
    <nd ref="608658"/>
    <nd ref="608661"/>
    <tag k="expressway" v="yes"/>
    <tag k="highway" v="trunk"/>
    <tag k="int_ref" v="E 24"/>
    <tag k="lanes" v="2"/>
    <tag k="lit" v="no"/>
    <tag k="maxheight" v="default"/>
    <tag k="maxspeed" v="70 mph"/>
    <tag k="maxspeed:type" v="GB:nsl_dual"/>
    <tag k="national_highways:area" v="8"/>
    <tag k="oneway" v="yes"/>
    <tag k="operator" v="National Highways"/>
    <tag k="operator:wikidata" v="Q5760006"/>
    <tag k="ref" v="A14"/>
    <tag k="source:ref" v="local knowledge"/>
    <tag k="surface" v="asphalt"/>
  </way>
  <way id="4276079" version="11" timestamp="2024-12-31T22:52:14Z" changeset="160849930" uid="5229644" user="Nathan_A_RF">
    <nd ref="18352170"/>
    <nd ref="2006839542"/>
    <nd ref="18352417"/>
    <nd ref="1567036298"/>
    <nd ref="1367909483"/>
    <nd ref="18352512"/>
    <tag k="highway" v="primary"/>
    <tag k="lit" v="yes"/>
    <tag k="maxspeed" v="50 mph"/>
    <tag k="maxspeed:type" v="sign"/>
    <tag k="oneway" v="yes"/>
    <tag k="ref" v="A1303"/>
  </way>
  <way id="4276081" version="13" timestamp="2024-08-02T09:04:45Z" changeset="154725436" uid="61942" user="SomeoneElse">
    <nd ref="608779"/>
    <nd ref="1952317711"/>
    <nd ref="1554829595"/>
    <nd ref="320897026"/>
    <nd ref="799812086"/>
    <nd ref="320897027"/>
    <nd ref="799812094"/>
    <nd ref="799812098"/>
    <nd ref="320897028"/>
    <nd ref="799812101"/>
    <nd ref="799812105"/>
    <nd ref="620844"/>
    <nd ref="799812108"/>
    <nd ref="799812111"/>
    <nd ref="320897032"/>
    <nd ref="799812114"/>
    <nd ref="799812117"/>
    <nd ref="620843"/>
    <nd ref="799812125"/>
    <nd ref="799812132"/>
    <nd ref="1567036322"/>
    <nd ref="799812136"/>
    <nd ref="620845"/>
    <nd ref="799812139"/>
    <nd ref="2975016257"/>
    <nd ref="620846"/>
    <tag k="highway" v="primary"/>
    <tag k="lanes" v="2"/>
    <tag k="lit" v="yes"/>
    <tag k="maxspeed" v="50 mph"/>
    <tag k="maxspeed:type" v="sign"/>
    <tag k="oneway" v="yes"/>
    <tag k="ref" v="A1303"/>
    <tag k="sidewalk" v="none"/>
  </way>
  <way id="4276083" version="14" timestamp="2025-03-12T11:07:49Z" changeset="163522564" uid="5229644" user="Nathan_A_RF">
    <nd ref="698836877"/>
    <nd ref="1567036317"/>
    <nd ref="1567036295"/>
    <nd ref="608753"/>
    <nd ref="698836861"/>
    <tag k="highway" v="primary"/>
    <tag k="junction" v="roundabout"/>
    <tag k="lanes" v="2"/>
    <tag k="lit" v="yes"/>
    <tag k="maxspeed" v="50 mph"/>
    <tag k="maxspeed:type" v="sign"/>
    <tag k="name" v="Quy Interchange"/>
  </way>
  <way id="4276084" version="10" timestamp="2025-03-12T11:07:49Z" changeset="163522564" uid="5229644" user="Nathan_A_RF">
    <nd ref="320896507"/>
    <nd ref="1567036218"/>
    <nd ref="1567036230"/>
    <nd ref="5249751"/>
    <nd ref="5249758"/>
    <tag k="highway" v="primary"/>
    <tag k="junction" v="roundabout"/>
    <tag k="lanes" v="2"/>
    <tag k="lit" v="yes"/>
    <tag k="maxspeed" v="50 mph"/>
    <tag k="maxspeed:type" v="sign"/>
    <tag k="name" v="Quy Interchange"/>
  </way>
  <way id="4291008" version="4" timestamp="2023-09-24T19:38:25Z" changeset="141697064" uid="560534" user="twomagi">
    <nd ref="25904828"/>
    <nd ref="25904822"/>
    <nd ref="315019350"/>
    <tag k="highway" v="residential"/>
    <tag k="name" v="Orchard Street"/>
    <tag k="source:name" v="local knowledge"/>
  </way>
  <way id="4291011" version="3" timestamp="2013-10-21T16:29:07Z" changeset="18471937" uid="281267" user="smb1001">
    <nd ref="2504095707"/>
    <nd ref="25904830"/>
    <nd ref="25904841"/>
    <tag k="highway" v="residential"/>
    <tag k="name" v="Stow Road"/>
  </way>
  <way id="4291012" version="1" timestamp="2007-02-14T11:53:39Z" changeset="216212" uid="3582" user="davidearl">
    <nd ref="25904830"/>
    <nd ref="25904831"/>
    <tag k="created_by" v="JOSM"/>
    <tag k="highway" v="residential"/>
    <tag k="name" v="Herring's Close"/>
    <tag k="source:name" v="local knowledge"/>
  </way>
  <way id="4291013" version="1" timestamp="2007-02-14T11:53:39Z" changeset="216212" uid="3582" user="davidearl">
    <nd ref="25904840"/>
    <nd ref="25904831"/>
    <nd ref="25904832"/>
    <nd ref="25904833"/>
    <nd ref="25904835"/>
    <nd ref="25904836"/>
    <nd ref="25904837"/>
    <nd ref="25904838"/>
    <nd ref="25904839"/>
    <nd ref="25904840"/>
    <tag k="created_by" v="JOSM"/>
    <tag k="highway" v="residential"/>
    <tag k="name" v="Herring's Close"/>
    <tag k="source:name" v="local knowledge"/>
  </way>
  <way id="4291014" version="6" timestamp="2025-02-19T22:40:55Z" changeset="162719566" uid="493595" user="Yorvik Prestigitator">
    <nd ref="25904841"/>
    <nd ref="309560403"/>
    <nd ref="25904842"/>
    <nd ref="25904843"/>
    <nd ref="12602068630"/>
    <nd ref="10204056208"/>
    <nd ref="25904844"/>
    <nd ref="2037150236"/>
    <nd ref="10204056210"/>
    <nd ref="25904845"/>
    <tag k="highway" v="residential"/>
    <tag k="name" v="Main Street"/>
  </way>
  <way id="4291015" version="3" timestamp="2012-11-27T21:29:29Z" changeset="14064884" uid="18573" user="Stephen Paulger">
    <nd ref="25904843"/>
    <nd ref="2037150238"/>
    <nd ref="25904850"/>
    <tag k="highway" v="residential"/>
    <tag k="name" v="Wheelwright Way"/>
    <tag k="source:name" v="local knowledge"/>
  </way>
  <way id="4291018" version="3" timestamp="2018-07-30T23:53:11Z" changeset="61211118" uid="1778799" user="SomeoneElse_Revert">
    <nd ref="25904848"/>
    <nd ref="25904856"/>
    <tag k="created_by" v="JOSM"/>
    <tag k="highway" v="residential"/>
    <tag k="name" v="The Square"/>
    <tag k="source:name" v="local knowledge"/>
  </way>
  <way id="4291019" version="2" timestamp="2010-04-16T17:42:13Z" changeset="4440826" uid="21502" user="Kevin Steinhardt">
    <nd ref="25904849"/>
    <nd ref="25904848"/>
    <nd ref="25904846"/>
    <nd ref="25904845"/>
    <nd ref="5249798"/>
    <tag k="highway" v="unclassified"/>
    <tag k="name" v="Albert Road"/>
  </way>
  <way id="4291021" version="11" timestamp="2025-02-27T19:44:44Z" changeset="163026559" uid="5229644" user="Nathan_A_RF">
    <nd ref="25904867"/>
    <nd ref="2039208071"/>
    <nd ref="25904868"/>
    <nd ref="25904869"/>
    <tag k="highway" v="unclassified"/>
    <tag k="maxspeed" v="60 mph"/>
    <tag k="maxspeed:type" v="GB:nsl_single"/>
    <tag k="name" v="Station Road"/>
    <tag k="source:name" v="local knowledge"/>
  </way>
  <way id="4291122" version="13" timestamp="2025-04-04T19:01:22Z" changeset="164524754" uid="953779" user="Adam Edwards">
    <nd ref="5249764"/>
    <nd ref="12729558872"/>
    <nd ref="18351967"/>
    <nd ref="1804954973"/>
    <nd ref="5249766"/>
    <nd ref="315019354"/>
    <nd ref="8723212314"/>
    <nd ref="5249805"/>
    <nd ref="5249803"/>
    <tag k="abutters" v="residential"/>
    <tag k="highway" v="secondary"/>
    <tag k="lit" v="yes"/>
    <tag k="maxspeed" v="30 mph"/>
    <tag k="name" v="Church Road"/>
    <tag k="ref" v="B1102"/>
    <tag k="source:name" v="local knowledge"/>
  </way>
  <way id="4291124" version="4" timestamp="2025-02-23T19:01:40Z" changeset="162865531" uid="5173844" user="ndrw6">
    <nd ref="25904850"/>
    <nd ref="2037150235"/>
    <nd ref="2037150237"/>
    <nd ref="12613298186"/>
    <nd ref="25904851"/>
    <tag k="highway" v="residential"/>
    <tag k="name" v="Minter Close"/>
    <tag k="source:name" v="local knowledge"/>
  </way>
  <way id="4291125" version="13" timestamp="2023-07-05T09:00:34Z" changeset="138138968" uid="19541615" user="Matt Eaton">
    <nd ref="2504095707"/>
    <nd ref="6582172215"/>
    <nd ref="5249800"/>
    <nd ref="25904820"/>
    <nd ref="5662843494"/>
    <nd ref="2504114261"/>
    <nd ref="11027423149"/>
    <nd ref="5249799"/>
    <nd ref="2047328751"/>
    <nd ref="5249798"/>
    <tag k="highway" v="secondary"/>
    <tag k="maxspeed" v="30 mph"/>
    <tag k="name" v="Stow Road"/>
    <tag k="ref" v="B1102"/>
  </way>
  <way id="4291126" version="6" timestamp="2025-02-27T19:44:44Z" changeset="163026559" uid="5229644" user="Nathan_A_RF">
    <nd ref="5249845"/>
    <nd ref="5249847"/>
    <tag k="highway" v="secondary"/>
    <tag k="name" v="Colliers Lane"/>
    <tag k="ref" v="B1102"/>
    <tag k="surface" v="asphalt"/>
  </way>
  <way id="4291129" version="8" timestamp="2020-04-27T14:25:00Z" changeset="84204946" uid="1287673" user="sloerunner">
    <nd ref="5249798"/>
    <nd ref="297826894"/>
    <nd ref="25904859"/>
    <nd ref="6542190325"/>
    <nd ref="297826893"/>
    <nd ref="25904861"/>
    <nd ref="2039207350"/>
    <nd ref="25904862"/>
    <nd ref="25904863"/>
    <nd ref="297826892"/>
    <nd ref="25904864"/>
    <nd ref="25904865"/>
    <nd ref="2039208070"/>
    <nd ref="25904866"/>
    <nd ref="7453617060"/>
    <nd ref="315019371"/>
    <nd ref="25904867"/>
    <tag k="highway" v="residential"/>
    <tag k="maxspeed" v="30 mph"/>
    <tag k="name" v="Station Road"/>
    <tag k="source:name" v="local knowledge"/>
  </way>
  <way id="4678972" version="5" timestamp="2021-06-06T22:51:14Z" changeset="105935115" uid="11211647" user="wermak">
    <nd ref="20960229"/>
    <nd ref="20960280"/>
    <nd ref="797449555"/>
    <nd ref="799817413"/>
    <nd ref="20960451"/>
    <nd ref="20960558"/>
    <nd ref="1397635237"/>
    <nd ref="20960159"/>
    <nd ref="8810042356"/>
    <nd ref="20960496"/>
    <tag k="highway" v="tertiary"/>
    <tag k="name" v="Little Wilbraham Road"/>
    <tag k="source" v="GPS"/>
  </way>
  <way id="28182855" version="3" timestamp="2021-05-11T07:03:06Z" changeset="104492136" uid="10252557" user="anuvashi">
    <nd ref="309560403"/>
    <nd ref="309560404"/>
    <nd ref="309560405"/>
    <nd ref="309560406"/>
    <nd ref="8720734417"/>
    <nd ref="309560407"/>
    <nd ref="309560408"/>
    <tag k="highway" v="residential"/>
    <tag k="name" v="Vicarage Meadow"/>
    <tag k="source" v="gps survey"/>
  </way>
  <way id="28182856" version="2" timestamp="2008-11-02T23:20:58Z" changeset="664818" uid="2020" user="comsomol">
    <nd ref="309560407"/>
    <nd ref="309560409"/>
    <tag k="highway" v="residential"/>
    <tag k="source" v="gps survey"/>
  </way>
  <way id="29178860" version="9" timestamp="2025-03-12T11:07:49Z" changeset="163522564" uid="5229644" user="Nathan_A_RF">
    <nd ref="320896506"/>
    <nd ref="1567036282"/>
    <nd ref="1567036174"/>
    <nd ref="1567036182"/>
    <nd ref="320896507"/>
    <tag k="bridge" v="yes"/>
    <tag k="highway" v="primary"/>
    <tag k="junction" v="roundabout"/>
    <tag k="lanes" v="2"/>
    <tag k="layer" v="1"/>
    <tag k="lit" v="yes"/>
    <tag k="maxspeed" v="50 mph"/>
    <tag k="maxspeed:type" v="sign"/>
    <tag k="name" v="Quy Interchange"/>
  </way>
  <way id="55605697" version="9" timestamp="2024-12-31T22:52:14Z" changeset="160849930" uid="5229644" user="Nathan_A_RF">
    <nd ref="5249762"/>
    <nd ref="1367909475"/>
    <nd ref="18351910"/>
    <nd ref="1367909485"/>
    <nd ref="18352561"/>
    <nd ref="1567036202"/>
    <nd ref="18352378"/>
    <nd ref="18352170"/>
    <tag k="highway" v="primary"/>
    <tag k="lit" v="yes"/>
    <tag k="maxspeed" v="50 mph"/>
    <tag k="maxspeed:type" v="sign"/>
    <tag k="oneway" v="yes"/>
    <tag k="ref" v="A1303"/>
  </way>
  <way id="55605699" version="7" timestamp="2024-12-31T22:52:14Z" changeset="160849930" uid="5229644" user="Nathan_A_RF">
    <nd ref="18352512"/>
    <nd ref="12466180057"/>
    <nd ref="1567036256"/>
    <nd ref="18352181"/>
    <nd ref="1567036287"/>
    <nd ref="1567036233"/>
    <nd ref="18352347"/>
    <nd ref="1567036284"/>
    <nd ref="1567036290"/>
    <nd ref="698836813"/>
    <nd ref="1567036192"/>
    <nd ref="1567036212"/>
    <nd ref="18352544"/>
    <nd ref="18238156"/>
    <tag k="highway" v="primary"/>
    <tag k="maxspeed" v="50 mph"/>
    <tag k="maxspeed:type" v="sign"/>
    <tag k="oneway" v="yes"/>
    <tag k="ref" v="A1303"/>
  </way>
  <way id="55605702" version="14" timestamp="2024-12-31T22:52:14Z" changeset="160849930" uid="5229644" user="Nathan_A_RF">
    <nd ref="20960496"/>
    <nd ref="1430514595"/>
    <nd ref="20960369"/>
    <nd ref="1435821740"/>
    <nd ref="20960195"/>
    <nd ref="1435821703"/>
    <nd ref="1435821735"/>
    <nd ref="1664537663"/>
    <nd ref="20960600"/>
    <nd ref="1664537671"/>
    <nd ref="1435821759"/>
    <nd ref="1435821709"/>
    <nd ref="1664537689"/>
    <nd ref="20960514"/>
    <nd ref="2006582318"/>
    <tag k="highway" v="primary"/>
    <tag k="lanes" v="2"/>
    <tag k="lit" v="no"/>
    <tag k="maxspeed" v="60 mph"/>
    <tag k="maxspeed:type" v="GB:nsl_single"/>
    <tag k="name" v="Newmarket Road"/>
    <tag k="old_ref" v="A45"/>
    <tag k="ref" v="A1303"/>
    <tag k="sidewalk" v="separate"/>
  </way>
  <way id="55605704" version="9" timestamp="2025-03-12T11:07:49Z" changeset="163522564" uid="5229644" user="Nathan_A_RF">
    <nd ref="620846"/>
    <nd ref="620847"/>
    <nd ref="1567036310"/>
    <nd ref="1567036301"/>
    <nd ref="1567036220"/>
    <nd ref="320896506"/>
    <tag k="highway" v="primary"/>
    <tag k="junction" v="roundabout"/>
    <tag k="lanes" v="2"/>
    <tag k="lit" v="yes"/>
    <tag k="maxspeed" v="50 mph"/>
    <tag k="maxspeed:type" v="sign"/>
    <tag k="name" v="Quy Interchange"/>
  </way>
  <way id="55605708" version="10" timestamp="2025-03-12T11:07:49Z" changeset="163522564" uid="5229644" user="Nathan_A_RF">
    <nd ref="18238156"/>
    <nd ref="18238157"/>
    <nd ref="1952317714"/>
    <nd ref="698836846"/>
    <tag k="highway" v="primary"/>
    <tag k="junction" v="roundabout"/>
    <tag k="lanes" v="2"/>
    <tag k="lit" v="yes"/>
    <tag k="maxspeed" v="50 mph"/>
    <tag k="maxspeed:type" v="sign"/>
    <tag k="name" v="Quy Interchange"/>
  </way>
  <way id="55605710" version="9" timestamp="2025-03-12T11:07:49Z" changeset="163522564" uid="5229644" user="Nathan_A_RF">
    <nd ref="5249758"/>
    <nd ref="1567036189"/>
    <nd ref="698836853"/>
    <nd ref="1567036323"/>
    <nd ref="1567036223"/>
    <nd ref="18238155"/>
    <nd ref="4500523399"/>
    <nd ref="18238156"/>
    <tag k="highway" v="primary"/>
    <tag k="junction" v="roundabout"/>
    <tag k="lanes" v="2"/>
    <tag k="lit" v="yes"/>
    <tag k="maxspeed" v="50 mph"/>
    <tag k="maxspeed:type" v="sign"/>
    <tag k="name" v="Quy Interchange"/>
  </way>
  <way id="55605713" version="13" timestamp="2014-07-22T22:01:43Z" changeset="24301583" uid="481116" user="bigalxyz123">
    <nd ref="608779"/>
    <nd ref="608776"/>
    <nd ref="799808272"/>
    <nd ref="799808279"/>
    <nd ref="2975016263"/>
    <nd ref="698842192"/>
    <nd ref="799808284"/>
    <nd ref="608775"/>
    <nd ref="2975016262"/>
    <nd ref="608773"/>
    <nd ref="1367909440"/>
    <nd ref="979773018"/>
    <tag k="highway" v="primary"/>
    <tag k="lit" v="no"/>
    <tag k="maxspeed" v="50 mph"/>
    <tag k="maxspeed:type" v="sign"/>
    <tag k="ref" v="A1303"/>
  </way>
  <way id="55605714" version="10" timestamp="2016-11-14T14:33:14Z" changeset="43641338" uid="873940" user="Mike Baggaley">
    <nd ref="698836861"/>
    <nd ref="1567036248"/>
    <nd ref="608755"/>
    <nd ref="1567036293"/>
    <nd ref="698836862"/>
    <nd ref="608756"/>
    <nd ref="608757"/>
    <nd ref="1554829602"/>
    <nd ref="799815348"/>
    <nd ref="320896998"/>
    <nd ref="799815354"/>
    <nd ref="608780"/>
    <nd ref="799815373"/>
    <nd ref="799815376"/>
    <nd ref="608781"/>
    <nd ref="799815378"/>
    <nd ref="799815384"/>
    <nd ref="320897014"/>
    <nd ref="799815399"/>
    <nd ref="799815402"/>
    <nd ref="320897015"/>
    <nd ref="1554829605"/>
    <nd ref="608779"/>
    <tag k="highway" v="primary"/>
    <tag k="lanes" v="2"/>
    <tag k="lit" v="yes"/>
    <tag k="maxspeed" v="50 mph"/>
    <tag k="maxspeed:type" v="sign"/>
    <tag k="oneway" v="yes"/>
    <tag k="ref" v="A1303"/>
  </way>
  <way id="55605719" version="9" timestamp="2025-03-12T11:07:49Z" changeset="163522564" uid="5229644" user="Nathan_A_RF">
    <nd ref="698836846"/>
    <nd ref="1567036171"/>
    <nd ref="698836877"/>
    <tag k="bridge" v="yes"/>
    <tag k="highway" v="primary"/>
    <tag k="junction" v="roundabout"/>
    <tag k="layer" v="1"/>
    <tag k="lit" v="yes"/>
    <tag k="maxspeed" v="50 mph"/>
    <tag k="maxspeed:type" v="sign"/>
    <tag k="name" v="Quy Interchange"/>
  </way>
  <way id="55605721" version="11" timestamp="2025-03-12T11:07:49Z" changeset="163522564" uid="5229644" user="Nathan_A_RF">
    <nd ref="698836861"/>
    <nd ref="18238154"/>
    <nd ref="799812715"/>
    <nd ref="1567036197"/>
    <nd ref="799812722"/>
    <nd ref="1567036216"/>
    <nd ref="799812728"/>
    <nd ref="1567036308"/>
    <nd ref="620846"/>
    <tag k="highway" v="primary"/>
    <tag k="junction" v="roundabout"/>
    <tag k="lanes" v="2"/>
    <tag k="lit" v="yes"/>
    <tag k="maxspeed" v="50 mph"/>
    <tag k="maxspeed:type" v="sign"/>
    <tag k="name" v="Quy Interchange"/>
  </way>
  <way id="83621573" version="18" timestamp="2025-03-12T11:07:49Z" changeset="163522564" uid="5229644" user="Nathan_A_RF">
    <nd ref="608749"/>
    <nd ref="320896466"/>
    <nd ref="2845556379"/>
    <nd ref="320896467"/>
    <nd ref="320896376"/>
    <nd ref="608754"/>
    <tag k="expressway" v="yes"/>
    <tag k="foot" v="no"/>
    <tag k="highway" v="trunk"/>
    <tag k="int_ref" v="E 24"/>
    <tag k="lanes" v="2"/>
    <tag k="lit" v="no"/>
    <tag k="maxheight" v="default"/>
    <tag k="maxspeed" v="70 mph"/>
    <tag k="maxspeed:type" v="GB:nsl_dual"/>
    <tag k="national_highways:area" v="8"/>
    <tag k="oneway" v="yes"/>
    <tag k="operator" v="National Highways"/>
    <tag k="operator:wikidata" v="Q5760006"/>
    <tag k="ref" v="A14"/>
    <tag k="source:ref" v="local knowledge"/>
    <tag k="surface" v="asphalt"/>
  </way>
  <way id="84226982" version="3" timestamp="2011-07-20T14:43:54Z" changeset="8779299" uid="223853" user="Bobious">
    <nd ref="979773018"/>
    <nd ref="18352173"/>
    <tag k="highway" v="unclassified"/>
    <tag k="lit" v="yes"/>
  </way>
  <way id="92412887" version="12" timestamp="2021-09-11T14:58:19Z" changeset="111065823" uid="4527024" user="RobertSpencer">
    <nd ref="316821837"/>
    <nd ref="608771"/>
    <nd ref="979773360"/>
    <nd ref="2975016256"/>
    <nd ref="979772982"/>
    <nd ref="1449060130"/>
    <nd ref="1367909433"/>
    <nd ref="2975016258"/>
    <nd ref="979773475"/>
    <nd ref="979773333"/>
    <nd ref="608769"/>
    <nd ref="979773294"/>
    <nd ref="608768"/>
    <tag k="highway" v="primary"/>
    <tag k="lanes" v="2"/>
    <tag k="lit" v="no"/>
    <tag k="maxspeed" v="50 mph"/>
    <tag k="name" v="Newmarket Road"/>
    <tag k="old_ref" v="A45"/>
    <tag k="ref" v="A1303"/>
    <tag k="sidewalk" v="separate"/>
    <tag k="source" v="Yahoo! aerials"/>
    <tag k="surface" v="asphalt"/>
  </way>
  <way id="96747041" version="3" timestamp="2011-12-03T23:44:45Z" changeset="10029399" uid="90142" user="andy mackey">
    <nd ref="797449562"/>
    <nd ref="1530379270"/>
    <nd ref="1530379271"/>
    <nd ref="1397635247"/>
    <nd ref="1397635251"/>
    <nd ref="20960523"/>
    <nd ref="20960619"/>
    <tag k="highway" v="tertiary"/>
  </way>
  <way id="97655981" version="6" timestamp="2025-02-27T19:44:44Z" changeset="163026559" uid="5229644" user="Nathan_A_RF">
    <nd ref="5249905"/>
    <nd ref="1302534938"/>
    <nd ref="5249909"/>
    <nd ref="5249834"/>
    <nd ref="5249837"/>
    <nd ref="5249840"/>
    <nd ref="5249842"/>
    <nd ref="5249843"/>
    <nd ref="12623969120"/>
    <nd ref="5249845"/>
    <tag k="highway" v="secondary"/>
    <tag k="maxspeed" v="60 mph"/>
    <tag k="maxspeed:type" v="GB:nsl_single"/>
    <tag k="name" v="Colliers Lane"/>
    <tag k="ref" v="B1102"/>
    <tag k="surface" v="asphalt"/>
  </way>
  <way id="112995576" version="8" timestamp="2024-07-06T15:52:25Z" changeset="153629359" uid="141442" user="CycleStreets">
    <nd ref="18352173"/>
    <nd ref="979773060"/>
    <tag k="bicycle" v="yes"/>
    <tag k="cyclestreets_id" v="168948"/>
    <tag k="designation" v="public_footpath"/>
    <tag k="foot" v="designated"/>
    <tag k="highway" v="unclassified"/>
    <tag k="lit" v="yes"/>
    <tag k="prow_ref" v="Stow cum Quy FP 2"/>
    <tag k="source:designation" v="cambridgeshire_county_council_prow_gis_data"/>
    <tag k="source:prow_ref" v="cambridgeshire_county_council_prow_gis_data"/>
    <tag k="surface" v="asphalt"/>
    <tag k="width" v="4"/>
  </way>
  <way id="122400824" version="6" timestamp="2024-12-31T22:52:14Z" changeset="160849930" uid="5229644" user="Nathan_A_RF">
    <nd ref="1367909488"/>
    <nd ref="1367909486"/>
    <nd ref="1367909485"/>
    <tag k="highway" v="secondary"/>
    <tag k="lit" v="yes"/>
    <tag k="maxspeed" v="50 mph"/>
    <tag k="maxspeed:type" v="sign"/>
    <tag k="name" v="Church Road"/>
    <tag k="oneway" v="yes"/>
    <tag k="ref" v="B1102"/>
  </way>
  <way id="130333121" version="2" timestamp="2022-11-20T15:36:45Z" changeset="129160715" uid="281267" user="smb1001">
    <nd ref="1435821724"/>
    <nd ref="1435821757"/>
    <nd ref="10204104900"/>
    <nd ref="10204104899"/>
    <nd ref="1435821712"/>
    <nd ref="10204104896"/>
    <nd ref="1435821758"/>
    <nd ref="1435821743"/>
    <nd ref="10204104888"/>
    <nd ref="1435821727"/>
    <nd ref="1435821718"/>
    <nd ref="1435821767"/>
    <nd ref="1435821724"/>
    <tag k="addr:full" v="Finders Corner, Newmarket Road"/>
    <tag k="addr:postcode" v="CB25 9AQ"/>
    <tag k="addr:street" v="Newmarket Road"/>
    <tag k="amenity" v="pub"/>
    <tag k="building" v="yes"/>
    <tag k="name" v="The Missing Sock"/>
    <tag k="name:old" v="The Prince Albert"/>
  </way>
  <way id="163512014" version="1" timestamp="2012-05-13T23:38:52Z" changeset="11591648" uid="18573" user="Stephen Paulger">
    <nd ref="1751823423"/>
    <nd ref="1751823411"/>
    <nd ref="1751823409"/>
    <nd ref="1751823390"/>
    <nd ref="1751823423"/>
    <tag k="building" v="house"/>
    <tag k="name" v="Station Cottage"/>
  </way>
  <way id="163512016" version="1" timestamp="2012-05-13T23:38:52Z" changeset="11591648" uid="18573" user="Stephen Paulger">
    <nd ref="1751823407"/>
    <nd ref="1751823424"/>
    <nd ref="1751823425"/>
    <nd ref="1751823419"/>
    <nd ref="1751823407"/>
    <tag k="building" v="office"/>
    <tag k="name" v="The Old Station"/>
  </way>
  <way id="163512017" version="1" timestamp="2012-05-13T23:38:52Z" changeset="11591648" uid="18573" user="Stephen Paulger">
    <nd ref="1751823395"/>
    <nd ref="1751823416"/>
    <nd ref="1751823420"/>
    <nd ref="1751823418"/>
    <nd ref="1751823395"/>
    <tag k="building" v="house"/>
    <tag k="name" v="Station House"/>
  </way>
  <way id="166615971" version="7" timestamp="2013-10-08T12:36:29Z" changeset="18246535" uid="96695" user="Tim Morley">
    <nd ref="1780525672"/>
    <nd ref="2338700570"/>
    <nd ref="1780525660"/>
    <nd ref="1780525663"/>
    <nd ref="1780525671"/>
    <nd ref="1780525685"/>
    <nd ref="1780525679"/>
    <nd ref="2338691891"/>
    <nd ref="2338700572"/>
    <nd ref="1780525672"/>
    <tag k="building" v="yes"/>
    <tag k="name" v="rooms 101-112"/>
  </way>
  <way id="166616167" version="3" timestamp="2021-12-17T21:10:10Z" changeset="115072251" uid="4806533" user="PeterPan99">
    <nd ref="1780527659"/>
    <nd ref="1780527662"/>
    <nd ref="1780527665"/>
    <nd ref="1780527709"/>
    <nd ref="2338702107"/>
    <nd ref="1780527659"/>
    <tag k="building" v="yes"/>
    <tag k="name" v="rooms 201-209"/>
  </way>
  <way id="166616168" version="3" timestamp="2013-06-09T22:07:18Z" changeset="16488851" uid="96695" user="Tim Morley">
    <nd ref="1780527706"/>
    <nd ref="2338691901"/>
    <nd ref="1780527695"/>
    <nd ref="1780527673"/>
    <nd ref="2338691915"/>
    <nd ref="1780527664"/>
    <nd ref="1780527706"/>
    <tag k="building" v="yes"/>
    <tag k="name" v="rooms 301-306"/>
  </way>
  <way id="166616171" version="5" timestamp="2021-12-17T21:10:10Z" changeset="115072251" uid="4806533" user="PeterPan99">
    <nd ref="2487998736"/>
    <nd ref="9347411641"/>
    <nd ref="1780527679"/>
    <nd ref="1780527654"/>
    <nd ref="1780527674"/>
    <nd ref="2338691909"/>
    <nd ref="1780527676"/>
    <nd ref="2487998732"/>
    <nd ref="2487998729"/>
    <nd ref="2487998736"/>
    <tag k="building" v="yes"/>
    <tag k="name" v="Imagine Health &amp; Spa"/>
  </way>
  <way id="169325601" version="2" timestamp="2018-09-20T10:26:16Z" changeset="62757847" uid="547425" user="ssb22">
    <nd ref="1804955144"/>
    <nd ref="1804955135"/>
    <nd ref="1804955158"/>
    <nd ref="1804954867"/>
    <nd ref="1804954899"/>
    <nd ref="1804954923"/>
    <nd ref="1804955018"/>
    <nd ref="1804955045"/>
    <nd ref="1804955144"/>
    <tag k="addr:housenumber" v="36"/>
    <tag k="addr:street" v="Church Road"/>
    <tag k="building" v="yes"/>
  </way>
  <way id="169325612" version="4" timestamp="2020-10-10T22:08:14Z" changeset="92288041" uid="364" user="Edward">
    <nd ref="1804955056"/>
    <nd ref="1804955000"/>
    <nd ref="1804954889"/>
    <nd ref="1804954991"/>
    <nd ref="1804955039"/>
    <nd ref="1804955184"/>
    <nd ref="1804955108"/>
    <nd ref="1804955101"/>
    <nd ref="1804954866"/>
    <nd ref="1804955122"/>
    <nd ref="1804955136"/>
    <nd ref="1804955166"/>
    <nd ref="1804954884"/>
    <nd ref="1804955072"/>
    <nd ref="1804954947"/>
    <nd ref="1804954979"/>
    <nd ref="1804954966"/>
    <nd ref="1804955008"/>
    <nd ref="1804955006"/>
    <nd ref="1804955132"/>
    <nd ref="1804955117"/>
    <nd ref="1804955119"/>
    <nd ref="1804955189"/>
    <nd ref="1804955091"/>
    <nd ref="1804954871"/>
    <nd ref="1804955056"/>
    <tag k="amenity" v="place_of_worship"/>
    <tag k="building" v="church"/>
    <tag k="denomination" v="anglican"/>
    <tag k="name" v="St Mary (Stow-cum-Quy Parish Church)"/>
    <tag k="religion" v="christian"/>
    <tag k="wikidata" v="Q17550624"/>
  </way>
  <way id="190072473" version="5" timestamp="2021-09-11T15:00:32Z" changeset="111065823" uid="4527024" user="RobertSpencer">
    <nd ref="979773018"/>
    <nd ref="608772"/>
    <tag k="highway" v="primary"/>
    <tag k="lanes" v="2"/>
    <tag k="lit" v="no"/>
    <tag k="maxspeed" v="50 mph"/>
    <tag k="maxspeed:type" v="sign"/>
    <tag k="ref" v="A1303"/>
    <tag k="sidewalk" v="separate"/>
    <tag k="surface" v="asphalt"/>
  </way>
  <way id="190072475" version="4" timestamp="2024-12-31T22:52:14Z" changeset="160849930" uid="5229644" user="Nathan_A_RF">
    <nd ref="20960534"/>
    <nd ref="1430514618"/>
    <nd ref="20960434"/>
    <nd ref="20960236"/>
    <nd ref="1430514615"/>
    <nd ref="20960297"/>
    <tag k="highway" v="primary"/>
    <tag k="lit" v="no"/>
    <tag k="maxspeed" v="60 mph"/>
    <tag k="maxspeed:type" v="GB:nsl_single"/>
    <tag k="old_ref" v="A45"/>
    <tag k="ref" v="A1303"/>
    <tag k="sidewalk" v="separate"/>
  </way>
  <way id="192261722" version="2" timestamp="2025-02-27T19:44:44Z" changeset="163026559" uid="5229644" user="Nathan_A_RF">
    <nd ref="25904884"/>
    <nd ref="25904880"/>
    <nd ref="25904881"/>
    <nd ref="25904882"/>
    <nd ref="25905530"/>
    <tag k="access" v="private"/>
    <tag k="highway" v="unclassified"/>
    <tag k="name" v="Station Road"/>
    <tag k="source:name" v="local knowledge"/>
  </way>
  <way id="193199219" version="2" timestamp="2025-02-19T22:40:55Z" changeset="162719566" uid="493595" user="Yorvik Prestigitator">
    <nd ref="2037161277"/>
    <nd ref="2037161278"/>
    <nd ref="2037161293"/>
    <nd ref="2037161303"/>
    <nd ref="2037161297"/>
    <nd ref="2037161288"/>
    <nd ref="2037161275"/>
    <nd ref="2037161289"/>
    <nd ref="2037161277"/>
    <tag k="addr:street" v="Main Street"/>
    <tag k="alt_name" v="Quy Village Hall"/>
    <tag k="amenity" v="community_centre"/>
    <tag k="building" v="public"/>
    <tag k="community_centre" v="village_hall"/>
    <tag k="name" v="Stow-Cum-Quy Village Hall"/>
  </way>
  <way id="234095904" version="5" timestamp="2025-02-27T19:44:44Z" changeset="163026559" uid="5229644" user="Nathan_A_RF">
    <nd ref="315019393"/>
    <nd ref="297826890"/>
    <nd ref="25904871"/>
    <nd ref="25904872"/>
    <nd ref="25904873"/>
    <nd ref="1599421935"/>
    <nd ref="1599421932"/>
    <nd ref="25904874"/>
    <nd ref="25904875"/>
    <nd ref="25904876"/>
    <nd ref="1599421936"/>
    <nd ref="25904877"/>
    <nd ref="25904878"/>
    <nd ref="25904885"/>
    <nd ref="25904879"/>
    <nd ref="25904884"/>
    <tag k="highway" v="unclassified"/>
    <tag k="maxspeed" v="60 mph"/>
    <tag k="maxspeed:type" v="GB:nsl_single"/>
    <tag k="name" v="Station Road"/>
    <tag k="source:name" v="local knowledge"/>
  </way>
  <way id="234095905" version="5" timestamp="2025-02-27T19:44:44Z" changeset="163026559" uid="5229644" user="Nathan_A_RF">
    <nd ref="2423986798"/>
    <nd ref="2423986797"/>
    <tag k="bridge" v="yes"/>
    <tag k="bridge:name" v="Stone Bridge"/>
    <tag k="highway" v="unclassified"/>
    <tag k="layer" v="1"/>
    <tag k="maxspeed" v="60 mph"/>
    <tag k="maxspeed:type" v="GB:nsl_single"/>
    <tag k="name" v="Station Road"/>
    <tag k="source:name" v="local knowledge"/>
  </way>
  <way id="241104695" version="2" timestamp="2021-12-17T21:10:10Z" changeset="115072251" uid="4806533" user="PeterPan99">
    <nd ref="1780527676"/>
    <nd ref="9347411642"/>
    <nd ref="2487998734"/>
    <nd ref="1780527687"/>
    <nd ref="1780527661"/>
    <nd ref="1780527690"/>
    <nd ref="1780527651"/>
    <nd ref="2487998736"/>
    <nd ref="2487998729"/>
    <nd ref="2487998732"/>
    <nd ref="1780527676"/>
    <tag k="building" v="yes"/>
    <tag k="name" v="rooms 401-404"/>
  </way>
  <way id="242971459" version="2" timestamp="2021-11-25T14:34:00Z" changeset="114225730" uid="8661831" user="Colin_Jones">
    <nd ref="2504095910"/>
    <nd ref="2504095698"/>
    <nd ref="2504095893"/>
    <nd ref="2504095680"/>
    <nd ref="2504096077"/>
    <nd ref="2504095845"/>
    <nd ref="2504095910"/>
    <tag k="addr:housenumber" v="15"/>
    <tag k="addr:street" v="Church Road"/>
    <tag k="addr:village" v="Stow-cum-Quy"/>
    <tag k="building" v="house"/>
  </way>
  <way id="242971461" version="2" timestamp="2021-11-25T14:34:00Z" changeset="114225730" uid="8661831" user="Colin_Jones">
    <nd ref="9283328856"/>
    <nd ref="2504095965"/>
    <nd ref="2504095811"/>
    <nd ref="2504095717"/>
    <nd ref="2504095839"/>
    <nd ref="2504095688"/>
    <nd ref="2504095939"/>
    <nd ref="9283328855"/>
    <nd ref="9283328857"/>
    <nd ref="9283328858"/>
    <nd ref="9283328856"/>
    <tag k="addr:housenumber" v="16"/>
    <tag k="addr:street" v="Church Road"/>
    <tag k="addr:village" v="Stow-cum-Quy"/>
    <tag k="building" v="house"/>
  </way>
  <way id="242971464" version="2" timestamp="2021-11-25T14:34:00Z" changeset="114225730" uid="8661831" user="Colin_Jones">
    <nd ref="2504095979"/>
    <nd ref="2504095890"/>
    <nd ref="2504095861"/>
    <nd ref="2504095895"/>
    <nd ref="2504095929"/>
    <nd ref="2504095964"/>
    <nd ref="2504095962"/>
    <nd ref="2504095796"/>
    <nd ref="2504095979"/>
    <tag k="addr:housenumber" v="14"/>
    <tag k="addr:street" v="Church Road"/>
    <tag k="addr:village" v="Stow-cum-Quy"/>
    <tag k="building" v="house"/>
  </way>
  <way id="242971500" version="2" timestamp="2021-11-25T14:34:00Z" changeset="114225730" uid="8661831" user="Colin_Jones">
    <nd ref="2504095711"/>
    <nd ref="2504095765"/>
    <nd ref="2504095958"/>
    <nd ref="2504095878"/>
    <nd ref="2504095859"/>
    <nd ref="2504095920"/>
    <nd ref="2504095905"/>
    <nd ref="2504095693"/>
    <nd ref="2504095672"/>
    <nd ref="2504095711"/>
    <tag k="addr:housenumber" v="12"/>
    <tag k="addr:street" v="Church Road"/>
    <tag k="addr:village" v="Stow-cum-Quy"/>
    <tag k="building" v="house"/>
  </way>
  <way id="242973824" version="1" timestamp="2013-10-21T16:54:51Z" changeset="18471937" uid="281267" user="smb1001">
    <nd ref="2504114066"/>
    <nd ref="2504114290"/>
    <nd ref="2504114030"/>
    <nd ref="2504113983"/>
    <nd ref="2504114083"/>
    <nd ref="2504114300"/>
    <nd ref="2504114066"/>
    <tag k="building" v="yes"/>
    <tag k="name" v="pavilion"/>
  </way>
  <way id="242973877" version="3" timestamp="2022-07-27T13:23:51Z" changeset="124141688" uid="8774347" user="Misa_zumba">
    <nd ref="2504114006"/>
    <nd ref="2504114289"/>
    <nd ref="2504114240"/>
    <nd ref="2504114068"/>
    <nd ref="2504114248"/>
    <nd ref="2504114272"/>
    <nd ref="2504114269"/>
    <nd ref="2504114166"/>
    <nd ref="2504114006"/>
    <tag k="building" v="yes"/>
    <tag k="name" v="Quy Hall"/>
    <tag k="wikidata" v="Q17550913"/>
    <tag k="wikipedia" v="en:Quy Hall"/>
  </way>
  <way id="1006179426" version="1" timestamp="2021-11-25T14:34:00Z" changeset="114225730" uid="8661831" user="Colin_Jones">
    <nd ref="9283328847"/>
    <nd ref="9283328846"/>
    <nd ref="9283328844"/>
    <nd ref="9283328851"/>
    <nd ref="9283328845"/>
    <nd ref="9283328850"/>
    <nd ref="9283328849"/>
    <nd ref="9283328852"/>
    <nd ref="9283328848"/>
    <nd ref="9283328853"/>
    <nd ref="9283328854"/>
    <nd ref="9283328843"/>
    <nd ref="9283328847"/>
    <tag k="addr:housenumber" v="18"/>
    <tag k="addr:street" v="Church Road"/>
    <tag k="addr:village" v="Stow-cum-Quy"/>
    <tag k="building" v="house"/>
  </way>
  <way id="1115730232" version="1" timestamp="2022-11-20T15:27:21Z" changeset="129160424" uid="281267" user="smb1001">
    <nd ref="2037156947"/>
    <nd ref="10204056209"/>
    <nd ref="2037156921"/>
    <nd ref="2037156943"/>
    <nd ref="2037156945"/>
    <nd ref="2037156932"/>
    <nd ref="2037156927"/>
    <nd ref="2037156930"/>
    <nd ref="2037156935"/>
    <nd ref="2037156939"/>
    <nd ref="2037156947"/>
    <tag k="addr:housenumber" v="9"/>
    <tag k="addr:postcode" v="CB25 9AB"/>
    <tag k="addr:street" v="Main Street"/>
    <tag k="amenity" v="pub"/>
    <tag k="building" v="yes"/>
    <tag k="name" v="White Swan"/>
    <tag k="wikidata" v="Q26473976"/>
  </way>
  <way id="1115730234" version="1" timestamp="2022-11-20T15:27:21Z" changeset="129160424" uid="281267" user="smb1001">
    <nd ref="2037156947"/>
    <nd ref="2037156924"/>
    <nd ref="2037156931"/>
    <nd ref="2037156934"/>
    <nd ref="2037156926"/>
    <nd ref="2037156944"/>
    <nd ref="10204056209"/>
    <nd ref="2037156947"/>
    <tag k="addr:housenumber" v="7"/>
    <tag k="addr:street" v="Main Street"/>
    <tag k="building" v="yes"/>
  </way>
  <way id="1122317636" version="2" timestamp="2025-04-04T18:44:44Z" changeset="164524201" uid="953779" user="Adam Edwards">
    <nd ref="5249803"/>
    <nd ref="12729548532"/>
    <nd ref="25904817"/>
    <nd ref="2504095940"/>
    <nd ref="2504095704"/>
    <nd ref="5249801"/>
    <nd ref="2504095707"/>
    <tag k="highway" v="secondary"/>
    <tag k="maxspeed" v="30 mph"/>
    <tag k="name" v="Stow Road"/>
    <tag k="ref" v="B1102"/>
  </way>
  <way id="1122317637" version="2" timestamp="2024-12-31T22:52:14Z" changeset="160849930" uid="5229644" user="Nathan_A_RF">
    <nd ref="18351895"/>
    <nd ref="12466180060"/>
    <nd ref="12466180056"/>
    <tag k="highway" v="secondary"/>
    <tag k="lit" v="yes"/>
    <tag k="maxspeed" v="50 mph"/>
    <tag k="maxspeed:type" v="sign"/>
    <tag k="name" v="Church Road"/>
    <tag k="ref" v="B1102"/>
  </way>
  <way id="1135122753" version="1" timestamp="2023-01-25T11:06:34Z" changeset="131690056" uid="3582" user="davidearl">
    <nd ref="5249847"/>
    <nd ref="6768803668"/>
    <nd ref="5249798"/>
    <tag k="highway" v="secondary"/>
    <tag k="name" v="Colliers Lane"/>
    <tag k="ref" v="B1102"/>
  </way>
  <way id="1210612436" version="1" timestamp="2023-09-24T19:38:25Z" changeset="141697064" uid="560534" user="twomagi">
    <nd ref="315019350"/>
    <nd ref="315019351"/>
    <nd ref="25904824"/>
    <tag k="highway" v="residential"/>
    <tag k="name" v="Orchard Street"/>
    <tag k="source:name" v="local knowledge"/>
  </way>
  <way id="1210612437" version="1" timestamp="2023-09-24T19:38:25Z" changeset="141697064" uid="560534" user="twomagi">
    <nd ref="5249803"/>
    <nd ref="25904828"/>
    <tag k="highway" v="residential"/>
    <tag k="name" v="Orchard Street"/>
    <tag k="source:name" v="local knowledge"/>
  </way>
  <way id="1210612440" version="2" timestamp="2025-02-27T19:44:44Z" changeset="163026559" uid="5229644" user="Nathan_A_RF">
    <nd ref="25904869"/>
    <nd ref="2423986798"/>
    <tag k="highway" v="unclassified"/>
    <tag k="maxspeed" v="60 mph"/>
    <tag k="maxspeed:type" v="GB:nsl_single"/>
    <tag k="name" v="Station Road"/>
    <tag k="source:name" v="local knowledge"/>
  </way>
  <way id="1210612441" version="2" timestamp="2025-02-27T19:44:44Z" changeset="163026559" uid="5229644" user="Nathan_A_RF">
    <nd ref="2423986797"/>
    <nd ref="315019393"/>
    <tag k="highway" v="unclassified"/>
    <tag k="maxspeed" v="60 mph"/>
    <tag k="maxspeed:type" v="GB:nsl_single"/>
    <tag k="name" v="Station Road"/>
    <tag k="source:name" v="local knowledge"/>
  </way>
  <way id="1347693539" version="1" timestamp="2024-12-31T22:52:14Z" changeset="160849930" uid="5229644" user="Nathan_A_RF">
    <nd ref="12466180056"/>
    <nd ref="5249764"/>
    <tag k="abutters" v="residential"/>
    <tag k="highway" v="secondary"/>
    <tag k="lit" v="yes"/>
    <tag k="maxspeed" v="30 mph"/>
    <tag k="name" v="Church Road"/>
    <tag k="ref" v="B1102"/>
    <tag k="source:name" v="local knowledge"/>
  </way>
  <way id="1347693540" version="1" timestamp="2024-12-31T22:52:14Z" changeset="160849930" uid="5229644" user="Nathan_A_RF">
    <nd ref="20960297"/>
    <nd ref="20960261"/>
    <nd ref="12466180064"/>
    <tag k="highway" v="primary"/>
    <tag k="lanes" v="3"/>
    <tag k="lit" v="no"/>
    <tag k="maxspeed" v="60 mph"/>
    <tag k="maxspeed:type" v="GB:nsl_single"/>
    <tag k="name" v="Newmarket Road"/>
    <tag k="old_ref" v="A45"/>
    <tag k="ref" v="A1303"/>
    <tag k="sidewalk" v="separate"/>
  </way>
  <way id="1347693541" version="1" timestamp="2024-12-31T22:52:14Z" changeset="160849930" uid="5229644" user="Nathan_A_RF">
    <nd ref="12466180064"/>
    <nd ref="20960655"/>
    <nd ref="1435821734"/>
    <tag k="highway" v="primary"/>
    <tag k="lanes" v="2"/>
    <tag k="lit" v="no"/>
    <tag k="maxspeed" v="60 mph"/>
    <tag k="maxspeed:type" v="GB:nsl_single"/>
    <tag k="name" v="Newmarket Road"/>
    <tag k="old_ref" v="A45"/>
    <tag k="ref" v="A1303"/>
    <tag k="sidewalk" v="separate"/>
  </way>
  <way id="1347693542" version="1" timestamp="2024-12-31T22:52:14Z" changeset="160849930" uid="5229644" user="Nathan_A_RF">
    <nd ref="1435821734"/>
    <nd ref="20960496"/>
    <tag k="highway" v="primary"/>
    <tag k="lanes" v="3"/>
    <tag k="lit" v="no"/>
    <tag k="maxspeed" v="60 mph"/>
    <tag k="maxspeed:type" v="GB:nsl_single"/>
    <tag k="name" v="Newmarket Road"/>
    <tag k="old_ref" v="A45"/>
    <tag k="ref" v="A1303"/>
    <tag k="sidewalk" v="separate"/>
  </way>
  <way id="1362364319" version="1" timestamp="2025-02-23T19:01:40Z" changeset="162865531" uid="5173844" user="ndrw6">
    <nd ref="12613298186"/>
    <nd ref="12613298185"/>
    <tag k="highway" v="residential"/>
    <tag k="name" v="Minter Close"/>
    <tag k="source:name" v="local knowledge"/>
  </way>

</osm>
