<?xml version="1.0" encoding="UTF-8"?>
<osm version="0.6" generator="Overpass API 0.7.62.5 1bd436f1">
<note>The data included in this document is from www.openstreetmap.org. The data is made available under ODbL.</note>
<meta osm_base="2025-04-05T17:14:15Z" areas="2025-02-06T02:17:44Z"/>

  <node id="5276331" lat="52.1839466" lon="-0.0533618" version="3" timestamp="2024-03-08T13:41:29Z" changeset="148384939" uid="10420541" user="Thingummy"/>
  <node id="32129284" lat="52.1829722" lon="-0.0166049" version="2" timestamp="2011-04-17T20:06:21Z" changeset="7891362" uid="5926" user="c2r"/>
  <node id="32534148" lat="52.1866779" lon="-0.0314564" version="3" timestamp="2012-08-12T21:30:19Z" changeset="12707339" uid="359193" user="JeffH"/>
  <node id="60850912" lat="52.1722182" lon="-0.0205299" version="6" timestamp="2024-02-15T12:55:23Z" changeset="147490252" uid="742701" user="kerr smith">
    <tag k="note" v="the exact spot where Tinkers Lane turns in to Kingston Road is shown here on some maps"/>
  </node>
  <way id="4912092" version="2" timestamp="2015-05-13T13:12:14Z" changeset="31103580" uid="281267" user="smb1001">
    <nd ref="32129695"/>
    <nd ref="32129175"/>
    <nd ref="3514803987"/>
    <nd ref="60850951"/>
    <nd ref="32129234"/>
    <nd ref="32129481"/>
    <tag k="abutters" v="residential"/>
    <tag k="highway" v="tertiary"/>
    <tag k="name" v="Church Lane"/>
    <tag k="source:ref" v="GPS survey"/>
  </way>
  <way id="8113735" version="6" timestamp="2024-02-04T19:15:54Z" changeset="147066105" uid="742701" user="kerr smith">
    <nd ref="5276307"/>
    <nd ref="6029985776"/>
    <nd ref="5295784410"/>
    <nd ref="60850931"/>
    <nd ref="9021502409"/>
    <nd ref="5295784412"/>
    <nd ref="60850932"/>
    <nd ref="9021502408"/>
    <nd ref="60850933"/>
    <nd ref="11584977433"/>
    <nd ref="9079601926"/>
    <tag k="highway" v="residential"/>
    <tag k="name" v="Field Road"/>
    <tag k="source:name" v="dictaphone"/>
  </way>
  <way id="8113736" version="1" timestamp="2007-10-06T14:36:25Z" changeset="49197" uid="3582" user="davidearl">
    <nd ref="60850931"/>
    <nd ref="60850936"/>
    <nd ref="60850937"/>
    <nd ref="60850938"/>
    <tag k="created_by" v="JOSM"/>
    <tag k="highway" v="residential"/>
    <tag k="name" v="Field Row"/>
    <tag k="source:name" v="dictaphone"/>
  </way>
  <way id="8113737" version="3" timestamp="2015-05-13T13:12:14Z" changeset="31103580" uid="281267" user="smb1001">
    <nd ref="32129719"/>
    <nd ref="60850942"/>
    <nd ref="60850943"/>
    <nd ref="60850944"/>
    <nd ref="60850945"/>
    <nd ref="60850946"/>
    <nd ref="60850947"/>
    <nd ref="3514803956"/>
    <nd ref="60850951"/>
    <tag k="highway" v="residential"/>
    <tag k="name" v="Rectory Lane"/>
    <tag k="source:name" v="dictaphone"/>
  </way>
  <way id="8113738" version="2" timestamp="2014-03-03T15:46:41Z" changeset="20890867" uid="2020" user="comsomol">
    <nd ref="60850952"/>
    <nd ref="60850953"/>
    <nd ref="2700090004"/>
    <nd ref="60850954"/>
    <nd ref="2700089991"/>
    <tag k="highway" v="residential"/>
    <tag k="name" v="Southcote/Dovecote/Orchard End/Moat House"/>
    <tag k="source:name" v="dictaphone"/>
  </way>
  <way id="8113739" version="1" timestamp="2007-10-06T14:36:26Z" changeset="49197" uid="3582" user="davidearl">
    <nd ref="60850953"/>
    <nd ref="32129481"/>
    <tag k="created_by" v="JOSM"/>
    <tag k="highway" v="residential"/>
  </way>
  <way id="8113740" version="5" timestamp="2021-04-29T13:52:40Z" changeset="103849931" uid="742701" user="kerr smith">
    <nd ref="32129545"/>
    <nd ref="1106467730"/>
    <nd ref="1863624860"/>
    <nd ref="60850955"/>
    <tag k="highway" v="tertiary"/>
    <tag k="maxspeed" v="60 mph"/>
    <tag k="maxspeed:type" v="GB:nsl_single"/>
    <tag k="name" v="Church Lane"/>
  </way>
  <way id="8113743" version="9" timestamp="2020-06-15T00:33:36Z" changeset="86638407" uid="5173844" user="ndrw6">
    <nd ref="5276321"/>
    <nd ref="1863624984"/>
    <nd ref="111490406"/>
    <nd ref="1863625006"/>
    <nd ref="1863625012"/>
    <nd ref="111490404"/>
    <nd ref="1863625015"/>
    <nd ref="111490408"/>
    <nd ref="1863625035"/>
    <nd ref="1863625045"/>
    <nd ref="1863625054"/>
    <nd ref="25694979"/>
    <nd ref="1863625060"/>
    <nd ref="663868760"/>
    <nd ref="111490411"/>
    <nd ref="1863625057"/>
    <nd ref="111490324"/>
    <nd ref="1864027263"/>
    <nd ref="1863625048"/>
    <nd ref="1863625039"/>
    <nd ref="668998639"/>
    <nd ref="1863625000"/>
    <nd ref="1106467697"/>
    <nd ref="1863624976"/>
    <nd ref="111490325"/>
    <nd ref="1863624952"/>
    <nd ref="111490328"/>
    <tag k="highway" v="secondary"/>
    <tag k="maxspeed" v="60 mph"/>
    <tag k="maxspeed:type" v="GB:nsl_single"/>
    <tag k="ref" v="B1046"/>
    <tag k="source:ref" v="gps survey"/>
  </way>
  <way id="8113744" version="4" timestamp="2020-06-15T00:33:36Z" changeset="86638407" uid="5173844" user="ndrw6">
    <nd ref="60850970"/>
    <nd ref="32129414"/>
    <tag k="bridge" v="yes"/>
    <tag k="highway" v="secondary"/>
    <tag k="layer" v="1"/>
    <tag k="maxspeed" v="60 mph"/>
    <tag k="maxspeed:type" v="GB:nsl_single"/>
    <tag k="ref" v="B1046"/>
    <tag k="source:ref" v="gps survey"/>
  </way>
  <way id="8113874" version="6" timestamp="2024-01-29T22:17:38Z" changeset="146840500" uid="742701" user="kerr smith">
    <nd ref="60850929"/>
    <nd ref="11556464242"/>
    <nd ref="6029985779"/>
    <nd ref="11556464241"/>
    <nd ref="6029985778"/>
    <nd ref="11556464240"/>
    <nd ref="60851362"/>
    <nd ref="11556464237"/>
    <nd ref="11556464238"/>
    <nd ref="11556464239"/>
    <nd ref="11556464236"/>
    <nd ref="60851363"/>
    <nd ref="60851364"/>
    <tag k="highway" v="residential"/>
    <tag k="name" v="Cranes Lane"/>
    <tag k="not:name" v="Crane's Lane"/>
    <tag k="note" v="the road section of this way is Cranes Lane and the track section is Crane's Lane"/>
    <tag k="old_name" v="Wildmans Lane"/>
    <tag k="source:name" v="dictaphone"/>
  </way>
  <way id="8113875" version="10" timestamp="2019-10-14T08:38:39Z" changeset="75650191" uid="10252551" user="amanura">
    <nd ref="5276312"/>
    <nd ref="1766431423"/>
    <nd ref="60850941"/>
    <nd ref="1766431424"/>
    <nd ref="60850940"/>
    <nd ref="60850939"/>
    <nd ref="6877435920"/>
    <nd ref="5276314"/>
    <nd ref="260378236"/>
    <nd ref="5276315"/>
    <nd ref="5276316"/>
    <nd ref="6029985775"/>
    <nd ref="25695440"/>
    <nd ref="25695439"/>
    <nd ref="5276318"/>
    <nd ref="25695437"/>
    <nd ref="6029985774"/>
    <nd ref="111490398"/>
    <nd ref="5276319"/>
    <nd ref="1863624930"/>
    <nd ref="6029985773"/>
    <nd ref="5276321"/>
    <tag k="highway" v="tertiary"/>
    <tag k="name" v="Bourn Road"/>
  </way>
  <way id="8113876" version="4" timestamp="2018-11-01T15:29:20Z" changeset="64082872" uid="1257159" user="Jean-Pierre Rondeau">
    <nd ref="5276307"/>
    <nd ref="6029985777"/>
    <nd ref="5295784553"/>
    <nd ref="5295784514"/>
    <nd ref="5276310"/>
    <nd ref="5276312"/>
    <tag k="abutters" v="residential"/>
    <tag k="highway" v="tertiary"/>
    <tag k="name" v="Bourn Road"/>
    <tag k="source:name" v="dictaphone"/>
  </way>
  <way id="8113877" version="5" timestamp="2024-01-27T12:19:36Z" changeset="146741932" uid="742701" user="kerr smith">
    <nd ref="5276305"/>
    <nd ref="5295784697"/>
    <nd ref="11556401158"/>
    <nd ref="11556401159"/>
    <nd ref="11556401160"/>
    <nd ref="5295784702"/>
    <nd ref="5276306"/>
    <nd ref="25695441"/>
    <nd ref="5996117943"/>
    <nd ref="60850929"/>
    <tag k="abutters" v="residential"/>
    <tag k="highway" v="tertiary"/>
    <tag k="name" v="Tinkers Lane"/>
    <tag k="not:name" v="Tinker's Lane"/>
    <tag k="source:name" v="dictaphone"/>
  </way>
  <way id="8113878" version="8" timestamp="2021-04-29T13:52:40Z" changeset="103849931" uid="742701" user="kerr smith">
    <nd ref="25694983"/>
    <nd ref="1863624847"/>
    <nd ref="1863624838"/>
    <nd ref="32129545"/>
    <tag k="highway" v="tertiary"/>
    <tag k="maxspeed" v="60 mph"/>
    <tag k="maxspeed:type" v="GB:nsl_single"/>
    <tag k="name" v="Church Lane"/>
    <tag k="source" v="GPS survey"/>
  </way>
  <way id="8113925" version="6" timestamp="2024-02-16T14:48:27Z" changeset="147535584" uid="742701" user="kerr smith">
    <nd ref="5276301"/>
    <nd ref="60851576"/>
    <tag k="bridge" v="yes"/>
    <tag k="highway" v="tertiary"/>
    <tag k="layer" v="1"/>
    <tag k="name" v="Tinkers Lane"/>
    <tag k="not:name" v="Tinker's Lane"/>
  </way>
  <way id="8113926" version="2" timestamp="2018-10-18T16:55:09Z" changeset="63653892" uid="90142" user="andy mackey">
    <nd ref="60850929"/>
    <nd ref="5996117942"/>
    <nd ref="60850930"/>
    <nd ref="5276307"/>
    <tag k="abutters" v="residential"/>
    <tag k="highway" v="tertiary"/>
    <tag k="name" v="The Green"/>
    <tag k="source:name" v="dictaphone"/>
  </way>
  <way id="8113927" version="1" timestamp="2007-10-06T14:37:01Z" changeset="49197" uid="3582" user="davidearl">
    <nd ref="5276307"/>
    <nd ref="32129719"/>
    <nd ref="60850952"/>
    <nd ref="32129481"/>
    <tag k="abutters" v="residential"/>
    <tag k="created_by" v="JOSM"/>
    <tag k="highway" v="tertiary"/>
    <tag k="name" v="The Green"/>
    <tag k="source:ref" v="GPS survey"/>
  </way>
  <way id="8113933" version="5" timestamp="2021-11-15T14:53:47Z" changeset="113809194" uid="742701" user="kerr smith">
    <nd ref="32129414"/>
    <nd ref="1248933730"/>
    <nd ref="60850961"/>
    <nd ref="60850971"/>
    <nd ref="1248933741"/>
    <nd ref="25694986"/>
    <nd ref="1248933668"/>
    <nd ref="60850972"/>
    <nd ref="1248934304"/>
    <nd ref="9253520190"/>
    <nd ref="1248934154"/>
    <nd ref="60850973"/>
    <nd ref="32129131"/>
    <nd ref="3673512248"/>
    <nd ref="1248934167"/>
    <tag k="highway" v="secondary"/>
    <tag k="maxspeed" v="60 mph"/>
    <tag k="maxspeed:type" v="GB:nsl_single"/>
    <tag k="ref" v="B1046"/>
    <tag k="source:ref" v="gps survey"/>
  </way>
  <way id="8113935" version="7" timestamp="2024-02-16T14:48:27Z" changeset="147535584" uid="742701" user="kerr smith">
    <nd ref="1248934167"/>
    <nd ref="1248933867"/>
    <nd ref="278866012"/>
    <nd ref="11630583094"/>
    <nd ref="8679911818"/>
    <nd ref="25694989"/>
    <tag k="highway" v="secondary"/>
    <tag k="maxspeed" v="30 mph"/>
    <tag k="name" v="High Street"/>
    <tag k="ref" v="B1046"/>
    <tag k="source:ref" v="gps survey"/>
  </way>
  <way id="8113936" version="4" timestamp="2020-06-15T00:33:36Z" changeset="86638407" uid="5173844" user="ndrw6">
    <nd ref="25694989"/>
    <nd ref="1248934217"/>
    <nd ref="32129284"/>
    <tag k="bridge" v="yes"/>
    <tag k="highway" v="secondary"/>
    <tag k="layer" v="1"/>
    <tag k="maxspeed" v="30 mph"/>
    <tag k="name" v="High Street"/>
    <tag k="ref" v="B1046"/>
    <tag k="source:ref" v="gps survey"/>
  </way>
  <way id="12301798" version="4" timestamp="2020-06-15T00:33:36Z" changeset="86638407" uid="5173844" user="ndrw6">
    <nd ref="111497405"/>
    <nd ref="32534148"/>
    <tag k="bridge" v="yes"/>
    <tag k="highway" v="tertiary"/>
    <tag k="layer" v="1"/>
    <tag k="maxspeed" v="40 mph"/>
  </way>
  <way id="12301957" version="4" timestamp="2020-06-15T00:33:36Z" changeset="86638407" uid="5173844" user="ndrw6">
    <nd ref="111490325"/>
    <nd ref="1863624967"/>
    <nd ref="1863624970"/>
    <nd ref="111490326"/>
    <tag k="highway" v="tertiary"/>
    <tag k="maxspeed" v="60 mph"/>
    <tag k="maxspeed:type" v="GB:nsl_single"/>
    <tag k="name" v="Main Street"/>
  </way>
  <way id="12302043" version="8" timestamp="2024-06-19T10:50:33Z" changeset="152889403" uid="344866" user="thewinduppirate">
    <nd ref="5276331"/>
    <nd ref="3733245048"/>
    <nd ref="6325292888"/>
    <nd ref="111490395"/>
    <nd ref="3706093789"/>
    <nd ref="5276329"/>
    <nd ref="5276328"/>
    <nd ref="5276326"/>
    <nd ref="111490402"/>
    <nd ref="1863624956"/>
    <nd ref="5276325"/>
    <nd ref="1863624954"/>
    <nd ref="1863624945"/>
    <nd ref="5276324"/>
    <nd ref="1864027260"/>
    <nd ref="1863624917"/>
    <nd ref="1863624913"/>
    <nd ref="5276322"/>
    <nd ref="1863624915"/>
    <nd ref="1863624933"/>
    <nd ref="5276321"/>
    <tag k="highway" v="secondary"/>
    <tag k="name" v="Toft Road"/>
    <tag k="ref" v="B1046"/>
    <tag k="surface" v="asphalt"/>
  </way>
  <way id="58647078" version="5" timestamp="2022-02-08T12:55:21Z" changeset="117160006" uid="742701" user="kerr smith">
    <nd ref="111490328"/>
    <nd ref="1863624960"/>
    <nd ref="111490326"/>
    <nd ref="1863624997"/>
    <nd ref="1863625042"/>
    <nd ref="1863625105"/>
    <nd ref="1863625124"/>
    <nd ref="1106467757"/>
    <nd ref="1863625129"/>
    <nd ref="32534133"/>
    <nd ref="111490331"/>
    <nd ref="726643767"/>
    <nd ref="1863625137"/>
    <nd ref="1863625161"/>
    <nd ref="9489802643"/>
    <nd ref="111497405"/>
    <tag k="highway" v="tertiary"/>
    <tag k="maxspeed" v="60 mph"/>
    <tag k="maxspeed:type" v="GB:nsl_single"/>
    <tag k="name" v="Main Street"/>
    <tag k="source:name" v="dictaphone"/>
  </way>
  <way id="58647079" version="5" timestamp="2020-06-15T00:33:36Z" changeset="86638407" uid="5173844" user="ndrw6">
    <nd ref="111490328"/>
    <nd ref="1106467791"/>
    <nd ref="1863624907"/>
    <nd ref="25694981"/>
    <nd ref="1863624891"/>
    <nd ref="60850955"/>
    <tag k="highway" v="secondary"/>
    <tag k="maxspeed" v="60 mph"/>
    <tag k="maxspeed:type" v="GB:nsl_single"/>
    <tag k="ref" v="B1046"/>
    <tag k="source:ref" v="gps survey"/>
  </way>
  <way id="245516704" version="3" timestamp="2021-04-29T13:52:40Z" changeset="103849931" uid="742701" user="kerr smith">
    <nd ref="32129545"/>
    <nd ref="1863624821"/>
    <nd ref="1106467733"/>
    <nd ref="32129060"/>
    <nd ref="32129841"/>
    <nd ref="1106467807"/>
    <nd ref="32129590"/>
    <nd ref="32129695"/>
    <tag k="highway" v="tertiary"/>
    <tag k="maxspeed" v="60 mph"/>
    <tag k="maxspeed:type" v="GB:nsl_single"/>
    <tag k="name" v="Church Lane"/>
    <tag k="source" v="GPS survey"/>
  </way>
  <way id="245516713" version="3" timestamp="2024-02-10T13:43:08Z" changeset="147293110" uid="742701" user="kerr smith">
    <nd ref="60850955"/>
    <nd ref="25694983"/>
    <nd ref="1863624835"/>
    <nd ref="60850959"/>
    <nd ref="1863624806"/>
    <nd ref="1863624794"/>
    <nd ref="32129434"/>
    <nd ref="1863624786"/>
    <nd ref="1863624789"/>
    <nd ref="11607833111"/>
    <nd ref="60850962"/>
    <nd ref="32129036"/>
    <nd ref="1863624799"/>
    <nd ref="60850970"/>
    <tag k="highway" v="secondary"/>
    <tag k="maxspeed" v="60 mph"/>
    <tag k="maxspeed:type" v="GB:nsl_single"/>
    <tag k="ref" v="B1046"/>
    <tag k="source:ref" v="gps survey"/>
  </way>
  <way id="548155680" version="2" timestamp="2024-12-11T08:18:14Z" changeset="160157707" uid="10633286" user="Moorit">
    <nd ref="5295784334"/>
    <nd ref="5295784335"/>
    <nd ref="5295784336"/>
    <nd ref="5295784337"/>
    <nd ref="5295784338"/>
    <nd ref="5295784339"/>
    <nd ref="5295784340"/>
    <nd ref="5295784341"/>
    <nd ref="5295784342"/>
    <nd ref="5295784343"/>
    <nd ref="5295784334"/>
    <tag k="addr:housenumber" v="5"/>
    <tag k="addr:street" v="Field Row"/>
    <tag k="building" v="yes"/>
  </way>
  <way id="548155681" version="5" timestamp="2024-12-11T08:18:14Z" changeset="160157707" uid="10633286" user="Moorit">
    <nd ref="5295784344"/>
    <nd ref="9585785411"/>
    <nd ref="9585785410"/>
    <nd ref="5295784347"/>
    <nd ref="5295784344"/>
    <tag k="addr:city" v="Cambridge"/>
    <tag k="addr:housenumber" v="4"/>
    <tag k="addr:postcode" v="CB23 2NH"/>
    <tag k="addr:street" v="Field Row"/>
    <tag k="addr:village" v="Kingston"/>
    <tag k="building" v="yes"/>
  </way>
  <way id="548155682" version="2" timestamp="2024-12-11T08:18:14Z" changeset="160157707" uid="10633286" user="Moorit">
    <nd ref="5295784348"/>
    <nd ref="5295784349"/>
    <nd ref="5295784350"/>
    <nd ref="5295784351"/>
    <nd ref="5295784348"/>
    <tag k="addr:city" v="Cambridge"/>
    <tag k="addr:housenumber" v="2"/>
    <tag k="addr:postcode" v="CB23 2NH"/>
    <tag k="addr:street" v="Field Row"/>
    <tag k="building" v="yes"/>
  </way>
  <way id="548155683" version="2" timestamp="2024-12-11T08:18:14Z" changeset="160157707" uid="10633286" user="Moorit">
    <nd ref="5295784352"/>
    <nd ref="5295784353"/>
    <nd ref="5295784354"/>
    <nd ref="5295784355"/>
    <nd ref="5295784352"/>
    <tag k="addr:city" v="Cambridge"/>
    <tag k="addr:housenumber" v="1"/>
    <tag k="addr:postcode" v="CB23 2NH"/>
    <tag k="addr:street" v="Field Row"/>
    <tag k="building" v="yes"/>
  </way>
  <way id="548155699" version="2" timestamp="2021-08-20T01:32:44Z" changeset="109958531" uid="493595" user="Yorvik Prestigitator">
    <nd ref="5295784421"/>
    <nd ref="5295784427"/>
    <nd ref="5295784428"/>
    <nd ref="5295784429"/>
    <nd ref="5295784424"/>
    <nd ref="5295784421"/>
    <tag k="addr:city" v="Kingston"/>
    <tag k="addr:postcode" v="CB23 2NN"/>
    <tag k="addr:street" v="The Green"/>
    <tag k="amenity" v="community_centre"/>
    <tag k="building" v="public"/>
    <tag k="community_centre" v="village_hall"/>
    <tag k="name" v="Kingston Village Hall"/>
  </way>
  <way id="548155701" version="3" timestamp="2024-03-07T22:32:39Z" changeset="148362590" uid="5173844" user="ndrw6">
    <nd ref="5295784436"/>
    <nd ref="5295784437"/>
    <nd ref="5295784438"/>
    <nd ref="5295784439"/>
    <nd ref="5295784440"/>
    <nd ref="5295784441"/>
    <nd ref="5295784442"/>
    <nd ref="11702281794"/>
    <nd ref="11702281793"/>
    <nd ref="11702281792"/>
    <nd ref="11702281791"/>
    <nd ref="5295784443"/>
    <nd ref="5295784436"/>
    <tag k="addr:housenumber" v="The Thatches"/>
    <tag k="addr:street" v="Rectory Lane"/>
    <tag k="building" v="yes"/>
  </way>
  <way id="619868648" version="2" timestamp="2024-02-15T12:32:01Z" changeset="147489400" uid="742701" user="kerr smith">
    <nd ref="5857162279"/>
    <nd ref="5857162276"/>
    <nd ref="5857162277"/>
    <nd ref="5857162278"/>
    <nd ref="5857162279"/>
    <tag k="addr:housename" v="Lyndhurst"/>
    <tag k="addr:housenumber" v="6"/>
    <tag k="addr:postcode" v="CB23 1HT"/>
    <tag k="addr:street" v="Kingston Road"/>
    <tag k="building" v="yes"/>
  </way>
  <way id="1000893889" version="3" timestamp="2024-02-16T14:48:27Z" changeset="147535584" uid="742701" user="kerr smith">
    <nd ref="60850912"/>
    <nd ref="9238827607"/>
    <nd ref="11630594084"/>
    <nd ref="9238827605"/>
    <nd ref="5276301"/>
    <tag k="highway" v="tertiary"/>
    <tag k="name" v="Tinkers Lane"/>
    <tag k="not:name" v="Tinker's Lane"/>
  </way>
  <way id="1041181060" version="2" timestamp="2024-12-11T08:18:14Z" changeset="160157707" uid="10633286" user="Moorit">
    <nd ref="9585785411"/>
    <nd ref="5295784345"/>
    <nd ref="5295784346"/>
    <nd ref="9585785410"/>
    <nd ref="9585785411"/>
    <tag k="addr:city" v="Cambridge"/>
    <tag k="addr:housenumber" v="3"/>
    <tag k="addr:postcode" v="CB23 2NH"/>
    <tag k="addr:street" v="Field Row"/>
    <tag k="addr:village" v="Kingston"/>
    <tag k="building" v="yes"/>
  </way>
  <way id="1136434651" version="4" timestamp="2024-02-16T14:48:27Z" changeset="147535584" uid="742701" user="kerr smith">
    <nd ref="10593959373"/>
    <nd ref="10593959365"/>
    <nd ref="10593959364"/>
    <nd ref="10593959363"/>
    <nd ref="11630583155"/>
    <nd ref="11630583156"/>
    <nd ref="10593959361"/>
    <nd ref="10593959360"/>
    <nd ref="11630583154"/>
    <nd ref="10593959370"/>
    <nd ref="10593959371"/>
    <nd ref="10593959367"/>
    <nd ref="10593959366"/>
    <nd ref="10593959368"/>
    <nd ref="10593959369"/>
    <nd ref="10593959372"/>
    <nd ref="10593959373"/>
    <tag k="addr:housename" v="Armshold Farm"/>
    <tag k="addr:housenumber" v="8"/>
    <tag k="addr:postcode" v="CB23 1HT"/>
    <tag k="addr:street" v="Kingston Road"/>
    <tag k="building" v="yes"/>
    <tag k="note" v="This house appears to be on Tinkers Lane but a local resident explained that technically this house is in the village of Kingston and so has Kingston Road as its street name"/>
  </way>
  <way id="1250777492" version="2" timestamp="2024-02-16T14:48:27Z" changeset="147535584" uid="742701" user="kerr smith">
    <nd ref="60851576"/>
    <nd ref="9710881671"/>
    <nd ref="703068698"/>
    <nd ref="9238827606"/>
    <nd ref="6029985780"/>
    <nd ref="5276302"/>
    <nd ref="10800181098"/>
    <nd ref="732742533"/>
    <nd ref="11630583134"/>
    <nd ref="10800181101"/>
    <nd ref="5276303"/>
    <nd ref="5276305"/>
    <tag k="highway" v="tertiary"/>
    <tag k="name" v="Tinkers Lane"/>
    <tag k="not:name" v="Tinker's Lane"/>
  </way>

</osm>
