<?xml version="1.0" encoding="UTF-8"?>
<osm version="0.6" generator="Overpass API 0.7.62.5 1bd436f1">
<note>The data included in this document is from www.openstreetmap.org. The data is made available under ODbL.</note>
<meta osm_base="2025-05-17T10:35:45Z" areas="2024-12-31T00:49:33Z"/>

  <node id="49047322" lat="32.5755999" lon="-117.1143506" version="7" timestamp="2024-05-09T05:52:48Z" changeset="151083604" uid="11609320" user="telcodude"/>
  <node id="49119340" lat="32.5766337" lon="-117.1274360" version="6" timestamp="2024-04-04T07:15:54Z" changeset="149555810" uid="11609320" user="telcodude"/>
  <node id="49119342" lat="32.5766074" lon="-117.1243172" version="4" timestamp="2013-07-24T02:40:25Z" changeset="17069829" uid="1616228" user="flockfinder"/>
  <node id="49119343" lat="32.5766521" lon="-117.1225550" version="4" timestamp="2020-05-26T06:51:41Z" changeset="85748081" uid="9196087" user="vsahith"/>
  <node id="49119345" lat="32.5766366" lon="-117.1215957" version="4" timestamp="2020-05-26T06:51:41Z" changeset="85748081" uid="9196087" user="vsahith"/>
  <node id="49119346" lat="32.5765932" lon="-117.1206517" version="5" timestamp="2024-04-04T07:15:54Z" changeset="149555810" uid="11609320" user="telcodude"/>
  <node id="49119347" lat="32.5765880" lon="-117.1201640" version="3" timestamp="2009-09-19T14:24:59Z" changeset="2534473" uid="147510" user="woodpeck_fixbot"/>
  <node id="49119350" lat="32.5765340" lon="-117.1173089" version="6" timestamp="2024-04-24T06:45:19Z" changeset="150426473" uid="11609320" user="telcodude"/>
  <node id="4343226615" lat="32.5766140" lon="-117.1179887" version="2" timestamp="2024-04-04T07:15:54Z" changeset="149555810" uid="11609320" user="telcodude"/>
  <node id="7257194209" lat="32.5718190" lon="-117.1145504" version="3" timestamp="2025-01-05T14:20:07Z" changeset="161021723" uid="22137982" user="TeeEn">
    <tag k="crossing" v="uncontrolled"/>
    <tag k="crossing:island" v="no"/>
    <tag k="highway" v="crossing"/>
  </node>
  <node id="7558164392" lat="32.5765446" lon="-117.1215990" version="1" timestamp="2020-05-26T06:51:41Z" changeset="85748081" uid="9196087" user="vsahith"/>
  <node id="11331901652" lat="32.5766777" lon="-117.1187359" version="5" timestamp="2025-01-03T08:23:55Z" changeset="160934842" uid="22137982" user="TeeEn">
    <tag k="crossing" v="uncontrolled"/>
    <tag k="crossing:island" v="no"/>
    <tag k="highway" v="crossing"/>
    <tag k="tactile_paving" v="yes"/>
  </node>
  <node id="11331901660" lat="32.5766098" lon="-117.1188020" version="3" timestamp="2025-01-03T08:23:34Z" changeset="160934842" uid="22137982" user="TeeEn">
    <tag k="crossing" v="uncontrolled"/>
    <tag k="highway" v="crossing"/>
    <tag k="tactile_paving" v="yes"/>
  </node>
  <node id="11331902170" lat="32.5765158" lon="-117.1144352" version="4" timestamp="2025-01-05T14:52:38Z" changeset="161022845" uid="22137982" user="TeeEn">
    <tag k="button_operated" v="yes"/>
    <tag k="crossing" v="traffic_signals"/>
    <tag k="highway" v="crossing"/>
    <tag k="tactile_paving" v="yes"/>
  </node>
  <node id="11803959347" lat="32.5766648" lon="-117.1165747" version="5" timestamp="2025-01-05T14:59:09Z" changeset="161022845" uid="22137982" user="TeeEn">
    <tag k="crossing" v="uncontrolled"/>
    <tag k="crossing:island" v="no"/>
    <tag k="highway" v="crossing"/>
    <tag k="tactile_paving" v="yes"/>
  </node>
  <node id="11861640331" lat="32.5711078" lon="-117.1145718" version="2" timestamp="2025-01-04T14:30:35Z" changeset="160974891" uid="22137982" user="TeeEn">
    <tag k="crossing" v="uncontrolled"/>
    <tag k="crossing:island" v="no"/>
    <tag k="highway" v="crossing"/>
  </node>
  <node id="11934180059" lat="32.5732463" lon="-117.1145318" version="2" timestamp="2025-01-05T14:30:09Z" changeset="161021723" uid="22137982" user="TeeEn">
    <tag k="crossing" v="unmarked"/>
    <tag k="crossing:island" v="no"/>
    <tag k="crossing:markings" v="no"/>
    <tag k="highway" v="crossing"/>
  </node>
  <way id="5947677" version="8" timestamp="2025-01-05T15:02:48Z" changeset="161021775" uid="22137982" user="TeeEn">
    <nd ref="48958970"/>
    <nd ref="48958972"/>
    <tag k="cycleway:right" v="lane"/>
    <tag k="highway" v="secondary"/>
    <tag k="lanes" v="1"/>
    <tag k="maxspeed" v="35 mph"/>
    <tag k="name" v="Imperial Beach Boulevard"/>
    <tag k="oneway" v="yes"/>
    <tag k="sidewalk:left" v="no"/>
    <tag k="sidewalk:right" v="separate"/>
    <tag k="source:maxspeed" v="sign"/>
    <tag k="surface" v="asphalt"/>
    <tag k="tiger:cfcc" v="A41"/>
    <tag k="tiger:county" v="San Diego, CA"/>
    <tag k="tiger:reviewed" v="no"/>
  </way>
  <way id="5955844" version="11" timestamp="2025-01-05T15:16:55Z" changeset="161021775" uid="22137982" user="TeeEn">
    <nd ref="49047324"/>
    <nd ref="49047325"/>
    <nd ref="11873832184"/>
    <nd ref="11873832528"/>
    <nd ref="11873832541"/>
    <nd ref="11873832529"/>
    <nd ref="11873832540"/>
    <nd ref="11873832530"/>
    <nd ref="11873832311"/>
    <nd ref="11873832531"/>
    <nd ref="11873832275"/>
    <nd ref="11873832323"/>
    <nd ref="11873832539"/>
    <nd ref="11873832538"/>
    <nd ref="11873832303"/>
    <nd ref="11873832537"/>
    <nd ref="11934180054"/>
    <tag k="highway" v="residential"/>
    <tag k="lane_markings" v="no"/>
    <tag k="name" v="Downing Street"/>
    <tag k="sidewalk:both" v="separate"/>
    <tag k="surface" v="asphalt"/>
    <tag k="tiger:cfcc" v="A41"/>
    <tag k="tiger:county" v="San Diego, CA"/>
    <tag k="tiger:name_base" v="Downing"/>
    <tag k="tiger:name_type" v="St"/>
    <tag k="tiger:reviewed" v="no"/>
  </way>
  <way id="5958395" version="14" timestamp="2025-01-03T07:19:19Z" changeset="160934783" uid="22137982" user="TeeEn">
    <nd ref="12468031935"/>
    <nd ref="7257186699"/>
    <nd ref="49074135"/>
    <nd ref="4604081888"/>
    <nd ref="49074137"/>
    <nd ref="49074138"/>
    <nd ref="49074139"/>
    <nd ref="11871383045"/>
    <nd ref="49074140"/>
    <nd ref="12468013786"/>
    <tag k="cycleway" v="shared_lane"/>
    <tag k="highway" v="residential"/>
    <tag k="lane_markings" v="no"/>
    <tag k="name" v="Iris Avenue"/>
    <tag k="sidewalk:left" v="separate"/>
    <tag k="surface" v="asphalt"/>
    <tag k="tiger:cfcc" v="A41"/>
    <tag k="tiger:county" v="San Diego, CA"/>
    <tag k="tiger:name_base" v="Iris"/>
    <tag k="tiger:name_type" v="Ave"/>
  </way>
  <way id="5958400" version="8" timestamp="2025-01-05T14:15:23Z" changeset="161021775" uid="22137982" user="TeeEn">
    <nd ref="49074173"/>
    <nd ref="49074174"/>
    <nd ref="11871383515"/>
    <nd ref="11871383520"/>
    <nd ref="11871383517"/>
    <nd ref="11871383513"/>
    <nd ref="49074175"/>
    <nd ref="11871383511"/>
    <nd ref="11871383274"/>
    <nd ref="11871383509"/>
    <nd ref="11871383507"/>
    <nd ref="11871383277"/>
    <nd ref="11871383504"/>
    <nd ref="11871383502"/>
    <nd ref="11871383500"/>
    <nd ref="49074176"/>
    <tag k="highway" v="residential"/>
    <tag k="lane_markings" v="no"/>
    <tag k="name" v="Iris Avenue"/>
    <tag k="sidewalk:both" v="separate"/>
    <tag k="surface" v="asphalt"/>
    <tag k="tiger:cfcc" v="A41"/>
    <tag k="tiger:county" v="San Diego, CA"/>
    <tag k="tiger:name_base" v="Iris"/>
    <tag k="tiger:name_type" v="Ave"/>
    <tag k="tiger:reviewed" v="no"/>
  </way>
  <way id="5961582" version="13" timestamp="2025-01-03T08:13:57Z" changeset="160934783" uid="22137982" user="TeeEn">
    <nd ref="11803972287"/>
    <nd ref="7257194232"/>
    <nd ref="11871484684"/>
    <nd ref="11871484639"/>
    <nd ref="11871484683"/>
    <nd ref="11871484638"/>
    <nd ref="11871484682"/>
    <nd ref="11871484637"/>
    <nd ref="11871484681"/>
    <nd ref="11871484680"/>
    <nd ref="11871484636"/>
    <nd ref="11871484679"/>
    <nd ref="11871484678"/>
    <nd ref="11871484635"/>
    <nd ref="11871484677"/>
    <nd ref="11871484676"/>
    <nd ref="7271149171"/>
    <nd ref="49106791"/>
    <nd ref="7271149172"/>
    <nd ref="11871484660"/>
    <nd ref="11871484712"/>
    <nd ref="11871484661"/>
    <nd ref="11871484662"/>
    <nd ref="11871484663"/>
    <nd ref="11871484675"/>
    <nd ref="11871484664"/>
    <nd ref="11871484674"/>
    <nd ref="11871484665"/>
    <nd ref="11871484673"/>
    <nd ref="11871484666"/>
    <nd ref="11871484672"/>
    <nd ref="11871484667"/>
    <nd ref="11871484668"/>
    <nd ref="11871484671"/>
    <nd ref="11871484669"/>
    <nd ref="11871484670"/>
    <nd ref="7257194231"/>
    <nd ref="7271149179"/>
    <tag k="highway" v="residential"/>
    <tag k="lane_markings" v="no"/>
    <tag k="name" v="East Lane"/>
    <tag k="sidewalk:both" v="separate"/>
    <tag k="surface" v="asphalt"/>
    <tag k="tiger:cfcc" v="A41"/>
    <tag k="tiger:county" v="San Diego, CA"/>
    <tag k="tiger:name_base" v="East"/>
    <tag k="tiger:name_type" v="Ln"/>
    <tag k="tiger:reviewed" v="no"/>
  </way>
  <way id="5962966" version="17" timestamp="2025-01-09T08:42:54Z" changeset="161159196" uid="22137982" user="TeeEn">
    <nd ref="48958972"/>
    <nd ref="49119350"/>
    <nd ref="49119351"/>
    <nd ref="49119352"/>
    <nd ref="5533781963"/>
    <nd ref="11803959339"/>
    <tag k="cycleway:left" v="no"/>
    <tag k="cycleway:right" v="lane"/>
    <tag k="highway" v="secondary"/>
    <tag k="lanes" v="1"/>
    <tag k="maxspeed" v="35 mph"/>
    <tag k="maxspeed:type" v="sign"/>
    <tag k="name" v="Imperial Beach Boulevard"/>
    <tag k="oneway" v="yes"/>
    <tag k="parking:left" v="no"/>
    <tag k="sidewalk:left" v="no"/>
    <tag k="sidewalk:right" v="separate"/>
    <tag k="source:maxspeed" v="sign"/>
    <tag k="surface" v="asphalt"/>
    <tag k="tiger:cfcc" v="A41"/>
    <tag k="tiger:county" v="San Diego, CA"/>
    <tag k="tiger:name_base" v="Imperial Beach"/>
    <tag k="tiger:name_type" v="Blvd"/>
    <tag k="tiger:reviewed" v="no"/>
  </way>
  <way id="5963589" version="16" timestamp="2025-01-03T07:27:42Z" changeset="160934783" uid="22137982" user="TeeEn">
    <nd ref="49126170"/>
    <nd ref="7271149173"/>
    <nd ref="49126171"/>
    <nd ref="7271149174"/>
    <nd ref="7257186697"/>
    <nd ref="49126173"/>
    <nd ref="49126174"/>
    <nd ref="11871484959"/>
    <nd ref="11890712382"/>
    <nd ref="7257194235"/>
    <nd ref="11890712386"/>
    <nd ref="4617000701"/>
    <nd ref="49106792"/>
    <nd ref="4616447406"/>
    <nd ref="11934180040"/>
    <tag k="highway" v="residential"/>
    <tag k="lane_markings" v="no"/>
    <tag k="name" v="Grove Avenue"/>
    <tag k="sidewalk:both" v="separate"/>
    <tag k="surface" v="asphalt"/>
    <tag k="tiger:cfcc" v="A41"/>
    <tag k="tiger:county" v="San Diego, CA"/>
    <tag k="tiger:name_base" v="Grove"/>
    <tag k="tiger:name_type" v="Ave"/>
  </way>
  <way id="5963590" version="11" timestamp="2025-01-05T15:10:55Z" changeset="161021775" uid="22137982" user="TeeEn">
    <nd ref="11890712613"/>
    <nd ref="7257194224"/>
    <nd ref="11871484655"/>
    <nd ref="11873832280"/>
    <nd ref="11871484654"/>
    <nd ref="11871484653"/>
    <nd ref="11890712643"/>
    <tag k="highway" v="residential"/>
    <tag k="lane_markings" v="no"/>
    <tag k="name" v="Grove Avenue"/>
    <tag k="sidewalk:right" v="separate"/>
    <tag k="surface" v="asphalt"/>
    <tag k="tiger:cfcc" v="A41"/>
    <tag k="tiger:county" v="San Diego, CA"/>
    <tag k="tiger:name_base" v="Grove"/>
    <tag k="tiger:name_type" v="Ave"/>
    <tag k="tiger:reviewed" v="no"/>
  </way>
  <way id="5963591" version="14" timestamp="2025-01-05T15:07:27Z" changeset="161021775" uid="22137982" user="TeeEn">
    <nd ref="49126184"/>
    <nd ref="11873832515"/>
    <nd ref="11871484644"/>
    <nd ref="11871484643"/>
    <nd ref="49126185"/>
    <nd ref="11871484641"/>
    <nd ref="11871484642"/>
    <nd ref="11873832548"/>
    <nd ref="11871484640"/>
    <nd ref="11873832547"/>
    <nd ref="11873832201"/>
    <nd ref="11873832319"/>
    <nd ref="11947878140"/>
    <nd ref="7257194215"/>
    <nd ref="49126186"/>
    <nd ref="11873832549"/>
    <nd ref="11873832550"/>
    <nd ref="11873832297"/>
    <nd ref="11873832315"/>
    <nd ref="11873832294"/>
    <nd ref="11873832186"/>
    <nd ref="11873832551"/>
    <nd ref="49047326"/>
    <nd ref="12097694861"/>
    <nd ref="11873832180"/>
    <nd ref="11873832235"/>
    <nd ref="11873832358"/>
    <nd ref="11873832182"/>
    <nd ref="7257194217"/>
    <nd ref="11934180059"/>
    <tag k="highway" v="residential"/>
    <tag k="lane_markings" v="no"/>
    <tag k="name" v="Grove Avenue"/>
    <tag k="sidewalk:both" v="separate"/>
    <tag k="surface" v="asphalt"/>
    <tag k="tiger:cfcc" v="A41"/>
    <tag k="tiger:county" v="San Diego, CA"/>
    <tag k="tiger:name_base" v="Grove"/>
    <tag k="tiger:name_type" v="Ave"/>
    <tag k="tiger:reviewed" v="no"/>
  </way>
  <way id="5966487" version="15" timestamp="2025-01-05T14:12:45Z" changeset="161021775" uid="22137982" user="TeeEn">
    <nd ref="7271149182"/>
    <nd ref="7257194229"/>
    <nd ref="11871484743"/>
    <nd ref="11871484742"/>
    <nd ref="11871484752"/>
    <nd ref="11871484753"/>
    <nd ref="11871484741"/>
    <nd ref="11871484740"/>
    <nd ref="11871484754"/>
    <nd ref="11871484739"/>
    <nd ref="11871484738"/>
    <nd ref="11871484755"/>
    <nd ref="11871484737"/>
    <nd ref="11871484756"/>
    <nd ref="11871484736"/>
    <nd ref="11871484735"/>
    <nd ref="11871484757"/>
    <nd ref="11871484734"/>
    <nd ref="11871484758"/>
    <nd ref="11871484733"/>
    <nd ref="11871484759"/>
    <nd ref="11871484732"/>
    <nd ref="11871484731"/>
    <nd ref="11871484730"/>
    <nd ref="11871484760"/>
    <nd ref="11871484761"/>
    <nd ref="49151241"/>
    <nd ref="11871484762"/>
    <nd ref="11871484763"/>
    <nd ref="11871383481"/>
    <nd ref="11871484764"/>
    <nd ref="11871484765"/>
    <nd ref="11871383479"/>
    <nd ref="7257194219"/>
    <nd ref="11861640331"/>
    <tag k="highway" v="residential"/>
    <tag k="lane_markings" v="no"/>
    <tag k="name" v="Oneonta Avenue"/>
    <tag k="sidewalk:both" v="separate"/>
    <tag k="surface" v="asphalt"/>
    <tag k="tiger:cfcc" v="A41"/>
    <tag k="tiger:county" v="San Diego, CA"/>
    <tag k="tiger:name_base" v="Oneonta"/>
    <tag k="tiger:name_type" v="Ave"/>
  </way>
  <way id="5968784" version="11" timestamp="2025-01-05T15:06:34Z" changeset="161021775" uid="22137982" user="TeeEn">
    <nd ref="49174042"/>
    <nd ref="12288519405"/>
    <nd ref="11873832195"/>
    <nd ref="11873832506"/>
    <nd ref="11873832503"/>
    <nd ref="11873832250"/>
    <nd ref="11873832300"/>
    <nd ref="11873832268"/>
    <nd ref="11873832244"/>
    <nd ref="11873832276"/>
    <nd ref="11873832507"/>
    <nd ref="11873832237"/>
    <nd ref="11873832310"/>
    <nd ref="11873832527"/>
    <nd ref="11873832308"/>
    <nd ref="11873832334"/>
    <nd ref="11873832238"/>
    <nd ref="11873832279"/>
    <nd ref="11900748944"/>
    <nd ref="11873832502"/>
    <nd ref="11890712672"/>
    <tag k="highway" v="residential"/>
    <tag k="lane_markings" v="no"/>
    <tag k="name" v="8th Street"/>
    <tag k="sidewalk:both" v="separate"/>
    <tag k="surface" v="asphalt"/>
    <tag k="tiger:cfcc" v="A41"/>
    <tag k="tiger:county" v="San Diego, CA"/>
    <tag k="tiger:name_base" v="8th"/>
    <tag k="tiger:name_type" v="St"/>
    <tag k="tiger:reviewed" v="no"/>
  </way>
  <way id="5968785" version="11" timestamp="2025-01-05T14:17:48Z" changeset="161021775" uid="22137982" user="TeeEn">
    <nd ref="7271153191"/>
    <nd ref="11871383483"/>
    <nd ref="11871383485"/>
    <nd ref="11871383487"/>
    <nd ref="11871383489"/>
    <nd ref="49174045"/>
    <nd ref="12305209444"/>
    <nd ref="11871383491"/>
    <nd ref="11871383493"/>
    <nd ref="11871383495"/>
    <nd ref="49074176"/>
    <tag k="highway" v="residential"/>
    <tag k="lane_markings" v="no"/>
    <tag k="name" v="8th Street"/>
    <tag k="sidewalk:both" v="separate"/>
    <tag k="surface" v="asphalt"/>
    <tag k="tiger:cfcc" v="A41"/>
    <tag k="tiger:county" v="San Diego, CA"/>
    <tag k="tiger:name_base" v="8th"/>
    <tag k="tiger:name_type" v="St"/>
    <tag k="tiger:reviewed" v="no"/>
  </way>
  <way id="5975244" version="12" timestamp="2025-01-05T14:32:36Z" changeset="161021775" uid="22137982" user="TeeEn">
    <nd ref="49238780"/>
    <nd ref="49238781"/>
    <nd ref="11873832557"/>
    <nd ref="11873832225"/>
    <nd ref="11873832322"/>
    <nd ref="11873832558"/>
    <nd ref="11873832287"/>
    <nd ref="11873832216"/>
    <nd ref="11873832240"/>
    <nd ref="11873832552"/>
    <nd ref="11873832556"/>
    <nd ref="11873832555"/>
    <nd ref="11873832239"/>
    <nd ref="11873832553"/>
    <nd ref="11947878143"/>
    <nd ref="11873832219"/>
    <nd ref="11871582042"/>
    <nd ref="11873832212"/>
    <nd ref="49238784"/>
    <nd ref="49238786"/>
    <tag k="highway" v="residential"/>
    <tag k="lane_markings" v="no"/>
    <tag k="name" v="Hickory Court"/>
    <tag k="sidewalk:both" v="separate"/>
    <tag k="surface" v="asphalt"/>
    <tag k="tiger:cfcc" v="A41"/>
    <tag k="tiger:county" v="San Diego, CA"/>
    <tag k="tiger:name_base" v="Hickory"/>
    <tag k="tiger:name_type" v="Ct"/>
    <tag k="tiger:reviewed" v="no"/>
  </way>
  <way id="5983464" version="15" timestamp="2025-01-03T06:38:56Z" changeset="160934783" uid="22137982" user="TeeEn">
    <nd ref="7271149164"/>
    <nd ref="11786339379"/>
    <nd ref="7257194234"/>
    <nd ref="11871484685"/>
    <nd ref="11873832458"/>
    <nd ref="11871484687"/>
    <nd ref="11871484686"/>
    <nd ref="11871484688"/>
    <nd ref="11871484689"/>
    <nd ref="11871484690"/>
    <nd ref="11873832461"/>
    <nd ref="11873832459"/>
    <nd ref="11873832460"/>
    <nd ref="11871484694"/>
    <nd ref="11871484693"/>
    <nd ref="11871484695"/>
    <nd ref="11871484692"/>
    <nd ref="11871484696"/>
    <nd ref="11871484691"/>
    <nd ref="7271149169"/>
    <tag k="highway" v="residential"/>
    <tag k="lane_markings" v="no"/>
    <tag k="name" v="Louden Lane"/>
    <tag k="sidewalk:both" v="separate"/>
    <tag k="surface" v="asphalt"/>
    <tag k="tiger:cfcc" v="A41"/>
    <tag k="tiger:county" v="San Diego, CA"/>
    <tag k="tiger:name_base" v="Louden"/>
    <tag k="tiger:name_type" v="Ln"/>
    <tag k="tiger:reviewed" v="no"/>
  </way>
  <way id="5984817" version="15" timestamp="2025-01-03T07:38:07Z" changeset="160934783" uid="22137982" user="TeeEn">
    <nd ref="7271149168"/>
    <nd ref="7257194246"/>
    <nd ref="49317424"/>
    <nd ref="7257194245"/>
    <nd ref="49306738"/>
    <nd ref="7257194244"/>
    <nd ref="4617000703"/>
    <nd ref="7257194243"/>
    <nd ref="11934180030"/>
    <nd ref="49106791"/>
    <nd ref="11934180032"/>
    <nd ref="7257194242"/>
    <nd ref="7611113434"/>
    <nd ref="7257194241"/>
    <nd ref="11934180036"/>
    <tag k="highway" v="residential"/>
    <tag k="lane_markings" v="no"/>
    <tag k="name" v="Fern Avenue"/>
    <tag k="sidewalk:both" v="separate"/>
    <tag k="surface" v="asphalt"/>
    <tag k="tiger:cfcc" v="A41"/>
    <tag k="tiger:county" v="San Diego, CA"/>
    <tag k="tiger:name_base" v="Fern"/>
    <tag k="tiger:name_type" v="Ave"/>
  </way>
  <way id="5985702" version="10" timestamp="2025-01-09T09:37:12Z" changeset="161159196" uid="22137982" user="TeeEn">
    <nd ref="49119345"/>
    <nd ref="7558164392"/>
    <tag k="highway" v="residential"/>
    <tag k="lane_markings" v="no"/>
    <tag k="name" v="California Street"/>
    <tag k="parking:both" v="no"/>
    <tag k="surface" v="asphalt"/>
    <tag k="tiger:cfcc" v="A41"/>
    <tag k="tiger:county" v="San Diego, CA"/>
    <tag k="tiger:name_base" v="California"/>
    <tag k="tiger:name_type" v="St"/>
    <tag k="tiger:reviewed" v="no"/>
  </way>
  <way id="5997314" version="19" timestamp="2025-05-05T18:04:06Z" changeset="165858788" uid="21393709" user="CtI5UDYpRmUS">
    <nd ref="11871484993"/>
    <nd ref="49317419"/>
    <nd ref="11871484994"/>
    <nd ref="12812234843"/>
    <nd ref="11871484995"/>
    <nd ref="11871484991"/>
    <nd ref="11871484996"/>
    <nd ref="11871484997"/>
    <nd ref="11871484990"/>
    <nd ref="11871484989"/>
    <nd ref="11871484998"/>
    <nd ref="11871484988"/>
    <nd ref="11871484999"/>
    <nd ref="11871485000"/>
    <nd ref="11871484987"/>
    <nd ref="11871485001"/>
    <nd ref="7257194260"/>
    <nd ref="11934180027"/>
    <tag k="cycleway" v="shared_lane"/>
    <tag k="highway" v="residential"/>
    <tag k="lane_markings" v="no"/>
    <tag k="maxspeed" v="25 mph"/>
    <tag k="name" v="5th Street"/>
    <tag k="sidewalk:both" v="separate"/>
    <tag k="surface" v="asphalt"/>
    <tag k="tiger:cfcc" v="A41"/>
    <tag k="tiger:county" v="San Diego, CA"/>
    <tag k="tiger:name_base" v="5th"/>
    <tag k="tiger:name_type" v="St"/>
  </way>
  <way id="6008353" version="14" timestamp="2025-01-05T14:32:09Z" changeset="161021775" uid="22137982" user="TeeEn">
    <nd ref="7271149181"/>
    <nd ref="7257194228"/>
    <nd ref="11873832559"/>
    <nd ref="11873832560"/>
    <nd ref="11873832187"/>
    <nd ref="49238777"/>
    <nd ref="11873832561"/>
    <nd ref="11871484773"/>
    <nd ref="11873832274"/>
    <nd ref="11871484776"/>
    <nd ref="11871484772"/>
    <nd ref="11871484775"/>
    <nd ref="11871484774"/>
    <nd ref="11871484770"/>
    <nd ref="11871484771"/>
    <nd ref="11871484777"/>
    <nd ref="11871484778"/>
    <nd ref="11871484779"/>
    <nd ref="11871484769"/>
    <nd ref="11871484780"/>
    <nd ref="11871484781"/>
    <nd ref="11871484768"/>
    <nd ref="11871484782"/>
    <nd ref="11871484767"/>
    <nd ref="11871484783"/>
    <nd ref="49238788"/>
    <nd ref="11871484784"/>
    <nd ref="11871484785"/>
    <nd ref="11871582039"/>
    <nd ref="11871484786"/>
    <nd ref="11871582037"/>
    <nd ref="7257194218"/>
    <nd ref="7257194209"/>
    <tag k="highway" v="residential"/>
    <tag k="lane_markings" v="no"/>
    <tag k="name" v="Holly Avenue"/>
    <tag k="sidewalk:both" v="separate"/>
    <tag k="surface" v="asphalt"/>
    <tag k="tiger:cfcc" v="A41"/>
    <tag k="tiger:county" v="San Diego, CA"/>
    <tag k="tiger:name_base" v="Holly"/>
    <tag k="tiger:name_type" v="Ave"/>
    <tag k="tiger:reviewed" v="no"/>
  </way>
  <way id="6013727" version="11" timestamp="2025-01-05T14:31:44Z" changeset="161021775" uid="22137982" user="TeeEn">
    <nd ref="7271153192"/>
    <nd ref="11871382899"/>
    <nd ref="11871382903"/>
    <nd ref="11871382901"/>
    <nd ref="12305209432"/>
    <nd ref="11871382905"/>
    <nd ref="11871382910"/>
    <nd ref="11871382907"/>
    <nd ref="11871382912"/>
    <nd ref="11871382915"/>
    <nd ref="11871382919"/>
    <nd ref="11871382917"/>
    <nd ref="11871382921"/>
    <nd ref="11871382924"/>
    <nd ref="49539373"/>
    <nd ref="12305209440"/>
    <nd ref="11871382926"/>
    <nd ref="11871382932"/>
    <nd ref="11871382930"/>
    <nd ref="11871382934"/>
    <nd ref="11871382936"/>
    <nd ref="11871382938"/>
    <nd ref="11871382940"/>
    <nd ref="11871382944"/>
    <nd ref="11871382942"/>
    <nd ref="11871382946"/>
    <nd ref="7271153193"/>
    <tag k="highway" v="residential"/>
    <tag k="lane_markings" v="no"/>
    <tag k="name" v="Hemlock Avenue"/>
    <tag k="sidewalk:both" v="separate"/>
    <tag k="surface" v="asphalt"/>
    <tag k="tiger:cfcc" v="A41"/>
    <tag k="tiger:county" v="San Diego, CA"/>
    <tag k="tiger:name_base" v="Hemlock"/>
    <tag k="tiger:name_type" v="Ave"/>
    <tag k="tiger:reviewed" v="no"/>
  </way>
  <way id="6018760" version="11" timestamp="2025-01-05T14:15:33Z" changeset="161021775" uid="22137982" user="TeeEn">
    <nd ref="7271153194"/>
    <nd ref="12305210219"/>
    <nd ref="12305210217"/>
    <nd ref="11861684909"/>
    <tag k="highway" v="residential"/>
    <tag k="lane_markings" v="no"/>
    <tag k="name" v="Delaware Street"/>
    <tag k="sidewalk:both" v="separate"/>
    <tag k="surface" v="asphalt"/>
    <tag k="tiger:cfcc" v="A41"/>
    <tag k="tiger:county" v="San Diego, CA"/>
    <tag k="tiger:name_base" v="Delaware"/>
    <tag k="tiger:name_type" v="St"/>
    <tag k="tiger:reviewed" v="no"/>
  </way>
  <way id="6018770" version="16" timestamp="2025-01-09T09:33:05Z" changeset="161159196" uid="22137982" user="TeeEn">
    <nd ref="11803959333"/>
    <nd ref="7257194212"/>
    <nd ref="11873832454"/>
    <nd ref="11873832455"/>
    <nd ref="11873832456"/>
    <nd ref="11873832457"/>
    <nd ref="11969026241"/>
    <nd ref="11969026243"/>
    <nd ref="49174035"/>
    <nd ref="7257194214"/>
    <nd ref="11873832232"/>
    <nd ref="11873832257"/>
    <nd ref="11873832263"/>
    <nd ref="11873832336"/>
    <nd ref="11873832520"/>
    <nd ref="11873832519"/>
    <nd ref="11873832258"/>
    <nd ref="11873832314"/>
    <nd ref="11873832521"/>
    <nd ref="11873832522"/>
    <nd ref="11873832241"/>
    <nd ref="11873832523"/>
    <nd ref="11873832518"/>
    <nd ref="11873832261"/>
    <nd ref="11873832524"/>
    <nd ref="11873832525"/>
    <nd ref="11873832517"/>
    <nd ref="11873832291"/>
    <nd ref="12097694856"/>
    <nd ref="11873832526"/>
    <nd ref="11873832516"/>
    <nd ref="11890712666"/>
    <tag k="highway" v="residential"/>
    <tag k="lane_markings" v="no"/>
    <tag k="name" v="Delaware Street"/>
    <tag k="sidewalk:both" v="separate"/>
    <tag k="surface" v="asphalt"/>
    <tag k="tiger:cfcc" v="A41"/>
    <tag k="tiger:county" v="San Diego, CA"/>
    <tag k="tiger:name_base" v="Delaware"/>
    <tag k="tiger:name_type" v="St"/>
    <tag k="tiger:reviewed" v="no"/>
  </way>
  <way id="6021881" version="13" timestamp="2025-01-03T05:27:53Z" changeset="160934783" uid="22137982" user="TeeEn">
    <nd ref="11786339225"/>
    <nd ref="6909390353"/>
    <nd ref="6909390351"/>
    <nd ref="6909390349"/>
    <nd ref="6909390347"/>
    <nd ref="6909390345"/>
    <nd ref="2495747006"/>
    <tag k="cycleway" v="shared_lane"/>
    <tag k="highway" v="residential"/>
    <tag k="lanes" v="2"/>
    <tag k="name" v="Caspian Way"/>
    <tag k="oneway" v="no"/>
    <tag k="sidewalk:left" v="separate"/>
    <tag k="surface" v="asphalt"/>
    <tag k="tiger:cfcc" v="A41"/>
    <tag k="tiger:county" v="San Diego, CA"/>
    <tag k="tiger:name_base" v="Caspian"/>
    <tag k="tiger:name_type" v="Way"/>
    <tag k="tiger:reviewed" v="no"/>
  </way>
  <way id="6026438" version="19" timestamp="2025-01-09T09:34:56Z" changeset="161159196" uid="22137982" user="TeeEn">
    <nd ref="11331901657"/>
    <nd ref="7257194223"/>
    <nd ref="11873832467"/>
    <nd ref="11873832299"/>
    <nd ref="11873832320"/>
    <nd ref="11873832352"/>
    <nd ref="11873832338"/>
    <nd ref="11873832353"/>
    <nd ref="11873832335"/>
    <nd ref="11873832247"/>
    <nd ref="11873832189"/>
    <nd ref="11873832207"/>
    <nd ref="11873832468"/>
    <nd ref="11873832181"/>
    <nd ref="11873832318"/>
    <nd ref="11873832271"/>
    <nd ref="11871484631"/>
    <nd ref="11873832469"/>
    <nd ref="49317431"/>
    <nd ref="11871484659"/>
    <nd ref="11871484658"/>
    <nd ref="11871484657"/>
    <nd ref="11871484633"/>
    <nd ref="11871484656"/>
    <nd ref="11871484634"/>
    <nd ref="11947878133"/>
    <nd ref="11873832470"/>
    <nd ref="49126179"/>
    <nd ref="11893602983"/>
    <nd ref="11893602981"/>
    <nd ref="11893602979"/>
    <nd ref="7257194225"/>
    <tag k="cycleway" v="shared_lane"/>
    <tag k="highway" v="residential"/>
    <tag k="lane_markings" v="no"/>
    <tag k="maxspeed" v="25 mph"/>
    <tag k="name" v="Connecticut Street"/>
    <tag k="sidewalk:both" v="separate"/>
    <tag k="surface" v="asphalt"/>
    <tag k="tiger:cfcc" v="A41"/>
    <tag k="tiger:county" v="San Diego, CA"/>
    <tag k="tiger:name_base" v="Connecticut"/>
    <tag k="tiger:name_type" v="St"/>
  </way>
  <way id="6053713" version="13" timestamp="2025-01-05T15:12:38Z" changeset="161021775" uid="22137982" user="TeeEn">
    <nd ref="11873832224"/>
    <nd ref="11873832464"/>
    <nd ref="11873832511"/>
    <nd ref="11873832463"/>
    <nd ref="11873832324"/>
    <nd ref="11873832462"/>
    <nd ref="11873832340"/>
    <nd ref="11873832301"/>
    <nd ref="11873832296"/>
    <nd ref="11871484646"/>
    <nd ref="11873832264"/>
    <nd ref="11871484647"/>
    <nd ref="11873832343"/>
    <nd ref="11871484648"/>
    <nd ref="11873832512"/>
    <nd ref="11871484649"/>
    <nd ref="11873832513"/>
    <nd ref="11871484650"/>
    <nd ref="11873832205"/>
    <nd ref="11871484651"/>
    <nd ref="11873832211"/>
    <nd ref="11871484652"/>
    <nd ref="11873832514"/>
    <tag k="highway" v="residential"/>
    <tag k="lane_markings" v="no"/>
    <tag k="name" v="7th Street"/>
    <tag k="sidewalk:right" v="separate"/>
    <tag k="surface" v="asphalt"/>
    <tag k="tiger:cfcc" v="A41"/>
    <tag k="tiger:county" v="San Diego, CA"/>
    <tag k="tiger:name_base" v="7th"/>
    <tag k="tiger:name_type" v="St"/>
    <tag k="tiger:reviewed" v="no"/>
  </way>
  <way id="228660002" version="2" timestamp="2020-06-18T15:23:01Z" changeset="86832251" uid="318696" user="n76">
    <nd ref="2373174280"/>
    <nd ref="2373174281"/>
    <nd ref="2373174278"/>
    <nd ref="2373174279"/>
    <nd ref="2373174275"/>
    <nd ref="2373174274"/>
    <nd ref="2373174280"/>
    <tag k="addr:city" v="Imperial Beach"/>
    <tag k="addr:country" v="US"/>
    <tag k="addr:housenumber" v="1302"/>
    <tag k="addr:postcode" v="91932"/>
    <tag k="addr:street" v="5th Street"/>
    <tag k="building" v="yes"/>
    <tag k="source:addr" v="SanGIS Addresses Public Domain (http://www.sangis.org/)"/>
  </way>
  <way id="228660003" version="2" timestamp="2020-06-18T15:23:01Z" changeset="86832251" uid="318696" user="n76">
    <nd ref="2373174263"/>
    <nd ref="2373174268"/>
    <nd ref="2373174267"/>
    <nd ref="2373174271"/>
    <nd ref="2373174270"/>
    <nd ref="2373174273"/>
    <nd ref="2373174272"/>
    <nd ref="2373174265"/>
    <nd ref="2373174266"/>
    <nd ref="2373174262"/>
    <nd ref="2373174263"/>
    <tag k="addr:city" v="Imperial Beach"/>
    <tag k="addr:country" v="US"/>
    <tag k="addr:housenumber" v="1310"/>
    <tag k="addr:postcode" v="91932"/>
    <tag k="addr:street" v="5th Street"/>
    <tag k="building" v="yes"/>
    <tag k="source:addr" v="SanGIS Addresses Public Domain (http://www.sangis.org/)"/>
  </way>
  <way id="228660004" version="2" timestamp="2020-06-18T15:23:01Z" changeset="86832251" uid="318696" user="n76">
    <nd ref="2373174261"/>
    <nd ref="2373174260"/>
    <nd ref="2373174253"/>
    <nd ref="2373174252"/>
    <nd ref="2373174250"/>
    <nd ref="2373174251"/>
    <nd ref="2373174256"/>
    <nd ref="2373174257"/>
    <nd ref="2373174261"/>
    <tag k="addr:city" v="Imperial Beach"/>
    <tag k="addr:country" v="US"/>
    <tag k="addr:housenumber" v="1320"/>
    <tag k="addr:postcode" v="91932"/>
    <tag k="addr:street" v="5th Street"/>
    <tag k="building" v="yes"/>
    <tag k="source:addr" v="SanGIS Addresses Public Domain (http://www.sangis.org/)"/>
  </way>
  <way id="228660005" version="2" timestamp="2020-06-18T15:23:01Z" changeset="86832251" uid="318696" user="n76">
    <nd ref="2373174248"/>
    <nd ref="2373174249"/>
    <nd ref="2373174245"/>
    <nd ref="2373174244"/>
    <nd ref="2373174240"/>
    <nd ref="2373174239"/>
    <nd ref="2373174242"/>
    <nd ref="2373174243"/>
    <nd ref="2373174247"/>
    <nd ref="2373174246"/>
    <nd ref="2373174248"/>
    <tag k="addr:city" v="Imperial Beach"/>
    <tag k="addr:country" v="US"/>
    <tag k="addr:housenumber" v="1330"/>
    <tag k="addr:postcode" v="91932"/>
    <tag k="addr:street" v="5th Street"/>
    <tag k="building" v="yes"/>
    <tag k="source:addr" v="SanGIS Addresses Public Domain (http://www.sangis.org/)"/>
  </way>
  <way id="228660006" version="2" timestamp="2020-06-18T15:23:01Z" changeset="86832251" uid="318696" user="n76">
    <nd ref="2373174237"/>
    <nd ref="2373174238"/>
    <nd ref="2373174235"/>
    <nd ref="2373174234"/>
    <nd ref="2373174231"/>
    <nd ref="2373174230"/>
    <nd ref="2373174229"/>
    <nd ref="2373174228"/>
    <nd ref="2373174233"/>
    <nd ref="2373174232"/>
    <nd ref="2373174237"/>
    <tag k="addr:city" v="Imperial Beach"/>
    <tag k="addr:country" v="US"/>
    <tag k="addr:housenumber" v="1340"/>
    <tag k="addr:postcode" v="91932"/>
    <tag k="addr:street" v="5th Street"/>
    <tag k="building" v="yes"/>
    <tag k="source:addr" v="SanGIS Addresses Public Domain (http://www.sangis.org/)"/>
  </way>
  <way id="228660007" version="2" timestamp="2020-06-18T15:23:01Z" changeset="86832251" uid="318696" user="n76">
    <nd ref="2373174219"/>
    <nd ref="2373174223"/>
    <nd ref="2373174222"/>
    <nd ref="2373174225"/>
    <nd ref="2373174224"/>
    <nd ref="2373174227"/>
    <nd ref="2373174226"/>
    <nd ref="2373174220"/>
    <nd ref="2373174221"/>
    <nd ref="2373174218"/>
    <nd ref="2373174219"/>
    <tag k="addr:city" v="Imperial Beach"/>
    <tag k="addr:country" v="US"/>
    <tag k="addr:housenumber" v="1350"/>
    <tag k="addr:postcode" v="91932"/>
    <tag k="addr:street" v="5th Street"/>
    <tag k="building" v="yes"/>
    <tag k="source:addr" v="SanGIS Addresses Public Domain (http://www.sangis.org/)"/>
  </way>
  <way id="228660008" version="2" timestamp="2020-06-18T15:23:01Z" changeset="86832251" uid="318696" user="n76">
    <nd ref="2373174209"/>
    <nd ref="2373174211"/>
    <nd ref="2373174210"/>
    <nd ref="2373174216"/>
    <nd ref="2373174215"/>
    <nd ref="2373174213"/>
    <nd ref="2373174212"/>
    <nd ref="2373174208"/>
    <nd ref="2373174209"/>
    <tag k="addr:city" v="Imperial Beach"/>
    <tag k="addr:country" v="US"/>
    <tag k="addr:housenumber" v="1360"/>
    <tag k="addr:postcode" v="91932"/>
    <tag k="addr:street" v="5th Street"/>
    <tag k="building" v="yes"/>
    <tag k="source:addr" v="SanGIS Addresses Public Domain (http://www.sangis.org/)"/>
  </way>
  <way id="228660009" version="2" timestamp="2020-06-18T15:23:01Z" changeset="86832251" uid="318696" user="n76">
    <nd ref="2373174195"/>
    <nd ref="2373174199"/>
    <nd ref="2373174200"/>
    <nd ref="2373174206"/>
    <nd ref="2373174204"/>
    <nd ref="2373174203"/>
    <nd ref="2373174202"/>
    <nd ref="2373174207"/>
    <nd ref="2373174205"/>
    <nd ref="2373174197"/>
    <nd ref="2373174198"/>
    <nd ref="2373174194"/>
    <nd ref="2373174195"/>
    <tag k="addr:city" v="Imperial Beach"/>
    <tag k="addr:country" v="US"/>
    <tag k="addr:housenumber" v="1370"/>
    <tag k="addr:postcode" v="91932"/>
    <tag k="addr:street" v="5th Street"/>
    <tag k="building" v="yes"/>
    <tag k="source:addr" v="SanGIS Addresses Public Domain (http://www.sangis.org/)"/>
  </way>
  <way id="228660010" version="3" timestamp="2024-05-09T05:52:48Z" changeset="151083604" uid="11609320" user="telcodude">
    <nd ref="2373174181"/>
    <nd ref="2373174182"/>
    <nd ref="2373174183"/>
    <nd ref="2373174187"/>
    <nd ref="2373174186"/>
    <nd ref="2373174189"/>
    <nd ref="2373174188"/>
    <nd ref="2373174193"/>
    <nd ref="2373174192"/>
    <nd ref="2373174191"/>
    <nd ref="2373174190"/>
    <nd ref="11890711265"/>
    <nd ref="2373174184"/>
    <nd ref="2373174185"/>
    <nd ref="2373174180"/>
    <nd ref="2373174181"/>
    <tag k="addr:city" v="Imperial Beach"/>
    <tag k="addr:country" v="US"/>
    <tag k="addr:housenumber" v="1380"/>
    <tag k="addr:postcode" v="91932"/>
    <tag k="addr:street" v="5th Street"/>
    <tag k="building" v="yes"/>
    <tag k="source:addr" v="SanGIS Addresses Public Domain (http://www.sangis.org/)"/>
  </way>
  <way id="228660011" version="2" timestamp="2020-06-18T15:23:01Z" changeset="86832251" uid="318696" user="n76">
    <nd ref="2373174161"/>
    <nd ref="2373174166"/>
    <nd ref="2373174165"/>
    <nd ref="2373174171"/>
    <nd ref="2373174170"/>
    <nd ref="2373174178"/>
    <nd ref="2373174179"/>
    <nd ref="2373174174"/>
    <nd ref="2373174175"/>
    <nd ref="2373174176"/>
    <nd ref="2373174177"/>
    <nd ref="2373174169"/>
    <nd ref="2373174167"/>
    <nd ref="2373174162"/>
    <nd ref="2373174161"/>
    <tag k="addr:city" v="Imperial Beach"/>
    <tag k="addr:country" v="US"/>
    <tag k="addr:housenumber" v="1390"/>
    <tag k="addr:postcode" v="91932"/>
    <tag k="addr:street" v="5th Street"/>
    <tag k="building" v="yes"/>
    <tag k="source:addr" v="SanGIS Addresses Public Domain (http://www.sangis.org/)"/>
  </way>
  <way id="228660012" version="2" timestamp="2020-06-18T15:23:01Z" changeset="86832251" uid="318696" user="n76">
    <nd ref="2373174157"/>
    <nd ref="2373174156"/>
    <nd ref="2373174155"/>
    <nd ref="2373174153"/>
    <nd ref="2373174152"/>
    <nd ref="2373174151"/>
    <nd ref="2373174145"/>
    <nd ref="2373174146"/>
    <nd ref="2373174150"/>
    <nd ref="2373174148"/>
    <nd ref="2373174157"/>
    <tag k="addr:city" v="Imperial Beach"/>
    <tag k="addr:country" v="US"/>
    <tag k="addr:housenumber" v="1400"/>
    <tag k="addr:postcode" v="91932"/>
    <tag k="addr:street" v="5th Street"/>
    <tag k="building" v="yes"/>
    <tag k="source:addr" v="SanGIS Addresses Public Domain (http://www.sangis.org/)"/>
  </way>
  <way id="228660013" version="2" timestamp="2020-06-18T15:23:01Z" changeset="86832251" uid="318696" user="n76">
    <nd ref="2373174135"/>
    <nd ref="2373174143"/>
    <nd ref="2373174142"/>
    <nd ref="2373174141"/>
    <nd ref="2373174140"/>
    <nd ref="2373174138"/>
    <nd ref="2373174137"/>
    <nd ref="2373174134"/>
    <nd ref="2373174135"/>
    <tag k="addr:city" v="Imperial Beach"/>
    <tag k="addr:country" v="US"/>
    <tag k="addr:housenumber" v="1410"/>
    <tag k="addr:postcode" v="91932"/>
    <tag k="addr:street" v="5th Street"/>
    <tag k="building" v="yes"/>
    <tag k="source:addr" v="SanGIS Addresses Public Domain (http://www.sangis.org/)"/>
  </way>
  <way id="228660014" version="2" timestamp="2020-06-18T15:23:01Z" changeset="86832251" uid="318696" user="n76">
    <nd ref="2373174132"/>
    <nd ref="2373174133"/>
    <nd ref="2373174121"/>
    <nd ref="2373174120"/>
    <nd ref="2373174110"/>
    <nd ref="2373174109"/>
    <nd ref="2373174112"/>
    <nd ref="2373174111"/>
    <nd ref="2373174117"/>
    <nd ref="2373174119"/>
    <nd ref="2373174125"/>
    <nd ref="2373174124"/>
    <nd ref="2373174128"/>
    <nd ref="2373174129"/>
    <nd ref="2373174132"/>
    <tag k="addr:city" v="Imperial Beach"/>
    <tag k="addr:country" v="US"/>
    <tag k="addr:housenumber" v="1420"/>
    <tag k="addr:postcode" v="91932"/>
    <tag k="addr:street" v="5th Street"/>
    <tag k="building" v="yes"/>
    <tag k="source:addr" v="SanGIS Addresses Public Domain (http://www.sangis.org/)"/>
  </way>
  <way id="228660015" version="2" timestamp="2020-06-18T15:23:01Z" changeset="86832251" uid="318696" user="n76">
    <nd ref="2373174107"/>
    <nd ref="2373174104"/>
    <nd ref="2373174102"/>
    <nd ref="2373174100"/>
    <nd ref="2373174098"/>
    <nd ref="2373174095"/>
    <nd ref="2373174091"/>
    <nd ref="2373174090"/>
    <nd ref="2373174088"/>
    <nd ref="2373174087"/>
    <nd ref="2373174093"/>
    <nd ref="2373174092"/>
    <nd ref="2373174096"/>
    <nd ref="2373174097"/>
    <nd ref="2373174106"/>
    <nd ref="2373174107"/>
    <tag k="addr:city" v="Imperial Beach"/>
    <tag k="addr:country" v="US"/>
    <tag k="addr:housenumber" v="1430"/>
    <tag k="addr:postcode" v="91932"/>
    <tag k="addr:street" v="5th Street"/>
    <tag k="building" v="yes"/>
    <tag k="source:addr" v="SanGIS Addresses Public Domain (http://www.sangis.org/)"/>
  </way>
  <way id="228660016" version="2" timestamp="2020-06-18T15:23:01Z" changeset="86832251" uid="318696" user="n76">
    <nd ref="2373174066"/>
    <nd ref="2373174068"/>
    <nd ref="2373174072"/>
    <nd ref="2373174073"/>
    <nd ref="2373174075"/>
    <nd ref="2373174080"/>
    <nd ref="2373174078"/>
    <nd ref="2373174082"/>
    <nd ref="2373174081"/>
    <nd ref="2373174085"/>
    <nd ref="2373174083"/>
    <nd ref="2373174077"/>
    <nd ref="2373174076"/>
    <nd ref="2373174070"/>
    <nd ref="2373174071"/>
    <nd ref="2373174062"/>
    <nd ref="2373174063"/>
    <nd ref="2373174065"/>
    <nd ref="2373174066"/>
    <tag k="addr:city" v="Imperial Beach"/>
    <tag k="addr:country" v="US"/>
    <tag k="addr:housenumber" v="1440"/>
    <tag k="addr:postcode" v="91932"/>
    <tag k="addr:street" v="5th Street"/>
    <tag k="building" v="yes"/>
    <tag k="source:addr" v="SanGIS Addresses Public Domain (http://www.sangis.org/)"/>
  </way>
  <way id="228660017" version="2" timestamp="2020-06-18T15:23:01Z" changeset="86832251" uid="318696" user="n76">
    <nd ref="2373174060"/>
    <nd ref="2373174061"/>
    <nd ref="2373174040"/>
    <nd ref="2373174039"/>
    <nd ref="2373174035"/>
    <nd ref="2373174034"/>
    <nd ref="2373174037"/>
    <nd ref="2373174036"/>
    <nd ref="2373174051"/>
    <nd ref="2373174052"/>
    <nd ref="2373174060"/>
    <tag k="addr:country" v="US"/>
    <tag k="addr:housenumber" v="1450"/>
    <tag k="addr:street" v="5th Street"/>
    <tag k="building" v="yes"/>
    <tag k="roof:shape" v="gabled"/>
    <tag k="source:addr" v="SanGIS Addresses Public Domain (http://www.sangis.org/)"/>
  </way>
  <way id="228660018" version="2" timestamp="2020-06-18T15:23:01Z" changeset="86832251" uid="318696" user="n76">
    <nd ref="2373174030"/>
    <nd ref="2373174026"/>
    <nd ref="2373174023"/>
    <nd ref="2373174020"/>
    <nd ref="2373174016"/>
    <nd ref="2373174015"/>
    <nd ref="2373174009"/>
    <nd ref="2373174011"/>
    <nd ref="2373174008"/>
    <nd ref="2373174007"/>
    <nd ref="2373174004"/>
    <nd ref="2373174005"/>
    <nd ref="2373174003"/>
    <nd ref="2373174018"/>
    <nd ref="2373174019"/>
    <nd ref="2373174021"/>
    <nd ref="2373174027"/>
    <nd ref="2373174032"/>
    <nd ref="2373174024"/>
    <nd ref="2373174031"/>
    <nd ref="2373174028"/>
    <nd ref="2373174030"/>
    <tag k="addr:city" v="Imperial Beach"/>
    <tag k="addr:country" v="US"/>
    <tag k="addr:housenumber" v="1460"/>
    <tag k="addr:postcode" v="91932"/>
    <tag k="addr:street" v="5th Street"/>
    <tag k="building" v="yes"/>
    <tag k="roof:shape" v="flat"/>
    <tag k="source:addr" v="SanGIS Addresses Public Domain (http://www.sangis.org/)"/>
  </way>
  <way id="228660019" version="2" timestamp="2020-06-18T15:23:01Z" changeset="86832251" uid="318696" user="n76">
    <nd ref="2373173996"/>
    <nd ref="2373173995"/>
    <nd ref="2373173998"/>
    <nd ref="2373173997"/>
    <nd ref="2373174001"/>
    <nd ref="2373174002"/>
    <nd ref="2373173999"/>
    <nd ref="2373174000"/>
    <nd ref="2373173996"/>
    <tag k="addr:city" v="Imperial Beach"/>
    <tag k="addr:country" v="US"/>
    <tag k="addr:housenumber" v="1470"/>
    <tag k="addr:postcode" v="91932"/>
    <tag k="addr:street" v="5th Street"/>
    <tag k="building" v="yes"/>
    <tag k="roof:shape" v="gabled"/>
    <tag k="source:addr" v="SanGIS Addresses Public Domain (http://www.sangis.org/)"/>
  </way>
  <way id="228660020" version="2" timestamp="2020-06-18T15:23:01Z" changeset="86832251" uid="318696" user="n76">
    <nd ref="2373173993"/>
    <nd ref="2373173994"/>
    <nd ref="2373173992"/>
    <nd ref="2373173991"/>
    <nd ref="2373173993"/>
    <tag k="addr:city" v="Imperial Beach"/>
    <tag k="addr:country" v="US"/>
    <tag k="addr:housenumber" v="1480"/>
    <tag k="addr:postcode" v="91932"/>
    <tag k="addr:street" v="5th Street"/>
    <tag k="building" v="yes"/>
    <tag k="roof:shape" v="gabled"/>
    <tag k="source:addr" v="SanGIS Addresses Public Domain (http://www.sangis.org/)"/>
  </way>
  <way id="231044160" version="9" timestamp="2025-01-03T05:26:55Z" changeset="160934783" uid="22137982" user="TeeEn">
    <nd ref="11803997294"/>
    <nd ref="6909390334"/>
    <nd ref="5533727526"/>
    <nd ref="6909390336"/>
    <nd ref="6909390338"/>
    <nd ref="6909390341"/>
    <nd ref="49574385"/>
    <tag k="highway" v="residential"/>
    <tag k="lane_markings" v="no"/>
    <tag k="name" v="Caspian Way"/>
    <tag k="oneway" v="yes"/>
    <tag k="sidewalk:both" v="separate"/>
    <tag k="surface" v="asphalt"/>
  </way>
  <way id="231044162" version="8" timestamp="2025-01-09T09:38:02Z" changeset="161159196" uid="22137982" user="TeeEn">
    <nd ref="49119342"/>
    <nd ref="11331901648"/>
    <tag k="highway" v="residential"/>
    <tag k="name" v="4th Street"/>
    <tag k="oneway" v="no"/>
    <tag k="parking:both" v="no"/>
    <tag k="surface" v="asphalt"/>
    <tag k="tiger:cfcc" v="A41"/>
    <tag k="tiger:county" v="San Diego, CA"/>
    <tag k="tiger:name_base" v="Caspian"/>
    <tag k="tiger:name_type" v="Way"/>
    <tag k="tiger:reviewed" v="no"/>
  </way>
  <way id="241999377" version="7" timestamp="2025-01-03T05:25:05Z" changeset="160934783" uid="22137982" user="TeeEn">
    <nd ref="2495747003"/>
    <nd ref="2495747006"/>
    <tag k="cycleway" v="shared_lane"/>
    <tag k="highway" v="residential"/>
    <tag k="lanes" v="1"/>
    <tag k="name" v="Caspian Way"/>
    <tag k="oneway" v="yes"/>
    <tag k="sidewalk:left" v="no"/>
    <tag k="sidewalk:right" v="separate"/>
    <tag k="surface" v="asphalt"/>
    <tag k="tiger:cfcc" v="A41"/>
    <tag k="tiger:county" v="San Diego, CA"/>
    <tag k="tiger:name_base" v="Caspian"/>
    <tag k="tiger:name_type" v="Way"/>
    <tag k="tiger:reviewed" v="no"/>
  </way>
  <way id="337390295" version="2" timestamp="2016-04-16T19:54:27Z" changeset="38630080" uid="152074" user="beweta">
    <nd ref="3444809737"/>
    <nd ref="3444809738"/>
    <nd ref="3444809739"/>
    <nd ref="3444809740"/>
    <nd ref="3444809741"/>
    <nd ref="3444809742"/>
    <nd ref="3444809743"/>
    <nd ref="3444809744"/>
    <nd ref="3444809737"/>
    <tag k="addr:city" v="Imperial Beach"/>
    <tag k="addr:country" v="US"/>
    <tag k="addr:housenumber" v="1489"/>
    <tag k="addr:postcode" v="91932"/>
    <tag k="addr:street" v="Connecticut Street"/>
    <tag k="building" v="house"/>
    <tag k="source" v="SanGIS Addresses Public Domain (http://www.sangis.org/)"/>
  </way>
  <way id="436433755" version="9" timestamp="2025-01-09T08:39:57Z" changeset="161159196" uid="22137982" user="TeeEn">
    <nd ref="4343226477"/>
    <nd ref="7257194189"/>
    <nd ref="11331902170"/>
    <tag k="cycleway:right" v="lane"/>
    <tag k="highway" v="secondary"/>
    <tag k="lanes" v="3"/>
    <tag k="maxspeed" v="35 mph"/>
    <tag k="maxspeed:type" v="sign"/>
    <tag k="name" v="Imperial Beach Boulevard"/>
    <tag k="oneway" v="yes"/>
    <tag k="parking:left" v="no"/>
    <tag k="sidewalk:left" v="no"/>
    <tag k="sidewalk:right" v="separate"/>
    <tag k="surface" v="asphalt"/>
    <tag k="tiger:cfcc" v="A41"/>
    <tag k="tiger:county" v="San Diego, CA"/>
    <tag k="tiger:name_base" v="Imperial Beach"/>
    <tag k="tiger:name_type" v="Blvd"/>
    <tag k="tiger:reviewed" v="no"/>
    <tag k="turn:lanes" v="left||"/>
  </way>
  <way id="436433758" version="12" timestamp="2025-01-09T09:35:39Z" changeset="161159196" uid="22137982" user="TeeEn">
    <nd ref="49119349"/>
    <nd ref="11331901655"/>
    <tag k="cycleway:left" v="no"/>
    <tag k="cycleway:right" v="lane"/>
    <tag k="highway" v="secondary"/>
    <tag k="lanes" v="1"/>
    <tag k="maxspeed" v="35 mph"/>
    <tag k="maxspeed:type" v="sign"/>
    <tag k="name" v="Imperial Beach Boulevard"/>
    <tag k="oneway" v="yes"/>
    <tag k="parking:both" v="no"/>
    <tag k="sidewalk:left" v="no"/>
    <tag k="sidewalk:right" v="separate"/>
    <tag k="source:maxspeed" v="sign"/>
    <tag k="surface" v="asphalt"/>
    <tag k="tiger:cfcc" v="A41"/>
    <tag k="tiger:county" v="San Diego, CA"/>
    <tag k="tiger:name_base" v="Imperial Beach"/>
    <tag k="tiger:name_type" v="Blvd"/>
    <tag k="tiger:reviewed" v="no"/>
  </way>
  <way id="436433763" version="11" timestamp="2025-01-09T09:36:01Z" changeset="161159196" uid="22137982" user="TeeEn">
    <nd ref="4343226478"/>
    <nd ref="11331901663"/>
    <nd ref="11331901659"/>
    <tag k="cycleway:left" v="no"/>
    <tag k="cycleway:right" v="lane"/>
    <tag k="highway" v="secondary"/>
    <tag k="lanes" v="3"/>
    <tag k="maxspeed" v="35 mph"/>
    <tag k="name" v="Imperial Beach Boulevard"/>
    <tag k="oneway" v="yes"/>
    <tag k="parking:left" v="no"/>
    <tag k="sidewalk:left" v="no"/>
    <tag k="sidewalk:right" v="separate"/>
    <tag k="source:maxspeed" v="sign"/>
    <tag k="surface" v="asphalt"/>
    <tag k="tiger:cfcc" v="A41"/>
    <tag k="tiger:county" v="San Diego, CA"/>
    <tag k="tiger:name_base" v="Imperial Beach"/>
    <tag k="tiger:name_type" v="Blvd"/>
    <tag k="tiger:reviewed" v="no"/>
    <tag k="turn:lanes" v="left||"/>
  </way>
  <way id="436433768" version="10" timestamp="2025-01-03T08:24:53Z" changeset="160934783" uid="22137982" user="TeeEn">
    <nd ref="49106790"/>
    <nd ref="4343226479"/>
    <nd ref="4343226478"/>
    <tag k="cycleway:left" v="no"/>
    <tag k="cycleway:right" v="lane"/>
    <tag k="highway" v="secondary"/>
    <tag k="lanes" v="1"/>
    <tag k="maxspeed" v="35 mph"/>
    <tag k="name" v="Imperial Beach Boulevard"/>
    <tag k="oneway" v="yes"/>
    <tag k="sidewalk:left" v="no"/>
    <tag k="sidewalk:right" v="separate"/>
    <tag k="source:maxspeed" v="sign"/>
    <tag k="surface" v="asphalt"/>
    <tag k="tiger:cfcc" v="A41"/>
    <tag k="tiger:county" v="San Diego, CA"/>
    <tag k="tiger:name_base" v="Imperial Beach"/>
    <tag k="tiger:name_type" v="Blvd"/>
    <tag k="tiger:reviewed" v="no"/>
  </way>
  <way id="436433773" version="10" timestamp="2025-01-09T09:35:58Z" changeset="161159196" uid="22137982" user="TeeEn">
    <nd ref="11331901660"/>
    <nd ref="4343226614"/>
    <nd ref="49106790"/>
    <tag k="cycleway:left" v="no"/>
    <tag k="cycleway:right" v="lane"/>
    <tag k="highway" v="secondary"/>
    <tag k="lanes" v="1"/>
    <tag k="maxspeed" v="35 mph"/>
    <tag k="name" v="Imperial Beach Boulevard"/>
    <tag k="oneway" v="yes"/>
    <tag k="parking:left" v="no"/>
    <tag k="sidewalk:left" v="no"/>
    <tag k="sidewalk:right" v="separate"/>
    <tag k="source:maxspeed" v="sign"/>
    <tag k="surface" v="asphalt"/>
    <tag k="tiger:cfcc" v="A41"/>
    <tag k="tiger:county" v="San Diego, CA"/>
    <tag k="tiger:name_base" v="Imperial Beach"/>
    <tag k="tiger:name_type" v="Blvd"/>
    <tag k="tiger:reviewed" v="no"/>
  </way>
  <way id="436433778" version="11" timestamp="2025-05-05T18:04:06Z" changeset="165858788" uid="21393709" user="CtI5UDYpRmUS">
    <nd ref="49106790"/>
    <nd ref="49119348"/>
    <nd ref="12812235479"/>
    <nd ref="49119347"/>
    <tag k="cycleway" v="lane"/>
    <tag k="highway" v="secondary"/>
    <tag k="lanes" v="2"/>
    <tag k="maxspeed" v="35 mph"/>
    <tag k="name" v="Imperial Beach Boulevard"/>
    <tag k="oneway" v="no"/>
    <tag k="sidewalk:both" v="separate"/>
    <tag k="source:maxspeed" v="sign"/>
    <tag k="surface" v="asphalt"/>
    <tag k="tiger:cfcc" v="A41"/>
    <tag k="tiger:county" v="San Diego, CA"/>
    <tag k="tiger:name_base" v="Imperial Beach"/>
    <tag k="tiger:name_type" v="Blvd"/>
    <tag k="tiger:reviewed" v="no"/>
  </way>
  <way id="558001573" version="5" timestamp="2025-01-09T09:33:43Z" changeset="161159196" uid="22137982" user="TeeEn">
    <nd ref="4343226615"/>
    <nd ref="48958970"/>
    <tag k="highway" v="residential"/>
    <tag k="lane_markings" v="no"/>
    <tag k="name" v="7th Street"/>
    <tag k="parking:both" v="no"/>
    <tag k="surface" v="asphalt"/>
    <tag k="tiger:cfcc" v="A41"/>
    <tag k="tiger:county" v="San Diego, CA"/>
    <tag k="tiger:name_base" v="7th"/>
    <tag k="tiger:name_type" v="St"/>
    <tag k="tiger:reviewed" v="no"/>
  </way>
  <way id="642926594" version="4" timestamp="2025-01-03T05:26:21Z" changeset="160934783" uid="22137982" user="TeeEn">
    <nd ref="49574385"/>
    <nd ref="2495747008"/>
    <tag k="highway" v="residential"/>
    <tag k="lanes" v="1"/>
    <tag k="name" v="Caspian Way"/>
    <tag k="oneway" v="yes"/>
    <tag k="sidewalk:both" v="separate"/>
    <tag k="surface" v="asphalt"/>
    <tag k="tiger:cfcc" v="A41"/>
    <tag k="tiger:county" v="San Diego, CA"/>
    <tag k="tiger:name_base" v="Caspian"/>
    <tag k="tiger:name_type" v="Way"/>
    <tag k="tiger:reviewed" v="no"/>
  </way>
  <way id="642926595" version="6" timestamp="2025-01-09T09:38:53Z" changeset="161159196" uid="22137982" user="TeeEn">
    <nd ref="2440995189"/>
    <nd ref="7271153255"/>
    <nd ref="49125922"/>
    <tag k="cycleway" v="shared_lane"/>
    <tag k="highway" v="residential"/>
    <tag k="lanes" v="2"/>
    <tag k="name" v="3rd Street"/>
    <tag k="sidewalk:both" v="separate"/>
    <tag k="surface" v="asphalt"/>
    <tag k="tiger:cfcc" v="A41"/>
    <tag k="tiger:county" v="San Diego, CA"/>
    <tag k="tiger:name_base" v="3rd"/>
    <tag k="tiger:name_type" v="St"/>
  </way>
  <way id="763750498" version="2" timestamp="2024-08-06T06:53:45Z" changeset="154878422" uid="11609320" user="telcodude">
    <nd ref="7135943232"/>
    <nd ref="7135943233"/>
    <nd ref="7135943234"/>
    <nd ref="7135943235"/>
    <nd ref="7135943236"/>
    <nd ref="7135943237"/>
    <nd ref="7135943238"/>
    <nd ref="7135943239"/>
    <nd ref="7135943232"/>
    <tag k="addr:city" v="Imperial Beach"/>
    <tag k="addr:country" v="US"/>
    <tag k="addr:housenumber" v="1397"/>
    <tag k="addr:postcode" v="91932"/>
    <tag k="addr:state" v="CA"/>
    <tag k="addr:street" v="5th Street"/>
    <tag k="building" v="yes"/>
    <tag k="source" v="SanGIS Addresses Public Domain (http://www.sangis.org/)"/>
  </way>
  <way id="763750499" version="2" timestamp="2024-08-06T06:53:45Z" changeset="154878422" uid="11609320" user="telcodude">
    <nd ref="7135943240"/>
    <nd ref="7135943241"/>
    <nd ref="7135943242"/>
    <nd ref="7135943243"/>
    <nd ref="7135943244"/>
    <nd ref="7135943245"/>
    <nd ref="7135943246"/>
    <nd ref="7135943247"/>
    <nd ref="7135943240"/>
    <tag k="addr:city" v="Imperial Beach"/>
    <tag k="addr:country" v="US"/>
    <tag k="addr:housenumber" v="1385"/>
    <tag k="addr:postcode" v="91932"/>
    <tag k="addr:state" v="CA"/>
    <tag k="addr:street" v="5th Street"/>
    <tag k="building" v="yes"/>
    <tag k="source" v="SanGIS Addresses Public Domain (http://www.sangis.org/)"/>
  </way>
  <way id="763750500" version="2" timestamp="2024-08-06T06:53:45Z" changeset="154878422" uid="11609320" user="telcodude">
    <nd ref="7135943248"/>
    <nd ref="7135943249"/>
    <nd ref="7135943250"/>
    <nd ref="7135943251"/>
    <nd ref="7135943252"/>
    <nd ref="7135943253"/>
    <nd ref="7135943254"/>
    <nd ref="7135943255"/>
    <nd ref="7135943256"/>
    <nd ref="7135943257"/>
    <nd ref="7135943248"/>
    <tag k="addr:city" v="Imperial Beach"/>
    <tag k="addr:country" v="US"/>
    <tag k="addr:housenumber" v="1371"/>
    <tag k="addr:postcode" v="91932"/>
    <tag k="addr:state" v="CA"/>
    <tag k="addr:street" v="5th Street"/>
    <tag k="building" v="yes"/>
    <tag k="source" v="SanGIS Addresses Public Domain (http://www.sangis.org/)"/>
  </way>
  <way id="763750501" version="2" timestamp="2024-08-06T06:53:45Z" changeset="154878422" uid="11609320" user="telcodude">
    <nd ref="7135943258"/>
    <nd ref="7135943259"/>
    <nd ref="7135943260"/>
    <nd ref="7135943261"/>
    <nd ref="7135943262"/>
    <nd ref="7135943263"/>
    <nd ref="7135943264"/>
    <nd ref="7135943265"/>
    <nd ref="7135943266"/>
    <nd ref="7135943267"/>
    <nd ref="7135943258"/>
    <tag k="addr:city" v="Imperial Beach"/>
    <tag k="addr:country" v="US"/>
    <tag k="addr:housenumber" v="1367"/>
    <tag k="addr:postcode" v="91932"/>
    <tag k="addr:state" v="CA"/>
    <tag k="addr:street" v="5th Street"/>
    <tag k="building" v="yes"/>
    <tag k="source" v="SanGIS Addresses Public Domain (http://www.sangis.org/)"/>
  </way>
  <way id="763750502" version="2" timestamp="2024-08-06T06:53:45Z" changeset="154878422" uid="11609320" user="telcodude">
    <nd ref="7135943268"/>
    <nd ref="7135943269"/>
    <nd ref="7135943270"/>
    <nd ref="7135943271"/>
    <nd ref="7135943272"/>
    <nd ref="7135943273"/>
    <nd ref="7135943274"/>
    <nd ref="7135943275"/>
    <nd ref="7135943268"/>
    <tag k="addr:city" v="Imperial Beach"/>
    <tag k="addr:country" v="US"/>
    <tag k="addr:housenumber" v="1353"/>
    <tag k="addr:postcode" v="91932"/>
    <tag k="addr:state" v="CA"/>
    <tag k="addr:street" v="5th Street"/>
    <tag k="building" v="yes"/>
    <tag k="source" v="SanGIS Addresses Public Domain (http://www.sangis.org/)"/>
  </way>
  <way id="763750503" version="2" timestamp="2024-08-06T06:53:45Z" changeset="154878422" uid="11609320" user="telcodude">
    <nd ref="7135943276"/>
    <nd ref="7135943277"/>
    <nd ref="7135943278"/>
    <nd ref="7135943279"/>
    <nd ref="7135943280"/>
    <nd ref="7135943281"/>
    <nd ref="7135943282"/>
    <nd ref="7135943283"/>
    <nd ref="7135943284"/>
    <nd ref="7135962985"/>
    <nd ref="7135962986"/>
    <nd ref="7135962987"/>
    <nd ref="7135943276"/>
    <tag k="addr:city" v="Imperial Beach"/>
    <tag k="addr:country" v="US"/>
    <tag k="addr:housenumber" v="1341"/>
    <tag k="addr:postcode" v="91932"/>
    <tag k="addr:state" v="CA"/>
    <tag k="addr:street" v="5th Street"/>
    <tag k="building" v="yes"/>
    <tag k="source" v="SanGIS Addresses Public Domain (http://www.sangis.org/)"/>
  </way>
  <way id="763750504" version="2" timestamp="2024-08-06T06:53:45Z" changeset="154878422" uid="11609320" user="telcodude">
    <nd ref="7135962988"/>
    <nd ref="7135962989"/>
    <nd ref="7135962990"/>
    <nd ref="7135962991"/>
    <nd ref="7135962992"/>
    <nd ref="7135962993"/>
    <nd ref="7135962994"/>
    <nd ref="7135962995"/>
    <nd ref="7135962988"/>
    <tag k="addr:city" v="Imperial Beach"/>
    <tag k="addr:country" v="US"/>
    <tag k="addr:housenumber" v="1333"/>
    <tag k="addr:postcode" v="91932"/>
    <tag k="addr:state" v="CA"/>
    <tag k="addr:street" v="5th Street"/>
    <tag k="building" v="yes"/>
    <tag k="source" v="SanGIS Addresses Public Domain (http://www.sangis.org/)"/>
  </way>
  <way id="763750505" version="2" timestamp="2024-08-06T06:53:45Z" changeset="154878422" uid="11609320" user="telcodude">
    <nd ref="7135962996"/>
    <nd ref="7135962997"/>
    <nd ref="7135962998"/>
    <nd ref="7135962999"/>
    <nd ref="7135963000"/>
    <nd ref="7135963001"/>
    <nd ref="7135962996"/>
    <tag k="addr:city" v="Imperial Beach"/>
    <tag k="addr:country" v="US"/>
    <tag k="addr:housenumber" v="1325"/>
    <tag k="addr:postcode" v="91932"/>
    <tag k="addr:state" v="CA"/>
    <tag k="addr:street" v="5th Street"/>
    <tag k="building" v="yes"/>
    <tag k="source" v="SanGIS Addresses Public Domain (http://www.sangis.org/)"/>
  </way>
  <way id="763750506" version="2" timestamp="2024-08-06T06:53:45Z" changeset="154878422" uid="11609320" user="telcodude">
    <nd ref="7135963002"/>
    <nd ref="7135963003"/>
    <nd ref="7135963004"/>
    <nd ref="7135963005"/>
    <nd ref="7135963006"/>
    <nd ref="7135963007"/>
    <nd ref="7135963008"/>
    <nd ref="7135963009"/>
    <nd ref="7135963010"/>
    <nd ref="7135963011"/>
    <nd ref="7135963002"/>
    <tag k="addr:city" v="Imperial Beach"/>
    <tag k="addr:country" v="US"/>
    <tag k="addr:housenumber" v="1311"/>
    <tag k="addr:postcode" v="91932"/>
    <tag k="addr:state" v="CA"/>
    <tag k="addr:street" v="5th Street"/>
    <tag k="building" v="yes"/>
    <tag k="source" v="SanGIS Addresses Public Domain (http://www.sangis.org/)"/>
  </way>
  <way id="763750507" version="2" timestamp="2024-08-06T06:53:45Z" changeset="154878422" uid="11609320" user="telcodude">
    <nd ref="7135963012"/>
    <nd ref="7135963013"/>
    <nd ref="7135963014"/>
    <nd ref="7135963015"/>
    <nd ref="7135963016"/>
    <nd ref="7135963017"/>
    <nd ref="7135963012"/>
    <tag k="addr:city" v="Imperial Beach"/>
    <tag k="addr:country" v="US"/>
    <tag k="addr:housenumber" v="1303"/>
    <tag k="addr:postcode" v="91932"/>
    <tag k="addr:state" v="CA"/>
    <tag k="addr:street" v="5th Street"/>
    <tag k="building" v="yes"/>
    <tag k="source" v="SanGIS Addresses Public Domain (http://www.sangis.org/)"/>
  </way>
  <way id="763750508" version="2" timestamp="2024-08-06T06:53:45Z" changeset="154878422" uid="11609320" user="telcodude">
    <nd ref="7135963018"/>
    <nd ref="7135963019"/>
    <nd ref="7135963020"/>
    <nd ref="7135963021"/>
    <nd ref="7135963022"/>
    <nd ref="7135963023"/>
    <nd ref="7135963024"/>
    <nd ref="7135963025"/>
    <nd ref="7135963018"/>
    <tag k="addr:city" v="Imperial Beach"/>
    <tag k="addr:country" v="US"/>
    <tag k="addr:housenumber" v="1360"/>
    <tag k="addr:postcode" v="91932"/>
    <tag k="addr:state" v="CA"/>
    <tag k="addr:street" v="California Street"/>
    <tag k="building" v="yes"/>
    <tag k="source" v="SanGIS Addresses Public Domain (http://www.sangis.org/)"/>
  </way>
  <way id="763750509" version="2" timestamp="2024-08-06T06:53:45Z" changeset="154878422" uid="11609320" user="telcodude">
    <nd ref="7135963026"/>
    <nd ref="7135963027"/>
    <nd ref="7135963028"/>
    <nd ref="7135963029"/>
    <nd ref="7135963030"/>
    <nd ref="7135963031"/>
    <nd ref="7135963032"/>
    <nd ref="7135963033"/>
    <nd ref="7135963034"/>
    <nd ref="7135963035"/>
    <nd ref="7135963026"/>
    <tag k="addr:city" v="Imperial Beach"/>
    <tag k="addr:country" v="US"/>
    <tag k="addr:housenumber" v="1372"/>
    <tag k="addr:postcode" v="91932"/>
    <tag k="addr:state" v="CA"/>
    <tag k="addr:street" v="California Street"/>
    <tag k="building" v="yes"/>
    <tag k="source" v="SanGIS Addresses Public Domain (http://www.sangis.org/)"/>
  </way>
  <way id="763750510" version="2" timestamp="2024-08-06T06:53:45Z" changeset="154878422" uid="11609320" user="telcodude">
    <nd ref="7135963036"/>
    <nd ref="7135963037"/>
    <nd ref="7135963038"/>
    <nd ref="7135963039"/>
    <nd ref="7135963040"/>
    <nd ref="7135963041"/>
    <nd ref="7135963036"/>
    <tag k="addr:city" v="Imperial Beach"/>
    <tag k="addr:country" v="US"/>
    <tag k="addr:housenumber" v="1352"/>
    <tag k="addr:postcode" v="91932"/>
    <tag k="addr:state" v="CA"/>
    <tag k="addr:street" v="California Street"/>
    <tag k="building" v="yes"/>
    <tag k="source" v="SanGIS Addresses Public Domain (http://www.sangis.org/)"/>
  </way>
  <way id="763750511" version="2" timestamp="2024-08-06T06:53:45Z" changeset="154878422" uid="11609320" user="telcodude">
    <nd ref="7135963042"/>
    <nd ref="7135963043"/>
    <nd ref="7135963044"/>
    <nd ref="7135963045"/>
    <nd ref="7135963046"/>
    <nd ref="7135963047"/>
    <nd ref="7135963048"/>
    <nd ref="7135963049"/>
    <nd ref="7135963050"/>
    <nd ref="7135963051"/>
    <nd ref="7135963042"/>
    <tag k="addr:city" v="Imperial Beach"/>
    <tag k="addr:country" v="US"/>
    <tag k="addr:housenumber" v="1342"/>
    <tag k="addr:postcode" v="91932"/>
    <tag k="addr:state" v="CA"/>
    <tag k="addr:street" v="California Street"/>
    <tag k="building" v="yes"/>
    <tag k="source" v="SanGIS Addresses Public Domain (http://www.sangis.org/)"/>
  </way>
  <way id="763750512" version="2" timestamp="2024-08-06T06:53:45Z" changeset="154878422" uid="11609320" user="telcodude">
    <nd ref="7135963052"/>
    <nd ref="7135963053"/>
    <nd ref="7135963054"/>
    <nd ref="7135963055"/>
    <nd ref="7135963056"/>
    <nd ref="7135963057"/>
    <nd ref="7135963052"/>
    <tag k="addr:city" v="Imperial Beach"/>
    <tag k="addr:country" v="US"/>
    <tag k="addr:housenumber" v="1334"/>
    <tag k="addr:postcode" v="91932"/>
    <tag k="addr:state" v="CA"/>
    <tag k="addr:street" v="California Street"/>
    <tag k="building" v="yes"/>
    <tag k="source" v="SanGIS Addresses Public Domain (http://www.sangis.org/)"/>
  </way>
  <way id="763750513" version="2" timestamp="2024-08-06T06:53:45Z" changeset="154878422" uid="11609320" user="telcodude">
    <nd ref="7135963058"/>
    <nd ref="7135963059"/>
    <nd ref="7135963060"/>
    <nd ref="7135963061"/>
    <nd ref="7135963062"/>
    <nd ref="7135963063"/>
    <nd ref="7135963064"/>
    <nd ref="7135963065"/>
    <nd ref="7135963058"/>
    <tag k="addr:city" v="Imperial Beach"/>
    <tag k="addr:country" v="US"/>
    <tag k="addr:housenumber" v="1324"/>
    <tag k="addr:postcode" v="91932"/>
    <tag k="addr:state" v="CA"/>
    <tag k="addr:street" v="California Street"/>
    <tag k="building" v="yes"/>
    <tag k="source" v="SanGIS Addresses Public Domain (http://www.sangis.org/)"/>
  </way>
  <way id="763750514" version="2" timestamp="2024-08-06T06:53:45Z" changeset="154878422" uid="11609320" user="telcodude">
    <nd ref="7135963066"/>
    <nd ref="7135963067"/>
    <nd ref="7135963068"/>
    <nd ref="7135963069"/>
    <nd ref="7135963070"/>
    <nd ref="7135963071"/>
    <nd ref="7135963066"/>
    <tag k="addr:city" v="Imperial Beach"/>
    <tag k="addr:country" v="US"/>
    <tag k="addr:housenumber" v="1312"/>
    <tag k="addr:postcode" v="91932"/>
    <tag k="addr:state" v="CA"/>
    <tag k="addr:street" v="California Street"/>
    <tag k="building" v="yes"/>
    <tag k="source" v="SanGIS Addresses Public Domain (http://www.sangis.org/)"/>
  </way>
  <way id="763750515" version="2" timestamp="2024-08-06T06:53:45Z" changeset="154878422" uid="11609320" user="telcodude">
    <nd ref="7135963072"/>
    <nd ref="7135963073"/>
    <nd ref="7135963074"/>
    <nd ref="7135963075"/>
    <nd ref="7135963076"/>
    <nd ref="7135963077"/>
    <nd ref="7135963078"/>
    <nd ref="7135963079"/>
    <nd ref="7135963080"/>
    <nd ref="7135963081"/>
    <nd ref="7135963072"/>
    <tag k="addr:city" v="Imperial Beach"/>
    <tag k="addr:country" v="US"/>
    <tag k="addr:housenumber" v="1386"/>
    <tag k="addr:postcode" v="91932"/>
    <tag k="addr:state" v="CA"/>
    <tag k="addr:street" v="California Street"/>
    <tag k="building" v="yes"/>
    <tag k="source" v="SanGIS Addresses Public Domain (http://www.sangis.org/)"/>
  </way>
  <way id="763750516" version="2" timestamp="2024-08-06T06:53:45Z" changeset="154878422" uid="11609320" user="telcodude">
    <nd ref="7135963082"/>
    <nd ref="7135963083"/>
    <nd ref="7135963084"/>
    <nd ref="7135963085"/>
    <nd ref="7135963086"/>
    <nd ref="7135963087"/>
    <nd ref="7135963088"/>
    <nd ref="7135963089"/>
    <nd ref="7135963082"/>
    <tag k="addr:city" v="Imperial Beach"/>
    <tag k="addr:country" v="US"/>
    <tag k="addr:housenumber" v="1394"/>
    <tag k="addr:postcode" v="91932"/>
    <tag k="addr:state" v="CA"/>
    <tag k="addr:street" v="California Street"/>
    <tag k="building" v="yes"/>
    <tag k="source" v="SanGIS Addresses Public Domain (http://www.sangis.org/)"/>
  </way>
  <way id="808273257" version="7" timestamp="2025-01-09T09:37:08Z" changeset="161159196" uid="22137982" user="TeeEn">
    <nd ref="49119342"/>
    <nd ref="7558164397"/>
    <nd ref="7558164396"/>
    <nd ref="7558164395"/>
    <nd ref="7558164394"/>
    <nd ref="7558164398"/>
    <nd ref="11331901650"/>
    <nd ref="7558164392"/>
    <tag k="cycleway:left" v="no"/>
    <tag k="cycleway:right" v="lane"/>
    <tag k="highway" v="secondary"/>
    <tag k="maxspeed" v="25 mph"/>
    <tag k="name" v="Imperial Beach Boulevard"/>
    <tag k="oneway" v="yes"/>
    <tag k="parking:left" v="no"/>
    <tag k="sidewalk:left" v="no"/>
    <tag k="sidewalk:right" v="separate"/>
    <tag k="source:maxspeed" v="sign"/>
    <tag k="surface" v="asphalt"/>
    <tag k="tiger:cfcc" v="A41"/>
    <tag k="tiger:county" v="San Diego, CA"/>
    <tag k="tiger:name_base" v="Imperial Beach"/>
    <tag k="tiger:name_type" v="Blvd"/>
    <tag k="tiger:reviewed" v="no"/>
  </way>
  <way id="1073322148" version="4" timestamp="2025-01-03T05:24:34Z" changeset="160934783" uid="22137982" user="TeeEn">
    <nd ref="2495747006"/>
    <nd ref="11803997319"/>
    <nd ref="2495747005"/>
    <nd ref="2495747000"/>
    <tag k="cycleway" v="shared_lane"/>
    <tag k="highway" v="residential"/>
    <tag k="lanes" v="1"/>
    <tag k="name" v="Caspian Way"/>
    <tag k="oneway" v="yes"/>
    <tag k="sidewalk:left" v="no"/>
    <tag k="surface" v="asphalt"/>
    <tag k="tiger:cfcc" v="A41"/>
    <tag k="tiger:county" v="San Diego, CA"/>
    <tag k="tiger:name_base" v="Caspian"/>
    <tag k="tiger:name_type" v="Way"/>
    <tag k="tiger:reviewed" v="no"/>
  </way>
  <way id="1101458680" version="6" timestamp="2025-01-03T06:55:42Z" changeset="160934783" uid="22137982" user="TeeEn">
    <nd ref="7271149165"/>
    <nd ref="7257194250"/>
    <nd ref="11871484704"/>
    <nd ref="11871484705"/>
    <nd ref="11871484703"/>
    <nd ref="11871484702"/>
    <nd ref="11871484706"/>
    <nd ref="11871484707"/>
    <nd ref="11871484701"/>
    <nd ref="11871484708"/>
    <nd ref="11871484700"/>
    <nd ref="11871484709"/>
    <nd ref="11871484699"/>
    <nd ref="11871484698"/>
    <nd ref="11871484710"/>
    <nd ref="11871484697"/>
    <nd ref="11871484711"/>
    <nd ref="49317422"/>
    <nd ref="11871484980"/>
    <nd ref="11871484981"/>
    <nd ref="11871484982"/>
    <nd ref="11871484979"/>
    <nd ref="11871484983"/>
    <nd ref="11871484978"/>
    <nd ref="11871484977"/>
    <nd ref="11871484984"/>
    <nd ref="11871484985"/>
    <nd ref="11871484976"/>
    <nd ref="11871484986"/>
    <nd ref="11871484975"/>
    <nd ref="7257194240"/>
    <nd ref="7271149176"/>
    <tag k="highway" v="residential"/>
    <tag k="lane_markings" v="no"/>
    <tag k="name" v="California Street"/>
    <tag k="sidewalk:both" v="separate"/>
    <tag k="surface" v="asphalt"/>
    <tag k="tiger:cfcc" v="A41"/>
    <tag k="tiger:county" v="San Diego, CA"/>
    <tag k="tiger:name_base" v="California"/>
    <tag k="tiger:name_type" v="St"/>
    <tag k="tiger:reviewed" v="no"/>
  </way>
  <way id="1101458681" version="7" timestamp="2025-01-09T09:36:52Z" changeset="161159196" uid="22137982" user="TeeEn">
    <nd ref="7558164392"/>
    <nd ref="7611113426"/>
    <nd ref="7558164393"/>
    <nd ref="11786339380"/>
    <nd ref="49119346"/>
    <tag k="cycleway:left" v="no"/>
    <tag k="cycleway:right" v="lane"/>
    <tag k="highway" v="secondary"/>
    <tag k="lanes" v="1"/>
    <tag k="maxspeed" v="25 mph"/>
    <tag k="name" v="Imperial Beach Boulevard"/>
    <tag k="oneway" v="yes"/>
    <tag k="parking:left" v="no"/>
    <tag k="sidewalk:left" v="no"/>
    <tag k="sidewalk:right" v="separate"/>
    <tag k="source:maxspeed" v="sign"/>
    <tag k="surface" v="asphalt"/>
    <tag k="tiger:cfcc" v="A41"/>
    <tag k="tiger:county" v="San Diego, CA"/>
    <tag k="tiger:name_base" v="Imperial Beach"/>
    <tag k="tiger:name_type" v="Blvd"/>
    <tag k="tiger:reviewed" v="no"/>
  </way>
  <way id="1221856687" version="4" timestamp="2025-05-05T18:04:06Z" changeset="165858788" uid="21393709" user="CtI5UDYpRmUS">
    <nd ref="49119347"/>
    <nd ref="12812235189"/>
    <nd ref="12812232006"/>
    <nd ref="49119346"/>
    <tag k="cycleway" v="lane"/>
    <tag k="highway" v="secondary"/>
    <tag k="lanes" v="2"/>
    <tag k="maxspeed" v="25 mph"/>
    <tag k="name" v="Imperial Beach Boulevard"/>
    <tag k="oneway" v="no"/>
    <tag k="sidewalk:both" v="separate"/>
    <tag k="source:maxspeed" v="sign"/>
    <tag k="surface" v="asphalt"/>
    <tag k="tiger:cfcc" v="A41"/>
    <tag k="tiger:county" v="San Diego, CA"/>
    <tag k="tiger:name_base" v="Imperial Beach"/>
    <tag k="tiger:name_type" v="Blvd"/>
    <tag k="tiger:reviewed" v="no"/>
  </way>
  <way id="1271039694" version="1" timestamp="2024-04-09T01:38:57Z" changeset="149757132" uid="11609320" user="telcodude">
    <nd ref="11803551453"/>
    <nd ref="11803551454"/>
    <nd ref="11803551455"/>
    <nd ref="11803551456"/>
    <nd ref="11803551457"/>
    <nd ref="11803551458"/>
    <nd ref="11803551459"/>
    <nd ref="11803551460"/>
    <nd ref="11803551461"/>
    <nd ref="11803551462"/>
    <nd ref="11803551453"/>
    <tag k="addr:city" v="Imperial Beach"/>
    <tag k="addr:housenumber" v="825"/>
    <tag k="addr:postcode" v="91932"/>
    <tag k="addr:state" v="CA"/>
    <tag k="addr:street" v="Imperial Beach Boulevard"/>
    <tag k="amenity" v="townhall"/>
    <tag k="building" v="yes"/>
    <tag k="name" v="Imperial Beach City Hall"/>
    <tag k="operator" v="City of Imperial Beach"/>
    <tag k="townhall:type" v="city"/>
    <tag k="website" v="https://www.imperialbeachca.gov"/>
  </way>
  <way id="1271040074" version="1" timestamp="2024-04-09T01:46:24Z" changeset="149757205" uid="11609320" user="telcodude">
    <nd ref="11803596397"/>
    <nd ref="11803596398"/>
    <nd ref="11803596399"/>
    <nd ref="11803596400"/>
    <nd ref="11803596397"/>
    <tag k="addr:city" v="Imperial Beach"/>
    <tag k="addr:housenumber" v="865"/>
    <tag k="addr:postcode" v="91932"/>
    <tag k="addr:state" v="CA"/>
    <tag k="addr:street" v="Imperial Beach Boulevard"/>
    <tag k="amenity" v="fire_station"/>
    <tag k="building" v="fire_station"/>
    <tag k="name" v="Imperial Beach Fire-Rescue Department"/>
    <tag k="operator" v="City of Imperial Beach"/>
    <tag k="website" v="https://www.imperialbeachca.gov/157/Fire-Department"/>
  </way>
  <way id="1271040502" version="1" timestamp="2024-04-09T01:53:53Z" changeset="149757295" uid="11609320" user="telcodude">
    <nd ref="11803601102"/>
    <nd ref="11803601103"/>
    <nd ref="11803601104"/>
    <nd ref="11803601105"/>
    <nd ref="11803601106"/>
    <nd ref="11803601107"/>
    <nd ref="11803601108"/>
    <nd ref="11803601102"/>
    <tag k="addr:city" v="Imperial Beach"/>
    <tag k="addr:housenumber" v="845"/>
    <tag k="addr:postcode" v="91932"/>
    <tag k="addr:state" v="CA"/>
    <tag k="addr:street" v="Imperial Beach Boulevard"/>
    <tag k="amenity" v="police"/>
    <tag k="building" v="yes"/>
    <tag k="name" v="San Diego County Sheriff - Imperial Beach Substation"/>
    <tag k="operator" v="San Diego County Sheriff's Department"/>
    <tag k="phone" v="+1-619-498-2400"/>
    <tag k="website" v="https://www.sdsheriff.gov/Home/Components/FacilityDirectory/FacilityDirectory/20/61"/>
  </way>
  <way id="1271067037" version="3" timestamp="2025-01-03T05:24:40Z" changeset="160934783" uid="22137982" user="TeeEn">
    <nd ref="11803997315"/>
    <nd ref="11803997316"/>
    <nd ref="11803997317"/>
    <nd ref="11803997303"/>
    <nd ref="11803997318"/>
    <nd ref="2495747008"/>
    <nd ref="2495747003"/>
    <nd ref="11803997306"/>
    <nd ref="11803997309"/>
    <nd ref="11803997310"/>
    <nd ref="11803997311"/>
    <nd ref="11803997312"/>
    <nd ref="2495747000"/>
    <nd ref="11803997313"/>
    <nd ref="11803997314"/>
    <nd ref="2495747007"/>
    <nd ref="11803997307"/>
    <nd ref="11803997308"/>
    <nd ref="11803997315"/>
    <tag k="highway" v="residential"/>
    <tag k="lanes" v="1"/>
    <tag k="name" v="Caspian Way"/>
    <tag k="oneway" v="yes"/>
    <tag k="surface" v="asphalt"/>
  </way>
  <way id="1277766273" version="6" timestamp="2025-01-03T06:54:32Z" changeset="160934783" uid="22137982" user="TeeEn">
    <nd ref="49151223"/>
    <nd ref="7257194259"/>
    <nd ref="49151224"/>
    <nd ref="7257194258"/>
    <nd ref="7257186696"/>
    <nd ref="7257194257"/>
    <nd ref="11934179999"/>
    <nd ref="49151226"/>
    <nd ref="11934180000"/>
    <nd ref="7257194256"/>
    <nd ref="49151227"/>
    <nd ref="7257194255"/>
    <nd ref="11934180003"/>
    <tag k="highway" v="residential"/>
    <tag k="lane_markings" v="no"/>
    <tag k="name" v="Oneonta Avenue"/>
    <tag k="sidewalk:both" v="separate"/>
    <tag k="surface" v="asphalt"/>
    <tag k="tiger:cfcc" v="A41"/>
    <tag k="tiger:county" v="San Diego, CA"/>
    <tag k="tiger:name_base" v="Oneonta"/>
    <tag k="tiger:name_type" v="Ave"/>
  </way>
  <way id="1277766274" version="11" timestamp="2025-02-19T12:26:52Z" changeset="162698849" uid="21393709" user="CtI5UDYpRmUS">
    <nd ref="7257194225"/>
    <nd ref="11893602977"/>
    <nd ref="12600562160"/>
    <nd ref="11871484745"/>
    <nd ref="11871484744"/>
    <nd ref="11871484746"/>
    <nd ref="11871484748"/>
    <nd ref="11871484747"/>
    <nd ref="49501641"/>
    <nd ref="11871484749"/>
    <nd ref="11871484750"/>
    <nd ref="11871484751"/>
    <nd ref="11873832243"/>
    <nd ref="11900748943"/>
    <nd ref="49151235"/>
    <nd ref="11871382949"/>
    <nd ref="11871382951"/>
    <nd ref="49539371"/>
    <nd ref="11871382954"/>
    <nd ref="11871484729"/>
    <nd ref="11871382956"/>
    <nd ref="11871582073"/>
    <nd ref="11871383051"/>
    <nd ref="11871383048"/>
    <nd ref="11871582078"/>
    <nd ref="49074141"/>
    <nd ref="11861684903"/>
    <tag k="cycleway" v="shared_lane"/>
    <tag k="highway" v="residential"/>
    <tag k="lane_markings" v="no"/>
    <tag k="maxspeed" v="25 mph"/>
    <tag k="name" v="Connecticut Street"/>
    <tag k="sidewalk:both" v="separate"/>
    <tag k="surface" v="asphalt"/>
    <tag k="tiger:cfcc" v="A41"/>
    <tag k="tiger:county" v="San Diego, CA"/>
    <tag k="tiger:name_base" v="Connecticut"/>
    <tag k="tiger:name_type" v="St"/>
  </way>
  <way id="1277772348" version="7" timestamp="2025-01-03T07:24:36Z" changeset="160934783" uid="22137982" user="TeeEn">
    <nd ref="7271149180"/>
    <nd ref="7257194230"/>
    <nd ref="11871484948"/>
    <nd ref="11871484949"/>
    <nd ref="11871484950"/>
    <nd ref="11871484951"/>
    <nd ref="11871484952"/>
    <nd ref="11871484947"/>
    <nd ref="11871484953"/>
    <nd ref="11871484946"/>
    <nd ref="11871484954"/>
    <nd ref="11871484945"/>
    <nd ref="11871484955"/>
    <nd ref="11871484944"/>
    <nd ref="11871484956"/>
    <nd ref="11871484943"/>
    <nd ref="11871484957"/>
    <nd ref="49106793"/>
    <nd ref="7271149183"/>
    <nd ref="11871383035"/>
    <nd ref="11871484958"/>
    <nd ref="11871383037"/>
    <nd ref="11871383039"/>
    <nd ref="11871383041"/>
    <nd ref="11871383032"/>
    <nd ref="11871383030"/>
    <nd ref="11871383044"/>
    <nd ref="11871383028"/>
    <nd ref="11871383025"/>
    <nd ref="11861754656"/>
    <tag k="highway" v="residential"/>
    <tag k="lane_markings" v="no"/>
    <tag k="name" v="East Lane"/>
    <tag k="sidewalk:both" v="separate"/>
    <tag k="surface" v="asphalt"/>
    <tag k="tiger:cfcc" v="A41"/>
    <tag k="tiger:county" v="San Diego, CA"/>
    <tag k="tiger:name_base" v="East"/>
    <tag k="tiger:name_type" v="Ln"/>
    <tag k="tiger:reviewed" v="no"/>
  </way>
  <way id="1277772349" version="8" timestamp="2025-01-03T07:23:40Z" changeset="160934783" uid="22137982" user="TeeEn">
    <nd ref="7257194235"/>
    <nd ref="7271149178"/>
    <nd ref="11871484723"/>
    <nd ref="11871484724"/>
    <nd ref="11871484932"/>
    <nd ref="11871484896"/>
    <nd ref="11871484937"/>
    <nd ref="11871484821"/>
    <nd ref="11871484725"/>
    <nd ref="11871484922"/>
    <nd ref="11871484726"/>
    <nd ref="11871484841"/>
    <nd ref="11871484811"/>
    <nd ref="11871484727"/>
    <nd ref="49151228"/>
    <nd ref="11861782654"/>
    <nd ref="7271149184"/>
    <nd ref="11871382963"/>
    <nd ref="11871383002"/>
    <nd ref="11871383007"/>
    <nd ref="11871382961"/>
    <nd ref="11871383005"/>
    <nd ref="11871383010"/>
    <nd ref="11871383012"/>
    <nd ref="11871383017"/>
    <nd ref="11871383019"/>
    <nd ref="11871382958"/>
    <nd ref="11871382999"/>
    <nd ref="11871383022"/>
    <nd ref="11861782646"/>
    <tag k="highway" v="residential"/>
    <tag k="lane_markings" v="no"/>
    <tag k="name" v="Louden Lane"/>
    <tag k="sidewalk:both" v="separate"/>
    <tag k="surface" v="asphalt"/>
    <tag k="tiger:cfcc" v="A41"/>
    <tag k="tiger:county" v="San Diego, CA"/>
    <tag k="tiger:name_base" v="Louden"/>
    <tag k="tiger:name_type" v="Ln"/>
    <tag k="tiger:reviewed" v="no"/>
  </way>
  <way id="1277772350" version="9" timestamp="2025-05-05T18:04:06Z" changeset="165858788" uid="21393709" user="CtI5UDYpRmUS">
    <nd ref="7271149177"/>
    <nd ref="7257194239"/>
    <nd ref="11871485005"/>
    <nd ref="11871484974"/>
    <nd ref="11871485014"/>
    <nd ref="11871484973"/>
    <nd ref="11871485013"/>
    <nd ref="12812237820"/>
    <nd ref="11871485012"/>
    <nd ref="11871485011"/>
    <nd ref="11871485010"/>
    <nd ref="11871484972"/>
    <nd ref="11871485009"/>
    <nd ref="11871485007"/>
    <nd ref="11871485006"/>
    <nd ref="11871485008"/>
    <nd ref="7271153185"/>
    <nd ref="49151226"/>
    <nd ref="7271153186"/>
    <nd ref="11871382969"/>
    <nd ref="11871382973"/>
    <nd ref="11871382975"/>
    <nd ref="11871382966"/>
    <nd ref="11871382988"/>
    <nd ref="11871382978"/>
    <nd ref="11871382991"/>
    <nd ref="11871382981"/>
    <nd ref="11871382983"/>
    <nd ref="11871382994"/>
    <nd ref="11871382985"/>
    <nd ref="11871382997"/>
    <nd ref="11861782650"/>
    <tag k="highway" v="residential"/>
    <tag k="lane_markings" v="no"/>
    <tag k="name" v="California Street"/>
    <tag k="sidewalk:both" v="separate"/>
    <tag k="surface" v="asphalt"/>
    <tag k="tiger:cfcc" v="A41"/>
    <tag k="tiger:county" v="San Diego, CA"/>
    <tag k="tiger:name_base" v="California"/>
    <tag k="tiger:name_type" v="St"/>
    <tag k="tiger:reviewed" v="no"/>
  </way>
  <way id="1277772352" version="6" timestamp="2025-01-03T07:14:18Z" changeset="160934783" uid="22137982" user="TeeEn">
    <nd ref="7271149175"/>
    <nd ref="7257194261"/>
    <nd ref="11871485015"/>
    <nd ref="11871485002"/>
    <nd ref="11871485016"/>
    <nd ref="11871485003"/>
    <nd ref="11871485017"/>
    <nd ref="11871485018"/>
    <nd ref="11871485019"/>
    <nd ref="11871485020"/>
    <nd ref="11871485004"/>
    <nd ref="11871485021"/>
    <nd ref="11871485022"/>
    <nd ref="11871485023"/>
    <nd ref="7271153187"/>
    <tag k="cycleway" v="shared_lane"/>
    <tag k="highway" v="residential"/>
    <tag k="lane_markings" v="no"/>
    <tag k="maxspeed" v="25 mph"/>
    <tag k="name" v="5th Street"/>
    <tag k="sidewalk:both" v="separate"/>
    <tag k="surface" v="asphalt"/>
    <tag k="tiger:cfcc" v="A41"/>
    <tag k="tiger:county" v="San Diego, CA"/>
    <tag k="tiger:name_base" v="5th"/>
    <tag k="tiger:name_type" v="St"/>
  </way>
  <way id="1281075642" version="4" timestamp="2025-01-05T15:07:36Z" changeset="161021775" uid="22137982" user="TeeEn">
    <nd ref="49126180"/>
    <nd ref="49126181"/>
    <nd ref="11871484645"/>
    <nd ref="49126182"/>
    <nd ref="49126183"/>
    <tag k="highway" v="residential"/>
    <tag k="lane_markings" v="no"/>
    <tag k="name" v="Grove Avenue"/>
    <tag k="sidewalk:both" v="separate"/>
    <tag k="surface" v="asphalt"/>
    <tag k="tiger:cfcc" v="A41"/>
    <tag k="tiger:county" v="San Diego, CA"/>
    <tag k="tiger:name_base" v="Grove"/>
    <tag k="tiger:name_type" v="Ave"/>
    <tag k="tiger:reviewed" v="no"/>
  </way>
  <way id="1281075644" version="7" timestamp="2025-01-05T15:06:30Z" changeset="161021775" uid="22137982" user="TeeEn">
    <nd ref="11934180050"/>
    <nd ref="11873832505"/>
    <nd ref="11873832194"/>
    <nd ref="11873832354"/>
    <nd ref="11873832367"/>
    <nd ref="11873832333"/>
    <nd ref="11873832504"/>
    <nd ref="49174036"/>
    <nd ref="49174038"/>
    <nd ref="12305209424"/>
    <nd ref="12305209423"/>
    <nd ref="49174040"/>
    <nd ref="12305209422"/>
    <nd ref="12305209421"/>
    <nd ref="49174042"/>
    <tag k="highway" v="residential"/>
    <tag k="lane_markings" v="no"/>
    <tag k="name" v="8th Street"/>
    <tag k="sidewalk:both" v="separate"/>
    <tag k="surface" v="asphalt"/>
    <tag k="tiger:cfcc" v="A41"/>
    <tag k="tiger:county" v="San Diego, CA"/>
    <tag k="tiger:name_base" v="8th"/>
    <tag k="tiger:name_type" v="St"/>
    <tag k="tiger:reviewed" v="no"/>
  </way>
  <way id="1281075646" version="4" timestamp="2025-01-05T15:16:57Z" changeset="161021775" uid="22137982" user="TeeEn">
    <nd ref="11890712676"/>
    <nd ref="7257194216"/>
    <nd ref="11873832543"/>
    <nd ref="11873832312"/>
    <nd ref="11873832542"/>
    <nd ref="49047323"/>
    <nd ref="49047324"/>
    <tag k="highway" v="residential"/>
    <tag k="lane_markings" v="no"/>
    <tag k="name" v="Downing Street"/>
    <tag k="sidewalk:both" v="separate"/>
    <tag k="surface" v="asphalt"/>
    <tag k="tiger:cfcc" v="A41"/>
    <tag k="tiger:county" v="San Diego, CA"/>
    <tag k="tiger:name_base" v="Downing"/>
    <tag k="tiger:name_type" v="St"/>
    <tag k="tiger:reviewed" v="no"/>
  </way>
  <way id="1281075649" version="4" timestamp="2025-01-05T14:32:43Z" changeset="161021775" uid="22137982" user="TeeEn">
    <nd ref="7271153190"/>
    <nd ref="11873832282"/>
    <nd ref="11873832364"/>
    <nd ref="49238780"/>
    <tag k="highway" v="residential"/>
    <tag k="lane_markings" v="no"/>
    <tag k="name" v="Hickory Court"/>
    <tag k="sidewalk:both" v="separate"/>
    <tag k="surface" v="asphalt"/>
    <tag k="tiger:cfcc" v="A41"/>
    <tag k="tiger:county" v="San Diego, CA"/>
    <tag k="tiger:name_base" v="Hickory"/>
    <tag k="tiger:name_type" v="Ct"/>
    <tag k="tiger:reviewed" v="no"/>
  </way>
  <way id="1281075650" version="4" timestamp="2025-01-05T14:33:22Z" changeset="161021775" uid="22137982" user="TeeEn">
    <nd ref="49238786"/>
    <nd ref="11873832554"/>
    <nd ref="49238787"/>
    <nd ref="11871484766"/>
    <nd ref="7271153189"/>
    <tag k="highway" v="residential"/>
    <tag k="lane_markings" v="no"/>
    <tag k="name" v="Hickory Court"/>
    <tag k="sidewalk:both" v="separate"/>
    <tag k="surface" v="asphalt"/>
    <tag k="tiger:cfcc" v="A41"/>
    <tag k="tiger:county" v="San Diego, CA"/>
    <tag k="tiger:name_base" v="Hickory"/>
    <tag k="tiger:name_type" v="Ct"/>
    <tag k="tiger:reviewed" v="no"/>
  </way>
  <way id="1347741579" version="3" timestamp="2025-01-09T09:32:40Z" changeset="161159196" uid="22137982" user="TeeEn">
    <nd ref="11803959347"/>
    <nd ref="4343226611"/>
    <nd ref="49119352"/>
    <tag k="highway" v="residential"/>
    <tag k="lane_markings" v="no"/>
    <tag k="name" v="8th Street"/>
    <tag k="parking:both" v="no"/>
    <tag k="surface" v="asphalt"/>
    <tag k="tiger:cfcc" v="A41"/>
    <tag k="tiger:county" v="San Diego, CA"/>
    <tag k="tiger:name_base" v="8th"/>
    <tag k="tiger:name_type" v="St"/>
    <tag k="tiger:reviewed" v="no"/>
  </way>
  <way id="1347750541" version="3" timestamp="2025-01-03T05:28:45Z" changeset="160934783" uid="22137982" user="TeeEn">
    <nd ref="49125922"/>
    <nd ref="7271153259"/>
    <nd ref="2440995187"/>
    <nd ref="11786339225"/>
    <tag k="cycleway" v="shared_lane"/>
    <tag k="highway" v="residential"/>
    <tag k="lanes" v="2"/>
    <tag k="name" v="Caspian Way"/>
    <tag k="oneway" v="no"/>
    <tag k="sidewalk:both" v="separate"/>
    <tag k="surface" v="asphalt"/>
    <tag k="tiger:cfcc" v="A41"/>
    <tag k="tiger:county" v="San Diego, CA"/>
    <tag k="tiger:name_base" v="Caspian"/>
    <tag k="tiger:name_type" v="Way"/>
    <tag k="tiger:reviewed" v="no"/>
  </way>
  <way id="1347750554" version="2" timestamp="2025-01-03T05:43:27Z" changeset="160934783" uid="22137982" user="TeeEn">
    <nd ref="49574387"/>
    <nd ref="11803997294"/>
    <tag k="highway" v="residential"/>
    <tag k="lane_markings" v="no"/>
    <tag k="name" v="Caspian Way"/>
    <tag k="oneway" v="yes"/>
    <tag k="sidewalk:left" v="separate"/>
    <tag k="surface" v="asphalt"/>
  </way>
  <way id="1347754004" version="2" timestamp="2025-01-03T08:11:27Z" changeset="160934783" uid="22137982" user="TeeEn">
    <nd ref="7271149179"/>
    <nd ref="49106792"/>
    <tag k="highway" v="residential"/>
    <tag k="lane_markings" v="no"/>
    <tag k="name" v="East Lane"/>
    <tag k="surface" v="asphalt"/>
    <tag k="tiger:cfcc" v="A41"/>
    <tag k="tiger:county" v="San Diego, CA"/>
    <tag k="tiger:name_base" v="East"/>
    <tag k="tiger:name_type" v="Ln"/>
    <tag k="tiger:reviewed" v="no"/>
  </way>
  <way id="1347754008" version="3" timestamp="2025-01-09T10:06:40Z" changeset="161159196" uid="22137982" user="TeeEn">
    <nd ref="49106790"/>
    <nd ref="11803972287"/>
    <tag k="highway" v="residential"/>
    <tag k="lane_markings" v="no"/>
    <tag k="name" v="East Lane"/>
    <tag k="parking:both" v="no"/>
    <tag k="surface" v="asphalt"/>
    <tag k="tiger:cfcc" v="A41"/>
    <tag k="tiger:county" v="San Diego, CA"/>
    <tag k="tiger:name_base" v="East"/>
    <tag k="tiger:name_type" v="Ln"/>
    <tag k="tiger:reviewed" v="no"/>
  </way>
  <way id="1347754043" version="4" timestamp="2025-01-09T08:41:33Z" changeset="161159196" uid="22137982" user="TeeEn">
    <nd ref="11803959339"/>
    <nd ref="12466771941"/>
    <tag k="cycleway:left" v="no"/>
    <tag k="cycleway:right" v="lane"/>
    <tag k="highway" v="secondary"/>
    <tag k="lanes" v="1"/>
    <tag k="maxspeed" v="35 mph"/>
    <tag k="maxspeed:type" v="sign"/>
    <tag k="name" v="Imperial Beach Boulevard"/>
    <tag k="oneway" v="yes"/>
    <tag k="parking:left" v="no"/>
    <tag k="sidewalk:both" v="separate"/>
    <tag k="source:maxspeed" v="sign"/>
    <tag k="surface" v="asphalt"/>
    <tag k="tiger:cfcc" v="A41"/>
    <tag k="tiger:county" v="San Diego, CA"/>
    <tag k="tiger:name_base" v="Imperial Beach"/>
    <tag k="tiger:name_type" v="Blvd"/>
    <tag k="tiger:reviewed" v="no"/>
  </way>
  <way id="1347754044" version="3" timestamp="2025-01-09T08:41:19Z" changeset="161159196" uid="22137982" user="TeeEn">
    <nd ref="12466771941"/>
    <nd ref="5533781953"/>
    <nd ref="5533781954"/>
    <nd ref="4343226477"/>
    <tag k="cycleway:left" v="no"/>
    <tag k="cycleway:right" v="lane"/>
    <tag k="highway" v="secondary"/>
    <tag k="lanes" v="1"/>
    <tag k="maxspeed" v="35 mph"/>
    <tag k="maxspeed:type" v="sign"/>
    <tag k="name" v="Imperial Beach Boulevard"/>
    <tag k="oneway" v="yes"/>
    <tag k="parking:left" v="no"/>
    <tag k="sidewalk:left" v="no"/>
    <tag k="sidewalk:right" v="separate"/>
    <tag k="source:maxspeed" v="sign"/>
    <tag k="surface" v="asphalt"/>
    <tag k="tiger:cfcc" v="A41"/>
    <tag k="tiger:county" v="San Diego, CA"/>
    <tag k="tiger:name_base" v="Imperial Beach"/>
    <tag k="tiger:name_type" v="Blvd"/>
    <tag k="tiger:reviewed" v="no"/>
  </way>
  <way id="1347754594" version="3" timestamp="2025-01-09T10:04:51Z" changeset="161159196" uid="22137982" user="TeeEn">
    <nd ref="49151235"/>
    <nd ref="7271149182"/>
    <tag k="highway" v="residential"/>
    <tag k="lane_markings" v="no"/>
    <tag k="name" v="Oneonta Avenue"/>
    <tag k="parking:both" v="no"/>
    <tag k="surface" v="asphalt"/>
    <tag k="tiger:cfcc" v="A41"/>
    <tag k="tiger:county" v="San Diego, CA"/>
    <tag k="tiger:name_base" v="Oneonta"/>
    <tag k="tiger:name_type" v="Ave"/>
  </way>
  <way id="1347754595" version="3" timestamp="2025-01-09T10:13:43Z" changeset="161159196" uid="22137982" user="TeeEn">
    <nd ref="11861640331"/>
    <nd ref="49151242"/>
    <tag k="highway" v="residential"/>
    <tag k="lane_markings" v="no"/>
    <tag k="name" v="Oneonta Avenue"/>
    <tag k="parking:both" v="no"/>
    <tag k="surface" v="asphalt"/>
    <tag k="tiger:cfcc" v="A41"/>
    <tag k="tiger:county" v="San Diego, CA"/>
    <tag k="tiger:name_base" v="Oneonta"/>
    <tag k="tiger:name_type" v="Ave"/>
  </way>
  <way id="1347754622" version="4" timestamp="2025-01-09T10:05:35Z" changeset="161159196" uid="22137982" user="TeeEn">
    <nd ref="11934180003"/>
    <nd ref="49151228"/>
    <nd ref="11934180006"/>
    <tag k="highway" v="residential"/>
    <tag k="lane_markings" v="no"/>
    <tag k="name" v="Oneonta Avenue"/>
    <tag k="parking:both" v="no"/>
    <tag k="sidewalk:right" v="separate"/>
    <tag k="surface" v="asphalt"/>
    <tag k="tiger:cfcc" v="A41"/>
    <tag k="tiger:county" v="San Diego, CA"/>
    <tag k="tiger:name_base" v="Oneonta"/>
    <tag k="tiger:name_type" v="Ave"/>
  </way>
  <way id="1347754623" version="3" timestamp="2025-01-03T07:24:14Z" changeset="160934783" uid="22137982" user="TeeEn">
    <nd ref="11934180006"/>
    <nd ref="7257194254"/>
    <nd ref="49151231"/>
    <nd ref="7257194253"/>
    <nd ref="11934180008"/>
    <tag k="highway" v="residential"/>
    <tag k="lane_markings" v="no"/>
    <tag k="name" v="Oneonta Avenue"/>
    <tag k="sidewalk:both" v="separate"/>
    <tag k="surface" v="asphalt"/>
    <tag k="tiger:cfcc" v="A41"/>
    <tag k="tiger:county" v="San Diego, CA"/>
    <tag k="tiger:name_base" v="Oneonta"/>
    <tag k="tiger:name_type" v="Ave"/>
  </way>
  <way id="1347754624" version="3" timestamp="2025-01-03T07:24:21Z" changeset="160934783" uid="22137982" user="TeeEn">
    <nd ref="11934180008"/>
    <nd ref="49106793"/>
    <nd ref="11934180010"/>
    <tag k="highway" v="residential"/>
    <tag k="lane_markings" v="no"/>
    <tag k="name" v="Oneonta Avenue"/>
    <tag k="sidewalk:right" v="separate"/>
    <tag k="surface" v="asphalt"/>
    <tag k="tiger:cfcc" v="A41"/>
    <tag k="tiger:county" v="San Diego, CA"/>
    <tag k="tiger:name_base" v="Oneonta"/>
    <tag k="tiger:name_type" v="Ave"/>
  </way>
  <way id="1347754625" version="3" timestamp="2025-01-05T14:13:31Z" changeset="161021775" uid="22137982" user="TeeEn">
    <nd ref="11934180010"/>
    <nd ref="7257194252"/>
    <nd ref="4616447407"/>
    <nd ref="7257194251"/>
    <nd ref="11934180015"/>
    <tag k="highway" v="residential"/>
    <tag k="lane_markings" v="no"/>
    <tag k="name" v="Oneonta Avenue"/>
    <tag k="sidewalk:both" v="separate"/>
    <tag k="surface" v="asphalt"/>
    <tag k="tiger:cfcc" v="A41"/>
    <tag k="tiger:county" v="San Diego, CA"/>
    <tag k="tiger:name_base" v="Oneonta"/>
    <tag k="tiger:name_type" v="Ave"/>
  </way>
  <way id="1347754626" version="3" timestamp="2025-01-09T10:04:48Z" changeset="161159196" uid="22137982" user="TeeEn">
    <nd ref="11934180015"/>
    <nd ref="11861684904"/>
    <nd ref="49151235"/>
    <tag k="highway" v="residential"/>
    <tag k="lane_markings" v="no"/>
    <tag k="name" v="Oneonta Avenue"/>
    <tag k="parking:both" v="no"/>
    <tag k="surface" v="asphalt"/>
    <tag k="tiger:cfcc" v="A41"/>
    <tag k="tiger:county" v="San Diego, CA"/>
    <tag k="tiger:name_base" v="Oneonta"/>
    <tag k="tiger:name_type" v="Ave"/>
  </way>
  <way id="1347754701" version="3" timestamp="2025-01-09T10:04:38Z" changeset="161159196" uid="22137982" user="TeeEn">
    <nd ref="11934180040"/>
    <nd ref="7257194225"/>
    <tag k="highway" v="residential"/>
    <tag k="lane_markings" v="no"/>
    <tag k="name" v="Grove Avenue"/>
    <tag k="parking:both" v="no"/>
    <tag k="surface" v="asphalt"/>
    <tag k="tiger:cfcc" v="A41"/>
    <tag k="tiger:county" v="San Diego, CA"/>
    <tag k="tiger:name_base" v="Grove"/>
    <tag k="tiger:name_type" v="Ave"/>
  </way>
  <way id="1347754707" version="3" timestamp="2025-01-09T10:04:44Z" changeset="161159196" uid="22137982" user="TeeEn">
    <nd ref="49501641"/>
    <nd ref="7271149181"/>
    <tag k="highway" v="residential"/>
    <tag k="lane_markings" v="no"/>
    <tag k="name" v="Holly Avenue"/>
    <tag k="parking:both" v="no"/>
    <tag k="surface" v="asphalt"/>
    <tag k="tiger:cfcc" v="A41"/>
    <tag k="tiger:county" v="San Diego, CA"/>
    <tag k="tiger:name_base" v="Holly"/>
    <tag k="tiger:name_type" v="Ave"/>
    <tag k="tiger:reviewed" v="no"/>
  </way>
  <way id="1347754717" version="3" timestamp="2025-01-09T10:13:35Z" changeset="161159196" uid="22137982" user="TeeEn">
    <nd ref="7257194209"/>
    <nd ref="49418974"/>
    <tag k="highway" v="residential"/>
    <tag k="lane_markings" v="no"/>
    <tag k="name" v="Holly Avenue"/>
    <tag k="parking:both" v="no"/>
    <tag k="sidewalk:left" v="separate"/>
    <tag k="surface" v="asphalt"/>
    <tag k="tiger:cfcc" v="A41"/>
    <tag k="tiger:county" v="San Diego, CA"/>
    <tag k="tiger:name_base" v="Holly"/>
    <tag k="tiger:name_type" v="Ave"/>
    <tag k="tiger:reviewed" v="no"/>
  </way>
  <way id="1347754729" version="2" timestamp="2025-01-05T14:33:24Z" changeset="161021775" uid="22137982" user="TeeEn">
    <nd ref="7271153189"/>
    <nd ref="49238788"/>
    <tag k="highway" v="residential"/>
    <tag k="lane_markings" v="no"/>
    <tag k="name" v="Hickory Court"/>
    <tag k="surface" v="asphalt"/>
    <tag k="tiger:cfcc" v="A41"/>
    <tag k="tiger:county" v="San Diego, CA"/>
    <tag k="tiger:name_base" v="Hickory"/>
    <tag k="tiger:name_type" v="Ct"/>
    <tag k="tiger:reviewed" v="no"/>
  </way>
  <way id="1347754730" version="3" timestamp="2025-01-09T11:10:28Z" changeset="161159196" uid="22137982" user="TeeEn">
    <nd ref="49238777"/>
    <nd ref="7271153190"/>
    <tag k="highway" v="residential"/>
    <tag k="lane_markings" v="no"/>
    <tag k="name" v="Hickory Court"/>
    <tag k="parking:both" v="no"/>
    <tag k="surface" v="asphalt"/>
    <tag k="tiger:cfcc" v="A41"/>
    <tag k="tiger:county" v="San Diego, CA"/>
    <tag k="tiger:name_base" v="Hickory"/>
    <tag k="tiger:name_type" v="Ct"/>
    <tag k="tiger:reviewed" v="no"/>
  </way>
  <way id="1347754754" version="3" timestamp="2025-01-09T11:10:38Z" changeset="161159196" uid="22137982" user="TeeEn">
    <nd ref="11861684909"/>
    <nd ref="49074175"/>
    <tag k="highway" v="residential"/>
    <tag k="lane_markings" v="no"/>
    <tag k="name" v="Delaware Street"/>
    <tag k="parking:both" v="no"/>
    <tag k="surface" v="asphalt"/>
    <tag k="tiger:cfcc" v="A41"/>
    <tag k="tiger:county" v="San Diego, CA"/>
    <tag k="tiger:name_base" v="Delaware"/>
    <tag k="tiger:name_type" v="St"/>
    <tag k="tiger:reviewed" v="no"/>
  </way>
  <way id="1347754760" version="3" timestamp="2025-01-09T11:10:16Z" changeset="161159196" uid="22137982" user="TeeEn">
    <nd ref="49539373"/>
    <nd ref="7271153194"/>
    <tag k="highway" v="residential"/>
    <tag k="lane_markings" v="no"/>
    <tag k="name" v="Delaware Street"/>
    <tag k="parking:both" v="no"/>
    <tag k="surface" v="asphalt"/>
    <tag k="tiger:cfcc" v="A41"/>
    <tag k="tiger:county" v="San Diego, CA"/>
    <tag k="tiger:name_base" v="Delaware"/>
    <tag k="tiger:name_type" v="St"/>
    <tag k="tiger:reviewed" v="no"/>
  </way>
  <way id="1347754865" version="3" timestamp="2025-01-09T10:04:56Z" changeset="161159196" uid="22137982" user="TeeEn">
    <nd ref="49539371"/>
    <nd ref="7271153192"/>
    <tag k="highway" v="residential"/>
    <tag k="lane_markings" v="no"/>
    <tag k="name" v="Hemlock Avenue"/>
    <tag k="parking:both" v="no"/>
    <tag k="surface" v="asphalt"/>
    <tag k="tiger:cfcc" v="A41"/>
    <tag k="tiger:county" v="San Diego, CA"/>
    <tag k="tiger:name_base" v="Hemlock"/>
    <tag k="tiger:name_type" v="Ave"/>
    <tag k="tiger:reviewed" v="no"/>
  </way>
  <way id="1347754884" version="3" timestamp="2025-01-09T11:10:01Z" changeset="161159196" uid="22137982" user="TeeEn">
    <nd ref="7271153193"/>
    <nd ref="49174045"/>
    <tag k="highway" v="residential"/>
    <tag k="lane_markings" v="no"/>
    <tag k="name" v="Hemlock Avenue"/>
    <tag k="parking:both" v="no"/>
    <tag k="surface" v="asphalt"/>
    <tag k="tiger:cfcc" v="A41"/>
    <tag k="tiger:county" v="San Diego, CA"/>
    <tag k="tiger:name_base" v="Hemlock"/>
    <tag k="tiger:name_type" v="Ave"/>
    <tag k="tiger:reviewed" v="no"/>
  </way>
  <way id="1347754901" version="3" timestamp="2025-01-09T11:10:08Z" changeset="161159196" uid="22137982" user="TeeEn">
    <nd ref="49151241"/>
    <nd ref="7271153191"/>
    <tag k="highway" v="residential"/>
    <tag k="lane_markings" v="no"/>
    <tag k="name" v="8th Street"/>
    <tag k="parking:both" v="no"/>
    <tag k="surface" v="asphalt"/>
    <tag k="tiger:cfcc" v="A41"/>
    <tag k="tiger:county" v="San Diego, CA"/>
    <tag k="tiger:name_base" v="8th"/>
    <tag k="tiger:name_type" v="St"/>
    <tag k="tiger:reviewed" v="no"/>
  </way>
  <way id="1347755605" version="3" timestamp="2025-01-09T10:13:12Z" changeset="161159196" uid="22137982" user="TeeEn">
    <nd ref="49047322"/>
    <nd ref="11890712676"/>
    <tag k="highway" v="residential"/>
    <tag k="lane_markings" v="no"/>
    <tag k="name" v="Downing Street"/>
    <tag k="parking:both" v="no"/>
    <tag k="surface" v="asphalt"/>
    <tag k="tiger:cfcc" v="A41"/>
    <tag k="tiger:county" v="San Diego, CA"/>
    <tag k="tiger:name_base" v="Downing"/>
    <tag k="tiger:name_type" v="St"/>
    <tag k="tiger:reviewed" v="no"/>
  </way>
  <way id="1347755612" version="2" timestamp="2025-01-05T15:16:32Z" changeset="161021775" uid="22137982" user="TeeEn">
    <nd ref="11934180054"/>
    <nd ref="49047326"/>
    <tag k="highway" v="residential"/>
    <tag k="lane_markings" v="no"/>
    <tag k="name" v="Downing Street"/>
    <tag k="surface" v="asphalt"/>
    <tag k="tiger:cfcc" v="A41"/>
    <tag k="tiger:county" v="San Diego, CA"/>
    <tag k="tiger:name_base" v="Downing"/>
    <tag k="tiger:name_type" v="St"/>
    <tag k="tiger:reviewed" v="no"/>
  </way>
  <way id="1347755614" version="2" timestamp="2025-01-05T15:06:42Z" changeset="161021775" uid="22137982" user="TeeEn">
    <nd ref="11890712672"/>
    <nd ref="49126186"/>
    <tag k="highway" v="residential"/>
    <tag k="lane_markings" v="no"/>
    <tag k="name" v="8th Street"/>
    <tag k="surface" v="asphalt"/>
    <tag k="tiger:cfcc" v="A41"/>
    <tag k="tiger:county" v="San Diego, CA"/>
    <tag k="tiger:name_base" v="8th"/>
    <tag k="tiger:name_type" v="St"/>
    <tag k="tiger:reviewed" v="no"/>
  </way>
  <way id="1347755764" version="2" timestamp="2025-01-05T15:06:27Z" changeset="161021775" uid="22137982" user="TeeEn">
    <nd ref="49174035"/>
    <nd ref="11934180050"/>
    <tag k="highway" v="residential"/>
    <tag k="lane_markings" v="no"/>
    <tag k="name" v="8th Street"/>
    <tag k="sidewalk:right" v="separate"/>
    <tag k="surface" v="asphalt"/>
    <tag k="tiger:cfcc" v="A41"/>
    <tag k="tiger:county" v="San Diego, CA"/>
    <tag k="tiger:name_base" v="8th"/>
    <tag k="tiger:name_type" v="St"/>
    <tag k="tiger:reviewed" v="no"/>
  </way>
  <way id="1347755776" version="2" timestamp="2025-01-05T15:15:13Z" changeset="161021775" uid="22137982" user="TeeEn">
    <nd ref="11890712666"/>
    <nd ref="49126185"/>
    <tag k="highway" v="residential"/>
    <tag k="lane_markings" v="no"/>
    <tag k="name" v="Delaware Street"/>
    <tag k="surface" v="asphalt"/>
    <tag k="tiger:cfcc" v="A41"/>
    <tag k="tiger:county" v="San Diego, CA"/>
    <tag k="tiger:name_base" v="Delaware"/>
    <tag k="tiger:name_type" v="St"/>
    <tag k="tiger:reviewed" v="no"/>
  </way>
  <way id="1347755911" version="4" timestamp="2025-01-09T09:33:40Z" changeset="161159196" uid="22137982" user="TeeEn">
    <nd ref="11803959362"/>
    <nd ref="7257194213"/>
    <nd ref="11873832508"/>
    <nd ref="11873832246"/>
    <nd ref="11873832509"/>
    <nd ref="11873832466"/>
    <nd ref="11873832510"/>
    <nd ref="11873832465"/>
    <nd ref="11873832224"/>
    <tag k="highway" v="residential"/>
    <tag k="lane_markings" v="no"/>
    <tag k="name" v="7th Street"/>
    <tag k="sidewalk:both" v="separate"/>
    <tag k="surface" v="asphalt"/>
    <tag k="tiger:cfcc" v="A41"/>
    <tag k="tiger:county" v="San Diego, CA"/>
    <tag k="tiger:name_base" v="7th"/>
    <tag k="tiger:name_type" v="St"/>
    <tag k="tiger:reviewed" v="no"/>
  </way>
  <way id="1347755912" version="3" timestamp="2025-01-05T15:12:22Z" changeset="161021775" uid="22137982" user="TeeEn">
    <nd ref="11873832514"/>
    <nd ref="11873832328"/>
    <nd ref="11873832245"/>
    <nd ref="49126180"/>
    <tag k="highway" v="residential"/>
    <tag k="lane_markings" v="no"/>
    <tag k="name" v="7th Street"/>
    <tag k="sidewalk:both" v="separate"/>
    <tag k="surface" v="asphalt"/>
    <tag k="tiger:cfcc" v="A41"/>
    <tag k="tiger:county" v="San Diego, CA"/>
    <tag k="tiger:name_base" v="7th"/>
    <tag k="tiger:name_type" v="St"/>
    <tag k="tiger:reviewed" v="no"/>
  </way>
  <way id="1347755969" version="3" timestamp="2025-01-09T10:04:34Z" changeset="161159196" uid="22137982" user="TeeEn">
    <nd ref="49126179"/>
    <nd ref="11890712613"/>
    <tag k="highway" v="residential"/>
    <tag k="lane_markings" v="no"/>
    <tag k="name" v="Grove Avenue"/>
    <tag k="parking:both" v="no"/>
    <tag k="surface" v="asphalt"/>
    <tag k="tiger:cfcc" v="A41"/>
    <tag k="tiger:county" v="San Diego, CA"/>
    <tag k="tiger:name_base" v="Grove"/>
    <tag k="tiger:name_type" v="Ave"/>
    <tag k="tiger:reviewed" v="no"/>
  </way>
  <way id="1347755970" version="2" timestamp="2025-01-05T15:07:47Z" changeset="161021775" uid="22137982" user="TeeEn">
    <nd ref="11890712643"/>
    <nd ref="49126180"/>
    <tag k="highway" v="residential"/>
    <tag k="lane_markings" v="no"/>
    <tag k="name" v="Grove Avenue"/>
    <tag k="surface" v="asphalt"/>
    <tag k="tiger:cfcc" v="A41"/>
    <tag k="tiger:county" v="San Diego, CA"/>
    <tag k="tiger:name_base" v="Grove"/>
    <tag k="tiger:name_type" v="Ave"/>
    <tag k="tiger:reviewed" v="no"/>
  </way>
  <way id="1347755973" version="3" timestamp="2025-01-06T15:37:50Z" changeset="161063478" uid="22137982" user="TeeEn">
    <nd ref="49126183"/>
    <nd ref="49126184"/>
    <tag k="highway" v="residential"/>
    <tag k="lane_markings" v="no"/>
    <tag k="name" v="Grove Avenue"/>
    <tag k="sidewalk:left" v="separate"/>
    <tag k="surface" v="asphalt"/>
    <tag k="tiger:cfcc" v="A41"/>
    <tag k="tiger:county" v="San Diego, CA"/>
    <tag k="tiger:name_base" v="Grove"/>
    <tag k="tiger:name_type" v="Ave"/>
    <tag k="tiger:reviewed" v="no"/>
  </way>
  <way id="1347755974" version="3" timestamp="2025-01-09T10:13:22Z" changeset="161159196" uid="22137982" user="TeeEn">
    <nd ref="11934180059"/>
    <nd ref="49126187"/>
    <tag k="highway" v="residential"/>
    <tag k="lane_markings" v="no"/>
    <tag k="name" v="Grove Avenue"/>
    <tag k="parking:both" v="no"/>
    <tag k="surface" v="asphalt"/>
    <tag k="tiger:cfcc" v="A41"/>
    <tag k="tiger:county" v="San Diego, CA"/>
    <tag k="tiger:name_base" v="Grove"/>
    <tag k="tiger:name_type" v="Ave"/>
    <tag k="tiger:reviewed" v="no"/>
  </way>
  <way id="1347756210" version="3" timestamp="2025-01-09T10:05:03Z" changeset="161159196" uid="22137982" user="TeeEn">
    <nd ref="11861754656"/>
    <nd ref="49074139"/>
    <tag k="highway" v="residential"/>
    <tag k="lane_markings" v="no"/>
    <tag k="name" v="East Lane"/>
    <tag k="parking:both" v="no"/>
    <tag k="surface" v="asphalt"/>
    <tag k="tiger:cfcc" v="A41"/>
    <tag k="tiger:county" v="San Diego, CA"/>
    <tag k="tiger:name_base" v="East"/>
    <tag k="tiger:name_type" v="Ln"/>
    <tag k="tiger:reviewed" v="no"/>
  </way>
  <way id="1347756219" version="2" timestamp="2025-01-03T08:11:25Z" changeset="160934783" uid="22137982" user="TeeEn">
    <nd ref="49106792"/>
    <nd ref="7271149180"/>
    <tag k="highway" v="residential"/>
    <tag k="lane_markings" v="no"/>
    <tag k="name" v="East Lane"/>
    <tag k="surface" v="asphalt"/>
    <tag k="tiger:cfcc" v="A41"/>
    <tag k="tiger:county" v="San Diego, CA"/>
    <tag k="tiger:name_base" v="East"/>
    <tag k="tiger:name_type" v="Ln"/>
    <tag k="tiger:reviewed" v="no"/>
  </way>
  <way id="1347756220" version="3" timestamp="2025-01-09T10:05:08Z" changeset="161159196" uid="22137982" user="TeeEn">
    <nd ref="11861782646"/>
    <nd ref="49074137"/>
    <tag k="highway" v="residential"/>
    <tag k="lane_markings" v="no"/>
    <tag k="name" v="Louden Lane"/>
    <tag k="parking:both" v="no"/>
    <tag k="surface" v="asphalt"/>
    <tag k="tiger:cfcc" v="A41"/>
    <tag k="tiger:county" v="San Diego, CA"/>
    <tag k="tiger:name_base" v="Louden"/>
    <tag k="tiger:name_type" v="Ln"/>
    <tag k="tiger:reviewed" v="no"/>
  </way>
  <way id="1347756227" version="3" timestamp="2025-01-09T10:06:25Z" changeset="161159196" uid="22137982" user="TeeEn">
    <nd ref="7271149169"/>
    <nd ref="49306738"/>
    <nd ref="7271149170"/>
    <tag k="highway" v="residential"/>
    <tag k="lane_markings" v="no"/>
    <tag k="name" v="Louden Lane"/>
    <tag k="parking:both" v="no"/>
    <tag k="surface" v="asphalt"/>
    <tag k="tiger:cfcc" v="A41"/>
    <tag k="tiger:county" v="San Diego, CA"/>
    <tag k="tiger:name_base" v="Louden"/>
    <tag k="tiger:name_type" v="Ln"/>
    <tag k="tiger:reviewed" v="no"/>
  </way>
  <way id="1347756228" version="3" timestamp="2025-01-05T15:23:02Z" changeset="161024783" uid="22137982" user="TeeEn">
    <nd ref="7271149170"/>
    <nd ref="11871484713"/>
    <nd ref="11871484714"/>
    <nd ref="11871484715"/>
    <nd ref="11871484716"/>
    <nd ref="11871484717"/>
    <nd ref="11871484718"/>
    <nd ref="11871484719"/>
    <nd ref="11871484720"/>
    <nd ref="11871484722"/>
    <nd ref="11871484721"/>
    <nd ref="11890712385"/>
    <nd ref="7257194235"/>
    <tag k="highway" v="residential"/>
    <tag k="lane_markings" v="no"/>
    <tag k="name" v="Louden Lane"/>
    <tag k="sidewalk:both" v="separate"/>
    <tag k="surface" v="asphalt"/>
    <tag k="tiger:cfcc" v="A41"/>
    <tag k="tiger:county" v="San Diego, CA"/>
    <tag k="tiger:name_base" v="Louden"/>
    <tag k="tiger:name_type" v="Ln"/>
    <tag k="tiger:reviewed" v="no"/>
  </way>
  <way id="1347881572" version="3" timestamp="2025-01-09T10:06:45Z" changeset="161159196" uid="22137982" user="TeeEn">
    <nd ref="49119346"/>
    <nd ref="7271149164"/>
    <tag k="highway" v="residential"/>
    <tag k="lane_markings" v="no"/>
    <tag k="name" v="Louden Lane"/>
    <tag k="parking:both" v="no"/>
    <tag k="surface" v="asphalt"/>
    <tag k="tiger:cfcc" v="A41"/>
    <tag k="tiger:county" v="San Diego, CA"/>
    <tag k="tiger:name_base" v="Louden"/>
    <tag k="tiger:name_type" v="Ln"/>
    <tag k="tiger:reviewed" v="no"/>
  </way>
  <way id="1347881576" version="3" timestamp="2025-01-09T10:04:27Z" changeset="161159196" uid="22137982" user="TeeEn">
    <nd ref="11934180036"/>
    <nd ref="49317431"/>
    <tag k="highway" v="residential"/>
    <tag k="lane_markings" v="no"/>
    <tag k="name" v="Fern Avenue"/>
    <tag k="parking:both" v="no"/>
    <tag k="surface" v="asphalt"/>
    <tag k="tiger:cfcc" v="A41"/>
    <tag k="tiger:county" v="San Diego, CA"/>
    <tag k="tiger:name_base" v="Fern"/>
    <tag k="tiger:name_type" v="Ave"/>
  </way>
  <way id="1347881577" version="4" timestamp="2025-01-03T06:52:53Z" changeset="160934783" uid="22137982" user="TeeEn">
    <nd ref="11890712553"/>
    <nd ref="7257194247"/>
    <nd ref="7257186698"/>
    <nd ref="7257194249"/>
    <nd ref="7271149167"/>
    <tag k="highway" v="residential"/>
    <tag k="lane_markings" v="no"/>
    <tag k="name" v="Fern Avenue"/>
    <tag k="sidewalk:both" v="separate"/>
    <tag k="surface" v="asphalt"/>
    <tag k="tiger:cfcc" v="A41"/>
    <tag k="tiger:county" v="San Diego, CA"/>
    <tag k="tiger:name_base" v="Fern"/>
    <tag k="tiger:name_type" v="Ave"/>
  </way>
  <way id="1347881578" version="3" timestamp="2025-01-09T10:06:20Z" changeset="161159196" uid="22137982" user="TeeEn">
    <nd ref="7271149167"/>
    <nd ref="49317422"/>
    <nd ref="7271149168"/>
    <tag k="highway" v="residential"/>
    <tag k="lane_markings" v="no"/>
    <tag k="name" v="Fern Avenue"/>
    <tag k="parking:both" v="no"/>
    <tag k="surface" v="asphalt"/>
    <tag k="tiger:cfcc" v="A41"/>
    <tag k="tiger:county" v="San Diego, CA"/>
    <tag k="tiger:name_base" v="Fern"/>
    <tag k="tiger:name_type" v="Ave"/>
  </way>
  <way id="1347881584" version="3" timestamp="2025-01-03T06:43:09Z" changeset="160934783" uid="22137982" user="TeeEn">
    <nd ref="49317418"/>
    <nd ref="7257194248"/>
    <nd ref="7271149166"/>
    <tag k="highway" v="residential"/>
    <tag k="lane_markings" v="no"/>
    <tag k="name" v="Fern Avenue"/>
    <tag k="sidewalk:both" v="separate"/>
    <tag k="surface" v="asphalt"/>
    <tag k="tiger:cfcc" v="A41"/>
    <tag k="tiger:county" v="San Diego, CA"/>
    <tag k="tiger:name_base" v="Fern"/>
    <tag k="tiger:name_type" v="Ave"/>
  </way>
  <way id="1347881585" version="3" timestamp="2025-01-09T10:06:13Z" changeset="161159196" uid="22137982" user="TeeEn">
    <nd ref="7271149166"/>
    <nd ref="49317419"/>
    <nd ref="11890712553"/>
    <tag k="highway" v="residential"/>
    <tag k="lane_markings" v="no"/>
    <tag k="name" v="Fern Avenue"/>
    <tag k="parking:both" v="no"/>
    <tag k="surface" v="asphalt"/>
    <tag k="tiger:cfcc" v="A41"/>
    <tag k="tiger:county" v="San Diego, CA"/>
    <tag k="tiger:name_base" v="Fern"/>
    <tag k="tiger:name_type" v="Ave"/>
  </way>
  <way id="1347881586" version="3" timestamp="2025-01-09T10:06:01Z" changeset="161159196" uid="22137982" user="TeeEn">
    <nd ref="11934180027"/>
    <nd ref="49126171"/>
    <tag k="cycleway" v="shared_lane"/>
    <tag k="highway" v="residential"/>
    <tag k="lane_markings" v="no"/>
    <tag k="maxspeed" v="25 mph"/>
    <tag k="name" v="5th Street"/>
    <tag k="parking:both" v="no"/>
    <tag k="surface" v="asphalt"/>
    <tag k="tiger:cfcc" v="A41"/>
    <tag k="tiger:county" v="San Diego, CA"/>
    <tag k="tiger:name_base" v="5th"/>
    <tag k="tiger:name_type" v="St"/>
  </way>
  <way id="1347881591" version="3" timestamp="2025-01-09T10:06:04Z" changeset="161159196" uid="22137982" user="TeeEn">
    <nd ref="49126171"/>
    <nd ref="7271149175"/>
    <tag k="cycleway" v="shared_lane"/>
    <tag k="highway" v="residential"/>
    <tag k="lane_markings" v="no"/>
    <tag k="maxspeed" v="25 mph"/>
    <tag k="name" v="5th Street"/>
    <tag k="parking:both" v="no"/>
    <tag k="surface" v="asphalt"/>
    <tag k="tiger:cfcc" v="A41"/>
    <tag k="tiger:county" v="San Diego, CA"/>
    <tag k="tiger:name_base" v="5th"/>
    <tag k="tiger:name_type" v="St"/>
  </way>
  <way id="1347881592" version="2" timestamp="2025-01-03T06:45:16Z" changeset="160934783" uid="22137982" user="TeeEn">
    <nd ref="7271153187"/>
    <nd ref="49151224"/>
    <nd ref="7271153188"/>
    <tag k="cycleway" v="shared_lane"/>
    <tag k="highway" v="residential"/>
    <tag k="lane_markings" v="no"/>
    <tag k="maxspeed" v="25 mph"/>
    <tag k="name" v="5th Street"/>
    <tag k="surface" v="asphalt"/>
    <tag k="tiger:cfcc" v="A41"/>
    <tag k="tiger:county" v="San Diego, CA"/>
    <tag k="tiger:name_base" v="5th"/>
    <tag k="tiger:name_type" v="St"/>
  </way>
  <way id="1347881593" version="5" timestamp="2025-01-03T06:46:45Z" changeset="160934783" uid="22137982" user="TeeEn">
    <nd ref="7271153188"/>
    <nd ref="11871485031"/>
    <nd ref="11871485030"/>
    <nd ref="11871485029"/>
    <nd ref="11871485028"/>
    <nd ref="11871484971"/>
    <nd ref="11871485027"/>
    <nd ref="11871484970"/>
    <nd ref="11871485026"/>
    <nd ref="11871484969"/>
    <nd ref="11871485025"/>
    <nd ref="11871484968"/>
    <nd ref="11871485024"/>
    <nd ref="12468010721"/>
    <tag k="cycleway" v="shared_lane"/>
    <tag k="highway" v="residential"/>
    <tag k="lane_markings" v="no"/>
    <tag k="maxspeed" v="25 mph"/>
    <tag k="name" v="5th Street"/>
    <tag k="sidewalk:both" v="separate"/>
    <tag k="surface" v="asphalt"/>
    <tag k="tiger:cfcc" v="A41"/>
    <tag k="tiger:county" v="San Diego, CA"/>
    <tag k="tiger:name_base" v="5th"/>
    <tag k="tiger:name_type" v="St"/>
  </way>
  <way id="1347881598" version="2" timestamp="2025-01-03T06:46:52Z" changeset="160934783" uid="22137982" user="TeeEn">
    <nd ref="12467967741"/>
    <nd ref="49074133"/>
    <tag k="cycleway" v="shared_lane"/>
    <tag k="highway" v="residential"/>
    <tag k="lane_markings" v="no"/>
    <tag k="maxspeed" v="25 mph"/>
    <tag k="name" v="5th Street"/>
    <tag k="surface" v="asphalt"/>
    <tag k="tiger:cfcc" v="A41"/>
    <tag k="tiger:county" v="San Diego, CA"/>
    <tag k="tiger:name_base" v="5th"/>
    <tag k="tiger:name_type" v="St"/>
  </way>
  <way id="1347881605" version="3" timestamp="2025-01-03T06:46:50Z" changeset="160934783" uid="22137982" user="TeeEn">
    <nd ref="12468010721"/>
    <nd ref="12467967741"/>
    <tag k="cycleway" v="shared_lane"/>
    <tag k="highway" v="residential"/>
    <tag k="lane_markings" v="no"/>
    <tag k="maxspeed" v="25 mph"/>
    <tag k="name" v="5th Street"/>
    <tag k="sidewalk:left" v="separate"/>
    <tag k="surface" v="asphalt"/>
    <tag k="tiger:cfcc" v="A41"/>
    <tag k="tiger:county" v="San Diego, CA"/>
    <tag k="tiger:name_base" v="5th"/>
    <tag k="tiger:name_type" v="St"/>
  </way>
  <way id="1347881620" version="2" timestamp="2025-01-09T10:06:58Z" changeset="161159196" uid="22137982" user="TeeEn">
    <nd ref="49119343"/>
    <nd ref="7558164394"/>
    <tag k="cycleway" v="shared_lane"/>
    <tag k="highway" v="residential"/>
    <tag k="maxspeed" v="25 mph"/>
    <tag k="name" v="5th Street"/>
    <tag k="parking:both" v="no"/>
    <tag k="surface" v="asphalt"/>
    <tag k="tiger:cfcc" v="A41"/>
    <tag k="tiger:county" v="San Diego, CA"/>
    <tag k="tiger:name_base" v="5th"/>
    <tag k="tiger:name_type" v="St"/>
  </way>
  <way id="1347881628" version="3" timestamp="2025-01-09T09:37:16Z" changeset="161159196" uid="22137982" user="TeeEn">
    <nd ref="7558164392"/>
    <nd ref="7271149165"/>
    <tag k="highway" v="residential"/>
    <tag k="lane_markings" v="no"/>
    <tag k="name" v="California Street"/>
    <tag k="parking:both" v="no"/>
    <tag k="surface" v="asphalt"/>
    <tag k="tiger:cfcc" v="A41"/>
    <tag k="tiger:county" v="San Diego, CA"/>
    <tag k="tiger:name_base" v="California"/>
    <tag k="tiger:name_type" v="St"/>
    <tag k="tiger:reviewed" v="no"/>
  </way>
  <way id="1347881629" version="3" timestamp="2025-01-09T10:05:50Z" changeset="161159196" uid="22137982" user="TeeEn">
    <nd ref="7271149176"/>
    <nd ref="49126173"/>
    <tag k="highway" v="residential"/>
    <tag k="lane_markings" v="no"/>
    <tag k="name" v="California Street"/>
    <tag k="parking:both" v="no"/>
    <tag k="surface" v="asphalt"/>
    <tag k="tiger:cfcc" v="A41"/>
    <tag k="tiger:county" v="San Diego, CA"/>
    <tag k="tiger:name_base" v="California"/>
    <tag k="tiger:name_type" v="St"/>
    <tag k="tiger:reviewed" v="no"/>
  </way>
  <way id="1347881631" version="3" timestamp="2025-01-09T10:05:53Z" changeset="161159196" uid="22137982" user="TeeEn">
    <nd ref="49126173"/>
    <nd ref="7271149177"/>
    <tag k="highway" v="residential"/>
    <tag k="lane_markings" v="no"/>
    <tag k="name" v="California Street"/>
    <tag k="parking:both" v="no"/>
    <tag k="surface" v="asphalt"/>
    <tag k="tiger:cfcc" v="A41"/>
    <tag k="tiger:county" v="San Diego, CA"/>
    <tag k="tiger:name_base" v="California"/>
    <tag k="tiger:name_type" v="St"/>
    <tag k="tiger:reviewed" v="no"/>
  </way>
  <way id="1347881642" version="3" timestamp="2025-01-09T10:05:13Z" changeset="161159196" uid="22137982" user="TeeEn">
    <nd ref="11861782650"/>
    <nd ref="49074135"/>
    <tag k="highway" v="residential"/>
    <tag k="lane_markings" v="no"/>
    <tag k="name" v="California Street"/>
    <tag k="parking:both" v="no"/>
    <tag k="surface" v="asphalt"/>
    <tag k="tiger:cfcc" v="A41"/>
    <tag k="tiger:county" v="San Diego, CA"/>
    <tag k="tiger:name_base" v="California"/>
    <tag k="tiger:name_type" v="St"/>
    <tag k="tiger:reviewed" v="no"/>
  </way>
  <way id="1347882926" version="2" timestamp="2025-01-03T06:46:55Z" changeset="160934783" uid="22137982" user="TeeEn">
    <nd ref="49074133"/>
    <nd ref="12468031935"/>
    <tag k="cycleway" v="shared_lane"/>
    <tag k="highway" v="residential"/>
    <tag k="lane_markings" v="no"/>
    <tag k="name" v="Iris Avenue"/>
    <tag k="surface" v="asphalt"/>
    <tag k="tiger:cfcc" v="A41"/>
    <tag k="tiger:county" v="San Diego, CA"/>
    <tag k="tiger:name_base" v="Iris"/>
    <tag k="tiger:name_type" v="Ave"/>
  </way>
  <way id="1347882946" version="2" timestamp="2025-01-03T07:19:11Z" changeset="160934783" uid="22137982" user="TeeEn">
    <nd ref="12468013786"/>
    <nd ref="49074141"/>
    <tag k="cycleway" v="shared_lane"/>
    <tag k="highway" v="residential"/>
    <tag k="lane_markings" v="no"/>
    <tag k="name" v="Iris Avenue"/>
    <tag k="surface" v="asphalt"/>
    <tag k="tiger:cfcc" v="A41"/>
    <tag k="tiger:county" v="San Diego, CA"/>
    <tag k="tiger:name_base" v="Iris"/>
    <tag k="tiger:name_type" v="Ave"/>
  </way>
  <way id="1348169683" version="3" timestamp="2025-01-09T09:37:30Z" changeset="161159196" uid="22137982" user="TeeEn">
    <nd ref="7271153252"/>
    <nd ref="7271153253"/>
    <nd ref="11871484960"/>
    <nd ref="5533727530"/>
    <nd ref="11871484961"/>
    <nd ref="11871484962"/>
    <nd ref="11803997321"/>
    <nd ref="11871484963"/>
    <nd ref="11871484964"/>
    <nd ref="11871582032"/>
    <nd ref="11871484965"/>
    <nd ref="11871484966"/>
    <nd ref="11871484967"/>
    <nd ref="11871484992"/>
    <nd ref="11871484993"/>
    <tag k="cycleway" v="shared_lane"/>
    <tag k="highway" v="residential"/>
    <tag k="lanes" v="2"/>
    <tag k="maxspeed" v="25 mph"/>
    <tag k="name" v="5th Street"/>
    <tag k="sidewalk:both" v="separate"/>
    <tag k="surface" v="asphalt"/>
    <tag k="tiger:cfcc" v="A41"/>
    <tag k="tiger:county" v="San Diego, CA"/>
    <tag k="tiger:name_base" v="5th"/>
    <tag k="tiger:name_type" v="St"/>
  </way>
  <way id="1349732629" version="2" timestamp="2025-01-09T08:38:53Z" changeset="161159196" uid="22137982" user="TeeEn">
    <nd ref="11331902170"/>
    <nd ref="49119355"/>
    <tag k="cycleway:right" v="lane"/>
    <tag k="highway" v="secondary"/>
    <tag k="lanes" v="3"/>
    <tag k="maxspeed" v="35 mph"/>
    <tag k="maxspeed:type" v="sign"/>
    <tag k="name" v="Imperial Beach Boulevard"/>
    <tag k="oneway" v="yes"/>
    <tag k="parking:both" v="no"/>
    <tag k="sidewalk:left" v="no"/>
    <tag k="sidewalk:right" v="separate"/>
    <tag k="surface" v="asphalt"/>
    <tag k="tiger:cfcc" v="A41"/>
    <tag k="tiger:county" v="San Diego, CA"/>
    <tag k="tiger:name_base" v="Imperial Beach"/>
    <tag k="tiger:name_type" v="Blvd"/>
    <tag k="tiger:reviewed" v="no"/>
    <tag k="turn:lanes" v="left||"/>
  </way>
  <way id="1349740302" version="2" timestamp="2025-01-09T09:33:10Z" changeset="161159196" uid="22137982" user="TeeEn">
    <nd ref="49119351"/>
    <nd ref="11803959333"/>
    <tag k="highway" v="residential"/>
    <tag k="lane_markings" v="no"/>
    <tag k="name" v="Delaware Street"/>
    <tag k="parking:both" v="no"/>
    <tag k="sidewalk:both" v="separate"/>
    <tag k="surface" v="asphalt"/>
    <tag k="tiger:cfcc" v="A41"/>
    <tag k="tiger:county" v="San Diego, CA"/>
    <tag k="tiger:name_base" v="Delaware"/>
    <tag k="tiger:name_type" v="St"/>
    <tag k="tiger:reviewed" v="no"/>
  </way>
  <way id="1349740352" version="2" timestamp="2025-01-09T09:33:46Z" changeset="161159196" uid="22137982" user="TeeEn">
    <nd ref="48958972"/>
    <nd ref="11803959362"/>
    <tag k="highway" v="residential"/>
    <tag k="lane_markings" v="no"/>
    <tag k="name" v="7th Street"/>
    <tag k="parking:both" v="no"/>
    <tag k="sidewalk:both" v="separate"/>
    <tag k="surface" v="asphalt"/>
    <tag k="tiger:cfcc" v="A41"/>
    <tag k="tiger:county" v="San Diego, CA"/>
    <tag k="tiger:name_base" v="7th"/>
    <tag k="tiger:name_type" v="St"/>
    <tag k="tiger:reviewed" v="no"/>
  </way>
  <way id="1349740548" version="2" timestamp="2025-01-09T09:34:59Z" changeset="161159196" uid="22137982" user="TeeEn">
    <nd ref="11331901652"/>
    <nd ref="4343226610"/>
    <nd ref="49119349"/>
    <tag k="cycleway" v="shared_lane"/>
    <tag k="highway" v="residential"/>
    <tag k="lanes" v="2"/>
    <tag k="maxspeed" v="25 mph"/>
    <tag k="name" v="Connecticut Street"/>
    <tag k="parking:both" v="no"/>
    <tag k="sidewalk:both" v="separate"/>
    <tag k="surface" v="asphalt"/>
    <tag k="tiger:cfcc" v="A41"/>
    <tag k="tiger:county" v="San Diego, CA"/>
    <tag k="tiger:name_base" v="Connecticut"/>
    <tag k="tiger:name_type" v="St"/>
  </way>
  <way id="1349740553" version="2" timestamp="2025-01-09T09:35:01Z" changeset="161159196" uid="22137982" user="TeeEn">
    <nd ref="49119349"/>
    <nd ref="11331901657"/>
    <tag k="cycleway" v="shared_lane"/>
    <tag k="highway" v="residential"/>
    <tag k="lane_markings" v="no"/>
    <tag k="maxspeed" v="25 mph"/>
    <tag k="name" v="Connecticut Street"/>
    <tag k="parking:both" v="no"/>
    <tag k="sidewalk:both" v="separate"/>
    <tag k="surface" v="asphalt"/>
    <tag k="tiger:cfcc" v="A41"/>
    <tag k="tiger:county" v="San Diego, CA"/>
    <tag k="tiger:name_base" v="Connecticut"/>
    <tag k="tiger:name_type" v="St"/>
  </way>
  <way id="1349740731" version="2" timestamp="2025-01-09T09:35:48Z" changeset="161159196" uid="22137982" user="TeeEn">
    <nd ref="11331901659"/>
    <nd ref="49119349"/>
    <tag k="cycleway:left" v="no"/>
    <tag k="cycleway:right" v="lane"/>
    <tag k="highway" v="secondary"/>
    <tag k="lanes" v="3"/>
    <tag k="maxspeed" v="35 mph"/>
    <tag k="name" v="Imperial Beach Boulevard"/>
    <tag k="oneway" v="yes"/>
    <tag k="parking:both" v="no"/>
    <tag k="sidewalk:left" v="no"/>
    <tag k="sidewalk:right" v="separate"/>
    <tag k="source:maxspeed" v="sign"/>
    <tag k="surface" v="asphalt"/>
    <tag k="tiger:cfcc" v="A41"/>
    <tag k="tiger:county" v="San Diego, CA"/>
    <tag k="tiger:name_base" v="Imperial Beach"/>
    <tag k="tiger:name_type" v="Blvd"/>
    <tag k="tiger:reviewed" v="no"/>
    <tag k="turn:lanes" v="left||"/>
  </way>
  <way id="1349740735" version="1" timestamp="2025-01-09T09:35:35Z" changeset="161159196" uid="22137982" user="TeeEn">
    <nd ref="11331901655"/>
    <nd ref="48958970"/>
    <tag k="cycleway:left" v="no"/>
    <tag k="cycleway:right" v="lane"/>
    <tag k="highway" v="secondary"/>
    <tag k="lanes" v="1"/>
    <tag k="maxspeed" v="35 mph"/>
    <tag k="maxspeed:type" v="sign"/>
    <tag k="name" v="Imperial Beach Boulevard"/>
    <tag k="oneway" v="yes"/>
    <tag k="parking:left" v="no"/>
    <tag k="sidewalk:left" v="no"/>
    <tag k="sidewalk:right" v="separate"/>
    <tag k="source:maxspeed" v="sign"/>
    <tag k="surface" v="asphalt"/>
    <tag k="tiger:cfcc" v="A41"/>
    <tag k="tiger:county" v="San Diego, CA"/>
    <tag k="tiger:name_base" v="Imperial Beach"/>
    <tag k="tiger:name_type" v="Blvd"/>
    <tag k="tiger:reviewed" v="no"/>
  </way>
  <way id="1349740788" version="2" timestamp="2025-01-09T09:36:30Z" changeset="161159196" uid="22137982" user="TeeEn">
    <nd ref="49119350"/>
    <nd ref="11803959351"/>
    <nd ref="11803959352"/>
    <tag k="highway" v="residential"/>
    <tag k="lane_markings" v="no"/>
    <tag k="name" v="Delaware Street"/>
    <tag k="oneway" v="yes"/>
    <tag k="parking:both" v="no"/>
    <tag k="surface" v="asphalt"/>
    <tag k="tiger:cfcc" v="A41"/>
    <tag k="tiger:county" v="San Diego, CA"/>
    <tag k="tiger:name_base" v="Delaware"/>
    <tag k="tiger:name_type" v="St"/>
    <tag k="tiger:reviewed" v="no"/>
  </way>
  <way id="1349741055" version="2" timestamp="2025-01-09T09:37:35Z" changeset="161159196" uid="22137982" user="TeeEn">
    <nd ref="7558164394"/>
    <nd ref="7271153252"/>
    <tag k="cycleway" v="shared_lane"/>
    <tag k="highway" v="residential"/>
    <tag k="lanes" v="2"/>
    <tag k="maxspeed" v="25 mph"/>
    <tag k="name" v="5th Street"/>
    <tag k="parking:both" v="no"/>
    <tag k="sidewalk:both" v="separate"/>
    <tag k="surface" v="asphalt"/>
    <tag k="tiger:cfcc" v="A41"/>
    <tag k="tiger:county" v="San Diego, CA"/>
    <tag k="tiger:name_base" v="5th"/>
    <tag k="tiger:name_type" v="St"/>
  </way>
  <way id="1349741333" version="2" timestamp="2025-01-09T09:39:05Z" changeset="161159196" uid="22137982" user="TeeEn">
    <nd ref="49119340"/>
    <nd ref="2440995189"/>
    <tag k="cycleway" v="shared_lane"/>
    <tag k="highway" v="residential"/>
    <tag k="lanes" v="2"/>
    <tag k="name" v="3rd Street"/>
    <tag k="parking:both" v="no"/>
    <tag k="sidewalk:both" v="separate"/>
    <tag k="surface" v="asphalt"/>
    <tag k="tiger:cfcc" v="A41"/>
    <tag k="tiger:county" v="San Diego, CA"/>
    <tag k="tiger:name_base" v="3rd"/>
    <tag k="tiger:name_type" v="St"/>
  </way>
  <relation id="12920251" version="2" timestamp="2024-04-24T07:04:43Z" changeset="150427426" uid="11609320" user="telcodude">
    <member type="way" ref="790671881" role="outer"/>
    <member type="way" ref="961538382" role="outer"/>
    <tag k="addr:city" v="Imperial Beach"/>
    <tag k="addr:housenumber" v="425"/>
    <tag k="addr:postcode" v="91932"/>
    <tag k="addr:state" v="CA"/>
    <tag k="addr:street" v="Imperial Beach Boulevard"/>
    <tag k="air_conditioning" v="yes"/>
    <tag k="amenity" v="community_centre"/>
    <tag k="building" v="yes"/>
    <tag k="name" v="Sports Park Community Center"/>
    <tag k="operator" v="City of Imperial Beach"/>
    <tag k="operator:type" v="public"/>
    <tag k="type" v="multipolygon"/>
    <tag k="website" v="https://www.imperialbeachca.gov/568/Community-Centers"/>
  </relation>

</osm>
