<?xml version="1.0" encoding="UTF-8"?>
<osm version="0.6" generator="Overpass API 0.7.62.5 1bd436f1">
<note>The data included in this document is from www.openstreetmap.org. The data is made available under ODbL.</note>
<meta osm_base="2025-03-25T15:41:53Z" areas="2025-02-06T02:17:44Z"/>

  <node id="4486776526" lat="52.3184303" lon="-0.2848117" version="2" timestamp="2024-05-12T12:17:20Z" changeset="151222620" uid="95856" user="john paul jones &amp; gringo">
    <tag k="addr:city" v="Huntingdon"/>
    <tag k="addr:country" v="GB"/>
    <tag k="addr:housename" v="Redwood Farm"/>
    <tag k="addr:postcode" v="PE28 0AP"/>
    <tag k="addr:street" v="Grafham Road"/>
    <tag k="addr:suburb" v="Ellington Thorpe"/>
    <tag k="name" v="Redwood Farm"/>
    <tag k="place" v="farm"/>
  </node>
  <node id="4486796221" lat="52.3267303" lon="-0.2995865" version="2" timestamp="2024-05-12T12:17:20Z" changeset="151222620" uid="95856" user="john paul jones &amp; gringo">
    <tag k="addr:city" v="Huntingdon"/>
    <tag k="addr:country" v="GB"/>
    <tag k="addr:housename" v="Church Farm"/>
    <tag k="addr:postcode" v="PE28 0AW"/>
    <tag k="addr:street" v="Grafham Road"/>
    <tag k="addr:suburb" v="Ellington Thorpe"/>
    <tag k="name" v="Church Farm"/>
    <tag k="place" v="farm"/>
  </node>
  <way id="4279134" version="20" timestamp="2025-03-12T11:31:17Z" changeset="163523362" uid="5229644" user="Nathan_A_RF">
    <nd ref="569882"/>
    <nd ref="12655889540"/>
    <nd ref="1551734611"/>
    <nd ref="1551734660"/>
    <nd ref="4019733942"/>
    <tag k="bicycle" v="yes"/>
    <tag k="expressway" v="yes"/>
    <tag k="highway" v="trunk_link"/>
    <tag k="lane_markings" v="no"/>
    <tag k="lit" v="no"/>
    <tag k="maxweight" v="18"/>
    <tag k="name" v="Thrapston Road"/>
    <tag k="national_highways:area" v="8"/>
    <tag k="oneway" v="yes"/>
    <tag k="operator" v="National Highways"/>
    <tag k="operator:wikidata" v="Q5760006"/>
    <tag k="source" v="survey"/>
  </way>
  <way id="31007305" version="2" timestamp="2025-01-07T16:57:43Z" changeset="161103477" uid="5229644" user="Nathan_A_RF">
    <nd ref="344779847"/>
    <nd ref="344779848"/>
    <tag k="bridge" v="yes"/>
    <tag k="highway" v="unclassified"/>
    <tag k="layer" v="1"/>
  </way>
  <way id="31007307" version="5" timestamp="2022-05-28T16:21:18Z" changeset="121624203" uid="7463" user="kesterlester">
    <nd ref="344779848"/>
    <nd ref="344779850"/>
    <nd ref="344779851"/>
    <nd ref="6902770972"/>
    <nd ref="4604388414"/>
    <nd ref="344779852"/>
    <nd ref="344779853"/>
    <nd ref="344779854"/>
    <nd ref="344779855"/>
    <nd ref="344779857"/>
    <nd ref="9776994240"/>
    <nd ref="344779859"/>
    <nd ref="344779860"/>
    <tag k="highway" v="unclassified"/>
    <tag k="name" v="Woolley Hill"/>
  </way>
  <way id="31143849" version="6" timestamp="2016-06-30T22:36:15Z" changeset="40404991" uid="90142" user="andy mackey">
    <nd ref="8583464"/>
    <nd ref="1368318261"/>
    <nd ref="8583463"/>
    <nd ref="8583462"/>
    <nd ref="8583461"/>
    <nd ref="1368318270"/>
    <nd ref="8583460"/>
    <nd ref="1368318294"/>
    <nd ref="1368318291"/>
    <nd ref="8583459"/>
    <nd ref="346378468"/>
    <nd ref="1228387851"/>
    <nd ref="1145363114"/>
    <nd ref="4274576203"/>
    <nd ref="346378482"/>
    <nd ref="8583458"/>
    <tag k="highway" v="tertiary"/>
    <tag k="name" v="High Street"/>
    <tag k="note" v="Not sure what highway type this is"/>
  </way>
  <way id="31143850" version="12" timestamp="2024-06-14T20:16:37Z" changeset="152697215" uid="90142" user="andy mackey">
    <nd ref="4019733942"/>
    <nd ref="8583468"/>
    <nd ref="4284991155"/>
    <nd ref="8583467"/>
    <nd ref="4284991156"/>
    <nd ref="8583466"/>
    <nd ref="8583465"/>
    <nd ref="1368318293"/>
    <nd ref="8583464"/>
    <nd ref="346375984"/>
    <nd ref="346375981"/>
    <nd ref="11981697061"/>
    <nd ref="1368353626"/>
    <nd ref="346375980"/>
    <nd ref="346375979"/>
    <nd ref="1368353627"/>
    <nd ref="1368681616"/>
    <nd ref="346375977"/>
    <nd ref="346378435"/>
    <nd ref="346375976"/>
    <nd ref="7839130044"/>
    <nd ref="7839130046"/>
    <nd ref="346375975"/>
    <nd ref="7839130043"/>
    <nd ref="346375972"/>
    <nd ref="1551734586"/>
    <nd ref="346380377"/>
    <tag k="highway" v="tertiary"/>
    <tag k="maxweight" v="18"/>
    <tag k="name" v="Thrapston Road"/>
    <tag k="source" v="survey"/>
  </way>
  <way id="31143852" version="3" timestamp="2024-06-14T20:16:37Z" changeset="152697215" uid="90142" user="andy mackey">
    <nd ref="346375984"/>
    <nd ref="1368681612"/>
    <nd ref="346375994"/>
    <tag k="highway" v="residential"/>
    <tag k="name" v="Malting Lane"/>
    <tag k="source" v="survey"/>
  </way>
  <way id="31143904" version="3" timestamp="2020-08-24T07:58:02Z" changeset="89841216" uid="10252551" user="amanura">
    <nd ref="346378435"/>
    <nd ref="346378448"/>
    <nd ref="1368353630"/>
    <nd ref="346378449"/>
    <nd ref="1368353642"/>
    <nd ref="346378452"/>
    <nd ref="346378453"/>
    <nd ref="7839130045"/>
    <nd ref="346378455"/>
    <nd ref="8583458"/>
    <tag k="highway" v="tertiary"/>
    <tag k="name" v="High Street"/>
    <tag k="source" v="survey"/>
  </way>
  <way id="31143905" version="3" timestamp="2019-02-17T00:43:27Z" changeset="67266772" uid="5173844" user="ndrw6">
    <nd ref="346378453"/>
    <nd ref="346378458"/>
    <nd ref="1368353661"/>
    <nd ref="1368353641"/>
    <nd ref="346378460"/>
    <nd ref="6283630215"/>
    <tag k="highway" v="residential"/>
    <tag k="name" v="Hillside Close"/>
    <tag k="source" v="survey"/>
  </way>
  <way id="31143906" version="3" timestamp="2011-07-21T07:01:46Z" changeset="8785430" uid="90142" user="andy mackey">
    <nd ref="346378468"/>
    <nd ref="1368318290"/>
    <nd ref="1368692023"/>
    <nd ref="346378470"/>
    <nd ref="1368318267"/>
    <nd ref="346378471"/>
    <nd ref="1368318278"/>
    <nd ref="346378474"/>
    <nd ref="1368318275"/>
    <nd ref="1368318263"/>
    <nd ref="1368318272"/>
    <tag k="highway" v="residential"/>
    <tag k="name" v="Saint Peters Way"/>
    <tag k="source" v="survey"/>
  </way>
  <way id="31143907" version="2" timestamp="2021-08-20T22:15:38Z" changeset="110008005" uid="11022773" user="GeoFens">
    <nd ref="346378471"/>
    <nd ref="9023899586"/>
    <nd ref="346378476"/>
    <nd ref="9023899587"/>
    <nd ref="346378478"/>
    <tag k="highway" v="residential"/>
    <tag k="name" v="Saint Peters Way"/>
    <tag k="source" v="survey"/>
  </way>
  <way id="31143909" version="21" timestamp="2023-01-09T23:32:31Z" changeset="131083352" uid="490556" user="SomeoneElse2">
    <nd ref="8583458"/>
    <nd ref="1368318289"/>
    <nd ref="1368318280"/>
    <nd ref="9944441108"/>
    <nd ref="355003048"/>
    <nd ref="1368692025"/>
    <nd ref="1145363103"/>
    <nd ref="1145363106"/>
    <nd ref="4274576207"/>
    <nd ref="8583457"/>
    <nd ref="1145363092"/>
    <nd ref="1145363117"/>
    <nd ref="9413144700"/>
    <nd ref="8583456"/>
    <nd ref="1145363112"/>
    <nd ref="1145363089"/>
    <nd ref="8583455"/>
    <nd ref="1368353613"/>
    <nd ref="1368353665"/>
    <nd ref="8583454"/>
    <nd ref="1368353619"/>
    <nd ref="1368353617"/>
    <nd ref="4270074642"/>
    <nd ref="8583453"/>
    <nd ref="1373778815"/>
    <nd ref="8583452"/>
    <nd ref="4270074641"/>
    <nd ref="1373778743"/>
    <nd ref="1373778748"/>
    <nd ref="1373778729"/>
    <nd ref="1368353709"/>
    <nd ref="1368353701"/>
    <nd ref="1373778777"/>
    <nd ref="1373778709"/>
    <nd ref="1373778827"/>
    <nd ref="1373778738"/>
    <nd ref="8583451"/>
    <nd ref="1372427165"/>
    <nd ref="3047914719"/>
    <nd ref="8583450"/>
    <nd ref="8583449"/>
    <nd ref="8032313348"/>
    <nd ref="3047914728"/>
    <nd ref="1372427166"/>
    <nd ref="3047914726"/>
    <nd ref="8583448"/>
    <nd ref="3047914727"/>
    <nd ref="1372427170"/>
    <nd ref="8583447"/>
    <nd ref="3047914720"/>
    <nd ref="3047914724"/>
    <nd ref="3749330760"/>
    <nd ref="1372427172"/>
    <nd ref="8583446"/>
    <nd ref="1372427053"/>
    <nd ref="8583445"/>
    <nd ref="1372427104"/>
    <nd ref="1372427175"/>
    <nd ref="8583444"/>
    <nd ref="8583443"/>
    <nd ref="8583441"/>
    <nd ref="4291187268"/>
    <nd ref="1372427068"/>
    <nd ref="2289557362"/>
    <nd ref="301824577"/>
    <nd ref="10141688429"/>
    <nd ref="8583440"/>
    <nd ref="10141688428"/>
    <nd ref="1228388052"/>
    <tag k="highway" v="tertiary"/>
    <tag k="name" v="Grafham Road"/>
    <tag k="note" v="Not sure what highway type this is"/>
  </way>
  <way id="31143978" version="5" timestamp="2020-11-13T18:56:46Z" changeset="94081276" uid="5229644" user="Nathan_A_RF">
    <nd ref="6766931084"/>
    <nd ref="6767007285"/>
    <nd ref="346380149"/>
    <nd ref="1384954127"/>
    <nd ref="1384954095"/>
    <nd ref="6766931078"/>
    <nd ref="6766931079"/>
    <nd ref="346380151"/>
    <nd ref="1384954040"/>
    <nd ref="1384954126"/>
    <nd ref="6766931080"/>
    <nd ref="6766931081"/>
    <nd ref="6767007288"/>
    <nd ref="8116919135"/>
    <nd ref="1384954031"/>
    <nd ref="1384954101"/>
    <nd ref="6766931082"/>
    <nd ref="6766931083"/>
    <nd ref="346380158"/>
    <nd ref="1384954055"/>
    <nd ref="6766931084"/>
    <tag k="highway" v="tertiary"/>
    <tag k="junction" v="roundabout"/>
  </way>
  <way id="31143979" version="3" timestamp="2011-12-18T10:55:48Z" changeset="10144810" uid="5926" user="c2r">
    <nd ref="346375980"/>
    <nd ref="1368681625"/>
    <nd ref="346380164"/>
    <tag k="highway" v="tertiary"/>
    <tag k="lit" v="no"/>
  </way>
  <way id="31143981" version="2" timestamp="2011-12-18T10:55:47Z" changeset="10144810" uid="5926" user="c2r">
    <nd ref="346380164"/>
    <nd ref="346380169"/>
    <tag k="bridge" v="yes"/>
    <tag k="highway" v="tertiary"/>
    <tag k="layer" v="1"/>
    <tag k="lit" v="no"/>
  </way>
  <way id="31143982" version="4" timestamp="2024-12-13T20:48:22Z" changeset="160261266" uid="16226563" user="VLD303">
    <nd ref="346380169"/>
    <nd ref="346380151"/>
    <tag k="highway" v="tertiary"/>
    <tag k="lit" v="no"/>
    <tag k="oneway" v="yes"/>
  </way>
  <way id="31143983" version="10" timestamp="2025-03-12T11:31:17Z" changeset="163523362" uid="5229644" user="Nathan_A_RF">
    <nd ref="346380174"/>
    <nd ref="12655889541"/>
    <nd ref="346380182"/>
    <nd ref="1384953943"/>
    <tag k="bicycle" v="yes"/>
    <tag k="expressway" v="yes"/>
    <tag k="highway" v="trunk_link"/>
    <tag k="lit" v="no"/>
    <tag k="national_highways:area" v="8"/>
    <tag k="oneway" v="yes"/>
    <tag k="operator" v="National Highways"/>
    <tag k="operator:wikidata" v="Q5760006"/>
    <tag k="ref" v="A14"/>
  </way>
  <way id="31143984" version="3" timestamp="2019-09-02T17:10:20Z" changeset="74008129" uid="5229644" user="Nathan_A_RF">
    <nd ref="346380158"/>
    <nd ref="346380187"/>
    <nd ref="6767007289"/>
    <tag k="highway" v="tertiary"/>
    <tag k="oneway" v="yes"/>
  </way>
  <way id="31143986" version="8" timestamp="2023-09-06T01:18:59Z" changeset="140872892" uid="13341565" user="Falsernet">
    <nd ref="346380192"/>
    <nd ref="346380194"/>
    <tag k="bicycle" v="yes"/>
    <tag k="expressway" v="yes"/>
    <tag k="highway" v="trunk_link"/>
    <tag k="lit" v="no"/>
    <tag k="national_highways:area" v="8"/>
    <tag k="oneway" v="yes"/>
    <tag k="operator" v="National Highways"/>
    <tag k="operator:wikidata" v="Q5760006"/>
    <tag k="ref" v="A14"/>
  </way>
  <way id="31143987" version="3" timestamp="2024-05-02T10:12:24Z" changeset="150786212" uid="21401330" user="Buffaload">
    <nd ref="346380192"/>
    <nd ref="4263260017"/>
    <nd ref="346380204"/>
    <tag k="highway" v="unclassified"/>
    <tag k="name" v="Grove Lane"/>
    <tag k="source" v="survey"/>
  </way>
  <way id="31143988" version="3" timestamp="2024-05-02T10:12:24Z" changeset="150786212" uid="21401330" user="Buffaload">
    <nd ref="346380204"/>
    <nd ref="346380208"/>
    <tag k="bridge" v="yes"/>
    <tag k="highway" v="unclassified"/>
    <tag k="layer" v="1"/>
    <tag k="name" v="Grove Lane"/>
    <tag k="source" v="survey"/>
  </way>
  <way id="31143989" version="8" timestamp="2024-05-02T10:01:32Z" changeset="150785651" uid="21401330" user="Buffaload">
    <nd ref="346380208"/>
    <nd ref="4284991157"/>
    <nd ref="346380209"/>
    <nd ref="4263260021"/>
    <nd ref="346380210"/>
    <nd ref="346380212"/>
    <nd ref="346380214"/>
    <nd ref="346380216"/>
    <nd ref="346380219"/>
    <nd ref="1383629245"/>
    <nd ref="6727094225"/>
    <nd ref="346380224"/>
    <nd ref="346380226"/>
    <nd ref="346380227"/>
    <nd ref="346380228"/>
    <nd ref="346380230"/>
    <nd ref="346380232"/>
    <tag k="highway" v="unclassified"/>
    <tag k="name" v="Grove Lane"/>
    <tag k="source" v="survey"/>
    <tag k="surface" v="asphalt"/>
  </way>
  <way id="99000433" version="2" timestamp="2011-07-21T07:01:47Z" changeset="8785430" uid="90142" user="andy mackey">
    <nd ref="1145363121"/>
    <nd ref="1145363111"/>
    <nd ref="1145363116"/>
    <nd ref="1368692030"/>
    <nd ref="1145363117"/>
    <tag k="highway" v="residential"/>
    <tag k="source" v="os_street_view"/>
    <tag k="survey" v="no"/>
  </way>
  <way id="99000434" version="3" timestamp="2019-09-03T10:35:33Z" changeset="74032930" uid="10219377" user="pravalg">
    <nd ref="1145363106"/>
    <nd ref="1145363110"/>
    <nd ref="1368692021"/>
    <nd ref="1368692027"/>
    <nd ref="1368692014"/>
    <nd ref="6769030893"/>
    <nd ref="1368692031"/>
    <nd ref="1145363100"/>
    <nd ref="1145363099"/>
    <nd ref="1368692024"/>
    <nd ref="1145363096"/>
    <nd ref="1368692032"/>
    <nd ref="1368692011"/>
    <nd ref="1145363116"/>
    <tag k="highway" v="residential"/>
    <tag k="name" v="Windmill Close"/>
    <tag k="source" v="os_street_view"/>
    <tag k="survey" v="no"/>
  </way>
  <way id="99000435" version="3" timestamp="2022-01-11T11:04:44Z" changeset="116019314" uid="281267" user="smb1001">
    <nd ref="1145363109"/>
    <nd ref="1145363119"/>
    <nd ref="1145363120"/>
    <nd ref="9409969780"/>
    <tag k="highway" v="residential"/>
    <tag k="name" v="The Green"/>
    <tag k="source" v="os_street_view"/>
    <tag k="survey" v="no"/>
  </way>
  <way id="99000436" version="2" timestamp="2022-01-12T16:26:55Z" changeset="116073614" uid="281267" user="smb1001">
    <nd ref="1145363115"/>
    <nd ref="1145363095"/>
    <nd ref="9413144791"/>
    <nd ref="9413144579"/>
    <nd ref="9413144564"/>
    <nd ref="1145363112"/>
    <tag k="highway" v="residential"/>
    <tag k="name" v="Parson's Drive"/>
    <tag k="source" v="os_street_view"/>
    <tag k="survey" v="no"/>
  </way>
  <way id="99000437" version="3" timestamp="2019-02-17T00:43:28Z" changeset="67266772" uid="5173844" user="ndrw6">
    <nd ref="1145363094"/>
    <nd ref="6283630234"/>
    <nd ref="6283630235"/>
    <nd ref="1373778845"/>
    <nd ref="1145363102"/>
    <nd ref="6283630233"/>
    <nd ref="1145363089"/>
    <tag k="highway" v="residential"/>
    <tag k="name" v="Spinney Field"/>
    <tag k="source" v="os_street_view"/>
    <tag k="survey" v="no"/>
  </way>
  <way id="99000439" version="3" timestamp="2016-06-30T22:36:15Z" changeset="40404991" uid="90142" user="andy mackey">
    <nd ref="1145363107"/>
    <nd ref="4274576204"/>
    <nd ref="1368353608"/>
    <nd ref="1145363109"/>
    <nd ref="1145363092"/>
    <tag k="highway" v="residential"/>
    <tag k="name" v="Green Lane"/>
    <tag k="source" v="os_street_view"/>
    <tag k="survey" v="no"/>
  </way>
  <way id="99000440" version="4" timestamp="2022-08-10T08:41:34Z" changeset="124719032" uid="14512471" user="SOWMMGAD">
    <nd ref="1145363104"/>
    <nd ref="9944441101"/>
    <nd ref="9944441103"/>
    <nd ref="1145363108"/>
    <nd ref="9409969780"/>
    <nd ref="9409969897"/>
    <nd ref="1145363103"/>
    <tag k="highway" v="residential"/>
    <tag k="name" v="Church Lane"/>
    <tag k="source" v="os_street_view"/>
    <tag k="survey" v="no"/>
  </way>
  <way id="106809844" version="4" timestamp="2011-07-21T07:01:47Z" changeset="8785430" uid="90142" user="andy mackey">
    <nd ref="1145363111"/>
    <nd ref="1368692028"/>
    <tag k="highway" v="residential"/>
  </way>
  <way id="118391359" version="10" timestamp="2025-03-12T11:31:17Z" changeset="163523362" uid="5229644" user="Nathan_A_RF">
    <nd ref="1331501149"/>
    <nd ref="1331501147"/>
    <nd ref="1331501152"/>
    <nd ref="1331501168"/>
    <nd ref="8116919134"/>
    <nd ref="1331501134"/>
    <nd ref="1331501125"/>
    <nd ref="12480792364"/>
    <nd ref="1331501154"/>
    <tag k="dual_carriageway" v="yes"/>
    <tag k="highway" v="trunk_link"/>
    <tag k="lit" v="no"/>
    <tag k="national_highways:area" v="8"/>
    <tag k="oneway" v="yes"/>
    <tag k="operator" v="National Highways"/>
    <tag k="operator:wikidata" v="Q5760006"/>
  </way>
  <way id="118391360" version="4" timestamp="2025-01-07T16:57:43Z" changeset="161103477" uid="5229644" user="Nathan_A_RF">
    <nd ref="344779844"/>
    <nd ref="1331501145"/>
    <nd ref="1331501154"/>
    <nd ref="344779847"/>
    <tag k="highway" v="unclassified"/>
    <tag k="lit" v="no"/>
  </way>
  <way id="122456345" version="2" timestamp="2011-07-21T06:42:55Z" changeset="8785430" uid="90142" user="andy mackey">
    <nd ref="1145363091"/>
    <nd ref="1368681624"/>
    <nd ref="1145363114"/>
    <tag k="highway" v="residential"/>
    <tag k="name" v="Blacksmiths"/>
    <tag k="source" v="os_street_view"/>
    <tag k="survey" v="no"/>
  </way>
  <way id="122496456" version="1" timestamp="2011-07-21T07:01:43Z" changeset="8785430" uid="90142" user="andy mackey">
    <nd ref="1145363121"/>
    <nd ref="1368692026"/>
    <tag k="highway" v="residential"/>
    <tag k="source" v="os_street_view"/>
    <tag k="survey" v="no"/>
  </way>
  <way id="122496457" version="1" timestamp="2011-07-21T07:01:43Z" changeset="8785430" uid="90142" user="andy mackey">
    <nd ref="1145363121"/>
    <nd ref="1368692015"/>
    <tag k="highway" v="residential"/>
    <tag k="source" v="os_street_view"/>
    <tag k="survey" v="no"/>
  </way>
  <way id="123091706" version="3" timestamp="2024-05-12T12:17:20Z" changeset="151222620" uid="95856" user="john paul jones &amp; gringo">
    <nd ref="1373778787"/>
    <nd ref="1373778799"/>
    <nd ref="1373778773"/>
    <nd ref="1373778765"/>
    <nd ref="1373778787"/>
    <tag k="addr:city" v="Huntingdon"/>
    <tag k="addr:country" v="GB"/>
    <tag k="addr:housename" v="Church Farm"/>
    <tag k="addr:postcode" v="PE28 0AW"/>
    <tag k="addr:street" v="Grafham Road"/>
    <tag k="addr:suburb" v="Ellington Thorpe"/>
    <tag k="building" v="house"/>
    <tag k="name" v="Church Farm"/>
  </way>
  <way id="129547614" version="3" timestamp="2024-05-12T12:17:20Z" changeset="151222620" uid="95856" user="john paul jones &amp; gringo">
    <nd ref="1429101924"/>
    <nd ref="1429101925"/>
    <nd ref="1429101856"/>
    <nd ref="1429101927"/>
    <nd ref="1429101928"/>
    <nd ref="1429101930"/>
    <nd ref="1429101929"/>
    <nd ref="1429101932"/>
    <nd ref="1429101934"/>
    <nd ref="1429101935"/>
    <nd ref="1429101924"/>
    <tag k="addr:city" v="Huntingdon"/>
    <tag k="addr:country" v="GB"/>
    <tag k="addr:housename" v="Redwood Cottage"/>
    <tag k="addr:postcode" v="PE28 0AP"/>
    <tag k="addr:street" v="Grafham Road"/>
    <tag k="addr:suburb" v="Ellington Thorpe"/>
    <tag k="building" v="yes"/>
    <tag k="name" v="Redwood Cottage"/>
  </way>
  <way id="141759267" version="7" timestamp="2023-09-06T01:18:59Z" changeset="140872892" uid="13341565" user="Falsernet">
    <nd ref="346380377"/>
    <nd ref="1551734539"/>
    <nd ref="1551734512"/>
    <nd ref="1551734500"/>
    <nd ref="346380379"/>
    <tag k="bicycle" v="yes"/>
    <tag k="expressway" v="yes"/>
    <tag k="highway" v="trunk_link"/>
    <tag k="lit" v="no"/>
    <tag k="national_highways:area" v="8"/>
    <tag k="oneway" v="yes"/>
    <tag k="operator" v="National Highways"/>
    <tag k="operator:wikidata" v="Q5760006"/>
    <tag k="ref" v="A14"/>
    <tag k="source" v="survey"/>
  </way>
  <way id="141759282" version="3" timestamp="2019-09-02T17:10:20Z" changeset="74008129" uid="5229644" user="Nathan_A_RF">
    <nd ref="1384953943"/>
    <nd ref="346380183"/>
    <nd ref="1551734662"/>
    <nd ref="4286130998"/>
    <tag k="highway" v="tertiary"/>
    <tag k="lit" v="no"/>
    <tag k="oneway" v="no"/>
  </way>
  <way id="141759284" version="3" timestamp="2020-11-13T18:56:46Z" changeset="94081276" uid="5229644" user="Nathan_A_RF">
    <nd ref="4286130998"/>
    <nd ref="6767007286"/>
    <nd ref="6767007288"/>
    <tag k="highway" v="tertiary"/>
    <tag k="lit" v="no"/>
    <tag k="oneway" v="yes"/>
  </way>
  <way id="204809542" version="18" timestamp="2024-12-31T15:59:25Z" changeset="160839217" uid="5229644" user="Nathan_A_RF">
    <nd ref="344779844"/>
    <nd ref="569894"/>
    <nd ref="569895"/>
    <nd ref="1551734615"/>
    <nd ref="569897"/>
    <nd ref="1551734642"/>
    <nd ref="1551734602"/>
    <nd ref="569899"/>
    <nd ref="7006750814"/>
    <nd ref="1551734551"/>
    <nd ref="1551734599"/>
    <nd ref="1551734558"/>
    <nd ref="7006750815"/>
    <nd ref="346380174"/>
    <nd ref="7006750809"/>
    <nd ref="7006750810"/>
    <nd ref="569887"/>
    <nd ref="346380194"/>
    <nd ref="1551734614"/>
    <nd ref="569885"/>
    <nd ref="569884"/>
    <nd ref="569881"/>
    <nd ref="1331501130"/>
    <nd ref="569871"/>
    <nd ref="1331496465"/>
    <nd ref="569874"/>
    <nd ref="1331496461"/>
    <nd ref="2673270939"/>
    <nd ref="3230752816"/>
    <nd ref="12465550220"/>
    <nd ref="4584333587"/>
    <tag k="bicycle" v="yes"/>
    <tag k="destination:lanes" v="THE NORTH;Peterborough;London (C &amp; W);Huntingdon;Cambridge;London (E);Stansted Airport;Felixstone;(M11)|Cambridge;London (E);Stansted Airport;Felixstone;(M11)"/>
    <tag k="destination:ref:lanes" v="A14;A1;A141|A14"/>
    <tag k="dual_carriageway" v="yes"/>
    <tag k="expressway" v="yes"/>
    <tag k="highway" v="trunk"/>
    <tag k="int_ref" v="E 24"/>
    <tag k="lanes" v="2"/>
    <tag k="lit" v="no"/>
    <tag k="maxspeed" v="70 mph"/>
    <tag k="maxspeed:type" v="GB:nsl_dual"/>
    <tag k="name" v="Thrapston Road"/>
    <tag k="national_highways:area" v="8"/>
    <tag k="oneway" v="yes"/>
    <tag k="operator" v="National Highways"/>
    <tag k="operator:wikidata" v="Q5760006"/>
    <tag k="ref" v="A14"/>
    <tag k="shoulder" v="no"/>
    <tag k="turn:lanes" v="through;slight_left|through"/>
  </way>
  <way id="371360179" version="3" timestamp="2024-05-12T12:17:20Z" changeset="151222620" uid="95856" user="john paul jones &amp; gringo">
    <nd ref="3749330747"/>
    <nd ref="3749330748"/>
    <nd ref="3749330749"/>
    <nd ref="3749330750"/>
    <nd ref="3749330755"/>
    <nd ref="3749330751"/>
    <nd ref="4481895592"/>
    <nd ref="4481895593"/>
    <nd ref="3749330752"/>
    <nd ref="3749330753"/>
    <nd ref="3749330754"/>
    <nd ref="3749330747"/>
    <tag k="addr:city" v="Huntingdon"/>
    <tag k="addr:country" v="GB"/>
    <tag k="addr:postcode" v="PE28 0AP"/>
    <tag k="addr:street" v="Grafham Road"/>
    <tag k="addr:suburb" v="Ellington Thorpe"/>
    <tag k="landuse" v="farmyard"/>
    <tag k="name" v="Thorpe Lodge Farm"/>
  </way>
  <way id="371360198" version="4" timestamp="2024-05-12T12:17:20Z" changeset="151222620" uid="95856" user="john paul jones &amp; gringo">
    <nd ref="3749330849"/>
    <nd ref="3749330850"/>
    <nd ref="3749330851"/>
    <nd ref="7951153680"/>
    <nd ref="3749330853"/>
    <nd ref="3749330849"/>
    <tag k="addr:city" v="Huntingdon"/>
    <tag k="addr:country" v="GB"/>
    <tag k="addr:postcode" v="PE28 4NJ"/>
    <tag k="addr:street" v="High Street"/>
    <tag k="addr:suburb" v="Ellington"/>
    <tag k="landuse" v="farmyard"/>
    <tag k="name" v="Manor Farm"/>
  </way>
  <way id="428341416" version="1" timestamp="2016-06-30T22:36:13Z" changeset="40404991" uid="90142" user="andy mackey">
    <nd ref="1145363095"/>
    <nd ref="4274576210"/>
    <tag k="highway" v="residential"/>
    <tag k="name" v="Parson's Drive"/>
    <tag k="source" v="os_street_view"/>
    <tag k="survey" v="no"/>
  </way>
  <way id="428341418" version="1" timestamp="2016-06-30T22:36:14Z" changeset="40404991" uid="90142" user="andy mackey">
    <nd ref="4274576206"/>
    <nd ref="4274576204"/>
    <tag k="highway" v="residential"/>
    <tag k="name" v="Green Lane"/>
    <tag k="source" v="os_street_view"/>
    <tag k="survey" v="no"/>
  </way>
  <way id="429472102" version="2" timestamp="2019-09-02T17:10:20Z" changeset="74008129" uid="5229644" user="Nathan_A_RF">
    <nd ref="1384954040"/>
    <nd ref="6767007287"/>
    <nd ref="4286130998"/>
    <tag k="highway" v="tertiary"/>
    <tag k="lit" v="no"/>
    <tag k="oneway" v="yes"/>
  </way>
  <way id="451362290" version="2" timestamp="2024-05-12T12:17:20Z" changeset="151222620" uid="95856" user="john paul jones &amp; gringo">
    <nd ref="4481895621"/>
    <nd ref="4481895622"/>
    <nd ref="4481895623"/>
    <nd ref="4481895624"/>
    <nd ref="4481895621"/>
    <tag k="addr:city" v="Huntingdon"/>
    <tag k="addr:country" v="GB"/>
    <tag k="addr:housename" v="Thorpe Lodge Farm Cottage"/>
    <tag k="addr:postcode" v="PE28 0AP"/>
    <tag k="addr:street" v="Grafham Road"/>
    <tag k="addr:suburb" v="Ellington Thorpe"/>
    <tag k="building" v="house"/>
    <tag k="name" v="Thorpe Lodge Farm Cottage"/>
  </way>
  <way id="463123872" version="14" timestamp="2025-01-07T16:57:43Z" changeset="161103477" uid="5229644" user="Nathan_A_RF">
    <nd ref="6499373310"/>
    <nd ref="12465550221"/>
    <nd ref="5556888892"/>
    <nd ref="3230752803"/>
    <nd ref="3230752799"/>
    <nd ref="569876"/>
    <nd ref="569873"/>
    <nd ref="1551734635"/>
    <nd ref="1551734643"/>
    <nd ref="569872"/>
    <nd ref="1551734600"/>
    <nd ref="569882"/>
    <nd ref="569883"/>
    <nd ref="569886"/>
    <nd ref="1551734522"/>
    <nd ref="1551734581"/>
    <nd ref="569888"/>
    <nd ref="1551734509"/>
    <nd ref="346380379"/>
    <nd ref="7006750813"/>
    <nd ref="1551734597"/>
    <nd ref="1551734626"/>
    <nd ref="569900"/>
    <nd ref="7006750811"/>
    <nd ref="1551734501"/>
    <nd ref="569898"/>
    <nd ref="1551734604"/>
    <nd ref="569896"/>
    <nd ref="1551734503"/>
    <nd ref="12480792365"/>
    <tag k="bicycle" v="yes"/>
    <tag k="dual_carriageway" v="yes"/>
    <tag k="expressway" v="yes"/>
    <tag k="highway" v="trunk"/>
    <tag k="int_ref" v="E 24"/>
    <tag k="lanes" v="2"/>
    <tag k="lit" v="no"/>
    <tag k="maxspeed" v="70 mph"/>
    <tag k="maxspeed:type" v="GB:nsl_dual"/>
    <tag k="name" v="Thrapston Road"/>
    <tag k="national_highways:area" v="8"/>
    <tag k="oneway" v="yes"/>
    <tag k="operator" v="National Highways"/>
    <tag k="operator:wikidata" v="Q5760006"/>
    <tag k="ref" v="A14"/>
  </way>
  <way id="463123880" version="21" timestamp="2024-01-09T10:14:12Z" changeset="146060360" uid="5229644" user="Nathan_A_RF">
    <nd ref="4584334216"/>
    <nd ref="11375270494"/>
    <nd ref="8116919158"/>
    <nd ref="11375270493"/>
    <nd ref="8116919157"/>
    <nd ref="4584334192"/>
    <nd ref="11087606526"/>
    <nd ref="8116919156"/>
    <nd ref="11375270492"/>
    <nd ref="8116919153"/>
    <nd ref="11375270491"/>
    <nd ref="11375270490"/>
    <nd ref="8116919154"/>
    <nd ref="6499373310"/>
    <tag k="bicycle" v="yes"/>
    <tag k="destination" v="Kettering;West Midlands;Corby"/>
    <tag k="destination:ref" v="A14"/>
    <tag k="expressway" v="yes"/>
    <tag k="highway" v="trunk_link"/>
    <tag k="junction:ref" v="21"/>
    <tag k="lane_markings" v="no"/>
    <tag k="lit" v="no"/>
    <tag k="maxspeed" v="70 mph"/>
    <tag k="maxspeed:type" v="GB:nsl_dual"/>
    <tag k="national_highways:area" v="8"/>
    <tag k="oneway" v="yes"/>
    <tag k="operator" v="National Highways"/>
    <tag k="operator:wikidata" v="Q5760006"/>
    <tag k="ref" v="A14"/>
  </way>
  <way id="670998301" version="1" timestamp="2019-02-17T00:43:18Z" changeset="67266772" uid="5173844" user="ndrw6">
    <nd ref="346378463"/>
    <nd ref="6283630215"/>
    <nd ref="1368353646"/>
    <tag k="highway" v="residential"/>
    <tag k="name" v="Hillside Close"/>
  </way>
  <way id="700577223" version="20" timestamp="2024-01-09T10:14:12Z" changeset="146060360" uid="5229644" user="Nathan_A_RF">
    <nd ref="4584333587"/>
    <nd ref="11170819324"/>
    <nd ref="569878"/>
    <nd ref="11170819325"/>
    <nd ref="6577264259"/>
    <nd ref="11087606525"/>
    <nd ref="4584334204"/>
    <tag k="bicycle" v="yes"/>
    <tag k="destination" v="Huntingdon;Brampton Hut Services;Wolley;Race Course;London;The North;Peterborough;High Harthay;St Ives"/>
    <tag k="destination:ref" v="A141;A1(M);A1"/>
    <tag k="expressway" v="yes"/>
    <tag k="highway" v="trunk_link"/>
    <tag k="junction:ref" v="21"/>
    <tag k="lit" v="no"/>
    <tag k="maxspeed" v="70 mph"/>
    <tag k="maxspeed:type" v="GB:nsl_dual"/>
    <tag k="name" v="Thrapston Road"/>
    <tag k="national_highways:area" v="8"/>
    <tag k="oneway" v="yes"/>
    <tag k="operator" v="National Highways"/>
    <tag k="operator:wikidata" v="Q5760006"/>
    <tag k="ref" v="A14"/>
  </way>
  <way id="721246704" version="1" timestamp="2019-09-02T17:10:20Z" changeset="74008129" uid="5229644" user="Nathan_A_RF">
    <nd ref="6767007289"/>
    <nd ref="1384954121"/>
    <nd ref="346380149"/>
    <tag k="highway" v="tertiary"/>
    <tag k="oneway" v="yes"/>
  </way>
  <way id="721246705" version="1" timestamp="2019-09-02T17:10:20Z" changeset="74008129" uid="5229644" user="Nathan_A_RF">
    <nd ref="6767007289"/>
    <nd ref="346380189"/>
    <nd ref="346380190"/>
    <nd ref="1384954118"/>
    <nd ref="346380192"/>
    <tag k="highway" v="tertiary"/>
    <tag k="oneway" v="no"/>
  </way>
  <way id="721596367" version="17" timestamp="2024-01-09T10:14:12Z" changeset="146060360" uid="5229644" user="Nathan_A_RF">
    <nd ref="8116919159"/>
    <nd ref="8359911166"/>
    <nd ref="4449499265"/>
    <nd ref="11375270563"/>
    <nd ref="4449499267"/>
    <nd ref="11375270489"/>
    <nd ref="8116919152"/>
    <nd ref="11375270488"/>
    <nd ref="8116919151"/>
    <nd ref="8116919155"/>
    <nd ref="6499373310"/>
    <tag k="agricultural" v="no"/>
    <tag k="bicycle" v="no"/>
    <tag k="carriage" v="no"/>
    <tag k="carriageway_ref" v="B"/>
    <tag k="dual_carriageway" v="yes"/>
    <tag k="expressway" v="yes"/>
    <tag k="foot" v="no"/>
    <tag k="highway" v="trunk"/>
    <tag k="horse" v="no"/>
    <tag k="int_ref" v="E 24"/>
    <tag k="lanes" v="2"/>
    <tag k="lit" v="no"/>
    <tag k="maxspeed" v="70 mph"/>
    <tag k="maxspeed:type" v="GB:nsl_dual"/>
    <tag k="maxspeed:variable" v="no"/>
    <tag k="motorcycle:conditional" v="no @ (displacement &lt; 50 cc)"/>
    <tag k="motorroad" v="yes"/>
    <tag k="national_highways:area" v="8"/>
    <tag k="oneway" v="yes"/>
    <tag k="operator" v="National Highways"/>
    <tag k="operator:wikidata" v="Q5760006"/>
    <tag k="ref" v="A14"/>
    <tag k="shoulder" v="no"/>
    <tag k="start_date" v="2019-12"/>
    <tag k="surface" v="asphalt"/>
  </way>
  <way id="752050853" version="22" timestamp="2024-12-31T15:59:25Z" changeset="160839217" uid="5229644" user="Nathan_A_RF">
    <nd ref="4584333587"/>
    <nd ref="11170819327"/>
    <nd ref="11170819328"/>
    <nd ref="11170819329"/>
    <nd ref="8116919150"/>
    <nd ref="11375270564"/>
    <nd ref="4449499269"/>
    <nd ref="11170819330"/>
    <nd ref="4449499266"/>
    <nd ref="11170819331"/>
    <nd ref="11170819332"/>
    <nd ref="4449499264"/>
    <nd ref="11170819333"/>
    <nd ref="11170819334"/>
    <nd ref="8116919160"/>
    <nd ref="11375270561"/>
    <nd ref="11170885437"/>
    <nd ref="5423351156"/>
    <nd ref="4449499262"/>
    <tag k="agricultural" v="no"/>
    <tag k="bicycle" v="no"/>
    <tag k="carriage" v="no"/>
    <tag k="carriageway_ref" v="A"/>
    <tag k="dual_carriageway" v="yes"/>
    <tag k="expressway" v="yes"/>
    <tag k="foot" v="no"/>
    <tag k="highway" v="trunk"/>
    <tag k="horse" v="no"/>
    <tag k="int_ref" v="E 24"/>
    <tag k="lanes" v="2"/>
    <tag k="maxspeed" v="70 mph"/>
    <tag k="maxspeed:type" v="GB:nsl_dual"/>
    <tag k="maxspeed:variable" v="peak_traffic"/>
    <tag k="motorcycle:conditional" v="no @ (displacement &lt; 50 cc)"/>
    <tag k="motorroad" v="yes"/>
    <tag k="national_highways:area" v="8"/>
    <tag k="oneway" v="yes"/>
    <tag k="operator" v="National Highways"/>
    <tag k="operator:wikidata" v="Q5760006"/>
    <tag k="ref" v="A14"/>
    <tag k="shoulder" v="no"/>
    <tag k="start_date" v="2019-12"/>
    <tag k="surface" v="asphalt"/>
  </way>
  <way id="843999892" version="1" timestamp="2020-09-03T16:07:38Z" changeset="90371577" uid="11022773" user="GeoFens">
    <nd ref="1373778845"/>
    <nd ref="7873028176"/>
    <nd ref="7873028177"/>
    <tag k="highway" v="residential"/>
    <tag k="name" v="Spinney Field"/>
  </way>
  <way id="1129918846" version="1" timestamp="2023-01-09T23:32:31Z" changeset="131083352" uid="490556" user="SomeoneElse2">
    <nd ref="1228388052"/>
    <nd ref="8583439"/>
    <tag k="highway" v="tertiary"/>
    <tag k="name" v="Grafham Road"/>
    <tag k="note" v="Not sure what highway type this is"/>
  </way>
  <way id="1342523018" version="1" timestamp="2024-12-13T20:48:22Z" changeset="160261266" uid="16226563" user="VLD303">
    <nd ref="1384954127"/>
    <nd ref="346380169"/>
    <tag k="highway" v="tertiary"/>
    <tag k="lit" v="no"/>
    <tag k="oneway" v="yes"/>
  </way>

</osm>
