<?xml version="1.0" encoding="UTF-8"?>
<osm version="0.6" generator="Overpass API 0.7.62.5 1bd436f1">
<note>The data included in this document is from www.openstreetmap.org. The data is made available under ODbL.</note>
<meta osm_base="2025-05-18T00:48:05Z" areas="2024-12-31T00:49:33Z"/>

  <node id="30437199" lat="52.6039451" lon="13.3226039" version="5" timestamp="2023-03-04T20:57:14Z" changeset="133306028" uid="17304" user="kartograph">
    <tag k="ele" v="44.4"/>
  </node>
  <node id="30818229" lat="52.6088044" lon="13.3222236" version="6" timestamp="2021-07-20T05:08:00Z" changeset="108286182" uid="11146797" user="cyton"/>
  <node id="30818818" lat="52.6105577" lon="13.3341114" version="4" timestamp="2014-05-16T22:25:30Z" changeset="22380381" uid="881429" user="atpl_pilot"/>
  <node id="30818826" lat="52.6140406" lon="13.3323194" version="6" timestamp="2024-10-26T15:42:31Z" changeset="158382140" uid="9508237" user="momabebra"/>
  <node id="30833285" lat="52.6106547" lon="13.3139621" version="3" timestamp="2025-03-18T20:52:27Z" changeset="163792287" uid="44217" user="kjon"/>
  <node id="445830935" lat="52.6124561" lon="13.3157701" version="4" timestamp="2016-11-14T15:28:08Z" changeset="43642512" uid="111462" user="Bot45715"/>
  <node id="582862747" lat="52.6062618" lon="13.3252603" version="2" timestamp="2014-05-16T14:31:37Z" changeset="22372634" uid="881429" user="atpl_pilot"/>
  <node id="675503714" lat="52.5993041" lon="13.3004836" version="4" timestamp="2016-01-16T06:45:03Z" changeset="36609038" uid="881429" user="atpl_pilot"/>
  <node id="746585461" lat="52.6011781" lon="13.3045327" version="2" timestamp="2020-04-25T11:35:39Z" changeset="84101571" uid="44217" user="kjon"/>
  <node id="7687338677" lat="52.6089160" lon="13.3380919" version="2" timestamp="2023-04-29T14:38:29Z" changeset="135506429" uid="9508237" user="momabebra"/>
  <way id="4766077" version="27" timestamp="2025-02-14T21:33:22Z" changeset="162519265" uid="44217" user="kjon">
    <nd ref="30437199"/>
    <nd ref="12475785420"/>
    <nd ref="10710896363"/>
    <nd ref="11513838064"/>
    <nd ref="4375672024"/>
    <nd ref="30437200"/>
    <nd ref="30437202"/>
    <nd ref="281430295"/>
    <nd ref="2862187309"/>
    <nd ref="2863268903"/>
    <nd ref="12475785434"/>
    <nd ref="30437204"/>
    <nd ref="30437206"/>
    <tag k="cycleway:both" v="no"/>
    <tag k="foot" v="use_sidepath"/>
    <tag k="highway" v="tertiary"/>
    <tag k="lanes" v="2"/>
    <tag k="lit" v="yes"/>
    <tag k="maxspeed" v="50"/>
    <tag k="name" v="Jean-Jaurès-Straße"/>
    <tag k="name:etymology:wikidata" v="Q12688"/>
    <tag k="parking:both" v="no"/>
    <tag k="postal_code" v="13469"/>
    <tag k="sidewalk:both" v="separate"/>
    <tag k="smoothness" v="good"/>
    <tag k="surface" v="asphalt"/>
    <tag k="wikidata" v="Q91723145"/>
  </way>
  <way id="4766079" version="22" timestamp="2025-03-19T22:39:49Z" changeset="163838949" uid="44217" user="kjon">
    <nd ref="30437263"/>
    <nd ref="12677557480"/>
    <nd ref="7249413386"/>
    <nd ref="8962870775"/>
    <nd ref="12677557473"/>
    <nd ref="30437249"/>
    <tag k="cycleway:both" v="no"/>
    <tag k="highway" v="residential"/>
    <tag k="lit" v="yes"/>
    <tag k="maxspeed" v="30"/>
    <tag k="name" v="Bondickstraße"/>
    <tag k="name:etymology:wikidata" v="Q104771350"/>
    <tag k="parking:both" v="lane"/>
    <tag k="parking:both:orientation" v="parallel"/>
    <tag k="postal_code" v="13469"/>
    <tag k="sidewalk:both" v="separate"/>
    <tag k="smoothness" v="very_bad"/>
    <tag k="surface" v="sett"/>
  </way>
  <way id="4766080" version="19" timestamp="2025-03-19T22:36:23Z" changeset="163838949" uid="44217" user="kjon">
    <nd ref="30437249"/>
    <nd ref="2941035321"/>
    <nd ref="11750034000"/>
    <tag k="cycleway:both" v="no"/>
    <tag k="highway" v="residential"/>
    <tag k="lit" v="yes"/>
    <tag k="maxspeed" v="30"/>
    <tag k="name" v="Hochjagdstraße"/>
    <tag k="name:etymology:wikidata" v="Q1623470"/>
    <tag k="parking:both" v="lane"/>
    <tag k="parking:both:orientation" v="parallel"/>
    <tag k="postal_code" v="13469"/>
    <tag k="sidewalk:both" v="separate"/>
    <tag k="smoothness" v="very_bad"/>
    <tag k="surface" v="sett"/>
  </way>
  <way id="4766084" version="22" timestamp="2025-03-19T22:40:07Z" changeset="163838949" uid="44217" user="kjon">
    <nd ref="272357259"/>
    <nd ref="12677557451"/>
    <nd ref="12677557465"/>
    <nd ref="30437263"/>
    <nd ref="12677557479"/>
    <nd ref="8913674077"/>
    <nd ref="11749983937"/>
    <tag k="cycleway:both" v="no"/>
    <tag k="highway" v="residential"/>
    <tag k="lit" v="yes"/>
    <tag k="maxspeed" v="30"/>
    <tag k="name" v="Waldhornstraße"/>
    <tag k="name:etymology:wikidata" v="Q163759"/>
    <tag k="postal_code" v="13469"/>
    <tag k="sidewalk:both" v="separate"/>
    <tag k="smoothness" v="very_bad"/>
    <tag k="surface" v="sett"/>
  </way>
  <way id="4766085" version="18" timestamp="2025-03-19T22:40:30Z" changeset="163838949" uid="44217" user="kjon">
    <nd ref="30437269"/>
    <nd ref="12677557453"/>
    <nd ref="8974648365"/>
    <nd ref="8974648360"/>
    <nd ref="30437274"/>
    <tag k="cycleway:both" v="no"/>
    <tag k="highway" v="residential"/>
    <tag k="lit" v="yes"/>
    <tag k="maxspeed" v="30"/>
    <tag k="name" v="Nach der Höhe"/>
    <tag k="name:etymology:wikidata" v="Q1546008"/>
    <tag k="parking:both" v="lane"/>
    <tag k="parking:both:orientation" v="parallel"/>
    <tag k="postal_code" v="13469"/>
    <tag k="sidewalk:both" v="separate"/>
    <tag k="smoothness" v="very_bad"/>
    <tag k="surface" v="sett"/>
  </way>
  <way id="4766092" version="23" timestamp="2025-02-21T20:26:00Z" changeset="162793804" uid="44217" user="kjon">
    <nd ref="30437206"/>
    <nd ref="2863269009"/>
    <nd ref="2863268811"/>
    <nd ref="3979742090"/>
    <nd ref="3979742091"/>
    <nd ref="9649146713"/>
    <nd ref="3092447194"/>
    <nd ref="30437208"/>
    <tag k="cycleway:both" v="no"/>
    <tag k="highway" v="tertiary"/>
    <tag k="lanes" v="2"/>
    <tag k="lit" v="yes"/>
    <tag k="maxspeed" v="50"/>
    <tag k="name" v="Jean-Jaurès-Straße"/>
    <tag k="name:etymology:wikidata" v="Q12688"/>
    <tag k="parking:lane:right:diagonal" v="street_side"/>
    <tag k="parking:left" v="no"/>
    <tag k="parking:right" v="yes"/>
    <tag k="parking:right:orientation" v="diagonal"/>
    <tag k="postal_code" v="13469"/>
    <tag k="sidewalk:both" v="separate"/>
    <tag k="sidewalk:right:surface" v="paving_stones"/>
    <tag k="smoothness" v="good"/>
    <tag k="surface" v="asphalt"/>
    <tag k="wikidata" v="Q91723145"/>
  </way>
  <way id="4766101" version="27" timestamp="2025-03-19T22:40:16Z" changeset="163838949" uid="44217" user="kjon">
    <nd ref="30437254"/>
    <nd ref="2431546867"/>
    <nd ref="272357259"/>
    <nd ref="30437247"/>
    <nd ref="8266869986"/>
    <nd ref="30437269"/>
    <nd ref="2863268808"/>
    <nd ref="30437270"/>
    <nd ref="2863268809"/>
    <nd ref="30437271"/>
    <nd ref="2863268810"/>
    <nd ref="12677557435"/>
    <nd ref="2863268902"/>
    <nd ref="1330099926"/>
    <nd ref="11032047540"/>
    <nd ref="30437206"/>
    <tag k="cycleway:both" v="no"/>
    <tag k="highway" v="residential"/>
    <tag k="lit" v="yes"/>
    <tag k="maxspeed" v="30"/>
    <tag k="name" v="Nimrodstraße"/>
    <tag k="name:etymology:wikidata" v="Q201861"/>
    <tag k="parking:both" v="lane"/>
    <tag k="parking:both:orientation" v="parallel"/>
    <tag k="parking:both:staggered" v="yes"/>
    <tag k="postal_code" v="13469"/>
    <tag k="sidewalk:both" v="separate"/>
    <tag k="sidewalk:both:surface" v="paving_stones"/>
    <tag k="smoothness" v="bad"/>
    <tag k="surface" v="sett"/>
  </way>
  <way id="4766103" version="34" timestamp="2024-03-20T12:17:43Z" changeset="148909640" uid="9508237" user="momabebra">
    <nd ref="5747829411"/>
    <nd ref="498600307"/>
    <nd ref="30818228"/>
    <nd ref="11747927842"/>
    <tag k="cycleway:left" v="separate"/>
    <tag k="cycleway:right" v="no"/>
    <tag k="highway" v="secondary"/>
    <tag k="lanes" v="2"/>
    <tag k="lit" v="yes"/>
    <tag k="maxspeed" v="50"/>
    <tag k="name" v="Waidmannsluster Damm"/>
    <tag k="name:etymology:wikidata" v="Q648245"/>
    <tag k="parking:both" v="no"/>
    <tag k="postal_code" v="13469"/>
    <tag k="sidewalk:both" v="separate"/>
    <tag k="sidewalk:both:surface" v="paving_stones"/>
    <tag k="sidewalk:right:bicycle" v="yes"/>
    <tag k="smoothness" v="good"/>
    <tag k="surface" v="asphalt"/>
    <tag k="wikidata" v="Q63410222"/>
  </way>
  <way id="4802331" version="24" timestamp="2025-03-19T22:38:00Z" changeset="163838949" uid="44217" user="kjon">
    <nd ref="2863430039"/>
    <nd ref="7116070781"/>
    <nd ref="8478942394"/>
    <nd ref="6771633328"/>
    <nd ref="30818227"/>
    <tag k="cycleway:both" v="no"/>
    <tag k="highway" v="residential"/>
    <tag k="lit" v="yes"/>
    <tag k="maxspeed" v="30"/>
    <tag k="name" v="Düsterhauptstraße"/>
    <tag k="parking:both" v="lane"/>
    <tag k="parking:both:orientation" v="parallel"/>
    <tag k="postal_code" v="13469"/>
    <tag k="sidewalk:both" v="separate"/>
    <tag k="sidewalk:both:surface" v="sett"/>
    <tag k="smoothness" v="bad"/>
    <tag k="source:width" v="ARCore"/>
    <tag k="surface" v="sett"/>
    <tag k="width" v="7.9"/>
  </way>
  <way id="4802332" version="14" timestamp="2025-03-18T20:52:27Z" changeset="163792287" uid="44217" user="kjon">
    <nd ref="30818212"/>
    <nd ref="8962953656"/>
    <nd ref="2966844944"/>
    <nd ref="2966845015"/>
    <nd ref="30818221"/>
    <nd ref="8940239195"/>
    <nd ref="8962953657"/>
    <nd ref="30818222"/>
    <nd ref="8962953658"/>
    <nd ref="8940239190"/>
    <nd ref="30818223"/>
    <tag k="cycleway:both" v="no"/>
    <tag k="highway" v="residential"/>
    <tag k="lit" v="yes"/>
    <tag k="maxspeed" v="30"/>
    <tag k="name" v="Am Wechsel"/>
    <tag k="name:etymology:wikidata" v="Q225615"/>
    <tag k="name:etymology:wikipedia" v="de:Wildwechsel"/>
    <tag k="postal_code" v="13469"/>
    <tag k="sidewalk" v="left"/>
    <tag k="surface" v="concrete"/>
  </way>
  <way id="4802334" version="18" timestamp="2025-03-19T22:36:32Z" changeset="163838949" uid="44217" user="kjon">
    <nd ref="30818205"/>
    <nd ref="7869849600"/>
    <nd ref="670304812"/>
    <nd ref="11747931542"/>
    <tag k="cycleway:both" v="no"/>
    <tag k="highway" v="residential"/>
    <tag k="lit" v="yes"/>
    <tag k="maxspeed" v="30"/>
    <tag k="name" v="Hubertusstraße"/>
    <tag k="name:etymology:wikidata" v="Q159834"/>
    <tag k="parking:both" v="lane"/>
    <tag k="parking:both:orientation" v="parallel"/>
    <tag k="postal_code" v="13469"/>
    <tag k="sidewalk:both" v="separate"/>
    <tag k="smoothness" v="very_bad"/>
    <tag k="surface" v="unhewn_cobblestone"/>
  </way>
  <way id="4802336" version="19" timestamp="2025-03-19T22:36:06Z" changeset="163838949" uid="44217" user="kjon">
    <nd ref="11750005456"/>
    <nd ref="30818216"/>
    <nd ref="2941316725"/>
    <nd ref="30818207"/>
    <tag k="cycleway:both" v="no"/>
    <tag k="highway" v="residential"/>
    <tag k="lit" v="yes"/>
    <tag k="maxspeed" v="30"/>
    <tag k="name" v="Am Dianaplatz"/>
    <tag k="name:etymology:wikidata" v="Q132543"/>
    <tag k="name:etymology:wikipedia" v="de:Diana"/>
    <tag k="parking:both" v="lane"/>
    <tag k="parking:both:orientation" v="parallel"/>
    <tag k="postal_code" v="13469"/>
    <tag k="sidewalk:both" v="separate"/>
    <tag k="surface" v="unhewn_cobblestone"/>
  </way>
  <way id="4802337" version="13" timestamp="2021-07-30T11:32:33Z" changeset="108887579" uid="10961311" user="StefanHRT">
    <nd ref="30818217"/>
    <nd ref="8962953648"/>
    <nd ref="2941378614"/>
    <nd ref="8962953649"/>
    <tag k="cycleway:both" v="no"/>
    <tag k="highway" v="residential"/>
    <tag k="lit" v="yes"/>
    <tag k="maxspeed" v="30"/>
    <tag k="name" v="Treiberpfad"/>
    <tag k="name:etymology:wikidata" v="Q2451094"/>
    <tag k="postal_code" v="13469"/>
    <tag k="sidewalk" v="no"/>
    <tag k="smoothness" v="intermediate"/>
    <tag k="surface" v="paving_stones"/>
  </way>
  <way id="4802339" version="27" timestamp="2025-03-19T22:37:02Z" changeset="163838949" uid="44217" user="kjon">
    <nd ref="30437277"/>
    <nd ref="9649146706"/>
    <nd ref="9649146710"/>
    <nd ref="6862701978"/>
    <nd ref="7116070774"/>
    <nd ref="30818213"/>
    <tag k="cycleway:both" v="no"/>
    <tag k="highway" v="residential"/>
    <tag k="lit" v="yes"/>
    <tag k="maxspeed" v="30"/>
    <tag k="name" v="Artemisstraße"/>
    <tag k="name:etymology:wikidata" v="Q39503"/>
    <tag k="parking:both" v="lane"/>
    <tag k="parking:both:orientation" v="parallel"/>
    <tag k="parking:both:staggered" v="yes"/>
    <tag k="postal_code" v="13469"/>
    <tag k="sidewalk:both" v="separate"/>
    <tag k="sidewalk:both:surface" v="paving_stones"/>
    <tag k="smoothness" v="excellent"/>
    <tag k="surface" v="asphalt"/>
    <tag k="width" v="7.5"/>
  </way>
  <way id="4802344" version="10" timestamp="2021-07-30T11:32:33Z" changeset="108887579" uid="10961311" user="StefanHRT">
    <nd ref="30818208"/>
    <nd ref="8962953643"/>
    <nd ref="30818217"/>
    <nd ref="8962953644"/>
    <nd ref="8962953645"/>
    <nd ref="8962953647"/>
    <nd ref="4488352098"/>
    <nd ref="8488622938"/>
    <tag k="cycleway:both" v="no"/>
    <tag k="highway" v="residential"/>
    <tag k="lit" v="yes"/>
    <tag k="maxspeed" v="30"/>
    <tag k="name" v="Treiberpfad"/>
    <tag k="name:etymology:wikidata" v="Q2451094"/>
    <tag k="postal_code" v="13469"/>
    <tag k="sidewalk" v="no"/>
    <tag k="smoothness" v="intermediate"/>
    <tag k="surface" v="paving_stones"/>
  </way>
  <way id="4802391" version="23" timestamp="2024-03-20T11:47:37Z" changeset="148908142" uid="9508237" user="momabebra">
    <nd ref="5747408117"/>
    <nd ref="2863452704"/>
    <nd ref="30818839"/>
    <nd ref="3979742115"/>
    <nd ref="991844156"/>
    <nd ref="664074197"/>
    <nd ref="30818813"/>
    <nd ref="30819563"/>
    <tag k="cycleway:left" v="no"/>
    <tag k="cycleway:right" v="track"/>
    <tag k="highway" v="tertiary"/>
    <tag k="lanes" v="2"/>
    <tag k="lit" v="yes"/>
    <tag k="maxspeed" v="50"/>
    <tag k="name" v="Zabel-Krüger-Damm"/>
    <tag k="name:etymology:wikidata" v="Q92541153"/>
    <tag k="parking:both" v="no"/>
    <tag k="postal_code" v="13469"/>
    <tag k="sidewalk:both" v="separate"/>
    <tag k="sidewalk:both:surface" v="paving_stones"/>
    <tag k="sidewalk:left:bicycle" v="yes"/>
    <tag k="smoothness" v="good"/>
    <tag k="surface" v="asphalt"/>
    <tag k="wikidata" v="Q92540512"/>
  </way>
  <way id="4802397" version="12" timestamp="2025-03-22T11:51:59Z" changeset="163943705" uid="44217" user="kjon">
    <nd ref="30818826"/>
    <nd ref="12690362031"/>
    <nd ref="30818847"/>
    <tag k="covered" v="no"/>
    <tag k="highway" v="residential"/>
    <tag k="lanes" v="2"/>
    <tag k="lit" v="yes"/>
    <tag k="name" v="Büchenbronner Steig"/>
    <tag k="name:etymology:wikidata" v="Q1020329"/>
    <tag k="postal_code" v="13469"/>
    <tag k="sidewalk:left" v="separate"/>
    <tag k="smoothness" v="bad"/>
    <tag k="surface" v="unhewn_cobblestone"/>
  </way>
  <way id="4802399" version="16" timestamp="2025-03-22T17:42:32Z" changeset="163957578" uid="44217" user="kjon">
    <nd ref="30818841"/>
    <nd ref="12685359697"/>
    <nd ref="876913178"/>
    <nd ref="30818823"/>
    <nd ref="12690281663"/>
    <nd ref="30818830"/>
    <tag k="cycleway:both" v="no"/>
    <tag k="highway" v="residential"/>
    <tag k="lit" v="yes"/>
    <tag k="maxspeed" v="30"/>
    <tag k="name" v="Tiefenbronner Weg"/>
    <tag k="name:etymology:wikidata" v="Q80548"/>
    <tag k="postal_code" v="13469"/>
    <tag k="sidewalk:left" v="separate"/>
    <tag k="sidewalk:right" v="yes"/>
    <tag k="surface" v="sett"/>
  </way>
  <way id="4802405" version="13" timestamp="2025-03-22T11:54:35Z" changeset="163943705" uid="44217" user="kjon">
    <nd ref="30818842"/>
    <nd ref="12690362080"/>
    <nd ref="8925664158"/>
    <nd ref="6836686077"/>
    <nd ref="7687211131"/>
    <nd ref="12690311061"/>
    <nd ref="30818815"/>
    <tag k="highway" v="residential"/>
    <tag k="lit" v="yes"/>
    <tag k="maxspeed" v="30"/>
    <tag k="name" v="Lahrer Pfad"/>
    <tag k="name:etymology:wikidata" v="Q7039"/>
    <tag k="postal_code" v="13469"/>
    <tag k="sidewalk:both" v="separate"/>
    <tag k="surface" v="asphalt"/>
  </way>
  <way id="4802410" version="17" timestamp="2025-03-22T11:54:13Z" changeset="163943705" uid="44217" user="kjon">
    <nd ref="21538117"/>
    <nd ref="8873905668"/>
    <nd ref="12685383028"/>
    <nd ref="30818834"/>
    <nd ref="12685383026"/>
    <nd ref="12685383010"/>
    <nd ref="661123176"/>
    <tag k="cycleway:both" v="no"/>
    <tag k="highway" v="residential"/>
    <tag k="lit" v="yes"/>
    <tag k="maxspeed" v="30"/>
    <tag k="name" v="Nagolder Pfad"/>
    <tag k="name:etymology:wikidata" v="Q26344"/>
    <tag k="postal_code" v="13469"/>
    <tag k="sidewalk:both" v="separate"/>
  </way>
  <way id="4802412" version="20" timestamp="2025-03-19T22:37:48Z" changeset="163838949" uid="44217" user="kjon">
    <nd ref="12553903160"/>
    <nd ref="6901930912"/>
    <nd ref="7711670982"/>
    <nd ref="30818230"/>
    <tag k="cycleway:both" v="no"/>
    <tag k="highway" v="residential"/>
    <tag k="lit" v="yes"/>
    <tag k="maxspeed" v="30"/>
    <tag k="name" v="Florastraße"/>
    <tag k="name:etymology:wikidata" v="Q209644"/>
    <tag k="parking:both" v="lane"/>
    <tag k="parking:both:orientation" v="parallel"/>
    <tag k="postal_code" v="13469"/>
    <tag k="sidewalk:both" v="separate"/>
    <tag k="sidewalk:both:surface" v="paving_stones"/>
    <tag k="smoothness" v="good"/>
    <tag k="source:width" v="ARCore"/>
    <tag k="surface" v="asphalt"/>
    <tag k="width" v="8"/>
  </way>
  <way id="4802415" version="13" timestamp="2025-03-22T17:37:57Z" changeset="163957578" uid="44217" user="kjon">
    <nd ref="30818845"/>
    <nd ref="12690362093"/>
    <nd ref="8925559751"/>
    <nd ref="6875356574"/>
    <nd ref="6839467498"/>
    <nd ref="30818848"/>
    <nd ref="12690311067"/>
    <nd ref="30818816"/>
    <tag k="highway" v="residential"/>
    <tag k="lit" v="yes"/>
    <tag k="maxspeed" v="30"/>
    <tag k="name" v="Lierbacher Weg"/>
    <tag k="name:etymology:wikidata" v="Q515470"/>
    <tag k="postal_code" v="13469"/>
    <tag k="sidewalk:left" v="separate"/>
  </way>
  <way id="4802422" version="8" timestamp="2025-03-22T08:48:02Z" changeset="163936636" uid="44217" user="kjon">
    <nd ref="30818862"/>
    <nd ref="12690362095"/>
    <nd ref="2863271204"/>
    <nd ref="30818863"/>
    <tag k="highway" v="residential"/>
    <tag k="lit" v="yes"/>
    <tag k="maxspeed" v="30"/>
    <tag k="name" v="Albtalweg"/>
    <tag k="name:etymology:wikidata" v="Q562295"/>
    <tag k="name:etymology:wikipedia" v="de:Alb (Oberrhein)"/>
    <tag k="postal_code" v="13469"/>
  </way>
  <way id="4802431" version="17" timestamp="2025-03-22T11:53:33Z" changeset="163943705" uid="44217" user="kjon">
    <nd ref="30818821"/>
    <nd ref="12685359692"/>
    <nd ref="7712019505"/>
    <nd ref="30818840"/>
    <nd ref="7712019506"/>
    <nd ref="2863452539"/>
    <nd ref="2863445625"/>
    <nd ref="11747869195"/>
    <nd ref="30818814"/>
    <tag k="cycleway:both" v="no"/>
    <tag k="highway" v="residential"/>
    <tag k="lit" v="yes"/>
    <tag k="maxspeed" v="30"/>
    <tag k="name" v="Schonacher Straße"/>
    <tag k="name:etymology:wikidata" v="Q81817"/>
    <tag k="postal_code" v="13469"/>
    <tag k="sidewalk:both" v="separate"/>
    <tag k="smoothness" v="good"/>
    <tag k="surface" v="asphalt"/>
  </way>
  <way id="4802435" version="17" timestamp="2025-03-22T11:53:55Z" changeset="163943705" uid="44217" user="kjon">
    <nd ref="661123276"/>
    <nd ref="12685383007"/>
    <nd ref="30818835"/>
    <nd ref="12685359686"/>
    <nd ref="30818820"/>
    <tag k="cycleway:both" v="no"/>
    <tag k="highway" v="residential"/>
    <tag k="lit" v="yes"/>
    <tag k="maxspeed" v="30"/>
    <tag k="name" v="Horber Straße"/>
    <tag k="name:etymology:wikidata" v="Q82690"/>
    <tag k="oneway" v="yes"/>
    <tag k="postal_code" v="13469"/>
    <tag k="sidewalk:left" v="no"/>
    <tag k="sidewalk:right" v="separate"/>
    <tag k="sidewalk:right:surface" v="paving_stones"/>
    <tag k="smoothness" v="good"/>
    <tag k="surface" v="paving_stones"/>
  </way>
  <way id="4802439" version="23" timestamp="2025-03-22T11:51:06Z" changeset="163943705" uid="44217" user="kjon">
    <nd ref="30818832"/>
    <nd ref="12685359683"/>
    <nd ref="2938843965"/>
    <nd ref="30818833"/>
    <nd ref="12685383023"/>
    <nd ref="12685383015"/>
    <nd ref="30818834"/>
    <nd ref="12685383029"/>
    <nd ref="12685383005"/>
    <nd ref="30818837"/>
    <nd ref="12690362065"/>
    <nd ref="6771633323"/>
    <nd ref="11747867889"/>
    <tag k="cycleway:both" v="no"/>
    <tag k="highway" v="residential"/>
    <tag k="lit" v="yes"/>
    <tag k="maxspeed" v="30"/>
    <tag k="name" v="Gutachstraße"/>
    <tag k="name:etymology:wikidata" v="Q557834"/>
    <tag k="postal_code" v="13469"/>
    <tag k="sidewalk:both" v="separate"/>
    <tag k="sidewalk:both:surface" v="paving_stones"/>
    <tag k="smoothness" v="intermediate"/>
    <tag k="surface" v="sett"/>
  </way>
  <way id="4802544" version="21" timestamp="2024-04-15T21:43:49Z" changeset="150059217" uid="11146797" user="cyton">
    <nd ref="30819586"/>
    <nd ref="10856037273"/>
    <nd ref="3411745863"/>
    <nd ref="3411749135"/>
    <nd ref="3411746336"/>
    <nd ref="11820181577"/>
    <tag k="highway" v="residential"/>
    <tag k="lit" v="yes"/>
    <tag k="maxspeed" v="30"/>
    <tag k="name" v="Todtnauer Zeile"/>
    <tag k="name:etymology:wikidata" v="Q61665"/>
    <tag k="parking:left" v="on_kerb"/>
    <tag k="parking:left:orientation" v="perpendicular"/>
    <tag k="parking:right" v="lane"/>
    <tag k="parking:right:orientation" v="parallel"/>
    <tag k="postal_code" v="13469"/>
    <tag k="sidewalk:both" v="separate"/>
    <tag k="source:width" v="ARCore"/>
    <tag k="surface" v="concrete"/>
    <tag k="width" v="6"/>
  </way>
  <way id="4802549" version="16" timestamp="2023-02-20T15:49:42Z" changeset="132797124" uid="11146797" user="cyton">
    <nd ref="30819596"/>
    <nd ref="5273101436"/>
    <nd ref="30819597"/>
    <tag k="cycleway:both" v="no"/>
    <tag k="highway" v="residential"/>
    <tag k="lit" v="yes"/>
    <tag k="maxspeed" v="30"/>
    <tag k="name" v="Waldshuter Zeile"/>
    <tag k="name:etymology:wikidata" v="Q505433"/>
    <tag k="parking:both" v="no"/>
    <tag k="postal_code" v="13469"/>
    <tag k="sidewalk" v="both"/>
    <tag k="sidewalk:both:surface" v="paving_stones"/>
    <tag k="smoothness" v="good"/>
    <tag k="surface" v="concrete"/>
  </way>
  <way id="4802552" version="28" timestamp="2024-04-15T21:43:41Z" changeset="150059217" uid="11146797" user="cyton">
    <nd ref="11820166292"/>
    <nd ref="3145468600"/>
    <nd ref="3411752009"/>
    <nd ref="30819588"/>
    <nd ref="10856037255"/>
    <nd ref="3145469079"/>
    <nd ref="10856037254"/>
    <nd ref="30819589"/>
    <nd ref="10856032622"/>
    <tag k="cycleway:both" v="no"/>
    <tag k="highway" v="residential"/>
    <tag k="lit" v="yes"/>
    <tag k="maxspeed" v="30"/>
    <tag k="name" v="Titiseestraße"/>
    <tag k="name:etymology:wikidata" v="Q700097"/>
    <tag k="parking:both" v="no"/>
    <tag k="postal_code" v="13469"/>
    <tag k="sidewalk:both" v="separate"/>
    <tag k="surface" v="asphalt"/>
  </way>
  <way id="4802554" version="28" timestamp="2025-03-22T17:42:09Z" changeset="163957578" uid="44217" user="kjon">
    <nd ref="30818814"/>
    <nd ref="7740654252"/>
    <nd ref="2863453215"/>
    <nd ref="3979742094"/>
    <nd ref="4598178226"/>
    <nd ref="8620893481"/>
    <nd ref="30819565"/>
    <nd ref="3409466685"/>
    <nd ref="8488087668"/>
    <nd ref="3409521475"/>
    <nd ref="6417258420"/>
    <nd ref="30819566"/>
    <tag k="cycleway:both" v="no"/>
    <tag k="highway" v="residential"/>
    <tag k="lit" v="yes"/>
    <tag k="maxspeed" v="30"/>
    <tag k="name" v="Schluchseestraße"/>
    <tag k="name:etymology:wikidata" v="Q835671"/>
    <tag k="postal_code" v="13469"/>
    <tag k="sidewalk:both" v="separate"/>
    <tag k="smoothness" v="intermediate"/>
    <tag k="surface" v="asphalt"/>
  </way>
  <way id="4802556" version="14" timestamp="2023-08-11T20:18:51Z" changeset="139764850" uid="6811035" user="SteMue">
    <nd ref="30819585"/>
    <nd ref="10855992386"/>
    <nd ref="4777047246"/>
    <nd ref="3409442430"/>
    <nd ref="30819592"/>
    <nd ref="30819593"/>
    <tag k="cycleway:both" v="no"/>
    <tag k="highway" v="residential"/>
    <tag k="lit" v="yes"/>
    <tag k="maxspeed" v="30"/>
    <tag k="name" v="Tegernauer Zeile"/>
    <tag k="name:etymology:wikidata" v="Q692977"/>
    <tag k="postal_code" v="13469"/>
    <tag k="sidewalk:both" v="separate"/>
    <tag k="surface" v="concrete"/>
  </way>
  <way id="9774896" version="18" timestamp="2025-03-19T22:41:08Z" changeset="163838949" uid="44217" user="kjon">
    <nd ref="77658976"/>
    <nd ref="77658967"/>
    <tag k="cycleway:both" v="no"/>
    <tag k="cycleway:left:surface" v="paving_stones"/>
    <tag k="highway" v="primary"/>
    <tag k="lanes" v="2"/>
    <tag k="lit" v="yes"/>
    <tag k="maxspeed" v="50"/>
    <tag k="name" v="Oraniendamm"/>
    <tag k="name:etymology:wikidata" v="Q2281221"/>
    <tag k="parking:both" v="no"/>
    <tag k="postal_code" v="13467"/>
    <tag k="ref" v="B 96"/>
    <tag k="sidewalk:both" v="separate"/>
    <tag k="sidewalk:both:surface" v="paving_stones"/>
    <tag k="smoothness" v="good"/>
    <tag k="surface" v="asphalt"/>
    <tag k="wikidata" v="Q60691158"/>
  </way>
  <way id="9774898" version="29" timestamp="2025-03-19T22:40:59Z" changeset="163838949" uid="44217" user="kjon">
    <nd ref="77658967"/>
    <nd ref="281416224"/>
    <tag k="cycleway:both" v="no"/>
    <tag k="cycleway:left:surface" v="paving_stones"/>
    <tag k="highway" v="primary"/>
    <tag k="lanes" v="2"/>
    <tag k="lit" v="yes"/>
    <tag k="maxspeed" v="50"/>
    <tag k="name" v="Oraniendamm"/>
    <tag k="name:etymology:wikidata" v="Q2281221"/>
    <tag k="parking:both" v="no"/>
    <tag k="postal_code" v="13469"/>
    <tag k="ref" v="B 96"/>
    <tag k="sidewalk:both" v="separate"/>
    <tag k="sidewalk:both:surface" v="paving_stones"/>
    <tag k="smoothness" v="good"/>
    <tag k="surface" v="asphalt"/>
    <tag k="wikidata" v="Q60691158"/>
  </way>
  <way id="21261603" version="15" timestamp="2025-03-22T08:48:02Z" changeset="163936636" uid="44217" user="kjon">
    <nd ref="30818830"/>
    <nd ref="12690281660"/>
    <nd ref="876912645"/>
    <nd ref="30818831"/>
    <nd ref="7712019546"/>
    <nd ref="12690281670"/>
    <nd ref="30818825"/>
    <nd ref="12690362029"/>
    <nd ref="30818846"/>
    <tag k="cycleway:both" v="no"/>
    <tag k="highway" v="residential"/>
    <tag k="lit" v="yes"/>
    <tag k="maxspeed" v="30"/>
    <tag k="name" v="Pforzheimer Straße"/>
    <tag k="name:etymology:wikidata" v="Q3046"/>
    <tag k="postal_code" v="13469"/>
  </way>
  <way id="25058813" version="20" timestamp="2025-03-19T22:35:48Z" changeset="163838949" uid="44217" user="kjon">
    <nd ref="280480356"/>
    <nd ref="12290262177"/>
    <nd ref="8951236627"/>
    <nd ref="280480354"/>
    <tag k="cycleway:both" v="no"/>
    <tag k="highway" v="residential"/>
    <tag k="lit" v="yes"/>
    <tag k="maxspeed" v="30"/>
    <tag k="name" v="Fürst-Bismarck-Straße"/>
    <tag k="name:etymology:wikidata" v="Q8442"/>
    <tag k="name:etymology:wikipedia" v="de:Otto von Bismarck"/>
    <tag k="oneway" v="yes"/>
    <tag k="parking:both" v="no"/>
    <tag k="postal_code" v="13469"/>
    <tag k="sidewalk:left" v="no"/>
    <tag k="sidewalk:right" v="separate"/>
    <tag k="smoothness" v="very_bad"/>
    <tag k="surface" v="sett"/>
  </way>
  <way id="25722359" version="18" timestamp="2025-03-19T22:35:44Z" changeset="163838949" uid="44217" user="kjon">
    <nd ref="280480355"/>
    <nd ref="8962953641"/>
    <nd ref="280480356"/>
    <tag k="cycleway:both" v="no"/>
    <tag k="highway" v="residential"/>
    <tag k="lit" v="yes"/>
    <tag k="maxspeed" v="30"/>
    <tag k="name" v="Fürst-Bismarck-Straße"/>
    <tag k="name:etymology:wikidata" v="Q8442"/>
    <tag k="name:etymology:wikipedia" v="de:Otto von Bismarck"/>
    <tag k="oneway" v="yes"/>
    <tag k="parking:both" v="no"/>
    <tag k="postal_code" v="13469"/>
    <tag k="sidewalk:left" v="no"/>
    <tag k="sidewalk:right" v="separate"/>
    <tag k="smoothness" v="very_bad"/>
    <tag k="surface" v="sett"/>
  </way>
  <way id="25799886" version="35" timestamp="2025-03-19T22:35:32Z" changeset="163838949" uid="44217" user="kjon">
    <nd ref="249166417"/>
    <nd ref="7869842823"/>
    <nd ref="11749983321"/>
    <nd ref="30818212"/>
    <nd ref="12563561040"/>
    <nd ref="294851305"/>
    <nd ref="4461806123"/>
    <nd ref="8962953650"/>
    <nd ref="1330083134"/>
    <nd ref="30818209"/>
    <nd ref="7287052601"/>
    <nd ref="30818208"/>
    <nd ref="2941316723"/>
    <nd ref="30818207"/>
    <nd ref="8974648368"/>
    <nd ref="6851198382"/>
    <nd ref="280480354"/>
    <tag k="cycleway:both" v="no"/>
    <tag k="highway" v="residential"/>
    <tag k="lit" v="yes"/>
    <tag k="maxspeed" v="30"/>
    <tag k="name" v="Dianastraße"/>
    <tag k="name:etymology:wikidata" v="Q132543"/>
    <tag k="parking:both" v="lane"/>
    <tag k="parking:both:orientation" v="parallel"/>
    <tag k="postal_code" v="13469"/>
    <tag k="sidewalk:both" v="separate"/>
    <tag k="sidewalk:both:surface" v="paving_stones"/>
    <tag k="smoothness" v="good"/>
    <tag k="surface" v="asphalt"/>
  </way>
  <way id="26337092" version="18" timestamp="2025-03-19T22:35:17Z" changeset="163838949" uid="44217" user="kjon">
    <nd ref="30833285"/>
    <nd ref="2938844248"/>
    <tag k="bridge" v="yes"/>
    <tag k="cycleway:both" v="no"/>
    <tag k="highway" v="residential"/>
    <tag k="layer" v="1"/>
    <tag k="lit" v="yes"/>
    <tag k="maxspeed" v="30"/>
    <tag k="maxweight:signed" v="no"/>
    <tag k="name" v="Artemisstraße"/>
    <tag k="name:etymology:wikidata" v="Q39503"/>
    <tag k="parking:both" v="lane"/>
    <tag k="parking:both:orientation" v="parallel"/>
    <tag k="postal_code" v="13469"/>
    <tag k="sidewalk:both" v="separate"/>
    <tag k="sidewalk:both:surface" v="paving_stones"/>
    <tag k="smoothness" v="good"/>
    <tag k="surface" v="asphalt"/>
    <tag k="width" v="7"/>
  </way>
  <way id="28985826" version="23" timestamp="2025-03-22T17:38:07Z" changeset="163957578" uid="44217" user="kjon">
    <nd ref="30818818"/>
    <nd ref="30818817"/>
    <nd ref="6769322932"/>
    <nd ref="6877263404"/>
    <nd ref="11934557131"/>
    <nd ref="30818816"/>
    <nd ref="30818815"/>
    <nd ref="8403246288"/>
    <nd ref="3906100578"/>
    <nd ref="4777047297"/>
    <nd ref="2863453023"/>
    <nd ref="10694500908"/>
    <tag k="cycleway:both" v="no"/>
    <tag k="highway" v="tertiary"/>
    <tag k="lane_markings" v="no"/>
    <tag k="lit" v="yes"/>
    <tag k="maxspeed" v="50"/>
    <tag k="name" v="Zabel-Krüger-Damm"/>
    <tag k="name:etymology:wikidata" v="Q92541153"/>
    <tag k="postal_code" v="13469"/>
    <tag k="sidewalk:both" v="separate"/>
    <tag k="smoothness" v="good"/>
    <tag k="surface" v="asphalt"/>
    <tag k="wikidata" v="Q92540512"/>
  </way>
  <way id="28985887" version="29" timestamp="2023-08-11T20:18:44Z" changeset="139764850" uid="6811035" user="SteMue">
    <nd ref="30819567"/>
    <nd ref="1307662071"/>
    <nd ref="1307662072"/>
    <nd ref="661119551"/>
    <nd ref="2862187417"/>
    <nd ref="30819569"/>
    <nd ref="6837033325"/>
    <nd ref="2862187414"/>
    <nd ref="6837033320"/>
    <nd ref="10856040013"/>
    <nd ref="10856040020"/>
    <nd ref="10856040019"/>
    <nd ref="10856040016"/>
    <nd ref="10856040021"/>
    <nd ref="5832797242"/>
    <nd ref="10856040022"/>
    <nd ref="10856040015"/>
    <nd ref="318732485"/>
    <nd ref="10856040023"/>
    <nd ref="6849282781"/>
    <nd ref="6849293086"/>
    <nd ref="30819573"/>
    <nd ref="30819574"/>
    <nd ref="1307681675"/>
    <nd ref="6904489298"/>
    <nd ref="7687338677"/>
    <tag k="cycleway:both" v="no"/>
    <tag k="highway" v="residential"/>
    <tag k="lit" v="yes"/>
    <tag k="maxspeed" v="30"/>
    <tag k="name" v="Schluchseestraße"/>
    <tag k="name:etymology:wikidata" v="Q835671"/>
    <tag k="postal_code" v="13469"/>
    <tag k="sidewalk:both" v="separate"/>
    <tag k="surface" v="asphalt"/>
  </way>
  <way id="29376401" version="27" timestamp="2025-03-22T17:38:15Z" changeset="163957578" uid="44217" user="kjon">
    <nd ref="30818818"/>
    <nd ref="3979742127"/>
    <nd ref="6769322936"/>
    <nd ref="8266508929"/>
    <nd ref="412270070"/>
    <tag k="cycleway:both" v="no"/>
    <tag k="highway" v="tertiary"/>
    <tag k="lane_markings" v="no"/>
    <tag k="lit" v="yes"/>
    <tag k="maxspeed" v="50"/>
    <tag k="name" v="Zabel-Krüger-Damm"/>
    <tag k="name:etymology:wikidata" v="Q92541153"/>
    <tag k="postal_code" v="13469"/>
    <tag k="sidewalk:both" v="separate"/>
    <tag k="surface" v="asphalt"/>
    <tag k="wikidata" v="Q92540512"/>
  </way>
  <way id="32423979" version="22" timestamp="2025-02-14T21:33:22Z" changeset="162519265" uid="44217" user="kjon">
    <nd ref="6816043055"/>
    <nd ref="7425871001"/>
    <nd ref="30437251"/>
    <nd ref="1330083132"/>
    <nd ref="6862941492"/>
    <nd ref="472695714"/>
    <nd ref="3979739554"/>
    <nd ref="249166417"/>
    <tag k="cycleway:both" v="no"/>
    <tag k="highway" v="secondary"/>
    <tag k="lanes" v="2"/>
    <tag k="lit" v="yes"/>
    <tag k="maxspeed" v="50"/>
    <tag k="name" v="Waidmannsluster Damm"/>
    <tag k="name:etymology:wikidata" v="Q648245"/>
    <tag k="parking:both" v="yes"/>
    <tag k="parking:both:orientation" v="parallel"/>
    <tag k="parking:lane:both:parallel" v="half_on_kerb"/>
    <tag k="postal_code" v="13469"/>
    <tag k="sidewalk:both" v="separate"/>
    <tag k="sidewalk:both:surface" v="paving_stones"/>
    <tag k="smoothness" v="good"/>
    <tag k="surface" v="asphalt"/>
    <tag k="wikidata" v="Q63410222"/>
  </way>
  <way id="36381149" version="33" timestamp="2025-04-29T05:01:13Z" changeset="165573787" uid="11146797" user="cyton">
    <nd ref="30437211"/>
    <nd ref="5747408108"/>
    <nd ref="2862188850"/>
    <nd ref="21538167"/>
    <nd ref="12405619726"/>
    <tag k="bicycle:backward" v="optional_sidepath"/>
    <tag k="change:lanes:backward" v="not_left|yes|yes"/>
    <tag k="change:lanes:forward" v="no"/>
    <tag k="cycleway:left" v="separate"/>
    <tag k="cycleway:right" v="no"/>
    <tag k="highway" v="primary"/>
    <tag k="lane_markings" v="yes"/>
    <tag k="lanes" v="4"/>
    <tag k="lanes:backward" v="3"/>
    <tag k="lanes:forward" v="1"/>
    <tag k="lit" v="yes"/>
    <tag k="maxspeed" v="50"/>
    <tag k="name" v="Oraniendamm"/>
    <tag k="name:etymology:wikidata" v="Q2281221"/>
    <tag k="parking:both" v="no"/>
    <tag k="postal_code" v="13469"/>
    <tag k="ref" v="B 96"/>
    <tag k="sidewalk:both" v="separate"/>
    <tag k="sidewalk:both:surface" v="paving_stones"/>
    <tag k="smoothness" v="good"/>
    <tag k="surface" v="asphalt"/>
    <tag k="turn:lanes:backward" v="none|through|right"/>
    <tag k="wikidata" v="Q60691158"/>
  </way>
  <way id="37958937" version="18" timestamp="2025-03-19T22:41:20Z" changeset="163838949" uid="44217" user="kjon">
    <nd ref="445830935"/>
    <nd ref="4500595451"/>
    <tag k="cycleway:both" v="no"/>
    <tag k="cycleway:left:surface" v="paving_stones"/>
    <tag k="highway" v="primary"/>
    <tag k="lanes" v="2"/>
    <tag k="lit" v="yes"/>
    <tag k="maxspeed" v="50"/>
    <tag k="name" v="Berliner Straße"/>
    <tag k="name:etymology:wikidata" v="Q63410243"/>
    <tag k="parking:both" v="no"/>
    <tag k="postal_code" v="13467"/>
    <tag k="ref" v="B 96"/>
    <tag k="sidewalk:both" v="separate"/>
    <tag k="sidewalk:both:surface" v="paving_stones"/>
    <tag k="smoothness" v="good"/>
    <tag k="surface" v="asphalt"/>
    <tag k="wikidata" v="Q63410243"/>
  </way>
  <way id="40486950" version="20" timestamp="2025-03-20T18:48:45Z" changeset="163876544" uid="44217" user="kjon">
    <nd ref="490666595"/>
    <nd ref="8810518624"/>
    <nd ref="661123252"/>
    <nd ref="7712019572"/>
    <nd ref="490666610"/>
    <nd ref="7712019487"/>
    <nd ref="7712019486"/>
    <nd ref="7712019485"/>
    <nd ref="8810518623"/>
    <nd ref="7711991284"/>
    <nd ref="8810518622"/>
    <nd ref="7711991283"/>
    <nd ref="7711991282"/>
    <nd ref="490666612"/>
    <nd ref="7711991281"/>
    <nd ref="7711991280"/>
    <nd ref="4272939880"/>
    <nd ref="12685359689"/>
    <nd ref="12685359688"/>
    <nd ref="30818820"/>
    <tag k="cycleway:both" v="no"/>
    <tag k="highway" v="residential"/>
    <tag k="lanes" v="1"/>
    <tag k="lit" v="yes"/>
    <tag k="maxspeed" v="30"/>
    <tag k="name" v="Wolfacher Pfad"/>
    <tag k="name:etymology:wikidata" v="Q506780"/>
    <tag k="oneway" v="no"/>
    <tag k="postal_code" v="13469"/>
    <tag k="smoothness" v="good"/>
    <tag k="surface" v="paving_stones"/>
  </way>
  <way id="40936940" version="11" timestamp="2023-07-10T19:42:28Z" changeset="138350380" uid="16633902" user="dangerjens">
    <nd ref="498600238"/>
    <nd ref="498600246"/>
    <nd ref="2329976773"/>
    <nd ref="8616259253"/>
    <nd ref="8616259252"/>
    <nd ref="8616259251"/>
    <nd ref="8616259220"/>
    <nd ref="8616259218"/>
    <nd ref="8616259219"/>
    <nd ref="8616259221"/>
    <nd ref="8616259225"/>
    <nd ref="8616259222"/>
    <nd ref="8616259223"/>
    <nd ref="8616259224"/>
    <nd ref="8616259226"/>
    <nd ref="8616259227"/>
    <nd ref="8616259228"/>
    <nd ref="8616259229"/>
    <nd ref="8616259233"/>
    <nd ref="8616259232"/>
    <nd ref="8616259231"/>
    <nd ref="8616259230"/>
    <nd ref="8616259237"/>
    <nd ref="8616259236"/>
    <nd ref="8616259235"/>
    <nd ref="8616259234"/>
    <nd ref="8616259240"/>
    <nd ref="8616259239"/>
    <nd ref="8616259238"/>
    <nd ref="8616259241"/>
    <nd ref="8616259245"/>
    <nd ref="8616259242"/>
    <nd ref="8616259243"/>
    <nd ref="8616259244"/>
    <nd ref="8616259248"/>
    <nd ref="8616259247"/>
    <nd ref="8616259246"/>
    <nd ref="8616259249"/>
    <nd ref="498600243"/>
    <nd ref="498600241"/>
    <nd ref="2329985287"/>
    <nd ref="498600238"/>
    <tag k="addr:city" v="Berlin"/>
    <tag k="addr:postcode" v="13469"/>
    <tag k="addr:street" v="Oraniendamm"/>
    <tag k="brand:wikidata" v="Q871302"/>
    <tag k="brand:wikipedia" v="de:McFit"/>
    <tag k="building" v="retail"/>
    <tag k="building:levels" v="1"/>
    <tag k="name" v="Fitnesscenter"/>
  </way>
  <way id="40937999" version="15" timestamp="2025-03-31T17:38:40Z" changeset="164341785" uid="44217" user="kjon">
    <nd ref="498640291"/>
    <nd ref="498640297"/>
    <nd ref="498640298"/>
    <nd ref="498640300"/>
    <nd ref="498640295"/>
    <nd ref="498640293"/>
    <nd ref="2863445627"/>
    <nd ref="2863452537"/>
    <nd ref="2863452708"/>
    <nd ref="498640291"/>
    <tag k="brand" v="Edeka"/>
    <tag k="brand:wikidata" v="Q701755"/>
    <tag k="brand:wikipedia" v="de:Edeka"/>
    <tag k="building" v="retail"/>
    <tag k="check_date" v="2024-08-18"/>
    <tag k="name" v="EDEKA"/>
    <tag k="opening_hours" v="PH off; Mo-Sa 07:00-22:00"/>
    <tag k="shop" v="supermarket"/>
  </way>
  <way id="45769043" version="21" timestamp="2025-02-21T19:45:42Z" changeset="162793804" uid="44217" user="kjon">
    <nd ref="582862747"/>
    <nd ref="670304815"/>
    <nd ref="4688606131"/>
    <nd ref="281429590"/>
    <nd ref="30437196"/>
    <nd ref="12466870298"/>
    <nd ref="12467246468"/>
    <nd ref="3979742079"/>
    <nd ref="5747373759"/>
    <nd ref="5747373756"/>
    <nd ref="12556362719"/>
    <nd ref="30437187"/>
    <tag k="cycleway:both" v="no"/>
    <tag k="cycleway:left:surface" v="paving_stones"/>
    <tag k="highway" v="primary"/>
    <tag k="lanes" v="2"/>
    <tag k="lit" v="yes"/>
    <tag k="maxspeed" v="50"/>
    <tag k="name" v="Oranienburger Straße"/>
    <tag k="name:etymology:wikidata" v="Q14808"/>
    <tag k="parking:left" v="no"/>
    <tag k="parking:right" v="on_kerb"/>
    <tag k="parking:right:orientation" v="parallel"/>
    <tag k="postal_code" v="13469"/>
    <tag k="ref" v="B 96"/>
    <tag k="sidewalk:both" v="separate"/>
    <tag k="sidewalk:both:surface" v="paving_stones"/>
    <tag k="smoothness" v="good"/>
    <tag k="surface" v="asphalt"/>
    <tag k="wikidata" v="Q60632083"/>
  </way>
  <way id="48395703" version="16" timestamp="2024-11-14T07:13:19Z" changeset="159117785" uid="66391" user="geozeisig">
    <nd ref="614653567"/>
    <nd ref="614653568"/>
    <nd ref="991844146"/>
    <nd ref="614653610"/>
    <nd ref="614653612"/>
    <nd ref="2862188823"/>
    <nd ref="614653554"/>
    <nd ref="614653579"/>
    <nd ref="614653613"/>
    <nd ref="614653595"/>
    <nd ref="991844239"/>
    <nd ref="614653567"/>
    <tag k="addr:housenumber" v="6-10"/>
    <tag k="addr:postcode" v="13469"/>
    <tag k="addr:street" v="Oraniendamm"/>
    <tag k="addr:suburb" v="Waidmannslust"/>
    <tag k="building" v="retail"/>
    <tag k="building:levels" v="2"/>
    <tag k="check_date:opening_hours" v="2023-08-12"/>
    <tag k="name" v="Nordmeile"/>
    <tag k="opening_hours" v="Mo-Sa 08:00-20:00"/>
    <tag k="shop" v="mall"/>
    <tag k="source" v="Geoportal Berlin / Hausumringe"/>
    <tag k="toilets" v="no"/>
    <tag k="website" v="http://www.nordmeile-berlin.de"/>
    <tag k="wheelchair" v="limited"/>
  </way>
  <way id="48395704" version="17" timestamp="2024-03-20T12:05:47Z" changeset="148908207" uid="9508237" user="momabebra">
    <nd ref="614653576"/>
    <nd ref="614653570"/>
    <nd ref="8616259488"/>
    <nd ref="8616259487"/>
    <nd ref="614653571"/>
    <nd ref="8616259484"/>
    <nd ref="8616259485"/>
    <nd ref="8616259486"/>
    <nd ref="8616259483"/>
    <nd ref="614653575"/>
    <nd ref="614653576"/>
    <tag k="addr:housenumber" v="6-10"/>
    <tag k="addr:postcode" v="13469"/>
    <tag k="addr:street" v="Oraniendamm"/>
    <tag k="air_conditioning" v="yes"/>
    <tag k="amenity" v="fast_food"/>
    <tag k="brand" v="Burger King"/>
    <tag k="brand:wikidata" v="Q177054"/>
    <tag k="brand:wikipedia" v="en:Burger King"/>
    <tag k="building" v="retail"/>
    <tag k="building:levels" v="2"/>
    <tag k="cuisine" v="burger"/>
    <tag k="diet:vegan" v="yes"/>
    <tag k="diet:vegetarian" v="yes"/>
    <tag k="indoor_seating" v="yes"/>
    <tag k="int_name" v="Burger King"/>
    <tag k="name" v="Burger King"/>
    <tag k="opening_hours" v="Mo-Th 09:00-01:00, Fr-Sa 09:00-05:00, Su 10:00-01:00"/>
    <tag k="outdoor_seating" v="yes"/>
    <tag k="roof:levels" v="0"/>
    <tag k="roof:shape" v="flat"/>
    <tag k="takeaway" v="yes"/>
    <tag k="toilets:wheelchair" v="yes"/>
    <tag k="website" v="https://www.burgerking.de/"/>
    <tag k="wheelchair" v="yes"/>
  </way>
  <way id="48395709" version="4" timestamp="2024-11-14T07:13:19Z" changeset="159117785" uid="66391" user="geozeisig">
    <nd ref="614653562"/>
    <nd ref="614653564"/>
    <nd ref="614653566"/>
    <nd ref="614653561"/>
    <nd ref="614653562"/>
    <tag k="amenity" v="music_school"/>
    <tag k="building" v="yes"/>
    <tag k="email" v="info@pianoeforte.de"/>
    <tag k="name" v="piano e forte"/>
    <tag k="opening_hours" v="Mo-Fr 13:00-20:00"/>
    <tag k="operator" v="piano e forte, priv. Musikschule GmbH"/>
    <tag k="operator:type" v="private"/>
    <tag k="phone" v="+49 30 404 02 44"/>
    <tag k="start_date" v="1997"/>
    <tag k="website" v="https://www.pianoeforte.de/"/>
  </way>
  <way id="51824456" version="11" timestamp="2024-03-20T11:18:24Z" changeset="148906434" uid="9508237" user="momabebra">
    <nd ref="661119551"/>
    <nd ref="10856037297"/>
    <nd ref="4558189565"/>
    <nd ref="7711671121"/>
    <nd ref="661119552"/>
    <nd ref="11747782859"/>
    <nd ref="281429609"/>
    <tag k="cycleway:both" v="no"/>
    <tag k="highway" v="residential"/>
    <tag k="lit" v="yes"/>
    <tag k="maxspeed" v="30"/>
    <tag k="name" v="Höllentalweg"/>
    <tag k="name:etymology:wikidata" v="Q301685"/>
    <tag k="name:etymology:wikipedia" v="de:Höllental (Schwarzwald)"/>
    <tag k="postal_code" v="13469"/>
    <tag k="surface" v="asphalt"/>
  </way>
  <way id="51825054" version="11" timestamp="2025-03-22T11:53:52Z" changeset="163943705" uid="44217" user="kjon">
    <nd ref="30818820"/>
    <nd ref="12685359685"/>
    <nd ref="661123176"/>
    <nd ref="12685383006"/>
    <nd ref="30818838"/>
    <tag k="cycleway:both" v="no"/>
    <tag k="highway" v="residential"/>
    <tag k="lit" v="yes"/>
    <tag k="maxspeed" v="30"/>
    <tag k="name" v="Horber Straße"/>
    <tag k="name:etymology:wikidata" v="Q82690"/>
    <tag k="oneway" v="yes"/>
    <tag k="postal_code" v="13469"/>
    <tag k="sidewalk:left" v="no"/>
    <tag k="sidewalk:right" v="separate"/>
    <tag k="sidewalk:right:surface" v="paving_stones"/>
    <tag k="smoothness" v="good"/>
    <tag k="surface" v="paving_stones"/>
  </way>
  <way id="51825055" version="14" timestamp="2025-03-22T11:53:42Z" changeset="163943705" uid="44217" user="kjon">
    <nd ref="30818838"/>
    <nd ref="12690362070"/>
    <nd ref="7410856542"/>
    <nd ref="11747869750"/>
    <tag k="cycleway:both" v="no"/>
    <tag k="highway" v="residential"/>
    <tag k="lit" v="yes"/>
    <tag k="maxspeed" v="30"/>
    <tag k="name" v="Horber Straße"/>
    <tag k="name:etymology:wikidata" v="Q82690"/>
    <tag k="postal_code" v="13469"/>
    <tag k="sidewalk:both:surface" v="paving_stones"/>
    <tag k="sidewalk:left" v="yes"/>
    <tag k="sidewalk:right" v="separate"/>
    <tag k="smoothness" v="intermediate"/>
    <tag k="surface" v="paving_stones"/>
  </way>
  <way id="52877220" version="12" timestamp="2025-03-19T22:36:53Z" changeset="163838949" uid="44217" user="kjon">
    <nd ref="670304812"/>
    <nd ref="12677444995"/>
    <nd ref="670304813"/>
    <nd ref="670304814"/>
    <nd ref="12677444986"/>
    <nd ref="30818213"/>
    <tag k="cycleway:both" v="no"/>
    <tag k="highway" v="residential"/>
    <tag k="lit" v="yes"/>
    <tag k="maxspeed" v="30"/>
    <tag k="name" v="Halalistraße"/>
    <tag k="name:etymology:wikidata" v="Q91870984"/>
    <tag k="parking:both" v="lane"/>
    <tag k="parking:both:orientation" v="parallel"/>
    <tag k="parking:both:staggered" v="yes"/>
    <tag k="postal_code" v="13469"/>
    <tag k="sidewalk:both" v="separate"/>
    <tag k="surface" v="asphalt"/>
  </way>
  <way id="52877221" version="11" timestamp="2025-01-01T17:52:56Z" changeset="160878836" uid="558527" user="Hollul">
    <nd ref="670304815"/>
    <nd ref="12467246469"/>
    <nd ref="2862187617"/>
    <nd ref="670304824"/>
    <nd ref="2862188310"/>
    <nd ref="4668006803"/>
    <nd ref="2862188808"/>
    <nd ref="670304825"/>
    <tag k="access" v="destination"/>
    <tag k="cycleway:both" v="no"/>
    <tag k="highway" v="residential"/>
    <tag k="lit" v="yes"/>
    <tag k="maxspeed" v="30"/>
    <tag k="name" v="Straße 199"/>
    <tag k="postal_code" v="13469"/>
    <tag k="sidewalk" v="no"/>
  </way>
  <way id="52877222" version="10" timestamp="2025-03-22T11:50:26Z" changeset="163943705" uid="44217" user="kjon">
    <nd ref="30818230"/>
    <nd ref="2863431114"/>
    <nd ref="8873905672"/>
    <nd ref="8873905673"/>
    <nd ref="8873905674"/>
    <nd ref="30818836"/>
    <nd ref="8873905675"/>
    <nd ref="30818833"/>
    <tag k="cycleway:both" v="no"/>
    <tag k="highway" v="residential"/>
    <tag k="lit" v="yes"/>
    <tag k="maxspeed" v="30"/>
    <tag k="name" v="Eutinger Weg"/>
    <tag k="name:etymology:wikidata" v="Q81702"/>
    <tag k="postal_code" v="13469"/>
    <tag k="sidewalk:both" v="separate"/>
    <tag k="smoothness" v="good"/>
    <tag k="surface" v="asphalt"/>
  </way>
  <way id="52877225" version="7" timestamp="2023-02-24T15:56:35Z" changeset="132974459" uid="2807324" user="bwbuz">
    <nd ref="670304828"/>
    <nd ref="2862187609"/>
    <nd ref="670304830"/>
    <nd ref="8632193945"/>
    <nd ref="670304831"/>
    <nd ref="670304829"/>
    <nd ref="670304827"/>
    <nd ref="2862187610"/>
    <nd ref="8632193953"/>
    <nd ref="2862188011"/>
    <nd ref="8632193959"/>
    <nd ref="670304822"/>
    <nd ref="991851286"/>
    <nd ref="8632193944"/>
    <nd ref="8632193957"/>
    <nd ref="670304819"/>
    <nd ref="8632193956"/>
    <nd ref="991851287"/>
    <nd ref="8632193955"/>
    <nd ref="670304816"/>
    <nd ref="8632193954"/>
    <nd ref="8632193960"/>
    <nd ref="8632193961"/>
    <nd ref="8632193950"/>
    <nd ref="8632193958"/>
    <nd ref="670304825"/>
    <nd ref="670304827"/>
    <tag k="access" v="destination"/>
    <tag k="highway" v="residential"/>
    <tag k="maxspeed" v="30"/>
    <tag k="name" v="Straße 167"/>
    <tag k="postal_code" v="13469"/>
    <tag k="sidewalk:both" v="no"/>
    <tag k="surface" v="dirt"/>
    <tag k="tracktype" v="grade3"/>
  </way>
  <way id="53201479" version="27" timestamp="2025-03-19T22:40:52Z" changeset="163838949" uid="44217" user="kjon">
    <nd ref="281416224"/>
    <nd ref="4588981365"/>
    <nd ref="6853196513"/>
    <nd ref="21538161"/>
    <nd ref="5747412518"/>
    <nd ref="5747412515"/>
    <nd ref="30818175"/>
    <tag k="cycleway:both" v="no"/>
    <tag k="cycleway:left:surface" v="paving_stones"/>
    <tag k="highway" v="primary"/>
    <tag k="lanes" v="2"/>
    <tag k="lit" v="yes"/>
    <tag k="maxspeed" v="50"/>
    <tag k="name" v="Oraniendamm"/>
    <tag k="name:etymology:wikidata" v="Q2281221"/>
    <tag k="parking:both" v="no"/>
    <tag k="postal_code" v="13469"/>
    <tag k="ref" v="B 96"/>
    <tag k="sidewalk:both" v="separate"/>
    <tag k="smoothness" v="good"/>
    <tag k="surface" v="asphalt"/>
    <tag k="wikidata" v="Q60691158"/>
  </way>
  <way id="60076656" version="15" timestamp="2024-03-25T17:12:14Z" changeset="149140469" uid="6811035" user="SteMue">
    <nd ref="249166417"/>
    <nd ref="271667902"/>
    <tag k="cycleway:both" v="no"/>
    <tag k="highway" v="secondary"/>
    <tag k="lanes" v="2"/>
    <tag k="lit" v="yes"/>
    <tag k="maxspeed" v="50"/>
    <tag k="name" v="Waidmannsluster Damm"/>
    <tag k="name:etymology:wikidata" v="Q648245"/>
    <tag k="postal_code" v="13509"/>
    <tag k="sidewalk:both" v="separate"/>
    <tag k="sidewalk:both:surface" v="paving_stones"/>
    <tag k="smoothness" v="good"/>
    <tag k="surface" v="asphalt"/>
    <tag k="wikidata" v="Q63410222"/>
  </way>
  <way id="60077030" version="16" timestamp="2024-03-30T19:15:15Z" changeset="149363948" uid="9508237" user="momabebra">
    <nd ref="746585461"/>
    <nd ref="746585462"/>
    <nd ref="746585463"/>
    <nd ref="746585464"/>
    <nd ref="3979742064"/>
    <nd ref="746585465"/>
    <nd ref="746585466"/>
    <nd ref="11700305058"/>
    <nd ref="746585467"/>
    <nd ref="3949431063"/>
    <nd ref="675503714"/>
    <tag k="cycleway:both" v="no"/>
    <tag k="highway" v="secondary"/>
    <tag k="lane_markings" v="no"/>
    <tag k="lit" v="yes"/>
    <tag k="maxspeed" v="50"/>
    <tag k="name" v="Waidmannsluster Damm"/>
    <tag k="name:etymology:wikidata" v="Q648245"/>
    <tag k="oneway" v="yes"/>
    <tag k="parking:left" v="no"/>
    <tag k="postal_code" v="13509"/>
    <tag k="sidewalk:left" v="no"/>
    <tag k="sidewalk:right" v="separate"/>
    <tag k="smoothness" v="good"/>
    <tag k="surface" v="asphalt"/>
    <tag k="wikidata" v="Q63410222"/>
  </way>
  <way id="60077032" version="19" timestamp="2024-03-30T19:15:16Z" changeset="149363948" uid="9508237" user="momabebra">
    <nd ref="675503714"/>
    <nd ref="3949431062"/>
    <nd ref="30437281"/>
    <nd ref="746585479"/>
    <nd ref="3979742063"/>
    <nd ref="30437280"/>
    <nd ref="30437279"/>
    <nd ref="281200574"/>
    <nd ref="662919425"/>
    <nd ref="7444761839"/>
    <nd ref="746585461"/>
    <tag k="cycleway:both" v="no"/>
    <tag k="highway" v="secondary"/>
    <tag k="lane_markings" v="no"/>
    <tag k="lit" v="yes"/>
    <tag k="maxspeed" v="50"/>
    <tag k="name" v="Waidmannsluster Damm"/>
    <tag k="name:etymology:wikidata" v="Q648245"/>
    <tag k="oneway" v="yes"/>
    <tag k="parking:left" v="no"/>
    <tag k="postal_code" v="13509"/>
    <tag k="sidewalk:left" v="no"/>
    <tag k="sidewalk:right" v="separate"/>
    <tag k="smoothness" v="good"/>
    <tag k="surface" v="asphalt"/>
    <tag k="wikidata" v="Q63410222"/>
  </way>
  <way id="60774825" version="6" timestamp="2025-01-17T22:04:27Z" changeset="161472435" uid="6811035" user="SteMue">
    <nd ref="2941039016"/>
    <nd ref="2941039020"/>
    <nd ref="2941035361"/>
    <nd ref="2941039235"/>
    <nd ref="2941039240"/>
    <nd ref="2941039007"/>
    <nd ref="2941039010"/>
    <nd ref="2941039245"/>
    <nd ref="2941039014"/>
    <nd ref="2941039128"/>
    <nd ref="2941039253"/>
    <nd ref="2941039022"/>
    <nd ref="2941039016"/>
    <tag k="building" v="school"/>
    <tag k="heritage" v="4"/>
    <tag k="heritage:operator" v="lda"/>
    <tag k="historic" v="building"/>
    <tag k="lda:criteria" v="Gesamtanlage"/>
    <tag k="name" v="ehemalige Residenz des Hohen Kommissars der Französischen Republik für Deutschland"/>
    <tag k="ref:lda" v="09011327"/>
    <tag k="source" v="Geoportal Berlin / Hausumringe"/>
    <tag k="start_date" v="1903"/>
  </way>
  <way id="60774830" version="4" timestamp="2019-03-11T11:24:02Z" changeset="68018676" uid="66391" user="geozeisig">
    <nd ref="2861333328"/>
    <nd ref="2946042398"/>
    <nd ref="2946042396"/>
    <nd ref="2946041980"/>
    <nd ref="2946043350"/>
    <nd ref="2946043347"/>
    <nd ref="2946042646"/>
    <nd ref="2946041988"/>
    <nd ref="2946042649"/>
    <nd ref="2861333328"/>
    <tag k="addr:city" v="Berlin"/>
    <tag k="addr:country" v="DE"/>
    <tag k="addr:housenumber" v="122"/>
    <tag k="addr:postcode" v="13469"/>
    <tag k="addr:street" v="Waidmannsluster Damm"/>
    <tag k="addr:suburb" v="Waidmannslust"/>
    <tag k="building" v="yes"/>
    <tag k="heritage" v="4"/>
    <tag k="heritage:operator" v="lda"/>
    <tag k="lda:criteria" v="Baudenkmal"/>
    <tag k="ref:lda" v="09012427"/>
    <tag k="source" v="Geoportal Berlin / Hausumringe"/>
    <tag k="start_date" v="1888"/>
  </way>
  <way id="60774834" version="4" timestamp="2019-03-11T11:24:02Z" changeset="68018676" uid="66391" user="geozeisig">
    <nd ref="2946040366"/>
    <nd ref="2861331964"/>
    <nd ref="2946036781"/>
    <nd ref="2946036783"/>
    <nd ref="2946038579"/>
    <nd ref="2946036807"/>
    <nd ref="2946040366"/>
    <tag k="addr:city" v="Berlin"/>
    <tag k="addr:country" v="DE"/>
    <tag k="addr:housenumber" v="18"/>
    <tag k="addr:postcode" v="13469"/>
    <tag k="addr:street" v="Bondickstraße"/>
    <tag k="addr:suburb" v="Waidmannslust"/>
    <tag k="building" v="yes"/>
    <tag k="heritage" v="4"/>
    <tag k="heritage:operator" v="lda"/>
    <tag k="lda:criteria" v="Baudenkmal"/>
    <tag k="ref:lda" v="09011871"/>
    <tag k="source" v="Geoportal Berlin / Hausumringe"/>
    <tag k="start_date" v="1927"/>
  </way>
  <way id="60774837" version="5" timestamp="2025-02-19T09:58:57Z" changeset="162693502" uid="66391" user="geozeisig">
    <nd ref="2946036580"/>
    <nd ref="2946035958"/>
    <nd ref="2946036572"/>
    <nd ref="2946038068"/>
    <nd ref="2946038049"/>
    <nd ref="2946038058"/>
    <nd ref="2946038643"/>
    <nd ref="2946036565"/>
    <nd ref="2946038645"/>
    <nd ref="2946038647"/>
    <nd ref="2946038646"/>
    <nd ref="2946035954"/>
    <nd ref="2946038835"/>
    <nd ref="2861342617"/>
    <nd ref="2946036580"/>
    <tag k="addr:city" v="Berlin"/>
    <tag k="addr:country" v="DE"/>
    <tag k="addr:housenumber" v="69a"/>
    <tag k="addr:postcode" v="13469"/>
    <tag k="addr:street" v="Bondickstraße"/>
    <tag k="addr:suburb" v="Waidmannslust"/>
    <tag k="building" v="apartments"/>
  </way>
  <way id="60774876" version="4" timestamp="2019-03-12T07:08:57Z" changeset="68050561" uid="66391" user="geozeisig">
    <nd ref="2861346010"/>
    <nd ref="2946038149"/>
    <nd ref="2946038147"/>
    <nd ref="2946035964"/>
    <nd ref="2946036653"/>
    <nd ref="2946036756"/>
    <nd ref="2946036592"/>
    <nd ref="2946038562"/>
    <nd ref="2861346010"/>
    <tag k="addr:city" v="Berlin"/>
    <tag k="addr:country" v="DE"/>
    <tag k="addr:housenumber" v="98"/>
    <tag k="addr:postcode" v="13469"/>
    <tag k="addr:street" v="Waidmannsluster Damm"/>
    <tag k="addr:suburb" v="Waidmannslust"/>
    <tag k="building" v="yes"/>
    <tag k="heritage" v="4"/>
    <tag k="heritage:operator" v="lda"/>
    <tag k="lda:criteria" v="Baudenkmal"/>
    <tag k="ref:lda" v="09012424"/>
    <tag k="source" v="Geoportal Berlin / Hauskoordinaten"/>
    <tag k="start_date" v="1894"/>
  </way>
  <way id="60774880" version="5" timestamp="2023-07-11T08:29:38Z" changeset="138365756" uid="16633902" user="dangerjens">
    <nd ref="2941035306"/>
    <nd ref="2941035305"/>
    <nd ref="2941035204"/>
    <nd ref="2941023738"/>
    <nd ref="2941033923"/>
    <nd ref="2941035801"/>
    <nd ref="2941035803"/>
    <nd ref="2941035304"/>
    <nd ref="2941035804"/>
    <nd ref="2861341604"/>
    <nd ref="2941035810"/>
    <nd ref="2941035816"/>
    <nd ref="2941035813"/>
    <nd ref="2941035207"/>
    <nd ref="2941035306"/>
    <tag k="addr:city" v="Berlin"/>
    <tag k="addr:country" v="DE"/>
    <tag k="addr:housenumber" v="54"/>
    <tag k="addr:postcode" v="13469"/>
    <tag k="addr:street" v="Nimrodstraße"/>
    <tag k="addr:suburb" v="Waidmannslust"/>
    <tag k="building" v="detached"/>
    <tag k="heritage" v="4"/>
    <tag k="heritage:operator" v="lda"/>
    <tag k="lda:criteria" v="Baudenkmal"/>
    <tag k="ref:lda" v="09012174"/>
    <tag k="source" v="Geoportal Berlin / Hausumringe"/>
    <tag k="start_date" v="1925"/>
  </way>
  <way id="60774887" version="6" timestamp="2023-12-27T21:48:35Z" changeset="145593982" uid="16633902" user="dangerjens">
    <nd ref="2946040787"/>
    <nd ref="2946036672"/>
    <nd ref="2946040371"/>
    <nd ref="2946040775"/>
    <nd ref="2861340436"/>
    <nd ref="2946038182"/>
    <nd ref="2946038185"/>
    <nd ref="2946040776"/>
    <nd ref="2946040783"/>
    <nd ref="2946036674"/>
    <nd ref="2946040791"/>
    <nd ref="2946035993"/>
    <nd ref="2946035995"/>
    <nd ref="2946036817"/>
    <nd ref="2946036003"/>
    <nd ref="2946036821"/>
    <nd ref="2946040787"/>
    <tag k="addr:city" v="Berlin"/>
    <tag k="addr:country" v="DE"/>
    <tag k="addr:housenumber" v="76"/>
    <tag k="addr:postcode" v="13469"/>
    <tag k="addr:street" v="Bondickstraße"/>
    <tag k="addr:suburb" v="Waidmannslust"/>
    <tag k="amenity" v="place_of_worship"/>
    <tag k="building" v="yes"/>
    <tag k="check_date" v="2023-12-27"/>
    <tag k="denomination" v="protestant"/>
    <tag k="heritage" v="4"/>
    <tag k="heritage:operator" v="lda"/>
    <tag k="lda:criteria" v="Baudenkmal"/>
    <tag k="name" v="Ev. Kirchengemeinde Waidmannslust"/>
    <tag k="ref:lda" v="09011873"/>
    <tag k="religion" v="christian"/>
    <tag k="source" v="Geoportal Berlin / Hausumringe"/>
    <tag k="start_date" v="1911"/>
  </way>
  <way id="60774900" version="7" timestamp="2025-03-18T20:29:51Z" changeset="163791548" uid="44217" user="kjon">
    <nd ref="2941030180"/>
    <nd ref="2941039115"/>
    <nd ref="2941035276"/>
    <nd ref="2941039225"/>
    <nd ref="2941039111"/>
    <nd ref="2941035346"/>
    <nd ref="2941039217"/>
    <nd ref="2941039107"/>
    <nd ref="2941024991"/>
    <nd ref="2941035275"/>
    <nd ref="2941039234"/>
    <nd ref="2941039117"/>
    <nd ref="2941039120"/>
    <nd ref="2941039230"/>
    <nd ref="2941039232"/>
    <nd ref="2941040506"/>
    <nd ref="2941030184"/>
    <nd ref="2941030183"/>
    <nd ref="2941039233"/>
    <nd ref="2941040505"/>
    <nd ref="2941040504"/>
    <nd ref="2941039119"/>
    <nd ref="2941040503"/>
    <nd ref="2941040501"/>
    <nd ref="2941025000"/>
    <nd ref="2941039229"/>
    <nd ref="2941024998"/>
    <nd ref="2941030180"/>
    <tag k="building" v="school"/>
    <tag k="heritage" v="4"/>
    <tag k="heritage:operator" v="lda"/>
    <tag k="historic" v="building"/>
    <tag k="lda:criteria" v="Gesamtanlage"/>
    <tag k="name" v="ehemalige Residenz des stellvertretenden Kommandanten (Gesandter) der Französischen Militärregierung in Berlin"/>
    <tag k="ref:lda" v="09011896"/>
    <tag k="source" v="Geoportal Berlin / Hausumringe"/>
    <tag k="start_date" v="1908"/>
  </way>
  <way id="60774912" version="4" timestamp="2019-03-11T11:24:03Z" changeset="68018676" uid="66391" user="geozeisig">
    <nd ref="2946036761"/>
    <nd ref="2861336610"/>
    <nd ref="2946036593"/>
    <nd ref="2946038092"/>
    <nd ref="2946036763"/>
    <nd ref="2946036659"/>
    <nd ref="2946036761"/>
    <tag k="addr:city" v="Berlin"/>
    <tag k="addr:country" v="DE"/>
    <tag k="addr:housenumber" v="22"/>
    <tag k="addr:postcode" v="13469"/>
    <tag k="addr:street" v="Bondickstraße"/>
    <tag k="addr:suburb" v="Waidmannslust"/>
    <tag k="building" v="yes"/>
    <tag k="heritage" v="4"/>
    <tag k="heritage:operator" v="lda"/>
    <tag k="lda:criteria" v="Baudenkmal"/>
    <tag k="ref:lda" v="09011872"/>
    <tag k="source" v="Geoportal Berlin / Hausumringe"/>
    <tag k="start_date" v="1910"/>
  </way>
  <way id="60774940" version="5" timestamp="2021-09-15T22:39:47Z" changeset="111264017" uid="6811035" user="SteMue">
    <nd ref="2946043646"/>
    <nd ref="2946042401"/>
    <nd ref="2946041995"/>
    <nd ref="2946042652"/>
    <nd ref="2946042650"/>
    <nd ref="2946041990"/>
    <nd ref="2946041213"/>
    <nd ref="2861331819"/>
    <nd ref="2946043339"/>
    <nd ref="2946041981"/>
    <nd ref="2946042388"/>
    <nd ref="2946042644"/>
    <nd ref="2946043646"/>
    <tag k="addr:city" v="Berlin"/>
    <tag k="addr:country" v="DE"/>
    <tag k="addr:housenumber" v="117"/>
    <tag k="addr:postcode" v="13469"/>
    <tag k="addr:street" v="Waidmannsluster Damm"/>
    <tag k="addr:suburb" v="Waidmannslust"/>
    <tag k="building" v="detached"/>
    <tag k="heritage" v="4"/>
    <tag k="heritage:operator" v="lda"/>
    <tag k="lda:criteria" v="Baudenkmal"/>
    <tag k="ref:lda" v="09012426"/>
    <tag k="source" v="Geoportal Berlin / Hausumringe"/>
    <tag k="start_date" v="1893"/>
  </way>
  <way id="66891107" version="4" timestamp="2019-03-11T11:24:03Z" changeset="68018676" uid="66391" user="geozeisig">
    <nd ref="2942851591"/>
    <nd ref="2942851349"/>
    <nd ref="2942851590"/>
    <nd ref="2942851344"/>
    <nd ref="2942851343"/>
    <nd ref="2942851220"/>
    <nd ref="2942851218"/>
    <nd ref="2942851340"/>
    <nd ref="2942851589"/>
    <nd ref="2942851341"/>
    <nd ref="2942851347"/>
    <nd ref="2942851348"/>
    <nd ref="2942851599"/>
    <nd ref="2942851598"/>
    <nd ref="2942852501"/>
    <nd ref="2942851596"/>
    <nd ref="2861334403"/>
    <nd ref="2942851591"/>
    <tag k="addr:city" v="Berlin"/>
    <tag k="addr:country" v="DE"/>
    <tag k="addr:housenumber" v="170"/>
    <tag k="addr:postcode" v="13469"/>
    <tag k="addr:street" v="Waidmannsluster Damm"/>
    <tag k="addr:suburb" v="Waidmannslust"/>
    <tag k="building" v="yes"/>
    <tag k="heritage" v="4"/>
    <tag k="heritage:operator" v="lda"/>
    <tag k="lda:criteria" v="Baudenkmal"/>
    <tag k="ref:lda" v="09012432"/>
    <tag k="source" v="Geoportal Berlin / Hauskoordinaten"/>
    <tag k="start_date" v="1893"/>
  </way>
  <way id="66891109" version="4" timestamp="2019-03-12T07:08:57Z" changeset="68050561" uid="66391" user="geozeisig">
    <nd ref="2942852344"/>
    <nd ref="2861340939"/>
    <nd ref="2942856437"/>
    <nd ref="2942856425"/>
    <nd ref="2942856561"/>
    <nd ref="2942856571"/>
    <nd ref="2942856570"/>
    <nd ref="2942856446"/>
    <nd ref="2942852344"/>
    <tag k="addr:city" v="Berlin"/>
    <tag k="addr:country" v="DE"/>
    <tag k="addr:housenumber" v="6"/>
    <tag k="addr:postcode" v="13469"/>
    <tag k="addr:street" v="Hubertusstraße"/>
    <tag k="addr:suburb" v="Waidmannslust"/>
    <tag k="building" v="yes"/>
    <tag k="heritage" v="4"/>
    <tag k="heritage:operator" v="lda"/>
    <tag k="lda:criteria" v="Baudenkmal"/>
    <tag k="ref:lda" v="09012061"/>
    <tag k="source" v="Geoportal Berlin / Hauskoordinaten"/>
    <tag k="start_date" v="1907"/>
  </way>
  <way id="66891112" version="4" timestamp="2019-03-12T07:08:58Z" changeset="68050561" uid="66391" user="geozeisig">
    <nd ref="2942856420"/>
    <nd ref="2861339157"/>
    <nd ref="2942856414"/>
    <nd ref="2942852342"/>
    <nd ref="2942856420"/>
    <tag k="addr:city" v="Berlin"/>
    <tag k="addr:country" v="DE"/>
    <tag k="addr:housenumber" v="5"/>
    <tag k="addr:postcode" v="13469"/>
    <tag k="addr:street" v="Hubertusstraße"/>
    <tag k="addr:suburb" v="Waidmannslust"/>
    <tag k="building" v="yes"/>
    <tag k="heritage" v="4"/>
    <tag k="heritage:operator" v="lda"/>
    <tag k="lda:criteria" v="Baudenkmal"/>
    <tag k="ref:lda" v="09012060"/>
    <tag k="source" v="Geoportal Berlin / Hauskoordinaten"/>
    <tag k="start_date" v="1908"/>
  </way>
  <way id="66891125" version="5" timestamp="2023-10-10T06:52:27Z" changeset="142378164" uid="20351925" user="das_m">
    <nd ref="2942853704"/>
    <nd ref="2861332209"/>
    <nd ref="2942853607"/>
    <nd ref="2942851873"/>
    <nd ref="2942851382"/>
    <nd ref="2942853611"/>
    <nd ref="2942853704"/>
    <tag k="addr:city" v="Berlin"/>
    <tag k="addr:country" v="DE"/>
    <tag k="addr:housenumber" v="10"/>
    <tag k="addr:postcode" v="13469"/>
    <tag k="addr:street" v="Artemisstraße"/>
    <tag k="addr:suburb" v="Waidmannslust"/>
    <tag k="building" v="apartments"/>
    <tag k="heritage" v="4"/>
    <tag k="heritage:operator" v="lda"/>
    <tag k="lda:criteria" v="Baudenkmal"/>
    <tag k="ref:lda" v="09011814"/>
    <tag k="source" v="Geoportal Berlin / Hauskoordinaten"/>
    <tag k="start_date" v="1899"/>
  </way>
  <way id="67479793" version="3" timestamp="2019-03-12T07:08:58Z" changeset="68050561" uid="66391" user="geozeisig">
    <nd ref="2966844822"/>
    <nd ref="2966844814"/>
    <nd ref="2966844809"/>
    <nd ref="2966844802"/>
    <nd ref="2861342640"/>
    <nd ref="2966844796"/>
    <nd ref="2966844810"/>
    <nd ref="2966844806"/>
    <nd ref="2966844812"/>
    <nd ref="2966844825"/>
    <nd ref="2966844854"/>
    <nd ref="2966844822"/>
    <tag k="addr:city" v="Berlin"/>
    <tag k="addr:country" v="DE"/>
    <tag k="addr:housenumber" v="78"/>
    <tag k="addr:postcode" v="13469"/>
    <tag k="addr:street" v="Bondickstraße"/>
    <tag k="addr:suburb" v="Waidmannslust"/>
    <tag k="building" v="yes"/>
    <tag k="heritage" v="4"/>
    <tag k="heritage:operator" v="lda"/>
    <tag k="lda:criteria" v="Baudenkmal"/>
    <tag k="ref:lda" v="09011874"/>
    <tag k="source" v="Geoportal Berlin / Hauskoordinaten"/>
    <tag k="start_date" v="1930"/>
  </way>
  <way id="69486315" version="4" timestamp="2024-11-14T07:13:19Z" changeset="159117785" uid="66391" user="geozeisig">
    <nd ref="3145465480"/>
    <nd ref="3145465455"/>
    <nd ref="3145465475"/>
    <nd ref="3145465516"/>
    <nd ref="3145465508"/>
    <nd ref="3145465501"/>
    <nd ref="3145465485"/>
    <nd ref="3145465489"/>
    <nd ref="3145465480"/>
    <tag k="addr:city" v="Berlin"/>
    <tag k="addr:housenumber" v="46"/>
    <tag k="addr:postcode" v="13469"/>
    <tag k="addr:street" v="Schluchseestraße"/>
    <tag k="addr:suburb" v="Waidmannslust"/>
    <tag k="amenity" v="community_centre"/>
    <tag k="building" v="yes"/>
    <tag k="building:levels" v="1"/>
    <tag k="email" v="info@streethouse-berlin.de"/>
    <tag k="fax" v="+49 30 40398401"/>
    <tag k="name" v="Streethouse"/>
    <tag k="phone" v="+49 30 4022231"/>
    <tag k="website" v="http://www.streethouse-berlin.de/"/>
  </way>
  <way id="69609947" version="4" timestamp="2022-04-10T13:25:46Z" changeset="119535134" uid="10877479" user="grauy">
    <nd ref="3145476195"/>
    <nd ref="3145476068"/>
    <nd ref="3145476055"/>
    <nd ref="3145476029"/>
    <nd ref="3145476015"/>
    <nd ref="3145475986"/>
    <nd ref="3145475946"/>
    <nd ref="3145475942"/>
    <nd ref="3145475944"/>
    <nd ref="3145475925"/>
    <nd ref="3145476042"/>
    <nd ref="2861336589"/>
    <nd ref="3145476074"/>
    <nd ref="3145476181"/>
    <nd ref="3145476187"/>
    <nd ref="3145476295"/>
    <nd ref="3145476277"/>
    <nd ref="3145476325"/>
    <nd ref="3145476195"/>
    <tag k="addr:city" v="Berlin"/>
    <tag k="addr:country" v="DE"/>
    <tag k="addr:housenumber" v="41A"/>
    <tag k="addr:postcode" v="13469"/>
    <tag k="addr:street" v="Zehntwerderweg"/>
    <tag k="addr:suburb" v="Waidmannslust"/>
    <tag k="building" v="apartments"/>
    <tag k="heritage" v="4"/>
    <tag k="heritage:operator" v="lda"/>
    <tag k="lda:criteria" v="Baudenkmal"/>
    <tag k="old_name" v="Jagdschloß Mehlich"/>
    <tag k="ref:lda" v="09012476"/>
    <tag k="source" v="Geoportal Berlin / Hauskoordinaten"/>
    <tag k="start_date" v="1890"/>
  </way>
  <way id="70030880" version="4" timestamp="2014-10-23T14:06:39Z" changeset="26277972" uid="881429" user="atpl_pilot">
    <nd ref="3145477153"/>
    <nd ref="3145476917"/>
    <nd ref="3145476981"/>
    <nd ref="3145477227"/>
    <nd ref="3145477153"/>
    <tag k="addr:city" v="Berlin"/>
    <tag k="addr:country" v="DE"/>
    <tag k="addr:housenumber" v="69"/>
    <tag k="addr:postcode" v="13469"/>
    <tag k="addr:street" v="Zehntwerderweg"/>
    <tag k="addr:suburb" v="Waidmannslust"/>
    <tag k="building" v="yes"/>
  </way>
  <way id="70030990" version="4" timestamp="2014-10-23T14:06:40Z" changeset="26277972" uid="881429" user="atpl_pilot">
    <nd ref="3145477444"/>
    <nd ref="3145477173"/>
    <nd ref="3145477187"/>
    <nd ref="3145477161"/>
    <nd ref="3145477203"/>
    <nd ref="3145477230"/>
    <nd ref="3145477239"/>
    <nd ref="3145477311"/>
    <nd ref="3145477342"/>
    <nd ref="3145477476"/>
    <nd ref="3145477463"/>
    <nd ref="3145477742"/>
    <nd ref="3145477444"/>
    <tag k="addr:city" v="Berlin"/>
    <tag k="addr:country" v="DE"/>
    <tag k="addr:housenumber" v="71"/>
    <tag k="addr:postcode" v="13469"/>
    <tag k="addr:street" v="Zehntwerderweg"/>
    <tag k="addr:suburb" v="Waidmannslust"/>
    <tag k="building" v="yes"/>
  </way>
  <way id="70031065" version="4" timestamp="2014-10-23T14:06:40Z" changeset="26277972" uid="881429" user="atpl_pilot">
    <nd ref="3145478022"/>
    <nd ref="3145477942"/>
    <nd ref="3145477471"/>
    <nd ref="3145477483"/>
    <nd ref="3145477329"/>
    <nd ref="3145477424"/>
    <nd ref="3145477527"/>
    <nd ref="3145477754"/>
    <nd ref="3145477788"/>
    <nd ref="3145477776"/>
    <nd ref="3145477800"/>
    <nd ref="3145477815"/>
    <nd ref="3145478022"/>
    <tag k="addr:city" v="Berlin"/>
    <tag k="addr:country" v="DE"/>
    <tag k="addr:housenumber" v="73"/>
    <tag k="addr:postcode" v="13469"/>
    <tag k="addr:street" v="Zehntwerderweg"/>
    <tag k="addr:suburb" v="Waidmannslust"/>
    <tag k="building" v="yes"/>
  </way>
  <way id="70031333" version="4" timestamp="2014-10-23T14:06:41Z" changeset="26277972" uid="881429" user="atpl_pilot">
    <nd ref="3145478187"/>
    <nd ref="3145477956"/>
    <nd ref="3145478140"/>
    <nd ref="3145478293"/>
    <nd ref="3145478187"/>
    <tag k="addr:city" v="Berlin"/>
    <tag k="addr:country" v="DE"/>
    <tag k="addr:housenumber" v="75"/>
    <tag k="addr:postcode" v="13469"/>
    <tag k="addr:street" v="Zehntwerderweg"/>
    <tag k="addr:suburb" v="Waidmannslust"/>
    <tag k="building" v="yes"/>
  </way>
  <way id="70031376" version="4" timestamp="2014-10-23T14:06:41Z" changeset="26277972" uid="881429" user="atpl_pilot">
    <nd ref="3145478539"/>
    <nd ref="3145478138"/>
    <nd ref="3145478232"/>
    <nd ref="3145478744"/>
    <nd ref="3145478539"/>
    <tag k="addr:city" v="Berlin"/>
    <tag k="addr:country" v="DE"/>
    <tag k="addr:housenumber" v="77"/>
    <tag k="addr:postcode" v="13469"/>
    <tag k="addr:street" v="Zehntwerderweg"/>
    <tag k="addr:suburb" v="Waidmannslust"/>
    <tag k="building" v="yes"/>
  </way>
  <way id="70031401" version="4" timestamp="2014-10-23T14:06:41Z" changeset="26277972" uid="881429" user="atpl_pilot">
    <nd ref="3145479286"/>
    <nd ref="3145478992"/>
    <nd ref="3145478537"/>
    <nd ref="3145478735"/>
    <nd ref="3145478931"/>
    <nd ref="3145479286"/>
    <tag k="addr:city" v="Berlin"/>
    <tag k="addr:country" v="DE"/>
    <tag k="addr:housenumber" v="79"/>
    <tag k="addr:postcode" v="13469"/>
    <tag k="addr:street" v="Zehntwerderweg"/>
    <tag k="addr:suburb" v="Waidmannslust"/>
    <tag k="building" v="yes"/>
  </way>
  <way id="70031473" version="4" timestamp="2014-10-23T14:06:42Z" changeset="26277972" uid="881429" user="atpl_pilot">
    <nd ref="3145479503"/>
    <nd ref="3145479493"/>
    <nd ref="3145479477"/>
    <nd ref="3145479487"/>
    <nd ref="3145479438"/>
    <nd ref="3145479431"/>
    <nd ref="3145479417"/>
    <nd ref="3145479005"/>
    <nd ref="3145479229"/>
    <nd ref="3145478982"/>
    <nd ref="3145479241"/>
    <nd ref="3145479283"/>
    <nd ref="3145479305"/>
    <nd ref="3145479433"/>
    <nd ref="3145479503"/>
    <tag k="addr:city" v="Berlin"/>
    <tag k="addr:country" v="DE"/>
    <tag k="addr:housenumber" v="81"/>
    <tag k="addr:postcode" v="13469"/>
    <tag k="addr:street" v="Zehntwerderweg"/>
    <tag k="addr:suburb" v="Waidmannslust"/>
    <tag k="building" v="yes"/>
  </way>
  <way id="70031498" version="4" timestamp="2014-10-23T14:06:42Z" changeset="26277972" uid="881429" user="atpl_pilot">
    <nd ref="3145479668"/>
    <nd ref="3145479468"/>
    <nd ref="3145479338"/>
    <nd ref="3145479419"/>
    <nd ref="3145479527"/>
    <nd ref="3145479657"/>
    <nd ref="3145479844"/>
    <nd ref="3145479668"/>
    <tag k="addr:city" v="Berlin"/>
    <tag k="addr:country" v="DE"/>
    <tag k="addr:housenumber" v="83"/>
    <tag k="addr:postcode" v="13469"/>
    <tag k="addr:street" v="Zehntwerderweg"/>
    <tag k="addr:suburb" v="Waidmannslust"/>
    <tag k="building" v="yes"/>
  </way>
  <way id="70031714" version="4" timestamp="2014-10-23T14:06:42Z" changeset="26277972" uid="881429" user="atpl_pilot">
    <nd ref="3145479832"/>
    <nd ref="3145479629"/>
    <nd ref="3145479726"/>
    <nd ref="3145479937"/>
    <nd ref="3145479832"/>
    <tag k="addr:city" v="Berlin"/>
    <tag k="addr:country" v="DE"/>
    <tag k="addr:housenumber" v="85"/>
    <tag k="addr:postcode" v="13469"/>
    <tag k="addr:street" v="Zehntwerderweg"/>
    <tag k="addr:suburb" v="Waidmannslust"/>
    <tag k="building" v="yes"/>
  </way>
  <way id="73814722" version="4" timestamp="2019-03-11T11:24:04Z" changeset="68018676" uid="66391" user="geozeisig">
    <nd ref="2946411968"/>
    <nd ref="2946411773"/>
    <nd ref="2946410898"/>
    <nd ref="2861332423"/>
    <nd ref="2946411968"/>
    <tag k="addr:city" v="Berlin"/>
    <tag k="addr:country" v="DE"/>
    <tag k="addr:housenumber" v="138"/>
    <tag k="addr:postcode" v="13469"/>
    <tag k="addr:street" v="Waidmannsluster Damm"/>
    <tag k="addr:suburb" v="Waidmannslust"/>
    <tag k="building" v="yes"/>
    <tag k="heritage" v="4"/>
    <tag k="heritage:operator" v="lda"/>
    <tag k="lda:criteria" v="Baudenkmal"/>
    <tag k="name" v="Wohnhaus Bondick"/>
    <tag k="ref:lda" v="09012428"/>
    <tag k="source" v="Geoportal Berlin / Hausumringe"/>
    <tag k="start_date" v="1885"/>
  </way>
  <way id="73814748" version="4" timestamp="2019-03-11T11:24:04Z" changeset="68018676" uid="66391" user="geozeisig">
    <nd ref="2941035224"/>
    <nd ref="2941035223"/>
    <nd ref="2941023748"/>
    <nd ref="2941024960"/>
    <nd ref="2941035211"/>
    <nd ref="2941023742"/>
    <nd ref="2941035213"/>
    <nd ref="2861336600"/>
    <nd ref="2941023743"/>
    <nd ref="2941023744"/>
    <nd ref="2941023745"/>
    <nd ref="2941035316"/>
    <nd ref="2941030159"/>
    <nd ref="2941035228"/>
    <nd ref="2941035225"/>
    <nd ref="2941024971"/>
    <nd ref="2941035230"/>
    <nd ref="2941035231"/>
    <nd ref="2941035224"/>
    <tag k="addr:city" v="Berlin"/>
    <tag k="addr:country" v="DE"/>
    <tag k="addr:housenumber" v="49"/>
    <tag k="addr:postcode" v="13469"/>
    <tag k="addr:street" v="Dianastraße"/>
    <tag k="addr:suburb" v="Waidmannslust"/>
    <tag k="building" v="yes"/>
    <tag k="heritage" v="4"/>
    <tag k="heritage:operator" v="lda"/>
    <tag k="lda:criteria" v="Baudenkmal"/>
    <tag k="ref:lda" v="09011897"/>
    <tag k="source" v="Geoportal Berlin / Hausumringe"/>
    <tag k="start_date" v="1890"/>
  </way>
  <way id="73814781" version="4" timestamp="2019-03-11T11:24:04Z" changeset="68018676" uid="66391" user="geozeisig">
    <nd ref="2942854730"/>
    <nd ref="2942831975"/>
    <nd ref="2942831968"/>
    <nd ref="2942854922"/>
    <nd ref="2942854919"/>
    <nd ref="2942831957"/>
    <nd ref="2942831958"/>
    <nd ref="2861333266"/>
    <nd ref="2942831965"/>
    <nd ref="2942831977"/>
    <nd ref="2942831982"/>
    <nd ref="2942854730"/>
    <tag k="addr:city" v="Berlin"/>
    <tag k="addr:country" v="DE"/>
    <tag k="addr:housenumber" v="155"/>
    <tag k="addr:postcode" v="13469"/>
    <tag k="addr:street" v="Waidmannsluster Damm"/>
    <tag k="addr:suburb" v="Waidmannslust"/>
    <tag k="building" v="yes"/>
    <tag k="heritage" v="4"/>
    <tag k="heritage:operator" v="lda"/>
    <tag k="lda:criteria" v="Baudenkmal"/>
    <tag k="ref:lda" v="09012430"/>
    <tag k="source" v="Geoportal Berlin / Hauskoordinaten"/>
    <tag k="start_date" v="1907"/>
  </way>
  <way id="73814792" version="4" timestamp="2024-11-14T07:13:19Z" changeset="159117785" uid="66391" user="geozeisig">
    <nd ref="2941328850"/>
    <nd ref="2941329321"/>
    <nd ref="2941328941"/>
    <nd ref="2941326481"/>
    <nd ref="2941328353"/>
    <nd ref="2941329701"/>
    <nd ref="2941326483"/>
    <nd ref="2941326482"/>
    <nd ref="2941327584"/>
    <nd ref="2941327277"/>
    <nd ref="2941327583"/>
    <nd ref="2941327582"/>
    <nd ref="2941327580"/>
    <nd ref="2941328763"/>
    <nd ref="2941327478"/>
    <nd ref="2941328849"/>
    <nd ref="2941327274"/>
    <nd ref="2941327362"/>
    <nd ref="2941328940"/>
    <nd ref="2941328764"/>
    <nd ref="2941328644"/>
    <nd ref="2941328552"/>
    <nd ref="2941327364"/>
    <nd ref="2941328553"/>
    <nd ref="2941328850"/>
    <tag k="addr:city" v="Berlin"/>
    <tag k="addr:housenumber" v="12"/>
    <tag k="addr:postcode" v="13469"/>
    <tag k="addr:street" v="Dianastraße"/>
    <tag k="addr:suburb" v="Waidmannslust"/>
    <tag k="building" v="yes"/>
    <tag k="heritage" v="4"/>
    <tag k="heritage:operator" v="lda"/>
    <tag k="lda:criteria" v="Baudenkmal"/>
    <tag k="ref:lda" v="09011894"/>
    <tag k="start_date" v="1908"/>
  </way>
  <way id="73814802" version="5" timestamp="2021-09-15T22:39:53Z" changeset="111264017" uid="6811035" user="SteMue">
    <nd ref="2946411956"/>
    <nd ref="2946411958"/>
    <nd ref="2946411957"/>
    <nd ref="2946410891"/>
    <nd ref="2946411952"/>
    <nd ref="2946410889"/>
    <nd ref="2946410888"/>
    <nd ref="2946410884"/>
    <nd ref="2946410883"/>
    <nd ref="2946411183"/>
    <nd ref="2861339173"/>
    <nd ref="2946410882"/>
    <nd ref="2946410886"/>
    <nd ref="2946411959"/>
    <nd ref="2946411956"/>
    <tag k="addr:city" v="Berlin"/>
    <tag k="addr:country" v="DE"/>
    <tag k="addr:housenumber" v="6"/>
    <tag k="addr:postcode" v="13469"/>
    <tag k="addr:street" v="Bondickstraße"/>
    <tag k="addr:suburb" v="Waidmannslust"/>
    <tag k="building" v="detached"/>
    <tag k="heritage" v="4"/>
    <tag k="heritage:operator" v="lda"/>
    <tag k="lda:criteria" v="Baudenkmal"/>
    <tag k="name" v="Typenholzhaus"/>
    <tag k="ref:lda" v="09011869"/>
    <tag k="source" v="Geoportal Berlin / Hauskoordinaten"/>
    <tag k="start_date" v="1892"/>
  </way>
  <way id="74121438" version="7" timestamp="2024-11-04T07:40:32Z" changeset="158728114" uid="6811035" user="SteMue">
    <nd ref="2942851548"/>
    <nd ref="2942848741"/>
    <nd ref="2942851545"/>
    <nd ref="2861332603"/>
    <nd ref="2942851548"/>
    <tag k="addr:city" v="Berlin"/>
    <tag k="addr:country" v="DE"/>
    <tag k="addr:housenumber" v="1"/>
    <tag k="addr:postcode" v="13469"/>
    <tag k="addr:street" v="Nimrodstraße"/>
    <tag k="addr:suburb" v="Waidmannslust"/>
    <tag k="building" v="detached"/>
    <tag k="heritage" v="4"/>
    <tag k="heritage:operator" v="lda"/>
    <tag k="lda:criteria" v="Baudenkmal"/>
    <tag k="ref:lda" v="09012169"/>
    <tag k="source" v="Geoportal Berlin / Hauskoordinaten"/>
    <tag k="start_date" v="1899"/>
  </way>
  <way id="74121478" version="3" timestamp="2017-05-01T18:38:36Z" changeset="48315201" uid="1260280" user="jacobbraeutigam">
    <nd ref="3145483041"/>
    <nd ref="3145482924"/>
    <nd ref="3145482920"/>
    <nd ref="3145482900"/>
    <nd ref="3145482878"/>
    <nd ref="3145482862"/>
    <nd ref="3145482857"/>
    <nd ref="3145482858"/>
    <nd ref="3145482837"/>
    <nd ref="3145483035"/>
    <nd ref="3145483058"/>
    <nd ref="3145483079"/>
    <nd ref="3145483095"/>
    <nd ref="3145483092"/>
    <nd ref="3145483127"/>
    <nd ref="3145483439"/>
    <nd ref="3145483452"/>
    <nd ref="3145483462"/>
    <nd ref="3145483468"/>
    <nd ref="3145483041"/>
    <tag k="addr:city" v="Berlin"/>
    <tag k="addr:country" v="DE"/>
    <tag k="addr:housenumber" v="5"/>
    <tag k="addr:postcode" v="13469"/>
    <tag k="addr:street" v="Büchenbronner Steig"/>
    <tag k="addr:suburb" v="Waidmannslust"/>
    <tag k="building" v="yes"/>
    <tag k="source" v="Geoportal Berlin / Hauskoordinaten"/>
  </way>
  <way id="74121494" version="3" timestamp="2017-05-01T18:38:36Z" changeset="48315201" uid="1260280" user="jacobbraeutigam">
    <nd ref="3145482515"/>
    <nd ref="3145482285"/>
    <nd ref="3145482527"/>
    <nd ref="3145482875"/>
    <nd ref="3145482850"/>
    <nd ref="3145482899"/>
    <nd ref="3145482515"/>
    <tag k="addr:city" v="Berlin"/>
    <tag k="addr:country" v="DE"/>
    <tag k="addr:housenumber" v="98"/>
    <tag k="addr:postcode" v="13469"/>
    <tag k="addr:street" v="Zehntwerderweg"/>
    <tag k="addr:suburb" v="Waidmannslust"/>
    <tag k="building" v="yes"/>
    <tag k="source" v="Geoportal Berlin / Hauskoordinaten"/>
  </way>
  <way id="74121548" version="3" timestamp="2017-05-01T18:38:36Z" changeset="48315201" uid="1260280" user="jacobbraeutigam">
    <nd ref="3145482308"/>
    <nd ref="3145482291"/>
    <nd ref="3145482281"/>
    <nd ref="3145482009"/>
    <nd ref="3145481959"/>
    <nd ref="3145481932"/>
    <nd ref="3145481798"/>
    <nd ref="3145481824"/>
    <nd ref="3145481777"/>
    <nd ref="3145481809"/>
    <nd ref="3145481770"/>
    <nd ref="3145481814"/>
    <nd ref="3145481970"/>
    <nd ref="3145481983"/>
    <nd ref="3145482279"/>
    <nd ref="3145482289"/>
    <nd ref="3145482309"/>
    <nd ref="3145482308"/>
    <tag k="addr:city" v="Berlin"/>
    <tag k="addr:country" v="DE"/>
    <tag k="addr:housenumber" v="96"/>
    <tag k="addr:postcode" v="13469"/>
    <tag k="addr:street" v="Zehntwerderweg"/>
    <tag k="addr:suburb" v="Waidmannslust"/>
    <tag k="building" v="yes"/>
    <tag k="source" v="Geoportal Berlin / Hauskoordinaten"/>
  </way>
  <way id="74121591" version="5" timestamp="2024-11-04T07:31:09Z" changeset="158728114" uid="6811035" user="SteMue">
    <nd ref="2942851728"/>
    <nd ref="2861332338"/>
    <nd ref="2942851719"/>
    <nd ref="2942851812"/>
    <nd ref="2942851564"/>
    <nd ref="2942851731"/>
    <nd ref="2942851728"/>
    <tag k="addr:city" v="Berlin"/>
    <tag k="addr:country" v="DE"/>
    <tag k="addr:housenumber" v="12"/>
    <tag k="addr:postcode" v="13469"/>
    <tag k="addr:street" v="Nach der Höhe"/>
    <tag k="addr:suburb" v="Waidmannslust"/>
    <tag k="building" v="detached"/>
    <tag k="heritage" v="4"/>
    <tag k="heritage:operator" v="lda"/>
    <tag k="lda:criteria" v="Gesamtanlage"/>
    <tag k="ref:lda" v="09012166"/>
    <tag k="source" v="Geoportal Berlin / Hauskoordinaten"/>
    <tag k="start_date" v="1907"/>
  </way>
  <way id="74121619" version="3" timestamp="2017-05-01T18:38:37Z" changeset="48315201" uid="1260280" user="jacobbraeutigam">
    <nd ref="3145481784"/>
    <nd ref="3145481711"/>
    <nd ref="3145481714"/>
    <nd ref="3145481701"/>
    <nd ref="3145481669"/>
    <nd ref="3145481650"/>
    <nd ref="3145481657"/>
    <nd ref="3145481656"/>
    <nd ref="3145481510"/>
    <nd ref="3145481520"/>
    <nd ref="3145481473"/>
    <nd ref="3145481536"/>
    <nd ref="3145481093"/>
    <nd ref="3145481639"/>
    <nd ref="3145481702"/>
    <nd ref="3145481727"/>
    <nd ref="3145481749"/>
    <nd ref="3145481729"/>
    <nd ref="3145481784"/>
    <tag k="addr:city" v="Berlin"/>
    <tag k="addr:country" v="DE"/>
    <tag k="addr:housenumber" v="94"/>
    <tag k="addr:postcode" v="13469"/>
    <tag k="addr:street" v="Zehntwerderweg"/>
    <tag k="addr:suburb" v="Waidmannslust"/>
    <tag k="building" v="yes"/>
    <tag k="source" v="Geoportal Berlin / Hauskoordinaten"/>
  </way>
  <way id="74121629" version="3" timestamp="2017-05-01T18:38:37Z" changeset="48315201" uid="1260280" user="jacobbraeutigam">
    <nd ref="3145483526"/>
    <nd ref="3145483469"/>
    <nd ref="3145483486"/>
    <nd ref="3145483738"/>
    <nd ref="3145483740"/>
    <nd ref="3145483806"/>
    <nd ref="3145483526"/>
    <tag k="addr:city" v="Berlin"/>
    <tag k="addr:country" v="DE"/>
    <tag k="addr:housenumber" v="100"/>
    <tag k="addr:postcode" v="13469"/>
    <tag k="addr:street" v="Zehntwerderweg"/>
    <tag k="addr:suburb" v="Waidmannslust"/>
    <tag k="building" v="yes"/>
    <tag k="source" v="Geoportal Berlin / Hauskoordinaten"/>
  </way>
  <way id="74121661" version="3" timestamp="2017-05-01T18:38:37Z" changeset="48315201" uid="1260280" user="jacobbraeutigam">
    <nd ref="3145481964"/>
    <nd ref="3145481799"/>
    <nd ref="3145481764"/>
    <nd ref="3145481792"/>
    <nd ref="3145481774"/>
    <nd ref="3145481693"/>
    <nd ref="3145481071"/>
    <nd ref="3145481699"/>
    <nd ref="3145481964"/>
    <tag k="addr:city" v="Berlin"/>
    <tag k="addr:country" v="DE"/>
    <tag k="addr:housenumber" v="83"/>
    <tag k="addr:postcode" v="13469"/>
    <tag k="addr:street" v="Benekendorffstraße"/>
    <tag k="addr:suburb" v="Waidmannslust"/>
    <tag k="building" v="yes"/>
    <tag k="source" v="Geoportal Berlin / Hauskoordinaten"/>
  </way>
  <way id="74121662" version="5" timestamp="2024-11-04T07:31:07Z" changeset="158728114" uid="6811035" user="SteMue">
    <nd ref="2942852013"/>
    <nd ref="2942851830"/>
    <nd ref="2861331647"/>
    <nd ref="2942851578"/>
    <nd ref="2942852013"/>
    <tag k="addr:city" v="Berlin"/>
    <tag k="addr:country" v="DE"/>
    <tag k="addr:housenumber" v="13"/>
    <tag k="addr:postcode" v="13469"/>
    <tag k="addr:street" v="Nach der Höhe"/>
    <tag k="addr:suburb" v="Waidmannslust"/>
    <tag k="building" v="detached"/>
    <tag k="heritage" v="4"/>
    <tag k="heritage:operator" v="lda"/>
    <tag k="lda:criteria" v="Gesamtanlage"/>
    <tag k="ref:lda" v="09012166"/>
    <tag k="source" v="Geoportal Berlin / Hauskoordinaten"/>
    <tag k="start_date" v="1907"/>
  </way>
  <way id="74121664" version="3" timestamp="2017-05-01T18:38:37Z" changeset="48315201" uid="1260280" user="jacobbraeutigam">
    <nd ref="3145482317"/>
    <nd ref="3145482286"/>
    <nd ref="3145482280"/>
    <nd ref="3145482268"/>
    <nd ref="3145482252"/>
    <nd ref="3145482241"/>
    <nd ref="3145482231"/>
    <nd ref="3145482027"/>
    <nd ref="3145482021"/>
    <nd ref="3145482019"/>
    <nd ref="3145482024"/>
    <nd ref="3145481994"/>
    <nd ref="3145482318"/>
    <nd ref="3145482325"/>
    <nd ref="3145482429"/>
    <nd ref="3145482452"/>
    <nd ref="3145482470"/>
    <nd ref="3145482480"/>
    <nd ref="3145482488"/>
    <nd ref="3145482483"/>
    <nd ref="3145482845"/>
    <nd ref="3145482317"/>
    <tag k="addr:city" v="Berlin"/>
    <tag k="addr:country" v="DE"/>
    <tag k="addr:housenumber" v="3"/>
    <tag k="addr:postcode" v="13469"/>
    <tag k="addr:street" v="Büchenbronner Steig"/>
    <tag k="addr:suburb" v="Waidmannslust"/>
    <tag k="building" v="yes"/>
    <tag k="source" v="Geoportal Berlin / Hauskoordinaten"/>
  </way>
  <way id="74121688" version="2" timestamp="2024-11-14T07:13:19Z" changeset="159117785" uid="66391" user="geozeisig">
    <nd ref="876909244"/>
    <nd ref="2861331671"/>
    <nd ref="876909744"/>
    <nd ref="876909040"/>
    <nd ref="876909244"/>
    <tag k="addr:city" v="Berlin"/>
    <tag k="addr:country" v="DE"/>
    <tag k="addr:housenumber" v="16"/>
    <tag k="addr:postcode" v="13469"/>
    <tag k="addr:street" v="Nimrodstraße"/>
    <tag k="addr:suburb" v="Waidmannslust"/>
    <tag k="building" v="yes"/>
    <tag k="source" v="Geoportal Berlin / Hauskoordinaten"/>
  </way>
  <way id="74121690" version="3" timestamp="2024-11-14T07:13:19Z" changeset="159117785" uid="66391" user="geozeisig">
    <nd ref="3145481070"/>
    <nd ref="2861336104"/>
    <nd ref="3145481418"/>
    <nd ref="3145481106"/>
    <nd ref="3145481070"/>
    <tag k="addr:city" v="Berlin"/>
    <tag k="addr:country" v="DE"/>
    <tag k="addr:housenumber" v="20"/>
    <tag k="addr:postcode" v="13469"/>
    <tag k="addr:street" v="Pforzheimer Straße"/>
    <tag k="addr:suburb" v="Waidmannslust"/>
    <tag k="building" v="yes"/>
    <tag k="source" v="Geoportal Berlin / Hauskoordinaten"/>
  </way>
  <way id="74121698" version="3" timestamp="2024-11-14T07:13:20Z" changeset="159117785" uid="66391" user="geozeisig">
    <nd ref="3145480253"/>
    <nd ref="3145479776"/>
    <nd ref="3145480147"/>
    <nd ref="2861331619"/>
    <nd ref="3145480253"/>
    <tag k="addr:city" v="Berlin"/>
    <tag k="addr:country" v="DE"/>
    <tag k="addr:housenumber" v="11"/>
    <tag k="addr:postcode" v="13469"/>
    <tag k="addr:street" v="Pforzheimer Straße"/>
    <tag k="addr:suburb" v="Waidmannslust"/>
    <tag k="building" v="yes"/>
    <tag k="source" v="Geoportal Berlin / Hauskoordinaten"/>
  </way>
  <way id="74121700" version="7" timestamp="2021-09-15T22:16:59Z" changeset="111264017" uid="6811035" user="SteMue">
    <nd ref="2946411861"/>
    <nd ref="2946411988"/>
    <nd ref="2946411796"/>
    <nd ref="2946411575"/>
    <nd ref="4588980177"/>
    <nd ref="2946410919"/>
    <nd ref="2946410915"/>
    <nd ref="6651115518"/>
    <nd ref="2946410918"/>
    <nd ref="2946411847"/>
    <nd ref="2946411983"/>
    <nd ref="2946411985"/>
    <nd ref="2861332102"/>
    <nd ref="2946411852"/>
    <nd ref="2946411854"/>
    <nd ref="2946410473"/>
    <nd ref="2946411577"/>
    <nd ref="2946411799"/>
    <nd ref="2946411996"/>
    <nd ref="2946411866"/>
    <nd ref="2946411868"/>
    <nd ref="2946411995"/>
    <nd ref="2946411991"/>
    <nd ref="2946411861"/>
    <tag k="addr:city" v="Berlin"/>
    <tag k="addr:country" v="DE"/>
    <tag k="addr:housenumber" v="1"/>
    <tag k="addr:postcode" v="13469"/>
    <tag k="addr:street" v="Bondickstraße"/>
    <tag k="addr:suburb" v="Waidmannslust"/>
    <tag k="building" v="detached"/>
    <tag k="heritage" v="4"/>
    <tag k="heritage:operator" v="lda"/>
    <tag k="lda:criteria" v="Baudenkmal"/>
    <tag k="old_name" v="Résidence du Général"/>
    <tag k="ref:lda" v="09011868"/>
    <tag k="source" v="Geoportal Berlin / Hauskoordinaten"/>
  </way>
  <way id="74121719" version="3" timestamp="2022-09-05T16:08:19Z" changeset="125821613" uid="6811035" user="SteMue">
    <nd ref="2861335656"/>
    <nd ref="876911577"/>
    <nd ref="876913179"/>
    <nd ref="876910423"/>
    <nd ref="2861335656"/>
    <tag k="addr:city" v="Berlin"/>
    <tag k="addr:country" v="DE"/>
    <tag k="addr:housenumber" v="29"/>
    <tag k="addr:postcode" v="13469"/>
    <tag k="addr:street" v="Nimrodstraße"/>
    <tag k="addr:suburb" v="Waidmannslust"/>
    <tag k="building" v="detached"/>
    <tag k="heritage" v="4"/>
    <tag k="heritage:operator" v="lda"/>
    <tag k="lda:criteria" v="Baudenkmal"/>
    <tag k="ref:lda" v="09012171"/>
    <tag k="source" v="Geoportal Berlin / Hauskoordinaten"/>
    <tag k="start_date" v="1902"/>
  </way>
  <way id="117287157" version="4" timestamp="2019-03-25T07:32:12Z" changeset="68495896" uid="66391" user="geozeisig">
    <nd ref="2946423237"/>
    <nd ref="2946423241"/>
    <nd ref="2946423335"/>
    <nd ref="2946423334"/>
    <nd ref="2946415688"/>
    <nd ref="2946422457"/>
    <nd ref="2946422536"/>
    <nd ref="2946422535"/>
    <nd ref="2946411198"/>
    <nd ref="2861332781"/>
    <nd ref="2946419644"/>
    <nd ref="2946423134"/>
    <nd ref="2946423333"/>
    <nd ref="2946423239"/>
    <nd ref="2946423237"/>
    <tag k="addr:city" v="Berlin"/>
    <tag k="addr:country" v="DE"/>
    <tag k="addr:housenumber" v="17"/>
    <tag k="addr:postcode" v="13469"/>
    <tag k="addr:street" v="Zabel-Krüger-Damm"/>
    <tag k="addr:suburb" v="Waidmannslust"/>
    <tag k="building" v="yes"/>
    <tag k="heritage" v="4"/>
    <tag k="heritage:operator" v="lda"/>
    <tag k="lda:criteria" v="Baudenkmal"/>
    <tag k="ref:lda" v="09012466"/>
    <tag k="source" v="Geoportal Berlin / Hausumringe"/>
    <tag k="start_date" v="1892"/>
  </way>
  <way id="117287217" version="8" timestamp="2025-02-03T13:47:55Z" changeset="162087803" uid="11146797" user="cyton">
    <nd ref="1320938597"/>
    <nd ref="1320938974"/>
    <nd ref="2863430031"/>
    <nd ref="2863430034"/>
    <nd ref="1320938433"/>
    <nd ref="1320939270"/>
    <nd ref="1320938597"/>
    <tag k="addr:housenumber" v="8"/>
    <tag k="addr:street" v="Düsterhauptstraße"/>
    <tag k="building" v="apartments"/>
    <tag k="building:levels" v="2"/>
    <tag k="roof:levels" v="1"/>
    <tag k="roof:shape" v="gabled"/>
    <tag k="source" v="Geoportal Berlin / Hausumringe"/>
  </way>
  <way id="117287287" version="4" timestamp="2019-03-25T07:32:12Z" changeset="68495896" uid="66391" user="geozeisig">
    <nd ref="2938838737"/>
    <nd ref="2938841127"/>
    <nd ref="2861333541"/>
    <nd ref="2938839381"/>
    <nd ref="2938838737"/>
    <tag k="addr:city" v="Berlin"/>
    <tag k="addr:country" v="DE"/>
    <tag k="addr:housenumber" v="19A"/>
    <tag k="addr:postcode" v="13469"/>
    <tag k="addr:street" v="Benekendorffstraße"/>
    <tag k="addr:suburb" v="Waidmannslust"/>
    <tag k="building" v="yes"/>
    <tag k="source" v="Geoportal Berlin / Hausumringe"/>
  </way>
  <way id="117287551" version="2" timestamp="2024-11-14T07:13:20Z" changeset="159117785" uid="66391" user="geozeisig">
    <nd ref="1320939793"/>
    <nd ref="1320940124"/>
    <nd ref="1320938775"/>
    <nd ref="2861335173"/>
    <nd ref="1320939793"/>
    <tag k="addr:city" v="Berlin"/>
    <tag k="addr:country" v="DE"/>
    <tag k="addr:housenumber" v="28"/>
    <tag k="addr:postcode" v="13469"/>
    <tag k="addr:street" v="Lierbacher Weg"/>
    <tag k="addr:suburb" v="Waidmannslust"/>
    <tag k="building" v="yes"/>
    <tag k="source" v="Geoportal Berlin / Hauskoordinaten"/>
  </way>
  <way id="117287715" version="3" timestamp="2024-11-14T07:13:20Z" changeset="159117785" uid="66391" user="geozeisig">
    <nd ref="3145477461"/>
    <nd ref="2861336555"/>
    <nd ref="3145477363"/>
    <nd ref="3145477814"/>
    <nd ref="3145477461"/>
    <tag k="addr:city" v="Berlin"/>
    <tag k="addr:country" v="DE"/>
    <tag k="addr:housenumber" v="31A"/>
    <tag k="addr:postcode" v="13469"/>
    <tag k="addr:street" v="Zehntwerderweg"/>
    <tag k="addr:suburb" v="Waidmannslust"/>
    <tag k="building" v="yes"/>
    <tag k="source" v="Geoportal Berlin / Hauskoordinaten"/>
  </way>
  <way id="118232210" version="16" timestamp="2025-05-10T12:09:26Z" changeset="166066436" uid="18436637" user="DG3UH">
    <nd ref="1330083134"/>
    <nd ref="8962953655"/>
    <nd ref="12677455018"/>
    <nd ref="11750034076"/>
    <tag k="cycleway:both" v="no"/>
    <tag k="highway" v="residential"/>
    <tag k="lit" v="yes"/>
    <tag k="maxspeed" v="30"/>
    <tag k="name" v="Am Ansitz"/>
    <tag k="name:etymology:wikidata" v="Q569909"/>
    <tag k="name:etymology:wikipedia" v="de:Ansitzjagd"/>
    <tag k="oneway" v="yes"/>
    <tag k="postal_code" v="13469"/>
    <tag k="sidewalk:both" v="separate"/>
    <tag k="surface" v="sett"/>
    <tag k="width" v="3"/>
  </way>
  <way id="118558644" version="9" timestamp="2025-02-03T13:47:22Z" changeset="162087803" uid="11146797" user="cyton">
    <nd ref="2938839308"/>
    <nd ref="2938838912"/>
    <nd ref="2938838806"/>
    <nd ref="2938838804"/>
    <nd ref="2938839404"/>
    <nd ref="2938839005"/>
    <nd ref="2938839602"/>
    <nd ref="2938839503"/>
    <nd ref="2938838907"/>
    <nd ref="2938838905"/>
    <nd ref="2938838906"/>
    <nd ref="2938839402"/>
    <nd ref="2938839302"/>
    <nd ref="2938839101"/>
    <nd ref="2938839003"/>
    <nd ref="2938838902"/>
    <nd ref="2938815505"/>
    <nd ref="2938838901"/>
    <nd ref="2938838904"/>
    <nd ref="2938838903"/>
    <nd ref="2938815507"/>
    <nd ref="2938839201"/>
    <nd ref="2938838803"/>
    <nd ref="2938839303"/>
    <nd ref="2938838910"/>
    <nd ref="3145468767"/>
    <nd ref="2938839103"/>
    <nd ref="2938839601"/>
    <nd ref="2938839603"/>
    <nd ref="2938839007"/>
    <nd ref="2938838911"/>
    <nd ref="2938838805"/>
    <nd ref="2938839105"/>
    <nd ref="2938839106"/>
    <nd ref="2938839310"/>
    <nd ref="2938839605"/>
    <nd ref="2938839309"/>
    <nd ref="2938838913"/>
    <nd ref="2938839611"/>
    <nd ref="2938839013"/>
    <nd ref="2938839109"/>
    <nd ref="2938839608"/>
    <nd ref="2938839607"/>
    <nd ref="2938839406"/>
    <nd ref="2938839606"/>
    <nd ref="2938839308"/>
    <tag k="addr:housenumber" v="40"/>
    <tag k="addr:street" v="Düsterhauptstraße"/>
    <tag k="building" v="office"/>
    <tag k="building:levels" v="3"/>
    <tag k="roof:levels" v="0"/>
    <tag k="roof:shape" v="flat"/>
    <tag k="source" v="Geoportal Berlin / Hausumringe"/>
  </way>
  <way id="144134101" version="14" timestamp="2023-07-07T09:36:36Z" changeset="138221386" uid="9508237" user="momabebra">
    <nd ref="1577163595"/>
    <nd ref="9649146712"/>
    <nd ref="3092447210"/>
    <nd ref="30437208"/>
    <tag k="cycleway:both" v="no"/>
    <tag k="highway" v="secondary"/>
    <tag k="lanes" v="2"/>
    <tag k="lit" v="yes"/>
    <tag k="maxheight" v="4"/>
    <tag k="maxspeed" v="50"/>
    <tag k="name" v="Waidmannsluster Damm"/>
    <tag k="name:etymology:wikidata" v="Q648245"/>
    <tag k="parking:both" v="no"/>
    <tag k="postal_code" v="13469"/>
    <tag k="sidewalk:both" v="separate"/>
    <tag k="sidewalk:both:bicycle" v="yes"/>
    <tag k="sidewalk:both:surface" v="paving_stones"/>
    <tag k="smoothness" v="good"/>
    <tag k="surface" v="asphalt"/>
    <tag k="wikidata" v="Q63410222"/>
  </way>
  <way id="220175892" version="12" timestamp="2023-07-07T09:36:36Z" changeset="138221386" uid="9508237" user="momabebra">
    <nd ref="30437209"/>
    <nd ref="4668006791"/>
    <nd ref="1577163595"/>
    <tag k="cycleway:both" v="no"/>
    <tag k="highway" v="secondary"/>
    <tag k="lanes" v="2"/>
    <tag k="lit" v="yes"/>
    <tag k="maxheight" v="4"/>
    <tag k="maxspeed" v="50"/>
    <tag k="name" v="Waidmannsluster Damm"/>
    <tag k="name:etymology:wikidata" v="Q648245"/>
    <tag k="parking:both" v="no"/>
    <tag k="postal_code" v="13469"/>
    <tag k="sidewalk:both" v="separate"/>
    <tag k="sidewalk:both:bicycle" v="yes"/>
    <tag k="sidewalk:both:surface" v="paving_stones"/>
    <tag k="smoothness" v="good"/>
    <tag k="surface" v="asphalt"/>
    <tag k="wikidata" v="Q63410222"/>
  </way>
  <way id="282282368" version="5" timestamp="2023-07-24T14:34:53Z" changeset="138943210" uid="19550286" user="MoriGM">
    <nd ref="2862188916"/>
    <nd ref="2862187620"/>
    <nd ref="2862188605"/>
    <nd ref="2862188607"/>
    <nd ref="2862188709"/>
    <nd ref="2862188713"/>
    <nd ref="2862187326"/>
    <nd ref="2862188813"/>
    <nd ref="2862188916"/>
    <tag k="amenity" v="fast_food"/>
    <tag k="building" v="yes"/>
    <tag k="cuisine" v="regional"/>
    <tag k="indoor_seating" v="no"/>
    <tag k="name" v="Genussbox"/>
    <tag k="opening_hours" v="Mo-Fr 08:00-16:00"/>
    <tag k="outdoor_seating" v="yes"/>
    <tag k="source" v="Geoportal Berlin / Hausumringe"/>
  </way>
  <way id="282418903" version="7" timestamp="2024-11-14T07:13:20Z" changeset="159117785" uid="66391" user="geozeisig">
    <nd ref="2863268886"/>
    <nd ref="2863269051"/>
    <nd ref="1333253451"/>
    <nd ref="2863269059"/>
    <nd ref="2863269140"/>
    <nd ref="2863269060"/>
    <nd ref="2863269350"/>
    <nd ref="1333254263"/>
    <nd ref="1333255046"/>
    <nd ref="1333256255"/>
    <nd ref="1333257146"/>
    <nd ref="2863269066"/>
    <nd ref="2863269065"/>
    <nd ref="2863268899"/>
    <nd ref="1333257880"/>
    <nd ref="2863269346"/>
    <nd ref="2863269347"/>
    <nd ref="2863268897"/>
    <nd ref="2863268896"/>
    <nd ref="2863269054"/>
    <nd ref="2863269055"/>
    <nd ref="2863269138"/>
    <nd ref="1333256306"/>
    <nd ref="1333257184"/>
    <nd ref="2863268886"/>
    <tag k="addr:city" v="Berlin"/>
    <tag k="addr:housenumber" v="26"/>
    <tag k="addr:postcode" v="13469"/>
    <tag k="addr:street" v="Zabel-Krüger-Damm"/>
    <tag k="addr:suburb" v="Waidmannslust"/>
    <tag k="building" v="apartments"/>
    <tag k="building:levels" v="7"/>
    <tag k="roof:shape" v="flat"/>
    <tag k="source" v="Geoportal Berlin / Hausumringe"/>
  </way>
  <way id="282430421" version="5" timestamp="2024-03-10T11:41:29Z" changeset="148457616" uid="36358" user="ullli">
    <nd ref="2863430616"/>
    <nd ref="2863430822"/>
    <nd ref="2863429531"/>
    <nd ref="2863431315"/>
    <nd ref="2863431016"/>
    <nd ref="2863431115"/>
    <nd ref="2863430821"/>
    <nd ref="2863431113"/>
    <nd ref="2863430615"/>
    <nd ref="2863431314"/>
    <nd ref="2863430412"/>
    <nd ref="2863430303"/>
    <nd ref="2863431224"/>
    <nd ref="2863431112"/>
    <nd ref="2863430616"/>
    <tag k="building" v="yes"/>
    <tag k="check_date" v="2024-03-10"/>
    <tag k="email" v="kundenservice@holliday-sauna-berlin.de"/>
    <tag k="leisure" v="sauna"/>
    <tag k="name" v="Holliday Wellness"/>
    <tag k="operator" v="HOLLIday wellness &amp; beauty GmbH"/>
    <tag k="phone" v="+49 30 402084 10"/>
    <tag k="website" v="https://www.holliday-sauna-berlin.de/"/>
  </way>
  <way id="282430486" version="6" timestamp="2022-09-05T16:18:43Z" changeset="125822233" uid="6811035" user="SteMue">
    <nd ref="2863430617"/>
    <nd ref="2863431017"/>
    <nd ref="2863431116"/>
    <nd ref="2863430077"/>
    <nd ref="2863430514"/>
    <nd ref="2863430617"/>
    <tag k="addr:housenumber" v="46"/>
    <tag k="addr:street" v="Oraniendamm"/>
    <tag k="building" v="retail"/>
    <tag k="building:levels" v="1"/>
    <tag k="roof:levels" v="0"/>
    <tag k="roof:shape" v="flat"/>
  </way>
  <way id="282430511" version="15" timestamp="2024-09-26T21:00:08Z" changeset="157145852" uid="44217" user="kjon">
    <nd ref="2863431116"/>
    <nd ref="2863430907"/>
    <nd ref="2863430614"/>
    <nd ref="2863430820"/>
    <nd ref="2863430304"/>
    <nd ref="2863430077"/>
    <nd ref="2863431116"/>
    <tag k="brand" v="ALDI Nord"/>
    <tag k="brand:wikidata" v="Q41171373"/>
    <tag k="brand:wikipedia" v="en:Aldi"/>
    <tag k="building" v="retail"/>
    <tag k="building:levels" v="1"/>
    <tag k="check_date:opening_hours" v="2022-11-15"/>
    <tag k="diet:kosher" v="no"/>
    <tag k="name" v="Aldi"/>
    <tag k="opening_hours" v="Mo-Sa 07:00-21:00"/>
    <tag k="roof:levels" v="0"/>
    <tag k="roof:shape" v="flat"/>
    <tag k="shop" v="supermarket"/>
    <tag k="wheelchair" v="yes"/>
  </way>
  <way id="282431909" version="4" timestamp="2024-11-14T07:13:20Z" changeset="159117785" uid="66391" user="geozeisig">
    <nd ref="2863452924"/>
    <nd ref="2863445626"/>
    <nd ref="2863447928"/>
    <nd ref="2863445627"/>
    <nd ref="2863452537"/>
    <nd ref="2863452924"/>
    <tag k="addr:city" v="Berlin"/>
    <tag k="addr:housenumber" v="25"/>
    <tag k="addr:postcode" v="13469"/>
    <tag k="addr:street" v="Zabel-Krüger-Damm"/>
    <tag k="addr:suburb" v="Waidmannslust"/>
    <tag k="building" v="yes"/>
    <tag k="name" v="Die Reinigung"/>
    <tag k="shop" v="laundry"/>
    <tag k="source" v="Geoportal Berlin / Hausumringe"/>
  </way>
  <way id="290350922" version="7" timestamp="2025-02-03T13:47:24Z" changeset="162087803" uid="11146797" user="cyton">
    <nd ref="2938839318"/>
    <nd ref="2938838810"/>
    <nd ref="2938838811"/>
    <nd ref="2938839904"/>
    <nd ref="2938839905"/>
    <nd ref="2938839903"/>
    <nd ref="2938839902"/>
    <nd ref="2938839014"/>
    <nd ref="2938839507"/>
    <nd ref="2938839409"/>
    <nd ref="2938839408"/>
    <nd ref="2938839315"/>
    <nd ref="2938815508"/>
    <nd ref="2938839317"/>
    <nd ref="2938839907"/>
    <nd ref="2938815510"/>
    <nd ref="2938838812"/>
    <nd ref="2938839319"/>
    <nd ref="2938838813"/>
    <nd ref="2938839320"/>
    <nd ref="2938839018"/>
    <nd ref="2938839318"/>
    <tag k="addr:housenumber" v="31-38"/>
    <tag k="addr:street" v="Düsterhauptstraße"/>
    <tag k="building" v="office"/>
    <tag k="building:levels" v="2"/>
    <tag k="roof:levels" v="1"/>
    <tag k="roof:shape" v="gabled"/>
    <tag k="source" v="Geoportal Berlin / Hausumringe"/>
  </way>
  <way id="290352277" version="6" timestamp="2019-03-11T20:43:55Z" changeset="68037670" uid="361652" user="erde23">
    <nd ref="2938855007"/>
    <nd ref="2938851242"/>
    <nd ref="2938851238"/>
    <nd ref="2938851223"/>
    <nd ref="2938850028"/>
    <nd ref="2938850052"/>
    <nd ref="2938856306"/>
    <nd ref="2938850051"/>
    <nd ref="2938855007"/>
    <tag k="building" v="yes"/>
    <tag k="man_made" v="pumping_station"/>
    <tag k="name" v="Pumpwerk Waidmannslust"/>
    <tag k="operator" v="Berliner Wasserbetriebe"/>
    <tag k="substance" v="water"/>
  </way>
  <way id="290588258" version="6" timestamp="2024-11-14T07:13:20Z" changeset="159117785" uid="66391" user="geozeisig">
    <nd ref="2941034854"/>
    <nd ref="2941045326"/>
    <nd ref="2941034866"/>
    <nd ref="2941045426"/>
    <nd ref="2941043597"/>
    <nd ref="2941043582"/>
    <nd ref="2941045404"/>
    <nd ref="2941034832"/>
    <nd ref="2941034837"/>
    <nd ref="2941034854"/>
    <tag k="building" v="yes"/>
    <tag k="leisure" v="sports_hall"/>
    <tag k="name" v="Turnhalle Nimrodstraße"/>
    <tag k="source" v="Geoportal Berlin / Hausumringe"/>
  </way>
  <way id="290588713" version="4" timestamp="2023-07-10T19:26:04Z" changeset="138350380" uid="16633902" user="dangerjens">
    <nd ref="2941027094"/>
    <nd ref="2941024936"/>
    <nd ref="2941033908"/>
    <nd ref="2941033905"/>
    <nd ref="2941027091"/>
    <nd ref="2941024927"/>
    <nd ref="2941027092"/>
    <nd ref="2861339466"/>
    <nd ref="2941027094"/>
    <tag k="addr:city" v="Berlin"/>
    <tag k="addr:country" v="DE"/>
    <tag k="addr:housenumber" v="53"/>
    <tag k="addr:postcode" v="13469"/>
    <tag k="addr:street" v="Nimrodstraße"/>
    <tag k="addr:suburb" v="Waidmannslust"/>
    <tag k="building" v="detached"/>
    <tag k="heritage" v="4"/>
    <tag k="heritage:operator" v="lda"/>
    <tag k="lda:criteria" v="Baudenkmal"/>
    <tag k="name" v="Typenholzhaus"/>
    <tag k="ref:lda" v="09012173"/>
    <tag k="source" v="Geoportal Berlin / Hauskoordinaten"/>
    <tag k="start_date" v="1892"/>
  </way>
  <way id="290779204" version="8" timestamp="2024-08-15T10:02:48Z" changeset="155275394" uid="16633902" user="dangerjens">
    <nd ref="2942851223"/>
    <nd ref="2942851339"/>
    <nd ref="2942851222"/>
    <nd ref="2942852027"/>
    <nd ref="2942851223"/>
    <tag k="addr:city" v="Berlin"/>
    <tag k="addr:housenumber" v="168"/>
    <tag k="addr:postcode" v="13469"/>
    <tag k="addr:street" v="Waidmannsluster Damm"/>
    <tag k="addr:suburb" v="Waidmannslust"/>
    <tag k="amenity" v="restaurant"/>
    <tag k="building" v="yes"/>
    <tag k="name" v="Dong A"/>
    <tag k="source" v="Geoportal Berlin / Hausumringe"/>
  </way>
  <way id="290779244" version="2" timestamp="2014-07-16T22:08:08Z" changeset="24191239" uid="881429" user="atpl_pilot">
    <nd ref="2942854118"/>
    <nd ref="2942854112"/>
    <nd ref="2942853737"/>
    <nd ref="2942853738"/>
    <nd ref="2942853736"/>
    <nd ref="2942852518"/>
    <nd ref="2942853739"/>
    <nd ref="2942854118"/>
    <tag k="building" v="yes"/>
    <tag k="building:levels" v="1"/>
    <tag k="leisure" v="sports_centre"/>
    <tag k="name" v="Turnhalle"/>
    <tag k="source" v="Geoportal Berlin / Hausumringe"/>
    <tag k="sport" v="multi"/>
  </way>
  <way id="290779598" version="3" timestamp="2019-03-11T11:24:05Z" changeset="68018676" uid="66391" user="geozeisig">
    <nd ref="2942854733"/>
    <nd ref="2942854736"/>
    <nd ref="2942831977"/>
    <nd ref="2942831965"/>
    <nd ref="2861332390"/>
    <nd ref="2942854924"/>
    <nd ref="2942831983"/>
    <nd ref="2942854733"/>
    <tag k="addr:city" v="Berlin"/>
    <tag k="addr:country" v="DE"/>
    <tag k="addr:housenumber" v="157"/>
    <tag k="addr:postcode" v="13469"/>
    <tag k="addr:street" v="Waidmannsluster Damm"/>
    <tag k="addr:suburb" v="Waidmannslust"/>
    <tag k="building" v="yes"/>
    <tag k="heritage" v="4"/>
    <tag k="heritage:operator" v="lda"/>
    <tag k="lda:criteria" v="Baudenkmal"/>
    <tag k="ref:lda" v="09012431"/>
    <tag k="source" v="Geoportal Berlin / Hausumringe"/>
    <tag k="start_date" v="1904"/>
  </way>
  <way id="291187897" version="4" timestamp="2024-11-04T07:36:57Z" changeset="158728114" uid="6811035" user="SteMue">
    <nd ref="2946033502"/>
    <nd ref="6068799540"/>
    <nd ref="6068799539"/>
    <nd ref="2946033500"/>
    <nd ref="2946033502"/>
    <tag k="addr:city" v="Berlin"/>
    <tag k="addr:housenumber" v="66C"/>
    <tag k="addr:postcode" v="13469"/>
    <tag k="addr:street" v="Bondickstraße"/>
    <tag k="addr:suburb" v="Waidmannslust"/>
    <tag k="building" v="semidetached_house"/>
    <tag k="source" v="Geoportal Berlin / Hausumringe"/>
  </way>
  <way id="291187938" version="3" timestamp="2019-03-11T11:24:05Z" changeset="68018676" uid="66391" user="geozeisig">
    <nd ref="2946036723"/>
    <nd ref="2861331931"/>
    <nd ref="2946040403"/>
    <nd ref="2946041164"/>
    <nd ref="2946036823"/>
    <nd ref="2946036826"/>
    <nd ref="2946041145"/>
    <nd ref="2946038605"/>
    <nd ref="2946036723"/>
    <tag k="addr:city" v="Berlin"/>
    <tag k="addr:country" v="DE"/>
    <tag k="addr:housenumber" v="112"/>
    <tag k="addr:postcode" v="13469"/>
    <tag k="addr:street" v="Waidmannsluster Damm"/>
    <tag k="addr:suburb" v="Waidmannslust"/>
    <tag k="building" v="yes"/>
    <tag k="heritage" v="4"/>
    <tag k="heritage:operator" v="lda"/>
    <tag k="lda:criteria" v="Baudenkmal"/>
    <tag k="ref:lda" v="09012425"/>
    <tag k="source" v="Geoportal Berlin / Hausumringe"/>
    <tag k="start_date" v="1910"/>
  </way>
  <way id="291228393" version="5" timestamp="2023-08-02T19:15:44Z" changeset="139361269" uid="12500589" user="tg4567">
    <nd ref="2946410842"/>
    <nd ref="2946411540"/>
    <nd ref="2946411539"/>
    <nd ref="2946411146"/>
    <nd ref="2946410840"/>
    <nd ref="7905628141"/>
    <nd ref="2946410460"/>
    <nd ref="2946411735"/>
    <nd ref="2861332517"/>
    <nd ref="2946411734"/>
    <nd ref="7905628143"/>
    <nd ref="2946408820"/>
    <nd ref="2946410841"/>
    <nd ref="2946411541"/>
    <nd ref="2946410842"/>
    <tag k="addr:city" v="Berlin"/>
    <tag k="addr:country" v="DE"/>
    <tag k="addr:housenumber" v="14"/>
    <tag k="addr:postcode" v="13469"/>
    <tag k="addr:street" v="Bondickstraße"/>
    <tag k="addr:suburb" v="Waidmannslust"/>
    <tag k="amenity" v="place_of_worship"/>
    <tag k="building" v="church"/>
    <tag k="height" v="42"/>
    <tag k="heritage" v="4"/>
    <tag k="heritage:operator" v="lda"/>
    <tag k="lda:criteria" v="Baudenkmal"/>
    <tag k="name" v="Königin-Luise-Kirche"/>
    <tag k="ref:lda" v="09011870"/>
    <tag k="religion" v="christian"/>
    <tag k="source" v="Geoportal Berlin / Hauskoordinaten"/>
    <tag k="start_date" v="1913-10-09"/>
    <tag k="wikidata" v="Q1441119"/>
    <tag k="wikimedia_commons" v="Category:Königin-Luise-Kirche (Berlin-Waidmannslust)"/>
  </way>
  <way id="309229220" version="2" timestamp="2024-11-14T07:13:20Z" changeset="159117785" uid="66391" user="geozeisig">
    <nd ref="3145474711"/>
    <nd ref="3145474261"/>
    <nd ref="12338860272"/>
    <nd ref="2861340533"/>
    <nd ref="3145474630"/>
    <nd ref="3145474647"/>
    <nd ref="3145474876"/>
    <nd ref="3145474711"/>
    <tag k="addr:city" v="Berlin"/>
    <tag k="addr:country" v="DE"/>
    <tag k="addr:housenumber" v="54"/>
    <tag k="addr:postcode" v="13469"/>
    <tag k="addr:street" v="Benekendorffstraße"/>
    <tag k="addr:suburb" v="Waidmannslust"/>
    <tag k="building" v="yes"/>
    <tag k="source" v="Geoportal Berlin / Hauskoordinaten"/>
  </way>
  <way id="309229598" version="2" timestamp="2017-05-01T18:40:49Z" changeset="48315201" uid="1260280" user="jacobbraeutigam">
    <nd ref="3145468781"/>
    <nd ref="3145468621"/>
    <nd ref="3145468758"/>
    <nd ref="3145468777"/>
    <nd ref="3145468954"/>
    <nd ref="3145468995"/>
    <nd ref="3145468781"/>
    <tag k="addr:city" v="Berlin"/>
    <tag k="addr:country" v="DE"/>
    <tag k="addr:housenumber" v="68"/>
    <tag k="addr:postcode" v="13469"/>
    <tag k="addr:street" v="Schluchseestraße"/>
    <tag k="addr:suburb" v="Waidmannslust"/>
    <tag k="building" v="yes"/>
    <tag k="source" v="Geoportal Berlin / Hauskoordinaten"/>
  </way>
  <way id="309230648" version="2" timestamp="2024-11-14T07:13:20Z" changeset="159117785" uid="66391" user="geozeisig">
    <nd ref="3145472185"/>
    <nd ref="2861331728"/>
    <nd ref="3145472172"/>
    <nd ref="3145472188"/>
    <nd ref="3145472185"/>
    <tag k="addr:city" v="Berlin"/>
    <tag k="addr:country" v="DE"/>
    <tag k="addr:housenumber" v="12"/>
    <tag k="addr:postcode" v="13469"/>
    <tag k="addr:street" v="Lierbacher Weg"/>
    <tag k="addr:suburb" v="Waidmannslust"/>
    <tag k="building" v="yes"/>
    <tag k="source" v="Geoportal Berlin / Hauskoordinaten"/>
  </way>
  <way id="332561057" version="31" timestamp="2025-03-22T11:52:31Z" changeset="163943705" uid="44217" user="kjon">
    <nd ref="30818826"/>
    <nd ref="7712019625"/>
    <nd ref="6832089151"/>
    <nd ref="6851313109"/>
    <nd ref="665799393"/>
    <nd ref="6832089149"/>
    <nd ref="7260855013"/>
    <nd ref="665799396"/>
    <nd ref="7531587504"/>
    <nd ref="6832089145"/>
    <nd ref="30818829"/>
    <nd ref="7531587506"/>
    <nd ref="6832089143"/>
    <nd ref="6863382817"/>
    <nd ref="30818851"/>
    <nd ref="12690362036"/>
    <nd ref="30818852"/>
    <tag k="covered" v="no"/>
    <tag k="cycleway:both" v="no"/>
    <tag k="fixme" v="Beim Überfahren der Büchenbronner Straße sieht der Belag des Zehntwerderweg wie &quot;Cobblestone&quot; aus, nicht wie Asphalt"/>
    <tag k="highway" v="residential"/>
    <tag k="lanes" v="2"/>
    <tag k="lit" v="yes"/>
    <tag k="maxspeed" v="30"/>
    <tag k="name" v="Zehntwerderweg"/>
    <tag k="name:etymology:wikidata" v="Q2704612"/>
    <tag k="name:etymology:wikipedia" v="de:Werder (Landschaft)"/>
    <tag k="parking:both" v="lane"/>
    <tag k="parking:both:orientation" v="parallel"/>
    <tag k="parking:both:staggered" v="yes"/>
    <tag k="postal_code" v="13469"/>
    <tag k="sidewalk:both" v="separate"/>
    <tag k="smoothness" v="good"/>
    <tag k="surface" v="asphalt"/>
  </way>
  <way id="406132294" version="11" timestamp="2025-03-19T22:41:02Z" changeset="163838949" uid="44217" user="kjon">
    <nd ref="2941699508"/>
    <nd ref="77658976"/>
    <tag k="cycleway:both" v="no"/>
    <tag k="cycleway:left:surface" v="paving_stones"/>
    <tag k="highway" v="primary"/>
    <tag k="lanes" v="2"/>
    <tag k="lit" v="yes"/>
    <tag k="maxspeed" v="50"/>
    <tag k="name" v="Oraniendamm"/>
    <tag k="name:etymology:wikidata" v="Q2281221"/>
    <tag k="parking:both" v="no"/>
    <tag k="postal_code" v="13467"/>
    <tag k="ref" v="B 96"/>
    <tag k="sidewalk:both" v="separate"/>
    <tag k="sidewalk:both:surface" v="paving_stones"/>
    <tag k="smoothness" v="good"/>
    <tag k="surface" v="asphalt"/>
    <tag k="wikidata" v="Q60691158"/>
  </way>
  <way id="452034822" version="11" timestamp="2025-03-19T22:35:08Z" changeset="163838949" uid="44217" user="kjon">
    <nd ref="30818204"/>
    <nd ref="12677455040"/>
    <nd ref="30833285"/>
    <tag k="cycleway:both" v="no"/>
    <tag k="highway" v="residential"/>
    <tag k="lit" v="yes"/>
    <tag k="maxspeed" v="30"/>
    <tag k="name" v="Artemisstraße"/>
    <tag k="name:etymology:wikidata" v="Q39503"/>
    <tag k="parking:both" v="lane"/>
    <tag k="parking:both:orientation" v="parallel"/>
    <tag k="postal_code" v="13469"/>
    <tag k="sidewalk:both" v="separate"/>
    <tag k="sidewalk:both:surface" v="paving_stones"/>
    <tag k="smoothness" v="good"/>
    <tag k="surface" v="asphalt"/>
    <tag k="width" v="7"/>
  </way>
  <way id="452034823" version="10" timestamp="2025-03-19T22:37:39Z" changeset="163838949" uid="44217" user="kjon">
    <nd ref="30818176"/>
    <nd ref="30818224"/>
    <nd ref="7687562481"/>
    <nd ref="2863429674"/>
    <nd ref="30818225"/>
    <tag k="cycleway:both" v="no"/>
    <tag k="highway" v="residential"/>
    <tag k="lit" v="yes"/>
    <tag k="maxspeed" v="30"/>
    <tag k="name" v="Düsterhauptstraße"/>
    <tag k="parking:both" v="lane"/>
    <tag k="parking:both:orientation" v="parallel"/>
    <tag k="postal_code" v="13469"/>
    <tag k="sidewalk:both" v="separate"/>
    <tag k="sidewalk:both:surface" v="paving_stones"/>
    <tag k="smoothness" v="good"/>
    <tag k="source:width" v="ARCore"/>
    <tag k="surface" v="asphalt"/>
    <tag k="width" v="8"/>
  </way>
  <way id="453306550" version="9" timestamp="2025-03-19T22:41:12Z" changeset="163838949" uid="44217" user="kjon">
    <nd ref="4500595450"/>
    <nd ref="2941699508"/>
    <tag k="cycleway:both" v="no"/>
    <tag k="cycleway:left:surface" v="paving_stones"/>
    <tag k="highway" v="primary"/>
    <tag k="lanes" v="2"/>
    <tag k="lit" v="yes"/>
    <tag k="maxspeed" v="50"/>
    <tag k="name" v="Oraniendamm"/>
    <tag k="name:etymology:wikidata" v="Q2281221"/>
    <tag k="parking:both" v="no"/>
    <tag k="postal_code" v="13467"/>
    <tag k="ref" v="B 96"/>
    <tag k="sidewalk:both" v="separate"/>
    <tag k="sidewalk:both:surface" v="paving_stones"/>
    <tag k="smoothness" v="good"/>
    <tag k="surface" v="asphalt"/>
    <tag k="wikidata" v="Q60691158"/>
  </way>
  <way id="453306551" version="11" timestamp="2025-03-19T22:41:16Z" changeset="163838949" uid="44217" user="kjon">
    <nd ref="4500595451"/>
    <nd ref="4500595450"/>
    <tag k="bridge" v="yes"/>
    <tag k="cycleway:both" v="no"/>
    <tag k="cycleway:left:surface" v="asphalt"/>
    <tag k="highway" v="primary"/>
    <tag k="lanes" v="2"/>
    <tag k="lit" v="yes"/>
    <tag k="maxspeed" v="50"/>
    <tag k="maxweight" v="40"/>
    <tag k="name" v="Berliner Straße"/>
    <tag k="name:etymology:wikidata" v="Q63410243"/>
    <tag k="parking:both" v="no"/>
    <tag k="postal_code" v="13467"/>
    <tag k="ref" v="B 96"/>
    <tag k="sidewalk:both" v="separate"/>
    <tag k="sidewalk:both:surface" v="paving_stones"/>
    <tag k="smoothness" v="good"/>
    <tag k="surface" v="asphalt"/>
    <tag k="wikidata" v="Q63410243"/>
  </way>
  <way id="455953260" version="5" timestamp="2023-04-29T14:39:42Z" changeset="135506474" uid="9508237" user="momabebra">
    <nd ref="1307662074"/>
    <nd ref="4777044114"/>
    <nd ref="3979742106"/>
    <tag k="highway" v="residential"/>
    <tag k="lit" v="yes"/>
    <tag k="maxspeed" v="30"/>
    <tag k="name" v="Titiseestraße"/>
    <tag k="name:etymology:wikidata" v="Q700097"/>
    <tag k="postal_code" v="13469"/>
    <tag k="sidewalk:both" v="separate"/>
    <tag k="surface" v="asphalt"/>
  </way>
  <way id="455953261" version="7" timestamp="2023-08-11T20:18:40Z" changeset="139764850" uid="6811035" user="SteMue">
    <nd ref="30819566"/>
    <nd ref="10856037220"/>
    <nd ref="3409511546"/>
    <nd ref="10856041033"/>
    <nd ref="10856041032"/>
    <nd ref="30819584"/>
    <nd ref="3409518808"/>
    <nd ref="30819585"/>
    <nd ref="10856041035"/>
    <nd ref="1307662074"/>
    <tag k="cycleway:both" v="no"/>
    <tag k="highway" v="residential"/>
    <tag k="lit" v="yes"/>
    <tag k="maxspeed" v="30"/>
    <tag k="name" v="Titiseestraße"/>
    <tag k="name:etymology:wikidata" v="Q700097"/>
    <tag k="postal_code" v="13469"/>
    <tag k="sidewalk:both" v="separate"/>
    <tag k="surface" v="asphalt"/>
  </way>
  <way id="484957928" version="2" timestamp="2024-04-25T00:24:26Z" changeset="150471163" uid="15541433" user="paulbrunner">
    <nd ref="4777047222"/>
    <nd ref="4777047223"/>
    <nd ref="4777047224"/>
    <nd ref="4777047225"/>
    <nd ref="4777047222"/>
    <tag k="addr:city" v="Berlin"/>
    <tag k="addr:housenumber" v="1"/>
    <tag k="addr:postcode" v="13469"/>
    <tag k="addr:street" v="Todtnauer Zeile"/>
    <tag k="amenity" v="fast_food"/>
    <tag k="building" v="yes"/>
    <tag k="cuisine" v="burger;german"/>
    <tag k="outdoor_seating" v="yes"/>
    <tag k="smoking" v="yes"/>
    <tag k="takeaway" v="yes"/>
  </way>
  <way id="491409072" version="8" timestamp="2025-03-19T22:37:27Z" changeset="163838949" uid="44217" user="kjon">
    <nd ref="281415561"/>
    <nd ref="2942853628"/>
    <nd ref="2941330403"/>
    <nd ref="30818202"/>
    <tag k="cycleway:both" v="no"/>
    <tag k="highway" v="residential"/>
    <tag k="lit" v="yes"/>
    <tag k="maxheight" v="default"/>
    <tag k="maxspeed" v="30"/>
    <tag k="name" v="Dianastraße"/>
    <tag k="name:etymology:wikidata" v="Q132543"/>
    <tag k="parking:both" v="no"/>
    <tag k="postal_code" v="13469"/>
    <tag k="sidewalk:both" v="separate"/>
    <tag k="sidewalk:both:surface" v="paving_stones"/>
    <tag k="smoothness" v="good"/>
    <tag k="surface" v="asphalt"/>
  </way>
  <way id="491409075" version="12" timestamp="2025-03-19T22:37:31Z" changeset="163838949" uid="44217" user="kjon">
    <nd ref="30818202"/>
    <nd ref="5010513317"/>
    <nd ref="30818176"/>
    <nd ref="5747412519"/>
    <nd ref="5747412520"/>
    <nd ref="30818175"/>
    <tag k="cycleway:both" v="no"/>
    <tag k="highway" v="residential"/>
    <tag k="lit" v="yes"/>
    <tag k="maxspeed" v="30"/>
    <tag k="name" v="Dianastraße"/>
    <tag k="name:etymology:wikidata" v="Q132543"/>
    <tag k="parking:both" v="lane"/>
    <tag k="parking:both:orientation" v="parallel"/>
    <tag k="parking:both:staggered" v="yes"/>
    <tag k="postal_code" v="13469"/>
    <tag k="sidewalk:both" v="separate"/>
    <tag k="sidewalk:both:surface" v="paving_stones"/>
    <tag k="smoothness" v="good"/>
    <tag k="surface" v="asphalt"/>
    <tag k="width" v="7"/>
  </way>
  <way id="598576218" version="14" timestamp="2025-03-19T22:37:17Z" changeset="163838949" uid="44217" user="kjon">
    <nd ref="3043490568"/>
    <nd ref="7111957033"/>
    <nd ref="7116070778"/>
    <nd ref="7111957036"/>
    <nd ref="12677455037"/>
    <nd ref="30818204"/>
    <tag k="cycleway:both" v="no"/>
    <tag k="highway" v="residential"/>
    <tag k="lit" v="yes"/>
    <tag k="maxspeed" v="30"/>
    <tag k="name" v="Artemisstraße"/>
    <tag k="name:etymology:wikidata" v="Q39503"/>
    <tag k="parking:both" v="lane"/>
    <tag k="parking:both:orientation" v="parallel"/>
    <tag k="parking:both:staggered" v="yes"/>
    <tag k="postal_code" v="13469"/>
    <tag k="sidewalk:both" v="separate"/>
    <tag k="sidewalk:both:surface" v="paving_stones"/>
    <tag k="smoothness" v="excellent"/>
    <tag k="surface" v="asphalt"/>
    <tag k="width" v="7.5"/>
  </way>
  <way id="605720535" version="3" timestamp="2022-09-05T16:08:02Z" changeset="125821613" uid="6811035" user="SteMue">
    <nd ref="5744364054"/>
    <nd ref="5744364053"/>
    <nd ref="2861340527"/>
    <nd ref="5744364051"/>
    <nd ref="5744364054"/>
    <tag k="addr:city" v="Berlin"/>
    <tag k="addr:country" v="DE"/>
    <tag k="addr:housenumber" v="52"/>
    <tag k="addr:inclusion" v="potential"/>
    <tag k="addr:postcode" v="13469"/>
    <tag k="addr:street" v="Nimrodstraße"/>
    <tag k="addr:suburb" v="Waidmannslust"/>
    <tag k="building" v="detached"/>
    <tag k="source" v="Geoportal Berlin / Hauskoordinaten"/>
  </way>
  <way id="606099329" version="7" timestamp="2023-09-03T12:31:45Z" changeset="140756578" uid="19550286" user="MoriGM">
    <nd ref="5747408117"/>
    <nd ref="5747408116"/>
    <nd ref="5747408113"/>
    <nd ref="5747408119"/>
    <nd ref="30437211"/>
    <tag k="cycleway:both" v="no"/>
    <tag k="highway" v="tertiary"/>
    <tag k="lanes" v="3"/>
    <tag k="lit" v="yes"/>
    <tag k="maxspeed" v="50"/>
    <tag k="name" v="Zabel-Krüger-Damm"/>
    <tag k="name:etymology:wikidata" v="Q92541153"/>
    <tag k="oneway" v="yes"/>
    <tag k="parking:both" v="no"/>
    <tag k="postal_code" v="13469"/>
    <tag k="sidewalk:left" v="no"/>
    <tag k="sidewalk:right" v="separate"/>
    <tag k="smoothness" v="good"/>
    <tag k="surface" v="asphalt"/>
    <tag k="wikidata" v="Q92540512"/>
  </way>
  <way id="606099332" version="9" timestamp="2023-09-03T12:31:47Z" changeset="140756578" uid="19550286" user="MoriGM">
    <nd ref="30437211"/>
    <nd ref="9242370126"/>
    <nd ref="5747408118"/>
    <nd ref="5747408114"/>
    <nd ref="5747408115"/>
    <nd ref="5747408117"/>
    <tag k="cycleway:left" v="no"/>
    <tag k="cycleway:right" v="track"/>
    <tag k="highway" v="tertiary"/>
    <tag k="lane_markings" v="no"/>
    <tag k="lit" v="yes"/>
    <tag k="maxspeed" v="50"/>
    <tag k="name" v="Zabel-Krüger-Damm"/>
    <tag k="name:etymology:wikidata" v="Q92541153"/>
    <tag k="oneway" v="yes"/>
    <tag k="parking:both" v="no"/>
    <tag k="postal_code" v="13469"/>
    <tag k="sidewalk:left" v="no"/>
    <tag k="sidewalk:right" v="separate"/>
    <tag k="smoothness" v="good"/>
    <tag k="surface" v="asphalt"/>
    <tag k="wikidata" v="Q92540512"/>
  </way>
  <way id="606153776" version="9" timestamp="2024-03-20T12:16:10Z" changeset="148909570" uid="9508237" user="momabebra">
    <nd ref="30437211"/>
    <nd ref="9242370128"/>
    <nd ref="5747408111"/>
    <nd ref="5747408112"/>
    <nd ref="3979742112"/>
    <nd ref="11747927837"/>
    <nd ref="5747829411"/>
    <tag k="cycleway" v="no"/>
    <tag k="highway" v="secondary"/>
    <tag k="lanes" v="4"/>
    <tag k="lanes:backward" v="3"/>
    <tag k="lanes:forward" v="1"/>
    <tag k="lit" v="yes"/>
    <tag k="maxspeed" v="50"/>
    <tag k="name" v="Waidmannsluster Damm"/>
    <tag k="name:etymology:wikidata" v="Q648245"/>
    <tag k="parking:both" v="no"/>
    <tag k="postal_code" v="13469"/>
    <tag k="sidewalk:both" v="separate"/>
    <tag k="sidewalk:both:surface" v="paving_stones"/>
    <tag k="sidewalk:right:bicycle" v="yes"/>
    <tag k="smoothness" v="good"/>
    <tag k="surface" v="asphalt"/>
    <tag k="wikidata" v="Q63410222"/>
  </way>
  <way id="645677781" version="2" timestamp="2024-11-04T07:37:05Z" changeset="158728114" uid="6811035" user="SteMue">
    <nd ref="6068799540"/>
    <nd ref="2946035168"/>
    <nd ref="2946035162"/>
    <nd ref="6068799539"/>
    <nd ref="6068799540"/>
    <tag k="addr:city" v="Berlin"/>
    <tag k="addr:housenumber" v="66B"/>
    <tag k="addr:postcode" v="13469"/>
    <tag k="addr:street" v="Bondickstraße"/>
    <tag k="addr:suburb" v="Waidmannslust"/>
    <tag k="building" v="semidetached_house"/>
  </way>
  <way id="645677782" version="2" timestamp="2024-11-04T07:37:09Z" changeset="158728114" uid="6811035" user="SteMue">
    <nd ref="6068799544"/>
    <nd ref="6068799543"/>
    <nd ref="6068799542"/>
    <nd ref="6068799541"/>
    <nd ref="6068799544"/>
    <tag k="addr:city" v="Berlin"/>
    <tag k="addr:housenumber" v="66A"/>
    <tag k="addr:postcode" v="13469"/>
    <tag k="addr:street" v="Bondickstraße"/>
    <tag k="addr:suburb" v="Waidmannslust"/>
    <tag k="building" v="detached"/>
  </way>
  <way id="645677783" version="1" timestamp="2018-11-17T15:46:31Z" changeset="64599189" uid="66391" user="geozeisig">
    <nd ref="6068799548"/>
    <nd ref="6068799547"/>
    <nd ref="6068799546"/>
    <nd ref="6068799545"/>
    <nd ref="6068799548"/>
    <tag k="addr:city" v="Berlin"/>
    <tag k="addr:housenumber" v="3"/>
    <tag k="addr:postcode" v="13469"/>
    <tag k="addr:street" v="Halalistraße"/>
    <tag k="addr:suburb" v="Waidmannslust"/>
    <tag k="building" v="yes"/>
  </way>
  <way id="645677784" version="3" timestamp="2025-02-19T09:58:57Z" changeset="162693502" uid="66391" user="geozeisig">
    <nd ref="6068801453"/>
    <nd ref="6068799551"/>
    <nd ref="6068799550"/>
    <nd ref="6068799549"/>
    <nd ref="6068801453"/>
    <tag k="addr:city" v="Berlin"/>
    <tag k="addr:housenumber" v="69"/>
    <tag k="addr:postcode" v="13469"/>
    <tag k="addr:street" v="Bondickstraße"/>
    <tag k="addr:suburb" v="Waidmannslust"/>
    <tag k="building" v="detached"/>
  </way>
  <way id="645677785" version="1" timestamp="2018-11-17T15:46:31Z" changeset="64599189" uid="66391" user="geozeisig">
    <nd ref="6068801456"/>
    <nd ref="2861332691"/>
    <nd ref="6068801455"/>
    <nd ref="6068801454"/>
    <nd ref="6068801456"/>
    <tag k="addr:city" v="Berlin"/>
    <tag k="addr:country" v="DE"/>
    <tag k="addr:housenumber" v="23"/>
    <tag k="addr:postcode" v="13469"/>
    <tag k="addr:street" v="Bondickstraße"/>
    <tag k="addr:suburb" v="Waidmannslust"/>
    <tag k="building" v="yes"/>
    <tag k="source" v="Geoportal Berlin / Hauskoordinaten"/>
  </way>
  <way id="660709809" version="10" timestamp="2024-03-25T17:12:21Z" changeset="149140469" uid="6811035" user="SteMue">
    <nd ref="782975120"/>
    <nd ref="11749983335"/>
    <nd ref="7810530355"/>
    <nd ref="746585461"/>
    <tag k="cycleway:both" v="no"/>
    <tag k="highway" v="secondary"/>
    <tag k="lanes" v="2"/>
    <tag k="lit" v="yes"/>
    <tag k="maxspeed" v="50"/>
    <tag k="name" v="Waidmannsluster Damm"/>
    <tag k="name:etymology:wikidata" v="Q648245"/>
    <tag k="postal_code" v="13509"/>
    <tag k="sidewalk:both" v="separate"/>
    <tag k="smoothness" v="good"/>
    <tag k="surface" v="asphalt"/>
    <tag k="wikidata" v="Q63410222"/>
  </way>
  <way id="712603180" version="14" timestamp="2025-03-19T22:35:55Z" changeset="163838949" uid="44217" user="kjon">
    <nd ref="280480356"/>
    <nd ref="8823445013"/>
    <nd ref="12387219242"/>
    <nd ref="10801436263"/>
    <nd ref="272632805"/>
    <tag k="cycleway:both" v="no"/>
    <tag k="highway" v="residential"/>
    <tag k="lit" v="yes"/>
    <tag k="maxspeed" v="30"/>
    <tag k="name" v="Fürst-Bismarck-Straße"/>
    <tag k="name:etymology:wikidata" v="Q8442"/>
    <tag k="name:etymology:wikipedia" v="de:Otto von Bismarck"/>
    <tag k="parking:both" v="lane"/>
    <tag k="parking:both:orientation" v="parallel"/>
    <tag k="postal_code" v="13469"/>
    <tag k="sidewalk:both" v="separate"/>
    <tag k="smoothness" v="very_bad"/>
    <tag k="surface" v="sett"/>
  </way>
  <way id="712603181" version="10" timestamp="2025-03-19T22:35:28Z" changeset="163838949" uid="44217" user="kjon">
    <nd ref="280480355"/>
    <nd ref="8962953642"/>
    <nd ref="30818205"/>
    <nd ref="6774795207"/>
    <nd ref="12677455041"/>
    <nd ref="30818204"/>
    <nd ref="12677455042"/>
    <nd ref="30818203"/>
    <nd ref="281415561"/>
    <tag k="cycleway:both" v="no"/>
    <tag k="highway" v="residential"/>
    <tag k="lit" v="yes"/>
    <tag k="maxspeed" v="30"/>
    <tag k="name" v="Dianastraße"/>
    <tag k="name:etymology:wikidata" v="Q132543"/>
    <tag k="parking:both" v="lane"/>
    <tag k="parking:both:orientation" v="parallel"/>
    <tag k="postal_code" v="13469"/>
    <tag k="sidewalk:both" v="separate"/>
    <tag k="smoothness" v="good"/>
    <tag k="surface" v="asphalt"/>
  </way>
  <way id="712603182" version="6" timestamp="2025-03-19T22:35:38Z" changeset="163838949" uid="44217" user="kjon">
    <nd ref="280480354"/>
    <nd ref="280480355"/>
    <tag k="cycleway:both" v="no"/>
    <tag k="highway" v="residential"/>
    <tag k="lit" v="yes"/>
    <tag k="maxspeed" v="30"/>
    <tag k="name" v="Dianastraße"/>
    <tag k="name:etymology:wikidata" v="Q132543"/>
    <tag k="parking:both" v="lane"/>
    <tag k="parking:both:orientation" v="parallel"/>
    <tag k="postal_code" v="13469"/>
    <tag k="sidewalk:both" v="separate"/>
    <tag k="smoothness" v="good"/>
    <tag k="surface" v="asphalt"/>
  </way>
  <way id="727313945" version="9" timestamp="2025-02-14T21:33:22Z" changeset="162519265" uid="44217" user="kjon">
    <nd ref="6816043056"/>
    <nd ref="3979739547"/>
    <nd ref="30818215"/>
    <nd ref="3979739546"/>
    <nd ref="34923897"/>
    <nd ref="7281956164"/>
    <nd ref="6816043055"/>
    <tag k="cycleway:both" v="no"/>
    <tag k="highway" v="secondary"/>
    <tag k="lanes" v="2"/>
    <tag k="lit" v="yes"/>
    <tag k="maxspeed" v="30"/>
    <tag k="name" v="Waidmannsluster Damm"/>
    <tag k="name:etymology:wikidata" v="Q648245"/>
    <tag k="parking:both" v="no"/>
    <tag k="postal_code" v="13469"/>
    <tag k="sidewalk:both" v="separate"/>
    <tag k="sidewalk:both:surface" v="paving_stones"/>
    <tag k="smoothness" v="good"/>
    <tag k="surface" v="asphalt"/>
    <tag k="wikidata" v="Q63410222"/>
  </way>
  <way id="727313946" version="18" timestamp="2025-02-14T21:33:22Z" changeset="162519265" uid="44217" user="kjon">
    <nd ref="30437208"/>
    <nd ref="11032005925"/>
    <nd ref="9649146705"/>
    <nd ref="1330099924"/>
    <nd ref="9649146704"/>
    <nd ref="3979742093"/>
    <nd ref="7116070777"/>
    <nd ref="11584686449"/>
    <nd ref="3979742092"/>
    <nd ref="9649146709"/>
    <nd ref="9649146707"/>
    <nd ref="30437277"/>
    <nd ref="9649146708"/>
    <nd ref="9649146711"/>
    <nd ref="6851198378"/>
    <nd ref="30437276"/>
    <nd ref="11700336718"/>
    <nd ref="30818214"/>
    <nd ref="11749983367"/>
    <nd ref="6862701975"/>
    <nd ref="8266869988"/>
    <nd ref="6816043056"/>
    <tag k="cycleway:both" v="no"/>
    <tag k="highway" v="secondary"/>
    <tag k="lanes" v="2"/>
    <tag k="lit" v="yes"/>
    <tag k="maxspeed" v="50"/>
    <tag k="name" v="Waidmannsluster Damm"/>
    <tag k="name:etymology:wikidata" v="Q648245"/>
    <tag k="parking:both" v="yes"/>
    <tag k="parking:both:orientation" v="parallel"/>
    <tag k="parking:lane:both:parallel" v="half_on_kerb"/>
    <tag k="postal_code" v="13469"/>
    <tag k="sidewalk:both" v="separate"/>
    <tag k="sidewalk:both:surface" v="paving_stones"/>
    <tag k="smoothness" v="good"/>
    <tag k="surface" v="asphalt"/>
    <tag k="wikidata" v="Q63410222"/>
  </way>
  <way id="836871679" version="5" timestamp="2023-02-19T16:18:26Z" changeset="132755188" uid="11146797" user="cyton">
    <nd ref="7810530342"/>
    <nd ref="7810530343"/>
    <nd ref="7810530344"/>
    <nd ref="7810530345"/>
    <nd ref="7810530342"/>
    <tag k="addr:housenumber" v="83a"/>
    <tag k="addr:street" v="Waidmannsluster Damm"/>
    <tag k="building" v="residential"/>
    <tag k="building:levels" v="3"/>
    <tag k="roof:shape" v="flat"/>
  </way>
  <way id="836871680" version="5" timestamp="2023-02-19T16:18:25Z" changeset="132755188" uid="11146797" user="cyton">
    <nd ref="7810530346"/>
    <nd ref="7810530347"/>
    <nd ref="7810530348"/>
    <nd ref="7810530349"/>
    <nd ref="7810530346"/>
    <tag k="addr:housenumber" v="83"/>
    <tag k="addr:street" v="Waidmannsluster Damm"/>
    <tag k="building" v="residential"/>
    <tag k="building:levels" v="3"/>
    <tag k="roof:shape" v="flat"/>
  </way>
  <way id="836871681" version="5" timestamp="2023-02-19T16:18:27Z" changeset="132755188" uid="11146797" user="cyton">
    <nd ref="7810530350"/>
    <nd ref="7810530351"/>
    <nd ref="7810530352"/>
    <nd ref="7810530353"/>
    <nd ref="7810530350"/>
    <tag k="addr:housenumber" v="81,81a,81b"/>
    <tag k="addr:street" v="Waidmannsluster Damm"/>
    <tag k="building" v="residential"/>
    <tag k="building:levels" v="3"/>
    <tag k="roof:shape" v="flat"/>
  </way>
  <way id="896978222" version="7" timestamp="2023-08-11T20:01:56Z" changeset="139764850" uid="6811035" user="SteMue">
    <nd ref="21538117"/>
    <nd ref="8337603699"/>
    <nd ref="8337603706"/>
    <nd ref="30818229"/>
    <nd ref="6771633327"/>
    <nd ref="21537448"/>
    <nd ref="3979742114"/>
    <nd ref="3979742113"/>
    <nd ref="5747408109"/>
    <nd ref="8337603705"/>
    <nd ref="5747408110"/>
    <tag k="bicycle" v="optional_sidepath"/>
    <tag k="cycleway:both" v="no"/>
    <tag k="foot" v="use_sidepath"/>
    <tag k="highway" v="primary"/>
    <tag k="lanes" v="2"/>
    <tag k="lit" v="yes"/>
    <tag k="maxspeed" v="50"/>
    <tag k="maxspeed:conditional" v="30 @ (22:00-06:00)"/>
    <tag k="name" v="Oraniendamm"/>
    <tag k="name:etymology:wikidata" v="Q2281221"/>
    <tag k="parking:both" v="on_kerb"/>
    <tag k="parking:both:orientation" v="parallel"/>
    <tag k="postal_code" v="13469"/>
    <tag k="ref" v="B 96"/>
    <tag k="sidewalk:both" v="separate"/>
    <tag k="smoothness" v="good"/>
    <tag k="surface" v="asphalt"/>
    <tag k="wikidata" v="Q60691158"/>
  </way>
  <way id="965788133" version="7" timestamp="2025-02-14T21:33:22Z" changeset="162519265" uid="44217" user="kjon">
    <nd ref="30818175"/>
    <nd ref="7687562474"/>
    <nd ref="5747412516"/>
    <nd ref="5747412517"/>
    <nd ref="2863430519"/>
    <nd ref="4500604249"/>
    <nd ref="2863430515"/>
    <nd ref="30818230"/>
    <nd ref="2863430810"/>
    <nd ref="8337603707"/>
    <nd ref="21538117"/>
    <tag k="bicycle" v="optional_sidepath"/>
    <tag k="cycleway:both" v="no"/>
    <tag k="foot" v="use_sidepath"/>
    <tag k="highway" v="primary"/>
    <tag k="lanes" v="2"/>
    <tag k="lit" v="yes"/>
    <tag k="maxspeed" v="50"/>
    <tag k="name" v="Oraniendamm"/>
    <tag k="name:etymology:wikidata" v="Q2281221"/>
    <tag k="parking:both" v="yes"/>
    <tag k="parking:both:orientation" v="parallel"/>
    <tag k="parking:lane:both:parallel" v="on_kerb"/>
    <tag k="postal_code" v="13469"/>
    <tag k="ref" v="B 96"/>
    <tag k="sidewalk:both" v="separate"/>
    <tag k="smoothness" v="good"/>
    <tag k="surface" v="asphalt"/>
    <tag k="wikidata" v="Q60691158"/>
  </way>
  <way id="965815282" version="5" timestamp="2024-03-25T10:25:21Z" changeset="149121766" uid="6811035" user="SteMue">
    <nd ref="5747408110"/>
    <nd ref="30437211"/>
    <tag k="bicycle" v="optional_sidepath"/>
    <tag k="cycleway:both" v="no"/>
    <tag k="foot" v="use_sidepath"/>
    <tag k="highway" v="primary"/>
    <tag k="lanes" v="2"/>
    <tag k="lit" v="yes"/>
    <tag k="maxspeed" v="50"/>
    <tag k="maxspeed:conditional" v="30 @ (22:00-06:00)"/>
    <tag k="name" v="Oraniendamm"/>
    <tag k="name:etymology:wikidata" v="Q2281221"/>
    <tag k="parking:both" v="no"/>
    <tag k="postal_code" v="13469"/>
    <tag k="ref" v="B 96"/>
    <tag k="sidewalk:both" v="separate"/>
    <tag k="smoothness" v="good"/>
    <tag k="surface" v="asphalt"/>
    <tag k="wikidata" v="Q60691158"/>
  </way>
  <way id="1071216652" version="5" timestamp="2024-03-25T17:12:09Z" changeset="149140469" uid="6811035" user="SteMue">
    <nd ref="271667902"/>
    <nd ref="30437265"/>
    <nd ref="3979742116"/>
    <nd ref="266980763"/>
    <nd ref="782975120"/>
    <tag k="cycleway:both" v="no"/>
    <tag k="highway" v="secondary"/>
    <tag k="lanes" v="2"/>
    <tag k="lit" v="yes"/>
    <tag k="maxspeed" v="50"/>
    <tag k="name" v="Waidmannsluster Damm"/>
    <tag k="name:etymology:wikidata" v="Q648245"/>
    <tag k="postal_code" v="13509"/>
    <tag k="sidewalk:both" v="separate"/>
    <tag k="smoothness" v="good"/>
    <tag k="surface" v="asphalt"/>
    <tag k="wikidata" v="Q63410222"/>
  </way>
  <way id="1088316480" version="4" timestamp="2025-03-19T22:39:03Z" changeset="163838949" uid="44217" user="kjon">
    <nd ref="9971211093"/>
    <nd ref="9971211094"/>
    <tag k="change:lanes:backward" v="yes|yes|yes"/>
    <tag k="change:lanes:forward" v="yes"/>
    <tag k="cycleway:both" v="no"/>
    <tag k="cycleway:left:surface" v="paving_stones"/>
    <tag k="highway" v="primary"/>
    <tag k="lane_markings" v="yes"/>
    <tag k="lanes" v="4"/>
    <tag k="lanes:backward" v="3"/>
    <tag k="lanes:forward" v="1"/>
    <tag k="lit" v="yes"/>
    <tag k="maxspeed" v="50"/>
    <tag k="name" v="Oraniendamm"/>
    <tag k="name:etymology:wikidata" v="Q2281221"/>
    <tag k="parking:both" v="no"/>
    <tag k="postal_code" v="13469"/>
    <tag k="ref" v="B 96"/>
    <tag k="sidewalk:both" v="separate"/>
    <tag k="sidewalk:both:surface" v="paving_stones"/>
    <tag k="smoothness" v="good"/>
    <tag k="surface" v="asphalt"/>
    <tag k="turn:lanes:backward" v="none|none|none"/>
    <tag k="wikidata" v="Q60691158"/>
  </way>
  <way id="1088316481" version="5" timestamp="2025-03-19T22:38:59Z" changeset="163838949" uid="44217" user="kjon">
    <nd ref="9971211092"/>
    <nd ref="2327713155"/>
    <tag k="change:lanes:backward" v="not_left|yes|yes"/>
    <tag k="change:lanes:forward" v="no"/>
    <tag k="cycleway:both" v="no"/>
    <tag k="cycleway:left:surface" v="paving_stones"/>
    <tag k="highway" v="primary"/>
    <tag k="lane_markings" v="yes"/>
    <tag k="lanes" v="4"/>
    <tag k="lanes:backward" v="3"/>
    <tag k="lanes:forward" v="1"/>
    <tag k="lit" v="yes"/>
    <tag k="maxspeed" v="50"/>
    <tag k="name" v="Oraniendamm"/>
    <tag k="name:etymology:wikidata" v="Q2281221"/>
    <tag k="parking:both" v="no"/>
    <tag k="postal_code" v="13469"/>
    <tag k="ref" v="B 96"/>
    <tag k="sidewalk:both" v="separate"/>
    <tag k="sidewalk:both:surface" v="paving_stones"/>
    <tag k="smoothness" v="good"/>
    <tag k="surface" v="asphalt"/>
    <tag k="turn:lanes:backward" v="none|none|none"/>
    <tag k="wikidata" v="Q60691158"/>
  </way>
  <way id="1088316482" version="5" timestamp="2025-03-19T22:39:06Z" changeset="163838949" uid="44217" user="kjon">
    <nd ref="9971211094"/>
    <nd ref="498600297"/>
    <tag k="cycleway:both" v="no"/>
    <tag k="cycleway:left:surface" v="paving_stones"/>
    <tag k="highway" v="primary"/>
    <tag k="lanes" v="2"/>
    <tag k="lit" v="yes"/>
    <tag k="maxspeed" v="50"/>
    <tag k="name" v="Oraniendamm"/>
    <tag k="name:etymology:wikidata" v="Q2281221"/>
    <tag k="parking:both" v="no"/>
    <tag k="postal_code" v="13469"/>
    <tag k="ref" v="B 96"/>
    <tag k="sidewalk:both" v="separate"/>
    <tag k="sidewalk:both:surface" v="paving_stones"/>
    <tag k="smoothness" v="good"/>
    <tag k="surface" v="asphalt"/>
    <tag k="wikidata" v="Q60691158"/>
  </way>
  <way id="1127461732" version="6" timestamp="2025-03-19T22:37:08Z" changeset="163838949" uid="44217" user="kjon">
    <nd ref="30818213"/>
    <nd ref="3043490571"/>
    <tag k="cycleway:both" v="no"/>
    <tag k="highway" v="residential"/>
    <tag k="lit" v="yes"/>
    <tag k="maxspeed" v="30"/>
    <tag k="name" v="Artemisstraße"/>
    <tag k="name:etymology:wikidata" v="Q39503"/>
    <tag k="oneway" v="no"/>
    <tag k="parking:both" v="lane"/>
    <tag k="parking:both:orientation" v="parallel"/>
    <tag k="parking:both:staggered" v="yes"/>
    <tag k="postal_code" v="13469"/>
    <tag k="sidewalk:both" v="separate"/>
    <tag k="sidewalk:both:surface" v="paving_stones"/>
    <tag k="smoothness" v="excellent"/>
    <tag k="surface" v="asphalt"/>
    <tag k="width" v="3.5"/>
  </way>
  <way id="1127461733" version="5" timestamp="2025-03-19T22:37:13Z" changeset="163838949" uid="44217" user="kjon">
    <nd ref="3043490571"/>
    <nd ref="3043490568"/>
    <tag k="cycleway:both" v="no"/>
    <tag k="highway" v="residential"/>
    <tag k="lit" v="yes"/>
    <tag k="maxspeed" v="30"/>
    <tag k="name" v="Artemisstraße"/>
    <tag k="name:etymology:wikidata" v="Q39503"/>
    <tag k="parking:left" v="lane"/>
    <tag k="parking:left:orientation" v="parallel"/>
    <tag k="parking:left:staggered" v="yes"/>
    <tag k="parking:right" v="no"/>
    <tag k="postal_code" v="13469"/>
    <tag k="sidewalk:both" v="separate"/>
    <tag k="sidewalk:both:surface" v="paving_stones"/>
    <tag k="smoothness" v="excellent"/>
    <tag k="surface" v="asphalt"/>
    <tag k="width" v="7.5"/>
  </way>
  <way id="1134025603" version="5" timestamp="2025-03-22T13:03:52Z" changeset="163946595" uid="44217" user="kjon">
    <nd ref="7687338677"/>
    <nd ref="10856040029"/>
    <nd ref="7687313667"/>
    <nd ref="7280138538"/>
    <nd ref="30819575"/>
    <nd ref="12690954768"/>
    <nd ref="30819576"/>
    <tag k="cycleway:both" v="no"/>
    <tag k="highway" v="residential"/>
    <tag k="lit" v="yes"/>
    <tag k="maxspeed" v="30"/>
    <tag k="name" v="Schluchseestraße"/>
    <tag k="name:etymology:wikidata" v="Q835671"/>
    <tag k="postal_code" v="13469"/>
    <tag k="sidewalk:both" v="separate"/>
    <tag k="surface" v="asphalt"/>
  </way>
  <way id="1147976521" version="3" timestamp="2025-03-22T12:09:37Z" changeset="163944594" uid="44217" user="kjon">
    <nd ref="30819591"/>
    <nd ref="12690750075"/>
    <nd ref="10682545324"/>
    <nd ref="10681146554"/>
    <tag k="cycleway:both" v="no"/>
    <tag k="highway" v="residential"/>
    <tag k="lit" v="yes"/>
    <tag k="maxspeed" v="30"/>
    <tag k="name" v="Waldshuter Zeile"/>
    <tag k="name:etymology:wikidata" v="Q505433"/>
    <tag k="postal_code" v="13469"/>
    <tag k="surface" v="concrete"/>
  </way>
  <way id="1147976598" version="6" timestamp="2023-02-21T07:49:30Z" changeset="132822125" uid="11146797" user="cyton">
    <nd ref="10681146554"/>
    <nd ref="10682574136"/>
    <nd ref="10682574133"/>
    <nd ref="10681138049"/>
    <tag k="cycleway:both" v="no"/>
    <tag k="highway" v="residential"/>
    <tag k="lit" v="yes"/>
    <tag k="maxspeed" v="30"/>
    <tag k="name" v="Waldshuter Zeile"/>
    <tag k="name:etymology:wikidata" v="Q505433"/>
    <tag k="parking:left" v="lane"/>
    <tag k="parking:left:orientation" v="parallel"/>
    <tag k="parking:right" v="street_side"/>
    <tag k="parking:right:orientation" v="diagonal"/>
    <tag k="postal_code" v="13469"/>
    <tag k="sidewalk" v="left"/>
    <tag k="sidewalk:left:surface" v="paving_stones"/>
    <tag k="smoothness" v="good"/>
    <tag k="surface" v="concrete"/>
  </way>
  <way id="1147976599" version="2" timestamp="2023-02-20T15:49:42Z" changeset="132797124" uid="11146797" user="cyton">
    <nd ref="10681138049"/>
    <nd ref="30819596"/>
    <tag k="cycleway:both" v="no"/>
    <tag k="highway" v="residential"/>
    <tag k="lit" v="yes"/>
    <tag k="maxspeed" v="30"/>
    <tag k="name" v="Waldshuter Zeile"/>
    <tag k="name:etymology:wikidata" v="Q505433"/>
    <tag k="parking:both" v="lane"/>
    <tag k="parking:both:orientation" v="parallel"/>
    <tag k="postal_code" v="13469"/>
    <tag k="sidewalk" v="both"/>
    <tag k="sidewalk:both:surface" v="paving_stones"/>
    <tag k="smoothness" v="good"/>
    <tag k="surface" v="concrete"/>
  </way>
  <way id="1149188149" version="2" timestamp="2023-02-24T15:48:28Z" changeset="132974083" uid="2807324" user="bwbuz">
    <nd ref="10691073634"/>
    <nd ref="10691073633"/>
    <nd ref="10691073632"/>
    <nd ref="10691073631"/>
    <nd ref="10691073630"/>
    <nd ref="10691073629"/>
    <nd ref="10691073628"/>
    <nd ref="10691073627"/>
    <nd ref="10691073626"/>
    <nd ref="10691073625"/>
    <nd ref="10691073624"/>
    <nd ref="10691073623"/>
    <nd ref="10691077569"/>
    <nd ref="10691073622"/>
    <nd ref="10691073621"/>
    <nd ref="10691073620"/>
    <nd ref="10691073619"/>
    <nd ref="10691073618"/>
    <nd ref="10691073617"/>
    <nd ref="10691073634"/>
    <tag k="addr:city" v="Berlin"/>
    <tag k="addr:country" v="DE"/>
    <tag k="addr:housenumber" v="2"/>
    <tag k="addr:postcode" v="13469"/>
    <tag k="addr:street" v="Oraniendamm"/>
    <tag k="addr:suburb" v="Waidmannslust"/>
    <tag k="building" v="apartments"/>
    <tag k="source" v="Geoportal Berlin / Hauskoordinaten"/>
  </way>
  <way id="1149188502" version="1" timestamp="2023-02-24T15:48:28Z" changeset="132974083" uid="2807324" user="bwbuz">
    <nd ref="10691073621"/>
    <nd ref="10691073622"/>
    <nd ref="10691077569"/>
    <nd ref="10691077568"/>
    <nd ref="10691077567"/>
    <nd ref="10691077566"/>
    <nd ref="10691077565"/>
    <nd ref="10691077564"/>
    <nd ref="10691077563"/>
    <nd ref="10691077562"/>
    <nd ref="10691077561"/>
    <nd ref="10691077560"/>
    <nd ref="10691077559"/>
    <nd ref="10691077558"/>
    <nd ref="10691077557"/>
    <nd ref="10691077556"/>
    <nd ref="10691073621"/>
    <tag k="addr:city" v="Berlin"/>
    <tag k="addr:country" v="DE"/>
    <tag k="addr:housenumber" v="1"/>
    <tag k="addr:postcode" v="13469"/>
    <tag k="addr:street" v="Oraniendamm"/>
    <tag k="addr:suburb" v="Waidmannslust"/>
    <tag k="building" v="apartments"/>
    <tag k="source" v="Geoportal Berlin / Hauskoordinaten"/>
  </way>
  <way id="1149599877" version="4" timestamp="2025-03-22T11:54:53Z" changeset="163943705" uid="44217" user="kjon">
    <nd ref="10694500908"/>
    <nd ref="2863452531"/>
    <nd ref="746592458"/>
    <nd ref="30818814"/>
    <tag k="cycleway:both" v="no"/>
    <tag k="highway" v="tertiary"/>
    <tag k="lane_markings" v="no"/>
    <tag k="lit" v="yes"/>
    <tag k="maxspeed" v="50"/>
    <tag k="name" v="Zabel-Krüger-Damm"/>
    <tag k="name:etymology:wikidata" v="Q92541153"/>
    <tag k="postal_code" v="13469"/>
    <tag k="sidewalk:both" v="separate"/>
    <tag k="sidewalk:right:surface" v="paving_stones"/>
    <tag k="smoothness" v="good"/>
    <tag k="surface" v="asphalt"/>
    <tag k="wikidata" v="Q92540512"/>
  </way>
  <way id="1153984792" version="4" timestamp="2024-03-20T11:47:38Z" changeset="148908142" uid="9508237" user="momabebra">
    <nd ref="30819563"/>
    <nd ref="4598178238"/>
    <nd ref="7410856544"/>
    <nd ref="4598178230"/>
    <nd ref="1374993113"/>
    <nd ref="30818814"/>
    <tag k="cycleway:left" v="no"/>
    <tag k="cycleway:right" v="track"/>
    <tag k="highway" v="tertiary"/>
    <tag k="lanes" v="2"/>
    <tag k="lit" v="yes"/>
    <tag k="maxspeed" v="50"/>
    <tag k="name" v="Zabel-Krüger-Damm"/>
    <tag k="name:etymology:wikidata" v="Q92541153"/>
    <tag k="parking:both:orientation" v="parallel"/>
    <tag k="parking:left" v="lane"/>
    <tag k="parking:right" v="street_side"/>
    <tag k="postal_code" v="13469"/>
    <tag k="sidewalk:both" v="separate"/>
    <tag k="sidewalk:both:surface" v="paving_stones"/>
    <tag k="sidewalk:left:bicycle" v="yes"/>
    <tag k="smoothness" v="good"/>
    <tag k="surface" v="asphalt"/>
    <tag k="wikidata" v="Q92540512"/>
  </way>
  <way id="1167364082" version="3" timestamp="2025-03-22T17:42:13Z" changeset="163957578" uid="44217" user="kjon">
    <nd ref="30819566"/>
    <nd ref="10856037304"/>
    <nd ref="7372929812"/>
    <nd ref="3411724830"/>
    <nd ref="30819567"/>
    <tag k="cycleway:both" v="no"/>
    <tag k="highway" v="residential"/>
    <tag k="lit" v="yes"/>
    <tag k="maxspeed" v="30"/>
    <tag k="name" v="Schluchseestraße"/>
    <tag k="name:etymology:wikidata" v="Q835671"/>
    <tag k="postal_code" v="13469"/>
    <tag k="sidewalk:both" v="separate"/>
    <tag k="surface" v="asphalt"/>
  </way>
  <way id="1167364394" version="9" timestamp="2025-03-22T17:37:36Z" changeset="163957578" uid="44217" user="kjon">
    <nd ref="10856032622"/>
    <nd ref="3145469377"/>
    <nd ref="30819590"/>
    <nd ref="2863268882"/>
    <nd ref="30819591"/>
    <nd ref="11565377250"/>
    <nd ref="11820118012"/>
    <tag k="cycleway:both" v="no"/>
    <tag k="highway" v="residential"/>
    <tag k="lit" v="yes"/>
    <tag k="maxheight:signed" v="no"/>
    <tag k="maxspeed" v="30"/>
    <tag k="name" v="Titiseestraße"/>
    <tag k="name:etymology:wikidata" v="Q700097"/>
    <tag k="parking:left" v="no"/>
    <tag k="parking:right" v="lane"/>
    <tag k="parking:right:orientation" v="parallel"/>
    <tag k="postal_code" v="13469"/>
    <tag k="sidewalk:both" v="separate"/>
    <tag k="surface" v="asphalt"/>
  </way>
  <way id="1188042977" version="7" timestamp="2025-03-19T22:38:19Z" changeset="163838949" uid="44217" user="kjon">
    <nd ref="11031956374"/>
    <nd ref="7711664950"/>
    <nd ref="30818228"/>
    <tag k="cycleway:both" v="no"/>
    <tag k="highway" v="residential"/>
    <tag k="lit" v="yes"/>
    <tag k="maxspeed" v="30"/>
    <tag k="name" v="Düsterhauptstraße"/>
    <tag k="parking:both" v="no"/>
    <tag k="postal_code" v="13469"/>
    <tag k="sidewalk:both" v="separate"/>
    <tag k="sidewalk:both:surface" v="paving_stones"/>
    <tag k="smoothness" v="good"/>
    <tag k="source:width" v="ARCore"/>
    <tag k="surface" v="asphalt"/>
    <tag k="width" v="9.7"/>
  </way>
  <way id="1264487202" version="3" timestamp="2025-03-22T11:53:45Z" changeset="163943705" uid="44217" user="kjon">
    <nd ref="11747869750"/>
    <nd ref="11747869189"/>
    <nd ref="30818813"/>
    <tag k="cycleway:both" v="no"/>
    <tag k="highway" v="residential"/>
    <tag k="lit" v="yes"/>
    <tag k="maxspeed" v="30"/>
    <tag k="name" v="Horber Straße"/>
    <tag k="name:etymology:wikidata" v="Q82690"/>
    <tag k="postal_code" v="13469"/>
    <tag k="sidewalk:both:surface" v="paving_stones"/>
    <tag k="sidewalk:left" v="yes"/>
    <tag k="sidewalk:right" v="separate"/>
    <tag k="surface" v="asphalt"/>
  </way>
  <way id="1264487504" version="3" timestamp="2025-03-22T11:51:09Z" changeset="163943705" uid="44217" user="kjon">
    <nd ref="11747867889"/>
    <nd ref="11747869170"/>
    <nd ref="30818839"/>
    <tag k="cycleway:both" v="no"/>
    <tag k="highway" v="residential"/>
    <tag k="lit" v="yes"/>
    <tag k="maxspeed" v="30"/>
    <tag k="name" v="Gutachstraße"/>
    <tag k="name:etymology:wikidata" v="Q557834"/>
    <tag k="postal_code" v="13469"/>
    <tag k="sidewalk:both" v="separate"/>
    <tag k="sidewalk:both:surface" v="paving_stones"/>
    <tag k="surface" v="asphalt"/>
  </way>
  <way id="1264494309" version="2" timestamp="2024-03-20T12:17:43Z" changeset="148909640" uid="9508237" user="momabebra">
    <nd ref="11747927842"/>
    <nd ref="30437209"/>
    <tag k="cycleway:both" v="no"/>
    <tag k="highway" v="secondary"/>
    <tag k="lanes" v="2"/>
    <tag k="lit" v="yes"/>
    <tag k="maxspeed" v="50"/>
    <tag k="name" v="Waidmannsluster Damm"/>
    <tag k="name:etymology:wikidata" v="Q648245"/>
    <tag k="parking:both" v="no"/>
    <tag k="postal_code" v="13469"/>
    <tag k="sidewalk:both" v="separate"/>
    <tag k="sidewalk:both:surface" v="paving_stones"/>
    <tag k="sidewalk:right:bicycle" v="yes"/>
    <tag k="smoothness" v="good"/>
    <tag k="surface" v="asphalt"/>
    <tag k="wikidata" v="Q63410222"/>
  </way>
  <way id="1264496345" version="4" timestamp="2025-03-19T22:36:42Z" changeset="163838949" uid="44217" user="kjon">
    <nd ref="11747941805"/>
    <nd ref="11700336706"/>
    <nd ref="30437276"/>
    <tag k="cycleway:both" v="no"/>
    <tag k="highway" v="residential"/>
    <tag k="lit" v="yes"/>
    <tag k="maxspeed" v="30"/>
    <tag k="name" v="Nach der Höhe"/>
    <tag k="name:etymology:wikidata" v="Q1546008"/>
    <tag k="parking:both" v="lane"/>
    <tag k="parking:both:orientation" v="parallel"/>
    <tag k="postal_code" v="13469"/>
    <tag k="sidewalk:both" v="separate"/>
    <tag k="surface" v="asphalt"/>
  </way>
  <way id="1264496360" version="4" timestamp="2025-03-19T22:36:37Z" changeset="163838949" uid="44217" user="kjon">
    <nd ref="11747931542"/>
    <nd ref="11700336731"/>
    <nd ref="30818214"/>
    <tag k="cycleway:both" v="no"/>
    <tag k="highway" v="residential"/>
    <tag k="lit" v="yes"/>
    <tag k="maxspeed" v="30"/>
    <tag k="name" v="Hubertusstraße"/>
    <tag k="name:etymology:wikidata" v="Q159834"/>
    <tag k="parking:both" v="lane"/>
    <tag k="parking:both:orientation" v="parallel"/>
    <tag k="postal_code" v="13469"/>
    <tag k="sidewalk:both" v="separate"/>
    <tag k="surface" v="asphalt"/>
  </way>
  <way id="1264754157" version="4" timestamp="2025-03-19T22:36:46Z" changeset="163838949" uid="44217" user="kjon">
    <nd ref="30437274"/>
    <nd ref="11747941805"/>
    <tag k="cycleway:both" v="no"/>
    <tag k="highway" v="residential"/>
    <tag k="lit" v="yes"/>
    <tag k="maxspeed" v="30"/>
    <tag k="name" v="Nach der Höhe"/>
    <tag k="name:etymology:wikidata" v="Q1546008"/>
    <tag k="parking:both" v="lane"/>
    <tag k="parking:both:orientation" v="parallel"/>
    <tag k="postal_code" v="13469"/>
    <tag k="sidewalk:both" v="separate"/>
    <tag k="smoothness" v="very_bad"/>
    <tag k="surface" v="sett"/>
  </way>
  <way id="1264754158" version="5" timestamp="2025-03-19T22:39:35Z" changeset="163838949" uid="44217" user="kjon">
    <nd ref="30437249"/>
    <nd ref="12677557475"/>
    <nd ref="4588980180"/>
    <nd ref="12677557458"/>
    <nd ref="30437274"/>
    <tag k="cycleway:both" v="no"/>
    <tag k="highway" v="residential"/>
    <tag k="lit" v="yes"/>
    <tag k="maxspeed" v="30"/>
    <tag k="name" v="Bondickstraße"/>
    <tag k="name:etymology:wikidata" v="Q104771350"/>
    <tag k="parking:both" v="lane"/>
    <tag k="parking:both:orientation" v="parallel"/>
    <tag k="postal_code" v="13469"/>
    <tag k="sidewalk:both" v="separate"/>
    <tag k="smoothness" v="very_bad"/>
    <tag k="surface" v="sett"/>
  </way>
  <way id="1264754159" version="4" timestamp="2025-03-19T22:39:41Z" changeset="163838949" uid="44217" user="kjon">
    <nd ref="30437247"/>
    <nd ref="12677557452"/>
    <nd ref="2966844774"/>
    <nd ref="30437249"/>
    <tag k="cycleway:both" v="no"/>
    <tag k="highway" v="residential"/>
    <tag k="lit" v="yes"/>
    <tag k="maxspeed" v="30"/>
    <tag k="name" v="Hochjagdstraße"/>
    <tag k="name:etymology:wikidata" v="Q1623470"/>
    <tag k="parking:both" v="lane"/>
    <tag k="parking:both:orientation" v="parallel"/>
    <tag k="postal_code" v="13469"/>
    <tag k="sidewalk:both" v="separate"/>
    <tag k="smoothness" v="very_bad"/>
    <tag k="surface" v="sett"/>
  </way>
  <way id="1264755220" version="3" timestamp="2024-03-21T10:19:29Z" changeset="148953403" uid="9508237" user="momabebra">
    <nd ref="11749983937"/>
    <nd ref="11750010291"/>
    <nd ref="30437265"/>
    <tag k="cycleway:both" v="no"/>
    <tag k="highway" v="residential"/>
    <tag k="lit" v="yes"/>
    <tag k="maxspeed" v="30"/>
    <tag k="name" v="Waldhornstraße"/>
    <tag k="name:etymology:wikidata" v="Q163759"/>
    <tag k="postal_code" v="13469"/>
    <tag k="sidewalk:both" v="separate"/>
    <tag k="surface" v="asphalt"/>
  </way>
  <way id="1264755650" version="4" timestamp="2025-05-10T12:10:39Z" changeset="166066436" uid="18436637" user="DG3UH">
    <nd ref="11750034076"/>
    <nd ref="11750010278"/>
    <nd ref="1330083132"/>
    <tag k="cycleway:both" v="no"/>
    <tag k="highway" v="residential"/>
    <tag k="lit" v="yes"/>
    <tag k="maxspeed" v="30"/>
    <tag k="name" v="Am Ansitz"/>
    <tag k="name:etymology:wikidata" v="Q569909"/>
    <tag k="name:etymology:wikipedia" v="de:Ansitzjagd"/>
    <tag k="oneway" v="yes"/>
    <tag k="postal_code" v="13469"/>
    <tag k="sidewalk:both" v="separate"/>
    <tag k="surface" v="asphalt"/>
    <tag k="width" v="3"/>
  </way>
  <way id="1264755948" version="4" timestamp="2025-02-14T21:33:22Z" changeset="162519265" uid="44217" user="kjon">
    <nd ref="11750034000"/>
    <nd ref="11750010293"/>
    <nd ref="30437251"/>
    <tag k="cycleway:both" v="no"/>
    <tag k="highway" v="residential"/>
    <tag k="lit" v="yes"/>
    <tag k="maxspeed" v="30"/>
    <tag k="name" v="Hochjagdstraße"/>
    <tag k="name:etymology:wikidata" v="Q1623470"/>
    <tag k="parking:both" v="lane"/>
    <tag k="parking:both:orientation" v="parallel"/>
    <tag k="postal_code" v="13469"/>
    <tag k="sidewalk:both" v="separate"/>
    <tag k="surface" v="asphalt"/>
  </way>
  <way id="1264756284" version="4" timestamp="2025-02-14T21:33:22Z" changeset="162519265" uid="44217" user="kjon">
    <nd ref="30818215"/>
    <nd ref="11749983363"/>
    <nd ref="11750005456"/>
    <tag k="cycleway:both" v="no"/>
    <tag k="highway" v="residential"/>
    <tag k="lit" v="yes"/>
    <tag k="maxspeed" v="30"/>
    <tag k="name" v="Am Dianaplatz"/>
    <tag k="name:etymology:wikidata" v="Q132543"/>
    <tag k="name:etymology:wikipedia" v="de:Diana"/>
    <tag k="parking:both" v="lane"/>
    <tag k="parking:both:orientation" v="parallel"/>
    <tag k="postal_code" v="13469"/>
    <tag k="sidewalk:both" v="separate"/>
    <tag k="surface" v="asphalt"/>
  </way>
  <way id="1272902050" version="5" timestamp="2024-04-15T21:43:49Z" changeset="150059233" uid="11146797" user="cyton">
    <nd ref="30819586"/>
    <nd ref="4777044117"/>
    <nd ref="10856037277"/>
    <nd ref="10856037278"/>
    <nd ref="30819587"/>
    <nd ref="11820166292"/>
    <tag k="cycleway:both" v="no"/>
    <tag k="highway" v="residential"/>
    <tag k="lit" v="yes"/>
    <tag k="maxspeed" v="30"/>
    <tag k="name" v="Titiseestraße"/>
    <tag k="name:etymology:wikidata" v="Q700097"/>
    <tag k="parking:left" v="no"/>
    <tag k="parking:right" v="lane"/>
    <tag k="parking:right:orientation" v="parallel"/>
    <tag k="postal_code" v="13469"/>
    <tag k="sidewalk:both" v="separate"/>
    <tag k="smoothness" v="good"/>
    <tag k="source:width" v="ARCore"/>
    <tag k="surface" v="asphalt"/>
    <tag k="width" v="8.3"/>
  </way>
  <way id="1272902106" version="4" timestamp="2025-03-22T17:37:49Z" changeset="163957578" uid="44217" user="kjon">
    <nd ref="11820179081"/>
    <nd ref="6769322925"/>
    <nd ref="12690750078"/>
    <nd ref="30818818"/>
    <tag k="cycleway:both" v="no"/>
    <tag k="highway" v="residential"/>
    <tag k="lit" v="yes"/>
    <tag k="maxspeed" v="30"/>
    <tag k="name" v="Titiseestraße"/>
    <tag k="name:etymology:wikidata" v="Q700097"/>
    <tag k="parking:left" v="no"/>
    <tag k="parking:right" v="lane"/>
    <tag k="parking:right:orientation" v="parallel"/>
    <tag k="postal_code" v="13469"/>
    <tag k="sidewalk:both" v="separate"/>
    <tag k="surface" v="asphalt"/>
  </way>
  <way id="1272902107" version="3" timestamp="2025-03-22T17:37:40Z" changeset="163957578" uid="44217" user="kjon">
    <nd ref="11820118012"/>
    <nd ref="3979742125"/>
    <nd ref="3979742126"/>
    <nd ref="11820179081"/>
    <tag k="cycleway:both" v="no"/>
    <tag k="highway" v="residential"/>
    <tag k="lit" v="yes"/>
    <tag k="maxspeed" v="30"/>
    <tag k="name" v="Titiseestraße"/>
    <tag k="name:etymology:wikidata" v="Q700097"/>
    <tag k="parking:both" v="lane"/>
    <tag k="parking:both:orientation" v="parallel"/>
    <tag k="postal_code" v="13469"/>
    <tag k="sidewalk:both" v="separate"/>
    <tag k="surface" v="asphalt"/>
  </way>
  <way id="1272902140" version="1" timestamp="2024-04-15T21:43:47Z" changeset="150059217" uid="11146797" user="cyton">
    <nd ref="3979742106"/>
    <nd ref="3979742105"/>
    <nd ref="30819586"/>
    <tag k="cycleway:both" v="no"/>
    <tag k="highway" v="residential"/>
    <tag k="lit" v="yes"/>
    <tag k="maxspeed" v="30"/>
    <tag k="name" v="Titiseestraße"/>
    <tag k="name:etymology:wikidata" v="Q700097"/>
    <tag k="postal_code" v="13469"/>
    <tag k="sidewalk:both" v="separate"/>
    <tag k="surface" v="asphalt"/>
  </way>
  <way id="1272902141" version="3" timestamp="2024-04-15T21:43:48Z" changeset="150059233" uid="11146797" user="cyton">
    <nd ref="11820154851"/>
    <nd ref="30819595"/>
    <tag k="highway" v="residential"/>
    <tag k="lit" v="yes"/>
    <tag k="maxspeed" v="30"/>
    <tag k="name" v="Todtnauer Zeile"/>
    <tag k="name:etymology:wikidata" v="Q61665"/>
    <tag k="parking:both" v="no"/>
    <tag k="postal_code" v="13469"/>
    <tag k="sidewalk:both" v="separate"/>
    <tag k="smoothness" v="good"/>
    <tag k="source:width" v="ARCore"/>
    <tag k="surface" v="concrete"/>
    <tag k="width" v="6"/>
  </way>
  <way id="1272902154" version="1" timestamp="2024-04-15T21:43:49Z" changeset="150059217" uid="11146797" user="cyton">
    <nd ref="11820181577"/>
    <nd ref="30819594"/>
    <nd ref="11820154851"/>
    <tag k="highway" v="residential"/>
    <tag k="lit" v="yes"/>
    <tag k="maxspeed" v="30"/>
    <tag k="name" v="Todtnauer Zeile"/>
    <tag k="name:etymology:wikidata" v="Q61665"/>
    <tag k="parking:left" v="on_kerb"/>
    <tag k="parking:left:orientation" v="diagonal"/>
    <tag k="parking:right" v="lane"/>
    <tag k="parking:right:orientation" v="parallel"/>
    <tag k="postal_code" v="13469"/>
    <tag k="sidewalk:both" v="separate"/>
    <tag k="source:width" v="ARCore"/>
    <tag k="surface" v="concrete"/>
    <tag k="width" v="6"/>
  </way>
  <way id="1273601775" version="3" timestamp="2024-11-14T07:13:20Z" changeset="159117785" uid="66391" user="geozeisig">
    <nd ref="2861339191"/>
    <nd ref="11827003277"/>
    <nd ref="11827003278"/>
    <nd ref="11827003279"/>
    <nd ref="11827003280"/>
    <nd ref="11827003281"/>
    <nd ref="11827003282"/>
    <nd ref="11827003283"/>
    <nd ref="11827003284"/>
    <nd ref="11827003285"/>
    <nd ref="11827003286"/>
    <nd ref="11827003287"/>
    <nd ref="11827003288"/>
    <nd ref="11827003289"/>
    <nd ref="11827003290"/>
    <nd ref="2861339191"/>
    <tag k="addr:city" v="Berlin"/>
    <tag k="addr:country" v="DE"/>
    <tag k="addr:housenumber" v="7"/>
    <tag k="addr:postcode" v="13469"/>
    <tag k="addr:street" v="Titiseestraße"/>
    <tag k="addr:suburb" v="Waidmannslust"/>
    <tag k="building" v="commercial"/>
    <tag k="building:levels" v="6"/>
    <tag k="description" v="Familienzentrum mit Kita und 126 Wohneinheiten"/>
    <tag k="name" v="FACE Campus Familienzentrum"/>
    <tag k="operator" v="Evang. Kirche in Reinickendorf"/>
    <tag k="source" v="Geoportal Berlin / Hauskoordinaten"/>
    <tag k="website" v="https://www.kirchenkreis-reinickendorf.de/face-campus"/>
  </way>
  <way id="1333667351" version="1" timestamp="2024-11-14T07:13:19Z" changeset="159117785" uid="66391" user="geozeisig">
    <nd ref="12338860280"/>
    <nd ref="12338860279"/>
    <nd ref="12338860278"/>
    <nd ref="12338860277"/>
    <nd ref="12338860280"/>
    <tag k="addr:city" v="Berlin"/>
    <tag k="addr:country" v="DE"/>
    <tag k="addr:housenumber" v="29A"/>
    <tag k="addr:postcode" v="13469"/>
    <tag k="addr:street" v="Zehntwerderweg"/>
    <tag k="addr:suburb" v="Waidmannslust"/>
    <tag k="building" v="yes"/>
    <tag k="source" v="Geoportal Berlin / Hauskoordinaten"/>
  </way>
  <way id="1341098515" version="2" timestamp="2025-03-19T22:38:50Z" changeset="163838949" uid="44217" user="kjon">
    <nd ref="2327713155"/>
    <nd ref="614653558"/>
    <tag k="change:lanes:backward" v="not_left|yes|yes"/>
    <tag k="change:lanes:forward" v="no"/>
    <tag k="cycleway:both" v="no"/>
    <tag k="cycleway:left:surface" v="paving_stones"/>
    <tag k="highway" v="primary"/>
    <tag k="lane_markings" v="yes"/>
    <tag k="lanes" v="4"/>
    <tag k="lanes:backward" v="3"/>
    <tag k="lanes:forward" v="1"/>
    <tag k="lit" v="yes"/>
    <tag k="maxspeed" v="50"/>
    <tag k="name" v="Oraniendamm"/>
    <tag k="name:etymology:wikidata" v="Q2281221"/>
    <tag k="parking:both" v="no"/>
    <tag k="postal_code" v="13469"/>
    <tag k="ref" v="B 96"/>
    <tag k="sidewalk:both" v="separate"/>
    <tag k="sidewalk:both:surface" v="paving_stones"/>
    <tag k="smoothness" v="good"/>
    <tag k="surface" v="asphalt"/>
    <tag k="turn:lanes:backward" v="none|none|none"/>
    <tag k="wikidata" v="Q60691158"/>
  </way>
  <way id="1341098516" version="2" timestamp="2025-03-19T22:38:53Z" changeset="163838949" uid="44217" user="kjon">
    <nd ref="614653558"/>
    <nd ref="9971211093"/>
    <tag k="change:lanes:backward" v="not_left|yes|yes"/>
    <tag k="change:lanes:forward" v="no"/>
    <tag k="cycleway:both" v="no"/>
    <tag k="cycleway:left:surface" v="paving_stones"/>
    <tag k="highway" v="primary"/>
    <tag k="lane_markings" v="yes"/>
    <tag k="lanes" v="4"/>
    <tag k="lanes:backward" v="3"/>
    <tag k="lanes:forward" v="1"/>
    <tag k="lit" v="yes"/>
    <tag k="maxspeed" v="50"/>
    <tag k="name" v="Oraniendamm"/>
    <tag k="name:etymology:wikidata" v="Q2281221"/>
    <tag k="parking:both" v="no"/>
    <tag k="postal_code" v="13469"/>
    <tag k="ref" v="B 96"/>
    <tag k="sidewalk:both" v="separate"/>
    <tag k="sidewalk:both:surface" v="paving_stones"/>
    <tag k="smoothness" v="good"/>
    <tag k="surface" v="asphalt"/>
    <tag k="turn:lanes:backward" v="none|none|none"/>
    <tag k="wikidata" v="Q60691158"/>
  </way>
  <way id="1341099371" version="2" timestamp="2025-03-19T22:39:10Z" changeset="163838949" uid="44217" user="kjon">
    <nd ref="498600297"/>
    <nd ref="664074196"/>
    <tag k="cycleway:both" v="no"/>
    <tag k="cycleway:left:surface" v="paving_stones"/>
    <tag k="highway" v="primary"/>
    <tag k="lanes" v="2"/>
    <tag k="lit" v="yes"/>
    <tag k="maxspeed" v="50"/>
    <tag k="name" v="Oraniendamm"/>
    <tag k="name:etymology:wikidata" v="Q2281221"/>
    <tag k="parking:both" v="no"/>
    <tag k="postal_code" v="13469"/>
    <tag k="ref" v="B 96"/>
    <tag k="sidewalk:both" v="separate"/>
    <tag k="sidewalk:both:surface" v="paving_stones"/>
    <tag k="smoothness" v="good"/>
    <tag k="surface" v="asphalt"/>
    <tag k="wikidata" v="Q60691158"/>
  </way>
  <way id="1341099373" version="2" timestamp="2025-03-19T22:39:16Z" changeset="163838949" uid="44217" user="kjon">
    <nd ref="664074196"/>
    <nd ref="582862747"/>
    <tag k="cycleway:both" v="no"/>
    <tag k="cycleway:left:surface" v="paving_stones"/>
    <tag k="highway" v="primary"/>
    <tag k="lanes" v="2"/>
    <tag k="lit" v="yes"/>
    <tag k="maxspeed" v="50"/>
    <tag k="name" v="Oraniendamm"/>
    <tag k="name:etymology:wikidata" v="Q2281221"/>
    <tag k="parking:both" v="no"/>
    <tag k="postal_code" v="13469"/>
    <tag k="ref" v="B 96"/>
    <tag k="sidewalk:both" v="separate"/>
    <tag k="sidewalk:both:surface" v="paving_stones"/>
    <tag k="smoothness" v="good"/>
    <tag k="surface" v="asphalt"/>
    <tag k="wikidata" v="Q60691158"/>
  </way>
  <way id="1341100063" version="2" timestamp="2025-03-19T22:38:46Z" changeset="163838949" uid="44217" user="kjon">
    <nd ref="12405619726"/>
    <nd ref="2329976780"/>
    <nd ref="2329976760"/>
    <nd ref="9971211092"/>
    <tag k="change:lanes:backward" v="not_left|yes|yes"/>
    <tag k="change:lanes:forward" v="no"/>
    <tag k="cycleway:both" v="no"/>
    <tag k="cycleway:left:surface" v="paving_stones"/>
    <tag k="highway" v="primary"/>
    <tag k="lane_markings" v="yes"/>
    <tag k="lanes" v="4"/>
    <tag k="lanes:backward" v="3"/>
    <tag k="lanes:forward" v="1"/>
    <tag k="lit" v="yes"/>
    <tag k="maxspeed" v="50"/>
    <tag k="name" v="Oraniendamm"/>
    <tag k="name:etymology:wikidata" v="Q2281221"/>
    <tag k="parking:both" v="no"/>
    <tag k="postal_code" v="13469"/>
    <tag k="ref" v="B 96"/>
    <tag k="sidewalk:both" v="separate"/>
    <tag k="sidewalk:both:surface" v="paving_stones"/>
    <tag k="smoothness" v="good"/>
    <tag k="surface" v="asphalt"/>
    <tag k="turn:lanes:backward" v="none|through|right"/>
    <tag k="wikidata" v="Q60691158"/>
  </way>
  <way id="1356408258" version="5" timestamp="2025-03-19T22:38:16Z" changeset="163838949" uid="44217" user="kjon">
    <nd ref="30818227"/>
    <nd ref="11031956374"/>
    <tag k="cycleway:both" v="no"/>
    <tag k="highway" v="residential"/>
    <tag k="lit" v="yes"/>
    <tag k="maxspeed" v="30"/>
    <tag k="name" v="Düsterhauptstraße"/>
    <tag k="parking:both" v="lane"/>
    <tag k="parking:both:orientation" v="parallel"/>
    <tag k="postal_code" v="13469"/>
    <tag k="sidewalk:both" v="separate"/>
    <tag k="sidewalk:both:surface" v="sett"/>
    <tag k="smoothness" v="bad"/>
    <tag k="source:width" v="ARCore"/>
    <tag k="surface" v="sett"/>
    <tag k="width" v="7.7"/>
  </way>
  <way id="1356408259" version="5" timestamp="2025-03-19T22:37:55Z" changeset="163838949" uid="44217" user="kjon">
    <nd ref="30818225"/>
    <nd ref="7116095293"/>
    <nd ref="30818226"/>
    <nd ref="2863430039"/>
    <tag k="cycleway:both" v="no"/>
    <tag k="highway" v="residential"/>
    <tag k="lit" v="yes"/>
    <tag k="maxspeed" v="30"/>
    <tag k="name" v="Düsterhauptstraße"/>
    <tag k="parking:both" v="lane"/>
    <tag k="parking:both:orientation" v="parallel"/>
    <tag k="postal_code" v="13469"/>
    <tag k="sidewalk:both" v="separate"/>
    <tag k="sidewalk:both:surface" v="paving_stones"/>
    <tag k="smoothness" v="bad"/>
    <tag k="source:width" v="ARCore"/>
    <tag k="surface" v="sett"/>
    <tag k="width" v="7.9"/>
  </way>
  <way id="1356408452" version="4" timestamp="2025-03-19T22:37:43Z" changeset="163838949" uid="44217" user="kjon">
    <nd ref="30818225"/>
    <nd ref="12677573396"/>
    <nd ref="12553903160"/>
    <tag k="cycleway:both" v="no"/>
    <tag k="highway" v="residential"/>
    <tag k="lit" v="yes"/>
    <tag k="maxspeed" v="30"/>
    <tag k="name" v="Florastraße"/>
    <tag k="name:etymology:wikidata" v="Q209644"/>
    <tag k="parking:both" v="no"/>
    <tag k="postal_code" v="13469"/>
    <tag k="sidewalk:both" v="separate"/>
    <tag k="sidewalk:both:surface" v="paving_stones"/>
    <tag k="smoothness" v="good"/>
    <tag k="source:width" v="ARCore"/>
    <tag k="surface" v="asphalt"/>
    <tag k="width" v="8"/>
  </way>
  <way id="1368842549" version="2" timestamp="2025-03-19T22:40:00Z" changeset="163838949" uid="44217" user="kjon">
    <nd ref="30437267"/>
    <nd ref="12677557478"/>
    <nd ref="30437263"/>
    <tag k="cycleway:both" v="no"/>
    <tag k="highway" v="residential"/>
    <tag k="lit" v="yes"/>
    <tag k="maxspeed" v="30"/>
    <tag k="name" v="Bondickstraße"/>
    <tag k="name:etymology:wikidata" v="Q104771350"/>
    <tag k="parking:both" v="lane"/>
    <tag k="parking:both:orientation" v="parallel"/>
    <tag k="postal_code" v="13469"/>
    <tag k="sidewalk:left" v="yes"/>
    <tag k="sidewalk:right" v="separate"/>
    <tag k="smoothness" v="very_bad"/>
    <tag k="surface" v="sett"/>
  </way>
  <way id="1369392556" version="2" timestamp="2025-03-19T22:38:32Z" changeset="163838949" uid="44217" user="kjon">
    <nd ref="30818227"/>
    <nd ref="12677573397"/>
    <nd ref="7711670922"/>
    <nd ref="30818229"/>
    <tag k="covered" v="no"/>
    <tag k="cycleway:both" v="no"/>
    <tag k="highway" v="residential"/>
    <tag k="lanes" v="2"/>
    <tag k="lit" v="yes"/>
    <tag k="maxspeed" v="30"/>
    <tag k="name" v="Benekendorffstraße"/>
    <tag k="name:etymology:wikidata" v="Q99888426"/>
    <tag k="parking:both" v="lane"/>
    <tag k="parking:both:orientation" v="parallel"/>
    <tag k="postal_code" v="13469"/>
    <tag k="sidewalk:both" v="separate"/>
    <tag k="smoothness" v="intermediate"/>
    <tag k="surface" v="asphalt"/>
  </way>
  <way id="1370308271" version="2" timestamp="2025-03-22T11:50:49Z" changeset="163943705" uid="44217" user="kjon">
    <nd ref="30818175"/>
    <nd ref="5747415222"/>
    <nd ref="5747415221"/>
    <nd ref="9013928840"/>
    <nd ref="7687584625"/>
    <nd ref="4500604245"/>
    <nd ref="6877222408"/>
    <nd ref="6837390421"/>
    <nd ref="6774736068"/>
    <nd ref="30818832"/>
    <nd ref="6772082921"/>
    <nd ref="6183525135"/>
    <nd ref="12685359690"/>
    <nd ref="30818820"/>
    <nd ref="12685359691"/>
    <nd ref="6183525143"/>
    <nd ref="30818821"/>
    <nd ref="877104005"/>
    <nd ref="30818822"/>
    <nd ref="490666595"/>
    <nd ref="877104404"/>
    <nd ref="12685359693"/>
    <nd ref="30818823"/>
    <tag k="covered" v="no"/>
    <tag k="cycleway:both" v="no"/>
    <tag k="fixme" v="Beim Überfahren der Büchenbronner Straße sieht der Belag des Zehntwerderweg wie &quot;Cobblestone&quot; aus, nicht wie Asphalt"/>
    <tag k="highway" v="residential"/>
    <tag k="lanes" v="2"/>
    <tag k="lit" v="yes"/>
    <tag k="maxspeed" v="30"/>
    <tag k="name" v="Zehntwerderweg"/>
    <tag k="name:etymology:wikidata" v="Q2704612"/>
    <tag k="name:etymology:wikipedia" v="de:Werder (Landschaft)"/>
    <tag k="parking:both" v="lane"/>
    <tag k="parking:both:orientation" v="parallel"/>
    <tag k="parking:both:staggered" v="yes"/>
    <tag k="postal_code" v="13469"/>
    <tag k="sidewalk:both" v="separate"/>
    <tag k="smoothness" v="good"/>
    <tag k="surface" v="asphalt"/>
  </way>
  <way id="1370308347" version="2" timestamp="2025-03-22T11:51:41Z" changeset="163943705" uid="44217" user="kjon">
    <nd ref="30818229"/>
    <nd ref="8934769767"/>
    <nd ref="12690362066"/>
    <nd ref="30818837"/>
    <nd ref="12690362067"/>
    <nd ref="12690362071"/>
    <nd ref="30818838"/>
    <nd ref="661123276"/>
    <nd ref="12690362073"/>
    <nd ref="30818840"/>
    <nd ref="12690362075"/>
    <nd ref="8979433079"/>
    <nd ref="7113792547"/>
    <nd ref="30818841"/>
    <nd ref="30818842"/>
    <nd ref="30818844"/>
    <nd ref="30818845"/>
    <nd ref="30818846"/>
    <nd ref="30818862"/>
    <nd ref="6832089141"/>
    <nd ref="6832089138"/>
    <nd ref="30818847"/>
    <nd ref="12690362060"/>
    <nd ref="1374993177"/>
    <tag k="covered" v="no"/>
    <tag k="cycleway:both" v="no"/>
    <tag k="highway" v="residential"/>
    <tag k="lanes" v="2"/>
    <tag k="lit" v="yes"/>
    <tag k="maxspeed" v="30"/>
    <tag k="name" v="Benekendorffstraße"/>
    <tag k="name:etymology:wikidata" v="Q99888426"/>
    <tag k="parking:both" v="lane"/>
    <tag k="parking:both:orientation" v="parallel"/>
    <tag k="postal_code" v="13469"/>
    <tag k="sidewalk:both" v="separate"/>
    <tag k="smoothness" v="intermediate"/>
    <tag k="surface" v="asphalt"/>
  </way>
  <way id="1370308417" version="2" timestamp="2025-03-22T11:53:12Z" changeset="163943705" uid="44217" user="kjon">
    <nd ref="30818823"/>
    <nd ref="6183525142"/>
    <nd ref="30818824"/>
    <nd ref="30818825"/>
    <nd ref="662762838"/>
    <nd ref="884207835"/>
    <nd ref="7712019626"/>
    <nd ref="30818826"/>
    <tag k="covered" v="no"/>
    <tag k="cycleway:both" v="no"/>
    <tag k="fixme" v="Beim Überfahren der Büchenbronner Straße sieht der Belag des Zehntwerderweg wie &quot;Cobblestone&quot; aus, nicht wie Asphalt"/>
    <tag k="highway" v="residential"/>
    <tag k="lanes" v="2"/>
    <tag k="lit" v="yes"/>
    <tag k="maxspeed" v="30"/>
    <tag k="name" v="Zehntwerderweg"/>
    <tag k="name:etymology:wikidata" v="Q2704612"/>
    <tag k="name:etymology:wikipedia" v="de:Werder (Landschaft)"/>
    <tag k="parking:both" v="lane"/>
    <tag k="parking:both:orientation" v="parallel"/>
    <tag k="parking:both:staggered" v="yes"/>
    <tag k="postal_code" v="13469"/>
    <tag k="sidewalk:left" v="separate"/>
    <tag k="sidewalk:right" v="yes"/>
    <tag k="smoothness" v="good"/>
    <tag k="surface" v="asphalt"/>
  </way>
  <way id="1370308702" version="1" timestamp="2025-03-22T11:54:09Z" changeset="163943705" uid="44217" user="kjon">
    <nd ref="661123176"/>
    <nd ref="30818835"/>
    <tag k="cycleway:both" v="no"/>
    <tag k="highway" v="residential"/>
    <tag k="lit" v="yes"/>
    <tag k="maxspeed" v="30"/>
    <tag k="name" v="Nagolder Pfad"/>
    <tag k="name:etymology:wikidata" v="Q26344"/>
    <tag k="postal_code" v="13469"/>
    <tag k="sidewalk" v="both"/>
  </way>
  <relation id="17770119" version="1" timestamp="2024-06-26T15:16:01Z" changeset="153208649" uid="21696213" user="Just_Chill">
    <member type="way" ref="224175066" role="outer"/>
    <member type="way" ref="1296396667" role="outer"/>
    <tag k="addr:city" v="Berlin"/>
    <tag k="addr:country" v="DE"/>
    <tag k="addr:housenumber" v="190"/>
    <tag k="addr:postcode" v="13469"/>
    <tag k="addr:street" v="Waidmannsluster Damm"/>
    <tag k="addr:suburb" v="Waidmannslust"/>
    <tag k="brand" v="OBI"/>
    <tag k="brand:wikidata" v="Q300518"/>
    <tag k="brand:wikipedia" v="en:Obi (store)"/>
    <tag k="building" v="retail"/>
    <tag k="building:levels" v="1"/>
    <tag k="check_date:opening_hours" v="2023-07-24"/>
    <tag k="name" v="OBI"/>
    <tag k="opening_hours" v="Mo-Sa 08:00-20:00"/>
    <tag k="roof:levels" v="0"/>
    <tag k="roof:shape" v="flat"/>
    <tag k="shop" v="doityourself"/>
    <tag k="source" v="Geoportal Berlin / Hausumringe"/>
    <tag k="toilets:wheelchair" v="yes"/>
    <tag k="type" v="multipolygon"/>
    <tag k="website" v="https://www.obi.de/markt/berlin-reinickendorf"/>
    <tag k="wheelchair" v="yes"/>
  </relation>

</osm>
