<?xml version="1.0" encoding="UTF-8"?>
<osm version="0.6" generator="Overpass API 0.7.62.5 1bd436f1">
<note>The data included in this document is from www.openstreetmap.org. The data is made available under ODbL.</note>
<meta osm_base="2025-04-05T17:12:14Z" areas="2025-02-06T02:17:44Z"/>

  <node id="26531051" lat="52.1086270" lon="0.2508680" version="5" timestamp="2019-12-04T00:50:15Z" changeset="77904276" uid="5173844" user="ndrw6"/>
  <node id="27401572" lat="52.1171749" lon="0.2577568" version="2" timestamp="2012-05-21T19:07:40Z" changeset="11665175" uid="2020" user="comsomol"/>
  <node id="27429116" lat="52.1228534" lon="0.3405277" version="3" timestamp="2015-08-19T14:08:14Z" changeset="33440277" uid="281267" user="smb1001"/>
  <node id="28206783" lat="52.1183802" lon="0.2982595" version="11" timestamp="2022-06-29T23:53:39Z" changeset="123022973" uid="7463" user="kesterlester"/>
  <node id="30152962" lat="52.0956220" lon="0.2701632" version="5" timestamp="2019-02-04T10:42:15Z" changeset="66899076" uid="5173844" user="ndrw6">
    <tag k="addr:city" v="Cambridge"/>
    <tag k="addr:housename" v="Station House"/>
    <tag k="addr:postcode" v="CB21 4NW"/>
    <tag k="addr:street" v="Station Road"/>
    <tag k="addr:village" v="Linton"/>
    <tag k="name" v="The GeoInformation Group"/>
    <tag k="office" v="company"/>
  </node>
  <node id="30152966" lat="52.0979157" lon="0.2772189" version="4" timestamp="2020-10-15T16:48:31Z" changeset="92534907" uid="7329" user="Jez Nicholson">
    <tag k="addr:housenumber" v="63"/>
    <tag k="addr:postcode" v="CB21 4HS"/>
    <tag k="addr:street" v="High Street"/>
    <tag k="amenity" v="pub"/>
    <tag k="fhrs:id" v="596715"/>
    <tag k="name" v="Dog &amp; Duck"/>
    <tag k="wikidata" v="Q26456060"/>
  </node>
  <node id="30153024" lat="52.0970322" lon="0.2868086" version="3" timestamp="2020-10-15T16:48:31Z" changeset="92534907" uid="7329" user="Jez Nicholson">
    <tag k="addr:housenumber" v="6-8"/>
    <tag k="addr:postcode" v="CB21 4LY"/>
    <tag k="addr:street" v="Bartlow Road"/>
    <tag k="amenity" v="restaurant"/>
    <tag k="fhrs:id" v="596795"/>
    <tag k="name" v="Linton Tandoori"/>
  </node>
  <node id="30153028" lat="52.0975045" lon="0.2832695" version="4" timestamp="2020-10-15T16:48:31Z" changeset="92534907" uid="7329" user="Jez Nicholson">
    <tag k="addr:housenumber" v="110"/>
    <tag k="addr:postcode" v="CB21 4JT"/>
    <tag k="addr:street" v="High Street"/>
    <tag k="amenity" v="pub"/>
    <tag k="fhrs:id" v="596753"/>
    <tag k="name" v="Waggon &amp; Horses"/>
    <tag k="wikidata" v="Q26420570"/>
  </node>
  <node id="30164701" lat="52.0830637" lon="0.3107812" version="5" timestamp="2013-06-02T21:26:14Z" changeset="16397368" uid="553735" user="Johnmb">
    <tag k="source" v="npe"/>
  </node>
  <node id="30164712" lat="52.0852619" lon="0.3126600" version="2" timestamp="2007-11-03T11:11:32Z" changeset="395652" uid="3582" user="davidearl">
    <tag k="created_by" v="POI Editor"/>
    <tag k="source" v="npe"/>
  </node>
  <node id="30164728" lat="52.0959133" lon="0.3196867" version="3" timestamp="2012-06-11T19:57:39Z" changeset="11868452" uid="383983" user="Ben Wheatley"/>
  <node id="35714621" lat="52.1001499" lon="0.3272111" version="2" timestamp="2025-02-21T17:29:08Z" changeset="162790423" uid="5229644" user="Nathan_A_RF"/>
  <node id="96518201" lat="52.0958188" lon="0.3197618" version="2" timestamp="2012-06-11T19:57:38Z" changeset="11868452" uid="383983" user="Ben Wheatley"/>
  <node id="96518267" lat="52.1148864" lon="0.3332832" version="4" timestamp="2021-12-28T23:29:21Z" changeset="115492563" uid="629" user="Wookey"/>
  <node id="1430757290" lat="52.0900006" lon="0.2720377" version="2" timestamp="2012-03-30T13:20:27Z" changeset="11153968" uid="322785" user="BCNorwich"/>
  <node id="1751073095" lat="52.0934117" lon="0.2737573" version="6" timestamp="2019-03-25T06:50:03Z" changeset="68495008" uid="9451067" user="b-jazz-bot">
    <tag k="addr:city" v="Cambridge"/>
    <tag k="addr:country" v="GB"/>
    <tag k="addr:housenumber" v="Unit 12 C&amp;D"/>
    <tag k="addr:postcode" v="CB21 4XN"/>
    <tag k="addr:street" v="The Grip Industrial Estate"/>
    <tag k="addr:unit" v="12 C, D"/>
    <tag k="internet_access" v="wlan"/>
    <tag k="leisure" v="playground"/>
    <tag k="name" v="Spotted Giraffe"/>
    <tag k="opening_hours" v="Mo 13:00-18:00, Tu-Fr 09:00-18:00, Sa-Su 10:00-16:00"/>
    <tag k="phone" v="+44 1223 892226"/>
    <tag k="playground" v="structure"/>
    <tag k="website" v="https://www.spottedgiraffe.co.uk/"/>
  </node>
  <node id="1751073148" lat="52.0977883" lon="0.2786118" version="3" timestamp="2020-10-15T16:48:31Z" changeset="92534907" uid="7329" user="Jez Nicholson">
    <tag k="addr:housenumber" v="77"/>
    <tag k="addr:postcode" v="CB21 4HS"/>
    <tag k="addr:street" v="High Street"/>
    <tag k="fhrs:id" v="596813"/>
    <tag k="name" v="Sweet Talk News"/>
    <tag k="shop" v="convenience"/>
  </node>
  <node id="6531792535" lat="52.0960895" lon="0.2703364" version="1" timestamp="2019-06-07T10:31:49Z" changeset="71018424" uid="3859843" user="billfred51">
    <tag k="addr:city" v="Linton"/>
    <tag k="addr:housename" v="Photon House"/>
    <tag k="addr:postcode" v="CB21 4NW"/>
    <tag k="addr:street" v="Station Road"/>
    <tag k="name" v="Comar Optics Ltd."/>
    <tag k="office" v="yes"/>
  </node>
  <node id="6562869906" lat="52.0976289" lon="0.2817111" version="1" timestamp="2019-06-21T12:02:43Z" changeset="71478844" uid="1287673" user="sloerunner">
    <tag k="addr:housenumber" v="94"/>
    <tag k="addr:postcode" v="CB21 4JT"/>
    <tag k="addr:street" v="High Street"/>
    <tag k="name" v="Farm Shop At The Old Granary"/>
    <tag k="shop" v="farm"/>
  </node>
  <node id="6562869907" lat="52.0976780" lon="0.2817372" version="4" timestamp="2023-08-09T20:39:34Z" changeset="139677501" uid="3199858" user="Mateusz Konieczny - bot account">
    <tag k="addr:housenumber" v="113"/>
    <tag k="addr:postcode" v="CB21 4JT"/>
    <tag k="addr:street" v="High Street"/>
    <tag k="fhrs:id" v="596762"/>
    <tag k="name" v="Jigsaw Bakery"/>
    <tag k="opening_hours" v="We-Fr 11:00-18:00; Sa 11:00-14:00"/>
    <tag k="shop" v="bakery"/>
  </node>
  <node id="6562869908" lat="52.0976767" lon="0.2818157" version="2" timestamp="2020-07-21T21:59:31Z" changeset="88313938" uid="8661831" user="Colin_Jones">
    <tag k="addr:housenumber" v="113a"/>
    <tag k="addr:postcode" v="CB21 4JT"/>
    <tag k="addr:street" v="High Street"/>
    <tag k="name" v="Home"/>
    <tag k="phone" v="+44 1223 943961"/>
    <tag k="shop" v="gift"/>
    <tag k="website" v="https://lintonhome.co.uk"/>
  </node>
  <node id="8259203590" lat="52.0968301" lon="0.2755090" version="3" timestamp="2022-09-10T09:58:44Z" changeset="126008732" uid="5173844" user="ndrw6">
    <tag k="addr:city" v="Linton"/>
    <tag k="addr:housenumber" v="30"/>
    <tag k="addr:postcode" v="CB21 4HS"/>
    <tag k="addr:street" v="High Street"/>
    <tag k="amenity" v="cafe"/>
    <tag k="contact:facebook" v="LintonKitchen"/>
    <tag k="contact:instagram" v="thelintonkitchen"/>
    <tag k="contact:twitter" v="LintonKitchen"/>
    <tag k="name" v="Linton Kitchen"/>
    <tag k="opening_hours" v="Tu-Sa 09:00-17:00; Su 10:00-15:00"/>
    <tag k="phone" v="+44 1223 894949"/>
    <tag k="website" v="www.lintonkitchen.co.uk"/>
  </node>
  <way id="4585637" version="11" timestamp="2025-02-21T17:29:08Z" changeset="162790423" uid="5229644" user="Nathan_A_RF">
    <nd ref="1783876627"/>
    <nd ref="9955983642"/>
    <nd ref="30164728"/>
    <nd ref="1783876516"/>
    <nd ref="1783876723"/>
    <nd ref="29005372"/>
    <nd ref="1783876601"/>
    <nd ref="35714618"/>
    <nd ref="35714619"/>
    <nd ref="12607442707"/>
    <nd ref="29005373"/>
    <nd ref="12607442709"/>
    <nd ref="35714621"/>
    <tag k="dual_carriageway" v="yes"/>
    <tag k="highway" v="primary"/>
    <tag k="maxspeed" v="70 mph"/>
    <tag k="maxspeed:type" v="GB:nsl_dual"/>
    <tag k="name" v="Linton Road"/>
    <tag k="oneway" v="yes"/>
    <tag k="ref" v="A1307"/>
  </way>
  <way id="4731357" version="12" timestamp="2020-01-10T04:52:18Z" changeset="79402049" uid="10305811" user="kumrnls">
    <nd ref="28206805"/>
    <nd ref="28206807"/>
    <nd ref="612655572"/>
    <nd ref="612655276"/>
    <nd ref="28206811"/>
    <nd ref="612655281"/>
    <nd ref="612655284"/>
    <nd ref="7034652635"/>
    <nd ref="28206814"/>
    <nd ref="612655289"/>
    <nd ref="612654495"/>
    <nd ref="612656775"/>
    <nd ref="612656778"/>
    <nd ref="30152276"/>
    <nd ref="7121056758"/>
    <nd ref="612656788"/>
    <nd ref="1492415695"/>
    <nd ref="30152277"/>
    <nd ref="612656795"/>
    <nd ref="612657689"/>
    <nd ref="612657701"/>
    <nd ref="612658464"/>
    <nd ref="612657710"/>
    <nd ref="30152279"/>
    <tag k="abutters" v="residential"/>
    <tag k="highway" v="secondary"/>
    <tag k="name" v="Balsham Road"/>
    <tag k="ref" v="B1052"/>
    <tag k="source:ref" v="local knowledge"/>
  </way>
  <way id="4731358" version="3" timestamp="2019-12-06T20:49:18Z" changeset="78071845" uid="5173844" user="ndrw6">
    <nd ref="28206811"/>
    <nd ref="30152282"/>
    <nd ref="1905267874"/>
    <nd ref="1905267827"/>
    <nd ref="30152283"/>
    <nd ref="30152284"/>
    <nd ref="7039428792"/>
    <nd ref="1905267883"/>
    <nd ref="1905267831"/>
    <nd ref="30152288"/>
    <nd ref="30152291"/>
    <nd ref="30152292"/>
    <nd ref="30152293"/>
    <nd ref="30152294"/>
    <nd ref="30152302"/>
    <nd ref="30152303"/>
    <nd ref="30152304"/>
    <tag k="highway" v="residential"/>
    <tag k="name" v="Wheatsheaf Way"/>
    <tag k="source:name" v="dictaphone"/>
  </way>
  <way id="4731359" version="2" timestamp="2012-09-08T08:08:56Z" changeset="13031006" uid="84263" user="Robert Whittaker">
    <nd ref="30152284"/>
    <nd ref="30153022"/>
    <nd ref="30152285"/>
    <nd ref="1905267833"/>
    <nd ref="30152286"/>
    <nd ref="30152287"/>
    <nd ref="30152350"/>
    <tag k="highway" v="residential"/>
    <tag k="name" v="Brinkman Road"/>
    <tag k="source:name" v="dictaphone"/>
  </way>
  <way id="4731362" version="2" timestamp="2019-12-06T20:49:18Z" changeset="78071845" uid="5173844" user="ndrw6">
    <nd ref="30152283"/>
    <nd ref="7039428789"/>
    <nd ref="7039428786"/>
    <nd ref="7039428787"/>
    <tag k="highway" v="residential"/>
    <tag k="name" v="Balingdon Lane"/>
    <tag k="source:name" v="dictaphone"/>
  </way>
  <way id="4731365" version="2" timestamp="2019-12-06T20:49:18Z" changeset="78071845" uid="5173844" user="ndrw6">
    <nd ref="30152294"/>
    <nd ref="7039428896"/>
    <nd ref="30152295"/>
    <tag k="highway" v="residential"/>
    <tag k="name" v="Pembroke Lane"/>
    <tag k="source:name" v="dictaphone"/>
  </way>
  <way id="4731366" version="4" timestamp="2019-12-06T20:49:18Z" changeset="78071845" uid="5173844" user="ndrw6">
    <nd ref="30152351"/>
    <nd ref="6023457970"/>
    <nd ref="6023457968"/>
    <nd ref="7039428912"/>
    <nd ref="30152301"/>
    <nd ref="6023457971"/>
    <nd ref="30152295"/>
    <nd ref="30152296"/>
    <nd ref="1905267720"/>
    <nd ref="30152298"/>
    <nd ref="30152297"/>
    <nd ref="1905267777"/>
    <tag k="highway" v="residential"/>
    <tag k="name" v="Hollybush Way"/>
    <tag k="source:name" v="dictaphone"/>
  </way>
  <way id="4731367" version="3" timestamp="2019-12-06T20:49:18Z" changeset="78071845" uid="5173844" user="ndrw6">
    <nd ref="30152301"/>
    <nd ref="30152300"/>
    <nd ref="7039429145"/>
    <nd ref="7039429146"/>
    <nd ref="7039428842"/>
    <nd ref="1905267772"/>
    <tag k="highway" v="residential"/>
    <tag k="name" v="Bawtree Crescent"/>
    <tag k="source:name" v="dictaphone"/>
  </way>
  <way id="4731370" version="3" timestamp="2019-12-04T23:16:20Z" changeset="77963148" uid="5173844" user="ndrw6">
    <nd ref="30152340"/>
    <nd ref="3629521049"/>
    <nd ref="30152339"/>
    <nd ref="3629521053"/>
    <nd ref="3629521044"/>
    <nd ref="30152338"/>
    <nd ref="3629521047"/>
    <nd ref="30152330"/>
    <nd ref="30152329"/>
    <nd ref="3629521050"/>
    <nd ref="30152328"/>
    <nd ref="7034604526"/>
    <tag k="highway" v="residential"/>
    <tag k="name" v="Parsonage Way"/>
    <tag k="source:name" v="dictaphone"/>
  </way>
  <way id="4731371" version="2" timestamp="2019-12-04T23:16:20Z" changeset="77963148" uid="5173844" user="ndrw6">
    <nd ref="30152328"/>
    <nd ref="7034604527"/>
    <nd ref="30152326"/>
    <nd ref="30152324"/>
    <nd ref="30152322"/>
    <tag k="highway" v="residential"/>
    <tag k="name" v="Fairfield Way"/>
    <tag k="source:name" v="dictaphone"/>
  </way>
  <way id="4731372" version="2" timestamp="2019-12-04T23:16:20Z" changeset="77963148" uid="5173844" user="ndrw6">
    <nd ref="30152324"/>
    <nd ref="30152327"/>
    <nd ref="7034652501"/>
    <nd ref="30152325"/>
    <tag k="highway" v="residential"/>
    <tag k="name" v="Millers Close"/>
    <tag k="source:name" v="dictaphone"/>
  </way>
  <way id="4731373" version="3" timestamp="2019-12-04T23:16:20Z" changeset="77963148" uid="5173844" user="ndrw6">
    <nd ref="30152323"/>
    <nd ref="30152322"/>
    <nd ref="30152321"/>
    <nd ref="30152320"/>
    <nd ref="6023458013"/>
    <nd ref="30152318"/>
    <nd ref="7034652631"/>
    <nd ref="30152317"/>
    <tag k="highway" v="residential"/>
    <tag k="name" v="Wheatcroft"/>
    <tag k="source:name" v="dictaphone"/>
  </way>
  <way id="4731374" version="2" timestamp="2018-10-29T21:54:14Z" changeset="63992855" uid="5173844" user="ndrw6">
    <nd ref="30152318"/>
    <nd ref="6023458012"/>
    <nd ref="30152319"/>
    <tag k="highway" v="residential"/>
    <tag k="name" v="Wheatcroft"/>
    <tag k="source:name" v="dictaphone"/>
  </way>
  <way id="4731375" version="3" timestamp="2019-12-04T23:16:20Z" changeset="77963148" uid="5173844" user="ndrw6">
    <nd ref="30152330"/>
    <nd ref="3629521046"/>
    <nd ref="30152331"/>
    <nd ref="3629521048"/>
    <nd ref="3629521052"/>
    <nd ref="30152332"/>
    <nd ref="3629521051"/>
    <nd ref="3629521045"/>
    <nd ref="7034652702"/>
    <nd ref="30152334"/>
    <nd ref="7034652703"/>
    <tag k="highway" v="residential"/>
    <tag k="name" v="Barley Way"/>
    <tag k="source:name" v="dictaphone"/>
  </way>
  <way id="4731377" version="1" timestamp="2007-06-10T14:39:36Z" changeset="89002" uid="3582" user="davidearl">
    <nd ref="30152332"/>
    <nd ref="30152333"/>
    <tag k="created_by" v="JOSM"/>
    <tag k="highway" v="residential"/>
    <tag k="name" v="Clover Court"/>
    <tag k="source:name" v="dictaphone"/>
  </way>
  <way id="4731378" version="2" timestamp="2012-09-08T08:08:56Z" changeset="13031006" uid="84263" user="Robert Whittaker">
    <nd ref="30152303"/>
    <nd ref="30152305"/>
    <nd ref="1905267731"/>
    <nd ref="1905267855"/>
    <nd ref="30152306"/>
    <tag k="highway" v="residential"/>
    <tag k="name" v="Dolphin Close"/>
    <tag k="source:name" v="dictaphone"/>
  </way>
  <way id="4731379" version="3" timestamp="2019-12-06T20:49:18Z" changeset="78071845" uid="5173844" user="ndrw6">
    <nd ref="30152307"/>
    <nd ref="1905267872"/>
    <nd ref="1905267784"/>
    <nd ref="1905267852"/>
    <nd ref="30152308"/>
    <nd ref="1905267825"/>
    <nd ref="1905267844"/>
    <nd ref="1905267787"/>
    <nd ref="1905267819"/>
    <nd ref="30152309"/>
    <nd ref="7039428970"/>
    <nd ref="30152306"/>
    <nd ref="1905267870"/>
    <nd ref="1905267729"/>
    <nd ref="30152307"/>
    <tag k="highway" v="residential"/>
    <tag k="name" v="Dolphin Close"/>
    <tag k="source:name" v="dictaphone"/>
  </way>
  <way id="4731381" version="2" timestamp="2011-11-05T14:53:45Z" changeset="9747041" uid="4663" user="G3YAC">
    <nd ref="30152276"/>
    <nd ref="1492415694"/>
    <nd ref="30152337"/>
    <tag k="highway" v="residential"/>
    <tag k="name" v="Balsham Road"/>
    <tag k="source:name" v="dictaphone"/>
  </way>
  <way id="4731383" version="2" timestamp="2011-11-05T14:53:46Z" changeset="9747041" uid="4663" user="G3YAC">
    <nd ref="30152363"/>
    <nd ref="30152362"/>
    <nd ref="1492415699"/>
    <nd ref="30152361"/>
    <nd ref="1492415700"/>
    <nd ref="30152358"/>
    <nd ref="30153001"/>
    <nd ref="30152357"/>
    <nd ref="1492415708"/>
    <nd ref="30152356"/>
    <nd ref="1492415706"/>
    <nd ref="30152355"/>
    <nd ref="30152354"/>
    <nd ref="30152353"/>
    <nd ref="28206814"/>
    <tag k="highway" v="residential"/>
    <tag k="name" v="Tower View"/>
    <tag k="source:name" v="dictaphone"/>
  </way>
  <way id="4731384" version="2" timestamp="2011-11-05T14:53:46Z" changeset="9747041" uid="4663" user="G3YAC">
    <nd ref="30152358"/>
    <nd ref="1492415701"/>
    <nd ref="30152359"/>
    <nd ref="1492415707"/>
    <nd ref="30152360"/>
    <tag k="highway" v="residential"/>
    <tag k="name" v="Tower View"/>
    <tag k="source:name" v="dictaphone"/>
  </way>
  <way id="4731386" version="4" timestamp="2024-07-07T12:29:38Z" changeset="153660011" uid="493595" user="Yorvik Prestigitator">
    <nd ref="30152369"/>
    <nd ref="3630224302"/>
    <nd ref="12039876240"/>
    <nd ref="30152368"/>
    <nd ref="7034652913"/>
    <nd ref="30152367"/>
    <nd ref="30152366"/>
    <tag k="highway" v="residential"/>
    <tag k="name" v="Rivey Way"/>
    <tag k="source:name" v="dictaphone"/>
  </way>
  <way id="4731387" version="9" timestamp="2024-09-13T17:57:40Z" changeset="156583068" uid="344866" user="thewinduppirate">
    <nd ref="30152377"/>
    <nd ref="30152378"/>
    <nd ref="8537056251"/>
    <nd ref="3630224303"/>
    <nd ref="30152379"/>
    <nd ref="8537056256"/>
    <nd ref="30152380"/>
    <nd ref="8594353882"/>
    <nd ref="1697742282"/>
    <tag k="abutters" v="residential"/>
    <tag k="highway" v="tertiary"/>
    <tag k="lit" v="yes"/>
    <tag k="name" v="Back Road"/>
    <tag k="oneway" v="yes"/>
    <tag k="source:name" v="dictaphone"/>
    <tag k="surface" v="asphalt"/>
  </way>
  <way id="4731388" version="2" timestamp="2015-07-02T00:30:46Z" changeset="32344140" uid="553735" user="Johnmb">
    <nd ref="30152376"/>
    <nd ref="30152409"/>
    <nd ref="3630213376"/>
    <nd ref="3630213378"/>
    <tag k="highway" v="residential"/>
    <tag k="name" v="The Furrells"/>
    <tag k="source:name" v="dictaphone"/>
  </way>
  <way id="4731389" version="4" timestamp="2022-09-10T09:58:44Z" changeset="126008732" uid="5173844" user="ndrw6">
    <nd ref="30152375"/>
    <nd ref="30152381"/>
    <nd ref="30152382"/>
    <nd ref="8537056290"/>
    <nd ref="6023458049"/>
    <nd ref="30152384"/>
    <nd ref="10012955947"/>
    <nd ref="30152383"/>
    <nd ref="30152407"/>
    <nd ref="6023458052"/>
    <nd ref="30152397"/>
    <nd ref="6023458053"/>
    <nd ref="30152398"/>
    <tag k="highway" v="residential"/>
    <tag k="name" v="Chalklands"/>
    <tag k="source:name" v="dictaphone"/>
  </way>
  <way id="4731390" version="2" timestamp="2018-10-29T21:54:14Z" changeset="63992855" uid="5173844" user="ndrw6">
    <nd ref="30152384"/>
    <nd ref="6023458051"/>
    <nd ref="6023458050"/>
    <nd ref="30152385"/>
    <tag k="highway" v="residential"/>
    <tag k="name" v="Chalklands"/>
    <tag k="source:name" v="dictaphone"/>
  </way>
  <way id="4731391" version="2" timestamp="2018-10-29T21:54:14Z" changeset="63992855" uid="5173844" user="ndrw6">
    <nd ref="30152397"/>
    <nd ref="6023458054"/>
    <nd ref="30152396"/>
    <nd ref="30152393"/>
    <tag k="highway" v="residential"/>
    <tag k="name" v="Chalklands"/>
    <tag k="source:name" v="dictaphone"/>
  </way>
  <way id="4731392" version="1" timestamp="2007-06-10T14:39:44Z" changeset="89002" uid="3582" user="davidearl">
    <nd ref="30152396"/>
    <nd ref="30152408"/>
    <tag k="created_by" v="JOSM"/>
    <tag k="highway" v="residential"/>
    <tag k="name" v="Chalklands"/>
    <tag k="source:name" v="dictaphone"/>
  </way>
  <way id="4731393" version="3" timestamp="2018-10-29T21:54:14Z" changeset="63992855" uid="5173844" user="ndrw6">
    <nd ref="30152394"/>
    <nd ref="30152393"/>
    <nd ref="30152392"/>
    <nd ref="3704387283"/>
    <nd ref="6023458064"/>
    <nd ref="30152391"/>
    <nd ref="6023458065"/>
    <nd ref="30152388"/>
    <tag k="highway" v="residential"/>
    <tag k="name" v="Chalklands"/>
    <tag k="source:name" v="dictaphone"/>
  </way>
  <way id="4731394" version="1" timestamp="2007-06-10T14:39:45Z" changeset="89002" uid="3582" user="davidearl">
    <nd ref="30152390"/>
    <nd ref="30152389"/>
    <nd ref="30152388"/>
    <nd ref="30152387"/>
    <tag k="created_by" v="JOSM"/>
    <tag k="highway" v="residential"/>
    <tag k="name" v="Chalklands"/>
    <tag k="source:name" v="dictaphone"/>
  </way>
  <way id="4731395" version="1" timestamp="2007-06-10T14:39:45Z" changeset="89002" uid="3582" user="davidearl">
    <nd ref="30152389"/>
    <nd ref="30152410"/>
    <tag k="created_by" v="JOSM"/>
    <tag k="highway" v="residential"/>
    <tag k="name" v="Chalklands"/>
    <tag k="source:name" v="dictaphone"/>
  </way>
  <way id="4731397" version="2" timestamp="2018-10-29T21:54:14Z" changeset="63992855" uid="5173844" user="ndrw6">
    <nd ref="30152398"/>
    <nd ref="6023458048"/>
    <nd ref="30152399"/>
    <nd ref="6023458047"/>
    <nd ref="30152400"/>
    <nd ref="30152401"/>
    <nd ref="30152403"/>
    <tag k="highway" v="residential"/>
    <tag k="name" v="Paynes Meadow"/>
    <tag k="source:name" v="dictaphone"/>
  </way>
  <way id="4731398" version="1" timestamp="2007-06-10T14:39:46Z" changeset="89002" uid="3582" user="davidearl">
    <nd ref="30152399"/>
    <nd ref="30152404"/>
    <nd ref="30152405"/>
    <nd ref="30152406"/>
    <tag k="created_by" v="JOSM"/>
    <tag k="highway" v="residential"/>
    <tag k="name" v="Paynes Meadow"/>
    <tag k="source:name" v="dictaphone"/>
  </way>
  <way id="4731400" version="2" timestamp="2020-12-25T09:17:50Z" changeset="96414106" uid="1287673" user="sloerunner">
    <nd ref="30152401"/>
    <nd ref="8259203562"/>
    <nd ref="30152402"/>
    <tag k="highway" v="residential"/>
    <tag k="name" v="Paynes Meadow"/>
    <tag k="source:name" v="dictaphone"/>
  </way>
  <way id="4731401" version="13" timestamp="2025-02-20T22:08:36Z" changeset="162758881" uid="5229644" user="Nathan_A_RF">
    <nd ref="30152502"/>
    <nd ref="12605253597"/>
    <nd ref="30152656"/>
    <nd ref="30152654"/>
    <nd ref="30152657"/>
    <nd ref="30152658"/>
    <nd ref="3634013696"/>
    <nd ref="30152659"/>
    <nd ref="30152660"/>
    <nd ref="7980756281"/>
    <nd ref="7980756280"/>
    <nd ref="11885769139"/>
    <nd ref="30152670"/>
    <nd ref="3634013698"/>
    <nd ref="30152661"/>
    <nd ref="30152662"/>
    <nd ref="3634013693"/>
    <nd ref="30152664"/>
    <nd ref="30152668"/>
    <nd ref="3634013694"/>
    <nd ref="30152666"/>
    <nd ref="12605253594"/>
    <nd ref="30152650"/>
    <tag k="dual_carriageway" v="yes"/>
    <tag k="highway" v="primary"/>
    <tag k="maxspeed" v="50 mph"/>
    <tag k="maxspeed:type" v="sign"/>
    <tag k="name" v="Cambridge Road"/>
    <tag k="oneway" v="yes"/>
    <tag k="ref" v="A1307"/>
  </way>
  <way id="4731402" version="13" timestamp="2025-02-20T22:08:36Z" changeset="162758881" uid="5229644" user="Nathan_A_RF">
    <nd ref="30152650"/>
    <nd ref="12605253593"/>
    <nd ref="3634005919"/>
    <nd ref="30152649"/>
    <nd ref="3634007993"/>
    <nd ref="29005362"/>
    <nd ref="30152648"/>
    <nd ref="30152647"/>
    <nd ref="3634013492"/>
    <nd ref="30152646"/>
    <nd ref="11885769138"/>
    <nd ref="3701333438"/>
    <nd ref="30152645"/>
    <nd ref="3634013697"/>
    <nd ref="29005363"/>
    <nd ref="30152644"/>
    <nd ref="30152643"/>
    <nd ref="30152642"/>
    <nd ref="30152641"/>
    <nd ref="12605253596"/>
    <nd ref="30152502"/>
    <tag k="dual_carriageway" v="yes"/>
    <tag k="highway" v="primary"/>
    <tag k="maxspeed" v="50 mph"/>
    <tag k="maxspeed:type" v="sign"/>
    <tag k="name" v="Cambridge Road"/>
    <tag k="oneway" v="yes"/>
    <tag k="ref" v="A1307"/>
  </way>
  <way id="4731403" version="11" timestamp="2025-02-20T22:08:36Z" changeset="162758881" uid="5229644" user="Nathan_A_RF">
    <nd ref="26531051"/>
    <nd ref="7640635501"/>
    <nd ref="30152653"/>
    <nd ref="26531052"/>
    <nd ref="2559707148"/>
    <nd ref="6568048464"/>
    <nd ref="30152652"/>
    <nd ref="3648969236"/>
    <nd ref="3648969237"/>
    <nd ref="30152651"/>
    <nd ref="3648969247"/>
    <nd ref="12605253595"/>
    <nd ref="30152650"/>
    <tag k="highway" v="primary"/>
    <tag k="maxspeed" v="50 mph"/>
    <tag k="maxspeed:type" v="sign"/>
    <tag k="name" v="Cambridge Road"/>
    <tag k="ref" v="A1307"/>
  </way>
  <way id="4731405" version="3" timestamp="2019-05-06T13:05:43Z" changeset="69935621" uid="8683362" user="riteshaw">
    <nd ref="30152672"/>
    <nd ref="1196597980"/>
    <nd ref="30152673"/>
    <nd ref="30152675"/>
    <nd ref="30152676"/>
    <nd ref="6452016830"/>
    <tag k="highway" v="residential"/>
  </way>
  <way id="4731406" version="4" timestamp="2019-05-06T13:05:43Z" changeset="69935621" uid="8683362" user="riteshaw">
    <nd ref="30152673"/>
    <nd ref="6452016829"/>
    <nd ref="1196597981"/>
    <tag k="highway" v="residential"/>
  </way>
  <way id="4731407" version="2" timestamp="2025-02-20T22:08:36Z" changeset="162758881" uid="5229644" user="Nathan_A_RF">
    <nd ref="30152654"/>
    <nd ref="30152643"/>
    <tag k="highway" v="unclassified"/>
  </way>
  <way id="4731411" version="6" timestamp="2019-12-04T00:50:15Z" changeset="77904276" uid="5173844" user="ndrw6">
    <nd ref="7030279528"/>
    <nd ref="30152413"/>
    <nd ref="30152414"/>
    <nd ref="30152415"/>
    <nd ref="30152416"/>
    <nd ref="30152417"/>
    <nd ref="30152418"/>
    <nd ref="30152420"/>
    <tag k="highway" v="residential"/>
    <tag k="name" v="Back Road"/>
    <tag k="source:name" v="dictaphone"/>
  </way>
  <way id="4731412" version="8" timestamp="2024-02-29T22:03:08Z" changeset="148073262" uid="20727137" user="JXL56JLI0B">
    <nd ref="27401572"/>
    <nd ref="8025153649"/>
    <nd ref="30152873"/>
    <nd ref="3407147280"/>
    <nd ref="30152875"/>
    <nd ref="1761295449"/>
    <nd ref="1761295451"/>
    <nd ref="1761295455"/>
    <nd ref="1761295453"/>
    <nd ref="1761295468"/>
    <nd ref="1761295473"/>
    <nd ref="1761295441"/>
    <nd ref="1761295442"/>
    <nd ref="1523574661"/>
    <nd ref="30152877"/>
    <nd ref="11678997638"/>
    <nd ref="1523574636"/>
    <nd ref="1761295443"/>
    <nd ref="1761295476"/>
    <nd ref="1761295477"/>
    <nd ref="1761295478"/>
    <nd ref="1761295480"/>
    <nd ref="1761295479"/>
    <nd ref="30152879"/>
    <nd ref="1761295481"/>
    <nd ref="1761295482"/>
    <nd ref="2899250177"/>
    <nd ref="30152411"/>
    <nd ref="7030279528"/>
    <tag k="highway" v="unclassified"/>
  </way>
  <way id="4731413" version="2" timestamp="2019-12-04T00:50:15Z" changeset="77904276" uid="5173844" user="ndrw6">
    <nd ref="30152413"/>
    <nd ref="30152446"/>
    <nd ref="30152447"/>
    <nd ref="30152448"/>
    <tag k="highway" v="residential"/>
    <tag k="name" v="The Woodlands"/>
    <tag k="source:name" v="dictaphone"/>
  </way>
  <way id="4731414" version="1" timestamp="2007-06-10T14:40:02Z" changeset="89002" uid="3582" user="davidearl">
    <nd ref="30152447"/>
    <nd ref="30152451"/>
    <tag k="created_by" v="JOSM"/>
    <tag k="highway" v="residential"/>
    <tag k="name" v="The Woodlands"/>
    <tag k="source:name" v="dictaphone"/>
  </way>
  <way id="4731415" version="2" timestamp="2019-12-04T00:50:15Z" changeset="77904276" uid="5173844" user="ndrw6">
    <nd ref="30152446"/>
    <nd ref="30152445"/>
    <nd ref="7030279401"/>
    <nd ref="30152443"/>
    <nd ref="30152444"/>
    <nd ref="30152455"/>
    <nd ref="30152456"/>
    <nd ref="30152457"/>
    <tag k="highway" v="residential"/>
    <tag k="name" v="The Woodlands"/>
    <tag k="source:name" v="dictaphone"/>
  </way>
  <way id="4731420" version="6" timestamp="2019-12-04T00:50:15Z" changeset="77904276" uid="5173844" user="ndrw6">
    <nd ref="30152418"/>
    <nd ref="30152419"/>
    <nd ref="3878757679"/>
    <nd ref="30152423"/>
    <nd ref="30152424"/>
    <nd ref="30152425"/>
    <nd ref="7030279132"/>
    <nd ref="30152426"/>
    <nd ref="30152427"/>
    <nd ref="4960546824"/>
    <tag k="highway" v="residential"/>
    <tag k="name" v="Symonds Lane"/>
    <tag k="source:name" v="dictaphone"/>
  </way>
  <way id="4731421" version="2" timestamp="2015-07-02T00:30:46Z" changeset="32344140" uid="553735" user="Johnmb">
    <nd ref="30152565"/>
    <nd ref="3630213375"/>
    <nd ref="3630213374"/>
    <nd ref="30152563"/>
    <nd ref="3630213377"/>
    <nd ref="30152562"/>
    <nd ref="30152564"/>
    <tag k="highway" v="residential"/>
    <tag k="name" v="Hill Way"/>
    <tag k="source:name" v="dictaphone"/>
  </way>
  <way id="4731423" version="5" timestamp="2019-12-04T00:50:15Z" changeset="77904276" uid="5173844" user="ndrw6">
    <nd ref="30152547"/>
    <nd ref="30152548"/>
    <nd ref="3650406307"/>
    <nd ref="7030278892"/>
    <nd ref="3650406630"/>
    <nd ref="3650406324"/>
    <nd ref="3650406649"/>
    <nd ref="3650406300"/>
    <nd ref="4897470608"/>
    <nd ref="6525151387"/>
    <nd ref="3650406314"/>
    <tag k="highway" v="residential"/>
    <tag k="name" v="Flaxfields"/>
    <tag k="source:name" v="dictaphone"/>
  </way>
  <way id="4731425" version="3" timestamp="2015-12-05T18:26:11Z" changeset="35773710" uid="5926" user="c2r">
    <nd ref="30152430"/>
    <nd ref="3650406321"/>
    <nd ref="30152431"/>
    <nd ref="30152432"/>
    <nd ref="3878757674"/>
    <nd ref="3650406655"/>
    <tag k="highway" v="residential"/>
    <tag k="name" v="Palmers Close"/>
    <tag k="source:name" v="dictaphone"/>
  </way>
  <way id="4731426" version="2" timestamp="2019-12-04T00:50:15Z" changeset="77904276" uid="5173844" user="ndrw6">
    <nd ref="30152546"/>
    <nd ref="7030279051"/>
    <nd ref="30152552"/>
    <nd ref="7030279050"/>
    <nd ref="30152553"/>
    <tag k="highway" v="residential"/>
    <tag k="name" v="Back Road"/>
    <tag k="source:name" v="dictaphone"/>
  </way>
  <way id="4731427" version="3" timestamp="2019-12-04T00:50:15Z" changeset="77904276" uid="5173844" user="ndrw6">
    <nd ref="30152420"/>
    <nd ref="30152421"/>
    <nd ref="7030279113"/>
    <nd ref="7030279112"/>
    <nd ref="7030279114"/>
    <nd ref="7030279115"/>
    <nd ref="30152558"/>
    <tag k="highway" v="residential"/>
    <tag k="name" v="Crabtree Croft"/>
    <tag k="source:name" v="dictaphone"/>
  </way>
  <way id="4731429" version="1" timestamp="2007-06-10T14:40:06Z" changeset="89002" uid="3582" user="davidearl">
    <nd ref="30152421"/>
    <nd ref="30152422"/>
    <tag k="created_by" v="JOSM"/>
    <tag k="highway" v="residential"/>
    <tag k="name" v="Crabtree Croft"/>
    <tag k="source:name" v="dictaphone"/>
  </way>
  <way id="4731430" version="3" timestamp="2020-11-11T07:37:29Z" changeset="93906441" uid="10455645" user="viplavm">
    <nd ref="30152425"/>
    <nd ref="30152433"/>
    <nd ref="7030279273"/>
    <nd ref="30152434"/>
    <nd ref="7030279274"/>
    <nd ref="8106164797"/>
    <nd ref="30152435"/>
    <nd ref="30152436"/>
    <nd ref="30152437"/>
    <nd ref="30152438"/>
    <tag k="highway" v="residential"/>
    <tag k="name" v="The Grove"/>
    <tag k="source:name" v="dictaphone"/>
  </way>
  <way id="4731431" version="1" timestamp="2007-06-10T14:40:07Z" changeset="89002" uid="3582" user="davidearl">
    <nd ref="30152437"/>
    <nd ref="30152439"/>
    <tag k="created_by" v="JOSM"/>
    <tag k="highway" v="residential"/>
    <tag k="name" v="Cherry Close"/>
    <tag k="source:name" v="dictaphone"/>
  </way>
  <way id="4731432" version="1" timestamp="2007-06-10T14:40:07Z" changeset="89002" uid="3582" user="davidearl">
    <nd ref="30152440"/>
    <nd ref="30152439"/>
    <nd ref="30152441"/>
    <tag k="created_by" v="JOSM"/>
    <tag k="highway" v="residential"/>
    <tag k="name" v="Cherry Close"/>
    <tag k="source:name" v="dictaphone"/>
  </way>
  <way id="4731434" version="1" timestamp="2007-06-10T14:40:07Z" changeset="89002" uid="3582" user="davidearl">
    <nd ref="30152434"/>
    <nd ref="30152467"/>
    <tag k="created_by" v="JOSM"/>
    <tag k="highway" v="residential"/>
    <tag k="name" v="The Grove"/>
    <tag k="source:name" v="dictaphone"/>
  </way>
  <way id="4731435" version="2" timestamp="2018-10-29T21:54:15Z" changeset="63992855" uid="5173844" user="ndrw6">
    <nd ref="30152435"/>
    <nd ref="6023458449"/>
    <nd ref="30152458"/>
    <nd ref="30152459"/>
    <nd ref="6023458450"/>
    <nd ref="30152460"/>
    <tag k="highway" v="residential"/>
    <tag k="name" v="Maple Close"/>
    <tag k="source:name" v="dictaphone"/>
  </way>
  <way id="4731436" version="3" timestamp="2019-12-04T00:50:15Z" changeset="77904276" uid="5173844" user="ndrw6">
    <nd ref="30152427"/>
    <nd ref="30152478"/>
    <nd ref="30152477"/>
    <nd ref="30152476"/>
    <nd ref="30152475"/>
    <nd ref="3650406298"/>
    <nd ref="3650406651"/>
    <nd ref="7030278325"/>
    <nd ref="7030278324"/>
    <nd ref="7030278323"/>
    <tag k="highway" v="residential"/>
    <tag k="name" v="Granta Leys"/>
    <tag k="source:name" v="dictaphone"/>
  </way>
  <way id="4731441" version="5" timestamp="2019-12-04T00:50:15Z" changeset="77904276" uid="5173844" user="ndrw6">
    <nd ref="30152570"/>
    <nd ref="7030278482"/>
    <nd ref="30152571"/>
    <nd ref="7030278478"/>
    <nd ref="30152572"/>
    <nd ref="6559521801"/>
    <nd ref="30152573"/>
    <tag k="highway" v="residential"/>
    <tag k="name" v="Meadow Lane"/>
    <tag k="source:name" v="dictaphone"/>
    <tag k="surface" v="asphalt"/>
  </way>
  <way id="4731444" version="4" timestamp="2019-12-07T00:12:28Z" changeset="78075694" uid="5173844" user="ndrw6">
    <nd ref="30152500"/>
    <nd ref="1126491328"/>
    <nd ref="6808395677"/>
    <nd ref="1126491337"/>
    <nd ref="7039646671"/>
    <nd ref="30152492"/>
    <tag k="highway" v="residential"/>
    <tag k="name" v="Joiners Road"/>
    <tag k="source:name" v="dictaphone"/>
  </way>
  <way id="4731445" version="3" timestamp="2020-04-14T15:44:34Z" changeset="83543881" uid="11027533" user="StreetFan">
    <nd ref="30152491"/>
    <nd ref="30152493"/>
    <tag k="access" v="private"/>
    <tag k="highway" v="residential"/>
    <tag k="name" v="Essex Gardens"/>
    <tag k="source:name" v="dictaphone"/>
  </way>
  <way id="4731446" version="4" timestamp="2020-04-14T15:44:34Z" changeset="83543881" uid="11027533" user="StreetFan">
    <nd ref="30152492"/>
    <nd ref="7039646362"/>
    <nd ref="7039646363"/>
    <nd ref="30152494"/>
    <tag k="access" v="private"/>
    <tag k="highway" v="residential"/>
    <tag k="name" v="Dovehouse Close"/>
    <tag k="source:name" v="dictaphone"/>
  </way>
  <way id="4731450" version="4" timestamp="2018-09-22T18:32:41Z" changeset="62833421" uid="5723859" user="Village90">
    <nd ref="30152513"/>
    <nd ref="30152512"/>
    <nd ref="4934171488"/>
    <tag k="highway" v="residential"/>
    <tag k="lit" v="no"/>
    <tag k="name" v="Greenhill Mews"/>
    <tag k="source:name" v="dictaphone"/>
    <tag k="surface" v="fine_gravel"/>
  </way>
  <way id="4731451" version="3" timestamp="2019-12-07T00:12:28Z" changeset="78075694" uid="5173844" user="ndrw6">
    <nd ref="30152505"/>
    <nd ref="4934171490"/>
    <nd ref="7039646906"/>
    <nd ref="7039646907"/>
    <nd ref="30152514"/>
    <tag k="highway" v="residential"/>
    <tag k="name" v="The Rookery"/>
    <tag k="source" v="DigitalGlobe imagery"/>
    <tag k="source:name" v="OS_OpenData_Locator"/>
  </way>
  <way id="4731452" version="10" timestamp="2022-04-15T11:58:16Z" changeset="119748457" uid="1287673" user="sloerunner">
    <nd ref="30152506"/>
    <nd ref="30152507"/>
    <nd ref="7402059290"/>
    <nd ref="6023456824"/>
    <nd ref="30152508"/>
    <nd ref="30152499"/>
    <nd ref="612659233"/>
    <nd ref="612659236"/>
    <nd ref="612659241"/>
    <nd ref="612659249"/>
    <nd ref="6634890774"/>
    <nd ref="30152576"/>
    <nd ref="612659255"/>
    <nd ref="30152575"/>
    <nd ref="30152570"/>
    <tag k="abutters" v="residential"/>
    <tag k="highway" v="secondary"/>
    <tag k="maxspeed" v="30 mph"/>
    <tag k="maxweight:hgv" v="7.5"/>
    <tag k="maxweight:hgv:conditional" v="none @ delivery"/>
    <tag k="name" v="High Street"/>
    <tag k="ref" v="B1052"/>
    <tag k="source:name" v="dictaphone"/>
    <tag k="surface" v="asphalt"/>
  </way>
  <way id="4731453" version="3" timestamp="2018-09-22T18:28:14Z" changeset="62833309" uid="5723859" user="Village90">
    <nd ref="30152569"/>
    <nd ref="30152568"/>
    <tag k="bridge" v="yes"/>
    <tag k="highway" v="secondary"/>
    <tag k="layer" v="1"/>
    <tag k="ref" v="B1052"/>
    <tag k="surface" v="asphalt"/>
  </way>
  <way id="4731454" version="7" timestamp="2022-04-15T11:58:16Z" changeset="119748457" uid="1287673" user="sloerunner">
    <nd ref="30152568"/>
    <nd ref="30152567"/>
    <nd ref="3630211710"/>
    <nd ref="30152707"/>
    <nd ref="1430757267"/>
    <nd ref="3630202721"/>
    <nd ref="30152974"/>
    <nd ref="3630202730"/>
    <nd ref="30152591"/>
    <tag k="abutters" v="residential"/>
    <tag k="highway" v="secondary"/>
    <tag k="maxweight:hgv" v="7.5"/>
    <tag k="maxweight:hgv:conditional" v="none @ delivery"/>
    <tag k="name" v="High Street"/>
    <tag k="ref" v="B1052"/>
    <tag k="source:name" v="dictaphone"/>
  </way>
  <way id="4731455" version="6" timestamp="2022-04-15T11:58:16Z" changeset="119748457" uid="1287673" user="sloerunner">
    <nd ref="30152281"/>
    <nd ref="3630229155"/>
    <nd ref="30152602"/>
    <nd ref="30152601"/>
    <nd ref="30152600"/>
    <nd ref="30152590"/>
    <tag k="abutters" v="residential"/>
    <tag k="highway" v="secondary"/>
    <tag k="maxweight:hgv" v="7.5"/>
    <tag k="maxweight:hgv:conditional" v="none @ delivery"/>
    <tag k="name" v="High Street"/>
    <tag k="oneway" v="yes"/>
    <tag k="ref" v="B1052"/>
    <tag k="source:name" v="dictaphone"/>
  </way>
  <way id="4731456" version="3" timestamp="2015-07-01T17:26:19Z" changeset="32337108" uid="553735" user="Johnmb">
    <nd ref="30152591"/>
    <nd ref="3629514854"/>
    <nd ref="3629514858"/>
    <nd ref="30152592"/>
    <nd ref="30152593"/>
    <nd ref="30152594"/>
    <nd ref="30152377"/>
    <tag k="abutters" v="residential"/>
    <tag k="highway" v="tertiary"/>
    <tag k="name" v="Coles Lane"/>
    <tag k="oneway" v="yes"/>
    <tag k="source:name" v="dictaphone"/>
  </way>
  <way id="4731461" version="6" timestamp="2019-12-04T00:50:15Z" changeset="77904276" uid="5173844" user="ndrw6">
    <nd ref="30152583"/>
    <nd ref="1767830571"/>
    <nd ref="30152582"/>
    <nd ref="3630202703"/>
    <nd ref="7030278585"/>
    <nd ref="30152584"/>
    <nd ref="3630202719"/>
    <nd ref="30152585"/>
    <nd ref="3630202702"/>
    <nd ref="30152586"/>
    <nd ref="30152588"/>
    <nd ref="30152589"/>
    <tag k="highway" v="residential"/>
    <tag k="name" v="Church Lane"/>
  </way>
  <way id="4731462" version="5" timestamp="2018-09-22T18:35:06Z" changeset="62833309" uid="5723859" user="Village90">
    <nd ref="30152508"/>
    <nd ref="3629514860"/>
    <nd ref="3629514852"/>
    <nd ref="3629514857"/>
    <nd ref="3629514859"/>
    <nd ref="3629514853"/>
    <nd ref="3629514855"/>
    <nd ref="30152581"/>
    <tag k="highway" v="residential"/>
    <tag k="name" v="Horn Lane"/>
    <tag k="source:name" v="dictaphone"/>
    <tag k="surface" v="asphalt"/>
  </way>
  <way id="4731465" version="4" timestamp="2015-07-02T01:12:24Z" changeset="32344422" uid="553735" user="Johnmb">
    <nd ref="30152590"/>
    <nd ref="30152609"/>
    <nd ref="3629516783"/>
    <nd ref="3629516784"/>
    <nd ref="3629516781"/>
    <nd ref="3630252903"/>
    <nd ref="30152608"/>
    <nd ref="30152606"/>
    <nd ref="30152605"/>
    <tag k="highway" v="residential"/>
    <tag k="name" v="Mill Lane"/>
    <tag k="source:name" v="dictaphone"/>
  </way>
  <way id="4731466" version="6" timestamp="2017-06-05T13:37:40Z" changeset="49270903" uid="1287673" user="sloerunner">
    <nd ref="30152605"/>
    <nd ref="30152610"/>
    <nd ref="3523096629"/>
    <nd ref="1767843926"/>
    <nd ref="1767847138"/>
    <nd ref="30152611"/>
    <nd ref="30152612"/>
    <nd ref="4897471422"/>
    <nd ref="4897471421"/>
    <nd ref="30152613"/>
    <nd ref="30152614"/>
    <nd ref="3523096630"/>
    <nd ref="3523096628"/>
    <nd ref="4339007281"/>
    <nd ref="30152615"/>
    <nd ref="3523096631"/>
    <nd ref="30152618"/>
    <tag k="highway" v="unclassified"/>
    <tag k="name" v="Long Lane"/>
    <tag k="source:name" v="dictaphone"/>
  </way>
  <way id="4731468" version="5" timestamp="2020-08-03T05:42:55Z" changeset="88859504" uid="10205154" user="mundlk">
    <nd ref="30152601"/>
    <nd ref="3629516782"/>
    <nd ref="6709406793"/>
    <nd ref="6817448764"/>
    <nd ref="3629516785"/>
    <nd ref="30152603"/>
    <nd ref="7779966469"/>
    <nd ref="30152717"/>
    <tag k="highway" v="residential"/>
    <tag k="name" v="Green Lane"/>
    <tag k="source:name" v="dictaphone"/>
  </way>
  <way id="4731470" version="12" timestamp="2025-04-01T14:15:02Z" changeset="164377396" uid="20475686" user="Dan200">
    <nd ref="30152501"/>
    <nd ref="30152500"/>
    <nd ref="30152504"/>
    <nd ref="1196598043"/>
    <nd ref="30152505"/>
    <nd ref="12718770860"/>
    <nd ref="30152513"/>
    <nd ref="7039646941"/>
    <nd ref="1751073152"/>
    <nd ref="30152506"/>
    <tag k="abutters" v="residential"/>
    <tag k="highway" v="primary"/>
    <tag k="maxspeed" v="40 mph"/>
    <tag k="maxspeed:type" v="sign"/>
    <tag k="name" v="Cambridge Road"/>
    <tag k="ref" v="A1307"/>
    <tag k="surface" v="asphalt"/>
  </way>
  <way id="4731471" version="6" timestamp="2024-01-20T12:30:27Z" changeset="146477081" uid="242345" user="confusedbuffalo">
    <nd ref="30152831"/>
    <nd ref="30152827"/>
    <tag k="bridge" v="yes"/>
    <tag k="highway" v="primary"/>
    <tag k="layer" v="1"/>
    <tag k="maxspeed" v="50 mph"/>
    <tag k="maxspeed:type" v="sign"/>
    <tag k="ref" v="A1307"/>
  </way>
  <way id="4731473" version="10" timestamp="2024-02-08T05:15:44Z" changeset="147201363" uid="5173844" user="ndrw6">
    <nd ref="30152814"/>
    <nd ref="3704387281"/>
    <nd ref="30152801"/>
    <nd ref="11597367089"/>
    <nd ref="10969844488"/>
    <nd ref="3632635268"/>
    <nd ref="30152799"/>
    <nd ref="30152798"/>
    <nd ref="30152797"/>
    <nd ref="1126491332"/>
    <nd ref="30152791"/>
    <nd ref="30152793"/>
    <nd ref="30152755"/>
    <nd ref="4897470616"/>
    <nd ref="30152750"/>
    <nd ref="30152748"/>
    <nd ref="7039647905"/>
    <nd ref="30152746"/>
    <nd ref="30152743"/>
    <nd ref="7034652387"/>
    <nd ref="30152736"/>
    <tag k="abutters" v="residential"/>
    <tag k="highway" v="tertiary"/>
    <tag k="name" v="Bartlow Road"/>
    <tag k="source:name" v="dictaphone"/>
  </way>
  <way id="4731474" version="5" timestamp="2019-12-07T00:12:28Z" changeset="78075694" uid="5173844" user="ndrw6">
    <nd ref="30152281"/>
    <nd ref="30153026"/>
    <nd ref="7039647729"/>
    <nd ref="30152340"/>
    <nd ref="30152832"/>
    <nd ref="7034652386"/>
    <nd ref="30152736"/>
    <tag k="abutters" v="residential"/>
    <tag k="highway" v="tertiary"/>
    <tag k="name" v="High Street"/>
    <tag k="source:name" v="dictaphone"/>
  </way>
  <way id="4731477" version="1" timestamp="2007-06-10T14:40:25Z" changeset="89002" uid="3582" user="davidearl">
    <nd ref="30152735"/>
    <nd ref="30152734"/>
    <nd ref="30152732"/>
    <nd ref="30152733"/>
    <tag k="created_by" v="JOSM"/>
    <tag k="highway" v="residential"/>
    <tag k="name" v="Granta Vale"/>
    <tag k="source:name" v="dictaphone"/>
  </way>
  <way id="4731478" version="2" timestamp="2015-07-02T00:10:26Z" changeset="32344044" uid="553735" user="Johnmb">
    <nd ref="30152732"/>
    <nd ref="30152725"/>
    <nd ref="3630204482"/>
    <nd ref="30152721"/>
    <nd ref="30152832"/>
    <tag k="highway" v="residential"/>
    <tag k="name" v="Granta Vale"/>
    <tag k="source:name" v="dictaphone"/>
  </way>
  <way id="4731479" version="2" timestamp="2019-12-07T00:12:28Z" changeset="78075694" uid="5173844" user="ndrw6">
    <nd ref="30152725"/>
    <nd ref="7039647604"/>
    <nd ref="30152727"/>
    <tag k="highway" v="residential"/>
    <tag k="name" v="Granta Vale"/>
    <tag k="source:name" v="dictaphone"/>
  </way>
  <way id="4731480" version="2" timestamp="2015-07-01T17:30:07Z" changeset="32337213" uid="553735" user="Johnmb">
    <nd ref="30152721"/>
    <nd ref="30152723"/>
    <nd ref="3629517408"/>
    <nd ref="3629517406"/>
    <nd ref="3629517407"/>
    <tag k="highway" v="residential"/>
    <tag k="name" v="Lamb Fair Court"/>
    <tag k="source:name" v="dictaphone"/>
  </way>
  <way id="4731481" version="3" timestamp="2019-12-07T00:12:28Z" changeset="78075694" uid="5173844" user="ndrw6">
    <nd ref="30152746"/>
    <nd ref="3632636093"/>
    <nd ref="3632635266"/>
    <nd ref="30152834"/>
    <nd ref="3632635278"/>
    <nd ref="7039629775"/>
    <nd ref="3632635291"/>
    <nd ref="3632635269"/>
    <nd ref="3632635277"/>
    <nd ref="3632635280"/>
    <tag k="highway" v="residential"/>
    <tag k="name" v="Emson's Close"/>
    <tag k="source:name" v="dictaphone"/>
  </way>
  <way id="4731482" version="2" timestamp="2015-07-03T10:23:03Z" changeset="32384001" uid="553735" user="Johnmb">
    <nd ref="30152834"/>
    <nd ref="3632636094"/>
    <nd ref="3632635267"/>
    <tag k="highway" v="residential"/>
    <tag k="name" v="Emson's Close"/>
    <tag k="source:name" v="dictaphone"/>
  </way>
  <way id="4731483" version="4" timestamp="2019-12-07T00:12:28Z" changeset="78075694" uid="5173844" user="ndrw6">
    <nd ref="30152748"/>
    <nd ref="3631198314"/>
    <nd ref="3631198315"/>
    <nd ref="30152765"/>
    <nd ref="3631198308"/>
    <nd ref="3631198307"/>
    <nd ref="30152766"/>
    <nd ref="3631198305"/>
    <nd ref="7039629774"/>
    <nd ref="7039629780"/>
    <nd ref="30152769"/>
    <nd ref="30152771"/>
    <nd ref="30152772"/>
    <nd ref="30152773"/>
    <nd ref="3631198313"/>
    <nd ref="7039629767"/>
    <nd ref="30152775"/>
    <nd ref="7039629771"/>
    <nd ref="3631198312"/>
    <nd ref="3704387271"/>
    <nd ref="30152785"/>
    <nd ref="30152839"/>
    <nd ref="30152787"/>
    <nd ref="3631198306"/>
    <nd ref="30152789"/>
    <nd ref="30152791"/>
    <tag k="highway" v="residential"/>
    <tag k="name" v="Fincham's Close"/>
    <tag k="source:name" v="dictaphone"/>
  </way>
  <way id="4731484" version="3" timestamp="2019-12-07T00:12:28Z" changeset="78075694" uid="5173844" user="ndrw6">
    <nd ref="30152775"/>
    <nd ref="30152777"/>
    <nd ref="30152779"/>
    <nd ref="3704387190"/>
    <nd ref="7039648256"/>
    <nd ref="30152783"/>
    <nd ref="3704387184"/>
    <nd ref="30152781"/>
    <tag k="highway" v="residential"/>
    <tag k="name" v="Fincham's Close"/>
    <tag k="source:name" v="dictaphone"/>
  </way>
  <way id="4731485" version="3" timestamp="2019-12-06T20:49:18Z" changeset="78071845" uid="5173844" user="ndrw6">
    <nd ref="30152750"/>
    <nd ref="7039428601"/>
    <nd ref="4934167956"/>
    <nd ref="30152757"/>
    <nd ref="4934167954"/>
    <nd ref="30152759"/>
    <nd ref="30152761"/>
    <tag k="highway" v="residential"/>
    <tag k="name" v="Crossways"/>
    <tag k="source:name" v="dictaphone"/>
  </way>
  <way id="4731486" version="2" timestamp="2017-06-24T14:24:45Z" changeset="49795017" uid="705850" user="Cebderby">
    <nd ref="30152763"/>
    <nd ref="30152762"/>
    <nd ref="4934167958"/>
    <nd ref="30152757"/>
    <tag k="highway" v="residential"/>
    <tag k="name" v="Rhugarve Gardens"/>
    <tag k="source:name" v="dictaphone"/>
  </way>
  <way id="4731487" version="3" timestamp="2019-12-07T00:12:28Z" changeset="78075694" uid="5173844" user="ndrw6">
    <nd ref="30152840"/>
    <nd ref="7039648400"/>
    <nd ref="30152843"/>
    <nd ref="30152845"/>
    <nd ref="30152846"/>
    <nd ref="6023457895"/>
    <nd ref="6023457894"/>
    <nd ref="7039648402"/>
    <nd ref="30152847"/>
    <nd ref="7039648455"/>
    <nd ref="30152796"/>
    <tag k="highway" v="residential"/>
    <tag k="name" v="Lonsdale"/>
    <tag k="source:name" v="dictaphone"/>
  </way>
  <way id="4731488" version="2" timestamp="2018-10-29T21:54:15Z" changeset="63992855" uid="5173844" user="ndrw6">
    <nd ref="30152843"/>
    <nd ref="6023457891"/>
    <nd ref="6023457893"/>
    <nd ref="6023457892"/>
    <nd ref="30152844"/>
    <tag k="highway" v="residential"/>
    <tag k="name" v="Lonsdale"/>
    <tag k="source:name" v="dictaphone"/>
  </way>
  <way id="4731490" version="3" timestamp="2019-12-06T20:49:18Z" changeset="78071845" uid="5173844" user="ndrw6">
    <nd ref="3704387281"/>
    <nd ref="30152807"/>
    <nd ref="30152809"/>
    <nd ref="30152850"/>
    <nd ref="7039428423"/>
    <nd ref="30152811"/>
    <tag k="highway" v="residential"/>
    <tag k="name" v="The Ridgeway"/>
    <tag k="source:name" v="dictaphone"/>
  </way>
  <way id="4731491" version="2" timestamp="2018-10-29T21:54:15Z" changeset="63992855" uid="5173844" user="ndrw6">
    <nd ref="30152801"/>
    <nd ref="30152802"/>
    <nd ref="6023457847"/>
    <nd ref="6023457848"/>
    <nd ref="30152803"/>
    <nd ref="6023457849"/>
    <nd ref="30152805"/>
    <tag k="highway" v="residential"/>
    <tag k="name" v="Kenwood Gardens"/>
    <tag k="source:name" v="dictaphone"/>
  </way>
  <way id="4731492" version="2" timestamp="2015-07-03T10:23:03Z" changeset="32384001" uid="553735" user="Johnmb">
    <nd ref="30152799"/>
    <nd ref="30152800"/>
    <nd ref="3632635264"/>
    <nd ref="3632635283"/>
    <nd ref="3632635265"/>
    <nd ref="3632635270"/>
    <nd ref="3632635271"/>
    <tag k="highway" v="residential"/>
    <tag k="name" v="Harefield Rise"/>
    <tag k="source:name" v="dictaphone"/>
  </way>
  <way id="4731493" version="2" timestamp="2019-12-07T00:12:28Z" changeset="78075694" uid="5173844" user="ndrw6">
    <nd ref="30152769"/>
    <nd ref="7039629781"/>
    <nd ref="30152767"/>
    <tag k="highway" v="residential"/>
    <tag k="name" v="Fincham's Close"/>
    <tag k="source:name" v="dictaphone"/>
  </way>
  <way id="4731494" version="3" timestamp="2014-01-01T23:24:41Z" changeset="19754775" uid="236165" user="Philip Shore">
    <nd ref="30152619"/>
    <nd ref="30152620"/>
    <tag k="highway" v="unclassified"/>
    <tag k="name" v="Long Lane"/>
    <tag k="source:name" v="dictaphone"/>
  </way>
  <way id="4731495" version="4" timestamp="2013-08-25T13:40:49Z" changeset="17499543" uid="7176" user="Graham Jones">
    <nd ref="30152623"/>
    <nd ref="30152624"/>
    <nd ref="30152622"/>
    <nd ref="2431074231"/>
    <nd ref="30152621"/>
    <nd ref="30152620"/>
    <tag k="highway" v="unclassified"/>
    <tag k="name" v="Chalky Road"/>
  </way>
  <way id="4731496" version="9" timestamp="2024-01-21T12:30:16Z" changeset="146510823" uid="2836992" user="Picity">
    <nd ref="30152631"/>
    <nd ref="30152629"/>
    <tag k="highway" v="secondary"/>
    <tag k="lanes" v="2"/>
    <tag k="maxspeed" v="30 mph"/>
    <tag k="name" v="The Grip"/>
    <tag k="ref" v="B1052"/>
    <tag k="source:name" v="dictaphone"/>
    <tag k="surface" v="asphalt"/>
  </way>
  <way id="4731500" version="2" timestamp="2019-03-06T06:54:57Z" changeset="67832653" uid="8446894" user="kararcha">
    <nd ref="30152634"/>
    <nd ref="6320219116"/>
    <nd ref="30152852"/>
    <tag k="highway" v="residential"/>
    <tag k="name" v="The Grip Barns"/>
    <tag k="source:name" v="dictaphone"/>
  </way>
  <way id="4731502" version="4" timestamp="2019-09-19T14:06:40Z" changeset="74675752" uid="10252554" user="ssrijeet">
    <nd ref="30152501"/>
    <nd ref="5346594620"/>
    <nd ref="30152515"/>
    <nd ref="6808146366"/>
    <nd ref="1779239484"/>
    <nd ref="30152516"/>
    <tag k="highway" v="unclassified"/>
    <tag k="name" v="Station Road"/>
    <tag k="source:name" v="dictaphone"/>
  </way>
  <way id="4731517" version="8" timestamp="2025-04-01T14:15:02Z" changeset="164377396" uid="20475686" user="Dan200">
    <nd ref="30152629"/>
    <nd ref="7039647163"/>
    <nd ref="6320219117"/>
    <nd ref="30152853"/>
    <nd ref="6694550899"/>
    <nd ref="1751073113"/>
    <tag k="highway" v="residential"/>
    <tag k="maxspeed" v="30 mph"/>
    <tag k="name" v="The Grip"/>
    <tag k="source:name" v="dictaphone"/>
  </way>
  <way id="4731520" version="2" timestamp="2019-12-07T00:12:28Z" changeset="78075694" uid="5173844" user="ndrw6">
    <nd ref="30152603"/>
    <nd ref="7039647612"/>
    <nd ref="7039647659"/>
    <nd ref="30152719"/>
    <tag k="highway" v="residential"/>
    <tag k="name" v="Beech Way"/>
    <tag k="source:name" v="dictaphone"/>
  </way>
  <way id="4731522" version="5" timestamp="2024-02-17T03:51:25Z" changeset="147555815" uid="629" user="Wookey">
    <nd ref="11633525793"/>
    <nd ref="30152817"/>
    <nd ref="7039424862"/>
    <nd ref="30152849"/>
    <nd ref="30152814"/>
    <tag k="highway" v="tertiary"/>
    <tag k="lanes" v="2"/>
    <tag k="name" v="Bartlow Road"/>
    <tag k="source:name" v="dictaphone"/>
  </way>
  <way id="4731523" version="8" timestamp="2025-02-21T17:29:08Z" changeset="162790423" uid="5229644" user="Nathan_A_RF">
    <nd ref="11633525789"/>
    <nd ref="30152825"/>
    <nd ref="30164695"/>
    <nd ref="2330052217"/>
    <nd ref="30164694"/>
    <nd ref="96518165"/>
    <nd ref="2330052238"/>
    <nd ref="2330052230"/>
    <nd ref="30164696"/>
    <nd ref="2330052234"/>
    <nd ref="30164697"/>
    <nd ref="2330052232"/>
    <nd ref="2330052221"/>
    <nd ref="30164699"/>
    <tag k="highway" v="tertiary"/>
    <tag k="lanes" v="2"/>
    <tag k="maxspeed" v="60 mph"/>
    <tag k="maxspeed:type" v="GB:nsl_single"/>
    <tag k="name" v="Bartlow Road"/>
    <tag k="source" v="gps"/>
    <tag k="surface" v="asphalt"/>
  </way>
  <way id="4731525" version="3" timestamp="2024-07-07T12:29:38Z" changeset="153660011" uid="493595" user="Yorvik Prestigitator">
    <nd ref="30152592"/>
    <nd ref="12039876238"/>
    <nd ref="12039876239"/>
    <nd ref="30152598"/>
    <nd ref="7030278734"/>
    <nd ref="7030278735"/>
    <nd ref="30152599"/>
    <tag k="highway" v="residential"/>
    <tag k="name" v="Did-Dell Court"/>
    <tag k="source:name" v="dictaphone"/>
  </way>
  <way id="4731526" version="1" timestamp="2007-06-10T14:40:51Z" changeset="89002" uid="3582" user="davidearl">
    <nd ref="30152419"/>
    <nd ref="30152417"/>
    <tag k="created_by" v="JOSM"/>
    <tag k="highway" v="residential"/>
  </way>
  <way id="4731528" version="4" timestamp="2023-04-12T19:29:21Z" changeset="134834115" uid="3582" user="davidearl">
    <nd ref="30152643"/>
    <nd ref="10805362472"/>
    <nd ref="3589344548"/>
    <nd ref="30152671"/>
    <nd ref="30152672"/>
    <tag k="bicycle" v="yes"/>
    <tag k="designation" v="public_bridleway"/>
    <tag k="foot" v="designated"/>
    <tag k="highway" v="unclassified"/>
    <tag k="horse" v="designated"/>
    <tag k="prow_ref" v="Linton BR 7"/>
    <tag k="source:prow_ref" v="cambridgeshire_county_council_prow_gis_data"/>
  </way>
  <way id="4731534" version="2" timestamp="2015-07-02T00:27:36Z" changeset="32344140" uid="553735" user="Johnmb">
    <nd ref="30152703"/>
    <nd ref="3630211716"/>
    <nd ref="30152705"/>
    <nd ref="30152565"/>
    <nd ref="3630211715"/>
    <nd ref="3630211713"/>
    <nd ref="30152566"/>
    <nd ref="30152567"/>
    <tag k="highway" v="residential"/>
    <tag k="name" v="Symonds Lane"/>
    <tag k="source:name" v="dictaphone"/>
  </way>
  <way id="4731542" version="4" timestamp="2025-01-17T18:33:09Z" changeset="161466697" uid="20475686" user="Dan200">
    <nd ref="30152501"/>
    <nd ref="2347363672"/>
    <nd ref="7039638641"/>
    <nd ref="30152961"/>
    <tag k="highway" v="residential"/>
    <tag k="name" v="Stantons"/>
    <tag k="source:name" v="dictaphone"/>
  </way>
  <way id="4731543" version="4" timestamp="2022-09-10T09:58:44Z" changeset="126008732" uid="5173844" user="ndrw6">
    <nd ref="30152499"/>
    <nd ref="10012956438"/>
    <nd ref="7039646510"/>
    <nd ref="30152498"/>
    <tag k="highway" v="residential"/>
    <tag k="name" v="Market Lane"/>
    <tag k="source:name" v="dictaphone"/>
    <tag k="surface" v="asphalt"/>
  </way>
  <way id="4731554" version="8" timestamp="2023-10-05T13:28:28Z" changeset="142190236" uid="37791" user="Fradeve11">
    <nd ref="30153019"/>
    <nd ref="30153018"/>
    <nd ref="30153009"/>
    <nd ref="30153010"/>
    <nd ref="30153011"/>
    <nd ref="30153012"/>
    <nd ref="10012955373"/>
    <nd ref="10012955374"/>
    <nd ref="1905267829"/>
    <nd ref="30153013"/>
    <nd ref="30153014"/>
    <nd ref="30153015"/>
    <nd ref="2804680185"/>
    <nd ref="2804681021"/>
    <nd ref="30153016"/>
    <nd ref="10012955592"/>
    <nd ref="30153017"/>
    <nd ref="1905267853"/>
    <nd ref="1905267881"/>
    <nd ref="2804681037"/>
    <nd ref="30153019"/>
    <tag k="addr:postcode" v="CB21 4XB"/>
    <tag k="addr:street" v="Wheatsheaf Way"/>
    <tag k="amenity" v="school"/>
    <tag k="capacity" v="240"/>
    <tag k="isced:level" v="1"/>
    <tag k="max_age" v="11"/>
    <tag k="min_age" v="7"/>
    <tag k="name" v="Linton Heights Junior School"/>
    <tag k="phone" v="+44 1223 892210"/>
    <tag k="ref:GB:uprn" v="100091411083"/>
    <tag k="ref:edubase" v="143576"/>
    <tag k="ref:edubase:group" v="16031"/>
    <tag k="school:trust" v="yes"/>
    <tag k="school:trust:name" v="Anglian Learning"/>
    <tag k="school:trust:type" v="multi_academy"/>
    <tag k="school:type" v="academy"/>
    <tag k="website" v="https://www.lintonheights.cambs.sch.uk/"/>
    <tag k="wikidata" v="Q66231651"/>
  </way>
  <way id="4731560" version="13" timestamp="2025-02-20T22:08:36Z" changeset="162758881" uid="5229644" user="Nathan_A_RF">
    <nd ref="29005365"/>
    <nd ref="4906159666"/>
    <nd ref="3407127243"/>
    <nd ref="30152632"/>
    <nd ref="2452333466"/>
    <nd ref="2452333464"/>
    <nd ref="7039647377"/>
    <nd ref="30152633"/>
    <nd ref="1201419912"/>
    <nd ref="1201419894"/>
    <nd ref="30152619"/>
    <tag k="highway" v="primary"/>
    <tag k="maxspeed" v="50 mph"/>
    <tag k="maxspeed:type" v="sign"/>
    <tag k="ref" v="A1307"/>
  </way>
  <way id="4731561" version="8" timestamp="2024-01-20T12:30:27Z" changeset="146477081" uid="242345" user="confusedbuffalo">
    <nd ref="30152502"/>
    <nd ref="2424963496"/>
    <tag k="highway" v="primary"/>
    <tag k="maxspeed" v="50 mph"/>
    <tag k="maxspeed:type" v="sign"/>
    <tag k="name" v="Cambridge Road"/>
    <tag k="ref" v="A1307"/>
  </way>
  <way id="4732252" version="11" timestamp="2024-02-17T03:51:25Z" changeset="147555815" uid="629" user="Wookey">
    <nd ref="30152827"/>
    <nd ref="11633525778"/>
    <nd ref="2330052219"/>
    <nd ref="30152826"/>
    <nd ref="29005367"/>
    <tag k="highway" v="primary"/>
    <tag k="lanes" v="2"/>
    <tag k="maxspeed" v="50 mph"/>
    <tag k="maxspeed:type" v="sign"/>
    <tag k="ref" v="A1307"/>
    <tag k="surface" v="asphalt"/>
  </way>
  <way id="5149554" version="7" timestamp="2025-02-21T17:29:08Z" changeset="162790423" uid="5229644" user="Nathan_A_RF">
    <nd ref="29005369"/>
    <nd ref="12607429699"/>
    <nd ref="35714615"/>
    <nd ref="3407135861"/>
    <nd ref="35714616"/>
    <nd ref="29005370"/>
    <nd ref="1783876698"/>
    <nd ref="35714617"/>
    <nd ref="35717087"/>
    <nd ref="29005371"/>
    <nd ref="12607442706"/>
    <nd ref="1783876704"/>
    <nd ref="1783876627"/>
    <tag k="dual_carriageway" v="yes"/>
    <tag k="highway" v="primary"/>
    <tag k="maxspeed" v="70 mph"/>
    <tag k="maxspeed:type" v="GB:nsl_dual"/>
    <tag k="name" v="Horseheath Road"/>
    <tag k="oneway" v="yes"/>
    <tag k="ref" v="A1307"/>
    <tag k="source" v="gps survey"/>
  </way>
  <way id="9418823" version="19" timestamp="2022-08-16T01:37:01Z" changeset="124949692" uid="13341565" user="Falsernet">
    <nd ref="27429116"/>
    <nd ref="71767995"/>
    <nd ref="1451242717"/>
    <nd ref="8142210688"/>
    <nd ref="1451242718"/>
    <nd ref="71767996"/>
    <nd ref="3581289795"/>
    <nd ref="3581289796"/>
    <nd ref="3581289805"/>
    <nd ref="71767998"/>
    <nd ref="3581289804"/>
    <nd ref="9374727123"/>
    <nd ref="96518267"/>
    <nd ref="3581289797"/>
    <nd ref="3581289798"/>
    <nd ref="416960222"/>
    <nd ref="71767999"/>
    <nd ref="3581289799"/>
    <nd ref="3581289806"/>
    <nd ref="1305775859"/>
    <nd ref="1305775839"/>
    <nd ref="3581289800"/>
    <nd ref="1619080748"/>
    <nd ref="3581289803"/>
    <nd ref="1201413432"/>
    <nd ref="7832801919"/>
    <nd ref="71769682"/>
    <nd ref="3651768663"/>
    <nd ref="71768000"/>
    <nd ref="1783876606"/>
    <nd ref="6573980095"/>
    <nd ref="71769684"/>
    <nd ref="1783876659"/>
    <nd ref="1783876731"/>
    <nd ref="71768001"/>
    <nd ref="3407135863"/>
    <nd ref="9955983633"/>
    <nd ref="9955983634"/>
    <nd ref="1783876736"/>
    <nd ref="30164728"/>
    <tag k="highway" v="tertiary"/>
  </way>
  <way id="10862965" version="7" timestamp="2025-02-21T17:29:08Z" changeset="162790423" uid="5229644" user="Nathan_A_RF">
    <nd ref="1783876627"/>
    <nd ref="35717098"/>
    <nd ref="9955983635"/>
    <nd ref="9955983641"/>
    <nd ref="1783876699"/>
    <nd ref="30164705"/>
    <nd ref="1783876590"/>
    <nd ref="30164706"/>
    <nd ref="11633135208"/>
    <nd ref="30164707"/>
    <nd ref="30164708"/>
    <nd ref="11633135207"/>
    <nd ref="30164709"/>
    <nd ref="30164710"/>
    <nd ref="30164711"/>
    <nd ref="30164712"/>
    <tag k="highway" v="tertiary"/>
    <tag k="maxspeed" v="60 mph"/>
    <tag k="maxspeed:type" v="GB:nsl_single"/>
    <tag k="name" v="Dean Road"/>
    <tag k="source" v="npe"/>
  </way>
  <way id="97248505" version="2" timestamp="2019-12-06T20:49:18Z" changeset="78071845" uid="5173844" user="ndrw6">
    <nd ref="1126491330"/>
    <nd ref="7039428534"/>
    <nd ref="1126491332"/>
    <tag k="highway" v="residential"/>
    <tag k="name" v="Martins Lane"/>
    <tag k="source" v="OS OpenData StreetView"/>
  </way>
  <way id="97248514" version="8" timestamp="2023-12-31T11:10:52Z" changeset="145727978" uid="242345" user="confusedbuffalo">
    <nd ref="30152736"/>
    <nd ref="30152347"/>
    <nd ref="11472716636"/>
    <nd ref="7034652388"/>
    <nd ref="30152763"/>
    <nd ref="1905267774"/>
    <nd ref="1440423466"/>
    <nd ref="1492415690"/>
    <nd ref="4897470619"/>
    <nd ref="30152304"/>
    <nd ref="6023457890"/>
    <nd ref="30152840"/>
    <nd ref="30152841"/>
    <nd ref="10969844407"/>
    <nd ref="30152842"/>
    <tag k="abutters" v="residential"/>
    <tag k="highway" v="tertiary"/>
    <tag k="name" v="Horseheath Road"/>
    <tag k="source:name" v="dictaphone"/>
  </way>
  <way id="97248515" version="1" timestamp="2011-01-29T17:44:23Z" changeset="7124960" uid="4951" user="PeterEastern">
    <nd ref="1126491333"/>
    <nd ref="1126491328"/>
    <tag k="highway" v="residential"/>
    <tag k="name" v="Joiner's Court"/>
    <tag k="source" v="OS OpenData StreetView"/>
  </way>
  <way id="129742320" version="6" timestamp="2019-07-18T06:43:24Z" changeset="72374509" uid="9196113" user="rmmunnan">
    <nd ref="30152634"/>
    <nd ref="6626963144"/>
    <nd ref="612661695"/>
    <nd ref="5628016855"/>
    <nd ref="5793527716"/>
    <tag k="highway" v="secondary"/>
    <tag k="maxspeed" v="30 mph"/>
    <tag k="maxweight" v="17.5"/>
    <tag k="name" v="Hadstock Road"/>
    <tag k="ref" v="B1052"/>
    <tag k="source" v="GPS"/>
    <tag k="source:name" v="dictaphone"/>
  </way>
  <way id="130876897" version="5" timestamp="2020-01-10T04:52:18Z" changeset="79402049" uid="10305811" user="kumrnls">
    <nd ref="30152277"/>
    <nd ref="7121056756"/>
    <nd ref="1492415696"/>
    <nd ref="6023458040"/>
    <nd ref="30152366"/>
    <nd ref="30152365"/>
    <nd ref="1492415698"/>
    <nd ref="30152363"/>
    <nd ref="30152364"/>
    <nd ref="1492415709"/>
    <tag k="highway" v="residential"/>
    <tag k="name" v="Rivey Close"/>
    <tag k="source" v="survey"/>
    <tag k="source:name" v="dictaphone"/>
  </way>
  <way id="150472631" version="3" timestamp="2022-08-16T01:37:01Z" changeset="124949692" uid="13341565" user="Falsernet">
    <nd ref="30152842"/>
    <nd ref="1430757258"/>
    <nd ref="30152848"/>
    <nd ref="1201413435"/>
    <nd ref="1633807928"/>
    <nd ref="30162509"/>
    <nd ref="30162511"/>
    <nd ref="3407139105"/>
    <nd ref="1633807895"/>
    <nd ref="30162512"/>
    <nd ref="30162514"/>
    <nd ref="1633807880"/>
    <nd ref="35714611"/>
    <tag k="highway" v="tertiary"/>
    <tag k="name" v="Horseheath Road"/>
  </way>
  <way id="150472634" version="4" timestamp="2025-02-21T17:29:08Z" changeset="162790423" uid="5229644" user="Nathan_A_RF">
    <nd ref="30162514"/>
    <nd ref="9955983632"/>
    <nd ref="9955983631"/>
    <nd ref="3704387143"/>
    <nd ref="29005368"/>
    <tag k="highway" v="tertiary"/>
    <tag k="name" v="Horseheath Road"/>
  </way>
  <way id="157287627" version="11" timestamp="2025-02-21T17:29:08Z" changeset="162790423" uid="5229644" user="Nathan_A_RF">
    <nd ref="11633525794"/>
    <nd ref="11633525797"/>
    <nd ref="35714521"/>
    <nd ref="35714601"/>
    <nd ref="35714605"/>
    <nd ref="12607442702"/>
    <nd ref="29005368"/>
    <tag k="highway" v="primary"/>
    <tag k="lanes" v="2"/>
    <tag k="maxspeed" v="50 mph"/>
    <tag k="maxspeed:type" v="sign"/>
    <tag k="ref" v="A1307"/>
    <tag k="surface" v="asphalt"/>
  </way>
  <way id="157288396" version="7" timestamp="2024-01-21T12:30:02Z" changeset="146510823" uid="2836992" user="Picity">
    <nd ref="30152506"/>
    <nd ref="8114513294"/>
    <nd ref="1430757269"/>
    <nd ref="30152631"/>
    <tag k="abutters" v="residential"/>
    <tag k="highway" v="primary"/>
    <tag k="lanes" v="2"/>
    <tag k="maxspeed" v="40 mph"/>
    <tag k="maxspeed:type" v="sign"/>
    <tag k="ref" v="A1307"/>
    <tag k="surface" v="asphalt"/>
  </way>
  <way id="157288399" version="3" timestamp="2016-10-20T17:03:05Z" changeset="43039336" uid="1287673" user="sloerunner">
    <nd ref="30152279"/>
    <nd ref="30152280"/>
    <nd ref="1751099923"/>
    <nd ref="30152281"/>
    <tag k="abutters" v="residential"/>
    <tag k="highway" v="secondary"/>
    <tag k="name" v="Balsham Road"/>
    <tag k="ref" v="B1052"/>
    <tag k="source:ref" v="local knowledge"/>
  </way>
  <way id="180087673" version="3" timestamp="2021-04-20T03:30:04Z" changeset="103230744" uid="10170580" user="wellasus">
    <nd ref="1905267774"/>
    <nd ref="1905267797"/>
    <nd ref="8645724079"/>
    <nd ref="1905267877"/>
    <nd ref="1905267799"/>
    <nd ref="4934167955"/>
    <nd ref="1905267869"/>
    <tag k="highway" v="residential"/>
    <tag k="name" v="Keene Fields"/>
    <tag k="source" v="Bing"/>
    <tag k="source:name" v="OS_OpenData_StreetView"/>
  </way>
  <way id="180087684" version="1" timestamp="2012-09-08T08:08:51Z" changeset="13031006" uid="84263" user="Robert Whittaker">
    <nd ref="30152297"/>
    <nd ref="1905267823"/>
    <tag k="highway" v="residential"/>
    <tag k="name" v="Hollybush Way"/>
    <tag k="source:name" v="dictaphone"/>
  </way>
  <way id="234204165" version="4" timestamp="2025-01-17T18:33:09Z" changeset="161466697" uid="20475686" user="Dan200">
    <nd ref="2424963496"/>
    <nd ref="3407144753"/>
    <nd ref="29005364"/>
    <nd ref="2347363681"/>
    <nd ref="2347363689"/>
    <nd ref="2347363682"/>
    <nd ref="12509942827"/>
    <nd ref="30152501"/>
    <tag k="highway" v="primary"/>
    <tag k="maxspeed" v="40 mph"/>
    <tag k="maxspeed:type" v="sign"/>
    <tag k="name" v="Cambridge Road"/>
    <tag k="ref" v="A1307"/>
  </way>
  <way id="237312170" version="9" timestamp="2024-07-15T22:33:09Z" changeset="153991674" uid="21425661" user="CjMalone">
    <nd ref="30153033"/>
    <nd ref="30153030"/>
    <nd ref="7039647622"/>
    <nd ref="7039647623"/>
    <nd ref="7039647624"/>
    <nd ref="30153033"/>
    <tag k="addr:city" v="Cambridge"/>
    <tag k="addr:housenumber" v="106"/>
    <tag k="addr:postcode" v="CB21 4JT"/>
    <tag k="addr:street" v="High Street"/>
    <tag k="addr:village" v="Linton"/>
    <tag k="brand" v="The Co-operative Food"/>
    <tag k="brand:wikidata" v="Q107617274"/>
    <tag k="building" v="yes"/>
    <tag k="check_date" v="2024-07-15"/>
    <tag k="check_date:opening_hours" v="2024-07-15"/>
    <tag k="fhrs:id" v="596814"/>
    <tag k="name" v="The Co-operative Food"/>
    <tag k="opening_hours" v="Mo-Su 07:00-22:00"/>
    <tag k="operator" v="The Co-operative Group"/>
    <tag k="operator:wikidata" v="Q117202"/>
    <tag k="phone" v="+44 1223 891258"/>
    <tag k="shop" v="supermarket"/>
    <tag k="website" v="https://www.coop.co.uk/store-finder/CB21-4JT/106-high-street"/>
  </way>
  <way id="237312325" version="2" timestamp="2023-02-15T09:30:55Z" changeset="132572515" uid="84263" user="Robert Whittaker">
    <nd ref="2452333463"/>
    <nd ref="2452333465"/>
    <nd ref="2452333467"/>
    <nd ref="2452333469"/>
    <nd ref="2452333462"/>
    <nd ref="2452333463"/>
    <tag k="addr:housename" v="Granta Filling Station"/>
    <tag k="addr:postcode" v="CB21 4NL"/>
    <tag k="addr:street" v="Linton By-Pass"/>
    <tag k="brand" v="Mace"/>
    <tag k="brand:wikidata" v="Q75240338"/>
    <tag k="building" v="yes"/>
    <tag k="name" v="Mace"/>
    <tag k="shop" v="convenience"/>
  </way>
  <way id="254733283" version="3" timestamp="2025-02-20T22:08:36Z" changeset="162758881" uid="5229644" user="Nathan_A_RF">
    <nd ref="30152619"/>
    <nd ref="30152618"/>
    <tag k="highway" v="primary"/>
    <tag k="maxspeed" v="50 mph"/>
    <tag k="maxspeed:type" v="sign"/>
    <tag k="ref" v="A1307"/>
  </way>
  <way id="254733284" version="6" timestamp="2025-02-21T17:29:08Z" changeset="162790423" uid="5229644" user="Nathan_A_RF">
    <nd ref="30152618"/>
    <nd ref="30152830"/>
    <nd ref="30152828"/>
    <nd ref="30152829"/>
    <nd ref="29005366"/>
    <nd ref="11608662696"/>
    <nd ref="30152831"/>
    <tag k="highway" v="primary"/>
    <tag k="maxspeed" v="50 mph"/>
    <tag k="maxspeed:type" v="sign"/>
    <tag k="ref" v="A1307"/>
  </way>
  <way id="254733285" version="4" timestamp="2023-06-23T09:42:36Z" changeset="137680912" uid="242345" user="confusedbuffalo">
    <nd ref="28206783"/>
    <nd ref="612647292"/>
    <nd ref="612647294"/>
    <nd ref="612647296"/>
    <nd ref="612647298"/>
    <nd ref="430891020"/>
    <nd ref="612647829"/>
    <nd ref="30152271"/>
    <nd ref="612647833"/>
    <nd ref="612647835"/>
    <nd ref="30152272"/>
    <nd ref="612647837"/>
    <nd ref="612647839"/>
    <nd ref="612647842"/>
    <tag k="highway" v="secondary"/>
    <tag k="maxspeed" v="60 mph"/>
    <tag k="maxspeed:type" v="GB:nsl_single"/>
    <tag k="ref" v="B1052"/>
    <tag k="source" v="gps"/>
    <tag k="source:ref" v="local knowledge"/>
  </way>
  <way id="254733286" version="7" timestamp="2024-09-13T17:35:26Z" changeset="156582957" uid="344866" user="thewinduppirate">
    <nd ref="30152274"/>
    <nd ref="612648410"/>
    <nd ref="612648412"/>
    <nd ref="612648417"/>
    <nd ref="28206795"/>
    <nd ref="612648420"/>
    <nd ref="612649127"/>
    <nd ref="612649130"/>
    <nd ref="612649132"/>
    <nd ref="612649134"/>
    <nd ref="30152275"/>
    <nd ref="612649137"/>
    <nd ref="612649139"/>
    <nd ref="612649141"/>
    <nd ref="612649601"/>
    <nd ref="612649602"/>
    <nd ref="28206797"/>
    <nd ref="612649603"/>
    <nd ref="3666514012"/>
    <nd ref="612649605"/>
    <nd ref="612649608"/>
    <nd ref="612651657"/>
    <nd ref="3666514018"/>
    <nd ref="612651659"/>
    <nd ref="612651669"/>
    <nd ref="130926562"/>
    <nd ref="612651677"/>
    <nd ref="612651681"/>
    <nd ref="612651685"/>
    <nd ref="612651693"/>
    <nd ref="28206800"/>
    <nd ref="612651702"/>
    <nd ref="612651706"/>
    <nd ref="612651709"/>
    <nd ref="130926559"/>
    <nd ref="612651725"/>
    <nd ref="612652953"/>
    <nd ref="612652957"/>
    <nd ref="612652970"/>
    <nd ref="612652977"/>
    <nd ref="612652982"/>
    <nd ref="612653314"/>
    <nd ref="612653979"/>
    <nd ref="612653984"/>
    <nd ref="11209792133"/>
    <nd ref="612653991"/>
    <nd ref="612653994"/>
    <nd ref="28206805"/>
    <tag k="highway" v="secondary"/>
    <tag k="lanes" v="2"/>
    <tag k="maxspeed" v="60 mph"/>
    <tag k="maxspeed:type" v="GB:nsl_single"/>
    <tag k="ref" v="B1052"/>
    <tag k="source" v="gps"/>
    <tag k="source:ref" v="local knowledge"/>
    <tag k="surface" v="asphalt"/>
  </way>
  <way id="254733289" version="3" timestamp="2019-12-04T23:16:20Z" changeset="77963148" uid="5173844" user="ndrw6">
    <nd ref="1697742282"/>
    <nd ref="7001468246"/>
    <nd ref="30152369"/>
    <nd ref="7034652850"/>
    <nd ref="30152279"/>
    <tag k="abutters" v="residential"/>
    <tag k="highway" v="tertiary"/>
    <tag k="name" v="Back Road"/>
    <tag k="oneway" v="yes"/>
    <tag k="source:name" v="dictaphone"/>
  </way>
  <way id="254733305" version="5" timestamp="2023-03-29T03:09:27Z" changeset="134242670" uid="2836992" user="Picity">
    <nd ref="30152590"/>
    <nd ref="30152589"/>
    <nd ref="30152708"/>
    <nd ref="30152591"/>
    <tag k="abutters" v="residential"/>
    <tag k="highway" v="secondary"/>
    <tag k="lane_markings" v="no"/>
    <tag k="maxweight:hgv" v="7.5"/>
    <tag k="maxweight:hgv:conditional" v="none @ delivery"/>
    <tag k="name" v="High Street"/>
    <tag k="oneway" v="yes"/>
    <tag k="ref" v="B1052"/>
    <tag k="source:name" v="dictaphone"/>
    <tag k="surface" v="asphalt"/>
  </way>
  <way id="254733306" version="6" timestamp="2025-02-20T22:08:36Z" changeset="162758881" uid="5229644" user="Nathan_A_RF">
    <nd ref="30152620"/>
    <nd ref="30152625"/>
    <nd ref="1201419896"/>
    <nd ref="30152626"/>
    <nd ref="30152627"/>
    <nd ref="30152628"/>
    <nd ref="30152851"/>
    <nd ref="4906159664"/>
    <nd ref="6320219112"/>
    <nd ref="3632628692"/>
    <nd ref="30152629"/>
    <tag k="highway" v="unclassified"/>
    <tag k="maxspeed" v="60 mph"/>
    <tag k="maxspeed:type" v="GB:nsl_single"/>
    <tag k="name" v="Long Lane"/>
    <tag k="source:name" v="dictaphone"/>
  </way>
  <way id="254733309" version="2" timestamp="2016-10-20T17:03:05Z" changeset="43039336" uid="1287673" user="sloerunner">
    <nd ref="30152605"/>
    <nd ref="4456735884"/>
    <nd ref="30152604"/>
    <tag k="highway" v="residential"/>
    <tag k="name" v="Mill Lane"/>
    <tag k="source:name" v="dictaphone"/>
  </way>
  <way id="275798313" version="7" timestamp="2023-09-21T08:21:28Z" changeset="141546567" uid="37791" user="Fradeve11">
    <nd ref="2804681062"/>
    <nd ref="2804681019"/>
    <nd ref="30152981"/>
    <nd ref="2804680187"/>
    <nd ref="2804681017"/>
    <nd ref="2804681011"/>
    <nd ref="10012956092"/>
    <nd ref="2804681068"/>
    <nd ref="2804681008"/>
    <nd ref="2804680200"/>
    <nd ref="2804681027"/>
    <nd ref="2804680189"/>
    <nd ref="2804681062"/>
    <tag k="addr:postcode" v="CB21 4JX"/>
    <tag k="addr:street" v="Church Lane"/>
    <tag k="amenity" v="school"/>
    <tag k="capacity" v="180"/>
    <tag k="denomination" v="anglican"/>
    <tag k="diocese" v="Diocese of Ely"/>
    <tag k="isced:level" v="1"/>
    <tag k="max_age" v="7"/>
    <tag k="min_age" v="5"/>
    <tag k="name" v="Linton CofE Infant School"/>
    <tag k="phone" v="+44 1223 891421"/>
    <tag k="ref:GB:uprn" v="100091410672"/>
    <tag k="ref:edubase" v="110832"/>
    <tag k="religion" v="christian"/>
    <tag k="school:boarding" v="no"/>
    <tag k="school:gender" v="mixed"/>
    <tag k="school:selective" v="no"/>
    <tag k="school:trust" v="no"/>
    <tag k="school:type" v="voluntary_aided"/>
    <tag k="website" v="https://www.lintoninfants.com"/>
    <tag k="wikidata" v="Q66223655"/>
  </way>
  <way id="288938199" version="2" timestamp="2025-02-21T17:14:30Z" changeset="162789885" uid="5229644" user="Nathan_A_RF">
    <nd ref="2924912026"/>
    <nd ref="612663317"/>
    <nd ref="30152640"/>
    <nd ref="260210958"/>
    <nd ref="1697769909"/>
    <nd ref="1430757290"/>
    <tag k="highway" v="secondary"/>
    <tag k="maxspeed" v="60 mph"/>
    <tag k="maxspeed:type" v="GB:nsl_single"/>
    <tag k="maxweight" v="17.5"/>
    <tag k="name" v="Hadstock Road"/>
    <tag k="ref" v="B1052"/>
    <tag k="source" v="GPS"/>
    <tag k="source:name" v="dictaphone"/>
  </way>
  <way id="357945355" version="2" timestamp="2019-12-04T00:50:15Z" changeset="77904276" uid="5173844" user="ndrw6">
    <nd ref="3630211712"/>
    <nd ref="3630211711"/>
    <nd ref="3630211706"/>
    <nd ref="3630211717"/>
    <nd ref="3630211709"/>
    <nd ref="3630211707"/>
    <nd ref="3630211705"/>
    <nd ref="3630211708"/>
    <nd ref="3630211714"/>
    <nd ref="3630211716"/>
    <tag k="highway" v="residential"/>
  </way>
  <way id="478246644" version="2" timestamp="2023-01-28T00:30:39Z" changeset="131792931" uid="3999" user="BarryMyles">
    <nd ref="4714863143"/>
    <nd ref="4714863144"/>
    <nd ref="4714863145"/>
    <nd ref="4714863146"/>
    <nd ref="4714863143"/>
    <tag k="addr:city" v="Linton"/>
    <tag k="addr:postcode" v="CB21 4JF"/>
    <tag k="addr:street" v="Back Road"/>
    <tag k="building" v="yes"/>
    <tag k="name" v="Linton Telephone Exchange"/>
    <tag k="operator" v="Openreach"/>
    <tag k="operator:wikidata" v="Q7096543"/>
    <tag k="ref" v="EALNT"/>
    <tag k="telecom" v="exchange"/>
  </way>
  <way id="493537280" version="1" timestamp="2017-05-14T22:27:12Z" changeset="48685512" uid="705850" user="Cebderby">
    <nd ref="4854395795"/>
    <nd ref="4854395816"/>
    <nd ref="4854395793"/>
    <nd ref="4854395811"/>
    <nd ref="4854395813"/>
    <nd ref="4854395792"/>
    <nd ref="4854395804"/>
    <tag k="highway" v="residential"/>
    <tag k="name" v="Whyts Acre"/>
    <tag k="source" v="OS_OpenData_StreetView"/>
    <tag k="source:name" v="OS_OpenData_Locator"/>
  </way>
  <way id="493537281" version="1" timestamp="2017-05-14T22:27:12Z" changeset="48685512" uid="705850" user="Cebderby">
    <nd ref="4854395812"/>
    <nd ref="4854395816"/>
    <tag k="highway" v="residential"/>
    <tag k="name" v="Whyts Acre"/>
    <tag k="source" v="OS_OpenData_StreetView"/>
    <tag k="source:name" v="OS_OpenData_Locator"/>
  </way>
  <way id="493537282" version="1" timestamp="2017-05-14T22:27:13Z" changeset="48685512" uid="705850" user="Cebderby">
    <nd ref="4854395809"/>
    <nd ref="4854395804"/>
    <nd ref="4854395814"/>
    <nd ref="4854395808"/>
    <nd ref="4854395815"/>
    <nd ref="4854395810"/>
    <nd ref="30152374"/>
    <tag k="highway" v="residential"/>
    <tag k="name" v="Whyts Acre"/>
    <tag k="source" v="OS_OpenData_StreetView"/>
    <tag k="source:name" v="OS_OpenData_Locator"/>
  </way>
  <way id="498295753" version="1" timestamp="2017-06-05T13:37:37Z" changeset="49270903" uid="1287673" user="sloerunner">
    <nd ref="1196597981"/>
    <nd ref="30152672"/>
    <tag k="bicycle" v="yes"/>
    <tag k="designation" v="public_bridleway"/>
    <tag k="foot" v="designated"/>
    <tag k="highway" v="residential"/>
    <tag k="horse" v="designated"/>
    <tag k="prow_ref" v="Linton BR 7"/>
    <tag k="source:prow_ref" v="cambridgeshire_county_council_prow_gis_data"/>
  </way>
  <way id="503068860" version="2" timestamp="2019-12-04T23:16:20Z" changeset="77963148" uid="5173844" user="ndrw6">
    <nd ref="4934167957"/>
    <nd ref="4934167955"/>
    <tag k="highway" v="residential"/>
    <tag k="name" v="Keene Fields"/>
    <tag k="source" v="Bing"/>
    <tag k="source:name" v="OS_OpenData_StreetView"/>
  </way>
  <way id="503069365" version="2" timestamp="2019-12-07T00:12:28Z" changeset="78075694" uid="5173844" user="ndrw6">
    <nd ref="4934171491"/>
    <nd ref="30152514"/>
    <nd ref="4934171489"/>
    <tag k="highway" v="residential"/>
    <tag k="name" v="The Rookery"/>
    <tag k="source" v="DigitalGlobe imagery"/>
    <tag k="source:name" v="OS_OpenData_Locator"/>
  </way>
  <way id="506287922" version="1" timestamp="2017-07-09T20:46:12Z" changeset="50161466" uid="6121452" user="Toddington Tom">
    <nd ref="30152629"/>
    <nd ref="612661691"/>
    <nd ref="30152634"/>
    <tag k="highway" v="secondary"/>
    <tag k="maxspeed" v="30 mph"/>
    <tag k="name" v="The Grip"/>
    <tag k="ref" v="B1052"/>
    <tag k="source:name" v="dictaphone"/>
  </way>
  <way id="506287927" version="2" timestamp="2018-09-22T18:28:06Z" changeset="62833309" uid="5723859" user="Village90">
    <nd ref="30152570"/>
    <nd ref="30152569"/>
    <tag k="abutters" v="residential"/>
    <tag k="highway" v="secondary"/>
    <tag k="maxspeed" v="30 mph"/>
    <tag k="name" v="High Street"/>
    <tag k="ref" v="B1052"/>
    <tag k="source:name" v="dictaphone"/>
    <tag k="surface" v="asphalt"/>
  </way>
  <way id="506287935" version="2" timestamp="2021-04-20T23:44:54Z" changeset="103298727" uid="9641456" user="rababdul">
    <nd ref="4960546824"/>
    <nd ref="8649160537"/>
    <nd ref="30152428"/>
    <nd ref="30152430"/>
    <nd ref="30152702"/>
    <nd ref="3650406633"/>
    <nd ref="3650406631"/>
    <nd ref="4897470609"/>
    <nd ref="30152703"/>
    <tag k="highway" v="residential"/>
    <tag k="name" v="Symonds Lane"/>
    <tag k="source:name" v="dictaphone"/>
  </way>
  <way id="506287938" version="1" timestamp="2017-07-09T20:46:12Z" changeset="50161466" uid="6121452" user="Toddington Tom">
    <nd ref="30152558"/>
    <nd ref="30152554"/>
    <nd ref="30152555"/>
    <nd ref="30152556"/>
    <nd ref="30152557"/>
    <tag k="highway" v="residential"/>
    <tag k="name" v="Crabtree Croft"/>
    <tag k="source:name" v="dictaphone"/>
  </way>
  <way id="506287940" version="1" timestamp="2017-07-09T20:46:12Z" changeset="50161466" uid="6121452" user="Toddington Tom">
    <nd ref="30152420"/>
    <nd ref="30152546"/>
    <tag k="highway" v="residential"/>
    <tag k="name" v="Back Road"/>
    <tag k="source:name" v="dictaphone"/>
  </way>
  <way id="506287943" version="6" timestamp="2024-09-13T17:12:26Z" changeset="156582157" uid="344866" user="thewinduppirate">
    <nd ref="30152546"/>
    <nd ref="7284720367"/>
    <nd ref="30152547"/>
    <nd ref="4854395796"/>
    <nd ref="30152560"/>
    <nd ref="30152561"/>
    <nd ref="30152374"/>
    <nd ref="3630213379"/>
    <nd ref="8259203544"/>
    <nd ref="30152375"/>
    <nd ref="8259203523"/>
    <nd ref="30152376"/>
    <nd ref="30152377"/>
    <tag k="highway" v="residential"/>
    <tag k="name" v="Back Road"/>
    <tag k="source:name" v="dictaphone"/>
    <tag k="surface" v="asphalt"/>
  </way>
  <way id="506288505" version="3" timestamp="2024-09-13T17:31:24Z" changeset="156582157" uid="344866" user="thewinduppirate">
    <nd ref="612647842"/>
    <nd ref="612648073"/>
    <nd ref="612648075"/>
    <nd ref="612648077"/>
    <nd ref="30152273"/>
    <nd ref="30152274"/>
    <tag k="highway" v="secondary"/>
    <tag k="maxspeed" v="60 mph"/>
    <tag k="maxspeed:type" v="GB:nsl_single"/>
    <tag k="ref" v="B1052"/>
    <tag k="source" v="gps"/>
    <tag k="source:ref" v="local knowledge"/>
    <tag k="surface" v="asphalt"/>
  </way>
  <way id="611971235" version="4" timestamp="2024-01-21T12:30:33Z" changeset="146510829" uid="2836992" user="Picity">
    <nd ref="5793527716"/>
    <nd ref="30152636"/>
    <nd ref="7039647332"/>
    <nd ref="1270244043"/>
    <nd ref="9053249922"/>
    <nd ref="30152635"/>
    <nd ref="2924912026"/>
    <tag k="highway" v="secondary"/>
    <tag k="maxspeed" v="30 mph"/>
    <tag k="maxweight" v="17.5"/>
    <tag k="name" v="Hadstock Road"/>
    <tag k="ref" v="B1052"/>
    <tag k="source" v="GPS"/>
    <tag k="source:name" v="dictaphone"/>
    <tag k="surface" v="asphalt"/>
  </way>
  <way id="626619727" version="4" timestamp="2023-10-10T15:31:22Z" changeset="142399098" uid="37791" user="Fradeve11">
    <nd ref="2452228380"/>
    <nd ref="30152538"/>
    <nd ref="1270244441"/>
    <nd ref="30152537"/>
    <nd ref="30152545"/>
    <nd ref="2452228612"/>
    <nd ref="2347363694"/>
    <nd ref="30152543"/>
    <nd ref="30152526"/>
    <nd ref="30152542"/>
    <nd ref="30152541"/>
    <nd ref="30152540"/>
    <nd ref="30152539"/>
    <nd ref="1270244192"/>
    <nd ref="1270244775"/>
    <nd ref="5915736523"/>
    <nd ref="5915736521"/>
    <nd ref="5915736528"/>
    <nd ref="5915736524"/>
    <nd ref="5915736525"/>
    <nd ref="5915736526"/>
    <nd ref="5915736527"/>
    <nd ref="5915736529"/>
    <nd ref="5915736530"/>
    <nd ref="5915736531"/>
    <nd ref="5915736520"/>
    <nd ref="5915736522"/>
    <nd ref="2452228380"/>
    <tag k="addr:postcode" v="CB21 4JB"/>
    <tag k="addr:street" v="Cambridge Road"/>
    <tag k="amenity" v="school"/>
    <tag k="capacity" v="918"/>
    <tag k="isced:level" v="2"/>
    <tag k="max_age" v="16"/>
    <tag k="min_age" v="11"/>
    <tag k="name" v="Linton Village College"/>
    <tag k="phone" v="+44 1223 891233"/>
    <tag k="ref:GB:uprn" v="100091410749"/>
    <tag k="ref:edubase" v="136442"/>
    <tag k="ref:edubase:group" v="16031"/>
    <tag k="school:trust" v="yes"/>
    <tag k="school:trust:name" v="Anglian Learning"/>
    <tag k="school:trust:type" v="multi_academy"/>
    <tag k="school:type" v="academy"/>
    <tag k="website" v="https://www.lvc.org/"/>
    <tag k="wikidata" v="Q6554925"/>
  </way>
  <way id="639199027" version="1" timestamp="2018-10-29T21:54:05Z" changeset="63992855" uid="5173844" user="ndrw6">
    <nd ref="6023457968"/>
    <nd ref="6023457967"/>
    <tag k="highway" v="residential"/>
  </way>
  <way id="639199028" version="1" timestamp="2018-10-29T21:54:05Z" changeset="63992855" uid="5173844" user="ndrw6">
    <nd ref="6023457970"/>
    <nd ref="6023457969"/>
    <tag k="highway" v="residential"/>
  </way>
  <way id="674870145" version="2" timestamp="2021-04-20T15:19:35Z" changeset="103280663" uid="281267" user="smb1001">
    <nd ref="6320219112"/>
    <nd ref="6320219113"/>
    <nd ref="6320219114"/>
    <nd ref="6320219115"/>
    <nd ref="8647885290"/>
    <nd ref="8647885296"/>
    <tag k="highway" v="residential"/>
  </way>
  <way id="674870146" version="1" timestamp="2019-03-06T06:54:57Z" changeset="67832653" uid="8446894" user="kararcha">
    <nd ref="6320219117"/>
    <nd ref="6320219118"/>
    <nd ref="6320219119"/>
    <tag k="highway" v="residential"/>
  </way>
  <way id="688152274" version="1" timestamp="2019-05-06T13:05:43Z" changeset="69935621" uid="8683362" user="riteshaw">
    <nd ref="6452016829"/>
    <nd ref="6452016832"/>
    <nd ref="6452016831"/>
    <tag k="highway" v="residential"/>
  </way>
  <way id="705363417" version="2" timestamp="2019-12-07T00:12:28Z" changeset="78075694" uid="5173844" user="ndrw6">
    <nd ref="6626963144"/>
    <nd ref="6626963145"/>
    <nd ref="6626963146"/>
    <nd ref="6626963147"/>
    <nd ref="6626963148"/>
    <nd ref="6626963149"/>
    <nd ref="6626963152"/>
    <nd ref="6626963150"/>
    <nd ref="6626963151"/>
    <tag k="highway" v="residential"/>
  </way>
  <way id="711989789" version="2" timestamp="2019-12-07T00:12:28Z" changeset="78075694" uid="5173844" user="ndrw6">
    <nd ref="6694550899"/>
    <nd ref="6694550900"/>
    <nd ref="6694550901"/>
    <nd ref="6694550902"/>
    <nd ref="6694550903"/>
    <nd ref="6694550904"/>
    <nd ref="6694550905"/>
    <nd ref="6694550906"/>
    <nd ref="6694550907"/>
    <tag k="highway" v="residential"/>
  </way>
  <way id="713600583" version="2" timestamp="2019-12-07T00:12:28Z" changeset="78075694" uid="5173844" user="ndrw6">
    <nd ref="6709406793"/>
    <nd ref="6709406794"/>
    <nd ref="6709406795"/>
    <nd ref="6709406796"/>
    <nd ref="6709406797"/>
    <nd ref="6709406798"/>
    <nd ref="6709406799"/>
    <nd ref="6709406800"/>
    <nd ref="6709406801"/>
    <tag k="highway" v="residential"/>
    <tag k="name" v="Green Lane"/>
    <tag k="source:name" v="dictaphone"/>
  </way>
  <way id="743218309" version="2" timestamp="2019-12-06T20:49:18Z" changeset="78071845" uid="5173844" user="ndrw6">
    <nd ref="7039424861"/>
    <nd ref="30152796"/>
    <nd ref="6956867295"/>
    <nd ref="6956867296"/>
    <nd ref="6956867297"/>
    <nd ref="6956867298"/>
    <tag k="highway" v="residential"/>
    <tag k="name" v="Lonsdale"/>
    <tag k="source:name" v="dictaphone"/>
  </way>
  <way id="752080419" version="1" timestamp="2019-12-04T00:50:15Z" changeset="77904276" uid="5173844" user="ndrw6">
    <nd ref="3650406651"/>
    <nd ref="3650406641"/>
    <nd ref="30152473"/>
    <nd ref="30152474"/>
    <tag k="highway" v="residential"/>
    <tag k="name" v="Granta Leys"/>
    <tag k="source:name" v="dictaphone"/>
  </way>
  <way id="752080473" version="2" timestamp="2021-02-25T08:33:22Z" changeset="99959291" uid="12732024" user="Daviddcamb">
    <nd ref="7030278594"/>
    <nd ref="7030278593"/>
    <nd ref="7030278592"/>
    <nd ref="7030278591"/>
    <nd ref="7030278594"/>
    <tag k="addr:city" v="Linton"/>
    <tag k="addr:housename" v="The Rectory"/>
    <tag k="addr:housenumber" v="5"/>
    <tag k="addr:postcode" v="CB21 4JX"/>
    <tag k="addr:street" v="Church Lane"/>
    <tag k="building" v="yes"/>
    <tag k="building:levels" v="2"/>
  </way>
  <way id="752080499" version="2" timestamp="2024-07-07T12:29:38Z" changeset="153660011" uid="493595" user="Yorvik Prestigitator">
    <nd ref="7030278725"/>
    <nd ref="7030278722"/>
    <nd ref="30152989"/>
    <nd ref="7030278723"/>
    <nd ref="7030278724"/>
    <nd ref="7030278725"/>
    <tag k="addr:street" v="Coles Lane"/>
    <tag k="amenity" v="community_centre"/>
    <tag k="building" v="public"/>
    <tag k="community_centre" v="village_hall"/>
    <tag k="name" v="Linton Village Hall"/>
  </way>
  <way id="752853290" version="1" timestamp="2019-12-04T23:16:20Z" changeset="77963148" uid="5173844" user="ndrw6">
    <nd ref="30152348"/>
    <nd ref="7034604526"/>
    <nd ref="30152349"/>
    <tag k="highway" v="residential"/>
    <tag k="name" v="Parsonage Way"/>
    <tag k="source:name" v="dictaphone"/>
  </way>
  <way id="752853291" version="1" timestamp="2019-12-04T23:16:20Z" changeset="77963148" uid="5173844" user="ndrw6">
    <nd ref="7034604529"/>
    <nd ref="30152333"/>
    <nd ref="7034604528"/>
    <tag k="highway" v="residential"/>
    <tag k="name" v="Clover Court"/>
    <tag k="source:name" v="dictaphone"/>
  </way>
  <way id="752853354" version="1" timestamp="2019-12-04T23:16:20Z" changeset="77963148" uid="5173844" user="ndrw6">
    <nd ref="7034652501"/>
    <nd ref="7034652500"/>
    <tag k="highway" v="residential"/>
    <tag k="name" v="Millers Close"/>
    <tag k="source:name" v="dictaphone"/>
  </way>
  <way id="752853384" version="1" timestamp="2019-12-04T23:16:20Z" changeset="77963148" uid="5173844" user="ndrw6">
    <nd ref="7034652631"/>
    <nd ref="7034652630"/>
    <tag k="highway" v="residential"/>
    <tag k="name" v="Wheatcroft"/>
    <tag k="source:name" v="dictaphone"/>
  </way>
  <way id="752853401" version="1" timestamp="2019-12-04T23:16:20Z" changeset="77963148" uid="5173844" user="ndrw6">
    <nd ref="30152334"/>
    <nd ref="30152335"/>
    <nd ref="30152336"/>
    <tag k="highway" v="residential"/>
    <tag k="name" v="Barley Way"/>
    <tag k="source:name" v="dictaphone"/>
  </way>
  <way id="752853409" version="1" timestamp="2019-12-04T23:16:20Z" changeset="77963148" uid="5173844" user="ndrw6">
    <nd ref="3629521046"/>
    <nd ref="7034652735"/>
    <nd ref="7034652734"/>
    <tag k="highway" v="residential"/>
  </way>
  <way id="753410886" version="1" timestamp="2019-12-06T20:49:18Z" changeset="78071845" uid="5173844" user="ndrw6">
    <nd ref="7039424860"/>
    <nd ref="6956867298"/>
    <nd ref="7039424859"/>
    <tag k="highway" v="residential"/>
    <tag k="name" v="Lonsdale"/>
    <tag k="source:name" v="dictaphone"/>
  </way>
  <way id="753410887" version="1" timestamp="2019-12-06T20:49:18Z" changeset="78071845" uid="5173844" user="ndrw6">
    <nd ref="7039424864"/>
    <nd ref="30152811"/>
    <nd ref="7039424863"/>
    <tag k="highway" v="residential"/>
    <tag k="name" v="The Ridgeway"/>
    <tag k="source:name" v="dictaphone"/>
  </way>
  <way id="753410888" version="1" timestamp="2019-12-06T20:49:18Z" changeset="78071845" uid="5173844" user="ndrw6">
    <nd ref="7039424865"/>
    <nd ref="7039424868"/>
    <nd ref="3632635271"/>
    <nd ref="7039424867"/>
    <nd ref="7039424866"/>
    <tag k="highway" v="residential"/>
    <tag k="name" v="Harefield Rise"/>
    <tag k="source:name" v="dictaphone"/>
  </way>
  <way id="753410889" version="1" timestamp="2019-12-06T20:49:18Z" changeset="78071845" uid="5173844" user="ndrw6">
    <nd ref="3632635283"/>
    <nd ref="7039424869"/>
    <tag k="highway" v="residential"/>
    <tag k="name" v="Harefield Rise"/>
    <tag k="source:name" v="dictaphone"/>
  </way>
  <way id="753410981" version="1" timestamp="2019-12-06T20:49:18Z" changeset="78071845" uid="5173844" user="ndrw6">
    <nd ref="1905267833"/>
    <nd ref="7039428843"/>
    <nd ref="7039428841"/>
    <tag k="highway" v="residential"/>
    <tag k="name" v="Brinkman Road"/>
    <tag k="source:name" v="dictaphone"/>
  </way>
  <way id="753410995" version="1" timestamp="2019-12-06T20:49:18Z" changeset="78071845" uid="5173844" user="ndrw6">
    <nd ref="7039428912"/>
    <nd ref="7039428911"/>
    <nd ref="7039428910"/>
    <nd ref="7039428909"/>
    <tag k="highway" v="residential"/>
  </way>
  <way id="753411034" version="1" timestamp="2019-12-06T20:49:18Z" changeset="78071845" uid="5173844" user="ndrw6">
    <nd ref="7039429072"/>
    <nd ref="6023457967"/>
    <nd ref="7039429071"/>
    <tag k="highway" v="residential"/>
  </way>
  <way id="753437987" version="2" timestamp="2020-04-14T15:44:34Z" changeset="83543881" uid="11027533" user="StreetFan">
    <nd ref="30152494"/>
    <nd ref="7039646361"/>
    <nd ref="7039646359"/>
    <nd ref="30152495"/>
    <tag k="access" v="private"/>
    <tag k="highway" v="residential"/>
    <tag k="name" v="Dovehouse Close"/>
    <tag k="source:name" v="dictaphone"/>
  </way>
  <way id="753437992" version="5" timestamp="2024-01-21T11:54:51Z" changeset="146508258" uid="2836992" user="Picity">
    <nd ref="10012956498"/>
    <nd ref="7039646387"/>
    <nd ref="7039646386"/>
    <nd ref="7039646388"/>
    <nd ref="10012956499"/>
    <nd ref="10012956498"/>
    <tag k="addr:housenumber" v="17"/>
    <tag k="addr:street" v="Dovehouse Close"/>
    <tag k="building" v="terrace"/>
  </way>
  <way id="753438012" version="2" timestamp="2020-04-14T13:27:04Z" changeset="83537665" uid="11027533" user="StreetFan">
    <nd ref="7039646510"/>
    <nd ref="7039646509"/>
    <tag k="highway" v="residential"/>
    <tag k="name" v="Holttums Yard"/>
    <tag k="source:name" v="dictaphone"/>
    <tag k="surface" v="asphalt"/>
  </way>
  <way id="753438084" version="2" timestamp="2025-04-01T10:02:05Z" changeset="164366948" uid="20475686" user="Dan200">
    <nd ref="7039646904"/>
    <nd ref="7039646903"/>
    <nd ref="7039646902"/>
    <tag k="highway" v="residential"/>
    <tag k="surface" v="gravel"/>
  </way>
  <way id="753438090" version="1" timestamp="2019-12-07T00:12:28Z" changeset="78075694" uid="5173844" user="ndrw6">
    <nd ref="7039646941"/>
    <nd ref="7039646940"/>
    <nd ref="7039646939"/>
    <nd ref="7039646938"/>
    <nd ref="7039646936"/>
    <nd ref="7039646937"/>
    <tag k="highway" v="residential"/>
  </way>
  <way id="753438210" version="1" timestamp="2019-12-07T00:12:28Z" changeset="78075694" uid="5173844" user="ndrw6">
    <nd ref="7039647612"/>
    <nd ref="7039647611"/>
    <tag k="highway" v="residential"/>
    <tag k="name" v="Beech Way"/>
    <tag k="source:name" v="dictaphone"/>
  </way>
  <way id="753438291" version="1" timestamp="2019-12-07T00:12:28Z" changeset="78075694" uid="5173844" user="ndrw6">
    <nd ref="7039648020"/>
    <nd ref="30152767"/>
    <nd ref="7039648019"/>
    <tag k="highway" v="residential"/>
    <tag k="name" v="Fincham's Close"/>
    <tag k="source:name" v="dictaphone"/>
  </way>
  <way id="753438348" version="1" timestamp="2019-12-07T00:12:28Z" changeset="78075694" uid="5173844" user="ndrw6">
    <nd ref="30152779"/>
    <nd ref="7039648255"/>
    <tag k="highway" v="residential"/>
    <tag k="name" v="Fincham's Close"/>
    <tag k="source:name" v="dictaphone"/>
  </way>
  <way id="753438352" version="1" timestamp="2019-12-07T00:12:28Z" changeset="78075694" uid="5173844" user="ndrw6">
    <nd ref="7039629783"/>
    <nd ref="3632635267"/>
    <nd ref="7039629782"/>
    <tag k="highway" v="residential"/>
    <tag k="name" v="Emson's Close"/>
    <tag k="source:name" v="dictaphone"/>
  </way>
  <way id="753438353" version="1" timestamp="2019-12-07T00:12:28Z" changeset="78075694" uid="5173844" user="ndrw6">
    <nd ref="7039648285"/>
    <nd ref="3632635280"/>
    <nd ref="7039629784"/>
    <tag k="highway" v="residential"/>
    <tag k="name" v="Emson's Close"/>
    <tag k="source:name" v="dictaphone"/>
  </way>
  <way id="753438377" version="1" timestamp="2019-12-07T00:12:28Z" changeset="78075694" uid="5173844" user="ndrw6">
    <nd ref="7039648401"/>
    <nd ref="7039648400"/>
    <tag k="highway" v="residential"/>
    <tag k="name" v="Lonsdale"/>
    <tag k="source:name" v="dictaphone"/>
  </way>
  <way id="753438378" version="1" timestamp="2019-12-07T00:12:28Z" changeset="78075694" uid="5173844" user="ndrw6">
    <nd ref="6023457894"/>
    <nd ref="7039648405"/>
    <nd ref="7039648404"/>
    <nd ref="7039648403"/>
    <tag k="highway" v="residential"/>
    <tag k="name" v="Lonsdale"/>
    <tag k="source:name" v="dictaphone"/>
  </way>
  <way id="753438387" version="1" timestamp="2019-12-07T00:12:28Z" changeset="78075694" uid="5173844" user="ndrw6">
    <nd ref="7039648455"/>
    <nd ref="7039648454"/>
    <nd ref="7039648453"/>
    <nd ref="7039648452"/>
    <tag k="highway" v="residential"/>
    <tag k="name" v="Lonsdale"/>
    <tag k="source:name" v="dictaphone"/>
  </way>
  <way id="791803938" version="2" timestamp="2024-01-21T12:28:28Z" changeset="146510768" uid="2836992" user="Picity">
    <nd ref="30152492"/>
    <nd ref="30152491"/>
    <tag k="designation" v="public_footpath"/>
    <tag k="foot" v="designated"/>
    <tag k="highway" v="residential"/>
    <tag k="motor_vehicle" v="no"/>
    <tag k="name" v="Essex Gardens"/>
    <tag k="prow_ref" v="Linton FP 3"/>
    <tag k="source:name" v="dictaphone"/>
    <tag k="source:prow_ref" v="cambridgeshire_county_council_prow_gis_data"/>
  </way>
  <way id="830156453" version="3" timestamp="2025-02-20T22:08:36Z" changeset="162758881" uid="5229644" user="Nathan_A_RF">
    <nd ref="30152631"/>
    <nd ref="29005365"/>
    <tag k="highway" v="primary"/>
    <tag k="maxspeed" v="40 mph"/>
    <tag k="maxspeed:type" v="sign"/>
    <tag k="ref" v="A1307"/>
    <tag k="surface" v="asphalt"/>
  </way>
  <way id="913805995" version="2" timestamp="2022-02-20T22:14:52Z" changeset="117656759" uid="242345" user="confusedbuffalo">
    <nd ref="2804681048"/>
    <nd ref="2804681020"/>
    <nd ref="2804681006"/>
    <nd ref="2804681063"/>
    <nd ref="2804681058"/>
    <nd ref="2804681053"/>
    <nd ref="2804681059"/>
    <nd ref="2804680199"/>
    <nd ref="2804681040"/>
    <nd ref="2804681044"/>
    <nd ref="2804681007"/>
    <nd ref="2804681038"/>
    <nd ref="2804681018"/>
    <nd ref="2804681033"/>
    <nd ref="2804681048"/>
    <tag k="addr:city" v="Linton"/>
    <tag k="addr:county" v="Cambridgeshire"/>
    <tag k="addr:postcode" v="CB21 4XB"/>
    <tag k="addr:street" v="Wheatsheaf Way"/>
    <tag k="building" v="yes"/>
    <tag k="building:levels" v="1"/>
    <tag k="description" v="Linton Heights Junior School"/>
    <tag k="name" v="Linton Heights Junior School"/>
  </way>
  <way id="1086562017" version="2" timestamp="2025-02-21T17:29:08Z" changeset="162790423" uid="5229644" user="Nathan_A_RF">
    <nd ref="35717098"/>
    <nd ref="35717099"/>
    <nd ref="1783876678"/>
    <nd ref="35717100"/>
    <nd ref="35717101"/>
    <nd ref="1783876587"/>
    <nd ref="35717102"/>
    <nd ref="35717103"/>
    <nd ref="35717104"/>
    <nd ref="35717105"/>
    <nd ref="35717106"/>
    <nd ref="12607429700"/>
    <nd ref="29005369"/>
    <tag k="dual_carriageway" v="yes"/>
    <tag k="highway" v="primary"/>
    <tag k="maxspeed" v="70 mph"/>
    <tag k="maxspeed:type" v="GB:nsl_dual"/>
    <tag k="name" v="Horseheath Road"/>
    <tag k="oneway" v="yes"/>
    <tag k="ref" v="A1307"/>
    <tag k="source" v="gps survey"/>
  </way>
  <way id="1086562018" version="4" timestamp="2025-02-21T17:29:08Z" changeset="162790423" uid="5229644" user="Nathan_A_RF">
    <nd ref="29005368"/>
    <nd ref="35714611"/>
    <nd ref="35714614"/>
    <nd ref="12607442705"/>
    <tag k="highway" v="primary"/>
    <tag k="maxspeed" v="50 mph"/>
    <tag k="maxspeed:type" v="sign"/>
    <tag k="name" v="Horseheath Road"/>
    <tag k="ref" v="A1307"/>
  </way>
  <way id="1086562019" version="2" timestamp="2025-02-21T17:29:08Z" changeset="162790423" uid="5229644" user="Nathan_A_RF">
    <nd ref="9955983636"/>
    <nd ref="9955983637"/>
    <nd ref="9955983638"/>
    <nd ref="9955983639"/>
    <nd ref="9955983640"/>
    <nd ref="1783876699"/>
    <tag k="highway" v="tertiary_link"/>
    <tag k="maxspeed" v="60 mph"/>
    <tag k="maxspeed:type" v="GB:nsl_single"/>
    <tag k="oneway" v="yes"/>
  </way>
  <way id="1086562020" version="1" timestamp="2022-08-16T01:37:01Z" changeset="124949692" uid="13341565" user="Falsernet">
    <nd ref="9955983642"/>
    <nd ref="9955983643"/>
    <nd ref="9955983644"/>
    <nd ref="9955983645"/>
    <nd ref="9955983646"/>
    <nd ref="9955983647"/>
    <nd ref="9955983648"/>
    <nd ref="9955983649"/>
    <nd ref="9955983650"/>
    <nd ref="9955983651"/>
    <nd ref="1783876736"/>
    <tag k="highway" v="tertiary_link"/>
    <tag k="oneway" v="yes"/>
  </way>
  <way id="1093321517" version="1" timestamp="2022-09-10T09:58:44Z" changeset="126008732" uid="5173844" user="ndrw6">
    <nd ref="10012955747"/>
    <nd ref="3630213378"/>
    <nd ref="10012955746"/>
    <tag k="highway" v="residential"/>
    <tag k="name" v="The Furrells"/>
    <tag k="source:name" v="dictaphone"/>
  </way>
  <way id="1093321606" version="4" timestamp="2024-01-21T11:44:32Z" changeset="146508258" uid="2836992" user="Picity">
    <nd ref="10012956497"/>
    <nd ref="7039646389"/>
    <nd ref="7039646390"/>
    <nd ref="10012956496"/>
    <nd ref="10012956497"/>
    <tag k="addr:housenumber" v="15"/>
    <tag k="addr:street" v="Dovehouse Close"/>
    <tag k="building" v="terrace"/>
  </way>
  <way id="1093321607" version="4" timestamp="2024-01-21T11:54:49Z" changeset="146508258" uid="2836992" user="Picity">
    <nd ref="10012956496"/>
    <nd ref="10012956498"/>
    <nd ref="10012956499"/>
    <nd ref="10012956497"/>
    <nd ref="10012956496"/>
    <tag k="addr:housenumber" v="16"/>
    <tag k="addr:street" v="Dovehouse Close"/>
    <tag k="building" v="terrace"/>
  </way>
  <way id="1128211292" version="2" timestamp="2024-01-21T11:36:34Z" changeset="146509065" uid="2836992" user="Picity">
    <nd ref="30164699"/>
    <nd ref="2330052226"/>
    <nd ref="2330052228"/>
    <nd ref="30164698"/>
    <nd ref="2330052236"/>
    <nd ref="30164700"/>
    <nd ref="2330052224"/>
    <tag k="highway" v="tertiary"/>
    <tag k="maxspeed" v="40 mph"/>
    <tag k="name" v="Bartlow Road"/>
    <tag k="source" v="gps"/>
    <tag k="surface" v="asphalt"/>
  </way>
  <way id="1128211294" version="1" timestamp="2023-01-08T12:16:09Z" changeset="131010124" uid="1436106" user="m_chelmsford">
    <nd ref="2330052224"/>
    <nd ref="30164701"/>
    <tag k="highway" v="tertiary"/>
    <tag k="maxspeed" v="30 mph"/>
    <tag k="name" v="Bartlow Road"/>
    <tag k="source" v="gps"/>
  </way>
  <way id="1181214448" version="2" timestamp="2023-09-22T09:18:38Z" changeset="141595239" uid="11798709" user="bavini">
    <nd ref="10969844400"/>
    <nd ref="10969844395"/>
    <nd ref="10969832998"/>
    <nd ref="10969844394"/>
    <tag k="highway" v="residential"/>
    <tag k="maxspeed" v="20 mph"/>
    <tag k="name" v="Barrows Way"/>
    <tag k="oneway" v="no"/>
  </way>
  <way id="1181214492" version="1" timestamp="2023-06-11T21:43:32Z" changeset="137220826" uid="5173844" user="ndrw6">
    <nd ref="10969844402"/>
    <nd ref="10969844381"/>
    <nd ref="10969844380"/>
    <nd ref="10969844379"/>
    <tag k="highway" v="residential"/>
    <tag k="name" v="Michaelotts"/>
  </way>
  <way id="1181214493" version="1" timestamp="2023-06-11T21:43:32Z" changeset="137220826" uid="5173844" user="ndrw6">
    <nd ref="10969844404"/>
    <nd ref="10969844383"/>
    <nd ref="10969844382"/>
    <tag k="highway" v="residential"/>
    <tag k="name" v="Michaelotts"/>
  </way>
  <way id="1181214494" version="2" timestamp="2024-02-08T05:15:44Z" changeset="147201363" uid="5173844" user="ndrw6">
    <nd ref="10969844387"/>
    <nd ref="11597367364"/>
    <nd ref="10969844386"/>
    <nd ref="10969844406"/>
    <nd ref="10969844385"/>
    <nd ref="10969844384"/>
    <tag k="highway" v="residential"/>
    <tag k="name" v="Michaelotts"/>
  </way>
  <way id="1181214495" version="2" timestamp="2023-09-22T09:16:27Z" changeset="141595150" uid="11798709" user="bavini">
    <nd ref="10969832998"/>
    <nd ref="10969844393"/>
    <nd ref="10969844392"/>
    <nd ref="10969844391"/>
    <nd ref="10969844390"/>
    <nd ref="10969844389"/>
    <nd ref="10969844388"/>
    <nd ref="10969844397"/>
    <tag k="highway" v="residential"/>
    <tag k="maxspeed" v="20 mph"/>
    <tag k="name" v="Spur Road"/>
    <tag k="oneway" v="no"/>
    <tag k="surface" v="block"/>
  </way>
  <way id="1181214496" version="2" timestamp="2023-09-22T09:14:48Z" changeset="141595067" uid="11798709" user="bavini">
    <nd ref="10969844407"/>
    <nd ref="10969844406"/>
    <nd ref="10969844405"/>
    <nd ref="10969844404"/>
    <nd ref="10969844403"/>
    <nd ref="10969844402"/>
    <nd ref="10969844401"/>
    <nd ref="10969844400"/>
    <nd ref="10969844399"/>
    <nd ref="10969844214"/>
    <nd ref="10969844398"/>
    <nd ref="10969844397"/>
    <nd ref="10969844396"/>
    <tag k="highway" v="residential"/>
    <tag k="maxspeed" v="20 mph"/>
    <tag k="name" v="Michaelotts"/>
    <tag k="oneway" v="no"/>
  </way>
  <way id="1235798312" version="1" timestamp="2023-12-31T11:10:52Z" changeset="145727978" uid="242345" user="confusedbuffalo">
    <nd ref="11472716636"/>
    <nd ref="11472716635"/>
    <nd ref="11472716634"/>
    <nd ref="11472716633"/>
    <nd ref="11472716632"/>
    <nd ref="11472716631"/>
    <nd ref="11472716630"/>
    <nd ref="11472716629"/>
    <nd ref="11472716628"/>
    <tag k="highway" v="residential"/>
    <tag k="name" v="Cedar Close"/>
    <tag k="postal_code" v="CB21 4AW"/>
  </way>
  <way id="1251427920" version="3" timestamp="2025-02-20T22:08:36Z" changeset="162758881" uid="5229644" user="Nathan_A_RF">
    <nd ref="12605322408"/>
    <nd ref="11633135268"/>
    <nd ref="11633136369"/>
    <nd ref="12605253599"/>
    <nd ref="11633136370"/>
    <nd ref="12605253600"/>
    <nd ref="11633136371"/>
    <nd ref="11633136372"/>
    <nd ref="11633450364"/>
    <nd ref="12605322401"/>
    <nd ref="11633525791"/>
    <nd ref="12605322402"/>
    <nd ref="11633136373"/>
    <nd ref="11633525806"/>
    <nd ref="12605322403"/>
    <nd ref="12605322404"/>
    <nd ref="11633136375"/>
    <nd ref="12605322405"/>
    <nd ref="11633136376"/>
    <nd ref="11633136377"/>
    <nd ref="12605322406"/>
    <nd ref="12605322407"/>
    <nd ref="11633136378"/>
    <nd ref="12605322408"/>
    <tag k="highway" v="primary"/>
    <tag k="junction" v="roundabout"/>
  </way>
  <way id="1251463653" version="2" timestamp="2025-02-21T17:29:08Z" changeset="162790423" uid="5229644" user="Nathan_A_RF">
    <nd ref="11633525789"/>
    <nd ref="11633525799"/>
    <nd ref="11633525774"/>
    <nd ref="11633136373"/>
    <tag k="highway" v="tertiary"/>
    <tag k="lanes" v="1"/>
    <tag k="maxspeed" v="60 mph"/>
    <tag k="maxspeed:type" v="GB:nsl_single"/>
    <tag k="name" v="Bartlow Road"/>
    <tag k="oneway" v="yes"/>
    <tag k="source" v="gps"/>
    <tag k="surface" v="asphalt"/>
  </way>
  <way id="1251463654" version="2" timestamp="2025-02-21T17:29:08Z" changeset="162790423" uid="5229644" user="Nathan_A_RF">
    <nd ref="11633525791"/>
    <nd ref="11633525790"/>
    <nd ref="11633525789"/>
    <tag k="highway" v="tertiary"/>
    <tag k="lanes" v="1"/>
    <tag k="maxspeed" v="60 mph"/>
    <tag k="maxspeed:type" v="GB:nsl_single"/>
    <tag k="name" v="Bartlow Road"/>
    <tag k="oneway" v="yes"/>
    <tag k="source" v="gps"/>
    <tag k="surface" v="asphalt"/>
  </way>
  <way id="1251463655" version="1" timestamp="2024-02-17T03:51:25Z" changeset="147555815" uid="629" user="Wookey">
    <nd ref="11633136370"/>
    <nd ref="11633525794"/>
    <tag k="highway" v="primary"/>
    <tag k="lanes" v="1"/>
    <tag k="maxspeed" v="50 mph"/>
    <tag k="maxspeed:type" v="sign"/>
    <tag k="oneway" v="yes"/>
    <tag k="ref" v="A1307"/>
    <tag k="surface" v="asphalt"/>
  </way>
  <way id="1251463656" version="2" timestamp="2024-04-20T15:42:35Z" changeset="150269136" uid="540739" user="robbob700">
    <nd ref="11633525793"/>
    <nd ref="11633525787"/>
    <nd ref="11633525776"/>
    <nd ref="11633135268"/>
    <tag k="highway" v="tertiary"/>
    <tag k="lanes" v="1"/>
    <tag k="name" v="Bartlow Road"/>
    <tag k="oneway" v="yes"/>
    <tag k="source:name" v="dictaphone"/>
  </way>
  <way id="1251463657" version="1" timestamp="2024-02-17T03:51:25Z" changeset="147555815" uid="629" user="Wookey">
    <nd ref="29005367"/>
    <nd ref="11633525803"/>
    <nd ref="11633525777"/>
    <nd ref="11633136376"/>
    <tag k="highway" v="primary"/>
    <tag k="lanes" v="2"/>
    <tag k="maxspeed" v="50 mph"/>
    <tag k="maxspeed:type" v="sign"/>
    <tag k="oneway" v="yes"/>
    <tag k="ref" v="A1307"/>
    <tag k="surface" v="asphalt"/>
  </way>
  <way id="1251463658" version="1" timestamp="2024-02-17T03:51:25Z" changeset="147555815" uid="629" user="Wookey">
    <nd ref="11633136375"/>
    <nd ref="11633525802"/>
    <nd ref="29005367"/>
    <tag k="highway" v="primary"/>
    <tag k="lanes" v="1"/>
    <tag k="maxspeed" v="50 mph"/>
    <tag k="maxspeed:type" v="sign"/>
    <tag k="oneway" v="yes"/>
    <tag k="ref" v="A1307"/>
    <tag k="surface" v="asphalt"/>
  </way>
  <way id="1251463659" version="1" timestamp="2024-02-17T03:51:25Z" changeset="147555815" uid="629" user="Wookey">
    <nd ref="11633136378"/>
    <nd ref="11633525788"/>
    <nd ref="11633525793"/>
    <tag k="highway" v="tertiary"/>
    <tag k="lanes" v="1"/>
    <tag k="name" v="Bartlow Road"/>
    <tag k="oneway" v="yes"/>
    <tag k="source:name" v="dictaphone"/>
  </way>
  <way id="1251463660" version="1" timestamp="2024-02-17T03:51:25Z" changeset="147555815" uid="629" user="Wookey">
    <nd ref="11633525794"/>
    <nd ref="11633525775"/>
    <nd ref="11633136371"/>
    <tag k="highway" v="primary"/>
    <tag k="lanes" v="1"/>
    <tag k="maxspeed" v="50 mph"/>
    <tag k="maxspeed:type" v="sign"/>
    <tag k="oneway" v="yes"/>
    <tag k="ref" v="A1307"/>
    <tag k="surface" v="asphalt"/>
  </way>
  <way id="1361744211" version="1" timestamp="2025-02-21T17:29:08Z" changeset="162790423" uid="5229644" user="Nathan_A_RF">
    <nd ref="12607442705"/>
    <nd ref="12607429698"/>
    <nd ref="12607442701"/>
    <nd ref="29005369"/>
    <tag k="highway" v="primary"/>
    <tag k="maxspeed" v="60 mph"/>
    <tag k="maxspeed:type" v="GB:nsl_single"/>
    <tag k="name" v="Horseheath Road"/>
    <tag k="ref" v="A1307"/>
  </way>
  <way id="1361744214" version="1" timestamp="2025-02-21T17:29:08Z" changeset="162790423" uid="5229644" user="Nathan_A_RF">
    <nd ref="96518201"/>
    <nd ref="9955983636"/>
    <nd ref="35717098"/>
    <tag k="dual_carriageway" v="yes"/>
    <tag k="highway" v="primary"/>
    <tag k="maxspeed" v="70 mph"/>
    <tag k="maxspeed:type" v="GB:nsl_dual"/>
    <tag k="name" v="Linton Road"/>
    <tag k="oneway" v="yes"/>
    <tag k="ref" v="A1307"/>
    <tag k="source" v="gps survey"/>
  </way>
  <way id="1373645340" version="1" timestamp="2025-04-01T10:02:05Z" changeset="164366948" uid="20475686" user="Dan200">
    <nd ref="12718183475"/>
    <nd ref="7039646905"/>
    <nd ref="7039646904"/>
    <tag k="designation" v="public_footpath"/>
    <tag k="foot" v="designated"/>
    <tag k="highway" v="residential"/>
    <tag k="prow_ref" v="Linton FP 9"/>
    <tag k="source:prow_ref" v="cambridgeshire_county_council_prow_gis_data"/>
    <tag k="surface" v="gravel"/>
  </way>
  <way id="1373645341" version="1" timestamp="2025-04-01T10:02:05Z" changeset="164366948" uid="20475686" user="Dan200">
    <nd ref="7039646906"/>
    <nd ref="12718183475"/>
    <tag k="highway" v="residential"/>
    <tag k="surface" v="gravel"/>
  </way>
  <relation id="10368501" version="2" timestamp="2021-12-29T21:39:46Z" changeset="115538843" uid="14683432" user="Tawenmund">
    <member type="way" ref="752080547" role="inner"/>
    <member type="way" ref="752080545" role="inner"/>
    <member type="way" ref="752080546" role="inner"/>
    <member type="way" ref="752080548" role="outer"/>
    <tag k="addr:city" v="Linton"/>
    <tag k="addr:housename" v="Symonds House"/>
    <tag k="addr:postcode" v="CB21 4HY"/>
    <tag k="addr:street" v="Symonds Lane"/>
    <tag k="amenity" v="social_facility"/>
    <tag k="building" v="yes"/>
    <tag k="name" v="Symonds House"/>
    <tag k="social_facility" v="nursing_home"/>
    <tag k="social_facility:for" v="senior"/>
    <tag k="type" v="multipolygon"/>
    <tag k="wheelchair" v="yes"/>
  </relation>

</osm>
