<?xml version="1.0" encoding="UTF-8"?>
<osm version="0.6" generator="Overpass API 0.7.62.5 1bd436f1">
<note>The data included in this document is from www.openstreetmap.org. The data is made available under ODbL.</note>
<meta osm_base="2025-04-27T07:24:01Z" areas="2025-02-06T02:17:44Z"/>

  <node id="21350206" lat="52.2527248" lon="0.1737078" version="6" timestamp="2025-02-21T16:09:39Z" changeset="162787224" uid="5008136" user="JayTurnr"/>
  <node id="26064697" lat="52.2556365" lon="0.1642979" version="3" timestamp="2011-11-05T18:49:47Z" changeset="9748891" uid="2406" user="JeffB"/>
  <node id="26976239" lat="52.2628927" lon="0.1790436" version="5" timestamp="2024-02-20T17:03:54Z" changeset="147700665" uid="2406" user="JeffB"/>
  <node id="249629944" lat="52.2769681" lon="0.1442802" version="3" timestamp="2013-08-31T22:14:04Z" changeset="17610909" uid="236165" user="Philip Shore"/>
  <node id="303266535" lat="52.2891701" lon="0.1761970" version="6" timestamp="2021-10-31T00:21:54Z" changeset="113177382" uid="5173844" user="ndrw6"/>
  <node id="453312033" lat="52.2713814" lon="0.1783037" version="4" timestamp="2024-02-20T17:03:54Z" changeset="147700665" uid="2406" user="JeffB"/>
  <node id="474737965" lat="52.2709770" lon="0.1632636" version="3" timestamp="2011-11-05T21:00:16Z" changeset="9750507" uid="2406" user="JeffB">
    <tag k="addr:housenumber" v="82-84"/>
    <tag k="addr:street" v="Green End"/>
    <tag k="building" v="house"/>
    <tag k="name" v="College House"/>
    <tag k="source" v="dictaphone"/>
  </node>
  <node id="509263045" lat="52.2685526" lon="0.1610730" version="8" timestamp="2017-06-22T08:51:26Z" changeset="49740478" uid="364" user="Edward">
    <tag k="addr:city" v="Landbeach"/>
    <tag k="addr:housename" v="Old Beach Farm"/>
    <tag k="addr:housenumber" v="89"/>
    <tag k="addr:postcode" v="CB25 9FD"/>
    <tag k="addr:street" v="Green End"/>
    <tag k="building" v="house"/>
    <tag k="name" v="Old Beach Farm"/>
    <tag k="source:name" v="survey"/>
    <tag k="wikidata" v="Q26420289"/>
  </node>
  <node id="509263053" lat="52.2687487" lon="0.1613861" version="7" timestamp="2025-03-19T19:50:58Z" changeset="163833947" uid="2406" user="JeffB">
    <tag k="addr:housenumber" v="91"/>
    <tag k="addr:street" v="Green End"/>
    <tag k="building" v="house"/>
    <tag k="name" v="North Farm"/>
    <tag k="source" v="survey"/>
    <tag k="wikidata" v="Q26473723"/>
  </node>
  <node id="509263060" lat="52.2690041" lon="0.1613843" version="4" timestamp="2025-03-19T19:50:58Z" changeset="163833947" uid="2406" user="JeffB">
    <tag k="addr:housenumber" v="95"/>
    <tag k="building" v="house"/>
    <tag k="name" v="Skachbow Cottage"/>
    <tag k="source:name" v="survey"/>
  </node>
  <node id="708044733" lat="52.2563454" lon="0.1767338" version="3" timestamp="2010-04-30T20:15:57Z" changeset="4569619" uid="2406" user="JeffB">
    <tag k="addr:street" v="Ely Road"/>
    <tag k="building" v="house"/>
    <tag k="name" v="Hall Farm"/>
    <tag k="source" v="survey"/>
  </node>
  <node id="708044741" lat="52.2561525" lon="0.1764330" version="3" timestamp="2011-11-06T19:28:26Z" changeset="9758579" uid="2406" user="JeffB">
    <tag k="addr:street" v="Ely Road"/>
    <tag k="building" v="house"/>
    <tag k="name" v="Hepworth Farm"/>
    <tag k="source" v="survey"/>
  </node>
  <node id="708044746" lat="52.2554408" lon="0.1761930" version="3" timestamp="2011-11-06T19:28:26Z" changeset="9758579" uid="2406" user="JeffB">
    <tag k="addr:street" v="Ely Road"/>
    <tag k="building" v="house"/>
    <tag k="name" v="Roseleigh Farm"/>
    <tag k="source" v="survey"/>
  </node>
  <node id="708044778" lat="52.2600362" lon="0.1781071" version="2" timestamp="2010-04-30T20:16:08Z" changeset="4569619" uid="2406" user="JeffB">
    <tag k="addr:street" v="Ely Road"/>
    <tag k="building" v="house"/>
    <tag k="name" v="Banworth"/>
    <tag k="source" v="survey"/>
  </node>
  <node id="708075115" lat="52.2580793" lon="0.1772917" version="2" timestamp="2010-04-30T20:16:00Z" changeset="4569619" uid="2406" user="JeffB">
    <tag k="addr:street" v="Ely Road"/>
    <tag k="building" v="house"/>
    <tag k="name" v="Westview, D.G.Coulson"/>
    <tag k="source" v="survey"/>
  </node>
  <node id="708075123" lat="52.2577906" lon="0.1771915" version="2" timestamp="2010-04-30T20:16:05Z" changeset="4569619" uid="2406" user="JeffB">
    <tag k="addr:street" v="Ely Road"/>
    <tag k="building" v="farmhouse"/>
    <tag k="name" v="The Nurseries"/>
    <tag k="source" v="survey"/>
  </node>
  <node id="708088915" lat="52.2556826" lon="0.1755596" version="3" timestamp="2011-11-06T19:53:38Z" changeset="9758884" uid="2406" user="JeffB">
    <tag k="addr:street" v="Ely Road"/>
    <tag k="building" v="house"/>
    <tag k="name" v="Enterprise House"/>
    <tag k="source" v="survey"/>
  </node>
  <node id="708088919" lat="52.2561382" lon="0.1741380" version="3" timestamp="2011-11-06T19:53:38Z" changeset="9758884" uid="2406" user="JeffB">
    <tag k="addr:street" v="Ely Road"/>
    <tag k="building" v="house"/>
    <tag k="name" v="The Hawks"/>
    <tag k="source" v="survey"/>
  </node>
  <node id="708088924" lat="52.2563189" lon="0.1747698" version="3" timestamp="2011-11-06T19:36:54Z" changeset="9758884" uid="2406" user="JeffB">
    <tag k="addr:street" v="Ely Road"/>
    <tag k="building" v="house"/>
    <tag k="name" v="Isas"/>
    <tag k="source" v="survey"/>
  </node>
  <node id="708088930" lat="52.2558858" lon="0.1756181" version="2" timestamp="2010-04-30T20:16:02Z" changeset="4569619" uid="2406" user="JeffB">
    <tag k="addr:street" v="Ely Road"/>
    <tag k="building" v="house"/>
    <tag k="name" v="Nebi Tari"/>
    <tag k="source" v="survey"/>
  </node>
  <node id="708088933" lat="52.2560865" lon="0.1756670" version="3" timestamp="2011-11-06T19:36:54Z" changeset="9758884" uid="2406" user="JeffB">
    <tag k="addr:street" v="Ely Road"/>
    <tag k="building" v="house"/>
    <tag k="name" v="The Retreat"/>
    <tag k="source" v="survey"/>
  </node>
  <node id="708103296" lat="52.2670174" lon="0.1610333" version="3" timestamp="2025-03-19T19:50:58Z" changeset="163833947" uid="2406" user="JeffB">
    <tag k="addr:housenumber" v="63-61"/>
    <tag k="addr:street" v="Green End"/>
    <tag k="building" v="house"/>
  </node>
  <node id="708103303" lat="52.2669551" lon="0.1610392" version="3" timestamp="2025-03-19T19:50:58Z" changeset="163833947" uid="2406" user="JeffB">
    <tag k="addr:housenumber" v="59-57"/>
    <tag k="addr:street" v="Green End"/>
    <tag k="building" v="house"/>
  </node>
  <node id="708103311" lat="52.2668643" lon="0.1610635" version="3" timestamp="2025-03-19T19:50:58Z" changeset="163833947" uid="2406" user="JeffB">
    <tag k="addr:housenumber" v="55-53"/>
    <tag k="addr:street" v="Green End"/>
    <tag k="building" v="house"/>
  </node>
  <node id="708103317" lat="52.2667524" lon="0.1610839" version="3" timestamp="2025-03-19T19:50:58Z" changeset="163833947" uid="2406" user="JeffB">
    <tag k="addr:housenumber" v="49-51"/>
    <tag k="addr:street" v="Green End"/>
    <tag k="building" v="house"/>
  </node>
  <node id="708119955" lat="52.2692392" lon="0.1616954" version="3" timestamp="2025-03-19T19:50:58Z" changeset="163833947" uid="2406" user="JeffB">
    <tag k="addr:housenumber" v="99"/>
    <tag k="addr:street" v="Green End"/>
    <tag k="building" v="house"/>
    <tag k="name" v="Maple Lodge"/>
    <tag k="source:name" v="survey"/>
  </node>
  <node id="708119957" lat="52.2679770" lon="0.1607267" version="2" timestamp="2011-11-06T13:19:35Z" changeset="9755062" uid="2406" user="JeffB">
    <tag k="addr:housenumber" v="83-81"/>
    <tag k="building" v="house"/>
    <tag k="name" v="Virginia Cottage, unnamed"/>
    <tag k="source:name" v="survey"/>
  </node>
  <node id="708119959" lat="52.2677440" lon="0.1606463" version="2" timestamp="2011-11-06T13:19:35Z" changeset="9755062" uid="2406" user="JeffB">
    <tag k="addr:housenumber" v="79"/>
    <tag k="building" v="house"/>
    <tag k="name" v="Jasmine Cottage, unnamed"/>
    <tag k="source:name" v="survey"/>
  </node>
  <node id="708119964" lat="52.2673138" lon="0.1610002" version="2" timestamp="2011-11-06T13:19:36Z" changeset="9755062" uid="2406" user="JeffB">
    <tag k="addr:housenumber" v="65-73"/>
    <tag k="addr:street" v="Green End"/>
    <tag k="building" v="house"/>
  </node>
  <node id="708119969" lat="52.2675678" lon="0.1609537" version="3" timestamp="2025-03-19T19:50:58Z" changeset="163833947" uid="2406" user="JeffB">
    <tag k="addr:housenumber" v="75"/>
    <tag k="addr:street" v="Green End"/>
    <tag k="building" v="house"/>
  </node>
  <node id="708119980" lat="52.2675655" lon="0.1615260" version="2" timestamp="2011-09-26T18:21:59Z" changeset="9404312" uid="2406" user="JeffB">
    <tag k="addr:housenumber" v="18"/>
    <tag k="addr:street" v="Green End"/>
    <tag k="building" v="house"/>
    <tag k="name" v="Widow's Cottage"/>
    <tag k="source:addr:housenumber" v="survey"/>
  </node>
  <node id="708119984" lat="52.2680686" lon="0.1618964" version="2" timestamp="2011-09-26T16:43:04Z" changeset="9403457" uid="2406" user="JeffB">
    <tag k="addr:housenumber" v="30"/>
    <tag k="addr:street" v="Green End"/>
    <tag k="building" v="house"/>
    <tag k="name" v="Clerk's Cottage"/>
    <tag k="source:addr:housenumber" v="survey"/>
  </node>
  <node id="708119986" lat="52.2676476" lon="0.1615984" version="3" timestamp="2011-09-26T18:22:00Z" changeset="9404312" uid="2406" user="JeffB">
    <tag k="addr:housenumber" v="22-20"/>
    <tag k="addr:street" v="Green End"/>
    <tag k="building" v="house"/>
    <tag k="name" v="Duck Cottage, unnamed"/>
    <tag k="source:addr:housenumber" v="survey"/>
  </node>
  <node id="708120009" lat="52.2685232" lon="0.1619967" version="3" timestamp="2012-08-18T10:49:15Z" changeset="12771644" uid="2406" user="JeffB">
    <tag k="addr:housenumber" v="38"/>
    <tag k="addr:street" v="Green End"/>
    <tag k="building" v="house"/>
    <tag k="source:addr:housenumber" v="survey"/>
  </node>
  <node id="709048748" lat="52.2765657" lon="0.1664447" version="1" timestamp="2010-04-27T19:52:43Z" changeset="4544387" uid="2406" user="JeffB">
    <tag k="addr:street" v="Green End"/>
    <tag k="building" v="house"/>
    <tag k="name" v="New Farm Bungalow"/>
    <tag k="source" v="survey"/>
  </node>
  <node id="709048749" lat="52.2768151" lon="0.1666164" version="1" timestamp="2010-04-27T19:52:43Z" changeset="4544387" uid="2406" user="JeffB">
    <tag k="addr:street" v="Green End"/>
    <tag k="building" v="house"/>
    <tag k="name" v="Frith Meadow"/>
    <tag k="source" v="survey"/>
  </node>
  <node id="709051919" lat="52.2638973" lon="0.1619007" version="2" timestamp="2017-06-22T08:51:34Z" changeset="49740478" uid="364" user="Edward">
    <tag k="addr:street" v="High Street"/>
    <tag k="building" v="house"/>
    <tag k="name" v="Worts' Farm"/>
    <tag k="source" v="survey"/>
    <tag k="wikidata" v="Q26589345"/>
  </node>
  <node id="709051927" lat="52.2635344" lon="0.1622608" version="2" timestamp="2011-11-05T18:08:06Z" changeset="9748891" uid="2406" user="JeffB">
    <tag k="addr:street" v="High Street"/>
    <tag k="building" v="shed"/>
    <tag k="name" v="The Granary"/>
    <tag k="source" v="survey"/>
  </node>
  <node id="709111267" lat="52.2642015" lon="0.1776782" version="2" timestamp="2011-11-06T13:19:38Z" changeset="9755062" uid="2406" user="JeffB">
    <tag k="addr:housenumber" v="133"/>
    <tag k="addr:street" v="Waterbeach Road"/>
    <tag k="building" v="house"/>
    <tag k="source" v="survey"/>
  </node>
  <node id="709111279" lat="52.2641802" lon="0.1773162" version="2" timestamp="2011-11-06T13:19:39Z" changeset="9755062" uid="2406" user="JeffB">
    <tag k="addr:housenumber" v="131"/>
    <tag k="addr:street" v="Waterbeach Road"/>
    <tag k="building" v="house"/>
    <tag k="source" v="survey"/>
  </node>
  <node id="709111285" lat="52.2640752" lon="0.1768104" version="2" timestamp="2011-11-05T19:46:21Z" changeset="9749714" uid="2406" user="JeffB">
    <tag k="addr:housenumber" v="129"/>
    <tag k="addr:street" v="Waterbeach Road"/>
    <tag k="building" v="house"/>
    <tag k="source" v="survey"/>
  </node>
  <node id="709111308" lat="52.2646334" lon="0.1745380" version="3" timestamp="2013-11-22T15:29:26Z" changeset="19056411" uid="38588" user="mentor">
    <tag k="addr:housenumber" v="121A"/>
    <tag k="addr:street" v="Waterbeach Road"/>
    <tag k="building" v="house"/>
    <tag k="name" v="Crossways Farm"/>
  </node>
  <node id="713925146" lat="52.2640651" lon="0.1647997" version="1" timestamp="2010-04-30T20:19:32Z" changeset="4569653" uid="2406" user="JeffB">
    <tag k="addr:housenumber" v="1"/>
    <tag k="addr:street" v="Matthew Parker Close"/>
    <tag k="building" v="house"/>
    <tag k="source" v="survey"/>
  </node>
  <node id="713925154" lat="52.2643573" lon="0.1642094" version="2" timestamp="2011-10-24T19:05:13Z" changeset="9646477" uid="2406" user="JeffB">
    <tag k="addr:housenumber" v="17"/>
    <tag k="addr:street" v="Matthew Parker Close"/>
    <tag k="building" v="house"/>
    <tag k="source" v="survey"/>
  </node>
  <node id="713925161" lat="52.2640610" lon="0.1641893" version="2" timestamp="2011-10-24T19:05:12Z" changeset="9646477" uid="2406" user="JeffB">
    <tag k="addr:housenumber" v="13"/>
    <tag k="addr:street" v="Matthew Parker Close"/>
    <tag k="building" v="house"/>
    <tag k="name" v="The Retreat"/>
    <tag k="source" v="survey"/>
  </node>
  <node id="805643696" lat="52.2980340" lon="0.1837872" version="3" timestamp="2025-02-22T21:38:06Z" changeset="162832462" uid="5008136" user="JayTurnr"/>
  <node id="12610597884" lat="52.2888933" lon="0.1765892" version="1" timestamp="2025-02-22T21:28:11Z" changeset="162832198" uid="5008136" user="JayTurnr"/>
  <way id="4020518" version="15" timestamp="2021-10-31T00:21:54Z" changeset="113177382" uid="5173844" user="ndrw6">
    <nd ref="3869845"/>
    <nd ref="1870721002"/>
    <nd ref="8001671581"/>
    <nd ref="26976202"/>
    <nd ref="26976466"/>
    <nd ref="3869870"/>
    <nd ref="303266390"/>
    <nd ref="1870720994"/>
    <nd ref="8001671578"/>
    <nd ref="805643764"/>
    <nd ref="26976778"/>
    <nd ref="303266535"/>
    <nd ref="8001671577"/>
    <nd ref="9213016824"/>
    <nd ref="8001671579"/>
    <nd ref="3869866"/>
    <nd ref="3191599247"/>
    <nd ref="3191599246"/>
    <nd ref="303266536"/>
    <nd ref="8001671580"/>
    <nd ref="26976308"/>
    <nd ref="303266537"/>
    <nd ref="3869845"/>
    <tag k="direction" v="clockwise"/>
    <tag k="highway" v="trunk"/>
    <tag k="junction" v="roundabout"/>
    <tag k="lit" v="yes"/>
    <tag k="maxspeed" v="60 mph"/>
    <tag k="maxspeed:type" v="GB:nsl_single"/>
    <tag k="oneway" v="yes"/>
    <tag k="sidewalk" v="none"/>
  </way>
  <way id="4020519" version="15" timestamp="2025-02-22T21:32:59Z" changeset="162832334" uid="5008136" user="JayTurnr">
    <nd ref="3869948"/>
    <nd ref="8001720185"/>
    <nd ref="262711261"/>
    <nd ref="7501775545"/>
    <nd ref="7501775544"/>
    <nd ref="8001671583"/>
    <nd ref="8001671584"/>
    <nd ref="3869955"/>
    <nd ref="805643779"/>
    <nd ref="262711263"/>
    <nd ref="1499260998"/>
    <nd ref="3869945"/>
    <nd ref="7501775540"/>
    <nd ref="805643785"/>
    <nd ref="7501775535"/>
    <nd ref="262711260"/>
    <nd ref="7501775539"/>
    <nd ref="7501775546"/>
    <nd ref="3869960"/>
    <nd ref="262711264"/>
    <nd ref="3869948"/>
    <tag k="direction" v="clockwise"/>
    <tag k="highway" v="trunk"/>
    <tag k="junction" v="roundabout"/>
    <tag k="lit" v="yes"/>
    <tag k="maxspeed" v="60 mph"/>
    <tag k="maxspeed:type" v="GB:nsl_single"/>
    <tag k="oneway" v="yes"/>
    <tag k="sidewalk" v="no"/>
  </way>
  <way id="4028906" version="10" timestamp="2021-07-24T09:24:30Z" changeset="108524970" uid="12752888" user="U42">
    <nd ref="21318393"/>
    <nd ref="26976239"/>
    <tag k="cycleway:both" v="no"/>
    <tag k="highway" v="tertiary"/>
    <tag k="name" v="Car Dyke Road"/>
    <tag k="surface" v="asphalt"/>
  </way>
  <way id="4272290" version="11" timestamp="2025-03-12T16:09:59Z" changeset="163534880" uid="2406" user="JeffB">
    <nd ref="25688564"/>
    <nd ref="1492700363"/>
    <nd ref="25688560"/>
    <nd ref="11579505305"/>
    <nd ref="6551723120"/>
    <nd ref="25688557"/>
    <tag k="highway" v="tertiary"/>
    <tag k="lcn" v="yes"/>
    <tag k="maxspeed" v="40 mph"/>
    <tag k="name" v="Waterbeach Road"/>
    <tag k="name:etymology:wikidata" v="Q686675"/>
  </way>
  <way id="4272291" version="16" timestamp="2025-03-20T12:29:30Z" changeset="163860903" uid="2406" user="JeffB">
    <nd ref="25688575"/>
    <nd ref="447856653"/>
    <nd ref="2391770763"/>
    <nd ref="2391770701"/>
    <nd ref="25688576"/>
    <nd ref="25688579"/>
    <nd ref="25688581"/>
    <nd ref="1519599045"/>
    <nd ref="1519599058"/>
    <nd ref="1519599038"/>
    <nd ref="25688583"/>
    <nd ref="453433399"/>
    <nd ref="25688584"/>
    <nd ref="11413395582"/>
    <nd ref="387709601"/>
    <nd ref="25688586"/>
    <nd ref="2477656552"/>
    <nd ref="25688589"/>
    <nd ref="11413393690"/>
    <nd ref="6501679002"/>
    <nd ref="414244911"/>
    <nd ref="12684577022"/>
    <nd ref="12684577021"/>
    <nd ref="12684577016"/>
    <nd ref="12684577025"/>
    <nd ref="474737969"/>
    <nd ref="11634838052"/>
    <nd ref="25688591"/>
    <tag k="abutters" v="residential"/>
    <tag k="highway" v="tertiary"/>
    <tag k="maxspeed" v="30 mph"/>
    <tag k="name" v="Green End"/>
  </way>
  <way id="4272292" version="22" timestamp="2025-03-19T19:54:05Z" changeset="163834075" uid="2406" user="JeffB">
    <nd ref="25688593"/>
    <nd ref="25688595"/>
    <nd ref="25688597"/>
    <nd ref="2477656555"/>
    <nd ref="12682143182"/>
    <nd ref="2477656556"/>
    <nd ref="25688598"/>
    <nd ref="2477656557"/>
    <nd ref="2477656559"/>
    <nd ref="303264618"/>
    <nd ref="474737964"/>
    <tag k="highway" v="tertiary"/>
    <tag k="maxspeed" v="60 mph"/>
    <tag k="maxspeed:type" v="GB:nsl_single"/>
    <tag k="name" v="Cottenham Road"/>
    <tag k="sidewalk" v="no"/>
    <tag k="source:name" v="survey"/>
  </way>
  <way id="4306151" version="15" timestamp="2025-02-22T21:32:59Z" changeset="162832334" uid="5008136" user="JayTurnr">
    <nd ref="805643658"/>
    <nd ref="805643662"/>
    <nd ref="8001720190"/>
    <nd ref="3869960"/>
    <tag k="highway" v="trunk"/>
    <tag k="lanes" v="2"/>
    <tag k="lit" v="yes"/>
    <tag k="maxspeed" v="60 mph"/>
    <tag k="maxspeed:type" v="GB:nsl_single"/>
    <tag k="oneway" v="yes"/>
    <tag k="ref" v="A10"/>
    <tag k="sidewalk" v="no"/>
  </way>
  <way id="4306152" version="22" timestamp="2025-04-11T20:47:53Z" changeset="164833409" uid="2406" user="JeffB">
    <nd ref="3863401"/>
    <nd ref="30967670"/>
    <nd ref="2294798785"/>
    <nd ref="21319418"/>
    <nd ref="1450941404"/>
    <tag k="alt_name" v="Ely Road"/>
    <tag k="highway" v="trunk"/>
    <tag k="lanes" v="2"/>
    <tag k="maxspeed" v="60 mph"/>
    <tag k="maxspeed:type" v="GB:nsl_single"/>
    <tag k="ref" v="A10"/>
  </way>
  <way id="4408853" version="2" timestamp="2025-03-12T16:11:47Z" changeset="163534880" uid="2406" user="JeffB">
    <nd ref="26064744"/>
    <nd ref="26064743"/>
    <tag k="created_by" v="JOSM"/>
    <tag k="highway" v="residential"/>
    <tag k="name" v="Chapmans Close"/>
    <tag k="name:etymology:wikidata" v="Q133264760"/>
    <tag k="source:name" v="local knowledge"/>
  </way>
  <way id="4408865" version="18" timestamp="2025-02-21T16:22:53Z" changeset="162787824" uid="5008136" user="JayTurnr">
    <nd ref="26976692"/>
    <nd ref="8001671572"/>
    <nd ref="1492729897"/>
    <nd ref="320904489"/>
    <nd ref="1492729945"/>
    <nd ref="1492719821"/>
    <nd ref="448434442"/>
    <nd ref="3863389"/>
    <nd ref="1005058780"/>
    <nd ref="1005058781"/>
    <nd ref="3863397"/>
    <nd ref="6551723113"/>
    <nd ref="6551723112"/>
    <nd ref="12607281146"/>
    <tag k="alt_name" v="Ely Road"/>
    <tag k="highway" v="trunk"/>
    <tag k="lanes" v="2"/>
    <tag k="maxspeed" v="50 mph"/>
    <tag k="ref" v="A10"/>
  </way>
  <way id="4408866" version="10" timestamp="2023-12-28T14:35:44Z" changeset="145622918" uid="2406" user="JeffB">
    <nd ref="453433399"/>
    <nd ref="453433388"/>
    <nd ref="26064738"/>
    <nd ref="26064739"/>
    <nd ref="11413029432"/>
    <nd ref="26064740"/>
    <nd ref="2477656550"/>
    <nd ref="2477656549"/>
    <nd ref="2477656547"/>
    <nd ref="26064744"/>
    <nd ref="2477656545"/>
    <nd ref="2477656543"/>
    <nd ref="26064735"/>
    <nd ref="2477656541"/>
    <nd ref="26064734"/>
    <nd ref="2477656532"/>
    <nd ref="26064732"/>
    <tag k="highway" v="residential"/>
    <tag k="lanes" v="2"/>
    <tag k="maxspeed" v="30 mph"/>
    <tag k="name" v="Spaldings Lane"/>
    <tag k="oneway" v="no"/>
    <tag k="source:name" v="local knowledge"/>
    <tag k="surface" v="paved"/>
  </way>
  <way id="4408874" version="9" timestamp="2025-03-12T16:09:59Z" changeset="163534880" uid="2406" user="JeffB">
    <nd ref="25688572"/>
    <nd ref="414244928"/>
    <nd ref="414244925"/>
    <nd ref="25688573"/>
    <nd ref="26064711"/>
    <nd ref="2391770730"/>
    <nd ref="25688574"/>
    <nd ref="9689656408"/>
    <nd ref="25688575"/>
    <tag k="abutters" v="residential"/>
    <tag k="highway" v="tertiary"/>
    <tag k="lcn" v="yes"/>
    <tag k="maxspeed" v="30 mph"/>
    <tag k="name" v="Waterbeach Road"/>
    <tag k="name:etymology:wikidata" v="Q686675"/>
    <tag k="sidewalk:right" v="separate"/>
    <tag k="source:name" v="local_knowledge"/>
  </way>
  <way id="4408879" version="13" timestamp="2025-02-21T16:15:01Z" changeset="162787503" uid="5008136" user="JayTurnr">
    <nd ref="12607253709"/>
    <nd ref="21318393"/>
    <tag k="alt_name" v="Ely Road"/>
    <tag k="highway" v="trunk"/>
    <tag k="lanes" v="2"/>
    <tag k="maxspeed" v="50 mph"/>
    <tag k="oneway" v="yes"/>
    <tag k="ref" v="A10"/>
  </way>
  <way id="4408898" version="5" timestamp="2024-02-26T16:30:06Z" changeset="147939640" uid="2406" user="JeffB">
    <nd ref="25688586"/>
    <nd ref="11413393687"/>
    <nd ref="1853065267"/>
    <nd ref="26064736"/>
    <nd ref="1493197494"/>
    <nd ref="1493197489"/>
    <nd ref="26064737"/>
    <nd ref="11665643056"/>
    <nd ref="11665661286"/>
    <tag k="highway" v="residential"/>
    <tag k="name" v="Beche Way"/>
    <tag k="source:name" v="local knowledge"/>
  </way>
  <way id="4408900" version="2" timestamp="2011-11-27T14:35:39Z" changeset="9967529" uid="2406" user="JeffB">
    <nd ref="26064709"/>
    <nd ref="26976389"/>
    <tag k="abutters" v="residential"/>
    <tag k="highway" v="residential"/>
    <tag k="name" v="Banworth Lane"/>
    <tag k="source:name" v="local knowledge"/>
  </way>
  <way id="4408910" version="3" timestamp="2011-11-05T17:16:17Z" changeset="9748419" uid="2406" user="JeffB">
    <nd ref="26064710"/>
    <nd ref="1492530502"/>
    <nd ref="26976769"/>
    <tag k="highway" v="residential"/>
    <tag k="name" v="Abrahams Close"/>
    <tag k="source" v="survey"/>
    <tag k="source:name" v="local knowledge"/>
  </way>
  <way id="4408918" version="3" timestamp="2017-02-06T22:56:58Z" changeset="45869506" uid="3178375" user="LeTopographeFou">
    <nd ref="26064711"/>
    <nd ref="26976497"/>
    <nd ref="448419878"/>
    <nd ref="448419875"/>
    <nd ref="26976292"/>
    <nd ref="448419876"/>
    <tag k="highway" v="residential"/>
    <tag k="maxspeed" v="30 mph"/>
    <tag k="name" v="Matthew Parker Close"/>
    <tag k="source:name" v="street sign"/>
  </way>
  <way id="4408922" version="14" timestamp="2024-02-17T15:45:01Z" changeset="147577188" uid="2406" user="JeffB">
    <nd ref="25688591"/>
    <nd ref="474737966"/>
    <nd ref="2477656553"/>
    <nd ref="25688593"/>
    <nd ref="6542421428"/>
    <nd ref="11634838049"/>
    <nd ref="1492774103"/>
    <nd ref="26064712"/>
    <nd ref="612257466"/>
    <nd ref="26064713"/>
    <nd ref="1639187067"/>
    <nd ref="26064714"/>
    <nd ref="8944494709"/>
    <nd ref="1639187068"/>
    <nd ref="248626553"/>
    <nd ref="26064715"/>
    <tag k="highway" v="tertiary"/>
    <tag k="maxspeed" v="60 mph"/>
    <tag k="maxspeed:type" v="GB:nsl_single"/>
    <tag k="name" v="Green End"/>
  </way>
  <way id="4408956" version="2" timestamp="2012-08-05T16:32:19Z" changeset="12622940" uid="2406" user="JeffB">
    <nd ref="26064740"/>
    <nd ref="26064741"/>
    <nd ref="1853058130"/>
    <nd ref="26064742"/>
    <tag k="highway" v="residential"/>
    <tag k="name" v="Reubens Road"/>
    <tag k="source:name" v="local knowledge"/>
  </way>
  <way id="4408964" version="7" timestamp="2023-07-22T13:38:45Z" changeset="138854718" uid="417738" user="MyCallisto">
    <nd ref="26976178"/>
    <nd ref="11061582200"/>
    <nd ref="450184520"/>
    <nd ref="453312033"/>
    <tag k="cycleway:both" v="no"/>
    <tag k="highway" v="tertiary"/>
    <tag k="name" v="Denny End Road"/>
    <tag k="source:name" v="local knowledge"/>
    <tag k="surface" v="asphalt"/>
  </way>
  <way id="4408983" version="16" timestamp="2024-02-23T11:28:40Z" changeset="147807878" uid="2406" user="JeffB">
    <nd ref="26976692"/>
    <nd ref="11656034714"/>
    <nd ref="8001671573"/>
    <nd ref="11656034717"/>
    <tag k="alt_name" v="Ely Road"/>
    <tag k="highway" v="trunk"/>
    <tag k="lanes" v="1"/>
    <tag k="maxspeed" v="50 mph"/>
    <tag k="oneway" v="yes"/>
    <tag k="ref" v="A10"/>
    <tag k="source:ref" v="survey"/>
  </way>
  <way id="4408986" version="7" timestamp="2023-12-28T14:35:44Z" changeset="145622918" uid="2406" user="JeffB">
    <nd ref="453433388"/>
    <nd ref="11413395578"/>
    <nd ref="25688584"/>
    <tag k="highway" v="residential"/>
    <tag k="lanes" v="1"/>
    <tag k="name" v="Spaldings Lane"/>
    <tag k="source:name" v="local knowledge"/>
  </way>
  <way id="4409012" version="9" timestamp="2024-02-20T17:03:54Z" changeset="147700665" uid="2406" user="JeffB">
    <nd ref="26064731"/>
    <nd ref="26064732"/>
    <nd ref="414244922"/>
    <nd ref="26064733"/>
    <nd ref="26976577"/>
    <nd ref="11646046312"/>
    <nd ref="447856654"/>
    <nd ref="25688575"/>
    <tag k="highway" v="residential"/>
    <tag k="lane_markings" v="no"/>
    <tag k="lcn" v="yes"/>
    <tag k="maxspeed" v="30 mph"/>
    <tag k="name" v="Cockfen Lane"/>
    <tag k="sidewalk" v="no"/>
    <tag k="source:name" v="local_knowledge"/>
    <tag k="surface" v="asphalt"/>
  </way>
  <way id="4409024" version="12" timestamp="2025-03-12T16:09:59Z" changeset="163534880" uid="2406" user="JeffB">
    <nd ref="25688570"/>
    <nd ref="8041708144"/>
    <nd ref="448415438"/>
    <nd ref="25688571"/>
    <nd ref="458917408"/>
    <tag k="highway" v="tertiary"/>
    <tag k="lcn" v="yes"/>
    <tag k="maxspeed" v="40 mph"/>
    <tag k="name" v="Waterbeach Road"/>
    <tag k="name:etymology:wikidata" v="Q686675"/>
    <tag k="sidewalk:left" v="no"/>
    <tag k="sidewalk:right" v="separate"/>
    <tag k="source:name" v="local_knowledge"/>
  </way>
  <way id="4409067" version="13" timestamp="2023-09-03T13:56:49Z" changeset="140760301" uid="519363" user="Elfez">
    <nd ref="26064726"/>
    <nd ref="414244916"/>
    <nd ref="26064727"/>
    <tag k="highway" v="unclassified"/>
    <tag k="lane_markings" v="no"/>
    <tag k="lcn" v="yes"/>
    <tag k="maxspeed" v="60 mph"/>
    <tag k="maxspeed:type" v="GB:nsl_single"/>
    <tag k="name" v="Cockfen Lane"/>
    <tag k="source:name" v="local knowledge"/>
    <tag k="surface" v="asphalt"/>
  </way>
  <way id="8381249" version="18" timestamp="2025-03-20T14:22:44Z" changeset="163865490" uid="2406" user="JeffB">
    <nd ref="26064721"/>
    <nd ref="1085477220"/>
    <nd ref="220877292"/>
    <nd ref="26064722"/>
    <nd ref="26064723"/>
    <nd ref="1535765753"/>
    <nd ref="11415155288"/>
    <nd ref="26064724"/>
    <nd ref="320904749"/>
    <nd ref="5774058208"/>
    <nd ref="12684812408"/>
    <nd ref="26064726"/>
    <tag k="highway" v="unclassified"/>
    <tag k="lcn" v="yes"/>
    <tag k="name" v="Akeman Street"/>
    <tag k="smoothness" v="good"/>
    <tag k="source" v="survey"/>
    <tag k="surface" v="asphalt"/>
    <tag k="width" v="3.5"/>
  </way>
  <way id="27617478" version="12" timestamp="2025-02-21T16:30:29Z" changeset="162788264" uid="5008136" user="JayTurnr">
    <nd ref="3869870"/>
    <nd ref="1499350642"/>
    <nd ref="3191599253"/>
    <nd ref="1499350669"/>
    <nd ref="12607171568"/>
    <nd ref="1499350645"/>
    <tag k="highway" v="trunk"/>
    <tag k="lanes" v="1"/>
    <tag k="lit" v="yes"/>
    <tag k="maxspeed" v="60 mph"/>
    <tag k="maxspeed:type" v="GB:nsl_single"/>
    <tag k="oneway" v="yes"/>
    <tag k="ref" v="A10"/>
    <tag k="sidewalk" v="no"/>
  </way>
  <way id="28865440" version="7" timestamp="2018-11-03T13:27:52Z" changeset="64140149" uid="5173844" user="ndrw6">
    <nd ref="6001490286"/>
    <nd ref="1497732296"/>
    <nd ref="6001490287"/>
    <nd ref="1497732314"/>
    <nd ref="1497732214"/>
    <nd ref="317329913"/>
    <nd ref="1497732242"/>
    <nd ref="6001490285"/>
    <nd ref="6001490286"/>
    <tag k="addr:postcode" v="CB25 9AY"/>
    <tag k="building" v="yes"/>
    <tag k="name" v="7200"/>
    <tag k="source" v="survey"/>
  </way>
  <way id="28865443" version="3" timestamp="2018-10-20T21:28:24Z" changeset="63715031" uid="5173844" user="ndrw6">
    <nd ref="317329923"/>
    <nd ref="317329924"/>
    <nd ref="317329925"/>
    <nd ref="317329926"/>
    <nd ref="317329927"/>
    <nd ref="317329928"/>
    <nd ref="317329929"/>
    <nd ref="317329930"/>
    <nd ref="317329923"/>
    <tag k="addr:postcode" v="CB25 9TP"/>
    <tag k="building" v="yes"/>
    <tag k="name" v="7400"/>
    <tag k="source" v="survey"/>
  </way>
  <way id="38114292" version="3" timestamp="2017-02-06T23:06:44Z" changeset="45869506" uid="3178375" user="LeTopographeFou">
    <nd ref="26976292"/>
    <nd ref="448419877"/>
    <tag k="highway" v="residential"/>
    <tag k="maxspeed" v="30 mph"/>
    <tag k="name" v="Matthew Parker Close"/>
  </way>
  <way id="38160968" version="10" timestamp="2025-02-21T16:25:57Z" changeset="162787949" uid="5008136" user="JayTurnr">
    <nd ref="26064717"/>
    <nd ref="1492796769"/>
    <nd ref="26064716"/>
    <nd ref="1492796790"/>
    <nd ref="26064718"/>
    <nd ref="1492796857"/>
    <nd ref="6572190866"/>
    <nd ref="1450941406"/>
    <nd ref="1450941400"/>
    <nd ref="8001671575"/>
    <nd ref="8001671576"/>
    <nd ref="1450941401"/>
    <tag k="highway" v="tertiary"/>
    <tag k="lanes" v="2"/>
    <tag k="maxspeed" v="60 mph"/>
    <tag k="maxspeed:type" v="GB:nsl_single"/>
    <tag k="name" v="Green End"/>
  </way>
  <way id="38160969" version="5" timestamp="2023-06-23T09:27:01Z" changeset="137680224" uid="242345" user="confusedbuffalo">
    <nd ref="26064715"/>
    <nd ref="26064717"/>
    <tag k="bridge" v="yes"/>
    <tag k="highway" v="tertiary"/>
    <tag k="layer" v="1"/>
    <tag k="maxspeed" v="60 mph"/>
    <tag k="maxspeed:type" v="GB:nsl_single"/>
    <tag k="name" v="Green End"/>
  </way>
  <way id="38365367" version="2" timestamp="2010-04-18T17:04:49Z" changeset="4460121" uid="21502" user="Kevin Steinhardt">
    <nd ref="453312033"/>
    <nd ref="453318299"/>
    <tag k="bridge" v="yes"/>
    <tag k="highway" v="tertiary"/>
    <tag k="layer" v="1"/>
  </way>
  <way id="38717865" version="3" timestamp="2023-02-21T16:14:10Z" changeset="132843070" uid="3582" user="davidearl">
    <nd ref="458917408"/>
    <nd ref="458917421"/>
    <tag k="bridge" v="yes"/>
    <tag k="highway" v="tertiary"/>
    <tag k="layer" v="1"/>
    <tag k="lcn" v="yes"/>
    <tag k="maxspeed" v="40 mph"/>
  </way>
  <way id="38717866" version="6" timestamp="2025-03-12T16:09:59Z" changeset="163534880" uid="2406" user="JeffB">
    <nd ref="458917421"/>
    <nd ref="25688572"/>
    <tag k="highway" v="tertiary"/>
    <tag k="lcn" v="yes"/>
    <tag k="maxspeed" v="40 mph"/>
    <tag k="name" v="Waterbeach Road"/>
    <tag k="name:etymology:wikidata" v="Q686675"/>
    <tag k="sidewalk:left" v="no"/>
    <tag k="sidewalk:right" v="separate"/>
    <tag k="source:name" v="local_knowledge"/>
  </way>
  <way id="38843624" version="5" timestamp="2024-01-01T14:59:25Z" changeset="145764838" uid="2406" user="JeffB">
    <nd ref="26064697"/>
    <nd ref="11476321841"/>
    <nd ref="1492614514"/>
    <nd ref="1492614545"/>
    <nd ref="1492614571"/>
    <nd ref="1492614565"/>
    <nd ref="1492614548"/>
    <nd ref="26064698"/>
    <nd ref="1492614537"/>
    <nd ref="26064699"/>
    <tag k="highway" v="tertiary"/>
    <tag k="maxspeed" v="30 mph"/>
    <tag k="name" v="High Street"/>
    <tag k="source:name" v="local knowledge"/>
  </way>
  <way id="39046373" version="6" timestamp="2025-03-12T16:09:59Z" changeset="163534880" uid="2406" user="JeffB">
    <nd ref="465898986"/>
    <nd ref="550879558"/>
    <nd ref="25688567"/>
    <nd ref="9689656398"/>
    <nd ref="25688568"/>
    <nd ref="448415437"/>
    <nd ref="25688570"/>
    <tag k="highway" v="tertiary"/>
    <tag k="lcn" v="yes"/>
    <tag k="maxspeed" v="40 mph"/>
    <tag k="name" v="Waterbeach Road"/>
    <tag k="name:etymology:wikidata" v="Q686675"/>
  </way>
  <way id="39046374" version="4" timestamp="2023-02-21T16:14:10Z" changeset="132843070" uid="3582" user="davidearl">
    <nd ref="25688564"/>
    <nd ref="465898986"/>
    <tag k="highway" v="tertiary"/>
    <tag k="layer" v="1"/>
    <tag k="lcn" v="yes"/>
    <tag k="maxspeed" v="40 mph"/>
    <tag k="source" v="survey"/>
  </way>
  <way id="39107184" version="3" timestamp="2011-11-05T18:49:49Z" changeset="9748891" uid="2406" user="JeffB">
    <nd ref="26064699"/>
    <nd ref="1492614524"/>
    <nd ref="26064700"/>
    <tag k="bridge" v="yes"/>
    <tag k="highway" v="tertiary"/>
    <tag k="layer" v="1"/>
    <tag k="maxspeed" v="30 mph"/>
  </way>
  <way id="39107185" version="12" timestamp="2019-06-11T04:47:34Z" changeset="71125704" uid="8683368" user="purbitap">
    <nd ref="26064700"/>
    <nd ref="26064701"/>
    <nd ref="709068839"/>
    <nd ref="1492614569"/>
    <nd ref="26064702"/>
    <nd ref="612941452"/>
    <nd ref="26064703"/>
    <nd ref="26064704"/>
    <nd ref="1492555903"/>
    <nd ref="1492555917"/>
    <nd ref="1492587720"/>
    <nd ref="1492545876"/>
    <nd ref="1492587638"/>
    <nd ref="1492587606"/>
    <nd ref="1492545896"/>
    <nd ref="1492587619"/>
    <nd ref="1492545676"/>
    <nd ref="26064706"/>
    <nd ref="1492614516"/>
    <nd ref="1499945109"/>
    <nd ref="1492614558"/>
    <nd ref="26064707"/>
    <nd ref="6538726256"/>
    <nd ref="1492568325"/>
    <nd ref="26064708"/>
    <nd ref="1492567935"/>
    <nd ref="26064709"/>
    <nd ref="612941453"/>
    <nd ref="1492568370"/>
    <nd ref="26064710"/>
    <nd ref="612941455"/>
    <nd ref="25104132"/>
    <nd ref="612941456"/>
    <nd ref="1492568333"/>
    <nd ref="25688575"/>
    <tag k="highway" v="tertiary"/>
    <tag k="maxspeed" v="30 mph"/>
    <tag k="name" v="High Street"/>
    <tag k="source:name" v="local_knowledge"/>
  </way>
  <way id="39603212" version="4" timestamp="2023-06-23T09:27:01Z" changeset="137680224" uid="242345" user="confusedbuffalo">
    <nd ref="474737964"/>
    <nd ref="474737963"/>
    <tag k="FIXME:nsl" v="inferred single-carriageway NSL - remove this tag once verified"/>
    <tag k="bridge" v="yes"/>
    <tag k="highway" v="tertiary"/>
    <tag k="layer" v="1"/>
    <tag k="maxspeed" v="60 mph"/>
    <tag k="maxspeed:type" v="GB:nsl_single"/>
    <tag k="name" v="Beach Road"/>
    <tag k="source" v="dictaphone"/>
  </way>
  <way id="39603213" version="7" timestamp="2023-06-23T09:27:01Z" changeset="137680224" uid="242345" user="confusedbuffalo">
    <nd ref="474737963"/>
    <nd ref="25688600"/>
    <nd ref="249629944"/>
    <tag k="highway" v="tertiary"/>
    <tag k="maxspeed" v="60 mph"/>
    <tag k="maxspeed:type" v="GB:nsl_single"/>
    <tag k="name" v="Cottenham Road"/>
    <tag k="sidewalk" v="no"/>
    <tag k="source:name" v="OS_Streetview"/>
  </way>
  <way id="55823024" version="6" timestamp="2025-02-21T16:22:53Z" changeset="162787824" uid="5008136" user="JayTurnr">
    <nd ref="26976178"/>
    <nd ref="12607281147"/>
    <tag k="alt_name" v="Ely Road"/>
    <tag k="highway" v="trunk"/>
    <tag k="lanes" v="3"/>
    <tag k="lanes:backward" v="2"/>
    <tag k="lanes:forward" v="1"/>
    <tag k="maxspeed" v="50 mph"/>
    <tag k="ref" v="A10"/>
  </way>
  <way id="55824677" version="15" timestamp="2025-02-21T16:09:39Z" changeset="162787224" uid="5008136" user="JayTurnr">
    <nd ref="21350206"/>
    <nd ref="11697772985"/>
    <nd ref="414244933"/>
    <nd ref="11697772987"/>
    <nd ref="414244930"/>
    <nd ref="3863174"/>
    <nd ref="1493512793"/>
    <nd ref="1493522389"/>
    <nd ref="1493522424"/>
    <nd ref="1493512803"/>
    <nd ref="11697818782"/>
    <nd ref="3863181"/>
    <nd ref="11697818793"/>
    <nd ref="11697818798"/>
    <nd ref="11697818803"/>
    <nd ref="11697818807"/>
    <nd ref="1493482345"/>
    <nd ref="11697818820"/>
    <nd ref="11697818825"/>
    <nd ref="11697818829"/>
    <nd ref="1493482480"/>
    <nd ref="11697818833"/>
    <nd ref="11697818836"/>
    <nd ref="11697818839"/>
    <nd ref="1493482608"/>
    <tag k="alt_name" v="Ely Road"/>
    <tag k="bicycle" v="yes"/>
    <tag k="highway" v="trunk"/>
    <tag k="lanes" v="2"/>
    <tag k="maxspeed" v="50 mph"/>
    <tag k="ref" v="A10"/>
  </way>
  <way id="55824679" version="7" timestamp="2020-10-13T01:40:35Z" changeset="92380331" uid="5229644" user="Nathan_A_RF">
    <nd ref="26976239"/>
    <nd ref="26976146"/>
    <nd ref="1493482608"/>
    <tag k="alt_name" v="Ely Road"/>
    <tag k="highway" v="trunk"/>
    <tag k="lanes" v="1"/>
    <tag k="maxspeed" v="50 mph"/>
    <tag k="oneway" v="yes"/>
    <tag k="ref" v="A10"/>
    <tag k="source:ref" v="survey"/>
  </way>
  <way id="55824680" version="7" timestamp="2025-02-21T16:15:01Z" changeset="162787503" uid="5008136" user="JayTurnr">
    <nd ref="450186708"/>
    <nd ref="25688557"/>
    <tag k="alt_name" v="Ely Road"/>
    <tag k="highway" v="trunk"/>
    <tag k="lanes" v="1"/>
    <tag k="maxspeed" v="50 mph"/>
    <tag k="oneway" v="yes"/>
    <tag k="ref" v="A10"/>
  </way>
  <way id="55824681" version="10" timestamp="2025-03-11T20:24:35Z" changeset="163501262" uid="2406" user="JeffB">
    <nd ref="26976239"/>
    <nd ref="1166314813"/>
    <nd ref="12653313081"/>
    <nd ref="26976088"/>
    <nd ref="453163637"/>
    <nd ref="21318394"/>
    <nd ref="21318395"/>
    <nd ref="5590319586"/>
    <nd ref="5590319585"/>
    <nd ref="21318396"/>
    <nd ref="5590319584"/>
    <nd ref="5590319583"/>
    <nd ref="21318397"/>
    <nd ref="5590319582"/>
    <nd ref="21318398"/>
    <nd ref="5590319580"/>
    <nd ref="21318399"/>
    <tag k="highway" v="tertiary"/>
    <tag k="maxspeed" v="40 mph"/>
    <tag k="maxspeed:type" v="sign"/>
    <tag k="maxweight:hgv" v="7.5"/>
    <tag k="maxweight:hgv:conditional" v="none @ destination"/>
    <tag k="name" v="Car Dyke Road"/>
  </way>
  <way id="56318852" version="3" timestamp="2023-10-07T10:10:57Z" changeset="142262576" uid="2406" user="JeffB">
    <nd ref="706604571"/>
    <nd ref="706604663"/>
    <nd ref="706604672"/>
    <nd ref="706604686"/>
    <nd ref="706604571"/>
    <tag k="addr:housenumber" v="1,3,5"/>
    <tag k="addr:postcode" v="CB25 9GQ"/>
    <tag k="addr:street" v="Chapmans Close"/>
    <tag k="building" v="house"/>
    <tag k="source" v="survey"/>
  </way>
  <way id="56318853" version="2" timestamp="2023-10-07T10:11:19Z" changeset="142262590" uid="2406" user="JeffB">
    <nd ref="706604747"/>
    <nd ref="706604770"/>
    <nd ref="706604808"/>
    <nd ref="706604819"/>
    <nd ref="706604747"/>
    <tag k="addr:housenumber" v="2,4,6"/>
    <tag k="addr:street" v="Chapmans Close"/>
    <tag k="building" v="house"/>
    <tag k="source" v="survey"/>
  </way>
  <way id="56319883" version="4" timestamp="2023-06-23T09:27:01Z" changeset="137680224" uid="242345" user="confusedbuffalo">
    <nd ref="249629944"/>
    <nd ref="1494288849"/>
    <tag k="FIXME:nsl" v="inferred single-carriageway NSL - remove this tag once verified"/>
    <tag k="highway" v="tertiary"/>
    <tag k="maxspeed" v="60 mph"/>
    <tag k="maxspeed:type" v="GB:nsl_single"/>
    <tag k="name" v="Beach Road"/>
  </way>
  <way id="56464409" version="3" timestamp="2025-03-12T14:24:14Z" changeset="163529953" uid="2406" user="JeffB">
    <nd ref="387709601"/>
    <nd ref="1492654546"/>
    <nd ref="707990454"/>
    <nd ref="707990464"/>
    <tag k="highway" v="residential"/>
    <tag k="name" v="Ravensdale"/>
    <tag k="name:etymology:wikidata" v="Q711332"/>
    <tag k="source:name" v="survey"/>
  </way>
  <way id="56464608" version="4" timestamp="2018-12-30T22:35:08Z" changeset="65899704" uid="364" user="Edward">
    <nd ref="707995935"/>
    <nd ref="2391770718"/>
    <nd ref="707995938"/>
    <nd ref="2391770707"/>
    <nd ref="2391770755"/>
    <nd ref="707995940"/>
    <nd ref="2391770706"/>
    <nd ref="707995943"/>
    <nd ref="707995935"/>
    <tag k="addr:housenumber" v="16"/>
    <tag k="addr:street" v="Green End"/>
    <tag k="building" v="farmhouse"/>
    <tag k="name" v="Manor Farm"/>
    <tag k="source:name" v="survey"/>
    <tag k="wikidata" v="Q26473687"/>
  </way>
  <way id="56696548" version="4" timestamp="2011-11-13T16:20:23Z" changeset="9815542" uid="2406" user="JeffB">
    <nd ref="612941452"/>
    <nd ref="709079245"/>
    <nd ref="1501644880"/>
    <nd ref="1501644878"/>
    <tag k="highway" v="residential"/>
    <tag k="name" v="Walnut Close"/>
    <tag k="source" v="local_knowledge"/>
  </way>
  <way id="56696673" version="2" timestamp="2010-04-27T20:44:37Z" changeset="4544892" uid="2406" user="JeffB">
    <nd ref="709084498"/>
    <nd ref="709084513"/>
    <nd ref="709084520"/>
    <nd ref="709084524"/>
    <nd ref="709084498"/>
    <tag k="addr:housenumber" v="2-8 evens"/>
    <tag k="addr:street" v="Spaldings Lane"/>
    <tag k="building" v="house"/>
    <tag k="source" v="survey"/>
  </way>
  <way id="56697301" version="2" timestamp="2018-10-20T21:28:24Z" changeset="63715031" uid="5173844" user="ndrw6">
    <nd ref="709099880"/>
    <nd ref="709099883"/>
    <nd ref="709099885"/>
    <nd ref="709099887"/>
    <nd ref="709099880"/>
    <tag k="addr:housenumber" v="10,12"/>
    <tag k="addr:postcode" v="CB25 9FF"/>
    <tag k="addr:street" v="Spaldings Lane"/>
    <tag k="building" v="house"/>
    <tag k="source" v="survey"/>
  </way>
  <way id="56697302" version="1" timestamp="2010-04-27T20:54:46Z" changeset="4545004" uid="2406" user="JeffB">
    <nd ref="709099890"/>
    <nd ref="709099892"/>
    <nd ref="709099895"/>
    <nd ref="709099897"/>
    <nd ref="709099890"/>
    <tag k="addr:housenumber" v="14,16"/>
    <tag k="addr:street" v="Spaldings Lane"/>
    <tag k="building" v="house"/>
    <tag k="source" v="survey"/>
  </way>
  <way id="58724815" version="7" timestamp="2025-03-12T16:09:59Z" changeset="163534880" uid="2406" user="JeffB">
    <nd ref="25688557"/>
    <nd ref="26976413"/>
    <tag k="cycleway:left" v="no"/>
    <tag k="highway" v="tertiary"/>
    <tag k="lanes" v="1"/>
    <tag k="name" v="Waterbeach Road"/>
    <tag k="name:etymology:wikidata" v="Q686675"/>
    <tag k="oneway" v="yes"/>
    <tag k="surface" v="asphalt"/>
  </way>
  <way id="58724817" version="7" timestamp="2023-04-18T20:40:03Z" changeset="135076563" uid="16089" user="Ben Harris">
    <nd ref="25688557"/>
    <nd ref="448415428"/>
    <nd ref="10822762103"/>
    <nd ref="21319420"/>
    <nd ref="8001671574"/>
    <nd ref="26976692"/>
    <tag k="alt_name" v="Ely Road"/>
    <tag k="highway" v="trunk"/>
    <tag k="lanes" v="1"/>
    <tag k="maxspeed" v="50 mph"/>
    <tag k="oneway" v="yes"/>
    <tag k="ref" v="A10"/>
  </way>
  <way id="58724819" version="5" timestamp="2014-08-14T09:06:48Z" changeset="24740046" uid="1723158" user="ozhiker2">
    <nd ref="26976413"/>
    <nd ref="26976232"/>
    <nd ref="26976239"/>
    <tag k="alt_name" v="Ely Road"/>
    <tag k="highway" v="trunk"/>
    <tag k="lanes" v="1"/>
    <tag k="maxspeed" v="50 mph"/>
    <tag k="oneway" v="yes"/>
    <tag k="ref" v="A10"/>
    <tag k="source:ref" v="survey"/>
  </way>
  <way id="66568315" version="8" timestamp="2025-02-22T21:32:59Z" changeset="162832334" uid="5008136" user="JayTurnr">
    <nd ref="7501775542"/>
    <nd ref="805643674"/>
    <nd ref="12610640281"/>
    <nd ref="7501775543"/>
    <nd ref="12610640280"/>
    <nd ref="3869955"/>
    <tag k="highway" v="trunk"/>
    <tag k="lanes" v="2"/>
    <tag k="lit" v="yes"/>
    <tag k="maxspeed" v="60 mph"/>
    <tag k="maxspeed:type" v="GB:nsl_single"/>
    <tag k="oneway" v="yes"/>
    <tag k="ref" v="A10"/>
    <tag k="sidewalk" v="no"/>
  </way>
  <way id="66568316" version="8" timestamp="2025-02-22T21:32:59Z" changeset="162832334" uid="5008136" user="JayTurnr">
    <nd ref="262711261"/>
    <nd ref="7501775541"/>
    <nd ref="805643686"/>
    <nd ref="7501775542"/>
    <tag k="highway" v="trunk"/>
    <tag k="lanes" v="1"/>
    <tag k="lit" v="yes"/>
    <tag k="maxspeed" v="60 mph"/>
    <tag k="maxspeed:type" v="GB:nsl_single"/>
    <tag k="oneway" v="yes"/>
    <tag k="ref" v="A10"/>
    <tag k="sidewalk" v="no"/>
  </way>
  <way id="66568321" version="12" timestamp="2024-06-11T09:17:19Z" changeset="152532806" uid="19529281" user="Nebulans">
    <nd ref="805643658"/>
    <nd ref="805643694"/>
    <nd ref="805643696"/>
    <tag k="alt_name" v="Ely Road"/>
    <tag k="highway" v="trunk"/>
    <tag k="lanes" v="2"/>
    <tag k="maxspeed" v="60 mph"/>
    <tag k="maxspeed:type" v="GB:nsl_single"/>
    <tag k="ref" v="A10"/>
    <tag k="sidewalk" v="no"/>
  </way>
  <way id="66568324" version="6" timestamp="2025-02-22T21:32:59Z" changeset="162832334" uid="5008136" user="JayTurnr">
    <nd ref="262711260"/>
    <nd ref="805643658"/>
    <tag k="highway" v="trunk"/>
    <tag k="lanes" v="1"/>
    <tag k="lit" v="yes"/>
    <tag k="maxspeed" v="60 mph"/>
    <tag k="maxspeed:type" v="GB:nsl_single"/>
    <tag k="oneway" v="yes"/>
    <tag k="ref" v="A10"/>
    <tag k="sidewalk" v="no"/>
  </way>
  <way id="66568327" version="6" timestamp="2025-02-21T16:30:29Z" changeset="162788264" uid="5008136" user="JayTurnr">
    <nd ref="805643732"/>
    <nd ref="3191599237"/>
    <nd ref="805643738"/>
    <nd ref="3191599241"/>
    <nd ref="3191599245"/>
    <nd ref="26976308"/>
    <tag k="highway" v="trunk"/>
    <tag k="lanes" v="1"/>
    <tag k="lit" v="yes"/>
    <tag k="maxspeed" v="60 mph"/>
    <tag k="maxspeed:type" v="GB:nsl_single"/>
    <tag k="oneway" v="yes"/>
    <tag k="ref" v="A10"/>
    <tag k="sidewalk" v="no"/>
  </way>
  <way id="66568330" version="7" timestamp="2025-02-21T16:30:29Z" changeset="162788264" uid="5008136" user="JayTurnr">
    <nd ref="3869866"/>
    <nd ref="805643749"/>
    <nd ref="3191599236"/>
    <nd ref="805643732"/>
    <tag k="highway" v="trunk"/>
    <tag k="lanes" v="1"/>
    <tag k="lit" v="yes"/>
    <tag k="maxspeed" v="60 mph"/>
    <tag k="maxspeed:type" v="GB:nsl_single"/>
    <tag k="oneway" v="yes"/>
    <tag k="ref" v="A10"/>
    <tag k="sidewalk" v="no"/>
  </way>
  <way id="66568331" version="10" timestamp="2025-02-21T16:30:29Z" changeset="162788264" uid="5008136" user="JayTurnr">
    <nd ref="11029940109"/>
    <nd ref="11029940108"/>
    <nd ref="12607171567"/>
    <tag k="highway" v="trunk"/>
    <tag k="lanes" v="1"/>
    <tag k="lit" v="yes"/>
    <tag k="maxspeed" v="60 mph"/>
    <tag k="maxspeed:type" v="GB:nsl_single"/>
    <tag k="oneway" v="yes"/>
    <tag k="ref" v="A10"/>
    <tag k="sidewalk" v="no"/>
  </way>
  <way id="66568332" version="9" timestamp="2025-02-21T16:30:29Z" changeset="162788264" uid="5008136" user="JayTurnr">
    <nd ref="1499350645"/>
    <nd ref="262711271"/>
    <tag k="alt_name" v="Ely Road"/>
    <tag k="highway" v="trunk"/>
    <tag k="lanes" v="3"/>
    <tag k="lanes:backward" v="2"/>
    <tag k="lanes:forward" v="1"/>
    <tag k="maxspeed" v="40 mph"/>
    <tag k="maxspeed:type" v="sign"/>
    <tag k="ref" v="A10"/>
    <tag k="sidewalk" v="no"/>
  </way>
  <way id="130964283" version="10" timestamp="2025-02-21T16:30:29Z" changeset="162788264" uid="5008136" user="JayTurnr">
    <nd ref="12607171569"/>
    <nd ref="1499350564"/>
    <nd ref="1499350610"/>
    <nd ref="12607171570"/>
    <tag k="alt_name" v="Ely Road"/>
    <tag k="highway" v="trunk"/>
    <tag k="lanes" v="3"/>
    <tag k="lanes:backward" v="2"/>
    <tag k="lanes:forward" v="1"/>
    <tag k="lit" v="yes"/>
    <tag k="maxspeed" v="60 mph"/>
    <tag k="maxspeed:type" v="GB:nsl_single"/>
    <tag k="ref" v="A10"/>
    <tag k="sidewalk" v="no"/>
  </way>
  <way id="130964285" version="10" timestamp="2025-02-22T21:31:19Z" changeset="162832293" uid="5008136" user="JayTurnr">
    <nd ref="12607171570"/>
    <nd ref="3869997"/>
    <nd ref="1494269086"/>
    <nd ref="12610610008"/>
    <nd ref="262711244"/>
    <nd ref="12610610009"/>
    <nd ref="8001671582"/>
    <nd ref="7501775542"/>
    <tag k="alt_name" v="Ely Road"/>
    <tag k="highway" v="trunk"/>
    <tag k="lanes" v="2"/>
    <tag k="lit" v="yes"/>
    <tag k="maxspeed" v="60 mph"/>
    <tag k="maxspeed:type" v="GB:nsl_single"/>
    <tag k="ref" v="A10"/>
    <tag k="sidewalk" v="no"/>
  </way>
  <way id="131423173" version="3" timestamp="2021-11-19T11:28:59Z" changeset="113986810" uid="364" user="Edward">
    <nd ref="1446389050"/>
    <nd ref="1446389071"/>
    <nd ref="1446389126"/>
    <nd ref="1446389089"/>
    <nd ref="1446389081"/>
    <nd ref="708096356"/>
    <nd ref="1446388945"/>
    <nd ref="1446388988"/>
    <nd ref="1446389102"/>
    <nd ref="1446389121"/>
    <nd ref="1446389050"/>
    <tag k="addr:housenumber" v="12,10,8"/>
    <tag k="addr:street" v="Green End"/>
    <tag k="building" v="residential"/>
    <tag k="name" v="Milton Cottage, Plough Cottage, Oak Cottage"/>
    <tag k="source" v="big"/>
    <tag k="source:addr:housenumber" v="survey"/>
    <tag k="wikidata" v="Q26616218"/>
  </way>
  <way id="131423177" version="2" timestamp="2019-12-16T08:40:27Z" changeset="78462668" uid="322785" user="BCNorwich">
    <nd ref="1446389000"/>
    <nd ref="1446389029"/>
    <nd ref="1446388993"/>
    <nd ref="1446389049"/>
    <nd ref="1446388944"/>
    <nd ref="1446388981"/>
    <nd ref="708096362"/>
    <nd ref="1446389036"/>
    <nd ref="1446389000"/>
    <tag k="addr:housenumber" v="2"/>
    <tag k="addr:street" v="Green End"/>
    <tag k="building" v="house"/>
    <tag k="name" v="The Old School"/>
    <tag k="source" v="bing"/>
    <tag k="source:addr:housenumber" v="survey"/>
  </way>
  <way id="131423183" version="2" timestamp="2019-12-16T08:40:27Z" changeset="78462668" uid="322785" user="BCNorwich">
    <nd ref="1446389098"/>
    <nd ref="1446389133"/>
    <nd ref="1446388957"/>
    <nd ref="1446388936"/>
    <nd ref="26976944"/>
    <nd ref="1446388973"/>
    <nd ref="1446389031"/>
    <nd ref="1446389063"/>
    <nd ref="1446389072"/>
    <nd ref="1446389108"/>
    <nd ref="1446389105"/>
    <nd ref="1446388916"/>
    <nd ref="1446389098"/>
    <tag k="amenity" v="townhall"/>
    <tag k="building" v="yes"/>
    <tag k="name" v="Landbeach Village Hall"/>
    <tag k="source" v="bing"/>
  </way>
  <way id="131423186" version="7" timestamp="2021-11-19T11:28:45Z" changeset="113986803" uid="364" user="Edward">
    <nd ref="7059555913"/>
    <nd ref="1446389054"/>
    <nd ref="1446389004"/>
    <nd ref="7059555908"/>
    <nd ref="7059555909"/>
    <nd ref="1446388939"/>
    <nd ref="1446389109"/>
    <nd ref="7059555912"/>
    <nd ref="1446388921"/>
    <nd ref="708096350"/>
    <nd ref="7059555913"/>
    <tag k="addr:housenumber" v="14"/>
    <tag k="addr:street" v="Green End"/>
    <tag k="building" v="house"/>
    <tag k="name" v="The Old Rectory"/>
    <tag k="source" v="bing"/>
    <tag k="source:addr:housenumber" v="survey"/>
    <tag k="wikidata" v="Q17550620"/>
  </way>
  <way id="131423197" version="5" timestamp="2023-11-03T08:23:52Z" changeset="143562757" uid="504708" user="HillWithSmallFields">
    <nd ref="1446389046"/>
    <nd ref="1446389110"/>
    <nd ref="1446389062"/>
    <nd ref="1446388938"/>
    <nd ref="1446389107"/>
    <nd ref="1446389053"/>
    <nd ref="1446389127"/>
    <nd ref="1446389047"/>
    <nd ref="1446388937"/>
    <nd ref="1446388914"/>
    <nd ref="1446389056"/>
    <nd ref="1446389030"/>
    <nd ref="1446389018"/>
    <nd ref="1446389025"/>
    <nd ref="1446389003"/>
    <nd ref="1446389097"/>
    <nd ref="1446389094"/>
    <nd ref="1446389013"/>
    <nd ref="1446389052"/>
    <nd ref="1446388941"/>
    <nd ref="1446389046"/>
    <tag k="addr:street" v="Green End"/>
    <tag k="amenity" v="place_of_worship"/>
    <tag k="building" v="church"/>
    <tag k="denomination" v="anglican"/>
    <tag k="name" v="All Saints (Landbeach Parish Church)"/>
    <tag k="ref:dove" v="15449"/>
    <tag k="religion" v="christian"/>
    <tag k="source" v="bing"/>
    <tag k="source:name" v="local knowledge"/>
    <tag k="wikidata" v="Q17528033"/>
  </way>
  <way id="131424267" version="2" timestamp="2021-06-05T20:13:30Z" changeset="105896633" uid="1175340" user="Tom Oldbury">
    <nd ref="1446408661"/>
    <nd ref="1446408719"/>
    <nd ref="1446408730"/>
    <nd ref="1446408679"/>
    <nd ref="1446408774"/>
    <nd ref="1446408681"/>
    <nd ref="1446408666"/>
    <nd ref="1446409027"/>
    <nd ref="1446408734"/>
    <nd ref="1446408813"/>
    <nd ref="1446409014"/>
    <nd ref="1446408661"/>
    <tag k="building" v="yes"/>
    <tag k="name" v="The Brambles"/>
    <tag k="source" v="bing"/>
    <tag k="tourism" v="hotel"/>
  </way>
  <way id="131567876" version="2" timestamp="2012-04-06T23:01:11Z" changeset="11207248" uid="281267" user="smb1001">
    <nd ref="1447824288"/>
    <nd ref="1447824301"/>
    <nd ref="1447824296"/>
    <nd ref="1447824302"/>
    <nd ref="1447824284"/>
    <nd ref="1447824295"/>
    <nd ref="1447824282"/>
    <nd ref="1447824293"/>
    <nd ref="1447824288"/>
    <tag k="building" v="yes"/>
    <tag k="name" v="Rectory Farm"/>
    <tag k="source" v="bing"/>
  </way>
  <way id="131895222" version="6" timestamp="2025-02-21T16:25:57Z" changeset="162787949" uid="5008136" user="JayTurnr">
    <nd ref="1450941405"/>
    <nd ref="1450941402"/>
    <nd ref="12607273648"/>
    <nd ref="12607273649"/>
    <nd ref="1450941406"/>
    <tag k="cycleway:left" v="no"/>
    <tag k="highway" v="tertiary_link"/>
    <tag k="lanes" v="1"/>
    <tag k="oneway" v="yes"/>
    <tag k="surface" v="asphalt"/>
  </way>
  <way id="132846341" version="3" timestamp="2021-11-16T17:02:10Z" changeset="113860473" uid="364" user="Edward">
    <nd ref="1461552572"/>
    <nd ref="26976949"/>
    <nd ref="1461552571"/>
    <nd ref="1461552566"/>
    <nd ref="1461552572"/>
    <tag k="amenity" v="place_of_worship"/>
    <tag k="building" v="church"/>
    <tag k="denomination" v="baptist"/>
    <tag k="name" v="Landbeach &amp; Milton Baptist Church"/>
    <tag k="religion" v="christian"/>
    <tag k="source" v="bing"/>
    <tag k="source:name" v="survey"/>
    <tag k="wikidata" v="Q26473781"/>
  </way>
  <way id="134567090" version="3" timestamp="2024-01-16T18:56:14Z" changeset="146335212" uid="1102246" user="jtn20">
    <nd ref="1479354401"/>
    <nd ref="1479354488"/>
    <nd ref="1479354444"/>
    <nd ref="1479354524"/>
    <nd ref="1479354401"/>
    <tag k="addr:postcode" v="CB25 9FQ"/>
    <tag k="building" v="yes"/>
    <tag k="building:levels" v="2"/>
    <tag k="name" v="Middle Farm"/>
    <tag k="roof:levels" v="1"/>
    <tag k="roof:shape" v="gabled"/>
  </way>
  <way id="134567091" version="2" timestamp="2024-01-16T18:56:14Z" changeset="146335212" uid="1102246" user="jtn20">
    <nd ref="1479354452"/>
    <nd ref="1479354493"/>
    <nd ref="1479354469"/>
    <nd ref="1479354414"/>
    <nd ref="1479354492"/>
    <nd ref="1479354396"/>
    <nd ref="1479354422"/>
    <nd ref="1479354448"/>
    <nd ref="1479354452"/>
    <tag k="building" v="yes"/>
    <tag k="building:levels" v="2"/>
    <tag k="name" v="Oldfield Farm"/>
    <tag k="roof:levels" v="1"/>
    <tag k="roof:shape" v="gabled"/>
  </way>
  <way id="134567092" version="2" timestamp="2024-01-16T18:56:14Z" changeset="146335212" uid="1102246" user="jtn20">
    <nd ref="1479354421"/>
    <nd ref="1479354527"/>
    <nd ref="1479354440"/>
    <nd ref="1479354521"/>
    <nd ref="1479354421"/>
    <tag k="building" v="yes"/>
    <tag k="building:levels" v="2"/>
    <tag k="name" v="Punch Farm"/>
    <tag k="roof:levels" v="1"/>
    <tag k="roof:shape" v="gabled"/>
  </way>
  <way id="134567093" version="2" timestamp="2024-01-16T18:56:14Z" changeset="146335212" uid="1102246" user="jtn20">
    <nd ref="1479354400"/>
    <nd ref="1479354426"/>
    <nd ref="1479354403"/>
    <nd ref="1479354395"/>
    <nd ref="1479354443"/>
    <nd ref="1479354508"/>
    <nd ref="1479354525"/>
    <nd ref="1479354464"/>
    <nd ref="1479354491"/>
    <nd ref="1479354449"/>
    <nd ref="1479354490"/>
    <nd ref="1479354454"/>
    <nd ref="1479354461"/>
    <nd ref="1479354393"/>
    <nd ref="1479354400"/>
    <tag k="building" v="yes"/>
    <tag k="building:levels" v="2"/>
    <tag k="name" v="Rectory Farm"/>
    <tag k="roof:levels" v="1"/>
    <tag k="roof:shape" v="gabled"/>
  </way>
  <way id="135922702" version="2" timestamp="2025-02-21T16:19:14Z" changeset="162787688" uid="5008136" user="JayTurnr">
    <nd ref="709111467"/>
    <nd ref="1491930796"/>
    <nd ref="1491930766"/>
    <nd ref="1491930779"/>
    <nd ref="1491930804"/>
    <nd ref="1491930771"/>
    <nd ref="1491930795"/>
    <nd ref="1491930769"/>
    <nd ref="709111467"/>
    <tag k="addr:housenumber" v="83"/>
    <tag k="addr:street" v="Waterbeach Road"/>
    <tag k="building" v="yes"/>
    <tag k="name" v="Manor House"/>
    <tag k="source" v="bing;survey"/>
  </way>
  <way id="135922703" version="3" timestamp="2025-02-21T16:19:14Z" changeset="162787688" uid="5008136" user="JayTurnr">
    <nd ref="709111480"/>
    <nd ref="1491930831"/>
    <nd ref="1491930827"/>
    <nd ref="1491930829"/>
    <nd ref="709111480"/>
    <tag k="addr:housenumber" v="85"/>
    <tag k="addr:postcode" v="CB25 9FA"/>
    <tag k="addr:street" v="Waterbeach Road"/>
    <tag k="building" v="yes"/>
    <tag k="name" v="Rosemere"/>
    <tag k="source" v="bing;survey"/>
  </way>
  <way id="135922704" version="2" timestamp="2025-02-21T16:19:14Z" changeset="162787688" uid="5008136" user="JayTurnr">
    <nd ref="709111430"/>
    <nd ref="1491930791"/>
    <nd ref="1491930816"/>
    <nd ref="1491930787"/>
    <nd ref="1491930812"/>
    <nd ref="1491930806"/>
    <nd ref="1491930785"/>
    <nd ref="1491930781"/>
    <nd ref="709111430"/>
    <tag k="addr:housenumber" v="87"/>
    <tag k="addr:street" v="Waterbeach Road"/>
    <tag k="building" v="yes"/>
    <tag k="name" v="Springfield"/>
    <tag k="source" v="survey"/>
  </way>
  <way id="135998722" version="1" timestamp="2011-11-05T17:16:13Z" changeset="9748419" uid="2406" user="JeffB">
    <nd ref="26976205"/>
    <nd ref="26976769"/>
    <nd ref="1492530501"/>
    <tag k="highway" v="residential"/>
    <tag k="name" v="Abrahams Close"/>
    <tag k="source" v="bing"/>
    <tag k="source:name" v="local knowledge"/>
  </way>
  <way id="136000974" version="2" timestamp="2012-02-01T22:10:07Z" changeset="10563125" uid="4663" user="G3YAC">
    <nd ref="1492545861"/>
    <nd ref="1492545904"/>
    <nd ref="1492545882"/>
    <nd ref="1492545650"/>
    <nd ref="1492545622"/>
    <nd ref="1492545958"/>
    <nd ref="1492545849"/>
    <nd ref="1492545824"/>
    <nd ref="1492545627"/>
    <nd ref="1492545652"/>
    <nd ref="1492545909"/>
    <nd ref="1492545706"/>
    <nd ref="1492545704"/>
    <nd ref="1492545735"/>
    <nd ref="1492545716"/>
    <nd ref="1492545936"/>
    <nd ref="1492545954"/>
    <nd ref="1492545736"/>
    <nd ref="1492545702"/>
    <nd ref="1492545832"/>
    <nd ref="1492545861"/>
    <tag k="building" v="yes"/>
    <tag k="name" v="Ashley House"/>
  </way>
  <way id="136003841" version="2" timestamp="2011-11-23T00:04:27Z" changeset="9915370" uid="4663" user="G3YAC">
    <nd ref="1492568300"/>
    <nd ref="1492568251"/>
    <nd ref="1492568264"/>
    <nd ref="1492568368"/>
    <nd ref="1492568300"/>
    <tag k="building" v="yes"/>
    <tag k="name" v="Worts Farm Barn"/>
    <tag k="source" v="bing"/>
  </way>
  <way id="136003843" version="2" timestamp="2023-09-23T21:58:46Z" changeset="141662416" uid="5173844" user="ndrw6">
    <nd ref="1492567932"/>
    <nd ref="1492568434"/>
    <nd ref="1492568167"/>
    <nd ref="1492568145"/>
    <nd ref="1492567932"/>
    <tag k="addr:housename" v="The Old Orchard"/>
    <tag k="addr:housenumber" v="50a"/>
    <tag k="addr:street" v="High Street"/>
    <tag k="building" v="yes"/>
    <tag k="source" v="survey"/>
  </way>
  <way id="136003846" version="2" timestamp="2023-09-23T21:58:46Z" changeset="141662416" uid="5173844" user="ndrw6">
    <nd ref="1492568266"/>
    <nd ref="11214295975"/>
    <nd ref="11214295974"/>
    <nd ref="1492568110"/>
    <nd ref="1492568266"/>
    <tag k="addr:housenumber" v="50"/>
    <tag k="addr:street" v="High Street"/>
    <tag k="building" v="yes"/>
    <tag k="source" v="survey"/>
  </way>
  <way id="136003850" version="1" timestamp="2011-11-05T18:08:02Z" changeset="9748891" uid="2406" user="JeffB">
    <nd ref="1492568486"/>
    <nd ref="1492567908"/>
    <nd ref="1492568304"/>
    <nd ref="1492568257"/>
    <nd ref="1492568363"/>
    <nd ref="1492568005"/>
    <nd ref="1492567961"/>
    <nd ref="1492568438"/>
    <nd ref="1492568371"/>
    <nd ref="1492568422"/>
    <nd ref="1492568020"/>
    <nd ref="1492568398"/>
    <nd ref="1492567990"/>
    <nd ref="1492568466"/>
    <nd ref="1492568486"/>
    <tag k="building" v="yes"/>
    <tag k="name" v="Worts Farm"/>
    <tag k="source" v="bing"/>
  </way>
  <way id="136003859" version="2" timestamp="2023-09-23T21:58:46Z" changeset="141662416" uid="5173844" user="ndrw6">
    <nd ref="1492567889"/>
    <nd ref="1492568094"/>
    <nd ref="1492568353"/>
    <nd ref="1492567948"/>
    <nd ref="1492567889"/>
    <tag k="addr:housenumber" v="38"/>
    <tag k="addr:street" v="High Street"/>
    <tag k="building" v="yes"/>
    <tag k="name" v="Long Acre"/>
    <tag k="source" v="survey"/>
  </way>
  <way id="136003861" version="2" timestamp="2023-09-23T21:58:46Z" changeset="141662416" uid="5173844" user="ndrw6">
    <nd ref="1492568236"/>
    <nd ref="11214295941"/>
    <nd ref="11214295940"/>
    <nd ref="1492568136"/>
    <nd ref="1492568236"/>
    <tag k="addr:housenumber" v="42"/>
    <tag k="addr:street" v="High Street"/>
    <tag k="building" v="yes"/>
    <tag k="source" v="survey"/>
  </way>
  <way id="136003863" version="2" timestamp="2023-09-23T21:58:46Z" changeset="141662416" uid="5173844" user="ndrw6">
    <nd ref="1492568170"/>
    <nd ref="1492567887"/>
    <nd ref="1492568233"/>
    <nd ref="1492568260"/>
    <nd ref="1492568296"/>
    <nd ref="1492567905"/>
    <nd ref="1492568170"/>
    <tag k="addr:housenumber" v="52"/>
    <tag k="addr:street" v="High Street"/>
    <tag k="building" v="yes"/>
    <tag k="name" v="The Old Post Office"/>
    <tag k="source" v="survey"/>
  </way>
  <way id="136003866" version="2" timestamp="2021-11-19T11:30:27Z" changeset="113986861" uid="364" user="Edward">
    <nd ref="1492568221"/>
    <nd ref="1492568302"/>
    <nd ref="1492568012"/>
    <nd ref="1492568484"/>
    <nd ref="1492568221"/>
    <tag k="building" v="yes"/>
    <tag k="name" v="The Granary"/>
    <tag k="source" v="bing"/>
    <tag k="wikidata" v="Q26314524"/>
  </way>
  <way id="136017237" version="2" timestamp="2025-02-21T16:19:14Z" changeset="162787688" uid="5008136" user="JayTurnr">
    <nd ref="709111304"/>
    <nd ref="1492700574"/>
    <nd ref="1492700271"/>
    <nd ref="1492700368"/>
    <nd ref="1492700514"/>
    <nd ref="1492700470"/>
    <nd ref="1492700386"/>
    <nd ref="1492700346"/>
    <nd ref="1492700421"/>
    <nd ref="1492700094"/>
    <nd ref="1492700439"/>
    <nd ref="1492700479"/>
    <nd ref="1492700477"/>
    <nd ref="1492700347"/>
    <nd ref="709111304"/>
    <tag k="addr:housenumber" v="115"/>
    <tag k="addr:street" v="Waterbeach Road"/>
    <tag k="building" v="yes"/>
    <tag k="name" v="The Hermitage"/>
    <tag k="source" v="survey"/>
  </way>
  <way id="136017241" version="2" timestamp="2025-02-21T16:19:14Z" changeset="162787688" uid="5008136" user="JayTurnr">
    <nd ref="709111443"/>
    <nd ref="1492700265"/>
    <nd ref="1492700294"/>
    <nd ref="1492700331"/>
    <nd ref="1492700156"/>
    <nd ref="1492700472"/>
    <nd ref="1492700435"/>
    <nd ref="1492700124"/>
    <nd ref="1492700040"/>
    <nd ref="1492700178"/>
    <nd ref="1492700533"/>
    <nd ref="1492700240"/>
    <nd ref="709111443"/>
    <tag k="addr:housenumber" v="91"/>
    <tag k="addr:street" v="Waterbeach Road"/>
    <tag k="building" v="yes"/>
    <tag k="source" v="survey"/>
  </way>
  <way id="136017243" version="2" timestamp="2025-02-21T16:19:14Z" changeset="162787688" uid="5008136" user="JayTurnr">
    <nd ref="709111379"/>
    <nd ref="1492700027"/>
    <nd ref="1492700232"/>
    <nd ref="1492700543"/>
    <nd ref="1492700076"/>
    <nd ref="1492700105"/>
    <nd ref="1492700031"/>
    <nd ref="1492700416"/>
    <nd ref="709111379"/>
    <tag k="addr:housenumber" v="119"/>
    <tag k="addr:street" v="Waterbeach Road"/>
    <tag k="building" v="yes"/>
    <tag k="source" v="survey"/>
  </way>
  <way id="136017250" version="2" timestamp="2025-02-21T16:19:14Z" changeset="162787688" uid="5008136" user="JayTurnr">
    <nd ref="709111415"/>
    <nd ref="1492700345"/>
    <nd ref="1492700323"/>
    <nd ref="1492700226"/>
    <nd ref="1492700523"/>
    <nd ref="1492700286"/>
    <nd ref="1492700250"/>
    <nd ref="1492700330"/>
    <nd ref="1492700566"/>
    <nd ref="1492700452"/>
    <nd ref="709111415"/>
    <tag k="addr:housenumber" v="105"/>
    <tag k="addr:street" v="Waterbeach Road"/>
    <tag k="building" v="yes"/>
    <tag k="source" v="survey"/>
  </way>
  <way id="136017252" version="2" timestamp="2025-02-21T16:19:14Z" changeset="162787688" uid="5008136" user="JayTurnr">
    <nd ref="709111406"/>
    <nd ref="1492700325"/>
    <nd ref="1492700074"/>
    <nd ref="1492700057"/>
    <nd ref="1492700426"/>
    <nd ref="1492700551"/>
    <nd ref="1492700402"/>
    <nd ref="1492700127"/>
    <nd ref="709111406"/>
    <tag k="addr:housenumber" v="103"/>
    <tag k="addr:street" v="Waterbeach Road"/>
    <tag k="building" v="yes"/>
    <tag k="source" v="survey"/>
  </way>
  <way id="136017254" version="2" timestamp="2025-02-21T16:19:14Z" changeset="162787688" uid="5008136" user="JayTurnr">
    <nd ref="709111220"/>
    <nd ref="1492700112"/>
    <nd ref="1492700367"/>
    <nd ref="1492700441"/>
    <nd ref="1492700217"/>
    <nd ref="1492700407"/>
    <nd ref="1492700161"/>
    <nd ref="1492700366"/>
    <nd ref="709111220"/>
    <tag k="addr:housenumber" v="125"/>
    <tag k="addr:street" v="Waterbeach Road"/>
    <tag k="building" v="house"/>
    <tag k="source" v="survey"/>
  </way>
  <way id="136017257" version="2" timestamp="2025-02-21T16:19:14Z" changeset="162787688" uid="5008136" user="JayTurnr">
    <nd ref="709111448"/>
    <nd ref="1492700194"/>
    <nd ref="1492700125"/>
    <nd ref="1492700305"/>
    <nd ref="1492700060"/>
    <nd ref="1492700017"/>
    <nd ref="1492700348"/>
    <nd ref="1492700255"/>
    <nd ref="1492700526"/>
    <nd ref="1492700385"/>
    <nd ref="709111448"/>
    <tag k="addr:housenumber" v="93"/>
    <tag k="addr:street" v="Waterbeach Road"/>
    <tag k="building" v="yes"/>
    <tag k="source" v="survey"/>
  </way>
  <way id="136017258" version="2" timestamp="2025-02-21T16:19:14Z" changeset="162787688" uid="5008136" user="JayTurnr">
    <nd ref="709111360"/>
    <nd ref="1492700288"/>
    <nd ref="1492700321"/>
    <nd ref="1492700459"/>
    <nd ref="1492700403"/>
    <nd ref="1492700312"/>
    <nd ref="1492700340"/>
    <nd ref="1492700400"/>
    <nd ref="1492700165"/>
    <nd ref="1492700152"/>
    <nd ref="709111360"/>
    <tag k="addr:housenumber" v="107"/>
    <tag k="addr:street" v="Waterbeach Road"/>
    <tag k="building" v="yes"/>
    <tag k="source" v="survey"/>
  </way>
  <way id="136017259" version="2" timestamp="2025-02-21T16:19:14Z" changeset="162787688" uid="5008136" user="JayTurnr">
    <nd ref="709111395"/>
    <nd ref="1492700317"/>
    <nd ref="1492700267"/>
    <nd ref="1492700499"/>
    <nd ref="1492700521"/>
    <nd ref="1492700310"/>
    <nd ref="1492700228"/>
    <nd ref="1492700261"/>
    <nd ref="1492700311"/>
    <nd ref="1492700301"/>
    <nd ref="1492700233"/>
    <nd ref="1492700293"/>
    <nd ref="709111395"/>
    <tag k="addr:housenumber" v="99"/>
    <tag k="addr:street" v="Waterbeach Road"/>
    <tag k="building" v="yes"/>
    <tag k="source" v="survey"/>
  </way>
  <way id="136017260" version="2" timestamp="2025-02-21T16:19:14Z" changeset="162787688" uid="5008136" user="JayTurnr">
    <nd ref="709111375"/>
    <nd ref="1492700164"/>
    <nd ref="1492700090"/>
    <nd ref="1492700108"/>
    <nd ref="1492700173"/>
    <nd ref="1492700213"/>
    <nd ref="1492700234"/>
    <nd ref="1492700332"/>
    <nd ref="709111375"/>
    <tag k="addr:housenumber" v="111"/>
    <tag k="addr:street" v="Waterbeach Road"/>
    <tag k="building" v="yes"/>
    <tag k="source" v="survey"/>
  </way>
  <way id="136017264" version="2" timestamp="2025-02-21T16:19:14Z" changeset="162787688" uid="5008136" user="JayTurnr">
    <nd ref="709111377"/>
    <nd ref="1492700029"/>
    <nd ref="1492700443"/>
    <nd ref="1492700350"/>
    <nd ref="1492700192"/>
    <nd ref="1492700211"/>
    <nd ref="709111377"/>
    <tag k="addr:housenumber" v="113"/>
    <tag k="addr:street" v="Waterbeach Road"/>
    <tag k="building" v="yes"/>
    <tag k="name" v="Crowlands"/>
    <tag k="source" v="survey"/>
  </way>
  <way id="136017265" version="2" timestamp="2025-02-21T16:19:14Z" changeset="162787688" uid="5008136" user="JayTurnr">
    <nd ref="709111454"/>
    <nd ref="1492700559"/>
    <nd ref="1492700197"/>
    <nd ref="1492700370"/>
    <nd ref="1492700541"/>
    <nd ref="1492700512"/>
    <nd ref="1492700471"/>
    <nd ref="1492700019"/>
    <nd ref="1492700254"/>
    <nd ref="1492700101"/>
    <nd ref="1492700092"/>
    <nd ref="1492700303"/>
    <nd ref="1492700190"/>
    <nd ref="1492700244"/>
    <nd ref="709111454"/>
    <tag k="addr:housenumber" v="95"/>
    <tag k="addr:street" v="Waterbeach Road"/>
    <tag k="building" v="yes"/>
    <tag k="source" v="survey"/>
  </way>
  <way id="136017266" version="2" timestamp="2025-02-21T16:19:14Z" changeset="162787688" uid="5008136" user="JayTurnr">
    <nd ref="709111371"/>
    <nd ref="1492700429"/>
    <nd ref="1492700457"/>
    <nd ref="1492700463"/>
    <nd ref="1492700388"/>
    <nd ref="1492700154"/>
    <nd ref="1492700142"/>
    <nd ref="1492700235"/>
    <nd ref="709111371"/>
    <tag k="addr:housenumber" v="109"/>
    <tag k="addr:street" v="Waterbeach Road"/>
    <tag k="building" v="yes"/>
    <tag k="source" v="survey"/>
  </way>
  <way id="136017269" version="2" timestamp="2025-02-21T16:19:14Z" changeset="162787688" uid="5008136" user="JayTurnr">
    <nd ref="709111385"/>
    <nd ref="1492700290"/>
    <nd ref="1492700096"/>
    <nd ref="1492700503"/>
    <nd ref="1492700135"/>
    <nd ref="1492700434"/>
    <nd ref="709111385"/>
    <tag k="addr:housenumber" v="97"/>
    <tag k="addr:street" v="Waterbeach Road"/>
    <tag k="building" v="yes"/>
    <tag k="source" v="survey"/>
  </way>
  <way id="136017273" version="2" timestamp="2025-02-21T16:19:14Z" changeset="162787688" uid="5008136" user="JayTurnr">
    <nd ref="709111400"/>
    <nd ref="1492700451"/>
    <nd ref="1492700430"/>
    <nd ref="1492700198"/>
    <nd ref="1492700292"/>
    <nd ref="1492700490"/>
    <nd ref="1492700274"/>
    <nd ref="1492700252"/>
    <nd ref="1492700473"/>
    <nd ref="1492700037"/>
    <nd ref="1492700453"/>
    <nd ref="1492700146"/>
    <nd ref="1492700461"/>
    <nd ref="1492700537"/>
    <nd ref="709111400"/>
    <tag k="addr:housenumber" v="101"/>
    <tag k="addr:street" v="Waterbeach Road"/>
    <tag k="building" v="yes"/>
    <tag k="source" v="survey"/>
  </way>
  <way id="136017274" version="2" timestamp="2025-02-21T16:19:14Z" changeset="162787688" uid="5008136" user="JayTurnr">
    <nd ref="709111295"/>
    <nd ref="1492700505"/>
    <nd ref="1492700179"/>
    <nd ref="1492700282"/>
    <nd ref="1492700110"/>
    <nd ref="1492700329"/>
    <nd ref="1492700359"/>
    <nd ref="1492700404"/>
    <nd ref="1492700578"/>
    <nd ref="1492700284"/>
    <nd ref="1492700062"/>
    <nd ref="1492700174"/>
    <nd ref="1492700491"/>
    <nd ref="1492700162"/>
    <nd ref="1492700365"/>
    <nd ref="1492700361"/>
    <nd ref="1492700431"/>
    <nd ref="1492700055"/>
    <nd ref="1492700530"/>
    <nd ref="1492700483"/>
    <nd ref="1492700571"/>
    <nd ref="1492700133"/>
    <nd ref="709111295"/>
    <tag k="addr:housenumber" v="117"/>
    <tag k="addr:street" v="Waterbeach Road"/>
    <tag k="building" v="yes"/>
    <tag k="source" v="survey"/>
  </way>
  <way id="136017278" version="2" timestamp="2025-02-21T16:19:14Z" changeset="162787688" uid="5008136" user="JayTurnr">
    <nd ref="709111436"/>
    <nd ref="1492700122"/>
    <nd ref="1492700236"/>
    <nd ref="1492700277"/>
    <nd ref="1492700269"/>
    <nd ref="1492700147"/>
    <nd ref="1492700048"/>
    <nd ref="1492700569"/>
    <nd ref="1492700208"/>
    <nd ref="1492700177"/>
    <nd ref="709111436"/>
    <tag k="addr:housenumber" v="89"/>
    <tag k="addr:street" v="Waterbeach Road"/>
    <tag k="building" v="yes"/>
    <tag k="name" v="Lyndhurst"/>
    <tag k="source" v="survey"/>
  </way>
  <way id="136017787" version="2" timestamp="2025-02-21T16:19:14Z" changeset="162787688" uid="5008136" user="JayTurnr">
    <nd ref="709111349"/>
    <nd ref="1492710010"/>
    <nd ref="1492710073"/>
    <nd ref="1492710086"/>
    <nd ref="709111349"/>
    <tag k="addr:housenumber" v="143"/>
    <tag k="addr:street" v="Waterbeach Road"/>
    <tag k="building" v="house"/>
    <tag k="name" v="Russell Lodge"/>
    <tag k="source" v="survey"/>
  </way>
  <way id="136017788" version="2" timestamp="2025-02-21T16:19:14Z" changeset="162787688" uid="5008136" user="JayTurnr">
    <nd ref="709111262"/>
    <nd ref="1492710058"/>
    <nd ref="1492709965"/>
    <nd ref="1492709987"/>
    <nd ref="1492709979"/>
    <nd ref="1492710021"/>
    <nd ref="1492709915"/>
    <nd ref="1492709991"/>
    <nd ref="709111262"/>
    <tag k="addr:housenumber" v="141"/>
    <tag k="addr:street" v="Waterbeach Road"/>
    <tag k="building" v="house"/>
    <tag k="name" v="The Acorns"/>
    <tag k="source" v="survey"/>
  </way>
  <way id="136017790" version="2" timestamp="2025-02-21T16:19:14Z" changeset="162787688" uid="5008136" user="JayTurnr">
    <nd ref="709111263"/>
    <nd ref="1492710022"/>
    <nd ref="1492710083"/>
    <nd ref="1492710060"/>
    <nd ref="1492710057"/>
    <nd ref="1492709956"/>
    <nd ref="1492710026"/>
    <nd ref="1492710035"/>
    <nd ref="1492710069"/>
    <nd ref="1492710041"/>
    <nd ref="709111263"/>
    <tag k="addr:housenumber" v="137-139"/>
    <tag k="addr:street" v="Waterbeach Road"/>
    <tag k="building" v="house"/>
    <tag k="source" v="survey"/>
  </way>
  <way id="136017792" version="3" timestamp="2025-02-21T16:19:14Z" changeset="162787688" uid="5008136" user="JayTurnr">
    <nd ref="708030775"/>
    <nd ref="1492709922"/>
    <nd ref="1492710085"/>
    <nd ref="1492710095"/>
    <nd ref="1492710006"/>
    <nd ref="1492710092"/>
    <nd ref="1492710071"/>
    <nd ref="1492710005"/>
    <nd ref="1492710055"/>
    <nd ref="1492709946"/>
    <nd ref="1492710958"/>
    <nd ref="1492710956"/>
    <nd ref="1492710027"/>
    <nd ref="1492709948"/>
    <nd ref="6551723119"/>
    <nd ref="1492710093"/>
    <nd ref="708030775"/>
    <tag k="addr:housenumber" v="147-149"/>
    <tag k="addr:street" v="Waterbeach Road"/>
    <tag k="building" v="house"/>
    <tag k="name" v="Silverwood Lodge"/>
    <tag k="source" v="survey"/>
  </way>
  <way id="136017793" version="2" timestamp="2025-02-21T16:19:14Z" changeset="162787688" uid="5008136" user="JayTurnr">
    <nd ref="709111207"/>
    <nd ref="1492709963"/>
    <nd ref="1492709938"/>
    <nd ref="1492709929"/>
    <nd ref="1492710033"/>
    <nd ref="1492709920"/>
    <nd ref="1492710075"/>
    <nd ref="1492709959"/>
    <nd ref="1492709961"/>
    <nd ref="1492709939"/>
    <nd ref="1492709926"/>
    <nd ref="1492710024"/>
    <nd ref="1492710078"/>
    <nd ref="1492710053"/>
    <nd ref="709111207"/>
    <tag k="addr:housenumber" v="127"/>
    <tag k="addr:street" v="Waterbeach Road"/>
    <tag k="building" v="house"/>
    <tag k="name" v="Woodlands"/>
    <tag k="source" v="survey"/>
  </way>
  <way id="136018891" version="3" timestamp="2021-03-09T02:21:39Z" changeset="100668458" uid="5173844" user="ndrw6">
    <nd ref="1492719864"/>
    <nd ref="1492719853"/>
    <nd ref="1492719683"/>
    <nd ref="1492719700"/>
    <nd ref="1492719899"/>
    <nd ref="1492719673"/>
    <nd ref="1492719733"/>
    <nd ref="1492719814"/>
    <nd ref="1492719896"/>
    <nd ref="1492719844"/>
    <nd ref="1492719864"/>
    <tag k="addr:housename" v="Hayburnwyke"/>
    <tag k="building" v="house"/>
    <tag k="name" v="Hayburnwyke"/>
    <tag k="source:name" v="survey"/>
  </way>
  <way id="136018896" version="3" timestamp="2021-03-09T02:21:39Z" changeset="100668458" uid="5173844" user="ndrw6">
    <nd ref="1492719833"/>
    <nd ref="1492719751"/>
    <nd ref="1492719727"/>
    <nd ref="1492719717"/>
    <nd ref="1492719885"/>
    <nd ref="1492719904"/>
    <nd ref="1492719676"/>
    <nd ref="1492719682"/>
    <nd ref="1492719833"/>
    <tag k="addr:housename" v="Rothwell"/>
    <tag k="addr:street" v="Ely Road"/>
    <tag k="building" v="house"/>
    <tag k="name" v="Rothwell"/>
    <tag k="source:name" v="survey"/>
  </way>
  <way id="136018900" version="2" timestamp="2011-11-06T13:31:18Z" changeset="9755147" uid="2406" user="JeffB">
    <nd ref="1492719865"/>
    <nd ref="1492719693"/>
    <nd ref="1492719708"/>
    <nd ref="1492719813"/>
    <nd ref="1492719808"/>
    <nd ref="1492719819"/>
    <nd ref="1492719773"/>
    <nd ref="1492719855"/>
    <nd ref="1492719894"/>
    <nd ref="1492719721"/>
    <nd ref="1492719848"/>
    <nd ref="1492719740"/>
    <nd ref="1492719865"/>
    <tag k="addr:housename" v="Newfield"/>
    <tag k="addr:street" v="Ely Road"/>
    <tag k="building" v="yes"/>
    <tag k="name" v="Newfield"/>
  </way>
  <way id="136018902" version="3" timestamp="2025-02-21T16:19:14Z" changeset="162787688" uid="5008136" user="JayTurnr">
    <nd ref="708030745"/>
    <nd ref="1492719665"/>
    <nd ref="1492719886"/>
    <nd ref="1492719804"/>
    <nd ref="1492719743"/>
    <nd ref="1492719713"/>
    <nd ref="1492719897"/>
    <nd ref="1492719695"/>
    <nd ref="1492719888"/>
    <nd ref="1492719875"/>
    <nd ref="708030745"/>
    <tag k="addr:housename" v="Stewart House"/>
    <tag k="addr:street" v="Ely Road"/>
    <tag k="building" v="house"/>
    <tag k="name" v="Stewart House"/>
    <tag k="source:name" v="survey"/>
  </way>
  <way id="136018903" version="3" timestamp="2021-03-09T02:21:39Z" changeset="100668458" uid="5173844" user="ndrw6">
    <nd ref="1492719830"/>
    <nd ref="1492719823"/>
    <nd ref="1492719842"/>
    <nd ref="1492719820"/>
    <nd ref="1492719771"/>
    <nd ref="1492719793"/>
    <nd ref="1492719830"/>
    <tag k="addr:housename" v="Beechenhurst"/>
    <tag k="addr:street" v="Ely Road"/>
    <tag k="building" v="house"/>
    <tag k="name" v="Beechenhurst"/>
    <tag k="source:name" v="survey"/>
  </way>
  <way id="136018904" version="3" timestamp="2021-03-09T02:21:39Z" changeset="100668458" uid="5173844" user="ndrw6">
    <nd ref="1492719892"/>
    <nd ref="1492719687"/>
    <nd ref="1492719659"/>
    <nd ref="1492719703"/>
    <nd ref="1492719760"/>
    <nd ref="1492719716"/>
    <nd ref="1492719902"/>
    <nd ref="1492719778"/>
    <nd ref="1492719791"/>
    <nd ref="1492719895"/>
    <nd ref="1492719869"/>
    <nd ref="1492719905"/>
    <nd ref="1492719891"/>
    <nd ref="1492719730"/>
    <nd ref="1492719685"/>
    <nd ref="1492719759"/>
    <nd ref="1492719720"/>
    <nd ref="1492719892"/>
    <tag k="addr:housename" v="Pleasant View"/>
    <tag k="addr:street" v="Ely Road"/>
    <tag k="building" v="house"/>
    <tag k="name" v="Pleasant View"/>
    <tag k="source:name" v="survey"/>
  </way>
  <way id="136018907" version="3" timestamp="2025-02-21T16:19:14Z" changeset="162787688" uid="5008136" user="JayTurnr">
    <nd ref="708030752"/>
    <nd ref="1492719662"/>
    <nd ref="1492719878"/>
    <nd ref="1492719756"/>
    <nd ref="1492719724"/>
    <nd ref="1492719697"/>
    <nd ref="1492719850"/>
    <nd ref="1492719822"/>
    <nd ref="1492719723"/>
    <nd ref="1492719867"/>
    <nd ref="1492719789"/>
    <nd ref="1492719835"/>
    <nd ref="708030752"/>
    <tag k="addr:housename" v="Lyndhurst"/>
    <tag k="addr:street" v="Ely Road"/>
    <tag k="building" v="house"/>
    <tag k="name" v="Lyndhurst"/>
    <tag k="source:name" v="survey"/>
  </way>
  <way id="136018908" version="3" timestamp="2021-03-09T02:21:39Z" changeset="100668458" uid="5173844" user="ndrw6">
    <nd ref="1492719678"/>
    <nd ref="1492719783"/>
    <nd ref="1492719838"/>
    <nd ref="1492719707"/>
    <nd ref="1492719843"/>
    <nd ref="1492719672"/>
    <nd ref="1492719691"/>
    <nd ref="1492719906"/>
    <nd ref="1492719893"/>
    <nd ref="1492719738"/>
    <nd ref="1492719678"/>
    <tag k="addr:housename" v="Kuteer"/>
    <tag k="addr:street" v="Ely Road"/>
    <tag k="building" v="house"/>
    <tag k="name" v="Kuteer"/>
    <tag k="source:name" v="survey"/>
  </way>
  <way id="136018911" version="3" timestamp="2025-02-21T16:19:14Z" changeset="162787688" uid="5008136" user="JayTurnr">
    <nd ref="708030734"/>
    <nd ref="1492719799"/>
    <nd ref="1492719718"/>
    <nd ref="1492719802"/>
    <nd ref="1492719745"/>
    <nd ref="1492719706"/>
    <nd ref="1492719664"/>
    <nd ref="1492719883"/>
    <nd ref="1492719811"/>
    <nd ref="1492719753"/>
    <nd ref="1492719711"/>
    <nd ref="1492719856"/>
    <nd ref="708030734"/>
    <tag k="addr:housename" v="Osborne House"/>
    <tag k="addr:street" v="Ely Road"/>
    <tag k="building" v="house"/>
    <tag k="name" v="Osborne House"/>
    <tag k="source:name" v="survey"/>
  </way>
  <way id="136018912" version="2" timestamp="2011-11-06T13:31:19Z" changeset="9755147" uid="2406" user="JeffB">
    <nd ref="1492719681"/>
    <nd ref="1492719757"/>
    <nd ref="1492719857"/>
    <nd ref="1492719866"/>
    <nd ref="1492719655"/>
    <nd ref="1492719862"/>
    <nd ref="1492719729"/>
    <nd ref="1492719812"/>
    <nd ref="1492719681"/>
    <tag k="addr:housename" v="Sandalwood"/>
    <tag k="addr:street" v="Ely Road"/>
    <tag k="building" v="yes"/>
    <tag k="name" v="Sandalwood"/>
  </way>
  <way id="136018914" version="3" timestamp="2025-02-21T16:19:14Z" changeset="162787688" uid="5008136" user="JayTurnr">
    <nd ref="708030760"/>
    <nd ref="1492719810"/>
    <nd ref="1492719859"/>
    <nd ref="1492719874"/>
    <nd ref="1492719825"/>
    <nd ref="1492719782"/>
    <nd ref="708030760"/>
    <tag k="addr:housename" v="Craigwell"/>
    <tag k="addr:street" v="Ely Road"/>
    <tag k="building" v="house"/>
    <tag k="name" v="Craigwell"/>
    <tag k="source:name" v="survey"/>
  </way>
  <way id="136021415" version="3" timestamp="2016-01-24T22:19:41Z" changeset="36785600" uid="3551499" user="gek999">
    <nd ref="1492747452"/>
    <nd ref="1492747451"/>
    <nd ref="1492747477"/>
    <nd ref="1492747455"/>
    <nd ref="1492747411"/>
    <nd ref="1492747440"/>
    <nd ref="1492747428"/>
    <nd ref="1492747416"/>
    <nd ref="1492747467"/>
    <nd ref="1492747464"/>
    <nd ref="1492747460"/>
    <nd ref="1492747449"/>
    <nd ref="1492747435"/>
    <nd ref="1492747485"/>
    <nd ref="1492747472"/>
    <nd ref="1492747489"/>
    <nd ref="1492747483"/>
    <nd ref="1492747458"/>
    <nd ref="1492747438"/>
    <nd ref="1492747414"/>
    <nd ref="1492747421"/>
    <nd ref="1492747457"/>
    <nd ref="1492747475"/>
    <nd ref="1492747478"/>
    <nd ref="1492747429"/>
    <nd ref="1492747419"/>
    <nd ref="1492747476"/>
    <nd ref="1492747410"/>
    <nd ref="1492747433"/>
    <nd ref="1492747424"/>
    <nd ref="1492747436"/>
    <nd ref="1492747442"/>
    <nd ref="1492747441"/>
    <nd ref="1492747448"/>
    <nd ref="1492747453"/>
    <nd ref="1492747479"/>
    <nd ref="1492747484"/>
    <nd ref="1492747465"/>
    <nd ref="1492747432"/>
    <nd ref="1492747480"/>
    <nd ref="1492747437"/>
    <nd ref="1492747452"/>
    <tag k="addr:city" v="Cambridge"/>
    <tag k="addr:housenumber" v="9000"/>
    <tag k="addr:postcode" v="CB25 9TL"/>
    <tag k="addr:street" v="Cambridge Research Park"/>
    <tag k="building" v="commercial"/>
    <tag k="contact:phone" v="+44 1223 876000"/>
    <tag k="contact:twitter" v="@SepuraPLC"/>
    <tag k="contact:website" v="http://www.sepura.com/"/>
    <tag k="name" v="Sepura plc"/>
    <tag k="office" v="telecommunication"/>
  </way>
  <way id="136021417" version="2" timestamp="2015-03-19T08:33:28Z" changeset="29586911" uid="1302721" user="Glucosamine">
    <nd ref="1492747446"/>
    <nd ref="1492747468"/>
    <nd ref="1492747470"/>
    <nd ref="1492747459"/>
    <nd ref="1492747462"/>
    <nd ref="1492747450"/>
    <nd ref="1492747461"/>
    <nd ref="1492747413"/>
    <nd ref="1492747446"/>
    <tag k="building" v="yes"/>
    <tag k="name" v="Fire Control Centre (disused)"/>
    <tag k="source" v="bing"/>
  </way>
  <way id="136072981" version="2" timestamp="2025-02-21T16:19:14Z" changeset="162787688" uid="5008136" user="JayTurnr">
    <nd ref="709111243"/>
    <nd ref="1493217091"/>
    <nd ref="1493217073"/>
    <nd ref="1493217086"/>
    <nd ref="1493217089"/>
    <nd ref="1493217104"/>
    <nd ref="1493217109"/>
    <nd ref="1493217106"/>
    <nd ref="709111243"/>
    <tag k="addr:housenumber" v="121"/>
    <tag k="addr:street" v="Waterbeach Road"/>
    <tag k="building" v="house"/>
    <tag k="source" v="survey"/>
  </way>
  <way id="136072982" version="2" timestamp="2025-02-21T16:19:14Z" changeset="162787688" uid="5008136" user="JayTurnr">
    <nd ref="709111232"/>
    <nd ref="1493217077"/>
    <nd ref="1493217085"/>
    <nd ref="1493217069"/>
    <nd ref="1493217062"/>
    <nd ref="1493217065"/>
    <nd ref="1493217061"/>
    <nd ref="1493217108"/>
    <nd ref="1493217057"/>
    <nd ref="1493217059"/>
    <nd ref="1493217094"/>
    <nd ref="1493217084"/>
    <nd ref="1493217071"/>
    <nd ref="1493217082"/>
    <nd ref="1493217050"/>
    <nd ref="1493217102"/>
    <nd ref="709111232"/>
    <tag k="addr:housenumber" v="123"/>
    <tag k="addr:street" v="Waterbeach Road"/>
    <tag k="building" v="house"/>
    <tag k="source" v="survey"/>
  </way>
  <way id="136104722" version="2" timestamp="2025-02-21T16:12:19Z" changeset="162787378" uid="5008136" user="JayTurnr">
    <nd ref="708044720"/>
    <nd ref="1493482462"/>
    <nd ref="1493482426"/>
    <nd ref="1493482552"/>
    <nd ref="1493482414"/>
    <nd ref="1493482386"/>
    <nd ref="1493482456"/>
    <nd ref="1493482550"/>
    <nd ref="1493482460"/>
    <nd ref="1493482438"/>
    <nd ref="708044720"/>
    <tag k="addr:street" v="Ely Road"/>
    <tag k="building" v="house"/>
    <tag k="name" v="Red Roofs"/>
    <tag k="source" v="bing;survey"/>
  </way>
  <way id="136104727" version="2" timestamp="2025-02-21T16:13:19Z" changeset="162787418" uid="5008136" user="JayTurnr">
    <nd ref="708044832"/>
    <nd ref="1493482610"/>
    <nd ref="1493482576"/>
    <nd ref="1493482652"/>
    <nd ref="708044832"/>
    <tag k="addr:street" v="Ely Road"/>
    <tag k="building" v="house"/>
    <tag k="name" v="Belle Vue"/>
    <tag k="source" v="bing;survey"/>
  </way>
  <way id="136104728" version="2" timestamp="2025-02-21T16:12:19Z" changeset="162787378" uid="5008136" user="JayTurnr">
    <nd ref="708044814"/>
    <nd ref="1493482389"/>
    <nd ref="1493482536"/>
    <nd ref="1493482572"/>
    <nd ref="708044814"/>
    <tag k="addr:street" v="Ely Road"/>
    <tag k="building" v="bungalow"/>
    <tag k="name" v="The Bungalow"/>
    <tag k="source" v="bing;survey"/>
  </way>
  <way id="136104729" version="3" timestamp="2024-03-06T15:41:48Z" changeset="148301377" uid="2406" user="JeffB">
    <nd ref="1493482405"/>
    <nd ref="1493482532"/>
    <nd ref="1493482440"/>
    <nd ref="1493482485"/>
    <nd ref="1493482474"/>
    <nd ref="1493482495"/>
    <nd ref="1493482482"/>
    <nd ref="11697818792"/>
    <nd ref="1493482432"/>
    <nd ref="1493482405"/>
    <tag k="addr:postcode" v="CB25 9NN"/>
    <tag k="addr:street" v="Ely Road"/>
    <tag k="building" v="house"/>
    <tag k="name" v="Montrose House"/>
    <tag k="note" v="was Willowdene until 2001"/>
    <tag k="source" v="survey"/>
  </way>
  <way id="136104730" version="2" timestamp="2025-02-21T16:13:19Z" changeset="162787418" uid="5008136" user="JayTurnr">
    <nd ref="708044758"/>
    <nd ref="1493482519"/>
    <nd ref="1493482653"/>
    <nd ref="1493482585"/>
    <nd ref="1493482522"/>
    <nd ref="1493482477"/>
    <nd ref="708044758"/>
    <tag k="addr:street" v="Ely Road"/>
    <tag k="building" v="house"/>
    <tag k="name" v="Rose Villa"/>
    <tag k="source" v="bing;survey"/>
  </way>
  <way id="136104734" version="2" timestamp="2025-02-21T16:13:19Z" changeset="162787418" uid="5008136" user="JayTurnr">
    <nd ref="708044844"/>
    <nd ref="1493482609"/>
    <nd ref="1493482410"/>
    <nd ref="1493482659"/>
    <nd ref="708044844"/>
    <tag k="addr:street" v="Ely Road"/>
    <tag k="building" v="house"/>
    <tag k="name" v="Camdene &amp; Honeysuckle Croft"/>
    <tag k="source" v="bing;survey"/>
  </way>
  <way id="136104737" version="3" timestamp="2025-02-21T16:11:20Z" changeset="162787296" uid="5008136" user="JayTurnr">
    <nd ref="708044787"/>
    <nd ref="1493482367"/>
    <nd ref="1493482365"/>
    <nd ref="1493482534"/>
    <nd ref="1493482457"/>
    <nd ref="1493482605"/>
    <nd ref="708044787"/>
    <tag k="addr:street" v="Ely Road"/>
    <tag k="building" v="bungalow"/>
    <tag k="name" v="Marylands"/>
    <tag k="source" v="bing;survey"/>
  </way>
  <way id="136104738" version="2" timestamp="2025-02-21T16:13:19Z" changeset="162787418" uid="5008136" user="JayTurnr">
    <nd ref="708044763"/>
    <nd ref="1493482579"/>
    <nd ref="1493482621"/>
    <nd ref="1493482525"/>
    <nd ref="1493482506"/>
    <nd ref="1493482625"/>
    <nd ref="708044763"/>
    <tag k="addr:street" v="Ely Road"/>
    <tag k="building" v="house"/>
    <tag k="name" v="Rosemead"/>
    <tag k="source" v="bing;survey"/>
  </way>
  <way id="136107177" version="1" timestamp="2011-11-06T19:28:23Z" changeset="9758579" uid="2406" user="JeffB">
    <nd ref="1493512801"/>
    <nd ref="1493512808"/>
    <nd ref="1493512776"/>
    <nd ref="1493512833"/>
    <nd ref="1493512790"/>
    <nd ref="1493512823"/>
    <nd ref="1493512801"/>
    <tag k="building" v="yes"/>
    <tag k="name" v="Roseleigh Farm"/>
    <tag k="source" v="bing"/>
  </way>
  <way id="136107184" version="1" timestamp="2011-11-06T19:28:24Z" changeset="9758579" uid="2406" user="JeffB">
    <nd ref="1493512774"/>
    <nd ref="1493512825"/>
    <nd ref="1493512809"/>
    <nd ref="1493512816"/>
    <nd ref="1493512745"/>
    <nd ref="1493512772"/>
    <nd ref="1493512762"/>
    <nd ref="1493512826"/>
    <nd ref="1493512797"/>
    <nd ref="1493512796"/>
    <nd ref="1493512832"/>
    <nd ref="1493512795"/>
    <nd ref="1493512774"/>
    <tag k="building" v="yes"/>
    <tag k="name" v="Hepworth Farm"/>
    <tag k="source" v="bing"/>
  </way>
  <way id="136107966" version="1" timestamp="2011-11-06T19:36:52Z" changeset="9758884" uid="2406" user="JeffB">
    <nd ref="1493522445"/>
    <nd ref="1493522467"/>
    <nd ref="1493522388"/>
    <nd ref="1493522360"/>
    <nd ref="1493522439"/>
    <nd ref="1493522456"/>
    <nd ref="1493522312"/>
    <nd ref="1493522394"/>
    <nd ref="1493522346"/>
    <nd ref="1493522450"/>
    <nd ref="1493522434"/>
    <nd ref="1493522415"/>
    <nd ref="1493522334"/>
    <nd ref="1493522445"/>
    <tag k="building" v="yes"/>
    <tag k="name" v="Nebi Tari"/>
    <tag k="source" v="bing"/>
  </way>
  <way id="136107968" version="1" timestamp="2011-11-06T19:36:52Z" changeset="9758884" uid="2406" user="JeffB">
    <nd ref="1493522368"/>
    <nd ref="1493522397"/>
    <nd ref="1493522310"/>
    <nd ref="1493522358"/>
    <nd ref="1493522318"/>
    <nd ref="1493522374"/>
    <nd ref="1493522355"/>
    <nd ref="1493522406"/>
    <nd ref="1493522391"/>
    <nd ref="1493522336"/>
    <nd ref="1493522368"/>
    <tag k="building" v="yes"/>
    <tag k="name" v="Isas"/>
    <tag k="source" v="bing"/>
  </way>
  <way id="136107971" version="1" timestamp="2011-11-06T19:36:53Z" changeset="9758884" uid="2406" user="JeffB">
    <nd ref="1493522351"/>
    <nd ref="1493522393"/>
    <nd ref="1493522307"/>
    <nd ref="1493522474"/>
    <nd ref="1493522320"/>
    <nd ref="1493522332"/>
    <nd ref="1493522409"/>
    <nd ref="1493522338"/>
    <nd ref="1493522322"/>
    <nd ref="1493522376"/>
    <nd ref="1493522351"/>
    <tag k="building" v="yes"/>
    <tag k="name" v="The Retreat"/>
    <tag k="source" v="bing"/>
  </way>
  <way id="136110119" version="1" timestamp="2011-11-06T19:53:35Z" changeset="9758884" uid="2406" user="JeffB">
    <nd ref="1493545393"/>
    <nd ref="1493545352"/>
    <nd ref="1493545381"/>
    <nd ref="1493545368"/>
    <nd ref="1493545388"/>
    <nd ref="1493545345"/>
    <nd ref="1493545429"/>
    <nd ref="1493545436"/>
    <nd ref="1493545401"/>
    <nd ref="1493545392"/>
    <nd ref="1493545387"/>
    <nd ref="1493545370"/>
    <nd ref="1493545393"/>
    <tag k="building" v="yes"/>
    <tag k="name" v="Enterprise House"/>
    <tag k="source" v="bing"/>
  </way>
  <way id="136110122" version="1" timestamp="2011-11-06T19:53:35Z" changeset="9758884" uid="2406" user="JeffB">
    <nd ref="1493545409"/>
    <nd ref="1493545351"/>
    <nd ref="1493545359"/>
    <nd ref="1493545349"/>
    <nd ref="1493545422"/>
    <nd ref="1493545374"/>
    <nd ref="1493545395"/>
    <nd ref="1493545398"/>
    <nd ref="1493545409"/>
    <tag k="building" v="yes"/>
    <tag k="name" v="The Hawks"/>
    <tag k="source" v="bing"/>
  </way>
  <way id="136110127" version="1" timestamp="2011-11-06T19:53:36Z" changeset="9758884" uid="2406" user="JeffB">
    <nd ref="1493545400"/>
    <nd ref="1493545419"/>
    <nd ref="1493545430"/>
    <nd ref="1493545435"/>
    <nd ref="1493545405"/>
    <nd ref="1493545367"/>
    <nd ref="1493545400"/>
    <tag k="building" v="yes"/>
    <tag k="name" v="Enterprise House"/>
    <tag k="source" v="bing"/>
  </way>
  <way id="136113890" version="3" timestamp="2019-12-27T07:32:28Z" changeset="78913132" uid="10560589" user="Jbs44">
    <nd ref="1493573528"/>
    <nd ref="1493573532"/>
    <nd ref="509266157"/>
    <nd ref="7066420466"/>
    <nd ref="1493573525"/>
    <nd ref="1493573528"/>
    <tag k="building" v="barn"/>
    <tag k="name" v="Tithe Barn"/>
    <tag k="source" v="survey;bing"/>
    <tag k="website" v="https://tithebarntrust.org.uk/"/>
  </way>
  <way id="136876685" version="2" timestamp="2023-09-23T21:58:46Z" changeset="141662416" uid="5173844" user="ndrw6">
    <nd ref="1501644880"/>
    <nd ref="1501644855"/>
    <nd ref="11214295852"/>
    <tag k="highway" v="residential"/>
    <tag k="source" v="gps"/>
  </way>
  <way id="220350430" version="2" timestamp="2020-10-19T09:47:21Z" changeset="92697322" uid="5173844" user="ndrw6">
    <nd ref="2294798745"/>
    <nd ref="2294798737"/>
    <nd ref="2294798748"/>
    <nd ref="2294798743"/>
    <nd ref="2294798727"/>
    <nd ref="2294798729"/>
    <nd ref="2294798786"/>
    <nd ref="2294798753"/>
    <nd ref="2294798749"/>
    <nd ref="2294798744"/>
    <nd ref="2294798724"/>
    <nd ref="2294798735"/>
    <nd ref="2294798759"/>
    <nd ref="2294798757"/>
    <nd ref="2294798721"/>
    <nd ref="8021501138"/>
    <nd ref="8021501137"/>
    <nd ref="2294798717"/>
    <nd ref="2294798745"/>
    <tag k="building" v="yes"/>
    <tag k="name" v="Amey Cespa"/>
  </way>
  <way id="356315677" version="10" timestamp="2025-02-22T21:44:08Z" changeset="162832598" uid="5008136" user="JayTurnr">
    <nd ref="805643696"/>
    <nd ref="12610662227"/>
    <nd ref="21319481"/>
    <nd ref="12610603606"/>
    <nd ref="3870039"/>
    <nd ref="30967669"/>
    <nd ref="262711296"/>
    <nd ref="1493406004"/>
    <nd ref="1499260814"/>
    <nd ref="12610603607"/>
    <nd ref="805658681"/>
    <nd ref="805658687"/>
    <nd ref="3870040"/>
    <nd ref="8088381686"/>
    <nd ref="272068559"/>
    <nd ref="3870049"/>
    <nd ref="10555198388"/>
    <nd ref="21319479"/>
    <nd ref="12610665780"/>
    <nd ref="12610665778"/>
    <nd ref="272067589"/>
    <nd ref="805658690"/>
    <nd ref="3870108"/>
    <nd ref="12610665107"/>
    <nd ref="21319480"/>
    <nd ref="805658700"/>
    <nd ref="12610665108"/>
    <nd ref="805658703"/>
    <nd ref="805658706"/>
    <nd ref="1499885333"/>
    <nd ref="262711303"/>
    <nd ref="12610665109"/>
    <nd ref="12610665110"/>
    <nd ref="3870124"/>
    <nd ref="2295893515"/>
    <nd ref="805658711"/>
    <tag k="alt_name" v="Ely Road"/>
    <tag k="highway" v="trunk"/>
    <tag k="lanes" v="2"/>
    <tag k="maxspeed" v="60 mph"/>
    <tag k="maxspeed:type" v="GB:nsl_single"/>
    <tag k="ref" v="A10"/>
    <tag k="sidewalk" v="no"/>
  </way>
  <way id="356315689" version="2" timestamp="2017-10-10T15:35:21Z" changeset="52797888" uid="281267" user="smb1001">
    <nd ref="26976904"/>
    <nd ref="1497709670"/>
    <nd ref="1497709533"/>
    <nd ref="1492796843"/>
    <nd ref="303264589"/>
    <nd ref="3863522"/>
    <nd ref="805643732"/>
    <tag k="alt_name" v="Ely Road"/>
    <tag k="highway" v="trunk"/>
    <tag k="lanes" v="2"/>
    <tag k="maxspeed" v="60 mph"/>
    <tag k="maxspeed:type" v="GB:nsl_single"/>
    <tag k="ref" v="A10"/>
  </way>
  <way id="356315698" version="5" timestamp="2024-01-26T16:29:34Z" changeset="146716579" uid="2406" user="JeffB">
    <nd ref="26064727"/>
    <nd ref="11554282206"/>
    <nd ref="26064728"/>
    <nd ref="26064729"/>
    <nd ref="1688625820"/>
    <nd ref="447856637"/>
    <nd ref="26064730"/>
    <nd ref="26064731"/>
    <tag k="highway" v="unclassified"/>
    <tag k="lcn" v="yes"/>
    <tag k="maxspeed" v="60 mph"/>
    <tag k="maxspeed:type" v="GB:nsl_single"/>
    <tag k="name" v="Cockfen Lane"/>
    <tag k="source:name" v="local knowledge"/>
    <tag k="surface" v="asphalt"/>
  </way>
  <way id="548633194" version="4" timestamp="2022-04-13T11:09:12Z" changeset="119662773" uid="242345" user="confusedbuffalo">
    <nd ref="5300090925"/>
    <nd ref="5300090926"/>
    <nd ref="5300090927"/>
    <nd ref="5300090928"/>
    <nd ref="5300090925"/>
    <tag k="brand" v="Audi;koda;Volkswagen"/>
    <tag k="building" v="yes"/>
    <tag k="name" v="Vindis Cambridge Service Centre"/>
    <tag k="opening_hours" v="Mo-Fr 08:00-18:00; Sa 08:00-14:00; Su off"/>
    <tag k="operator" v="Vindis"/>
    <tag k="phone" v="+44 1223 581574; +44 1223 581583"/>
    <tag k="service" v="dealer;parts;repair"/>
    <tag k="shop" v="car_repair"/>
    <tag k="website" v="https://vindisgroup.com/dealers/vindis-cambridge-service-centre"/>
  </way>
  <way id="636408030" version="1" timestamp="2018-10-20T21:28:01Z" changeset="63715031" uid="5173844" user="ndrw6">
    <nd ref="6001490285"/>
    <nd ref="1497732300"/>
    <nd ref="1497732252"/>
    <nd ref="1497732184"/>
    <nd ref="1497732178"/>
    <nd ref="6001490286"/>
    <nd ref="6001490285"/>
    <tag k="building" v="yes"/>
    <tag k="name" v="7100"/>
    <tag k="source" v="survey"/>
  </way>
  <way id="636408031" version="2" timestamp="2018-12-07T12:04:49Z" changeset="65266227" uid="281267" user="smb1001">
    <nd ref="1497732296"/>
    <nd ref="317329914"/>
    <nd ref="317329911"/>
    <nd ref="317329912"/>
    <nd ref="1497732229"/>
    <nd ref="6001490287"/>
    <nd ref="1497732296"/>
    <tag k="addr:postcode" v="CB25 9TN"/>
    <tag k="building" v="yes"/>
    <tag k="name" v="7300"/>
    <tag k="source" v="survey"/>
  </way>
  <way id="697643899" version="6" timestamp="2025-03-12T16:09:59Z" changeset="163534880" uid="2406" user="JeffB">
    <nd ref="6551723114"/>
    <nd ref="6551723117"/>
    <nd ref="6551723116"/>
    <nd ref="25688557"/>
    <tag k="cycleway:left" v="no"/>
    <tag k="highway" v="tertiary"/>
    <tag k="lanes" v="1"/>
    <tag k="maxspeed" v="40 mph"/>
    <tag k="name" v="Waterbeach Road"/>
    <tag k="name:etymology:wikidata" v="Q686675"/>
    <tag k="oneway" v="yes"/>
    <tag k="surface" v="asphalt"/>
  </way>
  <way id="755840269" version="2" timestamp="2019-12-18T05:29:05Z" changeset="78560023" uid="10560589" user="Jbs44">
    <nd ref="1446388932"/>
    <nd ref="1446388923"/>
    <nd ref="1446389015"/>
    <nd ref="1446389043"/>
    <nd ref="1446388917"/>
    <nd ref="1446388960"/>
    <nd ref="1446388932"/>
    <tag k="building" v="yes"/>
    <tag k="name" v="The Dower House (The Old Rectory)"/>
    <tag k="source" v="local knowledge"/>
  </way>
  <way id="1210431184" version="1" timestamp="2023-09-23T21:58:46Z" changeset="141662416" uid="5173844" user="ndrw6">
    <nd ref="11214295941"/>
    <nd ref="1492568386"/>
    <nd ref="1492568163"/>
    <nd ref="11214295940"/>
    <nd ref="11214295941"/>
    <tag k="addr:housenumber" v="40"/>
    <tag k="addr:street" v="High Street"/>
    <tag k="building" v="yes"/>
    <tag k="source" v="survey"/>
  </way>
  <way id="1210431193" version="1" timestamp="2023-09-23T21:58:46Z" changeset="141662416" uid="5173844" user="ndrw6">
    <nd ref="11214295971"/>
    <nd ref="1492567938"/>
    <nd ref="1492567945"/>
    <nd ref="11214295970"/>
    <nd ref="11214295971"/>
    <tag k="addr:housenumber" v="44"/>
    <tag k="addr:street" v="High Street"/>
    <tag k="building" v="yes"/>
    <tag k="source" v="survey"/>
  </way>
  <way id="1210431194" version="1" timestamp="2023-09-23T21:58:46Z" changeset="141662416" uid="5173844" user="ndrw6">
    <nd ref="11214295973"/>
    <nd ref="11214295971"/>
    <nd ref="11214295970"/>
    <nd ref="11214295972"/>
    <nd ref="11214295973"/>
    <tag k="addr:housenumber" v="46"/>
    <tag k="addr:street" v="High Street"/>
    <tag k="building" v="yes"/>
    <tag k="source" v="survey"/>
  </way>
  <way id="1210431195" version="1" timestamp="2023-09-23T21:58:46Z" changeset="141662416" uid="5173844" user="ndrw6">
    <nd ref="11214295975"/>
    <nd ref="11214295973"/>
    <nd ref="11214295972"/>
    <nd ref="11214295974"/>
    <nd ref="11214295975"/>
    <tag k="addr:housenumber" v="48"/>
    <tag k="addr:street" v="High Street"/>
    <tag k="building" v="yes"/>
    <tag k="source" v="survey"/>
  </way>
  <way id="1252926770" version="2" timestamp="2025-03-12T16:11:47Z" changeset="163534880" uid="2406" user="JeffB">
    <nd ref="11646046313"/>
    <nd ref="26064743"/>
    <nd ref="11646046314"/>
    <tag k="highway" v="residential"/>
    <tag k="maxspeed" v="30 mph"/>
    <tag k="name" v="Chapmans Close"/>
    <tag k="name:etymology:wikidata" v="Q133264760"/>
    <tag k="oneway" v="no"/>
    <tag k="surface" v="asphalt"/>
  </way>
  <way id="1253923603" version="1" timestamp="2024-02-23T11:28:40Z" changeset="147807878" uid="2406" user="JeffB">
    <nd ref="6551723114"/>
    <nd ref="26976413"/>
    <tag k="alt_name" v="Ely Road"/>
    <tag k="highway" v="trunk"/>
    <tag k="lanes" v="1"/>
    <tag k="maxspeed" v="50 mph"/>
    <tag k="oneway" v="yes"/>
    <tag k="ref" v="A10"/>
    <tag k="source:ref" v="survey"/>
  </way>
  <way id="1253923604" version="1" timestamp="2024-02-23T11:28:40Z" changeset="147807878" uid="2406" user="JeffB">
    <nd ref="11656034717"/>
    <nd ref="10822762100"/>
    <nd ref="6551723114"/>
    <tag k="alt_name" v="Ely Road"/>
    <tag k="highway" v="trunk"/>
    <tag k="lanes" v="2"/>
    <tag k="maxspeed" v="50 mph"/>
    <tag k="oneway" v="yes"/>
    <tag k="ref" v="A10"/>
    <tag k="source:ref" v="survey"/>
  </way>
  <way id="1311585010" version="2" timestamp="2025-03-21T17:37:53Z" changeset="163917356" uid="2406" user="JeffB">
    <nd ref="12140545446"/>
    <nd ref="12140545447"/>
    <nd ref="12140545448"/>
    <nd ref="12140545449"/>
    <nd ref="12140545450"/>
    <nd ref="12140545451"/>
    <nd ref="12140545446"/>
    <tag k="addr:housenumber" v="87"/>
    <tag k="addr:street" v="Green End"/>
    <tag k="building" v="house"/>
  </way>
  <way id="1311585011" version="2" timestamp="2025-03-21T17:37:53Z" changeset="163917356" uid="2406" user="JeffB">
    <nd ref="12140545452"/>
    <nd ref="12140545453"/>
    <nd ref="12140545454"/>
    <nd ref="12140545455"/>
    <nd ref="12140545456"/>
    <nd ref="12140545457"/>
    <nd ref="12140545458"/>
    <nd ref="12140545459"/>
    <nd ref="12140545452"/>
    <tag k="addr:housenumber" v="85"/>
    <tag k="addr:street" v="Green End"/>
    <tag k="building" v="house"/>
  </way>
  <way id="1361730484" version="1" timestamp="2025-02-21T16:15:01Z" changeset="162787503" uid="5008136" user="JayTurnr">
    <nd ref="1493482608"/>
    <nd ref="26976302"/>
    <nd ref="12607253709"/>
    <tag k="alt_name" v="Ely Road"/>
    <tag k="highway" v="trunk"/>
    <tag k="lanes" v="1"/>
    <tag k="maxspeed" v="50 mph"/>
    <tag k="oneway" v="yes"/>
    <tag k="ref" v="A10"/>
  </way>
  <way id="1361730485" version="1" timestamp="2025-02-21T16:15:01Z" changeset="162787503" uid="5008136" user="JayTurnr">
    <nd ref="21318393"/>
    <nd ref="450186708"/>
    <tag k="alt_name" v="Ely Road"/>
    <tag k="highway" v="trunk"/>
    <tag k="lanes" v="2"/>
    <tag k="maxspeed" v="50 mph"/>
    <tag k="oneway" v="yes"/>
    <tag k="ref" v="A10"/>
  </way>
  <way id="1361731552" version="2" timestamp="2025-03-24T11:51:37Z" changeset="164028223" uid="20432991" user="Kaduna">
    <nd ref="12607281146"/>
    <nd ref="26976178"/>
    <tag k="alt_name" v="Ely Road"/>
    <tag k="highway" v="trunk"/>
    <tag k="lanes" v="2"/>
    <tag k="maxspeed" v="50 mph"/>
    <tag k="ref" v="A10"/>
  </way>
  <way id="1361731553" version="1" timestamp="2025-02-21T16:22:53Z" changeset="162787824" uid="5008136" user="JayTurnr">
    <nd ref="12607281147"/>
    <nd ref="12607281148"/>
    <nd ref="453312018"/>
    <nd ref="3863401"/>
    <tag k="alt_name" v="Ely Road"/>
    <tag k="highway" v="trunk"/>
    <tag k="lanes" v="2"/>
    <tag k="maxspeed" v="50 mph"/>
    <tag k="ref" v="A10"/>
  </way>
  <way id="1361732035" version="2" timestamp="2025-02-21T16:26:32Z" changeset="162787981" uid="5008136" user="JayTurnr">
    <nd ref="26976077"/>
    <nd ref="12607293569"/>
    <nd ref="3863463"/>
    <nd ref="12607293570"/>
    <nd ref="26976904"/>
    <tag k="alt_name" v="Ely Road"/>
    <tag k="highway" v="trunk"/>
    <tag k="lanes" v="2"/>
    <tag k="maxspeed" v="60 mph"/>
    <tag k="maxspeed:type" v="GB:nsl_single"/>
    <tag k="ref" v="A10"/>
  </way>
  <way id="1361732036" version="1" timestamp="2025-02-21T16:25:57Z" changeset="162787949" uid="5008136" user="JayTurnr">
    <nd ref="1450941404"/>
    <nd ref="21319419"/>
    <nd ref="1450941405"/>
    <tag k="alt_name" v="Ely Road"/>
    <tag k="highway" v="trunk"/>
    <tag k="lanes" v="3"/>
    <tag k="lanes:backward" v="1"/>
    <tag k="lanes:forward" v="2"/>
    <tag k="maxspeed" v="60 mph"/>
    <tag k="maxspeed:type" v="GB:nsl_single"/>
    <tag k="ref" v="A10"/>
  </way>
  <way id="1361732037" version="1" timestamp="2025-02-21T16:25:57Z" changeset="162787949" uid="5008136" user="JayTurnr">
    <nd ref="1450941405"/>
    <nd ref="12607273650"/>
    <nd ref="1450941401"/>
    <tag k="alt_name" v="Ely Road"/>
    <tag k="highway" v="trunk"/>
    <tag k="lanes" v="2"/>
    <tag k="maxspeed" v="60 mph"/>
    <tag k="maxspeed:type" v="GB:nsl_single"/>
    <tag k="ref" v="A10"/>
  </way>
  <way id="1361732038" version="1" timestamp="2025-02-21T16:25:57Z" changeset="162787949" uid="5008136" user="JayTurnr">
    <nd ref="1450941401"/>
    <nd ref="26976929"/>
    <nd ref="12607273651"/>
    <tag k="alt_name" v="Ely Road"/>
    <tag k="highway" v="trunk"/>
    <tag k="lanes" v="3"/>
    <tag k="lanes:backward" v="2"/>
    <tag k="lanes:forward" v="1"/>
    <tag k="maxspeed" v="60 mph"/>
    <tag k="maxspeed:type" v="GB:nsl_single"/>
    <tag k="ref" v="A10"/>
  </way>
  <way id="1361732039" version="1" timestamp="2025-02-21T16:25:57Z" changeset="162787949" uid="5008136" user="JayTurnr">
    <nd ref="12607273651"/>
    <nd ref="3863462"/>
    <tag k="alt_name" v="Ely Road"/>
    <tag k="highway" v="trunk"/>
    <tag k="lanes" v="2"/>
    <tag k="maxspeed" v="60 mph"/>
    <tag k="maxspeed:type" v="GB:nsl_single"/>
    <tag k="ref" v="A10"/>
  </way>
  <way id="1361732040" version="1" timestamp="2025-02-21T16:25:57Z" changeset="162787949" uid="5008136" user="JayTurnr">
    <nd ref="3863462"/>
    <nd ref="26976077"/>
    <tag k="alt_name" v="Ely Road"/>
    <tag k="highway" v="trunk"/>
    <tag k="lanes" v="3"/>
    <tag k="lanes:backward" v="1"/>
    <tag k="lanes:forward" v="2"/>
    <tag k="maxspeed" v="60 mph"/>
    <tag k="maxspeed:type" v="GB:nsl_single"/>
    <tag k="ref" v="A10"/>
  </way>
  <way id="1361733016" version="1" timestamp="2025-02-21T16:30:29Z" changeset="162788264" uid="5008136" user="JayTurnr">
    <nd ref="12607171567"/>
    <nd ref="1499350592"/>
    <nd ref="805643761"/>
    <nd ref="805643764"/>
    <tag k="highway" v="trunk"/>
    <tag k="lanes" v="2"/>
    <tag k="lit" v="yes"/>
    <tag k="maxspeed" v="60 mph"/>
    <tag k="maxspeed:type" v="GB:nsl_single"/>
    <tag k="oneway" v="yes"/>
    <tag k="ref" v="A10"/>
    <tag k="sidewalk" v="no"/>
  </way>
  <way id="1361733017" version="1" timestamp="2025-02-21T16:30:29Z" changeset="162788264" uid="5008136" user="JayTurnr">
    <nd ref="1499350645"/>
    <nd ref="11029940109"/>
    <tag k="highway" v="trunk"/>
    <tag k="lanes" v="2"/>
    <tag k="lit" v="yes"/>
    <tag k="maxspeed" v="60 mph"/>
    <tag k="maxspeed:type" v="GB:nsl_single"/>
    <tag k="oneway" v="yes"/>
    <tag k="ref" v="A10"/>
    <tag k="sidewalk" v="no"/>
  </way>
  <way id="1361733018" version="1" timestamp="2025-02-21T16:30:29Z" changeset="162788264" uid="5008136" user="JayTurnr">
    <nd ref="262711271"/>
    <nd ref="12607171569"/>
    <tag k="alt_name" v="Ely Road"/>
    <tag k="highway" v="trunk"/>
    <tag k="lanes" v="4"/>
    <tag k="lanes:backward" v="3"/>
    <tag k="lanes:forward" v="1"/>
    <tag k="lit" v="yes"/>
    <tag k="maxspeed" v="60 mph"/>
    <tag k="maxspeed:type" v="GB:nsl_single"/>
    <tag k="ref" v="A10"/>
    <tag k="sidewalk" v="no"/>
  </way>
  <way id="1362045420" version="1" timestamp="2025-02-22T21:28:11Z" changeset="162832198" uid="5008136" user="JayTurnr">
    <nd ref="12610597884"/>
    <nd ref="9213016826"/>
    <nd ref="9213016825"/>
    <nd ref="8001671579"/>
    <tag k="highway" v="residential"/>
    <tag k="lanes" v="2"/>
    <tag k="name" v="Gillyflower Lane"/>
    <tag k="oneway" v="yes"/>
    <tag k="surface" v="asphalt"/>
  </way>
  <way id="1362045421" version="1" timestamp="2025-02-22T21:28:11Z" changeset="162832198" uid="5008136" user="JayTurnr">
    <nd ref="303266535"/>
    <nd ref="9213016840"/>
    <nd ref="9213016839"/>
    <tag k="highway" v="residential"/>
    <tag k="lanes" v="1"/>
    <tag k="name" v="Gillyflower Lane"/>
    <tag k="oneway" v="yes"/>
    <tag k="surface" v="asphalt"/>
  </way>
  <way id="1367072798" version="2" timestamp="2025-03-13T16:16:23Z" changeset="163577293" uid="2406" user="JeffB">
    <nd ref="12659959387"/>
    <nd ref="12659959388"/>
    <nd ref="12659959389"/>
    <nd ref="12659959390"/>
    <nd ref="12659959391"/>
    <nd ref="12659959392"/>
    <nd ref="12659959387"/>
    <tag k="building" v="warehouse"/>
    <tag k="name" v="Donations"/>
  </way>
  <way id="1367072805" version="2" timestamp="2025-03-13T16:16:23Z" changeset="163577293" uid="2406" user="JeffB">
    <nd ref="12659979723"/>
    <nd ref="12659979724"/>
    <nd ref="12659979725"/>
    <nd ref="12659979726"/>
    <nd ref="12659979723"/>
    <tag k="building" v="warehouse"/>
    <tag k="name" v="New Items"/>
    <tag k="shop" v="yes"/>
  </way>
  <way id="1367072811" version="2" timestamp="2025-03-13T16:16:23Z" changeset="163577293" uid="2406" user="JeffB">
    <nd ref="12659979760"/>
    <nd ref="12659979761"/>
    <nd ref="12659979762"/>
    <nd ref="12659979763"/>
    <nd ref="12659979764"/>
    <nd ref="12659979765"/>
    <nd ref="12659979760"/>
    <tag k="building" v="yes"/>
    <tag k="name" v="Electrical Items"/>
    <tag k="shop" v="yes"/>
  </way>
  <relation id="3203656" version="2" timestamp="2025-03-13T16:16:23Z" changeset="163577293" uid="2406" user="JeffB">
    <member type="way" ref="237810055" role="outer"/>
    <member type="way" ref="131424270" role="inner"/>
    <tag k="building" v="residential"/>
    <tag k="name" v="Celia House"/>
    <tag k="type" v="multipolygon"/>
  </relation>

</osm>
