<?xml version="1.0" encoding="UTF-8"?>
<osm version="0.6" generator="Overpass API 0.7.62.5 1bd436f1">
<note>The data included in this document is from www.openstreetmap.org. The data is made available under ODbL.</note>
<meta osm_base="2025-04-05T17:12:14Z" areas="2025-02-06T02:17:44Z"/>

  <node id="215065" lat="52.1785789" lon="0.2951772" version="2" timestamp="2025-02-24T17:31:42Z" changeset="162902392" uid="5008136" user="JayTurnr"/>
  <node id="215073" lat="52.1711126" lon="0.2798562" version="3" timestamp="2024-01-07T20:30:28Z" changeset="146005303" uid="13341565" user="Falsernet"/>
  <node id="215998" lat="52.1555112" lon="0.2489647" version="5" timestamp="2022-11-10T10:05:32Z" changeset="128725115" uid="91657" user="Pink Duck">
    <tag k="destination" v="Balsham;Fulbourn;Teversham"/>
    <tag k="highway" v="motorway_junction"/>
  </node>
  <node id="216245" lat="52.1213881" lon="0.2166919" version="3" timestamp="2024-12-29T22:55:39Z" changeset="160770788" uid="5229644" user="Nathan_A_RF"/>
  <node id="216246" lat="52.1214356" lon="0.2165048" version="5" timestamp="2024-12-29T22:55:39Z" changeset="160770788" uid="5229644" user="Nathan_A_RF"/>
  <node id="554065" lat="52.1295515" lon="0.2238506" version="4" timestamp="2021-10-10T15:00:56Z" changeset="112337429" uid="13341565" user="Falsernet"/>
  <node id="554068" lat="52.1290694" lon="0.2236126" version="5" timestamp="2021-10-10T15:00:56Z" changeset="112337429" uid="13341565" user="Falsernet"/>
  <node id="554170" lat="52.1534873" lon="0.1863968" version="7" timestamp="2024-12-31T18:14:30Z" changeset="160843965" uid="5229644" user="Nathan_A_RF"/>
  <node id="20087413" lat="52.1266327" lon="0.2201470" version="5" timestamp="2019-12-15T20:19:51Z" changeset="78439325" uid="67929" user="StephenRD">
    <tag k="highway" v="motorway_junction"/>
    <tag k="name" v="Fourwentways"/>
  </node>
  <node id="20960211" lat="52.1618749" lon="0.2588806" version="4" timestamp="2025-02-24T17:26:53Z" changeset="162902211" uid="5008136" user="JayTurnr"/>
  <node id="20960410" lat="52.1561218" lon="0.2501627" version="3" timestamp="2022-11-10T10:05:32Z" changeset="128725115" uid="91657" user="Pink Duck"/>
  <node id="20960512" lat="52.1721988" lon="0.2824594" version="2" timestamp="2024-01-07T20:30:28Z" changeset="146005303" uid="13341565" user="Falsernet">
    <tag k="highway" v="motorway_junction"/>
  </node>
  <node id="20960609" lat="52.1617855" lon="0.2589973" version="4" timestamp="2022-11-10T10:05:32Z" changeset="128725115" uid="91657" user="Pink Duck">
    <tag k="destination" v="Balsham;Fulbourn;Teversham"/>
    <tag k="highway" v="motorway_junction"/>
  </node>
  <node id="26530863" lat="52.1450772" lon="0.2304738" version="3" timestamp="2022-04-21T23:05:42Z" changeset="120023064" uid="335826" user="Strumpfe"/>
  <node id="26530937" lat="52.1439191" lon="0.2322487" version="3" timestamp="2012-05-13T14:37:34Z" changeset="11586158" uid="5926" user="c2r"/>
  <node id="26530940" lat="52.1436858" lon="0.2335931" version="8" timestamp="2022-06-30T00:02:46Z" changeset="123023068" uid="7463" user="kesterlester"/>
  <node id="26530947" lat="52.1486948" lon="0.2388435" version="5" timestamp="2025-02-24T17:25:04Z" changeset="162902144" uid="5008136" user="JayTurnr">
    <tag k="highway" v="motorway_junction"/>
  </node>
  <node id="26530965" lat="52.1274599" lon="0.2227181" version="4" timestamp="2025-02-23T11:58:01Z" changeset="162848534" uid="5008136" user="JayTurnr"/>
  <node id="26530968" lat="52.1274532" lon="0.2226068" version="5" timestamp="2025-02-23T11:58:01Z" changeset="162848534" uid="5008136" user="JayTurnr"/>
  <node id="26531202" lat="52.1213602" lon="0.2168088" version="7" timestamp="2024-12-29T22:55:39Z" changeset="160770788" uid="5229644" user="Nathan_A_RF"/>
  <node id="26531214" lat="52.1146910" lon="0.1979293" version="3" timestamp="2011-12-20T09:20:18Z" changeset="10161927" uid="5926" user="c2r"/>
  <node id="26531240" lat="52.1276139" lon="0.2221835" version="5" timestamp="2025-02-24T17:10:07Z" changeset="162901659" uid="5008136" user="JayTurnr"/>
  <node id="26531282" lat="52.1279189" lon="0.1811043" version="6" timestamp="2023-07-22T22:05:40Z" changeset="138873165" uid="18573" user="Stephen Paulger"/>
  <node id="1423424570" lat="52.1277219" lon="0.2230998" version="3" timestamp="2025-02-23T11:58:01Z" changeset="162848534" uid="5008136" user="JayTurnr"/>
  <node id="1554859230" lat="52.1275442" lon="0.2207953" version="2" timestamp="2025-02-23T11:58:01Z" changeset="162848534" uid="5008136" user="JayTurnr"/>
  <node id="1748592302" lat="52.1214720" lon="0.2163859" version="2" timestamp="2024-12-29T22:55:39Z" changeset="160770788" uid="5229644" user="Nathan_A_RF"/>
  <node id="2242644001" lat="52.1461350" lon="0.2348237" version="2" timestamp="2025-02-24T17:23:07Z" changeset="162902059" uid="5008136" user="JayTurnr"/>
  <node id="8500590046" lat="52.1283593" lon="0.1842911" version="5" timestamp="2023-07-22T22:05:40Z" changeset="138873165" uid="18573" user="Stephen Paulger"/>
  <node id="8668190677" lat="52.1284741" lon="0.1850502" version="2" timestamp="2023-01-15T23:29:03Z" changeset="131317474" uid="5173844" user="ndrw6"/>
  <node id="8668190685" lat="52.1280193" lon="0.1821087" version="4" timestamp="2023-07-22T22:05:40Z" changeset="138873165" uid="18573" user="Stephen Paulger"/>
  <node id="9418389055" lat="52.1249591" lon="0.2091255" version="1" timestamp="2022-01-14T17:08:59Z" changeset="116155952" uid="7463" user="kesterlester">
    <tag k="addr:housename" v="448m South Of Home Farm"/>
    <tag k="addr:street" v="High Street"/>
    <tag k="addr:town" v="Babraham"/>
    <tag k="man_made" v="pumping_station"/>
    <tag k="name" v="Babraham Pumping Station"/>
  </node>
  <node id="10558382124" lat="52.1279673" lon="0.1816794" version="2" timestamp="2023-07-22T22:05:40Z" changeset="138873165" uid="18573" user="Stephen Paulger"/>
  <node id="12616235639" lat="52.1674366" lon="0.2707382" version="1" timestamp="2025-02-24T17:28:31Z" changeset="162902262" uid="5008136" user="JayTurnr"/>
  <way id="3904740" version="14" timestamp="2024-12-31T18:14:30Z" changeset="160843965" uid="5229644" user="Nathan_A_RF">
    <nd ref="554170"/>
    <nd ref="12465951415"/>
    <nd ref="6524010186"/>
    <nd ref="554169"/>
    <nd ref="1290256190"/>
    <nd ref="308131795"/>
    <nd ref="8168654549"/>
    <nd ref="554168"/>
    <nd ref="554167"/>
    <tag k="highway" v="primary"/>
    <tag k="lanes" v="2"/>
    <tag k="lit" v="no"/>
    <tag k="maxspeed" v="60 mph"/>
    <tag k="maxspeed:type" v="GB:nsl_single"/>
    <tag k="name" v="Babraham Road"/>
    <tag k="ref" v="A1307"/>
    <tag k="source:ref" v="local knowledge"/>
    <tag k="surface" v="asphalt"/>
  </way>
  <way id="3904741" version="13" timestamp="2024-12-31T15:13:22Z" changeset="160837325" uid="5229644" user="Nathan_A_RF">
    <nd ref="554101"/>
    <nd ref="8168712821"/>
    <nd ref="8168712822"/>
    <nd ref="554102"/>
    <nd ref="26530773"/>
    <tag k="dual_carriageway" v="yes"/>
    <tag k="highway" v="primary"/>
    <tag k="lanes" v="2"/>
    <tag k="lit" v="no"/>
    <tag k="maxspeed" v="50 mph"/>
    <tag k="maxspeed:type" v="sign"/>
    <tag k="name" v="Cambridge Road"/>
    <tag k="oneway" v="yes"/>
    <tag k="ref" v="A1307"/>
    <tag k="source:ref" v="local_knowledge"/>
  </way>
  <way id="3904742" version="12" timestamp="2024-12-31T15:13:22Z" changeset="160837325" uid="5229644" user="Nathan_A_RF">
    <nd ref="554073"/>
    <nd ref="554074"/>
    <nd ref="554075"/>
    <nd ref="554076"/>
    <nd ref="554096"/>
    <nd ref="554097"/>
    <nd ref="554100"/>
    <tag k="dual_carriageway" v="yes"/>
    <tag k="highway" v="primary"/>
    <tag k="lanes" v="1"/>
    <tag k="lit" v="no"/>
    <tag k="maxspeed" v="50 mph"/>
    <tag k="maxspeed:type" v="sign"/>
    <tag k="name" v="Cambridge Road"/>
    <tag k="oneway" v="yes"/>
    <tag k="ref" v="A1307"/>
  </way>
  <way id="3904745" version="14" timestamp="2025-02-23T11:58:01Z" changeset="162848534" uid="5008136" user="JayTurnr">
    <nd ref="216186"/>
    <nd ref="12612621632"/>
    <nd ref="1554859263"/>
    <nd ref="12612621631"/>
    <nd ref="554060"/>
    <nd ref="1554859391"/>
    <nd ref="554061"/>
    <tag k="expressway" v="yes"/>
    <tag k="highway" v="trunk_link"/>
    <tag k="lit" v="no"/>
    <tag k="maintenance" v="salting"/>
    <tag k="maxspeed" v="70 mph"/>
    <tag k="maxspeed:type" v="GB:nsl_dual"/>
    <tag k="national_highways:area" v="8"/>
    <tag k="oneway" v="yes"/>
    <tag k="operator" v="National Highways"/>
    <tag k="operator:wikidata" v="Q5760006"/>
    <tag k="ref" v="A11"/>
  </way>
  <way id="3904747" version="11" timestamp="2025-02-23T11:58:01Z" changeset="162848534" uid="5008136" user="JayTurnr">
    <nd ref="554069"/>
    <nd ref="1554859399"/>
    <nd ref="759630980"/>
    <nd ref="510924222"/>
    <nd ref="36743562"/>
    <tag k="expressway" v="yes"/>
    <tag k="highway" v="trunk_link"/>
    <tag k="lanes" v="1"/>
    <tag k="lit" v="yes"/>
    <tag k="maintenance" v="salting"/>
    <tag k="maxspeed" v="70 mph"/>
    <tag k="maxspeed:type" v="GB:nsl_dual"/>
    <tag k="oneway" v="yes"/>
    <tag k="ref" v="A11"/>
  </way>
  <way id="4355211" version="6" timestamp="2022-08-10T18:05:50Z" changeset="124743333" uid="10200493" user="Luanbcc">
    <nd ref="26530774"/>
    <nd ref="26530773"/>
    <tag k="highway" v="unclassified"/>
  </way>
  <way id="4355214" version="12" timestamp="2025-02-24T17:16:49Z" changeset="162901854" uid="5008136" user="JayTurnr">
    <nd ref="26530941"/>
    <nd ref="420297507"/>
    <nd ref="1554859254"/>
    <nd ref="26530948"/>
    <nd ref="1554859397"/>
    <nd ref="1554859238"/>
    <nd ref="12616248136"/>
    <nd ref="1554859233"/>
    <nd ref="12616246607"/>
    <nd ref="216090"/>
    <tag k="expressway" v="yes"/>
    <tag k="highway" v="trunk_link"/>
    <tag k="lanes" v="1"/>
    <tag k="maintenance" v="salting"/>
    <tag k="national_highways:area" v="8"/>
    <tag k="oneway" v="yes"/>
    <tag k="operator" v="National Highways"/>
    <tag k="operator:wikidata" v="Q5760006"/>
    <tag k="ref" v="A11"/>
  </way>
  <way id="4355217" version="1" timestamp="2007-03-14T15:52:39Z" changeset="236030" uid="3582" user="davidearl">
    <nd ref="26530936"/>
    <nd ref="26530937"/>
    <tag k="bridge" v="yes"/>
    <tag k="created_by" v="JOSM"/>
    <tag k="highway" v="unclassified"/>
    <tag k="layer" v="1"/>
  </way>
  <way id="4355287" version="11" timestamp="2025-02-24T17:10:07Z" changeset="162901659" uid="5008136" user="JayTurnr">
    <nd ref="26530970"/>
    <nd ref="1423424528"/>
    <nd ref="532610314"/>
    <nd ref="1423424570"/>
    <nd ref="26530966"/>
    <nd ref="1423424561"/>
    <nd ref="12465467371"/>
    <nd ref="26530965"/>
    <nd ref="26530968"/>
    <nd ref="1423424465"/>
    <nd ref="12465467372"/>
    <nd ref="12616228610"/>
    <nd ref="26531240"/>
    <nd ref="26530967"/>
    <nd ref="1423424569"/>
    <nd ref="532610326"/>
    <nd ref="1423424696"/>
    <nd ref="26530969"/>
    <nd ref="532610330"/>
    <nd ref="1423424621"/>
    <nd ref="26530970"/>
    <tag k="cycleway:left" v="no"/>
    <tag k="highway" v="tertiary"/>
    <tag k="junction" v="roundabout"/>
    <tag k="lane_markings" v="no"/>
    <tag k="lit" v="yes"/>
    <tag k="oneway" v="yes"/>
    <tag k="sidewalk" v="no"/>
    <tag k="surface" v="asphalt"/>
  </way>
  <way id="4355295" version="9" timestamp="2024-10-26T14:06:17Z" changeset="158377961" uid="1782504" user="corgicity">
    <nd ref="26531214"/>
    <nd ref="2940490041"/>
    <nd ref="26531213"/>
    <nd ref="6051232067"/>
    <nd ref="3784892227"/>
    <nd ref="26531215"/>
    <nd ref="6051234315"/>
    <nd ref="26531216"/>
    <nd ref="8542600937"/>
    <nd ref="26531217"/>
    <nd ref="26531218"/>
    <nd ref="12290216737"/>
    <nd ref="26531219"/>
    <nd ref="9892250633"/>
    <nd ref="8581547112"/>
    <nd ref="26531254"/>
    <tag k="highway" v="tertiary"/>
  </way>
  <way id="4355296" version="5" timestamp="2022-04-19T08:02:55Z" changeset="119893073" uid="14723054" user="athakan">
    <nd ref="26531257"/>
    <nd ref="5279837629"/>
    <nd ref="5279837627"/>
    <nd ref="26531258"/>
    <nd ref="26531259"/>
    <nd ref="26531260"/>
    <nd ref="26531261"/>
    <nd ref="26531262"/>
    <tag k="abutters" v="residential"/>
    <tag k="highway" v="tertiary"/>
    <tag k="maxspeed" v="20 mph"/>
    <tag k="name" v="High Street"/>
    <tag k="source:name" v="local knowledge"/>
  </way>
  <way id="4355297" version="3" timestamp="2016-08-06T21:47:34Z" changeset="41294576" uid="1287673" user="sloerunner">
    <nd ref="26531265"/>
    <nd ref="4339029192"/>
    <nd ref="26531269"/>
    <nd ref="1607446293"/>
    <nd ref="26531270"/>
    <nd ref="1607446292"/>
    <nd ref="26531271"/>
    <nd ref="1607446291"/>
    <nd ref="1607446289"/>
    <nd ref="26531272"/>
    <nd ref="26531273"/>
    <nd ref="1607446294"/>
    <tag k="highway" v="residential"/>
    <tag k="name" v="Honeysuckle Lane"/>
  </way>
  <way id="4355298" version="13" timestamp="2023-12-08T19:47:38Z" changeset="144915726" uid="242345" user="confusedbuffalo">
    <nd ref="26531282"/>
    <nd ref="10558382124"/>
    <nd ref="8668190685"/>
    <nd ref="3784892236"/>
    <nd ref="8342005038"/>
    <nd ref="11403866534"/>
    <nd ref="8500590046"/>
    <nd ref="8668190677"/>
    <nd ref="1053073704"/>
    <tag k="highway" v="tertiary"/>
    <tag k="lanes" v="2"/>
    <tag k="maxspeed" v="30 mph"/>
    <tag k="name" v="Babraham Road"/>
    <tag k="oneway" v="no"/>
    <tag k="surface" v="asphalt"/>
  </way>
  <way id="4355300" version="4" timestamp="2020-06-26T12:23:15Z" changeset="87195358" uid="1287673" user="sloerunner">
    <nd ref="26531261"/>
    <nd ref="7656101807"/>
    <nd ref="26531286"/>
    <nd ref="26531284"/>
    <tag k="highway" v="unclassified"/>
  </way>
  <way id="4355307" version="11" timestamp="2025-03-18T19:30:50Z" changeset="163789584" uid="141442" user="CycleStreets">
    <nd ref="26531263"/>
    <nd ref="306586773"/>
    <nd ref="1607434013"/>
    <nd ref="12677329550"/>
    <nd ref="1607434020"/>
    <nd ref="26531265"/>
    <tag k="abutters" v="residential"/>
    <tag k="highway" v="tertiary"/>
    <tag k="maxspeed" v="20 mph"/>
    <tag k="name" v="High Street"/>
    <tag k="source:name" v="local knowledge"/>
  </way>
  <way id="4355308" version="6" timestamp="2022-04-19T08:02:55Z" changeset="119893073" uid="14723054" user="athakan">
    <nd ref="26531262"/>
    <nd ref="1307809405"/>
    <nd ref="26531263"/>
    <tag k="bridge" v="yes"/>
    <tag k="highway" v="tertiary"/>
    <tag k="layer" v="1"/>
    <tag k="maxspeed" v="20 mph"/>
    <tag k="name" v="High Street"/>
    <tag k="source:name" v="local knowledge"/>
  </way>
  <way id="4355330" version="8" timestamp="2023-09-11T12:58:02Z" changeset="141111931" uid="242345" user="confusedbuffalo">
    <nd ref="26531431"/>
    <nd ref="7656101797"/>
    <nd ref="2422009836"/>
    <nd ref="26531432"/>
    <nd ref="26531433"/>
    <nd ref="2422009680"/>
    <nd ref="2422009707"/>
    <nd ref="26531430"/>
    <nd ref="26531431"/>
    <tag k="addr:postcode" v="CB22 3AG"/>
    <tag k="addr:street" v="High Street"/>
    <tag k="amenity" v="school"/>
    <tag k="capacity" v="93"/>
    <tag k="denomination" v="anglican"/>
    <tag k="diocese" v="Diocese of Ely"/>
    <tag k="isced:level" v="1"/>
    <tag k="max_age" v="11"/>
    <tag k="min_age" v="5"/>
    <tag k="name" v="Babraham C of E Primary School"/>
    <tag k="official_name" v="Babraham CofE (VC) Primary School"/>
    <tag k="phone" v="+44 1223 832322"/>
    <tag k="ref:GB:uprn" v="10003202690"/>
    <tag k="ref:edubase" v="143440"/>
    <tag k="ref:edubase:group" v="2905"/>
    <tag k="religion" v="christian"/>
    <tag k="school:trust" v="yes"/>
    <tag k="school:trust:name" v="The Diocese of Ely Multi-Academy Trust"/>
    <tag k="school:trust:type" v="multi_academy"/>
    <tag k="school:type" v="academy"/>
    <tag k="website" v="https://www.babraham.cambs.sch.uk"/>
    <tag k="wikidata" v="Q66231620"/>
  </way>
  <way id="4355332" version="2" timestamp="2024-05-14T15:10:07Z" changeset="151317750" uid="1287673" user="sloerunner">
    <nd ref="26531267"/>
    <nd ref="26531439"/>
    <nd ref="11904443312"/>
    <nd ref="11904443305"/>
    <nd ref="26531438"/>
    <tag k="highway" v="residential"/>
    <tag k="name" v="The Close"/>
  </way>
  <way id="5204479" version="15" timestamp="2024-12-29T22:55:39Z" changeset="160770788" uid="5229644" user="Nathan_A_RF">
    <nd ref="216240"/>
    <nd ref="1748592319"/>
    <nd ref="36744841"/>
    <tag k="dual_carriageway" v="yes"/>
    <tag k="expressway" v="yes"/>
    <tag k="highway" v="trunk"/>
    <tag k="lanes" v="2"/>
    <tag k="lit" v="no"/>
    <tag k="maxspeed" v="70 mph"/>
    <tag k="maxspeed:type" v="GB:nsl_dual"/>
    <tag k="national_highways:area" v="8"/>
    <tag k="oneway" v="yes"/>
    <tag k="operator" v="National Highways"/>
    <tag k="operator:wikidata" v="Q5760006"/>
    <tag k="ref" v="A505"/>
    <tag k="source" v="survey"/>
  </way>
  <way id="5229002" version="12" timestamp="2024-12-31T15:13:22Z" changeset="160837325" uid="5229644" user="Nathan_A_RF">
    <nd ref="554071"/>
    <nd ref="4500530647"/>
    <nd ref="1554859237"/>
    <nd ref="554072"/>
    <nd ref="8168712828"/>
    <nd ref="8168712829"/>
    <nd ref="1554859287"/>
    <tag k="dual_carriageway" v="yes"/>
    <tag k="highway" v="primary"/>
    <tag k="lanes" v="2"/>
    <tag k="lit" v="yes"/>
    <tag k="maxspeed" v="50 mph"/>
    <tag k="maxspeed:type" v="sign"/>
    <tag k="name" v="Cambridge Road"/>
    <tag k="oneway" v="yes"/>
    <tag k="ref" v="A1307"/>
  </way>
  <way id="5229115" version="19" timestamp="2024-01-07T20:30:28Z" changeset="146005303" uid="13341565" user="Falsernet">
    <nd ref="36744843"/>
    <nd ref="216239"/>
    <nd ref="1748592304"/>
    <nd ref="216237"/>
    <tag k="expressway" v="yes"/>
    <tag k="highway" v="trunk"/>
    <tag k="lanes" v="2"/>
    <tag k="lit" v="no"/>
    <tag k="maintenance" v="salting"/>
    <tag k="maxspeed" v="70 mph"/>
    <tag k="maxspeed:type" v="GB:nsl_dual"/>
    <tag k="national_highways:area" v="8"/>
    <tag k="oneway" v="yes"/>
    <tag k="operator" v="National Highways"/>
    <tag k="operator:wikidata" v="Q5760006"/>
    <tag k="ref" v="A11"/>
    <tag k="source" v="survey"/>
    <tag k="source:ref" v="local knowledge"/>
  </way>
  <way id="5229116" version="15" timestamp="2024-01-07T20:30:28Z" changeset="146005303" uid="13341565" user="Falsernet">
    <nd ref="216246"/>
    <nd ref="36744843"/>
    <tag k="bridge" v="yes"/>
    <tag k="expressway" v="yes"/>
    <tag k="highway" v="trunk"/>
    <tag k="lanes" v="2"/>
    <tag k="layer" v="1"/>
    <tag k="lit" v="no"/>
    <tag k="maintenance" v="salting"/>
    <tag k="maxspeed" v="70 mph"/>
    <tag k="maxspeed:type" v="GB:nsl_dual"/>
    <tag k="national_highways:area" v="8"/>
    <tag k="oneway" v="yes"/>
    <tag k="operator" v="National Highways"/>
    <tag k="operator:wikidata" v="Q5760006"/>
    <tag k="ref" v="A11"/>
    <tag k="source" v="survey"/>
    <tag k="source:ref" v="local knowledge"/>
  </way>
  <way id="5229117" version="16" timestamp="2025-02-23T11:58:01Z" changeset="162848534" uid="5008136" user="JayTurnr">
    <nd ref="216186"/>
    <nd ref="12612621633"/>
    <nd ref="1554859303"/>
    <nd ref="216188"/>
    <nd ref="216190"/>
    <nd ref="12612621627"/>
    <nd ref="20087414"/>
    <tag k="expressway" v="yes"/>
    <tag k="highway" v="trunk"/>
    <tag k="lanes" v="2"/>
    <tag k="lit" v="no"/>
    <tag k="maintenance" v="salting"/>
    <tag k="maxspeed" v="70 mph"/>
    <tag k="maxspeed:type" v="GB:nsl_dual"/>
    <tag k="national_highways:area" v="8"/>
    <tag k="oneway" v="yes"/>
    <tag k="operator" v="National Highways"/>
    <tag k="operator:wikidata" v="Q5760006"/>
    <tag k="ref" v="A11"/>
    <tag k="source:ref" v="local knowledge"/>
  </way>
  <way id="5229118" version="16" timestamp="2024-01-07T20:30:28Z" changeset="146005303" uid="13341565" user="Falsernet">
    <nd ref="36744842"/>
    <nd ref="216245"/>
    <tag k="bridge" v="yes"/>
    <tag k="expressway" v="yes"/>
    <tag k="highway" v="trunk"/>
    <tag k="lanes" v="2"/>
    <tag k="layer" v="1"/>
    <tag k="lit" v="no"/>
    <tag k="maintenance" v="salting"/>
    <tag k="maxspeed" v="70 mph"/>
    <tag k="maxspeed:type" v="GB:nsl_dual"/>
    <tag k="national_highways:area" v="8"/>
    <tag k="oneway" v="yes"/>
    <tag k="operator" v="National Highways"/>
    <tag k="operator:wikidata" v="Q5760006"/>
    <tag k="ref" v="A11"/>
    <tag k="source" v="survey"/>
    <tag k="source:ref" v="local knowledge"/>
  </way>
  <way id="13887711" version="19" timestamp="2024-12-31T15:13:22Z" changeset="160837325" uid="5229644" user="Nathan_A_RF">
    <nd ref="2424959325"/>
    <nd ref="8168711214"/>
    <nd ref="759630972"/>
    <nd ref="8168711213"/>
    <nd ref="2977388100"/>
    <nd ref="12465467375"/>
    <nd ref="519642496"/>
    <tag k="highway" v="primary"/>
    <tag k="lit" v="yes"/>
    <tag k="maxspeed" v="50 mph"/>
    <tag k="maxspeed:type" v="sign"/>
    <tag k="name" v="Cambridge Road"/>
    <tag k="oneway" v="yes"/>
    <tag k="ref" v="A1307"/>
    <tag k="source:ref" v="local knowledge"/>
    <tag k="surface" v="asphalt"/>
  </way>
  <way id="34605646" version="15" timestamp="2024-01-07T20:30:28Z" changeset="146005303" uid="13341565" user="Falsernet">
    <nd ref="20087413"/>
    <nd ref="1748592301"/>
    <nd ref="216191"/>
    <nd ref="216189"/>
    <nd ref="1554859355"/>
    <nd ref="216187"/>
    <tag k="expressway" v="yes"/>
    <tag k="highway" v="trunk"/>
    <tag k="lanes" v="2"/>
    <tag k="lit" v="no"/>
    <tag k="maintenance" v="salting"/>
    <tag k="maxspeed" v="70 mph"/>
    <tag k="maxspeed:type" v="GB:nsl_dual"/>
    <tag k="national_highways:area" v="8"/>
    <tag k="oneway" v="yes"/>
    <tag k="operator" v="National Highways"/>
    <tag k="operator:wikidata" v="Q5760006"/>
    <tag k="ref" v="A11"/>
    <tag k="source:ref" v="local knowledge"/>
  </way>
  <way id="34605651" version="19" timestamp="2024-12-29T22:55:39Z" changeset="160770788" uid="5229644" user="Nathan_A_RF">
    <nd ref="20087414"/>
    <nd ref="216235"/>
    <nd ref="216238"/>
    <nd ref="12461788750"/>
    <nd ref="12461788747"/>
    <tag k="expressway" v="yes"/>
    <tag k="highway" v="trunk"/>
    <tag k="lanes" v="3"/>
    <tag k="lit" v="no"/>
    <tag k="maintenance" v="salting"/>
    <tag k="maxspeed" v="70 mph"/>
    <tag k="maxspeed:type" v="GB:nsl_dual"/>
    <tag k="national_highways:area" v="8"/>
    <tag k="oneway" v="yes"/>
    <tag k="operator" v="National Highways"/>
    <tag k="operator:wikidata" v="Q5760006"/>
    <tag k="ref" v="A11"/>
    <tag k="source:ref" v="local knowledge"/>
  </way>
  <way id="34605657" version="16" timestamp="2024-12-29T22:55:39Z" changeset="160770788" uid="5229644" user="Nathan_A_RF">
    <nd ref="216240"/>
    <nd ref="12461788749"/>
    <nd ref="36744842"/>
    <tag k="expressway" v="yes"/>
    <tag k="highway" v="trunk"/>
    <tag k="lanes" v="2"/>
    <tag k="lit" v="no"/>
    <tag k="maintenance" v="salting"/>
    <tag k="maxspeed" v="70 mph"/>
    <tag k="maxspeed:type" v="GB:nsl_dual"/>
    <tag k="national_highways:area" v="8"/>
    <tag k="oneway" v="yes"/>
    <tag k="operator" v="National Highways"/>
    <tag k="operator:wikidata" v="Q5760006"/>
    <tag k="ref" v="A11"/>
    <tag k="source" v="survey"/>
    <tag k="source:ref" v="local knowledge"/>
  </way>
  <way id="35955447" version="13" timestamp="2024-12-31T15:13:22Z" changeset="160837325" uid="5229644" user="Nathan_A_RF">
    <nd ref="420297535"/>
    <nd ref="9162676647"/>
    <nd ref="20087410"/>
    <nd ref="519642756"/>
    <nd ref="4500530645"/>
    <nd ref="4500530642"/>
    <nd ref="554065"/>
    <tag k="highway" v="primary"/>
    <tag k="junction" v="roundabout"/>
    <tag k="lit" v="yes"/>
    <tag k="maxspeed" v="60 mph"/>
    <tag k="maxspeed:type" v="GB:nsl_single"/>
    <tag k="name" v="Fourwentways"/>
    <tag k="oneway" v="yes"/>
  </way>
  <way id="35955448" version="9" timestamp="2024-12-31T15:13:22Z" changeset="160837325" uid="5229644" user="Nathan_A_RF">
    <nd ref="20087411"/>
    <nd ref="420297535"/>
    <tag k="bridge" v="yes"/>
    <tag k="highway" v="primary"/>
    <tag k="junction" v="roundabout"/>
    <tag k="layer" v="1"/>
    <tag k="lit" v="yes"/>
    <tag k="maxspeed" v="60 mph"/>
    <tag k="maxspeed:type" v="GB:nsl_single"/>
    <tag k="maxweight:signed" v="no"/>
    <tag k="name" v="Fourwentways"/>
    <tag k="oneway" v="yes"/>
  </way>
  <way id="35955455" version="9" timestamp="2024-12-31T15:13:22Z" changeset="160837325" uid="5229644" user="Nathan_A_RF">
    <nd ref="420297536"/>
    <nd ref="420297537"/>
    <tag k="bridge" v="yes"/>
    <tag k="highway" v="primary"/>
    <tag k="junction" v="roundabout"/>
    <tag k="layer" v="1"/>
    <tag k="lit" v="yes"/>
    <tag k="maxspeed" v="60 mph"/>
    <tag k="maxspeed:type" v="GB:nsl_single"/>
    <tag k="name" v="Fourwentways"/>
    <tag k="oneway" v="yes"/>
  </way>
  <way id="35955458" version="15" timestamp="2025-02-23T11:58:01Z" changeset="162848534" uid="5008136" user="JayTurnr">
    <nd ref="420297537"/>
    <nd ref="554070"/>
    <nd ref="9162676639"/>
    <nd ref="4500530634"/>
    <nd ref="12612621629"/>
    <nd ref="554071"/>
    <tag k="highway" v="primary"/>
    <tag k="junction" v="roundabout"/>
    <tag k="lit" v="yes"/>
    <tag k="maxspeed" v="60 mph"/>
    <tag k="maxspeed:type" v="GB:nsl_single"/>
    <tag k="name" v="Fourwentways"/>
    <tag k="oneway" v="yes"/>
  </way>
  <way id="41946468" version="12" timestamp="2024-12-31T15:13:22Z" changeset="160837325" uid="5229644" user="Nathan_A_RF">
    <nd ref="519642496"/>
    <nd ref="12465467376"/>
    <nd ref="4660147496"/>
    <nd ref="8168711215"/>
    <nd ref="8168711216"/>
    <nd ref="519642499"/>
    <nd ref="8168712817"/>
    <nd ref="130632945"/>
    <tag k="highway" v="primary"/>
    <tag k="lit" v="yes"/>
    <tag k="maxspeed" v="50 mph"/>
    <tag k="maxspeed:type" v="sign"/>
    <tag k="name" v="Cambridge Road"/>
    <tag k="oneway" v="yes"/>
    <tag k="ref" v="A1307"/>
    <tag k="source:ref" v="local knowledge"/>
  </way>
  <way id="41946469" version="9" timestamp="2024-12-31T15:13:22Z" changeset="160837325" uid="5229644" user="Nathan_A_RF">
    <nd ref="519642496"/>
    <nd ref="12465467377"/>
    <nd ref="130632940"/>
    <nd ref="8168712819"/>
    <nd ref="554107"/>
    <nd ref="320893927"/>
    <nd ref="7537555753"/>
    <nd ref="2616323516"/>
    <nd ref="2616323586"/>
    <nd ref="2616323583"/>
    <nd ref="554104"/>
    <nd ref="12465467374"/>
    <nd ref="554101"/>
    <tag k="highway" v="primary"/>
    <tag k="lanes" v="2"/>
    <tag k="lit" v="no"/>
    <tag k="maxspeed" v="50 mph"/>
    <tag k="maxspeed:type" v="sign"/>
    <tag k="name" v="Cambridge Road"/>
    <tag k="ref" v="A1307"/>
    <tag k="source:ref" v="local knowledge"/>
  </way>
  <way id="41946475" version="10" timestamp="2024-12-31T15:13:22Z" changeset="160837325" uid="5229644" user="Nathan_A_RF">
    <nd ref="519642529"/>
    <nd ref="8168711204"/>
    <nd ref="8168711202"/>
    <nd ref="8168711201"/>
    <nd ref="8168711205"/>
    <nd ref="2424959324"/>
    <tag k="highway" v="primary"/>
    <tag k="lit" v="yes"/>
    <tag k="maxspeed" v="50 mph"/>
    <tag k="maxspeed:type" v="sign"/>
    <tag k="name" v="Cambridge Road"/>
    <tag k="oneway" v="yes"/>
    <tag k="ref" v="A1307"/>
    <tag k="source:ref" v="local knowledge"/>
  </way>
  <way id="41946477" version="10" timestamp="2024-12-31T15:13:22Z" changeset="160837325" uid="5229644" user="Nathan_A_RF">
    <nd ref="8156148634"/>
    <nd ref="8168711209"/>
    <nd ref="8168711211"/>
    <nd ref="8168711206"/>
    <nd ref="519642529"/>
    <tag k="highway" v="primary"/>
    <tag k="lit" v="yes"/>
    <tag k="maxspeed" v="50 mph"/>
    <tag k="maxspeed:type" v="sign"/>
    <tag k="name" v="Cambridge Road"/>
    <tag k="oneway" v="yes"/>
    <tag k="ref" v="A1307"/>
    <tag k="source:ref" v="local knowledge"/>
  </way>
  <way id="60681931" version="7" timestamp="2024-12-31T15:13:22Z" changeset="160837325" uid="5229644" user="Nathan_A_RF">
    <nd ref="554068"/>
    <nd ref="510923574"/>
    <nd ref="554069"/>
    <nd ref="4500530643"/>
    <nd ref="9162676644"/>
    <nd ref="420297536"/>
    <tag k="highway" v="primary"/>
    <tag k="junction" v="roundabout"/>
    <tag k="lit" v="yes"/>
    <tag k="maxspeed" v="60 mph"/>
    <tag k="maxspeed:type" v="GB:nsl_single"/>
    <tag k="name" v="Fourwentways"/>
    <tag k="oneway" v="yes"/>
  </way>
  <way id="60681934" version="8" timestamp="2025-02-23T11:58:01Z" changeset="162848534" uid="5008136" user="JayTurnr">
    <nd ref="759630991"/>
    <nd ref="12612621630"/>
    <nd ref="554086"/>
    <nd ref="554087"/>
    <nd ref="554089"/>
    <nd ref="554088"/>
    <tag k="expressway" v="yes"/>
    <tag k="highway" v="trunk_link"/>
    <tag k="lanes" v="1"/>
    <tag k="lit" v="yes"/>
    <tag k="maintenance" v="salting"/>
    <tag k="maxspeed" v="70 mph"/>
    <tag k="maxspeed:type" v="GB:nsl_dual"/>
    <tag k="oneway" v="yes"/>
    <tag k="ref" v="A11"/>
  </way>
  <way id="60681936" version="7" timestamp="2024-12-31T15:13:22Z" changeset="160837325" uid="5229644" user="Nathan_A_RF">
    <nd ref="554085"/>
    <nd ref="4500530636"/>
    <nd ref="759630991"/>
    <nd ref="759630971"/>
    <nd ref="9162676652"/>
    <nd ref="20087411"/>
    <tag k="highway" v="primary"/>
    <tag k="junction" v="roundabout"/>
    <tag k="lit" v="yes"/>
    <tag k="maxspeed" v="60 mph"/>
    <tag k="maxspeed:type" v="GB:nsl_single"/>
    <tag k="name" v="Fourwentways"/>
    <tag k="oneway" v="yes"/>
  </way>
  <way id="60681937" version="7" timestamp="2024-12-31T15:13:22Z" changeset="160837325" uid="5229644" user="Nathan_A_RF">
    <nd ref="554071"/>
    <nd ref="9162676653"/>
    <nd ref="759630975"/>
    <nd ref="519642753"/>
    <nd ref="20087412"/>
    <nd ref="519642751"/>
    <nd ref="4500530633"/>
    <nd ref="554085"/>
    <tag k="highway" v="primary"/>
    <tag k="junction" v="roundabout"/>
    <tag k="lit" v="yes"/>
    <tag k="maxspeed" v="60 mph"/>
    <tag k="maxspeed:type" v="GB:nsl_single"/>
    <tag k="name" v="Fourwentways"/>
    <tag k="oneway" v="yes"/>
  </way>
  <way id="90746593" version="9" timestamp="2024-12-31T15:13:22Z" changeset="160837325" uid="5229644" user="Nathan_A_RF">
    <nd ref="7933528127"/>
    <nd ref="554160"/>
    <nd ref="8168643369"/>
    <nd ref="443921403"/>
    <nd ref="554159"/>
    <nd ref="8168643372"/>
    <nd ref="554158"/>
    <nd ref="554157"/>
    <nd ref="8598590235"/>
    <nd ref="554156"/>
    <nd ref="8168643373"/>
    <nd ref="554155"/>
    <nd ref="554154"/>
    <nd ref="554153"/>
    <nd ref="8168711198"/>
    <nd ref="554151"/>
    <nd ref="12465467378"/>
    <nd ref="519642529"/>
    <tag k="highway" v="primary"/>
    <tag k="lanes" v="2"/>
    <tag k="lit" v="no"/>
    <tag k="maxspeed" v="50 mph"/>
    <tag k="maxspeed:type" v="sign"/>
    <tag k="name" v="Cambridge Road"/>
    <tag k="ref" v="A1307"/>
    <tag k="source:ref" v="local knowledge"/>
  </way>
  <way id="90746595" version="1" timestamp="2010-12-21T00:53:38Z" changeset="6721799" uid="4951" user="PeterEastern">
    <nd ref="26531254"/>
    <nd ref="26531255"/>
    <nd ref="26531256"/>
    <nd ref="26531257"/>
    <tag k="highway" v="tertiary"/>
    <tag k="name" v="High Street"/>
  </way>
  <way id="90746596" version="3" timestamp="2023-07-22T22:05:40Z" changeset="138873165" uid="18573" user="Stephen Paulger">
    <nd ref="1053073704"/>
    <nd ref="11062473132"/>
    <nd ref="26531281"/>
    <nd ref="11062473134"/>
    <nd ref="26531280"/>
    <nd ref="11062473133"/>
    <nd ref="26531279"/>
    <nd ref="11062473140"/>
    <nd ref="1079389811"/>
    <nd ref="26531278"/>
    <nd ref="26531277"/>
    <nd ref="1079389813"/>
    <nd ref="26531276"/>
    <nd ref="550881233"/>
    <nd ref="26531275"/>
    <nd ref="968827922"/>
    <nd ref="1079389778"/>
    <nd ref="26531256"/>
    <tag k="highway" v="tertiary"/>
    <tag k="name" v="Sawston Road"/>
  </way>
  <way id="103825855" version="10" timestamp="2024-12-29T22:55:39Z" changeset="160770788" uid="5229644" user="Nathan_A_RF">
    <nd ref="36744841"/>
    <nd ref="26531202"/>
    <tag k="bridge" v="yes"/>
    <tag k="dual_carriageway" v="yes"/>
    <tag k="expressway" v="yes"/>
    <tag k="highway" v="trunk"/>
    <tag k="lanes" v="2"/>
    <tag k="layer" v="1"/>
    <tag k="lit" v="no"/>
    <tag k="maxspeed" v="70 mph"/>
    <tag k="maxspeed:type" v="GB:nsl_dual"/>
    <tag k="national_highways:area" v="8"/>
    <tag k="oneway" v="yes"/>
    <tag k="operator" v="National Highways"/>
    <tag k="operator:wikidata" v="Q5760006"/>
    <tag k="ref" v="A505"/>
  </way>
  <way id="142062654" version="7" timestamp="2025-02-23T11:58:01Z" changeset="162848534" uid="5008136" user="JayTurnr">
    <nd ref="554061"/>
    <nd ref="554062"/>
    <tag k="expressway" v="yes"/>
    <tag k="highway" v="trunk_link"/>
    <tag k="lanes" v="1"/>
    <tag k="lit" v="yes"/>
    <tag k="maintenance" v="salting"/>
    <tag k="maxspeed" v="70 mph"/>
    <tag k="maxspeed:type" v="GB:nsl_dual"/>
    <tag k="oneway" v="yes"/>
    <tag k="ref" v="A11"/>
  </way>
  <way id="142062658" version="6" timestamp="2024-12-31T15:13:22Z" changeset="160837325" uid="5229644" user="Nathan_A_RF">
    <nd ref="1554859410"/>
    <nd ref="1554859404"/>
    <nd ref="554080"/>
    <nd ref="554081"/>
    <nd ref="554082"/>
    <nd ref="8168712830"/>
    <nd ref="554083"/>
    <nd ref="554084"/>
    <nd ref="554085"/>
    <tag k="dual_carriageway" v="yes"/>
    <tag k="highway" v="primary"/>
    <tag k="lanes" v="2"/>
    <tag k="lit" v="yes"/>
    <tag k="maxspeed" v="50 mph"/>
    <tag k="maxspeed:type" v="sign"/>
    <tag k="name" v="Cambridge Road"/>
    <tag k="oneway" v="yes"/>
    <tag k="ref" v="A1307"/>
  </way>
  <way id="142062661" version="7" timestamp="2024-12-31T15:13:22Z" changeset="160837325" uid="5229644" user="Nathan_A_RF">
    <nd ref="1554859287"/>
    <nd ref="8168712825"/>
    <nd ref="8168712826"/>
    <nd ref="554073"/>
    <tag k="dual_carriageway" v="yes"/>
    <tag k="highway" v="primary"/>
    <tag k="lanes" v="2"/>
    <tag k="lit" v="no"/>
    <tag k="maxspeed" v="50 mph"/>
    <tag k="maxspeed:type" v="sign"/>
    <tag k="name" v="Cambridge Road"/>
    <tag k="oneway" v="yes"/>
    <tag k="ref" v="A1307"/>
  </way>
  <way id="142062663" version="9" timestamp="2025-02-23T11:58:01Z" changeset="162848534" uid="5008136" user="JayTurnr">
    <nd ref="36743562"/>
    <nd ref="12612621628"/>
    <nd ref="12612621626"/>
    <nd ref="20087414"/>
    <tag k="expressway" v="yes"/>
    <tag k="highway" v="trunk_link"/>
    <tag k="lanes" v="1"/>
    <tag k="lit" v="no"/>
    <tag k="maintenance" v="salting"/>
    <tag k="maxspeed" v="70 mph"/>
    <tag k="maxspeed:type" v="GB:nsl_dual"/>
    <tag k="national_highways:area" v="8"/>
    <tag k="oneway" v="yes"/>
    <tag k="operator" v="National Highways"/>
    <tag k="operator:wikidata" v="Q5760006"/>
    <tag k="ref" v="A11"/>
  </way>
  <way id="142062665" version="9" timestamp="2025-02-23T11:58:01Z" changeset="162848534" uid="5008136" user="JayTurnr">
    <nd ref="554088"/>
    <nd ref="1554859326"/>
    <nd ref="1554859259"/>
    <nd ref="216187"/>
    <tag k="expressway" v="yes"/>
    <tag k="highway" v="trunk_link"/>
    <tag k="lanes" v="1"/>
    <tag k="lit" v="no"/>
    <tag k="maintenance" v="salting"/>
    <tag k="maxspeed" v="70 mph"/>
    <tag k="maxspeed:type" v="GB:nsl_dual"/>
    <tag k="national_highways:area" v="8"/>
    <tag k="oneway" v="yes"/>
    <tag k="operator" v="National Highways"/>
    <tag k="operator:wikidata" v="Q5760006"/>
    <tag k="ref" v="A11"/>
  </way>
  <way id="142062667" version="6" timestamp="2025-02-23T11:58:01Z" changeset="162848534" uid="5008136" user="JayTurnr">
    <nd ref="1554859230"/>
    <nd ref="4500530635"/>
    <nd ref="4500530632"/>
    <nd ref="4500530641"/>
    <nd ref="4500530638"/>
    <nd ref="4500530634"/>
    <tag k="expressway" v="yes"/>
    <tag k="highway" v="trunk_link"/>
    <tag k="lanes" v="2"/>
    <tag k="lit" v="yes"/>
    <tag k="maintenance" v="salting"/>
    <tag k="maxspeed" v="70 mph"/>
    <tag k="maxspeed:type" v="GB:nsl_dual"/>
    <tag k="oneway" v="yes"/>
    <tag k="ref" v="A11"/>
  </way>
  <way id="163082354" version="9" timestamp="2024-01-07T20:30:28Z" changeset="146005303" uid="13341565" user="Falsernet">
    <nd ref="216237"/>
    <nd ref="1691250514"/>
    <nd ref="216236"/>
    <nd ref="20087413"/>
    <tag k="expressway" v="yes"/>
    <tag k="highway" v="trunk"/>
    <tag k="lanes" v="3"/>
    <tag k="lit" v="no"/>
    <tag k="maintenance" v="salting"/>
    <tag k="maxspeed" v="70 mph"/>
    <tag k="maxspeed:type" v="GB:nsl_dual"/>
    <tag k="national_highways:area" v="8"/>
    <tag k="oneway" v="yes"/>
    <tag k="operator" v="National Highways"/>
    <tag k="operator:wikidata" v="Q5760006"/>
    <tag k="ref" v="A11"/>
    <tag k="source:ref" v="local knowledge"/>
  </way>
  <way id="163082355" version="8" timestamp="2024-12-29T22:55:39Z" changeset="160770788" uid="5229644" user="Nathan_A_RF">
    <nd ref="1748592299"/>
    <nd ref="12461788758"/>
    <nd ref="12461788759"/>
    <nd ref="1748592316"/>
    <nd ref="12461788760"/>
    <nd ref="216237"/>
    <tag k="dual_carriageway" v="yes"/>
    <tag k="expressway" v="yes"/>
    <tag k="highway" v="trunk"/>
    <tag k="lanes" v="1"/>
    <tag k="lit" v="no"/>
    <tag k="maxspeed" v="70 mph"/>
    <tag k="maxspeed:type" v="GB:nsl_dual"/>
    <tag k="national_highways:area" v="8"/>
    <tag k="oneway" v="yes"/>
    <tag k="operator" v="National Highways"/>
    <tag k="operator:wikidata" v="Q5760006"/>
    <tag k="ref" v="A505"/>
  </way>
  <way id="163082356" version="8" timestamp="2024-12-29T22:55:39Z" changeset="160770788" uid="5229644" user="Nathan_A_RF">
    <nd ref="1748592302"/>
    <nd ref="1748592299"/>
    <tag k="bridge" v="yes"/>
    <tag k="dual_carriageway" v="yes"/>
    <tag k="expressway" v="yes"/>
    <tag k="highway" v="trunk"/>
    <tag k="lanes" v="1"/>
    <tag k="layer" v="1"/>
    <tag k="lit" v="no"/>
    <tag k="maxspeed" v="70 mph"/>
    <tag k="maxspeed:type" v="GB:nsl_dual"/>
    <tag k="national_highways:area" v="8"/>
    <tag k="oneway" v="yes"/>
    <tag k="operator" v="National Highways"/>
    <tag k="operator:wikidata" v="Q5760006"/>
    <tag k="ref" v="A505"/>
  </way>
  <way id="214789725" version="3" timestamp="2025-02-24T17:23:07Z" changeset="162902059" uid="5008136" user="JayTurnr">
    <nd ref="2242644001"/>
    <nd ref="26530944"/>
    <nd ref="12616254243"/>
    <nd ref="12616254251"/>
    <nd ref="26530943"/>
    <nd ref="12616254252"/>
    <nd ref="1425124364"/>
    <nd ref="26530942"/>
    <nd ref="1423438457"/>
    <nd ref="12616242520"/>
    <nd ref="26530941"/>
    <tag k="highway" v="unclassified"/>
    <tag k="lanes" v="2"/>
  </way>
  <way id="234203443" version="8" timestamp="2024-12-31T15:13:22Z" changeset="160837325" uid="5229644" user="Nathan_A_RF">
    <nd ref="130632945"/>
    <nd ref="8156148657"/>
    <nd ref="2424959337"/>
    <nd ref="2424959333"/>
    <nd ref="8168712818"/>
    <nd ref="8156148629"/>
    <nd ref="2424959327"/>
    <nd ref="8156148633"/>
    <nd ref="2424959336"/>
    <nd ref="8156148634"/>
    <tag k="highway" v="primary"/>
    <tag k="junction" v="roundabout"/>
    <tag k="lit" v="yes"/>
    <tag k="maxspeed" v="50 mph"/>
    <tag k="maxspeed:type" v="sign"/>
    <tag k="oneway" v="yes"/>
  </way>
  <way id="283208874" version="11" timestamp="2025-02-24T17:29:17Z" changeset="162902301" uid="5008136" user="JayTurnr">
    <nd ref="216187"/>
    <nd ref="1554859365"/>
    <nd ref="216127"/>
    <nd ref="1554859332"/>
    <nd ref="216091"/>
    <nd ref="1554859226"/>
    <nd ref="216089"/>
    <nd ref="12616242521"/>
    <nd ref="1554859408"/>
    <nd ref="216086"/>
    <nd ref="12616242522"/>
    <nd ref="1554859295"/>
    <nd ref="216085"/>
    <nd ref="2871092191"/>
    <nd ref="216083"/>
    <nd ref="216081"/>
    <nd ref="1554859362"/>
    <nd ref="792620021"/>
    <nd ref="216079"/>
    <nd ref="216009"/>
    <nd ref="11498077261"/>
    <nd ref="216011"/>
    <nd ref="11498077262"/>
    <nd ref="11498077263"/>
    <nd ref="215998"/>
    <nd ref="1290067639"/>
    <nd ref="1554859272"/>
    <nd ref="1554859217"/>
    <nd ref="10173250144"/>
    <nd ref="20960211"/>
    <nd ref="1554859268"/>
    <nd ref="215996"/>
    <nd ref="1554859302"/>
    <nd ref="1290067443"/>
    <nd ref="11498077258"/>
    <nd ref="215992"/>
    <nd ref="215989"/>
    <nd ref="215091"/>
    <nd ref="12616235635"/>
    <nd ref="12616235639"/>
    <tag k="expressway" v="yes"/>
    <tag k="highway" v="trunk"/>
    <tag k="historic" v="roman_road"/>
    <tag k="lanes" v="2"/>
    <tag k="lit" v="no"/>
    <tag k="maintenance" v="salting"/>
    <tag k="maxspeed" v="70 mph"/>
    <tag k="national_highways:area" v="8"/>
    <tag k="oneway" v="yes"/>
    <tag k="operator" v="National Highways"/>
    <tag k="operator:wikidata" v="Q5760006"/>
    <tag k="ref" v="A11"/>
    <tag k="source:ref" v="local knowledge"/>
  </way>
  <way id="283213137" version="8" timestamp="2025-02-24T17:36:01Z" changeset="162902546" uid="5008136" user="JayTurnr">
    <nd ref="215065"/>
    <nd ref="1554841151"/>
    <nd ref="215067"/>
    <nd ref="215069"/>
    <nd ref="964643571"/>
    <nd ref="964643573"/>
    <nd ref="215071"/>
    <nd ref="12616253635"/>
    <nd ref="12616253634"/>
    <nd ref="20960512"/>
    <nd ref="215073"/>
    <nd ref="1554859222"/>
    <nd ref="11498077256"/>
    <nd ref="11498077255"/>
    <nd ref="1554859279"/>
    <nd ref="1554859275"/>
    <nd ref="1554859357"/>
    <nd ref="1554859252"/>
    <nd ref="1554859293"/>
    <nd ref="1554859386"/>
    <nd ref="215092"/>
    <nd ref="1554859266"/>
    <nd ref="1554859273"/>
    <nd ref="215990"/>
    <nd ref="11498077257"/>
    <nd ref="215993"/>
    <nd ref="215995"/>
    <nd ref="1554859250"/>
    <nd ref="20960609"/>
    <nd ref="10173250142"/>
    <nd ref="10173250143"/>
    <nd ref="1554859307"/>
    <nd ref="20960410"/>
    <nd ref="1554859360"/>
    <nd ref="215997"/>
    <nd ref="26530947"/>
    <nd ref="11498077260"/>
    <nd ref="1423438431"/>
    <nd ref="216078"/>
    <nd ref="1423438474"/>
    <nd ref="216080"/>
    <nd ref="1554859413"/>
    <nd ref="216082"/>
    <nd ref="1290067538"/>
    <nd ref="2871092190"/>
    <nd ref="216084"/>
    <nd ref="1423438421"/>
    <nd ref="216087"/>
    <nd ref="1554859257"/>
    <nd ref="216088"/>
    <nd ref="1554859415"/>
    <nd ref="1554859260"/>
    <nd ref="1554859299"/>
    <nd ref="216090"/>
    <nd ref="1554859331"/>
    <nd ref="1554859374"/>
    <nd ref="1554859377"/>
    <nd ref="216126"/>
    <nd ref="216186"/>
    <tag k="expressway" v="yes"/>
    <tag k="highway" v="trunk"/>
    <tag k="historic" v="roman_road"/>
    <tag k="lanes" v="2"/>
    <tag k="lit" v="no"/>
    <tag k="maintenance" v="salting"/>
    <tag k="maxspeed" v="70 mph"/>
    <tag k="national_highways:area" v="8"/>
    <tag k="oneway" v="yes"/>
    <tag k="operator" v="National Highways"/>
    <tag k="operator:wikidata" v="Q5760006"/>
    <tag k="ref" v="A11"/>
    <tag k="source:ref" v="local knowledge"/>
    <tag k="surface" v="asphalt"/>
  </way>
  <way id="307232608" version="1" timestamp="2014-10-10T23:14:23Z" changeset="25994134" uid="4621" user="mattwestcott">
    <nd ref="26530932"/>
    <nd ref="26530936"/>
    <tag k="highway" v="unclassified"/>
  </way>
  <way id="307232609" version="2" timestamp="2022-04-21T23:05:42Z" changeset="120023064" uid="335826" user="Strumpfe">
    <nd ref="26530863"/>
    <nd ref="9684084938"/>
    <nd ref="26530934"/>
    <nd ref="1423438477"/>
    <nd ref="26530935"/>
    <nd ref="1423438462"/>
    <nd ref="760648223"/>
    <nd ref="26530932"/>
    <tag k="description" v="No through road for motor vehicles"/>
    <tag k="highway" v="unclassified"/>
  </way>
  <way id="307232610" version="3" timestamp="2025-02-24T17:18:34Z" changeset="162901902" uid="5008136" user="JayTurnr">
    <nd ref="26530940"/>
    <nd ref="9856929191"/>
    <nd ref="9856929192"/>
    <nd ref="26530941"/>
    <tag k="highway" v="unclassified"/>
    <tag k="lanes" v="2"/>
  </way>
  <way id="414004148" version="2" timestamp="2016-08-06T21:47:35Z" changeset="41294576" uid="1287673" user="sloerunner">
    <nd ref="4152025823"/>
    <nd ref="4152025821"/>
    <nd ref="4152025819"/>
    <nd ref="4152025824"/>
    <nd ref="4152025827"/>
    <nd ref="4152025828"/>
    <nd ref="4152025829"/>
    <nd ref="4152025831"/>
    <nd ref="4339029199"/>
    <nd ref="4152025836"/>
    <nd ref="4152025837"/>
    <nd ref="4152025838"/>
    <nd ref="26531267"/>
    <tag k="highway" v="residential"/>
    <tag k="name" v="Oak Lane"/>
  </way>
  <way id="494431588" version="3" timestamp="2020-11-21T17:14:27Z" changeset="94553734" uid="5113580" user="Craske">
    <nd ref="26531284"/>
    <nd ref="6225264659"/>
    <nd ref="1307809379"/>
    <nd ref="8149322803"/>
    <nd ref="26531285"/>
    <tag k="designation" v="public_footpath"/>
    <tag k="foot" v="designated"/>
    <tag k="highway" v="unclassified"/>
    <tag k="prow_ref" v="Babraham FP 5"/>
    <tag k="source:prow_ref" v="cambridgeshire_county_council_prow_gis_data"/>
  </way>
  <way id="847851246" version="6" timestamp="2024-12-31T15:13:22Z" changeset="160837325" uid="5229644" user="Nathan_A_RF">
    <nd ref="2424959325"/>
    <nd ref="8168711212"/>
    <nd ref="8156148630"/>
    <nd ref="2424959328"/>
    <nd ref="2424959334"/>
    <nd ref="8156148631"/>
    <nd ref="130632945"/>
    <tag k="highway" v="primary"/>
    <tag k="junction" v="roundabout"/>
    <tag k="lit" v="yes"/>
    <tag k="maxspeed" v="50 mph"/>
    <tag k="maxspeed:type" v="sign"/>
    <tag k="oneway" v="yes"/>
  </way>
  <way id="847851247" version="7" timestamp="2024-12-31T15:13:22Z" changeset="160837325" uid="5229644" user="Nathan_A_RF">
    <nd ref="2424959324"/>
    <nd ref="2424959338"/>
    <nd ref="8168712840"/>
    <nd ref="759630961"/>
    <nd ref="2424959325"/>
    <tag k="highway" v="primary"/>
    <tag k="junction" v="roundabout"/>
    <tag k="lit" v="yes"/>
    <tag k="maxspeed" v="50 mph"/>
    <tag k="maxspeed:type" v="sign"/>
    <tag k="oneway" v="yes"/>
  </way>
  <way id="847851248" version="5" timestamp="2024-12-31T15:13:22Z" changeset="160837325" uid="5229644" user="Nathan_A_RF">
    <nd ref="8156148634"/>
    <nd ref="8168711207"/>
    <nd ref="8168711208"/>
    <nd ref="2424959331"/>
    <nd ref="2424959335"/>
    <nd ref="2424959329"/>
    <nd ref="2424959324"/>
    <tag k="highway" v="primary"/>
    <tag k="junction" v="roundabout"/>
    <tag k="lit" v="yes"/>
    <tag k="maxspeed" v="50 mph"/>
    <tag k="maxspeed:type" v="sign"/>
    <tag k="oneway" v="yes"/>
  </way>
  <way id="857509689" version="4" timestamp="2024-02-17T21:53:37Z" changeset="147589106" uid="504708" user="HillWithSmallFields">
    <nd ref="554167"/>
    <nd ref="8168643386"/>
    <nd ref="26530771"/>
    <nd ref="554166"/>
    <nd ref="554165"/>
    <nd ref="554164"/>
    <nd ref="554163"/>
    <nd ref="8168643375"/>
    <nd ref="554162"/>
    <nd ref="26530772"/>
    <nd ref="554161"/>
    <nd ref="11635775545"/>
    <nd ref="6774444332"/>
    <nd ref="7933528127"/>
    <tag k="highway" v="primary"/>
    <tag k="lanes" v="2"/>
    <tag k="lit" v="no"/>
    <tag k="maxspeed" v="60 mph"/>
    <tag k="maxspeed:type" v="GB:nsl_single"/>
    <tag k="name" v="Cambridge Road"/>
    <tag k="ref" v="A1307"/>
    <tag k="source:ref" v="local knowledge"/>
    <tag k="surface" v="asphalt"/>
  </way>
  <way id="1020996491" version="2" timestamp="2022-01-14T02:07:31Z" changeset="116130650" uid="7463" user="kesterlester">
    <nd ref="9416783510"/>
    <nd ref="2616323423"/>
    <nd ref="9416783509"/>
    <nd ref="9416783508"/>
    <nd ref="9416783510"/>
    <tag k="addr:city" v="Babraham"/>
    <tag k="addr:postcode" v="CB22 3AF"/>
    <tag k="addr:street" v="Cambridge Road"/>
    <tag k="description" v="Booster pumping station for drinking water supply with associated control and communications equipment. Created with this planning permission approval: https://applications.greatercambridgeplanning.org/online-applications/applicationDetails.do?activeTab=s"/>
    <tag k="fixme" v="This place is called Babraham Booster Station by https://www.geograph.org.uk/photo/3284101 however https://www.cambridge-water.co.uk/media/1438/wrmp-2014-appendix-a5-water-resource-zone-integrity-assessment.pdf suggests it may be actually either (a) an un"/>
    <tag k="man_made" v="water_works"/>
    <tag k="name" v="Babraham Booster Station"/>
    <tag k="substance" v="water"/>
    <tag k="utility" v="water"/>
  </way>
  <way id="1036506071" version="2" timestamp="2024-12-31T15:13:22Z" changeset="160837325" uid="5229644" user="Nathan_A_RF">
    <nd ref="26530774"/>
    <nd ref="554103"/>
    <nd ref="8168712820"/>
    <nd ref="554101"/>
    <tag k="dual_carriageway" v="yes"/>
    <tag k="highway" v="primary"/>
    <tag k="lanes" v="1"/>
    <tag k="lit" v="no"/>
    <tag k="maxspeed" v="50 mph"/>
    <tag k="maxspeed:type" v="sign"/>
    <tag k="name" v="Cambridge Road"/>
    <tag k="oneway" v="yes"/>
    <tag k="ref" v="A1307"/>
    <tag k="source:ref" v="local knowledge"/>
  </way>
  <way id="1085410218" version="1" timestamp="2022-08-10T18:05:50Z" changeset="124743333" uid="10200493" user="Luanbcc">
    <nd ref="26530773"/>
    <nd ref="26530920"/>
    <nd ref="26530921"/>
    <nd ref="1433612918"/>
    <nd ref="26530922"/>
    <nd ref="26530923"/>
    <nd ref="26530924"/>
    <nd ref="26530925"/>
    <nd ref="26530926"/>
    <nd ref="26530927"/>
    <nd ref="26530928"/>
    <nd ref="26530929"/>
    <nd ref="26530930"/>
    <nd ref="26530931"/>
    <nd ref="1423438507"/>
    <nd ref="26530932"/>
    <tag k="highway" v="unclassified"/>
  </way>
  <way id="1085410219" version="3" timestamp="2024-12-31T15:13:22Z" changeset="160837325" uid="5229644" user="Nathan_A_RF">
    <nd ref="554099"/>
    <nd ref="554098"/>
    <nd ref="554095"/>
    <nd ref="554077"/>
    <nd ref="8168712823"/>
    <nd ref="1554859387"/>
    <nd ref="554078"/>
    <nd ref="8168712827"/>
    <nd ref="554079"/>
    <nd ref="1554859410"/>
    <tag k="dual_carriageway" v="yes"/>
    <tag k="highway" v="primary"/>
    <tag k="lanes" v="2"/>
    <tag k="lit" v="no"/>
    <tag k="maxspeed" v="50 mph"/>
    <tag k="maxspeed:type" v="sign"/>
    <tag k="name" v="Cambridge Road"/>
    <tag k="oneway" v="yes"/>
    <tag k="ref" v="A1307"/>
  </way>
  <way id="1107495687" version="2" timestamp="2024-12-31T15:13:22Z" changeset="160837325" uid="5229644" user="Nathan_A_RF">
    <nd ref="26530773"/>
    <nd ref="9577604990"/>
    <nd ref="554099"/>
    <tag k="dual_carriageway" v="yes"/>
    <tag k="highway" v="primary"/>
    <tag k="lanes" v="2"/>
    <tag k="lit" v="no"/>
    <tag k="maxspeed" v="50 mph"/>
    <tag k="maxspeed:type" v="sign"/>
    <tag k="name" v="Cambridge Road"/>
    <tag k="oneway" v="yes"/>
    <tag k="ref" v="A1307"/>
    <tag k="source:ref" v="local_knowledge"/>
  </way>
  <way id="1107495688" version="2" timestamp="2024-12-31T15:13:22Z" changeset="160837325" uid="5229644" user="Nathan_A_RF">
    <nd ref="554100"/>
    <nd ref="9577604989"/>
    <nd ref="26530774"/>
    <tag k="dual_carriageway" v="yes"/>
    <tag k="highway" v="primary"/>
    <tag k="lanes" v="1"/>
    <tag k="lit" v="no"/>
    <tag k="maxspeed" v="50 mph"/>
    <tag k="maxspeed:type" v="sign"/>
    <tag k="name" v="Cambridge Road"/>
    <tag k="oneway" v="yes"/>
    <tag k="ref" v="A1307"/>
    <tag k="source:ref" v="local knowledge"/>
  </way>
  <way id="1170871955" version="1" timestamp="2023-05-09T14:13:02Z" changeset="135898187" uid="3582" user="davidearl">
    <nd ref="26531265"/>
    <nd ref="26531266"/>
    <nd ref="8452654009"/>
    <nd ref="26531267"/>
    <nd ref="9577604984"/>
    <nd ref="26530774"/>
    <tag k="abutters" v="residential"/>
    <tag k="highway" v="tertiary"/>
    <tag k="maxspeed" v="20 mph"/>
    <tag k="name" v="High Street"/>
    <tag k="source:name" v="local knowledge"/>
  </way>
  <way id="1347185856" version="1" timestamp="2024-12-29T22:55:39Z" changeset="160770788" uid="5229644" user="Nathan_A_RF">
    <nd ref="12461788747"/>
    <nd ref="12461788748"/>
    <nd ref="216240"/>
    <tag k="expressway" v="yes"/>
    <tag k="highway" v="trunk"/>
    <tag k="lanes" v="4"/>
    <tag k="lit" v="no"/>
    <tag k="maintenance" v="salting"/>
    <tag k="maxspeed" v="70 mph"/>
    <tag k="maxspeed:type" v="GB:nsl_dual"/>
    <tag k="national_highways:area" v="8"/>
    <tag k="oneway" v="yes"/>
    <tag k="operator" v="National Highways"/>
    <tag k="operator:wikidata" v="Q5760006"/>
    <tag k="ref" v="A11"/>
    <tag k="source:ref" v="local knowledge"/>
  </way>
  <way id="1362284049" version="1" timestamp="2025-02-23T11:58:01Z" changeset="162848534" uid="5008136" user="JayTurnr">
    <nd ref="554062"/>
    <nd ref="9162676646"/>
    <nd ref="554063"/>
    <nd ref="554064"/>
    <nd ref="4500530645"/>
    <tag k="expressway" v="yes"/>
    <tag k="highway" v="trunk_link"/>
    <tag k="lanes" v="1"/>
    <tag k="lit" v="yes"/>
    <tag k="maintenance" v="salting"/>
    <tag k="maxspeed" v="70 mph"/>
    <tag k="maxspeed:type" v="GB:nsl_dual"/>
    <tag k="oneway" v="yes"/>
    <tag k="ref" v="A11"/>
  </way>

</osm>
