<?xml version="1.0" encoding="UTF-8"?>
<osm version="0.6" generator="Overpass API 0.7.62.5 1bd436f1">
<note>The data included in this document is from www.openstreetmap.org. The data is made available under ODbL.</note>
<meta osm_base="2025-03-25T16:15:45Z" areas="2025-02-06T02:17:44Z"/>

  <node id="11198393217" lat="52.2284044" lon="-0.0501758" version="2" timestamp="2023-10-23T19:16:54Z" changeset="143032250" uid="5113580" user="Craske">
    <tag k="addr:city" v="Cambridge"/>
    <tag k="addr:housename" v="Unit 5"/>
    <tag k="addr:postcode" v="CB23 4NS"/>
    <tag k="addr:street" v="Knapwell Wood Farm"/>
    <tag k="leisure" v="fitness_centre"/>
    <tag k="name" v="OUTTRAIN"/>
    <tag k="phone" v="+44 1954 716160"/>
    <tag k="sport" v="fitness"/>
    <tag k="website" v="https://www.outtrain.co.uk"/>
  </node>
  <node id="11932816545" lat="52.2285746" lon="-0.0499632" version="1" timestamp="2024-05-25T11:15:04Z" changeset="151806052" uid="5113580" user="Craske">
    <tag k="addr:city" v="Knapwell"/>
    <tag k="addr:housename" v="The Dutch Barn"/>
    <tag k="addr:postcode" v="CB23 4NS"/>
    <tag k="addr:street" v="Knapwell Wood Farm"/>
    <tag k="amenity" v="cafe"/>
    <tag k="cuisine" v="coffee_shop"/>
    <tag k="name" v="The Hatch Coffee House"/>
    <tag k="opening_hours" v="Sa-Su 09:00-11:30"/>
    <tag k="website" v="https://www.instagram.com/thehatch_coffeehouse"/>
  </node>
  <way id="4936079" version="25" timestamp="2024-11-16T02:07:40Z" changeset="159192643" uid="18964624" user="Exterprook58">
    <nd ref="32520701"/>
    <nd ref="2022007205"/>
    <nd ref="32520706"/>
    <nd ref="32520707"/>
    <nd ref="2022007202"/>
    <nd ref="3206874866"/>
    <nd ref="32520704"/>
    <nd ref="469989433"/>
    <nd ref="469989439"/>
    <nd ref="32520705"/>
    <nd ref="2022007269"/>
    <nd ref="32520694"/>
    <nd ref="3206865558"/>
    <nd ref="32520695"/>
    <nd ref="2022007214"/>
    <nd ref="32520692"/>
    <nd ref="2022007232"/>
    <nd ref="32520693"/>
    <nd ref="32520698"/>
    <nd ref="32520699"/>
    <nd ref="456323670"/>
    <nd ref="32520696"/>
    <nd ref="456323680"/>
    <nd ref="32520697"/>
    <nd ref="3052263766"/>
    <nd ref="32520721"/>
    <nd ref="32520720"/>
    <nd ref="1864156645"/>
    <nd ref="32520725"/>
    <nd ref="1864156641"/>
    <nd ref="32520723"/>
    <nd ref="1864156642"/>
    <nd ref="32520717"/>
    <nd ref="1864156646"/>
    <nd ref="32520716"/>
    <nd ref="32520582"/>
    <nd ref="32520581"/>
    <nd ref="32520580"/>
    <nd ref="1864156682"/>
    <nd ref="1864156680"/>
    <nd ref="1864156678"/>
    <nd ref="32520579"/>
    <nd ref="1864156675"/>
    <nd ref="32520586"/>
    <nd ref="32520585"/>
    <nd ref="32520584"/>
    <nd ref="32520583"/>
    <nd ref="32520566"/>
    <tag k="expressway" v="yes"/>
    <tag k="foot" v="no"/>
    <tag k="highway" v="trunk"/>
    <tag k="lanes" v="2"/>
    <tag k="maxspeed" v="70 mph"/>
    <tag k="maxspeed:type" v="GB:nsl_dual"/>
    <tag k="national_highways:area" v="8"/>
    <tag k="oneway" v="yes"/>
    <tag k="operator" v="National Highways"/>
    <tag k="operator:wikidata" v="Q5760006"/>
    <tag k="ref" v="A428"/>
    <tag k="source:ref" v="dictaphone"/>
  </way>
  <way id="4936089" version="9" timestamp="2024-04-09T21:53:20Z" changeset="149796049" uid="5229644" user="Nathan_A_RF">
    <nd ref="32520708"/>
    <nd ref="620972"/>
    <nd ref="1060507181"/>
    <tag k="highway" v="tertiary"/>
    <tag k="maxspeed" v="60 mph"/>
    <tag k="maxspeed:type" v="GB:nsl_single"/>
    <tag k="name" v="Saint Neots Road"/>
    <tag k="oneway" v="yes"/>
    <tag k="source" v="survey"/>
  </way>
  <way id="4936091" version="14" timestamp="2024-04-09T21:53:20Z" changeset="149796049" uid="5229644" user="Nathan_A_RF">
    <nd ref="32520709"/>
    <nd ref="1060507189"/>
    <nd ref="4524679667"/>
    <nd ref="473114881"/>
    <nd ref="513374607"/>
    <nd ref="32520708"/>
    <nd ref="11183447839"/>
    <nd ref="4524679665"/>
    <nd ref="513374636"/>
    <nd ref="4524679664"/>
    <nd ref="513374646"/>
    <nd ref="513374655"/>
    <nd ref="1214220302"/>
    <nd ref="4524679662"/>
    <nd ref="32520750"/>
    <nd ref="32520710"/>
    <nd ref="513374704"/>
    <nd ref="4524679672"/>
    <nd ref="32520755"/>
    <nd ref="4524679671"/>
    <nd ref="513374736"/>
    <nd ref="4524679670"/>
    <nd ref="32520787"/>
    <nd ref="513374738"/>
    <nd ref="4524679669"/>
    <nd ref="513374740"/>
    <nd ref="4524679668"/>
    <nd ref="32520709"/>
    <tag k="highway" v="tertiary"/>
    <tag k="junction" v="roundabout"/>
    <tag k="maxspeed" v="60 mph"/>
    <tag k="maxspeed:type" v="GB:nsl_single"/>
    <tag k="name" v="Cambourne Junction"/>
    <tag k="oneway" v="yes"/>
  </way>
  <way id="4936092" version="15" timestamp="2024-05-31T20:34:43Z" changeset="152097991" uid="19529281" user="Nebulans">
    <nd ref="1214220302"/>
    <nd ref="32520817"/>
    <nd ref="4524679661"/>
    <nd ref="1214220267"/>
    <nd ref="1060507171"/>
    <nd ref="1214220257"/>
    <nd ref="32650953"/>
    <nd ref="1214220260"/>
    <nd ref="1214220299"/>
    <nd ref="32520824"/>
    <nd ref="32520701"/>
    <tag k="expressway" v="yes"/>
    <tag k="foot" v="no"/>
    <tag k="highway" v="trunk_link"/>
    <tag k="maxspeed" v="70 mph"/>
    <tag k="maxspeed:type" v="GB:nsl_dual"/>
    <tag k="national_highways:area" v="8"/>
    <tag k="oneway" v="yes"/>
    <tag k="operator" v="National Highways"/>
    <tag k="operator:wikidata" v="Q5760006"/>
  </way>
  <way id="4936094" version="12" timestamp="2024-05-31T20:34:43Z" changeset="152097991" uid="19529281" user="Nebulans">
    <nd ref="32520821"/>
    <nd ref="1214220312"/>
    <nd ref="1214220294"/>
    <nd ref="32520826"/>
    <nd ref="1214220251"/>
    <nd ref="32520825"/>
    <nd ref="1214220285"/>
    <nd ref="1214220306"/>
    <nd ref="32520861"/>
    <nd ref="32520728"/>
    <nd ref="11183440119"/>
    <nd ref="11183440116"/>
    <nd ref="1214220293"/>
    <nd ref="32520862"/>
    <nd ref="11183440115"/>
    <nd ref="11183440133"/>
    <nd ref="32520787"/>
    <tag k="expressway" v="yes"/>
    <tag k="foot" v="no"/>
    <tag k="highway" v="trunk_link"/>
    <tag k="maxspeed" v="70 mph"/>
    <tag k="maxspeed:type" v="GB:nsl_dual"/>
    <tag k="national_highways:area" v="8"/>
    <tag k="oneway" v="yes"/>
    <tag k="operator" v="National Highways"/>
    <tag k="operator:wikidata" v="Q5760006"/>
  </way>
  <way id="4936097" version="8" timestamp="2024-04-09T21:53:20Z" changeset="149796049" uid="5229644" user="Nathan_A_RF">
    <nd ref="32520750"/>
    <nd ref="11183440129"/>
    <nd ref="1214220262"/>
    <nd ref="11183440130"/>
    <nd ref="1214220268"/>
    <nd ref="32520744"/>
    <nd ref="32520746"/>
    <tag k="dual_carriageway" v="yes"/>
    <tag k="highway" v="tertiary"/>
    <tag k="maxspeed" v="70 mph"/>
    <tag k="maxspeed:type" v="GB:nsl_dual"/>
    <tag k="name" v="Cambourne Road"/>
    <tag k="oneway" v="yes"/>
    <tag k="source:name" v="dictaphone"/>
  </way>
  <way id="4936100" version="7" timestamp="2024-04-09T21:53:20Z" changeset="149796049" uid="5229644" user="Nathan_A_RF">
    <nd ref="32520738"/>
    <nd ref="1214220281"/>
    <nd ref="11183440131"/>
    <nd ref="1214220296"/>
    <nd ref="32520757"/>
    <nd ref="32520755"/>
    <tag k="dual_carriageway" v="yes"/>
    <tag k="highway" v="tertiary"/>
    <tag k="maxspeed" v="70 mph"/>
    <tag k="maxspeed:type" v="GB:nsl_dual"/>
    <tag k="name" v="Cambourne Road"/>
    <tag k="oneway" v="yes"/>
    <tag k="source:name" v="dictaphone"/>
  </way>
  <way id="4936101" version="6" timestamp="2024-04-09T21:53:20Z" changeset="149796049" uid="5229644" user="Nathan_A_RF">
    <nd ref="32520892"/>
    <nd ref="32520738"/>
    <tag k="bridge" v="yes"/>
    <tag k="dual_carriageway" v="yes"/>
    <tag k="highway" v="tertiary"/>
    <tag k="layer" v="1"/>
    <tag k="maxspeed" v="70 mph"/>
    <tag k="maxspeed:type" v="GB:nsl_dual"/>
    <tag k="name" v="Cambourne Road"/>
    <tag k="oneway" v="yes"/>
    <tag k="source:name" v="dictaphone"/>
  </way>
  <way id="4936103" version="8" timestamp="2024-04-09T21:53:20Z" changeset="149796049" uid="5229644" user="Nathan_A_RF">
    <nd ref="32520746"/>
    <nd ref="32520734"/>
    <tag k="bridge" v="yes"/>
    <tag k="dual_carriageway" v="yes"/>
    <tag k="highway" v="tertiary"/>
    <tag k="layer" v="1"/>
    <tag k="maxspeed" v="70 mph"/>
    <tag k="maxspeed:type" v="GB:nsl_dual"/>
    <tag k="name" v="Cambourne Road"/>
    <tag k="oneway" v="yes"/>
    <tag k="source:name" v="dictaphone"/>
  </way>
  <way id="4936113" version="3" timestamp="2018-11-01T15:29:17Z" changeset="64082872" uid="1257159" user="Jean-Pierre Rondeau">
    <nd ref="32520856"/>
    <nd ref="6029985764"/>
    <nd ref="6029985765"/>
    <nd ref="32520927"/>
    <nd ref="32520928"/>
    <tag k="highway" v="tertiary"/>
    <tag k="name" v="Broadway"/>
    <tag k="source:name" v="dictaphone"/>
  </way>
  <way id="13973454" version="12" timestamp="2024-12-24T10:16:18Z" changeset="160569353" uid="5173844" user="ndrw6">
    <nd ref="32520853"/>
    <nd ref="12447292413"/>
    <nd ref="616790368"/>
    <nd ref="1439119913"/>
    <nd ref="132349683"/>
    <nd ref="1439119402"/>
    <nd ref="1439118966"/>
    <nd ref="132349679"/>
    <nd ref="132349675"/>
    <nd ref="132349671"/>
    <nd ref="1439118499"/>
    <nd ref="132349668"/>
    <nd ref="1439119031"/>
    <nd ref="11198393174"/>
    <nd ref="1439119014"/>
    <nd ref="11198412985"/>
    <nd ref="5368988084"/>
    <nd ref="5368988085"/>
    <nd ref="132349659"/>
    <nd ref="1439119958"/>
    <nd ref="132349656"/>
    <nd ref="1439120062"/>
    <nd ref="1439120165"/>
    <nd ref="1439119060"/>
    <nd ref="132349646"/>
    <nd ref="1439119966"/>
    <nd ref="1439119497"/>
    <nd ref="1439119886"/>
    <nd ref="132349643"/>
    <nd ref="6029985755"/>
    <nd ref="132349638"/>
    <nd ref="1439119171"/>
    <nd ref="1439119767"/>
    <nd ref="132349637"/>
    <nd ref="1439119626"/>
    <nd ref="132349633"/>
    <nd ref="1439120130"/>
    <nd ref="1439118515"/>
    <nd ref="1439119615"/>
    <nd ref="1439118593"/>
    <nd ref="616793021"/>
    <nd ref="132349607"/>
    <nd ref="1439120084"/>
    <nd ref="132349604"/>
    <nd ref="1439120096"/>
    <nd ref="1439118710"/>
    <nd ref="132349601"/>
    <nd ref="1439120075"/>
    <nd ref="1439119563"/>
    <nd ref="132349599"/>
    <nd ref="132349597"/>
    <tag k="highway" v="tertiary"/>
    <tag k="maxweightrating:hgv" v="7.5"/>
    <tag k="maxweightrating:hgv:conditional" v="none @ destination"/>
    <tag k="note:maxweightrating" v="Sign is [goods vehicles exceeding 7.5 tonnes maximum gross weight prohibited] &quot;Except for access&quot;"/>
    <tag k="source" v="Bing"/>
  </way>
  <way id="13973575" version="15" timestamp="2025-03-01T12:04:58Z" changeset="163085462" uid="742701" user="kerr smith">
    <nd ref="132349597"/>
    <nd ref="475268670"/>
    <nd ref="132349595"/>
    <nd ref="132349592"/>
    <nd ref="291149579"/>
    <tag k="abutters" v="residential"/>
    <tag k="highway" v="tertiary"/>
    <tag k="maxweightrating:hgv" v="7.5"/>
    <tag k="maxweightrating:hgv:conditional" v="none @ destination"/>
    <tag k="name" v="High Street"/>
    <tag k="note:maxweightrating" v="Sign is [goods vehicles exceeding 7.5 tonnes maximum gross weight prohibited] &quot;Except for access&quot;"/>
    <tag k="source" v="Bing"/>
  </way>
  <way id="91356133" version="5" timestamp="2024-04-09T21:53:20Z" changeset="149796049" uid="5229644" user="Nathan_A_RF">
    <nd ref="1060507181"/>
    <nd ref="1060507194"/>
    <nd ref="1060507202"/>
    <nd ref="1060507203"/>
    <nd ref="513374655"/>
    <tag k="highway" v="tertiary"/>
    <tag k="maxspeed" v="60 mph"/>
    <tag k="maxspeed:type" v="GB:nsl_single"/>
    <tag k="name" v="Saint Neots Road"/>
    <tag k="oneway" v="yes"/>
    <tag k="source" v="survey"/>
  </way>
  <way id="91356134" version="12" timestamp="2024-04-22T14:03:01Z" changeset="150348888" uid="742701" user="kerr smith">
    <nd ref="32520856"/>
    <nd ref="6029985763"/>
    <nd ref="291149481"/>
    <nd ref="1841363605"/>
    <nd ref="475280115"/>
    <nd ref="1309635604"/>
    <nd ref="620962"/>
    <nd ref="620961"/>
    <nd ref="620960"/>
    <nd ref="620958"/>
    <nd ref="1309635655"/>
    <nd ref="5318585337"/>
    <nd ref="5318585339"/>
    <nd ref="32520885"/>
    <nd ref="32520887"/>
    <nd ref="291149479"/>
    <nd ref="32520886"/>
    <nd ref="32520889"/>
    <nd ref="32520888"/>
    <nd ref="32520878"/>
    <nd ref="32520877"/>
    <nd ref="32520880"/>
    <nd ref="3052263789"/>
    <nd ref="3052263909"/>
    <nd ref="2465991545"/>
    <nd ref="32520879"/>
    <tag k="highway" v="tertiary"/>
    <tag k="maxspeed" v="60 mph"/>
    <tag k="maxspeed:type" v="GB:nsl_single"/>
    <tag k="name" v="Saint Neots Road"/>
    <tag k="source" v="Stats19"/>
  </way>
  <way id="91356135" version="8" timestamp="2024-04-09T21:53:20Z" changeset="149796049" uid="5229644" user="Nathan_A_RF">
    <nd ref="1060507163"/>
    <nd ref="11183440136"/>
    <nd ref="6029985761"/>
    <nd ref="32520895"/>
    <nd ref="11183440135"/>
    <nd ref="1060507189"/>
    <tag k="highway" v="tertiary"/>
    <tag k="maxspeed" v="60 mph"/>
    <tag k="maxspeed:type" v="GB:nsl_single"/>
    <tag k="name" v="Saint Neots Road"/>
    <tag k="note" v="unmarked, but used to be St Neots Rd before Cambourne built"/>
    <tag k="oneway" v="yes"/>
  </way>
  <way id="91356139" version="7" timestamp="2024-04-09T21:53:20Z" changeset="149796049" uid="5229644" user="Nathan_A_RF">
    <nd ref="513374738"/>
    <nd ref="1060507193"/>
    <nd ref="1060507164"/>
    <nd ref="11183440134"/>
    <nd ref="1060507201"/>
    <nd ref="1060507163"/>
    <tag k="highway" v="tertiary"/>
    <tag k="maxspeed" v="60 mph"/>
    <tag k="maxspeed:type" v="GB:nsl_single"/>
    <tag k="name" v="Saint Neots Road"/>
    <tag k="note" v="unmarked, but used to be St Neots Rd before Cambourne built"/>
    <tag k="oneway" v="yes"/>
  </way>
  <way id="207002481" version="4" timestamp="2024-04-09T21:53:20Z" changeset="149796049" uid="5229644" user="Nathan_A_RF">
    <nd ref="32520872"/>
    <nd ref="1060516368"/>
    <nd ref="1307556617"/>
    <nd ref="1307556585"/>
    <nd ref="1307556588"/>
    <nd ref="11183447837"/>
    <nd ref="1307599548"/>
    <nd ref="11183447838"/>
    <nd ref="1060507163"/>
    <tag k="highway" v="tertiary"/>
    <tag k="maxspeed" v="60 mph"/>
    <tag k="maxspeed:type" v="GB:nsl_single"/>
    <tag k="name" v="Saint Neots Road"/>
    <tag k="note" v="unmarked, but used to be St Neots Rd before Cambourne built"/>
    <tag k="source" v="GPS"/>
  </way>
  <way id="342402100" version="10" timestamp="2025-03-01T10:48:03Z" changeset="163083108" uid="742701" user="kerr smith">
    <nd ref="402293283"/>
    <nd ref="291149585"/>
    <nd ref="11293423243"/>
    <nd ref="132349582"/>
    <nd ref="132349555"/>
    <nd ref="9858621669"/>
    <nd ref="132349552"/>
    <nd ref="132349548"/>
    <nd ref="12312755006"/>
    <nd ref="132349547"/>
    <nd ref="1439118755"/>
    <nd ref="132349542"/>
    <nd ref="1439119085"/>
    <nd ref="1439118798"/>
    <nd ref="1439118410"/>
    <nd ref="1439118826"/>
    <nd ref="132349539"/>
    <nd ref="1439119645"/>
    <nd ref="132349536"/>
    <nd ref="132349533"/>
    <nd ref="1480111836"/>
    <nd ref="616790377"/>
    <nd ref="5323222985"/>
    <nd ref="132349530"/>
    <nd ref="1439118821"/>
    <nd ref="132349526"/>
    <tag k="abutters" v="residential"/>
    <tag k="highway" v="tertiary"/>
    <tag k="maxweightrating:hgv" v="7.5"/>
    <tag k="maxweightrating:hgv:conditional" v="none @ destination"/>
    <tag k="name" v="High Street"/>
    <tag k="note:maxweightrating" v="Sign is [goods vehicles exceeding 7.5 tonnes maximum gross weight prohibited] &quot;Except for access&quot;"/>
    <tag k="source" v="Bing"/>
  </way>
  <way id="342402104" version="7" timestamp="2025-03-01T12:03:42Z" changeset="163085434" uid="742701" user="kerr smith">
    <nd ref="291149579"/>
    <nd ref="132349590"/>
    <nd ref="132349589"/>
    <nd ref="1439119124"/>
    <nd ref="1439120014"/>
    <nd ref="6029985754"/>
    <nd ref="9043937978"/>
    <nd ref="291149583"/>
    <nd ref="402293283"/>
    <tag k="abutters" v="residential"/>
    <tag k="highway" v="tertiary"/>
    <tag k="maxweightrating:hgv" v="7.5"/>
    <tag k="maxweightrating:hgv:conditional" v="none @ destination"/>
    <tag k="name" v="High Street"/>
    <tag k="note:maxweightrating" v="Sign is [goods vehicles exceeding 7.5 tonnes maximum gross weight prohibited] &quot;Except for access&quot;"/>
    <tag k="source" v="Bing"/>
  </way>
  <way id="372020946" version="3" timestamp="2022-09-22T23:27:01Z" changeset="126524515" uid="6476359" user="NSiecw">
    <nd ref="3755598721"/>
    <nd ref="10046207296"/>
    <nd ref="10046207295"/>
    <nd ref="3755598833"/>
    <nd ref="3755598721"/>
    <tag k="addr:city" v="Cambridge"/>
    <tag k="addr:country" v="GB"/>
    <tag k="addr:housenumber" v="28"/>
    <tag k="addr:locality" v="Knapwell"/>
    <tag k="addr:postcode" v="CB23 4LB"/>
    <tag k="addr:street" v="St. Neots Road"/>
    <tag k="building" v="residential"/>
  </way>
  <way id="372020957" version="3" timestamp="2023-09-17T19:36:08Z" changeset="141395959" uid="5113580" user="Craske">
    <nd ref="3755598688"/>
    <nd ref="3755598845"/>
    <nd ref="3755598844"/>
    <nd ref="11198393216"/>
    <nd ref="11198393205"/>
    <nd ref="3755598843"/>
    <nd ref="3755598688"/>
    <tag k="addr:city" v="Knapwell"/>
    <tag k="addr:postcode" v="CB23 4NS"/>
    <tag k="addr:street" v="Knapwell Wood Farm"/>
    <tag k="building" v="residential"/>
    <tag k="name" v="Knapwell Wood Farm House"/>
  </way>
  <way id="372020960" version="4" timestamp="2022-09-22T23:27:01Z" changeset="126524515" uid="6476359" user="NSiecw">
    <nd ref="3755598661"/>
    <nd ref="3755598696"/>
    <nd ref="3755598678"/>
    <nd ref="3755598838"/>
    <nd ref="3755598661"/>
    <tag k="addr:city" v="Cambridge"/>
    <tag k="addr:country" v="GB"/>
    <tag k="addr:full" v="1, The Bungalows"/>
    <tag k="addr:housenumber" v="1"/>
    <tag k="addr:locality" v="Knapwell"/>
    <tag k="addr:postcode" v="CB23 4NS"/>
    <tag k="addr:street" v="Wood Farm"/>
    <tag k="building" v="residential"/>
  </way>
  <way id="551190108" version="3" timestamp="2024-12-24T10:16:18Z" changeset="160569353" uid="5173844" user="ndrw6">
    <nd ref="5323222938"/>
    <nd ref="10046217330"/>
    <nd ref="10046217329"/>
    <nd ref="5323222941"/>
    <nd ref="5323222938"/>
    <tag k="addr:city" v="Cambridge"/>
    <tag k="addr:country" v="GB"/>
    <tag k="addr:housenumber" v="35"/>
    <tag k="addr:street" v="High Street"/>
    <tag k="addr:village" v="Knapwell"/>
    <tag k="building" v="house"/>
  </way>
  <way id="551190109" version="3" timestamp="2024-12-24T10:16:18Z" changeset="160569353" uid="5173844" user="ndrw6">
    <nd ref="5323222945"/>
    <nd ref="10046217324"/>
    <nd ref="10046217323"/>
    <nd ref="5323222944"/>
    <nd ref="5323222945"/>
    <tag k="addr:city" v="Cambridge"/>
    <tag k="addr:country" v="GB"/>
    <tag k="addr:housenumber" v="30"/>
    <tag k="addr:street" v="High Street"/>
    <tag k="addr:village" v="Knapwell"/>
    <tag k="building" v="house"/>
  </way>
  <way id="551190110" version="4" timestamp="2024-12-24T10:16:18Z" changeset="160569353" uid="5173844" user="ndrw6">
    <nd ref="5323222946"/>
    <nd ref="5323222947"/>
    <nd ref="5323222948"/>
    <nd ref="5323222949"/>
    <nd ref="5323222950"/>
    <nd ref="5323222951"/>
    <nd ref="5323222952"/>
    <nd ref="5323222953"/>
    <nd ref="5323222946"/>
    <tag k="addr:city" v="Cambridge"/>
    <tag k="addr:country" v="GB"/>
    <tag k="addr:housenumber" v="23"/>
    <tag k="addr:postcode" v="CB23 4NR"/>
    <tag k="addr:street" v="High Street"/>
    <tag k="addr:village" v="Knapwell"/>
    <tag k="building" v="house"/>
  </way>
  <way id="551190119" version="3" timestamp="2024-12-24T10:16:18Z" changeset="160569353" uid="5173844" user="ndrw6">
    <nd ref="5323222992"/>
    <nd ref="5323222993"/>
    <nd ref="5323222994"/>
    <nd ref="5323222995"/>
    <nd ref="616790357"/>
    <nd ref="5323222997"/>
    <nd ref="5323222998"/>
    <nd ref="5323222999"/>
    <nd ref="5323222992"/>
    <tag k="addr:city" v="Cambridge"/>
    <tag k="addr:country" v="GB"/>
    <tag k="addr:housenumber" v="4"/>
    <tag k="addr:postcode" v="CB23 4NP"/>
    <tag k="addr:street" v="High Street"/>
    <tag k="addr:village" v="Knapwell"/>
    <tag k="building" v="house"/>
  </way>
  <way id="551190122" version="3" timestamp="2024-12-24T10:16:18Z" changeset="160569353" uid="5173844" user="ndrw6">
    <nd ref="5323223010"/>
    <nd ref="5323223011"/>
    <nd ref="5323223012"/>
    <nd ref="5323223013"/>
    <nd ref="5323223014"/>
    <nd ref="5323223015"/>
    <nd ref="5323223010"/>
    <tag k="addr:city" v="Cambridge"/>
    <tag k="addr:country" v="GB"/>
    <tag k="addr:housenumber" v="8"/>
    <tag k="addr:postcode" v="CB23 4NR"/>
    <tag k="addr:street" v="High Street"/>
    <tag k="addr:village" v="Knapwell"/>
    <tag k="building" v="house"/>
  </way>
  <way id="551190124" version="3" timestamp="2024-12-24T10:16:18Z" changeset="160569353" uid="5173844" user="ndrw6">
    <nd ref="5323224022"/>
    <nd ref="10046217322"/>
    <nd ref="10046217321"/>
    <nd ref="5323224027"/>
    <nd ref="5323224022"/>
    <tag k="addr:city" v="Cambridge"/>
    <tag k="addr:country" v="GB"/>
    <tag k="addr:housenumber" v="10"/>
    <tag k="addr:postcode" v="CB23 4NR"/>
    <tag k="addr:street" v="High Street"/>
    <tag k="addr:village" v="Knapwell"/>
    <tag k="building" v="house"/>
  </way>
  <way id="551190126" version="3" timestamp="2024-12-24T10:16:18Z" changeset="160569353" uid="5173844" user="ndrw6">
    <nd ref="5323224032"/>
    <nd ref="5323224033"/>
    <nd ref="5323224034"/>
    <nd ref="5323224035"/>
    <nd ref="5323224032"/>
    <tag k="addr:city" v="Cambridge"/>
    <tag k="addr:country" v="GB"/>
    <tag k="addr:housenumber" v="12"/>
    <tag k="addr:postcode" v="CB23 4NR"/>
    <tag k="addr:street" v="High Street"/>
    <tag k="addr:village" v="Knapwell"/>
    <tag k="building" v="house"/>
  </way>
  <way id="551190133" version="3" timestamp="2024-12-24T10:16:18Z" changeset="160569353" uid="5173844" user="ndrw6">
    <nd ref="5323224082"/>
    <nd ref="5323224083"/>
    <nd ref="5323224084"/>
    <nd ref="5323224085"/>
    <nd ref="5323224082"/>
    <tag k="addr:city" v="Cambridge"/>
    <tag k="addr:country" v="GB"/>
    <tag k="addr:housename" v="Walnut Tree House"/>
    <tag k="addr:housenumber" v="17"/>
    <tag k="addr:postcode" v="CB23 4NR"/>
    <tag k="addr:street" v="High Street"/>
    <tag k="addr:village" v="Knapwell"/>
    <tag k="building" v="house"/>
  </way>
  <way id="551190134" version="3" timestamp="2022-09-22T23:27:01Z" changeset="126524515" uid="6476359" user="NSiecw">
    <nd ref="5323224086"/>
    <nd ref="5323224087"/>
    <nd ref="5323224088"/>
    <nd ref="5323224089"/>
    <nd ref="5323224090"/>
    <nd ref="5323224091"/>
    <nd ref="5323224092"/>
    <nd ref="5323224093"/>
    <nd ref="5323224086"/>
    <tag k="addr:city" v="Cambridge"/>
    <tag k="addr:country" v="GB"/>
    <tag k="addr:housename" v="Grange Farm"/>
    <tag k="addr:locality" v="Knapwell"/>
    <tag k="addr:postcode" v="CB23 4NR"/>
    <tag k="addr:street" v="High Street"/>
    <tag k="building" v="commercial"/>
    <tag k="name" v="Grange Farm"/>
    <tag k="operator" v="RSPB"/>
  </way>
  <way id="551190143" version="4" timestamp="2024-12-24T10:16:18Z" changeset="160569353" uid="5173844" user="ndrw6">
    <nd ref="5323224230"/>
    <nd ref="5323224231"/>
    <nd ref="5323224232"/>
    <nd ref="5323224233"/>
    <nd ref="5323224230"/>
    <tag k="addr:city" v="Cambridge"/>
    <tag k="addr:country" v="GB"/>
    <tag k="addr:housenumber" v="19"/>
    <tag k="addr:postcode" v="CB23 4NR"/>
    <tag k="addr:street" v="High Street"/>
    <tag k="addr:village" v="Knapwell"/>
    <tag k="building" v="house"/>
    <tag k="building:levels" v="2"/>
    <tag k="name" v="Manor Cottage"/>
  </way>
  <way id="556576646" version="3" timestamp="2022-09-22T23:27:01Z" changeset="126524515" uid="6476359" user="NSiecw">
    <nd ref="5368988067"/>
    <nd ref="5368988068"/>
    <nd ref="5368988069"/>
    <nd ref="5368988070"/>
    <nd ref="5368988067"/>
    <tag k="addr:city" v="Cambridge"/>
    <tag k="addr:country" v="GB"/>
    <tag k="addr:full" v="3, The Bungalows"/>
    <tag k="addr:housenumber" v="3"/>
    <tag k="addr:locality" v="Knapwell"/>
    <tag k="addr:postcode" v="CB23 4NS"/>
    <tag k="addr:street" v="Wood Farm"/>
    <tag k="building" v="yes"/>
  </way>
  <way id="640054529" version="2" timestamp="2020-06-15T00:33:36Z" changeset="86638407" uid="5173844" user="ndrw6">
    <nd ref="32520853"/>
    <nd ref="32520856"/>
    <tag k="highway" v="tertiary"/>
    <tag k="maxspeed" v="60 mph"/>
    <tag k="maxspeed:type" v="GB:nsl_single"/>
    <tag k="name" v="Saint Neots Road"/>
    <tag k="source" v="Stats19"/>
  </way>
  <way id="640054530" version="3" timestamp="2020-08-21T15:20:09Z" changeset="89753266" uid="10170582" user="priymose">
    <nd ref="1060507181"/>
    <nd ref="620971"/>
    <nd ref="620970"/>
    <nd ref="620969"/>
    <nd ref="620967"/>
    <nd ref="7832774207"/>
    <nd ref="293298051"/>
    <nd ref="620968"/>
    <nd ref="620966"/>
    <nd ref="620964"/>
    <nd ref="32520851"/>
    <nd ref="32520854"/>
    <nd ref="32520853"/>
    <tag k="highway" v="tertiary"/>
    <tag k="maxspeed" v="60 mph"/>
    <tag k="maxspeed:type" v="GB:nsl_single"/>
    <tag k="name" v="Saint Neots Road"/>
    <tag k="source" v="Stats19"/>
  </way>
  <way id="750495967" version="2" timestamp="2022-09-22T23:27:01Z" changeset="126524515" uid="6476359" user="NSiecw">
    <nd ref="3755598661"/>
    <nd ref="7017367837"/>
    <nd ref="7017367838"/>
    <nd ref="3755598838"/>
    <nd ref="3755598661"/>
    <tag k="addr:city" v="Cambridge"/>
    <tag k="addr:country" v="GB"/>
    <tag k="addr:full" v="2, The Bungalows"/>
    <tag k="addr:housenumber" v="2"/>
    <tag k="addr:locality" v="Knapwell"/>
    <tag k="addr:postcode" v="CB23 4NS"/>
    <tag k="addr:street" v="Wood Farm"/>
    <tag k="building" v="residential"/>
  </way>
  <way id="865703854" version="8" timestamp="2023-10-12T08:42:48Z" changeset="142467971" uid="14205271" user="thumnus">
    <nd ref="32520676"/>
    <nd ref="6587713652"/>
    <nd ref="687044757"/>
    <nd ref="687044758"/>
    <nd ref="3206830406"/>
    <nd ref="32520683"/>
    <nd ref="687044759"/>
    <nd ref="32520682"/>
    <nd ref="687044760"/>
    <nd ref="32520681"/>
    <nd ref="687044761"/>
    <nd ref="32520680"/>
    <nd ref="1214220295"/>
    <nd ref="1214220264"/>
    <nd ref="32520821"/>
    <nd ref="1214220283"/>
    <nd ref="687044763"/>
    <nd ref="32520703"/>
    <nd ref="1214220304"/>
    <nd ref="32520718"/>
    <nd ref="1214220291"/>
    <nd ref="32520700"/>
    <nd ref="32520713"/>
    <nd ref="32520701"/>
    <tag k="expressway" v="yes"/>
    <tag k="foot" v="no"/>
    <tag k="highway" v="trunk"/>
    <tag k="lanes" v="2"/>
    <tag k="maxspeed" v="70 mph"/>
    <tag k="maxspeed:type" v="GB:nsl_dual"/>
    <tag k="national_highways:area" v="8"/>
    <tag k="oneway" v="yes"/>
    <tag k="operator" v="National Highways"/>
    <tag k="operator:wikidata" v="Q5760006"/>
    <tag k="ref" v="A428"/>
    <tag k="source:ref" v="dictaphone"/>
  </way>
  <way id="1097138728" version="1" timestamp="2022-09-22T23:27:01Z" changeset="126524515" uid="6476359" user="NSiecw">
    <nd ref="10046207296"/>
    <nd ref="3755598826"/>
    <nd ref="3755598830"/>
    <nd ref="10046207295"/>
    <nd ref="10046207296"/>
    <tag k="addr:city" v="Cambridge"/>
    <tag k="addr:country" v="GB"/>
    <tag k="addr:housenumber" v="29"/>
    <tag k="addr:locality" v="Knapwell"/>
    <tag k="addr:postcode" v="CB23 4LB"/>
    <tag k="addr:street" v="St. Neots Road"/>
    <tag k="building" v="residential"/>
  </way>
  <way id="1097138729" version="2" timestamp="2024-12-24T10:16:18Z" changeset="160569353" uid="5173844" user="ndrw6">
    <nd ref="10046207301"/>
    <nd ref="10046207298"/>
    <nd ref="10046207297"/>
    <nd ref="10046207302"/>
    <nd ref="10046207301"/>
    <tag k="addr:city" v="Cambridge"/>
    <tag k="addr:country" v="GB"/>
    <tag k="addr:housenumber" v="26"/>
    <tag k="addr:locality" v="Knapwell"/>
    <tag k="addr:postcode" v="CB23 4NT"/>
    <tag k="addr:street" v="St. Neots Road"/>
    <tag k="building" v="house"/>
  </way>
  <way id="1097138730" version="2" timestamp="2024-12-24T10:16:18Z" changeset="160569353" uid="5173844" user="ndrw6">
    <nd ref="10046207306"/>
    <nd ref="10046207305"/>
    <nd ref="10046207304"/>
    <nd ref="10046207303"/>
    <nd ref="10046207302"/>
    <nd ref="10046207301"/>
    <nd ref="10046207300"/>
    <nd ref="10046207299"/>
    <nd ref="10046207306"/>
    <tag k="addr:city" v="Cambridge"/>
    <tag k="addr:country" v="GB"/>
    <tag k="addr:housenumber" v="27"/>
    <tag k="addr:locality" v="Knapwell"/>
    <tag k="addr:postcode" v="CB23 4NT"/>
    <tag k="addr:street" v="St. Neots Road"/>
    <tag k="building" v="house"/>
  </way>
  <way id="1097138731" version="2" timestamp="2024-12-24T10:16:18Z" changeset="160569353" uid="5173844" user="ndrw6">
    <nd ref="10046217318"/>
    <nd ref="10046207312"/>
    <nd ref="10046207311"/>
    <nd ref="10046207310"/>
    <nd ref="10046207309"/>
    <nd ref="10046217317"/>
    <nd ref="10046217318"/>
    <tag k="addr:city" v="Cambridge"/>
    <tag k="addr:country" v="GB"/>
    <tag k="addr:housenumber" v="15"/>
    <tag k="addr:postcode" v="CB23 4NR"/>
    <tag k="addr:street" v="High Street"/>
    <tag k="addr:village" v="Knapwell"/>
    <tag k="building" v="house"/>
  </way>
  <way id="1097138732" version="2" timestamp="2024-12-24T10:16:18Z" changeset="160569353" uid="5173844" user="ndrw6">
    <nd ref="10046217318"/>
    <nd ref="10046217317"/>
    <nd ref="10046207316"/>
    <nd ref="10046207315"/>
    <nd ref="10046207314"/>
    <nd ref="10046207313"/>
    <nd ref="10046217318"/>
    <tag k="addr:city" v="Cambridge"/>
    <tag k="addr:country" v="GB"/>
    <tag k="addr:housenumber" v="16"/>
    <tag k="addr:postcode" v="CB23 4NR"/>
    <tag k="addr:street" v="High Street"/>
    <tag k="addr:village" v="Knapwell"/>
    <tag k="building" v="house"/>
  </way>
  <way id="1097138733" version="2" timestamp="2024-12-24T10:16:18Z" changeset="160569353" uid="5173844" user="ndrw6">
    <nd ref="10046217320"/>
    <nd ref="5323224042"/>
    <nd ref="5323224049"/>
    <nd ref="5323224048"/>
    <nd ref="5323224047"/>
    <nd ref="10046217319"/>
    <nd ref="10046217320"/>
    <tag k="addr:city" v="Cambridge"/>
    <tag k="addr:country" v="GB"/>
    <tag k="addr:housenumber" v="13"/>
    <tag k="addr:postcode" v="CB23 4NR"/>
    <tag k="addr:street" v="High Street"/>
    <tag k="addr:village" v="Knapwell"/>
    <tag k="building" v="house"/>
  </way>
  <way id="1097138734" version="2" timestamp="2024-12-24T10:16:18Z" changeset="160569353" uid="5173844" user="ndrw6">
    <nd ref="10046217320"/>
    <nd ref="10046217319"/>
    <nd ref="5323224046"/>
    <nd ref="5323224045"/>
    <nd ref="5323224044"/>
    <nd ref="5323224043"/>
    <nd ref="10046217320"/>
    <tag k="addr:city" v="Cambridge"/>
    <tag k="addr:country" v="GB"/>
    <tag k="addr:housename" v="Chalybeate"/>
    <tag k="addr:housenumber" v="14"/>
    <tag k="addr:postcode" v="CB23 4NR"/>
    <tag k="addr:street" v="High Street"/>
    <tag k="addr:village" v="Knapwell"/>
    <tag k="building" v="house"/>
  </way>
  <way id="1097138735" version="2" timestamp="2024-12-24T10:16:18Z" changeset="160569353" uid="5173844" user="ndrw6">
    <nd ref="10046217322"/>
    <nd ref="5323224023"/>
    <nd ref="5323224024"/>
    <nd ref="10046217321"/>
    <nd ref="10046217322"/>
    <tag k="addr:city" v="Cambridge"/>
    <tag k="addr:country" v="GB"/>
    <tag k="addr:housename" v="Woodside Cottage"/>
    <tag k="addr:housenumber" v="11"/>
    <tag k="addr:postcode" v="CB23 4NR"/>
    <tag k="addr:street" v="High Street"/>
    <tag k="addr:village" v="Knapwell"/>
    <tag k="building" v="house"/>
  </way>
  <way id="1097138736" version="2" timestamp="2024-12-24T10:16:18Z" changeset="160569353" uid="5173844" user="ndrw6">
    <nd ref="10046217324"/>
    <nd ref="5323222942"/>
    <nd ref="5323222943"/>
    <nd ref="10046217323"/>
    <nd ref="10046217324"/>
    <tag k="addr:city" v="Cambridge"/>
    <tag k="addr:country" v="GB"/>
    <tag k="addr:housenumber" v="31"/>
    <tag k="addr:street" v="High Street"/>
    <tag k="addr:village" v="Knapwell"/>
    <tag k="building" v="house"/>
  </way>
  <way id="1097138737" version="2" timestamp="2024-12-24T10:16:18Z" changeset="160569353" uid="5173844" user="ndrw6">
    <nd ref="10046217326"/>
    <nd ref="5323222939"/>
    <nd ref="5323222940"/>
    <nd ref="10046217325"/>
    <nd ref="10046217326"/>
    <tag k="addr:city" v="Cambridge"/>
    <tag k="addr:country" v="GB"/>
    <tag k="addr:housenumber" v="32"/>
    <tag k="addr:street" v="High Street"/>
    <tag k="addr:village" v="Knapwell"/>
    <tag k="building" v="house"/>
  </way>
  <way id="1097138738" version="2" timestamp="2024-12-24T10:16:18Z" changeset="160569353" uid="5173844" user="ndrw6">
    <nd ref="10046217328"/>
    <nd ref="10046217326"/>
    <nd ref="10046217325"/>
    <nd ref="10046217327"/>
    <nd ref="10046217328"/>
    <tag k="addr:city" v="Cambridge"/>
    <tag k="addr:country" v="GB"/>
    <tag k="addr:housenumber" v="33"/>
    <tag k="addr:street" v="High Street"/>
    <tag k="addr:village" v="Knapwell"/>
    <tag k="building" v="house"/>
  </way>
  <way id="1097138739" version="2" timestamp="2024-12-24T10:16:18Z" changeset="160569353" uid="5173844" user="ndrw6">
    <nd ref="10046217330"/>
    <nd ref="10046217328"/>
    <nd ref="10046217327"/>
    <nd ref="10046217329"/>
    <nd ref="10046217330"/>
    <tag k="addr:city" v="Cambridge"/>
    <tag k="addr:country" v="GB"/>
    <tag k="addr:housenumber" v="34"/>
    <tag k="addr:street" v="High Street"/>
    <tag k="addr:village" v="Knapwell"/>
    <tag k="building" v="house"/>
  </way>
  <way id="1132092809" version="3" timestamp="2024-08-03T15:47:38Z" changeset="154779447" uid="669183" user="Andy_W">
    <nd ref="10555768366"/>
    <nd ref="10555768365"/>
    <nd ref="10555768364"/>
    <nd ref="12090583111"/>
    <nd ref="1439119174"/>
    <nd ref="10555768368"/>
    <nd ref="12090583096"/>
    <nd ref="12090583097"/>
    <nd ref="12090583098"/>
    <nd ref="12090583099"/>
    <nd ref="12090583100"/>
    <nd ref="10555768366"/>
    <tag k="addr:city" v="Cambridge"/>
    <tag k="addr:country" v="GB"/>
    <tag k="addr:housename" v="Grange Farm"/>
    <tag k="addr:locality" v="Knapwell"/>
    <tag k="addr:postcode" v="CB23 4NR"/>
    <tag k="addr:street" v="High Street"/>
    <tag k="alt_name" v="Grange Farm"/>
    <tag k="description" v="This is known as Hope Farm by the RSPB but has a &quot;postal name&quot; of Grange Farm."/>
    <tag k="landuse" v="farmyard"/>
    <tag k="name" v="RSPB Hope Farm"/>
    <tag k="operator" v="RSPB"/>
  </way>
  <way id="1208602556" version="2" timestamp="2024-02-15T20:43:01Z" changeset="147507656" uid="5113580" user="Craske">
    <nd ref="11198393201"/>
    <nd ref="11198393202"/>
    <nd ref="11198393203"/>
    <nd ref="11198393204"/>
    <nd ref="11198393201"/>
    <tag k="addr:city" v="Cambridge"/>
    <tag k="addr:postcode" v="CB23 4NS"/>
    <tag k="addr:street" v="Knapwell"/>
    <tag k="building" v="commercial"/>
    <tag k="email" v="hello@chillattheyard.co.uk"/>
    <tag k="leisure" v="sauna"/>
    <tag k="name" v="Chill at the Yard"/>
    <tag k="opening_hours" v="Mo-Su 07:00-21:00"/>
    <tag k="phone" v="+44 7976 294537"/>
    <tag k="website" v="https://www.chillattheyard.co.uk/"/>
  </way>

</osm>
