<?xml version="1.0" encoding="UTF-8"?>
<osm version="0.6" generator="Overpass API 0.7.62.5 1bd436f1">
<note>The data included in this document is from www.openstreetmap.org. The data is made available under ODbL.</note>
<meta osm_base="2025-04-27T07:28:05Z" areas="2025-02-06T02:17:44Z"/>

  <node id="620942" lat="52.2189911" lon="0.0075102" version="5" timestamp="2022-03-24T03:45:37Z" changeset="118844860" uid="13341565" user="Falsernet">
    <tag k="highway" v="motorway_junction"/>
    <tag k="name" v="Hardwick Interchange"/>
  </node>
  <node id="25277880" lat="52.2476305" lon="0.0448256" version="6" timestamp="2019-06-24T16:34:20Z" changeset="71568270" uid="16089" user="Ben Harris"/>
  <node id="26661387" lat="52.2395128" lon="0.0233532" version="2" timestamp="2017-11-06T11:39:04Z" changeset="53552408" uid="3582" user="davidearl">
    <tag k="building" v="yes"/>
    <tag k="denomination" v="methodist"/>
    <tag k="disused:amenity" v="place_of_worship"/>
    <tag k="name" v="Dry Drayton Methodist Church (closed)"/>
    <tag k="religion" v="christian"/>
    <tag k="source:name" v="local knowledge"/>
  </node>
  <node id="32520566" lat="52.2190601" lon="0.0077160" version="5" timestamp="2020-04-01T11:39:25Z" changeset="82920827" uid="5173844" user="ndrw6"/>
  <node id="32520619" lat="52.2167684" lon="0.0317077" version="4" timestamp="2024-11-04T14:48:37Z" changeset="158744059" uid="5229644" user="Nathan_A_RF"/>
  <node id="32520620" lat="52.2181262" lon="0.0078399" version="2" timestamp="2016-01-07T00:20:25Z" changeset="36415921" uid="493595" user="Yorvik Prestigitator"/>
  <node id="32520701" lat="52.2243409" lon="-0.0659786" version="2" timestamp="2011-03-23T00:39:54Z" changeset="7642928" uid="96695" user="Tim Morley"/>
  <node id="32520855" lat="52.2188581" lon="-0.0184081" version="3" timestamp="2020-04-01T11:39:25Z" changeset="82920827" uid="5173844" user="ndrw6"/>
  <node id="32520965" lat="52.2190960" lon="-0.0064121" version="2" timestamp="2012-08-13T11:48:16Z" changeset="12712887" uid="359193" user="JeffH"/>
  <node id="32520970" lat="52.2188442" lon="-0.0005857" version="2" timestamp="2011-10-06T15:23:31Z" changeset="9486304" uid="504708" user="HillWithSmallFields"/>
  <node id="304439934" lat="52.2345526" lon="0.0318293" version="4" timestamp="2024-04-15T15:40:35Z" changeset="150045285" uid="742701" user="kerr smith"/>
  <node id="1864147415" lat="52.2190476" lon="-0.0056807" version="1" timestamp="2012-08-13T11:37:40Z" changeset="12712763" uid="359193" user="JeffH"/>
  <node id="6348070499" lat="52.2454799" lon="0.0399063" version="3" timestamp="2024-04-09T21:48:19Z" changeset="149795939" uid="5229644" user="Nathan_A_RF"/>
  <node id="9541938691" lat="52.2186189" lon="0.0020494" version="1" timestamp="2022-02-27T12:51:28Z" changeset="117906903" uid="5173844" user="ndrw6"/>
  <way id="1881413" version="7" timestamp="2024-12-29T19:33:00Z" changeset="160765393" uid="5229644" user="Nathan_A_RF">
    <nd ref="32520855"/>
    <nd ref="523571944"/>
    <nd ref="523571945"/>
    <nd ref="32520860"/>
    <nd ref="523571948"/>
    <nd ref="523571950"/>
    <tag k="highway" v="tertiary"/>
    <tag k="junction" v="roundabout"/>
    <tag k="oneway" v="yes"/>
  </way>
  <way id="1881414" version="11" timestamp="2024-04-09T22:04:05Z" changeset="149796276" uid="5229644" user="Nathan_A_RF">
    <nd ref="5313561"/>
    <nd ref="523572005"/>
    <nd ref="523572008"/>
    <nd ref="523572010"/>
    <nd ref="620940"/>
    <tag k="highway" v="tertiary"/>
    <tag k="junction" v="roundabout"/>
    <tag k="maxspeed" v="60 mph"/>
    <tag k="maxspeed:type" v="GB:nsl_single"/>
    <tag k="name" v="Hardwick Interchange"/>
    <tag k="oneway" v="yes"/>
    <tag k="surface" v="asphalt"/>
  </way>
  <way id="4237173" version="18" timestamp="2024-06-01T12:37:58Z" changeset="152119444" uid="104519" user="Rupert Swarbrick">
    <nd ref="25277881"/>
    <nd ref="25277882"/>
    <nd ref="25277883"/>
    <nd ref="25277884"/>
    <nd ref="25277885"/>
    <nd ref="7280275056"/>
    <nd ref="6580623698"/>
    <nd ref="7280275057"/>
    <nd ref="6580623695"/>
    <nd ref="6580623696"/>
    <nd ref="6580623697"/>
    <tag k="highway" v="primary"/>
    <tag k="lanes" v="2"/>
    <tag k="lit" v="no"/>
    <tag k="maxspeed" v="60 mph"/>
    <tag k="maxspeed:type" v="GB:nsl_single"/>
    <tag k="name" v="Dry Drayton Road"/>
    <tag k="ref" v="A1307"/>
    <tag k="surface" v="asphalt"/>
  </way>
  <way id="4372218" version="6" timestamp="2023-10-30T22:31:57Z" changeset="143390337" uid="12045" user="Millsey">
    <nd ref="8996719139"/>
    <nd ref="26661015"/>
    <nd ref="26661177"/>
    <nd ref="4398826961"/>
    <nd ref="26660964"/>
    <nd ref="26661175"/>
    <tag k="highway" v="residential"/>
    <tag k="maxspeed" v="30 mph"/>
    <tag k="name" v="Park Street"/>
    <tag k="oneway" v="no"/>
    <tag k="source:name" v="local knowledge"/>
  </way>
  <way id="4372219" version="8" timestamp="2023-05-30T21:40:40Z" changeset="136764319" uid="12045" user="Millsey">
    <nd ref="26661011"/>
    <nd ref="26661052"/>
    <nd ref="4398826962"/>
    <nd ref="26661197"/>
    <nd ref="8987856978"/>
    <nd ref="26661075"/>
    <nd ref="8987856979"/>
    <nd ref="26661202"/>
    <nd ref="304440045"/>
    <nd ref="26661068"/>
    <nd ref="26661091"/>
    <nd ref="775743543"/>
    <nd ref="26661240"/>
    <nd ref="26661095"/>
    <nd ref="26661149"/>
    <nd ref="26661119"/>
    <tag k="highway" v="residential"/>
    <tag k="maxspeed" v="30 mph"/>
    <tag k="name" v="Park Lane"/>
    <tag k="oneway" v="no"/>
    <tag k="source" v="GPS"/>
    <tag k="source:name" v="survey"/>
  </way>
  <way id="4372220" version="5" timestamp="2022-10-09T17:13:18Z" changeset="127259487" uid="2400059" user="Pablo Rodriguez">
    <nd ref="26661093"/>
    <nd ref="6370451296"/>
    <nd ref="26661080"/>
    <nd ref="26661173"/>
    <nd ref="26661037"/>
    <tag k="highway" v="residential"/>
    <tag k="lit" v="no"/>
    <tag k="name" v="Bakers Field"/>
    <tag k="sidewalk" v="no"/>
    <tag k="source:name" v="local knowledge"/>
    <tag k="surface" v="compacted"/>
  </way>
  <way id="4372225" version="13" timestamp="2024-06-01T12:40:20Z" changeset="152119444" uid="104519" user="Rupert Swarbrick">
    <nd ref="25277880"/>
    <nd ref="25277881"/>
    <tag k="bridge" v="yes"/>
    <tag k="highway" v="primary"/>
    <tag k="lanes" v="2"/>
    <tag k="layer" v="1"/>
    <tag k="lit" v="no"/>
    <tag k="maxspeed" v="60 mph"/>
    <tag k="maxspeed:type" v="GB:nsl_single"/>
    <tag k="maxweight:signed" v="no"/>
    <tag k="name" v="Dry Drayton Road"/>
    <tag k="ref" v="A1307"/>
    <tag k="source:lit" v="survey"/>
    <tag k="surface" v="asphalt"/>
  </way>
  <way id="4372227" version="10" timestamp="2024-12-31T17:59:13Z" changeset="160843518" uid="5229644" user="Nathan_A_RF">
    <nd ref="26661106"/>
    <nd ref="26661198"/>
    <tag k="highway" v="residential"/>
    <tag k="maxspeed" v="30 mph"/>
    <tag k="name" v="High Street"/>
    <tag k="source" v="GPS"/>
    <tag k="source:name" v="survey"/>
    <tag k="surface" v="asphalt"/>
  </way>
  <way id="4372234" version="3" timestamp="2009-08-21T19:26:52Z" changeset="2227026" uid="2406" user="JeffB">
    <nd ref="26661194"/>
    <nd ref="26661077"/>
    <tag k="created_by" v="JOSM"/>
    <tag k="highway" v="residential"/>
    <tag k="name" v="View Farm Close"/>
    <tag k="source" v="GPS"/>
    <tag k="source:name" v="survey"/>
  </way>
  <way id="4372235" version="12" timestamp="2024-12-31T17:59:13Z" changeset="160843518" uid="5229644" user="Nathan_A_RF">
    <nd ref="26661106"/>
    <nd ref="756675709"/>
    <nd ref="756675711"/>
    <nd ref="756675713"/>
    <nd ref="26661252"/>
    <nd ref="26661073"/>
    <nd ref="26661212"/>
    <nd ref="7713334643"/>
    <nd ref="5318555379"/>
    <nd ref="26661078"/>
    <nd ref="26661228"/>
    <nd ref="26661066"/>
    <tag k="abutters" v="residential"/>
    <tag k="highway" v="tertiary"/>
    <tag k="lanes" v="2"/>
    <tag k="maxspeed" v="30 mph"/>
    <tag k="name" v="Scotland Road"/>
    <tag k="source" v="GPS"/>
    <tag k="surface" v="asphalt"/>
  </way>
  <way id="4372238" version="4" timestamp="2023-10-30T22:31:57Z" changeset="143390337" uid="12045" user="Millsey">
    <nd ref="26661169"/>
    <nd ref="26661020"/>
    <nd ref="1303790636"/>
    <nd ref="26661214"/>
    <nd ref="26661029"/>
    <tag k="highway" v="residential"/>
    <tag k="maxspeed" v="30 mph"/>
    <tag k="name" v="Park Street"/>
    <tag k="oneway" v="no"/>
    <tag k="source:name" v="local knowledge"/>
  </way>
  <way id="4372239" version="8" timestamp="2024-12-31T17:59:13Z" changeset="160843518" uid="5229644" user="Nathan_A_RF">
    <nd ref="26661203"/>
    <nd ref="26661053"/>
    <nd ref="32520515"/>
    <nd ref="756675671"/>
    <nd ref="32520516"/>
    <nd ref="32520517"/>
    <nd ref="32520518"/>
    <nd ref="32520519"/>
    <nd ref="32520520"/>
    <nd ref="12465931648"/>
    <nd ref="32520521"/>
    <nd ref="32520522"/>
    <nd ref="32520523"/>
    <nd ref="32520524"/>
    <nd ref="32520525"/>
    <nd ref="2670675451"/>
    <nd ref="291797505"/>
    <nd ref="32520526"/>
    <nd ref="32520527"/>
    <tag k="highway" v="tertiary"/>
    <tag k="maxspeed" v="60 mph"/>
    <tag k="maxspeed:type" v="GB:nsl_single"/>
    <tag k="name" v="Scotland Road"/>
    <tag k="source:name" v="local_knowledge"/>
  </way>
  <way id="4372240" version="6" timestamp="2024-04-15T16:42:40Z" changeset="150048555" uid="742701" user="kerr smith">
    <nd ref="26661204"/>
    <nd ref="26661158"/>
    <nd ref="11819578919"/>
    <nd ref="26661005"/>
    <nd ref="11819578918"/>
    <tag k="highway" v="residential"/>
    <tag k="lit" v="yes"/>
    <tag k="name" v="Cotton's Field"/>
    <tag k="sidewalk" v="both"/>
    <tag k="source" v="GPS"/>
    <tag k="source:name" v="survey"/>
    <tag k="surface" v="asphalt"/>
  </way>
  <way id="4372244" version="11" timestamp="2023-05-30T21:40:40Z" changeset="136764319" uid="12045" user="Millsey">
    <nd ref="26661100"/>
    <nd ref="5529482978"/>
    <nd ref="26661057"/>
    <nd ref="304440070"/>
    <nd ref="26661093"/>
    <nd ref="5318555760"/>
    <nd ref="26661248"/>
    <tag k="highway" v="residential"/>
    <tag k="lit" v="yes"/>
    <tag k="maxspeed" v="30 mph"/>
    <tag k="name" v="Pettitt's Lane"/>
    <tag k="oneway" v="no"/>
    <tag k="source" v="GPS"/>
    <tag k="source:name" v="survey"/>
    <tag k="surface" v="asphalt"/>
  </way>
  <way id="4372246" version="5" timestamp="2022-01-28T18:05:12Z" changeset="116717917" uid="2400059" user="Pablo Rodriguez">
    <nd ref="26661158"/>
    <nd ref="26661138"/>
    <nd ref="9456125896"/>
    <nd ref="26660967"/>
    <nd ref="26661165"/>
    <tag k="highway" v="residential"/>
    <tag k="lit" v="yes"/>
    <tag k="name" v="Cotton's Field"/>
    <tag k="sidewalk" v="both"/>
    <tag k="source:name" v="local knowledge"/>
    <tag k="surface" v="asphalt"/>
  </way>
  <way id="4372247" version="8" timestamp="2023-05-30T21:40:40Z" changeset="136764319" uid="12045" user="Millsey">
    <nd ref="26661011"/>
    <nd ref="304440047"/>
    <nd ref="26661184"/>
    <nd ref="26661003"/>
    <tag k="abutters" v="residential"/>
    <tag k="highway" v="tertiary"/>
    <tag k="maxspeed" v="30 mph"/>
    <tag k="name" v="Park Street"/>
    <tag k="oneway" v="no"/>
    <tag k="source:name" v="local knowledge"/>
  </way>
  <way id="4372249" version="4" timestamp="2016-09-13T12:37:10Z" changeset="42124068" uid="669183" user="Andy_W">
    <nd ref="474739248"/>
    <nd ref="26661087"/>
    <nd ref="4398826963"/>
    <nd ref="26661194"/>
    <nd ref="4398826965"/>
    <nd ref="26661219"/>
    <nd ref="26661075"/>
    <tag k="highway" v="residential"/>
    <tag k="name" v="Park Lane"/>
    <tag k="source" v="GPS"/>
    <tag k="source:name" v="survey"/>
  </way>
  <way id="4372257" version="7" timestamp="2023-05-30T21:40:40Z" changeset="136764319" uid="12045" user="Millsey">
    <nd ref="26661248"/>
    <nd ref="6370451291"/>
    <nd ref="6370451292"/>
    <nd ref="6370451293"/>
    <nd ref="6370451294"/>
    <nd ref="6370451295"/>
    <nd ref="26661233"/>
    <tag k="highway" v="residential"/>
    <tag k="lit" v="yes"/>
    <tag k="maxspeed" v="30 mph"/>
    <tag k="name" v="Pettitt's Close"/>
    <tag k="oneway" v="no"/>
    <tag k="sidewalk" v="both"/>
    <tag k="source" v="GPS"/>
    <tag k="source:name" v="survey"/>
    <tag k="surface" v="asphalt"/>
  </way>
  <way id="4372263" version="3" timestamp="2018-04-05T00:50:48Z" changeset="57818785" uid="5173844" user="ndrw6">
    <nd ref="26661215"/>
    <nd ref="5529482972"/>
    <nd ref="5529482973"/>
    <nd ref="26661022"/>
    <nd ref="26661132"/>
    <tag k="highway" v="residential"/>
    <tag k="name" v="Searle's Meadow"/>
    <tag k="source:name" v="survey"/>
  </way>
  <way id="4372264" version="3" timestamp="2018-04-21T23:55:09Z" changeset="58300345" uid="5173844" user="ndrw6">
    <nd ref="26661119"/>
    <nd ref="474658069"/>
    <nd ref="26661235"/>
    <tag k="highway" v="unclassified"/>
    <tag k="maxspeed" v="30 mph"/>
    <tag k="name" v="Park Lane"/>
    <tag k="source:name" v="local knowledge"/>
  </way>
  <way id="4372267" version="1" timestamp="2007-03-21T12:33:36Z" changeset="240556" uid="3582" user="davidearl">
    <nd ref="26661048"/>
    <nd ref="26660954"/>
    <nd ref="26661145"/>
    <nd ref="26660987"/>
    <tag k="created_by" v="JOSM"/>
    <tag k="highway" v="residential"/>
    <tag k="name" v="Old Rectory Drive"/>
    <tag k="source:name" v="local knowledge"/>
  </way>
  <way id="4372298" version="2" timestamp="2021-08-10T08:58:04Z" changeset="109449966" uid="5173844" user="ndrw6">
    <nd ref="26661153"/>
    <nd ref="26661372"/>
    <nd ref="8995501274"/>
    <nd ref="26661374"/>
    <tag k="highway" v="residential"/>
    <tag k="name" v="Hill View"/>
    <tag k="source:name" v="local knowledge"/>
  </way>
  <way id="4372300" version="13" timestamp="2024-04-13T18:25:47Z" changeset="149964541" uid="742701" user="kerr smith">
    <nd ref="26661011"/>
    <nd ref="4398826956"/>
    <nd ref="11815129299"/>
    <nd ref="3433199391"/>
    <nd ref="7907331495"/>
    <nd ref="26661176"/>
    <nd ref="26661045"/>
    <nd ref="4398815480"/>
    <nd ref="292407859"/>
    <nd ref="26661141"/>
    <nd ref="4398815482"/>
    <nd ref="4398815481"/>
    <nd ref="26661023"/>
    <nd ref="4398815483"/>
    <nd ref="26661153"/>
    <nd ref="3627344593"/>
    <nd ref="4398815487"/>
    <nd ref="26660980"/>
    <nd ref="5570014071"/>
    <tag k="abutters" v="residential"/>
    <tag k="highway" v="tertiary"/>
    <tag k="maxspeed" v="30 mph"/>
    <tag k="name" v="Oakington Road"/>
    <tag k="oneway" v="no"/>
    <tag k="source:name" v="survey"/>
  </way>
  <way id="4372301" version="7" timestamp="2024-12-31T17:59:13Z" changeset="160843518" uid="5229644" user="Nathan_A_RF">
    <nd ref="304439934"/>
    <nd ref="26661261"/>
    <nd ref="4398827865"/>
    <nd ref="26661114"/>
    <nd ref="4398827862"/>
    <nd ref="4398827857"/>
    <nd ref="4398827863"/>
    <nd ref="26661241"/>
    <nd ref="26661386"/>
    <nd ref="26661102"/>
    <nd ref="4398827858"/>
    <nd ref="474655805"/>
    <nd ref="473734011"/>
    <tag k="highway" v="tertiary"/>
    <tag k="maxspeed" v="60 mph"/>
    <tag k="maxspeed:type" v="GB:nsl_single"/>
    <tag k="name" v="Madingley Road"/>
    <tag k="source:name" v="local knowledge"/>
  </way>
  <way id="4936047" version="24" timestamp="2024-06-30T00:23:10Z" changeset="153351621" uid="13666626" user="RedAuburn">
    <nd ref="620942"/>
    <nd ref="7354099765"/>
    <nd ref="32520575"/>
    <nd ref="32520576"/>
    <nd ref="32520577"/>
    <nd ref="1864156649"/>
    <nd ref="32520578"/>
    <nd ref="1864156664"/>
    <nd ref="32520571"/>
    <nd ref="1864156668"/>
    <nd ref="1864156670"/>
    <nd ref="1864156672"/>
    <nd ref="32520572"/>
    <nd ref="1864156674"/>
    <nd ref="32520955"/>
    <nd ref="32520573"/>
    <nd ref="1864156666"/>
    <nd ref="32520565"/>
    <nd ref="32520657"/>
    <nd ref="1864156643"/>
    <nd ref="32520656"/>
    <nd ref="3052263810"/>
    <nd ref="1864156637"/>
    <nd ref="32520659"/>
    <nd ref="1864156635"/>
    <nd ref="3052263764"/>
    <nd ref="32520658"/>
    <nd ref="1864156639"/>
    <nd ref="32520644"/>
    <nd ref="3052263776"/>
    <nd ref="32520643"/>
    <nd ref="32520647"/>
    <nd ref="32520646"/>
    <nd ref="32520649"/>
    <nd ref="32520648"/>
    <nd ref="32520651"/>
    <nd ref="2022007213"/>
    <nd ref="32520650"/>
    <nd ref="2022007261"/>
    <nd ref="32520668"/>
    <nd ref="32520669"/>
    <nd ref="12021407263"/>
    <nd ref="2022007272"/>
    <nd ref="32520670"/>
    <nd ref="32520671"/>
    <nd ref="2022007267"/>
    <nd ref="32520672"/>
    <nd ref="1214220301"/>
    <nd ref="2022007242"/>
    <nd ref="32520673"/>
    <tag k="expressway" v="yes"/>
    <tag k="foot" v="no"/>
    <tag k="highway" v="trunk"/>
    <tag k="lanes" v="2"/>
    <tag k="maxspeed" v="70 mph"/>
    <tag k="maxspeed:type" v="GB:nsl_dual"/>
    <tag k="national_highways:area" v="8"/>
    <tag k="oneway" v="yes"/>
    <tag k="operator" v="National Highways"/>
    <tag k="operator:wikidata" v="Q5760006"/>
    <tag k="ref" v="A428"/>
    <tag k="source:ref" v="dictaphone"/>
  </way>
  <way id="4936050" version="10" timestamp="2024-04-09T22:04:05Z" changeset="149796276" uid="5229644" user="Nathan_A_RF">
    <nd ref="32520532"/>
    <nd ref="7354139210"/>
    <nd ref="314060137"/>
    <nd ref="32520531"/>
    <nd ref="314060138"/>
    <nd ref="32520534"/>
    <tag k="highway" v="tertiary"/>
    <tag k="junction" v="roundabout"/>
    <tag k="maxspeed" v="60 mph"/>
    <tag k="maxspeed:type" v="GB:nsl_single"/>
    <tag k="name" v="Hardwick Interchange"/>
    <tag k="oneway" v="yes"/>
  </way>
  <way id="4936055" version="6" timestamp="2024-04-09T22:04:05Z" changeset="149796276" uid="5229644" user="Nathan_A_RF">
    <nd ref="32520540"/>
    <nd ref="11805917791"/>
    <tag k="bridge" v="yes"/>
    <tag k="highway" v="tertiary"/>
    <tag k="layer" v="1"/>
    <tag k="maxspeed" v="60 mph"/>
    <tag k="maxspeed:type" v="GB:nsl_single"/>
    <tag k="name" v="Scotland Road"/>
    <tag k="source:name" v="survey"/>
  </way>
  <way id="4936058" version="10" timestamp="2023-05-29T21:20:46Z" changeset="136718126" uid="12045" user="Millsey">
    <nd ref="32520527"/>
    <nd ref="2670675452"/>
    <nd ref="10155547878"/>
    <nd ref="32520542"/>
    <nd ref="32520541"/>
    <nd ref="3931450372"/>
    <nd ref="32520543"/>
    <nd ref="32520549"/>
    <nd ref="3931450390"/>
    <nd ref="32520550"/>
    <nd ref="32520552"/>
    <tag k="abutters" v="residential"/>
    <tag k="highway" v="tertiary"/>
    <tag k="maxspeed" v="30 mph"/>
    <tag k="name" v="Scotland Road"/>
  </way>
  <way id="4936070" version="25" timestamp="2024-11-04T14:48:37Z" changeset="158744059" uid="5229644" user="Nathan_A_RF">
    <nd ref="32520566"/>
    <nd ref="32520621"/>
    <nd ref="32520624"/>
    <nd ref="32520623"/>
    <nd ref="513767224"/>
    <nd ref="32520626"/>
    <nd ref="1309636460"/>
    <nd ref="32520625"/>
    <nd ref="3475053430"/>
    <nd ref="513767055"/>
    <nd ref="1545114316"/>
    <nd ref="32520612"/>
    <nd ref="1545114307"/>
    <nd ref="21288202"/>
    <nd ref="12312200165"/>
    <nd ref="21288201"/>
    <tag k="expressway" v="yes"/>
    <tag k="foot" v="no"/>
    <tag k="highway" v="trunk"/>
    <tag k="lanes" v="2"/>
    <tag k="lit" v="no"/>
    <tag k="maxspeed" v="70 mph"/>
    <tag k="national_highways:area" v="8"/>
    <tag k="oneway" v="yes"/>
    <tag k="operator" v="National Highways"/>
    <tag k="operator:wikidata" v="Q5760006"/>
    <tag k="ref" v="A428"/>
    <tag k="source:ref" v="dictaphone"/>
  </way>
  <way id="4936073" version="15" timestamp="2024-05-31T20:34:43Z" changeset="152097991" uid="19529281" user="Nebulans">
    <nd ref="32520532"/>
    <nd ref="10155547868"/>
    <nd ref="32520561"/>
    <nd ref="32520562"/>
    <nd ref="32520559"/>
    <nd ref="32520560"/>
    <nd ref="7354099764"/>
    <nd ref="32520566"/>
    <tag k="expressway" v="yes"/>
    <tag k="foot" v="no"/>
    <tag k="highway" v="trunk_link"/>
    <tag k="maxspeed" v="70 mph"/>
    <tag k="maxspeed:type" v="GB:nsl_dual"/>
    <tag k="national_highways:area" v="8"/>
    <tag k="oneway" v="yes"/>
    <tag k="operator" v="National Highways"/>
    <tag k="operator:wikidata" v="Q5760006"/>
    <tag k="ref" v="A428"/>
  </way>
  <way id="4936079" version="25" timestamp="2024-11-16T02:07:40Z" changeset="159192643" uid="18964624" user="Exterprook58">
    <nd ref="32520701"/>
    <nd ref="2022007205"/>
    <nd ref="32520706"/>
    <nd ref="32520707"/>
    <nd ref="2022007202"/>
    <nd ref="3206874866"/>
    <nd ref="32520704"/>
    <nd ref="469989433"/>
    <nd ref="469989439"/>
    <nd ref="32520705"/>
    <nd ref="2022007269"/>
    <nd ref="32520694"/>
    <nd ref="3206865558"/>
    <nd ref="32520695"/>
    <nd ref="2022007214"/>
    <nd ref="32520692"/>
    <nd ref="2022007232"/>
    <nd ref="32520693"/>
    <nd ref="32520698"/>
    <nd ref="32520699"/>
    <nd ref="456323670"/>
    <nd ref="32520696"/>
    <nd ref="456323680"/>
    <nd ref="32520697"/>
    <nd ref="3052263766"/>
    <nd ref="32520721"/>
    <nd ref="32520720"/>
    <nd ref="1864156645"/>
    <nd ref="32520725"/>
    <nd ref="1864156641"/>
    <nd ref="32520723"/>
    <nd ref="1864156642"/>
    <nd ref="32520717"/>
    <nd ref="1864156646"/>
    <nd ref="32520716"/>
    <nd ref="32520582"/>
    <nd ref="32520581"/>
    <nd ref="32520580"/>
    <nd ref="1864156682"/>
    <nd ref="1864156680"/>
    <nd ref="1864156678"/>
    <nd ref="32520579"/>
    <nd ref="1864156675"/>
    <nd ref="32520586"/>
    <nd ref="32520585"/>
    <nd ref="32520584"/>
    <nd ref="32520583"/>
    <nd ref="32520566"/>
    <tag k="expressway" v="yes"/>
    <tag k="foot" v="no"/>
    <tag k="highway" v="trunk"/>
    <tag k="lanes" v="2"/>
    <tag k="maxspeed" v="70 mph"/>
    <tag k="maxspeed:type" v="GB:nsl_dual"/>
    <tag k="national_highways:area" v="8"/>
    <tag k="oneway" v="yes"/>
    <tag k="operator" v="National Highways"/>
    <tag k="operator:wikidata" v="Q5760006"/>
    <tag k="ref" v="A428"/>
    <tag k="source:ref" v="dictaphone"/>
  </way>
  <way id="4936080" version="16" timestamp="2024-05-31T20:34:43Z" changeset="152097991" uid="19529281" user="Nebulans">
    <nd ref="620942"/>
    <nd ref="1970110073"/>
    <nd ref="11223555462"/>
    <nd ref="11223555463"/>
    <nd ref="620941"/>
    <nd ref="11223555461"/>
    <nd ref="1728019339"/>
    <nd ref="29849720"/>
    <nd ref="1728019342"/>
    <nd ref="29849721"/>
    <tag k="expressway" v="yes"/>
    <tag k="foot" v="no"/>
    <tag k="highway" v="trunk_link"/>
    <tag k="lanes" v="1"/>
    <tag k="maxspeed" v="70 mph"/>
    <tag k="maxspeed:type" v="GB:nsl_dual"/>
    <tag k="national_highways:area" v="8"/>
    <tag k="oneway" v="yes"/>
    <tag k="operator" v="National Highways"/>
    <tag k="operator:wikidata" v="Q5760006"/>
    <tag k="ref" v="A428"/>
  </way>
  <way id="4936121" version="16" timestamp="2024-05-31T20:34:43Z" changeset="152097991" uid="19529281" user="Nebulans">
    <nd ref="1864156648"/>
    <nd ref="32520568"/>
    <nd ref="1864156650"/>
    <nd ref="32520569"/>
    <nd ref="1864156651"/>
    <nd ref="32520570"/>
    <nd ref="1864156653"/>
    <nd ref="32520563"/>
    <nd ref="32520564"/>
    <nd ref="32520565"/>
    <tag k="expressway" v="yes"/>
    <tag k="foot" v="no"/>
    <tag k="highway" v="trunk_link"/>
    <tag k="maxspeed" v="70 mph"/>
    <tag k="maxspeed:type" v="GB:nsl_dual"/>
    <tag k="national_highways:area" v="8"/>
    <tag k="oneway" v="yes"/>
    <tag k="operator" v="National Highways"/>
    <tag k="operator:wikidata" v="Q5760006"/>
    <tag k="ref" v="A428"/>
  </way>
  <way id="4936122" version="16" timestamp="2024-05-31T20:34:43Z" changeset="152097991" uid="19529281" user="Nebulans">
    <nd ref="32520580"/>
    <nd ref="1970110084"/>
    <nd ref="1864156683"/>
    <nd ref="1864156684"/>
    <nd ref="32520959"/>
    <nd ref="1864156685"/>
    <nd ref="32520960"/>
    <nd ref="1864156686"/>
    <nd ref="1728019341"/>
    <nd ref="1864156687"/>
    <nd ref="32520961"/>
    <nd ref="32520536"/>
    <tag k="expressway" v="yes"/>
    <tag k="foot" v="no"/>
    <tag k="highway" v="trunk_link"/>
    <tag k="maxspeed" v="70 mph"/>
    <tag k="maxspeed:type" v="GB:nsl_dual"/>
    <tag k="national_highways:area" v="8"/>
    <tag k="oneway" v="yes"/>
    <tag k="operator" v="National Highways"/>
    <tag k="operator:wikidata" v="Q5760006"/>
    <tag k="ref" v="A428"/>
  </way>
  <way id="4936124" version="7" timestamp="2020-04-01T11:39:25Z" changeset="82920827" uid="5173844" user="ndrw6">
    <nd ref="7354139223"/>
    <nd ref="620937"/>
    <nd ref="1864156633"/>
    <nd ref="1864156631"/>
    <nd ref="1864156629"/>
    <nd ref="1864156627"/>
    <nd ref="620936"/>
    <nd ref="32520965"/>
    <tag k="highway" v="tertiary"/>
    <tag k="name" v="Saint Neots Road"/>
  </way>
  <way id="4936126" version="10" timestamp="2022-10-19T10:10:54Z" changeset="127771914" uid="3582" user="davidearl">
    <nd ref="5313562"/>
    <nd ref="32520970"/>
    <tag k="highway" v="residential"/>
    <tag k="lcn" v="cambs_cc"/>
    <tag k="maxspeed" v="40 mph"/>
    <tag k="maxspeed:type" v="sign"/>
    <tag k="name" v="Saint Neots Road"/>
    <tag k="source" v="GPS"/>
  </way>
  <way id="4937864" version="8" timestamp="2023-07-29T21:38:36Z" changeset="139189842" uid="12045" user="Millsey">
    <nd ref="32520552"/>
    <nd ref="32520557"/>
    <nd ref="2416777392"/>
    <tag k="highway" v="tertiary"/>
    <tag k="maxspeed" v="30 mph"/>
    <tag k="name" v="Scotland Road"/>
    <tag k="source:name" v="survey"/>
  </way>
  <way id="38167144" version="17" timestamp="2024-11-04T14:48:37Z" changeset="158744059" uid="5229644" user="Nathan_A_RF">
    <nd ref="32520619"/>
    <nd ref="620931"/>
    <nd ref="620932"/>
    <nd ref="620933"/>
    <nd ref="620934"/>
    <nd ref="3475053429"/>
    <nd ref="620945"/>
    <nd ref="513767395"/>
    <nd ref="620946"/>
    <nd ref="513767407"/>
    <nd ref="620943"/>
    <nd ref="29850038"/>
    <nd ref="620944"/>
    <nd ref="620942"/>
    <tag k="expressway" v="yes"/>
    <tag k="foot" v="no"/>
    <tag k="highway" v="trunk"/>
    <tag k="lanes" v="2"/>
    <tag k="lit" v="no"/>
    <tag k="maxspeed" v="70 mph"/>
    <tag k="national_highways:area" v="8"/>
    <tag k="oneway" v="yes"/>
    <tag k="operator" v="National Highways"/>
    <tag k="operator:wikidata" v="Q5760006"/>
    <tag k="ref" v="A428"/>
  </way>
  <way id="39401421" version="6" timestamp="2023-05-30T21:40:40Z" changeset="136764319" uid="12045" user="Millsey">
    <nd ref="26660994"/>
    <nd ref="26661233"/>
    <nd ref="26661237"/>
    <tag k="highway" v="residential"/>
    <tag k="lit" v="yes"/>
    <tag k="maxspeed" v="30 mph"/>
    <tag k="name" v="Pettitt's Close"/>
    <tag k="oneway" v="no"/>
    <tag k="sidewalk" v="both"/>
    <tag k="source" v="GPS"/>
    <tag k="source:name" v="survey"/>
    <tag k="surface" v="asphalt"/>
  </way>
  <way id="39401496" version="5" timestamp="2022-10-09T17:21:57Z" changeset="127259478" uid="2400059" user="Pablo Rodriguez">
    <nd ref="292407881"/>
    <nd ref="8995501407"/>
    <nd ref="26661107"/>
    <tag k="highway" v="residential"/>
    <tag k="lanes" v="1"/>
    <tag k="name" v="Pettitt's Lane"/>
    <tag k="sidewalk" v="right"/>
    <tag k="source" v="GPS"/>
    <tag k="source:name" v="survey"/>
    <tag k="surface" v="asphalt"/>
    <tag k="width" v="narrow"/>
  </way>
  <way id="39539701" version="4" timestamp="2024-12-31T17:59:13Z" changeset="160843518" uid="5229644" user="Nathan_A_RF">
    <nd ref="473734011"/>
    <nd ref="756782758"/>
    <tag k="bridge" v="yes"/>
    <tag k="highway" v="tertiary"/>
    <tag k="layer" v="1"/>
    <tag k="maxspeed" v="60 mph"/>
    <tag k="maxspeed:type" v="GB:nsl_single"/>
    <tag k="name" v="Madingley Road"/>
    <tag k="source:name" v="local knowledge"/>
  </way>
  <way id="39539703" version="9" timestamp="2024-12-31T17:59:13Z" changeset="160843518" uid="5229644" user="Nathan_A_RF">
    <nd ref="756782758"/>
    <nd ref="26661235"/>
    <nd ref="4398827856"/>
    <nd ref="26661196"/>
    <nd ref="11431877279"/>
    <nd ref="283668419"/>
    <tag k="highway" v="tertiary"/>
    <tag k="maxspeed" v="60 mph"/>
    <tag k="maxspeed:type" v="GB:nsl_single"/>
    <tag k="name" v="Madingley Road"/>
    <tag k="source:name" v="local knowledge"/>
  </way>
  <way id="39546205" version="2" timestamp="2022-01-05T01:24:03Z" changeset="115776770" uid="335826" user="Strumpfe">
    <nd ref="32520552"/>
    <nd ref="473849318"/>
    <tag k="bicycle" v="private"/>
    <tag k="highway" v="residential"/>
    <tag k="source" v="dictaphone"/>
  </way>
  <way id="53165072" version="7" timestamp="2021-03-25T21:41:17Z" changeset="101746091" uid="145231" user="woodpeck_repair">
    <nd ref="5824972330"/>
    <nd ref="5824972329"/>
    <nd ref="5824972332"/>
    <nd ref="5824972325"/>
    <nd ref="5824972326"/>
    <nd ref="5824972327"/>
    <nd ref="5824972328"/>
    <nd ref="5824972331"/>
    <nd ref="672799588"/>
    <nd ref="672799573"/>
    <nd ref="672799591"/>
    <nd ref="672799592"/>
    <nd ref="5824972335"/>
    <nd ref="5824972334"/>
    <nd ref="5824972333"/>
    <nd ref="5824972336"/>
    <nd ref="5824972352"/>
    <nd ref="672799598"/>
    <nd ref="672799601"/>
    <nd ref="5824972345"/>
    <nd ref="5824972344"/>
    <nd ref="5824972351"/>
    <nd ref="5824972350"/>
    <nd ref="672799600"/>
    <nd ref="672799577"/>
    <nd ref="5824972348"/>
    <nd ref="5824972349"/>
    <nd ref="5824972347"/>
    <nd ref="5824972346"/>
    <nd ref="672799599"/>
    <nd ref="672799586"/>
    <nd ref="672799593"/>
    <nd ref="672799612"/>
    <nd ref="672799576"/>
    <nd ref="672799574"/>
    <nd ref="5824972342"/>
    <nd ref="5824972343"/>
    <nd ref="5824972340"/>
    <nd ref="5824972337"/>
    <nd ref="5824972338"/>
    <nd ref="5824972339"/>
    <nd ref="672799619"/>
    <nd ref="672799614"/>
    <nd ref="5824972341"/>
    <nd ref="672799615"/>
    <nd ref="672799608"/>
    <nd ref="5824972323"/>
    <nd ref="5824972322"/>
    <nd ref="5824972319"/>
    <nd ref="5824972318"/>
    <nd ref="5824972317"/>
    <nd ref="5824972320"/>
    <nd ref="5824972321"/>
    <nd ref="5824972324"/>
    <nd ref="5824972330"/>
    <tag k="amenity" v="crematorium"/>
    <tag k="building" v="yes"/>
    <tag k="name" v="City of Cambridge Crematorium"/>
    <tag k="source" v="aerials"/>
    <tag k="website" v="https://bereavement.cambridge.gov.uk/location/huntingdon-road-crematorium/"/>
  </way>
  <way id="60572299" version="5" timestamp="2024-12-31T17:59:13Z" changeset="160843518" uid="5229644" user="Nathan_A_RF">
    <nd ref="26661256"/>
    <nd ref="756675687"/>
    <nd ref="26661106"/>
    <tag k="abutters" v="residential"/>
    <tag k="highway" v="tertiary"/>
    <tag k="lanes" v="2"/>
    <tag k="maxspeed" v="30 mph"/>
    <tag k="name" v="Park Street"/>
    <tag k="source:name" v="local knowledge"/>
    <tag k="surface" v="asphalt"/>
  </way>
  <way id="60572303" version="13" timestamp="2024-12-31T17:59:13Z" changeset="160843518" uid="5229644" user="Nathan_A_RF">
    <nd ref="26661198"/>
    <nd ref="26661199"/>
    <nd ref="26661048"/>
    <nd ref="9456125895"/>
    <nd ref="26661204"/>
    <nd ref="292407897"/>
    <nd ref="11815084667"/>
    <nd ref="5529482975"/>
    <nd ref="11815084668"/>
    <nd ref="26661063"/>
    <nd ref="5529482976"/>
    <nd ref="26661215"/>
    <nd ref="5529482977"/>
    <nd ref="26661100"/>
    <nd ref="5318556107"/>
    <nd ref="26661223"/>
    <nd ref="11830881768"/>
    <nd ref="11819578939"/>
    <nd ref="26661394"/>
    <tag k="highway" v="residential"/>
    <tag k="lanes" v="2"/>
    <tag k="maxspeed" v="30 mph"/>
    <tag k="name" v="High Street"/>
    <tag k="source" v="GPS"/>
    <tag k="source:name" v="survey"/>
    <tag k="surface" v="asphalt"/>
  </way>
  <way id="60574193" version="7" timestamp="2024-12-31T17:59:13Z" changeset="160843518" uid="5229644" user="Nathan_A_RF">
    <nd ref="26661230"/>
    <nd ref="7100435513"/>
    <nd ref="4398826954"/>
    <nd ref="8996719139"/>
    <nd ref="26661109"/>
    <tag k="abutters" v="residential"/>
    <tag k="highway" v="tertiary"/>
    <tag k="maxspeed" v="30 mph"/>
    <tag k="name" v="Park Street"/>
    <tag k="source:name" v="local knowledge"/>
  </way>
  <way id="204492311" version="9" timestamp="2024-12-18T07:24:37Z" changeset="160336610" uid="15273669" user="sivannap">
    <nd ref="32520965"/>
    <nd ref="2670739530"/>
    <nd ref="2670736082"/>
    <nd ref="2670739536"/>
    <nd ref="620955"/>
    <nd ref="111489856"/>
    <nd ref="32534255"/>
    <nd ref="12430017822"/>
    <nd ref="620954"/>
    <nd ref="5279864191"/>
    <nd ref="11632427510"/>
    <nd ref="620953"/>
    <nd ref="7354139305"/>
    <nd ref="32520963"/>
    <tag k="highway" v="tertiary"/>
    <tag k="maxspeed" v="60 mph"/>
    <tag k="maxspeed:type" v="GB:nsl_single"/>
    <tag k="name" v="Saint Neots Road"/>
    <tag k="old_ref" v="A45"/>
  </way>
  <way id="204492313" version="9" timestamp="2024-07-25T17:49:00Z" changeset="154405818" uid="21787520" user="OneB1ue">
    <nd ref="32520970"/>
    <nd ref="3931450400"/>
    <nd ref="450156273"/>
    <nd ref="450157304"/>
    <nd ref="5281007011"/>
    <nd ref="32520971"/>
    <nd ref="5281007016"/>
    <nd ref="5249757425"/>
    <nd ref="5249757417"/>
    <nd ref="5249757415"/>
    <nd ref="5249757413"/>
    <nd ref="5249757409"/>
    <nd ref="32520969"/>
    <nd ref="1864147416"/>
    <nd ref="1864147415"/>
    <tag k="highway" v="residential"/>
    <tag k="lane_markings" v="no"/>
    <tag k="lcn" v="cambs_cc"/>
    <tag k="maxspeed" v="40 mph"/>
    <tag k="maxspeed:type" v="sign"/>
    <tag k="name" v="Saint Neots Road"/>
    <tag k="old_ref" v="A45"/>
    <tag k="source" v="GPS"/>
    <tag k="surface" v="asphalt"/>
  </way>
  <way id="204492314" version="10" timestamp="2022-11-03T20:52:46Z" changeset="128455475" uid="2032231" user="narboy">
    <nd ref="5313564"/>
    <nd ref="10155547910"/>
    <nd ref="5313566"/>
    <nd ref="10155547843"/>
    <nd ref="5313569"/>
    <nd ref="9541938691"/>
    <nd ref="7426299938"/>
    <nd ref="5313571"/>
    <nd ref="5313572"/>
    <nd ref="3931450325"/>
    <nd ref="5313573"/>
    <nd ref="8646789557"/>
    <nd ref="3931450323"/>
    <nd ref="8931961654"/>
    <nd ref="32520620"/>
    <tag k="cycleway" v="lane"/>
    <tag k="highway" v="tertiary"/>
    <tag k="lcn" v="cambs_cc"/>
    <tag k="maxspeed" v="40 mph"/>
    <tag k="maxspeed:type" v="sign"/>
    <tag k="name" v="Saint Neots Road"/>
    <tag k="old_ref" v="A45"/>
  </way>
  <way id="208635645" version="3" timestamp="2022-01-21T00:58:41Z" changeset="116407946" uid="2400059" user="Pablo Rodriguez">
    <nd ref="2189082564"/>
    <nd ref="2189082572"/>
    <nd ref="2189082570"/>
    <nd ref="2189082566"/>
    <nd ref="2189082577"/>
    <nd ref="2189082575"/>
    <nd ref="2189082585"/>
    <nd ref="2189082588"/>
    <nd ref="2189082584"/>
    <nd ref="2189082599"/>
    <nd ref="2189082590"/>
    <nd ref="2189082581"/>
    <nd ref="2189082564"/>
    <tag k="addr:city" v="Cambridge"/>
    <tag k="addr:housenumber" v="8"/>
    <tag k="addr:postcode" v="CB23 8TR"/>
    <tag k="addr:street" v="Thruffle Way"/>
    <tag k="addr:suburb" v="Bar Hill"/>
    <tag k="building" v="residential"/>
  </way>
  <way id="233302958" version="3" timestamp="2021-08-26T13:28:05Z" changeset="110289039" uid="242345" user="confusedbuffalo">
    <nd ref="2416777392"/>
    <nd ref="32520587"/>
    <nd ref="32520555"/>
    <nd ref="32520556"/>
    <nd ref="726786160"/>
    <tag k="highway" v="tertiary"/>
    <tag k="maxspeed" v="60 mph"/>
    <tag k="maxspeed:type" v="GB:nsl_single"/>
    <tag k="name" v="Scotland Road"/>
    <tag k="source:name" v="survey"/>
  </way>
  <way id="233303139" version="3" timestamp="2022-10-19T10:10:54Z" changeset="127771914" uid="3582" user="davidearl">
    <nd ref="5313562"/>
    <nd ref="3931450313"/>
    <nd ref="5313564"/>
    <tag k="highway" v="tertiary"/>
    <tag k="lcn" v="cambs_cc"/>
    <tag k="maxspeed" v="40 mph"/>
    <tag k="maxspeed:type" v="sign"/>
    <tag k="name" v="Saint Neots Road"/>
  </way>
  <way id="255858479" version="7" timestamp="2024-12-31T17:59:13Z" changeset="160843518" uid="5229644" user="Nathan_A_RF">
    <nd ref="26661066"/>
    <nd ref="5318555345"/>
    <nd ref="3433233522"/>
    <nd ref="26661203"/>
    <tag k="abutters" v="residential"/>
    <tag k="highway" v="tertiary"/>
    <tag k="maxspeed" v="30 mph"/>
    <tag k="name" v="Scotland Road"/>
    <tag k="source" v="GPS"/>
  </way>
  <way id="255858480" version="3" timestamp="2024-12-31T17:59:13Z" changeset="160843518" uid="5229644" user="Nathan_A_RF">
    <nd ref="26661065"/>
    <nd ref="26661230"/>
    <tag k="highway" v="tertiary"/>
    <tag k="name" v="Madingley Road"/>
    <tag k="source:name" v="local knowledge"/>
  </way>
  <way id="255858481" version="5" timestamp="2024-12-31T17:59:13Z" changeset="160843518" uid="5229644" user="Nathan_A_RF">
    <nd ref="26661109"/>
    <nd ref="12465931647"/>
    <nd ref="12465931646"/>
    <nd ref="26661256"/>
    <tag k="abutters" v="residential"/>
    <tag k="highway" v="tertiary"/>
    <tag k="lanes" v="2"/>
    <tag k="maxspeed" v="30 mph"/>
    <tag k="name" v="Park Street"/>
    <tag k="source:name" v="local knowledge"/>
    <tag k="surface" v="asphalt"/>
  </way>
  <way id="255858482" version="8" timestamp="2024-12-31T17:59:13Z" changeset="160843518" uid="5229644" user="Nathan_A_RF">
    <nd ref="283668419"/>
    <nd ref="7100435515"/>
    <nd ref="26661076"/>
    <nd ref="4398827855"/>
    <tag k="highway" v="tertiary"/>
    <tag k="lanes" v="2"/>
    <tag k="maxspeed" v="60 mph"/>
    <tag k="maxspeed:type" v="GB:nsl_single"/>
    <tag k="name" v="Madingley Road"/>
    <tag k="source:name" v="local knowledge"/>
    <tag k="surface" v="asphalt"/>
  </way>
  <way id="258645518" version="5" timestamp="2020-10-09T19:07:02Z" changeset="92252569" uid="364" user="Edward">
    <nd ref="2639778140"/>
    <nd ref="2639778147"/>
    <nd ref="2639778149"/>
    <nd ref="2639778142"/>
    <nd ref="2639778144"/>
    <nd ref="2639778152"/>
    <nd ref="2639778146"/>
    <nd ref="2639778139"/>
    <nd ref="2639778145"/>
    <nd ref="2639778141"/>
    <nd ref="2639778151"/>
    <nd ref="2639778148"/>
    <nd ref="2639778140"/>
    <tag k="amenity" v="place_of_worship"/>
    <tag k="building" v="church"/>
    <tag k="denomination" v="anglican"/>
    <tag k="name" v="St. Peter &amp; Paul"/>
    <tag k="religion" v="christian"/>
    <tag k="source:name" v="local knowledge"/>
    <tag k="wikidata" v="Q17550457"/>
  </way>
  <way id="261456681" version="2" timestamp="2023-12-23T13:12:07Z" changeset="145436680" uid="742701" user="kerr smith">
    <nd ref="2670727090"/>
    <nd ref="11446225771"/>
    <nd ref="11446225770"/>
    <nd ref="2670727091"/>
    <nd ref="2670727092"/>
    <nd ref="11446225773"/>
    <nd ref="11446225772"/>
    <nd ref="2670727089"/>
    <nd ref="2670727094"/>
    <nd ref="2670727090"/>
    <tag k="building" v="yes"/>
    <tag k="name" v="Rectory Farmhouse"/>
  </way>
  <way id="261456728" version="2" timestamp="2023-12-23T13:12:07Z" changeset="145436680" uid="742701" user="kerr smith">
    <nd ref="2670727333"/>
    <nd ref="2670727334"/>
    <nd ref="2670727335"/>
    <nd ref="2670727336"/>
    <nd ref="2670727333"/>
    <tag k="building" v="yes"/>
    <tag k="name" v="Roosters Lodge"/>
  </way>
  <way id="306854161" version="5" timestamp="2024-12-10T22:07:41Z" changeset="160145819" uid="6476359" user="NSiecw">
    <nd ref="32520620"/>
    <nd ref="1420814414"/>
    <nd ref="5313574"/>
    <nd ref="8946164662"/>
    <nd ref="12410357886"/>
    <nd ref="32533395"/>
    <nd ref="32533396"/>
    <nd ref="5313576"/>
    <nd ref="32533397"/>
    <nd ref="5313578"/>
    <nd ref="5313580"/>
    <tag k="cycleway" v="lane"/>
    <tag k="highway" v="tertiary"/>
    <tag k="lcn" v="cambs_cc"/>
    <tag k="maxspeed" v="40 mph"/>
    <tag k="maxspeed:type" v="sign"/>
    <tag k="name" v="Saint Neots Road"/>
    <tag k="old_ref" v="A45"/>
  </way>
  <way id="316891746" version="25" timestamp="2024-10-28T16:49:49Z" changeset="158464607" uid="1102246" user="jtn20">
    <nd ref="6348070499"/>
    <nd ref="6348070500"/>
    <nd ref="6348070501"/>
    <nd ref="6348070502"/>
    <nd ref="3230759192"/>
    <nd ref="6348070503"/>
    <nd ref="6348070504"/>
    <nd ref="4584072677"/>
    <nd ref="6348070495"/>
    <nd ref="6348070497"/>
    <nd ref="11815129335"/>
    <nd ref="6348070496"/>
    <nd ref="11815129334"/>
    <nd ref="3230759206"/>
    <nd ref="5943980239"/>
    <nd ref="5943980238"/>
    <nd ref="5943980237"/>
    <nd ref="5943980236"/>
    <nd ref="6212798694"/>
    <nd ref="6372509286"/>
    <nd ref="6344948725"/>
    <nd ref="5910413854"/>
    <nd ref="3230759194"/>
    <nd ref="8252553411"/>
    <nd ref="3230759193"/>
    <nd ref="8252553410"/>
    <nd ref="4584028195"/>
    <nd ref="8252553409"/>
    <nd ref="6440249351"/>
    <nd ref="5943980234"/>
    <nd ref="4584028204"/>
    <nd ref="5943980233"/>
    <nd ref="5943980232"/>
    <nd ref="6348070489"/>
    <nd ref="6348070488"/>
    <nd ref="6514805189"/>
    <tag k="highway" v="primary"/>
    <tag k="lanes" v="2"/>
    <tag k="lit" v="no"/>
    <tag k="maxspeed" v="60 mph"/>
    <tag k="maxspeed:type" v="GB:nsl_single"/>
    <tag k="name" v="Huntingdon Road"/>
    <tag k="ref" v="A1307"/>
    <tag k="shoulder" v="no"/>
    <tag k="sidewalk:left" v="no"/>
    <tag k="sidewalk:right" v="separate"/>
    <tag k="surface" v="asphalt"/>
  </way>
  <way id="342402097" version="5" timestamp="2023-05-30T21:40:40Z" changeset="136764319" uid="12045" user="Millsey">
    <nd ref="26661003"/>
    <nd ref="26661171"/>
    <nd ref="4398826948"/>
    <nd ref="775743540"/>
    <nd ref="26661082"/>
    <nd ref="1303790640"/>
    <nd ref="775743535"/>
    <nd ref="26661157"/>
    <nd ref="26661169"/>
    <tag k="abutters" v="residential"/>
    <tag k="highway" v="tertiary"/>
    <tag k="lanes" v="2"/>
    <tag k="maxspeed" v="30 mph"/>
    <tag k="name" v="Park Street"/>
    <tag k="oneway" v="no"/>
    <tag k="source:name" v="local knowledge"/>
    <tag k="surface" v="asphalt"/>
  </way>
  <way id="342402098" version="3" timestamp="2023-05-30T21:40:40Z" changeset="136764319" uid="12045" user="Millsey">
    <nd ref="26661169"/>
    <nd ref="26661096"/>
    <nd ref="7100435514"/>
    <nd ref="26661230"/>
    <tag k="abutters" v="residential"/>
    <tag k="highway" v="tertiary"/>
    <tag k="maxspeed" v="30 mph"/>
    <tag k="name" v="Park Street"/>
    <tag k="oneway" v="no"/>
    <tag k="source:name" v="local knowledge"/>
  </way>
  <way id="463095724" version="18" timestamp="2024-04-09T21:48:19Z" changeset="149795939" uid="5229644" user="Nathan_A_RF">
    <nd ref="4584072999"/>
    <nd ref="11805848743"/>
    <nd ref="8998669539"/>
    <nd ref="4584072997"/>
    <nd ref="4584073021"/>
    <nd ref="11805848742"/>
    <nd ref="4584073014"/>
    <nd ref="11805848741"/>
    <nd ref="4584072996"/>
    <tag k="highway" v="primary"/>
    <tag k="junction" v="roundabout"/>
    <tag k="lane_markings" v="no"/>
    <tag k="maxspeed" v="60 mph"/>
    <tag k="maxspeed:type" v="GB:nsl_single"/>
    <tag k="oneway" v="yes"/>
    <tag k="surface" v="asphalt"/>
  </way>
  <way id="463095729" version="8" timestamp="2021-08-26T13:28:05Z" changeset="110289039" uid="242345" user="confusedbuffalo">
    <nd ref="6126689738"/>
    <nd ref="4584073001"/>
    <nd ref="4398823420"/>
    <nd ref="26660951"/>
    <nd ref="8923157124"/>
    <nd ref="4398823427"/>
    <nd ref="26661128"/>
    <nd ref="4398817251"/>
    <nd ref="26660982"/>
    <nd ref="4398817247"/>
    <nd ref="4398817252"/>
    <nd ref="4398817254"/>
    <nd ref="26661129"/>
    <nd ref="4398817253"/>
    <nd ref="5570014071"/>
    <tag k="highway" v="tertiary"/>
    <tag k="lane_markings" v="no"/>
    <tag k="maxspeed" v="60 mph"/>
    <tag k="maxspeed:type" v="GB:nsl_single"/>
    <tag k="name" v="Oakington Road"/>
    <tag k="surface" v="asphalt"/>
  </way>
  <way id="546459455" version="3" timestamp="2022-05-08T18:49:23Z" changeset="120715252" uid="10633286" user="Moorit">
    <nd ref="9169150545"/>
    <nd ref="5280957358"/>
    <nd ref="5280957359"/>
    <nd ref="9169150544"/>
    <nd ref="9169150545"/>
    <tag k="addr:housenumber" v="21"/>
    <tag k="addr:postcode" v="CB23 8BN"/>
    <tag k="addr:street" v="Scotland Road"/>
    <tag k="building" v="yes"/>
  </way>
  <way id="546459456" version="3" timestamp="2022-05-08T18:49:23Z" changeset="120715252" uid="10633286" user="Moorit">
    <nd ref="7620823471"/>
    <nd ref="5280957365"/>
    <nd ref="5280957362"/>
    <nd ref="7620823472"/>
    <nd ref="7620823471"/>
    <tag k="addr:housenumber" v="20"/>
    <tag k="addr:postcode" v="CB23 8BN"/>
    <tag k="addr:street" v="Scotland Road"/>
    <tag k="building" v="yes"/>
  </way>
  <way id="546459457" version="3" timestamp="2022-05-08T18:49:23Z" changeset="120715252" uid="10633286" user="Moorit">
    <nd ref="7620823473"/>
    <nd ref="5280957369"/>
    <nd ref="5280957366"/>
    <nd ref="7620823474"/>
    <nd ref="7620823473"/>
    <tag k="addr:housenumber" v="18"/>
    <tag k="addr:postcode" v="CB23 8BN"/>
    <tag k="addr:street" v="Scotland Road"/>
    <tag k="building" v="yes"/>
  </way>
  <way id="546459458" version="3" timestamp="2022-05-08T18:49:23Z" changeset="120715252" uid="10633286" user="Moorit">
    <nd ref="7620823475"/>
    <nd ref="5280957373"/>
    <nd ref="5280957370"/>
    <nd ref="7620823476"/>
    <nd ref="7620823475"/>
    <tag k="addr:housenumber" v="16"/>
    <tag k="addr:postcode" v="CB23 8BN"/>
    <tag k="addr:street" v="Scotland Road"/>
    <tag k="building" v="yes"/>
  </way>
  <way id="546459459" version="3" timestamp="2022-05-08T18:49:23Z" changeset="120715252" uid="10633286" user="Moorit">
    <nd ref="7620823477"/>
    <nd ref="5280957377"/>
    <nd ref="5280957374"/>
    <nd ref="7620823478"/>
    <nd ref="7620823477"/>
    <tag k="addr:housenumber" v="14"/>
    <tag k="addr:postcode" v="CB23 8BN"/>
    <tag k="addr:street" v="Scotland Road"/>
    <tag k="building" v="yes"/>
  </way>
  <way id="546459460" version="4" timestamp="2022-05-08T18:49:23Z" changeset="120715252" uid="10633286" user="Moorit">
    <nd ref="7620823479"/>
    <nd ref="5280957381"/>
    <nd ref="5280957378"/>
    <nd ref="7620823480"/>
    <nd ref="7620823479"/>
    <tag k="addr:housenumber" v="12"/>
    <tag k="addr:postcode" v="CB23 8BN"/>
    <tag k="addr:street" v="Scotland Road"/>
    <tag k="building" v="yes"/>
  </way>
  <way id="548349548" version="5" timestamp="2021-06-14T15:35:00Z" changeset="106345588" uid="2400059" user="Pablo Rodriguez">
    <nd ref="5297495839"/>
    <nd ref="5297495840"/>
    <nd ref="5297495841"/>
    <nd ref="5297495842"/>
    <nd ref="5297495839"/>
    <tag k="addr:city" v="Dry Drayton"/>
    <tag k="addr:housenumber" v="2"/>
    <tag k="addr:street" v="High Street"/>
    <tag k="building" v="house"/>
    <tag k="building:levels" v="2"/>
    <tag k="roof:shape" v="gabled"/>
  </way>
  <way id="550663315" version="5" timestamp="2021-06-14T15:29:29Z" changeset="106345588" uid="2400059" user="Pablo Rodriguez">
    <nd ref="5318555457"/>
    <nd ref="5318555458"/>
    <nd ref="5318555459"/>
    <nd ref="5318555460"/>
    <nd ref="5318555457"/>
    <tag k="addr:city" v="Dry Drayton"/>
    <tag k="addr:housenumber" v="3"/>
    <tag k="addr:street" v="High Street"/>
    <tag k="building" v="house"/>
    <tag k="building:levels" v="2"/>
    <tag k="roof:shape" v="gabled"/>
  </way>
  <way id="550663316" version="5" timestamp="2021-06-14T15:34:26Z" changeset="106345588" uid="2400059" user="Pablo Rodriguez">
    <nd ref="5318555461"/>
    <nd ref="5318555462"/>
    <nd ref="5318555463"/>
    <nd ref="5318555464"/>
    <nd ref="5318555461"/>
    <tag k="addr:city" v="Dry Drayton"/>
    <tag k="addr:housenumber" v="1"/>
    <tag k="addr:street" v="High Street"/>
    <tag k="building" v="house"/>
    <tag k="building:levels" v="1"/>
    <tag k="roof:levels" v="1"/>
    <tag k="roof:shape" v="gabled"/>
  </way>
  <way id="550663317" version="6" timestamp="2022-01-28T18:05:12Z" changeset="116717917" uid="2400059" user="Pablo Rodriguez">
    <nd ref="5318555465"/>
    <nd ref="5318555466"/>
    <nd ref="5318555467"/>
    <nd ref="9456125939"/>
    <nd ref="9456125940"/>
    <nd ref="9456125941"/>
    <nd ref="5318555468"/>
    <nd ref="5318555465"/>
    <tag k="addr:city" v="Dry Drayton"/>
    <tag k="addr:housenumber" v="4"/>
    <tag k="addr:street" v="High Street"/>
    <tag k="building" v="house"/>
    <tag k="building:levels" v="2"/>
    <tag k="roof:shape" v="gabled"/>
  </way>
  <way id="550663318" version="6" timestamp="2023-04-20T19:39:52Z" changeset="135165880" uid="6476359" user="NSiecw">
    <nd ref="5318555469"/>
    <nd ref="5318555470"/>
    <nd ref="5318555471"/>
    <nd ref="5318555472"/>
    <nd ref="5318555469"/>
    <tag k="addr:city" v="Dry Drayton"/>
    <tag k="addr:housenumber" v="6"/>
    <tag k="addr:street" v="High Street"/>
    <tag k="building" v="house"/>
    <tag k="building:levels" v="2"/>
    <tag k="roof:shape" v="gabled"/>
  </way>
  <way id="550663319" version="5" timestamp="2022-01-28T18:05:12Z" changeset="116717917" uid="2400059" user="Pablo Rodriguez">
    <nd ref="5318555473"/>
    <nd ref="8825775627"/>
    <nd ref="5318555474"/>
    <nd ref="9456125927"/>
    <nd ref="9456125926"/>
    <nd ref="5318555475"/>
    <nd ref="5318555476"/>
    <nd ref="5318555473"/>
    <tag k="addr:city" v="Dry Drayton"/>
    <tag k="addr:housenumber" v="2"/>
    <tag k="addr:street" v="Cotton's Field"/>
    <tag k="building" v="house"/>
    <tag k="building:levels" v="2"/>
    <tag k="roof:shape" v="gabled"/>
  </way>
  <way id="550663320" version="4" timestamp="2021-06-14T15:32:12Z" changeset="106345588" uid="2400059" user="Pablo Rodriguez">
    <nd ref="5318555477"/>
    <nd ref="5318555478"/>
    <nd ref="5318555479"/>
    <nd ref="5318555480"/>
    <nd ref="5318555481"/>
    <nd ref="5318555482"/>
    <nd ref="5318555477"/>
    <tag k="addr:city" v="Dry Drayton"/>
    <tag k="addr:housenumber" v="4"/>
    <tag k="addr:street" v="Cotton's Field"/>
    <tag k="building" v="house"/>
    <tag k="building:levels" v="2"/>
    <tag k="roof:shape" v="gabled"/>
  </way>
  <way id="550663321" version="5" timestamp="2021-06-14T15:32:25Z" changeset="106345588" uid="2400059" user="Pablo Rodriguez">
    <nd ref="5318555483"/>
    <nd ref="5318555484"/>
    <nd ref="5318555485"/>
    <nd ref="5318555486"/>
    <nd ref="5318555487"/>
    <nd ref="5318555488"/>
    <nd ref="5318555483"/>
    <tag k="addr:city" v="Dry Drayton"/>
    <tag k="addr:housename" v="The Farlands"/>
    <tag k="addr:housenumber" v="1"/>
    <tag k="addr:street" v="Cotton's Field"/>
    <tag k="building" v="house"/>
    <tag k="building:levels" v="2"/>
    <tag k="roof:shape" v="gabled"/>
  </way>
  <way id="550663322" version="4" timestamp="2021-06-14T15:31:48Z" changeset="106345588" uid="2400059" user="Pablo Rodriguez">
    <nd ref="5318555489"/>
    <nd ref="5318555490"/>
    <nd ref="5318555491"/>
    <nd ref="5318555492"/>
    <nd ref="5318555489"/>
    <tag k="addr:city" v="Dry Drayton"/>
    <tag k="addr:housenumber" v="6"/>
    <tag k="addr:street" v="Cotton's Field"/>
    <tag k="building" v="house"/>
    <tag k="building:levels" v="2"/>
    <tag k="roof:shape" v="gabled"/>
  </way>
  <way id="550663323" version="6" timestamp="2021-06-14T15:31:50Z" changeset="106345588" uid="2400059" user="Pablo Rodriguez">
    <nd ref="5318555493"/>
    <nd ref="5318555494"/>
    <nd ref="5318555495"/>
    <nd ref="5318555496"/>
    <nd ref="8825775620"/>
    <nd ref="5318555493"/>
    <tag k="addr:city" v="Dry Drayton"/>
    <tag k="addr:housenumber" v="8"/>
    <tag k="addr:postcode" v="CB23 8DG"/>
    <tag k="addr:street" v="Cotton's Field"/>
    <tag k="building" v="house"/>
    <tag k="building:levels" v="2"/>
    <tag k="roof:shape" v="gabled"/>
  </way>
  <way id="550663324" version="4" timestamp="2021-06-14T15:31:54Z" changeset="106345588" uid="2400059" user="Pablo Rodriguez">
    <nd ref="5318555497"/>
    <nd ref="5318555498"/>
    <nd ref="5318555499"/>
    <nd ref="5318555500"/>
    <nd ref="8825775626"/>
    <nd ref="5318555497"/>
    <tag k="addr:city" v="Dry Drayton"/>
    <tag k="addr:housenumber" v="3"/>
    <tag k="addr:street" v="Cotton's Field"/>
    <tag k="building" v="house"/>
    <tag k="building:levels" v="2"/>
    <tag k="roof:shape" v="gabled"/>
  </way>
  <way id="550663342" version="2" timestamp="2023-01-27T21:57:57Z" changeset="131790059" uid="6218813" user="St Mary Clay">
    <nd ref="5318555579"/>
    <nd ref="5318555580"/>
    <nd ref="5318555581"/>
    <nd ref="10587669241"/>
    <nd ref="5318555582"/>
    <nd ref="5318555583"/>
    <nd ref="5318555584"/>
    <nd ref="5318555579"/>
    <tag k="amenity" v="community_centre"/>
    <tag k="building" v="yes"/>
    <tag k="building:levels" v="1"/>
    <tag k="community_centre" v="village_hall"/>
    <tag k="name" v="Dry Drayton Village Hall"/>
    <tag k="roof:levels" v="1"/>
  </way>
  <way id="550663347" version="5" timestamp="2022-10-09T17:26:53Z" changeset="127259370" uid="2400059" user="Pablo Rodriguez">
    <nd ref="5318555601"/>
    <nd ref="9456125780"/>
    <nd ref="9456125781"/>
    <nd ref="5318555602"/>
    <nd ref="5318555603"/>
    <nd ref="5318555604"/>
    <nd ref="9456125778"/>
    <nd ref="9456125779"/>
    <nd ref="5318555601"/>
    <tag k="addr:housenumber" v="22"/>
    <tag k="addr:street" v="Pettitt's Close"/>
    <tag k="building" v="detached"/>
  </way>
  <way id="550663348" version="5" timestamp="2022-10-09T17:28:06Z" changeset="127259370" uid="2400059" user="Pablo Rodriguez">
    <nd ref="5318555605"/>
    <nd ref="9456125774"/>
    <nd ref="9456125775"/>
    <nd ref="5318555606"/>
    <nd ref="9456125776"/>
    <nd ref="5318555607"/>
    <nd ref="9456125777"/>
    <nd ref="5318555608"/>
    <nd ref="5318555605"/>
    <tag k="addr:housenumber" v="20"/>
    <tag k="addr:street" v="Pettitt's Close"/>
    <tag k="building" v="detached"/>
  </way>
  <way id="550663349" version="5" timestamp="2022-10-09T17:27:20Z" changeset="127259370" uid="2400059" user="Pablo Rodriguez">
    <nd ref="5318555609"/>
    <nd ref="9456125773"/>
    <nd ref="9456125772"/>
    <nd ref="5318555610"/>
    <nd ref="9456125771"/>
    <nd ref="9456125768"/>
    <nd ref="9456125769"/>
    <nd ref="9456125770"/>
    <nd ref="5318555611"/>
    <nd ref="5318555612"/>
    <nd ref="5318555609"/>
    <tag k="addr:housenumber" v="18"/>
    <tag k="addr:street" v="Pettitt's Close"/>
    <tag k="building" v="detached"/>
  </way>
  <way id="550663350" version="5" timestamp="2022-10-09T17:28:09Z" changeset="127259370" uid="2400059" user="Pablo Rodriguez">
    <nd ref="5318555613"/>
    <nd ref="9456125767"/>
    <nd ref="9456125766"/>
    <nd ref="5318555614"/>
    <nd ref="9456125765"/>
    <nd ref="9456125762"/>
    <nd ref="9456125763"/>
    <nd ref="9456125764"/>
    <nd ref="5318555615"/>
    <nd ref="5318555616"/>
    <nd ref="5318555613"/>
    <tag k="addr:housenumber" v="16"/>
    <tag k="addr:street" v="Pettitt's Close"/>
    <tag k="building" v="detached"/>
  </way>
  <way id="550663352" version="4" timestamp="2022-10-09T17:28:13Z" changeset="127259370" uid="2400059" user="Pablo Rodriguez">
    <nd ref="5318555617"/>
    <nd ref="5318555618"/>
    <nd ref="5318555619"/>
    <nd ref="5318555620"/>
    <nd ref="5318555617"/>
    <tag k="addr:housenumber" v="14"/>
    <tag k="addr:street" v="Swifts Close"/>
    <tag k="building" v="detached"/>
  </way>
  <way id="550663353" version="5" timestamp="2022-10-09T17:27:23Z" changeset="127259370" uid="2400059" user="Pablo Rodriguez">
    <nd ref="5318555621"/>
    <nd ref="5318555622"/>
    <nd ref="5318555623"/>
    <nd ref="9456125783"/>
    <nd ref="9456125784"/>
    <nd ref="5318555624"/>
    <nd ref="5318555621"/>
    <tag k="addr:housenumber" v="12"/>
    <tag k="addr:street" v="Pettitt's Close"/>
    <tag k="building" v="detached"/>
  </way>
  <way id="550663354" version="4" timestamp="2022-10-09T17:26:50Z" changeset="127259370" uid="2400059" user="Pablo Rodriguez">
    <nd ref="5318555625"/>
    <nd ref="5318555626"/>
    <nd ref="5318555627"/>
    <nd ref="5318555628"/>
    <nd ref="5318555625"/>
    <tag k="addr:housenumber" v="15"/>
    <tag k="addr:street" v="Pettitt's Close"/>
    <tag k="building" v="detached"/>
  </way>
  <way id="550663355" version="4" timestamp="2022-10-09T17:28:00Z" changeset="127259370" uid="2400059" user="Pablo Rodriguez">
    <nd ref="5318555629"/>
    <nd ref="5318555630"/>
    <nd ref="5318555631"/>
    <nd ref="5318555632"/>
    <nd ref="5318555629"/>
    <tag k="addr:housenumber" v="13"/>
    <tag k="addr:street" v="Pettitt's Close"/>
    <tag k="building" v="detached"/>
  </way>
  <way id="550663356" version="5" timestamp="2022-10-09T17:27:57Z" changeset="127259370" uid="2400059" user="Pablo Rodriguez">
    <nd ref="5318555633"/>
    <nd ref="5318555634"/>
    <nd ref="5318555635"/>
    <nd ref="5318555636"/>
    <nd ref="5318555633"/>
    <tag k="addr:housenumber" v="11"/>
    <tag k="addr:postcode" v="CB23 8DQ"/>
    <tag k="addr:street" v="Pettitt's Close"/>
    <tag k="building" v="detached"/>
  </way>
  <way id="550663357" version="4" timestamp="2022-10-09T17:27:54Z" changeset="127259370" uid="2400059" user="Pablo Rodriguez">
    <nd ref="5318555637"/>
    <nd ref="5318555638"/>
    <nd ref="5318555639"/>
    <nd ref="5318555640"/>
    <nd ref="5318555637"/>
    <tag k="addr:housenumber" v="9"/>
    <tag k="addr:street" v="Pettitt's Close"/>
    <tag k="building" v="detached"/>
  </way>
  <way id="550663358" version="5" timestamp="2022-10-09T17:27:25Z" changeset="127259370" uid="2400059" user="Pablo Rodriguez">
    <nd ref="5318555641"/>
    <nd ref="9456125785"/>
    <nd ref="5318555642"/>
    <nd ref="5318555643"/>
    <nd ref="9456125786"/>
    <nd ref="9456125787"/>
    <nd ref="9456125788"/>
    <nd ref="5318555644"/>
    <nd ref="5318555641"/>
    <tag k="addr:housenumber" v="10"/>
    <tag k="addr:street" v="Pettitt's Close"/>
    <tag k="building" v="detached"/>
  </way>
  <way id="550663359" version="5" timestamp="2022-10-09T17:27:28Z" changeset="127259370" uid="2400059" user="Pablo Rodriguez">
    <nd ref="5318555645"/>
    <nd ref="9456125790"/>
    <nd ref="9456125789"/>
    <nd ref="5318555646"/>
    <nd ref="5318555647"/>
    <nd ref="9456125791"/>
    <nd ref="9456125792"/>
    <nd ref="5318555648"/>
    <nd ref="5318555645"/>
    <tag k="addr:housenumber" v="8"/>
    <tag k="addr:street" v="Pettitt's Close"/>
    <tag k="building" v="detached"/>
  </way>
  <way id="550663360" version="5" timestamp="2022-10-09T17:27:30Z" changeset="127259370" uid="2400059" user="Pablo Rodriguez">
    <nd ref="5318555649"/>
    <nd ref="9456125799"/>
    <nd ref="9456125800"/>
    <nd ref="5318555650"/>
    <nd ref="9456125801"/>
    <nd ref="9456125798"/>
    <nd ref="9456125794"/>
    <nd ref="9456125793"/>
    <nd ref="9456125795"/>
    <nd ref="9456125796"/>
    <nd ref="9456125797"/>
    <nd ref="5318555651"/>
    <nd ref="9456125802"/>
    <nd ref="5318555652"/>
    <nd ref="5318555649"/>
    <tag k="addr:housenumber" v="6"/>
    <tag k="addr:street" v="Pettitt's Close"/>
    <tag k="building" v="detached"/>
  </way>
  <way id="550663361" version="5" timestamp="2022-10-09T17:27:33Z" changeset="127259370" uid="2400059" user="Pablo Rodriguez">
    <nd ref="5318555653"/>
    <nd ref="9456125806"/>
    <nd ref="9456125805"/>
    <nd ref="5318555654"/>
    <nd ref="5318555655"/>
    <nd ref="9456125803"/>
    <nd ref="9456125804"/>
    <nd ref="5318555656"/>
    <nd ref="5318555653"/>
    <tag k="addr:housenumber" v="4"/>
    <tag k="addr:street" v="Pettitt's Close"/>
    <tag k="building" v="detached"/>
  </way>
  <way id="550663362" version="5" timestamp="2022-10-09T17:27:35Z" changeset="127259370" uid="2400059" user="Pablo Rodriguez">
    <nd ref="5318555657"/>
    <nd ref="5318555658"/>
    <nd ref="9456125809"/>
    <nd ref="9456125808"/>
    <nd ref="5318555659"/>
    <nd ref="9456125807"/>
    <nd ref="9456125810"/>
    <nd ref="5318555660"/>
    <nd ref="5318555657"/>
    <tag k="addr:housenumber" v="2"/>
    <tag k="addr:street" v="Pettitt's Close"/>
    <tag k="building" v="detached"/>
  </way>
  <way id="550663363" version="4" timestamp="2022-10-09T17:27:46Z" changeset="127259370" uid="2400059" user="Pablo Rodriguez">
    <nd ref="5318555661"/>
    <nd ref="5318555662"/>
    <nd ref="5318555663"/>
    <nd ref="5318555664"/>
    <nd ref="5318555661"/>
    <tag k="addr:housenumber" v="5"/>
    <tag k="addr:street" v="Pettitt's Close"/>
    <tag k="building" v="detached"/>
  </way>
  <way id="550663364" version="4" timestamp="2022-10-09T17:27:42Z" changeset="127259370" uid="2400059" user="Pablo Rodriguez">
    <nd ref="5318555665"/>
    <nd ref="5318555666"/>
    <nd ref="5318555667"/>
    <nd ref="5318555668"/>
    <nd ref="5318555665"/>
    <tag k="addr:housenumber" v="1"/>
    <tag k="addr:street" v="Pettitt's Close"/>
    <tag k="building" v="detached"/>
  </way>
  <way id="550663366" version="4" timestamp="2022-10-09T17:27:44Z" changeset="127259370" uid="2400059" user="Pablo Rodriguez">
    <nd ref="5318555669"/>
    <nd ref="5318555670"/>
    <nd ref="5318555671"/>
    <nd ref="5318555672"/>
    <nd ref="5318555669"/>
    <tag k="addr:housenumber" v="3"/>
    <tag k="addr:street" v="Pettitt's Close"/>
    <tag k="building" v="detached"/>
  </way>
  <way id="550663367" version="4" timestamp="2022-10-09T17:27:49Z" changeset="127259370" uid="2400059" user="Pablo Rodriguez">
    <nd ref="5318555673"/>
    <nd ref="5318555674"/>
    <nd ref="5318555675"/>
    <nd ref="5318555676"/>
    <nd ref="5318555673"/>
    <tag k="addr:housenumber" v="7"/>
    <tag k="addr:street" v="Pettitt's Close"/>
    <tag k="building" v="detached"/>
  </way>
  <way id="550663368" version="5" timestamp="2022-10-09T17:27:38Z" changeset="127259370" uid="2400059" user="Pablo Rodriguez">
    <nd ref="5318555677"/>
    <nd ref="9456125813"/>
    <nd ref="9456125814"/>
    <nd ref="5318555678"/>
    <nd ref="5318555679"/>
    <nd ref="5318555680"/>
    <nd ref="9456125811"/>
    <nd ref="9456125812"/>
    <nd ref="5318555677"/>
    <tag k="addr:housenumber" v="61"/>
    <tag k="addr:street" v="Pettitt's Close"/>
    <tag k="building" v="detached"/>
  </way>
  <way id="550663369" version="5" timestamp="2022-10-09T17:21:14Z" changeset="127259370" uid="2400059" user="Pablo Rodriguez">
    <nd ref="5318555681"/>
    <nd ref="9456125816"/>
    <nd ref="9456125815"/>
    <nd ref="5318555682"/>
    <nd ref="5318555683"/>
    <nd ref="9456125820"/>
    <nd ref="9456125819"/>
    <nd ref="9456125818"/>
    <nd ref="9456125817"/>
    <nd ref="5318555684"/>
    <nd ref="5318555681"/>
    <tag k="addr:housenumber" v="63"/>
    <tag k="addr:street" v="Pettitt's Lane"/>
    <tag k="building" v="detached"/>
  </way>
  <way id="550663370" version="4" timestamp="2022-10-09T17:21:12Z" changeset="127259370" uid="2400059" user="Pablo Rodriguez">
    <nd ref="5318555685"/>
    <nd ref="5318555686"/>
    <nd ref="5318555687"/>
    <nd ref="5318555688"/>
    <nd ref="5318555689"/>
    <nd ref="5318555690"/>
    <nd ref="5318555691"/>
    <nd ref="5318555692"/>
    <nd ref="5318555693"/>
    <nd ref="5318555694"/>
    <nd ref="5318555685"/>
    <tag k="addr:housenumber" v="65"/>
    <tag k="addr:street" v="Pettitt's Lane"/>
    <tag k="building" v="detached"/>
  </way>
  <way id="550663373" version="2" timestamp="2023-02-06T16:53:19Z" changeset="132166206" uid="54831" user="Mex">
    <nd ref="5318555696"/>
    <nd ref="5318555697"/>
    <nd ref="5318555698"/>
    <nd ref="5318555699"/>
    <nd ref="5318555700"/>
    <nd ref="5318555701"/>
    <nd ref="5318555702"/>
    <nd ref="5318555703"/>
    <nd ref="5318555696"/>
    <tag k="building" v="yes"/>
    <tag k="name" v="Honey Hill Cottage"/>
  </way>
  <way id="550663377" version="4" timestamp="2022-10-09T17:21:22Z" changeset="127259370" uid="2400059" user="Pablo Rodriguez">
    <nd ref="5318555708"/>
    <nd ref="5318555709"/>
    <nd ref="5318555710"/>
    <nd ref="5318555711"/>
    <nd ref="5318555712"/>
    <nd ref="5318555713"/>
    <nd ref="5318555714"/>
    <nd ref="5318555715"/>
    <nd ref="5318555708"/>
    <tag k="addr:housenumber" v="44A"/>
    <tag k="addr:street" v="Pettitt's Lane"/>
    <tag k="building" v="detached"/>
  </way>
  <way id="550663378" version="4" timestamp="2022-10-09T17:22:09Z" changeset="127259370" uid="2400059" user="Pablo Rodriguez">
    <nd ref="5318555716"/>
    <nd ref="5318555717"/>
    <nd ref="5318555718"/>
    <nd ref="5318555719"/>
    <nd ref="5318555716"/>
    <tag k="addr:housenumber" v="44"/>
    <tag k="addr:street" v="Pettitt's Lane"/>
    <tag k="building" v="detached"/>
  </way>
  <way id="550663379" version="4" timestamp="2022-10-09T17:22:13Z" changeset="127259370" uid="2400059" user="Pablo Rodriguez">
    <nd ref="5318555720"/>
    <nd ref="5318555721"/>
    <nd ref="5318555722"/>
    <nd ref="5318555723"/>
    <nd ref="5318555724"/>
    <nd ref="5318555725"/>
    <nd ref="5318555726"/>
    <nd ref="5318555727"/>
    <nd ref="5318555728"/>
    <nd ref="5318555729"/>
    <nd ref="5318555730"/>
    <nd ref="5318555731"/>
    <nd ref="5318555720"/>
    <tag k="addr:housenumber" v="42"/>
    <tag k="addr:street" v="Pettitt's Lane"/>
    <tag k="building" v="detached"/>
  </way>
  <way id="550663381" version="4" timestamp="2022-10-09T17:28:23Z" changeset="127259370" uid="2400059" user="Pablo Rodriguez">
    <nd ref="5318555732"/>
    <nd ref="5318555733"/>
    <nd ref="5318555734"/>
    <nd ref="5318555735"/>
    <nd ref="5318555736"/>
    <nd ref="5318555737"/>
    <nd ref="5318555732"/>
    <tag k="addr:housenumber" v="40"/>
    <tag k="addr:street" v="Pettitt's Lane"/>
    <tag k="building" v="detached"/>
  </way>
  <way id="550663382" version="4" timestamp="2022-10-09T17:28:20Z" changeset="127259370" uid="2400059" user="Pablo Rodriguez">
    <nd ref="5318555738"/>
    <nd ref="5318555739"/>
    <nd ref="5318555740"/>
    <nd ref="5318555741"/>
    <nd ref="5318555742"/>
    <nd ref="5318555743"/>
    <nd ref="5318555738"/>
    <tag k="addr:housenumber" v="38"/>
    <tag k="addr:street" v="Pettitt's Lane"/>
    <tag k="building" v="detached"/>
  </way>
  <way id="550663383" version="4" timestamp="2022-10-09T17:28:26Z" changeset="127259370" uid="2400059" user="Pablo Rodriguez">
    <nd ref="5318555744"/>
    <nd ref="5318555745"/>
    <nd ref="5318555746"/>
    <nd ref="5318555747"/>
    <nd ref="5318555748"/>
    <nd ref="5318555749"/>
    <nd ref="5318555744"/>
    <tag k="addr:housenumber" v="36"/>
    <tag k="addr:street" v="Pettitt's Lane"/>
    <tag k="building" v="detached"/>
  </way>
  <way id="550663384" version="5" timestamp="2022-10-09T17:28:32Z" changeset="127259370" uid="2400059" user="Pablo Rodriguez">
    <nd ref="5318555750"/>
    <nd ref="5318555751"/>
    <nd ref="5318555752"/>
    <nd ref="5318555753"/>
    <nd ref="5318555754"/>
    <nd ref="5318555755"/>
    <nd ref="5318555756"/>
    <nd ref="5318555757"/>
    <nd ref="5318555758"/>
    <nd ref="9456125828"/>
    <nd ref="9456125827"/>
    <nd ref="5318555759"/>
    <nd ref="9456125826"/>
    <nd ref="9456125825"/>
    <nd ref="9456125824"/>
    <nd ref="9456125823"/>
    <nd ref="9456125822"/>
    <nd ref="9456125821"/>
    <nd ref="5318555750"/>
    <tag k="addr:housenumber" v="34"/>
    <tag k="addr:street" v="Pettitt's Lane"/>
    <tag k="building" v="detached"/>
  </way>
  <way id="550663386" version="5" timestamp="2022-10-09T17:28:37Z" changeset="127259370" uid="2400059" user="Pablo Rodriguez">
    <nd ref="5318555763"/>
    <nd ref="5318555764"/>
    <nd ref="5318555765"/>
    <nd ref="9456125760"/>
    <nd ref="9456125758"/>
    <nd ref="9456125759"/>
    <nd ref="9456125761"/>
    <nd ref="5318555766"/>
    <nd ref="5318555767"/>
    <nd ref="5318555768"/>
    <nd ref="5318555763"/>
    <tag k="addr:housenumber" v="28"/>
    <tag k="addr:street" v="Pettitt's Lane"/>
    <tag k="building" v="detached"/>
  </way>
  <way id="550663387" version="4" timestamp="2022-10-09T17:28:58Z" changeset="127259370" uid="2400059" user="Pablo Rodriguez">
    <nd ref="5318555769"/>
    <nd ref="5318555770"/>
    <nd ref="5318555771"/>
    <nd ref="5318555772"/>
    <nd ref="5318555773"/>
    <nd ref="5318555774"/>
    <nd ref="5318555775"/>
    <nd ref="5318555776"/>
    <nd ref="5318555769"/>
    <tag k="addr:housenumber" v="24"/>
    <tag k="addr:street" v="Pettitt's Lane"/>
    <tag k="building" v="detached"/>
  </way>
  <way id="550663388" version="6" timestamp="2022-10-09T17:28:50Z" changeset="127259370" uid="2400059" user="Pablo Rodriguez">
    <nd ref="5318555777"/>
    <nd ref="5318555778"/>
    <nd ref="5318555779"/>
    <nd ref="9456125757"/>
    <nd ref="9456125756"/>
    <nd ref="5318555781"/>
    <nd ref="9456125755"/>
    <nd ref="9456125754"/>
    <nd ref="5318555782"/>
    <nd ref="5318555777"/>
    <tag k="addr:housenumber" v="22"/>
    <tag k="addr:postcode" v="CB23 8BT"/>
    <tag k="addr:street" v="Pettitt's Lane"/>
    <tag k="building" v="detached"/>
  </way>
  <way id="550663389" version="5" timestamp="2022-10-09T17:14:17Z" changeset="127259370" uid="2400059" user="Pablo Rodriguez">
    <nd ref="5318555783"/>
    <nd ref="9456125752"/>
    <nd ref="9456125753"/>
    <nd ref="5318555784"/>
    <nd ref="5318555785"/>
    <nd ref="9456125748"/>
    <nd ref="9456125747"/>
    <nd ref="9456125746"/>
    <nd ref="9456125749"/>
    <nd ref="5318555786"/>
    <nd ref="9456125750"/>
    <nd ref="9456125751"/>
    <nd ref="5318555783"/>
    <tag k="addr:housenumber" v="20"/>
    <tag k="addr:street" v="Pettitt's Lane"/>
    <tag k="building" v="detached"/>
  </way>
  <way id="550663390" version="4" timestamp="2022-10-09T17:29:27Z" changeset="127259370" uid="2400059" user="Pablo Rodriguez">
    <nd ref="5318555787"/>
    <nd ref="5318555788"/>
    <nd ref="5318555789"/>
    <nd ref="5318555790"/>
    <nd ref="5318555787"/>
    <tag k="addr:housenumber" v="18"/>
    <tag k="addr:street" v="Pettitt's Lane"/>
    <tag k="building" v="detached"/>
  </way>
  <way id="550663392" version="5" timestamp="2022-10-09T17:29:51Z" changeset="127259370" uid="2400059" user="Pablo Rodriguez">
    <nd ref="5318555791"/>
    <nd ref="9456125734"/>
    <nd ref="9456125735"/>
    <nd ref="9456125736"/>
    <nd ref="9456125737"/>
    <nd ref="5318555792"/>
    <nd ref="5318555793"/>
    <nd ref="5318555794"/>
    <nd ref="9456125733"/>
    <nd ref="9456125732"/>
    <nd ref="5318555791"/>
    <tag k="addr:housenumber" v="16"/>
    <tag k="addr:street" v="Pettitt's Lane"/>
    <tag k="building" v="detached"/>
  </way>
  <way id="550663393" version="4" timestamp="2022-10-09T17:29:46Z" changeset="127259370" uid="2400059" user="Pablo Rodriguez">
    <nd ref="5318555795"/>
    <nd ref="5318555796"/>
    <nd ref="5318555797"/>
    <nd ref="5318555798"/>
    <nd ref="5318555795"/>
    <tag k="addr:housenumber" v="14"/>
    <tag k="addr:street" v="Pettitt's Lane"/>
    <tag k="building" v="detached"/>
  </way>
  <way id="550663394" version="5" timestamp="2022-10-09T17:29:48Z" changeset="127259370" uid="2400059" user="Pablo Rodriguez">
    <nd ref="5318555799"/>
    <nd ref="9456125723"/>
    <nd ref="9456125724"/>
    <nd ref="9456125725"/>
    <nd ref="9456125726"/>
    <nd ref="5318555800"/>
    <nd ref="5318555801"/>
    <nd ref="5318555802"/>
    <nd ref="9456125727"/>
    <nd ref="5318555805"/>
    <nd ref="5318555799"/>
    <tag k="addr:housenumber" v="12"/>
    <tag k="addr:street" v="Pettitt's Lane"/>
    <tag k="building" v="detached"/>
  </way>
  <way id="550663395" version="5" timestamp="2022-10-09T17:29:54Z" changeset="127259370" uid="2400059" user="Pablo Rodriguez">
    <nd ref="5318555803"/>
    <nd ref="9456125721"/>
    <nd ref="9456125722"/>
    <nd ref="5318555799"/>
    <nd ref="5318555805"/>
    <nd ref="9456125719"/>
    <nd ref="9456125720"/>
    <nd ref="5318555806"/>
    <nd ref="5318555803"/>
    <tag k="addr:housenumber" v="10"/>
    <tag k="addr:street" v="Pettitt's Lane"/>
    <tag k="building" v="detached"/>
  </way>
  <way id="550663396" version="4" timestamp="2022-10-09T17:29:57Z" changeset="127259370" uid="2400059" user="Pablo Rodriguez">
    <nd ref="5318555807"/>
    <nd ref="5318555808"/>
    <nd ref="5318555809"/>
    <nd ref="5318555810"/>
    <nd ref="5318555811"/>
    <nd ref="5318555812"/>
    <nd ref="5318555807"/>
    <tag k="addr:housenumber" v="8"/>
    <tag k="addr:street" v="Pettitt's Lane"/>
    <tag k="building" v="detached"/>
  </way>
  <way id="550663398" version="3" timestamp="2021-06-11T17:37:07Z" changeset="106227048" uid="2400059" user="Pablo Rodriguez">
    <nd ref="5318555819"/>
    <nd ref="5318555820"/>
    <nd ref="5318555821"/>
    <nd ref="8825767706"/>
    <nd ref="8825767705"/>
    <nd ref="8825767704"/>
    <nd ref="8825767703"/>
    <nd ref="5318555822"/>
    <nd ref="5318555819"/>
    <tag k="addr:housenumber" v="6"/>
    <tag k="addr:street" v="Pettitt's Lane"/>
    <tag k="building" v="detached"/>
    <tag k="building:levels" v="1"/>
  </way>
  <way id="550663399" version="4" timestamp="2022-01-28T18:05:12Z" changeset="116717917" uid="2400059" user="Pablo Rodriguez">
    <nd ref="5318555823"/>
    <nd ref="8825767707"/>
    <nd ref="8825767708"/>
    <nd ref="5318555824"/>
    <nd ref="5318555825"/>
    <nd ref="5318555826"/>
    <nd ref="5318555827"/>
    <nd ref="5318555828"/>
    <nd ref="9456125905"/>
    <nd ref="9456125906"/>
    <nd ref="9456125907"/>
    <nd ref="9456125904"/>
    <nd ref="9456125901"/>
    <nd ref="9456125899"/>
    <nd ref="9456125900"/>
    <nd ref="9456125898"/>
    <nd ref="9456125902"/>
    <nd ref="9456125903"/>
    <nd ref="5318555823"/>
    <tag k="addr:city" v="Dry Drayton"/>
    <tag k="addr:housenumber" v="9"/>
    <tag k="addr:street" v="Cotton's Field"/>
    <tag k="building" v="house"/>
  </way>
  <way id="550663400" version="4" timestamp="2021-06-14T15:32:04Z" changeset="106345588" uid="2400059" user="Pablo Rodriguez">
    <nd ref="5318555829"/>
    <nd ref="5318555830"/>
    <nd ref="5318555831"/>
    <nd ref="5318555832"/>
    <nd ref="5318555833"/>
    <nd ref="5318555834"/>
    <nd ref="5318555835"/>
    <nd ref="5318555836"/>
    <nd ref="5318555829"/>
    <tag k="addr:city" v="Dry Drayton"/>
    <tag k="addr:housenumber" v="11"/>
    <tag k="addr:street" v="Cotton's Field"/>
    <tag k="building" v="house"/>
    <tag k="building:levels" v="2"/>
    <tag k="roof:shape" v="gabled"/>
  </way>
  <way id="550663401" version="4" timestamp="2021-06-14T15:31:57Z" changeset="106345588" uid="2400059" user="Pablo Rodriguez">
    <nd ref="5318555837"/>
    <nd ref="5318555838"/>
    <nd ref="5318555839"/>
    <nd ref="5318555840"/>
    <nd ref="5318555841"/>
    <nd ref="5318555842"/>
    <nd ref="8825775617"/>
    <nd ref="8825775618"/>
    <nd ref="5318555837"/>
    <tag k="addr:city" v="Dry Drayton"/>
    <tag k="addr:housenumber" v="5"/>
    <tag k="addr:street" v="Cotton's Field"/>
    <tag k="building" v="house"/>
    <tag k="building:levels" v="2"/>
    <tag k="roof:shape" v="gabled"/>
  </way>
  <way id="550663402" version="4" timestamp="2021-06-14T15:32:01Z" changeset="106345588" uid="2400059" user="Pablo Rodriguez">
    <nd ref="5318555843"/>
    <nd ref="5318555844"/>
    <nd ref="8825767714"/>
    <nd ref="8825767715"/>
    <nd ref="8825767716"/>
    <nd ref="8825767713"/>
    <nd ref="5318555845"/>
    <nd ref="5318555846"/>
    <nd ref="5318555843"/>
    <tag k="addr:city" v="Dry Drayton"/>
    <tag k="addr:housenumber" v="7"/>
    <tag k="addr:street" v="Cotton's Field"/>
    <tag k="building" v="house"/>
    <tag k="building:levels" v="2"/>
    <tag k="roof:shape" v="gabled"/>
  </way>
  <way id="550663411" version="3" timestamp="2021-06-11T17:37:07Z" changeset="106227048" uid="2400059" user="Pablo Rodriguez">
    <nd ref="5318555877"/>
    <nd ref="8825767698"/>
    <nd ref="8825767697"/>
    <nd ref="5318555878"/>
    <nd ref="5318555879"/>
    <nd ref="5318555880"/>
    <nd ref="5318555877"/>
    <tag k="addr:housenumber" v="2"/>
    <tag k="addr:street" v="Pettitt's Lane"/>
    <tag k="building" v="detached"/>
  </way>
  <way id="550663412" version="3" timestamp="2021-06-11T17:37:07Z" changeset="106227048" uid="2400059" user="Pablo Rodriguez">
    <nd ref="5318555881"/>
    <nd ref="8825767700"/>
    <nd ref="8825767699"/>
    <nd ref="5318555882"/>
    <nd ref="5318555883"/>
    <nd ref="8825767702"/>
    <nd ref="8825767701"/>
    <nd ref="5318555884"/>
    <nd ref="5318555881"/>
    <tag k="addr:housenumber" v="4"/>
    <tag k="addr:street" v="Pettitt's Lane"/>
    <tag k="building" v="detached"/>
    <tag k="building:levels" v="1"/>
  </way>
  <way id="550663413" version="4" timestamp="2021-05-18T09:46:13Z" changeset="104879855" uid="2400059" user="Pablo Rodriguez">
    <nd ref="5318555885"/>
    <nd ref="5318555886"/>
    <nd ref="5318555887"/>
    <nd ref="5318555888"/>
    <nd ref="5318555885"/>
    <tag k="addr:city" v="Dry Drayton"/>
    <tag k="addr:housenumber" v="52"/>
    <tag k="addr:street" v="High Street"/>
    <tag k="building" v="semidetached_house"/>
    <tag k="building:levels" v="2"/>
  </way>
  <way id="550663414" version="5" timestamp="2021-05-18T09:46:13Z" changeset="104879855" uid="2400059" user="Pablo Rodriguez">
    <nd ref="5318555889"/>
    <nd ref="8741898482"/>
    <nd ref="8741898483"/>
    <nd ref="8741898484"/>
    <nd ref="5318555891"/>
    <nd ref="5318555892"/>
    <nd ref="5318555889"/>
    <tag k="addr:city" v="Dry Drayton"/>
    <tag k="addr:housename" v="The Laurels"/>
    <tag k="addr:housenumber" v="50a"/>
    <tag k="addr:street" v="High Street"/>
    <tag k="building" v="detached"/>
    <tag k="building:levels" v="1"/>
    <tag k="roof:levels" v="1"/>
    <tag k="roof:shape" v="many"/>
  </way>
  <way id="550663416" version="4" timestamp="2021-05-19T08:45:07Z" changeset="104943113" uid="2400059" user="Pablo Rodriguez">
    <nd ref="5318555893"/>
    <nd ref="5318555894"/>
    <nd ref="5318555895"/>
    <nd ref="5318555896"/>
    <nd ref="5318555893"/>
    <tag k="addr:housenumber" v="1"/>
    <tag k="addr:street" v="Pettitt's Lane"/>
    <tag k="building" v="detached"/>
    <tag k="building:levels" v="1"/>
  </way>
  <way id="550663417" version="4" timestamp="2021-05-19T08:45:07Z" changeset="104943113" uid="2400059" user="Pablo Rodriguez">
    <nd ref="5318555897"/>
    <nd ref="5318555898"/>
    <nd ref="5318555899"/>
    <nd ref="5318555900"/>
    <nd ref="5318555897"/>
    <tag k="addr:housenumber" v="3"/>
    <tag k="addr:street" v="Pettitt's Lane"/>
    <tag k="building" v="detached"/>
    <tag k="building:levels" v="1"/>
  </way>
  <way id="550663418" version="3" timestamp="2022-10-09T17:05:54Z" changeset="127259281" uid="2400059" user="Pablo Rodriguez">
    <nd ref="5318555901"/>
    <nd ref="5318555902"/>
    <nd ref="5318555903"/>
    <nd ref="5318555904"/>
    <nd ref="5318555901"/>
    <tag k="addr:housenumber" v="5"/>
    <tag k="addr:street" v="Pettitt's Lane"/>
    <tag k="building" v="detached"/>
  </way>
  <way id="550663419" version="4" timestamp="2022-10-09T17:07:39Z" changeset="127259370" uid="2400059" user="Pablo Rodriguez">
    <nd ref="5318555905"/>
    <nd ref="5318555906"/>
    <nd ref="5318555907"/>
    <nd ref="5318555908"/>
    <nd ref="5318555905"/>
    <tag k="addr:housenumber" v="7"/>
    <tag k="addr:street" v="Pettitt's Lane"/>
    <tag k="building" v="detached"/>
  </way>
  <way id="550663420" version="5" timestamp="2022-10-30T15:45:55Z" changeset="128252576" uid="2400059" user="Pablo Rodriguez">
    <nd ref="9456126179"/>
    <nd ref="5318555912"/>
    <nd ref="5318555909"/>
    <nd ref="9456126180"/>
    <nd ref="9456126179"/>
    <tag k="addr:housenumber" v="9"/>
    <tag k="addr:street" v="Pettitt's Lane"/>
    <tag k="building" v="semidetached_house"/>
  </way>
  <way id="550663422" version="4" timestamp="2022-10-09T17:10:25Z" changeset="127259370" uid="2400059" user="Pablo Rodriguez">
    <nd ref="5318556021"/>
    <nd ref="5318556022"/>
    <nd ref="5318556023"/>
    <nd ref="5318556024"/>
    <nd ref="5318556025"/>
    <nd ref="5318556026"/>
    <nd ref="5318556021"/>
    <tag k="addr:housenumber" v="15"/>
    <tag k="addr:street" v="Pettitt's Lane"/>
    <tag k="building" v="detached"/>
  </way>
  <way id="550663423" version="4" timestamp="2022-10-09T17:14:06Z" changeset="127259370" uid="2400059" user="Pablo Rodriguez">
    <nd ref="5318556027"/>
    <nd ref="5318556028"/>
    <nd ref="5318556029"/>
    <nd ref="5318556030"/>
    <nd ref="5318556027"/>
    <tag k="addr:housenumber" v="17,19"/>
    <tag k="addr:street" v="Pettitt's Lane"/>
    <tag k="building" v="semidetached_house"/>
  </way>
  <way id="550663424" version="5" timestamp="2022-10-09T17:29:21Z" changeset="127259370" uid="2400059" user="Pablo Rodriguez">
    <nd ref="5318556031"/>
    <nd ref="5318556032"/>
    <nd ref="5318556033"/>
    <nd ref="9456125829"/>
    <nd ref="9456125830"/>
    <nd ref="5318556034"/>
    <nd ref="5318556031"/>
    <tag k="addr:housenumber" v="21"/>
    <tag k="addr:street" v="Pettitt's Lane"/>
    <tag k="building" v="detached"/>
  </way>
  <way id="550663425" version="4" timestamp="2022-10-09T17:28:42Z" changeset="127259370" uid="2400059" user="Pablo Rodriguez">
    <nd ref="5318556035"/>
    <nd ref="5318556036"/>
    <nd ref="5318556037"/>
    <nd ref="5318556038"/>
    <nd ref="5318556035"/>
    <tag k="addr:housenumber" v="23"/>
    <tag k="addr:street" v="Pettitt's Lane"/>
    <tag k="building" v="detached"/>
  </way>
  <way id="550663426" version="4" timestamp="2022-10-09T17:28:40Z" changeset="127259370" uid="2400059" user="Pablo Rodriguez">
    <nd ref="5318556039"/>
    <nd ref="5318556040"/>
    <nd ref="5318556041"/>
    <nd ref="5318556042"/>
    <nd ref="5318556043"/>
    <nd ref="5318556044"/>
    <nd ref="5318556045"/>
    <nd ref="5318556046"/>
    <nd ref="5318556039"/>
    <tag k="addr:housenumber" v="25"/>
    <tag k="addr:street" v="Pettitt's Lane"/>
    <tag k="building" v="detached"/>
  </way>
  <way id="550663428" version="4" timestamp="2022-10-09T17:28:29Z" changeset="127259370" uid="2400059" user="Pablo Rodriguez">
    <nd ref="5318556047"/>
    <nd ref="5318556048"/>
    <nd ref="5318556049"/>
    <nd ref="5318556050"/>
    <nd ref="5318556051"/>
    <nd ref="5318556052"/>
    <nd ref="5318556047"/>
    <tag k="addr:housenumber" v="27"/>
    <tag k="addr:street" v="Pettitt's Lane"/>
    <tag k="building" v="detached"/>
  </way>
  <way id="550663429" version="5" timestamp="2023-01-27T22:04:29Z" changeset="131790213" uid="6218813" user="St Mary Clay">
    <nd ref="5318556053"/>
    <nd ref="5318556054"/>
    <nd ref="5318556055"/>
    <nd ref="5318556056"/>
    <nd ref="5318556053"/>
    <tag k="addr:housename" v="Hill Cottage"/>
    <tag k="addr:housenumber" v="32"/>
    <tag k="addr:street" v="Pettitt's Lane"/>
    <tag k="building" v="detached"/>
  </way>
  <way id="550663430" version="4" timestamp="2021-05-18T09:46:13Z" changeset="104879855" uid="2400059" user="Pablo Rodriguez">
    <nd ref="5318556057"/>
    <nd ref="5318556058"/>
    <nd ref="5318556059"/>
    <nd ref="5318556060"/>
    <nd ref="5318556057"/>
    <tag k="addr:city" v="Dry Drayton"/>
    <tag k="addr:housenumber" v="47"/>
    <tag k="addr:street" v="High Street"/>
    <tag k="building" v="semidetached_house"/>
    <tag k="building:levels" v="2"/>
  </way>
  <way id="550663431" version="4" timestamp="2021-05-18T09:46:13Z" changeset="104879855" uid="2400059" user="Pablo Rodriguez">
    <nd ref="5318556061"/>
    <nd ref="5318556062"/>
    <nd ref="5318556063"/>
    <nd ref="5318556064"/>
    <nd ref="5318556061"/>
    <tag k="addr:city" v="Dry Drayton"/>
    <tag k="addr:housenumber" v="51"/>
    <tag k="addr:street" v="High Street"/>
    <tag k="building" v="semidetached_house"/>
    <tag k="building:levels" v="2"/>
  </way>
  <way id="550663432" version="4" timestamp="2021-05-18T09:46:13Z" changeset="104879855" uid="2400059" user="Pablo Rodriguez">
    <nd ref="8741898475"/>
    <nd ref="5318556066"/>
    <nd ref="5318556067"/>
    <nd ref="5318556068"/>
    <nd ref="8741898475"/>
    <tag k="addr:city" v="Dry Drayton"/>
    <tag k="addr:housenumber" v="55"/>
    <tag k="addr:street" v="High Street"/>
    <tag k="building" v="semidetached_house"/>
    <tag k="building:levels" v="2"/>
  </way>
  <way id="550663433" version="4" timestamp="2021-05-18T09:46:13Z" changeset="104879855" uid="2400059" user="Pablo Rodriguez">
    <nd ref="5318556069"/>
    <nd ref="5318556070"/>
    <nd ref="5318556071"/>
    <nd ref="5318556072"/>
    <nd ref="5318556069"/>
    <tag k="addr:city" v="Dry Drayton"/>
    <tag k="addr:housenumber" v="54"/>
    <tag k="addr:street" v="High Street"/>
    <tag k="building" v="semidetached_house"/>
    <tag k="building:levels" v="2"/>
  </way>
  <way id="550663434" version="4" timestamp="2021-05-18T09:46:13Z" changeset="104879855" uid="2400059" user="Pablo Rodriguez">
    <nd ref="5318556073"/>
    <nd ref="5318556074"/>
    <nd ref="5318556075"/>
    <nd ref="5318556076"/>
    <nd ref="5318556077"/>
    <nd ref="5318556078"/>
    <nd ref="5318556073"/>
    <tag k="addr:city" v="Dry Drayton"/>
    <tag k="addr:housenumber" v="57"/>
    <tag k="addr:street" v="High Street"/>
    <tag k="building" v="detached"/>
    <tag k="building:levels" v="2"/>
  </way>
  <way id="550663436" version="3" timestamp="2022-05-06T20:39:35Z" changeset="120646514" uid="10633286" user="Moorit">
    <nd ref="5318556085"/>
    <nd ref="5318556086"/>
    <nd ref="5318556087"/>
    <nd ref="9456125883"/>
    <nd ref="9456125882"/>
    <nd ref="5318556088"/>
    <nd ref="5318556089"/>
    <nd ref="5318556090"/>
    <nd ref="9456125880"/>
    <nd ref="9456125881"/>
    <nd ref="5318556085"/>
    <tag k="addr:city" v="Dry Drayton"/>
    <tag k="addr:housenumber" v="60"/>
    <tag k="addr:street" v="High Street"/>
    <tag k="building" v="yes"/>
  </way>
  <way id="550663437" version="3" timestamp="2022-05-06T20:39:35Z" changeset="120646514" uid="10633286" user="Moorit">
    <nd ref="5318556091"/>
    <nd ref="9456125873"/>
    <nd ref="9456125872"/>
    <nd ref="9456125869"/>
    <nd ref="9456125868"/>
    <nd ref="9456125871"/>
    <nd ref="9456125870"/>
    <nd ref="5318556092"/>
    <nd ref="5318556093"/>
    <nd ref="9456125879"/>
    <nd ref="9456125878"/>
    <nd ref="5318556094"/>
    <nd ref="5318556091"/>
    <tag k="addr:city" v="Dry Drayton"/>
    <tag k="addr:housenumber" v="62"/>
    <tag k="addr:street" v="High Street"/>
    <tag k="building" v="yes"/>
  </way>
  <way id="550663438" version="3" timestamp="2022-05-06T20:39:35Z" changeset="120646514" uid="10633286" user="Moorit">
    <nd ref="9456125861"/>
    <nd ref="9456125858"/>
    <nd ref="9456125859"/>
    <nd ref="9456125860"/>
    <nd ref="5318556096"/>
    <nd ref="5318556097"/>
    <nd ref="9456125865"/>
    <nd ref="9456125864"/>
    <nd ref="9456125863"/>
    <nd ref="9456125862"/>
    <nd ref="9456125867"/>
    <nd ref="5318556099"/>
    <nd ref="5318556100"/>
    <nd ref="9456125866"/>
    <nd ref="9456125861"/>
    <tag k="addr:city" v="Dry Drayton"/>
    <tag k="addr:housenumber" v="58"/>
    <tag k="addr:street" v="High Street"/>
    <tag k="building" v="yes"/>
  </way>
  <way id="550663439" version="2" timestamp="2022-05-06T20:39:35Z" changeset="120646514" uid="10633286" user="Moorit">
    <nd ref="5318556101"/>
    <nd ref="5318556102"/>
    <nd ref="5318556103"/>
    <nd ref="5318556104"/>
    <nd ref="5318556105"/>
    <nd ref="5318556106"/>
    <nd ref="5318556101"/>
    <tag k="addr:city" v="Dry Drayton"/>
    <tag k="addr:housenumber" v="56A"/>
    <tag k="addr:street" v="High Street"/>
    <tag k="building" v="yes"/>
  </way>
  <way id="550663444" version="4" timestamp="2022-10-09T17:12:38Z" changeset="127259370" uid="2400059" user="Pablo Rodriguez">
    <nd ref="5318556122"/>
    <nd ref="5318556123"/>
    <nd ref="5318556124"/>
    <nd ref="5318556125"/>
    <nd ref="5318556126"/>
    <nd ref="5318556127"/>
    <nd ref="5318556128"/>
    <nd ref="5318556129"/>
    <nd ref="5318556122"/>
    <tag k="addr:housenumber" v="3"/>
    <tag k="addr:street" v="Bakers Field"/>
    <tag k="building" v="detached"/>
  </way>
  <way id="550663445" version="4" timestamp="2022-10-09T17:13:12Z" changeset="127259370" uid="2400059" user="Pablo Rodriguez">
    <nd ref="5318556130"/>
    <nd ref="5318556131"/>
    <nd ref="5318556132"/>
    <nd ref="5318556133"/>
    <nd ref="5318556134"/>
    <nd ref="5318556135"/>
    <nd ref="5318556130"/>
    <tag k="addr:housenumber" v="4"/>
    <tag k="addr:street" v="Bakers Field"/>
    <tag k="building" v="detached"/>
  </way>
  <way id="550663446" version="4" timestamp="2022-10-09T17:13:09Z" changeset="127259370" uid="2400059" user="Pablo Rodriguez">
    <nd ref="5318556136"/>
    <nd ref="5318556137"/>
    <nd ref="5318556138"/>
    <nd ref="5318556139"/>
    <nd ref="5318556136"/>
    <tag k="addr:housenumber" v="5"/>
    <tag k="addr:street" v="Bakers Field"/>
    <tag k="building" v="detached"/>
  </way>
  <way id="550663447" version="6" timestamp="2022-10-09T17:12:41Z" changeset="127259370" uid="2400059" user="Pablo Rodriguez">
    <nd ref="5318556140"/>
    <nd ref="9456125848"/>
    <nd ref="5318556141"/>
    <nd ref="5318556142"/>
    <nd ref="5318556143"/>
    <nd ref="9456125846"/>
    <nd ref="9456125845"/>
    <nd ref="9456125847"/>
    <nd ref="9456125844"/>
    <nd ref="9456125843"/>
    <nd ref="9456125850"/>
    <nd ref="9456125851"/>
    <nd ref="5318556144"/>
    <nd ref="5318556145"/>
    <nd ref="9456125852"/>
    <nd ref="9456125853"/>
    <nd ref="9456125849"/>
    <nd ref="5318556140"/>
    <tag k="addr:housenumber" v="2"/>
    <tag k="addr:postcode" v="CB23 8EG"/>
    <tag k="addr:street" v="Bakers Field"/>
    <tag k="building" v="detached"/>
  </way>
  <way id="550663448" version="4" timestamp="2022-10-09T17:12:48Z" changeset="127259370" uid="2400059" user="Pablo Rodriguez">
    <nd ref="5318556146"/>
    <nd ref="5318556147"/>
    <nd ref="5318556148"/>
    <nd ref="5318556149"/>
    <nd ref="5318556150"/>
    <nd ref="5318556151"/>
    <nd ref="5318556146"/>
    <tag k="addr:housenumber" v="1"/>
    <tag k="addr:street" v="Bakers Field"/>
    <tag k="building" v="detached"/>
  </way>
  <way id="550663449" version="4" timestamp="2022-10-09T17:13:07Z" changeset="127259370" uid="2400059" user="Pablo Rodriguez">
    <nd ref="5318556152"/>
    <nd ref="5318556153"/>
    <nd ref="5318556154"/>
    <nd ref="5318556155"/>
    <nd ref="5318556156"/>
    <nd ref="5318556157"/>
    <nd ref="5318556152"/>
    <tag k="addr:housenumber" v="6"/>
    <tag k="addr:street" v="Bakers Field"/>
    <tag k="building" v="detached"/>
  </way>
  <way id="576503388" version="1" timestamp="2018-04-05T00:50:47Z" changeset="57818785" uid="5173844" user="ndrw6">
    <nd ref="26661022"/>
    <nd ref="5529482974"/>
    <tag k="highway" v="residential"/>
    <tag k="name" v="Searle's Meadow"/>
  </way>
  <way id="582387765" version="7" timestamp="2024-12-31T17:59:13Z" changeset="160843518" uid="5229644" user="Nathan_A_RF">
    <nd ref="4398827855"/>
    <nd ref="7100435516"/>
    <nd ref="11821528692"/>
    <nd ref="26661210"/>
    <nd ref="473857690"/>
    <nd ref="26661079"/>
    <nd ref="7100435517"/>
    <nd ref="26661225"/>
    <nd ref="7100435518"/>
    <nd ref="7100435519"/>
    <nd ref="26661065"/>
    <tag k="highway" v="tertiary"/>
    <tag k="lanes" v="2"/>
    <tag k="maxspeed" v="30 mph"/>
    <tag k="name" v="Madingley Road"/>
    <tag k="source:name" v="local knowledge"/>
    <tag k="surface" v="asphalt"/>
  </way>
  <way id="634420947" version="1" timestamp="2018-10-15T22:52:41Z" changeset="63557919" uid="5173844" user="ndrw6">
    <nd ref="5987177773"/>
    <nd ref="5987177770"/>
    <nd ref="5987177771"/>
    <nd ref="5987177772"/>
    <nd ref="5987177773"/>
    <tag k="building" v="house"/>
    <tag k="name" v="Chapelgate"/>
    <tag k="source" v="dictaphone"/>
  </way>
  <way id="653764026" version="9" timestamp="2024-06-01T12:36:04Z" changeset="152119374" uid="104519" user="Rupert Swarbrick">
    <nd ref="6126689738"/>
    <nd ref="6126689737"/>
    <nd ref="4584072999"/>
    <tag k="highway" v="tertiary"/>
    <tag k="lane_markings" v="no"/>
    <tag k="maxspeed" v="60 mph"/>
    <tag k="maxspeed:type" v="GB:nsl_single"/>
    <tag k="name" v="Oakington Road"/>
    <tag k="oneway" v="yes"/>
    <tag k="source" v="gps survey"/>
    <tag k="source:width" v="ARCore"/>
    <tag k="surface" v="asphalt"/>
    <tag k="width" v="5.5"/>
  </way>
  <way id="653764029" version="9" timestamp="2024-06-01T12:35:39Z" changeset="152119374" uid="104519" user="Rupert Swarbrick">
    <nd ref="4584072673"/>
    <nd ref="7683158068"/>
    <nd ref="6126689738"/>
    <tag k="highway" v="tertiary"/>
    <tag k="lane_markings" v="no"/>
    <tag k="maxspeed" v="60 mph"/>
    <tag k="maxspeed:type" v="GB:nsl_single"/>
    <tag k="name" v="Oakington Road"/>
    <tag k="oneway" v="yes"/>
    <tag k="source" v="gps survey"/>
    <tag k="surface" v="asphalt"/>
    <tag k="width" v="6.4"/>
  </way>
  <way id="700741160" version="9" timestamp="2024-06-01T12:37:21Z" changeset="152119444" uid="104519" user="Rupert Swarbrick">
    <nd ref="4584072996"/>
    <nd ref="6580623697"/>
    <tag k="highway" v="primary"/>
    <tag k="lane_markings" v="no"/>
    <tag k="lit" v="no"/>
    <tag k="maxspeed" v="60 mph"/>
    <tag k="maxspeed:type" v="GB:nsl_single"/>
    <tag k="name" v="Dry Drayton Road"/>
    <tag k="oneway" v="yes"/>
    <tag k="ref" v="A1307"/>
    <tag k="surface" v="asphalt"/>
  </way>
  <way id="730260655" version="10" timestamp="2024-06-01T12:37:34Z" changeset="152119444" uid="104519" user="Rupert Swarbrick">
    <nd ref="6580623697"/>
    <nd ref="11805848747"/>
    <nd ref="4584073013"/>
    <tag k="cycleway:left" v="no"/>
    <tag k="highway" v="primary"/>
    <tag k="lane_markings" v="no"/>
    <tag k="lit" v="no"/>
    <tag k="maxspeed" v="60 mph"/>
    <tag k="maxspeed:type" v="GB:nsl_single"/>
    <tag k="name" v="Dry Drayton Road"/>
    <tag k="oneway" v="yes"/>
    <tag k="ref" v="A1307"/>
    <tag k="surface" v="asphalt"/>
  </way>
  <way id="786508049" version="4" timestamp="2024-04-09T22:04:05Z" changeset="149796276" uid="5229644" user="Nathan_A_RF">
    <nd ref="314060134"/>
    <nd ref="32520530"/>
    <nd ref="314060135"/>
    <tag k="highway" v="tertiary"/>
    <tag k="junction" v="roundabout"/>
    <tag k="maxspeed" v="60 mph"/>
    <tag k="maxspeed:type" v="GB:nsl_single"/>
    <tag k="name" v="Hardwick Interchange"/>
    <tag k="oneway" v="yes"/>
  </way>
  <way id="786508050" version="4" timestamp="2024-04-09T22:04:05Z" changeset="149796276" uid="5229644" user="Nathan_A_RF">
    <nd ref="32520536"/>
    <nd ref="314060141"/>
    <nd ref="32520535"/>
    <nd ref="314060142"/>
    <nd ref="32520528"/>
    <nd ref="314060134"/>
    <tag k="highway" v="tertiary"/>
    <tag k="junction" v="roundabout"/>
    <tag k="maxspeed" v="60 mph"/>
    <tag k="maxspeed:type" v="GB:nsl_single"/>
    <tag k="name" v="Hardwick Interchange"/>
    <tag k="oneway" v="yes"/>
  </way>
  <way id="786508051" version="4" timestamp="2024-04-09T22:04:05Z" changeset="149796276" uid="5229644" user="Nathan_A_RF">
    <nd ref="32520533"/>
    <nd ref="314060140"/>
    <nd ref="32520536"/>
    <tag k="highway" v="tertiary"/>
    <tag k="junction" v="roundabout"/>
    <tag k="maxspeed" v="60 mph"/>
    <tag k="maxspeed:type" v="GB:nsl_single"/>
    <tag k="name" v="Hardwick Interchange"/>
    <tag k="oneway" v="yes"/>
  </way>
  <way id="786508052" version="4" timestamp="2024-04-09T22:04:05Z" changeset="149796276" uid="5229644" user="Nathan_A_RF">
    <nd ref="32520534"/>
    <nd ref="314060139"/>
    <nd ref="32520533"/>
    <tag k="highway" v="tertiary"/>
    <tag k="junction" v="roundabout"/>
    <tag k="maxspeed" v="60 mph"/>
    <tag k="maxspeed:type" v="GB:nsl_single"/>
    <tag k="name" v="Hardwick Interchange"/>
    <tag k="oneway" v="yes"/>
  </way>
  <way id="786508053" version="4" timestamp="2024-04-09T22:04:05Z" changeset="149796276" uid="5229644" user="Nathan_A_RF">
    <nd ref="314060135"/>
    <nd ref="32520529"/>
    <nd ref="314060136"/>
    <nd ref="32520532"/>
    <tag k="highway" v="tertiary"/>
    <tag k="junction" v="roundabout"/>
    <tag k="maxspeed" v="60 mph"/>
    <tag k="maxspeed:type" v="GB:nsl_single"/>
    <tag k="name" v="Hardwick Interchange"/>
    <tag k="oneway" v="yes"/>
  </way>
  <way id="786508054" version="5" timestamp="2024-04-09T22:04:05Z" changeset="149796276" uid="5229644" user="Nathan_A_RF">
    <nd ref="620940"/>
    <nd ref="523572012"/>
    <nd ref="523572014"/>
    <nd ref="523572015"/>
    <tag k="highway" v="tertiary"/>
    <tag k="junction" v="roundabout"/>
    <tag k="maxspeed" v="60 mph"/>
    <tag k="maxspeed:type" v="GB:nsl_single"/>
    <tag k="name" v="Hardwick Interchange"/>
    <tag k="oneway" v="yes"/>
    <tag k="surface" v="asphalt"/>
  </way>
  <way id="786508055" version="5" timestamp="2024-04-09T22:04:05Z" changeset="149796276" uid="5229644" user="Nathan_A_RF">
    <nd ref="5313559"/>
    <nd ref="523572002"/>
    <nd ref="5313561"/>
    <tag k="highway" v="tertiary"/>
    <tag k="junction" v="roundabout"/>
    <tag k="maxspeed" v="60 mph"/>
    <tag k="maxspeed:type" v="GB:nsl_single"/>
    <tag k="name" v="Hardwick Interchange"/>
    <tag k="oneway" v="yes"/>
    <tag k="surface" v="asphalt"/>
  </way>
  <way id="786508056" version="4" timestamp="2024-04-09T22:04:05Z" changeset="149796276" uid="5229644" user="Nathan_A_RF">
    <nd ref="32520591"/>
    <nd ref="523571997"/>
    <nd ref="523571998"/>
    <nd ref="5313559"/>
    <tag k="highway" v="tertiary"/>
    <tag k="junction" v="roundabout"/>
    <tag k="maxspeed" v="60 mph"/>
    <tag k="maxspeed:type" v="GB:nsl_single"/>
    <tag k="name" v="Hardwick Interchange"/>
    <tag k="oneway" v="yes"/>
  </way>
  <way id="786508057" version="4" timestamp="2024-04-09T22:04:05Z" changeset="149796276" uid="5229644" user="Nathan_A_RF">
    <nd ref="523571994"/>
    <nd ref="32520591"/>
    <tag k="highway" v="tertiary"/>
    <tag k="junction" v="roundabout"/>
    <tag k="maxspeed" v="60 mph"/>
    <tag k="maxspeed:type" v="GB:nsl_single"/>
    <tag k="name" v="Hardwick Interchange"/>
    <tag k="oneway" v="yes"/>
  </way>
  <way id="786508058" version="4" timestamp="2024-04-09T22:04:05Z" changeset="149796276" uid="5229644" user="Nathan_A_RF">
    <nd ref="7354139221"/>
    <nd ref="523571991"/>
    <nd ref="620938"/>
    <nd ref="523571994"/>
    <tag k="highway" v="tertiary"/>
    <tag k="junction" v="roundabout"/>
    <tag k="maxspeed" v="60 mph"/>
    <tag k="maxspeed:type" v="GB:nsl_single"/>
    <tag k="name" v="Hardwick Interchange"/>
    <tag k="oneway" v="yes"/>
  </way>
  <way id="786508059" version="4" timestamp="2024-04-09T22:04:05Z" changeset="149796276" uid="5229644" user="Nathan_A_RF">
    <nd ref="523571983"/>
    <nd ref="523571986"/>
    <nd ref="7354139221"/>
    <tag k="highway" v="tertiary"/>
    <tag k="junction" v="roundabout"/>
    <tag k="maxspeed" v="60 mph"/>
    <tag k="maxspeed:type" v="GB:nsl_single"/>
    <tag k="name" v="Hardwick Interchange"/>
    <tag k="oneway" v="yes"/>
  </way>
  <way id="786508060" version="4" timestamp="2024-04-09T22:04:05Z" changeset="149796276" uid="5229644" user="Nathan_A_RF">
    <nd ref="523572015"/>
    <nd ref="620939"/>
    <nd ref="523571983"/>
    <tag k="highway" v="tertiary"/>
    <tag k="junction" v="roundabout"/>
    <tag k="maxspeed" v="60 mph"/>
    <tag k="maxspeed:type" v="GB:nsl_single"/>
    <tag k="name" v="Hardwick Interchange"/>
    <tag k="oneway" v="yes"/>
  </way>
  <way id="786508061" version="3" timestamp="2024-04-09T22:04:05Z" changeset="149796276" uid="5229644" user="Nathan_A_RF">
    <nd ref="314060134"/>
    <nd ref="7354139211"/>
    <nd ref="726786160"/>
    <tag k="highway" v="tertiary"/>
    <tag k="maxspeed" v="60 mph"/>
    <tag k="maxspeed:type" v="GB:nsl_single"/>
    <tag k="name" v="Scotland Road"/>
    <tag k="oneway" v="yes"/>
    <tag k="source:name" v="survey"/>
  </way>
  <way id="786508062" version="3" timestamp="2024-04-09T22:04:05Z" changeset="149796276" uid="5229644" user="Nathan_A_RF">
    <nd ref="726786160"/>
    <nd ref="7354139212"/>
    <nd ref="11805917790"/>
    <nd ref="314060135"/>
    <tag k="highway" v="tertiary"/>
    <tag k="maxspeed" v="60 mph"/>
    <tag k="maxspeed:type" v="GB:nsl_single"/>
    <tag k="name" v="Scotland Road"/>
    <tag k="oneway" v="yes"/>
    <tag k="source:name" v="survey"/>
  </way>
  <way id="786508063" version="3" timestamp="2024-04-09T22:04:05Z" changeset="149796276" uid="5229644" user="Nathan_A_RF">
    <nd ref="32520539"/>
    <nd ref="7354139213"/>
    <nd ref="32520533"/>
    <tag k="highway" v="tertiary"/>
    <tag k="maxspeed" v="60 mph"/>
    <tag k="maxspeed:type" v="GB:nsl_single"/>
    <tag k="name" v="Scotland Road"/>
    <tag k="oneway" v="yes"/>
    <tag k="source:name" v="survey"/>
  </way>
  <way id="786508064" version="3" timestamp="2024-04-09T22:04:05Z" changeset="149796276" uid="5229644" user="Nathan_A_RF">
    <nd ref="32520534"/>
    <nd ref="7354139214"/>
    <nd ref="32520539"/>
    <tag k="highway" v="tertiary"/>
    <tag k="maxspeed" v="60 mph"/>
    <tag k="maxspeed:type" v="GB:nsl_single"/>
    <tag k="name" v="Scotland Road"/>
    <tag k="oneway" v="yes"/>
    <tag k="source:name" v="survey"/>
  </way>
  <way id="786508065" version="3" timestamp="2024-04-09T22:04:05Z" changeset="149796276" uid="5229644" user="Nathan_A_RF">
    <nd ref="5313559"/>
    <nd ref="7354139215"/>
    <nd ref="7354139217"/>
    <tag k="highway" v="tertiary"/>
    <tag k="maxspeed" v="60 mph"/>
    <tag k="maxspeed:type" v="GB:nsl_single"/>
    <tag k="name" v="Scotland Road"/>
    <tag k="oneway" v="yes"/>
    <tag k="source:name" v="survey"/>
  </way>
  <way id="786508066" version="3" timestamp="2024-04-09T22:04:05Z" changeset="149796276" uid="5229644" user="Nathan_A_RF">
    <nd ref="7354139217"/>
    <nd ref="7354139216"/>
    <nd ref="5313561"/>
    <tag k="highway" v="tertiary"/>
    <tag k="maxspeed" v="60 mph"/>
    <tag k="maxspeed:type" v="GB:nsl_single"/>
    <tag k="name" v="Scotland Road"/>
    <tag k="oneway" v="yes"/>
    <tag k="source:name" v="survey"/>
  </way>
  <way id="786508067" version="2" timestamp="2021-08-26T13:28:05Z" changeset="110289039" uid="242345" user="confusedbuffalo">
    <nd ref="7354139217"/>
    <nd ref="32520540"/>
    <tag k="highway" v="tertiary"/>
    <tag k="maxspeed" v="60 mph"/>
    <tag k="maxspeed:type" v="GB:nsl_single"/>
    <tag k="name" v="Scotland Road"/>
    <tag k="source:name" v="survey"/>
  </way>
  <way id="786508068" version="3" timestamp="2024-04-09T22:04:05Z" changeset="149796276" uid="5229644" user="Nathan_A_RF">
    <nd ref="2416780901"/>
    <nd ref="7354139218"/>
    <nd ref="523571983"/>
    <tag k="highway" v="tertiary"/>
    <tag k="maxspeed" v="60 mph"/>
    <tag k="maxspeed:type" v="GB:nsl_single"/>
    <tag k="name" v="Saint Neots Road"/>
    <tag k="oneway" v="yes"/>
  </way>
  <way id="786508069" version="3" timestamp="2024-04-09T22:04:05Z" changeset="149796276" uid="5229644" user="Nathan_A_RF">
    <nd ref="523572015"/>
    <nd ref="7354139219"/>
    <nd ref="2416780901"/>
    <tag k="highway" v="tertiary"/>
    <tag k="maxspeed" v="60 mph"/>
    <tag k="maxspeed:type" v="GB:nsl_single"/>
    <tag k="name" v="Saint Neots Road"/>
    <tag k="oneway" v="yes"/>
  </way>
  <way id="786508070" version="1" timestamp="2020-04-01T11:39:25Z" changeset="82920827" uid="5173844" user="ndrw6">
    <nd ref="7354139221"/>
    <nd ref="7354139220"/>
    <nd ref="7354139223"/>
    <tag k="highway" v="tertiary"/>
    <tag k="name" v="Saint Neots Road"/>
    <tag k="oneway" v="yes"/>
  </way>
  <way id="786508071" version="1" timestamp="2020-04-01T11:39:25Z" changeset="82920827" uid="5173844" user="ndrw6">
    <nd ref="7354139223"/>
    <nd ref="7354139222"/>
    <nd ref="523571994"/>
    <tag k="highway" v="tertiary"/>
    <tag k="name" v="Saint Neots Road"/>
    <tag k="oneway" v="yes"/>
  </way>
  <way id="815983287" version="2" timestamp="2022-05-08T18:49:23Z" changeset="120715252" uid="10633286" user="Moorit">
    <nd ref="7620823472"/>
    <nd ref="5280957363"/>
    <nd ref="5280957364"/>
    <nd ref="7620823471"/>
    <nd ref="7620823472"/>
    <tag k="addr:housenumber" v="19"/>
    <tag k="addr:postcode" v="CB23 8BN"/>
    <tag k="addr:street" v="Scotland Road"/>
    <tag k="building" v="yes"/>
  </way>
  <way id="815983288" version="2" timestamp="2022-05-08T18:49:23Z" changeset="120715252" uid="10633286" user="Moorit">
    <nd ref="7620823474"/>
    <nd ref="5280957367"/>
    <nd ref="5280957368"/>
    <nd ref="7620823473"/>
    <nd ref="7620823474"/>
    <tag k="addr:housenumber" v="17"/>
    <tag k="addr:postcode" v="CB23 8BN"/>
    <tag k="addr:street" v="Scotland Road"/>
    <tag k="building" v="yes"/>
  </way>
  <way id="815983289" version="2" timestamp="2022-05-08T18:49:23Z" changeset="120715252" uid="10633286" user="Moorit">
    <nd ref="7620823476"/>
    <nd ref="5280957371"/>
    <nd ref="5280957372"/>
    <nd ref="7620823475"/>
    <nd ref="7620823476"/>
    <tag k="addr:housenumber" v="15"/>
    <tag k="addr:postcode" v="CB23 8BN"/>
    <tag k="addr:street" v="Scotland Road"/>
    <tag k="building" v="yes"/>
  </way>
  <way id="815983290" version="2" timestamp="2022-05-08T18:49:23Z" changeset="120715252" uid="10633286" user="Moorit">
    <nd ref="7620823478"/>
    <nd ref="5280957375"/>
    <nd ref="5280957376"/>
    <nd ref="7620823477"/>
    <nd ref="7620823478"/>
    <tag k="addr:housenumber" v="13"/>
    <tag k="addr:postcode" v="CB23 8BN"/>
    <tag k="addr:street" v="Scotland Road"/>
    <tag k="building" v="yes"/>
  </way>
  <way id="815983291" version="2" timestamp="2022-05-08T18:49:23Z" changeset="120715252" uid="10633286" user="Moorit">
    <nd ref="7620823480"/>
    <nd ref="5280957379"/>
    <nd ref="5280957380"/>
    <nd ref="7620823479"/>
    <nd ref="7620823480"/>
    <tag k="addr:housenumber" v="11"/>
    <tag k="addr:postcode" v="CB23 8BN"/>
    <tag k="addr:street" v="Scotland Road"/>
    <tag k="building" v="yes"/>
  </way>
  <way id="944188534" version="1" timestamp="2021-05-18T09:46:13Z" changeset="104879855" uid="2400059" user="Pablo Rodriguez">
    <nd ref="5318556066"/>
    <nd ref="8741898476"/>
    <nd ref="8741898477"/>
    <nd ref="5318556067"/>
    <nd ref="5318556066"/>
    <tag k="addr:city" v="Dry Drayton"/>
    <tag k="addr:housenumber" v="53"/>
    <tag k="addr:street" v="High Street"/>
    <tag k="building" v="semidetached_house"/>
    <tag k="building:levels" v="2"/>
  </way>
  <way id="944188535" version="1" timestamp="2021-05-18T09:46:13Z" changeset="104879855" uid="2400059" user="Pablo Rodriguez">
    <nd ref="5318556062"/>
    <nd ref="8741898478"/>
    <nd ref="8741898479"/>
    <nd ref="5318556063"/>
    <nd ref="5318556062"/>
    <tag k="addr:city" v="Dry Drayton"/>
    <tag k="addr:housenumber" v="49"/>
    <tag k="addr:street" v="High Street"/>
    <tag k="building" v="semidetached_house"/>
    <tag k="building:levels" v="2"/>
  </way>
  <way id="944188536" version="1" timestamp="2021-05-18T09:46:13Z" changeset="104879855" uid="2400059" user="Pablo Rodriguez">
    <nd ref="5318556058"/>
    <nd ref="8741898480"/>
    <nd ref="8741898481"/>
    <nd ref="5318556059"/>
    <nd ref="5318556058"/>
    <tag k="addr:city" v="Dry Drayton"/>
    <tag k="addr:housenumber" v="45"/>
    <tag k="addr:street" v="High Street"/>
    <tag k="building" v="semidetached_house"/>
    <tag k="building:levels" v="2"/>
  </way>
  <way id="944188537" version="1" timestamp="2021-05-18T09:46:13Z" changeset="104879855" uid="2400059" user="Pablo Rodriguez">
    <nd ref="5318555886"/>
    <nd ref="8741898485"/>
    <nd ref="8741898487"/>
    <nd ref="8741898488"/>
    <nd ref="8741898486"/>
    <nd ref="5318555887"/>
    <nd ref="5318555886"/>
    <tag k="addr:city" v="Dry Drayton"/>
    <tag k="addr:housenumber" v="50"/>
    <tag k="addr:street" v="High Street"/>
    <tag k="building" v="semidetached_house"/>
    <tag k="building:levels" v="2"/>
  </way>
  <way id="944188538" version="1" timestamp="2021-05-18T09:46:13Z" changeset="104879855" uid="2400059" user="Pablo Rodriguez">
    <nd ref="8741898489"/>
    <nd ref="8741898491"/>
    <nd ref="8741898492"/>
    <nd ref="5318556069"/>
    <nd ref="5318556072"/>
    <nd ref="8741898490"/>
    <nd ref="8741898489"/>
    <tag k="addr:city" v="Dry Drayton"/>
    <tag k="addr:housenumber" v="56"/>
    <tag k="addr:street" v="High Street"/>
    <tag k="building" v="semidetached_house"/>
    <tag k="building:levels" v="2"/>
  </way>
  <way id="953545890" version="3" timestamp="2021-06-14T15:29:10Z" changeset="106345588" uid="2400059" user="Pablo Rodriguez">
    <nd ref="8825775630"/>
    <nd ref="8825775631"/>
    <nd ref="8825775632"/>
    <nd ref="8825775633"/>
    <nd ref="8825775630"/>
    <tag k="addr:city" v="Dry Drayton"/>
    <tag k="addr:housename" v="Phypers Farmhouse"/>
    <tag k="addr:housenumber" v="5"/>
    <tag k="addr:street" v="High Street"/>
    <tag k="building" v="house"/>
    <tag k="building:levels" v="2"/>
    <tag k="roof:shape" v="gabled"/>
  </way>
  <way id="971914920" version="1" timestamp="2021-08-10T08:58:03Z" changeset="109449966" uid="5173844" user="ndrw6">
    <nd ref="8995501273"/>
    <nd ref="26661374"/>
    <nd ref="26661373"/>
    <tag k="highway" v="residential"/>
    <tag k="name" v="Hill View"/>
    <tag k="source:name" v="local knowledge"/>
  </way>
  <way id="972268174" version="7" timestamp="2024-04-09T21:48:19Z" changeset="149795939" uid="5229644" user="Nathan_A_RF">
    <nd ref="4584072991"/>
    <nd ref="8998669538"/>
    <nd ref="4584073016"/>
    <nd ref="4584072673"/>
    <tag k="highway" v="primary"/>
    <tag k="junction" v="roundabout"/>
    <tag k="lane_markings" v="no"/>
    <tag k="maxspeed" v="60 mph"/>
    <tag k="maxspeed:type" v="GB:nsl_single"/>
    <tag k="oneway" v="yes"/>
    <tag k="surface" v="asphalt"/>
  </way>
  <way id="972268175" version="7" timestamp="2024-04-09T21:48:19Z" changeset="149795939" uid="5229644" user="Nathan_A_RF">
    <nd ref="4584073005"/>
    <nd ref="8998669544"/>
    <nd ref="6348070499"/>
    <tag k="highway" v="primary"/>
    <tag k="lane_markings" v="no"/>
    <tag k="maxspeed" v="60 mph"/>
    <tag k="maxspeed:type" v="GB:nsl_single"/>
    <tag k="name" v="Huntingdon Road"/>
    <tag k="oneway" v="yes"/>
    <tag k="ref" v="A1307"/>
    <tag k="surface" v="asphalt"/>
  </way>
  <way id="972268176" version="6" timestamp="2024-04-09T21:48:19Z" changeset="149795939" uid="5229644" user="Nathan_A_RF">
    <nd ref="6348070499"/>
    <nd ref="8998669543"/>
    <nd ref="4584072991"/>
    <tag k="highway" v="primary"/>
    <tag k="lanes" v="1"/>
    <tag k="maxspeed" v="60 mph"/>
    <tag k="maxspeed:type" v="GB:nsl_single"/>
    <tag k="name" v="Huntingdon Road"/>
    <tag k="oneway" v="yes"/>
    <tag k="ref" v="A1307"/>
    <tag k="surface" v="asphalt"/>
  </way>
  <way id="997743644" version="2" timestamp="2022-06-07T12:03:15Z" changeset="122069654" uid="16225186" user="aronvirginas">
    <nd ref="9212521851"/>
    <nd ref="9212521852"/>
    <nd ref="9212521850"/>
    <tag k="highway" v="residential"/>
    <tag k="lanes" v="2"/>
    <tag k="name" v="Swifts Close"/>
    <tag k="surface" v="paving_stones"/>
  </way>
  <way id="997743645" version="4" timestamp="2023-05-30T21:40:40Z" changeset="136764319" uid="12045" user="Millsey">
    <nd ref="26661237"/>
    <nd ref="9212521853"/>
    <nd ref="9212521852"/>
    <tag k="highway" v="residential"/>
    <tag k="lanes" v="2"/>
    <tag k="maxspeed" v="30 mph"/>
    <tag k="name" v="Swifts Close"/>
    <tag k="oneway" v="no"/>
    <tag k="sidewalk" v="both"/>
    <tag k="surface" v="paving_stones"/>
  </way>
  <way id="1035655505" version="4" timestamp="2023-07-26T10:20:32Z" changeset="139029899" uid="5173844" user="ndrw6">
    <nd ref="9541938691"/>
    <nd ref="8946164679"/>
    <nd ref="9541938690"/>
    <nd ref="11068783883"/>
    <nd ref="9541938689"/>
    <nd ref="11068783825"/>
    <nd ref="9541925486"/>
    <nd ref="9541938688"/>
    <nd ref="9541938687"/>
    <nd ref="11068783829"/>
    <nd ref="9541938641"/>
    <nd ref="11068783827"/>
    <nd ref="9541938686"/>
    <nd ref="9541938685"/>
    <nd ref="11068783823"/>
    <nd ref="9541938684"/>
    <nd ref="9541938683"/>
    <nd ref="9541938682"/>
    <nd ref="9541938645"/>
    <nd ref="9541938681"/>
    <nd ref="9541938680"/>
    <nd ref="11029557452"/>
    <nd ref="9541938679"/>
    <nd ref="9541938678"/>
    <nd ref="11068794812"/>
    <nd ref="9541938677"/>
    <tag k="highway" v="residential"/>
    <tag k="name" v="Howells Way"/>
  </way>
  <way id="1036605229" version="4" timestamp="2024-04-09T21:48:19Z" changeset="149795939" uid="5229644" user="Nathan_A_RF">
    <nd ref="4584072996"/>
    <nd ref="4584072670"/>
    <nd ref="11805848740"/>
    <nd ref="4584073013"/>
    <tag k="highway" v="primary"/>
    <tag k="junction" v="roundabout"/>
    <tag k="lane_markings" v="no"/>
    <tag k="maxspeed" v="60 mph"/>
    <tag k="maxspeed:type" v="GB:nsl_single"/>
    <tag k="oneway" v="yes"/>
    <tag k="surface" v="asphalt"/>
  </way>
  <way id="1036605230" version="4" timestamp="2024-04-09T21:48:19Z" changeset="149795939" uid="5229644" user="Nathan_A_RF">
    <nd ref="4584072673"/>
    <nd ref="11805848745"/>
    <nd ref="4584072684"/>
    <nd ref="4584073004"/>
    <nd ref="11805848744"/>
    <nd ref="4584072999"/>
    <tag k="highway" v="primary"/>
    <tag k="junction" v="roundabout"/>
    <tag k="lane_markings" v="no"/>
    <tag k="maxspeed" v="60 mph"/>
    <tag k="maxspeed:type" v="GB:nsl_single"/>
    <tag k="oneway" v="yes"/>
    <tag k="surface" v="asphalt"/>
  </way>
  <way id="1036605231" version="5" timestamp="2024-04-09T21:48:19Z" changeset="149795939" uid="5229644" user="Nathan_A_RF">
    <nd ref="4584073005"/>
    <nd ref="11805848746"/>
    <nd ref="8998669541"/>
    <nd ref="4584072675"/>
    <nd ref="4584072991"/>
    <tag k="cycleway:left" v="no"/>
    <tag k="highway" v="primary"/>
    <tag k="junction" v="roundabout"/>
    <tag k="lane_markings" v="no"/>
    <tag k="maxspeed" v="60 mph"/>
    <tag k="maxspeed:type" v="GB:nsl_single"/>
    <tag k="oneway" v="yes"/>
    <tag k="surface" v="asphalt"/>
  </way>
  <way id="1036605232" version="4" timestamp="2024-04-09T21:48:19Z" changeset="149795939" uid="5229644" user="Nathan_A_RF">
    <nd ref="4584073013"/>
    <nd ref="4584072994"/>
    <nd ref="4584073005"/>
    <tag k="highway" v="primary"/>
    <tag k="junction" v="roundabout"/>
    <tag k="lane_markings" v="no"/>
    <tag k="maxspeed" v="60 mph"/>
    <tag k="maxspeed:type" v="GB:nsl_single"/>
    <tag k="oneway" v="yes"/>
    <tag k="surface" v="asphalt"/>
  </way>
  <way id="1042072768" version="2" timestamp="2022-10-19T10:10:54Z" changeset="127771914" uid="3582" user="davidearl">
    <nd ref="1864147415"/>
    <nd ref="32520966"/>
    <nd ref="32520967"/>
    <nd ref="1864147413"/>
    <tag k="highway" v="residential"/>
    <tag k="lcn" v="cambs_cc"/>
    <tag k="maxspeed" v="40 mph"/>
    <tag k="maxspeed:type" v="sign"/>
    <tag k="name" v="Saint Neots Road"/>
    <tag k="old_ref" v="A45"/>
    <tag k="source" v="GPS"/>
  </way>
  <way id="1101541987" version="5" timestamp="2023-09-11T13:42:23Z" changeset="141114336" uid="13341565" user="Falsernet">
    <nd ref="32520591"/>
    <nd ref="1728019332"/>
    <nd ref="32520574"/>
    <nd ref="32520567"/>
    <nd ref="1864156644"/>
    <nd ref="1864156647"/>
    <nd ref="1864156648"/>
    <tag k="expressway" v="yes"/>
    <tag k="highway" v="trunk_link"/>
    <tag k="maxspeed" v="70 mph"/>
    <tag k="maxspeed:type" v="GB:nsl_dual"/>
    <tag k="national_highways:area" v="8"/>
    <tag k="oneway" v="yes"/>
    <tag k="operator" v="National Highways"/>
    <tag k="operator:wikidata" v="Q5760006"/>
    <tag k="ref" v="A428"/>
  </way>
  <way id="1102389555" version="5" timestamp="2023-05-30T21:40:40Z" changeset="136764319" uid="12045" user="Millsey">
    <nd ref="26661248"/>
    <nd ref="292407881"/>
    <tag k="highway" v="residential"/>
    <tag k="lanes" v="1"/>
    <tag k="lit" v="yes"/>
    <tag k="maxspeed" v="30 mph"/>
    <tag k="name" v="Pettitt's Lane"/>
    <tag k="oneway" v="no"/>
    <tag k="sidewalk" v="both"/>
    <tag k="source" v="GPS"/>
    <tag k="source:name" v="survey"/>
    <tag k="surface" v="asphalt"/>
    <tag k="width" v="narrow"/>
  </way>
  <way id="1105178083" version="1" timestamp="2022-10-19T10:10:54Z" changeset="127771914" uid="3582" user="davidearl">
    <nd ref="2416780901"/>
    <nd ref="5313562"/>
    <tag k="highway" v="tertiary"/>
    <tag k="maxspeed" v="40 mph"/>
    <tag k="maxspeed:type" v="sign"/>
    <tag k="name" v="Saint Neots Road"/>
  </way>
  <way id="1211373343" version="1" timestamp="2023-09-27T22:52:06Z" changeset="141841185" uid="15363444" user="osmscstuff">
    <nd ref="29849721"/>
    <nd ref="10155547848"/>
    <nd ref="29849722"/>
    <nd ref="620940"/>
    <tag k="expressway" v="yes"/>
    <tag k="highway" v="trunk_link"/>
    <tag k="lanes" v="2"/>
    <tag k="maxspeed" v="70 mph"/>
    <tag k="maxspeed:type" v="GB:nsl_dual"/>
    <tag k="national_highways:area" v="8"/>
    <tag k="oneway" v="yes"/>
    <tag k="operator" v="National Highways"/>
    <tag k="operator:wikidata" v="Q5760006"/>
    <tag k="ref" v="A428"/>
  </way>
  <way id="1233516605" version="1" timestamp="2023-12-23T13:12:07Z" changeset="145436680" uid="742701" user="kerr smith">
    <nd ref="2670726646"/>
    <nd ref="2670726645"/>
    <nd ref="2670726650"/>
    <nd ref="2670726648"/>
    <nd ref="2670726657"/>
    <nd ref="11446217433"/>
    <nd ref="11446217432"/>
    <nd ref="2670726646"/>
    <tag k="addr:postcode" v="CB23 8AS"/>
    <tag k="building" v="yes"/>
    <tag k="name" v="The Old Granary"/>
  </way>
  <way id="1271294109" version="1" timestamp="2024-04-09T22:04:05Z" changeset="149796276" uid="5229644" user="Nathan_A_RF">
    <nd ref="11805917791"/>
    <nd ref="32520539"/>
    <tag k="highway" v="tertiary"/>
    <tag k="maxspeed" v="60 mph"/>
    <tag k="maxspeed:type" v="GB:nsl_single"/>
    <tag k="name" v="Scotland Road"/>
    <tag k="source:name" v="survey"/>
  </way>

</osm>
