<?xml version="1.0" encoding="UTF-8"?>
<osm version="0.6" generator="Overpass API 0.7.62.5 1bd436f1">
<note>The data included in this document is from www.openstreetmap.org. The data is made available under ODbL.</note>
<meta osm_base="2025-04-05T17:09:05Z" areas="2024-12-31T00:49:33Z"/>

  <node id="8583371" lat="52.2827304" lon="-0.3633476" version="7" timestamp="2011-06-22T16:29:45Z" changeset="8515689" uid="3582" user="davidearl"/>
  <node id="344764899" lat="52.3254492" lon="-0.3751148" version="5" timestamp="2021-12-08T01:16:40Z" changeset="114681674" uid="493595" user="Yorvik Prestigitator"/>
  <node id="344764900" lat="52.3253062" lon="-0.3751682" version="4" timestamp="2021-12-08T01:16:40Z" changeset="114681674" uid="493595" user="Yorvik Prestigitator"/>
  <node id="344774378" lat="52.3157959" lon="-0.3513680" version="1" timestamp="2009-02-12T21:23:27Z" changeset="374203" uid="91225" user="tms13">
    <tag k="created_by" v="Merkaartor 0.12"/>
  </node>
  <node id="346389714" lat="52.3290913" lon="-0.4040591" version="4" timestamp="2021-11-22T18:51:57Z" changeset="114110725" uid="5619343" user="NorthIsland"/>
  <node id="360591690" lat="52.3084751" lon="-0.4196542" version="5" timestamp="2021-11-23T08:17:31Z" changeset="114128709" uid="5619343" user="NorthIsland"/>
  <node id="528869299" lat="52.3083540" lon="-0.4178213" version="3" timestamp="2021-11-22T14:57:37Z" changeset="114102050" uid="5619343" user="NorthIsland"/>
  <node id="528869309" lat="52.3092334" lon="-0.4221894" version="1" timestamp="2009-10-11T15:12:58Z" changeset="2814892" uid="3582" user="davidearl"/>
  <node id="528869310" lat="52.3090563" lon="-0.4217289" version="3" timestamp="2021-11-23T08:17:31Z" changeset="114128709" uid="5619343" user="NorthIsland"/>
  <node id="528869447" lat="52.3121994" lon="-0.4146438" version="1" timestamp="2009-10-11T15:13:04Z" changeset="2814892" uid="3582" user="davidearl"/>
  <node id="528869454" lat="52.3151851" lon="-0.4130261" version="4" timestamp="2021-11-22T14:57:37Z" changeset="114102050" uid="5619343" user="NorthIsland"/>
  <node id="528869580" lat="52.2968636" lon="-0.3891707" version="7" timestamp="2024-05-12T08:40:13Z" changeset="151214449" uid="95856" user="john paul jones &amp; gringo">
    <tag k="addr:city" v="Huntingdon"/>
    <tag k="addr:country" v="GB"/>
    <tag k="addr:housenumber" v="15"/>
    <tag k="addr:postcode" v="PE28 0HB"/>
    <tag k="addr:street" v="High Street"/>
    <tag k="addr:suburb" v="Kimbolton"/>
    <tag k="amenity" v="cafe"/>
    <tag k="name" v="Crawfords"/>
    <tag k="toilets:wheelchair" v="no"/>
    <tag k="wheelchair" v="no"/>
  </node>
  <node id="528869593" lat="52.2971534" lon="-0.3890303" version="9" timestamp="2024-06-15T18:02:27Z" changeset="152732493" uid="2240506" user="SteveGP">
    <tag k="addr:city" v="Huntingdon"/>
    <tag k="addr:country" v="GB"/>
    <tag k="addr:housenumber" v="36"/>
    <tag k="addr:postcode" v="PE28 0HA"/>
    <tag k="addr:street" v="High Street"/>
    <tag k="addr:suburb" v="Kimbolton"/>
    <tag k="name" v="Regency Funeral Directors"/>
    <tag k="shop" v="funeral_directors"/>
  </node>
  <node id="528869595" lat="52.2970288" lon="-0.3888559" version="4" timestamp="2024-05-12T08:40:13Z" changeset="151214449" uid="95856" user="john paul jones &amp; gringo">
    <tag k="addr:city" v="Huntingdon"/>
    <tag k="addr:country" v="GB"/>
    <tag k="addr:housenumber" v="30"/>
    <tag k="addr:postcode" v="PE28 0HA"/>
    <tag k="addr:street" v="High Street"/>
    <tag k="addr:suburb" v="Kimbolton"/>
    <tag k="name" v="Fisher's Hardware"/>
    <tag k="shop" v="hardware"/>
  </node>
  <node id="528869597" lat="52.2972002" lon="-0.3890906" version="4" timestamp="2024-05-12T08:40:13Z" changeset="151214449" uid="95856" user="john paul jones &amp; gringo">
    <tag k="addr:city" v="Huntingdon"/>
    <tag k="addr:country" v="GB"/>
    <tag k="addr:housenumber" v="36"/>
    <tag k="addr:postcode" v="PE28 0HA"/>
    <tag k="addr:street" v="High Street"/>
    <tag k="addr:suburb" v="Kimbolton"/>
    <tag k="name" v="Blue Blancmange"/>
    <tag k="shop" v="clothes"/>
  </node>
  <node id="528869599" lat="52.2972509" lon="-0.3896854" version="9" timestamp="2024-05-12T08:40:13Z" changeset="151214449" uid="95856" user="john paul jones &amp; gringo">
    <tag k="addr:city" v="Huntingdon"/>
    <tag k="addr:country" v="GB"/>
    <tag k="addr:housenumber" v="29"/>
    <tag k="addr:postcode" v="PE28 0HB"/>
    <tag k="addr:street" v="High Street"/>
    <tag k="addr:suburb" v="Kimbolton"/>
    <tag k="amenity" v="pharmacy"/>
    <tag k="dispensing" v="yes"/>
    <tag k="drive_through" v="no"/>
    <tag k="healthcare" v="pharmacy"/>
    <tag k="name" v="The Old Swan Pharmacy"/>
    <tag k="toilets:wheelchair" v="no"/>
    <tag k="wheelchair" v="yes"/>
  </node>
  <node id="528869616" lat="52.2967491" lon="-0.3884522" version="6" timestamp="2024-05-12T08:40:13Z" changeset="151214449" uid="95856" user="john paul jones &amp; gringo">
    <tag k="addr:city" v="Huntingdon"/>
    <tag k="addr:country" v="GB"/>
    <tag k="addr:housenumber" v="16"/>
    <tag k="addr:postcode" v="PE28 0HA"/>
    <tag k="addr:street" v="High Street"/>
    <tag k="addr:suburb" v="Kimbolton"/>
    <tag k="amenity" v="cafe"/>
    <tag k="name" v="Olivers Coffee Shop"/>
    <tag k="toilets:wheelchair" v="no"/>
    <tag k="wheelchair" v="limited"/>
  </node>
  <node id="528869617" lat="52.2967834" lon="-0.3884949" version="7" timestamp="2024-06-15T18:00:47Z" changeset="152732409" uid="2240506" user="SteveGP">
    <tag k="addr:city" v="Huntingdon"/>
    <tag k="addr:country" v="GB"/>
    <tag k="addr:housenumber" v="18"/>
    <tag k="addr:postcode" v="PE28 0HA"/>
    <tag k="addr:street" v="High Street"/>
    <tag k="addr:suburb" v="Kimbolton"/>
    <tag k="amenity" v="veterinary"/>
    <tag k="name" v="Kimbolton Vets"/>
  </node>
  <node id="528869955" lat="52.3123846" lon="-0.3806639" version="3" timestamp="2024-05-12T08:44:44Z" changeset="151214588" uid="95856" user="john paul jones &amp; gringo">
    <tag k="addr:city" v="Huntingdon"/>
    <tag k="addr:country" v="GB"/>
    <tag k="addr:postcode" v="PE28 0EY"/>
    <tag k="addr:street" v="Grovemere Court"/>
    <tag k="addr:suburb" v="Kimbolton"/>
    <tag k="landuse" v="industrial"/>
    <tag k="name" v="Ecotechnolin"/>
  </node>
  <node id="528869964" lat="52.3126476" lon="-0.3794785" version="3" timestamp="2024-05-12T08:44:44Z" changeset="151214588" uid="95856" user="john paul jones &amp; gringo">
    <tag k="addr:city" v="Huntingdon"/>
    <tag k="addr:country" v="GB"/>
    <tag k="addr:postcode" v="PE28 0NJ"/>
    <tag k="addr:street" v="Harvard Way"/>
    <tag k="addr:suburb" v="Kimbolton"/>
    <tag k="landuse" v="industrial"/>
    <tag k="name" v="Biogene"/>
  </node>
  <node id="528869965" lat="52.3126886" lon="-0.3801200" version="3" timestamp="2024-05-12T08:44:44Z" changeset="151214588" uid="95856" user="john paul jones &amp; gringo">
    <tag k="addr:city" v="Huntingdon"/>
    <tag k="addr:country" v="GB"/>
    <tag k="addr:postcode" v="PE28 0EY"/>
    <tag k="addr:street" v="Grovemere Court"/>
    <tag k="addr:suburb" v="Kimbolton"/>
    <tag k="landuse" v="industrial"/>
    <tag k="name" v="HKS Europe"/>
  </node>
  <node id="1146599914" lat="52.2822103" lon="-0.4026996" version="1" timestamp="2011-02-11T02:45:31Z" changeset="7251639" uid="4951" user="PeterEastern"/>
  <node id="3442578058" lat="52.3233238" lon="-0.3750126" version="1" timestamp="2015-04-07T10:05:22Z" changeset="30035403" uid="2115749" user="srividya_c"/>
  <node id="7068094451" lat="52.2974636" lon="-0.3894909" version="3" timestamp="2024-05-12T08:40:13Z" changeset="151214449" uid="95856" user="john paul jones &amp; gringo">
    <tag k="addr:city" v="Huntingdon"/>
    <tag k="addr:country" v="GB"/>
    <tag k="addr:housenumber" v="52"/>
    <tag k="addr:postcode" v="PE28 0HA"/>
    <tag k="addr:street" v="High Street"/>
    <tag k="addr:suburb" v="Kimbolton"/>
    <tag k="amenity" v="dentist"/>
    <tag k="healthcare" v="dentist"/>
    <tag k="name" v="Kimbolton Dental Studio"/>
  </node>
  <node id="7107819605" lat="52.2970189" lon="-0.3893695" version="5" timestamp="2024-08-27T16:09:36Z" changeset="155839834" uid="2240506" user="SteveGP">
    <tag k="addr:city" v="Huntingdon"/>
    <tag k="addr:country" v="GB"/>
    <tag k="addr:housenumber" v="21"/>
    <tag k="addr:postcode" v="PE28 0HB"/>
    <tag k="addr:street" v="High Street"/>
    <tag k="addr:suburb" v="Kimbolton"/>
    <tag k="name" v="Whitchurch Wines"/>
    <tag k="phone" v="+44 7949-587893"/>
    <tag k="shop" v="wine"/>
  </node>
  <node id="7107836899" lat="52.2969763" lon="-0.3893079" version="4" timestamp="2024-05-12T08:40:13Z" changeset="151214449" uid="95856" user="john paul jones &amp; gringo">
    <tag k="addr:city" v="Huntingdon"/>
    <tag k="addr:country" v="GB"/>
    <tag k="addr:housenumber" v="19"/>
    <tag k="addr:postcode" v="PE28 0HB"/>
    <tag k="addr:street" v="High Street"/>
    <tag k="addr:suburb" v="Kimbolton"/>
    <tag k="name" v="La Cote D'Or"/>
    <tag k="shop" v="antiques"/>
  </node>
  <node id="8928348954" lat="52.2972273" lon="-0.3886373" version="3" timestamp="2022-01-01T13:26:46Z" changeset="115634502" uid="281267" user="smb1001">
    <tag k="addr:city" v="Kimbolton"/>
    <tag k="addr:housenumber" v="4"/>
    <tag k="addr:street" v="Cromwell Court"/>
    <tag k="craft" v="caterer"/>
    <tag k="name" v="Nick &amp; Caroline Catering"/>
  </node>
  <node id="9383524269" lat="52.2966482" lon="-0.3882980" version="2" timestamp="2024-05-12T08:40:13Z" changeset="151214449" uid="95856" user="john paul jones &amp; gringo">
    <tag k="addr:city" v="Huntingdon"/>
    <tag k="addr:country" v="GB"/>
    <tag k="addr:housenumber" v="10"/>
    <tag k="addr:postcode" v="PE28 0HA"/>
    <tag k="addr:street" v="High Street"/>
    <tag k="addr:suburb" v="Kimbolton"/>
  </node>
  <node id="9383524276" lat="52.2964112" lon="-0.3879682" version="2" timestamp="2024-05-12T08:40:13Z" changeset="151214449" uid="95856" user="john paul jones &amp; gringo">
    <tag k="addr:city" v="Huntingdon"/>
    <tag k="addr:country" v="GB"/>
    <tag k="addr:housenumber" v="2"/>
    <tag k="addr:postcode" v="PE28 0HA"/>
    <tag k="addr:street" v="High Street"/>
    <tag k="addr:suburb" v="Kimbolton"/>
  </node>
  <node id="9383524282" lat="52.2970625" lon="-0.3889056" version="2" timestamp="2024-05-12T08:40:13Z" changeset="151214449" uid="95856" user="john paul jones &amp; gringo">
    <tag k="addr:city" v="Huntingdon"/>
    <tag k="addr:country" v="GB"/>
    <tag k="addr:housenumber" v="32"/>
    <tag k="addr:postcode" v="PE28 0HA"/>
    <tag k="addr:street" v="High Street"/>
    <tag k="addr:suburb" v="Kimbolton"/>
  </node>
  <node id="9383524289" lat="52.2967007" lon="-0.3883851" version="2" timestamp="2024-05-12T08:40:13Z" changeset="151214449" uid="95856" user="john paul jones &amp; gringo">
    <tag k="addr:city" v="Huntingdon"/>
    <tag k="addr:country" v="GB"/>
    <tag k="addr:housenumber" v="12"/>
    <tag k="addr:postcode" v="PE28 0HA"/>
    <tag k="addr:street" v="High Street"/>
    <tag k="addr:suburb" v="Kimbolton"/>
  </node>
  <node id="9383524290" lat="52.2967213" lon="-0.3884161" version="2" timestamp="2024-05-12T08:40:13Z" changeset="151214449" uid="95856" user="john paul jones &amp; gringo">
    <tag k="addr:city" v="Huntingdon"/>
    <tag k="addr:country" v="GB"/>
    <tag k="addr:housenumber" v="14"/>
    <tag k="addr:postcode" v="PE28 0HA"/>
    <tag k="addr:street" v="High Street"/>
    <tag k="addr:suburb" v="Kimbolton"/>
  </node>
  <node id="9383524295" lat="52.2965367" lon="-0.3881585" version="2" timestamp="2024-05-12T08:40:13Z" changeset="151214449" uid="95856" user="john paul jones &amp; gringo">
    <tag k="addr:city" v="Huntingdon"/>
    <tag k="addr:country" v="GB"/>
    <tag k="addr:housenumber" v="6"/>
    <tag k="addr:postcode" v="PE28 0HA"/>
    <tag k="addr:street" v="High Street"/>
    <tag k="addr:suburb" v="Kimbolton"/>
    <tag k="name" v="Peter Lane"/>
    <tag k="office" v="estate_agent"/>
  </node>
  <node id="9383524308" lat="52.2964793" lon="-0.3880780" version="2" timestamp="2024-05-12T08:40:13Z" changeset="151214449" uid="95856" user="john paul jones &amp; gringo">
    <tag k="addr:city" v="Huntingdon"/>
    <tag k="addr:country" v="GB"/>
    <tag k="addr:housenumber" v="4"/>
    <tag k="addr:postcode" v="PE28 0HA"/>
    <tag k="addr:street" v="High Street"/>
    <tag k="addr:suburb" v="Kimbolton"/>
  </node>
  <node id="9383524312" lat="52.2965859" lon="-0.3882269" version="2" timestamp="2024-05-12T08:40:13Z" changeset="151214449" uid="95856" user="john paul jones &amp; gringo">
    <tag k="addr:city" v="Huntingdon"/>
    <tag k="addr:country" v="GB"/>
    <tag k="addr:housenumber" v="8"/>
    <tag k="addr:postcode" v="PE28 0HA"/>
    <tag k="addr:street" v="High Street"/>
    <tag k="addr:suburb" v="Kimbolton"/>
  </node>
  <node id="9383553236" lat="52.2965097" lon="-0.3886401" version="2" timestamp="2024-05-12T08:40:13Z" changeset="151214449" uid="95856" user="john paul jones &amp; gringo">
    <tag k="addr:city" v="Huntingdon"/>
    <tag k="addr:country" v="GB"/>
    <tag k="addr:housenumber" v="1"/>
    <tag k="addr:postcode" v="PE28 0HB"/>
    <tag k="addr:street" v="High Street"/>
    <tag k="addr:suburb" v="Kimbolton"/>
  </node>
  <node id="9383553253" lat="52.2965556" lon="-0.3887112" version="2" timestamp="2024-05-12T08:40:13Z" changeset="151214449" uid="95856" user="john paul jones &amp; gringo">
    <tag k="addr:city" v="Huntingdon"/>
    <tag k="addr:country" v="GB"/>
    <tag k="addr:housenumber" v="3"/>
    <tag k="addr:postcode" v="PE28 0HB"/>
    <tag k="addr:street" v="High Street"/>
    <tag k="addr:suburb" v="Kimbolton"/>
  </node>
  <node id="9383553278" lat="52.2969394" lon="-0.3892489" version="2" timestamp="2024-05-12T08:40:13Z" changeset="151214449" uid="95856" user="john paul jones &amp; gringo">
    <tag k="addr:city" v="Huntingdon"/>
    <tag k="addr:country" v="GB"/>
    <tag k="addr:housenumber" v="17"/>
    <tag k="addr:postcode" v="PE28 0HB"/>
    <tag k="addr:street" v="High Street"/>
    <tag k="addr:suburb" v="Kimbolton"/>
  </node>
  <way id="22724670" version="14" timestamp="2017-01-21T14:40:27Z" changeset="45351066" uid="1302721" user="Glucosamine">
    <nd ref="8583371"/>
    <nd ref="528869268"/>
    <nd ref="528869280"/>
    <nd ref="8583369"/>
    <nd ref="528869279"/>
    <nd ref="4622033144"/>
    <nd ref="8583368"/>
    <nd ref="528869276"/>
    <tag k="highway" v="secondary"/>
    <tag k="lcn" v="with_care"/>
    <tag k="ref" v="B645"/>
  </way>
  <way id="28222899" version="8" timestamp="2009-10-26T20:18:12Z" changeset="2959872" uid="28864" user="Hook">
    <nd ref="309980010"/>
    <nd ref="528869523"/>
    <tag k="highway" v="secondary"/>
    <tag k="maxspeed" v="30 mph"/>
    <tag k="name" v="Station Road"/>
    <tag k="ref" v="B660"/>
  </way>
  <way id="31006979" version="3" timestamp="2015-07-20T19:57:06Z" changeset="32762572" uid="90142" user="andy mackey">
    <nd ref="344774330"/>
    <nd ref="344774339"/>
    <nd ref="344774340"/>
    <nd ref="528869287"/>
    <nd ref="344774342"/>
    <nd ref="344774343"/>
    <nd ref="528869288"/>
    <nd ref="344774344"/>
    <nd ref="3659340054"/>
    <nd ref="344774346"/>
    <tag k="highway" v="residential"/>
    <tag k="name" v="Easton Road"/>
    <tag k="source" v="survey"/>
  </way>
  <way id="31006983" version="3" timestamp="2011-05-11T22:54:44Z" changeset="8117433" uid="90142" user="andy mackey">
    <nd ref="344774368"/>
    <nd ref="1280813347"/>
    <nd ref="1280813351"/>
    <nd ref="344774442"/>
    <nd ref="344774445"/>
    <nd ref="344774448"/>
    <nd ref="344774451"/>
    <nd ref="344774453"/>
    <nd ref="344774454"/>
    <nd ref="344774455"/>
    <nd ref="1280813320"/>
    <nd ref="344774456"/>
    <nd ref="344774457"/>
    <nd ref="344774458"/>
    <nd ref="344774459"/>
    <nd ref="344774460"/>
    <nd ref="344774461"/>
    <nd ref="344774464"/>
    <nd ref="344774466"/>
    <nd ref="344774469"/>
    <nd ref="344774472"/>
    <nd ref="344774473"/>
    <nd ref="344774474"/>
    <tag k="highway" v="unclassified"/>
    <tag k="name" v="Bigham's Lane"/>
  </way>
  <way id="32123350" version="7" timestamp="2021-11-22T14:57:37Z" changeset="114102050" uid="5619343" user="NorthIsland">
    <nd ref="309980031"/>
    <nd ref="6283631049"/>
    <nd ref="360591668"/>
    <nd ref="360591670"/>
    <nd ref="9275214912"/>
    <nd ref="360591671"/>
    <nd ref="9275214911"/>
    <nd ref="360591672"/>
    <nd ref="360591673"/>
    <nd ref="9275214910"/>
    <nd ref="9275214909"/>
    <nd ref="360591674"/>
    <nd ref="360591676"/>
    <nd ref="528869452"/>
    <nd ref="528869454"/>
    <nd ref="528869459"/>
    <nd ref="360591677"/>
    <nd ref="8962027543"/>
    <nd ref="528869460"/>
    <nd ref="360591678"/>
    <nd ref="8962027554"/>
    <nd ref="9275214821"/>
    <nd ref="6768930056"/>
    <nd ref="9275214756"/>
    <nd ref="360591679"/>
    <nd ref="8962027533"/>
    <nd ref="528869447"/>
    <tag k="highway" v="unclassified"/>
    <tag k="name" v="Station Road"/>
    <tag k="source" v="survey"/>
  </way>
  <way id="37431934" version="6" timestamp="2024-05-22T20:52:36Z" changeset="151696697" uid="2240506" user="SteveGP">
    <nd ref="528869743"/>
    <nd ref="3741432045"/>
    <nd ref="528869745"/>
    <nd ref="309980011"/>
    <nd ref="1334359692"/>
    <nd ref="528869740"/>
    <nd ref="528869747"/>
    <nd ref="309980012"/>
    <nd ref="11926912936"/>
    <nd ref="528869773"/>
    <nd ref="528869865"/>
    <nd ref="344764958"/>
    <nd ref="309980013"/>
    <nd ref="528869866"/>
    <nd ref="309980014"/>
    <tag k="abutters" v="residential"/>
    <tag k="highway" v="secondary"/>
    <tag k="maxspeed" v="30 mph"/>
    <tag k="name" v="Station Road"/>
    <tag k="ref" v="B660"/>
  </way>
  <way id="42362313" version="7" timestamp="2021-02-15T13:11:35Z" changeset="99312246" uid="10170582" user="priymose">
    <nd ref="344774346"/>
    <nd ref="344774347"/>
    <nd ref="3659340055"/>
    <nd ref="1280813300"/>
    <nd ref="344774349"/>
    <nd ref="344774350"/>
    <nd ref="344774351"/>
    <nd ref="344774353"/>
    <nd ref="1280813309"/>
    <nd ref="344774354"/>
    <nd ref="344774356"/>
    <nd ref="4365014317"/>
    <nd ref="1280813281"/>
    <nd ref="8425471484"/>
    <nd ref="344774357"/>
    <nd ref="344774359"/>
    <nd ref="1311897763"/>
    <nd ref="344774360"/>
    <nd ref="1311897762"/>
    <nd ref="344774362"/>
    <nd ref="344774363"/>
    <nd ref="344774365"/>
    <nd ref="344774366"/>
    <nd ref="344774368"/>
    <nd ref="344774369"/>
    <nd ref="344774370"/>
    <nd ref="4364970350"/>
    <nd ref="344774371"/>
    <nd ref="344774372"/>
    <nd ref="344774373"/>
    <nd ref="344774374"/>
    <tag k="highway" v="unclassified"/>
  </way>
  <way id="42362317" version="5" timestamp="2011-08-08T15:53:24Z" changeset="8958645" uid="3582" user="davidearl">
    <nd ref="528869249"/>
    <nd ref="528869247"/>
    <nd ref="309979926"/>
    <tag k="highway" v="secondary"/>
    <tag k="lcn" v="with_care"/>
    <tag k="maxspeed" v="30 mph"/>
    <tag k="ref" v="B645"/>
    <tag k="source" v="survey"/>
  </way>
  <way id="42362330" version="1" timestamp="2009-10-11T15:13:36Z" changeset="2814892" uid="3582" user="davidearl">
    <nd ref="528869275"/>
    <nd ref="528869278"/>
    <nd ref="528869282"/>
    <nd ref="528869185"/>
    <nd ref="528869187"/>
    <tag k="highway" v="residential"/>
    <tag k="name" v="Gimbers End"/>
    <tag k="source" v="survey"/>
  </way>
  <way id="42362332" version="7" timestamp="2022-02-01T16:58:40Z" changeset="116876925" uid="281267" user="smb1001">
    <nd ref="528869276"/>
    <nd ref="528869277"/>
    <nd ref="8923138530"/>
    <nd ref="8923138526"/>
    <nd ref="528869275"/>
    <nd ref="8583367"/>
    <nd ref="461096233"/>
    <nd ref="9466605822"/>
    <nd ref="4230844070"/>
    <nd ref="8583366"/>
    <nd ref="344774330"/>
    <nd ref="528869263"/>
    <nd ref="8583365"/>
    <nd ref="528869256"/>
    <nd ref="8583364"/>
    <nd ref="528869262"/>
    <nd ref="528869221"/>
    <nd ref="8583362"/>
    <nd ref="528869224"/>
    <nd ref="528869232"/>
    <nd ref="8583361"/>
    <nd ref="528869230"/>
    <nd ref="8583360"/>
    <nd ref="1280813264"/>
    <nd ref="528869248"/>
    <nd ref="528869251"/>
    <tag k="highway" v="secondary"/>
    <tag k="lcn" v="with_care"/>
    <tag k="maxspeed" v="30 mph"/>
    <tag k="name" v="Main Road"/>
    <tag k="ref" v="B645"/>
    <tag k="source" v="survey"/>
  </way>
  <way id="42362333" version="1" timestamp="2009-10-11T15:13:36Z" changeset="2814892" uid="3582" user="davidearl">
    <nd ref="528869247"/>
    <nd ref="528869250"/>
    <nd ref="528869233"/>
    <nd ref="528869237"/>
    <nd ref="528869225"/>
    <tag k="highway" v="residential"/>
    <tag k="source" v="survey"/>
  </way>
  <way id="42362335" version="7" timestamp="2022-02-01T15:58:43Z" changeset="116874570" uid="281267" user="smb1001">
    <nd ref="528869172"/>
    <nd ref="528869163"/>
    <nd ref="2697022309"/>
    <nd ref="528869164"/>
    <nd ref="528869203"/>
    <nd ref="4230844080"/>
    <nd ref="4230844083"/>
    <nd ref="4230844078"/>
    <nd ref="4230844079"/>
    <nd ref="528869191"/>
    <nd ref="4230844085"/>
    <nd ref="528869189"/>
    <nd ref="528869190"/>
    <nd ref="4230844086"/>
    <nd ref="528869193"/>
    <nd ref="5111061272"/>
    <nd ref="528869194"/>
    <nd ref="4230844071"/>
    <nd ref="6878228993"/>
    <nd ref="4230844084"/>
    <nd ref="4230813007"/>
    <nd ref="528869141"/>
    <nd ref="9466465817"/>
    <nd ref="528869148"/>
    <tag k="highway" v="residential"/>
    <tag k="name" v="Hatchet Lane"/>
    <tag k="source" v="survey"/>
  </way>
  <way id="42362336" version="5" timestamp="2023-08-15T21:29:19Z" changeset="139936567" uid="123091" user="ianc">
    <nd ref="528869158"/>
    <nd ref="2697022293"/>
    <nd ref="528869156"/>
    <nd ref="2697022295"/>
    <nd ref="528869167"/>
    <nd ref="528869171"/>
    <nd ref="528869170"/>
    <nd ref="528869172"/>
    <tag k="bicycle" v="designated"/>
    <tag k="designation" v="public_bridleway"/>
    <tag k="foot" v="designated"/>
    <tag k="highway" v="unclassified"/>
    <tag k="horse" v="designated"/>
    <tag k="name" v="Hatchet Lane"/>
    <tag k="source" v="survey"/>
  </way>
  <way id="42362339" version="8" timestamp="2021-08-31T02:45:13Z" changeset="110485623" uid="11734032" user="daitv">
    <nd ref="309979821"/>
    <nd ref="7305494197"/>
    <nd ref="9049529311"/>
    <nd ref="9049529312"/>
    <nd ref="528869148"/>
    <nd ref="5111061275"/>
    <nd ref="309979822"/>
    <nd ref="4230813003"/>
    <nd ref="7614551414"/>
    <nd ref="5111078350"/>
    <nd ref="309979926"/>
    <tag k="abutters" v="residential"/>
    <tag k="highway" v="secondary"/>
    <tag k="maxspeed" v="30 mph"/>
    <tag k="name" v="Park Lane"/>
    <tag k="ref" v="B660"/>
    <tag k="source" v="survey"/>
  </way>
  <way id="42362345" version="2" timestamp="2009-10-20T19:36:13Z" changeset="2906131" uid="28864" user="Hook">
    <nd ref="528869251"/>
    <nd ref="528869249"/>
    <tag k="bridge" v="yes"/>
    <tag k="highway" v="secondary"/>
    <tag k="layer" v="1"/>
    <tag k="maxspeed" v="30 mph"/>
    <tag k="name" v="Main Road"/>
    <tag k="ref" v="B645"/>
    <tag k="source" v="survey"/>
  </way>
  <way id="42362348" version="2" timestamp="2013-05-11T14:49:29Z" changeset="16081121" uid="90142" user="andy mackey">
    <nd ref="528869263"/>
    <nd ref="528869264"/>
    <nd ref="528869257"/>
    <nd ref="2299697809"/>
    <nd ref="528869195"/>
    <tag k="highway" v="residential"/>
    <tag k="name" v="Old Ford Lane"/>
    <tag k="source" v="survey"/>
  </way>
  <way id="42362354" version="9" timestamp="2021-11-22T20:28:49Z" changeset="114113412" uid="5619343" user="NorthIsland">
    <nd ref="309980014"/>
    <nd ref="7927640272"/>
    <nd ref="528869396"/>
    <nd ref="309980017"/>
    <nd ref="309980019"/>
    <nd ref="309980021"/>
    <nd ref="6283631001"/>
    <nd ref="309980023"/>
    <nd ref="309980025"/>
    <nd ref="6283631002"/>
    <nd ref="309980026"/>
    <nd ref="309980027"/>
    <nd ref="9276153199"/>
    <nd ref="6283631004"/>
    <nd ref="9276153191"/>
    <nd ref="309980028"/>
    <tag k="highway" v="secondary"/>
    <tag k="ref" v="B660"/>
  </way>
  <way id="42362358" version="4" timestamp="2011-07-07T20:39:01Z" changeset="8660969" uid="71337" user="quantumstate">
    <nd ref="528869520"/>
    <nd ref="528869511"/>
    <nd ref="1334359649"/>
    <nd ref="309980010"/>
    <nd ref="8583341"/>
    <nd ref="528869385"/>
    <nd ref="1352947321"/>
    <nd ref="528869386"/>
    <nd ref="8583339"/>
    <nd ref="1352947314"/>
    <nd ref="8583337"/>
    <nd ref="1352947428"/>
    <nd ref="528869380"/>
    <nd ref="8583336"/>
    <nd ref="8583335"/>
    <tag k="abutters" v="residential"/>
    <tag k="highway" v="secondary"/>
    <tag k="maxspeed" v="30 mph"/>
    <tag k="name" v="Tilbrook Road"/>
    <tag k="ref" v="B645"/>
    <tag k="source" v="survey"/>
  </way>
  <way id="42362361" version="4" timestamp="2021-11-23T11:41:45Z" changeset="114136987" uid="5619343" user="NorthIsland">
    <nd ref="8583335"/>
    <nd ref="528869374"/>
    <nd ref="1352947304"/>
    <nd ref="1352947422"/>
    <nd ref="1352947272"/>
    <nd ref="1352947468"/>
    <nd ref="8583334"/>
    <nd ref="1352947372"/>
    <nd ref="8583333"/>
    <nd ref="1352947471"/>
    <nd ref="9046935120"/>
    <nd ref="8583332"/>
    <nd ref="9277542690"/>
    <nd ref="528869373"/>
    <nd ref="1352947350"/>
    <nd ref="1352947458"/>
    <nd ref="8583331"/>
    <nd ref="1352947373"/>
    <nd ref="1352947460"/>
    <nd ref="8583330"/>
    <nd ref="1352947470"/>
    <nd ref="8583329"/>
    <nd ref="528869358"/>
    <nd ref="1352947293"/>
    <nd ref="1352947401"/>
    <nd ref="1352947486"/>
    <nd ref="8583328"/>
    <nd ref="1352947331"/>
    <nd ref="1352947454"/>
    <nd ref="8583327"/>
    <nd ref="528869356"/>
    <nd ref="1352947456"/>
    <nd ref="1352947278"/>
    <nd ref="1352947294"/>
    <nd ref="8583326"/>
    <nd ref="1352947284"/>
    <nd ref="1352947338"/>
    <nd ref="1352947302"/>
    <nd ref="1352947374"/>
    <nd ref="8583325"/>
    <nd ref="528869403"/>
    <tag k="highway" v="secondary"/>
    <tag k="ref" v="B645"/>
  </way>
  <way id="42362363" version="7" timestamp="2021-11-23T08:17:31Z" changeset="114128709" uid="5619343" user="NorthIsland">
    <nd ref="528869403"/>
    <nd ref="1352947346"/>
    <nd ref="1352947403"/>
    <nd ref="8583324"/>
    <nd ref="1352947400"/>
    <nd ref="1352947352"/>
    <nd ref="8583323"/>
    <nd ref="1352947308"/>
    <nd ref="1352947315"/>
    <nd ref="1352947292"/>
    <nd ref="8583322"/>
    <nd ref="1320419993"/>
    <nd ref="8583321"/>
    <nd ref="1352947311"/>
    <nd ref="528869404"/>
    <nd ref="1352947281"/>
    <nd ref="1352947273"/>
    <nd ref="1352947295"/>
    <nd ref="528869299"/>
    <nd ref="8583319"/>
    <nd ref="360591690"/>
    <nd ref="1352947276"/>
    <nd ref="1352947424"/>
    <nd ref="8583318"/>
    <nd ref="1352947300"/>
    <nd ref="1352947328"/>
    <nd ref="8583317"/>
    <nd ref="7607907492"/>
    <nd ref="528869310"/>
    <nd ref="2463252267"/>
    <nd ref="528869309"/>
    <tag k="abutters" v="residential"/>
    <tag k="highway" v="secondary"/>
    <tag k="maxspeed" v="40 mph"/>
    <tag k="name" v="High Street"/>
    <tag k="ref" v="B645"/>
    <tag k="source" v="survey"/>
  </way>
  <way id="42362386" version="2" timestamp="2009-10-26T20:18:11Z" changeset="2959872" uid="28864" user="Hook">
    <nd ref="528869523"/>
    <nd ref="528869743"/>
    <tag k="bridge" v="yes"/>
    <tag k="highway" v="secondary"/>
    <tag k="layer" v="1"/>
    <tag k="maxspeed" v="30 mph"/>
    <tag k="name" v="Station Road"/>
    <tag k="ref" v="B660"/>
  </way>
  <way id="42362388" version="1" timestamp="2009-10-11T15:13:42Z" changeset="2814892" uid="3582" user="davidearl">
    <nd ref="528869549"/>
    <nd ref="528869825"/>
    <tag k="highway" v="residential"/>
    <tag k="name" v="St Andrews Court"/>
    <tag k="source" v="survey"/>
  </way>
  <way id="42362389" version="2" timestamp="2014-09-03T13:31:34Z" changeset="25204925" uid="90142" user="andy mackey">
    <nd ref="528869829"/>
    <nd ref="3057381157"/>
    <nd ref="528869881"/>
    <nd ref="528869878"/>
    <nd ref="528869890"/>
    <nd ref="528869889"/>
    <nd ref="528869887"/>
    <nd ref="528869717"/>
    <tag k="highway" v="residential"/>
    <tag k="name" v="Newtown"/>
    <tag k="source" v="survey"/>
  </way>
  <way id="42362391" version="5" timestamp="2022-05-01T17:23:36Z" changeset="120429496" uid="281267" user="smb1001">
    <nd ref="528869881"/>
    <nd ref="528869873"/>
    <nd ref="528869880"/>
    <nd ref="3057396914"/>
    <nd ref="528869879"/>
    <nd ref="528869876"/>
    <nd ref="3741432041"/>
    <nd ref="528869707"/>
    <nd ref="528869701"/>
    <nd ref="528869698"/>
    <nd ref="528869696"/>
    <nd ref="4881679079"/>
    <nd ref="528869703"/>
    <nd ref="9707505085"/>
    <nd ref="9707559563"/>
    <nd ref="528869680"/>
    <tag k="highway" v="residential"/>
    <tag k="name" v="Constables Leys"/>
    <tag k="source" v="survey"/>
  </way>
  <way id="42362392" version="1" timestamp="2009-10-11T15:13:43Z" changeset="2814892" uid="3582" user="davidearl">
    <nd ref="528869823"/>
    <nd ref="528869825"/>
    <nd ref="528869557"/>
    <tag k="highway" v="residential"/>
    <tag k="name" v="St Andrews Court"/>
    <tag k="source" v="survey"/>
  </way>
  <way id="42362393" version="1" timestamp="2009-10-11T15:13:43Z" changeset="2814892" uid="3582" user="davidearl">
    <nd ref="528869876"/>
    <nd ref="528869877"/>
    <nd ref="528869705"/>
    <tag k="highway" v="residential"/>
    <tag k="name" v="Constables Leys"/>
    <tag k="source" v="survey"/>
  </way>
  <way id="42362394" version="5" timestamp="2011-05-11T23:05:15Z" changeset="8117486" uid="90142" user="andy mackey">
    <nd ref="8583348"/>
    <nd ref="8583347"/>
    <nd ref="528869605"/>
    <nd ref="528869584"/>
    <nd ref="528869585"/>
    <nd ref="528869588"/>
    <nd ref="528869487"/>
    <nd ref="1280788474"/>
    <nd ref="8583346"/>
    <nd ref="528869651"/>
    <nd ref="1280815459"/>
    <nd ref="8583345"/>
    <tag k="abutters" v="residential"/>
    <tag k="highway" v="secondary"/>
    <tag k="maxspeed" v="30 mph"/>
    <tag k="name" v="High Street"/>
    <tag k="ref" v="B645"/>
    <tag k="source" v="survey"/>
  </way>
  <way id="42362395" version="8" timestamp="2025-03-04T16:05:29Z" changeset="163208164" uid="22559665" user="H386">
    <nd ref="8583345"/>
    <nd ref="1542116604"/>
    <nd ref="8583344"/>
    <nd ref="1542116610"/>
    <nd ref="528869544"/>
    <nd ref="8583343"/>
    <nd ref="1542116609"/>
    <nd ref="528869545"/>
    <nd ref="1542116596"/>
    <nd ref="528869555"/>
    <nd ref="8583342"/>
    <nd ref="528869552"/>
    <nd ref="6819698610"/>
    <nd ref="1542116586"/>
    <nd ref="3430747999"/>
    <nd ref="3741432060"/>
    <nd ref="528869550"/>
    <nd ref="528869551"/>
    <tag k="abutters" v="residential"/>
    <tag k="highway" v="secondary"/>
    <tag k="lanes" v="2"/>
    <tag k="maxspeed" v="30 mph"/>
    <tag k="name" v="Thrapston Road"/>
    <tag k="ref" v="B645"/>
    <tag k="source" v="survey"/>
    <tag k="surface" v="asphalt"/>
  </way>
  <way id="42362397" version="3" timestamp="2011-05-11T23:05:16Z" changeset="8117486" uid="90142" user="andy mackey">
    <nd ref="528869664"/>
    <nd ref="1280815462"/>
    <nd ref="528869591"/>
    <nd ref="528869584"/>
    <tag k="highway" v="residential"/>
    <tag k="name" v="St Andrews Lane"/>
    <tag k="source" v="survey"/>
  </way>
  <way id="42362398" version="6" timestamp="2025-03-04T16:18:18Z" changeset="163208164" uid="22559665" user="H386">
    <nd ref="8583349"/>
    <nd ref="1280788557"/>
    <nd ref="528869623"/>
    <nd ref="9383561879"/>
    <nd ref="9383524284"/>
    <nd ref="528869665"/>
    <nd ref="528869664"/>
    <tag k="highway" v="residential"/>
    <tag k="lane_markings" v="no"/>
    <tag k="name" v="East Street"/>
    <tag k="source" v="survey"/>
    <tag k="surface" v="asphalt"/>
  </way>
  <way id="42362399" version="1" timestamp="2009-10-11T15:13:44Z" changeset="2814892" uid="3582" user="davidearl">
    <nd ref="528869701"/>
    <nd ref="528869549"/>
    <tag k="highway" v="residential"/>
    <tag k="name" v="Constables Leys"/>
    <tag k="source" v="survey"/>
  </way>
  <way id="42362403" version="2" timestamp="2009-10-20T19:36:12Z" changeset="2906131" uid="28864" user="Hook">
    <nd ref="528869551"/>
    <nd ref="528869520"/>
    <tag k="bridge" v="yes"/>
    <tag k="highway" v="secondary"/>
    <tag k="layer" v="1"/>
    <tag k="maxspeed" v="30 mph"/>
    <tag k="ref" v="B645"/>
    <tag k="source" v="survey"/>
  </way>
  <way id="42362406" version="3" timestamp="2011-12-12T10:51:09Z" changeset="10097615" uid="90142" user="andy mackey">
    <nd ref="528869526"/>
    <nd ref="1542143301"/>
    <nd ref="528869528"/>
    <nd ref="1542143309"/>
    <nd ref="528869527"/>
    <nd ref="528869530"/>
    <nd ref="528869531"/>
    <nd ref="528869524"/>
    <nd ref="1542143291"/>
    <nd ref="1542143339"/>
    <nd ref="528869534"/>
    <nd ref="528869525"/>
    <nd ref="528869501"/>
    <nd ref="528869500"/>
    <nd ref="528869505"/>
    <nd ref="1542143280"/>
    <nd ref="528869502"/>
    <nd ref="528869506"/>
    <nd ref="1542143277"/>
    <nd ref="528869507"/>
    <nd ref="528869504"/>
    <nd ref="528869508"/>
    <nd ref="1280788555"/>
    <nd ref="528869514"/>
    <nd ref="528869550"/>
    <tag k="highway" v="residential"/>
    <tag k="name" v="Castle Gardens"/>
    <tag k="source" v="survey"/>
  </way>
  <way id="42362408" version="1" timestamp="2009-10-11T15:13:44Z" changeset="2814892" uid="3582" user="davidearl">
    <nd ref="528869552"/>
    <nd ref="528869537"/>
    <tag k="highway" v="residential"/>
    <tag k="name" v="Tollfield"/>
    <tag k="source" v="survey"/>
  </way>
  <way id="42362409" version="1" timestamp="2009-10-11T15:13:44Z" changeset="2814892" uid="3582" user="davidearl">
    <nd ref="8583346"/>
    <nd ref="528869540"/>
    <nd ref="528869538"/>
    <nd ref="528869541"/>
    <tag k="highway" v="residential"/>
    <tag k="name" v="Grass Yard"/>
    <tag k="source" v="survey"/>
  </way>
  <way id="42362410" version="1" timestamp="2009-10-11T15:13:44Z" changeset="2814892" uid="3582" user="davidearl">
    <nd ref="528869525"/>
    <nd ref="528869499"/>
    <tag k="highway" v="residential"/>
    <tag k="name" v="Castle Gardens"/>
    <tag k="source" v="survey"/>
  </way>
  <way id="42362418" version="5" timestamp="2022-05-19T05:16:00Z" changeset="121173853" uid="15204658" user="Ra_colate">
    <nd ref="8583351"/>
    <nd ref="528869638"/>
    <nd ref="9753505794"/>
    <nd ref="1280788568"/>
    <nd ref="1419911860"/>
    <nd ref="8583350"/>
    <nd ref="8583349"/>
    <nd ref="528869622"/>
    <nd ref="528869618"/>
    <nd ref="1419911859"/>
    <nd ref="9753505795"/>
    <nd ref="1419911858"/>
    <nd ref="1419911876"/>
    <nd ref="528869611"/>
    <nd ref="8583348"/>
    <tag k="highway" v="secondary"/>
    <tag k="maxspeed" v="30 mph"/>
    <tag k="name" v="London Road"/>
    <tag k="ref" v="B645"/>
    <tag k="source" v="survey"/>
  </way>
  <way id="42362422" version="2" timestamp="2020-10-12T05:39:47Z" changeset="92325110" uid="10252557" user="anuvashi">
    <nd ref="8583347"/>
    <nd ref="528869606"/>
    <nd ref="528869566"/>
    <nd ref="7998740771"/>
    <nd ref="528869563"/>
    <tag k="highway" v="residential"/>
    <tag k="name" v="Castle Green"/>
    <tag k="source" v="survey"/>
  </way>
  <way id="42362426" version="1" timestamp="2009-10-11T15:13:46Z" changeset="2814892" uid="3582" user="davidearl">
    <nd ref="528869661"/>
    <nd ref="528869663"/>
    <nd ref="528869662"/>
    <nd ref="528869655"/>
    <tag k="highway" v="residential"/>
    <tag k="name" v="Carnaby"/>
    <tag k="source" v="survey"/>
  </way>
  <way id="42362428" version="2" timestamp="2011-12-12T10:30:47Z" changeset="10097615" uid="90142" user="andy mackey">
    <nd ref="8583345"/>
    <nd ref="1542116585"/>
    <nd ref="528869650"/>
    <nd ref="528869661"/>
    <tag k="highway" v="residential"/>
    <tag k="name" v="Carnaby"/>
    <tag k="source" v="survey"/>
  </way>
  <way id="42362429" version="1" timestamp="2009-10-11T15:13:47Z" changeset="2814892" uid="3582" user="davidearl">
    <nd ref="528869661"/>
    <nd ref="528869654"/>
    <nd ref="528869657"/>
    <nd ref="528869656"/>
    <tag k="highway" v="residential"/>
    <tag k="name" v="Carnaby"/>
    <tag k="source" v="survey"/>
  </way>
  <way id="42362431" version="2" timestamp="2018-02-01T01:23:18Z" changeset="55951860" uid="873940" user="Mike Baggaley">
    <nd ref="528869837"/>
    <nd ref="528869832"/>
    <nd ref="528869847"/>
    <nd ref="528869861"/>
    <nd ref="528869870"/>
    <nd ref="528869869"/>
    <nd ref="528869868"/>
    <nd ref="528869872"/>
    <tag k="highway" v="residential"/>
    <tag k="motor_vehicle" v="destination"/>
    <tag k="name" v="Stow Road"/>
    <tag k="source" v="survey"/>
  </way>
  <way id="42362433" version="1" timestamp="2009-10-11T15:13:47Z" changeset="2814892" uid="3582" user="davidearl">
    <nd ref="344764957"/>
    <nd ref="528869778"/>
    <tag k="highway" v="residential"/>
    <tag k="name" v="Aragon Place"/>
    <tag k="source" v="survey"/>
  </way>
  <way id="42362434" version="1" timestamp="2009-10-11T15:13:47Z" changeset="2814892" uid="3582" user="davidearl">
    <nd ref="528869829"/>
    <nd ref="528869883"/>
    <nd ref="528869900"/>
    <nd ref="528869901"/>
    <nd ref="528869894"/>
    <nd ref="528869915"/>
    <nd ref="528869914"/>
    <nd ref="528869907"/>
    <tag k="highway" v="residential"/>
    <tag k="name" v="Hunters Way"/>
    <tag k="source" v="survey"/>
  </way>
  <way id="42362435" version="1" timestamp="2009-10-11T15:13:47Z" changeset="2814892" uid="3582" user="davidearl">
    <nd ref="528869809"/>
    <nd ref="528869814"/>
    <tag k="highway" v="residential"/>
    <tag k="name" v="Ashfield"/>
    <tag k="source" v="survey"/>
  </way>
  <way id="42362436" version="2" timestamp="2022-05-03T15:55:42Z" changeset="120503606" uid="281267" user="smb1001">
    <nd ref="528869788"/>
    <nd ref="528869775"/>
    <nd ref="9711673057"/>
    <nd ref="528869806"/>
    <nd ref="528869801"/>
    <nd ref="528869778"/>
    <nd ref="528869840"/>
    <nd ref="528869846"/>
    <nd ref="528869850"/>
    <nd ref="528869845"/>
    <tag k="highway" v="residential"/>
    <tag k="name" v="Aragon Place"/>
    <tag k="source" v="survey"/>
  </way>
  <way id="42362438" version="1" timestamp="2009-10-11T15:13:47Z" changeset="2814892" uid="3582" user="davidearl">
    <nd ref="528869852"/>
    <nd ref="528869830"/>
    <tag k="highway" v="residential"/>
    <tag k="name" v="Newtown"/>
    <tag k="source" v="survey"/>
  </way>
  <way id="42362439" version="2" timestamp="2015-09-13T15:35:18Z" changeset="34002246" uid="90142" user="andy mackey">
    <nd ref="528869858"/>
    <nd ref="528869815"/>
    <nd ref="528869817"/>
    <nd ref="3741432039"/>
    <tag k="highway" v="residential"/>
    <tag k="name" v="Tudor Court"/>
    <tag k="source" v="survey"/>
  </way>
  <way id="42362440" version="1" timestamp="2009-10-11T15:13:48Z" changeset="2814892" uid="3582" user="davidearl">
    <nd ref="528869754"/>
    <nd ref="528869770"/>
    <nd ref="528869782"/>
    <nd ref="528869780"/>
    <nd ref="528869786"/>
    <nd ref="528869804"/>
    <tag k="highway" v="residential"/>
    <tag k="name" v="Maurice Close"/>
    <tag k="source" v="survey"/>
  </way>
  <way id="42362441" version="1" timestamp="2009-10-11T15:13:48Z" changeset="2814892" uid="3582" user="davidearl">
    <nd ref="528869786"/>
    <nd ref="528869831"/>
    <tag k="highway" v="residential"/>
    <tag k="name" v="Maurice Close"/>
    <tag k="source" v="survey"/>
  </way>
  <way id="42362442" version="2" timestamp="2014-09-03T13:55:28Z" changeset="25205386" uid="90142" user="andy mackey">
    <nd ref="528869747"/>
    <nd ref="528869768"/>
    <nd ref="528869754"/>
    <nd ref="528869833"/>
    <nd ref="3057396908"/>
    <nd ref="528869835"/>
    <nd ref="528869838"/>
    <nd ref="528869839"/>
    <nd ref="528869837"/>
    <nd ref="528869858"/>
    <nd ref="528869852"/>
    <tag k="highway" v="residential"/>
    <tag k="name" v="Newtown Lane"/>
    <tag k="source" v="survey"/>
  </way>
  <way id="42362443" version="3" timestamp="2021-07-20T06:57:56Z" changeset="108293832" uid="10170570" user="girinj">
    <nd ref="528869830"/>
    <nd ref="528869828"/>
    <nd ref="3741432040"/>
    <nd ref="528869827"/>
    <nd ref="528869826"/>
    <nd ref="528869822"/>
    <nd ref="528869821"/>
    <nd ref="8934995463"/>
    <nd ref="528869820"/>
    <nd ref="528869819"/>
    <nd ref="528869813"/>
    <tag k="highway" v="residential"/>
    <tag k="name" v="Ashfield"/>
    <tag k="source" v="survey"/>
  </way>
  <way id="42362444" version="2" timestamp="2015-09-13T15:35:18Z" changeset="34002246" uid="90142" user="andy mackey">
    <nd ref="528869818"/>
    <nd ref="3741432050"/>
    <nd ref="528869813"/>
    <nd ref="528869811"/>
    <nd ref="528869812"/>
    <nd ref="528869808"/>
    <nd ref="528869809"/>
    <nd ref="528869816"/>
    <tag k="highway" v="residential"/>
    <tag k="name" v="Ashfield"/>
    <tag k="source" v="survey"/>
  </way>
  <way id="42362447" version="2" timestamp="2022-05-03T15:55:42Z" changeset="120503606" uid="281267" user="smb1001">
    <nd ref="528869830"/>
    <nd ref="9711672902"/>
    <nd ref="528869829"/>
    <tag k="highway" v="residential"/>
    <tag k="name" v="Newtown (The Chestnuts)"/>
    <tag k="source" v="survey"/>
  </way>
  <way id="42362450" version="2" timestamp="2012-09-16T19:06:48Z" changeset="13134963" uid="4951" user="PeterEastern">
    <nd ref="528869866"/>
    <nd ref="528869867"/>
    <tag k="highway" v="residential"/>
    <tag k="name" v="Montagu Gardens"/>
    <tag k="source" v="survey"/>
  </way>
  <way id="42362451" version="2" timestamp="2012-09-16T19:06:48Z" changeset="13134963" uid="4951" user="PeterEastern">
    <nd ref="528869864"/>
    <nd ref="528869867"/>
    <nd ref="528869863"/>
    <tag k="highway" v="residential"/>
    <tag k="name" v="Montagu Gardens"/>
    <tag k="source" v="survey"/>
  </way>
  <way id="42362452" version="1" timestamp="2009-10-11T15:13:49Z" changeset="2814892" uid="3582" user="davidearl">
    <nd ref="528869916"/>
    <nd ref="528869918"/>
    <nd ref="528869913"/>
    <tag k="highway" v="residential"/>
    <tag k="name" v="Hunters Way"/>
    <tag k="source" v="survey"/>
  </way>
  <way id="42362454" version="1" timestamp="2009-10-11T15:13:49Z" changeset="2814892" uid="3582" user="davidearl">
    <nd ref="528869909"/>
    <nd ref="528869907"/>
    <nd ref="528869912"/>
    <nd ref="528869906"/>
    <tag k="highway" v="residential"/>
    <tag k="name" v="Hunters Way"/>
    <tag k="source" v="survey"/>
  </way>
  <way id="42362455" version="1" timestamp="2009-10-11T15:13:49Z" changeset="2814892" uid="3582" user="davidearl">
    <nd ref="528869912"/>
    <nd ref="528869910"/>
    <tag k="highway" v="residential"/>
    <tag k="name" v="Hunters Way"/>
    <tag k="source" v="survey"/>
  </way>
  <way id="42362456" version="1" timestamp="2009-10-11T15:13:49Z" changeset="2814892" uid="3582" user="davidearl">
    <nd ref="528869894"/>
    <nd ref="528869895"/>
    <nd ref="528869911"/>
    <nd ref="528869918"/>
    <tag k="highway" v="residential"/>
    <tag k="name" v="Hunters Way"/>
    <tag k="source" v="survey"/>
  </way>
  <way id="42362457" version="13" timestamp="2024-09-17T00:19:03Z" changeset="156709345" uid="21226027" user="DorneyLake123">
    <nd ref="528869874"/>
    <nd ref="1334359699"/>
    <nd ref="1334359700"/>
    <nd ref="4167526618"/>
    <nd ref="528869891"/>
    <nd ref="1334359690"/>
    <nd ref="1334359695"/>
    <nd ref="1334359693"/>
    <nd ref="528869874"/>
    <tag k="addr:city" v="Huntingdon"/>
    <tag k="addr:country" v="GB"/>
    <tag k="addr:postcode" v="PE28 0HY"/>
    <tag k="addr:street" v="Newtown"/>
    <tag k="addr:suburb" v="Kimbolton"/>
    <tag k="amenity" v="school"/>
    <tag k="capacity" v="140"/>
    <tag k="isced:level" v="1"/>
    <tag k="max_age" v="11"/>
    <tag k="min_age" v="2"/>
    <tag k="name" v="Kimbolton Primary Academy"/>
    <tag k="operator" v="Cambridgeshire County Council"/>
    <tag k="operator:wikidata" v="Q5025648"/>
    <tag k="ref:edubase" v="140386"/>
    <tag k="toilets:wheelchair" v="yes"/>
    <tag k="wheelchair" v="yes"/>
    <tag k="wikidata" v="Q66230363"/>
  </way>
  <way id="97984397" version="16" timestamp="2024-04-26T12:20:10Z" changeset="150536321" uid="10420541" user="Thingummy">
    <nd ref="344764899"/>
    <nd ref="2182742458"/>
    <nd ref="344764900"/>
    <nd ref="1296841944"/>
    <nd ref="2182742406"/>
    <nd ref="344764903"/>
    <nd ref="2182742444"/>
    <nd ref="2182742467"/>
    <nd ref="1296841970"/>
    <nd ref="344764904"/>
    <nd ref="3442578058"/>
    <nd ref="344764905"/>
    <nd ref="7208287753"/>
    <nd ref="344764906"/>
    <nd ref="11850297012"/>
    <nd ref="344764907"/>
    <nd ref="8425666771"/>
    <nd ref="344764909"/>
    <nd ref="344764910"/>
    <nd ref="3426867002"/>
    <nd ref="344764911"/>
    <nd ref="1677771148"/>
    <nd ref="1677771203"/>
    <nd ref="9276455145"/>
    <nd ref="9276455146"/>
    <nd ref="344764912"/>
    <nd ref="9276455148"/>
    <nd ref="344764913"/>
    <nd ref="1677771163"/>
    <nd ref="344774474"/>
    <nd ref="2584089626"/>
    <nd ref="344764914"/>
    <nd ref="9276455142"/>
    <nd ref="9276455149"/>
    <nd ref="344764916"/>
    <nd ref="9276455154"/>
    <nd ref="344764917"/>
    <nd ref="3426870247"/>
    <nd ref="344768899"/>
    <nd ref="344764918"/>
    <nd ref="9276455151"/>
    <nd ref="344764919"/>
    <nd ref="9711718885"/>
    <nd ref="344768936"/>
    <nd ref="528869948"/>
    <nd ref="344764922"/>
    <nd ref="528869938"/>
    <nd ref="344764923"/>
    <nd ref="344764925"/>
    <nd ref="528869939"/>
    <nd ref="344764927"/>
    <nd ref="344764934"/>
    <nd ref="528869936"/>
    <nd ref="344764936"/>
    <nd ref="9711718849"/>
    <nd ref="9711718875"/>
    <nd ref="528869937"/>
    <nd ref="3426866997"/>
    <nd ref="528869935"/>
    <nd ref="344764943"/>
    <nd ref="528869933"/>
    <nd ref="528869930"/>
    <nd ref="344764945"/>
    <nd ref="1280813265"/>
    <nd ref="528869932"/>
    <nd ref="344764946"/>
    <nd ref="344764947"/>
    <nd ref="528869931"/>
    <nd ref="344764949"/>
    <nd ref="344764950"/>
    <nd ref="344764951"/>
    <nd ref="528869919"/>
    <nd ref="6320477969"/>
    <nd ref="528869871"/>
    <nd ref="344764952"/>
    <nd ref="528869872"/>
    <nd ref="344764953"/>
    <nd ref="344764955"/>
    <nd ref="344764956"/>
    <nd ref="344764957"/>
    <nd ref="344764958"/>
    <tag k="highway" v="tertiary"/>
    <tag k="name" v="Stow Road"/>
    <tag k="source" v="survey"/>
  </way>
  <way id="98344137" version="10" timestamp="2021-11-22T23:58:14Z" changeset="114118453" uid="5619343" user="NorthIsland">
    <nd ref="309980031"/>
    <nd ref="9275085055"/>
    <nd ref="6283631051"/>
    <nd ref="309980032"/>
    <nd ref="9275085054"/>
    <nd ref="9275085053"/>
    <nd ref="9275085052"/>
    <nd ref="9275085051"/>
    <nd ref="309980033"/>
    <nd ref="309980034"/>
    <nd ref="9275085050"/>
    <nd ref="8962126334"/>
    <nd ref="9275085049"/>
    <nd ref="309980035"/>
    <nd ref="8962126331"/>
    <nd ref="9275085048"/>
    <nd ref="309980036"/>
    <nd ref="1328645639"/>
    <nd ref="309980037"/>
    <nd ref="3120739290"/>
    <nd ref="8448396617"/>
    <nd ref="3120739279"/>
    <nd ref="309980038"/>
    <nd ref="6564884050"/>
    <nd ref="3120739281"/>
    <nd ref="3120739280"/>
    <nd ref="309980039"/>
    <nd ref="9276455122"/>
    <nd ref="4625469750"/>
    <nd ref="3120739287"/>
    <nd ref="3120739286"/>
    <nd ref="346389714"/>
    <tag k="highway" v="secondary"/>
    <tag k="ref" v="B660"/>
  </way>
  <way id="98344138" version="3" timestamp="2021-11-22T14:01:58Z" changeset="114099876" uid="5619343" user="NorthIsland">
    <nd ref="309980028"/>
    <nd ref="6283631003"/>
    <nd ref="6283631047"/>
    <nd ref="309980029"/>
    <nd ref="6283631048"/>
    <nd ref="309980030"/>
    <nd ref="6283631050"/>
    <nd ref="9275085056"/>
    <nd ref="309980031"/>
    <tag k="highway" v="secondary"/>
    <tag k="name" v="Bustard Hill"/>
    <tag k="ref" v="B660"/>
  </way>
  <way id="99127280" version="3" timestamp="2021-08-02T06:32:26Z" changeset="109004456" uid="10170582" user="priymose">
    <nd ref="1146599914"/>
    <nd ref="309979812"/>
    <nd ref="8973491975"/>
    <nd ref="2584089641"/>
    <nd ref="2584089635"/>
    <nd ref="8973491983"/>
    <nd ref="309979813"/>
    <nd ref="309979814"/>
    <nd ref="309979815"/>
    <nd ref="309979816"/>
    <nd ref="309979817"/>
    <nd ref="309979818"/>
    <nd ref="309979819"/>
    <nd ref="309979820"/>
    <nd ref="309979821"/>
    <tag k="highway" v="secondary"/>
    <tag k="ref" v="B660"/>
  </way>
  <way id="112738999" version="1" timestamp="2011-05-11T22:25:23Z" changeset="8117283" uid="90142" user="andy mackey">
    <nd ref="528869538"/>
    <nd ref="1280788475"/>
    <nd ref="1280788472"/>
    <tag k="highway" v="residential"/>
  </way>
  <way id="119808889" version="4" timestamp="2025-03-04T16:21:42Z" changeset="163208164" uid="22559665" user="H386">
    <nd ref="309979926"/>
    <nd ref="528869217"/>
    <nd ref="1280788566"/>
    <nd ref="1280788561"/>
    <nd ref="8583358"/>
    <nd ref="1280788563"/>
    <nd ref="8583355"/>
    <nd ref="528869646"/>
    <nd ref="8583353"/>
    <nd ref="5111078351"/>
    <nd ref="528869639"/>
    <nd ref="8583351"/>
    <tag k="highway" v="secondary"/>
    <tag k="lanes" v="2"/>
    <tag k="maxspeed" v="30 mph"/>
    <tag k="ref" v="B645"/>
    <tag k="source" v="survey"/>
    <tag k="surface" v="asphalt"/>
  </way>
  <way id="125163999" version="3" timestamp="2021-09-21T07:01:29Z" changeset="111478335" uid="322785" user="BCNorwich">
    <nd ref="344774374"/>
    <nd ref="344774375"/>
    <nd ref="9110070059"/>
    <tag k="highway" v="unclassified"/>
  </way>
  <way id="134670044" version="8" timestamp="2023-10-31T15:03:55Z" changeset="143426766" uid="90142" user="andy mackey">
    <nd ref="1480327236"/>
    <nd ref="4364970276"/>
    <nd ref="4364970275"/>
    <nd ref="4364970263"/>
    <nd ref="4364970278"/>
    <nd ref="4364970277"/>
    <nd ref="4364970262"/>
    <nd ref="4364970261"/>
    <nd ref="1480326997"/>
    <nd ref="1480327212"/>
    <nd ref="1480327227"/>
    <nd ref="1480327161"/>
    <nd ref="4365013958"/>
    <nd ref="1480327110"/>
    <nd ref="1480327040"/>
    <nd ref="1480327019"/>
    <nd ref="1480327276"/>
    <nd ref="1480327065"/>
    <nd ref="4364970254"/>
    <nd ref="1480327057"/>
    <nd ref="4364970315"/>
    <nd ref="4364970255"/>
    <nd ref="4364970256"/>
    <nd ref="11302564742"/>
    <nd ref="11302564743"/>
    <nd ref="11302564738"/>
    <nd ref="4364970257"/>
    <nd ref="4364970258"/>
    <nd ref="11302564737"/>
    <nd ref="11302564741"/>
    <nd ref="4364970260"/>
    <nd ref="4364970259"/>
    <nd ref="1480327236"/>
    <tag k="addr:city" v="St Neots"/>
    <tag k="addr:place" v="Stonely"/>
    <tag k="addr:postcode" v="PE19 5NX"/>
    <tag k="addr:street" v="Bigrams Lane"/>
    <tag k="industrial" v="gas"/>
    <tag k="landuse" v="industrial"/>
    <tag k="man_made" v="pumping_station"/>
    <tag k="name" v="Huntingdon Gas Compressor Station"/>
    <tag k="substance" v="gas"/>
    <tag k="type" v="gas"/>
    <tag k="utility" v="gas"/>
  </way>
  <way id="140835212" version="7" timestamp="2025-03-04T16:05:39Z" changeset="163208176" uid="22559665" user="H386">
    <nd ref="1542116587"/>
    <nd ref="9201324826"/>
    <nd ref="1542116601"/>
    <nd ref="1542116602"/>
    <nd ref="1542116592"/>
    <nd ref="1542116607"/>
    <nd ref="1542116594"/>
    <nd ref="1542116599"/>
    <nd ref="1542116606"/>
    <nd ref="1542116587"/>
    <tag k="addr:city" v="Huntingdon"/>
    <tag k="addr:country" v="GB"/>
    <tag k="addr:postcode" v="PE28 0HW"/>
    <tag k="addr:street" v="Thrapston Road"/>
    <tag k="addr:suburb" v="Kimbolton"/>
    <tag k="amenity" v="community_centre"/>
    <tag k="building" v="public"/>
    <tag k="check_date:opening_hours" v="2025-03-04"/>
    <tag k="name" v="Mandeville Hall"/>
    <tag k="nohousenumber" v="yes"/>
    <tag k="opening_hours:signed" v="no"/>
    <tag k="source" v="survey and bing"/>
  </way>
  <way id="181335704" version="1" timestamp="2012-09-16T19:06:43Z" changeset="13134963" uid="4951" user="PeterEastern">
    <nd ref="1917584623"/>
    <nd ref="344774376"/>
    <nd ref="344774377"/>
    <nd ref="344774378"/>
    <tag k="highway" v="unclassified"/>
    <tag k="name" v="Stocking Lane"/>
  </way>
  <way id="301656018" version="1" timestamp="2014-09-03T13:55:26Z" changeset="25205386" uid="90142" user="andy mackey">
    <nd ref="3057396906"/>
    <nd ref="528869845"/>
    <tag k="highway" v="residential"/>
    <tag k="name" v="Aragon Place"/>
    <tag k="source" v="survey"/>
  </way>
  <way id="335055829" version="3" timestamp="2024-04-04T11:39:15Z" changeset="149566150" uid="95856" user="john paul jones &amp; gringo">
    <nd ref="3421846500"/>
    <nd ref="4365013987"/>
    <nd ref="3421846501"/>
    <nd ref="4365013978"/>
    <nd ref="4365013979"/>
    <nd ref="4365013980"/>
    <nd ref="3421846502"/>
    <nd ref="4365013981"/>
    <nd ref="4365013982"/>
    <nd ref="4365013983"/>
    <nd ref="4365013984"/>
    <nd ref="3421846503"/>
    <nd ref="4365013985"/>
    <nd ref="3421846504"/>
    <nd ref="4365013986"/>
    <nd ref="4365013988"/>
    <nd ref="4365014289"/>
    <nd ref="3421846500"/>
    <tag k="addr:city" v="St Neots"/>
    <tag k="addr:country" v="GB"/>
    <tag k="addr:housename" v="Priory Farm"/>
    <tag k="addr:postcode" v="PE19 5EN"/>
    <tag k="addr:street" v="Easton Road"/>
    <tag k="addr:suburb" v="Stonely"/>
    <tag k="landuse" v="farmyard"/>
    <tag k="name" v="Priory Farm"/>
  </way>
  <way id="370444092" version="1" timestamp="2015-09-13T15:35:16Z" changeset="34002246" uid="90142" user="andy mackey">
    <nd ref="528869705"/>
    <nd ref="3741432043"/>
    <tag k="highway" v="residential"/>
    <tag k="name" v="Constables Leys"/>
    <tag k="source" v="survey"/>
  </way>
  <way id="370444097" version="1" timestamp="2015-09-13T15:35:17Z" changeset="34002246" uid="90142" user="andy mackey">
    <nd ref="528869705"/>
    <nd ref="3741432042"/>
    <tag k="highway" v="residential"/>
    <tag k="name" v="Constables Leys"/>
    <tag k="source" v="survey"/>
  </way>
  <way id="438971053" version="2" timestamp="2024-05-12T08:44:44Z" changeset="151214588" uid="95856" user="john paul jones &amp; gringo">
    <nd ref="4366094309"/>
    <nd ref="4366094310"/>
    <nd ref="4366094311"/>
    <nd ref="4366094312"/>
    <nd ref="4366094313"/>
    <nd ref="4366094314"/>
    <nd ref="4366094309"/>
    <tag k="addr:city" v="Huntingdon"/>
    <tag k="addr:country" v="GB"/>
    <tag k="addr:housenumber" v="14"/>
    <tag k="addr:postcode" v="PE28 0NJ"/>
    <tag k="addr:street" v="Harvard Way"/>
    <tag k="addr:suburb" v="Kimbolton"/>
    <tag k="building" v="commercial"/>
    <tag k="name" v="Ditone Labels Ltd"/>
  </way>
  <way id="438971058" version="2" timestamp="2024-05-12T08:44:44Z" changeset="151214588" uid="95856" user="john paul jones &amp; gringo">
    <nd ref="4366094325"/>
    <nd ref="4366094326"/>
    <nd ref="4366094327"/>
    <nd ref="4366094328"/>
    <nd ref="4366094325"/>
    <tag k="addr:city" v="Huntingdon"/>
    <tag k="addr:country" v="GB"/>
    <tag k="addr:housenumber" v="12"/>
    <tag k="addr:postcode" v="PE28 0NJ"/>
    <tag k="addr:street" v="Havard Industrial Estate"/>
    <tag k="addr:suburb" v="Kimbolton"/>
    <tag k="building" v="commercial"/>
    <tag k="name" v="Young Living (Europe)"/>
  </way>
  <way id="438971064" version="2" timestamp="2024-05-12T08:44:44Z" changeset="151214588" uid="95856" user="john paul jones &amp; gringo">
    <nd ref="4366094339"/>
    <nd ref="4366094340"/>
    <nd ref="4366094341"/>
    <nd ref="4366094342"/>
    <nd ref="4366094343"/>
    <nd ref="4366094344"/>
    <nd ref="4366094339"/>
    <tag k="addr:city" v="Huntingdon"/>
    <tag k="addr:country" v="GB"/>
    <tag k="addr:housenumber" v="4"/>
    <tag k="addr:postcode" v="PE28 0EY"/>
    <tag k="addr:street" v="Grovemere Court"/>
    <tag k="addr:suburb" v="Kimbolton"/>
    <tag k="building" v="commercial"/>
  </way>
  <way id="670998339" version="4" timestamp="2024-05-12T08:40:13Z" changeset="151214449" uid="95856" user="john paul jones &amp; gringo">
    <nd ref="6283630650"/>
    <nd ref="9201324822"/>
    <nd ref="6283630642"/>
    <nd ref="6283630643"/>
    <nd ref="6283630644"/>
    <nd ref="6283630650"/>
    <tag k="addr:city" v="Huntingdon"/>
    <tag k="addr:country" v="GB"/>
    <tag k="addr:housenumber" v="28"/>
    <tag k="addr:postcode" v="PE28 0HA"/>
    <tag k="addr:street" v="High Street"/>
    <tag k="addr:suburb" v="Kimbolton"/>
    <tag k="building" v="yes"/>
  </way>
  <way id="670998340" version="6" timestamp="2024-08-27T16:07:29Z" changeset="155839733" uid="2240506" user="SteveGP">
    <nd ref="9383524280"/>
    <nd ref="9383524294"/>
    <nd ref="6283630650"/>
    <nd ref="6283630644"/>
    <nd ref="6283630649"/>
    <nd ref="6283630645"/>
    <nd ref="6283630646"/>
    <nd ref="9383524280"/>
    <tag k="addr:city" v="Huntingdon"/>
    <tag k="addr:country" v="GB"/>
    <tag k="addr:housenumber" v="26"/>
    <tag k="addr:postcode" v="PE28 0HA"/>
    <tag k="addr:street" v="High Street"/>
    <tag k="addr:suburb" v="Kimbolton"/>
    <tag k="amenity" v="restaurant"/>
    <tag k="building" v="yes"/>
    <tag k="cuisine" v="indian"/>
    <tag k="disused:amenity" v="pub"/>
    <tag k="name" v="Kimbolton Spice"/>
    <tag k="was:name" v="The Saddle"/>
    <tag k="wheelchair" v="limited"/>
  </way>
  <way id="985428302" version="1" timestamp="2021-09-21T07:01:29Z" changeset="111478335" uid="322785" user="BCNorwich">
    <nd ref="9110070059"/>
    <nd ref="1917584623"/>
    <tag k="bridge" v="yes"/>
    <tag k="highway" v="unclassified"/>
    <tag k="layer" v="1"/>
  </way>
  <way id="1017325345" version="1" timestamp="2022-01-01T12:31:32Z" changeset="115634502" uid="281267" user="smb1001">
    <nd ref="9383506880"/>
    <nd ref="9383458411"/>
    <nd ref="9383458404"/>
    <nd ref="9383458412"/>
    <nd ref="9383506836"/>
    <nd ref="9383506878"/>
    <nd ref="9383506898"/>
    <nd ref="9383506880"/>
    <tag k="addr:housenumber" v="30"/>
    <tag k="addr:street" v="East Street"/>
    <tag k="building" v="residential"/>
  </way>
  <way id="1017325350" version="1" timestamp="2022-01-01T12:31:32Z" changeset="115634502" uid="281267" user="smb1001">
    <nd ref="9383506874"/>
    <nd ref="9383506905"/>
    <nd ref="9383506839"/>
    <nd ref="9383506847"/>
    <nd ref="9383506870"/>
    <nd ref="9383458397"/>
    <nd ref="9383506867"/>
    <nd ref="9383458393"/>
    <nd ref="9383506874"/>
    <tag k="addr:housename" v="Brothers House"/>
    <tag k="addr:housenumber" v="18"/>
    <tag k="addr:street" v="East Street"/>
    <tag k="building" v="residential"/>
  </way>
  <way id="1017325351" version="1" timestamp="2022-01-01T12:31:32Z" changeset="115634502" uid="281267" user="smb1001">
    <nd ref="9383506878"/>
    <nd ref="9383458401"/>
    <nd ref="9383506889"/>
    <nd ref="9383506836"/>
    <nd ref="9383506878"/>
    <tag k="addr:housenumber" v="28"/>
    <tag k="addr:street" v="East Street"/>
    <tag k="building" v="residential"/>
  </way>
  <way id="1017325352" version="1" timestamp="2022-01-01T12:31:32Z" changeset="115634502" uid="281267" user="smb1001">
    <nd ref="9383506893"/>
    <nd ref="9383506833"/>
    <nd ref="9383506862"/>
    <nd ref="9383506855"/>
    <nd ref="9383506842"/>
    <nd ref="9383506841"/>
    <nd ref="9383506885"/>
    <nd ref="9383506871"/>
    <nd ref="9383506865"/>
    <nd ref="9383506884"/>
    <nd ref="9383458405"/>
    <nd ref="9383506893"/>
    <tag k="addr:housename" v="Dial House"/>
    <tag k="addr:housenumber" v="20"/>
    <tag k="addr:street" v="East Street"/>
    <tag k="building" v="residential"/>
  </way>
  <way id="1017325354" version="1" timestamp="2022-01-01T12:31:32Z" changeset="115634502" uid="281267" user="smb1001">
    <nd ref="9383506853"/>
    <nd ref="9383506901"/>
    <nd ref="9383506866"/>
    <nd ref="9383506893"/>
    <nd ref="9383458405"/>
    <nd ref="9383458389"/>
    <nd ref="9383506853"/>
    <tag k="addr:housenumber" v="24"/>
    <tag k="addr:street" v="East Street"/>
    <tag k="building" v="residential"/>
  </way>
  <way id="1017325358" version="1" timestamp="2022-01-01T12:31:32Z" changeset="115634502" uid="281267" user="smb1001">
    <nd ref="9383458390"/>
    <nd ref="9383506854"/>
    <nd ref="9383458389"/>
    <nd ref="9383506853"/>
    <nd ref="9383506849"/>
    <nd ref="9383506848"/>
    <nd ref="9383506852"/>
    <nd ref="9383458390"/>
    <tag k="addr:housenumber" v="26"/>
    <tag k="addr:street" v="East Street"/>
    <tag k="building" v="residential"/>
  </way>
  <way id="1017326623" version="3" timestamp="2024-05-12T08:40:13Z" changeset="151214449" uid="95856" user="john paul jones &amp; gringo">
    <nd ref="9383512506"/>
    <nd ref="9383515442"/>
    <nd ref="9383515489"/>
    <nd ref="9383515503"/>
    <nd ref="9383515458"/>
    <nd ref="9383515435"/>
    <nd ref="9383515502"/>
    <nd ref="9383512487"/>
    <nd ref="9383512506"/>
    <tag k="addr:city" v="Huntingdon"/>
    <tag k="addr:country" v="GB"/>
    <tag k="addr:housename" v="Montagu House"/>
    <tag k="addr:housenumber" v="48"/>
    <tag k="addr:postcode" v="PE28 0HA"/>
    <tag k="addr:street" v="High Street"/>
    <tag k="addr:suburb" v="Kimbolton"/>
    <tag k="building" v="yes"/>
  </way>
  <way id="1017326624" version="3" timestamp="2024-05-12T08:40:13Z" changeset="151214449" uid="95856" user="john paul jones &amp; gringo">
    <nd ref="9383515443"/>
    <nd ref="9383512506"/>
    <nd ref="9383512487"/>
    <nd ref="9383515424"/>
    <nd ref="9383515477"/>
    <nd ref="9383515437"/>
    <nd ref="9383512512"/>
    <nd ref="9383515443"/>
    <tag k="addr:city" v="Huntingdon"/>
    <tag k="addr:country" v="GB"/>
    <tag k="addr:housename" v="The Old Bakehouse"/>
    <tag k="addr:housenumber" v="42"/>
    <tag k="addr:postcode" v="PE28 0HA"/>
    <tag k="addr:street" v="High Street"/>
    <tag k="addr:suburb" v="Kimbolton"/>
    <tag k="building" v="yes"/>
  </way>
  <way id="1017326626" version="3" timestamp="2024-05-12T08:40:13Z" changeset="151214449" uid="95856" user="john paul jones &amp; gringo">
    <nd ref="6283630665"/>
    <nd ref="6283630659"/>
    <nd ref="6283630658"/>
    <nd ref="9383512516"/>
    <nd ref="9383515428"/>
    <nd ref="9383515452"/>
    <nd ref="9383515466"/>
    <nd ref="9383515447"/>
    <nd ref="9383512481"/>
    <nd ref="6283630666"/>
    <nd ref="6283630665"/>
    <tag k="addr:city" v="Huntingdon"/>
    <tag k="addr:country" v="GB"/>
    <tag k="addr:housename" v="Clancarty House"/>
    <tag k="addr:housenumber" v="23"/>
    <tag k="addr:postcode" v="PE28 0HB"/>
    <tag k="addr:street" v="High Street"/>
    <tag k="addr:suburb" v="Kimbolton"/>
    <tag k="building" v="yes"/>
  </way>
  <way id="1017326629" version="3" timestamp="2024-05-12T08:40:13Z" changeset="151214449" uid="95856" user="john paul jones &amp; gringo">
    <nd ref="9383512475"/>
    <nd ref="9383515481"/>
    <nd ref="9383515478"/>
    <nd ref="9383515459"/>
    <nd ref="9383512507"/>
    <nd ref="9383515460"/>
    <nd ref="9383512479"/>
    <nd ref="9383515423"/>
    <nd ref="9383512509"/>
    <nd ref="9383512475"/>
    <tag k="addr:city" v="Huntingdon"/>
    <tag k="addr:country" v="GB"/>
    <tag k="addr:housename" v="Kimbolton House"/>
    <tag k="addr:housenumber" v="9"/>
    <tag k="addr:postcode" v="PE28 0HB"/>
    <tag k="addr:street" v="High Street"/>
    <tag k="addr:suburb" v="Kimbolton"/>
    <tag k="building" v="yes"/>
  </way>
  <way id="1017326631" version="3" timestamp="2024-05-12T08:40:13Z" changeset="151214449" uid="95856" user="john paul jones &amp; gringo">
    <nd ref="9383515442"/>
    <nd ref="9383515441"/>
    <nd ref="9383515450"/>
    <nd ref="9383515489"/>
    <nd ref="9383515442"/>
    <tag k="addr:city" v="Huntingdon"/>
    <tag k="addr:country" v="GB"/>
    <tag k="addr:housenumber" v="52"/>
    <tag k="addr:postcode" v="PE28 0HA"/>
    <tag k="addr:street" v="High Street"/>
    <tag k="addr:suburb" v="Kimbolton"/>
    <tag k="building" v="yes"/>
  </way>
  <way id="1017326633" version="3" timestamp="2024-05-12T08:40:13Z" changeset="151214449" uid="95856" user="john paul jones &amp; gringo">
    <nd ref="9383524309"/>
    <nd ref="9383515429"/>
    <nd ref="9383515432"/>
    <nd ref="9383512511"/>
    <nd ref="9383524309"/>
    <tag k="addr:city" v="Huntingdon"/>
    <tag k="addr:country" v="GB"/>
    <tag k="addr:housenumber" v="34"/>
    <tag k="addr:postcode" v="PE28 0HA"/>
    <tag k="addr:street" v="High Street"/>
    <tag k="addr:suburb" v="Kimbolton"/>
    <tag k="building" v="yes"/>
  </way>
  <way id="1017326635" version="3" timestamp="2024-05-12T08:40:13Z" changeset="151214449" uid="95856" user="john paul jones &amp; gringo">
    <nd ref="9383515430"/>
    <nd ref="9383515443"/>
    <nd ref="9383512512"/>
    <nd ref="9383512482"/>
    <nd ref="9383515500"/>
    <nd ref="9383515434"/>
    <nd ref="9383515476"/>
    <nd ref="9383515430"/>
    <tag k="addr:city" v="Huntingdon"/>
    <tag k="addr:country" v="GB"/>
    <tag k="addr:housenumber" v="40"/>
    <tag k="addr:postcode" v="PE28 0HA"/>
    <tag k="addr:street" v="High Street"/>
    <tag k="addr:suburb" v="Kimbolton"/>
    <tag k="building" v="yes"/>
  </way>
  <way id="1017326638" version="3" timestamp="2024-05-12T08:40:13Z" changeset="151214449" uid="95856" user="john paul jones &amp; gringo">
    <nd ref="9383515480"/>
    <nd ref="9383515463"/>
    <nd ref="9383512491"/>
    <nd ref="9383515486"/>
    <nd ref="9383515438"/>
    <nd ref="9383512515"/>
    <nd ref="6283630660"/>
    <nd ref="9383515480"/>
    <tag k="addr:city" v="Huntingdon"/>
    <tag k="addr:country" v="GB"/>
    <tag k="addr:housenumber" v="15"/>
    <tag k="addr:postcode" v="PE28 0HB"/>
    <tag k="addr:street" v="High Street"/>
    <tag k="addr:suburb" v="Kimbolton"/>
    <tag k="building" v="yes"/>
  </way>
  <way id="1017326639" version="3" timestamp="2024-05-12T08:40:13Z" changeset="151214449" uid="95856" user="john paul jones &amp; gringo">
    <nd ref="6283630647"/>
    <nd ref="9383512495"/>
    <nd ref="9383515499"/>
    <nd ref="9383515487"/>
    <nd ref="9383512498"/>
    <nd ref="9383515418"/>
    <nd ref="9383512494"/>
    <nd ref="9383515440"/>
    <nd ref="6283630647"/>
    <tag k="addr:city" v="Huntingdon"/>
    <tag k="addr:country" v="GB"/>
    <tag k="addr:housenumber" v="20"/>
    <tag k="addr:postcode" v="PE28 0HA"/>
    <tag k="addr:street" v="High Street"/>
    <tag k="addr:suburb" v="Kimbolton"/>
    <tag k="amenity" v="pub"/>
    <tag k="building" v="yes"/>
    <tag k="name" v="New Sun Inn"/>
    <tag k="wheelchair" v="limited"/>
    <tag k="wikidata" v="Q26505790"/>
  </way>
  <way id="1017329050" version="2" timestamp="2024-05-12T08:40:13Z" changeset="151214449" uid="95856" user="john paul jones &amp; gringo">
    <nd ref="9383515429"/>
    <nd ref="9383524309"/>
    <nd ref="9383515430"/>
    <nd ref="9383515476"/>
    <nd ref="9383515457"/>
    <nd ref="9383515429"/>
    <tag k="addr:city" v="Huntingdon"/>
    <tag k="addr:country" v="GB"/>
    <tag k="addr:housenumber" v="36"/>
    <tag k="addr:postcode" v="PE28 0HA"/>
    <tag k="addr:street" v="High Street"/>
    <tag k="addr:suburb" v="Kimbolton"/>
    <tag k="building" v="yes"/>
  </way>
  <way id="1017329051" version="2" timestamp="2024-05-12T08:40:13Z" changeset="151214449" uid="95856" user="john paul jones &amp; gringo">
    <nd ref="9383524280"/>
    <nd ref="6283630648"/>
    <nd ref="9383515440"/>
    <nd ref="6283630647"/>
    <nd ref="9383524294"/>
    <nd ref="9383524280"/>
    <tag k="addr:city" v="Huntingdon"/>
    <tag k="addr:country" v="GB"/>
    <tag k="addr:housenumber" v="24"/>
    <tag k="addr:postcode" v="PE28 0HA"/>
    <tag k="addr:street" v="High Street"/>
    <tag k="addr:suburb" v="Kimbolton"/>
    <tag k="building" v="yes"/>
  </way>
  <way id="1017331030" version="2" timestamp="2024-05-12T08:40:13Z" changeset="151214449" uid="95856" user="john paul jones &amp; gringo">
    <nd ref="9383553277"/>
    <nd ref="6283630653"/>
    <nd ref="6283630652"/>
    <nd ref="6283630651"/>
    <nd ref="6283630658"/>
    <nd ref="6283630659"/>
    <nd ref="9383553277"/>
    <tag k="addr:city" v="Huntingdon"/>
    <tag k="addr:country" v="GB"/>
    <tag k="addr:housenumber" v="21"/>
    <tag k="addr:postcode" v="PE28 0HB"/>
    <tag k="addr:street" v="High Street"/>
    <tag k="addr:suburb" v="Kimbolton"/>
    <tag k="building" v="yes"/>
  </way>
  <way id="1017331032" version="2" timestamp="2024-05-12T08:40:13Z" changeset="151214449" uid="95856" user="john paul jones &amp; gringo">
    <nd ref="9383553271"/>
    <nd ref="9383515426"/>
    <nd ref="9383515469"/>
    <nd ref="9383515488"/>
    <nd ref="9383515490"/>
    <nd ref="9383515464"/>
    <nd ref="9383515491"/>
    <nd ref="9383515462"/>
    <nd ref="9383512502"/>
    <nd ref="9383512514"/>
    <nd ref="9383515455"/>
    <nd ref="9383553271"/>
    <tag k="addr:city" v="Huntingdon"/>
    <tag k="addr:country" v="GB"/>
    <tag k="addr:housenumber" v="35"/>
    <tag k="addr:postcode" v="PE28 0HB"/>
    <tag k="addr:street" v="High Street"/>
    <tag k="addr:suburb" v="Kimbolton"/>
    <tag k="building" v="yes"/>
  </way>
  <way id="1017331033" version="2" timestamp="2024-05-12T08:40:13Z" changeset="151214449" uid="95856" user="john paul jones &amp; gringo">
    <nd ref="9383553246"/>
    <nd ref="9383553268"/>
    <nd ref="9383553245"/>
    <nd ref="9383553240"/>
    <nd ref="9383553237"/>
    <nd ref="9383553257"/>
    <nd ref="9383553255"/>
    <nd ref="9383553243"/>
    <nd ref="9383553246"/>
    <tag k="addr:city" v="Huntingdon"/>
    <tag k="addr:country" v="GB"/>
    <tag k="addr:housename" v="The Vicarage"/>
    <tag k="addr:housenumber" v="37"/>
    <tag k="addr:postcode" v="PE28 0HB"/>
    <tag k="addr:street" v="High Street"/>
    <tag k="addr:suburb" v="Kimbolton"/>
    <tag k="building" v="yes"/>
  </way>
  <way id="1017331035" version="2" timestamp="2024-05-12T08:40:13Z" changeset="151214449" uid="95856" user="john paul jones &amp; gringo">
    <nd ref="9383515465"/>
    <nd ref="9383515504"/>
    <nd ref="9383515495"/>
    <nd ref="9383515468"/>
    <nd ref="9383512497"/>
    <nd ref="9383515470"/>
    <nd ref="9383515475"/>
    <nd ref="9383512483"/>
    <nd ref="6283630667"/>
    <nd ref="6283630668"/>
    <nd ref="9383515465"/>
    <tag k="addr:city" v="Huntingdon"/>
    <tag k="addr:country" v="GB"/>
    <tag k="addr:housename" v="Court House"/>
    <tag k="addr:housenumber" v="31"/>
    <tag k="addr:postcode" v="PE28 0HB"/>
    <tag k="addr:street" v="High Street"/>
    <tag k="addr:suburb" v="Kimbolton"/>
    <tag k="building" v="yes"/>
  </way>
  <way id="1017331036" version="2" timestamp="2024-05-12T08:40:13Z" changeset="151214449" uid="95856" user="john paul jones &amp; gringo">
    <nd ref="9383553280"/>
    <nd ref="9383515423"/>
    <nd ref="9383512479"/>
    <nd ref="9383515454"/>
    <nd ref="9383512496"/>
    <nd ref="9383515420"/>
    <nd ref="9383512478"/>
    <nd ref="9383553280"/>
    <tag k="addr:city" v="Huntingdon"/>
    <tag k="addr:country" v="GB"/>
    <tag k="addr:housenumber" v="7"/>
    <tag k="addr:postcode" v="PE28 0HB"/>
    <tag k="addr:street" v="High Street"/>
    <tag k="addr:suburb" v="Kimbolton"/>
    <tag k="building" v="yes"/>
  </way>
  <way id="1017331038" version="2" timestamp="2024-05-12T08:40:13Z" changeset="151214449" uid="95856" user="john paul jones &amp; gringo">
    <nd ref="9383553271"/>
    <nd ref="9383515455"/>
    <nd ref="9383515449"/>
    <nd ref="9383515467"/>
    <nd ref="9383515494"/>
    <nd ref="9383515504"/>
    <nd ref="9383515465"/>
    <nd ref="9383553271"/>
    <tag k="addr:city" v="Huntingdon"/>
    <tag k="addr:country" v="GB"/>
    <tag k="addr:housename" v="The White House"/>
    <tag k="addr:housenumber" v="33"/>
    <tag k="addr:postcode" v="PE28 0HB"/>
    <tag k="addr:street" v="High Street"/>
    <tag k="addr:suburb" v="Kimbolton"/>
    <tag k="building" v="yes"/>
  </way>
  <way id="1285772317" version="1" timestamp="2024-05-22T20:52:36Z" changeset="151696697" uid="2240506" user="SteveGP">
    <nd ref="11926912928"/>
    <nd ref="11926912929"/>
    <nd ref="11926912930"/>
    <nd ref="11926912931"/>
    <nd ref="11926912937"/>
    <nd ref="11926912932"/>
    <nd ref="11926912933"/>
    <nd ref="11926912934"/>
    <nd ref="11926912935"/>
    <nd ref="11926912936"/>
    <tag k="highway" v="residential"/>
  </way>
  <way id="1285772318" version="1" timestamp="2024-05-22T20:52:36Z" changeset="151696697" uid="2240506" user="SteveGP">
    <nd ref="11926912937"/>
    <nd ref="11926912938"/>
    <nd ref="11926912939"/>
    <tag k="highway" v="residential"/>
  </way>

</osm>
