<?xml version="1.0" encoding="UTF-8"?>
<osm version="0.6" generator="Overpass API 0.7.62.5 1bd436f1">
<note>The data included in this document is from www.openstreetmap.org. The data is made available under ODbL.</note>
<meta osm_base="2025-04-05T17:10:10Z" areas="2025-02-06T02:17:44Z"/>

  <node id="24978330" lat="52.2641255" lon="-0.2253161" version="3" timestamp="2021-08-21T16:39:31Z" changeset="110035043" uid="5173844" user="ndrw6"/>
  <node id="242766620" lat="52.2645429" lon="-0.1767441" version="3" timestamp="2021-07-09T17:54:44Z" changeset="107719667" uid="5173844" user="ndrw6"/>
  <node id="1218995162" lat="52.2891948" lon="-0.2202607" version="2" timestamp="2015-08-09T14:56:41Z" changeset="33220811" uid="90142" user="andy mackey"/>
  <node id="1457322431" lat="52.2864519" lon="-0.2139277" version="3" timestamp="2024-04-03T12:49:58Z" changeset="149523371" uid="95856" user="john paul jones &amp; gringo">
    <tag k="addr:city" v="St Neots"/>
    <tag k="addr:country" v="GB"/>
    <tag k="addr:housenumber" v="120"/>
    <tag k="addr:postcode" v="PE19 5RQ"/>
    <tag k="addr:street" v="High Street"/>
    <tag k="addr:suburb" v="Offord Cluny"/>
    <tag k="brand" v="Budgens"/>
    <tag k="brand:wikidata" v="Q4985016"/>
    <tag k="name" v="Budgens"/>
    <tag k="opening_hours" v="Mo-Su 07:00-21:00"/>
    <tag k="shop" v="convenience"/>
    <tag k="website" v="https://www.budgens.co.uk/our-stores/offord-cluny"/>
  </node>
  <node id="3230746524" lat="52.3003134" lon="-0.2225062" version="8" timestamp="2024-01-09T10:14:12Z" changeset="146060360" uid="5229644" user="Nathan_A_RF"/>
  <node id="3324820370" lat="52.2930737" lon="-0.1569892" version="12" timestamp="2025-03-12T11:31:17Z" changeset="163523362" uid="5229644" user="Nathan_A_RF">
    <tag k="highway" v="motorway_junction"/>
    <tag k="name" v="Ermine Street"/>
    <tag k="ref" v="23"/>
  </node>
  <node id="3324820371" lat="52.2928520" lon="-0.1559518" version="6" timestamp="2021-01-12T16:40:53Z" changeset="97386670" uid="2773866" user="kreuzschnabel"/>
  <node id="4584305978" lat="52.2988289" lon="-0.2029750" version="5" timestamp="2025-03-15T17:18:09Z" changeset="163660433" uid="953779" user="Adam Edwards"/>
  <node id="6231288230" lat="52.3001984" lon="-0.2225440" version="6" timestamp="2024-01-09T10:14:12Z" changeset="146060360" uid="5229644" user="Nathan_A_RF"/>
  <node id="6383334032" lat="52.2815696" lon="-0.2126775" version="8" timestamp="2022-02-20T22:14:52Z" changeset="117656759" uid="242345" user="confusedbuffalo">
    <tag k="addr:city" v="St Neots"/>
    <tag k="addr:country" v="GB"/>
    <tag k="addr:county" v="Cambridgeshire"/>
    <tag k="addr:housenumber" v="4"/>
    <tag k="addr:postcode" v="PE19 5SY"/>
    <tag k="addr:street" v="Grovefarm Close"/>
    <tag k="addr:village" v="Offord Darcy"/>
    <tag k="name" v="SE Damp Solutions"/>
    <tag k="office" v="company"/>
    <tag k="phone" v="+44 1480 369978"/>
    <tag k="website" v="https://sedampsolutions.co.uk/"/>
  </node>
  <node id="12601791678" lat="52.2918620" lon="-0.1008923" version="1" timestamp="2025-02-19T20:43:07Z" changeset="162716806" uid="10420541" user="Thingummy"/>
  <way id="22634442" version="11" timestamp="2021-08-20T18:39:22Z" changeset="110001386" uid="5173844" user="ndrw6">
    <nd ref="242766889"/>
    <nd ref="344221086"/>
    <nd ref="1341702183"/>
    <nd ref="8943897453"/>
    <nd ref="9023381288"/>
    <nd ref="1341702181"/>
    <nd ref="344221234"/>
    <nd ref="1339109966"/>
    <nd ref="7150392956"/>
    <nd ref="242767005"/>
    <nd ref="1339109928"/>
    <nd ref="242767011"/>
    <nd ref="1341702182"/>
    <nd ref="242767016"/>
    <nd ref="24978301"/>
    <tag k="highway" v="tertiary"/>
    <tag k="maxspeed" v="30 mph"/>
    <tag k="name" v="Graveley Road"/>
  </way>
  <way id="22634443" version="7" timestamp="2021-08-20T18:39:22Z" changeset="110001386" uid="5173844" user="ndrw6">
    <nd ref="24978282"/>
    <nd ref="242767021"/>
    <nd ref="8425135539"/>
    <nd ref="9023382974"/>
    <nd ref="344222657"/>
    <nd ref="344222658"/>
    <nd ref="8425135547"/>
    <nd ref="344222659"/>
    <nd ref="344222662"/>
    <nd ref="344222665"/>
    <nd ref="344222661"/>
    <nd ref="6228380480"/>
    <nd ref="344222645"/>
    <tag k="highway" v="residential"/>
    <tag k="name" v="Park Way"/>
    <tag k="note" v="Park Way or Parkway? Both are signed"/>
    <tag k="source" v="survey"/>
  </way>
  <way id="27542561" version="8" timestamp="2021-05-15T13:12:28Z" changeset="104733176" uid="22799" user="DaveArq">
    <nd ref="1091059597"/>
    <nd ref="8733886806"/>
    <nd ref="3383024694"/>
    <nd ref="1481339178"/>
    <nd ref="302345676"/>
    <nd ref="344227974"/>
    <tag k="flood_prone" v="yes"/>
    <tag k="highway" v="tertiary"/>
    <tag k="source" v="survey"/>
  </way>
  <way id="30956763" version="14" timestamp="2021-08-20T18:39:22Z" changeset="110001386" uid="5173844" user="ndrw6">
    <nd ref="24978254"/>
    <nd ref="1457322502"/>
    <nd ref="24978255"/>
    <nd ref="24978256"/>
    <nd ref="24978257"/>
    <nd ref="24978258"/>
    <nd ref="7180465708"/>
    <nd ref="24978259"/>
    <nd ref="24978260"/>
    <nd ref="1207379618"/>
    <nd ref="24978261"/>
    <nd ref="7829541269"/>
    <nd ref="24978262"/>
    <nd ref="344230151"/>
    <nd ref="24978263"/>
    <nd ref="344230144"/>
    <nd ref="24978264"/>
    <nd ref="344230142"/>
    <nd ref="24978265"/>
    <nd ref="24978266"/>
    <nd ref="9023382357"/>
    <nd ref="24978267"/>
    <nd ref="9023382356"/>
    <nd ref="1207379627"/>
    <nd ref="9023382360"/>
    <nd ref="1457322495"/>
    <nd ref="9023382419"/>
    <nd ref="24978270"/>
    <tag k="highway" v="secondary"/>
    <tag k="maxspeed" v="30 mph"/>
    <tag k="name" v="High Street"/>
    <tag k="ref" v="B1043"/>
  </way>
  <way id="30956765" version="4" timestamp="2021-08-19T10:09:40Z" changeset="109923215" uid="5173844" user="ndrw6">
    <nd ref="344221035"/>
    <nd ref="344221054"/>
    <nd ref="9019656843"/>
    <nd ref="344221055"/>
    <nd ref="344221060"/>
    <nd ref="344221061"/>
    <nd ref="1339109908"/>
    <nd ref="344221065"/>
    <nd ref="344221067"/>
    <nd ref="344221072"/>
    <nd ref="344221074"/>
    <nd ref="1339109854"/>
    <nd ref="344221078"/>
    <nd ref="344221086"/>
    <tag k="highway" v="residential"/>
    <tag k="name" v="Orchard Way"/>
    <tag k="source" v="survey"/>
  </way>
  <way id="30956767" version="3" timestamp="2021-08-20T18:39:22Z" changeset="110001386" uid="5173844" user="ndrw6">
    <nd ref="344221055"/>
    <nd ref="9023383725"/>
    <nd ref="344221101"/>
    <nd ref="9023383610"/>
    <nd ref="344221104"/>
    <nd ref="9023383728"/>
    <nd ref="344221106"/>
    <nd ref="344221109"/>
    <nd ref="9023383727"/>
    <nd ref="344221110"/>
    <tag k="highway" v="residential"/>
    <tag k="name" v="Blenheim Grove"/>
    <tag k="source" v="survey"/>
  </way>
  <way id="30956769" version="3" timestamp="2021-08-20T18:39:22Z" changeset="110001386" uid="5173844" user="ndrw6">
    <nd ref="344221060"/>
    <nd ref="9023383722"/>
    <nd ref="344221121"/>
    <nd ref="344221124"/>
    <nd ref="9023383513"/>
    <nd ref="344221128"/>
    <tag k="highway" v="residential"/>
    <tag k="name" v="Apple Close"/>
    <tag k="source" v="survey"/>
  </way>
  <way id="30956775" version="5" timestamp="2021-08-20T18:39:22Z" changeset="110001386" uid="5173844" user="ndrw6">
    <nd ref="344221072"/>
    <nd ref="344221142"/>
    <nd ref="1339109882"/>
    <nd ref="344221145"/>
    <nd ref="344221147"/>
    <nd ref="1341700357"/>
    <nd ref="1341700343"/>
    <nd ref="344221150"/>
    <nd ref="1341700336"/>
    <nd ref="344221153"/>
    <nd ref="1341700361"/>
    <nd ref="344221155"/>
    <nd ref="344221157"/>
    <nd ref="344221160"/>
    <nd ref="344221162"/>
    <nd ref="344221165"/>
    <nd ref="1341700333"/>
    <nd ref="344221166"/>
    <nd ref="344221168"/>
    <nd ref="344221170"/>
    <nd ref="1341700352"/>
    <nd ref="344221174"/>
    <nd ref="344221178"/>
    <nd ref="344221180"/>
    <nd ref="1341700335"/>
    <nd ref="344221183"/>
    <tag k="highway" v="residential"/>
    <tag k="name" v="Bramley Drive"/>
    <tag k="source" v="survey"/>
  </way>
  <way id="30956780" version="4" timestamp="2021-08-20T18:39:22Z" changeset="110001386" uid="5173844" user="ndrw6">
    <nd ref="344221160"/>
    <nd ref="344221199"/>
    <nd ref="344221202"/>
    <nd ref="344221206"/>
    <nd ref="344221212"/>
    <nd ref="9023383509"/>
    <nd ref="9023383511"/>
    <nd ref="344221214"/>
    <tag k="highway" v="residential"/>
    <tag k="name" v="Apple Close"/>
    <tag k="source" v="survey"/>
  </way>
  <way id="30956782" version="2" timestamp="2009-02-10T17:54:45Z" changeset="326048" uid="91225" user="tms13">
    <nd ref="344221147"/>
    <nd ref="344221223"/>
    <tag k="created_by" v="Merkaartor 0.12"/>
    <tag k="highway" v="residential"/>
    <tag k="name" v="Bramley Drive"/>
    <tag k="source" v="survey"/>
  </way>
  <way id="30956784" version="3" timestamp="2021-08-20T18:39:22Z" changeset="110001386" uid="5173844" user="ndrw6">
    <nd ref="344221168"/>
    <nd ref="9023383494"/>
    <nd ref="344221228"/>
    <tag k="highway" v="residential"/>
    <tag k="name" v="Bramley Close"/>
    <tag k="source" v="survey"/>
  </way>
  <way id="30956786" version="5" timestamp="2022-06-25T13:29:46Z" changeset="122837464" uid="7463" user="kesterlester">
    <nd ref="344221234"/>
    <nd ref="9019656885"/>
    <nd ref="986314615"/>
    <nd ref="344221241"/>
    <nd ref="9846302215"/>
    <tag k="highway" v="residential"/>
    <tag k="name" v="Littleworth End"/>
    <tag k="source" v="survey"/>
  </way>
  <way id="30956787" version="3" timestamp="2011-06-27T21:17:35Z" changeset="8566597" uid="90142" user="andy mackey">
    <nd ref="344221033"/>
    <nd ref="344221246"/>
    <nd ref="1341700345"/>
    <nd ref="344221247"/>
    <nd ref="344221249"/>
    <tag k="highway" v="residential"/>
    <tag k="name" v="Pippin Close"/>
    <tag k="source" v="survey"/>
  </way>
  <way id="30956788" version="3" timestamp="2011-06-27T21:17:35Z" changeset="8566597" uid="90142" user="andy mackey">
    <nd ref="344221255"/>
    <nd ref="1341700363"/>
    <nd ref="344221247"/>
    <tag k="highway" v="residential"/>
    <tag k="name" v="Pippin Close"/>
    <tag k="source" v="survey"/>
  </way>
  <way id="30956864" version="6" timestamp="2021-08-20T18:39:22Z" changeset="110001386" uid="5173844" user="ndrw6">
    <nd ref="24978297"/>
    <nd ref="9019656841"/>
    <nd ref="9023383347"/>
    <nd ref="1457322442"/>
    <nd ref="344221934"/>
    <tag k="highway" v="residential"/>
    <tag k="name" v="High Street"/>
    <tag k="source" v="survey"/>
  </way>
  <way id="30956865" version="2" timestamp="2009-02-10T17:54:44Z" changeset="326048" uid="91225" user="tms13">
    <nd ref="344221934"/>
    <nd ref="344221935"/>
    <nd ref="344221936"/>
    <tag k="created_by" v="Merkaartor 0.12"/>
    <tag k="highway" v="residential"/>
    <tag k="name" v="The Haycroft"/>
    <tag k="source" v="survey"/>
  </way>
  <way id="30956866" version="3" timestamp="2011-10-06T22:20:45Z" changeset="9489902" uid="7098" user="richardm565">
    <nd ref="344221937"/>
    <nd ref="344221938"/>
    <nd ref="1457322472"/>
    <nd ref="344221939"/>
    <tag k="highway" v="residential"/>
    <tag k="name" v="Rectory Leys"/>
    <tag k="source" v="survey"/>
  </way>
  <way id="30956867" version="2" timestamp="2009-02-10T17:54:43Z" changeset="326048" uid="91225" user="tms13">
    <nd ref="344221937"/>
    <nd ref="344221940"/>
    <nd ref="344221941"/>
    <nd ref="344221942"/>
    <tag k="created_by" v="Merkaartor 0.12"/>
    <tag k="highway" v="residential"/>
    <tag k="name" v="High Street"/>
    <tag k="source" v="survey"/>
  </way>
  <way id="30956868" version="2" timestamp="2009-02-10T17:54:44Z" changeset="326048" uid="91225" user="tms13">
    <nd ref="344221940"/>
    <nd ref="344221943"/>
    <tag k="created_by" v="Merkaartor 0.12"/>
    <tag k="highway" v="residential"/>
    <tag k="source" v="survey"/>
  </way>
  <way id="30956869" version="6" timestamp="2011-10-07T21:54:26Z" changeset="9498045" uid="7098" user="richardm565">
    <nd ref="344221943"/>
    <nd ref="344221944"/>
    <nd ref="1339109812"/>
    <nd ref="344221945"/>
    <tag k="highway" v="residential"/>
    <tag k="name" v="Millers Close"/>
    <tag k="not:name" v="Miller Close"/>
    <tag k="source" v="survey"/>
    <tag k="source:name" v="survey"/>
  </way>
  <way id="30956876" version="3" timestamp="2017-02-06T23:04:20Z" changeset="45869506" uid="3178375" user="LeTopographeFou">
    <nd ref="344221987"/>
    <nd ref="344221986"/>
    <tag k="bridge" v="yes"/>
    <tag k="highway" v="secondary"/>
    <tag k="layer" v="1"/>
    <tag k="maxspeed" v="30 mph"/>
    <tag k="name" v="High Street"/>
    <tag k="ref" v="B1043"/>
  </way>
  <way id="30956877" version="10" timestamp="2021-08-20T18:39:22Z" changeset="110001386" uid="5173844" user="ndrw6">
    <nd ref="344221986"/>
    <nd ref="24978284"/>
    <nd ref="9019656840"/>
    <nd ref="344221943"/>
    <nd ref="24978286"/>
    <nd ref="24978287"/>
    <nd ref="24978288"/>
    <nd ref="24978289"/>
    <nd ref="1207379710"/>
    <nd ref="24978290"/>
    <nd ref="1091143481"/>
    <nd ref="24978291"/>
    <nd ref="24978292"/>
    <nd ref="24978293"/>
    <nd ref="24978294"/>
    <nd ref="24978295"/>
    <nd ref="24978296"/>
    <nd ref="24978297"/>
    <nd ref="24978298"/>
    <nd ref="6302479045"/>
    <nd ref="1221202341"/>
    <nd ref="24978300"/>
    <nd ref="24978301"/>
    <nd ref="24978302"/>
    <nd ref="24978303"/>
    <nd ref="24978304"/>
    <nd ref="9023383469"/>
    <nd ref="9019656842"/>
    <nd ref="344221033"/>
    <nd ref="1339109955"/>
    <nd ref="1456309379"/>
    <nd ref="9023380751"/>
    <nd ref="1456309373"/>
    <nd ref="9023380760"/>
    <nd ref="1339109962"/>
    <nd ref="344221035"/>
    <tag k="highway" v="secondary"/>
    <tag k="maxspeed" v="30 mph"/>
    <tag k="name" v="High Street"/>
    <tag k="ref" v="B1043"/>
  </way>
  <way id="30956962" version="5" timestamp="2021-02-15T10:56:15Z" changeset="99302642" uid="10170582" user="priymose">
    <nd ref="24978276"/>
    <nd ref="2413387868"/>
    <nd ref="344222643"/>
    <nd ref="8425135555"/>
    <nd ref="344222644"/>
    <nd ref="6228380478"/>
    <nd ref="344222645"/>
    <tag k="highway" v="residential"/>
    <tag k="name" v="New Road"/>
    <tag k="oneway" v="yes"/>
    <tag k="source" v="survey"/>
  </way>
  <way id="30956963" version="3" timestamp="2021-08-19T10:09:40Z" changeset="109923215" uid="5173844" user="ndrw6">
    <nd ref="344222651"/>
    <nd ref="9019645173"/>
    <nd ref="9019645172"/>
    <nd ref="344222655"/>
    <tag k="highway" v="residential"/>
    <tag k="name" v="The Glebe"/>
    <tag k="source" v="survey"/>
  </way>
  <way id="30956964" version="2" timestamp="2009-02-10T17:58:34Z" changeset="326048" uid="91225" user="tms13">
    <nd ref="344222649"/>
    <nd ref="344222656"/>
    <tag k="created_by" v="Merkaartor 0.12"/>
    <tag k="highway" v="residential"/>
    <tag k="name" v="Latin Close"/>
    <tag k="source" v="survey"/>
  </way>
  <way id="30956965" version="3" timestamp="2016-03-24T16:46:56Z" changeset="38045141" uid="281267" user="smb1001">
    <nd ref="344222662"/>
    <nd ref="344222664"/>
    <tag k="highway" v="residential"/>
    <tag k="name" v="Elm Drive"/>
    <tag k="source" v="survey"/>
  </way>
  <way id="30956966" version="4" timestamp="2021-08-20T18:39:22Z" changeset="110001386" uid="5173844" user="ndrw6">
    <nd ref="344222665"/>
    <nd ref="9019657135"/>
    <nd ref="9019657136"/>
    <nd ref="344222666"/>
    <nd ref="9023382938"/>
    <nd ref="344222667"/>
    <tag k="highway" v="residential"/>
    <tag k="name" v="The Cranny"/>
    <tag k="source" v="survey"/>
  </way>
  <way id="30957042" version="4" timestamp="2019-01-22T22:54:06Z" changeset="66553305" uid="5173844" user="ndrw6">
    <nd ref="344222645"/>
    <nd ref="6228380479"/>
    <nd ref="344222646"/>
    <nd ref="344222647"/>
    <nd ref="344222649"/>
    <nd ref="344222650"/>
    <nd ref="344222651"/>
    <nd ref="344223266"/>
    <tag k="highway" v="residential"/>
    <tag k="maxspeed" v="30 mph"/>
    <tag k="name" v="New Road"/>
    <tag k="source" v="survey"/>
  </way>
  <way id="30957043" version="3" timestamp="2022-06-25T13:04:59Z" changeset="122836771" uid="7463" user="kesterlester">
    <nd ref="344223266"/>
    <nd ref="344222652"/>
    <nd ref="9846266859"/>
    <nd ref="344222653"/>
    <nd ref="344222654"/>
    <tag k="highway" v="unclassified"/>
    <tag k="name" v="New Road"/>
    <tag k="source" v="survey"/>
  </way>
  <way id="30957385" version="3" timestamp="2013-05-25T06:06:35Z" changeset="16274500" uid="26599" user="cdavila">
    <nd ref="344227974"/>
    <nd ref="344227972"/>
    <tag k="bridge" v="yes"/>
    <tag k="highway" v="tertiary"/>
    <tag k="layer" v="1"/>
    <tag k="maxwidth" v="2"/>
    <tag k="name" v="Station Lane"/>
    <tag k="source" v="survey"/>
  </way>
  <way id="30957386" version="9" timestamp="2022-09-17T18:35:10Z" changeset="126309237" uid="10420541" user="Thingummy">
    <nd ref="344227972"/>
    <nd ref="7046873903"/>
    <nd ref="344227971"/>
    <nd ref="7046873902"/>
    <nd ref="4321190408"/>
    <nd ref="302345677"/>
    <nd ref="7603143895"/>
    <nd ref="6752669128"/>
    <nd ref="344227969"/>
    <nd ref="1860031796"/>
    <nd ref="344228006"/>
    <nd ref="1860031704"/>
    <nd ref="1860031675"/>
    <nd ref="1339109792"/>
    <nd ref="1457322494"/>
    <nd ref="302345678"/>
    <nd ref="9019657134"/>
    <nd ref="24978270"/>
    <tag k="highway" v="tertiary"/>
    <tag k="name" v="Station Lane"/>
    <tag k="source" v="survey"/>
  </way>
  <way id="30957541" version="2" timestamp="2011-10-06T22:20:43Z" changeset="9489902" uid="7098" user="richardm565">
    <nd ref="344230142"/>
    <nd ref="344230143"/>
    <tag k="highway" v="residential"/>
    <tag k="name" v="Asplins Lane"/>
    <tag k="source" v="survey"/>
  </way>
  <way id="30957542" version="5" timestamp="2021-08-19T10:09:40Z" changeset="109923215" uid="5173844" user="ndrw6">
    <nd ref="344230144"/>
    <nd ref="344230143"/>
    <nd ref="1457322497"/>
    <nd ref="7046873909"/>
    <nd ref="344230145"/>
    <nd ref="344230146"/>
    <nd ref="344230147"/>
    <nd ref="344230148"/>
    <nd ref="344230149"/>
    <nd ref="9019657046"/>
    <nd ref="344230150"/>
    <tag k="highway" v="residential"/>
    <tag k="name" v="Asplins Lane"/>
    <tag k="source" v="survey"/>
  </way>
  <way id="30957543" version="2" timestamp="2021-08-20T18:39:22Z" changeset="110001386" uid="5173844" user="ndrw6">
    <nd ref="344230151"/>
    <nd ref="344230157"/>
    <nd ref="9023382057"/>
    <nd ref="344230161"/>
    <nd ref="344230165"/>
    <tag k="highway" v="residential"/>
    <tag k="name" v="Paddocks Chase"/>
    <tag k="source" v="survey"/>
  </way>
  <way id="104672092" version="1" timestamp="2011-03-18T14:40:45Z" changeset="7595992" uid="127771" user="Superglue">
    <nd ref="1207379681"/>
    <nd ref="1207379692"/>
    <nd ref="1207379693"/>
    <nd ref="1207379657"/>
    <nd ref="1207379627"/>
    <tag k="highway" v="residential"/>
    <tag k="name" v="Opeford Close"/>
  </way>
  <way id="104672097" version="4" timestamp="2021-08-20T18:39:22Z" changeset="110001386" uid="5173844" user="ndrw6">
    <nd ref="2988595945"/>
    <nd ref="9023383272"/>
    <nd ref="9023383273"/>
    <nd ref="2988595953"/>
    <nd ref="1207379707"/>
    <tag k="highway" v="residential"/>
    <tag k="name" v="Alison Lane"/>
    <tag k="source:name" v="survey"/>
  </way>
  <way id="105867220" version="3" timestamp="2021-05-15T13:12:28Z" changeset="104733176" uid="22799" user="DaveArq">
    <nd ref="1218995162"/>
    <nd ref="8733886782"/>
    <nd ref="1091059597"/>
    <tag k="bridge" v="yes"/>
    <tag k="highway" v="tertiary"/>
    <tag k="layer" v="2"/>
    <tag k="source" v="survey"/>
  </way>
  <way id="119106430" version="1" timestamp="2011-06-26T00:46:03Z" changeset="8547908" uid="90142" user="andy mackey">
    <nd ref="344221942"/>
    <nd ref="1339109808"/>
    <nd ref="1339109809"/>
    <tag k="highway" v="residential"/>
    <tag k="name" v="High Street"/>
    <tag k="source" v="survey"/>
  </way>
  <way id="119392888" version="1" timestamp="2011-06-27T21:17:31Z" changeset="8566597" uid="90142" user="andy mackey">
    <nd ref="1341700335"/>
    <nd ref="1341700313"/>
    <nd ref="1341700353"/>
    <nd ref="1341700328"/>
    <tag k="highway" v="residential"/>
    <tag k="name" v="Bramley Drive"/>
    <tag k="source" v="survey"/>
  </way>
  <way id="119742288" version="8" timestamp="2023-01-14T00:50:59Z" changeset="131249812" uid="493595" user="Yorvik Prestigitator">
    <nd ref="24978270"/>
    <nd ref="6752669126"/>
    <nd ref="24978272"/>
    <nd ref="24978273"/>
    <nd ref="24978274"/>
    <nd ref="24978275"/>
    <nd ref="3688175416"/>
    <nd ref="10553659180"/>
    <nd ref="24978276"/>
    <nd ref="1339109807"/>
    <nd ref="24978277"/>
    <nd ref="24978278"/>
    <nd ref="24978279"/>
    <nd ref="24978280"/>
    <nd ref="24978281"/>
    <nd ref="24978282"/>
    <nd ref="24978283"/>
    <nd ref="344221987"/>
    <tag k="highway" v="secondary"/>
    <tag k="maxspeed" v="30 mph"/>
    <tag k="name" v="High Street"/>
    <tag k="ref" v="B1043"/>
  </way>
  <way id="132382375" version="6" timestamp="2017-03-06T07:54:37Z" changeset="46615659" uid="1302721" user="Glucosamine">
    <nd ref="344221023"/>
    <nd ref="24978308"/>
    <nd ref="24978309"/>
    <nd ref="4719861534"/>
    <nd ref="24978310"/>
    <nd ref="24978311"/>
    <nd ref="24978312"/>
    <nd ref="24978313"/>
    <nd ref="24978314"/>
    <nd ref="24978315"/>
    <nd ref="24978316"/>
    <nd ref="24978317"/>
    <nd ref="24978318"/>
    <nd ref="24978319"/>
    <nd ref="4076982137"/>
    <nd ref="24978320"/>
    <nd ref="24978321"/>
    <nd ref="4719861549"/>
    <nd ref="24978322"/>
    <nd ref="3767092979"/>
    <nd ref="24978323"/>
    <nd ref="24978324"/>
    <nd ref="24978325"/>
    <nd ref="24978326"/>
    <nd ref="24978327"/>
    <nd ref="24978328"/>
    <nd ref="24978329"/>
    <nd ref="24978330"/>
    <tag k="highway" v="secondary"/>
    <tag k="name" v="Paxton Road"/>
    <tag k="ref" v="B1043"/>
    <tag k="source:name" v="OS_OpenData_Locator"/>
  </way>
  <way id="132382376" version="5" timestamp="2021-08-20T18:39:22Z" changeset="110001386" uid="5173844" user="ndrw6">
    <nd ref="344221035"/>
    <nd ref="9023380621"/>
    <nd ref="9019656844"/>
    <nd ref="24978306"/>
    <nd ref="9019656845"/>
    <nd ref="24978307"/>
    <tag k="highway" v="secondary"/>
    <tag k="maxspeed" v="30 mph"/>
    <tag k="ref" v="B1043"/>
  </way>
  <way id="132481306" version="1" timestamp="2011-10-06T22:20:42Z" changeset="9489902" uid="7098" user="richardm565">
    <nd ref="24978293"/>
    <nd ref="1457322467"/>
    <nd ref="1457322466"/>
    <tag k="highway" v="residential"/>
    <tag k="name" v="Cawcutts Close"/>
  </way>
  <way id="132481307" version="1" timestamp="2011-10-06T22:20:42Z" changeset="9489902" uid="7098" user="richardm565">
    <nd ref="1339109820"/>
    <nd ref="1339109826"/>
    <nd ref="1339109839"/>
    <nd ref="344221934"/>
    <nd ref="24978295"/>
    <tag k="highway" v="residential"/>
    <tag k="name" v="Meadow Lane"/>
    <tag k="source" v="survey"/>
  </way>
  <way id="132481309" version="2" timestamp="2021-08-20T18:39:22Z" changeset="110001386" uid="5173844" user="ndrw6">
    <nd ref="1457322497"/>
    <nd ref="1457322498"/>
    <nd ref="1457322499"/>
    <tag k="highway" v="residential"/>
    <tag k="name" v="Whitwell Court"/>
  </way>
  <way id="132481312" version="3" timestamp="2023-01-14T00:50:59Z" changeset="131249812" uid="493595" user="Yorvik Prestigitator">
    <nd ref="1457322489"/>
    <nd ref="1457322488"/>
    <nd ref="344227959"/>
    <nd ref="1457322484"/>
    <nd ref="10553659177"/>
    <nd ref="10553659178"/>
    <nd ref="1457322480"/>
    <nd ref="1457322481"/>
    <nd ref="1457322478"/>
    <nd ref="1457322479"/>
    <nd ref="1457322482"/>
    <nd ref="1457322483"/>
    <nd ref="1457322487"/>
    <nd ref="1457322486"/>
    <nd ref="1457322489"/>
    <tag k="addr:city" v="Offord Cluny"/>
    <tag k="addr:street" v="High Street"/>
    <tag k="amenity" v="community_centre"/>
    <tag k="building" v="public"/>
    <tag k="community_centre" v="village_hall"/>
    <tag k="name" v="Offord Village Hall"/>
  </way>
  <way id="133556491" version="6" timestamp="2016-02-11T09:25:42Z" changeset="37141692" uid="1778799" user="SomeoneElse_Revert">
    <nd ref="242766620"/>
    <nd ref="242766665"/>
    <nd ref="1352313533"/>
    <nd ref="1352313531"/>
    <nd ref="1352313550"/>
    <nd ref="1352313555"/>
    <nd ref="242766668"/>
    <nd ref="1352313560"/>
    <nd ref="1352313517"/>
    <nd ref="1352313523"/>
    <nd ref="242766673"/>
    <nd ref="242766731"/>
    <tag k="highway" v="tertiary"/>
    <tag k="name" v="Offord Road"/>
  </way>
  <way id="137336233" version="3" timestamp="2024-04-04T11:13:29Z" changeset="149564952" uid="95856" user="john paul jones &amp; gringo">
    <nd ref="1506562912"/>
    <nd ref="1506562997"/>
    <nd ref="1506562900"/>
    <nd ref="1506562935"/>
    <nd ref="1506562912"/>
    <tag k="addr:city" v="St Neots"/>
    <tag k="addr:country" v="GB"/>
    <tag k="addr:postcode" v="PE19 6PU"/>
    <tag k="addr:street" v="Offord Road"/>
    <tag k="addr:suburb" v="Graveley"/>
    <tag k="landuse" v="farmyard"/>
    <tag k="name" v="Cotton Farm"/>
  </way>
  <way id="181338591" version="3" timestamp="2019-09-04T13:56:04Z" changeset="74088696" uid="10252562" user="puppalg">
    <nd ref="24978307"/>
    <nd ref="6772096404"/>
    <nd ref="344221023"/>
    <tag k="highway" v="secondary"/>
    <tag k="maxspeed" v="30 mph"/>
    <tag k="name" v="Paxton Road"/>
    <tag k="ref" v="B1043"/>
    <tag k="source:name" v="OS_OpenData_Locator"/>
  </way>
  <way id="233004972" version="2" timestamp="2024-04-03T12:49:58Z" changeset="149523371" uid="95856" user="john paul jones &amp; gringo">
    <nd ref="2413387901"/>
    <nd ref="2413387906"/>
    <nd ref="2413387880"/>
    <nd ref="2413387882"/>
    <nd ref="2413387840"/>
    <nd ref="2413387876"/>
    <nd ref="2413387901"/>
    <tag k="addr:city" v="St Neots"/>
    <tag k="addr:country" v="GB"/>
    <tag k="addr:housenumber" v="120"/>
    <tag k="addr:postcode" v="PE19 5RQ"/>
    <tag k="addr:street" v="High Street"/>
    <tag k="addr:suburb" v="Offord Cluny"/>
    <tag k="building" v="yes"/>
  </way>
  <way id="295165791" version="1" timestamp="2014-07-30T22:32:56Z" changeset="24453293" uid="90142" user="andy mackey">
    <nd ref="1207379707"/>
    <nd ref="1207379710"/>
    <tag k="highway" v="residential"/>
    <tag k="name" v="Alison Lane"/>
    <tag k="source:name" v="survey"/>
  </way>
  <way id="295165792" version="2" timestamp="2023-08-30T11:04:12Z" changeset="140582465" uid="10420541" user="Thingummy">
    <nd ref="2988595943"/>
    <nd ref="2988595932"/>
    <nd ref="2988595945"/>
    <nd ref="2988595948"/>
    <tag k="highway" v="residential"/>
    <tag k="name" v="Alison Lane"/>
    <tag k="source:name" v="survey"/>
  </way>
  <way id="299134561" version="4" timestamp="2024-04-04T11:11:17Z" changeset="149564859" uid="95856" user="john paul jones &amp; gringo">
    <nd ref="3030711282"/>
    <nd ref="3030711277"/>
    <nd ref="3030711280"/>
    <nd ref="3030711289"/>
    <nd ref="3030711325"/>
    <nd ref="3030711291"/>
    <nd ref="3030711288"/>
    <nd ref="3030711271"/>
    <nd ref="3030711282"/>
    <tag k="addr:city" v="St Neots"/>
    <tag k="addr:country" v="GB"/>
    <tag k="addr:housename" v="Waterloo farm"/>
    <tag k="addr:postcode" v="PE19 5RJ"/>
    <tag k="addr:street" v="New Road"/>
    <tag k="addr:suburb" v="Orfford Cluny"/>
    <tag k="building" v="house"/>
    <tag k="building:levels" v="2"/>
    <tag k="name" v="Waterloo Farm"/>
  </way>
  <way id="299134566" version="7" timestamp="2024-12-25T17:08:42Z" changeset="160611193" uid="5173844" user="ndrw6">
    <nd ref="12451438917"/>
    <nd ref="12451438918"/>
    <nd ref="12451438919"/>
    <nd ref="3030711322"/>
    <nd ref="3030711313"/>
    <nd ref="3030711315"/>
    <nd ref="3030711326"/>
    <nd ref="3030711320"/>
    <nd ref="3030711314"/>
    <nd ref="5859070075"/>
    <nd ref="12451438914"/>
    <nd ref="12451438915"/>
    <nd ref="12451438916"/>
    <nd ref="12451438917"/>
    <tag k="addr:city" v="St Neots"/>
    <tag k="addr:country" v="GB"/>
    <tag k="addr:postcode" v="PE19 5RJ"/>
    <tag k="addr:street" v="New Road"/>
    <tag k="addr:suburb" v="Orfford Cluny"/>
    <tag k="landuse" v="farmyard"/>
    <tag k="name" v="Top Farm"/>
  </way>
  <way id="314822014" version="1" timestamp="2014-11-28T09:31:34Z" changeset="27085243" uid="2490370" user="bigmiksears">
    <nd ref="3208669202"/>
    <nd ref="3208669203"/>
    <nd ref="3208669204"/>
    <nd ref="3208669205"/>
    <nd ref="3208669206"/>
    <nd ref="3208669207"/>
    <nd ref="3208669208"/>
    <nd ref="3208669213"/>
    <tag k="access" v="permissive"/>
    <tag k="highway" v="residential"/>
    <tag k="maxspeed" v="20 mph"/>
    <tag k="name" v="The Limes"/>
    <tag k="surface" v="gravel"/>
  </way>
  <way id="314822015" version="2" timestamp="2024-06-21T11:49:21Z" changeset="152989215" uid="8775772" user="LakatosVL">
    <nd ref="1221202341"/>
    <nd ref="3208669202"/>
    <nd ref="3208669209"/>
    <nd ref="3208669210"/>
    <nd ref="3208669211"/>
    <nd ref="3208669212"/>
    <tag k="highway" v="residential"/>
    <tag k="maxspeed" v="20 mph"/>
    <tag k="surface" v="gravel"/>
  </way>
  <way id="342452353" version="5" timestamp="2022-06-19T20:20:06Z" changeset="122593022" uid="7463" user="kesterlester">
    <nd ref="242766731"/>
    <nd ref="242766738"/>
    <nd ref="1506563006"/>
    <nd ref="242766744"/>
    <nd ref="242766750"/>
    <nd ref="9023368992"/>
    <nd ref="1521490062"/>
    <nd ref="242766755"/>
    <nd ref="4076979085"/>
    <nd ref="242766761"/>
    <nd ref="9816114694"/>
    <nd ref="9816114693"/>
    <nd ref="9816114692"/>
    <nd ref="242766766"/>
    <nd ref="9816114691"/>
    <nd ref="9816114690"/>
    <nd ref="242766770"/>
    <nd ref="9816114689"/>
    <nd ref="9831670054"/>
    <nd ref="242766776"/>
    <nd ref="9831670053"/>
    <nd ref="9831670051"/>
    <nd ref="9831670052"/>
    <nd ref="242766831"/>
    <nd ref="242766889"/>
    <tag k="highway" v="tertiary"/>
    <tag k="name" v="Offord Road"/>
  </way>
  <way id="376814644" version="6" timestamp="2024-04-04T11:09:34Z" changeset="149564791" uid="95856" user="john paul jones &amp; gringo">
    <nd ref="3801982518"/>
    <nd ref="3801982513"/>
    <nd ref="3801982511"/>
    <nd ref="3801982508"/>
    <nd ref="3801982506"/>
    <nd ref="3801982504"/>
    <nd ref="3801982502"/>
    <nd ref="3801982500"/>
    <nd ref="3801982499"/>
    <nd ref="3801982517"/>
    <nd ref="3801982515"/>
    <nd ref="3801982512"/>
    <nd ref="3801982510"/>
    <nd ref="3801982507"/>
    <nd ref="3801976134"/>
    <nd ref="3801982505"/>
    <nd ref="3801982503"/>
    <nd ref="3801982501"/>
    <nd ref="3801982519"/>
    <nd ref="3801982516"/>
    <nd ref="3801982514"/>
    <nd ref="3801982518"/>
    <tag k="addr:city" v="St Neots"/>
    <tag k="addr:country" v="GB"/>
    <tag k="addr:housenumber" v="90"/>
    <tag k="addr:postcode" v="PE19 5RH"/>
    <tag k="addr:street" v="High St"/>
    <tag k="addr:suburb" v="Orfford D'Arcy"/>
    <tag k="amenity" v="pub"/>
    <tag k="building" v="yes"/>
    <tag k="name" v="The Horseshoe Inn"/>
    <tag k="phone" v="+44 1480 810293"/>
    <tag k="website" v="https://www.theoffordshoe.co.uk/"/>
    <tag k="wikidata" v="Q26615461"/>
  </way>
  <way id="433278684" version="2" timestamp="2024-04-04T11:09:34Z" changeset="149564791" uid="95856" user="john paul jones &amp; gringo">
    <nd ref="4321190395"/>
    <nd ref="4321190406"/>
    <nd ref="4321190407"/>
    <nd ref="4321190396"/>
    <nd ref="4321190397"/>
    <nd ref="4321190398"/>
    <nd ref="4321190399"/>
    <nd ref="4321190400"/>
    <nd ref="4321190401"/>
    <nd ref="4321190395"/>
    <tag k="addr:city" v="St Neots"/>
    <tag k="addr:country" v="GB"/>
    <tag k="addr:postcode" v="PE19 5ZA"/>
    <tag k="addr:street" v="Station Lane"/>
    <tag k="addr:suburb" v="Orfford Cluny"/>
    <tag k="landuse" v="commercial"/>
    <tag k="name" v="Fu Nicha Business Centre"/>
    <tag k="phone" v="+44 1480 819690"/>
  </way>
  <way id="463120455" version="10" timestamp="2025-03-15T17:21:59Z" changeset="163660588" uid="953779" user="Adam Edwards">
    <nd ref="4584305978"/>
    <nd ref="6514864364"/>
    <nd ref="6514864365"/>
    <nd ref="6956059114"/>
    <nd ref="12668657014"/>
    <nd ref="9140678068"/>
    <nd ref="9140678086"/>
    <nd ref="9140678069"/>
    <nd ref="24978246"/>
    <nd ref="9140678075"/>
    <nd ref="24978247"/>
    <nd ref="24978248"/>
    <nd ref="24978249"/>
    <nd ref="24978250"/>
    <nd ref="24978251"/>
    <nd ref="7047466993"/>
    <nd ref="24978252"/>
    <nd ref="24978253"/>
    <nd ref="12465512287"/>
    <nd ref="24978254"/>
    <tag k="highway" v="secondary"/>
    <tag k="maxspeed" v="60 mph"/>
    <tag k="maxspeed:type" v="GB:nsl_single"/>
    <tag k="ref" v="B1043"/>
  </way>
  <way id="463120464" version="26" timestamp="2024-01-09T11:59:43Z" changeset="146064087" uid="5229644" user="Nathan_A_RF">
    <nd ref="4584305934"/>
    <nd ref="4449493244"/>
    <tag k="agricultural" v="no"/>
    <tag k="bicycle" v="no"/>
    <tag k="bridge" v="yes"/>
    <tag k="carriage" v="no"/>
    <tag k="carriageway_ref" v="B"/>
    <tag k="destination:lanes" v="THE NORTH;Peterborough| THE NORTH;Peterborough;THE MIDLANDS;Kettering;(M1, M6)|THE MIDLANDS;Kettering;(M1, M6)"/>
    <tag k="destination:ref:lanes" v="A1|A1;A14|A14"/>
    <tag k="dual_carriageway" v="yes"/>
    <tag k="expressway" v="yes"/>
    <tag k="foot" v="no"/>
    <tag k="highway" v="trunk"/>
    <tag k="horse" v="no"/>
    <tag k="int_ref" v="E 24"/>
    <tag k="lane_markings" v="yes"/>
    <tag k="lanes" v="3"/>
    <tag k="layer" v="1"/>
    <tag k="lit" v="no"/>
    <tag k="maxspeed" v="70 mph"/>
    <tag k="maxspeed:type" v="GB:nsl_dual"/>
    <tag k="maxspeed:variable" v="peak_traffic"/>
    <tag k="maxweight:signed" v="no"/>
    <tag k="motorcycle:conditional" v="no @ (displacement &lt; 50 cc)"/>
    <tag k="motorroad" v="yes"/>
    <tag k="national_highways:area" v="8"/>
    <tag k="oneway" v="yes"/>
    <tag k="operator" v="National Highways"/>
    <tag k="operator:wikidata" v="Q5760006"/>
    <tag k="ref" v="A14"/>
    <tag k="shoulder" v="no"/>
    <tag k="surface" v="asphalt"/>
    <tag k="turn:lanes" v="slight_left|through;slight_left|through"/>
  </way>
  <way id="650527686" version="20" timestamp="2024-01-09T11:59:43Z" changeset="146064087" uid="5229644" user="Nathan_A_RF">
    <nd ref="6102483791"/>
    <nd ref="4584305930"/>
    <tag k="agricultural" v="no"/>
    <tag k="bicycle" v="no"/>
    <tag k="bridge" v="yes"/>
    <tag k="carriage" v="no"/>
    <tag k="carriageway_ref" v="A"/>
    <tag k="dual_carriageway" v="yes"/>
    <tag k="expressway" v="yes"/>
    <tag k="foot" v="no"/>
    <tag k="highway" v="trunk"/>
    <tag k="horse" v="no"/>
    <tag k="int_ref" v="E 24"/>
    <tag k="lanes" v="3"/>
    <tag k="layer" v="1"/>
    <tag k="lit" v="no"/>
    <tag k="maxspeed" v="70 mph"/>
    <tag k="maxspeed:type" v="GB:nsl_dual"/>
    <tag k="maxspeed:variable" v="peak_traffic"/>
    <tag k="maxweight:signed" v="no"/>
    <tag k="motorcycle:conditional" v="no @ (displacement &lt; 50 cc)"/>
    <tag k="motorroad" v="yes"/>
    <tag k="national_highways:area" v="8"/>
    <tag k="oneway" v="yes"/>
    <tag k="operator" v="National Highways"/>
    <tag k="operator:wikidata" v="Q5760006"/>
    <tag k="ref" v="A14"/>
    <tag k="shoulder" v="no"/>
    <tag k="surface" v="asphalt"/>
  </way>
  <way id="665707491" version="23" timestamp="2024-02-09T01:21:10Z" changeset="147238243" uid="10420541" user="Thingummy">
    <nd ref="6919874779"/>
    <nd ref="6231288231"/>
    <nd ref="8315717245"/>
    <nd ref="2861538201"/>
    <nd ref="8315717241"/>
    <nd ref="3230746521"/>
    <nd ref="8315717239"/>
    <nd ref="8315717236"/>
    <nd ref="6810329693"/>
    <nd ref="4449493245"/>
    <nd ref="6231288230"/>
    <tag k="agricultural" v="no"/>
    <tag k="bicycle" v="no"/>
    <tag k="bridge" v="viaduct"/>
    <tag k="carriage" v="no"/>
    <tag k="carriageway_ref" v="B"/>
    <tag k="destination:lanes" v="THE NORTH;Peterborough| THE NORTH;Peterborough;THE MIDLANDS;Kettering;(M1, M6)|THE MIDLANDS;Kettering;(M1, M6)"/>
    <tag k="destination:ref:lanes" v="A1|A1;A14|A14"/>
    <tag k="dual_carriageway" v="yes"/>
    <tag k="expressway" v="yes"/>
    <tag k="foot" v="no"/>
    <tag k="highway" v="trunk"/>
    <tag k="horse" v="no"/>
    <tag k="int_ref" v="E 24"/>
    <tag k="lane_markings" v="yes"/>
    <tag k="lanes" v="3"/>
    <tag k="layer" v="1"/>
    <tag k="lit" v="no"/>
    <tag k="maxspeed" v="70 mph"/>
    <tag k="maxspeed:type" v="GB:nsl_dual"/>
    <tag k="maxspeed:variable" v="peak_traffic"/>
    <tag k="maxweight:signed" v="no"/>
    <tag k="motorcycle:conditional" v="no @ (displacement &lt; 50 cc)"/>
    <tag k="motorroad" v="yes"/>
    <tag k="name" v="Great Ouse Viaduct"/>
    <tag k="national_highways:area" v="8"/>
    <tag k="oneway" v="yes"/>
    <tag k="operator" v="National Highways"/>
    <tag k="operator:wikidata" v="Q5760006"/>
    <tag k="ref" v="A14"/>
    <tag k="shoulder" v="no"/>
    <tag k="surface" v="asphalt"/>
    <tag k="turn:lanes" v="slight_left|through;slight_left|through"/>
  </way>
  <way id="665707494" version="21" timestamp="2024-02-09T01:21:10Z" changeset="147238243" uid="10420541" user="Thingummy">
    <nd ref="3230746524"/>
    <nd ref="6810292478"/>
    <nd ref="3230746526"/>
    <nd ref="8315717237"/>
    <nd ref="8315717238"/>
    <nd ref="3230746522"/>
    <nd ref="8315717240"/>
    <nd ref="3230746527"/>
    <nd ref="8315717244"/>
    <nd ref="3230746519"/>
    <nd ref="6919897243"/>
    <tag k="agricultural" v="no"/>
    <tag k="bicycle" v="no"/>
    <tag k="bridge" v="viaduct"/>
    <tag k="carriage" v="no"/>
    <tag k="carriageway_ref" v="A"/>
    <tag k="dual_carriageway" v="yes"/>
    <tag k="expressway" v="yes"/>
    <tag k="foot" v="no"/>
    <tag k="highway" v="trunk"/>
    <tag k="horse" v="no"/>
    <tag k="int_ref" v="E 24"/>
    <tag k="lanes" v="3"/>
    <tag k="layer" v="1"/>
    <tag k="lit" v="no"/>
    <tag k="maxspeed" v="70 mph"/>
    <tag k="maxspeed:type" v="GB:nsl_dual"/>
    <tag k="maxspeed:variable" v="peak_traffic"/>
    <tag k="maxweight:signed" v="no"/>
    <tag k="motorcycle:conditional" v="no @ (displacement &lt; 50 cc)"/>
    <tag k="motorroad" v="yes"/>
    <tag k="name" v="Great Ouse Viaduct"/>
    <tag k="national_highways:area" v="8"/>
    <tag k="oneway" v="yes"/>
    <tag k="operator" v="National Highways"/>
    <tag k="operator:wikidata" v="Q5760006"/>
    <tag k="ref" v="A14"/>
    <tag k="shoulder" v="no"/>
    <tag k="surface" v="asphalt"/>
  </way>
  <way id="682217756" version="3" timestamp="2022-02-20T22:14:52Z" changeset="117656759" uid="242345" user="confusedbuffalo">
    <nd ref="6388779647"/>
    <nd ref="6388779644"/>
    <nd ref="6388779645"/>
    <nd ref="6388779646"/>
    <nd ref="6388779647"/>
    <tag k="addr:city" v="St Neots"/>
    <tag k="addr:country" v="GB"/>
    <tag k="addr:county" v="Cambridgeshire"/>
    <tag k="addr:housenumber" v="4"/>
    <tag k="addr:postcode" v="PE19 5SY"/>
    <tag k="addr:street" v="Grovefarm Close"/>
    <tag k="addr:village" v="Offord Darcy"/>
    <tag k="building" v="yes"/>
  </way>
  <way id="693843081" version="25" timestamp="2025-02-19T20:43:07Z" changeset="162716806" uid="10420541" user="Thingummy">
    <nd ref="12601791678"/>
    <nd ref="4449493231"/>
    <nd ref="2673270931"/>
    <nd ref="6542806478"/>
    <nd ref="4449493233"/>
    <nd ref="9140678103"/>
    <nd ref="9140678104"/>
    <nd ref="2861536700"/>
    <nd ref="4449493230"/>
    <nd ref="3444674493"/>
    <nd ref="8315800966"/>
    <nd ref="6542806470"/>
    <nd ref="8315800968"/>
    <nd ref="4449493228"/>
    <nd ref="4584142434"/>
    <nd ref="8315800970"/>
    <nd ref="2673270934"/>
    <nd ref="8315800973"/>
    <nd ref="8315800977"/>
    <nd ref="8315800975"/>
    <nd ref="3324820371"/>
    <nd ref="6543289240"/>
    <nd ref="8315800978"/>
    <nd ref="4449493232"/>
    <nd ref="8315800979"/>
    <nd ref="4449493237"/>
    <nd ref="8315800980"/>
    <nd ref="8315800981"/>
    <nd ref="2673270932"/>
    <nd ref="8315800982"/>
    <nd ref="4449493238"/>
    <nd ref="4449493240"/>
    <nd ref="3230753463"/>
    <nd ref="8315717258"/>
    <nd ref="2673270936"/>
    <nd ref="8315717257"/>
    <nd ref="8315717254"/>
    <nd ref="8315717253"/>
    <nd ref="6514864362"/>
    <nd ref="8315717251"/>
    <nd ref="4449493242"/>
    <nd ref="8315717249"/>
    <nd ref="6919897213"/>
    <nd ref="8315717247"/>
    <nd ref="4449493243"/>
    <nd ref="4584305934"/>
    <tag k="agricultural" v="no"/>
    <tag k="bicycle" v="no"/>
    <tag k="carriage" v="no"/>
    <tag k="carriageway_ref" v="B"/>
    <tag k="dual_carriageway" v="yes"/>
    <tag k="expressway" v="yes"/>
    <tag k="foot" v="no"/>
    <tag k="highway" v="trunk"/>
    <tag k="horse" v="no"/>
    <tag k="int_ref" v="E 24"/>
    <tag k="lanes" v="3"/>
    <tag k="lit" v="no"/>
    <tag k="maxheight" v="default"/>
    <tag k="maxspeed" v="70 mph"/>
    <tag k="maxspeed:type" v="GB:nsl_dual"/>
    <tag k="maxspeed:variable" v="peak_traffic"/>
    <tag k="motorcycle:conditional" v="no @ (displacement &lt; 50 cc)"/>
    <tag k="motorroad" v="yes"/>
    <tag k="national_highways:area" v="8"/>
    <tag k="oneway" v="yes"/>
    <tag k="operator" v="National Highways"/>
    <tag k="operator:wikidata" v="Q5760006"/>
    <tag k="ref" v="A14"/>
    <tag k="surface" v="asphalt"/>
  </way>
  <way id="721932487" version="2" timestamp="2021-08-20T18:39:22Z" changeset="110001386" uid="5173844" user="ndrw6">
    <nd ref="6772096404"/>
    <nd ref="6772096405"/>
    <nd ref="6772096406"/>
    <nd ref="6772096407"/>
    <nd ref="6772096408"/>
    <nd ref="6772096409"/>
    <nd ref="6772096410"/>
    <nd ref="6772096411"/>
    <nd ref="6772096412"/>
    <nd ref="6772096413"/>
    <tag k="highway" v="residential"/>
  </way>
  <way id="739054261" version="16" timestamp="2024-01-09T11:59:43Z" changeset="146064087" uid="5229644" user="Nathan_A_RF">
    <nd ref="4449493244"/>
    <nd ref="6919874779"/>
    <tag k="agricultural" v="no"/>
    <tag k="bicycle" v="no"/>
    <tag k="carriage" v="no"/>
    <tag k="carriageway_ref" v="B"/>
    <tag k="destination:lanes" v="THE NORTH;Peterborough| THE NORTH;Peterborough;THE MIDLANDS;Kettering;(M1, M6)|THE MIDLANDS;Kettering;(M1, M6)"/>
    <tag k="destination:ref:lanes" v="A1|A1;A14|A14"/>
    <tag k="dual_carriageway" v="yes"/>
    <tag k="embankment" v="yes"/>
    <tag k="expressway" v="yes"/>
    <tag k="foot" v="no"/>
    <tag k="highway" v="trunk"/>
    <tag k="horse" v="no"/>
    <tag k="int_ref" v="E 24"/>
    <tag k="lane_markings" v="yes"/>
    <tag k="lanes" v="3"/>
    <tag k="layer" v="1"/>
    <tag k="lit" v="no"/>
    <tag k="maxspeed" v="70 mph"/>
    <tag k="maxspeed:type" v="GB:nsl_dual"/>
    <tag k="maxspeed:variable" v="peak_traffic"/>
    <tag k="motorcycle:conditional" v="no @ (displacement &lt; 50 cc)"/>
    <tag k="motorroad" v="yes"/>
    <tag k="national_highways:area" v="8"/>
    <tag k="oneway" v="yes"/>
    <tag k="operator" v="National Highways"/>
    <tag k="operator:wikidata" v="Q5760006"/>
    <tag k="ref" v="A14"/>
    <tag k="shoulder" v="no"/>
    <tag k="surface" v="asphalt"/>
    <tag k="turn:lanes" v="slight_left|through;slight_left|through"/>
  </way>
  <way id="739054266" version="14" timestamp="2024-01-09T11:59:43Z" changeset="146064087" uid="5229644" user="Nathan_A_RF">
    <nd ref="6919897243"/>
    <nd ref="6102483791"/>
    <tag k="agricultural" v="no"/>
    <tag k="bicycle" v="no"/>
    <tag k="carriage" v="no"/>
    <tag k="carriageway_ref" v="A"/>
    <tag k="dual_carriageway" v="yes"/>
    <tag k="embankment" v="yes"/>
    <tag k="expressway" v="yes"/>
    <tag k="foot" v="no"/>
    <tag k="highway" v="trunk"/>
    <tag k="horse" v="no"/>
    <tag k="int_ref" v="E 24"/>
    <tag k="lanes" v="3"/>
    <tag k="layer" v="1"/>
    <tag k="lit" v="no"/>
    <tag k="maxspeed" v="70 mph"/>
    <tag k="maxspeed:type" v="GB:nsl_dual"/>
    <tag k="maxspeed:variable" v="peak_traffic"/>
    <tag k="motorcycle:conditional" v="no @ (displacement &lt; 50 cc)"/>
    <tag k="motorroad" v="yes"/>
    <tag k="national_highways:area" v="8"/>
    <tag k="oneway" v="yes"/>
    <tag k="operator" v="National Highways"/>
    <tag k="operator:wikidata" v="Q5760006"/>
    <tag k="ref" v="A14"/>
    <tag k="shoulder" v="no"/>
    <tag k="surface" v="asphalt"/>
  </way>
  <way id="753920537" version="17" timestamp="2025-03-12T11:31:17Z" changeset="163523362" uid="5229644" user="Nathan_A_RF">
    <nd ref="4584305930"/>
    <nd ref="3230746528"/>
    <nd ref="8315717246"/>
    <nd ref="6919874768"/>
    <nd ref="8315717248"/>
    <nd ref="3230746523"/>
    <nd ref="8315717250"/>
    <nd ref="6514864363"/>
    <nd ref="8315717252"/>
    <nd ref="8315717255"/>
    <nd ref="8315717256"/>
    <nd ref="3230752820"/>
    <nd ref="8315717259"/>
    <nd ref="3230753467"/>
    <nd ref="4449493241"/>
    <nd ref="4449493239"/>
    <nd ref="3230753464"/>
    <nd ref="8315800983"/>
    <nd ref="8315800984"/>
    <nd ref="3230753466"/>
    <nd ref="8315800985"/>
    <nd ref="4449493235"/>
    <nd ref="8315800986"/>
    <nd ref="6543289229"/>
    <nd ref="12655889539"/>
    <nd ref="3324820370"/>
    <tag k="agricultural" v="no"/>
    <tag k="bicycle" v="no"/>
    <tag k="carriage" v="no"/>
    <tag k="carriageway_ref" v="A"/>
    <tag k="destination:lanes" v="St Ives;Royston;Godmanchester;London;Standsted Airport;Felixstone;Cambridge| London;Standsted Airport;Felixstone;Cambridge"/>
    <tag k="destination:ref:lanes" v="A14;A1198|A14|A14"/>
    <tag k="dual_carriageway" v="yes"/>
    <tag k="expressway" v="yes"/>
    <tag k="foot" v="no"/>
    <tag k="highway" v="trunk"/>
    <tag k="horse" v="no"/>
    <tag k="int_ref" v="E 24"/>
    <tag k="lanes" v="3"/>
    <tag k="lit" v="no"/>
    <tag k="maxheight" v="default"/>
    <tag k="maxspeed" v="70 mph"/>
    <tag k="maxspeed:type" v="GB:nsl_dual"/>
    <tag k="maxspeed:variable" v="peak_traffic"/>
    <tag k="motorcycle:conditional" v="no @ (displacement &lt; 50 cc)"/>
    <tag k="motorroad" v="yes"/>
    <tag k="national_highways:area" v="8"/>
    <tag k="oneway" v="yes"/>
    <tag k="operator" v="National Highways"/>
    <tag k="operator:wikidata" v="Q5760006"/>
    <tag k="ref" v="A14"/>
    <tag k="shoulder" v="no"/>
    <tag k="surface" v="asphalt"/>
    <tag k="turn:lanes" v="through;slight_left|through|through"/>
  </way>
  <way id="857997280" version="2" timestamp="2021-08-20T18:39:22Z" changeset="110001386" uid="5173844" user="ndrw6">
    <nd ref="9023383589"/>
    <nd ref="9023383588"/>
    <nd ref="6772096413"/>
    <nd ref="7998861010"/>
    <nd ref="7998861011"/>
    <nd ref="7998861013"/>
    <tag k="highway" v="residential"/>
  </way>
  <way id="907298697" version="2" timestamp="2021-08-19T10:09:40Z" changeset="109923215" uid="5173844" user="ndrw6">
    <nd ref="9019645190"/>
    <nd ref="344222664"/>
    <nd ref="8425135554"/>
    <tag k="highway" v="residential"/>
    <tag k="name" v="Elm Drive"/>
    <tag k="source" v="survey"/>
  </way>
  <way id="975056229" version="1" timestamp="2021-08-20T18:39:21Z" changeset="110001386" uid="5173844" user="ndrw6">
    <nd ref="9023381769"/>
    <nd ref="9023381768"/>
    <nd ref="1457322499"/>
    <nd ref="1457322500"/>
    <nd ref="1457322501"/>
    <tag k="highway" v="residential"/>
    <tag k="name" v="Whitwell Court"/>
  </way>
  <way id="975056668" version="1" timestamp="2021-08-20T18:39:22Z" changeset="110001386" uid="5173844" user="ndrw6">
    <nd ref="9023383511"/>
    <nd ref="9023383510"/>
    <tag k="highway" v="residential"/>
    <tag k="name" v="Apple Close"/>
    <tag k="source" v="survey"/>
  </way>
  <way id="975056669" version="1" timestamp="2021-08-20T18:39:22Z" changeset="110001386" uid="5173844" user="ndrw6">
    <nd ref="9023383513"/>
    <nd ref="9023383512"/>
    <tag k="highway" v="residential"/>
    <tag k="name" v="Apple Close"/>
    <tag k="source" v="survey"/>
  </way>
  <way id="975056685" version="1" timestamp="2021-08-20T18:39:22Z" changeset="110001386" uid="5173844" user="ndrw6">
    <nd ref="7998861014"/>
    <nd ref="7998861013"/>
    <nd ref="9023383590"/>
    <tag k="highway" v="residential"/>
  </way>
  <way id="1346193340" version="1" timestamp="2024-12-25T17:08:42Z" changeset="160611193" uid="5173844" user="ndrw6">
    <nd ref="12451438920"/>
    <nd ref="3030711295"/>
    <nd ref="3030711294"/>
    <nd ref="3030711275"/>
    <nd ref="12451438921"/>
    <nd ref="4321290615"/>
    <nd ref="4321290616"/>
    <nd ref="3313220120"/>
    <nd ref="12451438920"/>
    <tag k="addr:city" v="St Neots"/>
    <tag k="addr:country" v="GB"/>
    <tag k="addr:postcode" v="PE19 5RJ"/>
    <tag k="addr:street" v="New Road"/>
    <tag k="addr:suburb" v="Orfford Cluny"/>
    <tag k="landuse" v="farmyard"/>
    <tag k="name" v="Waterloo Farm"/>
  </way>

</osm>
