<?xml version="1.0" encoding="UTF-8"?>
<osm version="0.6" generator="Overpass API 0.7.62.5 1bd436f1">
<note>The data included in this document is from www.openstreetmap.org. The data is made available under ODbL.</note>
<meta osm_base="2025-03-25T16:03:29Z" areas="2025-02-06T02:17:44Z"/>

  <node id="6076110011" lat="52.0959133" lon="0.1286624" version="2" timestamp="2019-02-04T10:42:24Z" changeset="66899076" uid="5173844" user="ndrw6">
    <tag k="addr:city" v="Cambridge"/>
    <tag k="addr:housename" v="The Officers Mess"/>
    <tag k="addr:postcode" v="CB22 4QH"/>
    <tag k="addr:street" v="Royston Road"/>
    <tag k="addr:village" v="Duxford"/>
    <tag k="amenity" v="restaurant"/>
    <tag k="name" v="The Mess Cafe"/>
    <tag k="opening_hours" v="Mo-Fr 08:30-17:30"/>
  </node>
  <node id="9110441883" lat="52.1038722" lon="0.1562353" version="1" timestamp="2021-09-21T09:31:50Z" changeset="111485422" uid="6816132" user="CjMalone">
    <tag k="addr:country" v="GB"/>
    <tag k="addr:housenumber" v="28"/>
    <tag k="addr:postcode" v="CB22 4NW"/>
    <tag k="addr:street" v="Royston Road"/>
    <tag k="fhrs:id" v="597261"/>
    <tag k="guest_house" v="bed_and_breakfast"/>
    <tag k="name" v="Orchard Pond B&amp;B"/>
    <tag k="survey:date" v="2021-07-02"/>
    <tag k="tourism" v="guest_house"/>
  </node>
  <way id="2375368" version="16" timestamp="2024-12-29T22:55:39Z" changeset="160770788" uid="5229644" user="Nathan_A_RF">
    <nd ref="10312183"/>
    <nd ref="12461788800"/>
    <nd ref="41034928"/>
    <nd ref="938254178"/>
    <nd ref="36417979"/>
    <nd ref="25301340"/>
    <tag k="highway" v="trunk"/>
    <tag k="lanes" v="1"/>
    <tag k="lit" v="yes"/>
    <tag k="maxspeed" v="50 mph"/>
    <tag k="maxspeed:type" v="sign"/>
    <tag k="oneway" v="yes"/>
    <tag k="ref" v="A505"/>
  </way>
  <way id="3977136" version="19" timestamp="2024-04-14T08:24:49Z" changeset="149978038" uid="344866" user="thewinduppirate">
    <nd ref="10312213"/>
    <nd ref="1565154474"/>
    <nd ref="1556235885"/>
    <nd ref="886491392"/>
    <tag k="destination" v="Cambridge;Bedford;Huntingdon"/>
    <tag k="destination:ref" v="M11"/>
    <tag k="highway" v="motorway_link"/>
    <tag k="lit" v="yes"/>
    <tag k="maxspeed" v="50 mph"/>
    <tag k="maxspeed:type" v="sign"/>
    <tag k="national_highways:area" v="8"/>
    <tag k="oneway" v="yes"/>
    <tag k="operator" v="National Highways"/>
    <tag k="operator:wikidata" v="Q5760006"/>
    <tag k="surface" v="asphalt"/>
  </way>
  <way id="4237708" version="2" timestamp="2020-10-28T12:15:58Z" changeset="93179534" uid="10252560" user="rkkapilk">
    <nd ref="25301214"/>
    <nd ref="8058989463"/>
    <nd ref="25301215"/>
    <nd ref="25301216"/>
    <nd ref="25301217"/>
    <nd ref="25301218"/>
    <nd ref="25301219"/>
    <tag k="highway" v="tertiary"/>
    <tag k="name" v="Shelford Road"/>
  </way>
  <way id="4237709" version="3" timestamp="2016-01-14T16:27:10Z" changeset="36574058" uid="873940" user="Mike Baggaley">
    <nd ref="25301221"/>
    <nd ref="34094205"/>
    <nd ref="25301222"/>
    <tag k="abutters" v="residential"/>
    <tag k="highway" v="tertiary"/>
    <tag k="name" v="Shelford Road"/>
  </way>
  <way id="4237710" version="12" timestamp="2023-10-01T19:27:19Z" changeset="142002010" uid="1287673" user="sloerunner">
    <nd ref="25301257"/>
    <nd ref="1420800196"/>
    <nd ref="25301279"/>
    <nd ref="11232447714"/>
    <nd ref="25301283"/>
    <nd ref="25301301"/>
    <nd ref="25301303"/>
    <nd ref="25301344"/>
    <nd ref="886491402"/>
    <nd ref="6909187047"/>
    <nd ref="40809737"/>
    <nd ref="40810344"/>
    <tag k="abutters" v="residential"/>
    <tag k="cycleway:both" v="no"/>
    <tag k="fixme" v="1) Double-check the name of this road. 2) Isn't there a zebra crossing somewhere along here?"/>
    <tag k="highway" v="tertiary"/>
    <tag k="lanes" v="2"/>
    <tag k="maxspeed" v="30 mph"/>
    <tag k="name" v="Duxford Road"/>
    <tag k="surface" v="asphalt"/>
  </way>
  <way id="4237711" version="6" timestamp="2019-04-12T15:49:34Z" changeset="69152061" uid="322039" user="MacLondon">
    <nd ref="25301336"/>
    <nd ref="36417977"/>
    <nd ref="25301337"/>
    <nd ref="886521981"/>
    <nd ref="36417980"/>
    <nd ref="25301338"/>
    <tag k="abutters" v="residential"/>
    <tag k="highway" v="tertiary"/>
    <tag k="maxspeed" v="40 mph"/>
    <tag k="name" v="Moorfield Road"/>
  </way>
  <way id="4237969" version="11" timestamp="2024-12-29T22:55:39Z" changeset="160770788" uid="5229644" user="Nathan_A_RF">
    <nd ref="10312192"/>
    <nd ref="12461830313"/>
    <nd ref="12461830314"/>
    <nd ref="12461830315"/>
    <nd ref="938254173"/>
    <nd ref="1556235886"/>
    <tag k="highway" v="trunk"/>
    <tag k="lanes" v="1"/>
    <tag k="lit" v="no"/>
    <tag k="maxspeed" v="50 mph"/>
    <tag k="maxspeed:type" v="sign"/>
    <tag k="name" v="Royston Road"/>
    <tag k="oneway" v="yes"/>
    <tag k="ref" v="A505"/>
  </way>
  <way id="4678956" version="14" timestamp="2024-12-29T22:55:39Z" changeset="160770788" uid="5229644" user="Nathan_A_RF">
    <nd ref="322239115"/>
    <nd ref="322240012"/>
    <nd ref="1565154377"/>
    <nd ref="322240014"/>
    <nd ref="6545593519"/>
    <nd ref="1565154403"/>
    <nd ref="322240016"/>
    <nd ref="1565154309"/>
    <nd ref="322240019"/>
    <tag k="highway" v="trunk"/>
    <tag k="lanes" v="2"/>
    <tag k="lit" v="yes"/>
    <tag k="maxspeed" v="50 mph"/>
    <tag k="maxspeed:type" v="sign"/>
    <tag k="name" v="Royston Road"/>
    <tag k="oneway" v="yes"/>
    <tag k="ref" v="A505"/>
    <tag k="source:lit" v="2011-03-17"/>
  </way>
  <way id="5063778" version="7" timestamp="2021-05-02T12:38:55Z" changeset="103993239" uid="12661527" user="Kartenkarsten714">
    <nd ref="25301257"/>
    <nd ref="5850002941"/>
    <nd ref="5850004030"/>
    <nd ref="34093821"/>
    <nd ref="3546887129"/>
    <nd ref="34093824"/>
    <tag k="highway" v="residential"/>
    <tag k="lit" v="yes"/>
    <tag k="name" v="Church Lane"/>
    <tag k="sidewalk" v="left"/>
    <tag k="source:name" v="dictaphone"/>
    <tag k="surface" v="asphalt"/>
  </way>
  <way id="5063779" version="3" timestamp="2018-08-22T22:59:30Z" changeset="61904263" uid="5173844" user="ndrw6">
    <nd ref="34093821"/>
    <nd ref="5850004029"/>
    <nd ref="1420800208"/>
    <nd ref="5850003150"/>
    <nd ref="5850004028"/>
    <nd ref="34093816"/>
    <nd ref="34093812"/>
    <tag k="highway" v="residential"/>
    <tag k="name" v="Church Close"/>
    <tag k="source:name" v="dictaphone"/>
  </way>
  <way id="5063780" version="3" timestamp="2018-08-22T22:59:30Z" changeset="61904263" uid="5173844" user="ndrw6">
    <nd ref="34093816"/>
    <nd ref="5850004027"/>
    <nd ref="1420800214"/>
    <nd ref="34093818"/>
    <tag k="highway" v="residential"/>
    <tag k="name" v="Church Close"/>
    <tag k="source:name" v="dictaphone"/>
  </way>
  <way id="5063781" version="1" timestamp="2007-08-12T22:00:31Z" changeset="206589" uid="3582" user="davidearl">
    <nd ref="34093807"/>
    <nd ref="34093809"/>
    <tag k="created_by" v="JOSM"/>
    <tag k="highway" v="residential"/>
    <tag k="name" v="Radegunds"/>
    <tag k="source:name" v="dictaphone"/>
  </way>
  <way id="5063782" version="3" timestamp="2010-08-30T18:46:22Z" changeset="5639033" uid="21502" user="Kevin Steinhardt">
    <nd ref="25301235"/>
    <nd ref="889211625"/>
    <tag k="abutters" v="residential"/>
    <tag k="description" v="No vehicles over 7.5 t except for access"/>
    <tag k="highway" v="tertiary"/>
    <tag k="maxweight" v="7.5"/>
    <tag k="name" v="High Street"/>
    <tag k="note:maxweight" v="Except for access"/>
    <tag k="note:routeCiti7" v="Citi 7 *may* travel in both directions"/>
    <tag k="source:name" v="dictaphone"/>
  </way>
  <way id="5063819" version="2" timestamp="2010-11-15T00:33:37Z" changeset="6374380" uid="21502" user="Kevin Steinhardt">
    <nd ref="34094203"/>
    <nd ref="25301211"/>
    <nd ref="25301212"/>
    <nd ref="25301213"/>
    <nd ref="25301347"/>
    <nd ref="25301214"/>
    <tag k="highway" v="tertiary"/>
    <tag k="name" v="Whittlesford Road"/>
  </way>
  <way id="5063822" version="1" timestamp="2007-09-04T11:29:45Z" changeset="322296" uid="3582" user="davidearl">
    <nd ref="34094205"/>
    <nd ref="34094206"/>
    <tag k="abutters" v="residential"/>
    <tag k="created_by" v="JOSM"/>
    <tag k="highway" v="tertiary"/>
    <tag k="name" v="Middlemoor Road"/>
  </way>
  <way id="5063823" version="1" timestamp="2007-08-12T22:00:37Z" changeset="206589" uid="3582" user="davidearl">
    <nd ref="25301219"/>
    <nd ref="25301346"/>
    <nd ref="25301220"/>
    <nd ref="25301221"/>
    <tag k="abutters" v="residential"/>
    <tag k="created_by" v="comsomol"/>
    <tag k="highway" v="tertiary"/>
    <tag k="name" v="Shelford Road"/>
  </way>
  <way id="5204362" version="3" timestamp="2018-08-22T22:59:30Z" changeset="61904263" uid="5173844" user="ndrw6">
    <nd ref="36417975"/>
    <nd ref="5850005445"/>
    <nd ref="36417976"/>
    <nd ref="5850005444"/>
    <nd ref="3602702951"/>
    <nd ref="3602702963"/>
    <tag k="highway" v="residential"/>
    <tag k="name" v="Owls Close"/>
    <tag k="source:name" v="dictaphone"/>
  </way>
  <way id="5204363" version="6" timestamp="2025-03-17T17:47:18Z" changeset="163743626" uid="953779" user="Adam Edwards">
    <nd ref="36417980"/>
    <nd ref="12461830309"/>
    <nd ref="886521957"/>
    <nd ref="12461830303"/>
    <nd ref="12461830304"/>
    <nd ref="8021322681"/>
    <nd ref="36417981"/>
    <tag k="highway" v="residential"/>
    <tag k="lanes" v="2"/>
    <tag k="maxspeed" v="30 mph"/>
    <tag k="name" v="Old Boundary Close"/>
  </way>
  <way id="5204365" version="4" timestamp="2023-05-09T10:55:50Z" changeset="135889930" uid="3582" user="davidearl">
    <nd ref="25301336"/>
    <nd ref="36417982"/>
    <nd ref="40810427"/>
    <nd ref="40810431"/>
    <tag k="highway" v="residential"/>
    <tag k="lcn" v="yes"/>
    <tag k="maxspeed" v="30 mph"/>
    <tag k="maxweight" v="7.5"/>
    <tag k="name" v="Royston Road"/>
    <tag k="note" v="CambsCC regards this as link from A505 cycleway to satation, hence lcn"/>
    <tag k="source:name" v="dictaphone"/>
  </way>
  <way id="5204366" version="11" timestamp="2025-01-29T18:38:59Z" changeset="161909607" uid="18964624" user="Exterprook58">
    <nd ref="25301336"/>
    <nd ref="6635326686"/>
    <nd ref="1440961264"/>
    <nd ref="1440961271"/>
    <nd ref="1120410402"/>
    <nd ref="36417975"/>
    <nd ref="36417961"/>
    <nd ref="36417973"/>
    <tag k="fixme" v="Double-check street name"/>
    <tag k="highway" v="residential"/>
    <tag k="lcn" v="yes"/>
    <tag k="maxspeed" v="30 mph"/>
    <tag k="name" v="Station Road West"/>
    <tag k="note" v="CambsCC regards this as link from A505 cycleway to satation, hence lcn"/>
    <tag k="source:name" v="roadsign"/>
  </way>
  <way id="5229141" version="11" timestamp="2013-04-01T16:52:15Z" changeset="15570358" uid="84263" user="Robert Whittaker">
    <nd ref="236998544"/>
    <nd ref="1565154464"/>
    <nd ref="2242635835"/>
    <nd ref="28903257"/>
    <tag k="highway" v="trunk"/>
    <tag k="lanes" v="1"/>
    <tag k="lit" v="yes"/>
    <tag k="maxspeed" v="40 mph"/>
    <tag k="name" v="Royston Road"/>
    <tag k="oneway" v="yes"/>
    <tag k="ref" v="A505"/>
    <tag k="source:lit" v="2011-03-17"/>
    <tag k="source:name" v="local knowledge"/>
    <tag k="source:ref" v="local knowledge"/>
  </way>
  <way id="5229143" version="16" timestamp="2023-12-24T18:31:07Z" changeset="145477222" uid="242345" user="confusedbuffalo">
    <nd ref="328543"/>
    <nd ref="1411857503"/>
    <nd ref="36744857"/>
    <nd ref="1537156009"/>
    <tag k="destination" v="Saffron;Walden;Duxford;Haverhill"/>
    <tag k="destination:ref" v="A505"/>
    <tag k="highway" v="motorway_link"/>
    <tag k="lane_markings" v="no"/>
    <tag k="lit" v="no"/>
    <tag k="maxspeed" v="70 mph"/>
    <tag k="maxspeed:type" v="GB:motorway"/>
    <tag k="national_highways:area" v="8"/>
    <tag k="oneway" v="yes"/>
    <tag k="operator" v="National Highways"/>
    <tag k="operator:wikidata" v="Q5760006"/>
    <tag k="surface" v="asphalt"/>
  </way>
  <way id="5544731" version="4" timestamp="2019-04-12T15:49:44Z" changeset="69152061" uid="322039" user="MacLondon">
    <nd ref="40809736"/>
    <nd ref="5850004026"/>
    <nd ref="40809707"/>
    <nd ref="1420800199"/>
    <nd ref="40809703"/>
    <nd ref="40809701"/>
    <nd ref="1420800210"/>
    <nd ref="40809694"/>
    <tag k="highway" v="residential"/>
    <tag k="name" v="The Lawn"/>
    <tag k="source:name" v="dictaphone"/>
  </way>
  <way id="5544735" version="3" timestamp="2018-08-22T22:59:31Z" changeset="61904263" uid="5173844" user="ndrw6">
    <nd ref="40809707"/>
    <nd ref="40809711"/>
    <nd ref="1420800201"/>
    <nd ref="40809716"/>
    <nd ref="5850003813"/>
    <nd ref="1420800207"/>
    <nd ref="40809718"/>
    <nd ref="5850003815"/>
    <nd ref="1420800213"/>
    <nd ref="40809721"/>
    <tag k="highway" v="residential"/>
    <tag k="name" v="Butts Green"/>
    <tag k="source:name" v="dictaphone"/>
  </way>
  <way id="5544737" version="1" timestamp="2007-09-04T11:28:58Z" changeset="322296" uid="3582" user="davidearl">
    <nd ref="40809718"/>
    <nd ref="40809725"/>
    <nd ref="40809728"/>
    <tag k="created_by" v="JOSM"/>
    <tag k="highway" v="residential"/>
    <tag k="name" v="Lettice Martin Croft"/>
    <tag k="source:name" v="dictaphone"/>
  </way>
  <way id="5544744" version="5" timestamp="2023-05-03T09:03:58Z" changeset="135649661" uid="14297229" user="nicole_run">
    <nd ref="10864381322"/>
    <nd ref="40810082"/>
    <tag k="bridge" v="yes"/>
    <tag k="highway" v="tertiary"/>
    <tag k="layer" v="1"/>
    <tag k="name" v="Newton Road"/>
    <tag k="surface" v="asphalt"/>
  </way>
  <way id="5544745" version="8" timestamp="2021-11-27T12:38:01Z" changeset="114293012" uid="7675562" user="ChildishGiant">
    <nd ref="40810082"/>
    <nd ref="1779185040"/>
    <nd ref="33129741"/>
    <nd ref="40810080"/>
    <nd ref="770568821"/>
    <nd ref="770568822"/>
    <nd ref="33129742"/>
    <nd ref="770568823"/>
    <nd ref="40810076"/>
    <nd ref="5275054184"/>
    <nd ref="770568824"/>
    <nd ref="2561725598"/>
    <nd ref="33129743"/>
    <nd ref="770568832"/>
    <nd ref="33129744"/>
    <nd ref="8423025514"/>
    <nd ref="8423025496"/>
    <nd ref="770568834"/>
    <nd ref="40810073"/>
    <nd ref="33129745"/>
    <tag k="abutters" v="residential"/>
    <tag k="highway" v="tertiary"/>
    <tag k="lanes" v="2"/>
    <tag k="name" v="Newton Road"/>
    <tag k="surface" v="asphalt"/>
  </way>
  <way id="5544746" version="5" timestamp="2021-11-27T12:38:24Z" changeset="114292997" uid="7675562" user="ChildishGiant">
    <nd ref="33129745"/>
    <nd ref="40810070"/>
    <nd ref="2561725594"/>
    <nd ref="40810321"/>
    <nd ref="2582174737"/>
    <nd ref="802016570"/>
    <tag k="highway" v="tertiary"/>
    <tag k="name" v="Middlemoor Road"/>
    <tag k="source:name" v="dictaphone"/>
    <tag k="surface" v="asphalt"/>
  </way>
  <way id="5544747" version="7" timestamp="2021-11-27T12:39:23Z" changeset="114293068" uid="7675562" user="ChildishGiant">
    <nd ref="40810025"/>
    <nd ref="2353756100"/>
    <nd ref="40810039"/>
    <nd ref="886491351"/>
    <tag k="abutters" v="residential"/>
    <tag k="highway" v="tertiary"/>
    <tag k="lit" v="yes"/>
    <tag k="maxspeed" v="40 mph"/>
    <tag k="name" v="Hill Farm Road"/>
    <tag k="sidewalk" v="left"/>
    <tag k="source:lit" v="2011-03-17"/>
    <tag k="source:name" v="dictaphone"/>
  </way>
  <way id="5544754" version="9" timestamp="2021-11-27T12:39:15Z" changeset="114292997" uid="7675562" user="ChildishGiant">
    <nd ref="40809875"/>
    <nd ref="40809874"/>
    <nd ref="1420800186"/>
    <nd ref="1420800187"/>
    <nd ref="40809916"/>
    <nd ref="4898381994"/>
    <nd ref="40809974"/>
    <nd ref="40809972"/>
    <nd ref="2353756123"/>
    <nd ref="40809995"/>
    <nd ref="886491344"/>
    <nd ref="2353756113"/>
    <nd ref="770568848"/>
    <nd ref="40810008"/>
    <nd ref="770568853"/>
    <nd ref="1420800179"/>
    <nd ref="40810014"/>
    <nd ref="5850001899"/>
    <nd ref="5850001900"/>
    <nd ref="40810018"/>
    <nd ref="40810021"/>
    <nd ref="2353756105"/>
    <nd ref="2353756103"/>
    <nd ref="40810025"/>
    <tag k="abutters" v="residential"/>
    <tag k="description" v="No vehicles over 7.5 t except for access"/>
    <tag k="highway" v="tertiary"/>
    <tag k="maxweight" v="7.5"/>
    <tag k="name" v="West End"/>
    <tag k="note:maxweight" v="Except for access"/>
    <tag k="source:name" v="dictaphone"/>
    <tag k="surface" v="asphalt"/>
  </way>
  <way id="5544755" version="2" timestamp="2013-06-20T17:47:20Z" changeset="16633289" uid="6367" user="mackerski">
    <nd ref="40810008"/>
    <nd ref="40810010"/>
    <nd ref="40810313"/>
    <nd ref="2353756106"/>
    <tag k="highway" v="residential"/>
    <tag k="name" v="Parsonage Court"/>
    <tag k="source:name" v="dictaphone"/>
  </way>
  <way id="5544756" version="2" timestamp="2013-06-20T17:47:21Z" changeset="16633289" uid="6367" user="mackerski">
    <nd ref="40810018"/>
    <nd ref="2353756104"/>
    <nd ref="40810036"/>
    <nd ref="2353756098"/>
    <nd ref="2353756097"/>
    <tag k="highway" v="residential"/>
    <tag k="name" v="Wren Park"/>
    <tag k="source:name" v="dictaphone"/>
  </way>
  <way id="5544757" version="2" timestamp="2013-06-20T17:47:20Z" changeset="16633289" uid="6367" user="mackerski">
    <nd ref="40810039"/>
    <nd ref="2353756090"/>
    <nd ref="2353756091"/>
    <nd ref="2353756092"/>
    <nd ref="2353756093"/>
    <nd ref="40810047"/>
    <nd ref="40810050"/>
    <nd ref="2353756095"/>
    <nd ref="2353756096"/>
    <nd ref="40810053"/>
    <tag k="highway" v="residential"/>
    <tag k="name" v="New Road"/>
  </way>
  <way id="5544758" version="3" timestamp="2013-06-20T17:47:20Z" changeset="16633289" uid="6367" user="mackerski">
    <nd ref="40809995"/>
    <nd ref="2353756117"/>
    <nd ref="40809999"/>
    <nd ref="1420800180"/>
    <nd ref="2353756112"/>
    <nd ref="40810002"/>
    <nd ref="2353756107"/>
    <nd ref="40810004"/>
    <tag k="highway" v="residential"/>
    <tag k="name" v="Ascham Lane"/>
    <tag k="source:name" v="dictaphone"/>
  </way>
  <way id="5544759" version="5" timestamp="2021-01-15T02:18:04Z" changeset="97522963" uid="12487319" user="EggyDoug">
    <nd ref="40809972"/>
    <nd ref="1420800184"/>
    <nd ref="1420800185"/>
    <nd ref="2353756126"/>
    <nd ref="2353756127"/>
    <nd ref="40809978"/>
    <nd ref="40809981"/>
    <nd ref="2353756133"/>
    <nd ref="40809985"/>
    <tag k="highway" v="residential"/>
    <tag k="lit" v="yes"/>
    <tag k="name" v="Vicarage Lane"/>
    <tag k="source:name" v="dictaphone"/>
    <tag k="surface" v="asphalt"/>
  </way>
  <way id="5544763" version="3" timestamp="2018-08-22T22:59:31Z" changeset="61904263" uid="5173844" user="ndrw6">
    <nd ref="34093831"/>
    <nd ref="1420800191"/>
    <nd ref="40809968"/>
    <nd ref="1420800194"/>
    <nd ref="1420800192"/>
    <nd ref="40809964"/>
    <nd ref="40809950"/>
    <nd ref="5850002982"/>
    <nd ref="40809940"/>
    <nd ref="40809934"/>
    <nd ref="5850002981"/>
    <nd ref="1420800189"/>
    <nd ref="1420800188"/>
    <nd ref="5850002980"/>
    <nd ref="40809924"/>
    <nd ref="40809930"/>
    <nd ref="40809920"/>
    <tag k="highway" v="residential"/>
    <tag k="name" v="Maynards"/>
    <tag k="source:name" v="dictaphone"/>
  </way>
  <way id="5544764" version="3" timestamp="2017-06-05T22:27:41Z" changeset="49289614" uid="705850" user="Cebderby">
    <nd ref="40809920"/>
    <nd ref="4898381997"/>
    <nd ref="40810271"/>
    <nd ref="4898381996"/>
    <nd ref="40809916"/>
    <tag k="fixme" v="Are you sure this section is one-way?"/>
    <tag k="highway" v="residential"/>
    <tag k="name" v="Maynards"/>
    <tag k="oneway" v="yes"/>
    <tag k="source:name" v="dictaphone"/>
  </way>
  <way id="5544765" version="2" timestamp="2018-08-22T22:59:32Z" changeset="61904263" uid="5173844" user="ndrw6">
    <nd ref="40809940"/>
    <nd ref="40810283"/>
    <nd ref="5850002972"/>
    <nd ref="40809942"/>
    <nd ref="40809947"/>
    <tag k="highway" v="residential"/>
    <tag k="name" v="Maynards"/>
    <tag k="source:name" v="dictaphone"/>
  </way>
  <way id="5544767" version="1" timestamp="2007-09-04T11:29:05Z" changeset="322296" uid="3582" user="davidearl">
    <nd ref="40809964"/>
    <nd ref="40809955"/>
    <nd ref="40809960"/>
    <tag k="created_by" v="JOSM"/>
    <tag k="highway" v="residential"/>
    <tag k="name" v="Maynards"/>
    <tag k="source:name" v="dictaphone"/>
  </way>
  <way id="5544768" version="3" timestamp="2024-03-05T19:44:39Z" changeset="148265567" uid="5173844" user="ndrw6">
    <nd ref="40809856"/>
    <nd ref="40809860"/>
    <nd ref="5850002983"/>
    <nd ref="40809863"/>
    <nd ref="11694870289"/>
    <nd ref="40809868"/>
    <tag k="highway" v="residential"/>
    <tag k="name" v="Scotts Gardens"/>
    <tag k="source:name" v="dictaphone"/>
  </way>
  <way id="5544772" version="3" timestamp="2024-03-05T19:44:39Z" changeset="148265567" uid="5173844" user="ndrw6">
    <nd ref="40809875"/>
    <nd ref="2353756125"/>
    <nd ref="2353756124"/>
    <nd ref="40809879"/>
    <nd ref="40809895"/>
    <nd ref="11694870298"/>
    <nd ref="40809909"/>
    <nd ref="2353756111"/>
    <nd ref="2353756108"/>
    <tag k="highway" v="residential"/>
    <tag k="name" v="Orchard Terrace"/>
    <tag k="source:name" v="dictaphone"/>
  </way>
  <way id="5544775" version="3" timestamp="2018-08-22T22:59:32Z" changeset="61904263" uid="5173844" user="ndrw6">
    <nd ref="40809879"/>
    <nd ref="2353756122"/>
    <nd ref="2353756121"/>
    <nd ref="40809883"/>
    <nd ref="5850002970"/>
    <nd ref="5850002969"/>
    <nd ref="5850002968"/>
    <nd ref="40809888"/>
    <nd ref="40809891"/>
    <tag k="highway" v="residential"/>
    <tag k="name" v="Whiskins"/>
    <tag k="source:name" v="dictaphone"/>
  </way>
  <way id="5544776" version="3" timestamp="2018-08-22T22:59:32Z" changeset="61904263" uid="5173844" user="ndrw6">
    <nd ref="40809750"/>
    <nd ref="5850004025"/>
    <nd ref="1420800202"/>
    <nd ref="5850004024"/>
    <nd ref="1420800206"/>
    <nd ref="40809752"/>
    <nd ref="40809760"/>
    <tag k="highway" v="unclassified"/>
    <tag k="name" v="Mill Lane"/>
    <tag k="source:name" v="dictaphone"/>
  </way>
  <way id="5544777" version="2" timestamp="2017-10-24T10:37:00Z" changeset="53204350" uid="1287673" user="sloerunner">
    <nd ref="40809760"/>
    <nd ref="40810228"/>
    <tag k="bridge" v="yes"/>
    <tag k="designation" v="public_footpath"/>
    <tag k="foot" v="designated"/>
    <tag k="highway" v="unclassified"/>
    <tag k="layer" v="1"/>
    <tag k="name" v="Mill Lane"/>
    <tag k="note" v="Cycling Tolerated"/>
    <tag k="prow_ref" v="Whittlesford FP 2"/>
    <tag k="source:name" v="dictaphone"/>
    <tag k="source:prow_ref" v="cambridgeshire_county_council_prow_gis_data"/>
  </way>
  <way id="5544778" version="2" timestamp="2017-10-24T10:37:00Z" changeset="53204350" uid="1287673" user="sloerunner">
    <nd ref="40810228"/>
    <nd ref="40809756"/>
    <tag k="designation" v="public_footpath"/>
    <tag k="foot" v="designated"/>
    <tag k="highway" v="unclassified"/>
    <tag k="name" v="Mill Lane"/>
    <tag k="note" v="Cycling Tolerated"/>
    <tag k="prow_ref" v="Whittlesford FP 2"/>
    <tag k="source:name" v="dictaphone"/>
    <tag k="source:prow_ref" v="cambridgeshire_county_council_prow_gis_data"/>
  </way>
  <way id="5544780" version="9" timestamp="2023-09-11T12:57:36Z" changeset="141111905" uid="242345" user="confusedbuffalo">
    <nd ref="40810230"/>
    <nd ref="40810249"/>
    <nd ref="1420800197"/>
    <nd ref="1420800195"/>
    <nd ref="40810254"/>
    <nd ref="40810244"/>
    <nd ref="40810230"/>
    <tag k="addr:postcode" v="CB22 4NE"/>
    <tag k="addr:street" v="Mill Lane"/>
    <tag k="amenity" v="school"/>
    <tag k="capacity" v="210"/>
    <tag k="denomination" v="anglican"/>
    <tag k="diocese" v="Diocese of Ely"/>
    <tag k="isced:level" v="1"/>
    <tag k="max_age" v="11"/>
    <tag k="min_age" v="4"/>
    <tag k="name" v="William Westley Church of England VC Primary School"/>
    <tag k="phone" v="+44 1223 832176"/>
    <tag k="ref:GB:uprn" v="10003203757"/>
    <tag k="ref:edubase" v="110795"/>
    <tag k="religion" v="christian"/>
    <tag k="school:boarding" v="no"/>
    <tag k="school:gender" v="mixed"/>
    <tag k="school:selective" v="no"/>
    <tag k="school:trust" v="no"/>
    <tag k="school:type" v="voluntary_controlled"/>
    <tag k="website" v="https://www.williamwestley.cambs.sch.uk/"/>
    <tag k="wikidata" v="Q66223615"/>
  </way>
  <way id="5544787" version="3" timestamp="2018-08-22T22:59:32Z" changeset="61904263" uid="5173844" user="ndrw6">
    <nd ref="40809974"/>
    <nd ref="1420800183"/>
    <nd ref="5850002971"/>
    <nd ref="40809993"/>
    <tag k="highway" v="residential"/>
    <tag k="name" v="Farm Rise"/>
    <tag k="source:name" v="dictaphone"/>
  </way>
  <way id="5544789" version="2" timestamp="2013-06-20T17:47:20Z" changeset="16633289" uid="6367" user="mackerski">
    <nd ref="40810021"/>
    <nd ref="2353756102"/>
    <nd ref="2353756099"/>
    <nd ref="40810028"/>
    <nd ref="2353756094"/>
    <tag k="highway" v="residential"/>
    <tag k="name" v="Rickards"/>
    <tag k="source:name" v="dictaphone"/>
  </way>
  <way id="5544791" version="12" timestamp="2024-07-19T11:51:08Z" changeset="154140027" uid="1287673" user="sloerunner">
    <nd ref="25301235"/>
    <nd ref="25301230"/>
    <nd ref="25301345"/>
    <nd ref="34093807"/>
    <nd ref="7562894061"/>
    <nd ref="40809691"/>
    <nd ref="25301229"/>
    <nd ref="25301228"/>
    <nd ref="5850003261"/>
    <nd ref="12063057258"/>
    <nd ref="25301227"/>
    <nd ref="25301226"/>
    <nd ref="8594017276"/>
    <nd ref="25301225"/>
    <nd ref="8387869697"/>
    <nd ref="8594017277"/>
    <nd ref="8594017275"/>
    <nd ref="6455576745"/>
    <nd ref="25301224"/>
    <nd ref="2561712469"/>
    <nd ref="6628484835"/>
    <nd ref="25301222"/>
    <tag k="abutters" v="residential"/>
    <tag k="highway" v="tertiary"/>
    <tag k="name" v="North Road"/>
  </way>
  <way id="5544794" version="2" timestamp="2011-09-02T09:50:36Z" changeset="9191686" uid="3582" user="davidearl">
    <nd ref="40809737"/>
    <nd ref="40810340"/>
    <tag k="highway" v="residential"/>
    <tag k="name" v="Mill Lane"/>
    <tag k="source:name" v="dictaphone"/>
  </way>
  <way id="5544796" version="4" timestamp="2019-08-22T11:32:06Z" changeset="73619340" uid="1287673" user="sloerunner">
    <nd ref="40810344"/>
    <nd ref="40810340"/>
    <nd ref="6735170699"/>
    <nd ref="40809736"/>
    <tag k="highway" v="residential"/>
    <tag k="name" v="Mill Lane"/>
    <tag k="source:name" v="dictaphone"/>
  </way>
  <way id="5544804" version="9" timestamp="2024-12-29T22:55:39Z" changeset="160770788" uid="5229644" user="Nathan_A_RF">
    <nd ref="40810431"/>
    <nd ref="9034941990"/>
    <nd ref="5850004385"/>
    <nd ref="6322104516"/>
    <nd ref="40810435"/>
    <nd ref="5850004384"/>
    <nd ref="5850004382"/>
    <nd ref="12461830317"/>
    <nd ref="1556231408"/>
    <tag k="highway" v="unclassified"/>
    <tag k="lcn" v="yes"/>
    <tag k="maxweight" v="7.5"/>
    <tag k="name" v="Royston Road"/>
    <tag k="note" v="CambsCC regards this as link from A505 cycleway to satation, hence lcn"/>
    <tag k="source:name" v="dictaphone"/>
    <tag k="surface" v="asphalt"/>
  </way>
  <way id="5554072" version="7" timestamp="2024-12-29T22:55:39Z" changeset="160770788" uid="5229644" user="Nathan_A_RF">
    <nd ref="10312183"/>
    <nd ref="10312185"/>
    <nd ref="1556231414"/>
    <nd ref="938254200"/>
    <nd ref="1297466043"/>
    <nd ref="938254203"/>
    <nd ref="10312188"/>
    <nd ref="1297466061"/>
    <nd ref="938254208"/>
    <nd ref="10312190"/>
    <nd ref="10312192"/>
    <tag k="highway" v="trunk"/>
    <tag k="lanes" v="2"/>
    <tag k="lit" v="no"/>
    <tag k="maxspeed" v="50 mph"/>
    <tag k="maxspeed:type" v="sign"/>
    <tag k="ref" v="A505"/>
  </way>
  <way id="5554179" version="47" timestamp="2022-10-30T20:02:11Z" changeset="128261539" uid="3560" user="Firefishy">
    <nd ref="328532"/>
    <nd ref="671212969"/>
    <nd ref="671212970"/>
    <nd ref="328531"/>
    <nd ref="671212971"/>
    <nd ref="671212736"/>
    <nd ref="328528"/>
    <nd ref="671212497"/>
    <nd ref="671212498"/>
    <nd ref="1411857505"/>
    <nd ref="328536"/>
    <nd ref="671212321"/>
    <nd ref="671212323"/>
    <nd ref="1411857497"/>
    <nd ref="671212324"/>
    <nd ref="1411857504"/>
    <nd ref="1411857487"/>
    <nd ref="328538"/>
    <nd ref="671212173"/>
    <nd ref="1411857498"/>
    <nd ref="1411857496"/>
    <nd ref="1411857491"/>
    <nd ref="671211361"/>
    <nd ref="671211362"/>
    <nd ref="671211363"/>
    <nd ref="671211359"/>
    <nd ref="671211360"/>
    <nd ref="328540"/>
    <nd ref="322239490"/>
    <nd ref="20590602"/>
    <nd ref="328542"/>
    <nd ref="1411857489"/>
    <nd ref="328544"/>
    <nd ref="671210564"/>
    <nd ref="671210565"/>
    <nd ref="1411857499"/>
    <nd ref="231596"/>
    <nd ref="671210454"/>
    <nd ref="671210455"/>
    <nd ref="231594"/>
    <nd ref="671210456"/>
    <nd ref="671210414"/>
    <nd ref="671210416"/>
    <nd ref="33129749"/>
    <nd ref="671209818"/>
    <nd ref="231583"/>
    <nd ref="671209762"/>
    <nd ref="671209763"/>
    <nd ref="671209815"/>
    <nd ref="1779185021"/>
    <nd ref="671209764"/>
    <nd ref="231584"/>
    <nd ref="671209765"/>
    <nd ref="671209766"/>
    <nd ref="231582"/>
    <nd ref="671209438"/>
    <nd ref="231578"/>
    <nd ref="231571"/>
    <nd ref="583192483"/>
    <nd ref="583192484"/>
    <nd ref="583192488"/>
    <nd ref="583192494"/>
    <nd ref="583192512"/>
    <nd ref="583192514"/>
    <nd ref="25779953"/>
    <tag k="carriageway_ref" v="A"/>
    <tag k="description" v="Cambridge Western Bypass"/>
    <tag k="highway" v="motorway"/>
    <tag k="lanes" v="2"/>
    <tag k="lit" v="no"/>
    <tag k="maxheight" v="default"/>
    <tag k="maxspeed" v="70 mph"/>
    <tag k="national_highways:area" v="8"/>
    <tag k="oneway" v="yes"/>
    <tag k="operator" v="National Highways"/>
    <tag k="operator:wikidata" v="Q5760006"/>
    <tag k="ref" v="M11"/>
    <tag k="source:ref" v="local knowledge"/>
    <tag k="surface" v="asphalt"/>
  </way>
  <way id="22001368" version="11" timestamp="2019-03-25T06:43:21Z" changeset="68494888" uid="9451067" user="b-jazz-bot">
    <nd ref="237042984"/>
    <nd ref="237042988"/>
    <nd ref="237042977"/>
    <nd ref="237042980"/>
    <nd ref="1407350212"/>
    <nd ref="1833676445"/>
    <nd ref="237042970"/>
    <nd ref="237042972"/>
    <nd ref="1407350203"/>
    <nd ref="237042965"/>
    <nd ref="1407350208"/>
    <nd ref="237042968"/>
    <nd ref="237043013"/>
    <nd ref="237043011"/>
    <nd ref="237043009"/>
    <nd ref="287070164"/>
    <nd ref="287070211"/>
    <nd ref="237043019"/>
    <nd ref="237043016"/>
    <nd ref="1407350205"/>
    <nd ref="1407350207"/>
    <nd ref="1407350211"/>
    <nd ref="1407350206"/>
    <nd ref="237042984"/>
    <tag k="addr:city" v="Cambridge"/>
    <tag k="addr:housename" v="IWM Duxford"/>
    <tag k="addr:postcode" v="CB22 4QR"/>
    <tag k="addr:street" v="Royston Road"/>
    <tag k="addr:village" v="Duxford"/>
    <tag k="name" v="IWM Duxford"/>
    <tag k="operator" v="Imperial War Museums"/>
    <tag k="tourism" v="museum"/>
    <tag k="website" v="https://www.iwm.org.uk/"/>
  </way>
  <way id="22001392" version="6" timestamp="2025-03-20T14:23:12Z" changeset="163865504" uid="20475686" user="Dan200">
    <nd ref="236998584"/>
    <nd ref="12684803665"/>
    <nd ref="1302168565"/>
    <nd ref="1302169364"/>
    <nd ref="1302169472"/>
    <nd ref="1302169135"/>
    <nd ref="1302168838"/>
    <nd ref="1302168420"/>
    <nd ref="1302169016"/>
    <nd ref="236998587"/>
    <tag k="highway" v="residential"/>
    <tag k="name" v="Ledo Road"/>
    <tag k="source:name" v="OS_OpenData_StreetView"/>
    <tag k="surface" v="asphalt"/>
  </way>
  <way id="22001402" version="3" timestamp="2025-03-20T14:23:12Z" changeset="163865504" uid="20475686" user="Dan200">
    <nd ref="236998643"/>
    <nd ref="12684803680"/>
    <nd ref="236998841"/>
    <nd ref="236998843"/>
    <nd ref="236998847"/>
    <nd ref="1302169333"/>
    <nd ref="236998849"/>
    <nd ref="1302169106"/>
    <nd ref="236998851"/>
    <nd ref="236998853"/>
    <nd ref="1302168697"/>
    <nd ref="236998856"/>
    <nd ref="236998860"/>
    <nd ref="236998863"/>
    <nd ref="1302168502"/>
    <nd ref="236998866"/>
    <nd ref="236998868"/>
    <nd ref="236998870"/>
    <nd ref="236998873"/>
    <tag k="highway" v="residential"/>
    <tag k="name" v="Pepperslade"/>
    <tag k="source:name" v="dictaphone"/>
  </way>
  <way id="22001459" version="5" timestamp="2018-12-06T17:42:30Z" changeset="65246701" uid="281267" user="smb1001">
    <nd ref="237042781"/>
    <nd ref="237042776"/>
    <nd ref="1930814353"/>
    <nd ref="237042774"/>
    <nd ref="5337598595"/>
    <nd ref="5337598596"/>
    <nd ref="5337598597"/>
    <nd ref="6122031274"/>
    <nd ref="237042795"/>
    <nd ref="6122031279"/>
    <nd ref="4584096337"/>
    <nd ref="4584096338"/>
    <nd ref="4584096344"/>
    <nd ref="4584096340"/>
    <nd ref="4584096341"/>
    <nd ref="4584096342"/>
    <nd ref="4584096339"/>
    <nd ref="237042781"/>
    <tag k="addr:postcode" v="CB22 4QT"/>
    <tag k="addr:street" v="Hill Farm Road"/>
    <tag k="landuse" v="industrial"/>
    <tag k="name" v="Syngenta"/>
  </way>
  <way id="29300499" version="13" timestamp="2024-12-29T22:55:39Z" changeset="160770788" uid="5229644" user="Nathan_A_RF">
    <nd ref="322239103"/>
    <nd ref="1565154365"/>
    <nd ref="322239107"/>
    <nd ref="1565154393"/>
    <nd ref="1565154479"/>
    <nd ref="322239112"/>
    <nd ref="322239115"/>
    <tag k="check_date:lit" v="2021-06-04"/>
    <tag k="highway" v="trunk"/>
    <tag k="junction" v="roundabout"/>
    <tag k="lit" v="yes"/>
    <tag k="maxspeed" v="50 mph"/>
    <tag k="maxspeed:type" v="sign"/>
    <tag k="name" v="Duxford Interchange"/>
    <tag k="oneway" v="yes"/>
    <tag k="source:lit" v="2011-03-17"/>
    <tag k="surface" v="asphalt"/>
  </way>
  <way id="29300516" version="12" timestamp="2024-12-29T22:55:39Z" changeset="160770788" uid="5229644" user="Nathan_A_RF">
    <nd ref="322239099"/>
    <nd ref="322239103"/>
    <tag k="bridge" v="yes"/>
    <tag k="highway" v="trunk"/>
    <tag k="junction" v="roundabout"/>
    <tag k="lane_markings" v="no"/>
    <tag k="layer" v="1"/>
    <tag k="lit" v="yes"/>
    <tag k="maxspeed" v="50 mph"/>
    <tag k="maxspeed:type" v="sign"/>
    <tag k="maxweight:signed" v="no"/>
    <tag k="name" v="Duxford Interchange"/>
    <tag k="oneway" v="yes"/>
    <tag k="source:lit" v="2011-03-17"/>
    <tag k="surface" v="asphalt"/>
  </way>
  <way id="45814274" version="41" timestamp="2022-10-30T20:02:11Z" changeset="128261539" uid="3560" user="Firefishy">
    <nd ref="25779952"/>
    <nd ref="583192526"/>
    <nd ref="583192510"/>
    <nd ref="583192508"/>
    <nd ref="583192486"/>
    <nd ref="583192482"/>
    <nd ref="583192479"/>
    <nd ref="328552"/>
    <nd ref="671209434"/>
    <nd ref="671209435"/>
    <nd ref="328551"/>
    <nd ref="671209436"/>
    <nd ref="671209437"/>
    <nd ref="328550"/>
    <nd ref="671209600"/>
    <nd ref="671209603"/>
    <nd ref="671209605"/>
    <nd ref="328549"/>
    <nd ref="671209805"/>
    <nd ref="671209807"/>
    <nd ref="671209809"/>
    <nd ref="328548"/>
    <nd ref="671209819"/>
    <nd ref="33129748"/>
    <nd ref="671210233"/>
    <nd ref="671210423"/>
    <nd ref="671210424"/>
    <nd ref="671210425"/>
    <nd ref="328547"/>
    <nd ref="671210526"/>
    <nd ref="671210528"/>
    <nd ref="671210529"/>
    <nd ref="328546"/>
    <nd ref="1411857501"/>
    <nd ref="671210530"/>
    <nd ref="671210531"/>
    <nd ref="328545"/>
    <nd ref="671210838"/>
    <nd ref="1411857506"/>
    <nd ref="328543"/>
    <tag k="carriageway_ref" v="B"/>
    <tag k="description" v="Cambridge Western Bypass"/>
    <tag k="highway" v="motorway"/>
    <tag k="lanes" v="2"/>
    <tag k="lit" v="no"/>
    <tag k="maxheight" v="default"/>
    <tag k="maxspeed" v="70 mph"/>
    <tag k="national_highways:area" v="8"/>
    <tag k="oneway" v="yes"/>
    <tag k="operator" v="National Highways"/>
    <tag k="operator:wikidata" v="Q5760006"/>
    <tag k="ref" v="M11"/>
    <tag k="source:ref" v="local knowledge"/>
    <tag k="surface" v="asphalt"/>
  </way>
  <way id="54978590" version="10" timestamp="2025-01-28T17:41:29Z" changeset="161867180" uid="18964624" user="Exterprook58">
    <nd ref="12461788795"/>
    <nd ref="36417935"/>
    <nd ref="886421325"/>
    <nd ref="36417936"/>
    <nd ref="1600191426"/>
    <nd ref="5850004391"/>
    <nd ref="36417937"/>
    <nd ref="36417938"/>
    <nd ref="36417939"/>
    <nd ref="12539535411"/>
    <nd ref="36417941"/>
    <nd ref="36417943"/>
    <nd ref="6525087814"/>
    <nd ref="5850004456"/>
    <nd ref="36417944"/>
    <tag k="highway" v="unclassified"/>
    <tag k="maxspeed" v="60 mph"/>
    <tag k="maxspeed:type" v="GB:nsl_single"/>
    <tag k="name" v="Station Road East"/>
    <tag k="source:name" v="traffic_sign"/>
  </way>
  <way id="61842743" version="6" timestamp="2021-01-15T02:22:45Z" changeset="97523078" uid="12487319" user="EggyDoug">
    <nd ref="25301235"/>
    <nd ref="5850004031"/>
    <nd ref="5850004032"/>
    <nd ref="25301257"/>
    <tag k="abutters" v="residential"/>
    <tag k="cycleway:both" v="no"/>
    <tag k="highway" v="tertiary"/>
    <tag k="lanes" v="2"/>
    <tag k="name" v="North Road"/>
    <tag k="surface" v="asphalt"/>
  </way>
  <way id="66039885" version="3" timestamp="2021-02-14T16:37:31Z" changeset="99257898" uid="281267" user="smb1001">
    <nd ref="25301222"/>
    <nd ref="34094206"/>
    <nd ref="33129746"/>
    <nd ref="8423025484"/>
    <nd ref="33129745"/>
    <tag k="abutters" v="residential"/>
    <tag k="highway" v="tertiary"/>
    <tag k="name" v="Middlemoor Road"/>
  </way>
  <way id="66040565" version="4" timestamp="2021-11-27T12:38:46Z" changeset="114293012" uid="7675562" user="ChildishGiant">
    <nd ref="802016570"/>
    <nd ref="40810066"/>
    <nd ref="40810064"/>
    <nd ref="40810062"/>
    <nd ref="40810057"/>
    <nd ref="2582209954"/>
    <nd ref="40810025"/>
    <tag k="highway" v="tertiary"/>
    <tag k="lanes" v="2"/>
    <tag k="name" v="Whippletree Road"/>
    <tag k="source" v="OS OpenData StreetView"/>
    <tag k="surface" v="asphalt"/>
  </way>
  <way id="66041703" version="2" timestamp="2010-08-29T17:26:53Z" changeset="5628433" uid="21502" user="Kevin Steinhardt">
    <nd ref="25301338"/>
    <nd ref="25301339"/>
    <nd ref="886421253"/>
    <tag k="abutters" v="residential"/>
    <tag k="highway" v="tertiary"/>
    <tag k="maxspeed" v="40 mph"/>
    <tag k="name" v="Moorfield Road"/>
  </way>
  <way id="75107257" version="7" timestamp="2024-12-29T22:55:39Z" changeset="160770788" uid="5229644" user="Nathan_A_RF">
    <nd ref="886421253"/>
    <nd ref="12461788798"/>
    <nd ref="886421291"/>
    <nd ref="25301340"/>
    <nd ref="41034913"/>
    <tag k="highway" v="tertiary"/>
    <tag k="maxspeed" v="50 mph"/>
    <tag k="maxspeed:type" v="sign"/>
    <tag k="name" v="Moorfield Road"/>
  </way>
  <way id="75111342" version="9" timestamp="2024-12-29T22:55:39Z" changeset="160770788" uid="5229644" user="Nathan_A_RF">
    <nd ref="322239165"/>
    <nd ref="4884074330"/>
    <nd ref="10312213"/>
    <nd ref="1565154411"/>
    <nd ref="1565154351"/>
    <nd ref="4884074329"/>
    <nd ref="322238652"/>
    <nd ref="322239099"/>
    <tag k="highway" v="trunk"/>
    <tag k="junction" v="roundabout"/>
    <tag k="lane_markings" v="no"/>
    <tag k="lit" v="yes"/>
    <tag k="maxspeed" v="50 mph"/>
    <tag k="maxspeed:type" v="sign"/>
    <tag k="name" v="Duxford Interchange"/>
    <tag k="oneway" v="yes"/>
    <tag k="source:lit" v="2011-03-17"/>
    <tag k="surface" v="asphalt"/>
  </way>
  <way id="75111347" version="9" timestamp="2024-12-29T22:55:39Z" changeset="160770788" uid="5229644" user="Nathan_A_RF">
    <nd ref="322239115"/>
    <nd ref="4884074328"/>
    <nd ref="322239119"/>
    <nd ref="1565154314"/>
    <nd ref="322239122"/>
    <nd ref="322239125"/>
    <nd ref="1565154440"/>
    <nd ref="322239127"/>
    <nd ref="4884074327"/>
    <nd ref="1565154375"/>
    <nd ref="1565154317"/>
    <nd ref="322239130"/>
    <tag k="highway" v="trunk"/>
    <tag k="junction" v="roundabout"/>
    <tag k="lane_markings" v="no"/>
    <tag k="lit" v="yes"/>
    <tag k="maxspeed" v="50 mph"/>
    <tag k="maxspeed:type" v="sign"/>
    <tag k="name" v="Duxford Interchange"/>
    <tag k="oneway" v="yes"/>
    <tag k="source:lit" v="2011-03-17"/>
    <tag k="surface" v="asphalt"/>
  </way>
  <way id="75111348" version="9" timestamp="2021-04-16T21:04:54Z" changeset="103081045" uid="242345" user="confusedbuffalo">
    <nd ref="886491351"/>
    <nd ref="409668368"/>
    <nd ref="236998520"/>
    <nd ref="236998523"/>
    <nd ref="7744826091"/>
    <nd ref="7744826090"/>
    <tag k="highway" v="tertiary"/>
    <tag k="lit" v="no"/>
    <tag k="maxspeed" v="60 mph"/>
    <tag k="maxspeed:type" v="GB:nsl_single"/>
    <tag k="name" v="Hill Farm Road"/>
    <tag k="source:lit" v="2011-03-17"/>
    <tag k="source:name" v="dictaphone"/>
  </way>
  <way id="75111350" version="9" timestamp="2024-12-29T22:55:39Z" changeset="160770788" uid="5229644" user="Nathan_A_RF">
    <nd ref="25301340"/>
    <nd ref="11308534359"/>
    <nd ref="41034924"/>
    <nd ref="12461788799"/>
    <nd ref="12461788796"/>
    <nd ref="41034905"/>
    <tag k="check_date:lit" v="2021-06-04"/>
    <tag k="highway" v="trunk"/>
    <tag k="lanes" v="1"/>
    <tag k="lit" v="yes"/>
    <tag k="maxspeed" v="50 mph"/>
    <tag k="maxspeed:type" v="sign"/>
    <tag k="oneway" v="yes"/>
    <tag k="ref" v="A505"/>
  </way>
  <way id="75111353" version="10" timestamp="2024-12-29T22:55:39Z" changeset="160770788" uid="5229644" user="Nathan_A_RF">
    <nd ref="322239153"/>
    <nd ref="671210881"/>
    <nd ref="4884074323"/>
    <nd ref="11308534357"/>
    <nd ref="369856462"/>
    <nd ref="4884074322"/>
    <nd ref="886491340"/>
    <nd ref="4884074321"/>
    <nd ref="369856461"/>
    <nd ref="1565154466"/>
    <nd ref="322239165"/>
    <tag k="highway" v="trunk"/>
    <tag k="junction" v="roundabout"/>
    <tag k="lane_markings" v="no"/>
    <tag k="lit" v="yes"/>
    <tag k="maxspeed" v="50 mph"/>
    <tag k="maxspeed:type" v="sign"/>
    <tag k="name" v="Duxford Interchange"/>
    <tag k="oneway" v="yes"/>
    <tag k="source:lit" v="2011-03-17"/>
    <tag k="surface" v="asphalt"/>
  </way>
  <way id="75301503" version="7" timestamp="2021-04-02T13:48:37Z" changeset="102197870" uid="9196086" user="spavulur">
    <nd ref="889211625"/>
    <nd ref="1440963178"/>
    <nd ref="34093831"/>
    <nd ref="770568789"/>
    <nd ref="40809850"/>
    <nd ref="770568793"/>
    <nd ref="40809853"/>
    <nd ref="40809856"/>
    <nd ref="8586672950"/>
    <nd ref="40809872"/>
    <nd ref="2353756128"/>
    <nd ref="40809875"/>
    <tag k="abutters" v="residential"/>
    <tag k="cycleway:both" v="no"/>
    <tag k="description" v="No vehicles over 7.5 t except for access"/>
    <tag k="highway" v="tertiary"/>
    <tag k="lanes" v="2"/>
    <tag k="maxweight" v="7.5"/>
    <tag k="name" v="High Street"/>
    <tag k="note:maxweight" v="Except for access"/>
    <tag k="note:routeCiti7" v="Citi 7 *may* travel in both directions"/>
    <tag k="source:name" v="dictaphone"/>
    <tag k="surface" v="asphalt"/>
  </way>
  <way id="75301512" version="5" timestamp="2020-07-24T17:36:57Z" changeset="88470930" uid="57884" user="EdLoach">
    <nd ref="25301341"/>
    <nd ref="889211660"/>
    <nd ref="40810371"/>
    <nd ref="25301320"/>
    <nd ref="5850004362"/>
    <nd ref="25301342"/>
    <nd ref="25301331"/>
    <nd ref="5850004363"/>
    <nd ref="25301343"/>
    <nd ref="7744804035"/>
    <tag k="fixme" v="Isn't this flanked on either side by footways?"/>
    <tag k="highway" v="tertiary"/>
    <tag k="maxspeed" v="40 mph"/>
    <tag k="name" v="Duxford Road"/>
  </way>
  <way id="79272847" version="4" timestamp="2023-05-03T09:03:58Z" changeset="135649661" uid="14297229" user="nicole_run">
    <nd ref="925853855"/>
    <nd ref="1779185037"/>
    <nd ref="1779185024"/>
    <nd ref="1210645541"/>
    <nd ref="1779185033"/>
    <nd ref="1210645538"/>
    <nd ref="1210645533"/>
    <nd ref="1779185029"/>
    <nd ref="1210645539"/>
    <nd ref="1779185026"/>
    <nd ref="1779185034"/>
    <nd ref="10864381322"/>
    <tag k="highway" v="tertiary"/>
    <tag k="name" v="Newton Road"/>
    <tag k="note" v="Bends may appear more curved and less violent than they actually are."/>
    <tag k="source" v="GPS"/>
  </way>
  <way id="79272848" version="7" timestamp="2024-06-09T09:43:28Z" changeset="152446488" uid="5173844" user="ndrw6">
    <nd ref="33129124"/>
    <nd ref="925853670"/>
    <nd ref="11966191650"/>
    <nd ref="925853780"/>
    <nd ref="1818724840"/>
    <nd ref="925853875"/>
    <nd ref="925853208"/>
    <nd ref="925853291"/>
    <nd ref="33129121"/>
    <nd ref="33129160"/>
    <nd ref="925853217"/>
    <nd ref="925853305"/>
    <nd ref="925853381"/>
    <nd ref="925853695"/>
    <nd ref="1815862269"/>
    <nd ref="925853900"/>
    <nd ref="33129734"/>
    <nd ref="11966184727"/>
    <nd ref="33129735"/>
    <nd ref="925853084"/>
    <nd ref="1484679621"/>
    <nd ref="33129736"/>
    <nd ref="925853938"/>
    <nd ref="770568712"/>
    <nd ref="770568715"/>
    <nd ref="33129737"/>
    <nd ref="770568718"/>
    <nd ref="925853175"/>
    <nd ref="33129738"/>
    <nd ref="770568722"/>
    <nd ref="33129739"/>
    <nd ref="925853855"/>
    <tag k="highway" v="tertiary"/>
    <tag k="name" v="Whittlesford Road"/>
    <tag k="source" v="OS Opendata StreetView"/>
    <tag k="source:name" v="OS Opendata StreetView"/>
  </way>
  <way id="104566209" version="7" timestamp="2024-08-24T13:29:48Z" changeset="155696514" uid="21670082" user="FLURG">
    <nd ref="10387289"/>
    <nd ref="10728481797"/>
    <nd ref="236998645"/>
    <nd ref="236998643"/>
    <nd ref="963690810"/>
    <nd ref="2242635832"/>
    <tag k="highway" v="trunk"/>
    <tag k="lanes" v="2"/>
    <tag k="lit" v="yes"/>
    <tag k="maxspeed" v="40 mph"/>
    <tag k="name" v="Royston Road"/>
    <tag k="ref" v="A505"/>
    <tag k="smoothness" v="good"/>
    <tag k="source:lit" v="2011-03-17"/>
    <tag k="source:name" v="local knowledge"/>
    <tag k="source:ref" v="local knowledge"/>
    <tag k="surface" v="asphalt"/>
  </way>
  <way id="115135952" version="1" timestamp="2011-05-27T17:09:57Z" changeset="8264773" uid="20163" user="Anna_AG">
    <nd ref="1302168624"/>
    <nd ref="1302168898"/>
    <tag k="highway" v="residential"/>
    <tag k="source" v="Bing"/>
  </way>
  <way id="115136085" version="2" timestamp="2011-09-22T09:00:07Z" changeset="9366716" uid="112997" user="sobbomapper">
    <nd ref="1302168565"/>
    <nd ref="1302168624"/>
    <nd ref="1302168721"/>
    <tag k="highway" v="residential"/>
    <tag k="name" v="Burma Road"/>
    <tag k="source" v="Bing"/>
    <tag k="source:name" v="OS_OpenData_StreetView"/>
  </way>
  <way id="128609888" version="3" timestamp="2021-04-21T00:16:12Z" changeset="103299104" uid="12661527" user="Kartenkarsten714">
    <nd ref="34093824"/>
    <nd ref="1420800217"/>
    <nd ref="34093828"/>
    <tag k="highway" v="residential"/>
    <tag k="name" v="Church Lane"/>
    <tag k="source:name" v="dictaphone"/>
    <tag k="surface" v="asphalt"/>
  </way>
  <way id="128609890" version="4" timestamp="2019-07-21T14:55:31Z" changeset="72484633" uid="9196091" user="hkkollip">
    <nd ref="40810344"/>
    <nd ref="25301309"/>
    <nd ref="5850004361"/>
    <nd ref="6635317499"/>
    <nd ref="25301341"/>
    <tag k="abutters" v="residential"/>
    <tag k="fixme" v="1) Double-check the name of this road. 2) Isn't there a zebra crossing somewhere along here?"/>
    <tag k="highway" v="tertiary"/>
    <tag k="maxspeed" v="30 mph"/>
    <tag k="name" v="Duxford Road"/>
  </way>
  <way id="128609893" version="4" timestamp="2025-01-29T18:38:59Z" changeset="161909607" uid="18964624" user="Exterprook58">
    <nd ref="40809736"/>
    <nd ref="40809742"/>
    <nd ref="8582122131"/>
    <nd ref="12514949852"/>
    <nd ref="12542388518"/>
    <nd ref="40809750"/>
    <tag k="highway" v="residential"/>
    <tag k="name" v="Mill Lane"/>
    <tag k="source:name" v="dictaphone"/>
  </way>
  <way id="128609898" version="1" timestamp="2011-09-02T09:50:11Z" changeset="9191686" uid="3582" user="davidearl">
    <nd ref="40809694"/>
    <nd ref="40809696"/>
    <tag k="highway" v="residential"/>
    <tag k="name" v="The Lawn"/>
    <tag k="source:name" v="dictaphone"/>
  </way>
  <way id="130759507" version="7" timestamp="2024-12-29T22:55:39Z" changeset="160770788" uid="5229644" user="Nathan_A_RF">
    <nd ref="886421364"/>
    <nd ref="10312196"/>
    <nd ref="1556235875"/>
    <tag k="highway" v="trunk"/>
    <tag k="lanes" v="1"/>
    <tag k="lit" v="yes"/>
    <tag k="maxspeed" v="50 mph"/>
    <tag k="maxspeed:type" v="sign"/>
    <tag k="name" v="Royston Road"/>
    <tag k="oneway" v="yes"/>
    <tag k="ref" v="A505"/>
  </way>
  <way id="130913239" version="3" timestamp="2018-08-22T22:59:33Z" changeset="61904263" uid="5173844" user="ndrw6">
    <nd ref="1440961269"/>
    <nd ref="5850004843"/>
    <nd ref="5850004844"/>
    <nd ref="1440961270"/>
    <nd ref="5850004845"/>
    <nd ref="1440961266"/>
    <nd ref="1440961273"/>
    <tag k="highway" v="residential"/>
    <tag k="name" v="Knights Orchard"/>
    <tag k="source" v="survey + gpx"/>
  </way>
  <way id="130913240" version="1" timestamp="2011-09-22T21:49:51Z" changeset="9372854" uid="112997" user="sobbomapper">
    <nd ref="1440961266"/>
    <nd ref="1440961260"/>
    <nd ref="1440961261"/>
    <nd ref="1440961262"/>
    <nd ref="1440961263"/>
    <nd ref="1440961264"/>
    <tag k="highway" v="residential"/>
    <tag k="name" v="Knights Orchard"/>
    <tag k="source" v="survey + gpx"/>
  </way>
  <way id="130913241" version="2" timestamp="2018-08-22T22:59:34Z" changeset="61904263" uid="5173844" user="ndrw6">
    <nd ref="1440961272"/>
    <nd ref="5850004834"/>
    <nd ref="5850004837"/>
    <nd ref="1440961268"/>
    <nd ref="1440961267"/>
    <nd ref="1440961265"/>
    <nd ref="5850004838"/>
    <nd ref="1440961271"/>
    <tag k="access" v="private"/>
    <tag k="highway" v="residential"/>
    <tag k="name" v="The Moraine"/>
    <tag k="source" v="survey + gpx"/>
  </way>
  <way id="130913330" version="1" timestamp="2011-09-22T21:53:12Z" changeset="9372872" uid="112997" user="sobbomapper">
    <nd ref="1440963179"/>
    <nd ref="1440963180"/>
    <nd ref="1440963178"/>
    <tag k="highway" v="residential"/>
    <tag k="name" v="Old School Lane"/>
    <tag k="source" v="survey"/>
  </way>
  <way id="140293397" version="11" timestamp="2023-12-24T18:31:08Z" changeset="145477222" uid="242345" user="confusedbuffalo">
    <nd ref="1537156009"/>
    <nd ref="1411857507"/>
    <tag k="destination" v="Saffron;Walden;Duxford;Haverhill"/>
    <tag k="destination:ref" v="A505"/>
    <tag k="highway" v="motorway_link"/>
    <tag k="lit" v="yes"/>
    <tag k="maxspeed" v="70 mph"/>
    <tag k="maxspeed:type" v="GB:motorway"/>
    <tag k="national_highways:area" v="8"/>
    <tag k="oneway" v="yes"/>
    <tag k="operator" v="National Highways"/>
    <tag k="operator:wikidata" v="Q5760006"/>
    <tag k="surface" v="asphalt"/>
  </way>
  <way id="140293402" version="10" timestamp="2023-12-24T18:31:06Z" changeset="145477222" uid="242345" user="confusedbuffalo">
    <nd ref="1537156003"/>
    <nd ref="1302202209"/>
    <nd ref="671211314"/>
    <nd ref="1411857492"/>
    <nd ref="1411857488"/>
    <nd ref="328542"/>
    <tag k="destination" v="Cambridge;Bedford;Huntingdon"/>
    <tag k="destination:ref" v="M11"/>
    <tag k="highway" v="motorway_link"/>
    <tag k="lane_markings" v="no"/>
    <tag k="lit" v="no"/>
    <tag k="maxspeed" v="70 mph"/>
    <tag k="maxspeed:type" v="GB:motorway"/>
    <tag k="national_highways:area" v="8"/>
    <tag k="oneway" v="yes"/>
    <tag k="operator" v="National Highways"/>
    <tag k="operator:wikidata" v="Q5760006"/>
    <tag k="surface" v="asphalt"/>
  </way>
  <way id="142184024" version="7" timestamp="2024-12-29T22:55:39Z" changeset="160770788" uid="5229644" user="Nathan_A_RF">
    <nd ref="1556231407"/>
    <nd ref="12461830319"/>
    <nd ref="1556231412"/>
    <nd ref="1556231405"/>
    <tag k="cycleway:left" v="no"/>
    <tag k="highway" v="unclassified"/>
    <tag k="lane_markings" v="no"/>
    <tag k="maxweight" v="7.5"/>
    <tag k="name" v="Royston Road"/>
    <tag k="oneway" v="yes"/>
    <tag k="source:name" v="dictaphone"/>
    <tag k="surface" v="asphalt"/>
  </way>
  <way id="142186356" version="5" timestamp="2024-12-29T22:55:39Z" changeset="160770788" uid="5229644" user="Nathan_A_RF">
    <nd ref="1556235875"/>
    <nd ref="12461830321"/>
    <nd ref="938254183"/>
    <nd ref="1556235910"/>
    <nd ref="10312194"/>
    <nd ref="938254184"/>
    <nd ref="1556235886"/>
    <tag k="check_date:lit" v="2021-06-04"/>
    <tag k="highway" v="trunk"/>
    <tag k="lanes" v="1"/>
    <tag k="lit" v="no"/>
    <tag k="maxspeed" v="50 mph"/>
    <tag k="maxspeed:type" v="sign"/>
    <tag k="name" v="Royston Road"/>
    <tag k="ref" v="A505"/>
  </way>
  <way id="142186362" version="6" timestamp="2024-12-29T22:55:39Z" changeset="160770788" uid="5229644" user="Nathan_A_RF">
    <nd ref="1556235886"/>
    <nd ref="12461830316"/>
    <nd ref="1556231407"/>
    <nd ref="40810485"/>
    <nd ref="12461830320"/>
    <nd ref="12461830312"/>
    <nd ref="10312192"/>
    <tag k="check_date:lit" v="2021-06-04"/>
    <tag k="highway" v="trunk"/>
    <tag k="lanes" v="1"/>
    <tag k="lit" v="no"/>
    <tag k="maxspeed" v="50 mph"/>
    <tag k="maxspeed:type" v="sign"/>
    <tag k="name" v="Royston Road"/>
    <tag k="oneway" v="yes"/>
    <tag k="ref" v="A505"/>
  </way>
  <way id="178259298" version="2" timestamp="2024-04-14T08:24:54Z" changeset="149978038" uid="344866" user="thewinduppirate">
    <nd ref="1565154456"/>
    <nd ref="322239761"/>
    <nd ref="1565154379"/>
    <nd ref="1565154406"/>
    <nd ref="322239766"/>
    <nd ref="1565154373"/>
    <nd ref="322239769"/>
    <nd ref="322239165"/>
    <tag k="highway" v="trunk"/>
    <tag k="lanes" v="2"/>
    <tag k="lit" v="yes"/>
    <tag k="maxspeed" v="50 mph"/>
    <tag k="name" v="Royston Road"/>
    <tag k="oneway" v="yes"/>
    <tag k="ref" v="A505"/>
    <tag k="source:lit" v="2011-03-17"/>
    <tag k="source:name" v="local knowledge"/>
    <tag k="source:ref" v="local knowledge"/>
    <tag k="surface" v="asphalt"/>
  </way>
  <way id="204798485" version="12" timestamp="2022-10-30T20:02:11Z" changeset="128261539" uid="3560" user="Firefishy">
    <nd ref="328543"/>
    <nd ref="1411857485"/>
    <nd ref="1411857511"/>
    <nd ref="20590601"/>
    <nd ref="322240161"/>
    <nd ref="328541"/>
    <nd ref="671211478"/>
    <nd ref="671211479"/>
    <nd ref="671211480"/>
    <nd ref="1411857486"/>
    <nd ref="1411857502"/>
    <nd ref="1411857493"/>
    <nd ref="671212130"/>
    <nd ref="328539"/>
    <nd ref="1411857490"/>
    <nd ref="1411857500"/>
    <nd ref="671212196"/>
    <nd ref="671212197"/>
    <nd ref="671212198"/>
    <nd ref="328537"/>
    <nd ref="671212480"/>
    <nd ref="671212544"/>
    <nd ref="671212558"/>
    <nd ref="328529"/>
    <nd ref="671212800"/>
    <nd ref="328530"/>
    <nd ref="671213024"/>
    <nd ref="671213025"/>
    <nd ref="328533"/>
    <tag k="carriageway_ref" v="B"/>
    <tag k="description" v="Cambridge Western Bypass"/>
    <tag k="highway" v="motorway"/>
    <tag k="lanes" v="2"/>
    <tag k="lit" v="no"/>
    <tag k="maxheight" v="default"/>
    <tag k="maxspeed" v="70 mph"/>
    <tag k="national_highways:area" v="8"/>
    <tag k="oneway" v="yes"/>
    <tag k="operator" v="National Highways"/>
    <tag k="operator:wikidata" v="Q5760006"/>
    <tag k="ref" v="M11"/>
    <tag k="source:ref" v="local knowledge"/>
    <tag k="surface" v="asphalt"/>
  </way>
  <way id="226602106" version="1" timestamp="2013-06-20T17:47:19Z" changeset="16633289" uid="6367" user="mackerski">
    <nd ref="2353756111"/>
    <nd ref="40809913"/>
    <tag k="highway" v="residential"/>
    <tag k="name" v="Orchard Terrace"/>
    <tag k="source:name" v="dictaphone"/>
  </way>
  <way id="232927194" version="5" timestamp="2022-10-28T19:15:20Z" changeset="128188196" uid="13666626" user="RedAuburn">
    <nd ref="1411857507"/>
    <nd ref="886491358"/>
    <nd ref="1556235867"/>
    <nd ref="322240042"/>
    <nd ref="322239112"/>
    <tag k="destination" v="Saffron;Walden;Duxford;Haverhill"/>
    <tag k="destination:ref" v="A505"/>
    <tag k="highway" v="motorway_link"/>
    <tag k="lit" v="yes"/>
    <tag k="maxspeed" v="50 mph"/>
    <tag k="maxspeed:type" v="sign"/>
    <tag k="national_highways:area" v="8"/>
    <tag k="oneway" v="yes"/>
    <tag k="operator" v="National Highways"/>
    <tag k="operator:wikidata" v="Q5760006"/>
  </way>
  <way id="232927195" version="7" timestamp="2023-12-24T18:31:07Z" changeset="145477222" uid="242345" user="confusedbuffalo">
    <nd ref="886491392"/>
    <nd ref="886491355"/>
    <nd ref="1537156003"/>
    <tag k="destination" v="Cambridge;Bedford;Huntingdon"/>
    <tag k="destination:ref" v="M11"/>
    <tag k="highway" v="motorway_link"/>
    <tag k="lit" v="yes"/>
    <tag k="maxspeed" v="70 mph"/>
    <tag k="maxspeed:type" v="GB:motorway"/>
    <tag k="national_highways:area" v="8"/>
    <tag k="oneway" v="yes"/>
    <tag k="operator" v="National Highways"/>
    <tag k="operator:wikidata" v="Q5760006"/>
    <tag k="surface" v="asphalt"/>
  </way>
  <way id="248067704" version="4" timestamp="2025-01-29T18:48:18Z" changeset="161909858" uid="18964624" user="Exterprook58">
    <nd ref="2549170393"/>
    <nd ref="5850005447"/>
    <nd ref="5850005446"/>
    <nd ref="2549170388"/>
    <nd ref="2549170387"/>
    <nd ref="2549170390"/>
    <nd ref="2549170389"/>
    <nd ref="2549170391"/>
    <nd ref="5850005448"/>
    <nd ref="5850005449"/>
    <nd ref="2549170393"/>
    <tag k="addr:country" v="GB"/>
    <tag k="addr:postcode" v="CB22 4NL"/>
    <tag k="addr:street" v="Station Road East"/>
    <tag k="brand" v="Holiday Inn Express"/>
    <tag k="brand:wikidata" v="Q5880423"/>
    <tag k="brand:wikipedia" v="en:Holiday Inn Express"/>
    <tag k="building" v="hotel"/>
    <tag k="fhrs:id" v="597183"/>
    <tag k="internet_access" v="wlan"/>
    <tag k="internet_access:fee" v="no"/>
    <tag k="name" v="Holiday Inn Express"/>
    <tag k="operator" v="Holiday Inn Express"/>
    <tag k="survey:date" v="2021-01-03"/>
    <tag k="tourism" v="hotel"/>
  </way>
  <way id="248067706" version="7" timestamp="2025-01-29T18:56:12Z" changeset="161910073" uid="18964624" user="Exterprook58">
    <nd ref="2549170399"/>
    <nd ref="2549170392"/>
    <nd ref="2549170394"/>
    <nd ref="2549170395"/>
    <nd ref="2549170396"/>
    <nd ref="2549170397"/>
    <nd ref="2549170398"/>
    <nd ref="12542364078"/>
    <nd ref="12542364079"/>
    <nd ref="5850005454"/>
    <nd ref="5850005455"/>
    <nd ref="2549170400"/>
    <nd ref="2549170399"/>
    <tag k="accommodation" v="yes"/>
    <tag k="addr:country" v="GB"/>
    <tag k="addr:housenumber" v="42"/>
    <tag k="addr:postcode" v="CB22 4NL"/>
    <tag k="addr:street" v="Station Road East"/>
    <tag k="amenity" v="pub"/>
    <tag k="building" v="pub"/>
    <tag k="fhrs:id" v="596613"/>
    <tag k="name" v="Red Lion"/>
    <tag k="survey:date" v="2021-07-02"/>
    <tag k="wikidata" v="Q26420963"/>
  </way>
  <way id="463099080" version="4" timestamp="2023-02-01T14:08:02Z" changeset="131965319" uid="2969887" user="eastender">
    <nd ref="4584096345"/>
    <nd ref="5850003594"/>
    <nd ref="5850003593"/>
    <nd ref="5850003592"/>
    <nd ref="5850003595"/>
    <nd ref="5850003599"/>
    <nd ref="5850003598"/>
    <nd ref="4584096346"/>
    <nd ref="4584096347"/>
    <nd ref="5850003596"/>
    <nd ref="5850003597"/>
    <nd ref="4584096348"/>
    <nd ref="4584096349"/>
    <nd ref="4584096350"/>
    <nd ref="4584096345"/>
    <tag k="addr:city" v="Cambridge"/>
    <tag k="addr:postcode" v="CB22 4AN"/>
    <tag k="addr:street" v="Hill Farm Road"/>
    <tag k="amenity" v="restaurant"/>
    <tag k="building" v="yes"/>
    <tag k="cuisine" v="burger"/>
    <tag k="delivery" v="no"/>
    <tag k="name" v="Cambridge Canteen"/>
    <tag k="opening_hours" v="Tu-Sa 12:00-15:00,18:00-22:00; Su 12:00-20:30"/>
    <tag k="outdoor_seating" v="no"/>
    <tag k="phone" v="+44 1223935237"/>
    <tag k="website" v="http://www.cambridgecanteen.com/"/>
  </way>
  <way id="484259647" version="2" timestamp="2024-12-29T22:55:39Z" changeset="160770788" uid="5229644" user="Nathan_A_RF">
    <nd ref="12461788781"/>
    <nd ref="12461788792"/>
    <nd ref="12461788787"/>
    <nd ref="13387956"/>
    <nd ref="600345267"/>
    <nd ref="26913044"/>
    <nd ref="3144273923"/>
    <nd ref="13387955"/>
    <nd ref="600345240"/>
    <nd ref="26913048"/>
    <nd ref="3144273922"/>
    <nd ref="600345241"/>
    <nd ref="3144273921"/>
    <nd ref="600345242"/>
    <nd ref="13387954"/>
    <nd ref="3144273092"/>
    <nd ref="600345381"/>
    <nd ref="13387953"/>
    <nd ref="3144273093"/>
    <nd ref="3144273094"/>
    <nd ref="13387952"/>
    <tag k="highway" v="primary"/>
    <tag k="lanes" v="2"/>
    <tag k="lit" v="no"/>
    <tag k="maxspeed" v="60 mph"/>
    <tag k="maxspeed:type" v="GB:nsl_single"/>
    <tag k="ref" v="A1301"/>
    <tag k="source:maxspeed" v="survey"/>
    <tag k="source:ref" v="local knowledge"/>
  </way>
  <way id="498399379" version="1" timestamp="2017-06-05T22:27:40Z" changeset="49289614" uid="705850" user="Cebderby">
    <nd ref="4898381995"/>
    <nd ref="4898381998"/>
    <nd ref="4898381993"/>
    <nd ref="886491344"/>
    <tag k="highway" v="residential"/>
    <tag k="name" v="Beech Tree Lane"/>
    <tag k="source" v="OS_OpenData_StreetView"/>
    <tag k="source:name" v="OS_OpenData_Locator"/>
  </way>
  <way id="619000729" version="4" timestamp="2024-12-13T20:29:39Z" changeset="160260838" uid="3326227" user="Manwaring">
    <nd ref="5850002080"/>
    <nd ref="5850002077"/>
    <nd ref="5850002075"/>
    <nd ref="5850002076"/>
    <nd ref="5850002078"/>
    <nd ref="5850002079"/>
    <nd ref="5850002080"/>
    <tag k="addr:city" v="Whittlesford"/>
    <tag k="addr:housenumber" v="11"/>
    <tag k="addr:postcode" v="CB22 4NA"/>
    <tag k="addr:street" v="Vicarage Lane"/>
    <tag k="building" v="detached"/>
  </way>
  <way id="619000730" version="4" timestamp="2024-12-13T20:29:39Z" changeset="160260838" uid="3326227" user="Manwaring">
    <nd ref="5850002081"/>
    <nd ref="11694870322"/>
    <nd ref="11694870321"/>
    <nd ref="5850002082"/>
    <nd ref="5850002081"/>
    <tag k="addr:city" v="Whittlesford"/>
    <tag k="addr:housenumber" v="5"/>
    <tag k="addr:street" v="Vicarage Lane"/>
    <tag k="building" v="semidetached_house"/>
  </way>
  <way id="619000731" version="3" timestamp="2024-12-13T20:29:39Z" changeset="160260838" uid="3326227" user="Manwaring">
    <nd ref="5850002088"/>
    <nd ref="5850002087"/>
    <nd ref="5850002086"/>
    <nd ref="5850002085"/>
    <nd ref="5850002088"/>
    <tag k="addr:city" v="Whittlesford"/>
    <tag k="addr:housenumber" v="1"/>
    <tag k="addr:street" v="Vicarage Lane"/>
    <tag k="building" v="detached"/>
  </way>
  <way id="619000734" version="3" timestamp="2023-06-10T07:34:17Z" changeset="137162038" uid="322785" user="BCNorwich">
    <nd ref="5850002102"/>
    <nd ref="5850002101"/>
    <nd ref="5850002097"/>
    <nd ref="5850002098"/>
    <nd ref="5850002100"/>
    <nd ref="5850002099"/>
    <nd ref="5850002102"/>
    <tag k="addr:city" v="Whittlesford"/>
    <tag k="addr:housenumber" v="3"/>
    <tag k="addr:postcode" v="CB22 4LZ"/>
    <tag k="addr:street" v="Farm Rise"/>
    <tag k="building" v="house"/>
  </way>
  <way id="619000735" version="3" timestamp="2023-06-10T07:34:17Z" changeset="137162038" uid="322785" user="BCNorwich">
    <nd ref="5850002108"/>
    <nd ref="5850002107"/>
    <nd ref="5850002103"/>
    <nd ref="5850002104"/>
    <nd ref="5850002106"/>
    <nd ref="5850002105"/>
    <nd ref="5850002108"/>
    <tag k="addr:city" v="Whittlesford"/>
    <tag k="addr:housenumber" v="2"/>
    <tag k="addr:postcode" v="CB22 4LZ"/>
    <tag k="addr:street" v="Farm Rise"/>
    <tag k="building" v="house"/>
  </way>
  <way id="619000736" version="3" timestamp="2023-06-10T07:34:17Z" changeset="137162038" uid="322785" user="BCNorwich">
    <nd ref="5850002112"/>
    <nd ref="5850002109"/>
    <nd ref="5850002110"/>
    <nd ref="5850002111"/>
    <nd ref="5850002112"/>
    <tag k="addr:city" v="Whittlesford"/>
    <tag k="addr:housenumber" v="1"/>
    <tag k="addr:postcode" v="CB22 4LZ"/>
    <tag k="addr:street" v="Farm Rise"/>
    <tag k="building" v="house"/>
  </way>
  <way id="619000738" version="3" timestamp="2024-12-13T20:29:39Z" changeset="160260838" uid="3326227" user="Manwaring">
    <nd ref="5850002126"/>
    <nd ref="5850002122"/>
    <nd ref="5850002121"/>
    <nd ref="5850002123"/>
    <nd ref="5850002124"/>
    <nd ref="5850002125"/>
    <nd ref="5850002126"/>
    <tag k="addr:city" v="Whittlesford"/>
    <tag k="addr:housenumber" v="7"/>
    <tag k="addr:street" v="Vicarage Lane"/>
    <tag k="building" v="house"/>
  </way>
  <way id="619000773" version="2" timestamp="2018-11-10T16:18:13Z" changeset="64355986" uid="281267" user="smb1001">
    <nd ref="5850002302"/>
    <nd ref="5850002299"/>
    <nd ref="5850002297"/>
    <nd ref="5850002298"/>
    <nd ref="5850002300"/>
    <nd ref="5850002301"/>
    <nd ref="5850002302"/>
    <tag k="addr:postcode" v="CB22 4NZ"/>
    <tag k="addr:street" v="North Road"/>
    <tag k="amenity" v="pub"/>
    <tag k="building" v="yes"/>
    <tag k="name" v="Tickell Arms"/>
    <tag k="wikidata" v="Q26420899"/>
  </way>
  <way id="619000838" version="3" timestamp="2023-06-10T07:34:17Z" changeset="137162038" uid="322785" user="BCNorwich">
    <nd ref="5850002600"/>
    <nd ref="5850002596"/>
    <nd ref="5850002595"/>
    <nd ref="5850002599"/>
    <nd ref="5850002598"/>
    <nd ref="5850002594"/>
    <nd ref="5850002593"/>
    <nd ref="5850002592"/>
    <nd ref="5850002591"/>
    <nd ref="5850002597"/>
    <nd ref="5850002600"/>
    <tag k="addr:city" v="Whittlesford"/>
    <tag k="addr:housenumber" v="4"/>
    <tag k="addr:postcode" v="CB22 4LZ"/>
    <tag k="addr:street" v="Farm Rise"/>
    <tag k="building" v="house"/>
  </way>
  <way id="619000839" version="3" timestamp="2023-06-10T07:34:17Z" changeset="137162038" uid="322785" user="BCNorwich">
    <nd ref="5850002608"/>
    <nd ref="5850002605"/>
    <nd ref="5850002602"/>
    <nd ref="5850002601"/>
    <nd ref="5850002606"/>
    <nd ref="5850002607"/>
    <nd ref="5850002603"/>
    <nd ref="5850002604"/>
    <nd ref="5850002608"/>
    <tag k="addr:city" v="Whittlesford"/>
    <tag k="addr:housenumber" v="5"/>
    <tag k="addr:postcode" v="CB22 4LZ"/>
    <tag k="addr:street" v="Farm Rise"/>
    <tag k="building" v="house"/>
  </way>
  <way id="619000840" version="3" timestamp="2023-06-10T07:34:17Z" changeset="137162038" uid="322785" user="BCNorwich">
    <nd ref="5850002612"/>
    <nd ref="5850002609"/>
    <nd ref="5850002610"/>
    <nd ref="5850002611"/>
    <nd ref="5850002612"/>
    <tag k="addr:city" v="Whittlesford"/>
    <tag k="addr:housenumber" v="6"/>
    <tag k="addr:postcode" v="CB22 4LZ"/>
    <tag k="addr:street" v="Farm Rise"/>
    <tag k="building" v="house"/>
  </way>
  <way id="619000841" version="3" timestamp="2023-06-10T07:34:17Z" changeset="137162038" uid="322785" user="BCNorwich">
    <nd ref="5850002616"/>
    <nd ref="5850002613"/>
    <nd ref="5850002614"/>
    <nd ref="5850002615"/>
    <nd ref="5850002616"/>
    <tag k="addr:city" v="Whittlesford"/>
    <tag k="addr:housenumber" v="7"/>
    <tag k="addr:postcode" v="CB22 4LZ"/>
    <tag k="addr:street" v="Farm Rise"/>
    <tag k="building" v="house"/>
  </way>
  <way id="619000842" version="4" timestamp="2023-06-10T07:34:17Z" changeset="137162038" uid="322785" user="BCNorwich">
    <nd ref="5850002620"/>
    <nd ref="5850002617"/>
    <nd ref="5850002618"/>
    <nd ref="5850002619"/>
    <nd ref="5850002620"/>
    <tag k="addr:city" v="Whittlesford"/>
    <tag k="addr:housenumber" v="8"/>
    <tag k="addr:postcode" v="CB22 4LZ"/>
    <tag k="addr:street" v="Farm Rise"/>
    <tag k="building" v="house"/>
  </way>
  <way id="619000843" version="3" timestamp="2023-06-10T07:34:17Z" changeset="137162038" uid="322785" user="BCNorwich">
    <nd ref="5850002624"/>
    <nd ref="5850002621"/>
    <nd ref="5850002622"/>
    <nd ref="5850002623"/>
    <nd ref="5850002624"/>
    <tag k="addr:city" v="Whittlesford"/>
    <tag k="addr:housenumber" v="9"/>
    <tag k="addr:postcode" v="CB22 4LZ"/>
    <tag k="addr:street" v="Farm Rise"/>
    <tag k="building" v="house"/>
  </way>
  <way id="619000844" version="3" timestamp="2023-06-10T07:34:17Z" changeset="137162038" uid="322785" user="BCNorwich">
    <nd ref="5850002628"/>
    <nd ref="5850002627"/>
    <nd ref="5850002626"/>
    <nd ref="5850002625"/>
    <nd ref="5850002628"/>
    <tag k="addr:city" v="Whittlesford"/>
    <tag k="addr:housenumber" v="10"/>
    <tag k="addr:postcode" v="CB22 4LZ"/>
    <tag k="addr:street" v="Farm Rise"/>
    <tag k="building" v="house"/>
  </way>
  <way id="619000860" version="2" timestamp="2024-12-13T14:41:04Z" changeset="160248979" uid="3326227" user="Manwaring">
    <nd ref="5850002704"/>
    <nd ref="5850002701"/>
    <nd ref="5850002702"/>
    <nd ref="12420203662"/>
    <nd ref="12420203661"/>
    <nd ref="5850002703"/>
    <nd ref="5850002704"/>
    <tag k="addr:city" v="Whittlesford"/>
    <tag k="addr:housenumber" v="6"/>
    <tag k="addr:postcode" v="CB22 4NT"/>
    <tag k="addr:street" v="Ascham Lane"/>
    <tag k="building" v="yes"/>
  </way>
  <way id="619000861" version="2" timestamp="2024-12-13T14:41:04Z" changeset="160248979" uid="3326227" user="Manwaring">
    <nd ref="5850002708"/>
    <nd ref="5850002705"/>
    <nd ref="5850002706"/>
    <nd ref="5850002707"/>
    <nd ref="5850002708"/>
    <tag k="addr:city" v="Whittlesford"/>
    <tag k="addr:housenumber" v="7"/>
    <tag k="addr:postcode" v="CB22 4NT"/>
    <tag k="addr:street" v="Ascham Lane"/>
    <tag k="building" v="yes"/>
  </way>
  <way id="619000862" version="2" timestamp="2024-12-13T14:41:04Z" changeset="160248979" uid="3326227" user="Manwaring">
    <nd ref="5850002712"/>
    <nd ref="5850002713"/>
    <nd ref="12420203667"/>
    <nd ref="12420203666"/>
    <nd ref="12420203665"/>
    <nd ref="5850002709"/>
    <nd ref="5850002710"/>
    <nd ref="5850002711"/>
    <nd ref="12420203664"/>
    <nd ref="12420203663"/>
    <nd ref="5850002712"/>
    <tag k="addr:city" v="Whittlesford"/>
    <tag k="addr:housenumber" v="8"/>
    <tag k="addr:postcode" v="CB22 4NT"/>
    <tag k="addr:street" v="Ascham Lane"/>
    <tag k="building" v="yes"/>
  </way>
  <way id="619000863" version="2" timestamp="2024-12-13T14:41:04Z" changeset="160248979" uid="3326227" user="Manwaring">
    <nd ref="5850002716"/>
    <nd ref="5850002713"/>
    <nd ref="5850002714"/>
    <nd ref="5850002715"/>
    <nd ref="12420203668"/>
    <nd ref="12420203669"/>
    <nd ref="12420203670"/>
    <nd ref="12420203671"/>
    <nd ref="5850002716"/>
    <tag k="addr:city" v="Whittlesford"/>
    <tag k="addr:housenumber" v="9"/>
    <tag k="addr:postcode" v="CB22 4NT"/>
    <tag k="addr:street" v="Ascham Lane"/>
    <tag k="building" v="yes"/>
  </way>
  <way id="619000864" version="2" timestamp="2024-12-13T14:41:04Z" changeset="160248979" uid="3326227" user="Manwaring">
    <nd ref="5850002720"/>
    <nd ref="12420203674"/>
    <nd ref="12420203675"/>
    <nd ref="5850002717"/>
    <nd ref="5850002718"/>
    <nd ref="12420203672"/>
    <nd ref="12420203673"/>
    <nd ref="12420203677"/>
    <nd ref="12420203676"/>
    <nd ref="5850002719"/>
    <nd ref="5850002720"/>
    <tag k="addr:city" v="Whittlesford"/>
    <tag k="addr:housenumber" v="10"/>
    <tag k="addr:postcode" v="CB22 4NT"/>
    <tag k="addr:street" v="Ascham Lane"/>
    <tag k="building" v="yes"/>
  </way>
  <way id="619000865" version="2" timestamp="2024-12-13T14:41:04Z" changeset="160248979" uid="3326227" user="Manwaring">
    <nd ref="5850002724"/>
    <nd ref="5850002741"/>
    <nd ref="12420203686"/>
    <nd ref="5850002721"/>
    <nd ref="12420203685"/>
    <nd ref="12420203684"/>
    <nd ref="12420203683"/>
    <nd ref="12420203682"/>
    <nd ref="5850002722"/>
    <nd ref="5850002723"/>
    <nd ref="12420203681"/>
    <nd ref="12420203680"/>
    <nd ref="12420203679"/>
    <nd ref="12420203678"/>
    <nd ref="5850002724"/>
    <tag k="addr:city" v="Whittlesford"/>
    <tag k="addr:housenumber" v="11"/>
    <tag k="addr:postcode" v="CB22 4NT"/>
    <tag k="addr:street" v="Ascham Lane"/>
    <tag k="building" v="yes"/>
  </way>
  <way id="619000866" version="2" timestamp="2024-12-13T14:41:04Z" changeset="160248979" uid="3326227" user="Manwaring">
    <nd ref="5850002730"/>
    <nd ref="12420203689"/>
    <nd ref="12420203690"/>
    <nd ref="12420203691"/>
    <nd ref="12420203692"/>
    <nd ref="5850002727"/>
    <nd ref="5850002726"/>
    <nd ref="5850002725"/>
    <nd ref="5850002728"/>
    <nd ref="5850002729"/>
    <nd ref="5850002730"/>
    <tag k="addr:city" v="Whittlesford"/>
    <tag k="addr:housenumber" v="14"/>
    <tag k="addr:postcode" v="CB22 4NT"/>
    <tag k="addr:street" v="Ascham Lane"/>
    <tag k="building" v="yes"/>
  </way>
  <way id="619000867" version="2" timestamp="2024-12-13T14:41:04Z" changeset="160248979" uid="3326227" user="Manwaring">
    <nd ref="5850002734"/>
    <nd ref="5850002731"/>
    <nd ref="5850002732"/>
    <nd ref="12420203687"/>
    <nd ref="12420203688"/>
    <nd ref="5850002733"/>
    <nd ref="5850002734"/>
    <tag k="addr:city" v="Whittlesford"/>
    <tag k="addr:housenumber" v="13"/>
    <tag k="addr:postcode" v="CB22 4NT"/>
    <tag k="addr:street" v="Ascham Lane"/>
    <tag k="building" v="yes"/>
  </way>
  <way id="619000868" version="3" timestamp="2024-12-13T14:41:04Z" changeset="160248979" uid="3326227" user="Manwaring">
    <nd ref="5850002742"/>
    <nd ref="5850002739"/>
    <nd ref="5850002738"/>
    <nd ref="5850002737"/>
    <nd ref="5850002740"/>
    <nd ref="5850002741"/>
    <nd ref="5850002735"/>
    <nd ref="5850002736"/>
    <nd ref="5850002742"/>
    <tag k="addr:city" v="Whittlesford"/>
    <tag k="addr:housenumber" v="12"/>
    <tag k="addr:postcode" v="CB22 4NT"/>
    <tag k="addr:street" v="Ascham Lane"/>
    <tag k="building" v="yes"/>
  </way>
  <way id="619000869" version="2" timestamp="2024-12-13T14:41:04Z" changeset="160248979" uid="3326227" user="Manwaring">
    <nd ref="5850002746"/>
    <nd ref="5850002743"/>
    <nd ref="12420203654"/>
    <nd ref="12420203655"/>
    <nd ref="12420203653"/>
    <nd ref="12420203656"/>
    <nd ref="5850002744"/>
    <nd ref="5850002745"/>
    <nd ref="5850002746"/>
    <tag k="addr:city" v="Whittlesford"/>
    <tag k="addr:housenumber" v="2"/>
    <tag k="addr:postcode" v="CB22 4NT"/>
    <tag k="addr:street" v="Ascham Lane"/>
    <tag k="building" v="yes"/>
  </way>
  <way id="619000870" version="2" timestamp="2024-12-13T14:41:04Z" changeset="160248979" uid="3326227" user="Manwaring">
    <nd ref="5850002750"/>
    <nd ref="5850002747"/>
    <nd ref="5850002748"/>
    <nd ref="5850002749"/>
    <nd ref="5850002750"/>
    <tag k="addr:city" v="Whittlesford"/>
    <tag k="addr:housenumber" v="1"/>
    <tag k="addr:postcode" v="CB22 4NT"/>
    <tag k="addr:street" v="Ascham Lane"/>
    <tag k="building" v="yes"/>
  </way>
  <way id="619000871" version="2" timestamp="2024-12-13T14:41:04Z" changeset="160248979" uid="3326227" user="Manwaring">
    <nd ref="5850002754"/>
    <nd ref="12420203659"/>
    <nd ref="12420203660"/>
    <nd ref="5850002751"/>
    <nd ref="5850002752"/>
    <nd ref="5850002753"/>
    <nd ref="12420203657"/>
    <nd ref="12420203658"/>
    <nd ref="5850002754"/>
    <tag k="addr:city" v="Whittlesford"/>
    <tag k="addr:housenumber" v="5"/>
    <tag k="addr:postcode" v="CB22 4NT"/>
    <tag k="addr:street" v="Ascham Lane"/>
    <tag k="building" v="yes"/>
  </way>
  <way id="619000872" version="2" timestamp="2024-12-13T14:41:04Z" changeset="160248979" uid="3326227" user="Manwaring">
    <nd ref="5850002758"/>
    <nd ref="5850002755"/>
    <nd ref="5850002756"/>
    <nd ref="12420203659"/>
    <nd ref="5850002754"/>
    <nd ref="5850002758"/>
    <tag k="addr:city" v="Whittlesford"/>
    <tag k="addr:housenumber" v="4"/>
    <tag k="addr:postcode" v="CB22 4NT"/>
    <tag k="addr:street" v="Ascham Lane"/>
    <tag k="building" v="yes"/>
  </way>
  <way id="619000873" version="2" timestamp="2024-12-13T14:41:04Z" changeset="160248979" uid="3326227" user="Manwaring">
    <nd ref="5850002762"/>
    <nd ref="5850002759"/>
    <nd ref="5850002760"/>
    <nd ref="5850002761"/>
    <nd ref="5850002762"/>
    <tag k="addr:city" v="Whittlesford"/>
    <tag k="addr:housenumber" v="3"/>
    <tag k="addr:postcode" v="CB22 4NT"/>
    <tag k="addr:street" v="Ascham Lane"/>
    <tag k="building" v="yes"/>
  </way>
  <way id="619001125" version="2" timestamp="2025-01-19T17:30:06Z" changeset="161533526" uid="10554793" user="dstansby">
    <nd ref="5850003987"/>
    <nd ref="5850003884"/>
    <nd ref="5850003985"/>
    <nd ref="5850003986"/>
    <nd ref="5850003987"/>
    <tag k="addr:city" v="Whittlesfordwww"/>
    <tag k="addr:housenumber" v="42,44"/>
    <tag k="addr:street" v="Mill Lane"/>
    <tag k="building" v="semidetached_house"/>
  </way>
  <way id="619001150" version="2" timestamp="2023-07-24T08:02:43Z" changeset="138925997" uid="10449668" user="Hugh F">
    <nd ref="5850004122"/>
    <nd ref="5850004121"/>
    <nd ref="5850004120"/>
    <nd ref="5850004119"/>
    <nd ref="5850004122"/>
    <tag k="addr:city" v="Whittlesford"/>
    <tag k="addr:housename" v="United Reform Church"/>
    <tag k="addr:housenumber" v="36"/>
    <tag k="addr:postcode" v="CB22 4ND"/>
    <tag k="addr:street" v="Duxford Rd"/>
    <tag k="building" v="yes"/>
    <tag k="description" v="Modern church building with car park"/>
    <tag k="name" v="URC Whittlesford"/>
  </way>
  <way id="619001162" version="3" timestamp="2024-03-11T12:16:46Z" changeset="148503241" uid="1287673" user="sloerunner">
    <nd ref="5850004174"/>
    <nd ref="5850004171"/>
    <nd ref="5850004172"/>
    <nd ref="11716505400"/>
    <nd ref="5850004173"/>
    <nd ref="5850004174"/>
    <tag k="addr:postcode" v="CB22 4NE"/>
    <tag k="addr:street" v="Mill Lane"/>
    <tag k="amenity" v="community_centre"/>
    <tag k="building" v="yes"/>
    <tag k="name" v="Whittlesford Memorial Hall"/>
  </way>
  <way id="619001272" version="1" timestamp="2018-08-22T22:59:17Z" changeset="61904263" uid="5173844" user="ndrw6">
    <nd ref="5850004834"/>
    <nd ref="5850004833"/>
    <nd ref="5850004832"/>
    <nd ref="5850004831"/>
    <tag k="access" v="private"/>
    <tag k="highway" v="residential"/>
    <tag k="name" v="The Moraine"/>
  </way>
  <way id="619001273" version="1" timestamp="2018-08-22T22:59:17Z" changeset="61904263" uid="5173844" user="ndrw6">
    <nd ref="5850004836"/>
    <nd ref="1440961272"/>
    <nd ref="5850004830"/>
    <nd ref="5850004835"/>
    <tag k="access" v="private"/>
    <tag k="highway" v="residential"/>
    <tag k="name" v="The Moraine"/>
  </way>
  <way id="619001274" version="1" timestamp="2018-08-22T22:59:17Z" changeset="61904263" uid="5173844" user="ndrw6">
    <nd ref="5850004843"/>
    <nd ref="5850004842"/>
    <nd ref="5850004841"/>
    <nd ref="5850004840"/>
    <nd ref="5850004839"/>
    <tag k="highway" v="residential"/>
    <tag k="name" v="Knights Orchard"/>
  </way>
  <way id="619001416" version="2" timestamp="2025-01-21T12:44:35Z" changeset="161599195" uid="20475686" user="Dan200">
    <nd ref="36417973"/>
    <nd ref="12520541800"/>
    <tag k="fixme" v="Double-check street name"/>
    <tag k="highway" v="residential"/>
    <tag k="maxspeed" v="30 mph"/>
    <tag k="name" v="Station Road West"/>
    <tag k="source:name" v="roadsign"/>
  </way>
  <way id="635824561" version="2" timestamp="2018-12-06T17:42:30Z" changeset="65246701" uid="281267" user="smb1001">
    <nd ref="5996769822"/>
    <nd ref="5996769821"/>
    <nd ref="5996769820"/>
    <nd ref="5996769819"/>
    <nd ref="5996769822"/>
    <tag k="addr:postcode" v="CB22 4QS"/>
    <tag k="addr:street" v="Hill Farm Road"/>
    <tag k="building" v="yes"/>
    <tag k="name" v="ABC Lasers"/>
  </way>
  <way id="829795138" version="1" timestamp="2020-07-24T17:36:57Z" changeset="88470930" uid="57884" user="EdLoach">
    <nd ref="7744804035"/>
    <nd ref="36417978"/>
    <nd ref="889211620"/>
    <nd ref="25301336"/>
    <tag k="fixme" v="Isn't this flanked on either side by footways?"/>
    <tag k="highway" v="tertiary"/>
    <tag k="maxspeed" v="40 mph"/>
    <tag k="name" v="Duxford Road"/>
  </way>
  <way id="829799679" version="3" timestamp="2021-04-16T21:04:54Z" changeset="103081045" uid="242345" user="confusedbuffalo">
    <nd ref="7744826090"/>
    <nd ref="1411852882"/>
    <nd ref="236998524"/>
    <nd ref="236998526"/>
    <nd ref="8059220837"/>
    <nd ref="236998537"/>
    <nd ref="40810478"/>
    <tag k="highway" v="tertiary"/>
    <tag k="lit" v="no"/>
    <tag k="maxspeed" v="60 mph"/>
    <tag k="maxspeed:type" v="GB:nsl_single"/>
    <tag k="name" v="Hill Farm Road"/>
    <tag k="source:lit" v="2011-03-17"/>
    <tag k="source:name" v="dictaphone"/>
  </way>
  <way id="860600384" version="5" timestamp="2025-03-17T17:47:18Z" changeset="163743626" uid="953779" user="Adam Edwards">
    <nd ref="8021322681"/>
    <nd ref="8021322682"/>
    <nd ref="8021322683"/>
    <nd ref="12461830305"/>
    <nd ref="8021322684"/>
    <nd ref="8021331085"/>
    <nd ref="12461830308"/>
    <nd ref="8021331086"/>
    <nd ref="8021331087"/>
    <nd ref="8021331088"/>
    <nd ref="8021331089"/>
    <tag k="highway" v="residential"/>
    <tag k="maxspeed" v="30 mph"/>
    <tag k="name" v="Old Boundary Close"/>
  </way>
  <way id="951211128" version="6" timestamp="2024-12-29T22:55:39Z" changeset="160770788" uid="5229644" user="Nathan_A_RF">
    <nd ref="1556231405"/>
    <nd ref="12461830322"/>
    <nd ref="1556231416"/>
    <nd ref="12461830318"/>
    <nd ref="40810485"/>
    <tag k="cycleway:left" v="no"/>
    <tag k="highway" v="unclassified"/>
    <tag k="lane_markings" v="no"/>
    <tag k="maxweight" v="7.5"/>
    <tag k="name" v="Royston Road"/>
    <tag k="oneway" v="yes"/>
    <tag k="source:name" v="dictaphone"/>
    <tag k="surface" v="asphalt"/>
  </way>
  <way id="1170523100" version="1" timestamp="2023-05-09T10:55:50Z" changeset="135889930" uid="3582" user="davidearl">
    <nd ref="1556231408"/>
    <nd ref="1556231405"/>
    <tag k="highway" v="unclassified"/>
    <tag k="maxweight" v="7.5"/>
    <tag k="name" v="Royston Road"/>
    <tag k="source:name" v="dictaphone"/>
    <tag k="surface" v="asphalt"/>
  </way>
  <way id="1257941483" version="1" timestamp="2024-03-05T19:44:39Z" changeset="148265567" uid="5173844" user="ndrw6">
    <nd ref="11694870289"/>
    <nd ref="11694870288"/>
    <tag k="highway" v="residential"/>
    <tag k="name" v="Scotts Gardens"/>
    <tag k="source:name" v="dictaphone"/>
  </way>
  <way id="1257941484" version="1" timestamp="2024-03-05T19:44:39Z" changeset="148265567" uid="5173844" user="ndrw6">
    <nd ref="40809920"/>
    <nd ref="11694870290"/>
    <tag k="highway" v="residential"/>
    <tag k="name" v="Maynards"/>
    <tag k="source:name" v="dictaphone"/>
  </way>
  <way id="1257941487" version="1" timestamp="2024-03-05T19:44:39Z" changeset="148265567" uid="5173844" user="ndrw6">
    <nd ref="11694870296"/>
    <nd ref="40810004"/>
    <nd ref="11694870295"/>
    <tag k="highway" v="residential"/>
    <tag k="name" v="Ascham Lane"/>
    <tag k="source:name" v="dictaphone"/>
  </way>
  <way id="1257941500" version="2" timestamp="2024-12-13T20:29:39Z" changeset="160260838" uid="3326227" user="Manwaring">
    <nd ref="11694870322"/>
    <nd ref="5850002084"/>
    <nd ref="5850002083"/>
    <nd ref="11694870321"/>
    <nd ref="11694870322"/>
    <tag k="addr:city" v="Whittlesford"/>
    <tag k="addr:housenumber" v="3"/>
    <tag k="addr:street" v="Vicarage Lane"/>
    <tag k="building" v="semidetached_house"/>
  </way>
  <way id="1257941508" version="1" timestamp="2024-03-05T19:44:39Z" changeset="148265567" uid="5173844" user="ndrw6">
    <nd ref="5850002968"/>
    <nd ref="11694870350"/>
    <tag k="highway" v="residential"/>
    <tag k="name" v="Whiskins"/>
    <tag k="source:name" v="dictaphone"/>
  </way>
  <way id="1310844820" version="2" timestamp="2025-03-20T14:23:12Z" changeset="163865504" uid="20475686" user="Dan200">
    <nd ref="2242635832"/>
    <nd ref="10387288"/>
    <nd ref="236998641"/>
    <nd ref="236998584"/>
    <nd ref="12684803663"/>
    <nd ref="12684803658"/>
    <nd ref="236998544"/>
    <tag k="highway" v="trunk"/>
    <tag k="lanes" v="2"/>
    <tag k="lit" v="yes"/>
    <tag k="maxspeed" v="40 mph"/>
    <tag k="name" v="Royston Road"/>
    <tag k="ref" v="A505"/>
    <tag k="smoothness" v="good"/>
    <tag k="source:lit" v="2011-03-17"/>
    <tag k="source:name" v="local knowledge"/>
    <tag k="source:ref" v="local knowledge"/>
    <tag k="surface" v="asphalt"/>
  </way>
  <way id="1347185863" version="1" timestamp="2024-12-29T22:55:39Z" changeset="160770788" uid="5229644" user="Nathan_A_RF">
    <nd ref="12461830306"/>
    <nd ref="8021331089"/>
    <nd ref="12461830307"/>
    <tag k="highway" v="residential"/>
    <tag k="name" v="Old Boundary Close"/>
  </way>

</osm>
