<?xml version="1.0" encoding="UTF-8"?>
<osm version="0.6" generator="Overpass API 0.7.62.5 1bd436f1">
<note>The data included in this document is from www.openstreetmap.org. The data is made available under ODbL.</note>
<meta osm_base="2025-03-25T16:05:29Z" areas="2025-02-06T02:17:44Z"/>

  <node id="2928915101" lat="52.1368391" lon="0.0710242" version="8" timestamp="2019-03-25T06:44:07Z" changeset="68494899" uid="9451067" user="b-jazz-bot">
    <tag k="addr:city" v="Cambridge"/>
    <tag k="addr:housename" v="Sphere Medical Limited"/>
    <tag k="addr:postcode" v="CB22 7GG"/>
    <tag k="addr:street" v="Harston Mill"/>
    <tag k="entrance" v="yes"/>
    <tag k="name" v="Sphere Medical"/>
    <tag k="phone" v="+44 1223 875222"/>
    <tag k="website" v="https://www.spheremedical.com/"/>
  </node>
  <node id="3783220757" lat="52.1366972" lon="0.0705787" version="1" timestamp="2015-10-12T12:26:27Z" changeset="34589203" uid="2032231" user="narboy">
    <tag k="addr:city" v="Cambridge"/>
    <tag k="addr:housename" v="Goods In"/>
    <tag k="addr:postcode" v="CB22 7GG"/>
    <tag k="addr:street" v="Harston Mill"/>
    <tag k="name" v="Goods In"/>
    <tag k="office" v="company"/>
  </node>
  <node id="4242054417" lat="52.1399966" lon="0.0817208" version="6" timestamp="2025-03-17T07:44:20Z" changeset="163718856" uid="2179792" user="votre_solution_de_visibilite_digitale_locale">
    <tag k="addr:city" v="Cambridge"/>
    <tag k="addr:housenumber" v="61"/>
    <tag k="addr:postcode" v="CB22 7PZ"/>
    <tag k="addr:street" v="High St, Harston, Cambridge Cb22 7pz"/>
    <tag k="addr:village" v="Harston"/>
    <tag k="name" v="Ducati Cambridge"/>
    <tag k="opening_hours" v="Mo-Fr 08:30-18:00; Sa 08:30-17:00"/>
    <tag k="shop" v="motorcycle"/>
    <tag k="website" v="https://www.vindisgroup.com/ducati/"/>
  </node>
  <node id="9163585336" lat="52.1428971" lon="0.0856779" version="4" timestamp="2023-10-19T14:52:41Z" changeset="142820318" uid="4345757" user="JassKurn">
    <tag k="addr:housenumber" v="123"/>
    <tag k="addr:postcode" v="CB22 7QB"/>
    <tag k="addr:street" v="High Street"/>
    <tag k="amenity" v="cafe"/>
    <tag k="brand" v="Costa"/>
    <tag k="brand:wikidata" v="Q608845"/>
    <tag k="brand:wikipedia" v="en:Costa Coffee"/>
    <tag k="cuisine" v="coffee_shop"/>
    <tag k="fhrs:id" v="1433704"/>
    <tag k="name" v="Costa"/>
    <tag k="takeaway" v="yes"/>
  </node>
  <way id="4280060" version="13" timestamp="2023-09-24T22:58:30Z" changeset="141705412" uid="20240549" user="Sforzando9500">
    <nd ref="25779998"/>
    <nd ref="1619056292"/>
    <nd ref="582686437"/>
    <nd ref="582686253"/>
    <nd ref="25779996"/>
    <nd ref="6709839052"/>
    <nd ref="582686279"/>
    <nd ref="544551265"/>
    <nd ref="11216906164"/>
    <nd ref="25779995"/>
    <nd ref="25779994"/>
    <nd ref="25779993"/>
    <tag k="highway" v="tertiary"/>
    <tag k="lanes" v="2"/>
    <tag k="lit" v="no"/>
    <tag k="maxspeed" v="60 mph"/>
    <tag k="maxspeed:type" v="GB:nsl_single"/>
    <tag k="name" v="Shelford Road"/>
    <tag k="source:lit" v="local_knowledge (2010)"/>
  </way>
  <way id="4950811" version="18" timestamp="2025-02-27T20:14:48Z" changeset="163027404" uid="5229644" user="Nathan_A_RF">
    <nd ref="5276156"/>
    <nd ref="2312517223"/>
    <nd ref="8806530982"/>
    <nd ref="1858774672"/>
    <nd ref="33129377"/>
    <nd ref="33129185"/>
    <nd ref="1657933477"/>
    <nd ref="1657933479"/>
    <nd ref="5276162"/>
    <nd ref="33129186"/>
    <nd ref="21098659"/>
    <nd ref="1741215778"/>
    <nd ref="1815060050"/>
    <nd ref="33129346"/>
    <nd ref="1876662611"/>
    <nd ref="1815058847"/>
    <nd ref="1818367589"/>
    <nd ref="33129188"/>
    <nd ref="1820917522"/>
    <nd ref="5276164"/>
    <nd ref="21098660"/>
    <nd ref="1252180353"/>
    <nd ref="1657933486"/>
    <nd ref="1657933488"/>
    <nd ref="3613546527"/>
    <nd ref="1657933490"/>
    <nd ref="2068491368"/>
    <nd ref="697031229"/>
    <nd ref="21076368"/>
    <nd ref="697031232"/>
    <nd ref="5276167"/>
    <nd ref="5276169"/>
    <tag k="abutters" v="residential"/>
    <tag k="highway" v="tertiary"/>
    <tag k="lit" v="yes"/>
    <tag k="maxspeed:type" v="GB:nsl_restricted"/>
    <tag k="name" v="Church Street"/>
    <tag k="source:name" v="dictaphone"/>
    <tag k="surface" v="asphalt"/>
  </way>
  <way id="4991272" version="14" timestamp="2023-06-23T09:42:18Z" changeset="137680912" uid="242345" user="confusedbuffalo">
    <nd ref="33129090"/>
    <nd ref="33129091"/>
    <nd ref="25779999"/>
    <nd ref="25779998"/>
    <tag k="FIXME:nsl" v="inferred single-carriageway NSL - remove this tag once verified"/>
    <tag k="highway" v="secondary"/>
    <tag k="lanes" v="2"/>
    <tag k="lit" v="no"/>
    <tag k="maxspeed" v="60 mph"/>
    <tag k="maxspeed:type" v="GB:nsl_single"/>
    <tag k="ref" v="B1368"/>
    <tag k="source:lit" v="survey (Oct 2010)"/>
    <tag k="source:ref" v="dictaphone"/>
  </way>
  <way id="4991273" version="13" timestamp="2023-06-23T09:27:01Z" changeset="137680224" uid="242345" user="confusedbuffalo">
    <nd ref="33129145"/>
    <nd ref="8647877987"/>
    <nd ref="33129171"/>
    <nd ref="1846700718"/>
    <nd ref="33129173"/>
    <nd ref="7730170213"/>
    <nd ref="33129174"/>
    <nd ref="33129175"/>
    <nd ref="33129176"/>
    <nd ref="9219907243"/>
    <nd ref="3174333864"/>
    <tag k="FIXME:nsl" v="inferred single-carriageway NSL - remove this tag once verified"/>
    <tag k="highway" v="tertiary"/>
    <tag k="maxspeed" v="60 mph"/>
    <tag k="maxspeed:type" v="GB:nsl_single"/>
    <tag k="name" v="Newton Road"/>
    <tag k="source" v="GPS"/>
    <tag k="surface" v="asphalt"/>
  </way>
  <way id="4991274" version="11" timestamp="2025-02-27T20:16:11Z" changeset="163027449" uid="5229644" user="Nathan_A_RF">
    <nd ref="33129076"/>
    <nd ref="12607120322"/>
    <nd ref="1437445155"/>
    <nd ref="1437445151"/>
    <nd ref="12607120323"/>
    <nd ref="33129183"/>
    <tag k="highway" v="tertiary"/>
    <tag k="lane_markings" v="no"/>
    <tag k="lanes" v="2"/>
    <tag k="maxspeed" v="30 mph"/>
    <tag k="name" v="Station Road"/>
    <tag k="sidewalk:left" v="separate"/>
    <tag k="surface" v="asphalt"/>
  </way>
  <way id="4991275" version="8" timestamp="2024-04-01T11:09:31Z" changeset="149429050" uid="7675562" user="ChildishGiant">
    <nd ref="690420433"/>
    <nd ref="33129203"/>
    <nd ref="1657959975"/>
    <nd ref="1657959976"/>
    <nd ref="1657959977"/>
    <nd ref="1657959978"/>
    <nd ref="33129205"/>
    <nd ref="33129206"/>
    <nd ref="1657959979"/>
    <nd ref="1657959980"/>
    <nd ref="33129207"/>
    <nd ref="1657959986"/>
    <nd ref="1657959988"/>
    <nd ref="33129208"/>
    <nd ref="33129209"/>
    <nd ref="33129210"/>
    <tag k="check_date" v="2024-03-31"/>
    <tag k="highway" v="residential"/>
    <tag k="lane_markings" v="no"/>
    <tag k="lit" v="yes"/>
    <tag k="maxspeed" v="30 mph"/>
    <tag k="name" v="Lawrance Lea"/>
    <tag k="note" v="Realign with not full Bing zoom? Check with GPS"/>
    <tag k="oneway" v="no"/>
    <tag k="source" v="Bing (full zoom)"/>
    <tag k="source:name" v="dictaphone"/>
    <tag k="surface" v="asphalt"/>
  </way>
  <way id="4991276" version="9" timestamp="2024-03-31T18:11:38Z" changeset="149402776" uid="7675562" user="ChildishGiant">
    <nd ref="1657959985"/>
    <nd ref="33129212"/>
    <nd ref="33129210"/>
    <nd ref="33129211"/>
    <tag k="check_date" v="2024-03-31"/>
    <tag k="cycleway:both" v="no"/>
    <tag k="highway" v="residential"/>
    <tag k="lane_markings" v="no"/>
    <tag k="lit" v="yes"/>
    <tag k="maxspeed" v="30 mph"/>
    <tag k="name" v="Lawrance Lea"/>
    <tag k="note" v="Realign with not full Bing zoom? Check with GPS"/>
    <tag k="oneway" v="no"/>
    <tag k="sidewalk" v="both"/>
    <tag k="source" v="Bing (full zoom)"/>
    <tag k="source:name" v="dictaphone"/>
    <tag k="surface" v="asphalt"/>
  </way>
  <way id="4991277" version="9" timestamp="2021-09-08T13:02:05Z" changeset="110919204" uid="7675562" user="ChildishGiant">
    <nd ref="33129180"/>
    <nd ref="1658532669"/>
    <nd ref="4332957101"/>
    <nd ref="33129221"/>
    <nd ref="1657959990"/>
    <nd ref="1657959992"/>
    <nd ref="1657959998"/>
    <nd ref="1657960001"/>
    <nd ref="1657960008"/>
    <nd ref="1657960010"/>
    <nd ref="33129216"/>
    <nd ref="33129215"/>
    <nd ref="1657960016"/>
    <nd ref="1657960012"/>
    <nd ref="33129214"/>
    <nd ref="1657960002"/>
    <nd ref="33129213"/>
    <tag k="cycleway:both" v="no"/>
    <tag k="highway" v="residential"/>
    <tag k="lane_markings" v="no"/>
    <tag k="maxspeed" v="30 mph"/>
    <tag k="name" v="The Paddock"/>
    <tag k="note" v="Realign with not full Bing zoom? Check with GPS"/>
    <tag k="oneway" v="no"/>
    <tag k="sidewalk" v="both"/>
    <tag k="source" v="Bing (full zoom)"/>
    <tag k="source:name" v="dictaphone"/>
    <tag k="surface" v="asphalt"/>
  </way>
  <way id="4991279" version="7" timestamp="2021-09-25T11:36:39Z" changeset="111684418" uid="7675562" user="ChildishGiant">
    <nd ref="33129216"/>
    <nd ref="1657960014"/>
    <nd ref="33129217"/>
    <nd ref="1657960018"/>
    <nd ref="1657960019"/>
    <nd ref="1657960021"/>
    <nd ref="33129218"/>
    <nd ref="33129220"/>
    <tag k="cycleway:both" v="no"/>
    <tag k="highway" v="residential"/>
    <tag k="lane_markings" v="no"/>
    <tag k="maxspeed" v="30 mph"/>
    <tag k="name" v="The Paddock"/>
    <tag k="note" v="Realign with not full Bing zoom? Check with GPS"/>
    <tag k="oneway" v="no"/>
    <tag k="sidewalk" v="both"/>
    <tag k="source" v="Bing (full zoom)"/>
    <tag k="source:name" v="dictaphone"/>
    <tag k="surface" v="asphalt"/>
  </way>
  <way id="4991281" version="4" timestamp="2020-02-20T11:30:38Z" changeset="81269693" uid="10804708" user="mobiusmap">
    <nd ref="33129075"/>
    <nd ref="4332957095"/>
    <nd ref="7230112035"/>
    <nd ref="33129224"/>
    <tag k="highway" v="residential"/>
    <tag k="name" v="High Street"/>
    <tag k="source:name" v="dictaphone"/>
  </way>
  <way id="4991282" version="4" timestamp="2016-08-02T21:25:16Z" changeset="41202720" uid="2032231" user="narboy">
    <nd ref="33129074"/>
    <nd ref="4332956587"/>
    <nd ref="1852923542"/>
    <nd ref="1817033203"/>
    <nd ref="33129225"/>
    <tag k="highway" v="residential"/>
    <tag k="name" v="Orchard Close"/>
    <tag k="source:name" v="dictaphone"/>
  </way>
  <way id="4991285" version="3" timestamp="2016-08-02T21:25:18Z" changeset="41202720" uid="2032231" user="narboy">
    <nd ref="5276149"/>
    <nd ref="4332956574"/>
    <nd ref="1741156692"/>
    <nd ref="1741156691"/>
    <nd ref="1741156690"/>
    <nd ref="33129242"/>
    <nd ref="1741156686"/>
    <nd ref="1741156683"/>
    <nd ref="1741156682"/>
    <nd ref="33129243"/>
    <tag k="highway" v="residential"/>
    <tag k="name" v="The Limes"/>
    <tag k="source" v="Bing"/>
    <tag k="source:name" v="dictaphone"/>
  </way>
  <way id="4991286" version="2" timestamp="2012-05-05T08:51:31Z" changeset="11505315" uid="605122" user="neiljp">
    <nd ref="33129242"/>
    <nd ref="33129241"/>
    <nd ref="1741156680"/>
    <nd ref="33129240"/>
    <nd ref="1741156679"/>
    <nd ref="33129239"/>
    <nd ref="1741156676"/>
    <nd ref="1741156674"/>
    <nd ref="33129236"/>
    <nd ref="33129237"/>
    <tag k="highway" v="residential"/>
    <tag k="name" v="The Limes"/>
    <tag k="source" v="Bing"/>
    <tag k="source:name" v="dictaphone"/>
  </way>
  <way id="4991287" version="3" timestamp="2017-06-26T20:46:15Z" changeset="49846865" uid="2032231" user="narboy">
    <nd ref="33129236"/>
    <nd ref="1741156672"/>
    <nd ref="33129235"/>
    <nd ref="1741156670"/>
    <nd ref="33129233"/>
    <nd ref="1741156669"/>
    <nd ref="33129232"/>
    <nd ref="4937556571"/>
    <nd ref="33129230"/>
    <nd ref="4937556574"/>
    <tag k="highway" v="residential"/>
    <tag k="name" v="The Limes"/>
    <tag k="source" v="Bing"/>
    <tag k="source:name" v="dictaphone"/>
  </way>
  <way id="4991292" version="11" timestamp="2023-06-23T09:27:01Z" changeset="137680224" uid="242345" user="confusedbuffalo">
    <nd ref="3174333864"/>
    <nd ref="33129177"/>
    <nd ref="33129178"/>
    <nd ref="3941588019"/>
    <nd ref="1859550375"/>
    <nd ref="690420433"/>
    <tag k="FIXME:nsl" v="inferred single-carriageway NSL - remove this tag once verified"/>
    <tag k="abutters" v="residential"/>
    <tag k="highway" v="tertiary"/>
    <tag k="lane_markings" v="no"/>
    <tag k="maxspeed" v="60 mph"/>
    <tag k="maxspeed:type" v="GB:nsl_single"/>
    <tag k="name" v="Station Road"/>
    <tag k="source:name" v="dictaphone"/>
    <tag k="surface" v="asphalt"/>
  </way>
  <way id="4991294" version="3" timestamp="2021-03-03T04:42:14Z" changeset="100316321" uid="10455643" user="kotamadh">
    <nd ref="21281589"/>
    <nd ref="2312516922"/>
    <nd ref="8481538548"/>
    <nd ref="33129261"/>
    <tag k="highway" v="residential"/>
    <tag k="name" v="Chapel Lane"/>
    <tag k="source:name" v="dictaphone"/>
  </way>
  <way id="4991295" version="3" timestamp="2025-02-21T15:01:08Z" changeset="162784504" uid="5008136" user="JayTurnr">
    <nd ref="33129071"/>
    <nd ref="12607097815"/>
    <nd ref="33129262"/>
    <nd ref="33129265"/>
    <nd ref="33129263"/>
    <nd ref="1816875996"/>
    <tag k="highway" v="residential"/>
    <tag k="name" v="High Meadow"/>
    <tag k="source:name" v="dictaphone"/>
  </way>
  <way id="4991297" version="6" timestamp="2024-06-14T15:17:03Z" changeset="152684838" uid="953779" user="Adam Edwards">
    <nd ref="5276145"/>
    <nd ref="11981074334"/>
    <nd ref="33129268"/>
    <nd ref="1853291797"/>
    <tag k="highway" v="residential"/>
    <tag k="name" v="Manor Close"/>
    <tag k="source:name" v="dictaphone"/>
  </way>
  <way id="4991300" version="4" timestamp="2024-06-14T15:17:03Z" changeset="152684838" uid="953779" user="Adam Edwards">
    <nd ref="5276144"/>
    <nd ref="11981074326"/>
    <nd ref="33129280"/>
    <nd ref="33129281"/>
    <nd ref="1816789935"/>
    <tag k="highway" v="residential"/>
    <tag k="name" v="Moorfield"/>
    <tag k="source:name" v="dictaphone"/>
  </way>
  <way id="4991301" version="2" timestamp="2009-12-06T19:53:18Z" changeset="3309370" uid="21502" user="Kevin Steinhardt">
    <nd ref="33129082"/>
    <nd ref="582686408"/>
    <nd ref="33129282"/>
    <tag k="highway" v="residential"/>
    <tag k="name" v="The Chestnuts"/>
    <tag k="source:name" v="dictaphone"/>
  </way>
  <way id="4991302" version="4" timestamp="2023-01-14T16:43:50Z" changeset="131271499" uid="1287673" user="sloerunner">
    <nd ref="33129083"/>
    <nd ref="1860118219"/>
    <nd ref="33129284"/>
    <nd ref="1876652242"/>
    <nd ref="33129285"/>
    <nd ref="1820340527"/>
    <nd ref="33129286"/>
    <nd ref="33129287"/>
    <nd ref="33129292"/>
    <nd ref="10554826829"/>
    <nd ref="33129293"/>
    <nd ref="1876652241"/>
    <nd ref="1854767883"/>
    <nd ref="33129295"/>
    <nd ref="1876652240"/>
    <nd ref="33129272"/>
    <nd ref="33129271"/>
    <nd ref="33129269"/>
    <tag k="highway" v="residential"/>
    <tag k="name" v="Queen's Close"/>
    <tag k="source:name" v="dictaphone"/>
  </way>
  <way id="4991303" version="2" timestamp="2023-01-14T16:43:50Z" changeset="131271499" uid="1287673" user="sloerunner">
    <nd ref="33129272"/>
    <nd ref="10554826846"/>
    <nd ref="33129273"/>
    <nd ref="33129274"/>
    <tag k="highway" v="residential"/>
    <tag k="name" v="Queen's Close"/>
    <tag k="source:name" v="dictaphone"/>
  </way>
  <way id="4991304" version="3" timestamp="2012-08-05T19:14:28Z" changeset="12624759" uid="714383" user="alterain">
    <nd ref="33129268"/>
    <nd ref="1853291158"/>
    <tag k="highway" v="residential"/>
  </way>
  <way id="4991305" version="1" timestamp="2007-07-30T15:52:24Z" changeset="178050" uid="3582" user="davidearl">
    <nd ref="33129297"/>
    <nd ref="33129289"/>
    <nd ref="33129290"/>
    <tag k="created_by" v="JOSM"/>
    <tag k="highway" v="residential"/>
    <tag k="name" v="Queen's Close"/>
    <tag k="source:name" v="dictaphone"/>
  </way>
  <way id="4991306" version="2" timestamp="2012-08-21T20:09:14Z" changeset="12813113" uid="322785" user="BCNorwich">
    <nd ref="33129285"/>
    <nd ref="33129298"/>
    <nd ref="33129288"/>
    <nd ref="33129297"/>
    <nd ref="1855062023"/>
    <nd ref="33129291"/>
    <tag k="highway" v="residential"/>
    <tag k="name" v="Queen's Close"/>
    <tag k="source:name" v="dictaphone"/>
  </way>
  <way id="4991307" version="2" timestamp="2012-08-06T18:15:27Z" changeset="12635826" uid="714383" user="alterain">
    <nd ref="33129288"/>
    <nd ref="1854683712"/>
    <nd ref="1854683725"/>
    <nd ref="1854683738"/>
    <nd ref="1854683735"/>
    <nd ref="33129287"/>
    <tag k="highway" v="residential"/>
    <tag k="name" v="Queen's Close"/>
    <tag k="source:name" v="dictaphone"/>
  </way>
  <way id="4991308" version="3" timestamp="2023-01-14T16:43:50Z" changeset="131271499" uid="1287673" user="sloerunner">
    <nd ref="33129286"/>
    <nd ref="1854496165"/>
    <nd ref="10554826852"/>
    <nd ref="33129299"/>
    <nd ref="33129301"/>
    <tag k="highway" v="residential"/>
    <tag k="name" v="Meadow Way"/>
    <tag k="source:name" v="dictaphone"/>
  </way>
  <way id="4991311" version="2" timestamp="2012-07-07T22:28:31Z" changeset="12144628" uid="714383" user="alterain">
    <nd ref="33129081"/>
    <nd ref="33129307"/>
    <nd ref="1816836611"/>
    <tag k="highway" v="residential"/>
    <tag k="name" v="Field View"/>
    <tag k="source:name" v="dictaphone"/>
  </way>
  <way id="4991312" version="15" timestamp="2025-02-27T20:14:48Z" changeset="163027404" uid="5229644" user="Nathan_A_RF">
    <nd ref="33129064"/>
    <nd ref="12624039341"/>
    <nd ref="12624039348"/>
    <nd ref="1859035649"/>
    <nd ref="566364709"/>
    <tag k="cycleway:left" v="separate"/>
    <tag k="cycleway:right" v="no"/>
    <tag k="highway" v="trunk"/>
    <tag k="lanes" v="2"/>
    <tag k="lit" v="yes"/>
    <tag k="maxspeed" v="30 mph"/>
    <tag k="maxspeed:type" v="GB:nsl_restricted"/>
    <tag k="name" v="High Street"/>
    <tag k="oneway" v="yes"/>
    <tag k="ref" v="A10"/>
    <tag k="sidewalk:left" v="separate"/>
    <tag k="source" v="aerials"/>
    <tag k="surface" v="asphalt"/>
  </way>
  <way id="4991313" version="4" timestamp="2013-05-21T09:28:34Z" changeset="16221343" uid="141442" user="CycleStreets">
    <nd ref="1657486729"/>
    <nd ref="2314184084"/>
    <nd ref="33129309"/>
    <nd ref="1437445153"/>
    <nd ref="33129311"/>
    <tag k="highway" v="residential"/>
    <tag k="name" v="Pightle Close"/>
    <tag k="source" v="Bing; knowledge; survey"/>
    <tag k="source:name" v="dictaphone"/>
  </way>
  <way id="4991316" version="4" timestamp="2015-01-13T21:24:11Z" changeset="28122183" uid="2032231" user="narboy">
    <nd ref="5276158"/>
    <nd ref="2314184082"/>
    <nd ref="1437445123"/>
    <nd ref="3286722052"/>
    <nd ref="33129312"/>
    <tag k="highway" v="residential"/>
    <tag k="name" v="Mill Road"/>
    <tag k="source:name" v="dictaphone"/>
  </way>
  <way id="4991323" version="5" timestamp="2021-11-03T10:54:02Z" changeset="113325851" uid="7675562" user="ChildishGiant">
    <nd ref="33129185"/>
    <nd ref="3613545707"/>
    <nd ref="33129341"/>
    <tag k="highway" v="residential"/>
    <tag k="name" v="Hurrell's Row"/>
    <tag k="sidewalk" v="no"/>
    <tag k="source" v="Bing; knowledge; survey"/>
    <tag k="source:name" v="dictaphone"/>
    <tag k="surface" v="pebblestone"/>
  </way>
  <way id="4991324" version="9" timestamp="2024-06-14T15:04:43Z" changeset="152684231" uid="953779" user="Adam Edwards">
    <nd ref="21098659"/>
    <nd ref="11981073219"/>
    <nd ref="1741208433"/>
    <nd ref="1741208434"/>
    <nd ref="33129342"/>
    <nd ref="4668165640"/>
    <nd ref="1741208435"/>
    <nd ref="4668165639"/>
    <nd ref="4668165638"/>
    <nd ref="1818039832"/>
    <tag k="access" v="permissive"/>
    <tag k="highway" v="residential"/>
    <tag k="maxspeed" v="20 mph"/>
    <tag k="name" v="The Footpath"/>
    <tag k="note" v="name is &quot;Access to the footpath&quot;, possibly?"/>
    <tag k="source" v="Bing; gps"/>
    <tag k="source:name" v="dictaphone"/>
  </way>
  <way id="4991326" version="15" timestamp="2021-11-10T19:22:37Z" changeset="113623124" uid="7675562" user="ChildishGiant">
    <nd ref="5276169"/>
    <nd ref="1126540966"/>
    <nd ref="3613555151"/>
    <nd ref="33129349"/>
    <nd ref="33129348"/>
    <nd ref="1742038746"/>
    <nd ref="33129350"/>
    <nd ref="3613555153"/>
    <nd ref="1742038748"/>
    <nd ref="1742038750"/>
    <nd ref="33129351"/>
    <nd ref="1742038753"/>
    <nd ref="1200534619"/>
    <nd ref="1741215781"/>
    <nd ref="33129352"/>
    <nd ref="3613555149"/>
    <nd ref="33129353"/>
    <nd ref="1200534500"/>
    <nd ref="1742038763"/>
    <nd ref="1742038765"/>
    <nd ref="1742038767"/>
    <nd ref="33129354"/>
    <nd ref="33129356"/>
    <nd ref="1200534581"/>
    <nd ref="1742038769"/>
    <nd ref="1200534540"/>
    <nd ref="33129357"/>
    <nd ref="7506056097"/>
    <nd ref="33129358"/>
    <nd ref="8095869493"/>
    <nd ref="1200534524"/>
    <nd ref="33129359"/>
    <nd ref="1817763743"/>
    <nd ref="33129361"/>
    <nd ref="1200534631"/>
    <nd ref="1815086130"/>
    <nd ref="33129360"/>
    <nd ref="4336013076"/>
    <nd ref="33129362"/>
    <tag k="highway" v="residential"/>
    <tag k="lane_markings" v="no"/>
    <tag k="lit" v="yes"/>
    <tag k="maxspeed" v="30 mph"/>
    <tag k="name" v="Button End"/>
    <tag k="source" v="Bing; gps (partially)"/>
    <tag k="source:name" v="dictaphone"/>
    <tag k="surface" v="asphalt"/>
  </way>
  <way id="4991332" version="5" timestamp="2025-02-27T20:14:48Z" changeset="163027404" uid="5229644" user="Nathan_A_RF">
    <nd ref="33129377"/>
    <nd ref="8806530978"/>
    <nd ref="1657503651"/>
    <nd ref="21076767"/>
    <tag k="highway" v="tertiary"/>
    <tag k="name" v="Church Street"/>
    <tag k="source:name" v="dictaphone"/>
  </way>
  <way id="4991464" version="21" timestamp="2024-04-14T11:02:21Z" changeset="149987592" uid="616774" user="mueschel">
    <nd ref="25779953"/>
    <nd ref="231569"/>
    <tag k="bridge" v="yes"/>
    <tag k="carriageway_ref" v="A"/>
    <tag k="description" v="Cambridge Western Bypass"/>
    <tag k="highway" v="motorway"/>
    <tag k="lanes" v="2"/>
    <tag k="layer" v="1"/>
    <tag k="lit" v="no"/>
    <tag k="maxspeed" v="70 mph"/>
    <tag k="maxspeed:type" v="GB:motorway"/>
    <tag k="national_highways:area" v="8"/>
    <tag k="oneway" v="yes"/>
    <tag k="operator" v="National Highways"/>
    <tag k="operator:wikidata" v="Q5760006"/>
    <tag k="ref" v="M11"/>
    <tag k="source:ref" v="local knowledge"/>
    <tag k="surface" v="asphalt"/>
  </way>
  <way id="4991470" version="14" timestamp="2025-02-27T20:14:48Z" changeset="163027404" uid="5229644" user="Nathan_A_RF">
    <nd ref="33129086"/>
    <nd ref="582687681"/>
    <nd ref="33129087"/>
    <nd ref="968831666"/>
    <nd ref="968831654"/>
    <nd ref="33129088"/>
    <nd ref="300382752"/>
    <nd ref="300382753"/>
    <nd ref="33129089"/>
    <tag k="cycleway:both" v="no"/>
    <tag k="highway" v="secondary"/>
    <tag k="lit" v="no"/>
    <tag k="maxspeed" v="60 mph"/>
    <tag k="maxspeed:type" v="GB:nsl_single"/>
    <tag k="ref" v="B1368"/>
    <tag k="source:lit" v="survey (Oct 2010)"/>
    <tag k="surface" v="asphalt"/>
  </way>
  <way id="4991471" version="9" timestamp="2023-06-23T09:42:18Z" changeset="137680912" uid="242345" user="confusedbuffalo">
    <nd ref="33129089"/>
    <nd ref="33129090"/>
    <tag k="FIXME:nsl" v="inferred single-carriageway NSL - remove this tag once verified"/>
    <tag k="bridge" v="yes"/>
    <tag k="highway" v="secondary"/>
    <tag k="layer" v="1"/>
    <tag k="lit" v="no"/>
    <tag k="maxspeed" v="60 mph"/>
    <tag k="maxspeed:type" v="GB:nsl_single"/>
    <tag k="ref" v="B1368"/>
    <tag k="source:lit" v="survey (Oct 2010)"/>
    <tag k="source:ref" v="dictaphone"/>
  </way>
  <way id="4991485" version="14" timestamp="2023-09-11T12:57:13Z" changeset="141111882" uid="242345" user="confusedbuffalo">
    <nd ref="33129804"/>
    <nd ref="1619056269"/>
    <nd ref="33129802"/>
    <nd ref="1819642751"/>
    <nd ref="33129801"/>
    <nd ref="1819643204"/>
    <nd ref="1819643203"/>
    <nd ref="1815893570"/>
    <nd ref="1827083089"/>
    <nd ref="33129800"/>
    <nd ref="33129799"/>
    <nd ref="1658008874"/>
    <nd ref="33129805"/>
    <nd ref="1658008884"/>
    <nd ref="33129804"/>
    <tag k="addr:postcode" v="CB22 7PX"/>
    <tag k="addr:street" v="High Street"/>
    <tag k="amenity" v="school"/>
    <tag k="capacity" v="125"/>
    <tag k="email" v="office@harstonnewton.cambs.sch.uk"/>
    <tag k="fax" v="+44 1223 871375"/>
    <tag k="isced:level" v="1"/>
    <tag k="max_age" v="11"/>
    <tag k="min_age" v="4"/>
    <tag k="name" v="Harston &amp; Newton Community Primary School"/>
    <tag k="phone" v="+44 1223 870345"/>
    <tag k="ref:GB:uprn" v="10003196446"/>
    <tag k="ref:edubase" v="110612"/>
    <tag k="school:trust" v="no"/>
    <tag k="school:type" v="community"/>
    <tag k="website" v="https://www.harstonnewton.cambs.sch.uk/"/>
    <tag k="wikidata" v="Q66223499"/>
  </way>
  <way id="4991486" version="33" timestamp="2025-02-27T20:14:48Z" changeset="163027404" uid="5229644" user="Nathan_A_RF">
    <nd ref="33129064"/>
    <nd ref="582686415"/>
    <nd ref="582686418"/>
    <nd ref="5996578191"/>
    <nd ref="2068495235"/>
    <nd ref="11981111414"/>
    <nd ref="11981111416"/>
    <nd ref="7607342811"/>
    <nd ref="5276144"/>
    <nd ref="7950555934"/>
    <nd ref="7079446206"/>
    <nd ref="33129067"/>
    <nd ref="1815032685"/>
    <nd ref="1537175156"/>
    <nd ref="5276145"/>
    <nd ref="33129070"/>
    <nd ref="1858898953"/>
    <nd ref="33129071"/>
    <nd ref="2068493447"/>
    <nd ref="5276147"/>
    <nd ref="1858895654"/>
    <nd ref="1859043959"/>
    <nd ref="21281589"/>
    <nd ref="1859008906"/>
    <nd ref="1811733714"/>
    <tag k="abutters" v="residential"/>
    <tag k="cycleway:right" v="separate"/>
    <tag k="highway" v="trunk"/>
    <tag k="lanes" v="2"/>
    <tag k="lit" v="yes"/>
    <tag k="maxspeed" v="30 mph"/>
    <tag k="maxspeed:type" v="GB:nsl_restricted"/>
    <tag k="name" v="High Street"/>
    <tag k="ref" v="A10"/>
    <tag k="sidewalk:right" v="separate"/>
    <tag k="source:name" v="dictaphone"/>
    <tag k="surface" v="asphalt"/>
  </way>
  <way id="5002126" version="19" timestamp="2025-02-27T20:14:48Z" changeset="163027404" uid="5229644" user="Nathan_A_RF">
    <nd ref="21281539"/>
    <nd ref="3279498083"/>
    <nd ref="5276159"/>
    <nd ref="12607098942"/>
    <tag k="cycleway:right" v="separate"/>
    <tag k="highway" v="trunk"/>
    <tag k="lanes" v="2"/>
    <tag k="lit" v="yes"/>
    <tag k="maxspeed" v="30 mph"/>
    <tag k="maxspeed:type" v="GB:nsl_restricted"/>
    <tag k="name" v="Royston Road"/>
    <tag k="ref" v="A10"/>
    <tag k="sidewalk:right" v="separate"/>
    <tag k="source" v="OS Opendata StreetView"/>
    <tag k="source:name" v="OS Opendata StreetView"/>
    <tag k="surface" v="asphalt"/>
  </way>
  <way id="5554179" version="47" timestamp="2022-10-30T20:02:11Z" changeset="128261539" uid="3560" user="Firefishy">
    <nd ref="328532"/>
    <nd ref="671212969"/>
    <nd ref="671212970"/>
    <nd ref="328531"/>
    <nd ref="671212971"/>
    <nd ref="671212736"/>
    <nd ref="328528"/>
    <nd ref="671212497"/>
    <nd ref="671212498"/>
    <nd ref="1411857505"/>
    <nd ref="328536"/>
    <nd ref="671212321"/>
    <nd ref="671212323"/>
    <nd ref="1411857497"/>
    <nd ref="671212324"/>
    <nd ref="1411857504"/>
    <nd ref="1411857487"/>
    <nd ref="328538"/>
    <nd ref="671212173"/>
    <nd ref="1411857498"/>
    <nd ref="1411857496"/>
    <nd ref="1411857491"/>
    <nd ref="671211361"/>
    <nd ref="671211362"/>
    <nd ref="671211363"/>
    <nd ref="671211359"/>
    <nd ref="671211360"/>
    <nd ref="328540"/>
    <nd ref="322239490"/>
    <nd ref="20590602"/>
    <nd ref="328542"/>
    <nd ref="1411857489"/>
    <nd ref="328544"/>
    <nd ref="671210564"/>
    <nd ref="671210565"/>
    <nd ref="1411857499"/>
    <nd ref="231596"/>
    <nd ref="671210454"/>
    <nd ref="671210455"/>
    <nd ref="231594"/>
    <nd ref="671210456"/>
    <nd ref="671210414"/>
    <nd ref="671210416"/>
    <nd ref="33129749"/>
    <nd ref="671209818"/>
    <nd ref="231583"/>
    <nd ref="671209762"/>
    <nd ref="671209763"/>
    <nd ref="671209815"/>
    <nd ref="1779185021"/>
    <nd ref="671209764"/>
    <nd ref="231584"/>
    <nd ref="671209765"/>
    <nd ref="671209766"/>
    <nd ref="231582"/>
    <nd ref="671209438"/>
    <nd ref="231578"/>
    <nd ref="231571"/>
    <nd ref="583192483"/>
    <nd ref="583192484"/>
    <nd ref="583192488"/>
    <nd ref="583192494"/>
    <nd ref="583192512"/>
    <nd ref="583192514"/>
    <nd ref="25779953"/>
    <tag k="carriageway_ref" v="A"/>
    <tag k="description" v="Cambridge Western Bypass"/>
    <tag k="highway" v="motorway"/>
    <tag k="lanes" v="2"/>
    <tag k="lit" v="no"/>
    <tag k="maxheight" v="default"/>
    <tag k="maxspeed" v="70 mph"/>
    <tag k="national_highways:area" v="8"/>
    <tag k="oneway" v="yes"/>
    <tag k="operator" v="National Highways"/>
    <tag k="operator:wikidata" v="Q5760006"/>
    <tag k="ref" v="M11"/>
    <tag k="source:ref" v="local knowledge"/>
    <tag k="surface" v="asphalt"/>
  </way>
  <way id="44606526" version="13" timestamp="2025-02-27T20:14:48Z" changeset="163027404" uid="5229644" user="Nathan_A_RF">
    <nd ref="33129086"/>
    <nd ref="582686432"/>
    <nd ref="1818352050"/>
    <nd ref="33129085"/>
    <nd ref="8594415028"/>
    <nd ref="1818352448"/>
    <nd ref="1818352642"/>
    <nd ref="33129083"/>
    <nd ref="1818352674"/>
    <nd ref="1818352725"/>
    <nd ref="1818353012"/>
    <nd ref="33129082"/>
    <nd ref="1818355513"/>
    <nd ref="1818082206"/>
    <nd ref="626490720"/>
    <tag k="abutters" v="residential"/>
    <tag k="highway" v="secondary"/>
    <tag k="lit" v="yes"/>
    <tag k="maxspeed" v="40 mph"/>
    <tag k="name" v="London Road"/>
    <tag k="ref" v="B1368"/>
    <tag k="sidewalk" v="both"/>
    <tag k="source:name" v="dictaphone"/>
  </way>
  <way id="44606527" version="11" timestamp="2025-02-27T20:14:48Z" changeset="163027404" uid="5229644" user="Nathan_A_RF">
    <nd ref="566364709"/>
    <nd ref="566364713"/>
    <nd ref="566364716"/>
    <nd ref="12624039342"/>
    <nd ref="33129066"/>
    <tag k="cycleway:left" v="separate"/>
    <tag k="cycleway:right" v="no"/>
    <tag k="highway" v="trunk"/>
    <tag k="lanes" v="1"/>
    <tag k="lit" v="yes"/>
    <tag k="maxspeed" v="30 mph"/>
    <tag k="maxspeed:type" v="GB:nsl_restricted"/>
    <tag k="name" v="Cambridge Road"/>
    <tag k="oneway" v="yes"/>
    <tag k="ref" v="A10"/>
    <tag k="sidewalk:left" v="separate"/>
    <tag k="source" v="yahoo"/>
    <tag k="source:lit" v="survey (Oct 2010)"/>
    <tag k="surface" v="asphalt"/>
  </way>
  <way id="44606528" version="10" timestamp="2025-02-27T20:14:48Z" changeset="163027404" uid="5229644" user="Nathan_A_RF">
    <nd ref="566364712"/>
    <nd ref="11981064258"/>
    <nd ref="33129064"/>
    <tag k="highway" v="trunk"/>
    <tag k="lanes" v="1"/>
    <tag k="lit" v="yes"/>
    <tag k="maxspeed" v="30 mph"/>
    <tag k="maxspeed:type" v="GB:nsl_restricted"/>
    <tag k="name" v="High Street"/>
    <tag k="oneway" v="yes"/>
    <tag k="ref" v="A10"/>
    <tag k="source" v="aerials"/>
    <tag k="surface" v="asphalt"/>
  </way>
  <way id="44606529" version="10" timestamp="2025-02-27T20:14:48Z" changeset="163027404" uid="5229644" user="Nathan_A_RF">
    <nd ref="33129066"/>
    <nd ref="566364717"/>
    <nd ref="2400307272"/>
    <nd ref="566364714"/>
    <nd ref="12624039347"/>
    <nd ref="12624039343"/>
    <nd ref="566364712"/>
    <tag k="highway" v="trunk"/>
    <tag k="lanes" v="2"/>
    <tag k="lit" v="yes"/>
    <tag k="maxspeed" v="30 mph"/>
    <tag k="maxspeed:type" v="GB:nsl_restricted"/>
    <tag k="name" v="Cambridge Road"/>
    <tag k="oneway" v="yes"/>
    <tag k="ref" v="A10"/>
    <tag k="source" v="yahoo"/>
    <tag k="source:lit" v="survey (Oct 2010)"/>
    <tag k="surface" v="asphalt"/>
  </way>
  <way id="45750073" version="5" timestamp="2019-08-14T11:46:08Z" changeset="73344790" uid="9310280" user="rsakunth">
    <nd ref="582686276"/>
    <nd ref="582686279"/>
    <nd ref="6709839052"/>
    <nd ref="25779996"/>
    <nd ref="582686253"/>
    <nd ref="586643657"/>
    <nd ref="582686256"/>
    <nd ref="582686259"/>
    <nd ref="582686261"/>
    <nd ref="586643666"/>
    <nd ref="582686276"/>
    <tag k="addr:city" v="Cambridge"/>
    <tag k="addr:housename" v="The Barn"/>
    <tag k="addr:postcode" v="CB22 5HL"/>
    <tag k="addr:street" v="Newton Road"/>
    <tag k="addr:village" v="Little Shelford"/>
    <tag k="landuse" v="commercial"/>
    <tag k="name" v="Redback Design"/>
    <tag k="source" v="yahoo"/>
    <tag k="source:addr" v="Redback Design"/>
    <tag k="url" v="http://www.redbackdesign.co.uk/"/>
  </way>
  <way id="45750240" version="3" timestamp="2024-06-14T15:17:03Z" changeset="152684838" uid="953779" user="Adam Edwards">
    <nd ref="33129067"/>
    <nd ref="11981074329"/>
    <nd ref="8806530981"/>
    <nd ref="8806530983"/>
    <nd ref="33129275"/>
    <nd ref="33129276"/>
    <tag k="highway" v="residential"/>
    <tag k="name" v="New Road"/>
    <tag k="source:name" v="dictaphone"/>
  </way>
  <way id="47429619" version="3" timestamp="2012-07-08T18:51:24Z" changeset="12153390" uid="714383" user="alterain">
    <nd ref="33129189"/>
    <nd ref="32639057"/>
    <tag k="bridge" v="yes"/>
    <tag k="highway" v="tertiary"/>
    <tag k="lanes" v="1"/>
    <tag k="layer" v="2"/>
    <tag k="surface" v="asphalt"/>
  </way>
  <way id="48750292" version="11" timestamp="2025-02-27T20:14:48Z" changeset="163027404" uid="5229644" user="Nathan_A_RF">
    <nd ref="626490720"/>
    <nd ref="33129081"/>
    <nd ref="566364710"/>
    <tag k="abutters" v="residential"/>
    <tag k="cycleway:both" v="no"/>
    <tag k="highway" v="secondary"/>
    <tag k="lanes" v="2"/>
    <tag k="lit" v="yes"/>
    <tag k="maxspeed" v="30 mph"/>
    <tag k="name" v="London Road"/>
    <tag k="ref" v="B1368"/>
    <tag k="sidewalk" v="both"/>
    <tag k="source:lit" v="survey (Oct 2010)"/>
    <tag k="source:name" v="dictaphone"/>
    <tag k="surface" v="asphalt"/>
  </way>
  <way id="54847892" version="11" timestamp="2025-02-27T20:14:48Z" changeset="163027404" uid="5229644" user="Nathan_A_RF">
    <nd ref="33129183"/>
    <nd ref="1657933419"/>
    <nd ref="1858758435"/>
    <nd ref="1437445110"/>
    <nd ref="12607120324"/>
    <nd ref="33129077"/>
    <tag k="highway" v="tertiary"/>
    <tag k="lanes" v="2"/>
    <tag k="maxspeed" v="30 mph"/>
    <tag k="name" v="Station Road"/>
    <tag k="sidewalk:left" v="separate"/>
    <tag k="surface" v="asphalt"/>
  </way>
  <way id="54847893" version="12" timestamp="2025-02-27T20:14:48Z" changeset="163027404" uid="5229644" user="Nathan_A_RF">
    <nd ref="690420433"/>
    <nd ref="33129180"/>
    <nd ref="1859551606"/>
    <nd ref="33129181"/>
    <nd ref="2068489511"/>
    <nd ref="3941588029"/>
    <nd ref="33129182"/>
    <nd ref="4332956573"/>
    <nd ref="1437445138"/>
    <nd ref="33129183"/>
    <tag k="abutters" v="residential"/>
    <tag k="highway" v="tertiary"/>
    <tag k="lanes" v="2"/>
    <tag k="maxspeed" v="30 mph"/>
    <tag k="name" v="Station Road"/>
    <tag k="source:name" v="dictaphone"/>
    <tag k="surface" v="asphalt"/>
  </way>
  <way id="84497328" version="11" timestamp="2025-02-21T14:50:46Z" changeset="162784001" uid="5008136" user="JayTurnr">
    <nd ref="981680276"/>
    <nd ref="981680523"/>
    <tag k="bridge" v="yes"/>
    <tag k="bridge:name" v="Hoffer Bridge"/>
    <tag k="cycleway:right" v="separate"/>
    <tag k="highway" v="trunk"/>
    <tag k="lanes" v="2"/>
    <tag k="layer" v="1"/>
    <tag k="lit" v="no"/>
    <tag k="maxspeed" v="60 mph"/>
    <tag k="maxspeed:type" v="GB:nsl_single"/>
    <tag k="maxweight:signed" v="no"/>
    <tag k="name" v="Royston Road"/>
    <tag k="ref" v="A10"/>
    <tag k="sidewalk:right" v="separate"/>
    <tag k="source" v="OS Opendata StreetView"/>
    <tag k="source:name" v="OS Opendata StreetView"/>
    <tag k="surface" v="asphalt"/>
  </way>
  <way id="88762735" version="5" timestamp="2023-06-23T09:42:28Z" changeset="137680912" uid="242345" user="confusedbuffalo">
    <nd ref="25779998"/>
    <nd ref="544548713"/>
    <nd ref="25780000"/>
    <nd ref="33129093"/>
    <nd ref="33129094"/>
    <nd ref="622204292"/>
    <tag k="FIXME:nsl" v="inferred single-carriageway NSL - remove this tag once verified"/>
    <tag k="highway" v="secondary"/>
    <tag k="incline" v="yes"/>
    <tag k="lanes" v="2"/>
    <tag k="lit" v="no"/>
    <tag k="maxspeed" v="60 mph"/>
    <tag k="maxspeed:type" v="GB:nsl_single"/>
    <tag k="name" v="St Margaret's Mount"/>
    <tag k="ref" v="B1368"/>
    <tag k="source:lit" v="survey (Oct 2010)"/>
    <tag k="source:ref" v="dictaphone"/>
  </way>
  <way id="97253018" version="2" timestamp="2015-06-23T21:21:10Z" changeset="32171298" uid="2032231" user="narboy">
    <nd ref="5276169"/>
    <nd ref="3613554978"/>
    <nd ref="697031233"/>
    <nd ref="21076369"/>
    <nd ref="697031225"/>
    <nd ref="5276170"/>
    <nd ref="5276171"/>
    <nd ref="33129189"/>
    <tag k="abutters" v="residential"/>
    <tag k="highway" v="tertiary"/>
    <tag k="name" v="Haslingfield Road"/>
    <tag k="source:name" v="dictaphone"/>
  </way>
  <way id="97253021" version="6" timestamp="2021-11-10T19:27:32Z" changeset="113622711" uid="7675562" user="ChildishGiant">
    <nd ref="1126540966"/>
    <nd ref="3613554977"/>
    <nd ref="21076369"/>
    <tag k="abutters" v="residential"/>
    <tag k="cycleway:both" v="no"/>
    <tag k="highway" v="tertiary"/>
    <tag k="lane_markings" v="no"/>
    <tag k="lit" v="yes"/>
    <tag k="maxspeed:type" v="GB:nsl_restricted"/>
    <tag k="name" v="Church Street"/>
    <tag k="source:name" v="dictaphone"/>
    <tag k="surface" v="asphalt"/>
  </way>
  <way id="140295413" version="8" timestamp="2023-12-29T13:24:23Z" changeset="145661344" uid="242345" user="confusedbuffalo">
    <nd ref="1537175163"/>
    <nd ref="981680540"/>
    <nd ref="5276173"/>
    <nd ref="981680329"/>
    <nd ref="534739948"/>
    <nd ref="981680279"/>
    <nd ref="21281540"/>
    <nd ref="981680529"/>
    <nd ref="534740008"/>
    <nd ref="981680391"/>
    <nd ref="5276174"/>
    <nd ref="2314193578"/>
    <nd ref="981680403"/>
    <nd ref="981680276"/>
    <tag k="cycleway:right" v="separate"/>
    <tag k="highway" v="trunk"/>
    <tag k="lanes" v="2"/>
    <tag k="lit" v="no"/>
    <tag k="maxspeed" v="60 mph"/>
    <tag k="maxspeed:type" v="GB:nsl_single"/>
    <tag k="name" v="Royston Road"/>
    <tag k="ref" v="A10"/>
    <tag k="sidewalk:right" v="separate"/>
    <tag k="source" v="OS Opendata StreetView"/>
    <tag k="source:name" v="OS Opendata StreetView"/>
    <tag k="surface" v="asphalt"/>
  </way>
  <way id="152992812" version="3" timestamp="2017-01-09T12:44:49Z" changeset="45025599" uid="1287673" user="sloerunner">
    <nd ref="1657503707"/>
    <nd ref="1657503702"/>
    <nd ref="1657503667"/>
    <nd ref="1657503682"/>
    <nd ref="1657503689"/>
    <nd ref="1657503692"/>
    <nd ref="1657503697"/>
    <nd ref="1657503714"/>
    <nd ref="1657503710"/>
    <nd ref="1657503707"/>
    <tag k="addr:housenumber" v="48"/>
    <tag k="addr:postcode" v="CB22 7NH"/>
    <tag k="addr:street" v="Royston Road"/>
    <tag k="amenity" v="restaurant"/>
    <tag k="building" v="yes"/>
    <tag k="cuisine" v="thai"/>
    <tag k="name" v="Queens Head"/>
    <tag k="source" v="local knowledge"/>
    <tag k="website" v="http://threehorseshoesharston.com"/>
  </way>
  <way id="153045380" version="3" timestamp="2024-04-01T11:09:31Z" changeset="149429050" uid="7675562" user="ChildishGiant">
    <nd ref="33129209"/>
    <nd ref="1657959994"/>
    <nd ref="1657959996"/>
    <tag k="check_date" v="2024-03-31"/>
    <tag k="highway" v="residential"/>
    <tag k="name" v="Lawrance Lea"/>
    <tag k="note" v="Realign with not full Bing zoom? Check with GPS"/>
    <tag k="source" v="Bing (full zoom)"/>
    <tag k="surface" v="asphalt"/>
  </way>
  <way id="170356068" version="5" timestamp="2021-11-03T10:54:46Z" changeset="113325682" uid="7675562" user="ChildishGiant">
    <nd ref="1815058972"/>
    <nd ref="1815058983"/>
    <nd ref="1815058984"/>
    <nd ref="1815058842"/>
    <nd ref="1815058903"/>
    <nd ref="1815058906"/>
    <nd ref="1815058921"/>
    <nd ref="1815058840"/>
    <nd ref="1815058972"/>
    <tag k="addr:housenumber" v="5"/>
    <tag k="addr:street" v="Church Street"/>
    <tag k="building" v="detached"/>
    <tag k="building:levels" v="2"/>
  </way>
  <way id="170356074" version="4" timestamp="2021-11-03T10:56:30Z" changeset="113325786" uid="7675562" user="ChildishGiant">
    <nd ref="1815058888"/>
    <nd ref="1815058920"/>
    <nd ref="1815058860"/>
    <nd ref="1815058988"/>
    <nd ref="1815058872"/>
    <nd ref="1815058963"/>
    <nd ref="1815058960"/>
    <nd ref="1815058962"/>
    <nd ref="1815058932"/>
    <nd ref="1815058888"/>
    <tag k="addr:housenumber" v="18, 16"/>
    <tag k="addr:street" v="Church Street"/>
    <tag k="building" v="yes"/>
  </way>
  <way id="170356077" version="6" timestamp="2021-11-03T10:54:29Z" changeset="113325682" uid="7675562" user="ChildishGiant">
    <nd ref="1815059011"/>
    <nd ref="1815058946"/>
    <nd ref="1815058945"/>
    <nd ref="1815058940"/>
    <nd ref="1858745544"/>
    <nd ref="1858745545"/>
    <nd ref="1858745548"/>
    <nd ref="1815058896"/>
    <nd ref="1815058874"/>
    <nd ref="1815058841"/>
    <nd ref="1815058968"/>
    <nd ref="1815059011"/>
    <tag k="addr:housenumber" v="1"/>
    <tag k="addr:street" v="Church Street"/>
    <tag k="building" v="detached"/>
    <tag k="building:levels" v="2"/>
  </way>
  <way id="170356083" version="6" timestamp="2021-11-03T10:55:30Z" changeset="113325786" uid="7675562" user="ChildishGiant">
    <nd ref="1815058901"/>
    <nd ref="1815058887"/>
    <nd ref="1815058964"/>
    <nd ref="1815058917"/>
    <nd ref="1815058941"/>
    <nd ref="1815058892"/>
    <nd ref="1815058864"/>
    <nd ref="1815058950"/>
    <nd ref="1815058990"/>
    <nd ref="1815058898"/>
    <nd ref="1815058901"/>
    <tag k="addr:housenumber" v="11"/>
    <tag k="addr:street" v="Church Street"/>
    <tag k="amenity" v="doctors"/>
    <tag k="building" v="yes"/>
    <tag k="name" v="Harston Surgery"/>
  </way>
  <way id="170356084" version="3" timestamp="2021-11-03T10:54:57Z" changeset="113325786" uid="7675562" user="ChildishGiant">
    <nd ref="1815059018"/>
    <nd ref="1815058956"/>
    <nd ref="1815058936"/>
    <nd ref="1815058855"/>
    <nd ref="1815058837"/>
    <nd ref="1815058987"/>
    <nd ref="1815059018"/>
    <tag k="addr:housenumber" v="9, 7"/>
    <tag k="addr:street" v="Church Street"/>
    <tag k="building" v="yes"/>
  </way>
  <way id="170356217" version="4" timestamp="2019-02-04T10:43:08Z" changeset="66899076" uid="5173844" user="ndrw6">
    <nd ref="1815060043"/>
    <nd ref="1815060030"/>
    <nd ref="1815060040"/>
    <nd ref="1815060034"/>
    <nd ref="1815060029"/>
    <nd ref="1815060028"/>
    <nd ref="1815060051"/>
    <nd ref="1815060056"/>
    <nd ref="1815060043"/>
    <tag k="addr:city" v="Cambridge"/>
    <tag k="addr:housenumber" v="31, 29"/>
    <tag k="addr:postcode" v="CB22 7NP"/>
    <tag k="addr:street" v="Church Street"/>
    <tag k="addr:village" v="Harston"/>
    <tag k="building" v="yes"/>
  </way>
  <way id="170356218" version="4" timestamp="2021-11-03T10:56:34Z" changeset="113325786" uid="7675562" user="ChildishGiant">
    <nd ref="1815060019"/>
    <nd ref="1815060049"/>
    <nd ref="1815060055"/>
    <nd ref="1815060047"/>
    <nd ref="1815060052"/>
    <nd ref="1815060038"/>
    <nd ref="1815060019"/>
    <tag k="addr:housenumber" v="17, 15"/>
    <tag k="addr:street" v="Church Street"/>
    <tag k="building" v="yes"/>
  </way>
  <way id="170356969" version="3" timestamp="2019-02-04T10:43:08Z" changeset="66899076" uid="5173844" user="ndrw6">
    <nd ref="1815065662"/>
    <nd ref="1815065787"/>
    <nd ref="1815065808"/>
    <nd ref="1815065653"/>
    <nd ref="1815065683"/>
    <nd ref="2911078447"/>
    <nd ref="2911078448"/>
    <nd ref="2911078449"/>
    <nd ref="2911078450"/>
    <nd ref="1815065784"/>
    <nd ref="1815065686"/>
    <nd ref="1815065770"/>
    <nd ref="1815065662"/>
    <tag k="addr:city" v="Cambridge"/>
    <tag k="addr:housenumber" v="43"/>
    <tag k="addr:postcode" v="CB22 7NP"/>
    <tag k="addr:street" v="Church Street"/>
    <tag k="addr:village" v="Harston"/>
    <tag k="building" v="house"/>
  </way>
  <way id="170358095" version="4" timestamp="2019-02-04T10:43:08Z" changeset="66899076" uid="5173844" user="ndrw6">
    <nd ref="1815076764"/>
    <nd ref="1815076762"/>
    <nd ref="1815077061"/>
    <nd ref="1815076979"/>
    <nd ref="1815076839"/>
    <nd ref="1815076957"/>
    <nd ref="1815076981"/>
    <nd ref="1815076709"/>
    <nd ref="1815076768"/>
    <nd ref="1815076764"/>
    <tag k="addr:city" v="Cambridge"/>
    <tag k="addr:housenumber" v="8, 6"/>
    <tag k="addr:postcode" v="CB22 7NT"/>
    <tag k="addr:street" v="Haslingfield Road"/>
    <tag k="addr:village" v="Harston"/>
    <tag k="building" v="yes"/>
  </way>
  <way id="170361173" version="4" timestamp="2025-03-09T15:13:27Z" changeset="163404926" uid="493595" user="Yorvik Prestigitator">
    <nd ref="1815105039"/>
    <nd ref="1815105036"/>
    <nd ref="1815105029"/>
    <nd ref="1815105030"/>
    <nd ref="1815105038"/>
    <nd ref="1815105031"/>
    <nd ref="1815105040"/>
    <nd ref="1815105028"/>
    <nd ref="1815105034"/>
    <nd ref="1815105033"/>
    <nd ref="1815105035"/>
    <nd ref="1815105027"/>
    <nd ref="1815105037"/>
    <nd ref="12310105890"/>
    <nd ref="12310105889"/>
    <nd ref="12310105888"/>
    <nd ref="12310105891"/>
    <nd ref="1815105032"/>
    <nd ref="12310105895"/>
    <nd ref="12310105893"/>
    <nd ref="1852929296"/>
    <nd ref="12310105892"/>
    <nd ref="12309553801"/>
    <nd ref="12310105894"/>
    <nd ref="1815105039"/>
    <tag k="addr:city" v="Harston"/>
    <tag k="addr:street" v="High Street"/>
    <tag k="amenity" v="community_centre"/>
    <tag k="building" v="public"/>
    <tag k="community_centre" v="village_hall"/>
    <tag k="name" v="Harston Village Hall"/>
  </way>
  <way id="170361230" version="6" timestamp="2022-08-10T11:03:28Z" changeset="124725398" uid="6816132" user="CjMalone">
    <nd ref="1815107133"/>
    <nd ref="2865074483"/>
    <nd ref="1815107131"/>
    <nd ref="1815107135"/>
    <nd ref="1815107128"/>
    <nd ref="1815107102"/>
    <nd ref="1815107125"/>
    <nd ref="1815107119"/>
    <nd ref="1815107122"/>
    <nd ref="1815107133"/>
    <tag k="addr:housenumber" v="28"/>
    <tag k="addr:postcode" v="CB22 7PX"/>
    <tag k="addr:street" v="High Street"/>
    <tag k="air_conditioning" v="yes"/>
    <tag k="amenity" v="post_office"/>
    <tag k="brand" v="Costcutter"/>
    <tag k="brand:wikidata" v="Q5175072"/>
    <tag k="brand:wikipedia" v="en:Costcutter"/>
    <tag k="building" v="retail"/>
    <tag k="contact:website" v="https://store-locator.costcutter.co.uk/costcutter-ff25e4c0c1dd"/>
    <tag k="name" v="Costcutter"/>
    <tag k="phone" v="+44 12238 70758"/>
    <tag k="shop" v="convenience"/>
  </way>
  <way id="170361732" version="6" timestamp="2019-02-04T10:43:09Z" changeset="66899076" uid="5173844" user="ndrw6">
    <nd ref="1815109442"/>
    <nd ref="1815109437"/>
    <nd ref="1815109439"/>
    <nd ref="5249838029"/>
    <nd ref="1815109432"/>
    <nd ref="1815109442"/>
    <tag k="addr:city" v="Cambridge"/>
    <tag k="addr:housenumber" v="59/61"/>
    <tag k="addr:postcode" v="CB22 7PZ"/>
    <tag k="addr:street" v="High Street"/>
    <tag k="addr:village" v="Harston"/>
    <tag k="building" v="yes"/>
  </way>
  <way id="170362729" version="5" timestamp="2023-01-28T00:30:39Z" changeset="131792931" uid="3999" user="BarryMyles">
    <nd ref="1815117636"/>
    <nd ref="1815117638"/>
    <nd ref="1815117640"/>
    <nd ref="1815117641"/>
    <nd ref="1815117639"/>
    <nd ref="1815117637"/>
    <nd ref="7230435700"/>
    <nd ref="7230435701"/>
    <nd ref="1815117636"/>
    <tag k="addr:city" v="Harston"/>
    <tag k="addr:postcode" v="CB22 7PX"/>
    <tag k="addr:street" v="High Street"/>
    <tag k="building" v="yes"/>
    <tag k="name" v="Harston Telephone Exchange"/>
    <tag k="operator" v="Openreach"/>
    <tag k="operator:wikidata" v="Q7096543"/>
    <tag k="ref" v="EAHST"/>
    <tag k="telecom" v="exchange"/>
  </way>
  <way id="170363033" version="8" timestamp="2020-02-20T12:07:33Z" changeset="81271070" uid="10804708" user="mobiusmap">
    <nd ref="1815121060"/>
    <nd ref="1815121068"/>
    <nd ref="1815121083"/>
    <nd ref="1815121065"/>
    <nd ref="1815121078"/>
    <nd ref="1815121079"/>
    <nd ref="1815121062"/>
    <nd ref="1815121072"/>
    <nd ref="1815121082"/>
    <nd ref="1815121061"/>
    <nd ref="1815121070"/>
    <nd ref="1815121071"/>
    <nd ref="1815121060"/>
    <tag k="addr:housename" v="Neptune Furniture"/>
    <tag k="addr:housenumber" v="21"/>
    <tag k="addr:street" v="High Street"/>
    <tag k="building" v="retail"/>
    <tag k="building:levels" v="2"/>
    <tag k="name" v="Neptune Furniture"/>
    <tag k="website" v="https://www.neptune.com/our-stores/uk/cambridge/"/>
  </way>
  <way id="170363034" version="6" timestamp="2022-05-11T11:46:55Z" changeset="120836512" uid="1407308" user="mandelmaker">
    <nd ref="1815121066"/>
    <nd ref="1815121063"/>
    <nd ref="1815121074"/>
    <nd ref="1815121073"/>
    <nd ref="1815121066"/>
    <tag k="addr:housenumber" v="142"/>
    <tag k="addr:postcode" v="CB22 7TN"/>
    <tag k="addr:street" v="High Street"/>
    <tag k="building" v="yes"/>
    <tag k="disused" v="yes"/>
  </way>
  <way id="170363035" version="6" timestamp="2021-10-10T22:33:24Z" changeset="112350781" uid="7675562" user="ChildishGiant">
    <nd ref="1815121076"/>
    <nd ref="1853232350"/>
    <nd ref="1853232347"/>
    <nd ref="1853232351"/>
    <nd ref="1853232346"/>
    <nd ref="1853232348"/>
    <nd ref="1815121064"/>
    <nd ref="1815121077"/>
    <nd ref="1853232352"/>
    <nd ref="1853232345"/>
    <nd ref="1815121075"/>
    <nd ref="1815121076"/>
    <tag k="addr:city" v="Cambridge"/>
    <tag k="addr:housename" v="Porsche Centre Cambridge"/>
    <tag k="addr:postcode" v="CB22 7QD"/>
    <tag k="addr:street" v="High Street"/>
    <tag k="addr:village" v="Harston"/>
    <tag k="brand" v="Porsche"/>
    <tag k="brand:wikidata" v="Q40993"/>
    <tag k="brand:wikipedia" v="en:Porsche"/>
    <tag k="building" v="yes"/>
    <tag k="name" v="Porsche Centre Cambridge"/>
    <tag k="opening_hours" v="Mo-Fr 08:30-18:00; Sa 09:00-17:00"/>
    <tag k="opening_hours:workshop" v="Mo-Fr 08:30-18:00; Sa 08:30-12:30"/>
    <tag k="phone" v="+44 1223 964084"/>
    <tag k="second_hand" v="yes"/>
    <tag k="service:vehicle:car_parts" v="yes"/>
    <tag k="service:vehicle:service" v="yes"/>
    <tag k="shop" v="car"/>
    <tag k="website" v="https://www.porschecambridge.co.uk"/>
  </way>
  <way id="170451170" version="3" timestamp="2021-11-03T11:11:12Z" changeset="113325786" uid="7675562" user="ChildishGiant">
    <nd ref="1815893749"/>
    <nd ref="1815893642"/>
    <nd ref="1815893688"/>
    <nd ref="1815893740"/>
    <nd ref="1815893708"/>
    <nd ref="1815893686"/>
    <nd ref="1815893657"/>
    <nd ref="1815893525"/>
    <nd ref="1815893749"/>
    <tag k="addr:housenumber" v="29, 27"/>
    <tag k="addr:street" v="Royston Road"/>
    <tag k="building" v="yes"/>
  </way>
  <way id="170451172" version="3" timestamp="2021-11-03T10:51:55Z" changeset="113325786" uid="7675562" user="ChildishGiant">
    <nd ref="1815893540"/>
    <nd ref="1815893734"/>
    <nd ref="1815893644"/>
    <nd ref="1815893500"/>
    <nd ref="1815893540"/>
    <tag k="addr:housenumber" v="15"/>
    <tag k="addr:street" v="Royston Road"/>
    <tag k="building" v="yes"/>
  </way>
  <way id="170451179" version="4" timestamp="2021-11-03T11:11:46Z" changeset="113325677" uid="7675562" user="ChildishGiant">
    <nd ref="1815893666"/>
    <nd ref="1815893715"/>
    <nd ref="1815893501"/>
    <nd ref="1815893630"/>
    <nd ref="1815893628"/>
    <nd ref="1815893566"/>
    <nd ref="1815893724"/>
    <nd ref="1815893539"/>
    <nd ref="1815893610"/>
    <nd ref="1815893533"/>
    <nd ref="1815893684"/>
    <nd ref="1815893494"/>
    <nd ref="1815893467"/>
    <nd ref="1815893689"/>
    <nd ref="1815893666"/>
    <tag k="addr:housenumber" v="25"/>
    <tag k="addr:street" v="Royston Road"/>
    <tag k="building" v="detached"/>
  </way>
  <way id="170451180" version="4" timestamp="2021-11-14T18:01:23Z" changeset="113773348" uid="242345" user="confusedbuffalo">
    <nd ref="1815893733"/>
    <nd ref="1815893694"/>
    <nd ref="1815893481"/>
    <nd ref="1815893596"/>
    <nd ref="1815893703"/>
    <nd ref="1815893693"/>
    <nd ref="1815893629"/>
    <nd ref="1815893621"/>
    <nd ref="1815893662"/>
    <nd ref="1815893473"/>
    <nd ref="1815893655"/>
    <nd ref="1815893654"/>
    <nd ref="1815893733"/>
    <tag k="addr:city" v="Cambridge"/>
    <tag k="addr:housenumber" v="11"/>
    <tag k="addr:postcode" v="CB22 7NH"/>
    <tag k="addr:street" v="Royston Road"/>
    <tag k="addr:village" v="Harston"/>
    <tag k="building" v="yes"/>
  </way>
  <way id="170451181" version="7" timestamp="2021-11-14T18:01:23Z" changeset="113773348" uid="242345" user="confusedbuffalo">
    <nd ref="9251049904"/>
    <nd ref="1815893714"/>
    <nd ref="1815893670"/>
    <nd ref="1815893767"/>
    <nd ref="1815893465"/>
    <nd ref="1815893782"/>
    <nd ref="9251049900"/>
    <nd ref="9251049904"/>
    <tag k="addr:city" v="Cambridge"/>
    <tag k="addr:housenumber" v="5"/>
    <tag k="addr:postcode" v="CB22 7PU"/>
    <tag k="addr:street" v="Royston Road"/>
    <tag k="addr:village" v="Harston"/>
    <tag k="building" v="semidetached_house"/>
  </way>
  <way id="170451182" version="5" timestamp="2021-11-14T18:01:23Z" changeset="113773348" uid="242345" user="confusedbuffalo">
    <nd ref="1815893647"/>
    <nd ref="1815893607"/>
    <nd ref="1815893738"/>
    <nd ref="1815893493"/>
    <nd ref="1815893492"/>
    <nd ref="1815893521"/>
    <nd ref="1815893553"/>
    <nd ref="1815893620"/>
    <nd ref="1815893640"/>
    <nd ref="1815893774"/>
    <nd ref="1815893742"/>
    <nd ref="1815893695"/>
    <nd ref="1815893756"/>
    <nd ref="1815893658"/>
    <nd ref="1815893577"/>
    <nd ref="1815893548"/>
    <nd ref="1815893680"/>
    <nd ref="1815893585"/>
    <nd ref="1815893645"/>
    <nd ref="1815893783"/>
    <nd ref="1815893482"/>
    <nd ref="1815893633"/>
    <nd ref="1815893635"/>
    <nd ref="1815893623"/>
    <nd ref="1815893663"/>
    <nd ref="1815893602"/>
    <nd ref="1815893511"/>
    <nd ref="1815893587"/>
    <nd ref="1815893753"/>
    <nd ref="1815893647"/>
    <tag k="addr:city" v="Cambridge"/>
    <tag k="addr:housenumber" v="9"/>
    <tag k="addr:street" v="Royston Road"/>
    <tag k="addr:village" v="Harston"/>
    <tag k="building" v="detached"/>
  </way>
  <way id="170451183" version="5" timestamp="2021-11-14T18:01:23Z" changeset="113773348" uid="242345" user="confusedbuffalo">
    <nd ref="1815893697"/>
    <nd ref="1815893484"/>
    <nd ref="1815893479"/>
    <nd ref="1815893478"/>
    <nd ref="1815893575"/>
    <nd ref="1815893614"/>
    <nd ref="1815893697"/>
    <tag k="addr:city" v="Cambridge"/>
    <tag k="addr:housenumber" v="6"/>
    <tag k="addr:street" v="Station Road"/>
    <tag k="addr:village" v="Harston"/>
    <tag k="building" v="detached"/>
  </way>
  <way id="170451187" version="3" timestamp="2021-11-03T11:11:15Z" changeset="113325786" uid="7675562" user="ChildishGiant">
    <nd ref="1815893613"/>
    <nd ref="1815893617"/>
    <nd ref="1815893643"/>
    <nd ref="1815893665"/>
    <nd ref="1815893613"/>
    <tag k="addr:housenumber" v="33, 31"/>
    <tag k="addr:street" v="Royston Road"/>
    <tag k="building" v="yes"/>
  </way>
  <way id="170451190" version="7" timestamp="2021-11-14T18:01:23Z" changeset="113773348" uid="242345" user="confusedbuffalo">
    <nd ref="1815893778"/>
    <nd ref="1815893772"/>
    <nd ref="1815893488"/>
    <nd ref="1815893751"/>
    <nd ref="1815893469"/>
    <nd ref="1815893776"/>
    <nd ref="9251049897"/>
    <nd ref="1815893778"/>
    <tag k="addr:city" v="Cambridge"/>
    <tag k="addr:housenumber" v="8"/>
    <tag k="addr:street" v="Station Road"/>
    <tag k="addr:village" v="Harston"/>
    <tag k="building" v="semidetached_house"/>
    <tag k="building:levels" v="2"/>
    <tag k="roof:shape" v="gabled"/>
  </way>
  <way id="170451201" version="4" timestamp="2021-11-14T18:01:23Z" changeset="113773348" uid="242345" user="confusedbuffalo">
    <nd ref="1815893605"/>
    <nd ref="1815893624"/>
    <nd ref="1815893616"/>
    <nd ref="1815893716"/>
    <nd ref="1815893588"/>
    <nd ref="1815893518"/>
    <nd ref="1815893534"/>
    <nd ref="1815893649"/>
    <nd ref="1815893605"/>
    <tag k="addr:city" v="Cambridge"/>
    <tag k="addr:housenumber" v="13"/>
    <tag k="addr:postcode" v="CB22 7NH"/>
    <tag k="addr:street" v="Royston Road"/>
    <tag k="addr:village" v="Harston"/>
    <tag k="building" v="yes"/>
  </way>
  <way id="170462846" version="6" timestamp="2024-04-22T22:51:38Z" changeset="150369039" uid="6816132" user="CjMalone">
    <nd ref="1815979771"/>
    <nd ref="1815979809"/>
    <nd ref="1815979797"/>
    <nd ref="1815979842"/>
    <nd ref="1815979752"/>
    <nd ref="1815979740"/>
    <nd ref="1815979786"/>
    <nd ref="1815979794"/>
    <nd ref="1815979840"/>
    <nd ref="1815979737"/>
    <nd ref="1815979771"/>
    <tag k="addr:housenumber" v="123"/>
    <tag k="addr:postcode" v="CB22 7QB"/>
    <tag k="addr:street" v="High Street"/>
    <tag k="amenity" v="fuel"/>
    <tag k="brand" v="BP"/>
    <tag k="brand:wikidata" v="Q152057"/>
    <tag k="brand:wikipedia" v="en:BP"/>
    <tag k="building" v="yes"/>
    <tag k="compressed_air" v="yes"/>
    <tag k="covered" v="colonnade"/>
    <tag k="name" v="BP Harston Service Station"/>
    <tag k="opening_hours" v="24/7"/>
    <tag k="operator" v="Motor Fuel Group"/>
    <tag k="operator:website" v="https://www.motorfuelgroup.com/locations/harston-fs553/"/>
    <tag k="operator:wikidata" v="Q107271358"/>
    <tag k="phone" v="+44 1223 871582"/>
    <tag k="self_service" v="yes"/>
    <tag k="website" v="https://map.bp.com/en-GB/GB/petrol-station/cambridge/harston-s-stn-fs553/4048"/>
  </way>
  <way id="170508206" version="4" timestamp="2019-02-04T10:43:09Z" changeset="66899076" uid="5173844" user="ndrw6">
    <nd ref="1816677342"/>
    <nd ref="1816677011"/>
    <nd ref="1816677271"/>
    <nd ref="1816677278"/>
    <nd ref="1816677404"/>
    <nd ref="1816677265"/>
    <nd ref="1816676978"/>
    <nd ref="1816677172"/>
    <nd ref="1816677342"/>
    <tag k="addr:city" v="Cambridge"/>
    <tag k="addr:housenumber" v="4"/>
    <tag k="addr:postcode" v="CB22 7TR"/>
    <tag k="addr:street" v="High Meadow"/>
    <tag k="addr:village" v="Harston"/>
    <tag k="building" v="yes"/>
  </way>
  <way id="170508956" version="5" timestamp="2019-02-04T10:43:10Z" changeset="66899076" uid="5173844" user="ndrw6">
    <nd ref="1816693234"/>
    <nd ref="1816693063"/>
    <nd ref="1816693042"/>
    <nd ref="1816693201"/>
    <nd ref="1816693234"/>
    <tag k="addr:city" v="Cambridge"/>
    <tag k="addr:housenumber" v="29, 27"/>
    <tag k="addr:postcode" v="CB22 7QW"/>
    <tag k="addr:street" v="Queen's Close"/>
    <tag k="addr:village" v="Harston"/>
    <tag k="building" v="terrace"/>
  </way>
  <way id="170515468" version="4" timestamp="2019-02-04T10:43:10Z" changeset="66899076" uid="5173844" user="ndrw6">
    <nd ref="1816792572"/>
    <nd ref="1816792553"/>
    <nd ref="1816792580"/>
    <nd ref="1816792576"/>
    <nd ref="1816792551"/>
    <nd ref="1816792571"/>
    <nd ref="1816792561"/>
    <nd ref="1816792573"/>
    <nd ref="1816792556"/>
    <nd ref="1816792552"/>
    <nd ref="1816792584"/>
    <nd ref="1816792569"/>
    <nd ref="1816792572"/>
    <tag k="addr:city" v="Cambridge"/>
    <tag k="addr:housenumber" v="3"/>
    <tag k="addr:postcode" v="CB22 7TP"/>
    <tag k="addr:street" v="Moorfield"/>
    <tag k="addr:village" v="Harston"/>
    <tag k="building" v="yes"/>
  </way>
  <way id="170516899" version="2" timestamp="2013-01-11T13:32:48Z" changeset="14610133" uid="281267" user="smb1001">
    <nd ref="1816813858"/>
    <nd ref="1816813921"/>
    <nd ref="1816813989"/>
    <nd ref="1816813834"/>
    <nd ref="1816813858"/>
    <tag k="addr:housenumber" v="24c"/>
    <tag k="addr:postcode" v="CB22 7QH"/>
    <tag k="addr:street" v="London Road"/>
    <tag k="building" v="yes"/>
  </way>
  <way id="170518502" version="2" timestamp="2013-01-11T13:32:48Z" changeset="14610133" uid="281267" user="smb1001">
    <nd ref="1816836499"/>
    <nd ref="1816836671"/>
    <nd ref="1816836550"/>
    <nd ref="1816836690"/>
    <nd ref="1816836623"/>
    <nd ref="1816836625"/>
    <nd ref="1816836676"/>
    <nd ref="1816836624"/>
    <nd ref="1816836397"/>
    <nd ref="1816836593"/>
    <nd ref="1816836499"/>
    <tag k="addr:housenumber" v="24a"/>
    <tag k="addr:postcode" v="CB22 7QH"/>
    <tag k="addr:street" v="London Road"/>
    <tag k="building" v="yes"/>
  </way>
  <way id="170518503" version="4" timestamp="2023-11-04T12:07:17Z" changeset="143609457" uid="20240549" user="Sforzando9500">
    <nd ref="1816836485"/>
    <nd ref="1816836589"/>
    <nd ref="1816836721"/>
    <nd ref="1816836456"/>
    <nd ref="1816836485"/>
    <tag k="addr:housenumber" v="20"/>
    <tag k="addr:postcode" v="CB22 7QH"/>
    <tag k="addr:street" v="London Road"/>
    <tag k="building" v="detached"/>
  </way>
  <way id="170518507" version="3" timestamp="2013-01-11T13:32:49Z" changeset="14610133" uid="281267" user="smb1001">
    <nd ref="1816836430"/>
    <nd ref="1816836725"/>
    <nd ref="1816836549"/>
    <nd ref="1816836643"/>
    <nd ref="1816836430"/>
    <tag k="addr:housenumber" v="22"/>
    <tag k="addr:postcode" v="CB22 7QH"/>
    <tag k="addr:street" v="London Road"/>
    <tag k="building" v="yes"/>
  </way>
  <way id="170518510" version="3" timestamp="2013-01-11T13:32:47Z" changeset="14610133" uid="281267" user="smb1001">
    <nd ref="1816836500"/>
    <nd ref="1816836531"/>
    <nd ref="1816836722"/>
    <nd ref="1816836380"/>
    <nd ref="1816836666"/>
    <nd ref="1816836567"/>
    <nd ref="1816836651"/>
    <nd ref="1816836618"/>
    <nd ref="1816836427"/>
    <nd ref="1816836583"/>
    <nd ref="1816836412"/>
    <nd ref="1816836724"/>
    <nd ref="1816836500"/>
    <tag k="addr:housenumber" v="12"/>
    <tag k="addr:postcode" v="CB22 7QH"/>
    <tag k="addr:street" v="London Road"/>
    <tag k="building" v="yes"/>
  </way>
  <way id="170518516" version="4" timestamp="2019-02-04T10:43:10Z" changeset="66899076" uid="5173844" user="ndrw6">
    <nd ref="1816836685"/>
    <nd ref="1816836408"/>
    <nd ref="1816836385"/>
    <nd ref="1816836695"/>
    <nd ref="1816836685"/>
    <tag k="addr:city" v="Cambridge"/>
    <tag k="addr:housenumber" v="3"/>
    <tag k="addr:postcode" v="CB22 7QS"/>
    <tag k="addr:street" v="The Chestnuts"/>
    <tag k="addr:village" v="Harston"/>
    <tag k="building" v="yes"/>
  </way>
  <way id="170518520" version="2" timestamp="2013-01-11T13:32:49Z" changeset="14610133" uid="281267" user="smb1001">
    <nd ref="1816836587"/>
    <nd ref="1816836590"/>
    <nd ref="1816836488"/>
    <nd ref="1816836422"/>
    <nd ref="1816836418"/>
    <nd ref="1816836399"/>
    <nd ref="1816836699"/>
    <nd ref="1816836592"/>
    <nd ref="1816836587"/>
    <tag k="addr:housenumber" v="26"/>
    <tag k="addr:postcode" v="CB22 7QH"/>
    <tag k="addr:street" v="London Road"/>
    <tag k="building" v="yes"/>
  </way>
  <way id="170518532" version="3" timestamp="2013-01-11T13:32:47Z" changeset="14610133" uid="281267" user="smb1001">
    <nd ref="1816836420"/>
    <nd ref="1816836584"/>
    <nd ref="1816836600"/>
    <nd ref="1816836452"/>
    <nd ref="1816836710"/>
    <nd ref="1816836544"/>
    <nd ref="1816836420"/>
    <tag k="addr:housenumber" v="14"/>
    <tag k="addr:postcode" v="CB22 7QH"/>
    <tag k="addr:street" v="London Road"/>
    <tag k="building" v="yes"/>
  </way>
  <way id="170518534" version="5" timestamp="2018-10-28T23:57:01Z" changeset="63962330" uid="2044927" user="Mariusz Staniszewski">
    <nd ref="1817723812"/>
    <nd ref="1816836612"/>
    <nd ref="1816836566"/>
    <nd ref="1816836463"/>
    <nd ref="1816836432"/>
    <nd ref="1816836486"/>
    <nd ref="1816836481"/>
    <nd ref="1816836650"/>
    <nd ref="1816836653"/>
    <nd ref="1816836728"/>
    <nd ref="1816836641"/>
    <nd ref="1816836386"/>
    <nd ref="1816836494"/>
    <nd ref="1816836520"/>
    <nd ref="1817723812"/>
    <tag k="addr:housenumber" v="8"/>
    <tag k="addr:postcode" v="CB22 7QH"/>
    <tag k="addr:street" v="London Road"/>
    <tag k="building" v="yes"/>
  </way>
  <way id="170518535" version="6" timestamp="2023-11-04T12:07:14Z" changeset="143609457" uid="20240549" user="Sforzando9500">
    <nd ref="1816836580"/>
    <nd ref="1816836445"/>
    <nd ref="1816836570"/>
    <nd ref="1816836461"/>
    <nd ref="1816836603"/>
    <nd ref="1816836538"/>
    <nd ref="1816836580"/>
    <tag k="addr:city" v="Cambridge"/>
    <tag k="addr:housenumber" v="24"/>
    <tag k="addr:postcode" v="CB22 7QH"/>
    <tag k="addr:street" v="London Road"/>
    <tag k="addr:village" v="Harston"/>
    <tag k="building" v="detached"/>
  </way>
  <way id="170518536" version="3" timestamp="2013-01-11T13:32:47Z" changeset="14610133" uid="281267" user="smb1001">
    <nd ref="1816836522"/>
    <nd ref="1816836561"/>
    <nd ref="1816836620"/>
    <nd ref="1816836501"/>
    <nd ref="1816836598"/>
    <nd ref="1816836523"/>
    <nd ref="1816836716"/>
    <nd ref="1816836401"/>
    <nd ref="1816836522"/>
    <tag k="addr:housenumber" v="16"/>
    <tag k="addr:postcode" v="CB22 7QH"/>
    <tag k="addr:street" v="London Road"/>
    <tag k="building" v="yes"/>
  </way>
  <way id="170518549" version="4" timestamp="2023-11-04T12:07:20Z" changeset="143609457" uid="20240549" user="Sforzando9500">
    <nd ref="1816836694"/>
    <nd ref="1816836588"/>
    <nd ref="1816836431"/>
    <nd ref="1816836664"/>
    <nd ref="1816836532"/>
    <nd ref="1816836530"/>
    <nd ref="1816836694"/>
    <tag k="addr:housenumber" v="18"/>
    <tag k="addr:postcode" v="CB22 7QH"/>
    <tag k="addr:street" v="London Road"/>
    <tag k="building" v="detached"/>
  </way>
  <way id="170518552" version="2" timestamp="2013-01-11T13:32:47Z" changeset="14610133" uid="281267" user="smb1001">
    <nd ref="1816836660"/>
    <nd ref="1816836617"/>
    <nd ref="1816836407"/>
    <nd ref="1816836414"/>
    <nd ref="1816836660"/>
    <tag k="addr:housenumber" v="24b"/>
    <tag k="addr:postcode" v="CB22 7QH"/>
    <tag k="addr:street" v="London Road"/>
    <tag k="building" v="yes"/>
  </way>
  <way id="170518553" version="3" timestamp="2013-01-11T13:32:47Z" changeset="14610133" uid="281267" user="smb1001">
    <nd ref="1816836551"/>
    <nd ref="1816836661"/>
    <nd ref="1816836691"/>
    <nd ref="1816836701"/>
    <nd ref="1816836438"/>
    <nd ref="1816836565"/>
    <nd ref="1816836512"/>
    <nd ref="1816836635"/>
    <nd ref="1816836551"/>
    <tag k="addr:housenumber" v="10"/>
    <tag k="addr:postcode" v="CB22 7QH"/>
    <tag k="addr:street" v="London Road"/>
    <tag k="building" v="yes"/>
  </way>
  <way id="170520400" version="5" timestamp="2019-02-04T10:43:11Z" changeset="66899076" uid="5173844" user="ndrw6">
    <nd ref="1816852836"/>
    <nd ref="1816852917"/>
    <nd ref="1816852808"/>
    <nd ref="1816852931"/>
    <nd ref="1816852836"/>
    <tag k="addr:city" v="Cambridge"/>
    <tag k="addr:housenumber" v="2"/>
    <tag k="addr:postcode" v="CB22 7QU"/>
    <tag k="addr:street" v="Field View"/>
    <tag k="addr:village" v="Harston"/>
    <tag k="building" v="house"/>
  </way>
  <way id="170520407" version="4" timestamp="2023-05-29T07:03:47Z" changeset="136682654" uid="547425" user="ssb22">
    <nd ref="1816852778"/>
    <nd ref="1816852904"/>
    <nd ref="1816852798"/>
    <nd ref="1816852865"/>
    <nd ref="1816852778"/>
    <tag k="addr:housenumber" v="3, 5"/>
    <tag k="addr:street" v="London Road"/>
    <tag k="building" v="house"/>
  </way>
  <way id="170520432" version="4" timestamp="2023-05-29T07:03:46Z" changeset="136682654" uid="547425" user="ssb22">
    <nd ref="1816852831"/>
    <nd ref="1816852866"/>
    <nd ref="1816852873"/>
    <nd ref="1816852843"/>
    <nd ref="1816852831"/>
    <tag k="addr:housenumber" v="7"/>
    <tag k="addr:street" v="London Road"/>
    <tag k="building" v="house"/>
  </way>
  <way id="170520441" version="4" timestamp="2023-05-29T07:03:45Z" changeset="136682654" uid="547425" user="ssb22">
    <nd ref="1816852787"/>
    <nd ref="1816852923"/>
    <nd ref="1816852784"/>
    <nd ref="1816852799"/>
    <nd ref="1816852803"/>
    <nd ref="1816852827"/>
    <nd ref="1816852787"/>
    <tag k="addr:housenumber" v="9"/>
    <tag k="addr:street" v="London Road"/>
    <tag k="building" v="house"/>
  </way>
  <way id="170520453" version="4" timestamp="2023-05-29T07:03:45Z" changeset="136682654" uid="547425" user="ssb22">
    <nd ref="1816852837"/>
    <nd ref="1816852840"/>
    <nd ref="1816852882"/>
    <nd ref="1816852886"/>
    <nd ref="1816852805"/>
    <nd ref="1816852812"/>
    <nd ref="1816852902"/>
    <nd ref="1816852907"/>
    <nd ref="1816852839"/>
    <nd ref="1816852848"/>
    <nd ref="1816852851"/>
    <nd ref="1816852929"/>
    <nd ref="1816852837"/>
    <tag k="addr:housenumber" v="11"/>
    <tag k="addr:street" v="London Road"/>
    <tag k="building" v="house"/>
  </way>
  <way id="170533378" version="4" timestamp="2022-04-01T19:56:09Z" changeset="119215896" uid="12424494" user="lovelyfurball88">
    <nd ref="1817032706"/>
    <nd ref="1817032862"/>
    <nd ref="1817032701"/>
    <nd ref="1817032718"/>
    <nd ref="1817032706"/>
    <tag k="addr:housenumber" v="49"/>
    <tag k="addr:postcode" v="CB22 7PZ"/>
    <tag k="addr:street" v="High Street"/>
    <tag k="building" v="yes"/>
    <tag k="name" v="Hairs &amp; Graces"/>
    <tag k="phone" v="+44 1223 870737"/>
    <tag k="shop" v="hairdresser"/>
    <tag k="website" v="https://www.hairsandgraces49.com/"/>
  </way>
  <way id="170533410" version="1" timestamp="2012-07-08T03:09:20Z" changeset="12145714" uid="714383" user="alterain">
    <nd ref="1817033206"/>
    <nd ref="1817033201"/>
    <nd ref="1817033207"/>
    <nd ref="1817033203"/>
    <tag k="highway" v="residential"/>
  </way>
  <way id="170533483" version="3" timestamp="2021-09-20T02:07:39Z" changeset="111428181" uid="7675562" user="ChildishGiant">
    <nd ref="1817033670"/>
    <nd ref="1817033649"/>
    <nd ref="1817033653"/>
    <nd ref="1817033647"/>
    <nd ref="1817033664"/>
    <nd ref="1817033666"/>
    <nd ref="1817033670"/>
    <tag k="addr:housenumber" v="24"/>
    <tag k="addr:street" v="Orchard Close"/>
    <tag k="building" v="yes"/>
  </way>
  <way id="170588195" version="3" timestamp="2021-09-20T02:07:58Z" changeset="111428181" uid="7675562" user="ChildishGiant">
    <nd ref="1817600602"/>
    <nd ref="1817600539"/>
    <nd ref="1817600470"/>
    <nd ref="1817600507"/>
    <nd ref="1817600503"/>
    <nd ref="1817600510"/>
    <nd ref="1817600560"/>
    <nd ref="1817600508"/>
    <nd ref="1817600577"/>
    <nd ref="1817600576"/>
    <nd ref="1817600602"/>
    <tag k="addr:housenumber" v="6"/>
    <tag k="addr:street" v="Orchard Close"/>
    <tag k="building" v="yes"/>
  </way>
  <way id="170588197" version="5" timestamp="2019-02-04T10:43:11Z" changeset="66899076" uid="5173844" user="ndrw6">
    <nd ref="1817600561"/>
    <nd ref="1817600622"/>
    <nd ref="1817600488"/>
    <nd ref="1817600473"/>
    <nd ref="1817600525"/>
    <nd ref="1817600528"/>
    <nd ref="1817600565"/>
    <nd ref="1817600529"/>
    <nd ref="1817600561"/>
    <tag k="addr:city" v="Cambridge"/>
    <tag k="addr:housenumber" v="10"/>
    <tag k="addr:postcode" v="CB22 7PX"/>
    <tag k="addr:street" v="High Street"/>
    <tag k="addr:village" v="Harston"/>
    <tag k="building" v="yes"/>
  </way>
  <way id="170588200" version="3" timestamp="2021-09-20T02:08:06Z" changeset="111428181" uid="7675562" user="ChildishGiant">
    <nd ref="1817600583"/>
    <nd ref="1817600546"/>
    <nd ref="1817600595"/>
    <nd ref="1817600481"/>
    <nd ref="1817600574"/>
    <nd ref="1817600494"/>
    <nd ref="1817600495"/>
    <nd ref="1817600599"/>
    <nd ref="1817600552"/>
    <nd ref="1817600477"/>
    <nd ref="1817600583"/>
    <tag k="addr:housenumber" v="2"/>
    <tag k="addr:street" v="Orchard Close"/>
    <tag k="building" v="yes"/>
  </way>
  <way id="170588202" version="3" timestamp="2021-09-20T02:07:46Z" changeset="111428181" uid="7675562" user="ChildishGiant">
    <nd ref="1817600509"/>
    <nd ref="1817600578"/>
    <nd ref="1817600492"/>
    <nd ref="1817600545"/>
    <nd ref="1817600559"/>
    <nd ref="1817600573"/>
    <nd ref="1817600509"/>
    <tag k="addr:housenumber" v="22"/>
    <tag k="addr:street" v="Orchard Close"/>
    <tag k="building" v="yes"/>
  </way>
  <way id="170588205" version="3" timestamp="2020-02-20T11:03:14Z" changeset="81268598" uid="10804708" user="mobiusmap">
    <nd ref="1817600533"/>
    <nd ref="1817600472"/>
    <nd ref="1817600506"/>
    <nd ref="1817600515"/>
    <nd ref="3461852578"/>
    <nd ref="1817600630"/>
    <nd ref="1817600623"/>
    <nd ref="1817600619"/>
    <nd ref="1817600563"/>
    <nd ref="1817600498"/>
    <nd ref="1817600533"/>
    <tag k="addr:housenumber" v="10A"/>
    <tag k="addr:postcode" v="CB22 7PX"/>
    <tag k="addr:street" v="High Street"/>
    <tag k="building" v="yes"/>
  </way>
  <way id="170588206" version="3" timestamp="2021-09-20T02:07:23Z" changeset="111428181" uid="7675562" user="ChildishGiant">
    <nd ref="1817600475"/>
    <nd ref="1817600459"/>
    <nd ref="1817600486"/>
    <nd ref="1817600608"/>
    <nd ref="1817600461"/>
    <nd ref="1817600460"/>
    <nd ref="1817600456"/>
    <nd ref="1817600530"/>
    <nd ref="1817600534"/>
    <nd ref="1817600476"/>
    <nd ref="1817600478"/>
    <nd ref="1817600468"/>
    <nd ref="1817600466"/>
    <nd ref="1817600609"/>
    <nd ref="1817600475"/>
    <tag k="addr:housenumber" v="12"/>
    <tag k="addr:street" v="Orchard Close"/>
    <tag k="building" v="yes"/>
  </way>
  <way id="170588208" version="3" timestamp="2021-09-20T02:07:56Z" changeset="111428181" uid="7675562" user="ChildishGiant">
    <nd ref="1817600627"/>
    <nd ref="1817600629"/>
    <nd ref="1817600617"/>
    <nd ref="1817600512"/>
    <nd ref="1817600638"/>
    <nd ref="1817600586"/>
    <nd ref="1817600501"/>
    <nd ref="1817600555"/>
    <nd ref="1817600513"/>
    <nd ref="1817600614"/>
    <nd ref="1817600627"/>
    <tag k="addr:housenumber" v="8"/>
    <tag k="addr:street" v="Orchard Close"/>
    <tag k="building" v="yes"/>
  </way>
  <way id="170588209" version="3" timestamp="2021-09-20T02:07:25Z" changeset="111428181" uid="7675562" user="ChildishGiant">
    <nd ref="1817600585"/>
    <nd ref="1817600457"/>
    <nd ref="1817600584"/>
    <nd ref="1817600580"/>
    <nd ref="1817600581"/>
    <nd ref="1817600604"/>
    <nd ref="1817600558"/>
    <nd ref="1817600557"/>
    <nd ref="1817600464"/>
    <nd ref="1817600568"/>
    <nd ref="1817600585"/>
    <tag k="addr:housenumber" v="14"/>
    <tag k="addr:street" v="Orchard Close"/>
    <tag k="building" v="yes"/>
  </way>
  <way id="170588211" version="3" timestamp="2021-09-20T02:08:02Z" changeset="111428181" uid="7675562" user="ChildishGiant">
    <nd ref="1817600544"/>
    <nd ref="1817600636"/>
    <nd ref="1817600521"/>
    <nd ref="1817600504"/>
    <nd ref="1817600562"/>
    <nd ref="1817600489"/>
    <nd ref="1817600541"/>
    <nd ref="1817600455"/>
    <nd ref="1817600610"/>
    <nd ref="1817600588"/>
    <nd ref="1817600544"/>
    <tag k="addr:housenumber" v="4"/>
    <tag k="addr:street" v="Orchard Close"/>
    <tag k="building" v="yes"/>
  </way>
  <way id="170588212" version="3" timestamp="2014-02-24T20:11:23Z" changeset="20758436" uid="1952553" user="Matthew Law">
    <nd ref="1817600462"/>
    <nd ref="1817600640"/>
    <nd ref="1817600637"/>
    <nd ref="1817600635"/>
    <nd ref="1817600553"/>
    <nd ref="1817600634"/>
    <nd ref="1817600462"/>
    <tag k="addr:housenumber" v="9"/>
    <tag k="addr:street" v="The Paddock"/>
    <tag k="building" v="yes"/>
  </way>
  <way id="170588214" version="3" timestamp="2021-09-20T02:07:17Z" changeset="111428181" uid="7675562" user="ChildishGiant">
    <nd ref="1817600570"/>
    <nd ref="1817600502"/>
    <nd ref="1817600491"/>
    <nd ref="1817600579"/>
    <nd ref="1817600575"/>
    <nd ref="1817600598"/>
    <nd ref="1817600542"/>
    <nd ref="1817600511"/>
    <nd ref="1817600463"/>
    <nd ref="1817600497"/>
    <nd ref="1817600471"/>
    <nd ref="1817600522"/>
    <nd ref="1817600570"/>
    <tag k="addr:housenumber" v="10"/>
    <tag k="addr:street" v="Orchard Close"/>
    <tag k="building" v="yes"/>
  </way>
  <way id="170588215" version="4" timestamp="2020-02-20T11:03:14Z" changeset="81268598" uid="10804708" user="mobiusmap">
    <nd ref="1817600613"/>
    <nd ref="1817600564"/>
    <nd ref="1817600587"/>
    <nd ref="1817600591"/>
    <nd ref="1817600458"/>
    <nd ref="1817600482"/>
    <nd ref="1817600569"/>
    <nd ref="1817600592"/>
    <nd ref="1817600613"/>
    <tag k="addr:housenumber" v="10C"/>
    <tag k="addr:postcode" v="CB22 7PX"/>
    <tag k="addr:street" v="High Street"/>
    <tag k="building" v="yes"/>
  </way>
  <way id="170588218" version="3" timestamp="2021-09-20T02:07:29Z" changeset="111428181" uid="7675562" user="ChildishGiant">
    <nd ref="1817600467"/>
    <nd ref="1817600612"/>
    <nd ref="1817600524"/>
    <nd ref="1817600620"/>
    <nd ref="1817600625"/>
    <nd ref="1817600566"/>
    <nd ref="1817600454"/>
    <nd ref="1817600631"/>
    <nd ref="1817600628"/>
    <nd ref="1817600523"/>
    <nd ref="1817600601"/>
    <nd ref="1817600480"/>
    <nd ref="1817600499"/>
    <nd ref="1817600465"/>
    <nd ref="1817600467"/>
    <tag k="addr:housenumber" v="16"/>
    <tag k="addr:street" v="Orchard Close"/>
    <tag k="building" v="yes"/>
  </way>
  <way id="170591093" version="6" timestamp="2021-11-03T11:18:24Z" changeset="113325691" uid="7675562" user="ChildishGiant">
    <nd ref="1817620238"/>
    <nd ref="1817620162"/>
    <nd ref="1817620305"/>
    <nd ref="1817620367"/>
    <nd ref="1817620003"/>
    <nd ref="1817620178"/>
    <nd ref="1817620271"/>
    <nd ref="1817620431"/>
    <nd ref="1817620238"/>
    <tag k="addr:housenumber" v="43"/>
    <tag k="addr:street" v="Station Road"/>
    <tag k="building" v="detached"/>
    <tag k="building:levels" v="2"/>
    <tag k="roof:shape" v="gabled"/>
  </way>
  <way id="170591094" version="6" timestamp="2021-11-03T11:19:08Z" changeset="113325691" uid="7675562" user="ChildishGiant">
    <nd ref="1817620482"/>
    <nd ref="1817620587"/>
    <nd ref="1817620439"/>
    <nd ref="1817620168"/>
    <nd ref="1817620482"/>
    <tag k="addr:housenumber" v="53"/>
    <tag k="addr:street" v="Station Road"/>
    <tag k="building" v="detached"/>
    <tag k="building:levels" v="1"/>
    <tag k="roof:shape" v="pyramidal"/>
  </way>
  <way id="170591096" version="4" timestamp="2021-11-03T11:21:59Z" changeset="113325677" uid="7675562" user="ChildishGiant">
    <nd ref="1817620203"/>
    <nd ref="1817620175"/>
    <nd ref="1817620521"/>
    <nd ref="1817620507"/>
    <nd ref="1817620109"/>
    <nd ref="1817620399"/>
    <nd ref="1817620203"/>
    <tag k="addr:housenumber" v="15"/>
    <tag k="addr:postcode" v="CB22 7QR"/>
    <tag k="addr:street" v="Lawrance Lea"/>
    <tag k="building" v="detached"/>
  </way>
  <way id="170591097" version="6" timestamp="2021-11-03T10:47:29Z" changeset="113325691" uid="7675562" user="ChildishGiant">
    <nd ref="1817620373"/>
    <nd ref="1817620105"/>
    <nd ref="1817620484"/>
    <nd ref="1817620547"/>
    <nd ref="1817620373"/>
    <tag k="addr:housenumber" v="35"/>
    <tag k="addr:street" v="Station Road"/>
    <tag k="building" v="detached"/>
    <tag k="building:levels" v="2"/>
    <tag k="roof:shape" v="gabled"/>
  </way>
  <way id="170591098" version="6" timestamp="2021-11-03T10:45:22Z" changeset="113325677" uid="7675562" user="ChildishGiant">
    <nd ref="1817620627"/>
    <nd ref="1817620638"/>
    <nd ref="1817620565"/>
    <nd ref="1817620657"/>
    <nd ref="1817620668"/>
    <nd ref="1817620334"/>
    <nd ref="1817620468"/>
    <nd ref="1817620627"/>
    <tag k="addr:city" v="Cambridge"/>
    <tag k="addr:housenumber" v="5"/>
    <tag k="addr:postcode" v="CB22 7PR"/>
    <tag k="addr:street" v="The Paddock"/>
    <tag k="addr:village" v="Harston"/>
    <tag k="building" v="detached"/>
  </way>
  <way id="170591100" version="4" timestamp="2021-11-03T11:21:40Z" changeset="113325677" uid="7675562" user="ChildishGiant">
    <nd ref="1817620592"/>
    <nd ref="1817620314"/>
    <nd ref="1817620441"/>
    <nd ref="1817619936"/>
    <nd ref="1817620592"/>
    <tag k="addr:housenumber" v="11"/>
    <tag k="addr:postcode" v="CB22 7QR"/>
    <tag k="addr:street" v="Lawrance Lea"/>
    <tag k="building" v="detached"/>
  </way>
  <way id="170591101" version="4" timestamp="2021-11-03T11:21:55Z" changeset="113325677" uid="7675562" user="ChildishGiant">
    <nd ref="1817620125"/>
    <nd ref="1817620273"/>
    <nd ref="1817620630"/>
    <nd ref="1817619934"/>
    <nd ref="1817620124"/>
    <nd ref="1817620397"/>
    <nd ref="1817620125"/>
    <tag k="addr:housenumber" v="14"/>
    <tag k="addr:postcode" v="CB22 7QR"/>
    <tag k="addr:street" v="Lawrance Lea"/>
    <tag k="building" v="detached"/>
  </way>
  <way id="170591103" version="4" timestamp="2021-11-03T10:45:03Z" changeset="113325677" uid="7675562" user="ChildishGiant">
    <nd ref="1817620713"/>
    <nd ref="1817620716"/>
    <nd ref="1817620165"/>
    <nd ref="1817620437"/>
    <nd ref="1817620169"/>
    <nd ref="1817619982"/>
    <nd ref="1817620312"/>
    <nd ref="1817619974"/>
    <nd ref="1817620713"/>
    <tag k="addr:housenumber" v="14"/>
    <tag k="addr:street" v="The Paddock"/>
    <tag k="building" v="detached"/>
  </way>
  <way id="170591104" version="6" timestamp="2021-11-03T11:22:06Z" changeset="113325677" uid="7675562" user="ChildishGiant">
    <nd ref="1817620048"/>
    <nd ref="1817620005"/>
    <nd ref="1817620097"/>
    <nd ref="1817620409"/>
    <nd ref="1817620206"/>
    <nd ref="1817620041"/>
    <nd ref="1817620432"/>
    <nd ref="1817620048"/>
    <tag k="addr:housenumber" v="16"/>
    <tag k="addr:postcode" v="CB22 7QR"/>
    <tag k="addr:street" v="Lawrance Lea"/>
    <tag k="building" v="detached"/>
  </way>
  <way id="170591106" version="4" timestamp="2021-11-03T10:45:57Z" changeset="113325677" uid="7675562" user="ChildishGiant">
    <nd ref="1817620228"/>
    <nd ref="1817620094"/>
    <nd ref="1817620033"/>
    <nd ref="1817620236"/>
    <nd ref="1817620167"/>
    <nd ref="1817620054"/>
    <nd ref="1817620228"/>
    <tag k="addr:housenumber" v="4"/>
    <tag k="addr:street" v="The Paddock"/>
    <tag k="building" v="detached"/>
  </way>
  <way id="170591108" version="8" timestamp="2021-11-03T11:18:09Z" changeset="113325691" uid="7675562" user="ChildishGiant">
    <nd ref="1817620317"/>
    <nd ref="1817619968"/>
    <nd ref="1817620516"/>
    <nd ref="1817619993"/>
    <nd ref="1817620580"/>
    <nd ref="1817620428"/>
    <nd ref="1817620270"/>
    <nd ref="1817620510"/>
    <nd ref="1817620678"/>
    <nd ref="1817620317"/>
    <tag k="addr:city" v="Cambridge"/>
    <tag k="addr:housenumber" v="41"/>
    <tag k="addr:postcode" v="CB22 7PP"/>
    <tag k="addr:street" v="Station Road"/>
    <tag k="addr:village" v="Harston"/>
    <tag k="building" v="detached"/>
    <tag k="building:levels" v="2"/>
    <tag k="roof:shape" v="gabled"/>
  </way>
  <way id="170591109" version="4" timestamp="2021-11-03T10:46:14Z" changeset="113325677" uid="7675562" user="ChildishGiant">
    <nd ref="1817620475"/>
    <nd ref="1817620502"/>
    <nd ref="1817619999"/>
    <nd ref="1817620037"/>
    <nd ref="1817620391"/>
    <nd ref="1817620722"/>
    <nd ref="1817620239"/>
    <nd ref="1817620197"/>
    <nd ref="1817620159"/>
    <nd ref="1817620480"/>
    <nd ref="1817620129"/>
    <nd ref="1817620436"/>
    <nd ref="1817620629"/>
    <nd ref="1817620670"/>
    <nd ref="1817620475"/>
    <tag k="addr:housenumber" v="23, 24"/>
    <tag k="addr:street" v="The Paddock"/>
    <tag k="building" v="semidetached_house"/>
  </way>
  <way id="170591110" version="7" timestamp="2021-11-03T11:19:19Z" changeset="113325691" uid="7675562" user="ChildishGiant">
    <nd ref="1817620543"/>
    <nd ref="1817620471"/>
    <nd ref="1817620031"/>
    <nd ref="1817620553"/>
    <nd ref="1817620064"/>
    <nd ref="1817620680"/>
    <nd ref="1817620543"/>
    <tag k="addr:housenumber" v="31"/>
    <tag k="addr:postcode" v="CB22 7QR"/>
    <tag k="addr:street" v="Lawrance Lea"/>
    <tag k="building" v="detached"/>
    <tag k="building:levels" v="2"/>
    <tag k="roof:shape" v="gabled"/>
  </way>
  <way id="170591111" version="4" timestamp="2021-11-03T10:45:52Z" changeset="113325677" uid="7675562" user="ChildishGiant">
    <nd ref="1817620326"/>
    <nd ref="1817620472"/>
    <nd ref="1817620000"/>
    <nd ref="1817620042"/>
    <nd ref="1817620634"/>
    <nd ref="1817619995"/>
    <nd ref="1817620588"/>
    <nd ref="1817620595"/>
    <nd ref="1817620050"/>
    <nd ref="1817620467"/>
    <nd ref="1817620676"/>
    <nd ref="1817620088"/>
    <nd ref="1817619984"/>
    <nd ref="1817619978"/>
    <nd ref="1817620563"/>
    <nd ref="1817620326"/>
    <tag k="addr:housenumber" v="21, 22"/>
    <tag k="addr:street" v="The Paddock"/>
    <tag k="building" v="semidetached_house"/>
  </way>
  <way id="170591113" version="3" timestamp="2014-02-24T20:11:24Z" changeset="20758436" uid="1952553" user="Matthew Law">
    <nd ref="1817620567"/>
    <nd ref="1817620269"/>
    <nd ref="1817620508"/>
    <nd ref="1817620011"/>
    <nd ref="1817620445"/>
    <nd ref="1817620626"/>
    <nd ref="1817620567"/>
    <tag k="addr:housenumber" v="7"/>
    <tag k="addr:street" v="The Paddock"/>
    <tag k="building" v="yes"/>
  </way>
  <way id="170591114" version="4" timestamp="2021-11-03T10:45:06Z" changeset="113325677" uid="7675562" user="ChildishGiant">
    <nd ref="1817620286"/>
    <nd ref="1817620593"/>
    <nd ref="1817620303"/>
    <nd ref="1817620724"/>
    <nd ref="1817620286"/>
    <tag k="addr:housenumber" v="15"/>
    <tag k="addr:street" v="The Paddock"/>
    <tag k="building" v="detached"/>
  </way>
  <way id="170591115" version="5" timestamp="2020-07-14T17:00:32Z" changeset="87989067" uid="7675562" user="ChildishGiant">
    <nd ref="1817620655"/>
    <nd ref="1817619960"/>
    <nd ref="1817620279"/>
    <nd ref="2952596929"/>
    <nd ref="2952596928"/>
    <nd ref="1817620090"/>
    <nd ref="1817620190"/>
    <nd ref="1817619972"/>
    <nd ref="1817620655"/>
    <tag k="addr:housenumber" v="18"/>
    <tag k="addr:postcode" v="CB22 7QR"/>
    <tag k="addr:street" v="Lawrance Lea"/>
    <tag k="building" v="detached"/>
  </way>
  <way id="170591116" version="6" timestamp="2021-11-03T11:22:16Z" changeset="113325682" uid="7675562" user="ChildishGiant">
    <nd ref="1817620272"/>
    <nd ref="1817619991"/>
    <nd ref="1817620659"/>
    <nd ref="1817620103"/>
    <nd ref="1817620550"/>
    <nd ref="1817620025"/>
    <nd ref="1817620388"/>
    <nd ref="1817620515"/>
    <nd ref="1817620272"/>
    <tag k="addr:housenumber" v="19"/>
    <tag k="addr:postcode" v="CB22 7QR"/>
    <tag k="addr:street" v="Lawrance Lea"/>
    <tag k="building" v="detached"/>
    <tag k="building:levels" v="2"/>
  </way>
  <way id="170591119" version="4" timestamp="2021-11-03T11:21:36Z" changeset="113325677" uid="7675562" user="ChildishGiant">
    <nd ref="1817619938"/>
    <nd ref="1817620015"/>
    <nd ref="1817620249"/>
    <nd ref="1817620394"/>
    <nd ref="1817620551"/>
    <nd ref="1817620202"/>
    <nd ref="1817619938"/>
    <tag k="addr:housenumber" v="10"/>
    <tag k="addr:postcode" v="CB22 7QR"/>
    <tag k="addr:street" v="Lawrance Lea"/>
    <tag k="building" v="detached"/>
  </way>
  <way id="170591121" version="7" timestamp="2020-07-14T17:03:07Z" changeset="87989144" uid="7675562" user="ChildishGiant">
    <nd ref="1817620544"/>
    <nd ref="1817620429"/>
    <nd ref="1817619948"/>
    <nd ref="2688825418"/>
    <nd ref="2688825419"/>
    <nd ref="2688825420"/>
    <nd ref="1817620544"/>
    <tag k="addr:city" v="Cambridge"/>
    <tag k="addr:housenumber" v="20"/>
    <tag k="addr:postcode" v="CB22 7QR"/>
    <tag k="addr:street" v="Lawrance Lea"/>
    <tag k="addr:village" v="Harston"/>
    <tag k="building" v="detached"/>
    <tag k="building:levels" v="2"/>
    <tag k="roof:levels" v="0"/>
  </way>
  <way id="170591124" version="4" timestamp="2021-11-03T11:21:33Z" changeset="113325677" uid="7675562" user="ChildishGiant">
    <nd ref="1817620601"/>
    <nd ref="1817620316"/>
    <nd ref="1817620412"/>
    <nd ref="1817620632"/>
    <nd ref="1817620601"/>
    <tag k="addr:housenumber" v="9"/>
    <tag k="addr:postcode" v="CB22 7QR"/>
    <tag k="addr:street" v="Lawrance Lea"/>
    <tag k="building" v="detached"/>
  </way>
  <way id="170591125" version="4" timestamp="2021-11-03T11:21:51Z" changeset="113325677" uid="7675562" user="ChildishGiant">
    <nd ref="1817620257"/>
    <nd ref="1817620582"/>
    <nd ref="1817619952"/>
    <nd ref="1817620357"/>
    <nd ref="1817620623"/>
    <nd ref="1817620193"/>
    <nd ref="1817620517"/>
    <nd ref="1817620096"/>
    <nd ref="1817620257"/>
    <tag k="addr:housenumber" v="13"/>
    <tag k="addr:postcode" v="CB22 7QR"/>
    <tag k="addr:street" v="Lawrance Lea"/>
    <tag k="building" v="detached"/>
  </way>
  <way id="170591127" version="4" timestamp="2021-11-03T10:44:56Z" changeset="113325677" uid="7675562" user="ChildishGiant">
    <nd ref="1817620046"/>
    <nd ref="1817620672"/>
    <nd ref="1817619932"/>
    <nd ref="1817620131"/>
    <nd ref="1817620519"/>
    <nd ref="1817620476"/>
    <nd ref="1817620707"/>
    <nd ref="1817620277"/>
    <nd ref="1817620046"/>
    <tag k="addr:housenumber" v="8"/>
    <tag k="addr:postcode" v="CB22 7QR"/>
    <tag k="addr:street" v="Lawrance Lea"/>
    <tag k="building" v="detached"/>
  </way>
  <way id="170591128" version="3" timestamp="2014-02-24T20:11:24Z" changeset="20758436" uid="1952553" user="Matthew Law">
    <nd ref="1817620137"/>
    <nd ref="1817620284"/>
    <nd ref="1817620112"/>
    <nd ref="1817620274"/>
    <nd ref="1817620504"/>
    <nd ref="1817620076"/>
    <nd ref="1817620137"/>
    <tag k="addr:housenumber" v="6"/>
    <tag k="addr:street" v="The Paddock"/>
    <tag k="building" v="yes"/>
  </way>
  <way id="170591129" version="6" timestamp="2021-11-03T11:18:42Z" changeset="113325691" uid="7675562" user="ChildishGiant">
    <nd ref="1817620318"/>
    <nd ref="1817620589"/>
    <nd ref="1817620430"/>
    <nd ref="1817620315"/>
    <nd ref="1817620354"/>
    <nd ref="1817620710"/>
    <nd ref="1817620086"/>
    <nd ref="1817619956"/>
    <nd ref="1817619940"/>
    <nd ref="1817619980"/>
    <nd ref="1817620318"/>
    <tag k="addr:housenumber" v="45"/>
    <tag k="addr:street" v="Station Road"/>
    <tag k="building" v="detached"/>
    <tag k="building:levels" v="2"/>
    <tag k="roof:shape" v="gabled"/>
  </way>
  <way id="170591130" version="3" timestamp="2014-02-24T20:11:24Z" changeset="20758436" uid="1952553" user="Matthew Law">
    <nd ref="1817619976"/>
    <nd ref="1817620359"/>
    <nd ref="1817620278"/>
    <nd ref="1817620347"/>
    <nd ref="1817619976"/>
    <tag k="addr:housenumber" v="11"/>
    <tag k="addr:street" v="The Paddock"/>
    <tag k="building" v="yes"/>
  </way>
  <way id="170591131" version="4" timestamp="2021-11-03T10:46:20Z" changeset="113325677" uid="7675562" user="ChildishGiant">
    <nd ref="1817620070"/>
    <nd ref="1817620448"/>
    <nd ref="1817620013"/>
    <nd ref="1817619997"/>
    <nd ref="1817620120"/>
    <nd ref="1817620320"/>
    <nd ref="1817620070"/>
    <tag k="addr:housenumber" v="3"/>
    <tag k="addr:street" v="The Paddock"/>
    <tag k="building" v="detached"/>
  </way>
  <way id="170591133" version="4" timestamp="2021-11-03T10:44:59Z" changeset="113325677" uid="7675562" user="ChildishGiant">
    <nd ref="1817619966"/>
    <nd ref="1817620545"/>
    <nd ref="1817620679"/>
    <nd ref="1817620425"/>
    <nd ref="1817620371"/>
    <nd ref="1817620007"/>
    <nd ref="1817620365"/>
    <nd ref="1817620353"/>
    <nd ref="1817619966"/>
    <tag k="addr:housenumber" v="18"/>
    <tag k="addr:street" v="The Paddock"/>
    <tag k="building" v="detached"/>
  </way>
  <way id="170591134" version="3" timestamp="2014-02-24T20:11:24Z" changeset="20758436" uid="1952553" user="Matthew Law">
    <nd ref="1817620207"/>
    <nd ref="1817620596"/>
    <nd ref="1817620625"/>
    <nd ref="1817620176"/>
    <nd ref="1817620358"/>
    <nd ref="1817620107"/>
    <nd ref="1817620207"/>
    <tag k="addr:housenumber" v="10"/>
    <tag k="addr:street" v="The Paddock"/>
    <tag k="building" v="yes"/>
  </way>
  <way id="170591135" version="5" timestamp="2021-11-03T11:22:08Z" changeset="113325677" uid="7675562" user="ChildishGiant">
    <nd ref="1817620409"/>
    <nd ref="1817620513"/>
    <nd ref="1817620241"/>
    <nd ref="1817620597"/>
    <nd ref="1817620409"/>
    <tag k="addr:housenumber" v="17"/>
    <tag k="addr:postcode" v="CB22 7QR"/>
    <tag k="addr:street" v="Lawrance Lea"/>
    <tag k="building" v="detached"/>
  </way>
  <way id="170591136" version="4" timestamp="2021-11-03T10:45:43Z" changeset="113325677" uid="7675562" user="ChildishGiant">
    <nd ref="1817620243"/>
    <nd ref="1817620401"/>
    <nd ref="1817620173"/>
    <nd ref="1817620540"/>
    <nd ref="1817620369"/>
    <nd ref="1817620164"/>
    <nd ref="1817620161"/>
    <nd ref="1817620290"/>
    <nd ref="1817620288"/>
    <nd ref="1817620245"/>
    <nd ref="1817620216"/>
    <nd ref="1817620590"/>
    <nd ref="1817620556"/>
    <nd ref="1817620693"/>
    <nd ref="1817620243"/>
    <tag k="addr:housenumber" v="19, 20"/>
    <tag k="addr:street" v="The Paddock"/>
    <tag k="building" v="semidetached_house"/>
  </way>
  <way id="170591138" version="4" timestamp="2021-11-03T10:46:22Z" changeset="113325677" uid="7675562" user="ChildishGiant">
    <nd ref="1817620078"/>
    <nd ref="1817620511"/>
    <nd ref="1817620201"/>
    <nd ref="1817620246"/>
    <nd ref="1817620328"/>
    <nd ref="1817620092"/>
    <nd ref="1817620116"/>
    <nd ref="1817620157"/>
    <nd ref="1817620078"/>
    <tag k="addr:housenumber" v="2"/>
    <tag k="addr:street" v="The Paddock"/>
    <tag k="building" v="detached"/>
  </way>
  <way id="170591139" version="6" timestamp="2021-11-03T11:17:49Z" changeset="113325691" uid="7675562" user="ChildishGiant">
    <nd ref="1817619930"/>
    <nd ref="1817620214"/>
    <nd ref="1817620435"/>
    <nd ref="1817620135"/>
    <nd ref="1817620281"/>
    <nd ref="1817620204"/>
    <nd ref="1817619930"/>
    <tag k="addr:housenumber" v="39"/>
    <tag k="addr:street" v="Station Road"/>
    <tag k="building" v="detached"/>
    <tag k="building:levels" v="2"/>
    <tag k="roof:shape" v="gabled"/>
  </way>
  <way id="170591140" version="4" timestamp="2021-11-03T10:45:14Z" changeset="113325677" uid="7675562" user="ChildishGiant">
    <nd ref="1817620470"/>
    <nd ref="1817620056"/>
    <nd ref="1817620673"/>
    <nd ref="1817620469"/>
    <nd ref="1817620205"/>
    <nd ref="1817620561"/>
    <nd ref="1817619961"/>
    <nd ref="1817620446"/>
    <nd ref="1817620470"/>
    <tag k="addr:housenumber" v="12"/>
    <tag k="addr:street" v="The Paddock"/>
    <tag k="building" v="detached"/>
  </way>
  <way id="170591142" version="4" timestamp="2021-11-03T10:46:29Z" changeset="113325677" uid="7675562" user="ChildishGiant">
    <nd ref="1817620525"/>
    <nd ref="1817620434"/>
    <nd ref="1817620171"/>
    <nd ref="1817620199"/>
    <nd ref="1817620552"/>
    <nd ref="1817620719"/>
    <nd ref="1817620525"/>
    <tag k="addr:housenumber" v="1"/>
    <tag k="addr:street" v="The Paddock"/>
    <tag k="building" v="detached"/>
  </way>
  <way id="170591143" version="7" timestamp="2021-11-03T10:44:25Z" changeset="113325691" uid="7675562" user="ChildishGiant">
    <nd ref="1817620635"/>
    <nd ref="1817620062"/>
    <nd ref="1817620349"/>
    <nd ref="1817620443"/>
    <nd ref="1817620072"/>
    <nd ref="1817620386"/>
    <nd ref="1817620276"/>
    <nd ref="1817619942"/>
    <nd ref="1817620635"/>
    <tag k="addr:housenumber" v="21"/>
    <tag k="addr:postcode" v="CB22 7QR"/>
    <tag k="addr:street" v="Lawrance Lea"/>
    <tag k="building" v="detached"/>
    <tag k="building:levels" v="2"/>
    <tag k="roof:shape" v="gabled"/>
  </way>
  <way id="170591145" version="4" timestamp="2021-11-03T10:44:53Z" changeset="113325677" uid="7675562" user="ChildishGiant">
    <nd ref="1817620027"/>
    <nd ref="1817619946"/>
    <nd ref="1817619954"/>
    <nd ref="1817619964"/>
    <nd ref="1817620554"/>
    <nd ref="1817620523"/>
    <nd ref="1817620027"/>
    <tag k="addr:housenumber" v="17"/>
    <tag k="addr:street" v="The Paddock"/>
    <tag k="building" v="detached"/>
  </way>
  <way id="170591146" version="5" timestamp="2021-11-03T10:46:34Z" changeset="113325677" uid="7675562" user="ChildishGiant">
    <nd ref="1817620478"/>
    <nd ref="1817620427"/>
    <nd ref="1817620704"/>
    <nd ref="1817620009"/>
    <nd ref="1817620698"/>
    <nd ref="1817620099"/>
    <nd ref="1817620052"/>
    <nd ref="1817620361"/>
    <nd ref="1817620393"/>
    <nd ref="1817620330"/>
    <nd ref="1817620240"/>
    <nd ref="1817620268"/>
    <nd ref="1817620478"/>
    <tag k="addr:housenumber" v="25, 26"/>
    <tag k="addr:street" v="The Paddock"/>
    <tag k="building" v="semidetached_house"/>
  </way>
  <way id="170591147" version="4" timestamp="2021-11-03T10:45:08Z" changeset="113325677" uid="7675562" user="ChildishGiant">
    <nd ref="1817620133"/>
    <nd ref="1817620149"/>
    <nd ref="1817620674"/>
    <nd ref="1817620619"/>
    <nd ref="1817620653"/>
    <nd ref="1817620549"/>
    <nd ref="1817620200"/>
    <nd ref="1817620308"/>
    <nd ref="1817619950"/>
    <nd ref="1817620275"/>
    <nd ref="1817620212"/>
    <nd ref="1817620133"/>
    <tag k="addr:housenumber" v="13"/>
    <tag k="addr:street" v="The Paddock"/>
    <tag k="building" v="detached"/>
  </way>
  <way id="170591148" version="4" timestamp="2021-11-03T11:21:43Z" changeset="113325677" uid="7675562" user="ChildishGiant">
    <nd ref="1817620586"/>
    <nd ref="1817620114"/>
    <nd ref="1817620126"/>
    <nd ref="1817620080"/>
    <nd ref="1817620488"/>
    <nd ref="1817620390"/>
    <nd ref="1817620586"/>
    <tag k="addr:housenumber" v="12"/>
    <tag k="addr:postcode" v="CB22 7QR"/>
    <tag k="addr:street" v="Lawrance Lea"/>
    <tag k="building" v="detached"/>
  </way>
  <way id="170591149" version="4" timestamp="2021-11-03T10:44:50Z" changeset="113325677" uid="7675562" user="ChildishGiant">
    <nd ref="1817620324"/>
    <nd ref="1817620309"/>
    <nd ref="1817620118"/>
    <nd ref="1817620155"/>
    <nd ref="1817620356"/>
    <nd ref="1817620280"/>
    <nd ref="1817620438"/>
    <nd ref="1817620637"/>
    <nd ref="1817620324"/>
    <tag k="addr:housenumber" v="16"/>
    <tag k="addr:street" v="The Paddock"/>
    <tag k="building" v="detached"/>
  </way>
  <way id="170591152" version="6" timestamp="2021-11-03T10:47:09Z" changeset="113325691" uid="7675562" user="ChildishGiant">
    <nd ref="1817620671"/>
    <nd ref="1817620252"/>
    <nd ref="1817620411"/>
    <nd ref="1817620681"/>
    <nd ref="1817620636"/>
    <nd ref="1817620514"/>
    <nd ref="1817620671"/>
    <tag k="addr:housenumber" v="37"/>
    <tag k="addr:street" v="Station Road"/>
    <tag k="building" v="detached"/>
    <tag k="building:levels" v="2"/>
    <tag k="roof:shape" v="gabled"/>
  </way>
  <way id="170591413" version="4" timestamp="2021-11-16T13:40:29Z" changeset="113852723" uid="7675562" user="ChildishGiant">
    <nd ref="1817628501"/>
    <nd ref="1817628448"/>
    <nd ref="1817628553"/>
    <nd ref="1817628488"/>
    <nd ref="1817628452"/>
    <nd ref="1817628479"/>
    <nd ref="1817628577"/>
    <nd ref="1817628602"/>
    <nd ref="1817628469"/>
    <nd ref="1817628589"/>
    <nd ref="1817628501"/>
    <tag k="addr:housenumber" v="25"/>
    <tag k="addr:postcode" v="CB22 7QR"/>
    <tag k="addr:street" v="Lawrance Lea"/>
    <tag k="building" v="detached"/>
  </way>
  <way id="170591414" version="3" timestamp="2014-02-24T20:04:49Z" changeset="20758436" uid="1952553" user="Matthew Law">
    <nd ref="1817628581"/>
    <nd ref="1817628447"/>
    <nd ref="1817628552"/>
    <nd ref="1817628473"/>
    <nd ref="1817628581"/>
    <tag k="addr:housenumber" v="29"/>
    <tag k="addr:postcode" v="CB22 7QR"/>
    <tag k="addr:street" v="Lawrance Lea"/>
    <tag k="building" v="yes"/>
  </way>
  <way id="170591416" version="8" timestamp="2021-11-03T11:21:12Z" changeset="113325691" uid="7675562" user="ChildishGiant">
    <nd ref="1817628546"/>
    <nd ref="1817628493"/>
    <nd ref="1817628450"/>
    <nd ref="1817628483"/>
    <nd ref="1817628587"/>
    <nd ref="1817628536"/>
    <nd ref="1817628546"/>
    <tag k="addr:city" v="Cambridge"/>
    <tag k="addr:housenumber" v="23"/>
    <tag k="addr:postcode" v="CB22 7QR"/>
    <tag k="addr:street" v="Lawrance Lea"/>
    <tag k="addr:village" v="Harston"/>
    <tag k="building" v="detached"/>
    <tag k="building:levels" v="2"/>
    <tag k="roof:shape" v="gabled"/>
  </way>
  <way id="170591417" version="3" timestamp="2014-02-24T20:04:50Z" changeset="20758436" uid="1952553" user="Matthew Law">
    <nd ref="1817628456"/>
    <nd ref="1817628467"/>
    <nd ref="1817628457"/>
    <nd ref="1817628471"/>
    <nd ref="1817628477"/>
    <nd ref="1817628499"/>
    <nd ref="1817628456"/>
    <tag k="addr:housenumber" v="26"/>
    <tag k="addr:postcode" v="CB22 7QR"/>
    <tag k="addr:street" v="Lawrance Lea"/>
    <tag k="building" v="yes"/>
  </way>
  <way id="170591418" version="3" timestamp="2014-02-24T20:04:49Z" changeset="20758436" uid="1952553" user="Matthew Law">
    <nd ref="1817628503"/>
    <nd ref="1817628600"/>
    <nd ref="1817628481"/>
    <nd ref="1817628532"/>
    <nd ref="1817628527"/>
    <nd ref="1817628547"/>
    <nd ref="1817628503"/>
    <tag k="addr:housenumber" v="30"/>
    <tag k="addr:postcode" v="CB22 7QR"/>
    <tag k="addr:street" v="Lawrance Lea"/>
    <tag k="building" v="yes"/>
  </way>
  <way id="170591419" version="3" timestamp="2014-02-24T20:04:50Z" changeset="20758436" uid="1952553" user="Matthew Law">
    <nd ref="1817628496"/>
    <nd ref="1817628494"/>
    <nd ref="1817628584"/>
    <nd ref="1817628574"/>
    <nd ref="1817628548"/>
    <nd ref="1817628554"/>
    <nd ref="1817628475"/>
    <nd ref="1817628540"/>
    <nd ref="1817628496"/>
    <tag k="addr:housenumber" v="27"/>
    <tag k="addr:postcode" v="CB22 7QR"/>
    <tag k="addr:street" v="Lawrance Lea"/>
    <tag k="building" v="yes"/>
  </way>
  <way id="170591420" version="5" timestamp="2021-11-03T11:21:22Z" changeset="113325682" uid="7675562" user="ChildishGiant">
    <nd ref="1817628521"/>
    <nd ref="1817628544"/>
    <nd ref="1817628598"/>
    <nd ref="1817628595"/>
    <nd ref="1817628549"/>
    <nd ref="1817628604"/>
    <nd ref="1817628521"/>
    <tag k="addr:housenumber" v="22"/>
    <tag k="addr:postcode" v="CB22 7QR"/>
    <tag k="addr:street" v="Lawrance Lea"/>
    <tag k="building" v="detached"/>
    <tag k="building:levels" v="2"/>
  </way>
  <way id="170591421" version="3" timestamp="2014-02-24T20:04:49Z" changeset="20758436" uid="1952553" user="Matthew Law">
    <nd ref="1817628486"/>
    <nd ref="1817628498"/>
    <nd ref="1817628538"/>
    <nd ref="1817628592"/>
    <nd ref="1817628534"/>
    <nd ref="1817628530"/>
    <nd ref="1817628486"/>
    <tag k="addr:housenumber" v="28"/>
    <tag k="addr:postcode" v="CB22 7QR"/>
    <tag k="addr:street" v="Lawrance Lea"/>
    <tag k="building" v="yes"/>
  </way>
  <way id="170591422" version="8" timestamp="2021-11-03T11:20:52Z" changeset="113325682" uid="7675562" user="ChildishGiant">
    <nd ref="1817628454"/>
    <nd ref="1817628550"/>
    <nd ref="1817628524"/>
    <nd ref="1817628551"/>
    <nd ref="1817628569"/>
    <nd ref="1817628491"/>
    <nd ref="1858768263"/>
    <nd ref="1817628571"/>
    <nd ref="1817628454"/>
    <tag k="addr:housenumber" v="24"/>
    <tag k="addr:postcode" v="CB22 7QR"/>
    <tag k="addr:street" v="Lawrance Lea"/>
    <tag k="building" v="detached"/>
  </way>
  <way id="170592109" version="3" timestamp="2014-02-24T20:04:46Z" changeset="20758436" uid="1952553" user="Matthew Law">
    <nd ref="1817633613"/>
    <nd ref="1817633719"/>
    <nd ref="1817633678"/>
    <nd ref="1817633708"/>
    <nd ref="1817633613"/>
    <tag k="addr:housenumber" v="5"/>
    <tag k="addr:postcode" v="CB22 7QR"/>
    <tag k="addr:street" v="Lawrance Lea"/>
    <tag k="building" v="yes"/>
  </way>
  <way id="170592112" version="3" timestamp="2014-02-24T20:04:47Z" changeset="20758436" uid="1952553" user="Matthew Law">
    <nd ref="1817633614"/>
    <nd ref="1817633609"/>
    <nd ref="1817633640"/>
    <nd ref="1817633744"/>
    <nd ref="1817633673"/>
    <nd ref="1817633607"/>
    <nd ref="1817633637"/>
    <nd ref="1817633611"/>
    <nd ref="1817633614"/>
    <tag k="addr:housenumber" v="3"/>
    <tag k="addr:postcode" v="CB22 7QR"/>
    <tag k="addr:street" v="Lawrance Lea"/>
    <tag k="building" v="yes"/>
  </way>
  <way id="170592113" version="4" timestamp="2021-06-02T14:06:47Z" changeset="105724915" uid="1407308" user="mandelmaker">
    <nd ref="1817633618"/>
    <nd ref="1817633674"/>
    <nd ref="1817633630"/>
    <nd ref="1817633600"/>
    <nd ref="1817633670"/>
    <nd ref="1817633712"/>
    <nd ref="1817633618"/>
    <tag k="addr:housenumber" v="1a"/>
    <tag k="addr:postcode" v="CB22 7QR"/>
    <tag k="addr:street" v="Lawrance Lea"/>
    <tag k="building" v="yes"/>
    <tag k="building:levels" v="2"/>
  </way>
  <way id="170592114" version="3" timestamp="2014-02-24T20:04:47Z" changeset="20758436" uid="1952553" user="Matthew Law">
    <nd ref="1817633651"/>
    <nd ref="1817633634"/>
    <nd ref="1817633663"/>
    <nd ref="1817633631"/>
    <nd ref="1817633727"/>
    <nd ref="1817633619"/>
    <nd ref="1817633595"/>
    <nd ref="1817633653"/>
    <nd ref="1817633651"/>
    <tag k="addr:housenumber" v="7"/>
    <tag k="addr:postcode" v="CB22 7QR"/>
    <tag k="addr:street" v="Lawrance Lea"/>
    <tag k="building" v="yes"/>
  </way>
  <way id="170592115" version="3" timestamp="2014-02-24T20:04:48Z" changeset="20758436" uid="1952553" user="Matthew Law">
    <nd ref="1817633721"/>
    <nd ref="1817633654"/>
    <nd ref="1817633601"/>
    <nd ref="1817633677"/>
    <nd ref="1817633721"/>
    <tag k="addr:housenumber" v="6"/>
    <tag k="addr:postcode" v="CB22 7QR"/>
    <tag k="addr:street" v="Lawrance Lea"/>
    <tag k="building" v="yes"/>
  </way>
  <way id="170592116" version="3" timestamp="2014-02-24T20:04:47Z" changeset="20758436" uid="1952553" user="Matthew Law">
    <nd ref="1817633603"/>
    <nd ref="1817633682"/>
    <nd ref="1817633612"/>
    <nd ref="1817633616"/>
    <nd ref="1817633675"/>
    <nd ref="1817633650"/>
    <nd ref="1817633603"/>
    <tag k="addr:housenumber" v="4"/>
    <tag k="addr:postcode" v="CB22 7QR"/>
    <tag k="addr:street" v="Lawrance Lea"/>
    <tag k="building" v="yes"/>
  </way>
  <way id="170592122" version="4" timestamp="2021-07-16T12:30:57Z" changeset="108118530" uid="1407308" user="mandelmaker">
    <nd ref="1817633725"/>
    <nd ref="1817633633"/>
    <nd ref="1817633638"/>
    <nd ref="1817633594"/>
    <nd ref="1817633667"/>
    <nd ref="1817633626"/>
    <nd ref="1817633725"/>
    <tag k="addr:housenumber" v="2"/>
    <tag k="addr:postcode" v="CB22 7QR"/>
    <tag k="addr:street" v="Lawrance Lea"/>
    <tag k="building" v="yes"/>
    <tag k="building:levels" v="2"/>
  </way>
  <way id="170592126" version="5" timestamp="2021-09-25T16:10:03Z" changeset="111693302" uid="7675562" user="ChildishGiant">
    <nd ref="1817633636"/>
    <nd ref="1817633621"/>
    <nd ref="1817633739"/>
    <nd ref="1817633746"/>
    <nd ref="1817633688"/>
    <nd ref="1817633695"/>
    <nd ref="1817633710"/>
    <nd ref="1817633681"/>
    <nd ref="1817633636"/>
    <tag k="addr:housenumber" v="1"/>
    <tag k="addr:postcode" v="CB22 7QR"/>
    <tag k="addr:street" v="Lawrance Lea"/>
    <tag k="building" v="detached"/>
    <tag k="building:levels" v="2"/>
  </way>
  <way id="170644525" version="3" timestamp="2012-08-21T20:15:55Z" changeset="12813205" uid="322785" user="BCNorwich">
    <nd ref="1818039832"/>
    <nd ref="1818039830"/>
    <tag k="bicycle" v="yes"/>
    <tag k="bridge" v="yes"/>
    <tag k="foot" v="yes"/>
    <tag k="highway" v="residential"/>
    <tag k="layer" v="1"/>
    <tag k="note" v="name is &quot;Access to the footpath&quot;, possibly?"/>
    <tag k="source" v="Bing; gps"/>
    <tag k="source:name" v="dictaphone"/>
  </way>
  <way id="170827417" version="3" timestamp="2015-04-17T17:40:57Z" changeset="30291452" uid="1165720" user="CatSpring">
    <nd ref="1819640686"/>
    <nd ref="1819640680"/>
    <nd ref="1819640682"/>
    <nd ref="1819640684"/>
    <nd ref="1819640686"/>
    <tag k="addr:housenumber" v="10b"/>
    <tag k="addr:postcode" v="CB22 7PX"/>
    <tag k="addr:street" v="High Street"/>
    <tag k="building" v="yes"/>
  </way>
  <way id="174649278" version="5" timestamp="2021-09-20T02:07:33Z" changeset="111428181" uid="7675562" user="ChildishGiant">
    <nd ref="1817600483"/>
    <nd ref="1817600487"/>
    <nd ref="1817600605"/>
    <nd ref="1853036895"/>
    <nd ref="1817600483"/>
    <tag k="addr:housenumber" v="18"/>
    <tag k="addr:street" v="Orchard Close"/>
    <tag k="building" v="yes"/>
  </way>
  <way id="174649383" version="3" timestamp="2021-09-20T02:07:49Z" changeset="111428181" uid="7675562" user="ChildishGiant">
    <nd ref="1853038291"/>
    <nd ref="1853038286"/>
    <nd ref="1853038288"/>
    <nd ref="1853038290"/>
    <nd ref="1853038287"/>
    <nd ref="1853038289"/>
    <nd ref="1853038285"/>
    <nd ref="1853038292"/>
    <nd ref="1853038291"/>
    <tag k="addr:housenumber" v="20"/>
    <tag k="addr:street" v="Orchard Close"/>
    <tag k="building" v="yes"/>
  </way>
  <way id="174652127" version="2" timestamp="2014-02-24T20:11:23Z" changeset="20758436" uid="1952553" user="Matthew Law">
    <nd ref="1853075086"/>
    <nd ref="1853075085"/>
    <nd ref="1853075088"/>
    <nd ref="1853075087"/>
    <nd ref="1853075086"/>
    <tag k="addr:housenumber" v="8"/>
    <tag k="addr:street" v="The Paddock"/>
    <tag k="building" v="yes"/>
  </way>
  <way id="177212603" version="2" timestamp="2014-09-22T17:38:59Z" changeset="25608439" uid="2219338" user="RichRico">
    <nd ref="1818039830"/>
    <nd ref="33129343"/>
    <tag k="access" v="permissive"/>
    <tag k="bicycle" v="yes"/>
    <tag k="foot" v="yes"/>
    <tag k="highway" v="residential"/>
    <tag k="note" v="name is &quot;Access to the footpath&quot;, possibly?"/>
    <tag k="source" v="Bing; gps"/>
    <tag k="source:name" v="dictaphone"/>
  </way>
  <way id="282581204" version="4" timestamp="2021-11-03T10:53:48Z" changeset="113325691" uid="7675562" user="ChildishGiant">
    <nd ref="2865241728"/>
    <nd ref="1815058938"/>
    <nd ref="1815058978"/>
    <nd ref="1815058927"/>
    <nd ref="1815058844"/>
    <nd ref="1815059014"/>
    <nd ref="2865241728"/>
    <tag k="addr:housename" v="Melbourn House"/>
    <tag k="addr:housenumber" v="40"/>
    <tag k="addr:postcode" v="CB22 7NH"/>
    <tag k="addr:street" v="Royston Road"/>
    <tag k="building" v="house"/>
    <tag k="building:levels" v="2"/>
    <tag k="roof:levels" v="1"/>
    <tag k="roof:shape" v="hipped"/>
    <tag k="source" v="survey; knowledge"/>
  </way>
  <way id="294636535" version="1" timestamp="2014-07-27T07:57:04Z" changeset="24379266" uid="2163773" user="AlastairOatey">
    <nd ref="2865241727"/>
    <nd ref="2982295138"/>
    <nd ref="1815058969"/>
    <nd ref="1815059012"/>
    <nd ref="2865241727"/>
    <tag k="addr:housenumber" v="42"/>
    <tag k="addr:street" v="Royston Road"/>
    <tag k="building" v="house"/>
  </way>
  <way id="321899821" version="1" timestamp="2015-01-13T21:24:10Z" changeset="28122183" uid="2032231" user="narboy">
    <nd ref="3286722052"/>
    <nd ref="3286722058"/>
    <tag k="highway" v="residential"/>
    <tag k="name" v="Mill Road"/>
    <tag k="source:name" v="dictaphone"/>
  </way>
  <way id="435380539" version="10" timestamp="2025-02-27T20:14:48Z" changeset="163027404" uid="5229644" user="Nathan_A_RF">
    <nd ref="1811733714"/>
    <nd ref="8485712296"/>
    <nd ref="5276148"/>
    <nd ref="4332956568"/>
    <nd ref="5276149"/>
    <nd ref="8292477951"/>
    <nd ref="4332957098"/>
    <nd ref="33129073"/>
    <nd ref="1961441207"/>
    <nd ref="7566018740"/>
    <nd ref="33129228"/>
    <nd ref="1852945155"/>
    <nd ref="5276151"/>
    <nd ref="33129074"/>
    <nd ref="33129075"/>
    <nd ref="8759520738"/>
    <nd ref="4937552935"/>
    <nd ref="4937552933"/>
    <nd ref="5276152"/>
    <nd ref="4937552938"/>
    <nd ref="4937552936"/>
    <nd ref="33129076"/>
    <nd ref="4937551100"/>
    <tag k="abutters" v="residential"/>
    <tag k="cycleway:right" v="separate"/>
    <tag k="highway" v="trunk"/>
    <tag k="lanes" v="2"/>
    <tag k="lit" v="yes"/>
    <tag k="maxspeed" v="30 mph"/>
    <tag k="maxspeed:type" v="GB:nsl_restricted"/>
    <tag k="name" v="High Street"/>
    <tag k="ref" v="A10"/>
    <tag k="sidewalk:both" v="separate"/>
    <tag k="source:name" v="dictaphone"/>
    <tag k="surface" v="asphalt"/>
  </way>
  <way id="503441254" version="6" timestamp="2025-02-27T20:14:48Z" changeset="163027404" uid="5229644" user="Nathan_A_RF">
    <nd ref="968094754"/>
    <nd ref="4937516220"/>
    <nd ref="4937516523"/>
    <nd ref="4937516527"/>
    <tag k="abutters" v="residential"/>
    <tag k="cycleway:left" v="separate"/>
    <tag k="cycleway:right" v="no"/>
    <tag k="highway" v="trunk"/>
    <tag k="lanes" v="1"/>
    <tag k="lit" v="yes"/>
    <tag k="maxspeed" v="30 mph"/>
    <tag k="maxspeed:type" v="GB:nsl_restricted"/>
    <tag k="name" v="Royston Road"/>
    <tag k="oneway" v="yes"/>
    <tag k="ref" v="A10"/>
    <tag k="sidewalk:left" v="separate"/>
    <tag k="source:name" v="dictaphone"/>
    <tag k="surface" v="asphalt"/>
  </way>
  <way id="503441255" version="6" timestamp="2025-02-27T20:14:48Z" changeset="163027404" uid="5229644" user="Nathan_A_RF">
    <nd ref="968094754"/>
    <nd ref="21281539"/>
    <tag k="abutters" v="residential"/>
    <tag k="cycleway:right" v="separate"/>
    <tag k="highway" v="trunk"/>
    <tag k="lanes" v="2"/>
    <tag k="lit" v="yes"/>
    <tag k="maxspeed" v="30 mph"/>
    <tag k="maxspeed:type" v="GB:nsl_restricted"/>
    <tag k="name" v="Royston Road"/>
    <tag k="ref" v="A10"/>
    <tag k="sidewalk:right" v="separate"/>
    <tag k="source:name" v="dictaphone"/>
    <tag k="surface" v="asphalt"/>
  </way>
  <way id="503441257" version="4" timestamp="2025-02-27T20:14:48Z" changeset="163027404" uid="5229644" user="Nathan_A_RF">
    <nd ref="4937516527"/>
    <nd ref="1657933389"/>
    <nd ref="4937516521"/>
    <nd ref="968094754"/>
    <tag k="abutters" v="residential"/>
    <tag k="highway" v="trunk"/>
    <tag k="lanes" v="1"/>
    <tag k="lit" v="yes"/>
    <tag k="maxspeed" v="30 mph"/>
    <tag k="maxspeed:type" v="GB:nsl_restricted"/>
    <tag k="name" v="Royston Road"/>
    <tag k="oneway" v="yes"/>
    <tag k="ref" v="A10"/>
    <tag k="source:name" v="dictaphone"/>
    <tag k="surface" v="asphalt"/>
  </way>
  <way id="503441259" version="6" timestamp="2025-02-27T20:14:48Z" changeset="163027404" uid="5229644" user="Nathan_A_RF">
    <nd ref="33129078"/>
    <nd ref="1657486729"/>
    <nd ref="5276158"/>
    <nd ref="4937516527"/>
    <tag k="abutters" v="residential"/>
    <tag k="cycleway:right" v="separate"/>
    <tag k="highway" v="trunk"/>
    <tag k="lanes" v="2"/>
    <tag k="lit" v="yes"/>
    <tag k="maxspeed" v="30 mph"/>
    <tag k="maxspeed:type" v="GB:nsl_restricted"/>
    <tag k="name" v="Royston Road"/>
    <tag k="ref" v="A10"/>
    <tag k="sidewalk:right" v="separate"/>
    <tag k="source:name" v="dictaphone"/>
    <tag k="surface" v="asphalt"/>
  </way>
  <way id="503441507" version="11" timestamp="2025-02-27T20:14:48Z" changeset="163027404" uid="5229644" user="Nathan_A_RF">
    <nd ref="5276156"/>
    <nd ref="8806530984"/>
    <nd ref="9563550262"/>
    <nd ref="1437445121"/>
    <nd ref="4937518195"/>
    <nd ref="21098661"/>
    <nd ref="4937518194"/>
    <nd ref="1657933454"/>
    <nd ref="21076767"/>
    <nd ref="1657933452"/>
    <nd ref="4937266326"/>
    <nd ref="21098662"/>
    <nd ref="4937495534"/>
    <nd ref="1437445134"/>
    <nd ref="33129078"/>
    <tag k="abutters" v="residential"/>
    <tag k="cycleway:left" v="separate"/>
    <tag k="cycleway:right" v="separate"/>
    <tag k="highway" v="trunk"/>
    <tag k="lanes" v="2"/>
    <tag k="lit" v="yes"/>
    <tag k="maxspeed" v="30 mph"/>
    <tag k="maxspeed:type" v="GB:nsl_restricted"/>
    <tag k="name" v="Royston Road"/>
    <tag k="ref" v="A10"/>
    <tag k="sidewalk:both" v="separate"/>
    <tag k="source:name" v="dictaphone"/>
    <tag k="surface" v="asphalt"/>
  </way>
  <way id="503442074" version="8" timestamp="2025-02-27T20:14:48Z" changeset="163027404" uid="5229644" user="Nathan_A_RF">
    <nd ref="1657933437"/>
    <nd ref="1437445137"/>
    <nd ref="1657933432"/>
    <nd ref="33129077"/>
    <nd ref="1657933423"/>
    <nd ref="5276155"/>
    <nd ref="1657933430"/>
    <nd ref="21281588"/>
    <nd ref="12607101658"/>
    <nd ref="33129184"/>
    <nd ref="12607069625"/>
    <nd ref="5276156"/>
    <tag k="abutters" v="residential"/>
    <tag k="cycleway:right" v="separate"/>
    <tag k="highway" v="trunk"/>
    <tag k="lanes" v="2"/>
    <tag k="lit" v="yes"/>
    <tag k="maxspeed" v="30 mph"/>
    <tag k="maxspeed:type" v="GB:nsl_restricted"/>
    <tag k="name" v="Royston Road"/>
    <tag k="ref" v="A10"/>
    <tag k="sidewalk:both" v="separate"/>
    <tag k="source:name" v="dictaphone"/>
    <tag k="surface" v="asphalt"/>
  </way>
  <way id="503446531" version="7" timestamp="2025-02-27T20:14:48Z" changeset="163027404" uid="5229644" user="Nathan_A_RF">
    <nd ref="1657933437"/>
    <nd ref="4937551097"/>
    <nd ref="4937551098"/>
    <nd ref="4937551100"/>
    <tag k="abutters" v="residential"/>
    <tag k="cycleway:right" v="separate"/>
    <tag k="highway" v="trunk"/>
    <tag k="lanes" v="2"/>
    <tag k="lit" v="yes"/>
    <tag k="maxspeed" v="30 mph"/>
    <tag k="maxspeed:type" v="GB:nsl_restricted"/>
    <tag k="name" v="High Street"/>
    <tag k="ref" v="A10"/>
    <tag k="sidewalk:left" v="separate"/>
    <tag k="source:name" v="dictaphone"/>
    <tag k="surface" v="asphalt"/>
  </way>
  <way id="635801453" version="2" timestamp="2020-02-20T11:30:38Z" changeset="81269693" uid="10804708" user="mobiusmap">
    <nd ref="5996578084"/>
    <nd ref="5996578081"/>
    <nd ref="5996578082"/>
    <nd ref="5996578083"/>
    <nd ref="5996578084"/>
    <tag k="addr:housename" v="Avocet House"/>
    <tag k="addr:housenumber" v="10"/>
    <tag k="addr:street" v="The Pastures"/>
    <tag k="building" v="yes"/>
  </way>
  <way id="635801454" version="1" timestamp="2018-10-18T21:25:28Z" changeset="63660810" uid="5173844" user="ndrw6">
    <nd ref="5996578187"/>
    <nd ref="5996578185"/>
    <tag k="highway" v="residential"/>
  </way>
  <way id="635801455" version="3" timestamp="2024-06-14T15:17:03Z" changeset="152684838" uid="953779" user="Adam Edwards">
    <nd ref="5996578191"/>
    <nd ref="11981074321"/>
    <nd ref="5996578190"/>
    <nd ref="5996578189"/>
    <nd ref="5996578188"/>
    <nd ref="5996578187"/>
    <nd ref="5996578186"/>
    <tag k="highway" v="residential"/>
    <tag k="name" v="The Pastures"/>
    <tag k="oneway" v="no"/>
  </way>
  <way id="829743397" version="3" timestamp="2025-02-27T20:14:48Z" changeset="163027404" uid="5229644" user="Nathan_A_RF">
    <nd ref="566364712"/>
    <nd ref="566364709"/>
    <tag k="abutters" v="residential"/>
    <tag k="highway" v="secondary"/>
    <tag k="lanes" v="2"/>
    <tag k="lit" v="yes"/>
    <tag k="maxspeed" v="30 mph"/>
    <tag k="maxspeed:type" v="GB:nsl_restricted"/>
    <tag k="name" v="London Road"/>
    <tag k="oneway" v="yes"/>
    <tag k="ref" v="B1368"/>
    <tag k="source:lit" v="survey (Oct 2010)"/>
    <tag k="source:name" v="dictaphone"/>
    <tag k="surface" v="asphalt"/>
  </way>
  <way id="913482441" version="1" timestamp="2021-03-04T11:02:15Z" changeset="100416408" uid="12675658" user="James Warren 18">
    <nd ref="8485664280"/>
    <nd ref="8485664281"/>
    <nd ref="8485664282"/>
    <nd ref="8485664283"/>
    <nd ref="8485664284"/>
    <nd ref="8485664285"/>
    <nd ref="8485664286"/>
    <nd ref="8485664287"/>
    <nd ref="8485664288"/>
    <nd ref="8485664289"/>
    <nd ref="8485664290"/>
    <nd ref="8485664291"/>
    <nd ref="8485664280"/>
    <tag k="addr:city" v="Cambridge"/>
    <tag k="addr:housename" v="2 Home Farm"/>
    <tag k="addr:housenumber" v="89"/>
    <tag k="addr:postcode" v="CB22 7PZ"/>
    <tag k="addr:street" v="High Street"/>
    <tag k="building" v="house"/>
    <tag k="building:levels" v="2"/>
    <tag k="roof:colour" v="black"/>
  </way>
  <way id="913485017" version="1" timestamp="2021-03-04T11:11:07Z" changeset="100417186" uid="12675658" user="James Warren 18">
    <nd ref="8485712286"/>
    <nd ref="8485712287"/>
    <nd ref="8485712288"/>
    <nd ref="8485712289"/>
    <tag k="highway" v="residential"/>
  </way>
  <way id="913485018" version="1" timestamp="2021-03-04T11:11:07Z" changeset="100417186" uid="12675658" user="James Warren 18">
    <nd ref="8485712290"/>
    <nd ref="8485712291"/>
    <nd ref="8485712292"/>
    <nd ref="8485712293"/>
    <nd ref="8485712294"/>
    <nd ref="8485712295"/>
    <nd ref="8485712296"/>
    <tag k="highway" v="residential"/>
  </way>
  <way id="913485019" version="2" timestamp="2021-04-26T12:11:03Z" changeset="103636319" uid="9259458" user="aepunavy">
    <nd ref="8485712294"/>
    <nd ref="8485712298"/>
    <nd ref="1859011041"/>
    <nd ref="8485712299"/>
    <nd ref="8485712300"/>
    <nd ref="8485712289"/>
    <tag k="highway" v="residential"/>
  </way>
  <way id="985117182" version="3" timestamp="2021-11-21T03:38:25Z" changeset="114045898" uid="7675562" user="ChildishGiant">
    <nd ref="9107643473"/>
    <nd ref="9107643474"/>
    <nd ref="9107643475"/>
    <nd ref="9107643476"/>
    <nd ref="9107643477"/>
    <nd ref="9107643478"/>
    <nd ref="9107643479"/>
    <nd ref="9107643480"/>
    <nd ref="9107643473"/>
    <tag k="addr:housenumber" v="5,7"/>
    <tag k="addr:street" v="Station Road"/>
    <tag k="building" v="house"/>
  </way>
  <way id="1002374473" version="1" timestamp="2021-11-14T18:01:23Z" changeset="113773348" uid="242345" user="confusedbuffalo">
    <nd ref="9251049897"/>
    <nd ref="1815893712"/>
    <nd ref="1815893696"/>
    <nd ref="1815893778"/>
    <nd ref="9251049897"/>
    <tag k="addr:city" v="Cambridge"/>
    <tag k="addr:housenumber" v="10"/>
    <tag k="addr:street" v="Station Road"/>
    <tag k="addr:village" v="Harston"/>
    <tag k="building" v="semidetached_house"/>
    <tag k="building:levels" v="2"/>
    <tag k="roof:shape" v="gabled"/>
  </way>
  <way id="1002374475" version="1" timestamp="2021-11-14T18:01:23Z" changeset="113773348" uid="242345" user="confusedbuffalo">
    <nd ref="9251049906"/>
    <nd ref="9251049905"/>
    <nd ref="9251049904"/>
    <nd ref="9251049900"/>
    <nd ref="9251049901"/>
    <nd ref="9251049902"/>
    <nd ref="9251049903"/>
    <nd ref="9251049906"/>
    <tag k="addr:city" v="Cambridge"/>
    <tag k="addr:housenumber" v="7"/>
    <tag k="addr:postcode" v="CB22 7NH"/>
    <tag k="addr:street" v="Royston Road"/>
    <tag k="addr:village" v="Harston"/>
    <tag k="building" v="semidetached_house"/>
  </way>
  <way id="1361711934" version="1" timestamp="2025-02-21T14:52:47Z" changeset="162784099" uid="5008136" user="JayTurnr">
    <nd ref="12607098942"/>
    <nd ref="981680264"/>
    <nd ref="1537175163"/>
    <tag k="cycleway:right" v="separate"/>
    <tag k="highway" v="trunk"/>
    <tag k="lanes" v="2"/>
    <tag k="lit" v="yes"/>
    <tag k="maxspeed" v="60 mph"/>
    <tag k="maxspeed:type" v="GB:nsl_single"/>
    <tag k="name" v="Royston Road"/>
    <tag k="ref" v="A10"/>
    <tag k="sidewalk:right" v="separate"/>
    <tag k="source" v="OS Opendata StreetView"/>
    <tag k="source:name" v="OS Opendata StreetView"/>
    <tag k="surface" v="asphalt"/>
  </way>
  <way id="1363408397" version="1" timestamp="2025-02-27T20:14:48Z" changeset="163027404" uid="5229644" user="Nathan_A_RF">
    <nd ref="566364710"/>
    <nd ref="12624039346"/>
    <nd ref="1859038652"/>
    <nd ref="582687675"/>
    <nd ref="566364712"/>
    <tag k="abutters" v="residential"/>
    <tag k="highway" v="secondary"/>
    <tag k="lanes" v="2"/>
    <tag k="lit" v="yes"/>
    <tag k="maxspeed" v="30 mph"/>
    <tag k="maxspeed:type" v="GB:nsl_restricted"/>
    <tag k="name" v="London Road"/>
    <tag k="oneway" v="yes"/>
    <tag k="ref" v="B1368"/>
    <tag k="source:lit" v="survey (Oct 2010)"/>
    <tag k="source:name" v="dictaphone"/>
    <tag k="surface" v="asphalt"/>
  </way>
  <way id="1363408398" version="1" timestamp="2025-02-27T20:14:48Z" changeset="163027404" uid="5229644" user="Nathan_A_RF">
    <nd ref="566364709"/>
    <nd ref="12624039343"/>
    <nd ref="12624039344"/>
    <nd ref="12624039345"/>
    <nd ref="566364710"/>
    <tag k="abutters" v="residential"/>
    <tag k="highway" v="secondary"/>
    <tag k="lanes" v="1"/>
    <tag k="lit" v="yes"/>
    <tag k="maxspeed" v="30 mph"/>
    <tag k="maxspeed:type" v="GB:nsl_restricted"/>
    <tag k="name" v="London Road"/>
    <tag k="oneway" v="yes"/>
    <tag k="ref" v="B1368"/>
    <tag k="source:lit" v="survey (Oct 2010)"/>
    <tag k="source:name" v="dictaphone"/>
    <tag k="surface" v="asphalt"/>
  </way>

</osm>
