<?xml version="1.0" encoding="UTF-8"?>
<osm version="0.6" generator="Overpass API 0.7.62.5 1bd436f1">
<note>The data included in this document is from www.openstreetmap.org. The data is made available under ODbL.</note>
<meta osm_base="2025-03-25T15:51:09Z" areas="2025-02-06T02:17:44Z"/>

  <node id="6055228495" lat="52.1932752" lon="-0.2020960" version="2" timestamp="2022-07-16T16:09:28Z" changeset="123694679" uid="242345" user="confusedbuffalo">
    <tag k="addr:city" v="St Neots"/>
    <tag k="addr:housenumber" v="5"/>
    <tag k="addr:postcode" v="PE19 6WQ"/>
    <tag k="addr:street" v="Lion Farm Court"/>
  </node>
  <node id="6055228522" lat="52.1930253" lon="-0.2016427" version="2" timestamp="2022-07-16T16:09:28Z" changeset="123694679" uid="242345" user="confusedbuffalo">
    <tag k="addr:city" v="St Neots"/>
    <tag k="addr:housenumber" v="2"/>
    <tag k="addr:postcode" v="PE19 6WQ"/>
    <tag k="addr:street" v="Lion Farm Court"/>
  </node>
  <node id="6055228528" lat="52.1933409" lon="-0.2016213" version="2" timestamp="2022-07-16T16:09:28Z" changeset="123694679" uid="242345" user="confusedbuffalo">
    <tag k="addr:city" v="St Neots"/>
    <tag k="addr:housenumber" v="6"/>
    <tag k="addr:postcode" v="PE19 6WQ"/>
    <tag k="addr:street" v="Lion Farm Court"/>
  </node>
  <node id="6055228532" lat="52.1929366" lon="-0.2018090" version="2" timestamp="2022-07-16T16:09:28Z" changeset="123694679" uid="242345" user="confusedbuffalo">
    <tag k="addr:city" v="St Neots"/>
    <tag k="addr:housenumber" v="3"/>
    <tag k="addr:postcode" v="PE19 6WQ"/>
    <tag k="addr:street" v="Lion Farm Court"/>
  </node>
  <node id="6055228568" lat="52.1931257" lon="-0.2014791" version="2" timestamp="2022-07-16T16:09:28Z" changeset="123694679" uid="242345" user="confusedbuffalo">
    <tag k="addr:city" v="St Neots"/>
    <tag k="addr:housenumber" v="1"/>
    <tag k="addr:postcode" v="PE19 6WQ"/>
    <tag k="addr:street" v="Lion Farm Court"/>
  </node>
  <node id="6055228570" lat="52.1929727" lon="-0.2020692" version="2" timestamp="2022-07-16T16:09:28Z" changeset="123694679" uid="242345" user="confusedbuffalo">
    <tag k="addr:city" v="St Neots"/>
    <tag k="addr:housenumber" v="4"/>
    <tag k="addr:postcode" v="PE19 6WQ"/>
    <tag k="addr:street" v="Lion Farm Court"/>
  </node>
  <node id="6350127411" lat="52.1939774" lon="-0.2000300" version="2" timestamp="2022-07-16T16:09:28Z" changeset="123694679" uid="242345" user="confusedbuffalo">
    <tag k="addr:city" v="St Neots"/>
    <tag k="addr:housenumber" v="93"/>
    <tag k="addr:postcode" v="PE19 6UE"/>
    <tag k="addr:street" v="High Street"/>
  </node>
  <node id="6350127412" lat="52.1937916" lon="-0.2065611" version="2" timestamp="2022-07-16T16:09:28Z" changeset="123694679" uid="242345" user="confusedbuffalo">
    <tag k="addr:city" v="St Neots"/>
    <tag k="addr:housenumber" v="4"/>
    <tag k="addr:postcode" v="PE19 6UL"/>
    <tag k="addr:street" v="High Green"/>
  </node>
  <node id="6350127413" lat="52.1937900" lon="-0.2063921" version="2" timestamp="2022-07-16T16:09:28Z" changeset="123694679" uid="242345" user="confusedbuffalo">
    <tag k="addr:city" v="St Neots"/>
    <tag k="addr:housenumber" v="2"/>
    <tag k="addr:postcode" v="PE19 6UL"/>
    <tag k="addr:street" v="High Green"/>
  </node>
  <node id="6350127415" lat="52.1936552" lon="-0.2066281" version="2" timestamp="2022-07-16T16:09:28Z" changeset="123694679" uid="242345" user="confusedbuffalo">
    <tag k="addr:city" v="St Neots"/>
    <tag k="addr:housenumber" v="8"/>
    <tag k="addr:postcode" v="PE19 6UL"/>
    <tag k="addr:street" v="High Green"/>
  </node>
  <node id="6350127417" lat="52.1937439" lon="-0.2065745" version="2" timestamp="2022-07-16T16:09:28Z" changeset="123694679" uid="242345" user="confusedbuffalo">
    <tag k="addr:city" v="St Neots"/>
    <tag k="addr:housenumber" v="6"/>
    <tag k="addr:postcode" v="PE19 6UL"/>
    <tag k="addr:street" v="High Green"/>
  </node>
  <node id="6350127419" lat="52.1936123" lon="-0.2066603" version="2" timestamp="2022-07-16T16:09:28Z" changeset="123694679" uid="242345" user="confusedbuffalo">
    <tag k="addr:city" v="St Neots"/>
    <tag k="addr:housenumber" v="10"/>
    <tag k="addr:postcode" v="PE19 6UL"/>
    <tag k="addr:street" v="High Green"/>
  </node>
  <node id="6350127420" lat="52.1935466" lon="-0.2067113" version="2" timestamp="2022-07-16T16:09:28Z" changeset="123694679" uid="242345" user="confusedbuffalo">
    <tag k="addr:city" v="St Neots"/>
    <tag k="addr:housenumber" v="14"/>
    <tag k="addr:postcode" v="PE19 6UL"/>
    <tag k="addr:street" v="High Green"/>
  </node>
  <node id="6350127421" lat="52.1939001" lon="-0.2004377" version="2" timestamp="2022-07-16T16:09:28Z" changeset="123694679" uid="242345" user="confusedbuffalo">
    <tag k="addr:city" v="St Neots"/>
    <tag k="addr:housenumber" v="77"/>
    <tag k="addr:postcode" v="PE19 6UE"/>
    <tag k="addr:street" v="High Street"/>
  </node>
  <node id="6350127422" lat="52.1935729" lon="-0.2066898" version="2" timestamp="2022-07-16T16:09:28Z" changeset="123694679" uid="242345" user="confusedbuffalo">
    <tag k="addr:city" v="St Neots"/>
    <tag k="addr:housenumber" v="12"/>
    <tag k="addr:postcode" v="PE19 6UL"/>
    <tag k="addr:street" v="High Green"/>
  </node>
  <way id="26382368" version="15" timestamp="2019-03-21T12:08:08Z" changeset="68370841" uid="281267" user="smb1001">
    <nd ref="289029206"/>
    <nd ref="1147753016"/>
    <nd ref="289029209"/>
    <nd ref="289029047"/>
    <nd ref="1134151500"/>
    <nd ref="1289145740"/>
    <nd ref="1289145742"/>
    <tag k="highway" v="tertiary"/>
    <tag k="name" v="Croxton Road"/>
  </way>
  <way id="27439841" version="9" timestamp="2019-09-01T19:46:45Z" changeset="73981157" uid="8198058" user="ACarlotti">
    <nd ref="301281480"/>
    <nd ref="621041"/>
    <tag k="bridge" v="yes"/>
    <tag k="highway" v="secondary"/>
    <tag k="layer" v="1"/>
    <tag k="name" v="Potton Road"/>
    <tag k="ref" v="B1046"/>
  </way>
  <way id="28152863" version="1" timestamp="2008-11-01T19:42:53Z" changeset="648867" uid="66772" user="fluffhouse">
    <nd ref="309214408"/>
    <nd ref="309214409"/>
    <nd ref="309214415"/>
    <nd ref="309214422"/>
    <nd ref="309214440"/>
    <nd ref="309214441"/>
    <nd ref="309214456"/>
    <nd ref="309214457"/>
    <tag k="highway" v="residential"/>
    <tag k="name" v="Home Farm Close"/>
  </way>
  <way id="28152864" version="4" timestamp="2018-10-31T14:25:01Z" changeset="64048398" uid="281267" user="smb1001">
    <nd ref="309214458"/>
    <nd ref="6027511188"/>
    <nd ref="6027510599"/>
    <nd ref="6027511217"/>
    <nd ref="309214465"/>
    <tag k="highway" v="residential"/>
    <tag k="name" v="Harbins Lane"/>
    <tag k="source:name" v="dictaphone"/>
  </way>
  <way id="28152865" version="2" timestamp="2016-03-28T17:15:07Z" changeset="38125239" uid="281267" user="smb1001">
    <nd ref="309214497"/>
    <nd ref="309214506"/>
    <nd ref="309214504"/>
    <tag k="highway" v="residential"/>
    <tag k="name" v="Lion Farm Court"/>
  </way>
  <way id="28152867" version="1" timestamp="2008-11-01T19:42:57Z" changeset="648867" uid="66772" user="fluffhouse">
    <nd ref="309214506"/>
    <nd ref="309214556"/>
    <nd ref="309214557"/>
    <nd ref="309214682"/>
    <tag k="highway" v="residential"/>
    <tag k="name" v="Lion Farm Court"/>
  </way>
  <way id="28152869" version="3" timestamp="2018-10-31T15:19:31Z" changeset="64048398" uid="281267" user="smb1001">
    <nd ref="309214683"/>
    <nd ref="309214702"/>
    <nd ref="6027625307"/>
    <tag k="highway" v="residential"/>
    <tag k="name" v="Top Lane"/>
  </way>
  <way id="28152870" version="5" timestamp="2025-02-22T01:40:27Z" changeset="162801348" uid="493595" user="Yorvik Prestigitator">
    <nd ref="289028599"/>
    <nd ref="12608769074"/>
    <nd ref="1147753300"/>
    <nd ref="309215762"/>
    <nd ref="309214724"/>
    <nd ref="309214764"/>
    <nd ref="309214864"/>
    <nd ref="309217030"/>
    <nd ref="309214960"/>
    <nd ref="309214979"/>
    <nd ref="309215003"/>
    <nd ref="309215022"/>
    <nd ref="309215047"/>
    <nd ref="309215090"/>
    <nd ref="309215148"/>
    <nd ref="309215183"/>
    <nd ref="309215225"/>
    <nd ref="309215764"/>
    <nd ref="309215227"/>
    <nd ref="309215230"/>
    <nd ref="309215265"/>
    <nd ref="309217492"/>
    <nd ref="309215431"/>
    <nd ref="309215432"/>
    <nd ref="309215433"/>
    <tag k="highway" v="residential"/>
    <tag k="name" v="Blacksmiths Lane"/>
    <tag k="source" v="dictaphone"/>
  </way>
  <way id="28152871" version="2" timestamp="2018-11-12T16:14:29Z" changeset="64411812" uid="281267" user="smb1001">
    <nd ref="309215022"/>
    <nd ref="309215434"/>
    <nd ref="309215436"/>
    <nd ref="309215449"/>
    <nd ref="309215492"/>
    <nd ref="309215494"/>
    <nd ref="309215638"/>
    <tag k="highway" v="residential"/>
    <tag k="name" v="Blacksmiths Close"/>
  </way>
  <way id="28152874" version="2" timestamp="2009-09-03T20:04:39Z" changeset="2363320" uid="2406" user="JeffB">
    <nd ref="309215762"/>
    <nd ref="309215763"/>
    <tag k="highway" v="residential"/>
    <tag k="name" v="Cannons"/>
    <tag k="source:name" v="dictaphone"/>
  </way>
  <way id="28152876" version="1" timestamp="2008-11-01T19:43:14Z" changeset="648867" uid="66772" user="fluffhouse">
    <nd ref="309215791"/>
    <nd ref="309215794"/>
    <tag k="highway" v="residential"/>
    <tag k="name" v="Waterloo Close"/>
  </way>
  <way id="28152881" version="1" timestamp="2008-11-01T19:43:24Z" changeset="648867" uid="66772" user="fluffhouse">
    <nd ref="309215764"/>
    <nd ref="309215784"/>
    <nd ref="309215791"/>
    <nd ref="309215793"/>
    <tag k="highway" v="residential"/>
    <tag k="name" v="Waterloo Close"/>
  </way>
  <way id="28152882" version="3" timestamp="2018-11-12T16:14:29Z" changeset="64411812" uid="281267" user="smb1001">
    <nd ref="309216087"/>
    <nd ref="6055228564"/>
    <nd ref="309216145"/>
    <nd ref="309216159"/>
    <nd ref="309216212"/>
    <tag k="highway" v="residential"/>
    <tag k="name" v="Field Close"/>
    <tag k="source:name" v="dictaphone"/>
  </way>
  <way id="28152883" version="1" timestamp="2008-11-01T19:43:24Z" changeset="648867" uid="66772" user="fluffhouse">
    <nd ref="309216159"/>
    <nd ref="309216279"/>
    <tag k="highway" v="residential"/>
    <tag k="name" v="Field Close"/>
  </way>
  <way id="28152884" version="1" timestamp="2008-11-01T19:43:27Z" changeset="648867" uid="66772" user="fluffhouse">
    <nd ref="309216356"/>
    <nd ref="309216386"/>
    <nd ref="309216388"/>
    <nd ref="309216390"/>
    <nd ref="309216755"/>
    <nd ref="309216394"/>
    <tag k="highway" v="tertiary"/>
    <tag k="name" v="Pyms Gardens"/>
  </way>
  <way id="28152885" version="4" timestamp="2018-10-31T15:12:10Z" changeset="64048398" uid="281267" user="smb1001">
    <nd ref="309216046"/>
    <nd ref="6027615753"/>
    <nd ref="309216515"/>
    <nd ref="309216583"/>
    <nd ref="309216594"/>
    <nd ref="309216642"/>
    <nd ref="309216650"/>
    <nd ref="309216656"/>
    <nd ref="309216662"/>
    <nd ref="309216663"/>
    <nd ref="309216664"/>
    <nd ref="309216668"/>
    <nd ref="309216719"/>
    <nd ref="309216720"/>
    <tag k="highway" v="unclassified"/>
    <tag k="name" v="Pitsdean Road"/>
  </way>
  <way id="28152889" version="3" timestamp="2011-03-04T07:16:05Z" changeset="7452118" uid="96640" user="v12mike">
    <nd ref="309216394"/>
    <nd ref="309216753"/>
    <nd ref="309217572"/>
    <nd ref="309217592"/>
    <nd ref="309217607"/>
    <nd ref="1147753031"/>
    <nd ref="289030143"/>
    <tag k="highway" v="residential"/>
    <tag k="name" v="High Green"/>
  </way>
  <way id="28152890" version="2" timestamp="2011-03-04T07:15:57Z" changeset="7452118" uid="96640" user="v12mike">
    <nd ref="309216394"/>
    <nd ref="309215433"/>
    <nd ref="309216466"/>
    <nd ref="309216046"/>
    <tag k="highway" v="tertiary"/>
    <tag k="name" v="Pitsdean Road"/>
  </way>
  <way id="28152891" version="4" timestamp="2018-11-14T11:57:23Z" changeset="64477049" uid="281267" user="smb1001">
    <nd ref="309216755"/>
    <nd ref="309216786"/>
    <nd ref="309216804"/>
    <nd ref="6027616133"/>
    <nd ref="1180260848"/>
    <tag k="highway" v="residential"/>
    <tag k="name" v="Hardwicke Lane"/>
  </way>
  <way id="28152899" version="2" timestamp="2018-11-12T16:14:29Z" changeset="64411812" uid="281267" user="smb1001">
    <nd ref="309217492"/>
    <nd ref="6055228566"/>
    <nd ref="309217493"/>
    <nd ref="309217499"/>
    <tag k="highway" v="residential"/>
    <tag k="name" v="Grange Farm Close"/>
  </way>
  <way id="28164985" version="11" timestamp="2018-11-12T09:58:42Z" changeset="64399146" uid="281267" user="smb1001">
    <nd ref="298907204"/>
    <nd ref="309285817"/>
    <nd ref="309284265"/>
    <nd ref="309284266"/>
    <nd ref="309284267"/>
    <nd ref="309284284"/>
    <nd ref="309284285"/>
    <nd ref="309216720"/>
    <nd ref="309284286"/>
    <nd ref="309284288"/>
    <nd ref="6054461409"/>
    <nd ref="309284305"/>
    <nd ref="309284353"/>
    <nd ref="309284354"/>
    <nd ref="309284355"/>
    <nd ref="1598994896"/>
    <nd ref="1598994943"/>
    <nd ref="309284356"/>
    <nd ref="309284357"/>
    <nd ref="309284358"/>
    <nd ref="309284359"/>
    <nd ref="1598994911"/>
    <nd ref="309284360"/>
    <nd ref="4143272046"/>
    <nd ref="309284361"/>
    <nd ref="309284362"/>
    <nd ref="309284462"/>
    <nd ref="309285551"/>
    <nd ref="309285552"/>
    <nd ref="309285553"/>
    <tag k="highway" v="unclassified"/>
    <tag k="lanes" v="1"/>
    <tag k="name" v="Pitsdean Road"/>
    <tag k="note" v="&quot;Unsuitable for HGVs&quot; sign at jn with Drewells Lane"/>
  </way>
  <way id="37746228" version="14" timestamp="2024-12-29T19:31:06Z" changeset="160765333" uid="5229644" user="Nathan_A_RF">
    <nd ref="621029"/>
    <nd ref="1952492771"/>
    <nd ref="1343825647"/>
    <nd ref="621028"/>
    <nd ref="1952516117"/>
    <nd ref="1952492776"/>
    <nd ref="1343825644"/>
    <nd ref="1952516118"/>
    <nd ref="286061530"/>
    <nd ref="1952492788"/>
    <nd ref="1343825650"/>
    <nd ref="1952492784"/>
    <nd ref="5313512"/>
    <nd ref="1952516120"/>
    <nd ref="1343825668"/>
    <nd ref="286061525"/>
    <tag k="foot" v="no"/>
    <tag k="highway" v="trunk"/>
    <tag k="junction" v="roundabout"/>
    <tag k="name" v="Tithe Farm Roundabout"/>
    <tag k="national_highways:area" v="8"/>
    <tag k="oneway" v="yes"/>
    <tag k="operator" v="National Highways"/>
    <tag k="operator:wikidata" v="Q5760006"/>
    <tag k="source:name" v="local knowledge"/>
  </way>
  <way id="39498008" version="10" timestamp="2024-12-29T19:31:06Z" changeset="160765333" uid="5229644" user="Nathan_A_RF">
    <nd ref="473132637"/>
    <nd ref="473132653"/>
    <tag k="bridge" v="yes"/>
    <tag k="fut_ref" v="A1428"/>
    <tag k="highway" v="trunk"/>
    <tag k="layer" v="1"/>
    <tag k="maxspeed" v="60 mph"/>
    <tag k="maxspeed:type" v="GB:nsl_single"/>
    <tag k="national_highways:area" v="8"/>
    <tag k="note" v="To be reclassified as A1428 in 2027 once the A421 dualling scheme is complete"/>
    <tag k="operator" v="National Highways"/>
    <tag k="operator:wikidata" v="Q5760006"/>
    <tag k="ref" v="A428"/>
    <tag k="source:ref" v="local knowledge"/>
  </way>
  <way id="39498009" version="15" timestamp="2024-12-29T19:31:06Z" changeset="160765333" uid="5229644" user="Nathan_A_RF">
    <nd ref="473132653"/>
    <nd ref="621043"/>
    <nd ref="2022007258"/>
    <nd ref="336711877"/>
    <tag k="fut_ref" v="A1428"/>
    <tag k="highway" v="trunk"/>
    <tag k="lanes" v="2"/>
    <tag k="maxspeed" v="60 mph"/>
    <tag k="maxspeed:type" v="GB:nsl_single"/>
    <tag k="national_highways:area" v="8"/>
    <tag k="note" v="To be reclassified as A1428 in 2027 once the A421 dualling scheme is complete"/>
    <tag k="operator" v="National Highways"/>
    <tag k="operator:wikidata" v="Q5760006"/>
    <tag k="ref" v="A428"/>
    <tag k="source:ref" v="survey"/>
  </way>
  <way id="39542840" version="15" timestamp="2024-12-29T19:31:06Z" changeset="160765333" uid="5229644" user="Nathan_A_RF">
    <nd ref="473789527"/>
    <nd ref="10568683129"/>
    <nd ref="10568683126"/>
    <tag k="fut_ref" v="A1428"/>
    <tag k="highway" v="trunk"/>
    <tag k="lanes" v="2"/>
    <tag k="maxspeed" v="60 mph"/>
    <tag k="maxspeed:type" v="GB:nsl_single"/>
    <tag k="national_highways:area" v="8"/>
    <tag k="note" v="To be reclassified as A1428 in 2027 once the A421 dualling scheme is complete"/>
    <tag k="operator" v="National Highways"/>
    <tag k="operator:wikidata" v="Q5760006"/>
    <tag k="ref" v="A428"/>
    <tag k="source:ref" v="local knowledge"/>
  </way>
  <way id="39542842" version="11" timestamp="2024-12-29T19:31:06Z" changeset="160765333" uid="5229644" user="Nathan_A_RF">
    <nd ref="473789530"/>
    <nd ref="473789527"/>
    <tag k="bridge" v="yes"/>
    <tag k="fut_ref" v="A1428"/>
    <tag k="highway" v="trunk"/>
    <tag k="lanes" v="2"/>
    <tag k="layer" v="1"/>
    <tag k="maxspeed" v="60 mph"/>
    <tag k="maxspeed:type" v="GB:nsl_single"/>
    <tag k="national_highways:area" v="8"/>
    <tag k="note" v="To be reclassified as A1428 in 2027 once the A421 dualling scheme is complete"/>
    <tag k="operator" v="National Highways"/>
    <tag k="operator:wikidata" v="Q5760006"/>
    <tag k="ref" v="A428"/>
    <tag k="source:ref" v="local knowledge"/>
  </way>
  <way id="39542951" version="13" timestamp="2024-12-29T19:31:06Z" changeset="160765333" uid="5229644" user="Nathan_A_RF">
    <nd ref="473791918"/>
    <nd ref="1144155940"/>
    <nd ref="1305830046"/>
    <nd ref="458237003"/>
    <nd ref="621035"/>
    <nd ref="458237000"/>
    <nd ref="473789530"/>
    <tag k="fut_ref" v="A1428"/>
    <tag k="highway" v="trunk"/>
    <tag k="lanes" v="2"/>
    <tag k="maxspeed" v="60 mph"/>
    <tag k="maxspeed:type" v="GB:nsl_single"/>
    <tag k="national_highways:area" v="8"/>
    <tag k="note" v="To be reclassified as A1428 in 2027 once the A421 dualling scheme is complete"/>
    <tag k="operator" v="National Highways"/>
    <tag k="operator:wikidata" v="Q5760006"/>
    <tag k="ref" v="A428"/>
    <tag k="source:ref" v="local knowledge"/>
  </way>
  <way id="39542952" version="13" timestamp="2024-12-29T19:31:06Z" changeset="160765333" uid="5229644" user="Nathan_A_RF">
    <nd ref="473791919"/>
    <nd ref="473791918"/>
    <tag k="bridge" v="yes"/>
    <tag k="fut_ref" v="A1428"/>
    <tag k="highway" v="trunk"/>
    <tag k="lanes" v="2"/>
    <tag k="layer" v="1"/>
    <tag k="maxspeed" v="60 mph"/>
    <tag k="maxspeed:type" v="GB:nsl_single"/>
    <tag k="national_highways:area" v="8"/>
    <tag k="note" v="To be reclassified as A1428 in 2027 once the A421 dualling scheme is complete"/>
    <tag k="operator" v="National Highways"/>
    <tag k="operator:wikidata" v="Q5760006"/>
    <tag k="ref" v="A428"/>
    <tag k="source:ref" v="local knowledge"/>
  </way>
  <way id="39543221" version="12" timestamp="2024-12-29T19:31:06Z" changeset="160765333" uid="5229644" user="Nathan_A_RF">
    <nd ref="473795836"/>
    <nd ref="621030"/>
    <tag k="bridge" v="yes"/>
    <tag k="foot" v="no"/>
    <tag k="fut_ref" v="A1428"/>
    <tag k="highway" v="trunk"/>
    <tag k="lanes" v="2"/>
    <tag k="layer" v="1"/>
    <tag k="maxspeed" v="60 mph"/>
    <tag k="maxspeed:type" v="GB:nsl_single"/>
    <tag k="national_highways:area" v="8"/>
    <tag k="note" v="To be reclassified as A1428 in 2027 once the A421 dualling scheme is complete"/>
    <tag k="operator" v="National Highways"/>
    <tag k="operator:wikidata" v="Q5760006"/>
    <tag k="ref" v="A428"/>
    <tag k="source:ref" v="local knowledge"/>
  </way>
  <way id="39543222" version="14" timestamp="2024-12-29T19:31:06Z" changeset="160765333" uid="5229644" user="Nathan_A_RF">
    <nd ref="621030"/>
    <nd ref="2022007216"/>
    <nd ref="25731732"/>
    <nd ref="2022007206"/>
    <nd ref="621031"/>
    <nd ref="473793403"/>
    <nd ref="11082066828"/>
    <nd ref="621032"/>
    <nd ref="9223333205"/>
    <nd ref="12461475758"/>
    <nd ref="473791919"/>
    <tag k="fut_ref" v="A1428"/>
    <tag k="highway" v="trunk"/>
    <tag k="lanes" v="2"/>
    <tag k="maxspeed" v="60 mph"/>
    <tag k="maxspeed:type" v="GB:nsl_single"/>
    <tag k="national_highways:area" v="8"/>
    <tag k="note" v="To be reclassified as A1428 in 2027 once the A421 dualling scheme is complete"/>
    <tag k="operator" v="National Highways"/>
    <tag k="operator:wikidata" v="Q5760006"/>
    <tag k="ref" v="A428"/>
    <tag k="source:ref" v="local knowledge"/>
  </way>
  <way id="39544026" version="10" timestamp="2024-12-29T19:31:06Z" changeset="160765333" uid="5229644" user="Nathan_A_RF">
    <nd ref="473807332"/>
    <nd ref="473807333"/>
    <tag k="bridge" v="yes"/>
    <tag k="fut_ref" v="B1428"/>
    <tag k="highway" v="trunk"/>
    <tag k="lanes" v="2"/>
    <tag k="layer" v="1"/>
    <tag k="maxspeed" v="60 mph"/>
    <tag k="maxspeed:type" v="GB:nsl_single"/>
    <tag k="name" v="Cambridge Road"/>
    <tag k="national_highways:area" v="8"/>
    <tag k="note" v="To be reclassified as B1428 in 2027 once the A421 dualling scheme is complete"/>
    <tag k="operator" v="National Highways"/>
    <tag k="operator:wikidata" v="Q5760006"/>
    <tag k="ref" v="A428"/>
    <tag k="source:ref" v="local knowledge"/>
  </way>
  <way id="40107601" version="4" timestamp="2021-07-15T08:35:37Z" changeset="108032249" uid="10252551" user="amanura">
    <nd ref="482714400"/>
    <nd ref="1147753029"/>
    <nd ref="1147753254"/>
    <nd ref="1147753281"/>
    <nd ref="1147753269"/>
    <nd ref="8921744471"/>
    <nd ref="1147753130"/>
    <nd ref="482714407"/>
    <tag k="highway" v="secondary"/>
    <tag k="name" v="Gransden Road"/>
    <tag k="ref" v="B1046"/>
    <tag k="source:ref" v="dictaphone"/>
  </way>
  <way id="40107602" version="2" timestamp="2019-03-21T12:08:09Z" changeset="68370841" uid="281267" user="smb1001">
    <nd ref="482714403"/>
    <nd ref="482714400"/>
    <tag k="bridge" v="yes"/>
    <tag k="highway" v="secondary"/>
    <tag k="layer" v="1"/>
    <tag k="name" v="Abbotsley Bridge"/>
    <tag k="ref" v="B1046"/>
    <tag k="source:bridge" v="dictaphone"/>
    <tag k="source:ref" v="dictaphone"/>
  </way>
  <way id="40107603" version="6" timestamp="2011-06-30T18:55:22Z" changeset="8593233" uid="3582" user="davidearl">
    <nd ref="482714404"/>
    <nd ref="289030140"/>
    <nd ref="289029206"/>
    <tag k="highway" v="secondary"/>
    <tag k="name" v="Gransden Road"/>
    <tag k="ref" v="B1046"/>
    <tag k="source:ref" v="dictaphone"/>
  </way>
  <way id="40107604" version="1" timestamp="2009-09-03T19:48:04Z" changeset="2363104" uid="2406" user="JeffB">
    <nd ref="482714407"/>
    <nd ref="482714404"/>
    <tag k="bridge" v="yes"/>
    <tag k="highway" v="secondary"/>
    <tag k="layer" v="1"/>
    <tag k="ref" v="B1046"/>
    <tag k="source:bridge" v="dictaphone"/>
    <tag k="source:ref" v="dictaphone"/>
  </way>
  <way id="40107958" version="8" timestamp="2025-02-22T01:40:27Z" changeset="162801348" uid="493595" user="Yorvik Prestigitator">
    <nd ref="289030142"/>
    <nd ref="1147753062"/>
    <nd ref="6060400353"/>
    <nd ref="309214458"/>
    <nd ref="309214497"/>
    <nd ref="309214408"/>
    <nd ref="309214683"/>
    <nd ref="309214720"/>
    <nd ref="1147753222"/>
    <nd ref="289028599"/>
    <nd ref="1147753139"/>
    <nd ref="12608769075"/>
    <nd ref="309214248"/>
    <nd ref="6893059450"/>
    <nd ref="12608769064"/>
    <nd ref="1147753076"/>
    <nd ref="309214366"/>
    <nd ref="1147753157"/>
    <nd ref="309214372"/>
    <nd ref="1196792939"/>
    <nd ref="289030143"/>
    <nd ref="1147753230"/>
    <nd ref="1147753100"/>
    <nd ref="309214374"/>
    <nd ref="1147753140"/>
    <nd ref="1147753305"/>
    <nd ref="309216356"/>
    <tag k="highway" v="secondary"/>
    <tag k="maxspeed" v="30 mph"/>
    <tag k="name" v="High Street"/>
    <tag k="ref" v="B1046"/>
    <tag k="source:name" v="dictaphone"/>
    <tag k="source:ref" v="dictaphone"/>
  </way>
  <way id="40107959" version="8" timestamp="2021-01-27T14:59:01Z" changeset="98237041" uid="1722488" user="Mateusz Konieczny">
    <nd ref="309216356"/>
    <nd ref="309214380"/>
    <nd ref="1147753004"/>
    <nd ref="1147753081"/>
    <nd ref="1147753112"/>
    <nd ref="289028601"/>
    <nd ref="6350267119"/>
    <nd ref="8367724789"/>
    <nd ref="8367724793"/>
    <nd ref="8367724787"/>
    <nd ref="309216087"/>
    <nd ref="1142554031"/>
    <nd ref="583385681"/>
    <tag k="highway" v="secondary"/>
    <tag k="maxspeed" v="30 mph"/>
    <tag k="name" v="St Neots Road"/>
    <tag k="ref" v="B1046"/>
    <tag k="source:name" v="dictaphone"/>
    <tag k="source:ref" v="dictaphone"/>
  </way>
  <way id="40108721" version="2" timestamp="2020-10-14T05:24:41Z" changeset="92448994" uid="10170576" user="sabodige">
    <nd ref="482726736"/>
    <nd ref="8005459151"/>
    <nd ref="482726737"/>
    <tag k="bridge" v="yes"/>
    <tag k="highway" v="secondary"/>
    <tag k="layer" v="1"/>
    <tag k="name" v="St Neots Road"/>
    <tag k="ref" v="B1046"/>
    <tag k="source" v="dictaphone"/>
    <tag k="source:name" v="dictaphone"/>
    <tag k="source:ref" v="dictaphone"/>
  </way>
  <way id="40108722" version="11" timestamp="2023-09-30T19:28:41Z" changeset="141965290" uid="18964624" user="Exterprook58">
    <nd ref="482726737"/>
    <nd ref="482726732"/>
    <nd ref="1142553960"/>
    <nd ref="289030145"/>
    <nd ref="4163322839"/>
    <nd ref="482754331"/>
    <nd ref="4163322798"/>
    <nd ref="289028603"/>
    <nd ref="6352115487"/>
    <nd ref="4163322861"/>
    <nd ref="4163322848"/>
    <nd ref="289030146"/>
    <nd ref="4163323021"/>
    <nd ref="482754332"/>
    <nd ref="4163323001"/>
    <nd ref="289028605"/>
    <nd ref="4163323034"/>
    <nd ref="289030147"/>
    <nd ref="11229850061"/>
    <nd ref="4163322826"/>
    <nd ref="482728696"/>
    <nd ref="289028607"/>
    <nd ref="4163322863"/>
    <nd ref="11229850125"/>
    <nd ref="482728698"/>
    <nd ref="4163322833"/>
    <nd ref="289030149"/>
    <nd ref="6587720889"/>
    <nd ref="11229850126"/>
    <nd ref="482728697"/>
    <nd ref="5896922924"/>
    <nd ref="5896922926"/>
    <nd ref="5896922925"/>
    <nd ref="3266115930"/>
    <nd ref="289028609"/>
    <nd ref="5896922923"/>
    <nd ref="5896922919"/>
    <nd ref="5896922920"/>
    <nd ref="289030150"/>
    <tag k="highway" v="secondary"/>
    <tag k="name" v="St Neots Road"/>
    <tag k="ref" v="B1046"/>
    <tag k="source:name" v="dictaphone"/>
    <tag k="source:ref" v="dictaphone"/>
  </way>
  <way id="40983417" version="13" timestamp="2024-12-29T19:31:06Z" changeset="160765333" uid="5229644" user="Nathan_A_RF">
    <nd ref="286061530"/>
    <nd ref="2022007215"/>
    <nd ref="621027"/>
    <tag k="fut_ref" v="A1428"/>
    <tag k="highway" v="trunk"/>
    <tag k="lanes" v="1"/>
    <tag k="maxspeed" v="60 mph"/>
    <tag k="maxspeed:type" v="GB:nsl_single"/>
    <tag k="national_highways:area" v="8"/>
    <tag k="note" v="To be reclassified as A1428 in 2027 once the A421 dualling scheme is complete"/>
    <tag k="oneway" v="yes"/>
    <tag k="operator" v="National Highways"/>
    <tag k="operator:wikidata" v="Q5760006"/>
    <tag k="ref" v="A428"/>
    <tag k="source:ref" v="survey"/>
  </way>
  <way id="40983418" version="13" timestamp="2024-12-29T19:31:06Z" changeset="160765333" uid="5229644" user="Nathan_A_RF">
    <nd ref="621027"/>
    <nd ref="1343825638"/>
    <tag k="fut_ref" v="A1428"/>
    <tag k="highway" v="trunk"/>
    <tag k="lanes" v="2"/>
    <tag k="maxspeed" v="60 mph"/>
    <tag k="maxspeed:type" v="GB:nsl_single"/>
    <tag k="national_highways:area" v="8"/>
    <tag k="note" v="To be reclassified as A1428 in 2027 once the A421 dualling scheme is complete"/>
    <tag k="operator" v="National Highways"/>
    <tag k="operator:wikidata" v="Q5760006"/>
    <tag k="ref" v="A428"/>
    <tag k="source:ref" v="survey"/>
  </way>
  <way id="40983421" version="22" timestamp="2024-12-29T19:31:06Z" changeset="160765333" uid="5229644" user="Nathan_A_RF">
    <nd ref="2022007234"/>
    <nd ref="1305829977"/>
    <nd ref="473799725"/>
    <nd ref="621021"/>
    <nd ref="473799730"/>
    <nd ref="5435836109"/>
    <nd ref="2022007230"/>
    <nd ref="5435849734"/>
    <nd ref="473800590"/>
    <nd ref="5435849738"/>
    <nd ref="2022007225"/>
    <nd ref="5435849742"/>
    <nd ref="621020"/>
    <nd ref="5435849732"/>
    <nd ref="2022007211"/>
    <nd ref="621019"/>
    <nd ref="5435849736"/>
    <nd ref="2022007240"/>
    <nd ref="621018"/>
    <nd ref="3052263736"/>
    <nd ref="473801741"/>
    <nd ref="11229850197"/>
    <nd ref="1120265442"/>
    <nd ref="473801745"/>
    <nd ref="5435849740"/>
    <nd ref="621017"/>
    <nd ref="2022007228"/>
    <nd ref="621016"/>
    <nd ref="2022007238"/>
    <nd ref="1444797499"/>
    <nd ref="473804611"/>
    <nd ref="621015"/>
    <nd ref="473804608"/>
    <nd ref="2022007218"/>
    <nd ref="2022007248"/>
    <nd ref="473807332"/>
    <tag k="fut_ref" v="B1428"/>
    <tag k="highway" v="trunk"/>
    <tag k="lanes" v="2"/>
    <tag k="maxspeed" v="60 mph"/>
    <tag k="maxspeed:type" v="GB:nsl_single"/>
    <tag k="name" v="Cambridge Road"/>
    <tag k="national_highways:area" v="8"/>
    <tag k="note" v="To be reclassified as B1428 in 2027 once the A421 dualling scheme is complete"/>
    <tag k="operator" v="National Highways"/>
    <tag k="operator:wikidata" v="Q5760006"/>
    <tag k="ref" v="A428"/>
    <tag k="source:ref" v="survey"/>
  </way>
  <way id="40983422" version="11" timestamp="2024-12-29T19:31:06Z" changeset="160765333" uid="5229644" user="Nathan_A_RF">
    <nd ref="499465057"/>
    <nd ref="2022007276"/>
    <nd ref="621029"/>
    <tag k="fut_ref" v="A1428"/>
    <tag k="highway" v="trunk"/>
    <tag k="lanes" v="1"/>
    <tag k="maxspeed" v="60 mph"/>
    <tag k="maxspeed:type" v="GB:nsl_single"/>
    <tag k="name" v="Cambridge Road"/>
    <tag k="national_highways:area" v="8"/>
    <tag k="note" v="To be reclassified as A1428 in 2027 once the A421 dualling scheme is complete"/>
    <tag k="oneway" v="yes"/>
    <tag k="operator" v="National Highways"/>
    <tag k="operator:wikidata" v="Q5760006"/>
    <tag k="ref" v="A428"/>
    <tag k="source:ref" v="local knowledge"/>
  </way>
  <way id="45836123" version="6" timestamp="2019-03-21T12:08:09Z" changeset="68370841" uid="281267" user="smb1001">
    <nd ref="583385681"/>
    <nd ref="6350266341"/>
    <nd ref="1147753059"/>
    <nd ref="6352113654"/>
    <nd ref="482754317"/>
    <nd ref="1147619177"/>
    <nd ref="1147618747"/>
    <nd ref="1147619060"/>
    <nd ref="1147619136"/>
    <nd ref="482754318"/>
    <nd ref="482726736"/>
    <tag k="highway" v="secondary"/>
    <tag k="name" v="St Neots Road"/>
    <tag k="ref" v="B1046"/>
    <tag k="source:name" v="dictaphone"/>
    <tag k="source:ref" v="dictaphone"/>
  </way>
  <way id="45836124" version="3" timestamp="2018-11-14T11:47:11Z" changeset="64477049" uid="281267" user="smb1001">
    <nd ref="309214244"/>
    <nd ref="1147753169"/>
    <nd ref="1147753309"/>
    <nd ref="1147753313"/>
    <nd ref="1147753307"/>
    <nd ref="6060378469"/>
    <nd ref="1147753283"/>
    <nd ref="289030142"/>
    <tag k="highway" v="secondary"/>
    <tag k="ref" v="B1046"/>
    <tag k="source:ref" v="dictaphone"/>
  </way>
  <way id="97099935" version="5" timestamp="2017-04-11T11:34:31Z" changeset="47653717" uid="281267" user="smb1001">
    <nd ref="298907204"/>
    <nd ref="298907215"/>
    <nd ref="298907236"/>
    <nd ref="298907242"/>
    <nd ref="482697794"/>
    <nd ref="298907247"/>
    <nd ref="298907254"/>
    <nd ref="309418915"/>
    <nd ref="1474372988"/>
    <nd ref="298907256"/>
    <nd ref="298907259"/>
    <nd ref="298907261"/>
    <nd ref="298907262"/>
    <nd ref="482697788"/>
    <tag k="highway" v="unclassified"/>
    <tag k="name" v="Drewells Lane"/>
    <tag k="not:name" v="Drewels Lane"/>
    <tag k="source:name" v="dictaphone"/>
  </way>
  <way id="103649995" version="12" timestamp="2023-09-30T19:28:41Z" changeset="141965290" uid="18964624" user="Exterprook58">
    <nd ref="773810530"/>
    <nd ref="298907289"/>
    <nd ref="6027615956"/>
    <nd ref="6027615924"/>
    <nd ref="10052454776"/>
    <nd ref="8268962930"/>
    <nd ref="6027615767"/>
    <nd ref="7883684148"/>
    <nd ref="10052454891"/>
    <nd ref="482696071"/>
    <nd ref="298907292"/>
    <nd ref="298907293"/>
    <nd ref="482752683"/>
    <nd ref="4155902303"/>
    <nd ref="298907326"/>
    <nd ref="6554868401"/>
    <nd ref="6722808691"/>
    <nd ref="11229850060"/>
    <nd ref="11229850094"/>
    <nd ref="298907327"/>
    <nd ref="482696058"/>
    <nd ref="10052454680"/>
    <nd ref="298907328"/>
    <nd ref="10052454679"/>
    <nd ref="298907329"/>
    <nd ref="7202545188"/>
    <nd ref="4163323032"/>
    <nd ref="11229850089"/>
    <nd ref="5896922922"/>
    <nd ref="5896922921"/>
    <nd ref="289030150"/>
    <tag k="highway" v="unclassified"/>
    <tag k="name" v="Potton Road"/>
  </way>
  <way id="103649996" version="1" timestamp="2011-03-11T14:07:16Z" changeset="7523631" uid="38828" user="Shane28R">
    <nd ref="1196792937"/>
    <nd ref="1196792939"/>
    <tag k="highway" v="residential"/>
    <tag k="name" v="Vicarage Farm Yard"/>
  </way>
  <way id="119788954" version="5" timestamp="2023-09-30T19:28:41Z" changeset="141965290" uid="18964624" user="Exterprook58">
    <nd ref="289030150"/>
    <nd ref="5896922913"/>
    <nd ref="5896922914"/>
    <nd ref="5896922915"/>
    <nd ref="5896922916"/>
    <nd ref="5896922917"/>
    <nd ref="5896922918"/>
    <nd ref="6587720871"/>
    <nd ref="11229850077"/>
    <nd ref="482692913"/>
    <nd ref="301281480"/>
    <tag k="highway" v="secondary"/>
    <tag k="name" v="Potton Road"/>
    <tag k="ref" v="B1046"/>
    <tag k="source:ref" v="dictaphone"/>
  </way>
  <way id="119808881" version="15" timestamp="2024-12-29T19:31:06Z" changeset="160765333" uid="5229644" user="Nathan_A_RF">
    <nd ref="473813246"/>
    <nd ref="5436274002"/>
    <nd ref="5436274019"/>
    <nd ref="5436272134"/>
    <nd ref="621007"/>
    <nd ref="1795794407"/>
    <nd ref="621008"/>
    <nd ref="1795794403"/>
    <nd ref="1795794379"/>
    <nd ref="5435849220"/>
    <nd ref="621009"/>
    <nd ref="1795794357"/>
    <nd ref="1795794374"/>
    <nd ref="621011"/>
    <nd ref="1795794385"/>
    <nd ref="5435853528"/>
    <nd ref="621012"/>
    <nd ref="5435853525"/>
    <nd ref="2022007252"/>
    <nd ref="621013"/>
    <nd ref="475932302"/>
    <nd ref="5435849217"/>
    <nd ref="2022007208"/>
    <nd ref="621014"/>
    <nd ref="473807333"/>
    <tag k="fut_ref" v="B1428"/>
    <tag k="highway" v="trunk"/>
    <tag k="lanes" v="2"/>
    <tag k="maxspeed" v="60 mph"/>
    <tag k="maxspeed:type" v="GB:nsl_single"/>
    <tag k="name" v="Cambridge Road"/>
    <tag k="national_highways:area" v="8"/>
    <tag k="note" v="To be reclassified as B1428 in 2027 once the A421 dualling scheme is complete"/>
    <tag k="operator" v="National Highways"/>
    <tag k="operator:wikidata" v="Q5760006"/>
    <tag k="ref" v="A428"/>
    <tag k="source:ref" v="survey;local knowledge"/>
  </way>
  <way id="119808903" version="1" timestamp="2011-06-30T18:54:54Z" changeset="8593233" uid="3582" user="davidearl">
    <nd ref="289029206"/>
    <nd ref="1147753251"/>
    <nd ref="1147753054"/>
    <nd ref="289028597"/>
    <nd ref="1147753020"/>
    <nd ref="1147753323"/>
    <nd ref="309214244"/>
    <tag k="highway" v="secondary"/>
    <tag k="name" v="Gransden Road"/>
    <tag k="ref" v="B1046"/>
    <tag k="source:ref" v="dictaphone"/>
  </way>
  <way id="359146577" version="5" timestamp="2022-07-16T16:09:28Z" changeset="123694679" uid="242345" user="confusedbuffalo">
    <nd ref="3639131172"/>
    <nd ref="3639131157"/>
    <nd ref="3639131168"/>
    <nd ref="3639131154"/>
    <nd ref="3639131173"/>
    <nd ref="3639131166"/>
    <nd ref="3639131167"/>
    <nd ref="3639131153"/>
    <nd ref="3639131161"/>
    <nd ref="3639131169"/>
    <nd ref="7990120515"/>
    <nd ref="3639131158"/>
    <nd ref="3639131159"/>
    <nd ref="3639131172"/>
    <tag k="addr:city" v="St Neots"/>
    <tag k="addr:postcode" v="PE19 6UJ"/>
    <tag k="addr:street" v="High Street"/>
    <tag k="amenity" v="place_of_worship"/>
    <tag k="building" v="church"/>
    <tag k="denomination" v="anglican"/>
    <tag k="name" v="St Margaret (Abbotsley Parish Church)"/>
    <tag k="religion" v="christian"/>
    <tag k="wikidata" v="Q7594099"/>
  </way>
  <way id="486091687" version="2" timestamp="2022-09-25T22:22:37Z" changeset="126631048" uid="5173844" user="ndrw6">
    <nd ref="4788164356"/>
    <nd ref="298907266"/>
    <nd ref="298907269"/>
    <nd ref="298907275"/>
    <nd ref="298907279"/>
    <nd ref="298907284"/>
    <nd ref="10052454760"/>
    <nd ref="10052454761"/>
    <nd ref="773810530"/>
    <tag k="highway" v="unclassified"/>
    <tag k="name" v="Drewells Lane"/>
    <tag k="not:name" v="Drewels Lane"/>
    <tag k="source:name" v="dictaphone"/>
  </way>
  <way id="486091691" version="2" timestamp="2017-10-04T09:14:02Z" changeset="52619094" uid="281267" user="smb1001">
    <nd ref="482697788"/>
    <nd ref="298907263"/>
    <nd ref="1391285450"/>
    <nd ref="298907264"/>
    <nd ref="298907265"/>
    <nd ref="4788164356"/>
    <tag k="highway" v="unclassified"/>
    <tag k="name" v="Drewells Lane"/>
    <tag k="not:name" v="Drewels Lane"/>
    <tag k="source:name" v="dictaphone"/>
  </way>
  <way id="639722262" version="4" timestamp="2022-07-16T16:09:28Z" changeset="123694679" uid="242345" user="confusedbuffalo">
    <nd ref="6027510868"/>
    <nd ref="6027511659"/>
    <nd ref="6027510877"/>
    <nd ref="6027510680"/>
    <nd ref="6027510868"/>
    <tag k="addr:city" v="St Neots"/>
    <tag k="addr:housenumber" v="58"/>
    <tag k="addr:postcode" v="PE19 6UE"/>
    <tag k="addr:street" v="High Street"/>
    <tag k="building" v="yes"/>
    <tag k="wikidata" v="Q26647392"/>
  </way>
  <way id="639722263" version="4" timestamp="2022-07-16T16:09:28Z" changeset="123694679" uid="242345" user="confusedbuffalo">
    <nd ref="6027510657"/>
    <nd ref="6027510619"/>
    <nd ref="6027510865"/>
    <nd ref="6027511655"/>
    <nd ref="6027510657"/>
    <tag k="addr:city" v="St Neots"/>
    <tag k="addr:housenumber" v="9"/>
    <tag k="addr:postcode" v="PE19 6UG"/>
    <tag k="addr:street" v="Blacksmiths Lane"/>
    <tag k="building" v="yes"/>
    <tag k="wikidata" v="Q26578503"/>
  </way>
  <way id="639722265" version="3" timestamp="2022-07-16T16:09:28Z" changeset="123694679" uid="242345" user="confusedbuffalo">
    <nd ref="6027510823"/>
    <nd ref="6027510622"/>
    <nd ref="6027510663"/>
    <nd ref="6027510590"/>
    <nd ref="6027510823"/>
    <tag k="addr:city" v="St Neots"/>
    <tag k="addr:housenumber" v="4"/>
    <tag k="addr:postcode" v="PE19 6UQ"/>
    <tag k="addr:street" v="Blacksmiths Close"/>
    <tag k="building" v="yes"/>
  </way>
  <way id="639722266" version="3" timestamp="2022-07-16T16:09:28Z" changeset="123694679" uid="242345" user="confusedbuffalo">
    <nd ref="6027511636"/>
    <nd ref="6027511671"/>
    <nd ref="6027509973"/>
    <nd ref="6027511388"/>
    <nd ref="6027511636"/>
    <tag k="addr:city" v="St Neots"/>
    <tag k="addr:housenumber" v="9"/>
    <tag k="addr:postcode" v="PE19 6UJ"/>
    <tag k="addr:street" v="High Street"/>
    <tag k="building" v="yes"/>
  </way>
  <way id="639722267" version="4" timestamp="2022-07-16T16:09:28Z" changeset="123694679" uid="242345" user="confusedbuffalo">
    <nd ref="6027511646"/>
    <nd ref="6027511007"/>
    <nd ref="6027511455"/>
    <nd ref="6027511423"/>
    <nd ref="6027511646"/>
    <tag k="addr:city" v="St Neots"/>
    <tag k="addr:housenumber" v="16"/>
    <tag k="addr:postcode" v="PE19 6UF"/>
    <tag k="addr:street" v="Harbins Lane"/>
    <tag k="building" v="residential"/>
  </way>
  <way id="639722269" version="3" timestamp="2022-07-16T16:09:28Z" changeset="123694679" uid="242345" user="confusedbuffalo">
    <nd ref="6027511672"/>
    <nd ref="6027511601"/>
    <nd ref="6027511480"/>
    <nd ref="6027511030"/>
    <nd ref="6027510785"/>
    <nd ref="6027510792"/>
    <nd ref="6027511672"/>
    <tag k="addr:city" v="St Neots"/>
    <tag k="addr:housenumber" v="7"/>
    <tag k="addr:postcode" v="PE19 6UX"/>
    <tag k="addr:street" v="Waterloo Close"/>
    <tag k="building" v="residential"/>
  </way>
  <way id="639722270" version="3" timestamp="2022-07-16T16:09:28Z" changeset="123694679" uid="242345" user="confusedbuffalo">
    <nd ref="6027511621"/>
    <nd ref="6027511651"/>
    <nd ref="6027510855"/>
    <nd ref="6027510852"/>
    <nd ref="6027511621"/>
    <tag k="addr:city" v="St Neots"/>
    <tag k="addr:housenumber" v="115"/>
    <tag k="addr:postcode" v="PE19 6UE"/>
    <tag k="addr:street" v="High Street"/>
    <tag k="building" v="yes"/>
  </way>
  <way id="639722271" version="3" timestamp="2022-07-16T16:09:28Z" changeset="123694679" uid="242345" user="confusedbuffalo">
    <nd ref="6027511228"/>
    <nd ref="6027511261"/>
    <nd ref="6027511282"/>
    <nd ref="6027510872"/>
    <nd ref="6027511281"/>
    <nd ref="6027511235"/>
    <nd ref="6027510661"/>
    <nd ref="6027510989"/>
    <nd ref="6027510682"/>
    <nd ref="6027511006"/>
    <nd ref="6027511228"/>
    <tag k="addr:city" v="St Neots"/>
    <tag k="addr:housenumber" v="5"/>
    <tag k="addr:postcode" v="PE19 6UQ"/>
    <tag k="addr:street" v="Blacksmiths Close"/>
    <tag k="building" v="yes"/>
  </way>
  <way id="639722273" version="3" timestamp="2022-07-16T16:09:28Z" changeset="123694679" uid="242345" user="confusedbuffalo">
    <nd ref="6027511201"/>
    <nd ref="6027510834"/>
    <nd ref="6027511025"/>
    <nd ref="6027511479"/>
    <nd ref="6027511224"/>
    <nd ref="6027511189"/>
    <nd ref="6027511201"/>
    <tag k="addr:city" v="St Neots"/>
    <tag k="addr:housenumber" v="61"/>
    <tag k="addr:postcode" v="PE19 6UE"/>
    <tag k="addr:street" v="High Street"/>
    <tag k="building" v="yes"/>
  </way>
  <way id="639722274" version="3" timestamp="2022-07-16T16:09:28Z" changeset="123694679" uid="242345" user="confusedbuffalo">
    <nd ref="6027510626"/>
    <nd ref="6027511273"/>
    <nd ref="6027509971"/>
    <nd ref="6027511594"/>
    <nd ref="6027511187"/>
    <nd ref="6027510985"/>
    <nd ref="6027510626"/>
    <tag k="addr:city" v="St Neots"/>
    <tag k="addr:housenumber" v="3"/>
    <tag k="addr:postcode" v="PE19 6UQ"/>
    <tag k="addr:street" v="Blacksmiths Close"/>
    <tag k="building" v="yes"/>
  </way>
  <way id="639722275" version="3" timestamp="2022-07-16T16:09:28Z" changeset="123694679" uid="242345" user="confusedbuffalo">
    <nd ref="6027510802"/>
    <nd ref="6027511210"/>
    <nd ref="6027510873"/>
    <nd ref="6027510839"/>
    <nd ref="6027510802"/>
    <tag k="addr:city" v="St Neots"/>
    <tag k="addr:housenumber" v="98"/>
    <tag k="addr:postcode" v="PE19 6UE"/>
    <tag k="addr:street" v="High Street"/>
    <tag k="building" v="yes"/>
  </way>
  <way id="639722276" version="3" timestamp="2022-07-16T16:09:28Z" changeset="123694679" uid="242345" user="confusedbuffalo">
    <nd ref="6027511191"/>
    <nd ref="6027511236"/>
    <nd ref="6027511403"/>
    <nd ref="6027511208"/>
    <nd ref="6027511191"/>
    <tag k="addr:city" v="St Neots"/>
    <tag k="addr:housenumber" v="24"/>
    <tag k="addr:postcode" v="PE19 6UG"/>
    <tag k="addr:street" v="Blacksmiths Lane"/>
    <tag k="building" v="yes"/>
  </way>
  <way id="639722277" version="3" timestamp="2022-07-16T16:09:28Z" changeset="123694679" uid="242345" user="confusedbuffalo">
    <nd ref="6027511218"/>
    <nd ref="6027511047"/>
    <nd ref="6027510817"/>
    <nd ref="6027510871"/>
    <nd ref="6027511398"/>
    <nd ref="6027510681"/>
    <nd ref="6027511218"/>
    <tag k="addr:city" v="St Neots"/>
    <tag k="addr:housenumber" v="56"/>
    <tag k="addr:postcode" v="PE19 6UE"/>
    <tag k="addr:street" v="High Street"/>
    <tag k="building" v="yes"/>
  </way>
  <way id="639722278" version="3" timestamp="2022-07-16T16:09:28Z" changeset="123694679" uid="242345" user="confusedbuffalo">
    <nd ref="6027510659"/>
    <nd ref="6027510666"/>
    <nd ref="6027510660"/>
    <nd ref="6027510675"/>
    <nd ref="6027510659"/>
    <tag k="addr:city" v="St Neots"/>
    <tag k="addr:housename" v="Penwood"/>
    <tag k="addr:housenumber" v="34"/>
    <tag k="addr:postcode" v="PE19 6UG"/>
    <tag k="addr:street" v="Blacksmiths Lane"/>
    <tag k="building" v="yes"/>
  </way>
  <way id="639722279" version="3" timestamp="2022-07-16T16:09:28Z" changeset="123694679" uid="242345" user="confusedbuffalo">
    <nd ref="6027510648"/>
    <nd ref="6027511211"/>
    <nd ref="6027511247"/>
    <nd ref="6027511389"/>
    <nd ref="6027511435"/>
    <nd ref="6027510611"/>
    <nd ref="6027510671"/>
    <nd ref="6027510618"/>
    <nd ref="6027510648"/>
    <tag k="addr:city" v="St Neots"/>
    <tag k="addr:housenumber" v="4"/>
    <tag k="addr:postcode" v="PE19 6XA"/>
    <tag k="addr:street" v="Grange Farm Close"/>
    <tag k="building" v="residential"/>
  </way>
  <way id="639722281" version="4" timestamp="2022-07-16T16:09:28Z" changeset="123694679" uid="242345" user="confusedbuffalo">
    <nd ref="6027511230"/>
    <nd ref="6027511464"/>
    <nd ref="6027511634"/>
    <nd ref="6027510612"/>
    <nd ref="6027511230"/>
    <tag k="addr:city" v="St Neots"/>
    <tag k="addr:housename" v="Winterbourne House"/>
    <tag k="addr:housenumber" v="33"/>
    <tag k="addr:postcode" v="PE19 6UJ"/>
    <tag k="addr:street" v="High Street"/>
    <tag k="building" v="yes"/>
  </way>
  <way id="639722283" version="3" timestamp="2022-07-16T16:09:28Z" changeset="123694679" uid="242345" user="confusedbuffalo">
    <nd ref="6027510602"/>
    <nd ref="6027511225"/>
    <nd ref="6027511250"/>
    <nd ref="6027511270"/>
    <nd ref="6027511227"/>
    <nd ref="6027511589"/>
    <nd ref="6027510602"/>
    <tag k="addr:city" v="St Neots"/>
    <tag k="addr:housenumber" v="41"/>
    <tag k="addr:postcode" v="PE19 6UG"/>
    <tag k="addr:street" v="Blacksmiths Lane"/>
    <tag k="building" v="yes"/>
  </way>
  <way id="639722284" version="4" timestamp="2022-07-16T16:09:28Z" changeset="123694679" uid="242345" user="confusedbuffalo">
    <nd ref="6027510848"/>
    <nd ref="6027510992"/>
    <nd ref="6027511482"/>
    <nd ref="6027509974"/>
    <nd ref="6027510848"/>
    <tag k="addr:city" v="St Neots"/>
    <tag k="addr:housenumber" v="2"/>
    <tag k="addr:postcode" v="PE19 6UG"/>
    <tag k="addr:street" v="Blacksmiths Lane"/>
    <tag k="building" v="yes"/>
    <tag k="wikidata" v="Q26505855"/>
  </way>
  <way id="639722286" version="3" timestamp="2022-07-16T16:09:28Z" changeset="123694679" uid="242345" user="confusedbuffalo">
    <nd ref="6027511429"/>
    <nd ref="6027511220"/>
    <nd ref="6027511641"/>
    <nd ref="6027511470"/>
    <nd ref="6027510617"/>
    <nd ref="6027510668"/>
    <nd ref="6027510629"/>
    <nd ref="6027510652"/>
    <nd ref="6027511429"/>
    <tag k="addr:city" v="St Neots"/>
    <tag k="addr:housenumber" v="2"/>
    <tag k="addr:postcode" v="PE19 6XA"/>
    <tag k="addr:street" v="Grange Farm Close"/>
    <tag k="building" v="residential"/>
  </way>
  <way id="639722287" version="3" timestamp="2022-07-16T16:09:28Z" changeset="123694679" uid="242345" user="confusedbuffalo">
    <nd ref="6027510606"/>
    <nd ref="6027511032"/>
    <nd ref="6027511192"/>
    <nd ref="6027511272"/>
    <nd ref="6027511205"/>
    <nd ref="6027510606"/>
    <tag k="addr:city" v="St Neots"/>
    <tag k="addr:housenumber" v="1"/>
    <tag k="addr:postcode" v="PE19 6UY"/>
    <tag k="addr:street" v="Cannons"/>
    <tag k="building" v="yes"/>
  </way>
  <way id="639722288" version="4" timestamp="2022-07-16T16:09:28Z" changeset="123694679" uid="242345" user="confusedbuffalo">
    <nd ref="6027510650"/>
    <nd ref="6027511080"/>
    <nd ref="6027511597"/>
    <nd ref="6027511042"/>
    <nd ref="6027510650"/>
    <tag k="addr:city" v="St Neots"/>
    <tag k="addr:housename" v="Hazeldene"/>
    <tag k="addr:housenumber" v="31"/>
    <tag k="addr:postcode" v="PE19 6UJ"/>
    <tag k="addr:street" v="High Street"/>
    <tag k="building" v="yes"/>
  </way>
  <way id="639722289" version="5" timestamp="2022-07-16T16:09:28Z" changeset="123694679" uid="242345" user="confusedbuffalo">
    <nd ref="6027511274"/>
    <nd ref="6027511417"/>
    <nd ref="6027511258"/>
    <nd ref="6027511402"/>
    <nd ref="6027511274"/>
    <tag k="addr:city" v="St Neots"/>
    <tag k="addr:housename" v="Church Farm"/>
    <tag k="addr:housenumber" v="10"/>
    <tag k="addr:postcode" v="PE19 6UG"/>
    <tag k="addr:street" v="Blacksmiths Lane"/>
    <tag k="building" v="yes"/>
    <tag k="wikidata" v="Q26578509"/>
  </way>
  <way id="639722290" version="3" timestamp="2022-07-16T16:09:28Z" changeset="123694679" uid="242345" user="confusedbuffalo">
    <nd ref="6027511039"/>
    <nd ref="6027510846"/>
    <nd ref="6027511000"/>
    <nd ref="6027511269"/>
    <nd ref="6027511639"/>
    <nd ref="6027510986"/>
    <nd ref="6027511039"/>
    <tag k="addr:city" v="St Neots"/>
    <tag k="addr:housenumber" v="3"/>
    <tag k="addr:postcode" v="PE19 6UF"/>
    <tag k="addr:street" v="Harbins Lane"/>
    <tag k="building" v="residential"/>
  </way>
  <way id="639722291" version="3" timestamp="2022-07-16T16:09:28Z" changeset="123694679" uid="242345" user="confusedbuffalo">
    <nd ref="6027511633"/>
    <nd ref="6027511046"/>
    <nd ref="6027511450"/>
    <nd ref="6027511040"/>
    <nd ref="6027511635"/>
    <nd ref="6027511612"/>
    <nd ref="6027511633"/>
    <tag k="addr:city" v="St Neots"/>
    <tag k="addr:housenumber" v="2"/>
    <tag k="addr:postcode" v="PE19 6XT"/>
    <tag k="addr:street" v="Home Farm Close"/>
    <tag k="building" v="yes"/>
  </way>
  <way id="639722292" version="3" timestamp="2022-07-16T16:09:28Z" changeset="123694679" uid="242345" user="confusedbuffalo">
    <nd ref="6027510645"/>
    <nd ref="6027509981"/>
    <nd ref="6027511391"/>
    <nd ref="6027510812"/>
    <nd ref="6027510645"/>
    <tag k="addr:city" v="St Neots"/>
    <tag k="addr:housenumber" v="11"/>
    <tag k="addr:postcode" v="PE19 6UG"/>
    <tag k="addr:street" v="Blacksmiths Lane"/>
    <tag k="building" v="yes"/>
  </way>
  <way id="639722294" version="3" timestamp="2022-07-16T16:09:28Z" changeset="123694679" uid="242345" user="confusedbuffalo">
    <nd ref="6027511426"/>
    <nd ref="6027511002"/>
    <nd ref="6027511074"/>
    <nd ref="6027510637"/>
    <nd ref="6027511426"/>
    <tag k="addr:city" v="St Neots"/>
    <tag k="addr:housenumber" v="1"/>
    <tag k="addr:postcode" v="PE19 6XA"/>
    <tag k="addr:street" v="Grange Farm Close"/>
    <tag k="building" v="residential"/>
  </way>
  <way id="639722296" version="3" timestamp="2022-07-16T16:09:28Z" changeset="123694679" uid="242345" user="confusedbuffalo">
    <nd ref="6027510996"/>
    <nd ref="6027510862"/>
    <nd ref="6027511197"/>
    <nd ref="6027511044"/>
    <nd ref="6027510859"/>
    <nd ref="6027511054"/>
    <nd ref="6027510814"/>
    <nd ref="6027511064"/>
    <nd ref="6027510996"/>
    <tag k="addr:city" v="St Neots"/>
    <tag k="addr:housenumber" v="5"/>
    <tag k="addr:postcode" v="PE19 6XA"/>
    <tag k="addr:street" v="Grange Farm Close"/>
    <tag k="building" v="residential"/>
  </way>
  <way id="639722297" version="5" timestamp="2022-07-16T16:09:28Z" changeset="123694679" uid="242345" user="confusedbuffalo">
    <nd ref="6027511037"/>
    <nd ref="6027511431"/>
    <nd ref="6027511193"/>
    <nd ref="6027511068"/>
    <nd ref="6027511660"/>
    <nd ref="6027510628"/>
    <nd ref="6027511449"/>
    <nd ref="6027511252"/>
    <nd ref="6027511037"/>
    <tag k="addr:city" v="St Neots"/>
    <tag k="addr:housename" v="Home Farm"/>
    <tag k="addr:housenumber" v="67"/>
    <tag k="addr:postcode" v="PE19 6UE"/>
    <tag k="addr:street" v="High Street"/>
    <tag k="building" v="yes"/>
    <tag k="wikidata" v="Q26578511"/>
  </way>
  <way id="639722299" version="3" timestamp="2022-07-16T16:09:28Z" changeset="123694679" uid="242345" user="confusedbuffalo">
    <nd ref="6027509978"/>
    <nd ref="6027511592"/>
    <nd ref="6027511233"/>
    <nd ref="6027510674"/>
    <nd ref="6027511073"/>
    <nd ref="6027510815"/>
    <nd ref="6027509978"/>
    <tag k="addr:city" v="St Neots"/>
    <tag k="addr:housenumber" v="2"/>
    <tag k="addr:postcode" v="PE19 6UQ"/>
    <tag k="addr:street" v="Blacksmiths Close"/>
    <tag k="building" v="yes"/>
  </way>
  <way id="639722300" version="4" timestamp="2022-07-16T16:09:28Z" changeset="123694679" uid="242345" user="confusedbuffalo">
    <nd ref="6027511251"/>
    <nd ref="6027510605"/>
    <nd ref="6027510649"/>
    <nd ref="6027510594"/>
    <nd ref="6027511251"/>
    <tag k="addr:city" v="St Neots"/>
    <tag k="addr:housenumber" v="16"/>
    <tag k="addr:postcode" v="PE19 6UL"/>
    <tag k="addr:street" v="High Green"/>
    <tag k="building" v="yes"/>
  </way>
  <way id="639722301" version="3" timestamp="2022-07-16T16:09:28Z" changeset="123694679" uid="242345" user="confusedbuffalo">
    <nd ref="6027510858"/>
    <nd ref="6027510833"/>
    <nd ref="6027511439"/>
    <nd ref="6027511001"/>
    <nd ref="6027511411"/>
    <nd ref="6027510683"/>
    <nd ref="6027510858"/>
    <tag k="addr:city" v="St Neots"/>
    <tag k="addr:housename" v="Waterloo Farm House"/>
    <tag k="addr:housenumber" v="29"/>
    <tag k="addr:postcode" v="PE19 6UG"/>
    <tag k="addr:street" v="Blacksmiths Lane"/>
    <tag k="building" v="yes"/>
  </way>
  <way id="639722302" version="4" timestamp="2022-07-16T16:09:28Z" changeset="123694679" uid="242345" user="confusedbuffalo">
    <nd ref="6027511014"/>
    <nd ref="6027511265"/>
    <nd ref="6027510791"/>
    <nd ref="6027511012"/>
    <nd ref="6027511014"/>
    <tag k="addr:city" v="St Neots"/>
    <tag k="addr:housenumber" v="47"/>
    <tag k="addr:postcode" v="PE19 6UJ"/>
    <tag k="addr:street" v="High Street"/>
    <tag k="building" v="yes"/>
  </way>
  <way id="639722303" version="3" timestamp="2022-07-16T16:09:28Z" changeset="123694679" uid="242345" user="confusedbuffalo">
    <nd ref="6027511638"/>
    <nd ref="6027511437"/>
    <nd ref="6027511257"/>
    <nd ref="6027511392"/>
    <nd ref="6027511638"/>
    <tag k="addr:city" v="St Neots"/>
    <tag k="addr:housenumber" v="45"/>
    <tag k="addr:postcode" v="PE19 6UG"/>
    <tag k="addr:street" v="Blacksmiths Lane"/>
    <tag k="building" v="yes"/>
  </way>
  <way id="639722304" version="5" timestamp="2022-07-16T16:09:28Z" changeset="123694679" uid="242345" user="confusedbuffalo">
    <nd ref="6027511020"/>
    <nd ref="6027511616"/>
    <nd ref="6027510592"/>
    <nd ref="6027510821"/>
    <nd ref="6027511656"/>
    <nd ref="6027511667"/>
    <nd ref="6027511020"/>
    <tag k="addr:city" v="St Neots"/>
    <tag k="addr:housenumber" v="90,92,94"/>
    <tag k="addr:postcode" v="PE19 6UE"/>
    <tag k="addr:street" v="High Street"/>
    <tag k="building" v="yes"/>
    <tag k="wikidata" v="Q26505910"/>
  </way>
  <way id="639722305" version="3" timestamp="2023-10-21T06:23:51Z" changeset="142909226" uid="9451067" user="b-jazz-bot">
    <nd ref="6027510878"/>
    <nd ref="6027511067"/>
    <nd ref="6027510813"/>
    <nd ref="6027511481"/>
    <nd ref="6027510878"/>
    <tag k="addr:city" v="St Neots"/>
    <tag k="addr:postcode" v="PE19 6UJ"/>
    <tag k="addr:street" v="High Street"/>
    <tag k="amenity" v="pub"/>
    <tag k="building" v="yes"/>
    <tag k="name" v="The Eight Bells"/>
    <tag k="website" v="https://abbotsleyeightbells.co.uk/"/>
  </way>
  <way id="639722306" version="4" timestamp="2022-07-16T16:09:28Z" changeset="123694679" uid="242345" user="confusedbuffalo">
    <nd ref="6027510825"/>
    <nd ref="6027511462"/>
    <nd ref="6027510805"/>
    <nd ref="6027510636"/>
    <nd ref="6027511240"/>
    <nd ref="6027511669"/>
    <nd ref="6027510825"/>
    <tag k="addr:city" v="St Neots"/>
    <tag k="addr:housenumber" v="76"/>
    <tag k="addr:postcode" v="PE19 6UE"/>
    <tag k="addr:street" v="High Street"/>
    <tag k="building" v="yes"/>
  </way>
  <way id="639722307" version="4" timestamp="2022-07-16T16:09:28Z" changeset="123694679" uid="242345" user="confusedbuffalo">
    <nd ref="6027511084"/>
    <nd ref="6027511459"/>
    <nd ref="6027511600"/>
    <nd ref="6027510799"/>
    <nd ref="6027510849"/>
    <nd ref="6027511221"/>
    <nd ref="6027511084"/>
    <tag k="addr:city" v="St Neots"/>
    <tag k="addr:housenumber" v="2"/>
    <tag k="addr:postcode" v="PE19 6US"/>
    <tag k="addr:street" v="Vicarage Farm Yard"/>
    <tag k="building" v="yes"/>
  </way>
  <way id="639722308" version="3" timestamp="2022-07-16T16:09:28Z" changeset="123694679" uid="242345" user="confusedbuffalo">
    <nd ref="6027511661"/>
    <nd ref="6027511026"/>
    <nd ref="6027510669"/>
    <nd ref="6027511404"/>
    <nd ref="6027511267"/>
    <nd ref="6027511396"/>
    <nd ref="6027511652"/>
    <nd ref="6027511627"/>
    <nd ref="6027511083"/>
    <nd ref="6027510866"/>
    <nd ref="6027510801"/>
    <nd ref="6027510993"/>
    <nd ref="6027511661"/>
    <tag k="addr:city" v="St Neots"/>
    <tag k="addr:housenumber" v="6"/>
    <tag k="addr:postcode" v="PE19 6UQ"/>
    <tag k="addr:street" v="Blacksmiths Close"/>
    <tag k="building" v="yes"/>
  </way>
  <way id="639722309" version="3" timestamp="2022-07-16T16:09:28Z" changeset="123694679" uid="242345" user="confusedbuffalo">
    <nd ref="6027510988"/>
    <nd ref="6027510881"/>
    <nd ref="6027511243"/>
    <nd ref="6027510876"/>
    <nd ref="6027510988"/>
    <tag k="addr:city" v="St Neots"/>
    <tag k="addr:housenumber" v="109"/>
    <tag k="addr:postcode" v="PE19 6UE"/>
    <tag k="addr:street" v="High Street"/>
    <tag k="building" v="yes"/>
  </way>
  <way id="639722310" version="3" timestamp="2022-07-16T16:09:28Z" changeset="123694679" uid="242345" user="confusedbuffalo">
    <nd ref="6027510585"/>
    <nd ref="6027510863"/>
    <nd ref="6027510995"/>
    <nd ref="6027511461"/>
    <nd ref="6027510585"/>
    <tag k="addr:city" v="St Neots"/>
    <tag k="addr:housenumber" v="4"/>
    <tag k="addr:postcode" v="PE19 6UX"/>
    <tag k="addr:street" v="Waterloo Close"/>
    <tag k="building" v="residential"/>
  </way>
  <way id="639722311" version="4" timestamp="2022-07-16T16:09:28Z" changeset="123694679" uid="242345" user="confusedbuffalo">
    <nd ref="6027511266"/>
    <nd ref="6027511476"/>
    <nd ref="6027511665"/>
    <nd ref="6027511605"/>
    <nd ref="6027511266"/>
    <tag k="addr:city" v="St Neots"/>
    <tag k="addr:housenumber" v="22"/>
    <tag k="addr:postcode" v="PE19 6UG"/>
    <tag k="addr:street" v="Blacksmiths Lane"/>
    <tag k="building" v="yes"/>
  </way>
  <way id="639722312" version="4" timestamp="2022-07-16T16:09:28Z" changeset="123694679" uid="242345" user="confusedbuffalo">
    <nd ref="6027510856"/>
    <nd ref="6027510608"/>
    <nd ref="6027511399"/>
    <nd ref="6027511444"/>
    <nd ref="6027511262"/>
    <nd ref="6027510630"/>
    <nd ref="6027510856"/>
    <tag k="addr:city" v="St Neots"/>
    <tag k="addr:housenumber" v="59"/>
    <tag k="addr:postcode" v="PE19 6UE"/>
    <tag k="addr:street" v="High Street"/>
    <tag k="building" v="yes"/>
  </way>
  <way id="639722313" version="3" timestamp="2022-07-16T16:09:28Z" changeset="123694679" uid="242345" user="confusedbuffalo">
    <nd ref="6027510880"/>
    <nd ref="6027511623"/>
    <nd ref="6027511595"/>
    <nd ref="6027511666"/>
    <nd ref="6027511647"/>
    <nd ref="6027511625"/>
    <nd ref="6027511483"/>
    <nd ref="6027510795"/>
    <nd ref="6027510880"/>
    <tag k="addr:city" v="St Neots"/>
    <tag k="addr:housenumber" v="3"/>
    <tag k="addr:postcode" v="PE19 6UG"/>
    <tag k="addr:street" v="Blacksmiths Lane"/>
    <tag k="building" v="yes"/>
  </way>
  <way id="639722314" version="5" timestamp="2022-07-16T16:09:28Z" changeset="123694679" uid="242345" user="confusedbuffalo">
    <nd ref="6027511401"/>
    <nd ref="6027510786"/>
    <nd ref="6027511008"/>
    <nd ref="6027511200"/>
    <nd ref="6027511401"/>
    <tag k="addr:city" v="St Neots"/>
    <tag k="addr:housename" v="Stoneley Cottage"/>
    <tag k="addr:housenumber" v="112"/>
    <tag k="addr:postcode" v="PE19 6UE"/>
    <tag k="addr:street" v="High Street"/>
    <tag k="building" v="yes"/>
    <tag k="wikidata" v="Q26647393"/>
  </way>
  <way id="639722315" version="3" timestamp="2022-07-16T16:09:28Z" changeset="123694679" uid="242345" user="confusedbuffalo">
    <nd ref="6027511034"/>
    <nd ref="6027511053"/>
    <nd ref="6027511065"/>
    <nd ref="6027510810"/>
    <nd ref="6027511034"/>
    <tag k="addr:city" v="St Neots"/>
    <tag k="addr:housenumber" v="10"/>
    <tag k="addr:postcode" v="PE19 6UF"/>
    <tag k="addr:street" v="Harbins Lane"/>
    <tag k="building" v="residential"/>
  </way>
  <way id="639722316" version="3" timestamp="2022-07-16T16:09:28Z" changeset="123694679" uid="242345" user="confusedbuffalo">
    <nd ref="6027511072"/>
    <nd ref="6027511471"/>
    <nd ref="6027509970"/>
    <nd ref="6027510625"/>
    <nd ref="6027511072"/>
    <tag k="addr:city" v="St Neots"/>
    <tag k="addr:housenumber" v="9"/>
    <tag k="addr:postcode" v="PE19 6UF"/>
    <tag k="addr:street" v="Harbins Lane"/>
    <tag k="building" v="residential"/>
  </way>
  <way id="639722319" version="4" timestamp="2022-07-16T16:09:28Z" changeset="123694679" uid="242345" user="confusedbuffalo">
    <nd ref="6027511394"/>
    <nd ref="6027511410"/>
    <nd ref="6027510869"/>
    <nd ref="6027511022"/>
    <nd ref="6027510850"/>
    <nd ref="6027511628"/>
    <nd ref="6027511394"/>
    <tag k="addr:city" v="St Neots"/>
    <tag k="addr:housenumber" v="84"/>
    <tag k="addr:postcode" v="PE19 6UE"/>
    <tag k="addr:street" v="High Street"/>
    <tag k="building" v="yes"/>
  </way>
  <way id="639722320" version="3" timestamp="2022-07-16T16:09:28Z" changeset="123694679" uid="242345" user="confusedbuffalo">
    <nd ref="6027510811"/>
    <nd ref="6350266349"/>
    <nd ref="6027510610"/>
    <nd ref="6027511061"/>
    <nd ref="6027511018"/>
    <nd ref="6350266339"/>
    <nd ref="6027510811"/>
    <tag k="addr:city" v="St Neots"/>
    <tag k="addr:housenumber" v="2"/>
    <tag k="addr:postcode" v="PE19 6UU"/>
    <tag k="addr:street" v="St Neots Road"/>
    <tag k="building" v="residential"/>
  </way>
  <way id="639722322" version="4" timestamp="2022-07-16T16:09:28Z" changeset="123694679" uid="242345" user="confusedbuffalo">
    <nd ref="6027511630"/>
    <nd ref="6027510837"/>
    <nd ref="6027510867"/>
    <nd ref="6027511590"/>
    <nd ref="6027511078"/>
    <nd ref="6027511640"/>
    <nd ref="6027511630"/>
    <tag k="addr:city" v="St Neots"/>
    <tag k="addr:housenumber" v="82"/>
    <tag k="addr:postcode" v="PE19 6UE"/>
    <tag k="addr:street" v="High Street"/>
    <tag k="building" v="yes"/>
  </way>
  <way id="639722323" version="3" timestamp="2022-07-16T16:09:28Z" changeset="123694679" uid="242345" user="confusedbuffalo">
    <nd ref="6027510832"/>
    <nd ref="6027511644"/>
    <nd ref="6027510787"/>
    <nd ref="6027511598"/>
    <nd ref="6027511390"/>
    <nd ref="6027509975"/>
    <nd ref="6027510832"/>
    <tag k="addr:city" v="St Neots"/>
    <tag k="addr:housenumber" v="3"/>
    <tag k="addr:postcode" v="PE19 6UX"/>
    <tag k="addr:street" v="Waterloo Close"/>
    <tag k="building" v="residential"/>
  </way>
  <way id="639722324" version="3" timestamp="2022-07-16T16:09:28Z" changeset="123694679" uid="242345" user="confusedbuffalo">
    <nd ref="6027510800"/>
    <nd ref="6027511004"/>
    <nd ref="6027510860"/>
    <nd ref="6027510678"/>
    <nd ref="6027510991"/>
    <nd ref="6027510875"/>
    <nd ref="6027510800"/>
    <tag k="addr:city" v="St Neots"/>
    <tag k="addr:housenumber" v="103"/>
    <tag k="addr:postcode" v="PE19 6UE"/>
    <tag k="addr:street" v="High Street"/>
    <tag k="building" v="yes"/>
  </way>
  <way id="639722325" version="4" timestamp="2022-07-16T16:09:28Z" changeset="123694679" uid="242345" user="confusedbuffalo">
    <nd ref="6027509984"/>
    <nd ref="6027511213"/>
    <nd ref="6027511239"/>
    <nd ref="6027511443"/>
    <nd ref="6027509984"/>
    <tag k="addr:city" v="St Neots"/>
    <tag k="addr:housenumber" v="4"/>
    <tag k="addr:postcode" v="PE19 6UN"/>
    <tag k="addr:street" v="Pitsdean Road"/>
    <tag k="building" v="yes"/>
  </way>
  <way id="639722326" version="4" timestamp="2022-07-16T16:09:28Z" changeset="123694679" uid="242345" user="confusedbuffalo">
    <nd ref="6027511395"/>
    <nd ref="6027511629"/>
    <nd ref="6027509966"/>
    <nd ref="6027510998"/>
    <nd ref="6027511395"/>
    <tag k="addr:city" v="St Neots"/>
    <tag k="addr:housename" v="Fen End Farmhouse"/>
    <tag k="addr:housenumber" v="116"/>
    <tag k="addr:postcode" v="PE19 6UE"/>
    <tag k="addr:street" v="High Street"/>
    <tag k="building" v="yes"/>
    <tag k="wikidata" v="Q26505953"/>
  </way>
  <way id="639722327" version="3" timestamp="2022-07-16T16:09:30Z" changeset="123694679" uid="242345" user="confusedbuffalo">
    <nd ref="6027510804"/>
    <nd ref="6027511650"/>
    <nd ref="6027510835"/>
    <nd ref="6027510826"/>
    <nd ref="6027511440"/>
    <nd ref="6027511430"/>
    <nd ref="6027510804"/>
    <tag k="addr:city" v="St Neots"/>
    <tag k="addr:housenumber" v="2"/>
    <tag k="addr:postcode" v="PE19 6UX"/>
    <tag k="addr:street" v="Waterloo Close"/>
    <tag k="building" v="residential"/>
  </way>
  <way id="639722328" version="3" timestamp="2022-07-16T16:09:30Z" changeset="123694679" uid="242345" user="confusedbuffalo">
    <nd ref="6027510840"/>
    <nd ref="6027511185"/>
    <nd ref="6027511195"/>
    <nd ref="6027511588"/>
    <nd ref="6027511070"/>
    <nd ref="6027510840"/>
    <tag k="addr:city" v="St Neots"/>
    <tag k="addr:housenumber" v="7"/>
    <tag k="addr:postcode" v="PE19 6UJ"/>
    <tag k="addr:street" v="High Street"/>
    <tag k="building" v="yes"/>
  </way>
  <way id="639722329" version="3" timestamp="2022-07-16T16:09:30Z" changeset="123694679" uid="242345" user="confusedbuffalo">
    <nd ref="6027511066"/>
    <nd ref="6027511186"/>
    <nd ref="6027510614"/>
    <nd ref="6027510822"/>
    <nd ref="6027510828"/>
    <nd ref="6027510588"/>
    <nd ref="6027511066"/>
    <tag k="addr:city" v="St Neots"/>
    <tag k="addr:housenumber" v="1"/>
    <tag k="addr:postcode" v="PE19 6UX"/>
    <tag k="addr:street" v="Waterloo Close"/>
    <tag k="building" v="residential"/>
  </way>
  <way id="639722330" version="3" timestamp="2022-07-16T16:09:30Z" changeset="123694679" uid="242345" user="confusedbuffalo">
    <nd ref="6027511215"/>
    <nd ref="6027510824"/>
    <nd ref="6027511013"/>
    <nd ref="6027511434"/>
    <nd ref="6027511215"/>
    <tag k="addr:city" v="St Neots"/>
    <tag k="addr:housenumber" v="2"/>
    <tag k="addr:postcode" v="PE19 6UF"/>
    <tag k="addr:street" v="Harbins Lane"/>
    <tag k="building" v="residential"/>
  </way>
  <way id="639722331" version="3" timestamp="2022-07-16T16:09:30Z" changeset="123694679" uid="242345" user="confusedbuffalo">
    <nd ref="6027511278"/>
    <nd ref="6027511256"/>
    <nd ref="6027511253"/>
    <nd ref="6027511268"/>
    <nd ref="6027511278"/>
    <tag k="addr:city" v="St Neots"/>
    <tag k="addr:housenumber" v="43"/>
    <tag k="addr:postcode" v="PE19 6UG"/>
    <tag k="addr:street" v="Blacksmiths Lane"/>
    <tag k="building" v="yes"/>
  </way>
  <way id="639722332" version="3" timestamp="2022-07-16T16:09:30Z" changeset="123694679" uid="242345" user="confusedbuffalo">
    <nd ref="6027510587"/>
    <nd ref="6027511420"/>
    <nd ref="6027511654"/>
    <nd ref="6027511232"/>
    <nd ref="6027510587"/>
    <tag k="addr:city" v="St Neots"/>
    <tag k="addr:housenumber" v="69"/>
    <tag k="addr:postcode" v="PE19 6UE"/>
    <tag k="addr:street" v="High Street"/>
    <tag k="building" v="yes"/>
  </way>
  <way id="639722333" version="3" timestamp="2022-07-16T16:09:30Z" changeset="123694679" uid="242345" user="confusedbuffalo">
    <nd ref="6027511009"/>
    <nd ref="6027509968"/>
    <nd ref="6027509977"/>
    <nd ref="6027511024"/>
    <nd ref="6027509982"/>
    <nd ref="6027511075"/>
    <nd ref="6027511009"/>
    <tag k="addr:city" v="St Neots"/>
    <tag k="addr:housenumber" v="1"/>
    <tag k="addr:postcode" v="PE19 6XT"/>
    <tag k="addr:street" v="Home Farm Close"/>
    <tag k="building" v="yes"/>
  </way>
  <way id="639722335" version="5" timestamp="2022-07-16T16:09:30Z" changeset="123694679" uid="242345" user="confusedbuffalo">
    <nd ref="6027511466"/>
    <nd ref="6027510593"/>
    <nd ref="6027510631"/>
    <nd ref="6027510591"/>
    <nd ref="6027511466"/>
    <tag k="addr:city" v="St Neots"/>
    <tag k="addr:housename" v="Vicarage Farm"/>
    <tag k="addr:housenumber" v="23"/>
    <tag k="addr:postcode" v="PE19 6UJ"/>
    <tag k="addr:street" v="High Street"/>
    <tag k="building" v="yes"/>
    <tag k="wikidata" v="Q26505874"/>
  </way>
  <way id="639722336" version="3" timestamp="2022-07-16T16:09:30Z" changeset="123694679" uid="242345" user="confusedbuffalo">
    <nd ref="6027511427"/>
    <nd ref="6027511484"/>
    <nd ref="6027511214"/>
    <nd ref="6027510646"/>
    <nd ref="6027511427"/>
    <tag k="addr:city" v="St Neots"/>
    <tag k="addr:housenumber" v="3"/>
    <tag k="addr:postcode" v="PE19 6XA"/>
    <tag k="addr:street" v="Grange Farm Close"/>
    <tag k="building" v="residential"/>
  </way>
  <way id="639722337" version="3" timestamp="2022-07-16T16:09:30Z" changeset="123694679" uid="242345" user="confusedbuffalo">
    <nd ref="6027511585"/>
    <nd ref="6027511626"/>
    <nd ref="6027510598"/>
    <nd ref="6027510624"/>
    <nd ref="6027510658"/>
    <nd ref="6027510857"/>
    <nd ref="6027511585"/>
    <tag k="addr:city" v="St Neots"/>
    <tag k="addr:housenumber" v="4"/>
    <tag k="addr:postcode" v="PE19 6US"/>
    <tag k="addr:street" v="Vicarage Farm Yard"/>
    <tag k="building" v="yes"/>
  </way>
  <way id="639722338" version="3" timestamp="2022-07-16T16:09:30Z" changeset="123694679" uid="242345" user="confusedbuffalo">
    <nd ref="6027511011"/>
    <nd ref="6027511043"/>
    <nd ref="6027510999"/>
    <nd ref="6027510789"/>
    <nd ref="6027511017"/>
    <nd ref="6027511076"/>
    <nd ref="6027511011"/>
    <tag k="addr:city" v="St Neots"/>
    <tag k="addr:housenumber" v="3"/>
    <tag k="addr:postcode" v="PE19 6XT"/>
    <tag k="addr:street" v="Home Farm Close"/>
    <tag k="building" v="yes"/>
  </way>
  <way id="639722340" version="3" timestamp="2022-07-16T16:09:30Z" changeset="123694679" uid="242345" user="confusedbuffalo">
    <nd ref="6027511226"/>
    <nd ref="6027510667"/>
    <nd ref="6027511190"/>
    <nd ref="6027510798"/>
    <nd ref="6027511231"/>
    <nd ref="6027511079"/>
    <nd ref="6027511226"/>
    <tag k="addr:city" v="St Neots"/>
    <tag k="addr:housenumber" v="1"/>
    <tag k="addr:postcode" v="PE19 6UJ"/>
    <tag k="addr:street" v="High Street"/>
    <tag k="building" v="yes"/>
  </way>
  <way id="639722341" version="4" timestamp="2022-07-16T16:09:30Z" changeset="123694679" uid="242345" user="confusedbuffalo">
    <nd ref="6027511657"/>
    <nd ref="6027510788"/>
    <nd ref="6027511031"/>
    <nd ref="6027511238"/>
    <nd ref="6027511657"/>
    <tag k="addr:city" v="St Neots"/>
    <tag k="addr:housename" v="Blacksmiths Cottage"/>
    <tag k="addr:housenumber" v="1"/>
    <tag k="addr:postcode" v="PE19 6UG"/>
    <tag k="addr:street" v="Blacksmiths Lane"/>
    <tag k="building" v="yes"/>
    <tag k="wikidata" v="Q26505854"/>
  </way>
  <way id="639722342" version="3" timestamp="2022-07-16T16:09:30Z" changeset="123694679" uid="242345" user="confusedbuffalo">
    <nd ref="6027510641"/>
    <nd ref="6027511618"/>
    <nd ref="6027511038"/>
    <nd ref="6027510851"/>
    <nd ref="6027510644"/>
    <nd ref="6027511653"/>
    <nd ref="6027510641"/>
    <tag k="addr:city" v="St Neots"/>
    <tag k="addr:housenumber" v="11"/>
    <tag k="addr:postcode" v="PE19 6UJ"/>
    <tag k="addr:street" v="High Street"/>
    <tag k="building" v="yes"/>
  </way>
  <way id="639722343" version="4" timestamp="2022-07-16T16:09:30Z" changeset="123694679" uid="242345" user="confusedbuffalo">
    <nd ref="6027510794"/>
    <nd ref="6027510623"/>
    <nd ref="6027510601"/>
    <nd ref="6027510662"/>
    <nd ref="6027510609"/>
    <nd ref="6027510639"/>
    <nd ref="6027510794"/>
    <tag k="addr:city" v="St Neots"/>
    <tag k="addr:housenumber" v="6"/>
    <tag k="addr:postcode" v="PE19 6UN"/>
    <tag k="addr:street" v="Pitsdean Road"/>
    <tag k="building" v="yes"/>
  </way>
  <way id="639722344" version="3" timestamp="2022-07-16T16:09:30Z" changeset="123694679" uid="242345" user="confusedbuffalo">
    <nd ref="6027511412"/>
    <nd ref="6027511059"/>
    <nd ref="6027511041"/>
    <nd ref="6027510884"/>
    <nd ref="6027511202"/>
    <nd ref="6027511246"/>
    <nd ref="6027511412"/>
    <tag k="addr:city" v="St Neots"/>
    <tag k="addr:housenumber" v="73"/>
    <tag k="addr:postcode" v="PE19 6UE"/>
    <tag k="addr:street" v="High Street"/>
    <tag k="building" v="yes"/>
  </way>
  <way id="639722345" version="3" timestamp="2022-07-16T16:09:30Z" changeset="123694679" uid="242345" user="confusedbuffalo">
    <nd ref="6027510883"/>
    <nd ref="6027511033"/>
    <nd ref="6027511620"/>
    <nd ref="6027510845"/>
    <nd ref="6027510883"/>
    <tag k="addr:city" v="St Neots"/>
    <tag k="addr:housenumber" v="111"/>
    <tag k="addr:postcode" v="PE19 6UE"/>
    <tag k="addr:street" v="High Street"/>
    <tag k="building" v="yes"/>
  </way>
  <way id="639722346" version="3" timestamp="2022-07-16T16:09:30Z" changeset="123694679" uid="242345" user="confusedbuffalo">
    <nd ref="6027510864"/>
    <nd ref="6027511663"/>
    <nd ref="6027511219"/>
    <nd ref="6027511424"/>
    <nd ref="6027510864"/>
    <tag k="addr:city" v="St Neots"/>
    <tag k="addr:housenumber" v="99"/>
    <tag k="addr:postcode" v="PE19 6UE"/>
    <tag k="addr:street" v="High Street"/>
    <tag k="building" v="yes"/>
  </way>
  <way id="639722347" version="3" timestamp="2022-07-16T16:09:30Z" changeset="123694679" uid="242345" user="confusedbuffalo">
    <nd ref="6027511413"/>
    <nd ref="6027511425"/>
    <nd ref="6027510841"/>
    <nd ref="6027511010"/>
    <nd ref="6027511664"/>
    <nd ref="6027511624"/>
    <nd ref="6027511413"/>
    <tag k="addr:city" v="St Neots"/>
    <tag k="addr:housenumber" v="6"/>
    <tag k="addr:postcode" v="PE19 6UX"/>
    <tag k="addr:street" v="Waterloo Close"/>
    <tag k="building" v="residential"/>
  </way>
  <way id="639722350" version="3" timestamp="2022-07-16T16:09:30Z" changeset="123694679" uid="242345" user="confusedbuffalo">
    <nd ref="6027510874"/>
    <nd ref="6027511615"/>
    <nd ref="6027511414"/>
    <nd ref="6027511242"/>
    <nd ref="6027510874"/>
    <tag k="addr:city" v="St Neots"/>
    <tag k="addr:housenumber" v="110"/>
    <tag k="addr:postcode" v="PE19 6UE"/>
    <tag k="addr:street" v="High Street"/>
    <tag k="building" v="yes"/>
  </way>
  <way id="639722351" version="3" timestamp="2022-07-16T16:09:30Z" changeset="123694679" uid="242345" user="confusedbuffalo">
    <nd ref="6027511245"/>
    <nd ref="6027511458"/>
    <nd ref="6027511408"/>
    <nd ref="6027511477"/>
    <nd ref="6027511264"/>
    <nd ref="6027511387"/>
    <nd ref="6027511245"/>
    <tag k="addr:city" v="St Neots"/>
    <tag k="addr:housenumber" v="101"/>
    <tag k="addr:postcode" v="PE19 6UE"/>
    <tag k="addr:street" v="High Street"/>
    <tag k="building" v="yes"/>
  </way>
  <way id="639722355" version="3" timestamp="2022-07-16T16:09:30Z" changeset="123694679" uid="242345" user="confusedbuffalo">
    <nd ref="6027511244"/>
    <nd ref="6027511280"/>
    <nd ref="6027511259"/>
    <nd ref="6027511275"/>
    <nd ref="6027511244"/>
    <tag k="addr:city" v="St Neots"/>
    <tag k="addr:housenumber" v="1"/>
    <tag k="addr:postcode" v="PE19 6UQ"/>
    <tag k="addr:street" v="Blacksmiths Close"/>
    <tag k="building" v="yes"/>
  </way>
  <way id="639722357" version="3" timestamp="2022-07-16T16:09:30Z" changeset="123694679" uid="242345" user="confusedbuffalo">
    <nd ref="6027511393"/>
    <nd ref="6027510853"/>
    <nd ref="6027511407"/>
    <nd ref="6027510615"/>
    <nd ref="6027511393"/>
    <tag k="addr:city" v="St Neots"/>
    <tag k="addr:housenumber" v="5"/>
    <tag k="addr:postcode" v="PE19 6UX"/>
    <tag k="addr:street" v="Waterloo Close"/>
    <tag k="building" v="residential"/>
  </way>
  <way id="639722359" version="5" timestamp="2025-02-22T01:40:27Z" changeset="162801348" uid="493595" user="Yorvik Prestigitator">
    <nd ref="6027511649"/>
    <nd ref="6027510808"/>
    <nd ref="7990120522"/>
    <nd ref="7990120517"/>
    <nd ref="7990120524"/>
    <nd ref="7990120527"/>
    <nd ref="6027625317"/>
    <nd ref="6027511003"/>
    <nd ref="6027511049"/>
    <nd ref="12608769070"/>
    <nd ref="12608769072"/>
    <nd ref="12608769073"/>
    <nd ref="12608769071"/>
    <nd ref="12608769069"/>
    <nd ref="12608769068"/>
    <nd ref="6027511649"/>
    <tag k="addr:city" v="Abbotsley"/>
    <tag k="addr:street" v="High Street"/>
    <tag k="amenity" v="community_centre"/>
    <tag k="building" v="public"/>
    <tag k="community_centre" v="village_hall"/>
    <tag k="name" v="Abbotsley Village Hall"/>
  </way>
  <way id="639722360" version="4" timestamp="2022-07-16T16:09:30Z" changeset="123694679" uid="242345" user="confusedbuffalo">
    <nd ref="6027511441"/>
    <nd ref="6027511209"/>
    <nd ref="6027511632"/>
    <nd ref="6027510843"/>
    <nd ref="6027510600"/>
    <nd ref="6027511422"/>
    <nd ref="6027511445"/>
    <nd ref="6027511448"/>
    <nd ref="6027511441"/>
    <tag k="addr:city" v="St Neots"/>
    <tag k="addr:housenumber" v="78"/>
    <tag k="addr:postcode" v="PE19 6UE"/>
    <tag k="addr:street" v="High Street"/>
    <tag k="building" v="yes"/>
  </way>
  <way id="639722361" version="3" timestamp="2022-07-16T16:09:30Z" changeset="123694679" uid="242345" user="confusedbuffalo">
    <nd ref="6027511658"/>
    <nd ref="6027511045"/>
    <nd ref="6027511613"/>
    <nd ref="6027511465"/>
    <nd ref="6027511386"/>
    <nd ref="6027511241"/>
    <nd ref="6027511062"/>
    <nd ref="6027511409"/>
    <nd ref="6027511658"/>
    <tag k="addr:city" v="St Neots"/>
    <tag k="addr:housenumber" v="4"/>
    <tag k="addr:postcode" v="PE19 6XT"/>
    <tag k="addr:street" v="Home Farm Close"/>
    <tag k="building" v="yes"/>
  </way>
  <way id="639722362" version="3" timestamp="2022-07-16T16:09:30Z" changeset="123694679" uid="242345" user="confusedbuffalo">
    <nd ref="6027511453"/>
    <nd ref="6027511271"/>
    <nd ref="6027511428"/>
    <nd ref="6027511473"/>
    <nd ref="6027511453"/>
    <tag k="addr:city" v="St Neots"/>
    <tag k="addr:housenumber" v="5"/>
    <tag k="addr:postcode" v="PE19 6UF"/>
    <tag k="addr:street" v="Harbins Lane"/>
    <tag k="building" v="residential"/>
  </way>
  <way id="639722364" version="4" timestamp="2022-07-16T16:09:30Z" changeset="123694679" uid="242345" user="confusedbuffalo">
    <nd ref="6027511050"/>
    <nd ref="6027510670"/>
    <nd ref="6027510790"/>
    <nd ref="6027510665"/>
    <nd ref="6027511050"/>
    <tag k="addr:city" v="St Neots"/>
    <tag k="addr:housenumber" v="19"/>
    <tag k="addr:postcode" v="PE19 6UJ"/>
    <tag k="addr:street" v="High Street"/>
    <tag k="building" v="yes"/>
    <tag k="wikidata" v="Q26578510"/>
  </way>
  <way id="639722365" version="3" timestamp="2022-07-16T16:09:30Z" changeset="123694679" uid="242345" user="confusedbuffalo">
    <nd ref="6027510854"/>
    <nd ref="6027511619"/>
    <nd ref="6027511609"/>
    <nd ref="6027511643"/>
    <nd ref="6027510676"/>
    <nd ref="6027511057"/>
    <nd ref="6027510854"/>
    <tag k="addr:city" v="St Neots"/>
    <tag k="addr:housenumber" v="66"/>
    <tag k="addr:postcode" v="PE19 6UE"/>
    <tag k="addr:street" v="High Street"/>
    <tag k="building" v="yes"/>
  </way>
  <way id="639722366" version="4" timestamp="2022-07-16T16:09:30Z" changeset="123694679" uid="242345" user="confusedbuffalo">
    <nd ref="6027510830"/>
    <nd ref="6027511586"/>
    <nd ref="6027511457"/>
    <nd ref="6027511604"/>
    <nd ref="6027510830"/>
    <tag k="addr:city" v="St Neots"/>
    <tag k="addr:housenumber" v="29"/>
    <tag k="addr:postcode" v="PE19 6UJ"/>
    <tag k="addr:street" v="High Street"/>
    <tag k="building" v="yes"/>
  </way>
  <way id="639722367" version="3" timestamp="2022-07-16T16:09:30Z" changeset="123694679" uid="242345" user="confusedbuffalo">
    <nd ref="6027510861"/>
    <nd ref="6027510997"/>
    <nd ref="6027510994"/>
    <nd ref="6027511406"/>
    <nd ref="6027511447"/>
    <nd ref="6027511029"/>
    <nd ref="6027511005"/>
    <nd ref="6027511023"/>
    <nd ref="6027510861"/>
    <tag k="addr:city" v="St Neots"/>
    <tag k="addr:housenumber" v="97"/>
    <tag k="addr:postcode" v="PE19 6UE"/>
    <tag k="addr:street" v="High Street"/>
    <tag k="building" v="yes"/>
  </way>
  <way id="639722368" version="4" timestamp="2022-07-16T16:09:30Z" changeset="123694679" uid="242345" user="confusedbuffalo">
    <nd ref="6027510664"/>
    <nd ref="6027510838"/>
    <nd ref="6027511058"/>
    <nd ref="6027510793"/>
    <nd ref="6027510664"/>
    <tag k="addr:city" v="St Neots"/>
    <tag k="addr:housenumber" v="45"/>
    <tag k="addr:postcode" v="PE19 6UJ"/>
    <tag k="addr:street" v="High Street"/>
    <tag k="building" v="yes"/>
  </way>
  <way id="639722369" version="3" timestamp="2022-07-16T16:09:30Z" changeset="123694679" uid="242345" user="confusedbuffalo">
    <nd ref="6027511077"/>
    <nd ref="6027510990"/>
    <nd ref="6027511602"/>
    <nd ref="6027510656"/>
    <nd ref="6027510603"/>
    <nd ref="6027511617"/>
    <nd ref="6027511077"/>
    <tag k="addr:city" v="St Neots"/>
    <tag k="addr:housenumber" v="1"/>
    <tag k="addr:postcode" v="PE19 6US"/>
    <tag k="addr:street" v="Vicarage Farm Yard"/>
    <tag k="building" v="yes"/>
  </way>
  <way id="639722370" version="3" timestamp="2022-07-16T16:09:30Z" changeset="123694679" uid="242345" user="confusedbuffalo">
    <nd ref="6027511596"/>
    <nd ref="6027511015"/>
    <nd ref="6027511614"/>
    <nd ref="6027511035"/>
    <nd ref="6027511596"/>
    <tag k="addr:city" v="St Neots"/>
    <tag k="addr:housenumber" v="11"/>
    <tag k="addr:postcode" v="PE19 6UF"/>
    <tag k="addr:street" v="Harbins Lane"/>
    <tag k="building" v="residential"/>
  </way>
  <way id="639733689" version="3" timestamp="2022-07-16T16:09:30Z" changeset="123694679" uid="242345" user="confusedbuffalo">
    <nd ref="6027616088"/>
    <nd ref="6027615905"/>
    <nd ref="6027615689"/>
    <nd ref="6027616157"/>
    <nd ref="6027616088"/>
    <tag k="addr:city" v="St Neots"/>
    <tag k="addr:housenumber" v="7"/>
    <tag k="addr:postcode" v="PE19 6UR"/>
    <tag k="addr:street" v="Pyms Gardens"/>
    <tag k="building" v="residential"/>
  </way>
  <way id="639733691" version="3" timestamp="2022-07-16T16:09:30Z" changeset="123694679" uid="242345" user="confusedbuffalo">
    <nd ref="6027615907"/>
    <nd ref="6027615724"/>
    <nd ref="6027615582"/>
    <nd ref="6027615703"/>
    <nd ref="6027615699"/>
    <nd ref="6027615543"/>
    <nd ref="6027615907"/>
    <tag k="addr:city" v="St Neots"/>
    <tag k="addr:housenumber" v="21"/>
    <tag k="addr:postcode" v="PE19 6UL"/>
    <tag k="addr:street" v="High Green"/>
    <tag k="building" v="residential"/>
  </way>
  <way id="639733696" version="3" timestamp="2022-07-16T16:09:30Z" changeset="123694679" uid="242345" user="confusedbuffalo">
    <nd ref="6350266321"/>
    <nd ref="6350266348"/>
    <nd ref="6027615916"/>
    <nd ref="6027615760"/>
    <nd ref="6350266321"/>
    <tag k="addr:city" v="St Neots"/>
    <tag k="addr:housenumber" v="29"/>
    <tag k="addr:postcode" v="PE19 6UU"/>
    <tag k="addr:street" v="St Neots Road"/>
    <tag k="building" v="residential"/>
  </way>
  <way id="639733700" version="3" timestamp="2022-07-16T16:09:30Z" changeset="123694679" uid="242345" user="confusedbuffalo">
    <nd ref="6027615520"/>
    <nd ref="6027616097"/>
    <nd ref="6027615580"/>
    <nd ref="6027615567"/>
    <nd ref="6027615520"/>
    <tag k="addr:city" v="St Neots"/>
    <tag k="addr:housenumber" v="21"/>
    <tag k="addr:postcode" v="PE19 6UU"/>
    <tag k="addr:street" v="St Neots Road"/>
    <tag k="building" v="residential"/>
  </way>
  <way id="639733701" version="3" timestamp="2022-07-16T16:09:30Z" changeset="123694679" uid="242345" user="confusedbuffalo">
    <nd ref="6027615759"/>
    <nd ref="6055228546"/>
    <nd ref="6027615527"/>
    <nd ref="6027615735"/>
    <nd ref="6027615714"/>
    <nd ref="6027615759"/>
    <tag k="addr:city" v="St Neots"/>
    <tag k="addr:housenumber" v="3"/>
    <tag k="addr:postcode" v="PE19 6UZ"/>
    <tag k="addr:street" v="Field Close"/>
    <tag k="building" v="residential"/>
  </way>
  <way id="639733708" version="3" timestamp="2022-07-16T16:09:30Z" changeset="123694679" uid="242345" user="confusedbuffalo">
    <nd ref="6027615529"/>
    <nd ref="6027615569"/>
    <nd ref="6027615511"/>
    <nd ref="6027616144"/>
    <nd ref="6027616148"/>
    <nd ref="6027615718"/>
    <nd ref="6027615529"/>
    <tag k="addr:city" v="St Neots"/>
    <tag k="addr:housenumber" v="11"/>
    <tag k="addr:postcode" v="PE19 6UU"/>
    <tag k="addr:street" v="St Neots Road"/>
    <tag k="building" v="residential"/>
  </way>
  <way id="639733711" version="3" timestamp="2022-07-16T16:09:30Z" changeset="123694679" uid="242345" user="confusedbuffalo">
    <nd ref="6027615726"/>
    <nd ref="6027615948"/>
    <nd ref="6027615977"/>
    <nd ref="6027615710"/>
    <nd ref="6027615584"/>
    <nd ref="6027615574"/>
    <nd ref="6027615726"/>
    <tag k="addr:city" v="St Neots"/>
    <tag k="addr:housenumber" v="15"/>
    <tag k="addr:postcode" v="PE19 6UU"/>
    <tag k="addr:street" v="St Neots Road"/>
    <tag k="building" v="residential"/>
  </way>
  <way id="639733715" version="3" timestamp="2022-07-16T16:09:30Z" changeset="123694679" uid="242345" user="confusedbuffalo">
    <nd ref="6027615712"/>
    <nd ref="6027615739"/>
    <nd ref="6027615723"/>
    <nd ref="6027615897"/>
    <nd ref="6027615712"/>
    <tag k="addr:city" v="St Neots"/>
    <tag k="addr:housenumber" v="17"/>
    <tag k="addr:postcode" v="PE19 6UL"/>
    <tag k="addr:street" v="High Green"/>
    <tag k="building" v="residential"/>
  </way>
  <way id="639733717" version="3" timestamp="2022-07-16T16:09:30Z" changeset="123694679" uid="242345" user="confusedbuffalo">
    <nd ref="6027615732"/>
    <nd ref="6027615952"/>
    <nd ref="6027615942"/>
    <nd ref="6027615891"/>
    <nd ref="6027615732"/>
    <tag k="addr:city" v="St Neots"/>
    <tag k="addr:housenumber" v="7"/>
    <tag k="addr:postcode" v="PE19 6UZ"/>
    <tag k="addr:street" v="Field Close"/>
    <tag k="building" v="residential"/>
  </way>
  <way id="639733720" version="3" timestamp="2022-07-16T16:09:30Z" changeset="123694679" uid="242345" user="confusedbuffalo">
    <nd ref="6027615781"/>
    <nd ref="6027615705"/>
    <nd ref="6027615577"/>
    <nd ref="6027615565"/>
    <nd ref="6027615781"/>
    <tag k="addr:city" v="St Neots"/>
    <tag k="addr:housenumber" v="5"/>
    <tag k="addr:postcode" v="PE19 6UZ"/>
    <tag k="addr:street" v="Field Close"/>
    <tag k="building" v="residential"/>
  </way>
  <way id="639733722" version="3" timestamp="2022-07-16T16:09:30Z" changeset="123694679" uid="242345" user="confusedbuffalo">
    <nd ref="6027615742"/>
    <nd ref="6027615982"/>
    <nd ref="6027615727"/>
    <nd ref="6027615704"/>
    <nd ref="6027615742"/>
    <tag k="addr:city" v="St Neots"/>
    <tag k="addr:housenumber" v="10"/>
    <tag k="addr:postcode" v="PE19 6UZ"/>
    <tag k="addr:street" v="Field Close"/>
    <tag k="building" v="residential"/>
  </way>
  <way id="639733726" version="4" timestamp="2022-07-16T16:09:30Z" changeset="123694679" uid="242345" user="confusedbuffalo">
    <nd ref="6027616116"/>
    <nd ref="6027615927"/>
    <nd ref="6027615888"/>
    <nd ref="6027616156"/>
    <nd ref="6027616116"/>
    <tag k="addr:city" v="St Neots"/>
    <tag k="addr:housenumber" v="12"/>
    <tag k="addr:postcode" v="PE19 6UP"/>
    <tag k="addr:street" v="Hardwicke Lane"/>
    <tag k="building" v="residential"/>
  </way>
  <way id="639733728" version="4" timestamp="2022-07-16T16:09:30Z" changeset="123694679" uid="242345" user="confusedbuffalo">
    <nd ref="6027615540"/>
    <nd ref="6027615694"/>
    <nd ref="8367724779"/>
    <nd ref="6027615562"/>
    <nd ref="6027615908"/>
    <nd ref="6027615540"/>
    <tag k="addr:city" v="St Neots"/>
    <tag k="addr:housenumber" v="35"/>
    <tag k="addr:postcode" v="PE19 6UU"/>
    <tag k="addr:street" v="St Neots Road"/>
    <tag k="building" v="residential"/>
  </way>
  <way id="639733731" version="2" timestamp="2022-07-16T16:09:30Z" changeset="123694679" uid="242345" user="confusedbuffalo">
    <nd ref="6027616132"/>
    <nd ref="6027616108"/>
    <nd ref="6027616130"/>
    <nd ref="6027615743"/>
    <nd ref="6027615583"/>
    <nd ref="6027616126"/>
    <nd ref="6027616154"/>
    <nd ref="6027615509"/>
    <nd ref="6027615528"/>
    <nd ref="6027615542"/>
    <nd ref="6027615709"/>
    <nd ref="6027615733"/>
    <nd ref="6027615774"/>
    <nd ref="6027615777"/>
    <nd ref="6027615771"/>
    <nd ref="6027615775"/>
    <nd ref="6027616132"/>
    <tag k="addr:city" v="St Neots"/>
    <tag k="addr:postcode" v="PE19 6XF"/>
    <tag k="addr:street" v="Drewels Lane"/>
    <tag k="name" v="Abbotsley Country Homes"/>
    <tag k="tourism" v="resort"/>
  </way>
  <way id="639733736" version="3" timestamp="2022-07-16T16:09:30Z" changeset="123694679" uid="242345" user="confusedbuffalo">
    <nd ref="6027615932"/>
    <nd ref="6027615894"/>
    <nd ref="6027615782"/>
    <nd ref="6027616094"/>
    <nd ref="6027615932"/>
    <tag k="addr:city" v="St Neots"/>
    <tag k="addr:housenumber" v="5"/>
    <tag k="addr:postcode" v="PE19 6UT"/>
    <tag k="addr:street" v="Pyms Gardens"/>
    <tag k="building" v="residential"/>
  </way>
  <way id="639733747" version="3" timestamp="2022-07-16T16:09:30Z" changeset="123694679" uid="242345" user="confusedbuffalo">
    <nd ref="6027615955"/>
    <nd ref="6027615564"/>
    <nd ref="6027615716"/>
    <nd ref="6027615766"/>
    <nd ref="6027615955"/>
    <tag k="addr:city" v="St Neots"/>
    <tag k="addr:housenumber" v="8"/>
    <tag k="addr:postcode" v="PE19 6UU"/>
    <tag k="addr:street" v="St Neots Road"/>
    <tag k="building" v="residential"/>
  </way>
  <way id="639733750" version="3" timestamp="2022-07-16T16:09:30Z" changeset="123694679" uid="242345" user="confusedbuffalo">
    <nd ref="6027615707"/>
    <nd ref="6027616119"/>
    <nd ref="6027616099"/>
    <nd ref="6027615579"/>
    <nd ref="6027615707"/>
    <tag k="addr:city" v="St Neots"/>
    <tag k="addr:housenumber" v="1"/>
    <tag k="addr:postcode" v="PE19 6UZ"/>
    <tag k="addr:street" v="Field Close"/>
    <tag k="building" v="residential"/>
  </way>
  <way id="639733758" version="4" timestamp="2022-07-16T16:09:30Z" changeset="123694679" uid="242345" user="confusedbuffalo">
    <nd ref="6027616124"/>
    <nd ref="6027615930"/>
    <nd ref="6027615903"/>
    <nd ref="6027615783"/>
    <nd ref="6027616124"/>
    <tag k="addr:city" v="St Neots"/>
    <tag k="addr:housenumber" v="4"/>
    <tag k="addr:postcode" v="PE19 6UT"/>
    <tag k="addr:street" v="Pyms Gardens"/>
    <tag k="building" v="residential"/>
  </way>
  <way id="639733766" version="3" timestamp="2022-07-16T16:09:30Z" changeset="123694679" uid="242345" user="confusedbuffalo">
    <nd ref="6027616165"/>
    <nd ref="6027615762"/>
    <nd ref="6027616095"/>
    <nd ref="6027615725"/>
    <nd ref="6027615713"/>
    <nd ref="6027615530"/>
    <nd ref="6027616165"/>
    <tag k="addr:city" v="St Neots"/>
    <tag k="addr:housenumber" v="17"/>
    <tag k="addr:postcode" v="PE19 6UU"/>
    <tag k="addr:street" v="St Neots Road"/>
    <tag k="building" v="residential"/>
  </way>
  <way id="639733772" version="3" timestamp="2022-07-16T16:09:30Z" changeset="123694679" uid="242345" user="confusedbuffalo">
    <nd ref="6027615548"/>
    <nd ref="6027615751"/>
    <nd ref="6027616104"/>
    <nd ref="6027615920"/>
    <nd ref="6027615523"/>
    <nd ref="6027615967"/>
    <nd ref="6027615975"/>
    <nd ref="6027616136"/>
    <nd ref="6027615548"/>
    <tag k="addr:city" v="St Neots"/>
    <tag k="addr:housenumber" v="28"/>
    <tag k="addr:postcode" v="PE19 6UU"/>
    <tag k="addr:street" v="St Neots Road"/>
    <tag k="building" v="residential"/>
  </way>
  <way id="639733774" version="3" timestamp="2022-07-16T16:09:30Z" changeset="123694679" uid="242345" user="confusedbuffalo">
    <nd ref="6027616098"/>
    <nd ref="6027616110"/>
    <nd ref="6027615741"/>
    <nd ref="6027615984"/>
    <nd ref="6027615576"/>
    <nd ref="6027615566"/>
    <nd ref="6027616098"/>
    <tag k="addr:city" v="St Neots"/>
    <tag k="addr:housenumber" v="26"/>
    <tag k="addr:postcode" v="PE19 6UU"/>
    <tag k="addr:street" v="St Neots Road"/>
    <tag k="building" v="residential"/>
  </way>
  <way id="639733777" version="3" timestamp="2022-07-16T16:09:30Z" changeset="123694679" uid="242345" user="confusedbuffalo">
    <nd ref="6027615561"/>
    <nd ref="6027615911"/>
    <nd ref="6027615909"/>
    <nd ref="6027615918"/>
    <nd ref="6027615561"/>
    <tag k="addr:city" v="St Neots"/>
    <tag k="addr:housenumber" v="14"/>
    <tag k="addr:postcode" v="PE19 6UU"/>
    <tag k="addr:street" v="St Neots Road"/>
    <tag k="building" v="residential"/>
  </way>
  <way id="639733798" version="4" timestamp="2022-07-16T16:09:30Z" changeset="123694679" uid="242345" user="confusedbuffalo">
    <nd ref="6027615571"/>
    <nd ref="6027615546"/>
    <nd ref="6027615698"/>
    <nd ref="6027615960"/>
    <nd ref="6027616134"/>
    <nd ref="6027615919"/>
    <nd ref="6027615571"/>
    <tag k="addr:city" v="St Neots"/>
    <tag k="addr:housenumber" v="14"/>
    <tag k="addr:postcode" v="PE19 6UP"/>
    <tag k="addr:street" v="Hardwicke Lane"/>
    <tag k="building" v="residential"/>
  </way>
  <way id="639733803" version="3" timestamp="2022-07-16T16:09:30Z" changeset="123694679" uid="242345" user="confusedbuffalo">
    <nd ref="6027615973"/>
    <nd ref="6027615744"/>
    <nd ref="6027615971"/>
    <nd ref="6027615974"/>
    <nd ref="6027615912"/>
    <nd ref="6027616146"/>
    <nd ref="6027615973"/>
    <tag k="addr:city" v="St Neots"/>
    <tag k="addr:housenumber" v="19"/>
    <tag k="addr:postcode" v="PE19 6UU"/>
    <tag k="addr:street" v="St Neots Road"/>
    <tag k="building" v="residential"/>
  </way>
  <way id="639733809" version="3" timestamp="2022-07-16T16:09:30Z" changeset="123694679" uid="242345" user="confusedbuffalo">
    <nd ref="6027615769"/>
    <nd ref="6027615693"/>
    <nd ref="6027615507"/>
    <nd ref="6027615521"/>
    <nd ref="6027615944"/>
    <nd ref="6027615949"/>
    <nd ref="6027615769"/>
    <tag k="addr:city" v="St Neots"/>
    <tag k="addr:housenumber" v="12"/>
    <tag k="addr:postcode" v="PE19 6UU"/>
    <tag k="addr:street" v="St Neots Road"/>
    <tag k="building" v="residential"/>
  </way>
  <way id="639733812" version="4" timestamp="2022-07-16T16:09:30Z" changeset="123694679" uid="242345" user="confusedbuffalo">
    <nd ref="6027616167"/>
    <nd ref="6027615734"/>
    <nd ref="6027615715"/>
    <nd ref="6027615538"/>
    <nd ref="6027616167"/>
    <tag k="addr:city" v="St Neots"/>
    <tag k="addr:housenumber" v="10"/>
    <tag k="addr:postcode" v="PE19 6UP"/>
    <tag k="addr:street" v="Hardwicke Lane"/>
    <tag k="building" v="residential"/>
  </way>
  <way id="639733817" version="3" timestamp="2022-07-16T16:09:30Z" changeset="123694679" uid="242345" user="confusedbuffalo">
    <nd ref="6027616113"/>
    <nd ref="6027616151"/>
    <nd ref="6027615936"/>
    <nd ref="6027616089"/>
    <nd ref="6027616113"/>
    <tag k="addr:city" v="St Neots"/>
    <tag k="addr:housenumber" v="12"/>
    <tag k="addr:postcode" v="PE19 6UR"/>
    <tag k="addr:street" v="Pyms Gardens"/>
    <tag k="building" v="residential"/>
  </way>
  <way id="639733819" version="4" timestamp="2022-07-16T16:09:30Z" changeset="123694679" uid="242345" user="confusedbuffalo">
    <nd ref="1185579923"/>
    <nd ref="6027615772"/>
    <nd ref="3993638560"/>
    <nd ref="6027615941"/>
    <nd ref="6027615886"/>
    <nd ref="6027615730"/>
    <nd ref="6060378629"/>
    <nd ref="1185579923"/>
    <tag k="addr:city" v="St Neots"/>
    <tag k="addr:postcode" v="PE19 6UE"/>
    <tag k="addr:street" v="High Street"/>
    <tag k="landuse" v="farmyard"/>
    <tag k="name" v="Fen End Farm"/>
  </way>
  <way id="639733823" version="3" timestamp="2022-07-16T16:09:30Z" changeset="123694679" uid="242345" user="confusedbuffalo">
    <nd ref="6027615900"/>
    <nd ref="6027615535"/>
    <nd ref="6027615757"/>
    <nd ref="6027615904"/>
    <nd ref="6027615900"/>
    <tag k="addr:city" v="St Neots"/>
    <tag k="addr:housenumber" v="19"/>
    <tag k="addr:postcode" v="PE19 6UL"/>
    <tag k="addr:street" v="High Green"/>
    <tag k="building" v="residential"/>
  </way>
  <way id="639733826" version="3" timestamp="2022-07-16T16:09:30Z" changeset="123694679" uid="242345" user="confusedbuffalo">
    <nd ref="6027616164"/>
    <nd ref="6027615950"/>
    <nd ref="6027615572"/>
    <nd ref="6027615697"/>
    <nd ref="6027616164"/>
    <tag k="addr:city" v="St Neots"/>
    <tag k="addr:housenumber" v="1"/>
    <tag k="addr:postcode" v="PE19 6UT"/>
    <tag k="addr:street" v="Pyms Gardens"/>
    <tag k="building" v="residential"/>
  </way>
  <way id="639733829" version="3" timestamp="2022-07-16T16:09:30Z" changeset="123694679" uid="242345" user="confusedbuffalo">
    <nd ref="6027615696"/>
    <nd ref="6027615532"/>
    <nd ref="6027615522"/>
    <nd ref="6027615695"/>
    <nd ref="6027615696"/>
    <tag k="addr:city" v="St Neots"/>
    <tag k="addr:housenumber" v="25"/>
    <tag k="addr:postcode" v="PE19 6UU"/>
    <tag k="addr:street" v="St Neots Road"/>
    <tag k="building" v="residential"/>
  </way>
  <way id="639733831" version="3" timestamp="2022-07-16T16:09:30Z" changeset="123694679" uid="242345" user="confusedbuffalo">
    <nd ref="6027615559"/>
    <nd ref="6027615702"/>
    <nd ref="6027616161"/>
    <nd ref="6027615750"/>
    <nd ref="6027615559"/>
    <tag k="addr:city" v="St Neots"/>
    <tag k="addr:housenumber" v="15"/>
    <tag k="addr:postcode" v="PE19 6UL"/>
    <tag k="addr:street" v="High Green"/>
    <tag k="building" v="residential"/>
  </way>
  <way id="639733837" version="3" timestamp="2022-07-16T16:09:30Z" changeset="123694679" uid="242345" user="confusedbuffalo">
    <nd ref="6027615970"/>
    <nd ref="6027615954"/>
    <nd ref="6027615953"/>
    <nd ref="6027616085"/>
    <nd ref="6027615970"/>
    <tag k="addr:city" v="St Neots"/>
    <tag k="addr:housenumber" v="9"/>
    <tag k="addr:postcode" v="PE19 6UR"/>
    <tag k="addr:street" v="Pyms Gardens"/>
    <tag k="building" v="residential"/>
  </way>
  <way id="643450081" version="4" timestamp="2022-07-16T16:09:30Z" changeset="123694679" uid="242345" user="confusedbuffalo">
    <nd ref="6055228548"/>
    <nd ref="6055228525"/>
    <nd ref="6055228530"/>
    <nd ref="6055228527"/>
    <nd ref="6055228509"/>
    <nd ref="6055228504"/>
    <nd ref="6055228548"/>
    <tag k="addr:city" v="St Neots"/>
    <tag k="addr:housenumber" v="6-8"/>
    <tag k="addr:postcode" v="PE19 6UP"/>
    <tag k="addr:street" v="Hardwicke Lane"/>
    <tag k="building" v="residential"/>
    <tag k="wikidata" v="Q26505872"/>
  </way>
  <way id="643450085" version="3" timestamp="2022-07-16T16:09:30Z" changeset="123694679" uid="242345" user="confusedbuffalo">
    <nd ref="6027616124"/>
    <nd ref="6055228529"/>
    <nd ref="6055228500"/>
    <nd ref="6027615930"/>
    <nd ref="6027616124"/>
    <tag k="addr:city" v="St Neots"/>
    <tag k="addr:housenumber" v="3"/>
    <tag k="addr:postcode" v="PE19 6UT"/>
    <tag k="addr:street" v="Pyms Gardens"/>
    <tag k="building" v="residential"/>
  </way>
  <way id="643450086" version="2" timestamp="2022-07-16T16:09:30Z" changeset="123694679" uid="242345" user="confusedbuffalo">
    <nd ref="6027511191"/>
    <nd ref="6055228533"/>
    <nd ref="6055228496"/>
    <nd ref="6027511236"/>
    <nd ref="6027511191"/>
    <tag k="addr:city" v="St Neots"/>
    <tag k="addr:housenumber" v="26"/>
    <tag k="addr:postcode" v="PE19 6UG"/>
    <tag k="addr:street" v="Blacksmiths Lane"/>
    <tag k="building" v="yes"/>
  </way>
  <way id="643450088" version="2" timestamp="2022-07-16T16:09:30Z" changeset="123694679" uid="242345" user="confusedbuffalo">
    <nd ref="6027615982"/>
    <nd ref="6055228556"/>
    <nd ref="6055228574"/>
    <nd ref="6027615727"/>
    <nd ref="6027615982"/>
    <tag k="addr:city" v="St Neots"/>
    <tag k="addr:housenumber" v="9"/>
    <tag k="addr:postcode" v="PE19 6UZ"/>
    <tag k="addr:street" v="Field Close"/>
    <tag k="building" v="residential"/>
  </way>
  <way id="643450091" version="2" timestamp="2022-07-16T16:09:30Z" changeset="123694679" uid="242345" user="confusedbuffalo">
    <nd ref="6027615759"/>
    <nd ref="6055228517"/>
    <nd ref="6055228503"/>
    <nd ref="6055228546"/>
    <nd ref="6027615759"/>
    <tag k="addr:city" v="St Neots"/>
    <tag k="addr:housenumber" v="4"/>
    <tag k="addr:postcode" v="PE19 6UZ"/>
    <tag k="addr:street" v="Field Close"/>
    <tag k="building" v="residential"/>
  </way>
  <way id="643450095" version="2" timestamp="2022-07-16T16:09:30Z" changeset="123694679" uid="242345" user="confusedbuffalo">
    <nd ref="6027615891"/>
    <nd ref="6055228567"/>
    <nd ref="6055228542"/>
    <nd ref="6027615732"/>
    <nd ref="6027615891"/>
    <tag k="addr:city" v="St Neots"/>
    <tag k="addr:housenumber" v="8"/>
    <tag k="addr:postcode" v="PE19 6UZ"/>
    <tag k="addr:street" v="Field Close"/>
    <tag k="building" v="residential"/>
  </way>
  <way id="643450096" version="2" timestamp="2022-07-16T16:09:30Z" changeset="123694679" uid="242345" user="confusedbuffalo">
    <nd ref="6027615781"/>
    <nd ref="6055228513"/>
    <nd ref="6055228536"/>
    <nd ref="6027615705"/>
    <nd ref="6027615781"/>
    <tag k="addr:city" v="St Neots"/>
    <tag k="addr:housenumber" v="6"/>
    <tag k="addr:postcode" v="PE19 6UZ"/>
    <tag k="addr:street" v="Field Close"/>
    <tag k="building" v="residential"/>
  </way>
  <way id="643450097" version="2" timestamp="2022-07-16T16:09:30Z" changeset="123694679" uid="242345" user="confusedbuffalo">
    <nd ref="6027616119"/>
    <nd ref="6055228551"/>
    <nd ref="6055228486"/>
    <nd ref="6027616099"/>
    <nd ref="6027616119"/>
    <tag k="addr:city" v="St Neots"/>
    <tag k="addr:housenumber" v="2"/>
    <tag k="addr:postcode" v="PE19 6UZ"/>
    <tag k="addr:street" v="Field Close"/>
    <tag k="building" v="residential"/>
  </way>
  <way id="644336585" version="2" timestamp="2022-07-16T16:09:30Z" changeset="123694679" uid="242345" user="confusedbuffalo">
    <nd ref="6027615954"/>
    <nd ref="6060243528"/>
    <nd ref="6060244035"/>
    <nd ref="6027615970"/>
    <nd ref="6027615954"/>
    <tag k="addr:city" v="St Neots"/>
    <tag k="addr:housenumber" v="10"/>
    <tag k="addr:postcode" v="PE19 6UR"/>
    <tag k="addr:street" v="Pyms Gardens"/>
    <tag k="building" v="residential"/>
  </way>
  <way id="644336591" version="2" timestamp="2022-07-16T16:09:30Z" changeset="123694679" uid="242345" user="confusedbuffalo">
    <nd ref="6027615782"/>
    <nd ref="6060244062"/>
    <nd ref="6060244037"/>
    <nd ref="6027616094"/>
    <nd ref="6027615782"/>
    <tag k="addr:city" v="St Neots"/>
    <tag k="addr:housenumber" v="6"/>
    <tag k="addr:postcode" v="PE19 6UT"/>
    <tag k="addr:street" v="Pyms Gardens"/>
    <tag k="building" v="residential"/>
  </way>
  <way id="644336601" version="2" timestamp="2022-07-16T16:09:30Z" changeset="123694679" uid="242345" user="confusedbuffalo">
    <nd ref="6027615697"/>
    <nd ref="6060244029"/>
    <nd ref="6060244061"/>
    <nd ref="6027615572"/>
    <nd ref="6027615697"/>
    <tag k="addr:city" v="St Neots"/>
    <tag k="addr:housenumber" v="2"/>
    <tag k="addr:postcode" v="PE19 6UT"/>
    <tag k="addr:street" v="Pyms Gardens"/>
    <tag k="building" v="residential"/>
  </way>
  <way id="644336603" version="2" timestamp="2022-07-16T16:09:30Z" changeset="123694679" uid="242345" user="confusedbuffalo">
    <nd ref="6027615936"/>
    <nd ref="6060244018"/>
    <nd ref="6060244010"/>
    <nd ref="6027616089"/>
    <nd ref="6027615936"/>
    <tag k="addr:city" v="St Neots"/>
    <tag k="addr:housenumber" v="11"/>
    <tag k="addr:postcode" v="PE19 6UR"/>
    <tag k="addr:street" v="Pyms Gardens"/>
    <tag k="building" v="residential"/>
  </way>
  <way id="644336604" version="2" timestamp="2022-07-16T16:09:30Z" changeset="123694679" uid="242345" user="confusedbuffalo">
    <nd ref="6027615905"/>
    <nd ref="6060244054"/>
    <nd ref="6060244045"/>
    <nd ref="6027616088"/>
    <nd ref="6027615905"/>
    <tag k="addr:city" v="St Neots"/>
    <tag k="addr:housenumber" v="8"/>
    <tag k="addr:postcode" v="PE19 6UR"/>
    <tag k="addr:street" v="Pyms Gardens"/>
    <tag k="building" v="residential"/>
  </way>
  <way id="644336609" version="3" timestamp="2022-07-16T16:09:30Z" changeset="123694679" uid="242345" user="confusedbuffalo">
    <nd ref="6060244000"/>
    <nd ref="6060244071"/>
    <nd ref="6027511626"/>
    <nd ref="6027511585"/>
    <nd ref="6060244000"/>
    <tag k="addr:city" v="St Neots"/>
    <tag k="addr:housenumber" v="3"/>
    <tag k="addr:postcode" v="PE19 6US"/>
    <tag k="addr:street" v="Vicarage Farm Yard"/>
    <tag k="building" v="yes"/>
  </way>
  <way id="644349471" version="3" timestamp="2022-07-16T16:09:30Z" changeset="123694679" uid="242345" user="confusedbuffalo">
    <nd ref="6060328040"/>
    <nd ref="6060328028"/>
    <nd ref="6060328021"/>
    <nd ref="6060323881"/>
    <nd ref="6060328040"/>
    <tag k="addr:city" v="St Neots"/>
    <tag k="addr:housename" v="The Old Pottery"/>
    <tag k="addr:housenumber" v="57"/>
    <tag k="addr:postcode" v="PE19 6UE"/>
    <tag k="addr:street" v="High Street"/>
    <tag k="building" v="yes"/>
  </way>
  <way id="644349492" version="3" timestamp="2022-07-16T16:09:30Z" changeset="123694679" uid="242345" user="confusedbuffalo">
    <nd ref="6027615908"/>
    <nd ref="6060323872"/>
    <nd ref="6060323874"/>
    <nd ref="6027615562"/>
    <nd ref="6027615908"/>
    <tag k="addr:city" v="St Neots"/>
    <tag k="addr:housenumber" v="33"/>
    <tag k="addr:postcode" v="PE19 6UU"/>
    <tag k="addr:street" v="St Neots Road"/>
    <tag k="building" v="residential"/>
  </way>
  <way id="644349516" version="3" timestamp="2022-07-16T16:09:30Z" changeset="123694679" uid="242345" user="confusedbuffalo">
    <nd ref="6027615564"/>
    <nd ref="6060323855"/>
    <nd ref="6060328025"/>
    <nd ref="6027615955"/>
    <nd ref="6027615564"/>
    <tag k="addr:city" v="St Neots"/>
    <tag k="addr:housenumber" v="10"/>
    <tag k="addr:postcode" v="PE19 6UU"/>
    <tag k="addr:street" v="St Neots Road"/>
    <tag k="building" v="residential"/>
  </way>
  <way id="644351231" version="2" timestamp="2022-07-16T16:09:30Z" changeset="123694679" uid="242345" user="confusedbuffalo">
    <nd ref="6027511032"/>
    <nd ref="6060344671"/>
    <nd ref="6060344646"/>
    <nd ref="6027510606"/>
    <nd ref="6027511032"/>
    <tag k="addr:city" v="St Neots"/>
    <tag k="addr:housenumber" v="2"/>
    <tag k="addr:postcode" v="PE19 6UY"/>
    <tag k="addr:street" v="Cannons"/>
    <tag k="building" v="yes"/>
  </way>
  <way id="644356821" version="3" timestamp="2022-07-16T16:09:30Z" changeset="123694679" uid="242345" user="confusedbuffalo">
    <nd ref="6027510839"/>
    <nd ref="6060378679"/>
    <nd ref="6060378587"/>
    <nd ref="6027510873"/>
    <nd ref="6027510839"/>
    <tag k="addr:city" v="St Neots"/>
    <tag k="addr:housenumber" v="100"/>
    <tag k="addr:postcode" v="PE19 6UE"/>
    <tag k="addr:street" v="High Street"/>
    <tag k="building" v="yes"/>
  </way>
  <way id="644356861" version="3" timestamp="2022-07-16T16:09:30Z" changeset="123694679" uid="242345" user="confusedbuffalo">
    <nd ref="6060378442"/>
    <nd ref="6060378437"/>
    <nd ref="6060378417"/>
    <nd ref="6060378642"/>
    <nd ref="6060378442"/>
    <tag k="addr:city" v="St Neots"/>
    <tag k="addr:housenumber" v="88"/>
    <tag k="addr:postcode" v="PE19 6UE"/>
    <tag k="addr:street" v="High Street"/>
    <tag k="building" v="yes"/>
  </way>
  <way id="678201059" version="2" timestamp="2022-07-16T16:09:30Z" changeset="123694679" uid="242345" user="confusedbuffalo">
    <nd ref="6027510840"/>
    <nd ref="6350127414"/>
    <nd ref="6350127410"/>
    <nd ref="6027511185"/>
    <nd ref="6027510840"/>
    <tag k="addr:city" v="St Neots"/>
    <tag k="addr:housenumber" v="5"/>
    <tag k="addr:postcode" v="PE19 6UJ"/>
    <tag k="addr:street" v="High Street"/>
    <tag k="building" v="yes"/>
  </way>
  <way id="678219584" version="2" timestamp="2022-07-16T16:09:30Z" changeset="123694679" uid="242345" user="confusedbuffalo">
    <nd ref="6027615696"/>
    <nd ref="6350266327"/>
    <nd ref="6350266351"/>
    <nd ref="6027615532"/>
    <nd ref="6027615696"/>
    <tag k="addr:city" v="St Neots"/>
    <tag k="addr:housenumber" v="27"/>
    <tag k="addr:postcode" v="PE19 6UU"/>
    <tag k="addr:street" v="St Neots Road"/>
    <tag k="building" v="residential"/>
  </way>
  <way id="678219586" version="3" timestamp="2022-07-16T16:09:30Z" changeset="123694679" uid="242345" user="confusedbuffalo">
    <nd ref="6350266321"/>
    <nd ref="8367724781"/>
    <nd ref="6350266320"/>
    <nd ref="6350266347"/>
    <nd ref="6350266348"/>
    <nd ref="6350266321"/>
    <tag k="addr:city" v="St Neots"/>
    <tag k="addr:housenumber" v="31"/>
    <tag k="addr:postcode" v="PE19 6UU"/>
    <tag k="addr:street" v="St Neots Road"/>
    <tag k="building" v="residential"/>
  </way>
  <way id="678219588" version="2" timestamp="2022-07-16T16:09:30Z" changeset="123694679" uid="242345" user="confusedbuffalo">
    <nd ref="6350266328"/>
    <nd ref="6350266325"/>
    <nd ref="6350266326"/>
    <nd ref="6350266350"/>
    <nd ref="6350266328"/>
    <tag k="addr:city" v="St Neots"/>
    <tag k="addr:housenumber" v="6"/>
    <tag k="addr:postcode" v="PE19 6UU"/>
    <tag k="addr:street" v="St Neots Road"/>
    <tag k="building" v="residential"/>
  </way>
  <way id="678219589" version="2" timestamp="2022-07-16T16:09:30Z" changeset="123694679" uid="242345" user="confusedbuffalo">
    <nd ref="6027615520"/>
    <nd ref="6350266346"/>
    <nd ref="6350266324"/>
    <nd ref="6027616097"/>
    <nd ref="6027615520"/>
    <tag k="addr:city" v="St Neots"/>
    <tag k="addr:housenumber" v="23"/>
    <tag k="addr:postcode" v="PE19 6UU"/>
    <tag k="addr:street" v="St Neots Road"/>
    <tag k="building" v="residential"/>
  </way>
  <way id="678219591" version="2" timestamp="2022-07-16T16:09:30Z" changeset="123694679" uid="242345" user="confusedbuffalo">
    <nd ref="6350266326"/>
    <nd ref="6350266349"/>
    <nd ref="6027510811"/>
    <nd ref="6350266339"/>
    <nd ref="6350266350"/>
    <nd ref="6350266326"/>
    <tag k="addr:city" v="St Neots"/>
    <tag k="addr:housenumber" v="4"/>
    <tag k="addr:postcode" v="PE19 6UU"/>
    <tag k="addr:street" v="St Neots Road"/>
    <tag k="building" v="residential"/>
  </way>
  <way id="678223669" version="2" timestamp="2022-07-16T16:09:30Z" changeset="123694679" uid="242345" user="confusedbuffalo">
    <nd ref="6350329837"/>
    <nd ref="6350329835"/>
    <nd ref="6350329838"/>
    <nd ref="6350329836"/>
    <nd ref="6350329837"/>
    <tag k="addr:city" v="St Neots"/>
    <tag k="addr:housenumber" v="14"/>
    <tag k="addr:postcode" v="PE19 6UF"/>
    <tag k="addr:street" v="Harbins Lane"/>
    <tag k="building" v="residential"/>
  </way>
  <way id="678223672" version="2" timestamp="2022-07-16T16:09:30Z" changeset="123694679" uid="242345" user="confusedbuffalo">
    <nd ref="6027511034"/>
    <nd ref="6350329837"/>
    <nd ref="6350329836"/>
    <nd ref="6027510810"/>
    <nd ref="6027511034"/>
    <tag k="addr:city" v="St Neots"/>
    <tag k="addr:housenumber" v="12"/>
    <tag k="addr:postcode" v="PE19 6UF"/>
    <tag k="addr:street" v="Harbins Lane"/>
    <tag k="building" v="residential"/>
  </way>
  <way id="678389491" version="2" timestamp="2022-07-16T16:09:30Z" changeset="123694679" uid="242345" user="confusedbuffalo">
    <nd ref="4083377227"/>
    <nd ref="1147619023"/>
    <nd ref="1147618922"/>
    <nd ref="1147618926"/>
    <nd ref="1147618980"/>
    <nd ref="1147618718"/>
    <nd ref="4083377263"/>
    <nd ref="4083377420"/>
    <nd ref="1147619139"/>
    <nd ref="1147618928"/>
    <nd ref="4083377227"/>
    <tag k="addr:city" v="St Neots"/>
    <tag k="addr:postcode" v="PE19 6UU"/>
    <tag k="addr:street" v="St Neots Road"/>
    <tag k="landuse" v="farmyard"/>
    <tag k="name" v="New Barn Farm"/>
  </way>
  <way id="865703845" version="6" timestamp="2024-12-29T19:31:06Z" changeset="160765333" uid="5229644" user="Nathan_A_RF">
    <nd ref="286061527"/>
    <nd ref="1952492766"/>
    <nd ref="1343825664"/>
    <nd ref="1952492792"/>
    <nd ref="621029"/>
    <tag k="foot" v="no"/>
    <tag k="highway" v="trunk"/>
    <tag k="junction" v="roundabout"/>
    <tag k="name" v="Tithe Farm Roundabout"/>
    <tag k="national_highways:area" v="8"/>
    <tag k="oneway" v="yes"/>
    <tag k="operator" v="National Highways"/>
    <tag k="operator:wikidata" v="Q5760006"/>
    <tag k="source:name" v="local knowledge"/>
  </way>
  <way id="999006120" version="2" timestamp="2024-12-29T19:31:06Z" changeset="160765333" uid="5229644" user="Nathan_A_RF">
    <nd ref="9223333205"/>
    <nd ref="9223333204"/>
    <nd ref="9223333203"/>
    <nd ref="9223333202"/>
    <nd ref="8257873988"/>
    <tag k="highway" v="residential"/>
    <tag k="oneway" v="yes"/>
  </way>
  <way id="1020007900" version="2" timestamp="2022-07-16T16:09:31Z" changeset="123694679" uid="242345" user="confusedbuffalo">
    <nd ref="9407607943"/>
    <nd ref="9407607942"/>
    <nd ref="9407607935"/>
    <nd ref="9407607941"/>
    <nd ref="9407607940"/>
    <nd ref="9407607939"/>
    <nd ref="9407607943"/>
    <tag k="addr:city" v="St Neots"/>
    <tag k="addr:housenumber" v="28"/>
    <tag k="addr:postcode" v="PE19 6UG"/>
    <tag k="addr:street" v="Blacksmiths Lane"/>
    <tag k="building" v="yes"/>
  </way>
  <way id="1097830893" version="2" timestamp="2023-08-16T12:04:41Z" changeset="139961148" uid="9357577" user="MajaMaravic">
    <nd ref="10052454891"/>
    <nd ref="10052454890"/>
    <nd ref="10052454889"/>
    <nd ref="10052454888"/>
    <nd ref="10052454887"/>
    <nd ref="10052454886"/>
    <nd ref="10052454885"/>
    <nd ref="10052454884"/>
    <nd ref="10052454883"/>
    <nd ref="10052454882"/>
    <nd ref="10052454881"/>
    <nd ref="10052454880"/>
    <nd ref="10052454879"/>
    <tag k="highway" v="residential"/>
    <tag k="name" v="The Range"/>
  </way>
  <way id="1102602309" version="4" timestamp="2024-12-29T19:31:06Z" changeset="160765333" uid="5229644" user="Nathan_A_RF">
    <nd ref="1343825638"/>
    <nd ref="473795836"/>
    <tag k="fut_ref" v="A1428"/>
    <tag k="highway" v="trunk"/>
    <tag k="lanes" v="2"/>
    <tag k="maxspeed" v="60 mph"/>
    <tag k="maxspeed:type" v="GB:nsl_single"/>
    <tag k="national_highways:area" v="8"/>
    <tag k="note" v="To be reclassified as A1428 in 2027 once the A421 dualling scheme is complete"/>
    <tag k="operator" v="National Highways"/>
    <tag k="operator:wikidata" v="Q5760006"/>
    <tag k="ref" v="A428"/>
    <tag k="source:ref" v="survey"/>
  </way>
  <way id="1102602310" version="4" timestamp="2024-12-29T19:31:06Z" changeset="160765333" uid="5229644" user="Nathan_A_RF">
    <nd ref="499465057"/>
    <nd ref="346324884"/>
    <tag k="fut_ref" v="A1428"/>
    <tag k="highway" v="trunk"/>
    <tag k="lanes" v="2"/>
    <tag k="maxspeed" v="60 mph"/>
    <tag k="maxspeed:type" v="GB:nsl_single"/>
    <tag k="name" v="Cambridge Road"/>
    <tag k="national_highways:area" v="8"/>
    <tag k="note" v="To be reclassified as A1428 in 2027 once the A421 dualling scheme is complete"/>
    <tag k="operator" v="National Highways"/>
    <tag k="operator:wikidata" v="Q5760006"/>
    <tag k="ref" v="A428"/>
    <tag k="source:ref" v="survey"/>
  </way>
  <way id="1133566218" version="4" timestamp="2024-12-29T19:31:06Z" changeset="160765333" uid="5229644" user="Nathan_A_RF">
    <nd ref="10568683125"/>
    <nd ref="10581123599"/>
    <nd ref="10568683123"/>
    <nd ref="10568683128"/>
    <nd ref="10568683122"/>
    <nd ref="10568683120"/>
    <nd ref="10568683124"/>
    <nd ref="10581123598"/>
    <nd ref="10568683127"/>
    <nd ref="10568683130"/>
    <nd ref="10568683118"/>
    <nd ref="10581123597"/>
    <nd ref="10568683119"/>
    <nd ref="10568683117"/>
    <nd ref="10568683125"/>
    <tag k="highway" v="trunk"/>
    <tag k="junction" v="roundabout"/>
    <tag k="lanes" v="2"/>
    <tag k="maxspeed" v="60 mph"/>
    <tag k="maxspeed:type" v="GB:nsl_single"/>
    <tag k="national_highways:area" v="8"/>
    <tag k="oneway" v="yes"/>
    <tag k="operator" v="National Highways"/>
    <tag k="operator:wikidata" v="Q5760006"/>
  </way>
  <way id="1133566219" version="3" timestamp="2024-12-29T19:31:06Z" changeset="160765333" uid="5229644" user="Nathan_A_RF">
    <nd ref="10568683121"/>
    <nd ref="621036"/>
    <nd ref="2022007210"/>
    <nd ref="621037"/>
    <nd ref="2022007226"/>
    <nd ref="621038"/>
    <nd ref="12461475757"/>
    <nd ref="2022007235"/>
    <nd ref="621039"/>
    <nd ref="2022007254"/>
    <nd ref="301281482"/>
    <nd ref="470840419"/>
    <nd ref="473132637"/>
    <tag k="fut_ref" v="A1428"/>
    <tag k="highway" v="trunk"/>
    <tag k="lanes" v="2"/>
    <tag k="maxspeed" v="60 mph"/>
    <tag k="maxspeed:type" v="GB:nsl_single"/>
    <tag k="national_highways:area" v="8"/>
    <tag k="note" v="To be reclassified as A1428 in 2027 once the A421 dualling scheme is complete"/>
    <tag k="operator" v="National Highways"/>
    <tag k="operator:wikidata" v="Q5760006"/>
    <tag k="ref" v="A428"/>
    <tag k="source:ref" v="local knowledge"/>
  </way>
  <way id="1212919594" version="2" timestamp="2024-12-29T19:31:06Z" changeset="160765333" uid="5229644" user="Nathan_A_RF">
    <nd ref="621026"/>
    <nd ref="346324893"/>
    <nd ref="346324865"/>
    <nd ref="5435848223"/>
    <nd ref="2022007274"/>
    <nd ref="621025"/>
    <nd ref="5435836112"/>
    <nd ref="2022007256"/>
    <nd ref="621024"/>
    <nd ref="2022007250"/>
    <nd ref="4083377421"/>
    <nd ref="247825250"/>
    <nd ref="5435848224"/>
    <nd ref="621023"/>
    <nd ref="2022007244"/>
    <nd ref="2022007234"/>
    <tag k="highway" v="trunk"/>
    <tag k="lanes" v="2"/>
    <tag k="maxspeed" v="60 mph"/>
    <tag k="maxspeed:type" v="GB:nsl_single"/>
    <tag k="name" v="Cambridge Road"/>
    <tag k="national_highways:area" v="8"/>
    <tag k="operator" v="National Highways"/>
    <tag k="operator:wikidata" v="Q5760006"/>
    <tag k="ref" v="A428"/>
    <tag k="source:ref" v="survey"/>
  </way>
  <way id="1212919595" version="2" timestamp="2024-12-29T19:31:06Z" changeset="160765333" uid="5229644" user="Nathan_A_RF">
    <nd ref="346324884"/>
    <nd ref="621026"/>
    <tag k="fut_ref" v="A1428"/>
    <tag k="highway" v="trunk"/>
    <tag k="lanes" v="2"/>
    <tag k="maxspeed" v="60 mph"/>
    <tag k="maxspeed:type" v="GB:nsl_single"/>
    <tag k="name" v="Cambridge Road"/>
    <tag k="national_highways:area" v="8"/>
    <tag k="note" v="To be reclassified as A1428 in 2027 once the A421 dualling scheme is complete"/>
    <tag k="operator" v="National Highways"/>
    <tag k="operator:wikidata" v="Q5760006"/>
    <tag k="ref" v="A428"/>
    <tag k="source:ref" v="survey"/>
  </way>
  <relation id="3976904" version="2" timestamp="2021-11-01T13:45:31Z" changeset="113237468" uid="115894" user="DaveF">
    <member type="way" ref="62075573" role="outer"/>
    <member type="way" ref="138927342" role="outer"/>
    <member type="way" ref="299141655" role="outer"/>
    <tag k="addr:city" v="St Neots"/>
    <tag k="addr:postcode" v="PE19 6XN"/>
    <tag k="addr:street" v="Potton Road"/>
    <tag k="description" v="18 hole Par 73 Abbotsley Course &amp; 18 hole Par 70 Cromwell Course &amp; 9 hole Par 27 Huntingdonshire Course"/>
    <tag k="golf:course" v="45_hole"/>
    <tag k="golf:par" v="73 + 70 + 27"/>
    <tag k="leisure" v="golf_course"/>
    <tag k="name" v="Abbotsley Golf Hotel"/>
    <tag k="phone" v="+44 1480 474000"/>
    <tag k="source" v="local_knowledge;OS_StreetView;dictaphone"/>
    <tag k="type" v="multipolygon"/>
    <tag k="website" v="http://www.abbotsley.com/"/>
  </relation>

</osm>
