<?xml version="1.0" encoding="UTF-8"?>
<osm version="0.6" generator="Overpass API 0.7.62.5 1bd436f1">
<note>The data included in this document is from www.openstreetmap.org. The data is made available under ODbL.</note>
<meta osm_base="2025-03-25T16:04:30Z" areas="2025-02-06T02:17:44Z"/>

  <way id="5015781" version="10" timestamp="2023-06-23T09:27:01Z" changeset="137680224" uid="242345" user="confusedbuffalo">
    <nd ref="33408798"/>
    <nd ref="1041278532"/>
    <nd ref="33408800"/>
    <tag k="highway" v="tertiary"/>
    <tag k="lit" v="no"/>
    <tag k="maxspeed" v="60 mph"/>
    <tag k="maxspeed:type" v="GB:nsl_single"/>
    <tag k="source:lit" v="local_knowledge (2010)"/>
  </way>
  <way id="5015782" version="5" timestamp="2021-02-10T17:59:21Z" changeset="99058130" uid="281267" user="smb1001">
    <nd ref="33408809"/>
    <nd ref="33408810"/>
    <nd ref="33408827"/>
    <nd ref="1828782621"/>
    <nd ref="8412557635"/>
    <nd ref="33408811"/>
    <tag k="abutters" v="residential"/>
    <tag k="highway" v="tertiary"/>
    <tag k="maxspeed" v="30 mph"/>
    <tag k="name" v="Fowlmere Road"/>
    <tag k="source:name" v="dictaphone"/>
  </way>
  <way id="5015783" version="4" timestamp="2021-04-05T06:14:10Z" changeset="102304202" uid="10455625" user="bmmundad">
    <nd ref="33408813"/>
    <nd ref="6361479903"/>
    <nd ref="8594298117"/>
    <nd ref="33408815"/>
    <nd ref="33408814"/>
    <tag k="highway" v="residential"/>
    <tag k="maxspeed" v="30 mph"/>
    <tag k="name" v="The Green"/>
    <tag k="source:name" v="dictaphone"/>
  </way>
  <way id="5015784" version="3" timestamp="2019-03-26T00:45:50Z" changeset="68528096" uid="5926" user="c2r">
    <nd ref="33408814"/>
    <nd ref="6361479907"/>
    <nd ref="6361479902"/>
    <nd ref="33408816"/>
    <tag k="highway" v="residential"/>
    <tag k="maxspeed" v="30 mph"/>
    <tag k="name" v="The Green"/>
    <tag k="source:name" v="dictaphone"/>
  </way>
  <way id="5015785" version="4" timestamp="2025-03-22T22:53:03Z" changeset="163966714" uid="20475686" user="Dan200">
    <nd ref="33408814"/>
    <nd ref="6361479904"/>
    <nd ref="12692015949"/>
    <nd ref="33408817"/>
    <tag k="highway" v="residential"/>
    <tag k="maxspeed" v="30 mph"/>
    <tag k="name" v="Foreman's Road"/>
    <tag k="source:name" v="dictaphone"/>
  </way>
  <way id="5015787" version="3" timestamp="2010-01-29T01:36:52Z" changeset="3740442" uid="5926" user="c2r">
    <nd ref="33408817"/>
    <nd ref="33408819"/>
    <nd ref="33408820"/>
    <nd ref="33408821"/>
    <nd ref="33408822"/>
    <nd ref="622204648"/>
    <nd ref="33408823"/>
    <nd ref="33408828"/>
    <tag k="highway" v="residential"/>
    <tag k="maxspeed" v="30 mph"/>
    <tag k="name" v="Sheralds Croft Lane"/>
    <tag k="source:name" v="dictaphone"/>
  </way>
  <way id="5015791" version="2" timestamp="2009-10-31T15:57:15Z" changeset="2998633" uid="21502" user="Kevin Steinhardt">
    <nd ref="33408811"/>
    <nd ref="33408812"/>
    <tag k="highway" v="residential"/>
    <tag k="maxspeed" v="30 mph"/>
  </way>
  <way id="5015793" version="8" timestamp="2010-10-01T23:30:12Z" changeset="5932445" uid="21502" user="Kevin Steinhardt">
    <nd ref="33408829"/>
    <nd ref="622204509"/>
    <nd ref="33408842"/>
    <nd ref="622204510"/>
    <nd ref="934017505"/>
    <nd ref="33408849"/>
    <nd ref="622204511"/>
    <nd ref="33408850"/>
    <nd ref="622204512"/>
    <nd ref="527144195"/>
    <nd ref="602535158"/>
    <nd ref="602535173"/>
    <nd ref="602535172"/>
    <nd ref="602535171"/>
    <nd ref="602535170"/>
    <nd ref="602535162"/>
    <nd ref="602535168"/>
    <nd ref="33408854"/>
    <nd ref="934017497"/>
    <nd ref="934017501"/>
    <nd ref="602535163"/>
    <nd ref="33408855"/>
    <nd ref="934038027"/>
    <tag k="highway" v="unclassified"/>
    <tag k="maxspeed" v="30 mph"/>
    <tag k="name" v="Farm Lane"/>
    <tag k="source" v="OS Opendata StreetView"/>
    <tag k="source:name" v="dictaphone"/>
  </way>
  <way id="5015801" version="13" timestamp="2023-03-22T02:04:33Z" changeset="133961403" uid="18183795" user="absaurav">
    <nd ref="33408888"/>
    <nd ref="622204502"/>
    <nd ref="622204503"/>
    <nd ref="33408890"/>
    <nd ref="33408891"/>
    <nd ref="6808273019"/>
    <nd ref="33408892"/>
    <nd ref="6627753744"/>
    <nd ref="760543377"/>
    <nd ref="33408893"/>
    <nd ref="622204496"/>
    <nd ref="33409740"/>
    <nd ref="409668320"/>
    <nd ref="622204498"/>
    <nd ref="33408894"/>
    <nd ref="10752008024"/>
    <nd ref="33408895"/>
    <nd ref="10752008043"/>
    <nd ref="4087070608"/>
    <nd ref="33408896"/>
    <nd ref="7326217123"/>
    <nd ref="622204477"/>
    <nd ref="33408934"/>
    <nd ref="10752008049"/>
    <nd ref="33408897"/>
    <nd ref="7469415818"/>
    <nd ref="1828116128"/>
    <nd ref="33408899"/>
    <tag k="highway" v="residential"/>
    <tag k="maxspeed" v="30 mph"/>
    <tag k="name" v="Church Street"/>
    <tag k="source:name" v="dictaphone"/>
  </way>
  <way id="5015802" version="2" timestamp="2009-10-31T15:57:15Z" changeset="2998633" uid="21502" user="Kevin Steinhardt">
    <nd ref="33408899"/>
    <nd ref="33408898"/>
    <nd ref="33408919"/>
    <tag k="abutters" v="residential"/>
    <tag k="highway" v="tertiary"/>
    <tag k="maxspeed" v="30 mph"/>
    <tag k="name" v="Church Street"/>
    <tag k="source:name" v="dictaphone"/>
  </way>
  <way id="5015804" version="13" timestamp="2024-12-29T21:34:11Z" changeset="160768719" uid="5229644" user="Nathan_A_RF">
    <nd ref="33408925"/>
    <nd ref="622204321"/>
    <nd ref="33408959"/>
    <nd ref="622204322"/>
    <nd ref="622204323"/>
    <nd ref="622204324"/>
    <nd ref="33408986"/>
    <nd ref="622204325"/>
    <nd ref="622204327"/>
    <nd ref="622204328"/>
    <nd ref="33408958"/>
    <nd ref="622204329"/>
    <nd ref="622204330"/>
    <nd ref="33408984"/>
    <nd ref="33408985"/>
    <nd ref="33408983"/>
    <nd ref="622204331"/>
    <nd ref="622204315"/>
    <nd ref="33408957"/>
    <nd ref="622204316"/>
    <nd ref="33408956"/>
    <nd ref="622204317"/>
    <nd ref="927329118"/>
    <nd ref="33408955"/>
    <nd ref="622204318"/>
    <nd ref="622204319"/>
    <nd ref="927329111"/>
    <nd ref="622204314"/>
    <nd ref="927329163"/>
    <nd ref="927329038"/>
    <nd ref="33408944"/>
    <tag k="highway" v="tertiary"/>
    <tag k="maxspeed" v="60 mph"/>
    <tag k="maxspeed:type" v="GB:nsl_single"/>
    <tag k="name" v="Brook Road"/>
    <tag k="source:name" v="Local knowledge"/>
  </way>
  <way id="5015805" version="5" timestamp="2019-05-16T05:25:02Z" changeset="70302101" uid="8476264" user="jojoyal">
    <nd ref="33408816"/>
    <nd ref="751940761"/>
    <nd ref="33408831"/>
    <nd ref="33408917"/>
    <nd ref="33408909"/>
    <nd ref="6477098279"/>
    <nd ref="33408908"/>
    <nd ref="33408905"/>
    <nd ref="33408904"/>
    <nd ref="33408903"/>
    <nd ref="33408901"/>
    <nd ref="33408900"/>
    <nd ref="33408899"/>
    <tag k="abutters" v="residential"/>
    <tag k="highway" v="tertiary"/>
    <tag k="maxspeed" v="30 mph"/>
    <tag k="name" v="School Lane"/>
    <tag k="source:name" v="dictaphone"/>
  </way>
  <way id="5015806" version="3" timestamp="2023-03-22T02:04:33Z" changeset="133961403" uid="18183795" user="absaurav">
    <nd ref="33408905"/>
    <nd ref="33408906"/>
    <nd ref="33408907"/>
    <nd ref="10752008038"/>
    <nd ref="33408908"/>
    <tag k="access" v="private"/>
    <tag k="highway" v="residential"/>
    <tag k="name" v="Pigeons Close"/>
    <tag k="source:name" v="dictaphone"/>
  </way>
  <way id="5015808" version="2" timestamp="2009-10-31T15:57:13Z" changeset="2998633" uid="21502" user="Kevin Steinhardt">
    <nd ref="33408897"/>
    <nd ref="33408902"/>
    <nd ref="33408901"/>
    <tag k="highway" v="residential"/>
    <tag k="maxspeed" v="30 mph"/>
  </way>
  <way id="5015812" version="7" timestamp="2020-11-30T07:24:32Z" changeset="95023969" uid="7979508" user="Infidellic33">
    <nd ref="33408829"/>
    <nd ref="6361479906"/>
    <nd ref="33408839"/>
    <tag k="cycleway:both" v="no"/>
    <tag k="highway" v="tertiary"/>
    <tag k="maxspeed" v="30 mph"/>
    <tag k="name" v="Gravel Pit Hill"/>
    <tag k="source:name" v="dictaphone"/>
  </way>
  <way id="5015970" version="10" timestamp="2023-06-23T09:42:18Z" changeset="137680912" uid="242345" user="confusedbuffalo">
    <nd ref="33408800"/>
    <nd ref="552394656"/>
    <nd ref="602534887"/>
    <nd ref="33408807"/>
    <nd ref="33408808"/>
    <nd ref="33408809"/>
    <tag k="highway" v="tertiary"/>
    <tag k="maxspeed" v="60 mph"/>
    <tag k="maxspeed:type" v="GB:nsl_single"/>
  </way>
  <way id="5015971" version="6" timestamp="2019-03-26T00:45:51Z" changeset="68528096" uid="5926" user="c2r">
    <nd ref="33408829"/>
    <nd ref="6361479905"/>
    <nd ref="33408884"/>
    <nd ref="33408883"/>
    <nd ref="33408885"/>
    <nd ref="33408886"/>
    <nd ref="622204501"/>
    <nd ref="622204500"/>
    <nd ref="33408888"/>
    <tag k="highway" v="unclassified"/>
    <tag k="maxspeed" v="30 mph"/>
    <tag k="name" v="Church Street"/>
    <tag k="source:name" v="dictaphone"/>
  </way>
  <way id="5016020" version="3" timestamp="2020-11-30T07:23:39Z" changeset="95023969" uid="7979508" user="Infidellic33">
    <nd ref="33408811"/>
    <nd ref="33408813"/>
    <nd ref="33408816"/>
    <tag k="abutters" v="residential"/>
    <tag k="cycleway:both" v="no"/>
    <tag k="highway" v="tertiary"/>
    <tag k="maxspeed" v="30 mph"/>
    <tag k="name" v="The Green"/>
    <tag k="source:name" v="dictaphone"/>
  </way>
  <way id="5016024" version="8" timestamp="2023-09-11T12:57:21Z" changeset="141111889" uid="242345" user="confusedbuffalo">
    <nd ref="33409745"/>
    <nd ref="33409741"/>
    <nd ref="7469415821"/>
    <nd ref="7469415820"/>
    <nd ref="33409742"/>
    <nd ref="7469415819"/>
    <nd ref="33409743"/>
    <nd ref="33409744"/>
    <nd ref="33409745"/>
    <tag k="addr:city" v="Royston"/>
    <tag k="addr:county" v="Hertfordshire"/>
    <tag k="addr:housename" v="Thriplow Church Of England Primary School"/>
    <tag k="addr:postcode" v="SG8 7RH"/>
    <tag k="addr:street" v="School Lane"/>
    <tag k="addr:suburb" v="Thriplow"/>
    <tag k="amenity" v="school"/>
    <tag k="capacity" v="140"/>
    <tag k="denomination" v="anglican"/>
    <tag k="diocese" v="Diocese of Ely"/>
    <tag k="email" v="office@thriplow.cambs.sch.uk"/>
    <tag k="isced:level" v="1"/>
    <tag k="max_age" v="11"/>
    <tag k="min_age" v="4"/>
    <tag k="name" v="Thriplow CofE Primary School"/>
    <tag k="operator" v="Diocese of Ely Multi-Academy Trust"/>
    <tag k="phone" v="+44 1763 208 213"/>
    <tag k="ref:GB:uprn" v="100091577982"/>
    <tag k="ref:edubase" v="145246"/>
    <tag k="ref:edubase:group" v="2905"/>
    <tag k="religion" v="christian"/>
    <tag k="school:trust" v="yes"/>
    <tag k="school:trust:name" v="The Diocese of Ely Multi-Academy Trust"/>
    <tag k="school:trust:type" v="multi_academy"/>
    <tag k="school:type" v="academy"/>
    <tag k="website" v="https://www.thriplow.cambs.sch.uk"/>
    <tag k="wikidata" v="Q66232329"/>
  </way>
  <way id="5016026" version="7" timestamp="2020-09-28T11:11:42Z" changeset="91636317" uid="11736081" user="ssnjan">
    <nd ref="33408919"/>
    <nd ref="33408920"/>
    <nd ref="33408921"/>
    <nd ref="6477098282"/>
    <nd ref="33408922"/>
    <nd ref="622204332"/>
    <nd ref="33408923"/>
    <nd ref="7950853823"/>
    <nd ref="33408924"/>
    <tag k="abutters" v="residential"/>
    <tag k="highway" v="tertiary"/>
    <tag k="maxspeed" v="30 mph"/>
    <tag k="name" v="Brook Road"/>
    <tag k="source:name" v="dictaphone"/>
  </way>
  <way id="22001368" version="11" timestamp="2019-03-25T06:43:21Z" changeset="68494888" uid="9451067" user="b-jazz-bot">
    <nd ref="237042984"/>
    <nd ref="237042988"/>
    <nd ref="237042977"/>
    <nd ref="237042980"/>
    <nd ref="1407350212"/>
    <nd ref="1833676445"/>
    <nd ref="237042970"/>
    <nd ref="237042972"/>
    <nd ref="1407350203"/>
    <nd ref="237042965"/>
    <nd ref="1407350208"/>
    <nd ref="237042968"/>
    <nd ref="237043013"/>
    <nd ref="237043011"/>
    <nd ref="237043009"/>
    <nd ref="287070164"/>
    <nd ref="287070211"/>
    <nd ref="237043019"/>
    <nd ref="237043016"/>
    <nd ref="1407350205"/>
    <nd ref="1407350207"/>
    <nd ref="1407350211"/>
    <nd ref="1407350206"/>
    <nd ref="237042984"/>
    <tag k="addr:city" v="Cambridge"/>
    <tag k="addr:housename" v="IWM Duxford"/>
    <tag k="addr:postcode" v="CB22 4QR"/>
    <tag k="addr:street" v="Royston Road"/>
    <tag k="addr:village" v="Duxford"/>
    <tag k="name" v="IWM Duxford"/>
    <tag k="operator" v="Imperial War Museums"/>
    <tag k="tourism" v="museum"/>
    <tag k="website" v="https://www.iwm.org.uk/"/>
  </way>
  <way id="22001372" version="3" timestamp="2021-05-28T09:23:17Z" changeset="105478240" uid="281267" user="smb1001">
    <nd ref="236998647"/>
    <nd ref="2242635827"/>
    <nd ref="2242635828"/>
    <nd ref="236998715"/>
    <tag k="highway" v="residential"/>
    <tag k="name" v="Heathfield Way"/>
    <tag k="source:name" v="dictaphone"/>
  </way>
  <way id="22001373" version="2" timestamp="2018-10-29T20:41:21Z" changeset="63991164" uid="5173844" user="ndrw6">
    <nd ref="236998717"/>
    <nd ref="236998736"/>
    <nd ref="236998740"/>
    <nd ref="6023280456"/>
    <nd ref="236998743"/>
    <nd ref="236998747"/>
    <tag k="highway" v="residential"/>
    <tag k="name" v="Ringstone"/>
    <tag k="source:name" v="dictaphone"/>
  </way>
  <way id="22001379" version="10" timestamp="2024-12-29T23:00:11Z" changeset="160770865" uid="5229644" user="Nathan_A_RF">
    <nd ref="236998695"/>
    <nd ref="1659001555"/>
    <nd ref="2621477635"/>
    <nd ref="3591980211"/>
    <nd ref="738920444"/>
    <nd ref="2621477677"/>
    <nd ref="1297465753"/>
    <nd ref="2621477655"/>
    <nd ref="1297465746"/>
    <nd ref="3591980210"/>
    <nd ref="1297465751"/>
    <nd ref="11688077086"/>
    <nd ref="3591980209"/>
    <nd ref="3591980208"/>
    <nd ref="1297465741"/>
    <nd ref="1297465739"/>
    <nd ref="1896179717"/>
    <tag k="highway" v="tertiary"/>
    <tag k="maxspeed" v="60 mph"/>
    <tag k="maxspeed:type" v="GB:nsl_single"/>
    <tag k="name" v="Chrishall Grange Road"/>
  </way>
  <way id="22001397" version="1" timestamp="2008-01-18T11:08:55Z" changeset="658591" uid="3582" user="davidearl">
    <nd ref="236998870"/>
    <nd ref="236998884"/>
    <nd ref="236998886"/>
    <tag k="created_by" v="JOSM"/>
    <tag k="highway" v="residential"/>
    <tag k="name" v="Pepperslade"/>
    <tag k="source:name" v="dictaphone"/>
  </way>
  <way id="22001398" version="1" timestamp="2008-01-18T11:08:56Z" changeset="658591" uid="3582" user="davidearl">
    <nd ref="236998879"/>
    <nd ref="236998876"/>
    <nd ref="236998882"/>
    <tag k="created_by" v="JOSM"/>
    <tag k="highway" v="residential"/>
    <tag k="name" v="Pepperslade"/>
    <tag k="source:name" v="dictaphone"/>
  </way>
  <way id="22001399" version="1" timestamp="2008-01-18T11:08:56Z" changeset="658591" uid="3582" user="davidearl">
    <nd ref="236998866"/>
    <nd ref="236998876"/>
    <tag k="created_by" v="JOSM"/>
    <tag k="highway" v="residential"/>
    <tag k="name" v="Pepperslade"/>
    <tag k="source:name" v="dictaphone"/>
  </way>
  <way id="22001402" version="3" timestamp="2025-03-20T14:23:12Z" changeset="163865504" uid="20475686" user="Dan200">
    <nd ref="236998643"/>
    <nd ref="12684803680"/>
    <nd ref="236998841"/>
    <nd ref="236998843"/>
    <nd ref="236998847"/>
    <nd ref="1302169333"/>
    <nd ref="236998849"/>
    <nd ref="1302169106"/>
    <nd ref="236998851"/>
    <nd ref="236998853"/>
    <nd ref="1302168697"/>
    <nd ref="236998856"/>
    <nd ref="236998860"/>
    <nd ref="236998863"/>
    <nd ref="1302168502"/>
    <nd ref="236998866"/>
    <nd ref="236998868"/>
    <nd ref="236998870"/>
    <nd ref="236998873"/>
    <tag k="highway" v="residential"/>
    <tag k="name" v="Pepperslade"/>
    <tag k="source:name" v="dictaphone"/>
  </way>
  <way id="22001406" version="3" timestamp="2008-01-18T16:28:21Z" changeset="659314" uid="3582" user="davidearl">
    <nd ref="236998725"/>
    <nd ref="236998825"/>
    <tag k="created_by" v="JOSM"/>
    <tag k="highway" v="residential"/>
    <tag k="name" v="Hurdles Way"/>
    <tag k="source:name" v="dictaphone"/>
  </way>
  <way id="22001411" version="3" timestamp="2018-10-29T20:41:21Z" changeset="63991164" uid="5173844" user="ndrw6">
    <nd ref="236998756"/>
    <nd ref="236998788"/>
    <nd ref="1420808705"/>
    <nd ref="236998796"/>
    <tag k="highway" v="residential"/>
    <tag k="name" v="Kingsway"/>
    <tag k="source:name" v="dictaphone"/>
  </way>
  <way id="22001412" version="1" timestamp="2008-01-18T11:08:57Z" changeset="658591" uid="3582" user="davidearl">
    <nd ref="236998758"/>
    <nd ref="236998769"/>
    <tag k="created_by" v="JOSM"/>
    <tag k="highway" v="residential"/>
    <tag k="name" v="Woburn Place"/>
    <tag k="source:name" v="dictaphone"/>
  </way>
  <way id="22001413" version="1" timestamp="2008-01-18T11:08:57Z" changeset="658591" uid="3582" user="davidearl">
    <nd ref="236998771"/>
    <nd ref="236998769"/>
    <nd ref="236998773"/>
    <tag k="created_by" v="JOSM"/>
    <tag k="highway" v="residential"/>
    <tag k="name" v="Woburn Place"/>
    <tag k="source:name" v="dictaphone"/>
  </way>
  <way id="22001415" version="3" timestamp="2018-10-29T20:41:21Z" changeset="63991164" uid="5173844" user="ndrw6">
    <nd ref="6023280415"/>
    <nd ref="236998776"/>
    <nd ref="236998779"/>
    <nd ref="236998783"/>
    <nd ref="236998785"/>
    <nd ref="236998760"/>
    <tag k="highway" v="residential"/>
    <tag k="name" v="Whitehall Gardens"/>
    <tag k="source:name" v="dictaphone"/>
  </way>
  <way id="22001416" version="2" timestamp="2011-05-27T17:10:12Z" changeset="8264773" uid="20163" user="Anna_AG">
    <nd ref="1302168816"/>
    <nd ref="236998768"/>
    <tag k="highway" v="residential"/>
    <tag k="name" v="Woburn Place"/>
    <tag k="source:name" v="dictaphone"/>
  </way>
  <way id="22001418" version="4" timestamp="2018-10-29T20:41:21Z" changeset="63991164" uid="5173844" user="ndrw6">
    <nd ref="236998715"/>
    <nd ref="2242635818"/>
    <nd ref="1302168406"/>
    <nd ref="1302168776"/>
    <nd ref="236998754"/>
    <nd ref="236998756"/>
    <nd ref="236998758"/>
    <nd ref="6023280415"/>
    <nd ref="1302168816"/>
    <nd ref="236998760"/>
    <nd ref="236998763"/>
    <tag k="highway" v="residential"/>
    <tag k="name" v="Queen's Row"/>
    <tag k="source:name" v="dictaphone"/>
  </way>
  <way id="22001419" version="2" timestamp="2017-08-31T08:50:57Z" changeset="51605468" uid="1345551" user="MattOldred">
    <nd ref="236998747"/>
    <nd ref="5071061748"/>
    <nd ref="236998750"/>
    <nd ref="236998736"/>
    <tag k="highway" v="residential"/>
    <tag k="name" v="Ringstone"/>
    <tag k="source:name" v="dictaphone"/>
  </way>
  <way id="22001436" version="3" timestamp="2011-08-21T18:06:23Z" changeset="9087021" uid="458270" user="vtraveller">
    <nd ref="236998884"/>
    <nd ref="1407362460"/>
    <nd ref="1302168376"/>
    <nd ref="236998888"/>
    <tag k="highway" v="residential"/>
    <tag k="name" v="Pepperslade"/>
    <tag k="source:name" v="dictaphone"/>
  </way>
  <way id="22001437" version="2" timestamp="2011-05-27T17:10:17Z" changeset="8264773" uid="20163" user="Anna_AG">
    <nd ref="1302168776"/>
    <nd ref="236998895"/>
    <nd ref="236998898"/>
    <tag k="highway" v="residential"/>
    <tag k="name" v="Queen's Row"/>
    <tag k="source:name" v="dictaphone"/>
  </way>
  <way id="22001438" version="1" timestamp="2008-01-18T11:09:00Z" changeset="658591" uid="3582" user="davidearl">
    <nd ref="236998754"/>
    <nd ref="236998891"/>
    <nd ref="236998892"/>
    <tag k="created_by" v="JOSM"/>
    <tag k="highway" v="residential"/>
    <tag k="name" v="Woburn Mews"/>
    <tag k="source:name" v="dictaphone"/>
  </way>
  <way id="22001442" version="3" timestamp="2018-10-29T20:41:21Z" changeset="63991164" uid="5173844" user="ndrw6">
    <nd ref="236998717"/>
    <nd ref="236998719"/>
    <nd ref="236998722"/>
    <nd ref="236998725"/>
    <nd ref="236998728"/>
    <nd ref="236998732"/>
    <nd ref="6023280455"/>
    <nd ref="1302169077"/>
    <nd ref="236998733"/>
    <tag k="highway" v="residential"/>
    <tag k="name" v="Hurdles Way"/>
    <tag k="source:name" v="dictaphone"/>
  </way>
  <way id="22001443" version="2" timestamp="2013-04-01T16:52:15Z" changeset="15570358" uid="84263" user="Robert Whittaker">
    <nd ref="236998715"/>
    <nd ref="2242635813"/>
    <nd ref="236998838"/>
    <nd ref="236998717"/>
    <tag k="highway" v="residential"/>
    <tag k="name" v="Hurdles Way"/>
    <tag k="source:name" v="dictaphone"/>
  </way>
  <way id="22079687" version="8" timestamp="2022-10-27T19:03:50Z" changeset="128143238" uid="16517305" user="Evan_Cho">
    <nd ref="236998651"/>
    <nd ref="10387290"/>
    <tag k="highway" v="trunk"/>
    <tag k="lanes" v="2"/>
    <tag k="lit" v="no"/>
    <tag k="maxspeed" v="50 mph"/>
    <tag k="name" v="Royston Road"/>
    <tag k="ref" v="A505"/>
    <tag k="source:lit" v="2011-03-17"/>
    <tag k="source:name" v="local knowledge"/>
    <tag k="source:ref" v="local knowledge"/>
  </way>
  <way id="43481293" version="8" timestamp="2023-06-23T09:27:01Z" changeset="137680224" uid="242345" user="confusedbuffalo">
    <nd ref="33408839"/>
    <nd ref="1837651972"/>
    <nd ref="236998655"/>
    <nd ref="236998657"/>
    <nd ref="236998659"/>
    <tag k="FIXME:nsl" v="inferred single-carriageway NSL - remove this tag once verified"/>
    <tag k="highway" v="tertiary"/>
    <tag k="maxspeed" v="60 mph"/>
    <tag k="maxspeed:type" v="GB:nsl_single"/>
    <tag k="name" v="Gravel Pit Hill"/>
    <tag k="source:name" v="dictaphone"/>
  </way>
  <way id="54450160" version="12" timestamp="2023-06-23T09:27:01Z" changeset="137680224" uid="242345" user="confusedbuffalo">
    <nd ref="25709991"/>
    <nd ref="10387301"/>
    <nd ref="602534945"/>
    <nd ref="6808412016"/>
    <nd ref="25266108"/>
    <nd ref="602535107"/>
    <nd ref="10387300"/>
    <nd ref="527143921"/>
    <nd ref="602535125"/>
    <nd ref="236998670"/>
    <nd ref="236998668"/>
    <nd ref="963690805"/>
    <nd ref="10387299"/>
    <nd ref="963690806"/>
    <nd ref="938254148"/>
    <nd ref="963690807"/>
    <nd ref="10387298"/>
    <nd ref="963690808"/>
    <nd ref="938254150"/>
    <nd ref="10387297"/>
    <nd ref="1886327161"/>
    <tag k="highway" v="trunk"/>
    <tag k="lanes" v="2"/>
    <tag k="lit" v="no"/>
    <tag k="maxspeed" v="60 mph"/>
    <tag k="maxspeed:type" v="GB:nsl_single"/>
    <tag k="name" v="Royston Road"/>
    <tag k="ref" v="A505"/>
    <tag k="source" v="GPS"/>
    <tag k="source:ref" v="local knowledge"/>
  </way>
  <way id="60403441" version="11" timestamp="2021-06-04T14:12:49Z" changeset="105844293" uid="10173439" user="gilasri">
    <nd ref="934037816"/>
    <nd ref="1697799235"/>
    <nd ref="1697799236"/>
    <nd ref="8649399253"/>
    <nd ref="8649399254"/>
    <nd ref="1697799237"/>
    <nd ref="8804441725"/>
    <nd ref="4087070594"/>
    <nd ref="641306890"/>
    <nd ref="1828753382"/>
    <nd ref="622204523"/>
    <nd ref="622204522"/>
    <nd ref="33408832"/>
    <nd ref="622204521"/>
    <nd ref="622204519"/>
    <nd ref="33408830"/>
    <nd ref="751940761"/>
    <tag k="abutters" v="residential"/>
    <tag k="cycleway:both" v="no"/>
    <tag k="highway" v="tertiary"/>
    <tag k="maxspeed" v="30 mph"/>
    <tag k="name" v="Middle Street"/>
    <tag k="source:name" v="dictaphone"/>
  </way>
  <way id="72671925" version="8" timestamp="2022-10-05T18:24:15Z" changeset="127061486" uid="16517305" user="Evan_Cho">
    <nd ref="2349554767"/>
    <nd ref="2349554789"/>
    <nd ref="10387294"/>
    <nd ref="2349554785"/>
    <nd ref="2349554743"/>
    <nd ref="10387293"/>
    <nd ref="3591813222"/>
    <nd ref="10387292"/>
    <nd ref="10387291"/>
    <nd ref="236998651"/>
    <tag k="highway" v="trunk"/>
    <tag k="lanes" v="2"/>
    <tag k="lit" v="no"/>
    <tag k="maxspeed" v="50 mph"/>
    <tag k="name" v="Royston Road"/>
    <tag k="ref" v="A505"/>
    <tag k="source:lit" v="2011-03-17"/>
    <tag k="source:ref" v="local knowledge"/>
  </way>
  <way id="79432937" version="10" timestamp="2024-12-29T21:34:11Z" changeset="160768719" uid="5229644" user="Nathan_A_RF">
    <nd ref="544548692"/>
    <nd ref="927329089"/>
    <nd ref="544548691"/>
    <nd ref="544548688"/>
    <nd ref="33408945"/>
    <nd ref="33408946"/>
    <nd ref="927329071"/>
    <nd ref="927329069"/>
    <nd ref="671631016"/>
    <nd ref="1193490380"/>
    <nd ref="33408947"/>
    <nd ref="927329113"/>
    <nd ref="33408948"/>
    <nd ref="531923596"/>
    <nd ref="927329035"/>
    <nd ref="927328999"/>
    <nd ref="927329029"/>
    <nd ref="927328993"/>
    <nd ref="33408949"/>
    <nd ref="527868251"/>
    <nd ref="927328975"/>
    <nd ref="33408950"/>
    <nd ref="559787156"/>
    <nd ref="927329092"/>
    <nd ref="33408951"/>
    <nd ref="927329136"/>
    <nd ref="927329150"/>
    <nd ref="33408952"/>
    <nd ref="559787172"/>
    <nd ref="790565060"/>
    <nd ref="790565066"/>
    <nd ref="790565057"/>
    <nd ref="790565061"/>
    <nd ref="559787173"/>
    <nd ref="9722350099"/>
    <nd ref="33408954"/>
    <nd ref="790565058"/>
    <nd ref="559787175"/>
    <nd ref="1041219969"/>
    <nd ref="1041219962"/>
    <nd ref="33408798"/>
    <tag k="highway" v="secondary"/>
    <tag k="lit" v="no"/>
    <tag k="maxspeed" v="60 mph"/>
    <tag k="maxspeed:type" v="GB:nsl_single"/>
    <tag k="name" v="Cambridge Road"/>
    <tag k="ref" v="B1368"/>
    <tag k="source:lit" v="local_knowledge (2010)"/>
  </way>
  <way id="80066665" version="1" timestamp="2010-10-01T23:30:09Z" changeset="5932445" uid="21502" user="Kevin Steinhardt">
    <nd ref="934038027"/>
    <nd ref="33408856"/>
    <nd ref="622204671"/>
    <nd ref="33408867"/>
    <nd ref="934038144"/>
    <nd ref="934037841"/>
    <nd ref="33408868"/>
    <nd ref="33408869"/>
    <nd ref="934037861"/>
    <nd ref="33408812"/>
    <nd ref="33408813"/>
    <tag k="highway" v="residential"/>
    <tag k="maxspeed" v="30 mph"/>
    <tag k="name" v="Lower Street"/>
    <tag k="source" v="StreetView and GPX/survey"/>
    <tag k="source:name" v="dictaphone"/>
  </way>
  <way id="80066668" version="2" timestamp="2021-03-31T06:15:25Z" changeset="102028088" uid="10252554" user="ssrijeet">
    <nd ref="33408810"/>
    <nd ref="602535193"/>
    <nd ref="934037751"/>
    <nd ref="8577825017"/>
    <nd ref="934037811"/>
    <nd ref="934037829"/>
    <nd ref="934037871"/>
    <nd ref="934037748"/>
    <nd ref="934037788"/>
    <nd ref="934037991"/>
    <nd ref="934038027"/>
    <tag k="highway" v="unclassified"/>
    <tag k="maxspeed" v="30 mph"/>
    <tag k="name" v="Lodge Road"/>
    <tag k="source" v="OS Opendata StreetView"/>
    <tag k="source:name" v="dictaphone"/>
  </way>
  <way id="104566150" version="5" timestamp="2021-10-03T21:45:34Z" changeset="112050009" uid="456597" user="4004">
    <nd ref="2307579963"/>
    <nd ref="236998649"/>
    <nd ref="6709715299"/>
    <tag k="highway" v="trunk"/>
    <tag k="lanes" v="2"/>
    <tag k="lit" v="yes"/>
    <tag k="maxspeed" v="40 mph"/>
    <tag k="name" v="Royston Road"/>
    <tag k="ref" v="A505"/>
    <tag k="smoothness" v="good"/>
    <tag k="source:lit" v="2011-03-17"/>
    <tag k="source:name" v="local knowledge"/>
    <tag k="source:ref" v="local knowledge"/>
  </way>
  <way id="104566157" version="3" timestamp="2019-08-05T13:13:59Z" changeset="73023606" uid="90142" user="andy mackey">
    <nd ref="1206464933"/>
    <nd ref="6684353125"/>
    <nd ref="1206465346"/>
    <nd ref="1206464990"/>
    <nd ref="1206465163"/>
    <nd ref="236998803"/>
    <tag k="highway" v="residential"/>
    <tag k="name" v="Kingsway"/>
    <tag k="source" v="Bing"/>
    <tag k="source:name" v="dictaphone"/>
  </way>
  <way id="104566197" version="3" timestamp="2018-10-29T20:41:21Z" changeset="63991164" uid="5173844" user="ndrw6">
    <nd ref="236998803"/>
    <nd ref="236998805"/>
    <nd ref="236998796"/>
    <nd ref="6023280428"/>
    <nd ref="236998809"/>
    <nd ref="1302168559"/>
    <nd ref="236998813"/>
    <nd ref="236998815"/>
    <tag k="highway" v="residential"/>
    <tag k="name" v="Kingsway"/>
    <tag k="source:name" v="dictaphone"/>
  </way>
  <way id="104566209" version="7" timestamp="2024-08-24T13:29:48Z" changeset="155696514" uid="21670082" user="FLURG">
    <nd ref="10387289"/>
    <nd ref="10728481797"/>
    <nd ref="236998645"/>
    <nd ref="236998643"/>
    <nd ref="963690810"/>
    <nd ref="2242635832"/>
    <tag k="highway" v="trunk"/>
    <tag k="lanes" v="2"/>
    <tag k="lit" v="yes"/>
    <tag k="maxspeed" v="40 mph"/>
    <tag k="name" v="Royston Road"/>
    <tag k="ref" v="A505"/>
    <tag k="smoothness" v="good"/>
    <tag k="source:lit" v="2011-03-17"/>
    <tag k="source:name" v="local knowledge"/>
    <tag k="source:ref" v="local knowledge"/>
    <tag k="surface" v="asphalt"/>
  </way>
  <way id="127577217" version="3" timestamp="2012-01-19T17:25:29Z" changeset="10439289" uid="458270" user="vtraveller">
    <nd ref="1411649385"/>
    <nd ref="1411649409"/>
    <nd ref="1411649411"/>
    <nd ref="1411649394"/>
    <nd ref="1411649377"/>
    <nd ref="1411649396"/>
    <nd ref="1411649438"/>
    <nd ref="1411649427"/>
    <nd ref="1411649385"/>
    <tag k="addr:housenumber" v="19"/>
    <tag k="addr:postcode" v="CB22 4XT"/>
    <tag k="addr:street" v="Pepperslade"/>
    <tag k="building" v="house"/>
  </way>
  <way id="127577218" version="3" timestamp="2012-01-19T17:25:30Z" changeset="10439289" uid="458270" user="vtraveller">
    <nd ref="1411649466"/>
    <nd ref="1411649439"/>
    <nd ref="1411649420"/>
    <nd ref="1411649398"/>
    <nd ref="1411649406"/>
    <nd ref="1411649472"/>
    <nd ref="1411649466"/>
    <tag k="addr:housenumber" v="34"/>
    <tag k="addr:postcode" v="CB22 4XT"/>
    <tag k="addr:street" v="Pepperslade"/>
    <tag k="building" v="yes"/>
  </way>
  <way id="127577220" version="3" timestamp="2012-01-19T17:25:30Z" changeset="10439289" uid="458270" user="vtraveller">
    <nd ref="1411649414"/>
    <nd ref="1411649378"/>
    <nd ref="1411649390"/>
    <nd ref="1411649418"/>
    <nd ref="1411649419"/>
    <nd ref="1411649465"/>
    <nd ref="1411649414"/>
    <tag k="addr:housenumber" v="33"/>
    <tag k="addr:postcode" v="CB22 4XT"/>
    <tag k="addr:street" v="Pepperslade"/>
    <tag k="building" v="house"/>
  </way>
  <way id="127577222" version="3" timestamp="2012-01-19T17:25:30Z" changeset="10439289" uid="458270" user="vtraveller">
    <nd ref="1411649426"/>
    <nd ref="1411649421"/>
    <nd ref="1411649470"/>
    <nd ref="1411649458"/>
    <nd ref="1411649461"/>
    <nd ref="1411649386"/>
    <nd ref="1411649426"/>
    <tag k="addr:housenumber" v="31"/>
    <tag k="addr:postcode" v="CB22 4XT"/>
    <tag k="addr:street" v="Pepperslade"/>
    <tag k="building" v="house"/>
  </way>
  <way id="127577224" version="3" timestamp="2012-01-19T17:25:31Z" changeset="10439289" uid="458270" user="vtraveller">
    <nd ref="1411649448"/>
    <nd ref="1411649423"/>
    <nd ref="1411649476"/>
    <nd ref="1411649449"/>
    <nd ref="1411649389"/>
    <nd ref="1411649442"/>
    <nd ref="1411649448"/>
    <tag k="addr:housenumber" v="32"/>
    <tag k="addr:postcode" v="CB22 4XT"/>
    <tag k="addr:street" v="Pepperslade"/>
    <tag k="building" v="house"/>
  </way>
  <way id="127577225" version="3" timestamp="2012-01-19T17:25:31Z" changeset="10439289" uid="458270" user="vtraveller">
    <nd ref="1411649444"/>
    <nd ref="1411649397"/>
    <nd ref="1411649404"/>
    <nd ref="1411649416"/>
    <nd ref="1411649444"/>
    <tag k="addr:housenumber" v="13, 14"/>
    <tag k="addr:postcode" v="CB22 4XT"/>
    <tag k="addr:street" v="Pepperslade"/>
    <tag k="building" v="terrace"/>
  </way>
  <way id="127577227" version="3" timestamp="2012-01-19T17:25:33Z" changeset="10439289" uid="458270" user="vtraveller">
    <nd ref="1411649429"/>
    <nd ref="1411649412"/>
    <nd ref="1411649388"/>
    <nd ref="1411649446"/>
    <nd ref="1419883755"/>
    <nd ref="1419883751"/>
    <nd ref="1419883757"/>
    <nd ref="1419883750"/>
    <nd ref="1419883758"/>
    <nd ref="1411649429"/>
    <tag k="addr:housenumber" v="15, 16, 17, 18"/>
    <tag k="addr:postcode" v="CB22 4XT"/>
    <tag k="addr:street" v="Pepperslade"/>
    <tag k="building" v="terrace"/>
  </way>
  <way id="127577228" version="2" timestamp="2012-01-19T17:25:31Z" changeset="10439289" uid="458270" user="vtraveller">
    <nd ref="1411649383"/>
    <nd ref="1411649410"/>
    <nd ref="1411649455"/>
    <nd ref="1411649401"/>
    <nd ref="1411649392"/>
    <nd ref="1411649430"/>
    <nd ref="1411649408"/>
    <nd ref="1411649422"/>
    <nd ref="1411649417"/>
    <nd ref="1411649434"/>
    <nd ref="1411649447"/>
    <nd ref="1411649450"/>
    <nd ref="1411649383"/>
    <tag k="addr:housenumber" v="26"/>
    <tag k="addr:postcode" v="CB22 4XT"/>
    <tag k="addr:street" v="Pepperslade"/>
    <tag k="building" v="house"/>
  </way>
  <way id="127577229" version="2" timestamp="2012-01-19T17:25:32Z" changeset="10439289" uid="458270" user="vtraveller">
    <nd ref="1411649440"/>
    <nd ref="1411649395"/>
    <nd ref="1411649445"/>
    <nd ref="1411649435"/>
    <nd ref="1411649454"/>
    <nd ref="1411649402"/>
    <nd ref="1411649440"/>
    <tag k="addr:housenumber" v="29"/>
    <tag k="addr:postcode" v="CB22 4XT"/>
    <tag k="addr:street" v="Pepperslade"/>
    <tag k="building" v="house"/>
  </way>
  <way id="127577230" version="2" timestamp="2012-01-19T17:25:32Z" changeset="10439289" uid="458270" user="vtraveller">
    <nd ref="1411649451"/>
    <nd ref="1411649453"/>
    <nd ref="1411649460"/>
    <nd ref="1411649382"/>
    <nd ref="1411649436"/>
    <nd ref="1411649441"/>
    <nd ref="1411649451"/>
    <tag k="addr:housenumber" v="27"/>
    <tag k="addr:postcode" v="CB22 4XT"/>
    <tag k="addr:street" v="Pepperslade"/>
    <tag k="building" v="house"/>
  </way>
  <way id="127577231" version="2" timestamp="2012-01-19T17:25:33Z" changeset="10439289" uid="458270" user="vtraveller">
    <nd ref="1411649407"/>
    <nd ref="1411649400"/>
    <nd ref="1411649473"/>
    <nd ref="1411649475"/>
    <nd ref="1411649474"/>
    <nd ref="1411649381"/>
    <nd ref="1411649428"/>
    <nd ref="1411649463"/>
    <nd ref="1411649407"/>
    <tag k="addr:housenumber" v="28"/>
    <tag k="addr:postcode" v="CB22 4XT"/>
    <tag k="addr:street" v="Pepperslade"/>
    <tag k="building" v="house"/>
  </way>
  <way id="127577232" version="2" timestamp="2012-01-19T17:25:33Z" changeset="10439289" uid="458270" user="vtraveller">
    <nd ref="1411649433"/>
    <nd ref="1411649459"/>
    <nd ref="1411649425"/>
    <nd ref="1411649456"/>
    <nd ref="1411649468"/>
    <nd ref="1411649431"/>
    <nd ref="1411649379"/>
    <nd ref="1411649384"/>
    <nd ref="1411649393"/>
    <nd ref="1411649399"/>
    <nd ref="1411649433"/>
    <tag k="addr:housenumber" v="30"/>
    <tag k="addr:postcode" v="CB22 4XT"/>
    <tag k="addr:street" v="Pepperslade"/>
    <tag k="building" v="house"/>
  </way>
  <way id="127579154" version="3" timestamp="2012-01-19T17:25:20Z" changeset="10439289" uid="458270" user="vtraveller">
    <nd ref="1411667703"/>
    <nd ref="1411667729"/>
    <nd ref="1411667722"/>
    <nd ref="1411667781"/>
    <nd ref="1411667658"/>
    <nd ref="1411667770"/>
    <nd ref="1411667842"/>
    <nd ref="1411667628"/>
    <nd ref="1411667761"/>
    <nd ref="1411667717"/>
    <nd ref="1411667703"/>
    <tag k="addr:housenumber" v="44"/>
    <tag k="addr:postcode" v="CB22 4XT"/>
    <tag k="addr:street" v="Pepperslade"/>
    <tag k="building" v="house"/>
  </way>
  <way id="127579155" version="3" timestamp="2012-01-19T17:25:21Z" changeset="10439289" uid="458270" user="vtraveller">
    <nd ref="1411667797"/>
    <nd ref="1411667655"/>
    <nd ref="1411667804"/>
    <nd ref="1411667642"/>
    <nd ref="1411667739"/>
    <nd ref="1411667865"/>
    <nd ref="1411667797"/>
    <tag k="addr:housenumber" v="36"/>
    <tag k="addr:postcode" v="CB22 4XT"/>
    <tag k="addr:street" v="Pepperslade"/>
    <tag k="building" v="house"/>
  </way>
  <way id="127579159" version="3" timestamp="2012-01-19T17:25:22Z" changeset="10439289" uid="458270" user="vtraveller">
    <nd ref="1411667736"/>
    <nd ref="1411667738"/>
    <nd ref="1411667754"/>
    <nd ref="1411667869"/>
    <nd ref="1411667835"/>
    <nd ref="1411667661"/>
    <nd ref="1411667736"/>
    <tag k="addr:housenumber" v="38"/>
    <tag k="addr:postcode" v="CB22 4XT"/>
    <tag k="addr:street" v="Pepperslade"/>
    <tag k="building" v="house"/>
  </way>
  <way id="127579161" version="3" timestamp="2012-01-19T17:25:21Z" changeset="10439289" uid="458270" user="vtraveller">
    <nd ref="1411667841"/>
    <nd ref="1411667787"/>
    <nd ref="1411667769"/>
    <nd ref="1411667679"/>
    <nd ref="1411667841"/>
    <tag k="addr:housenumber" v="11, 12"/>
    <tag k="addr:postcode" v="CB22 4XT"/>
    <tag k="addr:street" v="Pepperslade"/>
    <tag k="building" v="terrace"/>
  </way>
  <way id="127579162" version="3" timestamp="2012-01-19T17:25:21Z" changeset="10439289" uid="458270" user="vtraveller">
    <nd ref="1411667793"/>
    <nd ref="1411667757"/>
    <nd ref="1411667640"/>
    <nd ref="1411667625"/>
    <nd ref="1411667671"/>
    <nd ref="1411667657"/>
    <nd ref="1411667793"/>
    <tag k="addr:housenumber" v="41"/>
    <tag k="addr:postcode" v="CB22 4XT"/>
    <tag k="addr:street" v="Pepperslade"/>
    <tag k="building" v="house"/>
  </way>
  <way id="127579163" version="3" timestamp="2012-01-19T17:25:22Z" changeset="10439289" uid="458270" user="vtraveller">
    <nd ref="1411667836"/>
    <nd ref="1411667726"/>
    <nd ref="1411667681"/>
    <nd ref="1411667654"/>
    <nd ref="1411667665"/>
    <nd ref="1411667690"/>
    <nd ref="1411667836"/>
    <tag k="addr:housenumber" v="46"/>
    <tag k="addr:postcode" v="CB22 4XT"/>
    <tag k="addr:street" v="Pepperslade"/>
    <tag k="building" v="house"/>
  </way>
  <way id="127579167" version="3" timestamp="2012-01-19T17:25:29Z" changeset="10439289" uid="458270" user="vtraveller">
    <nd ref="1411667653"/>
    <nd ref="1411667771"/>
    <nd ref="1411667626"/>
    <nd ref="1411667852"/>
    <nd ref="1411667653"/>
    <tag k="addr:housenumber" v="47"/>
    <tag k="addr:postcode" v="CB22 4XT"/>
    <tag k="addr:street" v="Pepperslade"/>
    <tag k="building" v="house"/>
  </way>
  <way id="127579168" version="3" timestamp="2012-01-19T17:25:29Z" changeset="10439289" uid="458270" user="vtraveller">
    <nd ref="1411667660"/>
    <nd ref="1411667695"/>
    <nd ref="1411667831"/>
    <nd ref="1411667828"/>
    <nd ref="1411667826"/>
    <nd ref="1411667812"/>
    <nd ref="1411667851"/>
    <nd ref="1411667840"/>
    <nd ref="1411667644"/>
    <nd ref="1411667623"/>
    <nd ref="1411667637"/>
    <nd ref="1411667735"/>
    <nd ref="1411667660"/>
    <tag k="addr:housenumber" v="25"/>
    <tag k="addr:postcode" v="CB22 4XT"/>
    <tag k="addr:street" v="Pepperslade"/>
    <tag k="building" v="house"/>
  </way>
  <way id="127579169" version="3" timestamp="2012-01-19T17:25:22Z" changeset="10439289" uid="458270" user="vtraveller">
    <nd ref="1411667779"/>
    <nd ref="1411667709"/>
    <nd ref="1411667645"/>
    <nd ref="1411667796"/>
    <nd ref="1411667785"/>
    <nd ref="1411667643"/>
    <nd ref="1411667779"/>
    <tag k="addr:housenumber" v="42"/>
    <tag k="addr:postcode" v="CB22 4XT"/>
    <tag k="addr:street" v="Pepperslade"/>
    <tag k="building" v="house"/>
  </way>
  <way id="127579173" version="3" timestamp="2012-01-19T17:25:23Z" changeset="10439289" uid="458270" user="vtraveller">
    <nd ref="1411667867"/>
    <nd ref="1411667777"/>
    <nd ref="1411667758"/>
    <nd ref="1411667702"/>
    <nd ref="1411667868"/>
    <nd ref="1411667765"/>
    <nd ref="1411667867"/>
    <tag k="addr:housenumber" v="39"/>
    <tag k="addr:postcode" v="CB22 4XT"/>
    <tag k="addr:street" v="Pepperslade"/>
    <tag k="building" v="house"/>
  </way>
  <way id="127579174" version="3" timestamp="2012-01-19T17:25:23Z" changeset="10439289" uid="458270" user="vtraveller">
    <nd ref="1411667864"/>
    <nd ref="1411667759"/>
    <nd ref="1411667838"/>
    <nd ref="1411667687"/>
    <nd ref="1411667855"/>
    <nd ref="1411667839"/>
    <nd ref="1411667746"/>
    <nd ref="1411667635"/>
    <nd ref="1411667663"/>
    <nd ref="1411667794"/>
    <nd ref="1411667864"/>
    <tag k="addr:housenumber" v="48"/>
    <tag k="addr:postcode" v="CB22 4XT"/>
    <tag k="addr:street" v="Pepperslade"/>
    <tag k="building" v="house"/>
  </way>
  <way id="127579176" version="3" timestamp="2012-01-19T17:25:23Z" changeset="10439289" uid="458270" user="vtraveller">
    <nd ref="1411667691"/>
    <nd ref="1411667669"/>
    <nd ref="1411667747"/>
    <nd ref="1411667639"/>
    <nd ref="1411667691"/>
    <tag k="addr:housenumber" v="24"/>
    <tag k="addr:postcode" v="CB22 4XT"/>
    <tag k="addr:street" v="Pepperslade"/>
    <tag k="building" v="house"/>
  </way>
  <way id="127579178" version="3" timestamp="2012-01-19T17:25:24Z" changeset="10439289" uid="458270" user="vtraveller">
    <nd ref="1411667782"/>
    <nd ref="1411667673"/>
    <nd ref="1411667799"/>
    <nd ref="1411667808"/>
    <nd ref="1411667763"/>
    <nd ref="1411667775"/>
    <nd ref="1411667782"/>
    <tag k="addr:housenumber" v="21"/>
    <tag k="addr:postcode" v="CB22 4XT"/>
    <tag k="addr:street" v="Pepperslade"/>
    <tag k="building" v="house"/>
  </way>
  <way id="127579181" version="3" timestamp="2012-01-19T17:25:24Z" changeset="10439289" uid="458270" user="vtraveller">
    <nd ref="1411667641"/>
    <nd ref="1411667866"/>
    <nd ref="1411667686"/>
    <nd ref="1411667792"/>
    <nd ref="1411667621"/>
    <nd ref="1411667813"/>
    <nd ref="1411667641"/>
    <tag k="addr:housenumber" v="35"/>
    <tag k="addr:postcode" v="CB22 4XT"/>
    <tag k="addr:street" v="Pepperslade"/>
    <tag k="building" v="house"/>
  </way>
  <way id="127579182" version="3" timestamp="2012-01-19T17:25:24Z" changeset="10439289" uid="458270" user="vtraveller">
    <nd ref="1411667718"/>
    <nd ref="1411667833"/>
    <nd ref="1411667710"/>
    <nd ref="1411667811"/>
    <nd ref="1411667708"/>
    <nd ref="1411667699"/>
    <nd ref="1411667718"/>
    <tag k="addr:housenumber" v="45"/>
    <tag k="addr:postcode" v="CB22 4XT"/>
    <tag k="addr:street" v="Pepperslade"/>
    <tag k="building" v="house"/>
  </way>
  <way id="127579183" version="3" timestamp="2012-01-19T17:25:27Z" changeset="10439289" uid="458270" user="vtraveller">
    <nd ref="1411667821"/>
    <nd ref="1411667719"/>
    <nd ref="1411667766"/>
    <nd ref="1411667733"/>
    <nd ref="1411667633"/>
    <nd ref="1411667696"/>
    <nd ref="1411667827"/>
    <nd ref="1411667740"/>
    <nd ref="1411667683"/>
    <nd ref="1411667677"/>
    <nd ref="1411667821"/>
    <tag k="addr:housenumber" v="43"/>
    <tag k="addr:postcode" v="CB22 4XT"/>
    <tag k="addr:street" v="Pepperslade"/>
    <tag k="building" v="house"/>
  </way>
  <way id="127579184" version="3" timestamp="2012-01-19T17:25:25Z" changeset="10439289" uid="458270" user="vtraveller">
    <nd ref="1411667664"/>
    <nd ref="1411667786"/>
    <nd ref="1411667818"/>
    <nd ref="1411667820"/>
    <nd ref="1411667632"/>
    <nd ref="1411667803"/>
    <nd ref="1411667672"/>
    <nd ref="1411667829"/>
    <nd ref="1411667664"/>
    <tag k="addr:housenumber" v="3"/>
    <tag k="addr:postcode" v="CB22 4XT"/>
    <tag k="addr:street" v="Pepperslade"/>
    <tag k="building" v="house"/>
  </way>
  <way id="127579185" version="3" timestamp="2012-01-19T17:25:25Z" changeset="10439289" uid="458270" user="vtraveller">
    <nd ref="1411667824"/>
    <nd ref="1411667830"/>
    <nd ref="1411667816"/>
    <nd ref="1411667795"/>
    <nd ref="1411667824"/>
    <tag k="addr:housenumber" v="1, 2"/>
    <tag k="addr:postcode" v="CB22 4XT"/>
    <tag k="addr:street" v="Pepperslade"/>
    <tag k="building" v="terrace"/>
  </way>
  <way id="127579186" version="3" timestamp="2012-01-19T17:25:25Z" changeset="10439289" uid="458270" user="vtraveller">
    <nd ref="1411667858"/>
    <nd ref="1411667652"/>
    <nd ref="1411667756"/>
    <nd ref="1411667846"/>
    <nd ref="1411667651"/>
    <nd ref="1411667809"/>
    <nd ref="1411667858"/>
    <tag k="addr:housenumber" v="22"/>
    <tag k="addr:postcode" v="CB22 4XT"/>
    <tag k="addr:street" v="Pepperslade"/>
    <tag k="building" v="house"/>
  </way>
  <way id="127579187" version="3" timestamp="2012-01-19T17:25:26Z" changeset="10439289" uid="458270" user="vtraveller">
    <nd ref="1411667627"/>
    <nd ref="1411667720"/>
    <nd ref="1411667638"/>
    <nd ref="1411667845"/>
    <nd ref="1411667832"/>
    <nd ref="1411667715"/>
    <nd ref="1411667741"/>
    <nd ref="1411667636"/>
    <nd ref="1411667847"/>
    <nd ref="1411667743"/>
    <nd ref="1411667790"/>
    <nd ref="1411667694"/>
    <nd ref="1411667627"/>
    <tag k="addr:housenumber" v="37"/>
    <tag k="addr:postcode" v="CB22 4XT"/>
    <tag k="addr:street" v="Pepperslade"/>
    <tag k="building" v="house"/>
  </way>
  <way id="127579188" version="3" timestamp="2012-01-19T17:25:26Z" changeset="10439289" uid="458270" user="vtraveller">
    <nd ref="1411667850"/>
    <nd ref="1411667854"/>
    <nd ref="1411667843"/>
    <nd ref="1411667853"/>
    <nd ref="1411667850"/>
    <tag k="addr:housenumber" v="7, 8, 9, 10"/>
    <tag k="addr:postcode" v="CB22 4XT"/>
    <tag k="addr:street" v="Pepperslade"/>
    <tag k="building" v="terrace"/>
  </way>
  <way id="127579189" version="3" timestamp="2012-01-19T17:25:27Z" changeset="10439289" uid="458270" user="vtraveller">
    <nd ref="1411667704"/>
    <nd ref="1411667659"/>
    <nd ref="1411667692"/>
    <nd ref="1411667670"/>
    <nd ref="1411667807"/>
    <nd ref="1411667712"/>
    <nd ref="1411667837"/>
    <nd ref="1411667862"/>
    <nd ref="1411667704"/>
    <tag k="addr:housenumber" v="4"/>
    <tag k="addr:postcode" v="CB22 4XT"/>
    <tag k="addr:street" v="Pepperslade"/>
    <tag k="building" v="house"/>
  </way>
  <way id="127579192" version="3" timestamp="2012-01-19T17:25:27Z" changeset="10439289" uid="458270" user="vtraveller">
    <nd ref="1411667724"/>
    <nd ref="1411667619"/>
    <nd ref="1411667630"/>
    <nd ref="1411667857"/>
    <nd ref="1411667707"/>
    <nd ref="1411667815"/>
    <nd ref="1411667751"/>
    <nd ref="1411667802"/>
    <nd ref="1411667724"/>
    <tag k="addr:housenumber" v="49"/>
    <tag k="addr:postcode" v="CB22 4XT"/>
    <tag k="addr:street" v="Pepperslade"/>
    <tag k="building" v="house"/>
  </way>
  <way id="127579194" version="3" timestamp="2012-01-19T17:25:28Z" changeset="10439289" uid="458270" user="vtraveller">
    <nd ref="1411667861"/>
    <nd ref="1411667622"/>
    <nd ref="1411667674"/>
    <nd ref="1411667800"/>
    <nd ref="1411667650"/>
    <nd ref="1411667634"/>
    <nd ref="1411667861"/>
    <tag k="addr:housenumber" v="20"/>
    <tag k="addr:postcode" v="CB22 4XT"/>
    <tag k="addr:street" v="Pepperslade"/>
    <tag k="building" v="house"/>
  </way>
  <way id="127579195" version="3" timestamp="2012-01-19T17:25:28Z" changeset="10439289" uid="458270" user="vtraveller">
    <nd ref="1411667734"/>
    <nd ref="1411667656"/>
    <nd ref="1411667750"/>
    <nd ref="1411667713"/>
    <nd ref="1411667716"/>
    <nd ref="1411667723"/>
    <nd ref="1411667734"/>
    <tag k="addr:housenumber" v="23"/>
    <tag k="addr:postcode" v="CB22 4XT"/>
    <tag k="addr:street" v="Pepperslade"/>
    <tag k="building" v="house"/>
  </way>
  <way id="127579196" version="3" timestamp="2012-01-19T17:25:28Z" changeset="10439289" uid="458270" user="vtraveller">
    <nd ref="1411667760"/>
    <nd ref="1411667732"/>
    <nd ref="1411667780"/>
    <nd ref="1411667817"/>
    <nd ref="1411667760"/>
    <tag k="addr:housenumber" v="5"/>
    <tag k="addr:postcode" v="CB22 4XT"/>
    <tag k="addr:street" v="Pepperslade"/>
    <tag k="building" v="house"/>
  </way>
  <way id="127579197" version="3" timestamp="2012-01-19T17:25:29Z" changeset="10439289" uid="458270" user="vtraveller">
    <nd ref="1411667764"/>
    <nd ref="1411667848"/>
    <nd ref="1411667819"/>
    <nd ref="1411667814"/>
    <nd ref="1411667825"/>
    <nd ref="1411667810"/>
    <nd ref="1411667764"/>
    <tag k="addr:housenumber" v="40"/>
    <tag k="addr:postcode" v="CB22 4XT"/>
    <tag k="addr:street" v="Pepperslade"/>
    <tag k="building" v="house"/>
  </way>
  <way id="157546289" version="1" timestamp="2012-03-30T13:42:13Z" changeset="11154269" uid="322785" user="BCNorwich">
    <nd ref="934037816"/>
    <nd ref="611109113"/>
    <nd ref="1697799234"/>
    <nd ref="1697799233"/>
    <nd ref="1697799231"/>
    <nd ref="1697799229"/>
    <nd ref="1697799225"/>
    <nd ref="33408829"/>
    <tag k="abutters" v="residential"/>
    <tag k="highway" v="tertiary"/>
    <tag k="maxspeed" v="30 mph"/>
    <tag k="name" v="Middle Street"/>
    <tag k="source" v="Bing"/>
  </way>
  <way id="165491418" version="1" timestamp="2012-05-30T09:29:39Z" changeset="11746606" uid="692151" user="Thriplow">
    <nd ref="1770308829"/>
    <nd ref="1770308825"/>
    <nd ref="1770308828"/>
    <nd ref="1770308823"/>
    <nd ref="1770308820"/>
    <nd ref="1770308827"/>
    <nd ref="1770308829"/>
    <tag k="addr:housename" v="The Smithy"/>
    <tag k="addr:postcode" v="SG8 7QY"/>
    <tag k="addr:street" v="School Lane"/>
    <tag k="building" v="yes"/>
    <tag k="name" v="The Smithy"/>
  </way>
  <way id="165491673" version="4" timestamp="2023-11-16T16:38:01Z" changeset="144103995" uid="13445" user="zorque">
    <nd ref="1770312765"/>
    <nd ref="1770312763"/>
    <nd ref="1770312760"/>
    <nd ref="1770312762"/>
    <nd ref="1770312761"/>
    <nd ref="1770312758"/>
    <nd ref="1770312756"/>
    <nd ref="1770312757"/>
    <nd ref="6361479374"/>
    <nd ref="1770312759"/>
    <nd ref="1770312764"/>
    <nd ref="1770312765"/>
    <tag k="addr:city" v="Royston"/>
    <tag k="addr:housename" v="Village Hall"/>
    <tag k="addr:postcode" v="SG8 7RD"/>
    <tag k="addr:street" v="Middle Street"/>
    <tag k="addr:suburb" v="Thriplow"/>
    <tag k="amenity" v="community_centre"/>
    <tag k="building" v="public"/>
    <tag k="community_centre" v="village_hall"/>
    <tag k="name" v="Thriplow Village Hall"/>
  </way>
  <way id="171842030" version="3" timestamp="2020-01-20T07:44:47Z" changeset="79782613" uid="322785" user="BCNorwich">
    <nd ref="1828134967"/>
    <nd ref="1828135004"/>
    <nd ref="1828135013"/>
    <nd ref="1828134962"/>
    <nd ref="1828134943"/>
    <nd ref="1828134968"/>
    <nd ref="1828134903"/>
    <nd ref="1828134964"/>
    <nd ref="1828134967"/>
    <tag k="addr:housenumber" v="19"/>
    <tag k="addr:postcode" v="SG8 7RE"/>
    <tag k="addr:street" v="Church Street"/>
    <tag k="building" v="house"/>
    <tag k="building:levels" v="2"/>
  </way>
  <way id="171920769" version="2" timestamp="2022-11-20T15:53:55Z" changeset="129161219" uid="281267" user="smb1001">
    <nd ref="1828795312"/>
    <nd ref="1828795305"/>
    <nd ref="1828795421"/>
    <nd ref="1828795623"/>
    <nd ref="1828795273"/>
    <nd ref="1828795293"/>
    <nd ref="1828795283"/>
    <nd ref="1828795543"/>
    <nd ref="1828795312"/>
    <tag k="addr:housenumber" v="2"/>
    <tag k="addr:postcode" v="SG8 7RJ"/>
    <tag k="addr:street" v="Lower Street"/>
    <tag k="amenity" v="pub"/>
    <tag k="building" v="yes"/>
    <tag k="name" v="Green Man"/>
    <tag k="source:name" v="dictaphone"/>
  </way>
  <way id="178261837" version="3" timestamp="2024-01-12T18:10:14Z" changeset="146190908" uid="242345" user="confusedbuffalo">
    <nd ref="1886327161"/>
    <nd ref="10387296"/>
    <nd ref="25723970"/>
    <tag k="highway" v="trunk"/>
    <tag k="lanes" v="2"/>
    <tag k="lit" v="no"/>
    <tag k="maxspeed" v="50 mph"/>
    <tag k="maxspeed:type" v="sign"/>
    <tag k="name" v="Royston Road"/>
    <tag k="ref" v="A505"/>
    <tag k="source" v="GPS"/>
    <tag k="source:ref" v="local knowledge"/>
  </way>
  <way id="179243197" version="2" timestamp="2024-12-29T21:34:11Z" changeset="160768719" uid="5229644" user="Nathan_A_RF">
    <nd ref="33408924"/>
    <nd ref="751940728"/>
    <nd ref="622204333"/>
    <nd ref="622204334"/>
    <nd ref="33408925"/>
    <tag k="abutters" v="residential"/>
    <tag k="highway" v="tertiary"/>
    <tag k="maxspeed" v="60 mph"/>
    <tag k="maxspeed:type" v="GB:nsl_single"/>
    <tag k="name" v="Brook Road"/>
    <tag k="source:name" v="dictaphone"/>
  </way>
  <way id="179273356" version="2" timestamp="2014-06-02T17:44:17Z" changeset="22699085" uid="5926" user="c2r">
    <nd ref="1896179717"/>
    <nd ref="25266107"/>
    <nd ref="1721951889"/>
    <nd ref="2895816077"/>
    <nd ref="25266108"/>
    <tag k="highway" v="tertiary"/>
  </way>
  <way id="221850462" version="2" timestamp="2020-11-30T07:23:46Z" changeset="95023969" uid="7979508" user="Infidellic33">
    <nd ref="33408830"/>
    <nd ref="33408831"/>
    <tag k="abutters" v="residential"/>
    <tag k="cycleway:both" v="no"/>
    <tag k="highway" v="tertiary"/>
    <tag k="maxspeed" v="30 mph"/>
    <tag k="name" v="Middle Street"/>
    <tag k="source:name" v="dictaphone"/>
  </way>
  <way id="679353856" version="2" timestamp="2020-11-30T07:24:21Z" changeset="95023969" uid="7979508" user="Infidellic33">
    <nd ref="6361479905"/>
    <nd ref="6361479908"/>
    <nd ref="6361479906"/>
    <tag k="cycleway:both" v="no"/>
    <tag k="highway" v="unclassified"/>
    <tag k="maxspeed" v="30 mph"/>
    <tag k="name" v="Church Street"/>
    <tag k="source:name" v="dictaphone"/>
  </way>
  <way id="948086469" version="1" timestamp="2021-05-28T09:23:17Z" changeset="105478240" uid="281267" user="smb1001">
    <nd ref="8775903616"/>
    <nd ref="8775903613"/>
    <nd ref="8775924818"/>
    <nd ref="8775924817"/>
    <nd ref="8775903616"/>
    <tag k="addr:housenumber" v="2"/>
    <tag k="addr:postcode" v="CB22 4AR"/>
    <tag k="addr:street" v="Heathfield Way"/>
    <tag k="building" v="residential"/>
  </way>
  <way id="989229790" version="3" timestamp="2023-03-11T22:15:48Z" changeset="133569066" uid="161619" user="FvGordon">
    <nd ref="6709715299"/>
    <nd ref="236998647"/>
    <tag k="highway" v="trunk"/>
    <tag k="lanes" v="3"/>
    <tag k="lanes:backward" v="1"/>
    <tag k="lanes:forward" v="2"/>
    <tag k="lit" v="yes"/>
    <tag k="maxspeed" v="40 mph"/>
    <tag k="name" v="Royston Road"/>
    <tag k="ref" v="A505"/>
    <tag k="smoothness" v="good"/>
    <tag k="source:lit" v="2011-03-17"/>
    <tag k="source:name" v="local knowledge"/>
    <tag k="source:ref" v="local knowledge"/>
    <tag k="surface" v="asphalt"/>
    <tag k="turn:backward" v="through"/>
    <tag k="turn:lanes:forward" v="left|through"/>
  </way>
  <way id="989229791" version="4" timestamp="2023-03-11T22:15:48Z" changeset="133569066" uid="161619" user="FvGordon">
    <nd ref="236998647"/>
    <nd ref="10387289"/>
    <tag k="highway" v="trunk"/>
    <tag k="lanes" v="3"/>
    <tag k="lanes:backward" v="2"/>
    <tag k="lanes:forward" v="1"/>
    <tag k="lit" v="yes"/>
    <tag k="maxspeed" v="40 mph"/>
    <tag k="name" v="Royston Road"/>
    <tag k="ref" v="A505"/>
    <tag k="smoothness" v="good"/>
    <tag k="source:lit" v="2011-03-17"/>
    <tag k="source:name" v="local knowledge"/>
    <tag k="source:ref" v="local knowledge"/>
    <tag k="surface" v="asphalt"/>
    <tag k="turn:lanes:backward" v="through|right"/>
  </way>
  <way id="1101300095" version="2" timestamp="2023-06-23T09:27:16Z" changeset="137680224" uid="242345" user="confusedbuffalo">
    <nd ref="236998659"/>
    <nd ref="2349554729"/>
    <nd ref="25723970"/>
    <tag k="FIXME:nsl" v="inferred single-carriageway NSL - remove this tag once verified"/>
    <tag k="highway" v="tertiary"/>
    <tag k="maxspeed" v="60 mph"/>
    <tag k="maxspeed:type" v="GB:nsl_single"/>
    <tag k="name" v="Gravel Pit Hill"/>
    <tag k="source:name" v="dictaphone"/>
  </way>
  <way id="1101300096" version="1" timestamp="2022-10-05T18:24:15Z" changeset="127061486" uid="16517305" user="Evan_Cho">
    <nd ref="25723970"/>
    <nd ref="2349554708"/>
    <nd ref="10387295"/>
    <nd ref="2349554767"/>
    <tag k="highway" v="trunk"/>
    <tag k="lanes" v="2"/>
    <tag k="lit" v="no"/>
    <tag k="maxspeed" v="50 mph"/>
    <tag k="name" v="Royston Road"/>
    <tag k="ref" v="A505"/>
    <tag k="source:lit" v="2011-03-17"/>
    <tag k="source:ref" v="local knowledge"/>
  </way>
  <way id="1107495240" version="1" timestamp="2022-10-27T19:03:50Z" changeset="128143238" uid="16517305" user="Evan_Cho">
    <nd ref="10387290"/>
    <nd ref="2307579963"/>
    <tag k="highway" v="trunk"/>
    <tag k="lanes" v="2"/>
    <tag k="lit" v="no"/>
    <tag k="maxspeed" v="50 mph"/>
    <tag k="name" v="Royston Road"/>
    <tag k="ref" v="A505"/>
    <tag k="source:lit" v="2011-03-17"/>
    <tag k="source:name" v="local knowledge"/>
    <tag k="source:ref" v="local knowledge"/>
  </way>

</osm>
