<?xml version="1.0" encoding="UTF-8"?>
<osm version="0.6" generator="Overpass API 0.7.62.5 1bd436f1">
<note>The data included in this document is from www.openstreetmap.org. The data is made available under ODbL.</note>
<meta osm_base="2025-03-25T15:35:45Z" areas="2025-02-06T02:17:44Z"/>

  <node id="271040727" lat="52.3587753" lon="0.1481326" version="6" timestamp="2025-02-23T16:10:09Z" changeset="162859113" uid="22551827" user="Swarming00">
    <tag k="addr:city" v="Haddenham"/>
    <tag k="addr:housenumber" v="20"/>
    <tag k="addr:postcode" v="CB6 2XA"/>
    <tag k="addr:street" v="High Street"/>
    <tag k="amenity" v="library"/>
    <tag k="email" v="info@haddenhamcommunitylibrary.org.uk"/>
    <tag k="internet_access" v="wlan"/>
    <tag k="name" v="Haddenham Community Library"/>
    <tag k="opening_hours" v="Tu,Th,Fr 10:00-17:00; Sa 10:00-13:00"/>
    <tag k="phone" v="+44 (0)1296 387865"/>
    <tag k="website" v="https://www.haddenhamcommunitylibrary.org.uk/"/>
    <tag k="wheelchair" v="yes"/>
  </node>
  <node id="271043857" lat="52.3566257" lon="0.1478497" version="8" timestamp="2025-02-23T16:05:51Z" changeset="162858879" uid="22551827" user="Swarming00">
    <tag k="addr:city" v="Haddenham"/>
    <tag k="addr:housenumber" v="5"/>
    <tag k="addr:postcode" v="CB6 3XA"/>
    <tag k="addr:street" v="High Street"/>
    <tag k="amenity" v="post_office"/>
    <tag k="brand" v="Post Office"/>
    <tag k="brand:wikidata" v="Q1783168"/>
    <tag k="check_date" v="2023-09-27"/>
    <tag k="name" v="Haddenham Post Office"/>
    <tag k="opening_hours" v="Mo-Su 08:00-20:00"/>
    <tag k="phone" v="+44 (0)1353 749400"/>
    <tag k="ref:pol_id" v="135923"/>
    <tag k="website" v="https://www.postoffice.co.uk/branch-finder/2801132/haddenham"/>
    <tag k="wheelchair" v="yes"/>
  </node>
  <node id="2487171751" lat="52.3628808" lon="0.0966297" version="5" timestamp="2023-10-26T21:28:35Z" changeset="143181619" uid="375427" user="zwombie">
    <tag k="addr:city" v="Haddenham"/>
    <tag k="addr:postcode" v="CB6 3PA"/>
    <tag k="addr:street" v="Hill Row Causeway"/>
    <tag k="landuse" v="farm"/>
    <tag k="name" v="Causeway Farm"/>
    <tag k="note:retag" v="CS #48756035"/>
  </node>
  <node id="2487171760" lat="52.3571842" lon="0.1478144" version="2" timestamp="2025-02-23T16:00:50Z" changeset="162858658" uid="22551827" user="Swarming00">
    <tag k="addr:city" v="Haddenham"/>
    <tag k="addr:housenumber" v="14"/>
    <tag k="addr:postcode" v="CB6 3XA"/>
    <tag k="addr:street" v="High Street"/>
    <tag k="email" v="harnwell.07@btinternet.com"/>
    <tag k="name" v="Harnwell &amp; Sons"/>
    <tag k="phone" v="+44 (0)1353 740908"/>
    <tag k="shop" v="butcher"/>
    <tag k="website" v="https://www.harnwellandson.co.uk/"/>
    <tag k="wheelchair" v="yes"/>
  </node>
  <node id="2487171765" lat="52.3575149" lon="0.1482803" version="8" timestamp="2025-02-23T15:58:24Z" changeset="162858567" uid="22551827" user="Swarming00">
    <tag k="addr:city" v="Ely"/>
    <tag k="addr:housenumber" v="3-5"/>
    <tag k="addr:postcode" v="CB6 3XA"/>
    <tag k="addr:street" v="High Street"/>
    <tag k="addr:village" v="Haddenham"/>
    <tag k="brand" v="Spar"/>
    <tag k="brand:wikidata" v="Q610492"/>
    <tag k="brand:wikipedia" v="en:Spar (retailer)"/>
    <tag k="fhrs:id" v="991041"/>
    <tag k="name" v="Spar"/>
    <tag k="opening_hours" v="Mo-Sa 06:00-22:00; Su 07:00-21:00"/>
    <tag k="phone" v="+44 (0)1353 749839"/>
    <tag k="shop" v="convenience"/>
    <tag k="source:addr" v="FHRS Open Data"/>
    <tag k="website" v="https://www.spar.co.uk/store-locator/afb20570-spar-haddenham/"/>
  </node>
  <node id="2487171767" lat="52.3628616" lon="0.1002369" version="4" timestamp="2017-05-31T13:56:55Z" changeset="49137101" uid="2773866" user="kreuzschnabel">
    <tag k="addr:city" v="Haddenham"/>
    <tag k="addr:housename" v="Tree Farm"/>
    <tag k="addr:postcode" v="CB6 3PA"/>
    <tag k="addr:street" v="Hill Row Causeway"/>
    <tag k="landuse" v="farm"/>
    <tag k="name" v="Tree Farm"/>
    <tag k="note:retag" v="CS #48756035"/>
  </node>
  <node id="2503130995" lat="52.3583061" lon="0.1484424" version="5" timestamp="2024-10-06T13:16:47Z" changeset="157539785" uid="5173844" user="ndrw6">
    <tag k="addr:city" v="Ely"/>
    <tag k="addr:housenumber" v="1"/>
    <tag k="addr:postcode" v="CB6 3XD"/>
    <tag k="addr:street" v="Station Road"/>
    <tag k="addr:village" v="Haddenham"/>
    <tag k="amenity" v="pharmacy"/>
    <tag k="dispensing" v="yes"/>
    <tag k="drive_through" v="no"/>
    <tag k="healthcare" v="pharmacy"/>
    <tag k="name" v="Haddenham Pharmacy"/>
    <tag k="opening_hours" v="Mo-Fr 09:00-18:15; Mo-Fr 13:00-14:00 off; Sa 09:00-12:00"/>
    <tag k="website" v="https://haddenhampharmacy.co.uk/"/>
  </node>
  <node id="2503131000" lat="52.3568567" lon="0.1479616" version="2" timestamp="2025-02-23T16:02:54Z" changeset="162858747" uid="22551827" user="Swarming00">
    <tag k="addr:city" v="Haddenham"/>
    <tag k="addr:housenumber" v="17"/>
    <tag k="addr:postcode" v="CB6 3XA"/>
    <tag k="addr:street" v="High Street"/>
    <tag k="email" v="sales@herewardbooks.co.uk"/>
    <tag k="name" v="Hereward Books"/>
    <tag k="phone" v="+44 (0)1353 740821"/>
    <tag k="shop" v="books"/>
    <tag k="website" v="https://www.herewardbooks.co.uk/"/>
  </node>
  <node id="4389079268" lat="52.3631753" lon="0.0894461" version="1" timestamp="2016-09-07T11:08:46Z" changeset="41976731" uid="2983218" user="LovenOutdoors">
    <tag k="addr:city" v="Haddenham"/>
    <tag k="addr:postcode" v="CB6 3PA"/>
    <tag k="addr:street" v="Hill Row Causeway"/>
    <tag k="name" v="Causeway Farm"/>
    <tag k="place" v="farm"/>
  </node>
  <node id="4408165884" lat="52.3631434" lon="0.1015667" version="1" timestamp="2016-09-19T13:45:32Z" changeset="42271006" uid="2983218" user="LovenOutdoors">
    <tag k="addr:city" v="Haddenham"/>
    <tag k="addr:housename" v="Mandalay Farm"/>
    <tag k="addr:postcode" v="CB6 3PA"/>
    <tag k="addr:street" v="Hill Row Causeway"/>
    <tag k="name" v="Mandalay Farm"/>
    <tag k="place" v="farm"/>
  </node>
  <node id="4408165898" lat="52.3629918" lon="0.0968886" version="1" timestamp="2016-09-19T13:45:32Z" changeset="42271006" uid="2983218" user="LovenOutdoors">
    <tag k="addr:city" v="Haddenham"/>
    <tag k="addr:housename" v="Causeway Farm"/>
    <tag k="addr:postcode" v="CB6 3PA"/>
    <tag k="addr:street" v="Hill Row Causeway"/>
    <tag k="name" v="Causeway Farm"/>
    <tag k="place" v="farm"/>
  </node>
  <way id="3054793" version="19" timestamp="2023-03-02T17:47:16Z" changeset="133222141" uid="10420541" user="Thingummy">
    <nd ref="5271925"/>
    <nd ref="10704930506"/>
    <nd ref="10704927104"/>
    <nd ref="10704930505"/>
    <nd ref="14544239"/>
    <nd ref="35262878"/>
    <nd ref="4352319788"/>
    <nd ref="35262887"/>
    <nd ref="6496992889"/>
    <nd ref="2102256349"/>
    <tag k="highway" v="primary"/>
    <tag k="lanes" v="2"/>
    <tag k="maxspeed" v="30 mph"/>
    <tag k="name" v="Hill Row Causeway"/>
    <tag k="ref" v="A1123"/>
  </way>
  <way id="9709385" version="10" timestamp="2019-08-17T20:18:18Z" changeset="73451019" uid="16089" user="Ben Harris">
    <nd ref="76582781"/>
    <nd ref="6719656661"/>
    <nd ref="1662184332"/>
    <tag k="abutters" v="residential"/>
    <tag k="highway" v="tertiary"/>
    <tag k="name" v="High Street"/>
  </way>
  <way id="24305589" version="8" timestamp="2022-12-09T20:37:36Z" changeset="129914239" uid="10420541" user="Thingummy">
    <nd ref="263362427"/>
    <nd ref="263362429"/>
    <nd ref="2293750976"/>
    <nd ref="2012309782"/>
    <nd ref="1368847336"/>
    <nd ref="263362430"/>
    <nd ref="2012309780"/>
    <nd ref="1368847344"/>
    <nd ref="263362431"/>
    <nd ref="2012309783"/>
    <nd ref="263362432"/>
    <nd ref="263362434"/>
    <nd ref="1368847545"/>
    <tag k="highway" v="residential"/>
    <tag k="lanes" v="1"/>
    <tag k="name" v="The Borough"/>
  </way>
  <way id="24305836" version="3" timestamp="2012-11-13T12:11:47Z" changeset="13858610" uid="90142" user="andy mackey">
    <nd ref="263365553"/>
    <nd ref="263365556"/>
    <nd ref="2012309790"/>
    <nd ref="263365560"/>
    <tag k="highway" v="residential"/>
    <tag k="name" v="Meadowbrook"/>
  </way>
  <way id="24305837" version="3" timestamp="2012-11-13T12:11:48Z" changeset="13858610" uid="90142" user="andy mackey">
    <nd ref="1368847561"/>
    <nd ref="263365563"/>
    <nd ref="2012309784"/>
    <nd ref="263365560"/>
    <nd ref="263365567"/>
    <nd ref="1368847512"/>
    <nd ref="2012309785"/>
    <nd ref="1368847644"/>
    <nd ref="1368847246"/>
    <nd ref="2012309787"/>
    <tag k="highway" v="residential"/>
  </way>
  <way id="24575020" version="12" timestamp="2012-01-16T14:57:17Z" changeset="10408854" uid="3582" user="davidearl">
    <nd ref="1593003669"/>
    <nd ref="267181163"/>
    <nd ref="267181164"/>
    <nd ref="267181243"/>
    <nd ref="267181165"/>
    <nd ref="267181198"/>
    <nd ref="1592869972"/>
    <nd ref="267181614"/>
    <nd ref="267181166"/>
    <nd ref="267181244"/>
    <nd ref="1592869980"/>
    <nd ref="267181615"/>
    <nd ref="1592869968"/>
    <nd ref="1592869957"/>
    <nd ref="267181167"/>
    <nd ref="1592869954"/>
    <nd ref="267181283"/>
    <nd ref="267181311"/>
    <nd ref="1419655935"/>
    <nd ref="267181284"/>
    <nd ref="267181169"/>
    <nd ref="267181170"/>
    <nd ref="267181285"/>
    <nd ref="1592869951"/>
    <tag k="highway" v="unclassified"/>
  </way>
  <way id="24575239" version="12" timestamp="2023-03-02T17:47:16Z" changeset="133222141" uid="10420541" user="Thingummy">
    <nd ref="35262875"/>
    <nd ref="9028997570"/>
    <nd ref="10704927103"/>
    <nd ref="82772567"/>
    <tag k="highway" v="primary"/>
    <tag k="lanes" v="2"/>
    <tag k="maxspeed" v="30 mph"/>
    <tag k="ref" v="A1123"/>
  </way>
  <way id="24575240" version="12" timestamp="2022-12-11T11:44:58Z" changeset="129959516" uid="350183" user="Belseybob">
    <nd ref="35262873"/>
    <nd ref="35262875"/>
    <tag k="bridge" v="yes"/>
    <tag k="highway" v="primary"/>
    <tag k="lanes" v="2"/>
    <tag k="layer" v="1"/>
    <tag k="maxspeed" v="30 mph"/>
    <tag k="maxweight:signed" v="no"/>
    <tag k="ref" v="A1123"/>
    <tag k="surface" v="asphalt"/>
  </way>
  <way id="24580411" version="10" timestamp="2022-12-11T11:44:46Z" changeset="129959516" uid="350183" user="Belseybob">
    <nd ref="267182475"/>
    <nd ref="4136484233"/>
    <tag k="highway" v="secondary"/>
    <tag k="maxspeed" v="30 mph"/>
    <tag k="ref" v="B1050"/>
    <tag k="source:ref" v="survey"/>
    <tag k="surface" v="asphalt"/>
  </way>
  <way id="24741147" version="3" timestamp="2024-10-07T01:04:10Z" changeset="157561467" uid="5173844" user="ndrw6">
    <nd ref="268886662"/>
    <nd ref="7830307349"/>
    <nd ref="12230720024"/>
    <nd ref="268886710"/>
    <nd ref="268886711"/>
    <nd ref="7830307344"/>
    <nd ref="268886712"/>
    <nd ref="268886713"/>
    <nd ref="7830307343"/>
    <tag k="highway" v="residential"/>
    <tag k="name" v="Orchard Way"/>
  </way>
  <way id="24741149" version="1" timestamp="2008-06-07T00:11:16Z" changeset="80629" uid="15683" user="Donald Allwright">
    <nd ref="268886712"/>
    <nd ref="268886720"/>
    <tag k="created_by" v="Potlatch 0.9c"/>
    <tag k="highway" v="residential"/>
    <tag k="name" v="Orchard Way"/>
  </way>
  <way id="24741151" version="2" timestamp="2020-08-20T18:09:33Z" changeset="89706340" uid="5173844" user="ndrw6">
    <nd ref="268886710"/>
    <nd ref="7830307348"/>
    <nd ref="268886745"/>
    <nd ref="7830307347"/>
    <nd ref="268886746"/>
    <tag k="highway" v="residential"/>
    <tag k="name" v="Pear Tree Close"/>
  </way>
  <way id="24741152" version="2" timestamp="2020-08-20T18:09:33Z" changeset="89706340" uid="5173844" user="ndrw6">
    <nd ref="268886745"/>
    <nd ref="7830307346"/>
    <nd ref="268886748"/>
    <tag k="highway" v="residential"/>
    <tag k="name" v="Pear Tree Close"/>
  </way>
  <way id="24741153" version="3" timestamp="2024-04-25T13:31:08Z" changeset="150497008" uid="19332" user="Colin Watson">
    <nd ref="268886750"/>
    <nd ref="268886751"/>
    <tag k="highway" v="residential"/>
    <tag k="name" v="Duck Lane"/>
    <tag k="sidewalk" v="both"/>
  </way>
  <way id="24741156" version="19" timestamp="2024-10-07T01:04:10Z" changeset="157561467" uid="5173844" user="ndrw6">
    <nd ref="24972759"/>
    <nd ref="12230708480"/>
    <nd ref="2503131096"/>
    <nd ref="2293790991"/>
    <nd ref="12230720086"/>
    <nd ref="2487171771"/>
    <nd ref="12230720091"/>
    <nd ref="271043694"/>
    <nd ref="2293791053"/>
    <nd ref="2503131033"/>
    <nd ref="7826832846"/>
    <nd ref="6904436026"/>
    <nd ref="2293791048"/>
    <nd ref="263362414"/>
    <tag k="abutters" v="residential"/>
    <tag k="highway" v="tertiary"/>
    <tag k="lanes" v="2"/>
    <tag k="maxspeed" v="20 mph"/>
    <tag k="maxspeed:type" v="sign"/>
    <tag k="name" v="High Street"/>
    <tag k="sidewalk" v="both"/>
    <tag k="surface" v="asphalt"/>
  </way>
  <way id="24741160" version="9" timestamp="2024-10-07T01:04:10Z" changeset="157561467" uid="5173844" user="ndrw6">
    <nd ref="268886786"/>
    <nd ref="263362412"/>
    <nd ref="8067089560"/>
    <nd ref="268886795"/>
    <nd ref="12230719901"/>
    <nd ref="8067089559"/>
    <nd ref="263362413"/>
    <nd ref="7826832845"/>
    <nd ref="263362414"/>
    <tag k="highway" v="unclassified"/>
    <tag k="maxspeed" v="20 mph"/>
    <tag k="maxspeed:type" v="sign"/>
    <tag k="name" v="Linden End"/>
    <tag k="sidewalk" v="both"/>
  </way>
  <way id="24741163" version="1" timestamp="2008-06-07T00:12:54Z" changeset="80629" uid="15683" user="Donald Allwright">
    <nd ref="268886792"/>
    <nd ref="268886751"/>
    <nd ref="268886793"/>
    <tag k="created_by" v="Potlatch 0.9c"/>
    <tag k="highway" v="residential"/>
    <tag k="name" v="Duck Lane"/>
  </way>
  <way id="24741164" version="3" timestamp="2024-10-07T01:04:10Z" changeset="157561467" uid="5173844" user="ndrw6">
    <nd ref="268886795"/>
    <nd ref="12230720020"/>
    <nd ref="268886796"/>
    <nd ref="8057378685"/>
    <nd ref="8057378684"/>
    <tag k="highway" v="residential"/>
    <tag k="name" v="Linden End"/>
  </way>
  <way id="24741166" version="2" timestamp="2020-10-30T23:53:35Z" changeset="93314905" uid="5173844" user="ndrw6">
    <nd ref="268886799"/>
    <nd ref="8067089561"/>
    <nd ref="268886842"/>
    <nd ref="268886843"/>
    <nd ref="268886844"/>
    <tag k="highway" v="residential"/>
    <tag k="name" v="The Rickyard"/>
  </way>
  <way id="24741170" version="5" timestamp="2024-04-25T13:31:08Z" changeset="150497008" uid="19332" user="Colin Watson">
    <nd ref="263362409"/>
    <nd ref="8057379148"/>
    <nd ref="268886861"/>
    <nd ref="268886862"/>
    <nd ref="268886863"/>
    <nd ref="5268553711"/>
    <nd ref="268886864"/>
    <nd ref="268886865"/>
    <nd ref="268886866"/>
    <nd ref="268886867"/>
    <nd ref="268886868"/>
    <nd ref="268886860"/>
    <tag k="highway" v="residential"/>
    <tag k="name" v="Cherry Orchard"/>
    <tag k="sidewalk" v="both"/>
  </way>
  <way id="24741176" version="3" timestamp="2024-10-07T01:04:10Z" changeset="157561467" uid="5173844" user="ndrw6">
    <nd ref="268886924"/>
    <nd ref="12230720023"/>
    <nd ref="268886943"/>
    <nd ref="268886944"/>
    <nd ref="268886947"/>
    <nd ref="268886945"/>
    <tag k="highway" v="residential"/>
    <tag k="name" v="Mallard Rise"/>
  </way>
  <way id="24741182" version="4" timestamp="2024-10-07T01:04:10Z" changeset="157561467" uid="5173844" user="ndrw6">
    <nd ref="268886954"/>
    <nd ref="12230720320"/>
    <nd ref="268886965"/>
    <nd ref="268886966"/>
    <nd ref="11685165269"/>
    <nd ref="268886967"/>
    <tag k="highway" v="residential"/>
    <tag k="name" v="Elizabeth Way"/>
    <tag k="surface" v="asphalt"/>
  </way>
  <way id="24741185" version="5" timestamp="2024-03-02T18:00:17Z" changeset="148141202" uid="5173844" user="ndrw6">
    <nd ref="268886968"/>
    <nd ref="268886985"/>
    <nd ref="268886986"/>
    <nd ref="268886987"/>
    <nd ref="268886988"/>
    <nd ref="268886989"/>
    <nd ref="11685165272"/>
    <nd ref="10744278281"/>
    <nd ref="10744278280"/>
    <nd ref="268886990"/>
    <tag k="highway" v="residential"/>
    <tag k="name" v="The Rampart"/>
    <tag k="surface" v="asphalt"/>
  </way>
  <way id="24741190" version="2" timestamp="2018-12-10T10:33:35Z" changeset="65338770" uid="281267" user="smb1001">
    <nd ref="268886987"/>
    <nd ref="6128027130"/>
    <nd ref="268887000"/>
    <tag k="highway" v="residential"/>
    <tag k="name" v="Perry Close"/>
  </way>
  <way id="24741195" version="7" timestamp="2020-10-30T23:53:35Z" changeset="93314905" uid="5173844" user="ndrw6">
    <nd ref="268886786"/>
    <nd ref="8067089562"/>
    <nd ref="268887465"/>
    <nd ref="2293790951"/>
    <nd ref="268887038"/>
    <nd ref="268887039"/>
    <nd ref="8067088718"/>
    <nd ref="268887040"/>
    <tag k="highway" v="unclassified"/>
    <tag k="maxspeed" v="30 mph"/>
    <tag k="name" v="Froize End"/>
  </way>
  <way id="24741198" version="8" timestamp="2020-08-19T18:08:34Z" changeset="89648871" uid="5173844" user="ndrw6">
    <nd ref="268887040"/>
    <nd ref="5268553712"/>
    <nd ref="268887178"/>
    <nd ref="268887057"/>
    <nd ref="268887215"/>
    <nd ref="268887058"/>
    <nd ref="7826829260"/>
    <nd ref="7826829263"/>
    <nd ref="268887059"/>
    <tag k="highway" v="unclassified"/>
    <tag k="maxspeed" v="30 mph"/>
    <tag k="name" v="Lode Way"/>
  </way>
  <way id="24741201" version="7" timestamp="2024-10-24T10:39:00Z" changeset="158290440" uid="10420541" user="Thingummy">
    <nd ref="268887059"/>
    <nd ref="2884232962"/>
    <nd ref="7962543644"/>
    <nd ref="6564286779"/>
    <nd ref="268887103"/>
    <nd ref="12285076128"/>
    <tag k="highway" v="unclassified"/>
  </way>
  <way id="24741214" version="2" timestamp="2020-08-19T18:08:34Z" changeset="89648871" uid="5173844" user="ndrw6">
    <nd ref="268887058"/>
    <nd ref="7826829262"/>
    <nd ref="7826829261"/>
    <nd ref="268887163"/>
    <tag k="highway" v="unclassified"/>
    <tag k="name" v="Hod Hall Lane"/>
  </way>
  <way id="24741218" version="3" timestamp="2023-12-31T11:10:52Z" changeset="145727978" uid="242345" user="confusedbuffalo">
    <nd ref="268887178"/>
    <nd ref="7826829265"/>
    <nd ref="268887202"/>
    <nd ref="268887203"/>
    <nd ref="268887204"/>
    <nd ref="268887205"/>
    <nd ref="268887206"/>
    <nd ref="268887207"/>
    <nd ref="268887208"/>
    <nd ref="268887209"/>
    <nd ref="268887210"/>
    <nd ref="268887211"/>
    <tag k="highway" v="residential"/>
    <tag k="name" v="Metcalfe Way"/>
    <tag k="postal_code" v="CB6 3UP"/>
  </way>
  <way id="24741220" version="2" timestamp="2023-12-31T11:10:52Z" changeset="145727978" uid="242345" user="confusedbuffalo">
    <nd ref="268887213"/>
    <nd ref="268887211"/>
    <nd ref="268887214"/>
    <tag k="highway" v="residential"/>
    <tag k="name" v="Metcalfe Way"/>
    <tag k="postal_code" v="CB6 3UP"/>
  </way>
  <way id="24741223" version="6" timestamp="2020-08-19T18:08:34Z" changeset="89648871" uid="5173844" user="ndrw6">
    <nd ref="268887215"/>
    <nd ref="268887237"/>
    <nd ref="268887238"/>
    <nd ref="268887239"/>
    <nd ref="7826829264"/>
    <nd ref="268887240"/>
    <nd ref="6012777328"/>
    <nd ref="6012777329"/>
    <nd ref="2884232970"/>
    <nd ref="268887241"/>
    <nd ref="7826829266"/>
    <nd ref="268887242"/>
    <nd ref="268887243"/>
    <nd ref="268887040"/>
    <tag k="highway" v="residential"/>
    <tag k="maxspeed" v="30 mph"/>
    <tag k="name" v="Nelson's Lane"/>
  </way>
  <way id="24741231" version="8" timestamp="2024-10-07T01:04:10Z" changeset="157561467" uid="5173844" user="ndrw6">
    <nd ref="268887252"/>
    <nd ref="8067089266"/>
    <nd ref="11408298769"/>
    <nd ref="8067089263"/>
    <nd ref="8067089265"/>
    <nd ref="268887448"/>
    <nd ref="268887449"/>
    <nd ref="268887450"/>
    <nd ref="268887451"/>
    <nd ref="268887452"/>
    <nd ref="2293790975"/>
    <nd ref="268887454"/>
    <nd ref="268887566"/>
    <nd ref="268887455"/>
    <nd ref="268887609"/>
    <nd ref="268887457"/>
    <nd ref="268887613"/>
    <nd ref="268887458"/>
    <nd ref="268887459"/>
    <nd ref="268887460"/>
    <nd ref="268887461"/>
    <nd ref="268887462"/>
    <nd ref="268887463"/>
    <nd ref="268887465"/>
    <tag k="highway" v="residential"/>
    <tag k="name" v="Linden Way"/>
  </way>
  <way id="24741232" version="2" timestamp="2024-10-07T01:04:10Z" changeset="157561467" uid="5173844" user="ndrw6">
    <nd ref="268887566"/>
    <nd ref="12230719961"/>
    <nd ref="268887602"/>
    <tag k="highway" v="residential"/>
    <tag k="name" v="Linden Way"/>
  </way>
  <way id="24741234" version="3" timestamp="2024-10-07T01:04:10Z" changeset="157561467" uid="5173844" user="ndrw6">
    <nd ref="268887609"/>
    <nd ref="12230719944"/>
    <nd ref="8067089261"/>
    <nd ref="268887612"/>
    <tag k="highway" v="residential"/>
    <tag k="name" v="Linden Way"/>
  </way>
  <way id="24741235" version="3" timestamp="2018-10-25T13:16:16Z" changeset="63867127" uid="5173844" user="ndrw6">
    <nd ref="268887613"/>
    <nd ref="2293790880"/>
    <nd ref="6012777315"/>
    <nd ref="6012777314"/>
    <nd ref="268887615"/>
    <tag k="highway" v="residential"/>
    <tag k="name" v="Linden Close"/>
  </way>
  <way id="24741236" version="2" timestamp="2020-10-30T23:53:35Z" changeset="93314905" uid="5173844" user="ndrw6">
    <nd ref="268887616"/>
    <nd ref="8067089589"/>
    <nd ref="268887615"/>
    <nd ref="268887617"/>
    <tag k="highway" v="residential"/>
    <tag k="name" v="Linden Close"/>
  </way>
  <way id="24741237" version="1" timestamp="2008-06-07T00:23:19Z" changeset="80629" uid="15683" user="Donald Allwright">
    <nd ref="268887461"/>
    <nd ref="268887645"/>
    <tag k="created_by" v="Potlatch 0.9c"/>
    <tag k="highway" v="residential"/>
    <tag k="name" v="Linden Way"/>
  </way>
  <way id="24741238" version="3" timestamp="2024-10-07T01:04:10Z" changeset="157561467" uid="5173844" user="ndrw6">
    <nd ref="268887646"/>
    <nd ref="12230720197"/>
    <nd ref="12230719923"/>
    <nd ref="268887647"/>
    <tag k="highway" v="residential"/>
    <tag k="name" v="Lester Drive"/>
  </way>
  <way id="24741239" version="1" timestamp="2008-06-07T00:23:43Z" changeset="80629" uid="15683" user="Donald Allwright">
    <nd ref="268887649"/>
    <nd ref="268887647"/>
    <nd ref="268887650"/>
    <tag k="created_by" v="Potlatch 0.9c"/>
    <tag k="highway" v="residential"/>
    <tag k="name" v="Lester Drive"/>
  </way>
  <way id="24741240" version="4" timestamp="2020-10-26T08:29:45Z" changeset="93048656" uid="5173844" user="ndrw6">
    <nd ref="268887651"/>
    <nd ref="7826832844"/>
    <nd ref="268887664"/>
    <nd ref="268887665"/>
    <nd ref="2293791077"/>
    <nd ref="8046629600"/>
    <tag k="highway" v="residential"/>
    <tag k="name" v="Bury Lane"/>
  </way>
  <way id="24741274" version="6" timestamp="2024-10-07T01:04:10Z" changeset="157561467" uid="5173844" user="ndrw6">
    <nd ref="268887773"/>
    <nd ref="12230720193"/>
    <nd ref="3411034179"/>
    <nd ref="3411034178"/>
    <nd ref="3411034177"/>
    <nd ref="3411034175"/>
    <nd ref="6996364418"/>
    <nd ref="268887786"/>
    <tag k="highway" v="residential"/>
    <tag k="name" v="Rowan Close"/>
  </way>
  <way id="24741696" version="4" timestamp="2021-01-05T06:15:55Z" changeset="96952359" uid="11734022" user="pppalepu">
    <nd ref="268890293"/>
    <nd ref="2012309779"/>
    <nd ref="8292393225"/>
    <nd ref="268890297"/>
    <nd ref="268890298"/>
    <nd ref="268890308"/>
    <nd ref="268890299"/>
    <tag k="highway" v="residential"/>
    <tag k="name" v="Hereward Close"/>
  </way>
  <way id="24741699" version="1" timestamp="2008-06-07T01:15:16Z" changeset="80629" uid="15683" user="Donald Allwright">
    <nd ref="268890307"/>
    <nd ref="268890308"/>
    <tag k="created_by" v="Potlatch 0.9c"/>
    <tag k="highway" v="residential"/>
    <tag k="name" v="Hereward Close"/>
  </way>
  <way id="24941469" version="4" timestamp="2024-10-07T01:04:10Z" changeset="157561467" uid="5173844" user="ndrw6">
    <nd ref="1592869940"/>
    <nd ref="12230720350"/>
    <nd ref="271039777"/>
    <nd ref="12140214037"/>
    <tag k="highway" v="residential"/>
  </way>
  <way id="24941470" version="3" timestamp="2024-10-07T01:04:10Z" changeset="157561467" uid="5173844" user="ndrw6">
    <nd ref="271039783"/>
    <nd ref="12230720357"/>
    <nd ref="271039793"/>
    <nd ref="271039794"/>
    <tag k="highway" v="residential"/>
    <tag k="name" v="The Pond"/>
  </way>
  <way id="24941473" version="1" timestamp="2008-06-17T23:53:39Z" changeset="204837" uid="15683" user="Donald Allwright">
    <nd ref="271039793"/>
    <nd ref="271040066"/>
    <tag k="created_by" v="Potlatch 0.9c"/>
    <tag k="highway" v="residential"/>
    <tag k="name" v="The Pond"/>
  </way>
  <way id="24941543" version="12" timestamp="2019-06-11T17:58:38Z" changeset="71152211" uid="9310280" user="rsakunth">
    <nd ref="1592869951"/>
    <nd ref="5849414299"/>
    <nd ref="6540348266"/>
    <nd ref="2503131144"/>
    <tag k="highway" v="primary"/>
    <tag k="maxspeed" v="40 mph"/>
    <tag k="name" v="Sutton Road"/>
    <tag k="ref" v="A1421"/>
  </way>
  <way id="24941553" version="3" timestamp="2024-10-07T01:04:10Z" changeset="157561467" uid="5173844" user="ndrw6">
    <nd ref="271040241"/>
    <nd ref="12230720342"/>
    <nd ref="1592869932"/>
    <nd ref="271040264"/>
    <tag k="highway" v="residential"/>
    <tag k="name" v="Northumbria Close"/>
  </way>
  <way id="24941556" version="3" timestamp="2020-08-20T12:26:28Z" changeset="89691864" uid="5173844" user="ndrw6">
    <nd ref="271040279"/>
    <nd ref="7829524793"/>
    <nd ref="7829524794"/>
    <nd ref="6012776959"/>
    <nd ref="7829524792"/>
    <nd ref="6012776962"/>
    <nd ref="6012776960"/>
    <nd ref="6012776961"/>
    <nd ref="271040264"/>
    <nd ref="271040280"/>
    <tag k="highway" v="residential"/>
    <tag k="name" v="Northumbria Close"/>
  </way>
  <way id="24941558" version="4" timestamp="2024-10-07T01:04:10Z" changeset="157561467" uid="5173844" user="ndrw6">
    <nd ref="271040283"/>
    <nd ref="12230720364"/>
    <nd ref="271040292"/>
    <nd ref="6128050990"/>
    <nd ref="271040296"/>
    <nd ref="271040293"/>
    <tag k="highway" v="residential"/>
    <tag k="name" v="Chewell's Close"/>
  </way>
  <way id="24941559" version="1" timestamp="2008-06-17T23:55:58Z" changeset="204837" uid="15683" user="Donald Allwright">
    <nd ref="271040295"/>
    <nd ref="271040296"/>
    <tag k="created_by" v="Potlatch 0.9c"/>
    <tag k="highway" v="residential"/>
    <tag k="name" v="Chewell's Close"/>
  </way>
  <way id="24941561" version="4" timestamp="2024-10-07T01:04:10Z" changeset="157561467" uid="5173844" user="ndrw6">
    <nd ref="271040308"/>
    <nd ref="12230720369"/>
    <nd ref="271040314"/>
    <tag k="highway" v="residential"/>
    <tag k="name" v="Station Road"/>
  </way>
  <way id="24941567" version="2" timestamp="2013-10-20T18:15:02Z" changeset="18456601" uid="7098" user="richardm565">
    <nd ref="271040372"/>
    <nd ref="271040314"/>
    <nd ref="271040373"/>
    <tag k="highway" v="residential"/>
    <tag k="name" v="Station Road"/>
  </way>
  <way id="24941571" version="6" timestamp="2024-10-07T01:04:10Z" changeset="157561467" uid="5173844" user="ndrw6">
    <nd ref="271040382"/>
    <nd ref="12230720372"/>
    <nd ref="271040455"/>
    <nd ref="271040456"/>
    <nd ref="271040457"/>
    <nd ref="6128050995"/>
    <nd ref="271040458"/>
    <tag k="highway" v="residential"/>
    <tag k="name" v="Lion Court"/>
    <tag k="source:name" v="survey"/>
  </way>
  <way id="24941577" version="8" timestamp="2024-10-07T01:04:10Z" changeset="157561467" uid="5173844" user="ndrw6">
    <nd ref="271040505"/>
    <nd ref="7826832843"/>
    <nd ref="8072924756"/>
    <nd ref="271040535"/>
    <nd ref="271040536"/>
    <nd ref="6012777093"/>
    <nd ref="271040543"/>
    <nd ref="271040537"/>
    <nd ref="6496983192"/>
    <nd ref="2503131118"/>
    <nd ref="271040538"/>
    <nd ref="271040539"/>
    <nd ref="12230720098"/>
    <nd ref="271040540"/>
    <tag k="highway" v="residential"/>
    <tag k="name" v="Church Lane"/>
  </way>
  <way id="24941578" version="1" timestamp="2008-06-17T23:58:29Z" changeset="204837" uid="15683" user="Donald Allwright">
    <nd ref="271040543"/>
    <nd ref="271040552"/>
    <tag k="created_by" v="Potlatch 0.9c"/>
    <tag k="highway" v="residential"/>
  </way>
  <way id="24941610" version="10" timestamp="2024-10-07T01:04:10Z" changeset="157561467" uid="5173844" user="ndrw6">
    <nd ref="271040505"/>
    <nd ref="14545826"/>
    <nd ref="35263023"/>
    <nd ref="6496983188"/>
    <nd ref="8037742220"/>
    <nd ref="271042279"/>
    <nd ref="271042098"/>
    <nd ref="12230720106"/>
    <nd ref="14544230"/>
    <tag k="abutters" v="residential"/>
    <tag k="highway" v="primary"/>
    <tag k="lanes" v="2"/>
    <tag k="maxspeed" v="30 mph"/>
    <tag k="name" v="The Green"/>
    <tag k="ref" v="A1123"/>
  </way>
  <way id="24941633" version="5" timestamp="2019-07-22T23:35:59Z" changeset="72534241" uid="90142" user="andy mackey">
    <nd ref="271042098"/>
    <nd ref="2293790859"/>
    <nd ref="2293790887"/>
    <nd ref="271042211"/>
    <nd ref="271042212"/>
    <tag k="highway" v="residential"/>
    <tag k="name" v="The Green"/>
  </way>
  <way id="24941636" version="4" timestamp="2024-10-07T01:04:10Z" changeset="157561467" uid="5173844" user="ndrw6">
    <nd ref="271042279"/>
    <nd ref="271042212"/>
    <nd ref="12230720095"/>
    <nd ref="1592869893"/>
    <nd ref="1592869890"/>
    <nd ref="12230708478"/>
    <nd ref="271042280"/>
    <tag k="highway" v="residential"/>
    <tag k="name" v="Millyard"/>
    <tag k="name:source" v="OS_Locator"/>
  </way>
  <way id="24941639" version="14" timestamp="2020-10-10T13:24:49Z" changeset="92275666" uid="10455645" user="viplavm">
    <nd ref="14545822"/>
    <nd ref="35263013"/>
    <nd ref="271042578"/>
    <nd ref="1637900467"/>
    <nd ref="7994955539"/>
    <nd ref="7994955536"/>
    <nd ref="2102252390"/>
    <tag k="abutters" v="residential"/>
    <tag k="highway" v="primary"/>
    <tag k="maxspeed" v="30 mph"/>
    <tag k="name" v="West End"/>
    <tag k="ref" v="A1123"/>
  </way>
  <way id="24941643" version="14" timestamp="2024-10-06T13:16:47Z" changeset="157539785" uid="5173844" user="ndrw6">
    <nd ref="2102256348"/>
    <nd ref="1637900632"/>
    <nd ref="6534963584"/>
    <nd ref="1637900608"/>
    <nd ref="8072923117"/>
    <nd ref="1637900582"/>
    <nd ref="2123886016"/>
    <nd ref="8212307653"/>
    <nd ref="35262990"/>
    <nd ref="76596940"/>
    <nd ref="14545814"/>
    <nd ref="2123886084"/>
    <nd ref="1637900563"/>
    <nd ref="14545815"/>
    <nd ref="1637900557"/>
    <nd ref="12229648268"/>
    <nd ref="1637900548"/>
    <nd ref="14545816"/>
    <nd ref="7842621908"/>
    <nd ref="8025797013"/>
    <nd ref="8072923603"/>
    <nd ref="8025797005"/>
    <nd ref="1637900543"/>
    <nd ref="1637900539"/>
    <nd ref="1637900533"/>
    <nd ref="1637900470"/>
    <nd ref="35263001"/>
    <nd ref="35263003"/>
    <nd ref="14545820"/>
    <nd ref="35263007"/>
    <nd ref="14545821"/>
    <nd ref="35263010"/>
    <nd ref="7994955547"/>
    <nd ref="14545822"/>
    <tag k="abutters" v="residential"/>
    <tag k="highway" v="primary"/>
    <tag k="lanes" v="2"/>
    <tag k="maxspeed" v="40 mph"/>
    <tag k="name" v="Hillrow"/>
    <tag k="ref" v="A1123"/>
  </way>
  <way id="24941654" version="4" timestamp="2020-11-01T23:16:42Z" changeset="93385090" uid="5173844" user="ndrw6">
    <nd ref="271042578"/>
    <nd ref="271042591"/>
    <nd ref="8072924181"/>
    <nd ref="271042657"/>
    <nd ref="271042592"/>
    <nd ref="6012776898"/>
    <nd ref="271042593"/>
    <tag k="highway" v="residential"/>
    <tag k="name" v="Glebe Way"/>
  </way>
  <way id="24941658" version="2" timestamp="2018-10-25T13:16:16Z" changeset="63867127" uid="5173844" user="ndrw6">
    <nd ref="271042667"/>
    <nd ref="271042593"/>
    <tag k="highway" v="residential"/>
    <tag k="name" v="Glebe Way"/>
  </way>
  <way id="24941660" version="4" timestamp="2020-11-01T23:16:42Z" changeset="93385090" uid="5173844" user="ndrw6">
    <nd ref="271042681"/>
    <nd ref="6012776889"/>
    <nd ref="271042710"/>
    <nd ref="8072922727"/>
    <nd ref="271042713"/>
    <tag k="highway" v="residential"/>
    <tag k="name" v="New Town Road"/>
  </way>
  <way id="24941662" version="3" timestamp="2020-11-01T23:16:42Z" changeset="93385090" uid="5173844" user="ndrw6">
    <nd ref="271042754"/>
    <nd ref="7826832841"/>
    <nd ref="8072924252"/>
    <nd ref="271042801"/>
    <tag k="highway" v="residential"/>
    <tag k="name" v="Meadow Lane"/>
  </way>
  <way id="24941690" version="4" timestamp="2020-11-01T23:16:42Z" changeset="93385090" uid="5173844" user="ndrw6">
    <nd ref="271042782"/>
    <nd ref="6012776928"/>
    <nd ref="6012776927"/>
    <nd ref="6012776926"/>
    <nd ref="6012776925"/>
    <tag k="highway" v="residential"/>
    <tag k="name" v="Ashleaf Close"/>
    <tag k="note" v="under development 17/06/2008."/>
  </way>
  <way id="24941693" version="7" timestamp="2024-03-02T18:00:17Z" changeset="148141202" uid="5173844" user="ndrw6">
    <nd ref="271043045"/>
    <nd ref="8072922490"/>
    <nd ref="6012776929"/>
    <nd ref="271043003"/>
    <nd ref="8072924671"/>
    <nd ref="6012776930"/>
    <nd ref="271043390"/>
    <nd ref="6012776931"/>
    <nd ref="271043691"/>
    <nd ref="8072924668"/>
    <nd ref="6012776932"/>
    <nd ref="271043633"/>
    <nd ref="8072924667"/>
    <nd ref="8072924659"/>
    <nd ref="8072924663"/>
    <nd ref="271043006"/>
    <nd ref="8072924664"/>
    <nd ref="271043007"/>
    <nd ref="8072924666"/>
    <nd ref="8072924665"/>
    <nd ref="271043008"/>
    <nd ref="11685165771"/>
    <tag k="highway" v="residential"/>
    <tag k="name" v="Hardwicke Fields"/>
  </way>
  <way id="24941695" version="3" timestamp="2024-03-02T18:00:17Z" changeset="148141202" uid="5173844" user="ndrw6">
    <nd ref="11685165767"/>
    <nd ref="271043071"/>
    <nd ref="271043007"/>
    <tag k="highway" v="residential"/>
    <tag k="name" v="Hardwicke Fields"/>
  </way>
  <way id="24941726" version="1" timestamp="2008-06-18T00:14:45Z" changeset="204837" uid="15683" user="Donald Allwright">
    <nd ref="271043390"/>
    <nd ref="271043391"/>
    <tag k="created_by" v="Potlatch 0.9c"/>
    <tag k="highway" v="residential"/>
    <tag k="name" v="Hardwicke Fields"/>
  </way>
  <way id="24941733" version="3" timestamp="2020-11-01T23:16:42Z" changeset="93385090" uid="5173844" user="ndrw6">
    <nd ref="35263019"/>
    <nd ref="271043536"/>
    <nd ref="8072922475"/>
    <nd ref="271043538"/>
    <nd ref="271043539"/>
    <nd ref="271043541"/>
    <tag k="access" v="private"/>
    <tag k="highway" v="residential"/>
    <tag k="name" v="Great Mill View"/>
  </way>
  <way id="24941750" version="9" timestamp="2024-11-14T00:33:50Z" changeset="159111729" uid="3999" user="BarryMyles">
    <nd ref="271043694"/>
    <nd ref="271043732"/>
    <nd ref="271043733"/>
    <nd ref="2503131036"/>
    <nd ref="2293791090"/>
    <nd ref="10744278283"/>
    <nd ref="271043734"/>
    <nd ref="271043735"/>
    <nd ref="8026783046"/>
    <nd ref="271043736"/>
    <nd ref="6771443577"/>
    <nd ref="271043738"/>
    <nd ref="2293791049"/>
    <nd ref="10744278285"/>
    <nd ref="10744278284"/>
    <nd ref="12230720050"/>
    <nd ref="271043739"/>
    <tag k="highway" v="residential"/>
    <tag k="name" v="Camping Close"/>
    <tag k="sidewalk" v="both"/>
  </way>
  <way id="24941761" version="4" timestamp="2024-10-07T01:04:10Z" changeset="157561467" uid="5173844" user="ndrw6">
    <nd ref="271043858"/>
    <nd ref="1592869904"/>
    <nd ref="1592869906"/>
    <nd ref="1592869907"/>
    <nd ref="12230720378"/>
    <nd ref="271043797"/>
    <tag k="highway" v="residential"/>
    <tag k="name" v="Lodge Gardens"/>
  </way>
  <way id="24941771" version="4" timestamp="2020-11-01T23:16:42Z" changeset="93385090" uid="5173844" user="ndrw6">
    <nd ref="271043954"/>
    <nd ref="8072922476"/>
    <nd ref="8072922477"/>
    <nd ref="271043536"/>
    <tag k="access" v="private"/>
    <tag k="highway" v="residential"/>
    <tag k="name" v="Great Mill View"/>
  </way>
  <way id="24941786" version="3" timestamp="2023-03-18T23:08:58Z" changeset="133841202" uid="3999" user="BarryMyles">
    <nd ref="271043738"/>
    <nd ref="2293790992"/>
    <nd ref="10744278286"/>
    <nd ref="2293790996"/>
    <nd ref="2293790876"/>
    <nd ref="2293791033"/>
    <nd ref="271044100"/>
    <tag k="highway" v="residential"/>
    <tag k="name" v="Bell Gardens"/>
  </way>
  <way id="24941790" version="9" timestamp="2024-04-25T13:31:08Z" changeset="150497008" uid="19332" user="Colin Watson">
    <nd ref="24965703"/>
    <nd ref="7830307351"/>
    <nd ref="24965705"/>
    <nd ref="24965706"/>
    <nd ref="2102252389"/>
    <tag k="cycleway:both" v="no"/>
    <tag k="highway" v="primary"/>
    <tag k="lanes" v="2"/>
    <tag k="maxspeed" v="30 mph"/>
    <tag k="name" v="Wilburton Road"/>
    <tag k="ref" v="A1123"/>
    <tag k="sidewalk" v="left"/>
    <tag k="surface" v="asphalt"/>
  </way>
  <way id="24941793" version="11" timestamp="2024-11-14T00:33:50Z" changeset="159111729" uid="3999" user="BarryMyles">
    <nd ref="24965698"/>
    <nd ref="6128010746"/>
    <nd ref="268886990"/>
    <nd ref="24965700"/>
    <nd ref="7526011084"/>
    <nd ref="268886954"/>
    <nd ref="12338136037"/>
    <nd ref="24965701"/>
    <nd ref="24965703"/>
    <tag k="abutters" v="residential"/>
    <tag k="highway" v="primary"/>
    <tag k="lanes" v="2"/>
    <tag k="maxspeed" v="30 mph"/>
    <tag k="name" v="New Road"/>
    <tag k="ref" v="A1123"/>
    <tag k="sidewalk" v="both"/>
    <tag k="surface" v="asphalt"/>
  </way>
  <way id="24941797" version="9" timestamp="2024-10-07T01:04:10Z" changeset="157561467" uid="5173844" user="ndrw6">
    <nd ref="24965684"/>
    <nd ref="12230720404"/>
    <nd ref="6012777085"/>
    <nd ref="10744278282"/>
    <nd ref="6012777086"/>
    <nd ref="271044419"/>
    <nd ref="6012776984"/>
    <nd ref="6317357738"/>
    <nd ref="2504417002"/>
    <nd ref="2504417028"/>
    <nd ref="2504417045"/>
    <nd ref="9815529266"/>
    <tag k="highway" v="residential"/>
    <tag k="name" v="Chewell's Lane"/>
    <tag k="note" v="re-survey this road"/>
  </way>
  <way id="24941799" version="4" timestamp="2022-06-13T19:46:09Z" changeset="122340891" uid="669183" user="Andy_W">
    <nd ref="271044419"/>
    <nd ref="9815529248"/>
    <nd ref="6012777087"/>
    <nd ref="271044443"/>
    <nd ref="9815529249"/>
    <nd ref="271044445"/>
    <nd ref="6012777088"/>
    <nd ref="9815529250"/>
    <nd ref="271044447"/>
    <tag k="highway" v="residential"/>
    <tag k="name" v="Paddock Way"/>
    <tag k="note" v="re-survey this road"/>
  </way>
  <way id="24941804" version="5" timestamp="2024-10-07T01:04:10Z" changeset="157561467" uid="5173844" user="ndrw6">
    <nd ref="24965692"/>
    <nd ref="12230720409"/>
    <nd ref="7830307627"/>
    <nd ref="1592869889"/>
    <nd ref="6128026912"/>
    <tag k="highway" v="residential"/>
    <tag k="name" v="Hinton View"/>
    <tag k="note" v="re-survey this road"/>
  </way>
  <way id="24941831" version="3" timestamp="2018-10-25T13:16:17Z" changeset="63867127" uid="5173844" user="ndrw6">
    <nd ref="271044798"/>
    <nd ref="6012776933"/>
    <nd ref="271043633"/>
    <tag k="highway" v="residential"/>
    <tag k="name" v="Hardwicke Fields"/>
  </way>
  <way id="24948920" version="13" timestamp="2021-03-23T16:30:42Z" changeset="101587534" uid="10455643" user="kotamadh">
    <nd ref="263362418"/>
    <nd ref="4590443382"/>
    <nd ref="263362419"/>
    <nd ref="4590443385"/>
    <nd ref="1495643124"/>
    <nd ref="263362420"/>
    <nd ref="8046629469"/>
    <nd ref="8301576473"/>
    <nd ref="263362421"/>
    <nd ref="8554471846"/>
    <nd ref="5767562912"/>
    <nd ref="7996283134"/>
    <nd ref="263362422"/>
    <nd ref="4590443401"/>
    <nd ref="2291898304"/>
    <nd ref="5767562913"/>
    <nd ref="4590429230"/>
    <nd ref="263362423"/>
    <nd ref="4590429233"/>
    <nd ref="263362424"/>
    <nd ref="4590429224"/>
    <nd ref="2012309781"/>
    <nd ref="263362425"/>
    <nd ref="2012309786"/>
    <nd ref="2012309798"/>
    <nd ref="263362426"/>
    <nd ref="2293750911"/>
    <nd ref="2012309795"/>
    <nd ref="76596845"/>
    <tag k="highway" v="tertiary"/>
    <tag k="name" v="Aldreth Road"/>
  </way>
  <way id="27825533" version="8" timestamp="2022-12-11T11:44:40Z" changeset="129959486" uid="350183" user="Belseybob">
    <nd ref="305517985"/>
    <nd ref="267182475"/>
    <tag k="bridge" v="yes"/>
    <tag k="highway" v="secondary"/>
    <tag k="layer" v="1"/>
    <tag k="maxspeed" v="30 mph"/>
    <tag k="maxweight:signed" v="no"/>
    <tag k="ref" v="B1050"/>
    <tag k="source:ref" v="survey"/>
  </way>
  <way id="27825610" version="11" timestamp="2024-10-21T18:04:18Z" changeset="158181868" uid="95856" user="john paul jones &amp; gringo">
    <nd ref="305518729"/>
    <nd ref="305518730"/>
    <nd ref="305518731"/>
    <nd ref="12273266564"/>
    <nd ref="12273266577"/>
    <nd ref="12273266567"/>
    <nd ref="12273266571"/>
    <nd ref="12273266573"/>
    <nd ref="12273266579"/>
    <nd ref="12273266581"/>
    <nd ref="12273266575"/>
    <nd ref="12273266565"/>
    <nd ref="305518732"/>
    <nd ref="305518733"/>
    <nd ref="305518735"/>
    <nd ref="12273266584"/>
    <nd ref="305518736"/>
    <nd ref="12273266566"/>
    <nd ref="12273266585"/>
    <nd ref="305518737"/>
    <nd ref="12273266563"/>
    <nd ref="12273266562"/>
    <nd ref="12273266559"/>
    <nd ref="12273266560"/>
    <nd ref="305518738"/>
    <nd ref="305518739"/>
    <nd ref="1151762051"/>
    <nd ref="1151762067"/>
    <nd ref="1151762235"/>
    <nd ref="305518729"/>
    <tag k="addr:city" v="Huntingdon"/>
    <tag k="addr:district" v="Haddingham"/>
    <tag k="addr:postcode" v="PE28 3PR"/>
    <tag k="addr:street" v="Earith Bridge"/>
    <tag k="addr:substreet" v="Hill Row Causeway"/>
    <tag k="addr:suburb" v="Earith"/>
    <tag k="leisure" v="marina"/>
    <tag k="name" v="Hermitage Marina"/>
    <tag k="natural" v="water"/>
    <tag k="operator" v="via Ely Marine Ltd"/>
    <tag k="seamark:harbour:category" v="marina"/>
    <tag k="seamark:type" v="harbour"/>
  </way>
  <way id="27825711" version="13" timestamp="2025-02-01T19:23:15Z" changeset="162023274" uid="10420541" user="Thingummy">
    <nd ref="35262948"/>
    <nd ref="4389448400"/>
    <nd ref="1602152068"/>
    <nd ref="2851759505"/>
    <nd ref="817167998"/>
    <nd ref="817147179"/>
    <nd ref="305520574"/>
    <tag k="alt_name" v="Long Drive"/>
    <tag k="highway" v="unclassified"/>
    <tag k="lanes" v="1"/>
    <tag k="name" v="Long Drove"/>
    <tag k="narrow" v="yes"/>
    <tag k="note" v="Cambridge definitive map calls it Long Drove. There may be incorrect signs and guidence says to go by local signs, so drive is included as alt name, until I can check they have gone. Aug 2021"/>
    <tag k="source" v="https://my.cambridgeshire.gov.uk/"/>
    <tag k="surface" v="asphalt"/>
  </way>
  <way id="41304272" version="4" timestamp="2021-08-16T15:01:42Z" changeset="109757066" uid="10420541" user="Thingummy">
    <nd ref="9010530119"/>
    <nd ref="505030980"/>
    <nd ref="505030978"/>
    <nd ref="2012309789"/>
    <nd ref="305526495"/>
    <tag k="highway" v="unclassified"/>
    <tag k="name" v="The Brinks"/>
  </way>
  <way id="41304274" version="2" timestamp="2010-07-12T19:59:26Z" changeset="5202276" uid="236165" user="Philip Shore">
    <nd ref="505030972"/>
    <nd ref="813935506"/>
    <tag k="highway" v="residential"/>
    <tag k="name" v="Sand Lane"/>
  </way>
  <way id="67396795" version="3" timestamp="2014-05-27T20:59:52Z" changeset="22589523" uid="5926" user="c2r">
    <nd ref="305526495"/>
    <nd ref="1662184327"/>
    <tag k="highway" v="unclassified"/>
    <tag k="name" v="The Boot"/>
  </way>
  <way id="67397794" version="6" timestamp="2021-08-16T15:01:42Z" changeset="109757066" uid="10420541" user="Thingummy">
    <nd ref="305520574"/>
    <nd ref="305520585"/>
    <nd ref="1491662137"/>
    <nd ref="3345774620"/>
    <nd ref="305526484"/>
    <nd ref="3345774619"/>
    <nd ref="305526485"/>
    <nd ref="3345774618"/>
    <nd ref="305526486"/>
    <nd ref="1502896069"/>
    <nd ref="305526487"/>
    <nd ref="3345774617"/>
    <nd ref="305526488"/>
    <nd ref="1502896067"/>
    <nd ref="305526489"/>
    <nd ref="76591770"/>
    <nd ref="813935444"/>
    <nd ref="305526490"/>
    <tag k="highway" v="unclassified"/>
    <tag k="lanes" v="1"/>
    <tag k="name" v="Dam Bank Drove"/>
    <tag k="source" v="survey;https://my.cambridgeshire.gov.uk/"/>
    <tag k="surface" v="asphalt"/>
  </way>
  <way id="67628539" version="5" timestamp="2016-09-06T09:03:00Z" changeset="41949592" uid="2983218" user="LovenOutdoors">
    <nd ref="14545788"/>
    <nd ref="817147191"/>
    <nd ref="817147150"/>
    <tag k="highway" v="unclassified"/>
    <tag k="name" v="Upper Delph Drove"/>
    <tag k="source" v="survey"/>
    <tag k="surface" v="concrete"/>
  </way>
  <way id="67628543" version="3" timestamp="2016-09-06T09:40:44Z" changeset="41950605" uid="2983218" user="LovenOutdoors">
    <nd ref="817147187"/>
    <nd ref="817147189"/>
    <nd ref="817147190"/>
    <nd ref="4386834818"/>
    <nd ref="4386876694"/>
    <nd ref="817147187"/>
    <tag k="addr:city" v="Haddenham"/>
    <tag k="addr:postcode" v="CB6 3PB"/>
    <tag k="addr:street" v="Hill Row Causeway"/>
    <tag k="landuse" v="farmyard"/>
    <tag k="name" v="The Hermitage Farm"/>
    <tag k="source" v="survey"/>
  </way>
  <way id="96765026" version="7" timestamp="2024-04-25T13:31:08Z" changeset="150497008" uid="19332" user="Colin Watson">
    <nd ref="24965710"/>
    <nd ref="24965711"/>
    <nd ref="24965713"/>
    <nd ref="2102252388"/>
    <tag k="cycleway:both" v="no"/>
    <tag k="highway" v="primary"/>
    <tag k="lanes" v="1"/>
    <tag k="maxspeed" v="40 mph"/>
    <tag k="maxspeed:type" v="sign"/>
    <tag k="name" v="Haddenham Road"/>
    <tag k="ref" v="A1123"/>
    <tag k="sidewalk" v="left"/>
    <tag k="surface" v="asphalt"/>
  </way>
  <way id="96765028" version="8" timestamp="2020-08-20T18:09:33Z" changeset="89706340" uid="5173844" user="ndrw6">
    <nd ref="24965703"/>
    <nd ref="7830307352"/>
    <nd ref="5196279126"/>
    <nd ref="7830307350"/>
    <nd ref="263362406"/>
    <nd ref="268886662"/>
    <nd ref="268886968"/>
    <tag k="highway" v="unclassified"/>
    <tag k="maxspeed" v="30 mph"/>
    <tag k="name" v="Wilburton Road"/>
  </way>
  <way id="96765212" version="8" timestamp="2024-05-11T12:28:04Z" changeset="151183849" uid="504708" user="HillWithSmallFields">
    <nd ref="305526490"/>
    <nd ref="1502893407"/>
    <nd ref="1502893402"/>
    <nd ref="1502893399"/>
    <nd ref="1502893395"/>
    <nd ref="305526491"/>
    <nd ref="4590450071"/>
    <nd ref="11896743609"/>
    <nd ref="2012309793"/>
    <nd ref="2012309794"/>
    <nd ref="305526493"/>
    <nd ref="2012309796"/>
    <nd ref="2012309791"/>
    <nd ref="2012309792"/>
    <nd ref="305526494"/>
    <nd ref="2851743072"/>
    <nd ref="813935473"/>
    <nd ref="1662184287"/>
    <nd ref="305526495"/>
    <tag k="highway" v="unclassified"/>
    <tag k="lanes" v="1"/>
    <tag k="name" v="The Boot"/>
    <tag k="source" v="survey;https://my.cambridgeshire.gov.uk/"/>
    <tag k="surface" v="asphalt"/>
  </way>
  <way id="116305195" version="9" timestamp="2025-01-13T12:55:06Z" changeset="161308670" uid="5229644" user="Nathan_A_RF">
    <nd ref="380348554"/>
    <nd ref="5271923"/>
    <nd ref="1311557528"/>
    <nd ref="380348555"/>
    <nd ref="2015061570"/>
    <nd ref="82770696"/>
    <nd ref="5271924"/>
    <nd ref="2022952730"/>
    <nd ref="1311552483"/>
    <nd ref="12498067014"/>
    <tag k="highway" v="secondary"/>
    <tag k="maxspeed" v="60 mph"/>
    <tag k="maxspeed:type" v="GB:nsl_single"/>
    <tag k="name" v="Hundred Foot Bank"/>
    <tag k="ref" v="B1381"/>
  </way>
  <way id="145974040" version="2" timestamp="2020-08-20T12:26:28Z" changeset="89691864" uid="5173844" user="ndrw6">
    <nd ref="1592869904"/>
    <nd ref="1592869902"/>
    <nd ref="1592869897"/>
    <nd ref="1592869898"/>
    <nd ref="1592869895"/>
    <tag k="highway" v="residential"/>
    <tag k="name" v="Lodge Gardens"/>
  </way>
  <way id="145974099" version="9" timestamp="2024-10-07T01:04:10Z" changeset="157561467" uid="5173844" user="ndrw6">
    <nd ref="24972759"/>
    <nd ref="14544230"/>
    <nd ref="5268537793"/>
    <nd ref="271043797"/>
    <nd ref="2293790911"/>
    <nd ref="2293790855"/>
    <nd ref="1592869912"/>
    <nd ref="2293790899"/>
    <nd ref="271040540"/>
    <nd ref="2504417064"/>
    <nd ref="1592869915"/>
    <nd ref="12230720334"/>
    <nd ref="12230720333"/>
    <nd ref="271040382"/>
    <nd ref="1592869916"/>
    <nd ref="271040308"/>
    <nd ref="12230720332"/>
    <nd ref="6128047879"/>
    <nd ref="6128051011"/>
    <nd ref="271040504"/>
    <nd ref="12140214154"/>
    <nd ref="271040283"/>
    <nd ref="1592869931"/>
    <nd ref="271040241"/>
    <nd ref="271039783"/>
    <nd ref="1592869933"/>
    <nd ref="1592869934"/>
    <nd ref="1592869938"/>
    <nd ref="1592869939"/>
    <nd ref="1592869940"/>
    <nd ref="1592869945"/>
    <tag k="abutters" v="residential"/>
    <tag k="highway" v="primary"/>
    <tag k="maxspeed" v="30 mph"/>
    <tag k="name" v="Station Road"/>
    <tag k="ref" v="A1421"/>
  </way>
  <way id="153546168" version="2" timestamp="2014-05-27T20:59:52Z" changeset="22589523" uid="5926" user="c2r">
    <nd ref="1662184327"/>
    <nd ref="1662184211"/>
    <tag k="bridge" v="yes"/>
    <tag k="highway" v="unclassified"/>
    <tag k="layer" v="1"/>
    <tag k="name" v="The Boot"/>
  </way>
  <way id="153546173" version="2" timestamp="2014-05-27T20:59:52Z" changeset="22589523" uid="5926" user="c2r">
    <nd ref="1662184211"/>
    <nd ref="76582781"/>
    <tag k="highway" v="unclassified"/>
    <tag k="name" v="The Boot"/>
  </way>
  <way id="153546175" version="2" timestamp="2014-05-27T20:59:52Z" changeset="22589523" uid="5926" user="c2r">
    <nd ref="1662184332"/>
    <nd ref="1662184334"/>
    <tag k="abutters" v="residential"/>
    <tag k="bridge" v="yes"/>
    <tag k="highway" v="tertiary"/>
    <tag k="layer" v="1"/>
    <tag k="name" v="High Street"/>
  </way>
  <way id="153546181" version="3" timestamp="2019-05-16T14:25:32Z" changeset="70321574" uid="9196101" user="singhyyd">
    <nd ref="1662184334"/>
    <nd ref="813935506"/>
    <nd ref="263365553"/>
    <nd ref="263362427"/>
    <nd ref="6478195938"/>
    <nd ref="268890293"/>
    <nd ref="268890288"/>
    <nd ref="2012309797"/>
    <nd ref="76596844"/>
    <nd ref="76596845"/>
    <tag k="abutters" v="residential"/>
    <tag k="highway" v="tertiary"/>
    <tag k="name" v="High Street"/>
  </way>
  <way id="200233488" version="7" timestamp="2024-04-25T13:31:08Z" changeset="150497008" uid="19332" user="Colin Watson">
    <nd ref="2102252389"/>
    <nd ref="24965708"/>
    <nd ref="24965710"/>
    <tag k="cycleway:both" v="no"/>
    <tag k="highway" v="primary"/>
    <tag k="lanes" v="1"/>
    <tag k="maxspeed" v="40 mph"/>
    <tag k="maxspeed:type" v="sign"/>
    <tag k="name" v="Wilburton Road"/>
    <tag k="ref" v="A1123"/>
    <tag k="sidewalk" v="left"/>
    <tag k="surface" v="asphalt"/>
  </way>
  <way id="200233489" version="6" timestamp="2024-04-15T16:56:49Z" changeset="150049160" uid="19294926" user="mpdkdookjn">
    <nd ref="2102252390"/>
    <nd ref="1637900460"/>
    <nd ref="271042681"/>
    <nd ref="35263015"/>
    <nd ref="271042754"/>
    <nd ref="14545827"/>
    <nd ref="8072922571"/>
    <nd ref="6012776909"/>
    <nd ref="271042782"/>
    <nd ref="7826832842"/>
    <nd ref="11819626536"/>
    <nd ref="35263017"/>
    <nd ref="271043045"/>
    <nd ref="14545825"/>
    <nd ref="35263019"/>
    <nd ref="271040505"/>
    <tag k="abutters" v="residential"/>
    <tag k="highway" v="primary"/>
    <tag k="lanes" v="2"/>
    <tag k="maxspeed" v="30 mph"/>
    <tag k="name" v="West End"/>
    <tag k="ref" v="A1123"/>
  </way>
  <way id="200233794" version="15" timestamp="2024-10-24T10:47:06Z" changeset="158290741" uid="10420541" user="Thingummy">
    <nd ref="2102256349"/>
    <nd ref="2704742070"/>
    <nd ref="35262883"/>
    <nd ref="35262890"/>
    <nd ref="14544240"/>
    <nd ref="35262892"/>
    <nd ref="35262895"/>
    <nd ref="14545787"/>
    <nd ref="35262897"/>
    <nd ref="14544236"/>
    <nd ref="35262899"/>
    <nd ref="35262901"/>
    <nd ref="14544235"/>
    <nd ref="14545788"/>
    <nd ref="4386876067"/>
    <nd ref="35262907"/>
    <nd ref="35262906"/>
    <nd ref="14545792"/>
    <nd ref="35262910"/>
    <nd ref="14545789"/>
    <nd ref="35262913"/>
    <nd ref="14545794"/>
    <nd ref="35262916"/>
    <nd ref="14545791"/>
    <nd ref="14545797"/>
    <nd ref="8076030990"/>
    <nd ref="8076030991"/>
    <nd ref="4386922394"/>
    <nd ref="4386922397"/>
    <nd ref="14545795"/>
    <nd ref="35262921"/>
    <nd ref="35262927"/>
    <nd ref="1457653816"/>
    <nd ref="1457653817"/>
    <nd ref="14545798"/>
    <nd ref="35262931"/>
    <nd ref="14545801"/>
    <nd ref="35262935"/>
    <nd ref="35262939"/>
    <nd ref="14545803"/>
    <nd ref="1637900576"/>
    <nd ref="1637900567"/>
    <nd ref="35262943"/>
    <nd ref="4389074999"/>
    <nd ref="1637900590"/>
    <nd ref="4389075013"/>
    <nd ref="4389075005"/>
    <nd ref="4389075009"/>
    <nd ref="1637900594"/>
    <nd ref="14545802"/>
    <nd ref="1637900603"/>
    <nd ref="35262948"/>
    <nd ref="4387238225"/>
    <nd ref="4389079212"/>
    <nd ref="1637900619"/>
    <nd ref="4389079222"/>
    <nd ref="1637900628"/>
    <nd ref="35262952"/>
    <nd ref="1637900637"/>
    <nd ref="4389100917"/>
    <nd ref="4389079281"/>
    <nd ref="76583014"/>
    <nd ref="4408165893"/>
    <nd ref="4408165885"/>
    <nd ref="1637900643"/>
    <nd ref="4408165892"/>
    <nd ref="1637900647"/>
    <nd ref="4408165860"/>
    <nd ref="4408165856"/>
    <nd ref="1637900652"/>
    <nd ref="4408165859"/>
    <nd ref="35262956"/>
    <nd ref="4408165883"/>
    <nd ref="4408165878"/>
    <nd ref="1637900664"/>
    <nd ref="4408165919"/>
    <nd ref="1637900667"/>
    <nd ref="2550882711"/>
    <nd ref="4590454940"/>
    <nd ref="35262965"/>
    <nd ref="814032254"/>
    <nd ref="12285076123"/>
    <tag k="highway" v="primary"/>
    <tag k="lanes" v="2"/>
    <tag k="maxspeed" v="60 mph"/>
    <tag k="maxspeed:type" v="GB:nsl_single"/>
    <tag k="name" v="Hill Row Causeway"/>
    <tag k="ref" v="A1123"/>
  </way>
  <way id="219905410" version="5" timestamp="2024-10-21T11:54:59Z" changeset="158166450" uid="10420541" user="Thingummy">
    <nd ref="2290338453"/>
    <nd ref="2290338452"/>
    <nd ref="2290338451"/>
    <nd ref="3761620534"/>
    <nd ref="2290338454"/>
    <nd ref="2290338453"/>
    <tag k="addr:city" v="Huntingdon"/>
    <tag k="addr:country" v="GB"/>
    <tag k="addr:district" v="Haddingham"/>
    <tag k="addr:housename" v="Earith Bridge Caravan Site"/>
    <tag k="addr:housenumber" v="1-14"/>
    <tag k="addr:parentstreet" v="Earith Bridge"/>
    <tag k="addr:place" v="Earith"/>
    <tag k="addr:postcode" v="PE28 3PR"/>
    <tag k="addr:street" v="Hundred Foot Bank"/>
    <tag k="addr:suburb" v="Earith"/>
    <tag k="name" v="Earith Bridge Caravan Site"/>
    <tag k="tourism" v="caravan_site"/>
  </way>
  <way id="220247132" version="2" timestamp="2020-10-26T08:29:45Z" changeset="93048656" uid="5173844" user="ndrw6">
    <nd ref="2293750882"/>
    <nd ref="2293751544"/>
    <nd ref="2293750895"/>
    <nd ref="2293750911"/>
    <tag k="highway" v="residential"/>
  </way>
  <way id="220250404" version="3" timestamp="2024-11-14T00:33:50Z" changeset="159111729" uid="3999" user="BarryMyles">
    <nd ref="2293790874"/>
    <nd ref="12230720052"/>
    <nd ref="2293790992"/>
    <tag k="highway" v="residential"/>
    <tag k="name" v="Camping Close"/>
  </way>
  <way id="220250405" version="4" timestamp="2025-02-23T15:57:17Z" changeset="162858510" uid="22551827" user="Swarming00">
    <nd ref="2293791016"/>
    <nd ref="2293790885"/>
    <nd ref="2293791010"/>
    <nd ref="2293790923"/>
    <nd ref="2293790925"/>
    <nd ref="2293790914"/>
    <nd ref="2293791016"/>
    <tag k="addr:city" v="Haddenham"/>
    <tag k="addr:housenumber" v="6"/>
    <tag k="addr:postcode" v="CB6 3XD"/>
    <tag k="addr:street" v="Station Road"/>
    <tag k="amenity" v="pub"/>
    <tag k="building" v="yes"/>
    <tag k="email" v="hello@threekingshaddenham.co.uk"/>
    <tag k="internet_access" v="wlan"/>
    <tag k="name" v="The Three Kings"/>
    <tag k="opening_hours" v="Mo-Sa 11:00-23:00; Su 11:30-22:00"/>
    <tag k="phone" v="+44 (0)1353 749080"/>
    <tag k="takeaway" v="yes"/>
    <tag k="toilets" v="yes"/>
    <tag k="website" v="https://www.threekingshaddenham.co.uk/"/>
    <tag k="wheelchair" v="yes"/>
    <tag k="wikidata" v="Q26419939"/>
  </way>
  <way id="220250416" version="3" timestamp="2024-11-14T00:33:50Z" changeset="159111729" uid="3999" user="BarryMyles">
    <nd ref="2293790970"/>
    <nd ref="12338136036"/>
    <nd ref="2293790965"/>
    <nd ref="12230720260"/>
    <nd ref="2293790876"/>
    <tag k="highway" v="residential"/>
    <tag k="name" v="Bell Gardens"/>
  </way>
  <way id="220250422" version="11" timestamp="2023-09-21T12:11:06Z" changeset="141556363" uid="37791" user="Fradeve11">
    <nd ref="2293791051"/>
    <nd ref="2293791023"/>
    <nd ref="2293790898"/>
    <nd ref="2293791052"/>
    <nd ref="271044739"/>
    <nd ref="2293791025"/>
    <nd ref="7826832572"/>
    <nd ref="7826832594"/>
    <nd ref="2293791037"/>
    <nd ref="2293791088"/>
    <nd ref="2293791060"/>
    <nd ref="2293791057"/>
    <nd ref="2293791032"/>
    <nd ref="2293791051"/>
    <tag k="addr:city" v="Ely"/>
    <tag k="addr:postcode" v="CB6 3UA"/>
    <tag k="addr:street" v="Camping Close"/>
    <tag k="addr:village" v="Haddenham"/>
    <tag k="amenity" v="school"/>
    <tag k="capacity" v="300"/>
    <tag k="fhrs:id" v="1072030"/>
    <tag k="isced:level" v="1"/>
    <tag k="max_age" v="11"/>
    <tag k="min_age" v="4"/>
    <tag k="name" v="Robert Arkenstall Primary School"/>
    <tag k="phone" v="+44 1353 740253"/>
    <tag k="ref:GB:uprn" v="10002596916"/>
    <tag k="ref:edubase" v="110635"/>
    <tag k="religion" v="none"/>
    <tag k="school:boarding" v="no"/>
    <tag k="school:gender" v="mixed"/>
    <tag k="school:selective" v="no"/>
    <tag k="school:trust" v="no"/>
    <tag k="school:type" v="community"/>
    <tag k="source:addr" v="FHRS Open Data"/>
    <tag k="website" v="https://www.robertarkenstall.co.uk/"/>
    <tag k="wikidata" v="Q66223520"/>
  </way>
  <way id="220250425" version="4" timestamp="2024-10-07T01:04:10Z" changeset="157561467" uid="5173844" user="ndrw6">
    <nd ref="12230720001"/>
    <nd ref="2293791050"/>
    <nd ref="8057378679"/>
    <nd ref="2293791044"/>
    <nd ref="271044100"/>
    <nd ref="2293790997"/>
    <nd ref="10744278287"/>
    <nd ref="8057379046"/>
    <nd ref="12230720238"/>
    <nd ref="12230720076"/>
    <nd ref="12230720075"/>
    <tag k="highway" v="residential"/>
  </way>
  <way id="241037442" version="2" timestamp="2020-11-01T23:16:42Z" changeset="93385090" uid="5173844" user="ndrw6">
    <nd ref="1637900557"/>
    <nd ref="2487171790"/>
    <nd ref="8072923428"/>
    <nd ref="8072923427"/>
    <nd ref="2487171792"/>
    <tag k="fixme" v="name of new road/development noted passing by. needs survey"/>
    <tag k="highway" v="residential"/>
    <tag k="name" v="Green Lane"/>
  </way>
  <way id="242865645" version="7" timestamp="2024-10-07T01:04:10Z" changeset="157561467" uid="5173844" user="ndrw6">
    <nd ref="263362414"/>
    <nd ref="263362415"/>
    <nd ref="268887646"/>
    <nd ref="268887669"/>
    <nd ref="268887651"/>
    <nd ref="268887252"/>
    <nd ref="263362416"/>
    <nd ref="6540128776"/>
    <nd ref="268887773"/>
    <nd ref="263362417"/>
    <nd ref="6540128783"/>
    <nd ref="3411034176"/>
    <nd ref="5767559529"/>
    <nd ref="263362418"/>
    <tag k="abutters" v="residential"/>
    <tag k="highway" v="tertiary"/>
    <tag k="lanes" v="2"/>
    <tag k="maxspeed" v="30 mph"/>
    <tag k="name" v="Aldreth Road"/>
    <tag k="source:name" v="survey"/>
  </way>
  <way id="242865649" version="3" timestamp="2020-01-19T20:40:35Z" changeset="79764824" uid="669183" user="Andy_W">
    <nd ref="1592869945"/>
    <nd ref="2503131140"/>
    <nd ref="1592869947"/>
    <nd ref="1592869949"/>
    <nd ref="7143415086"/>
    <nd ref="1592869951"/>
    <tag k="abutters" v="residential"/>
    <tag k="highway" v="primary"/>
    <tag k="maxspeed" v="40 mph"/>
    <tag k="name" v="Station Road"/>
    <tag k="ref" v="A1421"/>
  </way>
  <way id="242865650" version="8" timestamp="2021-08-26T13:40:38Z" changeset="110289686" uid="242345" user="confusedbuffalo">
    <nd ref="2503131144"/>
    <nd ref="14546082"/>
    <nd ref="1592869953"/>
    <nd ref="76584174"/>
    <nd ref="6511018572"/>
    <nd ref="1637900671"/>
    <nd ref="6511018580"/>
    <nd ref="1637900678"/>
    <nd ref="7143415085"/>
    <nd ref="1592869956"/>
    <nd ref="7143382384"/>
    <nd ref="8034619418"/>
    <nd ref="7143382383"/>
    <nd ref="1592869970"/>
    <nd ref="7143382382"/>
    <nd ref="1592869977"/>
    <nd ref="7143382381"/>
    <nd ref="1592869981"/>
    <nd ref="7143382380"/>
    <nd ref="1592870010"/>
    <nd ref="7143382379"/>
    <nd ref="7143382378"/>
    <nd ref="1419648956"/>
    <nd ref="1637900686"/>
    <nd ref="7312210071"/>
    <nd ref="7143382377"/>
    <nd ref="1592870027"/>
    <nd ref="7143382376"/>
    <nd ref="6905707276"/>
    <nd ref="1592870035"/>
    <nd ref="7143382375"/>
    <nd ref="1120502759"/>
    <tag k="highway" v="primary"/>
    <tag k="maxspeed" v="60 mph"/>
    <tag k="maxspeed:type" v="GB:nsl_single"/>
    <tag k="name" v="Sutton Road"/>
    <tag k="ref" v="A1421"/>
  </way>
  <way id="243002315" version="5" timestamp="2024-10-07T01:04:10Z" changeset="157561467" uid="5173844" user="ndrw6">
    <nd ref="728858099"/>
    <nd ref="9815529254"/>
    <nd ref="2504416980"/>
    <nd ref="7826832989"/>
    <nd ref="12230720389"/>
    <nd ref="2293791064"/>
    <nd ref="728858099"/>
    <tag k="addr:city" v="Ely"/>
    <tag k="addr:postcode" v="CB6 3SS"/>
    <tag k="addr:street" v="Chewells Lane"/>
    <tag k="addr:village" v="Haddenham"/>
    <tag k="amenity" v="kindergarten"/>
    <tag k="fhrs:id" v="336240"/>
    <tag k="name" v="Haddenham Pre School"/>
    <tag k="source:addr" v="FHRS Open Data"/>
  </way>
  <way id="243002317" version="8" timestamp="2024-04-25T13:31:08Z" changeset="150497008" uid="19332" user="Colin Watson">
    <nd ref="24972759"/>
    <nd ref="6128026923"/>
    <nd ref="24965672"/>
    <nd ref="5268537792"/>
    <nd ref="2293791045"/>
    <nd ref="24965680"/>
    <nd ref="2504416968"/>
    <nd ref="2293790966"/>
    <nd ref="24965684"/>
    <nd ref="24965688"/>
    <nd ref="24965692"/>
    <nd ref="24965694"/>
    <nd ref="24965695"/>
    <nd ref="24965697"/>
    <nd ref="24965698"/>
    <tag k="abutters" v="residential"/>
    <tag k="highway" v="primary"/>
    <tag k="lanes" v="2"/>
    <tag k="maxspeed" v="20 mph"/>
    <tag k="maxspeed:type" v="sign"/>
    <tag k="name" v="Hop Row"/>
    <tag k="ref" v="A1123"/>
    <tag k="sidewalk" v="both"/>
    <tag k="surface" v="asphalt"/>
  </way>
  <way id="243706859" version="4" timestamp="2024-04-25T13:31:08Z" changeset="150497008" uid="19332" user="Colin Watson">
    <nd ref="268886968"/>
    <nd ref="268886750"/>
    <nd ref="263362407"/>
    <nd ref="268886860"/>
    <nd ref="268886924"/>
    <nd ref="263362408"/>
    <nd ref="2293791046"/>
    <nd ref="263362409"/>
    <nd ref="263362410"/>
    <nd ref="2293791041"/>
    <nd ref="263362411"/>
    <nd ref="268886799"/>
    <nd ref="268886786"/>
    <tag k="highway" v="unclassified"/>
    <tag k="maxspeed" v="20 mph"/>
    <tag k="maxspeed:type" v="sign"/>
    <tag k="name" v="Duck Lane"/>
  </way>
  <way id="264826767" version="7" timestamp="2024-05-21T11:45:34Z" changeset="151624265" uid="95856" user="john paul jones &amp; gringo">
    <nd ref="2704742100"/>
    <nd ref="11370551994"/>
    <nd ref="2704742068"/>
    <nd ref="2704742089"/>
    <nd ref="2704742099"/>
    <nd ref="2704742104"/>
    <nd ref="2704742085"/>
    <nd ref="2704742066"/>
    <nd ref="2704742075"/>
    <nd ref="1151762235"/>
    <nd ref="305518729"/>
    <nd ref="2704742072"/>
    <nd ref="2704742073"/>
    <nd ref="2704742095"/>
    <nd ref="2704742097"/>
    <nd ref="2704742062"/>
    <nd ref="2704742083"/>
    <nd ref="2704742093"/>
    <nd ref="2704742079"/>
    <nd ref="2704742060"/>
    <nd ref="2704742081"/>
    <nd ref="2704742054"/>
    <nd ref="2704742091"/>
    <nd ref="2704742064"/>
    <nd ref="2704742100"/>
    <tag k="addr:city" v="Huntingdon"/>
    <tag k="addr:country" v="GB"/>
    <tag k="addr:postcode" v="PE28 3PR"/>
    <tag k="addr:street" v="Earith Bridge"/>
    <tag k="addr:suburb" v="Haddingham"/>
    <tag k="leisure" v="marina"/>
    <tag k="name" v="Hermitage Marina"/>
    <tag k="seamark:harbour:category" v="marina"/>
    <tag k="seamark:type" v="harbour"/>
  </way>
  <way id="283108954" version="4" timestamp="2021-08-07T06:40:08Z" changeset="109295168" uid="322785" user="BCNorwich">
    <nd ref="82772567"/>
    <nd ref="5271925"/>
    <tag k="highway" v="primary"/>
    <tag k="lanes" v="2"/>
    <tag k="maxspeed" v="30 mph"/>
    <tag k="ref" v="A1123"/>
  </way>
  <way id="333543557" version="5" timestamp="2024-10-13T14:33:35Z" changeset="157837967" uid="5173844" user="ndrw6">
    <nd ref="3406773894"/>
    <nd ref="4386876025"/>
    <nd ref="4386876026"/>
    <nd ref="4386876728"/>
    <nd ref="3406773895"/>
    <nd ref="12248403137"/>
    <nd ref="3406773896"/>
    <nd ref="5609839977"/>
    <nd ref="4386834804"/>
    <nd ref="3406773897"/>
    <nd ref="3406773898"/>
    <nd ref="3406773899"/>
    <nd ref="3406773894"/>
    <tag k="addr:city" v="Haddenham"/>
    <tag k="addr:postcode" v="CB6 3PB"/>
    <tag k="addr:street" v="Upper Delph Drove"/>
    <tag k="landuse" v="farmyard"/>
    <tag k="name" v="New England Farm"/>
  </way>
  <way id="333543617" version="2" timestamp="2016-09-06T10:25:13Z" changeset="41951723" uid="2983218" user="LovenOutdoors">
    <nd ref="3406774998"/>
    <nd ref="3406774999"/>
    <nd ref="3406775000"/>
    <nd ref="3406775001"/>
    <nd ref="3406775002"/>
    <nd ref="3406775003"/>
    <nd ref="3406774998"/>
    <tag k="addr:city" v="Haddenham"/>
    <tag k="addr:postcode" v="CB6 3PA"/>
    <tag k="addr:street" v="Hill Row Causeway"/>
    <tag k="landuse" v="farmyard"/>
    <tag k="name" v="Fen Barn"/>
  </way>
  <way id="333543618" version="2" timestamp="2016-09-07T10:39:40Z" changeset="41976230" uid="2983218" user="LovenOutdoors">
    <nd ref="3406775004"/>
    <nd ref="4389073560"/>
    <nd ref="3406775005"/>
    <nd ref="4389073544"/>
    <nd ref="3406775006"/>
    <nd ref="4389073545"/>
    <nd ref="4389073574"/>
    <nd ref="3406775007"/>
    <nd ref="3406775008"/>
    <nd ref="3406775009"/>
    <nd ref="4389073588"/>
    <nd ref="4389073543"/>
    <nd ref="3406775004"/>
    <tag k="addr:city" v="Haddenham"/>
    <tag k="addr:postcode" v="CB6 3PA"/>
    <tag k="addr:street" v="Hill Row Causeway"/>
    <tag k="landuse" v="farmyard"/>
    <tag k="name" v="Willow Hall Farm"/>
  </way>
  <way id="440929213" version="1" timestamp="2016-09-06T10:25:12Z" changeset="41951723" uid="2983218" user="LovenOutdoors">
    <nd ref="4386922404"/>
    <nd ref="4386922405"/>
    <nd ref="4386922406"/>
    <nd ref="4386922407"/>
    <nd ref="4386922404"/>
    <tag k="addr:city" v="Haddenham"/>
    <tag k="addr:housename" v="Willow Farm"/>
    <tag k="addr:postcode" v="CB6 3PA"/>
    <tag k="addr:street" v="Hill Row Causeway"/>
    <tag k="building" v="commercial"/>
    <tag k="name" v="Willow Farm"/>
  </way>
  <way id="441138211" version="2" timestamp="2020-09-17T07:46:41Z" changeset="91029305" uid="1247041" user="Essex_Boy">
    <nd ref="4389079214"/>
    <nd ref="4389079215"/>
    <nd ref="4389079216"/>
    <nd ref="4389079217"/>
    <nd ref="4389079218"/>
    <nd ref="4389079219"/>
    <nd ref="7916021381"/>
    <nd ref="4389079220"/>
    <nd ref="4389079221"/>
    <nd ref="4389079214"/>
    <tag k="addr:city" v="Haddenham"/>
    <tag k="addr:postcode" v="CB6 3PA"/>
    <tag k="addr:street" v="Hill Row Causeway"/>
    <tag k="landuse" v="farmyard"/>
    <tag k="name" v="Willow Farm"/>
  </way>
  <way id="441138222" version="2" timestamp="2019-07-16T17:22:33Z" changeset="72315811" uid="9838233" user="Lars_Gatt">
    <nd ref="4389079270"/>
    <nd ref="4389079271"/>
    <nd ref="4389079272"/>
    <nd ref="4389079273"/>
    <nd ref="4389079274"/>
    <nd ref="4389079275"/>
    <nd ref="4389079276"/>
    <nd ref="4389079277"/>
    <nd ref="4389079280"/>
    <nd ref="4389079279"/>
    <nd ref="4389079278"/>
    <nd ref="4389079270"/>
    <tag k="addr:city" v="Haddenham"/>
    <tag k="addr:postcode" v="CB6 3PA"/>
    <tag k="addr:street" v="Hill Row Causeway"/>
    <tag k="landuse" v="industrial"/>
    <tag k="name" v="Sunway"/>
  </way>
  <way id="441138224" version="2" timestamp="2023-11-11T10:26:26Z" changeset="143893444" uid="9451067" user="b-jazz-bot">
    <nd ref="4389079285"/>
    <nd ref="4389079286"/>
    <nd ref="4389079287"/>
    <nd ref="4389079288"/>
    <nd ref="4389100889"/>
    <nd ref="4389100890"/>
    <nd ref="4389100891"/>
    <nd ref="4389100892"/>
    <nd ref="4389079285"/>
    <tag k="addr:city" v="Haddenham"/>
    <tag k="addr:housename" v="Third Bridge Farm"/>
    <tag k="addr:postcode" v="CB6 3PA"/>
    <tag k="addr:street" v="Hill Row Causeway"/>
    <tag k="name" v="Third Bridge Holiday Home for Dogs"/>
    <tag k="phone" v="+44 1353 741 620"/>
    <tag k="place" v="farm"/>
    <tag k="website" v="https://www.3rdbridgeholidayhomefordogs.co.uk/"/>
  </way>
  <way id="441167661" version="2" timestamp="2025-01-22T20:45:36Z" changeset="161652494" uid="84263" user="Robert Whittaker">
    <nd ref="4389448396"/>
    <nd ref="4389448397"/>
    <nd ref="4389448436"/>
    <nd ref="4389448435"/>
    <nd ref="4389448398"/>
    <nd ref="4389448399"/>
    <nd ref="4389448396"/>
    <tag k="addr:city" v="Haddenham"/>
    <tag k="addr:postcode" v="CB6 3TU"/>
    <tag k="addr:street" v="Long Drove"/>
    <tag k="landuse" v="farmyard"/>
    <tag k="name" v="Willow Farm"/>
    <tag k="source:addr:postcode" v="ons_uprn_lookup"/>
  </way>
  <way id="627021733" version="1" timestamp="2018-09-20T20:46:10Z" changeset="62777086" uid="7715341" user="beigetable">
    <nd ref="4136484233"/>
    <nd ref="82772567"/>
    <tag k="highway" v="secondary"/>
    <tag k="maxspeed" v="30 mph"/>
    <tag k="ref" v="B1050"/>
    <tag k="source:ref" v="survey"/>
  </way>
  <way id="637877099" version="1" timestamp="2018-10-25T13:16:05Z" changeset="63867127" uid="5173844" user="ndrw6">
    <nd ref="6012776895"/>
    <nd ref="6012776894"/>
    <tag k="highway" v="residential"/>
    <tag k="name" v="Glebe Way"/>
  </way>
  <way id="637877100" version="1" timestamp="2018-10-25T13:16:05Z" changeset="63867127" uid="5173844" user="ndrw6">
    <nd ref="271042593"/>
    <nd ref="6012776897"/>
    <nd ref="6012776895"/>
    <nd ref="6012776896"/>
    <tag k="highway" v="residential"/>
    <tag k="name" v="Glebe Way"/>
  </way>
  <way id="637877102" version="1" timestamp="2018-10-25T13:16:05Z" changeset="63867127" uid="5173844" user="ndrw6">
    <nd ref="6012776909"/>
    <nd ref="6012776908"/>
    <nd ref="6012776907"/>
    <nd ref="6012776906"/>
    <nd ref="6012776905"/>
    <tag k="highway" v="residential"/>
  </way>
  <way id="637877104" version="1" timestamp="2018-10-25T13:16:05Z" changeset="63867127" uid="5173844" user="ndrw6">
    <nd ref="6012776916"/>
    <nd ref="271042801"/>
    <nd ref="6012776915"/>
    <nd ref="6012776914"/>
    <tag k="highway" v="residential"/>
    <tag k="name" v="Meadow Lane"/>
  </way>
  <way id="637877113" version="1" timestamp="2018-10-25T13:16:05Z" changeset="63867127" uid="5173844" user="ndrw6">
    <nd ref="6012776959"/>
    <nd ref="6012776958"/>
    <nd ref="6012776957"/>
    <nd ref="6012776956"/>
    <tag k="highway" v="residential"/>
    <tag k="name" v="Northumbria Close"/>
  </way>
  <way id="637877126" version="4" timestamp="2023-09-13T16:30:14Z" changeset="141219819" uid="19332" user="Colin Watson">
    <nd ref="6012777137"/>
    <nd ref="6012777134"/>
    <nd ref="6012777135"/>
    <nd ref="6012777133"/>
    <nd ref="6012777132"/>
    <nd ref="6012777136"/>
    <nd ref="6012777137"/>
    <tag k="addr:housenumber" v="14"/>
    <tag k="addr:postcode" v="CB6 3SR"/>
    <tag k="addr:street" v="Hop Row"/>
    <tag k="building" v="detached"/>
  </way>
  <way id="653923920" version="4" timestamp="2023-10-14T13:50:32Z" changeset="142578009" uid="19332" user="Colin Watson">
    <nd ref="6128026888"/>
    <nd ref="6128027126"/>
    <nd ref="6128010739"/>
    <nd ref="6128027104"/>
    <nd ref="6128026888"/>
    <tag k="addr:housename" v="Elmhurst"/>
    <tag k="addr:housenumber" v="10"/>
    <tag k="addr:street" v="Station Road"/>
    <tag k="building" v="detached"/>
  </way>
  <way id="690499068" version="1" timestamp="2019-05-16T14:25:32Z" changeset="70321574" uid="9196101" user="singhyyd">
    <nd ref="505030972"/>
    <nd ref="6478195943"/>
    <tag k="highway" v="residential"/>
  </way>
  <way id="690499069" version="2" timestamp="2019-09-04T17:45:03Z" changeset="74099554" uid="5359" user="user_5359">
    <nd ref="6478195943"/>
    <nd ref="6478195944"/>
    <nd ref="6478195945"/>
    <tag k="access" v="private"/>
    <tag k="highway" v="residential"/>
  </way>
  <way id="696442067" version="3" timestamp="2023-12-10T20:52:23Z" changeset="144977257" uid="1287673" user="sloerunner">
    <nd ref="6540128776"/>
    <nd ref="11408298772"/>
    <nd ref="6540128777"/>
    <nd ref="6540128778"/>
    <nd ref="6540128779"/>
    <nd ref="6540128780"/>
    <nd ref="6540128781"/>
    <tag k="highway" v="residential"/>
  </way>
  <way id="722141994" version="2" timestamp="2020-10-26T08:29:45Z" changeset="93048656" uid="5173844" user="ndrw6">
    <nd ref="268887786"/>
    <nd ref="6773871498"/>
    <nd ref="6773871499"/>
    <nd ref="6773871500"/>
    <nd ref="6773871501"/>
    <nd ref="6773871502"/>
    <tag k="highway" v="residential"/>
    <tag k="name" v="Rowan Close"/>
  </way>
  <way id="737461125" version="3" timestamp="2024-10-07T01:04:10Z" changeset="157561467" uid="5173844" user="ndrw6">
    <nd ref="6904436026"/>
    <nd ref="12230720205"/>
    <nd ref="6904436027"/>
    <tag k="highway" v="residential"/>
  </way>
  <way id="747801120" version="3" timestamp="2020-10-30T23:53:35Z" changeset="93314905" uid="5173844" user="ndrw6">
    <nd ref="6996364418"/>
    <nd ref="8046629088"/>
    <nd ref="8067089190"/>
    <nd ref="6996364419"/>
    <tag k="highway" v="residential"/>
    <tag k="name" v="Rowan Close"/>
  </way>
  <way id="839006466" version="4" timestamp="2023-09-13T16:32:06Z" changeset="141219819" uid="19332" user="Colin Watson">
    <nd ref="7829514729"/>
    <nd ref="7829514724"/>
    <nd ref="7829514725"/>
    <nd ref="7829514728"/>
    <nd ref="7829514727"/>
    <nd ref="7829514726"/>
    <nd ref="7829514729"/>
    <tag k="addr:housenumber" v="5"/>
    <tag k="addr:street" v="Hop Row"/>
    <tag k="building" v="detached"/>
  </way>
  <way id="839006468" version="5" timestamp="2024-10-07T01:04:10Z" changeset="157561467" uid="5173844" user="ndrw6">
    <nd ref="7829514737"/>
    <nd ref="12230720395"/>
    <nd ref="12230720396"/>
    <nd ref="7829514736"/>
    <nd ref="7829514735"/>
    <nd ref="7829514734"/>
    <nd ref="7829514737"/>
    <tag k="addr:housenumber" v="1"/>
    <tag k="addr:street" v="Hop Row"/>
    <tag k="building" v="detached"/>
  </way>
  <way id="839006473" version="4" timestamp="2023-09-13T16:38:27Z" changeset="141219819" uid="19332" user="Colin Watson">
    <nd ref="7829514747"/>
    <nd ref="7829514751"/>
    <nd ref="7829514748"/>
    <nd ref="7829514746"/>
    <nd ref="7829514747"/>
    <tag k="addr:housenumber" v="33"/>
    <tag k="addr:street" v="Hop Row"/>
    <tag k="building" v="semidetached_house"/>
  </way>
  <way id="839006475" version="4" timestamp="2023-09-13T16:38:12Z" changeset="141219819" uid="19332" user="Colin Watson">
    <nd ref="7829514753"/>
    <nd ref="7829514756"/>
    <nd ref="7829514755"/>
    <nd ref="7829514752"/>
    <nd ref="7829514753"/>
    <tag k="addr:housenumber" v="31"/>
    <tag k="addr:street" v="Hop Row"/>
    <tag k="building" v="semidetached_house"/>
  </way>
  <way id="839006476" version="4" timestamp="2023-09-13T16:38:07Z" changeset="141219819" uid="19332" user="Colin Watson">
    <nd ref="7829514757"/>
    <nd ref="7829514753"/>
    <nd ref="7829514752"/>
    <nd ref="7829514754"/>
    <nd ref="7829514757"/>
    <tag k="addr:housenumber" v="29"/>
    <tag k="addr:street" v="Hop Row"/>
    <tag k="building" v="semidetached_house"/>
  </way>
  <way id="839006477" version="4" timestamp="2023-09-13T16:30:50Z" changeset="141219819" uid="19332" user="Colin Watson">
    <nd ref="7829514759"/>
    <nd ref="7829514760"/>
    <nd ref="7829514761"/>
    <nd ref="7829514758"/>
    <nd ref="7829514759"/>
    <tag k="addr:housenumber" v="27"/>
    <tag k="addr:street" v="Hop Row"/>
    <tag k="building" v="semidetached_house"/>
  </way>
  <way id="839006478" version="4" timestamp="2023-09-13T16:31:01Z" changeset="141219819" uid="19332" user="Colin Watson">
    <nd ref="7829514763"/>
    <nd ref="7829514759"/>
    <nd ref="7829514758"/>
    <nd ref="7829514762"/>
    <nd ref="7829514763"/>
    <tag k="addr:housenumber" v="25"/>
    <tag k="addr:street" v="Hop Row"/>
    <tag k="building" v="semidetached_house"/>
  </way>
  <way id="839006479" version="4" timestamp="2023-09-13T16:31:11Z" changeset="141219819" uid="19332" user="Colin Watson">
    <nd ref="7829514769"/>
    <nd ref="7829514766"/>
    <nd ref="7829514767"/>
    <nd ref="7829514764"/>
    <nd ref="7829514765"/>
    <nd ref="7829514768"/>
    <nd ref="7829514769"/>
    <tag k="addr:housenumber" v="23"/>
    <tag k="addr:street" v="Hop Row"/>
    <tag k="building" v="detached"/>
  </way>
  <way id="839006480" version="4" timestamp="2023-09-13T16:31:21Z" changeset="141219819" uid="19332" user="Colin Watson">
    <nd ref="7829514773"/>
    <nd ref="7829514706"/>
    <nd ref="7829514707"/>
    <nd ref="7829514770"/>
    <nd ref="7829514771"/>
    <nd ref="7829514772"/>
    <nd ref="7829514773"/>
    <tag k="addr:housenumber" v="21"/>
    <tag k="addr:street" v="Hop Row"/>
    <tag k="building" v="detached"/>
  </way>
  <way id="839006495" version="1" timestamp="2020-08-20T12:26:28Z" changeset="89691864" uid="5173844" user="ndrw6">
    <nd ref="1592869900"/>
    <nd ref="1592869895"/>
    <nd ref="7829524222"/>
    <tag k="highway" v="residential"/>
    <tag k="name" v="Lodge Gardens"/>
  </way>
  <way id="839006614" version="1" timestamp="2020-08-20T12:26:28Z" changeset="89691864" uid="5173844" user="ndrw6">
    <nd ref="6012776962"/>
    <nd ref="7829524791"/>
    <nd ref="7829524790"/>
    <nd ref="7829524789"/>
    <nd ref="7829524788"/>
    <nd ref="7829524787"/>
    <nd ref="7829524786"/>
    <tag k="highway" v="residential"/>
    <tag k="name" v="Northumbria Close"/>
  </way>
  <way id="839006684" version="1" timestamp="2020-08-20T12:26:28Z" changeset="89691864" uid="5173844" user="ndrw6">
    <nd ref="6128050989"/>
    <nd ref="271040458"/>
    <nd ref="7829525092"/>
    <nd ref="7829525091"/>
    <tag k="highway" v="residential"/>
    <tag k="name" v="Lion Court"/>
    <tag k="source:name" v="survey"/>
  </way>
  <way id="839099301" version="1" timestamp="2020-08-20T18:09:32Z" changeset="89706340" uid="5173844" user="ndrw6">
    <nd ref="7830307156"/>
    <nd ref="7830307155"/>
    <nd ref="7830307349"/>
    <nd ref="7830307154"/>
    <nd ref="7830307153"/>
    <nd ref="7830307150"/>
    <nd ref="7830307152"/>
    <tag k="highway" v="residential"/>
    <tag k="name" v="Orchard Way"/>
  </way>
  <way id="839099354" version="4" timestamp="2023-09-13T16:46:59Z" changeset="141219819" uid="19332" user="Colin Watson">
    <nd ref="7830307376"/>
    <nd ref="7830307375"/>
    <nd ref="7830307374"/>
    <nd ref="7830307372"/>
    <nd ref="7830307377"/>
    <nd ref="7830307378"/>
    <nd ref="7830307371"/>
    <nd ref="7830307373"/>
    <nd ref="7830307376"/>
    <tag k="addr:housenumber" v="48"/>
    <tag k="addr:street" v="Wilburton Road"/>
    <tag k="building" v="detached"/>
  </way>
  <way id="839099362" version="4" timestamp="2023-09-13T16:44:26Z" changeset="141219819" uid="19332" user="Colin Watson">
    <nd ref="7830307415"/>
    <nd ref="7830307409"/>
    <nd ref="7830307408"/>
    <nd ref="7830307412"/>
    <nd ref="7830307410"/>
    <nd ref="7830307411"/>
    <nd ref="7830307413"/>
    <nd ref="7830307414"/>
    <nd ref="7830307415"/>
    <tag k="addr:housenumber" v="7"/>
    <tag k="addr:street" v="New Road"/>
    <tag k="building" v="detached"/>
  </way>
  <way id="839099363" version="4" timestamp="2023-09-13T16:43:54Z" changeset="141219819" uid="19332" user="Colin Watson">
    <nd ref="7830307419"/>
    <nd ref="7830307416"/>
    <nd ref="7830307417"/>
    <nd ref="7830307418"/>
    <nd ref="7830307419"/>
    <tag k="addr:housenumber" v="5"/>
    <tag k="addr:street" v="New Road"/>
    <tag k="building" v="detached"/>
  </way>
  <way id="839099377" version="4" timestamp="2023-09-13T16:43:26Z" changeset="141219819" uid="19332" user="Colin Watson">
    <nd ref="7830307484"/>
    <nd ref="7830307482"/>
    <nd ref="7830307479"/>
    <nd ref="7830307480"/>
    <nd ref="7830307481"/>
    <nd ref="7830307483"/>
    <nd ref="7830307484"/>
    <tag k="addr:housenumber" v="14"/>
    <tag k="addr:street" v="New Road"/>
    <tag k="building" v="detached"/>
  </way>
  <way id="839099378" version="4" timestamp="2023-09-13T16:43:19Z" changeset="141219819" uid="19332" user="Colin Watson">
    <nd ref="7830307488"/>
    <nd ref="7830307485"/>
    <nd ref="7830307486"/>
    <nd ref="7830307487"/>
    <nd ref="7830307488"/>
    <tag k="addr:housenumber" v="12"/>
    <tag k="addr:street" v="New Road"/>
    <tag k="building" v="detached"/>
  </way>
  <way id="839099411" version="1" timestamp="2020-08-20T18:09:32Z" changeset="89706340" uid="5173844" user="ndrw6">
    <nd ref="7830307637"/>
    <nd ref="7830307636"/>
    <tag k="highway" v="residential"/>
    <tag k="name" v="Hinton View"/>
    <tag k="note" v="re-survey this road"/>
  </way>
  <way id="839099412" version="1" timestamp="2020-08-20T18:09:32Z" changeset="89706340" uid="5173844" user="ndrw6">
    <nd ref="7830307638"/>
    <nd ref="6128026912"/>
    <nd ref="271044549"/>
    <tag k="highway" v="residential"/>
    <tag k="name" v="Hinton View"/>
    <tag k="note" v="re-survey this road"/>
  </way>
  <way id="839099413" version="1" timestamp="2020-08-20T18:09:32Z" changeset="89706340" uid="5173844" user="ndrw6">
    <nd ref="7830307639"/>
    <nd ref="271044549"/>
    <nd ref="7830307637"/>
    <nd ref="7830307640"/>
    <nd ref="271044550"/>
    <tag k="highway" v="residential"/>
    <tag k="name" v="Hinton View"/>
    <tag k="note" v="re-survey this road"/>
  </way>
  <way id="839099414" version="1" timestamp="2020-08-20T18:09:32Z" changeset="89706340" uid="5173844" user="ndrw6">
    <nd ref="7830307640"/>
    <nd ref="7830307635"/>
    <nd ref="7830307634"/>
    <nd ref="1592869887"/>
    <nd ref="1592869884"/>
    <tag k="highway" v="residential"/>
    <tag k="name" v="Hinton View"/>
    <tag k="note" v="re-survey this road"/>
  </way>
  <way id="839099419" version="4" timestamp="2023-09-13T16:39:59Z" changeset="141219819" uid="19332" user="Colin Watson">
    <nd ref="7830307666"/>
    <nd ref="7830307663"/>
    <nd ref="7830307664"/>
    <nd ref="7830307665"/>
    <nd ref="7830307666"/>
    <tag k="addr:housenumber" v="49"/>
    <tag k="addr:street" v="Hop Row"/>
    <tag k="building" v="detached"/>
  </way>
  <way id="839099433" version="4" timestamp="2023-09-13T16:39:34Z" changeset="141219819" uid="19332" user="Colin Watson">
    <nd ref="7830307726"/>
    <nd ref="7830307723"/>
    <nd ref="7830307724"/>
    <nd ref="7830307725"/>
    <nd ref="7830307726"/>
    <tag k="addr:housenumber" v="47"/>
    <tag k="addr:street" v="Hop Row"/>
    <tag k="building" v="detached"/>
  </way>
  <way id="839099434" version="4" timestamp="2023-09-13T16:39:23Z" changeset="141219819" uid="19332" user="Colin Watson">
    <nd ref="7830307730"/>
    <nd ref="7830307727"/>
    <nd ref="7830307728"/>
    <nd ref="7830307729"/>
    <nd ref="7830307730"/>
    <tag k="addr:housenumber" v="45"/>
    <tag k="addr:street" v="Hop Row"/>
    <tag k="building" v="detached"/>
  </way>
  <way id="839099441" version="4" timestamp="2024-11-14T00:33:50Z" changeset="159111729" uid="3999" user="BarryMyles">
    <nd ref="7830307762"/>
    <nd ref="7830307759"/>
    <nd ref="10744278279"/>
    <nd ref="10744278278"/>
    <nd ref="7830307760"/>
    <nd ref="7830307761"/>
    <nd ref="7830307762"/>
    <tag k="addr:city" v="Ely"/>
    <tag k="addr:postcode" v="CB6 3SS"/>
    <tag k="addr:street" v="Chewell's Lane"/>
    <tag k="addr:village" v="Haddenham"/>
    <tag k="building" v="yes"/>
    <tag k="name" v="Haddenham Telephone Exchange"/>
    <tag k="operator" v="Openreach"/>
    <tag k="operator:wikidata" v="Q7096543"/>
    <tag k="ref" v="EAHDM"/>
    <tag k="telecom" v="exchange"/>
  </way>
  <way id="863724769" version="2" timestamp="2020-10-30T23:53:35Z" changeset="93314905" uid="5173844" user="ndrw6">
    <nd ref="2293791077"/>
    <nd ref="8067089708"/>
    <nd ref="268887666"/>
    <nd ref="268887667"/>
    <tag k="highway" v="residential"/>
    <tag k="name" v="Bury Lane"/>
  </way>
  <way id="864490756" version="2" timestamp="2024-10-07T01:04:10Z" changeset="157561467" uid="5173844" user="ndrw6">
    <nd ref="8057379046"/>
    <nd ref="12230720233"/>
    <nd ref="8057379045"/>
    <tag k="highway" v="residential"/>
  </way>
  <way id="865492135" version="1" timestamp="2020-10-30T23:53:35Z" changeset="93314905" uid="5173844" user="ndrw6">
    <nd ref="6773871501"/>
    <nd ref="8067088696"/>
    <tag k="highway" v="residential"/>
    <tag k="name" v="Rowan Close"/>
  </way>
  <way id="866112171" version="1" timestamp="2020-11-01T23:16:42Z" changeset="93385090" uid="5173844" user="ndrw6">
    <nd ref="271042915"/>
    <nd ref="6012776925"/>
    <nd ref="8072924543"/>
    <tag k="highway" v="residential"/>
    <tag k="name" v="Ashleaf Close"/>
    <tag k="note" v="under development 17/06/2008."/>
  </way>
  <way id="866112193" version="1" timestamp="2020-11-01T23:16:42Z" changeset="93385090" uid="5173844" user="ndrw6">
    <nd ref="8072924659"/>
    <nd ref="8072924658"/>
    <tag k="highway" v="residential"/>
    <tag k="name" v="Hardwicke Fields"/>
  </way>
  <way id="866112194" version="1" timestamp="2020-11-01T23:16:42Z" changeset="93385090" uid="5173844" user="ndrw6">
    <nd ref="8072924663"/>
    <nd ref="8072924662"/>
    <nd ref="8072924661"/>
    <nd ref="8072924660"/>
    <tag k="highway" v="residential"/>
    <tag k="name" v="Hardwicke Fields"/>
  </way>
  <way id="866112195" version="1" timestamp="2020-11-01T23:16:42Z" changeset="93385090" uid="5173844" user="ndrw6">
    <nd ref="8072924671"/>
    <nd ref="8072924670"/>
    <nd ref="8072924669"/>
    <tag k="highway" v="residential"/>
    <tag k="name" v="Hardwicke Fields"/>
  </way>
  <way id="973566880" version="1" timestamp="2021-08-16T15:01:42Z" changeset="109757066" uid="10420541" user="Thingummy">
    <nd ref="2012309788"/>
    <nd ref="9010530119"/>
    <tag k="bridge" v="yes"/>
    <tag k="highway" v="unclassified"/>
    <tag k="layer" v="1"/>
    <tag k="name" v="The Brinks"/>
  </way>
  <way id="1173260067" version="4" timestamp="2024-03-02T18:00:17Z" changeset="148141202" uid="5173844" user="ndrw6">
    <nd ref="7994955560"/>
    <nd ref="10901566018"/>
    <nd ref="11252455597"/>
    <nd ref="10901566019"/>
    <nd ref="10901566020"/>
    <nd ref="11685166129"/>
    <nd ref="10901566021"/>
    <nd ref="11252455596"/>
    <nd ref="10901566022"/>
    <nd ref="11252455593"/>
    <nd ref="10901566023"/>
    <nd ref="10901566024"/>
    <nd ref="10901566025"/>
    <nd ref="10901566026"/>
    <nd ref="10901566027"/>
    <nd ref="10901566028"/>
    <nd ref="10901566029"/>
    <nd ref="11247160352"/>
    <nd ref="10901566030"/>
    <nd ref="10901566031"/>
    <nd ref="10901566032"/>
    <nd ref="11685166113"/>
    <tag k="highway" v="residential"/>
    <tag k="name" v="Ovins Rise"/>
  </way>
  <way id="1214486366" version="1" timestamp="2023-10-10T08:52:13Z" changeset="142382496" uid="7345137" user="magrej">
    <nd ref="7994955560"/>
    <nd ref="11252455595"/>
    <nd ref="7994955558"/>
    <nd ref="7994955559"/>
    <nd ref="6012776929"/>
    <tag k="highway" v="residential"/>
    <tag k="source" v="maxar"/>
  </way>
  <way id="1256921959" version="1" timestamp="2024-03-02T18:00:17Z" changeset="148141202" uid="5173844" user="ndrw6">
    <nd ref="11685165270"/>
    <nd ref="11685165269"/>
    <tag k="highway" v="residential"/>
    <tag k="name" v="Elizabeth Way"/>
    <tag k="surface" v="asphalt"/>
  </way>
  <way id="1256922010" version="1" timestamp="2024-03-02T18:00:17Z" changeset="148141202" uid="5173844" user="ndrw6">
    <nd ref="11685165507"/>
    <nd ref="11685165285"/>
    <nd ref="11685165506"/>
    <nd ref="11685165508"/>
    <nd ref="11685165505"/>
    <nd ref="11685165504"/>
    <nd ref="11685165503"/>
    <tag k="highway" v="residential"/>
  </way>
  <way id="1256922011" version="1" timestamp="2024-03-02T18:00:17Z" changeset="148141202" uid="5173844" user="ndrw6">
    <nd ref="268887206"/>
    <nd ref="11685165524"/>
    <nd ref="11685165523"/>
    <nd ref="11685165522"/>
    <nd ref="11685165521"/>
    <nd ref="11685165520"/>
    <nd ref="11685165519"/>
    <nd ref="11685165518"/>
    <nd ref="11685165517"/>
    <nd ref="11685165516"/>
    <nd ref="11685165515"/>
    <nd ref="11685165514"/>
    <nd ref="11685165513"/>
    <nd ref="11685165512"/>
    <nd ref="11685165511"/>
    <nd ref="11685165510"/>
    <nd ref="11685165509"/>
    <nd ref="11685165508"/>
    <tag k="highway" v="residential"/>
  </way>
  <way id="1256922024" version="1" timestamp="2024-03-02T18:00:17Z" changeset="148141202" uid="5173844" user="ndrw6">
    <nd ref="11685165632"/>
    <nd ref="268887000"/>
    <nd ref="11685165631"/>
    <tag k="highway" v="residential"/>
    <tag k="name" v="Perry Close"/>
  </way>
  <way id="1256922044" version="1" timestamp="2024-03-02T18:00:17Z" changeset="148141202" uid="5173844" user="ndrw6">
    <nd ref="11685165770"/>
    <nd ref="11685165769"/>
    <nd ref="11685165771"/>
    <nd ref="11685165768"/>
    <nd ref="11685165767"/>
    <nd ref="11685165766"/>
    <tag k="highway" v="residential"/>
    <tag k="name" v="Hardwicke Fields"/>
  </way>
  <way id="1256922114" version="1" timestamp="2024-03-02T18:00:17Z" changeset="148141202" uid="5173844" user="ndrw6">
    <nd ref="11685166112"/>
    <nd ref="11685166113"/>
    <nd ref="11685166109"/>
    <tag k="highway" v="residential"/>
    <tag k="name" v="Ovins Rise"/>
  </way>
  <way id="1256922115" version="1" timestamp="2024-03-02T18:00:17Z" changeset="148141202" uid="5173844" user="ndrw6">
    <nd ref="11247160352"/>
    <nd ref="11247160351"/>
    <tag k="highway" v="residential"/>
  </way>
  <way id="1272838444" version="1" timestamp="2024-04-15T16:56:49Z" changeset="150049160" uid="19294926" user="mpdkdookjn">
    <nd ref="11819626536"/>
    <nd ref="11819626538"/>
    <nd ref="11819626539"/>
    <nd ref="11819626537"/>
    <tag k="description" v="Private Residential Road"/>
    <tag k="highway" v="residential"/>
  </way>
  <way id="1321607368" version="1" timestamp="2024-10-06T13:16:47Z" changeset="157539785" uid="5173844" user="ndrw6">
    <nd ref="12229648311"/>
    <nd ref="12229648313"/>
    <nd ref="12229648312"/>
    <nd ref="12229648310"/>
    <nd ref="12229648311"/>
    <tag k="addr:city" v="Ely"/>
    <tag k="addr:housenumber" v="36B"/>
    <tag k="addr:postcode" v="CB6 3TE"/>
    <tag k="addr:street" v="West End"/>
    <tag k="addr:village" v="Haddenham"/>
    <tag k="building" v="house"/>
  </way>
  <way id="1327829627" version="1" timestamp="2024-10-24T10:39:00Z" changeset="158290440" uid="10420541" user="Thingummy">
    <nd ref="12285076122"/>
    <nd ref="14545810"/>
    <nd ref="35262970"/>
    <nd ref="35262977"/>
    <nd ref="35262982"/>
    <nd ref="1637900658"/>
    <nd ref="2102256348"/>
    <tag k="highway" v="primary"/>
    <tag k="lanes" v="2"/>
    <tag k="maxspeed" v="60 mph"/>
    <tag k="maxspeed:type" v="GB:nsl_single"/>
    <tag k="name" v="Hill Row Causeway"/>
    <tag k="ref" v="A1123"/>
  </way>
  <way id="1327829628" version="1" timestamp="2024-10-24T10:39:00Z" changeset="158290440" uid="10420541" user="Thingummy">
    <nd ref="12285076123"/>
    <nd ref="12285076122"/>
    <tag k="bridge" v="yes"/>
    <tag k="highway" v="primary"/>
    <tag k="lanes" v="2"/>
    <tag k="layer" v="1"/>
    <tag k="maxspeed" v="60 mph"/>
    <tag k="maxspeed:type" v="GB:nsl_single"/>
    <tag k="name" v="Hill Row Causeway"/>
    <tag k="ref" v="A1123"/>
  </way>
  <way id="1327829631" version="1" timestamp="2024-10-24T10:39:00Z" changeset="158290440" uid="10420541" user="Thingummy">
    <nd ref="12285076129"/>
    <nd ref="268887104"/>
    <nd ref="268887105"/>
    <nd ref="76585648"/>
    <tag k="highway" v="unclassified"/>
  </way>
  <way id="1327829632" version="1" timestamp="2024-10-24T10:39:00Z" changeset="158290440" uid="10420541" user="Thingummy">
    <nd ref="12285076128"/>
    <nd ref="12285076129"/>
    <tag k="bridge" v="yes"/>
    <tag k="highway" v="unclassified"/>
    <tag k="layer" v="1"/>
  </way>
  <way id="1350903955" version="1" timestamp="2025-01-13T12:55:06Z" changeset="161308670" uid="5229644" user="Nathan_A_RF">
    <nd ref="12498067014"/>
    <nd ref="4352319779"/>
    <nd ref="1311552484"/>
    <nd ref="5271925"/>
    <tag k="highway" v="secondary"/>
    <tag k="maxspeed" v="30 mph"/>
    <tag k="name" v="Hundred Foot Bank"/>
    <tag k="ref" v="B1381"/>
  </way>

</osm>
