<?xml version="1.0" encoding="UTF-8"?>
<osm version="0.6" generator="Overpass API 0.7.62.5 1bd436f1">
<note>The data included in this document is from www.openstreetmap.org. The data is made available under ODbL.</note>
<meta osm_base="2025-04-27T07:34:15Z" areas="2024-12-31T00:49:33Z"/>

  <node id="213944" lat="52.2725749" lon="0.4500256" version="7" timestamp="2025-02-27T20:04:42Z" changeset="163027132" uid="5229644" user="Nathan_A_RF">
    <tag k="highway" v="motorway_junction"/>
    <tag k="name" v="Waterhall"/>
  </node>
  <node id="213971" lat="52.2691440" lon="0.4086867" version="6" timestamp="2008-12-22T13:09:47Z" changeset="547380" uid="74897" user="Rowland"/>
  <node id="13336610" lat="52.2694966" lon="0.4451185" version="4" timestamp="2025-02-27T20:04:42Z" changeset="163027132" uid="5229644" user="Nathan_A_RF"/>
  <node id="14912379" lat="52.2736210" lon="0.4525286" version="1" timestamp="2007-01-21T00:42:42Z" changeset="198894" uid="2955" user="Matthew Newton">
    <tag k="created_by" v="JOSM"/>
  </node>
  <node id="21774626" lat="52.2692490" lon="0.3915302" version="4" timestamp="2011-07-23T18:13:26Z" changeset="8808139" uid="74897" user="Rowland"/>
  <node id="24341738" lat="52.2870738" lon="0.4004307" version="5" timestamp="2012-11-10T15:30:49Z" changeset="13819416" uid="6871" user="smsm1"/>
  <node id="24966326" lat="52.2560381" lon="0.4246214" version="7" timestamp="2025-02-27T20:02:02Z" changeset="163027046" uid="5229644" user="Nathan_A_RF"/>
  <node id="248409983" lat="52.2563147" lon="0.4250021" version="4" timestamp="2025-02-27T20:02:02Z" changeset="163027046" uid="5229644" user="Nathan_A_RF"/>
  <node id="248410019" lat="52.2690536" lon="0.4116368" version="5" timestamp="2011-12-20T21:13:43Z" changeset="10167088" uid="5926" user="c2r"/>
  <node id="248410026" lat="52.2689766" lon="0.4099514" version="3" timestamp="2008-12-22T13:08:54Z" changeset="547380" uid="74897" user="Rowland"/>
  <node id="2538776432" lat="52.2671400" lon="0.4116296" version="1" timestamp="2013-11-18T22:22:51Z" changeset="18984490" uid="7098" user="richardm565"/>
  <node id="2547437800" lat="52.2813326" lon="0.4123642" version="2" timestamp="2018-10-11T10:05:07Z" changeset="63410712" uid="84263" user="Robert Whittaker"/>
  <way id="4041751" version="23" timestamp="2025-02-27T19:58:37Z" changeset="163026948" uid="5229644" user="Nathan_A_RF">
    <nd ref="213939"/>
    <nd ref="213938"/>
    <nd ref="213937"/>
    <nd ref="213936"/>
    <nd ref="213935"/>
    <nd ref="213934"/>
    <nd ref="213933"/>
    <nd ref="213931"/>
    <nd ref="213932"/>
    <nd ref="554313"/>
    <nd ref="213930"/>
    <nd ref="213953"/>
    <nd ref="213954"/>
    <nd ref="213955"/>
    <nd ref="213956"/>
    <nd ref="248410028"/>
    <tag k="expressway" v="yes"/>
    <tag k="highway" v="trunk"/>
    <tag k="int_ref" v="E 24"/>
    <tag k="lanes" v="3"/>
    <tag k="lit" v="no"/>
    <tag k="maintenance" v="salting"/>
    <tag k="maxheight" v="default"/>
    <tag k="maxspeed" v="70 mph"/>
    <tag k="maxspeed:type" v="GB:nsl_dual"/>
    <tag k="name" v="Newmarket Bypass"/>
    <tag k="national_highways:area" v="6"/>
    <tag k="oneway" v="yes"/>
    <tag k="operator" v="National Highways"/>
    <tag k="operator:wikidata" v="Q5760006"/>
    <tag k="ref" v="A14"/>
    <tag k="surface" v="asphalt"/>
  </way>
  <way id="4189495" version="5" timestamp="2012-11-09T07:46:51Z" changeset="13805926" uid="4951" user="PeterEastern">
    <nd ref="21774626"/>
    <nd ref="24554526"/>
    <nd ref="24554401"/>
    <nd ref="24554399"/>
    <nd ref="246524781"/>
    <nd ref="24554397"/>
    <nd ref="246521874"/>
    <tag k="highway" v="tertiary"/>
    <tag k="name" v="Snailwell Short Road"/>
    <tag k="source:name" v="OS_OpenData_Locator"/>
  </way>
  <way id="4213418" version="12" timestamp="2025-02-27T20:04:42Z" changeset="163027132" uid="5229644" user="Nathan_A_RF">
    <nd ref="13336610"/>
    <nd ref="12623992383"/>
    <nd ref="13336626"/>
    <nd ref="1147124279"/>
    <nd ref="87863372"/>
    <nd ref="248409981"/>
    <tag k="highway" v="primary"/>
    <tag k="lanes" v="2"/>
    <tag k="maxspeed" v="60 mph"/>
    <tag k="maxspeed:type" v="GB:nsl_single"/>
    <tag k="old_ref" v="A11"/>
    <tag k="ref" v="A1304"/>
    <tag k="surface" v="asphalt"/>
  </way>
  <way id="4232334" version="6" timestamp="2018-10-11T10:05:07Z" changeset="63410712" uid="84263" user="Robert Whittaker">
    <nd ref="24341784"/>
    <nd ref="5974616241"/>
    <nd ref="24554394"/>
    <nd ref="1606709481"/>
    <nd ref="24554392"/>
    <tag k="highway" v="tertiary"/>
    <tag k="maxspeed" v="30 mph"/>
    <tag k="name" v="The Green"/>
  </way>
  <way id="4234827" version="6" timestamp="2020-10-27T08:27:01Z" changeset="93104627" uid="10170579" user="volojusa">
    <nd ref="25253576"/>
    <nd ref="8049681512"/>
    <nd ref="25253575"/>
    <tag k="designation" v="public_footpath"/>
    <tag k="foot" v="designated"/>
    <tag k="highway" v="residential"/>
    <tag k="name" v="Church Lane"/>
    <tag k="prow_ref" v="Snailwell FP 2"/>
    <tag k="source:designation" v="cambridgeshire_county_council_prow_gis_data"/>
    <tag k="source:prow_ref" v="cambridgeshire_county_council_prow_gis_data"/>
  </way>
  <way id="4234828" version="3" timestamp="2013-11-18T22:22:51Z" changeset="18984490" uid="7098" user="richardm565">
    <nd ref="24341777"/>
    <nd ref="2297244330"/>
    <nd ref="2538776437"/>
    <nd ref="25253572"/>
    <tag k="highway" v="residential"/>
    <tag k="name" v="Church Lane"/>
  </way>
  <way id="4234838" version="9" timestamp="2025-03-09T15:31:49Z" changeset="163405573" uid="6647145" user="Flic">
    <nd ref="24341813"/>
    <nd ref="2297244374"/>
    <nd ref="2297244372"/>
    <nd ref="24341769"/>
    <nd ref="24341772"/>
    <nd ref="2297244596"/>
    <nd ref="24341774"/>
    <nd ref="2538776438"/>
    <nd ref="24341777"/>
    <nd ref="24341779"/>
    <nd ref="5974616244"/>
    <nd ref="24341783"/>
    <nd ref="260030000"/>
    <tag k="highway" v="tertiary"/>
    <tag k="lanes" v="2"/>
    <tag k="maxspeed" v="30 mph"/>
    <tag k="name" v="The Street"/>
    <tag k="surface" v="asphalt"/>
  </way>
  <way id="4234839" version="5" timestamp="2018-10-11T10:05:07Z" changeset="63410712" uid="84263" user="Robert Whittaker">
    <nd ref="24341784"/>
    <nd ref="5974616238"/>
    <nd ref="1606709535"/>
    <nd ref="24341789"/>
    <nd ref="5974616242"/>
    <nd ref="1606709508"/>
    <tag k="highway" v="tertiary"/>
    <tag k="maxspeed" v="30 mph"/>
    <tag k="name" v="The Green"/>
  </way>
  <way id="10501653" version="16" timestamp="2024-08-10T07:59:07Z" changeset="155050853" uid="15718999" user="MapSeaDee">
    <nd ref="14912379"/>
    <nd ref="14912380"/>
    <nd ref="213947"/>
    <nd ref="5455079606"/>
    <nd ref="213946"/>
    <nd ref="213945"/>
    <nd ref="5455079618"/>
    <nd ref="5455079615"/>
    <nd ref="213939"/>
    <tag k="expressway" v="yes"/>
    <tag k="highway" v="trunk"/>
    <tag k="int_ref" v="E 24"/>
    <tag k="lanes" v="2"/>
    <tag k="lit" v="no"/>
    <tag k="maxheight" v="default"/>
    <tag k="maxspeed" v="70 mph"/>
    <tag k="maxspeed:type" v="GB:nsl_dual"/>
    <tag k="national_highways:area" v="6"/>
    <tag k="oneway" v="yes"/>
    <tag k="operator" v="National Highways"/>
    <tag k="operator:wikidata" v="Q5760006"/>
    <tag k="ref" v="A14"/>
    <tag k="source:ref" v="local knowledge"/>
    <tag k="surface" v="asphalt"/>
  </way>
  <way id="10501655" version="22" timestamp="2025-02-27T20:04:42Z" changeset="163027132" uid="5229644" user="Nathan_A_RF">
    <nd ref="248410019"/>
    <nd ref="213974"/>
    <nd ref="213975"/>
    <nd ref="213976"/>
    <nd ref="213977"/>
    <nd ref="213929"/>
    <nd ref="554312"/>
    <nd ref="213928"/>
    <nd ref="213927"/>
    <nd ref="213926"/>
    <nd ref="213925"/>
    <nd ref="213924"/>
    <nd ref="213923"/>
    <nd ref="1556285954"/>
    <nd ref="213922"/>
    <nd ref="1556286141"/>
    <nd ref="213921"/>
    <nd ref="213920"/>
    <nd ref="213919"/>
    <nd ref="213918"/>
    <nd ref="12623992385"/>
    <nd ref="213917"/>
    <tag k="expressway" v="yes"/>
    <tag k="highway" v="trunk"/>
    <tag k="int_ref" v="E 24"/>
    <tag k="lanes" v="3"/>
    <tag k="lit" v="no"/>
    <tag k="maintenance" v="salting"/>
    <tag k="maxheight" v="default"/>
    <tag k="maxspeed" v="70 mph"/>
    <tag k="maxspeed:type" v="GB:nsl_dual"/>
    <tag k="name" v="Newmarket Bypass"/>
    <tag k="national_highways:area" v="6"/>
    <tag k="oneway" v="yes"/>
    <tag k="operator" v="National Highways"/>
    <tag k="operator:wikidata" v="Q5760006"/>
    <tag k="ref" v="A14"/>
    <tag k="surface" v="asphalt"/>
  </way>
  <way id="22898886" version="2" timestamp="2011-07-23T18:13:32Z" changeset="8808139" uid="74897" user="Rowland">
    <nd ref="246521874"/>
    <nd ref="246521852"/>
    <tag k="bridge" v="yes"/>
    <tag k="highway" v="tertiary"/>
    <tag k="layer" v="1"/>
    <tag k="name" v="Short Road"/>
  </way>
  <way id="22898887" version="6" timestamp="2021-08-26T12:28:24Z" changeset="110286139" uid="242345" user="confusedbuffalo">
    <nd ref="246521852"/>
    <nd ref="5974618097"/>
    <nd ref="24554396"/>
    <nd ref="2538776434"/>
    <tag k="highway" v="tertiary"/>
    <tag k="maxspeed" v="60 mph"/>
    <tag k="maxspeed:type" v="GB:nsl_single"/>
    <tag k="name" v="Short Road"/>
    <tag k="source:maxspeed" v="sign"/>
  </way>
  <way id="23026757" version="7" timestamp="2025-02-27T20:02:02Z" changeset="163027046" uid="5229644" user="Nathan_A_RF">
    <nd ref="248409983"/>
    <nd ref="4838830985"/>
    <nd ref="248409982"/>
    <nd ref="24966327"/>
    <tag k="highway" v="secondary_link"/>
    <tag k="lanes" v="1"/>
    <tag k="maxspeed" v="30 mph"/>
    <tag k="oneway" v="yes"/>
    <tag k="surface" v="asphalt"/>
  </way>
  <way id="23026874" version="18" timestamp="2025-02-27T19:58:37Z" changeset="163026948" uid="5229644" user="Nathan_A_RF">
    <nd ref="248410025"/>
    <nd ref="213973"/>
    <tag k="expressway" v="yes"/>
    <tag k="highway" v="trunk"/>
    <tag k="int_ref" v="E 24"/>
    <tag k="lanes" v="3"/>
    <tag k="lit" v="no"/>
    <tag k="maintenance" v="salting"/>
    <tag k="maxspeed" v="70 mph"/>
    <tag k="maxspeed:type" v="GB:nsl_dual"/>
    <tag k="name" v="Newmarket Bypass"/>
    <tag k="national_highways:area" v="6"/>
    <tag k="oneway" v="yes"/>
    <tag k="operator" v="National Highways"/>
    <tag k="operator:wikidata" v="Q5760006"/>
    <tag k="ref" v="A14"/>
  </way>
  <way id="23026875" version="20" timestamp="2025-02-27T19:58:37Z" changeset="163026948" uid="5229644" user="Nathan_A_RF">
    <nd ref="213971"/>
    <nd ref="1556256639"/>
    <nd ref="248410025"/>
    <tag k="bridge" v="yes"/>
    <tag k="expressway" v="yes"/>
    <tag k="highway" v="trunk"/>
    <tag k="int_ref" v="E 24"/>
    <tag k="lanes" v="3"/>
    <tag k="layer" v="1"/>
    <tag k="lit" v="no"/>
    <tag k="maintenance" v="salting"/>
    <tag k="maxspeed" v="70 mph"/>
    <tag k="maxspeed:type" v="GB:nsl_dual"/>
    <tag k="maxweight:signed" v="no"/>
    <tag k="name" v="Newmarket Bypass"/>
    <tag k="national_highways:area" v="8"/>
    <tag k="oneway" v="yes"/>
    <tag k="operator" v="National Highways"/>
    <tag k="operator:wikidata" v="Q5760006"/>
    <tag k="ref" v="A14"/>
  </way>
  <way id="23026887" version="21" timestamp="2025-02-27T19:58:37Z" changeset="163026948" uid="5229644" user="Nathan_A_RF">
    <nd ref="248410028"/>
    <nd ref="213957"/>
    <tag k="bridge" v="yes"/>
    <tag k="expressway" v="yes"/>
    <tag k="highway" v="trunk"/>
    <tag k="int_ref" v="E 24"/>
    <tag k="lanes" v="3"/>
    <tag k="layer" v="1"/>
    <tag k="lit" v="no"/>
    <tag k="maintenance" v="salting"/>
    <tag k="maxspeed" v="70 mph"/>
    <tag k="maxspeed:type" v="GB:nsl_dual"/>
    <tag k="maxweight:signed" v="no"/>
    <tag k="name" v="Newmarket Bypass"/>
    <tag k="national_highways:area" v="6"/>
    <tag k="oneway" v="yes"/>
    <tag k="operator" v="National Highways"/>
    <tag k="operator:wikidata" v="Q5760006"/>
    <tag k="ref" v="A14"/>
    <tag k="surface" v="asphalt"/>
  </way>
  <way id="23026888" version="19" timestamp="2025-02-27T19:58:37Z" changeset="163026948" uid="5229644" user="Nathan_A_RF">
    <nd ref="213957"/>
    <nd ref="248410026"/>
    <tag k="expressway" v="yes"/>
    <tag k="highway" v="trunk"/>
    <tag k="int_ref" v="E 24"/>
    <tag k="lanes" v="3"/>
    <tag k="lit" v="no"/>
    <tag k="maintenance" v="salting"/>
    <tag k="maxspeed" v="70 mph"/>
    <tag k="maxspeed:type" v="GB:nsl_dual"/>
    <tag k="name" v="Newmarket Bypass"/>
    <tag k="national_highways:area" v="6"/>
    <tag k="oneway" v="yes"/>
    <tag k="operator" v="National Highways"/>
    <tag k="operator:wikidata" v="Q5760006"/>
    <tag k="ref" v="A14"/>
    <tag k="surface" v="asphalt"/>
  </way>
  <way id="23026889" version="20" timestamp="2025-02-27T19:58:37Z" changeset="163026948" uid="5229644" user="Nathan_A_RF">
    <nd ref="213973"/>
    <nd ref="248410019"/>
    <tag k="bridge" v="yes"/>
    <tag k="expressway" v="yes"/>
    <tag k="highway" v="trunk"/>
    <tag k="int_ref" v="E 24"/>
    <tag k="lanes" v="3"/>
    <tag k="layer" v="1"/>
    <tag k="lit" v="no"/>
    <tag k="maintenance" v="salting"/>
    <tag k="maxspeed" v="70 mph"/>
    <tag k="maxspeed:type" v="GB:nsl_dual"/>
    <tag k="maxweight:signed" v="no"/>
    <tag k="name" v="Newmarket Bypass"/>
    <tag k="national_highways:area" v="6"/>
    <tag k="oneway" v="yes"/>
    <tag k="operator" v="National Highways"/>
    <tag k="operator:wikidata" v="Q5760006"/>
    <tag k="ref" v="A14"/>
  </way>
  <way id="23026891" version="21" timestamp="2025-02-27T19:58:37Z" changeset="163026948" uid="5229644" user="Nathan_A_RF">
    <nd ref="248410026"/>
    <nd ref="248410024"/>
    <tag k="bridge" v="yes"/>
    <tag k="expressway" v="yes"/>
    <tag k="highway" v="trunk"/>
    <tag k="int_ref" v="E 24"/>
    <tag k="lanes" v="3"/>
    <tag k="layer" v="1"/>
    <tag k="lit" v="no"/>
    <tag k="maintenance" v="salting"/>
    <tag k="maxspeed" v="70 mph"/>
    <tag k="maxspeed:type" v="GB:nsl_dual"/>
    <tag k="maxweight:signed" v="no"/>
    <tag k="name" v="Newmarket Bypass"/>
    <tag k="national_highways:area" v="8"/>
    <tag k="oneway" v="yes"/>
    <tag k="operator" v="National Highways"/>
    <tag k="operator:wikidata" v="Q5760006"/>
    <tag k="ref" v="A14"/>
    <tag k="surface" v="asphalt"/>
  </way>
  <way id="39118256" version="7" timestamp="2025-03-15T13:54:03Z" changeset="163651751" uid="5229644" user="Nathan_A_RF">
    <nd ref="24341738"/>
    <nd ref="467767682"/>
    <tag k="bridge" v="yes"/>
    <tag k="cycleway:both" v="no"/>
    <tag k="highway" v="tertiary"/>
    <tag k="lane_markings" v="no"/>
    <tag k="layer" v="1"/>
    <tag k="lit" v="no"/>
    <tag k="maxspeed" v="60 mph"/>
    <tag k="maxspeed:type" v="GB:nsl_single"/>
    <tag k="maxweight" v="7.5"/>
    <tag k="name" v="Fordham Road"/>
    <tag k="surface" v="asphalt"/>
  </way>
  <way id="39118257" version="7" timestamp="2025-03-15T13:54:03Z" changeset="163651751" uid="5229644" user="Nathan_A_RF">
    <nd ref="467767682"/>
    <nd ref="12666738529"/>
    <nd ref="24341735"/>
    <nd ref="24341740"/>
    <nd ref="24341743"/>
    <nd ref="24341746"/>
    <tag k="highway" v="tertiary"/>
    <tag k="maxspeed" v="60 mph"/>
    <tag k="maxspeed:type" v="GB:nsl_single"/>
    <tag k="maxweight" v="7.5"/>
    <tag k="name" v="Fordham Road"/>
  </way>
  <way id="55476565" version="6" timestamp="2025-02-27T20:02:02Z" changeset="163027046" uid="5229644" user="Nathan_A_RF">
    <nd ref="24966326"/>
    <nd ref="12623990197"/>
    <nd ref="248409983"/>
    <nd ref="248409925"/>
    <nd ref="248409981"/>
    <tag k="abutters" v="mixed"/>
    <tag k="highway" v="primary"/>
    <tag k="lanes" v="2"/>
    <tag k="maxspeed" v="30 mph"/>
    <tag k="ref" v="A1304"/>
    <tag k="surface" v="asphalt"/>
  </way>
  <way id="83621502" version="18" timestamp="2025-02-26T17:12:08Z" changeset="162980846" uid="5008136" user="JayTurnr">
    <nd ref="213944"/>
    <nd ref="12620913644"/>
    <nd ref="14911444"/>
    <nd ref="12620913645"/>
    <nd ref="213943"/>
    <nd ref="14911446"/>
    <nd ref="213942"/>
    <nd ref="213941"/>
    <nd ref="12620913646"/>
    <nd ref="213940"/>
    <nd ref="5455079616"/>
    <nd ref="5455079617"/>
    <nd ref="5455079614"/>
    <nd ref="213939"/>
    <tag k="destination:ref" v="A14"/>
    <tag k="expressway" v="yes"/>
    <tag k="foot" v="no"/>
    <tag k="highway" v="trunk"/>
    <tag k="lanes" v="2"/>
    <tag k="lit" v="no"/>
    <tag k="maintenance" v="salting"/>
    <tag k="maxheight" v="default"/>
    <tag k="maxspeed" v="70 mph"/>
    <tag k="maxspeed:type" v="GB:nsl_dual"/>
    <tag k="national_highways:area" v="6"/>
    <tag k="oneway" v="yes"/>
    <tag k="operator" v="National Highways"/>
    <tag k="operator:wikidata" v="Q5760006"/>
    <tag k="ref" v="A11"/>
    <tag k="sidewalk" v="no"/>
    <tag k="surface" v="asphalt"/>
  </way>
  <way id="92484336" version="6" timestamp="2021-08-26T12:28:24Z" changeset="110286139" uid="242345" user="confusedbuffalo">
    <nd ref="2538776432"/>
    <nd ref="1073721406"/>
    <nd ref="248409461"/>
    <nd ref="26065095"/>
    <nd ref="26065096"/>
    <nd ref="24341810"/>
    <nd ref="7615642283"/>
    <nd ref="2538776433"/>
    <nd ref="24341792"/>
    <nd ref="26065097"/>
    <nd ref="1926779399"/>
    <tag k="highway" v="tertiary"/>
    <tag k="maxspeed" v="60 mph"/>
    <tag k="maxspeed:type" v="GB:nsl_single"/>
    <tag k="name" v="Newmarket Road"/>
    <tag k="source:maxspeed" v="sign"/>
  </way>
  <way id="97015675" version="8" timestamp="2025-03-15T13:55:20Z" changeset="163651803" uid="5229644" user="Nathan_A_RF">
    <nd ref="2547437800"/>
    <nd ref="24554391"/>
    <nd ref="24554389"/>
    <nd ref="1667345926"/>
    <nd ref="24554386"/>
    <nd ref="24554385"/>
    <tag k="highway" v="tertiary"/>
    <tag k="maxspeed" v="60 mph"/>
    <tag k="maxspeed:type" v="GB:nsl_single"/>
    <tag k="name" v="Chippenham Road"/>
  </way>
  <way id="177892005" version="6" timestamp="2025-03-09T15:32:11Z" changeset="163405573" uid="6647145" user="Flic">
    <nd ref="24341746"/>
    <nd ref="24341748"/>
    <nd ref="24341751"/>
    <nd ref="24341753"/>
    <nd ref="1606701816"/>
    <nd ref="24341756"/>
    <nd ref="24341759"/>
    <nd ref="1123967899"/>
    <nd ref="24341762"/>
    <nd ref="24341765"/>
    <nd ref="24341813"/>
    <tag k="highway" v="tertiary"/>
    <tag k="lanes" v="2"/>
    <tag k="maxspeed" v="60 mph"/>
    <tag k="maxspeed:type" v="GB:nsl_single"/>
    <tag k="name" v="Fordham Road"/>
    <tag k="source:maxspeed" v="sign"/>
    <tag k="surface" v="asphalt"/>
  </way>
  <way id="182325638" version="6" timestamp="2025-03-09T15:31:07Z" changeset="163405573" uid="6647145" user="Flic">
    <nd ref="1926779399"/>
    <nd ref="2538776435"/>
    <nd ref="1606709540"/>
    <nd ref="5974616239"/>
    <nd ref="5974616243"/>
    <nd ref="24341804"/>
    <tag k="highway" v="tertiary"/>
    <tag k="lanes" v="2"/>
    <tag k="maxspeed" v="30 mph"/>
    <tag k="maxspeed:type" v="sign"/>
    <tag k="name" v="Newmarket Road"/>
    <tag k="surface" v="asphalt"/>
  </way>
  <way id="182325642" version="4" timestamp="2021-04-20T11:57:04Z" changeset="103269014" uid="10455643" user="kotamadh">
    <nd ref="24341804"/>
    <nd ref="1606709508"/>
    <nd ref="8647343061"/>
    <nd ref="5974616245"/>
    <nd ref="24554392"/>
    <nd ref="1667328793"/>
    <nd ref="5974616240"/>
    <nd ref="260029999"/>
    <nd ref="2547437800"/>
    <tag k="highway" v="tertiary"/>
    <tag k="maxspeed" v="30 mph"/>
    <tag k="name" v="The Green"/>
  </way>
  <way id="220629817" version="2" timestamp="2013-11-18T22:22:52Z" changeset="18984490" uid="7098" user="richardm565">
    <nd ref="2297244503"/>
    <nd ref="2297244507"/>
    <nd ref="2297244407"/>
    <nd ref="2297244367"/>
    <nd ref="2297244503"/>
    <tag k="amenity" v="pub"/>
    <tag k="building" v="yes"/>
    <tag k="name" v="George and Dragon"/>
    <tag k="website" v="www.thegeorgeanddragonsnailwell.co.uk"/>
  </way>
  <way id="220629828" version="5" timestamp="2018-12-18T18:27:26Z" changeset="65589365" uid="364" user="Edward">
    <nd ref="2297244428"/>
    <nd ref="2297244307"/>
    <nd ref="2297244614"/>
    <nd ref="2297244520"/>
    <nd ref="2297244492"/>
    <nd ref="2297244635"/>
    <nd ref="2297244515"/>
    <nd ref="2297244202"/>
    <nd ref="2297244310"/>
    <nd ref="2297244198"/>
    <nd ref="2297244274"/>
    <nd ref="2297244213"/>
    <nd ref="2297244206"/>
    <nd ref="2297244461"/>
    <nd ref="2297244486"/>
    <nd ref="2297244375"/>
    <nd ref="2297244441"/>
    <nd ref="2297244447"/>
    <nd ref="2297244631"/>
    <nd ref="2297244616"/>
    <nd ref="2297244230"/>
    <nd ref="2297244428"/>
    <tag k="amenity" v="place_of_worship"/>
    <tag k="building" v="church"/>
    <tag k="denomination" v="anglican"/>
    <tag k="name" v="St Peter"/>
    <tag k="religion" v="christian"/>
    <tag k="wikidata" v="Q17543644"/>
  </way>
  <way id="246912027" version="2" timestamp="2018-10-11T10:03:39Z" changeset="63410712" uid="84263" user="Robert Whittaker">
    <nd ref="5974613445"/>
    <nd ref="1606709540"/>
    <tag k="highway" v="tertiary"/>
    <tag k="maxspeed" v="30 mph"/>
    <tag k="name" v="Newmarket Road"/>
  </way>
  <way id="246912030" version="3" timestamp="2018-10-11T10:03:39Z" changeset="63410712" uid="84263" user="Robert Whittaker">
    <nd ref="2538776434"/>
    <nd ref="5974613434"/>
    <nd ref="25280215"/>
    <nd ref="25280207"/>
    <nd ref="5974613422"/>
    <nd ref="5974613445"/>
    <nd ref="24341804"/>
    <tag k="highway" v="tertiary"/>
    <tag k="maxspeed" v="30 mph"/>
    <tag k="name" v="Short Road"/>
  </way>
  <way id="246912039" version="3" timestamp="2025-03-09T15:31:32Z" changeset="163405573" uid="6647145" user="Flic">
    <nd ref="260030000"/>
    <nd ref="24341784"/>
    <tag k="highway" v="tertiary"/>
    <tag k="lanes" v="2"/>
    <tag k="maxspeed" v="30 mph"/>
    <tag k="name" v="The Green"/>
    <tag k="surface" v="asphalt"/>
  </way>
  <way id="360622755" version="1" timestamp="2015-07-14T22:30:20Z" changeset="32640057" uid="16089" user="Ben Harris">
    <nd ref="3651461072"/>
    <nd ref="3651461073"/>
    <nd ref="3651461074"/>
    <nd ref="3651461075"/>
    <nd ref="3651461072"/>
    <tag k="building" v="yes"/>
    <tag k="name" v="Chippenham Junction"/>
    <tag k="railway" v="signal_box"/>
    <tag k="railway:ref" v="CM"/>
  </way>
  <way id="491795273" version="1" timestamp="2017-05-06T17:02:58Z" changeset="48457051" uid="84263" user="Robert Whittaker">
    <nd ref="25253575"/>
    <nd ref="2297244350"/>
    <nd ref="25253574"/>
    <nd ref="25253573"/>
    <nd ref="25253572"/>
    <nd ref="2297244278"/>
    <nd ref="24341774"/>
    <tag k="highway" v="residential"/>
    <tag k="name" v="Church Lane"/>
  </way>

</osm>
