<?xml version="1.0" encoding="UTF-8"?>
<osm version="0.6" generator="Overpass API 0.7.62.5 1bd436f1">
<note>The data included in this document is from www.openstreetmap.org. The data is made available under ODbL.</note>
<meta osm_base="2025-05-17T10:29:36Z" areas="2024-12-31T00:49:33Z"/>

  <node id="48975121" lat="32.7222733" lon="-117.1642067" version="7" timestamp="2014-02-04T18:23:18Z" changeset="20377334" uid="595221" user="matthieun"/>
  <node id="49047358" lat="32.7209178" lon="-117.1638570" version="6" timestamp="2022-11-03T18:57:22Z" changeset="128451861" uid="340741" user="CRCulver"/>
  <node id="49047362" lat="32.7209072" lon="-117.1673970" version="6" timestamp="2024-12-27T14:40:11Z" changeset="160679321" uid="340741" user="CRCulver">
    <tag k="highway" v="stop"/>
    <tag k="stop" v="all"/>
  </node>
  <node id="49047364" lat="32.7209073" lon="-117.1691983" version="8" timestamp="2024-12-27T14:40:11Z" changeset="160679321" uid="340741" user="CRCulver">
    <tag k="highway" v="stop"/>
    <tag k="stop" v="all"/>
  </node>
  <node id="49097325" lat="32.7302995" lon="-117.1711376" version="6" timestamp="2014-02-04T18:47:09Z" changeset="20377815" uid="595221" user="matthieun">
    <tag k="highway" v="traffic_signals"/>
  </node>
  <node id="49097349" lat="32.7198504" lon="-117.1682959" version="7" timestamp="2022-11-03T18:57:22Z" changeset="128451861" uid="340741" user="CRCulver"/>
  <node id="49248285" lat="32.7188171" lon="-117.1656194" version="7" timestamp="2022-11-03T18:57:22Z" changeset="128451861" uid="340741" user="CRCulver"/>
  <node id="49308684" lat="32.7198801" lon="-117.1638489" version="7" timestamp="2024-12-27T14:40:11Z" changeset="160679321" uid="340741" user="CRCulver"/>
  <node id="49324363" lat="32.7297341" lon="-117.1728711" version="7" timestamp="2019-12-12T05:24:16Z" changeset="78295612" uid="9196087" user="vsahith"/>
  <node id="49326009" lat="32.7300504" lon="-117.1719869" version="6" timestamp="2019-12-12T05:24:16Z" changeset="78295612" uid="9196087" user="vsahith">
    <tag k="highway" v="traffic_signals"/>
  </node>
  <node id="49365359" lat="32.7261243" lon="-117.1702730" version="6" timestamp="2022-10-21T16:24:44Z" changeset="127893094" uid="340741" user="CRCulver"/>
  <node id="49385945" lat="32.7198482" lon="-117.1691976" version="9" timestamp="2020-02-12T11:41:46Z" changeset="80902432" uid="10086293" user="ommundu">
    <tag k="highway" v="traffic_signals"/>
  </node>
  <node id="49429355" lat="32.7198595" lon="-117.1665059" version="6" timestamp="2022-11-03T18:57:22Z" changeset="128451861" uid="340741" user="CRCulver"/>
  <node id="49429399" lat="32.7293448" lon="-117.1688221" version="5" timestamp="2014-02-04T18:47:10Z" changeset="20377815" uid="595221" user="matthieun"/>
  <node id="49581781" lat="32.7198730" lon="-117.1647488" version="7" timestamp="2024-12-27T14:40:11Z" changeset="160679321" uid="340741" user="CRCulver"/>
  <node id="49608591" lat="32.7198665" lon="-117.1656192" version="6" timestamp="2022-11-03T18:57:22Z" changeset="128451861" uid="340741" user="CRCulver"/>
  <node id="49750805" lat="32.7238796" lon="-117.1647554" version="6" timestamp="2024-07-30T18:44:52Z" changeset="154619456" uid="20955436" user="PeterDesignTowers"/>
  <node id="360619615" lat="32.7305281" lon="-117.1707776" version="7" timestamp="2014-02-04T18:47:09Z" changeset="20377815" uid="595221" user="matthieun"/>
  <node id="2802972955" lat="32.7245715" lon="-117.1716696" version="3" timestamp="2022-10-21T16:42:55Z" changeset="127893831" uid="340741" user="CRCulver"/>
  <node id="4341619373" lat="32.7200500" lon="-117.1691977" version="2" timestamp="2020-02-18T22:04:56Z" changeset="81190334" uid="10430344" user="CSanders0"/>
  <node id="4344762329" lat="32.7198914" lon="-117.1687419" version="1" timestamp="2016-08-10T17:41:32Z" changeset="41372202" uid="2748195" user="karitotp"/>
  <node id="4607423410" lat="32.7301439" lon="-117.1720128" version="1" timestamp="2017-01-14T07:18:17Z" changeset="45154573" uid="296869" user="Zian Choy">
    <tag k="crossing" v="traffic_signals"/>
    <tag k="highway" v="crossing"/>
  </node>
  <node id="4607428632" lat="32.7219846" lon="-117.1692921" version="5" timestamp="2024-10-24T22:42:54Z" changeset="158316107" uid="10744284" user="VLD166">
    <tag k="crossing" v="marked"/>
    <tag k="crossing:markings" v="zebra"/>
    <tag k="highway" v="crossing"/>
  </node>
  <node id="4607441613" lat="32.7199149" lon="-117.1692980" version="4" timestamp="2024-12-27T13:30:38Z" changeset="160672664" uid="22137982" user="TeeEn">
    <tag k="button_operated" v="yes"/>
    <tag k="crossing" v="traffic_signals"/>
    <tag k="crossing:markings" v="zebra"/>
    <tag k="crossing:signals" v="yes"/>
    <tag k="highway" v="crossing"/>
    <tag k="tactile_paving" v="yes"/>
  </node>
  <node id="4794438404" lat="32.7219463" lon="-117.1705857" version="2" timestamp="2020-02-18T21:43:28Z" changeset="81189791" uid="10430344" user="CSanders0"/>
  <node id="5546015494" lat="32.7219730" lon="-117.1645337" version="2" timestamp="2020-08-18T15:12:43Z" changeset="89583052" uid="369747" user="crisnoble"/>
  <node id="8913473696" lat="32.7271155" lon="-117.1672671" version="3" timestamp="2024-06-18T06:23:00Z" changeset="152831242" uid="12195445" user="smikhnouski_lyft"/>
  <node id="9211705787" lat="32.7260845" lon="-117.1668761" version="1" timestamp="2021-10-30T07:04:53Z" changeset="113149798" uid="2591427" user="snake21"/>
  <node id="9544267217" lat="32.7270458" lon="-117.1682349" version="1" timestamp="2022-02-28T05:55:42Z" changeset="117929820" uid="11904280" user="vrynkevich_lyft"/>
  <node id="10119213183" lat="32.7208789" lon="-117.1708504" version="2" timestamp="2024-07-22T09:06:58Z" changeset="154252214" uid="11609320" user="telcodude">
    <tag k="crossing" v="uncontrolled"/>
    <tag k="highway" v="crossing"/>
  </node>
  <node id="12185276222" lat="32.7307861" lon="-117.1695792" version="2" timestamp="2024-12-27T14:40:11Z" changeset="160679321" uid="340741" user="CRCulver">
    <tag k="crossing" v="traffic_signals"/>
    <tag k="highway" v="crossing"/>
  </node>
  <way id="5940833" version="22" timestamp="2024-12-01T16:29:56Z" changeset="159812352" uid="22137982" user="TeeEn">
    <nd ref="48890738"/>
    <nd ref="2654249493"/>
    <tag k="bicycle" v="no"/>
    <tag k="destination" v="Front Street;Civic Center;2nd Avenue"/>
    <tag k="highway" v="motorway_link"/>
    <tag k="junction:ref" v="17"/>
    <tag k="lanes" v="2"/>
    <tag k="layer" v="1"/>
    <tag k="oneway" v="yes"/>
    <tag k="surface" v="asphalt"/>
    <tag k="tiger:cfcc" v="A63"/>
    <tag k="tiger:county" v="San Diego, CA"/>
  </way>
  <way id="5949026" version="17" timestamp="2024-12-27T07:43:45Z" changeset="160664055" uid="22137982" user="TeeEn">
    <nd ref="48946678"/>
    <nd ref="48975120"/>
    <nd ref="1832776501"/>
    <nd ref="1832776500"/>
    <nd ref="275659824"/>
    <nd ref="1832776499"/>
    <nd ref="48975121"/>
    <tag k="bicycle" v="no"/>
    <tag k="cycleway:left" v="no"/>
    <tag k="destination:street" v="2nd Avenue"/>
    <tag k="highway" v="motorway_link"/>
    <tag k="lanes" v="1"/>
    <tag k="oneway" v="yes"/>
    <tag k="sidewalk" v="no"/>
    <tag k="surface" v="asphalt"/>
    <tag k="tiger:cfcc" v="A63"/>
    <tag k="tiger:county" v="San Diego, CA"/>
  </way>
  <way id="5955850" version="25" timestamp="2024-12-27T13:34:54Z" changeset="160674811" uid="22137982" user="TeeEn">
    <nd ref="10119213183"/>
    <nd ref="49072928"/>
    <nd ref="1107245526"/>
    <nd ref="1815809498"/>
    <nd ref="1111263515"/>
    <nd ref="12067745961"/>
    <nd ref="49047364"/>
    <tag k="cycleway:both" v="shared_lane"/>
    <tag k="cycleway:right" v="track"/>
    <tag k="highway" v="tertiary"/>
    <tag k="lanes" v="1"/>
    <tag k="name" v="West Beech Street"/>
    <tag k="oneway" v="yes"/>
    <tag k="oneway:bicycle" v="no"/>
    <tag k="sidewalk:left" v="no"/>
    <tag k="surface" v="asphalt"/>
  </way>
  <way id="5960634" version="12" timestamp="2024-12-01T14:39:13Z" changeset="159805301" uid="22137982" user="TeeEn">
    <nd ref="49097802"/>
    <nd ref="10119246956"/>
    <nd ref="10119189371"/>
    <nd ref="49097803"/>
    <tag k="highway" v="residential"/>
    <tag k="name" v="West Fir Street"/>
    <tag k="surface" v="asphalt"/>
    <tag k="tiger:cfcc" v="A41"/>
    <tag k="tiger:county" v="San Diego, CA"/>
    <tag k="tiger:name_base" v="Fir"/>
    <tag k="tiger:name_direction_prefix" v="W"/>
    <tag k="tiger:name_type" v="St"/>
  </way>
  <way id="5961021" version="7" timestamp="2024-12-28T03:30:35Z" changeset="160699459" uid="22137982" user="TeeEn">
    <nd ref="49101390"/>
    <nd ref="10119246959"/>
    <nd ref="10119246960"/>
    <nd ref="10119246995"/>
    <nd ref="10119246986"/>
    <tag k="highway" v="residential"/>
    <tag k="name" v="West Elm Street"/>
    <tag k="surface" v="asphalt"/>
    <tag k="tiger:cfcc" v="A41"/>
    <tag k="tiger:county" v="San Diego, CA"/>
    <tag k="tiger:name_base" v="Elm"/>
    <tag k="tiger:name_direction_prefix" v="W"/>
    <tag k="tiger:name_type" v="St"/>
  </way>
  <way id="5961919" version="12" timestamp="2024-12-27T14:40:11Z" changeset="160679321" uid="340741" user="CRCulver">
    <nd ref="49108989"/>
    <nd ref="5548153270"/>
    <nd ref="12456014291"/>
    <nd ref="49097357"/>
    <nd ref="12456014290"/>
    <nd ref="5548153275"/>
    <nd ref="10119189356"/>
    <nd ref="5548153254"/>
    <nd ref="4607425332"/>
    <nd ref="49108990"/>
    <nd ref="10119189358"/>
    <nd ref="4607425333"/>
    <nd ref="5548153277"/>
    <nd ref="49108991"/>
    <tag k="highway" v="residential"/>
    <tag k="name" v="West Ivy Street"/>
    <tag k="tiger:cfcc" v="A41"/>
    <tag k="tiger:county" v="San Diego, CA"/>
    <tag k="tiger:name_base" v="Ivy"/>
    <tag k="tiger:name_direction_prefix" v="W"/>
    <tag k="tiger:name_type" v="St"/>
  </way>
  <way id="5963211" version="12" timestamp="2024-12-27T14:40:11Z" changeset="160679321" uid="340741" user="CRCulver">
    <nd ref="49097359"/>
    <nd ref="10119189341"/>
    <nd ref="5548153244"/>
    <nd ref="10119189340"/>
    <nd ref="49121331"/>
    <tag k="cycleway" v="shared_lane"/>
    <tag k="highway" v="residential"/>
    <tag k="lanes" v="2"/>
    <tag k="name" v="West Kalmia Street"/>
    <tag k="surface" v="asphalt"/>
    <tag k="tiger:cfcc" v="A41"/>
    <tag k="tiger:county" v="San Diego, CA"/>
    <tag k="tiger:name_base" v="Kalmia"/>
    <tag k="tiger:name_direction_prefix" v="W"/>
    <tag k="tiger:name_type" v="St"/>
  </way>
  <way id="5968936" version="8" timestamp="2024-12-01T14:36:51Z" changeset="159805301" uid="22137982" user="TeeEn">
    <nd ref="49175464"/>
    <nd ref="49175463"/>
    <nd ref="49175461"/>
    <nd ref="5548153263"/>
    <nd ref="49108989"/>
    <tag k="highway" v="residential"/>
    <tag k="lanes" v="1"/>
    <tag k="name" v="Columbia Street"/>
    <tag k="oneway" v="yes"/>
    <tag k="surface" v="asphalt"/>
    <tag k="tiger:cfcc" v="A41"/>
    <tag k="tiger:county" v="San Diego, CA"/>
    <tag k="tiger:name_base" v="Columbia"/>
    <tag k="tiger:name_type" v="St"/>
  </way>
  <way id="5968937" version="10" timestamp="2024-12-31T10:01:23Z" changeset="160822659" uid="22137982" user="TeeEn">
    <nd ref="49429399"/>
    <nd ref="306303590"/>
    <nd ref="306303592"/>
    <nd ref="306303389"/>
    <nd ref="306303595"/>
    <nd ref="306303597"/>
    <nd ref="306303390"/>
    <nd ref="49175468"/>
    <nd ref="49175471"/>
    <nd ref="49108989"/>
    <tag k="cycleway:left" v="no"/>
    <tag k="highway" v="secondary"/>
    <tag k="name" v="Columbia Street"/>
    <tag k="oneway" v="yes"/>
    <tag k="surface" v="asphalt"/>
    <tag k="tiger:cfcc" v="A41"/>
    <tag k="tiger:county" v="San Diego, CA"/>
    <tag k="tiger:name_base" v="Columbia"/>
    <tag k="tiger:name_type" v="St"/>
    <tag k="tiger:separated" v="no"/>
    <tag k="tiger:source" v="tiger_import_dch_v0.6_20070809"/>
    <tag k="tiger:tlid" v="195343241"/>
  </way>
  <way id="5976032" version="14" timestamp="2024-12-27T14:40:11Z" changeset="160679321" uid="340741" user="CRCulver">
    <nd ref="49175464"/>
    <nd ref="5548153262"/>
    <nd ref="4607425336"/>
    <nd ref="49097358"/>
    <nd ref="4607425335"/>
    <nd ref="5548153229"/>
    <nd ref="4607425334"/>
    <nd ref="10119189346"/>
    <nd ref="49245998"/>
    <nd ref="10119189348"/>
    <nd ref="4607425337"/>
    <nd ref="5548153251"/>
    <nd ref="49246000"/>
    <tag k="highway" v="residential"/>
    <tag k="lanes" v="2"/>
    <tag k="name" v="West Juniper Street"/>
    <tag k="oneway" v="no"/>
    <tag k="surface" v="asphalt"/>
    <tag k="tiger:cfcc" v="A41"/>
    <tag k="tiger:county" v="San Diego, CA"/>
    <tag k="tiger:name_base" v="Juniper"/>
    <tag k="tiger:name_direction_prefix" v="W"/>
    <tag k="tiger:name_type" v="St"/>
  </way>
  <way id="5990430" version="26" timestamp="2025-03-21T09:18:38Z" changeset="163895817" uid="22052511" user="ihorkovtun_lyft">
    <nd ref="49365359"/>
    <nd ref="10119189365"/>
    <nd ref="5546090426"/>
    <nd ref="1815809534"/>
    <nd ref="49072936"/>
    <nd ref="49324359"/>
    <tag k="highway" v="secondary"/>
    <tag k="lanes" v="3"/>
    <tag k="name" v="West Hawthorn Street"/>
    <tag k="oneway" v="yes"/>
    <tag k="sidewalk:both" v="separate"/>
    <tag k="surface" v="asphalt"/>
    <tag k="tiger:cfcc" v="A41"/>
    <tag k="tiger:county" v="San Diego, CA"/>
    <tag k="tiger:name_base" v="Hawthorn"/>
    <tag k="tiger:name_direction_prefix" v="W"/>
    <tag k="tiger:name_type" v="St"/>
  </way>
  <way id="5996009" version="14" timestamp="2024-10-25T14:59:22Z" changeset="158342024" uid="20828150" user="VLD316">
    <nd ref="49135031"/>
    <nd ref="11309725152"/>
    <nd ref="5546015494"/>
    <tag k="highway" v="residential"/>
    <tag k="lanes" v="2"/>
    <tag k="name" v="Cedar Street"/>
    <tag k="oneway" v="yes"/>
    <tag k="sidewalk:both" v="separate"/>
    <tag k="tiger:cfcc" v="A41"/>
    <tag k="tiger:county" v="San Diego, CA"/>
    <tag k="tiger:name_base" v="Cedar"/>
    <tag k="tiger:name_direction_prefix" v="W"/>
    <tag k="tiger:name_type" v="St"/>
    <tag k="turn:lanes" v="left|left"/>
  </way>
  <way id="5997147" version="14" timestamp="2024-12-27T14:40:11Z" changeset="160679321" uid="340741" user="CRCulver">
    <nd ref="49420400"/>
    <nd ref="6931373573"/>
    <nd ref="12456014288"/>
    <nd ref="1042364591"/>
    <tag k="highway" v="residential"/>
    <tag k="name" v="West Date Street"/>
    <tag k="oneway" v="yes"/>
    <tag k="sidewalk:both" v="separate"/>
    <tag k="surface" v="asphalt"/>
    <tag k="tiger:cfcc" v="A41"/>
    <tag k="tiger:county" v="San Diego, CA"/>
    <tag k="tiger:name_base" v="Date"/>
    <tag k="tiger:name_direction_prefix" v="W"/>
    <tag k="tiger:name_type" v="St"/>
  </way>
  <way id="6024091" version="24" timestamp="2024-12-27T07:43:37Z" changeset="160664055" uid="22137982" user="TeeEn">
    <nd ref="48968814"/>
    <nd ref="2800750762"/>
    <tag k="cycleway:left" v="no"/>
    <tag k="highway" v="motorway_link"/>
    <tag k="lanes" v="2"/>
    <tag k="maxspeed" v="25 mph"/>
    <tag k="name" v="Front Street"/>
    <tag k="oneway" v="yes"/>
    <tag k="sidewalk" v="no"/>
    <tag k="source:maxspeed" v="sign"/>
    <tag k="tiger:cfcc" v="A41"/>
    <tag k="tiger:county" v="San Diego, CA"/>
    <tag k="tiger:name_base" v="Front"/>
    <tag k="tiger:name_type" v="St"/>
  </way>
  <way id="25301208" version="18" timestamp="2024-12-27T14:40:11Z" changeset="160679321" uid="340741" user="CRCulver">
    <nd ref="49097325"/>
    <nd ref="12456014279"/>
    <nd ref="49097326"/>
    <nd ref="275592045"/>
    <nd ref="49097328"/>
    <nd ref="49097330"/>
    <nd ref="49097331"/>
    <nd ref="9995581508"/>
    <tag k="cycleway:right" v="lane"/>
    <tag k="cycleway:right:buffer" v="no"/>
    <tag k="foot" v="no"/>
    <tag k="highway" v="secondary"/>
    <tag k="lanes" v="2"/>
    <tag k="name" v="India Street"/>
    <tag k="oneway" v="yes"/>
    <tag k="surface" v="asphalt"/>
  </way>
  <way id="25307031" version="17" timestamp="2024-12-27T07:44:03Z" changeset="160664055" uid="22137982" user="TeeEn">
    <nd ref="9295586846"/>
    <nd ref="275658401"/>
    <nd ref="49750805"/>
    <tag k="bicycle" v="no"/>
    <tag k="cycleway:left" v="no"/>
    <tag k="destination:ref" v="I 5 South"/>
    <tag k="highway" v="motorway_link"/>
    <tag k="lanes" v="1"/>
    <tag k="oneway" v="yes"/>
    <tag k="sidewalk" v="no"/>
    <tag k="surface" v="asphalt"/>
    <tag k="tiger:cfcc" v="A63"/>
    <tag k="tiger:county" v="San Diego, CA"/>
  </way>
  <way id="25307055" version="14" timestamp="2024-12-27T07:43:38Z" changeset="160664055" uid="22137982" user="TeeEn">
    <nd ref="48946680"/>
    <nd ref="1042364805"/>
    <nd ref="275659235"/>
    <nd ref="275659236"/>
    <nd ref="275659237"/>
    <nd ref="7942631017"/>
    <nd ref="48968814"/>
    <tag k="bicycle" v="no"/>
    <tag k="cycleway:left" v="no"/>
    <tag k="destination" v="Front Street;Civic Center"/>
    <tag k="highway" v="motorway_link"/>
    <tag k="lanes" v="2"/>
    <tag k="oneway" v="yes"/>
    <tag k="sidewalk" v="no"/>
    <tag k="surface" v="asphalt"/>
  </way>
  <way id="25330667" version="8" timestamp="2024-12-27T07:44:11Z" changeset="160664055" uid="22137982" user="TeeEn">
    <nd ref="275987220"/>
    <nd ref="275987467"/>
    <nd ref="275987468"/>
    <nd ref="275987469"/>
    <nd ref="275987471"/>
    <nd ref="275987472"/>
    <nd ref="275658400"/>
    <tag k="bicycle" v="no"/>
    <tag k="cycleway:left" v="no"/>
    <tag k="destination" v="I 5 South"/>
    <tag k="highway" v="motorway_link"/>
    <tag k="oneway" v="yes"/>
    <tag k="sidewalk" v="no"/>
    <tag k="surface" v="asphalt"/>
  </way>
  <way id="25330671" version="12" timestamp="2024-12-27T07:44:35Z" changeset="160664055" uid="22137982" user="TeeEn">
    <nd ref="48946689"/>
    <nd ref="48946686"/>
    <nd ref="48946684"/>
    <nd ref="48946680"/>
    <tag k="bicycle" v="no"/>
    <tag k="cycleway:left" v="no"/>
    <tag k="destination" v="Civic Center"/>
    <tag k="destination:lanes" v="2nd Avenue;Front Street;Civic Center|Front Street;Civic Center"/>
    <tag k="destination:street" v="2nd Avenue;Front Street"/>
    <tag k="highway" v="motorway_link"/>
    <tag k="lanes" v="2"/>
    <tag k="oneway" v="yes"/>
    <tag k="sidewalk" v="no"/>
    <tag k="surface" v="asphalt"/>
    <tag k="tiger:cfcc" v="A63"/>
    <tag k="tiger:county" v="San Diego, CA"/>
    <tag k="turn:lanes" v="slight_left;through|none"/>
  </way>
  <way id="25330679" version="16" timestamp="2024-12-27T07:44:31Z" changeset="160664055" uid="22137982" user="TeeEn">
    <nd ref="275987651"/>
    <nd ref="48890741"/>
    <nd ref="48946693"/>
    <nd ref="48946689"/>
    <tag k="bicycle" v="no"/>
    <tag k="bridge" v="yes"/>
    <tag k="cycleway:left" v="no"/>
    <tag k="destination" v="Civic Center"/>
    <tag k="destination:street" v="2nd Avenue;Front Street"/>
    <tag k="highway" v="motorway_link"/>
    <tag k="lanes" v="2"/>
    <tag k="layer" v="1"/>
    <tag k="oneway" v="yes"/>
    <tag k="sidewalk" v="no"/>
    <tag k="surface" v="asphalt"/>
    <tag k="tiger:cfcc" v="A63"/>
    <tag k="tiger:county" v="San Diego, CA"/>
  </way>
  <way id="25518651" version="16" timestamp="2024-12-27T07:43:48Z" changeset="160664055" uid="22137982" user="TeeEn">
    <nd ref="48975121"/>
    <nd ref="596432251"/>
    <nd ref="48975122"/>
    <nd ref="48975123"/>
    <nd ref="2654205185"/>
    <nd ref="3657269525"/>
    <tag k="bicycle" v="no"/>
    <tag k="bridge" v="yes"/>
    <tag k="cycleway:left" v="no"/>
    <tag k="destination:street" v="2nd Avenue"/>
    <tag k="highway" v="motorway_link"/>
    <tag k="lanes" v="1"/>
    <tag k="layer" v="1"/>
    <tag k="oneway" v="yes"/>
    <tag k="sidewalk" v="no"/>
    <tag k="surface" v="concrete"/>
    <tag k="tiger:cfcc" v="A63"/>
    <tag k="tiger:county" v="San Diego, CA"/>
  </way>
  <way id="25964961" version="17" timestamp="2024-12-31T10:01:16Z" changeset="160822659" uid="22137982" user="TeeEn">
    <nd ref="9544267217"/>
    <nd ref="49429377"/>
    <nd ref="49429379"/>
    <nd ref="49429382"/>
    <nd ref="48873099"/>
    <nd ref="306303483"/>
    <nd ref="49429389"/>
    <nd ref="49246025"/>
    <nd ref="49429397"/>
    <nd ref="306303486"/>
    <nd ref="49429399"/>
    <tag k="cycleway:left" v="no"/>
    <tag k="highway" v="secondary"/>
    <tag k="lanes" v="1"/>
    <tag k="name" v="State Street"/>
    <tag k="oneway" v="yes"/>
    <tag k="surface" v="asphalt"/>
    <tag k="tiger:cfcc" v="A41"/>
    <tag k="tiger:county" v="San Diego, CA"/>
    <tag k="tiger:name_base" v="State"/>
    <tag k="tiger:name_type" v="St"/>
  </way>
  <way id="27897993" version="24" timestamp="2024-12-27T07:42:33Z" changeset="160664055" uid="22137982" user="TeeEn">
    <nd ref="49750805"/>
    <nd ref="12083790108"/>
    <nd ref="48946676"/>
    <nd ref="12083790107"/>
    <nd ref="49750808"/>
    <nd ref="12083790106"/>
    <nd ref="275660151"/>
    <nd ref="12083790105"/>
    <nd ref="275660279"/>
    <nd ref="12083790104"/>
    <nd ref="49750813"/>
    <nd ref="12083790103"/>
    <nd ref="360618696"/>
    <tag k="bicycle" v="no"/>
    <tag k="cycleway:left" v="no"/>
    <tag k="hgv" v="designated"/>
    <tag k="highway" v="motorway"/>
    <tag k="lanes" v="5"/>
    <tag k="maxheight:signed" v="no"/>
    <tag k="maxspeed" v="65 mph"/>
    <tag k="maxspeed:hgv" v="55 mph"/>
    <tag k="maxspeed:trailer" v="55 mph"/>
    <tag k="name" v="San Diego Freeway"/>
    <tag k="oneway" v="yes"/>
    <tag k="ref" v="I 5"/>
    <tag k="source:maxspeed" v="sign"/>
    <tag k="surface" v="concrete"/>
    <tag k="tiger:cfcc" v="A15"/>
    <tag k="tiger:county" v="San Diego, CA"/>
    <tag k="tiger:name_base" v="I-5"/>
    <tag k="tiger:name_base_1" v="San Diego"/>
    <tag k="tiger:name_type_1" v="Fwy"/>
  </way>
  <way id="27897996" version="17" timestamp="2024-12-27T07:42:26Z" changeset="160664055" uid="22137982" user="TeeEn">
    <nd ref="306302184"/>
    <nd ref="306302165"/>
    <tag k="bicycle" v="no"/>
    <tag k="bridge" v="yes"/>
    <tag k="cycleway:left" v="no"/>
    <tag k="hgv" v="designated"/>
    <tag k="highway" v="motorway"/>
    <tag k="lanes" v="4"/>
    <tag k="layer" v="1"/>
    <tag k="maxspeed" v="65 mph"/>
    <tag k="maxspeed:hgv" v="55 mph"/>
    <tag k="maxspeed:trailer" v="55 mph"/>
    <tag k="name" v="San Diego Freeway"/>
    <tag k="oneway" v="yes"/>
    <tag k="ref" v="I 5"/>
    <tag k="source:maxspeed" v="sign"/>
    <tag k="surface" v="concrete"/>
    <tag k="tiger:cfcc" v="A15"/>
    <tag k="tiger:county" v="San Diego, CA"/>
    <tag k="tiger:name_base" v="I-5"/>
    <tag k="tiger:name_base_1" v="San Diego"/>
    <tag k="tiger:name_type_1" v="Fwy"/>
  </way>
  <way id="27898001" version="23" timestamp="2024-12-27T07:41:56Z" changeset="160664055" uid="22137982" user="TeeEn">
    <nd ref="49750793"/>
    <nd ref="49750796"/>
    <tag k="bicycle" v="no"/>
    <tag k="cycleway:left" v="no"/>
    <tag k="hgv" v="designated"/>
    <tag k="highway" v="motorway"/>
    <tag k="lanes" v="5"/>
    <tag k="layer" v="1"/>
    <tag k="maxspeed" v="65 mph"/>
    <tag k="maxspeed:hgv" v="55 mph"/>
    <tag k="maxspeed:trailer" v="55 mph"/>
    <tag k="name" v="San Diego Freeway"/>
    <tag k="oneway" v="yes"/>
    <tag k="ref" v="I 5"/>
    <tag k="source:maxspeed" v="sign"/>
    <tag k="surface" v="concrete"/>
    <tag k="tiger:cfcc" v="A15"/>
    <tag k="tiger:county" v="San Diego, CA"/>
    <tag k="tiger:name_base" v="I-5"/>
    <tag k="tiger:name_base_1" v="San Diego"/>
    <tag k="tiger:name_type_1" v="Fwy"/>
  </way>
  <way id="27898014" version="16" timestamp="2024-12-27T07:42:23Z" changeset="160664055" uid="22137982" user="TeeEn">
    <nd ref="306302881"/>
    <nd ref="306302184"/>
    <tag k="bicycle" v="no"/>
    <tag k="cycleway:left" v="no"/>
    <tag k="hgv" v="designated"/>
    <tag k="highway" v="motorway"/>
    <tag k="lanes" v="4"/>
    <tag k="maxspeed" v="65 mph"/>
    <tag k="maxspeed:hgv" v="55 mph"/>
    <tag k="maxspeed:trailer" v="55 mph"/>
    <tag k="name" v="San Diego Freeway"/>
    <tag k="oneway" v="yes"/>
    <tag k="ref" v="I 5"/>
    <tag k="source:maxspeed" v="sign"/>
    <tag k="surface" v="concrete"/>
    <tag k="tiger:cfcc" v="A15"/>
    <tag k="tiger:county" v="San Diego, CA"/>
    <tag k="tiger:name_base" v="I-5"/>
    <tag k="tiger:name_base_1" v="San Diego"/>
    <tag k="tiger:name_type_1" v="Fwy"/>
  </way>
  <way id="27898023" version="14" timestamp="2024-12-27T07:44:20Z" changeset="160664055" uid="22137982" user="TeeEn">
    <nd ref="306303238"/>
    <nd ref="275987651"/>
    <tag k="bicycle" v="no"/>
    <tag k="cycleway:left" v="no"/>
    <tag k="destination" v="Civic Center"/>
    <tag k="destination:street" v="2nd Avenue;Front Street"/>
    <tag k="highway" v="motorway_link"/>
    <tag k="lanes" v="2"/>
    <tag k="oneway" v="yes"/>
    <tag k="sidewalk" v="no"/>
    <tag k="surface" v="asphalt"/>
    <tag k="tiger:cfcc" v="A63"/>
    <tag k="tiger:county" v="San Diego, CA"/>
  </way>
  <way id="28840603" version="20" timestamp="2024-12-28T03:29:57Z" changeset="160699459" uid="22137982" user="TeeEn">
    <nd ref="10119189394"/>
    <nd ref="10119189372"/>
    <nd ref="49097803"/>
    <tag k="highway" v="secondary"/>
    <tag k="lanes" v="3"/>
    <tag k="name" v="Columbia Street"/>
    <tag k="oneway" v="yes"/>
    <tag k="sidewalk:right" v="separate"/>
    <tag k="surface" v="asphalt"/>
    <tag k="tiger:cfcc" v="A41"/>
    <tag k="tiger:county" v="San Diego, CA"/>
    <tag k="tiger:name_base" v="Columbia"/>
    <tag k="tiger:name_type" v="St"/>
  </way>
  <way id="28840714" version="8" timestamp="2024-12-27T14:40:11Z" changeset="160679321" uid="340741" user="CRCulver">
    <nd ref="49097325"/>
    <nd ref="12456014278"/>
    <nd ref="2654249502"/>
    <nd ref="49097360"/>
    <nd ref="11396956017"/>
    <nd ref="49097361"/>
    <nd ref="49097362"/>
    <nd ref="49097363"/>
    <tag k="highway" v="residential"/>
    <tag k="lanes" v="1"/>
    <tag k="name" v="India Street"/>
    <tag k="oneway" v="yes"/>
    <tag k="surface" v="asphalt"/>
    <tag k="tiger:cfcc" v="A41"/>
    <tag k="tiger:county" v="San Diego, CA"/>
    <tag k="tiger:name_base" v="India"/>
    <tag k="tiger:name_type" v="St"/>
    <tag k="tiger:reviewed" v="no"/>
  </way>
  <way id="30407390" version="6" timestamp="2024-08-25T13:30:02Z" changeset="155736958" uid="3199858" user="Mateusz Konieczny - bot account">
    <nd ref="335580020"/>
    <nd ref="335580021"/>
    <nd ref="335580022"/>
    <nd ref="5836926620"/>
    <nd ref="335580023"/>
    <nd ref="335580024"/>
    <nd ref="335580025"/>
    <nd ref="335580026"/>
    <nd ref="335580020"/>
    <tag k="addr:housenumber" v="1572"/>
    <tag k="addr:postcode" v="92101"/>
    <tag k="addr:street" v="Columbia Street"/>
    <tag k="building" v="yes"/>
    <tag k="ele" v="15"/>
    <tag k="email" v="sdfirehousemuseum@gmail.com"/>
    <tag k="gnis:feature_id" v="1869944"/>
    <tag k="name" v="Firehouse Museum"/>
    <tag k="opening_hours" v="Th,Fr 10:00-14:00; Sa,Su 10:00-16:00"/>
    <tag k="phone" v="+1 619 232 3473"/>
    <tag k="source" v="USGS Geonames;SanGIS Addresses Public Domain (http://www.sangis.org/)"/>
    <tag k="tourism" v="museum"/>
    <tag k="website" v="http://www.sandiegofirehousemuseum.com/"/>
    <tag k="wikidata" v="Q64167289"/>
  </way>
  <way id="31807553" version="3" timestamp="2022-06-25T04:06:36Z" changeset="122824216" uid="115918" user="Timothy Smith">
    <nd ref="356099897"/>
    <nd ref="356091931"/>
    <nd ref="356076641"/>
    <nd ref="356132832"/>
    <nd ref="356099897"/>
    <tag k="amenity" v="fuel"/>
    <tag k="brand" v="Chevron"/>
    <tag k="brand:wikidata" v="Q319642"/>
    <tag k="building" v="yes"/>
    <tag k="building_type" v="commercial"/>
    <tag k="name" v="Chevron"/>
    <tag k="operator" v="Chevron"/>
    <tag k="sangis:OBJECTID" v="4965"/>
    <tag k="sangis:TYPE" v="Commercial"/>
    <tag k="source" v="SanGIS Footprints_Nonresidential_SD public domain (http://www.sangis.org/)"/>
  </way>
  <way id="31808106" version="2" timestamp="2019-04-26T01:02:50Z" changeset="69583786" uid="9676438" user="unstatusthequo">
    <nd ref="356105704"/>
    <nd ref="356140493"/>
    <nd ref="356075654"/>
    <nd ref="356130144"/>
    <nd ref="356105704"/>
    <tag k="addr:city" v="San Diego"/>
    <tag k="addr:housenumber" v="1440"/>
    <tag k="addr:postcode" v="92101"/>
    <tag k="addr:state" v="CA"/>
    <tag k="addr:street" v="Columbia Street"/>
    <tag k="building" v="apartments"/>
    <tag k="building:levels" v="24"/>
    <tag k="building_type" v="office"/>
    <tag k="name" v="Luma Apartments - LMC"/>
    <tag k="sangis:OBJECTID" v="5246"/>
    <tag k="sangis:TYPE" v="Office"/>
    <tag k="source" v="SanGIS Footprints_Nonresidential_SD public domain (http://www.sangis.org/)"/>
  </way>
  <way id="31808248" version="2" timestamp="2022-05-04T01:50:40Z" changeset="120520837" uid="15827100" user="Osmdev5151">
    <nd ref="356127975"/>
    <nd ref="356097000"/>
    <nd ref="356110476"/>
    <nd ref="356078090"/>
    <nd ref="356085292"/>
    <nd ref="356134090"/>
    <nd ref="356127975"/>
    <tag k="addr:city" v="San Diego"/>
    <tag k="addr:housenumber" v="1747"/>
    <tag k="addr:postcode" v="92101"/>
    <tag k="addr:state" v="CA"/>
    <tag k="addr:street" v="India Street"/>
    <tag k="amenity" v="restaurant"/>
    <tag k="building" v="yes"/>
    <tag k="building_type" v="commercial"/>
    <tag k="cuisine" v="italian"/>
    <tag k="name" v="Filipi's Pizza Grotto"/>
    <tag k="sangis:OBJECTID" v="5172"/>
    <tag k="sangis:TYPE" v="Commercial"/>
    <tag k="source" v="SanGIS Footprints_Nonresidential_SD public domain (http://www.sangis.org/)"/>
  </way>
  <way id="31809004" version="3" timestamp="2024-12-01T14:42:35Z" changeset="159808804" uid="22137982" user="TeeEn">
    <nd ref="356097205"/>
    <nd ref="356114932"/>
    <nd ref="356119174"/>
    <nd ref="356130365"/>
    <nd ref="356137166"/>
    <nd ref="356142466"/>
    <nd ref="356080414"/>
    <nd ref="356088502"/>
    <nd ref="356097606"/>
    <nd ref="356114808"/>
    <nd ref="356124363"/>
    <nd ref="356134294"/>
    <nd ref="356140805"/>
    <nd ref="356077682"/>
    <nd ref="356083901"/>
    <nd ref="356094347"/>
    <nd ref="356101841"/>
    <nd ref="356120179"/>
    <nd ref="356130461"/>
    <nd ref="356137333"/>
    <nd ref="356077646"/>
    <nd ref="356080622"/>
    <nd ref="356088752"/>
    <nd ref="356097665"/>
    <nd ref="356111531"/>
    <nd ref="356124430"/>
    <nd ref="356132619"/>
    <nd ref="356141152"/>
    <nd ref="356079643"/>
    <nd ref="356084166"/>
    <nd ref="356094280"/>
    <nd ref="356102403"/>
    <nd ref="356113557"/>
    <nd ref="356129606"/>
    <nd ref="356137830"/>
    <nd ref="356076544"/>
    <nd ref="356084339"/>
    <nd ref="356087247"/>
    <nd ref="356097205"/>
    <tag k="amenity" v="school"/>
    <tag k="building" v="yes"/>
    <tag k="building_type" v="education"/>
    <tag k="check_date" v="2024-12-01"/>
    <tag k="name" v="Washington Elementary School"/>
    <tag k="sangis:OBJECTID" v="4946"/>
    <tag k="sangis:TYPE" v="Education"/>
    <tag k="source" v="SanGIS Footprints_Nonresidential_SD public domain (http://www.sangis.org/)"/>
  </way>
  <way id="31809127" version="3" timestamp="2016-03-20T00:10:32Z" changeset="37948087" uid="3686832" user="fossosm">
    <nd ref="356111123"/>
    <nd ref="356098771"/>
    <nd ref="356089917"/>
    <nd ref="356096593"/>
    <nd ref="356077139"/>
    <nd ref="356138757"/>
    <nd ref="356124437"/>
    <nd ref="356111123"/>
    <tag k="addr:city" v="San Diego"/>
    <tag k="addr:housenumber" v="1731"/>
    <tag k="addr:postcode" v="92101"/>
    <tag k="addr:state" v="CA"/>
    <tag k="addr:street" v="Kettner Boulevard"/>
    <tag k="building" v="commercial"/>
    <tag k="building_type" v="office"/>
    <tag k="name" v="Component Control"/>
    <tag k="sangis:OBJECTID" v="5169"/>
    <tag k="sangis:TYPE" v="Office"/>
    <tag k="source" v="SanGIS Footprints_Nonresidential_SD public domain (http://www.sangis.org/)"/>
  </way>
  <way id="31841984" version="7" timestamp="2021-07-24T23:02:57Z" changeset="108548780" uid="10875409" user="Friendly_Ghost">
    <nd ref="356467096"/>
    <nd ref="356353993"/>
    <nd ref="4548330995"/>
    <nd ref="356329632"/>
    <nd ref="356459978"/>
    <nd ref="356440507"/>
    <nd ref="565517969"/>
    <nd ref="356498375"/>
    <nd ref="356486145"/>
    <nd ref="356363027"/>
    <nd ref="4548329649"/>
    <nd ref="356344603"/>
    <nd ref="356403449"/>
    <nd ref="356381703"/>
    <nd ref="356377655"/>
    <nd ref="356467096"/>
    <tag k="addr:city" v="San Diego"/>
    <tag k="addr:housenumber" v="610"/>
    <tag k="addr:street" v="West Ash Street"/>
    <tag k="building" v="office"/>
    <tag k="building:levels" v="19"/>
    <tag k="height" v="76 m"/>
    <tag k="name" v="610 West Ash Building"/>
    <tag k="sangis:OBJECTID" v="14489"/>
    <tag k="sangis:TYPE" v="Office"/>
    <tag k="source" v="SanGIS Footprints_Nonresidential_SD public domain (http://www.sangis.org/)"/>
  </way>
  <way id="31842242" version="5" timestamp="2022-11-17T01:29:05Z" changeset="129017729" uid="2087961" user="JasonBob">
    <nd ref="356436364"/>
    <nd ref="10196052680"/>
    <nd ref="356532848"/>
    <nd ref="356351685"/>
    <nd ref="356380769"/>
    <nd ref="356532308"/>
    <nd ref="356436364"/>
    <tag k="addr:city" v="San Diego"/>
    <tag k="addr:housenumber" v="1735"/>
    <tag k="addr:postcode" v="92101"/>
    <tag k="addr:state" v="CA"/>
    <tag k="addr:street" v="India Street"/>
    <tag k="amenity" v="restaurant"/>
    <tag k="building" v="yes"/>
    <tag k="building_type" v="commercial"/>
    <tag k="cuisine" v="italian"/>
    <tag k="name" v="Cafe Zucchero"/>
    <tag k="sangis:OBJECTID" v="14487"/>
    <tag k="sangis:TYPE" v="Commercial"/>
    <tag k="source" v="SanGIS Footprints_Nonresidential_SD public domain (http://www.sangis.org/)"/>
  </way>
  <way id="31843343" version="2" timestamp="2016-04-28T21:49:28Z" changeset="38968488" uid="3478684" user="GoWestTravel">
    <nd ref="356379316"/>
    <nd ref="356446923"/>
    <nd ref="356458931"/>
    <nd ref="356491504"/>
    <nd ref="356469921"/>
    <nd ref="356351083"/>
    <nd ref="356360050"/>
    <nd ref="356349229"/>
    <nd ref="356412869"/>
    <nd ref="356386137"/>
    <nd ref="356446262"/>
    <nd ref="356422399"/>
    <nd ref="356497364"/>
    <nd ref="356379316"/>
    <tag k="building" v="yes"/>
    <tag k="building_type" v="office"/>
    <tag k="name" v="ITH Eco Farm House San Diego"/>
    <tag k="sangis:OBJECTID" v="14436"/>
    <tag k="sangis:TYPE" v="Office"/>
    <tag k="source" v="SanGIS Footprints_Nonresidential_SD public domain (http://www.sangis.org/)"/>
    <tag k="tourism" v="hotel"/>
  </way>
  <way id="31845898" version="3" timestamp="2022-05-04T01:50:40Z" changeset="120520837" uid="15827100" user="Osmdev5151">
    <nd ref="356532308"/>
    <nd ref="356380769"/>
    <nd ref="356351685"/>
    <nd ref="356530416"/>
    <nd ref="356534725"/>
    <nd ref="356534107"/>
    <nd ref="356134090"/>
    <nd ref="356532904"/>
    <nd ref="356532391"/>
    <nd ref="356532308"/>
    <tag k="addr:city" v="San Diego"/>
    <tag k="addr:housenumber" v="1743"/>
    <tag k="addr:postcode" v="92101"/>
    <tag k="addr:state" v="CA"/>
    <tag k="addr:street" v="India Street"/>
    <tag k="amenity" v="restaurant"/>
    <tag k="building" v="yes"/>
    <tag k="building_type" v="commercial"/>
    <tag k="cuisine" v="italian"/>
    <tag k="name" v="Mimmo's Italian Village"/>
    <tag k="sangis:OBJECTID" v="14647"/>
    <tag k="sangis:TYPE" v="Commercial"/>
    <tag k="source" v="SanGIS Footprints_Nonresidential_SD public domain (http://www.sangis.org/)"/>
  </way>
  <way id="32125588" version="16" timestamp="2024-12-27T07:41:53Z" changeset="160664055" uid="22137982" user="TeeEn">
    <nd ref="360619484"/>
    <nd ref="49750793"/>
    <tag k="bicycle" v="no"/>
    <tag k="cycleway:left" v="no"/>
    <tag k="hgv" v="designated"/>
    <tag k="highway" v="motorway"/>
    <tag k="lanes" v="5"/>
    <tag k="maxspeed" v="65 mph"/>
    <tag k="maxspeed:hgv" v="55 mph"/>
    <tag k="maxspeed:trailer" v="55 mph"/>
    <tag k="name" v="San Diego Freeway"/>
    <tag k="oneway" v="yes"/>
    <tag k="ref" v="I 5"/>
    <tag k="source:maxspeed" v="sign"/>
    <tag k="surface" v="concrete"/>
    <tag k="tiger:cfcc" v="A15"/>
    <tag k="tiger:county" v="San Diego, CA"/>
    <tag k="tiger:name_base" v="I-5"/>
    <tag k="tiger:name_base_1" v="San Diego"/>
    <tag k="tiger:name_type_1" v="Fwy"/>
  </way>
  <way id="32125589" version="18" timestamp="2024-12-27T07:41:51Z" changeset="160664055" uid="22137982" user="TeeEn">
    <nd ref="360619615"/>
    <nd ref="360619484"/>
    <tag k="bicycle" v="no"/>
    <tag k="bridge" v="yes"/>
    <tag k="cycleway:left" v="no"/>
    <tag k="hgv" v="designated"/>
    <tag k="highway" v="motorway"/>
    <tag k="lanes" v="5"/>
    <tag k="layer" v="1"/>
    <tag k="maxspeed" v="65 mph"/>
    <tag k="maxspeed:hgv" v="55 mph"/>
    <tag k="maxspeed:trailer" v="55 mph"/>
    <tag k="name" v="San Diego Freeway"/>
    <tag k="oneway" v="yes"/>
    <tag k="ref" v="I 5"/>
    <tag k="source:maxspeed" v="sign"/>
    <tag k="surface" v="concrete"/>
    <tag k="tiger:cfcc" v="A15"/>
    <tag k="tiger:county" v="San Diego, CA"/>
    <tag k="tiger:name_base" v="I-5"/>
    <tag k="tiger:name_base_1" v="San Diego"/>
    <tag k="tiger:name_type_1" v="Fwy"/>
  </way>
  <way id="36049845" version="24" timestamp="2024-12-27T13:33:47Z" changeset="160674811" uid="22137982" user="TeeEn">
    <nd ref="12288222598"/>
    <nd ref="49135035"/>
    <nd ref="12286354163"/>
    <nd ref="7223546056"/>
    <nd ref="5836926622"/>
    <nd ref="12286354170"/>
    <nd ref="49135036"/>
    <nd ref="12286354168"/>
    <nd ref="5836926621"/>
    <nd ref="5545505512"/>
    <nd ref="10681182152"/>
    <nd ref="49097350"/>
    <tag k="highway" v="tertiary"/>
    <tag k="name" v="West Cedar Street"/>
    <tag k="sidewalk:both" v="separate"/>
    <tag k="surface" v="asphalt"/>
    <tag k="tiger:cfcc" v="A41"/>
    <tag k="tiger:county" v="San Diego, CA"/>
    <tag k="tiger:name_base" v="Cedar"/>
    <tag k="tiger:name_direction_prefix" v="W"/>
    <tag k="tiger:name_type" v="St"/>
  </way>
  <way id="151281043" version="17" timestamp="2024-12-27T14:40:11Z" changeset="160679321" uid="340741" user="CRCulver">
    <nd ref="49097350"/>
    <nd ref="10681182154"/>
    <nd ref="10119260427"/>
    <nd ref="10119260426"/>
    <nd ref="49097351"/>
    <tag k="cycleway:left" v="shared_lane"/>
    <tag k="highway" v="secondary"/>
    <tag k="lanes" v="2"/>
    <tag k="maxspeed" v="25 mph"/>
    <tag k="name" v="India Street"/>
    <tag k="oneway" v="yes"/>
    <tag k="sidewalk:both" v="separate"/>
    <tag k="source:maxspeed" v="sign"/>
    <tag k="surface" v="asphalt"/>
    <tag k="tiger:cfcc" v="A41"/>
    <tag k="tiger:county" v="San Diego, CA"/>
    <tag k="tiger:name_base" v="India"/>
    <tag k="tiger:name_type" v="St"/>
  </way>
  <way id="159215094" version="19" timestamp="2024-12-28T03:13:54Z" changeset="160699324" uid="22137982" user="TeeEn">
    <nd ref="4607441613"/>
    <nd ref="1111263725"/>
    <nd ref="344551918"/>
    <nd ref="1713129467"/>
    <nd ref="1106795515"/>
    <nd ref="1713129476"/>
    <nd ref="4341619372"/>
    <tag k="cycleway:left" v="no"/>
    <tag k="cycleway:right" v="shared_lane"/>
    <tag k="highway" v="secondary"/>
    <tag k="lanes" v="2"/>
    <tag k="name" v="West Ash Street"/>
    <tag k="oneway" v="yes"/>
    <tag k="sidewalk" v="right"/>
    <tag k="surface" v="asphalt"/>
    <tag k="tiger:cfcc" v="A41"/>
    <tag k="tiger:county" v="San Diego, CA"/>
    <tag k="tiger:name_base" v="Ash"/>
    <tag k="tiger:name_direction_prefix" v="W"/>
    <tag k="tiger:name_type" v="St"/>
  </way>
  <way id="179068380" version="4" timestamp="2025-03-22T21:17:39Z" changeset="163964570" uid="9465017" user="tguen">
    <nd ref="1894046941"/>
    <nd ref="1894046943"/>
    <nd ref="1894046939"/>
    <nd ref="356376904"/>
    <nd ref="356101434"/>
    <nd ref="356085570"/>
    <nd ref="1894046937"/>
    <nd ref="1894046936"/>
    <nd ref="1894046942"/>
    <nd ref="1894046940"/>
    <nd ref="1894046938"/>
    <nd ref="1894046941"/>
    <tag k="building" v="residential"/>
    <tag k="building:levels" v="7"/>
    <tag k="name" v="The Q"/>
  </way>
  <way id="229442265" version="8" timestamp="2025-03-24T11:10:39Z" changeset="164026443" uid="22191037" user="ertyu78">
    <nd ref="2380396547"/>
    <nd ref="2380396548"/>
    <nd ref="4548358594"/>
    <nd ref="2380396549"/>
    <nd ref="2380396550"/>
    <nd ref="4548358613"/>
    <nd ref="2380396547"/>
    <tag k="addr:city" v="San Diego"/>
    <tag k="addr:housenumber" v="1646"/>
    <tag k="addr:postcode" v="92101"/>
    <tag k="addr:state" v="CA"/>
    <tag k="addr:street" v="Front Street"/>
    <tag k="branch" v="Hotel San Diego Downtown"/>
    <tag k="brand" v="Mariott"/>
    <tag k="building" v="yes"/>
    <tag k="fax" v="+1 619 238 9543"/>
    <tag k="name" v="The Little Italy Hotel Downtown San Diego"/>
    <tag k="not:brand:wikidata" v="Q2504643"/>
    <tag k="official_name" v="Mariott"/>
    <tag k="phone" v="+1 619 345 0010"/>
    <tag k="ref" v="SANDY"/>
    <tag k="tourism" v="hotel"/>
    <tag k="website" v="https://www.marriott.com/en-us/hotels/sandy-the-little-italy-hotel-in-downtown-san-diego/overview/"/>
    <tag k="wifi" v="free"/>
  </way>
  <way id="229442266" version="3" timestamp="2019-12-31T18:44:03Z" changeset="79066302" uid="685919" user="lokurabike">
    <nd ref="2380396551"/>
    <nd ref="2380396552"/>
    <nd ref="2380396553"/>
    <nd ref="2380396554"/>
    <nd ref="2380396551"/>
    <tag k="addr:city" v="San Diego"/>
    <tag k="addr:housenumber" v="230"/>
    <tag k="addr:postcode" v="92101"/>
    <tag k="addr:street" v="West Cedar Street"/>
    <tag k="building" v="yes"/>
    <tag k="internet_access" v="wlan"/>
    <tag k="name" v="ITH Adventure Hostel"/>
    <tag k="opening_hours" v="24/7"/>
    <tag k="operator" v="ITH Hostels"/>
    <tag k="phone" v="+16192289234"/>
    <tag k="tourism" v="hostel"/>
    <tag k="website" v="https://ithhostels.com"/>
  </way>
  <way id="259971870" version="7" timestamp="2024-12-27T07:42:21Z" changeset="160664055" uid="22137982" user="TeeEn">
    <nd ref="2654249494"/>
    <nd ref="306302881"/>
    <tag k="bicycle" v="no"/>
    <tag k="bridge" v="yes"/>
    <tag k="cycleway:left" v="no"/>
    <tag k="hgv" v="designated"/>
    <tag k="highway" v="motorway"/>
    <tag k="lanes" v="4"/>
    <tag k="layer" v="1"/>
    <tag k="maxspeed" v="65 mph"/>
    <tag k="maxspeed:hgv" v="55 mph"/>
    <tag k="maxspeed:trailer" v="55 mph"/>
    <tag k="name" v="San Diego Freeway"/>
    <tag k="oneway" v="yes"/>
    <tag k="ref" v="I 5"/>
    <tag k="source:maxspeed" v="sign"/>
    <tag k="surface" v="concrete"/>
    <tag k="tiger:cfcc" v="A15"/>
    <tag k="tiger:county" v="San Diego, CA"/>
    <tag k="tiger:name_base" v="I-5"/>
    <tag k="tiger:name_base_1" v="San Diego"/>
    <tag k="tiger:name_type_1" v="Fwy"/>
  </way>
  <way id="259971871" version="8" timestamp="2024-12-27T07:42:00Z" changeset="160664055" uid="22137982" user="TeeEn">
    <nd ref="49750796"/>
    <nd ref="2654249496"/>
    <tag k="bicycle" v="no"/>
    <tag k="bridge" v="yes"/>
    <tag k="cycleway:left" v="no"/>
    <tag k="hgv" v="designated"/>
    <tag k="highway" v="motorway"/>
    <tag k="lanes" v="5"/>
    <tag k="layer" v="1"/>
    <tag k="maxspeed" v="65 mph"/>
    <tag k="maxspeed:hgv" v="55 mph"/>
    <tag k="maxspeed:trailer" v="55 mph"/>
    <tag k="name" v="San Diego Freeway"/>
    <tag k="oneway" v="yes"/>
    <tag k="ref" v="I 5"/>
    <tag k="source:maxspeed" v="sign"/>
    <tag k="surface" v="concrete"/>
    <tag k="tiger:cfcc" v="A15"/>
    <tag k="tiger:county" v="San Diego, CA"/>
    <tag k="tiger:name_base" v="I-5"/>
    <tag k="tiger:name_base_1" v="San Diego"/>
    <tag k="tiger:name_type_1" v="Fwy"/>
  </way>
  <way id="259971874" version="11" timestamp="2024-12-27T07:42:02Z" changeset="160664055" uid="22137982" user="TeeEn">
    <nd ref="2654249496"/>
    <nd ref="12430390860"/>
    <tag k="bicycle" v="no"/>
    <tag k="cycleway:left" v="no"/>
    <tag k="destination:lanes" v="none|none|none|none;Front Street;Civic Center|Front Street;Civic Center"/>
    <tag k="hgv" v="designated"/>
    <tag k="highway" v="motorway"/>
    <tag k="lanes" v="5"/>
    <tag k="layer" v="1"/>
    <tag k="maxspeed" v="65 mph"/>
    <tag k="maxspeed:hgv" v="55 mph"/>
    <tag k="maxspeed:trailer" v="55 mph"/>
    <tag k="name" v="San Diego Freeway"/>
    <tag k="oneway" v="yes"/>
    <tag k="ref" v="I 5"/>
    <tag k="source:maxspeed" v="sign"/>
    <tag k="surface" v="concrete"/>
    <tag k="tiger:cfcc" v="A15"/>
    <tag k="tiger:county" v="San Diego, CA"/>
    <tag k="tiger:name_base" v="I-5"/>
    <tag k="tiger:name_base_1" v="San Diego"/>
    <tag k="tiger:name_type_1" v="Fwy"/>
    <tag k="turn:lanes" v="none|none|none|through;slight_right|slight_right"/>
  </way>
  <way id="259971881" version="9" timestamp="2024-12-27T07:44:18Z" changeset="160664055" uid="22137982" user="TeeEn">
    <nd ref="2654249493"/>
    <nd ref="306303238"/>
    <tag k="bicycle" v="no"/>
    <tag k="bridge" v="yes"/>
    <tag k="cycleway:left" v="no"/>
    <tag k="destination" v="Civic Center"/>
    <tag k="destination:street" v="2nd Avenue;Front Street"/>
    <tag k="highway" v="motorway_link"/>
    <tag k="lanes" v="2"/>
    <tag k="layer" v="1"/>
    <tag k="oneway" v="yes"/>
    <tag k="sidewalk" v="no"/>
    <tag k="surface" v="concrete"/>
    <tag k="tiger:cfcc" v="A63"/>
    <tag k="tiger:county" v="San Diego, CA"/>
  </way>
  <way id="273292450" version="8" timestamp="2024-12-27T14:40:11Z" changeset="160679321" uid="340741" user="CRCulver">
    <nd ref="49420400"/>
    <nd ref="10119246962"/>
    <nd ref="10768946507"/>
    <nd ref="49420403"/>
    <nd ref="10768946509"/>
    <nd ref="12456014273"/>
    <nd ref="10119246993"/>
    <nd ref="49175449"/>
    <tag k="highway" v="residential"/>
    <tag k="name" v="West Date Street"/>
    <tag k="sidewalk:both" v="separate"/>
    <tag k="surface" v="asphalt"/>
    <tag k="tiger:cfcc" v="A41"/>
    <tag k="tiger:county" v="San Diego, CA"/>
    <tag k="tiger:name_base" v="Date"/>
    <tag k="tiger:name_direction_prefix" v="W"/>
    <tag k="tiger:name_type" v="St"/>
  </way>
  <way id="275446290" version="5" timestamp="2024-12-27T14:40:11Z" changeset="160679321" uid="340741" user="CRCulver">
    <nd ref="1042364591"/>
    <nd ref="2800750764"/>
    <nd ref="2800750758"/>
    <nd ref="2800750759"/>
    <nd ref="7942631016"/>
    <tag k="highway" v="secondary_link"/>
    <tag k="maxspeed" v="25 mph"/>
    <tag k="oneway" v="yes"/>
    <tag k="source:maxspeed" v="sign"/>
    <tag k="surface" v="asphalt"/>
    <tag k="tiger:cfcc" v="A41"/>
    <tag k="tiger:county" v="San Diego, CA"/>
    <tag k="tiger:name_base" v="Date"/>
    <tag k="tiger:name_direction_prefix" v="W"/>
    <tag k="tiger:name_type" v="St"/>
  </way>
  <way id="294600604" version="9" timestamp="2024-12-27T07:43:43Z" changeset="160664055" uid="22137982" user="TeeEn">
    <nd ref="48946680"/>
    <nd ref="275659093"/>
    <nd ref="48946678"/>
    <tag k="bicycle" v="no"/>
    <tag k="cycleway:left" v="no"/>
    <tag k="destination" v="2nd Avenue"/>
    <tag k="highway" v="motorway_link"/>
    <tag k="lanes" v="1"/>
    <tag k="oneway" v="yes"/>
    <tag k="sidewalk" v="no"/>
    <tag k="surface" v="asphalt"/>
    <tag k="tiger:cfcc" v="A63"/>
    <tag k="tiger:county" v="San Diego, CA"/>
  </way>
  <way id="365034579" version="14" timestamp="2024-09-16T17:23:47Z" changeset="156698299" uid="21888946" user="ClimGeoData">
    <nd ref="2802972955"/>
    <nd ref="504752172"/>
    <nd ref="49574807"/>
    <nd ref="8925127478"/>
    <nd ref="4890138209"/>
    <nd ref="5546090434"/>
    <nd ref="10301941905"/>
    <nd ref="5546090431"/>
    <nd ref="49324356"/>
    <nd ref="49072934"/>
    <nd ref="1815809516"/>
    <nd ref="5546090427"/>
    <nd ref="4341705645"/>
    <tag k="highway" v="secondary"/>
    <tag k="lanes" v="3"/>
    <tag k="name" v="West Grape Street"/>
    <tag k="oneway" v="yes"/>
    <tag k="sidewalk:both" v="separate"/>
    <tag k="source" v="Bing"/>
    <tag k="surface" v="asphalt"/>
    <tag k="tiger:cfcc" v="A41"/>
    <tag k="tiger:county" v="San Diego, CA"/>
    <tag k="tiger:name_base" v="Grape"/>
    <tag k="tiger:name_direction_prefix" v="W"/>
    <tag k="tiger:name_type" v="St"/>
  </way>
  <way id="424170076" version="3" timestamp="2016-06-10T19:51:21Z" changeset="39940248" uid="1883488" user="doublentendre">
    <nd ref="4236368212"/>
    <nd ref="4236368213"/>
    <nd ref="4236368214"/>
    <nd ref="4236368215"/>
    <nd ref="4236368212"/>
    <tag k="addr:city" v="San Diego"/>
    <tag k="addr:housenumber" v="834"/>
    <tag k="addr:postcode" v="92101"/>
    <tag k="addr:state" v="CA"/>
    <tag k="addr:street" v="West Grape Street"/>
    <tag k="amenity" v="car_rental"/>
    <tag k="building" v="commercial"/>
    <tag k="building:levels" v="1"/>
    <tag k="name" v="West Coast Rent-a-Car"/>
    <tag k="website" v="http://westcoastrentacar.net/"/>
  </way>
  <way id="436287683" version="9" timestamp="2024-12-27T13:29:02Z" changeset="160674811" uid="22137982" user="TeeEn">
    <nd ref="4341619373"/>
    <nd ref="4607441612"/>
    <nd ref="49385945"/>
    <tag k="cycleway:left" v="shared_lane"/>
    <tag k="cycleway:right" v="shared_lane"/>
    <tag k="highway" v="secondary"/>
    <tag k="lanes" v="2"/>
    <tag k="maxspeed" v="40 mph"/>
    <tag k="name" v="Kettner Boulevard"/>
    <tag k="oneway" v="yes"/>
    <tag k="sidewalk:both" v="separate"/>
    <tag k="source:maxspeed" v="sign"/>
    <tag k="surface" v="asphalt"/>
    <tag k="tiger:cfcc" v="A41"/>
    <tag k="tiger:county" v="San Diego, CA"/>
    <tag k="tiger:name_base" v="Kettner"/>
    <tag k="tiger:name_type" v="Blvd"/>
  </way>
  <way id="436291049" version="8" timestamp="2024-12-27T13:31:57Z" changeset="160674811" uid="22137982" user="TeeEn">
    <nd ref="4341675288"/>
    <nd ref="5545505514"/>
    <nd ref="10681182146"/>
    <nd ref="9995581498"/>
    <nd ref="49047363"/>
    <tag k="cycleway:left" v="shared_lane"/>
    <tag k="highway" v="secondary"/>
    <tag k="lanes" v="3"/>
    <tag k="name" v="India Street"/>
    <tag k="oneway" v="yes"/>
    <tag k="sidewalk:both" v="separate"/>
    <tag k="turn:lanes" v="left;through||right"/>
  </way>
  <way id="436291062" version="7" timestamp="2024-12-27T14:40:11Z" changeset="160679321" uid="340741" user="CRCulver">
    <nd ref="49308684"/>
    <nd ref="10155308449"/>
    <nd ref="4341675285"/>
    <tag k="cycleway" v="shared_lane"/>
    <tag k="highway" v="secondary"/>
    <tag k="lanes" v="3"/>
    <tag k="maxspeed" v="25 mph"/>
    <tag k="name" v="West Ash Street"/>
    <tag k="oneway" v="yes"/>
    <tag k="sidewalk:both" v="separate"/>
    <tag k="source:maxspeed" v="sign"/>
    <tag k="surface" v="asphalt"/>
    <tag k="tiger:cfcc" v="A41"/>
    <tag k="tiger:county" v="San Diego, CA"/>
    <tag k="tiger:name_base" v="Ash"/>
    <tag k="tiger:name_direction_prefix" v="W"/>
    <tag k="tiger:name_type" v="St"/>
  </way>
  <way id="436291064" version="8" timestamp="2024-12-27T14:40:11Z" changeset="160679321" uid="340741" user="CRCulver">
    <nd ref="4341675285"/>
    <nd ref="5545620594"/>
    <nd ref="10155308450"/>
    <nd ref="10155308453"/>
    <nd ref="49581781"/>
    <tag k="cycleway" v="shared_lane"/>
    <tag k="highway" v="secondary"/>
    <tag k="lanes" v="4"/>
    <tag k="maxspeed" v="25 mph"/>
    <tag k="name" v="West Ash Street"/>
    <tag k="oneway" v="yes"/>
    <tag k="oneway:bicycle" v="yes"/>
    <tag k="sidewalk:both" v="separate"/>
    <tag k="source:maxspeed" v="sign"/>
    <tag k="surface" v="asphalt"/>
    <tag k="tiger:cfcc" v="A41"/>
    <tag k="tiger:county" v="San Diego, CA"/>
    <tag k="tiger:name_base" v="Ash"/>
    <tag k="tiger:name_direction_prefix" v="W"/>
    <tag k="tiger:name_type" v="St"/>
    <tag k="turn:lanes" v="left|left;through|through|through"/>
  </way>
  <way id="436296433" version="7" timestamp="2024-12-27T14:40:11Z" changeset="160679321" uid="340741" user="CRCulver">
    <nd ref="4341705656"/>
    <nd ref="12456014282"/>
    <nd ref="49097325"/>
    <tag k="cycleway:right" v="lane"/>
    <tag k="cycleway:right:buffer" v="no"/>
    <tag k="highway" v="secondary"/>
    <tag k="lanes" v="4"/>
    <tag k="name" v="India Street"/>
    <tag k="oneway" v="yes"/>
    <tag k="sidewalk" v="both"/>
    <tag k="surface" v="asphalt"/>
    <tag k="turn:lanes" v="|||right"/>
  </way>
  <way id="436296434" version="13" timestamp="2024-08-26T21:56:56Z" changeset="155803713" uid="21888946" user="ClimGeoData">
    <nd ref="49097804"/>
    <nd ref="2817127019"/>
    <nd ref="1711615753"/>
    <nd ref="1711615751"/>
    <nd ref="1711615749"/>
    <nd ref="10119260431"/>
    <nd ref="10768940487"/>
    <nd ref="49385949"/>
    <tag k="cycleway:left" v="shared_lane"/>
    <tag k="highway" v="secondary"/>
    <tag k="lanes" v="2"/>
    <tag k="maxspeed" v="40 mph"/>
    <tag k="name" v="Kettner Boulevard"/>
    <tag k="oneway" v="yes"/>
    <tag k="sidewalk:left" v="separate"/>
    <tag k="source:maxspeed" v="sign"/>
    <tag k="surface" v="asphalt"/>
    <tag k="tiger:cfcc" v="A41"/>
    <tag k="tiger:county" v="San Diego, CA"/>
    <tag k="tiger:name_base" v="Kettner"/>
    <tag k="tiger:name_type" v="Blvd"/>
  </way>
  <way id="436296436" version="7" timestamp="2024-12-27T13:37:35Z" changeset="160674811" uid="22137982" user="TeeEn">
    <nd ref="49385954"/>
    <nd ref="4607428644"/>
    <tag k="cycleway:left" v="shared_lane"/>
    <tag k="highway" v="secondary"/>
    <tag k="lanes" v="3"/>
    <tag k="maxspeed" v="40 mph"/>
    <tag k="name" v="Kettner Boulevard"/>
    <tag k="oneway" v="yes"/>
    <tag k="sidewalk:both" v="separate"/>
    <tag k="source:maxspeed" v="sign"/>
    <tag k="surface" v="asphalt"/>
    <tag k="tiger:cfcc" v="A41"/>
    <tag k="tiger:county" v="San Diego, CA"/>
    <tag k="tiger:name_base" v="Kettner"/>
    <tag k="tiger:name_type" v="Blvd"/>
    <tag k="turn:lanes" v="||merge_to_left"/>
  </way>
  <way id="436296438" version="9" timestamp="2024-12-01T14:59:35Z" changeset="159805284" uid="22137982" user="TeeEn">
    <nd ref="49121331"/>
    <nd ref="5548153242"/>
    <nd ref="5548153241"/>
    <nd ref="5548153245"/>
    <nd ref="5548153233"/>
    <nd ref="10119189344"/>
    <nd ref="10119189347"/>
    <nd ref="49245998"/>
    <nd ref="10119189345"/>
    <nd ref="5548153249"/>
    <nd ref="10119189349"/>
    <nd ref="49108990"/>
    <tag k="cycleway:left" v="shared_lane"/>
    <tag k="highway" v="secondary"/>
    <tag k="lanes" v="2"/>
    <tag k="maxspeed" v="40 mph"/>
    <tag k="name" v="Kettner Boulevard"/>
    <tag k="oneway" v="yes"/>
    <tag k="sidewalk" v="both"/>
    <tag k="source:maxspeed" v="sign"/>
    <tag k="surface" v="asphalt"/>
    <tag k="tiger:cfcc" v="A41"/>
    <tag k="tiger:county" v="San Diego, CA"/>
    <tag k="tiger:name_base" v="Kettner"/>
    <tag k="tiger:name_type" v="Blvd"/>
  </way>
  <way id="436296448" version="6" timestamp="2024-09-16T17:23:49Z" changeset="156698299" uid="21888946" user="ClimGeoData">
    <nd ref="4341705645"/>
    <nd ref="10119189441"/>
    <nd ref="4607428643"/>
    <nd ref="49385954"/>
    <tag k="highway" v="secondary"/>
    <tag k="lanes" v="3"/>
    <tag k="name" v="West Grape Street"/>
    <tag k="oneway" v="yes"/>
    <tag k="sidewalk:both" v="separate"/>
    <tag k="source" v="Bing"/>
    <tag k="surface" v="asphalt"/>
    <tag k="tiger:cfcc" v="A41"/>
    <tag k="tiger:county" v="San Diego, CA"/>
    <tag k="tiger:name_base" v="Grape"/>
    <tag k="tiger:name_direction_prefix" v="W"/>
    <tag k="tiger:name_type" v="St"/>
    <tag k="turn:lanes" v="through|through|through;right"/>
  </way>
  <way id="436296451" version="8" timestamp="2024-09-19T03:51:39Z" changeset="156800276" uid="21888946" user="ClimGeoData">
    <nd ref="9211705787"/>
    <nd ref="49574796"/>
    <nd ref="9211705786"/>
    <nd ref="9211705785"/>
    <nd ref="275592361"/>
    <nd ref="275988300"/>
    <tag k="highway" v="secondary"/>
    <tag k="lanes" v="3"/>
    <tag k="name" v="West Grape Street"/>
    <tag k="oneway" v="yes"/>
    <tag k="sidewalk:both" v="separate"/>
    <tag k="source" v="Bing"/>
    <tag k="surface" v="asphalt"/>
    <tag k="tiger:cfcc" v="A41"/>
    <tag k="tiger:county" v="San Diego, CA"/>
    <tag k="tiger:name_base" v="Grape"/>
    <tag k="tiger:name_direction_prefix" v="W"/>
    <tag k="tiger:name_type" v="St"/>
  </way>
  <way id="436296458" version="6" timestamp="2024-12-27T14:40:11Z" changeset="160679321" uid="340741" user="CRCulver">
    <nd ref="49097325"/>
    <nd ref="12456014276"/>
    <nd ref="11396955991"/>
    <nd ref="4341705658"/>
    <tag k="highway" v="secondary"/>
    <tag k="lanes" v="5"/>
    <tag k="lanes:backward" v="3"/>
    <tag k="lanes:forward" v="2"/>
    <tag k="name" v="West Laurel Street"/>
    <tag k="sidewalk" v="both"/>
    <tag k="surface" v="asphalt"/>
    <tag k="tiger:cfcc" v="A41"/>
    <tag k="tiger:county" v="San Diego, CA"/>
    <tag k="tiger:name_base" v="Laurel"/>
    <tag k="tiger:name_direction_prefix" v="W"/>
    <tag k="tiger:name_type" v="St"/>
    <tag k="turn:lanes:backward" v="left|left|through"/>
  </way>
  <way id="436296459" version="5" timestamp="2024-12-01T15:00:38Z" changeset="159805284" uid="22137982" user="TeeEn">
    <nd ref="4341705658"/>
    <nd ref="4341705657"/>
    <tag k="highway" v="secondary"/>
    <tag k="lanes" v="4"/>
    <tag k="name" v="West Laurel Street"/>
    <tag k="sidewalk" v="both"/>
    <tag k="surface" v="asphalt"/>
    <tag k="tiger:cfcc" v="A41"/>
    <tag k="tiger:county" v="San Diego, CA"/>
    <tag k="tiger:name_base" v="Laurel"/>
    <tag k="tiger:name_direction_prefix" v="W"/>
    <tag k="tiger:name_type" v="St"/>
  </way>
  <way id="436296460" version="4" timestamp="2024-12-01T15:00:40Z" changeset="159805284" uid="22137982" user="TeeEn">
    <nd ref="4341705657"/>
    <nd ref="49326009"/>
    <tag k="highway" v="secondary"/>
    <tag k="lanes" v="5"/>
    <tag k="lanes:backward" v="2"/>
    <tag k="lanes:forward" v="3"/>
    <tag k="name" v="West Laurel Street"/>
    <tag k="sidewalk" v="both"/>
    <tag k="surface" v="asphalt"/>
    <tag k="tiger:cfcc" v="A41"/>
    <tag k="tiger:county" v="San Diego, CA"/>
    <tag k="tiger:name_base" v="Laurel"/>
    <tag k="tiger:name_direction_prefix" v="W"/>
    <tag k="tiger:name_type" v="St"/>
    <tag k="turn:lanes:forward" v="left||"/>
  </way>
  <way id="436296463" version="9" timestamp="2024-12-28T03:19:02Z" changeset="160699324" uid="22137982" user="TeeEn">
    <nd ref="49324363"/>
    <nd ref="1815809548"/>
    <nd ref="1815809551"/>
    <nd ref="49326010"/>
    <nd ref="7051046925"/>
    <nd ref="4607423409"/>
    <tag k="cycleway:left" v="no"/>
    <tag k="highway" v="secondary"/>
    <tag k="lanes" v="2"/>
    <tag k="name" v="West Laurel Street"/>
    <tag k="oneway" v="yes"/>
    <tag k="surface" v="asphalt"/>
    <tag k="tiger:cfcc" v="A41"/>
    <tag k="tiger:county" v="San Diego, CA"/>
    <tag k="tiger:name_base" v="Laurel"/>
    <tag k="tiger:name_direction_prefix" v="W"/>
    <tag k="tiger:name_type" v="St"/>
  </way>
  <way id="436431441" version="7" timestamp="2024-12-01T14:54:58Z" changeset="159805284" uid="22137982" user="TeeEn">
    <nd ref="49108989"/>
    <nd ref="5548153267"/>
    <nd ref="8132730482"/>
    <nd ref="4343210875"/>
    <tag k="highway" v="secondary"/>
    <tag k="lanes" v="3"/>
    <tag k="name" v="Columbia Street"/>
    <tag k="oneway" v="yes"/>
    <tag k="sidewalk:right" v="yes"/>
    <tag k="surface" v="asphalt"/>
    <tag k="tiger:cfcc" v="A41"/>
    <tag k="tiger:county" v="San Diego, CA"/>
    <tag k="tiger:name_base" v="Columbia"/>
    <tag k="tiger:name_type" v="St"/>
    <tag k="turn:lanes" v="||right"/>
  </way>
  <way id="436431442" version="7" timestamp="2024-12-27T13:44:01Z" changeset="160674811" uid="22137982" user="TeeEn">
    <nd ref="4343210875"/>
    <nd ref="10119189427"/>
    <nd ref="10119189433"/>
    <tag k="cycleway:right" v="no"/>
    <tag k="highway" v="secondary"/>
    <tag k="lanes" v="3"/>
    <tag k="name" v="Columbia Street"/>
    <tag k="oneway" v="yes"/>
    <tag k="sidewalk:right" v="yes"/>
    <tag k="surface" v="asphalt"/>
    <tag k="tiger:cfcc" v="A41"/>
    <tag k="tiger:county" v="San Diego, CA"/>
    <tag k="tiger:name_base" v="Columbia"/>
    <tag k="tiger:name_type" v="St"/>
    <tag k="turn:lanes" v="||right"/>
  </way>
  <way id="436431458" version="6" timestamp="2025-01-22T22:00:50Z" changeset="161654434" uid="19361972" user="ericspellman">
    <nd ref="9582424962"/>
    <nd ref="10119246961"/>
    <nd ref="10119246958"/>
    <nd ref="49101390"/>
    <tag k="highway" v="secondary"/>
    <tag k="lanes" v="3"/>
    <tag k="name" v="State Street"/>
    <tag k="oneway" v="yes"/>
    <tag k="sidewalk" v="both"/>
    <tag k="surface" v="asphalt"/>
    <tag k="tiger:cfcc" v="A41"/>
    <tag k="tiger:county" v="San Diego, CA"/>
    <tag k="tiger:name_base" v="State"/>
    <tag k="tiger:name_type" v="St"/>
  </way>
  <way id="436431459" version="9" timestamp="2024-12-27T14:01:58Z" changeset="160674811" uid="22137982" user="TeeEn">
    <nd ref="5546015488"/>
    <nd ref="10119246963"/>
    <nd ref="10768946508"/>
    <tag k="highway" v="secondary"/>
    <tag k="lanes" v="3"/>
    <tag k="name" v="State Street"/>
    <tag k="oneway" v="yes"/>
    <tag k="sidewalk:left" v="separate"/>
    <tag k="surface" v="asphalt"/>
    <tag k="tiger:cfcc" v="A41"/>
    <tag k="tiger:county" v="San Diego, CA"/>
    <tag k="tiger:name_base" v="State"/>
    <tag k="tiger:name_type" v="St"/>
    <tag k="turn:lanes" v="||right"/>
  </way>
  <way id="436431460" version="5" timestamp="2025-01-22T22:00:50Z" changeset="161654434" uid="19361972" user="ericspellman">
    <nd ref="49101390"/>
    <nd ref="10119246957"/>
    <nd ref="4343210872"/>
    <tag k="highway" v="secondary"/>
    <tag k="lanes" v="3"/>
    <tag k="name" v="State Street"/>
    <tag k="oneway" v="yes"/>
    <tag k="sidewalk" v="both"/>
    <tag k="surface" v="asphalt"/>
    <tag k="tiger:cfcc" v="A41"/>
    <tag k="tiger:county" v="San Diego, CA"/>
    <tag k="tiger:name_base" v="State"/>
    <tag k="tiger:name_type" v="St"/>
    <tag k="turn:lanes" v="||merge_to_left"/>
  </way>
  <way id="436431461" version="11" timestamp="2024-12-27T13:33:56Z" changeset="160674811" uid="22137982" user="TeeEn">
    <nd ref="49429355"/>
    <nd ref="12285966550"/>
    <nd ref="10155289306"/>
    <nd ref="10155289312"/>
    <nd ref="9995581497"/>
    <nd ref="49047361"/>
    <nd ref="10155289314"/>
    <nd ref="5545620560"/>
    <nd ref="7223546057"/>
    <nd ref="12286354157"/>
    <nd ref="49135035"/>
    <nd ref="12286354161"/>
    <nd ref="5545620533"/>
    <nd ref="4343210869"/>
    <tag k="highway" v="secondary"/>
    <tag k="lanes" v="3"/>
    <tag k="name" v="State Street"/>
    <tag k="oneway" v="yes"/>
    <tag k="sidewalk:both" v="separate"/>
    <tag k="surface" v="asphalt"/>
  </way>
  <way id="436592704" version="7" timestamp="2024-12-27T13:29:10Z" changeset="160674811" uid="22137982" user="TeeEn">
    <nd ref="4344762329"/>
    <nd ref="5545505520"/>
    <nd ref="2802601912"/>
    <nd ref="49385945"/>
    <tag k="cycleway" v="shared_lane"/>
    <tag k="highway" v="secondary"/>
    <tag k="lanes" v="3"/>
    <tag k="name" v="West Ash Street"/>
    <tag k="oneway" v="yes"/>
    <tag k="sidewalk:both" v="separate"/>
    <tag k="surface" v="asphalt"/>
    <tag k="tiger:cfcc" v="A41"/>
    <tag k="tiger:county" v="San Diego, CA"/>
    <tag k="tiger:name_base" v="Ash"/>
    <tag k="tiger:name_direction_prefix" v="W"/>
    <tag k="tiger:name_type" v="St"/>
    <tag k="turn:lanes" v="left|through|through"/>
  </way>
  <way id="438197358" version="5" timestamp="2024-12-27T07:44:27Z" changeset="160664055" uid="22137982" user="TeeEn">
    <nd ref="48890738"/>
    <nd ref="2654249494"/>
    <tag k="bicycle" v="no"/>
    <tag k="cycleway:left" v="no"/>
    <tag k="hgv" v="designated"/>
    <tag k="highway" v="motorway"/>
    <tag k="lanes" v="4"/>
    <tag k="layer" v="1"/>
    <tag k="maxspeed" v="65 mph"/>
    <tag k="maxspeed:hgv" v="55 mph"/>
    <tag k="maxspeed:trailer" v="55 mph"/>
    <tag k="name" v="San Diego Freeway"/>
    <tag k="oneway" v="yes"/>
    <tag k="ref" v="I 5"/>
    <tag k="source:maxspeed" v="sign"/>
    <tag k="surface" v="asphalt"/>
    <tag k="tiger:cfcc" v="A15"/>
    <tag k="tiger:county" v="San Diego, CA"/>
    <tag k="tiger:name_base" v="I-5"/>
    <tag k="tiger:name_base_1" v="San Diego"/>
    <tag k="tiger:name_type_1" v="Fwy"/>
  </way>
  <way id="458904626" version="2" timestamp="2017-06-02T00:05:57Z" changeset="49180799" uid="381909" user="JessAk71">
    <nd ref="4548331011"/>
    <nd ref="4890778221"/>
    <nd ref="4548329653"/>
    <nd ref="4548329666"/>
    <nd ref="4890778167"/>
    <nd ref="4548330998"/>
    <nd ref="4548331011"/>
    <tag k="building" v="yes"/>
    <tag k="building:levels" v="4"/>
    <tag k="name" v="Current"/>
    <tag k="source" v="Bing"/>
  </way>
  <way id="458904630" version="2" timestamp="2020-03-26T18:05:41Z" changeset="82676612" uid="381909" user="JessAk71">
    <nd ref="4548331002"/>
    <nd ref="4548329656"/>
    <nd ref="4548330997"/>
    <nd ref="4548329657"/>
    <nd ref="4548329679"/>
    <nd ref="4548330996"/>
    <nd ref="4548329647"/>
    <nd ref="4548329643"/>
    <nd ref="4548329661"/>
    <nd ref="4548331001"/>
    <nd ref="4548331002"/>
    <tag k="building" v="yes"/>
    <tag k="building:levels" v="7"/>
    <tag k="name" v="Broadstone"/>
  </way>
  <way id="458904631" version="1" timestamp="2016-12-10T18:50:48Z" changeset="44309299" uid="381909" user="JessAk71">
    <nd ref="4548331006"/>
    <nd ref="4548329660"/>
    <nd ref="4548329652"/>
    <nd ref="4548329676"/>
    <nd ref="4548331006"/>
    <tag k="building" v="yes"/>
    <tag k="building:levels" v="22"/>
    <tag k="height" v="82"/>
    <tag k="name" v="Ariel Suites"/>
    <tag k="source" v="Bing"/>
  </way>
  <way id="458904633" version="1" timestamp="2016-12-10T18:50:49Z" changeset="44309299" uid="381909" user="JessAk71">
    <nd ref="4548329671"/>
    <nd ref="4548329670"/>
    <nd ref="4548331004"/>
    <nd ref="4548331005"/>
    <nd ref="4548329678"/>
    <nd ref="4548329664"/>
    <nd ref="4548329671"/>
    <tag k="building" v="yes"/>
    <tag k="building:levels" v="11"/>
    <tag k="name" v="Aperture"/>
    <tag k="source" v="Bing"/>
  </way>
  <way id="458904635" version="2" timestamp="2023-11-28T09:57:25Z" changeset="144540997" uid="19889694" user="Sujanmanandhar">
    <nd ref="4548329663"/>
    <nd ref="4548329686"/>
    <nd ref="4548329681"/>
    <nd ref="4548329662"/>
    <nd ref="4548329665"/>
    <nd ref="4548329644"/>
    <nd ref="4548329648"/>
    <nd ref="4548330991"/>
    <nd ref="4548329650"/>
    <nd ref="4548331007"/>
    <nd ref="4548329663"/>
    <tag k="addr:city" v="San Diego"/>
    <tag k="addr:housenumber" v="1455"/>
    <tag k="addr:postcode" v="92101"/>
    <tag k="addr:state" v="CA"/>
    <tag k="addr:street" v="Kettner Boulevard"/>
    <tag k="building" v="yes"/>
    <tag k="building:levels" v="7"/>
    <tag k="name" v="Allegro Towers"/>
    <tag k="tourism" v="hotel"/>
  </way>
  <way id="462184442" version="1" timestamp="2016-12-27T19:54:14Z" changeset="44714478" uid="17490" user="Adam Geitgey">
    <nd ref="4575902038"/>
    <nd ref="4575902039"/>
    <nd ref="4575902040"/>
    <nd ref="4575902041"/>
    <nd ref="4575902038"/>
    <tag k="addr:city" v="San Diego"/>
    <tag k="addr:housenumber" v="1445"/>
    <tag k="addr:postcode" v="92101"/>
    <tag k="addr:state" v="CA"/>
    <tag k="addr:street" v="Front Street"/>
    <tag k="building" v="yes"/>
    <tag k="building:levels" v="2"/>
  </way>
  <way id="462184443" version="1" timestamp="2016-12-27T19:54:14Z" changeset="44714478" uid="17490" user="Adam Geitgey">
    <nd ref="4575902042"/>
    <nd ref="4575902043"/>
    <nd ref="4575902044"/>
    <nd ref="4575902045"/>
    <nd ref="4575902046"/>
    <nd ref="4575902047"/>
    <nd ref="4575902048"/>
    <nd ref="4575902049"/>
    <nd ref="4575902050"/>
    <nd ref="4575902051"/>
    <nd ref="4575902042"/>
    <tag k="addr:city" v="San Diego"/>
    <tag k="addr:housenumber" v="1462"/>
    <tag k="addr:postcode" v="92101"/>
    <tag k="addr:state" v="CA"/>
    <tag k="addr:street" v="1st Avenue"/>
    <tag k="building" v="apartments"/>
    <tag k="building:levels" v="3"/>
  </way>
  <way id="462184444" version="1" timestamp="2016-12-27T19:54:15Z" changeset="44714478" uid="17490" user="Adam Geitgey">
    <nd ref="4575902052"/>
    <nd ref="4575902053"/>
    <nd ref="4575902054"/>
    <nd ref="4575902055"/>
    <nd ref="4575902052"/>
    <tag k="addr:city" v="San Diego"/>
    <tag k="addr:housenumber" v="1430"/>
    <tag k="addr:postcode" v="92101"/>
    <tag k="addr:state" v="CA"/>
    <tag k="addr:street" v="1st Avenue"/>
    <tag k="building" v="apartments"/>
    <tag k="building:levels" v="4"/>
    <tag k="name" v="Reiss Hotel"/>
  </way>
  <way id="465829002" version="4" timestamp="2024-12-01T14:59:49Z" changeset="159805284" uid="22137982" user="TeeEn">
    <nd ref="49326009"/>
    <nd ref="4607423408"/>
    <nd ref="4607423407"/>
    <tag k="highway" v="secondary"/>
    <tag k="lanes" v="3"/>
    <tag k="maxspeed" v="40 mph"/>
    <tag k="name" v="Kettner Boulevard"/>
    <tag k="oneway" v="yes"/>
    <tag k="sidewalk" v="both"/>
    <tag k="source:maxspeed" v="sign"/>
    <tag k="surface" v="asphalt"/>
    <tag k="tiger:cfcc" v="A41"/>
    <tag k="tiger:county" v="San Diego, CA"/>
    <tag k="tiger:name_base" v="Kettner"/>
    <tag k="tiger:name_type" v="Blvd"/>
    <tag k="turn:lanes" v="||merge_to_left"/>
  </way>
  <way id="465829360" version="7" timestamp="2023-12-05T22:13:14Z" changeset="144808389" uid="12128962" user="AmpereBEEP">
    <nd ref="49365359"/>
    <nd ref="4607428652"/>
    <nd ref="11396956096"/>
    <nd ref="10539123328"/>
    <nd ref="10119189442"/>
    <nd ref="4607428642"/>
    <nd ref="49385954"/>
    <tag k="cycleway:left" v="shared_lane"/>
    <tag k="highway" v="secondary"/>
    <tag k="lanes" v="3"/>
    <tag k="maxspeed" v="40 mph"/>
    <tag k="name" v="Kettner Boulevard"/>
    <tag k="oneway" v="yes"/>
    <tag k="sidewalk" v="separate"/>
    <tag k="source:maxspeed" v="sign"/>
    <tag k="surface" v="asphalt"/>
    <tag k="tiger:cfcc" v="A41"/>
    <tag k="tiger:county" v="San Diego, CA"/>
    <tag k="tiger:name_base" v="Kettner"/>
    <tag k="tiger:name_type" v="Blvd"/>
  </way>
  <way id="465830099" version="6" timestamp="2024-12-27T13:28:55Z" changeset="160674811" uid="22137982" user="TeeEn">
    <nd ref="49047364"/>
    <nd ref="10681182140"/>
    <nd ref="4341619373"/>
    <tag k="cycleway:left" v="shared_lane"/>
    <tag k="cycleway:right" v="shared_lane"/>
    <tag k="highway" v="secondary"/>
    <tag k="lanes" v="3"/>
    <tag k="maxspeed" v="40 mph"/>
    <tag k="name" v="Kettner Boulevard"/>
    <tag k="oneway" v="yes"/>
    <tag k="sidewalk:both" v="separate"/>
    <tag k="source:maxspeed" v="sign"/>
    <tag k="tiger:cfcc" v="A41"/>
    <tag k="tiger:county" v="San Diego, CA"/>
    <tag k="tiger:name_base" v="Kettner"/>
    <tag k="tiger:name_type" v="Blvd"/>
  </way>
  <way id="497520821" version="2" timestamp="2021-03-03T17:53:02Z" changeset="100367939" uid="115918" user="Timothy Smith">
    <nd ref="4890778163"/>
    <nd ref="4890778199"/>
    <nd ref="4890778254"/>
    <nd ref="4890778246"/>
    <nd ref="4890778242"/>
    <nd ref="4890778174"/>
    <nd ref="4890778233"/>
    <nd ref="4890778241"/>
    <nd ref="4890778212"/>
    <nd ref="4890778239"/>
    <nd ref="4890778207"/>
    <nd ref="4890778247"/>
    <nd ref="4890778238"/>
    <nd ref="4890778201"/>
    <nd ref="4890778197"/>
    <nd ref="4890778213"/>
    <nd ref="4890778195"/>
    <nd ref="4890778175"/>
    <nd ref="4890778151"/>
    <nd ref="4890778235"/>
    <nd ref="4548329687"/>
    <nd ref="4548329682"/>
    <nd ref="4890778163"/>
    <tag k="building" v="yes"/>
    <tag k="building:levels" v="24"/>
    <tag k="height" v="79 m"/>
    <tag k="name" v="La Vita Little Italy"/>
  </way>
  <way id="497735572" version="4" timestamp="2024-10-03T18:24:20Z" changeset="157431851" uid="2087961" user="JasonBob">
    <nd ref="4892544009"/>
    <nd ref="9900108097"/>
    <nd ref="12219186062"/>
    <nd ref="4892543984"/>
    <nd ref="9900108091"/>
    <nd ref="4892543983"/>
    <nd ref="4892544004"/>
    <nd ref="4892544009"/>
    <tag k="amenity" v="parking"/>
    <tag k="building" v="yes"/>
    <tag k="building:levels" v="7"/>
    <tag k="name" v="Little Italy Parking Garage"/>
    <tag k="note" v="newer than bing image"/>
    <tag k="parking" v="multi-storey"/>
  </way>
  <way id="593754409" version="11" timestamp="2024-12-27T14:40:11Z" changeset="160679321" uid="340741" user="CRCulver">
    <nd ref="12288222595"/>
    <nd ref="5545620574"/>
    <nd ref="10155289293"/>
    <nd ref="10155289302"/>
    <nd ref="9995581496"/>
    <nd ref="49047360"/>
    <nd ref="10155289304"/>
    <nd ref="10155289292"/>
    <nd ref="5545620557"/>
    <nd ref="5545620559"/>
    <nd ref="12288250921"/>
    <nd ref="49135033"/>
    <nd ref="12288250915"/>
    <nd ref="12288222594"/>
    <tag k="highway" v="tertiary"/>
    <tag k="lanes" v="2"/>
    <tag k="name" v="Union Street"/>
    <tag k="sidewalk:both" v="separate"/>
    <tag k="surface" v="asphalt"/>
  </way>
  <way id="593761516" version="6" timestamp="2024-12-27T14:40:11Z" changeset="160679321" uid="340741" user="CRCulver">
    <nd ref="12185276222"/>
    <nd ref="5553184619"/>
    <nd ref="49175413"/>
    <nd ref="12456014281"/>
    <nd ref="49097325"/>
    <tag k="highway" v="secondary"/>
    <tag k="name" v="West Laurel Street"/>
    <tag k="sidewalk:left" v="separate"/>
    <tag k="surface" v="asphalt"/>
    <tag k="tiger:cfcc" v="A41"/>
    <tag k="tiger:county" v="San Diego, CA"/>
    <tag k="tiger:name_base" v="Laurel"/>
    <tag k="tiger:name_direction_prefix" v="W"/>
    <tag k="tiger:name_type" v="St"/>
  </way>
  <way id="614074273" version="11" timestamp="2024-12-27T14:40:11Z" changeset="160679321" uid="340741" user="CRCulver">
    <nd ref="10119189434"/>
    <nd ref="5548153281"/>
    <nd ref="5548153272"/>
    <nd ref="12456014289"/>
    <nd ref="49097357"/>
    <nd ref="5548153252"/>
    <nd ref="10119189343"/>
    <nd ref="49097358"/>
    <nd ref="5548153234"/>
    <nd ref="5548153228"/>
    <nd ref="10119189342"/>
    <nd ref="49097359"/>
    <tag k="cycleway:left" v="shared_lane"/>
    <tag k="highway" v="secondary"/>
    <tag k="lanes" v="2"/>
    <tag k="name" v="India Street"/>
    <tag k="oneway" v="yes"/>
    <tag k="sidewalk" v="both"/>
    <tag k="surface" v="asphalt"/>
    <tag k="tiger:cfcc" v="A41"/>
    <tag k="tiger:county" v="San Diego, CA"/>
    <tag k="tiger:name_base" v="India"/>
    <tag k="tiger:name_type" v="St"/>
  </way>
  <way id="614074274" version="8" timestamp="2024-12-01T15:06:01Z" changeset="159805301" uid="22137982" user="TeeEn">
    <nd ref="49097351"/>
    <nd ref="10119260425"/>
    <nd ref="10119260428"/>
    <nd ref="5546090444"/>
    <nd ref="10119260430"/>
    <nd ref="10768940483"/>
    <nd ref="49385949"/>
    <tag k="highway" v="residential"/>
    <tag k="name" v="West Date Street"/>
    <tag k="sidewalk:both" v="separate"/>
    <tag k="surface" v="asphalt"/>
    <tag k="tiger:cfcc" v="A41"/>
    <tag k="tiger:county" v="San Diego, CA"/>
    <tag k="tiger:name_base" v="Date"/>
    <tag k="tiger:name_direction_prefix" v="W"/>
    <tag k="tiger:name_type" v="St"/>
  </way>
  <way id="614074275" version="8" timestamp="2024-12-27T13:32:32Z" changeset="160674811" uid="22137982" user="TeeEn">
    <nd ref="49047362"/>
    <nd ref="9995581500"/>
    <nd ref="12286316163"/>
    <nd ref="10155308468"/>
    <nd ref="10155308470"/>
    <nd ref="49175447"/>
    <tag k="highway" v="secondary"/>
    <tag k="lanes" v="2"/>
    <tag k="name" v="Columbia Street"/>
    <tag k="oneway" v="yes"/>
    <tag k="sidewalk:both" v="separate"/>
  </way>
  <way id="642285113" version="5" timestamp="2024-12-27T13:43:35Z" changeset="160674811" uid="22137982" user="TeeEn">
    <nd ref="49108990"/>
    <nd ref="10119189357"/>
    <nd ref="10119189443"/>
    <nd ref="4607428650"/>
    <tag k="cycleway:left" v="shared_lane"/>
    <tag k="highway" v="secondary"/>
    <tag k="lanes" v="3"/>
    <tag k="maxspeed" v="40 mph"/>
    <tag k="name" v="Kettner Boulevard"/>
    <tag k="oneway" v="yes"/>
    <tag k="sidewalk" v="both"/>
    <tag k="source:maxspeed" v="sign"/>
    <tag k="surface" v="asphalt"/>
    <tag k="tiger:cfcc" v="A41"/>
    <tag k="tiger:county" v="San Diego, CA"/>
    <tag k="tiger:name_base" v="Kettner"/>
    <tag k="tiger:name_type" v="Blvd"/>
  </way>
  <way id="642285114" version="4" timestamp="2024-09-16T17:23:58Z" changeset="156698299" uid="21888946" user="ClimGeoData">
    <nd ref="49097356"/>
    <nd ref="10119189435"/>
    <nd ref="5548153278"/>
    <nd ref="10119189444"/>
    <nd ref="4607428651"/>
    <nd ref="49365359"/>
    <tag k="highway" v="secondary"/>
    <tag k="lanes" v="3"/>
    <tag k="name" v="West Hawthorn Street"/>
    <tag k="oneway" v="yes"/>
    <tag k="sidewalk:both" v="separate"/>
    <tag k="surface" v="asphalt"/>
    <tag k="tiger:cfcc" v="A41"/>
    <tag k="tiger:county" v="San Diego, CA"/>
    <tag k="tiger:name_base" v="Hawthorn"/>
    <tag k="tiger:name_direction_prefix" v="W"/>
    <tag k="tiger:name_type" v="St"/>
  </way>
  <way id="642285115" version="6" timestamp="2024-12-01T14:35:07Z" changeset="159805284" uid="22137982" user="TeeEn">
    <nd ref="49365352"/>
    <nd ref="10119189429"/>
    <nd ref="10119189426"/>
    <nd ref="10119189432"/>
    <nd ref="49175458"/>
    <tag k="highway" v="secondary"/>
    <tag k="lanes" v="3"/>
    <tag k="name" v="West Hawthorn Street"/>
    <tag k="oneway" v="yes"/>
    <tag k="sidewalk:both" v="separate"/>
    <tag k="surface" v="asphalt"/>
    <tag k="tiger:cfcc" v="A41"/>
    <tag k="tiger:county" v="San Diego, CA"/>
    <tag k="tiger:name_base" v="Hawthorn"/>
    <tag k="tiger:name_direction_prefix" v="W"/>
    <tag k="tiger:name_type" v="St"/>
  </way>
  <way id="642285128" version="4" timestamp="2024-12-01T15:00:01Z" changeset="159805284" uid="22137982" user="TeeEn">
    <nd ref="49097359"/>
    <nd ref="2654249501"/>
    <nd ref="4341705656"/>
    <tag k="highway" v="secondary"/>
    <tag k="lanes" v="2"/>
    <tag k="name" v="India Street"/>
    <tag k="oneway" v="yes"/>
    <tag k="sidewalk" v="both"/>
    <tag k="surface" v="asphalt"/>
    <tag k="tiger:cfcc" v="A41"/>
    <tag k="tiger:county" v="San Diego, CA"/>
    <tag k="tiger:name_base" v="India"/>
    <tag k="tiger:name_type" v="St"/>
  </way>
  <way id="642285129" version="4" timestamp="2024-12-01T14:59:52Z" changeset="159805284" uid="22137982" user="TeeEn">
    <nd ref="4607423407"/>
    <nd ref="5548107168"/>
    <nd ref="5548152513"/>
    <nd ref="10119189339"/>
    <nd ref="49121331"/>
    <tag k="highway" v="secondary"/>
    <tag k="lanes" v="2"/>
    <tag k="maxspeed" v="40 mph"/>
    <tag k="name" v="Kettner Boulevard"/>
    <tag k="oneway" v="yes"/>
    <tag k="sidewalk" v="both"/>
    <tag k="source:maxspeed" v="sign"/>
    <tag k="surface" v="asphalt"/>
    <tag k="tiger:cfcc" v="A41"/>
    <tag k="tiger:county" v="San Diego, CA"/>
    <tag k="tiger:name_base" v="Kettner"/>
    <tag k="tiger:name_type" v="Blvd"/>
  </way>
  <way id="642285133" version="6" timestamp="2025-01-22T22:00:50Z" changeset="161654434" uid="19361972" user="ericspellman">
    <nd ref="4343210872"/>
    <nd ref="10119246955"/>
    <nd ref="49429366"/>
    <nd ref="5546015476"/>
    <nd ref="49097802"/>
    <nd ref="275987220"/>
    <nd ref="10119189399"/>
    <nd ref="49429370"/>
    <tag k="highway" v="secondary"/>
    <tag k="lanes" v="2"/>
    <tag k="name" v="State Street"/>
    <tag k="oneway" v="yes"/>
    <tag k="sidewalk" v="both"/>
    <tag k="surface" v="asphalt"/>
    <tag k="tiger:cfcc" v="A41"/>
    <tag k="tiger:county" v="San Diego, CA"/>
    <tag k="tiger:name_base" v="State"/>
    <tag k="tiger:name_type" v="St"/>
  </way>
  <way id="642285134" version="5" timestamp="2022-10-21T16:24:44Z" changeset="127893094" uid="340741" user="CRCulver">
    <nd ref="49097355"/>
    <nd ref="7223672290"/>
    <nd ref="10119189398"/>
    <nd ref="10119189393"/>
    <nd ref="49175456"/>
    <tag k="highway" v="secondary"/>
    <tag k="lanes" v="3"/>
    <tag k="name" v="West Grape Street"/>
    <tag k="oneway" v="yes"/>
    <tag k="sidewalk" v="separate"/>
    <tag k="source" v="Bing"/>
    <tag k="surface" v="asphalt"/>
    <tag k="tiger:cfcc" v="A41"/>
    <tag k="tiger:county" v="San Diego, CA"/>
    <tag k="tiger:name_base" v="Grape"/>
    <tag k="tiger:name_direction_prefix" v="W"/>
    <tag k="tiger:name_type" v="St"/>
  </way>
  <way id="642285135" version="9" timestamp="2024-12-27T14:40:11Z" changeset="160679321" uid="340741" user="CRCulver">
    <nd ref="49097351"/>
    <nd ref="10278921766"/>
    <nd ref="49097352"/>
    <nd ref="4892497986"/>
    <nd ref="5546090437"/>
    <nd ref="5546090436"/>
    <nd ref="49097353"/>
    <nd ref="10119189383"/>
    <nd ref="7851506648"/>
    <nd ref="49097354"/>
    <tag k="cycleway:left" v="shared_lane"/>
    <tag k="highway" v="secondary"/>
    <tag k="lanes" v="2"/>
    <tag k="maxspeed" v="25 mph"/>
    <tag k="name" v="India Street"/>
    <tag k="oneway" v="yes"/>
    <tag k="sidewalk" v="separate"/>
    <tag k="source:maxspeed" v="sign"/>
    <tag k="surface" v="asphalt"/>
    <tag k="tiger:cfcc" v="A41"/>
    <tag k="tiger:county" v="San Diego, CA"/>
    <tag k="tiger:name_base" v="India"/>
    <tag k="tiger:name_type" v="St"/>
  </way>
  <way id="642285136" version="5" timestamp="2022-10-21T16:24:44Z" changeset="127893094" uid="340741" user="CRCulver">
    <nd ref="49385954"/>
    <nd ref="4607428641"/>
    <nd ref="10119189388"/>
    <nd ref="7223672293"/>
    <nd ref="49097355"/>
    <tag k="highway" v="secondary"/>
    <tag k="lanes" v="3"/>
    <tag k="name" v="West Grape Street"/>
    <tag k="oneway" v="yes"/>
    <tag k="sidewalk" v="separate"/>
    <tag k="source" v="Bing"/>
    <tag k="surface" v="asphalt"/>
    <tag k="tiger:cfcc" v="A41"/>
    <tag k="tiger:county" v="San Diego, CA"/>
    <tag k="tiger:name_base" v="Grape"/>
    <tag k="tiger:name_direction_prefix" v="W"/>
    <tag k="tiger:name_type" v="St"/>
  </way>
  <way id="642337372" version="5" timestamp="2024-10-25T18:15:58Z" changeset="158349700" uid="21820390" user="VLD288">
    <nd ref="49581781"/>
    <nd ref="10155308452"/>
    <nd ref="12288533336"/>
    <nd ref="49248284"/>
    <tag k="highway" v="secondary"/>
    <tag k="lanes" v="3"/>
    <tag k="maxspeed" v="25 mph"/>
    <tag k="name" v="Front Street"/>
    <tag k="oneway" v="yes"/>
    <tag k="sidewalk:both" v="separate"/>
    <tag k="source:maxspeed" v="sign"/>
    <tag k="surface" v="asphalt"/>
    <tag k="tiger:cfcc" v="A41"/>
    <tag k="tiger:county" v="San Diego, CA"/>
    <tag k="tiger:name_base" v="Front"/>
    <tag k="tiger:name_type" v="St"/>
  </way>
  <way id="642361032" version="6" timestamp="2024-12-27T14:40:11Z" changeset="160679321" uid="340741" user="CRCulver">
    <nd ref="49581781"/>
    <nd ref="10155308455"/>
    <nd ref="10155308458"/>
    <nd ref="10155308461"/>
    <nd ref="49608591"/>
    <tag k="cycleway" v="shared_lane"/>
    <tag k="highway" v="secondary"/>
    <tag k="lanes" v="3"/>
    <tag k="maxspeed" v="25 mph"/>
    <tag k="name" v="West Ash Street"/>
    <tag k="oneway" v="yes"/>
    <tag k="oneway:bicycle" v="yes"/>
    <tag k="sidewalk:both" v="separate"/>
    <tag k="source:maxspeed" v="sign"/>
    <tag k="surface" v="asphalt"/>
    <tag k="tiger:cfcc" v="A41"/>
    <tag k="tiger:county" v="San Diego, CA"/>
    <tag k="tiger:name_base" v="Ash"/>
    <tag k="tiger:name_direction_prefix" v="W"/>
    <tag k="tiger:name_type" v="St"/>
  </way>
  <way id="642751805" version="6" timestamp="2024-12-27T14:40:11Z" changeset="160679321" uid="340741" user="CRCulver">
    <nd ref="49608591"/>
    <nd ref="10155308459"/>
    <nd ref="10155308463"/>
    <nd ref="12285966551"/>
    <nd ref="49429355"/>
    <tag k="cycleway" v="shared_lane"/>
    <tag k="highway" v="secondary"/>
    <tag k="lanes" v="3"/>
    <tag k="maxspeed" v="25 mph"/>
    <tag k="name" v="West Ash Street"/>
    <tag k="oneway" v="yes"/>
    <tag k="oneway:bicycle" v="yes"/>
    <tag k="sidewalk:both" v="separate"/>
    <tag k="source:maxspeed" v="sign"/>
    <tag k="surface" v="asphalt"/>
    <tag k="tiger:cfcc" v="A41"/>
    <tag k="tiger:county" v="San Diego, CA"/>
    <tag k="tiger:name_base" v="Ash"/>
    <tag k="tiger:name_direction_prefix" v="W"/>
    <tag k="tiger:name_type" v="St"/>
  </way>
  <way id="642751806" version="4" timestamp="2024-12-27T14:40:11Z" changeset="160679321" uid="340741" user="CRCulver">
    <nd ref="49248285"/>
    <nd ref="10155308342"/>
    <nd ref="10155308337"/>
    <nd ref="5545620618"/>
    <nd ref="5545620609"/>
    <nd ref="5545620619"/>
    <nd ref="10155308456"/>
    <nd ref="10155308460"/>
    <nd ref="49608591"/>
    <tag k="highway" v="tertiary"/>
    <tag k="lanes" v="2"/>
    <tag k="name" v="Union Street"/>
    <tag k="sidewalk:both" v="separate"/>
    <tag k="surface" v="asphalt"/>
    <tag k="tiger:cfcc" v="A41"/>
    <tag k="tiger:county" v="San Diego, CA"/>
    <tag k="tiger:name_base" v="Union"/>
    <tag k="tiger:name_type" v="St"/>
  </way>
  <way id="693498200" version="6" timestamp="2024-12-27T14:40:11Z" changeset="160679321" uid="340741" user="CRCulver">
    <nd ref="10119189385"/>
    <nd ref="10119189384"/>
    <nd ref="49097804"/>
    <tag k="highway" v="residential"/>
    <tag k="lanes" v="2"/>
    <tag k="name" v="West Fir Street"/>
    <tag k="sidewalk:left" v="separate"/>
    <tag k="surface" v="asphalt"/>
    <tag k="tiger:cfcc" v="A41"/>
    <tag k="tiger:county" v="San Diego, CA"/>
    <tag k="tiger:name_base" v="Fir"/>
    <tag k="tiger:name_direction_prefix" v="W"/>
    <tag k="tiger:name_type" v="St"/>
  </way>
  <way id="693498201" version="9" timestamp="2024-12-27T14:40:11Z" changeset="160679321" uid="340741" user="CRCulver">
    <nd ref="10119189386"/>
    <nd ref="5546086815"/>
    <nd ref="10119189387"/>
    <nd ref="7223672291"/>
    <tag k="cycleway:left" v="shared_lane"/>
    <tag k="highway" v="secondary"/>
    <tag k="lanes" v="2"/>
    <tag k="maxspeed" v="25 mph"/>
    <tag k="name" v="India Street"/>
    <tag k="oneway" v="yes"/>
    <tag k="sidewalk:left" v="yes"/>
    <tag k="sidewalk:right" v="separate"/>
    <tag k="source:maxspeed" v="sign"/>
    <tag k="surface" v="asphalt"/>
    <tag k="tiger:cfcc" v="A41"/>
    <tag k="tiger:county" v="San Diego, CA"/>
    <tag k="tiger:name_base" v="India"/>
    <tag k="tiger:name_type" v="St"/>
    <tag k="turn:lanes" v="through|through;right"/>
  </way>
  <way id="693498202" version="6" timestamp="2024-12-27T14:40:11Z" changeset="160679321" uid="340741" user="CRCulver">
    <nd ref="49097803"/>
    <nd ref="4892497723"/>
    <nd ref="4892497756"/>
    <nd ref="10119189382"/>
    <nd ref="4892497741"/>
    <nd ref="49097354"/>
    <tag k="highway" v="residential"/>
    <tag k="lane_markings" v="no"/>
    <tag k="lanes" v="1"/>
    <tag k="name" v="West Fir Street"/>
    <tag k="oneway" v="yes"/>
    <tag k="sidewalk" v="separate"/>
    <tag k="surface" v="asphalt"/>
    <tag k="tiger:cfcc" v="A41"/>
    <tag k="tiger:county" v="San Diego, CA"/>
    <tag k="tiger:name_base" v="Fir"/>
    <tag k="tiger:name_direction_prefix" v="W"/>
    <tag k="tiger:name_type" v="St"/>
  </way>
  <way id="693498203" version="10" timestamp="2024-12-28T03:30:31Z" changeset="160699459" uid="22137982" user="TeeEn">
    <nd ref="49097803"/>
    <nd ref="49175453"/>
    <nd ref="8893505193"/>
    <nd ref="8893505210"/>
    <nd ref="4892497783"/>
    <nd ref="8893505213"/>
    <nd ref="10119246996"/>
    <nd ref="10119246997"/>
    <tag k="highway" v="secondary"/>
    <tag k="lanes" v="3"/>
    <tag k="name" v="Columbia Street"/>
    <tag k="oneway" v="yes"/>
    <tag k="sidewalk:right" v="separate"/>
    <tag k="surface" v="asphalt"/>
    <tag k="tiger:cfcc" v="A41"/>
    <tag k="tiger:county" v="San Diego, CA"/>
    <tag k="tiger:name_base" v="Columbia"/>
    <tag k="tiger:name_type" v="St"/>
  </way>
  <way id="784651570" version="1" timestamp="2020-03-26T01:03:31Z" changeset="82633158" uid="381909" user="JessAk71">
    <nd ref="7330371533"/>
    <nd ref="7330371532"/>
    <nd ref="7330371531"/>
    <nd ref="7330371530"/>
    <nd ref="7330371533"/>
    <tag k="building" v="yes"/>
    <tag k="building:levels" v="6"/>
    <tag k="name" v="AV8 Apartments"/>
    <tag k="source" v="EsriWorldImagery"/>
  </way>
  <way id="784868979" version="2" timestamp="2021-07-04T23:03:55Z" changeset="107409112" uid="12420519" user="plumb bob">
    <nd ref="7332749834"/>
    <nd ref="8893505189"/>
    <nd ref="8893505190"/>
    <nd ref="8893505191"/>
    <nd ref="8893505195"/>
    <nd ref="8893505192"/>
    <nd ref="7332749830"/>
    <nd ref="8893505194"/>
    <nd ref="7332749829"/>
    <nd ref="4892497772"/>
    <nd ref="4892497742"/>
    <nd ref="7332749834"/>
    <tag k="addr:city" v="San Diego"/>
    <tag k="addr:housenumber" v="1810"/>
    <tag k="addr:postcode" v="92101"/>
    <tag k="addr:state" v="CA"/>
    <tag k="addr:street" v="State Street"/>
    <tag k="building" v="apartments"/>
    <tag k="building:flats" v="101"/>
    <tag k="building:levels" v="8"/>
    <tag k="description" v="https://1810state.com/&#x0a;+18552085828"/>
    <tag k="name" v="Eighteen Ten State St."/>
    <tag k="source" v="Mapbox;local knowledge"/>
  </way>
  <way id="784868980" version="1" timestamp="2020-03-26T18:11:00Z" changeset="82676824" uid="381909" user="JessAk71">
    <nd ref="7332749832"/>
    <nd ref="356084162"/>
    <nd ref="356086129"/>
    <nd ref="7332749833"/>
    <nd ref="7332749832"/>
    <tag k="building" v="yes"/>
    <tag k="building:levels" v="5"/>
    <tag k="name" v="Amo"/>
    <tag k="source" v="Mapbox"/>
  </way>
  <way id="851575872" version="3" timestamp="2024-12-27T14:40:11Z" changeset="160679321" uid="340741" user="CRCulver">
    <nd ref="7942631016"/>
    <nd ref="2800750762"/>
    <tag k="highway" v="secondary_link"/>
    <tag k="maxspeed" v="25 mph"/>
    <tag k="oneway" v="yes"/>
    <tag k="source:maxspeed" v="sign"/>
    <tag k="surface" v="asphalt"/>
    <tag k="tiger:cfcc" v="A41"/>
    <tag k="tiger:county" v="San Diego, CA"/>
    <tag k="tiger:name_base" v="Date"/>
    <tag k="tiger:name_direction_prefix" v="W"/>
    <tag k="tiger:name_type" v="St"/>
  </way>
  <way id="851575873" version="6" timestamp="2024-10-25T14:59:22Z" changeset="158342024" uid="20828150" user="VLD316">
    <nd ref="12288222596"/>
    <nd ref="11309725153"/>
    <nd ref="49135031"/>
    <tag k="highway" v="secondary"/>
    <tag k="lanes" v="3"/>
    <tag k="maxspeed" v="25 mph"/>
    <tag k="name" v="Front Street"/>
    <tag k="oneway" v="yes"/>
    <tag k="sidewalk:both" v="separate"/>
    <tag k="source:maxspeed" v="sign"/>
    <tag k="surface" v="asphalt"/>
    <tag k="tiger:cfcc" v="A41"/>
    <tag k="tiger:county" v="San Diego, CA"/>
    <tag k="tiger:name_base" v="Front"/>
    <tag k="tiger:name_type" v="St"/>
  </way>
  <way id="857632147" version="3" timestamp="2021-04-25T22:18:32Z" changeset="103594065" uid="381909" user="JessAk71">
    <nd ref="7995871229"/>
    <nd ref="7995871230"/>
    <nd ref="7995871231"/>
    <nd ref="7995871232"/>
    <nd ref="7995871229"/>
    <tag k="addr:city" v="San Diego"/>
    <tag k="addr:housenumber" v="606"/>
    <tag k="addr:postcode" v="92101"/>
    <tag k="addr:state" v="CA"/>
    <tag k="addr:street" v="West Date Street"/>
    <tag k="building" v="yes"/>
    <tag k="name" v="La Pensione Hotel"/>
    <tag k="source" v="microsoft/BuildingFootprints"/>
    <tag k="tourism" v="hotel"/>
  </way>
  <way id="857632164" version="2" timestamp="2023-11-28T09:56:36Z" changeset="144540952" uid="19889694" user="Sujanmanandhar">
    <nd ref="7995871331"/>
    <nd ref="7995871332"/>
    <nd ref="7995871333"/>
    <nd ref="7995871334"/>
    <nd ref="7995871331"/>
    <tag k="addr:city" v="San Diego"/>
    <tag k="addr:housenumber" v="550"/>
    <tag k="addr:postcode" v="92101"/>
    <tag k="addr:state" v="CA"/>
    <tag k="addr:street" v="West Grape Street"/>
    <tag k="building" v="yes"/>
    <tag k="name" v="Harborview Inn &amp; Suites"/>
    <tag k="source" v="microsoft/BuildingFootprints"/>
    <tag k="tourism" v="hotel"/>
  </way>
  <way id="930885894" version="3" timestamp="2023-12-31T08:38:29Z" changeset="145723295" uid="384667" user="MxxCon">
    <nd ref="8631066794"/>
    <nd ref="8631066795"/>
    <nd ref="8631066796"/>
    <nd ref="8631066797"/>
    <nd ref="8631066798"/>
    <nd ref="8631066799"/>
    <nd ref="8631066791"/>
    <nd ref="8631066792"/>
    <nd ref="7995871292"/>
    <nd ref="8631066794"/>
    <tag k="addr:city" v="San Diego"/>
    <tag k="addr:country" v="US"/>
    <tag k="addr:housenumber" v="505"/>
    <tag k="addr:postcode" v="92101"/>
    <tag k="addr:state" v="CA"/>
    <tag k="addr:street" v="West Grape Street"/>
    <tag k="building" v="yes"/>
    <tag k="internet_access" v="wlan"/>
    <tag k="internet_access:fee" v="no"/>
    <tag k="name" v="Found San Diego - Little Italy Inn"/>
    <tag k="rooms" v="23"/>
    <tag k="smoking" v="no"/>
    <tag k="source" v="SanGIS Addresses Public Domain (http://www.sangis.org/)"/>
    <tag k="tourism" v="hotel"/>
  </way>
  <way id="932315272" version="2" timestamp="2021-04-25T22:09:23Z" changeset="103593845" uid="381909" user="JessAk71">
    <nd ref="8642655301"/>
    <nd ref="8642655302"/>
    <nd ref="8642655303"/>
    <nd ref="8642655304"/>
    <nd ref="8642655305"/>
    <nd ref="8642655306"/>
    <nd ref="8642655307"/>
    <nd ref="8642655308"/>
    <nd ref="8642655309"/>
    <nd ref="8642655310"/>
    <nd ref="8642655311"/>
    <nd ref="8642655312"/>
    <nd ref="8642655313"/>
    <nd ref="8642655314"/>
    <nd ref="8642655315"/>
    <nd ref="8642655316"/>
    <nd ref="8642668417"/>
    <nd ref="8642668418"/>
    <nd ref="8642668419"/>
    <nd ref="8642668420"/>
    <nd ref="8642655301"/>
    <tag k="addr:city" v="San Diego"/>
    <tag k="addr:housenumber" v="1654"/>
    <tag k="addr:postcode" v="92101"/>
    <tag k="addr:state" v="CA"/>
    <tag k="addr:street" v="Columbia Street"/>
    <tag k="building" v="yes"/>
    <tag k="name" v="Urban Boutique Hotel"/>
    <tag k="tourism" v="hotel"/>
  </way>
  <way id="963615452" version="4" timestamp="2024-12-10T02:40:07Z" changeset="160112855" uid="22137982" user="TeeEn">
    <nd ref="8913473696"/>
    <nd ref="49365348"/>
    <nd ref="8913473697"/>
    <tag k="highway" v="secondary"/>
    <tag k="maxheight" v="15'2&quot;"/>
    <tag k="name" v="West Hawthorn Street"/>
    <tag k="oneway" v="yes"/>
    <tag k="sidewalk:right" v="separate"/>
    <tag k="surface" v="asphalt"/>
    <tag k="tiger:cfcc" v="A41"/>
    <tag k="tiger:county" v="San Diego, CA"/>
    <tag k="tiger:name_base" v="Hawthorn"/>
    <tag k="tiger:name_direction_prefix" v="W"/>
    <tag k="tiger:name_type" v="St"/>
  </way>
  <way id="1007576772" version="6" timestamp="2024-12-27T07:44:05Z" changeset="160664055" uid="22137982" user="TeeEn">
    <nd ref="49429370"/>
    <nd ref="275658722"/>
    <nd ref="275658723"/>
    <nd ref="275987147"/>
    <nd ref="275658400"/>
    <nd ref="9295586846"/>
    <tag k="bicycle" v="no"/>
    <tag k="cycleway:left" v="no"/>
    <tag k="destination:ref" v="I 5 South"/>
    <tag k="highway" v="motorway_link"/>
    <tag k="lanes" v="2"/>
    <tag k="oneway" v="yes"/>
    <tag k="sidewalk" v="no"/>
    <tag k="surface" v="asphalt"/>
    <tag k="tiger:cfcc" v="A63"/>
    <tag k="tiger:county" v="San Diego, CA"/>
    <tag k="turn:lanes" v="none|merge_to_left"/>
  </way>
  <way id="1011576064" version="2" timestamp="2022-12-01T16:56:26Z" changeset="129611965" uid="2087961" user="JasonBob">
    <nd ref="9333220286"/>
    <nd ref="9333220287"/>
    <nd ref="9333220288"/>
    <nd ref="9333220289"/>
    <nd ref="9333220286"/>
    <tag k="building" v="yes"/>
    <tag k="building:levels" v="1"/>
    <tag k="name" v="Amici House"/>
    <tag k="source" v="microsoft/BuildingFootprints"/>
  </way>
  <way id="1021032475" version="3" timestamp="2022-10-21T16:24:44Z" changeset="127893094" uid="340741" user="CRCulver">
    <nd ref="49175458"/>
    <nd ref="10119189431"/>
    <nd ref="5548153283"/>
    <nd ref="9503996076"/>
    <tag k="highway" v="secondary"/>
    <tag k="lanes" v="3"/>
    <tag k="name" v="Columbia Street"/>
    <tag k="oneway" v="yes"/>
    <tag k="sidewalk" v="separate"/>
    <tag k="surface" v="asphalt"/>
    <tag k="tiger:cfcc" v="A41"/>
    <tag k="tiger:county" v="San Diego, CA"/>
    <tag k="tiger:name_base" v="Columbia"/>
    <tag k="tiger:name_type" v="St"/>
  </way>
  <way id="1021032476" version="4" timestamp="2024-12-28T03:30:08Z" changeset="160699459" uid="22137982" user="TeeEn">
    <nd ref="10119189395"/>
    <nd ref="7594019915"/>
    <nd ref="10119189400"/>
    <nd ref="49429370"/>
    <tag k="highway" v="secondary"/>
    <tag k="lanes" v="3"/>
    <tag k="name" v="West Grape Street"/>
    <tag k="oneway" v="yes"/>
    <tag k="sidewalk:left" v="separate"/>
    <tag k="source" v="Bing"/>
    <tag k="surface" v="asphalt"/>
    <tag k="tiger:cfcc" v="A41"/>
    <tag k="tiger:county" v="San Diego, CA"/>
    <tag k="tiger:name_base" v="Grape"/>
    <tag k="tiger:name_direction_prefix" v="W"/>
    <tag k="tiger:name_type" v="St"/>
    <tag k="turn:lanes" v="|through;right|right"/>
  </way>
  <way id="1031069857" version="3" timestamp="2024-08-26T21:44:54Z" changeset="155803713" uid="21888946" user="ClimGeoData">
    <nd ref="9503996076"/>
    <nd ref="10119189397"/>
    <nd ref="10119189396"/>
    <nd ref="49175456"/>
    <tag k="highway" v="secondary"/>
    <tag k="lanes" v="3"/>
    <tag k="name" v="Columbia Street"/>
    <tag k="oneway" v="yes"/>
    <tag k="sidewalk" v="separate"/>
    <tag k="surface" v="asphalt"/>
    <tag k="tiger:cfcc" v="A41"/>
    <tag k="tiger:county" v="San Diego, CA"/>
    <tag k="tiger:name_base" v="Columbia"/>
    <tag k="tiger:name_type" v="St"/>
    <tag k="turn:lanes" v="left|none|none"/>
  </way>
  <way id="1035904890" version="3" timestamp="2024-09-19T02:00:03Z" changeset="156798823" uid="21888946" user="ClimGeoData">
    <nd ref="49429370"/>
    <nd ref="12185259238"/>
    <nd ref="49429371"/>
    <nd ref="5548153284"/>
    <nd ref="49429374"/>
    <nd ref="10119189414"/>
    <nd ref="49365352"/>
    <tag k="highway" v="secondary"/>
    <tag k="lanes" v="2"/>
    <tag k="name" v="State Street"/>
    <tag k="oneway" v="yes"/>
    <tag k="sidewalk" v="separate"/>
    <tag k="surface" v="asphalt"/>
    <tag k="tiger:cfcc" v="A41"/>
    <tag k="tiger:county" v="San Diego, CA"/>
    <tag k="tiger:name_base" v="State"/>
    <tag k="tiger:name_type" v="St"/>
  </way>
  <way id="1035904891" version="4" timestamp="2024-12-10T02:40:02Z" changeset="160112855" uid="22137982" user="TeeEn">
    <nd ref="8913473697"/>
    <nd ref="10119189415"/>
    <nd ref="49365352"/>
    <tag k="highway" v="secondary"/>
    <tag k="lanes" v="3"/>
    <tag k="name" v="West Hawthorn Street"/>
    <tag k="oneway" v="yes"/>
    <tag k="sidewalk:right" v="separate"/>
    <tag k="surface" v="asphalt"/>
    <tag k="tiger:cfcc" v="A41"/>
    <tag k="tiger:county" v="San Diego, CA"/>
    <tag k="tiger:name_base" v="Hawthorn"/>
    <tag k="tiger:name_direction_prefix" v="W"/>
    <tag k="tiger:name_type" v="St"/>
  </way>
  <way id="1035904892" version="6" timestamp="2024-12-31T10:01:14Z" changeset="160822659" uid="22137982" user="TeeEn">
    <nd ref="12140835331"/>
    <nd ref="10119189428"/>
    <nd ref="9544267217"/>
    <tag k="cycleway:left" v="no"/>
    <tag k="highway" v="secondary"/>
    <tag k="lanes" v="2"/>
    <tag k="name" v="State Street"/>
    <tag k="oneway" v="yes"/>
    <tag k="surface" v="asphalt"/>
    <tag k="tiger:cfcc" v="A41"/>
    <tag k="tiger:county" v="San Diego, CA"/>
    <tag k="tiger:name_base" v="State"/>
    <tag k="tiger:name_type" v="St"/>
    <tag k="turn:lanes" v="|merge_to_left"/>
  </way>
  <way id="1036284313" version="4" timestamp="2024-12-01T14:38:39Z" changeset="159805284" uid="22137982" user="TeeEn">
    <nd ref="49175449"/>
    <nd ref="5546015498"/>
    <nd ref="5546015495"/>
    <nd ref="5836926623"/>
    <nd ref="12286354167"/>
    <nd ref="49135036"/>
    <nd ref="12286354169"/>
    <nd ref="5545620562"/>
    <nd ref="9547323223"/>
    <tag k="highway" v="secondary"/>
    <tag k="lanes" v="3"/>
    <tag k="name" v="Columbia Street"/>
    <tag k="oneway" v="yes"/>
    <tag k="sidewalk:both" v="separate"/>
    <tag k="surface" v="asphalt"/>
    <tag k="tiger:cfcc" v="A41"/>
    <tag k="tiger:county" v="San Diego, CA"/>
    <tag k="tiger:name_base" v="Columbia"/>
    <tag k="tiger:name_type" v="St"/>
  </way>
  <way id="1036284314" version="8" timestamp="2024-12-27T14:40:11Z" changeset="160679321" uid="340741" user="CRCulver">
    <nd ref="12288222599"/>
    <nd ref="49047361"/>
    <nd ref="10155289311"/>
    <nd ref="10155289305"/>
    <nd ref="5545620566"/>
    <nd ref="12286316162"/>
    <nd ref="49047362"/>
    <tag k="cycleway:left" v="track"/>
    <tag k="highway" v="tertiary"/>
    <tag k="lanes" v="2"/>
    <tag k="name" v="West Beech Street"/>
    <tag k="oneway:bicycle" v="no"/>
    <tag k="sidewalk:both" v="separate"/>
    <tag k="surface" v="asphalt"/>
  </way>
  <way id="1036284315" version="4" timestamp="2024-12-27T13:35:13Z" changeset="160674811" uid="22137982" user="TeeEn">
    <nd ref="9547323223"/>
    <nd ref="12286316165"/>
    <nd ref="49047362"/>
    <tag k="highway" v="secondary"/>
    <tag k="lanes" v="3"/>
    <tag k="name" v="Columbia Street"/>
    <tag k="oneway" v="yes"/>
    <tag k="sidewalk:both" v="separate"/>
    <tag k="surface" v="asphalt"/>
    <tag k="tiger:cfcc" v="A41"/>
    <tag k="tiger:county" v="San Diego, CA"/>
    <tag k="tiger:name_base" v="Columbia"/>
    <tag k="tiger:name_type" v="St"/>
    <tag k="turn:lanes" v="none|none|right"/>
  </way>
  <way id="1040116563" version="3" timestamp="2024-09-19T03:51:46Z" changeset="156800276" uid="21888946" user="ClimGeoData">
    <nd ref="49429370"/>
    <nd ref="275592387"/>
    <nd ref="9211705787"/>
    <tag k="highway" v="secondary"/>
    <tag k="lanes" v="2"/>
    <tag k="name" v="West Grape Street"/>
    <tag k="oneway" v="yes"/>
    <tag k="sidewalk:both" v="separate"/>
    <tag k="source" v="Bing"/>
    <tag k="surface" v="asphalt"/>
    <tag k="tiger:cfcc" v="A41"/>
    <tag k="tiger:county" v="San Diego, CA"/>
    <tag k="tiger:name_base" v="Grape"/>
    <tag k="tiger:name_direction_prefix" v="W"/>
    <tag k="tiger:name_type" v="St"/>
  </way>
  <way id="1040752354" version="6" timestamp="2025-01-22T22:00:50Z" changeset="161654434" uid="19361972" user="ericspellman">
    <nd ref="49420403"/>
    <nd ref="10768940502"/>
    <tag k="highway" v="secondary"/>
    <tag k="lanes" v="3"/>
    <tag k="name" v="State Street"/>
    <tag k="oneway" v="yes"/>
    <tag k="sidewalk:both" v="yes"/>
    <tag k="surface" v="asphalt"/>
    <tag k="tiger:cfcc" v="A41"/>
    <tag k="tiger:county" v="San Diego, CA"/>
    <tag k="tiger:name_base" v="State"/>
    <tag k="tiger:name_type" v="St"/>
  </way>
  <way id="1040752355" version="3" timestamp="2025-01-22T22:00:50Z" changeset="161654434" uid="19361972" user="ericspellman">
    <nd ref="9582424961"/>
    <nd ref="9582424962"/>
    <tag k="highway" v="secondary"/>
    <tag k="lanes" v="2"/>
    <tag k="name" v="State Street"/>
    <tag k="oneway" v="yes"/>
    <tag k="sidewalk" v="both"/>
    <tag k="surface" v="asphalt"/>
    <tag k="tiger:cfcc" v="A41"/>
    <tag k="tiger:county" v="San Diego, CA"/>
    <tag k="tiger:name_base" v="State"/>
    <tag k="tiger:name_type" v="St"/>
  </way>
  <way id="1071843943" version="5" timestamp="2024-10-25T14:59:22Z" changeset="158342024" uid="20828150" user="VLD316">
    <nd ref="49135031"/>
    <nd ref="11309725151"/>
    <nd ref="10155289286"/>
    <nd ref="10155289290"/>
    <nd ref="49047359"/>
    <nd ref="9995581494"/>
    <nd ref="10155289288"/>
    <nd ref="5545620581"/>
    <nd ref="5545620575"/>
    <nd ref="5545620586"/>
    <nd ref="12288222597"/>
    <tag k="highway" v="secondary"/>
    <tag k="lanes" v="3"/>
    <tag k="maxspeed" v="25 mph"/>
    <tag k="name" v="Front Street"/>
    <tag k="oneway" v="yes"/>
    <tag k="sidewalk:both" v="separate"/>
    <tag k="source:maxspeed" v="sign"/>
    <tag k="surface" v="asphalt"/>
  </way>
  <way id="1071843944" version="2" timestamp="2024-10-25T14:59:22Z" changeset="158342024" uid="20828150" user="VLD316">
    <nd ref="5546015494"/>
    <nd ref="2800750756"/>
    <nd ref="275659823"/>
    <nd ref="2800750755"/>
    <nd ref="2800750754"/>
    <nd ref="2800750753"/>
    <nd ref="49031027"/>
    <tag k="highway" v="residential"/>
    <tag k="lanes" v="2"/>
    <tag k="name" v="Cedar Street"/>
    <tag k="oneway" v="yes"/>
    <tag k="sidewalk:both" v="separate"/>
    <tag k="tiger:cfcc" v="A41"/>
    <tag k="tiger:county" v="San Diego, CA"/>
    <tag k="tiger:name_base" v="Cedar"/>
    <tag k="tiger:name_direction_prefix" v="W"/>
    <tag k="tiger:name_type" v="St"/>
    <tag k="turn:lanes" v="left|left"/>
  </way>
  <way id="1071878341" version="4" timestamp="2024-12-28T03:15:05Z" changeset="160699324" uid="22137982" user="TeeEn">
    <nd ref="4794438404"/>
    <nd ref="9900108050"/>
    <nd ref="9900108051"/>
    <nd ref="9900108114"/>
    <nd ref="9900108112"/>
    <nd ref="9900108113"/>
    <nd ref="9900108111"/>
    <nd ref="9900108052"/>
    <nd ref="9900108092"/>
    <nd ref="9900108053"/>
    <nd ref="49135040"/>
    <tag k="cycleway:left" v="no"/>
    <tag k="highway" v="tertiary"/>
    <tag k="lanes" v="1"/>
    <tag k="name" v="West Cedar Street"/>
    <tag k="oneway" v="yes"/>
    <tag k="sidewalk:left" v="no"/>
    <tag k="sidewalk:right" v="separate"/>
    <tag k="surface" v="asphalt"/>
    <tag k="tiger:cfcc" v="A41"/>
    <tag k="tiger:county" v="San Diego, CA"/>
    <tag k="tiger:name_base" v="Cedar"/>
    <tag k="tiger:name_direction_prefix" v="W"/>
    <tag k="tiger:name_type" v="St"/>
  </way>
  <way id="1071881870" version="4" timestamp="2023-04-20T12:55:08Z" changeset="135147164" uid="61341" user="RubenKelevra">
    <nd ref="49135040"/>
    <nd ref="4607428631"/>
    <nd ref="2802600987"/>
    <nd ref="9900108094"/>
    <nd ref="10681182136"/>
    <nd ref="49047364"/>
    <tag k="cycleway:left" v="shared_lane"/>
    <tag k="highway" v="secondary"/>
    <tag k="lanes" v="2"/>
    <tag k="maxspeed" v="40 mph"/>
    <tag k="name" v="Kettner Boulevard"/>
    <tag k="oneway" v="yes"/>
    <tag k="sidewalk:both" v="separate"/>
    <tag k="source:maxspeed" v="sign"/>
    <tag k="tiger:cfcc" v="A41"/>
    <tag k="tiger:county" v="San Diego, CA"/>
    <tag k="tiger:name_base" v="Kettner"/>
    <tag k="tiger:name_type" v="Blvd"/>
  </way>
  <way id="1080075917" version="5" timestamp="2024-12-28T03:15:07Z" changeset="160699324" uid="22137982" user="TeeEn">
    <nd ref="4607428632"/>
    <nd ref="1111263640"/>
    <nd ref="1815809499"/>
    <nd ref="1107245555"/>
    <nd ref="1105811829"/>
    <nd ref="49135042"/>
    <nd ref="9900108049"/>
    <nd ref="4794438404"/>
    <tag k="cycleway:left" v="no"/>
    <tag k="highway" v="tertiary"/>
    <tag k="lanes" v="1"/>
    <tag k="name" v="West Cedar Street"/>
    <tag k="oneway" v="yes"/>
    <tag k="sidewalk" v="right"/>
    <tag k="surface" v="asphalt"/>
    <tag k="tiger:cfcc" v="A41"/>
    <tag k="tiger:county" v="San Diego, CA"/>
    <tag k="tiger:name_base" v="Cedar"/>
    <tag k="tiger:name_direction_prefix" v="W"/>
    <tag k="tiger:name_type" v="St"/>
  </way>
  <way id="1091329284" version="6" timestamp="2024-12-27T14:40:11Z" changeset="160679321" uid="340741" user="CRCulver">
    <nd ref="49047363"/>
    <nd ref="10681182147"/>
    <nd ref="10681182112"/>
    <nd ref="10681182139"/>
    <nd ref="49047364"/>
    <tag k="cycleway:left" v="track"/>
    <tag k="highway" v="tertiary"/>
    <tag k="lanes" v="2"/>
    <tag k="name" v="West Beech Street"/>
    <tag k="oneway:bicycle" v="no"/>
    <tag k="sidewalk:both" v="separate"/>
    <tag k="surface" v="asphalt"/>
  </way>
  <way id="1093796163" version="7" timestamp="2024-12-27T07:42:28Z" changeset="160664055" uid="22137982" user="TeeEn">
    <nd ref="306302165"/>
    <nd ref="12083790109"/>
    <nd ref="12083790110"/>
    <nd ref="49750805"/>
    <tag k="bicycle" v="no"/>
    <tag k="cycleway:left" v="no"/>
    <tag k="hgv" v="designated"/>
    <tag k="highway" v="motorway"/>
    <tag k="lanes" v="4"/>
    <tag k="maxspeed" v="65 mph"/>
    <tag k="maxspeed:hgv" v="55 mph"/>
    <tag k="maxspeed:trailer" v="55 mph"/>
    <tag k="name" v="San Diego Freeway"/>
    <tag k="oneway" v="yes"/>
    <tag k="ref" v="I 5"/>
    <tag k="source:maxspeed" v="sign"/>
    <tag k="surface" v="concrete"/>
    <tag k="tiger:cfcc" v="A15"/>
    <tag k="tiger:county" v="San Diego, CA"/>
    <tag k="tiger:name_base" v="I-5"/>
    <tag k="tiger:name_base_1" v="San Diego"/>
    <tag k="tiger:name_type_1" v="Fwy"/>
  </way>
  <way id="1105840865" version="1" timestamp="2022-10-21T16:24:44Z" changeset="127893094" uid="340741" user="CRCulver">
    <nd ref="49175458"/>
    <nd ref="10119189430"/>
    <nd ref="10119189422"/>
    <nd ref="10119189436"/>
    <nd ref="49097356"/>
    <tag k="highway" v="secondary"/>
    <tag k="lanes" v="3"/>
    <tag k="name" v="West Hawthorn Street"/>
    <tag k="oneway" v="yes"/>
    <tag k="sidewalk" v="separate"/>
    <tag k="surface" v="asphalt"/>
    <tag k="tiger:cfcc" v="A41"/>
    <tag k="tiger:county" v="San Diego, CA"/>
    <tag k="tiger:name_base" v="Hawthorn"/>
    <tag k="tiger:name_direction_prefix" v="W"/>
    <tag k="tiger:name_type" v="St"/>
  </way>
  <way id="1110082723" version="3" timestamp="2024-10-25T14:59:22Z" changeset="158342024" uid="20828150" user="VLD316">
    <nd ref="49047359"/>
    <nd ref="10155289291"/>
    <nd ref="10155289287"/>
    <nd ref="5545620569"/>
    <nd ref="10155289295"/>
    <nd ref="10155289303"/>
    <nd ref="49047360"/>
    <tag k="cycleway:left" v="track"/>
    <tag k="highway" v="tertiary"/>
    <tag k="name" v="West Beech Street"/>
    <tag k="oneway:bicycle" v="no"/>
    <tag k="sidewalk:both" v="separate"/>
    <tag k="surface" v="asphalt"/>
  </way>
  <way id="1110082735" version="3" timestamp="2024-09-19T03:56:52Z" changeset="156800276" uid="21888946" user="ClimGeoData">
    <nd ref="49047358"/>
    <nd ref="10155289280"/>
    <nd ref="10155289269"/>
    <nd ref="10155289285"/>
    <nd ref="10155289289"/>
    <nd ref="49047359"/>
    <tag k="cycleway:left" v="track"/>
    <tag k="highway" v="tertiary"/>
    <tag k="name" v="West Beech Street"/>
    <tag k="oneway:bicycle" v="no"/>
    <tag k="sidewalk:both" v="separate"/>
    <tag k="surface" v="asphalt"/>
  </way>
  <way id="1131040396" version="3" timestamp="2024-10-03T18:24:20Z" changeset="157431851" uid="2087961" user="JasonBob">
    <nd ref="356115026"/>
    <nd ref="10541900521"/>
    <nd ref="12219186060"/>
    <nd ref="10541900522"/>
    <nd ref="12219186059"/>
    <nd ref="10541900523"/>
    <nd ref="356098359"/>
    <nd ref="356107343"/>
    <nd ref="356115026"/>
    <tag k="building" v="yes"/>
    <tag k="construction" v="residential"/>
    <tag k="name" v="Simone"/>
  </way>
  <way id="1164159228" version="2" timestamp="2024-12-27T13:32:01Z" changeset="160674811" uid="22137982" user="TeeEn">
    <nd ref="49097349"/>
    <nd ref="10155308476"/>
    <nd ref="5545505515"/>
    <nd ref="4341675288"/>
    <tag k="cycleway:left" v="shared_lane"/>
    <tag k="highway" v="secondary"/>
    <tag k="lanes" v="2"/>
    <tag k="name" v="India Street"/>
    <tag k="oneway" v="yes"/>
    <tag k="sidewalk:both" v="separate"/>
    <tag k="surface" v="asphalt"/>
    <tag k="tiger:cfcc" v="A41"/>
    <tag k="tiger:county" v="San Diego, CA"/>
    <tag k="tiger:name_base" v="India"/>
    <tag k="tiger:name_type" v="St"/>
  </way>
  <way id="1164159265" version="2" timestamp="2024-12-27T13:29:12Z" changeset="160674811" uid="22137982" user="TeeEn">
    <nd ref="49097349"/>
    <nd ref="10155308475"/>
    <nd ref="2802601915"/>
    <nd ref="2802601914"/>
    <nd ref="4344762329"/>
    <tag k="cycleway" v="shared_lane"/>
    <tag k="highway" v="secondary"/>
    <tag k="lanes" v="3"/>
    <tag k="name" v="West Ash Street"/>
    <tag k="oneway" v="yes"/>
    <tag k="oneway:bicycle" v="yes"/>
    <tag k="sidewalk:both" v="separate"/>
    <tag k="tiger:cfcc" v="A41"/>
    <tag k="tiger:county" v="San Diego, CA"/>
    <tag k="tiger:name_base" v="Ash"/>
    <tag k="tiger:name_direction_prefix" v="W"/>
    <tag k="tiger:name_type" v="St"/>
  </way>
  <way id="1164163798" version="5" timestamp="2024-12-27T14:40:11Z" changeset="160679321" uid="340741" user="CRCulver">
    <nd ref="49047362"/>
    <nd ref="12286316164"/>
    <nd ref="10681182145"/>
    <nd ref="49047363"/>
    <tag k="cycleway:left" v="track"/>
    <tag k="highway" v="tertiary"/>
    <tag k="lanes" v="2"/>
    <tag k="name" v="West Beech Street"/>
    <tag k="oneway:bicycle" v="no"/>
    <tag k="sidewalk:both" v="separate"/>
    <tag k="surface" v="asphalt"/>
  </way>
  <way id="1164163901" version="4" timestamp="2025-04-17T17:34:41Z" changeset="165082845" uid="18783059" user="subham_lyft">
    <nd ref="49097350"/>
    <nd ref="10681182155"/>
    <nd ref="12762796982"/>
    <tag k="highway" v="tertiary"/>
    <tag k="name" v="West Cedar Street"/>
    <tag k="sidewalk:both" v="separate"/>
    <tag k="surface" v="asphalt"/>
    <tag k="tiger:cfcc" v="A41"/>
    <tag k="tiger:county" v="San Diego, CA"/>
    <tag k="tiger:name_base" v="Cedar"/>
    <tag k="tiger:name_direction_prefix" v="W"/>
    <tag k="tiger:name_type" v="St"/>
  </way>
  <way id="1164163912" version="5" timestamp="2024-12-01T15:06:39Z" changeset="159805301" uid="22137982" user="TeeEn">
    <nd ref="49385949"/>
    <nd ref="10768940486"/>
    <nd ref="12286354178"/>
    <nd ref="4607428633"/>
    <nd ref="49135040"/>
    <tag k="cycleway:left" v="shared_lane"/>
    <tag k="highway" v="secondary"/>
    <tag k="lanes" v="2"/>
    <tag k="maxspeed" v="40 mph"/>
    <tag k="name" v="Kettner Boulevard"/>
    <tag k="oneway" v="yes"/>
    <tag k="sidewalk:both" v="separate"/>
    <tag k="source:maxspeed" v="sign"/>
    <tag k="surface" v="asphalt"/>
    <tag k="tiger:cfcc" v="A41"/>
    <tag k="tiger:county" v="San Diego, CA"/>
    <tag k="tiger:name_base" v="Kettner"/>
    <tag k="tiger:name_type" v="Blvd"/>
  </way>
  <way id="1164164012" version="2" timestamp="2023-04-20T12:56:00Z" changeset="135147164" uid="61341" user="RubenKelevra">
    <nd ref="49385949"/>
    <nd ref="10768940488"/>
    <nd ref="10119260429"/>
    <nd ref="49420411"/>
    <tag k="highway" v="residential"/>
    <tag k="name" v="West Date Street"/>
    <tag k="sidewalk:both" v="separate"/>
    <tag k="tiger:cfcc" v="A41"/>
    <tag k="tiger:county" v="San Diego, CA"/>
    <tag k="tiger:name_base" v="Date"/>
    <tag k="tiger:name_direction_prefix" v="W"/>
    <tag k="tiger:name_type" v="St"/>
  </way>
  <way id="1164164140" version="1" timestamp="2023-04-20T12:56:27Z" changeset="135147164" uid="61341" user="RubenKelevra">
    <nd ref="4341705644"/>
    <nd ref="49097804"/>
    <tag k="cycleway:left" v="shared_lane"/>
    <tag k="highway" v="secondary"/>
    <tag k="lanes" v="2"/>
    <tag k="maxspeed" v="40 mph"/>
    <tag k="name" v="Kettner Boulevard"/>
    <tag k="oneway" v="yes"/>
    <tag k="source:maxspeed" v="sign"/>
    <tag k="tiger:cfcc" v="A41"/>
    <tag k="tiger:county" v="San Diego, CA"/>
    <tag k="tiger:name_base" v="Kettner"/>
    <tag k="tiger:name_type" v="Blvd"/>
  </way>
  <way id="1164164204" version="1" timestamp="2023-04-20T12:56:48Z" changeset="135147164" uid="61341" user="RubenKelevra">
    <nd ref="49097804"/>
    <nd ref="49097805"/>
    <nd ref="317073476"/>
    <tag k="highway" v="residential"/>
    <tag k="name" v="West Fir Street"/>
    <tag k="surface" v="asphalt"/>
    <tag k="tiger:cfcc" v="A41"/>
    <tag k="tiger:county" v="San Diego, CA"/>
    <tag k="tiger:name_base" v="Fir"/>
    <tag k="tiger:name_direction_prefix" v="W"/>
    <tag k="tiger:name_type" v="St"/>
  </way>
  <way id="1164164205" version="5" timestamp="2024-12-27T14:02:49Z" changeset="160674811" uid="22137982" user="TeeEn">
    <nd ref="7223672292"/>
    <nd ref="10539123326"/>
    <nd ref="5546086808"/>
    <nd ref="5546086811"/>
    <nd ref="10119189421"/>
    <nd ref="10119189437"/>
    <tag k="cycleway:left" v="shared_lane"/>
    <tag k="highway" v="secondary"/>
    <tag k="lanes" v="2"/>
    <tag k="name" v="India Street"/>
    <tag k="oneway" v="yes"/>
    <tag k="sidewalk:left" v="separate"/>
    <tag k="sidewalk:right" v="yes"/>
    <tag k="tiger:cfcc" v="A41"/>
    <tag k="tiger:county" v="San Diego, CA"/>
    <tag k="tiger:name_base" v="India"/>
    <tag k="tiger:name_type" v="St"/>
  </way>
  <way id="1303039289" version="5" timestamp="2024-12-27T13:34:37Z" changeset="160674811" uid="22137982" user="TeeEn">
    <nd ref="49047364"/>
    <nd ref="10681182141"/>
    <nd ref="12067745962"/>
    <nd ref="12067745964"/>
    <nd ref="12067745963"/>
    <nd ref="12067745965"/>
    <nd ref="12067772869"/>
    <nd ref="12067745966"/>
    <nd ref="49047367"/>
    <tag k="cycleway:both" v="shared_lane"/>
    <tag k="cycleway:left" v="track"/>
    <tag k="highway" v="tertiary"/>
    <tag k="lanes" v="1"/>
    <tag k="name" v="West Beech Street"/>
    <tag k="oneway" v="yes"/>
    <tag k="oneway:bicycle" v="no"/>
    <tag k="sidewalk:left" v="no"/>
    <tag k="sidewalk:right" v="separate"/>
    <tag k="surface" v="asphalt"/>
  </way>
  <way id="1328168180" version="2" timestamp="2024-12-27T14:40:11Z" changeset="160679321" uid="340741" user="CRCulver">
    <nd ref="12288222594"/>
    <nd ref="6931373570"/>
    <nd ref="12456014284"/>
    <nd ref="10768946512"/>
    <nd ref="49420400"/>
    <tag k="highway" v="tertiary"/>
    <tag k="lanes" v="2"/>
    <tag k="name" v="Union Street"/>
    <tag k="surface" v="asphalt"/>
  </way>
  <way id="1328168181" version="3" timestamp="2024-12-27T14:40:11Z" changeset="160679321" uid="340741" user="CRCulver">
    <nd ref="49608591"/>
    <nd ref="10155308462"/>
    <nd ref="10155308457"/>
    <nd ref="12288222595"/>
    <tag k="highway" v="tertiary"/>
    <tag k="lanes" v="2"/>
    <tag k="name" v="Union Street"/>
    <tag k="sidewalk:both" v="separate"/>
    <tag k="surface" v="asphalt"/>
  </way>
  <way id="1328168182" version="1" timestamp="2024-10-25T14:59:22Z" changeset="158342024" uid="20828150" user="VLD316">
    <nd ref="2800750762"/>
    <nd ref="7942631018"/>
    <nd ref="12288222596"/>
    <tag k="highway" v="secondary"/>
    <tag k="lanes" v="3"/>
    <tag k="maxspeed" v="25 mph"/>
    <tag k="name" v="Front Street"/>
    <tag k="oneway" v="yes"/>
    <tag k="source:maxspeed" v="sign"/>
    <tag k="surface" v="asphalt"/>
    <tag k="tiger:cfcc" v="A41"/>
    <tag k="tiger:county" v="San Diego, CA"/>
    <tag k="tiger:name_base" v="Front"/>
    <tag k="tiger:name_type" v="St"/>
  </way>
  <way id="1328168183" version="2" timestamp="2024-10-25T18:05:52Z" changeset="158349377" uid="21820390" user="VLD288">
    <nd ref="12288222597"/>
    <nd ref="10155308451"/>
    <nd ref="10155308454"/>
    <nd ref="49581781"/>
    <tag k="highway" v="secondary"/>
    <tag k="lanes" v="3"/>
    <tag k="maxspeed" v="25 mph"/>
    <tag k="name" v="Front Street"/>
    <tag k="oneway" v="yes"/>
    <tag k="sidewalk:both" v="separate"/>
    <tag k="source:maxspeed" v="sign"/>
    <tag k="surface" v="asphalt"/>
  </way>
  <way id="1328168184" version="1" timestamp="2024-10-25T14:59:22Z" changeset="158342024" uid="20828150" user="VLD316">
    <nd ref="49135031"/>
    <nd ref="12288250928"/>
    <nd ref="12288250922"/>
    <nd ref="49135033"/>
    <nd ref="12288250919"/>
    <nd ref="7223546055"/>
    <nd ref="12286354159"/>
    <nd ref="12288222598"/>
    <tag k="highway" v="tertiary"/>
    <tag k="name" v="West Cedar Street"/>
    <tag k="sidewalk:both" v="separate"/>
    <tag k="surface" v="asphalt"/>
    <tag k="tiger:cfcc" v="A41"/>
    <tag k="tiger:county" v="San Diego, CA"/>
    <tag k="tiger:name_base" v="Cedar"/>
    <tag k="tiger:name_direction_prefix" v="W"/>
    <tag k="tiger:name_type" v="St"/>
  </way>
  <way id="1328168185" version="1" timestamp="2024-10-25T14:59:22Z" changeset="158342024" uid="20828150" user="VLD316">
    <nd ref="49047360"/>
    <nd ref="10155289301"/>
    <nd ref="10155289294"/>
    <nd ref="5545620567"/>
    <nd ref="10155289307"/>
    <nd ref="10155289313"/>
    <nd ref="12288222599"/>
    <tag k="cycleway:left" v="track"/>
    <tag k="highway" v="tertiary"/>
    <tag k="name" v="West Beech Street"/>
    <tag k="oneway:bicycle" v="no"/>
    <tag k="sidewalk:both" v="separate"/>
    <tag k="surface" v="asphalt"/>
  </way>
  <way id="1339237536" version="3" timestamp="2024-12-27T14:40:11Z" changeset="160679321" uid="340741" user="CRCulver">
    <nd ref="49101391"/>
    <nd ref="49175450"/>
    <nd ref="12456014274"/>
    <nd ref="10119246994"/>
    <nd ref="49175449"/>
    <tag k="highway" v="secondary"/>
    <tag k="lanes" v="3"/>
    <tag k="name" v="Columbia Street"/>
    <tag k="oneway" v="yes"/>
    <tag k="sidewalk:both" v="separate"/>
    <tag k="surface" v="asphalt"/>
    <tag k="tiger:cfcc" v="A41"/>
    <tag k="tiger:county" v="San Diego, CA"/>
    <tag k="tiger:name_base" v="Columbia"/>
    <tag k="tiger:name_type" v="St"/>
  </way>
  <way id="1339237706" version="2" timestamp="2024-12-01T14:39:45Z" changeset="159805284" uid="22137982" user="TeeEn">
    <nd ref="4343210869"/>
    <nd ref="5546015488"/>
    <tag k="highway" v="secondary"/>
    <tag k="lanes" v="3"/>
    <tag k="name" v="State Street"/>
    <tag k="oneway" v="yes"/>
    <tag k="sidewalk:both" v="separate"/>
    <tag k="surface" v="asphalt"/>
    <tag k="tiger:cfcc" v="A41"/>
    <tag k="tiger:county" v="San Diego, CA"/>
    <tag k="tiger:name_base" v="State"/>
    <tag k="tiger:name_type" v="St"/>
    <tag k="turn:lanes" v="||right"/>
  </way>
  <way id="1343435506" version="2" timestamp="2024-12-27T07:42:17Z" changeset="160664055" uid="22137982" user="TeeEn">
    <nd ref="12430390860"/>
    <nd ref="48890738"/>
    <tag k="bicycle" v="no"/>
    <tag k="change:lanes" v="yes|yes|yes|not_right|no"/>
    <tag k="cycleway:left" v="no"/>
    <tag k="destination:lanes" v="none|none|none|none;Front Street;Civic Center|Front Street;Civic Center"/>
    <tag k="hgv" v="designated"/>
    <tag k="highway" v="motorway"/>
    <tag k="lanes" v="5"/>
    <tag k="layer" v="1"/>
    <tag k="maxspeed" v="65 mph"/>
    <tag k="maxspeed:hgv" v="55 mph"/>
    <tag k="maxspeed:trailer" v="55 mph"/>
    <tag k="name" v="San Diego Freeway"/>
    <tag k="oneway" v="yes"/>
    <tag k="ref" v="I 5"/>
    <tag k="source:maxspeed" v="sign"/>
    <tag k="surface" v="concrete"/>
    <tag k="tiger:cfcc" v="A15"/>
    <tag k="tiger:county" v="San Diego, CA"/>
    <tag k="tiger:name_base" v="I-5"/>
    <tag k="tiger:name_base_1" v="San Diego"/>
    <tag k="tiger:name_type_1" v="Fwy"/>
    <tag k="turn:lanes" v="none|none|none|through;slight_right|slight_right"/>
  </way>
  <way id="1346627818" version="3" timestamp="2024-12-28T03:14:20Z" changeset="160699324" uid="22137982" user="TeeEn">
    <nd ref="49385945"/>
    <nd ref="4607441613"/>
    <tag k="cycleway:left" v="no"/>
    <tag k="cycleway:right" v="shared_lane"/>
    <tag k="highway" v="secondary"/>
    <tag k="lanes" v="2"/>
    <tag k="name" v="West Ash Street"/>
    <tag k="oneway" v="yes"/>
    <tag k="sidewalk:left" v="no"/>
    <tag k="sidewalk:right" v="separate"/>
    <tag k="surface" v="asphalt"/>
    <tag k="tiger:cfcc" v="A41"/>
    <tag k="tiger:county" v="San Diego, CA"/>
    <tag k="tiger:name_base" v="Ash"/>
    <tag k="tiger:name_direction_prefix" v="W"/>
    <tag k="tiger:name_type" v="St"/>
  </way>
  <way id="1346628668" version="2" timestamp="2024-12-27T13:37:01Z" changeset="160674811" uid="22137982" user="TeeEn">
    <nd ref="49135040"/>
    <nd ref="4607428632"/>
    <tag k="highway" v="tertiary"/>
    <tag k="lanes" v="1"/>
    <tag k="name" v="West Cedar Street"/>
    <tag k="oneway" v="yes"/>
    <tag k="sidewalk:left" v="no"/>
    <tag k="sidewalk:right" v="separate"/>
    <tag k="surface" v="asphalt"/>
    <tag k="tiger:cfcc" v="A41"/>
    <tag k="tiger:county" v="San Diego, CA"/>
    <tag k="tiger:name_base" v="Cedar"/>
    <tag k="tiger:name_direction_prefix" v="W"/>
    <tag k="tiger:name_type" v="St"/>
  </way>
  <way id="1346628797" version="1" timestamp="2024-12-27T13:37:31Z" changeset="160674811" uid="22137982" user="TeeEn">
    <nd ref="4607428644"/>
    <nd ref="4341705644"/>
    <tag k="cycleway:left" v="shared_lane"/>
    <tag k="highway" v="secondary"/>
    <tag k="lanes" v="3"/>
    <tag k="maxspeed" v="40 mph"/>
    <tag k="name" v="Kettner Boulevard"/>
    <tag k="oneway" v="yes"/>
    <tag k="source:maxspeed" v="sign"/>
    <tag k="surface" v="asphalt"/>
    <tag k="tiger:cfcc" v="A41"/>
    <tag k="tiger:county" v="San Diego, CA"/>
    <tag k="tiger:name_base" v="Kettner"/>
    <tag k="tiger:name_type" v="Blvd"/>
    <tag k="turn:lanes" v="||merge_to_left"/>
  </way>
  <way id="1346628997" version="3" timestamp="2024-12-28T03:19:12Z" changeset="160699324" uid="22137982" user="TeeEn">
    <nd ref="4607423409"/>
    <nd ref="49326009"/>
    <tag k="cycleway:left" v="no"/>
    <tag k="highway" v="secondary"/>
    <tag k="lanes" v="2"/>
    <tag k="name" v="West Laurel Street"/>
    <tag k="oneway" v="yes"/>
    <tag k="sidewalk:left" v="no"/>
    <tag k="sidewalk:right" v="separate"/>
    <tag k="surface" v="asphalt"/>
    <tag k="tiger:cfcc" v="A41"/>
    <tag k="tiger:county" v="San Diego, CA"/>
    <tag k="tiger:name_base" v="Laurel"/>
    <tag k="tiger:name_direction_prefix" v="W"/>
    <tag k="tiger:name_type" v="St"/>
  </way>
  <way id="1346629013" version="3" timestamp="2024-12-28T03:19:09Z" changeset="160699324" uid="22137982" user="TeeEn">
    <nd ref="49326009"/>
    <nd ref="7051046926"/>
    <tag k="cycleway:left" v="no"/>
    <tag k="highway" v="secondary"/>
    <tag k="lanes" v="2"/>
    <tag k="name" v="West Laurel Street"/>
    <tag k="oneway" v="yes"/>
    <tag k="sidewalk:left" v="no"/>
    <tag k="sidewalk:right" v="separate"/>
    <tag k="surface" v="asphalt"/>
    <tag k="tiger:cfcc" v="A41"/>
    <tag k="tiger:county" v="San Diego, CA"/>
    <tag k="tiger:name_base" v="Laurel"/>
    <tag k="tiger:name_direction_prefix" v="W"/>
    <tag k="tiger:name_type" v="St"/>
  </way>
  <way id="1346629038" version="1" timestamp="2024-12-27T13:40:14Z" changeset="160674811" uid="22137982" user="TeeEn">
    <nd ref="4607423410"/>
    <nd ref="49326009"/>
    <tag k="change:lanes" v="no|no|no|no"/>
    <tag k="highway" v="secondary"/>
    <tag k="lanes" v="4"/>
    <tag k="maxspeed" v="40 mph"/>
    <tag k="name" v="Kettner Boulevard"/>
    <tag k="oneway" v="yes"/>
    <tag k="source:maxspeed" v="sign"/>
    <tag k="surface" v="asphalt"/>
    <tag k="tiger:cfcc" v="A41"/>
    <tag k="tiger:county" v="San Diego, CA"/>
    <tag k="tiger:name_base" v="Kettner"/>
    <tag k="tiger:name_type" v="Blvd"/>
    <tag k="turn:lanes" v="left;through|through|through;right|right"/>
  </way>
  <way id="1346629395" version="2" timestamp="2024-12-27T13:43:39Z" changeset="160674811" uid="22137982" user="TeeEn">
    <nd ref="4607428650"/>
    <nd ref="49365359"/>
    <tag k="cycleway:left" v="shared_lane"/>
    <tag k="highway" v="secondary"/>
    <tag k="lanes" v="3"/>
    <tag k="maxspeed" v="40 mph"/>
    <tag k="name" v="Kettner Boulevard"/>
    <tag k="oneway" v="yes"/>
    <tag k="sidewalk:both" v="separate"/>
    <tag k="source:maxspeed" v="sign"/>
    <tag k="surface" v="asphalt"/>
    <tag k="tiger:cfcc" v="A41"/>
    <tag k="tiger:county" v="San Diego, CA"/>
    <tag k="tiger:name_base" v="Kettner"/>
    <tag k="tiger:name_type" v="Blvd"/>
  </way>
  <way id="1346629482" version="2" timestamp="2024-12-27T13:44:06Z" changeset="160674811" uid="22137982" user="TeeEn">
    <nd ref="10119189433"/>
    <nd ref="49175458"/>
    <tag k="cycleway:right" v="no"/>
    <tag k="highway" v="secondary"/>
    <tag k="lanes" v="3"/>
    <tag k="name" v="Columbia Street"/>
    <tag k="oneway" v="yes"/>
    <tag k="sidewalk:both" v="separate"/>
    <tag k="surface" v="asphalt"/>
    <tag k="tiger:cfcc" v="A41"/>
    <tag k="tiger:county" v="San Diego, CA"/>
    <tag k="tiger:name_base" v="Columbia"/>
    <tag k="tiger:name_type" v="St"/>
    <tag k="turn:lanes" v="||right"/>
  </way>
  <way id="1346632705" version="3" timestamp="2024-12-27T14:40:11Z" changeset="160679321" uid="340741" user="CRCulver">
    <nd ref="49097354"/>
    <nd ref="10119189385"/>
    <tag k="highway" v="residential"/>
    <tag k="lanes" v="2"/>
    <tag k="name" v="West Fir Street"/>
    <tag k="sidewalk:both" v="separate"/>
    <tag k="surface" v="asphalt"/>
    <tag k="tiger:cfcc" v="A41"/>
    <tag k="tiger:county" v="San Diego, CA"/>
    <tag k="tiger:name_base" v="Fir"/>
    <tag k="tiger:name_direction_prefix" v="W"/>
    <tag k="tiger:name_type" v="St"/>
  </way>
  <way id="1346633015" version="3" timestamp="2024-12-27T14:40:11Z" changeset="160679321" uid="340741" user="CRCulver">
    <nd ref="49097354"/>
    <nd ref="10119189386"/>
    <tag k="cycleway:left" v="shared_lane"/>
    <tag k="highway" v="secondary"/>
    <tag k="lanes" v="2"/>
    <tag k="maxspeed" v="25 mph"/>
    <tag k="name" v="India Street"/>
    <tag k="oneway" v="yes"/>
    <tag k="sidewalk:both" v="separate"/>
    <tag k="source:maxspeed" v="sign"/>
    <tag k="surface" v="asphalt"/>
    <tag k="tiger:cfcc" v="A41"/>
    <tag k="tiger:county" v="San Diego, CA"/>
    <tag k="tiger:name_base" v="India"/>
    <tag k="tiger:name_type" v="St"/>
    <tag k="turn:lanes" v="through|through;right"/>
  </way>
  <way id="1346634423" version="2" timestamp="2024-12-27T14:02:27Z" changeset="160674811" uid="22137982" user="TeeEn">
    <nd ref="7223672291"/>
    <nd ref="49097355"/>
    <tag k="cycleway:left" v="shared_lane"/>
    <tag k="highway" v="secondary"/>
    <tag k="lanes" v="2"/>
    <tag k="name" v="India Street"/>
    <tag k="oneway" v="yes"/>
    <tag k="sidewalk:both" v="separate"/>
    <tag k="surface" v="asphalt"/>
    <tag k="tiger:cfcc" v="A41"/>
    <tag k="tiger:county" v="San Diego, CA"/>
    <tag k="tiger:name_base" v="India"/>
    <tag k="tiger:name_type" v="St"/>
    <tag k="turn:lanes" v="through|through;right"/>
  </way>
  <way id="1346634841" version="2" timestamp="2025-01-22T22:00:50Z" changeset="161654434" uid="19361972" user="ericspellman">
    <nd ref="10768940502"/>
    <nd ref="9582424961"/>
    <tag k="highway" v="secondary"/>
    <tag k="lanes" v="3"/>
    <tag k="name" v="State Street"/>
    <tag k="oneway" v="yes"/>
    <tag k="sidewalk" v="both"/>
    <tag k="surface" v="asphalt"/>
    <tag k="tiger:cfcc" v="A41"/>
    <tag k="tiger:county" v="San Diego, CA"/>
    <tag k="tiger:name_base" v="State"/>
    <tag k="tiger:name_type" v="St"/>
  </way>
  <way id="1346635128" version="2" timestamp="2024-12-27T14:02:02Z" changeset="160674811" uid="22137982" user="TeeEn">
    <nd ref="10768946508"/>
    <nd ref="49420403"/>
    <tag k="highway" v="secondary"/>
    <tag k="lanes" v="3"/>
    <tag k="name" v="State Street"/>
    <tag k="oneway" v="yes"/>
    <tag k="sidewalk:both" v="separate"/>
    <tag k="surface" v="asphalt"/>
    <tag k="tiger:cfcc" v="A41"/>
    <tag k="tiger:county" v="San Diego, CA"/>
    <tag k="tiger:name_base" v="State"/>
    <tag k="tiger:name_type" v="St"/>
    <tag k="turn:lanes" v="||right"/>
  </way>
  <way id="1346635177" version="2" timestamp="2024-12-27T14:02:32Z" changeset="160674811" uid="22137982" user="TeeEn">
    <nd ref="49097355"/>
    <nd ref="7223672292"/>
    <tag k="cycleway:left" v="shared_lane"/>
    <tag k="highway" v="secondary"/>
    <tag k="lanes" v="2"/>
    <tag k="name" v="India Street"/>
    <tag k="oneway" v="yes"/>
    <tag k="sidewalk:both" v="separate"/>
    <tag k="tiger:cfcc" v="A41"/>
    <tag k="tiger:county" v="San Diego, CA"/>
    <tag k="tiger:name_base" v="India"/>
    <tag k="tiger:name_type" v="St"/>
  </way>
  <way id="1346635230" version="2" timestamp="2024-12-27T14:02:56Z" changeset="160674811" uid="22137982" user="TeeEn">
    <nd ref="49097356"/>
    <nd ref="10119189434"/>
    <tag k="cycleway:left" v="shared_lane"/>
    <tag k="highway" v="secondary"/>
    <tag k="lanes" v="2"/>
    <tag k="name" v="India Street"/>
    <tag k="oneway" v="yes"/>
    <tag k="sidewalk:both" v="separate"/>
    <tag k="surface" v="asphalt"/>
    <tag k="tiger:cfcc" v="A41"/>
    <tag k="tiger:county" v="San Diego, CA"/>
    <tag k="tiger:name_base" v="India"/>
    <tag k="tiger:name_type" v="St"/>
  </way>
  <way id="1346635234" version="2" timestamp="2024-12-27T14:02:52Z" changeset="160674811" uid="22137982" user="TeeEn">
    <nd ref="10119189437"/>
    <nd ref="49097356"/>
    <tag k="cycleway:left" v="shared_lane"/>
    <tag k="highway" v="secondary"/>
    <tag k="lanes" v="2"/>
    <tag k="name" v="India Street"/>
    <tag k="oneway" v="yes"/>
    <tag k="sidewalk:both" v="separate"/>
    <tag k="tiger:cfcc" v="A41"/>
    <tag k="tiger:county" v="San Diego, CA"/>
    <tag k="tiger:name_base" v="India"/>
    <tag k="tiger:name_type" v="St"/>
  </way>
  <way id="1346640559" version="1" timestamp="2024-12-27T14:40:11Z" changeset="160679321" uid="340741" user="CRCulver">
    <nd ref="49047363"/>
    <nd ref="10681182148"/>
    <nd ref="10681182153"/>
    <nd ref="49097350"/>
    <tag k="cycleway:left" v="shared_lane"/>
    <tag k="highway" v="secondary"/>
    <tag k="lanes" v="2"/>
    <tag k="name" v="India Street"/>
    <tag k="oneway" v="yes"/>
    <tag k="sidewalk:both" v="separate"/>
    <tag k="surface" v="asphalt"/>
    <tag k="tiger:cfcc" v="A41"/>
    <tag k="tiger:county" v="San Diego, CA"/>
    <tag k="tiger:name_base" v="India"/>
    <tag k="tiger:name_type" v="St"/>
  </way>
  <way id="1346803545" version="3" timestamp="2024-12-31T10:01:10Z" changeset="160822659" uid="22137982" user="TeeEn">
    <nd ref="49365352"/>
    <nd ref="12140835331"/>
    <tag k="cycleway:left" v="no"/>
    <tag k="highway" v="secondary"/>
    <tag k="lanes" v="2"/>
    <tag k="name" v="State Street"/>
    <tag k="oneway" v="yes"/>
    <tag k="sidewalk:both" v="separate"/>
    <tag k="surface" v="asphalt"/>
    <tag k="tiger:cfcc" v="A41"/>
    <tag k="tiger:county" v="San Diego, CA"/>
    <tag k="tiger:name_base" v="State"/>
    <tag k="tiger:name_type" v="St"/>
    <tag k="turn:lanes" v="|merge_to_left"/>
  </way>
  <way id="1346803759" version="2" timestamp="2024-12-28T03:30:01Z" changeset="160699459" uid="22137982" user="TeeEn">
    <nd ref="49175456"/>
    <nd ref="10119189394"/>
    <tag k="highway" v="secondary"/>
    <tag k="lanes" v="3"/>
    <tag k="name" v="Columbia Street"/>
    <tag k="oneway" v="yes"/>
    <tag k="sidewalk:both" v="separate"/>
    <tag k="surface" v="asphalt"/>
    <tag k="tiger:cfcc" v="A41"/>
    <tag k="tiger:county" v="San Diego, CA"/>
    <tag k="tiger:name_base" v="Columbia"/>
    <tag k="tiger:name_type" v="St"/>
  </way>
  <way id="1346803774" version="2" timestamp="2024-12-28T03:30:14Z" changeset="160699459" uid="22137982" user="TeeEn">
    <nd ref="49175456"/>
    <nd ref="10119189395"/>
    <tag k="highway" v="secondary"/>
    <tag k="lanes" v="3"/>
    <tag k="name" v="West Grape Street"/>
    <tag k="oneway" v="yes"/>
    <tag k="sidewalk:both" v="separate"/>
    <tag k="source" v="Bing"/>
    <tag k="surface" v="asphalt"/>
    <tag k="tiger:cfcc" v="A41"/>
    <tag k="tiger:county" v="San Diego, CA"/>
    <tag k="tiger:name_base" v="Grape"/>
    <tag k="tiger:name_direction_prefix" v="W"/>
    <tag k="tiger:name_type" v="St"/>
    <tag k="turn:lanes" v="|through;right|right"/>
  </way>
  <way id="1346803815" version="2" timestamp="2024-12-28T03:30:39Z" changeset="160699459" uid="22137982" user="TeeEn">
    <nd ref="10119246997"/>
    <nd ref="49101391"/>
    <tag k="highway" v="secondary"/>
    <tag k="lanes" v="3"/>
    <tag k="name" v="Columbia Street"/>
    <tag k="oneway" v="yes"/>
    <tag k="sidewalk:both" v="separate"/>
    <tag k="surface" v="asphalt"/>
    <tag k="tiger:cfcc" v="A41"/>
    <tag k="tiger:county" v="San Diego, CA"/>
    <tag k="tiger:name_base" v="Columbia"/>
    <tag k="tiger:name_type" v="St"/>
  </way>
  <way id="1346803816" version="2" timestamp="2024-12-28T03:30:42Z" changeset="160699459" uid="22137982" user="TeeEn">
    <nd ref="10119246986"/>
    <nd ref="49101391"/>
    <tag k="highway" v="residential"/>
    <tag k="name" v="West Elm Street"/>
    <tag k="sidewalk:both" v="separate"/>
    <tag k="surface" v="asphalt"/>
    <tag k="tiger:cfcc" v="A41"/>
    <tag k="tiger:county" v="San Diego, CA"/>
    <tag k="tiger:name_base" v="Elm"/>
    <tag k="tiger:name_direction_prefix" v="W"/>
    <tag k="tiger:name_type" v="St"/>
  </way>
  <way id="1378394442" version="1" timestamp="2025-04-17T17:34:41Z" changeset="165082845" uid="18783059" user="subham_lyft">
    <nd ref="12762796982"/>
    <nd ref="4607428634"/>
    <nd ref="49135040"/>
    <tag k="highway" v="tertiary"/>
    <tag k="lanes" v="3"/>
    <tag k="lanes:backward" v="1"/>
    <tag k="lanes:forward" v="2"/>
    <tag k="name" v="West Cedar Street"/>
    <tag k="sidewalk:both" v="separate"/>
    <tag k="surface" v="asphalt"/>
    <tag k="tiger:cfcc" v="A41"/>
    <tag k="tiger:county" v="San Diego, CA"/>
    <tag k="tiger:name_base" v="Cedar"/>
    <tag k="tiger:name_direction_prefix" v="W"/>
    <tag k="tiger:name_type" v="St"/>
    <tag k="turn:lanes:forward" v="left|none"/>
  </way>
  <relation id="6150074" version="2" timestamp="2017-04-25T18:46:01Z" changeset="48137956" uid="665748" user="sebastic">
    <member type="way" ref="41283968" role="outer"/>
    <member type="way" ref="411355140" role="inner"/>
    <member type="way" ref="411355139" role="inner"/>
    <tag k="building" v="yes"/>
    <tag k="name" v="Palermo"/>
    <tag k="type" v="multipolygon"/>
  </relation>
  <relation id="6783418" version="3" timestamp="2017-06-02T00:05:57Z" changeset="49180799" uid="381909" user="JessAk71">
    <member type="way" ref="26748150" role="outer"/>
    <member type="way" ref="458903475" role="inner"/>
    <tag k="building" v="residential"/>
    <tag k="building:levels" v="4"/>
    <tag k="name" v="Acqua Vista"/>
    <tag k="type" v="multipolygon"/>
  </relation>
  <relation id="6783439" version="2" timestamp="2017-04-25T18:46:04Z" changeset="48137956" uid="665748" user="sebastic">
    <member type="way" ref="27922428" role="outer"/>
    <member type="way" ref="458904632" role="inner"/>
    <tag k="building" v="yes"/>
    <tag k="building:levels" v="5"/>
    <tag k="name" v="DOMA"/>
    <tag k="type" v="multipolygon"/>
  </relation>
  <relation id="6783441" version="2" timestamp="2017-04-25T18:46:04Z" changeset="48137956" uid="665748" user="sebastic">
    <member type="way" ref="27920918" role="outer"/>
    <member type="way" ref="458904627" role="inner"/>
    <tag k="building" v="yes"/>
    <tag k="building:levels" v="5"/>
    <tag k="name" v="Camden Tuscany"/>
    <tag k="type" v="multipolygon"/>
  </relation>
  <relation id="7303433" version="3" timestamp="2021-04-20T10:28:19Z" changeset="103261830" uid="12776016" user="Utsab Khatiwada">
    <member type="way" ref="497730461" role="outer"/>
    <member type="way" ref="497730473" role="inner"/>
    <member type="way" ref="497730479" role="inner"/>
    <tag k="addr:city" v="San Diego"/>
    <tag k="addr:housenumber" v="1736"/>
    <tag k="addr:postcode" v="92101"/>
    <tag k="addr:state" v="CA"/>
    <tag k="addr:street" v="State Street"/>
    <tag k="brand" v="Vantaggio Suites"/>
    <tag k="building" v="yes"/>
    <tag k="building:levels" v="4"/>
    <tag k="internet_access:fee" v="no"/>
    <tag k="name" v="Vantaggio Suites"/>
    <tag k="smoking" v="outside"/>
    <tag k="tourism" v="hotel"/>
    <tag k="type" v="multipolygon"/>
  </relation>
  <relation id="7303435" version="2" timestamp="2021-04-20T10:30:33Z" changeset="103261985" uid="12776016" user="Utsab Khatiwada">
    <member type="way" ref="497730486" role="outer"/>
    <member type="way" ref="497730481" role="inner"/>
    <tag k="addr:city" v="San Diego"/>
    <tag k="addr:housenumber" v="1835"/>
    <tag k="addr:postcode" v="92101"/>
    <tag k="addr:state" v="CA"/>
    <tag k="addr:street" v="Columbia Street"/>
    <tag k="building" v="yes"/>
    <tag k="name" v="Porto Vista Hotel"/>
    <tag k="source" v="Bing"/>
    <tag k="tourism" v="hotel"/>
    <tag k="type" v="multipolygon"/>
  </relation>

</osm>
