<?xml version="1.0" encoding="UTF-8"?>
<osm version="0.6" generator="Overpass API 0.7.62.5 1bd436f1">
<note>The data included in this document is from www.openstreetmap.org. The data is made available under ODbL.</note>
<meta osm_base="2025-05-17T10:35:45Z" areas="2024-12-31T00:49:33Z"/>

  <node id="49119340" lat="32.5766337" lon="-117.1274360" version="6" timestamp="2024-04-04T07:15:54Z" changeset="149555810" uid="11609320" user="telcodude"/>
  <node id="49119341" lat="32.5766210" lon="-117.1251210" version="3" timestamp="2009-12-14T13:13:25Z" changeset="3371211" uid="147510" user="woodpeck_fixbot"/>
  <node id="49125909" lat="32.5839380" lon="-117.1274385" version="5" timestamp="2020-09-24T18:51:36Z" changeset="91461870" uid="703694" user="Clarke22"/>
  <node id="49125910" lat="32.5831736" lon="-117.1274382" version="6" timestamp="2024-04-04T07:15:54Z" changeset="149555810" uid="11609320" user="telcodude"/>
  <node id="49125911" lat="32.5824555" lon="-117.1274380" version="5" timestamp="2024-04-04T07:15:54Z" changeset="149555810" uid="11609320" user="telcodude"/>
  <node id="49125912" lat="32.5817316" lon="-117.1274377" version="6" timestamp="2024-04-04T07:15:54Z" changeset="149555810" uid="11609320" user="telcodude"/>
  <node id="49125916" lat="32.5802821" lon="-117.1274437" version="8" timestamp="2024-04-06T06:32:29Z" changeset="149641126" uid="11609320" user="telcodude">
    <tag k="direction" v="both"/>
    <tag k="highway" v="stop"/>
  </node>
  <node id="7939497105" lat="32.5802713" lon="-117.1251218" version="2" timestamp="2024-05-26T02:55:05Z" changeset="151833814" uid="11609320" user="telcodude"/>
  <node id="11785128098" lat="32.5839434" lon="-117.1294765" version="4" timestamp="2025-01-02T15:10:32Z" changeset="160903686" uid="22137982" user="TeeEn">
    <tag k="crossing" v="uncontrolled"/>
    <tag k="crossing:island" v="no"/>
    <tag k="highway" v="crossing"/>
    <tag k="tactile_paving" v="yes"/>
  </node>
  <node id="11786339217" lat="32.5766455" lon="-117.1317365" version="1" timestamp="2024-04-04T07:15:54Z" changeset="149555810" uid="11609320" user="telcodude"/>
  <node id="11808959789" lat="32.5867728" lon="-117.1284403" version="2" timestamp="2024-05-31T10:05:49Z" changeset="152072783" uid="21393709" user="CtI5UDYpRmUS"/>
  <node id="11932757157" lat="32.5810019" lon="-117.1275269" version="2" timestamp="2025-01-03T06:09:35Z" changeset="160934835" uid="22137982" user="TeeEn">
    <tag k="crossing" v="unmarked"/>
    <tag k="crossing:island" v="no"/>
    <tag k="crossing:markings" v="no"/>
    <tag k="highway" v="crossing"/>
  </node>
  <way id="5961422" version="13" timestamp="2025-01-02T13:17:26Z" changeset="160903158" uid="22137982" user="TeeEn">
    <nd ref="280489647"/>
    <nd ref="11889192394"/>
    <nd ref="7271153244"/>
    <nd ref="11808935216"/>
    <nd ref="11808959813"/>
    <tag k="highway" v="residential"/>
    <tag k="lane_markings" v="no"/>
    <tag k="name" v="Carnation Avenue"/>
    <tag k="oneway" v="yes"/>
    <tag k="surface" v="concrete"/>
    <tag k="tiger:cfcc" v="A41"/>
    <tag k="tiger:county" v="San Diego, CA"/>
    <tag k="tiger:name_base" v="Carnation"/>
    <tag k="tiger:name_type" v="Ave"/>
    <tag k="tiger:reviewed" v="no"/>
  </way>
  <way id="5963560" version="25" timestamp="2025-05-05T18:04:06Z" changeset="165858788" uid="21393709" user="CtI5UDYpRmUS">
    <nd ref="49125909"/>
    <nd ref="11785128069"/>
    <nd ref="7271153375"/>
    <nd ref="5530841447"/>
    <nd ref="5530841463"/>
    <nd ref="7271153405"/>
    <nd ref="12297131041"/>
    <nd ref="49125910"/>
    <nd ref="12297131950"/>
    <nd ref="12812235206"/>
    <nd ref="12812230290"/>
    <nd ref="49125911"/>
    <nd ref="11889192284"/>
    <nd ref="4603977197"/>
    <nd ref="11889192285"/>
    <nd ref="11889192286"/>
    <nd ref="49125912"/>
    <nd ref="49125913"/>
    <nd ref="49125914"/>
    <nd ref="49125915"/>
    <nd ref="12297131682"/>
    <nd ref="11786372851"/>
    <nd ref="49125916"/>
    <tag k="highway" v="residential"/>
    <tag k="lanes" v="2"/>
    <tag k="name" v="3rd Street"/>
    <tag k="sidewalk:both" v="separate"/>
    <tag k="surface" v="asphalt"/>
    <tag k="tiger:cfcc" v="A41"/>
    <tag k="tiger:county" v="San Diego, CA"/>
    <tag k="tiger:name_base" v="3rd"/>
    <tag k="tiger:name_type" v="St"/>
  </way>
  <way id="5964018" version="11" timestamp="2025-01-02T15:15:16Z" changeset="160903158" uid="22137982" user="TeeEn">
    <nd ref="7271153251"/>
    <nd ref="49131760"/>
    <nd ref="11889192255"/>
    <nd ref="11889192254"/>
    <nd ref="11889192253"/>
    <nd ref="11889192105"/>
    <nd ref="11889192252"/>
    <nd ref="11889192106"/>
    <nd ref="11889192107"/>
    <nd ref="11889192251"/>
    <nd ref="11889192108"/>
    <nd ref="11889192250"/>
    <nd ref="11889192249"/>
    <nd ref="11889192248"/>
    <nd ref="11889192109"/>
    <nd ref="11889192247"/>
    <nd ref="11889192110"/>
    <nd ref="11889192111"/>
    <nd ref="11889192246"/>
    <nd ref="11889192244"/>
    <nd ref="11889192112"/>
    <nd ref="11889192245"/>
    <nd ref="7271153250"/>
    <nd ref="11808959843"/>
    <tag k="highway" v="residential"/>
    <tag k="lane_markings" v="no"/>
    <tag k="name" v="Citrus Avenue"/>
    <tag k="sidewalk:both" v="separate"/>
    <tag k="surface" v="asphalt"/>
    <tag k="tiger:cfcc" v="A41"/>
    <tag k="tiger:county" v="San Diego, CA"/>
    <tag k="tiger:name_base" v="Citrus"/>
    <tag k="tiger:name_type" v="Ave"/>
    <tag k="tiger:reviewed" v="no"/>
  </way>
  <way id="5969010" version="15" timestamp="2025-01-03T05:46:57Z" changeset="160934783" uid="22137982" user="TeeEn">
    <nd ref="7271153412"/>
    <nd ref="11889191972"/>
    <nd ref="11889192001"/>
    <nd ref="49052350"/>
    <nd ref="11889192002"/>
    <nd ref="11889192003"/>
    <nd ref="11889191973"/>
    <nd ref="11889191974"/>
    <nd ref="49176134"/>
    <nd ref="7271153411"/>
    <nd ref="11889191975"/>
    <nd ref="11889191976"/>
    <nd ref="11889191977"/>
    <nd ref="11889191978"/>
    <nd ref="49176136"/>
    <nd ref="11889191979"/>
    <nd ref="11889191980"/>
    <nd ref="11889191981"/>
    <nd ref="11889191984"/>
    <nd ref="11889191982"/>
    <nd ref="7271153410"/>
    <nd ref="11331901647"/>
    <tag k="highway" v="residential"/>
    <tag k="lane_markings" v="no"/>
    <tag k="maxspeed" v="25 mph"/>
    <tag k="name" v="4th Street"/>
    <tag k="sidewalk:both" v="separate"/>
    <tag k="surface" v="asphalt"/>
    <tag k="tiger:cfcc" v="A41"/>
    <tag k="tiger:county" v="San Diego, CA"/>
    <tag k="tiger:name_base" v="4th"/>
    <tag k="tiger:name_type" v="St"/>
    <tag k="tiger:reviewed" v="no"/>
  </way>
  <way id="5995113" version="23" timestamp="2025-05-05T18:04:06Z" changeset="165858788" uid="21393709" user="CtI5UDYpRmUS">
    <nd ref="11785128099"/>
    <nd ref="7271153335"/>
    <nd ref="8240155370"/>
    <nd ref="12094427472"/>
    <nd ref="12812231591"/>
    <nd ref="49398357"/>
    <nd ref="11889192118"/>
    <nd ref="49408684"/>
    <nd ref="12600613029"/>
    <nd ref="4603977198"/>
    <nd ref="49408687"/>
    <nd ref="49408688"/>
    <nd ref="49345052"/>
    <nd ref="3701112983"/>
    <nd ref="7271153355"/>
    <nd ref="11786339301"/>
    <nd ref="49408692"/>
    <tag k="highway" v="residential"/>
    <tag k="lanes" v="2"/>
    <tag k="name" v="2nd Street"/>
    <tag k="sidewalk:both" v="separate"/>
    <tag k="surface" v="asphalt"/>
    <tag k="tiger:cfcc" v="A41"/>
    <tag k="tiger:county" v="San Diego, CA"/>
    <tag k="tiger:name_base" v="2nd"/>
    <tag k="tiger:name_type" v="St"/>
  </way>
  <way id="5997173" version="19" timestamp="2025-01-09T09:44:01Z" changeset="161159196" uid="22137982" user="TeeEn">
    <nd ref="11785245817"/>
    <nd ref="7271153296"/>
    <nd ref="11889192162"/>
    <nd ref="11889192126"/>
    <nd ref="11889192161"/>
    <nd ref="11889192125"/>
    <nd ref="11889192123"/>
    <nd ref="11889192122"/>
    <nd ref="7271153348"/>
    <nd ref="11932757136"/>
    <tag k="highway" v="residential"/>
    <tag k="lane_markings" v="no"/>
    <tag k="lit" v="no"/>
    <tag k="name" v="Daisy Avenue"/>
    <tag k="sidewalk:both" v="separate"/>
    <tag k="surface" v="asphalt"/>
    <tag k="tiger:cfcc" v="A41"/>
    <tag k="tiger:county" v="San Diego, CA"/>
    <tag k="tiger:name_base" v="Daisy"/>
    <tag k="tiger:name_type" v="Ave"/>
    <tag k="tiger:reviewed" v="no"/>
  </way>
  <way id="6006475" version="13" timestamp="2025-01-01T11:13:27Z" changeset="160855629" uid="22137982" user="TeeEn">
    <nd ref="49105663"/>
    <nd ref="11808959814"/>
    <nd ref="11808959813"/>
    <tag k="highway" v="residential"/>
    <tag k="maxspeed" v="25 mph"/>
    <tag k="name" v="Seacoast Drive"/>
    <tag k="sidewalk:left" v="separate"/>
    <tag k="surface" v="asphalt"/>
    <tag k="tiger:cfcc" v="A41"/>
    <tag k="tiger:county" v="San Diego, CA"/>
    <tag k="tiger:name_base" v="Seacoast"/>
    <tag k="tiger:name_type" v="Dr"/>
    <tag k="tiger:reviewed" v="no"/>
  </way>
  <way id="6009508" version="11" timestamp="2025-01-02T13:11:50Z" changeset="160903158" uid="22137982" user="TeeEn">
    <nd ref="11808935231"/>
    <nd ref="11785128142"/>
    <nd ref="11806452218"/>
    <nd ref="49398351"/>
    <tag k="highway" v="residential"/>
    <tag k="lane_markings" v="no"/>
    <tag k="name" v="Ocean Lane"/>
    <tag k="oneway" v="yes"/>
    <tag k="surface" v="concrete"/>
    <tag k="tiger:cfcc" v="A41"/>
    <tag k="tiger:county" v="San Diego, CA"/>
    <tag k="tiger:name_base" v="Ocean"/>
    <tag k="tiger:name_type" v="Ln"/>
    <tag k="tiger:reviewed" v="no"/>
  </way>
  <way id="6009509" version="15" timestamp="2025-02-19T12:26:52Z" changeset="162698849" uid="21393709" user="CtI5UDYpRmUS">
    <nd ref="11785128143"/>
    <nd ref="7939497107"/>
    <nd ref="12600613019"/>
    <nd ref="12600613021"/>
    <nd ref="12289706551"/>
    <nd ref="11889192393"/>
    <nd ref="280489647"/>
    <tag k="highway" v="residential"/>
    <tag k="lane_markings" v="no"/>
    <tag k="name" v="Ocean Lane"/>
    <tag k="oneway" v="yes"/>
    <tag k="surface" v="concrete"/>
    <tag k="tiger:cfcc" v="A41"/>
    <tag k="tiger:county" v="San Diego, CA"/>
    <tag k="tiger:name_base" v="Ocean"/>
    <tag k="tiger:name_type" v="Ln"/>
    <tag k="tiger:reviewed" v="no"/>
  </way>
  <way id="6017410" version="12" timestamp="2025-01-02T15:15:32Z" changeset="160903158" uid="22137982" user="TeeEn">
    <nd ref="7271153243"/>
    <nd ref="49556826"/>
    <nd ref="11889192229"/>
    <nd ref="11889192230"/>
    <nd ref="11889192231"/>
    <nd ref="11889192232"/>
    <nd ref="11889192104"/>
    <nd ref="11889192233"/>
    <nd ref="11889192103"/>
    <nd ref="11889192234"/>
    <nd ref="11889192101"/>
    <nd ref="11889192235"/>
    <nd ref="11889192102"/>
    <nd ref="11889192236"/>
    <nd ref="11889192237"/>
    <nd ref="11889192100"/>
    <nd ref="11889192239"/>
    <nd ref="11889192099"/>
    <nd ref="11889192238"/>
    <nd ref="11889192098"/>
    <nd ref="11889192097"/>
    <nd ref="11889192240"/>
    <nd ref="11889192096"/>
    <nd ref="11889192241"/>
    <nd ref="11889192095"/>
    <nd ref="11889192242"/>
    <nd ref="11889192094"/>
    <nd ref="11889192093"/>
    <nd ref="11889192243"/>
    <nd ref="12297131334"/>
    <nd ref="7271153242"/>
    <nd ref="11808959830"/>
    <tag k="highway" v="residential"/>
    <tag k="lane_markings" v="no"/>
    <tag k="name" v="Calla Avenue"/>
    <tag k="sidewalk:both" v="separate"/>
    <tag k="surface" v="asphalt"/>
    <tag k="tiger:cfcc" v="A41"/>
    <tag k="tiger:county" v="San Diego, CA"/>
    <tag k="tiger:name_base" v="Calla"/>
    <tag k="tiger:name_type" v="Ave"/>
    <tag k="tiger:reviewed" v="no"/>
  </way>
  <way id="6024688" version="16" timestamp="2025-01-02T14:11:23Z" changeset="160903158" uid="22137982" user="TeeEn">
    <nd ref="7271153340"/>
    <nd ref="7271153341"/>
    <nd ref="11889192179"/>
    <nd ref="11889192178"/>
    <nd ref="11889192177"/>
    <nd ref="11889192176"/>
    <nd ref="11889192175"/>
    <nd ref="12297132047"/>
    <nd ref="11889192174"/>
    <nd ref="11889192173"/>
    <nd ref="11889192172"/>
    <nd ref="11889192171"/>
    <nd ref="11889192180"/>
    <nd ref="11889192170"/>
    <nd ref="11889192181"/>
    <nd ref="7271153402"/>
    <nd ref="11932757166"/>
    <tag k="highway" v="residential"/>
    <tag k="lane_markings" v="no"/>
    <tag k="name" v="Donax Avenue"/>
    <tag k="sidewalk:both" v="separate"/>
    <tag k="surface" v="asphalt"/>
    <tag k="tiger:cfcc" v="A41"/>
    <tag k="tiger:county" v="San Diego, CA"/>
    <tag k="tiger:name_base" v="Donax"/>
    <tag k="tiger:name_type" v="Ave"/>
    <tag k="tiger:reviewed" v="no"/>
  </way>
  <way id="25723121" version="17" timestamp="2025-01-02T14:10:23Z" changeset="160903158" uid="22137982" user="TeeEn">
    <nd ref="7271153305"/>
    <nd ref="7271153304"/>
    <nd ref="49398355"/>
    <nd ref="11889192257"/>
    <nd ref="11889192114"/>
    <nd ref="11889192258"/>
    <nd ref="11889192115"/>
    <nd ref="11889192259"/>
    <nd ref="11889192260"/>
    <nd ref="11889192116"/>
    <nd ref="11889192261"/>
    <nd ref="11889192262"/>
    <nd ref="11889192117"/>
    <nd ref="11889192263"/>
    <nd ref="11889192120"/>
    <nd ref="11889192264"/>
    <nd ref="11889192119"/>
    <nd ref="7271153339"/>
    <nd ref="7271153338"/>
    <tag k="highway" v="residential"/>
    <tag k="lane_markings" v="no"/>
    <tag k="name" v="Dahlia Avenue"/>
    <tag k="sidewalk:both" v="separate"/>
    <tag k="surface" v="asphalt"/>
    <tag k="tiger:cfcc" v="A41"/>
    <tag k="tiger:county" v="San Diego, CA"/>
    <tag k="tiger:name_base" v="Dahlia"/>
    <tag k="tiger:name_type" v="Ave"/>
    <tag k="tiger:reviewed" v="no"/>
  </way>
  <way id="25723338" version="17" timestamp="2025-01-02T14:13:42Z" changeset="160903158" uid="22137982" user="TeeEn">
    <nd ref="7271153281"/>
    <nd ref="7271153282"/>
    <nd ref="11889192138"/>
    <nd ref="11889192137"/>
    <nd ref="11889192153"/>
    <nd ref="11889192136"/>
    <nd ref="11889192135"/>
    <nd ref="7271153364"/>
    <nd ref="11932757143"/>
    <nd ref="49052347"/>
    <nd ref="7271153362"/>
    <nd ref="7271153363"/>
    <nd ref="49052348"/>
    <nd ref="11893603300"/>
    <nd ref="11889192202"/>
    <nd ref="11889192201"/>
    <nd ref="7271153385"/>
    <nd ref="11786372818"/>
    <nd ref="49052349"/>
    <nd ref="11794900971"/>
    <nd ref="7271153386"/>
    <nd ref="11889192013"/>
    <nd ref="11889192012"/>
    <nd ref="11889192335"/>
    <nd ref="11889192011"/>
    <nd ref="11889192337"/>
    <nd ref="11889192338"/>
    <nd ref="11889192010"/>
    <nd ref="11889192339"/>
    <nd ref="11889192009"/>
    <nd ref="11889192340"/>
    <nd ref="11889192008"/>
    <nd ref="11889192341"/>
    <nd ref="11889192007"/>
    <nd ref="11889192342"/>
    <nd ref="11889192006"/>
    <nd ref="11889192343"/>
    <nd ref="11889192005"/>
    <nd ref="11889192344"/>
    <nd ref="11889192004"/>
    <nd ref="7271153387"/>
    <nd ref="11932788779"/>
    <tag k="highway" v="residential"/>
    <tag k="lane_markings" v="no"/>
    <tag k="name" v="Elder Avenue"/>
    <tag k="sidewalk:both" v="separate"/>
    <tag k="surface" v="asphalt"/>
    <tag k="tiger:cfcc" v="A41"/>
    <tag k="tiger:county" v="San Diego, CA"/>
    <tag k="tiger:name_base" v="Pier"/>
    <tag k="tiger:name_type" v="Plz"/>
    <tag k="tiger:reviewed" v="no"/>
  </way>
  <way id="25723340" version="22" timestamp="2025-01-03T06:20:02Z" changeset="160934783" uid="22137982" user="TeeEn">
    <nd ref="11786223290"/>
    <nd ref="7271153365"/>
    <nd ref="11889192203"/>
    <nd ref="12289705998"/>
    <nd ref="11889192204"/>
    <nd ref="11889192205"/>
    <nd ref="12289706000"/>
    <nd ref="11889192206"/>
    <nd ref="7271153381"/>
    <nd ref="11786372801"/>
    <nd ref="49125920"/>
    <nd ref="11794890752"/>
    <nd ref="7271153382"/>
    <nd ref="11889192355"/>
    <nd ref="11889191994"/>
    <nd ref="11889192354"/>
    <nd ref="11889192353"/>
    <nd ref="11889192352"/>
    <nd ref="11889192351"/>
    <nd ref="11889191995"/>
    <nd ref="11889191996"/>
    <nd ref="11889192350"/>
    <nd ref="11889191997"/>
    <nd ref="11889191998"/>
    <nd ref="11889192348"/>
    <nd ref="11889191999"/>
    <nd ref="11889192347"/>
    <nd ref="11889192346"/>
    <nd ref="11932788775"/>
    <tag k="highway" v="residential"/>
    <tag k="lane_markings" v="no"/>
    <tag k="name" v="Elkwood Avenue"/>
    <tag k="sidewalk:both" v="separate"/>
    <tag k="surface" v="asphalt"/>
    <tag k="tiger:cfcc" v="A41"/>
    <tag k="tiger:county" v="San Diego, CA"/>
    <tag k="tiger:name_base" v="Elkwood"/>
    <tag k="tiger:name_type" v="Ave"/>
    <tag k="tiger:reviewed" v="no"/>
  </way>
  <way id="25723341" version="19" timestamp="2025-01-03T06:26:04Z" changeset="160934783" uid="22137982" user="TeeEn">
    <nd ref="7271153369"/>
    <nd ref="7271153371"/>
    <nd ref="11889192207"/>
    <nd ref="11889192213"/>
    <nd ref="12289706557"/>
    <nd ref="11889192215"/>
    <nd ref="12097694724"/>
    <nd ref="12289706560"/>
    <nd ref="12020105834"/>
    <nd ref="11889192216"/>
    <nd ref="12327174025"/>
    <nd ref="7271153379"/>
    <nd ref="11786372798"/>
    <nd ref="49125921"/>
    <nd ref="11794890735"/>
    <nd ref="7271153380"/>
    <nd ref="11889191993"/>
    <nd ref="11889192359"/>
    <nd ref="11889191992"/>
    <nd ref="11889192360"/>
    <nd ref="11889191991"/>
    <nd ref="11889192361"/>
    <nd ref="11889191988"/>
    <nd ref="11889191990"/>
    <nd ref="11889192362"/>
    <nd ref="11889191989"/>
    <nd ref="11889192363"/>
    <nd ref="11889191987"/>
    <nd ref="11889192364"/>
    <nd ref="11889191986"/>
    <nd ref="11889192365"/>
    <nd ref="11889191985"/>
    <nd ref="11889192366"/>
    <nd ref="11889192367"/>
    <nd ref="11932788772"/>
    <tag k="highway" v="residential"/>
    <tag k="lane_markings" v="no"/>
    <tag k="name" v="Ebony Avenue"/>
    <tag k="sidewalk:both" v="separate"/>
    <tag k="surface" v="asphalt"/>
    <tag k="tiger:cfcc" v="A41"/>
    <tag k="tiger:county" v="San Diego, CA"/>
    <tag k="tiger:name_base" v="Ebony"/>
    <tag k="tiger:name_type" v="Ave"/>
    <tag k="tiger:reviewed" v="no"/>
  </way>
  <way id="149560879" version="15" timestamp="2025-01-09T09:46:53Z" changeset="161159196" uid="22137982" user="TeeEn">
    <nd ref="11785128122"/>
    <nd ref="7271153329"/>
    <nd ref="49773839"/>
    <nd ref="5530841438"/>
    <nd ref="5530841442"/>
    <nd ref="5530841439"/>
    <nd ref="11889192256"/>
    <nd ref="11889192113"/>
    <nd ref="8240155366"/>
    <nd ref="8240155371"/>
    <nd ref="7271153333"/>
    <nd ref="7271153332"/>
    <tag k="cycleway" v="shared_lane"/>
    <tag k="highway" v="tertiary"/>
    <tag k="name" v="Palm Avenue"/>
    <tag k="sidewalk:both" v="separate"/>
    <tag k="surface" v="asphalt"/>
    <tag k="tiger:cfcc" v="A41"/>
    <tag k="tiger:county" v="San Diego, CA"/>
    <tag k="tiger:name_base" v="Palm"/>
    <tag k="tiger:name_type" v="Ave"/>
    <tag k="tiger:reviewed" v="no"/>
  </way>
  <way id="149560905" version="27" timestamp="2025-05-05T18:04:06Z" changeset="165858788" uid="21393709" user="CtI5UDYpRmUS">
    <nd ref="7271153324"/>
    <nd ref="7271153328"/>
    <nd ref="5530841468"/>
    <nd ref="49398354"/>
    <nd ref="11785245799"/>
    <nd ref="49485476"/>
    <nd ref="11785245809"/>
    <nd ref="3695923466"/>
    <nd ref="11785300874"/>
    <nd ref="7271153301"/>
    <tag k="cycleway" v="shared_lane"/>
    <tag k="highway" v="tertiary"/>
    <tag k="lanes" v="2"/>
    <tag k="lit" v="yes"/>
    <tag k="maxspeed" v="25 mph"/>
    <tag k="maxspeed:type" v="sign"/>
    <tag k="name" v="Seacoast Drive"/>
    <tag k="sidewalk:both" v="separate"/>
    <tag k="surface" v="asphalt"/>
    <tag k="tiger:cfcc" v="A41"/>
    <tag k="tiger:county" v="San Diego, CA"/>
    <tag k="tiger:name_base" v="Seacoast"/>
    <tag k="tiger:name_type" v="Dr"/>
    <tag k="tiger:reviewed" v="no"/>
  </way>
  <way id="241999561" version="7" timestamp="2025-01-09T09:45:26Z" changeset="161159196" uid="22137982" user="TeeEn">
    <nd ref="11785128124"/>
    <nd ref="7271153322"/>
    <nd ref="7271153323"/>
    <tag k="highway" v="residential"/>
    <tag k="lane_markings" v="no"/>
    <tag k="name" v="Palm Avenue"/>
    <tag k="sidewalk:both" v="separate"/>
    <tag k="surface" v="paving_stones"/>
    <tag k="tiger:cfcc" v="A41"/>
    <tag k="tiger:county" v="San Diego, CA"/>
    <tag k="tiger:name_base" v="Palm"/>
    <tag k="tiger:name_type" v="Ave"/>
    <tag k="tiger:reviewed" v="no"/>
  </way>
  <way id="241999562" version="15" timestamp="2025-01-02T14:01:05Z" changeset="160903158" uid="22137982" user="TeeEn">
    <nd ref="7271153358"/>
    <nd ref="7271153359"/>
    <nd ref="11889192196"/>
    <nd ref="11889192197"/>
    <nd ref="11889192198"/>
    <nd ref="12297132058"/>
    <nd ref="11889192199"/>
    <nd ref="12297132060"/>
    <nd ref="11889181554"/>
    <nd ref="11889154958"/>
    <nd ref="11889192200"/>
    <nd ref="7271153357"/>
    <nd ref="11786372829"/>
    <nd ref="49125917"/>
    <tag k="highway" v="residential"/>
    <tag k="lane_markings" v="no"/>
    <tag k="name" v="Evergreen Avenue"/>
    <tag k="sidewalk:both" v="separate"/>
    <tag k="surface" v="asphalt"/>
    <tag k="tiger:cfcc" v="A41"/>
    <tag k="tiger:county" v="San Diego, CA"/>
    <tag k="tiger:name_base" v="Evergreen"/>
    <tag k="tiger:name_type" v="Ave"/>
    <tag k="tiger:reviewed" v="no"/>
  </way>
  <way id="366165691" version="7" timestamp="2025-01-02T14:29:45Z" changeset="160903158" uid="22137982" user="TeeEn">
    <nd ref="3701525686"/>
    <nd ref="11806452308"/>
    <nd ref="3701533992"/>
    <nd ref="11806452316"/>
    <nd ref="3701525685"/>
    <tag k="highway" v="residential"/>
    <tag k="lane_markings" v="no"/>
    <tag k="lit" v="no"/>
    <tag k="name" v="Ocean Lane"/>
    <tag k="surface" v="concrete"/>
  </way>
  <way id="549619379" version="4" timestamp="2025-02-06T03:46:28Z" changeset="162190713" uid="10468210" user="KingKratos">
    <nd ref="5309130046"/>
    <nd ref="5309130047"/>
    <nd ref="5309130048"/>
    <nd ref="5309130049"/>
    <nd ref="5309130050"/>
    <nd ref="5309130051"/>
    <nd ref="5309130052"/>
    <nd ref="5309130053"/>
    <nd ref="5309130054"/>
    <nd ref="5309130055"/>
    <nd ref="5309130114"/>
    <nd ref="5309130056"/>
    <nd ref="5309130057"/>
    <nd ref="5309130058"/>
    <nd ref="5309130059"/>
    <nd ref="5309130060"/>
    <nd ref="5309130061"/>
    <nd ref="5309130062"/>
    <nd ref="5309130063"/>
    <nd ref="5309130064"/>
    <nd ref="5309130065"/>
    <nd ref="5309130066"/>
    <nd ref="5309130078"/>
    <nd ref="5309130077"/>
    <nd ref="5309130076"/>
    <nd ref="5309130067"/>
    <nd ref="5309130068"/>
    <nd ref="5309130079"/>
    <nd ref="5309130069"/>
    <nd ref="5309130070"/>
    <nd ref="5309130071"/>
    <nd ref="5309130072"/>
    <nd ref="5309130073"/>
    <nd ref="5309130074"/>
    <nd ref="5309130116"/>
    <nd ref="5309130117"/>
    <nd ref="5309130118"/>
    <nd ref="5309130119"/>
    <nd ref="5309130120"/>
    <nd ref="5309130121"/>
    <nd ref="5309130122"/>
    <nd ref="5309130123"/>
    <nd ref="5309130124"/>
    <nd ref="5309130125"/>
    <nd ref="5309130126"/>
    <nd ref="5309130127"/>
    <nd ref="5309130128"/>
    <nd ref="5309130129"/>
    <nd ref="5309130195"/>
    <nd ref="11806445150"/>
    <nd ref="5309130130"/>
    <nd ref="5309130115"/>
    <nd ref="5309130131"/>
    <nd ref="5309130132"/>
    <nd ref="5309130075"/>
    <nd ref="5309130134"/>
    <nd ref="5309130135"/>
    <nd ref="5309130166"/>
    <nd ref="5309130165"/>
    <nd ref="5309130133"/>
    <nd ref="5309130167"/>
    <nd ref="5309130168"/>
    <nd ref="5309130136"/>
    <nd ref="5309130137"/>
    <nd ref="5309130138"/>
    <nd ref="5309130139"/>
    <nd ref="5309130140"/>
    <nd ref="5309130141"/>
    <nd ref="5309130142"/>
    <nd ref="5309130143"/>
    <nd ref="5309130144"/>
    <nd ref="5309130145"/>
    <nd ref="5309130146"/>
    <nd ref="5309130147"/>
    <nd ref="5309130148"/>
    <nd ref="5309130149"/>
    <nd ref="5309130150"/>
    <nd ref="5309130151"/>
    <nd ref="5309130152"/>
    <nd ref="5309130153"/>
    <nd ref="5309130154"/>
    <nd ref="5309130155"/>
    <nd ref="5309130156"/>
    <nd ref="5309130157"/>
    <nd ref="5309130158"/>
    <nd ref="5309130159"/>
    <nd ref="5309130160"/>
    <nd ref="5309130161"/>
    <nd ref="5309130162"/>
    <nd ref="5309130163"/>
    <nd ref="5309130164"/>
    <nd ref="5309130046"/>
    <tag k="addr:city" v="Imperial Beach"/>
    <tag k="addr:housenumber" v="800"/>
    <tag k="addr:postcode" v="91932"/>
    <tag k="addr:state" v="CA"/>
    <tag k="addr:street" v="Seacoast Drive"/>
    <tag k="building" v="hotel"/>
    <tag k="height" v="5.0"/>
    <tag k="name" v="Pier South Resort, Autograph Collection by Marriott"/>
    <tag k="tourism" v="hotel"/>
    <tag k="wikidata" v="Q111393812"/>
  </way>
  <way id="549619381" version="4" timestamp="2020-12-30T19:10:01Z" changeset="96686939" uid="3545250" user="ALLstarGUY">
    <nd ref="5309130168"/>
    <nd ref="5309130167"/>
    <nd ref="5309130166"/>
    <nd ref="5309130135"/>
    <nd ref="5309130134"/>
    <nd ref="5309130075"/>
    <nd ref="5309130132"/>
    <nd ref="5309130112"/>
    <nd ref="5309130090"/>
    <nd ref="5309130113"/>
    <nd ref="5309130091"/>
    <nd ref="5309130092"/>
    <nd ref="5309130093"/>
    <nd ref="5309130094"/>
    <nd ref="5309130095"/>
    <nd ref="5309130096"/>
    <nd ref="5309130097"/>
    <nd ref="5309130098"/>
    <nd ref="5309130195"/>
    <nd ref="5309130129"/>
    <nd ref="5309130128"/>
    <nd ref="5309130127"/>
    <nd ref="5309130126"/>
    <nd ref="5309130125"/>
    <nd ref="5309130124"/>
    <nd ref="5309130123"/>
    <nd ref="5309130122"/>
    <nd ref="5309130121"/>
    <nd ref="5309130120"/>
    <nd ref="5309130119"/>
    <nd ref="5309130118"/>
    <nd ref="5309130117"/>
    <nd ref="5309130116"/>
    <nd ref="5309130074"/>
    <nd ref="5309130073"/>
    <nd ref="5309130072"/>
    <nd ref="5309130099"/>
    <nd ref="5309130100"/>
    <nd ref="5309130101"/>
    <nd ref="5309130102"/>
    <nd ref="5309130103"/>
    <nd ref="5309130104"/>
    <nd ref="5309130105"/>
    <nd ref="5309130106"/>
    <nd ref="5309130107"/>
    <nd ref="5309130108"/>
    <nd ref="5309130109"/>
    <nd ref="5309130110"/>
    <nd ref="5309130111"/>
    <nd ref="5309130059"/>
    <nd ref="5309130058"/>
    <nd ref="5309130057"/>
    <nd ref="5309130056"/>
    <nd ref="5309130114"/>
    <nd ref="5309130055"/>
    <nd ref="5309130054"/>
    <nd ref="5309130053"/>
    <nd ref="5309130052"/>
    <nd ref="5309130051"/>
    <nd ref="5309130050"/>
    <nd ref="5309130049"/>
    <nd ref="5309130048"/>
    <nd ref="5309130047"/>
    <nd ref="5309130046"/>
    <nd ref="5309130164"/>
    <nd ref="5309130163"/>
    <nd ref="5309130162"/>
    <nd ref="5309130161"/>
    <nd ref="5309130160"/>
    <nd ref="5309130159"/>
    <nd ref="5309130158"/>
    <nd ref="5309130157"/>
    <nd ref="5309130156"/>
    <nd ref="5309130155"/>
    <nd ref="5309130154"/>
    <nd ref="5309130153"/>
    <nd ref="5309130152"/>
    <nd ref="5309130151"/>
    <nd ref="5309130150"/>
    <nd ref="5309130149"/>
    <nd ref="5309130148"/>
    <nd ref="5309130147"/>
    <nd ref="5309130146"/>
    <nd ref="5309130145"/>
    <nd ref="5309130144"/>
    <nd ref="5309130143"/>
    <nd ref="5309130142"/>
    <nd ref="5309130141"/>
    <nd ref="5309130140"/>
    <nd ref="5309130139"/>
    <nd ref="5309130138"/>
    <nd ref="5309130137"/>
    <nd ref="5309130136"/>
    <nd ref="5309130168"/>
    <tag k="addr:city" v="Imperial Beach"/>
    <tag k="addr:housenumber" v="800"/>
    <tag k="addr:postcode" v="91932"/>
    <tag k="addr:state" v="CA"/>
    <tag k="addr:street" v="Seacoast Drive"/>
    <tag k="building" v="hotel"/>
    <tag k="height" v="30"/>
  </way>
  <way id="549619388" version="4" timestamp="2024-07-31T23:25:29Z" changeset="154671182" uid="11609320" user="telcodude">
    <nd ref="5309130225"/>
    <nd ref="5309130226"/>
    <nd ref="5309130227"/>
    <nd ref="5309130228"/>
    <nd ref="5309130229"/>
    <nd ref="5309130223"/>
    <nd ref="5309130224"/>
    <nd ref="5309130225"/>
    <tag k="addr:city" v="Imperial Beach"/>
    <tag k="addr:housenumber" v="875"/>
    <tag k="addr:postcode" v="91932"/>
    <tag k="addr:state" v="CA"/>
    <tag k="addr:street" v="Seacoast Drive"/>
    <tag k="building" v="retail"/>
    <tag k="craft" v="brewery"/>
    <tag k="height" v="4.3"/>
    <tag k="microbrewery" v="yes"/>
    <tag k="name" v="Coronado Brewing Company - Imperial Beach"/>
  </way>
  <way id="640625778" version="13" timestamp="2025-05-05T18:04:06Z" changeset="165858788" uid="21393709" user="CtI5UDYpRmUS">
    <nd ref="11808959789"/>
    <nd ref="11808959790"/>
    <nd ref="11947509447"/>
    <nd ref="11947509504"/>
    <nd ref="12600613024"/>
    <nd ref="11947509110"/>
    <nd ref="49105668"/>
    <nd ref="11947509540"/>
    <nd ref="12812234057"/>
    <nd ref="11947510052"/>
    <nd ref="11947509428"/>
    <nd ref="11947509404"/>
    <nd ref="49363209"/>
    <nd ref="11947509319"/>
    <nd ref="5530840920"/>
    <nd ref="12297131926"/>
    <nd ref="49131761"/>
    <nd ref="7375331375"/>
    <nd ref="49363212"/>
    <nd ref="11947510080"/>
    <nd ref="49363214"/>
    <nd ref="5530841433"/>
    <nd ref="7375331376"/>
    <nd ref="49363218"/>
    <nd ref="7271153249"/>
    <nd ref="7271153248"/>
    <tag k="highway" v="residential"/>
    <tag k="name" v="Silver Strand Boulevard"/>
    <tag k="sidewalk:both" v="separate"/>
    <tag k="source" v="https://imperialbeachca.mapgeo.io/datasets/public-access?abuttersDistance=100&amp;latlng=32.585384%2C-117.128322&amp;previewId=6250210900&amp;zoom=20"/>
    <tag k="surface" v="asphalt"/>
    <tag k="tiger:cfcc" v="A41"/>
    <tag k="tiger:county" v="San Diego, CA"/>
    <tag k="tiger:name_base" v="Silver Strand"/>
    <tag k="tiger:reviewed" v="no"/>
  </way>
  <way id="642926596" version="10" timestamp="2025-01-09T09:40:00Z" changeset="161159196" uid="22137982" user="TeeEn">
    <nd ref="7271153265"/>
    <nd ref="7271153264"/>
    <nd ref="7265790301"/>
    <nd ref="11889192380"/>
    <nd ref="3416384060"/>
    <nd ref="11889192379"/>
    <nd ref="11889192378"/>
    <nd ref="49119339"/>
    <tag k="cycleway:left" v="lane"/>
    <tag k="cycleway:right" v="shared_lane"/>
    <tag k="cycleway:right:lane" v="pictogram"/>
    <tag k="highway" v="secondary"/>
    <tag k="lane_markings" v="no"/>
    <tag k="maxspeed" v="35 mph"/>
    <tag k="name" v="Imperial Beach Boulevard"/>
    <tag k="sidewalk:both" v="separate"/>
    <tag k="source:maxspeed" v="sign"/>
    <tag k="surface" v="asphalt"/>
    <tag k="tiger:cfcc" v="A41"/>
    <tag k="tiger:county" v="San Diego, CA"/>
    <tag k="tiger:name_base" v="Imperial Beach"/>
    <tag k="tiger:name_type" v="Blvd"/>
    <tag k="tiger:reviewed" v="no"/>
  </way>
  <way id="659465429" version="11" timestamp="2025-01-02T15:15:47Z" changeset="160903158" uid="22137982" user="TeeEn">
    <nd ref="11889192228"/>
    <nd ref="49105667"/>
    <nd ref="11889192227"/>
    <nd ref="11889192226"/>
    <nd ref="11889192225"/>
    <nd ref="11889192224"/>
    <nd ref="11889192223"/>
    <nd ref="11889192222"/>
    <nd ref="11889192221"/>
    <nd ref="11889192220"/>
    <nd ref="7271153241"/>
    <nd ref="11808959819"/>
    <tag k="highway" v="residential"/>
    <tag k="lane_markings" v="no"/>
    <tag k="name" v="Carnation Avenue"/>
    <tag k="sidewalk:both" v="separate"/>
    <tag k="surface" v="asphalt"/>
    <tag k="tiger:cfcc" v="A41"/>
    <tag k="tiger:county" v="San Diego, CA"/>
    <tag k="tiger:name_base" v="Carnation"/>
    <tag k="tiger:name_type" v="Ave"/>
    <tag k="tiger:reviewed" v="no"/>
  </way>
  <way id="659465430" version="7" timestamp="2025-01-09T09:45:19Z" changeset="161159196" uid="22137982" user="TeeEn">
    <nd ref="49485471"/>
    <nd ref="11889192392"/>
    <nd ref="11889192391"/>
    <nd ref="49131758"/>
    <nd ref="7271153327"/>
    <nd ref="7271153326"/>
    <tag k="highway" v="residential"/>
    <tag k="lane_markings" v="no"/>
    <tag k="maxspeed" v="25 mph"/>
    <tag k="name" v="Seacoast Drive"/>
    <tag k="sidewalk:both" v="separate"/>
    <tag k="surface" v="asphalt"/>
    <tag k="tiger:cfcc" v="A41"/>
    <tag k="tiger:county" v="San Diego, CA"/>
    <tag k="tiger:name_base" v="Seacoast"/>
    <tag k="tiger:name_type" v="Dr"/>
    <tag k="tiger:reviewed" v="no"/>
  </way>
  <way id="754060403" version="3" timestamp="2019-12-12T20:23:47Z" changeset="78337020" uid="5673171" user="Adam Espinosa">
    <nd ref="7044781872"/>
    <nd ref="7044781869"/>
    <nd ref="7044781867"/>
    <nd ref="7044781853"/>
    <nd ref="7044781857"/>
    <nd ref="7044786585"/>
    <nd ref="7044781872"/>
    <tag k="access" v="yes"/>
    <tag k="addr:housenumber" v="750"/>
    <tag k="addr:street" v="Seacoast Drive"/>
    <tag k="amenity" v="toilets"/>
    <tag k="building" v="yes"/>
    <tag k="building:levels" v="1"/>
    <tag k="changing_table" v="no"/>
    <tag k="fee" v="no"/>
    <tag k="female" v="yes"/>
    <tag k="male" v="yes"/>
    <tag k="opening_hours" v="Mo-Su 07:00-sunset"/>
    <tag k="operator" v="Port of San Diego"/>
    <tag k="toilets:disposal" v="flush"/>
    <tag k="wheelchair" v="yes"/>
  </way>
  <way id="777646412" version="11" timestamp="2025-01-02T14:02:27Z" changeset="160903158" uid="22137982" user="TeeEn">
    <nd ref="49125916"/>
    <nd ref="7271153393"/>
    <nd ref="11786372850"/>
    <nd ref="11889192036"/>
    <nd ref="11889192313"/>
    <nd ref="11889192314"/>
    <nd ref="11889192034"/>
    <nd ref="11889192315"/>
    <nd ref="11889192032"/>
    <nd ref="11889192316"/>
    <nd ref="11889192031"/>
    <nd ref="11889192317"/>
    <nd ref="11889192030"/>
    <nd ref="11889192318"/>
    <nd ref="11889192029"/>
    <nd ref="11889192319"/>
    <nd ref="11889192028"/>
    <nd ref="11889192320"/>
    <nd ref="11889192027"/>
    <nd ref="11889192321"/>
    <nd ref="11889192026"/>
    <nd ref="7271153414"/>
    <nd ref="49176270"/>
    <nd ref="7939497105"/>
    <nd ref="7271153415"/>
    <tag k="cycleway" v="shared_lane"/>
    <tag k="highway" v="residential"/>
    <tag k="lane_markings" v="no"/>
    <tag k="name" v="Elm Avenue"/>
    <tag k="sidewalk:both" v="separate"/>
    <tag k="surface" v="asphalt"/>
    <tag k="tiger:cfcc" v="A41"/>
    <tag k="tiger:county" v="San Diego, CA"/>
    <tag k="tiger:name_base" v="Elm"/>
    <tag k="tiger:name_type" v="Ave"/>
    <tag k="tiger:reviewed" v="no"/>
  </way>
  <way id="808273258" version="7" timestamp="2025-01-09T09:39:02Z" changeset="161159196" uid="22137982" user="TeeEn">
    <nd ref="11331901643"/>
    <nd ref="7271153256"/>
    <nd ref="11889192374"/>
    <nd ref="11925202343"/>
    <nd ref="11889192373"/>
    <nd ref="11889192372"/>
    <nd ref="11889192371"/>
    <nd ref="11889192370"/>
    <nd ref="11889192369"/>
    <nd ref="11945513388"/>
    <nd ref="11889192368"/>
    <nd ref="49119341"/>
    <tag k="cycleway" v="lane"/>
    <tag k="highway" v="secondary"/>
    <tag k="lanes" v="2"/>
    <tag k="maxspeed" v="35 mph"/>
    <tag k="name" v="Imperial Beach Boulevard"/>
    <tag k="sidewalk:both" v="separate"/>
    <tag k="source:maxspeed" v="sign"/>
    <tag k="surface" v="asphalt"/>
    <tag k="tiger:cfcc" v="A41"/>
    <tag k="tiger:county" v="San Diego, CA"/>
    <tag k="tiger:name_base" v="Imperial Beach"/>
    <tag k="tiger:name_type" v="Blvd"/>
    <tag k="tiger:reviewed" v="no"/>
  </way>
  <way id="937304573" version="3" timestamp="2025-01-02T14:25:53Z" changeset="160903158" uid="22137982" user="TeeEn">
    <nd ref="49767054"/>
    <nd ref="3701525686"/>
    <tag k="highway" v="residential"/>
    <tag k="lane_markings" v="no"/>
    <tag k="name" v="Elkwood Avenue"/>
    <tag k="sidewalk:both" v="separate"/>
    <tag k="surface" v="asphalt"/>
    <tag k="tiger:cfcc" v="A41"/>
    <tag k="tiger:county" v="San Diego, CA"/>
    <tag k="tiger:name_base" v="Elkwood"/>
    <tag k="tiger:name_type" v="Ave"/>
    <tag k="tiger:reviewed" v="no"/>
  </way>
  <way id="937304574" version="3" timestamp="2025-01-02T14:29:50Z" changeset="160903158" uid="22137982" user="TeeEn">
    <nd ref="49052345"/>
    <nd ref="11806452278"/>
    <nd ref="11806452292"/>
    <nd ref="3701525686"/>
    <tag k="highway" v="residential"/>
    <tag k="lane_markings" v="no"/>
    <tag k="lit" v="no"/>
    <tag k="name" v="Ocean Lane"/>
    <tag k="oneway" v="yes"/>
    <tag k="surface" v="concrete"/>
  </way>
  <way id="1003891759" version="3" timestamp="2025-01-02T13:51:43Z" changeset="160903158" uid="22137982" user="TeeEn">
    <nd ref="49508261"/>
    <nd ref="3625816341"/>
    <tag k="highway" v="residential"/>
    <tag k="lane_markings" v="no"/>
    <tag k="name" v="Elm Avenue"/>
    <tag k="sidewalk:both" v="separate"/>
    <tag k="surface" v="asphalt"/>
    <tag k="tiger:cfcc" v="A41"/>
    <tag k="tiger:county" v="San Diego, CA"/>
    <tag k="tiger:name_base" v="Elm"/>
    <tag k="tiger:name_type" v="Ave"/>
    <tag k="tiger:reviewed" v="no"/>
  </way>
  <way id="1003891760" version="3" timestamp="2025-01-02T14:03:49Z" changeset="160903158" uid="22137982" user="TeeEn">
    <nd ref="3625816341"/>
    <nd ref="11806452269"/>
    <nd ref="5532658636"/>
    <nd ref="11806452265"/>
    <nd ref="3625816342"/>
    <tag k="highway" v="residential"/>
    <tag k="lane_markings" v="no"/>
    <tag k="lit" v="no"/>
    <tag k="maxspeed:type" v="US:urban"/>
    <tag k="name" v="Ocean Lane"/>
    <tag k="oneway" v="yes"/>
    <tag k="surface" v="concrete"/>
  </way>
  <way id="1221856683" version="6" timestamp="2025-01-09T09:38:49Z" changeset="161159196" uid="22137982" user="TeeEn">
    <nd ref="49119339"/>
    <nd ref="11331901639"/>
    <nd ref="11889192377"/>
    <nd ref="11889192218"/>
    <nd ref="11889192219"/>
    <nd ref="7271153257"/>
    <nd ref="11331901640"/>
    <tag k="cycleway:left" v="lane"/>
    <tag k="cycleway:right" v="shared_lane"/>
    <tag k="cycleway:right:lane" v="pictogram"/>
    <tag k="highway" v="secondary"/>
    <tag k="lane_markings" v="no"/>
    <tag k="maxspeed" v="35 mph"/>
    <tag k="name" v="Imperial Beach Boulevard"/>
    <tag k="sidewalk:both" v="separate"/>
    <tag k="source:maxspeed" v="sign"/>
    <tag k="surface" v="asphalt"/>
    <tag k="tiger:cfcc" v="A41"/>
    <tag k="tiger:county" v="San Diego, CA"/>
    <tag k="tiger:name_base" v="Imperial Beach"/>
    <tag k="tiger:name_type" v="Blvd"/>
    <tag k="tiger:reviewed" v="no"/>
  </way>
  <way id="1221856686" version="2" timestamp="2025-01-01T11:24:46Z" changeset="160855629" uid="22137982" user="TeeEn">
    <nd ref="49119341"/>
    <nd ref="49119342"/>
    <tag k="cycleway" v="lane"/>
    <tag k="highway" v="secondary"/>
    <tag k="lanes" v="2"/>
    <tag k="name" v="Imperial Beach Boulevard"/>
    <tag k="sidewalk:both" v="separate"/>
    <tag k="surface" v="asphalt"/>
    <tag k="tiger:cfcc" v="A41"/>
    <tag k="tiger:county" v="San Diego, CA"/>
    <tag k="tiger:name_base" v="Imperial Beach"/>
    <tag k="tiger:name_type" v="Blvd"/>
    <tag k="tiger:reviewed" v="no"/>
  </way>
  <way id="1268592002" version="2" timestamp="2024-04-09T00:47:52Z" changeset="149756619" uid="11609320" user="telcodude">
    <nd ref="11782428934"/>
    <nd ref="11782428935"/>
    <nd ref="11782428936"/>
    <nd ref="11782428937"/>
    <nd ref="11782428938"/>
    <nd ref="11782428939"/>
    <nd ref="11782428934"/>
    <tag k="addr:city" v="Imperial Beach"/>
    <tag k="addr:housenumber" v="303"/>
    <tag k="addr:postcode" v="91932"/>
    <tag k="addr:state" v="CA"/>
    <tag k="addr:street" v="Evergreen Avenue"/>
    <tag k="building" v="house"/>
    <tag k="source" v="microsoft/BuildingFootprints"/>
  </way>
  <way id="1268592003" version="2" timestamp="2024-04-09T01:06:11Z" changeset="149756836" uid="11609320" user="telcodude">
    <nd ref="11782428940"/>
    <nd ref="11782428941"/>
    <nd ref="11782428942"/>
    <nd ref="11782428943"/>
    <nd ref="11782428944"/>
    <nd ref="11782428945"/>
    <nd ref="11782428940"/>
    <tag k="addr:city" v="Imperial Beach"/>
    <tag k="addr:housenumber" v="951"/>
    <tag k="addr:postcode" v="91932"/>
    <tag k="addr:state" v="CA"/>
    <tag k="addr:street" v="3rd Street"/>
    <tag k="building" v="house"/>
    <tag k="source" v="microsoft/BuildingFootprints"/>
  </way>
  <way id="1268592004" version="2" timestamp="2024-11-01T08:47:56Z" changeset="158609153" uid="11609320" user="telcodude">
    <nd ref="11782428946"/>
    <nd ref="11782428947"/>
    <nd ref="11782428948"/>
    <nd ref="11782428949"/>
    <nd ref="11782428950"/>
    <nd ref="11782428951"/>
    <nd ref="11782428952"/>
    <nd ref="11782428953"/>
    <nd ref="11782428946"/>
    <tag k="addr:city" v="Imperial Beach"/>
    <tag k="addr:housenumber" v="967"/>
    <tag k="addr:postcode" v="91932"/>
    <tag k="addr:state" v="CA"/>
    <tag k="addr:street" v="3rd Street"/>
    <tag k="building" v="yes"/>
    <tag k="source" v="microsoft/BuildingFootprints"/>
  </way>
  <way id="1268592008" version="2" timestamp="2024-11-01T08:47:56Z" changeset="158609153" uid="11609320" user="telcodude">
    <nd ref="11782428966"/>
    <nd ref="11782428967"/>
    <nd ref="11782428968"/>
    <nd ref="11782435669"/>
    <nd ref="11782435670"/>
    <nd ref="11782435671"/>
    <nd ref="11782435672"/>
    <nd ref="11782435673"/>
    <nd ref="11782428966"/>
    <tag k="addr:city" v="Imperial Beach"/>
    <tag k="addr:housenumber" v="300"/>
    <tag k="addr:postcode" v="91932"/>
    <tag k="addr:state" v="CA"/>
    <tag k="addr:street" v="Elkwood Avenue"/>
    <tag k="building" v="yes"/>
    <tag k="source" v="microsoft/BuildingFootprints"/>
  </way>
  <way id="1268592864" version="2" timestamp="2024-10-15T21:46:30Z" changeset="157939888" uid="11609320" user="telcodude">
    <nd ref="11782433192"/>
    <nd ref="11782433193"/>
    <nd ref="11782433194"/>
    <nd ref="11782433195"/>
    <nd ref="11782433192"/>
    <tag k="addr:city" v="Imperial Beach"/>
    <tag k="addr:housenumber" v="1025"/>
    <tag k="addr:postcode" v="91932"/>
    <tag k="addr:state" v="CA"/>
    <tag k="addr:street" v="3rd Street"/>
    <tag k="building" v="yes"/>
    <tag k="source" v="microsoft/BuildingFootprints"/>
  </way>
  <way id="1268592865" version="2" timestamp="2024-10-15T21:46:30Z" changeset="157939888" uid="11609320" user="telcodude">
    <nd ref="11782433196"/>
    <nd ref="11782433197"/>
    <nd ref="11782433198"/>
    <nd ref="11782433199"/>
    <nd ref="11782433196"/>
    <tag k="addr:city" v="Imperial Beach"/>
    <tag k="addr:housenumber" v="1007"/>
    <tag k="addr:postcode" v="91932"/>
    <tag k="addr:state" v="CA"/>
    <tag k="addr:street" v="3rd Street"/>
    <tag k="building" v="yes"/>
    <tag k="source" v="microsoft/BuildingFootprints"/>
  </way>
  <way id="1268592889" version="2" timestamp="2024-10-15T21:46:30Z" changeset="157939888" uid="11609320" user="telcodude">
    <nd ref="11782446638"/>
    <nd ref="11782446639"/>
    <nd ref="11782446640"/>
    <nd ref="11782446641"/>
    <nd ref="11782446638"/>
    <tag k="addr:city" v="Imperial Beach"/>
    <tag k="addr:housenumber" v="378"/>
    <tag k="addr:postcode" v="91932"/>
    <tag k="addr:state" v="CA"/>
    <tag k="addr:street" v="Ebony Avenue"/>
    <tag k="building" v="yes"/>
    <tag k="source" v="microsoft/BuildingFootprints"/>
  </way>
  <way id="1268592890" version="2" timestamp="2024-10-15T21:46:30Z" changeset="157939888" uid="11609320" user="telcodude">
    <nd ref="11782446642"/>
    <nd ref="11782446643"/>
    <nd ref="11782446644"/>
    <nd ref="11782446645"/>
    <nd ref="11782446646"/>
    <nd ref="11782446647"/>
    <nd ref="11782446642"/>
    <tag k="addr:city" v="Imperial Beach"/>
    <tag k="addr:housenumber" v="370"/>
    <tag k="addr:postcode" v="91932"/>
    <tag k="addr:state" v="CA"/>
    <tag k="addr:street" v="Ebony Avenue"/>
    <tag k="building" v="yes"/>
    <tag k="source" v="microsoft/BuildingFootprints"/>
  </way>
  <way id="1268592891" version="2" timestamp="2024-10-15T21:46:30Z" changeset="157939888" uid="11609320" user="telcodude">
    <nd ref="11782446648"/>
    <nd ref="11782446649"/>
    <nd ref="11782446650"/>
    <nd ref="11782446651"/>
    <nd ref="11782446652"/>
    <nd ref="11782446653"/>
    <nd ref="11782446648"/>
    <tag k="addr:city" v="Imperial Beach"/>
    <tag k="addr:housenumber" v="362"/>
    <tag k="addr:postcode" v="91932"/>
    <tag k="addr:state" v="CA"/>
    <tag k="addr:street" v="Ebony Avenue"/>
    <tag k="building" v="yes"/>
    <tag k="source" v="microsoft/BuildingFootprints"/>
  </way>
  <way id="1268592892" version="2" timestamp="2024-10-15T21:46:30Z" changeset="157939888" uid="11609320" user="telcodude">
    <nd ref="11782446654"/>
    <nd ref="11782446655"/>
    <nd ref="11782446656"/>
    <nd ref="11782446657"/>
    <nd ref="11782446658"/>
    <nd ref="11782446659"/>
    <nd ref="11782446660"/>
    <nd ref="11782446661"/>
    <nd ref="11782446662"/>
    <nd ref="11782446663"/>
    <nd ref="11782446654"/>
    <tag k="addr:city" v="Imperial Beach"/>
    <tag k="addr:housenumber" v="354"/>
    <tag k="addr:postcode" v="91932"/>
    <tag k="addr:state" v="CA"/>
    <tag k="addr:street" v="Ebony Avenue"/>
    <tag k="building" v="yes"/>
    <tag k="source" v="microsoft/BuildingFootprints"/>
  </way>
  <way id="1268592893" version="2" timestamp="2024-10-15T21:46:30Z" changeset="157939888" uid="11609320" user="telcodude">
    <nd ref="11782446664"/>
    <nd ref="11782446665"/>
    <nd ref="11782446666"/>
    <nd ref="11782446667"/>
    <nd ref="11782446664"/>
    <tag k="addr:city" v="Imperial Beach"/>
    <tag k="addr:housenumber" v="346"/>
    <tag k="addr:postcode" v="91932"/>
    <tag k="addr:state" v="CA"/>
    <tag k="addr:street" v="Ebony Avenue"/>
    <tag k="building" v="yes"/>
    <tag k="source" v="microsoft/BuildingFootprints"/>
  </way>
  <way id="1268871796" version="2" timestamp="2024-11-01T08:47:56Z" changeset="158609153" uid="11609320" user="telcodude">
    <nd ref="11784913434"/>
    <nd ref="11784913435"/>
    <nd ref="11784913436"/>
    <nd ref="11784913437"/>
    <nd ref="11784913438"/>
    <nd ref="11784913439"/>
    <nd ref="11784913440"/>
    <nd ref="11784913441"/>
    <nd ref="11784913434"/>
    <tag k="addr:city" v="Imperial Beach"/>
    <tag k="addr:housenumber" v="311"/>
    <tag k="addr:postcode" v="91932"/>
    <tag k="addr:state" v="CA"/>
    <tag k="addr:street" v="Elder Avenue"/>
    <tag k="building" v="yes"/>
    <tag k="source" v="microsoft/BuildingFootprints"/>
  </way>
  <way id="1268871797" version="2" timestamp="2024-11-01T08:47:56Z" changeset="158609153" uid="11609320" user="telcodude">
    <nd ref="11784913442"/>
    <nd ref="11784913443"/>
    <nd ref="11784913444"/>
    <nd ref="11784913445"/>
    <nd ref="11784913446"/>
    <nd ref="11784913447"/>
    <nd ref="11784913442"/>
    <tag k="addr:city" v="Imperial Beach"/>
    <tag k="addr:housenumber" v="319"/>
    <tag k="addr:postcode" v="91932"/>
    <tag k="addr:state" v="CA"/>
    <tag k="addr:street" v="Elder Avenue"/>
    <tag k="building" v="yes"/>
    <tag k="source" v="microsoft/BuildingFootprints"/>
  </way>
  <way id="1268871798" version="2" timestamp="2024-11-01T08:47:56Z" changeset="158609153" uid="11609320" user="telcodude">
    <nd ref="11784913448"/>
    <nd ref="11784913449"/>
    <nd ref="11784913450"/>
    <nd ref="11784913451"/>
    <nd ref="11784913448"/>
    <tag k="addr:city" v="Imperial Beach"/>
    <tag k="addr:housenumber" v="335"/>
    <tag k="addr:postcode" v="91932"/>
    <tag k="addr:state" v="CA"/>
    <tag k="addr:street" v="Elder Avenue"/>
    <tag k="building" v="yes"/>
    <tag k="source" v="microsoft/BuildingFootprints"/>
  </way>
  <way id="1268871799" version="2" timestamp="2024-11-01T08:47:56Z" changeset="158609153" uid="11609320" user="telcodude">
    <nd ref="11784913452"/>
    <nd ref="11784913453"/>
    <nd ref="11784913454"/>
    <nd ref="11784913455"/>
    <nd ref="11784913452"/>
    <tag k="addr:city" v="Imperial Beach"/>
    <tag k="addr:housenumber" v="343"/>
    <tag k="addr:postcode" v="91932"/>
    <tag k="addr:state" v="CA"/>
    <tag k="addr:street" v="Elder Avenue"/>
    <tag k="building" v="yes"/>
    <tag k="source" v="microsoft/BuildingFootprints"/>
  </way>
  <way id="1268871800" version="2" timestamp="2024-11-01T08:47:56Z" changeset="158609153" uid="11609320" user="telcodude">
    <nd ref="11784913456"/>
    <nd ref="11784913457"/>
    <nd ref="11784913458"/>
    <nd ref="11784913459"/>
    <nd ref="11784913460"/>
    <nd ref="11784913461"/>
    <nd ref="11784913456"/>
    <tag k="addr:city" v="Imperial Beach"/>
    <tag k="addr:housenumber" v="351"/>
    <tag k="addr:postcode" v="91932"/>
    <tag k="addr:state" v="CA"/>
    <tag k="addr:street" v="Elder Avenue"/>
    <tag k="building" v="yes"/>
    <tag k="source" v="microsoft/BuildingFootprints"/>
  </way>
  <way id="1268871801" version="2" timestamp="2024-11-01T08:47:56Z" changeset="158609153" uid="11609320" user="telcodude">
    <nd ref="11784913462"/>
    <nd ref="11784913463"/>
    <nd ref="11784913464"/>
    <nd ref="11784913465"/>
    <nd ref="11784913466"/>
    <nd ref="11784913467"/>
    <nd ref="11784913468"/>
    <nd ref="11785005269"/>
    <nd ref="11784913462"/>
    <tag k="addr:city" v="Imperial Beach"/>
    <tag k="addr:housenumber" v="359"/>
    <tag k="addr:postcode" v="91932"/>
    <tag k="addr:state" v="CA"/>
    <tag k="addr:street" v="Elder Avenue"/>
    <tag k="building" v="yes"/>
    <tag k="source" v="microsoft/BuildingFootprints"/>
  </way>
  <way id="1268871802" version="2" timestamp="2024-11-01T08:47:56Z" changeset="158609153" uid="11609320" user="telcodude">
    <nd ref="11785005270"/>
    <nd ref="11785005271"/>
    <nd ref="11785005272"/>
    <nd ref="11785005273"/>
    <nd ref="11785005270"/>
    <tag k="addr:city" v="Imperial Beach"/>
    <tag k="addr:housenumber" v="367"/>
    <tag k="addr:postcode" v="91932"/>
    <tag k="addr:state" v="CA"/>
    <tag k="addr:street" v="Elder Avenue"/>
    <tag k="building" v="yes"/>
    <tag k="source" v="microsoft/BuildingFootprints"/>
  </way>
  <way id="1268871803" version="2" timestamp="2024-04-09T01:06:11Z" changeset="149756836" uid="11609320" user="telcodude">
    <nd ref="11785005274"/>
    <nd ref="11785005275"/>
    <nd ref="11785005276"/>
    <nd ref="11785005277"/>
    <nd ref="11785005278"/>
    <nd ref="11785005279"/>
    <nd ref="11785005280"/>
    <nd ref="11785005281"/>
    <nd ref="11785005274"/>
    <tag k="addr:city" v="Imperial Beach"/>
    <tag k="addr:housenumber" v="382"/>
    <tag k="addr:postcode" v="91932"/>
    <tag k="addr:state" v="CA"/>
    <tag k="addr:street" v="Elder Avenue"/>
    <tag k="building" v="house"/>
    <tag k="source" v="microsoft/BuildingFootprints"/>
  </way>
  <way id="1268871804" version="2" timestamp="2024-04-09T01:06:11Z" changeset="149756836" uid="11609320" user="telcodude">
    <nd ref="11785005282"/>
    <nd ref="11785005283"/>
    <nd ref="11785005284"/>
    <nd ref="11785005285"/>
    <nd ref="11785005286"/>
    <nd ref="11785005287"/>
    <nd ref="11785005282"/>
    <tag k="addr:city" v="Imperial Beach"/>
    <tag k="addr:housenumber" v="374"/>
    <tag k="addr:postcode" v="91932"/>
    <tag k="addr:state" v="CA"/>
    <tag k="addr:street" v="Elder Avenue"/>
    <tag k="building" v="house"/>
    <tag k="source" v="microsoft/BuildingFootprints"/>
  </way>
  <way id="1268871805" version="2" timestamp="2024-04-09T01:06:11Z" changeset="149756836" uid="11609320" user="telcodude">
    <nd ref="11785005288"/>
    <nd ref="11785005289"/>
    <nd ref="11785005290"/>
    <nd ref="11785005291"/>
    <nd ref="11785005292"/>
    <nd ref="11785005293"/>
    <nd ref="11785005294"/>
    <nd ref="11785005295"/>
    <nd ref="11785005288"/>
    <tag k="addr:city" v="Imperial Beach"/>
    <tag k="addr:housenumber" v="366"/>
    <tag k="addr:postcode" v="91932"/>
    <tag k="addr:state" v="CA"/>
    <tag k="addr:street" v="Elder Avenue"/>
    <tag k="building" v="house"/>
    <tag k="source" v="microsoft/BuildingFootprints"/>
  </way>
  <way id="1268871806" version="2" timestamp="2024-04-09T01:06:11Z" changeset="149756836" uid="11609320" user="telcodude">
    <nd ref="11785005296"/>
    <nd ref="11785005297"/>
    <nd ref="11785005298"/>
    <nd ref="11785005299"/>
    <nd ref="11785005300"/>
    <nd ref="11785005301"/>
    <nd ref="11785005296"/>
    <tag k="addr:city" v="Imperial Beach"/>
    <tag k="addr:housenumber" v="358"/>
    <tag k="addr:postcode" v="91932"/>
    <tag k="addr:state" v="CA"/>
    <tag k="addr:street" v="Elder Avenue"/>
    <tag k="building" v="house"/>
    <tag k="source" v="microsoft/BuildingFootprints"/>
  </way>
  <way id="1268871807" version="2" timestamp="2024-04-09T01:06:11Z" changeset="149756836" uid="11609320" user="telcodude">
    <nd ref="11785005302"/>
    <nd ref="11785005303"/>
    <nd ref="11785005304"/>
    <nd ref="11785005305"/>
    <nd ref="11785005306"/>
    <nd ref="11785005307"/>
    <nd ref="11785005302"/>
    <tag k="addr:city" v="Imperial Beach"/>
    <tag k="addr:housenumber" v="350"/>
    <tag k="addr:postcode" v="91932"/>
    <tag k="addr:state" v="CA"/>
    <tag k="addr:street" v="Elder Avenue"/>
    <tag k="building" v="house"/>
    <tag k="source" v="microsoft/BuildingFootprints"/>
  </way>
  <way id="1268871808" version="2" timestamp="2024-04-09T01:06:11Z" changeset="149756836" uid="11609320" user="telcodude">
    <nd ref="11785005308"/>
    <nd ref="11785005309"/>
    <nd ref="11785005310"/>
    <nd ref="11785005311"/>
    <nd ref="11785005312"/>
    <nd ref="11785005313"/>
    <nd ref="11785005314"/>
    <nd ref="11785005315"/>
    <nd ref="11785005308"/>
    <tag k="addr:city" v="Imperial Beach"/>
    <tag k="addr:housenumber" v="342"/>
    <tag k="addr:postcode" v="91932"/>
    <tag k="addr:state" v="CA"/>
    <tag k="addr:street" v="Elder Avenue"/>
    <tag k="building" v="house"/>
    <tag k="source" v="microsoft/BuildingFootprints"/>
  </way>
  <way id="1268871809" version="2" timestamp="2024-04-09T01:06:11Z" changeset="149756836" uid="11609320" user="telcodude">
    <nd ref="11785005316"/>
    <nd ref="11785005317"/>
    <nd ref="11785005318"/>
    <nd ref="11785005319"/>
    <nd ref="11785005320"/>
    <nd ref="11785005321"/>
    <nd ref="11785005316"/>
    <tag k="addr:city" v="Imperial Beach"/>
    <tag k="addr:housenumber" v="326"/>
    <tag k="addr:postcode" v="91932"/>
    <tag k="addr:state" v="CA"/>
    <tag k="addr:street" v="Elder Avenue"/>
    <tag k="building" v="house"/>
    <tag k="source" v="microsoft/BuildingFootprints"/>
  </way>
  <way id="1268871810" version="2" timestamp="2024-04-09T01:06:11Z" changeset="149756836" uid="11609320" user="telcodude">
    <nd ref="11785005322"/>
    <nd ref="11785005323"/>
    <nd ref="11785005324"/>
    <nd ref="11785005325"/>
    <nd ref="11785005326"/>
    <nd ref="11785005327"/>
    <nd ref="11785005328"/>
    <nd ref="11785005329"/>
    <nd ref="11785005322"/>
    <tag k="addr:city" v="Imperial Beach"/>
    <tag k="addr:housenumber" v="318"/>
    <tag k="addr:postcode" v="91932"/>
    <tag k="addr:state" v="CA"/>
    <tag k="addr:street" v="Elder Avenue"/>
    <tag k="building" v="house"/>
    <tag k="source" v="microsoft/BuildingFootprints"/>
  </way>
  <way id="1268871811" version="2" timestamp="2024-04-09T01:06:11Z" changeset="149756836" uid="11609320" user="telcodude">
    <nd ref="11785005330"/>
    <nd ref="11785005331"/>
    <nd ref="11785005332"/>
    <nd ref="11785005333"/>
    <nd ref="11785005334"/>
    <nd ref="11785005335"/>
    <nd ref="11785005330"/>
    <tag k="addr:city" v="Imperial Beach"/>
    <tag k="addr:housenumber" v="310"/>
    <tag k="addr:postcode" v="91932"/>
    <tag k="addr:state" v="CA"/>
    <tag k="addr:street" v="Elder Avenue"/>
    <tag k="building" v="house"/>
    <tag k="source" v="microsoft/BuildingFootprints"/>
  </way>
  <way id="1268879980" version="7" timestamp="2025-01-09T11:31:58Z" changeset="161165970" uid="22137982" user="TeeEn">
    <nd ref="11785128138"/>
    <nd ref="11785128139"/>
    <nd ref="11785128140"/>
    <nd ref="11785128141"/>
    <nd ref="11785128124"/>
    <nd ref="11785128127"/>
    <nd ref="11785128128"/>
    <nd ref="11785128129"/>
    <nd ref="11785128130"/>
    <nd ref="11785128131"/>
    <nd ref="11785128125"/>
    <nd ref="11785128126"/>
    <nd ref="11785128132"/>
    <nd ref="11785128133"/>
    <nd ref="11785128134"/>
    <nd ref="11785128135"/>
    <nd ref="11785128136"/>
    <nd ref="11785128137"/>
    <nd ref="11785128123"/>
    <nd ref="11785128138"/>
    <tag k="cycleway:left" v="no"/>
    <tag k="highway" v="residential"/>
    <tag k="lane_markings" v="no"/>
    <tag k="oneway" v="yes"/>
    <tag k="sidewalk:left" v="no"/>
    <tag k="sidewalk:right" v="separate"/>
    <tag k="surface" v="paving_stones"/>
  </way>
  <way id="1268881129" version="3" timestamp="2025-01-02T14:03:42Z" changeset="160903158" uid="22137982" user="TeeEn">
    <nd ref="3625816341"/>
    <nd ref="11806452272"/>
    <nd ref="5532658638"/>
    <nd ref="3695828360"/>
    <tag k="highway" v="residential"/>
    <tag k="lane_markings" v="no"/>
    <tag k="lit" v="no"/>
    <tag k="maxspeed:type" v="US:urban"/>
    <tag k="name" v="Ocean Lane"/>
    <tag k="surface" v="concrete"/>
  </way>
  <way id="1268947130" version="3" timestamp="2024-04-19T22:46:42Z" changeset="150243122" uid="11609320" user="telcodude">
    <nd ref="11786223198"/>
    <nd ref="11786223199"/>
    <nd ref="11786223200"/>
    <nd ref="11786223201"/>
    <nd ref="11786223202"/>
    <nd ref="11786223203"/>
    <nd ref="11786223198"/>
    <tag k="addr:city" v="Imperial Beach"/>
    <tag k="addr:housenumber" v="104"/>
    <tag k="addr:postcode" v="91932"/>
    <tag k="addr:state" v="CA"/>
    <tag k="addr:street" v="Imperial Beach Boulevard"/>
    <tag k="amenity" v="restaurant"/>
    <tag k="building" v="yes"/>
    <tag k="cuisine" v="american"/>
    <tag k="name" v="IB Forum Sports Bar &amp; Grill"/>
    <tag k="source" v="microsoft/BuildingFootprints"/>
    <tag k="website" v="https://www.ib-forum.com"/>
  </way>
  <way id="1268947131" version="3" timestamp="2024-05-31T22:36:10Z" changeset="152100751" uid="11609320" user="telcodude">
    <nd ref="11786223204"/>
    <nd ref="11786223205"/>
    <nd ref="11786223206"/>
    <nd ref="11786223207"/>
    <nd ref="11786223204"/>
    <tag k="addr:city" v="Imperial Beach"/>
    <tag k="addr:housenumber" v="1047"/>
    <tag k="addr:postcode" v="91932"/>
    <tag k="addr:state" v="CA"/>
    <tag k="addr:street" v="Seacoast Drive"/>
    <tag k="building" v="apartments"/>
    <tag k="source" v="microsoft/BuildingFootprints"/>
  </way>
  <way id="1268969002" version="6" timestamp="2025-01-02T14:41:51Z" changeset="160903158" uid="22137982" user="TeeEn">
    <nd ref="7271153271"/>
    <nd ref="7271153270"/>
    <nd ref="11889192149"/>
    <nd ref="11889191983"/>
    <nd ref="11889192150"/>
    <nd ref="11889192141"/>
    <nd ref="11889192140"/>
    <nd ref="11889192139"/>
    <nd ref="7271153370"/>
    <nd ref="11786339216"/>
    <tag k="highway" v="residential"/>
    <tag k="lane_markings" v="no"/>
    <tag k="name" v="Ebony Avenue"/>
    <tag k="sidewalk:both" v="separate"/>
    <tag k="surface" v="asphalt"/>
    <tag k="tiger:cfcc" v="A41"/>
    <tag k="tiger:county" v="San Diego, CA"/>
    <tag k="tiger:name_base" v="Ebony"/>
    <tag k="tiger:name_type" v="Ave"/>
    <tag k="tiger:reviewed" v="no"/>
  </way>
  <way id="1268969010" version="7" timestamp="2025-01-09T09:41:49Z" changeset="161159196" uid="22137982" user="TeeEn">
    <nd ref="11785242072"/>
    <nd ref="7271153274"/>
    <nd ref="5533700886"/>
    <nd ref="11889192131"/>
    <nd ref="11889192151"/>
    <nd ref="7271153366"/>
    <tag k="highway" v="residential"/>
    <tag k="lane_markings" v="no"/>
    <tag k="name" v="Elkwood Avenue"/>
    <tag k="sidewalk:both" v="separate"/>
    <tag k="surface" v="asphalt"/>
    <tag k="tiger:cfcc" v="A41"/>
    <tag k="tiger:county" v="San Diego, CA"/>
    <tag k="tiger:name_base" v="Elkwood"/>
    <tag k="tiger:name_type" v="Ave"/>
    <tag k="tiger:reviewed" v="no"/>
  </way>
  <way id="1268969011" version="4" timestamp="2025-01-01T11:23:09Z" changeset="160855629" uid="22137982" user="TeeEn">
    <nd ref="49408702"/>
    <nd ref="7271153368"/>
    <nd ref="3701533990"/>
    <nd ref="49408704"/>
    <nd ref="3416384061"/>
    <nd ref="7271153373"/>
    <nd ref="7271153372"/>
    <tag k="highway" v="residential"/>
    <tag k="lanes" v="2"/>
    <tag k="name" v="2nd Street"/>
    <tag k="sidewalk:both" v="separate"/>
    <tag k="surface" v="asphalt"/>
    <tag k="tiger:cfcc" v="A41"/>
    <tag k="tiger:county" v="San Diego, CA"/>
    <tag k="tiger:name_base" v="2nd"/>
    <tag k="tiger:name_type" v="St"/>
  </way>
  <way id="1268969018" version="3" timestamp="2025-01-01T11:01:46Z" changeset="160855629" uid="22137982" user="TeeEn">
    <nd ref="49408692"/>
    <nd ref="7271153356"/>
    <nd ref="11786339300"/>
    <nd ref="7271153354"/>
    <nd ref="3695828359"/>
    <nd ref="49389854"/>
    <nd ref="3695828355"/>
    <nd ref="7271153361"/>
    <nd ref="49052347"/>
    <nd ref="11932757144"/>
    <nd ref="3615411598"/>
    <nd ref="7271153367"/>
    <nd ref="49408702"/>
    <tag k="highway" v="residential"/>
    <tag k="lanes" v="2"/>
    <tag k="name" v="2nd Street"/>
    <tag k="sidewalk:both" v="separate"/>
    <tag k="surface" v="asphalt"/>
    <tag k="tiger:cfcc" v="A41"/>
    <tag k="tiger:county" v="San Diego, CA"/>
    <tag k="tiger:name_base" v="2nd"/>
    <tag k="tiger:name_type" v="St"/>
  </way>
  <way id="1268969019" version="6" timestamp="2025-01-02T14:02:38Z" changeset="160903158" uid="22137982" user="TeeEn">
    <nd ref="7271153287"/>
    <nd ref="11889192129"/>
    <nd ref="5532658634"/>
    <nd ref="11889192157"/>
    <nd ref="11889192156"/>
    <nd ref="11786339302"/>
    <nd ref="49408692"/>
    <tag k="cycleway" v="shared_lane"/>
    <tag k="highway" v="residential"/>
    <tag k="lane_markings" v="no"/>
    <tag k="name" v="Elm Avenue"/>
    <tag k="sidewalk:both" v="separate"/>
    <tag k="surface" v="asphalt"/>
    <tag k="tiger:cfcc" v="A41"/>
    <tag k="tiger:county" v="San Diego, CA"/>
    <tag k="tiger:name_base" v="Elm"/>
    <tag k="tiger:name_type" v="Ave"/>
    <tag k="tiger:reviewed" v="no"/>
  </way>
  <way id="1268969029" version="2" timestamp="2024-07-31T23:39:34Z" changeset="154671347" uid="11609320" user="telcodude">
    <nd ref="11786339342"/>
    <nd ref="11786339343"/>
    <nd ref="11786339344"/>
    <nd ref="11786339345"/>
    <nd ref="11786339346"/>
    <nd ref="11786339347"/>
    <nd ref="11786339348"/>
    <nd ref="11786339349"/>
    <nd ref="11786339350"/>
    <nd ref="11786339351"/>
    <nd ref="11786339342"/>
    <tag k="addr:city" v="Imperial Beach"/>
    <tag k="addr:housenumber" v="204"/>
    <tag k="addr:postcode" v="91932"/>
    <tag k="addr:state" v="CA"/>
    <tag k="addr:street" v="Palm Avenue"/>
    <tag k="amenity" v="restaurant"/>
    <tag k="building" v="yes"/>
    <tag k="cuisine" v="pizza"/>
    <tag k="name" v="Pizza Port Brewing Company"/>
    <tag k="website" v="https://www.pizzaport.com/brewpubs/imperial-beach"/>
  </way>
  <way id="1268969031" version="8" timestamp="2025-01-09T09:38:39Z" changeset="161159196" uid="22137982" user="TeeEn">
    <nd ref="49125916"/>
    <nd ref="11786372849"/>
    <nd ref="3695828357"/>
    <nd ref="11932757153"/>
    <nd ref="49125917"/>
    <nd ref="7271153388"/>
    <nd ref="11889192018"/>
    <nd ref="49125918"/>
    <nd ref="11932757152"/>
    <nd ref="49052349"/>
    <nd ref="7271153384"/>
    <nd ref="3615410898"/>
    <nd ref="7271153383"/>
    <nd ref="49125920"/>
    <nd ref="11932757151"/>
    <nd ref="11889192356"/>
    <nd ref="11889192357"/>
    <nd ref="3701533989"/>
    <nd ref="11889192358"/>
    <nd ref="11932757150"/>
    <nd ref="49125921"/>
    <nd ref="7271153378"/>
    <nd ref="12097694727"/>
    <nd ref="3693949978"/>
    <nd ref="7271153377"/>
    <nd ref="11331901645"/>
    <tag k="highway" v="residential"/>
    <tag k="lanes" v="2"/>
    <tag k="name" v="3rd Street"/>
    <tag k="sidewalk:both" v="separate"/>
    <tag k="surface" v="asphalt"/>
    <tag k="tiger:cfcc" v="A41"/>
    <tag k="tiger:county" v="San Diego, CA"/>
    <tag k="tiger:name_base" v="3rd"/>
    <tag k="tiger:name_type" v="St"/>
  </way>
  <way id="1268969032" version="7" timestamp="2025-01-02T14:02:32Z" changeset="160903158" uid="22137982" user="TeeEn">
    <nd ref="49408692"/>
    <nd ref="11786339299"/>
    <nd ref="11889192193"/>
    <nd ref="11889192194"/>
    <nd ref="11889192192"/>
    <nd ref="11889192191"/>
    <nd ref="11786372852"/>
    <nd ref="49125916"/>
    <tag k="cycleway" v="shared_lane"/>
    <tag k="highway" v="residential"/>
    <tag k="lane_markings" v="no"/>
    <tag k="name" v="Elm Avenue"/>
    <tag k="sidewalk:both" v="separate"/>
    <tag k="surface" v="asphalt"/>
    <tag k="tiger:cfcc" v="A41"/>
    <tag k="tiger:county" v="San Diego, CA"/>
    <tag k="tiger:name_base" v="Elm"/>
    <tag k="tiger:name_type" v="Ave"/>
    <tag k="tiger:reviewed" v="no"/>
  </way>
  <way id="1268973649" version="6" timestamp="2025-01-02T14:01:16Z" changeset="160903158" uid="22137982" user="TeeEn">
    <nd ref="49125917"/>
    <nd ref="11794900990"/>
    <nd ref="7271153389"/>
    <nd ref="11889192014"/>
    <nd ref="11889192334"/>
    <nd ref="11889192019"/>
    <nd ref="11889192333"/>
    <nd ref="11889192020"/>
    <nd ref="11889192332"/>
    <nd ref="11889192021"/>
    <nd ref="11889192331"/>
    <nd ref="11889192022"/>
    <nd ref="11889192330"/>
    <nd ref="11889192329"/>
    <nd ref="11889192328"/>
    <nd ref="11889192327"/>
    <nd ref="11889192023"/>
    <nd ref="11889192326"/>
    <nd ref="11889192024"/>
    <nd ref="11889192325"/>
    <nd ref="11889192324"/>
    <nd ref="11889192323"/>
    <nd ref="11889192025"/>
    <nd ref="11889192322"/>
    <nd ref="7271153390"/>
    <nd ref="12466722895"/>
    <tag k="highway" v="residential"/>
    <tag k="lane_markings" v="no"/>
    <tag k="name" v="Evergreen Avenue"/>
    <tag k="sidewalk:both" v="separate"/>
    <tag k="surface" v="asphalt"/>
    <tag k="tiger:cfcc" v="A41"/>
    <tag k="tiger:county" v="San Diego, CA"/>
    <tag k="tiger:name_base" v="Evergreen"/>
    <tag k="tiger:name_type" v="Ave"/>
    <tag k="tiger:reviewed" v="no"/>
  </way>
  <way id="1270300492" version="2" timestamp="2024-04-09T00:47:52Z" changeset="149756619" uid="11609320" user="telcodude">
    <nd ref="11794895348"/>
    <nd ref="11794895349"/>
    <nd ref="11794895350"/>
    <nd ref="11794895351"/>
    <nd ref="11794895352"/>
    <nd ref="11794895353"/>
    <nd ref="11794895348"/>
    <tag k="addr:city" v="Imperial Beach"/>
    <tag k="addr:housenumber" v="311"/>
    <tag k="addr:postcode" v="91932"/>
    <tag k="addr:state" v="CA"/>
    <tag k="addr:street" v="Evergreen Avenue"/>
    <tag k="building" v="house"/>
    <tag k="source" v="microsoft/BuildingFootprints"/>
  </way>
  <way id="1270300493" version="2" timestamp="2024-04-09T00:47:52Z" changeset="149756619" uid="11609320" user="telcodude">
    <nd ref="11794895354"/>
    <nd ref="11794895355"/>
    <nd ref="11794895356"/>
    <nd ref="11794895357"/>
    <nd ref="11794895358"/>
    <nd ref="11794895359"/>
    <nd ref="11794895360"/>
    <nd ref="11794895361"/>
    <nd ref="11794895362"/>
    <nd ref="11794895363"/>
    <nd ref="11794895354"/>
    <tag k="addr:city" v="Imperial Beach"/>
    <tag k="addr:housenumber" v="323"/>
    <tag k="addr:postcode" v="91932"/>
    <tag k="addr:state" v="CA"/>
    <tag k="addr:street" v="Evergreen Avenue"/>
    <tag k="building" v="house"/>
    <tag k="source" v="microsoft/BuildingFootprints"/>
  </way>
  <way id="1270300494" version="2" timestamp="2024-04-09T00:47:52Z" changeset="149756619" uid="11609320" user="telcodude">
    <nd ref="11794895364"/>
    <nd ref="11794895365"/>
    <nd ref="11794895366"/>
    <nd ref="11794895367"/>
    <nd ref="11794895368"/>
    <nd ref="11794895369"/>
    <nd ref="11794895364"/>
    <tag k="addr:city" v="Imperial Beach"/>
    <tag k="addr:housenumber" v="331"/>
    <tag k="addr:postcode" v="91932"/>
    <tag k="addr:state" v="CA"/>
    <tag k="addr:street" v="Evergreen Avenue"/>
    <tag k="building" v="house"/>
    <tag k="source" v="microsoft/BuildingFootprints"/>
  </way>
  <way id="1270300495" version="2" timestamp="2024-04-09T00:47:52Z" changeset="149756619" uid="11609320" user="telcodude">
    <nd ref="11794895370"/>
    <nd ref="11794895371"/>
    <nd ref="11794895372"/>
    <nd ref="11794895373"/>
    <nd ref="11794895374"/>
    <nd ref="11794895375"/>
    <nd ref="11794895370"/>
    <tag k="addr:city" v="Imperial Beach"/>
    <tag k="addr:housenumber" v="337"/>
    <tag k="addr:postcode" v="91932"/>
    <tag k="addr:state" v="CA"/>
    <tag k="addr:street" v="Evergreen Avenue"/>
    <tag k="building" v="house"/>
    <tag k="source" v="microsoft/BuildingFootprints"/>
  </way>
  <way id="1270300496" version="2" timestamp="2024-04-09T00:47:52Z" changeset="149756619" uid="11609320" user="telcodude">
    <nd ref="11794895376"/>
    <nd ref="11794895377"/>
    <nd ref="11794895378"/>
    <nd ref="11794895379"/>
    <nd ref="11794895380"/>
    <nd ref="11794895381"/>
    <nd ref="11794895376"/>
    <tag k="addr:city" v="Imperial Beach"/>
    <tag k="addr:housenumber" v="347"/>
    <tag k="addr:postcode" v="91932"/>
    <tag k="addr:state" v="CA"/>
    <tag k="addr:street" v="Evergreen Avenue"/>
    <tag k="building" v="house"/>
    <tag k="source" v="microsoft/BuildingFootprints"/>
  </way>
  <way id="1270300497" version="2" timestamp="2024-04-09T00:47:52Z" changeset="149756619" uid="11609320" user="telcodude">
    <nd ref="11794895382"/>
    <nd ref="11794895383"/>
    <nd ref="11794895384"/>
    <nd ref="11794895385"/>
    <nd ref="11794895382"/>
    <tag k="addr:city" v="Imperial Beach"/>
    <tag k="addr:housenumber" v="355"/>
    <tag k="addr:postcode" v="91932"/>
    <tag k="addr:state" v="CA"/>
    <tag k="addr:street" v="Evergreen Avenue"/>
    <tag k="building" v="house"/>
    <tag k="source" v="microsoft/BuildingFootprints"/>
  </way>
  <way id="1270300498" version="2" timestamp="2024-04-09T00:47:52Z" changeset="149756619" uid="11609320" user="telcodude">
    <nd ref="11794895386"/>
    <nd ref="11794895387"/>
    <nd ref="11794895388"/>
    <nd ref="11794895389"/>
    <nd ref="11794895386"/>
    <tag k="addr:city" v="Imperial Beach"/>
    <tag k="addr:housenumber" v="363"/>
    <tag k="addr:postcode" v="91932"/>
    <tag k="addr:state" v="CA"/>
    <tag k="addr:street" v="Evergreen Avenue"/>
    <tag k="building" v="house"/>
    <tag k="source" v="microsoft/BuildingFootprints"/>
  </way>
  <way id="1270300499" version="2" timestamp="2024-04-09T00:47:52Z" changeset="149756619" uid="11609320" user="telcodude">
    <nd ref="11794895390"/>
    <nd ref="11794895391"/>
    <nd ref="11794895392"/>
    <nd ref="11794895393"/>
    <nd ref="11794895394"/>
    <nd ref="11794895395"/>
    <nd ref="11794895390"/>
    <tag k="addr:city" v="Imperial Beach"/>
    <tag k="addr:housenumber" v="371"/>
    <tag k="addr:postcode" v="91932"/>
    <tag k="addr:state" v="CA"/>
    <tag k="addr:street" v="Evergreen Avenue"/>
    <tag k="building" v="house"/>
    <tag k="source" v="microsoft/BuildingFootprints"/>
  </way>
  <way id="1270300500" version="2" timestamp="2024-04-09T00:47:52Z" changeset="149756619" uid="11609320" user="telcodude">
    <nd ref="11794895396"/>
    <nd ref="11794895397"/>
    <nd ref="11794895398"/>
    <nd ref="11794895399"/>
    <nd ref="11794895396"/>
    <tag k="addr:city" v="Imperial Beach"/>
    <tag k="addr:housenumber" v="379"/>
    <tag k="addr:postcode" v="91932"/>
    <tag k="addr:state" v="CA"/>
    <tag k="addr:street" v="Evergreen Avenue"/>
    <tag k="building" v="house"/>
    <tag k="source" v="microsoft/BuildingFootprints"/>
  </way>
  <way id="1270300501" version="2" timestamp="2024-04-09T00:47:52Z" changeset="149756619" uid="11609320" user="telcodude">
    <nd ref="11794895400"/>
    <nd ref="11794895401"/>
    <nd ref="11794895402"/>
    <nd ref="11794895403"/>
    <nd ref="11794895404"/>
    <nd ref="11794895405"/>
    <nd ref="11794895406"/>
    <nd ref="11794895407"/>
    <nd ref="11794895400"/>
    <tag k="addr:city" v="Imperial Beach"/>
    <tag k="addr:housenumber" v="387"/>
    <tag k="addr:postcode" v="91932"/>
    <tag k="addr:state" v="CA"/>
    <tag k="addr:street" v="Evergreen Avenue"/>
    <tag k="building" v="house"/>
    <tag k="source" v="microsoft/BuildingFootprints"/>
  </way>
  <way id="1270300502" version="2" timestamp="2024-11-01T08:47:56Z" changeset="158609153" uid="11609320" user="telcodude">
    <nd ref="11794895408"/>
    <nd ref="11794895409"/>
    <nd ref="11794895410"/>
    <nd ref="11794895411"/>
    <nd ref="11794895408"/>
    <tag k="addr:city" v="Imperial Beach"/>
    <tag k="addr:housenumber" v="372"/>
    <tag k="addr:postcode" v="91932"/>
    <tag k="addr:state" v="CA"/>
    <tag k="addr:street" v="Elkwood Avenue"/>
    <tag k="building" v="yes"/>
    <tag k="source" v="microsoft/BuildingFootprints"/>
  </way>
  <way id="1270300503" version="2" timestamp="2024-11-01T08:47:56Z" changeset="158609153" uid="11609320" user="telcodude">
    <nd ref="11794895412"/>
    <nd ref="11794895413"/>
    <nd ref="11794895414"/>
    <nd ref="11794895415"/>
    <nd ref="11794895412"/>
    <tag k="addr:city" v="Imperial Beach"/>
    <tag k="addr:housenumber" v="356"/>
    <tag k="addr:postcode" v="91932"/>
    <tag k="addr:state" v="CA"/>
    <tag k="addr:street" v="Elkwood Avenue"/>
    <tag k="building" v="yes"/>
    <tag k="source" v="microsoft/BuildingFootprints"/>
  </way>
  <way id="1270300504" version="2" timestamp="2024-11-01T08:47:56Z" changeset="158609153" uid="11609320" user="telcodude">
    <nd ref="11794895416"/>
    <nd ref="11794895417"/>
    <nd ref="11794895418"/>
    <nd ref="11794895419"/>
    <nd ref="11794895416"/>
    <tag k="addr:city" v="Imperial Beach"/>
    <tag k="addr:housenumber" v="340"/>
    <tag k="addr:postcode" v="91932"/>
    <tag k="addr:state" v="CA"/>
    <tag k="addr:street" v="Elkwood Avenue"/>
    <tag k="building" v="yes"/>
    <tag k="source" v="microsoft/BuildingFootprints"/>
  </way>
  <way id="1270300505" version="2" timestamp="2024-11-01T08:47:56Z" changeset="158609153" uid="11609320" user="telcodude">
    <nd ref="11794895420"/>
    <nd ref="11794895421"/>
    <nd ref="11794895422"/>
    <nd ref="11794895423"/>
    <nd ref="11794895424"/>
    <nd ref="11794895425"/>
    <nd ref="11794895426"/>
    <nd ref="11794895427"/>
    <nd ref="11794895420"/>
    <tag k="addr:city" v="Imperial Beach"/>
    <tag k="addr:housenumber" v="332"/>
    <tag k="addr:postcode" v="91932"/>
    <tag k="addr:state" v="CA"/>
    <tag k="addr:street" v="Elkwood Avenue"/>
    <tag k="building" v="yes"/>
    <tag k="source" v="microsoft/BuildingFootprints"/>
  </way>
  <way id="1270300506" version="2" timestamp="2024-11-01T08:47:56Z" changeset="158609153" uid="11609320" user="telcodude">
    <nd ref="11794895428"/>
    <nd ref="11794895429"/>
    <nd ref="11794895430"/>
    <nd ref="11794895431"/>
    <nd ref="11794895432"/>
    <nd ref="11794895433"/>
    <nd ref="11794895428"/>
    <tag k="addr:city" v="Imperial Beach"/>
    <tag k="addr:housenumber" v="316"/>
    <tag k="addr:postcode" v="91932"/>
    <tag k="addr:state" v="CA"/>
    <tag k="addr:street" v="Elkwood Avenue"/>
    <tag k="building" v="yes"/>
    <tag k="source" v="microsoft/BuildingFootprints"/>
  </way>
  <way id="1270300507" version="2" timestamp="2024-10-15T21:46:30Z" changeset="157939888" uid="11609320" user="telcodude">
    <nd ref="11794895434"/>
    <nd ref="11794895435"/>
    <nd ref="11794895436"/>
    <nd ref="11794895437"/>
    <nd ref="11794895438"/>
    <nd ref="11794895439"/>
    <nd ref="11794895440"/>
    <nd ref="11794895441"/>
    <nd ref="11794895434"/>
    <tag k="addr:city" v="Imperial Beach"/>
    <tag k="addr:housenumber" v="317"/>
    <tag k="addr:postcode" v="91932"/>
    <tag k="addr:state" v="CA"/>
    <tag k="addr:street" v="Elkwood Avenue"/>
    <tag k="building" v="yes"/>
    <tag k="source" v="microsoft/BuildingFootprints"/>
  </way>
  <way id="1270300508" version="2" timestamp="2024-10-15T21:46:30Z" changeset="157939888" uid="11609320" user="telcodude">
    <nd ref="11794895442"/>
    <nd ref="11794895443"/>
    <nd ref="11794895444"/>
    <nd ref="11794895445"/>
    <nd ref="11794895446"/>
    <nd ref="11794895447"/>
    <nd ref="11794895442"/>
    <tag k="addr:city" v="Imperial Beach"/>
    <tag k="addr:housenumber" v="333"/>
    <tag k="addr:postcode" v="91932"/>
    <tag k="addr:state" v="CA"/>
    <tag k="addr:street" v="Elkwood Avenue"/>
    <tag k="building" v="yes"/>
    <tag k="source" v="microsoft/BuildingFootprints"/>
  </way>
  <way id="1270300509" version="2" timestamp="2024-10-15T21:46:30Z" changeset="157939888" uid="11609320" user="telcodude">
    <nd ref="11794895448"/>
    <nd ref="11794895449"/>
    <nd ref="11794895450"/>
    <nd ref="11794895451"/>
    <nd ref="11794895452"/>
    <nd ref="11794895453"/>
    <nd ref="11794895448"/>
    <tag k="addr:city" v="Imperial Beach"/>
    <tag k="addr:housenumber" v="341"/>
    <tag k="addr:postcode" v="91932"/>
    <tag k="addr:state" v="CA"/>
    <tag k="addr:street" v="Elkwood Avenue"/>
    <tag k="building" v="yes"/>
    <tag k="source" v="microsoft/BuildingFootprints"/>
  </way>
  <way id="1270300510" version="2" timestamp="2024-10-15T21:46:30Z" changeset="157939888" uid="11609320" user="telcodude">
    <nd ref="11794895454"/>
    <nd ref="11794895455"/>
    <nd ref="11794895456"/>
    <nd ref="11794895457"/>
    <nd ref="11794895458"/>
    <nd ref="11794895459"/>
    <nd ref="11794895460"/>
    <nd ref="11794895461"/>
    <nd ref="11794895462"/>
    <nd ref="11794895463"/>
    <nd ref="11794895464"/>
    <nd ref="11794895465"/>
    <nd ref="11794895454"/>
    <tag k="addr:city" v="Imperial Beach"/>
    <tag k="addr:housenumber" v="349"/>
    <tag k="addr:postcode" v="91932"/>
    <tag k="addr:state" v="CA"/>
    <tag k="addr:street" v="Elkwood Avenue"/>
    <tag k="building" v="yes"/>
    <tag k="source" v="microsoft/BuildingFootprints"/>
  </way>
  <way id="1270300511" version="2" timestamp="2024-10-15T21:46:30Z" changeset="157939888" uid="11609320" user="telcodude">
    <nd ref="11794895466"/>
    <nd ref="11794895467"/>
    <nd ref="11794895468"/>
    <nd ref="11794895469"/>
    <nd ref="11794895470"/>
    <nd ref="11794895471"/>
    <nd ref="11794895466"/>
    <tag k="addr:city" v="Imperial Beach"/>
    <tag k="addr:housenumber" v="357"/>
    <tag k="addr:postcode" v="91932"/>
    <tag k="addr:state" v="CA"/>
    <tag k="addr:street" v="Elkwood Avenue"/>
    <tag k="building" v="yes"/>
    <tag k="source" v="microsoft/BuildingFootprints"/>
  </way>
  <way id="1270300512" version="2" timestamp="2024-10-15T21:46:30Z" changeset="157939888" uid="11609320" user="telcodude">
    <nd ref="11794895472"/>
    <nd ref="11794895473"/>
    <nd ref="11794895474"/>
    <nd ref="11794895475"/>
    <nd ref="11794895476"/>
    <nd ref="11794895477"/>
    <nd ref="11794895472"/>
    <tag k="addr:city" v="Imperial Beach"/>
    <tag k="addr:housenumber" v="365"/>
    <tag k="addr:postcode" v="91932"/>
    <tag k="addr:state" v="CA"/>
    <tag k="addr:street" v="Elkwood Avenue"/>
    <tag k="building" v="yes"/>
    <tag k="source" v="microsoft/BuildingFootprints"/>
  </way>
  <way id="1270300513" version="2" timestamp="2024-10-15T21:46:30Z" changeset="157939888" uid="11609320" user="telcodude">
    <nd ref="11794895478"/>
    <nd ref="11794895479"/>
    <nd ref="11794895480"/>
    <nd ref="11794895481"/>
    <nd ref="11794895482"/>
    <nd ref="11794895483"/>
    <nd ref="11794895478"/>
    <tag k="addr:city" v="Imperial Beach"/>
    <tag k="addr:housenumber" v="314"/>
    <tag k="addr:postcode" v="91932"/>
    <tag k="addr:state" v="CA"/>
    <tag k="addr:street" v="Ebony Avenue"/>
    <tag k="building" v="yes"/>
    <tag k="source" v="microsoft/BuildingFootprints"/>
  </way>
  <way id="1270300514" version="2" timestamp="2024-10-15T21:46:30Z" changeset="157939888" uid="11609320" user="telcodude">
    <nd ref="11794895484"/>
    <nd ref="11794895485"/>
    <nd ref="11794895486"/>
    <nd ref="11794895487"/>
    <nd ref="11794895488"/>
    <nd ref="11794895489"/>
    <nd ref="11794895484"/>
    <tag k="addr:city" v="Imperial Beach"/>
    <tag k="addr:housenumber" v="330"/>
    <tag k="addr:postcode" v="91932"/>
    <tag k="addr:state" v="CA"/>
    <tag k="addr:street" v="Ebony Avenue"/>
    <tag k="building" v="yes"/>
    <tag k="source" v="microsoft/BuildingFootprints"/>
  </way>
  <way id="1270301458" version="2" timestamp="2024-10-15T21:46:30Z" changeset="157939888" uid="11609320" user="telcodude">
    <nd ref="11794901057"/>
    <nd ref="11794901058"/>
    <nd ref="11794901059"/>
    <nd ref="11794901060"/>
    <nd ref="11794901061"/>
    <nd ref="11794901062"/>
    <nd ref="11794901063"/>
    <nd ref="11794901064"/>
    <nd ref="11794901065"/>
    <nd ref="11794901066"/>
    <nd ref="11794901067"/>
    <nd ref="11794901068"/>
    <nd ref="11794901057"/>
    <tag k="addr:city" v="Imperial Beach"/>
    <tag k="addr:housenumber" v="381"/>
    <tag k="addr:postcode" v="91932"/>
    <tag k="addr:state" v="CA"/>
    <tag k="addr:street" v="Elkwood Avenue"/>
    <tag k="building" v="yes"/>
    <tag k="source" v="microsoft/BuildingFootprints"/>
  </way>
  <way id="1270301459" version="2" timestamp="2024-10-15T21:46:30Z" changeset="157939888" uid="11609320" user="telcodude">
    <nd ref="11794901069"/>
    <nd ref="11794901070"/>
    <nd ref="11794901071"/>
    <nd ref="11794901072"/>
    <nd ref="11794901073"/>
    <nd ref="11794901074"/>
    <nd ref="11794901075"/>
    <nd ref="11794901076"/>
    <nd ref="11794901069"/>
    <tag k="addr:city" v="Imperial Beach"/>
    <tag k="addr:housenumber" v="386"/>
    <tag k="addr:postcode" v="91932"/>
    <tag k="addr:state" v="CA"/>
    <tag k="addr:street" v="Ebony Avenue"/>
    <tag k="building" v="yes"/>
    <tag k="source" v="microsoft/BuildingFootprints"/>
  </way>
  <way id="1271036663" version="1" timestamp="2024-04-09T01:06:11Z" changeset="149756836" uid="11609320" user="telcodude">
    <nd ref="11803559695"/>
    <nd ref="11803559696"/>
    <nd ref="11803559697"/>
    <nd ref="11803559698"/>
    <nd ref="11803559699"/>
    <nd ref="11803559700"/>
    <nd ref="11803559695"/>
    <tag k="addr:city" v="Imperial Beach"/>
    <tag k="addr:housenumber" v="334"/>
    <tag k="addr:postcode" v="91932"/>
    <tag k="addr:state" v="CA"/>
    <tag k="addr:street" v="Elder Avenue"/>
    <tag k="building" v="house"/>
  </way>
  <way id="1271365887" version="4" timestamp="2025-01-02T13:51:39Z" changeset="160903158" uid="22137982" user="TeeEn">
    <nd ref="3625816341"/>
    <nd ref="7271153289"/>
    <nd ref="7271153288"/>
    <tag k="cycleway" v="shared_lane"/>
    <tag k="highway" v="residential"/>
    <tag k="lane_markings" v="no"/>
    <tag k="name" v="Elm Avenue"/>
    <tag k="sidewalk:both" v="separate"/>
    <tag k="surface" v="asphalt"/>
    <tag k="tiger:cfcc" v="A41"/>
    <tag k="tiger:county" v="San Diego, CA"/>
    <tag k="tiger:name_base" v="Elm"/>
    <tag k="tiger:name_type" v="Ave"/>
    <tag k="tiger:reviewed" v="no"/>
  </way>
  <way id="1271367673" version="4" timestamp="2025-01-02T14:05:06Z" changeset="160903458" uid="22137982" user="TeeEn">
    <nd ref="3625816342"/>
    <nd ref="7271153295"/>
    <nd ref="7271153290"/>
    <nd ref="11785080766"/>
    <tag k="highway" v="residential"/>
    <tag k="lane_markings" v="no"/>
    <tag k="name" v="Date Avenue"/>
    <tag k="sidewalk:both" v="separate"/>
    <tag k="surface" v="asphalt"/>
    <tag k="tiger:cfcc" v="A41"/>
    <tag k="tiger:county" v="San Diego, CA"/>
    <tag k="tiger:name_base" v="Date"/>
    <tag k="tiger:name_type" v="Ave"/>
    <tag k="tiger:reviewed" v="no"/>
  </way>
  <way id="1271657026" version="5" timestamp="2025-01-02T13:33:18Z" changeset="160903158" uid="22137982" user="TeeEn">
    <nd ref="49105663"/>
    <nd ref="7271153245"/>
    <nd ref="7271153246"/>
    <nd ref="49105664"/>
    <tag k="highway" v="residential"/>
    <tag k="lane_markings" v="no"/>
    <tag k="name" v="Carnation Avenue"/>
    <tag k="surface" v="asphalt"/>
    <tag k="tiger:cfcc" v="A41"/>
    <tag k="tiger:county" v="San Diego, CA"/>
    <tag k="tiger:name_base" v="Carnation"/>
    <tag k="tiger:name_type" v="Ave"/>
    <tag k="tiger:reviewed" v="no"/>
  </way>
  <way id="1272172254" version="1" timestamp="2024-04-13T09:37:35Z" changeset="149943060" uid="11609320" user="telcodude">
    <nd ref="11813443986"/>
    <nd ref="11813443987"/>
    <nd ref="11813443988"/>
    <nd ref="11813443989"/>
    <nd ref="11813443990"/>
    <nd ref="11813443991"/>
    <nd ref="11813443992"/>
    <nd ref="11813443993"/>
    <nd ref="11813443994"/>
    <nd ref="11813443995"/>
    <nd ref="11813443996"/>
    <nd ref="11813443986"/>
    <tag k="addr:city" v="Imperial Beach"/>
    <tag k="addr:housenumber" v="950"/>
    <tag k="addr:postcode" v="91932"/>
    <tag k="addr:state" v="CA"/>
    <tag k="addr:street" v="Ocean Lane"/>
    <tag k="building" v="yes"/>
    <tag k="government" v="public_safety"/>
    <tag k="name" v="City of Imperial Beach Marine Safety"/>
    <tag k="office" v="government"/>
    <tag k="phone" v="+1-619-423-8328"/>
    <tag k="website" v="https://www.imperialbeachca.gov/158/Marine-Safety"/>
  </way>
  <way id="1281884382" version="1" timestamp="2024-05-11T04:17:18Z" changeset="151170257" uid="11609320" user="telcodude">
    <nd ref="11896275778"/>
    <nd ref="11896275779"/>
    <nd ref="11896275780"/>
    <nd ref="11896275781"/>
    <nd ref="11896275782"/>
    <nd ref="11896275783"/>
    <nd ref="11896275784"/>
    <nd ref="11896275785"/>
    <nd ref="11896275778"/>
    <tag k="addr:city" v="Imperial Beach"/>
    <tag k="addr:housenumber" v="757"/>
    <tag k="addr:postcode" v="91932"/>
    <tag k="addr:state" v="CA"/>
    <tag k="addr:street" v="Seacoast Drive"/>
    <tag k="amenity" v="restaurant"/>
    <tag k="building" v="yes"/>
    <tag k="cuisine" v="thai"/>
    <tag k="name" v="Aroma Thai Restaurant"/>
    <tag k="not:brand:wikidata" v="Q2909872"/>
    <tag k="website" v="https://www.aromathaiofib.com"/>
  </way>
  <way id="1286538076" version="4" timestamp="2025-01-02T13:11:59Z" changeset="160903158" uid="22137982" user="TeeEn">
    <nd ref="49018768"/>
    <nd ref="49398351"/>
    <nd ref="7271153307"/>
    <nd ref="7271153306"/>
    <tag k="highway" v="residential"/>
    <tag k="lane_markings" v="no"/>
    <tag k="name" v="Dahlia Avenue"/>
    <tag k="sidewalk:both" v="separate"/>
    <tag k="surface" v="asphalt"/>
    <tag k="tiger:cfcc" v="A41"/>
    <tag k="tiger:county" v="San Diego, CA"/>
    <tag k="tiger:name_base" v="Dahlia"/>
    <tag k="tiger:name_type" v="Ave"/>
    <tag k="tiger:reviewed" v="no"/>
  </way>
  <way id="1288486406" version="2" timestamp="2024-05-31T22:36:10Z" changeset="152100751" uid="11609320" user="telcodude">
    <nd ref="11948792395"/>
    <nd ref="11948792396"/>
    <nd ref="11948792397"/>
    <nd ref="11948792398"/>
    <nd ref="11948792395"/>
    <tag k="addr:city" v="Imperial Beach"/>
    <tag k="addr:housenumber" v="1037"/>
    <tag k="addr:postcode" v="91932"/>
    <tag k="addr:state" v="CA"/>
    <tag k="addr:street" v="Seacoast Drive"/>
    <tag k="building" v="apartments"/>
    <tag k="source" v="microsoft/BuildingFootprints"/>
  </way>
  <way id="1288489301" version="2" timestamp="2024-08-06T07:19:24Z" changeset="154879196" uid="11609320" user="telcodude">
    <nd ref="11948793595"/>
    <nd ref="11948793596"/>
    <nd ref="11948793597"/>
    <nd ref="11948793598"/>
    <nd ref="11948793595"/>
    <tag k="addr:city" v="Imperial Beach"/>
    <tag k="addr:housenumber" v="717"/>
    <tag k="addr:postcode" v="91932"/>
    <tag k="addr:state" v="CA"/>
    <tag k="addr:street" v="Seacoast Drive"/>
    <tag k="amenity" v="restaurant"/>
    <tag k="building" v="yes"/>
    <tag k="cuisine" v="pizza"/>
    <tag k="name" v="Pizzeria Luigi"/>
    <tag k="opening_hours" v="Mo-Su 11:00-23:00"/>
    <tag k="phone" v="+1-619-271-3477"/>
    <tag k="source" v="microsoft/BuildingFootprints"/>
    <tag k="website" v="https://pizzerialuigi.com"/>
  </way>
  <way id="1288490359" version="2" timestamp="2024-10-15T21:46:30Z" changeset="157939888" uid="11609320" user="telcodude">
    <nd ref="11948835276"/>
    <nd ref="11948835277"/>
    <nd ref="11948835278"/>
    <nd ref="11948835279"/>
    <nd ref="11948835280"/>
    <nd ref="11948835281"/>
    <nd ref="11948835276"/>
    <tag k="addr:city" v="Imperial Beach"/>
    <tag k="addr:housenumber" v="338"/>
    <tag k="addr:postcode" v="91932"/>
    <tag k="addr:state" v="CA"/>
    <tag k="addr:street" v="Ebony Avenue"/>
    <tag k="building" v="yes"/>
    <tag k="source" v="microsoft/BuildingFootprints"/>
  </way>
  <way id="1288490360" version="2" timestamp="2024-10-15T21:46:30Z" changeset="157939888" uid="11609320" user="telcodude">
    <nd ref="11948835282"/>
    <nd ref="11948835283"/>
    <nd ref="11948835284"/>
    <nd ref="11948835285"/>
    <nd ref="11948835282"/>
    <tag k="addr:city" v="Imperial Beach"/>
    <tag k="addr:housenumber" v="322"/>
    <tag k="addr:postcode" v="91932"/>
    <tag k="addr:state" v="CA"/>
    <tag k="addr:street" v="Ebony Avenue"/>
    <tag k="building" v="yes"/>
    <tag k="source" v="microsoft/BuildingFootprints"/>
  </way>
  <way id="1288490361" version="2" timestamp="2024-10-15T21:46:30Z" changeset="157939888" uid="11609320" user="telcodude">
    <nd ref="11948835286"/>
    <nd ref="11948835287"/>
    <nd ref="11948835288"/>
    <nd ref="11948835289"/>
    <nd ref="11948835290"/>
    <nd ref="11948835291"/>
    <nd ref="11948835286"/>
    <tag k="addr:city" v="Imperial Beach"/>
    <tag k="addr:housenumber" v="373"/>
    <tag k="addr:postcode" v="91932"/>
    <tag k="addr:state" v="CA"/>
    <tag k="addr:street" v="Elkwood Avenue"/>
    <tag k="building" v="yes"/>
    <tag k="source" v="microsoft/BuildingFootprints"/>
  </way>
  <way id="1288490362" version="2" timestamp="2024-10-15T21:46:30Z" changeset="157939888" uid="11609320" user="telcodude">
    <nd ref="11948835292"/>
    <nd ref="11948835293"/>
    <nd ref="11948835294"/>
    <nd ref="11948835295"/>
    <nd ref="11948835296"/>
    <nd ref="11948835297"/>
    <nd ref="11948835292"/>
    <tag k="addr:city" v="Imperial Beach"/>
    <tag k="addr:housenumber" v="325"/>
    <tag k="addr:postcode" v="91932"/>
    <tag k="addr:state" v="CA"/>
    <tag k="addr:street" v="Elkwood Avenue"/>
    <tag k="building" v="yes"/>
    <tag k="source" v="microsoft/BuildingFootprints"/>
  </way>
  <way id="1288490363" version="2" timestamp="2024-10-15T21:46:30Z" changeset="157939888" uid="11609320" user="telcodude">
    <nd ref="11948835298"/>
    <nd ref="11948835299"/>
    <nd ref="11948835300"/>
    <nd ref="11948835301"/>
    <nd ref="11948835298"/>
    <tag k="addr:city" v="Imperial Beach"/>
    <tag k="addr:housenumber" v="309"/>
    <tag k="addr:postcode" v="91932"/>
    <tag k="addr:state" v="CA"/>
    <tag k="addr:street" v="Elkwood Avenue"/>
    <tag k="building" v="yes"/>
    <tag k="source" v="microsoft/BuildingFootprints"/>
  </way>
  <way id="1288490364" version="2" timestamp="2024-11-01T08:47:56Z" changeset="158609153" uid="11609320" user="telcodude">
    <nd ref="11948835302"/>
    <nd ref="11948835303"/>
    <nd ref="11948835304"/>
    <nd ref="11948835305"/>
    <nd ref="11948835306"/>
    <nd ref="11948835307"/>
    <nd ref="11948835302"/>
    <tag k="addr:city" v="Imperial Beach"/>
    <tag k="addr:housenumber" v="308"/>
    <tag k="addr:postcode" v="91932"/>
    <tag k="addr:state" v="CA"/>
    <tag k="addr:street" v="Elkwood Avenue"/>
    <tag k="building" v="yes"/>
    <tag k="source" v="microsoft/BuildingFootprints"/>
  </way>
  <way id="1288490365" version="2" timestamp="2024-11-01T08:47:56Z" changeset="158609153" uid="11609320" user="telcodude">
    <nd ref="11948835308"/>
    <nd ref="11948835309"/>
    <nd ref="11948835310"/>
    <nd ref="11948835311"/>
    <nd ref="11948835308"/>
    <tag k="addr:city" v="Imperial Beach"/>
    <tag k="addr:housenumber" v="324"/>
    <tag k="addr:postcode" v="91932"/>
    <tag k="addr:state" v="CA"/>
    <tag k="addr:street" v="Elkwood Avenue"/>
    <tag k="building" v="yes"/>
    <tag k="source" v="microsoft/BuildingFootprints"/>
  </way>
  <way id="1288490366" version="2" timestamp="2024-11-01T08:47:56Z" changeset="158609153" uid="11609320" user="telcodude">
    <nd ref="11948835312"/>
    <nd ref="11948835313"/>
    <nd ref="11948835314"/>
    <nd ref="11948835315"/>
    <nd ref="11948835312"/>
    <tag k="addr:city" v="Imperial Beach"/>
    <tag k="addr:housenumber" v="348"/>
    <tag k="addr:postcode" v="91932"/>
    <tag k="addr:state" v="CA"/>
    <tag k="addr:street" v="Elkwood Avenue"/>
    <tag k="building" v="yes"/>
    <tag k="source" v="microsoft/BuildingFootprints"/>
  </way>
  <way id="1288490367" version="2" timestamp="2024-11-01T08:47:56Z" changeset="158609153" uid="11609320" user="telcodude">
    <nd ref="11948835316"/>
    <nd ref="11948835317"/>
    <nd ref="11948835318"/>
    <nd ref="11948835319"/>
    <nd ref="11948835320"/>
    <nd ref="11948835321"/>
    <nd ref="11948835322"/>
    <nd ref="11948835323"/>
    <nd ref="11948835316"/>
    <tag k="addr:city" v="Imperial Beach"/>
    <tag k="addr:housenumber" v="364"/>
    <tag k="addr:postcode" v="91932"/>
    <tag k="addr:state" v="CA"/>
    <tag k="addr:street" v="Elkwood Avenue"/>
    <tag k="building" v="yes"/>
    <tag k="source" v="microsoft/BuildingFootprints"/>
  </way>
  <way id="1288490368" version="2" timestamp="2024-11-01T08:47:56Z" changeset="158609153" uid="11609320" user="telcodude">
    <nd ref="11948835324"/>
    <nd ref="11948835325"/>
    <nd ref="11948835326"/>
    <nd ref="11948835327"/>
    <nd ref="11948835328"/>
    <nd ref="11948835329"/>
    <nd ref="11948835330"/>
    <nd ref="11948835331"/>
    <nd ref="11948835324"/>
    <tag k="addr:city" v="Imperial Beach"/>
    <tag k="addr:housenumber" v="968"/>
    <tag k="addr:postcode" v="91932"/>
    <tag k="addr:state" v="CA"/>
    <tag k="addr:street" v="4th Street"/>
    <tag k="building" v="yes"/>
    <tag k="source" v="microsoft/BuildingFootprints"/>
  </way>
  <way id="1288490369" version="2" timestamp="2024-11-01T08:47:56Z" changeset="158609153" uid="11609320" user="telcodude">
    <nd ref="11948835332"/>
    <nd ref="11948835333"/>
    <nd ref="11948835334"/>
    <nd ref="11948835335"/>
    <nd ref="11948835336"/>
    <nd ref="11948835337"/>
    <nd ref="11948835332"/>
    <tag k="addr:city" v="Imperial Beach"/>
    <tag k="addr:housenumber" v="373"/>
    <tag k="addr:postcode" v="91932"/>
    <tag k="addr:state" v="CA"/>
    <tag k="addr:street" v="Elder Avenue"/>
    <tag k="building" v="yes"/>
    <tag k="source" v="microsoft/BuildingFootprints"/>
  </way>
  <way id="1304933420" version="1" timestamp="2024-07-31T23:39:34Z" changeset="154671347" uid="11609320" user="telcodude">
    <nd ref="12086273889"/>
    <nd ref="12086273890"/>
    <nd ref="12086273891"/>
    <nd ref="12086273892"/>
    <nd ref="12086273893"/>
    <nd ref="12086273894"/>
    <nd ref="12086273895"/>
    <nd ref="12086273896"/>
    <nd ref="12086273889"/>
    <tag k="addr:city" v="Imperial Beach"/>
    <tag k="addr:housenumber" v="150"/>
    <tag k="addr:postcode" v="91932"/>
    <tag k="addr:state" v="CA"/>
    <tag k="addr:street" v="Palm Avenue"/>
    <tag k="building" v="yes"/>
    <tag k="shop" v="vacant"/>
    <tag k="source" v="https://www.imperialbeachnewsca.com/business/article_f7fe67aa-2ced-11ef-8f13-7f39a0f03195.html"/>
  </way>
  <way id="1304933421" version="1" timestamp="2024-07-31T23:39:34Z" changeset="154671347" uid="11609320" user="telcodude">
    <nd ref="12086273897"/>
    <nd ref="12086273898"/>
    <nd ref="12086273899"/>
    <nd ref="12086273900"/>
    <nd ref="12086273901"/>
    <nd ref="12086273902"/>
    <nd ref="12086273903"/>
    <nd ref="12086273904"/>
    <nd ref="12086273905"/>
    <nd ref="12086273897"/>
    <tag k="addr:city" v="Imperial Beach"/>
    <tag k="addr:housenumber" v="170"/>
    <tag k="addr:postcode" v="91932"/>
    <tag k="addr:state" v="CA"/>
    <tag k="addr:street" v="Palm Avenue"/>
    <tag k="building" v="yes"/>
  </way>
  <way id="1305847424" version="1" timestamp="2024-08-06T02:11:38Z" changeset="154873442" uid="11609320" user="telcodude">
    <nd ref="12094427465"/>
    <nd ref="11948793662"/>
    <nd ref="12094427466"/>
    <nd ref="12094427467"/>
    <nd ref="12094427468"/>
    <nd ref="12094427469"/>
    <nd ref="12094427470"/>
    <nd ref="12094427465"/>
    <tag k="addr:city" v="Imperial Beach"/>
    <tag k="addr:housenumber" v="185"/>
    <tag k="addr:postcode" v="91932"/>
    <tag k="addr:state" v="CA"/>
    <tag k="addr:street" v="Palm Avenue"/>
    <tag k="building" v="yes"/>
    <tag k="name" v="Leon Market &amp; Liquor"/>
    <tag k="shop" v="alcohol"/>
  </way>
  <way id="1305851418" version="1" timestamp="2024-08-06T02:18:13Z" changeset="154873520" uid="11609320" user="telcodude">
    <nd ref="12094406807"/>
    <nd ref="12094406808"/>
    <nd ref="12094406809"/>
    <nd ref="12094406810"/>
    <nd ref="12094406811"/>
    <nd ref="12094406812"/>
    <nd ref="12094406807"/>
    <tag k="addr:city" v="Imperial Beach"/>
    <tag k="addr:housenumber" v="200"/>
    <tag k="addr:postcode" v="91932"/>
    <tag k="addr:state" v="CA"/>
    <tag k="addr:street" v="Palm Avenue"/>
    <tag k="building" v="yes"/>
    <tag k="name" v="Woody's Auto Care"/>
    <tag k="shop" v="car_repair"/>
    <tag k="website" v="https://www.woodysautocareib.com"/>
  </way>
  <way id="1305851964" version="1" timestamp="2024-08-06T02:22:10Z" changeset="154873554" uid="11609320" user="telcodude">
    <nd ref="12094432675"/>
    <nd ref="12094432676"/>
    <nd ref="12094432677"/>
    <nd ref="12094432678"/>
    <nd ref="12094432679"/>
    <nd ref="12094432680"/>
    <nd ref="12094432675"/>
    <tag k="addr:city" v="Imperial Beach"/>
    <tag k="addr:housenumber" v="134"/>
    <tag k="addr:postcode" v="91932"/>
    <tag k="addr:state" v="CA"/>
    <tag k="addr:street" v="Palm Avenue"/>
    <tag k="building" v="yes"/>
    <tag k="name" v="Colwell Realty Sales &amp; Property Management"/>
    <tag k="office" v="estate_agent"/>
    <tag k="website" v="https://www.colwellproperties.com"/>
  </way>
  <way id="1347747941" version="3" timestamp="2025-01-09T10:00:33Z" changeset="161159196" uid="22137982" user="TeeEn">
    <nd ref="7939497105"/>
    <nd ref="7271153416"/>
    <tag k="highway" v="residential"/>
    <tag k="lane_markings" v="no"/>
    <tag k="maxspeed" v="25 mph"/>
    <tag k="name" v="4th Street"/>
    <tag k="parking:both" v="no"/>
    <tag k="surface" v="asphalt"/>
    <tag k="tiger:cfcc" v="A41"/>
    <tag k="tiger:county" v="San Diego, CA"/>
    <tag k="tiger:name_base" v="4th"/>
    <tag k="tiger:name_type" v="St"/>
    <tag k="tiger:reviewed" v="no"/>
  </way>
  <way id="1347747951" version="3" timestamp="2025-01-02T14:01:40Z" changeset="160903158" uid="22137982" user="TeeEn">
    <nd ref="7271153416"/>
    <nd ref="7271153413"/>
    <nd ref="11889191969"/>
    <nd ref="11889191970"/>
    <nd ref="11889191971"/>
    <nd ref="12466690272"/>
    <tag k="highway" v="residential"/>
    <tag k="lane_markings" v="no"/>
    <tag k="maxspeed" v="25 mph"/>
    <tag k="name" v="4th Street"/>
    <tag k="sidewalk:both" v="separate"/>
    <tag k="surface" v="asphalt"/>
    <tag k="tiger:cfcc" v="A41"/>
    <tag k="tiger:county" v="San Diego, CA"/>
    <tag k="tiger:name_base" v="4th"/>
    <tag k="tiger:name_type" v="St"/>
    <tag k="tiger:reviewed" v="no"/>
  </way>
  <way id="1347747953" version="2" timestamp="2025-01-02T14:01:48Z" changeset="160903158" uid="22137982" user="TeeEn">
    <nd ref="12466690272"/>
    <nd ref="49176131"/>
    <nd ref="7271153412"/>
    <tag k="highway" v="residential"/>
    <tag k="lane_markings" v="no"/>
    <tag k="maxspeed" v="25 mph"/>
    <tag k="name" v="4th Street"/>
    <tag k="surface" v="asphalt"/>
    <tag k="tiger:cfcc" v="A41"/>
    <tag k="tiger:county" v="San Diego, CA"/>
    <tag k="tiger:name_base" v="4th"/>
    <tag k="tiger:name_type" v="St"/>
    <tag k="tiger:reviewed" v="no"/>
  </way>
  <way id="1347747969" version="3" timestamp="2025-01-09T09:38:13Z" changeset="161159196" uid="22137982" user="TeeEn">
    <nd ref="11331901647"/>
    <nd ref="49119341"/>
    <tag k="highway" v="residential"/>
    <tag k="lane_markings" v="no"/>
    <tag k="maxspeed" v="25 mph"/>
    <tag k="name" v="4th Street"/>
    <tag k="parking:both" v="no"/>
    <tag k="surface" v="asphalt"/>
    <tag k="tiger:cfcc" v="A41"/>
    <tag k="tiger:county" v="San Diego, CA"/>
    <tag k="tiger:name_base" v="4th"/>
    <tag k="tiger:name_type" v="St"/>
    <tag k="tiger:reviewed" v="no"/>
  </way>
  <way id="1347748401" version="4" timestamp="2025-01-09T09:42:55Z" changeset="161159196" uid="22137982" user="TeeEn">
    <nd ref="7271153285"/>
    <nd ref="7271153286"/>
    <nd ref="11889192154"/>
    <nd ref="11889192132"/>
    <nd ref="11889192155"/>
    <nd ref="11889192130"/>
    <nd ref="11925202345"/>
    <nd ref="11893603298"/>
    <nd ref="11889192134"/>
    <nd ref="11889192133"/>
    <nd ref="7271153360"/>
    <nd ref="11806433639"/>
    <tag k="highway" v="residential"/>
    <tag k="lane_markings" v="no"/>
    <tag k="name" v="Evergreen Avenue"/>
    <tag k="sidewalk:both" v="separate"/>
    <tag k="surface" v="asphalt"/>
    <tag k="tiger:cfcc" v="A41"/>
    <tag k="tiger:county" v="San Diego, CA"/>
    <tag k="tiger:name_base" v="Evergreen"/>
    <tag k="tiger:name_type" v="Ave"/>
    <tag k="tiger:reviewed" v="no"/>
  </way>
  <way id="1347748402" version="3" timestamp="2025-01-09T09:51:37Z" changeset="161159196" uid="22137982" user="TeeEn">
    <nd ref="11806433639"/>
    <nd ref="49389854"/>
    <nd ref="7271153358"/>
    <tag k="highway" v="residential"/>
    <tag k="lane_markings" v="no"/>
    <tag k="name" v="Evergreen Avenue"/>
    <tag k="parking:both" v="no"/>
    <tag k="surface" v="asphalt"/>
    <tag k="tiger:cfcc" v="A41"/>
    <tag k="tiger:county" v="San Diego, CA"/>
    <tag k="tiger:name_base" v="Evergreen"/>
    <tag k="tiger:name_type" v="Ave"/>
    <tag k="tiger:reviewed" v="no"/>
  </way>
  <way id="1347748419" version="2" timestamp="2025-01-02T14:01:53Z" changeset="160903158" uid="22137982" user="TeeEn">
    <nd ref="12466722895"/>
    <nd ref="49176131"/>
    <tag k="highway" v="residential"/>
    <tag k="lane_markings" v="no"/>
    <tag k="name" v="Evergreen Avenue"/>
    <tag k="surface" v="asphalt"/>
    <tag k="tiger:cfcc" v="A41"/>
    <tag k="tiger:county" v="San Diego, CA"/>
    <tag k="tiger:name_base" v="Evergreen"/>
    <tag k="tiger:name_type" v="Ave"/>
    <tag k="tiger:reviewed" v="no"/>
  </way>
  <way id="1347748422" version="3" timestamp="2025-01-09T09:43:08Z" changeset="161159196" uid="22137982" user="TeeEn">
    <nd ref="49485477"/>
    <nd ref="7271153287"/>
    <tag k="cycleway" v="shared_lane"/>
    <tag k="highway" v="residential"/>
    <tag k="lane_markings" v="no"/>
    <tag k="name" v="Elm Avenue"/>
    <tag k="parking:both" v="no"/>
    <tag k="surface" v="asphalt"/>
    <tag k="tiger:cfcc" v="A41"/>
    <tag k="tiger:county" v="San Diego, CA"/>
    <tag k="tiger:name_base" v="Elm"/>
    <tag k="tiger:name_type" v="Ave"/>
    <tag k="tiger:reviewed" v="no"/>
  </way>
  <way id="1347748432" version="5" timestamp="2025-05-05T18:04:13Z" changeset="165858788" uid="21393709" user="CtI5UDYpRmUS">
    <nd ref="12466699109"/>
    <nd ref="7271153292"/>
    <nd ref="7271153294"/>
    <nd ref="11889192158"/>
    <nd ref="12812213173"/>
    <nd ref="11889192127"/>
    <nd ref="11889192159"/>
    <nd ref="11889192128"/>
    <nd ref="7271153352"/>
    <nd ref="11932757140"/>
    <tag k="highway" v="residential"/>
    <tag k="lane_markings" v="no"/>
    <tag k="name" v="Date Avenue"/>
    <tag k="sidewalk:both" v="separate"/>
    <tag k="surface" v="asphalt"/>
    <tag k="tiger:cfcc" v="A41"/>
    <tag k="tiger:county" v="San Diego, CA"/>
    <tag k="tiger:name_base" v="Date"/>
    <tag k="tiger:name_type" v="Ave"/>
    <tag k="tiger:reviewed" v="no"/>
  </way>
  <way id="1347748433" version="3" timestamp="2025-01-09T09:51:46Z" changeset="161159196" uid="22137982" user="TeeEn">
    <nd ref="11932757140"/>
    <nd ref="49345052"/>
    <nd ref="7271153350"/>
    <tag k="highway" v="residential"/>
    <tag k="lane_markings" v="no"/>
    <tag k="name" v="Date Avenue"/>
    <tag k="parking:both" v="no"/>
    <tag k="surface" v="asphalt"/>
    <tag k="tiger:cfcc" v="A41"/>
    <tag k="tiger:county" v="San Diego, CA"/>
    <tag k="tiger:name_base" v="Date"/>
    <tag k="tiger:name_type" v="Ave"/>
    <tag k="tiger:reviewed" v="no"/>
  </way>
  <way id="1347748541" version="5" timestamp="2025-01-09T09:43:32Z" changeset="161159196" uid="22137982" user="TeeEn">
    <nd ref="49345051"/>
    <nd ref="12466699109"/>
    <tag k="highway" v="residential"/>
    <tag k="lane_markings" v="no"/>
    <tag k="name" v="Date Avenue"/>
    <tag k="parking:both" v="no"/>
    <tag k="sidewalk:both" v="separate"/>
    <tag k="surface" v="paved"/>
    <tag k="tiger:cfcc" v="A41"/>
    <tag k="tiger:county" v="San Diego, CA"/>
    <tag k="tiger:name_base" v="Date"/>
    <tag k="tiger:name_type" v="Ave"/>
    <tag k="tiger:reviewed" v="no"/>
  </way>
  <way id="1347748556" version="3" timestamp="2025-01-02T14:05:55Z" changeset="160903158" uid="22137982" user="TeeEn">
    <nd ref="7271153350"/>
    <nd ref="7271153351"/>
    <nd ref="11889192037"/>
    <nd ref="11889192190"/>
    <nd ref="11889192189"/>
    <nd ref="11889192188"/>
    <nd ref="7271153349"/>
    <nd ref="11932757157"/>
    <tag k="highway" v="residential"/>
    <tag k="lane_markings" v="no"/>
    <tag k="name" v="Date Avenue"/>
    <tag k="sidewalk:both" v="separate"/>
    <tag k="surface" v="asphalt"/>
    <tag k="tiger:cfcc" v="A41"/>
    <tag k="tiger:county" v="San Diego, CA"/>
    <tag k="tiger:name_base" v="Date"/>
    <tag k="tiger:name_type" v="Ave"/>
    <tag k="tiger:reviewed" v="no"/>
  </way>
  <way id="1347748557" version="3" timestamp="2025-01-09T09:49:57Z" changeset="161159196" uid="22137982" user="TeeEn">
    <nd ref="11932757157"/>
    <nd ref="49125914"/>
    <nd ref="7271153395"/>
    <tag k="highway" v="residential"/>
    <tag k="lane_markings" v="no"/>
    <tag k="name" v="Date Avenue"/>
    <tag k="parking:both" v="no"/>
    <tag k="surface" v="asphalt"/>
    <tag k="tiger:cfcc" v="A41"/>
    <tag k="tiger:county" v="San Diego, CA"/>
    <tag k="tiger:name_base" v="Date"/>
    <tag k="tiger:name_type" v="Ave"/>
    <tag k="tiger:reviewed" v="no"/>
  </way>
  <way id="1347748635" version="3" timestamp="2025-01-09T09:49:48Z" changeset="161159196" uid="22137982" user="TeeEn">
    <nd ref="49125912"/>
    <nd ref="7271153343"/>
    <tag k="highway" v="residential"/>
    <tag k="lane_markings" v="no"/>
    <tag k="lit" v="no"/>
    <tag k="name" v="Daisy Avenue"/>
    <tag k="parking:both" v="no"/>
    <tag k="surface" v="asphalt"/>
    <tag k="tiger:cfcc" v="A41"/>
    <tag k="tiger:county" v="San Diego, CA"/>
    <tag k="tiger:name_base" v="Daisy"/>
    <tag k="tiger:name_type" v="Ave"/>
    <tag k="tiger:reviewed" v="no"/>
  </way>
  <way id="1347748663" version="3" timestamp="2025-01-09T09:51:50Z" changeset="161159196" uid="22137982" user="TeeEn">
    <nd ref="11932757136"/>
    <nd ref="49408687"/>
    <nd ref="7271153346"/>
    <tag k="highway" v="residential"/>
    <tag k="lane_markings" v="no"/>
    <tag k="lit" v="no"/>
    <tag k="name" v="Daisy Avenue"/>
    <tag k="parking:both" v="no"/>
    <tag k="surface" v="asphalt"/>
    <tag k="tiger:cfcc" v="A41"/>
    <tag k="tiger:county" v="San Diego, CA"/>
    <tag k="tiger:name_base" v="Daisy"/>
    <tag k="tiger:name_type" v="Ave"/>
    <tag k="tiger:reviewed" v="no"/>
  </way>
  <way id="1347748664" version="3" timestamp="2025-01-02T14:06:22Z" changeset="160903158" uid="22137982" user="TeeEn">
    <nd ref="7271153346"/>
    <nd ref="7271153347"/>
    <nd ref="11889192038"/>
    <nd ref="11889192182"/>
    <nd ref="11889192183"/>
    <nd ref="11889192184"/>
    <nd ref="11889192185"/>
    <nd ref="11889192039"/>
    <nd ref="11889192186"/>
    <nd ref="11889192187"/>
    <nd ref="7271153345"/>
    <nd ref="11932757162"/>
    <tag k="highway" v="residential"/>
    <tag k="lane_markings" v="no"/>
    <tag k="lit" v="no"/>
    <tag k="name" v="Daisy Avenue"/>
    <tag k="sidewalk:both" v="separate"/>
    <tag k="surface" v="asphalt"/>
    <tag k="tiger:cfcc" v="A41"/>
    <tag k="tiger:county" v="San Diego, CA"/>
    <tag k="tiger:name_base" v="Daisy"/>
    <tag k="tiger:name_type" v="Ave"/>
    <tag k="tiger:reviewed" v="no"/>
  </way>
  <way id="1347748665" version="3" timestamp="2025-01-09T09:49:52Z" changeset="161159196" uid="22137982" user="TeeEn">
    <nd ref="11932757162"/>
    <nd ref="49125912"/>
    <tag k="highway" v="residential"/>
    <tag k="lane_markings" v="no"/>
    <tag k="lit" v="no"/>
    <tag k="name" v="Daisy Avenue"/>
    <tag k="parking:both" v="no"/>
    <tag k="surface" v="asphalt"/>
    <tag k="tiger:cfcc" v="A41"/>
    <tag k="tiger:county" v="San Diego, CA"/>
    <tag k="tiger:name_base" v="Daisy"/>
    <tag k="tiger:name_type" v="Ave"/>
    <tag k="tiger:reviewed" v="no"/>
  </way>
  <way id="1347748671" version="3" timestamp="2025-01-09T09:43:49Z" changeset="161159196" uid="22137982" user="TeeEn">
    <nd ref="49420521"/>
    <nd ref="7271153299"/>
    <tag k="highway" v="residential"/>
    <tag k="lane_markings" v="no"/>
    <tag k="lit" v="no"/>
    <tag k="name" v="Daisy Avenue"/>
    <tag k="parking:both" v="no"/>
    <tag k="surface" v="asphalt"/>
    <tag k="tiger:cfcc" v="A41"/>
    <tag k="tiger:county" v="San Diego, CA"/>
    <tag k="tiger:name_base" v="Daisy"/>
    <tag k="tiger:name_type" v="Ave"/>
    <tag k="tiger:reviewed" v="no"/>
  </way>
  <way id="1347748679" version="3" timestamp="2025-01-09T09:44:48Z" changeset="161159196" uid="22137982" user="TeeEn">
    <nd ref="49485476"/>
    <nd ref="7271153302"/>
    <tag k="highway" v="residential"/>
    <tag k="lane_markings" v="no"/>
    <tag k="name" v="Donax Avenue"/>
    <tag k="parking:both" v="no"/>
    <tag k="surface" v="asphalt"/>
    <tag k="tiger:cfcc" v="A41"/>
    <tag k="tiger:county" v="San Diego, CA"/>
    <tag k="tiger:name_base" v="Donax"/>
    <tag k="tiger:name_type" v="Ave"/>
    <tag k="tiger:reviewed" v="no"/>
  </way>
  <way id="1347748687" version="3" timestamp="2025-01-02T13:37:26Z" changeset="160903158" uid="22137982" user="TeeEn">
    <nd ref="7271153302"/>
    <nd ref="7271153303"/>
    <nd ref="11794986233"/>
    <nd ref="4591546080"/>
    <nd ref="11889192163"/>
    <nd ref="11889192164"/>
    <nd ref="11889192165"/>
    <nd ref="11889192166"/>
    <nd ref="11889192167"/>
    <nd ref="11889192168"/>
    <nd ref="11889192169"/>
    <nd ref="12297132048"/>
    <nd ref="12297132052"/>
    <nd ref="7271153342"/>
    <nd ref="11932757131"/>
    <tag k="highway" v="residential"/>
    <tag k="lane_markings" v="no"/>
    <tag k="name" v="Donax Avenue"/>
    <tag k="sidewalk:both" v="separate"/>
    <tag k="surface" v="asphalt"/>
    <tag k="tiger:cfcc" v="A41"/>
    <tag k="tiger:county" v="San Diego, CA"/>
    <tag k="tiger:name_base" v="Donax"/>
    <tag k="tiger:name_type" v="Ave"/>
    <tag k="tiger:reviewed" v="no"/>
  </way>
  <way id="1347748688" version="3" timestamp="2025-01-09T09:51:56Z" changeset="161159196" uid="22137982" user="TeeEn">
    <nd ref="11932757131"/>
    <nd ref="49408684"/>
    <nd ref="7271153340"/>
    <tag k="highway" v="residential"/>
    <tag k="lane_markings" v="no"/>
    <tag k="name" v="Donax Avenue"/>
    <tag k="parking:both" v="no"/>
    <tag k="surface" v="asphalt"/>
    <tag k="tiger:cfcc" v="A41"/>
    <tag k="tiger:county" v="San Diego, CA"/>
    <tag k="tiger:name_base" v="Donax"/>
    <tag k="tiger:name_type" v="Ave"/>
    <tag k="tiger:reviewed" v="no"/>
  </way>
  <way id="1347748689" version="3" timestamp="2025-01-09T09:49:40Z" changeset="161159196" uid="22137982" user="TeeEn">
    <nd ref="11932757166"/>
    <nd ref="49125911"/>
    <tag k="highway" v="residential"/>
    <tag k="lane_markings" v="no"/>
    <tag k="name" v="Donax Avenue"/>
    <tag k="parking:both" v="no"/>
    <tag k="surface" v="asphalt"/>
    <tag k="tiger:cfcc" v="A41"/>
    <tag k="tiger:county" v="San Diego, CA"/>
    <tag k="tiger:name_base" v="Donax"/>
    <tag k="tiger:name_type" v="Ave"/>
    <tag k="tiger:reviewed" v="no"/>
  </way>
  <way id="1347748690" version="3" timestamp="2025-01-09T09:49:44Z" changeset="161159196" uid="22137982" user="TeeEn">
    <nd ref="49125911"/>
    <nd ref="7271153400"/>
    <tag k="highway" v="residential"/>
    <tag k="lane_markings" v="no"/>
    <tag k="name" v="Donax Avenue"/>
    <tag k="parking:both" v="no"/>
    <tag k="surface" v="asphalt"/>
    <tag k="tiger:cfcc" v="A41"/>
    <tag k="tiger:county" v="San Diego, CA"/>
    <tag k="tiger:name_base" v="Donax"/>
    <tag k="tiger:name_type" v="Ave"/>
    <tag k="tiger:reviewed" v="no"/>
  </way>
  <way id="1347748700" version="3" timestamp="2025-01-09T09:49:31Z" changeset="161159196" uid="22137982" user="TeeEn">
    <nd ref="49125910"/>
    <nd ref="7271153404"/>
    <tag k="highway" v="residential"/>
    <tag k="lane_markings" v="no"/>
    <tag k="name" v="Dahlia Avenue"/>
    <tag k="parking:both" v="no"/>
    <tag k="surface" v="asphalt"/>
    <tag k="tiger:cfcc" v="A41"/>
    <tag k="tiger:county" v="San Diego, CA"/>
    <tag k="tiger:name_base" v="Dahlia"/>
    <tag k="tiger:name_type" v="Ave"/>
    <tag k="tiger:reviewed" v="no"/>
  </way>
  <way id="1347748964" version="3" timestamp="2025-01-09T09:52:01Z" changeset="161159196" uid="22137982" user="TeeEn">
    <nd ref="7271153338"/>
    <nd ref="11932757127"/>
    <nd ref="49398357"/>
    <nd ref="7271153337"/>
    <tag k="highway" v="residential"/>
    <tag k="lane_markings" v="no"/>
    <tag k="name" v="Dahlia Avenue"/>
    <tag k="parking:both" v="no"/>
    <tag k="surface" v="asphalt"/>
    <tag k="tiger:cfcc" v="A41"/>
    <tag k="tiger:county" v="San Diego, CA"/>
    <tag k="tiger:name_base" v="Dahlia"/>
    <tag k="tiger:name_type" v="Ave"/>
    <tag k="tiger:reviewed" v="no"/>
  </way>
  <way id="1347748965" version="4" timestamp="2025-05-05T18:04:13Z" changeset="165858788" uid="21393709" user="CtI5UDYpRmUS">
    <nd ref="7271153337"/>
    <nd ref="7271153336"/>
    <nd ref="11889192265"/>
    <nd ref="12812230298"/>
    <nd ref="12297132035"/>
    <nd ref="11889192266"/>
    <nd ref="11889192267"/>
    <nd ref="11889181556"/>
    <nd ref="11889192268"/>
    <nd ref="11889192089"/>
    <nd ref="11889192088"/>
    <nd ref="11889192087"/>
    <nd ref="7271153403"/>
    <nd ref="11932788769"/>
    <tag k="highway" v="residential"/>
    <tag k="lane_markings" v="no"/>
    <tag k="name" v="Dahlia Avenue"/>
    <tag k="sidewalk:both" v="separate"/>
    <tag k="surface" v="asphalt"/>
    <tag k="tiger:cfcc" v="A41"/>
    <tag k="tiger:county" v="San Diego, CA"/>
    <tag k="tiger:name_base" v="Dahlia"/>
    <tag k="tiger:name_type" v="Ave"/>
    <tag k="tiger:reviewed" v="no"/>
  </way>
  <way id="1347748966" version="3" timestamp="2025-01-09T09:49:34Z" changeset="161159196" uid="22137982" user="TeeEn">
    <nd ref="11932788769"/>
    <nd ref="49125910"/>
    <tag k="highway" v="residential"/>
    <tag k="lane_markings" v="no"/>
    <tag k="name" v="Dahlia Avenue"/>
    <tag k="parking:both" v="no"/>
    <tag k="surface" v="asphalt"/>
    <tag k="tiger:cfcc" v="A41"/>
    <tag k="tiger:county" v="San Diego, CA"/>
    <tag k="tiger:name_base" v="Dahlia"/>
    <tag k="tiger:name_type" v="Ave"/>
    <tag k="tiger:reviewed" v="no"/>
  </way>
  <way id="1347749023" version="3" timestamp="2025-01-09T09:44:56Z" changeset="161159196" uid="22137982" user="TeeEn">
    <nd ref="49398354"/>
    <nd ref="7271153305"/>
    <tag k="highway" v="residential"/>
    <tag k="lane_markings" v="no"/>
    <tag k="name" v="Dahlia Avenue"/>
    <tag k="parking:both" v="no"/>
    <tag k="surface" v="asphalt"/>
    <tag k="tiger:cfcc" v="A41"/>
    <tag k="tiger:county" v="San Diego, CA"/>
    <tag k="tiger:name_base" v="Dahlia"/>
    <tag k="tiger:name_type" v="Ave"/>
    <tag k="tiger:reviewed" v="no"/>
  </way>
  <way id="1347749126" version="3" timestamp="2025-01-09T09:46:06Z" changeset="161159196" uid="22137982" user="TeeEn">
    <nd ref="49485471"/>
    <nd ref="7271153243"/>
    <tag k="highway" v="residential"/>
    <tag k="lane_markings" v="no"/>
    <tag k="name" v="Calla Avenue"/>
    <tag k="parking:both" v="no"/>
    <tag k="surface" v="asphalt"/>
    <tag k="tiger:cfcc" v="A41"/>
    <tag k="tiger:county" v="San Diego, CA"/>
    <tag k="tiger:name_base" v="Calla"/>
    <tag k="tiger:name_type" v="Ave"/>
    <tag k="tiger:reviewed" v="no"/>
  </way>
  <way id="1347749139" version="3" timestamp="2025-01-09T09:47:33Z" changeset="161159196" uid="22137982" user="TeeEn">
    <nd ref="11808959830"/>
    <nd ref="49363209"/>
    <tag k="highway" v="residential"/>
    <tag k="lane_markings" v="no"/>
    <tag k="name" v="Calla Avenue"/>
    <tag k="parking:both" v="no"/>
    <tag k="surface" v="asphalt"/>
    <tag k="tiger:cfcc" v="A41"/>
    <tag k="tiger:county" v="San Diego, CA"/>
    <tag k="tiger:name_base" v="Calla"/>
    <tag k="tiger:name_type" v="Ave"/>
    <tag k="tiger:reviewed" v="no"/>
  </way>
  <way id="1347749160" version="3" timestamp="2025-01-09T09:46:02Z" changeset="161159196" uid="22137982" user="TeeEn">
    <nd ref="49131758"/>
    <nd ref="7271153251"/>
    <tag k="highway" v="residential"/>
    <tag k="lane_markings" v="no"/>
    <tag k="name" v="Citrus Avenue"/>
    <tag k="parking:both" v="no"/>
    <tag k="surface" v="asphalt"/>
    <tag k="tiger:cfcc" v="A41"/>
    <tag k="tiger:county" v="San Diego, CA"/>
    <tag k="tiger:name_base" v="Citrus"/>
    <tag k="tiger:name_type" v="Ave"/>
    <tag k="tiger:reviewed" v="no"/>
  </way>
  <way id="1347749161" version="3" timestamp="2025-01-09T09:47:37Z" changeset="161159196" uid="22137982" user="TeeEn">
    <nd ref="11808959843"/>
    <nd ref="49131761"/>
    <tag k="highway" v="residential"/>
    <tag k="lane_markings" v="no"/>
    <tag k="name" v="Citrus Avenue"/>
    <tag k="parking:both" v="no"/>
    <tag k="surface" v="asphalt"/>
    <tag k="tiger:cfcc" v="A41"/>
    <tag k="tiger:county" v="San Diego, CA"/>
    <tag k="tiger:name_base" v="Citrus"/>
    <tag k="tiger:name_type" v="Ave"/>
    <tag k="tiger:reviewed" v="no"/>
  </way>
  <way id="1347749164" version="3" timestamp="2025-01-09T09:47:19Z" changeset="161159196" uid="22137982" user="TeeEn">
    <nd ref="7271153248"/>
    <nd ref="49363219"/>
    <tag k="highway" v="residential"/>
    <tag k="lane_markings" v="no"/>
    <tag k="name" v="Silver Strand Boulevard"/>
    <tag k="parking:both" v="no"/>
    <tag k="source" v="https://imperialbeachca.mapgeo.io/datasets/public-access?abuttersDistance=100&amp;latlng=32.585384%2C-117.128322&amp;previewId=6250210900&amp;zoom=20"/>
    <tag k="surface" v="asphalt"/>
    <tag k="tiger:cfcc" v="A41"/>
    <tag k="tiger:county" v="San Diego, CA"/>
    <tag k="tiger:name_base" v="Silver Strand"/>
    <tag k="tiger:reviewed" v="no"/>
  </way>
  <way id="1347749310" version="3" timestamp="2025-01-09T09:47:28Z" changeset="161159196" uid="22137982" user="TeeEn">
    <nd ref="11808959819"/>
    <nd ref="49105668"/>
    <tag k="highway" v="residential"/>
    <tag k="lane_markings" v="no"/>
    <tag k="name" v="Carnation Avenue"/>
    <tag k="parking:both" v="no"/>
    <tag k="surface" v="asphalt"/>
    <tag k="tiger:cfcc" v="A41"/>
    <tag k="tiger:county" v="San Diego, CA"/>
    <tag k="tiger:name_base" v="Carnation"/>
    <tag k="tiger:name_type" v="Ave"/>
    <tag k="tiger:reviewed" v="no"/>
  </way>
  <way id="1347749317" version="2" timestamp="2025-01-02T13:33:39Z" changeset="160903158" uid="22137982" user="TeeEn">
    <nd ref="49105666"/>
    <nd ref="11889192228"/>
    <tag k="highway" v="residential"/>
    <tag k="lane_markings" v="no"/>
    <tag k="name" v="Carnation Avenue"/>
    <tag k="sidewalk:right" v="separate"/>
    <tag k="surface" v="asphalt"/>
    <tag k="tiger:cfcc" v="A41"/>
    <tag k="tiger:county" v="San Diego, CA"/>
    <tag k="tiger:name_base" v="Carnation"/>
    <tag k="tiger:name_type" v="Ave"/>
    <tag k="tiger:reviewed" v="no"/>
  </way>
  <way id="1347749343" version="3" timestamp="2025-01-02T13:33:31Z" changeset="160903158" uid="22137982" user="TeeEn">
    <nd ref="12466668222"/>
    <nd ref="11889192091"/>
    <nd ref="49105666"/>
    <tag k="highway" v="residential"/>
    <tag k="lane_markings" v="no"/>
    <tag k="name" v="Carnation Avenue"/>
    <tag k="sidewalk:right" v="separate"/>
    <tag k="surface" v="asphalt"/>
    <tag k="tiger:cfcc" v="A41"/>
    <tag k="tiger:county" v="San Diego, CA"/>
    <tag k="tiger:name_base" v="Carnation"/>
    <tag k="tiger:name_type" v="Ave"/>
    <tag k="tiger:reviewed" v="no"/>
  </way>
  <way id="1347749358" version="3" timestamp="2025-01-02T13:33:22Z" changeset="160903158" uid="22137982" user="TeeEn">
    <nd ref="49105664"/>
    <nd ref="12466668222"/>
    <tag k="highway" v="residential"/>
    <tag k="lane_markings" v="no"/>
    <tag k="name" v="Carnation Avenue"/>
    <tag k="sidewalk:right" v="separate"/>
    <tag k="surface" v="asphalt"/>
    <tag k="tiger:cfcc" v="A41"/>
    <tag k="tiger:county" v="San Diego, CA"/>
    <tag k="tiger:name_base" v="Carnation"/>
    <tag k="tiger:name_type" v="Ave"/>
    <tag k="tiger:reviewed" v="no"/>
  </way>
  <way id="1347749375" version="3" timestamp="2025-01-02T13:17:49Z" changeset="160903158" uid="22137982" user="TeeEn">
    <nd ref="11808959813"/>
    <nd ref="11889192395"/>
    <nd ref="49485471"/>
    <tag k="highway" v="residential"/>
    <tag k="lane_markings" v="no"/>
    <tag k="maxspeed" v="25 mph"/>
    <tag k="name" v="Seacoast Drive"/>
    <tag k="sidewalk:both" v="separate"/>
    <tag k="surface" v="asphalt"/>
    <tag k="tiger:cfcc" v="A41"/>
    <tag k="tiger:county" v="San Diego, CA"/>
    <tag k="tiger:name_base" v="Seacoast"/>
    <tag k="tiger:name_type" v="Dr"/>
    <tag k="tiger:reviewed" v="no"/>
  </way>
  <way id="1347749413" version="3" timestamp="2025-01-09T09:43:05Z" changeset="161159196" uid="22137982" user="TeeEn">
    <nd ref="7271153288"/>
    <nd ref="49485477"/>
    <tag k="cycleway" v="shared_lane"/>
    <tag k="highway" v="residential"/>
    <tag k="lane_markings" v="no"/>
    <tag k="name" v="Elm Avenue"/>
    <tag k="parking:both" v="no"/>
    <tag k="surface" v="asphalt"/>
    <tag k="tiger:cfcc" v="A41"/>
    <tag k="tiger:county" v="San Diego, CA"/>
    <tag k="tiger:name_base" v="Elm"/>
    <tag k="tiger:name_type" v="Ave"/>
    <tag k="tiger:reviewed" v="no"/>
  </way>
  <way id="1347749428" version="3" timestamp="2025-01-09T09:44:52Z" changeset="161159196" uid="22137982" user="TeeEn">
    <nd ref="7271153306"/>
    <nd ref="49398354"/>
    <tag k="highway" v="residential"/>
    <tag k="lane_markings" v="no"/>
    <tag k="name" v="Dahlia Avenue"/>
    <tag k="parking:both" v="no"/>
    <tag k="surface" v="asphalt"/>
    <tag k="tiger:cfcc" v="A41"/>
    <tag k="tiger:county" v="San Diego, CA"/>
    <tag k="tiger:name_base" v="Dahlia"/>
    <tag k="tiger:name_type" v="Ave"/>
    <tag k="tiger:reviewed" v="no"/>
  </way>
  <way id="1347749540" version="3" timestamp="2025-01-02T14:14:40Z" changeset="160903158" uid="22137982" user="TeeEn">
    <nd ref="49052344"/>
    <nd ref="49052345"/>
    <nd ref="7271153283"/>
    <nd ref="7271153280"/>
    <tag k="highway" v="residential"/>
    <tag k="lane_markings" v="no"/>
    <tag k="name" v="Elder Avenue"/>
    <tag k="sidewalk:both" v="separate"/>
    <tag k="surface" v="asphalt"/>
    <tag k="tiger:cfcc" v="A41"/>
    <tag k="tiger:county" v="San Diego, CA"/>
    <tag k="tiger:name_base" v="Pier"/>
    <tag k="tiger:name_type" v="Plz"/>
    <tag k="tiger:reviewed" v="no"/>
  </way>
  <way id="1347749542" version="3" timestamp="2025-01-09T09:42:23Z" changeset="161159196" uid="22137982" user="TeeEn">
    <nd ref="7271153280"/>
    <nd ref="49052346"/>
    <nd ref="7271153281"/>
    <tag k="highway" v="residential"/>
    <tag k="lane_markings" v="no"/>
    <tag k="name" v="Elder Avenue"/>
    <tag k="parking:both" v="no"/>
    <tag k="surface" v="asphalt"/>
    <tag k="tiger:cfcc" v="A41"/>
    <tag k="tiger:county" v="San Diego, CA"/>
    <tag k="tiger:name_base" v="Pier"/>
    <tag k="tiger:name_type" v="Plz"/>
    <tag k="tiger:reviewed" v="no"/>
  </way>
  <way id="1347749613" version="3" timestamp="2025-01-09T10:00:40Z" changeset="161159196" uid="22137982" user="TeeEn">
    <nd ref="11932788779"/>
    <nd ref="49052350"/>
    <tag k="highway" v="residential"/>
    <tag k="lane_markings" v="no"/>
    <tag k="name" v="Elder Avenue"/>
    <tag k="parking:both" v="no"/>
    <tag k="surface" v="asphalt"/>
    <tag k="tiger:cfcc" v="A41"/>
    <tag k="tiger:county" v="San Diego, CA"/>
    <tag k="tiger:name_base" v="Pier"/>
    <tag k="tiger:name_type" v="Plz"/>
    <tag k="tiger:reviewed" v="no"/>
  </way>
  <way id="1347749616" version="4" timestamp="2025-01-09T10:00:44Z" changeset="161159196" uid="22137982" user="TeeEn">
    <nd ref="11932788775"/>
    <nd ref="49176134"/>
    <tag k="highway" v="residential"/>
    <tag k="lane_markings" v="no"/>
    <tag k="name" v="Elkwood Avenue"/>
    <tag k="parking:both" v="no"/>
    <tag k="sidewalk:right" v="separate"/>
    <tag k="surface" v="asphalt"/>
    <tag k="tiger:cfcc" v="A41"/>
    <tag k="tiger:county" v="San Diego, CA"/>
    <tag k="tiger:name_base" v="Elkwood"/>
    <tag k="tiger:name_type" v="Ave"/>
    <tag k="tiger:reviewed" v="no"/>
  </way>
  <way id="1347749619" version="3" timestamp="2025-01-09T09:51:25Z" changeset="161159196" uid="22137982" user="TeeEn">
    <nd ref="49408702"/>
    <nd ref="11786223290"/>
    <tag k="highway" v="residential"/>
    <tag k="lane_markings" v="no"/>
    <tag k="name" v="Elkwood Avenue"/>
    <tag k="parking:both" v="no"/>
    <tag k="surface" v="asphalt"/>
    <tag k="tiger:cfcc" v="A41"/>
    <tag k="tiger:county" v="San Diego, CA"/>
    <tag k="tiger:name_base" v="Elkwood"/>
    <tag k="tiger:name_type" v="Ave"/>
    <tag k="tiger:reviewed" v="no"/>
  </way>
  <way id="1347749672" version="3" timestamp="2025-01-09T09:51:22Z" changeset="161159196" uid="22137982" user="TeeEn">
    <nd ref="7271153366"/>
    <nd ref="11932757149"/>
    <nd ref="49408702"/>
    <tag k="highway" v="residential"/>
    <tag k="lane_markings" v="no"/>
    <tag k="name" v="Elkwood Avenue"/>
    <tag k="parking:both" v="no"/>
    <tag k="surface" v="asphalt"/>
    <tag k="tiger:cfcc" v="A41"/>
    <tag k="tiger:county" v="San Diego, CA"/>
    <tag k="tiger:name_base" v="Elkwood"/>
    <tag k="tiger:name_type" v="Ave"/>
    <tag k="tiger:reviewed" v="no"/>
  </way>
  <way id="1347749778" version="3" timestamp="2025-01-09T09:51:17Z" changeset="161159196" uid="22137982" user="TeeEn">
    <nd ref="49408704"/>
    <nd ref="7271153369"/>
    <tag k="highway" v="residential"/>
    <tag k="lane_markings" v="no"/>
    <tag k="name" v="Ebony Avenue"/>
    <tag k="parking:both" v="no"/>
    <tag k="surface" v="asphalt"/>
    <tag k="tiger:cfcc" v="A41"/>
    <tag k="tiger:county" v="San Diego, CA"/>
    <tag k="tiger:name_base" v="Ebony"/>
    <tag k="tiger:name_type" v="Ave"/>
    <tag k="tiger:reviewed" v="no"/>
  </way>
  <way id="1347749779" version="3" timestamp="2025-01-09T10:00:50Z" changeset="161159196" uid="22137982" user="TeeEn">
    <nd ref="11932788772"/>
    <nd ref="49176136"/>
    <tag k="highway" v="residential"/>
    <tag k="lane_markings" v="no"/>
    <tag k="name" v="Ebony Avenue"/>
    <tag k="parking:both" v="no"/>
    <tag k="surface" v="asphalt"/>
    <tag k="tiger:cfcc" v="A41"/>
    <tag k="tiger:county" v="San Diego, CA"/>
    <tag k="tiger:name_base" v="Ebony"/>
    <tag k="tiger:name_type" v="Ave"/>
    <tag k="tiger:reviewed" v="no"/>
  </way>
  <way id="1347749780" version="3" timestamp="2025-01-09T09:51:12Z" changeset="161159196" uid="22137982" user="TeeEn">
    <nd ref="11786339216"/>
    <nd ref="49408704"/>
    <tag k="highway" v="residential"/>
    <tag k="lane_markings" v="no"/>
    <tag k="name" v="Ebony Avenue"/>
    <tag k="parking:both" v="no"/>
    <tag k="surface" v="asphalt"/>
    <tag k="tiger:cfcc" v="A41"/>
    <tag k="tiger:county" v="San Diego, CA"/>
    <tag k="tiger:name_base" v="Ebony"/>
    <tag k="tiger:name_type" v="Ave"/>
    <tag k="tiger:reviewed" v="no"/>
  </way>
  <way id="1347749782" version="3" timestamp="2025-01-02T14:30:14Z" changeset="160903158" uid="22137982" user="TeeEn">
    <nd ref="49732022"/>
    <nd ref="3701525685"/>
    <nd ref="7271153273"/>
    <nd ref="7271153272"/>
    <tag k="highway" v="residential"/>
    <tag k="lane_markings" v="no"/>
    <tag k="name" v="Ebony Avenue"/>
    <tag k="sidewalk:both" v="separate"/>
    <tag k="surface" v="asphalt"/>
    <tag k="tiger:cfcc" v="A41"/>
    <tag k="tiger:county" v="San Diego, CA"/>
    <tag k="tiger:name_base" v="Ebony"/>
    <tag k="tiger:name_type" v="Ave"/>
    <tag k="tiger:reviewed" v="no"/>
  </way>
  <way id="1347749783" version="3" timestamp="2025-01-09T09:40:27Z" changeset="161159196" uid="22137982" user="TeeEn">
    <nd ref="7271153272"/>
    <nd ref="49485481"/>
    <nd ref="7271153271"/>
    <tag k="highway" v="residential"/>
    <tag k="lane_markings" v="no"/>
    <tag k="name" v="Ebony Avenue"/>
    <tag k="parking:both" v="no"/>
    <tag k="surface" v="asphalt"/>
    <tag k="tiger:cfcc" v="A41"/>
    <tag k="tiger:county" v="San Diego, CA"/>
    <tag k="tiger:name_base" v="Ebony"/>
    <tag k="tiger:name_type" v="Ave"/>
    <tag k="tiger:reviewed" v="no"/>
  </way>
  <way id="1347749809" version="2" timestamp="2025-01-09T09:39:24Z" changeset="161159196" uid="22137982" user="TeeEn">
    <nd ref="7271153372"/>
    <nd ref="49119339"/>
    <tag k="highway" v="residential"/>
    <tag k="lanes" v="2"/>
    <tag k="name" v="2nd Street"/>
    <tag k="parking:both" v="no"/>
    <tag k="sidewalk:left" v="separate"/>
    <tag k="surface" v="asphalt"/>
    <tag k="tiger:cfcc" v="A41"/>
    <tag k="tiger:county" v="San Diego, CA"/>
    <tag k="tiger:name_base" v="2nd"/>
    <tag k="tiger:name_type" v="St"/>
  </way>
  <way id="1347975602" version="3" timestamp="2025-01-02T13:15:33Z" changeset="160903158" uid="22137982" user="TeeEn">
    <nd ref="11785128123"/>
    <nd ref="11808935231"/>
    <tag k="highway" v="residential"/>
    <tag k="lane_markings" v="no"/>
    <tag k="name" v="Ocean Lane"/>
    <tag k="oneway" v="yes"/>
    <tag k="surface" v="paving_stones"/>
    <tag k="tiger:cfcc" v="A41"/>
    <tag k="tiger:county" v="San Diego, CA"/>
    <tag k="tiger:name_base" v="Ocean"/>
    <tag k="tiger:name_type" v="Ln"/>
    <tag k="tiger:reviewed" v="no"/>
  </way>
  <way id="1347975646" version="3" timestamp="2025-01-02T13:15:26Z" changeset="160903158" uid="22137982" user="TeeEn">
    <nd ref="11785128125"/>
    <nd ref="11785128143"/>
    <tag k="highway" v="residential"/>
    <tag k="lane_markings" v="no"/>
    <tag k="name" v="Ocean Lane"/>
    <tag k="oneway" v="yes"/>
    <tag k="surface" v="paving_stones"/>
    <tag k="tiger:cfcc" v="A41"/>
    <tag k="tiger:county" v="San Diego, CA"/>
    <tag k="tiger:name_base" v="Ocean"/>
    <tag k="tiger:name_type" v="Ln"/>
    <tag k="tiger:reviewed" v="no"/>
  </way>
  <way id="1347994561" version="3" timestamp="2025-01-09T09:43:36Z" changeset="161159196" uid="22137982" user="TeeEn">
    <nd ref="11785080766"/>
    <nd ref="49345051"/>
    <tag k="highway" v="residential"/>
    <tag k="lane_markings" v="no"/>
    <tag k="name" v="Date Avenue"/>
    <tag k="parking:both" v="no"/>
    <tag k="sidewalk:both" v="separate"/>
    <tag k="surface" v="paved"/>
    <tag k="tiger:cfcc" v="A41"/>
    <tag k="tiger:county" v="San Diego, CA"/>
    <tag k="tiger:name_base" v="Date"/>
    <tag k="tiger:name_type" v="Ave"/>
    <tag k="tiger:reviewed" v="no"/>
  </way>
  <way id="1349741074" version="2" timestamp="2025-01-09T09:39:11Z" changeset="161159196" uid="22137982" user="TeeEn">
    <nd ref="11331901645"/>
    <nd ref="49119340"/>
    <tag k="highway" v="residential"/>
    <tag k="lanes" v="2"/>
    <tag k="name" v="3rd Street"/>
    <tag k="parking:both" v="no"/>
    <tag k="sidewalk:both" v="separate"/>
    <tag k="surface" v="asphalt"/>
    <tag k="tiger:cfcc" v="A41"/>
    <tag k="tiger:county" v="San Diego, CA"/>
    <tag k="tiger:name_base" v="3rd"/>
    <tag k="tiger:name_type" v="St"/>
  </way>
  <way id="1349741331" version="2" timestamp="2025-01-09T09:39:03Z" changeset="161159196" uid="22137982" user="TeeEn">
    <nd ref="11331901640"/>
    <nd ref="49119340"/>
    <tag k="cycleway:left" v="lane"/>
    <tag k="cycleway:right" v="shared_lane"/>
    <tag k="cycleway:right:lane" v="pictogram"/>
    <tag k="highway" v="secondary"/>
    <tag k="lane_markings" v="no"/>
    <tag k="maxspeed" v="35 mph"/>
    <tag k="name" v="Imperial Beach Boulevard"/>
    <tag k="parking:both" v="no"/>
    <tag k="sidewalk:both" v="separate"/>
    <tag k="source:maxspeed" v="sign"/>
    <tag k="surface" v="asphalt"/>
    <tag k="tiger:cfcc" v="A41"/>
    <tag k="tiger:county" v="San Diego, CA"/>
    <tag k="tiger:name_base" v="Imperial Beach"/>
    <tag k="tiger:name_type" v="Blvd"/>
    <tag k="tiger:reviewed" v="no"/>
  </way>
  <way id="1349741333" version="2" timestamp="2025-01-09T09:39:05Z" changeset="161159196" uid="22137982" user="TeeEn">
    <nd ref="49119340"/>
    <nd ref="2440995189"/>
    <tag k="cycleway" v="shared_lane"/>
    <tag k="highway" v="residential"/>
    <tag k="lanes" v="2"/>
    <tag k="name" v="3rd Street"/>
    <tag k="parking:both" v="no"/>
    <tag k="sidewalk:both" v="separate"/>
    <tag k="surface" v="asphalt"/>
    <tag k="tiger:cfcc" v="A41"/>
    <tag k="tiger:county" v="San Diego, CA"/>
    <tag k="tiger:name_base" v="3rd"/>
    <tag k="tiger:name_type" v="St"/>
  </way>
  <way id="1349741341" version="2" timestamp="2025-01-09T09:39:08Z" changeset="161159196" uid="22137982" user="TeeEn">
    <nd ref="49119340"/>
    <nd ref="11331901643"/>
    <tag k="cycleway" v="lane"/>
    <tag k="highway" v="secondary"/>
    <tag k="lanes" v="2"/>
    <tag k="maxspeed" v="35 mph"/>
    <tag k="name" v="Imperial Beach Boulevard"/>
    <tag k="parking:both" v="no"/>
    <tag k="sidewalk:both" v="separate"/>
    <tag k="source:maxspeed" v="sign"/>
    <tag k="surface" v="asphalt"/>
    <tag k="tiger:cfcc" v="A41"/>
    <tag k="tiger:county" v="San Diego, CA"/>
    <tag k="tiger:name_base" v="Imperial Beach"/>
    <tag k="tiger:name_type" v="Blvd"/>
    <tag k="tiger:reviewed" v="no"/>
  </way>
  <way id="1349741396" version="2" timestamp="2025-01-09T09:40:01Z" changeset="161159196" uid="22137982" user="TeeEn">
    <nd ref="11786339217"/>
    <nd ref="2440995112"/>
    <tag k="cycleway:both" v="shared_lane"/>
    <tag k="cycleway:both:lane" v="pictogram"/>
    <tag k="highway" v="residential"/>
    <tag k="lanes" v="2"/>
    <tag k="lit" v="yes"/>
    <tag k="maxspeed" v="25 mph"/>
    <tag k="maxspeed:type" v="sign"/>
    <tag k="name" v="Seacoast Drive"/>
    <tag k="parking:both" v="no"/>
    <tag k="sidewalk:both" v="separate"/>
    <tag k="surface" v="asphalt"/>
    <tag k="tiger:cfcc" v="A41"/>
    <tag k="tiger:county" v="San Diego, CA"/>
    <tag k="tiger:name_base" v="Seacoast"/>
    <tag k="tiger:name_type" v="Dr"/>
    <tag k="tiger:reviewed" v="no"/>
  </way>
  <way id="1349741397" version="2" timestamp="2025-01-09T09:40:03Z" changeset="161159196" uid="22137982" user="TeeEn">
    <nd ref="7271153268"/>
    <nd ref="11786339217"/>
    <tag k="cycleway" v="shared_lane"/>
    <tag k="highway" v="tertiary"/>
    <tag k="lanes" v="2"/>
    <tag k="lit" v="yes"/>
    <tag k="maxspeed" v="25 mph"/>
    <tag k="maxspeed:type" v="sign"/>
    <tag k="name" v="Seacoast Drive"/>
    <tag k="parking:both" v="no"/>
    <tag k="sidewalk:both" v="separate"/>
    <tag k="surface" v="asphalt"/>
    <tag k="tiger:cfcc" v="A41"/>
    <tag k="tiger:county" v="San Diego, CA"/>
    <tag k="tiger:name_base" v="Seacoast"/>
    <tag k="tiger:name_type" v="Dr"/>
    <tag k="tiger:reviewed" v="no"/>
  </way>
  <way id="1349741406" version="2" timestamp="2025-01-09T09:40:06Z" changeset="161159196" uid="22137982" user="TeeEn">
    <nd ref="11786339217"/>
    <nd ref="7271153265"/>
    <tag k="cycleway:left" v="lane"/>
    <tag k="cycleway:right" v="shared_lane"/>
    <tag k="cycleway:right:lane" v="pictogram"/>
    <tag k="highway" v="secondary"/>
    <tag k="lane_markings" v="no"/>
    <tag k="maxspeed" v="35 mph"/>
    <tag k="name" v="Imperial Beach Boulevard"/>
    <tag k="parking:both" v="no"/>
    <tag k="sidewalk:both" v="separate"/>
    <tag k="source:maxspeed" v="sign"/>
    <tag k="surface" v="asphalt"/>
    <tag k="tiger:cfcc" v="A41"/>
    <tag k="tiger:county" v="San Diego, CA"/>
    <tag k="tiger:name_base" v="Imperial Beach"/>
    <tag k="tiger:name_type" v="Blvd"/>
    <tag k="tiger:reviewed" v="no"/>
  </way>
  <way id="1349741537" version="2" timestamp="2025-01-09T09:41:56Z" changeset="161159196" uid="22137982" user="TeeEn">
    <nd ref="7271153279"/>
    <nd ref="49485479"/>
    <nd ref="7271153278"/>
    <tag k="cycleway" v="shared_lane"/>
    <tag k="highway" v="tertiary"/>
    <tag k="lanes" v="2"/>
    <tag k="lit" v="yes"/>
    <tag k="maxspeed" v="25 mph"/>
    <tag k="maxspeed:type" v="sign"/>
    <tag k="name" v="Seacoast Drive"/>
    <tag k="parking:both" v="no"/>
    <tag k="sidewalk:both" v="separate"/>
    <tag k="surface" v="asphalt"/>
    <tag k="tiger:cfcc" v="A41"/>
    <tag k="tiger:county" v="San Diego, CA"/>
    <tag k="tiger:name_base" v="Seacoast"/>
    <tag k="tiger:name_type" v="Dr"/>
    <tag k="tiger:reviewed" v="no"/>
  </way>
  <way id="1349741538" version="1" timestamp="2025-01-09T09:41:40Z" changeset="161159196" uid="22137982" user="TeeEn">
    <nd ref="7271153278"/>
    <nd ref="3701533991"/>
    <nd ref="49485481"/>
    <nd ref="3416384064"/>
    <nd ref="7271153269"/>
    <nd ref="7271153268"/>
    <tag k="cycleway" v="shared_lane"/>
    <tag k="highway" v="tertiary"/>
    <tag k="lanes" v="2"/>
    <tag k="lit" v="yes"/>
    <tag k="maxspeed" v="25 mph"/>
    <tag k="maxspeed:type" v="sign"/>
    <tag k="name" v="Seacoast Drive"/>
    <tag k="sidewalk:both" v="separate"/>
    <tag k="surface" v="asphalt"/>
    <tag k="tiger:cfcc" v="A41"/>
    <tag k="tiger:county" v="San Diego, CA"/>
    <tag k="tiger:name_base" v="Seacoast"/>
    <tag k="tiger:name_type" v="Dr"/>
    <tag k="tiger:reviewed" v="no"/>
  </way>
  <way id="1349741547" version="1" timestamp="2025-01-09T09:41:49Z" changeset="161159196" uid="22137982" user="TeeEn">
    <nd ref="3701525686"/>
    <nd ref="7271153275"/>
    <nd ref="11785242073"/>
    <tag k="highway" v="residential"/>
    <tag k="lane_markings" v="no"/>
    <tag k="name" v="Elkwood Avenue"/>
    <tag k="sidewalk:both" v="separate"/>
    <tag k="surface" v="asphalt"/>
    <tag k="tiger:cfcc" v="A41"/>
    <tag k="tiger:county" v="San Diego, CA"/>
    <tag k="tiger:name_base" v="Elkwood"/>
    <tag k="tiger:name_type" v="Ave"/>
    <tag k="tiger:reviewed" v="no"/>
  </way>
  <way id="1349741548" version="2" timestamp="2025-01-09T09:41:53Z" changeset="161159196" uid="22137982" user="TeeEn">
    <nd ref="11785242073"/>
    <nd ref="7271153277"/>
    <nd ref="49485479"/>
    <nd ref="7271153276"/>
    <nd ref="11785242072"/>
    <tag k="highway" v="residential"/>
    <tag k="lane_markings" v="no"/>
    <tag k="name" v="Elkwood Avenue"/>
    <tag k="parking:both" v="no"/>
    <tag k="sidewalk:both" v="separate"/>
    <tag k="surface" v="asphalt"/>
    <tag k="tiger:cfcc" v="A41"/>
    <tag k="tiger:county" v="San Diego, CA"/>
    <tag k="tiger:name_base" v="Elkwood"/>
    <tag k="tiger:name_type" v="Ave"/>
    <tag k="tiger:reviewed" v="no"/>
  </way>
  <way id="1349741685" version="2" timestamp="2025-01-09T09:42:59Z" changeset="161159196" uid="22137982" user="TeeEn">
    <nd ref="8812953309"/>
    <nd ref="7271153285"/>
    <tag k="highway" v="residential"/>
    <tag k="lane_markings" v="no"/>
    <tag k="name" v="Evergreen Avenue"/>
    <tag k="parking:both" v="no"/>
    <tag k="sidewalk:both" v="separate"/>
    <tag k="surface" v="asphalt"/>
    <tag k="tiger:cfcc" v="A41"/>
    <tag k="tiger:county" v="San Diego, CA"/>
    <tag k="tiger:name_base" v="Evergreen"/>
    <tag k="tiger:name_type" v="Ave"/>
    <tag k="tiger:reviewed" v="no"/>
  </way>
  <way id="1349741827" version="2" timestamp="2025-01-09T09:43:39Z" changeset="161159196" uid="22137982" user="TeeEn">
    <nd ref="7271153293"/>
    <nd ref="49345051"/>
    <nd ref="7271153291"/>
    <tag k="cycleway" v="shared_lane"/>
    <tag k="highway" v="tertiary"/>
    <tag k="lanes" v="2"/>
    <tag k="lit" v="yes"/>
    <tag k="maxspeed" v="25 mph"/>
    <tag k="maxspeed:type" v="sign"/>
    <tag k="name" v="Seacoast Drive"/>
    <tag k="parking:both" v="no"/>
    <tag k="sidewalk:both" v="separate"/>
    <tag k="surface" v="asphalt"/>
    <tag k="tiger:cfcc" v="A41"/>
    <tag k="tiger:county" v="San Diego, CA"/>
    <tag k="tiger:name_base" v="Seacoast"/>
    <tag k="tiger:name_type" v="Dr"/>
    <tag k="tiger:reviewed" v="no"/>
  </way>
  <way id="1349741828" version="1" timestamp="2025-01-09T09:43:30Z" changeset="161159196" uid="22137982" user="TeeEn">
    <nd ref="7271153291"/>
    <nd ref="3701112984"/>
    <nd ref="49485477"/>
    <nd ref="5532658637"/>
    <nd ref="3695828358"/>
    <nd ref="8812953309"/>
    <nd ref="7271153284"/>
    <nd ref="3695828356"/>
    <nd ref="49052346"/>
    <nd ref="3701533993"/>
    <nd ref="7271153279"/>
    <tag k="cycleway" v="shared_lane"/>
    <tag k="highway" v="tertiary"/>
    <tag k="lanes" v="2"/>
    <tag k="lit" v="yes"/>
    <tag k="maxspeed" v="25 mph"/>
    <tag k="maxspeed:type" v="sign"/>
    <tag k="name" v="Seacoast Drive"/>
    <tag k="sidewalk:both" v="separate"/>
    <tag k="surface" v="asphalt"/>
    <tag k="tiger:cfcc" v="A41"/>
    <tag k="tiger:county" v="San Diego, CA"/>
    <tag k="tiger:name_base" v="Seacoast"/>
    <tag k="tiger:name_type" v="Dr"/>
    <tag k="tiger:reviewed" v="no"/>
  </way>
  <way id="1349741875" version="2" timestamp="2025-01-09T09:44:05Z" changeset="161159196" uid="22137982" user="TeeEn">
    <nd ref="7271153299"/>
    <nd ref="11785245817"/>
    <tag k="highway" v="residential"/>
    <tag k="lane_markings" v="no"/>
    <tag k="lit" v="no"/>
    <tag k="name" v="Daisy Avenue"/>
    <tag k="parking:both" v="no"/>
    <tag k="sidewalk:both" v="separate"/>
    <tag k="surface" v="asphalt"/>
    <tag k="tiger:cfcc" v="A41"/>
    <tag k="tiger:county" v="San Diego, CA"/>
    <tag k="tiger:name_base" v="Daisy"/>
    <tag k="tiger:name_type" v="Ave"/>
    <tag k="tiger:reviewed" v="no"/>
  </way>
  <way id="1349741897" version="2" timestamp="2025-01-09T09:44:37Z" changeset="161159196" uid="22137982" user="TeeEn">
    <nd ref="7271153301"/>
    <nd ref="49420521"/>
    <nd ref="7271153298"/>
    <tag k="cycleway" v="shared_lane"/>
    <tag k="highway" v="tertiary"/>
    <tag k="lanes" v="2"/>
    <tag k="lit" v="yes"/>
    <tag k="maxspeed" v="25 mph"/>
    <tag k="maxspeed:type" v="sign"/>
    <tag k="name" v="Seacoast Drive"/>
    <tag k="parking:both" v="no"/>
    <tag k="sidewalk:both" v="separate"/>
    <tag k="surface" v="asphalt"/>
    <tag k="tiger:cfcc" v="A41"/>
    <tag k="tiger:county" v="San Diego, CA"/>
    <tag k="tiger:name_base" v="Seacoast"/>
    <tag k="tiger:name_type" v="Dr"/>
    <tag k="tiger:reviewed" v="no"/>
  </way>
  <way id="1349741898" version="1" timestamp="2025-01-09T09:44:31Z" changeset="161159196" uid="22137982" user="TeeEn">
    <nd ref="7271153298"/>
    <nd ref="5316308026"/>
    <nd ref="5316300383"/>
    <nd ref="5316308035"/>
    <nd ref="7271153293"/>
    <tag k="cycleway" v="shared_lane"/>
    <tag k="highway" v="tertiary"/>
    <tag k="lanes" v="2"/>
    <tag k="lit" v="yes"/>
    <tag k="maxspeed" v="25 mph"/>
    <tag k="maxspeed:type" v="sign"/>
    <tag k="name" v="Seacoast Drive"/>
    <tag k="sidewalk:both" v="separate"/>
    <tag k="surface" v="asphalt"/>
    <tag k="tiger:cfcc" v="A41"/>
    <tag k="tiger:county" v="San Diego, CA"/>
    <tag k="tiger:name_base" v="Seacoast"/>
    <tag k="tiger:name_type" v="Dr"/>
    <tag k="tiger:reviewed" v="no"/>
  </way>
  <way id="1349742020" version="2" timestamp="2025-01-09T09:45:40Z" changeset="161159196" uid="22137982" user="TeeEn">
    <nd ref="49485474"/>
    <nd ref="7271153324"/>
    <tag k="cycleway" v="shared_lane"/>
    <tag k="highway" v="tertiary"/>
    <tag k="lanes" v="2"/>
    <tag k="lit" v="yes"/>
    <tag k="maxspeed" v="25 mph"/>
    <tag k="maxspeed:type" v="sign"/>
    <tag k="name" v="Seacoast Drive"/>
    <tag k="parking:both" v="no"/>
    <tag k="sidewalk:both" v="separate"/>
    <tag k="surface" v="asphalt"/>
    <tag k="tiger:cfcc" v="A41"/>
    <tag k="tiger:county" v="San Diego, CA"/>
    <tag k="tiger:name_base" v="Seacoast"/>
    <tag k="tiger:name_type" v="Dr"/>
    <tag k="tiger:reviewed" v="no"/>
  </way>
  <way id="1349742024" version="2" timestamp="2025-01-09T09:45:43Z" changeset="161159196" uid="22137982" user="TeeEn">
    <nd ref="7271153326"/>
    <nd ref="49485474"/>
    <tag k="highway" v="residential"/>
    <tag k="lane_markings" v="no"/>
    <tag k="maxspeed" v="25 mph"/>
    <tag k="name" v="Seacoast Drive"/>
    <tag k="parking:both" v="no"/>
    <tag k="sidewalk:both" v="separate"/>
    <tag k="surface" v="asphalt"/>
    <tag k="tiger:cfcc" v="A41"/>
    <tag k="tiger:county" v="San Diego, CA"/>
    <tag k="tiger:name_base" v="Seacoast"/>
    <tag k="tiger:name_type" v="Dr"/>
    <tag k="tiger:reviewed" v="no"/>
  </way>
  <way id="1349742025" version="2" timestamp="2025-01-09T09:45:34Z" changeset="161159196" uid="22137982" user="TeeEn">
    <nd ref="7271153323"/>
    <nd ref="49485474"/>
    <tag k="highway" v="residential"/>
    <tag k="lane_markings" v="no"/>
    <tag k="name" v="Palm Avenue"/>
    <tag k="parking:both" v="no"/>
    <tag k="sidewalk:both" v="separate"/>
    <tag k="surface" v="paving_stones"/>
    <tag k="tiger:cfcc" v="A41"/>
    <tag k="tiger:county" v="San Diego, CA"/>
    <tag k="tiger:name_base" v="Palm"/>
    <tag k="tiger:name_type" v="Ave"/>
    <tag k="tiger:reviewed" v="no"/>
  </way>
  <way id="1349742031" version="2" timestamp="2025-01-09T09:45:37Z" changeset="161159196" uid="22137982" user="TeeEn">
    <nd ref="49485474"/>
    <nd ref="7271153325"/>
    <nd ref="11785128122"/>
    <tag k="cycleway" v="shared_lane"/>
    <tag k="highway" v="tertiary"/>
    <tag k="name" v="Palm Avenue"/>
    <tag k="parking:both" v="no"/>
    <tag k="sidewalk:both" v="separate"/>
    <tag k="surface" v="asphalt"/>
    <tag k="tiger:cfcc" v="A41"/>
    <tag k="tiger:county" v="San Diego, CA"/>
    <tag k="tiger:name_base" v="Palm"/>
    <tag k="tiger:name_type" v="Ave"/>
    <tag k="tiger:reviewed" v="no"/>
  </way>
  <way id="1349742080" version="2" timestamp="2025-01-09T09:46:55Z" changeset="161159196" uid="22137982" user="TeeEn">
    <nd ref="49408682"/>
    <nd ref="11785128099"/>
    <tag k="highway" v="residential"/>
    <tag k="lanes" v="2"/>
    <tag k="name" v="2nd Street"/>
    <tag k="parking:both" v="no"/>
    <tag k="sidewalk:both" v="separate"/>
    <tag k="surface" v="asphalt"/>
    <tag k="tiger:cfcc" v="A41"/>
    <tag k="tiger:county" v="San Diego, CA"/>
    <tag k="tiger:name_base" v="2nd"/>
    <tag k="tiger:name_type" v="St"/>
  </way>
  <way id="1349742160" version="2" timestamp="2025-01-09T09:46:58Z" changeset="161159196" uid="22137982" user="TeeEn">
    <nd ref="7271153332"/>
    <nd ref="49408682"/>
    <nd ref="7271153330"/>
    <nd ref="11785128098"/>
    <tag k="cycleway" v="shared_lane"/>
    <tag k="highway" v="tertiary"/>
    <tag k="name" v="Palm Avenue"/>
    <tag k="parking:both" v="no"/>
    <tag k="sidewalk:both" v="separate"/>
    <tag k="surface" v="asphalt"/>
    <tag k="tiger:cfcc" v="A41"/>
    <tag k="tiger:county" v="San Diego, CA"/>
    <tag k="tiger:name_base" v="Palm"/>
    <tag k="tiger:name_type" v="Ave"/>
    <tag k="tiger:reviewed" v="no"/>
  </way>
  <way id="1349742161" version="1" timestamp="2025-01-09T09:46:53Z" changeset="161159196" uid="22137982" user="TeeEn">
    <nd ref="11785128098"/>
    <nd ref="7271153334"/>
    <nd ref="5530841435"/>
    <nd ref="12297132031"/>
    <nd ref="5530841445"/>
    <nd ref="49363219"/>
    <nd ref="5530841449"/>
    <nd ref="5530841430"/>
    <nd ref="5530841424"/>
    <nd ref="11785128071"/>
    <nd ref="49125909"/>
    <tag k="cycleway" v="shared_lane"/>
    <tag k="highway" v="tertiary"/>
    <tag k="name" v="Palm Avenue"/>
    <tag k="sidewalk:both" v="separate"/>
    <tag k="surface" v="asphalt"/>
    <tag k="tiger:cfcc" v="A41"/>
    <tag k="tiger:county" v="San Diego, CA"/>
    <tag k="tiger:name_base" v="Palm"/>
    <tag k="tiger:name_type" v="Ave"/>
    <tag k="tiger:reviewed" v="no"/>
  </way>

</osm>
