<?xml version="1.0" encoding="UTF-8"?>
<osm version="0.6" generator="Overpass API 0.7.62.5 1bd436f1">
<note>The data included in this document is from www.openstreetmap.org. The data is made available under ODbL.</note>
<meta osm_base="2025-04-26T08:38:26Z"/>

  <node id="234920" lat="53.3572679" lon="-2.3149671" version="2" timestamp="2009-05-15T21:41:59Z" changeset="1204362" uid="4559" user="RichardB"/>
  <node id="234924" lat="53.3593470" lon="-2.3014783" version="5" timestamp="2017-10-26T17:41:03Z" changeset="53269527" uid="735" user="blackadder">
    <tag k="highway" v="motorway_junction"/>
    <tag k="name" v="Hale Four Seasons"/>
    <tag k="ref" v="6"/>
  </node>
  <node id="234929" lat="53.3717169" lon="-2.2909552" version="7" timestamp="2017-12-01T20:48:32Z" changeset="54249224" uid="2773866" user="kreuzschnabel">
    <tag k="highway" v="motorway_junction"/>
    <tag k="name" v="Airport"/>
    <tag k="ref" v="5"/>
  </node>
  <node id="333971" lat="53.3571992" lon="-2.3134367" version="2" timestamp="2009-05-15T21:41:59Z" changeset="1204362" uid="4559" user="RichardB"/>
  <node id="20910572" lat="53.3708787" lon="-2.2809479" version="7" timestamp="2021-09-07T00:26:49Z" changeset="110823595" uid="1778799" user="SomeoneElse_Revert">
    <tag k="highway" v="motorway_junction"/>
    <tag k="name" v="Terminal 2"/>
  </node>
  <node id="20910602" lat="53.3703377" lon="-2.2805050" version="3" timestamp="2012-08-10T15:15:16Z" changeset="12681219" uid="114310" user="Joe E"/>
  <node id="20910603" lat="53.3783074" lon="-2.2815249" version="5" timestamp="2014-09-03T22:35:55Z" changeset="25216549" uid="24119" user="Mauls">
    <tag k="highway" v="motorway_junction"/>
    <tag k="name" v="Airport"/>
    <tag k="ref" v="5"/>
  </node>
  <node id="21672177" lat="53.3438245" lon="-2.2832750" version="4" timestamp="2019-09-24T15:30:42Z" changeset="74864940" uid="705850" user="Cebderby"/>
  <node id="21672180" lat="53.3459786" lon="-2.2873522" version="4" timestamp="2019-09-24T15:30:42Z" changeset="74864940" uid="705850" user="Cebderby"/>
  <node id="21672238" lat="53.3629136" lon="-2.2978128" version="6" timestamp="2022-06-17T22:48:52Z" changeset="122526539" uid="3336141" user="Fraham"/>
  <node id="21672247" lat="53.3629531" lon="-2.2964046" version="4" timestamp="2012-08-10T15:41:52Z" changeset="12681514" uid="114310" user="Joe E"/>
  <node id="21672256" lat="53.3621758" lon="-2.2948998" version="2" timestamp="2021-07-11T13:56:30Z" changeset="107783788" uid="13341565" user="Falsernet"/>
  <node id="21686833" lat="53.3737004" lon="-2.2892724" version="4" timestamp="2017-12-01T20:48:32Z" changeset="54249224" uid="2773866" user="kreuzschnabel"/>
  <node id="21727670" lat="53.3505611" lon="-2.3038388" version="1" timestamp="2007-09-07T00:51:06Z" changeset="378635" uid="4559" user="RichardB"/>
  <node id="59346866" lat="53.3728808" lon="-2.2905485" version="2" timestamp="2021-04-04T08:16:48Z" changeset="102260664" uid="6397757" user="TomJeffs"/>
  <node id="60168061" lat="53.3630797" lon="-2.2708738" version="3" timestamp="2012-03-18T19:40:42Z" changeset="11023129" uid="114310" user="Joe E"/>
  <node id="60168063" lat="53.3631494" lon="-2.2704401" version="3" timestamp="2010-10-05T17:37:50Z" changeset="5963207" uid="114310" user="Joe E"/>
  <node id="84949394" lat="53.3582782" lon="-2.3073770" version="5" timestamp="2022-11-30T17:56:20Z" changeset="129571122" uid="6397757" user="TomJeffs"/>
  <node id="191004376" lat="53.3708734" lon="-2.2803331" version="3" timestamp="2012-03-18T15:37:01Z" changeset="11020228" uid="114310" user="Joe E"/>
  <node id="360413350" lat="53.3505796" lon="-2.2691612" version="3" timestamp="2024-01-24T15:33:30Z" changeset="146634905" uid="198183" user="Loshu">
    <tag k="barrier" v="gate"/>
    <tag k="locked" v="yes"/>
    <tag k="ref" v="Crash Gate 4"/>
  </node>
  <node id="360994611" lat="53.3632415" lon="-2.2617499" version="3" timestamp="2021-11-23T22:57:23Z" changeset="114159359" uid="334129" user="murble"/>
  <node id="934825855" lat="53.3734098" lon="-2.2885364" version="3" timestamp="2017-12-01T20:48:33Z" changeset="54249224" uid="2773866" user="kreuzschnabel"/>
  <node id="936992679" lat="53.3629767" lon="-2.2682354" version="2" timestamp="2012-03-18T19:40:51Z" changeset="11023129" uid="114310" user="Joe E"/>
  <node id="1610739515" lat="53.3669825" lon="-2.2698560" version="6" timestamp="2021-04-01T07:59:41Z" changeset="102105255" uid="6397757" user="TomJeffs"/>
  <node id="5230167563" lat="53.3710900" lon="-2.2737093" version="3" timestamp="2020-11-18T13:46:53Z" changeset="94367924" uid="6397757" user="TomJeffs"/>
  <node id="5230167564" lat="53.3709054" lon="-2.2739027" version="6" timestamp="2024-04-29T11:34:47Z" changeset="150658717" uid="191786" user="Alexandre148025"/>
  <node id="5261016962" lat="53.3701560" lon="-2.2718144" version="6" timestamp="2022-06-13T01:02:49Z" changeset="122301696" uid="3336141" user="Fraham"/>
  <node id="9081932479" lat="53.3680971" lon="-2.2682266" version="1" timestamp="2021-09-11T13:00:48Z" changeset="111061218" uid="61942" user="SomeoneElse"/>
  <node id="9136491450" lat="53.3666474" lon="-2.2687422" version="1" timestamp="2021-10-01T01:03:00Z" changeset="111940067" uid="13341565" user="Falsernet"/>
  <way id="3991625" version="14" timestamp="2021-04-01T09:07:29Z" changeset="102110430" uid="6397757" user="TomJeffs">
    <nd ref="20910571"/>
    <nd ref="6716221067"/>
    <tag k="bridge" v="yes"/>
    <tag k="cycleway:left" v="track"/>
    <tag k="highway" v="tertiary"/>
    <tag k="junction" v="roundabout"/>
    <tag k="lanes" v="2"/>
    <tag k="layer" v="1"/>
    <tag k="lit" v="yes"/>
    <tag k="maxspeed" v="40 mph"/>
    <tag k="name" v="Terminal 2 Roundabout"/>
    <tag k="sidewalk" v="no"/>
    <tag k="smoothness" v="excellent"/>
    <tag k="source" v="GPS"/>
    <tag k="surface" v="paved"/>
  </way>
  <way id="3991626" version="26" timestamp="2024-09-04T10:44:48Z" changeset="156179783" uid="6397757" user="TomJeffs">
    <nd ref="1610739508"/>
    <nd ref="9546017530"/>
    <nd ref="937044047"/>
    <nd ref="20910600"/>
    <tag k="highway" v="tertiary"/>
    <tag k="lanes" v="2"/>
    <tag k="lit" v="yes"/>
    <tag k="maxspeed" v="70 mph"/>
    <tag k="name" v="Outwood Road"/>
    <tag k="national_highways:area" v="10"/>
    <tag k="oneway" v="yes"/>
    <tag k="operator" v="National Highways"/>
    <tag k="operator:wikidata" v="Q5760006"/>
  </way>
  <way id="3991628" version="20" timestamp="2024-03-20T19:59:46Z" changeset="148931877" uid="19756269" user="RyanBush">
    <nd ref="234929"/>
    <nd ref="5258369950"/>
    <nd ref="5258369951"/>
    <nd ref="934825799"/>
    <nd ref="5258369952"/>
    <nd ref="5258369953"/>
    <nd ref="20910589"/>
    <nd ref="5258369954"/>
    <nd ref="5258369955"/>
    <nd ref="934825921"/>
    <nd ref="20910588"/>
    <nd ref="5258369956"/>
    <nd ref="5258369957"/>
    <nd ref="934825907"/>
    <nd ref="5258369958"/>
    <nd ref="20910587"/>
    <nd ref="5258369959"/>
    <nd ref="934825892"/>
    <nd ref="5258369960"/>
    <nd ref="934825874"/>
    <nd ref="5258369961"/>
    <nd ref="20910586"/>
    <nd ref="5258369962"/>
    <nd ref="934825852"/>
    <nd ref="5258369963"/>
    <nd ref="5258369964"/>
    <nd ref="20910585"/>
    <nd ref="5258369965"/>
    <nd ref="5258369966"/>
    <nd ref="934825825"/>
    <nd ref="5258369967"/>
    <nd ref="20910584"/>
    <nd ref="5258369968"/>
    <nd ref="934825795"/>
    <nd ref="5258369969"/>
    <nd ref="20910583"/>
    <tag k="destination" v="Manchester Airport"/>
    <tag k="highway" v="motorway_link"/>
    <tag k="lanes" v="2"/>
    <tag k="lit" v="yes"/>
    <tag k="maxspeed" v="70 mph"/>
    <tag k="national_highways:area" v="10"/>
    <tag k="oneway" v="yes"/>
    <tag k="operator" v="National Highways"/>
    <tag k="operator:wikidata" v="Q5760006"/>
    <tag k="ref" v="M56"/>
    <tag k="surface" v="asphalt"/>
  </way>
  <way id="3991967" version="20" timestamp="2022-10-28T19:13:44Z" changeset="128188142" uid="13666626" user="RedAuburn">
    <nd ref="21673921"/>
    <nd ref="1860382360"/>
    <nd ref="1860382354"/>
    <tag k="bicycle" v="no"/>
    <tag k="carriageway_ref" v="A"/>
    <tag k="highway" v="motorway"/>
    <tag k="lanes" v="3"/>
    <tag k="lit" v="yes"/>
    <tag k="maxspeed" v="70 mph"/>
    <tag k="maxspeed:type" v="GB:motorway"/>
    <tag k="national_highways:area" v="10"/>
    <tag k="oneway" v="yes"/>
    <tag k="operator" v="National Highways"/>
    <tag k="operator:wikidata" v="Q5760006"/>
    <tag k="ref" v="M56"/>
    <tag k="surface" v="asphalt"/>
  </way>
  <way id="4083123" version="7" timestamp="2019-05-05T12:32:24Z" changeset="69903167" uid="8571542" user="Merzof">
    <nd ref="21672178"/>
    <nd ref="379771746"/>
    <tag k="bicycle" v="yes"/>
    <tag k="highway" v="trunk"/>
    <tag k="lanes" v="2"/>
    <tag k="lit" v="yes"/>
    <tag k="maxspeed" v="50 mph"/>
    <tag k="name" v="Wilmslow Road"/>
    <tag k="oneway" v="yes"/>
    <tag k="ref" v="A538"/>
  </way>
  <way id="4083124" version="7" timestamp="2019-09-24T15:30:42Z" changeset="74864940" uid="705850" user="Cebderby">
    <nd ref="21672180"/>
    <nd ref="21672183"/>
    <nd ref="310482596"/>
    <nd ref="379771747"/>
    <nd ref="21672184"/>
    <tag k="bicycle" v="yes"/>
    <tag k="highway" v="trunk"/>
    <tag k="lanes" v="2"/>
    <tag k="lit" v="yes"/>
    <tag k="maxspeed" v="50 mph"/>
    <tag k="name" v="Wilmslow Road"/>
    <tag k="oneway" v="yes"/>
    <tag k="ref" v="A538"/>
  </way>
  <way id="4083125" version="8" timestamp="2020-04-04T16:53:17Z" changeset="83076839" uid="3549690" user="wormitok">
    <nd ref="21672177"/>
    <nd ref="310482606"/>
    <nd ref="21673912"/>
    <nd ref="310482599"/>
    <nd ref="21672178"/>
    <tag k="bicycle" v="yes"/>
    <tag k="highway" v="trunk"/>
    <tag k="lanes" v="2"/>
    <tag k="layer" v="-1"/>
    <tag k="lit" v="yes"/>
    <tag k="maxspeed" v="50 mph"/>
    <tag k="name" v="Wilmslow Road"/>
    <tag k="oneway" v="yes"/>
    <tag k="ref" v="A538"/>
    <tag k="source" v="OS-OpenData_StreetView"/>
    <tag k="tunnel" v="yes"/>
    <tag k="tunnel:ref" v="1"/>
  </way>
  <way id="4083127" version="7" timestamp="2019-09-24T15:30:42Z" changeset="74864940" uid="705850" user="Cebderby">
    <nd ref="6820604580"/>
    <nd ref="310482576"/>
    <tag k="highway" v="trunk"/>
    <tag k="lanes" v="2"/>
    <tag k="lit" v="yes"/>
    <tag k="maxspeed" v="50 mph"/>
    <tag k="name" v="Wilmslow Road"/>
    <tag k="oneway" v="yes"/>
    <tag k="ref" v="A538"/>
    <tag k="turn:lanes" v="none|merge_to_left"/>
  </way>
  <way id="4083128" version="8" timestamp="2025-04-26T09:25:13Z" changeset="165455602" uid="5229644" user="Nathan_A_RF">
    <nd ref="21672189"/>
    <nd ref="934830752"/>
    <nd ref="12787701864"/>
    <nd ref="310482575"/>
    <nd ref="21672188"/>
    <nd ref="6820604579"/>
    <tag k="highway" v="trunk"/>
    <tag k="lit" v="yes"/>
    <tag k="maxspeed" v="50 mph"/>
    <tag k="name" v="Wilmslow Road"/>
    <tag k="oneway" v="yes"/>
    <tag k="ref" v="A538"/>
  </way>
  <way id="4083129" version="8" timestamp="2020-04-04T16:53:17Z" changeset="83076839" uid="3549690" user="wormitok">
    <nd ref="21672181"/>
    <nd ref="21673916"/>
    <nd ref="310482591"/>
    <nd ref="21673918"/>
    <nd ref="310482585"/>
    <nd ref="310482581"/>
    <nd ref="21673914"/>
    <nd ref="6820604580"/>
    <tag k="bicycle" v="yes"/>
    <tag k="highway" v="trunk"/>
    <tag k="lanes" v="2"/>
    <tag k="layer" v="-1"/>
    <tag k="lit" v="yes"/>
    <tag k="maxspeed" v="50 mph"/>
    <tag k="name" v="Wilmslow Road"/>
    <tag k="oneway" v="yes"/>
    <tag k="ref" v="A538"/>
    <tag k="tunnel" v="yes"/>
    <tag k="tunnel:ref" v="2"/>
  </way>
  <way id="4083130" version="8" timestamp="2020-04-04T16:53:17Z" changeset="83076839" uid="3549690" user="wormitok">
    <nd ref="6820604579"/>
    <nd ref="21673915"/>
    <nd ref="310482578"/>
    <nd ref="310482584"/>
    <nd ref="21673919"/>
    <nd ref="310482588"/>
    <nd ref="21673917"/>
    <nd ref="21672180"/>
    <tag k="bicycle" v="yes"/>
    <tag k="highway" v="trunk"/>
    <tag k="lanes" v="2"/>
    <tag k="layer" v="-1"/>
    <tag k="lit" v="yes"/>
    <tag k="maxspeed" v="50 mph"/>
    <tag k="name" v="Wilmslow Road"/>
    <tag k="oneway" v="yes"/>
    <tag k="ref" v="A538"/>
    <tag k="tunnel" v="yes"/>
    <tag k="tunnel:ref" v="3"/>
  </way>
  <way id="4083137" version="10" timestamp="2021-07-11T13:56:30Z" changeset="107783788" uid="13341565" user="Falsernet">
    <nd ref="8911528193"/>
    <nd ref="360913531"/>
    <nd ref="21672257"/>
    <tag k="bicycle" v="yes"/>
    <tag k="highway" v="trunk"/>
    <tag k="lit" v="yes"/>
    <tag k="maxspeed" v="40 mph"/>
    <tag k="name" v="Wilmslow Road"/>
    <tag k="oneway" v="yes"/>
    <tag k="ref" v="A538"/>
  </way>
  <way id="4083138" version="8" timestamp="2023-03-20T23:54:52Z" changeset="133919360" uid="13341565" user="Falsernet">
    <nd ref="21672231"/>
    <nd ref="1860382327"/>
    <nd ref="21672237"/>
    <nd ref="10749574460"/>
    <nd ref="360913542"/>
    <nd ref="21672257"/>
    <tag k="bicycle" v="yes"/>
    <tag k="highway" v="trunk_link"/>
    <tag k="lit" v="yes"/>
    <tag k="maxspeed" v="40 mph"/>
    <tag k="oneway" v="yes"/>
  </way>
  <way id="4083139" version="5" timestamp="2022-10-03T15:10:31Z" changeset="126943217" uid="4078654" user="currybum">
    <nd ref="21672224"/>
    <nd ref="934825859"/>
    <nd ref="21672256"/>
    <tag k="bicycle" v="yes"/>
    <tag k="highway" v="trunk_link"/>
    <tag k="lit" v="yes"/>
    <tag k="maxspeed" v="40 mph"/>
    <tag k="oneway" v="yes"/>
    <tag k="surface" v="asphalt"/>
  </way>
  <way id="4083140" version="7" timestamp="2022-10-03T15:10:31Z" changeset="126943217" uid="4078654" user="currybum">
    <nd ref="21672255"/>
    <nd ref="1860382334"/>
    <nd ref="8911528198"/>
    <nd ref="934825868"/>
    <nd ref="21672227"/>
    <tag k="bicycle" v="yes"/>
    <tag k="highway" v="trunk_link"/>
    <tag k="lit" v="yes"/>
    <tag k="maxspeed" v="40 mph"/>
    <tag k="oneway" v="yes"/>
    <tag k="surface" v="asphalt"/>
  </way>
  <way id="4083142" version="12" timestamp="2022-10-03T15:10:31Z" changeset="126943217" uid="4078654" user="currybum">
    <nd ref="364510547"/>
    <nd ref="21672236"/>
    <nd ref="21672234"/>
    <nd ref="8911528192"/>
    <tag k="bicycle" v="yes"/>
    <tag k="cycleway:left" v="lane"/>
    <tag k="highway" v="trunk"/>
    <tag k="lanes" v="3"/>
    <tag k="maxspeed" v="40 mph"/>
    <tag k="name" v="Wilmslow Road"/>
    <tag k="oneway" v="yes"/>
    <tag k="ref" v="A538"/>
    <tag k="surface" v="asphalt"/>
  </way>
  <way id="4083144" version="15" timestamp="2024-03-20T19:59:46Z" changeset="148931877" uid="19756269" user="RyanBush">
    <nd ref="21673921"/>
    <nd ref="1860382364"/>
    <nd ref="1860382352"/>
    <tag k="bicycle" v="no"/>
    <tag k="destination" v="Wilmslow;Hale;Macclesfield"/>
    <tag k="destination:ref" v="A538;(A537)"/>
    <tag k="highway" v="motorway_link"/>
    <tag k="lanes" v="1"/>
    <tag k="lit" v="yes"/>
    <tag k="maxspeed" v="70 mph"/>
    <tag k="national_highways:area" v="10"/>
    <tag k="oneway" v="yes"/>
    <tag k="operator" v="National Highways"/>
    <tag k="operator:wikidata" v="Q5760006"/>
    <tag k="ref" v="M56"/>
    <tag k="source" v="Bing"/>
    <tag k="surface" v="asphalt"/>
  </way>
  <way id="4083145" version="15" timestamp="2024-03-20T19:59:46Z" changeset="148931877" uid="19756269" user="RyanBush">
    <nd ref="21672222"/>
    <nd ref="310480176"/>
    <nd ref="934825871"/>
    <nd ref="21672267"/>
    <nd ref="21672268"/>
    <nd ref="310480175"/>
    <nd ref="21672269"/>
    <nd ref="310480174"/>
    <nd ref="21672270"/>
    <nd ref="21672271"/>
    <nd ref="310480173"/>
    <nd ref="21672272"/>
    <nd ref="310480172"/>
    <nd ref="21672273"/>
    <nd ref="21672335"/>
    <nd ref="21672334"/>
    <nd ref="21672333"/>
    <nd ref="5191552114"/>
    <nd ref="333974"/>
    <tag k="bicycle" v="no"/>
    <tag k="destination" v="Warrington;Chester;North &amp; South"/>
    <tag k="destination:ref" v="M56;(M6)"/>
    <tag k="highway" v="motorway_link"/>
    <tag k="lit" v="yes"/>
    <tag k="maxspeed" v="70 mph"/>
    <tag k="national_highways:area" v="10"/>
    <tag k="oneway" v="yes"/>
    <tag k="operator" v="National Highways"/>
    <tag k="operator:wikidata" v="Q5760006"/>
    <tag k="ref" v="M56"/>
    <tag k="surface" v="asphalt"/>
  </way>
  <way id="4083146" version="14" timestamp="2024-11-17T19:24:05Z" changeset="159256173" uid="10769342" user="Paul Scriven">
    <nd ref="234924"/>
    <nd ref="5191552112"/>
    <nd ref="5191552111"/>
    <nd ref="1860382320"/>
    <nd ref="21672287"/>
    <nd ref="1860382321"/>
    <nd ref="21672289"/>
    <nd ref="21672291"/>
    <nd ref="21672311"/>
    <nd ref="21672312"/>
    <nd ref="21672324"/>
    <nd ref="21672323"/>
    <nd ref="21672322"/>
    <nd ref="1860382350"/>
    <nd ref="21672321"/>
    <nd ref="21672240"/>
    <tag k="bicycle" v="no"/>
    <tag k="destination" v="Hale;Wilmslow;Macclesfield"/>
    <tag k="destination:ref" v="A538;(A537)"/>
    <tag k="foot" v="no"/>
    <tag k="highway" v="motorway_link"/>
    <tag k="horse" v="no"/>
    <tag k="lanes" v="2"/>
    <tag k="lit" v="yes"/>
    <tag k="maxspeed" v="70 mph"/>
    <tag k="motor_vehicle" v="yes"/>
    <tag k="national_highways:area" v="10"/>
    <tag k="oneway" v="yes"/>
    <tag k="operator" v="National Highways"/>
    <tag k="operator:wikidata" v="Q5760006"/>
    <tag k="ref" v="M56"/>
    <tag k="surface" v="asphalt"/>
  </way>
  <way id="4083147" version="15" timestamp="2024-03-20T19:59:46Z" changeset="148931877" uid="19756269" user="RyanBush">
    <nd ref="21672238"/>
    <nd ref="21672328"/>
    <nd ref="310479922"/>
    <nd ref="21672327"/>
    <nd ref="310479923"/>
    <nd ref="21672326"/>
    <nd ref="310479924"/>
    <nd ref="21672325"/>
    <nd ref="21672313"/>
    <nd ref="310479925"/>
    <nd ref="21672314"/>
    <nd ref="310479926"/>
    <nd ref="310479927"/>
    <nd ref="21672315"/>
    <nd ref="310479928"/>
    <nd ref="21672316"/>
    <nd ref="310479929"/>
    <nd ref="310479930"/>
    <nd ref="21672330"/>
    <nd ref="310479933"/>
    <nd ref="21673920"/>
    <tag k="bicycle" v="no"/>
    <tag k="destination" v="Manchester"/>
    <tag k="destination:ref" v="M56"/>
    <tag k="highway" v="motorway_link"/>
    <tag k="lanes" v="1"/>
    <tag k="lit" v="yes"/>
    <tag k="maxspeed" v="70 mph"/>
    <tag k="national_highways:area" v="10"/>
    <tag k="oneway" v="yes"/>
    <tag k="operator" v="National Highways"/>
    <tag k="operator:wikidata" v="Q5760006"/>
    <tag k="ref" v="M56"/>
    <tag k="surface" v="asphalt"/>
  </way>
  <way id="4083148" version="10" timestamp="2025-04-25T17:49:31Z" changeset="165436185" uid="20016031" user="HeadedBranch">
    <nd ref="21672256"/>
    <nd ref="21672254"/>
    <nd ref="4471905292"/>
    <nd ref="21672252"/>
    <nd ref="21672248"/>
    <tag k="bicycle" v="yes"/>
    <tag k="highway" v="trunk"/>
    <tag k="lit" v="yes"/>
    <tag k="maxheight:signed" v="no"/>
    <tag k="maxspeed" v="40 mph"/>
    <tag k="name" v="Wilmslow Road"/>
    <tag k="oneway" v="yes"/>
    <tag k="ref" v="A538"/>
    <tag k="surface" v="asphalt"/>
  </way>
  <way id="4085313" version="17" timestamp="2024-03-20T19:59:46Z" changeset="148931877" uid="19756269" user="RyanBush">
    <nd ref="20910592"/>
    <nd ref="21686832"/>
    <nd ref="934825855"/>
    <tag k="destination" v="Manchester;Stockport;Sheffield;Leeds;Bolton"/>
    <tag k="destination:ref" v="M56;(M60);(M67);(M62);(M61)"/>
    <tag k="highway" v="motorway_link"/>
    <tag k="lanes" v="2"/>
    <tag k="lit" v="yes"/>
    <tag k="maxspeed" v="70 mph"/>
    <tag k="national_highways:area" v="10"/>
    <tag k="oneway" v="yes"/>
    <tag k="operator" v="National Highways"/>
    <tag k="operator:wikidata" v="Q5760006"/>
    <tag k="ref" v="M56"/>
    <tag k="surface" v="asphalt"/>
  </way>
  <way id="4085314" version="17" timestamp="2024-10-11T22:10:58Z" changeset="157774959" uid="5229644" user="Nathan_A_RF">
    <nd ref="20910568"/>
    <nd ref="938644287"/>
    <nd ref="21686830"/>
    <nd ref="936992781"/>
    <nd ref="1860361297"/>
    <nd ref="1860361306"/>
    <nd ref="20910602"/>
    <tag k="highway" v="motorway_link"/>
    <tag k="lanes" v="1"/>
    <tag k="lit" v="yes"/>
    <tag k="maxspeed" v="70 mph"/>
    <tag k="maxspeed:type" v="GB:motorway"/>
    <tag k="national_highways:area" v="10"/>
    <tag k="oneway" v="yes"/>
    <tag k="operator" v="National Highways"/>
    <tag k="operator:wikidata" v="Q5760006"/>
    <tag k="ref" v="M56"/>
  </way>
  <way id="4085315" version="17" timestamp="2024-10-11T22:10:58Z" changeset="157774959" uid="5229644" user="Nathan_A_RF">
    <nd ref="20910572"/>
    <nd ref="1860361310"/>
    <nd ref="1860361304"/>
    <nd ref="1860361299"/>
    <nd ref="936992813"/>
    <nd ref="1860361296"/>
    <nd ref="21686831"/>
    <nd ref="938644120"/>
    <nd ref="1860361295"/>
    <nd ref="936992830"/>
    <nd ref="20910565"/>
    <tag k="highway" v="motorway_link"/>
    <tag k="lanes" v="2"/>
    <tag k="lit" v="yes"/>
    <tag k="maxspeed" v="70 mph"/>
    <tag k="maxspeed:type" v="GB:motorway"/>
    <tag k="national_highways:area" v="10"/>
    <tag k="oneway" v="yes"/>
    <tag k="operator" v="National Highways"/>
    <tag k="operator:wikidata" v="Q5760006"/>
    <tag k="ref" v="M56"/>
  </way>
  <way id="4709935" version="8" timestamp="2022-03-02T17:47:34Z" changeset="118028360" uid="8571542" user="Merzof">
    <nd ref="21672258"/>
    <nd ref="8911528194"/>
    <nd ref="310480179"/>
    <nd ref="9550271874"/>
    <nd ref="1860382323"/>
    <nd ref="21672221"/>
    <tag k="bicycle" v="yes"/>
    <tag k="highway" v="trunk_link"/>
    <tag k="maxspeed" v="40 mph"/>
    <tag k="oneway" v="yes"/>
  </way>
  <way id="5747521" version="10" timestamp="2025-04-26T09:25:13Z" changeset="165455602" uid="5229644" user="Nathan_A_RF">
    <nd ref="21727671"/>
    <nd ref="21727672"/>
    <nd ref="5032232920"/>
    <nd ref="373473659"/>
    <nd ref="21727673"/>
    <nd ref="5032234321"/>
    <nd ref="21727674"/>
    <nd ref="11936656789"/>
    <nd ref="5032234322"/>
    <nd ref="11936656801"/>
    <nd ref="11936656798"/>
    <nd ref="21727675"/>
    <nd ref="11936656804"/>
    <nd ref="5032234323"/>
    <nd ref="21727676"/>
    <nd ref="5032234324"/>
    <nd ref="21727677"/>
    <nd ref="5032234325"/>
    <nd ref="21727678"/>
    <nd ref="21727679"/>
    <nd ref="379535795"/>
    <nd ref="379535805"/>
    <nd ref="21727680"/>
    <nd ref="5032234326"/>
    <nd ref="21727681"/>
    <nd ref="21727682"/>
    <nd ref="5032234327"/>
    <nd ref="21727683"/>
    <nd ref="11936656814"/>
    <nd ref="7904183287"/>
    <nd ref="21727688"/>
    <nd ref="11936656819"/>
    <nd ref="21727693"/>
    <nd ref="8500419295"/>
    <nd ref="21727699"/>
    <nd ref="21727705"/>
    <nd ref="5032234328"/>
    <nd ref="21727709"/>
    <nd ref="5032234329"/>
    <nd ref="21727716"/>
    <nd ref="360913197"/>
    <nd ref="10223290204"/>
    <nd ref="12787701866"/>
    <tag k="highway" v="tertiary"/>
    <tag k="name" v="Mill Lane"/>
  </way>
  <way id="5747528" version="2" timestamp="2014-08-17T19:32:45Z" changeset="24817066" uid="1723996" user="Prophet99">
    <nd ref="21727670"/>
    <nd ref="3023096013"/>
    <nd ref="21727671"/>
    <tag k="bridge" v="yes"/>
    <tag k="highway" v="tertiary"/>
    <tag k="layer" v="1"/>
  </way>
  <way id="7426588" version="8" timestamp="2022-07-23T01:15:52Z" changeset="123959663" uid="13341565" user="Falsernet">
    <nd ref="21672228"/>
    <nd ref="934825842"/>
    <nd ref="6412435560"/>
    <nd ref="1860382333"/>
    <nd ref="934825811"/>
    <nd ref="21672342"/>
    <tag k="highway" v="tertiary"/>
    <tag k="lanes" v="1"/>
    <tag k="lit" v="yes"/>
    <tag k="maxspeed" v="30 mph"/>
    <tag k="name" v="Runger Lane"/>
    <tag k="oneway" v="yes"/>
  </way>
  <way id="7426590" version="9" timestamp="2022-07-23T01:15:52Z" changeset="123959663" uid="13341565" user="Falsernet">
    <nd ref="21672342"/>
    <nd ref="1860382335"/>
    <nd ref="934825924"/>
    <nd ref="6412435562"/>
    <nd ref="934825911"/>
    <nd ref="8911528195"/>
    <tag k="highway" v="tertiary"/>
    <tag k="lit" v="yes"/>
    <tag k="maxspeed" v="30 mph"/>
    <tag k="name" v="Runger Lane"/>
    <tag k="oneway" v="yes"/>
  </way>
  <way id="7426593" version="8" timestamp="2019-04-17T17:29:30Z" changeset="69318263" uid="111135" user="Pete Owens">
    <nd ref="21672342"/>
    <nd ref="21672343"/>
    <nd ref="934848096"/>
    <nd ref="54857462"/>
    <tag k="highway" v="tertiary"/>
    <tag k="lanes" v="2"/>
    <tag k="lit" v="yes"/>
    <tag k="maxspeed" v="30 mph"/>
    <tag k="name" v="Runger Lane"/>
    <tag k="source" v="GPS survey"/>
    <tag k="surface" v="paved"/>
  </way>
  <way id="7621301" version="2" timestamp="2010-10-06T12:08:57Z" changeset="5968515" uid="114310" user="Joe E">
    <nd ref="55203072"/>
    <nd ref="55203073"/>
    <nd ref="55203075"/>
    <nd ref="55203178"/>
    <tag k="access" v="no"/>
    <tag k="highway" v="residential"/>
    <tag k="lanes" v="2"/>
    <tag k="motorcar" v="destination"/>
    <tag k="motorcycle" v="destination"/>
    <tag k="name" v="Hasty Lane"/>
    <tag k="vehicle" v="destination"/>
  </way>
  <way id="7955003" version="9" timestamp="2025-04-14T12:42:12Z" changeset="164937412" uid="22685556" user="AH9999">
    <nd ref="59346867"/>
    <nd ref="59346868"/>
    <nd ref="59346869"/>
    <nd ref="4471899755"/>
    <nd ref="1860382411"/>
    <nd ref="54857497"/>
    <tag k="highway" v="tertiary"/>
    <tag k="lanes" v="2"/>
    <tag k="lit" v="no"/>
    <tag k="maxspeed" v="60 mph"/>
    <tag k="maxspeed:type" v="GB:nsl_single"/>
    <tag k="name" v="Thorley Lane"/>
    <tag k="sidewalk" v="left"/>
    <tag k="surface" v="paved"/>
  </way>
  <way id="7955005" version="9" timestamp="2025-04-25T16:45:35Z" changeset="165433757" uid="5229644" user="Nathan_A_RF">
    <nd ref="59346866"/>
    <nd ref="59346867"/>
    <tag k="bridge" v="yes"/>
    <tag k="highway" v="tertiary"/>
    <tag k="lanes" v="2"/>
    <tag k="layer" v="1"/>
    <tag k="lit" v="no"/>
    <tag k="maxspeed" v="60 mph"/>
    <tag k="maxspeed:type" v="GB:nsl_single"/>
    <tag k="name" v="Thorley Lane"/>
    <tag k="sidewalk" v="both"/>
    <tag k="surface" v="paved"/>
  </way>
  <way id="7955031" version="10" timestamp="2021-04-04T08:16:48Z" changeset="102260664" uid="6397757" user="TomJeffs">
    <nd ref="54857497"/>
    <nd ref="939142664"/>
    <nd ref="54857498"/>
    <nd ref="1860382412"/>
    <nd ref="54857502"/>
    <nd ref="8584289128"/>
    <nd ref="54857505"/>
    <nd ref="360924402"/>
    <nd ref="54857506"/>
    <nd ref="8584289127"/>
    <nd ref="360924404"/>
    <nd ref="360924405"/>
    <nd ref="8591947459"/>
    <nd ref="54857509"/>
    <tag k="cycleway:right" v="track"/>
    <tag k="highway" v="tertiary"/>
    <tag k="maxspeed" v="30 mph"/>
    <tag k="name" v="Thorley Lane"/>
  </way>
  <way id="7955094" version="8" timestamp="2019-04-17T17:29:31Z" changeset="69318263" uid="111135" user="Pete Owens">
    <nd ref="59348930"/>
    <nd ref="59348931"/>
    <nd ref="4718668750"/>
    <nd ref="59348932"/>
    <nd ref="5261017012"/>
    <nd ref="59348933"/>
    <nd ref="59348934"/>
    <nd ref="5261017009"/>
    <nd ref="360898282"/>
    <nd ref="5261017011"/>
    <nd ref="59348936"/>
    <tag k="highway" v="tertiary"/>
    <tag k="lanes" v="2"/>
    <tag k="maxspeed" v="30 mph"/>
    <tag k="name" v="Thorley Lane"/>
    <tag k="source" v="GPS"/>
  </way>
  <way id="7955099" version="3" timestamp="2019-04-17T17:29:30Z" changeset="69318263" uid="111135" user="Pete Owens">
    <nd ref="59348929"/>
    <nd ref="59348930"/>
    <tag k="bridge" v="yes"/>
    <tag k="highway" v="tertiary"/>
    <tag k="layer" v="1"/>
    <tag k="maxspeed" v="30 mph"/>
    <tag k="name" v="Thorley Lane"/>
  </way>
  <way id="7993874" version="10" timestamp="2019-08-16T17:30:24Z" changeset="73424881" uid="4948143" user="doublah">
    <nd ref="21686824"/>
    <nd ref="1860361284"/>
    <nd ref="191002735"/>
    <nd ref="1680589382"/>
    <nd ref="936992775"/>
    <nd ref="21686821"/>
    <nd ref="1860361288"/>
    <nd ref="936992765"/>
    <nd ref="20910570"/>
    <tag k="highway" v="unclassified"/>
    <tag k="lanes" v="2"/>
    <tag k="lit" v="yes"/>
    <tag k="maxspeed" v="30 mph"/>
    <tag k="name" v="World Way"/>
    <tag k="oneway" v="yes"/>
    <tag k="sidewalk" v="no"/>
    <tag k="surface" v="paved"/>
  </way>
  <way id="7993875" version="13" timestamp="2021-04-03T12:23:31Z" changeset="102233911" uid="6397757" user="TomJeffs">
    <nd ref="20910561"/>
    <nd ref="936992915"/>
    <nd ref="21686822"/>
    <nd ref="1680589422"/>
    <nd ref="1860361285"/>
    <nd ref="191002424"/>
    <nd ref="1680007592"/>
    <nd ref="21686825"/>
    <tag k="cycleway:left" v="track"/>
    <tag k="highway" v="unclassified"/>
    <tag k="lanes" v="2"/>
    <tag k="lit" v="yes"/>
    <tag k="maxspeed" v="30 mph"/>
    <tag k="name" v="World Way"/>
    <tag k="oneway" v="yes"/>
    <tag k="sidewalk" v="no"/>
    <tag k="surface" v="paved"/>
  </way>
  <way id="7993876" version="14" timestamp="2021-10-20T18:11:14Z" changeset="112756856" uid="8571542" user="Merzof">
    <nd ref="21686826"/>
    <nd ref="847553618"/>
    <nd ref="21686827"/>
    <nd ref="191001328"/>
    <nd ref="847553619"/>
    <tag k="foot" v="no"/>
    <tag k="highway" v="unclassified"/>
    <tag k="junction" v="roundabout"/>
    <tag k="lanes" v="2"/>
    <tag k="maxspeed" v="30 mph"/>
    <tag k="name" v="World Way"/>
    <tag k="surface" v="paved"/>
  </way>
  <way id="8046184" version="7" timestamp="2019-09-17T09:23:38Z" changeset="74567084" uid="4948143" user="doublah">
    <nd ref="1680588992"/>
    <nd ref="60168067"/>
    <nd ref="60168068"/>
    <nd ref="60168069"/>
    <nd ref="936992851"/>
    <nd ref="1680589021"/>
    <nd ref="1680589031"/>
    <nd ref="60168060"/>
    <nd ref="60168061"/>
    <tag k="highway" v="tertiary"/>
    <tag k="junction" v="roundabout"/>
  </way>
  <way id="8046189" version="24" timestamp="2024-10-11T22:10:58Z" changeset="157774959" uid="5229644" user="Nathan_A_RF">
    <nd ref="1860361292"/>
    <nd ref="1610739574"/>
    <nd ref="1610739568"/>
    <tag k="highway" v="motorway"/>
    <tag k="lanes" v="2"/>
    <tag k="maxspeed" v="70 mph"/>
    <tag k="maxspeed:type" v="GB:motorway"/>
    <tag k="national_highways:area" v="10"/>
    <tag k="oneway" v="yes"/>
    <tag k="operator" v="National Highways"/>
    <tag k="operator:wikidata" v="Q5760006"/>
    <tag k="ref" v="M56"/>
    <tag k="source" v="GPS"/>
    <tag k="surface" v="asphalt"/>
  </way>
  <way id="8046209" version="17" timestamp="2023-08-26T13:35:16Z" changeset="140412358" uid="12992" user="trigpoint">
    <nd ref="1610739543"/>
    <nd ref="9546017547"/>
    <nd ref="9546017548"/>
    <nd ref="1680589420"/>
    <nd ref="6820259773"/>
    <nd ref="1610739521"/>
    <tag k="highway" v="tertiary"/>
    <tag k="lit" v="yes"/>
    <tag k="maxspeed" v="30 mph"/>
    <tag k="oneway" v="yes"/>
  </way>
  <way id="10248785" version="5" timestamp="2024-11-17T19:23:42Z" changeset="159256122" uid="10769342" user="Paul Scriven">
    <nd ref="84949394"/>
    <nd ref="84949395"/>
    <tag k="bridge" v="yes"/>
    <tag k="highway" v="tertiary"/>
    <tag k="layer" v="1"/>
    <tag k="lit" v="no"/>
    <tag k="name" v="Chapel Lane"/>
  </way>
  <way id="10248786" version="3" timestamp="2024-11-17T19:23:46Z" changeset="159256122" uid="10769342" user="Paul Scriven">
    <nd ref="84949395"/>
    <nd ref="24969908"/>
    <tag k="highway" v="tertiary"/>
    <tag k="lit" v="no"/>
    <tag k="name" v="Chapel Lane"/>
  </way>
  <way id="18515210" version="12" timestamp="2022-06-17T22:48:52Z" changeset="122526539" uid="3336141" user="Fraham">
    <nd ref="5559007537"/>
    <nd ref="9826553130"/>
    <nd ref="9826553131"/>
    <nd ref="936992827"/>
    <nd ref="936992846"/>
    <nd ref="9826553137"/>
    <nd ref="9826553138"/>
    <nd ref="190999340"/>
    <nd ref="190999341"/>
    <nd ref="190999342"/>
    <nd ref="1680007950"/>
    <nd ref="7414307874"/>
    <nd ref="7414307872"/>
    <nd ref="7414307881"/>
    <nd ref="7414307877"/>
    <nd ref="1680007942"/>
    <tag k="highway" v="unclassified"/>
    <tag k="lanes" v="2"/>
    <tag k="name" v="Palma Avenue"/>
    <tag k="oneway" v="yes"/>
    <tag k="sidewalk" v="no"/>
    <tag k="source" v="GPS survey"/>
    <tag k="surface" v="paved"/>
  </way>
  <way id="18515267" version="15" timestamp="2020-04-17T11:12:37Z" changeset="83703019" uid="705850" user="Cebderby">
    <nd ref="847553619"/>
    <nd ref="1680007547"/>
    <nd ref="937825036"/>
    <nd ref="937825853"/>
    <nd ref="937824502"/>
    <nd ref="1680007576"/>
    <nd ref="937825424"/>
    <nd ref="937825653"/>
    <nd ref="1680007623"/>
    <nd ref="937826036"/>
    <nd ref="937826393"/>
    <nd ref="1680912999"/>
    <nd ref="190999727"/>
    <nd ref="1680913002"/>
    <nd ref="190999729"/>
    <nd ref="190999730"/>
    <nd ref="190999731"/>
    <nd ref="190999732"/>
    <nd ref="190999733"/>
    <nd ref="937622389"/>
    <nd ref="937622458"/>
    <nd ref="7414307879"/>
    <nd ref="7414316390"/>
    <nd ref="5608972633"/>
    <tag k="foot" v="no"/>
    <tag k="highway" v="unclassified"/>
    <tag k="lanes" v="2"/>
    <tag k="name" v="Palma Avenue"/>
    <tag k="oneway" v="yes"/>
    <tag k="sidewalk" v="no"/>
    <tag k="surface" v="paved"/>
  </way>
  <way id="18515332" version="8" timestamp="2019-09-17T09:23:38Z" changeset="74567084" uid="4948143" user="doublah">
    <nd ref="191000017"/>
    <nd ref="191000018"/>
    <nd ref="191000019"/>
    <nd ref="191000020"/>
    <nd ref="937825012"/>
    <tag k="foot" v="no"/>
    <tag k="highway" v="unclassified"/>
    <tag k="lanes" v="2"/>
    <tag k="name" v="Atlanta Avenue"/>
    <tag k="oneway" v="yes"/>
    <tag k="sidewalk" v="no"/>
    <tag k="source" v="GPS survey"/>
  </way>
  <way id="18515398" version="17" timestamp="2024-03-09T21:48:55Z" changeset="148441282" uid="626077" user="Chris Malkin">
    <nd ref="191000335"/>
    <nd ref="5653587633"/>
    <nd ref="1680007822"/>
    <nd ref="191000024"/>
    <nd ref="5653587631"/>
    <nd ref="1680913020"/>
    <nd ref="5338558786"/>
    <nd ref="191000336"/>
    <nd ref="191000337"/>
    <nd ref="5653588485"/>
    <nd ref="937622506"/>
    <nd ref="5653588484"/>
    <nd ref="937622471"/>
    <nd ref="1680007864"/>
    <nd ref="191000338"/>
    <nd ref="5608972636"/>
    <nd ref="191000335"/>
    <tag k="access" v="customers"/>
    <tag k="amenity" v="parking"/>
    <tag k="building" v="yes"/>
    <tag k="fee" v="yes"/>
    <tag k="name" v="T2 Multi-Storey East / T2 M&amp;G"/>
    <tag k="park_ride" v="yes"/>
    <tag k="parking" v="multi-storey"/>
    <tag k="surface" v="paved"/>
    <tag k="website" v="https://www.manchesterairport.co.uk/parking/multi-storey/"/>
  </way>
  <way id="18515536" version="19" timestamp="2025-02-05T07:23:03Z" changeset="162153392" uid="14674603" user="ALRam">
    <nd ref="191001210"/>
    <nd ref="12546393122"/>
    <nd ref="12558392035"/>
    <nd ref="11793754768"/>
    <nd ref="9688808735"/>
    <nd ref="9688808736"/>
    <nd ref="1680007749"/>
    <nd ref="1680007726"/>
    <nd ref="11793754767"/>
    <nd ref="9688808727"/>
    <nd ref="9688808728"/>
    <nd ref="1511352824"/>
    <nd ref="191001209"/>
    <nd ref="4484415573"/>
    <nd ref="1680007691"/>
    <nd ref="1680007690"/>
    <nd ref="1680007686"/>
    <nd ref="1680007688"/>
    <nd ref="1680007663"/>
    <nd ref="1680007658"/>
    <nd ref="191001208"/>
    <nd ref="9688808729"/>
    <nd ref="9688808730"/>
    <nd ref="9688808731"/>
    <nd ref="9688808732"/>
    <nd ref="1511379945"/>
    <nd ref="1511379949"/>
    <nd ref="1511379967"/>
    <nd ref="1511379924"/>
    <nd ref="1511379884"/>
    <nd ref="1511379994"/>
    <nd ref="1511379988"/>
    <nd ref="1511380006"/>
    <nd ref="191001207"/>
    <nd ref="1511379885"/>
    <nd ref="1680007442"/>
    <nd ref="1680007446"/>
    <nd ref="1680007483"/>
    <nd ref="1680007496"/>
    <nd ref="1680007509"/>
    <nd ref="1680007549"/>
    <nd ref="1680007553"/>
    <nd ref="1680007583"/>
    <nd ref="1680007625"/>
    <nd ref="1680007647"/>
    <nd ref="1680007621"/>
    <nd ref="1680007683"/>
    <nd ref="1680007666"/>
    <nd ref="1680007681"/>
    <nd ref="1680007705"/>
    <nd ref="1680007718"/>
    <nd ref="1680007720"/>
    <nd ref="12287842166"/>
    <nd ref="12287842194"/>
    <nd ref="12287842195"/>
    <nd ref="12287842145"/>
    <nd ref="9688808719"/>
    <nd ref="7575099562"/>
    <nd ref="7575099563"/>
    <nd ref="9688808720"/>
    <nd ref="9688808721"/>
    <nd ref="9688808722"/>
    <nd ref="9688808723"/>
    <nd ref="12287779754"/>
    <nd ref="191001210"/>
    <tag k="aeroway" v="terminal"/>
    <tag k="airside" v="yes"/>
    <tag k="building" v="yes"/>
    <tag k="building:levels" v="3"/>
    <tag k="name" v="Terminal 2"/>
    <tag k="roof:shape" v="flat"/>
    <tag k="source" v="Bing"/>
    <tag k="wheelchair" v="yes"/>
  </way>
  <way id="18516067" version="3" timestamp="2024-01-02T16:05:12Z" changeset="145804744" uid="11734181" user="muthyamj">
    <nd ref="191004376"/>
    <nd ref="360898279"/>
    <nd ref="360898277"/>
    <nd ref="191004378"/>
    <nd ref="191004379"/>
    <nd ref="191004380"/>
    <nd ref="59348931"/>
    <tag k="highway" v="residential"/>
    <tag k="name" v="Thorley Lane"/>
  </way>
  <way id="24915782" version="2" timestamp="2017-03-05T18:26:48Z" changeset="46602906" uid="237926" user="midlandsdave">
    <nd ref="270734107"/>
    <nd ref="270734108"/>
    <nd ref="270734109"/>
    <nd ref="270734110"/>
    <nd ref="270734111"/>
    <nd ref="270734112"/>
    <nd ref="270734107"/>
    <tag k="building" v="yes"/>
    <tag k="name" v="Customs"/>
  </way>
  <way id="24915847" version="6" timestamp="2025-02-08T15:45:32Z" changeset="162284807" uid="184757" user="97wrangler">
    <nd ref="270734805"/>
    <nd ref="270734806"/>
    <nd ref="270734807"/>
    <nd ref="270734809"/>
    <nd ref="1680007348"/>
    <nd ref="1680007351"/>
    <nd ref="270734814"/>
    <nd ref="270734816"/>
    <nd ref="270734818"/>
    <nd ref="270734819"/>
    <nd ref="270734805"/>
    <tag k="building" v="industrial"/>
    <tag k="name" v="STS Aircraft Engineering"/>
  </way>
  <way id="25740562" version="9" timestamp="2022-06-17T17:05:08Z" changeset="122517078" uid="3336141" user="Fraham">
    <nd ref="9825931939"/>
    <nd ref="1680589212"/>
    <nd ref="6532143312"/>
    <nd ref="280707731"/>
    <nd ref="1680589246"/>
    <nd ref="280707730"/>
    <tag k="highway" v="unclassified"/>
    <tag k="lanes" v="2"/>
    <tag k="lit" v="yes"/>
    <tag k="maxspeed" v="30 mph"/>
    <tag k="name" v="Malaga Avenue"/>
    <tag k="source" v="survey"/>
    <tag k="surface" v="paved"/>
  </way>
  <way id="25740577" version="9" timestamp="2024-01-03T15:46:16Z" changeset="145845109" uid="1802093" user="Paul Berry">
    <nd ref="280710900"/>
    <nd ref="1680589332"/>
    <nd ref="1680589342"/>
    <nd ref="280710820"/>
    <nd ref="280710904"/>
    <nd ref="1680589369"/>
    <nd ref="280710822"/>
    <nd ref="1680589350"/>
    <nd ref="1680589333"/>
    <nd ref="280711342"/>
    <nd ref="10029860614"/>
    <nd ref="280710825"/>
    <nd ref="280710900"/>
    <tag k="addr:city" v="Manchester"/>
    <tag k="addr:postcode" v="M90 3DQ"/>
    <tag k="building" v="yes"/>
    <tag k="building:levels" v="8"/>
    <tag k="name" v="Voyager"/>
    <tag k="source" v="Bing"/>
  </way>
  <way id="28273120" version="7" timestamp="2022-10-03T15:10:31Z" changeset="126943217" uid="4078654" user="currybum">
    <nd ref="8911528191"/>
    <nd ref="21672233"/>
    <nd ref="21672235"/>
    <nd ref="8911528193"/>
    <tag k="bicycle" v="yes"/>
    <tag k="highway" v="trunk"/>
    <tag k="maxspeed" v="40 mph"/>
    <tag k="name" v="Wilmslow Road"/>
    <tag k="oneway" v="yes"/>
    <tag k="ref" v="A538"/>
    <tag k="surface" v="asphalt"/>
  </way>
  <way id="32112969" version="3" timestamp="2022-08-31T12:35:25Z" changeset="125610700" uid="12340839" user="mapboy63">
    <nd ref="360413350"/>
    <nd ref="360409977"/>
    <nd ref="360409982"/>
    <nd ref="360409983"/>
    <tag k="bicycle" v="designated"/>
    <tag k="foot" v="designated"/>
    <tag k="highway" v="unclassified"/>
    <tag k="horse" v="designated"/>
    <tag k="motor_vehicle" v="private"/>
    <tag k="motorcar" v="no"/>
    <tag k="name" v="Altrincham Road"/>
  </way>
  <way id="32148318" version="2" timestamp="2024-01-09T23:10:08Z" changeset="146083528" uid="12340839" user="mapboy63">
    <nd ref="360913133"/>
    <nd ref="360913137"/>
    <nd ref="11504497568"/>
    <nd ref="21672209"/>
    <tag k="highway" v="unclassified"/>
    <tag k="name" v="Wilmslow Old Road"/>
    <tag k="old_ref" v="A538"/>
  </way>
  <way id="32148320" version="11" timestamp="2024-07-21T16:55:24Z" changeset="154228153" uid="6397757" user="TomJeffs">
    <nd ref="6942773179"/>
    <nd ref="12066595880"/>
    <nd ref="360913148"/>
    <nd ref="6784608405"/>
    <nd ref="360913150"/>
    <nd ref="360913152"/>
    <nd ref="360913156"/>
    <nd ref="360913159"/>
    <nd ref="360913160"/>
    <nd ref="360913163"/>
    <nd ref="360913167"/>
    <nd ref="4793991829"/>
    <nd ref="360913169"/>
    <nd ref="360913171"/>
    <nd ref="4793991849"/>
    <nd ref="360913174"/>
    <nd ref="360913176"/>
    <tag k="highway" v="unclassified"/>
    <tag k="lanes" v="2"/>
    <tag k="name" v="Wilmslow Old Road"/>
    <tag k="old_ref" v="A538"/>
    <tag k="surface" v="asphalt"/>
  </way>
  <way id="32148625" version="8" timestamp="2024-01-24T15:33:30Z" changeset="146634905" uid="198183" user="Loshu">
    <nd ref="1860579940"/>
    <nd ref="360919919"/>
    <nd ref="360919923"/>
    <nd ref="360919928"/>
    <nd ref="4718947870"/>
    <nd ref="360919941"/>
    <nd ref="4718947856"/>
    <nd ref="11546637691"/>
    <nd ref="21672209"/>
    <tag k="highway" v="unclassified"/>
    <tag k="maxspeed" v="20 mph"/>
    <tag k="name" v="Pinfold Lane"/>
    <tag k="source" v="GPS survey"/>
  </way>
  <way id="32148927" version="4" timestamp="2019-04-17T17:29:30Z" changeset="69318263" uid="111135" user="Pete Owens">
    <nd ref="360898280"/>
    <nd ref="54857518"/>
    <nd ref="59348929"/>
    <tag k="highway" v="tertiary"/>
    <tag k="maxspeed" v="30 mph"/>
    <tag k="name" v="Thorley Lane"/>
  </way>
  <way id="32148928" version="13" timestamp="2024-04-29T11:34:47Z" changeset="150658717" uid="191786" user="Alexandre148025">
    <nd ref="9264516370"/>
    <nd ref="11865972004"/>
    <nd ref="8437351654"/>
    <tag k="highway" v="tertiary"/>
    <tag k="lanes" v="2"/>
    <tag k="lit" v="yes"/>
    <tag k="maxspeed" v="30 mph"/>
    <tag k="name" v="Thorley Lane"/>
    <tag k="source" v="GPS"/>
  </way>
  <way id="32152333" version="12" timestamp="2022-09-12T10:58:36Z" changeset="126084278" uid="12340839" user="mapboy63">
    <nd ref="360994611"/>
    <nd ref="10017910965"/>
    <nd ref="10017910963"/>
    <nd ref="10017910964"/>
    <nd ref="360994617"/>
    <nd ref="360994615"/>
    <nd ref="360994614"/>
    <nd ref="360994613"/>
    <nd ref="847550469"/>
    <nd ref="10017910975"/>
    <nd ref="10017910976"/>
    <nd ref="847550468"/>
    <nd ref="1680588970"/>
    <nd ref="847544743"/>
    <tag k="highway" v="unclassified"/>
    <tag k="lanes" v="2"/>
    <tag k="lit" v="yes"/>
    <tag k="maxspeed" v="30 mph"/>
    <tag k="name" v="Ringway Road"/>
    <tag k="oneway" v="yes"/>
    <tag k="sidewalk" v="right"/>
    <tag k="smoothness" v="good"/>
    <tag k="source" v="GPS survey"/>
    <tag k="source:maxspeed" v="implicit"/>
    <tag k="surface" v="paved"/>
  </way>
  <way id="34571881" version="13" timestamp="2022-10-28T19:14:20Z" changeset="128188162" uid="13666626" user="RedAuburn">
    <nd ref="234920"/>
    <nd ref="234921"/>
    <tag k="bicycle" v="no"/>
    <tag k="bridge" v="yes"/>
    <tag k="carriageway_ref" v="B"/>
    <tag k="highway" v="motorway"/>
    <tag k="lanes" v="3"/>
    <tag k="layer" v="1"/>
    <tag k="lit" v="no"/>
    <tag k="maxspeed" v="70 mph"/>
    <tag k="maxspeed:type" v="GB:motorway"/>
    <tag k="national_highways:area" v="10"/>
    <tag k="oneway" v="yes"/>
    <tag k="operator" v="National Highways"/>
    <tag k="operator:wikidata" v="Q5760006"/>
    <tag k="proposed:active_traffic_management" v="yes"/>
    <tag k="ref" v="M56"/>
    <tag k="surface" v="asphalt"/>
  </way>
  <way id="34571882" version="19" timestamp="2023-01-18T09:33:39Z" changeset="131413448" uid="334129" user="murble">
    <nd ref="234921"/>
    <nd ref="401344269"/>
    <nd ref="401344270"/>
    <nd ref="234922"/>
    <nd ref="1563423014"/>
    <tag k="bicycle" v="no"/>
    <tag k="carriageway_ref" v="B"/>
    <tag k="highway" v="motorway"/>
    <tag k="lanes" v="3"/>
    <tag k="lit" v="no"/>
    <tag k="maxheight" v="default"/>
    <tag k="maxspeed" v="70 mph"/>
    <tag k="national_highways:area" v="10"/>
    <tag k="oneway" v="yes"/>
    <tag k="operator" v="National Highways"/>
    <tag k="operator:wikidata" v="Q5760006"/>
    <tag k="proposed:active_traffic_management" v="yes"/>
    <tag k="ref" v="M56"/>
    <tag k="surface" v="asphalt"/>
  </way>
  <way id="34571883" version="12" timestamp="2022-10-28T19:14:20Z" changeset="128188162" uid="13666626" user="RedAuburn">
    <nd ref="333971"/>
    <nd ref="333970"/>
    <tag k="bicycle" v="no"/>
    <tag k="bridge" v="yes"/>
    <tag k="carriageway_ref" v="A"/>
    <tag k="highway" v="motorway"/>
    <tag k="lanes" v="3"/>
    <tag k="layer" v="1"/>
    <tag k="lit" v="no"/>
    <tag k="maxspeed" v="70 mph"/>
    <tag k="maxspeed:type" v="GB:motorway"/>
    <tag k="national_highways:area" v="10"/>
    <tag k="oneway" v="yes"/>
    <tag k="operator" v="National Highways"/>
    <tag k="operator:wikidata" v="Q5760006"/>
    <tag k="proposed:active_traffic_management" v="yes"/>
    <tag k="ref" v="M56"/>
    <tag k="surface" v="asphalt"/>
  </way>
  <way id="71190599" version="9" timestamp="2019-08-16T17:15:22Z" changeset="73424436" uid="4948143" user="doublah">
    <nd ref="60168063"/>
    <nd ref="936992757"/>
    <nd ref="1680589058"/>
    <nd ref="1680589084"/>
    <nd ref="936992895"/>
    <nd ref="847544997"/>
    <tag k="highway" v="unclassified"/>
    <tag k="lanes" v="2"/>
    <tag k="lit" v="yes"/>
    <tag k="name" v="Hotel Road"/>
    <tag k="oneway" v="yes"/>
    <tag k="sidewalk" v="left"/>
    <tag k="source" v="GPS survey"/>
    <tag k="surface" v="paved"/>
  </way>
  <way id="71190828" version="13" timestamp="2022-08-08T07:45:09Z" changeset="124625740" uid="14952819" user="moovit_BarC">
    <nd ref="280707729"/>
    <nd ref="847554254"/>
    <nd ref="847554256"/>
    <nd ref="847554258"/>
    <nd ref="847554260"/>
    <nd ref="847554262"/>
    <nd ref="937825172"/>
    <tag k="cycleway:left" v="no"/>
    <tag k="foot" v="yes"/>
    <tag k="highway" v="unclassified"/>
    <tag k="junction" v="roundabout"/>
    <tag k="lane_markings" v="no"/>
    <tag k="maxspeed" v="30 mph"/>
    <tag k="source" v="survey"/>
    <tag k="surface" v="asphalt"/>
  </way>
  <way id="71191708" version="11" timestamp="2022-11-30T22:41:37Z" changeset="129578749" uid="12340839" user="mapboy63">
    <nd ref="847559477"/>
    <nd ref="10229478578"/>
    <nd ref="10229478577"/>
    <nd ref="1860361281"/>
    <nd ref="10229478576"/>
    <nd ref="10229478575"/>
    <nd ref="10229478574"/>
    <nd ref="7911523810"/>
    <tag k="access" v="private"/>
    <tag k="highway" v="unclassified"/>
    <tag k="lanes" v="2"/>
    <tag k="lit" v="yes"/>
    <tag k="maxspeed" v="30 mph"/>
    <tag k="name" v="Toronto Avenue"/>
    <tag k="sidewalk" v="right"/>
    <tag k="source" v="Yahoo"/>
    <tag k="surface" v="paved"/>
  </way>
  <way id="80131563" version="13" timestamp="2022-10-28T19:14:34Z" changeset="128188162" uid="13666626" user="RedAuburn">
    <nd ref="333982"/>
    <nd ref="297383328"/>
    <nd ref="516674110"/>
    <nd ref="1589658962"/>
    <nd ref="934825797"/>
    <nd ref="516674108"/>
    <nd ref="1589658960"/>
    <nd ref="934825815"/>
    <tag k="bicycle" v="no"/>
    <tag k="highway" v="motorway"/>
    <tag k="lanes" v="4"/>
    <tag k="lit" v="yes"/>
    <tag k="maxspeed" v="70 mph"/>
    <tag k="national_highways:area" v="10"/>
    <tag k="oneway" v="yes"/>
    <tag k="operator" v="National Highways"/>
    <tag k="operator:wikidata" v="Q5760006"/>
    <tag k="ref" v="M56"/>
    <tag k="surface" v="asphalt"/>
  </way>
  <way id="80131568" version="6" timestamp="2022-10-03T15:10:31Z" changeset="126943217" uid="4078654" user="currybum">
    <nd ref="21672247"/>
    <nd ref="21672251"/>
    <nd ref="21672253"/>
    <nd ref="21672255"/>
    <tag k="bicycle" v="yes"/>
    <tag k="highway" v="trunk"/>
    <tag k="lit" v="yes"/>
    <tag k="maxspeed" v="40 mph"/>
    <tag k="name" v="Wilmslow Road"/>
    <tag k="oneway" v="yes"/>
    <tag k="ref" v="A538"/>
    <tag k="surface" v="asphalt"/>
  </way>
  <way id="80131570" version="17" timestamp="2024-03-20T19:59:46Z" changeset="148931877" uid="19756269" user="RyanBush">
    <nd ref="934825855"/>
    <nd ref="5258369659"/>
    <nd ref="1680008009"/>
    <nd ref="5258369658"/>
    <nd ref="21686833"/>
    <tag k="bridge" v="yes"/>
    <tag k="destination" v="Manchester;Stockport;Sheffield;Leeds;Bolton"/>
    <tag k="destination:ref" v="M56;(M60);(M67);(M62);(M61)"/>
    <tag k="highway" v="motorway_link"/>
    <tag k="lanes" v="2"/>
    <tag k="layer" v="1"/>
    <tag k="lit" v="yes"/>
    <tag k="maxspeed" v="70 mph"/>
    <tag k="national_highways:area" v="10"/>
    <tag k="oneway" v="yes"/>
    <tag k="operator" v="National Highways"/>
    <tag k="operator:wikidata" v="Q5760006"/>
    <tag k="ref" v="M56"/>
    <tag k="surface" v="asphalt"/>
  </way>
  <way id="80131574" version="16" timestamp="2024-03-20T19:59:46Z" changeset="148931877" uid="19756269" user="RyanBush">
    <nd ref="21686833"/>
    <nd ref="5258369657"/>
    <nd ref="934825826"/>
    <nd ref="5258369656"/>
    <nd ref="21686834"/>
    <nd ref="5258369989"/>
    <nd ref="934825796"/>
    <nd ref="5258369988"/>
    <nd ref="21686835"/>
    <nd ref="5258369987"/>
    <nd ref="5258369986"/>
    <nd ref="934825917"/>
    <nd ref="5258369985"/>
    <nd ref="21686836"/>
    <nd ref="5258369984"/>
    <nd ref="280708087"/>
    <nd ref="5258369983"/>
    <nd ref="5258369982"/>
    <nd ref="21687002"/>
    <nd ref="21687004"/>
    <nd ref="5258369981"/>
    <nd ref="21687006"/>
    <nd ref="5258369980"/>
    <nd ref="934825814"/>
    <nd ref="5258369979"/>
    <nd ref="21687008"/>
    <nd ref="5258369978"/>
    <nd ref="234931"/>
    <tag k="destination" v="Manchester;Stockport;Sheffield;Leeds;Bolton"/>
    <tag k="destination:ref" v="M56;(M60);(M67);(M62);(M61)"/>
    <tag k="highway" v="motorway_link"/>
    <tag k="lanes" v="2"/>
    <tag k="lit" v="yes"/>
    <tag k="maxspeed" v="70 mph"/>
    <tag k="national_highways:area" v="10"/>
    <tag k="oneway" v="yes"/>
    <tag k="operator" v="National Highways"/>
    <tag k="operator:wikidata" v="Q5760006"/>
    <tag k="ref" v="M56"/>
    <tag k="surface" v="asphalt"/>
  </way>
  <way id="80131576" version="12" timestamp="2023-01-18T09:31:17Z" changeset="131413448" uid="334129" user="murble">
    <nd ref="20910603"/>
    <nd ref="297383326"/>
    <nd ref="516674856"/>
    <nd ref="333983"/>
    <nd ref="516674120"/>
    <nd ref="297383327"/>
    <nd ref="516674115"/>
    <nd ref="1680008003"/>
    <nd ref="333982"/>
    <tag k="bicycle" v="no"/>
    <tag k="carriageway_ref" v="A"/>
    <tag k="highway" v="motorway"/>
    <tag k="lanes" v="3"/>
    <tag k="lit" v="yes"/>
    <tag k="maxheight" v="default"/>
    <tag k="maxspeed" v="70 mph"/>
    <tag k="national_highways:area" v="10"/>
    <tag k="oneway" v="yes"/>
    <tag k="operator" v="National Highways"/>
    <tag k="operator:wikidata" v="Q5760006"/>
    <tag k="ref" v="M56"/>
    <tag k="surface" v="asphalt"/>
  </way>
  <way id="80157856" version="21" timestamp="2025-01-31T13:16:09Z" changeset="161976983" uid="14674603" user="ALRam">
    <nd ref="270732439"/>
    <nd ref="1510345552"/>
    <nd ref="270732442"/>
    <nd ref="1510345564"/>
    <nd ref="270732443"/>
    <nd ref="270732444"/>
    <nd ref="270732445"/>
    <nd ref="270732446"/>
    <nd ref="1510345485"/>
    <nd ref="1510345413"/>
    <nd ref="1510345506"/>
    <nd ref="1510345456"/>
    <nd ref="1510345641"/>
    <nd ref="1510345531"/>
    <nd ref="1510345486"/>
    <nd ref="1510345573"/>
    <nd ref="1510345507"/>
    <nd ref="270732447"/>
    <nd ref="270732448"/>
    <nd ref="270732449"/>
    <nd ref="1510345532"/>
    <nd ref="1510345404"/>
    <nd ref="1510345500"/>
    <nd ref="1510345659"/>
    <nd ref="1510345509"/>
    <nd ref="270732450"/>
    <nd ref="270732452"/>
    <nd ref="270732453"/>
    <nd ref="270732454"/>
    <nd ref="1510345600"/>
    <nd ref="270732455"/>
    <nd ref="1510345553"/>
    <nd ref="270732456"/>
    <nd ref="1510345654"/>
    <nd ref="270732457"/>
    <nd ref="1510345637"/>
    <nd ref="270732458"/>
    <nd ref="270732459"/>
    <nd ref="270732460"/>
    <nd ref="1510345527"/>
    <nd ref="1510345559"/>
    <nd ref="1510345579"/>
    <nd ref="270732463"/>
    <nd ref="1510345474"/>
    <nd ref="1511444251"/>
    <nd ref="1510345617"/>
    <nd ref="1511444287"/>
    <nd ref="10653629080"/>
    <nd ref="10653629079"/>
    <nd ref="10653629081"/>
    <nd ref="1510345393"/>
    <nd ref="270732464"/>
    <nd ref="270732465"/>
    <nd ref="1510345487"/>
    <nd ref="1510345570"/>
    <nd ref="1510345465"/>
    <nd ref="1510345540"/>
    <nd ref="270732466"/>
    <nd ref="270732467"/>
    <nd ref="270732468"/>
    <nd ref="270732469"/>
    <nd ref="270732470"/>
    <nd ref="270732471"/>
    <nd ref="1510345647"/>
    <nd ref="1510345662"/>
    <nd ref="270732473"/>
    <nd ref="1510345517"/>
    <nd ref="1510345623"/>
    <nd ref="1511634341"/>
    <nd ref="1511634473"/>
    <nd ref="1511634994"/>
    <nd ref="4484415601"/>
    <nd ref="1511634933"/>
    <nd ref="1511634406"/>
    <nd ref="1511634766"/>
    <nd ref="1510345596"/>
    <nd ref="935174867"/>
    <nd ref="11793754688"/>
    <nd ref="270731392"/>
    <nd ref="11793754694"/>
    <nd ref="11793754689"/>
    <nd ref="935174870"/>
    <nd ref="12546384741"/>
    <nd ref="270732413"/>
    <nd ref="12546384739"/>
    <nd ref="1511335539"/>
    <nd ref="11793754699"/>
    <nd ref="1511335563"/>
    <nd ref="1511335541"/>
    <nd ref="1511335546"/>
    <nd ref="1511335555"/>
    <nd ref="1511335573"/>
    <nd ref="1511335548"/>
    <nd ref="1511335572"/>
    <nd ref="1511335558"/>
    <nd ref="1511335547"/>
    <nd ref="1511335565"/>
    <nd ref="1511335544"/>
    <nd ref="1511335536"/>
    <nd ref="1511335561"/>
    <nd ref="1511335574"/>
    <nd ref="1511335569"/>
    <nd ref="1511335570"/>
    <nd ref="1511335549"/>
    <nd ref="1511335551"/>
    <nd ref="1431048726"/>
    <nd ref="1431048786"/>
    <nd ref="602531512"/>
    <nd ref="1511444346"/>
    <nd ref="1510345478"/>
    <nd ref="1511444359"/>
    <nd ref="1510345529"/>
    <nd ref="1510345628"/>
    <nd ref="270732439"/>
    <tag k="aeroway" v="terminal"/>
    <tag k="building" v="yes"/>
    <tag k="building:levels" v="3"/>
    <tag k="name" v="Terminal 1"/>
    <tag k="wheelchair" v="yes"/>
  </way>
  <way id="80157857" version="14" timestamp="2025-01-31T13:16:09Z" changeset="161976983" uid="14674603" user="ALRam">
    <nd ref="3502010389"/>
    <nd ref="937622406"/>
    <nd ref="11793754697"/>
    <nd ref="11793754696"/>
    <nd ref="11793754695"/>
    <nd ref="935174937"/>
    <nd ref="944008020"/>
    <nd ref="984869596"/>
    <nd ref="944007991"/>
    <nd ref="2038650711"/>
    <nd ref="11793754690"/>
    <nd ref="11793754693"/>
    <nd ref="11793754692"/>
    <nd ref="11793754691"/>
    <nd ref="3502010389"/>
    <tag k="access" v="customers"/>
    <tag k="amenity" v="parking"/>
    <tag k="building" v="yes"/>
    <tag k="fee" v="yes"/>
    <tag k="name" v="T1 Multi-Storey"/>
    <tag k="park_ride" v="yes"/>
    <tag k="parking" v="multi-storey"/>
    <tag k="surface" v="paved"/>
    <tag k="website" v="https://www.manchesterairport.co.uk/parking/multi-storey/"/>
  </way>
  <way id="80279066" version="13" timestamp="2021-11-18T17:42:41Z" changeset="113954505" uid="8571542" user="Merzof">
    <nd ref="20910566"/>
    <nd ref="1680589523"/>
    <nd ref="20910565"/>
    <nd ref="191002919"/>
    <tag k="highway" v="tertiary"/>
    <tag k="junction" v="roundabout"/>
    <tag k="lanes" v="2"/>
    <tag k="lit" v="yes"/>
    <tag k="maxspeed" v="40 mph"/>
    <tag k="name" v="Terminal 2 Roundabout"/>
    <tag k="sidewalk" v="no"/>
    <tag k="smoothness" v="excellent"/>
    <tag k="source" v="GPS"/>
    <tag k="surface" v="paved"/>
  </way>
  <way id="80279080" version="22" timestamp="2024-10-11T22:10:58Z" changeset="157774959" uid="5229644" user="Nathan_A_RF">
    <nd ref="1860361292"/>
    <nd ref="9546017537"/>
    <nd ref="9546017538"/>
    <nd ref="1860361291"/>
    <tag k="highway" v="motorway_link"/>
    <tag k="lanes" v="2"/>
    <tag k="maxspeed" v="70 mph"/>
    <tag k="maxspeed:type" v="GB:motorway"/>
    <tag k="national_highways:area" v="10"/>
    <tag k="oneway" v="yes"/>
    <tag k="operator" v="National Highways"/>
    <tag k="operator:wikidata" v="Q5760006"/>
    <tag k="ref" v="M56"/>
  </way>
  <way id="80279085" version="8" timestamp="2019-08-16T17:30:24Z" changeset="73424881" uid="4948143" user="doublah">
    <nd ref="936992821"/>
    <nd ref="20910566"/>
    <tag k="bridge" v="yes"/>
    <tag k="highway" v="tertiary"/>
    <tag k="junction" v="roundabout"/>
    <tag k="lanes" v="2"/>
    <tag k="layer" v="1"/>
    <tag k="lit" v="yes"/>
    <tag k="maxspeed" v="40 mph"/>
    <tag k="name" v="Terminal 2 Roundabout"/>
    <tag k="sidewalk" v="no"/>
    <tag k="smoothness" v="excellent"/>
    <tag k="source" v="GPS"/>
    <tag k="surface" v="paved"/>
  </way>
  <way id="80282046" version="16" timestamp="2024-10-11T22:10:58Z" changeset="157774959" uid="5229644" user="Nathan_A_RF">
    <nd ref="20910572"/>
    <nd ref="1860361308"/>
    <nd ref="1860361301"/>
    <nd ref="936992745"/>
    <nd ref="936992898"/>
    <nd ref="20910597"/>
    <nd ref="1860361294"/>
    <nd ref="936992926"/>
    <nd ref="20910599"/>
    <nd ref="1860361293"/>
    <nd ref="1860361292"/>
    <tag k="cutting" v="yes"/>
    <tag k="highway" v="motorway"/>
    <tag k="lanes" v="2"/>
    <tag k="lit" v="yes"/>
    <tag k="maxheight" v="default"/>
    <tag k="maxspeed" v="70 mph"/>
    <tag k="maxspeed:type" v="GB:motorway"/>
    <tag k="national_highways:area" v="10"/>
    <tag k="oneway" v="yes"/>
    <tag k="operator" v="National Highways"/>
    <tag k="operator:wikidata" v="Q5760006"/>
    <tag k="ref" v="M56"/>
    <tag k="source" v="GPS"/>
    <tag k="surface" v="asphalt"/>
  </way>
  <way id="80341384" version="5" timestamp="2022-10-09T16:02:59Z" changeset="127256445" uid="12340839" user="mapboy63">
    <nd ref="847553332"/>
    <nd ref="937622427"/>
    <nd ref="280710768"/>
    <tag k="highway" v="unclassified"/>
    <tag k="maxspeed" v="30 mph"/>
    <tag k="oneway" v="yes"/>
    <tag k="source" v="extrapolation"/>
  </way>
  <way id="80341387" version="7" timestamp="2022-09-15T14:21:40Z" changeset="126226967" uid="12340839" user="mapboy63">
    <nd ref="936992851"/>
    <nd ref="1511634589"/>
    <nd ref="937622382"/>
    <nd ref="1511634865"/>
    <nd ref="1511634996"/>
    <nd ref="937622441"/>
    <nd ref="1511634785"/>
    <nd ref="937824926"/>
    <nd ref="937622384"/>
    <nd ref="937622454"/>
    <nd ref="1511634567"/>
    <nd ref="1511634480"/>
    <nd ref="10027534532"/>
    <nd ref="939142509"/>
    <nd ref="937826534"/>
    <nd ref="1680589047"/>
    <nd ref="937622530"/>
    <nd ref="937622482"/>
    <nd ref="1680589039"/>
    <nd ref="937622396"/>
    <nd ref="1680589027"/>
    <nd ref="1680589033"/>
    <nd ref="60168060"/>
    <tag k="highway" v="unclassified"/>
    <tag k="oneway" v="yes"/>
    <tag k="source" v="GPS survey"/>
    <tag k="surface" v="paved"/>
  </way>
  <way id="80341388" version="14" timestamp="2022-10-09T16:02:59Z" changeset="127256445" uid="12340839" user="mapboy63">
    <nd ref="847553336"/>
    <nd ref="7876676264"/>
    <nd ref="10027534496"/>
    <nd ref="937622379"/>
    <nd ref="10027532214"/>
    <nd ref="5608998156"/>
    <nd ref="847553333"/>
    <nd ref="9550271876"/>
    <nd ref="1680589166"/>
    <nd ref="847553332"/>
    <tag k="highway" v="unclassified"/>
    <tag k="lanes" v="2"/>
    <tag k="lit" v="yes"/>
    <tag k="maxspeed" v="30 mph"/>
    <tag k="name" v="Terminal Road North"/>
    <tag k="oneway" v="no"/>
    <tag k="sidewalk" v="right"/>
    <tag k="source:name" v="OS_OpenData_StreetView"/>
    <tag k="surface" v="asphalt"/>
  </way>
  <way id="80341401" version="8" timestamp="2022-10-09T16:02:59Z" changeset="127256445" uid="12340839" user="mapboy63">
    <nd ref="1680589196"/>
    <nd ref="7876676256"/>
    <nd ref="847553337"/>
    <nd ref="5608998151"/>
    <tag k="highway" v="unclassified"/>
    <tag k="lanes" v="2"/>
    <tag k="lit" v="yes"/>
    <tag k="maxspeed" v="30 mph"/>
    <tag k="oneway" v="yes"/>
    <tag k="sidewalk" v="left"/>
    <tag k="source" v="GPS survey"/>
    <tag k="surface" v="paved"/>
  </way>
  <way id="80341402" version="8" timestamp="2022-10-09T16:02:59Z" changeset="127256445" uid="12340839" user="mapboy63">
    <nd ref="5608998148"/>
    <nd ref="1680589168"/>
    <nd ref="937622461"/>
    <nd ref="7876676276"/>
    <nd ref="847553336"/>
    <tag k="highway" v="unclassified"/>
    <tag k="lanes" v="1"/>
    <tag k="lit" v="yes"/>
    <tag k="maxspeed" v="30 mph"/>
    <tag k="oneway" v="yes"/>
    <tag k="placement" v="transition"/>
    <tag k="source" v="Bing"/>
    <tag k="surface" v="paved"/>
  </way>
  <way id="80362935" version="7" timestamp="2021-04-03T12:23:31Z" changeset="102233911" uid="6397757" user="TomJeffs">
    <nd ref="847553613"/>
    <nd ref="6716221066"/>
    <nd ref="280707728"/>
    <tag k="cycleway:left" v="track"/>
    <tag k="highway" v="unclassified"/>
    <tag k="lanes" v="1"/>
    <tag k="maxspeed" v="30 mph"/>
    <tag k="name" v="Chicago Avenue"/>
    <tag k="oneway" v="yes"/>
    <tag k="sidewalk" v="no"/>
    <tag k="source" v="GPS survey"/>
    <tag k="surface" v="paved"/>
  </way>
  <way id="80362938" version="6" timestamp="2015-10-23T14:56:24Z" changeset="34822272" uid="2874110" user="wherebrained">
    <nd ref="60901080"/>
    <nd ref="360919896"/>
    <nd ref="1574471979"/>
    <tag k="highway" v="unclassified"/>
    <tag k="maxspeed" v="20 mph"/>
    <tag k="oneway" v="yes"/>
  </way>
  <way id="80362992" version="9" timestamp="2022-02-26T13:57:59Z" changeset="117879926" uid="8571542" user="Merzof">
    <nd ref="280707728"/>
    <nd ref="9537102365"/>
    <nd ref="1680007550"/>
    <nd ref="21686826"/>
    <tag k="foot" v="no"/>
    <tag k="highway" v="unclassified"/>
    <tag k="lanes" v="1"/>
    <tag k="maxspeed" v="30 mph"/>
    <tag k="name" v="Chicago Avenue"/>
    <tag k="oneway" v="yes"/>
    <tag k="sidewalk" v="no"/>
    <tag k="source" v="GPS survey"/>
    <tag k="surface" v="paved"/>
  </way>
  <way id="80362994" version="1" timestamp="2010-10-04T16:47:11Z" changeset="5955223" uid="114310" user="Joe E">
    <nd ref="937825676"/>
    <nd ref="847559483"/>
    <tag k="highway" v="unclassified"/>
    <tag k="oneway" v="yes"/>
    <tag k="source" v="Yahoo"/>
  </way>
  <way id="80363018" version="2" timestamp="2012-02-07T20:44:49Z" changeset="10616436" uid="184757" user="97wrangler">
    <nd ref="847559483"/>
    <nd ref="847553425"/>
    <tag k="highway" v="unclassified"/>
    <tag k="maxspeed" v="30 mph"/>
    <tag k="oneway" v="yes"/>
    <tag k="source" v="Yahoo"/>
  </way>
  <way id="80363019" version="6" timestamp="2021-10-20T18:11:14Z" changeset="112756856" uid="8571542" user="Merzof">
    <nd ref="937826029"/>
    <nd ref="1680589317"/>
    <nd ref="1832535316"/>
    <nd ref="1511352820"/>
    <nd ref="937825172"/>
    <tag k="highway" v="unclassified"/>
    <tag k="source" v="Yahoo"/>
  </way>
  <way id="80504908" version="10" timestamp="2022-10-09T16:02:59Z" changeset="127256445" uid="12340839" user="mapboy63">
    <nd ref="60168061"/>
    <nd ref="936992682"/>
    <nd ref="60168085"/>
    <nd ref="60168087"/>
    <nd ref="10024836484"/>
    <nd ref="6528564560"/>
    <tag k="highway" v="tertiary"/>
    <tag k="lanes" v="2"/>
    <tag k="lit" v="yes"/>
    <tag k="maxspeed" v="30 mph"/>
    <tag k="name" v="Outwood Road"/>
    <tag k="old_name" v="Outwood Lane"/>
    <tag k="oneway" v="yes"/>
    <tag k="source" v="GPS survey"/>
  </way>
  <way id="80962424" version="14" timestamp="2022-10-28T19:14:34Z" changeset="128188162" uid="13666626" user="RedAuburn">
    <nd ref="20910592"/>
    <nd ref="934825876"/>
    <nd ref="5258369670"/>
    <nd ref="20910593"/>
    <nd ref="5258369669"/>
    <nd ref="5258369668"/>
    <nd ref="5258369667"/>
    <nd ref="20910594"/>
    <nd ref="5258369666"/>
    <nd ref="5258369665"/>
    <nd ref="934825894"/>
    <nd ref="5258369664"/>
    <nd ref="5258369663"/>
    <nd ref="20910595"/>
    <nd ref="5258369662"/>
    <nd ref="5258369661"/>
    <nd ref="934825908"/>
    <nd ref="5258369660"/>
    <nd ref="333982"/>
    <tag k="highway" v="motorway_link"/>
    <tag k="lanes" v="1"/>
    <tag k="lit" v="yes"/>
    <tag k="maxspeed" v="70 mph"/>
    <tag k="national_highways:area" v="10"/>
    <tag k="oneway" v="yes"/>
    <tag k="operator" v="National Highways"/>
    <tag k="operator:wikidata" v="Q5760006"/>
    <tag k="ref" v="M56"/>
    <tag k="surface" v="asphalt"/>
  </way>
  <way id="82165830" version="12" timestamp="2022-10-09T16:02:59Z" changeset="127256445" uid="12340839" user="mapboy63">
    <nd ref="847553339"/>
    <nd ref="6528564568"/>
    <nd ref="9193808937"/>
    <nd ref="6528564567"/>
    <nd ref="6528564575"/>
    <tag k="highway" v="tertiary"/>
    <tag k="lanes" v="2"/>
    <tag k="lit" v="yes"/>
    <tag k="maxspeed" v="30 mph"/>
    <tag k="name" v="Outwood Road"/>
    <tag k="oneway" v="yes"/>
    <tag k="sidewalk" v="left"/>
    <tag k="source" v="Maxar"/>
    <tag k="surface" v="asphalt"/>
  </way>
  <way id="82165833" version="15" timestamp="2022-07-27T07:59:41Z" changeset="124126550" uid="1784239" user="SvenTX">
    <nd ref="60168089"/>
    <nd ref="9264589897"/>
    <nd ref="60168091"/>
    <nd ref="60168093"/>
    <tag k="highway" v="tertiary"/>
    <tag k="lanes" v="2"/>
    <tag k="lit" v="yes"/>
    <tag k="maxspeed" v="30 mph"/>
    <tag k="name" v="Outwood Road"/>
    <tag k="oneway" v="yes"/>
    <tag k="sidewalk" v="left"/>
    <tag k="source" v="GPS survey"/>
    <tag k="surface" v="asphalt"/>
  </way>
  <way id="82165834" version="7" timestamp="2019-08-16T17:18:56Z" changeset="73424537" uid="4948143" user="doublah">
    <nd ref="956762237"/>
    <nd ref="6528564566"/>
    <nd ref="6528564574"/>
    <tag k="bridge" v="yes"/>
    <tag k="highway" v="tertiary"/>
    <tag k="lanes" v="2"/>
    <tag k="layer" v="1"/>
    <tag k="lit" v="yes"/>
    <tag k="name" v="Outwood Road"/>
    <tag k="oneway" v="yes"/>
    <tag k="sidewalk" v="left"/>
    <tag k="source" v="GPS survey"/>
  </way>
  <way id="82165835" version="10" timestamp="2022-10-09T16:02:59Z" changeset="127256445" uid="12340839" user="mapboy63">
    <nd ref="5608998147"/>
    <nd ref="5608998138"/>
    <nd ref="6528564571"/>
    <nd ref="10024836483"/>
    <nd ref="60168309"/>
    <nd ref="1511634546"/>
    <nd ref="1511634962"/>
    <nd ref="1511634603"/>
    <nd ref="1511634392"/>
    <nd ref="60168062"/>
    <tag k="highway" v="tertiary"/>
    <tag k="lanes" v="2"/>
    <tag k="lit" v="yes"/>
    <tag k="maxspeed" v="30 mph"/>
    <tag k="name" v="Outwood Road"/>
    <tag k="oneway" v="yes"/>
    <tag k="sidewalk" v="no"/>
    <tag k="source" v="GPS survey"/>
    <tag k="surface" v="paved"/>
  </way>
  <way id="129775106" version="11" timestamp="2025-01-31T12:29:50Z" changeset="161975393" uid="14674603" user="ALRam">
    <nd ref="1431048791"/>
    <nd ref="1431048796"/>
    <nd ref="1431048761"/>
    <nd ref="1511444294"/>
    <nd ref="1510345658"/>
    <nd ref="1511444370"/>
    <nd ref="1431048770"/>
    <nd ref="1431048725"/>
    <nd ref="1431048874"/>
    <nd ref="1431048736"/>
    <nd ref="1431048745"/>
    <nd ref="1511444238"/>
    <nd ref="1511444082"/>
    <nd ref="1510345555"/>
    <nd ref="1431048866"/>
    <nd ref="1511444341"/>
    <nd ref="1511444206"/>
    <nd ref="1510345612"/>
    <nd ref="1431048799"/>
    <nd ref="1431048742"/>
    <nd ref="1431048777"/>
    <nd ref="1431048739"/>
    <nd ref="1511314411"/>
    <nd ref="1431048892"/>
    <nd ref="1431048823"/>
    <nd ref="1431048764"/>
    <nd ref="1431048870"/>
    <nd ref="1431048890"/>
    <nd ref="1511444344"/>
    <nd ref="1510345534"/>
    <nd ref="1431048831"/>
    <nd ref="1431048857"/>
    <nd ref="1431048887"/>
    <nd ref="1431048858"/>
    <nd ref="1431048840"/>
    <nd ref="1511444222"/>
    <nd ref="1510345584"/>
    <nd ref="1511444012"/>
    <nd ref="1431048869"/>
    <nd ref="1431048875"/>
    <nd ref="1431048743"/>
    <nd ref="1431048782"/>
    <nd ref="1431048746"/>
    <nd ref="1431048793"/>
    <nd ref="1511444376"/>
    <nd ref="1510345488"/>
    <nd ref="1511444362"/>
    <nd ref="270732435"/>
    <nd ref="1431048836"/>
    <nd ref="1431048810"/>
    <nd ref="1431048763"/>
    <nd ref="1431048886"/>
    <nd ref="1431048724"/>
    <nd ref="1431048837"/>
    <nd ref="1431048806"/>
    <nd ref="1431048780"/>
    <nd ref="1431048829"/>
    <nd ref="1511444229"/>
    <nd ref="1511444357"/>
    <nd ref="1431048762"/>
    <nd ref="1431048786"/>
    <nd ref="1431048726"/>
    <nd ref="1431048798"/>
    <nd ref="1431048824"/>
    <nd ref="1431048781"/>
    <nd ref="1431048729"/>
    <nd ref="1431048755"/>
    <nd ref="1431048750"/>
    <nd ref="1431048741"/>
    <nd ref="1431048817"/>
    <nd ref="1431048789"/>
    <nd ref="1431048853"/>
    <nd ref="1431048885"/>
    <nd ref="1431048891"/>
    <nd ref="1431048727"/>
    <nd ref="1431048855"/>
    <nd ref="1431048884"/>
    <nd ref="12546301756"/>
    <nd ref="1860579991"/>
    <nd ref="1680588956"/>
    <nd ref="1431048812"/>
    <nd ref="1431048871"/>
    <nd ref="12546301758"/>
    <nd ref="11793754723"/>
    <nd ref="1431048854"/>
    <nd ref="1431048752"/>
    <nd ref="1431048773"/>
    <nd ref="1431048872"/>
    <nd ref="1860579946"/>
    <nd ref="12546301759"/>
    <nd ref="12546301760"/>
    <nd ref="1431048903"/>
    <nd ref="1860579947"/>
    <nd ref="1431048852"/>
    <nd ref="1431048835"/>
    <nd ref="1431048902"/>
    <nd ref="1431048819"/>
    <nd ref="1431048772"/>
    <nd ref="1431048826"/>
    <nd ref="1431048828"/>
    <nd ref="1431048808"/>
    <nd ref="1431048827"/>
    <nd ref="1431048797"/>
    <nd ref="1431048723"/>
    <nd ref="1431048814"/>
    <nd ref="1431048839"/>
    <nd ref="1431048888"/>
    <nd ref="1511314284"/>
    <nd ref="1431048815"/>
    <nd ref="1510345466"/>
    <nd ref="1510345521"/>
    <nd ref="1431048838"/>
    <nd ref="1431048851"/>
    <nd ref="1510345616"/>
    <nd ref="1431048842"/>
    <nd ref="1431048822"/>
    <nd ref="1510345382"/>
    <nd ref="1510345574"/>
    <nd ref="1431058337"/>
    <nd ref="1431048791"/>
    <tag k="aeroway" v="terminal"/>
    <tag k="building" v="yes"/>
    <tag k="name" v="Terminal 3"/>
  </way>
  <way id="129775655" version="4" timestamp="2022-09-14T11:26:10Z" changeset="126176850" uid="12340839" user="mapboy63">
    <nd ref="847544743"/>
    <nd ref="1431056679"/>
    <nd ref="1431056667"/>
    <nd ref="10024227242"/>
    <nd ref="1431056601"/>
    <nd ref="1431056717"/>
    <tag k="highway" v="unclassified"/>
    <tag k="name" v="Ringway Road"/>
  </way>
  <way id="129775656" version="2" timestamp="2022-09-14T09:36:02Z" changeset="126171570" uid="12340839" user="mapboy63">
    <nd ref="1431056666"/>
    <nd ref="1431056738"/>
    <nd ref="1431056719"/>
    <nd ref="1431056729"/>
    <nd ref="1431056541"/>
    <nd ref="1431056741"/>
    <nd ref="1431056629"/>
    <nd ref="1431056739"/>
    <nd ref="1431056630"/>
    <nd ref="10023970484"/>
    <nd ref="1431056651"/>
    <nd ref="1431056544"/>
    <nd ref="1431056564"/>
    <nd ref="1431056530"/>
    <nd ref="1431056579"/>
    <nd ref="1431056532"/>
    <nd ref="1431056702"/>
    <nd ref="1431056694"/>
    <nd ref="1431056566"/>
    <nd ref="1431056559"/>
    <nd ref="1431056547"/>
    <nd ref="1431056733"/>
    <nd ref="1431056666"/>
    <tag k="highway" v="unclassified"/>
    <tag k="junction" v="roundabout"/>
  </way>
  <way id="134426548" version="10" timestamp="2023-01-18T09:31:28Z" changeset="131413448" uid="334129" user="murble">
    <nd ref="234929"/>
    <nd ref="934825913"/>
    <nd ref="516674116"/>
    <nd ref="516674119"/>
    <nd ref="516674121"/>
    <nd ref="234930"/>
    <nd ref="516674858"/>
    <nd ref="234931"/>
    <tag k="bicycle" v="no"/>
    <tag k="carriageway_ref" v="B"/>
    <tag k="highway" v="motorway"/>
    <tag k="lanes" v="3"/>
    <tag k="lit" v="yes"/>
    <tag k="maxheight" v="default"/>
    <tag k="maxspeed" v="70 mph"/>
    <tag k="national_highways:area" v="10"/>
    <tag k="oneway" v="yes"/>
    <tag k="operator" v="National Highways"/>
    <tag k="operator:wikidata" v="Q5760006"/>
    <tag k="ref" v="M56"/>
    <tag k="surface" v="asphalt"/>
  </way>
  <way id="134426549" version="9" timestamp="2022-10-28T19:14:50Z" changeset="128188162" uid="13666626" user="RedAuburn">
    <nd ref="934825815"/>
    <nd ref="1860382403"/>
    <nd ref="333977"/>
    <nd ref="934825897"/>
    <nd ref="21673921"/>
    <tag k="bicycle" v="no"/>
    <tag k="carriageway_ref" v="A"/>
    <tag k="highway" v="motorway"/>
    <tag k="lanes" v="4"/>
    <tag k="lit" v="yes"/>
    <tag k="maxspeed" v="70 mph"/>
    <tag k="national_highways:area" v="10"/>
    <tag k="oneway" v="yes"/>
    <tag k="operator" v="National Highways"/>
    <tag k="operator:wikidata" v="Q5760006"/>
    <tag k="ref" v="M56"/>
    <tag k="surface" v="asphalt"/>
  </way>
  <way id="134426550" version="9" timestamp="2022-10-28T19:14:50Z" changeset="128188162" uid="13666626" user="RedAuburn">
    <nd ref="1860382344"/>
    <nd ref="1563437681"/>
    <tag k="bicycle" v="no"/>
    <tag k="bridge" v="yes"/>
    <tag k="carriageway_ref" v="B"/>
    <tag k="highway" v="motorway"/>
    <tag k="lanes" v="4"/>
    <tag k="layer" v="1"/>
    <tag k="lit" v="yes"/>
    <tag k="maxspeed" v="70 mph"/>
    <tag k="national_highways:area" v="10"/>
    <tag k="oneway" v="yes"/>
    <tag k="operator" v="National Highways"/>
    <tag k="operator:wikidata" v="Q5760006"/>
    <tag k="ref" v="M56"/>
    <tag k="surface" v="asphalt"/>
  </way>
  <way id="137727224" version="3" timestamp="2015-11-09T12:41:08Z" changeset="35190964" uid="1293386" user="Sal73x">
    <nd ref="270732439"/>
    <nd ref="1510345552"/>
    <nd ref="1510345460"/>
    <nd ref="1510345636"/>
    <nd ref="1510345438"/>
    <nd ref="1510345368"/>
    <nd ref="1510345470"/>
    <nd ref="1510345639"/>
    <nd ref="1510345619"/>
    <nd ref="1510345595"/>
    <nd ref="1510345446"/>
    <nd ref="1510345575"/>
    <nd ref="1510345510"/>
    <nd ref="270732441"/>
    <nd ref="1510345544"/>
    <nd ref="270732440"/>
    <nd ref="1511314432"/>
    <nd ref="1511314386"/>
    <nd ref="1511314366"/>
    <nd ref="1511314346"/>
    <nd ref="1511314452"/>
    <nd ref="270732439"/>
    <tag k="aeroway" v="terminal"/>
    <tag k="building" v="yes"/>
    <tag k="name" v="Gates 1-15"/>
  </way>
  <way id="142876138" version="11" timestamp="2022-10-28T19:14:53Z" changeset="128188162" uid="13666626" user="RedAuburn">
    <nd ref="1563423014"/>
    <nd ref="84949458"/>
    <nd ref="5191552115"/>
    <nd ref="234923"/>
    <nd ref="5191552116"/>
    <nd ref="1563437682"/>
    <nd ref="234924"/>
    <tag k="bicycle" v="no"/>
    <tag k="carriageway_ref" v="B"/>
    <tag k="highway" v="motorway"/>
    <tag k="lanes" v="3"/>
    <tag k="lit" v="yes"/>
    <tag k="maxspeed" v="70 mph"/>
    <tag k="national_highways:area" v="10"/>
    <tag k="oneway" v="yes"/>
    <tag k="operator" v="National Highways"/>
    <tag k="operator:wikidata" v="Q5760006"/>
    <tag k="proposed:active_traffic_management" v="yes"/>
    <tag k="ref" v="M56"/>
    <tag k="surface" v="asphalt"/>
  </way>
  <way id="142876139" version="12" timestamp="2023-01-18T09:33:39Z" changeset="131413448" uid="334129" user="murble">
    <nd ref="1563423013"/>
    <nd ref="333972"/>
    <nd ref="401344271"/>
    <nd ref="401344268"/>
    <nd ref="333971"/>
    <tag k="bicycle" v="no"/>
    <tag k="carriageway_ref" v="A"/>
    <tag k="highway" v="motorway"/>
    <tag k="lanes" v="3"/>
    <tag k="lit" v="no"/>
    <tag k="maxheight" v="default"/>
    <tag k="maxspeed" v="70 mph"/>
    <tag k="maxspeed:type" v="GB:motorway"/>
    <tag k="national_highways:area" v="10"/>
    <tag k="oneway" v="yes"/>
    <tag k="operator" v="National Highways"/>
    <tag k="operator:wikidata" v="Q5760006"/>
    <tag k="proposed:active_traffic_management" v="yes"/>
    <tag k="ref" v="M56"/>
    <tag k="surface" v="asphalt"/>
  </way>
  <way id="142880354" version="9" timestamp="2022-10-28T19:14:53Z" changeset="128188162" uid="13666626" user="RedAuburn">
    <nd ref="1563437681"/>
    <nd ref="934825880"/>
    <nd ref="234926"/>
    <nd ref="1860382398"/>
    <nd ref="934825791"/>
    <nd ref="234927"/>
    <nd ref="516674105"/>
    <nd ref="934825918"/>
    <nd ref="234928"/>
    <nd ref="516674112"/>
    <nd ref="234929"/>
    <tag k="bicycle" v="no"/>
    <tag k="carriageway_ref" v="B"/>
    <tag k="highway" v="motorway"/>
    <tag k="lanes" v="4"/>
    <tag k="lit" v="yes"/>
    <tag k="maxspeed" v="70 mph"/>
    <tag k="national_highways:area" v="10"/>
    <tag k="oneway" v="yes"/>
    <tag k="operator" v="National Highways"/>
    <tag k="operator:wikidata" v="Q5760006"/>
    <tag k="ref" v="M56"/>
    <tag k="surface" v="asphalt"/>
  </way>
  <way id="143257838" version="10" timestamp="2024-10-11T22:10:58Z" changeset="157774959" uid="5229644" user="Nathan_A_RF">
    <nd ref="20910602"/>
    <nd ref="20910573"/>
    <nd ref="934825840"/>
    <nd ref="20910590"/>
    <nd ref="934825866"/>
    <nd ref="20910591"/>
    <nd ref="20910592"/>
    <tag k="highway" v="motorway"/>
    <tag k="lanes" v="3"/>
    <tag k="lit" v="yes"/>
    <tag k="maxspeed" v="70 mph"/>
    <tag k="maxspeed:type" v="GB:motorway"/>
    <tag k="national_highways:area" v="10"/>
    <tag k="oneway" v="yes"/>
    <tag k="operator" v="National Highways"/>
    <tag k="operator:wikidata" v="Q5760006"/>
    <tag k="ref" v="M56"/>
    <tag k="surface" v="asphalt"/>
  </way>
  <way id="143877294" version="8" timestamp="2024-10-26T00:40:01Z" changeset="158358881" uid="21883015" user="uneaten puffed">
    <nd ref="1574471976"/>
    <nd ref="1574454625"/>
    <nd ref="60901080"/>
    <tag k="highway" v="unclassified"/>
    <tag k="maxspeed" v="20 mph"/>
    <tag k="oneway" v="yes"/>
    <tag k="service" v="driveway"/>
  </way>
  <way id="143887945" version="6" timestamp="2025-02-08T11:28:30Z" changeset="162275961" uid="184757" user="97wrangler">
    <nd ref="1574514587"/>
    <nd ref="4718946686"/>
    <nd ref="4718946685"/>
    <nd ref="1574514593"/>
    <nd ref="1574514595"/>
    <nd ref="1574514591"/>
    <nd ref="1574514589"/>
    <nd ref="1574514582"/>
    <nd ref="1574514583"/>
    <nd ref="1574514588"/>
    <nd ref="1574514587"/>
    <tag k="addr:city" v="Manchester Airport"/>
    <tag k="addr:postcode" v="M90 5UZ"/>
    <tag k="addr:street" v="Western Maintenance Area"/>
    <tag k="building" v="industrial"/>
    <tag k="name" v="Swissport Maintenance"/>
  </way>
  <way id="145022217" version="6" timestamp="2022-03-01T13:16:31Z" changeset="117979887" uid="8571542" user="Merzof">
    <nd ref="360919877"/>
    <nd ref="360919887"/>
    <nd ref="4718947827"/>
    <nd ref="360919882"/>
    <nd ref="1860579940"/>
    <tag k="highway" v="unclassified"/>
    <tag k="lit" v="yes"/>
    <tag k="maxspeed" v="20 mph"/>
    <tag k="name" v="Avro Way"/>
    <tag k="sidewalk" v="left"/>
    <tag k="source" v="GPS survey"/>
  </way>
  <way id="145022249" version="9" timestamp="2022-06-17T22:58:19Z" changeset="122526670" uid="3336141" user="Fraham">
    <nd ref="360913387"/>
    <nd ref="360919834"/>
    <nd ref="360919840"/>
    <tag k="highway" v="unclassified"/>
    <tag k="lit" v="yes"/>
    <tag k="maxspeed" v="30 mph"/>
    <tag k="name" v="Avro Way"/>
    <tag k="sidewalk" v="left"/>
    <tag k="source" v="GPS survey"/>
  </way>
  <way id="155681145" version="9" timestamp="2022-09-14T11:26:10Z" changeset="126176850" uid="12340839" user="mapboy63">
    <nd ref="936992679"/>
    <nd ref="847546454"/>
    <nd ref="847545633"/>
    <nd ref="10013854907"/>
    <nd ref="10017910983"/>
    <nd ref="847545634"/>
    <nd ref="10024227230"/>
    <nd ref="847545636"/>
    <nd ref="10023970453"/>
    <nd ref="10006308076"/>
    <nd ref="1680588974"/>
    <nd ref="847544743"/>
    <tag k="highway" v="unclassified"/>
    <tag k="lanes" v="2"/>
    <tag k="lit" v="yes"/>
    <tag k="name" v="Parade Road"/>
    <tag k="sidewalk" v="both"/>
    <tag k="source" v="GPS survey"/>
    <tag k="surface" v="paved"/>
  </way>
  <way id="155681149" version="5" timestamp="2022-07-09T19:19:13Z" changeset="123411463" uid="3475996" user="bobbob101">
    <nd ref="1680589271"/>
    <nd ref="270732677"/>
    <nd ref="1680589288"/>
    <nd ref="1680589282"/>
    <nd ref="270732679"/>
    <nd ref="1680589248"/>
    <nd ref="847559383"/>
    <nd ref="847559384"/>
    <nd ref="847559385"/>
    <nd ref="847559386"/>
    <nd ref="847559387"/>
    <nd ref="847559388"/>
    <nd ref="1511352860"/>
    <nd ref="847559379"/>
    <nd ref="847559380"/>
    <nd ref="1680589271"/>
    <tag k="brand" v="Radisson Blu"/>
    <tag k="brand:wikidata" v="Q7281341"/>
    <tag k="building" v="yes"/>
    <tag k="name" v="Radisson Blu"/>
    <tag k="source" v="Bing"/>
    <tag k="tourism" v="hotel"/>
  </way>
  <way id="155732261" version="32" timestamp="2023-09-28T11:20:17Z" changeset="141859962" uid="1915697" user="Hilton Hotels">
    <nd ref="935174848"/>
    <nd ref="10029703581"/>
    <nd ref="10029703580"/>
    <nd ref="10029703579"/>
    <nd ref="10029703578"/>
    <nd ref="1680912976"/>
    <nd ref="10029703616"/>
    <nd ref="10029703615"/>
    <nd ref="10029703619"/>
    <nd ref="10029703618"/>
    <nd ref="10029703617"/>
    <nd ref="10029703613"/>
    <nd ref="10029703614"/>
    <nd ref="10029703612"/>
    <nd ref="3071577036"/>
    <nd ref="3071577035"/>
    <nd ref="10029703611"/>
    <nd ref="10029703610"/>
    <nd ref="10029703609"/>
    <nd ref="10029703608"/>
    <nd ref="10029703607"/>
    <nd ref="10029703606"/>
    <nd ref="10029703605"/>
    <nd ref="1680912978"/>
    <nd ref="10029703604"/>
    <nd ref="10029703603"/>
    <nd ref="10029703602"/>
    <nd ref="10029703601"/>
    <nd ref="10029703600"/>
    <nd ref="1680912982"/>
    <nd ref="935174851"/>
    <nd ref="10029703599"/>
    <nd ref="935174853"/>
    <nd ref="10029703598"/>
    <nd ref="10029703597"/>
    <nd ref="10029703596"/>
    <nd ref="935174855"/>
    <nd ref="935174828"/>
    <nd ref="1680912997"/>
    <nd ref="10029703595"/>
    <nd ref="10029703594"/>
    <nd ref="10029703593"/>
    <nd ref="10029703592"/>
    <nd ref="10029703587"/>
    <nd ref="10029703591"/>
    <nd ref="10029703590"/>
    <nd ref="10029703589"/>
    <nd ref="10029703586"/>
    <nd ref="10029703588"/>
    <nd ref="10029703585"/>
    <nd ref="1680912995"/>
    <nd ref="10029703584"/>
    <nd ref="1680912989"/>
    <nd ref="10029703583"/>
    <nd ref="10029703582"/>
    <nd ref="3071577039"/>
    <nd ref="935174848"/>
    <tag k="addr:city" v="Manchester"/>
    <tag k="addr:postcode" v="M90 4WP"/>
    <tag k="addr:street" v="Outwood Road"/>
    <tag k="brand" v="DoubleTree"/>
    <tag k="brand:wikidata" v="Q2504643"/>
    <tag k="brand:wikipedia" v="en:DoubleTree"/>
    <tag k="building" v="yes"/>
    <tag k="contact:facebook" v="https://www.facebook.com/DT.ManchesterAirport/"/>
    <tag k="contact:instagram" v="https://www.instagram.com/dtmanair/"/>
    <tag k="contact:linkedin" v="https://www.linkedin.com/company/doubletree-by-hilton-manchester-airport/"/>
    <tag k="contact:twitter" v="https://twitter.com/DT_ManAir"/>
    <tag k="email" v="reservations@dtmanchesterairport.com"/>
    <tag k="fax" v="+44 161 499 2399"/>
    <tag k="internet_access" v="yes"/>
    <tag k="internet_access:fee" v="yes"/>
    <tag k="name" v="DoubleTree by Hilton Manchester Airport"/>
    <tag k="official_name" v="DoubleTree by Hilton"/>
    <tag k="operator" v="Hilton Hotels"/>
    <tag k="phone" v="+44 161 435 3000"/>
    <tag k="rooms" v="230"/>
    <tag k="smoking" v="outside"/>
    <tag k="stars" v="4"/>
    <tag k="tourism" v="hotel"/>
    <tag k="website" v="https://www.hilton.com/en/hotels/manhidi-doubletree-manchester-airport/"/>
    <tag k="wheelchair" v="yes"/>
  </way>
  <way id="175451315" version="12" timestamp="2024-10-11T22:10:58Z" changeset="157774959" uid="5229644" user="Nathan_A_RF">
    <nd ref="937044061"/>
    <nd ref="936992770"/>
    <nd ref="20910598"/>
    <nd ref="936992938"/>
    <nd ref="20910596"/>
    <nd ref="936992941"/>
    <nd ref="1567702885"/>
    <nd ref="936992886"/>
    <nd ref="1860361303"/>
    <nd ref="20910602"/>
    <tag k="cutting" v="yes"/>
    <tag k="highway" v="motorway"/>
    <tag k="lanes" v="2"/>
    <tag k="lit" v="yes"/>
    <tag k="maxspeed" v="70 mph"/>
    <tag k="maxspeed:type" v="GB:motorway"/>
    <tag k="national_highways:area" v="10"/>
    <tag k="oneway" v="yes"/>
    <tag k="operator" v="National Highways"/>
    <tag k="operator:wikidata" v="Q5760006"/>
    <tag k="ref" v="M56"/>
    <tag k="surface" v="asphalt"/>
  </way>
  <way id="175451316" version="13" timestamp="2024-10-11T22:10:58Z" changeset="157774959" uid="5229644" user="Nathan_A_RF">
    <nd ref="1680007723"/>
    <nd ref="937044061"/>
    <tag k="cutting" v="yes"/>
    <tag k="highway" v="motorway"/>
    <tag k="lanes" v="1"/>
    <tag k="lit" v="yes"/>
    <tag k="maxspeed" v="70 mph"/>
    <tag k="maxspeed:type" v="GB:motorway"/>
    <tag k="national_highways:area" v="10"/>
    <tag k="oneway" v="yes"/>
    <tag k="operator" v="National Highways"/>
    <tag k="operator:wikidata" v="Q5760006"/>
    <tag k="ref" v="M56"/>
    <tag k="surface" v="asphalt"/>
  </way>
  <way id="175451318" version="6" timestamp="2022-11-30T22:41:37Z" changeset="129578749" uid="12340839" user="mapboy63">
    <nd ref="847559516"/>
    <nd ref="847559480"/>
    <nd ref="847559481"/>
    <nd ref="4934117371"/>
    <nd ref="4934117370"/>
    <nd ref="847559483"/>
    <tag k="highway" v="unclassified"/>
    <tag k="lanes" v="2"/>
    <tag k="lit" v="yes"/>
    <tag k="maxspeed" v="30 mph"/>
    <tag k="name" v="Toronto Avenue"/>
    <tag k="sidewalk" v="both"/>
    <tag k="source" v="Yahoo"/>
    <tag k="surface" v="paved"/>
  </way>
  <way id="175451319" version="8" timestamp="2023-08-26T13:35:18Z" changeset="140412358" uid="12992" user="trigpoint">
    <nd ref="937044064"/>
    <nd ref="9546017531"/>
    <nd ref="1610739393"/>
    <nd ref="60168095"/>
    <nd ref="1610739439"/>
    <nd ref="1610739467"/>
    <nd ref="60168108"/>
    <nd ref="1610739508"/>
    <tag k="highway" v="tertiary"/>
    <tag k="lanes" v="2"/>
    <tag k="lit" v="yes"/>
    <tag k="maxspeed" v="30 mph"/>
    <tag k="name" v="Outwood Road"/>
    <tag k="oneway" v="yes"/>
    <tag k="source" v="GPS survey"/>
    <tag k="surface" v="asphalt"/>
  </way>
  <way id="175451320" version="4" timestamp="2019-09-17T09:23:38Z" changeset="74567084" uid="4948143" user="doublah">
    <nd ref="60168305"/>
    <nd ref="956762237"/>
    <tag k="highway" v="tertiary"/>
    <tag k="lanes" v="2"/>
    <tag k="lit" v="yes"/>
    <tag k="name" v="Outwood Road"/>
    <tag k="oneway" v="yes"/>
    <tag k="sidewalk" v="left"/>
    <tag k="source" v="GPS survey"/>
  </way>
  <way id="175451325" version="5" timestamp="2022-11-30T22:41:37Z" changeset="129578749" uid="12340839" user="mapboy63">
    <nd ref="1860361279"/>
    <nd ref="847559478"/>
    <nd ref="847559479"/>
    <nd ref="847559516"/>
    <tag k="highway" v="unclassified"/>
    <tag k="lanes" v="2"/>
    <tag k="lit" v="yes"/>
    <tag k="maxspeed" v="30 mph"/>
    <tag k="name" v="Toronto Avenue"/>
    <tag k="sidewalk" v="left"/>
    <tag k="source" v="Yahoo"/>
    <tag k="surface" v="paved"/>
  </way>
  <way id="175453781" version="10" timestamp="2022-10-28T19:15:06Z" changeset="128188196" uid="13666626" user="RedAuburn">
    <nd ref="1860382341"/>
    <nd ref="310479932"/>
    <nd ref="258566764"/>
    <nd ref="1860382322"/>
    <nd ref="333975"/>
    <nd ref="516674081"/>
    <nd ref="5191552110"/>
    <nd ref="516674078"/>
    <nd ref="333974"/>
    <tag k="bicycle" v="no"/>
    <tag k="carriageway_ref" v="A"/>
    <tag k="highway" v="motorway"/>
    <tag k="lanes" v="3"/>
    <tag k="lit" v="yes"/>
    <tag k="maxspeed" v="70 mph"/>
    <tag k="maxspeed:type" v="GB:motorway"/>
    <tag k="national_highways:area" v="10"/>
    <tag k="oneway" v="yes"/>
    <tag k="operator" v="National Highways"/>
    <tag k="operator:wikidata" v="Q5760006"/>
    <tag k="ref" v="M56"/>
    <tag k="surface" v="asphalt"/>
  </way>
  <way id="175453782" version="8" timestamp="2022-10-28T19:15:06Z" changeset="128188196" uid="13666626" user="RedAuburn">
    <nd ref="1860382354"/>
    <nd ref="1860382346"/>
    <nd ref="1860382341"/>
    <tag k="bicycle" v="no"/>
    <tag k="bridge" v="yes"/>
    <tag k="carriageway_ref" v="A"/>
    <tag k="highway" v="motorway"/>
    <tag k="lanes" v="3"/>
    <tag k="layer" v="1"/>
    <tag k="lit" v="yes"/>
    <tag k="maxspeed" v="70 mph"/>
    <tag k="maxspeed:type" v="GB:motorway"/>
    <tag k="national_highways:area" v="10"/>
    <tag k="oneway" v="yes"/>
    <tag k="operator" v="National Highways"/>
    <tag k="operator:wikidata" v="Q5760006"/>
    <tag k="ref" v="M56"/>
    <tag k="surface" v="asphalt"/>
  </way>
  <way id="175453783" version="5" timestamp="2024-05-16T11:07:16Z" changeset="151402402" uid="21425661" user="CjMalone">
    <nd ref="1860382394"/>
    <nd ref="1860382402"/>
    <nd ref="1860382401"/>
    <nd ref="1860382400"/>
    <nd ref="1860382399"/>
    <nd ref="1860382395"/>
    <nd ref="1860382396"/>
    <nd ref="1860382393"/>
    <nd ref="1860382394"/>
    <tag k="brand" v="Premier Inn"/>
    <tag k="brand:wikidata" v="Q2108626"/>
    <tag k="building" v="yes"/>
    <tag k="internet_access" v="wlan"/>
    <tag k="internet_access:fee" v="customers"/>
    <tag k="internet_access:operator" v="Virgin Media"/>
    <tag k="internet_access:ssid" v="Premier Inn Free Wi-Fi"/>
    <tag k="name" v="Premier Inn Manchester Airport (Runger Lane South)"/>
    <tag k="operator" v="Premier Inn"/>
    <tag k="source" v="Bing"/>
    <tag k="tourism" v="hotel"/>
    <tag k="website" v="https://www.premierinn.com/gb/en/hotels/england/greater-manchester/manchester/manchester-airport-m56j6-runger-lane-south.html"/>
  </way>
  <way id="175453784" version="5" timestamp="2024-05-16T11:07:16Z" changeset="151402402" uid="21425661" user="CjMalone">
    <nd ref="1860382385"/>
    <nd ref="1860382387"/>
    <nd ref="1860382389"/>
    <nd ref="1860382392"/>
    <nd ref="1860382381"/>
    <nd ref="1860382377"/>
    <nd ref="1860382373"/>
    <nd ref="1860382358"/>
    <nd ref="1860382362"/>
    <nd ref="1860382366"/>
    <nd ref="1860382368"/>
    <nd ref="1860382375"/>
    <nd ref="1860382379"/>
    <nd ref="1860382385"/>
    <tag k="brand" v="Premier Inn"/>
    <tag k="brand:wikidata" v="Q2108626"/>
    <tag k="building" v="yes"/>
    <tag k="description" v="Manchester Airport Freight Terminal"/>
    <tag k="internet_access" v="wlan"/>
    <tag k="internet_access:fee" v="customers"/>
    <tag k="internet_access:operator" v="Virgin Media"/>
    <tag k="internet_access:ssid" v="Premier Inn Free Wi-Fi"/>
    <tag k="name" v="Premier Inn Manchester Airport FT (Runger Lane North)"/>
    <tag k="operator" v="Premier Inn"/>
    <tag k="source" v="Bing"/>
    <tag k="tourism" v="hotel"/>
    <tag k="website" v="https://www.premierinn.com/gb/en/hotels/england/greater-manchester/manchester/manchester-airport-m56j6-runger-lane-north.html"/>
  </way>
  <way id="175453785" version="11" timestamp="2022-07-09T17:53:29Z" changeset="123408755" uid="3475996" user="bobbob101">
    <nd ref="1860382348"/>
    <nd ref="1860382340"/>
    <nd ref="1860382339"/>
    <nd ref="1860382337"/>
    <nd ref="1860382342"/>
    <nd ref="1860382343"/>
    <nd ref="1860382353"/>
    <nd ref="1860382355"/>
    <nd ref="1860382345"/>
    <nd ref="1860382351"/>
    <nd ref="4716718741"/>
    <nd ref="4716718740"/>
    <nd ref="4716718739"/>
    <nd ref="4716718738"/>
    <nd ref="1860382348"/>
    <tag k="addr:city" v="Manchester"/>
    <tag k="addr:country" v="GB"/>
    <tag k="addr:postcode" v="M90 5DL"/>
    <tag k="addr:street" v="Runger Lane"/>
    <tag k="brand" v="Holiday Inn Express"/>
    <tag k="brand:wikidata" v="Q5880423"/>
    <tag k="building" v="yes"/>
    <tag k="building:levels" v="3"/>
    <tag k="email" v="reservations@hiexmanchesterairport.co.uk"/>
    <tag k="fax" v="+44 (0)161 980 9949"/>
    <tag k="internet_access" v="wlan"/>
    <tag k="name" v="Holiday Inn Express Manchester Airport"/>
    <tag k="opening_hours" v="24/7"/>
    <tag k="phone" v="+44 161 980 2556"/>
    <tag k="source" v="survey"/>
    <tag k="tourism" v="hotel"/>
    <tag k="website" v="http://www.hiexmanchesterairport.co.uk"/>
  </way>
  <way id="175453786" version="12" timestamp="2024-03-20T19:59:46Z" changeset="148931877" uid="19756269" user="RyanBush">
    <nd ref="21672265"/>
    <nd ref="310480191"/>
    <nd ref="21672264"/>
    <nd ref="310480190"/>
    <nd ref="21672263"/>
    <nd ref="310480189"/>
    <nd ref="21672262"/>
    <nd ref="21672261"/>
    <nd ref="310480187"/>
    <nd ref="21672260"/>
    <nd ref="310480184"/>
    <nd ref="21672259"/>
    <nd ref="310480185"/>
    <nd ref="310480186"/>
    <nd ref="8911528197"/>
    <tag k="bicycle" v="no"/>
    <tag k="destination" v="Wilmslow;Hale;Macclesfield"/>
    <tag k="destination:ref" v="A538;(A537)"/>
    <tag k="highway" v="motorway_link"/>
    <tag k="lanes" v="2"/>
    <tag k="lit" v="yes"/>
    <tag k="maxspeed" v="70 mph"/>
    <tag k="national_highways:area" v="10"/>
    <tag k="oneway" v="yes"/>
    <tag k="operator" v="National Highways"/>
    <tag k="operator:wikidata" v="Q5760006"/>
    <tag k="ref" v="M56"/>
    <tag k="source" v="Bing"/>
    <tag k="surface" v="asphalt"/>
  </way>
  <way id="175453788" version="11" timestamp="2024-03-20T19:59:46Z" changeset="148931877" uid="19756269" user="RyanBush">
    <nd ref="1860382352"/>
    <nd ref="1860382338"/>
    <tag k="bicycle" v="no"/>
    <tag k="bridge" v="yes"/>
    <tag k="destination" v="Wilmslow;Hale;Macclesfield"/>
    <tag k="destination:ref" v="A538;(A537)"/>
    <tag k="highway" v="motorway_link"/>
    <tag k="lanes" v="1"/>
    <tag k="layer" v="1"/>
    <tag k="lit" v="yes"/>
    <tag k="maxspeed" v="70 mph"/>
    <tag k="national_highways:area" v="10"/>
    <tag k="oneway" v="yes"/>
    <tag k="operator" v="National Highways"/>
    <tag k="operator:wikidata" v="Q5760006"/>
    <tag k="ref" v="M56"/>
    <tag k="source" v="Bing"/>
    <tag k="surface" v="asphalt"/>
  </way>
  <way id="175453789" version="9" timestamp="2022-10-28T19:15:06Z" changeset="128188196" uid="13666626" user="RedAuburn">
    <nd ref="1860382356"/>
    <nd ref="934825880"/>
    <tag k="bicycle" v="no"/>
    <tag k="highway" v="motorway_link"/>
    <tag k="lanes" v="1"/>
    <tag k="lit" v="yes"/>
    <tag k="maxspeed" v="70 mph"/>
    <tag k="national_highways:area" v="10"/>
    <tag k="oneway" v="yes"/>
    <tag k="operator" v="National Highways"/>
    <tag k="operator:wikidata" v="Q5760006"/>
    <tag k="ref" v="M56"/>
    <tag k="surface" v="asphalt"/>
  </way>
  <way id="175453792" version="9" timestamp="2022-10-28T19:15:06Z" changeset="128188196" uid="13666626" user="RedAuburn">
    <nd ref="21673920"/>
    <nd ref="1860382349"/>
    <nd ref="1860382356"/>
    <tag k="bicycle" v="no"/>
    <tag k="bridge" v="yes"/>
    <tag k="highway" v="motorway_link"/>
    <tag k="lanes" v="1"/>
    <tag k="layer" v="1"/>
    <tag k="lit" v="yes"/>
    <tag k="maxspeed" v="70 mph"/>
    <tag k="national_highways:area" v="10"/>
    <tag k="oneway" v="yes"/>
    <tag k="operator" v="National Highways"/>
    <tag k="operator:wikidata" v="Q5760006"/>
    <tag k="ref" v="M56"/>
    <tag k="surface" v="asphalt"/>
  </way>
  <way id="175453794" version="11" timestamp="2024-03-20T19:59:46Z" changeset="148931877" uid="19756269" user="RyanBush">
    <nd ref="1860382338"/>
    <nd ref="1860382336"/>
    <nd ref="21672266"/>
    <nd ref="310480192"/>
    <nd ref="21672265"/>
    <tag k="bicycle" v="no"/>
    <tag k="destination" v="Wilmslow;Hale;Macclesfield"/>
    <tag k="destination:ref" v="A538;(A537)"/>
    <tag k="highway" v="motorway_link"/>
    <tag k="lanes" v="1"/>
    <tag k="lit" v="yes"/>
    <tag k="maxspeed" v="70 mph"/>
    <tag k="national_highways:area" v="10"/>
    <tag k="oneway" v="yes"/>
    <tag k="operator" v="National Highways"/>
    <tag k="operator:wikidata" v="Q5760006"/>
    <tag k="ref" v="M56"/>
    <tag k="source" v="Bing"/>
    <tag k="surface" v="asphalt"/>
  </way>
  <way id="194737711" version="16" timestamp="2023-08-26T13:35:18Z" changeset="140412358" uid="12992" user="trigpoint">
    <nd ref="9136491450"/>
    <nd ref="5204347022"/>
    <nd ref="1610739465"/>
    <nd ref="936992910"/>
    <nd ref="1610739506"/>
    <nd ref="20910625"/>
    <tag k="bicycle" v="yes"/>
    <tag k="highway" v="trunk"/>
    <tag k="lanes" v="2"/>
    <tag k="lit" v="yes"/>
    <tag k="maxspeed" v="40 mph"/>
    <tag k="name" v="Ringway Road West"/>
    <tag k="oneway" v="yes"/>
    <tag k="ref" v="A555"/>
  </way>
  <way id="200748307" version="4" timestamp="2019-08-16T17:30:24Z" changeset="73424881" uid="4948143" user="doublah">
    <nd ref="20910561"/>
    <nd ref="936992912"/>
    <nd ref="936992730"/>
    <nd ref="191002835"/>
    <nd ref="20910570"/>
    <tag k="highway" v="tertiary"/>
    <tag k="junction" v="roundabout"/>
    <tag k="lanes" v="2"/>
    <tag k="lit" v="yes"/>
    <tag k="maxspeed" v="40 mph"/>
    <tag k="name" v="Terminal 2 Roundabout"/>
    <tag k="sidewalk" v="no"/>
    <tag k="smoothness" v="excellent"/>
    <tag k="source" v="GPS"/>
    <tag k="surface" v="paved"/>
  </way>
  <way id="200748311" version="7" timestamp="2022-09-15T17:19:26Z" changeset="126233408" uid="12340839" user="mapboy63">
    <nd ref="191002899"/>
    <nd ref="8582237284"/>
    <nd ref="20910563"/>
    <nd ref="9538586177"/>
    <nd ref="20910569"/>
    <nd ref="1680589513"/>
    <nd ref="10027889593"/>
    <nd ref="20910571"/>
    <tag k="cycleway:left" v="track"/>
    <tag k="highway" v="tertiary"/>
    <tag k="junction" v="roundabout"/>
    <tag k="lanes" v="2"/>
    <tag k="lit" v="yes"/>
    <tag k="maxspeed" v="40 mph"/>
    <tag k="name" v="Terminal 2 Roundabout"/>
    <tag k="sidewalk" v="no"/>
    <tag k="smoothness" v="excellent"/>
    <tag k="source" v="GPS"/>
    <tag k="surface" v="paved"/>
  </way>
  <way id="200748314" version="2" timestamp="2020-07-19T08:44:41Z" changeset="88194241" uid="4948143" user="doublah">
    <nd ref="60168061"/>
    <nd ref="936992928"/>
    <nd ref="1680589055"/>
    <nd ref="60168062"/>
    <nd ref="60168063"/>
    <nd ref="938644111"/>
    <nd ref="847545039"/>
    <nd ref="1680589037"/>
    <nd ref="60168064"/>
    <nd ref="7728078332"/>
    <nd ref="60168065"/>
    <nd ref="60168066"/>
    <nd ref="1680588992"/>
    <tag k="highway" v="tertiary"/>
    <tag k="junction" v="roundabout"/>
  </way>
  <way id="200748315" version="7" timestamp="2021-04-04T10:35:25Z" changeset="102265007" uid="6397757" user="TomJeffs">
    <nd ref="21672199"/>
    <nd ref="5537413952"/>
    <nd ref="21672198"/>
    <nd ref="310480891"/>
    <nd ref="21672197"/>
    <nd ref="8592090984"/>
    <nd ref="5537413953"/>
    <nd ref="21672196"/>
    <nd ref="5537413954"/>
    <nd ref="310480890"/>
    <nd ref="21672195"/>
    <nd ref="5537413955"/>
    <nd ref="5537413956"/>
    <nd ref="21672194"/>
    <nd ref="5537413957"/>
    <nd ref="21672193"/>
    <tag k="bicycle" v="yes"/>
    <tag k="cycleway:right" v="track"/>
    <tag k="highway" v="trunk"/>
    <tag k="lit" v="yes"/>
    <tag k="maxspeed" v="40 mph"/>
    <tag k="name" v="Wilmslow Road"/>
    <tag k="ref" v="A538"/>
  </way>
  <way id="200748317" version="5" timestamp="2021-10-20T18:11:14Z" changeset="112756856" uid="8571542" user="Merzof">
    <nd ref="20910568"/>
    <nd ref="936992875"/>
    <nd ref="938644262"/>
    <nd ref="936992821"/>
    <tag k="highway" v="tertiary"/>
    <tag k="junction" v="roundabout"/>
    <tag k="lanes" v="2"/>
    <tag k="lit" v="yes"/>
    <tag k="maxspeed" v="40 mph"/>
    <tag k="name" v="Terminal 2 Roundabout"/>
    <tag k="sidewalk" v="no"/>
    <tag k="smoothness" v="excellent"/>
    <tag k="source" v="GPS"/>
    <tag k="surface" v="paved"/>
  </way>
  <way id="200748318" version="9" timestamp="2022-10-09T16:02:59Z" changeset="127256445" uid="12340839" user="mapboy63">
    <nd ref="6528564562"/>
    <nd ref="5608998148"/>
    <nd ref="6528564561"/>
    <nd ref="5608998149"/>
    <nd ref="5608998150"/>
    <nd ref="5608998151"/>
    <tag k="highway" v="tertiary"/>
    <tag k="junction" v="roundabout"/>
    <tag k="lanes" v="2"/>
    <tag k="lit" v="yes"/>
    <tag k="maxspeed" v="30 mph"/>
    <tag k="name" v="Outwood Road"/>
    <tag k="oneway" v="yes"/>
    <tag k="sidewalk" v="no"/>
    <tag k="source" v="Maxar"/>
    <tag k="surface" v="paved"/>
  </way>
  <way id="200748319" version="5" timestamp="2021-07-11T13:56:30Z" changeset="107783788" uid="13341565" user="Falsernet">
    <nd ref="21672258"/>
    <nd ref="21672219"/>
    <nd ref="360913527"/>
    <nd ref="364510547"/>
    <tag k="bicycle" v="yes"/>
    <tag k="highway" v="trunk"/>
    <tag k="lit" v="yes"/>
    <tag k="maxspeed" v="40 mph"/>
    <tag k="name" v="Wilmslow Road"/>
    <tag k="oneway" v="yes"/>
    <tag k="ref" v="A538"/>
  </way>
  <way id="230603038" version="7" timestamp="2022-10-28T19:15:20Z" changeset="128188196" uid="13666626" user="RedAuburn">
    <nd ref="234924"/>
    <nd ref="5191552113"/>
    <nd ref="516674075"/>
    <nd ref="516674080"/>
    <nd ref="234925"/>
    <nd ref="1860382324"/>
    <nd ref="258566762"/>
    <nd ref="310479931"/>
    <nd ref="1860382344"/>
    <tag k="bicycle" v="no"/>
    <tag k="carriageway_ref" v="B"/>
    <tag k="highway" v="motorway"/>
    <tag k="lanes" v="3"/>
    <tag k="lit" v="yes"/>
    <tag k="maxspeed" v="70 mph"/>
    <tag k="national_highways:area" v="10"/>
    <tag k="oneway" v="yes"/>
    <tag k="operator" v="National Highways"/>
    <tag k="operator:wikidata" v="Q5760006"/>
    <tag k="ref" v="M56"/>
    <tag k="surface" v="asphalt"/>
  </way>
  <way id="230603039" version="7" timestamp="2022-10-28T19:15:20Z" changeset="128188196" uid="13666626" user="RedAuburn">
    <nd ref="333974"/>
    <nd ref="1563437674"/>
    <nd ref="1563437671"/>
    <nd ref="333973"/>
    <nd ref="84949438"/>
    <nd ref="1563423013"/>
    <tag k="bicycle" v="no"/>
    <tag k="carriageway_ref" v="A"/>
    <tag k="highway" v="motorway"/>
    <tag k="lanes" v="3"/>
    <tag k="lit" v="yes"/>
    <tag k="maxspeed" v="70 mph"/>
    <tag k="maxspeed:type" v="GB:motorway"/>
    <tag k="national_highways:area" v="10"/>
    <tag k="oneway" v="yes"/>
    <tag k="operator" v="National Highways"/>
    <tag k="operator:wikidata" v="Q5760006"/>
    <tag k="proposed:active_traffic_management" v="yes"/>
    <tag k="ref" v="M56"/>
    <tag k="surface" v="asphalt"/>
  </way>
  <way id="233759644" version="2" timestamp="2015-10-23T14:56:20Z" changeset="34822272" uid="2874110" user="wherebrained">
    <nd ref="1574471979"/>
    <nd ref="346840761"/>
    <tag k="access" v="private"/>
    <tag k="highway" v="unclassified"/>
    <tag k="maxspeed" v="20 mph"/>
    <tag k="oneway" v="yes"/>
  </way>
  <way id="233759647" version="7" timestamp="2023-06-25T20:54:55Z" changeset="137766911" uid="198183" user="Loshu">
    <nd ref="2420974761"/>
    <nd ref="2420974759"/>
    <nd ref="4730418206"/>
    <nd ref="2420974835"/>
    <nd ref="4730418205"/>
    <nd ref="2420974801"/>
    <nd ref="11006227698"/>
    <nd ref="2420974761"/>
    <tag k="amenity" v="restaurant"/>
    <tag k="building" v="yes"/>
    <tag k="name" v="Concorde Restaurant"/>
    <tag k="phone" v="+44 161 489 3932"/>
    <tag k="website" v="https://book.manchesterairport.co.uk/Rwvp"/>
  </way>
  <way id="233759664" version="5" timestamp="2023-06-25T20:54:55Z" changeset="137766911" uid="198183" user="Loshu">
    <nd ref="2420974859"/>
    <nd ref="2420974770"/>
    <nd ref="11006227694"/>
    <nd ref="11006227700"/>
    <nd ref="2420974756"/>
    <nd ref="2420974752"/>
    <nd ref="2420974859"/>
    <tag k="building" v="yes"/>
    <tag k="name" v="The Aviation Shop"/>
    <tag k="operator" v="Manchester Airport"/>
    <tag k="shop" v="souvenir"/>
  </way>
  <way id="242541470" version="22" timestamp="2024-10-11T22:10:58Z" changeset="157774959" uid="5229644" user="Nathan_A_RF">
    <nd ref="1860361291"/>
    <nd ref="9546017536"/>
    <nd ref="1610739581"/>
    <nd ref="6425319950"/>
    <nd ref="1610739591"/>
    <tag k="highway" v="motorway_link"/>
    <tag k="lanes" v="2"/>
    <tag k="lit" v="yes"/>
    <tag k="maxspeed" v="30 mph"/>
    <tag k="national_highways:area" v="10"/>
    <tag k="oneway" v="yes"/>
    <tag k="operator" v="National Highways"/>
    <tag k="operator:wikidata" v="Q5760006"/>
    <tag k="ref" v="M56"/>
  </way>
  <way id="270260273" version="2" timestamp="2017-03-05T18:26:55Z" changeset="46602906" uid="237926" user="midlandsdave">
    <nd ref="2753025430"/>
    <nd ref="4718947735"/>
    <nd ref="4718947736"/>
    <nd ref="2753025431"/>
    <nd ref="2753025432"/>
    <nd ref="2753025433"/>
    <nd ref="2753025434"/>
    <nd ref="2753025435"/>
    <nd ref="2753025436"/>
    <nd ref="2753025438"/>
    <nd ref="2753025439"/>
    <nd ref="2753025440"/>
    <nd ref="2753025441"/>
    <nd ref="2753025442"/>
    <nd ref="4718947732"/>
    <nd ref="4718947733"/>
    <nd ref="4718947734"/>
    <nd ref="2753025443"/>
    <nd ref="2753025444"/>
    <nd ref="2753025445"/>
    <nd ref="2753025446"/>
    <nd ref="2753025447"/>
    <nd ref="2753025430"/>
    <tag k="amenity" v="fire_station"/>
    <tag k="building" v="yes"/>
    <tag k="name" v="Manchester Airport North Fire Station"/>
    <tag k="operator" v="MAG Group"/>
  </way>
  <way id="300113808" version="5" timestamp="2022-10-03T15:10:31Z" changeset="126943217" uid="4078654" user="currybum">
    <nd ref="21672255"/>
    <nd ref="1860382332"/>
    <nd ref="21672226"/>
    <nd ref="8911528191"/>
    <tag k="bicycle" v="yes"/>
    <tag k="highway" v="trunk"/>
    <tag k="lit" v="yes"/>
    <tag k="maxspeed" v="40 mph"/>
    <tag k="name" v="Wilmslow Road"/>
    <tag k="oneway" v="yes"/>
    <tag k="ref" v="A538"/>
    <tag k="surface" v="asphalt"/>
  </way>
  <way id="300113810" version="6" timestamp="2024-01-08T22:40:31Z" changeset="146045510" uid="12340839" user="mapboy63">
    <nd ref="54857462"/>
    <nd ref="54857463"/>
    <nd ref="54857464"/>
    <nd ref="11233728680"/>
    <nd ref="1860382397"/>
    <nd ref="54857466"/>
    <nd ref="360919947"/>
    <nd ref="8584289126"/>
    <nd ref="54857468"/>
    <nd ref="54857470"/>
    <nd ref="1860382404"/>
    <nd ref="54857472"/>
    <nd ref="55203178"/>
    <nd ref="54857476"/>
    <nd ref="939142714"/>
    <nd ref="1860382405"/>
    <nd ref="1860382406"/>
    <nd ref="54857480"/>
    <nd ref="54857481"/>
    <nd ref="54857483"/>
    <nd ref="54857486"/>
    <nd ref="54857489"/>
    <nd ref="1860382407"/>
    <nd ref="54857491"/>
    <nd ref="54857493"/>
    <nd ref="11501123804"/>
    <nd ref="1860382410"/>
    <nd ref="11501123805"/>
    <nd ref="11501123806"/>
    <nd ref="54857497"/>
    <tag k="cycleway:right" v="track"/>
    <tag k="highway" v="tertiary"/>
    <tag k="lanes" v="2"/>
    <tag k="lit" v="yes"/>
    <tag k="maxspeed" v="30 mph"/>
    <tag k="name" v="Runger Lane"/>
    <tag k="source" v="GPS survey"/>
    <tag k="surface" v="paved"/>
  </way>
  <way id="300113811" version="4" timestamp="2022-12-04T20:18:10Z" changeset="129717126" uid="10893436" user="Dimitar155">
    <nd ref="360919840"/>
    <nd ref="360913497"/>
    <nd ref="1584887477"/>
    <nd ref="360919877"/>
    <tag k="highway" v="unclassified"/>
    <tag k="lit" v="yes"/>
    <tag k="maxspeed" v="30 mph"/>
    <tag k="name" v="Avro Way"/>
    <tag k="sidewalk" v="left"/>
    <tag k="source" v="GPS survey"/>
  </way>
  <way id="300113815" version="3" timestamp="2021-04-01T21:13:59Z" changeset="102149028" uid="6397757" user="TomJeffs">
    <nd ref="54857509"/>
    <nd ref="1680007976"/>
    <nd ref="54857510"/>
    <nd ref="54857512"/>
    <nd ref="8584289129"/>
    <nd ref="360924433"/>
    <nd ref="8584289130"/>
    <nd ref="54857516"/>
    <nd ref="8584289131"/>
    <nd ref="360898280"/>
    <tag k="cycleway:right" v="track"/>
    <tag k="highway" v="tertiary"/>
    <tag k="maxspeed" v="30 mph"/>
    <tag k="name" v="Thorley Lane"/>
  </way>
  <way id="302036261" version="2" timestamp="2016-11-10T18:31:58Z" changeset="43542357" uid="4834327" user="Jacob Axford">
    <nd ref="3062718375"/>
    <nd ref="3062718376"/>
    <nd ref="3062718377"/>
    <nd ref="3062718378"/>
    <nd ref="3062718379"/>
    <nd ref="3062718380"/>
    <nd ref="3062718375"/>
    <tag k="building" v="industrial"/>
    <tag k="name" v="Jet2.com"/>
  </way>
  <way id="302036263" version="2" timestamp="2019-06-30T15:33:40Z" changeset="71758988" uid="184757" user="97wrangler">
    <nd ref="3062718389"/>
    <nd ref="3062718390"/>
    <nd ref="3062718391"/>
    <nd ref="3062718392"/>
    <nd ref="3062718393"/>
    <nd ref="3062718394"/>
    <nd ref="3062718395"/>
    <nd ref="3062718396"/>
    <nd ref="3062718397"/>
    <nd ref="3062718398"/>
    <nd ref="3062718399"/>
    <nd ref="3062718400"/>
    <nd ref="3062718401"/>
    <nd ref="3062718402"/>
    <nd ref="3062718389"/>
    <tag k="building" v="industrial"/>
    <tag k="name" v="Signature Aviation"/>
  </way>
  <way id="304427334" version="5" timestamp="2024-02-07T14:17:25Z" changeset="147178905" uid="90943" user="chris_debian">
    <nd ref="3089612933"/>
    <nd ref="3089618972"/>
    <nd ref="7321466012"/>
    <nd ref="11594955842"/>
    <nd ref="11594955839"/>
    <nd ref="3089612912"/>
    <tag k="highway" v="unclassified"/>
    <tag k="lanes" v="2"/>
    <tag k="maxspeed" v="30 mph"/>
    <tag k="name" v="Sunbank Lane"/>
    <tag k="note" v="new layout September 2014. Don't reconstruct from Bing aerial imagery"/>
  </way>
  <way id="304427335" version="3" timestamp="2018-06-04T16:40:22Z" changeset="59543813" uid="111135" user="Pete Owens">
    <nd ref="3089612887"/>
    <nd ref="5664296709"/>
    <nd ref="3089612868"/>
    <nd ref="3089610060"/>
    <tag k="highway" v="unclassified"/>
    <tag k="lanes" v="2"/>
    <tag k="maxspeed" v="30 mph"/>
    <tag k="name" v="Sunbank Lane"/>
    <tag k="note" v="new layout September 2014. Don't reconstruct from Bing aerial imagery"/>
  </way>
  <way id="304427336" version="2" timestamp="2017-07-30T00:18:47Z" changeset="50682656" uid="6202436" user="Gabriel Reynolds">
    <nd ref="3089612912"/>
    <nd ref="3089612908"/>
    <nd ref="3089612905"/>
    <tag k="highway" v="unclassified"/>
    <tag k="maxspeed" v="30 mph"/>
    <tag k="name" v="Sunbank Lane"/>
    <tag k="note" v="new layout September 2014. Don't reconstruct from Bing aerial imagery"/>
    <tag k="oneway" v="yes"/>
  </way>
  <way id="304427337" version="2" timestamp="2017-07-30T00:18:48Z" changeset="50682656" uid="6202436" user="Gabriel Reynolds">
    <nd ref="3089612887"/>
    <nd ref="3089612890"/>
    <nd ref="3089612893"/>
    <tag k="highway" v="unclassified"/>
    <tag k="maxspeed" v="30 mph"/>
    <tag k="name" v="Sunbank Lane"/>
    <tag k="note" v="new layout September 2014. Don't reconstruct from Bing aerial imagery"/>
    <tag k="oneway" v="yes"/>
  </way>
  <way id="304427338" version="2" timestamp="2017-07-30T00:18:48Z" changeset="50682656" uid="6202436" user="Gabriel Reynolds">
    <nd ref="3089610051"/>
    <nd ref="3089610056"/>
    <nd ref="3089610060"/>
    <tag k="highway" v="unclassified"/>
    <tag k="maxspeed" v="30 mph"/>
    <tag k="name" v="Sunbank Lane"/>
    <tag k="note" v="new layout September 2014. Don't reconstruct from Bing aerial imagery"/>
    <tag k="oneway" v="yes"/>
  </way>
  <way id="304427339" version="4" timestamp="2025-04-26T09:23:15Z" changeset="165455518" uid="5229644" user="Nathan_A_RF">
    <nd ref="3089610062"/>
    <nd ref="3089610058"/>
    <nd ref="3089610052"/>
    <tag k="highway" v="unclassified"/>
    <tag k="maxspeed" v="30 mph"/>
    <tag k="oneway" v="yes"/>
  </way>
  <way id="304427340" version="2" timestamp="2017-07-30T00:18:47Z" changeset="50682656" uid="6202436" user="Gabriel Reynolds">
    <nd ref="3089612899"/>
    <nd ref="3089612895"/>
    <nd ref="3089612887"/>
    <tag k="highway" v="unclassified"/>
    <tag k="maxspeed" v="30 mph"/>
    <tag k="name" v="Sunbank Lane"/>
    <tag k="note" v="new layout September 2014. Don't reconstruct from Bing aerial imagery"/>
    <tag k="oneway" v="yes"/>
  </way>
  <way id="304427341" version="2" timestamp="2017-07-30T00:18:48Z" changeset="50682656" uid="6202436" user="Gabriel Reynolds">
    <nd ref="3089610060"/>
    <nd ref="3089610059"/>
    <nd ref="3089610055"/>
    <tag k="highway" v="unclassified"/>
    <tag k="maxspeed" v="30 mph"/>
    <tag k="name" v="Sunbank Lane"/>
    <tag k="note" v="new layout September 2014. Don't reconstruct from Bing aerial imagery"/>
    <tag k="oneway" v="yes"/>
  </way>
  <way id="304427342" version="3" timestamp="2018-06-04T16:40:22Z" changeset="59543813" uid="111135" user="Pete Owens">
    <nd ref="3089612900"/>
    <nd ref="5664296712"/>
    <nd ref="3089612904"/>
    <nd ref="3089612912"/>
    <tag k="highway" v="unclassified"/>
    <tag k="maxspeed" v="30 mph"/>
    <tag k="name" v="Sunbank Lane"/>
    <tag k="note" v="new layout September 2014. Don't reconstruct from Bing aerial imagery"/>
    <tag k="oneway" v="yes"/>
  </way>
  <way id="304427343" version="4" timestamp="2025-04-26T09:23:15Z" changeset="165455518" uid="5229644" user="Nathan_A_RF">
    <nd ref="3089610057"/>
    <nd ref="3089610061"/>
    <nd ref="3089610062"/>
    <tag k="highway" v="unclassified"/>
    <tag k="maxspeed" v="30 mph"/>
    <tag k="oneway" v="yes"/>
  </way>
  <way id="304427345" version="3" timestamp="2017-10-27T20:51:33Z" changeset="53303263" uid="735" user="blackadder">
    <nd ref="3089612880"/>
    <nd ref="5194868771"/>
    <nd ref="5194868772"/>
    <nd ref="3089612885"/>
    <nd ref="3089612910"/>
    <nd ref="3089612889"/>
    <nd ref="5194868770"/>
    <nd ref="5194868769"/>
    <nd ref="3089612880"/>
    <tag k="building" v="warehouse"/>
    <tag k="name" v="DHL"/>
    <tag k="note" v="approximate position &amp; size"/>
    <tag k="operator" v="DHL"/>
  </way>
  <way id="304427346" version="3" timestamp="2018-06-04T16:40:22Z" changeset="59543813" uid="111135" user="Pete Owens">
    <nd ref="5002289029"/>
    <nd ref="3089612897"/>
    <nd ref="3089612898"/>
    <nd ref="5002289021"/>
    <nd ref="3089612900"/>
    <nd ref="3089612902"/>
    <nd ref="5002289022"/>
    <nd ref="3089612905"/>
    <nd ref="5002289023"/>
    <nd ref="3089612907"/>
    <nd ref="3089612903"/>
    <nd ref="5002289024"/>
    <nd ref="3089612901"/>
    <nd ref="5002289025"/>
    <nd ref="3089612899"/>
    <nd ref="3089612896"/>
    <nd ref="5002289026"/>
    <nd ref="5002289027"/>
    <nd ref="3089612893"/>
    <nd ref="5002289028"/>
    <nd ref="3089612892"/>
    <nd ref="3089612894"/>
    <nd ref="5002289029"/>
    <tag k="highway" v="unclassified"/>
    <tag k="junction" v="roundabout"/>
    <tag k="maxspeed" v="30 mph"/>
    <tag k="note" v="new layout September 2014. Don't reconstruct from Bing aerial imagery"/>
  </way>
  <way id="304427347" version="6" timestamp="2025-04-26T09:23:15Z" changeset="165455518" uid="5229644" user="Nathan_A_RF">
    <nd ref="3089610051"/>
    <nd ref="3089610053"/>
    <nd ref="5002289030"/>
    <nd ref="3089610055"/>
    <nd ref="5002289031"/>
    <nd ref="3089610057"/>
    <nd ref="3089610054"/>
    <nd ref="5002289032"/>
    <nd ref="5002289033"/>
    <nd ref="3089610052"/>
    <nd ref="3089610050"/>
    <nd ref="5002289034"/>
    <nd ref="3089610048"/>
    <nd ref="3089610047"/>
    <nd ref="3089610044"/>
    <nd ref="5002289035"/>
    <nd ref="3089610042"/>
    <nd ref="5002289036"/>
    <nd ref="3089610043"/>
    <nd ref="3089610046"/>
    <nd ref="5002289037"/>
    <nd ref="3089610049"/>
    <nd ref="4368561712"/>
    <nd ref="3089610051"/>
    <tag k="highway" v="unclassified"/>
    <tag k="junction" v="roundabout"/>
    <tag k="maxspeed" v="30 mph"/>
  </way>
  <way id="304427348" version="4" timestamp="2021-03-12T09:23:15Z" changeset="100895087" uid="10170582" user="priymose">
    <nd ref="3089612913"/>
    <nd ref="8509657641"/>
    <nd ref="3089612930"/>
    <nd ref="6820502832"/>
    <tag k="highway" v="unclassified"/>
  </way>
  <way id="304427349" version="4" timestamp="2024-02-07T14:17:25Z" changeset="147178905" uid="90943" user="chris_debian">
    <nd ref="3089612886"/>
    <nd ref="3089612882"/>
    <nd ref="11495762106"/>
    <nd ref="11495762107"/>
    <nd ref="11594955859"/>
    <nd ref="11495762108"/>
    <tag k="highway" v="unclassified"/>
  </way>
  <way id="304427354" version="4" timestamp="2019-09-24T14:56:34Z" changeset="74863315" uid="705850" user="Cebderby">
    <nd ref="3089612907"/>
    <nd ref="5664296718"/>
    <nd ref="3089612913"/>
    <tag k="highway" v="unclassified"/>
    <tag k="oneway" v="yes"/>
  </way>
  <way id="304427356" version="3" timestamp="2024-01-07T00:09:43Z" changeset="145975416" uid="12340839" user="mapboy63">
    <nd ref="3089612892"/>
    <nd ref="3089612888"/>
    <nd ref="3089612886"/>
    <tag k="highway" v="unclassified"/>
    <tag k="oneway" v="yes"/>
  </way>
  <way id="304427357" version="4" timestamp="2019-09-24T14:56:34Z" changeset="74863315" uid="705850" user="Cebderby">
    <nd ref="3089612913"/>
    <nd ref="5664296720"/>
    <nd ref="3089612901"/>
    <tag k="highway" v="unclassified"/>
    <tag k="oneway" v="yes"/>
  </way>
  <way id="304427360" version="3" timestamp="2024-01-07T00:09:43Z" changeset="145975416" uid="12340839" user="mapboy63">
    <nd ref="3089612886"/>
    <nd ref="3089612891"/>
    <nd ref="3089612897"/>
    <tag k="highway" v="unclassified"/>
    <tag k="oneway" v="yes"/>
  </way>
  <way id="304427361" version="5" timestamp="2024-01-09T22:01:31Z" changeset="146082222" uid="12340839" user="mapboy63">
    <nd ref="3089612933"/>
    <nd ref="11504434457"/>
    <nd ref="3089612935"/>
    <nd ref="3089612934"/>
    <nd ref="3089612932"/>
    <nd ref="3089612931"/>
    <nd ref="3089612929"/>
    <nd ref="3089612927"/>
    <nd ref="3089612920"/>
    <nd ref="3089612917"/>
    <nd ref="3089612916"/>
    <nd ref="3089612915"/>
    <nd ref="3089612918"/>
    <nd ref="3089612919"/>
    <nd ref="3089612923"/>
    <nd ref="25241534"/>
    <nd ref="3089612928"/>
    <nd ref="379534515"/>
    <nd ref="379534507"/>
    <nd ref="25241533"/>
    <nd ref="3089612926"/>
    <nd ref="25241604"/>
    <nd ref="379534570"/>
    <nd ref="25241603"/>
    <nd ref="25241602"/>
    <nd ref="3089612909"/>
    <nd ref="25241601"/>
    <nd ref="379534565"/>
    <nd ref="3089612884"/>
    <nd ref="379534557"/>
    <nd ref="25241585"/>
    <nd ref="3089612881"/>
    <nd ref="25241584"/>
    <nd ref="25241583"/>
    <nd ref="380337654"/>
    <nd ref="25241582"/>
    <nd ref="25241581"/>
    <nd ref="25241578"/>
    <nd ref="4729212967"/>
    <nd ref="25241576"/>
    <nd ref="4729212961"/>
    <nd ref="24969914"/>
    <nd ref="3089610031"/>
    <nd ref="379534535"/>
    <nd ref="24969913"/>
    <nd ref="379534529"/>
    <nd ref="379534523"/>
    <nd ref="1421485677"/>
    <nd ref="24969912"/>
    <nd ref="3089610032"/>
    <nd ref="24969911"/>
    <nd ref="3089610033"/>
    <nd ref="3089610034"/>
    <nd ref="3089610035"/>
    <nd ref="4729212896"/>
    <nd ref="24969910"/>
    <nd ref="4729212650"/>
    <nd ref="1421443346"/>
    <nd ref="3089610063"/>
    <nd ref="24969909"/>
    <nd ref="24969908"/>
    <tag k="hgv" v="no"/>
    <tag k="highway" v="unclassified"/>
    <tag k="lanes" v="1"/>
    <tag k="maxwidth" v="2"/>
    <tag k="name" v="Sunbank Lane"/>
    <tag k="postal_code" v="WA15 0QA"/>
  </way>
  <way id="480014436" version="1" timestamp="2017-03-12T10:53:27Z" changeset="46782606" uid="4445529" user="khbritish">
    <nd ref="4730418258"/>
    <nd ref="4730418259"/>
    <nd ref="4730418260"/>
    <nd ref="4730418261"/>
    <nd ref="4730418262"/>
    <nd ref="4730418263"/>
    <nd ref="4730418264"/>
    <nd ref="4730418265"/>
    <nd ref="4730418266"/>
    <nd ref="4730418267"/>
    <nd ref="4730418268"/>
    <nd ref="4730418269"/>
    <nd ref="4730418270"/>
    <nd ref="4730418271"/>
    <nd ref="4730418272"/>
    <nd ref="4730418273"/>
    <nd ref="4730418274"/>
    <nd ref="4730418275"/>
    <nd ref="4730418276"/>
    <nd ref="4730418277"/>
    <nd ref="4730418278"/>
    <nd ref="4730418279"/>
    <nd ref="4730418280"/>
    <nd ref="4730418281"/>
    <nd ref="4730418282"/>
    <nd ref="4730418283"/>
    <nd ref="4730418284"/>
    <nd ref="4730418285"/>
    <nd ref="4730418286"/>
    <nd ref="4730418287"/>
    <nd ref="4730418288"/>
    <nd ref="4730418389"/>
    <nd ref="4730418390"/>
    <nd ref="4730418391"/>
    <nd ref="4730418392"/>
    <nd ref="4730418393"/>
    <nd ref="4730418394"/>
    <nd ref="4730418395"/>
    <nd ref="4730418396"/>
    <nd ref="4730418397"/>
    <nd ref="4730418258"/>
    <tag k="building" v="yes"/>
    <tag k="name" v="Boeing 747 Training Rig"/>
  </way>
  <way id="537439104" version="13" timestamp="2024-04-29T11:34:47Z" changeset="150658717" uid="191786" user="Alexandre148025">
    <nd ref="1610739515"/>
    <nd ref="8582042831"/>
    <nd ref="8582042832"/>
    <nd ref="8582042833"/>
    <nd ref="6425326063"/>
    <nd ref="9136491440"/>
    <nd ref="5261016933"/>
    <tag k="highway" v="tertiary_link"/>
    <tag k="maxspeed" v="40 mph"/>
    <tag k="oneway" v="yes"/>
  </way>
  <way id="539923301" version="5" timestamp="2019-09-24T14:56:34Z" changeset="74863315" uid="705850" user="Cebderby">
    <nd ref="21672204"/>
    <nd ref="5559452697"/>
    <nd ref="21672203"/>
    <tag k="bicycle" v="yes"/>
    <tag k="highway" v="trunk"/>
    <tag k="lanes" v="3"/>
    <tag k="lit" v="yes"/>
    <tag k="maxspeed" v="40 mph"/>
    <tag k="name" v="Wilmslow Road"/>
    <tag k="oneway" v="yes"/>
    <tag k="ref" v="A538"/>
    <tag k="turn:lanes" v="through|through|right"/>
  </way>
  <way id="539923302" version="6" timestamp="2021-04-04T10:35:25Z" changeset="102265007" uid="6397757" user="TomJeffs">
    <nd ref="21672199"/>
    <nd ref="6820502828"/>
    <nd ref="5223911790"/>
    <tag k="bicycle" v="yes"/>
    <tag k="cycleway:left" v="track"/>
    <tag k="highway" v="trunk"/>
    <tag k="lanes" v="2"/>
    <tag k="lit" v="yes"/>
    <tag k="maxspeed" v="40 mph"/>
    <tag k="name" v="Wilmslow Road"/>
    <tag k="oneway" v="yes"/>
    <tag k="ref" v="A538"/>
  </way>
  <way id="539923303" version="5" timestamp="2019-09-24T14:56:34Z" changeset="74863315" uid="705850" user="Cebderby">
    <nd ref="21672257"/>
    <nd ref="5537413959"/>
    <nd ref="310480337"/>
    <nd ref="6820502821"/>
    <nd ref="21672217"/>
    <nd ref="5223911777"/>
    <nd ref="21672207"/>
    <nd ref="5223911778"/>
    <tag k="bicycle" v="yes"/>
    <tag k="highway" v="trunk"/>
    <tag k="lanes" v="2"/>
    <tag k="lit" v="yes"/>
    <tag k="maxspeed" v="40 mph"/>
    <tag k="name" v="Wilmslow Road"/>
    <tag k="oneway" v="yes"/>
    <tag k="ref" v="A538"/>
  </way>
  <way id="539923304" version="6" timestamp="2019-11-03T12:46:22Z" changeset="76550325" uid="184757" user="97wrangler">
    <nd ref="21672209"/>
    <nd ref="21672208"/>
    <nd ref="360913131"/>
    <tag k="fixme" v="review speed limit and any change point"/>
    <tag k="highway" v="unclassified"/>
    <tag k="maxspeed" v="30 mph"/>
    <tag k="name" v="Sunbank Lane"/>
  </way>
  <way id="539923305" version="4" timestamp="2023-05-23T12:43:14Z" changeset="136454943" uid="572681" user="zabdiel">
    <nd ref="5223911785"/>
    <nd ref="5223911774"/>
    <nd ref="5223911784"/>
    <nd ref="5223911776"/>
    <nd ref="5223911783"/>
    <nd ref="5223911779"/>
    <nd ref="5223911782"/>
    <nd ref="5223911781"/>
    <nd ref="5223911780"/>
    <nd ref="5223911768"/>
    <nd ref="5537413958"/>
    <nd ref="10921561630"/>
    <nd ref="5223911767"/>
    <nd ref="21672258"/>
    <tag k="bicycle" v="yes"/>
    <tag k="highway" v="trunk"/>
    <tag k="lanes" v="2"/>
    <tag k="lit" v="yes"/>
    <tag k="maxspeed" v="40 mph"/>
    <tag k="name" v="Wilmslow Road"/>
    <tag k="oneway" v="yes"/>
    <tag k="ref" v="A538"/>
  </way>
  <way id="539923306" version="4" timestamp="2019-09-24T14:56:34Z" changeset="74863315" uid="705850" user="Cebderby">
    <nd ref="21672201"/>
    <nd ref="21672200"/>
    <nd ref="5223911792"/>
    <nd ref="5223911791"/>
    <nd ref="6820502840"/>
    <nd ref="21672199"/>
    <tag k="bicycle" v="yes"/>
    <tag k="highway" v="trunk"/>
    <tag k="lanes" v="2"/>
    <tag k="lit" v="yes"/>
    <tag k="maxspeed" v="40 mph"/>
    <tag k="name" v="Wilmslow Road"/>
    <tag k="oneway" v="yes"/>
    <tag k="ref" v="A538"/>
  </way>
  <way id="540670445" version="4" timestamp="2020-11-18T13:46:53Z" changeset="94367924" uid="6397757" user="TomJeffs">
    <nd ref="5230167573"/>
    <nd ref="5261016973"/>
    <nd ref="5261016972"/>
    <nd ref="5230167564"/>
    <tag k="highway" v="tertiary"/>
    <tag k="name" v="Bailey Lane"/>
    <tag k="oneway" v="yes"/>
    <tag k="source" v="GPS"/>
  </way>
  <way id="540670447" version="12" timestamp="2024-04-29T11:34:47Z" changeset="150658717" uid="191786" user="Alexandre148025">
    <nd ref="5250932236"/>
    <nd ref="5261016985"/>
    <nd ref="7390863655"/>
    <nd ref="5261016984"/>
    <nd ref="5230167572"/>
    <nd ref="5230167571"/>
    <nd ref="5261016964"/>
    <nd ref="5261016965"/>
    <nd ref="9081931870"/>
    <tag k="cycleway:left" v="track"/>
    <tag k="highway" v="tertiary"/>
    <tag k="lanes" v="2"/>
    <tag k="maxspeed" v="30 mph"/>
    <tag k="name" v="Enterprise Way"/>
    <tag k="oneway" v="yes"/>
    <tag k="source" v="GPS"/>
  </way>
  <way id="540670454" version="7" timestamp="2024-04-29T11:34:47Z" changeset="150658717" uid="191786" user="Alexandre148025">
    <nd ref="9081931871"/>
    <nd ref="5261016967"/>
    <nd ref="5230167589"/>
    <nd ref="5230167588"/>
    <nd ref="5230167587"/>
    <nd ref="5261016983"/>
    <nd ref="5261016977"/>
    <nd ref="5261016978"/>
    <nd ref="5261016979"/>
    <nd ref="5261016982"/>
    <nd ref="5230167586"/>
    <nd ref="5261016986"/>
    <nd ref="9351215342"/>
    <nd ref="9351215354"/>
    <nd ref="5230167585"/>
    <tag k="cycleway:left" v="track"/>
    <tag k="highway" v="tertiary"/>
    <tag k="lanes" v="2"/>
    <tag k="maxspeed" v="30 mph"/>
    <tag k="name" v="Enterprise Way"/>
    <tag k="oneway" v="yes"/>
    <tag k="source" v="GPS"/>
  </way>
  <way id="543171954" version="8" timestamp="2024-04-29T11:34:47Z" changeset="150658717" uid="191786" user="Alexandre148025">
    <nd ref="5230167564"/>
    <nd ref="9538586175"/>
    <nd ref="9536956594"/>
    <nd ref="5261016969"/>
    <nd ref="5250932236"/>
    <tag k="cycleway:left" v="track"/>
    <tag k="highway" v="tertiary"/>
    <tag k="name" v="Bailey Lane"/>
    <tag k="oneway" v="yes"/>
    <tag k="source" v="GPS"/>
  </way>
  <way id="543171956" version="5" timestamp="2022-02-24T18:03:42Z" changeset="117822120" uid="8571542" user="Merzof">
    <nd ref="5230167563"/>
    <nd ref="9532936847"/>
    <nd ref="8591947456"/>
    <nd ref="8137556846"/>
    <nd ref="8137556847"/>
    <nd ref="360898309"/>
    <nd ref="25902853"/>
    <nd ref="7962378992"/>
    <tag k="highway" v="tertiary"/>
    <tag k="maxspeed" v="20 mph"/>
    <tag k="name" v="Bailey Lane"/>
  </way>
  <way id="543171958" version="6" timestamp="2021-04-01T09:07:29Z" changeset="102110430" uid="6397757" user="TomJeffs">
    <nd ref="5230167564"/>
    <nd ref="5250932237"/>
    <nd ref="5250932238"/>
    <nd ref="5863132918"/>
    <nd ref="8137556849"/>
    <nd ref="8137556851"/>
    <nd ref="8137556852"/>
    <nd ref="8137556850"/>
    <nd ref="5250932240"/>
    <tag k="highway" v="unclassified"/>
  </way>
  <way id="544240218" version="5" timestamp="2021-09-11T13:00:48Z" changeset="111061218" uid="61942" user="SomeoneElse">
    <nd ref="9081932479"/>
    <nd ref="9081932471"/>
    <nd ref="9081932468"/>
    <nd ref="9081932478"/>
    <nd ref="9081932472"/>
    <nd ref="9081932477"/>
    <nd ref="9081932475"/>
    <nd ref="9081932473"/>
    <nd ref="9081932467"/>
    <nd ref="9081932476"/>
    <nd ref="9081932469"/>
    <nd ref="9081932481"/>
    <nd ref="9081932470"/>
    <tag k="cycleway:left" v="track"/>
    <tag k="highway" v="tertiary"/>
    <tag k="maxspeed" v="30 mph"/>
    <tag k="name" v="Enterprise Way"/>
    <tag k="oneway" v="yes"/>
    <tag k="source" v="GPS"/>
  </way>
  <way id="544240219" version="6" timestamp="2022-04-04T18:24:28Z" changeset="119313142" uid="165" user="Richard">
    <nd ref="5261016962"/>
    <nd ref="5261016946"/>
    <nd ref="5230167590"/>
    <nd ref="5230167562"/>
    <nd ref="5261016944"/>
    <nd ref="5230167570"/>
    <nd ref="5261016936"/>
    <nd ref="5261016942"/>
    <nd ref="5230167569"/>
    <nd ref="5261016941"/>
    <nd ref="5261016940"/>
    <nd ref="9641438226"/>
    <nd ref="5261016939"/>
    <nd ref="5261016938"/>
    <nd ref="5261016937"/>
    <nd ref="5230167568"/>
    <nd ref="9081932474"/>
    <tag k="cycleway:left" v="track"/>
    <tag k="highway" v="tertiary"/>
    <tag k="maxspeed" v="30 mph"/>
    <tag k="name" v="Enterprise Way"/>
    <tag k="oneway" v="yes"/>
    <tag k="source" v="GPS"/>
  </way>
  <way id="544240226" version="4" timestamp="2024-04-29T11:34:47Z" changeset="150658717" uid="191786" user="Alexandre148025">
    <nd ref="5230167575"/>
    <nd ref="5230167585"/>
    <tag k="highway" v="tertiary"/>
    <tag k="lanes" v="2"/>
    <tag k="lit" v="yes"/>
    <tag k="maxspeed" v="30 mph"/>
    <tag k="name" v="Thorley Lane"/>
    <tag k="oneway" v="no"/>
    <tag k="source" v="GPS"/>
  </way>
  <way id="544240227" version="8" timestamp="2024-04-29T11:34:47Z" changeset="150658717" uid="191786" user="Alexandre148025">
    <nd ref="6425319965"/>
    <nd ref="9547337590"/>
    <nd ref="7390863650"/>
    <nd ref="7390863651"/>
    <nd ref="5261016989"/>
    <nd ref="9351215344"/>
    <nd ref="9351215343"/>
    <nd ref="5261016998"/>
    <tag k="cycleway:left" v="track"/>
    <tag k="highway" v="tertiary"/>
    <tag k="lanes" v="1"/>
    <tag k="maxspeed" v="30 mph"/>
    <tag k="name" v="Enterprise Way"/>
    <tag k="oneway" v="yes"/>
    <tag k="source" v="GPS"/>
  </way>
  <way id="544240229" version="5" timestamp="2021-04-01T15:23:42Z" changeset="102136234" uid="6397757" user="TomJeffs">
    <nd ref="5230167585"/>
    <nd ref="8583281840"/>
    <nd ref="5230167584"/>
    <nd ref="5261016988"/>
    <nd ref="7390863642"/>
    <nd ref="6425319964"/>
    <nd ref="5230167581"/>
    <nd ref="5230167582"/>
    <nd ref="7390863648"/>
    <nd ref="5261017003"/>
    <nd ref="191002899"/>
    <tag k="cycleway:left" v="track"/>
    <tag k="highway" v="tertiary"/>
    <tag k="lanes" v="1"/>
    <tag k="maxspeed" v="30 mph"/>
    <tag k="name" v="Enterprise Way"/>
    <tag k="oneway" v="yes"/>
    <tag k="source" v="GPS"/>
  </way>
  <way id="577680211" version="5" timestamp="2025-04-26T09:25:13Z" changeset="165455602" uid="5229644" user="Nathan_A_RF">
    <nd ref="21672193"/>
    <nd ref="310480889"/>
    <nd ref="12787701866"/>
    <nd ref="21672189"/>
    <tag k="bicycle" v="yes"/>
    <tag k="cycleway:right" v="track"/>
    <tag k="highway" v="trunk"/>
    <tag k="lit" v="yes"/>
    <tag k="maxspeed" v="50 mph"/>
    <tag k="name" v="Wilmslow Road"/>
    <tag k="ref" v="A538"/>
    <tag k="sidewalk" v="right"/>
  </way>
  <way id="577680212" version="6" timestamp="2024-07-21T16:55:24Z" changeset="154228153" uid="6397757" user="TomJeffs">
    <nd ref="5559452696"/>
    <nd ref="12066595886"/>
    <nd ref="5223911785"/>
    <tag k="bicycle" v="yes"/>
    <tag k="highway" v="trunk"/>
    <tag k="lanes" v="3"/>
    <tag k="lit" v="yes"/>
    <tag k="maxspeed" v="40 mph"/>
    <tag k="name" v="Wilmslow Road"/>
    <tag k="oneway" v="yes"/>
    <tag k="ref" v="A538"/>
    <tag k="turn:lanes" v="through|through|right"/>
  </way>
  <way id="580829069" version="2" timestamp="2020-04-17T11:12:37Z" changeset="83703019" uid="705850" user="Cebderby">
    <nd ref="54857509"/>
    <nd ref="7414307882"/>
    <nd ref="5558817891"/>
    <tag k="highway" v="unclassified"/>
    <tag k="name" v="Sydney Avenue"/>
  </way>
  <way id="580829071" version="8" timestamp="2024-06-01T13:10:17Z" changeset="152120664" uid="21245482" user="AKAfreaky">
    <nd ref="5559007533"/>
    <nd ref="5559007532"/>
    <tag k="highway" v="unclassified"/>
    <tag k="junction" v="roundabout"/>
  </way>
  <way id="580829075" version="6" timestamp="2022-06-17T22:48:52Z" changeset="122526539" uid="3336141" user="Fraham">
    <nd ref="5608966519"/>
    <nd ref="7414307880"/>
    <nd ref="7414307873"/>
    <nd ref="6716221076"/>
    <nd ref="5559007574"/>
    <nd ref="5559007560"/>
    <nd ref="1680007956"/>
    <nd ref="190999735"/>
    <nd ref="6716221068"/>
    <nd ref="6716221069"/>
    <nd ref="5559007552"/>
    <nd ref="9826553136"/>
    <nd ref="9826553135"/>
    <nd ref="9826553134"/>
    <nd ref="9826553133"/>
    <nd ref="9826553132"/>
    <tag k="foot" v="no"/>
    <tag k="highway" v="unclassified"/>
    <tag k="lanes" v="2"/>
    <tag k="name" v="Palma Avenue"/>
    <tag k="oneway" v="yes"/>
    <tag k="sidewalk" v="no"/>
    <tag k="surface" v="paved"/>
  </way>
  <way id="580829076" version="4" timestamp="2023-06-28T10:29:10Z" changeset="137872482" uid="1376064" user="jdconey">
    <nd ref="5559007561"/>
    <nd ref="7414307884"/>
    <nd ref="7414307876"/>
    <nd ref="190999344"/>
    <nd ref="1680007761"/>
    <nd ref="190999346"/>
    <nd ref="936992823"/>
    <nd ref="11012078533"/>
    <nd ref="11012078540"/>
    <nd ref="937826220"/>
    <nd ref="190999347"/>
    <nd ref="190999348"/>
    <nd ref="190999350"/>
    <nd ref="190999352"/>
    <nd ref="21686823"/>
    <tag k="highway" v="unclassified"/>
    <tag k="lanes" v="2"/>
    <tag k="name" v="Palma Avenue"/>
    <tag k="oneway" v="yes"/>
    <tag k="sidewalk" v="no"/>
    <tag k="source" v="GPS survey"/>
    <tag k="surface" v="paved"/>
  </way>
  <way id="580892102" version="8" timestamp="2025-04-26T09:23:15Z" changeset="165455518" uid="5229644" user="Nathan_A_RF">
    <nd ref="6820502826"/>
    <nd ref="10665879791"/>
    <tag k="highway" v="unclassified"/>
    <tag k="maxspeed" v="40 mph"/>
    <tag k="oneway" v="yes"/>
  </way>
  <way id="580892103" version="10" timestamp="2025-04-26T09:23:15Z" changeset="165455518" uid="5229644" user="Nathan_A_RF">
    <nd ref="5559452684"/>
    <nd ref="5559452691"/>
    <nd ref="10665912137"/>
    <nd ref="5664297742"/>
    <nd ref="5559452692"/>
    <tag k="highway" v="unclassified"/>
    <tag k="maxspeed" v="40 mph"/>
    <tag k="oneway" v="yes"/>
  </way>
  <way id="580892104" version="6" timestamp="2025-04-26T09:23:15Z" changeset="165455518" uid="5229644" user="Nathan_A_RF">
    <nd ref="5559452684"/>
    <nd ref="10665879786"/>
    <nd ref="5559452693"/>
    <nd ref="5559452694"/>
    <nd ref="5559452695"/>
    <nd ref="5559452696"/>
    <tag k="highway" v="unclassified"/>
    <tag k="lanes" v="2"/>
    <tag k="maxspeed" v="40 mph"/>
    <tag k="oneway" v="yes"/>
  </way>
  <way id="580892105" version="6" timestamp="2025-04-26T09:23:15Z" changeset="165455518" uid="5229644" user="Nathan_A_RF">
    <nd ref="5559452684"/>
    <nd ref="12787739113"/>
    <nd ref="12787739112"/>
    <nd ref="5559452688"/>
    <nd ref="5559452689"/>
    <nd ref="5559452690"/>
    <nd ref="3089610062"/>
    <tag k="highway" v="unclassified"/>
    <tag k="maxspeed" v="30 mph"/>
  </way>
  <way id="580892106" version="3" timestamp="2024-04-04T10:52:13Z" changeset="149564187" uid="10316988" user="Maxlefaffage">
    <nd ref="5223911778"/>
    <nd ref="21672206"/>
    <nd ref="5223911775"/>
    <nd ref="21672205"/>
    <nd ref="5223911773"/>
    <nd ref="11786638636"/>
    <nd ref="21672204"/>
    <tag k="highway" v="trunk"/>
    <tag k="lanes" v="3"/>
    <tag k="lit" v="yes"/>
    <tag k="maxspeed" v="40 mph"/>
    <tag k="name" v="Wilmslow Road"/>
    <tag k="oneway" v="yes"/>
    <tag k="ref" v="A538"/>
    <tag k="turn:lanes" v="left;through|through|through"/>
  </way>
  <way id="587164945" version="4" timestamp="2024-06-01T13:10:17Z" changeset="152120664" uid="21245482" user="AKAfreaky">
    <nd ref="5608972621"/>
    <nd ref="7414316389"/>
    <nd ref="1680007942"/>
    <tag k="highway" v="unclassified"/>
    <tag k="junction" v="roundabout"/>
  </way>
  <way id="595828677" version="4" timestamp="2022-02-28T21:57:32Z" changeset="117960635" uid="8571542" user="Merzof">
    <nd ref="6820259771"/>
    <nd ref="1610739442"/>
    <nd ref="60168302"/>
    <nd ref="1610739396"/>
    <nd ref="937044049"/>
    <nd ref="9546017528"/>
    <nd ref="936992793"/>
    <nd ref="60168305"/>
    <tag k="highway" v="tertiary"/>
    <tag k="lanes" v="2"/>
    <tag k="lit" v="yes"/>
    <tag k="name" v="Outwood Road"/>
    <tag k="oneway" v="yes"/>
    <tag k="source" v="GPS survey"/>
  </way>
  <way id="595828679" version="9" timestamp="2023-08-26T13:35:26Z" changeset="140412358" uid="12992" user="trigpoint">
    <nd ref="20910623"/>
    <nd ref="5767527210"/>
    <nd ref="1610739550"/>
    <nd ref="1610739543"/>
    <tag k="bicycle" v="yes"/>
    <tag k="highway" v="trunk"/>
    <tag k="lit" v="yes"/>
    <tag k="maxspeed" v="30 mph"/>
    <tag k="name" v="Ringway Road West"/>
    <tag k="oneway" v="yes"/>
    <tag k="ref" v="A555"/>
  </way>
  <way id="608851382" version="8" timestamp="2023-08-23T10:01:02Z" changeset="140265754" uid="20075088" user="Mapperman22">
    <nd ref="5677756936"/>
    <nd ref="1610739520"/>
    <nd ref="1610739521"/>
    <tag k="highway" v="tertiary"/>
    <tag k="lanes" v="2"/>
    <tag k="lit" v="yes"/>
    <tag k="maxspeed" v="30 mph"/>
    <tag k="name" v="Outwood Road"/>
    <tag k="oneway" v="yes"/>
    <tag k="surface" v="asphalt"/>
  </way>
  <way id="608851384" version="11" timestamp="2023-08-26T13:35:26Z" changeset="140412358" uid="12992" user="trigpoint">
    <nd ref="1610739508"/>
    <nd ref="9546017532"/>
    <nd ref="6425319976"/>
    <nd ref="9546017533"/>
    <nd ref="5677756936"/>
    <nd ref="7048977915"/>
    <nd ref="9546017534"/>
    <nd ref="7048977916"/>
    <nd ref="7048977917"/>
    <nd ref="7048977918"/>
    <nd ref="1610739591"/>
    <tag k="highway" v="tertiary"/>
    <tag k="maxspeed" v="30 mph"/>
    <tag k="oneway" v="yes"/>
    <tag k="surface" v="asphalt"/>
  </way>
  <way id="659338930" version="2" timestamp="2020-11-18T13:46:53Z" changeset="94367924" uid="6397757" user="TomJeffs">
    <nd ref="5230167564"/>
    <nd ref="8137556848"/>
    <nd ref="5250932235"/>
    <nd ref="5261016975"/>
    <nd ref="5230167563"/>
    <tag k="highway" v="tertiary"/>
    <tag k="name" v="Bailey Lane"/>
    <tag k="source" v="GPS"/>
  </way>
  <way id="685269958" version="3" timestamp="2022-10-09T16:02:59Z" changeset="127256445" uid="12340839" user="mapboy63">
    <nd ref="6421391937"/>
    <nd ref="847553332"/>
    <tag k="highway" v="unclassified"/>
    <tag k="maxspeed" v="30 mph"/>
    <tag k="oneway" v="yes"/>
  </way>
  <way id="685611076" version="11" timestamp="2024-10-11T22:10:58Z" changeset="157774959" uid="5229644" user="Nathan_A_RF">
    <nd ref="20910600"/>
    <nd ref="1680007723"/>
    <tag k="cutting" v="yes"/>
    <tag k="highway" v="motorway"/>
    <tag k="lanes" v="2"/>
    <tag k="lit" v="yes"/>
    <tag k="maxspeed" v="70 mph"/>
    <tag k="maxspeed:type" v="GB:motorway"/>
    <tag k="national_highways:area" v="10"/>
    <tag k="oneway" v="yes"/>
    <tag k="operator" v="National Highways"/>
    <tag k="operator:wikidata" v="Q5760006"/>
    <tag k="ref" v="M56"/>
    <tag k="surface" v="asphalt"/>
  </way>
  <way id="685611077" version="9" timestamp="2023-08-26T13:35:26Z" changeset="140412358" uid="12992" user="trigpoint">
    <nd ref="1610739543"/>
    <nd ref="9546017546"/>
    <nd ref="5677756949"/>
    <nd ref="5677756936"/>
    <nd ref="6425319975"/>
    <nd ref="6820193144"/>
    <nd ref="7048977919"/>
    <nd ref="20910600"/>
    <tag k="bicycle" v="yes"/>
    <tag k="highway" v="trunk"/>
    <tag k="lit" v="yes"/>
    <tag k="maxspeed" v="30 mph"/>
    <tag k="name" v="Ringway Road West"/>
    <tag k="oneway" v="yes"/>
    <tag k="ref" v="A555"/>
  </way>
  <way id="687938061" version="1" timestamp="2019-05-05T12:32:18Z" changeset="69903167" uid="8571542" user="Merzof">
    <nd ref="379771746"/>
    <nd ref="310482593"/>
    <nd ref="21672182"/>
    <nd ref="21672181"/>
    <tag k="bicycle" v="yes"/>
    <tag k="highway" v="trunk"/>
    <tag k="lanes" v="2"/>
    <tag k="lit" v="yes"/>
    <tag k="maxspeed" v="50 mph"/>
    <tag k="name" v="Wilmslow Road"/>
    <tag k="oneway" v="yes"/>
    <tag k="ref" v="A538"/>
  </way>
  <way id="695026433" version="3" timestamp="2022-10-09T16:02:59Z" changeset="127256445" uid="12340839" user="mapboy63">
    <nd ref="6528564560"/>
    <nd ref="6528564572"/>
    <nd ref="6528564573"/>
    <nd ref="937622510"/>
    <tag k="highway" v="tertiary"/>
    <tag k="lanes" v="2"/>
    <tag k="lit" v="yes"/>
    <tag k="maxspeed" v="30 mph"/>
    <tag k="name" v="Outwood Road"/>
    <tag k="old_name" v="Outwood Lane"/>
    <tag k="oneway" v="yes"/>
    <tag k="source" v="GPS survey"/>
    <tag k="turn:lanes" v="left|through;right"/>
  </way>
  <way id="695026434" version="3" timestamp="2022-10-09T16:02:59Z" changeset="127256445" uid="12340839" user="mapboy63">
    <nd ref="847553336"/>
    <nd ref="1680589196"/>
    <tag k="highway" v="unclassified"/>
    <tag k="lanes" v="1"/>
    <tag k="lit" v="yes"/>
    <tag k="maxspeed" v="30 mph"/>
    <tag k="oneway" v="yes"/>
    <tag k="placement" v="transition"/>
    <tag k="sidewalk" v="left"/>
    <tag k="source" v="GPS survey"/>
    <tag k="surface" v="paved"/>
  </way>
  <way id="695026435" version="2" timestamp="2019-08-16T17:18:56Z" changeset="73424537" uid="4948143" user="doublah">
    <nd ref="6528564575"/>
    <nd ref="60168089"/>
    <tag k="bridge" v="yes"/>
    <tag k="highway" v="tertiary"/>
    <tag k="lanes" v="2"/>
    <tag k="layer" v="1"/>
    <tag k="lit" v="yes"/>
    <tag k="maxspeed" v="30 mph"/>
    <tag k="name" v="Outwood Road"/>
    <tag k="oneway" v="yes"/>
    <tag k="sidewalk" v="left"/>
    <tag k="source" v="GPS survey"/>
  </way>
  <way id="695026436" version="4" timestamp="2022-10-09T16:02:59Z" changeset="127256445" uid="12340839" user="mapboy63">
    <nd ref="6528564574"/>
    <nd ref="6528564569"/>
    <nd ref="956762240"/>
    <tag k="highway" v="tertiary"/>
    <tag k="lanes" v="2"/>
    <tag k="lit" v="yes"/>
    <tag k="name" v="Outwood Road"/>
    <tag k="oneway" v="yes"/>
    <tag k="sidewalk" v="left"/>
    <tag k="source" v="Maxar"/>
  </way>
  <way id="695630082" version="5" timestamp="2024-04-05T16:47:40Z" changeset="149624520" uid="17715526" user="Gangadi Anusha">
    <nd ref="280711045"/>
    <nd ref="280711046"/>
    <nd ref="280711047"/>
    <nd ref="280711057"/>
    <nd ref="280711049"/>
    <nd ref="1511352857"/>
    <nd ref="1511352836"/>
    <nd ref="5814771553"/>
    <nd ref="6532138084"/>
    <nd ref="4964119936"/>
    <nd ref="4964119931"/>
    <nd ref="6988577654"/>
    <nd ref="4964119939"/>
    <nd ref="4964119932"/>
    <nd ref="4964119940"/>
    <nd ref="280711334"/>
    <nd ref="1511352947"/>
    <nd ref="60166210"/>
    <nd ref="938730923"/>
    <nd ref="938730917"/>
    <nd ref="60166211"/>
    <nd ref="1511352902"/>
    <nd ref="938730940"/>
    <nd ref="938730919"/>
    <nd ref="1511352898"/>
    <nd ref="1511352887"/>
    <nd ref="1511352883"/>
    <nd ref="1511352929"/>
    <nd ref="1511352922"/>
    <nd ref="60166201"/>
    <nd ref="60166202"/>
    <nd ref="1680589226"/>
    <nd ref="60166203"/>
    <nd ref="60166204"/>
    <nd ref="1511352832"/>
    <nd ref="1511352910"/>
    <nd ref="1511352973"/>
    <nd ref="60166205"/>
    <nd ref="60166206"/>
    <nd ref="1511352823"/>
    <nd ref="1511352853"/>
    <nd ref="60166207"/>
    <nd ref="1511352840"/>
    <nd ref="1511352889"/>
    <nd ref="1511352818"/>
    <nd ref="1511352806"/>
    <nd ref="60166209"/>
    <nd ref="270732680"/>
    <nd ref="280711045"/>
    <tag k="addr:city" v="Manchester"/>
    <tag k="addr:postcode" v="M90 3RR"/>
    <tag k="alt_name" v="The Station"/>
    <tag k="building" v="transportation"/>
    <tag k="building:name" v="Manchester Airport The Station"/>
    <tag k="name" v="Manchester Airport The Station"/>
    <tag k="naptan:AtcoCode" v="1800MABS001"/>
    <tag k="naptan:CommonName" v="Manchester Airport The Station"/>
    <tag k="naptan:Indicator" v="The Station"/>
    <tag k="naptan:Landmark" v="Manchester Airport The Station"/>
    <tag k="naptan:NaptanCode" v="mantmpgt"/>
    <tag k="naptan:Notes" v="INDICATOR AMENDED"/>
    <tag k="naptan:PlusbusZoneRef" v="MNCRPIC"/>
    <tag k="naptan:Street" v="MALAGA AVENUE"/>
    <tag k="naptan:verified" v="no"/>
    <tag k="ref" v="MIA"/>
    <tag k="source" v="Bing;Maxar"/>
    <tag k="wheelchair" v="yes"/>
    <tag k="wikidata" v="Q2453867"/>
    <tag k="wikipedia" v="en:Manchester Airport station"/>
  </way>
  <way id="703428854" version="3" timestamp="2023-03-10T11:19:34Z" changeset="133514400" uid="14082056" user="tomkynaston">
    <nd ref="6605934850"/>
    <nd ref="6605934849"/>
    <nd ref="6820502831"/>
    <nd ref="6820502841"/>
    <nd ref="6605934848"/>
    <nd ref="6605934846"/>
    <nd ref="6605934847"/>
    <nd ref="6605934845"/>
    <nd ref="6605934844"/>
    <nd ref="6605934843"/>
    <nd ref="6605934842"/>
    <nd ref="6605934841"/>
    <nd ref="6605934840"/>
    <nd ref="6605934850"/>
    <tag k="building" v="warehouse"/>
    <tag k="name" v="Amazon Fulfilment"/>
  </way>
  <way id="714491043" version="2" timestamp="2021-04-01T09:07:29Z" changeset="102110430" uid="6397757" user="TomJeffs">
    <nd ref="6716221067"/>
    <nd ref="20910561"/>
    <tag k="cycleway:left" v="track"/>
    <tag k="highway" v="tertiary"/>
    <tag k="junction" v="roundabout"/>
    <tag k="lanes" v="2"/>
    <tag k="lit" v="yes"/>
    <tag k="maxspeed" v="40 mph"/>
    <tag k="name" v="Terminal 2 Roundabout"/>
    <tag k="sidewalk" v="no"/>
    <tag k="smoothness" v="excellent"/>
    <tag k="source" v="GPS"/>
    <tag k="surface" v="paved"/>
  </way>
  <way id="727822044" version="4" timestamp="2025-04-26T09:23:15Z" changeset="165455518" uid="5229644" user="Nathan_A_RF">
    <nd ref="21672203"/>
    <nd ref="6820502833"/>
    <nd ref="10665912135"/>
    <nd ref="11786638632"/>
    <nd ref="6820502835"/>
    <nd ref="6820502826"/>
    <tag k="highway" v="unclassified"/>
    <tag k="lanes" v="1"/>
    <tag k="oneway" v="yes"/>
    <tag k="turn:lanes" v="right"/>
  </way>
  <way id="727822045" version="2" timestamp="2021-04-04T10:35:25Z" changeset="102265007" uid="6397757" user="TomJeffs">
    <nd ref="5223911790"/>
    <nd ref="5559452682"/>
    <tag k="bicycle" v="yes"/>
    <tag k="cycleway:left" v="track"/>
    <tag k="highway" v="trunk"/>
    <tag k="lanes" v="3"/>
    <tag k="lit" v="yes"/>
    <tag k="maxspeed" v="40 mph"/>
    <tag k="name" v="Wilmslow Road"/>
    <tag k="oneway" v="yes"/>
    <tag k="ref" v="A538"/>
    <tag k="turn:lanes" v="left|through|through"/>
  </way>
  <way id="727822046" version="2" timestamp="2025-04-26T09:23:15Z" changeset="165455518" uid="5229644" user="Nathan_A_RF">
    <nd ref="6820502826"/>
    <nd ref="6820502824"/>
    <nd ref="21672201"/>
    <tag k="highway" v="unclassified"/>
    <tag k="maxspeed" v="40 mph"/>
    <tag k="oneway" v="yes"/>
  </way>
  <way id="727822047" version="1" timestamp="2019-09-24T14:56:34Z" changeset="74863315" uid="705850" user="Cebderby">
    <nd ref="3089612930"/>
    <nd ref="6820502830"/>
    <tag k="highway" v="unclassified"/>
  </way>
  <way id="727822048" version="2" timestamp="2024-04-04T10:52:13Z" changeset="149564187" uid="10316988" user="Maxlefaffage">
    <nd ref="21672203"/>
    <nd ref="21672202"/>
    <nd ref="6820502827"/>
    <nd ref="11786638633"/>
    <nd ref="21672201"/>
    <tag k="bicycle" v="yes"/>
    <tag k="highway" v="trunk"/>
    <tag k="lanes" v="2"/>
    <tag k="lit" v="yes"/>
    <tag k="maxspeed" v="40 mph"/>
    <tag k="name" v="Wilmslow Road"/>
    <tag k="oneway" v="yes"/>
    <tag k="ref" v="A538"/>
  </way>
  <way id="727822051" version="3" timestamp="2024-04-04T10:52:13Z" changeset="149564187" uid="10316988" user="Maxlefaffage">
    <nd ref="6120149103"/>
    <nd ref="11786638638"/>
    <nd ref="6820502820"/>
    <nd ref="6820502823"/>
    <nd ref="360913131"/>
    <tag k="highway" v="unclassified"/>
    <tag k="maxspeed" v="40 mph"/>
  </way>
  <way id="727822052" version="4" timestamp="2023-02-15T23:34:13Z" changeset="132605235" uid="7190158" user="tsrep">
    <nd ref="5559452682"/>
    <nd ref="6820502836"/>
    <nd ref="10665879791"/>
    <tag k="bicycle" v="yes"/>
    <tag k="highway" v="trunk"/>
    <tag k="lanes" v="2"/>
    <tag k="lit" v="yes"/>
    <tag k="maxspeed" v="40 mph"/>
    <tag k="name" v="Wilmslow Road"/>
    <tag k="oneway" v="yes"/>
    <tag k="ref" v="A538"/>
  </way>
  <way id="727829790" version="2" timestamp="2025-04-26T09:25:13Z" changeset="165455602" uid="5229644" user="Nathan_A_RF">
    <nd ref="310482576"/>
    <nd ref="21672187"/>
    <nd ref="12787701865"/>
    <nd ref="934830755"/>
    <nd ref="21672189"/>
    <tag k="highway" v="trunk"/>
    <tag k="lit" v="yes"/>
    <tag k="maxspeed" v="50 mph"/>
    <tag k="name" v="Wilmslow Road"/>
    <tag k="oneway" v="yes"/>
    <tag k="ref" v="A538"/>
  </way>
  <way id="741637114" version="7" timestamp="2024-07-21T16:55:24Z" changeset="154228153" uid="6397757" user="TomJeffs">
    <nd ref="6120149103"/>
    <nd ref="6942773175"/>
    <nd ref="6942789800"/>
    <nd ref="9547337594"/>
    <nd ref="6942773176"/>
    <nd ref="12066595884"/>
    <nd ref="6942773177"/>
    <nd ref="12066595883"/>
    <nd ref="9547337593"/>
    <nd ref="12066595882"/>
    <nd ref="6942773178"/>
    <nd ref="9547337592"/>
    <nd ref="6942773179"/>
    <tag k="highway" v="unclassified"/>
    <tag k="lanes" v="2"/>
    <tag k="name" v="Gannet Way"/>
    <tag k="oneway" v="no"/>
    <tag k="surface" v="asphalt"/>
  </way>
  <way id="754535659" version="10" timestamp="2024-10-11T22:10:58Z" changeset="157774959" uid="5229644" user="Nathan_A_RF">
    <nd ref="1610739568"/>
    <nd ref="6820177200"/>
    <nd ref="12245024402"/>
    <nd ref="5677756936"/>
    <tag k="highway" v="motorway"/>
    <tag k="lanes" v="2"/>
    <tag k="maxspeed" v="30 mph"/>
    <tag k="national_highways:area" v="10"/>
    <tag k="oneway" v="yes"/>
    <tag k="operator" v="National Highways"/>
    <tag k="operator:wikidata" v="Q5760006"/>
    <tag k="ref" v="M56"/>
    <tag k="source" v="GPS"/>
    <tag k="surface" v="asphalt"/>
  </way>
  <way id="770691336" version="1" timestamp="2020-02-07T17:12:14Z" changeset="80701885" uid="362252" user="aldersp">
    <nd ref="7193585434"/>
    <nd ref="7193585440"/>
    <nd ref="7193585433"/>
    <nd ref="5559252552"/>
    <tag k="highway" v="unclassified"/>
    <tag k="name" v="Sydney Avenue"/>
  </way>
  <way id="770691337" version="3" timestamp="2024-01-06T22:05:54Z" changeset="145973079" uid="12340839" user="mapboy63">
    <nd ref="7193585442"/>
    <nd ref="7193585443"/>
    <nd ref="7193585432"/>
    <nd ref="7193585444"/>
    <nd ref="7193585445"/>
    <nd ref="7193585442"/>
    <tag k="access" v="customers"/>
    <tag k="amenity" v="parking"/>
    <tag k="building" v="parking"/>
    <tag k="fee" v="yes"/>
    <tag k="name" v="T2 Multi-Storey West"/>
    <tag k="parking" v="multi-storey"/>
    <tag k="surface" v="paved"/>
    <tag k="website" v="https://www.manchesterairport.co.uk/parking/multi-storey/"/>
  </way>
  <way id="790548652" version="9" timestamp="2024-09-04T10:47:20Z" changeset="156179871" uid="6397757" user="TomJeffs">
    <nd ref="1610739591"/>
    <nd ref="9546017535"/>
    <nd ref="8582042828"/>
    <nd ref="6820259772"/>
    <nd ref="8582042829"/>
    <nd ref="20910613"/>
    <nd ref="20910614"/>
    <nd ref="1610739515"/>
    <tag k="bicycle" v="yes"/>
    <tag k="highway" v="trunk"/>
    <tag k="lanes" v="2"/>
    <tag k="lit" v="yes"/>
    <tag k="maxspeed" v="40 mph"/>
    <tag k="name" v="Ringway Road West"/>
    <tag k="oneway" v="yes"/>
    <tag k="ref" v="A555"/>
  </way>
  <way id="794214437" version="1" timestamp="2020-04-21T02:44:19Z" changeset="83848693" uid="322039" user="MacLondon">
    <nd ref="360913176"/>
    <nd ref="360913179"/>
    <tag k="highway" v="unclassified"/>
    <tag k="name" v="Wilmslow Old Road"/>
    <tag k="old_ref" v="A538"/>
  </way>
  <way id="810222447" version="4" timestamp="2024-10-25T10:10:27Z" changeset="158330119" uid="1293386" user="Sal73x">
    <nd ref="12287842145"/>
    <nd ref="12287842123"/>
    <nd ref="4716746945"/>
    <nd ref="12287842138"/>
    <nd ref="12287842137"/>
    <nd ref="12287842146"/>
    <nd ref="12287842147"/>
    <nd ref="12287842148"/>
    <nd ref="12287842149"/>
    <nd ref="12287842136"/>
    <nd ref="12287779755"/>
    <nd ref="12287842131"/>
    <nd ref="7575105456"/>
    <nd ref="7575105455"/>
    <nd ref="7575105454"/>
    <nd ref="7575105453"/>
    <nd ref="7575105452"/>
    <nd ref="7575105451"/>
    <nd ref="7575105450"/>
    <nd ref="7575105449"/>
    <nd ref="7575105448"/>
    <nd ref="7575099572"/>
    <nd ref="7575099571"/>
    <nd ref="7575099570"/>
    <nd ref="7575099569"/>
    <nd ref="7575099568"/>
    <nd ref="7575099567"/>
    <nd ref="7575099566"/>
    <nd ref="7575099565"/>
    <nd ref="7575099564"/>
    <nd ref="7575099563"/>
    <nd ref="7575099562"/>
    <nd ref="9688808719"/>
    <nd ref="12287842145"/>
    <tag k="aeroway" v="terminal"/>
    <tag k="airside" v="yes"/>
    <tag k="building" v="yes"/>
    <tag k="building:levels" v="2"/>
    <tag k="name" v="Pier 1"/>
    <tag k="roof:shape" v="flat"/>
    <tag k="source" v="Bing"/>
    <tag k="wheelchair" v="yes"/>
  </way>
  <way id="848494981" version="3" timestamp="2023-09-07T16:19:41Z" changeset="140948460" uid="6397757" user="TomJeffs">
    <nd ref="7911523810"/>
    <nd ref="11174953120"/>
    <nd ref="1860361279"/>
    <tag k="highway" v="unclassified"/>
    <tag k="lanes" v="2"/>
    <tag k="lit" v="yes"/>
    <tag k="maxspeed" v="30 mph"/>
    <tag k="name" v="Toronto Avenue"/>
    <tag k="sidewalk" v="right"/>
    <tag k="source" v="Yahoo"/>
    <tag k="surface" v="paved"/>
  </way>
  <way id="886167458" version="3" timestamp="2025-04-26T09:23:15Z" changeset="165455518" uid="5229644" user="Nathan_A_RF">
    <nd ref="5559452692"/>
    <nd ref="6820502826"/>
    <tag k="highway" v="unclassified"/>
    <tag k="maxspeed" v="40 mph"/>
    <tag k="oneway" v="yes"/>
  </way>
  <way id="886167459" version="2" timestamp="2024-04-04T10:52:13Z" changeset="149564187" uid="10316988" user="Maxlefaffage">
    <nd ref="5559452692"/>
    <nd ref="11786638631"/>
    <nd ref="5559452696"/>
    <tag k="bicycle" v="yes"/>
    <tag k="highway" v="trunk"/>
    <tag k="lanes" v="2"/>
    <tag k="lit" v="yes"/>
    <tag k="maxspeed" v="40 mph"/>
    <tag k="name" v="Wilmslow Road"/>
    <tag k="oneway" v="yes"/>
    <tag k="ref" v="A538"/>
  </way>
  <way id="908678332" version="4" timestamp="2021-12-19T20:23:09Z" changeset="115138586" uid="111135" user="Pete Owens">
    <nd ref="8437351654"/>
    <nd ref="9351215347"/>
    <nd ref="8437351655"/>
    <nd ref="8582237283"/>
    <nd ref="8437351656"/>
    <nd ref="8437351657"/>
    <nd ref="8437351658"/>
    <tag k="highway" v="tertiary"/>
    <tag k="oneway" v="yes"/>
  </way>
  <way id="908678478" version="5" timestamp="2024-04-29T11:34:47Z" changeset="150658717" uid="191786" user="Alexandre148025">
    <nd ref="5261016998"/>
    <nd ref="11865972020"/>
    <nd ref="8137556858"/>
    <nd ref="8437358647"/>
    <nd ref="9264516370"/>
    <tag k="cycleway:left" v="track"/>
    <tag k="highway" v="tertiary"/>
    <tag k="oneway" v="yes"/>
  </way>
  <way id="924707969" version="5" timestamp="2023-08-26T13:35:28Z" changeset="140412358" uid="12992" user="trigpoint">
    <nd ref="1610739515"/>
    <nd ref="9136491466"/>
    <nd ref="5204347021"/>
    <nd ref="9136491439"/>
    <nd ref="8582042838"/>
    <nd ref="9136491454"/>
    <tag k="bicycle" v="yes"/>
    <tag k="highway" v="trunk"/>
    <tag k="lanes" v="2"/>
    <tag k="lit" v="yes"/>
    <tag k="maxspeed" v="40 mph"/>
    <tag k="name" v="Ringway Road West"/>
    <tag k="oneway" v="yes"/>
    <tag k="ref" v="A555"/>
  </way>
  <way id="924730965" version="3" timestamp="2024-04-29T11:34:47Z" changeset="150658717" uid="191786" user="Alexandre148025">
    <nd ref="5261016998"/>
    <nd ref="5230167575"/>
    <tag k="highway" v="tertiary"/>
    <tag k="lanes" v="1"/>
    <tag k="maxspeed" v="30 mph"/>
    <tag k="name" v="Enterprise Way"/>
    <tag k="source" v="GPS"/>
  </way>
  <way id="924730966" version="2" timestamp="2021-11-18T17:42:41Z" changeset="113954505" uid="8571542" user="Merzof">
    <nd ref="191002919"/>
    <nd ref="9264516369"/>
    <nd ref="5261017005"/>
    <nd ref="5230167579"/>
    <nd ref="5261017000"/>
    <nd ref="7390863649"/>
    <nd ref="6425319965"/>
    <tag k="highway" v="tertiary"/>
    <tag k="lanes" v="1"/>
    <tag k="maxspeed" v="30 mph"/>
    <tag k="name" v="Enterprise Way"/>
    <tag k="oneway" v="yes"/>
    <tag k="source" v="GPS"/>
  </way>
  <way id="924950552" version="2" timestamp="2022-03-01T13:16:31Z" changeset="117979887" uid="8571542" user="Merzof">
    <nd ref="54857462"/>
    <nd ref="360919859"/>
    <nd ref="360913387"/>
    <tag k="highway" v="unclassified"/>
    <tag k="lit" v="yes"/>
    <tag k="maxspeed" v="30 mph"/>
    <tag k="name" v="Avro Way"/>
    <tag k="sidewalk" v="left"/>
    <tag k="source" v="GPS survey"/>
  </way>
  <way id="925526310" version="2" timestamp="2021-10-20T18:11:14Z" changeset="112756856" uid="8571542" user="Merzof">
    <nd ref="21686824"/>
    <nd ref="847553608"/>
    <nd ref="3826519205"/>
    <nd ref="21686825"/>
    <tag k="foot" v="no"/>
    <tag k="highway" v="unclassified"/>
    <tag k="junction" v="roundabout"/>
    <tag k="lanes" v="2"/>
    <tag k="maxspeed" v="30 mph"/>
    <tag k="name" v="World Way"/>
    <tag k="surface" v="paved"/>
  </way>
  <way id="925526311" version="2" timestamp="2022-08-08T07:45:09Z" changeset="124625740" uid="14952819" user="moovit_BarC">
    <nd ref="21686825"/>
    <nd ref="847553611"/>
    <nd ref="847553613"/>
    <tag k="cycleway:left" v="track"/>
    <tag k="foot" v="yes"/>
    <tag k="highway" v="unclassified"/>
    <tag k="junction" v="roundabout"/>
    <tag k="lanes" v="2"/>
    <tag k="maxspeed" v="30 mph"/>
    <tag k="name" v="World Way"/>
    <tag k="surface" v="paved"/>
  </way>
  <way id="925526312" version="5" timestamp="2022-07-27T08:19:13Z" changeset="124127383" uid="1784239" user="SvenTX">
    <nd ref="280707730"/>
    <nd ref="938644124"/>
    <nd ref="847554247"/>
    <nd ref="847554249"/>
    <nd ref="847554250"/>
    <nd ref="847554251"/>
    <nd ref="280707729"/>
    <tag k="cycleway:left" v="no"/>
    <tag k="foot" v="no"/>
    <tag k="highway" v="unclassified"/>
    <tag k="junction" v="roundabout"/>
    <tag k="lane_markings" v="no"/>
    <tag k="maxspeed" v="30 mph"/>
    <tag k="source" v="survey"/>
    <tag k="surface" v="asphalt"/>
  </way>
  <way id="925526313" version="5" timestamp="2022-08-08T07:45:09Z" changeset="124625740" uid="14952819" user="moovit_BarC">
    <nd ref="280707729"/>
    <nd ref="8589405597"/>
    <nd ref="8589405598"/>
    <nd ref="9532936846"/>
    <nd ref="9550271875"/>
    <nd ref="280707728"/>
    <tag k="cycleway:left" v="track"/>
    <tag k="foot" v="yes"/>
    <tag k="highway" v="unclassified"/>
    <tag k="lanes" v="2"/>
    <tag k="maxspeed" v="30 mph"/>
    <tag k="name" v="Chicago Avenue"/>
    <tag k="sidewalk" v="no"/>
    <tag k="source" v="survey"/>
    <tag k="surface" v="paved"/>
  </way>
  <way id="925813751" version="3" timestamp="2022-02-21T22:06:48Z" changeset="117702489" uid="8571542" user="Merzof">
    <nd ref="5230167575"/>
    <nd ref="9351215351"/>
    <nd ref="5261016987"/>
    <nd ref="5230167574"/>
    <nd ref="8437351658"/>
    <nd ref="7390863653"/>
    <nd ref="7390863654"/>
    <nd ref="5230167573"/>
    <tag k="highway" v="tertiary"/>
    <tag k="lanes" v="1"/>
    <tag k="maxspeed" v="30 mph"/>
    <tag k="name" v="Enterprise Way"/>
    <tag k="oneway" v="yes"/>
    <tag k="source" v="GPS"/>
  </way>
  <way id="925813753" version="4" timestamp="2024-04-29T11:34:47Z" changeset="150658717" uid="191786" user="Alexandre148025">
    <nd ref="8437351654"/>
    <nd ref="9351215346"/>
    <nd ref="9351215345"/>
    <nd ref="360898284"/>
    <nd ref="11865972019"/>
    <nd ref="5230167575"/>
    <tag k="highway" v="tertiary"/>
    <tag k="lanes" v="2"/>
    <tag k="lit" v="yes"/>
    <tag k="maxspeed" v="30 mph"/>
    <tag k="name" v="Thorley Lane"/>
    <tag k="oneway" v="yes"/>
    <tag k="source" v="GPS"/>
  </way>
  <way id="925836711" version="4" timestamp="2025-04-26T09:23:15Z" changeset="165455518" uid="5229644" user="Nathan_A_RF">
    <nd ref="5559452682"/>
    <nd ref="10665879789"/>
    <nd ref="5559452683"/>
    <nd ref="10665912136"/>
    <nd ref="5664297745"/>
    <tag k="cycleway:left" v="track"/>
    <tag k="highway" v="unclassified"/>
    <tag k="maxspeed" v="40 mph"/>
    <tag k="oneway" v="yes"/>
  </way>
  <way id="963404615" version="5" timestamp="2022-07-23T01:15:52Z" changeset="123959663" uid="13341565" user="Falsernet">
    <nd ref="8911528193"/>
    <nd ref="364510547"/>
    <tag k="highway" v="trunk"/>
    <tag k="junction" v="circular"/>
    <tag k="maxspeed" v="40 mph"/>
    <tag k="name" v="Hale Four Seasons Roundabout"/>
    <tag k="ref" v="A538"/>
  </way>
  <way id="981181627" version="2" timestamp="2023-04-04T06:47:19Z" changeset="134480913" uid="3810" user="dsp">
    <nd ref="9076035367"/>
    <nd ref="9076035368"/>
    <nd ref="9076035369"/>
    <nd ref="9076035370"/>
    <nd ref="9076035367"/>
    <tag k="building" v="industrial"/>
    <tag k="name" v="The Studios"/>
  </way>
  <way id="981181688" version="2" timestamp="2021-09-09T09:32:51Z" changeset="110964315" uid="10122370" user="ob36483">
    <nd ref="9076038738"/>
    <nd ref="9076038739"/>
    <nd ref="9076038740"/>
    <nd ref="9076038741"/>
    <nd ref="9076038738"/>
    <tag k="building" v="industrial"/>
    <tag k="name" v="THG"/>
  </way>
  <way id="981182123" version="1" timestamp="2021-09-09T09:32:36Z" changeset="110964302" uid="10122370" user="ob36483">
    <nd ref="9076039388"/>
    <nd ref="9076039389"/>
    <nd ref="9076039390"/>
    <nd ref="9076039391"/>
    <nd ref="9076039388"/>
    <tag k="building" v="industrial"/>
    <tag k="name" v="THG"/>
  </way>
  <way id="994993953" version="6" timestamp="2023-03-30T00:06:34Z" changeset="134282577" uid="4559" user="RichardB">
    <nd ref="937825428"/>
    <nd ref="1680589324"/>
    <nd ref="937826344"/>
    <nd ref="937826169"/>
    <nd ref="9178198499"/>
    <nd ref="9178198492"/>
    <nd ref="9178198493"/>
    <nd ref="9178198494"/>
    <nd ref="937826029"/>
    <tag k="cycleway:left" v="no"/>
    <tag k="highway" v="unclassified"/>
    <tag k="junction" v="roundabout"/>
    <tag k="lane_markings" v="no"/>
    <tag k="source" v="Yahoo"/>
    <tag k="surface" v="asphalt"/>
  </way>
  <way id="994993954" version="4" timestamp="2022-08-08T07:45:09Z" changeset="124625740" uid="14952819" user="moovit_BarC">
    <nd ref="937825172"/>
    <nd ref="8589405606"/>
    <nd ref="847554265"/>
    <nd ref="847554266"/>
    <nd ref="847554267"/>
    <nd ref="6532143313"/>
    <tag k="foot" v="yes"/>
    <tag k="highway" v="unclassified"/>
    <tag k="junction" v="roundabout"/>
    <tag k="lane_markings" v="no"/>
    <tag k="maxspeed" v="30 mph"/>
    <tag k="source" v="survey"/>
    <tag k="surface" v="asphalt"/>
  </way>
  <way id="994993955" version="1" timestamp="2021-10-20T18:11:14Z" changeset="112756856" uid="8571542" user="Merzof">
    <nd ref="847553613"/>
    <nd ref="937826598"/>
    <nd ref="3826519206"/>
    <nd ref="3826519207"/>
    <nd ref="21686826"/>
    <tag k="foot" v="no"/>
    <tag k="highway" v="unclassified"/>
    <tag k="junction" v="roundabout"/>
    <tag k="lanes" v="2"/>
    <tag k="maxspeed" v="30 mph"/>
    <tag k="name" v="World Way"/>
    <tag k="surface" v="paved"/>
  </way>
  <way id="994993956" version="1" timestamp="2021-10-20T18:11:14Z" changeset="112756856" uid="8571542" user="Merzof">
    <nd ref="847553619"/>
    <nd ref="21686828"/>
    <nd ref="847553601"/>
    <nd ref="3826519208"/>
    <nd ref="191000017"/>
    <tag k="foot" v="no"/>
    <tag k="highway" v="unclassified"/>
    <tag k="junction" v="roundabout"/>
    <tag k="lanes" v="2"/>
    <tag k="maxspeed" v="30 mph"/>
    <tag k="name" v="World Way"/>
    <tag k="surface" v="paved"/>
  </way>
  <way id="994993957" version="1" timestamp="2021-10-20T18:11:14Z" changeset="112756856" uid="8571542" user="Merzof">
    <nd ref="191000017"/>
    <nd ref="21686829"/>
    <nd ref="847553604"/>
    <nd ref="21686823"/>
    <tag k="foot" v="no"/>
    <tag k="highway" v="unclassified"/>
    <tag k="junction" v="roundabout"/>
    <tag k="lanes" v="2"/>
    <tag k="maxspeed" v="30 mph"/>
    <tag k="name" v="World Way"/>
    <tag k="surface" v="paved"/>
  </way>
  <way id="994993958" version="1" timestamp="2021-10-20T18:11:14Z" changeset="112756856" uid="8571542" user="Merzof">
    <nd ref="21686823"/>
    <nd ref="937825037"/>
    <nd ref="21686824"/>
    <tag k="foot" v="no"/>
    <tag k="highway" v="unclassified"/>
    <tag k="junction" v="roundabout"/>
    <tag k="lanes" v="2"/>
    <tag k="maxspeed" v="30 mph"/>
    <tag k="name" v="World Way"/>
    <tag k="surface" v="paved"/>
  </way>
  <way id="994993959" version="1" timestamp="2021-10-20T18:11:14Z" changeset="112756856" uid="8571542" user="Merzof">
    <nd ref="20910570"/>
    <nd ref="20910568"/>
    <tag k="highway" v="tertiary"/>
    <tag k="junction" v="roundabout"/>
    <tag k="lanes" v="2"/>
    <tag k="lit" v="yes"/>
    <tag k="maxspeed" v="40 mph"/>
    <tag k="name" v="Terminal 2 Roundabout"/>
    <tag k="sidewalk" v="no"/>
    <tag k="smoothness" v="excellent"/>
    <tag k="source" v="GPS"/>
    <tag k="surface" v="paved"/>
  </way>
  <way id="995640226" version="3" timestamp="2022-10-09T16:02:59Z" changeset="127256445" uid="12340839" user="mapboy63">
    <nd ref="956762240"/>
    <nd ref="5608998145"/>
    <nd ref="5608998146"/>
    <nd ref="5608998155"/>
    <nd ref="310482987"/>
    <nd ref="6528564565"/>
    <nd ref="5608998147"/>
    <nd ref="5608998154"/>
    <nd ref="6528564563"/>
    <nd ref="937622510"/>
    <nd ref="6528564562"/>
    <tag k="highway" v="tertiary"/>
    <tag k="junction" v="roundabout"/>
    <tag k="lanes" v="2"/>
    <tag k="lit" v="yes"/>
    <tag k="maxspeed" v="30 mph"/>
    <tag k="name" v="Outwood Road"/>
    <tag k="oneway" v="yes"/>
    <tag k="sidewalk" v="no"/>
    <tag k="source" v="Maxar"/>
    <tag k="surface" v="paved"/>
  </way>
  <way id="995640227" version="3" timestamp="2022-10-09T16:02:59Z" changeset="127256445" uid="12340839" user="mapboy63">
    <nd ref="847553339"/>
    <nd ref="6528564564"/>
    <nd ref="5608998139"/>
    <nd ref="956762240"/>
    <tag k="highway" v="tertiary"/>
    <tag k="junction" v="roundabout"/>
    <tag k="lanes" v="2"/>
    <tag k="lit" v="yes"/>
    <tag k="maxspeed" v="30 mph"/>
    <tag k="name" v="Outwood Road"/>
    <tag k="oneway" v="yes"/>
    <tag k="sidewalk" v="no"/>
    <tag k="source" v="Maxar"/>
    <tag k="surface" v="paved"/>
  </way>
  <way id="995640228" version="2" timestamp="2022-07-27T07:59:39Z" changeset="124126550" uid="1784239" user="SvenTX">
    <nd ref="60168093"/>
    <nd ref="937044064"/>
    <tag k="highway" v="tertiary"/>
    <tag k="lanes" v="2"/>
    <tag k="lit" v="yes"/>
    <tag k="maxspeed" v="30 mph"/>
    <tag k="name" v="Outwood Road"/>
    <tag k="oneway" v="yes"/>
    <tag k="sidewalk" v="left"/>
    <tag k="source" v="GPS survey"/>
    <tag k="surface" v="asphalt"/>
  </way>
  <way id="1004068150" version="3" timestamp="2023-08-23T10:01:14Z" changeset="140265754" uid="20075088" user="Mapperman22">
    <nd ref="1610739521"/>
    <nd ref="5767527208"/>
    <nd ref="6820259771"/>
    <tag k="highway" v="tertiary"/>
    <tag k="lanes" v="2"/>
    <tag k="lit" v="yes"/>
    <tag k="maxspeed" v="30 mph"/>
    <tag k="name" v="Outwood Road"/>
    <tag k="oneway" v="yes"/>
    <tag k="surface" v="asphalt"/>
  </way>
  <way id="1004068152" version="1" timestamp="2021-11-18T17:42:41Z" changeset="113954505" uid="8571542" user="Merzof">
    <nd ref="191002919"/>
    <nd ref="5230167580"/>
    <nd ref="5261017006"/>
    <nd ref="20910564"/>
    <nd ref="5261017004"/>
    <nd ref="191002899"/>
    <tag k="highway" v="tertiary"/>
    <tag k="junction" v="roundabout"/>
    <tag k="lanes" v="2"/>
    <tag k="lit" v="yes"/>
    <tag k="maxspeed" v="40 mph"/>
    <tag k="name" v="Terminal 2 Roundabout"/>
    <tag k="sidewalk" v="no"/>
    <tag k="smoothness" v="excellent"/>
    <tag k="source" v="GPS"/>
    <tag k="surface" v="paved"/>
  </way>
  <way id="1004082011" version="4" timestamp="2022-07-27T08:19:03Z" changeset="124127383" uid="1784239" user="SvenTX">
    <nd ref="6532143313"/>
    <nd ref="847554269"/>
    <nd ref="847554270"/>
    <nd ref="847554271"/>
    <nd ref="280707730"/>
    <tag k="cycleway:left" v="no"/>
    <tag k="foot" v="no"/>
    <tag k="highway" v="unclassified"/>
    <tag k="junction" v="roundabout"/>
    <tag k="lane_markings" v="no"/>
    <tag k="maxspeed" v="30 mph"/>
    <tag k="source" v="survey"/>
    <tag k="surface" v="asphalt"/>
  </way>
  <way id="1004082013" version="8" timestamp="2023-03-29T22:31:29Z" changeset="134281289" uid="4559" user="RichardB">
    <nd ref="6421391937"/>
    <nd ref="280710767"/>
    <nd ref="280710768"/>
    <nd ref="1680589156"/>
    <nd ref="847553438"/>
    <nd ref="847553439"/>
    <nd ref="280710674"/>
    <nd ref="280710422"/>
    <nd ref="10027532202"/>
    <nd ref="847553424"/>
    <nd ref="4936410310"/>
    <nd ref="937825676"/>
    <nd ref="280707734"/>
    <nd ref="847553425"/>
    <nd ref="937825060"/>
    <nd ref="938644107"/>
    <nd ref="280710714"/>
    <nd ref="280710764"/>
    <nd ref="847553434"/>
    <tag k="cycleway:left" v="no"/>
    <tag k="highway" v="unclassified"/>
    <tag k="junction" v="roundabout"/>
    <tag k="maxspeed" v="30 mph"/>
    <tag k="name" v="Terminal Road North"/>
    <tag k="source" v="survey"/>
    <tag k="source:name" v="OS_OpenData_StreetView"/>
    <tag k="surface" v="asphalt"/>
  </way>
  <way id="1004082014" version="5" timestamp="2022-10-09T16:02:59Z" changeset="127256445" uid="12340839" user="mapboy63">
    <nd ref="5608998151"/>
    <nd ref="5608998152"/>
    <nd ref="847553339"/>
    <tag k="highway" v="tertiary"/>
    <tag k="junction" v="roundabout"/>
    <tag k="lanes" v="2"/>
    <tag k="lit" v="yes"/>
    <tag k="maxspeed" v="30 mph"/>
    <tag k="name" v="Outwood Road"/>
    <tag k="sidewalk" v="no"/>
    <tag k="source" v="Maxar"/>
    <tag k="surface" v="asphalt"/>
  </way>
  <way id="1008102336" version="2" timestamp="2021-12-01T13:50:05Z" changeset="114444997" uid="14082056" user="tomkynaston">
    <nd ref="9300355466"/>
    <nd ref="9300355467"/>
    <nd ref="9300355468"/>
    <nd ref="9300355469"/>
    <nd ref="9300355470"/>
    <nd ref="9300355471"/>
    <nd ref="9300355472"/>
    <nd ref="9300355466"/>
    <tag k="building" v="industrial"/>
    <tag k="name" v="dnata"/>
  </way>
  <way id="1026419957" version="6" timestamp="2024-12-12T16:42:53Z" changeset="160215439" uid="3828331" user="NW Mapper 2016">
    <nd ref="8911528191"/>
    <nd ref="8911528206"/>
    <nd ref="21672227"/>
    <tag k="highway" v="trunk"/>
    <tag k="junction" v="circular"/>
    <tag k="maxspeed" v="40 mph"/>
    <tag k="name" v="Hale Four Seasons Roundabout"/>
    <tag k="oneway" v="yes"/>
    <tag k="ref" v="A538"/>
  </way>
  <way id="1026419958" version="7" timestamp="2024-12-12T16:42:53Z" changeset="160215439" uid="3828331" user="NW Mapper 2016">
    <nd ref="364510547"/>
    <nd ref="8911528204"/>
    <nd ref="21672221"/>
    <tag k="highway" v="trunk"/>
    <tag k="junction" v="circular"/>
    <tag k="maxspeed" v="40 mph"/>
    <tag k="name" v="Hale Four Seasons Roundabout"/>
    <tag k="oneway" v="yes"/>
    <tag k="ref" v="A538"/>
  </way>
  <way id="1026420988" version="5" timestamp="2022-07-23T01:15:52Z" changeset="123959663" uid="13341565" user="Falsernet">
    <nd ref="8911528192"/>
    <nd ref="9550271873"/>
    <nd ref="8911528191"/>
    <tag k="highway" v="trunk"/>
    <tag k="junction" v="circular"/>
    <tag k="maxspeed" v="40 mph"/>
    <tag k="name" v="Hale Four Seasons Roundabout"/>
    <tag k="ref" v="A538"/>
  </way>
  <way id="1026422315" version="7" timestamp="2024-12-12T16:42:53Z" changeset="160215439" uid="3828331" user="NW Mapper 2016">
    <nd ref="21672231"/>
    <nd ref="8911528207"/>
    <nd ref="8911528203"/>
    <nd ref="8911528199"/>
    <nd ref="8911528193"/>
    <tag k="highway" v="trunk"/>
    <tag k="junction" v="circular"/>
    <tag k="maxspeed" v="40 mph"/>
    <tag k="name" v="Hale Four Seasons Roundabout"/>
    <tag k="oneway" v="yes"/>
    <tag k="ref" v="A538"/>
  </way>
  <way id="1026422768" version="7" timestamp="2024-12-12T16:42:53Z" changeset="160215439" uid="3828331" user="NW Mapper 2016">
    <nd ref="21672222"/>
    <nd ref="8911528210"/>
    <nd ref="8911528211"/>
    <nd ref="934825889"/>
    <nd ref="8911528197"/>
    <tag k="highway" v="trunk"/>
    <tag k="junction" v="circular"/>
    <tag k="maxspeed" v="40 mph"/>
    <tag k="name" v="Hale Four Seasons Roundabout"/>
    <tag k="oneway" v="yes"/>
    <tag k="ref" v="A538"/>
    <tag k="surface" v="asphalt"/>
  </way>
  <way id="1026422769" version="4" timestamp="2022-07-23T01:15:52Z" changeset="123959663" uid="13341565" user="Falsernet">
    <nd ref="21672221"/>
    <nd ref="21672222"/>
    <tag k="highway" v="trunk"/>
    <tag k="junction" v="circular"/>
    <tag k="maxspeed" v="40 mph"/>
    <tag k="name" v="Hale Four Seasons Roundabout"/>
    <tag k="ref" v="A538"/>
  </way>
  <way id="1033986645" version="1" timestamp="2022-02-21T22:06:48Z" changeset="117702489" uid="8571542" user="Merzof">
    <nd ref="5230167573"/>
    <nd ref="5261016981"/>
    <nd ref="5250932236"/>
    <tag k="highway" v="tertiary"/>
    <tag k="lanes" v="1"/>
    <tag k="maxspeed" v="30 mph"/>
    <tag k="name" v="Enterprise Way"/>
    <tag k="oneway" v="yes"/>
    <tag k="source" v="GPS"/>
  </way>
  <way id="1034578711" version="4" timestamp="2023-03-29T22:31:29Z" changeset="134281289" uid="4559" user="RichardB">
    <nd ref="9081931870"/>
    <nd ref="5261016966"/>
    <nd ref="5261016919"/>
    <nd ref="5261016918"/>
    <nd ref="5261016917"/>
    <nd ref="9351215356"/>
    <nd ref="5261016916"/>
    <nd ref="9351215357"/>
    <nd ref="5261016962"/>
    <nd ref="5261016915"/>
    <nd ref="5261016961"/>
    <nd ref="9081932470"/>
    <nd ref="5261016914"/>
    <nd ref="5261016913"/>
    <nd ref="5261016912"/>
    <nd ref="9351215358"/>
    <nd ref="5261016911"/>
    <nd ref="5261016968"/>
    <nd ref="9081931871"/>
    <tag k="cycleway:left" v="track"/>
    <tag k="highway" v="tertiary"/>
    <tag k="junction" v="roundabout"/>
    <tag k="source" v="GPS"/>
  </way>
  <way id="1036287932" version="1" timestamp="2022-03-01T13:16:31Z" changeset="117979887" uid="8571542" user="Merzof">
    <nd ref="1860579940"/>
    <nd ref="4718947828"/>
    <nd ref="60901080"/>
    <tag k="highway" v="unclassified"/>
    <tag k="lit" v="yes"/>
    <tag k="maxspeed" v="20 mph"/>
    <tag k="name" v="Avro Way"/>
    <tag k="sidewalk" v="left"/>
    <tag k="source" v="GPS survey"/>
  </way>
  <way id="1036287933" version="1" timestamp="2022-03-01T13:16:31Z" changeset="117979887" uid="8571542" user="Merzof">
    <nd ref="21672209"/>
    <nd ref="360913139"/>
    <nd ref="360913141"/>
    <nd ref="360913142"/>
    <nd ref="360913145"/>
    <nd ref="6942773179"/>
    <tag k="highway" v="unclassified"/>
    <tag k="name" v="Wilmslow Old Road"/>
    <tag k="old_ref" v="A538"/>
  </way>
  <way id="1036619031" version="5" timestamp="2024-12-12T16:42:53Z" changeset="160215439" uid="3828331" user="NW Mapper 2016">
    <nd ref="21672227"/>
    <nd ref="8911528201"/>
    <nd ref="21672228"/>
    <tag k="highway" v="trunk"/>
    <tag k="junction" v="circular"/>
    <tag k="maxspeed" v="40 mph"/>
    <tag k="name" v="Hale Four Seasons Roundabout"/>
    <tag k="oneway" v="yes"/>
    <tag k="ref" v="A538"/>
  </way>
  <way id="1070701223" version="1" timestamp="2022-06-17T17:05:08Z" changeset="122517078" uid="3336141" user="Fraham">
    <nd ref="937825060"/>
    <nd ref="9825931939"/>
    <tag k="highway" v="unclassified"/>
    <tag k="maxspeed" v="30 mph"/>
    <tag k="oneway" v="yes"/>
  </way>
  <way id="1070701224" version="1" timestamp="2022-06-17T17:05:08Z" changeset="122517078" uid="3336141" user="Fraham">
    <nd ref="9825931939"/>
    <nd ref="847553434"/>
    <tag k="highway" v="unclassified"/>
    <tag k="maxspeed" v="30 mph"/>
    <tag k="oneway" v="yes"/>
  </way>
  <way id="1070791259" version="1" timestamp="2022-06-17T22:48:52Z" changeset="122526539" uid="3336141" user="Fraham">
    <nd ref="8911528192"/>
    <nd ref="21672256"/>
    <tag k="bicycle" v="yes"/>
    <tag k="highway" v="trunk"/>
    <tag k="lit" v="yes"/>
    <tag k="maxspeed" v="40 mph"/>
    <tag k="name" v="Wilmslow Road"/>
    <tag k="oneway" v="yes"/>
    <tag k="ref" v="A538"/>
  </way>
  <way id="1070791260" version="4" timestamp="2024-12-12T16:42:53Z" changeset="160215439" uid="3828331" user="NW Mapper 2016">
    <nd ref="21672224"/>
    <nd ref="8911528200"/>
    <nd ref="8911528205"/>
    <nd ref="8911528192"/>
    <tag k="highway" v="trunk"/>
    <tag k="junction" v="circular"/>
    <tag k="maxspeed" v="40 mph"/>
    <tag k="name" v="Hale Four Seasons Roundabout"/>
    <tag k="oneway" v="yes"/>
    <tag k="ref" v="A538"/>
  </way>
  <way id="1070791261" version="4" timestamp="2024-12-12T16:42:53Z" changeset="160215439" uid="3828331" user="NW Mapper 2016">
    <nd ref="8911528197"/>
    <nd ref="21672224"/>
    <tag k="highway" v="trunk"/>
    <tag k="junction" v="circular"/>
    <tag k="maxspeed" v="40 mph"/>
    <tag k="name" v="Hale Four Seasons Roundabout"/>
    <tag k="oneway" v="yes"/>
    <tag k="ref" v="A538"/>
  </way>
  <way id="1070791262" version="4" timestamp="2024-12-12T16:42:53Z" changeset="160215439" uid="3828331" user="NW Mapper 2016">
    <nd ref="8911528195"/>
    <nd ref="8911528202"/>
    <nd ref="21672231"/>
    <tag k="highway" v="trunk"/>
    <tag k="junction" v="circular"/>
    <tag k="maxspeed" v="40 mph"/>
    <tag k="name" v="Hale Four Seasons Roundabout"/>
    <tag k="oneway" v="yes"/>
    <tag k="ref" v="A538"/>
  </way>
  <way id="1070791263" version="4" timestamp="2024-12-12T16:42:53Z" changeset="160215439" uid="3828331" user="NW Mapper 2016">
    <nd ref="21672228"/>
    <nd ref="8911528208"/>
    <nd ref="21672230"/>
    <nd ref="8911528209"/>
    <nd ref="8911528195"/>
    <tag k="highway" v="trunk"/>
    <tag k="junction" v="circular"/>
    <tag k="maxspeed" v="40 mph"/>
    <tag k="name" v="Hale Four Seasons Roundabout"/>
    <tag k="oneway" v="yes"/>
    <tag k="ref" v="A538"/>
  </way>
  <way id="1082345516" version="2" timestamp="2024-01-07T11:46:55Z" changeset="145987377" uid="12340839" user="mapboy63">
    <nd ref="9919409266"/>
    <nd ref="9919409267"/>
    <nd ref="9919409268"/>
    <nd ref="9919409269"/>
    <nd ref="9919409266"/>
    <tag k="addr:city" v="Manchester"/>
    <tag k="addr:housenumber" v="1"/>
    <tag k="addr:postcode" v="M90 4ZY"/>
    <tag k="addr:street" v="Palma Avenue"/>
    <tag k="brand" v="Holiday Inn"/>
    <tag k="brand:wikidata" v="Q2717882"/>
    <tag k="building" v="yes"/>
    <tag k="email" v="reservations@himanchesterairport.com"/>
    <tag k="name" v="Holiday Inn Manchester Airport"/>
    <tag k="phone" v="+44 161 2433333"/>
    <tag k="tourism" v="hotel"/>
    <tag k="website" v="https://www.ihg.com/holidayinn/hotels/gb/en/manchester-airport/manap/hoteldetail"/>
  </way>
  <way id="1082345517" version="2" timestamp="2024-01-07T11:46:55Z" changeset="145987377" uid="12340839" user="mapboy63">
    <nd ref="9919409270"/>
    <nd ref="9919409271"/>
    <nd ref="9919409272"/>
    <nd ref="11496953227"/>
    <nd ref="11496953228"/>
    <nd ref="9919409273"/>
    <nd ref="11496953229"/>
    <nd ref="11496953230"/>
    <nd ref="9919409270"/>
    <tag k="addr:city" v="Manchester"/>
    <tag k="addr:housenumber" v="3"/>
    <tag k="addr:postcode" v="M90 4ZY"/>
    <tag k="addr:street" v="Palma Avenue"/>
    <tag k="brand" v="Ibis Budget"/>
    <tag k="brand:wikidata" v="Q1458135"/>
    <tag k="building" v="yes"/>
    <tag k="email" v="hb2v5@accor.com"/>
    <tag k="name" v="Ibis Budget Manchester Airport"/>
    <tag k="phone" v="+44 161 388 5211"/>
    <tag k="tourism" v="hotel"/>
    <tag k="website" v="https://all.accor.com/hotel/B2V5/index.en.shtml"/>
  </way>
  <way id="1094451377" version="1" timestamp="2022-09-14T09:36:02Z" changeset="126171570" uid="12340839" user="mapboy63">
    <nd ref="1431056630"/>
    <nd ref="1431056717"/>
    <tag k="highway" v="unclassified"/>
    <tag k="name" v="Ringway Road"/>
    <tag k="oneway" v="yes"/>
  </way>
  <way id="1094451378" version="1" timestamp="2022-09-14T09:36:02Z" changeset="126171570" uid="12340839" user="mapboy63">
    <nd ref="1431056717"/>
    <nd ref="10023970485"/>
    <nd ref="1431056544"/>
    <tag k="highway" v="unclassified"/>
    <tag k="name" v="Ringway Road"/>
    <tag k="oneway" v="yes"/>
  </way>
  <way id="1094480789" version="1" timestamp="2022-09-14T11:26:10Z" changeset="126176850" uid="12340839" user="mapboy63">
    <nd ref="10024227246"/>
    <nd ref="10024227247"/>
    <nd ref="10024227248"/>
    <nd ref="10024227249"/>
    <nd ref="10024227246"/>
    <tag k="building" v="yes"/>
    <tag k="name" v="T3 Meet &amp; Greet Reception"/>
  </way>
  <way id="1094893958" version="3" timestamp="2022-10-09T16:02:59Z" changeset="127256445" uid="12340839" user="mapboy63">
    <nd ref="8435557917"/>
    <nd ref="10027534538"/>
    <nd ref="10027534539"/>
    <nd ref="10027534540"/>
    <nd ref="8435557917"/>
    <tag k="building" v="yes"/>
    <tag k="name" v="T1 Meet &amp; Greet Reception"/>
  </way>
  <way id="1105425338" version="3" timestamp="2023-08-26T13:35:30Z" changeset="140412358" uid="12992" user="trigpoint">
    <nd ref="20910625"/>
    <nd ref="10029703565"/>
    <nd ref="20910624"/>
    <nd ref="1610739557"/>
    <nd ref="20910623"/>
    <tag k="bicycle" v="yes"/>
    <tag k="highway" v="trunk"/>
    <tag k="lanes" v="2"/>
    <tag k="lit" v="yes"/>
    <tag k="maxspeed" v="40 mph"/>
    <tag k="name" v="Ringway Road West"/>
    <tag k="oneway" v="yes"/>
    <tag k="ref" v="A555"/>
  </way>
  <way id="1146121855" version="2" timestamp="2025-04-26T09:23:15Z" changeset="165455518" uid="5229644" user="Nathan_A_RF">
    <nd ref="5664297745"/>
    <nd ref="10665879788"/>
    <nd ref="6820502817"/>
    <tag k="highway" v="unclassified"/>
    <tag k="maxspeed" v="40 mph"/>
    <tag k="oneway" v="yes"/>
  </way>
  <way id="1146123896" version="2" timestamp="2025-04-26T09:23:15Z" changeset="165455518" uid="5229644" user="Nathan_A_RF">
    <nd ref="6820502817"/>
    <nd ref="5559452684"/>
    <tag k="highway" v="unclassified"/>
    <tag k="maxspeed" v="40 mph"/>
    <tag k="oneway" v="yes"/>
  </way>
  <way id="1146123897" version="1" timestamp="2023-02-15T23:34:13Z" changeset="132605235" uid="7190158" user="tsrep">
    <nd ref="10665879791"/>
    <nd ref="5559452692"/>
    <tag k="bicycle" v="yes"/>
    <tag k="highway" v="trunk"/>
    <tag k="lanes" v="2"/>
    <tag k="lit" v="yes"/>
    <tag k="maxspeed" v="40 mph"/>
    <tag k="name" v="Wilmslow Road"/>
    <tag k="oneway" v="yes"/>
    <tag k="ref" v="A538"/>
  </way>
  <way id="1146123898" version="2" timestamp="2025-04-26T09:23:15Z" changeset="165455518" uid="5229644" user="Nathan_A_RF">
    <nd ref="10665879791"/>
    <nd ref="10665879790"/>
    <nd ref="6820502817"/>
    <tag k="highway" v="unclassified"/>
    <tag k="maxspeed" v="40 mph"/>
    <tag k="oneway" v="yes"/>
  </way>
  <way id="1158302757" version="1" timestamp="2023-03-29T22:31:29Z" changeset="134281289" uid="4559" user="RichardB">
    <nd ref="847553434"/>
    <nd ref="280710765"/>
    <nd ref="280710766"/>
    <nd ref="6421391937"/>
    <tag k="cycleway:left" v="no"/>
    <tag k="highway" v="unclassified"/>
    <tag k="junction" v="roundabout"/>
    <tag k="maxspeed" v="30 mph"/>
    <tag k="name" v="Terminal Road North"/>
    <tag k="source" v="survey"/>
    <tag k="source:name" v="OS_OpenData_StreetView"/>
    <tag k="surface" v="asphalt"/>
  </way>
  <way id="1158302758" version="1" timestamp="2023-03-29T22:31:29Z" changeset="134281289" uid="4559" user="RichardB">
    <nd ref="9081931871"/>
    <nd ref="5261016921"/>
    <nd ref="9538586176"/>
    <nd ref="5261016920"/>
    <nd ref="9081931870"/>
    <tag k="cycleway:left" v="track"/>
    <tag k="highway" v="tertiary"/>
    <tag k="junction" v="roundabout"/>
    <tag k="source" v="GPS"/>
  </way>
  <way id="1158311263" version="1" timestamp="2023-03-30T00:06:34Z" changeset="134282577" uid="4559" user="RichardB">
    <nd ref="937826029"/>
    <nd ref="937825337"/>
    <nd ref="937826557"/>
    <nd ref="937825769"/>
    <nd ref="9178198495"/>
    <nd ref="9178198496"/>
    <nd ref="9178198507"/>
    <nd ref="937824396"/>
    <nd ref="1680589352"/>
    <nd ref="937825392"/>
    <nd ref="937825966"/>
    <nd ref="1680589328"/>
    <nd ref="9178198497"/>
    <nd ref="9178198498"/>
    <nd ref="937825428"/>
    <tag k="cycleway:left" v="no"/>
    <tag k="highway" v="unclassified"/>
    <tag k="junction" v="roundabout"/>
    <tag k="lane_markings" v="no"/>
    <tag k="source" v="Yahoo"/>
    <tag k="surface" v="asphalt"/>
  </way>
  <way id="1159576885" version="1" timestamp="2023-04-04T06:47:19Z" changeset="134480913" uid="3810" user="dsp">
    <nd ref="10783682230"/>
    <nd ref="10783682231"/>
    <nd ref="10783682232"/>
    <nd ref="10783682233"/>
    <nd ref="10783682230"/>
    <tag k="building" v="yes"/>
    <tag k="name" v="THG"/>
  </way>
  <way id="1184883093" version="2" timestamp="2025-03-25T15:07:10Z" changeset="164081786" uid="395076" user="Phil Welch">
    <nd ref="11006227665"/>
    <nd ref="11006227666"/>
    <nd ref="11006227667"/>
    <nd ref="11006227668"/>
    <nd ref="11006227665"/>
    <tag k="addr:city" v="Altrincham"/>
    <tag k="addr:housenumber" v="2"/>
    <tag k="addr:postcode" v="WA15 8XQ"/>
    <tag k="addr:street" v="Wilmslow Old Road"/>
    <tag k="building" v="yes"/>
    <tag k="building:levels" v="1"/>
    <tag k="name" v="Aether Private Terminal"/>
  </way>
  <way id="1238438789" version="1" timestamp="2024-01-09T23:10:08Z" changeset="146083528" uid="12340839" user="mapboy63">
    <nd ref="11504497546"/>
    <nd ref="11504497547"/>
    <nd ref="11504497548"/>
    <nd ref="11504497549"/>
    <nd ref="11504497550"/>
    <nd ref="11504497551"/>
    <nd ref="11504497552"/>
    <nd ref="11504497553"/>
    <nd ref="11504497554"/>
    <nd ref="11504497555"/>
    <nd ref="11504497556"/>
    <nd ref="11504497557"/>
    <nd ref="11504497558"/>
    <nd ref="11504497559"/>
    <nd ref="11504497560"/>
    <nd ref="11504497561"/>
    <nd ref="11504497562"/>
    <nd ref="11504497563"/>
    <nd ref="11504497564"/>
    <nd ref="11504497565"/>
    <nd ref="11504497566"/>
    <nd ref="11504497567"/>
    <nd ref="11504497546"/>
    <tag k="amenity" v="pub"/>
    <tag k="brand" v="Chef &amp; Brewer"/>
    <tag k="brand:wikidata" v="Q5089491"/>
    <tag k="building" v="yes"/>
    <tag k="name" v="The Romper"/>
    <tag k="operator" v="Chef &amp; Brewer"/>
    <tag k="website" v="https://www.chefandbrewer.com/pubs/cheshire/romper"/>
  </way>
  <way id="1269016092" version="2" timestamp="2024-07-21T16:55:24Z" changeset="154228153" uid="6397757" user="TomJeffs">
    <nd ref="11786638636"/>
    <nd ref="11786638635"/>
    <nd ref="12066595885"/>
    <nd ref="6120149103"/>
    <tag k="highway" v="unclassified"/>
    <tag k="lanes" v="3"/>
    <tag k="lanes:backward" v="2"/>
    <tag k="maxspeed" v="40 mph"/>
    <tag k="turn:lanes:backward" v="left|right"/>
  </way>
  <way id="1269016093" version="3" timestamp="2024-07-21T16:55:24Z" changeset="154228153" uid="6397757" user="TomJeffs">
    <nd ref="5223911785"/>
    <nd ref="11786638636"/>
    <tag k="highway" v="unclassified"/>
  </way>
  <way id="1278128734" version="1" timestamp="2024-04-29T11:34:47Z" changeset="150658717" uid="191786" user="Alexandre148025">
    <nd ref="59348936"/>
    <nd ref="59348937"/>
    <nd ref="9264516370"/>
    <tag k="highway" v="tertiary"/>
    <tag k="lanes" v="2"/>
    <tag k="lit" v="yes"/>
    <tag k="maxspeed" v="30 mph"/>
    <tag k="name" v="Thorley Lane"/>
    <tag k="source" v="GPS"/>
  </way>
  <way id="1288659514" version="1" timestamp="2024-06-01T13:10:17Z" changeset="152120664" uid="21245482" user="AKAfreaky">
    <nd ref="9826553132"/>
    <nd ref="7414316385"/>
    <nd ref="5559007533"/>
    <tag k="highway" v="unclassified"/>
    <tag k="junction" v="roundabout"/>
  </way>
  <way id="1288659515" version="1" timestamp="2024-06-01T13:10:17Z" changeset="152120664" uid="21245482" user="AKAfreaky">
    <nd ref="5559007532"/>
    <nd ref="5559007531"/>
    <nd ref="11284789464"/>
    <nd ref="5559252552"/>
    <tag k="highway" v="unclassified"/>
    <tag k="junction" v="roundabout"/>
  </way>
  <way id="1288659516" version="1" timestamp="2024-06-01T13:10:17Z" changeset="152120664" uid="21245482" user="AKAfreaky">
    <nd ref="5559252552"/>
    <nd ref="5559007545"/>
    <nd ref="5559007544"/>
    <nd ref="5559007530"/>
    <nd ref="5559007546"/>
    <nd ref="5559007541"/>
    <nd ref="5559007540"/>
    <nd ref="5559007539"/>
    <nd ref="5559252550"/>
    <nd ref="5558817891"/>
    <tag k="highway" v="unclassified"/>
    <tag k="junction" v="roundabout"/>
  </way>
  <way id="1288659517" version="1" timestamp="2024-06-01T13:10:17Z" changeset="152120664" uid="21245482" user="AKAfreaky">
    <nd ref="5558817891"/>
    <nd ref="5559007538"/>
    <nd ref="11284789465"/>
    <nd ref="5559007537"/>
    <tag k="highway" v="unclassified"/>
    <tag k="junction" v="roundabout"/>
  </way>
  <way id="1288659518" version="1" timestamp="2024-06-01T13:10:17Z" changeset="152120664" uid="21245482" user="AKAfreaky">
    <nd ref="5559007537"/>
    <nd ref="5559007536"/>
    <nd ref="5558817888"/>
    <nd ref="5559007535"/>
    <nd ref="9826553132"/>
    <tag k="highway" v="unclassified"/>
    <tag k="junction" v="roundabout"/>
  </way>
  <way id="1288659519" version="1" timestamp="2024-06-01T13:10:17Z" changeset="152120664" uid="21245482" user="AKAfreaky">
    <nd ref="5608972633"/>
    <nd ref="5608966517"/>
    <nd ref="5608972622"/>
    <nd ref="5608972623"/>
    <nd ref="5608972624"/>
    <nd ref="5608972631"/>
    <nd ref="5608966518"/>
    <nd ref="5608966519"/>
    <tag k="highway" v="unclassified"/>
    <tag k="junction" v="roundabout"/>
  </way>
  <way id="1288659520" version="1" timestamp="2024-06-01T13:10:17Z" changeset="152120664" uid="21245482" user="AKAfreaky">
    <nd ref="1680007942"/>
    <nd ref="5608972625"/>
    <nd ref="5608972627"/>
    <nd ref="5608972628"/>
    <nd ref="5608972629"/>
    <nd ref="5559007561"/>
    <tag k="highway" v="unclassified"/>
    <tag k="junction" v="roundabout"/>
  </way>
  <way id="1288659521" version="1" timestamp="2024-06-01T13:10:17Z" changeset="152120664" uid="21245482" user="AKAfreaky">
    <nd ref="5559007561"/>
    <nd ref="7414316386"/>
    <nd ref="7414307883"/>
    <nd ref="5608966516"/>
    <nd ref="5608972633"/>
    <tag k="highway" v="unclassified"/>
    <tag k="junction" v="roundabout"/>
  </way>
  <way id="1288659522" version="1" timestamp="2024-06-01T13:10:17Z" changeset="152120664" uid="21245482" user="AKAfreaky">
    <nd ref="5608966519"/>
    <nd ref="5608966520"/>
    <nd ref="5608972621"/>
    <tag k="highway" v="unclassified"/>
    <tag k="junction" v="roundabout"/>
  </way>
  <way id="1324665263" version="1" timestamp="2024-10-17T12:02:05Z" changeset="158004743" uid="13960467" user="Bolt032">
    <nd ref="7193585446"/>
    <nd ref="7193585436"/>
    <nd ref="7193585437"/>
    <nd ref="7193585435"/>
    <nd ref="7193585439"/>
    <nd ref="7193585434"/>
    <tag k="highway" v="unclassified"/>
    <tag k="name" v="Melbourne Avenue"/>
  </way>
  <way id="1358094423" version="1" timestamp="2025-02-08T11:45:18Z" changeset="162276537" uid="184757" user="97wrangler">
    <nd ref="12568158136"/>
    <nd ref="12568158137"/>
    <nd ref="12568158138"/>
    <nd ref="12568158139"/>
    <nd ref="12568158136"/>
    <tag k="building" v="yes"/>
    <tag k="name" v="Swissport Cargo (opening summer 2025)"/>
  </way>
  <way id="1362836015" version="1" timestamp="2025-02-25T12:46:10Z" changeset="162930928" uid="3828331" user="NW Mapper 2016">
    <nd ref="12618059248"/>
    <nd ref="12618059249"/>
    <nd ref="12618059250"/>
    <nd ref="12618059251"/>
    <nd ref="12618059248"/>
    <tag k="brand" v="TRIBE"/>
    <tag k="brand:wikidata" v="Q113694525"/>
    <tag k="building" v="yes"/>
    <tag k="name" v="Tribe Table"/>
    <tag k="tourism" v="hotel"/>
  </way>

</osm>
