<?xml version="1.0" encoding="UTF-8"?>
<osm version="0.6" generator="Overpass API 0.7.62.5 1bd436f1">
<note>The data included in this document is from www.openstreetmap.org. The data is made available under ODbL.</note>
<meta osm_base="2025-03-25T15:54:15Z" areas="2025-02-06T02:17:44Z"/>

  <node id="29676417" lat="52.2960988" lon="-0.0378902" version="8" timestamp="2023-05-12T16:27:46Z" changeset="136025927" uid="2969887" user="eastender">
    <tag k="addr:city" v="Cambridge"/>
    <tag k="addr:postcode" v="CB24 4SJ"/>
    <tag k="addr:street" v="High Street"/>
    <tag k="amenity" v="pub"/>
    <tag k="fhrs:id" v="1223557"/>
    <tag k="name" v="The Three Tuns"/>
    <tag k="source" v="voice"/>
    <tag k="wikidata" v="Q17544354"/>
  </node>
  <node id="10052416516" lat="52.2964538" lon="-0.0393697" version="1" timestamp="2022-09-25T21:52:51Z" changeset="126630659" uid="6476359" user="NSiecw">
    <tag k="addr:city" v="Cambridge"/>
    <tag k="addr:housenumber" v="43"/>
    <tag k="addr:postcode" v="CB24 4TA"/>
    <tag k="addr:street" v="Vermuyden Way"/>
    <tag k="addr:village" v="Fen Drayton"/>
  </node>
  <node id="10052426717" lat="52.2964433" lon="-0.0392966" version="1" timestamp="2022-09-25T21:52:51Z" changeset="126630659" uid="6476359" user="NSiecw">
    <tag k="addr:city" v="Cambridge"/>
    <tag k="addr:housenumber" v="41"/>
    <tag k="addr:postcode" v="CB24 4TA"/>
    <tag k="addr:street" v="Vermuyden Way"/>
    <tag k="addr:village" v="Fen Drayton"/>
  </node>
  <node id="10052426725" lat="52.2963689" lon="-0.0388526" version="1" timestamp="2022-09-25T21:52:51Z" changeset="126630659" uid="6476359" user="NSiecw">
    <tag k="addr:city" v="Cambridge"/>
    <tag k="addr:housenumber" v="33"/>
    <tag k="addr:postcode" v="CB24 4TA"/>
    <tag k="addr:street" v="Vermuyden Way"/>
    <tag k="addr:village" v="Fen Drayton"/>
  </node>
  <node id="10052426726" lat="52.2964164" lon="-0.0388258" version="1" timestamp="2022-09-25T21:52:51Z" changeset="126630659" uid="6476359" user="NSiecw">
    <tag k="addr:city" v="Cambridge"/>
    <tag k="addr:housenumber" v="31"/>
    <tag k="addr:postcode" v="CB24 4TA"/>
    <tag k="addr:street" v="Vermuyden Way"/>
    <tag k="addr:village" v="Fen Drayton"/>
  </node>
  <node id="10052426754" lat="52.2972798" lon="-0.0417732" version="1" timestamp="2022-09-25T21:52:51Z" changeset="126630659" uid="6476359" user="NSiecw">
    <tag k="addr:city" v="Cambridge"/>
    <tag k="addr:housenumber" v="6"/>
    <tag k="addr:postcode" v="CB24 4TA"/>
    <tag k="addr:street" v="Vermuyden Way"/>
    <tag k="addr:village" v="Fen Drayton"/>
  </node>
  <node id="10052426755" lat="52.2973519" lon="-0.0417329" version="1" timestamp="2022-09-25T21:52:51Z" changeset="126630659" uid="6476359" user="NSiecw">
    <tag k="addr:city" v="Cambridge"/>
    <tag k="addr:housenumber" v="2"/>
    <tag k="addr:postcode" v="CB24 4TA"/>
    <tag k="addr:street" v="Vermuyden Way"/>
    <tag k="addr:village" v="Fen Drayton"/>
  </node>
  <node id="10052426765" lat="52.2967906" lon="-0.0409517" version="1" timestamp="2022-09-25T21:52:51Z" changeset="126630659" uid="6476359" user="NSiecw">
    <tag k="addr:city" v="Cambridge"/>
    <tag k="addr:housenumber" v="40"/>
    <tag k="addr:postcode" v="CB24 4TA"/>
    <tag k="addr:street" v="Vermuyden Way"/>
    <tag k="addr:village" v="Fen Drayton"/>
  </node>
  <node id="10052426766" lat="52.2968818" lon="-0.0409024" version="1" timestamp="2022-09-25T21:52:51Z" changeset="126630659" uid="6476359" user="NSiecw">
    <tag k="addr:city" v="Cambridge"/>
    <tag k="addr:housenumber" v="32"/>
    <tag k="addr:postcode" v="CB24 4TA"/>
    <tag k="addr:street" v="Vermuyden Way"/>
    <tag k="addr:village" v="Fen Drayton"/>
  </node>
  <way id="4234630" version="15" timestamp="2024-01-12T15:54:04Z" changeset="146186634" uid="669183" user="Andy_W">
    <nd ref="25278141"/>
    <nd ref="25278142"/>
    <nd ref="10050141074"/>
    <nd ref="5584299603"/>
    <nd ref="5584300948"/>
    <nd ref="5584300982"/>
    <nd ref="5584300986"/>
    <nd ref="29676383"/>
    <nd ref="5869298360"/>
    <nd ref="11511365287"/>
    <nd ref="29676312"/>
    <nd ref="29676410"/>
    <nd ref="29676411"/>
    <nd ref="29676337"/>
    <nd ref="29676335"/>
    <nd ref="5586304952"/>
    <nd ref="355033638"/>
    <nd ref="25278146"/>
    <nd ref="5584301350"/>
    <nd ref="25278147"/>
    <tag k="highway" v="tertiary"/>
    <tag k="maxspeed" v="30 mph"/>
    <tag k="name" v="Cootes Lane"/>
  </way>
  <way id="4237122" version="9" timestamp="2019-02-28T10:39:02Z" changeset="67646223" uid="322039" user="MacLondon">
    <nd ref="29676434"/>
    <nd ref="29676401"/>
    <nd ref="25278160"/>
    <nd ref="25278159"/>
    <nd ref="25278158"/>
    <nd ref="25278157"/>
    <nd ref="25278156"/>
    <nd ref="5586303380"/>
    <nd ref="2353097317"/>
    <nd ref="25278155"/>
    <nd ref="60751728"/>
    <nd ref="60751727"/>
    <nd ref="25278153"/>
    <tag k="highway" v="tertiary"/>
    <tag k="name" v="Horse and Gate Street"/>
  </way>
  <way id="4237125" version="7" timestamp="2013-05-31T12:34:31Z" changeset="16364095" uid="669183" user="Andy_W">
    <nd ref="25278170"/>
    <nd ref="25297047"/>
    <nd ref="2327075157"/>
    <nd ref="2327075156"/>
    <nd ref="205285700"/>
    <nd ref="2327074817"/>
    <tag k="highway" v="tertiary"/>
    <tag k="name" v="Cambridge Road"/>
  </way>
  <way id="4237126" version="8" timestamp="2019-02-28T10:39:02Z" changeset="67646223" uid="322039" user="MacLondon">
    <nd ref="25278170"/>
    <nd ref="25278172"/>
    <nd ref="25278173"/>
    <nd ref="25278174"/>
    <nd ref="25278175"/>
    <nd ref="25278176"/>
    <tag k="highway" v="tertiary"/>
    <tag k="name" v="Swavesey Road"/>
  </way>
  <way id="4237127" version="10" timestamp="2019-10-17T12:14:08Z" changeset="75834747" uid="10252551" user="amanura">
    <nd ref="25278177"/>
    <nd ref="2327097443"/>
    <nd ref="2327097457"/>
    <nd ref="6891730120"/>
    <nd ref="6891730121"/>
    <nd ref="6891730122"/>
    <nd ref="25278180"/>
    <nd ref="25278181"/>
    <nd ref="2327097450"/>
    <tag k="highway" v="tertiary"/>
    <tag k="name" v="Swavesey Road"/>
    <tag k="source:name" v="OS_opendata_streetview"/>
  </way>
  <way id="4672905" version="3" timestamp="2012-01-08T23:57:56Z" changeset="10338162" uid="178626" user="Rovastar">
    <nd ref="29676312"/>
    <nd ref="29676313"/>
    <nd ref="1583395443"/>
    <nd ref="29676314"/>
    <nd ref="1583395439"/>
    <nd ref="1583395438"/>
    <nd ref="1583395437"/>
    <nd ref="1583395436"/>
    <nd ref="1583395434"/>
    <nd ref="29676315"/>
    <nd ref="29676316"/>
    <nd ref="29676317"/>
    <nd ref="1583395424"/>
    <nd ref="1583395422"/>
    <nd ref="1583405270"/>
    <nd ref="29676318"/>
    <nd ref="1583405269"/>
    <nd ref="1583405268"/>
    <nd ref="1583405267"/>
    <nd ref="1583405266"/>
    <nd ref="29676319"/>
    <nd ref="1583405265"/>
    <nd ref="29676326"/>
    <tag k="highway" v="residential"/>
    <tag k="name" v="Vermuyden Way"/>
    <tag k="postal_code" v="CB24"/>
  </way>
  <way id="4672906" version="4" timestamp="2018-04-28T12:26:32Z" changeset="58502764" uid="5173844" user="ndrw6">
    <nd ref="1583405232"/>
    <nd ref="1583405237"/>
    <nd ref="1583405242"/>
    <nd ref="1583405245"/>
    <nd ref="29676326"/>
    <nd ref="1583405255"/>
    <nd ref="1583405260"/>
    <nd ref="1583405261"/>
    <nd ref="1583405262"/>
    <nd ref="1583405264"/>
    <nd ref="1583405263"/>
    <nd ref="29676327"/>
    <nd ref="1583405254"/>
    <nd ref="1583405251"/>
    <nd ref="1583405247"/>
    <nd ref="29676328"/>
    <nd ref="1583405239"/>
    <nd ref="1583405233"/>
    <nd ref="1583405231"/>
    <nd ref="1583405230"/>
    <nd ref="1583405229"/>
    <nd ref="29676325"/>
    <nd ref="1583405232"/>
    <tag k="highway" v="residential"/>
    <tag k="junction" v="roundabout"/>
    <tag k="name" v="Vermuyden Way"/>
    <tag k="postal_code" v="CB24"/>
  </way>
  <way id="4672907" version="4" timestamp="2022-09-25T21:52:51Z" changeset="126630659" uid="6476359" user="NSiecw">
    <nd ref="29676328"/>
    <nd ref="10052416515"/>
    <nd ref="5586303110"/>
    <nd ref="29676320"/>
    <tag k="highway" v="residential"/>
    <tag k="name" v="Vermuyden Way"/>
    <tag k="postal_code" v="CB24"/>
  </way>
  <way id="4672908" version="2" timestamp="2012-01-08T23:38:58Z" changeset="10338069" uid="178626" user="Rovastar">
    <nd ref="29676321"/>
    <nd ref="1583395417"/>
    <nd ref="1583395419"/>
    <nd ref="1583395421"/>
    <nd ref="1583395420"/>
    <nd ref="1583395415"/>
    <nd ref="1583395404"/>
    <nd ref="29676323"/>
    <nd ref="1583395416"/>
    <nd ref="1583395418"/>
    <nd ref="29676322"/>
    <nd ref="29676324"/>
    <nd ref="29676315"/>
    <tag k="highway" v="residential"/>
    <tag k="name" v="Vermuyden Way"/>
    <tag k="postal_code" v="CB24"/>
  </way>
  <way id="4672910" version="4" timestamp="2018-04-29T15:59:05Z" changeset="58531109" uid="5173844" user="ndrw6">
    <nd ref="29676335"/>
    <nd ref="1583395435"/>
    <nd ref="1583395441"/>
    <nd ref="3200007277"/>
    <nd ref="1583395461"/>
    <nd ref="5586423103"/>
    <nd ref="29676336"/>
    <tag k="highway" v="residential"/>
    <tag k="name" v="The Orchard"/>
  </way>
  <way id="4672911" version="7" timestamp="2024-01-12T15:41:28Z" changeset="146186141" uid="669183" user="Andy_W">
    <nd ref="3200007321"/>
    <nd ref="29676340"/>
    <nd ref="1583395474"/>
    <nd ref="1583395472"/>
    <nd ref="1583395471"/>
    <nd ref="6468437131"/>
    <nd ref="29676343"/>
    <nd ref="1583395470"/>
    <nd ref="1583395469"/>
    <nd ref="1583395467"/>
    <nd ref="1583395465"/>
    <nd ref="1583395463"/>
    <nd ref="29676339"/>
    <nd ref="29676338"/>
    <nd ref="1583395459"/>
    <nd ref="1583395457"/>
    <nd ref="1583395453"/>
    <nd ref="29676345"/>
    <nd ref="29676337"/>
    <tag k="access" v="destination"/>
    <tag k="highway" v="residential"/>
    <tag k="name" v="Park Lane"/>
    <tag k="surface" v="gravel"/>
  </way>
  <way id="4672917" version="5" timestamp="2019-03-07T03:37:42Z" changeset="67866912" uid="322039" user="MacLondon">
    <nd ref="29676390"/>
    <nd ref="29676389"/>
    <nd ref="1583395402"/>
    <tag k="highway" v="unclassified"/>
    <tag k="name" v="High Street"/>
  </way>
  <way id="4672919" version="4" timestamp="2018-04-28T12:26:32Z" changeset="58502764" uid="5173844" user="ndrw6">
    <nd ref="29676399"/>
    <nd ref="29676401"/>
    <tag k="highway" v="unclassified"/>
    <tag k="name" v="Church Street"/>
  </way>
  <way id="4672920" version="6" timestamp="2020-10-10T10:48:12Z" changeset="92271448" uid="10455645" user="viplavm">
    <nd ref="29676390"/>
    <nd ref="2327073371"/>
    <nd ref="2327073373"/>
    <nd ref="7994657050"/>
    <nd ref="29676391"/>
    <nd ref="29676392"/>
    <nd ref="29676393"/>
    <nd ref="29676394"/>
    <nd ref="29676395"/>
    <nd ref="29676432"/>
    <nd ref="29676396"/>
    <nd ref="29676397"/>
    <nd ref="29676433"/>
    <nd ref="29676398"/>
    <nd ref="29676399"/>
    <nd ref="29676402"/>
    <tag k="highway" v="unclassified"/>
    <tag k="name" v="Church Street"/>
    <tag k="source" v="voice"/>
  </way>
  <way id="4672922" version="2" timestamp="2007-12-16T14:31:11Z" changeset="327600" uid="1261" user="tomevans">
    <nd ref="29676415"/>
    <nd ref="25278146"/>
    <tag k="created_by" v="JOSM"/>
    <tag k="highway" v="residential"/>
    <tag k="name" v="Cootes Court"/>
  </way>
  <way id="4672924" version="6" timestamp="2022-05-11T19:09:09Z" changeset="120854735" uid="1102246" user="jtn20">
    <nd ref="29676427"/>
    <nd ref="29676423"/>
    <nd ref="29676422"/>
    <nd ref="1583395403"/>
    <nd ref="29676421"/>
    <nd ref="29676420"/>
    <nd ref="613466933"/>
    <nd ref="9733347544"/>
    <nd ref="9733347543"/>
    <tag k="highway" v="residential"/>
    <tag k="name" v="The Rosary"/>
    <tag k="source" v="photograph"/>
  </way>
  <way id="4672925" version="3" timestamp="2008-01-02T20:15:55Z" changeset="515912" uid="1261" user="tomevans">
    <nd ref="29676426"/>
    <nd ref="29676423"/>
    <tag k="created_by" v="JOSM"/>
    <tag k="highway" v="residential"/>
    <tag k="name" v="The Rosary"/>
  </way>
  <way id="4672927" version="2" timestamp="2007-11-24T17:23:34Z" changeset="608941" uid="3582" user="davidearl">
    <nd ref="29676391"/>
    <nd ref="29676429"/>
    <nd ref="29676430"/>
    <tag k="created_by" v="JOSM"/>
    <tag k="highway" v="residential"/>
    <tag k="name" v="College Farm Court"/>
    <tag k="source" v="voice"/>
  </way>
  <way id="4672928" version="7" timestamp="2019-03-07T03:37:43Z" changeset="67866912" uid="322039" user="MacLondon">
    <nd ref="29676434"/>
    <nd ref="29676402"/>
    <tag k="highway" v="tertiary"/>
    <tag k="name" v="Honey Hill"/>
  </way>
  <way id="4672929" version="3" timestamp="2012-01-08T23:38:57Z" changeset="10338069" uid="178626" user="Rovastar">
    <nd ref="29676435"/>
    <nd ref="1583395454"/>
    <nd ref="1583395455"/>
    <nd ref="29676436"/>
    <nd ref="29676404"/>
    <tag k="highway" v="residential"/>
    <tag k="name" v="Lark Cottages"/>
    <tag k="source" v="voice"/>
  </way>
  <way id="4672930" version="2" timestamp="2007-11-24T17:23:32Z" changeset="608941" uid="3582" user="davidearl">
    <nd ref="29676439"/>
    <nd ref="29676406"/>
    <tag k="created_by" v="JOSM"/>
    <tag k="highway" v="residential"/>
    <tag k="name" v="Dove Cote Close"/>
    <tag k="source" v="voice"/>
  </way>
  <way id="4672932" version="3" timestamp="2023-10-13T10:13:36Z" changeset="142516002" uid="5173844" user="ndrw6">
    <nd ref="29676443"/>
    <nd ref="11259639561"/>
    <nd ref="29676442"/>
    <nd ref="29676446"/>
    <nd ref="11259639559"/>
    <nd ref="29676441"/>
    <nd ref="29676448"/>
    <nd ref="29676447"/>
    <nd ref="29676440"/>
    <nd ref="29676407"/>
    <tag k="highway" v="residential"/>
    <tag k="name" v="Daintrees Road"/>
    <tag k="source" v="photograph"/>
  </way>
  <way id="4672933" version="4" timestamp="2022-12-31T16:31:22Z" changeset="130727685" uid="669183" user="Andy_W">
    <nd ref="29676407"/>
    <nd ref="29676408"/>
    <nd ref="2327073364"/>
    <nd ref="29676450"/>
    <nd ref="29676449"/>
    <tag k="highway" v="unclassified"/>
    <tag k="name" v="Holywell Ferry Road"/>
    <tag k="source" v="photograph"/>
    <tag k="surface" v="asphalt"/>
  </way>
  <way id="4673993" version="8" timestamp="2023-08-26T13:35:16Z" changeset="140412358" uid="12992" user="trigpoint">
    <nd ref="29683863"/>
    <nd ref="5584301302"/>
    <nd ref="29683865"/>
    <nd ref="29683866"/>
    <nd ref="29683864"/>
    <nd ref="5560569527"/>
    <nd ref="29676384"/>
    <nd ref="3117496688"/>
    <tag k="highway" v="unclassified"/>
    <tag k="lcn" v="yes"/>
    <tag k="name" v="Huntingdon Road"/>
    <tag k="old_ref" v="A604"/>
    <tag k="source" v="voice"/>
  </way>
  <way id="4673997" version="7" timestamp="2022-09-26T15:19:09Z" changeset="126661233" uid="6476359" user="NSiecw">
    <nd ref="1367883150"/>
    <nd ref="1367883132"/>
    <nd ref="3200007331"/>
    <nd ref="3200007329"/>
    <nd ref="1367883192"/>
    <nd ref="29683876"/>
    <tag k="highway" v="unclassified"/>
    <tag k="name" v="Oak Tree Road"/>
    <tag k="note" v="Oaktree Road"/>
    <tag k="source" v="voice"/>
    <tag k="source:addr:street" v="sign"/>
  </way>
  <way id="9378532" version="14" timestamp="2023-10-13T10:13:36Z" changeset="142516002" uid="5173844" user="ndrw6">
    <nd ref="25278136"/>
    <nd ref="29683863"/>
    <nd ref="29683868"/>
    <nd ref="29683869"/>
    <nd ref="5560569518"/>
    <nd ref="6819282564"/>
    <nd ref="6819282549"/>
    <nd ref="10053941113"/>
    <nd ref="10053941104"/>
    <nd ref="5560569515"/>
    <nd ref="6877263655"/>
    <nd ref="5560569457"/>
    <nd ref="10053941060"/>
    <nd ref="6869622725"/>
    <nd ref="10053941065"/>
    <nd ref="5560569486"/>
    <nd ref="5560569512"/>
    <nd ref="7115957909"/>
    <nd ref="10053941032"/>
    <nd ref="11259630178"/>
    <nd ref="1619208743"/>
    <tag k="highway" v="tertiary"/>
    <tag k="maxspeed" v="60 mph"/>
    <tag k="maxspeed:type" v="GB:nsl_single"/>
    <tag k="name" v="Mill Road"/>
  </way>
  <way id="9378534" version="6" timestamp="2018-04-29T09:36:31Z" changeset="58522545" uid="5173844" user="ndrw6">
    <nd ref="25278147"/>
    <nd ref="29676403"/>
    <nd ref="1583395433"/>
    <nd ref="29676438"/>
    <nd ref="1583395445"/>
    <nd ref="29676404"/>
    <nd ref="29676437"/>
    <nd ref="29676405"/>
    <nd ref="5585840141"/>
    <nd ref="3200007284"/>
    <nd ref="29676406"/>
    <nd ref="2327073363"/>
    <nd ref="3200007308"/>
    <nd ref="29676407"/>
    <tag k="highway" v="residential"/>
    <tag k="name" v="High Street"/>
  </way>
  <way id="19742350" version="10" timestamp="2024-04-07T10:08:34Z" changeset="149685345" uid="5229644" user="Nathan_A_RF">
    <nd ref="205285753"/>
    <nd ref="11799434375"/>
    <nd ref="205285757"/>
    <nd ref="2327083653"/>
    <nd ref="8148047253"/>
    <nd ref="205285770"/>
    <nd ref="205285751"/>
    <tag k="expressway" v="yes"/>
    <tag k="highway" v="primary_link"/>
    <tag k="maxspeed" v="70 mph"/>
    <tag k="maxspeed:type" v="GB:nsl_dual"/>
    <tag k="oneway" v="yes"/>
    <tag k="operator" v="Cambridgeshire County Council"/>
  </way>
  <way id="19742352" version="9" timestamp="2024-04-07T10:08:34Z" changeset="149685345" uid="5229644" user="Nathan_A_RF">
    <nd ref="205285751"/>
    <nd ref="205285776"/>
    <nd ref="205285777"/>
    <nd ref="8148047254"/>
    <nd ref="205285778"/>
    <tag k="expressway" v="yes"/>
    <tag k="highway" v="primary_link"/>
    <tag k="maxspeed" v="60 mph"/>
    <tag k="maxspeed:type" v="GB:nsl_single"/>
    <tag k="oneway" v="yes"/>
    <tag k="operator" v="Cambridgeshire County Council"/>
  </way>
  <way id="50339389" version="7" timestamp="2022-05-11T19:33:38Z" changeset="120855576" uid="1102246" user="jtn20">
    <nd ref="25278176"/>
    <nd ref="25278177"/>
    <tag k="bridge" v="yes"/>
    <tag k="highway" v="tertiary"/>
    <tag k="inscription" v="CCC &#x0a;East Bridge &#x0a;Fen Drayton &#x0a;1951"/>
    <tag k="name" v="Swavesey Road"/>
  </way>
  <way id="97012401" version="5" timestamp="2019-02-28T10:39:01Z" changeset="67646223" uid="322039" user="MacLondon">
    <nd ref="25278153"/>
    <nd ref="25278152"/>
    <nd ref="25278151"/>
    <nd ref="25278147"/>
    <tag k="highway" v="tertiary"/>
    <tag k="name" v="High Street"/>
  </way>
  <way id="122397913" version="3" timestamp="2022-09-26T15:19:09Z" changeset="126661233" uid="6476359" user="NSiecw">
    <nd ref="1367883125"/>
    <nd ref="3200007336"/>
    <nd ref="1367883128"/>
    <nd ref="1367883126"/>
    <nd ref="1367883127"/>
    <nd ref="1367883129"/>
    <nd ref="1367883130"/>
    <nd ref="3200007334"/>
    <nd ref="1367883125"/>
    <tag k="addr:city" v="Cambridge"/>
    <tag k="addr:postcode" v="CB24 4SS"/>
    <tag k="addr:street" v="Oak Tree Road"/>
    <tag k="addr:village" v="Fen Drayton"/>
    <tag k="building" v="yes"/>
    <tag k="name" v="Widerspins Garage"/>
  </way>
  <way id="144841943" version="1" timestamp="2012-01-08T23:57:55Z" changeset="10338162" uid="178626" user="Rovastar">
    <nd ref="1583405228"/>
    <nd ref="29676325"/>
    <tag k="highway" v="residential"/>
  </way>
  <way id="148858290" version="11" timestamp="2024-09-13T22:59:42Z" changeset="156590402" uid="21931925" user="EJWT">
    <nd ref="1619208740"/>
    <nd ref="5560569300"/>
    <nd ref="7806150610"/>
    <nd ref="25278228"/>
    <nd ref="1348960101"/>
    <nd ref="25278229"/>
    <tag k="highway" v="tertiary"/>
    <tag k="maxspeed" v="60 mph"/>
    <tag k="maxspeed:type" v="GB:nsl_single"/>
    <tag k="name" v="Cambridge Road"/>
    <tag k="old_ref" v="A604"/>
    <tag k="surface" v="asphalt"/>
  </way>
  <way id="148858292" version="4" timestamp="2023-01-14T20:53:32Z" changeset="131279149" uid="493595" user="Yorvik Prestigitator">
    <nd ref="1619208743"/>
    <nd ref="5584300867"/>
    <nd ref="25278139"/>
    <nd ref="10555256244"/>
    <nd ref="25278140"/>
    <tag k="highway" v="tertiary"/>
    <tag k="maxspeed" v="30 mph"/>
    <tag k="name" v="Mill Road"/>
  </way>
  <way id="148858293" version="4" timestamp="2023-12-06T15:48:16Z" changeset="144833913" uid="1287673" user="sloerunner">
    <nd ref="29683876"/>
    <nd ref="5584299567"/>
    <nd ref="29676381"/>
    <nd ref="5584299602"/>
    <nd ref="25278140"/>
    <tag k="designation" v="public_footpath"/>
    <tag k="foot" v="designated"/>
    <tag k="highway" v="unclassified"/>
    <tag k="name" v="Oak Tree Road"/>
    <tag k="prow_ref" v="Fen Drayton FP 12"/>
    <tag k="source" v="voice"/>
    <tag k="source:addr:street" v="sign"/>
    <tag k="source:name" v="survey"/>
    <tag k="source:prow_ref" v="cambridgeshire_county_council_prow_gis_data"/>
    <tag k="surface" v="paved"/>
  </way>
  <way id="223849075" version="3" timestamp="2017-05-03T13:31:15Z" changeset="48354795" uid="1778799" user="SomeoneElse_Revert">
    <nd ref="2327074817"/>
    <nd ref="650107694"/>
    <tag k="bridge" v="yes"/>
    <tag k="highway" v="tertiary"/>
    <tag k="name" v="Cambridge Road"/>
    <tag k="surface" v="asphalt"/>
  </way>
  <way id="223849076" version="2" timestamp="2021-04-20T15:40:34Z" changeset="103281560" uid="90142" user="andy mackey">
    <nd ref="650107694"/>
    <nd ref="2327074806"/>
    <nd ref="205285701"/>
    <nd ref="2327074812"/>
    <nd ref="2327074805"/>
    <nd ref="205285703"/>
    <nd ref="2327074814"/>
    <nd ref="2327083644"/>
    <nd ref="205285738"/>
    <nd ref="2327083655"/>
    <nd ref="2327083656"/>
    <nd ref="205285742"/>
    <nd ref="2327083658"/>
    <nd ref="650107701"/>
    <nd ref="2327083654"/>
    <nd ref="205285746"/>
    <nd ref="2327083646"/>
    <nd ref="205285748"/>
    <nd ref="8647935252"/>
    <nd ref="205285751"/>
    <tag k="highway" v="tertiary"/>
    <tag k="name" v="Cambridge Road"/>
  </way>
  <way id="223849432" version="4" timestamp="2019-02-28T10:39:03Z" changeset="67646223" uid="322039" user="MacLondon">
    <nd ref="2327097450"/>
    <nd ref="25278182"/>
    <tag k="bridge" v="yes"/>
    <tag k="highway" v="tertiary"/>
    <tag k="name" v="Rose and Crown Road"/>
    <tag k="source:name" v="OS_opendata_streetview"/>
  </way>
  <way id="226514838" version="3" timestamp="2019-04-06T14:25:34Z" changeset="68953335" uid="322039" user="MacLondon">
    <nd ref="1583395402"/>
    <nd ref="29676388"/>
    <tag k="highway" v="unclassified"/>
    <tag k="name" v="High Street"/>
  </way>
  <way id="335858711" version="6" timestamp="2020-08-06T08:45:58Z" changeset="89025766" uid="64091" user="jong">
    <nd ref="3429731481"/>
    <nd ref="3429731482"/>
    <nd ref="3429731483"/>
    <nd ref="3429731484"/>
    <nd ref="3429731481"/>
    <tag k="addr:city" v="Cambridge"/>
    <tag k="addr:housename" v="Capability Barns"/>
    <tag k="addr:postcode" v="CB24 4SD"/>
    <tag k="addr:street" v="Huntingdon Road"/>
    <tag k="addr:village" v="Fen Drayton"/>
    <tag k="amenity" v="restaurant"/>
    <tag k="building" v="yes"/>
    <tag k="fhrs:id" v="1015351"/>
    <tag k="internet_access" v="yes"/>
    <tag k="name" v="Carriages Tea Rooms"/>
    <tag k="website" v="https://www.carriagestearooms.co.uk"/>
  </way>
  <way id="450416444" version="2" timestamp="2018-04-28T12:26:32Z" changeset="58502764" uid="5173844" user="ndrw6">
    <nd ref="4473404023"/>
    <nd ref="5584301351"/>
    <nd ref="5584301352"/>
    <nd ref="29676432"/>
    <tag k="highway" v="residential"/>
    <tag k="name" v="St Mary's Court"/>
    <tag k="source" v="Bing; OS_OpenData_StreetView"/>
    <tag k="source:name" v="OS_OpenData_Locator"/>
  </way>
  <way id="547149472" version="2" timestamp="2019-01-07T13:07:34Z" changeset="66096036" uid="669183" user="Andy_W">
    <nd ref="5286759646"/>
    <nd ref="5286759647"/>
    <nd ref="5286759648"/>
    <nd ref="5286759649"/>
    <nd ref="5286759650"/>
    <nd ref="5286759651"/>
    <nd ref="5286759652"/>
    <nd ref="5286759653"/>
    <nd ref="5286759654"/>
    <nd ref="5286759655"/>
    <nd ref="5286759646"/>
    <tag k="addr:postcode" v="CB24 4SL"/>
    <tag k="addr:street" v="Cootes Lane"/>
    <tag k="building" v="yes"/>
    <tag k="fhrs:id" v="1024879"/>
    <tag k="name" v="Fen Drayton Primary School"/>
  </way>
  <way id="547149473" version="5" timestamp="2025-02-16T23:17:45Z" changeset="162590572" uid="493595" user="Yorvik Prestigitator">
    <nd ref="5286759656"/>
    <nd ref="5286759657"/>
    <nd ref="5286759658"/>
    <nd ref="6375592266"/>
    <nd ref="12594112980"/>
    <nd ref="5286759659"/>
    <nd ref="5286759656"/>
    <tag k="addr:street" v="Cootes Lane"/>
    <tag k="amenity" v="community_centre"/>
    <tag k="building" v="public"/>
    <tag k="community_centre" v="village_hall"/>
    <tag k="email" v="fendraytonvillagehallweb@gmail.com"/>
    <tag k="name" v="Fen Drayton Village Hall"/>
    <tag k="website" v="https://www.fendraytonvillagehall.org.uk/"/>
  </way>
  <way id="547149497" version="2" timestamp="2022-09-26T13:35:08Z" changeset="126657129" uid="6476359" user="NSiecw">
    <nd ref="5286759753"/>
    <nd ref="5286759754"/>
    <nd ref="5286759755"/>
    <nd ref="5286759756"/>
    <nd ref="5286759753"/>
    <tag k="addr:city" v="Cambridge"/>
    <tag k="addr:housename" v="Rowan Trees"/>
    <tag k="addr:housenumber" v="44a"/>
    <tag k="addr:postcode" v="CB24 4SU"/>
    <tag k="addr:street" v="Middleton Way"/>
    <tag k="addr:village" v="Fen Drayton"/>
    <tag k="building" v="house"/>
    <tag k="source" v="maxar"/>
  </way>
  <way id="584169064" version="2" timestamp="2022-09-25T02:13:54Z" changeset="126600934" uid="6476359" user="NSiecw">
    <nd ref="5584300869"/>
    <nd ref="5584300870"/>
    <nd ref="5584300871"/>
    <nd ref="5584300872"/>
    <nd ref="5584300873"/>
    <nd ref="5584300875"/>
    <nd ref="5584300877"/>
    <nd ref="5584300878"/>
    <nd ref="5584300869"/>
    <tag k="addr:city" v="Cambridge"/>
    <tag k="addr:housenumber" v="27"/>
    <tag k="addr:postcode" v="CB24 4SL"/>
    <tag k="addr:street" v="Cootes Lane"/>
    <tag k="addr:village" v="Fen Drayton"/>
    <tag k="building" v="house"/>
  </way>
  <way id="584169076" version="2" timestamp="2022-09-25T02:13:54Z" changeset="126600934" uid="6476359" user="NSiecw">
    <nd ref="5584300899"/>
    <nd ref="5584300900"/>
    <nd ref="5584300901"/>
    <nd ref="5584300902"/>
    <nd ref="5584300903"/>
    <nd ref="5584300904"/>
    <nd ref="5584300905"/>
    <nd ref="5584300906"/>
    <nd ref="5584300899"/>
    <tag k="addr:city" v="Cambridge"/>
    <tag k="addr:housenumber" v="28"/>
    <tag k="addr:postcode" v="CB24 4SL"/>
    <tag k="addr:street" v="Cootes Lane"/>
    <tag k="addr:village" v="Fen Drayton"/>
    <tag k="building" v="house"/>
  </way>
  <way id="584169078" version="2" timestamp="2022-09-25T02:13:54Z" changeset="126600934" uid="6476359" user="NSiecw">
    <nd ref="5584300907"/>
    <nd ref="5584300908"/>
    <nd ref="5584300909"/>
    <nd ref="5584300910"/>
    <nd ref="5584300911"/>
    <nd ref="5584300912"/>
    <nd ref="5584300913"/>
    <nd ref="5584300914"/>
    <nd ref="5584300915"/>
    <nd ref="5584300916"/>
    <nd ref="5584300907"/>
    <tag k="addr:city" v="Cambridge"/>
    <tag k="addr:housenumber" v="29"/>
    <tag k="addr:postcode" v="CB24 4SL"/>
    <tag k="addr:street" v="Cootes Lane"/>
    <tag k="addr:village" v="Fen Drayton"/>
    <tag k="building" v="house"/>
  </way>
  <way id="584169092" version="2" timestamp="2022-09-25T02:13:54Z" changeset="126600934" uid="6476359" user="NSiecw">
    <nd ref="5584300954"/>
    <nd ref="5584300955"/>
    <nd ref="5584300956"/>
    <nd ref="5584300957"/>
    <nd ref="5584300954"/>
    <tag k="addr:city" v="Cambridge"/>
    <tag k="addr:housenumber" v="30"/>
    <tag k="addr:postcode" v="CB24 4SL"/>
    <tag k="addr:street" v="Cootes Lane"/>
    <tag k="addr:village" v="Fen Drayton"/>
    <tag k="building" v="house"/>
  </way>
  <way id="584169094" version="2" timestamp="2022-09-25T02:13:54Z" changeset="126600934" uid="6476359" user="NSiecw">
    <nd ref="5584300958"/>
    <nd ref="5584300959"/>
    <nd ref="5584300960"/>
    <nd ref="5584300961"/>
    <nd ref="5584300962"/>
    <nd ref="5584300963"/>
    <nd ref="5584300958"/>
    <tag k="addr:city" v="Cambridge"/>
    <tag k="addr:housenumber" v="31"/>
    <tag k="addr:postcode" v="CB24 4SL"/>
    <tag k="addr:street" v="Cootes Lane"/>
    <tag k="addr:village" v="Fen Drayton"/>
    <tag k="building" v="house"/>
  </way>
  <way id="584169132" version="2" timestamp="2022-09-26T13:35:08Z" changeset="126657129" uid="6476359" user="NSiecw">
    <nd ref="5584301059"/>
    <nd ref="5584301060"/>
    <nd ref="5584301062"/>
    <nd ref="5584301064"/>
    <nd ref="5584301059"/>
    <tag k="addr:city" v="Cambridge"/>
    <tag k="addr:housenumber" v="48"/>
    <tag k="addr:postcode" v="CB24 4SU"/>
    <tag k="addr:street" v="Middleton Way"/>
    <tag k="addr:village" v="Fen Drayton"/>
    <tag k="building" v="house"/>
    <tag k="source" v="maxar"/>
  </way>
  <way id="584169178" version="2" timestamp="2022-09-25T02:13:54Z" changeset="126600934" uid="6476359" user="NSiecw">
    <nd ref="5584301290"/>
    <nd ref="5584301291"/>
    <nd ref="5584301702"/>
    <nd ref="10050141083"/>
    <nd ref="5584301703"/>
    <nd ref="5584301704"/>
    <nd ref="5584301705"/>
    <nd ref="10050141085"/>
    <nd ref="10050141084"/>
    <nd ref="5584301293"/>
    <nd ref="5584301290"/>
    <tag k="addr:city" v="Cambridge"/>
    <tag k="addr:housenumber" v="32"/>
    <tag k="addr:postcode" v="CB24 4SL"/>
    <tag k="addr:street" v="Cootes Lane"/>
    <tag k="addr:village" v="Fen Drayton"/>
    <tag k="building" v="yes"/>
  </way>
  <way id="584169185" version="2" timestamp="2022-09-25T02:13:54Z" changeset="126600934" uid="6476359" user="NSiecw">
    <nd ref="5584301324"/>
    <nd ref="5584301325"/>
    <nd ref="5584301326"/>
    <nd ref="5584301327"/>
    <nd ref="5584301324"/>
    <tag k="addr:city" v="Cambridge"/>
    <tag k="addr:housenumber" v="33"/>
    <tag k="addr:postcode" v="CB24 4SL"/>
    <tag k="addr:street" v="Cootes Lane"/>
    <tag k="addr:village" v="Fen Drayton"/>
    <tag k="building" v="house"/>
  </way>
  <way id="584169186" version="3" timestamp="2022-09-25T02:13:54Z" changeset="126600934" uid="6476359" user="NSiecw">
    <nd ref="5584301328"/>
    <nd ref="5584301329"/>
    <nd ref="5584301330"/>
    <nd ref="5584301331"/>
    <nd ref="5584301328"/>
    <tag k="addr:city" v="Cambridge"/>
    <tag k="addr:housenumber" v="34"/>
    <tag k="addr:postcode" v="CB24 4SL"/>
    <tag k="addr:street" v="Cootes Lane"/>
    <tag k="addr:village" v="Fen Drayton"/>
    <tag k="building" v="house"/>
  </way>
  <way id="584169190" version="3" timestamp="2023-10-13T10:13:36Z" changeset="142516002" uid="5173844" user="ndrw6">
    <nd ref="5584301336"/>
    <nd ref="5584301337"/>
    <nd ref="5584301340"/>
    <nd ref="11259639664"/>
    <nd ref="11259639665"/>
    <nd ref="5584301341"/>
    <nd ref="5584301336"/>
    <tag k="addr:city" v="Cambridge"/>
    <tag k="addr:housenumber" v="56"/>
    <tag k="addr:postcode" v="CB24 4SL"/>
    <tag k="addr:street" v="Cootes Lane"/>
    <tag k="addr:village" v="Fen Drayton"/>
    <tag k="building" v="house"/>
  </way>
  <way id="584169192" version="2" timestamp="2022-09-25T02:13:54Z" changeset="126600934" uid="6476359" user="NSiecw">
    <nd ref="5584301342"/>
    <nd ref="5584301343"/>
    <nd ref="5584301344"/>
    <nd ref="5584301345"/>
    <nd ref="5584301346"/>
    <nd ref="5584301347"/>
    <nd ref="5584301348"/>
    <nd ref="5584301349"/>
    <nd ref="5584301342"/>
    <tag k="addr:city" v="Cambridge"/>
    <tag k="addr:housenumber" v="55"/>
    <tag k="addr:postcode" v="CB24 4SL"/>
    <tag k="addr:street" v="Cootes Lane"/>
    <tag k="addr:village" v="Fen Drayton"/>
    <tag k="building" v="house"/>
  </way>
  <way id="584402203" version="2" timestamp="2022-09-25T02:13:54Z" changeset="126600934" uid="6476359" user="NSiecw">
    <nd ref="5586300201"/>
    <nd ref="10050141059"/>
    <nd ref="10050141058"/>
    <nd ref="5586300200"/>
    <nd ref="5586300201"/>
    <tag k="addr:city" v="Cambridge"/>
    <tag k="addr:housenumber" v="30"/>
    <tag k="addr:postcode" v="CB24 4SP"/>
    <tag k="addr:street" v="The Plantation"/>
    <tag k="addr:village" v="Fen Drayton"/>
    <tag k="building" v="house"/>
  </way>
  <way id="584402204" version="2" timestamp="2022-09-25T02:13:54Z" changeset="126600934" uid="6476359" user="NSiecw">
    <nd ref="5586300205"/>
    <nd ref="10050141061"/>
    <nd ref="10050141060"/>
    <nd ref="5586300204"/>
    <nd ref="5586300205"/>
    <tag k="addr:city" v="Cambridge"/>
    <tag k="addr:housenumber" v="26"/>
    <tag k="addr:postcode" v="CB24 4SP"/>
    <tag k="addr:street" v="The Plantation"/>
    <tag k="addr:village" v="Fen Drayton"/>
    <tag k="building" v="house"/>
  </way>
  <way id="584402205" version="3" timestamp="2022-09-25T02:13:54Z" changeset="126600934" uid="6476359" user="NSiecw">
    <nd ref="5586300206"/>
    <nd ref="10050141063"/>
    <nd ref="10050141062"/>
    <nd ref="5586300209"/>
    <nd ref="5586300206"/>
    <tag k="addr:city" v="Cambridge"/>
    <tag k="addr:housenumber" v="24"/>
    <tag k="addr:postcode" v="CB24 4SP"/>
    <tag k="addr:street" v="The Plantation"/>
    <tag k="addr:village" v="Fen Drayton"/>
    <tag k="building" v="residential"/>
  </way>
  <way id="584402206" version="2" timestamp="2022-09-25T02:13:54Z" changeset="126600934" uid="6476359" user="NSiecw">
    <nd ref="5586300213"/>
    <nd ref="10050141071"/>
    <nd ref="10050141070"/>
    <nd ref="5586300212"/>
    <nd ref="5586300213"/>
    <tag k="addr:city" v="Cambridge"/>
    <tag k="addr:housenumber" v="14"/>
    <tag k="addr:postcode" v="CB24 4SP"/>
    <tag k="addr:street" v="The Plantation"/>
    <tag k="addr:village" v="Fen Drayton"/>
    <tag k="building" v="residential"/>
  </way>
  <way id="584402207" version="2" timestamp="2022-09-25T02:13:54Z" changeset="126600934" uid="6476359" user="NSiecw">
    <nd ref="5586300217"/>
    <nd ref="10050141065"/>
    <nd ref="10050141064"/>
    <nd ref="5586300216"/>
    <nd ref="5586300217"/>
    <tag k="addr:city" v="Cambridge"/>
    <tag k="addr:housenumber" v="10"/>
    <tag k="addr:postcode" v="CB24 4SP"/>
    <tag k="addr:street" v="The Plantation"/>
    <tag k="addr:village" v="Fen Drayton"/>
    <tag k="building" v="residential"/>
  </way>
  <way id="584402208" version="2" timestamp="2022-09-25T02:13:54Z" changeset="126600934" uid="6476359" user="NSiecw">
    <nd ref="5586300218"/>
    <nd ref="5586300219"/>
    <nd ref="5586300220"/>
    <nd ref="5586302721"/>
    <nd ref="5586300218"/>
    <tag k="addr:city" v="Cambridge"/>
    <tag k="addr:housenumber" v="35"/>
    <tag k="addr:postcode" v="CB24 4SL"/>
    <tag k="addr:street" v="Cootes Lane"/>
    <tag k="addr:village" v="Fen Drayton"/>
    <tag k="building" v="house"/>
  </way>
  <way id="584402215" version="2" timestamp="2022-09-25T21:52:51Z" changeset="126630659" uid="6476359" user="NSiecw">
    <nd ref="5586302759"/>
    <nd ref="5586302760"/>
    <nd ref="5586302761"/>
    <nd ref="5586302762"/>
    <nd ref="5586302763"/>
    <nd ref="5586302764"/>
    <nd ref="5586302759"/>
    <tag k="addr:city" v="Cambridge"/>
    <tag k="addr:housenumber" v="16"/>
    <tag k="addr:postcode" v="CB24 4TA"/>
    <tag k="addr:street" v="Vermuyden Way"/>
    <tag k="addr:village" v="Fen Drayton"/>
    <tag k="building" v="house"/>
  </way>
  <way id="584402216" version="2" timestamp="2022-09-25T21:52:51Z" changeset="126630659" uid="6476359" user="NSiecw">
    <nd ref="5586302765"/>
    <nd ref="5586302766"/>
    <nd ref="5586302767"/>
    <nd ref="5586302768"/>
    <nd ref="5586302769"/>
    <nd ref="5586302770"/>
    <nd ref="5586302765"/>
    <tag k="addr:city" v="Cambridge"/>
    <tag k="addr:housenumber" v="18"/>
    <tag k="addr:postcode" v="CB24 4TA"/>
    <tag k="addr:street" v="Vermuyden Way"/>
    <tag k="addr:village" v="Fen Drayton"/>
    <tag k="building" v="house"/>
  </way>
  <way id="584402217" version="2" timestamp="2022-09-25T21:52:51Z" changeset="126630659" uid="6476359" user="NSiecw">
    <nd ref="5586302771"/>
    <nd ref="5586302772"/>
    <nd ref="5586302773"/>
    <nd ref="5586302774"/>
    <nd ref="5586302775"/>
    <nd ref="5586302776"/>
    <nd ref="5586302771"/>
    <tag k="addr:city" v="Cambridge"/>
    <tag k="addr:housenumber" v="20"/>
    <tag k="addr:postcode" v="CB24 4TA"/>
    <tag k="addr:street" v="Vermuyden Way"/>
    <tag k="addr:village" v="Fen Drayton"/>
    <tag k="building" v="house"/>
  </way>
  <way id="584402219" version="2" timestamp="2022-09-25T21:52:51Z" changeset="126630659" uid="6476359" user="NSiecw">
    <nd ref="5586302781"/>
    <nd ref="5586302782"/>
    <nd ref="5586302783"/>
    <nd ref="5586302784"/>
    <nd ref="5586302781"/>
    <tag k="addr:city" v="Cambridge"/>
    <tag k="addr:housenumber" v="22"/>
    <tag k="addr:postcode" v="CB24 4TA"/>
    <tag k="addr:street" v="Vermuyden Way"/>
    <tag k="addr:village" v="Fen Drayton"/>
    <tag k="building" v="house"/>
  </way>
  <way id="584402221" version="2" timestamp="2022-09-25T21:52:51Z" changeset="126630659" uid="6476359" user="NSiecw">
    <nd ref="5586302789"/>
    <nd ref="5586302790"/>
    <nd ref="5586302791"/>
    <nd ref="5586302792"/>
    <nd ref="5586302789"/>
    <tag k="addr:city" v="Cambridge"/>
    <tag k="addr:housenumber" v="24"/>
    <tag k="addr:postcode" v="CB24 4TA"/>
    <tag k="addr:street" v="Vermuyden Way"/>
    <tag k="addr:village" v="Fen Drayton"/>
    <tag k="building" v="house"/>
  </way>
  <way id="584402228" version="2" timestamp="2022-09-25T21:52:51Z" changeset="126630659" uid="6476359" user="NSiecw">
    <nd ref="5586303030"/>
    <nd ref="5586303031"/>
    <nd ref="5586303032"/>
    <nd ref="5586303033"/>
    <nd ref="5586303030"/>
    <tag k="addr:city" v="Cambridge"/>
    <tag k="addr:housenumber" v="50"/>
    <tag k="addr:postcode" v="CB24 4TA"/>
    <tag k="addr:street" v="Vermuyden Way"/>
    <tag k="addr:village" v="Fen Drayton"/>
    <tag k="building" v="house"/>
  </way>
  <way id="584402229" version="2" timestamp="2022-09-25T21:52:51Z" changeset="126630659" uid="6476359" user="NSiecw">
    <nd ref="5586303034"/>
    <nd ref="5586303035"/>
    <nd ref="5586303036"/>
    <nd ref="5586303037"/>
    <nd ref="5586303034"/>
    <tag k="addr:city" v="Cambridge"/>
    <tag k="addr:housenumber" v="52"/>
    <tag k="addr:postcode" v="CB24 4TA"/>
    <tag k="addr:street" v="Vermuyden Way"/>
    <tag k="addr:village" v="Fen Drayton"/>
    <tag k="building" v="house"/>
  </way>
  <way id="584402230" version="2" timestamp="2022-09-25T21:52:51Z" changeset="126630659" uid="6476359" user="NSiecw">
    <nd ref="5586303038"/>
    <nd ref="5586303039"/>
    <nd ref="5586303040"/>
    <nd ref="5586303041"/>
    <nd ref="5586303038"/>
    <tag k="addr:city" v="Cambridge"/>
    <tag k="addr:housenumber" v="53"/>
    <tag k="addr:postcode" v="CB24 4TA"/>
    <tag k="addr:street" v="Vermuyden Way"/>
    <tag k="addr:village" v="Fen Drayton"/>
    <tag k="building" v="house"/>
  </way>
  <way id="584402231" version="2" timestamp="2022-09-25T21:52:51Z" changeset="126630659" uid="6476359" user="NSiecw">
    <nd ref="5586303042"/>
    <nd ref="5586303043"/>
    <nd ref="5586303044"/>
    <nd ref="5586303045"/>
    <nd ref="5586303042"/>
    <tag k="addr:city" v="Cambridge"/>
    <tag k="addr:housenumber" v="51"/>
    <tag k="addr:postcode" v="CB24 4TA"/>
    <tag k="addr:street" v="Vermuyden Way"/>
    <tag k="addr:village" v="Fen Drayton"/>
    <tag k="building" v="house"/>
  </way>
  <way id="584402358" version="2" timestamp="2022-03-18T19:30:42Z" changeset="118645473" uid="10633286" user="Moorit">
    <nd ref="5586304548"/>
    <nd ref="5586304549"/>
    <nd ref="5586304550"/>
    <nd ref="5586304551"/>
    <nd ref="5586304552"/>
    <nd ref="5586304553"/>
    <nd ref="5586304554"/>
    <nd ref="5586304555"/>
    <nd ref="5586304548"/>
    <tag k="addr:street" v="The Rosary"/>
    <tag k="building" v="house"/>
    <tag k="name" v="Hallbrook"/>
  </way>
  <way id="584402359" version="4" timestamp="2023-06-04T19:29:19Z" changeset="136945672" uid="486701" user="eteb3">
    <nd ref="5586304556"/>
    <nd ref="5586304557"/>
    <nd ref="5586304558"/>
    <nd ref="5586304559"/>
    <nd ref="5586304560"/>
    <nd ref="5586304561"/>
    <nd ref="5586304556"/>
    <tag k="addr:city" v="Cambridge"/>
    <tag k="addr:postcode" v="CB24 4SJ"/>
    <tag k="addr:street" v="High Street"/>
    <tag k="building" v="house"/>
    <tag k="building:levels" v="1"/>
    <tag k="name" v="Elm Cottage"/>
  </way>
  <way id="584402363" version="3" timestamp="2023-10-02T18:36:48Z" changeset="142052272" uid="10633286" user="Moorit">
    <nd ref="5586304574"/>
    <nd ref="5586304575"/>
    <nd ref="5586304576"/>
    <nd ref="5586304577"/>
    <nd ref="5586304578"/>
    <nd ref="5586304579"/>
    <nd ref="5586304574"/>
    <tag k="addr:housenumber" v="17"/>
    <tag k="addr:postcode" v="CB24 4SQ"/>
    <tag k="addr:street" v="The Rosary"/>
    <tag k="building" v="residential"/>
  </way>
  <way id="584402365" version="2" timestamp="2023-10-02T18:36:48Z" changeset="142052272" uid="10633286" user="Moorit">
    <nd ref="5586304580"/>
    <nd ref="5586304581"/>
    <nd ref="5586304582"/>
    <nd ref="5586304583"/>
    <nd ref="5586304580"/>
    <tag k="addr:housenumber" v="1,3,5"/>
    <tag k="addr:postcode" v="CB24 4SQ"/>
    <tag k="addr:street" v="The Rosary"/>
    <tag k="building" v="residential"/>
  </way>
  <way id="584402370" version="2" timestamp="2023-05-11T07:30:14Z" changeset="135963782" uid="18639993" user="HGV101">
    <nd ref="5586304595"/>
    <nd ref="5586304596"/>
    <nd ref="5586304597"/>
    <nd ref="5586304598"/>
    <nd ref="5586304595"/>
    <tag k="addr:housenumber" v="1b"/>
    <tag k="addr:postcode" v="CB24 4SJ"/>
    <tag k="addr:street" v="High Street"/>
    <tag k="building" v="yes"/>
    <tag k="building:levels" v="2"/>
  </way>
  <way id="584402374" version="2" timestamp="2023-10-02T18:36:48Z" changeset="142052272" uid="10633286" user="Moorit">
    <nd ref="5586304607"/>
    <nd ref="5586304608"/>
    <nd ref="5586304609"/>
    <nd ref="5586304610"/>
    <nd ref="5586304611"/>
    <nd ref="5586304612"/>
    <nd ref="5586304613"/>
    <nd ref="5586304614"/>
    <nd ref="5586304607"/>
    <tag k="addr:housenumber" v="12"/>
    <tag k="addr:street" v="The Rosary"/>
    <tag k="building" v="house"/>
  </way>
  <way id="584402380" version="2" timestamp="2022-09-25T21:52:51Z" changeset="126630659" uid="6476359" user="NSiecw">
    <nd ref="5586304729"/>
    <nd ref="5586304730"/>
    <nd ref="5586304731"/>
    <nd ref="5586304732"/>
    <nd ref="5586304729"/>
    <tag k="addr:city" v="Cambridge"/>
    <tag k="addr:housenumber" v="3"/>
    <tag k="addr:postcode" v="CB24 4TA"/>
    <tag k="addr:street" v="Vermuyden Way"/>
    <tag k="addr:village" v="Fen Drayton"/>
    <tag k="building" v="house"/>
  </way>
  <way id="584402382" version="2" timestamp="2022-09-25T21:52:51Z" changeset="126630659" uid="6476359" user="NSiecw">
    <nd ref="5586304733"/>
    <nd ref="5586304734"/>
    <nd ref="5586304735"/>
    <nd ref="5586304736"/>
    <nd ref="5586304733"/>
    <tag k="addr:city" v="Cambridge"/>
    <tag k="addr:housenumber" v="1"/>
    <tag k="addr:postcode" v="CB24 4TA"/>
    <tag k="addr:street" v="Vermuyden Way"/>
    <tag k="addr:village" v="Fen Drayton"/>
    <tag k="building" v="house"/>
  </way>
  <way id="584402383" version="2" timestamp="2022-09-25T02:13:54Z" changeset="126600934" uid="6476359" user="NSiecw">
    <nd ref="5586304737"/>
    <nd ref="5586304738"/>
    <nd ref="5586304739"/>
    <nd ref="5586304740"/>
    <nd ref="5586304741"/>
    <nd ref="5586304742"/>
    <nd ref="5586304737"/>
    <tag k="addr:city" v="Cambridge"/>
    <tag k="addr:housename" v="Kingsfold"/>
    <tag k="addr:housenumber" v="38"/>
    <tag k="addr:postcode" v="CB24 4SL"/>
    <tag k="addr:street" v="Cootes Lane"/>
    <tag k="addr:village" v="Fen Drayton"/>
    <tag k="building" v="house"/>
  </way>
  <way id="584402384" version="2" timestamp="2022-09-25T02:13:54Z" changeset="126600934" uid="6476359" user="NSiecw">
    <nd ref="5586304743"/>
    <nd ref="5586304744"/>
    <nd ref="5586304745"/>
    <nd ref="5586304746"/>
    <nd ref="5586304747"/>
    <nd ref="5586304748"/>
    <nd ref="5586304743"/>
    <tag k="addr:city" v="Cambridge"/>
    <tag k="addr:housenumber" v="36"/>
    <tag k="addr:postcode" v="CB24 4SL"/>
    <tag k="addr:street" v="Cootes Lane"/>
    <tag k="addr:village" v="Fen Drayton"/>
    <tag k="building" v="house"/>
  </way>
  <way id="584402388" version="2" timestamp="2022-09-25T02:13:54Z" changeset="126600934" uid="6476359" user="NSiecw">
    <nd ref="5586304757"/>
    <nd ref="5586304758"/>
    <nd ref="5586304759"/>
    <nd ref="5586304760"/>
    <nd ref="5586304761"/>
    <nd ref="5586304762"/>
    <nd ref="5586304757"/>
    <tag k="addr:city" v="Cambridge"/>
    <tag k="addr:housenumber" v="37"/>
    <tag k="addr:postcode" v="CB24 4SL"/>
    <tag k="addr:street" v="Cootes Lane"/>
    <tag k="addr:village" v="Fen Drayton"/>
    <tag k="building" v="house"/>
  </way>
  <way id="584402391" version="2" timestamp="2022-09-25T21:52:51Z" changeset="126630659" uid="6476359" user="NSiecw">
    <nd ref="5586304775"/>
    <nd ref="5586304776"/>
    <nd ref="5586304777"/>
    <nd ref="5586304778"/>
    <nd ref="5586304775"/>
    <tag k="addr:city" v="Cambridge"/>
    <tag k="addr:housenumber" v="9"/>
    <tag k="addr:postcode" v="CB24 4TA"/>
    <tag k="addr:street" v="Vermuyden Way"/>
    <tag k="addr:village" v="Fen Drayton"/>
    <tag k="building" v="house"/>
  </way>
  <way id="584402393" version="2" timestamp="2022-09-25T21:52:51Z" changeset="126630659" uid="6476359" user="NSiecw">
    <nd ref="5586304779"/>
    <nd ref="5586304780"/>
    <nd ref="5586304781"/>
    <nd ref="5586304782"/>
    <nd ref="5586304779"/>
    <tag k="addr:city" v="Cambridge"/>
    <tag k="addr:housenumber" v="11"/>
    <tag k="addr:postcode" v="CB24 4TA"/>
    <tag k="addr:street" v="Vermuyden Way"/>
    <tag k="addr:village" v="Fen Drayton"/>
    <tag k="building" v="house"/>
  </way>
  <way id="584402394" version="2" timestamp="2022-09-25T02:13:54Z" changeset="126600934" uid="6476359" user="NSiecw">
    <nd ref="5586304783"/>
    <nd ref="5586304784"/>
    <nd ref="5586304785"/>
    <nd ref="5586304786"/>
    <nd ref="5586304783"/>
    <tag k="addr:city" v="Cambridge"/>
    <tag k="addr:housename" v="The Willows"/>
    <tag k="addr:housenumber" v="39"/>
    <tag k="addr:postcode" v="CB24 4SL"/>
    <tag k="addr:street" v="Cootes Lane"/>
    <tag k="addr:village" v="Fen Drayton"/>
    <tag k="building" v="house"/>
  </way>
  <way id="584402398" version="2" timestamp="2022-09-25T21:52:51Z" changeset="126630659" uid="6476359" user="NSiecw">
    <nd ref="5586304799"/>
    <nd ref="5586304800"/>
    <nd ref="5586304801"/>
    <nd ref="5586304802"/>
    <nd ref="5586304803"/>
    <nd ref="5586304804"/>
    <nd ref="5586304799"/>
    <tag k="addr:city" v="Cambridge"/>
    <tag k="addr:housenumber" v="13"/>
    <tag k="addr:postcode" v="CB24 4TA"/>
    <tag k="addr:street" v="Vermuyden Way"/>
    <tag k="addr:village" v="Fen Drayton"/>
    <tag k="building" v="house"/>
  </way>
  <way id="584402399" version="2" timestamp="2022-09-25T21:52:51Z" changeset="126630659" uid="6476359" user="NSiecw">
    <nd ref="5586304805"/>
    <nd ref="5586304806"/>
    <nd ref="5586304807"/>
    <nd ref="5586304808"/>
    <nd ref="5586304809"/>
    <nd ref="5586304810"/>
    <nd ref="5586304805"/>
    <tag k="addr:city" v="Cambridge"/>
    <tag k="addr:housenumber" v="15"/>
    <tag k="addr:postcode" v="CB24 4TA"/>
    <tag k="addr:street" v="Vermuyden Way"/>
    <tag k="addr:village" v="Fen Drayton"/>
    <tag k="building" v="house"/>
  </way>
  <way id="584402400" version="2" timestamp="2022-09-25T21:52:51Z" changeset="126630659" uid="6476359" user="NSiecw">
    <nd ref="5586304811"/>
    <nd ref="5586304812"/>
    <nd ref="5586304813"/>
    <nd ref="5586304814"/>
    <nd ref="5586304811"/>
    <tag k="addr:city" v="Cambridge"/>
    <tag k="addr:housenumber" v="17"/>
    <tag k="addr:postcode" v="CB24 4TA"/>
    <tag k="addr:street" v="Vermuyden Way"/>
    <tag k="addr:village" v="Fen Drayton"/>
    <tag k="building" v="house"/>
  </way>
  <way id="584402402" version="2" timestamp="2022-09-25T21:52:51Z" changeset="126630659" uid="6476359" user="NSiecw">
    <nd ref="5586304815"/>
    <nd ref="5586304816"/>
    <nd ref="5586304817"/>
    <nd ref="5586304818"/>
    <nd ref="5586304815"/>
    <tag k="addr:city" v="Cambridge"/>
    <tag k="addr:housenumber" v="19"/>
    <tag k="addr:postcode" v="CB24 4TA"/>
    <tag k="addr:street" v="Vermuyden Way"/>
    <tag k="addr:village" v="Fen Drayton"/>
    <tag k="building" v="house"/>
  </way>
  <way id="584402406" version="2" timestamp="2022-09-25T21:52:51Z" changeset="126630659" uid="6476359" user="NSiecw">
    <nd ref="5586304929"/>
    <nd ref="10052426742"/>
    <nd ref="10052426741"/>
    <nd ref="5586304932"/>
    <nd ref="5586304929"/>
    <tag k="addr:city" v="Cambridge"/>
    <tag k="addr:housenumber" v="19a"/>
    <tag k="addr:postcode" v="CB24 4TA"/>
    <tag k="addr:street" v="Vermuyden Way"/>
    <tag k="addr:village" v="Fen Drayton"/>
    <tag k="building" v="residential"/>
  </way>
  <way id="584402407" version="2" timestamp="2022-09-25T21:52:51Z" changeset="126630659" uid="6476359" user="NSiecw">
    <nd ref="5586304933"/>
    <nd ref="10052426737"/>
    <nd ref="10052426736"/>
    <nd ref="5586304936"/>
    <nd ref="5586304933"/>
    <tag k="addr:city" v="Cambridge"/>
    <tag k="addr:housenumber" v="23"/>
    <tag k="addr:postcode" v="CB24 4TA"/>
    <tag k="addr:street" v="Vermuyden Way"/>
    <tag k="addr:village" v="Fen Drayton"/>
    <tag k="building" v="residential"/>
  </way>
  <way id="584418257" version="4" timestamp="2023-05-08T05:29:02Z" changeset="135834882" uid="322785" user="BCNorwich">
    <nd ref="5586420813"/>
    <nd ref="10877113555"/>
    <nd ref="10877113552"/>
    <nd ref="10877113551"/>
    <nd ref="10877113558"/>
    <nd ref="5586420816"/>
    <nd ref="5586420813"/>
    <tag k="addr:city" v="Cambridge"/>
    <tag k="addr:country" v="GB"/>
    <tag k="addr:housenumber" v="1"/>
    <tag k="addr:postcode" v="CB24 4SJ"/>
    <tag k="addr:street" v="High Street"/>
    <tag k="addr:village" v="Fen Drayton"/>
    <tag k="building" v="house"/>
  </way>
  <way id="584418258" version="2" timestamp="2023-05-08T05:29:02Z" changeset="135834882" uid="322785" user="BCNorwich">
    <nd ref="5586420817"/>
    <nd ref="10877113557"/>
    <nd ref="10877113556"/>
    <nd ref="5586420820"/>
    <nd ref="5586420817"/>
    <tag k="addr:city" v="Cambridge"/>
    <tag k="addr:country" v="GB"/>
    <tag k="addr:housenumber" v="3"/>
    <tag k="addr:postcode" v="CB24 4SJ"/>
    <tag k="addr:street" v="High Street"/>
    <tag k="addr:village" v="Fen Drayton"/>
    <tag k="building" v="house"/>
  </way>
  <way id="584418263" version="2" timestamp="2022-09-25T02:13:54Z" changeset="126600934" uid="6476359" user="NSiecw">
    <nd ref="5586423050"/>
    <nd ref="10050141051"/>
    <nd ref="10050141050"/>
    <nd ref="5586423049"/>
    <nd ref="5586423050"/>
    <tag k="addr:city" v="Cambridge"/>
    <tag k="addr:housenumber" v="6"/>
    <tag k="addr:postcode" v="CB24 4SL"/>
    <tag k="addr:street" v="Cootes Lane"/>
    <tag k="addr:village" v="Fen Drayton"/>
    <tag k="building" v="house"/>
  </way>
  <way id="584418264" version="2" timestamp="2022-09-25T20:59:41Z" changeset="126629704" uid="6476359" user="NSiecw">
    <nd ref="5586423051"/>
    <nd ref="10052299274"/>
    <nd ref="10052299273"/>
    <nd ref="5586423054"/>
    <nd ref="5586423051"/>
    <tag k="addr:city" v="Cambridge"/>
    <tag k="addr:housenumber" v="1"/>
    <tag k="addr:postcode" v="CB24 4SN"/>
    <tag k="addr:street" v="The Orchard"/>
    <tag k="addr:village" v="Fen Drayton"/>
    <tag k="building" v="house"/>
  </way>
  <way id="584418265" version="2" timestamp="2022-09-25T20:59:41Z" changeset="126629704" uid="6476359" user="NSiecw">
    <nd ref="5586423055"/>
    <nd ref="10052299238"/>
    <nd ref="10052299237"/>
    <nd ref="5586423058"/>
    <nd ref="5586423055"/>
    <tag k="addr:city" v="Cambridge"/>
    <tag k="addr:housenumber" v="2"/>
    <tag k="addr:postcode" v="CB24 4SN"/>
    <tag k="addr:street" v="The Orchard"/>
    <tag k="addr:village" v="Fen Drayton"/>
    <tag k="building" v="house"/>
  </way>
  <way id="584418266" version="2" timestamp="2022-09-25T20:59:41Z" changeset="126629704" uid="6476359" user="NSiecw">
    <nd ref="5586423059"/>
    <nd ref="10052299240"/>
    <nd ref="10052299239"/>
    <nd ref="5586423062"/>
    <nd ref="5586423059"/>
    <tag k="addr:city" v="Cambridge"/>
    <tag k="addr:housenumber" v="6"/>
    <tag k="addr:postcode" v="CB24 4SN"/>
    <tag k="addr:street" v="The Orchard"/>
    <tag k="addr:village" v="Fen Drayton"/>
    <tag k="building" v="house"/>
  </way>
  <way id="584418267" version="3" timestamp="2022-09-25T20:59:41Z" changeset="126629704" uid="6476359" user="NSiecw">
    <nd ref="5586423063"/>
    <nd ref="10052299246"/>
    <nd ref="10052299245"/>
    <nd ref="5586423066"/>
    <nd ref="5586423063"/>
    <tag k="addr:city" v="Cambridge"/>
    <tag k="addr:housenumber" v="10"/>
    <tag k="addr:postcode" v="CB24 4SN"/>
    <tag k="addr:street" v="The Orchard"/>
    <tag k="addr:village" v="Fen Drayton"/>
    <tag k="building" v="house"/>
  </way>
  <way id="584418268" version="2" timestamp="2022-09-25T20:59:41Z" changeset="126629704" uid="6476359" user="NSiecw">
    <nd ref="5586423067"/>
    <nd ref="10052299272"/>
    <nd ref="10052299271"/>
    <nd ref="5586423070"/>
    <nd ref="5586423067"/>
    <tag k="addr:city" v="Cambridge"/>
    <tag k="addr:housenumber" v="5"/>
    <tag k="addr:postcode" v="CB24 4SN"/>
    <tag k="addr:street" v="The Orchard"/>
    <tag k="addr:village" v="Fen Drayton"/>
    <tag k="building" v="house"/>
  </way>
  <way id="584418271" version="2" timestamp="2022-09-25T20:59:41Z" changeset="126629704" uid="6476359" user="NSiecw">
    <nd ref="5586423087"/>
    <nd ref="10052299258"/>
    <nd ref="10052299257"/>
    <nd ref="5586423090"/>
    <nd ref="5586423087"/>
    <tag k="addr:city" v="Cambridge"/>
    <tag k="addr:housenumber" v="17"/>
    <tag k="addr:postcode" v="CB24 4SN"/>
    <tag k="addr:street" v="The Orchard"/>
    <tag k="addr:village" v="Fen Drayton"/>
    <tag k="building" v="house"/>
  </way>
  <way id="584418272" version="2" timestamp="2022-09-25T20:59:41Z" changeset="126629704" uid="6476359" user="NSiecw">
    <nd ref="5586423091"/>
    <nd ref="10052299248"/>
    <nd ref="10052299247"/>
    <nd ref="5586423094"/>
    <nd ref="5586423091"/>
    <tag k="addr:city" v="Cambridge"/>
    <tag k="addr:housenumber" v="18"/>
    <tag k="addr:postcode" v="CB24 4SN"/>
    <tag k="addr:street" v="The Orchard"/>
    <tag k="addr:village" v="Fen Drayton"/>
    <tag k="building" v="house"/>
  </way>
  <way id="584418273" version="2" timestamp="2022-09-25T20:59:41Z" changeset="126629704" uid="6476359" user="NSiecw">
    <nd ref="5586423095"/>
    <nd ref="10052299254"/>
    <nd ref="10052299253"/>
    <nd ref="5586423098"/>
    <nd ref="5586423095"/>
    <tag k="addr:city" v="Cambridge"/>
    <tag k="addr:housenumber" v="22"/>
    <tag k="addr:postcode" v="CB24 4SN"/>
    <tag k="addr:street" v="The Orchard"/>
    <tag k="addr:village" v="Fen Drayton"/>
    <tag k="building" v="house"/>
  </way>
  <way id="584418274" version="2" timestamp="2022-09-25T20:59:41Z" changeset="126629704" uid="6476359" user="NSiecw">
    <nd ref="5586423099"/>
    <nd ref="10052299256"/>
    <nd ref="10052299255"/>
    <nd ref="5586423102"/>
    <nd ref="5586423099"/>
    <tag k="addr:city" v="Cambridge"/>
    <tag k="addr:housenumber" v="21"/>
    <tag k="addr:postcode" v="CB24 4SN"/>
    <tag k="addr:street" v="The Orchard"/>
    <tag k="addr:village" v="Fen Drayton"/>
    <tag k="building" v="house"/>
  </way>
  <way id="584418279" version="2" timestamp="2022-09-25T20:59:41Z" changeset="126629704" uid="6476359" user="NSiecw">
    <nd ref="5586423119"/>
    <nd ref="5586423120"/>
    <nd ref="5586423221"/>
    <nd ref="5586423222"/>
    <nd ref="5586423223"/>
    <nd ref="5586423224"/>
    <nd ref="5586423225"/>
    <nd ref="5586423226"/>
    <nd ref="5586423119"/>
    <tag k="addr:city" v="Cambridge"/>
    <tag k="addr:housenumber" v="9"/>
    <tag k="addr:postcode" v="CB24 4TE"/>
    <tag k="addr:street" v="Daintrees Road"/>
    <tag k="addr:village" v="Fen Drayton"/>
    <tag k="building" v="house"/>
  </way>
  <way id="584418280" version="2" timestamp="2022-09-25T20:59:41Z" changeset="126629704" uid="6476359" user="NSiecw">
    <nd ref="5586423227"/>
    <nd ref="5586423228"/>
    <nd ref="5586423229"/>
    <nd ref="5586423230"/>
    <nd ref="5586423231"/>
    <nd ref="5586423232"/>
    <nd ref="5586423233"/>
    <nd ref="5586423234"/>
    <nd ref="5586423227"/>
    <tag k="addr:city" v="Cambridge"/>
    <tag k="addr:housenumber" v="11"/>
    <tag k="addr:postcode" v="CB24 4TE"/>
    <tag k="addr:street" v="Daintrees Road"/>
    <tag k="addr:village" v="Fen Drayton"/>
    <tag k="building" v="house"/>
  </way>
  <way id="584418281" version="2" timestamp="2022-09-25T20:59:41Z" changeset="126629704" uid="6476359" user="NSiecw">
    <nd ref="5586423235"/>
    <nd ref="5586423236"/>
    <nd ref="5586423237"/>
    <nd ref="5586423238"/>
    <nd ref="5586423239"/>
    <nd ref="5586423240"/>
    <nd ref="5586423241"/>
    <nd ref="5586423242"/>
    <nd ref="5586423235"/>
    <tag k="addr:city" v="Cambridge"/>
    <tag k="addr:housenumber" v="3"/>
    <tag k="addr:postcode" v="CB24 4TE"/>
    <tag k="addr:street" v="Daintrees Road"/>
    <tag k="addr:village" v="Fen Drayton"/>
    <tag k="building" v="house"/>
  </way>
  <way id="584418282" version="2" timestamp="2022-09-25T20:59:41Z" changeset="126629704" uid="6476359" user="NSiecw">
    <nd ref="5586423243"/>
    <nd ref="5586423244"/>
    <nd ref="5586423245"/>
    <nd ref="5586423246"/>
    <nd ref="5586423247"/>
    <nd ref="5586423248"/>
    <nd ref="5586423249"/>
    <nd ref="5586423250"/>
    <nd ref="5586423243"/>
    <tag k="addr:city" v="Cambridge"/>
    <tag k="addr:housenumber" v="7"/>
    <tag k="addr:postcode" v="CB24 4TE"/>
    <tag k="addr:street" v="Daintrees Road"/>
    <tag k="addr:village" v="Fen Drayton"/>
    <tag k="building" v="house"/>
  </way>
  <way id="584418283" version="2" timestamp="2022-09-25T20:59:41Z" changeset="126629704" uid="6476359" user="NSiecw">
    <nd ref="5586423251"/>
    <nd ref="5586423252"/>
    <nd ref="5586423253"/>
    <nd ref="5586423254"/>
    <nd ref="5586423255"/>
    <nd ref="5586423256"/>
    <nd ref="5586423257"/>
    <nd ref="5586423258"/>
    <nd ref="5586423251"/>
    <tag k="addr:city" v="Cambridge"/>
    <tag k="addr:housenumber" v="5"/>
    <tag k="addr:postcode" v="CB24 4TE"/>
    <tag k="addr:street" v="Daintrees Road"/>
    <tag k="addr:village" v="Fen Drayton"/>
    <tag k="building" v="house"/>
  </way>
  <way id="584418284" version="2" timestamp="2022-09-25T20:59:41Z" changeset="126629704" uid="6476359" user="NSiecw">
    <nd ref="5586423259"/>
    <nd ref="5586423260"/>
    <nd ref="5586423261"/>
    <nd ref="5586423262"/>
    <nd ref="5586423263"/>
    <nd ref="5586423264"/>
    <nd ref="5586423265"/>
    <nd ref="5586423266"/>
    <nd ref="5586423267"/>
    <nd ref="5586423268"/>
    <nd ref="5586423269"/>
    <nd ref="5586423259"/>
    <tag k="addr:city" v="Cambridge"/>
    <tag k="addr:housenumber" v="1"/>
    <tag k="addr:postcode" v="CB24 4TE"/>
    <tag k="addr:street" v="Daintrees Road"/>
    <tag k="addr:village" v="Fen Drayton"/>
    <tag k="building" v="house"/>
  </way>
  <way id="584418292" version="2" timestamp="2021-05-31T17:57:05Z" changeset="105638412" uid="10633286" user="Moorit">
    <nd ref="5586423304"/>
    <nd ref="5586423305"/>
    <nd ref="5586423306"/>
    <nd ref="5586423307"/>
    <nd ref="5586423304"/>
    <tag k="addr:street" v="Lark Cottages"/>
    <tag k="building" v="house"/>
    <tag k="name" v="Heron Cottage"/>
  </way>
  <way id="584418293" version="3" timestamp="2022-09-26T20:32:09Z" changeset="126671247" uid="6476359" user="NSiecw">
    <nd ref="5586423308"/>
    <nd ref="10054614606"/>
    <nd ref="10054614605"/>
    <nd ref="5586423311"/>
    <nd ref="5586423308"/>
    <tag k="addr:city" v="Cambridge"/>
    <tag k="addr:housenumber" v="5"/>
    <tag k="addr:postcode" v="CB24 4TF"/>
    <tag k="addr:street" v="Lark Cottages"/>
    <tag k="addr:village" v="Fen Drayton"/>
    <tag k="building" v="house"/>
  </way>
  <way id="584418301" version="2" timestamp="2022-09-25T20:59:41Z" changeset="126629704" uid="6476359" user="NSiecw">
    <nd ref="5586423440"/>
    <nd ref="5586423441"/>
    <nd ref="5586423442"/>
    <nd ref="5586423443"/>
    <nd ref="5586423444"/>
    <nd ref="5586423445"/>
    <nd ref="5586423446"/>
    <nd ref="5586423447"/>
    <nd ref="5586423440"/>
    <tag k="addr:city" v="Cambridge"/>
    <tag k="addr:housenumber" v="2"/>
    <tag k="addr:postcode" v="CB24 4TE"/>
    <tag k="addr:street" v="Daintrees Road"/>
    <tag k="addr:village" v="Fen Drayton"/>
    <tag k="building" v="house"/>
  </way>
  <way id="584418302" version="3" timestamp="2022-09-25T20:59:41Z" changeset="126629704" uid="6476359" user="NSiecw">
    <nd ref="5586423448"/>
    <nd ref="5586423449"/>
    <nd ref="5586423450"/>
    <nd ref="5586423451"/>
    <nd ref="5586423448"/>
    <tag k="addr:city" v="Cambridge"/>
    <tag k="addr:housenumber" v="4"/>
    <tag k="addr:postcode" v="CB24 4TE"/>
    <tag k="addr:street" v="Daintrees Road"/>
    <tag k="addr:village" v="Fen Drayton"/>
    <tag k="building" v="house"/>
  </way>
  <way id="584418304" version="2" timestamp="2022-09-25T20:59:41Z" changeset="126629704" uid="6476359" user="NSiecw">
    <nd ref="5586423452"/>
    <nd ref="5586423453"/>
    <nd ref="5586423454"/>
    <nd ref="5586423455"/>
    <nd ref="5586423452"/>
    <tag k="addr:city" v="Cambridge"/>
    <tag k="addr:housenumber" v="17"/>
    <tag k="addr:postcode" v="CB24 4TE"/>
    <tag k="addr:street" v="Daintrees Road"/>
    <tag k="addr:village" v="Fen Drayton"/>
    <tag k="building" v="house"/>
  </way>
  <way id="584418305" version="2" timestamp="2022-09-25T20:59:41Z" changeset="126629704" uid="6476359" user="NSiecw">
    <nd ref="5586423456"/>
    <nd ref="5586423457"/>
    <nd ref="5586423458"/>
    <nd ref="5586423459"/>
    <nd ref="5586423456"/>
    <tag k="addr:city" v="Cambridge"/>
    <tag k="addr:housenumber" v="15"/>
    <tag k="addr:postcode" v="CB24 4TE"/>
    <tag k="addr:street" v="Daintrees Road"/>
    <tag k="addr:village" v="Fen Drayton"/>
    <tag k="building" v="house"/>
  </way>
  <way id="584418306" version="2" timestamp="2022-09-25T20:59:41Z" changeset="126629704" uid="6476359" user="NSiecw">
    <nd ref="5586423460"/>
    <nd ref="5586423461"/>
    <nd ref="5586423462"/>
    <nd ref="5586423463"/>
    <nd ref="5586423464"/>
    <nd ref="5586423465"/>
    <nd ref="5586423460"/>
    <tag k="addr:city" v="Cambridge"/>
    <tag k="addr:housenumber" v="6"/>
    <tag k="addr:postcode" v="CB24 4TE"/>
    <tag k="addr:street" v="Daintrees Road"/>
    <tag k="addr:village" v="Fen Drayton"/>
    <tag k="building" v="house"/>
  </way>
  <way id="584418308" version="2" timestamp="2022-09-25T20:59:41Z" changeset="126629704" uid="6476359" user="NSiecw">
    <nd ref="5586423466"/>
    <nd ref="5586423467"/>
    <nd ref="5586423468"/>
    <nd ref="5586423469"/>
    <nd ref="5586423466"/>
    <tag k="addr:city" v="Cambridge"/>
    <tag k="addr:housenumber" v="8"/>
    <tag k="addr:postcode" v="CB24 4TE"/>
    <tag k="addr:street" v="Daintrees Road"/>
    <tag k="addr:village" v="Fen Drayton"/>
    <tag k="building" v="house"/>
  </way>
  <way id="584418310" version="2" timestamp="2022-09-25T20:59:41Z" changeset="126629704" uid="6476359" user="NSiecw">
    <nd ref="5586423470"/>
    <nd ref="5586423471"/>
    <nd ref="5586423472"/>
    <nd ref="5586423473"/>
    <nd ref="5586423470"/>
    <tag k="addr:city" v="Cambridge"/>
    <tag k="addr:housenumber" v="12"/>
    <tag k="addr:postcode" v="CB24 4TE"/>
    <tag k="addr:street" v="Daintrees Road"/>
    <tag k="addr:village" v="Fen Drayton"/>
    <tag k="building" v="house"/>
  </way>
  <way id="584418312" version="2" timestamp="2022-09-25T20:59:41Z" changeset="126629704" uid="6476359" user="NSiecw">
    <nd ref="5586423474"/>
    <nd ref="5586423475"/>
    <nd ref="5586423476"/>
    <nd ref="5586423477"/>
    <nd ref="5586423478"/>
    <nd ref="5586423479"/>
    <nd ref="5586423474"/>
    <tag k="addr:city" v="Cambridge"/>
    <tag k="addr:housenumber" v="10"/>
    <tag k="addr:postcode" v="CB24 4TE"/>
    <tag k="addr:street" v="Daintrees Road"/>
    <tag k="addr:village" v="Fen Drayton"/>
    <tag k="building" v="house"/>
  </way>
  <way id="584418316" version="2" timestamp="2022-09-25T20:59:41Z" changeset="126629704" uid="6476359" user="NSiecw">
    <nd ref="5586423480"/>
    <nd ref="5586423481"/>
    <nd ref="5586423482"/>
    <nd ref="5586423483"/>
    <nd ref="5586423484"/>
    <nd ref="5586423485"/>
    <nd ref="5586423486"/>
    <nd ref="5586423487"/>
    <nd ref="5586423480"/>
    <tag k="addr:city" v="Cambridge"/>
    <tag k="addr:housenumber" v="21"/>
    <tag k="addr:postcode" v="CB24 4TE"/>
    <tag k="addr:street" v="Daintrees Road"/>
    <tag k="addr:village" v="Fen Drayton"/>
    <tag k="building" v="house"/>
  </way>
  <way id="584418318" version="2" timestamp="2022-09-25T02:13:54Z" changeset="126600934" uid="6476359" user="NSiecw">
    <nd ref="5586423488"/>
    <nd ref="5586423489"/>
    <nd ref="5586423490"/>
    <nd ref="5586423491"/>
    <nd ref="5586423492"/>
    <nd ref="5586423493"/>
    <nd ref="5586423488"/>
    <tag k="addr:city" v="Cambridge"/>
    <tag k="addr:housename" v="Iris Cottage"/>
    <tag k="addr:housenumber" v="22"/>
    <tag k="addr:postcode" v="CB24 4SW"/>
    <tag k="addr:street" v="Park Lane"/>
    <tag k="addr:village" v="Fen Drayton"/>
    <tag k="building" v="house"/>
  </way>
  <way id="584418321" version="2" timestamp="2022-09-25T02:13:54Z" changeset="126600934" uid="6476359" user="NSiecw">
    <nd ref="5586423494"/>
    <nd ref="5586423495"/>
    <nd ref="5586423496"/>
    <nd ref="5586423497"/>
    <nd ref="5586423498"/>
    <nd ref="5586423499"/>
    <nd ref="5586423500"/>
    <nd ref="5586423501"/>
    <nd ref="5586423502"/>
    <nd ref="5586423503"/>
    <nd ref="5586423494"/>
    <tag k="addr:city" v="Cambridge"/>
    <tag k="addr:housenumber" v="20"/>
    <tag k="addr:postcode" v="CB24 4SW"/>
    <tag k="addr:street" v="Park Lane"/>
    <tag k="addr:village" v="Fen Drayton"/>
    <tag k="building" v="house"/>
  </way>
  <way id="584418323" version="2" timestamp="2022-09-25T20:59:41Z" changeset="126629704" uid="6476359" user="NSiecw">
    <nd ref="5586423504"/>
    <nd ref="5586423505"/>
    <nd ref="5586423506"/>
    <nd ref="5586423507"/>
    <nd ref="5586423508"/>
    <nd ref="5586423509"/>
    <nd ref="5586423504"/>
    <tag k="addr:city" v="Cambridge"/>
    <tag k="addr:housenumber" v="19"/>
    <tag k="addr:postcode" v="CB24 4TE"/>
    <tag k="addr:street" v="Daintrees Road"/>
    <tag k="addr:village" v="Fen Drayton"/>
    <tag k="building" v="house"/>
  </way>
  <way id="584418325" version="3" timestamp="2022-09-25T02:13:54Z" changeset="126600934" uid="6476359" user="NSiecw">
    <nd ref="5586423510"/>
    <nd ref="5586423511"/>
    <nd ref="5586423512"/>
    <nd ref="5586423513"/>
    <nd ref="5586423514"/>
    <nd ref="5586423515"/>
    <nd ref="5586423510"/>
    <tag k="addr:city" v="Cambridge"/>
    <tag k="addr:housenumber" v="18"/>
    <tag k="addr:postcode" v="CB24 4SW"/>
    <tag k="addr:street" v="Park Lane"/>
    <tag k="addr:village" v="Fen Drayton"/>
    <tag k="building" v="house"/>
  </way>
  <way id="584418328" version="2" timestamp="2022-09-25T02:13:54Z" changeset="126600934" uid="6476359" user="NSiecw">
    <nd ref="5586423516"/>
    <nd ref="5586423517"/>
    <nd ref="5586423518"/>
    <nd ref="5586423519"/>
    <nd ref="5586423520"/>
    <nd ref="5586423521"/>
    <nd ref="5586423516"/>
    <tag k="addr:city" v="Cambridge"/>
    <tag k="addr:housenumber" v="16"/>
    <tag k="addr:postcode" v="CB24 4SW"/>
    <tag k="addr:street" v="Park Lane"/>
    <tag k="addr:village" v="Fen Drayton"/>
    <tag k="building" v="house"/>
  </way>
  <way id="584418331" version="2" timestamp="2022-09-25T02:13:54Z" changeset="126600934" uid="6476359" user="NSiecw">
    <nd ref="5586423530"/>
    <nd ref="5586423531"/>
    <nd ref="5586423532"/>
    <nd ref="5586423533"/>
    <nd ref="5586423534"/>
    <nd ref="5586423535"/>
    <nd ref="5586423530"/>
    <tag k="addr:city" v="Cambridge"/>
    <tag k="addr:housename" v="Poplars"/>
    <tag k="addr:housenumber" v="15"/>
    <tag k="addr:postcode" v="CB24 4SW"/>
    <tag k="addr:street" v="Park Lane"/>
    <tag k="addr:village" v="Fen Drayton"/>
    <tag k="building" v="house"/>
  </way>
  <way id="584418332" version="2" timestamp="2022-09-25T02:13:54Z" changeset="126600934" uid="6476359" user="NSiecw">
    <nd ref="5586423536"/>
    <nd ref="5586423537"/>
    <nd ref="5586423538"/>
    <nd ref="5586423539"/>
    <nd ref="5586423540"/>
    <nd ref="5586423541"/>
    <nd ref="5586423536"/>
    <tag k="addr:city" v="Cambridge"/>
    <tag k="addr:housename" v="Wandlebury"/>
    <tag k="addr:housenumber" v="17"/>
    <tag k="addr:postcode" v="CB24 4SW"/>
    <tag k="addr:street" v="Park Lane"/>
    <tag k="addr:village" v="Fen Drayton"/>
    <tag k="building" v="house"/>
  </way>
  <way id="584418333" version="2" timestamp="2022-09-25T02:13:54Z" changeset="126600934" uid="6476359" user="NSiecw">
    <nd ref="5586423542"/>
    <nd ref="5586423543"/>
    <nd ref="5586423544"/>
    <nd ref="5586423545"/>
    <nd ref="5586423546"/>
    <nd ref="5586423547"/>
    <nd ref="5586423542"/>
    <tag k="addr:city" v="Cambridge"/>
    <tag k="addr:housename" v="Tidmans"/>
    <tag k="addr:housenumber" v="11"/>
    <tag k="addr:postcode" v="CB24 4SW"/>
    <tag k="addr:street" v="Park Lane"/>
    <tag k="addr:village" v="Fen Drayton"/>
    <tag k="building" v="house"/>
  </way>
  <way id="584418334" version="2" timestamp="2022-09-25T02:13:54Z" changeset="126600934" uid="6476359" user="NSiecw">
    <nd ref="5586423548"/>
    <nd ref="5586423549"/>
    <nd ref="5586423550"/>
    <nd ref="5586423551"/>
    <nd ref="5586423552"/>
    <nd ref="5586423553"/>
    <nd ref="5586423548"/>
    <tag k="addr:city" v="Cambridge"/>
    <tag k="addr:housenumber" v="9"/>
    <tag k="addr:postcode" v="CB24 4SW"/>
    <tag k="addr:street" v="Park Lane"/>
    <tag k="addr:village" v="Fen Drayton"/>
    <tag k="building" v="house"/>
  </way>
  <way id="584418335" version="2" timestamp="2022-09-25T02:13:54Z" changeset="126600934" uid="6476359" user="NSiecw">
    <nd ref="5586423554"/>
    <nd ref="5586423555"/>
    <nd ref="5586423556"/>
    <nd ref="5586423557"/>
    <nd ref="5586423554"/>
    <tag k="addr:city" v="Cambridge"/>
    <tag k="addr:housename" v="Woodlands"/>
    <tag k="addr:housenumber" v="7"/>
    <tag k="addr:postcode" v="CB24 4SW"/>
    <tag k="addr:street" v="Park Lane"/>
    <tag k="addr:village" v="Fen Drayton"/>
    <tag k="building" v="house"/>
  </way>
  <way id="584418340" version="2" timestamp="2022-09-25T02:13:54Z" changeset="126600934" uid="6476359" user="NSiecw">
    <nd ref="5586423582"/>
    <nd ref="5586423583"/>
    <nd ref="5586423584"/>
    <nd ref="5586423585"/>
    <nd ref="5586423582"/>
    <tag k="addr:city" v="Cambridge"/>
    <tag k="addr:housenumber" v="56"/>
    <tag k="addr:postcode" v="CB24 4SW"/>
    <tag k="addr:street" v="Park Lane"/>
    <tag k="addr:village" v="Fen Drayton"/>
    <tag k="building" v="house"/>
  </way>
  <way id="584418341" version="2" timestamp="2022-09-25T02:13:54Z" changeset="126600934" uid="6476359" user="NSiecw">
    <nd ref="5586423586"/>
    <nd ref="5586423587"/>
    <nd ref="5586423588"/>
    <nd ref="5586423589"/>
    <nd ref="5586423590"/>
    <nd ref="5586423591"/>
    <nd ref="5586423592"/>
    <nd ref="5586423593"/>
    <nd ref="5586423586"/>
    <tag k="addr:city" v="Cambridge"/>
    <tag k="addr:housenumber" v="54"/>
    <tag k="addr:postcode" v="CB24 4SW"/>
    <tag k="addr:street" v="Park Lane"/>
    <tag k="addr:village" v="Fen Drayton"/>
    <tag k="building" v="house"/>
  </way>
  <way id="673575399" version="2" timestamp="2023-01-14T20:53:32Z" changeset="131279149" uid="493595" user="Yorvik Prestigitator">
    <nd ref="25278140"/>
    <nd ref="10555256243"/>
    <nd ref="25278141"/>
    <tag k="highway" v="tertiary"/>
    <tag k="maxspeed" v="30 mph"/>
    <tag k="name" v="Cootes Lane"/>
  </way>
  <way id="675085592" version="2" timestamp="2019-10-17T09:20:20Z" changeset="75822838" uid="10252551" user="amanura">
    <nd ref="29676402"/>
    <nd ref="25278162"/>
    <nd ref="60751729"/>
    <nd ref="25278163"/>
    <nd ref="6888499707"/>
    <nd ref="60751730"/>
    <nd ref="25278164"/>
    <nd ref="25278165"/>
    <nd ref="60751731"/>
    <nd ref="25278166"/>
    <nd ref="60751732"/>
    <nd ref="25278167"/>
    <nd ref="25278168"/>
    <nd ref="25278169"/>
    <nd ref="25278170"/>
    <tag k="highway" v="tertiary"/>
    <tag k="name" v="Honey Hill"/>
  </way>
  <way id="682105651" version="1" timestamp="2019-04-06T14:25:34Z" changeset="68953335" uid="322039" user="MacLondon">
    <nd ref="29676418"/>
    <nd ref="29676386"/>
    <nd ref="25278153"/>
    <tag k="highway" v="unclassified"/>
    <tag k="name" v="High Street"/>
  </way>
  <way id="682105652" version="2" timestamp="2022-05-11T19:09:09Z" changeset="120854735" uid="1102246" user="jtn20">
    <nd ref="29676418"/>
    <nd ref="9733347543"/>
    <nd ref="29676388"/>
    <tag k="highway" v="unclassified"/>
    <tag k="name" v="High Street"/>
  </way>
  <way id="689507948" version="2" timestamp="2024-01-12T15:41:28Z" changeset="146186141" uid="669183" user="Andy_W">
    <nd ref="6468437128"/>
    <nd ref="6468437129"/>
    <nd ref="6468437130"/>
    <nd ref="6468437131"/>
    <tag k="access" v="destination"/>
    <tag k="highway" v="residential"/>
  </way>
  <way id="771155264" version="12" timestamp="2025-03-15T14:14:58Z" changeset="163652595" uid="5229644" user="Nathan_A_RF">
    <nd ref="3710803609"/>
    <nd ref="2759372"/>
    <nd ref="20938915"/>
    <nd ref="132349434"/>
    <nd ref="205285753"/>
    <nd ref="205285778"/>
    <nd ref="20938918"/>
    <nd ref="3230759201"/>
    <nd ref="2759313"/>
    <nd ref="3230756483"/>
    <nd ref="11820160738"/>
    <nd ref="20938919"/>
    <tag k="cycleway:left" v="no"/>
    <tag k="dual_carriageway" v="yes"/>
    <tag k="enforcement:maxspeed" v="average"/>
    <tag k="expressway" v="yes"/>
    <tag k="highway" v="primary"/>
    <tag k="lanes" v="2"/>
    <tag k="lit" v="no"/>
    <tag k="maxspeed" v="70 mph"/>
    <tag k="maxspeed:type" v="GB:nsl_dual"/>
    <tag k="name" v="Huntingdon Road"/>
    <tag k="old_ref" v="A14;A604"/>
    <tag k="oneway" v="yes"/>
    <tag k="operator" v="Cambridgeshire County Council"/>
    <tag k="ref" v="A1307"/>
    <tag k="shoulder" v="no"/>
    <tag k="source:lit" v="trave/photos 2011/08/31"/>
    <tag k="surface" v="asphalt"/>
  </way>
  <way id="1097607783" version="1" timestamp="2022-09-25T02:13:54Z" changeset="126600934" uid="6476359" user="NSiecw">
    <nd ref="10050141029"/>
    <nd ref="10050141028"/>
    <nd ref="10050141027"/>
    <nd ref="10050141026"/>
    <nd ref="10050141029"/>
    <tag k="addr:city" v="Cambridge"/>
    <tag k="addr:housename" v="Bolingbroke Cottage"/>
    <tag k="addr:housenumber" v="13a"/>
    <tag k="addr:postcode" v="CB24 4SW"/>
    <tag k="addr:street" v="Park Lane"/>
    <tag k="addr:village" v="Fen Drayton"/>
    <tag k="building" v="yes"/>
    <tag k="fixme" v="13A is here but the footprint and exact location is a guess"/>
  </way>
  <way id="1097607788" version="1" timestamp="2022-09-25T02:13:54Z" changeset="126600934" uid="6476359" user="NSiecw">
    <nd ref="10050141044"/>
    <nd ref="10050141042"/>
    <nd ref="10050141041"/>
    <nd ref="10050141040"/>
    <nd ref="10050141039"/>
    <nd ref="10050141038"/>
    <nd ref="10050141043"/>
    <nd ref="10050141044"/>
    <tag k="addr:city" v="Cambridge"/>
    <tag k="addr:housenumber" v="14"/>
    <tag k="addr:postcode" v="CB24 4SL"/>
    <tag k="addr:street" v="Cootes Lane"/>
    <tag k="addr:village" v="Fen Drayton"/>
    <tag k="building" v="yes"/>
  </way>
  <way id="1097607789" version="1" timestamp="2022-09-25T02:13:54Z" changeset="126600934" uid="6476359" user="NSiecw">
    <nd ref="10050141044"/>
    <nd ref="10050141043"/>
    <nd ref="5584299598"/>
    <nd ref="5584299597"/>
    <nd ref="5584299596"/>
    <nd ref="5584299595"/>
    <nd ref="10050141044"/>
    <tag k="addr:city" v="Cambridge"/>
    <tag k="addr:housenumber" v="13"/>
    <tag k="addr:postcode" v="CB24 4SL"/>
    <tag k="addr:street" v="Cootes Lane"/>
    <tag k="addr:village" v="Fen Drayton"/>
    <tag k="building" v="yes"/>
  </way>
  <way id="1097607790" version="1" timestamp="2022-09-25T02:13:54Z" changeset="126600934" uid="6476359" user="NSiecw">
    <nd ref="10050141046"/>
    <nd ref="5584300965"/>
    <nd ref="5584300964"/>
    <nd ref="10050141045"/>
    <nd ref="10050141046"/>
    <tag k="addr:city" v="Cambridge"/>
    <tag k="addr:housenumber" v="12"/>
    <tag k="addr:postcode" v="CB24 4SL"/>
    <tag k="addr:street" v="Cootes Lane"/>
    <tag k="addr:village" v="Fen Drayton"/>
    <tag k="building" v="house"/>
  </way>
  <way id="1097607791" version="1" timestamp="2022-09-25T02:13:54Z" changeset="126600934" uid="6476359" user="NSiecw">
    <nd ref="10050141046"/>
    <nd ref="10050141045"/>
    <nd ref="5584300969"/>
    <nd ref="5584300968"/>
    <nd ref="5584300967"/>
    <nd ref="5584300966"/>
    <nd ref="10050141046"/>
    <tag k="addr:city" v="Cambridge"/>
    <tag k="addr:housenumber" v="11"/>
    <tag k="addr:postcode" v="CB24 4SL"/>
    <tag k="addr:street" v="Cootes Lane"/>
    <tag k="addr:village" v="Fen Drayton"/>
    <tag k="building" v="house"/>
  </way>
  <way id="1097607792" version="1" timestamp="2022-09-25T02:13:54Z" changeset="126600934" uid="6476359" user="NSiecw">
    <nd ref="10050141051"/>
    <nd ref="5586423047"/>
    <nd ref="5586423048"/>
    <nd ref="10050141050"/>
    <nd ref="10050141051"/>
    <tag k="addr:city" v="Cambridge"/>
    <tag k="addr:housenumber" v="8"/>
    <tag k="addr:postcode" v="CB24 4SL"/>
    <tag k="addr:street" v="Cootes Lane"/>
    <tag k="addr:village" v="Fen Drayton"/>
    <tag k="building" v="house"/>
  </way>
  <way id="1097607793" version="1" timestamp="2022-09-25T02:13:54Z" changeset="126600934" uid="6476359" user="NSiecw">
    <nd ref="10050141053"/>
    <nd ref="5586423043"/>
    <nd ref="5586423042"/>
    <nd ref="5586423041"/>
    <nd ref="5586423040"/>
    <nd ref="10050141052"/>
    <nd ref="10050141053"/>
    <tag k="addr:city" v="Cambridge"/>
    <tag k="addr:housenumber" v="4"/>
    <tag k="addr:postcode" v="CB24 4SL"/>
    <tag k="addr:street" v="Cootes Lane"/>
    <tag k="addr:village" v="Fen Drayton"/>
    <tag k="building" v="house"/>
  </way>
  <way id="1097607794" version="1" timestamp="2022-09-25T02:13:54Z" changeset="126600934" uid="6476359" user="NSiecw">
    <nd ref="10050141054"/>
    <nd ref="5586423045"/>
    <nd ref="5586423044"/>
    <nd ref="10050141053"/>
    <nd ref="10050141052"/>
    <nd ref="5586423039"/>
    <nd ref="5586423046"/>
    <nd ref="10050141055"/>
    <nd ref="10050141054"/>
    <tag k="addr:city" v="Cambridge"/>
    <tag k="addr:housenumber" v="2"/>
    <tag k="addr:postcode" v="CB24 4SL"/>
    <tag k="addr:street" v="Cootes Lane"/>
    <tag k="addr:village" v="Fen Drayton"/>
    <tag k="building" v="house"/>
  </way>
  <way id="1097607795" version="1" timestamp="2022-09-25T02:13:54Z" changeset="126600934" uid="6476359" user="NSiecw">
    <nd ref="10050141057"/>
    <nd ref="5586300193"/>
    <nd ref="5586300192"/>
    <nd ref="10050141056"/>
    <nd ref="10050141057"/>
    <tag k="addr:city" v="Cambridge"/>
    <tag k="addr:housenumber" v="36"/>
    <tag k="addr:postcode" v="CB24 4SP"/>
    <tag k="addr:street" v="The Plantation"/>
    <tag k="addr:village" v="Fen Drayton"/>
    <tag k="building" v="house"/>
  </way>
  <way id="1097607796" version="1" timestamp="2022-09-25T02:13:54Z" changeset="126600934" uid="6476359" user="NSiecw">
    <nd ref="10050141057"/>
    <nd ref="10050141056"/>
    <nd ref="5586300197"/>
    <nd ref="5586300196"/>
    <nd ref="5586300195"/>
    <nd ref="5586300194"/>
    <nd ref="10050141057"/>
    <tag k="addr:city" v="Cambridge"/>
    <tag k="addr:housenumber" v="34"/>
    <tag k="addr:postcode" v="CB24 4SP"/>
    <tag k="addr:street" v="The Plantation"/>
    <tag k="addr:village" v="Fen Drayton"/>
    <tag k="building" v="house"/>
  </way>
  <way id="1097607797" version="1" timestamp="2022-09-25T02:13:54Z" changeset="126600934" uid="6476359" user="NSiecw">
    <nd ref="10050141059"/>
    <nd ref="5586300198"/>
    <nd ref="5586300199"/>
    <nd ref="10050141058"/>
    <nd ref="10050141059"/>
    <tag k="addr:city" v="Cambridge"/>
    <tag k="addr:housenumber" v="32"/>
    <tag k="addr:postcode" v="CB24 4SP"/>
    <tag k="addr:street" v="The Plantation"/>
    <tag k="addr:village" v="Fen Drayton"/>
    <tag k="building" v="house"/>
  </way>
  <way id="1097607798" version="1" timestamp="2022-09-25T02:13:54Z" changeset="126600934" uid="6476359" user="NSiecw">
    <nd ref="10050141061"/>
    <nd ref="5586300202"/>
    <nd ref="5586300203"/>
    <nd ref="10050141060"/>
    <nd ref="10050141061"/>
    <tag k="addr:city" v="Cambridge"/>
    <tag k="addr:housenumber" v="28"/>
    <tag k="addr:postcode" v="CB24 4SP"/>
    <tag k="addr:street" v="The Plantation"/>
    <tag k="addr:village" v="Fen Drayton"/>
    <tag k="building" v="house"/>
  </way>
  <way id="1097607799" version="1" timestamp="2022-09-25T02:13:54Z" changeset="126600934" uid="6476359" user="NSiecw">
    <nd ref="10050141063"/>
    <nd ref="5586300207"/>
    <nd ref="5586300208"/>
    <nd ref="10050141062"/>
    <nd ref="10050141063"/>
    <tag k="addr:city" v="Cambridge"/>
    <tag k="addr:housenumber" v="22"/>
    <tag k="addr:postcode" v="CB24 4SP"/>
    <tag k="addr:street" v="The Plantation"/>
    <tag k="addr:village" v="Fen Drayton"/>
    <tag k="building" v="residential"/>
  </way>
  <way id="1097607800" version="1" timestamp="2022-09-25T02:13:54Z" changeset="126600934" uid="6476359" user="NSiecw">
    <nd ref="10050141065"/>
    <nd ref="5586300214"/>
    <nd ref="5586300215"/>
    <nd ref="10050141064"/>
    <nd ref="10050141065"/>
    <tag k="addr:city" v="Cambridge"/>
    <tag k="addr:housenumber" v="12"/>
    <tag k="addr:postcode" v="CB24 4SP"/>
    <tag k="addr:street" v="The Plantation"/>
    <tag k="addr:village" v="Fen Drayton"/>
    <tag k="building" v="residential"/>
  </way>
  <way id="1097607801" version="1" timestamp="2022-09-25T02:13:54Z" changeset="126600934" uid="6476359" user="NSiecw">
    <nd ref="10050141067"/>
    <nd ref="5586300210"/>
    <nd ref="5586300211"/>
    <nd ref="10050141066"/>
    <nd ref="10050141067"/>
    <tag k="addr:city" v="Cambridge"/>
    <tag k="addr:housenumber" v="20"/>
    <tag k="addr:postcode" v="CB24 4SP"/>
    <tag k="addr:street" v="The Plantation"/>
    <tag k="addr:village" v="Fen Drayton"/>
    <tag k="building" v="residential"/>
  </way>
  <way id="1097607802" version="1" timestamp="2022-09-25T02:13:54Z" changeset="126600934" uid="6476359" user="NSiecw">
    <nd ref="10050141069"/>
    <nd ref="10050141067"/>
    <nd ref="10050141066"/>
    <nd ref="10050141068"/>
    <nd ref="10050141069"/>
    <tag k="addr:city" v="Cambridge"/>
    <tag k="addr:housenumber" v="18"/>
    <tag k="addr:postcode" v="CB24 4SP"/>
    <tag k="addr:street" v="The Plantation"/>
    <tag k="addr:village" v="Fen Drayton"/>
    <tag k="building" v="residential"/>
  </way>
  <way id="1097607803" version="1" timestamp="2022-09-25T02:13:54Z" changeset="126600934" uid="6476359" user="NSiecw">
    <nd ref="10050141071"/>
    <nd ref="10050141069"/>
    <nd ref="10050141068"/>
    <nd ref="10050141070"/>
    <nd ref="10050141071"/>
    <tag k="addr:city" v="Cambridge"/>
    <tag k="addr:housenumber" v="16"/>
    <tag k="addr:postcode" v="CB24 4SP"/>
    <tag k="addr:street" v="The Plantation"/>
    <tag k="addr:village" v="Fen Drayton"/>
    <tag k="building" v="residential"/>
  </way>
  <way id="1097607807" version="1" timestamp="2022-09-25T02:13:54Z" changeset="126600934" uid="6476359" user="NSiecw">
    <nd ref="10050141082"/>
    <nd ref="10050141081"/>
    <nd ref="10050141080"/>
    <nd ref="10050141079"/>
    <nd ref="10050141082"/>
    <tag k="addr:city" v="Cambridge"/>
    <tag k="addr:housename" v="Cootes Barn"/>
    <tag k="addr:housenumber" v="28a"/>
    <tag k="addr:postcode" v="CB24 4SL"/>
    <tag k="addr:street" v="Cootes Lane"/>
    <tag k="addr:village" v="Fen Drayton"/>
    <tag k="building" v="yes"/>
  </way>
  <way id="1097607811" version="1" timestamp="2022-09-25T02:13:54Z" changeset="126600934" uid="6476359" user="NSiecw">
    <nd ref="10050141101"/>
    <nd ref="10050141100"/>
    <nd ref="10050141099"/>
    <nd ref="10050141098"/>
    <nd ref="10050141101"/>
    <tag k="addr:city" v="Cambridge"/>
    <tag k="addr:housenumber" v="29b"/>
    <tag k="addr:postcode" v="CB24 4SL"/>
    <tag k="addr:street" v="Cootes Lane"/>
    <tag k="addr:village" v="Fen Drayton"/>
    <tag k="building" v="yes"/>
  </way>
  <way id="1097607812" version="1" timestamp="2022-09-25T02:13:54Z" changeset="126600934" uid="6476359" user="NSiecw">
    <nd ref="10050141105"/>
    <nd ref="10050141104"/>
    <nd ref="10050141103"/>
    <nd ref="10050141102"/>
    <nd ref="10050141105"/>
    <tag k="addr:city" v="Cambridge"/>
    <tag k="addr:housenumber" v="29a"/>
    <tag k="addr:postcode" v="CB24 4SL"/>
    <tag k="addr:street" v="Cootes Lane"/>
    <tag k="addr:village" v="Fen Drayton"/>
    <tag k="building" v="yes"/>
  </way>
  <way id="1097817157" version="1" timestamp="2022-09-25T20:59:41Z" changeset="126629704" uid="6476359" user="NSiecw">
    <nd ref="10052299238"/>
    <nd ref="5586423056"/>
    <nd ref="5586423057"/>
    <nd ref="10052299237"/>
    <nd ref="10052299238"/>
    <tag k="addr:city" v="Cambridge"/>
    <tag k="addr:housenumber" v="4"/>
    <tag k="addr:postcode" v="CB24 4SN"/>
    <tag k="addr:street" v="The Orchard"/>
    <tag k="addr:village" v="Fen Drayton"/>
    <tag k="building" v="house"/>
  </way>
  <way id="1097817158" version="1" timestamp="2022-09-25T20:59:41Z" changeset="126629704" uid="6476359" user="NSiecw">
    <nd ref="10052299240"/>
    <nd ref="5586423060"/>
    <nd ref="5586423061"/>
    <nd ref="10052299239"/>
    <nd ref="10052299240"/>
    <tag k="addr:city" v="Cambridge"/>
    <tag k="addr:housenumber" v="8"/>
    <tag k="addr:postcode" v="CB24 4SN"/>
    <tag k="addr:street" v="The Orchard"/>
    <tag k="addr:village" v="Fen Drayton"/>
    <tag k="building" v="house"/>
  </way>
  <way id="1097817159" version="1" timestamp="2022-09-25T20:59:41Z" changeset="126629704" uid="6476359" user="NSiecw">
    <nd ref="10052299242"/>
    <nd ref="5586423064"/>
    <nd ref="5586423065"/>
    <nd ref="10052299241"/>
    <nd ref="10052299242"/>
    <tag k="addr:city" v="Cambridge"/>
    <tag k="addr:housenumber" v="16"/>
    <tag k="addr:postcode" v="CB24 4SN"/>
    <tag k="addr:street" v="The Orchard"/>
    <tag k="addr:village" v="Fen Drayton"/>
    <tag k="building" v="house"/>
  </way>
  <way id="1097817160" version="1" timestamp="2022-09-25T20:59:41Z" changeset="126629704" uid="6476359" user="NSiecw">
    <nd ref="10052299244"/>
    <nd ref="10052299242"/>
    <nd ref="10052299241"/>
    <nd ref="10052299243"/>
    <nd ref="10052299244"/>
    <tag k="addr:city" v="Cambridge"/>
    <tag k="addr:housenumber" v="14"/>
    <tag k="addr:postcode" v="CB24 4SN"/>
    <tag k="addr:street" v="The Orchard"/>
    <tag k="addr:village" v="Fen Drayton"/>
    <tag k="building" v="house"/>
  </way>
  <way id="1097817161" version="1" timestamp="2022-09-25T20:59:41Z" changeset="126629704" uid="6476359" user="NSiecw">
    <nd ref="10052299246"/>
    <nd ref="10052299244"/>
    <nd ref="10052299243"/>
    <nd ref="10052299245"/>
    <nd ref="10052299246"/>
    <tag k="addr:city" v="Cambridge"/>
    <tag k="addr:housenumber" v="12"/>
    <tag k="addr:postcode" v="CB24 4SN"/>
    <tag k="addr:street" v="The Orchard"/>
    <tag k="addr:village" v="Fen Drayton"/>
    <tag k="building" v="house"/>
  </way>
  <way id="1097817162" version="1" timestamp="2022-09-25T20:59:41Z" changeset="126629704" uid="6476359" user="NSiecw">
    <nd ref="10052299248"/>
    <nd ref="5586423092"/>
    <nd ref="5586423093"/>
    <nd ref="10052299247"/>
    <nd ref="10052299248"/>
    <tag k="addr:city" v="Cambridge"/>
    <tag k="addr:housenumber" v="20"/>
    <tag k="addr:postcode" v="CB24 4SN"/>
    <tag k="addr:street" v="The Orchard"/>
    <tag k="addr:village" v="Fen Drayton"/>
    <tag k="building" v="house"/>
  </way>
  <way id="1097817163" version="1" timestamp="2022-09-25T20:59:41Z" changeset="126629704" uid="6476359" user="NSiecw">
    <nd ref="10052299250"/>
    <nd ref="5586423096"/>
    <nd ref="5586423097"/>
    <nd ref="10052299249"/>
    <nd ref="10052299250"/>
    <tag k="addr:city" v="Cambridge"/>
    <tag k="addr:housenumber" v="28"/>
    <tag k="addr:postcode" v="CB24 4SN"/>
    <tag k="addr:street" v="The Orchard"/>
    <tag k="addr:village" v="Fen Drayton"/>
    <tag k="building" v="house"/>
  </way>
  <way id="1097817164" version="1" timestamp="2022-09-25T20:59:41Z" changeset="126629704" uid="6476359" user="NSiecw">
    <nd ref="10052299252"/>
    <nd ref="10052299250"/>
    <nd ref="10052299249"/>
    <nd ref="10052299251"/>
    <nd ref="10052299252"/>
    <tag k="addr:city" v="Cambridge"/>
    <tag k="addr:housenumber" v="26"/>
    <tag k="addr:postcode" v="CB24 4SN"/>
    <tag k="addr:street" v="The Orchard"/>
    <tag k="addr:village" v="Fen Drayton"/>
    <tag k="building" v="house"/>
  </way>
  <way id="1097817165" version="1" timestamp="2022-09-25T20:59:41Z" changeset="126629704" uid="6476359" user="NSiecw">
    <nd ref="10052299254"/>
    <nd ref="10052299252"/>
    <nd ref="10052299251"/>
    <nd ref="10052299253"/>
    <nd ref="10052299254"/>
    <tag k="addr:city" v="Cambridge"/>
    <tag k="addr:housenumber" v="24"/>
    <tag k="addr:postcode" v="CB24 4SN"/>
    <tag k="addr:street" v="The Orchard"/>
    <tag k="addr:village" v="Fen Drayton"/>
    <tag k="building" v="house"/>
  </way>
  <way id="1097817166" version="1" timestamp="2022-09-25T20:59:41Z" changeset="126629704" uid="6476359" user="NSiecw">
    <nd ref="10052299256"/>
    <nd ref="5586423100"/>
    <nd ref="5586423101"/>
    <nd ref="10052299255"/>
    <nd ref="10052299256"/>
    <tag k="addr:city" v="Cambridge"/>
    <tag k="addr:housenumber" v="23"/>
    <tag k="addr:postcode" v="CB24 4SN"/>
    <tag k="addr:street" v="The Orchard"/>
    <tag k="addr:village" v="Fen Drayton"/>
    <tag k="building" v="house"/>
  </way>
  <way id="1097817167" version="1" timestamp="2022-09-25T20:59:41Z" changeset="126629704" uid="6476359" user="NSiecw">
    <nd ref="10052299258"/>
    <nd ref="5586423088"/>
    <nd ref="5586423089"/>
    <nd ref="10052299257"/>
    <nd ref="10052299258"/>
    <tag k="addr:city" v="Cambridge"/>
    <tag k="addr:housenumber" v="19"/>
    <tag k="addr:postcode" v="CB24 4SN"/>
    <tag k="addr:street" v="The Orchard"/>
    <tag k="addr:village" v="Fen Drayton"/>
    <tag k="building" v="house"/>
  </way>
  <way id="1097817168" version="1" timestamp="2022-09-25T20:59:41Z" changeset="126629704" uid="6476359" user="NSiecw">
    <nd ref="10052299267"/>
    <nd ref="10052299266"/>
    <nd ref="10052299262"/>
    <nd ref="10052299261"/>
    <nd ref="10052299260"/>
    <nd ref="10052299259"/>
    <nd ref="10052299267"/>
    <tag k="addr:city" v="Cambridge"/>
    <tag k="addr:housenumber" v="13"/>
    <tag k="addr:postcode" v="CB24 4SN"/>
    <tag k="addr:street" v="The Orchard"/>
    <tag k="addr:village" v="Fen Drayton"/>
    <tag k="building" v="house"/>
  </way>
  <way id="1097817169" version="1" timestamp="2022-09-25T20:59:41Z" changeset="126629704" uid="6476359" user="NSiecw">
    <nd ref="10052299268"/>
    <nd ref="10052299267"/>
    <nd ref="10052299266"/>
    <nd ref="10052299265"/>
    <nd ref="10052299264"/>
    <nd ref="10052299263"/>
    <nd ref="10052299268"/>
    <tag k="addr:city" v="Cambridge"/>
    <tag k="addr:housenumber" v="15"/>
    <tag k="addr:postcode" v="CB24 4SN"/>
    <tag k="addr:street" v="The Orchard"/>
    <tag k="addr:village" v="Fen Drayton"/>
    <tag k="building" v="house"/>
  </way>
  <way id="1097817170" version="1" timestamp="2022-09-25T20:59:41Z" changeset="126629704" uid="6476359" user="NSiecw">
    <nd ref="5586423075"/>
    <nd ref="10052299270"/>
    <nd ref="10052299269"/>
    <nd ref="5586423072"/>
    <nd ref="5586423073"/>
    <nd ref="5586423074"/>
    <nd ref="5586423075"/>
    <tag k="addr:city" v="Cambridge"/>
    <tag k="addr:housenumber" v="11"/>
    <tag k="addr:postcode" v="CB24 4SN"/>
    <tag k="addr:street" v="The Orchard"/>
    <tag k="addr:village" v="Fen Drayton"/>
    <tag k="building" v="house"/>
  </way>
  <way id="1097817171" version="1" timestamp="2022-09-25T20:59:41Z" changeset="126629704" uid="6476359" user="NSiecw">
    <nd ref="10052299270"/>
    <nd ref="10052299269"/>
    <nd ref="5586423071"/>
    <nd ref="5586423078"/>
    <nd ref="5586423077"/>
    <nd ref="5586423076"/>
    <nd ref="10052299270"/>
    <tag k="addr:city" v="Cambridge"/>
    <tag k="addr:housenumber" v="9"/>
    <tag k="addr:postcode" v="CB24 4SN"/>
    <tag k="addr:street" v="The Orchard"/>
    <tag k="addr:village" v="Fen Drayton"/>
    <tag k="building" v="house"/>
  </way>
  <way id="1097817172" version="1" timestamp="2022-09-25T20:59:41Z" changeset="126629704" uid="6476359" user="NSiecw">
    <nd ref="10052299272"/>
    <nd ref="5586423068"/>
    <nd ref="5586423069"/>
    <nd ref="10052299271"/>
    <nd ref="10052299272"/>
    <tag k="addr:city" v="Cambridge"/>
    <tag k="addr:housenumber" v="7"/>
    <tag k="addr:postcode" v="CB24 4SN"/>
    <tag k="addr:street" v="The Orchard"/>
    <tag k="addr:village" v="Fen Drayton"/>
    <tag k="building" v="house"/>
  </way>
  <way id="1097817173" version="1" timestamp="2022-09-25T20:59:41Z" changeset="126629704" uid="6476359" user="NSiecw">
    <nd ref="10052299274"/>
    <nd ref="5586423052"/>
    <nd ref="5586423053"/>
    <nd ref="10052299273"/>
    <nd ref="10052299274"/>
    <tag k="addr:city" v="Cambridge"/>
    <tag k="addr:housenumber" v="3"/>
    <tag k="addr:postcode" v="CB24 4SN"/>
    <tag k="addr:street" v="The Orchard"/>
    <tag k="addr:village" v="Fen Drayton"/>
    <tag k="building" v="house"/>
  </way>
  <way id="1097827652" version="1" timestamp="2022-09-25T21:52:51Z" changeset="126630659" uid="6476359" user="NSiecw">
    <nd ref="10052426719"/>
    <nd ref="5586303050"/>
    <nd ref="5586303061"/>
    <nd ref="10052426718"/>
    <nd ref="10052426719"/>
    <tag k="addr:city" v="Cambridge"/>
    <tag k="addr:housenumber" v="49"/>
    <tag k="addr:postcode" v="CB24 4TA"/>
    <tag k="addr:street" v="Vermuyden Way"/>
    <tag k="addr:village" v="Fen Drayton"/>
    <tag k="building" v="residential"/>
  </way>
  <way id="1097827653" version="1" timestamp="2022-09-25T21:52:51Z" changeset="126630659" uid="6476359" user="NSiecw">
    <nd ref="10052426721"/>
    <nd ref="10052426719"/>
    <nd ref="10052426718"/>
    <nd ref="10052426720"/>
    <nd ref="10052426721"/>
    <tag k="addr:city" v="Cambridge"/>
    <tag k="addr:housenumber" v="47"/>
    <tag k="addr:postcode" v="CB24 4TA"/>
    <tag k="addr:street" v="Vermuyden Way"/>
    <tag k="addr:village" v="Fen Drayton"/>
    <tag k="building" v="residential"/>
  </way>
  <way id="1097827654" version="1" timestamp="2022-09-25T21:52:51Z" changeset="126630659" uid="6476359" user="NSiecw">
    <nd ref="5586303052"/>
    <nd ref="5586303051"/>
    <nd ref="10052426721"/>
    <nd ref="10052426720"/>
    <nd ref="10052426722"/>
    <nd ref="5586303052"/>
    <tag k="addr:city" v="Cambridge"/>
    <tag k="addr:housenumber" v="45"/>
    <tag k="addr:postcode" v="CB24 4TA"/>
    <tag k="addr:street" v="Vermuyden Way"/>
    <tag k="addr:village" v="Fen Drayton"/>
    <tag k="building" v="residential"/>
  </way>
  <way id="1097827655" version="1" timestamp="2022-09-25T21:52:51Z" changeset="126630659" uid="6476359" user="NSiecw">
    <nd ref="5586303057"/>
    <nd ref="10052426724"/>
    <nd ref="5586303054"/>
    <nd ref="5586303055"/>
    <nd ref="5586303056"/>
    <nd ref="5586303057"/>
    <tag k="addr:city" v="Cambridge"/>
    <tag k="addr:housenumber" v="39"/>
    <tag k="addr:postcode" v="CB24 4TA"/>
    <tag k="addr:street" v="Vermuyden Way"/>
    <tag k="addr:village" v="Fen Drayton"/>
    <tag k="building" v="residential"/>
  </way>
  <way id="1097827657" version="1" timestamp="2022-09-25T21:52:51Z" changeset="126630659" uid="6476359" user="NSiecw">
    <nd ref="10052426727"/>
    <nd ref="10052426728"/>
    <nd ref="5586303066"/>
    <nd ref="10052426729"/>
    <nd ref="10052426727"/>
    <tag k="addr:city" v="Cambridge"/>
    <tag k="addr:housenumber" v="37"/>
    <tag k="addr:postcode" v="CB24 4TA"/>
    <tag k="addr:street" v="Vermuyden Way"/>
    <tag k="addr:village" v="Fen Drayton"/>
    <tag k="building" v="residential"/>
  </way>
  <way id="1097827658" version="1" timestamp="2022-09-25T21:52:51Z" changeset="126630659" uid="6476359" user="NSiecw">
    <nd ref="10052426730"/>
    <nd ref="10052426727"/>
    <nd ref="10052426729"/>
    <nd ref="5586303075"/>
    <nd ref="5586303074"/>
    <nd ref="10052426730"/>
    <tag k="addr:city" v="Cambridge"/>
    <tag k="addr:housenumber" v="35"/>
    <tag k="addr:postcode" v="CB24 4TA"/>
    <tag k="addr:street" v="Vermuyden Way"/>
    <tag k="addr:village" v="Fen Drayton"/>
    <tag k="building" v="residential"/>
  </way>
  <way id="1097827660" version="1" timestamp="2022-09-25T21:52:51Z" changeset="126630659" uid="6476359" user="NSiecw">
    <nd ref="5586303071"/>
    <nd ref="5586303072"/>
    <nd ref="10052426731"/>
    <nd ref="5586303069"/>
    <nd ref="5586303070"/>
    <nd ref="5586303071"/>
    <tag k="addr:city" v="Cambridge"/>
    <tag k="addr:housenumber" v="29"/>
    <tag k="addr:postcode" v="CB24 4TA"/>
    <tag k="addr:street" v="Vermuyden Way"/>
    <tag k="addr:village" v="Fen Drayton"/>
    <tag k="building" v="residential"/>
  </way>
  <way id="1097827661" version="1" timestamp="2022-09-25T21:52:51Z" changeset="126630659" uid="6476359" user="NSiecw">
    <nd ref="10052426733"/>
    <nd ref="5586304934"/>
    <nd ref="10052426738"/>
    <nd ref="10052426732"/>
    <nd ref="10052426733"/>
    <tag k="addr:city" v="Cambridge"/>
    <tag k="addr:housenumber" v="25a"/>
    <tag k="addr:postcode" v="CB24 4TA"/>
    <tag k="addr:street" v="Vermuyden Way"/>
    <tag k="addr:village" v="Fen Drayton"/>
    <tag k="building" v="residential"/>
  </way>
  <way id="1097827662" version="1" timestamp="2022-09-25T21:52:51Z" changeset="126630659" uid="6476359" user="NSiecw">
    <nd ref="10052426735"/>
    <nd ref="10052426733"/>
    <nd ref="10052426732"/>
    <nd ref="10052426734"/>
    <nd ref="10052426735"/>
    <tag k="addr:city" v="Cambridge"/>
    <tag k="addr:housenumber" v="25"/>
    <tag k="addr:postcode" v="CB24 4TA"/>
    <tag k="addr:street" v="Vermuyden Way"/>
    <tag k="addr:village" v="Fen Drayton"/>
    <tag k="building" v="residential"/>
  </way>
  <way id="1097827663" version="1" timestamp="2022-09-25T21:52:51Z" changeset="126630659" uid="6476359" user="NSiecw">
    <nd ref="10052426737"/>
    <nd ref="10052426735"/>
    <nd ref="10052426734"/>
    <nd ref="10052426736"/>
    <nd ref="10052426737"/>
    <tag k="addr:city" v="Cambridge"/>
    <tag k="addr:housenumber" v="23a"/>
    <tag k="addr:postcode" v="CB24 4TA"/>
    <tag k="addr:street" v="Vermuyden Way"/>
    <tag k="addr:village" v="Fen Drayton"/>
    <tag k="building" v="residential"/>
  </way>
  <way id="1097827664" version="1" timestamp="2022-09-25T21:52:51Z" changeset="126630659" uid="6476359" user="NSiecw">
    <nd ref="10052426740"/>
    <nd ref="5586304930"/>
    <nd ref="5586304931"/>
    <nd ref="10052426739"/>
    <nd ref="10052426740"/>
    <tag k="addr:city" v="Cambridge"/>
    <tag k="addr:housenumber" v="21a"/>
    <tag k="addr:postcode" v="CB24 4TA"/>
    <tag k="addr:street" v="Vermuyden Way"/>
    <tag k="addr:village" v="Fen Drayton"/>
    <tag k="building" v="residential"/>
  </way>
  <way id="1097827665" version="1" timestamp="2022-09-25T21:52:51Z" changeset="126630659" uid="6476359" user="NSiecw">
    <nd ref="10052426742"/>
    <nd ref="10052426740"/>
    <nd ref="10052426739"/>
    <nd ref="10052426741"/>
    <nd ref="10052426742"/>
    <tag k="addr:city" v="Cambridge"/>
    <tag k="addr:housenumber" v="21"/>
    <tag k="addr:postcode" v="CB24 4TA"/>
    <tag k="addr:street" v="Vermuyden Way"/>
    <tag k="addr:village" v="Fen Drayton"/>
    <tag k="building" v="residential"/>
  </way>
  <way id="1097827666" version="1" timestamp="2022-09-25T21:52:51Z" changeset="126630659" uid="6476359" user="NSiecw">
    <nd ref="10052426744"/>
    <nd ref="10052426749"/>
    <nd ref="10052426746"/>
    <nd ref="10052426748"/>
    <nd ref="10052426747"/>
    <nd ref="10052426750"/>
    <nd ref="10052426743"/>
    <nd ref="10052426745"/>
    <nd ref="10052426744"/>
    <tag k="addr:city" v="Cambridge"/>
    <tag k="addr:housenumber" v="5"/>
    <tag k="addr:postcode" v="CB24 4TA"/>
    <tag k="addr:street" v="Vermuyden Way"/>
    <tag k="addr:village" v="Fen Drayton"/>
    <tag k="building" v="yes"/>
  </way>
  <way id="1097827667" version="1" timestamp="2022-09-25T21:52:51Z" changeset="126630659" uid="6476359" user="NSiecw">
    <nd ref="5586304771"/>
    <nd ref="10052426751"/>
    <nd ref="5586304767"/>
    <nd ref="5586304768"/>
    <nd ref="5586304769"/>
    <nd ref="5586304770"/>
    <nd ref="5586304771"/>
    <tag k="addr:city" v="Cambridge"/>
    <tag k="addr:housenumber" v="7"/>
    <tag k="addr:postcode" v="CB24 4TA"/>
    <tag k="addr:street" v="Vermuyden Way"/>
    <tag k="addr:village" v="Fen Drayton"/>
    <tag k="building" v="yes"/>
  </way>
  <way id="1097827669" version="1" timestamp="2022-09-25T21:52:51Z" changeset="126630659" uid="6476359" user="NSiecw">
    <nd ref="5586302739"/>
    <nd ref="5586302738"/>
    <nd ref="5586302737"/>
    <nd ref="10052426756"/>
    <nd ref="5586302740"/>
    <nd ref="5586302739"/>
    <tag k="addr:city" v="Cambridge"/>
    <tag k="addr:housenumber" v="14"/>
    <tag k="addr:postcode" v="CB24 4TA"/>
    <tag k="addr:street" v="Vermuyden Way"/>
    <tag k="addr:village" v="Fen Drayton"/>
    <tag k="building" v="residential"/>
  </way>
  <way id="1097827670" version="1" timestamp="2022-09-25T21:52:51Z" changeset="126630659" uid="6476359" user="NSiecw">
    <nd ref="5586302734"/>
    <nd ref="5586302735"/>
    <nd ref="5586302736"/>
    <nd ref="10052426756"/>
    <nd ref="5586302740"/>
    <nd ref="5586302741"/>
    <nd ref="5586302742"/>
    <nd ref="10052426759"/>
    <nd ref="5586302734"/>
    <tag k="addr:city" v="Cambridge"/>
    <tag k="addr:housenumber" v="12"/>
    <tag k="addr:postcode" v="CB24 4TA"/>
    <tag k="addr:street" v="Vermuyden Way"/>
    <tag k="addr:village" v="Fen Drayton"/>
    <tag k="building" v="residential"/>
  </way>
  <way id="1097827671" version="1" timestamp="2022-09-25T21:52:51Z" changeset="126630659" uid="6476359" user="NSiecw">
    <nd ref="10052426757"/>
    <nd ref="5586302733"/>
    <nd ref="5586302734"/>
    <nd ref="10052426759"/>
    <nd ref="10052426758"/>
    <nd ref="10052426757"/>
    <tag k="addr:city" v="Cambridge"/>
    <tag k="addr:housenumber" v="10"/>
    <tag k="addr:postcode" v="CB24 4TA"/>
    <tag k="addr:street" v="Vermuyden Way"/>
    <tag k="addr:village" v="Fen Drayton"/>
    <tag k="building" v="residential"/>
  </way>
  <way id="1097827672" version="1" timestamp="2022-09-25T21:52:51Z" changeset="126630659" uid="6476359" user="NSiecw">
    <nd ref="5586302732"/>
    <nd ref="5586302744"/>
    <nd ref="5586302743"/>
    <nd ref="10052426758"/>
    <nd ref="10052426757"/>
    <nd ref="5586302732"/>
    <tag k="addr:city" v="Cambridge"/>
    <tag k="addr:housenumber" v="8"/>
    <tag k="addr:postcode" v="CB24 4TA"/>
    <tag k="addr:street" v="Vermuyden Way"/>
    <tag k="addr:village" v="Fen Drayton"/>
    <tag k="building" v="residential"/>
  </way>
  <way id="1097827674" version="1" timestamp="2022-09-25T21:52:51Z" changeset="126630659" uid="6476359" user="NSiecw">
    <nd ref="10052426764"/>
    <nd ref="10052426761"/>
    <nd ref="10052426760"/>
    <nd ref="10052426763"/>
    <nd ref="10052426764"/>
    <tag k="addr:city" v="Cambridge"/>
    <tag k="addr:housenumber" v="42"/>
    <tag k="addr:postcode" v="CB24 4TA"/>
    <tag k="addr:street" v="Vermuyden Way"/>
    <tag k="addr:village" v="Fen Drayton"/>
    <tag k="building" v="yes"/>
  </way>
  <way id="1097827675" version="1" timestamp="2022-09-25T21:52:51Z" changeset="126630659" uid="6476359" user="NSiecw">
    <nd ref="10052426764"/>
    <nd ref="10052426763"/>
    <nd ref="10052426776"/>
    <nd ref="10052426762"/>
    <nd ref="5586302817"/>
    <nd ref="5586302816"/>
    <nd ref="10052426764"/>
    <tag k="addr:city" v="Cambridge"/>
    <tag k="addr:housenumber" v="44"/>
    <tag k="addr:postcode" v="CB24 4TA"/>
    <tag k="addr:street" v="Vermuyden Way"/>
    <tag k="addr:village" v="Fen Drayton"/>
    <tag k="building" v="yes"/>
  </way>
  <way id="1097827677" version="1" timestamp="2022-09-25T21:52:51Z" changeset="126630659" uid="6476359" user="NSiecw">
    <nd ref="10052426770"/>
    <nd ref="10052426768"/>
    <nd ref="10052426767"/>
    <nd ref="5586302820"/>
    <nd ref="5586303021"/>
    <nd ref="10052426769"/>
    <nd ref="10052426770"/>
    <tag k="addr:city" v="Cambridge"/>
    <tag k="addr:housenumber" v="48"/>
    <tag k="addr:postcode" v="CB24 4TA"/>
    <tag k="addr:street" v="Vermuyden Way"/>
    <tag k="addr:village" v="Fen Drayton"/>
    <tag k="building" v="yes"/>
  </way>
  <way id="1097827678" version="1" timestamp="2022-09-25T21:52:51Z" changeset="126630659" uid="6476359" user="NSiecw">
    <nd ref="10052426777"/>
    <nd ref="10052426762"/>
    <nd ref="10052426776"/>
    <nd ref="10052426775"/>
    <nd ref="10052426774"/>
    <nd ref="10052426773"/>
    <nd ref="10052426769"/>
    <nd ref="10052426770"/>
    <nd ref="10052426772"/>
    <nd ref="10052426771"/>
    <nd ref="10052426777"/>
    <tag k="addr:city" v="Cambridge"/>
    <tag k="addr:housenumber" v="46"/>
    <tag k="addr:postcode" v="CB24 4TA"/>
    <tag k="addr:street" v="Vermuyden Way"/>
    <tag k="addr:village" v="Fen Drayton"/>
    <tag k="building" v="yes"/>
  </way>
  <way id="1097827679" version="1" timestamp="2022-09-25T21:52:51Z" changeset="126630659" uid="6476359" user="NSiecw">
    <nd ref="5586302806"/>
    <nd ref="5586302807"/>
    <nd ref="5586302808"/>
    <nd ref="5586302809"/>
    <nd ref="10052426780"/>
    <nd ref="10052426779"/>
    <nd ref="10052426778"/>
    <nd ref="5586302802"/>
    <nd ref="5586302806"/>
    <tag k="addr:city" v="Cambridge"/>
    <tag k="addr:housenumber" v="28"/>
    <tag k="addr:postcode" v="CB24 4TA"/>
    <tag k="addr:street" v="Vermuyden Way"/>
    <tag k="addr:village" v="Fen Drayton"/>
    <tag k="building" v="yes"/>
  </way>
  <way id="1097827680" version="1" timestamp="2022-09-25T21:52:51Z" changeset="126630659" uid="6476359" user="NSiecw">
    <nd ref="5586302805"/>
    <nd ref="5586302806"/>
    <nd ref="5586302802"/>
    <nd ref="5586302803"/>
    <nd ref="5586302804"/>
    <nd ref="5586302805"/>
    <tag k="addr:city" v="Cambridge"/>
    <tag k="addr:housenumber" v="30"/>
    <tag k="addr:postcode" v="CB24 4TA"/>
    <tag k="addr:street" v="Vermuyden Way"/>
    <tag k="addr:village" v="Fen Drayton"/>
    <tag k="building" v="yes"/>
  </way>
  <way id="1097827681" version="1" timestamp="2022-09-25T21:52:51Z" changeset="126630659" uid="6476359" user="NSiecw">
    <nd ref="5586302810"/>
    <nd ref="5586302809"/>
    <nd ref="10052426780"/>
    <nd ref="5586302798"/>
    <nd ref="5586302797"/>
    <nd ref="5586302810"/>
    <tag k="addr:city" v="Cambridge"/>
    <tag k="addr:housenumber" v="26"/>
    <tag k="addr:postcode" v="CB24 4TA"/>
    <tag k="addr:street" v="Vermuyden Way"/>
    <tag k="addr:village" v="Fen Drayton"/>
    <tag k="building" v="yes"/>
  </way>
  <way id="1097994605" version="2" timestamp="2023-05-07T17:53:13Z" changeset="135821786" uid="18639993" user="HGV101">
    <nd ref="10053793626"/>
    <nd ref="10053793625"/>
    <nd ref="10053793624"/>
    <nd ref="10053793623"/>
    <nd ref="10053774010"/>
    <nd ref="10053774013"/>
    <nd ref="10053774012"/>
    <nd ref="10053774011"/>
    <nd ref="10053793626"/>
    <tag k="addr:city" v="Cambridge"/>
    <tag k="addr:housenumber" v="52"/>
    <tag k="addr:postcode" v="CB24 4SU"/>
    <tag k="addr:street" v="Middleton Way"/>
    <tag k="addr:village" v="Fen Drayton"/>
    <tag k="building" v="house"/>
    <tag k="building:levels" v="2"/>
    <tag k="source" v="maxar"/>
  </way>
  <way id="1097994606" version="1" timestamp="2022-09-26T13:35:08Z" changeset="126657129" uid="6476359" user="NSiecw">
    <nd ref="10053793628"/>
    <nd ref="5584300996"/>
    <nd ref="5584301003"/>
    <nd ref="10053793627"/>
    <nd ref="10053793628"/>
    <tag k="addr:city" v="Cambridge"/>
    <tag k="addr:housenumber" v="51"/>
    <tag k="addr:postcode" v="CB24 4SU"/>
    <tag k="addr:street" v="Middleton Way"/>
    <tag k="addr:village" v="Fen Drayton"/>
    <tag k="building" v="house"/>
    <tag k="source" v="maxar"/>
  </way>
  <way id="1097994607" version="1" timestamp="2022-09-26T13:35:08Z" changeset="126657129" uid="6476359" user="NSiecw">
    <nd ref="10053793628"/>
    <nd ref="10053793627"/>
    <nd ref="5584301000"/>
    <nd ref="5584300999"/>
    <nd ref="5584300998"/>
    <nd ref="5584300997"/>
    <nd ref="10053793628"/>
    <tag k="addr:city" v="Cambridge"/>
    <tag k="addr:housenumber" v="50"/>
    <tag k="addr:postcode" v="CB24 4SU"/>
    <tag k="addr:street" v="Middleton Way"/>
    <tag k="addr:village" v="Fen Drayton"/>
    <tag k="building" v="house"/>
    <tag k="source" v="maxar"/>
  </way>
  <way id="1097994615" version="1" timestamp="2022-09-26T13:35:08Z" changeset="126657129" uid="6476359" user="NSiecw">
    <nd ref="10053793659"/>
    <nd ref="10053793658"/>
    <nd ref="10053793657"/>
    <nd ref="10053793656"/>
    <nd ref="10053793655"/>
    <nd ref="10053793654"/>
    <nd ref="10053793659"/>
    <tag k="addr:city" v="Cambridge"/>
    <tag k="addr:housenumber" v="49a"/>
    <tag k="addr:postcode" v="CB24 4SU"/>
    <tag k="addr:street" v="Middleton Way"/>
    <tag k="addr:village" v="Fen Drayton"/>
    <tag k="building" v="house"/>
    <tag k="source" v="maxar"/>
  </way>
  <way id="1097994617" version="1" timestamp="2022-09-26T13:35:08Z" changeset="126657129" uid="6476359" user="NSiecw">
    <nd ref="10053793666"/>
    <nd ref="10053793665"/>
    <nd ref="10053793664"/>
    <nd ref="10053793663"/>
    <nd ref="10053793662"/>
    <nd ref="10053793661"/>
    <nd ref="10053793666"/>
    <tag k="addr:city" v="Cambridge"/>
    <tag k="addr:housenumber" v="49c"/>
    <tag k="addr:postcode" v="CB24 4SU"/>
    <tag k="addr:street" v="Middleton Way"/>
    <tag k="addr:village" v="Fen Drayton"/>
    <tag k="building" v="house"/>
    <tag k="source" v="maxar"/>
  </way>
  <way id="1097994620" version="1" timestamp="2022-09-26T13:35:08Z" changeset="126657129" uid="6476359" user="NSiecw">
    <nd ref="10053793677"/>
    <nd ref="10053793676"/>
    <nd ref="10053793675"/>
    <nd ref="10053793674"/>
    <nd ref="10053793677"/>
    <tag k="addr:city" v="Cambridge"/>
    <tag k="addr:housename" v="Haribo House"/>
    <tag k="addr:housenumber" v="49b"/>
    <tag k="addr:postcode" v="CB24 4SU"/>
    <tag k="addr:street" v="Middleton Way"/>
    <tag k="addr:village" v="Fen Drayton"/>
    <tag k="building" v="house"/>
    <tag k="source" v="maxar"/>
  </way>
  <way id="1097994621" version="1" timestamp="2022-09-26T13:35:08Z" changeset="126657129" uid="6476359" user="NSiecw">
    <nd ref="10053793682"/>
    <nd ref="10053793681"/>
    <nd ref="10053793680"/>
    <nd ref="10053793679"/>
    <nd ref="10053793682"/>
    <tag k="addr:city" v="Cambridge"/>
    <tag k="addr:housename" v="Cedar House"/>
    <tag k="addr:housenumber" v="49d"/>
    <tag k="addr:postcode" v="CB24 4SU"/>
    <tag k="addr:street" v="Middleton Way"/>
    <tag k="addr:village" v="Fen Drayton"/>
    <tag k="building" v="house"/>
    <tag k="source" v="maxar"/>
  </way>
  <way id="1097994625" version="1" timestamp="2022-09-26T13:35:08Z" changeset="126657129" uid="6476359" user="NSiecw">
    <nd ref="5584301059"/>
    <nd ref="10053793687"/>
    <nd ref="10053793686"/>
    <nd ref="5584301064"/>
    <nd ref="5584301059"/>
    <tag k="addr:city" v="Cambridge"/>
    <tag k="addr:housenumber" v="49"/>
    <tag k="addr:postcode" v="CB24 4SU"/>
    <tag k="addr:street" v="Middleton Way"/>
    <tag k="addr:village" v="Fen Drayton"/>
    <tag k="building" v="house"/>
    <tag k="source" v="maxar"/>
  </way>
  <way id="1097994626" version="1" timestamp="2022-09-26T13:35:08Z" changeset="126657129" uid="6476359" user="NSiecw">
    <nd ref="5584301089"/>
    <nd ref="10053793691"/>
    <nd ref="10053793689"/>
    <nd ref="10053793690"/>
    <nd ref="5584301084"/>
    <nd ref="10053793688"/>
    <nd ref="5584301089"/>
    <tag k="addr:city" v="Cambridge"/>
    <tag k="addr:housenumber" v="47"/>
    <tag k="addr:postcode" v="CB24 4SU"/>
    <tag k="addr:street" v="Middleton Way"/>
    <tag k="addr:village" v="Fen Drayton"/>
    <tag k="building" v="house"/>
    <tag k="source" v="maxar"/>
  </way>
  <way id="1097994627" version="1" timestamp="2022-09-26T13:35:08Z" changeset="126657129" uid="6476359" user="NSiecw">
    <nd ref="5584301089"/>
    <nd ref="10053793688"/>
    <nd ref="5584301085"/>
    <nd ref="5584301086"/>
    <nd ref="5584301087"/>
    <nd ref="5584301088"/>
    <nd ref="10053793692"/>
    <nd ref="5584301089"/>
    <tag k="addr:city" v="Cambridge"/>
    <tag k="addr:housenumber" v="46"/>
    <tag k="addr:postcode" v="CB24 4SU"/>
    <tag k="addr:street" v="Middleton Way"/>
    <tag k="addr:village" v="Fen Drayton"/>
    <tag k="building" v="house"/>
    <tag k="source" v="maxar"/>
  </way>
  <way id="1097994628" version="1" timestamp="2022-09-26T13:35:08Z" changeset="126657129" uid="6476359" user="NSiecw">
    <nd ref="10053793694"/>
    <nd ref="5584301161"/>
    <nd ref="5584301168"/>
    <nd ref="5584301167"/>
    <nd ref="5584301166"/>
    <nd ref="10053793693"/>
    <nd ref="10053793694"/>
    <tag k="addr:city" v="Cambridge"/>
    <tag k="addr:housenumber" v="45"/>
    <tag k="addr:postcode" v="CB24 4SU"/>
    <tag k="addr:street" v="Middleton Way"/>
    <tag k="addr:village" v="Fen Drayton"/>
    <tag k="building" v="house"/>
    <tag k="source" v="maxar"/>
  </way>
  <way id="1097994629" version="1" timestamp="2022-09-26T13:35:08Z" changeset="126657129" uid="6476359" user="NSiecw">
    <nd ref="10053793694"/>
    <nd ref="10053793693"/>
    <nd ref="5584301165"/>
    <nd ref="5584301164"/>
    <nd ref="5584301163"/>
    <nd ref="5584301162"/>
    <nd ref="10053793694"/>
    <tag k="addr:city" v="Cambridge"/>
    <tag k="addr:housenumber" v="44"/>
    <tag k="addr:postcode" v="CB24 4SU"/>
    <tag k="addr:street" v="Middleton Way"/>
    <tag k="addr:village" v="Fen Drayton"/>
    <tag k="building" v="house"/>
    <tag k="source" v="maxar"/>
  </way>
  <way id="1097994630" version="1" timestamp="2022-09-26T13:35:08Z" changeset="126657129" uid="6476359" user="NSiecw">
    <nd ref="10053793698"/>
    <nd ref="5584301189"/>
    <nd ref="10053793695"/>
    <nd ref="10053793697"/>
    <nd ref="10053793698"/>
    <tag k="addr:city" v="Cambridge"/>
    <tag k="addr:housenumber" v="43"/>
    <tag k="addr:postcode" v="CB24 4SU"/>
    <tag k="addr:street" v="Middleton Way"/>
    <tag k="addr:village" v="Fen Drayton"/>
    <tag k="building" v="house"/>
    <tag k="source" v="maxar"/>
  </way>
  <way id="1097994631" version="1" timestamp="2022-09-26T13:35:08Z" changeset="126657129" uid="6476359" user="NSiecw">
    <nd ref="10053793698"/>
    <nd ref="10053793697"/>
    <nd ref="5584301195"/>
    <nd ref="5584301194"/>
    <nd ref="5584301193"/>
    <nd ref="10053793696"/>
    <nd ref="10053793698"/>
    <tag k="addr:city" v="Cambridge"/>
    <tag k="addr:housenumber" v="42"/>
    <tag k="addr:postcode" v="CB24 4SU"/>
    <tag k="addr:street" v="Middleton Way"/>
    <tag k="addr:village" v="Fen Drayton"/>
    <tag k="building" v="house"/>
    <tag k="source" v="maxar"/>
  </way>
  <way id="1097994632" version="1" timestamp="2022-09-26T13:35:08Z" changeset="126657129" uid="6476359" user="NSiecw">
    <nd ref="10053793704"/>
    <nd ref="10053793701"/>
    <nd ref="10053793700"/>
    <nd ref="10053793699"/>
    <nd ref="10053793704"/>
    <tag k="addr:city" v="Cambridge"/>
    <tag k="addr:housenumber" v="41"/>
    <tag k="addr:postcode" v="CB24 4SU"/>
    <tag k="addr:street" v="Middleton Way"/>
    <tag k="addr:village" v="Fen Drayton"/>
    <tag k="building" v="house"/>
    <tag k="source" v="maxar"/>
  </way>
  <way id="1097994633" version="1" timestamp="2022-09-26T13:35:08Z" changeset="126657129" uid="6476359" user="NSiecw">
    <nd ref="5584301224"/>
    <nd ref="10053793699"/>
    <nd ref="10053793704"/>
    <nd ref="10053793703"/>
    <nd ref="10053793702"/>
    <nd ref="5584301222"/>
    <nd ref="5584301223"/>
    <nd ref="5584301224"/>
    <tag k="addr:city" v="Cambridge"/>
    <tag k="addr:housenumber" v="40"/>
    <tag k="addr:postcode" v="CB24 4SU"/>
    <tag k="addr:street" v="Middleton Way"/>
    <tag k="addr:village" v="Fen Drayton"/>
    <tag k="building" v="house"/>
    <tag k="source" v="maxar"/>
  </way>
  <way id="1097994634" version="1" timestamp="2022-09-26T13:35:08Z" changeset="126657129" uid="6476359" user="NSiecw">
    <nd ref="5584301264"/>
    <nd ref="5584301263"/>
    <nd ref="5584301262"/>
    <nd ref="5584301261"/>
    <nd ref="5584301260"/>
    <nd ref="5584301259"/>
    <nd ref="10053793705"/>
    <nd ref="5584301264"/>
    <tag k="addr:city" v="Cambridge"/>
    <tag k="addr:housenumber" v="38"/>
    <tag k="addr:postcode" v="CB24 4SU"/>
    <tag k="addr:street" v="Middleton Way"/>
    <tag k="addr:village" v="Fen Drayton"/>
    <tag k="building" v="house"/>
    <tag k="source" v="maxar"/>
  </way>
  <way id="1097994635" version="1" timestamp="2022-09-26T13:35:08Z" changeset="126657129" uid="6476359" user="NSiecw">
    <nd ref="5584301264"/>
    <nd ref="10053793705"/>
    <nd ref="5584301258"/>
    <nd ref="5584301265"/>
    <nd ref="5584301264"/>
    <tag k="addr:city" v="Cambridge"/>
    <tag k="addr:housenumber" v="39"/>
    <tag k="addr:postcode" v="CB24 4SU"/>
    <tag k="addr:street" v="Middleton Way"/>
    <tag k="addr:village" v="Fen Drayton"/>
    <tag k="building" v="house"/>
    <tag k="source" v="maxar"/>
  </way>
  <way id="1098013661" version="1" timestamp="2022-09-26T15:03:07Z" changeset="126660684" uid="6476359" user="NSiecw">
    <nd ref="10053941028"/>
    <nd ref="10053941027"/>
    <nd ref="10053941026"/>
    <nd ref="10053941025"/>
    <nd ref="10053941028"/>
    <tag k="addr:city" v="Cambridge"/>
    <tag k="addr:housenumber" v="14"/>
    <tag k="addr:postcode" v="CB24 4ST"/>
    <tag k="addr:street" v="Mill Road"/>
    <tag k="addr:village" v="Fen Drayton"/>
    <tag k="building" v="house"/>
    <tag k="source" v="maxar"/>
  </way>
  <way id="1098013664" version="1" timestamp="2022-09-26T15:03:07Z" changeset="126660684" uid="6476359" user="NSiecw">
    <nd ref="10053941036"/>
    <nd ref="10053941035"/>
    <nd ref="10053941034"/>
    <nd ref="10053941033"/>
    <nd ref="10053941036"/>
    <tag k="addr:city" v="Cambridge"/>
    <tag k="addr:housenumber" v="15"/>
    <tag k="addr:postcode" v="CB24 4ST"/>
    <tag k="addr:street" v="Mill Road"/>
    <tag k="addr:village" v="Fen Drayton"/>
    <tag k="building" v="yes"/>
    <tag k="source" v="maxar"/>
  </way>
  <way id="1098013666" version="1" timestamp="2022-09-26T15:03:07Z" changeset="126660684" uid="6476359" user="NSiecw">
    <nd ref="10053941044"/>
    <nd ref="10053941043"/>
    <nd ref="10053941042"/>
    <nd ref="10053941041"/>
    <nd ref="10053941044"/>
    <tag k="addr:city" v="Cambridge"/>
    <tag k="addr:housenumber" v="12"/>
    <tag k="addr:postcode" v="CB24 4ST"/>
    <tag k="addr:street" v="Mill Road"/>
    <tag k="addr:village" v="Fen Drayton"/>
    <tag k="building" v="house"/>
    <tag k="source" v="maxar"/>
  </way>
  <way id="1098013667" version="1" timestamp="2022-09-26T15:03:07Z" changeset="126660684" uid="6476359" user="NSiecw">
    <nd ref="10053941046"/>
    <nd ref="5560569498"/>
    <nd ref="5560569503"/>
    <nd ref="5560569502"/>
    <nd ref="5560569501"/>
    <nd ref="10053941045"/>
    <nd ref="10053941046"/>
    <tag k="addr:city" v="Cambridge"/>
    <tag k="addr:housenumber" v="9"/>
    <tag k="addr:postcode" v="CB24 4ST"/>
    <tag k="addr:street" v="Mill Road"/>
    <tag k="addr:village" v="Fen Drayton"/>
    <tag k="building" v="house"/>
  </way>
  <way id="1098013668" version="1" timestamp="2022-09-26T15:03:07Z" changeset="126660684" uid="6476359" user="NSiecw">
    <nd ref="10053941046"/>
    <nd ref="10053941045"/>
    <nd ref="5560569500"/>
    <nd ref="5560569499"/>
    <nd ref="10053941046"/>
    <tag k="addr:city" v="Cambridge"/>
    <tag k="addr:housenumber" v="10"/>
    <tag k="addr:postcode" v="CB24 4ST"/>
    <tag k="addr:street" v="Mill Road"/>
    <tag k="addr:village" v="Fen Drayton"/>
    <tag k="building" v="house"/>
  </way>
  <way id="1098013680" version="1" timestamp="2022-09-26T15:03:07Z" changeset="126660684" uid="6476359" user="NSiecw">
    <nd ref="10053941091"/>
    <nd ref="10053941090"/>
    <nd ref="10053941089"/>
    <nd ref="10053941088"/>
    <nd ref="10053941091"/>
    <tag k="addr:city" v="Cambridge"/>
    <tag k="addr:housename" v="The Mill House"/>
    <tag k="addr:housenumber" v="7a"/>
    <tag k="addr:postcode" v="CB24 4ST"/>
    <tag k="addr:street" v="Mill Road"/>
    <tag k="addr:village" v="Fen Drayton"/>
    <tag k="building" v="house"/>
    <tag k="source" v="maxar"/>
  </way>
  <way id="1098013681" version="1" timestamp="2022-09-26T15:03:07Z" changeset="126660684" uid="6476359" user="NSiecw">
    <nd ref="5560569472"/>
    <nd ref="5560569471"/>
    <nd ref="5560569470"/>
    <nd ref="5560569469"/>
    <nd ref="10053941092"/>
    <nd ref="5560569472"/>
    <tag k="addr:city" v="Cambridge"/>
    <tag k="addr:housenumber" v="8"/>
    <tag k="addr:postcode" v="CB24 4ST"/>
    <tag k="addr:street" v="Mill Road"/>
    <tag k="addr:village" v="Fen Drayton"/>
    <tag k="building" v="house"/>
    <tag k="source" v="maxar"/>
  </way>
  <way id="1098013682" version="1" timestamp="2022-09-26T15:03:07Z" changeset="126660684" uid="6476359" user="NSiecw">
    <nd ref="5560569472"/>
    <nd ref="10053941092"/>
    <nd ref="10053941051"/>
    <nd ref="5560569468"/>
    <nd ref="5560569473"/>
    <nd ref="5560569472"/>
    <tag k="addr:city" v="Cambridge"/>
    <tag k="addr:housenumber" v="7"/>
    <tag k="addr:postcode" v="CB24 4ST"/>
    <tag k="addr:street" v="Mill Road"/>
    <tag k="addr:village" v="Fen Drayton"/>
    <tag k="building" v="house"/>
    <tag k="source" v="maxar"/>
  </way>
  <way id="1098013683" version="1" timestamp="2022-09-26T15:03:07Z" changeset="126660684" uid="6476359" user="NSiecw">
    <nd ref="5560569372"/>
    <nd ref="5560569373"/>
    <nd ref="5560569374"/>
    <nd ref="5560569375"/>
    <nd ref="5560569366"/>
    <nd ref="10053941093"/>
    <nd ref="5560569372"/>
    <tag k="addr:city" v="Cambridge"/>
    <tag k="addr:housenumber" v="3"/>
    <tag k="addr:postcode" v="CB24 4ST"/>
    <tag k="addr:street" v="Mill Road"/>
    <tag k="addr:village" v="Fen Drayton"/>
    <tag k="building" v="house"/>
    <tag k="source" v="maxar"/>
  </way>
  <way id="1098013684" version="1" timestamp="2022-09-26T15:03:07Z" changeset="126660684" uid="6476359" user="NSiecw">
    <nd ref="5560569372"/>
    <nd ref="10053941093"/>
    <nd ref="5560569367"/>
    <nd ref="5560569368"/>
    <nd ref="5560569369"/>
    <nd ref="5560569370"/>
    <nd ref="5560569371"/>
    <nd ref="5560569372"/>
    <tag k="addr:city" v="Cambridge"/>
    <tag k="addr:housenumber" v="4"/>
    <tag k="addr:postcode" v="CB24 4ST"/>
    <tag k="addr:street" v="Mill Road"/>
    <tag k="addr:village" v="Fen Drayton"/>
    <tag k="building" v="house"/>
    <tag k="source" v="maxar"/>
  </way>
  <way id="1098013685" version="1" timestamp="2022-09-26T15:03:07Z" changeset="126660684" uid="6476359" user="NSiecw">
    <nd ref="10053941095"/>
    <nd ref="5560569347"/>
    <nd ref="5560569348"/>
    <nd ref="5560569349"/>
    <nd ref="5560569350"/>
    <nd ref="10053941094"/>
    <nd ref="10053941095"/>
    <tag k="addr:city" v="Cambridge"/>
    <tag k="addr:housenumber" v="2"/>
    <tag k="addr:postcode" v="CB24 4ST"/>
    <tag k="addr:street" v="Mill Road"/>
    <tag k="addr:village" v="Fen Drayton"/>
    <tag k="building" v="house"/>
    <tag k="source" v="maxar"/>
  </way>
  <way id="1098013686" version="1" timestamp="2022-09-26T15:03:07Z" changeset="126660684" uid="6476359" user="NSiecw">
    <nd ref="10053941095"/>
    <nd ref="10053941094"/>
    <nd ref="5560569351"/>
    <nd ref="5560569352"/>
    <nd ref="5560569353"/>
    <nd ref="5560569346"/>
    <nd ref="10053941095"/>
    <tag k="addr:city" v="Cambridge"/>
    <tag k="addr:housenumber" v="1"/>
    <tag k="addr:postcode" v="CB24 4ST"/>
    <tag k="addr:street" v="Mill Road"/>
    <tag k="addr:village" v="Fen Drayton"/>
    <tag k="building" v="house"/>
    <tag k="source" v="maxar"/>
  </way>
  <way id="1098013688" version="2" timestamp="2023-10-13T10:13:36Z" changeset="142516002" uid="5173844" user="ndrw6">
    <nd ref="10053941103"/>
    <nd ref="11259630205"/>
    <nd ref="11259630204"/>
    <nd ref="10053941102"/>
    <nd ref="10053941101"/>
    <nd ref="10053941100"/>
    <nd ref="10053941103"/>
    <tag k="addr:city" v="Cambridge"/>
    <tag k="addr:housename" v="Fen View"/>
    <tag k="addr:housenumber" v="6a"/>
    <tag k="addr:postcode" v="CB24 4ST"/>
    <tag k="addr:street" v="Mill Road"/>
    <tag k="addr:village" v="Fen Drayton"/>
    <tag k="building" v="house"/>
    <tag k="source" v="maxar"/>
  </way>
  <way id="1098013697" version="1" timestamp="2022-09-26T15:03:07Z" changeset="126660684" uid="6476359" user="NSiecw">
    <nd ref="10053960935"/>
    <nd ref="10053960934"/>
    <nd ref="10053960933"/>
    <nd ref="10053960932"/>
    <nd ref="10053960935"/>
    <tag k="addr:city" v="Cambridge"/>
    <tag k="addr:housename" v="Dove House"/>
    <tag k="addr:housenumber" v="5a"/>
    <tag k="addr:postcode" v="CB24 4ST"/>
    <tag k="addr:street" v="Mill Road"/>
    <tag k="addr:village" v="Fen Drayton"/>
    <tag k="building" v="house"/>
    <tag k="source" v="maxar"/>
  </way>
  <way id="1098013698" version="1" timestamp="2022-09-26T15:03:07Z" changeset="126660684" uid="6476359" user="NSiecw">
    <nd ref="10053960939"/>
    <nd ref="10053960938"/>
    <nd ref="10053960937"/>
    <nd ref="10053960936"/>
    <nd ref="10053960939"/>
    <tag k="addr:city" v="Cambridge"/>
    <tag k="addr:housenumber" v="5b"/>
    <tag k="addr:postcode" v="CB24 4ST"/>
    <tag k="addr:street" v="Mill Road"/>
    <tag k="addr:village" v="Fen Drayton"/>
    <tag k="building" v="house"/>
    <tag k="source" v="maxar"/>
  </way>
  <way id="1098013699" version="1" timestamp="2022-09-26T15:03:07Z" changeset="126660684" uid="6476359" user="NSiecw">
    <nd ref="10053960940"/>
    <nd ref="5560569406"/>
    <nd ref="5560569411"/>
    <nd ref="5560569410"/>
    <nd ref="10053960940"/>
    <tag k="addr:city" v="Cambridge"/>
    <tag k="addr:housenumber" v="5"/>
    <tag k="addr:postcode" v="CB24 4ST"/>
    <tag k="addr:street" v="Mill Road"/>
    <tag k="addr:village" v="Fen Drayton"/>
    <tag k="building" v="house"/>
    <tag k="source" v="maxar"/>
  </way>
  <way id="1098013700" version="1" timestamp="2022-09-26T15:03:07Z" changeset="126660684" uid="6476359" user="NSiecw">
    <nd ref="10053960940"/>
    <nd ref="5560569410"/>
    <nd ref="5560569409"/>
    <nd ref="5560569408"/>
    <nd ref="5560569407"/>
    <nd ref="10053960940"/>
    <tag k="addr:city" v="Cambridge"/>
    <tag k="addr:housenumber" v="6"/>
    <tag k="addr:postcode" v="CB24 4ST"/>
    <tag k="addr:street" v="Mill Road"/>
    <tag k="addr:village" v="Fen Drayton"/>
    <tag k="building" v="house"/>
    <tag k="source" v="maxar"/>
  </way>
  <way id="1098095606" version="1" timestamp="2022-09-26T20:32:09Z" changeset="126671247" uid="6476359" user="NSiecw">
    <nd ref="10054614600"/>
    <nd ref="5586423309"/>
    <nd ref="5586423310"/>
    <nd ref="10054614599"/>
    <nd ref="10054614600"/>
    <tag k="addr:city" v="Cambridge"/>
    <tag k="addr:housenumber" v="1"/>
    <tag k="addr:postcode" v="CB24 4TF"/>
    <tag k="addr:street" v="Lark Cottages"/>
    <tag k="addr:village" v="Fen Drayton"/>
    <tag k="building" v="house"/>
  </way>
  <way id="1098095607" version="1" timestamp="2022-09-26T20:32:09Z" changeset="126671247" uid="6476359" user="NSiecw">
    <nd ref="10054614602"/>
    <nd ref="10054614600"/>
    <nd ref="10054614599"/>
    <nd ref="10054614601"/>
    <nd ref="10054614602"/>
    <tag k="addr:city" v="Cambridge"/>
    <tag k="addr:housenumber" v="2"/>
    <tag k="addr:postcode" v="CB24 4TF"/>
    <tag k="addr:street" v="Lark Cottages"/>
    <tag k="addr:village" v="Fen Drayton"/>
    <tag k="building" v="house"/>
  </way>
  <way id="1098095608" version="1" timestamp="2022-09-26T20:32:09Z" changeset="126671247" uid="6476359" user="NSiecw">
    <nd ref="10054614604"/>
    <nd ref="10054614602"/>
    <nd ref="10054614601"/>
    <nd ref="10054614603"/>
    <nd ref="10054614604"/>
    <tag k="addr:city" v="Cambridge"/>
    <tag k="addr:housenumber" v="3"/>
    <tag k="addr:postcode" v="CB24 4TF"/>
    <tag k="addr:street" v="Lark Cottages"/>
    <tag k="addr:village" v="Fen Drayton"/>
    <tag k="building" v="house"/>
  </way>
  <way id="1098095609" version="1" timestamp="2022-09-26T20:32:09Z" changeset="126671247" uid="6476359" user="NSiecw">
    <nd ref="10054614606"/>
    <nd ref="10054614604"/>
    <nd ref="10054614603"/>
    <nd ref="10054614605"/>
    <nd ref="10054614606"/>
    <tag k="addr:city" v="Cambridge"/>
    <tag k="addr:housenumber" v="4"/>
    <tag k="addr:postcode" v="CB24 4TF"/>
    <tag k="addr:street" v="Lark Cottages"/>
    <tag k="addr:village" v="Fen Drayton"/>
    <tag k="building" v="house"/>
  </way>
  <way id="1169786828" version="1" timestamp="2023-05-08T05:29:02Z" changeset="135834882" uid="322785" user="BCNorwich">
    <nd ref="10877113557"/>
    <nd ref="5586420818"/>
    <nd ref="5586420819"/>
    <nd ref="10877113556"/>
    <nd ref="10877113557"/>
    <tag k="addr:city" v="Cambridge"/>
    <tag k="addr:country" v="GB"/>
    <tag k="addr:housenumber" v="4"/>
    <tag k="addr:postcode" v="CB24 4SJ"/>
    <tag k="addr:street" v="High Street"/>
    <tag k="addr:village" v="Fen Drayton"/>
    <tag k="building" v="house"/>
  </way>
  <way id="1169786829" version="1" timestamp="2023-05-08T05:29:02Z" changeset="135834882" uid="322785" user="BCNorwich">
    <nd ref="10877113551"/>
    <nd ref="10877113553"/>
    <nd ref="10877113554"/>
    <nd ref="5586420814"/>
    <nd ref="5586420815"/>
    <nd ref="10877113558"/>
    <nd ref="10877113551"/>
    <tag k="addr:city" v="Cambridge"/>
    <tag k="addr:country" v="GB"/>
    <tag k="addr:housenumber" v="2"/>
    <tag k="addr:postcode" v="CB24 4SJ"/>
    <tag k="addr:street" v="High Street"/>
    <tag k="addr:village" v="Fen Drayton"/>
    <tag k="building" v="house"/>
  </way>
  <way id="1215300043" version="1" timestamp="2023-10-13T10:13:36Z" changeset="142516002" uid="5173844" user="ndrw6">
    <nd ref="11259639561"/>
    <nd ref="11259639560"/>
    <tag k="highway" v="residential"/>
    <tag k="name" v="Daintrees Road"/>
    <tag k="source" v="photograph"/>
  </way>
  <way id="1215300066" version="1" timestamp="2023-10-13T10:13:36Z" changeset="142516002" uid="5173844" user="ndrw6">
    <nd ref="11259639648"/>
    <nd ref="11259639647"/>
    <tag k="highway" v="residential"/>
    <tag k="name" v="Park Lane"/>
  </way>
  <way id="1215300067" version="1" timestamp="2023-10-13T10:13:36Z" changeset="142516002" uid="5173844" user="ndrw6">
    <nd ref="11259639649"/>
    <nd ref="11259639650"/>
    <tag k="highway" v="residential"/>
    <tag k="name" v="Park Lane"/>
    <tag k="tunnel" v="building_passage"/>
  </way>
  <way id="1215300068" version="1" timestamp="2023-10-13T10:13:36Z" changeset="142516002" uid="5173844" user="ndrw6">
    <nd ref="29676445"/>
    <nd ref="11259639648"/>
    <nd ref="5586423577"/>
    <nd ref="11259639649"/>
    <tag k="highway" v="residential"/>
    <tag k="name" v="Park Lane"/>
  </way>
  <way id="1239137091" version="2" timestamp="2024-11-19T19:13:19Z" changeset="159338808" uid="669183" user="Andy_W">
    <nd ref="11259639650"/>
    <nd ref="12356421775"/>
    <nd ref="5586423576"/>
    <nd ref="3200007330"/>
    <nd ref="3200007325"/>
    <nd ref="12356421776"/>
    <nd ref="3200007323"/>
    <nd ref="3200007321"/>
    <tag k="highway" v="residential"/>
    <tag k="name" v="Park Lane"/>
  </way>

</osm>
