<?xml version="1.0" encoding="UTF-8"?>
<osm version="0.6" generator="Overpass API 0.7.62.5 1bd436f1">
<note>The data included in this document is from www.openstreetmap.org. The data is made available under ODbL.</note>
<meta osm_base="2025-04-27T07:26:58Z" areas="2025-02-06T02:17:44Z"/>

  <node id="5276241" lat="52.1525126" lon="0.0437300" version="4" timestamp="2012-07-19T10:17:29Z" changeset="12318077" uid="714383" user="alterain"/>
  <node id="21076390" lat="52.1722036" lon="0.0407350" version="4" timestamp="2013-07-04T09:20:52Z" changeset="16818958" uid="742701" user="kerr smith"/>
  <node id="25710024" lat="52.1385140" lon="0.0423184" version="2" timestamp="2018-11-01T15:29:08Z" changeset="64082872" uid="1257159" user="Jean-Pierre Rondeau"/>
  <node id="33129189" lat="52.1398997" lon="0.0697032" version="3" timestamp="2012-07-08T18:51:21Z" changeset="12153390" uid="714383" user="alterain"/>
  <node id="33130263" lat="52.1714007" lon="0.0545121" version="2" timestamp="2009-03-30T11:07:22Z" changeset="869314" uid="109725" user="Solent">
    <tag k="created_by" v="JOSM"/>
  </node>
  <node id="36743539" lat="52.1678640" lon="0.0906532" version="4" timestamp="2012-06-07T12:09:22Z" changeset="11824438" uid="24119" user="Mauls"/>
  <node id="36743540" lat="52.1675276" lon="0.0911314" version="4" timestamp="2012-06-07T12:09:22Z" changeset="11824438" uid="24119" user="Mauls"/>
  <node id="1698547726" lat="52.1712094" lon="0.0387463" version="1" timestamp="2012-03-30T21:19:49Z" changeset="11160285" uid="24119" user="Mauls"/>
  <way id="4159687" version="12" timestamp="2017-08-15T15:59:57Z" changeset="51145028" uid="84263" user="Robert Whittaker">
    <nd ref="23717814"/>
    <nd ref="618349159"/>
    <nd ref="602592577"/>
    <nd ref="626939540"/>
    <nd ref="602592989"/>
    <nd ref="602592992"/>
    <tag k="highway" v="unclassified"/>
    <tag k="maxspeed" v="60 mph"/>
    <tag k="maxspeed:type" v="GB:nsl_single"/>
    <tag k="name" v="Cantelupe Road"/>
    <tag k="source:name" v="local knowledge"/>
  </way>
  <way id="4797410" version="2" timestamp="2008-04-28T13:02:37Z" changeset="277025" uid="7037" user="Gregory Williams">
    <nd ref="5276221"/>
    <nd ref="30779725"/>
    <nd ref="30779732"/>
    <nd ref="30779861"/>
    <nd ref="30779864"/>
    <nd ref="30779873"/>
    <nd ref="260382706"/>
    <nd ref="30779882"/>
    <tag k="created_by" v="JOSM"/>
    <tag k="highway" v="residential"/>
    <tag k="name" v="Fountain Lane"/>
    <tag k="source:ref" v="gps survey"/>
  </way>
  <way id="4797411" version="3" timestamp="2010-04-15T12:08:39Z" changeset="4430357" uid="21502" user="Kevin Steinhardt">
    <nd ref="33129193"/>
    <nd ref="33129436"/>
    <nd ref="33129546"/>
    <nd ref="33129547"/>
    <nd ref="30779882"/>
    <tag k="highway" v="residential"/>
    <tag k="name" v="New Road"/>
    <tag k="source:name" v="dictaphone"/>
  </way>
  <way id="4797414" version="2" timestamp="2010-04-15T12:08:38Z" changeset="4430357" uid="21502" user="Kevin Steinhardt">
    <nd ref="30498523"/>
    <nd ref="5276227"/>
    <nd ref="25710034"/>
    <tag k="abutters" v="residential"/>
    <tag k="highway" v="tertiary"/>
    <tag k="name" v="Church Street"/>
  </way>
  <way id="4912090" version="10" timestamp="2024-01-20T15:10:58Z" changeset="146482480" uid="742701" user="kerr smith">
    <nd ref="5276237"/>
    <nd ref="2313649427"/>
    <nd ref="368223779"/>
    <nd ref="7351200992"/>
    <nd ref="6029985827"/>
    <nd ref="33129202"/>
    <nd ref="6494484029"/>
    <nd ref="30780576"/>
    <nd ref="2069485115"/>
    <nd ref="11534089336"/>
    <nd ref="30780581"/>
    <nd ref="30780584"/>
    <nd ref="30780588"/>
    <tag k="highway" v="tertiary"/>
    <tag k="name" v="Barton Road"/>
    <tag k="source:ref" v="GPS survey"/>
  </way>
  <way id="4991349" version="3" timestamp="2015-03-07T15:47:25Z" changeset="29310891" uid="1952553" user="Matthew Law">
    <nd ref="33129191"/>
    <nd ref="2572772139"/>
    <nd ref="2572772129"/>
    <nd ref="2572772126"/>
    <nd ref="33129429"/>
    <nd ref="33129428"/>
    <nd ref="33129430"/>
    <nd ref="33129431"/>
    <nd ref="33129432"/>
    <nd ref="3387835670"/>
    <nd ref="33129433"/>
    <tag k="highway" v="residential"/>
    <tag k="name" v="The Elms"/>
    <tag k="source:name" v="dictaphone"/>
  </way>
  <way id="4991350" version="2" timestamp="2015-03-07T15:47:25Z" changeset="29310891" uid="1952553" user="Matthew Law">
    <nd ref="33129430"/>
    <nd ref="3387835604"/>
    <nd ref="33129435"/>
    <tag k="highway" v="residential"/>
    <tag k="name" v="The Elms"/>
    <tag k="source:name" v="dictaphone"/>
  </way>
  <way id="4991351" version="2" timestamp="2015-03-06T19:53:04Z" changeset="29296738" uid="1952553" user="Matthew Law">
    <nd ref="33129428"/>
    <nd ref="33129427"/>
    <nd ref="3386506963"/>
    <nd ref="33129426"/>
    <tag k="highway" v="residential"/>
    <tag k="name" v="The Elms"/>
    <tag k="source:name" v="dictaphone"/>
  </way>
  <way id="4991353" version="5" timestamp="2024-01-16T12:00:30Z" changeset="146320982" uid="742701" user="kerr smith">
    <nd ref="5276218"/>
    <nd ref="3459560575"/>
    <nd ref="33129420"/>
    <nd ref="33129419"/>
    <nd ref="33129421"/>
    <nd ref="33129422"/>
    <nd ref="33129423"/>
    <nd ref="11521744763"/>
    <nd ref="33129424"/>
    <nd ref="683417612"/>
    <tag k="highway" v="residential"/>
    <tag k="name" v="Chestnut Close"/>
    <tag k="source:name" v="dictaphone"/>
  </way>
  <way id="4991354" version="7" timestamp="2017-07-23T16:16:19Z" changeset="50505480" uid="1287673" user="sloerunner">
    <nd ref="33129419"/>
    <nd ref="3619176363"/>
    <nd ref="33129417"/>
    <nd ref="1830308825"/>
    <nd ref="33129416"/>
    <nd ref="2572778003"/>
    <nd ref="2572778007"/>
    <nd ref="2572778006"/>
    <nd ref="2572778004"/>
    <nd ref="4988369945"/>
    <nd ref="2572778005"/>
    <tag k="highway" v="residential"/>
    <tag k="name" v="Chestnut Close"/>
    <tag k="source:name" v="dictaphone"/>
  </way>
  <way id="4991355" version="1" timestamp="2007-07-30T15:52:34Z" changeset="178050" uid="3582" user="davidearl">
    <nd ref="33129421"/>
    <nd ref="33129530"/>
    <nd ref="33129417"/>
    <tag k="created_by" v="JOSM"/>
    <tag k="highway" v="residential"/>
    <tag k="name" v="Chestnut Close"/>
    <tag k="source:name" v="dictaphone"/>
  </way>
  <way id="4991360" version="2" timestamp="2010-04-03T17:20:28Z" changeset="4315257" uid="109725" user="Solent">
    <nd ref="30779861"/>
    <nd ref="683417619"/>
    <nd ref="33129464"/>
    <tag k="highway" v="residential"/>
    <tag k="name" v="Scotts Yard"/>
    <tag k="source:name" v="dictaphone"/>
  </way>
  <way id="4991361" version="3" timestamp="2020-10-10T09:37:00Z" changeset="92269479" uid="10219386" user="bathines">
    <nd ref="33129548"/>
    <nd ref="6323385078"/>
    <nd ref="7994556614"/>
    <nd ref="33129467"/>
    <nd ref="6323385079"/>
    <nd ref="33129466"/>
    <nd ref="33129465"/>
    <tag k="highway" v="residential"/>
    <tag k="name" v="Wisbey's Yard"/>
    <tag k="source:name" v="dictaphone"/>
  </way>
  <way id="4991362" version="5" timestamp="2024-09-23T16:20:03Z" changeset="157003339" uid="1287673" user="sloerunner">
    <nd ref="33129549"/>
    <nd ref="33129409"/>
    <nd ref="33129412"/>
    <nd ref="5856954673"/>
    <nd ref="33129413"/>
    <nd ref="5856954674"/>
    <nd ref="683417610"/>
    <nd ref="33129414"/>
    <nd ref="5856954676"/>
    <nd ref="683417605"/>
    <nd ref="3510130237"/>
    <nd ref="33129401"/>
    <nd ref="12194962108"/>
    <nd ref="683417609"/>
    <nd ref="33129400"/>
    <tag k="highway" v="residential"/>
    <tag k="name" v="Badcock Road"/>
    <tag k="source:name" v="dictaphone"/>
  </way>
  <way id="4991366" version="2" timestamp="2018-08-25T16:32:40Z" changeset="61989371" uid="5173844" user="ndrw6">
    <nd ref="33129414"/>
    <nd ref="5856954675"/>
    <nd ref="33129415"/>
    <tag k="highway" v="residential"/>
    <tag k="name" v="Badcock Road"/>
    <tag k="source:name" v="dictaphone"/>
  </way>
  <way id="4991367" version="2" timestamp="2010-04-03T17:20:27Z" changeset="4315257" uid="109725" user="Solent">
    <nd ref="33129404"/>
    <nd ref="33129551"/>
    <tag k="highway" v="residential"/>
    <tag k="name" v="Lilac End"/>
    <tag k="source:name" v="dictaphone"/>
  </way>
  <way id="4991369" version="2" timestamp="2015-12-26T22:49:23Z" changeset="36185868" uid="1952553" user="Matthew Law">
    <nd ref="5276222"/>
    <nd ref="33129468"/>
    <nd ref="33129553"/>
    <nd ref="33129552"/>
    <nd ref="33129469"/>
    <tag k="highway" v="residential"/>
    <tag k="name" v="The Hemlocks"/>
    <tag k="oneway" v="no"/>
    <tag k="source:name" v="dictaphone"/>
  </way>
  <way id="4991371" version="1" timestamp="2007-07-30T15:52:36Z" changeset="178050" uid="3582" user="davidearl">
    <nd ref="33129195"/>
    <nd ref="33129470"/>
    <tag k="created_by" v="JOSM"/>
    <tag k="highway" v="residential"/>
    <tag k="name" v="Stearne's Yard"/>
    <tag k="source:name" v="dictaphone"/>
  </way>
  <way id="4991372" version="5" timestamp="2020-11-12T15:44:36Z" changeset="94005811" uid="12155687" user="Tom29H">
    <nd ref="33129196"/>
    <nd ref="2573172757"/>
    <nd ref="8112111272"/>
    <nd ref="33129472"/>
    <nd ref="7146376335"/>
    <nd ref="5037161693"/>
    <tag k="highway" v="residential"/>
    <tag k="name" v="Broad Lane"/>
    <tag k="source:name" v="dictaphone"/>
  </way>
  <way id="4991374" version="1" timestamp="2007-10-06T14:37:35Z" changeset="49197" uid="3582" user="davidearl">
    <nd ref="33129472"/>
    <nd ref="5276224"/>
    <tag k="created_by" v="JOSM"/>
    <tag k="highway" v="residential"/>
  </way>
  <way id="4991378" version="2" timestamp="2013-12-09T11:25:26Z" changeset="19356976" uid="2020" user="comsomol">
    <nd ref="33129475"/>
    <nd ref="2572772102"/>
    <nd ref="33129476"/>
    <tag k="highway" v="residential"/>
    <tag k="name" v="Butler Way"/>
    <tag k="source:name" v="dictaphone"/>
  </way>
  <way id="4991379" version="3" timestamp="2018-08-25T16:32:40Z" changeset="61989371" uid="5173844" user="ndrw6">
    <nd ref="33129201"/>
    <nd ref="5856953940"/>
    <nd ref="33129486"/>
    <nd ref="33129481"/>
    <nd ref="2572772156"/>
    <nd ref="33129482"/>
    <nd ref="33129475"/>
    <tag k="highway" v="residential"/>
    <tag k="name" v="Broad Lane"/>
    <tag k="source:name" v="dictaphone"/>
  </way>
  <way id="4991380" version="3" timestamp="2018-08-25T16:32:40Z" changeset="61989371" uid="5173844" user="ndrw6">
    <nd ref="33129484"/>
    <nd ref="5856954107"/>
    <nd ref="33129483"/>
    <nd ref="33129481"/>
    <tag k="designation" v="public_footpath"/>
    <tag k="foot" v="designated"/>
    <tag k="highway" v="residential"/>
    <tag k="name" v="Dodds Mead"/>
    <tag k="prow_ref" v="Haslingfield FP 7"/>
    <tag k="source:name" v="dictaphone"/>
    <tag k="source:prow_ref" v="cambridgeshire_county_council_prow_gis_data"/>
  </way>
  <way id="4991381" version="3" timestamp="2018-08-25T16:32:40Z" changeset="61989371" uid="5173844" user="ndrw6">
    <nd ref="33129200"/>
    <nd ref="5856954342"/>
    <nd ref="368223829"/>
    <nd ref="33129488"/>
    <tag k="highway" v="residential"/>
    <tag k="name" v="Wells Close"/>
    <tag k="source:name" v="dictaphone"/>
  </way>
  <way id="4991382" version="1" timestamp="2007-07-30T15:52:39Z" changeset="178050" uid="3582" user="davidearl">
    <nd ref="33129199"/>
    <nd ref="33129489"/>
    <nd ref="33129490"/>
    <nd ref="33129491"/>
    <tag k="created_by" v="JOSM"/>
    <tag k="highway" v="residential"/>
    <tag k="name" v="The Knapp"/>
    <tag k="source:name" v="dictaphone"/>
  </way>
  <way id="4991383" version="3" timestamp="2018-08-25T16:32:40Z" changeset="61989371" uid="5173844" user="ndrw6">
    <nd ref="33129198"/>
    <nd ref="2572772135"/>
    <nd ref="2572772110"/>
    <nd ref="2572772115"/>
    <nd ref="2572772122"/>
    <nd ref="5856954445"/>
    <nd ref="5856954444"/>
    <nd ref="33129492"/>
    <tag k="highway" v="residential"/>
    <tag k="name" v="Knapp Rise"/>
    <tag k="source" v="Bing"/>
    <tag k="source:name" v="dictaphone"/>
  </way>
  <way id="4991384" version="1" timestamp="2007-07-30T15:52:39Z" changeset="178050" uid="3582" user="davidearl">
    <nd ref="33129202"/>
    <nd ref="33129558"/>
    <tag k="created_by" v="JOSM"/>
    <tag k="highway" v="residential"/>
    <tag k="name" v="Pates Close"/>
    <tag k="source:name" v="dictaphone"/>
  </way>
  <way id="4991385" version="9" timestamp="2023-12-30T16:40:18Z" changeset="145705021" uid="742701" user="kerr smith">
    <nd ref="30780588"/>
    <nd ref="367333166"/>
    <nd ref="30780594"/>
    <nd ref="367333169"/>
    <nd ref="367042885"/>
    <nd ref="11313811807"/>
    <nd ref="280368146"/>
    <nd ref="11169636163"/>
    <nd ref="367283617"/>
    <nd ref="30780598"/>
    <nd ref="367283596"/>
    <nd ref="11470050476"/>
    <nd ref="367922690"/>
    <tag k="highway" v="tertiary"/>
    <tag k="name" v="Barton Road"/>
    <tag k="source:ref" v="GPS survey"/>
  </way>
  <way id="4991386" version="4" timestamp="2018-11-01T15:29:17Z" changeset="64082872" uid="1257159" user="Jean-Pierre Rondeau">
    <nd ref="5276232"/>
    <nd ref="6029985831"/>
    <nd ref="6029985830"/>
    <nd ref="1471323044"/>
    <nd ref="21098268"/>
    <nd ref="5856952895"/>
    <nd ref="5276241"/>
    <tag k="abutters" v="residential"/>
    <tag k="highway" v="tertiary"/>
    <tag k="name" v="Harlton Road"/>
    <tag k="source:name" v="dictaphone"/>
  </way>
  <way id="4991387" version="2" timestamp="2018-08-25T16:32:41Z" changeset="61989371" uid="5173844" user="ndrw6">
    <nd ref="30779930"/>
    <nd ref="33129442"/>
    <nd ref="5856953536"/>
    <nd ref="33129445"/>
    <nd ref="33129443"/>
    <nd ref="33129444"/>
    <tag k="highway" v="residential"/>
    <tag k="name" v="College Crescent"/>
    <tag k="source:name" v="dictaphone"/>
  </way>
  <way id="4991390" version="2" timestamp="2023-12-31T11:10:52Z" changeset="145727978" uid="242345" user="confusedbuffalo">
    <nd ref="30779968"/>
    <nd ref="33129452"/>
    <nd ref="33129567"/>
    <nd ref="33129453"/>
    <nd ref="33129566"/>
    <tag k="highway" v="residential"/>
    <tag k="name" v="Sidney Gardens"/>
  </way>
  <way id="4991392" version="4" timestamp="2018-08-25T16:32:41Z" changeset="61989371" uid="5173844" user="ndrw6">
    <nd ref="30779964"/>
    <nd ref="2572772107"/>
    <nd ref="683417617"/>
    <nd ref="5856953480"/>
    <nd ref="33129460"/>
    <tag k="highway" v="residential"/>
    <tag k="name" v="Trinity Close"/>
    <tag k="source:name" v="dictaphone"/>
  </way>
  <way id="4991393" version="3" timestamp="2018-08-25T16:32:41Z" changeset="61989371" uid="5173844" user="ndrw6">
    <nd ref="683417613"/>
    <nd ref="33129461"/>
    <nd ref="683417615"/>
    <nd ref="33129460"/>
    <nd ref="5856953481"/>
    <nd ref="5856953482"/>
    <nd ref="33129462"/>
    <tag k="highway" v="residential"/>
    <tag k="name" v="Trinity Close"/>
    <tag k="source:name" v="dictaphone"/>
  </way>
  <way id="4991396" version="2" timestamp="2018-08-25T16:32:41Z" changeset="61989371" uid="5173844" user="ndrw6">
    <nd ref="33129457"/>
    <nd ref="5856953440"/>
    <nd ref="33129458"/>
    <tag k="highway" v="residential"/>
    <tag k="name" v="The Meadows"/>
    <tag k="source:name" v="dictaphone"/>
  </way>
  <way id="4991397" version="3" timestamp="2018-08-25T16:32:41Z" changeset="61989371" uid="5173844" user="ndrw6">
    <nd ref="5276226"/>
    <nd ref="5856954554"/>
    <nd ref="33129572"/>
    <tag k="designation" v="public_footpath"/>
    <tag k="foot" v="designated"/>
    <tag k="highway" v="residential"/>
    <tag k="name" v="School Lane"/>
    <tag k="prow_ref" v="Haslingfield FP 9"/>
    <tag k="source:name" v="dictaphone"/>
    <tag k="source:prow_ref" v="cambridgeshire_county_council_prow_gis_data"/>
  </way>
  <way id="4991402" version="2" timestamp="2015-06-12T15:16:44Z" changeset="31923748" uid="1952553" user="Matthew Law">
    <nd ref="33129588"/>
    <nd ref="3590206812"/>
    <nd ref="33129586"/>
    <nd ref="33129587"/>
    <tag k="highway" v="residential"/>
    <tag k="name" v="Moss Drive"/>
    <tag k="source:name" v="dictaphone"/>
  </way>
  <way id="4991403" version="1" timestamp="2007-07-30T15:52:43Z" changeset="178050" uid="3582" user="davidearl">
    <nd ref="33129449"/>
    <nd ref="33129586"/>
    <tag k="created_by" v="JOSM"/>
    <tag k="highway" v="residential"/>
    <tag k="name" v="Moss Drive"/>
    <tag k="source:name" v="dictaphone"/>
  </way>
  <way id="4991489" version="5" timestamp="2017-09-05T11:51:07Z" changeset="51747512" uid="493595" user="Yorvik Prestigitator">
    <nd ref="33129192"/>
    <nd ref="5081396882"/>
    <nd ref="5276217"/>
    <nd ref="5276218"/>
    <nd ref="33129193"/>
    <tag k="abutters" v="residential"/>
    <tag k="highway" v="tertiary"/>
    <tag k="name" v="High Street"/>
    <tag k="source:name" v="dictaphone"/>
  </way>
  <way id="4991490" version="2" timestamp="2013-12-09T11:25:26Z" changeset="19356976" uid="2020" user="comsomol">
    <nd ref="33129194"/>
    <nd ref="2572772143"/>
    <nd ref="33129406"/>
    <nd ref="33129404"/>
    <nd ref="33129405"/>
    <tag k="highway" v="residential"/>
    <tag k="name" v="Lilac Close"/>
    <tag k="source:name" v="dictaphone"/>
  </way>
  <way id="4991491" version="5" timestamp="2017-07-05T11:59:59Z" changeset="50057170" uid="1287673" user="sloerunner">
    <nd ref="33129830"/>
    <nd ref="626491015"/>
    <nd ref="33129449"/>
    <nd ref="626491016"/>
    <nd ref="33129448"/>
    <nd ref="33129447"/>
    <nd ref="683417663"/>
    <nd ref="30779892"/>
    <tag k="highway" v="residential"/>
    <tag k="maxspeed" v="30 mph"/>
    <tag k="name" v="Cantelupe Road"/>
    <tag k="source:name" v="local knowledge"/>
  </way>
  <way id="4991492" version="2" timestamp="2021-03-20T19:34:16Z" changeset="101415355" uid="742701" user="kerr smith">
    <nd ref="30780599"/>
    <nd ref="30780600"/>
    <tag k="bridge" v="yes"/>
    <tag k="highway" v="tertiary"/>
    <tag k="layer" v="1"/>
    <tag k="name" v="Barton Road"/>
    <tag k="source" v="GPS"/>
  </way>
  <way id="4991526" version="3" timestamp="2021-03-20T19:34:16Z" changeset="101415355" uid="742701" user="kerr smith">
    <nd ref="30780600"/>
    <nd ref="367922691"/>
    <tag k="abutters" v="residential"/>
    <tag k="embankment" v="yes"/>
    <tag k="highway" v="tertiary"/>
    <tag k="name" v="Haslingfield Road"/>
    <tag k="source" v="GPS"/>
  </way>
  <way id="4991527" version="3" timestamp="2023-12-31T14:26:26Z" changeset="145735455" uid="742701" user="kerr smith">
    <nd ref="33130263"/>
    <nd ref="30780601"/>
    <tag k="abutters" v="residential"/>
    <tag k="bridge" v="yes"/>
    <tag k="bridge:name" v="Barton Bridge"/>
    <tag k="highway" v="tertiary"/>
    <tag k="layer" v="1"/>
    <tag k="name" v="Haslingfield Road"/>
    <tag k="source" v="GPS"/>
  </way>
  <way id="5228994" version="18" timestamp="2022-10-30T20:02:11Z" changeset="128261539" uid="3560" user="Firefishy">
    <nd ref="36743540"/>
    <nd ref="36743539"/>
    <tag k="bridge" v="yes"/>
    <tag k="carriageway_ref" v="A"/>
    <tag k="highway" v="motorway"/>
    <tag k="lanes" v="2"/>
    <tag k="layer" v="1"/>
    <tag k="lit" v="no"/>
    <tag k="maxspeed" v="70 mph"/>
    <tag k="national_highways:area" v="8"/>
    <tag k="oneway" v="yes"/>
    <tag k="operator" v="National Highways"/>
    <tag k="operator:wikidata" v="Q5760006"/>
    <tag k="ref" v="M11"/>
    <tag k="source:lit" v="2010-12-07"/>
    <tag k="source:ref" v="local knowledge"/>
    <tag k="surface" v="asphalt"/>
  </way>
  <way id="5236359" version="24" timestamp="2022-10-30T20:02:11Z" changeset="128261539" uid="3560" user="Firefishy">
    <nd ref="36743539"/>
    <nd ref="7024288898"/>
    <nd ref="231530"/>
    <nd ref="9520266023"/>
    <nd ref="260283336"/>
    <nd ref="7024288900"/>
    <nd ref="260283494"/>
    <nd ref="7024288896"/>
    <nd ref="231527"/>
    <tag k="carriageway_ref" v="A"/>
    <tag k="description" v="Cambridge Western Bypass"/>
    <tag k="highway" v="motorway"/>
    <tag k="lanes" v="2"/>
    <tag k="lit" v="no"/>
    <tag k="maxheight" v="default"/>
    <tag k="maxspeed" v="70 mph"/>
    <tag k="national_highways:area" v="8"/>
    <tag k="oneway" v="yes"/>
    <tag k="operator" v="National Highways"/>
    <tag k="operator:wikidata" v="Q5760006"/>
    <tag k="ref" v="M11"/>
    <tag k="source:lit" v="2010-12-07"/>
    <tag k="source:ref" v="local knowledge"/>
    <tag k="surface" v="asphalt"/>
  </way>
  <way id="5236370" version="26" timestamp="2023-09-10T10:12:58Z" changeset="141055808" uid="664409" user="cmh_germany">
    <nd ref="1698547726"/>
    <nd ref="367855024"/>
    <nd ref="280368135"/>
    <nd ref="3465721420"/>
    <nd ref="5296752149"/>
    <nd ref="5296752147"/>
    <nd ref="3465721425"/>
    <nd ref="367861098"/>
    <nd ref="21076391"/>
    <nd ref="3465721426"/>
    <nd ref="3465721419"/>
    <nd ref="21076392"/>
    <nd ref="3465721423"/>
    <tag k="highway" v="primary"/>
    <tag k="lanes" v="2"/>
    <tag k="lit" v="no"/>
    <tag k="maxspeed" v="60 mph"/>
    <tag k="maxspeed:type" v="GB:nsl_single"/>
    <tag k="name" v="Cambridge Road"/>
    <tag k="ref" v="A603"/>
    <tag k="smoothness" v="good"/>
    <tag k="surface" v="asphalt"/>
  </way>
  <way id="8113870" version="7" timestamp="2023-03-29T09:32:16Z" changeset="134254431" uid="742701" user="kerr smith">
    <nd ref="5276241"/>
    <nd ref="6029985826"/>
    <nd ref="5276242"/>
    <nd ref="8668545981"/>
    <nd ref="1290474430"/>
    <nd ref="1471323045"/>
    <nd ref="1290474440"/>
    <nd ref="10770514519"/>
    <nd ref="5276244"/>
    <tag k="highway" v="tertiary"/>
    <tag k="name" v="Harlton Road"/>
  </way>
  <way id="32663734" version="10" timestamp="2020-02-22T13:16:59Z" changeset="81345700" uid="115894" user="DaveF">
    <nd ref="367057015"/>
    <nd ref="367057008"/>
    <nd ref="367057009"/>
    <nd ref="367057011"/>
    <nd ref="367057012"/>
    <nd ref="367057014"/>
    <nd ref="367057015"/>
    <tag k="building" v="university"/>
    <tag k="man_made" v="telescope"/>
    <tag k="name" v="Arcminute Microkelvin Imager (AMI) small array"/>
    <tag k="operator" v="University of Cambridge"/>
    <tag k="ref" v="R016"/>
    <tag k="telescope:type" v="radio"/>
    <tag k="url" v="http://www.mrao.cam.ac.uk/telescopes/"/>
    <tag k="wikidata" v="Q4787411"/>
  </way>
  <way id="32682212" version="9" timestamp="2021-01-30T21:46:15Z" changeset="98430380" uid="1102246" user="jtn20">
    <nd ref="371249822"/>
    <nd ref="371249823"/>
    <nd ref="371249824"/>
    <nd ref="371249825"/>
    <nd ref="371249826"/>
    <nd ref="371249827"/>
    <nd ref="371249828"/>
    <nd ref="371249829"/>
    <nd ref="371249822"/>
    <tag k="building" v="yes"/>
    <tag k="disused" v="yes"/>
    <tag k="man_made" v="telescope"/>
    <tag k="name" v="MRAO One-Mile Telescope"/>
    <tag k="operator" v="University of Cambridge"/>
    <tag k="ref" v="R017"/>
    <tag k="telescope:type" v="radio"/>
    <tag k="url" v="http://www.mrao.cam.ac.uk/telescopes/"/>
    <tag k="wikidata" v="Q1960708"/>
    <tag k="wikipedia" v="en:One-Mile Telescope"/>
  </way>
  <way id="32682214" version="9" timestamp="2021-01-30T21:46:15Z" changeset="98430380" uid="1102246" user="jtn20">
    <nd ref="367043427"/>
    <nd ref="367766461"/>
    <nd ref="367766462"/>
    <nd ref="367766465"/>
    <nd ref="368186946"/>
    <nd ref="367043427"/>
    <tag k="building" v="university"/>
    <tag k="man_made" v="telescope"/>
    <tag k="name" v="MRAO C.O.A.S.T. Cambridge Optical Aperture Synthesis Telescope"/>
    <tag k="operator" v="University of Cambridge"/>
    <tag k="ref" v="R038"/>
    <tag k="telescope:type" v="radio"/>
    <tag k="url" v="http://www.mrao.cam.ac.uk/telescopes/"/>
    <tag k="wikidata" v="Q912398"/>
    <tag k="wikipedia" v="en:Cambridge Optical Aperture Synthesis Telescope"/>
  </way>
  <way id="32696388" version="4" timestamp="2025-04-21T13:47:47Z" changeset="165240889" uid="104519" user="Rupert Swarbrick">
    <nd ref="367922690"/>
    <nd ref="30780599"/>
    <tag k="embankment" v="yes"/>
    <tag k="highway" v="tertiary"/>
    <tag k="lanes" v="2"/>
    <tag k="name" v="Barton Road"/>
    <tag k="source" v="GPS"/>
    <tag k="surface" v="asphalt"/>
  </way>
  <way id="32696389" version="6" timestamp="2025-04-21T13:46:44Z" changeset="165240889" uid="104519" user="Rupert Swarbrick">
    <nd ref="367922691"/>
    <nd ref="369794908"/>
    <nd ref="33130263"/>
    <tag k="abutters" v="residential"/>
    <tag k="highway" v="tertiary"/>
    <tag k="lanes" v="2"/>
    <tag k="name" v="Haslingfield Road"/>
    <tag k="source" v="GPS"/>
    <tag k="surface" v="asphalt"/>
  </way>
  <way id="32723717" version="10" timestamp="2021-04-16T21:04:54Z" changeset="103081045" uid="242345" user="confusedbuffalo">
    <nd ref="25710024"/>
    <nd ref="6029985838"/>
    <nd ref="25710025"/>
    <nd ref="6029985837"/>
    <nd ref="25710026"/>
    <nd ref="6029985836"/>
    <nd ref="25710027"/>
    <nd ref="25710029"/>
    <nd ref="25710030"/>
    <nd ref="368223838"/>
    <nd ref="443648806"/>
    <tag k="fixme" v="Where's the overtaking ban between? Where does the south side of the hill begin and end?"/>
    <tag k="highway" v="tertiary"/>
    <tag k="maxspeed" v="60 mph"/>
    <tag k="maxspeed:type" v="GB:nsl_single"/>
    <tag k="name" v="Chapel Hill"/>
    <tag k="source:name" v="dictaphone"/>
  </way>
  <way id="42287037" version="4" timestamp="2010-02-02T20:22:08Z" changeset="3778678" uid="21502" user="Kevin Steinhardt">
    <nd ref="25710034"/>
    <nd ref="626948049"/>
    <tag k="highway" v="tertiary"/>
    <tag k="maxspeed" v="30 mph"/>
    <tag k="name" v="Chapel Hill"/>
    <tag k="source:name" v="dictaphone"/>
  </way>
  <way id="47429617" version="8" timestamp="2020-09-17T10:55:13Z" changeset="91041863" uid="10252542" user="karmsudi">
    <nd ref="32639057"/>
    <nd ref="1200541290"/>
    <nd ref="7510196317"/>
    <nd ref="7510196312"/>
    <nd ref="7916697715"/>
    <nd ref="7510196313"/>
    <nd ref="7510196314"/>
    <nd ref="603682210"/>
    <tag k="highway" v="tertiary"/>
    <tag k="name" v="Haslingfield Road"/>
  </way>
  <way id="47429619" version="3" timestamp="2012-07-08T18:51:24Z" changeset="12153390" uid="714383" user="alterain">
    <nd ref="33129189"/>
    <nd ref="32639057"/>
    <tag k="bridge" v="yes"/>
    <tag k="highway" v="tertiary"/>
    <tag k="lanes" v="1"/>
    <tag k="layer" v="2"/>
    <tag k="surface" v="asphalt"/>
  </way>
  <way id="49363450" version="10" timestamp="2024-01-20T15:10:58Z" changeset="146482480" uid="742701" user="kerr smith">
    <nd ref="626939542"/>
    <nd ref="602592994"/>
    <nd ref="602592996"/>
    <nd ref="602593003"/>
    <nd ref="602593005"/>
    <nd ref="626939546"/>
    <nd ref="257930167"/>
    <nd ref="257930168"/>
    <nd ref="602593010"/>
    <nd ref="33129505"/>
    <nd ref="602593013"/>
    <nd ref="33129504"/>
    <nd ref="602593015"/>
    <nd ref="602593017"/>
    <nd ref="33129500"/>
    <nd ref="257931049"/>
    <nd ref="1200534568"/>
    <nd ref="33129499"/>
    <nd ref="626491008"/>
    <nd ref="626491009"/>
    <nd ref="33129498"/>
    <nd ref="33129497"/>
    <nd ref="626491010"/>
    <nd ref="320915791"/>
    <nd ref="626491011"/>
    <nd ref="320915792"/>
    <nd ref="626491012"/>
    <nd ref="33129496"/>
    <nd ref="626491013"/>
    <nd ref="626491014"/>
    <nd ref="33129495"/>
    <nd ref="3619180234"/>
    <nd ref="33129494"/>
    <nd ref="3619213043"/>
    <nd ref="33129493"/>
    <nd ref="11534089181"/>
    <nd ref="2069485116"/>
    <nd ref="11534089096"/>
    <nd ref="626982857"/>
    <nd ref="11534089094"/>
    <nd ref="626982859"/>
    <nd ref="626982861"/>
    <nd ref="33129830"/>
    <tag k="highway" v="unclassified"/>
    <tag k="maxspeed" v="60 mph"/>
    <tag k="maxspeed:type" v="GB:nsl_single"/>
    <tag k="name" v="Cantelupe Road"/>
    <tag k="note:surface" v="A bit potholey, but no worse than most other public roads"/>
    <tag k="source:name" v="local knowledge"/>
    <tag k="surface" v="paved"/>
  </way>
  <way id="49363451" version="2" timestamp="2014-10-15T17:45:11Z" changeset="26101362" uid="91225" user="tms13">
    <nd ref="602592992"/>
    <nd ref="626939542"/>
    <tag k="bridge" v="yes"/>
    <tag k="highway" v="unclassified"/>
    <tag k="layer" v="1"/>
    <tag k="maxspeed" v="60 mph"/>
    <tag k="maxspeed:type" v="GB:nsl_single"/>
    <tag k="name" v="Cantelupe Road"/>
    <tag k="source:name" v="local knowledge"/>
  </way>
  <way id="49364044" version="10" timestamp="2021-04-18T20:45:43Z" changeset="103153718" uid="12661527" user="Kartenkarsten714">
    <nd ref="626948049"/>
    <nd ref="25710033"/>
    <nd ref="614482268"/>
    <nd ref="6029985834"/>
    <nd ref="6029985835"/>
    <nd ref="368223834"/>
    <nd ref="8641604565"/>
    <nd ref="25710032"/>
    <nd ref="368223833"/>
    <nd ref="443648806"/>
    <tag k="cycleway:both" v="no"/>
    <tag k="highway" v="tertiary"/>
    <tag k="incline" v="10%"/>
    <tag k="lanes" v="2"/>
    <tag k="maxspeed" v="60 mph"/>
    <tag k="maxspeed:type" v="GB:nsl_single"/>
    <tag k="name" v="Chapel Hill"/>
    <tag k="source:incline" v="traffic_sign"/>
    <tag k="source:name" v="dictaphone"/>
    <tag k="surface" v="asphalt"/>
  </way>
  <way id="54180804" version="4" timestamp="2022-01-01T13:21:38Z" changeset="115636051" uid="8661831" user="Colin_Jones">
    <nd ref="683417621"/>
    <nd ref="683417623"/>
    <nd ref="9383549292"/>
    <nd ref="9383549291"/>
    <nd ref="683417630"/>
    <nd ref="683417629"/>
    <nd ref="9383549290"/>
    <nd ref="9383549294"/>
    <nd ref="9383549293"/>
    <nd ref="683417621"/>
    <tag k="amenity" v="community_centre"/>
    <tag k="building" v="public"/>
    <tag k="community_centre" v="village_hall"/>
    <tag k="name" v="Haslingfield Village Hall"/>
  </way>
  <way id="55463013" version="3" timestamp="2017-09-05T11:52:09Z" changeset="51747512" uid="493595" user="Yorvik Prestigitator">
    <nd ref="603682512"/>
    <nd ref="697037558"/>
    <nd ref="697037559"/>
    <nd ref="603682515"/>
    <nd ref="5276214"/>
    <nd ref="33129190"/>
    <nd ref="33129823"/>
    <nd ref="5081396890"/>
    <nd ref="33129191"/>
    <nd ref="5081399123"/>
    <nd ref="5276216"/>
    <nd ref="21098269"/>
    <nd ref="5081396880"/>
    <nd ref="33129192"/>
    <tag k="highway" v="tertiary"/>
    <tag k="name" v="Harston Road"/>
  </way>
  <way id="55463014" version="4" timestamp="2017-09-05T11:51:06Z" changeset="51747512" uid="493595" user="Yorvik Prestigitator">
    <nd ref="33129193"/>
    <nd ref="5081396885"/>
    <nd ref="4988369944"/>
    <nd ref="33129549"/>
    <nd ref="5276238"/>
    <nd ref="5276221"/>
    <nd ref="33129194"/>
    <nd ref="33129548"/>
    <nd ref="5081396887"/>
    <nd ref="5276222"/>
    <nd ref="33129195"/>
    <nd ref="33129196"/>
    <nd ref="5276224"/>
    <tag k="abutters" v="residential"/>
    <tag k="highway" v="tertiary"/>
    <tag k="name" v="High Street"/>
    <tag k="source:name" v="dictaphone"/>
  </way>
  <way id="55493445" version="5" timestamp="2018-11-01T15:29:25Z" changeset="64082872" uid="1257159" user="Jean-Pierre Rondeau">
    <nd ref="5276232"/>
    <nd ref="6029985828"/>
    <nd ref="5856954132"/>
    <nd ref="33129201"/>
    <nd ref="5276233"/>
    <nd ref="2313649424"/>
    <nd ref="5276235"/>
    <nd ref="1830308990"/>
    <nd ref="5276236"/>
    <nd ref="2313649423"/>
    <nd ref="2313649432"/>
    <tag k="abutters" v="residential"/>
    <tag k="highway" v="tertiary"/>
    <tag k="name" v="Church Street"/>
  </way>
  <way id="55493446" version="12" timestamp="2024-01-20T15:10:58Z" changeset="146482480" uid="742701" user="kerr smith">
    <nd ref="30779882"/>
    <nd ref="30779886"/>
    <nd ref="11521842516"/>
    <nd ref="30779892"/>
    <nd ref="30779898"/>
    <nd ref="33129446"/>
    <nd ref="30779930"/>
    <nd ref="5856953535"/>
    <nd ref="30779937"/>
    <nd ref="3001204114"/>
    <nd ref="30779953"/>
    <nd ref="2579189695"/>
    <nd ref="30779960"/>
    <nd ref="30779964"/>
    <nd ref="2313649430"/>
    <nd ref="7146376338"/>
    <nd ref="30779968"/>
    <nd ref="5856953036"/>
    <nd ref="30779983"/>
    <nd ref="30779991"/>
    <nd ref="2313649426"/>
    <nd ref="8643648853"/>
    <nd ref="7918855637"/>
    <nd ref="30780008"/>
    <nd ref="30780015"/>
    <nd ref="8254091243"/>
    <nd ref="30780035"/>
    <nd ref="30780044"/>
    <nd ref="368223781"/>
    <nd ref="4945670367"/>
    <nd ref="2313649428"/>
    <nd ref="30780058"/>
    <nd ref="2313649429"/>
    <nd ref="368223782"/>
    <nd ref="30780072"/>
    <nd ref="30780075"/>
    <nd ref="5276237"/>
    <tag k="highway" v="residential"/>
    <tag k="name" v="New Road"/>
    <tag k="source:name" v="dictaphone"/>
  </way>
  <way id="55493447" version="7" timestamp="2025-04-21T13:58:18Z" changeset="165240889" uid="104519" user="Rupert Swarbrick">
    <nd ref="25710034"/>
    <nd ref="5081396889"/>
    <nd ref="5276229"/>
    <nd ref="4988369946"/>
    <nd ref="33129198"/>
    <nd ref="33129199"/>
    <nd ref="7457366275"/>
    <nd ref="6029985832"/>
    <nd ref="5276240"/>
    <nd ref="33129200"/>
    <nd ref="5276231"/>
    <nd ref="6029985829"/>
    <nd ref="5276232"/>
    <tag k="abutters" v="residential"/>
    <tag k="highway" v="tertiary"/>
    <tag k="lanes" v="2"/>
    <tag k="name" v="Church Street"/>
    <tag k="surface" v="asphalt"/>
  </way>
  <way id="55493448" version="2" timestamp="2017-09-05T11:51:07Z" changeset="51747512" uid="493595" user="Yorvik Prestigitator">
    <nd ref="5276224"/>
    <nd ref="5081396891"/>
    <nd ref="30498524"/>
    <nd ref="5276225"/>
    <nd ref="33129197"/>
    <nd ref="368223831"/>
    <nd ref="5081396881"/>
    <nd ref="5276226"/>
    <nd ref="30498523"/>
    <tag k="abutters" v="residential"/>
    <tag k="highway" v="tertiary"/>
    <tag k="name" v="High Street"/>
    <tag k="source:name" v="dictaphone"/>
  </way>
  <way id="97253020" version="5" timestamp="2020-05-12T08:55:09Z" changeset="85073832" uid="322785" user="BCNorwich">
    <nd ref="603682210"/>
    <nd ref="7510196306"/>
    <nd ref="7510196304"/>
    <nd ref="7510196303"/>
    <nd ref="7510196305"/>
    <nd ref="6318772027"/>
    <nd ref="7128574040"/>
    <nd ref="603682460"/>
    <nd ref="697037560"/>
    <nd ref="697037561"/>
    <nd ref="697037562"/>
    <nd ref="697037563"/>
    <nd ref="697037564"/>
    <nd ref="603682434"/>
    <nd ref="603682512"/>
    <tag k="highway" v="tertiary"/>
    <tag k="name" v="Harston Road"/>
  </way>
  <way id="172036264" version="6" timestamp="2024-10-28T22:53:56Z" changeset="158476924" uid="6476359" user="NSiecw">
    <nd ref="1829859920"/>
    <nd ref="1829859817"/>
    <nd ref="1829859808"/>
    <nd ref="1829859811"/>
    <nd ref="1829859917"/>
    <nd ref="1829859847"/>
    <nd ref="1829859799"/>
    <nd ref="1829859857"/>
    <nd ref="1829859826"/>
    <nd ref="1829859818"/>
    <nd ref="1829859886"/>
    <nd ref="1829859827"/>
    <nd ref="1829859889"/>
    <nd ref="1829859837"/>
    <nd ref="1829859855"/>
    <nd ref="1829859824"/>
    <nd ref="1829859838"/>
    <nd ref="1829859830"/>
    <nd ref="1829859877"/>
    <nd ref="1829859845"/>
    <nd ref="1829859920"/>
    <tag k="addr:city" v="Cambridge"/>
    <tag k="addr:housename" v="All Saints Church"/>
    <tag k="addr:postcode" v="CB23 1JR"/>
    <tag k="addr:street" v="Church Way"/>
    <tag k="addr:village" v="Haslingfield"/>
    <tag k="amenity" v="place_of_worship"/>
    <tag k="building" v="church"/>
    <tag k="denomination" v="anglican"/>
    <tag k="name" v="All Saints' (Haslingfield Parish Church)"/>
    <tag k="ref:dove" v="14663"/>
    <tag k="religion" v="christian"/>
    <tag k="wikidata" v="Q17528257"/>
  </way>
  <way id="222397618" version="1" timestamp="2013-05-20T21:58:48Z" changeset="16217039" uid="90142" user="andy mackey">
    <nd ref="2313649432"/>
    <nd ref="5276237"/>
    <tag k="abutters" v="residential"/>
    <tag k="highway" v="tertiary"/>
    <tag k="name" v="Church Street"/>
  </way>
  <way id="251016903" version="3" timestamp="2016-07-11T20:14:24Z" changeset="40664702" uid="242345" user="confusedbuffalo">
    <nd ref="2573172756"/>
    <nd ref="2573172750"/>
    <nd ref="2573172730"/>
    <nd ref="2573172732"/>
    <nd ref="2573172743"/>
    <nd ref="2573172737"/>
    <nd ref="2573172742"/>
    <nd ref="2573172745"/>
    <nd ref="2573172740"/>
    <nd ref="2573172729"/>
    <nd ref="2573172756"/>
    <tag k="amenity" v="place_of_worship"/>
    <tag k="building" v="church"/>
    <tag k="denomination" v="methodist"/>
    <tag k="name" v="Haslingfield Methodist Church"/>
    <tag k="religion" v="christian"/>
    <tag k="source" v="Bing"/>
    <tag k="source:name" v="dictaphone"/>
  </way>
  <way id="251736434" version="1" timestamp="2013-12-14T10:30:28Z" changeset="19446009" uid="2020" user="comsomol">
    <nd ref="30779983"/>
    <nd ref="33129457"/>
    <nd ref="33129459"/>
    <tag k="highway" v="residential"/>
    <tag k="name" v="The Meadows"/>
    <tag k="source:name" v="dictaphone"/>
  </way>
  <way id="296333002" version="3" timestamp="2024-03-07T22:42:27Z" changeset="148362850" uid="5173844" user="ndrw6">
    <nd ref="3001204114"/>
    <nd ref="11702279255"/>
    <nd ref="3001204115"/>
    <nd ref="3001204116"/>
    <tag k="highway" v="residential"/>
    <tag k="maxspeed" v="30 mph"/>
    <tag k="name" v="Watsons Yard"/>
    <tag k="surface" v="asphalt"/>
  </way>
  <way id="331572621" version="2" timestamp="2022-01-16T08:08:54Z" changeset="116205419" uid="8661831" user="Colin_Jones">
    <nd ref="3386506980"/>
    <nd ref="3386506981"/>
    <nd ref="3386506982"/>
    <nd ref="3386506983"/>
    <nd ref="3386506980"/>
    <tag k="addr:housenumber" v="25"/>
    <tag k="addr:street" v="The Elms"/>
    <tag k="addr:village" v="Haslingfield"/>
    <tag k="building" v="house"/>
  </way>
  <way id="331572622" version="2" timestamp="2022-01-16T08:08:54Z" changeset="116205419" uid="8661831" user="Colin_Jones">
    <nd ref="3386506984"/>
    <nd ref="3386506985"/>
    <nd ref="3386506986"/>
    <nd ref="3386506987"/>
    <nd ref="3386506984"/>
    <tag k="addr:housenumber" v="27"/>
    <tag k="addr:street" v="The Elms"/>
    <tag k="addr:village" v="Haslingfield"/>
    <tag k="building" v="house"/>
  </way>
  <way id="331684002" version="1" timestamp="2015-03-07T15:47:23Z" changeset="29310891" uid="1952553" user="Matthew Law">
    <nd ref="3387835604"/>
    <nd ref="3387835605"/>
    <tag k="highway" v="residential"/>
    <tag k="name" v="The Elms"/>
  </way>
  <way id="338809338" version="2" timestamp="2024-10-28T20:59:51Z" changeset="158474125" uid="10633286" user="Moorit">
    <nd ref="3459521325"/>
    <nd ref="3459521330"/>
    <nd ref="3459521328"/>
    <nd ref="3459521329"/>
    <nd ref="3459521326"/>
    <nd ref="3459521327"/>
    <nd ref="3459521325"/>
    <tag k="addr:city" v="Cambridge"/>
    <tag k="addr:housenumber" v="41A - 41 42"/>
    <tag k="addr:postcode" v="CB23 1JU"/>
    <tag k="addr:street" v="Chestnut Close"/>
    <tag k="building" v="house"/>
  </way>
  <way id="338813349" version="2" timestamp="2025-02-27T21:44:16Z" changeset="163029622" uid="10633286" user="Moorit">
    <nd ref="3459560588"/>
    <nd ref="3459560589"/>
    <nd ref="3459560590"/>
    <nd ref="3459560591"/>
    <nd ref="3459560592"/>
    <nd ref="3459560693"/>
    <nd ref="3459560588"/>
    <tag k="addr:city" v="Cambridge"/>
    <tag k="addr:housenumber" v="5 - 6"/>
    <tag k="addr:postcode" v="CB23 1JU"/>
    <tag k="addr:street" v="Chestnut Close"/>
    <tag k="building" v="house"/>
  </way>
  <way id="338813352" version="4" timestamp="2024-10-28T20:59:51Z" changeset="158474125" uid="10633286" user="Moorit">
    <nd ref="3459560706"/>
    <nd ref="3459560707"/>
    <nd ref="3459560708"/>
    <nd ref="3459560709"/>
    <nd ref="3459560706"/>
    <tag k="addr:city" v="Cambridge"/>
    <tag k="addr:housenumber" v="23 - 24"/>
    <tag k="addr:postcode" v="CB23 1JU"/>
    <tag k="addr:street" v="Chestnut Close"/>
    <tag k="addr:village" v="Haslingfield"/>
    <tag k="building" v="house"/>
  </way>
  <way id="338813353" version="2" timestamp="2024-10-28T20:59:51Z" changeset="158474125" uid="10633286" user="Moorit">
    <nd ref="3459560710"/>
    <nd ref="3459560711"/>
    <nd ref="3459560712"/>
    <nd ref="3459560713"/>
    <nd ref="3459560710"/>
    <tag k="addr:city" v="Cambridge"/>
    <tag k="addr:housenumber" v="25 - 28"/>
    <tag k="addr:postcode" v="CB23 1JU"/>
    <tag k="addr:street" v="Chestnut Close"/>
    <tag k="building" v="terrace"/>
  </way>
  <way id="338813354" version="2" timestamp="2024-10-28T20:59:51Z" changeset="158474125" uid="10633286" user="Moorit">
    <nd ref="3459560714"/>
    <nd ref="3459560715"/>
    <nd ref="3459560716"/>
    <nd ref="3459560717"/>
    <nd ref="3459560714"/>
    <tag k="addr:city" v="Cambridge"/>
    <tag k="addr:housenumber" v="29 - 33"/>
    <tag k="addr:postcode" v="CB23 1JU"/>
    <tag k="addr:street" v="Chestnut Close"/>
    <tag k="building" v="terrace"/>
  </way>
  <way id="338813355" version="2" timestamp="2024-10-28T20:59:51Z" changeset="158474125" uid="10633286" user="Moorit">
    <nd ref="3459560718"/>
    <nd ref="3459560719"/>
    <nd ref="3459560720"/>
    <nd ref="3459560721"/>
    <nd ref="3459560718"/>
    <tag k="addr:city" v="Cambridge"/>
    <tag k="addr:housenumber" v="34 -35"/>
    <tag k="addr:postcode" v="CB23 1JU"/>
    <tag k="addr:street" v="Chestnut Close"/>
    <tag k="building" v="house"/>
  </way>
  <way id="338813356" version="2" timestamp="2024-10-28T20:59:51Z" changeset="158474125" uid="10633286" user="Moorit">
    <nd ref="3459560722"/>
    <nd ref="3459560723"/>
    <nd ref="3459560724"/>
    <nd ref="3459560725"/>
    <nd ref="3459560722"/>
    <tag k="addr:city" v="Cambridge"/>
    <tag k="addr:housenumber" v="36 - 40"/>
    <tag k="addr:postcode" v="CB23 1JU"/>
    <tag k="addr:street" v="Chestnut Close"/>
    <tag k="building" v="house"/>
  </way>
  <way id="340472053" version="2" timestamp="2023-06-06T21:50:09Z" changeset="137032797" uid="10633286" user="Moorit">
    <nd ref="3477053650"/>
    <nd ref="3477053651"/>
    <nd ref="3477053652"/>
    <nd ref="3477053653"/>
    <nd ref="3477053650"/>
    <tag k="addr:city" v="Cambridge"/>
    <tag k="addr:housenumber" v="7"/>
    <tag k="addr:postcode" v="CB23 1LU"/>
    <tag k="addr:street" v="New Road"/>
    <tag k="building" v="house"/>
  </way>
  <way id="340472054" version="2" timestamp="2023-06-06T21:50:09Z" changeset="137032797" uid="10633286" user="Moorit">
    <nd ref="3477053654"/>
    <nd ref="3477053655"/>
    <nd ref="3477053656"/>
    <nd ref="3477053657"/>
    <nd ref="3477053654"/>
    <tag k="addr:city" v="Cambridge"/>
    <tag k="addr:housenumber" v="11"/>
    <tag k="addr:postcode" v="CB23 1LU"/>
    <tag k="addr:street" v="New Road"/>
    <tag k="building" v="house"/>
  </way>
  <way id="340472062" version="5" timestamp="2019-03-07T16:18:15Z" changeset="67889365" uid="281267" user="smb1001">
    <nd ref="5232746497"/>
    <nd ref="3477053998"/>
    <nd ref="33129827"/>
    <nd ref="3477053999"/>
    <nd ref="5232746497"/>
    <tag k="addr:housenumber" v="2"/>
    <tag k="addr:postcode" v="CB23 1LT"/>
    <tag k="addr:street" v="Fountain Lane"/>
    <tag k="building" v="yes"/>
    <tag k="name" v="Village Shop and Post Office"/>
    <tag k="shop" v="convenience"/>
  </way>
  <way id="340472063" version="4" timestamp="2023-08-18T15:03:00Z" changeset="140062125" uid="1287673" user="sloerunner">
    <nd ref="3477054001"/>
    <nd ref="3477054002"/>
    <nd ref="3477054003"/>
    <nd ref="3477054004"/>
    <nd ref="3477054005"/>
    <nd ref="3477054006"/>
    <nd ref="3477054007"/>
    <nd ref="3477054008"/>
    <nd ref="3477054001"/>
    <tag k="addr:postcode" v="CB23 1JT"/>
    <tag k="amenity" v="restaurant"/>
    <tag k="building" v="yes"/>
    <tag k="cuisine" v="indian"/>
    <tag k="name" v="House of Spice"/>
    <tag k="old_name" v="The Little Rose"/>
    <tag k="takeaway" v="yes"/>
    <tag k="website" v="https://houseofspicecambridge.co.uk/"/>
  </way>
  <way id="344266178" version="2" timestamp="2024-03-17T18:50:05Z" changeset="148785989" uid="10633286" user="Moorit">
    <nd ref="3510052318"/>
    <nd ref="3510052319"/>
    <nd ref="3510052320"/>
    <nd ref="3510052321"/>
    <nd ref="3510052322"/>
    <nd ref="3510052323"/>
    <nd ref="3510052324"/>
    <nd ref="3510052325"/>
    <nd ref="3510052326"/>
    <nd ref="3510052327"/>
    <nd ref="3510052328"/>
    <nd ref="3510052329"/>
    <nd ref="3510052318"/>
    <tag k="addr:housenumber" v="54a"/>
    <tag k="addr:street" v="High Street"/>
    <tag k="building" v="terrace"/>
  </way>
  <way id="344274083" version="2" timestamp="2024-01-28T21:35:27Z" changeset="146796090" uid="10633286" user="Moorit">
    <nd ref="3510130205"/>
    <nd ref="3510130206"/>
    <nd ref="3510130207"/>
    <nd ref="3510130208"/>
    <nd ref="3510130205"/>
    <tag k="addr:housenumber" v="15 - 16"/>
    <tag k="addr:street" v="Chestnut Close"/>
    <tag k="building" v="house"/>
  </way>
  <way id="344274084" version="2" timestamp="2024-01-28T21:35:27Z" changeset="146796090" uid="10633286" user="Moorit">
    <nd ref="3510130209"/>
    <nd ref="3510130210"/>
    <nd ref="3510130211"/>
    <nd ref="3510130212"/>
    <nd ref="3510130209"/>
    <tag k="addr:housenumber" v="17 - 18"/>
    <tag k="addr:street" v="Chestnut Close"/>
    <tag k="building" v="house"/>
  </way>
  <way id="353240410" version="2" timestamp="2023-06-06T21:50:09Z" changeset="137032797" uid="10633286" user="Moorit">
    <nd ref="3590200654"/>
    <nd ref="3590200655"/>
    <nd ref="3590200656"/>
    <nd ref="3590200657"/>
    <nd ref="3590200658"/>
    <nd ref="3590200659"/>
    <nd ref="3590200654"/>
    <tag k="addr:city" v="Cambridge"/>
    <tag k="addr:housenumber" v="46"/>
    <tag k="addr:postcode" v="CB23 1LU"/>
    <tag k="addr:street" v="Cantelupe Road"/>
    <tag k="building" v="house"/>
  </way>
  <way id="353240411" version="2" timestamp="2024-03-17T18:50:05Z" changeset="148785989" uid="10633286" user="Moorit">
    <nd ref="3590200660"/>
    <nd ref="3590200661"/>
    <nd ref="3590200662"/>
    <nd ref="3590200663"/>
    <nd ref="3590200660"/>
    <tag k="addr:housenumber" v="48"/>
    <tag k="addr:street" v="Cantelupe Road"/>
    <tag k="building" v="house"/>
  </way>
  <way id="353240413" version="2" timestamp="2024-03-17T18:50:05Z" changeset="148785989" uid="10633286" user="Moorit">
    <nd ref="3590200664"/>
    <nd ref="3590200665"/>
    <nd ref="3590200666"/>
    <nd ref="3590200667"/>
    <nd ref="3590200668"/>
    <nd ref="3590200669"/>
    <nd ref="3590200664"/>
    <tag k="addr:housenumber" v="50"/>
    <tag k="addr:street" v="Cantelupe Road"/>
    <tag k="building" v="house"/>
  </way>
  <way id="353240414" version="2" timestamp="2024-03-17T18:50:05Z" changeset="148785989" uid="10633286" user="Moorit">
    <nd ref="3590200670"/>
    <nd ref="3590200671"/>
    <nd ref="3590200672"/>
    <nd ref="3590200673"/>
    <nd ref="3590200670"/>
    <tag k="addr:housenumber" v="52"/>
    <tag k="addr:street" v="Cantelupe Road"/>
    <tag k="building" v="house"/>
  </way>
  <way id="353240416" version="2" timestamp="2024-03-17T18:50:05Z" changeset="148785989" uid="10633286" user="Moorit">
    <nd ref="3590200674"/>
    <nd ref="3590200675"/>
    <nd ref="3590200676"/>
    <nd ref="3590200677"/>
    <nd ref="3590200674"/>
    <tag k="addr:housenumber" v="54"/>
    <tag k="addr:street" v="Cantelupe Road"/>
    <tag k="building" v="house"/>
  </way>
  <way id="353240418" version="2" timestamp="2021-03-25T18:30:02Z" changeset="101739338" uid="10633286" user="Moorit">
    <nd ref="3590200678"/>
    <nd ref="3590200679"/>
    <nd ref="3590200680"/>
    <nd ref="3590200681"/>
    <nd ref="3590200678"/>
    <tag k="addr:housenumber" v="2"/>
    <tag k="addr:street" v="Moss Drive"/>
    <tag k="building" v="house"/>
  </way>
  <way id="353240419" version="2" timestamp="2021-03-25T18:30:02Z" changeset="101739338" uid="10633286" user="Moorit">
    <nd ref="3590200682"/>
    <nd ref="3590200683"/>
    <nd ref="3590200684"/>
    <nd ref="3590200685"/>
    <nd ref="3590200682"/>
    <tag k="addr:housenumber" v="4"/>
    <tag k="addr:street" v="Moss Drive"/>
    <tag k="building" v="house"/>
  </way>
  <way id="353240420" version="2" timestamp="2021-03-25T18:30:02Z" changeset="101739338" uid="10633286" user="Moorit">
    <nd ref="3590200686"/>
    <nd ref="3590200687"/>
    <nd ref="3590200688"/>
    <nd ref="3590200689"/>
    <nd ref="3590200690"/>
    <nd ref="3590200691"/>
    <nd ref="3590200686"/>
    <tag k="addr:housenumber" v="6"/>
    <tag k="addr:street" v="Moss Drive"/>
    <tag k="building" v="house"/>
  </way>
  <way id="353240422" version="2" timestamp="2021-03-25T18:30:02Z" changeset="101739338" uid="10633286" user="Moorit">
    <nd ref="3590200692"/>
    <nd ref="3590204293"/>
    <nd ref="3590204294"/>
    <nd ref="3590204295"/>
    <nd ref="3590200692"/>
    <tag k="addr:housenumber" v="8"/>
    <tag k="addr:street" v="Moss Drive"/>
    <tag k="building" v="house"/>
  </way>
  <way id="360148866" version="2" timestamp="2023-06-06T21:50:09Z" changeset="137032797" uid="10633286" user="Moorit">
    <nd ref="3647526914"/>
    <nd ref="3647526915"/>
    <nd ref="3647526916"/>
    <nd ref="3647526917"/>
    <nd ref="3647526918"/>
    <nd ref="3647526919"/>
    <nd ref="3647526920"/>
    <nd ref="3647526921"/>
    <nd ref="3647526914"/>
    <tag k="addr:housenumber" v="19"/>
    <tag k="addr:street" v="Cantelupe Road"/>
    <tag k="building" v="house"/>
  </way>
  <way id="360148867" version="4" timestamp="2023-06-06T21:50:09Z" changeset="137032797" uid="10633286" user="Moorit">
    <nd ref="3647526922"/>
    <nd ref="3647526923"/>
    <nd ref="3647526924"/>
    <nd ref="3647526925"/>
    <nd ref="3647526926"/>
    <nd ref="3647526927"/>
    <nd ref="3647526928"/>
    <nd ref="3647526929"/>
    <nd ref="3647526922"/>
    <tag k="addr:city" v="Cambridge"/>
    <tag k="addr:housenumber" v="17"/>
    <tag k="addr:postcode" v="CB23 1LU"/>
    <tag k="addr:street" v="Cantelupe Road"/>
    <tag k="addr:village" v="Haslingfield"/>
    <tag k="building" v="house"/>
  </way>
  <way id="360148868" version="2" timestamp="2023-06-06T21:50:09Z" changeset="137032797" uid="10633286" user="Moorit">
    <nd ref="3647526930"/>
    <nd ref="3647526931"/>
    <nd ref="3647526932"/>
    <nd ref="3647526933"/>
    <nd ref="3647526930"/>
    <tag k="addr:city" v="Cambridge"/>
    <tag k="addr:housenumber" v="15"/>
    <tag k="addr:postcode" v="CB23 1LU"/>
    <tag k="addr:street" v="Cantelupe Road"/>
    <tag k="building" v="house"/>
  </way>
  <way id="360148869" version="2" timestamp="2023-06-06T21:50:09Z" changeset="137032797" uid="10633286" user="Moorit">
    <nd ref="3647526934"/>
    <nd ref="3647526935"/>
    <nd ref="3647526936"/>
    <nd ref="3647526937"/>
    <nd ref="3647526938"/>
    <nd ref="3647526939"/>
    <nd ref="3647526934"/>
    <tag k="addr:city" v="Cambridge"/>
    <tag k="addr:housenumber" v="13"/>
    <tag k="addr:postcode" v="CB23 1LU"/>
    <tag k="addr:street" v="Cantelupe Road"/>
    <tag k="building" v="house"/>
  </way>
  <way id="360148872" version="2" timestamp="2023-06-06T21:50:09Z" changeset="137032797" uid="10633286" user="Moorit">
    <nd ref="3647526950"/>
    <nd ref="3647526951"/>
    <nd ref="3647526952"/>
    <nd ref="3647526953"/>
    <nd ref="3647526950"/>
    <tag k="addr:city" v="Cambridge"/>
    <tag k="addr:housenumber" v="11"/>
    <tag k="addr:postcode" v="CB23 1LU"/>
    <tag k="addr:street" v="Cantelupe Road"/>
    <tag k="building" v="house"/>
  </way>
  <way id="360342959" version="3" timestamp="2022-01-01T13:21:38Z" changeset="115636051" uid="8661831" user="Colin_Jones">
    <nd ref="3649026332"/>
    <nd ref="9383561841"/>
    <nd ref="9383561840"/>
    <nd ref="3649026331"/>
    <nd ref="3649026332"/>
    <tag k="addr:housenumber" v="8"/>
    <tag k="addr:street" v="Lilac Close"/>
    <tag k="addr:village" v="Haslingfield"/>
    <tag k="building" v="house"/>
  </way>
  <way id="387922559" version="2" timestamp="2022-01-01T13:21:38Z" changeset="115636051" uid="8661831" user="Colin_Jones">
    <nd ref="3911516367"/>
    <nd ref="9383561843"/>
    <nd ref="9383561842"/>
    <nd ref="3911516366"/>
    <nd ref="3911516367"/>
    <tag k="addr:housenumber" v="11"/>
    <tag k="addr:street" v="Lilac Close"/>
    <tag k="addr:village" v="Haslingfield"/>
    <tag k="building" v="house"/>
  </way>
  <way id="500942817" version="1" timestamp="2017-06-16T10:47:28Z" changeset="49587710" uid="5844915" user="University Of Cambridge Space Data Team">
    <nd ref="4918720166"/>
    <nd ref="4918720167"/>
    <nd ref="4918720168"/>
    <nd ref="4918720169"/>
    <nd ref="4918720166"/>
    <tag k="building" v="university"/>
    <tag k="name" v="Sub Station 1 EDF"/>
    <tag k="ref" v="R040"/>
  </way>
  <way id="504401881" version="2" timestamp="2018-08-25T16:32:43Z" changeset="61989371" uid="5173844" user="ndrw6">
    <nd ref="33129485"/>
    <nd ref="5856953071"/>
    <nd ref="33129484"/>
    <tag k="highway" v="residential"/>
    <tag k="name" v="Dodds Mead"/>
    <tag k="source:name" v="dictaphone"/>
  </way>
  <way id="515643738" version="2" timestamp="2024-11-10T21:09:58Z" changeset="158985808" uid="10633286" user="Moorit">
    <nd ref="5035325039"/>
    <nd ref="5035325040"/>
    <nd ref="5035325041"/>
    <nd ref="5035325042"/>
    <nd ref="5035325039"/>
    <tag k="addr:housenumber" v="1"/>
    <tag k="addr:street" v="Fountain Lane"/>
    <tag k="building" v="house"/>
  </way>
  <way id="515891493" version="2" timestamp="2018-08-25T16:32:43Z" changeset="61989371" uid="5173844" user="ndrw6">
    <nd ref="5037161693"/>
    <nd ref="33129473"/>
    <nd ref="5856954208"/>
    <nd ref="5856954209"/>
    <nd ref="33129474"/>
    <tag k="access" v="yes"/>
    <tag k="designation" v="byway_open_to_all_traffic"/>
    <tag k="highway" v="residential"/>
    <tag k="name" v="Broad Lane"/>
    <tag k="prow_ref" v="Haslingfield BY 6"/>
    <tag k="source:designation" v="cambridgeshire_county_council_prow_gis_data"/>
    <tag k="source:name" v="dictaphone"/>
    <tag k="source:prow_ref" v="cambridgeshire_county_council_prow_gis_data"/>
  </way>
  <way id="521524666" version="2" timestamp="2019-05-17T10:43:04Z" changeset="70351194" uid="9196102" user="pddondet">
    <nd ref="5081399123"/>
    <nd ref="5081399124"/>
    <nd ref="5081399122"/>
    <nd ref="5081399121"/>
    <nd ref="6480479351"/>
    <nd ref="6480479352"/>
    <nd ref="6480479353"/>
    <nd ref="6480479354"/>
    <nd ref="6480479355"/>
    <nd ref="6480479356"/>
    <tag k="highway" v="residential"/>
  </way>
  <way id="619845637" version="2" timestamp="2023-12-13T08:02:58Z" changeset="145064463" uid="10633286" user="Moorit">
    <nd ref="5856952586"/>
    <nd ref="5856952583"/>
    <nd ref="5856952584"/>
    <nd ref="5856952585"/>
    <nd ref="5856952586"/>
    <tag k="addr:housenumber" v="28"/>
    <tag k="addr:street" v="New Road"/>
    <tag k="building" v="yes"/>
  </way>
  <way id="619845638" version="2" timestamp="2024-01-23T20:42:28Z" changeset="146607621" uid="10633286" user="Moorit">
    <nd ref="5856952590"/>
    <nd ref="5856952587"/>
    <nd ref="5856952588"/>
    <nd ref="5856952589"/>
    <nd ref="5856952590"/>
    <tag k="addr:housenumber" v="30"/>
    <tag k="addr:street" v="New Road"/>
    <tag k="building" v="yes"/>
  </way>
  <way id="619845639" version="2" timestamp="2024-12-13T08:23:50Z" changeset="160235492" uid="10633286" user="Moorit">
    <nd ref="5856952594"/>
    <nd ref="5856952593"/>
    <nd ref="5856952592"/>
    <nd ref="5856952591"/>
    <nd ref="5856952594"/>
    <tag k="addr:housenumber" v="2"/>
    <tag k="addr:street" v="Watsons Yard"/>
    <tag k="building" v="yes"/>
  </way>
  <way id="619845640" version="2" timestamp="2024-12-13T08:23:50Z" changeset="160235492" uid="10633286" user="Moorit">
    <nd ref="5856952598"/>
    <nd ref="5856952597"/>
    <nd ref="5856952596"/>
    <nd ref="5856952595"/>
    <nd ref="5856952598"/>
    <tag k="addr:housenumber" v="4"/>
    <tag k="addr:street" v="Watsons Yard"/>
    <tag k="building" v="yes"/>
  </way>
  <way id="619845641" version="2" timestamp="2024-12-13T08:23:50Z" changeset="160235492" uid="10633286" user="Moorit">
    <nd ref="5856952602"/>
    <nd ref="5856952601"/>
    <nd ref="5856952600"/>
    <nd ref="5856952599"/>
    <nd ref="5856952602"/>
    <tag k="addr:housenumber" v="6"/>
    <tag k="addr:street" v="Watsons Yard"/>
    <tag k="building" v="yes"/>
  </way>
  <way id="619845642" version="2" timestamp="2024-12-13T08:23:50Z" changeset="160235492" uid="10633286" user="Moorit">
    <nd ref="5856952608"/>
    <nd ref="5856952607"/>
    <nd ref="5856952606"/>
    <nd ref="5856952604"/>
    <nd ref="5856952603"/>
    <nd ref="5856952605"/>
    <nd ref="5856952608"/>
    <tag k="addr:housenumber" v="8"/>
    <tag k="addr:street" v="Watsons Yard"/>
    <tag k="building" v="yes"/>
  </way>
  <way id="619845657" version="3" timestamp="2023-12-31T11:10:52Z" changeset="145727978" uid="242345" user="confusedbuffalo">
    <nd ref="5856952680"/>
    <nd ref="5856952677"/>
    <nd ref="5856952678"/>
    <nd ref="5856952679"/>
    <nd ref="5856952680"/>
    <tag k="addr:city" v="Cambridge"/>
    <tag k="addr:housenumber" v="11"/>
    <tag k="addr:postcode" v="CB23 1NA"/>
    <tag k="addr:street" v="Sidney Gardens"/>
    <tag k="addr:village" v="Haslingfield"/>
    <tag k="building" v="house"/>
  </way>
  <way id="619845658" version="3" timestamp="2023-12-31T11:10:52Z" changeset="145727978" uid="242345" user="confusedbuffalo">
    <nd ref="5856952684"/>
    <nd ref="5856952681"/>
    <nd ref="5856952682"/>
    <nd ref="5856952683"/>
    <nd ref="5856952684"/>
    <tag k="addr:city" v="Cambridge"/>
    <tag k="addr:housenumber" v="10"/>
    <tag k="addr:postcode" v="CB23 1NA"/>
    <tag k="addr:street" v="Sidney Gardens"/>
    <tag k="addr:village" v="Haslingfield"/>
    <tag k="building" v="house"/>
  </way>
  <way id="619845662" version="3" timestamp="2023-12-31T11:10:52Z" changeset="145727978" uid="242345" user="confusedbuffalo">
    <nd ref="5856952700"/>
    <nd ref="5856952697"/>
    <nd ref="5856952698"/>
    <nd ref="5856952699"/>
    <nd ref="5856952700"/>
    <tag k="addr:city" v="Cambridge"/>
    <tag k="addr:housenumber" v="7"/>
    <tag k="addr:postcode" v="CB23 1NA"/>
    <tag k="addr:street" v="Sidney Gardens"/>
    <tag k="addr:village" v="Haslingfield"/>
    <tag k="building" v="house"/>
  </way>
  <way id="619845663" version="2" timestamp="2023-12-31T11:10:52Z" changeset="145727978" uid="242345" user="confusedbuffalo">
    <nd ref="5856952704"/>
    <nd ref="5856952703"/>
    <nd ref="5856952702"/>
    <nd ref="5856952701"/>
    <nd ref="5856952704"/>
    <tag k="addr:city" v="Cambridge"/>
    <tag k="addr:housenumber" v="6"/>
    <tag k="addr:postcode" v="CB23 1NA"/>
    <tag k="addr:street" v="Sidney Gardens"/>
    <tag k="addr:village" v="Haslingfield"/>
    <tag k="building" v="house"/>
  </way>
  <way id="619845664" version="2" timestamp="2023-12-31T11:10:52Z" changeset="145727978" uid="242345" user="confusedbuffalo">
    <nd ref="5856952708"/>
    <nd ref="11472716682"/>
    <nd ref="11472716681"/>
    <nd ref="5856952705"/>
    <nd ref="5856952708"/>
    <tag k="addr:city" v="Cambridge"/>
    <tag k="addr:housenumber" v="4"/>
    <tag k="addr:postcode" v="CB23 1NA"/>
    <tag k="addr:street" v="Sidney Gardens"/>
    <tag k="addr:village" v="Haslingfield"/>
    <tag k="building" v="house"/>
  </way>
  <way id="619845665" version="2" timestamp="2023-12-31T11:10:52Z" changeset="145727978" uid="242345" user="confusedbuffalo">
    <nd ref="5856952712"/>
    <nd ref="11472716684"/>
    <nd ref="11472716683"/>
    <nd ref="5856952709"/>
    <nd ref="5856952712"/>
    <tag k="addr:city" v="Cambridge"/>
    <tag k="addr:housenumber" v="2"/>
    <tag k="addr:postcode" v="CB23 1NA"/>
    <tag k="addr:street" v="Sidney Gardens"/>
    <tag k="addr:village" v="Haslingfield"/>
    <tag k="building" v="house"/>
  </way>
  <way id="619845674" version="2" timestamp="2022-03-20T21:00:33Z" changeset="118710610" uid="10633286" user="Moorit">
    <nd ref="5856952760"/>
    <nd ref="5856952759"/>
    <nd ref="5856952758"/>
    <nd ref="5856952757"/>
    <nd ref="5856952760"/>
    <tag k="addr:housenumber" v="4"/>
    <tag k="addr:postcode" v="CB23 1WX"/>
    <tag k="addr:street" v="Barton Road"/>
    <tag k="building" v="yes"/>
  </way>
  <way id="619845675" version="2" timestamp="2022-03-20T21:00:33Z" changeset="118710610" uid="10633286" user="Moorit">
    <nd ref="5856952764"/>
    <nd ref="5856952763"/>
    <nd ref="5856952762"/>
    <nd ref="5856952761"/>
    <nd ref="5856952764"/>
    <tag k="addr:housenumber" v="6"/>
    <tag k="addr:postcode" v="CB23 1WX"/>
    <tag k="addr:street" v="Barton Road"/>
    <tag k="building" v="yes"/>
  </way>
  <way id="619845680" version="3" timestamp="2022-03-20T21:00:33Z" changeset="118710610" uid="10633286" user="Moorit">
    <nd ref="5856952804"/>
    <nd ref="5856952803"/>
    <nd ref="5856952799"/>
    <nd ref="5856952798"/>
    <nd ref="5856952797"/>
    <nd ref="5856952800"/>
    <nd ref="5856952801"/>
    <nd ref="5856952802"/>
    <nd ref="5856952804"/>
    <tag k="addr:housenumber" v="2"/>
    <tag k="addr:postcode" v="CB23 1WX"/>
    <tag k="addr:street" v="Barton Road"/>
    <tag k="building" v="yes"/>
  </way>
  <way id="619845702" version="4" timestamp="2023-12-31T11:10:52Z" changeset="145727978" uid="242345" user="confusedbuffalo">
    <nd ref="5856952935"/>
    <nd ref="11472716690"/>
    <nd ref="11472716689"/>
    <nd ref="5856952936"/>
    <nd ref="5856952935"/>
    <tag k="addr:housenumber" v="126"/>
    <tag k="addr:postcode" v="CB23 1LP"/>
    <tag k="addr:street" v="New Road"/>
    <tag k="building" v="house"/>
  </way>
  <way id="619845718" version="3" timestamp="2023-12-31T11:10:52Z" changeset="145727978" uid="242345" user="confusedbuffalo">
    <nd ref="5856953031"/>
    <nd ref="9265131872"/>
    <nd ref="9265131875"/>
    <nd ref="9265131873"/>
    <nd ref="5856953029"/>
    <nd ref="9265131870"/>
    <nd ref="9265131876"/>
    <nd ref="9265131877"/>
    <nd ref="9265131871"/>
    <nd ref="5856953030"/>
    <nd ref="5856953031"/>
    <tag k="addr:housenumber" v="115"/>
    <tag k="addr:postcode" v="CB23 1LP"/>
    <tag k="addr:street" v="New Road"/>
    <tag k="building" v="house"/>
  </way>
  <way id="619845748" version="3" timestamp="2023-12-31T11:10:52Z" changeset="145727978" uid="242345" user="confusedbuffalo">
    <nd ref="5856953319"/>
    <nd ref="5856953316"/>
    <nd ref="5856953317"/>
    <nd ref="5856953318"/>
    <nd ref="5856953319"/>
    <tag k="addr:city" v="Cambridge"/>
    <tag k="addr:housenumber" v="73"/>
    <tag k="addr:postcode" v="CB23 1NA"/>
    <tag k="addr:street" v="Sidney Gardens"/>
    <tag k="addr:village" v="Haslingfield"/>
    <tag k="building" v="house"/>
  </way>
  <way id="619845782" version="2" timestamp="2023-08-03T19:50:53Z" changeset="139411129" uid="10633286" user="Moorit">
    <nd ref="5856953468"/>
    <nd ref="5856953467"/>
    <nd ref="5856953466"/>
    <nd ref="5856953465"/>
    <nd ref="5856953468"/>
    <tag k="addr:city" v="Cambridge"/>
    <tag k="addr:housenumber" v="2"/>
    <tag k="addr:postcode" v="CB23 1LS"/>
    <tag k="addr:street" v="Trinity Close"/>
    <tag k="building" v="yes"/>
  </way>
  <way id="619845783" version="2" timestamp="2023-08-03T19:50:53Z" changeset="139411129" uid="10633286" user="Moorit">
    <nd ref="5856953474"/>
    <nd ref="5856953471"/>
    <nd ref="5856953472"/>
    <nd ref="5856953470"/>
    <nd ref="5856953469"/>
    <nd ref="5856953473"/>
    <nd ref="5856953474"/>
    <tag k="addr:housenumber" v="111"/>
    <tag k="addr:street" v="New Road"/>
    <tag k="building" v="yes"/>
  </way>
  <way id="619845785" version="4" timestamp="2023-08-03T19:50:53Z" changeset="139411129" uid="10633286" user="Moorit">
    <nd ref="5856953488"/>
    <nd ref="5856953483"/>
    <nd ref="5856953484"/>
    <nd ref="5856953485"/>
    <nd ref="5856953486"/>
    <nd ref="5856953487"/>
    <nd ref="5856953488"/>
    <tag k="addr:city" v="Cambridge"/>
    <tag k="addr:housenumber" v="3"/>
    <tag k="addr:postcode" v="CB23 1LS"/>
    <tag k="addr:street" v="Trinity Close"/>
    <tag k="addr:village" v="Haslingfield"/>
    <tag k="building" v="yes"/>
  </way>
  <way id="619845786" version="2" timestamp="2023-08-03T19:50:53Z" changeset="139411129" uid="10633286" user="Moorit">
    <nd ref="5856953492"/>
    <nd ref="5856953489"/>
    <nd ref="5856953490"/>
    <nd ref="5856953491"/>
    <nd ref="5856953492"/>
    <tag k="addr:housenumber" v="4"/>
    <tag k="addr:street" v="Trinity Close"/>
    <tag k="building" v="yes"/>
  </way>
  <way id="619845787" version="2" timestamp="2023-08-03T19:50:53Z" changeset="139411129" uid="10633286" user="Moorit">
    <nd ref="5856953496"/>
    <nd ref="5856953493"/>
    <nd ref="5856953494"/>
    <nd ref="5856953495"/>
    <nd ref="5856953496"/>
    <tag k="addr:housenumber" v="5"/>
    <tag k="addr:street" v="Trinity Close"/>
    <tag k="building" v="yes"/>
  </way>
  <way id="619845788" version="2" timestamp="2023-08-03T19:50:53Z" changeset="139411129" uid="10633286" user="Moorit">
    <nd ref="5856953500"/>
    <nd ref="5856953497"/>
    <nd ref="5856953498"/>
    <nd ref="5856953499"/>
    <nd ref="5856953500"/>
    <tag k="addr:housenumber" v="7"/>
    <tag k="addr:street" v="Trinity Close"/>
    <tag k="building" v="yes"/>
  </way>
  <way id="619845789" version="2" timestamp="2023-08-03T19:50:53Z" changeset="139411129" uid="10633286" user="Moorit">
    <nd ref="5856953504"/>
    <nd ref="5856953501"/>
    <nd ref="5856953502"/>
    <nd ref="5856953503"/>
    <nd ref="5856953504"/>
    <tag k="addr:housenumber" v="6"/>
    <tag k="addr:street" v="Trinity Close"/>
    <tag k="building" v="yes"/>
  </way>
  <way id="619845832" version="3" timestamp="2025-04-21T13:59:05Z" changeset="165241382" uid="104519" user="Rupert Swarbrick">
    <nd ref="5856953745"/>
    <nd ref="5856953742"/>
    <nd ref="5856953743"/>
    <nd ref="5856953740"/>
    <nd ref="5856953739"/>
    <nd ref="5856953738"/>
    <nd ref="5856953741"/>
    <nd ref="5856953744"/>
    <nd ref="5856953745"/>
    <tag k="addr:city" v="Haslingfield"/>
    <tag k="addr:housenumber" v="4"/>
    <tag k="addr:postcode" v="CB23 1JE"/>
    <tag k="addr:street" v="Church Street"/>
    <tag k="building" v="detached"/>
  </way>
  <way id="619845833" version="3" timestamp="2025-04-21T13:58:48Z" changeset="165241382" uid="104519" user="Rupert Swarbrick">
    <nd ref="5856953749"/>
    <nd ref="5856953748"/>
    <nd ref="5856953747"/>
    <nd ref="5856953746"/>
    <nd ref="5856953749"/>
    <tag k="addr:city" v="Haslingfield"/>
    <tag k="addr:housenumber" v="6"/>
    <tag k="addr:postcode" v="CB23 1JE"/>
    <tag k="addr:street" v="Church Street"/>
    <tag k="building" v="detached"/>
  </way>
  <way id="619845834" version="3" timestamp="2025-04-21T13:58:41Z" changeset="165241382" uid="104519" user="Rupert Swarbrick">
    <nd ref="5856953753"/>
    <nd ref="5856953750"/>
    <nd ref="5856953751"/>
    <nd ref="5856953752"/>
    <nd ref="5856953753"/>
    <tag k="addr:city" v="Haslingfield"/>
    <tag k="addr:housenumber" v="8"/>
    <tag k="addr:postcode" v="CB23 1JE"/>
    <tag k="addr:street" v="Church Street"/>
    <tag k="building" v="detached"/>
  </way>
  <way id="619845835" version="4" timestamp="2025-04-21T13:58:09Z" changeset="165241411" uid="104519" user="Rupert Swarbrick">
    <nd ref="5856953757"/>
    <nd ref="5856953754"/>
    <nd ref="5856953755"/>
    <nd ref="5856953756"/>
    <nd ref="5856953757"/>
    <tag k="addr:housenumber" v="12"/>
    <tag k="addr:street" v="Church Street"/>
    <tag k="building" v="detached"/>
  </way>
  <way id="619845837" version="5" timestamp="2025-04-21T13:56:56Z" changeset="165241409" uid="104519" user="Rupert Swarbrick">
    <nd ref="5856953765"/>
    <nd ref="5856953764"/>
    <nd ref="5856953763"/>
    <nd ref="5856953762"/>
    <nd ref="5856953765"/>
    <tag k="addr:city" v="Cambridge"/>
    <tag k="addr:housenumber" v="22"/>
    <tag k="addr:postcode" v="CB23 1JE"/>
    <tag k="addr:street" v="Church Street"/>
    <tag k="addr:village" v="Haslingfield"/>
    <tag k="building" v="detached"/>
  </way>
  <way id="619845838" version="4" timestamp="2025-04-21T13:56:46Z" changeset="165241411" uid="104519" user="Rupert Swarbrick">
    <nd ref="5856953777"/>
    <nd ref="5856953774"/>
    <nd ref="5856953773"/>
    <nd ref="5856953771"/>
    <nd ref="5856953770"/>
    <nd ref="5856953772"/>
    <nd ref="5856953775"/>
    <nd ref="5856953776"/>
    <nd ref="5856953768"/>
    <nd ref="5856953767"/>
    <nd ref="5856953766"/>
    <nd ref="5856953769"/>
    <nd ref="5856953777"/>
    <tag k="addr:housename" v="Blakeney"/>
    <tag k="addr:housenumber" v="24"/>
    <tag k="addr:street" v="Church Street"/>
    <tag k="building" v="detached"/>
  </way>
  <way id="619845839" version="4" timestamp="2025-04-21T13:56:22Z" changeset="165241411" uid="104519" user="Rupert Swarbrick">
    <nd ref="5856953885"/>
    <nd ref="5856953779"/>
    <nd ref="5856953778"/>
    <nd ref="5856953784"/>
    <nd ref="5856953783"/>
    <nd ref="5856953781"/>
    <nd ref="5856953780"/>
    <nd ref="5856953782"/>
    <nd ref="5856953885"/>
    <tag k="addr:housenumber" v="26"/>
    <tag k="addr:street" v="Church Street"/>
    <tag k="building" v="detached"/>
  </way>
  <way id="619845840" version="4" timestamp="2025-04-21T13:56:07Z" changeset="165241411" uid="104519" user="Rupert Swarbrick">
    <nd ref="5856953897"/>
    <nd ref="5856953896"/>
    <nd ref="5856953893"/>
    <nd ref="5856953892"/>
    <nd ref="5856953887"/>
    <nd ref="5856953886"/>
    <nd ref="5856953895"/>
    <nd ref="5856953890"/>
    <nd ref="5856953888"/>
    <nd ref="5856953889"/>
    <nd ref="5856953891"/>
    <nd ref="5856953894"/>
    <nd ref="5856953897"/>
    <tag k="addr:housenumber" v="28"/>
    <tag k="addr:street" v="Church Street"/>
    <tag k="building" v="detached"/>
  </way>
  <way id="619845841" version="4" timestamp="2025-04-21T13:55:46Z" changeset="165241411" uid="104519" user="Rupert Swarbrick">
    <nd ref="5856953907"/>
    <nd ref="5856953906"/>
    <nd ref="5856953905"/>
    <nd ref="5856953900"/>
    <nd ref="5856953899"/>
    <nd ref="5856953898"/>
    <nd ref="5856953901"/>
    <nd ref="5856953903"/>
    <nd ref="5856953902"/>
    <nd ref="5856953904"/>
    <nd ref="5856953907"/>
    <tag k="addr:housenumber" v="30"/>
    <tag k="addr:street" v="Church Street"/>
    <tag k="building" v="detached"/>
  </way>
  <way id="619845842" version="4" timestamp="2025-04-21T13:55:29Z" changeset="165241411" uid="104519" user="Rupert Swarbrick">
    <nd ref="5856953919"/>
    <nd ref="5856953914"/>
    <nd ref="5856953915"/>
    <nd ref="5856953913"/>
    <nd ref="5856953912"/>
    <nd ref="5856953916"/>
    <nd ref="5856953917"/>
    <nd ref="5856953911"/>
    <nd ref="5856953909"/>
    <nd ref="5856953908"/>
    <nd ref="5856953910"/>
    <nd ref="5856953918"/>
    <nd ref="5856953919"/>
    <tag k="addr:housenumber" v="32"/>
    <tag k="addr:street" v="Church Street"/>
    <tag k="building" v="detached"/>
  </way>
  <way id="619845843" version="4" timestamp="2025-04-21T13:54:50Z" changeset="165241411" uid="104519" user="Rupert Swarbrick">
    <nd ref="5856953925"/>
    <nd ref="5856953924"/>
    <nd ref="5856953923"/>
    <nd ref="5856953921"/>
    <nd ref="5856953920"/>
    <nd ref="5856953922"/>
    <nd ref="5856953925"/>
    <tag k="addr:housename" v="Heather Cottage"/>
    <tag k="addr:housenumber" v="34"/>
    <tag k="addr:street" v="Church Street"/>
    <tag k="building" v="detached"/>
  </way>
  <way id="619845844" version="3" timestamp="2025-04-21T13:54:17Z" changeset="165241382" uid="104519" user="Rupert Swarbrick">
    <nd ref="5856953931"/>
    <nd ref="5856953927"/>
    <nd ref="5856953926"/>
    <nd ref="5856953930"/>
    <nd ref="5856953929"/>
    <nd ref="5856953928"/>
    <nd ref="5856953931"/>
    <tag k="addr:city" v="Cambridge"/>
    <tag k="addr:housenumber" v="23"/>
    <tag k="addr:postcode" v="CB23 1JF"/>
    <tag k="addr:street" v="Broad Lane"/>
    <tag k="addr:village" v="Haslingfield"/>
    <tag k="building" v="detached"/>
  </way>
  <way id="619845845" version="3" timestamp="2024-10-28T22:53:56Z" changeset="158476924" uid="6476359" user="NSiecw">
    <nd ref="5856953939"/>
    <nd ref="5856953936"/>
    <nd ref="5856953935"/>
    <nd ref="5856953933"/>
    <nd ref="5856953932"/>
    <nd ref="5856953934"/>
    <nd ref="5856953937"/>
    <nd ref="5856953938"/>
    <nd ref="9264998897"/>
    <nd ref="9264998900"/>
    <nd ref="9264998899"/>
    <nd ref="9264998898"/>
    <nd ref="5856953939"/>
    <tag k="addr:city" v="Cambridge"/>
    <tag k="addr:housenumber" v="21a"/>
    <tag k="addr:postcode" v="CB23 1JF"/>
    <tag k="addr:street" v="Broad Lane"/>
    <tag k="addr:village" v="Haslingfield"/>
    <tag k="building" v="yes"/>
  </way>
  <way id="619845849" version="4" timestamp="2024-10-28T22:53:56Z" changeset="158476924" uid="6476359" user="NSiecw">
    <nd ref="5856953962"/>
    <nd ref="11702290177"/>
    <nd ref="11702290176"/>
    <nd ref="5856953959"/>
    <nd ref="5856953960"/>
    <nd ref="9265134577"/>
    <nd ref="9265134579"/>
    <nd ref="9265134580"/>
    <nd ref="9265134578"/>
    <nd ref="5856953961"/>
    <nd ref="5856953962"/>
    <tag k="addr:city" v="Cambridge"/>
    <tag k="addr:housenumber" v="58"/>
    <tag k="addr:postcode" v="CB23 1JF"/>
    <tag k="addr:street" v="Broad Lane"/>
    <tag k="addr:village" v="Haslingfield"/>
    <tag k="building" v="yes"/>
  </way>
  <way id="619845852" version="3" timestamp="2024-10-28T22:53:56Z" changeset="158476924" uid="6476359" user="NSiecw">
    <nd ref="5856953978"/>
    <nd ref="5856953972"/>
    <nd ref="5856953971"/>
    <nd ref="5856953975"/>
    <nd ref="5856953976"/>
    <nd ref="5856953974"/>
    <nd ref="5856953973"/>
    <nd ref="5856953977"/>
    <nd ref="5856953978"/>
    <tag k="addr:city" v="Cambridge"/>
    <tag k="addr:housenumber" v="54"/>
    <tag k="addr:postcode" v="CB23 1JF"/>
    <tag k="addr:street" v="Broad Lane"/>
    <tag k="addr:village" v="Haslingfield"/>
    <tag k="building" v="yes"/>
  </way>
  <way id="619845854" version="3" timestamp="2024-10-28T22:53:56Z" changeset="158476924" uid="6476359" user="NSiecw">
    <nd ref="5856954086"/>
    <nd ref="5856953983"/>
    <nd ref="9264998891"/>
    <nd ref="5856953984"/>
    <nd ref="5856954085"/>
    <nd ref="9264998894"/>
    <nd ref="9264998895"/>
    <nd ref="9264998896"/>
    <nd ref="9264998893"/>
    <nd ref="5856954086"/>
    <tag k="addr:city" v="Cambridge"/>
    <tag k="addr:housenumber" v="48"/>
    <tag k="addr:postcode" v="CB23 1JF"/>
    <tag k="addr:street" v="Broad Lane"/>
    <tag k="addr:village" v="Haslingfield"/>
    <tag k="building" v="house"/>
  </way>
  <way id="619845855" version="3" timestamp="2024-10-28T22:53:56Z" changeset="158476924" uid="6476359" user="NSiecw">
    <nd ref="5856954092"/>
    <nd ref="5856954089"/>
    <nd ref="5856954090"/>
    <nd ref="5856954087"/>
    <nd ref="5856954088"/>
    <nd ref="5856954091"/>
    <nd ref="5856954092"/>
    <tag k="addr:city" v="Cambridge"/>
    <tag k="addr:housenumber" v="44"/>
    <tag k="addr:postcode" v="CB23 1JF"/>
    <tag k="addr:street" v="Broad Lane"/>
    <tag k="addr:village" v="Haslingfield"/>
    <tag k="building" v="house"/>
  </way>
  <way id="619845864" version="3" timestamp="2024-10-28T22:53:56Z" changeset="158476924" uid="6476359" user="NSiecw">
    <nd ref="5856954138"/>
    <nd ref="5856954133"/>
    <nd ref="5856954134"/>
    <nd ref="5856954137"/>
    <nd ref="9265019117"/>
    <nd ref="9264998916"/>
    <nd ref="5856954136"/>
    <nd ref="5856954135"/>
    <nd ref="5856954138"/>
    <tag k="addr:city" v="Cambridge"/>
    <tag k="addr:housenumber" v="21"/>
    <tag k="addr:postcode" v="CB23 1JF"/>
    <tag k="addr:street" v="Broad Lane"/>
    <tag k="addr:village" v="Haslingfield"/>
    <tag k="building" v="yes"/>
  </way>
  <way id="619845866" version="4" timestamp="2021-11-18T21:14:40Z" changeset="113963778" uid="8661831" user="Colin_Jones">
    <nd ref="5856954148"/>
    <nd ref="5856954147"/>
    <nd ref="9265019122"/>
    <nd ref="5856954146"/>
    <nd ref="5856954144"/>
    <nd ref="5856954143"/>
    <nd ref="5856954145"/>
    <nd ref="5856954148"/>
    <tag k="addr:city" v="Cambridge"/>
    <tag k="addr:housenumber" v="17"/>
    <tag k="addr:postcode" v="CB23 1JF"/>
    <tag k="addr:street" v="Broad Lane"/>
    <tag k="addr:village" v="Haslingfield"/>
    <tag k="building" v="house"/>
  </way>
  <way id="619845867" version="4" timestamp="2024-10-28T22:53:56Z" changeset="158476924" uid="6476359" user="NSiecw">
    <nd ref="5856954156"/>
    <nd ref="9265019136"/>
    <nd ref="5856954153"/>
    <nd ref="9265019135"/>
    <nd ref="9265019134"/>
    <nd ref="5856954154"/>
    <nd ref="5856954155"/>
    <nd ref="5856954152"/>
    <nd ref="5856954150"/>
    <nd ref="5856954149"/>
    <nd ref="5856954151"/>
    <nd ref="5856954156"/>
    <tag k="addr:city" v="Cambridge"/>
    <tag k="addr:housename" v="Manor Cottage"/>
    <tag k="addr:housenumber" v="30"/>
    <tag k="addr:postcode" v="CB23 1JF"/>
    <tag k="addr:street" v="Broad Lane"/>
    <tag k="addr:village" v="Haslingfield"/>
    <tag k="building" v="house"/>
  </way>
  <way id="619845868" version="5" timestamp="2024-10-28T22:53:56Z" changeset="158476924" uid="6476359" user="NSiecw">
    <nd ref="9265019139"/>
    <nd ref="5856954159"/>
    <nd ref="5856954158"/>
    <nd ref="5856954157"/>
    <nd ref="9265019137"/>
    <nd ref="9265019140"/>
    <nd ref="9265019138"/>
    <nd ref="5856954160"/>
    <nd ref="9265019139"/>
    <tag k="addr:city" v="Cambridge"/>
    <tag k="addr:housename" v="Oak Cottage"/>
    <tag k="addr:housenumber" v="13"/>
    <tag k="addr:postcode" v="CB23 1JF"/>
    <tag k="addr:street" v="Broad Lane"/>
    <tag k="addr:village" v="Haslingfield"/>
    <tag k="building" v="house"/>
    <tag k="wikidata" v="Q26420647"/>
  </way>
  <way id="619845869" version="3" timestamp="2024-10-28T22:53:56Z" changeset="158476924" uid="6476359" user="NSiecw">
    <nd ref="5856954164"/>
    <nd ref="5856954161"/>
    <nd ref="5856954162"/>
    <nd ref="5856954163"/>
    <nd ref="5856954164"/>
    <tag k="addr:city" v="Cambridge"/>
    <tag k="addr:housenumber" v="4"/>
    <tag k="addr:postcode" v="CB23 1JG"/>
    <tag k="addr:street" v="Butler Way"/>
    <tag k="addr:village" v="Haslingfield"/>
    <tag k="building" v="house"/>
  </way>
  <way id="619845870" version="3" timestamp="2024-10-28T22:53:56Z" changeset="158476924" uid="6476359" user="NSiecw">
    <nd ref="5856954170"/>
    <nd ref="5856954169"/>
    <nd ref="5856954166"/>
    <nd ref="5856954165"/>
    <nd ref="5856954168"/>
    <nd ref="5856954167"/>
    <nd ref="5856954170"/>
    <tag k="addr:city" v="Cambridge"/>
    <tag k="addr:housenumber" v="3"/>
    <tag k="addr:postcode" v="CB23 1JG"/>
    <tag k="addr:street" v="Butler Way"/>
    <tag k="addr:village" v="Haslingfield"/>
    <tag k="building" v="house"/>
  </way>
  <way id="619845871" version="3" timestamp="2024-10-28T22:53:56Z" changeset="158476924" uid="6476359" user="NSiecw">
    <nd ref="5856954176"/>
    <nd ref="5856954172"/>
    <nd ref="5856954171"/>
    <nd ref="5856954175"/>
    <nd ref="5856954174"/>
    <nd ref="5856954173"/>
    <nd ref="5856954176"/>
    <tag k="addr:city" v="Cambridge"/>
    <tag k="addr:housenumber" v="2"/>
    <tag k="addr:postcode" v="CB23 1JG"/>
    <tag k="addr:street" v="Butler Way"/>
    <tag k="addr:village" v="Haslingfield"/>
    <tag k="building" v="house"/>
  </way>
  <way id="619845872" version="5" timestamp="2024-10-28T22:53:56Z" changeset="158476924" uid="6476359" user="NSiecw">
    <nd ref="5856954180"/>
    <nd ref="5856954179"/>
    <nd ref="5856954178"/>
    <nd ref="5856954177"/>
    <nd ref="5856954180"/>
    <tag k="addr:city" v="Cambridge"/>
    <tag k="addr:housename" v="Holly Tree Cottage"/>
    <tag k="addr:housenumber" v="1a"/>
    <tag k="addr:postcode" v="CB23 1JG"/>
    <tag k="addr:street" v="Butler Way"/>
    <tag k="addr:village" v="Haslingfield"/>
    <tag k="building" v="house"/>
  </way>
  <way id="619845873" version="3" timestamp="2024-10-28T22:53:56Z" changeset="158476924" uid="6476359" user="NSiecw">
    <nd ref="5856954184"/>
    <nd ref="5856954181"/>
    <nd ref="5856954182"/>
    <nd ref="5856954183"/>
    <nd ref="5856954184"/>
    <tag k="addr:city" v="Cambridge"/>
    <tag k="addr:housenumber" v="1"/>
    <tag k="addr:postcode" v="CB23 1JG"/>
    <tag k="addr:street" v="Butler Way"/>
    <tag k="addr:village" v="Haslingfield"/>
    <tag k="building" v="house"/>
  </way>
  <way id="619845874" version="4" timestamp="2024-10-28T22:53:56Z" changeset="158476924" uid="6476359" user="NSiecw">
    <nd ref="5856954193"/>
    <nd ref="5856954190"/>
    <nd ref="5856954189"/>
    <nd ref="5856954188"/>
    <nd ref="5856954191"/>
    <nd ref="5856954192"/>
    <nd ref="5856954187"/>
    <nd ref="5856954186"/>
    <nd ref="5856954193"/>
    <tag k="addr:city" v="Cambridge"/>
    <tag k="addr:housename" v="Old Vicarage"/>
    <tag k="addr:housenumber" v="3"/>
    <tag k="addr:postcode" v="CB23 1JF"/>
    <tag k="addr:street" v="Broad Lane"/>
    <tag k="addr:village" v="Haslingfield"/>
    <tag k="building" v="house"/>
    <tag k="name" v="Old Vicarage"/>
    <tag k="wikidata" v="Q26595821"/>
  </way>
  <way id="619845876" version="3" timestamp="2024-10-28T22:53:56Z" changeset="158476924" uid="6476359" user="NSiecw">
    <nd ref="5856954203"/>
    <nd ref="5856954200"/>
    <nd ref="5856954199"/>
    <nd ref="5856954198"/>
    <nd ref="5856954201"/>
    <nd ref="9265019127"/>
    <nd ref="9265019128"/>
    <nd ref="5856954202"/>
    <nd ref="5856954203"/>
    <tag k="addr:city" v="Cambridge"/>
    <tag k="addr:housename" v="New Vicarage"/>
    <tag k="addr:housenumber" v="5"/>
    <tag k="addr:postcode" v="CB23 1JF"/>
    <tag k="addr:street" v="Broad Lane"/>
    <tag k="addr:village" v="Haslingfield"/>
    <tag k="building" v="yes"/>
    <tag k="name" v="New Vicarage"/>
  </way>
  <way id="619845877" version="2" timestamp="2024-10-28T22:53:56Z" changeset="158476924" uid="6476359" user="NSiecw">
    <nd ref="5856954207"/>
    <nd ref="5856954204"/>
    <nd ref="5856954205"/>
    <nd ref="5856954206"/>
    <nd ref="5856954207"/>
    <tag k="addr:city" v="Cambridge"/>
    <tag k="addr:housenumber" v="1"/>
    <tag k="addr:postcode" v="CB23 1JF"/>
    <tag k="addr:street" v="Broad Lane"/>
    <tag k="addr:village" v="Haslingfield"/>
    <tag k="building" v="yes"/>
  </way>
  <way id="619845882" version="2" timestamp="2024-10-28T22:53:56Z" changeset="158476924" uid="6476359" user="NSiecw">
    <nd ref="5856954221"/>
    <nd ref="5856954220"/>
    <nd ref="5856954219"/>
    <nd ref="5856954218"/>
    <nd ref="5856954221"/>
    <tag k="addr:city" v="Cambridge"/>
    <tag k="addr:housenumber" v="8"/>
    <tag k="addr:postcode" v="CB23 1JR"/>
    <tag k="addr:street" v="Church Way"/>
    <tag k="addr:village" v="Haslingfield"/>
    <tag k="building" v="yes"/>
  </way>
  <way id="619845889" version="3" timestamp="2024-11-10T21:09:58Z" changeset="158985808" uid="10633286" user="Moorit">
    <nd ref="5856954253"/>
    <nd ref="5856954252"/>
    <nd ref="9383561829"/>
    <nd ref="9383561830"/>
    <nd ref="9383561831"/>
    <nd ref="9383561832"/>
    <nd ref="9383561828"/>
    <nd ref="5856954250"/>
    <nd ref="5856954253"/>
    <tag k="addr:city" v="Cambridge"/>
    <tag k="addr:housenumber" v="20"/>
    <tag k="addr:postcode" v="CB23 1JL"/>
    <tag k="addr:street" v="High Street"/>
    <tag k="building" v="house"/>
  </way>
  <way id="619845890" version="2" timestamp="2022-01-01T13:21:38Z" changeset="115636051" uid="8661831" user="Colin_Jones">
    <nd ref="5856954257"/>
    <nd ref="5856954256"/>
    <nd ref="5856954255"/>
    <nd ref="5856954254"/>
    <nd ref="5856954257"/>
    <tag k="addr:housenumber" v="4"/>
    <tag k="addr:postcode" v="CB23 1JA"/>
    <tag k="addr:street" v="Stearne's Yard"/>
    <tag k="addr:village" v="Haslingfield"/>
    <tag k="building" v="yes"/>
  </way>
  <way id="619845891" version="4" timestamp="2022-01-01T13:21:38Z" changeset="115636051" uid="8661831" user="Colin_Jones">
    <nd ref="5856954261"/>
    <nd ref="9383561838"/>
    <nd ref="9383561837"/>
    <nd ref="5856954258"/>
    <nd ref="5856954261"/>
    <tag k="addr:city" v="Cambridge"/>
    <tag k="addr:housenumber" v="3"/>
    <tag k="addr:postcode" v="CB23 1JA"/>
    <tag k="addr:street" v="Stearne's Yard"/>
    <tag k="addr:village" v="Haslingfield"/>
    <tag k="building" v="house"/>
  </way>
  <way id="619845901" version="2" timestamp="2022-01-01T13:21:38Z" changeset="115636051" uid="8661831" user="Colin_Jones">
    <nd ref="5856954289"/>
    <nd ref="5856954288"/>
    <nd ref="5856954287"/>
    <nd ref="5856954286"/>
    <nd ref="5856954289"/>
    <tag k="addr:housenumber" v="1"/>
    <tag k="addr:postcode" v="CB23 1JA"/>
    <tag k="addr:street" v="Stearne's Yard"/>
    <tag k="addr:village" v="Haslingfield"/>
    <tag k="building" v="house"/>
  </way>
  <way id="619845969" version="1" timestamp="2018-08-25T16:32:31Z" changeset="61989371" uid="5173844" user="ndrw6">
    <nd ref="5856954445"/>
    <nd ref="5856954443"/>
    <tag k="highway" v="residential"/>
    <tag k="name" v="Knapp Rise"/>
  </way>
  <way id="619845999" version="4" timestamp="2022-03-08T22:23:41Z" changeset="118254762" uid="1102246" user="jtn20">
    <nd ref="5856954507"/>
    <nd ref="5856954504"/>
    <nd ref="5856954505"/>
    <nd ref="5856954506"/>
    <nd ref="9563627761"/>
    <nd ref="5856954507"/>
    <tag k="addr:city" v="Cambridge"/>
    <tag k="addr:housenumber" v="11a"/>
    <tag k="addr:postcode" v="CB23 1JE"/>
    <tag k="addr:street" v="Church Street"/>
    <tag k="addr:village" v="Haslingfield"/>
    <tag k="amenity" v="cafe"/>
    <tag k="building" v="yes"/>
    <tag k="cuisine" v="coffee_shop;curry"/>
    <tag k="fhrs:id" v="1508098"/>
    <tag k="name" v="Mohak Cafe"/>
    <tag k="outdoor_seating" v="yes"/>
  </way>
  <way id="619846067" version="2" timestamp="2020-10-20T18:52:35Z" changeset="92786183" uid="10633286" user="Moorit">
    <nd ref="5856954640"/>
    <nd ref="5856954637"/>
    <nd ref="5856954638"/>
    <nd ref="5856954639"/>
    <nd ref="5856954640"/>
    <tag k="addr:housenumber" v="19 - 33"/>
    <tag k="addr:street" v="School Lane"/>
    <tag k="building" v="yes"/>
  </way>
  <way id="619846070" version="4" timestamp="2024-11-10T21:09:58Z" changeset="158985808" uid="10633286" user="Moorit">
    <nd ref="5856954652"/>
    <nd ref="5856954649"/>
    <nd ref="5856954648"/>
    <nd ref="5856954646"/>
    <nd ref="5856954645"/>
    <nd ref="5856954647"/>
    <nd ref="5856954650"/>
    <nd ref="5856954642"/>
    <nd ref="5856954641"/>
    <nd ref="5856954651"/>
    <nd ref="5856954643"/>
    <nd ref="5856954644"/>
    <nd ref="5856954652"/>
    <tag k="addr:city" v="Cambridge"/>
    <tag k="addr:housenumber" v="17"/>
    <tag k="addr:postcode" v="CB23 1JL"/>
    <tag k="addr:street" v="School Lane"/>
    <tag k="addr:village" v="Haslingfield"/>
    <tag k="building" v="yes"/>
  </way>
  <way id="638350103" version="4" timestamp="2021-03-25T21:38:45Z" changeset="101746091" uid="145231" user="woodpeck_repair">
    <nd ref="6016440248"/>
    <nd ref="6016440245"/>
    <nd ref="6016440246"/>
    <nd ref="6016440247"/>
    <nd ref="6016440248"/>
    <tag k="addr:city" v="Cambridge"/>
    <tag k="addr:housename" v="Brook Farm"/>
    <tag k="addr:postcode" v="CB23 1LN"/>
    <tag k="addr:street" v="Barton Road, Haslingfield"/>
    <tag k="building" v="yes"/>
    <tag k="name" v="Brook Farm"/>
  </way>
  <way id="691916547" version="1" timestamp="2019-05-23T08:55:55Z" changeset="70543393" uid="9196113" user="rmmunnan">
    <nd ref="6494484029"/>
    <nd ref="6494484030"/>
    <nd ref="6494484031"/>
    <tag k="highway" v="residential"/>
  </way>
  <way id="857477332" version="1" timestamp="2020-10-10T09:37:00Z" changeset="92269479" uid="10219386" user="bathines">
    <nd ref="7994556614"/>
    <nd ref="7994556615"/>
    <nd ref="7994556616"/>
    <nd ref="7994556617"/>
    <nd ref="7994556618"/>
    <tag k="highway" v="residential"/>
  </way>
  <way id="1004138673" version="2" timestamp="2024-10-28T22:53:56Z" changeset="158476924" uid="6476359" user="NSiecw">
    <nd ref="9264998886"/>
    <nd ref="9264998892"/>
    <nd ref="9264998891"/>
    <nd ref="5856953983"/>
    <nd ref="9264998885"/>
    <nd ref="9264998887"/>
    <nd ref="9264998884"/>
    <nd ref="9264998888"/>
    <nd ref="9264998889"/>
    <nd ref="9264998890"/>
    <nd ref="9264998886"/>
    <tag k="addr:city" v="Cambridge"/>
    <tag k="addr:housenumber" v="46"/>
    <tag k="addr:postcode" v="CB23 1JF"/>
    <tag k="addr:street" v="Broad Lane"/>
    <tag k="addr:village" v="Haslingfield"/>
    <tag k="building" v="yes"/>
  </way>
  <way id="1004138674" version="2" timestamp="2024-10-28T22:53:56Z" changeset="158476924" uid="6476359" user="NSiecw">
    <nd ref="9264998904"/>
    <nd ref="9264998914"/>
    <nd ref="9264998911"/>
    <nd ref="9264998901"/>
    <nd ref="9264998908"/>
    <nd ref="9264998907"/>
    <nd ref="9264998909"/>
    <nd ref="9264998910"/>
    <nd ref="9264998902"/>
    <nd ref="9264998912"/>
    <nd ref="9264998913"/>
    <nd ref="9264998903"/>
    <nd ref="9264998906"/>
    <nd ref="9264998905"/>
    <nd ref="9264998904"/>
    <tag k="addr:city" v="Cambridge"/>
    <tag k="addr:housenumber" v="19"/>
    <tag k="addr:postcode" v="CB23 1JF"/>
    <tag k="addr:street" v="Broad Lane"/>
    <tag k="addr:village" v="Haslingfield"/>
    <tag k="building" v="house"/>
  </way>
  <way id="1004138676" version="2" timestamp="2024-10-28T22:53:56Z" changeset="158476924" uid="6476359" user="NSiecw">
    <nd ref="9265019126"/>
    <nd ref="9265019123"/>
    <nd ref="9265019124"/>
    <nd ref="9265019125"/>
    <nd ref="9265019120"/>
    <nd ref="9265019121"/>
    <nd ref="9264998879"/>
    <nd ref="9265019119"/>
    <nd ref="9265019126"/>
    <tag k="addr:city" v="Cambridge"/>
    <tag k="addr:housenumber" v="15"/>
    <tag k="addr:postcode" v="CB23 1JF"/>
    <tag k="addr:street" v="Broad Lane"/>
    <tag k="addr:village" v="Haslingfield"/>
    <tag k="building" v="house"/>
  </way>
  <way id="1004138677" version="1" timestamp="2021-11-18T21:14:40Z" changeset="113963778" uid="8661831" user="Colin_Jones">
    <nd ref="9265019132"/>
    <nd ref="9265019131"/>
    <nd ref="9265019130"/>
    <nd ref="9265019129"/>
    <nd ref="9265019132"/>
    <tag k="building" v="yes"/>
    <tag k="name" v="Bakehouse"/>
  </way>
  <way id="1004138679" version="2" timestamp="2024-10-28T22:53:56Z" changeset="158476924" uid="6476359" user="NSiecw">
    <nd ref="9265019146"/>
    <nd ref="9265019151"/>
    <nd ref="9265019150"/>
    <nd ref="9265019145"/>
    <nd ref="9265019154"/>
    <nd ref="9265019159"/>
    <nd ref="9265019156"/>
    <nd ref="9265019158"/>
    <nd ref="9265019148"/>
    <nd ref="9265019153"/>
    <nd ref="9265019152"/>
    <nd ref="9265019149"/>
    <nd ref="9265019157"/>
    <nd ref="9265019160"/>
    <nd ref="9265019147"/>
    <nd ref="9265019155"/>
    <nd ref="9265019146"/>
    <tag k="addr:city" v="Cambridge"/>
    <tag k="addr:housenumber" v="2"/>
    <tag k="addr:postcode" v="CB23 1LD"/>
    <tag k="addr:street" v="Dodds Mead"/>
    <tag k="addr:village" v="Haslingfield"/>
    <tag k="building" v="bungalow"/>
  </way>
  <way id="1004138680" version="2" timestamp="2024-10-28T22:53:56Z" changeset="158476924" uid="6476359" user="NSiecw">
    <nd ref="9265019169"/>
    <nd ref="9265019183"/>
    <nd ref="9265019163"/>
    <nd ref="9265019171"/>
    <nd ref="9265019173"/>
    <nd ref="9265019172"/>
    <nd ref="9265019164"/>
    <nd ref="9265019170"/>
    <nd ref="9265019168"/>
    <nd ref="9265019165"/>
    <nd ref="9265019177"/>
    <nd ref="9265019176"/>
    <nd ref="9265019166"/>
    <nd ref="9265019182"/>
    <nd ref="9265019181"/>
    <nd ref="9265019184"/>
    <nd ref="9265019178"/>
    <nd ref="9265019162"/>
    <nd ref="9265019175"/>
    <nd ref="9265019174"/>
    <nd ref="9265019161"/>
    <nd ref="9265019179"/>
    <nd ref="9265019180"/>
    <nd ref="9265019167"/>
    <nd ref="9265019169"/>
    <tag k="addr:city" v="Cambridge"/>
    <tag k="addr:housenumber" v="1"/>
    <tag k="addr:postcode" v="CB23 1LD"/>
    <tag k="addr:street" v="Dodds Mead"/>
    <tag k="addr:village" v="Haslingfield"/>
    <tag k="building" v="bungalow"/>
  </way>
  <way id="1004138681" version="2" timestamp="2024-10-28T22:53:56Z" changeset="158476924" uid="6476359" user="NSiecw">
    <nd ref="9265019187"/>
    <nd ref="9265019196"/>
    <nd ref="9265019193"/>
    <nd ref="9265019185"/>
    <nd ref="9265019192"/>
    <nd ref="9265019191"/>
    <nd ref="9265019186"/>
    <nd ref="9265019194"/>
    <nd ref="9265019188"/>
    <nd ref="9265019195"/>
    <nd ref="9265019189"/>
    <nd ref="9265019190"/>
    <nd ref="9265019187"/>
    <tag k="addr:city" v="Cambridge"/>
    <tag k="addr:housenumber" v="3"/>
    <tag k="addr:postcode" v="CB23 1LD"/>
    <tag k="addr:street" v="Dodds Mead"/>
    <tag k="addr:village" v="Haslingfield"/>
    <tag k="building" v="house"/>
  </way>
  <way id="1004138682" version="2" timestamp="2024-10-28T22:53:56Z" changeset="158476924" uid="6476359" user="NSiecw">
    <nd ref="9265019199"/>
    <nd ref="9265019208"/>
    <nd ref="9265019206"/>
    <nd ref="9265019197"/>
    <nd ref="9265019205"/>
    <nd ref="9265019204"/>
    <nd ref="9265019207"/>
    <nd ref="9265019203"/>
    <nd ref="9265019198"/>
    <nd ref="9265019200"/>
    <nd ref="9265019201"/>
    <nd ref="9265019202"/>
    <nd ref="9265019199"/>
    <tag k="addr:city" v="Cambridge"/>
    <tag k="addr:housenumber" v="4"/>
    <tag k="addr:postcode" v="CB23 1LD"/>
    <tag k="addr:street" v="Dodds Mead"/>
    <tag k="addr:village" v="Haslingfield"/>
    <tag k="building" v="house"/>
  </way>
  <way id="1004138683" version="2" timestamp="2024-10-28T22:53:56Z" changeset="158476924" uid="6476359" user="NSiecw">
    <nd ref="9265019220"/>
    <nd ref="9265019219"/>
    <nd ref="9265019218"/>
    <nd ref="9265019217"/>
    <nd ref="9265019216"/>
    <nd ref="9265019215"/>
    <nd ref="9265019214"/>
    <nd ref="9265019213"/>
    <nd ref="9265019212"/>
    <nd ref="9265019211"/>
    <nd ref="9265019210"/>
    <nd ref="9265019209"/>
    <nd ref="9265019220"/>
    <tag k="addr:city" v="Cambridge"/>
    <tag k="addr:housenumber" v="5"/>
    <tag k="addr:postcode" v="CB23 1LD"/>
    <tag k="addr:street" v="Dodds Mead"/>
    <tag k="addr:village" v="Haslingfield"/>
    <tag k="building" v="house"/>
  </way>
  <way id="1004138684" version="2" timestamp="2024-10-28T22:53:56Z" changeset="158476924" uid="6476359" user="NSiecw">
    <nd ref="9265019232"/>
    <nd ref="9265019231"/>
    <nd ref="9265019224"/>
    <nd ref="9265019227"/>
    <nd ref="9265019228"/>
    <nd ref="9265019221"/>
    <nd ref="9265019226"/>
    <nd ref="9265019225"/>
    <nd ref="9265019222"/>
    <nd ref="9265019229"/>
    <nd ref="9265019230"/>
    <nd ref="9265019223"/>
    <nd ref="9265019232"/>
    <tag k="addr:city" v="Cambridge"/>
    <tag k="addr:housenumber" v="6"/>
    <tag k="addr:postcode" v="CB23 1LD"/>
    <tag k="addr:street" v="Dodds Mead"/>
    <tag k="addr:village" v="Haslingfield"/>
    <tag k="building" v="house"/>
  </way>
  <way id="1004151135" version="2" timestamp="2023-12-31T11:10:52Z" changeset="145727978" uid="242345" user="confusedbuffalo">
    <nd ref="9265131889"/>
    <nd ref="9265131888"/>
    <nd ref="9265131887"/>
    <nd ref="9265131880"/>
    <nd ref="9265131884"/>
    <nd ref="9265131878"/>
    <nd ref="9265131882"/>
    <nd ref="9265131883"/>
    <nd ref="9265131879"/>
    <nd ref="9265131885"/>
    <nd ref="9265131881"/>
    <nd ref="9265131886"/>
    <nd ref="9265131889"/>
    <tag k="addr:housenumber" v="113"/>
    <tag k="addr:postcode" v="CB23 1LP"/>
    <tag k="addr:street" v="New Road"/>
    <tag k="building" v="house"/>
  </way>
  <way id="1004151138" version="2" timestamp="2024-10-28T22:53:56Z" changeset="158476924" uid="6476359" user="NSiecw">
    <nd ref="9265131910"/>
    <nd ref="9265131914"/>
    <nd ref="9265131908"/>
    <nd ref="9265131916"/>
    <nd ref="9265134517"/>
    <nd ref="9265134518"/>
    <nd ref="9265131913"/>
    <nd ref="9265131915"/>
    <nd ref="9265131909"/>
    <nd ref="9265131912"/>
    <nd ref="9265131911"/>
    <nd ref="9265134521"/>
    <nd ref="9265134522"/>
    <nd ref="9265134523"/>
    <nd ref="9265131910"/>
    <tag k="addr:city" v="Cambridge"/>
    <tag k="addr:housenumber" v="42"/>
    <tag k="addr:postcode" v="CB23 1JF"/>
    <tag k="addr:street" v="Broad Lane"/>
    <tag k="addr:village" v="Haslingfield"/>
    <tag k="building" v="house"/>
  </way>
  <way id="1004151139" version="2" timestamp="2024-10-28T22:53:56Z" changeset="158476924" uid="6476359" user="NSiecw">
    <nd ref="9265134523"/>
    <nd ref="9265134522"/>
    <nd ref="9265134521"/>
    <nd ref="9265134519"/>
    <nd ref="9265134533"/>
    <nd ref="9265134532"/>
    <nd ref="9265134524"/>
    <nd ref="9265134530"/>
    <nd ref="9265134529"/>
    <nd ref="9265134525"/>
    <nd ref="9265134531"/>
    <nd ref="9265134526"/>
    <nd ref="9265134528"/>
    <nd ref="9265134527"/>
    <nd ref="9265134534"/>
    <nd ref="9265134520"/>
    <nd ref="9265134523"/>
    <tag k="addr:city" v="Cambridge"/>
    <tag k="addr:housenumber" v="40"/>
    <tag k="addr:postcode" v="CB23 1JF"/>
    <tag k="addr:street" v="Broad Lane"/>
    <tag k="addr:village" v="Haslingfield"/>
    <tag k="building" v="house"/>
  </way>
  <way id="1004151140" version="2" timestamp="2024-10-28T22:53:56Z" changeset="158476924" uid="6476359" user="NSiecw">
    <nd ref="9265134540"/>
    <nd ref="9265134539"/>
    <nd ref="9265134538"/>
    <nd ref="9265134536"/>
    <nd ref="9265134541"/>
    <nd ref="9265134542"/>
    <nd ref="9265134535"/>
    <nd ref="9265134537"/>
    <nd ref="9265134540"/>
    <tag k="addr:city" v="Cambridge"/>
    <tag k="addr:housenumber" v="50"/>
    <tag k="addr:postcode" v="CB23 1JF"/>
    <tag k="addr:street" v="Broad Lane"/>
    <tag k="addr:village" v="Haslingfield"/>
    <tag k="building" v="yes"/>
  </way>
  <way id="1004151141" version="2" timestamp="2024-10-28T22:53:56Z" changeset="158476924" uid="6476359" user="NSiecw">
    <nd ref="9265134548"/>
    <nd ref="9265134550"/>
    <nd ref="9265134549"/>
    <nd ref="9265134544"/>
    <nd ref="9265134547"/>
    <nd ref="9265134546"/>
    <nd ref="9265134557"/>
    <nd ref="9265134556"/>
    <nd ref="9265134551"/>
    <nd ref="9265134553"/>
    <nd ref="9265134542"/>
    <nd ref="9265134541"/>
    <nd ref="9265134552"/>
    <nd ref="9265134543"/>
    <nd ref="9265134554"/>
    <nd ref="9265134555"/>
    <nd ref="9265134545"/>
    <nd ref="9265134558"/>
    <nd ref="9265134548"/>
    <tag k="addr:city" v="Cambridge"/>
    <tag k="addr:housenumber" v="52"/>
    <tag k="addr:postcode" v="CB23 1JF"/>
    <tag k="addr:street" v="Broad Lane"/>
    <tag k="addr:village" v="Haslingfield"/>
    <tag k="building" v="house"/>
  </way>
  <way id="1004151142" version="2" timestamp="2024-10-28T22:53:56Z" changeset="158476924" uid="6476359" user="NSiecw">
    <nd ref="9265134565"/>
    <nd ref="9265134567"/>
    <nd ref="9265134563"/>
    <nd ref="9265134575"/>
    <nd ref="9265134576"/>
    <nd ref="9265134561"/>
    <nd ref="9265134574"/>
    <nd ref="9265134573"/>
    <nd ref="9265134560"/>
    <nd ref="9265134559"/>
    <nd ref="9265134572"/>
    <nd ref="9265134570"/>
    <nd ref="9265134571"/>
    <nd ref="9265134562"/>
    <nd ref="9265134566"/>
    <nd ref="9265134564"/>
    <nd ref="9265134569"/>
    <nd ref="9265134568"/>
    <nd ref="9265134565"/>
    <tag k="addr:city" v="Cambridge"/>
    <tag k="addr:housenumber" v="56"/>
    <tag k="addr:postcode" v="CB23 1JF"/>
    <tag k="addr:street" v="Broad Lane"/>
    <tag k="addr:village" v="Haslingfield"/>
    <tag k="building" v="house"/>
  </way>
  <way id="1011234128" version="5" timestamp="2023-11-04T11:59:53Z" changeset="143610097" uid="742701" user="kerr smith">
    <nd ref="21076390"/>
    <nd ref="11313804537"/>
    <nd ref="11313811782"/>
    <nd ref="367855044"/>
    <nd ref="1698547724"/>
    <nd ref="1698547726"/>
    <tag k="highway" v="primary"/>
    <tag k="lanes" v="2"/>
    <tag k="lit" v="no"/>
    <tag k="maxspeed" v="60 mph"/>
    <tag k="maxspeed:type" v="GB:nsl_single"/>
    <tag k="name" v="Wimpole Road"/>
    <tag k="ref" v="A603"/>
    <tag k="smoothness" v="good"/>
    <tag k="surface" v="asphalt"/>
  </way>
  <way id="1017331665" version="1" timestamp="2022-01-01T13:21:38Z" changeset="115636051" uid="8661831" user="Colin_Jones">
    <nd ref="9383561838"/>
    <nd ref="5856954260"/>
    <nd ref="5856954259"/>
    <nd ref="9383561837"/>
    <nd ref="9383561838"/>
    <tag k="addr:city" v="Cambridge"/>
    <tag k="addr:housenumber" v="2"/>
    <tag k="addr:postcode" v="CB23 1JA"/>
    <tag k="addr:street" v="Stearne's Yard"/>
    <tag k="addr:village" v="Haslingfield"/>
    <tag k="building" v="house"/>
  </way>
  <way id="1017331666" version="1" timestamp="2022-01-01T13:21:38Z" changeset="115636051" uid="8661831" user="Colin_Jones">
    <nd ref="9383561841"/>
    <nd ref="3649026329"/>
    <nd ref="3649026330"/>
    <nd ref="9383561840"/>
    <nd ref="9383561841"/>
    <tag k="addr:housenumber" v="6"/>
    <tag k="addr:street" v="Lilac Close"/>
    <tag k="addr:village" v="Haslingfield"/>
    <tag k="building" v="house"/>
  </way>
  <way id="1017331667" version="1" timestamp="2022-01-01T13:21:38Z" changeset="115636051" uid="8661831" user="Colin_Jones">
    <nd ref="9383561843"/>
    <nd ref="3911516364"/>
    <nd ref="3911516365"/>
    <nd ref="9383561842"/>
    <nd ref="9383561843"/>
    <tag k="addr:housenumber" v="9"/>
    <tag k="addr:street" v="Lilac Close"/>
    <tag k="addr:village" v="Haslingfield"/>
    <tag k="building" v="house"/>
  </way>
  <way id="1235798323" version="1" timestamp="2023-12-31T11:10:52Z" changeset="145727978" uid="242345" user="confusedbuffalo">
    <nd ref="11472716682"/>
    <nd ref="5856952707"/>
    <nd ref="5856952706"/>
    <nd ref="11472716681"/>
    <nd ref="11472716682"/>
    <tag k="addr:city" v="Cambridge"/>
    <tag k="addr:housenumber" v="5"/>
    <tag k="addr:postcode" v="CB23 1NA"/>
    <tag k="addr:street" v="Sidney Gardens"/>
    <tag k="addr:village" v="Haslingfield"/>
    <tag k="building" v="house"/>
  </way>
  <way id="1235798324" version="1" timestamp="2023-12-31T11:10:52Z" changeset="145727978" uid="242345" user="confusedbuffalo">
    <nd ref="11472716684"/>
    <nd ref="5856952711"/>
    <nd ref="5856952710"/>
    <nd ref="11472716683"/>
    <nd ref="11472716684"/>
    <tag k="addr:city" v="Cambridge"/>
    <tag k="addr:housenumber" v="3"/>
    <tag k="addr:postcode" v="CB23 1NA"/>
    <tag k="addr:street" v="Sidney Gardens"/>
    <tag k="addr:village" v="Haslingfield"/>
    <tag k="building" v="house"/>
  </way>
  <way id="1235798325" version="1" timestamp="2023-12-31T11:10:52Z" changeset="145727978" uid="242345" user="confusedbuffalo">
    <nd ref="11472716686"/>
    <nd ref="5856952713"/>
    <nd ref="5856952714"/>
    <nd ref="11472716685"/>
    <nd ref="11472716686"/>
    <tag k="addr:city" v="Cambridge"/>
    <tag k="addr:housenumber" v="1"/>
    <tag k="addr:postcode" v="CB23 1NA"/>
    <tag k="addr:street" v="Sidney Gardens"/>
    <tag k="addr:village" v="Haslingfield"/>
    <tag k="building" v="house"/>
  </way>
  <way id="1235798327" version="1" timestamp="2023-12-31T11:10:52Z" changeset="145727978" uid="242345" user="confusedbuffalo">
    <nd ref="11472716690"/>
    <nd ref="5856952938"/>
    <nd ref="5856952937"/>
    <nd ref="11472716689"/>
    <nd ref="11472716690"/>
    <tag k="addr:housenumber" v="128"/>
    <tag k="addr:postcode" v="CB23 1LP"/>
    <tag k="addr:street" v="New Road"/>
    <tag k="building" v="house"/>
  </way>
  <way id="1258854232" version="1" timestamp="2024-03-07T22:42:27Z" changeset="148362850" uid="5173844" user="ndrw6">
    <nd ref="3001204115"/>
    <nd ref="11702279257"/>
    <nd ref="11702279256"/>
    <tag k="highway" v="residential"/>
    <tag k="maxspeed" v="30 mph"/>
    <tag k="name" v="Watsons Yard"/>
    <tag k="surface" v="asphalt"/>
  </way>
  <way id="1328914438" version="1" timestamp="2024-10-28T22:53:56Z" changeset="158476924" uid="6476359" user="NSiecw">
    <nd ref="12294884572"/>
    <nd ref="5856954211"/>
    <nd ref="5856954212"/>
    <nd ref="5856954213"/>
    <nd ref="5856954214"/>
    <nd ref="12294884571"/>
    <nd ref="12294884570"/>
    <nd ref="5856954217"/>
    <nd ref="12294884572"/>
    <tag k="addr:city" v="Cambridge"/>
    <tag k="addr:housename" v="Leigh Cottage"/>
    <tag k="addr:housenumber" v="6"/>
    <tag k="addr:postcode" v="CB23 1JR"/>
    <tag k="addr:street" v="Church Way"/>
    <tag k="addr:village" v="Haslingfield"/>
    <tag k="building" v="yes"/>
  </way>
  <way id="1328914439" version="1" timestamp="2024-10-28T22:53:56Z" changeset="158476924" uid="6476359" user="NSiecw">
    <nd ref="12294884573"/>
    <nd ref="12294884572"/>
    <nd ref="5856954211"/>
    <nd ref="5856954210"/>
    <nd ref="5856954215"/>
    <nd ref="5856954216"/>
    <nd ref="12294884573"/>
    <tag k="addr:city" v="Cambridge"/>
    <tag k="addr:housenumber" v="2"/>
    <tag k="addr:postcode" v="CB23 1JR"/>
    <tag k="addr:street" v="Church Way"/>
    <tag k="addr:village" v="Haslingfield"/>
    <tag k="building" v="yes"/>
  </way>

</osm>
