<?xml version="1.0" encoding="UTF-8"?>
<osm version="0.6" generator="Overpass API 0.7.62.5 1bd436f1">
<note>The data included in this document is from www.openstreetmap.org. The data is made available under ODbL.</note>
<meta osm_base="2025-04-27T07:26:02Z" areas="2024-12-31T00:49:33Z"/>

  <node id="328532" lat="52.0681455" lon="0.1671712" version="6" timestamp="2016-08-06T06:19:35Z" changeset="41282172" uid="2299575" user="Robbie Francis"/>
  <node id="5245030" lat="52.1487995" lon="0.1037021" version="5" timestamp="2021-08-28T20:42:44Z" changeset="110393755" uid="493595" user="Yorvik Prestigitator"/>
  <node id="25779952" lat="52.1402460" lon="0.1104739" version="3" timestamp="2009-12-08T06:56:10Z" changeset="3322202" uid="21502" user="Kevin Steinhardt"/>
  <node id="25779998" lat="52.1368230" lon="0.0989590" version="4" timestamp="2012-02-05T16:03:42Z" changeset="10594946" uid="3582" user="davidearl"/>
  <node id="26355866" lat="52.1445861" lon="0.1258655" version="3" timestamp="2013-04-26T13:16:48Z" changeset="15872207" uid="281267" user="smb1001"/>
  <node id="34094203" lat="52.1271939" lon="0.1355425" version="1" timestamp="2007-08-12T21:57:55Z" changeset="206589" uid="3582" user="davidearl">
    <tag k="created_by" v="JOSM"/>
  </node>
  <node id="36744851" lat="52.1512865" lon="0.1104371" version="4" timestamp="2012-06-07T12:26:04Z" changeset="11824559" uid="24119" user="Mauls"/>
  <way id="4237707" version="18" timestamp="2023-10-06T19:24:44Z" changeset="142245228" uid="20240549" user="Sforzando9500">
    <nd ref="11244406954"/>
    <nd ref="6102531303"/>
    <nd ref="6102531297"/>
    <nd ref="25301205"/>
    <nd ref="968822585"/>
    <nd ref="25301206"/>
    <nd ref="968822071"/>
    <nd ref="25301352"/>
    <nd ref="25301356"/>
    <nd ref="11207310465"/>
    <nd ref="25301353"/>
    <nd ref="968822175"/>
    <nd ref="25301207"/>
    <nd ref="25301350"/>
    <nd ref="550880275"/>
    <nd ref="6102610969"/>
    <nd ref="1619056291"/>
    <nd ref="6102534958"/>
    <nd ref="25301349"/>
    <nd ref="6102498815"/>
    <nd ref="25301209"/>
    <nd ref="25301348"/>
    <nd ref="25301210"/>
    <tag k="highway" v="tertiary"/>
    <tag k="lanes" v="2"/>
    <tag k="name" v="Whittlesford Road"/>
    <tag k="surface" v="asphalt"/>
  </way>
  <way id="4280054" version="13" timestamp="2023-10-06T19:28:04Z" changeset="142245228" uid="20240549" user="Sforzando9500">
    <nd ref="5245203"/>
    <nd ref="2192884260"/>
    <nd ref="11207336779"/>
    <nd ref="11207336791"/>
    <nd ref="8983307169"/>
    <nd ref="2192884264"/>
    <nd ref="2192884265"/>
    <nd ref="5810211360"/>
    <nd ref="2192884255"/>
    <nd ref="2192884256"/>
    <nd ref="2192884262"/>
    <nd ref="2192884259"/>
    <nd ref="1619056319"/>
    <nd ref="583433383"/>
    <nd ref="1619056313"/>
    <nd ref="2192908196"/>
    <nd ref="1619056306"/>
    <nd ref="8979605621"/>
    <nd ref="1619056305"/>
    <nd ref="11244322907"/>
    <tag k="abutters" v="residential"/>
    <tag k="highway" v="tertiary"/>
    <tag k="maxspeed" v="30 mph"/>
    <tag k="maxspeed:type" v="sign"/>
    <tag k="name" v="High Street"/>
  </way>
  <way id="4280055" version="5" timestamp="2023-10-06T19:23:24Z" changeset="142245228" uid="20240549" user="Sforzando9500">
    <nd ref="1619056294"/>
    <nd ref="1619056293"/>
    <tag k="highway" v="tertiary"/>
    <tag k="lanes" v="2"/>
    <tag k="maxspeed" v="40 mph"/>
    <tag k="maxspeed:type" v="sign"/>
    <tag k="name" v="High Street"/>
    <tag k="source:name" v="local knowledge"/>
    <tag k="surface" v="asphalt"/>
  </way>
  <way id="4280056" version="5" timestamp="2024-08-28T18:30:12Z" changeset="155894835" uid="10554793" user="dstansby">
    <nd ref="1619056294"/>
    <nd ref="1619056296"/>
    <nd ref="1619056298"/>
    <tag k="highway" v="tertiary"/>
    <tag k="lanes" v="2"/>
    <tag k="maxspeed" v="40 mph"/>
    <tag k="maxspeed:type" v="sign"/>
    <tag k="name" v="High Street"/>
    <tag k="source:name" v="local knowledge"/>
    <tag k="surface" v="asphalt"/>
  </way>
  <way id="4280060" version="13" timestamp="2023-09-24T22:58:30Z" changeset="141705412" uid="20240549" user="Sforzando9500">
    <nd ref="25779998"/>
    <nd ref="1619056292"/>
    <nd ref="582686437"/>
    <nd ref="582686253"/>
    <nd ref="25779996"/>
    <nd ref="6709839052"/>
    <nd ref="582686279"/>
    <nd ref="544551265"/>
    <nd ref="11216906164"/>
    <nd ref="25779995"/>
    <nd ref="25779994"/>
    <nd ref="25779993"/>
    <tag k="highway" v="tertiary"/>
    <tag k="lanes" v="2"/>
    <tag k="lit" v="no"/>
    <tag k="maxspeed" v="60 mph"/>
    <tag k="maxspeed:type" v="GB:nsl_single"/>
    <tag k="name" v="Shelford Road"/>
    <tag k="source:lit" v="local_knowledge (2010)"/>
  </way>
  <way id="4280063" version="6" timestamp="2023-09-24T22:31:14Z" changeset="141704091" uid="20240549" user="Sforzando9500">
    <nd ref="25779992"/>
    <nd ref="25779991"/>
    <nd ref="583433348"/>
    <nd ref="11216906039"/>
    <nd ref="2282095499"/>
    <nd ref="11216903303"/>
    <nd ref="968094768"/>
    <nd ref="25779956"/>
    <tag k="abutters" v="residential"/>
    <tag k="highway" v="tertiary"/>
    <tag k="maxspeed" v="30 mph"/>
    <tag k="name" v="Newton Road"/>
  </way>
  <way id="4280064" version="5" timestamp="2024-12-29T21:20:21Z" changeset="160768360" uid="5229644" user="Nathan_A_RF">
    <nd ref="25779993"/>
    <nd ref="583192598"/>
    <nd ref="25779992"/>
    <tag k="highway" v="tertiary"/>
    <tag k="maxspeed" v="60 mph"/>
    <tag k="maxspeed:type" v="GB:nsl_single"/>
    <tag k="name" v="Newton Road"/>
  </way>
  <way id="4280065" version="9" timestamp="2023-11-04T11:49:33Z" changeset="143609469" uid="20240549" user="Sforzando9500">
    <nd ref="1619056400"/>
    <nd ref="1619056384"/>
    <tag k="cycleway:both" v="no"/>
    <tag k="highway" v="residential"/>
    <tag k="lane_markings" v="no"/>
    <tag k="lit" v="yes"/>
    <tag k="maxspeed" v="30 mph"/>
    <tag k="maxspeed:type" v="sign"/>
    <tag k="name" v="Beech Close"/>
    <tag k="sidewalk" v="both"/>
    <tag k="surface" v="asphalt"/>
  </way>
  <way id="4280066" version="8" timestamp="2024-11-03T21:57:13Z" changeset="158718664" uid="20240549" user="Sforzando9500">
    <nd ref="1619056374"/>
    <nd ref="1619056383"/>
    <nd ref="1619056399"/>
    <nd ref="1619056407"/>
    <nd ref="1619056409"/>
    <nd ref="1619056406"/>
    <nd ref="1619056397"/>
    <nd ref="1619056384"/>
    <tag k="cycleway:both" v="no"/>
    <tag k="highway" v="residential"/>
    <tag k="maxspeed" v="30 mph"/>
    <tag k="maxspeed:type" v="sign"/>
    <tag k="name" v="Beech Close"/>
    <tag k="sidewalk" v="left"/>
    <tag k="surface" v="asphalt"/>
  </way>
  <way id="4280068" version="22" timestamp="2023-12-30T23:33:34Z" changeset="145716417" uid="20240549" user="Sforzando9500">
    <nd ref="1619056457"/>
    <nd ref="1619056455"/>
    <nd ref="1619056454"/>
    <nd ref="5810211807"/>
    <nd ref="25301191"/>
    <nd ref="7710094529"/>
    <nd ref="25301358"/>
    <nd ref="25301192"/>
    <nd ref="11191666086"/>
    <nd ref="34094168"/>
    <nd ref="34094150"/>
    <nd ref="25301193"/>
    <nd ref="1619056408"/>
    <nd ref="1619056400"/>
    <nd ref="1619056373"/>
    <nd ref="2282095711"/>
    <nd ref="11194927434"/>
    <nd ref="11189258277"/>
    <nd ref="8606333781"/>
    <nd ref="11189258263"/>
    <nd ref="1619056334"/>
    <nd ref="11189258261"/>
    <nd ref="2282095739"/>
    <nd ref="25301197"/>
    <nd ref="2282095721"/>
    <tag k="abutters" v="residential"/>
    <tag k="cycleway:both" v="no"/>
    <tag k="highway" v="tertiary"/>
    <tag k="lanes" v="2"/>
    <tag k="lit" v="yes"/>
    <tag k="maxspeed" v="30 mph"/>
    <tag k="maxspeed:type" v="sign"/>
    <tag k="name" v="Whittlesford Road"/>
    <tag k="sidewalk" v="right"/>
    <tag k="surface" v="asphalt"/>
  </way>
  <way id="4330986" version="15" timestamp="2023-11-05T22:46:44Z" changeset="143670458" uid="20240549" user="Sforzando9500">
    <nd ref="5245203"/>
    <nd ref="2192884258"/>
    <nd ref="11328300009"/>
    <nd ref="11202213792"/>
    <nd ref="26355865"/>
    <nd ref="5245204"/>
    <nd ref="533796610"/>
    <nd ref="2282095640"/>
    <nd ref="635009971"/>
    <nd ref="1619056458"/>
    <nd ref="5245205"/>
    <nd ref="26355867"/>
    <nd ref="5810211808"/>
    <nd ref="1619056457"/>
    <tag k="abutters" v="residential"/>
    <tag k="bicycle" v="yes"/>
    <tag k="cycleway:both" v="no"/>
    <tag k="foot" v="yes"/>
    <tag k="highway" v="tertiary"/>
    <tag k="maxspeed" v="30 mph"/>
    <tag k="name" v="Church Street"/>
    <tag k="oneway" v="no"/>
    <tag k="sidewalk" v="both"/>
    <tag k="surface" v="asphalt"/>
  </way>
  <way id="4331024" version="14" timestamp="2025-04-07T13:20:33Z" changeset="164634427" uid="10554793" user="dstansby">
    <nd ref="5245030"/>
    <nd ref="7419663920"/>
    <nd ref="533796328"/>
    <nd ref="2357112612"/>
    <nd ref="26355900"/>
    <nd ref="2357112611"/>
    <nd ref="2357112607"/>
    <nd ref="26355898"/>
    <nd ref="33128942"/>
    <nd ref="3263834047"/>
    <nd ref="5245035"/>
    <nd ref="3263834051"/>
    <nd ref="5915720713"/>
    <nd ref="3713791917"/>
    <nd ref="2357112594"/>
    <nd ref="2357112591"/>
    <nd ref="708543182"/>
    <tag k="abutters" v="residential"/>
    <tag k="bicycle" v="yes"/>
    <tag k="cycleway" v="no"/>
    <tag k="highway" v="tertiary"/>
    <tag k="maxheight:signed" v="no"/>
    <tag k="name" v="High Street"/>
    <tag k="oneway" v="no"/>
    <tag k="surface" v="asphalt"/>
  </way>
  <way id="4331027" version="11" timestamp="2023-11-05T08:03:17Z" changeset="143639380" uid="20240549" user="Sforzando9500">
    <nd ref="708543182"/>
    <nd ref="5809603085"/>
    <nd ref="5245192"/>
    <nd ref="7744011848"/>
    <nd ref="7744011849"/>
    <nd ref="11215840842"/>
    <nd ref="3174333871"/>
    <nd ref="25779954"/>
    <tag k="highway" v="tertiary"/>
    <tag k="oneway" v="no"/>
    <tag k="surface" v="asphalt"/>
  </way>
  <way id="4740639" version="11" timestamp="2024-11-16T15:54:22Z" changeset="159213351" uid="10554793" user="dstansby">
    <nd ref="12276873939"/>
    <nd ref="25301190"/>
    <nd ref="26355866"/>
    <tag k="abutters" v="residential"/>
    <tag k="cycleway:both" v="no"/>
    <tag k="highway" v="tertiary"/>
    <tag k="lanes" v="2"/>
    <tag k="maxspeed" v="20 mph"/>
    <tag k="name" v="Bridge Lane"/>
    <tag k="sidewalk" v="both"/>
    <tag k="surface" v="asphalt"/>
  </way>
  <way id="4991456" version="19" timestamp="2022-10-30T20:02:11Z" changeset="128261539" uid="3560" user="Firefishy">
    <nd ref="33129767"/>
    <nd ref="33129768"/>
    <tag k="bridge" v="yes"/>
    <tag k="carriageway_ref" v="B"/>
    <tag k="description" v="Cambridge Western Bypass"/>
    <tag k="highway" v="motorway"/>
    <tag k="lanes" v="2"/>
    <tag k="layer" v="1"/>
    <tag k="lit" v="no"/>
    <tag k="maxspeed" v="70 mph"/>
    <tag k="national_highways:area" v="8"/>
    <tag k="oneway" v="yes"/>
    <tag k="operator" v="National Highways"/>
    <tag k="operator:wikidata" v="Q5760006"/>
    <tag k="ref" v="M11"/>
    <tag k="source:ref" v="local knowledge"/>
    <tag k="surface" v="asphalt"/>
  </way>
  <way id="4991457" version="21" timestamp="2022-10-30T20:02:11Z" changeset="128261539" uid="3560" user="Firefishy">
    <nd ref="33129768"/>
    <nd ref="671218998"/>
    <nd ref="583192606"/>
    <nd ref="583192605"/>
    <nd ref="328555"/>
    <tag k="carriageway_ref" v="B"/>
    <tag k="description" v="Cambridge Western Bypass"/>
    <tag k="highway" v="motorway"/>
    <tag k="lanes" v="2"/>
    <tag k="lit" v="no"/>
    <tag k="maxspeed" v="70 mph"/>
    <tag k="national_highways:area" v="8"/>
    <tag k="oneway" v="yes"/>
    <tag k="operator" v="National Highways"/>
    <tag k="operator:wikidata" v="Q5760006"/>
    <tag k="ref" v="M11"/>
    <tag k="source:ref" v="local knowledge"/>
    <tag k="surface" v="asphalt"/>
  </way>
  <way id="4991460" version="20" timestamp="2022-10-30T20:02:11Z" changeset="128261539" uid="3560" user="Firefishy">
    <nd ref="328555"/>
    <nd ref="25779950"/>
    <tag k="bridge" v="yes"/>
    <tag k="carriageway_ref" v="B"/>
    <tag k="description" v="Cambridge Western Bypass"/>
    <tag k="highway" v="motorway"/>
    <tag k="lanes" v="2"/>
    <tag k="layer" v="1"/>
    <tag k="lit" v="no"/>
    <tag k="maxspeed" v="70 mph"/>
    <tag k="national_highways:area" v="8"/>
    <tag k="oneway" v="yes"/>
    <tag k="operator" v="National Highways"/>
    <tag k="operator:wikidata" v="Q5760006"/>
    <tag k="ref" v="M11"/>
    <tag k="source:ref" v="local knowledge"/>
    <tag k="surface" v="asphalt"/>
  </way>
  <way id="4991462" version="22" timestamp="2024-04-14T11:02:21Z" changeset="149987592" uid="616774" user="mueschel">
    <nd ref="25779950"/>
    <nd ref="583192600"/>
    <nd ref="583192584"/>
    <nd ref="583192585"/>
    <nd ref="328554"/>
    <tag k="carriageway_ref" v="B"/>
    <tag k="description" v="Cambridge Western Bypass"/>
    <tag k="highway" v="motorway"/>
    <tag k="lanes" v="2"/>
    <tag k="lit" v="no"/>
    <tag k="maxspeed" v="70 mph"/>
    <tag k="national_highways:area" v="8"/>
    <tag k="oneway" v="yes"/>
    <tag k="operator" v="National Highways"/>
    <tag k="operator:wikidata" v="Q5760006"/>
    <tag k="ref" v="M11"/>
    <tag k="source:ref" v="local knowledge"/>
    <tag k="surface" v="asphalt"/>
  </way>
  <way id="4991463" version="21" timestamp="2024-04-14T11:02:21Z" changeset="149987592" uid="616774" user="mueschel">
    <nd ref="328554"/>
    <nd ref="25779952"/>
    <tag k="bridge" v="yes"/>
    <tag k="carriageway_ref" v="B"/>
    <tag k="description" v="Cambridge Western Bypass"/>
    <tag k="highway" v="motorway"/>
    <tag k="lanes" v="2"/>
    <tag k="layer" v="1"/>
    <tag k="lit" v="no"/>
    <tag k="maxspeed" v="70 mph"/>
    <tag k="maxspeed:type" v="GB:motorway"/>
    <tag k="national_highways:area" v="8"/>
    <tag k="oneway" v="yes"/>
    <tag k="operator" v="National Highways"/>
    <tag k="operator:wikidata" v="Q5760006"/>
    <tag k="ref" v="M11"/>
    <tag k="source:ref" v="local knowledge"/>
    <tag k="surface" v="asphalt"/>
  </way>
  <way id="5063792" version="4" timestamp="2024-08-28T18:25:21Z" changeset="155894835" uid="10554793" user="dstansby">
    <nd ref="25301356"/>
    <nd ref="34093953"/>
    <tag k="highway" v="residential"/>
    <tag k="lane_markings" v="no"/>
    <tag k="surface" v="asphalt"/>
  </way>
  <way id="5063793" version="4" timestamp="2023-09-15T22:50:57Z" changeset="141322394" uid="20240549" user="Sforzando9500">
    <nd ref="5245205"/>
    <nd ref="1619056460"/>
    <nd ref="1619056463"/>
    <nd ref="1619056464"/>
    <nd ref="11194939879"/>
    <nd ref="1619056465"/>
    <nd ref="2630061092"/>
    <nd ref="1619056468"/>
    <tag k="highway" v="residential"/>
    <tag k="name" v="Manor Road"/>
    <tag k="source:name" v="dictaphone"/>
  </way>
  <way id="5063794" version="4" timestamp="2023-11-05T08:02:44Z" changeset="143639362" uid="20240549" user="Sforzando9500">
    <nd ref="1619056461"/>
    <nd ref="11216880640"/>
    <nd ref="34093968"/>
    <tag k="highway" v="residential"/>
    <tag k="maxspeed" v="30 mph"/>
    <tag k="maxspeed:type" v="sign"/>
    <tag k="name" v="Moor Close"/>
    <tag k="source:name" v="dictaphone"/>
  </way>
  <way id="5063795" version="1" timestamp="2007-08-12T22:00:33Z" changeset="206589" uid="3582" user="davidearl">
    <nd ref="34093970"/>
    <nd ref="34093968"/>
    <nd ref="34093971"/>
    <tag k="created_by" v="JOSM"/>
    <tag k="highway" v="residential"/>
    <tag k="name" v="Moor Close"/>
    <tag k="source:name" v="dictaphone"/>
  </way>
  <way id="5063796" version="5" timestamp="2023-09-21T22:40:58Z" changeset="141580193" uid="20240549" user="Sforzando9500">
    <nd ref="5810212512"/>
    <nd ref="11209046318"/>
    <nd ref="11209064756"/>
    <nd ref="25779990"/>
    <tag k="access" v="private"/>
    <tag k="description" v="Signage warns that all users should exercise caution"/>
    <tag k="highway" v="residential"/>
    <tag k="name" v="Garden Fields"/>
    <tag k="source:access" v="signage"/>
    <tag k="source:name" v="dictaphone"/>
    <tag k="surface" v="unpaved"/>
  </way>
  <way id="5063819" version="2" timestamp="2010-11-15T00:33:37Z" changeset="6374380" uid="21502" user="Kevin Steinhardt">
    <nd ref="34094203"/>
    <nd ref="25301211"/>
    <nd ref="25301212"/>
    <nd ref="25301213"/>
    <nd ref="25301347"/>
    <nd ref="25301214"/>
    <tag k="highway" v="tertiary"/>
    <tag k="name" v="Whittlesford Road"/>
  </way>
  <way id="5063820" version="4" timestamp="2023-10-06T19:22:34Z" changeset="142245150" uid="20240549" user="Sforzando9500">
    <nd ref="25301210"/>
    <nd ref="6102577548"/>
    <nd ref="6102505464"/>
    <nd ref="34094203"/>
    <tag k="abutters" v="residential"/>
    <tag k="highway" v="tertiary"/>
    <tag k="name" v="Ley Grove Cottages"/>
    <tag k="surface" v="asphalt"/>
  </way>
  <way id="5229129" version="20" timestamp="2022-10-30T20:02:11Z" changeset="128261539" uid="3560" user="Firefishy">
    <nd ref="36744852"/>
    <nd ref="671219702"/>
    <nd ref="328556"/>
    <nd ref="671219499"/>
    <nd ref="671219500"/>
    <nd ref="33129767"/>
    <tag k="carriageway_ref" v="B"/>
    <tag k="description" v="Cambridge Western Bypass"/>
    <tag k="highway" v="motorway"/>
    <tag k="lanes" v="2"/>
    <tag k="lit" v="no"/>
    <tag k="maxspeed" v="70 mph"/>
    <tag k="national_highways:area" v="8"/>
    <tag k="oneway" v="yes"/>
    <tag k="operator" v="National Highways"/>
    <tag k="operator:wikidata" v="Q5760006"/>
    <tag k="ref" v="M11"/>
    <tag k="source:ref" v="local knowledge"/>
    <tag k="surface" v="asphalt"/>
  </way>
  <way id="5229132" version="19" timestamp="2022-10-30T20:02:11Z" changeset="128261539" uid="3560" user="Firefishy">
    <nd ref="36744851"/>
    <nd ref="36744852"/>
    <tag k="bridge" v="yes"/>
    <tag k="carriageway_ref" v="B"/>
    <tag k="description" v="Cambridge Western Bypass"/>
    <tag k="highway" v="motorway"/>
    <tag k="lanes" v="2"/>
    <tag k="layer" v="1"/>
    <tag k="lit" v="no"/>
    <tag k="maxspeed" v="70 mph"/>
    <tag k="national_highways:area" v="8"/>
    <tag k="oneway" v="yes"/>
    <tag k="operator" v="National Highways"/>
    <tag k="operator:wikidata" v="Q5760006"/>
    <tag k="ref" v="M11"/>
    <tag k="source:ref" v="local knowledge"/>
    <tag k="surface" v="asphalt"/>
  </way>
  <way id="5554179" version="47" timestamp="2022-10-30T20:02:11Z" changeset="128261539" uid="3560" user="Firefishy">
    <nd ref="328532"/>
    <nd ref="671212969"/>
    <nd ref="671212970"/>
    <nd ref="328531"/>
    <nd ref="671212971"/>
    <nd ref="671212736"/>
    <nd ref="328528"/>
    <nd ref="671212497"/>
    <nd ref="671212498"/>
    <nd ref="1411857505"/>
    <nd ref="328536"/>
    <nd ref="671212321"/>
    <nd ref="671212323"/>
    <nd ref="1411857497"/>
    <nd ref="671212324"/>
    <nd ref="1411857504"/>
    <nd ref="1411857487"/>
    <nd ref="328538"/>
    <nd ref="671212173"/>
    <nd ref="1411857498"/>
    <nd ref="1411857496"/>
    <nd ref="1411857491"/>
    <nd ref="671211361"/>
    <nd ref="671211362"/>
    <nd ref="671211363"/>
    <nd ref="671211359"/>
    <nd ref="671211360"/>
    <nd ref="328540"/>
    <nd ref="322239490"/>
    <nd ref="20590602"/>
    <nd ref="328542"/>
    <nd ref="1411857489"/>
    <nd ref="328544"/>
    <nd ref="671210564"/>
    <nd ref="671210565"/>
    <nd ref="1411857499"/>
    <nd ref="231596"/>
    <nd ref="671210454"/>
    <nd ref="671210455"/>
    <nd ref="231594"/>
    <nd ref="671210456"/>
    <nd ref="671210414"/>
    <nd ref="671210416"/>
    <nd ref="33129749"/>
    <nd ref="671209818"/>
    <nd ref="231583"/>
    <nd ref="671209762"/>
    <nd ref="671209763"/>
    <nd ref="671209815"/>
    <nd ref="1779185021"/>
    <nd ref="671209764"/>
    <nd ref="231584"/>
    <nd ref="671209765"/>
    <nd ref="671209766"/>
    <nd ref="231582"/>
    <nd ref="671209438"/>
    <nd ref="231578"/>
    <nd ref="231571"/>
    <nd ref="583192483"/>
    <nd ref="583192484"/>
    <nd ref="583192488"/>
    <nd ref="583192494"/>
    <nd ref="583192512"/>
    <nd ref="583192514"/>
    <nd ref="25779953"/>
    <tag k="carriageway_ref" v="A"/>
    <tag k="description" v="Cambridge Western Bypass"/>
    <tag k="highway" v="motorway"/>
    <tag k="lanes" v="2"/>
    <tag k="lit" v="no"/>
    <tag k="maxheight" v="default"/>
    <tag k="maxspeed" v="70 mph"/>
    <tag k="national_highways:area" v="8"/>
    <tag k="oneway" v="yes"/>
    <tag k="operator" v="National Highways"/>
    <tag k="operator:wikidata" v="Q5760006"/>
    <tag k="ref" v="M11"/>
    <tag k="source:ref" v="local knowledge"/>
    <tag k="surface" v="asphalt"/>
  </way>
  <way id="5653892" version="13" timestamp="2024-11-16T15:52:40Z" changeset="159213245" uid="10554793" user="dstansby">
    <nd ref="25779954"/>
    <nd ref="2282095500"/>
    <nd ref="7537029037"/>
    <nd ref="6557716053"/>
    <nd ref="8978664028"/>
    <nd ref="8978664025"/>
    <nd ref="8978664021"/>
    <nd ref="1619056461"/>
    <nd ref="1619056456"/>
    <nd ref="1895889279"/>
    <tag k="highway" v="tertiary"/>
    <tag k="maxspeed" v="30 mph"/>
    <tag k="maxspeed:type" v="sign"/>
    <tag k="name" v="Hauxton Road"/>
    <tag k="surface" v="asphalt"/>
  </way>
  <way id="45814274" version="41" timestamp="2022-10-30T20:02:11Z" changeset="128261539" uid="3560" user="Firefishy">
    <nd ref="25779952"/>
    <nd ref="583192526"/>
    <nd ref="583192510"/>
    <nd ref="583192508"/>
    <nd ref="583192486"/>
    <nd ref="583192482"/>
    <nd ref="583192479"/>
    <nd ref="328552"/>
    <nd ref="671209434"/>
    <nd ref="671209435"/>
    <nd ref="328551"/>
    <nd ref="671209436"/>
    <nd ref="671209437"/>
    <nd ref="328550"/>
    <nd ref="671209600"/>
    <nd ref="671209603"/>
    <nd ref="671209605"/>
    <nd ref="328549"/>
    <nd ref="671209805"/>
    <nd ref="671209807"/>
    <nd ref="671209809"/>
    <nd ref="328548"/>
    <nd ref="671209819"/>
    <nd ref="33129748"/>
    <nd ref="671210233"/>
    <nd ref="671210423"/>
    <nd ref="671210424"/>
    <nd ref="671210425"/>
    <nd ref="328547"/>
    <nd ref="671210526"/>
    <nd ref="671210528"/>
    <nd ref="671210529"/>
    <nd ref="328546"/>
    <nd ref="1411857501"/>
    <nd ref="671210530"/>
    <nd ref="671210531"/>
    <nd ref="328545"/>
    <nd ref="671210838"/>
    <nd ref="1411857506"/>
    <nd ref="328543"/>
    <tag k="carriageway_ref" v="B"/>
    <tag k="description" v="Cambridge Western Bypass"/>
    <tag k="highway" v="motorway"/>
    <tag k="lanes" v="2"/>
    <tag k="lit" v="no"/>
    <tag k="maxheight" v="default"/>
    <tag k="maxspeed" v="70 mph"/>
    <tag k="national_highways:area" v="8"/>
    <tag k="oneway" v="yes"/>
    <tag k="operator" v="National Highways"/>
    <tag k="operator:wikidata" v="Q5760006"/>
    <tag k="ref" v="M11"/>
    <tag k="source:ref" v="local knowledge"/>
    <tag k="surface" v="asphalt"/>
  </way>
  <way id="45841379" version="2" timestamp="2023-09-21T09:39:14Z" changeset="141549988" uid="20240549" user="Sforzando9500">
    <nd ref="583433276"/>
    <nd ref="583433277"/>
    <nd ref="583433278"/>
    <nd ref="583433279"/>
    <nd ref="583433276"/>
    <tag k="addr:city" v="Little Shelford"/>
    <tag k="addr:housename" v="Little Shelford Farm"/>
    <tag k="addr:postcode" v="CB22 5EU"/>
    <tag k="addr:street" v="Whittlesford Road"/>
    <tag k="building" v="yes"/>
    <tag k="name" v="Little Shelford Farm"/>
    <tag k="source" v="yahoo"/>
  </way>
  <way id="83269947" version="3" timestamp="2023-09-21T09:39:14Z" changeset="141549988" uid="20240549" user="Sforzando9500">
    <nd ref="968822216"/>
    <nd ref="2497263650"/>
    <nd ref="2497263647"/>
    <nd ref="968822121"/>
    <nd ref="968822433"/>
    <nd ref="968822364"/>
    <nd ref="968822216"/>
    <tag k="addr:city" v="Little Shelford"/>
    <tag k="addr:postcode" v="CB22 5EU"/>
    <tag k="addr:street" v="Whittlesford Road"/>
    <tag k="building" v="house"/>
    <tag k="name" v="Sainsfoins Lodge"/>
  </way>
  <way id="83270004" version="3" timestamp="2023-09-21T09:39:14Z" changeset="141549988" uid="20240549" user="Sforzando9500">
    <nd ref="968822507"/>
    <nd ref="968822588"/>
    <nd ref="968822633"/>
    <nd ref="968822410"/>
    <nd ref="968822512"/>
    <nd ref="968822284"/>
    <nd ref="968822335"/>
    <nd ref="968822171"/>
    <nd ref="968822507"/>
    <tag k="addr:city" v="Little Shelford"/>
    <tag k="addr:housename" v="Sainsfoins House"/>
    <tag k="addr:postcode" v="CB22 5EU"/>
    <tag k="addr:street" v="Whittlesford Road"/>
    <tag k="building" v="house"/>
    <tag k="name" v="Sainsfoins House"/>
    <tag k="source:name" v="OS Opendata StreetView"/>
    <tag k="source:outline" v="OS Opendata StreetView"/>
  </way>
  <way id="83270015" version="5" timestamp="2023-09-21T09:39:14Z" changeset="141549988" uid="20240549" user="Sforzando9500">
    <nd ref="968822632"/>
    <nd ref="5810212853"/>
    <nd ref="5810212752"/>
    <nd ref="5810212863"/>
    <nd ref="5810212862"/>
    <nd ref="968822235"/>
    <nd ref="5810212860"/>
    <nd ref="5810212861"/>
    <nd ref="5810212866"/>
    <nd ref="5810212865"/>
    <nd ref="5810212864"/>
    <nd ref="5810212867"/>
    <nd ref="968822105"/>
    <nd ref="5810212858"/>
    <nd ref="5810212859"/>
    <nd ref="968822142"/>
    <nd ref="968822612"/>
    <nd ref="5810212857"/>
    <nd ref="5810212856"/>
    <nd ref="968822644"/>
    <nd ref="968822340"/>
    <nd ref="5810212854"/>
    <nd ref="5810212855"/>
    <nd ref="968822416"/>
    <nd ref="968822632"/>
    <tag k="addr:city" v="Little Shelford"/>
    <tag k="addr:postcode" v="CB22 5EU"/>
    <tag k="addr:street" v="Whittlesford Road"/>
    <tag k="building" v="yes"/>
    <tag k="name" v="Lismore"/>
    <tag k="source:name" v="OS Opendata StreetView"/>
    <tag k="source:outline" v="OS Opendata StreetView"/>
  </way>
  <way id="103470696" version="7" timestamp="2024-12-08T21:34:06Z" changeset="160071015" uid="20240549" user="Sforzando9500">
    <nd ref="26355866"/>
    <nd ref="1290255982"/>
    <nd ref="5245219"/>
    <tag k="abutters" v="residential"/>
    <tag k="bridge" v="yes"/>
    <tag k="cycleway:both" v="no"/>
    <tag k="highway" v="tertiary"/>
    <tag k="layer" v="1"/>
    <tag k="maxspeed" v="20 mph"/>
    <tag k="maxweight:signed" v="no"/>
    <tag k="name" v="Bridge Lane"/>
    <tag k="surface" v="asphalt"/>
  </way>
  <way id="103599048" version="4" timestamp="2023-10-09T16:40:10Z" changeset="142357646" uid="20240549" user="Sforzando9500">
    <nd ref="1196185176"/>
    <nd ref="1196185167"/>
    <nd ref="9358484465"/>
    <nd ref="1196185178"/>
    <nd ref="9358484462"/>
    <nd ref="9358484463"/>
    <nd ref="9358484464"/>
    <nd ref="1196185168"/>
    <nd ref="1196185176"/>
    <tag k="addr:city" v="Little Shelford"/>
    <tag k="addr:postcode" v="CB22 5EW"/>
    <tag k="addr:street" v="Whittlesford Road"/>
    <tag k="building" v="sports_centre"/>
    <tag k="name" v="Pavilion"/>
    <tag k="source" v="Bing"/>
  </way>
  <way id="148843726" version="8" timestamp="2024-11-03T21:51:41Z" changeset="158717006" uid="20240549" user="Sforzando9500">
    <nd ref="1619056333"/>
    <nd ref="11189278567"/>
    <nd ref="1619056332"/>
    <tag k="cycleway:both" v="no"/>
    <tag k="highway" v="residential"/>
    <tag k="lane_markings" v="no"/>
    <tag k="lit" v="yes"/>
    <tag k="maxspeed" v="30 mph"/>
    <tag k="maxspeed:type" v="sign"/>
    <tag k="name" v="Courtyards"/>
    <tag k="sidewalk:both" v="separate"/>
    <tag k="surface" v="asphalt"/>
  </way>
  <way id="148843727" version="8" timestamp="2023-10-06T19:15:08Z" changeset="142245352" uid="20240549" user="Sforzando9500">
    <nd ref="2282095721"/>
    <nd ref="1619056330"/>
    <nd ref="1619056333"/>
    <nd ref="11189132072"/>
    <nd ref="11189278569"/>
    <nd ref="11189132075"/>
    <nd ref="11189278570"/>
    <nd ref="1619056348"/>
    <nd ref="11191665292"/>
    <nd ref="1619056351"/>
    <tag k="highway" v="residential"/>
    <tag k="lane_markings" v="no"/>
    <tag k="maxspeed" v="30 mph"/>
    <tag k="maxspeed:type" v="sign"/>
    <tag k="name" v="Courtyards"/>
    <tag k="surface" v="asphalt"/>
  </way>
  <way id="148843728" version="12" timestamp="2023-11-05T17:12:40Z" changeset="143659157" uid="20240549" user="Sforzando9500">
    <nd ref="1619056368"/>
    <nd ref="11189251212"/>
    <nd ref="11189132076"/>
    <nd ref="11189251215"/>
    <nd ref="11191665295"/>
    <nd ref="1619056353"/>
    <nd ref="1619056351"/>
    <nd ref="11189278572"/>
    <nd ref="1619056342"/>
    <nd ref="11189251230"/>
    <nd ref="11189270549"/>
    <nd ref="11189278566"/>
    <nd ref="11189270554"/>
    <nd ref="1619056335"/>
    <tag k="highway" v="residential"/>
    <tag k="lane_markings" v="no"/>
    <tag k="maxspeed" v="30 mph"/>
    <tag k="maxspeed:type" v="sign"/>
    <tag k="name" v="Courtyards"/>
    <tag k="surface" v="asphalt"/>
  </way>
  <way id="148843739" version="9" timestamp="2024-11-03T21:53:08Z" changeset="158717006" uid="20240549" user="Sforzando9500">
    <nd ref="1619056319"/>
    <nd ref="11328335457"/>
    <nd ref="1619056327"/>
    <tag k="cycleway:both" v="no"/>
    <tag k="designation" v="public_footpath"/>
    <tag k="foot" v="designated"/>
    <tag k="highway" v="residential"/>
    <tag k="lane_markings" v="no"/>
    <tag k="lit" v="yes"/>
    <tag k="maxspeed" v="30 mph"/>
    <tag k="maxspeed:type" v="sign"/>
    <tag k="name" v="The Terrace"/>
    <tag k="prow_ref" v="Little Shelford FP 1"/>
    <tag k="sidewalk" v="left"/>
    <tag k="source:prow_ref" v="cambridgeshire_county_council_prow_gis_data"/>
    <tag k="surface" v="asphalt"/>
  </way>
  <way id="175428785" version="5" timestamp="2024-08-28T18:13:24Z" changeset="155894338" uid="10554793" user="dstansby">
    <nd ref="1860197699"/>
    <nd ref="1860197711"/>
    <nd ref="1860197700"/>
    <nd ref="1860197701"/>
    <nd ref="1860197699"/>
    <tag k="addr:city" v="Stapleford"/>
    <tag k="addr:housename" v="Dernford Mill House"/>
    <tag k="addr:postcode" v="CB22 5DY"/>
    <tag k="addr:street" v="Sawston Road"/>
    <tag k="building" v="detached"/>
    <tag k="name" v="Dernford Mill House"/>
  </way>
  <way id="179243198" version="6" timestamp="2024-11-16T15:52:54Z" changeset="159213245" uid="10554793" user="dstansby">
    <nd ref="1895889279"/>
    <nd ref="25779956"/>
    <nd ref="1619056449"/>
    <nd ref="11209064762"/>
    <nd ref="6635279469"/>
    <nd ref="2282095534"/>
    <nd ref="5810212512"/>
    <nd ref="5245203"/>
    <tag k="highway" v="tertiary"/>
    <tag k="maxspeed" v="30 mph"/>
    <tag k="name" v="Hauxton Road"/>
    <tag k="surface" v="asphalt"/>
  </way>
  <way id="219004371" version="5" timestamp="2023-11-05T22:46:44Z" changeset="143670458" uid="20240549" user="Sforzando9500">
    <nd ref="9536002211"/>
    <nd ref="11328300022"/>
    <nd ref="9536006018"/>
    <nd ref="11328300012"/>
    <nd ref="2282095575"/>
    <nd ref="3590210099"/>
    <nd ref="3590211115"/>
    <nd ref="3590211116"/>
    <nd ref="2282095622"/>
    <nd ref="9536002211"/>
    <tag k="addr:city" v="Little Shelford"/>
    <tag k="addr:housenumber" v="13"/>
    <tag k="addr:postcode" v="CB22 5HG"/>
    <tag k="addr:street" v="Church Street"/>
    <tag k="amenity" v="townhall"/>
    <tag k="building" v="yes"/>
    <tag k="name" v="Little Shelford Memorial Hall"/>
  </way>
  <way id="219004380" version="3" timestamp="2023-09-19T11:34:51Z" changeset="141464832" uid="20240549" user="Sforzando9500">
    <nd ref="2282095665"/>
    <nd ref="2282095636"/>
    <nd ref="2282095559"/>
    <nd ref="2282095505"/>
    <nd ref="2282095720"/>
    <nd ref="2282095495"/>
    <nd ref="11202213806"/>
    <nd ref="11202213805"/>
    <nd ref="2282095665"/>
    <tag k="addr:city" v="Little Shelford"/>
    <tag k="addr:housenumber" v="1"/>
    <tag k="addr:postcode" v="CB22 5HG"/>
    <tag k="addr:street" v="Church Street"/>
    <tag k="amenity" v="restaurant"/>
    <tag k="building" v="yes"/>
    <tag k="name" v="Sycamore House"/>
  </way>
  <way id="219004383" version="10" timestamp="2023-11-10T05:59:39Z" changeset="143848251" uid="9451067" user="b-jazz-bot">
    <nd ref="2282095696"/>
    <nd ref="11194939862"/>
    <nd ref="2282095729"/>
    <nd ref="3590212658"/>
    <nd ref="3590212657"/>
    <nd ref="11328153607"/>
    <nd ref="3590212659"/>
    <nd ref="3590212660"/>
    <nd ref="2282095676"/>
    <nd ref="2282095700"/>
    <nd ref="2282095699"/>
    <nd ref="2282095698"/>
    <nd ref="2282095670"/>
    <nd ref="2282095722"/>
    <nd ref="11328153611"/>
    <nd ref="2282095508"/>
    <nd ref="2282095667"/>
    <nd ref="2282095666"/>
    <nd ref="2282095635"/>
    <nd ref="2282095604"/>
    <nd ref="3590216738"/>
    <nd ref="2282095690"/>
    <nd ref="11194939865"/>
    <nd ref="11194939864"/>
    <nd ref="11194939863"/>
    <nd ref="2282095696"/>
    <tag k="addr:city" v="Cambridge"/>
    <tag k="addr:housename" v="All Saints Church"/>
    <tag k="addr:postcode" v="CB22 5HG"/>
    <tag k="addr:street" v="Church Street"/>
    <tag k="addr:village" v="Little Shelford"/>
    <tag k="amenity" v="place_of_worship"/>
    <tag k="building" v="church"/>
    <tag k="denomination" v="anglican"/>
    <tag k="name" v="All Saints"/>
    <tag k="ref:dove" v="11637"/>
    <tag k="religion" v="christian"/>
    <tag k="website" v="https://www.allsaintslittleshelford.org/"/>
    <tag k="wikidata" v="Q17550570"/>
  </way>
  <way id="219004386" version="5" timestamp="2024-11-03T21:53:52Z" changeset="158717025" uid="20240549" user="Sforzando9500">
    <nd ref="2282095522"/>
    <nd ref="11207400008"/>
    <nd ref="5810211458"/>
    <nd ref="5810211457"/>
    <nd ref="11207400007"/>
    <nd ref="2282095587"/>
    <nd ref="2282095528"/>
    <nd ref="2282095570"/>
    <nd ref="2282095522"/>
    <tag k="addr:city" v="Little Shelford"/>
    <tag k="addr:housenumber" v="63"/>
    <tag k="addr:postcode" v="CB22 5ES"/>
    <tag k="addr:street" v="High Street"/>
    <tag k="building" v="retail"/>
  </way>
  <way id="219004387" version="3" timestamp="2023-09-19T11:34:51Z" changeset="141464832" uid="20240549" user="Sforzando9500">
    <nd ref="2282095730"/>
    <nd ref="2282095687"/>
    <nd ref="2282095716"/>
    <nd ref="2282095639"/>
    <nd ref="2282095679"/>
    <nd ref="2282095730"/>
    <tag k="building" v="yes"/>
    <tag k="name" v="North Building"/>
  </way>
  <way id="257495911" version="4" timestamp="2023-10-06T19:34:02Z" changeset="142245977" uid="20240549" user="Sforzando9500">
    <nd ref="2630060887"/>
    <nd ref="2630060782"/>
    <nd ref="11200816108"/>
    <nd ref="11200816109"/>
    <nd ref="11200816110"/>
    <nd ref="11200816111"/>
    <nd ref="2630061022"/>
    <nd ref="2630061049"/>
    <nd ref="2630060887"/>
    <tag k="building" v="house"/>
    <tag k="name" v="Little Shelford Manor"/>
    <tag k="nohousenumber" v="yes"/>
    <tag k="wikidata" v="Q17550234"/>
  </way>
  <way id="307583670" version="5" timestamp="2025-04-18T23:54:15Z" changeset="165134490" uid="629" user="Wookey">
    <nd ref="3127807793"/>
    <nd ref="3127807795"/>
    <nd ref="3127807792"/>
    <nd ref="12767064324"/>
    <nd ref="12767064323"/>
    <nd ref="12767064322"/>
    <nd ref="12767064321"/>
    <nd ref="3127807794"/>
    <nd ref="3127807793"/>
    <tag k="addr:city" v="Little Shelford"/>
    <tag k="addr:housename" v="Ley Grove Cottages"/>
    <tag k="addr:postcode" v="CB22 5EX"/>
    <tag k="addr:street" v="Whittlesford Road"/>
    <tag k="building" v="yes"/>
    <tag k="name" v="Ley Grove Cottages"/>
  </way>
  <way id="346596932" version="2" timestamp="2023-09-21T09:39:14Z" changeset="141549988" uid="20240549" user="Sforzando9500">
    <nd ref="3531081966"/>
    <nd ref="3531081967"/>
    <nd ref="3531081968"/>
    <nd ref="3531081969"/>
    <nd ref="3531081966"/>
    <tag k="addr:city" v="Little Shelford"/>
    <tag k="addr:postcode" v="CB22 5EU"/>
    <tag k="addr:street" v="Whittlesford Road"/>
    <tag k="building" v="yes"/>
    <tag k="name" v="Farm Cottage"/>
  </way>
  <way id="353241562" version="7" timestamp="2024-04-27T16:00:58Z" changeset="150586705" uid="11108132" user="matheusgomesms-import">
    <nd ref="3590211115"/>
    <nd ref="3590211116"/>
    <nd ref="11202213759"/>
    <nd ref="11202213760"/>
    <nd ref="3590211117"/>
    <nd ref="5810211969"/>
    <nd ref="3590211118"/>
    <nd ref="3590211115"/>
    <tag k="addr:city" v="Little Shelford"/>
    <tag k="addr:housenumber" v="15"/>
    <tag k="addr:postcode" v="CB22 5HG"/>
    <tag k="addr:street" v="Church Street"/>
    <tag k="amenity" v="fast_food"/>
    <tag k="area" v="yes"/>
    <tag k="building" v="yes"/>
    <tag k="cuisine" v="fish_and_chips;chinese"/>
    <tag k="drive_through" v="no"/>
    <tag k="name" v="Shelford Winners"/>
    <tag k="opening_hours" v="Wednesday 12-2pm, 5-11pm Thursday 12-2pm, 5-11pm Friday 12-2pm, 5-11:30pm Saturday 12-2pm, 5-11:30pm Sunday 5-11pm Monday 12-2pm, 5-11pm Tuesday 12-2pm, 5-11pm"/>
    <tag k="phone" v="+44 1223 844688"/>
    <tag k="takeaway" v="yes"/>
  </way>
  <way id="353242672" version="3" timestamp="2023-09-18T19:48:07Z" changeset="141439867" uid="20240549" user="Sforzando9500">
    <nd ref="3590220568"/>
    <nd ref="3590220569"/>
    <nd ref="3590220570"/>
    <nd ref="3590220571"/>
    <nd ref="3590220572"/>
    <nd ref="3590220573"/>
    <nd ref="3590220568"/>
    <tag k="addr:city" v="Little Shelford"/>
    <tag k="addr:housename" v="The Vicarage"/>
    <tag k="addr:housenumber" v="2"/>
    <tag k="addr:postcode" v="CB22 5HF"/>
    <tag k="addr:street" v="Manor Road"/>
    <tag k="building" v="house"/>
  </way>
  <way id="614204201" version="2" timestamp="2023-09-13T17:59:30Z" changeset="141223353" uid="20240549" user="Sforzando9500">
    <nd ref="5810211066"/>
    <nd ref="5810211063"/>
    <nd ref="11188783960"/>
    <nd ref="11188783961"/>
    <nd ref="5810211064"/>
    <nd ref="5810211065"/>
    <nd ref="5810211066"/>
    <tag k="addr:city" v="Little Shelford"/>
    <tag k="addr:housenumber" v="3"/>
    <tag k="addr:postcode" v="CB22 5ER"/>
    <tag k="addr:street" v="Courtyards"/>
    <tag k="building" v="house"/>
  </way>
  <way id="614204202" version="2" timestamp="2023-09-13T17:59:30Z" changeset="141223353" uid="20240549" user="Sforzando9500">
    <nd ref="5810211070"/>
    <nd ref="5810211069"/>
    <nd ref="11188783965"/>
    <nd ref="11188783964"/>
    <nd ref="5810211068"/>
    <nd ref="5810211067"/>
    <nd ref="5810211070"/>
    <tag k="addr:city" v="Little Shelford"/>
    <tag k="addr:housenumber" v="6"/>
    <tag k="addr:postcode" v="CB22 5ER"/>
    <tag k="addr:street" v="Courtyards"/>
    <tag k="building" v="house"/>
  </way>
  <way id="614204203" version="3" timestamp="2023-09-18T18:43:55Z" changeset="141437745" uid="20240549" user="Sforzando9500">
    <nd ref="5810211074"/>
    <nd ref="11200657183"/>
    <nd ref="11200657182"/>
    <nd ref="11200657184"/>
    <nd ref="5810211071"/>
    <nd ref="5810211072"/>
    <nd ref="5810211073"/>
    <nd ref="5810211074"/>
    <tag k="addr:city" v="Little Shelford"/>
    <tag k="addr:housename" v="Catbells"/>
    <tag k="addr:housenumber" v="2"/>
    <tag k="addr:postcode" v="CB22 5ER"/>
    <tag k="addr:street" v="Courtyards"/>
    <tag k="building" v="house"/>
  </way>
  <way id="614204204" version="4" timestamp="2023-10-06T19:06:17Z" changeset="142245140" uid="20240549" user="Sforzando9500">
    <nd ref="5810211078"/>
    <nd ref="5810211075"/>
    <nd ref="5810211076"/>
    <nd ref="5810211077"/>
    <nd ref="11194764497"/>
    <nd ref="5810211078"/>
    <tag k="addr:city" v="Little Shelford"/>
    <tag k="addr:housenumber" v="1"/>
    <tag k="addr:postcode" v="CB22 5ER"/>
    <tag k="addr:street" v="Courtyards"/>
    <tag k="building" v="house"/>
    <tag k="building:levels" v="2"/>
    <tag k="roof:levels" v="0"/>
  </way>
  <way id="614204206" version="3" timestamp="2023-10-06T19:12:40Z" changeset="142244943" uid="20240549" user="Sforzando9500">
    <nd ref="5810211082"/>
    <nd ref="5810211079"/>
    <nd ref="5810211080"/>
    <nd ref="5810211081"/>
    <nd ref="5810211082"/>
    <tag k="addr:city" v="Little Shelford"/>
    <tag k="addr:housenumber" v="39"/>
    <tag k="addr:postcode" v="CB22 5ER"/>
    <tag k="addr:street" v="Courtyards"/>
    <tag k="building" v="detached"/>
  </way>
  <way id="614204207" version="3" timestamp="2023-10-06T19:12:26Z" changeset="142244943" uid="20240549" user="Sforzando9500">
    <nd ref="5810211086"/>
    <nd ref="5810211083"/>
    <nd ref="5810211084"/>
    <nd ref="5810211085"/>
    <nd ref="5810211086"/>
    <tag k="addr:city" v="Little Shelford"/>
    <tag k="addr:housenumber" v="40"/>
    <tag k="addr:postcode" v="CB22 5ER"/>
    <tag k="addr:street" v="Courtyards"/>
    <tag k="building" v="detached"/>
  </way>
  <way id="614204209" version="3" timestamp="2023-09-15T20:49:32Z" changeset="141319845" uid="20240549" user="Sforzando9500">
    <nd ref="5810211090"/>
    <nd ref="5810211087"/>
    <nd ref="5810211088"/>
    <nd ref="11194785027"/>
    <nd ref="11194785029"/>
    <nd ref="11194785028"/>
    <nd ref="5810211089"/>
    <nd ref="5810211090"/>
    <tag k="addr:city" v="Little Shelford"/>
    <tag k="addr:housenumber" v="34"/>
    <tag k="addr:postcode" v="CB22 5ER"/>
    <tag k="addr:street" v="Courtyards"/>
    <tag k="building" v="house"/>
  </way>
  <way id="614204210" version="2" timestamp="2023-09-13T22:16:36Z" changeset="141231808" uid="20240549" user="Sforzando9500">
    <nd ref="5810211094"/>
    <nd ref="5810211091"/>
    <nd ref="5810211092"/>
    <nd ref="5810211093"/>
    <nd ref="5810211094"/>
    <tag k="addr:city" v="Little Shelford"/>
    <tag k="addr:housenumber" v="38"/>
    <tag k="addr:postcode" v="CB22 5ER"/>
    <tag k="addr:street" v="Courtyards"/>
    <tag k="building" v="house"/>
  </way>
  <way id="614204213" version="2" timestamp="2023-09-13T22:16:36Z" changeset="141231808" uid="20240549" user="Sforzando9500">
    <nd ref="5810211102"/>
    <nd ref="5810211101"/>
    <nd ref="5810211100"/>
    <nd ref="5810211099"/>
    <nd ref="11189270575"/>
    <nd ref="11189270576"/>
    <nd ref="5810211102"/>
    <tag k="addr:city" v="Little Shelford"/>
    <tag k="addr:housenumber" v="37"/>
    <tag k="addr:postcode" v="CB22 5ER"/>
    <tag k="addr:street" v="Courtyards"/>
    <tag k="building" v="house"/>
  </way>
  <way id="614204215" version="3" timestamp="2023-09-13T22:16:36Z" changeset="141231808" uid="20240549" user="Sforzando9500">
    <nd ref="5810211106"/>
    <nd ref="5810211105"/>
    <nd ref="5810211104"/>
    <nd ref="5810211103"/>
    <nd ref="5810211106"/>
    <tag k="addr:city" v="Little Shelford"/>
    <tag k="addr:housenumber" v="35"/>
    <tag k="addr:postcode" v="CB22 5ER"/>
    <tag k="addr:street" v="Courtyards"/>
    <tag k="building" v="house"/>
  </way>
  <way id="614204218" version="4" timestamp="2023-09-18T18:43:55Z" changeset="141437745" uid="20240549" user="Sforzando9500">
    <nd ref="5810211118"/>
    <nd ref="5810211115"/>
    <nd ref="5810211116"/>
    <nd ref="5810211117"/>
    <nd ref="5810211118"/>
    <tag k="addr:city" v="Little Shelford"/>
    <tag k="addr:housenumber" v="32"/>
    <tag k="addr:postcode" v="CB22 5ER"/>
    <tag k="addr:street" v="Courtyards"/>
    <tag k="building" v="house"/>
  </way>
  <way id="614204219" version="2" timestamp="2023-09-13T22:16:36Z" changeset="141231808" uid="20240549" user="Sforzando9500">
    <nd ref="5810211122"/>
    <nd ref="5810211119"/>
    <nd ref="5810211120"/>
    <nd ref="5810211121"/>
    <nd ref="5810211122"/>
    <tag k="addr:city" v="Little Shelford"/>
    <tag k="addr:housenumber" v="31"/>
    <tag k="addr:postcode" v="CB22 5ER"/>
    <tag k="addr:street" v="Courtyards"/>
    <tag k="building" v="house"/>
  </way>
  <way id="614204220" version="4" timestamp="2023-09-18T18:43:55Z" changeset="141437745" uid="20240549" user="Sforzando9500">
    <nd ref="5810211126"/>
    <nd ref="5810211123"/>
    <nd ref="5810211124"/>
    <nd ref="11194785034"/>
    <nd ref="11194785035"/>
    <nd ref="5810211125"/>
    <nd ref="5810211126"/>
    <tag k="addr:city" v="Little Shelford"/>
    <tag k="addr:housenumber" v="30"/>
    <tag k="addr:postcode" v="CB22 5ER"/>
    <tag k="addr:street" v="Courtyards"/>
    <tag k="building" v="house"/>
  </way>
  <way id="614204221" version="2" timestamp="2023-09-13T22:16:36Z" changeset="141231808" uid="20240549" user="Sforzando9500">
    <nd ref="5810211130"/>
    <nd ref="5810211127"/>
    <nd ref="5810211128"/>
    <nd ref="5810211129"/>
    <nd ref="5810211130"/>
    <tag k="addr:city" v="Little Shelford"/>
    <tag k="addr:housenumber" v="27"/>
    <tag k="addr:postcode" v="CB22 5ER"/>
    <tag k="addr:street" v="Courtyards"/>
    <tag k="building" v="house"/>
  </way>
  <way id="614204222" version="4" timestamp="2023-09-20T07:00:55Z" changeset="141497528" uid="322785" user="BCNorwich">
    <nd ref="5810211134"/>
    <nd ref="5810211131"/>
    <nd ref="5810211132"/>
    <nd ref="5810211133"/>
    <nd ref="5810211134"/>
    <tag k="addr:city" v="Little Shelford"/>
    <tag k="addr:housenumber" v="28"/>
    <tag k="addr:postcode" v="CB22 5ER"/>
    <tag k="addr:street" v="Courtyards"/>
    <tag k="building" v="house"/>
  </way>
  <way id="614204224" version="4" timestamp="2023-10-06T19:13:24Z" changeset="142244943" uid="20240549" user="Sforzando9500">
    <nd ref="5810211142"/>
    <nd ref="11200657205"/>
    <nd ref="5810211146"/>
    <nd ref="5810211139"/>
    <nd ref="5810211140"/>
    <nd ref="5810211141"/>
    <nd ref="5810211142"/>
    <tag k="addr:city" v="Little Shelford"/>
    <tag k="addr:housenumber" v="26"/>
    <tag k="addr:postcode" v="CB22 5ER"/>
    <tag k="addr:street" v="Courtyards"/>
    <tag k="building" v="detached"/>
  </way>
  <way id="614204225" version="2" timestamp="2023-09-13T22:02:41Z" changeset="141231542" uid="20240549" user="Sforzando9500">
    <nd ref="5810211146"/>
    <nd ref="5810211145"/>
    <nd ref="5810211144"/>
    <nd ref="5810211143"/>
    <nd ref="11189251234"/>
    <nd ref="11189251233"/>
    <nd ref="5810211139"/>
    <nd ref="5810211146"/>
    <tag k="addr:city" v="Little Shelford"/>
    <tag k="addr:housenumber" v="25"/>
    <tag k="addr:postcode" v="CB22 5ER"/>
    <tag k="addr:street" v="Courtyards"/>
    <tag k="building" v="house"/>
  </way>
  <way id="614204227" version="2" timestamp="2023-09-13T22:02:41Z" changeset="141231542" uid="20240549" user="Sforzando9500">
    <nd ref="5810211150"/>
    <nd ref="5810211149"/>
    <nd ref="5810211148"/>
    <nd ref="5810211147"/>
    <nd ref="5810211150"/>
    <tag k="addr:city" v="Little Shelford"/>
    <tag k="addr:housenumber" v="24"/>
    <tag k="addr:postcode" v="CB22 5ER"/>
    <tag k="addr:street" v="Courtyards"/>
    <tag k="building" v="house"/>
  </way>
  <way id="614204230" version="3" timestamp="2023-09-15T20:49:32Z" changeset="141319845" uid="20240549" user="Sforzando9500">
    <nd ref="5810211158"/>
    <nd ref="5810211157"/>
    <nd ref="5810211156"/>
    <nd ref="11194785006"/>
    <nd ref="5810211155"/>
    <nd ref="5810211158"/>
    <tag k="addr:city" v="Little Shelford"/>
    <tag k="addr:housenumber" v="23"/>
    <tag k="addr:postcode" v="CB22 5ER"/>
    <tag k="addr:street" v="Courtyards"/>
    <tag k="building" v="house"/>
  </way>
  <way id="614204231" version="2" timestamp="2023-09-13T22:02:41Z" changeset="141231542" uid="20240549" user="Sforzando9500">
    <nd ref="5810211162"/>
    <nd ref="5810211161"/>
    <nd ref="5810211160"/>
    <nd ref="5810211159"/>
    <nd ref="5810211162"/>
    <tag k="addr:city" v="Little Shelford"/>
    <tag k="addr:housenumber" v="21"/>
    <tag k="addr:postcode" v="CB22 5ER"/>
    <tag k="addr:street" v="Courtyards"/>
    <tag k="building" v="house"/>
  </way>
  <way id="614204232" version="3" timestamp="2023-09-15T20:49:32Z" changeset="141319845" uid="20240549" user="Sforzando9500">
    <nd ref="5810211166"/>
    <nd ref="5810211165"/>
    <nd ref="11194784993"/>
    <nd ref="11194784994"/>
    <nd ref="11194784995"/>
    <nd ref="11194784996"/>
    <nd ref="5810211164"/>
    <nd ref="5810211163"/>
    <nd ref="5810211166"/>
    <tag k="addr:city" v="Little Shelford"/>
    <tag k="addr:housenumber" v="20"/>
    <tag k="addr:postcode" v="CB22 5ER"/>
    <tag k="addr:street" v="Courtyards"/>
    <tag k="building" v="house"/>
  </way>
  <way id="614204234" version="2" timestamp="2023-09-13T22:02:41Z" changeset="141231542" uid="20240549" user="Sforzando9500">
    <nd ref="5810211170"/>
    <nd ref="5810211169"/>
    <nd ref="5810211168"/>
    <nd ref="5810211167"/>
    <nd ref="5810211170"/>
    <tag k="addr:city" v="Little Shelford"/>
    <tag k="addr:housenumber" v="19"/>
    <tag k="addr:postcode" v="CB22 5ER"/>
    <tag k="addr:street" v="Courtyards"/>
    <tag k="building" v="house"/>
  </way>
  <way id="614204237" version="3" timestamp="2023-09-15T20:49:32Z" changeset="141319845" uid="20240549" user="Sforzando9500">
    <nd ref="5810211178"/>
    <nd ref="5810211177"/>
    <nd ref="11194784967"/>
    <nd ref="11194784968"/>
    <nd ref="11194784969"/>
    <nd ref="5810211176"/>
    <nd ref="5810211175"/>
    <nd ref="5810211178"/>
    <tag k="addr:city" v="Little Shelford"/>
    <tag k="addr:housenumber" v="18"/>
    <tag k="addr:postcode" v="CB22 5ER"/>
    <tag k="addr:street" v="Courtyards"/>
    <tag k="building" v="house"/>
  </way>
  <way id="614204238" version="3" timestamp="2023-09-13T22:02:41Z" changeset="141231542" uid="20240549" user="Sforzando9500">
    <nd ref="5810211182"/>
    <nd ref="5810211181"/>
    <nd ref="11189150206"/>
    <nd ref="11189150205"/>
    <nd ref="11189150207"/>
    <nd ref="5810211179"/>
    <nd ref="11189251225"/>
    <nd ref="11189251224"/>
    <nd ref="5810211182"/>
    <tag k="addr:city" v="Little Shelford"/>
    <tag k="addr:housenumber" v="15"/>
    <tag k="addr:postcode" v="CB22 5ER"/>
    <tag k="addr:street" v="Courtyards"/>
    <tag k="building" v="house"/>
  </way>
  <way id="614204239" version="3" timestamp="2023-09-15T20:49:32Z" changeset="141319845" uid="20240549" user="Sforzando9500">
    <nd ref="5810211186"/>
    <nd ref="11194784944"/>
    <nd ref="5810211185"/>
    <nd ref="11194784945"/>
    <nd ref="11194784946"/>
    <nd ref="11194784947"/>
    <nd ref="11194784948"/>
    <nd ref="5810211184"/>
    <nd ref="5810211183"/>
    <nd ref="5810211186"/>
    <tag k="addr:city" v="Little Shelford"/>
    <tag k="addr:housenumber" v="17"/>
    <tag k="addr:postcode" v="CB22 5ER"/>
    <tag k="addr:street" v="Courtyards"/>
    <tag k="building" v="house"/>
  </way>
  <way id="614204241" version="3" timestamp="2023-09-13T22:02:41Z" changeset="141231542" uid="20240549" user="Sforzando9500">
    <nd ref="5810211190"/>
    <nd ref="5810211189"/>
    <nd ref="11189150214"/>
    <nd ref="11189150213"/>
    <nd ref="5810211188"/>
    <nd ref="5810211187"/>
    <nd ref="5810211190"/>
    <tag k="addr:city" v="Little Shelford"/>
    <tag k="addr:housenumber" v="14"/>
    <tag k="addr:postcode" v="CB22 5ER"/>
    <tag k="addr:street" v="Courtyards"/>
    <tag k="building" v="house"/>
  </way>
  <way id="614204242" version="2" timestamp="2023-09-13T21:50:17Z" changeset="141231282" uid="20240549" user="Sforzando9500">
    <nd ref="5810211198"/>
    <nd ref="5810211197"/>
    <nd ref="5810211192"/>
    <nd ref="5810211191"/>
    <nd ref="5810211196"/>
    <nd ref="5810211193"/>
    <nd ref="5810211194"/>
    <nd ref="5810211195"/>
    <nd ref="5810211198"/>
    <tag k="addr:city" v="Little Shelford"/>
    <tag k="addr:housenumber" v="11"/>
    <tag k="addr:postcode" v="CB22 5ER"/>
    <tag k="addr:street" v="Courtyards"/>
    <tag k="building" v="house"/>
  </way>
  <way id="614204243" version="3" timestamp="2023-09-13T22:02:41Z" changeset="141231542" uid="20240549" user="Sforzando9500">
    <nd ref="5810211202"/>
    <nd ref="5810211199"/>
    <nd ref="5810211200"/>
    <nd ref="5810211201"/>
    <nd ref="5810211202"/>
    <tag k="addr:city" v="Little Shelford"/>
    <tag k="addr:housenumber" v="12"/>
    <tag k="addr:postcode" v="CB22 5ER"/>
    <tag k="addr:street" v="Courtyards"/>
    <tag k="building" v="house"/>
  </way>
  <way id="614204246" version="4" timestamp="2023-11-05T17:12:40Z" changeset="143659157" uid="20240549" user="Sforzando9500">
    <nd ref="5810211210"/>
    <nd ref="5810211207"/>
    <nd ref="5810211208"/>
    <nd ref="11327790754"/>
    <nd ref="5810211209"/>
    <nd ref="11327790755"/>
    <nd ref="5810211210"/>
    <tag k="addr:housenumber" v="13"/>
    <tag k="addr:street" v="Courtyards"/>
    <tag k="building" v="house"/>
  </way>
  <way id="614204248" version="4" timestamp="2023-09-15T20:49:32Z" changeset="141319845" uid="20240549" user="Sforzando9500">
    <nd ref="5810211214"/>
    <nd ref="5810211211"/>
    <nd ref="5810211212"/>
    <nd ref="5810211213"/>
    <nd ref="5810211214"/>
    <tag k="addr:city" v="Little Shelford"/>
    <tag k="addr:housenumber" v="5"/>
    <tag k="addr:postcode" v="CB22 5ER"/>
    <tag k="addr:street" v="Courtyards"/>
    <tag k="building" v="house"/>
    <tag k="house" v="semi-detached"/>
  </way>
  <way id="614204251" version="2" timestamp="2023-09-13T17:59:30Z" changeset="141223353" uid="20240549" user="Sforzando9500">
    <nd ref="5810211222"/>
    <nd ref="5810211219"/>
    <nd ref="5810211220"/>
    <nd ref="5810211221"/>
    <nd ref="5810211222"/>
    <tag k="addr:city" v="Little Shelford"/>
    <tag k="addr:housenumber" v="7"/>
    <tag k="addr:postcode" v="CB22 5ER"/>
    <tag k="addr:street" v="Courtyards"/>
    <tag k="building" v="house"/>
  </way>
  <way id="614204252" version="3" timestamp="2023-09-14T21:10:36Z" changeset="141276679" uid="20240549" user="Sforzando9500">
    <nd ref="5810211226"/>
    <nd ref="5810211223"/>
    <nd ref="11191665309"/>
    <nd ref="5810211224"/>
    <nd ref="11188783966"/>
    <nd ref="11188783967"/>
    <nd ref="11191665313"/>
    <nd ref="5810211225"/>
    <nd ref="5810211226"/>
    <tag k="addr:city" v="Little Shelford"/>
    <tag k="addr:housenumber" v="8"/>
    <tag k="addr:postcode" v="CB22 5ER"/>
    <tag k="addr:street" v="Courtyards"/>
    <tag k="building" v="house"/>
  </way>
  <way id="614204253" version="3" timestamp="2023-09-15T20:49:32Z" changeset="141319845" uid="20240549" user="Sforzando9500">
    <nd ref="5810211230"/>
    <nd ref="11194764515"/>
    <nd ref="5810211227"/>
    <nd ref="5810211228"/>
    <nd ref="11194784950"/>
    <nd ref="11194784949"/>
    <nd ref="5810211229"/>
    <nd ref="5810211230"/>
    <tag k="addr:city" v="Little Shelford"/>
    <tag k="addr:housenumber" v="9"/>
    <tag k="addr:postcode" v="CB22 5ER"/>
    <tag k="addr:street" v="Courtyards"/>
    <tag k="building" v="house"/>
  </way>
  <way id="614204254" version="3" timestamp="2023-10-09T16:38:54Z" changeset="142357646" uid="20240549" user="Sforzando9500">
    <nd ref="5810211234"/>
    <nd ref="5810211233"/>
    <nd ref="5810211232"/>
    <nd ref="5810211231"/>
    <nd ref="5810211234"/>
    <tag k="addr:city" v="Little Shelford"/>
    <tag k="addr:housenumber" v="10"/>
    <tag k="addr:postcode" v="CB22 5ER"/>
    <tag k="addr:street" v="Courtyards"/>
    <tag k="building" v="detached"/>
  </way>
  <way id="614204255" version="3" timestamp="2023-09-18T19:28:28Z" changeset="141439178" uid="20240549" user="Sforzando9500">
    <nd ref="5810211240"/>
    <nd ref="11200746277"/>
    <nd ref="5810211237"/>
    <nd ref="5810211238"/>
    <nd ref="5810211235"/>
    <nd ref="5810211236"/>
    <nd ref="5810211239"/>
    <nd ref="11200746282"/>
    <nd ref="11200746281"/>
    <nd ref="11200746280"/>
    <nd ref="11200746279"/>
    <nd ref="11200746278"/>
    <nd ref="5810211240"/>
    <tag k="addr:city" v="Little Shelford"/>
    <tag k="addr:housenumber" v="16a"/>
    <tag k="addr:postcode" v="CB22 5EW"/>
    <tag k="addr:street" v="Whittlesford Road"/>
    <tag k="building" v="house"/>
  </way>
  <way id="614204266" version="3" timestamp="2023-10-09T16:41:32Z" changeset="142357646" uid="20240549" user="Sforzando9500">
    <nd ref="5810211376"/>
    <nd ref="5810211375"/>
    <nd ref="5810211374"/>
    <nd ref="11207336802"/>
    <nd ref="11207336801"/>
    <nd ref="11207336800"/>
    <nd ref="5810211372"/>
    <nd ref="5810211376"/>
    <tag k="addr:city" v="Little Shelford"/>
    <tag k="addr:housenumber" v="17"/>
    <tag k="addr:postcode" v="CB22 5ES"/>
    <tag k="addr:street" v="High Street"/>
    <tag k="building" v="semidetached_house"/>
  </way>
  <way id="614204268" version="3" timestamp="2023-10-09T16:41:08Z" changeset="142357646" uid="20240549" user="Sforzando9500">
    <nd ref="5810211384"/>
    <nd ref="5810211383"/>
    <nd ref="5810211378"/>
    <nd ref="5810211377"/>
    <nd ref="5810211382"/>
    <nd ref="11207336799"/>
    <nd ref="5810211379"/>
    <nd ref="5810211380"/>
    <nd ref="5810211384"/>
    <tag k="addr:city" v="Little Shelford"/>
    <tag k="addr:housenumber" v="13"/>
    <tag k="addr:postcode" v="CB22 5ES"/>
    <tag k="addr:street" v="High Street"/>
    <tag k="building" v="detached"/>
  </way>
  <way id="614204269" version="2" timestamp="2023-09-21T09:57:09Z" changeset="141550646" uid="20240549" user="Sforzando9500">
    <nd ref="5810211388"/>
    <nd ref="5810211387"/>
    <nd ref="5810211386"/>
    <nd ref="11207336796"/>
    <nd ref="11207336798"/>
    <nd ref="11207336797"/>
    <nd ref="5810211385"/>
    <nd ref="5810211388"/>
    <tag k="addr:city" v="Little Shelford"/>
    <tag k="addr:housenumber" v="15a"/>
    <tag k="addr:postcode" v="CB22 5ES"/>
    <tag k="addr:street" v="High Street"/>
    <tag k="building" v="house"/>
  </way>
  <way id="614204271" version="3" timestamp="2023-09-21T18:11:55Z" changeset="141572290" uid="20240549" user="Sforzando9500">
    <nd ref="5810211392"/>
    <nd ref="5810211391"/>
    <nd ref="5810211369"/>
    <nd ref="5810211376"/>
    <nd ref="5810211372"/>
    <nd ref="5810211392"/>
    <tag k="addr:city" v="Little Shelford"/>
    <tag k="addr:housenumber" v="15"/>
    <tag k="addr:postcode" v="CB22 5ES"/>
    <tag k="addr:street" v="High Street"/>
    <tag k="building" v="house"/>
    <tag k="name" v="The Old Bakery"/>
  </way>
  <way id="614204272" version="3" timestamp="2023-10-09T16:41:36Z" changeset="142357646" uid="20240549" user="Sforzando9500">
    <nd ref="5810211396"/>
    <nd ref="5810211395"/>
    <nd ref="5810211394"/>
    <nd ref="5810211393"/>
    <nd ref="5810211396"/>
    <tag k="addr:city" v="Little Shelford"/>
    <tag k="addr:housenumber" v="11"/>
    <tag k="addr:postcode" v="CB22 5ES"/>
    <tag k="addr:street" v="High Street"/>
    <tag k="building" v="detached"/>
  </way>
  <way id="614204274" version="3" timestamp="2024-11-03T21:55:13Z" changeset="158716324" uid="20240549" user="Sforzando9500">
    <nd ref="5810211400"/>
    <nd ref="5810211399"/>
    <nd ref="5810211398"/>
    <nd ref="11207336834"/>
    <nd ref="11207336795"/>
    <nd ref="5810211397"/>
    <nd ref="5810211400"/>
    <tag k="addr:city" v="Little Shelford"/>
    <tag k="addr:housename" v="The Old Chapel"/>
    <tag k="addr:postcode" v="CB22 5ES"/>
    <tag k="addr:street" v="High Street"/>
    <tag k="building" v="house"/>
    <tag k="name" v="The Old Chapel"/>
  </way>
  <way id="614204275" version="3" timestamp="2023-09-21T18:11:55Z" changeset="141572290" uid="20240549" user="Sforzando9500">
    <nd ref="5810211406"/>
    <nd ref="5810211405"/>
    <nd ref="5810211404"/>
    <nd ref="5810211402"/>
    <nd ref="5810211401"/>
    <nd ref="5810211403"/>
    <nd ref="5810211406"/>
    <tag k="addr:city" v="Little Shelford"/>
    <tag k="addr:housenumber" v="9"/>
    <tag k="addr:postcode" v="CB22 5ES"/>
    <tag k="addr:street" v="High Street"/>
    <tag k="building" v="house"/>
    <tag k="name" v="Holly Tree Cottage"/>
  </way>
  <way id="614204276" version="3" timestamp="2023-09-21T18:11:55Z" changeset="141572290" uid="20240549" user="Sforzando9500">
    <nd ref="5810211412"/>
    <nd ref="5810211411"/>
    <nd ref="5810211410"/>
    <nd ref="5810211407"/>
    <nd ref="5810211408"/>
    <nd ref="5810211409"/>
    <nd ref="5810211412"/>
    <tag k="addr:city" v="Little Shelford"/>
    <tag k="addr:housenumber" v="19"/>
    <tag k="addr:postcode" v="CB22 5ES"/>
    <tag k="addr:street" v="High Street"/>
    <tag k="building" v="house"/>
    <tag k="name" v="Stable House"/>
  </way>
  <way id="614204279" version="3" timestamp="2023-09-21T18:11:55Z" changeset="141572290" uid="20240549" user="Sforzando9500">
    <nd ref="5810211424"/>
    <nd ref="5810211420"/>
    <nd ref="5810211419"/>
    <nd ref="5810211421"/>
    <nd ref="5810211422"/>
    <nd ref="5810211417"/>
    <nd ref="5810211418"/>
    <nd ref="5810211423"/>
    <nd ref="5810211424"/>
    <tag k="addr:city" v="Little Shelford"/>
    <tag k="addr:housenumber" v="19a"/>
    <tag k="addr:postcode" v="CB22 5ES"/>
    <tag k="addr:street" v="High Street"/>
    <tag k="building" v="house"/>
    <tag k="name" v="The Courts"/>
  </way>
  <way id="614204281" version="3" timestamp="2023-10-09T16:40:56Z" changeset="142357646" uid="20240549" user="Sforzando9500">
    <nd ref="5810211428"/>
    <nd ref="5810211427"/>
    <nd ref="5810211426"/>
    <nd ref="5810211425"/>
    <nd ref="5810211428"/>
    <tag k="addr:city" v="Little Shelford"/>
    <tag k="addr:housenumber" v="21"/>
    <tag k="addr:postcode" v="CB22 5ES"/>
    <tag k="addr:street" v="High Street"/>
    <tag k="building" v="detached"/>
    <tag k="name" v="Kings Farmhouse"/>
  </way>
  <way id="614204282" version="3" timestamp="2023-09-21T18:21:44Z" changeset="141572588" uid="20240549" user="Sforzando9500">
    <nd ref="5810211432"/>
    <nd ref="5810211431"/>
    <nd ref="5810211430"/>
    <nd ref="5810211429"/>
    <nd ref="5810211432"/>
    <tag k="addr:city" v="Little Shelford"/>
    <tag k="addr:housenumber" v="29"/>
    <tag k="addr:postcode" v="CB22 5ES"/>
    <tag k="addr:street" v="High Street"/>
    <tag k="building" v="house"/>
    <tag k="name" v="Kings Garden"/>
  </way>
  <way id="614204283" version="3" timestamp="2023-10-09T16:40:53Z" changeset="142357646" uid="20240549" user="Sforzando9500">
    <nd ref="5810211438"/>
    <nd ref="5810211437"/>
    <nd ref="5810211436"/>
    <nd ref="5810211434"/>
    <nd ref="5810211433"/>
    <nd ref="5810211435"/>
    <nd ref="5810211438"/>
    <tag k="addr:city" v="Little Shelford"/>
    <tag k="addr:housenumber" v="31"/>
    <tag k="addr:postcode" v="CB22 5ES"/>
    <tag k="addr:street" v="High Street"/>
    <tag k="building" v="detached"/>
  </way>
  <way id="614204286" version="2" timestamp="2023-09-21T10:42:38Z" changeset="141552390" uid="20240549" user="Sforzando9500">
    <nd ref="5810211448"/>
    <nd ref="5810211447"/>
    <nd ref="5810211446"/>
    <nd ref="11207399996"/>
    <nd ref="5810211445"/>
    <nd ref="5810211448"/>
    <tag k="addr:city" v="Little Shelford"/>
    <tag k="addr:housenumber" v="51 - 53"/>
    <tag k="addr:postcode" v="CB22 5ES"/>
    <tag k="addr:street" v="High Street"/>
    <tag k="building" v="terrace"/>
  </way>
  <way id="614204290" version="2" timestamp="2023-09-21T18:21:44Z" changeset="141572588" uid="20240549" user="Sforzando9500">
    <nd ref="5810211456"/>
    <nd ref="5810211455"/>
    <nd ref="5810211454"/>
    <nd ref="5810211453"/>
    <nd ref="5810211456"/>
    <tag k="addr:city" v="Little Shelford"/>
    <tag k="addr:housenumber" v="59"/>
    <tag k="addr:postcode" v="CB22 5ES"/>
    <tag k="addr:street" v="High Street"/>
    <tag k="building" v="house"/>
    <tag k="name" v="Donalson Villa"/>
  </way>
  <way id="614204293" version="2" timestamp="2023-09-21T10:42:38Z" changeset="141552390" uid="20240549" user="Sforzando9500">
    <nd ref="5810211460"/>
    <nd ref="5810211459"/>
    <nd ref="5810211458"/>
    <nd ref="5810211457"/>
    <nd ref="11207400006"/>
    <nd ref="11207400005"/>
    <nd ref="5810211460"/>
    <tag k="addr:city" v="Little Shelford"/>
    <tag k="addr:housenumber" v="61"/>
    <tag k="addr:postcode" v="CB22 5ES"/>
    <tag k="addr:street" v="High Street"/>
    <tag k="building" v="house"/>
  </way>
  <way id="614204295" version="3" timestamp="2023-10-09T16:40:18Z" changeset="142357646" uid="20240549" user="Sforzando9500">
    <nd ref="5810211464"/>
    <nd ref="5810211463"/>
    <nd ref="5810211462"/>
    <nd ref="5810211461"/>
    <nd ref="5810211464"/>
    <tag k="addr:city" v="Little Shelford"/>
    <tag k="addr:housenumber" v="14"/>
    <tag k="addr:postcode" v="CB22 5EP"/>
    <tag k="addr:street" v="Beech Close"/>
    <tag k="building" v="detached"/>
  </way>
  <way id="614204297" version="2" timestamp="2023-09-13T22:30:15Z" changeset="141232076" uid="20240549" user="Sforzando9500">
    <nd ref="5810211468"/>
    <nd ref="5810211467"/>
    <nd ref="5810211466"/>
    <nd ref="11189278578"/>
    <nd ref="11189278577"/>
    <nd ref="5810211465"/>
    <nd ref="5810211468"/>
    <tag k="addr:city" v="Little Shelford"/>
    <tag k="addr:housenumber" v="54"/>
    <tag k="addr:postcode" v="CB22 5EW"/>
    <tag k="addr:street" v="Whittlesford Road"/>
    <tag k="building" v="house"/>
  </way>
  <way id="614204299" version="2" timestamp="2023-09-13T22:30:15Z" changeset="141232076" uid="20240549" user="Sforzando9500">
    <nd ref="5810211472"/>
    <nd ref="5810211469"/>
    <nd ref="5810211470"/>
    <nd ref="5810211471"/>
    <nd ref="11189278579"/>
    <nd ref="11189278580"/>
    <nd ref="11189278581"/>
    <nd ref="11189278582"/>
    <nd ref="5810211472"/>
    <tag k="addr:city" v="Little Shelford"/>
    <tag k="addr:housenumber" v="52"/>
    <tag k="addr:postcode" v="CB22 5EW"/>
    <tag k="addr:street" v="Whittlesford Road"/>
    <tag k="building" v="house"/>
  </way>
  <way id="614204304" version="3" timestamp="2023-10-09T16:40:27Z" changeset="142357646" uid="20240549" user="Sforzando9500">
    <nd ref="5810211492"/>
    <nd ref="5810211491"/>
    <nd ref="5810211482"/>
    <nd ref="5810211481"/>
    <nd ref="5810211488"/>
    <nd ref="5810211487"/>
    <nd ref="11200678375"/>
    <nd ref="11200678376"/>
    <nd ref="5810211485"/>
    <nd ref="5810211489"/>
    <nd ref="5810211483"/>
    <nd ref="5810211484"/>
    <nd ref="5810211492"/>
    <tag k="addr:city" v="Little Shelford"/>
    <tag k="addr:housename" v="Lenaholme"/>
    <tag k="addr:housenumber" v="18"/>
    <tag k="addr:postcode" v="CB22 5ET"/>
    <tag k="addr:street" v="The Terrace"/>
    <tag k="building" v="detached"/>
  </way>
  <way id="614204306" version="3" timestamp="2023-10-06T19:33:22Z" changeset="142244943" uid="20240549" user="Sforzando9500">
    <nd ref="5810211502"/>
    <nd ref="5810211498"/>
    <nd ref="5810211497"/>
    <nd ref="5810211499"/>
    <nd ref="11200678378"/>
    <nd ref="11200678377"/>
    <nd ref="5810211500"/>
    <nd ref="11200678379"/>
    <nd ref="11200678380"/>
    <nd ref="5810211501"/>
    <nd ref="5810211502"/>
    <tag k="addr:city" v="Little Shelford"/>
    <tag k="addr:housenumber" v="16"/>
    <tag k="addr:postcode" v="CB22 5ET"/>
    <tag k="addr:street" v="The Terrace"/>
    <tag k="building" v="detached"/>
  </way>
  <way id="614204308" version="3" timestamp="2023-10-06T19:33:27Z" changeset="142244943" uid="20240549" user="Sforzando9500">
    <nd ref="5810211510"/>
    <nd ref="5810211509"/>
    <nd ref="5810211504"/>
    <nd ref="5810211503"/>
    <nd ref="5810211508"/>
    <nd ref="5810211507"/>
    <nd ref="5810211505"/>
    <nd ref="5810211506"/>
    <nd ref="5810211510"/>
    <tag k="addr:city" v="Little Shelford"/>
    <tag k="addr:housenumber" v="83"/>
    <tag k="addr:postcode" v="CB22 5ES"/>
    <tag k="addr:street" v="High Street"/>
    <tag k="building" v="detached"/>
  </way>
  <way id="614204309" version="3" timestamp="2023-10-06T19:33:30Z" changeset="142244943" uid="20240549" user="Sforzando9500">
    <nd ref="5810211514"/>
    <nd ref="5810211513"/>
    <nd ref="5810211512"/>
    <nd ref="5810211511"/>
    <nd ref="5810211514"/>
    <tag k="addr:city" v="Little Shelford"/>
    <tag k="addr:housenumber" v="81"/>
    <tag k="addr:postcode" v="CB22 5ES"/>
    <tag k="addr:street" v="High Street"/>
    <tag k="building" v="detached"/>
  </way>
  <way id="614204310" version="3" timestamp="2023-09-21T18:21:44Z" changeset="141572588" uid="20240549" user="Sforzando9500">
    <nd ref="5810211520"/>
    <nd ref="11208419138"/>
    <nd ref="11208419137"/>
    <nd ref="5810211519"/>
    <nd ref="5810211518"/>
    <nd ref="5810211515"/>
    <nd ref="5810211516"/>
    <nd ref="5810211517"/>
    <nd ref="5810211520"/>
    <tag k="addr:city" v="Little Shelford"/>
    <tag k="addr:housenumber" v="77"/>
    <tag k="addr:postcode" v="CB22 5ES"/>
    <tag k="addr:street" v="High Street"/>
    <tag k="building" v="house"/>
    <tag k="name" v="Pump Cottage"/>
  </way>
  <way id="614204312" version="4" timestamp="2023-09-21T18:21:44Z" changeset="141572588" uid="20240549" user="Sforzando9500">
    <nd ref="5810211526"/>
    <nd ref="2282095725"/>
    <nd ref="2282095692"/>
    <nd ref="5810211522"/>
    <nd ref="5810211521"/>
    <nd ref="5810211525"/>
    <nd ref="5810211526"/>
    <tag k="addr:city" v="Little Shelford"/>
    <tag k="addr:housenumber" v="65"/>
    <tag k="addr:postcode" v="CB22 5ES"/>
    <tag k="addr:street" v="High Street"/>
    <tag k="building" v="house"/>
    <tag k="name" v="Close Cottage"/>
  </way>
  <way id="614204313" version="3" timestamp="2023-09-21T18:21:44Z" changeset="141572588" uid="20240549" user="Sforzando9500">
    <nd ref="5810211530"/>
    <nd ref="5810211527"/>
    <nd ref="11208411424"/>
    <nd ref="11208411425"/>
    <nd ref="5810211528"/>
    <nd ref="11208411426"/>
    <nd ref="11208411427"/>
    <nd ref="5810211529"/>
    <nd ref="5810211530"/>
    <tag k="addr:city" v="Little Shelford"/>
    <tag k="addr:housenumber" v="67"/>
    <tag k="addr:postcode" v="CB22 5ES"/>
    <tag k="addr:street" v="High Street"/>
    <tag k="building" v="house"/>
    <tag k="name" v="The Carriers"/>
  </way>
  <way id="614204314" version="3" timestamp="2023-10-09T16:40:21Z" changeset="142357646" uid="20240549" user="Sforzando9500">
    <nd ref="5810211534"/>
    <nd ref="5810211531"/>
    <nd ref="11208411429"/>
    <nd ref="5810211532"/>
    <nd ref="5810211533"/>
    <nd ref="11208411431"/>
    <nd ref="11208411430"/>
    <nd ref="5810211534"/>
    <tag k="addr:city" v="Little Shelford"/>
    <tag k="addr:housenumber" v="71"/>
    <tag k="addr:postcode" v="CB22 5ES"/>
    <tag k="addr:street" v="High Street"/>
    <tag k="building" v="detached"/>
  </way>
  <way id="614204316" version="3" timestamp="2024-11-03T21:53:17Z" changeset="158717025" uid="20240549" user="Sforzando9500">
    <nd ref="5810211538"/>
    <nd ref="5810211537"/>
    <nd ref="5810211536"/>
    <nd ref="5810211535"/>
    <nd ref="5810211538"/>
    <tag k="addr:city" v="Little Shelford"/>
    <tag k="addr:housenumber" v="73"/>
    <tag k="addr:postcode" v="CB22 5ES"/>
    <tag k="addr:street" v="High Street"/>
    <tag k="building" v="detached"/>
  </way>
  <way id="614204319" version="4" timestamp="2023-10-06T19:32:57Z" changeset="142244943" uid="20240549" user="Sforzando9500">
    <nd ref="5810211546"/>
    <nd ref="5810211578"/>
    <nd ref="11200672643"/>
    <nd ref="5810211543"/>
    <nd ref="11194900557"/>
    <nd ref="11194900556"/>
    <nd ref="5810211544"/>
    <nd ref="5810211545"/>
    <nd ref="5810211546"/>
    <tag k="addr:city" v="Little Shelford"/>
    <tag k="addr:housenumber" v="13"/>
    <tag k="addr:postcode" v="CB22 5EP"/>
    <tag k="addr:street" v="Beech Close"/>
    <tag k="building" v="semidetached_house"/>
  </way>
  <way id="614204320" version="3" timestamp="2023-10-06T19:32:44Z" changeset="142244943" uid="20240549" user="Sforzando9500">
    <nd ref="5810211550"/>
    <nd ref="11200672666"/>
    <nd ref="5810211547"/>
    <nd ref="11200672667"/>
    <nd ref="5810211548"/>
    <nd ref="5810211549"/>
    <nd ref="5810211550"/>
    <tag k="addr:city" v="Little Shelford"/>
    <tag k="addr:housenumber" v="27"/>
    <tag k="addr:postcode" v="CB22 5EP"/>
    <tag k="addr:street" v="Beech Close"/>
    <tag k="building" v="semidetached_house"/>
  </way>
  <way id="614204321" version="3" timestamp="2023-10-06T19:30:11Z" changeset="142244943" uid="20240549" user="Sforzando9500">
    <nd ref="5810211554"/>
    <nd ref="11200657233"/>
    <nd ref="11200657234"/>
    <nd ref="5810211553"/>
    <nd ref="5810211552"/>
    <nd ref="5810211551"/>
    <nd ref="11200672662"/>
    <nd ref="5810211554"/>
    <tag k="addr:city" v="Little Shelford"/>
    <tag k="addr:housename" v="Wits End"/>
    <tag k="addr:housenumber" v="26"/>
    <tag k="addr:postcode" v="CB22 5EP"/>
    <tag k="addr:street" v="Beech Close"/>
    <tag k="building" v="semidetached_house"/>
  </way>
  <way id="614204323" version="3" timestamp="2023-10-06T19:30:07Z" changeset="142244943" uid="20240549" user="Sforzando9500">
    <nd ref="5810211558"/>
    <nd ref="5810211555"/>
    <nd ref="5810211556"/>
    <nd ref="5810211557"/>
    <nd ref="5810211558"/>
    <tag k="addr:city" v="Little Shelford"/>
    <tag k="addr:housenumber" v="24"/>
    <tag k="addr:postcode" v="CB22 5EP"/>
    <tag k="addr:street" v="Beech Close"/>
    <tag k="building" v="semidetached_house"/>
  </way>
  <way id="614204324" version="3" timestamp="2023-10-06T19:30:14Z" changeset="142244943" uid="20240549" user="Sforzando9500">
    <nd ref="5810211562"/>
    <nd ref="5810211559"/>
    <nd ref="5810211560"/>
    <nd ref="11200672658"/>
    <nd ref="5810211561"/>
    <nd ref="5810211562"/>
    <tag k="addr:city" v="Little Shelford"/>
    <tag k="addr:housenumber" v="21"/>
    <tag k="addr:postcode" v="CB22 5EP"/>
    <tag k="addr:street" v="Beech Close"/>
    <tag k="building" v="semidetached_house"/>
  </way>
  <way id="614204325" version="3" timestamp="2023-10-06T19:30:19Z" changeset="142244943" uid="20240549" user="Sforzando9500">
    <nd ref="5810211566"/>
    <nd ref="11200672649"/>
    <nd ref="11200672648"/>
    <nd ref="5810211563"/>
    <nd ref="5810211564"/>
    <nd ref="5810211565"/>
    <nd ref="5810211566"/>
    <tag k="addr:city" v="Little Shelford"/>
    <tag k="addr:housenumber" v="19"/>
    <tag k="addr:postcode" v="CB22 5EP"/>
    <tag k="addr:street" v="Beech Close"/>
    <tag k="building" v="semidetached_house"/>
  </way>
  <way id="614204326" version="3" timestamp="2023-10-06T19:30:31Z" changeset="142244943" uid="20240549" user="Sforzando9500">
    <nd ref="5810211570"/>
    <nd ref="5810211569"/>
    <nd ref="5810211568"/>
    <nd ref="5810211567"/>
    <nd ref="5810211570"/>
    <tag k="addr:city" v="Little Shelford"/>
    <tag k="addr:housenumber" v="17"/>
    <tag k="addr:postcode" v="CB22 5EP"/>
    <tag k="addr:street" v="Beech Close"/>
    <tag k="building" v="semidetached_house"/>
  </way>
  <way id="614204328" version="3" timestamp="2023-10-06T19:30:34Z" changeset="142244943" uid="20240549" user="Sforzando9500">
    <nd ref="5810211574"/>
    <nd ref="5810211573"/>
    <nd ref="5810211572"/>
    <nd ref="5810211571"/>
    <nd ref="5810211574"/>
    <tag k="addr:city" v="Little Shelford"/>
    <tag k="addr:housenumber" v="15"/>
    <tag k="addr:postcode" v="CB22 5EP"/>
    <tag k="addr:street" v="Beech Close"/>
    <tag k="building" v="semidetached_house"/>
  </way>
  <way id="614204329" version="4" timestamp="2023-10-06T19:32:51Z" changeset="142244943" uid="20240549" user="Sforzando9500">
    <nd ref="5810211578"/>
    <nd ref="5810211546"/>
    <nd ref="5810211577"/>
    <nd ref="5810211576"/>
    <nd ref="5810211575"/>
    <nd ref="5810211578"/>
    <tag k="addr:city" v="Little Shelford"/>
    <tag k="addr:housenumber" v="12"/>
    <tag k="addr:postcode" v="CB22 5EP"/>
    <tag k="addr:street" v="Beech Close"/>
    <tag k="building" v="semidetached_house"/>
  </way>
  <way id="614204331" version="3" timestamp="2023-10-06T19:33:06Z" changeset="142244943" uid="20240549" user="Sforzando9500">
    <nd ref="5810211582"/>
    <nd ref="5810211581"/>
    <nd ref="5810211580"/>
    <nd ref="5810211579"/>
    <nd ref="5810211582"/>
    <tag k="addr:city" v="Little Shelford"/>
    <tag k="addr:housename" v="Heritage Cottage"/>
    <tag k="addr:housenumber" v="8"/>
    <tag k="addr:postcode" v="CB22 5ET"/>
    <tag k="addr:street" v="The Terrace"/>
    <tag k="building" v="detached"/>
  </way>
  <way id="614204332" version="4" timestamp="2023-10-06T19:33:19Z" changeset="142244943" uid="20240549" user="Sforzando9500">
    <nd ref="5810211588"/>
    <nd ref="5810211585"/>
    <nd ref="5810211583"/>
    <nd ref="5810211584"/>
    <nd ref="5810211586"/>
    <nd ref="5810211587"/>
    <nd ref="11200678371"/>
    <nd ref="11200678372"/>
    <nd ref="11200678373"/>
    <nd ref="11200678374"/>
    <nd ref="5810211588"/>
    <tag k="addr:city" v="Little Shelford"/>
    <tag k="addr:housename" v="Swiss Cottage"/>
    <tag k="addr:housenumber" v="6"/>
    <tag k="addr:postcode" v="CB22 5ET"/>
    <tag k="addr:street" v="The Terrace"/>
    <tag k="building" v="detached"/>
  </way>
  <way id="614204333" version="3" timestamp="2023-10-06T19:17:22Z" changeset="142244943" uid="20240549" user="Sforzando9500">
    <nd ref="5810211596"/>
    <nd ref="5810211595"/>
    <nd ref="5810211594"/>
    <nd ref="5810211593"/>
    <nd ref="5810211592"/>
    <nd ref="5810211591"/>
    <nd ref="5810211590"/>
    <nd ref="5810211589"/>
    <nd ref="5810211596"/>
    <tag k="addr:city" v="Little Shelford"/>
    <tag k="addr:housenumber" v="4"/>
    <tag k="addr:postcode" v="CB22 5ET"/>
    <tag k="addr:street" v="The Terrace"/>
    <tag k="building" v="detached"/>
  </way>
  <way id="614204334" version="3" timestamp="2023-10-06T19:17:19Z" changeset="142244943" uid="20240549" user="Sforzando9500">
    <nd ref="5810211604"/>
    <nd ref="5810211603"/>
    <nd ref="5810211602"/>
    <nd ref="5810211599"/>
    <nd ref="5810211598"/>
    <nd ref="5810211597"/>
    <nd ref="5810211600"/>
    <nd ref="5810211601"/>
    <nd ref="5810211604"/>
    <tag k="addr:city" v="Little Shelford"/>
    <tag k="addr:housenumber" v="2"/>
    <tag k="addr:postcode" v="CB22 5ET"/>
    <tag k="addr:street" v="The Terrace"/>
    <tag k="building" v="detached"/>
  </way>
  <way id="614204335" version="3" timestamp="2023-09-15T22:10:00Z" changeset="141321728" uid="20240549" user="Sforzando9500">
    <nd ref="5810211610"/>
    <nd ref="5810211607"/>
    <nd ref="5810211606"/>
    <nd ref="5810211605"/>
    <nd ref="5810211608"/>
    <nd ref="5810211609"/>
    <nd ref="11194900548"/>
    <nd ref="5810211610"/>
    <tag k="addr:city" v="Little Shelford"/>
    <tag k="addr:housename" v="Park House"/>
    <tag k="addr:housenumber" v="50"/>
    <tag k="addr:postcode" v="CB22 5EW"/>
    <tag k="addr:street" v="Whittlesford Road"/>
    <tag k="building" v="house"/>
  </way>
  <way id="614204337" version="3" timestamp="2023-09-15T22:10:00Z" changeset="141321728" uid="20240549" user="Sforzando9500">
    <nd ref="5810211614"/>
    <nd ref="5810211611"/>
    <nd ref="5810211612"/>
    <nd ref="5810211613"/>
    <nd ref="11194900547"/>
    <nd ref="5810211614"/>
    <tag k="addr:city" v="Little Shelford"/>
    <tag k="addr:housenumber" v="48"/>
    <tag k="addr:postcode" v="CB22 5EW"/>
    <tag k="addr:street" v="Whittlesford Road"/>
    <tag k="building" v="commercial"/>
    <tag k="name" v="Cambridge Creative"/>
  </way>
  <way id="614204338" version="3" timestamp="2023-09-15T22:10:00Z" changeset="141321728" uid="20240549" user="Sforzando9500">
    <nd ref="5810211618"/>
    <nd ref="5810211615"/>
    <nd ref="5810211616"/>
    <nd ref="5810211617"/>
    <nd ref="11194900546"/>
    <nd ref="5810211618"/>
    <tag k="addr:city" v="Little Shelford"/>
    <tag k="addr:housenumber" v="46a"/>
    <tag k="addr:postcode" v="CB22 5EW"/>
    <tag k="addr:street" v="Whittlesford Road"/>
    <tag k="building" v="commercial"/>
    <tag k="name" v="Annesley Gordon"/>
  </way>
  <way id="614204339" version="3" timestamp="2023-09-18T19:28:28Z" changeset="141439178" uid="20240549" user="Sforzando9500">
    <nd ref="5810211626"/>
    <nd ref="5810211625"/>
    <nd ref="5810211624"/>
    <nd ref="5810211619"/>
    <nd ref="11189258275"/>
    <nd ref="5810211620"/>
    <nd ref="11189258276"/>
    <nd ref="5810211622"/>
    <nd ref="5810211621"/>
    <nd ref="5810211623"/>
    <nd ref="5810211626"/>
    <tag k="addr:city" v="Little Shelford"/>
    <tag k="addr:housename" v="Park Royal"/>
    <tag k="addr:housenumber" v="44"/>
    <tag k="addr:postcode" v="CB22 5EW"/>
    <tag k="addr:street" v="Whittlesford Road"/>
    <tag k="building" v="house"/>
  </way>
  <way id="614204344" version="3" timestamp="2023-10-06T19:18:59Z" changeset="142244943" uid="20240549" user="Sforzando9500">
    <nd ref="5810211638"/>
    <nd ref="5810211637"/>
    <nd ref="5810211636"/>
    <nd ref="5810211635"/>
    <nd ref="5810211638"/>
    <tag k="addr:city" v="Little Shelford"/>
    <tag k="addr:housenumber" v="7"/>
    <tag k="addr:postcode" v="CB22 5EP"/>
    <tag k="addr:street" v="Beech Close"/>
    <tag k="building" v="house"/>
  </way>
  <way id="614204345" version="4" timestamp="2023-10-06T19:31:35Z" changeset="142244943" uid="20240549" user="Sforzando9500">
    <nd ref="5810211642"/>
    <nd ref="5810211641"/>
    <nd ref="5810211640"/>
    <nd ref="5810211639"/>
    <nd ref="5810211642"/>
    <tag k="addr:city" v="Little Shelford"/>
    <tag k="addr:housenumber" v="5"/>
    <tag k="addr:postcode" v="CB22 5EP"/>
    <tag k="addr:street" v="Beech Close"/>
    <tag k="building" v="semidetached_house"/>
  </way>
  <way id="614204346" version="3" timestamp="2023-09-15T22:50:57Z" changeset="141322394" uid="20240549" user="Sforzando9500">
    <nd ref="5810211646"/>
    <nd ref="11194939851"/>
    <nd ref="5810211645"/>
    <nd ref="5810211644"/>
    <nd ref="5810211643"/>
    <nd ref="5810211646"/>
    <tag k="addr:city" v="Little Shelford"/>
    <tag k="addr:housenumber" v="40"/>
    <tag k="addr:postcode" v="CB22 5EW"/>
    <tag k="addr:street" v="Whittlesford Road"/>
    <tag k="building" v="house"/>
  </way>
  <way id="614204347" version="3" timestamp="2023-09-15T22:50:57Z" changeset="141322394" uid="20240549" user="Sforzando9500">
    <nd ref="5810211650"/>
    <nd ref="11194939859"/>
    <nd ref="5810211648"/>
    <nd ref="5810211647"/>
    <nd ref="5810211650"/>
    <tag k="addr:city" v="Little Shelford"/>
    <tag k="addr:housenumber" v="36"/>
    <tag k="addr:postcode" v="CB22 5EW"/>
    <tag k="addr:street" v="Whittlesford Road"/>
    <tag k="building" v="house"/>
  </way>
  <way id="614204349" version="3" timestamp="2023-10-06T19:31:32Z" changeset="142244943" uid="20240549" user="Sforzando9500">
    <nd ref="5810211654"/>
    <nd ref="5810211651"/>
    <nd ref="5810211652"/>
    <nd ref="5810211653"/>
    <nd ref="5810211654"/>
    <tag k="addr:housenumber" v="3"/>
    <tag k="addr:street" v="Beech Close"/>
    <tag k="building" v="semidetached_house"/>
  </way>
  <way id="614204350" version="3" timestamp="2023-10-06T19:31:30Z" changeset="142244943" uid="20240549" user="Sforzando9500">
    <nd ref="5810211658"/>
    <nd ref="5810211655"/>
    <nd ref="5810211656"/>
    <nd ref="5810211657"/>
    <nd ref="5810211658"/>
    <tag k="addr:city" v="Little Shelford"/>
    <tag k="addr:housenumber" v="1"/>
    <tag k="addr:postcode" v="CB22 5EP"/>
    <tag k="addr:street" v="Beech Close"/>
    <tag k="building" v="semidetached_house"/>
  </way>
  <way id="614204351" version="3" timestamp="2023-10-06T19:31:38Z" changeset="142244943" uid="20240549" user="Sforzando9500">
    <nd ref="5810211662"/>
    <nd ref="5810211661"/>
    <nd ref="5810211660"/>
    <nd ref="11200672670"/>
    <nd ref="5810211659"/>
    <nd ref="11200672671"/>
    <nd ref="5810211662"/>
    <tag k="addr:city" v="Little Shelford"/>
    <tag k="addr:housenumber" v="29"/>
    <tag k="addr:postcode" v="CB22 5EP"/>
    <tag k="addr:street" v="Beech Close"/>
    <tag k="building" v="semidetached_house"/>
  </way>
  <way id="614204353" version="3" timestamp="2023-09-13T22:48:56Z" changeset="141232400" uid="20240549" user="Sforzando9500">
    <nd ref="5810211666"/>
    <nd ref="5810211663"/>
    <nd ref="5810211664"/>
    <nd ref="11189258293"/>
    <nd ref="11189258294"/>
    <nd ref="5810211665"/>
    <nd ref="5810211666"/>
    <tag k="addr:city" v="Little Shelford"/>
    <tag k="addr:housenumber" v="34"/>
    <tag k="addr:postcode" v="CB22 5EW"/>
    <tag k="addr:street" v="Whittlesford Road"/>
    <tag k="building" v="house"/>
  </way>
  <way id="614204355" version="3" timestamp="2023-09-18T19:28:28Z" changeset="141439178" uid="20240549" user="Sforzando9500">
    <nd ref="5810211670"/>
    <nd ref="5810211667"/>
    <nd ref="5810211668"/>
    <nd ref="5810211669"/>
    <nd ref="5810211670"/>
    <tag k="addr:housenumber" v="30"/>
    <tag k="addr:street" v="Whittlesford Road"/>
    <tag k="building" v="house"/>
  </way>
  <way id="614204357" version="4" timestamp="2023-10-06T19:31:45Z" changeset="142244943" uid="20240549" user="Sforzando9500">
    <nd ref="5810211674"/>
    <nd ref="5810211671"/>
    <nd ref="5810211672"/>
    <nd ref="5810211673"/>
    <nd ref="5810211674"/>
    <tag k="addr:city" v="Little Shelford"/>
    <tag k="addr:housenumber" v="26"/>
    <tag k="addr:postcode" v="CB22 5EW"/>
    <tag k="addr:street" v="Whittlesford Road"/>
    <tag k="building" v="semidetached_house"/>
  </way>
  <way id="614204359" version="3" timestamp="2023-09-18T19:28:28Z" changeset="141439178" uid="20240549" user="Sforzando9500">
    <nd ref="5810211682"/>
    <nd ref="11191666084"/>
    <nd ref="11191666085"/>
    <nd ref="5810211681"/>
    <nd ref="5810211677"/>
    <nd ref="5810211678"/>
    <nd ref="5810211680"/>
    <nd ref="5810211679"/>
    <nd ref="5810211675"/>
    <nd ref="5810211676"/>
    <nd ref="5810211682"/>
    <tag k="addr:city" v="Little Shelford"/>
    <tag k="addr:housename" v="Ivy House"/>
    <tag k="addr:housenumber" v="16"/>
    <tag k="addr:postcode" v="CB22 5EW"/>
    <tag k="addr:street" v="Whittlesford Road"/>
    <tag k="building" v="house"/>
  </way>
  <way id="614204364" version="3" timestamp="2023-09-18T19:28:28Z" changeset="141439178" uid="20240549" user="Sforzando9500">
    <nd ref="5810211694"/>
    <nd ref="5810211693"/>
    <nd ref="5810211692"/>
    <nd ref="5810211691"/>
    <nd ref="5810211694"/>
    <tag k="addr:city" v="Little Shelford"/>
    <tag k="addr:housename" v="Milestone House"/>
    <tag k="addr:housenumber" v="14"/>
    <tag k="addr:postcode" v="CB22 5EW"/>
    <tag k="addr:street" v="Whittlesford Road"/>
    <tag k="building" v="house"/>
  </way>
  <way id="614204370" version="4" timestamp="2023-10-09T16:43:38Z" changeset="142357646" uid="20240549" user="Sforzando9500">
    <nd ref="5810211708"/>
    <nd ref="5810211705"/>
    <nd ref="5810211706"/>
    <nd ref="5810211703"/>
    <nd ref="5810211704"/>
    <nd ref="5810211707"/>
    <nd ref="5810211708"/>
    <tag k="addr:city" v="Little Shelford"/>
    <tag k="addr:housenumber" v="10"/>
    <tag k="addr:postcode" v="CB22 5EW"/>
    <tag k="addr:street" v="Whittlesford Road"/>
    <tag k="building" v="detached"/>
  </way>
  <way id="614204371" version="4" timestamp="2023-10-09T16:43:38Z" changeset="142357646" uid="20240549" user="Sforzando9500">
    <nd ref="5810211718"/>
    <nd ref="5810211715"/>
    <nd ref="5810211714"/>
    <nd ref="5810211713"/>
    <nd ref="5810211716"/>
    <nd ref="5810211717"/>
    <nd ref="5810211712"/>
    <nd ref="5810211711"/>
    <nd ref="5810211710"/>
    <nd ref="5810211709"/>
    <nd ref="5810211718"/>
    <tag k="addr:city" v="Little Shelford"/>
    <tag k="addr:housenumber" v="12"/>
    <tag k="addr:postcode" v="CB22 5EW"/>
    <tag k="addr:street" v="Whittlesford Road"/>
    <tag k="building" v="detached"/>
  </way>
  <way id="614204372" version="3" timestamp="2023-09-18T19:28:28Z" changeset="141439178" uid="20240549" user="Sforzando9500">
    <nd ref="5810211726"/>
    <nd ref="5810211723"/>
    <nd ref="5810211722"/>
    <nd ref="5810211721"/>
    <nd ref="5810211724"/>
    <nd ref="5810211720"/>
    <nd ref="5810211719"/>
    <nd ref="5810211725"/>
    <nd ref="5810211726"/>
    <tag k="addr:city" v="Little Shelford"/>
    <tag k="addr:housename" v="Lime Cottage"/>
    <tag k="addr:housenumber" v="8"/>
    <tag k="addr:postcode" v="CB22 5EW"/>
    <tag k="addr:street" v="Whittlesford Road"/>
    <tag k="building" v="house"/>
  </way>
  <way id="614204374" version="3" timestamp="2023-10-09T16:44:01Z" changeset="142357646" uid="20240549" user="Sforzando9500">
    <nd ref="5810211734"/>
    <nd ref="5810211731"/>
    <nd ref="5810211732"/>
    <nd ref="5810211730"/>
    <nd ref="5810211729"/>
    <nd ref="5810211733"/>
    <nd ref="5810211727"/>
    <nd ref="5810211728"/>
    <nd ref="5810211734"/>
    <tag k="addr:city" v="Little Shelford"/>
    <tag k="addr:housenumber" v="2"/>
    <tag k="addr:postcode" v="CB22 5HE"/>
    <tag k="addr:street" v="Bridge Lane"/>
    <tag k="building" v="detached"/>
    <tag k="name" v="East Lodge"/>
  </way>
  <way id="614204377" version="4" timestamp="2023-10-09T16:44:01Z" changeset="142357646" uid="20240549" user="Sforzando9500">
    <nd ref="5810211746"/>
    <nd ref="5810211742"/>
    <nd ref="5810211741"/>
    <nd ref="5810211745"/>
    <nd ref="5810211744"/>
    <nd ref="5810211739"/>
    <nd ref="5810211740"/>
    <nd ref="5810211743"/>
    <nd ref="5810211746"/>
    <tag k="addr:city" v="Little Shelford"/>
    <tag k="addr:housenumber" v="6"/>
    <tag k="addr:postcode" v="CB22 5HE"/>
    <tag k="addr:street" v="Bridge Lane"/>
    <tag k="building" v="detached"/>
  </way>
  <way id="614204391" version="3" timestamp="2023-10-09T16:44:00Z" changeset="142357646" uid="20240549" user="Sforzando9500">
    <nd ref="5810211798"/>
    <nd ref="5810211794"/>
    <nd ref="5810211793"/>
    <nd ref="5810211792"/>
    <nd ref="5810211791"/>
    <nd ref="5810211797"/>
    <nd ref="5810211796"/>
    <nd ref="5810211795"/>
    <nd ref="5810211789"/>
    <nd ref="5810211790"/>
    <nd ref="5810211798"/>
    <tag k="addr:housenumber" v="10"/>
    <tag k="addr:postcode" v="CB22 5HE"/>
    <tag k="addr:street" v="Bridge Lane"/>
    <tag k="building" v="detached"/>
    <tag k="name" v="Riverside House"/>
  </way>
  <way id="614204392" version="3" timestamp="2023-10-09T16:44:00Z" changeset="142357646" uid="20240549" user="Sforzando9500">
    <nd ref="5810211806"/>
    <nd ref="5810211805"/>
    <nd ref="5810211800"/>
    <nd ref="5810211799"/>
    <nd ref="5810211801"/>
    <nd ref="5810211802"/>
    <nd ref="5810211804"/>
    <nd ref="5810211803"/>
    <nd ref="5810211806"/>
    <tag k="addr:housenumber" v="8"/>
    <tag k="addr:postcode" v="CB22 5HE"/>
    <tag k="addr:street" v="Bridge Lane"/>
    <tag k="building" v="detached"/>
  </way>
  <way id="614204393" version="4" timestamp="2023-09-15T21:36:28Z" changeset="141320988" uid="20240549" user="Sforzando9500">
    <nd ref="5810211814"/>
    <nd ref="5810211813"/>
    <nd ref="5810211812"/>
    <nd ref="5810211810"/>
    <nd ref="5810211809"/>
    <nd ref="5810211811"/>
    <nd ref="5810211814"/>
    <tag k="addr:housenumber" v="1"/>
    <tag k="addr:postcode" v="CB22 5EW"/>
    <tag k="addr:street" v="Whittlesford Road"/>
    <tag k="building" v="detached"/>
    <tag k="name" v="The Lodge"/>
  </way>
  <way id="614204394" version="3" timestamp="2023-10-09T16:42:06Z" changeset="142357646" uid="20240549" user="Sforzando9500">
    <nd ref="5810211818"/>
    <nd ref="5810211817"/>
    <nd ref="5810211819"/>
    <nd ref="5810211816"/>
    <nd ref="5810211815"/>
    <nd ref="5810211818"/>
    <tag k="addr:city" v="Little Shelford"/>
    <tag k="addr:housename" v="The Square House"/>
    <tag k="addr:housenumber" v="4"/>
    <tag k="addr:postcode" v="CB22 5HG"/>
    <tag k="addr:street" v="Church Street"/>
    <tag k="building" v="detached"/>
  </way>
  <way id="614204395" version="3" timestamp="2023-10-09T16:42:14Z" changeset="142357646" uid="20240549" user="Sforzando9500">
    <nd ref="5810211822"/>
    <nd ref="5810211821"/>
    <nd ref="5810211820"/>
    <nd ref="11202213755"/>
    <nd ref="11202213754"/>
    <nd ref="11202213753"/>
    <nd ref="11202213752"/>
    <nd ref="5810211819"/>
    <nd ref="5810211817"/>
    <nd ref="5810211822"/>
    <tag k="addr:city" v="Little Shelford"/>
    <tag k="addr:housename" v="The Old Post Office"/>
    <tag k="addr:housenumber" v="6"/>
    <tag k="addr:postcode" v="CB22 5HG"/>
    <tag k="addr:street" v="Church Street"/>
    <tag k="building" v="detached"/>
  </way>
  <way id="614204398" version="2" timestamp="2023-09-19T11:34:51Z" changeset="141464832" uid="20240549" user="Sforzando9500">
    <nd ref="5810211836"/>
    <nd ref="5810211833"/>
    <nd ref="5810211830"/>
    <nd ref="5810211829"/>
    <nd ref="5810211834"/>
    <nd ref="5810211835"/>
    <nd ref="5810211836"/>
    <tag k="addr:city" v="Little Shelford"/>
    <tag k="addr:housenumber" v="10"/>
    <tag k="addr:postcode" v="CB22 5HG"/>
    <tag k="addr:street" v="Church Street"/>
    <tag k="building" v="house"/>
  </way>
  <way id="614204400" version="3" timestamp="2023-10-09T16:42:24Z" changeset="142357646" uid="20240549" user="Sforzando9500">
    <nd ref="5810211854"/>
    <nd ref="5810211846"/>
    <nd ref="5810211845"/>
    <nd ref="5810211853"/>
    <nd ref="5810211852"/>
    <nd ref="5810211847"/>
    <nd ref="5810211848"/>
    <nd ref="5810211851"/>
    <nd ref="5810211849"/>
    <nd ref="5810211850"/>
    <nd ref="5810211854"/>
    <tag k="addr:city" v="Little Shelford"/>
    <tag k="addr:housename" v="Cintra House"/>
    <tag k="addr:housenumber" v="12"/>
    <tag k="addr:postcode" v="CB22 5HG"/>
    <tag k="addr:street" v="Church Street"/>
    <tag k="building" v="detached"/>
  </way>
  <way id="614204402" version="3" timestamp="2023-10-09T16:59:20Z" changeset="142357646" uid="20240549" user="Sforzando9500">
    <nd ref="5810211858"/>
    <nd ref="11202213762"/>
    <nd ref="11202213761"/>
    <nd ref="5810211855"/>
    <nd ref="5810211839"/>
    <nd ref="5810211838"/>
    <nd ref="5810211837"/>
    <nd ref="5810211840"/>
    <nd ref="5810211842"/>
    <nd ref="5810211841"/>
    <nd ref="11202213758"/>
    <nd ref="11202213757"/>
    <nd ref="11202213756"/>
    <nd ref="5810211856"/>
    <nd ref="5810211857"/>
    <nd ref="5810211858"/>
    <tag k="addr:city" v="Little Shelford"/>
    <tag k="addr:housename" v="Cintra Lodge"/>
    <tag k="addr:housenumber" v="14"/>
    <tag k="addr:postcode" v="CB22 5HG"/>
    <tag k="addr:street" v="Church Street"/>
    <tag k="building" v="detached"/>
  </way>
  <way id="614204403" version="3" timestamp="2024-11-03T21:56:03Z" changeset="158717025" uid="20240549" user="Sforzando9500">
    <nd ref="5810211862"/>
    <nd ref="5810211861"/>
    <nd ref="5810211860"/>
    <nd ref="5810211859"/>
    <nd ref="5810211862"/>
    <tag k="addr:city" v="Little Shelford"/>
    <tag k="addr:housename" v="St Andrews"/>
    <tag k="addr:housenumber" v="16"/>
    <tag k="addr:postcode" v="CB22 5HG"/>
    <tag k="addr:street" v="Church Street"/>
    <tag k="building" v="detached"/>
  </way>
  <way id="614204404" version="3" timestamp="2023-10-09T16:43:02Z" changeset="142357646" uid="20240549" user="Sforzando9500">
    <nd ref="5810211866"/>
    <nd ref="5810211865"/>
    <nd ref="5810211864"/>
    <nd ref="11202213766"/>
    <nd ref="11202213767"/>
    <nd ref="11202213769"/>
    <nd ref="11202213768"/>
    <nd ref="5810211863"/>
    <nd ref="5810211866"/>
    <tag k="addr:city" v="Little Shelford"/>
    <tag k="addr:housenumber" v="18"/>
    <tag k="addr:postcode" v="CB22 5HG"/>
    <tag k="addr:street" v="Church Street"/>
    <tag k="building" v="detached"/>
  </way>
  <way id="614204405" version="3" timestamp="2023-11-03T23:51:27Z" changeset="143594590" uid="20240549" user="Sforzando9500">
    <nd ref="5810211874"/>
    <nd ref="5810211868"/>
    <nd ref="5810211867"/>
    <nd ref="5810211873"/>
    <nd ref="5810211872"/>
    <nd ref="5810211870"/>
    <nd ref="5810211869"/>
    <nd ref="5810211871"/>
    <nd ref="5810211874"/>
    <tag k="addr:city" v="Little Shelford"/>
    <tag k="addr:housenumber" v="20"/>
    <tag k="addr:postcode" v="CB22 5HG"/>
    <tag k="addr:street" v="Church Street"/>
    <tag k="building" v="detached"/>
  </way>
  <way id="614204409" version="3" timestamp="2023-11-03T23:51:20Z" changeset="143594590" uid="20240549" user="Sforzando9500">
    <nd ref="5810211882"/>
    <nd ref="5810211881"/>
    <nd ref="5810211880"/>
    <nd ref="5810211879"/>
    <nd ref="5810211882"/>
    <tag k="addr:city" v="Little Shelford"/>
    <tag k="addr:housenumber" v="22"/>
    <tag k="addr:postcode" v="CB22 5HG"/>
    <tag k="addr:street" v="Church Street"/>
    <tag k="building" v="detached"/>
  </way>
  <way id="614204411" version="3" timestamp="2023-11-03T23:51:30Z" changeset="143594590" uid="20240549" user="Sforzando9500">
    <nd ref="5810211890"/>
    <nd ref="5810211889"/>
    <nd ref="5810211888"/>
    <nd ref="11202213770"/>
    <nd ref="11202213771"/>
    <nd ref="5810211887"/>
    <nd ref="5810211890"/>
    <tag k="addr:city" v="Little Shelford"/>
    <tag k="addr:housenumber" v="24"/>
    <tag k="addr:postcode" v="CB22 5HG"/>
    <tag k="addr:street" v="Church Street"/>
    <tag k="building" v="detached"/>
  </way>
  <way id="614204412" version="3" timestamp="2023-10-09T16:43:10Z" changeset="142357646" uid="20240549" user="Sforzando9500">
    <nd ref="5810211898"/>
    <nd ref="5810211891"/>
    <nd ref="5810211892"/>
    <nd ref="5810211896"/>
    <nd ref="11202182430"/>
    <nd ref="5810211894"/>
    <nd ref="11202182431"/>
    <nd ref="5810211893"/>
    <nd ref="5810211898"/>
    <tag k="addr:city" v="Little Shelford"/>
    <tag k="addr:housenumber" v="26"/>
    <tag k="addr:postcode" v="CB22 5HG"/>
    <tag k="addr:street" v="Church Street"/>
    <tag k="building" v="semidetached_house"/>
  </way>
  <way id="614204413" version="3" timestamp="2023-10-09T16:43:19Z" changeset="142357646" uid="20240549" user="Sforzando9500">
    <nd ref="5810211902"/>
    <nd ref="5810211901"/>
    <nd ref="5810211900"/>
    <nd ref="5810211899"/>
    <nd ref="5810211902"/>
    <tag k="addr:city" v="Little Shelford"/>
    <tag k="addr:housenumber" v="1"/>
    <tag k="addr:postcode" v="CB22 5HF"/>
    <tag k="addr:street" v="Manor Road"/>
    <tag k="building" v="detached"/>
  </way>
  <way id="614204418" version="3" timestamp="2023-09-15T22:50:57Z" changeset="141322394" uid="20240549" user="Sforzando9500">
    <nd ref="5810211916"/>
    <nd ref="5810211915"/>
    <nd ref="5810211914"/>
    <nd ref="5810211912"/>
    <nd ref="5810211911"/>
    <nd ref="5810211913"/>
    <nd ref="5810211916"/>
    <tag k="addr:housename" v="Priesthouse"/>
    <tag k="addr:housenumber" v="33"/>
    <tag k="addr:street" v="Church Street"/>
    <tag k="building" v="house"/>
  </way>
  <way id="614204419" version="3" timestamp="2023-10-09T16:42:57Z" changeset="142357646" uid="20240549" user="Sforzando9500">
    <nd ref="5810211922"/>
    <nd ref="5810211919"/>
    <nd ref="5810211917"/>
    <nd ref="5810211918"/>
    <nd ref="5810211920"/>
    <nd ref="5810211921"/>
    <nd ref="5810211922"/>
    <tag k="addr:city" v="Little Shelford"/>
    <tag k="addr:housename" v="Church House"/>
    <tag k="addr:housenumber" v="31"/>
    <tag k="addr:postcode" v="CB22 5HG"/>
    <tag k="addr:street" v="Church Street"/>
    <tag k="building" v="detached"/>
  </way>
  <way id="614204420" version="3" timestamp="2023-10-09T16:42:53Z" changeset="142357646" uid="20240549" user="Sforzando9500">
    <nd ref="5810211928"/>
    <nd ref="5810211925"/>
    <nd ref="5810211924"/>
    <nd ref="5810211923"/>
    <nd ref="5810211926"/>
    <nd ref="5810211927"/>
    <nd ref="5810211928"/>
    <tag k="addr:city" v="Little Shelford"/>
    <tag k="addr:housenumber" v="29"/>
    <tag k="addr:postcode" v="CB22 5HG"/>
    <tag k="addr:street" v="Church Street"/>
    <tag k="building" v="detached"/>
  </way>
  <way id="614204422" version="3" timestamp="2023-10-09T16:43:00Z" changeset="142357646" uid="20240549" user="Sforzando9500">
    <nd ref="5810211934"/>
    <nd ref="5810211931"/>
    <nd ref="5810211929"/>
    <nd ref="5810211930"/>
    <nd ref="5810211932"/>
    <nd ref="5810211933"/>
    <nd ref="5810211934"/>
    <tag k="addr:city" v="Little Shelford"/>
    <tag k="addr:housenumber" v="27"/>
    <tag k="addr:postcode" v="CB22 5HG"/>
    <tag k="addr:street" v="Church Street"/>
    <tag k="building" v="detached"/>
  </way>
  <way id="614204424" version="4" timestamp="2023-10-09T16:42:44Z" changeset="142357646" uid="20240549" user="Sforzando9500">
    <nd ref="5810211946"/>
    <nd ref="5810211945"/>
    <nd ref="11202213807"/>
    <nd ref="5810211944"/>
    <nd ref="5810211943"/>
    <nd ref="5810211946"/>
    <tag k="addr:city" v="Little Shelford"/>
    <tag k="addr:housenumber" v="21"/>
    <tag k="addr:postcode" v="CB22 5HG"/>
    <tag k="addr:street" v="Church Street"/>
    <tag k="building" v="detached"/>
  </way>
  <way id="614204425" version="3" timestamp="2023-10-09T16:42:43Z" changeset="142357646" uid="20240549" user="Sforzando9500">
    <nd ref="5810211952"/>
    <nd ref="5810211951"/>
    <nd ref="5810211950"/>
    <nd ref="5810211948"/>
    <nd ref="5810211947"/>
    <nd ref="5810211949"/>
    <nd ref="5810211952"/>
    <tag k="addr:city" v="Little Shelford"/>
    <tag k="addr:housenumber" v="19"/>
    <tag k="addr:postcode" v="CB22 5HG"/>
    <tag k="addr:street" v="Church Street"/>
    <tag k="building" v="detached"/>
  </way>
  <way id="614204428" version="3" timestamp="2024-11-03T21:55:51Z" changeset="158717025" uid="20240549" user="Sforzando9500">
    <nd ref="3590211118"/>
    <nd ref="5810211969"/>
    <nd ref="3590211117"/>
    <nd ref="11202213764"/>
    <nd ref="11202213765"/>
    <nd ref="5810211970"/>
    <nd ref="5810211971"/>
    <nd ref="11202213763"/>
    <nd ref="3590211118"/>
    <tag k="addr:city" v="Little Shelford"/>
    <tag k="addr:housenumber" v="17"/>
    <tag k="addr:postcode" v="CB22 5HG"/>
    <tag k="addr:street" v="Church Street"/>
    <tag k="building" v="detached"/>
  </way>
  <way id="614204430" version="3" timestamp="2023-11-03T23:51:06Z" changeset="143594590" uid="20240549" user="Sforzando9500">
    <nd ref="5810211976"/>
    <nd ref="5810211973"/>
    <nd ref="5810211974"/>
    <nd ref="5810211975"/>
    <nd ref="5810211977"/>
    <nd ref="5810211976"/>
    <tag k="addr:city" v="Little Shelford"/>
    <tag k="addr:housename" v="The Long House"/>
    <tag k="addr:housenumber" v="11"/>
    <tag k="addr:postcode" v="CB22 5HG"/>
    <tag k="addr:street" v="Church Street"/>
    <tag k="building" v="detached"/>
  </way>
  <way id="614204431" version="3" timestamp="2023-10-09T16:59:32Z" changeset="142357646" uid="20240549" user="Sforzando9500">
    <nd ref="5810211980"/>
    <nd ref="5810211979"/>
    <nd ref="11202213794"/>
    <nd ref="5810211978"/>
    <nd ref="5810211976"/>
    <nd ref="5810211977"/>
    <nd ref="5810211980"/>
    <tag k="addr:city" v="Little Shelford"/>
    <tag k="addr:housenumber" v="9"/>
    <tag k="addr:postcode" v="CB22 5HG"/>
    <tag k="addr:street" v="Church Street"/>
    <tag k="building" v="detached"/>
  </way>
  <way id="614204434" version="3" timestamp="2023-10-09T16:42:14Z" changeset="142357646" uid="20240549" user="Sforzando9500">
    <nd ref="5810211988"/>
    <nd ref="5810211987"/>
    <nd ref="11202213744"/>
    <nd ref="5810211986"/>
    <nd ref="11202213743"/>
    <nd ref="5810211985"/>
    <nd ref="5810211988"/>
    <tag k="addr:city" v="Little Shelford"/>
    <tag k="addr:housenumber" v="7"/>
    <tag k="addr:postcode" v="CB22 5HG"/>
    <tag k="addr:street" v="Church Street"/>
    <tag k="building" v="detached"/>
  </way>
  <way id="614204435" version="3" timestamp="2023-10-09T16:42:14Z" changeset="142357646" uid="20240549" user="Sforzando9500">
    <nd ref="5810211996"/>
    <nd ref="5810211993"/>
    <nd ref="5810211992"/>
    <nd ref="5810211990"/>
    <nd ref="5810211989"/>
    <nd ref="5810211991"/>
    <nd ref="5810211994"/>
    <nd ref="5810211995"/>
    <nd ref="5810211996"/>
    <tag k="addr:city" v="Little Shelford"/>
    <tag k="addr:housenumber" v="5"/>
    <tag k="addr:postcode" v="CB22 5HG"/>
    <tag k="addr:street" v="Church Street"/>
    <tag k="building" v="detached"/>
  </way>
  <way id="614204438" version="3" timestamp="2023-11-03T23:51:02Z" changeset="143594590" uid="20240549" user="Sforzando9500">
    <nd ref="5810212004"/>
    <nd ref="11202213750"/>
    <nd ref="5810212003"/>
    <nd ref="11202213751"/>
    <nd ref="5810212002"/>
    <nd ref="5810212001"/>
    <nd ref="5810212004"/>
    <tag k="addr:city" v="Little Shelford"/>
    <tag k="addr:housename" v="Vine Cottage"/>
    <tag k="addr:housenumber" v="3"/>
    <tag k="addr:postcode" v="CB22 5HG"/>
    <tag k="addr:street" v="Church Street"/>
    <tag k="building" v="detached"/>
  </way>
  <way id="614204439" version="3" timestamp="2023-09-24T15:41:13Z" changeset="141688339" uid="20240549" user="Sforzando9500">
    <nd ref="5810212010"/>
    <nd ref="5810212009"/>
    <nd ref="5810212005"/>
    <nd ref="5810212006"/>
    <nd ref="5810212008"/>
    <nd ref="5810212007"/>
    <nd ref="11215795747"/>
    <nd ref="5810212010"/>
    <tag k="addr:city" v="Little Shelford"/>
    <tag k="addr:housenumber" v="2 - 4"/>
    <tag k="addr:postcode" v="CB22 5HJ"/>
    <tag k="addr:street" v="Hauxton Road"/>
    <tag k="building" v="yes"/>
  </way>
  <way id="614204440" version="4" timestamp="2023-10-09T17:00:22Z" changeset="142357646" uid="20240549" user="Sforzando9500">
    <nd ref="5810212018"/>
    <nd ref="5810212012"/>
    <nd ref="11215588346"/>
    <nd ref="5810212011"/>
    <nd ref="11215795751"/>
    <nd ref="5810212015"/>
    <nd ref="5810212016"/>
    <nd ref="5810212013"/>
    <nd ref="5810212014"/>
    <nd ref="5810212017"/>
    <nd ref="11215588343"/>
    <nd ref="11215588344"/>
    <nd ref="11215588345"/>
    <nd ref="11215795749"/>
    <nd ref="5810212018"/>
    <tag k="addr:city" v="Little Shelford"/>
    <tag k="addr:housenumber" v="6 - 8"/>
    <tag k="addr:postcode" v="CB22 5HJ"/>
    <tag k="addr:street" v="Hauxton Road"/>
    <tag k="building" v="semidetached_house"/>
  </way>
  <way id="614204442" version="3" timestamp="2023-10-09T17:00:25Z" changeset="142357646" uid="20240549" user="Sforzando9500">
    <nd ref="5810212022"/>
    <nd ref="5810212021"/>
    <nd ref="11215588348"/>
    <nd ref="11215588347"/>
    <nd ref="11215588349"/>
    <nd ref="5810212019"/>
    <nd ref="5810212022"/>
    <tag k="addr:city" v="Little Shelford"/>
    <tag k="addr:housenumber" v="10"/>
    <tag k="addr:postcode" v="CB22 5HJ"/>
    <tag k="addr:street" v="Hauxton Road"/>
    <tag k="building" v="detached"/>
  </way>
  <way id="614204444" version="3" timestamp="2023-10-09T17:00:32Z" changeset="142357646" uid="20240549" user="Sforzando9500">
    <nd ref="5810212028"/>
    <nd ref="5810212027"/>
    <nd ref="5810212026"/>
    <nd ref="5810212023"/>
    <nd ref="5810212024"/>
    <nd ref="5810212025"/>
    <nd ref="5810212028"/>
    <tag k="addr:city" v="Little Shelford"/>
    <tag k="addr:housenumber" v="12"/>
    <tag k="addr:postcode" v="CB22 5HJ"/>
    <tag k="addr:street" v="Hauxton Road"/>
    <tag k="building" v="detached"/>
  </way>
  <way id="614204445" version="3" timestamp="2023-10-09T17:00:30Z" changeset="142357646" uid="20240549" user="Sforzando9500">
    <nd ref="5810212038"/>
    <nd ref="11215588350"/>
    <nd ref="11215588351"/>
    <nd ref="5810212034"/>
    <nd ref="5810212033"/>
    <nd ref="5810212035"/>
    <nd ref="5810212036"/>
    <nd ref="5810212032"/>
    <nd ref="5810212031"/>
    <nd ref="5810212029"/>
    <nd ref="5810212030"/>
    <nd ref="5810212037"/>
    <nd ref="5810212038"/>
    <tag k="addr:city" v="Little Shelford"/>
    <tag k="addr:housenumber" v="14"/>
    <tag k="addr:postcode" v="CB22 5HJ"/>
    <tag k="addr:street" v="Hauxton Road"/>
    <tag k="building" v="detached"/>
  </way>
  <way id="614204446" version="3" timestamp="2023-11-03T23:50:44Z" changeset="143594590" uid="20240549" user="Sforzando9500">
    <nd ref="5810212042"/>
    <nd ref="5810212041"/>
    <nd ref="5810212040"/>
    <nd ref="5810212039"/>
    <nd ref="5810212042"/>
    <tag k="addr:city" v="Little Shelford"/>
    <tag k="addr:housenumber" v="16"/>
    <tag k="addr:postcode" v="CB22 5HJ"/>
    <tag k="addr:street" v="Hauxton Road"/>
    <tag k="building" v="detached"/>
  </way>
  <way id="614204448" version="3" timestamp="2023-10-09T17:00:42Z" changeset="142357646" uid="20240549" user="Sforzando9500">
    <nd ref="5810212046"/>
    <nd ref="5810212045"/>
    <nd ref="5810212044"/>
    <nd ref="5810212043"/>
    <nd ref="5810212046"/>
    <tag k="addr:city" v="Little Shelford"/>
    <tag k="addr:housenumber" v="18"/>
    <tag k="addr:postcode" v="CB22 5HJ"/>
    <tag k="addr:street" v="Hauxton Road"/>
    <tag k="building" v="detached"/>
  </way>
  <way id="614204449" version="4" timestamp="2023-10-09T17:00:52Z" changeset="142357646" uid="20240549" user="Sforzando9500">
    <nd ref="5810212050"/>
    <nd ref="11215588352"/>
    <nd ref="11215588353"/>
    <nd ref="5810212049"/>
    <nd ref="5810212048"/>
    <nd ref="11215588354"/>
    <nd ref="5810212047"/>
    <nd ref="5810212050"/>
    <tag k="addr:city" v="Little Shelford"/>
    <tag k="addr:housename" v="The Saffrons"/>
    <tag k="addr:housenumber" v="20"/>
    <tag k="addr:postcode" v="CB22 5HJ"/>
    <tag k="addr:street" v="Hauxton Road"/>
    <tag k="building" v="detached"/>
  </way>
  <way id="614204450" version="3" timestamp="2023-10-09T17:00:48Z" changeset="142357646" uid="20240549" user="Sforzando9500">
    <nd ref="5810212054"/>
    <nd ref="11215588356"/>
    <nd ref="11215588355"/>
    <nd ref="5810212051"/>
    <nd ref="5810212052"/>
    <nd ref="5810212053"/>
    <nd ref="11215588358"/>
    <nd ref="11215588357"/>
    <nd ref="5810212054"/>
    <tag k="addr:city" v="Little Shelford"/>
    <tag k="addr:housenumber" v="22"/>
    <tag k="addr:postcode" v="CB22 5HJ"/>
    <tag k="addr:street" v="Hauxton Road"/>
    <tag k="building" v="detached"/>
  </way>
  <way id="614204451" version="3" timestamp="2023-10-09T17:00:59Z" changeset="142357646" uid="20240549" user="Sforzando9500">
    <nd ref="5810212060"/>
    <nd ref="5810212059"/>
    <nd ref="5810212055"/>
    <nd ref="5810212056"/>
    <nd ref="5810212058"/>
    <nd ref="5810212057"/>
    <nd ref="11215588359"/>
    <nd ref="11215588360"/>
    <nd ref="5810212060"/>
    <tag k="addr:city" v="Little Shelford"/>
    <tag k="addr:housenumber" v="24"/>
    <tag k="addr:postcode" v="CB22 5HJ"/>
    <tag k="addr:street" v="Hauxton Road"/>
    <tag k="building" v="detached"/>
  </way>
  <way id="614204452" version="4" timestamp="2023-10-09T17:00:54Z" changeset="142357646" uid="20240549" user="Sforzando9500">
    <nd ref="5810212066"/>
    <nd ref="5810212063"/>
    <nd ref="11215588361"/>
    <nd ref="5810212061"/>
    <nd ref="5810212062"/>
    <nd ref="5810212065"/>
    <nd ref="11215588362"/>
    <nd ref="11215588363"/>
    <nd ref="5810212066"/>
    <tag k="addr:city" v="Little Shelford"/>
    <tag k="addr:housename" v="Chaldon"/>
    <tag k="addr:housenumber" v="26"/>
    <tag k="addr:postcode" v="CB22 5HJ"/>
    <tag k="addr:street" v="Hauxton Road"/>
    <tag k="building" v="detached"/>
  </way>
  <way id="614204454" version="4" timestamp="2023-10-09T17:01:14Z" changeset="142357646" uid="20240549" user="Sforzando9500">
    <nd ref="5810212072"/>
    <nd ref="5810212069"/>
    <nd ref="5810212070"/>
    <nd ref="5810212068"/>
    <nd ref="5810212067"/>
    <nd ref="5810212071"/>
    <nd ref="5810212072"/>
    <tag k="addr:city" v="Little Shelford"/>
    <tag k="addr:housename" v="Summerfield"/>
    <tag k="addr:housenumber" v="28"/>
    <tag k="addr:postcode" v="CB22 5HJ"/>
    <tag k="addr:street" v="Hauxton Road"/>
    <tag k="building" v="detached"/>
  </way>
  <way id="614204455" version="3" timestamp="2023-10-09T17:01:16Z" changeset="142357646" uid="20240549" user="Sforzando9500">
    <nd ref="5810212080"/>
    <nd ref="5810212079"/>
    <nd ref="11215588364"/>
    <nd ref="11215588365"/>
    <nd ref="5810212076"/>
    <nd ref="5810212075"/>
    <nd ref="5810212078"/>
    <nd ref="5810212077"/>
    <nd ref="5810212073"/>
    <nd ref="5810212074"/>
    <nd ref="5810212080"/>
    <tag k="addr:city" v="Little Shelford"/>
    <tag k="addr:housenumber" v="30"/>
    <tag k="addr:postcode" v="CB22 5HJ"/>
    <tag k="addr:street" v="Hauxton Road"/>
    <tag k="building" v="detached"/>
  </way>
  <way id="614204457" version="3" timestamp="2023-10-09T17:01:24Z" changeset="142357646" uid="20240549" user="Sforzando9500">
    <nd ref="5810212086"/>
    <nd ref="5810212083"/>
    <nd ref="5810212084"/>
    <nd ref="5810212081"/>
    <nd ref="5810212082"/>
    <nd ref="5810212085"/>
    <nd ref="11215588366"/>
    <nd ref="11215588367"/>
    <nd ref="5810212086"/>
    <tag k="addr:city" v="Little Shelford"/>
    <tag k="addr:housenumber" v="32"/>
    <tag k="addr:postcode" v="CB22 5HJ"/>
    <tag k="addr:street" v="Hauxton Road"/>
    <tag k="building" v="detached"/>
  </way>
  <way id="614204458" version="3" timestamp="2023-10-09T17:01:18Z" changeset="142357646" uid="20240549" user="Sforzando9500">
    <nd ref="5810212094"/>
    <nd ref="5810212090"/>
    <nd ref="5810212088"/>
    <nd ref="5810212089"/>
    <nd ref="5810212092"/>
    <nd ref="11215588369"/>
    <nd ref="11215588368"/>
    <nd ref="5810212091"/>
    <nd ref="5810212094"/>
    <tag k="addr:city" v="Little Shelford"/>
    <tag k="addr:housenumber" v="34"/>
    <tag k="addr:postcode" v="CB22 5HJ"/>
    <tag k="addr:street" v="Hauxton Road"/>
    <tag k="building" v="detached"/>
  </way>
  <way id="614204460" version="3" timestamp="2023-10-09T17:01:26Z" changeset="142357646" uid="20240549" user="Sforzando9500">
    <nd ref="5810212098"/>
    <nd ref="5810212095"/>
    <nd ref="11215588372"/>
    <nd ref="11215588371"/>
    <nd ref="11215588370"/>
    <nd ref="5810212096"/>
    <nd ref="5810212097"/>
    <nd ref="5810212098"/>
    <tag k="addr:city" v="Little Shelford"/>
    <tag k="addr:housenumber" v="36"/>
    <tag k="addr:postcode" v="CB22 5HJ"/>
    <tag k="addr:street" v="Hauxton Road"/>
    <tag k="building" v="detached"/>
  </way>
  <way id="614204461" version="3" timestamp="2023-11-03T23:50:37Z" changeset="143594590" uid="20240549" user="Sforzando9500">
    <nd ref="5810212102"/>
    <nd ref="5810212099"/>
    <nd ref="5810212100"/>
    <nd ref="11215588374"/>
    <nd ref="11215588373"/>
    <nd ref="5810212101"/>
    <nd ref="5810212102"/>
    <tag k="addr:city" v="Little Shelford"/>
    <tag k="addr:housenumber" v="38"/>
    <tag k="addr:postcode" v="CB22 5HJ"/>
    <tag k="addr:street" v="Hauxton Road"/>
    <tag k="building" v="detached"/>
  </way>
  <way id="614204462" version="3" timestamp="2023-10-09T17:01:42Z" changeset="142357646" uid="20240549" user="Sforzando9500">
    <nd ref="5810212112"/>
    <nd ref="5810212111"/>
    <nd ref="5810212107"/>
    <nd ref="5810212108"/>
    <nd ref="5810212110"/>
    <nd ref="11215588379"/>
    <nd ref="5810212109"/>
    <nd ref="5810212112"/>
    <tag k="addr:city" v="Little Shelford"/>
    <tag k="addr:housenumber" v="38a"/>
    <tag k="addr:postcode" v="CB22 5HJ"/>
    <tag k="addr:street" v="Hauxton Road"/>
    <tag k="building" v="detached"/>
  </way>
  <way id="614204464" version="5" timestamp="2023-11-03T23:50:33Z" changeset="143594590" uid="20240549" user="Sforzando9500">
    <nd ref="5810212118"/>
    <nd ref="11215830746"/>
    <nd ref="11215830745"/>
    <nd ref="5810212117"/>
    <nd ref="5810212106"/>
    <nd ref="5810212104"/>
    <nd ref="5810212103"/>
    <nd ref="5810212115"/>
    <nd ref="5810212113"/>
    <nd ref="5810212114"/>
    <nd ref="5810212118"/>
    <tag k="addr:city" v="Little Shelford"/>
    <tag k="addr:housename" v="Green Acres"/>
    <tag k="addr:housenumber" v="40"/>
    <tag k="addr:postcode" v="CB22 5HJ"/>
    <tag k="addr:street" v="Hauxton Road"/>
    <tag k="building" v="detached"/>
  </way>
  <way id="614204466" version="3" timestamp="2023-11-03T23:50:24Z" changeset="143594590" uid="20240549" user="Sforzando9500">
    <nd ref="5810212128"/>
    <nd ref="5810212127"/>
    <nd ref="5810212126"/>
    <nd ref="11215588380"/>
    <nd ref="11215588381"/>
    <nd ref="5810212124"/>
    <nd ref="5810212123"/>
    <nd ref="5810212125"/>
    <nd ref="11215588382"/>
    <nd ref="5810212128"/>
    <tag k="addr:city" v="Little Shelford"/>
    <tag k="addr:housenumber" v="44"/>
    <tag k="addr:postcode" v="CB22 5HJ"/>
    <tag k="addr:street" v="Hauxton Road"/>
    <tag k="building" v="detached"/>
  </way>
  <way id="614204468" version="3" timestamp="2023-11-03T23:50:29Z" changeset="143594590" uid="20240549" user="Sforzando9500">
    <nd ref="5810212132"/>
    <nd ref="5810212129"/>
    <nd ref="5810212130"/>
    <nd ref="5810212131"/>
    <nd ref="5810212132"/>
    <tag k="addr:city" v="Little Shelford"/>
    <tag k="addr:housenumber" v="42"/>
    <tag k="addr:postcode" v="CB22 5HJ"/>
    <tag k="addr:street" v="Hauxton Road"/>
    <tag k="building" v="semidetached_house"/>
  </way>
  <way id="614204469" version="3" timestamp="2023-11-03T23:50:25Z" changeset="143594590" uid="20240549" user="Sforzando9500">
    <nd ref="5810212136"/>
    <nd ref="5810212133"/>
    <nd ref="5810212134"/>
    <nd ref="5810212135"/>
    <nd ref="11215588385"/>
    <nd ref="11215588384"/>
    <nd ref="11215588383"/>
    <nd ref="5810212136"/>
    <tag k="addr:city" v="Little Shelford"/>
    <tag k="addr:housenumber" v="46"/>
    <tag k="addr:postcode" v="CB22 5HJ"/>
    <tag k="addr:street" v="Hauxton Road"/>
    <tag k="building" v="detached"/>
  </way>
  <way id="614204476" version="4" timestamp="2023-10-09T17:02:17Z" changeset="142357646" uid="20240549" user="Sforzando9500">
    <nd ref="5810212159"/>
    <nd ref="5810212156"/>
    <nd ref="5810212157"/>
    <nd ref="5810212158"/>
    <nd ref="11216903307"/>
    <nd ref="11216903306"/>
    <nd ref="11216903305"/>
    <nd ref="11216903304"/>
    <nd ref="5810212159"/>
    <tag k="addr:city" v="Little Shelford"/>
    <tag k="addr:housename" v="Beechwood"/>
    <tag k="addr:housenumber" v="25"/>
    <tag k="addr:postcode" v="CB22 5HL"/>
    <tag k="addr:street" v="Newton Road"/>
    <tag k="building" v="detached"/>
  </way>
  <way id="614204478" version="2" timestamp="2023-09-24T22:31:14Z" changeset="141704091" uid="20240549" user="Sforzando9500">
    <nd ref="5810212165"/>
    <nd ref="11216903308"/>
    <nd ref="5810212162"/>
    <nd ref="11216903309"/>
    <nd ref="5810212160"/>
    <nd ref="11216903310"/>
    <nd ref="5810212161"/>
    <nd ref="11216903311"/>
    <nd ref="11216903312"/>
    <nd ref="11216903313"/>
    <nd ref="11216903314"/>
    <nd ref="5810212163"/>
    <nd ref="5810212164"/>
    <nd ref="5810212165"/>
    <tag k="addr:city" v="Little Shelford"/>
    <tag k="addr:housename" v="Dorset House"/>
    <tag k="addr:housenumber" v="35"/>
    <tag k="addr:postcode" v="CB22 5HL"/>
    <tag k="addr:street" v="Newton Road"/>
    <tag k="building" v="yes"/>
  </way>
  <way id="614204481" version="2" timestamp="2023-09-24T22:31:14Z" changeset="141704091" uid="20240549" user="Sforzando9500">
    <nd ref="5810212173"/>
    <nd ref="5810212170"/>
    <nd ref="5810212171"/>
    <nd ref="5810212172"/>
    <nd ref="5810212173"/>
    <tag k="addr:city" v="Little Shelford"/>
    <tag k="addr:housenumber" v="27"/>
    <tag k="addr:postcode" v="CB22 5HL"/>
    <tag k="addr:street" v="Newton Road"/>
    <tag k="building" v="yes"/>
  </way>
  <way id="614204482" version="2" timestamp="2023-09-24T22:31:14Z" changeset="141704091" uid="20240549" user="Sforzando9500">
    <nd ref="5810212179"/>
    <nd ref="5810212176"/>
    <nd ref="5810212174"/>
    <nd ref="5810212175"/>
    <nd ref="5810212177"/>
    <nd ref="5810212178"/>
    <nd ref="5810212179"/>
    <tag k="addr:city" v="Little Shelford"/>
    <tag k="addr:housenumber" v="31"/>
    <tag k="addr:postcode" v="CB22 5HL"/>
    <tag k="addr:street" v="Newton Road"/>
    <tag k="building" v="yes"/>
  </way>
  <way id="614204483" version="2" timestamp="2023-09-24T22:31:14Z" changeset="141704091" uid="20240549" user="Sforzando9500">
    <nd ref="5810212183"/>
    <nd ref="5810212182"/>
    <nd ref="5810212181"/>
    <nd ref="5810212180"/>
    <nd ref="5810212183"/>
    <tag k="addr:city" v="Little Shelford"/>
    <tag k="addr:housenumber" v="40"/>
    <tag k="addr:postcode" v="CB22 5HL"/>
    <tag k="addr:street" v="Newton Road"/>
    <tag k="building" v="yes"/>
  </way>
  <way id="614204490" version="3" timestamp="2023-11-03T23:50:17Z" changeset="143594590" uid="20240549" user="Sforzando9500">
    <nd ref="5810212213"/>
    <nd ref="5810212206"/>
    <nd ref="5810212207"/>
    <nd ref="5810212212"/>
    <nd ref="5810212204"/>
    <nd ref="5810212205"/>
    <nd ref="5810212211"/>
    <nd ref="5810212210"/>
    <nd ref="5810212208"/>
    <nd ref="5810212209"/>
    <nd ref="5810212213"/>
    <tag k="addr:city" v="Little Shelford"/>
    <tag k="addr:housenumber" v="83"/>
    <tag k="addr:postcode" v="CB22 5HJ"/>
    <tag k="addr:street" v="Hauxton Road"/>
    <tag k="building" v="detached"/>
  </way>
  <way id="614204492" version="3" timestamp="2023-11-03T23:50:14Z" changeset="143594590" uid="20240549" user="Sforzando9500">
    <nd ref="5810212217"/>
    <nd ref="11215848373"/>
    <nd ref="5810212216"/>
    <nd ref="11215848372"/>
    <nd ref="11215848376"/>
    <nd ref="11215848371"/>
    <nd ref="11215848370"/>
    <nd ref="5810212215"/>
    <nd ref="5810212214"/>
    <nd ref="11215848378"/>
    <nd ref="5810212217"/>
    <tag k="addr:city" v="Little Shelford"/>
    <tag k="addr:housenumber" v="79 - 81"/>
    <tag k="addr:postcode" v="CB22 5HJ"/>
    <tag k="addr:street" v="Hauxton Road"/>
    <tag k="building" v="semidetached_house"/>
  </way>
  <way id="614204493" version="3" timestamp="2023-11-03T23:50:12Z" changeset="143594590" uid="20240549" user="Sforzando9500">
    <nd ref="5810212221"/>
    <nd ref="5810212220"/>
    <nd ref="5810212219"/>
    <nd ref="11215795701"/>
    <nd ref="11215795700"/>
    <nd ref="5810212218"/>
    <nd ref="11215795696"/>
    <nd ref="11215795697"/>
    <nd ref="11215795698"/>
    <nd ref="11215795699"/>
    <nd ref="5810212221"/>
    <tag k="addr:city" v="Little Shelford"/>
    <tag k="addr:housenumber" v="77"/>
    <tag k="addr:postcode" v="CB22 5HJ"/>
    <tag k="addr:street" v="Hauxton Road"/>
    <tag k="building" v="detached"/>
  </way>
  <way id="614204494" version="4" timestamp="2023-11-03T23:50:06Z" changeset="143594590" uid="20240549" user="Sforzando9500">
    <nd ref="5810212225"/>
    <nd ref="5810212224"/>
    <nd ref="11215795689"/>
    <nd ref="11215795688"/>
    <nd ref="11215848364"/>
    <nd ref="11215795687"/>
    <nd ref="11215795686"/>
    <nd ref="5810212223"/>
    <nd ref="5810212222"/>
    <nd ref="11215795682"/>
    <nd ref="11215795683"/>
    <nd ref="11215795684"/>
    <nd ref="11215795685"/>
    <nd ref="5810212225"/>
    <tag k="addr:city" v="Little Shelford"/>
    <tag k="addr:housenumber" v="73 - 75"/>
    <tag k="addr:postcode" v="CB22 5HJ"/>
    <tag k="addr:street" v="Hauxton Road"/>
    <tag k="building" v="semidetached_house"/>
  </way>
  <way id="614204495" version="4" timestamp="2023-11-03T23:50:03Z" changeset="143594590" uid="20240549" user="Sforzando9500">
    <nd ref="5810212231"/>
    <nd ref="5810212230"/>
    <nd ref="5810212227"/>
    <nd ref="5810212226"/>
    <nd ref="11215848359"/>
    <nd ref="11215795691"/>
    <nd ref="11215795690"/>
    <nd ref="5810212229"/>
    <nd ref="5810212228"/>
    <nd ref="11215795692"/>
    <nd ref="11215795693"/>
    <nd ref="11215848368"/>
    <nd ref="11215795694"/>
    <nd ref="11215795695"/>
    <nd ref="5810212231"/>
    <tag k="addr:city" v="Little Shelford"/>
    <tag k="addr:housenumber" v="69 - 71"/>
    <tag k="addr:postcode" v="CB22 5HJ"/>
    <tag k="addr:street" v="Hauxton Road"/>
    <tag k="building" v="semidetached_house"/>
  </way>
  <way id="614204497" version="3" timestamp="2023-11-03T23:50:00Z" changeset="143594590" uid="20240549" user="Sforzando9500">
    <nd ref="5810212235"/>
    <nd ref="5810212234"/>
    <nd ref="5810212233"/>
    <nd ref="11215795681"/>
    <nd ref="11215795680"/>
    <nd ref="11215795679"/>
    <nd ref="11215795678"/>
    <nd ref="5810212232"/>
    <nd ref="5810212235"/>
    <tag k="addr:city" v="Little Shelford"/>
    <tag k="addr:housenumber" v="67"/>
    <tag k="addr:postcode" v="CB22 5HJ"/>
    <tag k="addr:street" v="Hauxton Road"/>
    <tag k="building" v="detached"/>
  </way>
  <way id="614204509" version="3" timestamp="2023-11-03T23:49:56Z" changeset="143594590" uid="20240549" user="Sforzando9500">
    <nd ref="5810212275"/>
    <nd ref="5810212272"/>
    <nd ref="11215795674"/>
    <nd ref="11215795675"/>
    <nd ref="5810212273"/>
    <nd ref="11215795676"/>
    <nd ref="11215795677"/>
    <nd ref="5810212274"/>
    <nd ref="5810212275"/>
    <tag k="addr:city" v="Little Shelford"/>
    <tag k="addr:housenumber" v="65"/>
    <tag k="addr:postcode" v="CB22 5HJ"/>
    <tag k="addr:street" v="Hauxton Road"/>
    <tag k="building" v="detached"/>
  </way>
  <way id="614204510" version="2" timestamp="2023-09-24T15:41:13Z" changeset="141688339" uid="20240549" user="Sforzando9500">
    <nd ref="5810212285"/>
    <nd ref="5810212278"/>
    <nd ref="5810212280"/>
    <nd ref="5810212279"/>
    <nd ref="5810212277"/>
    <nd ref="5810212282"/>
    <nd ref="5810212281"/>
    <nd ref="11215795669"/>
    <nd ref="11215795670"/>
    <nd ref="5810212276"/>
    <nd ref="5810212283"/>
    <nd ref="5810212284"/>
    <nd ref="5810212285"/>
    <tag k="addr:city" v="Little Shelford"/>
    <tag k="addr:housenumber" v="63a"/>
    <tag k="addr:postcode" v="CB22 5HJ"/>
    <tag k="addr:street" v="Hauxton Road"/>
    <tag k="building" v="house"/>
  </way>
  <way id="614204512" version="3" timestamp="2023-11-03T23:49:53Z" changeset="143594590" uid="20240549" user="Sforzando9500">
    <nd ref="5810212291"/>
    <nd ref="11215795661"/>
    <nd ref="11215795662"/>
    <nd ref="11215795663"/>
    <nd ref="11215795664"/>
    <nd ref="5810212288"/>
    <nd ref="5810212289"/>
    <nd ref="5810212286"/>
    <nd ref="5810212287"/>
    <nd ref="5810212290"/>
    <nd ref="5810212291"/>
    <tag k="addr:city" v="Little Shelford"/>
    <tag k="addr:housenumber" v="63"/>
    <tag k="addr:postcode" v="CB22 5HJ"/>
    <tag k="addr:street" v="Hauxton Road"/>
    <tag k="building" v="detached"/>
  </way>
  <way id="614204513" version="2" timestamp="2023-09-24T15:41:13Z" changeset="141688339" uid="20240549" user="Sforzando9500">
    <nd ref="5810212295"/>
    <nd ref="5810212294"/>
    <nd ref="5810212293"/>
    <nd ref="5810212292"/>
    <nd ref="5810212295"/>
    <tag k="addr:city" v="Little Shelford"/>
    <tag k="addr:postcode" v="CB22 5HJ"/>
    <tag k="addr:street" v="Hauxton Road"/>
    <tag k="building" v="yes"/>
    <tag k="name" v="Brookfield Cottage"/>
  </way>
  <way id="614204518" version="3" timestamp="2023-11-03T23:49:50Z" changeset="143594590" uid="20240549" user="Sforzando9500">
    <nd ref="5810212311"/>
    <nd ref="5810212307"/>
    <nd ref="5810212306"/>
    <nd ref="5810212308"/>
    <nd ref="5810212309"/>
    <nd ref="5810212304"/>
    <nd ref="5810212305"/>
    <nd ref="5810212310"/>
    <nd ref="5810212311"/>
    <tag k="addr:city" v="Little Shelford"/>
    <tag k="addr:housenumber" v="61a"/>
    <tag k="addr:postcode" v="CB22 5HJ"/>
    <tag k="addr:street" v="Hauxton Road"/>
    <tag k="building" v="detached"/>
  </way>
  <way id="614204519" version="3" timestamp="2023-11-03T23:49:47Z" changeset="143594590" uid="20240549" user="Sforzando9500">
    <nd ref="5810212317"/>
    <nd ref="5810212314"/>
    <nd ref="5810212315"/>
    <nd ref="5810212316"/>
    <nd ref="5810212312"/>
    <nd ref="5810212313"/>
    <nd ref="5810212317"/>
    <tag k="addr:city" v="Little Shelford"/>
    <tag k="addr:housenumber" v="61"/>
    <tag k="addr:postcode" v="CB22 5HJ"/>
    <tag k="addr:street" v="Hauxton Road"/>
    <tag k="building" v="detached"/>
  </way>
  <way id="614204520" version="4" timestamp="2023-11-03T23:49:33Z" changeset="143594590" uid="20240549" user="Sforzando9500">
    <nd ref="5810212321"/>
    <nd ref="5810212320"/>
    <nd ref="11215795659"/>
    <nd ref="11215795658"/>
    <nd ref="11215795657"/>
    <nd ref="11215795656"/>
    <nd ref="11215795655"/>
    <nd ref="5810212319"/>
    <nd ref="5810212318"/>
    <nd ref="11215840880"/>
    <nd ref="5810212321"/>
    <tag k="addr:city" v="Little Shelford"/>
    <tag k="addr:housenumber" v="57 - 59"/>
    <tag k="addr:postcode" v="CB22 5HJ"/>
    <tag k="addr:street" v="Hauxton Road"/>
    <tag k="building" v="semidetached_house"/>
  </way>
  <way id="614204521" version="4" timestamp="2023-11-03T23:49:27Z" changeset="143594590" uid="20240549" user="Sforzando9500">
    <nd ref="5810212325"/>
    <nd ref="5810212324"/>
    <nd ref="11215795654"/>
    <nd ref="11215795653"/>
    <nd ref="5810212323"/>
    <nd ref="5810212322"/>
    <nd ref="11215840871"/>
    <nd ref="5810212325"/>
    <tag k="addr:city" v="Little Shelford"/>
    <tag k="addr:housenumber" v="53 - 55"/>
    <tag k="addr:postcode" v="CB22 5HJ"/>
    <tag k="addr:street" v="Hauxton Road"/>
    <tag k="building" v="semidetached_house"/>
  </way>
  <way id="614204522" version="4" timestamp="2023-11-03T23:49:30Z" changeset="143594590" uid="20240549" user="Sforzando9500">
    <nd ref="5810212329"/>
    <nd ref="5810212328"/>
    <nd ref="11215840864"/>
    <nd ref="5810212327"/>
    <nd ref="5810212326"/>
    <nd ref="11215840866"/>
    <nd ref="5810212329"/>
    <tag k="addr:city" v="Little Shelford"/>
    <tag k="addr:housenumber" v="49 - 51"/>
    <tag k="addr:postcode" v="CB22 5HJ"/>
    <tag k="addr:street" v="Hauxton Road"/>
    <tag k="building" v="semidetached_house"/>
  </way>
  <way id="614204523" version="4" timestamp="2023-11-03T23:49:23Z" changeset="143594590" uid="20240549" user="Sforzando9500">
    <nd ref="5810212333"/>
    <nd ref="5810212332"/>
    <nd ref="11215840858"/>
    <nd ref="5810212331"/>
    <nd ref="5810212330"/>
    <nd ref="11215840859"/>
    <nd ref="5810212333"/>
    <tag k="addr:city" v="Little Shelford"/>
    <tag k="addr:housenumber" v="45 - 47"/>
    <tag k="addr:postcode" v="CB22 5HJ"/>
    <tag k="addr:street" v="Hauxton Road"/>
    <tag k="building" v="semidetached_house"/>
  </way>
  <way id="614204524" version="2" timestamp="2023-09-24T22:03:24Z" changeset="141703281" uid="20240549" user="Sforzando9500">
    <nd ref="5810212337"/>
    <nd ref="5810212334"/>
    <nd ref="5810212335"/>
    <nd ref="5810212336"/>
    <nd ref="5810212337"/>
    <tag k="addr:city" v="Little Shelford"/>
    <tag k="addr:housenumber" v="7"/>
    <tag k="addr:postcode" v="CB22 5UX"/>
    <tag k="addr:street" v="Moor Close"/>
    <tag k="building" v="house"/>
  </way>
  <way id="614204525" version="4" timestamp="2023-11-03T23:49:13Z" changeset="143594590" uid="20240549" user="Sforzando9500">
    <nd ref="5810212341"/>
    <nd ref="5810212340"/>
    <nd ref="5810212339"/>
    <nd ref="5810212338"/>
    <nd ref="5810212341"/>
    <tag k="addr:city" v="Little Shelford"/>
    <tag k="addr:housenumber" v="5"/>
    <tag k="addr:postcode" v="CB22 5UX"/>
    <tag k="addr:street" v="Moor Close"/>
    <tag k="building" v="semidetached_house"/>
  </way>
  <way id="614204526" version="3" timestamp="2023-11-03T23:49:10Z" changeset="143594590" uid="20240549" user="Sforzando9500">
    <nd ref="5810212345"/>
    <nd ref="5810212344"/>
    <nd ref="5810212343"/>
    <nd ref="5810212342"/>
    <nd ref="5810212345"/>
    <tag k="addr:city" v="Little Shelford"/>
    <tag k="addr:housenumber" v="3"/>
    <tag k="addr:postcode" v="CB22 5UX"/>
    <tag k="addr:street" v="Moor Close"/>
    <tag k="building" v="semidetached_house"/>
  </way>
  <way id="614204528" version="3" timestamp="2023-11-03T23:49:07Z" changeset="143594590" uid="20240549" user="Sforzando9500">
    <nd ref="5810212349"/>
    <nd ref="5810212346"/>
    <nd ref="5810212347"/>
    <nd ref="5810212348"/>
    <nd ref="5810212349"/>
    <tag k="addr:city" v="Little Shelford"/>
    <tag k="addr:housenumber" v="1"/>
    <tag k="addr:postcode" v="CB22 5UX"/>
    <tag k="addr:street" v="Moor Close"/>
    <tag k="building" v="semidetached_house"/>
  </way>
  <way id="614204530" version="4" timestamp="2023-10-09T17:02:15Z" changeset="142357646" uid="20240549" user="Sforzando9500">
    <nd ref="5810212357"/>
    <nd ref="11216906077"/>
    <nd ref="5810212356"/>
    <nd ref="5810212355"/>
    <nd ref="11216906075"/>
    <nd ref="5810212354"/>
    <nd ref="5810212357"/>
    <tag k="addr:city" v="Little Shelford"/>
    <tag k="addr:housenumber" v="16-18"/>
    <tag k="addr:postcode" v="CB22 5HL"/>
    <tag k="addr:street" v="Newton Road"/>
    <tag k="building" v="semidetached_house"/>
  </way>
  <way id="614204532" version="3" timestamp="2023-10-09T17:02:13Z" changeset="142357646" uid="20240549" user="Sforzando9500">
    <nd ref="5810212361"/>
    <nd ref="5810212358"/>
    <nd ref="11216903329"/>
    <nd ref="11216903330"/>
    <nd ref="11216906068"/>
    <nd ref="11216903331"/>
    <nd ref="11216903332"/>
    <nd ref="11216903333"/>
    <nd ref="5810212360"/>
    <nd ref="11216906070"/>
    <nd ref="5810212361"/>
    <tag k="addr:city" v="Little Shelford"/>
    <tag k="addr:housenumber" v="12-14"/>
    <tag k="addr:postcode" v="CB22 5HL"/>
    <tag k="addr:street" v="Newton Road"/>
    <tag k="building" v="semidetached_house"/>
  </way>
  <way id="614204533" version="3" timestamp="2023-10-09T17:02:14Z" changeset="142357646" uid="20240549" user="Sforzando9500">
    <nd ref="5810212371"/>
    <nd ref="11216903328"/>
    <nd ref="11216903327"/>
    <nd ref="5810212368"/>
    <nd ref="5810212367"/>
    <nd ref="5810212366"/>
    <nd ref="5810212363"/>
    <nd ref="5810212365"/>
    <nd ref="11216906062"/>
    <nd ref="5810212371"/>
    <tag k="addr:city" v="Little Shelford"/>
    <tag k="addr:housenumber" v="8-10"/>
    <tag k="addr:postcode" v="CB22 5HL"/>
    <tag k="addr:street" v="Newton Road"/>
    <tag k="building" v="semidetached_house"/>
  </way>
  <way id="614204534" version="3" timestamp="2023-10-09T17:02:13Z" changeset="142357646" uid="20240549" user="Sforzando9500">
    <nd ref="5810212379"/>
    <nd ref="5810212375"/>
    <nd ref="5810212374"/>
    <nd ref="5810212376"/>
    <nd ref="5810212377"/>
    <nd ref="5810212373"/>
    <nd ref="5810212372"/>
    <nd ref="5810212378"/>
    <nd ref="5810212379"/>
    <tag k="addr:city" v="Little Shelford"/>
    <tag k="addr:housenumber" v="6"/>
    <tag k="addr:postcode" v="CB22 5HL"/>
    <tag k="addr:street" v="Newton Road"/>
    <tag k="building" v="detached"/>
  </way>
  <way id="614204536" version="4" timestamp="2024-12-08T21:35:38Z" changeset="160070049" uid="20240549" user="Sforzando9500">
    <nd ref="5810212383"/>
    <nd ref="5810212380"/>
    <nd ref="11216903319"/>
    <nd ref="11216903320"/>
    <nd ref="11216903321"/>
    <nd ref="11216903322"/>
    <nd ref="5810212381"/>
    <nd ref="5810212382"/>
    <nd ref="5810212383"/>
    <tag k="addr:city" v="Little Shelford"/>
    <tag k="addr:housename" v="The Stables"/>
    <tag k="addr:housenumber" v="4"/>
    <tag k="addr:postcode" v="CB22 5HL"/>
    <tag k="addr:street" v="Newton Road"/>
    <tag k="building" v="detached"/>
  </way>
  <way id="614204540" version="3" timestamp="2023-11-03T23:49:20Z" changeset="143594590" uid="20240549" user="Sforzando9500">
    <nd ref="5810212397"/>
    <nd ref="5810212396"/>
    <nd ref="5810212392"/>
    <nd ref="5810212393"/>
    <nd ref="5810212395"/>
    <nd ref="5810212394"/>
    <nd ref="11215795649"/>
    <nd ref="11215795650"/>
    <nd ref="11215795652"/>
    <nd ref="11215795651"/>
    <nd ref="5810212397"/>
    <tag k="addr:city" v="Little Shelford"/>
    <tag k="addr:housenumber" v="41 - 43"/>
    <tag k="addr:postcode" v="CB22 5HJ"/>
    <tag k="addr:street" v="Hauxton Road"/>
    <tag k="building" v="semidetached_house"/>
  </way>
  <way id="614204541" version="5" timestamp="2023-10-09T17:02:12Z" changeset="142357646" uid="20240549" user="Sforzando9500">
    <nd ref="5810212401"/>
    <nd ref="5810212398"/>
    <nd ref="11215795648"/>
    <nd ref="11215795647"/>
    <nd ref="11215830812"/>
    <nd ref="11215795646"/>
    <nd ref="11215795645"/>
    <nd ref="5810212399"/>
    <nd ref="5810212400"/>
    <nd ref="11215795641"/>
    <nd ref="11215795642"/>
    <nd ref="11215795643"/>
    <nd ref="11215795644"/>
    <nd ref="5810212401"/>
    <tag k="addr:city" v="Little Shelford"/>
    <tag k="addr:housenumber" v="37 - 39"/>
    <tag k="addr:postcode" v="CB22 5HJ"/>
    <tag k="addr:street" v="Hauxton Road"/>
    <tag k="building" v="semidetached_house"/>
  </way>
  <way id="614204542" version="4" timestamp="2023-10-09T17:02:12Z" changeset="142357646" uid="20240549" user="Sforzando9500">
    <nd ref="5810212405"/>
    <nd ref="5810212404"/>
    <nd ref="11215795637"/>
    <nd ref="11215795638"/>
    <nd ref="11215830816"/>
    <nd ref="11215795640"/>
    <nd ref="11215795639"/>
    <nd ref="5810212403"/>
    <nd ref="5810212402"/>
    <nd ref="11215758933"/>
    <nd ref="11215758934"/>
    <nd ref="11215758935"/>
    <nd ref="11215758936"/>
    <nd ref="5810212405"/>
    <tag k="addr:city" v="Little Shelford"/>
    <tag k="addr:housenumber" v="33 - 35"/>
    <tag k="addr:postcode" v="CB22 5HJ"/>
    <tag k="addr:street" v="Hauxton Road"/>
    <tag k="building" v="semidetached_house"/>
  </way>
  <way id="614204543" version="3" timestamp="2023-10-09T17:02:10Z" changeset="142357646" uid="20240549" user="Sforzando9500">
    <nd ref="5810212409"/>
    <nd ref="5810212406"/>
    <nd ref="11215758932"/>
    <nd ref="11215758931"/>
    <nd ref="5810212407"/>
    <nd ref="5810212408"/>
    <nd ref="5810212409"/>
    <tag k="addr:city" v="Little Shelford"/>
    <tag k="addr:housenumber" v="29 - 31"/>
    <tag k="addr:postcode" v="CB22 5HJ"/>
    <tag k="addr:street" v="Hauxton Road"/>
    <tag k="building" v="semidetached_house"/>
  </way>
  <way id="614204545" version="4" timestamp="2023-11-05T08:02:27Z" changeset="143639345" uid="20240549" user="Sforzando9500">
    <nd ref="5810212417"/>
    <nd ref="5810212414"/>
    <nd ref="5810212423"/>
    <nd ref="5810212415"/>
    <nd ref="11215758907"/>
    <nd ref="11215758906"/>
    <nd ref="11215758904"/>
    <nd ref="11215758905"/>
    <nd ref="11215758903"/>
    <nd ref="11215758902"/>
    <nd ref="5810212416"/>
    <nd ref="5810212417"/>
    <tag k="addr:city" v="Little Shelford"/>
    <tag k="addr:housename" v="Half Moon House"/>
    <tag k="addr:housenumber" v="19c"/>
    <tag k="addr:postcode" v="CB22 5HJ"/>
    <tag k="addr:street" v="Hauxton Road"/>
    <tag k="building" v="semidetached_house"/>
  </way>
  <way id="614204546" version="4" timestamp="2023-11-05T08:02:24Z" changeset="143639345" uid="20240549" user="Sforzando9500">
    <nd ref="5810212425"/>
    <nd ref="5810212427"/>
    <nd ref="5810212424"/>
    <nd ref="5810212421"/>
    <nd ref="5810212420"/>
    <nd ref="5810212423"/>
    <nd ref="5810212414"/>
    <nd ref="5810212422"/>
    <nd ref="5810212418"/>
    <nd ref="5810212419"/>
    <nd ref="5810212425"/>
    <tag k="addr:city" v="Little Shelford"/>
    <tag k="addr:housename" v="Whiteways"/>
    <tag k="addr:housenumber" v="19b"/>
    <tag k="addr:postcode" v="CB22 5HJ"/>
    <tag k="addr:street" v="Hauxton Road"/>
    <tag k="building" v="semidetached_house"/>
  </way>
  <way id="614204547" version="3" timestamp="2023-11-05T08:02:21Z" changeset="143639345" uid="20240549" user="Sforzando9500">
    <nd ref="5810212429"/>
    <nd ref="5810212428"/>
    <nd ref="5810212427"/>
    <nd ref="5810212425"/>
    <nd ref="11215758908"/>
    <nd ref="5810212429"/>
    <tag k="addr:city" v="Little Shelford"/>
    <tag k="addr:housenumber" v="19a"/>
    <tag k="addr:postcode" v="CB22 5HJ"/>
    <tag k="addr:street" v="Hauxton Road"/>
    <tag k="building" v="semidetached_house"/>
  </way>
  <way id="614204549" version="2" timestamp="2023-09-24T22:31:14Z" changeset="141704091" uid="20240549" user="Sforzando9500">
    <nd ref="5810212437"/>
    <nd ref="5810212431"/>
    <nd ref="5810212430"/>
    <nd ref="5810212436"/>
    <nd ref="5810212435"/>
    <nd ref="5810212433"/>
    <nd ref="5810212432"/>
    <nd ref="5810212434"/>
    <nd ref="5810212437"/>
    <tag k="addr:city" v="Little Shelford"/>
    <tag k="addr:housenumber" v="2"/>
    <tag k="addr:postcode" v="CB22 5HL"/>
    <tag k="addr:street" v="Newton Road"/>
    <tag k="building" v="house"/>
  </way>
  <way id="614204550" version="3" timestamp="2023-09-24T22:36:14Z" changeset="141704367" uid="20240549" user="Sforzando9500">
    <nd ref="5810212455"/>
    <nd ref="5810212452"/>
    <nd ref="5810212449"/>
    <nd ref="5810212448"/>
    <nd ref="5810212446"/>
    <nd ref="5810212447"/>
    <nd ref="5810212450"/>
    <nd ref="5810212451"/>
    <nd ref="5810212453"/>
    <nd ref="5810212443"/>
    <nd ref="5810212442"/>
    <nd ref="5810212454"/>
    <nd ref="5810212444"/>
    <nd ref="5810212445"/>
    <nd ref="5810212441"/>
    <nd ref="5810212439"/>
    <nd ref="5810212438"/>
    <nd ref="5810212440"/>
    <nd ref="5810212455"/>
    <tag k="addr:city" v="Little Shelford"/>
    <tag k="addr:housename" v="Whitegates"/>
    <tag k="addr:housenumber" v="13"/>
    <tag k="addr:postcode" v="CB22 5HL"/>
    <tag k="addr:street" v="Newton Road"/>
    <tag k="building" v="house"/>
  </way>
  <way id="614204552" version="2" timestamp="2023-09-24T22:31:14Z" changeset="141704091" uid="20240549" user="Sforzando9500">
    <nd ref="5810212456"/>
    <nd ref="5810212457"/>
    <nd ref="5810212458"/>
    <nd ref="11216903295"/>
    <nd ref="11216903294"/>
    <nd ref="11216903293"/>
    <nd ref="11216903292"/>
    <nd ref="11216903296"/>
    <nd ref="11216903297"/>
    <nd ref="11216903336"/>
    <nd ref="11216903298"/>
    <nd ref="5810212456"/>
    <tag k="addr:city" v="Little Shelford"/>
    <tag k="addr:housenumber" v="5 - 11"/>
    <tag k="addr:postcode" v="CB22 5HL"/>
    <tag k="addr:street" v="Newton Road"/>
    <tag k="building" v="yes"/>
  </way>
  <way id="614204555" version="4" timestamp="2023-10-09T17:02:44Z" changeset="142357646" uid="20240549" user="Sforzando9500">
    <nd ref="5810212469"/>
    <nd ref="5810212466"/>
    <nd ref="5810212465"/>
    <nd ref="5810212464"/>
    <nd ref="5810212467"/>
    <nd ref="5810212468"/>
    <nd ref="5810212469"/>
    <tag k="addr:city" v="Little Shelford"/>
    <tag k="addr:housename" v="Badgers"/>
    <tag k="addr:housenumber" v="1"/>
    <tag k="addr:postcode" v="CB22 5HL"/>
    <tag k="addr:street" v="Newton Road"/>
    <tag k="building" v="detached"/>
  </way>
  <way id="614204556" version="6" timestamp="2023-11-05T08:04:07Z" changeset="143639345" uid="20240549" user="Sforzando9500">
    <nd ref="5810212473"/>
    <nd ref="11215758893"/>
    <nd ref="11215758892"/>
    <nd ref="11215830767"/>
    <nd ref="5810212470"/>
    <nd ref="11215758895"/>
    <nd ref="11215758894"/>
    <nd ref="5810212471"/>
    <nd ref="11215758888"/>
    <nd ref="11215758889"/>
    <nd ref="5810212472"/>
    <nd ref="5810212473"/>
    <tag k="addr:city" v="Little Shelford"/>
    <tag k="addr:housenumber" v="17"/>
    <tag k="addr:postcode" v="CB22 5HJ"/>
    <tag k="addr:street" v="Hauxton Road"/>
    <tag k="building" v="semidetached_house"/>
  </way>
  <way id="614204559" version="3" timestamp="2023-10-09T17:00:17Z" changeset="142357646" uid="20240549" user="Sforzando9500">
    <nd ref="5810212489"/>
    <nd ref="5810212488"/>
    <nd ref="5810212480"/>
    <nd ref="5810212481"/>
    <nd ref="5810212487"/>
    <nd ref="5810212485"/>
    <nd ref="5810212484"/>
    <nd ref="5810212486"/>
    <nd ref="5810212489"/>
    <tag k="addr:city" v="Little Shelford"/>
    <tag k="addr:housenumber" v="5"/>
    <tag k="addr:postcode" v="CB22 5HJ"/>
    <tag k="addr:street" v="Hauxton Road"/>
    <tag k="building" v="detached"/>
  </way>
  <way id="614204561" version="4" timestamp="2023-09-21T18:11:55Z" changeset="141572290" uid="20240549" user="Sforzando9500">
    <nd ref="5810212499"/>
    <nd ref="5810212490"/>
    <nd ref="11202213834"/>
    <nd ref="5810212491"/>
    <nd ref="5810212493"/>
    <nd ref="5810212492"/>
    <nd ref="5810212497"/>
    <nd ref="5810212495"/>
    <nd ref="5810212494"/>
    <nd ref="5810212496"/>
    <nd ref="5810212499"/>
    <tag k="addr:city" v="Little Shelford"/>
    <tag k="addr:housenumber" v="3"/>
    <tag k="addr:postcode" v="CB22 5ES"/>
    <tag k="addr:street" v="High Street"/>
    <tag k="building" v="house"/>
    <tag k="name" v="Flintcombe"/>
  </way>
  <way id="614204562" version="3" timestamp="2024-12-08T21:35:23Z" changeset="160070049" uid="20240549" user="Sforzando9500">
    <nd ref="5810212503"/>
    <nd ref="5810212500"/>
    <nd ref="5810212501"/>
    <nd ref="5810212502"/>
    <nd ref="5810212503"/>
    <tag k="addr:city" v="Little Shelford"/>
    <tag k="addr:housename" v="The Old Forge"/>
    <tag k="addr:housenumber" v="1 &amp; 3"/>
    <tag k="addr:postcode" v="CB22 5HJ"/>
    <tag k="addr:street" v="Hauxton Road"/>
    <tag k="building" v="detached"/>
  </way>
  <way id="614204563" version="3" timestamp="2023-10-09T16:59:48Z" changeset="142357646" uid="20240549" user="Sforzando9500">
    <nd ref="5810212507"/>
    <nd ref="5810212506"/>
    <nd ref="5810212505"/>
    <nd ref="11209046326"/>
    <nd ref="11209046325"/>
    <nd ref="11209046323"/>
    <nd ref="11209046324"/>
    <nd ref="11209064787"/>
    <nd ref="11209046321"/>
    <nd ref="11209046322"/>
    <nd ref="11209064785"/>
    <nd ref="11209046320"/>
    <nd ref="11209046319"/>
    <nd ref="5810212504"/>
    <nd ref="5810212507"/>
    <tag k="addr:city" v="Little Shelford"/>
    <tag k="addr:housenumber" v="10 -14"/>
    <tag k="addr:postcode" v="CB22 5HH"/>
    <tag k="addr:street" v="Garden Fields"/>
    <tag k="building" v="terrace"/>
  </way>
  <way id="614204566" version="3" timestamp="2023-10-09T16:59:45Z" changeset="142357646" uid="20240549" user="Sforzando9500">
    <nd ref="5810212508"/>
    <nd ref="11209046317"/>
    <nd ref="11209046316"/>
    <nd ref="11209046315"/>
    <nd ref="11209046314"/>
    <nd ref="11209046313"/>
    <nd ref="11209046312"/>
    <nd ref="11209046311"/>
    <nd ref="11209064781"/>
    <nd ref="5810212509"/>
    <nd ref="5810212510"/>
    <nd ref="5810212508"/>
    <tag k="addr:city" v="Little Shelford"/>
    <tag k="addr:housenumber" v="2 - 8"/>
    <tag k="addr:postcode" v="CB22 5HH"/>
    <tag k="addr:street" v="Garden Fields"/>
    <tag k="building" v="terrace"/>
  </way>
  <way id="614204570" version="3" timestamp="2023-10-09T17:02:45Z" changeset="142357646" uid="20240549" user="Sforzando9500">
    <nd ref="5810212522"/>
    <nd ref="5810212519"/>
    <nd ref="5810212520"/>
    <nd ref="5810212513"/>
    <nd ref="5810212514"/>
    <nd ref="5810212521"/>
    <nd ref="5810212522"/>
    <tag k="addr:city" v="Little Shelford"/>
    <tag k="addr:housenumber" v="13"/>
    <tag k="addr:postcode" v="CB22 5HH"/>
    <tag k="addr:street" v="Garden Fields"/>
    <tag k="building" v="detached"/>
  </way>
  <way id="614204573" version="4" timestamp="2023-10-09T16:59:40Z" changeset="142357646" uid="20240549" user="Sforzando9500">
    <nd ref="5810212530"/>
    <nd ref="5810212527"/>
    <nd ref="11209046335"/>
    <nd ref="11209046336"/>
    <nd ref="11209064737"/>
    <nd ref="11209064738"/>
    <nd ref="11209064739"/>
    <nd ref="11209064740"/>
    <nd ref="5810212528"/>
    <nd ref="11209064741"/>
    <nd ref="5810212530"/>
    <tag k="addr:city" v="Little Shelford"/>
    <tag k="addr:housenumber" v="5 - 9"/>
    <tag k="addr:postcode" v="CB22 5HH"/>
    <tag k="addr:street" v="Garden Fields"/>
    <tag k="building" v="terrace"/>
  </way>
  <way id="614204576" version="3" timestamp="2023-10-09T16:59:42Z" changeset="142357646" uid="20240549" user="Sforzando9500">
    <nd ref="5810212534"/>
    <nd ref="5810212531"/>
    <nd ref="11209046332"/>
    <nd ref="11209046331"/>
    <nd ref="11209064754"/>
    <nd ref="11209046333"/>
    <nd ref="11209046334"/>
    <nd ref="5810212532"/>
    <nd ref="5810212533"/>
    <nd ref="5810212534"/>
    <tag k="addr:city" v="Little Shelford"/>
    <tag k="addr:housenumber" v="1 - 3"/>
    <tag k="addr:postcode" v="CB22 5HH"/>
    <tag k="addr:street" v="Garden Fields"/>
    <tag k="building" v="semidetached_house"/>
  </way>
  <way id="614204577" version="2" timestamp="2023-09-21T17:10:27Z" changeset="141569840" uid="20240549" user="Sforzando9500">
    <nd ref="5810212540"/>
    <nd ref="11208419195"/>
    <nd ref="11208419196"/>
    <nd ref="11208419197"/>
    <nd ref="11208419201"/>
    <nd ref="11208419198"/>
    <nd ref="5810212535"/>
    <nd ref="5810212537"/>
    <nd ref="5810212538"/>
    <nd ref="5810212539"/>
    <nd ref="11208419204"/>
    <nd ref="11208419206"/>
    <nd ref="5810212540"/>
    <tag k="addr:city" v="Little Shelford"/>
    <tag k="addr:housenumber" v="2 - 6"/>
    <tag k="addr:postcode" v="CB22 5ES"/>
    <tag k="addr:street" v="High Street"/>
    <tag k="building" v="terrace"/>
  </way>
  <way id="614204581" version="3" timestamp="2023-10-09T16:41:40Z" changeset="142357646" uid="20240549" user="Sforzando9500">
    <nd ref="5810212552"/>
    <nd ref="5810212545"/>
    <nd ref="5810212551"/>
    <nd ref="5810212550"/>
    <nd ref="5810212547"/>
    <nd ref="5810212548"/>
    <nd ref="5810212549"/>
    <nd ref="5810212552"/>
    <tag k="addr:city" v="Little Shelford"/>
    <tag k="addr:housenumber" v="8"/>
    <tag k="addr:postcode" v="CB22 5ES"/>
    <tag k="addr:street" v="High Street"/>
    <tag k="building" v="detached"/>
  </way>
  <way id="614204582" version="3" timestamp="2023-10-09T16:41:27Z" changeset="142357646" uid="20240549" user="Sforzando9500">
    <nd ref="5810212556"/>
    <nd ref="5810212553"/>
    <nd ref="5810212554"/>
    <nd ref="5810212555"/>
    <nd ref="5810212556"/>
    <tag k="addr:city" v="Little Shelford"/>
    <tag k="addr:housenumber" v="12"/>
    <tag k="addr:postcode" v="CB22 5ES"/>
    <tag k="addr:street" v="High Street"/>
    <tag k="building" v="detached"/>
  </way>
  <way id="614204583" version="3" timestamp="2023-10-09T16:41:24Z" changeset="142357646" uid="20240549" user="Sforzando9500">
    <nd ref="5810212560"/>
    <nd ref="5810212559"/>
    <nd ref="5810212558"/>
    <nd ref="5810212557"/>
    <nd ref="5810212560"/>
    <tag k="addr:city" v="Little Shelford"/>
    <tag k="addr:housenumber" v="14"/>
    <tag k="addr:postcode" v="CB22 5ES"/>
    <tag k="addr:street" v="High Street"/>
    <tag k="building" v="detached"/>
  </way>
  <way id="614204584" version="3" timestamp="2023-10-09T16:41:20Z" changeset="142357646" uid="20240549" user="Sforzando9500">
    <nd ref="5810212564"/>
    <nd ref="5810212563"/>
    <nd ref="5810212562"/>
    <nd ref="5810212561"/>
    <nd ref="11208419217"/>
    <nd ref="11208419218"/>
    <nd ref="5810212564"/>
    <tag k="addr:city" v="Little Shelford"/>
    <tag k="addr:housenumber" v="16"/>
    <tag k="addr:postcode" v="CB22 5ES"/>
    <tag k="addr:street" v="High Street"/>
    <tag k="building" v="detached"/>
  </way>
  <way id="614204585" version="3" timestamp="2023-10-09T16:41:20Z" changeset="142357646" uid="20240549" user="Sforzando9500">
    <nd ref="5810212568"/>
    <nd ref="5810212567"/>
    <nd ref="5810212566"/>
    <nd ref="5810212565"/>
    <nd ref="5810212568"/>
    <tag k="addr:city" v="Little Shelford"/>
    <tag k="addr:housenumber" v="18"/>
    <tag k="addr:postcode" v="CB22 5ES"/>
    <tag k="addr:street" v="High Street"/>
    <tag k="building" v="detached"/>
  </way>
  <way id="614204587" version="3" timestamp="2023-10-09T17:02:52Z" changeset="142357646" uid="20240549" user="Sforzando9500">
    <nd ref="5810212572"/>
    <nd ref="11208419224"/>
    <nd ref="5810212571"/>
    <nd ref="11208419223"/>
    <nd ref="5810212570"/>
    <nd ref="5810212569"/>
    <nd ref="5810212572"/>
    <tag k="addr:city" v="Little Shelford"/>
    <tag k="addr:housenumber" v="20"/>
    <tag k="addr:postcode" v="CB22 5ES"/>
    <tag k="addr:street" v="High Street"/>
    <tag k="building" v="detached"/>
  </way>
  <way id="614204588" version="3" timestamp="2023-10-09T17:02:49Z" changeset="142357646" uid="20240549" user="Sforzando9500">
    <nd ref="5810212576"/>
    <nd ref="5810212573"/>
    <nd ref="5810212574"/>
    <nd ref="5810212575"/>
    <nd ref="5810212576"/>
    <tag k="addr:city" v="Little Shelford"/>
    <tag k="addr:housenumber" v="22"/>
    <tag k="addr:postcode" v="CB22 5ES"/>
    <tag k="addr:street" v="High Street"/>
    <tag k="building" v="detached"/>
  </way>
  <way id="614204589" version="3" timestamp="2023-10-09T16:41:08Z" changeset="142357646" uid="20240549" user="Sforzando9500">
    <nd ref="5810212580"/>
    <nd ref="5810212579"/>
    <nd ref="5810212578"/>
    <nd ref="11208419230"/>
    <nd ref="11208419229"/>
    <nd ref="5810212577"/>
    <nd ref="5810212580"/>
    <tag k="addr:city" v="Little Shelford"/>
    <tag k="addr:housenumber" v="24"/>
    <tag k="addr:postcode" v="CB22 5ES"/>
    <tag k="addr:street" v="High Street"/>
    <tag k="building" v="detached"/>
  </way>
  <way id="614204591" version="4" timestamp="2023-10-09T16:41:10Z" changeset="142357646" uid="20240549" user="Sforzando9500">
    <nd ref="5810212584"/>
    <nd ref="5810212581"/>
    <nd ref="5810212582"/>
    <nd ref="5810212583"/>
    <nd ref="5810212584"/>
    <tag k="addr:city" v="Little Shelford"/>
    <tag k="addr:housenumber" v="26"/>
    <tag k="addr:postcode" v="CB22 5ES"/>
    <tag k="addr:street" v="High Street"/>
    <tag k="building" v="detached"/>
    <tag k="name" v="Whites Farmhouse"/>
  </way>
  <way id="614204593" version="3" timestamp="2023-10-09T16:41:13Z" changeset="142357646" uid="20240549" user="Sforzando9500">
    <nd ref="5810212588"/>
    <nd ref="5810212585"/>
    <nd ref="5810212586"/>
    <nd ref="11208419233"/>
    <nd ref="11208419234"/>
    <nd ref="5810212587"/>
    <nd ref="5810212588"/>
    <tag k="addr:city" v="Little Shelford"/>
    <tag k="addr:housenumber" v="30"/>
    <tag k="addr:postcode" v="CB22 5ES"/>
    <tag k="addr:street" v="High Street"/>
    <tag k="building" v="detached"/>
  </way>
  <way id="614204594" version="2" timestamp="2023-09-21T17:10:27Z" changeset="141569840" uid="20240549" user="Sforzando9500">
    <nd ref="5810212604"/>
    <nd ref="5810212601"/>
    <nd ref="5810212600"/>
    <nd ref="5810212599"/>
    <nd ref="5810212598"/>
    <nd ref="5810212597"/>
    <nd ref="5810212602"/>
    <nd ref="5810212603"/>
    <nd ref="11208419236"/>
    <nd ref="5810212595"/>
    <nd ref="5810212596"/>
    <nd ref="5810212593"/>
    <nd ref="5810212592"/>
    <nd ref="5810212590"/>
    <nd ref="5810212589"/>
    <nd ref="5810212591"/>
    <nd ref="5810212604"/>
    <tag k="addr:city" v="Little Shelford"/>
    <tag k="addr:housenumber" v="32"/>
    <tag k="addr:postcode" v="CB22 5ES"/>
    <tag k="addr:street" v="High Street"/>
    <tag k="building" v="house"/>
    <tag k="name" v="Kirby Lodge"/>
  </way>
  <way id="614204596" version="3" timestamp="2023-09-21T18:21:44Z" changeset="141572588" uid="20240549" user="Sforzando9500">
    <nd ref="5810212620"/>
    <nd ref="5810212619"/>
    <nd ref="5810212611"/>
    <nd ref="5810212610"/>
    <nd ref="5810212609"/>
    <nd ref="5810212612"/>
    <nd ref="5810212618"/>
    <nd ref="5810212615"/>
    <nd ref="5810212614"/>
    <nd ref="5810212613"/>
    <nd ref="5810212616"/>
    <nd ref="5810212617"/>
    <nd ref="5810212607"/>
    <nd ref="5810212606"/>
    <nd ref="5810212605"/>
    <nd ref="5810212608"/>
    <nd ref="5810212620"/>
    <tag k="addr:city" v="Little Shelford"/>
    <tag k="addr:housenumber" v="34"/>
    <tag k="addr:postcode" v="CB22 5ES"/>
    <tag k="addr:street" v="High Street"/>
    <tag k="building" v="house"/>
    <tag k="name" v="Yew Trees"/>
  </way>
  <way id="614204598" version="3" timestamp="2023-09-21T18:21:44Z" changeset="141572588" uid="20240549" user="Sforzando9500">
    <nd ref="5810212632"/>
    <nd ref="5810212631"/>
    <nd ref="5810212623"/>
    <nd ref="5810212624"/>
    <nd ref="5810212622"/>
    <nd ref="5810212621"/>
    <nd ref="11208419244"/>
    <nd ref="5810212630"/>
    <nd ref="5810212628"/>
    <nd ref="5810212627"/>
    <nd ref="5810212626"/>
    <nd ref="5810212625"/>
    <nd ref="5810212629"/>
    <nd ref="5810212632"/>
    <tag k="addr:city" v="Little Shelford"/>
    <tag k="addr:housenumber" v="38"/>
    <tag k="addr:postcode" v="CB22 5ES"/>
    <tag k="addr:street" v="High Street"/>
    <tag k="building" v="house"/>
    <tag k="name" v="Low Brooms"/>
  </way>
  <way id="614204604" version="3" timestamp="2023-09-21T17:44:45Z" changeset="141571252" uid="20240549" user="Sforzando9500">
    <nd ref="5810212660"/>
    <nd ref="11208449709"/>
    <nd ref="11208449708"/>
    <nd ref="5810212657"/>
    <nd ref="5810212658"/>
    <nd ref="11208449712"/>
    <nd ref="11208449710"/>
    <nd ref="11208449711"/>
    <nd ref="5810212659"/>
    <nd ref="5810212660"/>
    <tag k="addr:city" v="Little Shelford"/>
    <tag k="addr:housenumber" v="42"/>
    <tag k="addr:postcode" v="CB22 5ES"/>
    <tag k="addr:street" v="High Street"/>
    <tag k="building" v="detached"/>
  </way>
  <way id="614204605" version="3" timestamp="2024-11-03T21:53:25Z" changeset="158717025" uid="20240549" user="Sforzando9500">
    <nd ref="5810212670"/>
    <nd ref="5810212678"/>
    <nd ref="5810212669"/>
    <nd ref="5810212668"/>
    <nd ref="5810212666"/>
    <nd ref="5810212665"/>
    <nd ref="5810212663"/>
    <nd ref="5810212664"/>
    <nd ref="5810212667"/>
    <nd ref="5810212661"/>
    <nd ref="5810212662"/>
    <nd ref="11208449727"/>
    <nd ref="5810212670"/>
    <tag k="addr:city" v="Little Shelford"/>
    <tag k="addr:housenumber" v="46"/>
    <tag k="addr:postcode" v="CB22 5ES"/>
    <tag k="addr:street" v="High Street"/>
    <tag k="building" v="detached"/>
  </way>
  <way id="614204607" version="3" timestamp="2024-11-03T21:53:22Z" changeset="158717025" uid="20240549" user="Sforzando9500">
    <nd ref="5810212680"/>
    <nd ref="5810212679"/>
    <nd ref="5810212678"/>
    <nd ref="5810212676"/>
    <nd ref="5810212675"/>
    <nd ref="5810212673"/>
    <nd ref="5810212674"/>
    <nd ref="5810212677"/>
    <nd ref="5810212671"/>
    <nd ref="5810212672"/>
    <nd ref="5810212680"/>
    <tag k="addr:city" v="Little Shelford"/>
    <tag k="addr:housenumber" v="44"/>
    <tag k="addr:postcode" v="CB22 5ES"/>
    <tag k="addr:street" v="High Street"/>
    <tag k="building" v="detached"/>
  </way>
  <way id="614204608" version="3" timestamp="2023-10-09T17:03:30Z" changeset="142357646" uid="20240549" user="Sforzando9500">
    <nd ref="5810212692"/>
    <nd ref="5810212691"/>
    <nd ref="5810212685"/>
    <nd ref="5810212686"/>
    <nd ref="5810212688"/>
    <nd ref="5810212687"/>
    <nd ref="5810212690"/>
    <nd ref="5810212689"/>
    <nd ref="5810212692"/>
    <tag k="addr:city" v="Little Shelford"/>
    <tag k="addr:housenumber" v="48"/>
    <tag k="addr:postcode" v="CB22 5ES"/>
    <tag k="addr:street" v="High Street"/>
    <tag k="building" v="detached"/>
  </way>
  <way id="614204610" version="2" timestamp="2023-09-21T17:44:45Z" changeset="141571252" uid="20240549" user="Sforzando9500">
    <nd ref="5810212696"/>
    <nd ref="5810212693"/>
    <nd ref="5810212681"/>
    <nd ref="5810212682"/>
    <nd ref="5810212684"/>
    <nd ref="5810212683"/>
    <nd ref="5810212694"/>
    <nd ref="5810212695"/>
    <nd ref="5810212696"/>
    <tag k="addr:city" v="Little Shelford"/>
    <tag k="addr:postcode" v="CB22 5ES"/>
    <tag k="addr:street" v="High Street"/>
    <tag k="building" v="yes"/>
    <tag k="name" v="The New Barn"/>
  </way>
  <way id="614204614" version="3" timestamp="2023-10-09T17:03:37Z" changeset="142357646" uid="20240549" user="Sforzando9500">
    <nd ref="5810212713"/>
    <nd ref="5810212709"/>
    <nd ref="5810212708"/>
    <nd ref="5810212706"/>
    <nd ref="5810212707"/>
    <nd ref="5810212710"/>
    <nd ref="5810212711"/>
    <nd ref="5810212712"/>
    <nd ref="5810212713"/>
    <tag k="addr:city" v="Little Shelford"/>
    <tag k="addr:housenumber" v="50"/>
    <tag k="addr:postcode" v="CB22 5ES"/>
    <tag k="addr:street" v="High Street"/>
    <tag k="building" v="detached"/>
    <tag k="name" v="Hall Farm"/>
  </way>
  <way id="614204626" version="4" timestamp="2023-09-21T18:21:44Z" changeset="141572588" uid="20240549" user="Sforzando9500">
    <nd ref="5810212875"/>
    <nd ref="11194785102"/>
    <nd ref="5810212872"/>
    <nd ref="5810212868"/>
    <nd ref="5810212870"/>
    <nd ref="5810212875"/>
    <tag k="addr:city" v="Little Shelford"/>
    <tag k="addr:housenumber" v="95"/>
    <tag k="addr:postcode" v="CB22 5ES"/>
    <tag k="addr:street" v="High Street"/>
    <tag k="building" v="house"/>
    <tag k="name" v="Meadow Cottage"/>
  </way>
  <way id="614204628" version="3" timestamp="2023-10-09T17:27:54Z" changeset="142357646" uid="20240549" user="Sforzando9500">
    <nd ref="5810212881"/>
    <nd ref="5810212880"/>
    <nd ref="11208487539"/>
    <nd ref="11208487540"/>
    <nd ref="5810212879"/>
    <nd ref="5810212876"/>
    <nd ref="5810212877"/>
    <nd ref="5810212878"/>
    <nd ref="5810212881"/>
    <tag k="addr:city" v="Little Shelford"/>
    <tag k="addr:housenumber" v="72 - 74"/>
    <tag k="addr:postcode" v="CB22 5ES"/>
    <tag k="addr:street" v="High Street"/>
    <tag k="building" v="semidetached_house"/>
  </way>
  <way id="614204629" version="5" timestamp="2023-10-09T17:27:52Z" changeset="142357646" uid="20240549" user="Sforzando9500">
    <nd ref="5810212887"/>
    <nd ref="11216702091"/>
    <nd ref="5810212886"/>
    <nd ref="5810212885"/>
    <nd ref="5810212882"/>
    <nd ref="5810212883"/>
    <nd ref="5810212884"/>
    <nd ref="11208487537"/>
    <nd ref="11208487538"/>
    <nd ref="5810212887"/>
    <tag k="addr:city" v="Little Shelford"/>
    <tag k="addr:housenumber" v="68"/>
    <tag k="addr:postcode" v="CB22 5ES"/>
    <tag k="addr:street" v="High Street"/>
    <tag k="building" v="detached"/>
    <tag k="name" v="The White House"/>
  </way>
  <way id="614204630" version="3" timestamp="2023-10-09T17:29:32Z" changeset="142357646" uid="20240549" user="Sforzando9500">
    <nd ref="5810212895"/>
    <nd ref="5810212889"/>
    <nd ref="5810212888"/>
    <nd ref="5810212894"/>
    <nd ref="5810212891"/>
    <nd ref="5810212890"/>
    <nd ref="11208487577"/>
    <nd ref="5810212893"/>
    <nd ref="5810212892"/>
    <nd ref="11208487576"/>
    <nd ref="5810212895"/>
    <tag k="addr:city" v="Little Shelford"/>
    <tag k="addr:housenumber" v="80"/>
    <tag k="addr:postcode" v="CB22 5ES"/>
    <tag k="addr:street" v="High Street"/>
    <tag k="building" v="detached"/>
  </way>
  <way id="614204632" version="3" timestamp="2023-09-21T18:21:44Z" changeset="141572588" uid="20240549" user="Sforzando9500">
    <nd ref="5810212903"/>
    <nd ref="5810212902"/>
    <nd ref="11208487553"/>
    <nd ref="11208487554"/>
    <nd ref="5810212901"/>
    <nd ref="5810212900"/>
    <nd ref="11208487556"/>
    <nd ref="11208487555"/>
    <nd ref="5810212896"/>
    <nd ref="5810212898"/>
    <nd ref="5810212899"/>
    <nd ref="5810212903"/>
    <tag k="addr:city" v="Little Shelford"/>
    <tag k="addr:housenumber" v="82"/>
    <tag k="addr:postcode" v="CB22 5ES"/>
    <tag k="addr:street" v="High Street"/>
    <tag k="building" v="house"/>
    <tag k="name" v="Westfield"/>
  </way>
  <way id="691347649" version="2" timestamp="2019-06-25T07:13:24Z" changeset="71587760" uid="8446889" user="nimmalab">
    <nd ref="1619056468"/>
    <nd ref="6569405380"/>
    <tag k="highway" v="residential"/>
  </way>
  <way id="921611601" version="3" timestamp="2023-10-09T16:41:43Z" changeset="142357646" uid="20240549" user="Sforzando9500">
    <nd ref="8556329461"/>
    <nd ref="8556329462"/>
    <nd ref="8556329463"/>
    <nd ref="8556329464"/>
    <nd ref="8556329461"/>
    <tag k="addr:city" v="Little Shelford"/>
    <tag k="addr:housenumber" v="10"/>
    <tag k="addr:postcode" v="CB22 5ES"/>
    <tag k="addr:street" v="High Street"/>
    <tag k="building" v="detached"/>
  </way>
  <way id="921611602" version="3" timestamp="2023-10-09T16:42:04Z" changeset="142357646" uid="20240549" user="Sforzando9500">
    <nd ref="8556329465"/>
    <nd ref="8556329466"/>
    <nd ref="11202213749"/>
    <nd ref="11202213748"/>
    <nd ref="8556329467"/>
    <nd ref="8556329468"/>
    <nd ref="8556329465"/>
    <tag k="addr:city" v="Little Shelford"/>
    <tag k="addr:housenumber" v="4a"/>
    <tag k="addr:postcode" v="CB22 5HG"/>
    <tag k="addr:street" v="Church Street"/>
    <tag k="building" v="detached"/>
  </way>
  <way id="921611605" version="3" timestamp="2023-10-09T16:42:49Z" changeset="142357646" uid="20240549" user="Sforzando9500">
    <nd ref="8556329477"/>
    <nd ref="8556329478"/>
    <nd ref="8556329479"/>
    <nd ref="8556329480"/>
    <nd ref="8556329477"/>
    <tag k="addr:city" v="Little Shelford"/>
    <tag k="addr:housenumber" v="25"/>
    <tag k="addr:postcode" v="CB22 5HG"/>
    <tag k="addr:street" v="Church Street"/>
    <tag k="building" v="detached"/>
  </way>
  <way id="921611606" version="3" timestamp="2023-10-09T16:42:50Z" changeset="142357646" uid="20240549" user="Sforzando9500">
    <nd ref="8556329481"/>
    <nd ref="8556329482"/>
    <nd ref="11202213742"/>
    <nd ref="11202213741"/>
    <nd ref="8556329483"/>
    <nd ref="8556329484"/>
    <nd ref="8556329481"/>
    <tag k="addr:city" v="Little Shelford"/>
    <tag k="addr:housenumber" v="25a"/>
    <tag k="addr:postcode" v="CB22 5HG"/>
    <tag k="addr:street" v="Church Street"/>
    <tag k="building" v="detached"/>
  </way>
  <way id="1207538620" version="1" timestamp="2023-09-13T17:59:30Z" changeset="141223353" uid="20240549" user="Sforzando9500">
    <nd ref="11188783962"/>
    <nd ref="11188783963"/>
    <nd ref="5810211212"/>
    <nd ref="5810211211"/>
    <nd ref="11188783962"/>
    <tag k="addr:city" v="Little Shelford"/>
    <tag k="addr:housenumber" v="4"/>
    <tag k="addr:postcode" v="CB22 5ER"/>
    <tag k="addr:street" v="Courtyards"/>
    <tag k="building" v="house"/>
  </way>
  <way id="1207605030" version="1" timestamp="2023-09-13T21:50:17Z" changeset="141231282" uid="20240549" user="Sforzando9500">
    <nd ref="11189150208"/>
    <nd ref="11189150209"/>
    <nd ref="11189150210"/>
    <nd ref="11189150211"/>
    <nd ref="11189150212"/>
    <nd ref="5810211179"/>
    <nd ref="11189150207"/>
    <nd ref="11189150208"/>
    <tag k="addr:city" v="Little Shelford"/>
    <tag k="addr:housenumber" v="16"/>
    <tag k="addr:postcode" v="CB22 5ER"/>
    <tag k="addr:street" v="Courtyards"/>
    <tag k="building" v="house"/>
  </way>
  <way id="1207606679" version="1" timestamp="2023-09-13T22:02:41Z" changeset="141231542" uid="20240549" user="Sforzando9500">
    <nd ref="11189251231"/>
    <nd ref="11189251232"/>
    <nd ref="5810211159"/>
    <nd ref="5810211160"/>
    <nd ref="11189251231"/>
    <tag k="addr:city" v="Little Shelford"/>
    <tag k="addr:housenumber" v="22"/>
    <tag k="addr:postcode" v="CB22 5ER"/>
    <tag k="addr:street" v="Courtyards"/>
    <tag k="building" v="house"/>
  </way>
  <way id="1207608986" version="4" timestamp="2023-09-20T07:00:55Z" changeset="141497528" uid="322785" user="BCNorwich">
    <nd ref="11189270545"/>
    <nd ref="11194785030"/>
    <nd ref="5810211132"/>
    <nd ref="5810211133"/>
    <nd ref="11200657207"/>
    <nd ref="11189270546"/>
    <nd ref="11189270545"/>
    <tag k="addr:city" v="Little Shelford"/>
    <tag k="addr:housenumber" v="29"/>
    <tag k="addr:postcode" v="CB22 5ER"/>
    <tag k="addr:street" v="Courtyards"/>
    <tag k="building" v="house"/>
  </way>
  <way id="1207608987" version="3" timestamp="2023-09-15T21:36:28Z" changeset="141320988" uid="20240549" user="Sforzando9500">
    <nd ref="11189270547"/>
    <nd ref="5810211118"/>
    <nd ref="5810211117"/>
    <nd ref="11189270548"/>
    <nd ref="11189270547"/>
    <tag k="addr:city" v="Little Shelford"/>
    <tag k="addr:housenumber" v="33"/>
    <tag k="addr:postcode" v="CB22 5ER"/>
    <tag k="addr:street" v="Courtyards"/>
    <tag k="building" v="house"/>
  </way>
  <way id="1207608993" version="1" timestamp="2023-09-13T22:16:36Z" changeset="141231808" uid="20240549" user="Sforzando9500">
    <nd ref="11189270573"/>
    <nd ref="5810211103"/>
    <nd ref="5810211104"/>
    <nd ref="11189270574"/>
    <nd ref="11189270573"/>
    <tag k="addr:city" v="Little Shelford"/>
    <tag k="addr:housenumber" v="36"/>
    <tag k="addr:postcode" v="CB22 5ER"/>
    <tag k="addr:street" v="Courtyards"/>
    <tag k="building" v="house"/>
  </way>
  <way id="1207612285" version="1" timestamp="2023-09-13T22:48:56Z" changeset="141232400" uid="20240549" user="Sforzando9500">
    <nd ref="11189258271"/>
    <nd ref="5810211617"/>
    <nd ref="5810211616"/>
    <nd ref="11189258272"/>
    <nd ref="11189258273"/>
    <nd ref="11189258274"/>
    <nd ref="11189258271"/>
    <tag k="addr:city" v="Little Shelford"/>
    <tag k="addr:housenumber" v="46"/>
    <tag k="addr:postcode" v="CB22 5EW"/>
    <tag k="addr:street" v="Whittlesford Road"/>
    <tag k="building" v="commercial"/>
    <tag k="name" v="Diverse Technologies"/>
  </way>
  <way id="1207612287" version="1" timestamp="2023-09-13T22:48:56Z" changeset="141232400" uid="20240549" user="Sforzando9500">
    <nd ref="11189258289"/>
    <nd ref="11189258290"/>
    <nd ref="5810211643"/>
    <nd ref="5810211644"/>
    <nd ref="11189258289"/>
    <tag k="addr:city" v="Little Shelford"/>
    <tag k="addr:housenumber" v="42"/>
    <tag k="addr:postcode" v="CB22 5EW"/>
    <tag k="addr:street" v="Whittlesford Road"/>
    <tag k="building" v="house"/>
  </way>
  <way id="1207612288" version="1" timestamp="2023-09-13T22:48:56Z" changeset="141232400" uid="20240549" user="Sforzando9500">
    <nd ref="11189258291"/>
    <nd ref="11189258292"/>
    <nd ref="5810211647"/>
    <nd ref="5810211648"/>
    <nd ref="11189258291"/>
    <tag k="addr:city" v="Little Shelford"/>
    <tag k="addr:housenumber" v="38"/>
    <tag k="addr:postcode" v="CB22 5EW"/>
    <tag k="addr:street" v="Whittlesford Road"/>
    <tag k="building" v="house"/>
  </way>
  <way id="1207612289" version="1" timestamp="2023-09-13T22:48:56Z" changeset="141232400" uid="20240549" user="Sforzando9500">
    <nd ref="11189258295"/>
    <nd ref="5810211666"/>
    <nd ref="5810211665"/>
    <nd ref="11189258296"/>
    <nd ref="11189258295"/>
    <tag k="addr:city" v="Little Shelford"/>
    <tag k="addr:housenumber" v="32"/>
    <tag k="addr:postcode" v="CB22 5EW"/>
    <tag k="addr:street" v="Whittlesford Road"/>
    <tag k="building" v="house"/>
  </way>
  <way id="1208874486" version="1" timestamp="2023-09-18T18:43:55Z" changeset="141437745" uid="20240549" user="Sforzando9500">
    <nd ref="5810211655"/>
    <nd ref="11200657229"/>
    <nd ref="11200657230"/>
    <nd ref="5810211658"/>
    <nd ref="5810211655"/>
    <tag k="addr:city" v="Little Shelford"/>
    <tag k="addr:housenumber" v="2"/>
    <tag k="addr:postcode" v="CB22 5EP"/>
    <tag k="addr:street" v="Beech Close"/>
    <tag k="building" v="house"/>
  </way>
  <way id="1208874487" version="1" timestamp="2023-09-18T18:43:55Z" changeset="141437745" uid="20240549" user="Sforzando9500">
    <nd ref="5810211653"/>
    <nd ref="11200657231"/>
    <nd ref="11200657232"/>
    <nd ref="5810211652"/>
    <nd ref="5810211653"/>
    <tag k="addr:city" v="Little Shelford"/>
    <tag k="addr:housenumber" v="4"/>
    <tag k="addr:postcode" v="CB22 5EP"/>
    <tag k="addr:street" v="Beech Close"/>
    <tag k="building" v="house"/>
  </way>
  <way id="1208874488" version="1" timestamp="2023-09-18T18:43:55Z" changeset="141437745" uid="20240549" user="Sforzando9500">
    <nd ref="5810211639"/>
    <nd ref="11200657235"/>
    <nd ref="11200657236"/>
    <nd ref="5810211640"/>
    <nd ref="5810211639"/>
    <tag k="addr:city" v="Little Shelford"/>
    <tag k="addr:housenumber" v="6"/>
    <tag k="addr:postcode" v="CB22 5EP"/>
    <tag k="addr:street" v="Beech Close"/>
    <tag k="building" v="house"/>
  </way>
  <way id="1208874489" version="1" timestamp="2023-09-18T18:43:55Z" changeset="141437745" uid="20240549" user="Sforzando9500">
    <nd ref="5810211635"/>
    <nd ref="11200672637"/>
    <nd ref="11200672638"/>
    <nd ref="5810211636"/>
    <nd ref="5810211635"/>
    <tag k="addr:city" v="Little Shelford"/>
    <tag k="addr:housenumber" v="8"/>
    <tag k="addr:postcode" v="CB22 5EP"/>
    <tag k="addr:street" v="Beech Close"/>
    <tag k="building" v="house"/>
  </way>
  <way id="1208874490" version="1" timestamp="2023-09-18T18:43:55Z" changeset="141437745" uid="20240549" user="Sforzando9500">
    <nd ref="11200672637"/>
    <nd ref="11200672639"/>
    <nd ref="11200672640"/>
    <nd ref="11200672638"/>
    <nd ref="11200672637"/>
    <tag k="addr:city" v="Little Shelford"/>
    <tag k="addr:housenumber" v="9"/>
    <tag k="addr:postcode" v="CB22 5EP"/>
    <tag k="addr:street" v="Beech Close"/>
    <tag k="building" v="house"/>
  </way>
  <way id="1208874491" version="1" timestamp="2023-09-18T18:43:55Z" changeset="141437745" uid="20240549" user="Sforzando9500">
    <nd ref="11200672639"/>
    <nd ref="11200672641"/>
    <nd ref="11200672642"/>
    <nd ref="11200672640"/>
    <nd ref="11200672639"/>
    <tag k="addr:city" v="Little Shelford"/>
    <tag k="addr:housenumber" v="10"/>
    <tag k="addr:postcode" v="CB22 5EP"/>
    <tag k="addr:street" v="Beech Close"/>
    <tag k="building" v="house"/>
  </way>
  <way id="1208874493" version="1" timestamp="2023-09-18T18:43:55Z" changeset="141437745" uid="20240549" user="Sforzando9500">
    <nd ref="5810211571"/>
    <nd ref="11200672644"/>
    <nd ref="11200672645"/>
    <nd ref="5810211574"/>
    <nd ref="5810211571"/>
    <tag k="addr:city" v="Little Shelford"/>
    <tag k="addr:housenumber" v="16"/>
    <tag k="addr:postcode" v="CB22 5EP"/>
    <tag k="addr:street" v="Beech Close"/>
    <tag k="building" v="house"/>
  </way>
  <way id="1208874494" version="1" timestamp="2023-09-18T18:43:55Z" changeset="141437745" uid="20240549" user="Sforzando9500">
    <nd ref="5810211569"/>
    <nd ref="11200672646"/>
    <nd ref="11200672647"/>
    <nd ref="5810211568"/>
    <nd ref="5810211569"/>
    <tag k="addr:city" v="Little Shelford"/>
    <tag k="addr:housenumber" v="18"/>
    <tag k="addr:postcode" v="CB22 5EP"/>
    <tag k="addr:street" v="Beech Close"/>
    <tag k="building" v="house"/>
  </way>
  <way id="1208874495" version="1" timestamp="2023-09-18T18:43:55Z" changeset="141437745" uid="20240549" user="Sforzando9500">
    <nd ref="5810211564"/>
    <nd ref="11200672652"/>
    <nd ref="11200672653"/>
    <nd ref="11200672654"/>
    <nd ref="11200672655"/>
    <nd ref="5810211565"/>
    <nd ref="5810211564"/>
    <tag k="addr:city" v="Little Shelford"/>
    <tag k="addr:housenumber" v="20"/>
    <tag k="addr:postcode" v="CB22 5EP"/>
    <tag k="addr:street" v="Beech Close"/>
    <tag k="building" v="house"/>
  </way>
  <way id="1208874496" version="1" timestamp="2023-09-18T18:43:55Z" changeset="141437745" uid="20240549" user="Sforzando9500">
    <nd ref="5810211560"/>
    <nd ref="11200672656"/>
    <nd ref="11200672657"/>
    <nd ref="11200672658"/>
    <nd ref="5810211560"/>
    <tag k="addr:city" v="Little Shelford"/>
    <tag k="addr:housenumber" v="22"/>
    <tag k="addr:postcode" v="CB22 5EP"/>
    <tag k="addr:street" v="Beech Close"/>
    <tag k="building" v="house"/>
  </way>
  <way id="1208874497" version="1" timestamp="2023-09-18T18:43:55Z" changeset="141437745" uid="20240549" user="Sforzando9500">
    <nd ref="5810211555"/>
    <nd ref="11200672659"/>
    <nd ref="11200672660"/>
    <nd ref="5810211558"/>
    <nd ref="5810211555"/>
    <tag k="addr:city" v="Little Shelford"/>
    <tag k="addr:housenumber" v="23"/>
    <tag k="addr:postcode" v="CB22 5EP"/>
    <tag k="addr:street" v="Beech Close"/>
    <tag k="building" v="house"/>
  </way>
  <way id="1208874498" version="1" timestamp="2023-09-18T18:43:55Z" changeset="141437745" uid="20240549" user="Sforzando9500">
    <nd ref="11200672661"/>
    <nd ref="11200672662"/>
    <nd ref="5810211551"/>
    <nd ref="11200672663"/>
    <nd ref="11200672664"/>
    <nd ref="11200672665"/>
    <nd ref="11200672661"/>
    <tag k="addr:city" v="Little Shelford"/>
    <tag k="addr:housenumber" v="25"/>
    <tag k="addr:postcode" v="CB22 5EP"/>
    <tag k="addr:street" v="Beech Close"/>
    <tag k="building" v="house"/>
  </way>
  <way id="1208874499" version="1" timestamp="2023-09-18T18:43:55Z" changeset="141437745" uid="20240549" user="Sforzando9500">
    <nd ref="5810211549"/>
    <nd ref="11200672668"/>
    <nd ref="11200672669"/>
    <nd ref="5810211548"/>
    <nd ref="5810211549"/>
    <tag k="addr:city" v="Little Shelford"/>
    <tag k="addr:housenumber" v="28"/>
    <tag k="addr:postcode" v="CB22 5EP"/>
    <tag k="addr:street" v="Beech Close"/>
    <tag k="building" v="house"/>
  </way>
  <way id="1208874500" version="1" timestamp="2023-09-18T18:43:55Z" changeset="141437745" uid="20240549" user="Sforzando9500">
    <nd ref="5810211662"/>
    <nd ref="11200672671"/>
    <nd ref="11200672672"/>
    <nd ref="11200672673"/>
    <nd ref="11200672674"/>
    <nd ref="11200672675"/>
    <nd ref="5810211662"/>
    <tag k="addr:city" v="Little Shelford"/>
    <tag k="addr:housenumber" v="30"/>
    <tag k="addr:postcode" v="CB22 5EP"/>
    <tag k="addr:street" v="Beech Close"/>
    <tag k="building" v="house"/>
  </way>
  <way id="1208883491" version="1" timestamp="2023-09-18T19:28:28Z" changeset="141439178" uid="20240549" user="Sforzando9500">
    <nd ref="5810211726"/>
    <nd ref="11200746275"/>
    <nd ref="11200746276"/>
    <nd ref="5810211723"/>
    <nd ref="5810211726"/>
    <tag k="addr:city" v="Little Shelford"/>
    <tag k="addr:housenumber" v="8A"/>
    <tag k="addr:postcode" v="CB22 5EW"/>
    <tag k="addr:street" v="Whittlesford Road"/>
    <tag k="building" v="house"/>
  </way>
  <way id="1208883499" version="1" timestamp="2023-09-18T19:28:28Z" changeset="141439178" uid="20240549" user="Sforzando9500">
    <nd ref="5810211669"/>
    <nd ref="11200746300"/>
    <nd ref="11200746301"/>
    <nd ref="5810211670"/>
    <nd ref="5810211669"/>
    <tag k="addr:city" v="Little Shelford"/>
    <tag k="addr:housenumber" v="28"/>
    <tag k="addr:postcode" v="CB22 5EW"/>
    <tag k="addr:street" v="Whittlesford Road"/>
    <tag k="building" v="house"/>
  </way>
  <way id="1208883500" version="1" timestamp="2023-09-18T19:28:28Z" changeset="141439178" uid="20240549" user="Sforzando9500">
    <nd ref="5810211673"/>
    <nd ref="11200746302"/>
    <nd ref="11200746303"/>
    <nd ref="5810211674"/>
    <nd ref="5810211673"/>
    <tag k="addr:city" v="Little Shelford"/>
    <tag k="addr:housenumber" v="24"/>
    <tag k="addr:postcode" v="CB22 5EW"/>
    <tag k="addr:street" v="Whittlesford Road"/>
    <tag k="building" v="house"/>
  </way>
  <way id="1209048511" version="1" timestamp="2023-09-19T11:34:51Z" changeset="141464832" uid="20240549" user="Sforzando9500">
    <nd ref="5810211893"/>
    <nd ref="11202213745"/>
    <nd ref="11202213746"/>
    <nd ref="11202213747"/>
    <nd ref="5810211891"/>
    <nd ref="5810211898"/>
    <nd ref="5810211893"/>
    <tag k="addr:city" v="Little Shelford"/>
    <tag k="addr:housenumber" v="26a"/>
    <tag k="addr:postcode" v="CB22 5HG"/>
    <tag k="addr:street" v="Church Street"/>
    <tag k="building" v="house"/>
  </way>
  <way id="1209695670" version="1" timestamp="2023-09-21T09:39:14Z" changeset="141549988" uid="20240549" user="Sforzando9500">
    <nd ref="11207310479"/>
    <nd ref="11207310480"/>
    <nd ref="11207310481"/>
    <nd ref="11207310482"/>
    <nd ref="11207310479"/>
    <tag k="addr:city" v="Little Shelford"/>
    <tag k="addr:postcode" v="CB22 5EU"/>
    <tag k="addr:street" v="Whittlesford Road"/>
    <tag k="building" v="house"/>
    <tag k="name" v="Liss Cottage"/>
  </way>
  <way id="1209700635" version="2" timestamp="2023-09-21T18:11:55Z" changeset="141572290" uid="20240549" user="Sforzando9500">
    <nd ref="11207336774"/>
    <nd ref="11207336775"/>
    <nd ref="5810212490"/>
    <nd ref="5810212499"/>
    <nd ref="11207336774"/>
    <tag k="addr:city" v="Little Shelford"/>
    <tag k="addr:housenumber" v="1"/>
    <tag k="addr:postcode" v="CB22 5ES"/>
    <tag k="addr:street" v="High Street"/>
    <tag k="building" v="house"/>
    <tag k="name" v="Corner House"/>
  </way>
  <way id="1209827449" version="1" timestamp="2023-09-21T17:10:27Z" changeset="141569840" uid="20240549" user="Sforzando9500">
    <nd ref="5810212868"/>
    <nd ref="11208419143"/>
    <nd ref="11208419144"/>
    <nd ref="11208419145"/>
    <nd ref="5810212870"/>
    <nd ref="5810212868"/>
    <tag k="addr:city" v="Little Shelford"/>
    <tag k="addr:housenumber" v="93"/>
    <tag k="addr:postcode" v="CB22 5ES"/>
    <tag k="addr:street" v="High Street"/>
    <tag k="building" v="house"/>
  </way>
  <way id="1209836907" version="1" timestamp="2023-09-21T17:44:45Z" changeset="141571252" uid="20240549" user="Sforzando9500">
    <nd ref="11208449713"/>
    <nd ref="11208449714"/>
    <nd ref="11208449715"/>
    <nd ref="11208449716"/>
    <nd ref="11208449717"/>
    <nd ref="11208449718"/>
    <nd ref="11208449719"/>
    <nd ref="11208449720"/>
    <nd ref="11208449713"/>
    <tag k="addr:city" v="Little Shelford"/>
    <tag k="addr:housenumber" v="42a"/>
    <tag k="addr:postcode" v="CB22 5ES"/>
    <tag k="addr:street" v="High Street"/>
    <tag k="building" v="house"/>
  </way>
  <way id="1209846669" version="1" timestamp="2023-09-21T18:21:44Z" changeset="141572588" uid="20240549" user="Sforzando9500">
    <nd ref="11208537579"/>
    <nd ref="11208537581"/>
    <nd ref="11208537582"/>
    <nd ref="11208537580"/>
    <nd ref="11208537579"/>
    <tag k="addr:city" v="Little Shelford"/>
    <tag k="addr:housenumber" v="35"/>
    <tag k="addr:postcode" v="CB22 5ES"/>
    <tag k="addr:street" v="High Street"/>
    <tag k="building" v="house"/>
  </way>
  <way id="1209846670" version="1" timestamp="2023-09-21T18:21:44Z" changeset="141572588" uid="20240549" user="Sforzando9500">
    <nd ref="11208537581"/>
    <nd ref="11207336823"/>
    <nd ref="5810211442"/>
    <nd ref="11208537582"/>
    <nd ref="11208537581"/>
    <tag k="addr:city" v="Little Shelford"/>
    <tag k="addr:housenumber" v="37"/>
    <tag k="addr:postcode" v="CB22 5ES"/>
    <tag k="addr:street" v="High Street"/>
    <tag k="building" v="house"/>
    <tag k="name" v="Tulip Cottage"/>
  </way>
  <way id="1209846671" version="1" timestamp="2023-09-21T18:21:44Z" changeset="141572588" uid="20240549" user="Sforzando9500">
    <nd ref="11207336823"/>
    <nd ref="11207336826"/>
    <nd ref="11208537583"/>
    <nd ref="5810211442"/>
    <nd ref="11207336823"/>
    <tag k="addr:city" v="Little Shelford"/>
    <tag k="addr:housenumber" v="39"/>
    <tag k="addr:postcode" v="CB22 5ES"/>
    <tag k="addr:street" v="High Street"/>
    <tag k="building" v="house"/>
  </way>
  <way id="1209846672" version="1" timestamp="2023-09-21T18:21:44Z" changeset="141572588" uid="20240549" user="Sforzando9500">
    <nd ref="11207336826"/>
    <nd ref="11208537584"/>
    <nd ref="11208537585"/>
    <nd ref="11208537583"/>
    <nd ref="11207336826"/>
    <tag k="addr:city" v="Little Shelford"/>
    <tag k="addr:housenumber" v="43"/>
    <tag k="addr:postcode" v="CB22 5ES"/>
    <tag k="addr:street" v="High Street"/>
    <tag k="building" v="house"/>
    <tag k="name" v="Kings Cottage"/>
  </way>
  <way id="1209846673" version="1" timestamp="2023-09-21T18:21:44Z" changeset="141572588" uid="20240549" user="Sforzando9500">
    <nd ref="5810211439"/>
    <nd ref="11207336829"/>
    <nd ref="11208537586"/>
    <nd ref="11208537585"/>
    <nd ref="11208537584"/>
    <nd ref="5810211439"/>
    <tag k="addr:city" v="Little Shelford"/>
    <tag k="addr:housenumber" v="47"/>
    <tag k="addr:postcode" v="CB22 5ES"/>
    <tag k="addr:street" v="High Street"/>
    <tag k="building" v="house"/>
    <tag k="name" v="Marigold Cottage"/>
  </way>
  <way id="1209846674" version="1" timestamp="2023-09-21T18:21:44Z" changeset="141572588" uid="20240549" user="Sforzando9500">
    <nd ref="11207336829"/>
    <nd ref="11208537587"/>
    <nd ref="5810211444"/>
    <nd ref="11208537586"/>
    <nd ref="11207336829"/>
    <tag k="addr:city" v="Little Shelford"/>
    <tag k="addr:housenumber" v="49"/>
    <tag k="addr:postcode" v="CB22 5ES"/>
    <tag k="addr:street" v="High Street"/>
    <tag k="building" v="house"/>
  </way>
  <way id="1209846675" version="1" timestamp="2023-09-21T18:21:44Z" changeset="141572588" uid="20240549" user="Sforzando9500">
    <nd ref="11208537588"/>
    <nd ref="11208537589"/>
    <nd ref="11208537590"/>
    <nd ref="11208419194"/>
    <nd ref="11208537588"/>
    <tag k="addr:city" v="Little Shelford"/>
    <tag k="addr:housenumber" v="55"/>
    <tag k="addr:postcode" v="CB22 5ES"/>
    <tag k="addr:street" v="High Street"/>
    <tag k="building" v="house"/>
    <tag k="name" v="Alberta"/>
  </way>
  <way id="1209846676" version="1" timestamp="2023-09-21T18:21:44Z" changeset="141572588" uid="20240549" user="Sforzando9500">
    <nd ref="11208537589"/>
    <nd ref="11208537591"/>
    <nd ref="11207400003"/>
    <nd ref="11208537590"/>
    <nd ref="11208537589"/>
    <tag k="addr:city" v="Little Shelford"/>
    <tag k="addr:housenumber" v="57"/>
    <tag k="addr:postcode" v="CB22 5ES"/>
    <tag k="addr:street" v="High Street"/>
    <tag k="building" v="house"/>
    <tag k="name" v="Editha"/>
  </way>
  <way id="1209897854" version="1" timestamp="2023-09-21T22:40:58Z" changeset="141580193" uid="20240549" user="Sforzando9500">
    <nd ref="11209064742"/>
    <nd ref="11209064743"/>
    <nd ref="11209064744"/>
    <nd ref="11209064745"/>
    <nd ref="11209064742"/>
    <tag k="addr:city" v="Little Shelford"/>
    <tag k="addr:housenumber" v="11"/>
    <tag k="addr:postcode" v="CB22 5HH"/>
    <tag k="addr:street" v="Garden Fields"/>
    <tag k="building" v="house"/>
  </way>
  <way id="1210566879" version="1" timestamp="2023-09-24T15:41:13Z" changeset="141688339" uid="20240549" user="Sforzando9500">
    <nd ref="11215758896"/>
    <nd ref="11215758897"/>
    <nd ref="11215758898"/>
    <nd ref="11215758899"/>
    <nd ref="11215758900"/>
    <nd ref="11215758901"/>
    <nd ref="11215758896"/>
    <tag k="addr:city" v="Little Shelford"/>
    <tag k="addr:postcode" v="CB22 5HJ"/>
    <tag k="addr:street" v="Hauxton Road"/>
    <tag k="building" v="house"/>
    <tag k="name" v="Sycamore Lodge"/>
  </way>
  <way id="1210566880" version="1" timestamp="2023-09-24T15:41:13Z" changeset="141688339" uid="20240549" user="Sforzando9500">
    <nd ref="11215758909"/>
    <nd ref="11215758910"/>
    <nd ref="11215758911"/>
    <nd ref="11215758912"/>
    <nd ref="11215758913"/>
    <nd ref="11215758914"/>
    <nd ref="11215758909"/>
    <tag k="addr:city" v="Little Shelford"/>
    <tag k="addr:housenumber" v="21"/>
    <tag k="addr:postcode" v="CB22 5HJ"/>
    <tag k="addr:street" v="Hauxton Road"/>
    <tag k="building" v="house"/>
  </way>
  <way id="1210566881" version="1" timestamp="2023-09-24T15:41:13Z" changeset="141688339" uid="20240549" user="Sforzando9500">
    <nd ref="11215758915"/>
    <nd ref="11215758916"/>
    <nd ref="11215758917"/>
    <nd ref="11215758910"/>
    <nd ref="11215758909"/>
    <nd ref="11215758918"/>
    <nd ref="11215758915"/>
    <tag k="addr:city" v="Little Shelford"/>
    <tag k="addr:housenumber" v="23"/>
    <tag k="addr:postcode" v="CB22 5HJ"/>
    <tag k="addr:street" v="Hauxton Road"/>
    <tag k="building" v="house"/>
  </way>
  <way id="1210566882" version="1" timestamp="2023-09-24T15:41:13Z" changeset="141688339" uid="20240549" user="Sforzando9500">
    <nd ref="11215758919"/>
    <nd ref="11215758920"/>
    <nd ref="11215758921"/>
    <nd ref="11215758915"/>
    <nd ref="11215758918"/>
    <nd ref="11215758922"/>
    <nd ref="11215758919"/>
    <tag k="addr:city" v="Little Shelford"/>
    <tag k="addr:housenumber" v="25"/>
    <tag k="addr:postcode" v="CB22 5HJ"/>
    <tag k="addr:street" v="Hauxton Road"/>
    <tag k="building" v="house"/>
  </way>
  <way id="1210566883" version="1" timestamp="2023-09-24T15:41:13Z" changeset="141688339" uid="20240549" user="Sforzando9500">
    <nd ref="11215758923"/>
    <nd ref="11215758924"/>
    <nd ref="11215758925"/>
    <nd ref="11215758919"/>
    <nd ref="11215758922"/>
    <nd ref="11215758926"/>
    <nd ref="11215758923"/>
    <tag k="addr:city" v="Little Shelford"/>
    <tag k="addr:housenumber" v="27"/>
    <tag k="addr:postcode" v="CB22 5HJ"/>
    <tag k="addr:street" v="Hauxton Road"/>
    <tag k="building" v="house"/>
  </way>
  <way id="1210566884" version="1" timestamp="2023-09-24T15:41:13Z" changeset="141688339" uid="20240549" user="Sforzando9500">
    <nd ref="11215758926"/>
    <nd ref="11215758927"/>
    <nd ref="11215758928"/>
    <nd ref="11215758929"/>
    <nd ref="11215758930"/>
    <nd ref="11215758923"/>
    <nd ref="11215758926"/>
    <tag k="addr:city" v="Little Shelford"/>
    <tag k="addr:housenumber" v="27a"/>
    <tag k="addr:postcode" v="CB22 5HJ"/>
    <tag k="addr:street" v="Hauxton Road"/>
    <tag k="building" v="house"/>
  </way>
  <way id="1210572589" version="2" timestamp="2023-11-05T08:02:34Z" changeset="143639345" uid="20240549" user="Sforzando9500">
    <nd ref="11215830820"/>
    <nd ref="11215830821"/>
    <nd ref="11215830822"/>
    <nd ref="11215830823"/>
    <nd ref="11215830824"/>
    <nd ref="11215830825"/>
    <nd ref="11215830826"/>
    <nd ref="11215830827"/>
    <nd ref="11215830828"/>
    <nd ref="11215830820"/>
    <tag k="addr:city" v="Little Shelford"/>
    <tag k="addr:housenumber" v="1a"/>
    <tag k="addr:postcode" v="CB22 5UX"/>
    <tag k="addr:street" v="Moor Close"/>
    <tag k="building" v="detached"/>
  </way>
  <way id="1210574108" version="2" timestamp="2023-11-05T08:03:39Z" changeset="143639345" uid="20240549" user="Sforzando9500">
    <nd ref="11215848386"/>
    <nd ref="11215848387"/>
    <nd ref="11215848388"/>
    <nd ref="11215848389"/>
    <nd ref="11215848390"/>
    <nd ref="11215848391"/>
    <nd ref="11215848392"/>
    <nd ref="11215848393"/>
    <nd ref="11215848396"/>
    <nd ref="11215848386"/>
    <tag k="addr:city" v="Little Shelford"/>
    <tag k="addr:housenumber" v="7"/>
    <tag k="addr:postcode" v="CB22 5HJ"/>
    <tag k="addr:street" v="Hauxton Road"/>
    <tag k="building" v="semidetached_house"/>
  </way>
  <way id="1210574109" version="2" timestamp="2023-11-05T08:03:43Z" changeset="143639345" uid="20240549" user="Sforzando9500">
    <nd ref="11215848386"/>
    <nd ref="5810212476"/>
    <nd ref="5810212477"/>
    <nd ref="11215848394"/>
    <nd ref="11215848395"/>
    <nd ref="11215848396"/>
    <nd ref="11215848386"/>
    <tag k="addr:city" v="Little Shelford"/>
    <tag k="addr:housename" v="Wayside"/>
    <tag k="addr:housenumber" v="9"/>
    <tag k="addr:postcode" v="CB22 5HJ"/>
    <tag k="addr:street" v="Hauxton Road"/>
    <tag k="building" v="semidetached_house"/>
  </way>
  <way id="1210642907" version="2" timestamp="2023-11-03T23:49:05Z" changeset="143594590" uid="20240549" user="Sforzando9500">
    <nd ref="5810212348"/>
    <nd ref="11216813433"/>
    <nd ref="11216813434"/>
    <nd ref="5810212347"/>
    <nd ref="5810212348"/>
    <tag k="addr:city" v="Little Shelford"/>
    <tag k="addr:housenumber" v="2"/>
    <tag k="addr:postcode" v="CB22 5UX"/>
    <tag k="addr:street" v="Moor Close"/>
    <tag k="building" v="semidetached_house"/>
  </way>
  <way id="1210642909" version="1" timestamp="2023-09-24T22:03:24Z" changeset="141703281" uid="20240549" user="Sforzando9500">
    <nd ref="5810212342"/>
    <nd ref="11216880638"/>
    <nd ref="11216880639"/>
    <nd ref="5810212343"/>
    <nd ref="5810212342"/>
    <tag k="addr:city" v="Little Shelford"/>
    <tag k="addr:housenumber" v="4"/>
    <tag k="addr:postcode" v="CB22 5UX"/>
    <tag k="addr:street" v="Moor Close"/>
    <tag k="building" v="house"/>
  </way>
  <way id="1210642910" version="1" timestamp="2023-09-24T22:03:24Z" changeset="141703281" uid="20240549" user="Sforzando9500">
    <nd ref="5810212338"/>
    <nd ref="11216880641"/>
    <nd ref="11216880668"/>
    <nd ref="11216880642"/>
    <nd ref="5810212339"/>
    <nd ref="5810212338"/>
    <tag k="addr:city" v="Little Shelford"/>
    <tag k="addr:housenumber" v="6"/>
    <tag k="addr:postcode" v="CB22 5UX"/>
    <tag k="addr:street" v="Moor Close"/>
    <tag k="building" v="house"/>
  </way>
  <way id="1210642911" version="1" timestamp="2023-09-24T22:03:24Z" changeset="141703281" uid="20240549" user="Sforzando9500">
    <nd ref="5810212335"/>
    <nd ref="11216880643"/>
    <nd ref="11216880644"/>
    <nd ref="5810212336"/>
    <nd ref="5810212335"/>
    <tag k="addr:city" v="Little Shelford"/>
    <tag k="addr:housenumber" v="8"/>
    <tag k="addr:postcode" v="CB22 5UX"/>
    <tag k="addr:street" v="Moor Close"/>
    <tag k="building" v="house"/>
  </way>
  <way id="1210642930" version="1" timestamp="2023-09-24T22:03:24Z" changeset="141703281" uid="20240549" user="Sforzando9500">
    <nd ref="5810212472"/>
    <nd ref="11216880670"/>
    <nd ref="11216880671"/>
    <nd ref="11216880672"/>
    <nd ref="5810212473"/>
    <nd ref="5810212472"/>
    <tag k="addr:city" v="Little Shelford"/>
    <tag k="addr:housename" v="Claybats"/>
    <tag k="addr:housenumber" v="15"/>
    <tag k="addr:postcode" v="CB22 5HJ"/>
    <tag k="addr:street" v="Hauxton Road"/>
    <tag k="building" v="house"/>
  </way>
  <way id="1210642931" version="1" timestamp="2023-09-24T22:03:24Z" changeset="141703281" uid="20240549" user="Sforzando9500">
    <nd ref="5810212131"/>
    <nd ref="11216880673"/>
    <nd ref="11216880674"/>
    <nd ref="5810212132"/>
    <nd ref="5810212131"/>
    <tag k="addr:city" v="Little Shelford"/>
    <tag k="addr:housenumber" v="42a"/>
    <tag k="addr:postcode" v="CB22 5HJ"/>
    <tag k="addr:street" v="Hauxton Road"/>
    <tag k="building" v="house"/>
  </way>
  <way id="1210646459" version="2" timestamp="2023-09-24T22:36:14Z" changeset="141704367" uid="20240549" user="Sforzando9500">
    <nd ref="5810212437"/>
    <nd ref="11216903315"/>
    <nd ref="11216903316"/>
    <nd ref="11216903317"/>
    <nd ref="11216903318"/>
    <nd ref="5810212434"/>
    <nd ref="5810212437"/>
    <tag k="addr:city" v="Little Shelford"/>
    <tag k="addr:housename" v="Weston House"/>
    <tag k="addr:housenumber" v="2a"/>
    <tag k="addr:postcode" v="CB22 5HL"/>
    <tag k="addr:street" v="Newton Road"/>
    <tag k="building" v="house"/>
  </way>
  <way id="1211928576" version="4" timestamp="2024-11-03T21:56:26Z" changeset="158717006" uid="20240549" user="Sforzando9500">
    <nd ref="1619056457"/>
    <nd ref="11191691262"/>
    <tag k="abutters" v="residential"/>
    <tag k="cycleway:both" v="no"/>
    <tag k="highway" v="tertiary"/>
    <tag k="lanes" v="2"/>
    <tag k="lit" v="yes"/>
    <tag k="maxspeed" v="30 mph"/>
    <tag k="name" v="Bridge Lane"/>
    <tag k="sidewalk" v="left"/>
    <tag k="surface" v="asphalt"/>
  </way>
  <way id="1213681805" version="2" timestamp="2023-10-06T19:24:59Z" changeset="142245228" uid="20240549" user="Sforzando9500">
    <nd ref="11194900443"/>
    <nd ref="11194900444"/>
    <nd ref="25301357"/>
    <nd ref="25301198"/>
    <nd ref="25301199"/>
    <nd ref="8594336776"/>
    <nd ref="1619056307"/>
    <nd ref="25301200"/>
    <nd ref="25301354"/>
    <nd ref="1619056301"/>
    <nd ref="25301201"/>
    <nd ref="1619056298"/>
    <nd ref="1876629906"/>
    <nd ref="1619056295"/>
    <nd ref="1619056293"/>
    <nd ref="25301355"/>
    <nd ref="25301203"/>
    <nd ref="2561712437"/>
    <nd ref="25301204"/>
    <nd ref="11244406954"/>
    <tag k="highway" v="tertiary"/>
    <tag k="lanes" v="2"/>
    <tag k="maxspeed" v="40 mph"/>
    <tag k="maxspeed:type" v="sign"/>
    <tag k="name" v="Whittlesford Road"/>
    <tag k="surface" v="asphalt"/>
  </way>
  <way id="1213682099" version="3" timestamp="2024-08-28T18:30:17Z" changeset="155893942" uid="10554793" user="dstansby">
    <nd ref="11244322907"/>
    <nd ref="1619056300"/>
    <nd ref="5810212137"/>
    <nd ref="1619056294"/>
    <tag k="abutters" v="residential"/>
    <tag k="highway" v="tertiary"/>
    <tag k="maxspeed" v="40 mph"/>
    <tag k="maxspeed:type" v="sign"/>
    <tag k="name" v="High Street"/>
    <tag k="surface" v="asphalt"/>
  </way>
  <way id="1220640704" version="4" timestamp="2024-11-03T21:57:10Z" changeset="158718664" uid="20240549" user="Sforzando9500">
    <nd ref="1619056384"/>
    <nd ref="1619056374"/>
    <tag k="cycleway:both" v="no"/>
    <tag k="highway" v="residential"/>
    <tag k="maxspeed" v="30 mph"/>
    <tag k="maxspeed:type" v="sign"/>
    <tag k="name" v="Beech Close"/>
    <tag k="sidewalk" v="left"/>
    <tag k="surface" v="asphalt"/>
  </way>
  <way id="1220640705" version="2" timestamp="2023-11-03T23:40:13Z" changeset="143594995" uid="20240549" user="Sforzando9500">
    <nd ref="1619056336"/>
    <nd ref="11194927429"/>
    <nd ref="11194927430"/>
    <nd ref="1619056356"/>
    <nd ref="1619056374"/>
    <tag k="highway" v="residential"/>
    <tag k="maxspeed" v="30 mph"/>
    <tag k="maxspeed:type" v="sign"/>
    <tag k="name" v="Beech Close"/>
    <tag k="sidewalk" v="both"/>
  </way>
  <way id="1220640929" version="2" timestamp="2023-11-03T23:43:57Z" changeset="143594995" uid="20240549" user="Sforzando9500">
    <nd ref="2282095721"/>
    <nd ref="11194900443"/>
    <tag k="abutters" v="residential"/>
    <tag k="highway" v="tertiary"/>
    <tag k="lanes" v="2"/>
    <tag k="maxspeed" v="30 mph"/>
    <tag k="maxspeed:type" v="sign"/>
    <tag k="name" v="Whittlesford Road"/>
    <tag k="sidewalk" v="no"/>
    <tag k="surface" v="asphalt"/>
  </way>
  <way id="1327040764" version="1" timestamp="2024-10-21T16:00:02Z" changeset="158177078" uid="953779" user="Adam Edwards">
    <nd ref="11191691262"/>
    <nd ref="12276873939"/>
    <tag k="abutters" v="residential"/>
    <tag k="cycleway:both" v="no"/>
    <tag k="highway" v="tertiary"/>
    <tag k="maxspeed" v="30 mph"/>
    <tag k="name" v="Bridge Lane"/>
    <tag k="sidewalk" v="both"/>
    <tag k="surface" v="asphalt"/>
  </way>

</osm>
