<?xml version="1.0" encoding="UTF-8"?>
<osm version="0.6" generator="Overpass API 0.7.62.5 1bd436f1">
<note>The data included in this document is from www.openstreetmap.org. The data is made available under ODbL.</note>
<meta osm_base="2025-04-27T07:24:01Z" areas="2024-12-31T00:49:33Z"/>

  <node id="608754" lat="52.2141780" lon="0.2161535" version="15" timestamp="2014-05-09T09:21:47Z" changeset="22226314" uid="1723158" user="ozhiker2"/>
  <node id="609826" lat="52.2317050" lon="0.1738349" version="10" timestamp="2025-03-12T11:07:49Z" changeset="163522564" uid="5229644" user="Nathan_A_RF">
    <tag k="exit_to" v="Horningsea;Fen Ditton"/>
    <tag k="highway" v="motorway_junction"/>
    <tag k="name" v="Fen Ditton"/>
    <tag k="ref" v="34"/>
  </node>
  <node id="18352520" lat="52.2322908" lon="0.1717787" version="10" timestamp="2014-05-08T10:40:46Z" changeset="22206539" uid="1723158" user="ozhiker2"/>
  <node id="26117448" lat="52.2577683" lon="0.1986790" version="6" timestamp="2018-05-01T14:01:18Z" changeset="58585149" uid="8171742" user="Dan10ch"/>
  <node id="12466211743" lat="52.2259135" lon="0.1770219" version="1" timestamp="2024-12-31T22:44:15Z" changeset="160849775" uid="5229644" user="Nathan_A_RF"/>
  <way id="1881406" version="34" timestamp="2025-03-12T11:07:49Z" changeset="163522564" uid="5229644" user="Nathan_A_RF">
    <nd ref="608754"/>
    <nd ref="620848"/>
    <nd ref="320896594"/>
    <nd ref="1554829608"/>
    <nd ref="620850"/>
    <nd ref="12655866536"/>
    <nd ref="620852"/>
    <nd ref="2845556377"/>
    <nd ref="620853"/>
    <nd ref="1554829610"/>
    <nd ref="620854"/>
    <nd ref="1554829603"/>
    <nd ref="620855"/>
    <nd ref="24942304"/>
    <nd ref="2845556387"/>
    <nd ref="620857"/>
    <nd ref="2845556388"/>
    <nd ref="2845556390"/>
    <nd ref="620858"/>
    <nd ref="2845556391"/>
    <nd ref="24942307"/>
    <nd ref="1239233898"/>
    <nd ref="620860"/>
    <nd ref="620859"/>
    <nd ref="620861"/>
    <nd ref="620862"/>
    <nd ref="2843814048"/>
    <nd ref="620864"/>
    <nd ref="2843814050"/>
    <nd ref="620865"/>
    <nd ref="1239233911"/>
    <nd ref="320928318"/>
    <nd ref="620867"/>
    <nd ref="2843814074"/>
    <nd ref="1239233961"/>
    <nd ref="320928309"/>
    <nd ref="1239233943"/>
    <nd ref="620866"/>
    <nd ref="12655866542"/>
    <nd ref="12655866541"/>
    <nd ref="12655866540"/>
    <nd ref="12655866539"/>
    <nd ref="620870"/>
    <tag k="alt_description" v="Ipswich - Weedon Trunk Road"/>
    <tag k="bicycle" v="no"/>
    <tag k="description" v="Cambridge Northern Bypass"/>
    <tag k="expressway" v="yes"/>
    <tag k="foot" v="no"/>
    <tag k="highway" v="trunk"/>
    <tag k="int_ref" v="E 24"/>
    <tag k="lanes" v="2"/>
    <tag k="lit" v="no"/>
    <tag k="maxheight" v="default"/>
    <tag k="maxspeed" v="70 mph"/>
    <tag k="maxspeed:type" v="GB:nsl_dual"/>
    <tag k="national_highways:area" v="8"/>
    <tag k="oneway" v="yes"/>
    <tag k="operator" v="National Highways"/>
    <tag k="operator:wikidata" v="Q5760006"/>
    <tag k="ref" v="A14"/>
    <tag k="surface" v="asphalt"/>
  </way>
  <way id="3702220" version="19" timestamp="2025-03-12T11:07:49Z" changeset="163522564" uid="5229644" user="Nathan_A_RF">
    <nd ref="9602220625"/>
    <nd ref="1144816542"/>
    <nd ref="1239233958"/>
    <nd ref="6571834"/>
    <nd ref="1239233951"/>
    <nd ref="6571836"/>
    <nd ref="1239233904"/>
    <nd ref="1239233949"/>
    <nd ref="1239233926"/>
    <nd ref="620866"/>
    <tag k="bicycle" v="no"/>
    <tag k="expressway" v="yes"/>
    <tag k="foot" v="no"/>
    <tag k="highway" v="trunk_link"/>
    <tag k="lanes" v="1"/>
    <tag k="lit" v="no"/>
    <tag k="maxspeed" v="70 mph"/>
    <tag k="maxspeed:type" v="GB:nsl_dual"/>
    <tag k="national_highways:area" v="8"/>
    <tag k="oneway" v="yes"/>
    <tag k="operator" v="National Highways"/>
    <tag k="operator:wikidata" v="Q5760006"/>
    <tag k="ref" v="A14"/>
  </way>
  <way id="3702262" version="21" timestamp="2025-03-12T11:07:49Z" changeset="163522564" uid="5229644" user="Nathan_A_RF">
    <nd ref="609826"/>
    <nd ref="12655866537"/>
    <nd ref="2843814093"/>
    <nd ref="7057299"/>
    <nd ref="2843814083"/>
    <nd ref="320928348"/>
    <nd ref="9010216233"/>
    <tag k="bicycle" v="no"/>
    <tag k="expressway" v="yes"/>
    <tag k="foot" v="no"/>
    <tag k="highway" v="trunk_link"/>
    <tag k="horse" v="no"/>
    <tag k="lit" v="no"/>
    <tag k="maxspeed" v="70 mph"/>
    <tag k="maxspeed:type" v="GB:nsl_dual"/>
    <tag k="national_highways:area" v="8"/>
    <tag k="oneway" v="yes"/>
    <tag k="operator" v="National Highways"/>
    <tag k="operator:wikidata" v="Q5760006"/>
    <tag k="ref" v="A14"/>
  </way>
  <way id="3702274" version="22" timestamp="2023-11-08T14:15:37Z" changeset="143782837" uid="7487756" user="Robert Balm">
    <nd ref="26117443"/>
    <nd ref="8420852216"/>
    <nd ref="21318333"/>
    <nd ref="26117450"/>
    <nd ref="3191532025"/>
    <nd ref="15703511"/>
    <nd ref="6564373368"/>
    <nd ref="6343021498"/>
    <nd ref="21318335"/>
    <nd ref="2447211549"/>
    <nd ref="21318332"/>
    <nd ref="1325760347"/>
    <nd ref="1325760350"/>
    <nd ref="1325760668"/>
    <nd ref="805643976"/>
    <nd ref="21318331"/>
    <nd ref="2282324880"/>
    <tag k="abutters" v="residential"/>
    <tag k="highway" v="tertiary"/>
    <tag k="maxspeed" v="30 mph"/>
    <tag k="maxweight:hgv" v="7.5"/>
    <tag k="maxweight:hgv:conditional" v="none @ destination"/>
    <tag k="name" v="High Street"/>
    <tag k="source:ref" v="survey"/>
  </way>
  <way id="4013914" version="7" timestamp="2022-03-24T04:06:14Z" changeset="118845246" uid="13341565" user="Falsernet">
    <nd ref="9602220626"/>
    <nd ref="7057304"/>
    <tag k="bridge" v="yes"/>
    <tag k="highway" v="secondary"/>
    <tag k="lanes" v="2"/>
    <tag k="layer" v="1"/>
    <tag k="maxspeed" v="60 mph"/>
    <tag k="maxspeed:type" v="GB:nsl_single"/>
    <tag k="ref" v="B1047"/>
  </way>
  <way id="4211521" version="35" timestamp="2025-03-12T11:07:49Z" changeset="163522564" uid="5229644" user="Nathan_A_RF">
    <nd ref="18352520"/>
    <nd ref="12655866538"/>
    <nd ref="609826"/>
    <nd ref="1239233932"/>
    <nd ref="1239233929"/>
    <nd ref="609827"/>
    <nd ref="2843814082"/>
    <nd ref="320928336"/>
    <nd ref="2843814076"/>
    <nd ref="609831"/>
    <nd ref="2843814069"/>
    <nd ref="1239233923"/>
    <nd ref="609833"/>
    <nd ref="2843814053"/>
    <nd ref="18352482"/>
    <nd ref="609834"/>
    <nd ref="2843814047"/>
    <nd ref="18352180"/>
    <nd ref="18352125"/>
    <nd ref="609835"/>
    <nd ref="1239233941"/>
    <nd ref="609836"/>
    <nd ref="1239233931"/>
    <nd ref="609837"/>
    <nd ref="1239233939"/>
    <nd ref="2845556389"/>
    <nd ref="608793"/>
    <nd ref="1554829606"/>
    <nd ref="608794"/>
    <nd ref="1554829604"/>
    <nd ref="608795"/>
    <nd ref="1554829589"/>
    <nd ref="608796"/>
    <nd ref="1554829607"/>
    <nd ref="608765"/>
    <nd ref="2845556378"/>
    <nd ref="608764"/>
    <nd ref="12655866535"/>
    <nd ref="608761"/>
    <nd ref="1554829591"/>
    <nd ref="320896619"/>
    <nd ref="608762"/>
    <nd ref="608758"/>
    <tag k="alt_description" v="Ipswich - Weedon Trunk Road"/>
    <tag k="bicycle" v="no"/>
    <tag k="description" v="Cambridge Northern Bypass"/>
    <tag k="expressway" v="yes"/>
    <tag k="foot" v="no"/>
    <tag k="highway" v="trunk"/>
    <tag k="int_ref" v="E 24"/>
    <tag k="lanes" v="2"/>
    <tag k="lit" v="no"/>
    <tag k="maxheight" v="default"/>
    <tag k="maxspeed" v="70 mph"/>
    <tag k="maxspeed:type" v="GB:nsl_dual"/>
    <tag k="national_highways:area" v="8"/>
    <tag k="oneway" v="yes"/>
    <tag k="operator" v="National Highways"/>
    <tag k="operator:wikidata" v="Q5760006"/>
    <tag k="ref" v="A14"/>
    <tag k="surface" v="asphalt"/>
  </way>
  <way id="4311183" version="3" timestamp="2014-03-23T21:12:59Z" changeset="21273439" uid="481116" user="bigalxyz123">
    <nd ref="21318333"/>
    <nd ref="2447211558"/>
    <nd ref="26117433"/>
    <nd ref="26117490"/>
    <nd ref="26117476"/>
    <nd ref="2738036558"/>
    <tag k="highway" v="residential"/>
    <tag k="name" v="Priory Road"/>
    <tag k="source:name" v="local knowledge"/>
  </way>
  <way id="4311185" version="3" timestamp="2021-01-02T23:49:11Z" changeset="96830513" uid="5173844" user="ndrw6">
    <nd ref="26117431"/>
    <nd ref="2447211544"/>
    <nd ref="26117473"/>
    <nd ref="26117453"/>
    <tag k="highway" v="residential"/>
    <tag k="name" v="Abbots Way"/>
    <tag k="source:name" v="local knowledge"/>
  </way>
  <way id="4311187" version="10" timestamp="2023-11-08T14:15:37Z" changeset="143782837" uid="7487756" user="Robert Balm">
    <nd ref="21318329"/>
    <nd ref="1356656804"/>
    <nd ref="805643937"/>
    <nd ref="1356657164"/>
    <nd ref="286018980"/>
    <tag k="abutters" v="residential"/>
    <tag k="highway" v="tertiary"/>
    <tag k="maxspeed" v="50 mph"/>
  </way>
  <way id="4311188" version="14" timestamp="2022-08-11T16:26:11Z" changeset="124783680" uid="1102246" user="jtn20">
    <nd ref="26117472"/>
    <nd ref="15703517"/>
    <nd ref="805643893"/>
    <nd ref="1786091489"/>
    <nd ref="805643894"/>
    <nd ref="15703520"/>
    <nd ref="805643897"/>
    <nd ref="26117489"/>
    <nd ref="1241136090"/>
    <nd ref="1241136064"/>
    <nd ref="2870522784"/>
    <nd ref="6895875572"/>
    <nd ref="2870522781"/>
    <nd ref="805643901"/>
    <nd ref="21318330"/>
    <nd ref="805643907"/>
    <nd ref="15703521"/>
    <nd ref="805643912"/>
    <nd ref="15703522"/>
    <nd ref="6569415050"/>
    <nd ref="15703523"/>
    <nd ref="15703524"/>
    <nd ref="9947791518"/>
    <nd ref="21318329"/>
    <tag k="highway" v="tertiary"/>
    <tag k="maxspeed" v="50 mph"/>
    <tag k="source" v="survey"/>
  </way>
  <way id="4311189" version="21" timestamp="2024-12-31T22:44:15Z" changeset="160849775" uid="5229644" user="Nathan_A_RF">
    <nd ref="9602220627"/>
    <nd ref="9602220628"/>
    <nd ref="2447211531"/>
    <nd ref="2447211522"/>
    <nd ref="805644081"/>
    <nd ref="15703508"/>
    <nd ref="2447211525"/>
    <nd ref="2447211538"/>
    <nd ref="805644087"/>
    <nd ref="2447211511"/>
    <nd ref="15703509"/>
    <nd ref="2447211542"/>
    <nd ref="2447211519"/>
    <nd ref="15703513"/>
    <tag k="highway" v="tertiary"/>
    <tag k="maxspeed" v="60 mph"/>
    <tag k="maxspeed:type" v="GB:nsl_single"/>
    <tag k="maxweight:hgv" v="7.5"/>
    <tag k="maxweight:hgv:conditional" v="none @ destination"/>
    <tag k="name" v="Horningsea Road"/>
    <tag k="source:ref" v="survey"/>
  </way>
  <way id="4311193" version="3" timestamp="2021-05-03T10:06:19Z" changeset="104044454" uid="281267" user="smb1001">
    <nd ref="21318331"/>
    <nd ref="26117440"/>
    <nd ref="1325760591"/>
    <nd ref="1325760406"/>
    <nd ref="26117500"/>
    <nd ref="8693144410"/>
    <nd ref="8693144404"/>
    <tag k="highway" v="residential"/>
    <tag k="name" v="St John's Lane"/>
    <tag k="source:name" v="local knowledge"/>
  </way>
  <way id="4311195" version="2" timestamp="2011-06-14T21:34:09Z" changeset="8442390" uid="383983" user="Ben Wheatley">
    <nd ref="26117500"/>
    <nd ref="26117482"/>
    <nd ref="1325760289"/>
    <nd ref="26117439"/>
    <tag k="highway" v="residential"/>
    <tag k="name" v="Church End"/>
    <tag k="source:name" v="local knowledge"/>
  </way>
  <way id="4311197" version="4" timestamp="2021-01-02T23:49:11Z" changeset="96830513" uid="5173844" user="ndrw6">
    <nd ref="15703573"/>
    <nd ref="8285229096"/>
    <nd ref="2447211562"/>
    <nd ref="26117498"/>
    <nd ref="2447211526"/>
    <nd ref="1325760438"/>
    <nd ref="2447211510"/>
    <nd ref="26117477"/>
    <nd ref="1325760248"/>
    <nd ref="1325760400"/>
    <nd ref="1325760572"/>
    <nd ref="26117457"/>
    <tag k="highway" v="residential"/>
    <tag k="name" v="Dock Lane"/>
    <tag k="source:name" v="local knowledge"/>
  </way>
  <way id="4311201" version="13" timestamp="2024-12-31T22:44:15Z" changeset="160849775" uid="5229644" user="Nathan_A_RF">
    <nd ref="12466211743"/>
    <nd ref="2447211518"/>
    <nd ref="805644072"/>
    <nd ref="6571828"/>
    <nd ref="2447211527"/>
    <nd ref="1290041010"/>
    <nd ref="467864471"/>
    <nd ref="6571831"/>
    <nd ref="9602220625"/>
    <tag k="highway" v="secondary"/>
    <tag k="lanes" v="2"/>
    <tag k="maxspeed" v="60 mph"/>
    <tag k="maxspeed:type" v="GB:nsl_single"/>
    <tag k="maxweight" v="18"/>
    <tag k="maxweight:conditional" v="none @ destination"/>
    <tag k="ref" v="B1047"/>
    <tag k="surface" v="asphalt"/>
  </way>
  <way id="4311204" version="15" timestamp="2023-09-24T19:38:25Z" changeset="141697064" uid="560534" user="twomagi">
    <nd ref="15703573"/>
    <nd ref="805643985"/>
    <nd ref="15703514"/>
    <nd ref="2314168475"/>
    <nd ref="15703515"/>
    <nd ref="2314168471"/>
    <nd ref="805644011"/>
    <nd ref="2282324873"/>
    <tag k="abutters" v="residential"/>
    <tag k="highway" v="tertiary"/>
    <tag k="maxspeed" v="30 mph"/>
    <tag k="maxweight:hgv" v="7.5"/>
    <tag k="maxweight:hgv:conditional" v="none @ destination"/>
    <tag k="name" v="Clayhithe Road"/>
  </way>
  <way id="4311205" version="2" timestamp="2013-09-05T15:04:32Z" changeset="17689110" uid="481116" user="bigalxyz123">
    <nd ref="26117476"/>
    <nd ref="2447211536"/>
    <nd ref="2447211534"/>
    <nd ref="26117431"/>
    <nd ref="2447211528"/>
    <nd ref="2447211569"/>
    <nd ref="26117496"/>
    <tag k="highway" v="residential"/>
    <tag k="name" v="Abbots Way"/>
    <tag k="source:name" v="local knowledge"/>
  </way>
  <way id="40876277" version="5" timestamp="2022-03-24T04:06:14Z" changeset="118845246" uid="13341565" user="Falsernet">
    <nd ref="7057304"/>
    <nd ref="9602220629"/>
    <nd ref="9602220627"/>
    <tag k="highway" v="secondary"/>
    <tag k="lanes" v="2"/>
    <tag k="maxspeed" v="60 mph"/>
    <tag k="maxspeed:type" v="GB:nsl_single"/>
    <tag k="ref" v="B1047"/>
  </way>
  <way id="66612818" version="5" timestamp="2022-05-31T13:02:03Z" changeset="121767767" uid="1287673" user="sloerunner">
    <nd ref="805644094"/>
    <nd ref="3792626344"/>
    <nd ref="15703512"/>
    <nd ref="21318334"/>
    <tag k="highway" v="tertiary"/>
    <tag k="maxspeed" v="30 mph"/>
    <tag k="maxweight:hgv" v="7.5"/>
    <tag k="maxweight:hgv:conditional" v="none @ destination"/>
    <tag k="source:ref" v="survey"/>
  </way>
  <way id="108139927" version="3" timestamp="2015-08-19T08:28:14Z" changeset="33432713" uid="3160320" user="MR12325">
    <nd ref="26117449"/>
    <nd ref="3704237719"/>
    <nd ref="1241136090"/>
    <tag k="highway" v="unclassified"/>
  </way>
  <way id="136392631" version="3" timestamp="2024-01-23T03:58:02Z" changeset="146577044" uid="493595" user="Yorvik Prestigitator">
    <nd ref="1496201524"/>
    <nd ref="1496201552"/>
    <nd ref="1496201508"/>
    <nd ref="1496201560"/>
    <nd ref="1496201487"/>
    <nd ref="1496201431"/>
    <nd ref="1496201362"/>
    <nd ref="1496201421"/>
    <nd ref="1496201524"/>
    <tag k="amenity" v="community_centre"/>
    <tag k="building" v="public"/>
    <tag k="community_centre" v="village_hall"/>
    <tag k="name" v="Horningsea Village Hall"/>
    <tag k="operator" v="Horningsea Village Hall Trust"/>
    <tag k="operator:type" v="charitable"/>
    <tag k="source" v="bing"/>
  </way>
  <way id="136392632" version="2" timestamp="2021-05-03T09:45:01Z" changeset="104044454" uid="281267" user="smb1001">
    <nd ref="1496201366"/>
    <nd ref="1496201435"/>
    <nd ref="1496201445"/>
    <nd ref="1496201540"/>
    <nd ref="1496201567"/>
    <nd ref="1496201393"/>
    <nd ref="1496201369"/>
    <nd ref="1496201615"/>
    <nd ref="1496201366"/>
    <tag k="addr:housename" v="Hideaway"/>
    <tag k="addr:housenumber" v="64"/>
    <tag k="addr:postcode" v="CB25 9JG"/>
    <tag k="addr:street" v="High Street"/>
    <tag k="building" v="residential"/>
    <tag k="source" v="bing"/>
  </way>
  <way id="136392639" version="3" timestamp="2021-05-03T09:45:01Z" changeset="104044454" uid="281267" user="smb1001">
    <nd ref="8285229221"/>
    <nd ref="1496201523"/>
    <nd ref="1496201546"/>
    <nd ref="1496201648"/>
    <nd ref="1496201626"/>
    <nd ref="8285229222"/>
    <nd ref="8285229221"/>
    <tag k="addr:housename" v="St John's Cottage"/>
    <tag k="addr:housenumber" v="80"/>
    <tag k="addr:postcode" v="CB25 9JG"/>
    <tag k="addr:street" v="High Street"/>
    <tag k="building" v="residential"/>
    <tag k="source" v="bing"/>
  </way>
  <way id="136392641" version="3" timestamp="2021-05-03T09:45:01Z" changeset="104044454" uid="281267" user="smb1001">
    <nd ref="1496201531"/>
    <nd ref="1496201460"/>
    <nd ref="1496201593"/>
    <nd ref="1496201361"/>
    <nd ref="1496201417"/>
    <nd ref="1496201395"/>
    <nd ref="1496201622"/>
    <nd ref="1496201497"/>
    <nd ref="1496201531"/>
    <tag k="addr:housename" v="The Vicarage"/>
    <tag k="addr:housenumber" v="82"/>
    <tag k="addr:postcode" v="CB25 9JG"/>
    <tag k="addr:street" v="High Street"/>
    <tag k="building" v="residential"/>
    <tag k="source" v="bing"/>
  </way>
  <way id="136392644" version="3" timestamp="2021-05-03T09:45:01Z" changeset="104044454" uid="281267" user="smb1001">
    <nd ref="1496201529"/>
    <nd ref="1496201468"/>
    <nd ref="1496201631"/>
    <nd ref="1496201590"/>
    <nd ref="8285229241"/>
    <nd ref="1496201529"/>
    <tag k="addr:housenumber" v="70"/>
    <tag k="addr:postcode" v="CB25 9JG"/>
    <tag k="addr:street" v="High Street"/>
    <tag k="building" v="residential"/>
    <tag k="source" v="bing"/>
  </way>
  <way id="136392657" version="2" timestamp="2021-05-03T09:45:01Z" changeset="104044454" uid="281267" user="smb1001">
    <nd ref="1496201601"/>
    <nd ref="1496201462"/>
    <nd ref="1496201579"/>
    <nd ref="1496201620"/>
    <nd ref="1496201601"/>
    <tag k="addr:housenumber" v="62"/>
    <tag k="addr:postcode" v="CB25 9JG"/>
    <tag k="addr:street" v="High Street"/>
    <tag k="building" v="residential"/>
    <tag k="source" v="bing"/>
  </way>
  <way id="136392661" version="3" timestamp="2021-05-03T09:45:01Z" changeset="104044454" uid="281267" user="smb1001">
    <nd ref="1496201519"/>
    <nd ref="8285229238"/>
    <nd ref="8285229237"/>
    <nd ref="1496201525"/>
    <nd ref="1496201519"/>
    <tag k="addr:housenumber" v="66"/>
    <tag k="addr:postcode" v="CB25 9JG"/>
    <tag k="addr:street" v="High Street"/>
    <tag k="building" v="residential"/>
    <tag k="source" v="bing"/>
  </way>
  <way id="136392667" version="3" timestamp="2021-05-03T09:45:01Z" changeset="104044454" uid="281267" user="smb1001">
    <nd ref="8285229239"/>
    <nd ref="1496201496"/>
    <nd ref="1496201536"/>
    <nd ref="1496201424"/>
    <nd ref="1496201512"/>
    <nd ref="8285229240"/>
    <nd ref="8285229239"/>
    <tag k="addr:housenumber" v="76"/>
    <tag k="addr:postcode" v="CB25 9JG"/>
    <tag k="addr:street" v="High Street"/>
    <tag k="building" v="residential"/>
    <tag k="source" v="bing"/>
  </way>
  <way id="136393803" version="3" timestamp="2022-12-06T10:13:48Z" changeset="129775997" uid="7487756" user="Robert Balm">
    <nd ref="1496211603"/>
    <nd ref="1496211876"/>
    <nd ref="1496211874"/>
    <nd ref="1496211813"/>
    <nd ref="1496211668"/>
    <nd ref="1496211941"/>
    <nd ref="1496211918"/>
    <nd ref="1496211789"/>
    <nd ref="1496211782"/>
    <nd ref="1496211779"/>
    <nd ref="1496211603"/>
    <tag k="addr:housename" v="The Sycamores"/>
    <tag k="addr:housenumber" v="7"/>
    <tag k="addr:postcode" v="CB25 9JJ"/>
    <tag k="addr:street" v="The Square"/>
    <tag k="building" v="house"/>
    <tag k="source" v="bing"/>
  </way>
  <way id="136393804" version="3" timestamp="2021-05-02T14:51:17Z" changeset="103998626" uid="281267" user="smb1001">
    <nd ref="1496211818"/>
    <nd ref="1496211593"/>
    <nd ref="1496211885"/>
    <nd ref="1496211819"/>
    <nd ref="1496211544"/>
    <nd ref="1496211488"/>
    <nd ref="1496211818"/>
    <tag k="addr:housenumber" v="4"/>
    <tag k="addr:postcode" v="CB25 9JN"/>
    <tag k="addr:street" v="Abbots Way"/>
    <tag k="building" v="yes"/>
    <tag k="source" v="bing"/>
  </way>
  <way id="136393809" version="3" timestamp="2021-05-03T10:23:58Z" changeset="104044454" uid="281267" user="smb1001">
    <nd ref="1496211477"/>
    <nd ref="1496211655"/>
    <nd ref="1496211676"/>
    <nd ref="1496211716"/>
    <nd ref="1496211477"/>
    <tag k="addr:housenumber" v="3"/>
    <tag k="addr:postcode" v="CB25 9JF"/>
    <tag k="addr:street" v="Dock Lane"/>
    <tag k="building" v="residential"/>
    <tag k="source" v="bing"/>
  </way>
  <way id="136393815" version="7" timestamp="2023-11-03T08:23:52Z" changeset="143562757" uid="504708" user="HillWithSmallFields">
    <nd ref="1496211847"/>
    <nd ref="1496211715"/>
    <nd ref="1496211550"/>
    <nd ref="1496211596"/>
    <nd ref="1496211892"/>
    <nd ref="1496211924"/>
    <nd ref="1496211937"/>
    <nd ref="1496211467"/>
    <nd ref="1496211501"/>
    <nd ref="1496211781"/>
    <nd ref="1496211569"/>
    <nd ref="1496211611"/>
    <nd ref="1496211614"/>
    <nd ref="1496211482"/>
    <nd ref="1496211463"/>
    <nd ref="1496212019"/>
    <nd ref="1496211847"/>
    <tag k="amenity" v="place_of_worship"/>
    <tag k="building" v="church"/>
    <tag k="denomination" v="anglican"/>
    <tag k="name" v="St Peter's (Horningsea Parish Church)"/>
    <tag k="ref:dove" v="12043"/>
    <tag k="religion" v="christian"/>
    <tag k="source" v="bing"/>
    <tag k="source:name" v="local knowledge"/>
    <tag k="wikidata" v="Q17528266"/>
  </way>
  <way id="136393818" version="3" timestamp="2022-12-06T10:13:48Z" changeset="129775997" uid="7487756" user="Robert Balm">
    <nd ref="1496211457"/>
    <nd ref="10242011147"/>
    <nd ref="10242011148"/>
    <nd ref="10242011149"/>
    <nd ref="10242011150"/>
    <nd ref="1496211862"/>
    <nd ref="10242011151"/>
    <nd ref="10242011152"/>
    <nd ref="10242011153"/>
    <nd ref="10242011154"/>
    <nd ref="1496211654"/>
    <nd ref="1496211636"/>
    <nd ref="1496211457"/>
    <tag k="addr:housenumber" v="20"/>
    <tag k="addr:postcode" v="CB25 9JN"/>
    <tag k="addr:street" v="Abbots Way"/>
    <tag k="building" v="house"/>
    <tag k="source" v="bing"/>
  </way>
  <way id="136393827" version="3" timestamp="2022-12-06T10:13:48Z" changeset="129775997" uid="7487756" user="Robert Balm">
    <nd ref="1496211859"/>
    <nd ref="1496211684"/>
    <nd ref="1496211835"/>
    <nd ref="1496211725"/>
    <nd ref="1496211738"/>
    <nd ref="1496211484"/>
    <nd ref="10242011155"/>
    <nd ref="10242011156"/>
    <nd ref="1496211476"/>
    <nd ref="1496211522"/>
    <nd ref="1496211483"/>
    <nd ref="1496211602"/>
    <nd ref="1496211859"/>
    <tag k="addr:housenumber" v="22"/>
    <tag k="addr:postcode" v="CB25 9JN"/>
    <tag k="addr:street" v="Abbots Way"/>
    <tag k="building" v="house"/>
    <tag k="source" v="bing"/>
  </way>
  <way id="136393833" version="2" timestamp="2021-05-02T14:51:17Z" changeset="103998626" uid="281267" user="smb1001">
    <nd ref="1496211634"/>
    <nd ref="1496211963"/>
    <nd ref="1496211769"/>
    <nd ref="1496211648"/>
    <nd ref="1496211634"/>
    <tag k="addr:housenumber" v="8"/>
    <tag k="addr:postcode" v="CB25 9JN"/>
    <tag k="addr:street" v="Abbots Way"/>
    <tag k="building" v="yes"/>
    <tag k="source" v="bing"/>
  </way>
  <way id="136393835" version="3" timestamp="2021-05-02T14:51:17Z" changeset="103998626" uid="281267" user="smb1001">
    <nd ref="8285229077"/>
    <nd ref="1496211606"/>
    <nd ref="1496211964"/>
    <nd ref="1496211792"/>
    <nd ref="1496211575"/>
    <nd ref="1496211796"/>
    <nd ref="1496211651"/>
    <nd ref="1496211748"/>
    <nd ref="1496211560"/>
    <nd ref="1496211865"/>
    <nd ref="1496211536"/>
    <nd ref="8285229076"/>
    <nd ref="8285229077"/>
    <tag k="addr:housenumber" v="12"/>
    <tag k="addr:postcode" v="CB25 9JN"/>
    <tag k="addr:street" v="Abbots Way"/>
    <tag k="building" v="yes"/>
    <tag k="source" v="bing"/>
  </way>
  <way id="136393839" version="2" timestamp="2021-05-03T10:23:58Z" changeset="104044454" uid="281267" user="smb1001">
    <nd ref="1496211455"/>
    <nd ref="1496211475"/>
    <nd ref="1496211478"/>
    <nd ref="1496211667"/>
    <nd ref="1496211455"/>
    <tag k="addr:housenumber" v="1"/>
    <tag k="addr:postcode" v="CB25 9JF"/>
    <tag k="addr:street" v="Dock Lane"/>
    <tag k="building" v="residential"/>
    <tag k="source" v="bing"/>
  </way>
  <way id="136393847" version="5" timestamp="2021-01-02T23:49:11Z" changeset="96830513" uid="5173844" user="ndrw6">
    <nd ref="8285229170"/>
    <nd ref="1496211623"/>
    <nd ref="1496211875"/>
    <nd ref="1496211833"/>
    <nd ref="1496211552"/>
    <nd ref="1496211959"/>
    <nd ref="1496211935"/>
    <nd ref="1496211678"/>
    <nd ref="1496211581"/>
    <nd ref="1496211630"/>
    <nd ref="1496211570"/>
    <nd ref="1496211803"/>
    <nd ref="1496211724"/>
    <nd ref="1496211836"/>
    <nd ref="1496211656"/>
    <nd ref="1496211459"/>
    <nd ref="8285229169"/>
    <nd ref="8285229170"/>
    <tag k="addr:postcode" v="CB25 9JG"/>
    <tag k="addr:street" v="High Street"/>
    <tag k="amenity" v="restaurant"/>
    <tag k="building" v="yes"/>
    <tag k="name" v="Crown &amp; Punchbowl"/>
    <tag k="source" v="bing"/>
    <tag k="wikidata" v="Q26420283"/>
  </way>
  <way id="136393850" version="3" timestamp="2021-05-02T14:51:17Z" changeset="103998626" uid="281267" user="smb1001">
    <nd ref="1496211790"/>
    <nd ref="1496211583"/>
    <nd ref="1496211562"/>
    <nd ref="1496211494"/>
    <nd ref="1496211620"/>
    <nd ref="1496212034"/>
    <nd ref="1496211760"/>
    <nd ref="1496212042"/>
    <nd ref="1496211601"/>
    <nd ref="1496211574"/>
    <nd ref="1496211958"/>
    <nd ref="1496211860"/>
    <nd ref="1496211790"/>
    <tag k="addr:housenumber" v="16"/>
    <tag k="addr:postcode" v="CB25 9JN"/>
    <tag k="addr:street" v="Abbots Way"/>
    <tag k="building" v="yes"/>
    <tag k="source" v="bing"/>
  </way>
  <way id="136393858" version="3" timestamp="2018-10-20T21:28:28Z" changeset="63715031" uid="5173844" user="ndrw6">
    <nd ref="1496211832"/>
    <nd ref="1496211764"/>
    <nd ref="1496211582"/>
    <nd ref="1496211728"/>
    <nd ref="1496211919"/>
    <nd ref="1496211837"/>
    <nd ref="1496211832"/>
    <tag k="addr:postcode" v="CB25 9JE"/>
    <tag k="building" v="yes"/>
    <tag k="name" v="Manor House"/>
    <tag k="source" v="bing"/>
  </way>
  <way id="136393867" version="2" timestamp="2021-05-03T10:06:19Z" changeset="104044454" uid="281267" user="smb1001">
    <nd ref="1496211946"/>
    <nd ref="1496211624"/>
    <nd ref="1496211517"/>
    <nd ref="1496211487"/>
    <nd ref="1496212038"/>
    <nd ref="1496212002"/>
    <nd ref="1496211745"/>
    <nd ref="1496212004"/>
    <nd ref="1496211662"/>
    <nd ref="1496211693"/>
    <nd ref="1496211946"/>
    <tag k="addr:housenumber" v="52"/>
    <tag k="addr:postcode" v="CB25 9JG"/>
    <tag k="addr:street" v="High Street"/>
    <tag k="building" v="residential"/>
    <tag k="source" v="bing"/>
  </way>
  <way id="136393869" version="3" timestamp="2021-05-03T10:06:19Z" changeset="104044454" uid="281267" user="smb1001">
    <nd ref="1496211605"/>
    <nd ref="1496211539"/>
    <nd ref="1496211787"/>
    <nd ref="1496211723"/>
    <nd ref="1496211755"/>
    <nd ref="1496211564"/>
    <nd ref="1496211599"/>
    <nd ref="1496211646"/>
    <nd ref="1496211701"/>
    <nd ref="1496211568"/>
    <nd ref="1496211588"/>
    <nd ref="1496211842"/>
    <nd ref="1496211605"/>
    <tag k="addr:housenumber" v="4"/>
    <tag k="addr:postcode" v="CB25 9JH"/>
    <tag k="addr:street" v="Church End"/>
    <tag k="building" v="yes"/>
    <tag k="landuse" v="residential"/>
    <tag k="source" v="local_knowledge"/>
  </way>
  <way id="136395004" version="2" timestamp="2021-05-02T14:51:17Z" changeset="103998626" uid="281267" user="smb1001">
    <nd ref="1496220886"/>
    <nd ref="1496220849"/>
    <nd ref="1496220759"/>
    <nd ref="1496220641"/>
    <nd ref="1496220701"/>
    <nd ref="1496220686"/>
    <nd ref="1496220886"/>
    <tag k="addr:housenumber" v="3"/>
    <tag k="addr:postcode" v="CB25 9JN"/>
    <tag k="addr:street" v="Abbots Way"/>
    <tag k="building" v="yes"/>
    <tag k="source" v="bing"/>
  </way>
  <way id="136395008" version="3" timestamp="2021-05-03T09:45:01Z" changeset="104044454" uid="281267" user="smb1001">
    <nd ref="8285229219"/>
    <nd ref="1496220611"/>
    <nd ref="1496220749"/>
    <nd ref="1496220605"/>
    <nd ref="1496220757"/>
    <nd ref="1496220792"/>
    <nd ref="1496220777"/>
    <nd ref="8285229220"/>
    <nd ref="8285229219"/>
    <tag k="addr:housenumber" v="51"/>
    <tag k="addr:postcode" v="CB25 9JG"/>
    <tag k="addr:street" v="High Street"/>
    <tag k="building" v="residential"/>
    <tag k="source" v="bing"/>
  </way>
  <way id="136395009" version="2" timestamp="2021-05-02T14:51:17Z" changeset="103998626" uid="281267" user="smb1001">
    <nd ref="1496220578"/>
    <nd ref="1496220557"/>
    <nd ref="1496220875"/>
    <nd ref="1496220682"/>
    <nd ref="1496220824"/>
    <nd ref="1496220819"/>
    <nd ref="1496220578"/>
    <tag k="addr:housenumber" v="15"/>
    <tag k="addr:postcode" v="CB25 9JN"/>
    <tag k="addr:street" v="Abbots Way"/>
    <tag k="building" v="yes"/>
    <tag k="source" v="bing"/>
  </way>
  <way id="136395013" version="3" timestamp="2021-05-02T14:51:17Z" changeset="103998626" uid="281267" user="smb1001">
    <nd ref="1496220720"/>
    <nd ref="1496220629"/>
    <nd ref="1496220858"/>
    <nd ref="1496220652"/>
    <nd ref="1496220793"/>
    <nd ref="8285229316"/>
    <nd ref="1496220720"/>
    <tag k="addr:housenumber" v="23"/>
    <tag k="addr:postcode" v="CB25 9JL"/>
    <tag k="addr:street" v="Priory Road"/>
    <tag k="building" v="yes"/>
    <tag k="source" v="bing"/>
  </way>
  <way id="136395017" version="4" timestamp="2021-05-02T14:51:17Z" changeset="103998626" uid="281267" user="smb1001">
    <nd ref="8285229324"/>
    <nd ref="1496220655"/>
    <nd ref="1496220576"/>
    <nd ref="1496220545"/>
    <nd ref="1496220558"/>
    <nd ref="1496220721"/>
    <nd ref="1496220674"/>
    <nd ref="8285229324"/>
    <tag k="addr:housenumber" v="13"/>
    <tag k="addr:postcode" v="CB25 9JL"/>
    <tag k="addr:street" v="Priory Road"/>
    <tag k="building" v="yes"/>
    <tag k="source" v="bing"/>
  </way>
  <way id="136395019" version="2" timestamp="2021-05-02T14:51:17Z" changeset="103998626" uid="281267" user="smb1001">
    <nd ref="1496220554"/>
    <nd ref="1496220826"/>
    <nd ref="1496220743"/>
    <nd ref="1496220829"/>
    <nd ref="1496220554"/>
    <tag k="addr:housenumber" v="25"/>
    <tag k="addr:postcode" v="CB25 9JN"/>
    <tag k="addr:street" v="Abbots Way"/>
    <tag k="building" v="yes"/>
    <tag k="source" v="bing"/>
  </way>
  <way id="136395021" version="2" timestamp="2021-05-02T14:51:17Z" changeset="103998626" uid="281267" user="smb1001">
    <nd ref="1496220737"/>
    <nd ref="1496220553"/>
    <nd ref="1496220860"/>
    <nd ref="1496220784"/>
    <nd ref="1496220737"/>
    <tag k="addr:housenumber" v="1"/>
    <tag k="addr:postcode" v="CB25 9JL"/>
    <tag k="addr:street" v="Priory Road"/>
    <tag k="building" v="yes"/>
    <tag k="source" v="bing"/>
  </way>
  <way id="136395022" version="3" timestamp="2021-05-02T14:51:17Z" changeset="103998626" uid="281267" user="smb1001">
    <nd ref="8285229328"/>
    <nd ref="1496220635"/>
    <nd ref="1496220646"/>
    <nd ref="1496220748"/>
    <nd ref="1496220574"/>
    <nd ref="8285229330"/>
    <nd ref="8285229329"/>
    <nd ref="8285229327"/>
    <nd ref="8285229328"/>
    <tag k="addr:housenumber" v="7"/>
    <tag k="addr:postcode" v="CB25 9JL"/>
    <tag k="addr:street" v="Priory Road"/>
    <tag k="building" v="yes"/>
    <tag k="source" v="bing"/>
  </way>
  <way id="136395023" version="2" timestamp="2021-05-02T14:51:17Z" changeset="103998626" uid="281267" user="smb1001">
    <nd ref="1496220637"/>
    <nd ref="1496220665"/>
    <nd ref="1496220758"/>
    <nd ref="1496220639"/>
    <nd ref="1496220871"/>
    <nd ref="1496220696"/>
    <nd ref="1496220637"/>
    <tag k="addr:housenumber" v="19"/>
    <tag k="addr:postcode" v="CB25 9JN"/>
    <tag k="addr:street" v="Abbots Way"/>
    <tag k="building" v="yes"/>
    <tag k="source" v="bing"/>
  </way>
  <way id="136395024" version="3" timestamp="2021-05-02T14:51:17Z" changeset="103998626" uid="281267" user="smb1001">
    <nd ref="1496220790"/>
    <nd ref="1496220716"/>
    <nd ref="1496220755"/>
    <nd ref="1496220866"/>
    <nd ref="1496220702"/>
    <nd ref="1496220684"/>
    <nd ref="1496220790"/>
    <tag k="addr:housenumber" v="21"/>
    <tag k="addr:postcode" v="CB25 9JN"/>
    <tag k="addr:street" v="Abbots Way"/>
    <tag k="building" v="yes"/>
    <tag k="source" v="bing"/>
  </way>
  <way id="136395028" version="2" timestamp="2021-05-02T14:51:17Z" changeset="103998626" uid="281267" user="smb1001">
    <nd ref="1496220848"/>
    <nd ref="1496220667"/>
    <nd ref="1496220603"/>
    <nd ref="1496220614"/>
    <nd ref="1496220607"/>
    <nd ref="1496220706"/>
    <nd ref="1496220848"/>
    <tag k="addr:housenumber" v="17"/>
    <tag k="addr:postcode" v="CB25 9JN"/>
    <tag k="addr:street" v="Abbots Way"/>
    <tag k="building" v="yes"/>
    <tag k="source" v="bing"/>
  </way>
  <way id="136395029" version="9" timestamp="2023-11-08T10:03:31Z" changeset="143772057" uid="7487756" user="Robert Balm">
    <nd ref="1496220842"/>
    <nd ref="10242078427"/>
    <nd ref="1496220540"/>
    <nd ref="1496220833"/>
    <nd ref="10242078431"/>
    <nd ref="10242078432"/>
    <nd ref="10242078433"/>
    <nd ref="10242078428"/>
    <nd ref="1496220740"/>
    <nd ref="10242078429"/>
    <nd ref="10242078430"/>
    <nd ref="1496220794"/>
    <nd ref="1496220707"/>
    <nd ref="1496220842"/>
    <tag k="addr:city" v="Horningsea"/>
    <tag k="addr:housename" v="The Plough and Fleece"/>
    <tag k="addr:postcode" v="CB25 9JG"/>
    <tag k="addr:street" v="High Street"/>
    <tag k="amenity" v="pub"/>
    <tag k="brewery" v="yes;various"/>
    <tag k="building" v="yes"/>
    <tag k="check_date" v="2023-11-08"/>
    <tag k="contact:facebook" v="https://www.facebook.com/search/top?q=plough%20and%20fleece%2C%20horningsea"/>
    <tag k="cuisine" v="british;pub"/>
    <tag k="diet:fish" v="yes"/>
    <tag k="diet:gluten_free" v="yes"/>
    <tag k="diet:meat" v="yes"/>
    <tag k="diet:omnivore" v="yes"/>
    <tag k="diet:vegetarian" v="yes"/>
    <tag k="internet_access" v="wlan"/>
    <tag k="name" v="Plough &amp; Fleece"/>
    <tag k="outdoor_seating" v="yes"/>
    <tag k="payment:apple_pay" v="yes"/>
    <tag k="payment:cards" v="yes"/>
    <tag k="payment:cash" v="yes"/>
    <tag k="payment:contactless" v="yes"/>
    <tag k="payment:debit_cards" v="yes"/>
    <tag k="payment:google_pay" v="yes"/>
    <tag k="payment:mastercard" v="yes"/>
    <tag k="payment:visa" v="yes"/>
    <tag k="real_fire" v="yes"/>
    <tag k="smoking" v="outside"/>
    <tag k="source" v="bing"/>
    <tag k="toilets" v="yes"/>
    <tag k="website" v="https://ploughandfleece.co.uk"/>
    <tag k="website:menu" v="https://ploughandfleece.co.uk/menu/"/>
  </way>
  <way id="136395030" version="3" timestamp="2022-12-06T10:13:48Z" changeset="129775997" uid="7487756" user="Robert Balm">
    <nd ref="1496220728"/>
    <nd ref="1496220690"/>
    <nd ref="1496220565"/>
    <nd ref="1496220840"/>
    <nd ref="1496220594"/>
    <nd ref="1496220791"/>
    <nd ref="1496220780"/>
    <nd ref="1496220811"/>
    <nd ref="1496220728"/>
    <tag k="addr:housenumber" v="29"/>
    <tag k="addr:postcode" v="CB25 9JN"/>
    <tag k="addr:street" v="Abbots Way"/>
    <tag k="building" v="house"/>
    <tag k="source" v="bing"/>
  </way>
  <way id="136395031" version="3" timestamp="2021-05-02T14:51:17Z" changeset="103998626" uid="281267" user="smb1001">
    <nd ref="1496220606"/>
    <nd ref="8285229335"/>
    <nd ref="8285229334"/>
    <nd ref="1496220596"/>
    <nd ref="1496220606"/>
    <tag k="addr:housenumber" v="4"/>
    <tag k="addr:postcode" v="CB25 9JL"/>
    <tag k="addr:street" v="Priory Road"/>
    <tag k="building" v="yes"/>
    <tag k="source" v="bing"/>
  </way>
  <way id="136395035" version="2" timestamp="2021-05-02T14:51:17Z" changeset="103998626" uid="281267" user="smb1001">
    <nd ref="1496220713"/>
    <nd ref="1496220541"/>
    <nd ref="1496220730"/>
    <nd ref="1496220658"/>
    <nd ref="1496220789"/>
    <nd ref="1496220699"/>
    <nd ref="1496220773"/>
    <nd ref="1496220692"/>
    <nd ref="1496220713"/>
    <tag k="addr:housenumber" v="10"/>
    <tag k="addr:postcode" v="CB25 9JL"/>
    <tag k="addr:street" v="Priory Road"/>
    <tag k="building" v="yes"/>
    <tag k="source" v="bing"/>
  </way>
  <way id="136395036" version="2" timestamp="2021-05-02T14:51:17Z" changeset="103998626" uid="281267" user="smb1001">
    <nd ref="1496220584"/>
    <nd ref="1496220727"/>
    <nd ref="1496220659"/>
    <nd ref="1496220834"/>
    <nd ref="1496220632"/>
    <nd ref="1496220598"/>
    <nd ref="1496220584"/>
    <tag k="addr:housenumber" v="23"/>
    <tag k="addr:postcode" v="CB25 9JN"/>
    <tag k="addr:street" v="Abbots Way"/>
    <tag k="building" v="yes"/>
    <tag k="source" v="bing"/>
  </way>
  <way id="136395039" version="3" timestamp="2021-05-02T14:51:17Z" changeset="103998626" uid="281267" user="smb1001">
    <nd ref="1496220644"/>
    <nd ref="1496220845"/>
    <nd ref="1496220817"/>
    <nd ref="1496220739"/>
    <nd ref="1496220573"/>
    <nd ref="1496220703"/>
    <nd ref="1496220838"/>
    <nd ref="1496220718"/>
    <nd ref="1496220621"/>
    <nd ref="1496220800"/>
    <nd ref="1496220776"/>
    <nd ref="1496220644"/>
    <tag k="addr:housenumber" v="13"/>
    <tag k="addr:postcode" v="CB25 9JN"/>
    <tag k="addr:street" v="Abbots Way"/>
    <tag k="building" v="yes"/>
    <tag k="source" v="bing"/>
  </way>
  <way id="136395040" version="3" timestamp="2021-05-02T14:51:17Z" changeset="103998626" uid="281267" user="smb1001">
    <nd ref="8285229323"/>
    <nd ref="1496220831"/>
    <nd ref="1496220818"/>
    <nd ref="1496220729"/>
    <nd ref="1496220881"/>
    <nd ref="8285229322"/>
    <nd ref="8285229323"/>
    <tag k="addr:housenumber" v="19"/>
    <tag k="addr:postcode" v="CB25 9JL"/>
    <tag k="addr:street" v="Priory Road"/>
    <tag k="building" v="yes"/>
    <tag k="source" v="bing"/>
  </way>
  <way id="136395041" version="2" timestamp="2021-05-02T14:51:17Z" changeset="103998626" uid="281267" user="smb1001">
    <nd ref="1496220801"/>
    <nd ref="1496220767"/>
    <nd ref="1496220751"/>
    <nd ref="1496220762"/>
    <nd ref="1496220623"/>
    <nd ref="1496220874"/>
    <nd ref="1496220801"/>
    <tag k="addr:housenumber" v="1"/>
    <tag k="addr:postcode" v="CB25 9JN"/>
    <tag k="addr:street" v="Abbots Way"/>
    <tag k="building" v="yes"/>
    <tag k="source" v="bing"/>
  </way>
  <way id="136395045" version="3" timestamp="2021-05-02T14:51:17Z" changeset="103998626" uid="281267" user="smb1001">
    <nd ref="1496220563"/>
    <nd ref="8285229333"/>
    <nd ref="8285229332"/>
    <nd ref="1496220654"/>
    <nd ref="1496220563"/>
    <tag k="addr:housenumber" v="8"/>
    <tag k="addr:postcode" v="CB25 9JL"/>
    <tag k="addr:street" v="Priory Road"/>
    <tag k="building" v="yes"/>
    <tag k="source" v="bing"/>
  </way>
  <way id="136395046" version="2" timestamp="2021-05-02T14:51:17Z" changeset="103998626" uid="281267" user="smb1001">
    <nd ref="1496220864"/>
    <nd ref="1496220650"/>
    <nd ref="1496220853"/>
    <nd ref="1496220852"/>
    <nd ref="1496220645"/>
    <nd ref="1496220616"/>
    <nd ref="1496220595"/>
    <nd ref="1496220864"/>
    <tag k="addr:housenumber" v="27"/>
    <tag k="addr:postcode" v="CB25 9JN"/>
    <tag k="addr:street" v="Abbots Way"/>
    <tag k="building" v="yes"/>
    <tag k="source" v="bing"/>
  </way>
  <way id="136395048" version="2" timestamp="2021-05-02T14:51:17Z" changeset="103998626" uid="281267" user="smb1001">
    <nd ref="1496220750"/>
    <nd ref="1496220760"/>
    <nd ref="1496220781"/>
    <nd ref="1496220870"/>
    <nd ref="1496220883"/>
    <nd ref="1496220622"/>
    <nd ref="1496220750"/>
    <tag k="addr:housenumber" v="5"/>
    <tag k="addr:postcode" v="CB25 9JN"/>
    <tag k="addr:street" v="Abbots Way"/>
    <tag k="building" v="yes"/>
    <tag k="source" v="bing"/>
  </way>
  <way id="136395050" version="2" timestamp="2021-05-02T14:51:17Z" changeset="103998626" uid="281267" user="smb1001">
    <nd ref="1496220597"/>
    <nd ref="1496220593"/>
    <nd ref="1496220828"/>
    <nd ref="1496220742"/>
    <nd ref="1496220597"/>
    <tag k="addr:housenumber" v="3a"/>
    <tag k="addr:postcode" v="CB25 9JL"/>
    <tag k="addr:street" v="Priory Road"/>
    <tag k="building" v="yes"/>
    <tag k="source" v="bing"/>
  </way>
  <way id="136395051" version="2" timestamp="2021-05-02T14:51:17Z" changeset="103998626" uid="281267" user="smb1001">
    <nd ref="1496220732"/>
    <nd ref="1496220835"/>
    <nd ref="1496220551"/>
    <nd ref="1496220822"/>
    <nd ref="1496220844"/>
    <nd ref="1496220832"/>
    <nd ref="1496220830"/>
    <nd ref="1496220778"/>
    <nd ref="1496220884"/>
    <nd ref="1496220638"/>
    <nd ref="1496220732"/>
    <tag k="addr:housenumber" v="7"/>
    <tag k="addr:postcode" v="CB25 9JN"/>
    <tag k="addr:street" v="Abbots Way"/>
    <tag k="building" v="yes"/>
    <tag k="source" v="bing"/>
  </way>
  <way id="136395052" version="3" timestamp="2021-05-02T14:51:17Z" changeset="103998626" uid="281267" user="smb1001">
    <nd ref="8285229319"/>
    <nd ref="1496220806"/>
    <nd ref="1496220569"/>
    <nd ref="1496220873"/>
    <nd ref="1496220836"/>
    <nd ref="8285229320"/>
    <nd ref="8285229319"/>
    <tag k="addr:housenumber" v="31"/>
    <tag k="addr:postcode" v="CB25 9JL"/>
    <tag k="addr:street" v="Priory Road"/>
    <tag k="building" v="yes"/>
    <tag k="source" v="bing"/>
  </way>
  <way id="136395054" version="3" timestamp="2021-05-02T14:51:17Z" changeset="103998626" uid="281267" user="smb1001">
    <nd ref="1496220803"/>
    <nd ref="8285229318"/>
    <nd ref="8285229317"/>
    <nd ref="1496220846"/>
    <nd ref="1496220803"/>
    <tag k="addr:housenumber" v="27"/>
    <tag k="addr:postcode" v="CB25 9JL"/>
    <tag k="addr:street" v="Priory Road"/>
    <tag k="building" v="yes"/>
    <tag k="source" v="bing"/>
  </way>
  <way id="280477769" version="3" timestamp="2022-04-24T12:17:51Z" changeset="120121979" uid="1102246" user="jtn20">
    <nd ref="26117448"/>
    <nd ref="26976475"/>
    <tag k="bridge" v="yes"/>
    <tag k="highway" v="tertiary"/>
    <tag k="inscription" v="Cambridgeshire County Council Clayhithe Bridge Erected 1939"/>
    <tag k="layer" v="1"/>
    <tag k="maxspeed" v="50 mph"/>
    <tag k="start_date" v="1939"/>
  </way>
  <way id="280477784" version="4" timestamp="2022-04-24T12:39:10Z" changeset="120122632" uid="1102246" user="jtn20">
    <nd ref="26976475"/>
    <nd ref="9689603496"/>
    <nd ref="21318427"/>
    <tag k="bridge" v="yes"/>
    <tag k="highway" v="tertiary"/>
    <tag k="layer" v="1"/>
    <tag k="maxspeed" v="50 mph"/>
  </way>
  <way id="295869146" version="3" timestamp="2024-12-31T22:44:15Z" changeset="160849775" uid="5229644" user="Nathan_A_RF">
    <nd ref="9602220625"/>
    <nd ref="25533996"/>
    <nd ref="9602220626"/>
    <tag k="highway" v="secondary"/>
    <tag k="maxspeed" v="60 mph"/>
    <tag k="maxspeed:type" v="GB:nsl_single"/>
    <tag k="ref" v="B1047"/>
  </way>
  <way id="699045903" version="2" timestamp="2021-05-03T09:45:01Z" changeset="104044454" uid="281267" user="smb1001">
    <nd ref="6564373368"/>
    <nd ref="6564373369"/>
    <tag k="highway" v="residential"/>
    <tag k="name" v="The Square"/>
  </way>
  <way id="891379150" version="1" timestamp="2021-01-02T23:49:10Z" changeset="96830513" uid="5173844" user="ndrw6">
    <nd ref="8285229075"/>
    <nd ref="26117453"/>
    <nd ref="26117441"/>
    <tag k="highway" v="residential"/>
    <tag k="name" v="Abbots Way"/>
    <tag k="source:name" v="local knowledge"/>
  </way>
  <way id="891379151" version="2" timestamp="2021-05-02T14:51:17Z" changeset="103998626" uid="281267" user="smb1001">
    <nd ref="1496220776"/>
    <nd ref="1496220609"/>
    <nd ref="1496220723"/>
    <nd ref="1496220685"/>
    <nd ref="1496220787"/>
    <nd ref="1496220625"/>
    <nd ref="1496220675"/>
    <nd ref="1496220644"/>
    <nd ref="1496220776"/>
    <tag k="addr:housenumber" v="11"/>
    <tag k="addr:postcode" v="CB25 9JN"/>
    <tag k="addr:street" v="Abbots Way"/>
    <tag k="building" v="yes"/>
    <tag k="source" v="bing"/>
  </way>
  <way id="891379153" version="2" timestamp="2021-05-02T14:51:17Z" changeset="103998626" uid="281267" user="smb1001">
    <nd ref="1496220599"/>
    <nd ref="1496220618"/>
    <nd ref="1496220669"/>
    <nd ref="1496220786"/>
    <nd ref="1496220787"/>
    <nd ref="1496220685"/>
    <nd ref="1496220771"/>
    <nd ref="1496220747"/>
    <nd ref="1496220579"/>
    <nd ref="1496220543"/>
    <nd ref="1496220599"/>
    <tag k="addr:housenumber" v="9"/>
    <tag k="addr:postcode" v="CB25 9JN"/>
    <tag k="addr:street" v="Abbots Way"/>
    <tag k="building" v="yes"/>
    <tag k="source" v="bing"/>
  </way>
  <way id="891379154" version="2" timestamp="2021-05-02T14:51:17Z" changeset="103998626" uid="281267" user="smb1001">
    <nd ref="8285229076"/>
    <nd ref="1496211912"/>
    <nd ref="1496211849"/>
    <nd ref="1496211968"/>
    <nd ref="1496211858"/>
    <nd ref="8285229077"/>
    <nd ref="8285229076"/>
    <tag k="addr:housenumber" v="10"/>
    <tag k="addr:postcode" v="CB25 9JN"/>
    <tag k="addr:street" v="Abbots Way"/>
    <tag k="building" v="yes"/>
    <tag k="source" v="bing"/>
  </way>
  <way id="891379155" version="2" timestamp="2021-05-02T14:51:17Z" changeset="103998626" uid="281267" user="smb1001">
    <nd ref="1496211860"/>
    <nd ref="1496211868"/>
    <nd ref="1496211565"/>
    <nd ref="1496211571"/>
    <nd ref="1496211529"/>
    <nd ref="1496211956"/>
    <nd ref="1496211939"/>
    <nd ref="1496211834"/>
    <nd ref="1496211790"/>
    <nd ref="1496211860"/>
    <tag k="addr:housenumber" v="14"/>
    <tag k="addr:postcode" v="CB25 9JN"/>
    <tag k="addr:street" v="Abbots Way"/>
    <tag k="building" v="yes"/>
    <tag k="source" v="bing"/>
  </way>
  <way id="891379157" version="3" timestamp="2022-12-06T10:13:48Z" changeset="129775997" uid="7487756" user="Robert Balm">
    <nd ref="8285229079"/>
    <nd ref="1496211726"/>
    <nd ref="1496211633"/>
    <nd ref="1496211464"/>
    <nd ref="1496211555"/>
    <nd ref="8285229078"/>
    <nd ref="8285229079"/>
    <tag k="addr:housenumber" v="18"/>
    <tag k="addr:postcode" v="CB25 9JN"/>
    <tag k="addr:street" v="Abbots Way"/>
    <tag k="building" v="house"/>
    <tag k="source" v="bing"/>
  </way>
  <way id="891379184" version="2" timestamp="2021-05-03T09:45:01Z" changeset="104044454" uid="281267" user="smb1001">
    <nd ref="8285229218"/>
    <nd ref="1496220782"/>
    <nd ref="1496220735"/>
    <nd ref="8285229217"/>
    <nd ref="8285229218"/>
    <tag k="addr:housenumber" v="55"/>
    <tag k="addr:postcode" v="CB25 9JG"/>
    <tag k="addr:street" v="High Street"/>
    <tag k="building" v="residential"/>
    <tag k="source" v="bing"/>
  </way>
  <way id="891379185" version="2" timestamp="2021-05-03T09:45:01Z" changeset="104044454" uid="281267" user="smb1001">
    <nd ref="8285229217"/>
    <nd ref="8285229219"/>
    <nd ref="8285229220"/>
    <nd ref="8285229218"/>
    <nd ref="8285229217"/>
    <tag k="addr:housenumber" v="53"/>
    <tag k="addr:postcode" v="CB25 9JG"/>
    <tag k="addr:street" v="High Street"/>
    <tag k="building" v="residential"/>
    <tag k="source" v="bing"/>
  </way>
  <way id="891379186" version="2" timestamp="2021-05-03T09:45:01Z" changeset="104044454" uid="281267" user="smb1001">
    <nd ref="8285229222"/>
    <nd ref="1496201427"/>
    <nd ref="1496201425"/>
    <nd ref="1496201470"/>
    <nd ref="1496201530"/>
    <nd ref="8285229221"/>
    <nd ref="8285229222"/>
    <tag k="addr:housenumber" v="78"/>
    <tag k="addr:postcode" v="CB25 9JG"/>
    <tag k="addr:street" v="High Street"/>
    <tag k="building" v="residential"/>
    <tag k="source" v="bing"/>
  </way>
  <way id="891379191" version="2" timestamp="2021-05-03T09:45:01Z" changeset="104044454" uid="281267" user="smb1001">
    <nd ref="8285229238"/>
    <nd ref="1496201479"/>
    <nd ref="1496201377"/>
    <nd ref="8285229237"/>
    <nd ref="8285229238"/>
    <tag k="addr:housenumber" v="68"/>
    <tag k="addr:postcode" v="CB25 9JG"/>
    <tag k="addr:street" v="High Street"/>
    <tag k="building" v="residential"/>
    <tag k="source" v="bing"/>
  </way>
  <way id="891379192" version="2" timestamp="2021-05-03T09:45:01Z" changeset="104044454" uid="281267" user="smb1001">
    <nd ref="8285229240"/>
    <nd ref="1496201642"/>
    <nd ref="1496201513"/>
    <nd ref="8285229239"/>
    <nd ref="8285229240"/>
    <tag k="addr:housenumber" v="74"/>
    <tag k="addr:postcode" v="CB25 9JG"/>
    <tag k="addr:street" v="High Street"/>
    <tag k="building" v="residential"/>
    <tag k="source" v="bing"/>
  </way>
  <way id="891379193" version="2" timestamp="2021-05-03T09:45:01Z" changeset="104044454" uid="281267" user="smb1001">
    <nd ref="8285229241"/>
    <nd ref="1496201454"/>
    <nd ref="1496201383"/>
    <nd ref="1496201529"/>
    <nd ref="8285229241"/>
    <tag k="addr:housenumber" v="72"/>
    <tag k="addr:postcode" v="CB25 9JG"/>
    <tag k="addr:street" v="High Street"/>
    <tag k="building" v="residential"/>
    <tag k="source" v="bing"/>
  </way>
  <way id="891379208" version="2" timestamp="2021-05-02T14:51:17Z" changeset="103998626" uid="281267" user="smb1001">
    <nd ref="8285229316"/>
    <nd ref="1496220570"/>
    <nd ref="1496220756"/>
    <nd ref="1496220754"/>
    <nd ref="1496220720"/>
    <nd ref="8285229316"/>
    <tag k="addr:housenumber" v="21"/>
    <tag k="addr:postcode" v="CB25 9JL"/>
    <tag k="addr:street" v="Priory Road"/>
    <tag k="building" v="yes"/>
    <tag k="source" v="bing"/>
  </way>
  <way id="891379209" version="2" timestamp="2021-05-02T14:51:17Z" changeset="103998626" uid="281267" user="smb1001">
    <nd ref="8285229318"/>
    <nd ref="1496220585"/>
    <nd ref="1496220546"/>
    <nd ref="8285229317"/>
    <nd ref="8285229318"/>
    <tag k="addr:housenumber" v="25"/>
    <tag k="addr:postcode" v="CB25 9JL"/>
    <tag k="addr:street" v="Priory Road"/>
    <tag k="building" v="yes"/>
    <tag k="source" v="bing"/>
  </way>
  <way id="891379210" version="2" timestamp="2021-05-02T14:51:17Z" changeset="103998626" uid="281267" user="smb1001">
    <nd ref="8285229320"/>
    <nd ref="1496220624"/>
    <nd ref="1496220649"/>
    <nd ref="1496220741"/>
    <nd ref="1496220633"/>
    <nd ref="8285229319"/>
    <nd ref="8285229320"/>
    <tag k="addr:housenumber" v="29"/>
    <tag k="addr:postcode" v="CB25 9JL"/>
    <tag k="addr:street" v="Priory Road"/>
    <tag k="building" v="yes"/>
    <tag k="source" v="bing"/>
  </way>
  <way id="891379211" version="1" timestamp="2021-01-02T23:49:10Z" changeset="96830513" uid="5173844" user="ndrw6">
    <nd ref="8285229321"/>
    <nd ref="2738036558"/>
    <nd ref="2738036664"/>
    <tag k="highway" v="residential"/>
    <tag k="name" v="Priory Road"/>
    <tag k="source:name" v="local knowledge"/>
  </way>
  <way id="891379212" version="2" timestamp="2021-05-02T14:51:17Z" changeset="103998626" uid="281267" user="smb1001">
    <nd ref="8285229322"/>
    <nd ref="1496220640"/>
    <nd ref="1496220582"/>
    <nd ref="8285229323"/>
    <nd ref="8285229322"/>
    <tag k="addr:housenumber" v="17"/>
    <tag k="addr:postcode" v="CB25 9JL"/>
    <tag k="addr:street" v="Priory Road"/>
    <tag k="building" v="yes"/>
    <tag k="source" v="bing"/>
  </way>
  <way id="891379213" version="2" timestamp="2021-05-02T14:51:17Z" changeset="103998626" uid="281267" user="smb1001">
    <nd ref="1496220674"/>
    <nd ref="1496220542"/>
    <nd ref="1496220601"/>
    <nd ref="8285229324"/>
    <nd ref="1496220674"/>
    <tag k="addr:housenumber" v="15"/>
    <tag k="addr:postcode" v="CB25 9JL"/>
    <tag k="addr:street" v="Priory Road"/>
    <tag k="building" v="yes"/>
    <tag k="source" v="bing"/>
  </way>
  <way id="891379214" version="2" timestamp="2021-05-02T14:51:17Z" changeset="103998626" uid="281267" user="smb1001">
    <nd ref="8285229327"/>
    <nd ref="1496220634"/>
    <nd ref="1496220610"/>
    <nd ref="8285229328"/>
    <nd ref="8285229327"/>
    <tag k="addr:housenumber" v="5"/>
    <tag k="addr:postcode" v="CB25 9JL"/>
    <tag k="addr:street" v="Priory Road"/>
    <tag k="building" v="yes"/>
    <tag k="source" v="bing"/>
  </way>
  <way id="891379215" version="2" timestamp="2021-05-02T14:51:17Z" changeset="103998626" uid="281267" user="smb1001">
    <nd ref="8285229330"/>
    <nd ref="1496220770"/>
    <nd ref="1496220577"/>
    <nd ref="1496220677"/>
    <nd ref="1496220648"/>
    <nd ref="8285229331"/>
    <nd ref="8285229329"/>
    <nd ref="8285229330"/>
    <tag k="addr:housenumber" v="9"/>
    <tag k="addr:postcode" v="CB25 9JL"/>
    <tag k="addr:street" v="Priory Road"/>
    <tag k="building" v="yes"/>
    <tag k="source" v="bing"/>
  </way>
  <way id="891379216" version="2" timestamp="2021-05-02T14:51:17Z" changeset="103998626" uid="281267" user="smb1001">
    <nd ref="1496220648"/>
    <nd ref="8285229326"/>
    <nd ref="8285229325"/>
    <nd ref="1496220636"/>
    <nd ref="1496220627"/>
    <nd ref="8285229331"/>
    <nd ref="1496220648"/>
    <tag k="addr:housenumber" v="11"/>
    <tag k="addr:postcode" v="CB25 9JL"/>
    <tag k="addr:street" v="Priory Road"/>
    <tag k="building" v="yes"/>
    <tag k="source" v="bing"/>
  </way>
  <way id="891379217" version="2" timestamp="2021-05-02T14:51:17Z" changeset="103998626" uid="281267" user="smb1001">
    <nd ref="8285229333"/>
    <nd ref="1496220724"/>
    <nd ref="1496220805"/>
    <nd ref="8285229332"/>
    <nd ref="8285229333"/>
    <tag k="addr:housenumber" v="6"/>
    <tag k="addr:postcode" v="CB25 9JL"/>
    <tag k="addr:street" v="Priory Road"/>
    <tag k="building" v="yes"/>
    <tag k="source" v="bing"/>
  </way>
  <way id="891379218" version="2" timestamp="2021-05-02T14:51:17Z" changeset="103998626" uid="281267" user="smb1001">
    <nd ref="8285229335"/>
    <nd ref="1496220547"/>
    <nd ref="1496220612"/>
    <nd ref="8285229334"/>
    <nd ref="8285229335"/>
    <tag k="addr:housenumber" v="2"/>
    <tag k="addr:postcode" v="CB25 9JL"/>
    <tag k="addr:street" v="Priory Road"/>
    <tag k="building" v="yes"/>
    <tag k="source" v="bing"/>
  </way>
  <way id="891379219" version="2" timestamp="2021-05-02T14:51:17Z" changeset="103998626" uid="281267" user="smb1001">
    <nd ref="1496211488"/>
    <nd ref="1496211590"/>
    <nd ref="1496211584"/>
    <nd ref="1496211780"/>
    <nd ref="1496211818"/>
    <nd ref="1496211488"/>
    <tag k="addr:housenumber" v="6"/>
    <tag k="addr:postcode" v="CB25 9JN"/>
    <tag k="addr:street" v="Abbots Way"/>
    <tag k="building" v="yes"/>
    <tag k="source" v="bing"/>
  </way>
  <way id="891379220" version="2" timestamp="2021-05-02T14:51:17Z" changeset="103998626" uid="281267" user="smb1001">
    <nd ref="1496211885"/>
    <nd ref="1496211649"/>
    <nd ref="1496211741"/>
    <nd ref="1496211763"/>
    <nd ref="1496211819"/>
    <nd ref="1496211885"/>
    <tag k="addr:housenumber" v="2"/>
    <tag k="addr:postcode" v="CB25 9JN"/>
    <tag k="addr:street" v="Abbots Way"/>
    <tag k="building" v="yes"/>
    <tag k="source" v="bing"/>
  </way>
  <way id="938085556" version="1" timestamp="2021-05-02T14:51:17Z" changeset="103998626" uid="281267" user="smb1001">
    <nd ref="1496220860"/>
    <nd ref="8690806687"/>
    <nd ref="8690806685"/>
    <nd ref="1496220784"/>
    <nd ref="1496220860"/>
    <tag k="addr:housenumber" v="3"/>
    <tag k="addr:postcode" v="CB25 9JL"/>
    <tag k="addr:street" v="Priory Road"/>
    <tag k="building" v="yes"/>
    <tag k="source" v="bing"/>
  </way>
  <way id="938085557" version="1" timestamp="2021-05-02T14:51:17Z" changeset="103998626" uid="281267" user="smb1001">
    <nd ref="8690806686"/>
    <nd ref="8690806688"/>
    <nd ref="8690806689"/>
    <nd ref="8690806684"/>
    <nd ref="8690806686"/>
    <tag k="addr:housenumber" v="1a"/>
    <tag k="addr:postcode" v="CB25 9JN"/>
    <tag k="addr:street" v="Abbots Way"/>
    <tag k="building" v="yes"/>
    <tag k="source" v="bing"/>
  </way>
  <way id="938352011" version="1" timestamp="2021-05-03T10:06:19Z" changeset="104044454" uid="281267" user="smb1001">
    <nd ref="1496211517"/>
    <nd ref="8693215923"/>
    <nd ref="8693144398"/>
    <nd ref="1496211624"/>
    <nd ref="1496211517"/>
    <tag k="addr:housename" v="Gingell's Cottage"/>
    <tag k="addr:housenumber" v="54"/>
    <tag k="addr:postcode" v="CB25 9JG"/>
    <tag k="addr:street" v="High Street"/>
    <tag k="building" v="residential"/>
    <tag k="source" v="bing"/>
  </way>
  <way id="973531876" version="7" timestamp="2024-11-18T12:59:48Z" changeset="159282389" uid="21765171" user="themightymere">
    <nd ref="9010216233"/>
    <nd ref="7057301"/>
    <nd ref="7057302"/>
    <nd ref="1144816537"/>
    <nd ref="9602220627"/>
    <tag k="bicycle" v="no"/>
    <tag k="expressway" v="yes"/>
    <tag k="foot" v="no"/>
    <tag k="highway" v="trunk_link"/>
    <tag k="lanes" v="2"/>
    <tag k="lit" v="no"/>
    <tag k="maxspeed" v="70 mph"/>
    <tag k="maxspeed:type" v="GB:nsl_dual"/>
    <tag k="national_highways:area" v="8"/>
    <tag k="oneway" v="yes"/>
    <tag k="operator" v="National Highways"/>
    <tag k="operator:wikidata" v="Q5760006"/>
    <tag k="ref" v="A14"/>
    <tag k="turn:lanes" v="left|right"/>
  </way>
  <way id="1210612447" version="1" timestamp="2023-09-24T19:38:25Z" changeset="141697064" uid="560534" user="twomagi">
    <nd ref="2282324873"/>
    <nd ref="805644015"/>
    <nd ref="15703516"/>
    <nd ref="805644022"/>
    <nd ref="805644024"/>
    <nd ref="26117472"/>
    <tag k="abutters" v="residential"/>
    <tag k="highway" v="tertiary"/>
    <tag k="maxspeed" v="30 mph"/>
    <tag k="maxweight:hgv" v="7.5"/>
    <tag k="maxweight:hgv:conditional" v="none @ destination"/>
    <tag k="name" v="Clayhithe Road"/>
  </way>
  <way id="1210612448" version="1" timestamp="2023-09-24T19:38:25Z" changeset="141697064" uid="560534" user="twomagi">
    <nd ref="2282324880"/>
    <nd ref="2447211571"/>
    <nd ref="15703573"/>
    <tag k="abutters" v="residential"/>
    <tag k="highway" v="tertiary"/>
    <tag k="maxspeed" v="30 mph"/>
    <tag k="maxweight:hgv" v="7.5"/>
    <tag k="maxweight:hgv:conditional" v="none @ destination"/>
    <tag k="name" v="High Street"/>
    <tag k="source:ref" v="survey"/>
  </way>
  <way id="1210612449" version="2" timestamp="2024-12-31T22:44:15Z" changeset="160849775" uid="5229644" user="Nathan_A_RF">
    <nd ref="15703513"/>
    <nd ref="2447211515"/>
    <nd ref="1144821506"/>
    <nd ref="805644090"/>
    <nd ref="805644094"/>
    <tag k="highway" v="tertiary"/>
    <tag k="maxspeed" v="60 mph"/>
    <tag k="maxspeed:type" v="GB:nsl_single"/>
    <tag k="maxweight:hgv" v="7.5"/>
    <tag k="maxweight:hgv:conditional" v="none @ destination"/>
    <tag k="name" v="Horningsea Road"/>
    <tag k="source:ref" v="survey"/>
  </way>
  <way id="1222006442" version="1" timestamp="2023-11-08T14:15:37Z" changeset="143782837" uid="7487756" user="Robert Balm">
    <nd ref="286018980"/>
    <nd ref="5590319573"/>
    <nd ref="15703525"/>
    <nd ref="805643942"/>
    <nd ref="805643944"/>
    <nd ref="5590319572"/>
    <nd ref="21318427"/>
    <tag k="abutters" v="residential"/>
    <tag k="highway" v="tertiary"/>
    <tag k="maxspeed" v="50 mph"/>
  </way>
  <way id="1222006445" version="1" timestamp="2023-11-08T14:15:37Z" changeset="143782837" uid="7487756" user="Robert Balm">
    <nd ref="21318334"/>
    <nd ref="26117443"/>
    <tag k="abutters" v="residential"/>
    <tag k="highway" v="tertiary"/>
    <tag k="maxspeed" v="30 mph"/>
    <tag k="maxweight:hgv" v="7.5"/>
    <tag k="maxweight:hgv:conditional" v="none @ destination"/>
    <tag k="name" v="High Street"/>
    <tag k="source:ref" v="survey"/>
  </way>

</osm>
