<?xml version="1.0" encoding="UTF-8"?>
<osm version="0.6" generator="Overpass API 0.7.62.5 1bd436f1">
<note>The data included in this document is from www.openstreetmap.org. The data is made available under ODbL.</note>
<meta osm_base="2025-04-27T07:28:05Z" areas="2025-02-06T02:17:44Z"/>

  <node id="25720371" lat="52.2752896" lon="-0.1371759" version="3" timestamp="2021-07-09T17:54:44Z" changeset="107719667" uid="5173844" user="ndrw6"/>
  <node id="29973061" lat="52.2564329" lon="-0.1240336" version="5" timestamp="2024-10-29T17:12:02Z" changeset="158508499" uid="10420541" user="Thingummy"/>
  <node id="242766338" lat="52.2431567" lon="-0.1319246" version="4" timestamp="2014-11-26T20:58:36Z" changeset="27053706" uid="669183" user="Andy_W"/>
  <node id="298540811" lat="52.2690136" lon="-0.1508019" version="2" timestamp="2011-07-07T00:01:05Z" changeset="8653382" uid="90142" user="andy mackey"/>
  <node id="658879714" lat="52.2571903" lon="-0.1239393" version="5" timestamp="2024-10-29T17:12:02Z" changeset="158508499" uid="10420541" user="Thingummy"/>
  <node id="1499442487" lat="52.2564653" lon="-0.1232508" version="3" timestamp="2024-10-29T17:12:02Z" changeset="158508499" uid="10420541" user="Thingummy"/>
  <node id="3494061156" lat="52.2435151" lon="-0.1325218" version="3" timestamp="2025-03-16T17:30:02Z" changeset="163699191" uid="742701" user="kerr smith"/>
  <node id="4584305908" lat="52.2897759" lon="-0.1475893" version="4" timestamp="2021-07-09T17:57:33Z" changeset="107719667" uid="5173844" user="ndrw6"/>
  <node id="7198832808" lat="52.2791321" lon="-0.1252028" version="2" timestamp="2025-02-22T17:19:05Z" changeset="162825013" uid="669183" user="Andy_W"/>
  <node id="11780321412" lat="52.2567097" lon="-0.1233225" version="2" timestamp="2024-10-29T17:12:02Z" changeset="158508499" uid="10420541" user="Thingummy"/>
  <way id="4274931" version="14" timestamp="2024-10-19T13:44:54Z" changeset="158091550" uid="322785" user="BCNorwich">
    <nd ref="11780321412"/>
    <nd ref="25720293"/>
    <nd ref="623524503"/>
    <nd ref="11780321409"/>
    <nd ref="25720294"/>
    <nd ref="623524508"/>
    <nd ref="25720295"/>
    <nd ref="623524512"/>
    <nd ref="11780321410"/>
    <nd ref="623524515"/>
    <nd ref="25720297"/>
    <nd ref="11780321411"/>
    <nd ref="623524518"/>
    <nd ref="623524521"/>
    <nd ref="2341576213"/>
    <nd ref="623524525"/>
    <nd ref="25720291"/>
    <nd ref="623524529"/>
    <nd ref="5879285285"/>
    <nd ref="623524532"/>
    <nd ref="623524533"/>
    <nd ref="623524534"/>
    <nd ref="11780321412"/>
    <tag k="highway" v="primary"/>
    <tag k="junction" v="roundabout"/>
    <tag k="lanes" v="2"/>
    <tag k="lit" v="yes"/>
    <tag k="maxspeed" v="60 mph"/>
    <tag k="maxspeed:type" v="GB:nsl_single"/>
    <tag k="name" v="Kisby's Hut"/>
    <tag k="oneway" v="yes"/>
  </way>
  <way id="4274932" version="19" timestamp="2025-03-17T11:22:18Z" changeset="163727196" uid="742701" user="kerr smith">
    <nd ref="25720371"/>
    <nd ref="687044811"/>
    <nd ref="687044812"/>
    <nd ref="25720315"/>
    <nd ref="25720316"/>
    <nd ref="773130443"/>
    <nd ref="914210025"/>
    <nd ref="12672873604"/>
    <nd ref="914209978"/>
    <nd ref="12672873601"/>
    <nd ref="25720318"/>
    <nd ref="12672873602"/>
    <nd ref="12672873603"/>
    <nd ref="25720319"/>
    <nd ref="1572773879"/>
    <tag k="cycleway:both" v="no"/>
    <tag k="highway" v="primary"/>
    <tag k="lanes" v="2"/>
    <tag k="lit" v="no"/>
    <tag k="maxspeed" v="60 mph"/>
    <tag k="maxspeed:type" v="GB:nsl_single"/>
    <tag k="name" v="Ermine Street"/>
    <tag k="old_ref" v="A14"/>
    <tag k="ref" v="A1198"/>
    <tag k="surface" v="asphalt"/>
  </way>
  <way id="4708384" version="9" timestamp="2024-04-02T12:15:10Z" changeset="149477758" uid="5229644" user="Nathan_A_RF">
    <nd ref="25720295"/>
    <nd ref="658879401"/>
    <nd ref="29973061"/>
    <tag k="alt_name" v="Papworth Everard Bypass"/>
    <tag k="highway" v="primary"/>
    <tag k="lanes" v="1"/>
    <tag k="lit" v="yes"/>
    <tag k="maxspeed" v="60 mph"/>
    <tag k="maxspeed:type" v="GB:nsl_single"/>
    <tag k="name" v="St Ives Road"/>
    <tag k="oneway" v="yes"/>
    <tag k="ref" v="A1198"/>
  </way>
  <way id="8233111" version="13" timestamp="2013-07-19T19:38:37Z" changeset="17015999" uid="90142" user="andy mackey">
    <nd ref="25720372"/>
    <nd ref="5272011"/>
    <nd ref="5272012"/>
    <nd ref="1351960056"/>
    <nd ref="1351959956"/>
    <nd ref="1351959973"/>
    <nd ref="1351959969"/>
    <nd ref="1351960017"/>
    <nd ref="1351959993"/>
    <nd ref="5272014"/>
    <nd ref="1351959979"/>
    <nd ref="5272015"/>
    <nd ref="1351960043"/>
    <nd ref="2389507388"/>
    <nd ref="1351960008"/>
    <nd ref="1351959945"/>
    <nd ref="5272017"/>
    <nd ref="1351959949"/>
    <nd ref="1351959958"/>
    <nd ref="1351960060"/>
    <nd ref="1351960016"/>
    <nd ref="298540811"/>
    <tag k="highway" v="tertiary"/>
    <tag k="name" v="Barnfield Lane"/>
  </way>
  <way id="22634435" version="6" timestamp="2015-05-02T23:11:55Z" changeset="30734675" uid="90142" user="andy mackey">
    <nd ref="242766338"/>
    <nd ref="3494061156"/>
    <tag k="highway" v="tertiary"/>
    <tag k="name" v="High Street"/>
  </way>
  <way id="27205774" version="29" timestamp="2025-03-16T17:30:02Z" changeset="163699191" uid="742701" user="kerr smith">
    <nd ref="11302249229"/>
    <nd ref="298540815"/>
    <nd ref="2388770307"/>
    <nd ref="298540816"/>
    <nd ref="2388770309"/>
    <nd ref="298540817"/>
    <nd ref="2388770305"/>
    <nd ref="298540819"/>
    <nd ref="2388770310"/>
    <nd ref="298540822"/>
    <nd ref="2388770311"/>
    <nd ref="2388770304"/>
    <nd ref="298540824"/>
    <nd ref="298540825"/>
    <nd ref="2388770303"/>
    <nd ref="298540826"/>
    <nd ref="298540827"/>
    <nd ref="298540828"/>
    <nd ref="2388770306"/>
    <nd ref="298540829"/>
    <nd ref="298540830"/>
    <nd ref="2388770308"/>
    <nd ref="298540831"/>
    <nd ref="298540832"/>
    <nd ref="1598971403"/>
    <nd ref="298547370"/>
    <nd ref="298544649"/>
    <nd ref="298540833"/>
    <nd ref="298545449"/>
    <nd ref="298540834"/>
    <nd ref="634502211"/>
    <nd ref="634502209"/>
    <nd ref="298540858"/>
    <nd ref="634502199"/>
    <nd ref="298546458"/>
    <nd ref="298545084"/>
    <nd ref="298546102"/>
    <nd ref="298540841"/>
    <nd ref="914209976"/>
    <nd ref="1351959941"/>
    <nd ref="12670489444"/>
    <nd ref="298540842"/>
    <nd ref="12670489445"/>
    <nd ref="12670489406"/>
    <nd ref="914210103"/>
    <nd ref="1351959930"/>
    <nd ref="914209986"/>
    <nd ref="298547016"/>
    <nd ref="298547013"/>
    <nd ref="298540844"/>
    <tag k="highway" v="tertiary"/>
    <tag k="name" v="The Main Road"/>
    <tag k="source" v="survey"/>
  </way>
  <way id="27205775" version="11" timestamp="2025-03-17T11:22:18Z" changeset="163727196" uid="742701" user="kerr smith">
    <nd ref="634502209"/>
    <nd ref="634502237"/>
    <nd ref="634502232"/>
    <nd ref="298540846"/>
    <nd ref="298540848"/>
    <nd ref="1351960079"/>
    <nd ref="914210106"/>
    <nd ref="298540852"/>
    <tag k="highway" v="residential"/>
    <tag k="name" v="The Church Lane"/>
    <tag k="source" v="survey"/>
  </way>
  <way id="27205778" version="5" timestamp="2016-07-28T12:59:47Z" changeset="41085331" uid="2983218" user="LovenOutdoors">
    <nd ref="634502232"/>
    <nd ref="298540858"/>
    <tag k="highway" v="residential"/>
    <tag k="name" v="The Church Lane"/>
    <tag k="noname" v="yes"/>
  </way>
  <way id="51527939" version="7" timestamp="2024-04-02T12:15:10Z" changeset="149477758" uid="5229644" user="Nathan_A_RF">
    <nd ref="29973061"/>
    <nd ref="658879089"/>
    <nd ref="658879091"/>
    <nd ref="623524515"/>
    <tag k="alt_name" v="Papworth Everard Bypass"/>
    <tag k="highway" v="primary"/>
    <tag k="lanes" v="1"/>
    <tag k="lit" v="yes"/>
    <tag k="maxspeed" v="60 mph"/>
    <tag k="maxspeed:type" v="GB:nsl_single"/>
    <tag k="name" v="St Ives Road"/>
    <tag k="oneway" v="yes"/>
    <tag k="ref" v="A1198"/>
  </way>
  <way id="51527940" version="9" timestamp="2024-04-02T12:15:10Z" changeset="149477758" uid="5229644" user="Nathan_A_RF">
    <nd ref="29973061"/>
    <nd ref="529616070"/>
    <nd ref="658880708"/>
    <nd ref="29973063"/>
    <tag k="alt_name" v="Papworth Everard Bypass"/>
    <tag k="highway" v="primary"/>
    <tag k="lanes" v="2"/>
    <tag k="lit" v="yes"/>
    <tag k="maxspeed" v="60 mph"/>
    <tag k="maxspeed:type" v="GB:nsl_single"/>
    <tag k="name" v="St Ives Road"/>
    <tag k="ref" v="A1198"/>
  </way>
  <way id="51527995" version="11" timestamp="2024-10-29T17:12:02Z" changeset="158508499" uid="10420541" user="Thingummy">
    <nd ref="658879714"/>
    <nd ref="6573477832"/>
    <nd ref="25720291"/>
    <tag k="highway" v="primary"/>
    <tag k="lanes" v="1"/>
    <tag k="lit" v="yes"/>
    <tag k="maxspeed" v="60 mph"/>
    <tag k="maxspeed:type" v="GB:nsl_single"/>
    <tag k="old_ref" v="A14"/>
    <tag k="oneway" v="yes"/>
    <tag k="ref" v="A1198"/>
  </way>
  <way id="51528018" version="6" timestamp="2020-08-02T16:33:34Z" changeset="88844933" uid="16089" user="Ben Harris">
    <nd ref="1499442487"/>
    <nd ref="658880085"/>
    <nd ref="25720294"/>
    <tag k="fixme" v="road connections interpolated. needs survey check"/>
    <tag k="highway" v="tertiary"/>
    <tag k="lanes" v="1"/>
    <tag k="maxweightrating:hgv" v="7.5"/>
    <tag k="maxweightrating:hgv:conditional" v="none @ destination"/>
    <tag k="name" v="Ermine Street North"/>
    <tag k="oneway" v="yes"/>
  </way>
  <way id="143724654" version="9" timestamp="2024-10-19T13:44:54Z" changeset="158091550" uid="322785" user="BCNorwich">
    <nd ref="1572773879"/>
    <nd ref="658879713"/>
    <nd ref="658879714"/>
    <tag k="highway" v="primary"/>
    <tag k="lanes" v="2"/>
    <tag k="lit" v="yes"/>
    <tag k="maxspeed" v="60 mph"/>
    <tag k="maxspeed:type" v="GB:nsl_single"/>
    <tag k="old_ref" v="A14"/>
    <tag k="ref" v="A1198"/>
    <tag k="sidewalk" v="no"/>
    <tag k="surface" v="asphalt"/>
  </way>
  <way id="146628801" version="2" timestamp="2016-07-28T12:59:47Z" changeset="41085331" uid="2983218" user="LovenOutdoors">
    <nd ref="1598971496"/>
    <nd ref="1598971577"/>
    <nd ref="1598971544"/>
    <nd ref="1598971700"/>
    <nd ref="1598971480"/>
    <nd ref="1598971684"/>
    <nd ref="1598971558"/>
    <nd ref="1598971442"/>
    <nd ref="1598971496"/>
    <tag k="addr:city" v="Papworth St Agnes"/>
    <tag k="addr:housename" v="Papworth Manor"/>
    <tag k="addr:postcode" v="CB23 3QU"/>
    <tag k="addr:street" v="The Main Road"/>
    <tag k="building" v="house"/>
    <tag k="name" v="Papworth Manor"/>
  </way>
  <way id="146628815" version="5" timestamp="2022-06-21T12:40:32Z" changeset="122667148" uid="8774347" user="Misa_zumba">
    <nd ref="1598971680"/>
    <nd ref="1598971522"/>
    <nd ref="1598971582"/>
    <nd ref="1598971597"/>
    <nd ref="1598971419"/>
    <nd ref="1598971431"/>
    <nd ref="1598971697"/>
    <nd ref="1598971598"/>
    <nd ref="1598971626"/>
    <nd ref="1598971622"/>
    <nd ref="1598971515"/>
    <nd ref="1598971528"/>
    <nd ref="1598971524"/>
    <nd ref="1598971498"/>
    <nd ref="1598971579"/>
    <nd ref="1598971621"/>
    <nd ref="1598971468"/>
    <nd ref="1598971647"/>
    <nd ref="1598971678"/>
    <nd ref="1598971530"/>
    <nd ref="1598971680"/>
    <tag k="addr:city" v="Papworth St Agnes"/>
    <tag k="addr:postcode" v="CB23 3QZ"/>
    <tag k="addr:street" v="The Church Lane"/>
    <tag k="amenity" v="place_of_worship"/>
    <tag k="building" v="church"/>
    <tag k="denomination" v="anglican"/>
    <tag k="name" v="St John the Baptist Church"/>
    <tag k="religion" v="christian"/>
    <tag k="wikidata" v="Q7593727"/>
    <tag k="wikipedia" v="en:St John the Baptist's Church, Papworth St Agnes"/>
  </way>
  <way id="221668728" version="1" timestamp="2013-05-16T23:22:57Z" changeset="16160140" uid="24119" user="Mauls">
    <nd ref="298540811"/>
    <nd ref="1351960034"/>
    <nd ref="1351960024"/>
    <nd ref="1351960040"/>
    <nd ref="1351959977"/>
    <nd ref="1351959989"/>
    <nd ref="1351960025"/>
    <nd ref="298557606"/>
    <nd ref="5272018"/>
    <nd ref="1351218775"/>
    <nd ref="1351218804"/>
    <nd ref="292121999"/>
    <nd ref="1351218812"/>
    <nd ref="1351218784"/>
    <nd ref="5272020"/>
    <tag k="highway" v="tertiary"/>
    <tag k="name" v="Papworth Road"/>
  </way>
  <way id="225373941" version="9" timestamp="2024-10-19T13:44:54Z" changeset="158091550" uid="322785" user="BCNorwich">
    <nd ref="623524518"/>
    <nd ref="2341576216"/>
    <nd ref="658879714"/>
    <tag k="highway" v="primary"/>
    <tag k="lanes" v="1"/>
    <tag k="maxspeed" v="60 mph"/>
    <tag k="maxspeed:type" v="GB:nsl_single"/>
    <tag k="old_ref" v="A14"/>
    <tag k="oneway" v="yes"/>
    <tag k="ref" v="A1198"/>
  </way>
  <way id="342398217" version="4" timestamp="2025-03-16T17:30:02Z" changeset="163699191" uid="742701" user="kerr smith">
    <nd ref="3494061156"/>
    <nd ref="12670489682"/>
    <nd ref="242766343"/>
    <nd ref="3206858979"/>
    <nd ref="12670489683"/>
    <nd ref="3206858990"/>
    <nd ref="3206858967"/>
    <nd ref="242766347"/>
    <nd ref="3206858980"/>
    <nd ref="3206858982"/>
    <nd ref="242766351"/>
    <nd ref="3206858975"/>
    <nd ref="3206858965"/>
    <nd ref="3206858995"/>
    <nd ref="3206858988"/>
    <nd ref="3206858994"/>
    <nd ref="12670489684"/>
    <nd ref="3206858974"/>
    <nd ref="12670489685"/>
    <nd ref="242766354"/>
    <nd ref="3206858968"/>
    <nd ref="242766358"/>
    <nd ref="3206858989"/>
    <tag k="highway" v="tertiary"/>
    <tag k="name" v="High Street"/>
  </way>
  <way id="344704420" version="2" timestamp="2016-07-28T12:59:47Z" changeset="41085331" uid="2983218" user="LovenOutdoors">
    <nd ref="3514535834"/>
    <nd ref="3514535833"/>
    <nd ref="3514535835"/>
    <nd ref="3514535838"/>
    <nd ref="3514535831"/>
    <nd ref="3514535836"/>
    <nd ref="3514535832"/>
    <nd ref="3514535837"/>
    <nd ref="3514535834"/>
    <tag k="addr:city" v="Papworth St Agnes"/>
    <tag k="addr:housename" v="The Old Rectory"/>
    <tag k="addr:postcode" v="CB23 3QZ"/>
    <tag k="addr:street" v="The Church Lane"/>
    <tag k="building" v="residential"/>
    <tag k="name" v="The Old Rectory"/>
  </way>
  <way id="392411524" version="11" timestamp="2024-10-19T13:44:54Z" changeset="158091550" uid="322785" user="BCNorwich">
    <nd ref="25720372"/>
    <nd ref="3956355609"/>
    <tag k="bridge" v="yes"/>
    <tag k="bridge:name" v="Lattenbury Bridge"/>
    <tag k="highway" v="primary"/>
    <tag k="lanes" v="2"/>
    <tag k="layer" v="1"/>
    <tag k="lit" v="no"/>
    <tag k="maxspeed" v="60 mph"/>
    <tag k="maxspeed:type" v="GB:nsl_single"/>
    <tag k="name" v="Ermine Street"/>
    <tag k="old_ref" v="A14"/>
    <tag k="ref" v="A1198"/>
  </way>
  <way id="392411525" version="8" timestamp="2024-10-19T13:44:54Z" changeset="158091550" uid="322785" user="BCNorwich">
    <nd ref="3956355609"/>
    <nd ref="4324904396"/>
    <nd ref="25720371"/>
    <tag k="highway" v="primary"/>
    <tag k="lanes" v="2"/>
    <tag k="lit" v="no"/>
    <tag k="maxspeed" v="60 mph"/>
    <tag k="maxspeed:type" v="GB:nsl_single"/>
    <tag k="name" v="Ermine Street"/>
    <tag k="old_ref" v="A14"/>
    <tag k="ref" v="A1198"/>
    <tag k="surface" v="asphalt"/>
  </way>
  <way id="434334777" version="4" timestamp="2024-04-28T17:22:06Z" changeset="150628902" uid="95856" user="john paul jones &amp; gringo">
    <nd ref="4324904392"/>
    <nd ref="4324904393"/>
    <nd ref="4324904394"/>
    <nd ref="4324904395"/>
    <nd ref="4324904392"/>
    <tag k="addr:city" v="Huntingdon"/>
    <tag k="addr:country" v="GB"/>
    <tag k="addr:postcode" v="PE28 9PJ"/>
    <tag k="addr:street" v="Ermine Street"/>
    <tag k="addr:suburb" v="Papworth St Agnes"/>
    <tag k="building" v="yes"/>
    <tag k="name" v="Papworth St Agnes Telephone Exchange"/>
    <tag k="not:addr:postcode" v="CB3 8QU"/>
    <tag k="operator" v="Openreach"/>
    <tag k="operator:wikidata" v="Q7096543"/>
    <tag k="ref" v="EMPAPSA"/>
    <tag k="source:addr:postcode" v="ons_uprn_lookup"/>
    <tag k="telecom" v="exchange"/>
  </way>
  <way id="434336219" version="2" timestamp="2024-04-28T17:22:06Z" changeset="150628902" uid="95856" user="john paul jones &amp; gringo">
    <nd ref="4324920691"/>
    <nd ref="4324920692"/>
    <nd ref="4324920693"/>
    <nd ref="4324920694"/>
    <nd ref="4324920691"/>
    <tag k="addr:city" v="Huntingdon"/>
    <tag k="addr:country" v="GB"/>
    <tag k="addr:postcode" v="PE28 9PA"/>
    <tag k="addr:street" v="Ermine Street"/>
    <tag k="addr:suburb" v="Papworth St Agnes"/>
    <tag k="building" v="house"/>
    <tag k="name" v="Melrose"/>
  </way>
  <way id="453768356" version="2" timestamp="2025-03-16T17:30:02Z" changeset="163699191" uid="742701" user="kerr smith">
    <nd ref="4504576126"/>
    <nd ref="12670489580"/>
    <nd ref="12670489579"/>
    <nd ref="4504576127"/>
    <nd ref="12670489577"/>
    <nd ref="12670489578"/>
    <nd ref="4504576128"/>
    <nd ref="4504576129"/>
    <nd ref="4504576126"/>
    <tag k="addr:city" v="Papworth St Agnes"/>
    <tag k="addr:housename" v="Hill Farm Cottages"/>
    <tag k="addr:postcode" v="CB23 3QX"/>
    <tag k="addr:street" v="St Ives Road"/>
    <tag k="building" v="terrace"/>
    <tag k="name" v="Hill Farm Cottages"/>
  </way>
  <way id="463120481" version="10" timestamp="2024-10-19T13:44:54Z" changeset="158091550" uid="322785" user="BCNorwich">
    <nd ref="4584305908"/>
    <nd ref="6514864358"/>
    <nd ref="25720309"/>
    <nd ref="9163100337"/>
    <nd ref="991676984"/>
    <nd ref="986314596"/>
    <nd ref="25720310"/>
    <nd ref="1507313997"/>
    <nd ref="4751235422"/>
    <tag k="highway" v="primary"/>
    <tag k="lanes" v="2"/>
    <tag k="lit" v="no"/>
    <tag k="name" v="Ermine Street"/>
    <tag k="old_ref" v="A14"/>
    <tag k="ref" v="A1198"/>
    <tag k="surface" v="asphalt"/>
  </way>
  <way id="482282183" version="6" timestamp="2024-12-31T15:54:37Z" changeset="160839030" uid="5229644" user="Nathan_A_RF">
    <nd ref="4751235422"/>
    <nd ref="687044803"/>
    <nd ref="687044804"/>
    <nd ref="687044806"/>
    <nd ref="25720312"/>
    <nd ref="4324920710"/>
    <nd ref="25720313"/>
    <nd ref="687044807"/>
    <nd ref="25720372"/>
    <tag k="highway" v="primary"/>
    <tag k="lanes" v="2"/>
    <tag k="lit" v="no"/>
    <tag k="maxspeed" v="60 mph"/>
    <tag k="maxspeed:type" v="GB:nsl_single"/>
    <tag k="name" v="Ermine Street"/>
    <tag k="old_ref" v="A14"/>
    <tag k="ref" v="A1198"/>
    <tag k="surface" v="asphalt"/>
  </way>
  <way id="771155267" version="1" timestamp="2020-02-09T22:06:51Z" changeset="80765732" uid="24119" user="Mauls">
    <nd ref="7198832808"/>
    <nd ref="3371880207"/>
    <nd ref="3793968637"/>
    <nd ref="3793963141"/>
    <nd ref="5272009"/>
    <nd ref="25720371"/>
    <tag k="highway" v="tertiary"/>
    <tag k="name" v="Graveley Way"/>
    <tag k="source" v="npe"/>
  </way>
  <way id="965672967" version="2" timestamp="2021-08-28T21:35:42Z" changeset="110394811" uid="493595" user="Yorvik Prestigitator">
    <nd ref="299060667"/>
    <nd ref="8933441278"/>
    <nd ref="298542480"/>
    <nd ref="8933441277"/>
    <nd ref="8933441280"/>
    <nd ref="299060667"/>
    <tag k="building" v="yes"/>
    <tag k="historic" v="bakery"/>
    <tag k="name" v="The Bakehouse"/>
  </way>
  <way id="1219756415" version="1" timestamp="2023-10-31T12:34:59Z" changeset="143418593" uid="10420541" user="Thingummy">
    <nd ref="298540811"/>
    <nd ref="298540812"/>
    <nd ref="298540813"/>
    <nd ref="298540814"/>
    <nd ref="11302249230"/>
    <tag k="highway" v="tertiary"/>
    <tag k="name" v="The Main Road"/>
    <tag k="source" v="survey"/>
  </way>
  <way id="1219756416" version="1" timestamp="2023-10-31T12:34:59Z" changeset="143418593" uid="10420541" user="Thingummy">
    <nd ref="11302249230"/>
    <nd ref="11302249229"/>
    <tag k="bridge" v="yes"/>
    <tag k="highway" v="tertiary"/>
    <tag k="layer" v="1"/>
    <tag k="name" v="The Main Road"/>
    <tag k="source" v="survey"/>
  </way>

</osm>
