<?xml version="1.0" encoding="UTF-8"?>
<osm version="0.6" generator="Overpass API 0.7.62.5 1bd436f1">
<note>The data included in this document is from www.openstreetmap.org. The data is made available under ODbL.</note>
<meta osm_base="2025-04-27T07:35:19Z" areas="2024-12-31T00:49:33Z"/>

  <node id="214933" lat="52.2208480" lon="0.3172499" version="3" timestamp="2025-03-12T11:07:49Z" changeset="163522564" uid="5229644" user="Nathan_A_RF"/>
  <node id="608662" lat="52.2180723" lon="0.3121219" version="2" timestamp="2011-12-19T22:54:21Z" changeset="10159843" uid="5926" user="c2r"/>
  <node id="608760" lat="52.2150568" lon="0.2227659" version="8" timestamp="2025-03-12T11:07:49Z" changeset="163522564" uid="5229644" user="Nathan_A_RF"/>
  <node id="5249893" lat="52.2351765" lon="0.2434506" version="4" timestamp="2018-12-31T17:03:31Z" changeset="65917670" uid="141442" user="CycleStreets">
    <tag k="cyclestreets_id" v="104190"/>
  </node>
  <node id="5250986" lat="52.2400668" lon="0.2623555" version="2" timestamp="2015-05-25T18:54:59Z" changeset="31454039" uid="669183" user="Andy_W"/>
  <node id="20960199" lat="52.2064361" lon="0.2590210" version="3" timestamp="2011-08-13T21:03:42Z" changeset="9009593" uid="504708" user="HillWithSmallFields"/>
  <node id="20960333" lat="52.2169740" lon="0.2686360" version="2" timestamp="2011-08-31T14:40:03Z" changeset="9176863" uid="504708" user="HillWithSmallFields"/>
  <node id="20960496" lat="52.2191290" lon="0.2382144" version="4" timestamp="2014-10-12T08:13:34Z" changeset="26020424" uid="1700634" user="sommerluk">
    <tag k="junction" v="yes"/>
    <tag k="name" v="Dunsley Corner"/>
  </node>
  <node id="20960535" lat="52.1909195" lon="0.3006712" version="1" timestamp="2006-11-11T16:05:58Z" changeset="153008" uid="3582" user="davidearl">
    <tag k="created_by" v="JOSM"/>
  </node>
  <node id="25905046" lat="52.2301701" lon="0.2512369" version="2" timestamp="2015-07-02T12:58:35Z" changeset="32352438" uid="669183" user="Andy_W"/>
  <node id="11702487361" lat="52.2296282" lon="0.2740255" version="1" timestamp="2024-03-08T00:10:34Z" changeset="148364407" uid="10420541" user="Thingummy"/>
  <way id="3702255" version="13" timestamp="2025-02-27T19:44:44Z" changeset="163026559" uid="5229644" user="Nathan_A_RF">
    <nd ref="5249893"/>
    <nd ref="551013461"/>
    <nd ref="5249895"/>
    <nd ref="5249897"/>
    <nd ref="5249898"/>
    <nd ref="25904887"/>
    <nd ref="25904886"/>
    <nd ref="5249900"/>
    <nd ref="5301149673"/>
    <nd ref="3816928329"/>
    <nd ref="302109627"/>
    <nd ref="5249901"/>
    <nd ref="5249903"/>
    <nd ref="5249905"/>
    <tag k="cycleway:both" v="no"/>
    <tag k="highway" v="secondary"/>
    <tag k="lanes" v="2"/>
    <tag k="maxspeed" v="60 mph"/>
    <tag k="maxspeed:type" v="GB:nsl_single"/>
    <tag k="name" v="Quy Road"/>
    <tag k="ref" v="B1102"/>
    <tag k="surface" v="asphalt"/>
  </way>
  <way id="3997309" version="4" timestamp="2024-12-31T22:56:40Z" changeset="160850000" uid="5229644" user="Nathan_A_RF">
    <nd ref="20960481"/>
    <nd ref="20960238"/>
    <tag k="bridge" v="yes"/>
    <tag k="highway" v="unclassified"/>
    <tag k="layer" v="1"/>
    <tag k="maxspeed" v="60 mph"/>
    <tag k="maxspeed:type" v="GB:nsl_single"/>
    <tag k="name" v="Wilbraham Road"/>
  </way>
  <way id="3997321" version="19" timestamp="2025-03-12T11:07:49Z" changeset="163522564" uid="5229644" user="Nathan_A_RF">
    <nd ref="214933"/>
    <nd ref="12655866525"/>
    <nd ref="1554841198"/>
    <nd ref="214934"/>
    <nd ref="214935"/>
    <nd ref="214936"/>
    <nd ref="12655866526"/>
    <nd ref="214937"/>
    <nd ref="214938"/>
    <nd ref="214939"/>
    <nd ref="214940"/>
    <nd ref="214941"/>
    <nd ref="214987"/>
    <nd ref="214991"/>
    <nd ref="214994"/>
    <nd ref="215002"/>
    <nd ref="215004"/>
    <nd ref="20960537"/>
    <nd ref="20960616"/>
    <nd ref="1419293533"/>
    <nd ref="215006"/>
    <nd ref="1554841183"/>
    <nd ref="215029"/>
    <nd ref="20960435"/>
    <tag k="expressway" v="yes"/>
    <tag k="highway" v="trunk"/>
    <tag k="lanes" v="2"/>
    <tag k="lit" v="no"/>
    <tag k="maintenance" v="salting"/>
    <tag k="maxheight" v="default"/>
    <tag k="maxspeed" v="70 mph"/>
    <tag k="national_highways:area" v="8"/>
    <tag k="oneway" v="yes"/>
    <tag k="operator" v="National Highways"/>
    <tag k="operator:wikidata" v="Q5760006"/>
    <tag k="ref" v="A11"/>
    <tag k="source" v="survey"/>
    <tag k="source:ref" v="local knowledge"/>
    <tag k="surface" v="asphalt"/>
  </way>
  <way id="3997324" version="16" timestamp="2025-03-12T11:07:49Z" changeset="163522564" uid="5229644" user="Nathan_A_RF">
    <nd ref="20960535"/>
    <nd ref="215030"/>
    <nd ref="215007"/>
    <nd ref="20960218"/>
    <nd ref="20960637"/>
    <nd ref="215005"/>
    <nd ref="215003"/>
    <nd ref="214995"/>
    <nd ref="214993"/>
    <nd ref="214988"/>
    <nd ref="214942"/>
    <nd ref="214943"/>
    <nd ref="214944"/>
    <nd ref="214945"/>
    <nd ref="214946"/>
    <nd ref="214947"/>
    <nd ref="214948"/>
    <nd ref="12655866527"/>
    <nd ref="214949"/>
    <nd ref="214950"/>
    <nd ref="214951"/>
    <nd ref="214952"/>
    <nd ref="12655866528"/>
    <nd ref="214953"/>
    <nd ref="214954"/>
    <nd ref="12655866529"/>
    <nd ref="1219695458"/>
    <nd ref="1554841148"/>
    <nd ref="214294"/>
    <tag k="expressway" v="yes"/>
    <tag k="highway" v="trunk"/>
    <tag k="lanes" v="2"/>
    <tag k="lit" v="no"/>
    <tag k="maintenance" v="salting"/>
    <tag k="maxspeed" v="70 mph"/>
    <tag k="national_highways:area" v="8"/>
    <tag k="oneway" v="yes"/>
    <tag k="operator" v="National Highways"/>
    <tag k="operator:wikidata" v="Q5760006"/>
    <tag k="ref" v="A11"/>
    <tag k="source" v="survey"/>
    <tag k="source:ref" v="local knowledge"/>
    <tag k="surface" v="asphalt"/>
  </way>
  <way id="3997388" version="8" timestamp="2024-12-31T22:52:14Z" changeset="160849930" uid="5229644" user="Nathan_A_RF">
    <nd ref="20960213"/>
    <nd ref="12466180065"/>
    <nd ref="1664537653"/>
    <nd ref="20960518"/>
    <tag k="highway" v="tertiary"/>
    <tag k="lit" v="yes"/>
    <tag k="maxspeed" v="60 mph"/>
    <tag k="maxspeed:type" v="GB:nsl_single"/>
    <tag k="name" v="Bell Road"/>
    <tag k="source:name" v="local knowledge"/>
  </way>
  <way id="3997393" version="6" timestamp="2024-12-31T22:52:14Z" changeset="160849930" uid="5229644" user="Nathan_A_RF">
    <nd ref="20960636"/>
    <nd ref="1431849381"/>
    <nd ref="1419255284"/>
    <nd ref="1419255278"/>
    <nd ref="20960333"/>
    <tag k="highway" v="primary"/>
    <tag k="maxspeed" v="60 mph"/>
    <tag k="maxspeed:type" v="GB:nsl_single"/>
    <tag k="ref" v="A1303"/>
  </way>
  <way id="3997395" version="6" timestamp="2025-03-08T18:27:15Z" changeset="163375146" uid="1287673" user="sloerunner">
    <nd ref="20960487"/>
    <nd ref="1431849372"/>
    <nd ref="20960173"/>
    <nd ref="1431849389"/>
    <nd ref="3631526594"/>
    <nd ref="12645844592"/>
    <nd ref="1806168781"/>
    <nd ref="20960568"/>
    <tag k="highway" v="unclassified"/>
  </way>
  <way id="3997417" version="8" timestamp="2024-12-31T22:56:40Z" changeset="160850000" uid="5229644" user="Nathan_A_RF">
    <nd ref="20960199"/>
    <nd ref="20960365"/>
    <nd ref="1427926332"/>
    <nd ref="1427926358"/>
    <nd ref="20960501"/>
    <nd ref="1427926314"/>
    <nd ref="20960591"/>
    <nd ref="20960194"/>
    <nd ref="1427926337"/>
    <nd ref="1445731248"/>
    <nd ref="1418308268"/>
    <nd ref="2304049568"/>
    <nd ref="2304049613"/>
    <nd ref="20960327"/>
    <nd ref="12466187780"/>
    <nd ref="20960481"/>
    <tag k="highway" v="unclassified"/>
    <tag k="maxspeed" v="60 mph"/>
    <tag k="maxspeed:type" v="GB:nsl_single"/>
    <tag k="name" v="Wilbraham Road"/>
  </way>
  <way id="3997418" version="19" timestamp="2024-12-31T22:53:34Z" changeset="160849955" uid="5229644" user="Nathan_A_RF">
    <nd ref="20960487"/>
    <nd ref="1431849403"/>
    <nd ref="12466197878"/>
    <nd ref="20960293"/>
    <nd ref="8933302621"/>
    <nd ref="3631524767"/>
    <nd ref="25905164"/>
    <nd ref="25905165"/>
    <nd ref="1431849364"/>
    <nd ref="25905163"/>
    <nd ref="1432530949"/>
    <nd ref="1431849388"/>
    <nd ref="1432530941"/>
    <nd ref="25905162"/>
    <nd ref="2777132870"/>
    <nd ref="1431849368"/>
    <nd ref="25905160"/>
    <nd ref="3631524789"/>
    <nd ref="1806105734"/>
    <nd ref="25905158"/>
    <nd ref="25905157"/>
    <nd ref="1432530952"/>
    <nd ref="1806107354"/>
    <nd ref="2777132869"/>
    <nd ref="1806107342"/>
    <nd ref="25905156"/>
    <nd ref="1432530948"/>
    <nd ref="25905155"/>
    <nd ref="1806107338"/>
    <nd ref="1432530981"/>
    <nd ref="2777132863"/>
    <nd ref="25905154"/>
    <nd ref="3631526593"/>
    <nd ref="25905153"/>
    <nd ref="7666670616"/>
    <nd ref="25905150"/>
    <nd ref="25905144"/>
    <nd ref="1806070112"/>
    <nd ref="8918790000"/>
    <nd ref="1806070127"/>
    <nd ref="6149332613"/>
    <nd ref="3631524772"/>
    <nd ref="3631524769"/>
    <nd ref="25905143"/>
    <nd ref="1806063036"/>
    <nd ref="1431045289"/>
    <nd ref="3631524776"/>
    <nd ref="25905142"/>
    <tag k="abutters" v="residential"/>
    <tag k="highway" v="tertiary"/>
    <tag k="maxspeed" v="30 mph"/>
    <tag k="name" v="High Street"/>
    <tag k="sidewalk" v="both"/>
    <tag k="source:name" v="local knowledge"/>
  </way>
  <way id="4211522" version="25" timestamp="2025-03-12T11:07:49Z" changeset="163522564" uid="5229644" user="Nathan_A_RF">
    <nd ref="608662"/>
    <nd ref="608660"/>
    <nd ref="608659"/>
    <nd ref="608676"/>
    <nd ref="608674"/>
    <nd ref="608672"/>
    <nd ref="608670"/>
    <nd ref="608669"/>
    <nd ref="608692"/>
    <nd ref="608690"/>
    <nd ref="1554841222"/>
    <nd ref="608688"/>
    <nd ref="608686"/>
    <nd ref="608684"/>
    <nd ref="608683"/>
    <nd ref="608680"/>
    <nd ref="608678"/>
    <nd ref="608704"/>
    <nd ref="608702"/>
    <nd ref="608700"/>
    <nd ref="608698"/>
    <nd ref="608696"/>
    <nd ref="608694"/>
    <nd ref="608718"/>
    <nd ref="1554841153"/>
    <nd ref="608716"/>
    <nd ref="608715"/>
    <nd ref="608712"/>
    <nd ref="608710"/>
    <nd ref="608708"/>
    <nd ref="608706"/>
    <nd ref="608732"/>
    <nd ref="608730"/>
    <nd ref="608728"/>
    <nd ref="608727"/>
    <nd ref="608724"/>
    <nd ref="608722"/>
    <nd ref="797449548"/>
    <nd ref="608720"/>
    <nd ref="320896353"/>
    <nd ref="797449549"/>
    <nd ref="608741"/>
    <nd ref="797449550"/>
    <nd ref="608740"/>
    <nd ref="1554841182"/>
    <nd ref="608737"/>
    <nd ref="1554841154"/>
    <nd ref="608736"/>
    <nd ref="608734"/>
    <nd ref="1554841207"/>
    <nd ref="608748"/>
    <nd ref="320896916"/>
    <nd ref="12655866534"/>
    <nd ref="608749"/>
    <tag k="expressway" v="yes"/>
    <tag k="highway" v="trunk"/>
    <tag k="int_ref" v="E 24"/>
    <tag k="lanes" v="2"/>
    <tag k="lit" v="no"/>
    <tag k="maxheight" v="default"/>
    <tag k="maxspeed" v="70 mph"/>
    <tag k="maxspeed:type" v="GB:nsl_dual"/>
    <tag k="national_highways:area" v="8"/>
    <tag k="oneway" v="yes"/>
    <tag k="operator" v="National Highways"/>
    <tag k="operator:wikidata" v="Q5760006"/>
    <tag k="ref" v="A14"/>
    <tag k="source:ref" v="local knowledge"/>
    <tag k="surface" v="asphalt"/>
  </way>
  <way id="4211523" version="16" timestamp="2023-12-22T22:02:34Z" changeset="145420800" uid="242345" user="confusedbuffalo">
    <nd ref="608760"/>
    <nd ref="608746"/>
    <nd ref="608747"/>
    <nd ref="1554841141"/>
    <nd ref="608733"/>
    <nd ref="608735"/>
    <nd ref="1554841136"/>
    <nd ref="608738"/>
    <nd ref="608739"/>
    <nd ref="797449556"/>
    <nd ref="608742"/>
    <nd ref="320896354"/>
    <nd ref="1554841205"/>
    <nd ref="608719"/>
    <nd ref="608721"/>
    <nd ref="608723"/>
    <nd ref="608726"/>
    <nd ref="608725"/>
    <nd ref="608729"/>
    <nd ref="608731"/>
    <nd ref="1554841209"/>
    <nd ref="608705"/>
    <nd ref="1554841180"/>
    <nd ref="608707"/>
    <nd ref="608709"/>
    <nd ref="608711"/>
    <nd ref="608713"/>
    <nd ref="608714"/>
    <nd ref="608717"/>
    <nd ref="608693"/>
    <nd ref="608695"/>
    <nd ref="608697"/>
    <nd ref="608699"/>
    <nd ref="608701"/>
    <nd ref="608703"/>
    <nd ref="608677"/>
    <nd ref="608679"/>
    <nd ref="608681"/>
    <nd ref="608682"/>
    <nd ref="608685"/>
    <nd ref="1554841171"/>
    <nd ref="608687"/>
    <nd ref="608689"/>
    <nd ref="608691"/>
    <nd ref="608667"/>
    <nd ref="608668"/>
    <nd ref="608671"/>
    <nd ref="608673"/>
    <nd ref="608675"/>
    <nd ref="608657"/>
    <nd ref="608658"/>
    <nd ref="608661"/>
    <tag k="expressway" v="yes"/>
    <tag k="highway" v="trunk"/>
    <tag k="int_ref" v="E 24"/>
    <tag k="lanes" v="2"/>
    <tag k="lit" v="no"/>
    <tag k="maxheight" v="default"/>
    <tag k="maxspeed" v="70 mph"/>
    <tag k="maxspeed:type" v="GB:nsl_dual"/>
    <tag k="national_highways:area" v="8"/>
    <tag k="oneway" v="yes"/>
    <tag k="operator" v="National Highways"/>
    <tag k="operator:wikidata" v="Q5760006"/>
    <tag k="ref" v="A14"/>
    <tag k="source:ref" v="local knowledge"/>
    <tag k="surface" v="asphalt"/>
  </way>
  <way id="4218017" version="13" timestamp="2025-03-27T13:35:56Z" changeset="164164777" uid="141442" user="CycleStreets">
    <nd ref="25905107"/>
    <nd ref="3631524788"/>
    <nd ref="25905040"/>
    <nd ref="25905041"/>
    <nd ref="7702599146"/>
    <nd ref="25063267"/>
    <nd ref="3631524779"/>
    <nd ref="25905042"/>
    <nd ref="25905043"/>
    <nd ref="1431045298"/>
    <nd ref="3631524775"/>
    <nd ref="25063269"/>
    <nd ref="3631526595"/>
    <nd ref="3631524770"/>
    <nd ref="25905044"/>
    <nd ref="10956915961"/>
    <nd ref="25905045"/>
    <nd ref="863463658"/>
    <tag k="abutters" v="residential"/>
    <tag k="highway" v="tertiary"/>
    <tag k="maxspeed" v="30 mph"/>
    <tag k="name" v="Lode Road"/>
    <tag k="sidewalk" v="both"/>
    <tag k="source:name" v="local knowledge"/>
    <tag k="surface" v="asphalt"/>
  </way>
  <way id="4218018" version="5" timestamp="2012-11-10T16:45:42Z" changeset="13819416" uid="6871" user="smsm1">
    <nd ref="25063259"/>
    <nd ref="1664515974"/>
    <nd ref="25905033"/>
    <nd ref="25905032"/>
    <nd ref="2006582320"/>
    <nd ref="1664515936"/>
    <tag k="cycleway:right" v="track"/>
    <tag k="highway" v="tertiary"/>
    <tag k="lit" v="no"/>
    <tag k="maxspeed" v="30 mph"/>
    <tag k="sidewalk" v="right"/>
  </way>
  <way id="4291072" version="4" timestamp="2015-07-02T12:58:38Z" changeset="32352438" uid="669183" user="Andy_W">
    <nd ref="25905046"/>
    <nd ref="3631524765"/>
    <nd ref="3631524782"/>
    <nd ref="3631524784"/>
    <nd ref="25905047"/>
    <nd ref="3631524764"/>
    <nd ref="3631524792"/>
    <nd ref="3631524790"/>
    <nd ref="25905048"/>
    <nd ref="3631524768"/>
    <nd ref="3631524766"/>
    <nd ref="3631524785"/>
    <nd ref="25063276"/>
    <nd ref="705651432"/>
    <nd ref="3631515902"/>
    <nd ref="25063365"/>
    <tag k="highway" v="tertiary"/>
    <tag k="name" v="Lode Road"/>
    <tag k="source:name" v="local knowledge"/>
  </way>
  <way id="4291073" version="3" timestamp="2019-09-03T15:56:06Z" changeset="74048805" uid="10170570" user="girinj">
    <nd ref="25905053"/>
    <nd ref="25905055"/>
    <nd ref="25905054"/>
    <nd ref="25905056"/>
    <nd ref="25905057"/>
    <nd ref="6769860950"/>
    <nd ref="25905058"/>
    <nd ref="25905053"/>
    <tag k="fixme" v="survey this, looks different on Bing"/>
    <tag k="highway" v="residential"/>
    <tag k="name" v="Pound Close"/>
    <tag k="source:name" v="local knowledge"/>
  </way>
  <way id="4291074" version="4" timestamp="2023-06-05T09:49:14Z" changeset="136964331" uid="5173844" user="ndrw6">
    <nd ref="10956915961"/>
    <nd ref="25905059"/>
    <nd ref="1816811388"/>
    <nd ref="25905072"/>
    <nd ref="1816811315"/>
    <nd ref="25905073"/>
    <nd ref="25905060"/>
    <nd ref="1816811445"/>
    <nd ref="25905061"/>
    <nd ref="1816811442"/>
    <nd ref="1816811336"/>
    <nd ref="25905062"/>
    <nd ref="1816811357"/>
    <nd ref="1816811437"/>
    <nd ref="25905063"/>
    <nd ref="1816811317"/>
    <nd ref="25905064"/>
    <nd ref="25905065"/>
    <nd ref="1816811433"/>
    <nd ref="25905066"/>
    <nd ref="1816811453"/>
    <nd ref="25905067"/>
    <nd ref="25905070"/>
    <nd ref="25905068"/>
    <nd ref="1816811434"/>
    <nd ref="25905069"/>
    <nd ref="1816811424"/>
    <nd ref="25905071"/>
    <nd ref="25905061"/>
    <tag k="highway" v="residential"/>
    <tag k="name" v="Jenyns Close"/>
    <tag k="source:name" v="local knowledge"/>
  </way>
  <way id="4291081" version="4" timestamp="2018-10-28T14:21:43Z" changeset="63951586" uid="8787837" user="iamgarretcleare">
    <nd ref="25905040"/>
    <nd ref="3631524787"/>
    <nd ref="1431045295"/>
    <nd ref="1431045279"/>
    <nd ref="25905103"/>
    <nd ref="25905104"/>
    <tag k="highway" v="residential"/>
    <tag k="name" v="Bradford's Close"/>
    <tag k="source:name" v="local knowledge"/>
    <tag k="surface" v="asphalt"/>
  </way>
  <way id="4291082" version="2" timestamp="2012-07-02T10:55:40Z" changeset="12085685" uid="504708" user="HillWithSmallFields">
    <nd ref="25905041"/>
    <nd ref="25905101"/>
    <nd ref="1809819569"/>
    <nd ref="1809819648"/>
    <nd ref="1809819514"/>
    <nd ref="1809819515"/>
    <nd ref="25905102"/>
    <tag k="highway" v="residential"/>
    <tag k="name" v="College Close"/>
    <tag k="source:name" v="local knowledge"/>
  </way>
  <way id="4291083" version="3" timestamp="2012-07-06T10:58:15Z" changeset="12129045" uid="504708" user="HillWithSmallFields">
    <nd ref="25905039"/>
    <nd ref="1432515679"/>
    <nd ref="1432515705"/>
    <nd ref="1432515686"/>
    <nd ref="1814749689"/>
    <nd ref="25905105"/>
    <tag k="highway" v="residential"/>
    <tag k="name" v="The Pightle"/>
    <tag k="source:name" v="local knowledge"/>
  </way>
  <way id="4291084" version="3" timestamp="2012-11-10T16:45:42Z" changeset="13819416" uid="6871" user="smsm1">
    <nd ref="25905107"/>
    <nd ref="1431045306"/>
    <nd ref="1431045270"/>
    <nd ref="1431045275"/>
    <nd ref="25905106"/>
    <tag k="highway" v="residential"/>
    <tag k="lit" v="yes"/>
    <tag k="maxspeed" v="30 mph"/>
    <tag k="sidewalk" v="left"/>
  </way>
  <way id="4291086" version="11" timestamp="2023-08-31T23:19:36Z" changeset="140656334" uid="493595" user="Yorvik Prestigitator">
    <nd ref="25063265"/>
    <nd ref="11159895660"/>
    <nd ref="1431045297"/>
    <nd ref="1431045281"/>
    <nd ref="25905106"/>
    <nd ref="25905039"/>
    <nd ref="8918802421"/>
    <nd ref="25063263"/>
    <nd ref="25905038"/>
    <nd ref="2006582319"/>
    <tag k="abutters" v="residential"/>
    <tag k="highway" v="tertiary"/>
    <tag k="lit" v="yes"/>
    <tag k="maxspeed" v="30 mph"/>
    <tag k="name" v="Tunbridge Lane"/>
    <tag k="sidewalk" v="both"/>
    <tag k="source:name" v="local knowledge"/>
  </way>
  <way id="4291087" version="3" timestamp="2012-11-10T16:45:42Z" changeset="13819416" uid="6871" user="smsm1">
    <nd ref="25905035"/>
    <nd ref="1814760421"/>
    <nd ref="1814760447"/>
    <nd ref="25905111"/>
    <nd ref="1814760357"/>
    <nd ref="1814760362"/>
    <nd ref="1814760376"/>
    <nd ref="25905112"/>
    <tag k="highway" v="residential"/>
    <tag k="maxspeed" v="30 mph"/>
    <tag k="name" v="Thomas Christian Way"/>
    <tag k="source:name" v="local knowledge"/>
  </way>
  <way id="4291088" version="2" timestamp="2012-07-06T11:08:33Z" changeset="12129045" uid="504708" user="HillWithSmallFields">
    <nd ref="25905111"/>
    <nd ref="1814760407"/>
    <nd ref="1814760427"/>
    <nd ref="1814760477"/>
    <nd ref="1814760309"/>
    <nd ref="1814760484"/>
    <nd ref="1814760312"/>
    <nd ref="25905113"/>
    <nd ref="1814760316"/>
    <nd ref="1814760343"/>
    <nd ref="25905114"/>
    <tag k="highway" v="residential"/>
    <tag k="name" v="Peacock Drive"/>
    <tag k="source:name" v="local knowledge"/>
  </way>
  <way id="4291092" version="4" timestamp="2023-07-08T15:55:59Z" changeset="138268902" uid="281267" user="smb1001">
    <nd ref="25905037"/>
    <nd ref="25905125"/>
    <nd ref="1813963489"/>
    <nd ref="1813963504"/>
    <nd ref="1813963488"/>
    <nd ref="1813963510"/>
    <nd ref="1813963525"/>
    <tag k="highway" v="residential"/>
    <tag k="name" v="Lysander Close"/>
  </way>
  <way id="4291093" version="2" timestamp="2011-09-14T09:56:19Z" changeset="9297727" uid="504708" user="HillWithSmallFields">
    <nd ref="25905038"/>
    <nd ref="1432515672"/>
    <nd ref="1432515673"/>
    <nd ref="1432515671"/>
    <nd ref="25905126"/>
    <tag k="highway" v="residential"/>
    <tag k="name" v="Rowley Gardens"/>
    <tag k="source:name" v="local knowledge"/>
  </way>
  <way id="4291094" version="3" timestamp="2019-03-08T17:10:34Z" changeset="67931279" uid="281267" user="smb1001">
    <nd ref="25063263"/>
    <nd ref="1432515687"/>
    <nd ref="25905127"/>
    <nd ref="25905129"/>
    <nd ref="25905130"/>
    <nd ref="1432515681"/>
    <nd ref="25905131"/>
    <nd ref="25905132"/>
    <nd ref="25905133"/>
    <nd ref="25905134"/>
    <tag k="highway" v="residential"/>
    <tag k="name" v="Tunbridge Close"/>
    <tag k="source:name" v="local knowledge"/>
  </way>
  <way id="4291095" version="4" timestamp="2012-11-10T16:45:40Z" changeset="13819416" uid="6871" user="smsm1">
    <nd ref="25905135"/>
    <nd ref="25905136"/>
    <nd ref="1809883272"/>
    <nd ref="25905137"/>
    <nd ref="25905138"/>
    <nd ref="25905139"/>
    <nd ref="25905140"/>
    <nd ref="1809883401"/>
    <nd ref="20960621"/>
    <nd ref="25905141"/>
    <nd ref="25905142"/>
    <tag k="abutters" v="residential"/>
    <tag k="highway" v="tertiary"/>
    <tag k="lanes" v="2"/>
    <tag k="lit" v="yes"/>
    <tag k="maxspeed" v="30 mph"/>
    <tag k="name" v="Bell Road"/>
    <tag k="sidewalk" v="both"/>
    <tag k="source:name" v="local knowledge"/>
  </way>
  <way id="4291096" version="11" timestamp="2025-03-08T18:27:15Z" changeset="163375146" uid="1287673" user="sloerunner">
    <nd ref="25905143"/>
    <nd ref="1813702589"/>
    <nd ref="1813702588"/>
    <nd ref="1431045273"/>
    <nd ref="25905211"/>
    <nd ref="25905210"/>
    <nd ref="25905209"/>
    <nd ref="1811214347"/>
    <nd ref="1811214149"/>
    <nd ref="25905208"/>
    <nd ref="1811214014"/>
    <nd ref="1432530924"/>
    <nd ref="1811214201"/>
    <nd ref="25905207"/>
    <nd ref="1811214310"/>
    <nd ref="1432530985"/>
    <nd ref="25905200"/>
    <nd ref="1432530971"/>
    <nd ref="25905199"/>
    <nd ref="1432530974"/>
    <nd ref="25905198"/>
    <nd ref="2777132874"/>
    <nd ref="25905197"/>
    <nd ref="25905196"/>
    <nd ref="1431849401"/>
    <nd ref="1811206539"/>
    <nd ref="12645856426"/>
    <nd ref="25905195"/>
    <nd ref="25905194"/>
    <nd ref="1811206643"/>
    <nd ref="25905193"/>
    <nd ref="25905192"/>
    <nd ref="1218864939"/>
    <nd ref="25905185"/>
    <nd ref="25905176"/>
    <nd ref="25905172"/>
    <nd ref="25905169"/>
    <nd ref="25905166"/>
    <nd ref="1431849397"/>
    <nd ref="25905160"/>
    <tag k="highway" v="residential"/>
    <tag k="name" v="Beechwood Avenue"/>
    <tag k="source:name" v="local knowledge"/>
    <tag k="surface" v="asphalt"/>
  </way>
  <way id="4291097" version="3" timestamp="2017-05-16T09:52:55Z" changeset="48726098" uid="54313" user="AliceB">
    <nd ref="25905166"/>
    <nd ref="1431849370"/>
    <nd ref="1431849387"/>
    <nd ref="1431849383"/>
    <nd ref="25905167"/>
    <nd ref="1431849390"/>
    <nd ref="1431849361"/>
    <nd ref="25905168"/>
    <tag k="highway" v="residential"/>
    <tag k="name" v="Maple Close"/>
    <tag k="source:name" v="local knowledge"/>
    <tag k="surface" v="asphalt"/>
  </way>
  <way id="4291098" version="4" timestamp="2014-04-08T13:12:18Z" changeset="21571216" uid="262676" user="risticus">
    <nd ref="25905176"/>
    <nd ref="1431849395"/>
    <nd ref="1431849392"/>
    <nd ref="25905177"/>
    <nd ref="1813897536"/>
    <nd ref="25905178"/>
    <nd ref="1813897706"/>
    <nd ref="1813898034"/>
    <nd ref="25905179"/>
    <nd ref="2777132873"/>
    <nd ref="25905180"/>
    <nd ref="25905181"/>
    <nd ref="25905182"/>
    <tag k="highway" v="residential"/>
    <tag k="name" v="Cedar Walk"/>
    <tag k="source:name" v="local knowledge"/>
  </way>
  <way id="4291099" version="1" timestamp="2007-02-14T11:53:46Z" changeset="216212" uid="3582" user="davidearl">
    <nd ref="25905184"/>
    <nd ref="25905182"/>
    <nd ref="25905183"/>
    <tag k="created_by" v="JOSM"/>
    <tag k="highway" v="residential"/>
    <tag k="name" v="Cedar Walk"/>
    <tag k="source:name" v="local knowledge"/>
  </way>
  <way id="4291100" version="4" timestamp="2025-03-08T18:27:15Z" changeset="163375146" uid="1287673" user="sloerunner">
    <nd ref="25905185"/>
    <nd ref="12645856458"/>
    <nd ref="25905186"/>
    <nd ref="25905187"/>
    <nd ref="1811180945"/>
    <nd ref="1811180927"/>
    <nd ref="1811180944"/>
    <nd ref="1811180940"/>
    <nd ref="25905188"/>
    <nd ref="1811180943"/>
    <nd ref="1811180947"/>
    <nd ref="25905189"/>
    <nd ref="25905190"/>
    <tag k="highway" v="residential"/>
    <tag k="name" v="Spring Lane"/>
    <tag k="source:name" v="local knowledge"/>
    <tag k="surface" v="asphalt"/>
  </way>
  <way id="4291101" version="3" timestamp="2017-05-17T20:33:03Z" changeset="48772642" uid="54313" user="AliceB">
    <nd ref="25905189"/>
    <nd ref="25905191"/>
    <nd ref="1218928799"/>
    <tag k="highway" v="residential"/>
    <tag k="name" v="Spring Lane"/>
    <tag k="source:name" v="local knowledge"/>
    <tag k="surface" v="asphalt"/>
  </way>
  <way id="4291102" version="3" timestamp="2016-09-05T13:43:00Z" changeset="41931190" uid="281267" user="smb1001">
    <nd ref="25905193"/>
    <nd ref="25905217"/>
    <nd ref="25905218"/>
    <tag k="highway" v="residential"/>
    <tag k="name" v="Rowan Close"/>
    <tag k="source:name" v="local knowledge"/>
  </way>
  <way id="4291103" version="4" timestamp="2017-05-19T17:42:59Z" changeset="48827506" uid="84263" user="Robert Whittaker">
    <nd ref="25905197"/>
    <nd ref="25905201"/>
    <nd ref="1432530931"/>
    <nd ref="25905202"/>
    <nd ref="1811214229"/>
    <nd ref="25905203"/>
    <tag k="designation" v="public_footpath"/>
    <tag k="foot" v="designated"/>
    <tag k="highway" v="residential"/>
    <tag k="name" v="Vineyard Walk"/>
    <tag k="prow_ref" v="Bottisham FP 2"/>
    <tag k="source:designation" v="cambridgeshire_county_council_prow_gis_data"/>
    <tag k="source:name" v="local knowledge"/>
    <tag k="source:prow_ref" v="cambridgeshire_county_council_prow_gis_data"/>
  </way>
  <way id="4291104" version="1" timestamp="2007-02-14T11:53:46Z" changeset="216212" uid="3582" user="davidearl">
    <nd ref="25905201"/>
    <nd ref="25905204"/>
    <tag k="created_by" v="JOSM"/>
    <tag k="highway" v="residential"/>
    <tag k="name" v="Willow Way"/>
    <tag k="source:name" v="local knowledge"/>
  </way>
  <way id="4291105" version="2" timestamp="2011-09-14T10:26:25Z" changeset="9297727" uid="504708" user="HillWithSmallFields">
    <nd ref="25905200"/>
    <nd ref="25905220"/>
    <nd ref="1432530935"/>
    <nd ref="1432530950"/>
    <nd ref="1432530934"/>
    <nd ref="25905221"/>
    <tag k="highway" v="residential"/>
    <tag k="name" v="Mulberry Close"/>
    <tag k="source:name" v="local knowledge"/>
  </way>
  <way id="4291106" version="2" timestamp="2012-07-03T12:33:14Z" changeset="12099254" uid="504708" user="HillWithSmallFields">
    <nd ref="25905209"/>
    <nd ref="25905205"/>
    <nd ref="1811214044"/>
    <nd ref="1811214359"/>
    <nd ref="1811214131"/>
    <nd ref="1811214079"/>
    <nd ref="1811214227"/>
    <nd ref="1811214078"/>
    <nd ref="1811214202"/>
    <nd ref="1811214196"/>
    <nd ref="1811214210"/>
    <nd ref="25905205"/>
    <tag k="highway" v="residential"/>
    <tag k="name" v="Trinity Close"/>
    <tag k="source:name" v="local knowledge"/>
  </way>
  <way id="4291107" version="7" timestamp="2021-07-14T08:12:00Z" changeset="107959911" uid="9641463" user="branib">
    <nd ref="25905210"/>
    <nd ref="1813702582"/>
    <nd ref="1813702578"/>
    <nd ref="25905212"/>
    <nd ref="1813803541"/>
    <nd ref="8918790012"/>
    <nd ref="25905214"/>
    <nd ref="25905215"/>
    <nd ref="1813803610"/>
    <nd ref="1218874055"/>
    <nd ref="2777132865"/>
    <nd ref="4330070364"/>
    <nd ref="25905216"/>
    <tag k="highway" v="residential"/>
    <tag k="name" v="Downing Close"/>
    <tag k="source:name" v="local knowledge"/>
  </way>
  <way id="4291109" version="2" timestamp="2012-07-05T12:05:03Z" changeset="12119712" uid="504708" user="HillWithSmallFields">
    <nd ref="25905211"/>
    <nd ref="25905222"/>
    <nd ref="1813702556"/>
    <nd ref="1813702580"/>
    <nd ref="25905269"/>
    <nd ref="1813702575"/>
    <nd ref="1813702587"/>
    <nd ref="25905270"/>
    <nd ref="1813702572"/>
    <nd ref="1813702596"/>
    <nd ref="25905271"/>
    <nd ref="1813702579"/>
    <nd ref="1813702555"/>
    <nd ref="25905222"/>
    <tag k="highway" v="residential"/>
    <tag k="source:name" v="local knowledge"/>
  </way>
  <way id="4291110" version="4" timestamp="2025-03-08T18:27:15Z" changeset="163375146" uid="1287673" user="sloerunner">
    <nd ref="25905172"/>
    <nd ref="12645856457"/>
    <nd ref="25905280"/>
    <nd ref="25905173"/>
    <nd ref="25905174"/>
    <nd ref="1811179250"/>
    <nd ref="25905175"/>
    <tag k="highway" v="residential"/>
    <tag k="name" v="West Walk"/>
    <tag k="source:name" v="local knowledge"/>
    <tag k="surface" v="paved"/>
  </way>
  <way id="4291112" version="2" timestamp="2012-07-09T12:14:34Z" changeset="12161207" uid="504708" user="HillWithSmallFields">
    <nd ref="25905144"/>
    <nd ref="1818838050"/>
    <nd ref="25905145"/>
    <nd ref="1818838089"/>
    <nd ref="25905146"/>
    <nd ref="1818837940"/>
    <nd ref="25905147"/>
    <nd ref="1818837982"/>
    <nd ref="25905148"/>
    <nd ref="25905149"/>
    <tag k="highway" v="residential"/>
    <tag k="name" v="Stocks Close"/>
    <tag k="source:name" v="local knowledge"/>
  </way>
  <way id="4291115" version="3" timestamp="2012-06-29T14:45:11Z" changeset="12057313" uid="504708" user="HillWithSmallFields">
    <nd ref="25905136"/>
    <nd ref="25905223"/>
    <nd ref="25905224"/>
    <nd ref="25905225"/>
    <nd ref="1806185292"/>
    <nd ref="25905226"/>
    <tag k="highway" v="residential"/>
    <tag k="name" v="St Peters Field"/>
    <tag k="source:name" v="local knowledge"/>
  </way>
  <way id="4291116" version="2" timestamp="2012-07-02T12:25:39Z" changeset="12085685" uid="504708" user="HillWithSmallFields">
    <nd ref="25905138"/>
    <nd ref="1809883345"/>
    <nd ref="25905228"/>
    <tag k="highway" v="residential"/>
    <tag k="name" v="Howlett Way"/>
    <tag k="source:name" v="local knowledge"/>
  </way>
  <way id="4291117" version="1" timestamp="2007-02-14T11:53:47Z" changeset="216212" uid="3582" user="davidearl">
    <nd ref="25905137"/>
    <nd ref="25905227"/>
    <tag k="created_by" v="JOSM"/>
    <tag k="highway" v="residential"/>
    <tag k="name" v="Wisbeach Close"/>
    <tag k="source:name" v="local knowledge"/>
  </way>
  <way id="4291120" version="3" timestamp="2012-06-29T14:23:24Z" changeset="12056331" uid="504708" user="HillWithSmallFields">
    <nd ref="25905158"/>
    <nd ref="1806107349"/>
    <nd ref="1806170997"/>
    <nd ref="25905159"/>
    <tag k="highway" v="residential"/>
    <tag k="name" v="Parsonage Barns"/>
    <tag k="source:name" v="local knowledge"/>
  </way>
  <way id="4303130" version="6" timestamp="2024-12-31T22:53:34Z" changeset="160849955" uid="5229644" user="Nathan_A_RF">
    <nd ref="20960333"/>
    <nd ref="1895889281"/>
    <tag k="highway" v="tertiary"/>
    <tag k="maxspeed" v="60 mph"/>
    <tag k="maxspeed:type" v="GB:nsl_single"/>
    <tag k="name" v="High Street"/>
    <tag k="source:name" v="local knowledge"/>
    <tag k="surface" v="asphalt"/>
  </way>
  <way id="4678970" version="5" timestamp="2024-12-31T22:56:40Z" changeset="160850000" uid="5229644" user="Nathan_A_RF">
    <nd ref="20960238"/>
    <nd ref="12466187779"/>
    <nd ref="20960186"/>
    <nd ref="20960593"/>
    <nd ref="1115631136"/>
    <nd ref="20960636"/>
    <tag k="highway" v="unclassified"/>
    <tag k="maxspeed" v="60 mph"/>
    <tag k="maxspeed:type" v="GB:nsl_single"/>
    <tag k="name" v="Wilbraham Road"/>
  </way>
  <way id="4678973" version="1" timestamp="2007-05-28T16:43:57Z" changeset="70569" uid="3582" user="davidearl">
    <nd ref="25905045"/>
    <nd ref="25905053"/>
    <tag k="created_by" v="JOSM"/>
    <tag k="highway" v="residential"/>
    <tag k="name" v="Pound Close"/>
    <tag k="source:name" v="local knowledge"/>
  </way>
  <way id="24270875" version="5" timestamp="2021-04-16T21:04:54Z" changeset="103081045" uid="242345" user="confusedbuffalo">
    <nd ref="20960518"/>
    <nd ref="1664537592"/>
    <nd ref="25905135"/>
    <tag k="cycleway:left" v="track"/>
    <tag k="highway" v="tertiary"/>
    <tag k="lanes" v="2"/>
    <tag k="lit" v="yes"/>
    <tag k="maxspeed" v="60 mph"/>
    <tag k="maxspeed:type" v="GB:nsl_single"/>
    <tag k="name" v="Bell Road"/>
    <tag k="sidewalk" v="left"/>
    <tag k="source:name" v="local knowledge"/>
  </way>
  <way id="24270876" version="5" timestamp="2018-10-28T14:21:44Z" changeset="63951586" uid="8787837" user="iamgarretcleare">
    <nd ref="25905142"/>
    <nd ref="3631524780"/>
    <nd ref="25063265"/>
    <tag k="abutters" v="residential"/>
    <tag k="highway" v="tertiary"/>
    <tag k="lit" v="yes"/>
    <tag k="maxspeed" v="30 mph"/>
    <tag k="name" v="High Street"/>
    <tag k="sidewalk" v="both"/>
    <tag k="source:name" v="local knowledge"/>
    <tag k="surface" v="asphalt"/>
  </way>
  <way id="24270877" version="4" timestamp="2018-10-28T14:21:44Z" changeset="63951586" uid="8787837" user="iamgarretcleare">
    <nd ref="25063265"/>
    <nd ref="25905107"/>
    <tag k="abutters" v="residential"/>
    <tag k="highway" v="tertiary"/>
    <tag k="name" v="High Street"/>
    <tag k="source:name" v="local knowledge"/>
    <tag k="surface" v="asphalt"/>
  </way>
  <way id="55545801" version="14" timestamp="2024-12-31T22:52:14Z" changeset="160849930" uid="5229644" user="Nathan_A_RF">
    <nd ref="20960333"/>
    <nd ref="3631524763"/>
    <nd ref="1419255328"/>
    <nd ref="3631524781"/>
    <nd ref="1419255345"/>
    <nd ref="3631524774"/>
    <nd ref="20960225"/>
    <nd ref="3631524778"/>
    <nd ref="1419255324"/>
    <nd ref="1419255314"/>
    <nd ref="1419255334"/>
    <nd ref="3631524777"/>
    <nd ref="20960456"/>
    <nd ref="3631524771"/>
    <nd ref="20960524"/>
    <nd ref="20960560"/>
    <nd ref="1429216285"/>
    <nd ref="1428068624"/>
    <nd ref="20960507"/>
    <nd ref="1428087131"/>
    <nd ref="1428087107"/>
    <nd ref="20960443"/>
    <nd ref="1428087087"/>
    <nd ref="20960629"/>
    <nd ref="20960210"/>
    <nd ref="2867952808"/>
    <nd ref="20960623"/>
    <nd ref="20960553"/>
    <nd ref="1428087066"/>
    <nd ref="20960447"/>
    <nd ref="1428097330"/>
    <nd ref="1428087172"/>
    <nd ref="1428097314"/>
    <nd ref="1415500830"/>
    <nd ref="20960245"/>
    <nd ref="20960638"/>
    <nd ref="11736783140"/>
    <nd ref="8762567235"/>
    <nd ref="11736783146"/>
    <nd ref="20960599"/>
    <tag k="highway" v="primary"/>
    <tag k="maxspeed" v="60 mph"/>
    <tag k="maxspeed:type" v="GB:nsl_single"/>
    <tag k="old_ref" v="A45"/>
    <tag k="ref" v="A1303"/>
  </way>
  <way id="55604550" version="6" timestamp="2025-04-04T18:43:40Z" changeset="164524160" uid="953779" user="Adam Edwards">
    <nd ref="5250986"/>
    <nd ref="1664515971"/>
    <nd ref="5250032"/>
    <nd ref="12729554964"/>
    <nd ref="5249958"/>
    <nd ref="12623969121"/>
    <nd ref="5249961"/>
    <tag k="highway" v="secondary"/>
    <tag k="maxspeed" v="60 mph"/>
    <tag k="maxspeed:type" v="GB:nsl_single"/>
    <tag k="name" v="Swaffham Road"/>
    <tag k="ref" v="B1102"/>
  </way>
  <way id="55605702" version="14" timestamp="2024-12-31T22:52:14Z" changeset="160849930" uid="5229644" user="Nathan_A_RF">
    <nd ref="20960496"/>
    <nd ref="1430514595"/>
    <nd ref="20960369"/>
    <nd ref="1435821740"/>
    <nd ref="20960195"/>
    <nd ref="1435821703"/>
    <nd ref="1435821735"/>
    <nd ref="1664537663"/>
    <nd ref="20960600"/>
    <nd ref="1664537671"/>
    <nd ref="1435821759"/>
    <nd ref="1435821709"/>
    <nd ref="1664537689"/>
    <nd ref="20960514"/>
    <nd ref="2006582318"/>
    <tag k="highway" v="primary"/>
    <tag k="lanes" v="2"/>
    <tag k="lit" v="no"/>
    <tag k="maxspeed" v="60 mph"/>
    <tag k="maxspeed:type" v="GB:nsl_single"/>
    <tag k="name" v="Newmarket Road"/>
    <tag k="old_ref" v="A45"/>
    <tag k="ref" v="A1303"/>
    <tag k="sidewalk" v="separate"/>
  </way>
  <way id="72727366" version="3" timestamp="2025-03-27T13:35:56Z" changeset="164164777" uid="141442" user="CycleStreets">
    <nd ref="25905052"/>
    <nd ref="3631526596"/>
    <nd ref="3631524773"/>
    <nd ref="25905051"/>
    <nd ref="25063273"/>
    <nd ref="25063274"/>
    <nd ref="25905046"/>
    <tag k="abutters" v="residential"/>
    <tag k="highway" v="tertiary"/>
    <tag k="name" v="Lode Road"/>
    <tag k="source:name" v="local knowledge"/>
  </way>
  <way id="97655980" version="6" timestamp="2014-04-08T13:12:18Z" changeset="21571216" uid="262676" user="risticus">
    <nd ref="1818909533"/>
    <nd ref="2777132885"/>
    <nd ref="1818909578"/>
    <nd ref="1130586380"/>
    <nd ref="1432516447"/>
    <nd ref="1432516446"/>
    <nd ref="1130586379"/>
    <nd ref="1130586378"/>
    <tag k="highway" v="residential"/>
    <tag k="maxspeed" v="30 mph"/>
    <tag k="name" v="Ancient Meadows"/>
    <tag k="source:name" v="OS OpenData Locator"/>
  </way>
  <way id="105854732" version="2" timestamp="2017-05-19T17:42:59Z" changeset="48827506" uid="84263" user="Robert Whittaker">
    <nd ref="1218874056"/>
    <nd ref="25905203"/>
    <nd ref="1218874054"/>
    <tag k="highway" v="residential"/>
    <tag k="name" v="Vineyard Walk"/>
    <tag k="source:name" v="local knowledge"/>
  </way>
  <way id="127978831" version="5" timestamp="2019-03-25T06:51:04Z" changeset="68495028" uid="9451067" user="b-jazz-bot">
    <nd ref="1415248168"/>
    <nd ref="1415248422"/>
    <nd ref="1415248008"/>
    <nd ref="1415248128"/>
    <nd ref="1415247999"/>
    <nd ref="1415248123"/>
    <nd ref="1415247959"/>
    <nd ref="1415248404"/>
    <nd ref="1415248110"/>
    <nd ref="1415248415"/>
    <nd ref="1415248113"/>
    <nd ref="1415248394"/>
    <nd ref="1415248193"/>
    <nd ref="1415248375"/>
    <nd ref="1415248011"/>
    <nd ref="1415248077"/>
    <nd ref="1415248111"/>
    <nd ref="1415248371"/>
    <nd ref="1415248088"/>
    <nd ref="1415248070"/>
    <nd ref="1415248289"/>
    <nd ref="1415248247"/>
    <nd ref="1415248078"/>
    <nd ref="1415248043"/>
    <nd ref="1415248198"/>
    <nd ref="1415248133"/>
    <nd ref="1415248218"/>
    <nd ref="1415248314"/>
    <nd ref="1415248163"/>
    <nd ref="1415248001"/>
    <nd ref="1415248168"/>
    <tag k="amenity" v="events_venue"/>
    <tag k="building" v="yes"/>
    <tag k="name" v="Swynford Manor"/>
    <tag k="note" v="previously known as Swynford Paddocks Hotel"/>
    <tag k="website" v="https://swynfordmanor.com/"/>
  </way>
  <way id="129774854" version="2" timestamp="2012-07-05T12:05:02Z" changeset="12119712" uid="504708" user="HillWithSmallFields">
    <nd ref="1431045289"/>
    <nd ref="1813702568"/>
    <nd ref="1431045273"/>
    <tag k="highway" v="residential"/>
  </way>
  <way id="129840122" version="2" timestamp="2024-12-31T22:53:34Z" changeset="160849955" uid="5229644" user="Nathan_A_RF">
    <nd ref="20960173"/>
    <nd ref="12466197881"/>
    <nd ref="1431849399"/>
    <nd ref="12466197880"/>
    <nd ref="12466197879"/>
    <nd ref="1431849403"/>
    <tag k="highway" v="unclassified"/>
  </way>
  <way id="129915098" version="3" timestamp="2023-01-28T00:30:39Z" changeset="131792931" uid="3999" user="BarryMyles">
    <nd ref="1432515700"/>
    <nd ref="1432515689"/>
    <nd ref="1432515704"/>
    <nd ref="1814760494"/>
    <nd ref="1814760466"/>
    <nd ref="1432515702"/>
    <nd ref="1432515700"/>
    <tag k="addr:city" v="Bottisham"/>
    <tag k="addr:postcode" v="CB25 9DU"/>
    <tag k="addr:street" v="Tunbridge Lane"/>
    <tag k="building" v="yes"/>
    <tag k="name" v="Bottisham Telephone Exchange"/>
    <tag k="operator" v="Openreach"/>
    <tag k="operator:wikidata" v="Q7096543"/>
    <tag k="ref" v="EABTM"/>
    <tag k="telecom" v="exchange"/>
  </way>
  <way id="129916163" version="5" timestamp="2025-02-05T13:29:48Z" changeset="162165653" uid="84263" user="Robert Whittaker">
    <nd ref="1432526907"/>
    <nd ref="1432526926"/>
    <nd ref="1432526977"/>
    <nd ref="1432526919"/>
    <nd ref="1432526959"/>
    <nd ref="1432527027"/>
    <nd ref="1432526954"/>
    <nd ref="1432526911"/>
    <nd ref="1432526929"/>
    <nd ref="1432526975"/>
    <nd ref="1432527026"/>
    <nd ref="1432526978"/>
    <nd ref="1432526951"/>
    <nd ref="1432527019"/>
    <nd ref="1432526907"/>
    <tag k="amenity" v="doctors"/>
    <tag k="building" v="yes"/>
    <tag k="healthcare" v="doctor"/>
    <tag k="name" v="Bottisham Medical Practice"/>
    <tag k="ref:GB:cqc_location" v="1-552323926"/>
  </way>
  <way id="153812966" version="7" timestamp="2025-02-27T19:44:44Z" changeset="163026559" uid="5229644" user="Nathan_A_RF">
    <nd ref="25905029"/>
    <nd ref="1664515935"/>
    <tag k="bridge" v="yes"/>
    <tag k="cycleway:right" v="track"/>
    <tag k="highway" v="tertiary"/>
    <tag k="lanes" v="2"/>
    <tag k="lit" v="no"/>
    <tag k="maxspeed" v="60 mph"/>
    <tag k="maxspeed:type" v="GB:nsl_single"/>
    <tag k="note" v="known as Stone Bridge"/>
    <tag k="sidewalk" v="right"/>
  </way>
  <way id="169444847" version="4" timestamp="2017-05-17T20:36:21Z" changeset="48772652" uid="54313" user="AliceB">
    <nd ref="1806063036"/>
    <nd ref="1806062991"/>
    <tag k="highway" v="residential"/>
    <tag k="name" v="Woodward Drive"/>
  </way>
  <way id="169444849" version="2" timestamp="2019-03-08T17:10:34Z" changeset="67931279" uid="281267" user="smb1001">
    <nd ref="1806062964"/>
    <nd ref="1806062993"/>
    <nd ref="1806062980"/>
    <nd ref="1806063023"/>
    <nd ref="1806062975"/>
    <nd ref="1806063033"/>
    <nd ref="1806062992"/>
    <nd ref="1806063087"/>
    <nd ref="1806063074"/>
    <nd ref="1806063082"/>
    <nd ref="1806062962"/>
    <nd ref="1806062981"/>
    <nd ref="1806062964"/>
    <tag k="addr:housenumber" v="16"/>
    <tag k="addr:postcode" v="CB25 9DA"/>
    <tag k="addr:street" v="High Street"/>
    <tag k="amenity" v="pub"/>
    <tag k="building" v="yes"/>
    <tag k="name" v="The Bell"/>
    <tag k="wikidata" v="Q26604078"/>
  </way>
  <way id="169445425" version="3" timestamp="2017-04-02T19:13:21Z" changeset="47390625" uid="5603739" user="PikeUK">
    <nd ref="1806070041"/>
    <nd ref="1806070125"/>
    <nd ref="1806070030"/>
    <nd ref="1806070094"/>
    <nd ref="1806070156"/>
    <nd ref="1806070062"/>
    <nd ref="1806070058"/>
    <nd ref="1806070020"/>
    <nd ref="1806070041"/>
    <tag k="addr:city" v="Cambridge"/>
    <tag k="addr:housenumber" v="56"/>
    <tag k="addr:postcode" v="CB25 9DA"/>
    <tag k="addr:street" v="High Street"/>
    <tag k="building" v="yes"/>
    <tag k="name" v="EC Autocare"/>
    <tag k="shop" v="car_repair"/>
  </way>
  <way id="169448738" version="6" timestamp="2023-10-29T16:25:56Z" changeset="143320203" uid="504708" user="HillWithSmallFields">
    <nd ref="1806105200"/>
    <nd ref="1806105480"/>
    <nd ref="1806105491"/>
    <nd ref="1806105299"/>
    <nd ref="1806105202"/>
    <nd ref="1806105218"/>
    <nd ref="1806105558"/>
    <nd ref="1806105644"/>
    <nd ref="1806105586"/>
    <nd ref="1806105787"/>
    <nd ref="1806105340"/>
    <nd ref="1806105238"/>
    <nd ref="1806105699"/>
    <nd ref="1806105704"/>
    <nd ref="1806105548"/>
    <nd ref="1806105205"/>
    <nd ref="1806105542"/>
    <nd ref="1806105720"/>
    <nd ref="1806105803"/>
    <nd ref="1806105269"/>
    <nd ref="1806105771"/>
    <nd ref="1806105307"/>
    <nd ref="1806105200"/>
    <tag k="amenity" v="place_of_worship"/>
    <tag k="building" v="church"/>
    <tag k="denomination" v="anglican"/>
    <tag k="name" v="Holy Trinity (Bottisham Parish Church)"/>
    <tag k="ref:dove" v="14271"/>
    <tag k="religion" v="christian"/>
    <tag k="source:name" v="local knowledge"/>
    <tag k="wikidata" v="Q17527605"/>
  </way>
  <way id="169457322" version="4" timestamp="2017-05-17T20:36:39Z" changeset="48772642" uid="54313" user="AliceB">
    <nd ref="25905224"/>
    <nd ref="1806185328"/>
    <nd ref="1806185336"/>
    <nd ref="1806185322"/>
    <nd ref="1806185309"/>
    <nd ref="1806185315"/>
    <nd ref="1806185303"/>
    <nd ref="1806185290"/>
    <nd ref="1806185339"/>
    <nd ref="1806185326"/>
    <nd ref="1806185310"/>
    <nd ref="1806185300"/>
    <nd ref="1818838052"/>
    <nd ref="1806185297"/>
    <nd ref="1806185308"/>
    <nd ref="1806185312"/>
    <nd ref="1806185313"/>
    <nd ref="1806185307"/>
    <nd ref="1806185295"/>
    <nd ref="1806185314"/>
    <nd ref="1806185316"/>
    <nd ref="1806185293"/>
    <nd ref="1806185334"/>
    <nd ref="1806185327"/>
    <nd ref="1806185306"/>
    <tag k="highway" v="residential"/>
    <tag k="name" v="Ox Meadow"/>
    <tag k="source:name" v="OS OpenData Locator"/>
    <tag k="surface" v="paved"/>
  </way>
  <way id="169457323" version="2" timestamp="2012-11-10T16:45:41Z" changeset="13819416" uid="6871" user="smsm1">
    <nd ref="1806185300"/>
    <nd ref="1806185302"/>
    <nd ref="1806185330"/>
    <tag k="highway" v="residential"/>
    <tag k="name" v="Bendish Lane"/>
    <tag k="source:name" v="OS OpenData Locator"/>
  </way>
  <way id="169457326" version="3" timestamp="2012-11-10T18:08:57Z" changeset="13819416" uid="6871" user="smsm1">
    <nd ref="1806185309"/>
    <nd ref="1806185299"/>
    <nd ref="1806185305"/>
    <nd ref="1806185337"/>
    <nd ref="1806185332"/>
    <nd ref="1806185320"/>
    <nd ref="1806185335"/>
    <nd ref="1806185317"/>
    <tag k="highway" v="residential"/>
  </way>
  <way id="169819802" version="3" timestamp="2024-03-06T12:03:39Z" changeset="148291327" uid="5603739" user="PikeUK">
    <nd ref="1809783100"/>
    <nd ref="1809782997"/>
    <nd ref="1809783042"/>
    <nd ref="1809783033"/>
    <nd ref="1809782986"/>
    <nd ref="1809783038"/>
    <nd ref="1809783100"/>
    <tag k="building" v="yes"/>
    <tag k="name" v="Bottisham Vehicle Services"/>
    <tag k="shop" v="car_repair"/>
  </way>
  <way id="169828927" version="2" timestamp="2025-04-20T12:40:39Z" changeset="165192086" uid="547425" user="ssb22">
    <nd ref="1809871576"/>
    <nd ref="1809871530"/>
    <nd ref="1809871528"/>
    <nd ref="1809871548"/>
    <nd ref="1809871576"/>
    <tag k="addr:housenumber" v="5"/>
    <tag k="addr:street" v="Bell Road"/>
    <tag k="building" v="yes"/>
  </way>
  <way id="169828928" version="2" timestamp="2025-04-19T12:00:24Z" changeset="165150639" uid="547425" user="ssb22">
    <nd ref="1809871557"/>
    <nd ref="1809871538"/>
    <nd ref="1809871546"/>
    <nd ref="1809871572"/>
    <nd ref="1809871557"/>
    <tag k="addr:housenumber" v="7"/>
    <tag k="addr:street" v="Bell Road"/>
    <tag k="building" v="yes"/>
  </way>
  <way id="169830028" version="1" timestamp="2012-07-02T12:25:36Z" changeset="12085685" uid="504708" user="HillWithSmallFields">
    <nd ref="1809883282"/>
    <nd ref="25905228"/>
    <nd ref="1809883344"/>
    <nd ref="25905229"/>
    <tag k="highway" v="residential"/>
    <tag k="name" v="Howlett Way"/>
    <tag k="source:name" v="local knowledge"/>
  </way>
  <way id="169830030" version="2" timestamp="2025-04-19T12:00:23Z" changeset="165150639" uid="547425" user="ssb22">
    <nd ref="1809883312"/>
    <nd ref="1809883301"/>
    <nd ref="1809883273"/>
    <nd ref="1809883373"/>
    <nd ref="1809883352"/>
    <nd ref="1809883347"/>
    <nd ref="1809883359"/>
    <nd ref="1809883311"/>
    <nd ref="1809883368"/>
    <nd ref="1809883271"/>
    <nd ref="1809883312"/>
    <tag k="addr:housenumber" v="21"/>
    <tag k="addr:street" v="Bell Road"/>
    <tag k="building" v="yes"/>
  </way>
  <way id="169834818" version="2" timestamp="2025-04-19T11:30:15Z" changeset="165149444" uid="547425" user="ssb22">
    <nd ref="1809931427"/>
    <nd ref="1809931420"/>
    <nd ref="1809931446"/>
    <nd ref="1809931413"/>
    <nd ref="1809931427"/>
    <tag k="addr:housenumber" v="1-2"/>
    <tag k="addr:street" v="Wisbeach Close"/>
    <tag k="building" v="yes"/>
  </way>
  <way id="169837812" version="2" timestamp="2025-04-19T12:00:22Z" changeset="165150639" uid="547425" user="ssb22">
    <nd ref="1809959895"/>
    <nd ref="1809959925"/>
    <nd ref="1809959916"/>
    <nd ref="1809959924"/>
    <nd ref="1809959895"/>
    <tag k="addr:housenumber" v="45"/>
    <tag k="addr:street" v="Bell Road"/>
    <tag k="building" v="yes"/>
  </way>
  <way id="169837814" version="2" timestamp="2025-04-19T12:00:21Z" changeset="165150639" uid="547425" user="ssb22">
    <nd ref="1809959906"/>
    <nd ref="1809959957"/>
    <nd ref="1809959889"/>
    <nd ref="1809959926"/>
    <nd ref="1809959906"/>
    <tag k="addr:housenumber" v="57"/>
    <tag k="addr:street" v="Bell Road"/>
    <tag k="building" v="yes"/>
  </way>
  <way id="169970762" version="3" timestamp="2017-05-17T20:32:51Z" changeset="48772642" uid="54313" user="AliceB">
    <nd ref="1811179255"/>
    <nd ref="25905174"/>
    <tag k="highway" v="residential"/>
    <tag k="name" v="West Walk"/>
    <tag k="surface" v="asphalt"/>
  </way>
  <way id="170223161" version="2" timestamp="2016-09-05T13:42:59Z" changeset="41931190" uid="281267" user="smb1001">
    <nd ref="1813803626"/>
    <nd ref="1813803612"/>
    <nd ref="1813803542"/>
    <nd ref="1813803619"/>
    <nd ref="1813803626"/>
    <tag k="building" v="yes"/>
    <tag k="name" v="Royal British Legion"/>
  </way>
  <way id="170235976" version="4" timestamp="2016-07-11T16:56:57Z" changeset="40659619" uid="242345" user="confusedbuffalo">
    <nd ref="1813897825"/>
    <nd ref="1813898045"/>
    <nd ref="1813898010"/>
    <nd ref="1813897891"/>
    <nd ref="1813897736"/>
    <nd ref="1813898062"/>
    <nd ref="1813897507"/>
    <nd ref="1813897530"/>
    <nd ref="1813898083"/>
    <nd ref="1813898053"/>
    <nd ref="1813898065"/>
    <nd ref="1813897841"/>
    <nd ref="1813897720"/>
    <nd ref="1813897899"/>
    <nd ref="1813897845"/>
    <nd ref="1813897913"/>
    <nd ref="1813898055"/>
    <nd ref="1813897614"/>
    <nd ref="1813897547"/>
    <nd ref="1813898060"/>
    <nd ref="1813898015"/>
    <nd ref="1813897827"/>
    <nd ref="1813897940"/>
    <nd ref="1813898027"/>
    <nd ref="1813898084"/>
    <nd ref="1813897946"/>
    <nd ref="1813897825"/>
    <tag k="addr:housenumber" v="1,3"/>
    <tag k="addr:street" v="Beechwood Avenue"/>
    <tag k="building" v="residential"/>
  </way>
  <way id="170235986" version="3" timestamp="2016-07-11T16:57:44Z" changeset="40659619" uid="242345" user="confusedbuffalo">
    <nd ref="1813898032"/>
    <nd ref="1813897967"/>
    <nd ref="1813898080"/>
    <nd ref="1813897970"/>
    <nd ref="1813897618"/>
    <nd ref="1813897889"/>
    <nd ref="1813898003"/>
    <nd ref="1813897924"/>
    <nd ref="1813898064"/>
    <nd ref="1813897938"/>
    <nd ref="1813898022"/>
    <nd ref="1813897921"/>
    <nd ref="1813898032"/>
    <tag k="addr:housenumber" v="8"/>
    <tag k="addr:street" v="Cedar Walk"/>
    <tag k="building" v="house"/>
  </way>
  <way id="170235988" version="4" timestamp="2018-10-31T20:28:40Z" changeset="64059029" uid="5173844" user="ndrw6">
    <nd ref="1813897600"/>
    <nd ref="1813897901"/>
    <nd ref="1813897810"/>
    <nd ref="1813898057"/>
    <nd ref="1813898079"/>
    <nd ref="1813898061"/>
    <nd ref="1813897600"/>
    <tag k="addr:housenumber" v="11"/>
    <tag k="addr:postcode" v="CB25 9BE"/>
    <tag k="addr:street" v="Beechwood Avenue"/>
    <tag k="building" v="house"/>
  </way>
  <way id="170235990" version="3" timestamp="2016-07-11T16:57:14Z" changeset="40659619" uid="242345" user="confusedbuffalo">
    <nd ref="1813898069"/>
    <nd ref="1813897542"/>
    <nd ref="1813898059"/>
    <nd ref="1813897533"/>
    <nd ref="1813898033"/>
    <nd ref="1813898019"/>
    <nd ref="1813897752"/>
    <nd ref="1813897988"/>
    <nd ref="1813898067"/>
    <nd ref="1813897653"/>
    <nd ref="1813898001"/>
    <nd ref="1813897961"/>
    <nd ref="1813898006"/>
    <nd ref="1813898042"/>
    <nd ref="1813897592"/>
    <nd ref="1813897559"/>
    <nd ref="1813897887"/>
    <nd ref="1813897944"/>
    <nd ref="1813898066"/>
    <nd ref="1813897995"/>
    <nd ref="1813898069"/>
    <tag k="addr:housenumber" v="2,4,6"/>
    <tag k="addr:street" v="Cedar Walk"/>
    <tag k="building" v="residential"/>
  </way>
  <way id="170235999" version="3" timestamp="2016-07-11T16:56:58Z" changeset="40659619" uid="242345" user="confusedbuffalo">
    <nd ref="1813897790"/>
    <nd ref="1813897907"/>
    <nd ref="1813897837"/>
    <nd ref="1813897729"/>
    <nd ref="1813898071"/>
    <nd ref="1813898026"/>
    <nd ref="1813897607"/>
    <nd ref="1813897564"/>
    <nd ref="1813897997"/>
    <nd ref="1813897550"/>
    <nd ref="1813898047"/>
    <nd ref="1813898048"/>
    <nd ref="1813897790"/>
    <tag k="addr:housenumber" v="10"/>
    <tag k="addr:street" v="Cedar Walk"/>
    <tag k="building" v="house"/>
  </way>
  <way id="170236009" version="3" timestamp="2016-07-11T16:57:34Z" changeset="40659619" uid="242345" user="confusedbuffalo">
    <nd ref="1813898044"/>
    <nd ref="1813897567"/>
    <nd ref="1813897644"/>
    <nd ref="1813897812"/>
    <nd ref="1813897503"/>
    <nd ref="1813898036"/>
    <nd ref="1813897949"/>
    <nd ref="1813898011"/>
    <nd ref="1813898052"/>
    <nd ref="1813897830"/>
    <nd ref="1813898044"/>
    <tag k="addr:housenumber" v="5,7"/>
    <tag k="addr:street" v="Beechwood Avenue"/>
    <tag k="building" v="residential"/>
  </way>
  <way id="170236340" version="3" timestamp="2016-07-11T16:57:02Z" changeset="40659619" uid="242345" user="confusedbuffalo">
    <nd ref="1813901106"/>
    <nd ref="1813901043"/>
    <nd ref="1813901109"/>
    <nd ref="1813901067"/>
    <nd ref="1813901106"/>
    <tag k="addr:housenumber" v="12"/>
    <tag k="addr:street" v="Cedar Walk"/>
    <tag k="building" v="house"/>
  </way>
  <way id="170318119" version="1" timestamp="2012-07-06T11:08:31Z" changeset="12129045" uid="504708" user="HillWithSmallFields">
    <nd ref="1814760376"/>
    <nd ref="1814760359"/>
    <tag k="highway" v="residential"/>
  </way>
  <way id="170318123" version="1" timestamp="2012-07-06T11:08:32Z" changeset="12129045" uid="504708" user="HillWithSmallFields">
    <nd ref="1814760309"/>
    <nd ref="1814760511"/>
    <tag k="highway" v="residential"/>
  </way>
  <way id="170318126" version="1" timestamp="2012-07-06T11:08:32Z" changeset="12129045" uid="504708" user="HillWithSmallFields">
    <nd ref="1814760343"/>
    <nd ref="1814760474"/>
    <tag k="highway" v="residential"/>
  </way>
  <way id="170318127" version="1" timestamp="2012-07-06T11:08:32Z" changeset="12129045" uid="504708" user="HillWithSmallFields">
    <nd ref="1814760312"/>
    <nd ref="1814760349"/>
    <nd ref="1814760355"/>
    <nd ref="1814760314"/>
    <tag k="highway" v="residential"/>
  </way>
  <way id="170439113" version="2" timestamp="2014-04-08T13:12:19Z" changeset="21571216" uid="262676" user="risticus">
    <nd ref="25905043"/>
    <nd ref="1431045333"/>
    <nd ref="1815810461"/>
    <nd ref="1431045305"/>
    <nd ref="1815810510"/>
    <nd ref="1431045304"/>
    <nd ref="1815810496"/>
    <nd ref="25905099"/>
    <nd ref="1815805802"/>
    <nd ref="2777132886"/>
    <nd ref="1815810514"/>
    <nd ref="25905100"/>
    <nd ref="1815810517"/>
    <nd ref="1815810509"/>
    <nd ref="1815810489"/>
    <tag k="highway" v="residential"/>
    <tag k="name" v="Arber Close"/>
    <tag k="source:name" v="local knowledge"/>
  </way>
  <way id="170735245" version="2" timestamp="2025-04-21T10:40:25Z" changeset="165231950" uid="547425" user="ssb22">
    <nd ref="1818838009"/>
    <nd ref="1818837892"/>
    <nd ref="1818838083"/>
    <nd ref="1818838092"/>
    <nd ref="1818837992"/>
    <nd ref="1818837990"/>
    <nd ref="1818838009"/>
    <tag k="addr:housenumber" v="75"/>
    <tag k="addr:street" v="Ox Meadow"/>
    <tag k="building" v="yes"/>
  </way>
  <way id="170735767" version="2" timestamp="2025-04-21T10:23:46Z" changeset="165231296" uid="547425" user="ssb22">
    <nd ref="1818846485"/>
    <nd ref="1818846686"/>
    <nd ref="1818846605"/>
    <nd ref="1818846522"/>
    <nd ref="1818846637"/>
    <nd ref="1818846640"/>
    <nd ref="1818846691"/>
    <nd ref="1818846621"/>
    <nd ref="1818846485"/>
    <tag k="addr:housenumber" v="8"/>
    <tag k="addr:street" v="Bendish Lane"/>
    <tag k="building" v="yes"/>
  </way>
  <way id="170735780" version="3" timestamp="2025-04-21T10:22:58Z" changeset="165231258" uid="547425" user="ssb22">
    <nd ref="1818846551"/>
    <nd ref="1818846536"/>
    <nd ref="1818846478"/>
    <nd ref="1818846452"/>
    <nd ref="1818846551"/>
    <tag k="addr:housenumber" v="4-6"/>
    <tag k="addr:street" v="Bendish Lane"/>
    <tag k="building" v="yes"/>
  </way>
  <way id="170735782" version="2" timestamp="2025-04-21T10:19:38Z" changeset="165231089" uid="547425" user="ssb22">
    <nd ref="1818846438"/>
    <nd ref="1818846440"/>
    <nd ref="1818846584"/>
    <nd ref="1818846566"/>
    <nd ref="1818846545"/>
    <nd ref="1818846578"/>
    <nd ref="1818846438"/>
    <tag k="addr:housenumber" v="3"/>
    <tag k="addr:street" v="Bendish Lane"/>
    <tag k="building" v="yes"/>
  </way>
  <way id="170742873" version="1" timestamp="2012-07-09T12:58:05Z" changeset="12161207" uid="504708" user="HillWithSmallFields">
    <nd ref="1818884575"/>
    <nd ref="25905104"/>
    <nd ref="1818884576"/>
    <tag k="highway" v="residential"/>
  </way>
  <way id="170745401" version="2" timestamp="2017-05-17T20:37:24Z" changeset="48772652" uid="54313" user="AliceB">
    <nd ref="1818909475"/>
    <nd ref="1818909456"/>
    <nd ref="1818909533"/>
    <nd ref="1818909540"/>
    <nd ref="1818909526"/>
    <nd ref="1818909353"/>
    <nd ref="1818909469"/>
    <tag k="highway" v="residential"/>
    <tag k="name" v="Ancient Meadows"/>
  </way>
  <way id="179243199" version="5" timestamp="2024-12-31T22:52:14Z" changeset="160849930" uid="5229644" user="Nathan_A_RF">
    <nd ref="1895889281"/>
    <nd ref="1419255353"/>
    <nd ref="3631524786"/>
    <nd ref="1431849413"/>
    <nd ref="20960487"/>
    <tag k="highway" v="tertiary"/>
    <tag k="maxspeed" v="30 mph"/>
    <tag k="name" v="High Street"/>
    <tag k="source:name" v="local knowledge"/>
    <tag k="surface" v="asphalt"/>
  </way>
  <way id="179243206" version="4" timestamp="2025-02-27T19:44:44Z" changeset="163026559" uid="5229644" user="Nathan_A_RF">
    <nd ref="1664515936"/>
    <nd ref="1664515950"/>
    <nd ref="1664516017"/>
    <nd ref="25063257"/>
    <nd ref="1664516020"/>
    <nd ref="25063256"/>
    <nd ref="1664515991"/>
    <nd ref="1664515922"/>
    <nd ref="2777132882"/>
    <nd ref="25905031"/>
    <nd ref="25063254"/>
    <nd ref="1664515956"/>
    <nd ref="1664515946"/>
    <nd ref="25905030"/>
    <nd ref="1664515975"/>
    <nd ref="25063252"/>
    <nd ref="25905029"/>
    <tag k="cycleway:right" v="track"/>
    <tag k="highway" v="tertiary"/>
    <tag k="lanes" v="2"/>
    <tag k="lit" v="no"/>
    <tag k="maxspeed" v="60 mph"/>
    <tag k="maxspeed:type" v="GB:nsl_single"/>
    <tag k="sidewalk" v="right"/>
  </way>
  <way id="190062678" version="3" timestamp="2022-12-15T15:22:39Z" changeset="130120004" uid="3582" user="davidearl">
    <nd ref="25905035"/>
    <nd ref="25063262"/>
    <nd ref="1664515916"/>
    <nd ref="25063261"/>
    <nd ref="1664515933"/>
    <nd ref="1664515983"/>
    <nd ref="25905034"/>
    <nd ref="1664515924"/>
    <nd ref="1664515938"/>
    <nd ref="1664515953"/>
    <nd ref="1115841770"/>
    <nd ref="1664516027"/>
    <nd ref="25063259"/>
    <tag k="abutters" v="residential"/>
    <tag k="cycleway:right" v="track"/>
    <tag k="highway" v="tertiary"/>
    <tag k="lit" v="yes"/>
    <tag k="maxspeed" v="30 mph"/>
    <tag k="name" v="Tunbridge Lane"/>
    <tag k="sidewalk" v="right"/>
    <tag k="source:name" v="local knowledge"/>
  </way>
  <way id="190072477" version="2" timestamp="2024-12-31T22:52:14Z" changeset="160849930" uid="5229644" user="Nathan_A_RF">
    <nd ref="20960213"/>
    <nd ref="1664537587"/>
    <nd ref="1664537602"/>
    <nd ref="20960404"/>
    <nd ref="1664537599"/>
    <nd ref="1664537565"/>
    <nd ref="1664537623"/>
    <nd ref="1664537554"/>
    <nd ref="1664537617"/>
    <nd ref="20960175"/>
    <nd ref="1664537710"/>
    <nd ref="1664537692"/>
    <nd ref="1664537715"/>
    <nd ref="20960578"/>
    <nd ref="1415490410"/>
    <nd ref="20960459"/>
    <nd ref="1431849405"/>
    <nd ref="12466180066"/>
    <tag k="highway" v="primary"/>
    <tag k="lanes" v="2"/>
    <tag k="lit" v="yes"/>
    <tag k="maxspeed" v="60 mph"/>
    <tag k="maxspeed:type" v="GB:nsl_single"/>
    <tag k="name" v="Newmarket Road"/>
    <tag k="ref" v="A1303"/>
  </way>
  <way id="204987018" version="2" timestamp="2024-12-31T22:52:14Z" changeset="160849930" uid="5229644" user="Nathan_A_RF">
    <nd ref="2006582318"/>
    <nd ref="2006582317"/>
    <nd ref="20960213"/>
    <tag k="highway" v="primary"/>
    <tag k="lanes" v="2"/>
    <tag k="lit" v="yes"/>
    <tag k="maxspeed" v="60 mph"/>
    <tag k="maxspeed:type" v="GB:nsl_single"/>
    <tag k="name" v="Newmarket Road"/>
    <tag k="old_ref" v="A45"/>
    <tag k="ref" v="A1303"/>
    <tag k="sidewalk" v="separate"/>
  </way>
  <way id="219007116" version="3" timestamp="2018-10-31T20:28:41Z" changeset="64059029" uid="5173844" user="ndrw6">
    <nd ref="2282140028"/>
    <nd ref="2282140075"/>
    <nd ref="2282140029"/>
    <nd ref="2282140042"/>
    <nd ref="2282140009"/>
    <nd ref="2282140022"/>
    <nd ref="2282140047"/>
    <nd ref="2282139982"/>
    <nd ref="2282140069"/>
    <nd ref="2282139993"/>
    <nd ref="2282140028"/>
    <tag k="addr:postcode" v="CB25 9ED"/>
    <tag k="building" v="yes"/>
    <tag k="name" v="Bottisham Hall"/>
    <tag k="wikidata" v="Q17511193"/>
  </way>
  <way id="435067169" version="1" timestamp="2016-07-31T22:57:42Z" changeset="41155644" uid="553735" user="Johnmb">
    <nd ref="4330070359"/>
    <nd ref="4330070363"/>
    <nd ref="4330070353"/>
    <nd ref="4330070361"/>
    <nd ref="4330070359"/>
    <tag k="building" v="yes"/>
    <tag k="name" v="WW 2 Squash Court"/>
  </way>
  <way id="484408779" version="2" timestamp="2024-11-07T15:46:38Z" changeset="158861371" uid="5603739" user="PikeUK">
    <nd ref="1806070041"/>
    <nd ref="4771596625"/>
    <nd ref="4771596626"/>
    <nd ref="1806070020"/>
    <nd ref="1806070041"/>
    <tag k="addr:city" v="Cambridge"/>
    <tag k="addr:housenumber" v="56"/>
    <tag k="addr:postcode" v="CB25 9DA"/>
    <tag k="addr:street" v="High Street"/>
    <tag k="building" v="yes"/>
  </way>
  <way id="639803601" version="2" timestamp="2025-04-21T10:22:57Z" changeset="165231258" uid="547425" user="ssb22">
    <nd ref="6028163633"/>
    <nd ref="1818846448"/>
    <nd ref="1818846564"/>
    <nd ref="1818846646"/>
    <nd ref="1818846682"/>
    <nd ref="1818846630"/>
    <nd ref="1818846644"/>
    <nd ref="6028163632"/>
    <nd ref="6028163633"/>
    <tag k="addr:housenumber" v="10-14"/>
    <tag k="addr:postcode" v="CB25 9FP"/>
    <tag k="addr:street" v="Bendish Lane"/>
    <tag k="building" v="yes"/>
  </way>
  <way id="824894558" version="1" timestamp="2020-07-10T14:28:46Z" changeset="87822059" uid="10170579" user="volojusa">
    <nd ref="7702599146"/>
    <nd ref="7702599147"/>
    <nd ref="7702599155"/>
    <nd ref="7702599153"/>
    <nd ref="7702599148"/>
    <nd ref="7702599154"/>
    <nd ref="7702599156"/>
    <nd ref="7702599149"/>
    <nd ref="7702599150"/>
    <nd ref="7702599151"/>
    <nd ref="7702599152"/>
    <tag k="highway" v="residential"/>
  </way>
  <way id="1111974349" version="1" timestamp="2022-11-10T09:08:56Z" changeset="128722735" uid="14551809" user="JamesJamz">
    <nd ref="10173145318"/>
    <nd ref="10173145319"/>
    <nd ref="10173145320"/>
    <nd ref="10173145321"/>
    <nd ref="10173145322"/>
    <nd ref="10173145323"/>
    <nd ref="10173145318"/>
    <tag k="addr:housenumber" v="51"/>
    <tag k="addr:postcode" v="CB25 9FL"/>
    <tag k="addr:street" v="Ox Meadow"/>
    <tag k="building" v="yes"/>
  </way>
  <way id="1111974350" version="3" timestamp="2025-04-21T10:30:08Z" changeset="165231575" uid="547425" user="ssb22">
    <nd ref="10173145324"/>
    <nd ref="10173145318"/>
    <nd ref="10173145319"/>
    <nd ref="10173145325"/>
    <nd ref="10173145324"/>
    <tag k="addr:housenumber" v="49"/>
    <tag k="addr:postcode" v="CB25 9FL"/>
    <tag k="addr:street" v="Ox Meadow"/>
    <tag k="building" v="yes"/>
  </way>
  <way id="1111974351" version="3" timestamp="2025-04-21T10:30:07Z" changeset="165231575" uid="547425" user="ssb22">
    <nd ref="10173145326"/>
    <nd ref="10173145327"/>
    <nd ref="10173145324"/>
    <nd ref="10173145325"/>
    <nd ref="10173145326"/>
    <tag k="addr:housenumber" v="47"/>
    <tag k="addr:postcode" v="CB25 9FL"/>
    <tag k="addr:street" v="Ox Meadow"/>
    <tag k="building" v="yes"/>
  </way>
  <way id="1111974353" version="3" timestamp="2025-04-21T10:30:04Z" changeset="165231575" uid="547425" user="ssb22">
    <nd ref="10173145330"/>
    <nd ref="10173145328"/>
    <nd ref="10173145329"/>
    <nd ref="10173145331"/>
    <nd ref="10173145332"/>
    <nd ref="10173145330"/>
    <tag k="addr:housenumber" v="45"/>
    <tag k="addr:postcode" v="CB25 9FL"/>
    <tag k="addr:street" v="Ox Meadow"/>
    <tag k="building" v="yes"/>
  </way>
  <way id="1111974354" version="3" timestamp="2025-04-21T10:16:28Z" changeset="165230928" uid="547425" user="ssb22">
    <nd ref="10173145330"/>
    <nd ref="10173145332"/>
    <nd ref="10173145333"/>
    <nd ref="10173145334"/>
    <nd ref="10173145330"/>
    <tag k="addr:housenumber" v="43"/>
    <tag k="addr:postcode" v="CB25 9FL"/>
    <tag k="addr:street" v="Ox Meadow"/>
    <tag k="building" v="yes"/>
  </way>
  <way id="1111974355" version="2" timestamp="2025-04-21T10:30:09Z" changeset="165231575" uid="547425" user="ssb22">
    <nd ref="10173145335"/>
    <nd ref="10173145336"/>
    <nd ref="10173145333"/>
    <nd ref="10173145334"/>
    <nd ref="10173145335"/>
    <tag k="addr:housenumber" v="2"/>
    <tag k="addr:street" v="Bendish Lane"/>
    <tag k="building" v="yes"/>
  </way>
  <way id="1122320350" version="1" timestamp="2022-12-15T15:22:39Z" changeset="130120004" uid="3582" user="davidearl">
    <nd ref="2006582319"/>
    <nd ref="25905037"/>
    <nd ref="25905036"/>
    <nd ref="1130586378"/>
    <nd ref="6389799665"/>
    <nd ref="25905035"/>
    <tag k="abutters" v="residential"/>
    <tag k="highway" v="tertiary"/>
    <tag k="lit" v="yes"/>
    <tag k="maxspeed" v="30 mph"/>
    <tag k="name" v="Tunbridge Lane"/>
    <tag k="sidewalk" v="right"/>
    <tag k="source:name" v="local knowledge"/>
  </way>
  <way id="1207099804" version="2" timestamp="2025-04-21T10:32:38Z" changeset="165231692" uid="547425" user="ssb22">
    <nd ref="11185232473"/>
    <nd ref="11185232474"/>
    <nd ref="11185232475"/>
    <nd ref="11185232476"/>
    <nd ref="11185232477"/>
    <nd ref="11185232478"/>
    <nd ref="11185232479"/>
    <nd ref="11185232480"/>
    <nd ref="11185232481"/>
    <nd ref="11185232482"/>
    <nd ref="11185232483"/>
    <nd ref="11185232484"/>
    <nd ref="11185232485"/>
    <nd ref="11185232486"/>
    <nd ref="11185232473"/>
    <tag k="addr:housenumber" v="65-69"/>
    <tag k="addr:street" v="Ox Meadow"/>
    <tag k="building" v="yes"/>
    <tag k="source" v="microsoft/BuildingFootprints"/>
  </way>
  <way id="1207099805" version="2" timestamp="2025-04-21T10:30:06Z" changeset="165231575" uid="547425" user="ssb22">
    <nd ref="11185232487"/>
    <nd ref="11185232488"/>
    <nd ref="11185232489"/>
    <nd ref="11185232490"/>
    <nd ref="11185232487"/>
    <tag k="addr:housenumber" v="63"/>
    <tag k="addr:street" v="Ox Meadow"/>
    <tag k="building" v="yes"/>
    <tag k="source" v="microsoft/BuildingFootprints"/>
  </way>
  <way id="1207099806" version="2" timestamp="2025-04-21T10:30:05Z" changeset="165231575" uid="547425" user="ssb22">
    <nd ref="11185232491"/>
    <nd ref="11185232492"/>
    <nd ref="11185232493"/>
    <nd ref="11185232494"/>
    <nd ref="11185232495"/>
    <nd ref="11185232496"/>
    <nd ref="11185232491"/>
    <tag k="addr:housenumber" v="61"/>
    <tag k="addr:street" v="Ox Meadow"/>
    <tag k="building" v="yes"/>
    <tag k="source" v="microsoft/BuildingFootprints"/>
  </way>
  <way id="1207099808" version="2" timestamp="2025-04-21T10:30:03Z" changeset="165231575" uid="547425" user="ssb22">
    <nd ref="11185232501"/>
    <nd ref="11185232502"/>
    <nd ref="11185232503"/>
    <nd ref="11185232504"/>
    <nd ref="11185232505"/>
    <nd ref="11185232506"/>
    <nd ref="11185232507"/>
    <nd ref="11185232508"/>
    <nd ref="11185232509"/>
    <nd ref="11185232510"/>
    <nd ref="11185232501"/>
    <tag k="addr:housenumber" v="53-59"/>
    <tag k="addr:street" v="Ox Meadow"/>
    <tag k="building" v="yes"/>
    <tag k="source" v="microsoft/BuildingFootprints"/>
  </way>
  <way id="1207099811" version="2" timestamp="2025-04-21T10:39:25Z" changeset="165231913" uid="547425" user="ssb22">
    <nd ref="11185232520"/>
    <nd ref="11185232519"/>
    <nd ref="11185232521"/>
    <nd ref="11185232522"/>
    <nd ref="11185232520"/>
    <tag k="addr:housenumber" v="77"/>
    <tag k="addr:street" v="Ox Meadow"/>
    <tag k="building" v="yes"/>
  </way>
  <way id="1207099812" version="2" timestamp="2025-04-21T10:32:39Z" changeset="165231692" uid="547425" user="ssb22">
    <nd ref="11185232524"/>
    <nd ref="11185232523"/>
    <nd ref="11185232525"/>
    <nd ref="11185232526"/>
    <nd ref="11185232524"/>
    <tag k="addr:housenumber" v="79-81"/>
    <tag k="addr:street" v="Ox Meadow"/>
    <tag k="building" v="yes"/>
  </way>
  <way id="1258889607" version="2" timestamp="2025-02-27T19:44:44Z" changeset="163026559" uid="5229644" user="Nathan_A_RF">
    <nd ref="1664515935"/>
    <nd ref="1664515997"/>
    <nd ref="11702487361"/>
    <tag k="cycleway:right" v="track"/>
    <tag k="highway" v="tertiary"/>
    <tag k="lanes" v="2"/>
    <tag k="lit" v="no"/>
    <tag k="maxspeed" v="60 mph"/>
    <tag k="maxspeed:type" v="GB:nsl_single"/>
    <tag k="sidewalk" v="right"/>
  </way>
  <way id="1258889608" version="2" timestamp="2025-02-27T19:44:44Z" changeset="163026559" uid="5229644" user="Nathan_A_RF">
    <nd ref="11702487361"/>
    <nd ref="12623969122"/>
    <nd ref="25905028"/>
    <tag k="bridge" v="yes"/>
    <tag k="cycleway:right" v="track"/>
    <tag k="highway" v="tertiary"/>
    <tag k="lanes" v="2"/>
    <tag k="layer" v="1"/>
    <tag k="lit" v="no"/>
    <tag k="maxspeed" v="60 mph"/>
    <tag k="maxspeed:type" v="GB:nsl_single"/>
    <tag k="sidewalk" v="right"/>
  </way>
  <way id="1341088211" version="1" timestamp="2024-12-08T20:39:22Z" changeset="160069561" uid="5113580" user="Craske">
    <nd ref="1806185290"/>
    <nd ref="12405523300"/>
    <nd ref="12405533501"/>
    <nd ref="12405533502"/>
    <nd ref="12405533503"/>
    <nd ref="12405533504"/>
    <nd ref="12405533508"/>
    <nd ref="12405533505"/>
    <nd ref="12405533506"/>
    <nd ref="12405533509"/>
    <nd ref="12405533507"/>
    <tag k="highway" v="residential"/>
    <tag k="name" v="Bradens Field"/>
  </way>
  <way id="1341088212" version="1" timestamp="2024-12-08T20:39:22Z" changeset="160069561" uid="5113580" user="Craske">
    <nd ref="12405533509"/>
    <nd ref="12405533510"/>
    <nd ref="12405533511"/>
    <nd ref="12405533512"/>
    <nd ref="12405533513"/>
    <nd ref="12405533514"/>
    <nd ref="12405533515"/>
    <nd ref="12405533516"/>
    <nd ref="12405533517"/>
    <nd ref="12405533518"/>
    <nd ref="12405533519"/>
    <nd ref="12405533520"/>
    <nd ref="12405533521"/>
    <nd ref="12405533522"/>
    <nd ref="12405533523"/>
    <nd ref="12405533524"/>
    <nd ref="12405533525"/>
    <nd ref="12405533526"/>
    <nd ref="12405533527"/>
    <nd ref="12405533528"/>
    <tag k="highway" v="residential"/>
    <tag k="name" v="Copse Close"/>
  </way>
  <way id="1341091084" version="2" timestamp="2024-12-08T20:46:24Z" changeset="160069768" uid="5113580" user="Craske">
    <nd ref="12405532551"/>
    <nd ref="12405532552"/>
    <nd ref="12405532553"/>
    <nd ref="12405532554"/>
    <nd ref="12405532551"/>
    <tag k="addr:city" v="Bottisham"/>
    <tag k="addr:housenumber" v="37"/>
    <tag k="addr:postcode" v="CB25 9SA"/>
    <tag k="addr:street" v="Bradens Field"/>
    <tag k="building" v="bungalow"/>
  </way>
  <way id="1347693543" version="1" timestamp="2024-12-31T22:52:14Z" changeset="160849930" uid="5229644" user="Nathan_A_RF">
    <nd ref="12466180066"/>
    <nd ref="20960636"/>
    <tag k="highway" v="primary"/>
    <tag k="lanes" v="3"/>
    <tag k="lit" v="yes"/>
    <tag k="maxspeed" v="60 mph"/>
    <tag k="maxspeed:type" v="GB:nsl_single"/>
    <tag k="name" v="Newmarket Road"/>
    <tag k="ref" v="A1303"/>
  </way>
  <way id="1372048177" version="1" timestamp="2025-03-27T13:35:56Z" changeset="164164777" uid="141442" user="CycleStreets">
    <nd ref="863463658"/>
    <nd ref="25063271"/>
    <nd ref="25905052"/>
    <tag k="abutters" v="residential"/>
    <tag k="highway" v="tertiary"/>
    <tag k="maxspeed" v="30 mph"/>
    <tag k="name" v="Lode Road"/>
    <tag k="source:name" v="local knowledge"/>
  </way>

</osm>
