<?xml version="1.0" encoding="UTF-8"?>
<osm version="0.6" generator="Overpass API 0.7.62.5 1bd436f1">
<note>The data included in this document is from www.openstreetmap.org. The data is made available under ODbL.</note>
<meta osm_base="2025-04-27T07:41:27Z" areas="2025-02-06T02:17:44Z"/>

  <node id="32909938" lat="52.4403497" lon="-0.1146389" version="4" timestamp="2013-07-31T12:37:29Z" changeset="17165633" uid="281267" user="smb1001"/>
  <node id="32909947" lat="52.4446760" lon="-0.1122414" version="4" timestamp="2010-04-11T21:48:59Z" changeset="4399600" uid="7098" user="richardm565"/>
  <node id="414989888" lat="52.4160877" lon="-0.1068097" version="4" timestamp="2018-12-22T22:47:35Z" changeset="65704592" uid="5173844" user="ndrw6"/>
  <node id="439853586" lat="52.4461044" lon="-0.1115689" version="2" timestamp="2018-12-23T01:17:29Z" changeset="65706042" uid="5173844" user="ndrw6"/>
  <node id="439853698" lat="52.4418749" lon="-0.1179998" version="2" timestamp="2010-04-11T21:48:58Z" changeset="4399600" uid="7098" user="richardm565"/>
  <node id="692256002" lat="52.4333027" lon="-0.1234455" version="2" timestamp="2024-02-10T17:35:33Z" changeset="147301852" uid="11022773" user="GeoFens"/>
  <node id="693745603" lat="52.4410221" lon="-0.1141660" version="1" timestamp="2010-04-11T21:48:43Z" changeset="4399600" uid="7098" user="richardm565"/>
  <node id="704824820" lat="52.4338850" lon="-0.1281056" version="2" timestamp="2012-05-18T13:12:23Z" changeset="11632865" uid="504708" user="HillWithSmallFields"/>
  <node id="704824848" lat="52.4333160" lon="-0.1282680" version="3" timestamp="2024-12-21T23:54:39Z" changeset="160487127" uid="5173844" user="ndrw6"/>
  <node id="704824861" lat="52.4339794" lon="-0.1284210" version="1" timestamp="2010-04-23T22:13:15Z" changeset="4508139" uid="7098" user="richardm565"/>
  <node id="1185684990" lat="52.4230637" lon="-0.0893253" version="2" timestamp="2020-05-23T10:41:06Z" changeset="85648077" uid="5173844" user="ndrw6"/>
  <way id="4968416" version="9" timestamp="2024-04-28T14:34:24Z" changeset="150621695" uid="11022773" user="GeoFens">
    <nd ref="32909938"/>
    <nd ref="32909897"/>
    <nd ref="11494828983"/>
    <nd ref="2402410517"/>
    <nd ref="693745603"/>
    <nd ref="693745611"/>
    <tag k="highway" v="secondary"/>
    <tag k="maxspeed" v="20 mph"/>
    <tag k="name" v="High Street"/>
    <tag k="ref" v="B1040"/>
  </way>
  <way id="4968417" version="9" timestamp="2024-04-28T14:34:24Z" changeset="150621695" uid="11022773" user="GeoFens">
    <nd ref="32909938"/>
    <nd ref="243493572"/>
    <tag k="highway" v="tertiary"/>
    <tag k="maxspeed" v="20 mph"/>
    <tag k="name" v="Upwood Road"/>
    <tag k="oneway" v="no"/>
  </way>
  <way id="22699777" version="6" timestamp="2024-04-28T14:34:24Z" changeset="150621695" uid="11022773" user="GeoFens">
    <nd ref="243493567"/>
    <nd ref="243493569"/>
    <nd ref="243493571"/>
    <nd ref="243493572"/>
    <tag k="foot" v="designated"/>
    <tag k="highway" v="tertiary"/>
    <tag k="maxspeed" v="20 mph"/>
    <tag k="name" v="Upwood Road"/>
    <tag k="oneway" v="no"/>
  </way>
  <way id="22699778" version="12" timestamp="2024-04-28T14:49:45Z" changeset="150622382" uid="11022773" user="GeoFens">
    <nd ref="32909947"/>
    <nd ref="6901713621"/>
    <nd ref="6901713609"/>
    <nd ref="7950511396"/>
    <nd ref="32909994"/>
    <nd ref="439853581"/>
    <nd ref="32909864"/>
    <nd ref="8541853819"/>
    <nd ref="6154556437"/>
    <nd ref="32909900"/>
    <nd ref="698024771"/>
    <tag k="highway" v="secondary"/>
    <tag k="maxspeed" v="20 mph"/>
    <tag k="name" v="Bury Road"/>
    <tag k="oneway" v="no"/>
    <tag k="ref" v="B1040"/>
    <tag k="source" v="GPS"/>
    <tag k="surface" v="asphalt"/>
  </way>
  <way id="37550841" version="6" timestamp="2024-04-28T14:49:45Z" changeset="150622382" uid="11022773" user="GeoFens">
    <nd ref="439853581"/>
    <nd ref="439853584"/>
    <nd ref="439853586"/>
    <nd ref="6154556376"/>
    <nd ref="439853588"/>
    <nd ref="439853590"/>
    <nd ref="439853592"/>
    <nd ref="4876472221"/>
    <nd ref="439853596"/>
    <nd ref="693745840"/>
    <nd ref="439853598"/>
    <tag k="highway" v="residential"/>
    <tag k="maxspeed" v="20 mph"/>
    <tag k="name" v="Old Station Road"/>
    <tag k="oneway" v="no"/>
  </way>
  <way id="37550842" version="2" timestamp="2024-04-28T14:49:45Z" changeset="150622382" uid="11022773" user="GeoFens">
    <nd ref="439853602"/>
    <nd ref="439853622"/>
    <nd ref="439853624"/>
    <nd ref="439853626"/>
    <nd ref="439853628"/>
    <nd ref="439853630"/>
    <tag k="highway" v="residential"/>
    <tag k="maxspeed" v="20 mph"/>
    <tag k="name" v="The Sidings"/>
    <tag k="oneway" v="no"/>
  </way>
  <way id="37550843" version="2" timestamp="2010-04-11T21:49:02Z" changeset="4399600" uid="7098" user="richardm565">
    <nd ref="439853628"/>
    <nd ref="439853632"/>
    <tag k="highway" v="residential"/>
    <tag k="name" v="The Sidings"/>
  </way>
  <way id="37550844" version="5" timestamp="2024-04-28T14:49:45Z" changeset="150622382" uid="11022773" user="GeoFens">
    <nd ref="439853586"/>
    <nd ref="439853634"/>
    <nd ref="439853636"/>
    <nd ref="7537444722"/>
    <nd ref="439853638"/>
    <nd ref="439853642"/>
    <nd ref="439853645"/>
    <nd ref="439853647"/>
    <nd ref="7519875688"/>
    <nd ref="439853649"/>
    <tag k="highway" v="residential"/>
    <tag k="maxspeed" v="20 mph"/>
    <tag k="name" v="Fairfield Drive"/>
    <tag k="oneway" v="no"/>
    <tag k="surface" v="asphalt"/>
  </way>
  <way id="37550849" version="9" timestamp="2024-04-28T14:34:24Z" changeset="150621695" uid="11022773" user="GeoFens">
    <nd ref="439853698"/>
    <nd ref="439853755"/>
    <nd ref="439853757"/>
    <nd ref="11610858632"/>
    <nd ref="693745549"/>
    <nd ref="439853760"/>
    <nd ref="692256371"/>
    <nd ref="7524516595"/>
    <nd ref="693745547"/>
    <nd ref="7524516594"/>
    <nd ref="692256365"/>
    <nd ref="693745496"/>
    <nd ref="692256355"/>
    <nd ref="2935959221"/>
    <nd ref="439853770"/>
    <nd ref="10709802036"/>
    <nd ref="693745492"/>
    <tag k="foot" v="designated"/>
    <tag k="highway" v="residential"/>
    <tag k="maxspeed" v="20 mph"/>
    <tag k="name" v="Grenfell Road"/>
    <tag k="oneway" v="no"/>
    <tag k="surface" v="asphalt"/>
  </way>
  <way id="37550850" version="4" timestamp="2024-04-28T16:40:04Z" changeset="150627251" uid="11022773" user="GeoFens">
    <nd ref="439853776"/>
    <nd ref="689465037"/>
    <nd ref="689465036"/>
    <nd ref="689465051"/>
    <nd ref="3092459737"/>
    <nd ref="439853791"/>
    <tag k="highway" v="residential"/>
    <tag k="maxspeed" v="20 mph"/>
    <tag k="name" v="Meadow Lane"/>
    <tag k="oneway" v="no"/>
    <tag k="surface" v="asphalt"/>
  </way>
  <way id="54754094" version="8" timestamp="2024-04-28T16:40:04Z" changeset="150627251" uid="11022773" user="GeoFens">
    <nd ref="689464997"/>
    <nd ref="243493555"/>
    <nd ref="689464954"/>
    <nd ref="689464986"/>
    <tag k="highway" v="secondary"/>
    <tag k="maxspeed" v="20 mph"/>
    <tag k="name" v="High Street"/>
    <tag k="ref" v="B1040"/>
  </way>
  <way id="54754101" version="2" timestamp="2024-04-28T16:40:04Z" changeset="150627251" uid="11022773" user="GeoFens">
    <nd ref="689465033"/>
    <nd ref="689465034"/>
    <tag k="highway" v="residential"/>
    <tag k="maxspeed" v="20 mph"/>
    <tag k="name" v="Hill Estate"/>
    <tag k="oneway" v="no"/>
    <tag k="surface" v="asphalt"/>
  </way>
  <way id="54754102" version="5" timestamp="2024-04-28T16:40:04Z" changeset="150627251" uid="11022773" user="GeoFens">
    <nd ref="689464991"/>
    <nd ref="1631465443"/>
    <nd ref="243493549"/>
    <nd ref="689465033"/>
    <nd ref="1388810898"/>
    <nd ref="243493550"/>
    <nd ref="243493551"/>
    <nd ref="439853776"/>
    <tag k="highway" v="secondary"/>
    <tag k="maxspeed" v="20 mph"/>
    <tag k="name" v="Warboys Road"/>
    <tag k="oneway" v="no"/>
    <tag k="ref" v="B1040"/>
    <tag k="surface" v="asphalt"/>
  </way>
  <way id="54754103" version="3" timestamp="2024-04-28T16:40:04Z" changeset="150627251" uid="11022773" user="GeoFens">
    <nd ref="689465036"/>
    <nd ref="689465042"/>
    <nd ref="689465043"/>
    <nd ref="3092459734"/>
    <nd ref="689465044"/>
    <nd ref="3092459742"/>
    <nd ref="689465021"/>
    <tag k="highway" v="residential"/>
    <tag k="maxspeed" v="20 mph"/>
    <tag k="name" v="The Glebe"/>
    <tag k="oneway" v="no"/>
    <tag k="surface" v="asphalt"/>
  </way>
  <way id="54754104" version="3" timestamp="2024-04-28T16:40:04Z" changeset="150627251" uid="11022773" user="GeoFens">
    <nd ref="689465043"/>
    <nd ref="689465045"/>
    <nd ref="689465046"/>
    <nd ref="689465047"/>
    <nd ref="3092459735"/>
    <nd ref="689465048"/>
    <tag k="highway" v="residential"/>
    <tag k="maxspeed" v="20 mph"/>
    <tag k="name" v="The Glebe"/>
    <tag k="oneway" v="no"/>
    <tag k="surface" v="asphalt"/>
  </way>
  <way id="54754116" version="5" timestamp="2024-04-28T16:40:04Z" changeset="150627251" uid="11022773" user="GeoFens">
    <nd ref="439853776"/>
    <nd ref="243493552"/>
    <nd ref="689465011"/>
    <nd ref="243493553"/>
    <nd ref="243493557"/>
    <nd ref="1388810912"/>
    <nd ref="689464995"/>
    <nd ref="8943002094"/>
    <nd ref="243493556"/>
    <nd ref="689464996"/>
    <tag k="highway" v="secondary"/>
    <tag k="maxspeed" v="20 mph"/>
    <tag k="name" v="High Street"/>
    <tag k="ref" v="B1040"/>
  </way>
  <way id="54754117" version="4" timestamp="2017-05-03T09:46:50Z" changeset="48354795" uid="1778799" user="SomeoneElse_Revert">
    <nd ref="689464996"/>
    <nd ref="689464997"/>
    <tag k="bridge" v="yes"/>
    <tag k="highway" v="secondary"/>
    <tag k="maxspeed" v="30 mph"/>
    <tag k="name" v="High Street"/>
    <tag k="ref" v="B1040"/>
  </way>
  <way id="55038072" version="8" timestamp="2024-04-28T14:34:24Z" changeset="150621695" uid="11022773" user="GeoFens">
    <nd ref="692256002"/>
    <nd ref="32910225"/>
    <nd ref="32909892"/>
    <nd ref="704824829"/>
    <nd ref="32909933"/>
    <nd ref="32909972"/>
    <nd ref="32910012"/>
    <nd ref="8722955726"/>
    <nd ref="32910025"/>
    <nd ref="704824846"/>
    <nd ref="32910106"/>
    <nd ref="32910149"/>
    <nd ref="3986105436"/>
    <nd ref="32910212"/>
    <nd ref="32909886"/>
    <nd ref="32909925"/>
    <nd ref="32909969"/>
    <nd ref="768939822"/>
    <nd ref="32910008"/>
    <nd ref="32910062"/>
    <nd ref="32910032"/>
    <nd ref="6834971091"/>
    <nd ref="32910110"/>
    <tag k="highway" v="tertiary"/>
    <tag k="maxspeed" v="50 mph"/>
    <tag k="name" v="Ramsey Road"/>
    <tag k="oneway" v="no"/>
  </way>
  <way id="55038073" version="6" timestamp="2024-04-28T15:36:53Z" changeset="150624521" uid="11022773" user="GeoFens">
    <nd ref="692256400"/>
    <nd ref="692256402"/>
    <nd ref="5759136269"/>
    <nd ref="7146033429"/>
    <nd ref="692256290"/>
    <nd ref="692256223"/>
    <nd ref="692256222"/>
    <nd ref="692256216"/>
    <nd ref="692256219"/>
    <nd ref="5759136270"/>
    <nd ref="692256205"/>
    <nd ref="692256206"/>
    <nd ref="692256161"/>
    <tag k="highway" v="residential"/>
    <tag k="maxspeed" v="20 mph"/>
    <tag k="name" v="Owls End"/>
  </way>
  <way id="55038075" version="2" timestamp="2024-04-28T15:36:53Z" changeset="150624521" uid="11022773" user="GeoFens">
    <nd ref="692256189"/>
    <nd ref="692256341"/>
    <nd ref="692256338"/>
    <nd ref="692256340"/>
    <tag k="highway" v="residential"/>
    <tag k="maxspeed" v="20 mph"/>
    <tag k="name" v="Bader Close"/>
  </way>
  <way id="55038076" version="2" timestamp="2024-04-28T14:34:24Z" changeset="150621695" uid="11022773" user="GeoFens">
    <nd ref="32910144"/>
    <nd ref="692256336"/>
    <nd ref="692256179"/>
    <nd ref="692256189"/>
    <nd ref="692256187"/>
    <nd ref="692256180"/>
    <nd ref="692256381"/>
    <nd ref="692256386"/>
    <nd ref="692256388"/>
    <nd ref="692256390"/>
    <nd ref="692256393"/>
    <nd ref="692256395"/>
    <tag k="highway" v="residential"/>
    <tag k="maxspeed" v="20 mph"/>
    <tag k="name" v="Grove Way"/>
    <tag k="oneway" v="no"/>
  </way>
  <way id="55038077" version="5" timestamp="2024-04-28T14:34:24Z" changeset="150621695" uid="11022773" user="GeoFens">
    <nd ref="692256113"/>
    <nd ref="6154556762"/>
    <nd ref="692256114"/>
    <nd ref="692256115"/>
    <nd ref="1757194512"/>
    <nd ref="692256118"/>
    <nd ref="692256124"/>
    <nd ref="692256325"/>
    <nd ref="692256328"/>
    <nd ref="692256329"/>
    <nd ref="692256126"/>
    <tag k="highway" v="residential"/>
    <tag k="maxspeed" v="20 mph"/>
    <tag k="name" v="Redebourn Lane"/>
    <tag k="not:name" v="Redebourne Lane"/>
    <tag k="oneway" v="no"/>
  </way>
  <way id="55038079" version="9" timestamp="2024-05-31T23:16:00Z" changeset="152101415" uid="11022773" user="GeoFens">
    <nd ref="692256161"/>
    <nd ref="11556850990"/>
    <nd ref="692256163"/>
    <nd ref="692256155"/>
    <nd ref="692256154"/>
    <nd ref="692256152"/>
    <nd ref="692256151"/>
    <nd ref="5759138385"/>
    <nd ref="692256139"/>
    <nd ref="692256137"/>
    <nd ref="692256127"/>
    <nd ref="692256136"/>
    <nd ref="692256132"/>
    <nd ref="692256134"/>
    <nd ref="5759138384"/>
    <nd ref="692256104"/>
    <nd ref="692256103"/>
    <nd ref="11948932314"/>
    <nd ref="692256081"/>
    <nd ref="692256080"/>
    <tag k="highway" v="residential"/>
    <tag k="maxspeed" v="20 mph"/>
    <tag k="name" v="Tunkers Lane"/>
    <tag k="oneway" v="no"/>
    <tag k="surface" v="asphalt"/>
  </way>
  <way id="55038080" version="5" timestamp="2024-03-31T15:59:52Z" changeset="149397220" uid="11022773" user="GeoFens">
    <nd ref="692256073"/>
    <nd ref="692256075"/>
    <nd ref="692256076"/>
    <nd ref="7532319919"/>
    <nd ref="7532319921"/>
    <nd ref="692256047"/>
    <nd ref="6154556926"/>
    <nd ref="7532319924"/>
    <nd ref="692256049"/>
    <nd ref="692256052"/>
    <tag k="access" v="private"/>
    <tag k="highway" v="residential"/>
    <tag k="maxspeed" v="15 mph"/>
    <tag k="name" v="Valiant Square"/>
    <tag k="oneway" v="no"/>
    <tag k="surface" v="asphalt"/>
  </way>
  <way id="55038081" version="3" timestamp="2024-04-28T14:34:24Z" changeset="150621695" uid="11022773" user="GeoFens">
    <nd ref="32909876"/>
    <nd ref="692256108"/>
    <nd ref="692256109"/>
    <tag k="highway" v="residential"/>
    <tag k="maxspeed" v="20 mph"/>
    <tag k="name" v="Bury Close"/>
    <tag k="oneway" v="no"/>
  </way>
  <way id="55038082" version="5" timestamp="2024-03-31T15:59:52Z" changeset="149397220" uid="11022773" user="GeoFens">
    <nd ref="692256003"/>
    <nd ref="7487688026"/>
    <nd ref="692256006"/>
    <nd ref="8443495061"/>
    <nd ref="692256007"/>
    <nd ref="692256008"/>
    <nd ref="692256010"/>
    <nd ref="692256011"/>
    <nd ref="7487688023"/>
    <nd ref="692256004"/>
    <tag k="access" v="private"/>
    <tag k="highway" v="residential"/>
    <tag k="maxspeed" v="15 mph"/>
    <tag k="name" v="Valiant Square"/>
    <tag k="oneway" v="no"/>
    <tag k="surface" v="asphalt"/>
  </way>
  <way id="55038084" version="3" timestamp="2024-04-28T15:36:53Z" changeset="150624521" uid="11022773" user="GeoFens">
    <nd ref="692256175"/>
    <nd ref="5759136261"/>
    <nd ref="5759136274"/>
    <nd ref="692256170"/>
    <nd ref="692256166"/>
    <nd ref="692256218"/>
    <nd ref="692256213"/>
    <tag k="highway" v="residential"/>
    <tag k="maxspeed" v="20 mph"/>
    <tag k="name" v="Ringwood Close"/>
  </way>
  <way id="55038085" version="2" timestamp="2024-04-28T15:36:53Z" changeset="150624521" uid="11022773" user="GeoFens">
    <nd ref="692256141"/>
    <nd ref="692256101"/>
    <tag k="highway" v="residential"/>
    <tag k="maxspeed" v="20 mph"/>
    <tag k="name" v="Pound Road"/>
  </way>
  <way id="55038086" version="4" timestamp="2024-04-28T15:36:53Z" changeset="150624521" uid="11022773" user="GeoFens">
    <nd ref="692256136"/>
    <nd ref="692256131"/>
    <nd ref="692256141"/>
    <nd ref="692256144"/>
    <nd ref="692256142"/>
    <nd ref="692256147"/>
    <nd ref="692256145"/>
    <nd ref="692256194"/>
    <tag k="highway" v="residential"/>
    <tag k="maxspeed" v="20 mph"/>
    <tag k="name" v="Pound Road"/>
  </way>
  <way id="55038087" version="4" timestamp="2024-12-21T23:54:39Z" changeset="160487127" uid="5173844" user="ndrw6">
    <nd ref="692256085"/>
    <nd ref="12439948231"/>
    <nd ref="692256097"/>
    <nd ref="692256099"/>
    <tag k="highway" v="residential"/>
    <tag k="maxspeed" v="20 mph"/>
    <tag k="name" v="High Meadow"/>
    <tag k="oneway" v="no"/>
  </way>
  <way id="55038088" version="7" timestamp="2024-12-21T23:54:39Z" changeset="160487127" uid="5173844" user="ndrw6">
    <nd ref="692256103"/>
    <nd ref="692256086"/>
    <nd ref="12439948229"/>
    <nd ref="692256085"/>
    <nd ref="12439948230"/>
    <nd ref="6154556891"/>
    <nd ref="692256089"/>
    <nd ref="9652935784"/>
    <nd ref="692256090"/>
    <nd ref="7532320026"/>
    <nd ref="692256091"/>
    <nd ref="692256092"/>
    <nd ref="7532320027"/>
    <nd ref="692256095"/>
    <nd ref="12439948221"/>
    <nd ref="692256096"/>
    <tag k="highway" v="residential"/>
    <tag k="maxspeed" v="20 mph"/>
    <tag k="name" v="Buryfield"/>
  </way>
  <way id="55038090" version="3" timestamp="2024-04-28T15:36:53Z" changeset="150624521" uid="11022773" user="GeoFens">
    <nd ref="692256142"/>
    <nd ref="692256149"/>
    <nd ref="692256158"/>
    <nd ref="11556850985"/>
    <tag k="highway" v="residential"/>
    <tag k="maxspeed" v="20 mph"/>
    <tag k="name" v="Pound Road"/>
  </way>
  <way id="55038091" version="4" timestamp="2024-04-28T15:36:53Z" changeset="150624521" uid="11022773" user="GeoFens">
    <nd ref="692256163"/>
    <nd ref="692256159"/>
    <nd ref="5759136273"/>
    <nd ref="692256164"/>
    <nd ref="5759136272"/>
    <nd ref="5759136254"/>
    <nd ref="692256175"/>
    <nd ref="5759136253"/>
    <nd ref="5759136252"/>
    <nd ref="692256176"/>
    <nd ref="692256171"/>
    <tag k="highway" v="residential"/>
    <tag k="maxspeed" v="20 mph"/>
    <tag k="name" v="Woodfield Avenue"/>
  </way>
  <way id="55038092" version="3" timestamp="2024-04-28T15:36:53Z" changeset="150624521" uid="11022773" user="GeoFens">
    <nd ref="692256168"/>
    <nd ref="5759136262"/>
    <nd ref="5759136257"/>
    <nd ref="692256171"/>
    <nd ref="692256173"/>
    <tag k="highway" v="residential"/>
    <tag k="maxspeed" v="20 mph"/>
    <tag k="name" v="Sunfield Road"/>
  </way>
  <way id="55038101" version="6" timestamp="2024-04-28T16:45:33Z" changeset="150627452" uid="11022773" user="GeoFens">
    <nd ref="692256216"/>
    <nd ref="692256214"/>
    <nd ref="692256232"/>
    <nd ref="11862626949"/>
    <nd ref="2341215273"/>
    <nd ref="692256197"/>
    <nd ref="11862626950"/>
    <nd ref="6542019502"/>
    <nd ref="692256195"/>
    <nd ref="692256192"/>
    <tag k="highway" v="residential"/>
    <tag k="maxspeed" v="20 mph"/>
    <tag k="name" v="Brookfield Way"/>
    <tag k="oneway" v="no"/>
  </way>
  <way id="55038102" version="4" timestamp="2024-04-28T16:45:33Z" changeset="150627452" uid="11022773" user="GeoFens">
    <nd ref="692256192"/>
    <nd ref="7487687901"/>
    <nd ref="7487687900"/>
    <nd ref="692256209"/>
    <tag k="foot" v="designated"/>
    <tag k="highway" v="residential"/>
    <tag k="maxspeed" v="20 mph"/>
    <tag k="name" v="Brookfield Way"/>
  </way>
  <way id="55038104" version="2" timestamp="2024-04-28T15:36:53Z" changeset="150624521" uid="11022773" user="GeoFens">
    <nd ref="692256206"/>
    <nd ref="692256204"/>
    <nd ref="692256210"/>
    <tag k="highway" v="residential"/>
    <tag k="maxspeed" v="20 mph"/>
    <tag k="name" v="Cheveril Lane"/>
  </way>
  <way id="55038106" version="4" timestamp="2024-04-28T15:36:53Z" changeset="150624521" uid="11022773" user="GeoFens">
    <nd ref="692256223"/>
    <nd ref="692256224"/>
    <nd ref="5759136271"/>
    <nd ref="692256227"/>
    <nd ref="7529610394"/>
    <nd ref="692256228"/>
    <tag k="highway" v="residential"/>
    <tag k="maxspeed" v="20 mph"/>
    <tag k="name" v="Old Stable Walk"/>
  </way>
  <way id="55038107" version="3" timestamp="2024-04-28T15:36:53Z" changeset="150624521" uid="11022773" user="GeoFens">
    <nd ref="692256402"/>
    <nd ref="692256410"/>
    <tag k="highway" v="residential"/>
    <tag k="maxspeed" v="20 mph"/>
    <tag k="name" v="Owls End"/>
  </way>
  <way id="55038108" version="2" timestamp="2024-04-28T15:36:53Z" changeset="150624521" uid="11022773" user="GeoFens">
    <nd ref="692256390"/>
    <nd ref="692256392"/>
    <nd ref="692256397"/>
    <nd ref="692256398"/>
    <nd ref="11862460551"/>
    <tag k="highway" v="residential"/>
    <tag k="maxspeed" v="20 mph"/>
    <tag k="name" v="Barn Close"/>
  </way>
  <way id="55038110" version="3" timestamp="2024-04-28T16:48:18Z" changeset="150627587" uid="11022773" user="GeoFens">
    <nd ref="692256381"/>
    <nd ref="7529610067"/>
    <nd ref="692256383"/>
    <nd ref="692256385"/>
    <tag k="highway" v="residential"/>
    <tag k="maxspeed" v="20 mph"/>
    <tag k="name" v="Rowell Walk"/>
  </way>
  <way id="55038112" version="2" timestamp="2024-04-28T14:34:24Z" changeset="150621695" uid="11022773" user="GeoFens">
    <nd ref="692256347"/>
    <nd ref="692256349"/>
    <tag k="highway" v="residential"/>
    <tag k="maxspeed" v="20 mph"/>
    <tag k="name" v="Garden Court"/>
    <tag k="oneway" v="no"/>
  </way>
  <way id="55038113" version="3" timestamp="2024-04-28T14:34:24Z" changeset="150621695" uid="11022773" user="GeoFens">
    <nd ref="692256355"/>
    <nd ref="2935959223"/>
    <nd ref="692256356"/>
    <tag k="highway" v="residential"/>
    <tag k="maxspeed" v="20 mph"/>
    <tag k="name" v="Grenfell Road"/>
    <tag k="oneway" v="no"/>
    <tag k="surface" v="asphalt"/>
  </way>
  <way id="55038114" version="3" timestamp="2024-04-28T14:34:24Z" changeset="150621695" uid="11022773" user="GeoFens">
    <nd ref="692256365"/>
    <nd ref="692256367"/>
    <nd ref="692256359"/>
    <nd ref="692256360"/>
    <nd ref="692256362"/>
    <nd ref="692256369"/>
    <tag k="highway" v="residential"/>
    <tag k="maxspeed" v="20 mph"/>
    <tag k="name" v="Ward Close"/>
    <tag k="oneway" v="no"/>
    <tag k="surface" v="asphalt"/>
  </way>
  <way id="55038115" version="2" timestamp="2024-04-28T14:34:24Z" changeset="150621695" uid="11022773" user="GeoFens">
    <nd ref="692256362"/>
    <nd ref="692256364"/>
    <tag k="highway" v="residential"/>
    <tag k="maxspeed" v="20 mph"/>
    <tag k="name" v="Ward Close"/>
    <tag k="oneway" v="no"/>
    <tag k="surface" v="asphalt"/>
  </way>
  <way id="55038116" version="2" timestamp="2024-04-28T14:34:24Z" changeset="150621695" uid="11022773" user="GeoFens">
    <nd ref="692256371"/>
    <nd ref="692256380"/>
    <tag k="highway" v="residential"/>
    <tag k="maxspeed" v="20 mph"/>
    <tag k="name" v="Grenfell Road"/>
    <tag k="oneway" v="no"/>
    <tag k="surface" v="asphalt"/>
  </way>
  <way id="55183718" version="4" timestamp="2024-04-28T14:49:45Z" changeset="150622382" uid="11022773" user="GeoFens">
    <nd ref="439853598"/>
    <nd ref="439853600"/>
    <nd ref="439853602"/>
    <nd ref="439853604"/>
    <nd ref="439853606"/>
    <nd ref="439853608"/>
    <nd ref="693745924"/>
    <nd ref="439853610"/>
    <nd ref="439853612"/>
    <nd ref="693745916"/>
    <nd ref="693745905"/>
    <nd ref="7831604908"/>
    <nd ref="693745907"/>
    <tag k="highway" v="residential"/>
    <tag k="maxspeed" v="20 mph"/>
    <tag k="name" v="Signal Road"/>
    <tag k="oneway" v="no"/>
  </way>
  <way id="55183758" version="3" timestamp="2024-04-28T14:34:24Z" changeset="150621695" uid="11022773" user="GeoFens">
    <nd ref="693745496"/>
    <nd ref="2935959219"/>
    <nd ref="693745495"/>
    <tag k="highway" v="residential"/>
    <tag k="maxspeed" v="20 mph"/>
    <tag k="name" v="Lion Walk"/>
    <tag k="oneway" v="no"/>
    <tag k="surface" v="asphalt"/>
  </way>
  <way id="55183786" version="3" timestamp="2021-01-28T17:24:43Z" changeset="98311245" uid="11022773" user="GeoFens">
    <nd ref="693745554"/>
    <nd ref="2935959218"/>
    <tag k="highway" v="residential"/>
    <tag k="name" v="Foundry Way"/>
  </way>
  <way id="55183787" version="5" timestamp="2024-04-28T14:34:24Z" changeset="150621695" uid="11022773" user="GeoFens">
    <nd ref="693745547"/>
    <nd ref="693745550"/>
    <nd ref="693745551"/>
    <nd ref="693745552"/>
    <nd ref="693745556"/>
    <tag k="highway" v="residential"/>
    <tag k="maxspeed" v="20 mph"/>
    <tag k="name" v="Foundry Way"/>
    <tag k="oneway" v="no"/>
    <tag k="surface" v="asphalt"/>
  </way>
  <way id="55183789" version="1" timestamp="2010-04-11T21:48:53Z" changeset="4399600" uid="7098" user="richardm565">
    <nd ref="693745554"/>
    <nd ref="693745555"/>
    <tag k="highway" v="residential"/>
    <tag k="name" v="Foundry Way"/>
  </way>
  <way id="55183795" version="3" timestamp="2024-04-28T14:34:24Z" changeset="150621695" uid="11022773" user="GeoFens">
    <nd ref="693745603"/>
    <nd ref="693745604"/>
    <nd ref="693745605"/>
    <nd ref="693745606"/>
    <nd ref="7524516158"/>
    <nd ref="693745607"/>
    <nd ref="693745608"/>
    <nd ref="693745609"/>
    <nd ref="11862401101"/>
    <nd ref="11862401102"/>
    <nd ref="11862401103"/>
    <nd ref="11862401104"/>
    <nd ref="693745620"/>
    <tag k="highway" v="residential"/>
    <tag k="maxspeed" v="20 mph"/>
    <tag k="name" v="Brands Close"/>
    <tag k="oneway" v="no"/>
    <tag k="surface" v="asphalt"/>
  </way>
  <way id="55536830" version="5" timestamp="2024-04-28T15:36:53Z" changeset="150624521" uid="11022773" user="GeoFens">
    <nd ref="698024728"/>
    <nd ref="698024737"/>
    <nd ref="5759136266"/>
    <nd ref="704301907"/>
    <nd ref="5759136265"/>
    <nd ref="698024740"/>
    <nd ref="5759136264"/>
    <nd ref="698024742"/>
    <nd ref="698024745"/>
    <tag k="highway" v="residential"/>
    <tag k="maxspeed" v="20 mph"/>
    <tag k="name" v="Greenwood Close"/>
    <tag k="oneway" v="no"/>
    <tag k="surface" v="asphalt"/>
  </way>
  <way id="55536831" version="4" timestamp="2024-12-21T23:54:39Z" changeset="160487127" uid="5173844" user="ndrw6">
    <nd ref="698024740"/>
    <nd ref="698024747"/>
    <nd ref="12439934790"/>
    <tag k="highway" v="residential"/>
    <tag k="maxspeed" v="20 mph"/>
    <tag k="name" v="Greenwood Close"/>
  </way>
  <way id="56159675" version="5" timestamp="2024-12-21T23:54:39Z" changeset="160487127" uid="5173844" user="ndrw6">
    <nd ref="704824820"/>
    <nd ref="5806302625"/>
    <nd ref="704824848"/>
    <tag k="access" v="private"/>
    <tag k="highway" v="residential"/>
    <tag k="name" v="Hart Road"/>
  </way>
  <way id="56159679" version="4" timestamp="2020-10-23T17:28:42Z" changeset="92963515" uid="11022773" user="GeoFens">
    <nd ref="704824861"/>
    <nd ref="704824851"/>
    <nd ref="704824736"/>
    <nd ref="1757188256"/>
    <nd ref="704824820"/>
    <tag k="access" v="private"/>
    <tag k="highway" v="residential"/>
  </way>
  <way id="59428135" version="19" timestamp="2025-01-13T22:43:25Z" changeset="161327439" uid="5229644" user="Nathan_A_RF">
    <nd ref="414989888"/>
    <nd ref="9034556689"/>
    <nd ref="704301895"/>
    <nd ref="8013614162"/>
    <nd ref="1631454363"/>
    <nd ref="243493530"/>
    <nd ref="7991769305"/>
    <nd ref="1631463130"/>
    <nd ref="243493531"/>
    <nd ref="1631463127"/>
    <nd ref="243493532"/>
    <nd ref="8251253309"/>
    <nd ref="243493533"/>
    <nd ref="1185685018"/>
    <nd ref="439853793"/>
    <nd ref="9048100129"/>
    <nd ref="243493534"/>
    <nd ref="10295332432"/>
    <nd ref="968071539"/>
    <nd ref="243493535"/>
    <nd ref="243493536"/>
    <nd ref="10295332427"/>
    <nd ref="1631463145"/>
    <nd ref="243493539"/>
    <nd ref="243493540"/>
    <nd ref="243493541"/>
    <nd ref="243493542"/>
    <nd ref="243493543"/>
    <nd ref="1388756240"/>
    <nd ref="1388789309"/>
    <nd ref="1388756201"/>
    <nd ref="704301914"/>
    <nd ref="243493545"/>
    <tag k="highway" v="secondary"/>
    <tag k="maxspeed" v="60 mph"/>
    <tag k="maxspeed:type" v="GB:nsl_single"/>
    <tag k="name" v="Shillow Hill"/>
    <tag k="ref" v="B1040"/>
  </way>
  <way id="102662224" version="5" timestamp="2024-03-31T16:13:50Z" changeset="149397800" uid="11022773" user="GeoFens">
    <nd ref="1185684990"/>
    <nd ref="11775616832"/>
    <nd ref="439853852"/>
    <nd ref="439853853"/>
    <nd ref="439853854"/>
    <nd ref="8950850628"/>
    <nd ref="11775616834"/>
    <nd ref="439853855"/>
    <nd ref="439853856"/>
    <nd ref="1185684963"/>
    <nd ref="1185685015"/>
    <nd ref="1185684996"/>
    <nd ref="1126087167"/>
    <tag k="highway" v="unclassified"/>
    <tag k="name" v="Straight Drove"/>
    <tag k="source" v="os_street_view"/>
    <tag k="survey" v="no"/>
  </way>
  <way id="102662443" version="6" timestamp="2024-12-21T23:54:39Z" changeset="160487127" uid="5173844" user="ndrw6">
    <nd ref="704824848"/>
    <nd ref="1757188202"/>
    <tag k="access" v="private"/>
    <tag k="highway" v="residential"/>
    <tag k="name" v="Lincoln Road"/>
  </way>
  <way id="102662444" version="7" timestamp="2024-04-28T14:34:24Z" changeset="150621695" uid="11022773" user="GeoFens">
    <nd ref="32909953"/>
    <nd ref="32909983"/>
    <nd ref="32910022"/>
    <nd ref="32910098"/>
    <nd ref="7405416398"/>
    <nd ref="7405416399"/>
    <nd ref="7405416395"/>
    <nd ref="32910151"/>
    <nd ref="11608260148"/>
    <nd ref="692256000"/>
    <nd ref="692256002"/>
    <tag k="highway" v="tertiary"/>
    <tag k="maxspeed" v="30 mph"/>
    <tag k="name" v="Ramsey Road"/>
    <tag k="oneway" v="no"/>
  </way>
  <way id="124908930" version="1" timestamp="2011-08-06T19:32:59Z" changeset="8941223" uid="90142" user="andy mackey">
    <nd ref="1388756288"/>
    <nd ref="1388756321"/>
    <nd ref="1388756270"/>
    <nd ref="1388756322"/>
    <nd ref="1388756288"/>
    <tag k="building" v="yes"/>
    <tag k="name" v="barn"/>
  </way>
  <way id="124908932" version="2" timestamp="2020-11-10T13:14:36Z" changeset="93864537" uid="11022773" user="GeoFens">
    <nd ref="1388756063"/>
    <nd ref="1388756123"/>
    <nd ref="1388756145"/>
    <nd ref="1388756147"/>
    <nd ref="1388756063"/>
    <tag k="building" v="yes"/>
    <tag k="name" v="Carl Motors"/>
    <tag k="shop" v="car_repair"/>
  </way>
  <way id="124913997" version="3" timestamp="2020-06-03T10:31:30Z" changeset="86130051" uid="11022773" user="GeoFens">
    <nd ref="1388833677"/>
    <nd ref="1388833736"/>
    <nd ref="1388833679"/>
    <nd ref="1388833681"/>
    <nd ref="1388833677"/>
    <tag k="building" v="public"/>
    <tag k="name" v="Bury Church Hall"/>
  </way>
  <way id="124914000" version="5" timestamp="2023-11-03T18:35:20Z" changeset="143586911" uid="504708" user="HillWithSmallFields">
    <nd ref="1388833687"/>
    <nd ref="1388833698"/>
    <nd ref="1388833684"/>
    <nd ref="1388833715"/>
    <nd ref="1388833713"/>
    <nd ref="1388833732"/>
    <nd ref="1388833702"/>
    <nd ref="3512519982"/>
    <nd ref="1388833718"/>
    <nd ref="1388833687"/>
    <tag k="amenity" v="place_of_worship"/>
    <tag k="building" v="church"/>
    <tag k="denomination" v="anglican"/>
    <tag k="name" v="Holy Cross (Bury Parish Church)"/>
    <tag k="ref:dove" v="16571"/>
    <tag k="religion" v="christian"/>
    <tag k="wikidata" v="Q17527950"/>
  </way>
  <way id="164058040" version="5" timestamp="2022-06-20T14:39:23Z" changeset="122627666" uid="11022773" user="GeoFens">
    <nd ref="1757188241"/>
    <nd ref="1757188331"/>
    <nd ref="1757196973"/>
    <nd ref="1757188309"/>
    <nd ref="1757188160"/>
    <nd ref="1757188296"/>
    <nd ref="1757188305"/>
    <nd ref="1757188253"/>
    <nd ref="1757188254"/>
    <nd ref="1757188247"/>
    <nd ref="1757188165"/>
    <nd ref="1757188394"/>
    <nd ref="1757188390"/>
    <nd ref="1757188397"/>
    <nd ref="1757188298"/>
    <nd ref="1757188145"/>
    <nd ref="1757188147"/>
    <nd ref="1757188121"/>
    <nd ref="1757188229"/>
    <nd ref="1757188241"/>
    <tag k="building" v="yes"/>
    <tag k="name" v="Former RAF Upwood Station HQ"/>
    <tag k="ruins" v="yes"/>
  </way>
  <way id="164058052" version="3" timestamp="2021-02-21T18:22:33Z" changeset="99693119" uid="11022773" user="GeoFens">
    <nd ref="1757188413"/>
    <nd ref="1757188342"/>
    <nd ref="1757188366"/>
    <nd ref="1757188299"/>
    <nd ref="1757188207"/>
    <nd ref="1757188262"/>
    <nd ref="1757188413"/>
    <tag k="building" v="yes"/>
    <tag k="name" v="Former RAF Upwood Guardroom"/>
    <tag k="ruins" v="yes"/>
  </way>
  <way id="225333068" version="5" timestamp="2025-01-11T18:31:53Z" changeset="161249792" uid="493595" user="Yorvik Prestigitator">
    <nd ref="2341215271"/>
    <nd ref="8827648866"/>
    <nd ref="8827648867"/>
    <nd ref="8827648869"/>
    <nd ref="8827648868"/>
    <nd ref="2341215267"/>
    <nd ref="2341215274"/>
    <nd ref="2341215269"/>
    <nd ref="2341215268"/>
    <nd ref="2341215279"/>
    <nd ref="2341215266"/>
    <nd ref="2341215277"/>
    <nd ref="2341215276"/>
    <nd ref="2341215270"/>
    <nd ref="2341215271"/>
    <tag k="addr:street" v="Brookfield Way"/>
    <tag k="amenity" v="community_centre"/>
    <tag k="building" v="public"/>
    <tag k="community_centre" v="village_hall"/>
    <tag k="name" v="Bury Village Hall"/>
  </way>
  <way id="231915987" version="9" timestamp="2024-05-29T13:19:26Z" changeset="151989315" uid="95856" user="john paul jones &amp; gringo">
    <nd ref="2402410544"/>
    <nd ref="2402410573"/>
    <nd ref="2402410615"/>
    <nd ref="2402410596"/>
    <nd ref="2402410620"/>
    <nd ref="2402410544"/>
    <tag k="addr:city" v="Huntingdon"/>
    <tag k="addr:country" v="GB"/>
    <tag k="addr:postcode" v="PE26 1NE"/>
    <tag k="amenity" v="fuel"/>
    <tag k="brand" v="Shell"/>
    <tag k="brand:wikidata" v="Q110716465"/>
    <tag k="building" v="roof"/>
    <tag k="contact:phone" v="+44 1487 813545"/>
    <tag k="layer" v="1"/>
    <tag k="name" v="Shell"/>
    <tag k="opening_hours" v="Mo-Fr 06:00-22:00; Sa-Su 07:00-22:00"/>
    <tag k="ref:navads" v="NVDS353_10019184"/>
    <tag k="website" v="https://find.shell.com/gb/fuel/10019184-hks-ramsey"/>
  </way>
  <way id="231915995" version="4" timestamp="2024-12-21T20:38:40Z" changeset="160482709" uid="5173844" user="ndrw6">
    <nd ref="2402410512"/>
    <nd ref="2402410603"/>
    <nd ref="2402410529"/>
    <nd ref="2402410566"/>
    <nd ref="2402410572"/>
    <nd ref="2402410557"/>
    <nd ref="2402410548"/>
    <nd ref="2402410511"/>
    <nd ref="2402410546"/>
    <nd ref="2402410510"/>
    <nd ref="2402410512"/>
    <tag k="amenity" v="pub"/>
    <tag k="building" v="house"/>
    <tag k="name" v="The White Lion"/>
  </way>
  <way id="290059736" version="4" timestamp="2024-04-28T15:36:53Z" changeset="150624521" uid="11022773" user="GeoFens">
    <nd ref="243493567"/>
    <nd ref="5759136268"/>
    <nd ref="243493573"/>
    <nd ref="32909938"/>
    <tag k="foot" v="designated"/>
    <tag k="highway" v="secondary"/>
    <tag k="maxspeed" v="20 mph"/>
    <tag k="name" v="High Street"/>
    <tag k="ref" v="B1040"/>
  </way>
  <way id="290059737" version="4" timestamp="2024-04-28T14:34:24Z" changeset="150621695" uid="11022773" user="GeoFens">
    <nd ref="693745492"/>
    <nd ref="693745493"/>
    <nd ref="7589071223"/>
    <nd ref="32910117"/>
    <tag k="foot" v="designated"/>
    <tag k="highway" v="residential"/>
    <tag k="maxspeed" v="20 mph"/>
    <tag k="name" v="Grenfell Road"/>
    <tag k="oneway" v="no"/>
  </way>
  <way id="290059738" version="4" timestamp="2024-01-06T17:02:34Z" changeset="145964603" uid="11022773" user="GeoFens">
    <nd ref="243493572"/>
    <nd ref="7589071224"/>
    <nd ref="32910117"/>
    <tag k="foot" v="designated"/>
    <tag k="highway" v="tertiary"/>
    <tag k="maxspeed" v="30 mph"/>
    <tag k="name" v="Upwood Road"/>
    <tag k="oneway" v="no"/>
  </way>
  <way id="290059740" version="6" timestamp="2024-04-28T14:34:24Z" changeset="150621695" uid="11022773" user="GeoFens">
    <nd ref="32910117"/>
    <nd ref="32910095"/>
    <nd ref="692256346"/>
    <nd ref="692256347"/>
    <nd ref="8372551573"/>
    <nd ref="32910144"/>
    <nd ref="692256113"/>
    <nd ref="8943152801"/>
    <nd ref="32909876"/>
    <nd ref="32909916"/>
    <nd ref="692256068"/>
    <nd ref="32909953"/>
    <tag k="foot" v="designated"/>
    <tag k="highway" v="tertiary"/>
    <tag k="maxspeed" v="20 mph"/>
    <tag k="name" v="Upwood Road"/>
    <tag k="oneway" v="no"/>
  </way>
  <way id="290059741" version="6" timestamp="2024-04-28T15:36:53Z" changeset="150624521" uid="11022773" user="GeoFens">
    <nd ref="689464986"/>
    <nd ref="1126087272"/>
    <nd ref="7529610344"/>
    <nd ref="243493554"/>
    <nd ref="692256400"/>
    <nd ref="243493558"/>
    <nd ref="692256410"/>
    <nd ref="243493559"/>
    <nd ref="2938552529"/>
    <nd ref="243493560"/>
    <nd ref="698024728"/>
    <nd ref="243493562"/>
    <nd ref="243493563"/>
    <nd ref="243493564"/>
    <nd ref="243493566"/>
    <nd ref="5759136267"/>
    <nd ref="243493567"/>
    <tag k="foot" v="designated"/>
    <tag k="highway" v="secondary"/>
    <tag k="maxspeed" v="20 mph"/>
    <tag k="name" v="High Street"/>
    <tag k="ref" v="B1040"/>
  </way>
  <way id="290059742" version="2" timestamp="2024-04-28T16:45:33Z" changeset="150627452" uid="11022773" user="GeoFens">
    <nd ref="692256192"/>
    <nd ref="2341215278"/>
    <nd ref="2341215272"/>
    <nd ref="11862626951"/>
    <nd ref="692256190"/>
    <nd ref="692256240"/>
    <nd ref="692256303"/>
    <tag k="foot" v="designated"/>
    <tag k="highway" v="residential"/>
    <tag k="maxspeed" v="20 mph"/>
    <tag k="name" v="Brookfield Way"/>
    <tag k="oneway" v="no"/>
  </way>
  <way id="290059743" version="2" timestamp="2024-04-28T14:34:24Z" changeset="150621695" uid="11022773" user="GeoFens">
    <nd ref="2935959223"/>
    <nd ref="2935959220"/>
    <tag k="highway" v="residential"/>
    <tag k="maxspeed" v="20 mph"/>
    <tag k="name" v="Grenfell Road"/>
    <tag k="oneway" v="no"/>
    <tag k="surface" v="asphalt"/>
  </way>
  <way id="304668502" version="1" timestamp="2014-09-23T14:42:42Z" changeset="25626727" uid="90142" user="andy mackey">
    <nd ref="3092459740"/>
    <nd ref="3092459735"/>
    <tag k="highway" v="residential"/>
    <tag k="name" v="The Glebe"/>
  </way>
  <way id="495929210" version="2" timestamp="2024-04-28T14:49:45Z" changeset="150622382" uid="11022773" user="GeoFens">
    <nd ref="4876471615"/>
    <nd ref="4876471613"/>
    <nd ref="4876471616"/>
    <nd ref="4876471620"/>
    <nd ref="4876471618"/>
    <nd ref="4876472222"/>
    <nd ref="4876471619"/>
    <nd ref="4876472221"/>
    <tag k="highway" v="residential"/>
    <tag k="maxspeed" v="20 mph"/>
    <tag k="name" v="Banks End"/>
    <tag k="oneway" v="no"/>
    <tag k="source" v="OS_OpenData_StreetView"/>
  </way>
  <way id="495929212" version="2" timestamp="2024-04-28T14:49:45Z" changeset="150622382" uid="11022773" user="GeoFens">
    <nd ref="4876471614"/>
    <nd ref="4876471615"/>
    <nd ref="4876471617"/>
    <tag k="highway" v="residential"/>
    <tag k="maxspeed" v="20 mph"/>
    <tag k="name" v="Banks End"/>
    <tag k="oneway" v="no"/>
    <tag k="source" v="OS_OpenData_StreetView"/>
  </way>
  <way id="543031318" version="4" timestamp="2025-04-11T16:40:32Z" changeset="164824739" uid="11022773" user="GeoFens">
    <nd ref="5249826763"/>
    <nd ref="5249826764"/>
    <nd ref="5249826765"/>
    <nd ref="5249826766"/>
    <nd ref="5249826767"/>
    <nd ref="5249826768"/>
    <nd ref="5249826769"/>
    <nd ref="5249826770"/>
    <nd ref="5249826763"/>
    <tag k="amenity" v="social_facility"/>
    <tag k="building" v="yes"/>
    <tag k="name" v="Magnolia Park Care Home"/>
    <tag k="note" v="Re-opening in early 2025"/>
    <tag k="old_name" v="The Red House"/>
    <tag k="operator" v="Bond Care"/>
    <tag k="social_facility" v="group_home"/>
    <tag k="social_facility:for" v="senior"/>
    <tag k="website" v="https://www.bondcare.co.uk"/>
  </way>
  <way id="607764116" version="1" timestamp="2018-07-13T18:18:34Z" changeset="60695817" uid="90142" user="andy mackey">
    <nd ref="698024742"/>
    <nd ref="5759136263"/>
    <tag k="highway" v="residential"/>
    <tag k="name" v="Greenwood Close"/>
  </way>
  <way id="607764117" version="2" timestamp="2024-04-28T16:48:18Z" changeset="150627587" uid="11022773" user="GeoFens">
    <nd ref="692256166"/>
    <nd ref="5759136258"/>
    <tag k="highway" v="residential"/>
    <tag k="maxspeed" v="20 mph"/>
    <tag k="name" v="Ringwood Close"/>
  </way>
  <way id="607764118" version="2" timestamp="2024-04-28T16:48:18Z" changeset="150627587" uid="11022773" user="GeoFens">
    <nd ref="5759136256"/>
    <nd ref="692256173"/>
    <nd ref="5759136255"/>
    <tag k="highway" v="residential"/>
    <tag k="maxspeed" v="20 mph"/>
    <tag k="name" v="Sunfield Road"/>
  </way>
  <way id="607764119" version="2" timestamp="2024-04-28T16:48:18Z" changeset="150627587" uid="11022773" user="GeoFens">
    <nd ref="5759136259"/>
    <nd ref="692256213"/>
    <nd ref="5759136260"/>
    <tag k="highway" v="residential"/>
    <tag k="maxspeed" v="20 mph"/>
    <tag k="name" v="Ringwood Close"/>
  </way>
  <way id="657095280" version="3" timestamp="2024-05-29T13:30:36Z" changeset="151989901" uid="95856" user="john paul jones &amp; gringo">
    <nd ref="6154556370"/>
    <nd ref="6154556361"/>
    <nd ref="6154556362"/>
    <nd ref="6154556359"/>
    <nd ref="6154556360"/>
    <nd ref="6154556363"/>
    <nd ref="6154556364"/>
    <nd ref="6154556367"/>
    <nd ref="6154556368"/>
    <nd ref="6154556365"/>
    <nd ref="6154556366"/>
    <nd ref="6154556369"/>
    <nd ref="6154556370"/>
    <tag k="addr:city" v="Huntingdon"/>
    <tag k="addr:country" v="GB"/>
    <tag k="addr:postcode" v="PE26 1NF"/>
    <tag k="addr:suburb" v="Ramsey"/>
    <tag k="building" v="commercial"/>
    <tag k="name" v="Index Instruments"/>
  </way>
  <way id="657095367" version="3" timestamp="2024-04-28T15:36:53Z" changeset="150624521" uid="11022773" user="GeoFens">
    <nd ref="6154556818"/>
    <nd ref="692256398"/>
    <tag k="highway" v="residential"/>
    <tag k="name" v="Barn Close"/>
  </way>
  <way id="657095389" version="3" timestamp="2024-03-31T15:59:52Z" changeset="149397220" uid="11022773" user="GeoFens">
    <nd ref="6154556922"/>
    <nd ref="6154556923"/>
    <nd ref="6154556921"/>
    <tag k="access" v="private"/>
    <tag k="highway" v="residential"/>
    <tag k="maxspeed" v="15 mph"/>
    <tag k="name" v="Vulcan Close"/>
    <tag k="oneway" v="no"/>
    <tag k="surface" v="asphalt"/>
  </way>
  <way id="657095390" version="4" timestamp="2024-03-31T15:59:52Z" changeset="149397220" uid="11022773" user="GeoFens">
    <nd ref="6154556926"/>
    <nd ref="6154556925"/>
    <nd ref="6154556924"/>
    <nd ref="8443495060"/>
    <nd ref="6154556923"/>
    <tag k="access" v="private"/>
    <tag k="highway" v="residential"/>
    <tag k="maxspeed" v="15 mph"/>
    <tag k="name" v="Vulcan Close"/>
    <tag k="oneway" v="no"/>
    <tag k="surface" v="asphalt"/>
  </way>
  <way id="696633343" version="3" timestamp="2024-04-28T16:45:33Z" changeset="150627452" uid="11022773" user="GeoFens">
    <nd ref="6542019502"/>
    <nd ref="7487687898"/>
    <nd ref="6542019503"/>
    <nd ref="7487687897"/>
    <nd ref="6542019504"/>
    <tag k="highway" v="residential"/>
    <tag k="maxspeed" v="20 mph"/>
    <tag k="oneway" v="no"/>
  </way>
  <way id="765095058" version="3" timestamp="2024-04-28T15:36:53Z" changeset="150624521" uid="11022773" user="GeoFens">
    <nd ref="7146033429"/>
    <nd ref="7146033430"/>
    <nd ref="7146033431"/>
    <tag k="highway" v="residential"/>
    <tag k="maxspeed" v="20 mph"/>
    <tag k="name" v="Caton Close"/>
    <tag k="oneway" v="no"/>
  </way>
  <way id="792126412" version="2" timestamp="2020-05-19T22:44:47Z" changeset="85466275" uid="11022773" user="GeoFens">
    <nd ref="7405468609"/>
    <nd ref="7405468610"/>
    <nd ref="7405468611"/>
    <nd ref="7405468612"/>
    <nd ref="7405468609"/>
    <tag k="building" v="yes"/>
    <tag k="name" v="G Tinkler"/>
    <tag k="operator" v="Tinklers"/>
    <tag k="shop" v="car_repair"/>
  </way>
  <way id="797660802" version="7" timestamp="2024-04-28T15:36:53Z" changeset="150624521" uid="11022773" user="GeoFens">
    <nd ref="9049895745"/>
    <nd ref="692256073"/>
    <nd ref="9049895744"/>
    <nd ref="692256070"/>
    <nd ref="6154556761"/>
    <nd ref="692256071"/>
    <nd ref="7532319958"/>
    <nd ref="32909953"/>
    <tag k="highway" v="residential"/>
    <tag k="maxspeed" v="20 mph"/>
    <tag k="name" v="Tunkers Lane"/>
    <tag k="oneway" v="no"/>
    <tag k="surface" v="asphalt"/>
  </way>
  <way id="797660803" version="6" timestamp="2024-04-28T15:36:53Z" changeset="150624521" uid="11022773" user="GeoFens">
    <nd ref="692256080"/>
    <nd ref="692256084"/>
    <nd ref="8443291173"/>
    <nd ref="9049895745"/>
    <tag k="highway" v="residential"/>
    <tag k="maxspeed" v="20 mph"/>
    <tag k="name" v="Tunkers Lane (unadopted)"/>
    <tag k="oneway" v="no"/>
    <tag k="surface" v="unpaved"/>
  </way>
  <way id="800568420" version="2" timestamp="2024-04-28T16:45:33Z" changeset="150627452" uid="11022773" user="GeoFens">
    <nd ref="7487687900"/>
    <nd ref="7487687899"/>
    <tag k="foot" v="designated"/>
    <tag k="highway" v="residential"/>
    <tag k="maxspeed" v="20 mph"/>
    <tag k="name" v="Brookfield Way"/>
  </way>
  <way id="802992143" version="2" timestamp="2021-05-30T21:52:35Z" changeset="105585586" uid="11022773" user="GeoFens">
    <nd ref="7511421780"/>
    <nd ref="7511421779"/>
    <nd ref="7511421778"/>
    <nd ref="7511421777"/>
    <nd ref="7511421780"/>
    <tag k="building" v="house"/>
    <tag k="name" v="The Sycamores"/>
  </way>
  <way id="802992144" version="5" timestamp="2022-12-28T00:06:03Z" changeset="130577537" uid="3999" user="BarryMyles">
    <nd ref="7511421788"/>
    <nd ref="7511421785"/>
    <nd ref="7511421783"/>
    <nd ref="7511421784"/>
    <nd ref="7511421786"/>
    <nd ref="7511421781"/>
    <nd ref="7511421782"/>
    <nd ref="7511421787"/>
    <nd ref="7511421788"/>
    <tag k="addr:city" v="Huntingdon"/>
    <tag k="addr:postcode" v="PE26 1NA"/>
    <tag k="addr:street" v="Bury Road"/>
    <tag k="building" v="yes"/>
    <tag k="name" v="Ramsey Hunts Telephone Exchange"/>
    <tag k="operator" v="Openreach"/>
    <tag k="operator:wikidata" v="Q7096543"/>
    <tag k="ref" v="EMRMSEY"/>
    <tag k="telecom" v="exchange"/>
  </way>
  <way id="803919067" version="2" timestamp="2021-05-30T21:52:35Z" changeset="105585586" uid="11022773" user="GeoFens">
    <nd ref="7519883726"/>
    <nd ref="7519883723"/>
    <nd ref="7519883722"/>
    <nd ref="7519883721"/>
    <nd ref="7519883724"/>
    <nd ref="7519883725"/>
    <nd ref="7519883726"/>
    <tag k="building" v="house"/>
    <tag k="name" v="Roundwood"/>
  </way>
  <way id="804457800" version="2" timestamp="2022-02-06T16:36:28Z" changeset="117086162" uid="11022773" user="GeoFens">
    <nd ref="7524471654"/>
    <nd ref="7524471651"/>
    <nd ref="7524471649"/>
    <nd ref="7524471650"/>
    <nd ref="7524471652"/>
    <nd ref="7524471653"/>
    <nd ref="7524471654"/>
    <tag k="building" v="house"/>
    <tag k="name" v="The Gables"/>
  </way>
  <way id="804457802" version="2" timestamp="2022-02-06T16:36:28Z" changeset="117086162" uid="11022773" user="GeoFens">
    <nd ref="7524471664"/>
    <nd ref="7524471661"/>
    <nd ref="7524471662"/>
    <nd ref="7524471663"/>
    <nd ref="7524471659"/>
    <nd ref="7524471660"/>
    <nd ref="7524471664"/>
    <tag k="building" v="house"/>
    <tag k="name" v="Lowbury"/>
  </way>
  <way id="804457994" version="3" timestamp="2024-04-28T14:34:24Z" changeset="150621695" uid="11022773" user="GeoFens">
    <nd ref="693745552"/>
    <nd ref="2935959217"/>
    <nd ref="693745553"/>
    <nd ref="693745554"/>
    <tag k="highway" v="residential"/>
    <tag k="maxspeed" v="20 mph"/>
    <tag k="name" v="Foundry Way"/>
    <tag k="oneway" v="no"/>
    <tag k="surface" v="asphalt"/>
  </way>
  <way id="804989375" version="2" timestamp="2024-04-28T16:48:18Z" changeset="150627587" uid="11022773" user="GeoFens">
    <nd ref="692256338"/>
    <nd ref="7529610066"/>
    <tag k="highway" v="residential"/>
    <tag k="maxspeed" v="20 mph"/>
    <tag k="name" v="Bader Close"/>
  </way>
  <way id="804989455" version="2" timestamp="2024-04-28T16:48:18Z" changeset="150627587" uid="11022773" user="GeoFens">
    <nd ref="7529610394"/>
    <nd ref="7529610393"/>
    <tag k="highway" v="residential"/>
    <tag k="maxspeed" v="20 mph"/>
    <tag k="name" v="Old Stable Walk"/>
  </way>
  <way id="804989466" version="1" timestamp="2020-05-17T18:09:29Z" changeset="85343864" uid="5173844" user="ndrw6">
    <nd ref="7487687897"/>
    <nd ref="7529610435"/>
    <tag k="highway" v="residential"/>
  </way>
  <way id="805352697" version="2" timestamp="2024-03-31T15:59:52Z" changeset="149397220" uid="11022773" user="GeoFens">
    <nd ref="692256076"/>
    <nd ref="7532319917"/>
    <tag k="access" v="private"/>
    <tag k="highway" v="residential"/>
    <tag k="maxspeed" v="15 mph"/>
    <tag k="name" v="Valiant Square"/>
  </way>
  <way id="805352698" version="2" timestamp="2024-03-31T15:59:52Z" changeset="149397220" uid="11022773" user="GeoFens">
    <nd ref="7532319919"/>
    <nd ref="7532319918"/>
    <tag k="access" v="private"/>
    <tag k="highway" v="residential"/>
    <tag k="maxspeed" v="15 mph"/>
    <tag k="name" v="Valiant Square"/>
  </way>
  <way id="805352699" version="2" timestamp="2024-03-31T15:59:52Z" changeset="149397220" uid="11022773" user="GeoFens">
    <nd ref="7532319921"/>
    <nd ref="7532319920"/>
    <tag k="access" v="private"/>
    <tag k="highway" v="residential"/>
    <tag k="maxspeed" v="15 mph"/>
    <tag k="name" v="Valiant Square"/>
  </way>
  <way id="805352700" version="2" timestamp="2024-03-31T15:59:52Z" changeset="149397220" uid="11022773" user="GeoFens">
    <nd ref="692256047"/>
    <nd ref="7532319922"/>
    <tag k="access" v="private"/>
    <tag k="highway" v="residential"/>
    <tag k="maxspeed" v="15 mph"/>
    <tag k="name" v="Valiant Square"/>
  </way>
  <way id="805352701" version="2" timestamp="2024-03-31T15:59:52Z" changeset="149397220" uid="11022773" user="GeoFens">
    <nd ref="7532319924"/>
    <nd ref="7532319923"/>
    <tag k="access" v="private"/>
    <tag k="highway" v="residential"/>
    <tag k="maxspeed" v="15 mph"/>
    <tag k="name" v="Valiant Square"/>
    <tag k="oneway" v="no"/>
  </way>
  <way id="805352702" version="3" timestamp="2024-03-31T15:59:52Z" changeset="149397220" uid="11022773" user="GeoFens">
    <nd ref="692256071"/>
    <nd ref="692256004"/>
    <nd ref="692256003"/>
    <nd ref="692255999"/>
    <nd ref="11608260140"/>
    <nd ref="11608260139"/>
    <nd ref="692255985"/>
    <nd ref="6154556900"/>
    <nd ref="692256052"/>
    <nd ref="7532319925"/>
    <tag k="access" v="private"/>
    <tag k="highway" v="residential"/>
    <tag k="maxspeed" v="15 mph"/>
    <tag k="name" v="Valiant Square"/>
    <tag k="oneway" v="no"/>
    <tag k="surface" v="asphalt"/>
  </way>
  <way id="805352726" version="1" timestamp="2020-05-18T11:47:14Z" changeset="85381870" uid="5173844" user="ndrw6">
    <nd ref="692256091"/>
    <nd ref="7532320025"/>
    <tag k="highway" v="residential"/>
    <tag k="name" v="Buryfield"/>
  </way>
  <way id="805352880" version="2" timestamp="2021-07-23T05:00:14Z" changeset="108461222" uid="9196103" user="srinatpa">
    <nd ref="692256045"/>
    <nd ref="8943152787"/>
    <nd ref="692256111"/>
    <nd ref="692256109"/>
    <nd ref="7532320700"/>
    <nd ref="7532320699"/>
    <nd ref="7532320698"/>
    <nd ref="7532320697"/>
    <nd ref="7532320696"/>
    <nd ref="692256045"/>
    <tag k="highway" v="residential"/>
    <tag k="name" v="Bury Close"/>
  </way>
  <way id="805352912" version="2" timestamp="2022-02-06T16:36:28Z" changeset="117086162" uid="11022773" user="GeoFens">
    <nd ref="7532320828"/>
    <nd ref="7532320825"/>
    <nd ref="7532320826"/>
    <nd ref="7532320827"/>
    <nd ref="7532320828"/>
    <tag k="building" v="house"/>
    <tag k="name" v="The Sycamores"/>
  </way>
  <way id="805865141" version="3" timestamp="2025-04-08T09:07:24Z" changeset="164668768" uid="9088405" user="TheUKHighStreet">
    <nd ref="7535925312"/>
    <nd ref="7535925311"/>
    <nd ref="7535925310"/>
    <nd ref="7535925306"/>
    <nd ref="7535925308"/>
    <nd ref="7535925303"/>
    <nd ref="7535925304"/>
    <nd ref="7535925302"/>
    <nd ref="7535925301"/>
    <nd ref="7535925307"/>
    <nd ref="7535925305"/>
    <nd ref="7535925309"/>
    <nd ref="7535925312"/>
    <tag k="building" v="yes"/>
    <tag k="name" v="Cromwell Farm Boarding Kennels &amp; Cattery"/>
  </way>
  <way id="838357890" version="4" timestamp="2023-09-12T14:43:52Z" changeset="141167531" uid="5173844" user="ndrw6">
    <nd ref="692256068"/>
    <nd ref="11186052787"/>
    <nd ref="7460288544"/>
    <nd ref="7405445327"/>
    <nd ref="7405445328"/>
    <nd ref="7532316528"/>
    <nd ref="11186052786"/>
    <nd ref="7405445329"/>
    <nd ref="8827376858"/>
    <nd ref="7405445330"/>
    <nd ref="11186052784"/>
    <nd ref="7532316539"/>
    <nd ref="7532316540"/>
    <nd ref="11186052782"/>
    <nd ref="7405445331"/>
    <nd ref="7405445332"/>
    <nd ref="11186052818"/>
    <nd ref="7532316541"/>
    <nd ref="7405445333"/>
    <nd ref="9481705639"/>
    <nd ref="7532316542"/>
    <nd ref="11186052766"/>
    <nd ref="7405445327"/>
    <tag k="highway" v="residential"/>
    <tag k="name" v="De Havilland Gardens"/>
  </way>
  <way id="839247885" version="1" timestamp="2020-08-21T08:05:54Z" changeset="89731222" uid="6871" user="smsm1">
    <nd ref="7831604907"/>
    <nd ref="7831604908"/>
    <tag k="highway" v="residential"/>
    <tag k="name" v="Signal Road"/>
  </way>
  <way id="841414491" version="1" timestamp="2020-08-27T16:58:50Z" changeset="90038334" uid="11022773" user="GeoFens">
    <nd ref="7850614893"/>
    <nd ref="7850614894"/>
    <nd ref="7850614895"/>
    <nd ref="7850614896"/>
    <nd ref="7850614893"/>
    <tag k="building" v="barn"/>
    <tag k="name" v="Bat Roost"/>
  </way>
  <way id="901272813" version="10" timestamp="2024-04-28T14:34:24Z" changeset="150621695" uid="11022773" user="GeoFens">
    <nd ref="8372551573"/>
    <nd ref="8372551574"/>
    <nd ref="9214726439"/>
    <nd ref="8441700295"/>
    <nd ref="8608336813"/>
    <nd ref="9214722595"/>
    <nd ref="11148532313"/>
    <nd ref="9214726438"/>
    <nd ref="8608336814"/>
    <nd ref="9214722589"/>
    <nd ref="9214722590"/>
    <nd ref="9214722591"/>
    <nd ref="9214722592"/>
    <nd ref="9214722593"/>
    <nd ref="11148532311"/>
    <nd ref="11148532310"/>
    <nd ref="9214726430"/>
    <tag k="highway" v="residential"/>
    <tag k="maxspeed" v="20 mph"/>
    <tag k="name" v="Longland Crescent"/>
    <tag k="oneway" v="no"/>
    <tag k="sidewalk" v="both"/>
    <tag k="surface" v="asphalt"/>
  </way>
  <way id="997980056" version="3" timestamp="2023-01-29T17:01:47Z" changeset="131847751" uid="11022773" user="GeoFens">
    <nd ref="9214722603"/>
    <nd ref="9214722604"/>
    <nd ref="9214722605"/>
    <nd ref="9214722606"/>
    <nd ref="9214722603"/>
    <tag k="addr:housenumber" v="7"/>
    <tag k="addr:street" v="Longland Crescent"/>
    <tag k="building" v="bungalow"/>
  </way>
  <way id="997980057" version="4" timestamp="2024-05-29T13:19:26Z" changeset="151989315" uid="95856" user="john paul jones &amp; gringo">
    <nd ref="9214722607"/>
    <nd ref="9214722608"/>
    <nd ref="9214722609"/>
    <nd ref="9214722610"/>
    <nd ref="9214722607"/>
    <tag k="addr:city" v="Huntingdon"/>
    <tag k="addr:country" v="GB"/>
    <tag k="addr:housenumber" v="3a"/>
    <tag k="addr:postcode" v="PE26 2SF"/>
    <tag k="addr:street" v="Longland Crescent"/>
    <tag k="addr:suburb" v="Bury"/>
    <tag k="building" v="house"/>
  </way>
  <way id="997980058" version="3" timestamp="2024-05-29T13:19:26Z" changeset="151989315" uid="95856" user="john paul jones &amp; gringo">
    <nd ref="9214722611"/>
    <nd ref="9214722612"/>
    <nd ref="9214722613"/>
    <nd ref="9214722614"/>
    <nd ref="9214722611"/>
    <tag k="addr:city" v="Huntingdon"/>
    <tag k="addr:country" v="GB"/>
    <tag k="addr:housenumber" v="5"/>
    <tag k="addr:postcode" v="PE26 2SF"/>
    <tag k="addr:street" v="Longland Crescent"/>
    <tag k="addr:suburb" v="Bury"/>
    <tag k="building" v="house"/>
  </way>
  <way id="997980059" version="4" timestamp="2024-05-29T13:19:26Z" changeset="151989315" uid="95856" user="john paul jones &amp; gringo">
    <nd ref="9214722615"/>
    <nd ref="9214722616"/>
    <nd ref="9214726417"/>
    <nd ref="9214726418"/>
    <nd ref="9214726419"/>
    <nd ref="9214726420"/>
    <nd ref="9214722615"/>
    <tag k="addr:city" v="Huntingdon"/>
    <tag k="addr:country" v="GB"/>
    <tag k="addr:housenumber" v="3"/>
    <tag k="addr:postcode" v="PE26 2SF"/>
    <tag k="addr:street" v="Longland Crescent"/>
    <tag k="addr:suburb" v="Bury"/>
    <tag k="building" v="house"/>
  </way>
  <way id="997980061" version="6" timestamp="2024-11-16T23:37:21Z" changeset="159225750" uid="11022773" user="GeoFens">
    <nd ref="9214726430"/>
    <nd ref="12346990998"/>
    <nd ref="9214726431"/>
    <nd ref="9214726432"/>
    <nd ref="9214726433"/>
    <nd ref="11148532307"/>
    <nd ref="9214726434"/>
    <nd ref="9214726435"/>
    <nd ref="9214726436"/>
    <nd ref="9214726437"/>
    <nd ref="11148532319"/>
    <nd ref="9214726438"/>
    <tag k="highway" v="residential"/>
    <tag k="maxspeed" v="20 mph"/>
    <tag k="name" v="Longland Crescent"/>
    <tag k="oneway" v="no"/>
    <tag k="sidewalk" v="both"/>
    <tag k="surface" v="asphalt"/>
  </way>
  <way id="1005018795" version="2" timestamp="2021-11-21T17:59:56Z" changeset="114067719" uid="11022773" user="GeoFens">
    <nd ref="9272736066"/>
    <nd ref="9272736067"/>
    <nd ref="9272736068"/>
    <nd ref="9272736069"/>
    <nd ref="9272736066"/>
    <tag k="building" v="yes"/>
    <tag k="name" v="Molyneux Suite (Halfway House)"/>
    <tag k="operator" v="Ramsey Golf Club"/>
  </way>
  <way id="1050420804" version="7" timestamp="2024-05-31T21:11:25Z" changeset="152099025" uid="11022773" user="GeoFens">
    <nd ref="9652935784"/>
    <nd ref="9652935785"/>
    <nd ref="11948769716"/>
    <nd ref="10038092398"/>
    <nd ref="10038092399"/>
    <nd ref="11608129915"/>
    <nd ref="10038092400"/>
    <nd ref="10038092401"/>
    <nd ref="10038092402"/>
    <nd ref="10038092403"/>
    <nd ref="10038092404"/>
    <nd ref="10038092405"/>
    <nd ref="10038092406"/>
    <nd ref="10038092407"/>
    <nd ref="10038092408"/>
    <nd ref="10038092409"/>
    <nd ref="10038092410"/>
    <nd ref="11148416296"/>
    <nd ref="10038092411"/>
    <nd ref="11148416297"/>
    <nd ref="10038092412"/>
    <nd ref="10038092413"/>
    <nd ref="10038118223"/>
    <nd ref="10038118222"/>
    <nd ref="9652935785"/>
    <tag k="highway" v="residential"/>
    <tag k="maxspeed" v="20 mph"/>
    <tag k="name" v="Rays Close"/>
    <tag k="oneway" v="no"/>
  </way>
  <way id="1125864029" version="1" timestamp="2022-12-30T15:57:59Z" changeset="130693172" uid="11022773" user="GeoFens">
    <nd ref="10295299597"/>
    <nd ref="10295299598"/>
    <nd ref="10295299599"/>
    <nd ref="10295299600"/>
    <nd ref="10295299597"/>
    <tag k="addr:housenumber" v="1"/>
    <tag k="addr:street" v="Longland Crescent"/>
    <tag k="building" v="house"/>
  </way>
  <way id="1156285124" version="2" timestamp="2023-03-22T12:45:37Z" changeset="133976932" uid="18779133" user="rainpants">
    <nd ref="10753200181"/>
    <nd ref="10753200182"/>
    <nd ref="10753200183"/>
    <nd ref="10753200184"/>
    <nd ref="10753200181"/>
    <tag k="addr:housenumber" v="91"/>
    <tag k="addr:street" v="Longland Crescent"/>
    <tag k="building" v="house"/>
  </way>
  <way id="1156285125" version="2" timestamp="2023-03-22T12:45:37Z" changeset="133976932" uid="18779133" user="rainpants">
    <nd ref="10753200185"/>
    <nd ref="10753200186"/>
    <nd ref="10753200187"/>
    <nd ref="10753200188"/>
    <nd ref="10753200185"/>
    <tag k="addr:housenumber" v="93"/>
    <tag k="addr:street" v="Longland Crescent"/>
    <tag k="building" v="house"/>
  </way>
  <way id="1156285127" version="2" timestamp="2023-03-22T12:45:37Z" changeset="133976932" uid="18779133" user="rainpants">
    <nd ref="10753200193"/>
    <nd ref="10753200194"/>
    <nd ref="10753200195"/>
    <nd ref="10753200196"/>
    <nd ref="10753200193"/>
    <tag k="addr:housenumber" v="83"/>
    <tag k="addr:street" v="Longland Crescent"/>
    <tag k="building" v="house"/>
  </way>
  <way id="1156285128" version="2" timestamp="2023-03-22T12:45:37Z" changeset="133976932" uid="18779133" user="rainpants">
    <nd ref="10753200194"/>
    <nd ref="10753200197"/>
    <nd ref="10753200198"/>
    <nd ref="10753200195"/>
    <nd ref="10753200194"/>
    <tag k="addr:housenumber" v="85"/>
    <tag k="addr:street" v="Longland Crescent"/>
    <tag k="building" v="house"/>
  </way>
  <way id="1156285129" version="2" timestamp="2024-05-29T13:19:26Z" changeset="151989315" uid="95856" user="john paul jones &amp; gringo">
    <nd ref="10753200197"/>
    <nd ref="10753200199"/>
    <nd ref="10753200200"/>
    <nd ref="10753200198"/>
    <nd ref="10753200197"/>
    <tag k="addr:city" v="Huntingdon"/>
    <tag k="addr:country" v="GB"/>
    <tag k="addr:housenumber" v="87"/>
    <tag k="addr:postcode" v="PE26 2SF"/>
    <tag k="addr:street" v="Longland Crescent"/>
    <tag k="addr:suburb" v="Bury"/>
    <tag k="building" v="house"/>
  </way>
  <way id="1156314943" version="1" timestamp="2023-03-22T14:12:22Z" changeset="133980477" uid="18779133" user="rainpants">
    <nd ref="10753478515"/>
    <nd ref="10753478516"/>
    <nd ref="10753478517"/>
    <nd ref="10753478518"/>
    <nd ref="10753478515"/>
    <tag k="addr:housenumber" v="89"/>
    <tag k="addr:street" v="Longland Crescent"/>
    <tag k="building" v="house"/>
  </way>
  <way id="1184860108" version="5" timestamp="2024-04-28T15:36:53Z" changeset="150624521" uid="11022773" user="GeoFens">
    <nd ref="10038092413"/>
    <nd ref="11148416292"/>
    <nd ref="11148416298"/>
    <nd ref="11608129872"/>
    <nd ref="10038092414"/>
    <nd ref="10038092415"/>
    <nd ref="10038092416"/>
    <nd ref="11006054505"/>
    <nd ref="11148416294"/>
    <nd ref="10038118218"/>
    <nd ref="10038118219"/>
    <nd ref="10038118221"/>
    <nd ref="10038118222"/>
    <tag k="highway" v="residential"/>
    <tag k="maxspeed" v="20 mph"/>
    <tag k="name" v="Crabtree Way"/>
    <tag k="oneway" v="no"/>
  </way>
  <way id="1184860109" version="4" timestamp="2024-04-28T15:36:53Z" changeset="150624521" uid="11022773" user="GeoFens">
    <nd ref="10038092404"/>
    <nd ref="11005967004"/>
    <tag k="highway" v="residential"/>
    <tag k="maxspeed" v="20 mph"/>
    <tag k="name" v="Oak Square"/>
    <tag k="oneway" v="no"/>
  </way>
  <way id="1277863626" version="1" timestamp="2024-04-28T16:40:04Z" changeset="150627251" uid="11022773" user="GeoFens">
    <nd ref="243493545"/>
    <nd ref="968071541"/>
    <nd ref="4568836315"/>
    <nd ref="243493546"/>
    <nd ref="689464987"/>
    <nd ref="243493547"/>
    <nd ref="243493548"/>
    <nd ref="689464991"/>
    <tag k="highway" v="secondary"/>
    <tag k="maxspeed" v="40 mph"/>
    <tag k="name" v="Shillow Hill"/>
    <tag k="ref" v="B1040"/>
  </way>
  <way id="1344662222" version="1" timestamp="2024-12-21T23:54:39Z" changeset="160487127" uid="5173844" user="ndrw6">
    <nd ref="12439948223"/>
    <nd ref="692256096"/>
    <nd ref="12439948222"/>
    <tag k="highway" v="residential"/>
    <tag k="maxspeed" v="20 mph"/>
    <tag k="name" v="Buryfield"/>
  </way>

</osm>
