<?xml version="1.0" encoding="UTF-8"?>
<osm version="0.6" generator="Overpass API 0.7.62.5 1bd436f1">
<note>The data included in this document is from www.openstreetmap.org. The data is made available under ODbL.</note>
<meta osm_base="2025-04-05T17:07:05Z" areas="2025-02-06T02:17:44Z"/>

  <node id="4307482" lat="52.5342574" lon="-0.3199757" version="7" timestamp="2017-05-18T16:19:19Z" changeset="48796276" uid="2773866" user="kreuzschnabel"/>
  <node id="4307557" lat="52.5357824" lon="-0.3097739" version="7" timestamp="2012-11-16T13:07:50Z" changeset="13893731" uid="125259" user="abc26324"/>
  <node id="4308227" lat="52.5324526" lon="-0.3164374" version="6" timestamp="2024-04-02T22:14:05Z" changeset="149500703" uid="5229644" user="Nathan_A_RF"/>
  <node id="4308838" lat="52.5079085" lon="-0.2941904" version="15" timestamp="2018-09-13T18:32:35Z" changeset="62561387" uid="2773866" user="kreuzschnabel">
    <tag k="highway" v="motorway_junction"/>
    <tag k="name" v="Norman Cross"/>
    <tag k="ref" v="16"/>
  </node>
  <node id="60118383" lat="52.5513940" lon="-0.3234460" version="3" timestamp="2014-05-24T15:29:59Z" changeset="22526002" uid="90142" user="andy mackey"/>
  <node id="180761040" lat="52.5332757" lon="-0.3195757" version="6" timestamp="2017-05-18T16:19:20Z" changeset="48796276" uid="2773866" user="kreuzschnabel"/>
  <node id="194597999" lat="52.5202778" lon="-0.3285098" version="3" timestamp="2011-07-23T08:10:50Z" changeset="8803974" uid="281152" user="eboshi"/>
  <node id="194603563" lat="52.5039398" lon="-0.2932091" version="4" timestamp="2011-12-18T11:13:41Z" changeset="10145044" uid="28024" user="dbisping"/>
  <node id="255750124" lat="52.5349401" lon="-0.3182483" version="3" timestamp="2017-05-18T16:19:20Z" changeset="48796276" uid="2773866" user="kreuzschnabel"/>
  <node id="349341793" lat="52.5463674" lon="-0.3322798" version="4" timestamp="2023-12-13T14:24:00Z" changeset="145077257" uid="9385857" user="Road5914"/>
  <node id="349341794" lat="52.5459297" lon="-0.3334598" version="4" timestamp="2023-12-13T14:24:00Z" changeset="145077257" uid="9385857" user="Road5914"/>
  <node id="361183488" lat="52.5534190" lon="-0.3412694" version="2" timestamp="2018-07-13T22:25:37Z" changeset="60701699" uid="2773866" user="kreuzschnabel"/>
  <node id="721847577" lat="52.5464698" lon="-0.3342041" version="4" timestamp="2023-12-13T14:24:00Z" changeset="145077257" uid="9385857" user="Road5914"/>
  <node id="1035292865" lat="52.5343026" lon="-0.3169697" version="3" timestamp="2024-04-02T22:14:05Z" changeset="149500703" uid="5229644" user="Nathan_A_RF"/>
  <node id="2016452946" lat="52.5265343" lon="-0.3112879" version="4" timestamp="2024-11-16T23:26:45Z" changeset="159225606" uid="5229644" user="Nathan_A_RF">
    <tag k="exit_to" v="A605 - Peterborough South;Oundle;Services"/>
    <tag k="highway" v="motorway_junction"/>
    <tag k="name" v="Fletton Parkway"/>
    <tag k="ref" v="17"/>
  </node>
  <node id="2016473423" lat="52.5349946" lon="-0.3148655" version="4" timestamp="2024-01-07T14:44:18Z" changeset="145994071" uid="5229644" user="Nathan_A_RF">
    <tag k="highway" v="motorway_junction"/>
    <tag k="name" v="Orton South"/>
    <tag k="ref" v="1"/>
  </node>
  <node id="2016550184" lat="52.5340081" lon="-0.3203459" version="2" timestamp="2017-05-18T16:19:22Z" changeset="48796276" uid="2773866" user="kreuzschnabel"/>
  <node id="2016553411" lat="52.5312429" lon="-0.3167044" version="3" timestamp="2024-04-02T22:14:05Z" changeset="149500703" uid="5229644" user="Nathan_A_RF"/>
  <node id="2415163489" lat="52.5480941" lon="-0.3277682" version="2" timestamp="2017-05-20T21:19:47Z" changeset="48851204" uid="2773866" user="kreuzschnabel"/>
  <node id="2470024191" lat="52.5533556" lon="-0.3414196" version="2" timestamp="2018-07-13T22:25:37Z" changeset="60701699" uid="2773866" user="kreuzschnabel"/>
  <node id="8752800694" lat="52.5481024" lon="-0.3272537" version="1" timestamp="2021-05-21T11:27:58Z" changeset="105086271" uid="5443821" user="◪ Jarv"/>
  <way id="4271275" version="23" timestamp="2024-04-02T22:14:05Z" changeset="149500703" uid="5229644" user="Nathan_A_RF">
    <nd ref="4307530"/>
    <nd ref="2016550073"/>
    <nd ref="2016550200"/>
    <nd ref="1019193710"/>
    <nd ref="1551948337"/>
    <nd ref="1551948341"/>
    <nd ref="25641113"/>
    <nd ref="1551948331"/>
    <nd ref="1551948336"/>
    <nd ref="2016475648"/>
    <nd ref="2016475649"/>
    <nd ref="4307547"/>
    <nd ref="2016473382"/>
    <nd ref="2016473423"/>
    <nd ref="428922301"/>
    <nd ref="4307552"/>
    <nd ref="1551800828"/>
    <nd ref="2016473334"/>
    <nd ref="1551800977"/>
    <nd ref="2016473391"/>
    <nd ref="1551800809"/>
    <nd ref="2016473413"/>
    <nd ref="4307557"/>
    <tag k="dual_carriageway" v="yes"/>
    <tag k="expressway" v="yes"/>
    <tag k="highway" v="trunk"/>
    <tag k="lanes" v="1"/>
    <tag k="lit" v="yes"/>
    <tag k="maxspeed" v="60 mph"/>
    <tag k="maxspeed:type" v="sign"/>
    <tag k="name" v="Fletton Parkway"/>
    <tag k="oneway" v="yes"/>
    <tag k="ref" v="A1139"/>
  </way>
  <way id="4272278" version="24" timestamp="2024-01-07T14:44:18Z" changeset="145994071" uid="5229644" user="Nathan_A_RF">
    <nd ref="2016493714"/>
    <nd ref="2016493720"/>
    <nd ref="25641103"/>
    <nd ref="2016550123"/>
    <nd ref="2016550159"/>
    <nd ref="2016550147"/>
    <nd ref="9133603087"/>
    <nd ref="2016550079"/>
    <nd ref="2016550161"/>
    <nd ref="2016550153"/>
    <tag k="destination" v="Peterboro’;Wisbech;N’hampton;Oundle"/>
    <tag k="destination:ref" v="A1139;A605"/>
    <tag k="expressway" v="yes"/>
    <tag k="highway" v="trunk_link"/>
    <tag k="lanes" v="2"/>
    <tag k="lit" v="yes"/>
    <tag k="maxspeed" v="70 mph"/>
    <tag k="maxspeed:type" v="GB:nsl_dual"/>
    <tag k="national_highways:area" v="DBFO28"/>
    <tag k="oneway" v="yes"/>
    <tag k="operator" v="National Highways"/>
    <tag k="operator:wikidata" v="Q5760006"/>
    <tag k="source" v="Bing"/>
    <tag k="source:maxspeed" v="THE A1(M) MOTORWAY (JUNCTION 17) NORTHBOUND LINK ROAD (60 MILES PER HOUR SPEED LIMIT) ORDER 2016"/>
  </way>
  <way id="4272279" version="24" timestamp="2024-01-07T14:44:18Z" changeset="145994071" uid="5229644" user="Nathan_A_RF">
    <nd ref="2016550184"/>
    <nd ref="2016550093"/>
    <nd ref="2016550187"/>
    <nd ref="2016550100"/>
    <nd ref="2016550127"/>
    <nd ref="1551800915"/>
    <nd ref="25641105"/>
    <nd ref="1654705814"/>
    <nd ref="2016486979"/>
    <tag k="destination:ref" v="A1"/>
    <tag k="expressway" v="yes"/>
    <tag k="highway" v="trunk_link"/>
    <tag k="maxspeed" v="70 mph"/>
    <tag k="maxspeed:type" v="GB:nsl_dual"/>
    <tag k="national_highways:area" v="6"/>
    <tag k="oneway" v="yes"/>
    <tag k="operator" v="National Highways"/>
    <tag k="operator:wikidata" v="Q5760006"/>
  </way>
  <way id="4272282" version="17" timestamp="2024-07-25T10:28:28Z" changeset="154386617" uid="1802093" user="Paul Berry">
    <nd ref="4307482"/>
    <nd ref="180765587"/>
    <tag k="bridge" v="yes"/>
    <tag k="highway" v="trunk"/>
    <tag k="junction" v="circular"/>
    <tag k="lanes" v="3"/>
    <tag k="layer" v="1"/>
    <tag k="maxspeed" v="60 mph"/>
    <tag k="maxspeed:type" v="GB:nsl_single"/>
    <tag k="maxweight:signed" v="no"/>
    <tag k="name" v="Fletton Parkway Interchange"/>
    <tag k="oneway" v="yes"/>
    <tag k="turn:lanes" v="slight_left|through|through;right"/>
  </way>
  <way id="8169234" version="4" timestamp="2019-04-26T20:40:04Z" changeset="69615060" uid="2274390" user="dzidek23">
    <nd ref="60118383"/>
    <nd ref="60118384"/>
    <nd ref="60118385"/>
    <nd ref="2342172364"/>
    <nd ref="60118386"/>
    <nd ref="60118387"/>
    <nd ref="60118388"/>
    <nd ref="60118389"/>
    <nd ref="6054863328"/>
    <nd ref="60118390"/>
    <nd ref="60118391"/>
    <nd ref="60118385"/>
    <tag k="highway" v="unclassified"/>
    <tag k="maxspeed" v="10 mph"/>
    <tag k="name" v="Minerva Business Park"/>
    <tag k="surface" v="asphalt"/>
  </way>
  <way id="8797513" version="17" timestamp="2024-11-16T23:26:45Z" changeset="159225606" uid="5229644" user="Nathan_A_RF">
    <nd ref="4307521"/>
    <nd ref="2016525246"/>
    <nd ref="2016525240"/>
    <nd ref="2016525255"/>
    <nd ref="2016525251"/>
    <nd ref="2016525232"/>
    <tag k="active_traffic_management" v="no"/>
    <tag k="destination" v="The SOUTH;London"/>
    <tag k="destination:ref" v="A1(M)"/>
    <tag k="highway" v="motorway_link"/>
    <tag k="lanes" v="1"/>
    <tag k="lit" v="yes"/>
    <tag k="maxspeed" v="70 mph"/>
    <tag k="maxspeed:type" v="GB:motorway"/>
    <tag k="maxspeed:variable" v="no"/>
    <tag k="national_highways:area" v="DBFO28"/>
    <tag k="oneway" v="yes"/>
    <tag k="operator" v="National Highways"/>
    <tag k="operator:wikidata" v="Q5760006"/>
    <tag k="ref" v="A1(M)"/>
  </way>
  <way id="17465538" version="27" timestamp="2024-11-16T23:26:45Z" changeset="159225606" uid="5229644" user="Nathan_A_RF">
    <nd ref="2016486971"/>
    <nd ref="5904677804"/>
    <nd ref="2016487022"/>
    <nd ref="2016486999"/>
    <nd ref="2016487002"/>
    <nd ref="2016487008"/>
    <nd ref="2016486997"/>
    <nd ref="2016486965"/>
    <nd ref="2016487014"/>
    <nd ref="2016486983"/>
    <nd ref="9823163171"/>
    <nd ref="2016486963"/>
    <nd ref="335373185"/>
    <nd ref="2016486957"/>
    <nd ref="2016486979"/>
    <tag k="active_traffic_management" v="no"/>
    <tag k="carriageway_ref" v="A"/>
    <tag k="highway" v="motorway"/>
    <tag k="int_ref" v="E 15"/>
    <tag k="lanes" v="2"/>
    <tag k="lit" v="yes"/>
    <tag k="maxheight" v="default"/>
    <tag k="maxspeed" v="70 mph"/>
    <tag k="maxspeed:type" v="GB:motorway"/>
    <tag k="maxspeed:variable" v="no"/>
    <tag k="name" v="Great North Road"/>
    <tag k="national_highways:area" v="DBFO28"/>
    <tag k="old_ref" v="A1"/>
    <tag k="oneway" v="yes"/>
    <tag k="operator" v="National Highways"/>
    <tag k="operator:wikidata" v="Q5760006"/>
    <tag k="ref" v="A1(M)"/>
    <tag k="surface" v="asphalt"/>
  </way>
  <way id="17465592" version="43" timestamp="2024-04-02T22:14:05Z" changeset="149500703" uid="5229644" user="Nathan_A_RF">
    <nd ref="482018519"/>
    <nd ref="2016493717"/>
    <nd ref="7784424314"/>
    <nd ref="2016493714"/>
    <tag k="carriageway_ref" v="B"/>
    <tag k="destination" v="The SOUTH;London"/>
    <tag k="destination:ref" v="A1(M)"/>
    <tag k="dual_carriageway" v="yes"/>
    <tag k="expressway" v="yes"/>
    <tag k="highway" v="trunk"/>
    <tag k="int_ref" v="E 15"/>
    <tag k="lanes" v="2"/>
    <tag k="lit" v="yes"/>
    <tag k="maxspeed" v="70 mph"/>
    <tag k="maxspeed:type" v="GB:nsl_dual"/>
    <tag k="name" v="Great North Road"/>
    <tag k="national_highways:area" v="6"/>
    <tag k="oneway" v="yes"/>
    <tag k="operator" v="National Highways"/>
    <tag k="operator:wikidata" v="Q5760006"/>
    <tag k="ref" v="A1"/>
    <tag k="surface" v="asphalt"/>
  </way>
  <way id="17465747" version="15" timestamp="2024-01-07T14:44:18Z" changeset="145994071" uid="5229644" user="Nathan_A_RF">
    <nd ref="180765587"/>
    <nd ref="2016550096"/>
    <nd ref="1551800902"/>
    <nd ref="2016550034"/>
    <nd ref="2016550153"/>
    <nd ref="4307493"/>
    <nd ref="27397143"/>
    <nd ref="1551800967"/>
    <nd ref="2016550040"/>
    <nd ref="4307533"/>
    <nd ref="1551800751"/>
    <nd ref="2016550204"/>
    <nd ref="27397144"/>
    <nd ref="4307530"/>
    <nd ref="1551800865"/>
    <nd ref="1551800756"/>
    <nd ref="1551800796"/>
    <nd ref="27397145"/>
    <nd ref="2016550044"/>
    <nd ref="1551800877"/>
    <nd ref="27397146"/>
    <nd ref="180767193"/>
    <nd ref="2016550174"/>
    <nd ref="2016550070"/>
    <tag k="highway" v="trunk"/>
    <tag k="junction" v="circular"/>
    <tag k="maxspeed" v="60 mph"/>
    <tag k="maxspeed:type" v="GB:nsl_single"/>
    <tag k="name" v="Fletton Parkway Interchange"/>
    <tag k="oneway" v="yes"/>
  </way>
  <way id="17465787" version="11" timestamp="2024-07-25T10:28:24Z" changeset="154386617" uid="1802093" user="Paul Berry">
    <nd ref="180762340"/>
    <nd ref="4307507"/>
    <tag k="bridge" v="yes"/>
    <tag k="highway" v="trunk"/>
    <tag k="junction" v="circular"/>
    <tag k="layer" v="1"/>
    <tag k="maxspeed" v="60 mph"/>
    <tag k="maxspeed:type" v="GB:nsl_single"/>
    <tag k="maxweight:signed" v="no"/>
    <tag k="name" v="Fletton Parkway Interchange"/>
    <tag k="oneway" v="yes"/>
  </way>
  <way id="17465948" version="20" timestamp="2024-11-16T23:26:45Z" changeset="159225606" uid="5229644" user="Nathan_A_RF">
    <nd ref="2016553411"/>
    <nd ref="11781550530"/>
    <nd ref="11781550529"/>
    <nd ref="1551800911"/>
    <nd ref="4308229"/>
    <nd ref="2016473343"/>
    <nd ref="1551800837"/>
    <nd ref="180767938"/>
    <nd ref="4308227"/>
    <tag k="active_traffic_management" v="no"/>
    <tag k="bridge" v="yes"/>
    <tag k="destination:ref" v="A1139"/>
    <tag k="highway" v="motorway_link"/>
    <tag k="lanes" v="2"/>
    <tag k="layer" v="1"/>
    <tag k="lit" v="yes"/>
    <tag k="maxspeed" v="60 mph"/>
    <tag k="maxspeed:type" v="sign"/>
    <tag k="maxspeed:variable" v="no"/>
    <tag k="national_highways:area" v="DBFO28"/>
    <tag k="oneway" v="yes"/>
    <tag k="operator" v="National Highways"/>
    <tag k="operator:wikidata" v="Q5760006"/>
    <tag k="ref" v="A1(M)"/>
    <tag k="source" v="Bing"/>
    <tag k="source:maxspeed" v="THE A1(M) MOTORWAY (JUNCTION 17) NORTHBOUND LINK ROAD (60 MILES PER HOUR SPEED LIMIT) ORDER 2016"/>
  </way>
  <way id="18834103" version="8" timestamp="2024-10-07T15:57:55Z" changeset="157588755" uid="953779" user="Adam Edwards">
    <nd ref="5935689016"/>
    <nd ref="10760593300"/>
    <nd ref="10760593301"/>
    <nd ref="10760593302"/>
    <nd ref="10760593303"/>
    <nd ref="194596574"/>
    <nd ref="10760593304"/>
    <nd ref="10760611105"/>
    <nd ref="194596577"/>
    <nd ref="10760611106"/>
    <nd ref="194596580"/>
    <nd ref="10760611107"/>
    <nd ref="194596585"/>
    <nd ref="194596590"/>
    <nd ref="194596595"/>
    <nd ref="194596598"/>
    <nd ref="194596603"/>
    <nd ref="194596606"/>
    <nd ref="4601264818"/>
    <nd ref="12102866001"/>
    <nd ref="194597858"/>
    <nd ref="194597880"/>
    <nd ref="194597885"/>
    <nd ref="194597891"/>
    <nd ref="194597892"/>
    <nd ref="194597893"/>
    <nd ref="8954327183"/>
    <nd ref="194597896"/>
    <nd ref="194597898"/>
    <nd ref="194597900"/>
    <nd ref="194597904"/>
    <nd ref="194597999"/>
    <tag k="highway" v="tertiary"/>
    <tag k="name" v="Haddon Road"/>
    <tag k="surface" v="asphalt"/>
  </way>
  <way id="18834354" version="4" timestamp="2019-04-12T21:04:01Z" changeset="69161756" uid="322039" user="MacLondon">
    <nd ref="194600740"/>
    <nd ref="194600737"/>
    <nd ref="194600731"/>
    <nd ref="194600727"/>
    <nd ref="194600721"/>
    <nd ref="194600715"/>
    <tag k="highway" v="tertiary"/>
  </way>
  <way id="23614138" version="7" timestamp="2016-11-17T13:26:53Z" changeset="43729613" uid="873940" user="Mike Baggaley">
    <nd ref="4307493"/>
    <nd ref="2016550060"/>
    <nd ref="2016550076"/>
    <nd ref="2016550082"/>
    <nd ref="2016550150"/>
    <nd ref="2016550181"/>
    <nd ref="255750124"/>
    <tag k="highway" v="tertiary"/>
    <tag k="name" v="Southgate Way"/>
    <tag k="oneway" v="yes"/>
  </way>
  <way id="31369692" version="11" timestamp="2024-04-02T22:14:05Z" changeset="149500703" uid="5229644" user="Nathan_A_RF">
    <nd ref="4316324"/>
    <nd ref="11414883805"/>
    <nd ref="11414883806"/>
    <nd ref="11414883803"/>
    <nd ref="349341722"/>
    <nd ref="11414883637"/>
    <nd ref="4862238549"/>
    <nd ref="11414883638"/>
    <nd ref="4862238548"/>
    <nd ref="11414883639"/>
    <nd ref="11414883640"/>
    <nd ref="11414883649"/>
    <nd ref="11414883650"/>
    <nd ref="349341724"/>
    <tag k="destination" v="Alwalton;Peterborough"/>
    <tag k="highway" v="trunk_link"/>
    <tag k="lanes" v="1"/>
    <tag k="maxspeed" v="70 mph"/>
    <tag k="maxspeed:type" v="GB:nsl_dual"/>
    <tag k="national_highways:area" v="6"/>
    <tag k="oneway" v="yes"/>
    <tag k="operator" v="National Highways"/>
    <tag k="operator:wikidata" v="Q5760006"/>
    <tag k="ref" v="A1"/>
    <tag k="sidewalk" v="left"/>
    <tag k="source" v="survey"/>
  </way>
  <way id="31369695" version="12" timestamp="2024-04-02T22:14:05Z" changeset="149500703" uid="5229644" user="Nathan_A_RF">
    <nd ref="349341724"/>
    <nd ref="11414883648"/>
    <nd ref="11414883634"/>
    <nd ref="7690680073"/>
    <nd ref="349341728"/>
    <nd ref="11414883635"/>
    <nd ref="4862238550"/>
    <nd ref="11414883636"/>
    <nd ref="4862238551"/>
    <nd ref="11414883608"/>
    <nd ref="11414883605"/>
    <nd ref="11414883607"/>
    <nd ref="11414883606"/>
    <nd ref="335388522"/>
    <tag k="highway" v="trunk_link"/>
    <tag k="lanes" v="1"/>
    <tag k="maxspeed" v="70 mph"/>
    <tag k="maxspeed:type" v="GB:nsl_dual"/>
    <tag k="national_highways:area" v="6"/>
    <tag k="oneway" v="yes"/>
    <tag k="operator" v="National Highways"/>
    <tag k="operator:wikidata" v="Q5760006"/>
    <tag k="ref" v="A1"/>
    <tag k="sidewalk" v="left"/>
    <tag k="source" v="survey"/>
  </way>
  <way id="31369704" version="12" timestamp="2024-04-02T22:14:05Z" changeset="149500703" uid="5229644" user="Nathan_A_RF">
    <nd ref="349341724"/>
    <nd ref="8745204028"/>
    <nd ref="11414883802"/>
    <nd ref="349341740"/>
    <nd ref="11414883651"/>
    <nd ref="4862238547"/>
    <nd ref="11414883652"/>
    <nd ref="11414883653"/>
    <nd ref="1348713925"/>
    <nd ref="11414883654"/>
    <nd ref="349341742"/>
    <nd ref="4866974352"/>
    <nd ref="349341744"/>
    <nd ref="1370797164"/>
    <nd ref="1370797155"/>
    <nd ref="7135732483"/>
    <nd ref="349341746"/>
    <nd ref="4866974351"/>
    <nd ref="4866974350"/>
    <nd ref="4866974349"/>
    <nd ref="349341747"/>
    <nd ref="1011019381"/>
    <nd ref="349341748"/>
    <nd ref="4866974348"/>
    <nd ref="349341749"/>
    <nd ref="11270450540"/>
    <tag k="highway" v="primary"/>
    <tag k="lanes" v="2"/>
    <tag k="maxspeed" v="30 mph"/>
    <tag k="name" v="Oundle Road"/>
    <tag k="ref" v="A605"/>
    <tag k="sidewalk" v="both"/>
    <tag k="source" v="survey"/>
  </way>
  <way id="31369747" version="2" timestamp="2013-08-11T19:56:02Z" changeset="17308227" uid="4951" user="PeterEastern">
    <nd ref="349341794"/>
    <nd ref="349341793"/>
    <tag k="bridge" v="yes"/>
    <tag k="highway" v="primary"/>
    <tag k="layer" v="1"/>
    <tag k="maxspeed" v="50 mph"/>
    <tag k="maxspeed:type" v="sign"/>
    <tag k="ref" v="A605"/>
  </way>
  <way id="40059127" version="33" timestamp="2024-04-02T22:14:05Z" changeset="149500703" uid="5229644" user="Nathan_A_RF">
    <nd ref="482018520"/>
    <nd ref="1654705776"/>
    <nd ref="335388502"/>
    <nd ref="11414876402"/>
    <nd ref="11414876419"/>
    <nd ref="4862238558"/>
    <nd ref="11414876418"/>
    <nd ref="11414876403"/>
    <nd ref="4862238557"/>
    <nd ref="335388505"/>
    <nd ref="4862238556"/>
    <nd ref="4862238555"/>
    <nd ref="335388510"/>
    <nd ref="11414876417"/>
    <nd ref="1348723676"/>
    <nd ref="4316160"/>
    <nd ref="11414876430"/>
    <nd ref="1348719081"/>
    <nd ref="11414876431"/>
    <nd ref="335388512"/>
    <nd ref="11414876444"/>
    <nd ref="11414883697"/>
    <nd ref="1348719062"/>
    <nd ref="11414876443"/>
    <nd ref="11414883579"/>
    <nd ref="721847391"/>
    <nd ref="11414883602"/>
    <nd ref="11414883601"/>
    <nd ref="721847397"/>
    <nd ref="11414883598"/>
    <nd ref="8752800698"/>
    <nd ref="4862238553"/>
    <nd ref="11415075146"/>
    <nd ref="4316166"/>
    <nd ref="4316322"/>
    <nd ref="335388523"/>
    <nd ref="11415075167"/>
    <nd ref="4316325"/>
    <nd ref="2470024191"/>
    <tag k="carriageway_ref" v="A"/>
    <tag k="dual_carriageway" v="yes"/>
    <tag k="expressway" v="yes"/>
    <tag k="highway" v="trunk"/>
    <tag k="int_ref" v="E 15"/>
    <tag k="lanes" v="2"/>
    <tag k="lit" v="no"/>
    <tag k="maxheight" v="default"/>
    <tag k="maxspeed" v="70 mph"/>
    <tag k="maxspeed:type" v="GB:nsl_dual"/>
    <tag k="name" v="Great North Road"/>
    <tag k="national_highways:area" v="6"/>
    <tag k="oneway" v="yes"/>
    <tag k="operator" v="National Highways"/>
    <tag k="operator:wikidata" v="Q5760006"/>
    <tag k="ref" v="A1"/>
    <tag k="surface" v="asphalt"/>
  </way>
  <way id="48557802" version="8" timestamp="2019-04-26T20:38:15Z" changeset="69615147" uid="2274390" user="dzidek23">
    <nd ref="1314408459"/>
    <nd ref="1314408468"/>
    <nd ref="1314408467"/>
    <nd ref="616797694"/>
    <nd ref="616797678"/>
    <nd ref="4333944837"/>
    <nd ref="616797691"/>
    <nd ref="616797677"/>
    <nd ref="1314576132"/>
    <nd ref="2894124552"/>
    <nd ref="998141391"/>
    <nd ref="998141388"/>
    <nd ref="1704161536"/>
    <nd ref="1314408474"/>
    <nd ref="998141382"/>
    <nd ref="1011019381"/>
    <tag k="highway" v="residential"/>
    <tag k="lit" v="yes"/>
    <tag k="name" v="Church Street"/>
    <tag k="surface" v="asphalt"/>
  </way>
  <way id="48557804" version="7" timestamp="2019-04-26T20:37:59Z" changeset="69615147" uid="2274390" user="dzidek23">
    <nd ref="1314576136"/>
    <nd ref="616797658"/>
    <nd ref="616797616"/>
    <nd ref="1416073469"/>
    <nd ref="1416073476"/>
    <nd ref="616797657"/>
    <nd ref="616797656"/>
    <nd ref="616797655"/>
    <nd ref="616797654"/>
    <nd ref="616797653"/>
    <nd ref="616797652"/>
    <nd ref="616797651"/>
    <nd ref="616797650"/>
    <nd ref="616797649"/>
    <nd ref="3861314684"/>
    <nd ref="616797648"/>
    <nd ref="616797647"/>
    <nd ref="616797646"/>
    <nd ref="616797681"/>
    <nd ref="616797685"/>
    <nd ref="616797688"/>
    <nd ref="616797691"/>
    <tag k="highway" v="residential"/>
    <tag k="lit" v="yes"/>
    <tag k="name" v="Mill Lane"/>
    <tag k="surface" v="asphalt"/>
  </way>
  <way id="58202906" version="11" timestamp="2024-04-02T22:14:05Z" changeset="149500703" uid="5229644" user="Nathan_A_RF">
    <nd ref="721847391"/>
    <nd ref="11414883585"/>
    <nd ref="11414883584"/>
    <nd ref="11414883583"/>
    <nd ref="11414883582"/>
    <nd ref="721847604"/>
    <nd ref="11414883581"/>
    <nd ref="11414883580"/>
    <nd ref="4866974366"/>
    <nd ref="4866974365"/>
    <nd ref="11414883586"/>
    <nd ref="721847577"/>
    <tag k="highway" v="trunk_link"/>
    <tag k="maxspeed" v="70 mph"/>
    <tag k="maxspeed:type" v="GB:nsl_dual"/>
    <tag k="national_highways:area" v="6"/>
    <tag k="oneway" v="yes"/>
    <tag k="operator" v="National Highways"/>
    <tag k="operator:wikidata" v="Q5760006"/>
    <tag k="ref" v="A1"/>
  </way>
  <way id="58202908" version="11" timestamp="2024-04-02T22:14:05Z" changeset="149500703" uid="5229644" user="Nathan_A_RF">
    <nd ref="721847577"/>
    <nd ref="11414883587"/>
    <nd ref="11414883588"/>
    <nd ref="1348716702"/>
    <nd ref="721847627"/>
    <nd ref="1348716712"/>
    <nd ref="11414883589"/>
    <nd ref="11414883590"/>
    <nd ref="721847631"/>
    <nd ref="11414883591"/>
    <nd ref="11414883592"/>
    <nd ref="1348716713"/>
    <nd ref="11414883593"/>
    <nd ref="11414883594"/>
    <nd ref="11414883595"/>
    <nd ref="11414883596"/>
    <nd ref="11414883600"/>
    <nd ref="11414883599"/>
    <nd ref="721847397"/>
    <tag k="highway" v="trunk_link"/>
    <tag k="maxspeed" v="70 mph"/>
    <tag k="maxspeed:type" v="GB:nsl_dual"/>
    <tag k="national_highways:area" v="6"/>
    <tag k="oneway" v="yes"/>
    <tag k="operator" v="National Highways"/>
    <tag k="operator:wikidata" v="Q5760006"/>
    <tag k="ref" v="A1"/>
  </way>
  <way id="89202604" version="14" timestamp="2024-11-16T23:26:45Z" changeset="159225606" uid="5229644" user="Nathan_A_RF">
    <nd ref="1035292865"/>
    <nd ref="2016525253"/>
    <nd ref="2016525228"/>
    <nd ref="2016525242"/>
    <nd ref="2016525249"/>
    <nd ref="2016525247"/>
    <nd ref="2016525210"/>
    <nd ref="2016525221"/>
    <nd ref="2016525208"/>
    <nd ref="2016525213"/>
    <nd ref="2016525244"/>
    <nd ref="2016525234"/>
    <nd ref="2016525225"/>
    <nd ref="2016525259"/>
    <nd ref="2016525211"/>
    <nd ref="2016525223"/>
    <nd ref="2016525232"/>
    <tag k="active_traffic_management" v="no"/>
    <tag k="destination" v="The SOUTH;London"/>
    <tag k="destination:ref" v="A1(M)"/>
    <tag k="highway" v="motorway_link"/>
    <tag k="lanes" v="1"/>
    <tag k="lit" v="yes"/>
    <tag k="maxspeed" v="70 mph"/>
    <tag k="maxspeed:type" v="GB:motorway"/>
    <tag k="maxspeed:variable" v="no"/>
    <tag k="national_highways:area" v="DBFO28"/>
    <tag k="oneway" v="yes"/>
    <tag k="operator" v="National Highways"/>
    <tag k="operator:wikidata" v="Q5760006"/>
    <tag k="ref" v="A1(M)"/>
  </way>
  <way id="116634547" version="3" timestamp="2021-05-21T11:27:58Z" changeset="105086271" uid="5443821" user="◪ Jarv">
    <nd ref="349341750"/>
    <nd ref="8752800697"/>
    <nd ref="2415163489"/>
    <tag k="highway" v="primary"/>
    <tag k="lanes" v="2"/>
    <tag k="maxspeed" v="30 mph"/>
    <tag k="maxspeed:type" v="sign"/>
    <tag k="name" v="Oundle Road"/>
    <tag k="ref" v="A605"/>
    <tag k="source" v="survey"/>
  </way>
  <way id="116634548" version="1" timestamp="2011-06-06T19:18:31Z" changeset="8363525" uid="7098" user="richardm565">
    <nd ref="616797694"/>
    <nd ref="1314408465"/>
    <nd ref="1314408463"/>
    <tag k="highway" v="residential"/>
    <tag k="name" v="Water End"/>
  </way>
  <way id="116634550" version="3" timestamp="2021-05-21T11:27:58Z" changeset="105086271" uid="5443821" user="◪ Jarv">
    <nd ref="4866974346"/>
    <nd ref="1314408456"/>
    <nd ref="1314408473"/>
    <nd ref="1314408461"/>
    <tag k="highway" v="residential"/>
    <tag k="name" v="Oundle Road"/>
  </way>
  <way id="116651929" version="4" timestamp="2019-04-26T20:38:02Z" changeset="69615147" uid="2274390" user="dzidek23">
    <nd ref="616797653"/>
    <nd ref="1314576129"/>
    <nd ref="1314576134"/>
    <nd ref="1414908838"/>
    <nd ref="1414908836"/>
    <tag k="highway" v="residential"/>
    <tag k="lit" v="yes"/>
    <tag k="name" v="Mill View"/>
    <tag k="surface" v="asphalt"/>
  </way>
  <way id="116651930" version="4" timestamp="2019-06-14T06:54:57Z" changeset="71241521" uid="9310284" user="mudunur">
    <nd ref="616797688"/>
    <nd ref="6546840457"/>
    <nd ref="616797677"/>
    <tag k="highway" v="residential"/>
    <tag k="lit" v="yes"/>
    <tag k="name" v="Mill Lane"/>
    <tag k="surface" v="asphalt"/>
  </way>
  <way id="148705476" version="20" timestamp="2024-11-16T23:26:45Z" changeset="159225606" uid="5229644" user="Nathan_A_RF">
    <nd ref="11781550519"/>
    <nd ref="4308658"/>
    <nd ref="2016529051"/>
    <nd ref="4308661"/>
    <nd ref="4308673"/>
    <nd ref="335373181"/>
    <nd ref="2016529073"/>
    <nd ref="5904677798"/>
    <nd ref="4308818"/>
    <nd ref="2016529058"/>
    <nd ref="335373179"/>
    <nd ref="2016529050"/>
    <nd ref="4308823"/>
    <nd ref="2016529040"/>
    <nd ref="2016529037"/>
    <nd ref="335373177"/>
    <nd ref="2016530773"/>
    <nd ref="2016530766"/>
    <nd ref="2016530775"/>
    <nd ref="2016530785"/>
    <nd ref="4308838"/>
    <tag k="active_traffic_management" v="no"/>
    <tag k="carriageway_ref" v="B"/>
    <tag k="highway" v="motorway"/>
    <tag k="int_ref" v="E 15"/>
    <tag k="lanes" v="3"/>
    <tag k="lit" v="yes"/>
    <tag k="maxheight" v="default"/>
    <tag k="maxspeed" v="70 mph"/>
    <tag k="maxspeed:type" v="GB:motorway"/>
    <tag k="maxspeed:variable" v="no"/>
    <tag k="name" v="Great North Road"/>
    <tag k="national_highways:area" v="DBFO28"/>
    <tag k="old_ref" v="A1"/>
    <tag k="oneway" v="yes"/>
    <tag k="operator" v="National Highways"/>
    <tag k="operator:wikidata" v="Q5760006"/>
    <tag k="ref" v="A1(M)"/>
    <tag k="surface" v="asphalt"/>
  </way>
  <way id="148705481" version="13" timestamp="2024-11-16T23:26:45Z" changeset="159225606" uid="5229644" user="Nathan_A_RF">
    <nd ref="2016525232"/>
    <nd ref="2016525257"/>
    <nd ref="63360073"/>
    <nd ref="2016525230"/>
    <nd ref="63360074"/>
    <nd ref="2016518953"/>
    <nd ref="2016518926"/>
    <tag k="active_traffic_management" v="no"/>
    <tag k="destination:ref" v="A1(M)"/>
    <tag k="highway" v="motorway_link"/>
    <tag k="lanes" v="2"/>
    <tag k="lit" v="yes"/>
    <tag k="maxheight" v="default"/>
    <tag k="maxspeed" v="70 mph"/>
    <tag k="maxspeed:type" v="GB:motorway"/>
    <tag k="maxspeed:variable" v="no"/>
    <tag k="national_highways:area" v="DBFO28"/>
    <tag k="oneway" v="yes"/>
    <tag k="operator" v="National Highways"/>
    <tag k="operator:wikidata" v="Q5760006"/>
    <tag k="ref" v="A1(M)"/>
  </way>
  <way id="150044306" version="2" timestamp="2023-10-30T21:35:04Z" changeset="143388212" uid="953779" user="Adam Edwards">
    <nd ref="1348713925"/>
    <nd ref="1629799915"/>
    <nd ref="1629799917"/>
    <nd ref="1629799950"/>
    <nd ref="1629799918"/>
    <nd ref="1629799944"/>
    <nd ref="1629799942"/>
    <nd ref="1629799934"/>
    <nd ref="1629799936"/>
    <nd ref="1629799937"/>
    <nd ref="1629799924"/>
    <nd ref="1629799926"/>
    <nd ref="1629799928"/>
    <nd ref="1629799919"/>
    <nd ref="1629799940"/>
    <nd ref="1629799952"/>
    <nd ref="11300967687"/>
    <nd ref="1629799935"/>
    <nd ref="1629799946"/>
    <nd ref="1629799932"/>
    <nd ref="998144933"/>
    <nd ref="1629799948"/>
    <nd ref="349341746"/>
    <tag k="highway" v="residential"/>
    <tag k="lanes" v="2"/>
    <tag k="name" v="Royce Road"/>
    <tag k="oneway" v="no"/>
    <tag k="surface" v="paved"/>
  </way>
  <way id="158085320" version="1" timestamp="2012-04-05T21:40:11Z" changeset="11194925" uid="7098" user="richardm565">
    <nd ref="1703411616"/>
    <nd ref="1703411615"/>
    <tag k="highway" v="residential"/>
    <tag k="name" v="Forge End"/>
    <tag k="source:name" v="survey"/>
  </way>
  <way id="158085321" version="1" timestamp="2012-04-05T21:40:11Z" changeset="11194925" uid="7098" user="richardm565">
    <nd ref="998144933"/>
    <nd ref="1703411616"/>
    <nd ref="1703411617"/>
    <tag k="highway" v="residential"/>
    <tag k="name" v="Forge End"/>
    <tag k="source:name" v="survey"/>
  </way>
  <way id="158186411" version="2" timestamp="2020-09-10T15:01:03Z" changeset="90709997" uid="10252545" user="sunkarab">
    <nd ref="1704161536"/>
    <nd ref="1704161538"/>
    <nd ref="7894105433"/>
    <nd ref="1704161537"/>
    <tag k="highway" v="residential"/>
    <tag k="name" v="Allerton Garth"/>
  </way>
  <way id="171152248" version="7" timestamp="2024-10-07T15:57:55Z" changeset="157588755" uid="953779" user="Adam Edwards">
    <nd ref="194600715"/>
    <nd ref="6025242822"/>
    <nd ref="6025242821"/>
    <nd ref="5935689016"/>
    <tag k="highway" v="tertiary"/>
    <tag k="surface" v="asphalt"/>
  </way>
  <way id="191061499" version="17" timestamp="2024-11-16T23:26:45Z" changeset="159225606" uid="5229644" user="Nathan_A_RF">
    <nd ref="2016493714"/>
    <nd ref="2016493723"/>
    <nd ref="2016498134"/>
    <nd ref="2016498136"/>
    <nd ref="9823163170"/>
    <nd ref="2016518935"/>
    <nd ref="5904677805"/>
    <nd ref="2016518947"/>
    <tag k="active_traffic_management" v="no"/>
    <tag k="carriageway_ref" v="B"/>
    <tag k="destination" v="The SOUTH;London"/>
    <tag k="destination:ref" v="A1(M)"/>
    <tag k="highway" v="motorway"/>
    <tag k="int_ref" v="E 15"/>
    <tag k="lanes" v="2"/>
    <tag k="lit" v="yes"/>
    <tag k="maxheight" v="default"/>
    <tag k="maxspeed" v="70 mph"/>
    <tag k="maxspeed:type" v="GB:motorway"/>
    <tag k="maxspeed:variable" v="no"/>
    <tag k="name" v="Great North Road"/>
    <tag k="national_highways:area" v="DBFO28"/>
    <tag k="old_ref" v="A1"/>
    <tag k="oneway" v="yes"/>
    <tag k="operator" v="National Highways"/>
    <tag k="operator:wikidata" v="Q5760006"/>
    <tag k="ref" v="A1(M)"/>
    <tag k="surface" v="asphalt"/>
  </way>
  <way id="191066042" version="10" timestamp="2024-11-16T23:26:45Z" changeset="159225606" uid="5229644" user="Nathan_A_RF">
    <nd ref="2016518926"/>
    <nd ref="63360076"/>
    <nd ref="1551800788"/>
    <nd ref="2016518978"/>
    <nd ref="63360077"/>
    <tag k="active_traffic_management" v="no"/>
    <tag k="destination:ref" v="A1(M)"/>
    <tag k="highway" v="motorway_link"/>
    <tag k="lanes" v="1"/>
    <tag k="lit" v="yes"/>
    <tag k="maxspeed" v="70 mph"/>
    <tag k="maxspeed:type" v="GB:motorway"/>
    <tag k="maxspeed:variable" v="no"/>
    <tag k="national_highways:area" v="DBFO28"/>
    <tag k="oneway" v="yes"/>
    <tag k="operator" v="National Highways"/>
    <tag k="operator:wikidata" v="Q5760006"/>
    <tag k="ref" v="A1(M)"/>
    <tag k="source" v="Bing"/>
  </way>
  <way id="231562256" version="1" timestamp="2013-07-28T12:49:54Z" changeset="17124929" uid="7037" user="Gregory Williams">
    <nd ref="255750124"/>
    <nd ref="2016550125"/>
    <nd ref="2016550053"/>
    <nd ref="2016550137"/>
    <nd ref="2016550104"/>
    <nd ref="27397144"/>
    <tag k="highway" v="tertiary"/>
    <tag k="name" v="Southgate Way"/>
    <tag k="oneway" v="yes"/>
  </way>
  <way id="234114730" version="3" timestamp="2020-10-13T06:23:02Z" changeset="92390715" uid="9259458" user="aepunavy">
    <nd ref="2424142656"/>
    <nd ref="8002196961"/>
    <nd ref="60118388"/>
    <tag k="highway" v="residential"/>
    <tag k="name" v="Isis Way"/>
    <tag k="source" v="Bing"/>
    <tag k="source:name" v="OS_OpenData_Locator"/>
    <tag k="surface" v="asphalt"/>
  </way>
  <way id="239190986" version="18" timestamp="2024-04-02T22:14:05Z" changeset="149500703" uid="5229644" user="Nathan_A_RF">
    <nd ref="361183488"/>
    <nd ref="335388530"/>
    <nd ref="335388529"/>
    <tag k="carriageway_ref" v="B"/>
    <tag k="dual_carriageway" v="yes"/>
    <tag k="expressway" v="yes"/>
    <tag k="highway" v="trunk"/>
    <tag k="int_ref" v="E 15"/>
    <tag k="lanes" v="2"/>
    <tag k="lit" v="no"/>
    <tag k="maxspeed" v="70 mph"/>
    <tag k="maxspeed:type" v="GB:nsl_dual"/>
    <tag k="name" v="Great North Road"/>
    <tag k="national_highways:area" v="6"/>
    <tag k="oneway" v="yes"/>
    <tag k="operator" v="National Highways"/>
    <tag k="operator:wikidata" v="Q5760006"/>
    <tag k="ref" v="A1"/>
    <tag k="shoulder" v="no"/>
    <tag k="surface" v="asphalt"/>
  </way>
  <way id="285777264" version="4" timestamp="2024-09-01T12:32:27Z" changeset="156052275" uid="95856" user="john paul jones &amp; gringo">
    <nd ref="2894124538"/>
    <nd ref="2894124557"/>
    <nd ref="2894124560"/>
    <nd ref="2894124564"/>
    <nd ref="2894124553"/>
    <nd ref="6359353435"/>
    <nd ref="2894124538"/>
    <tag k="addr:city" v="Peterborough"/>
    <tag k="addr:country" v="GB"/>
    <tag k="addr:housenumber" v="12"/>
    <tag k="addr:postcode" v="PE7 3UU"/>
    <tag k="addr:street" v="Church Street"/>
    <tag k="building" v="house"/>
    <tag k="house" v="terraced"/>
  </way>
  <way id="285777266" version="9" timestamp="2024-09-01T12:32:27Z" changeset="156052275" uid="95856" user="john paul jones &amp; gringo">
    <nd ref="2894124559"/>
    <nd ref="2894124545"/>
    <nd ref="2894124555"/>
    <nd ref="2894124549"/>
    <nd ref="2894124537"/>
    <nd ref="2894124550"/>
    <nd ref="2894124546"/>
    <nd ref="2894124541"/>
    <nd ref="2894124551"/>
    <nd ref="2894124561"/>
    <nd ref="2894124542"/>
    <nd ref="2894124544"/>
    <nd ref="2894124556"/>
    <nd ref="2894124558"/>
    <nd ref="2894124559"/>
    <tag k="addr:city" v="Peterborough"/>
    <tag k="addr:country" v="GB"/>
    <tag k="addr:county" v="Cambridgeshire"/>
    <tag k="addr:housenumber" v="20"/>
    <tag k="addr:postcode" v="PE7 3UP"/>
    <tag k="addr:street" v="Oundle Road"/>
    <tag k="addr:suburb" v="Alwalton"/>
    <tag k="amenity" v="pub"/>
    <tag k="brand" v="Vintage Inns"/>
    <tag k="brand:wikidata" v="Q87067899"/>
    <tag k="building" v="yes"/>
    <tag k="check_date" v="2024-08-20"/>
    <tag k="check_date:opening_hours" v="2024-08-20"/>
    <tag k="contact:website" v="https://www.vintageinn.co.uk/restaurants/east/thecuckooalwalton"/>
    <tag k="fhrs:id" v="341450"/>
    <tag k="name" v="The Cuckoo"/>
    <tag k="opening_hours" v="Mo-We 11:30-22:00; Th-Sa 11:30-23:00; Su 11:30-22:30"/>
    <tag k="outdoor_seating" v="yes"/>
    <tag k="source:addr" v="FHRS Open Data"/>
    <tag k="wheelchair" v="yes"/>
  </way>
  <way id="435258964" version="15" timestamp="2024-04-20T13:53:14Z" changeset="150264492" uid="20825283" user="Whiskey&amp;Pills">
    <nd ref="2016486979"/>
    <nd ref="4308020"/>
    <nd ref="2016487006"/>
    <nd ref="2016486996"/>
    <nd ref="2016486992"/>
    <nd ref="482018520"/>
    <tag k="carriageway_ref" v="A"/>
    <tag k="dual_carriageway" v="yes"/>
    <tag k="expressway" v="yes"/>
    <tag k="foot" v="no"/>
    <tag k="highway" v="trunk"/>
    <tag k="int_ref" v="E 15"/>
    <tag k="lanes" v="2"/>
    <tag k="lit" v="yes"/>
    <tag k="maxspeed" v="70 mph"/>
    <tag k="maxspeed:type" v="GB:nsl_dual"/>
    <tag k="name" v="Great North Road"/>
    <tag k="national_highways:area" v="6"/>
    <tag k="oneway" v="yes"/>
    <tag k="operator" v="National Highways"/>
    <tag k="operator:wikidata" v="Q5760006"/>
    <tag k="ref" v="A1"/>
    <tag k="sidewalk" v="no"/>
    <tag k="surface" v="asphalt"/>
  </way>
  <way id="494463113" version="9" timestamp="2024-11-16T23:26:45Z" changeset="159225606" uid="5229644" user="Nathan_A_RF">
    <nd ref="2016452946"/>
    <nd ref="2016487028"/>
    <nd ref="335373187"/>
    <nd ref="2016486985"/>
    <nd ref="2016487000"/>
    <nd ref="2016486971"/>
    <tag k="active_traffic_management" v="no"/>
    <tag k="carriageway_ref" v="A"/>
    <tag k="highway" v="motorway"/>
    <tag k="int_ref" v="E 15"/>
    <tag k="lanes" v="3"/>
    <tag k="lit" v="yes"/>
    <tag k="maxspeed" v="70 mph"/>
    <tag k="maxspeed:type" v="GB:motorway"/>
    <tag k="maxspeed:variable" v="no"/>
    <tag k="name" v="Great North Road"/>
    <tag k="national_highways:area" v="DBFO28"/>
    <tag k="old_ref" v="A1"/>
    <tag k="oneway" v="yes"/>
    <tag k="operator" v="National Highways"/>
    <tag k="operator:wikidata" v="Q5760006"/>
    <tag k="ref" v="A1(M)"/>
    <tag k="source" v="Bing"/>
    <tag k="surface" v="asphalt"/>
  </way>
  <way id="668446390" version="4" timestamp="2024-04-20T13:51:02Z" changeset="150264359" uid="20825283" user="Whiskey&amp;Pills">
    <nd ref="194603563"/>
    <nd ref="391086403"/>
    <nd ref="194603558"/>
    <nd ref="194603552"/>
    <nd ref="194603547"/>
    <nd ref="194603542"/>
    <nd ref="194603537"/>
    <nd ref="194603534"/>
    <nd ref="194603531"/>
    <nd ref="194603526"/>
    <nd ref="194603524"/>
    <nd ref="194603520"/>
    <nd ref="2409467173"/>
    <nd ref="194603510"/>
    <nd ref="194603485"/>
    <nd ref="194603442"/>
    <nd ref="194600756"/>
    <nd ref="7278944411"/>
    <nd ref="194600751"/>
    <nd ref="9001610207"/>
    <nd ref="194600748"/>
    <nd ref="194600744"/>
    <nd ref="194600740"/>
    <tag k="highway" v="tertiary"/>
    <tag k="name" v="New Road"/>
    <tag k="surface" v="asphalt"/>
  </way>
  <way id="677064719" version="5" timestamp="2024-01-07T14:44:18Z" changeset="145994071" uid="5229644" user="Nathan_A_RF">
    <nd ref="4307507"/>
    <nd ref="180760676"/>
    <nd ref="9133603086"/>
    <nd ref="2016550172"/>
    <nd ref="1551800702"/>
    <nd ref="180761040"/>
    <tag k="highway" v="trunk"/>
    <tag k="junction" v="circular"/>
    <tag k="maxspeed" v="60 mph"/>
    <tag k="maxspeed:type" v="GB:nsl_single"/>
    <tag k="name" v="Fletton Parkway Interchange"/>
    <tag k="oneway" v="yes"/>
  </way>
  <way id="677064720" version="5" timestamp="2024-01-07T14:44:18Z" changeset="145994071" uid="5229644" user="Nathan_A_RF">
    <nd ref="4307521"/>
    <nd ref="4307743"/>
    <nd ref="1551800770"/>
    <nd ref="2016550067"/>
    <nd ref="180762340"/>
    <tag k="highway" v="trunk"/>
    <tag k="junction" v="circular"/>
    <tag k="maxspeed" v="60 mph"/>
    <tag k="maxspeed:type" v="GB:nsl_single"/>
    <tag k="name" v="Fletton Parkway Interchange"/>
    <tag k="oneway" v="yes"/>
  </way>
  <way id="677064721" version="5" timestamp="2024-01-07T14:44:18Z" changeset="145994071" uid="5229644" user="Nathan_A_RF">
    <nd ref="2016550070"/>
    <nd ref="4307521"/>
    <tag k="highway" v="trunk"/>
    <tag k="junction" v="circular"/>
    <tag k="maxspeed" v="60 mph"/>
    <tag k="maxspeed:type" v="GB:nsl_single"/>
    <tag k="name" v="Fletton Parkway Interchange"/>
    <tag k="oneway" v="yes"/>
  </way>
  <way id="697076509" version="1" timestamp="2019-06-14T06:54:57Z" changeset="71241521" uid="9310284" user="mudunur">
    <nd ref="6546840457"/>
    <nd ref="6546840458"/>
    <nd ref="6546840459"/>
    <nd ref="6546840460"/>
    <nd ref="6546840461"/>
    <tag k="highway" v="residential"/>
  </way>
  <way id="890418325" version="13" timestamp="2024-04-20T10:40:30Z" changeset="150257211" uid="20825283" user="Whiskey&amp;Pills">
    <nd ref="335388529"/>
    <nd ref="11415075163"/>
    <nd ref="11415075149"/>
    <nd ref="4316327"/>
    <nd ref="11415075148"/>
    <nd ref="4862238552"/>
    <nd ref="11415075147"/>
    <nd ref="8752800700"/>
    <nd ref="11414883807"/>
    <nd ref="8752800699"/>
    <nd ref="4316324"/>
    <nd ref="11414883804"/>
    <nd ref="7982653495"/>
    <nd ref="335388522"/>
    <nd ref="335388520"/>
    <nd ref="11414876446"/>
    <nd ref="4131434490"/>
    <nd ref="11414876462"/>
    <nd ref="11414876461"/>
    <nd ref="335388515"/>
    <nd ref="11414883754"/>
    <nd ref="4316162"/>
    <nd ref="335388508"/>
    <nd ref="335388506"/>
    <nd ref="11414883732"/>
    <nd ref="11414876398"/>
    <nd ref="335388500"/>
    <nd ref="7784424312"/>
    <nd ref="482018519"/>
    <tag k="carriageway_ref" v="B"/>
    <tag k="dual_carriageway" v="yes"/>
    <tag k="expressway" v="yes"/>
    <tag k="foot" v="no"/>
    <tag k="highway" v="trunk"/>
    <tag k="int_ref" v="E 15"/>
    <tag k="lanes" v="2"/>
    <tag k="lit" v="no"/>
    <tag k="maxheight" v="default"/>
    <tag k="maxspeed" v="70 mph"/>
    <tag k="maxspeed:type" v="GB:nsl_dual"/>
    <tag k="name" v="Great North Road"/>
    <tag k="national_highways:area" v="6"/>
    <tag k="oneway" v="yes"/>
    <tag k="operator" v="National Highways"/>
    <tag k="operator:wikidata" v="Q5760006"/>
    <tag k="ref" v="A1"/>
    <tag k="shoulder" v="no"/>
    <tag k="sidewalk" v="no"/>
    <tag k="surface" v="asphalt"/>
  </way>
  <way id="945450653" version="1" timestamp="2021-05-21T11:27:58Z" changeset="105086271" uid="5443821" user="◪ Jarv">
    <nd ref="8752800697"/>
    <nd ref="8752800696"/>
    <nd ref="8752800695"/>
    <nd ref="8752800694"/>
    <tag k="highway" v="primary_link"/>
    <tag k="lanes" v="1"/>
    <tag k="maxspeed" v="30 mph"/>
    <tag k="maxspeed:type" v="sign"/>
    <tag k="name" v="Oundle Road"/>
    <tag k="oneway" v="yes"/>
    <tag k="ref" v="A605"/>
    <tag k="source" v="survey"/>
  </way>
  <way id="977769312" version="1" timestamp="2021-08-30T06:32:46Z" changeset="110440311" uid="10252548" user="singhiyv">
    <nd ref="9047226586"/>
    <nd ref="9047226589"/>
    <nd ref="1414908836"/>
    <tag k="highway" v="residential"/>
  </way>
  <way id="1219624871" version="1" timestamp="2023-10-30T21:42:34Z" changeset="143388428" uid="953779" user="Adam Edwards">
    <nd ref="11270450540"/>
    <nd ref="4866974347"/>
    <nd ref="4866974346"/>
    <nd ref="349341750"/>
    <tag k="highway" v="primary"/>
    <tag k="lanes" v="2"/>
    <tag k="maxspeed" v="30 mph"/>
    <tag k="name" v="Oundle Road"/>
    <tag k="ref" v="A605"/>
    <tag k="sidewalk" v="both"/>
    <tag k="source" v="survey"/>
  </way>
  <way id="1268493823" version="2" timestamp="2024-11-16T23:26:45Z" changeset="159225606" uid="5229644" user="Nathan_A_RF">
    <nd ref="2016518947"/>
    <nd ref="2016518979"/>
    <nd ref="2016518976"/>
    <nd ref="2016518995"/>
    <nd ref="5904677803"/>
    <nd ref="63360077"/>
    <nd ref="5904677802"/>
    <nd ref="2016518951"/>
    <nd ref="5904677801"/>
    <nd ref="2016452956"/>
    <nd ref="2016452948"/>
    <nd ref="2016452936"/>
    <nd ref="2016452960"/>
    <tag k="active_traffic_management" v="no"/>
    <tag k="carriageway_ref" v="B"/>
    <tag k="highway" v="motorway"/>
    <tag k="int_ref" v="E 15"/>
    <tag k="lanes" v="3"/>
    <tag k="lit" v="yes"/>
    <tag k="maxheight" v="default"/>
    <tag k="maxspeed" v="70 mph"/>
    <tag k="maxspeed:type" v="GB:motorway"/>
    <tag k="maxspeed:variable" v="no"/>
    <tag k="name" v="Great North Road"/>
    <tag k="national_highways:area" v="DBFO28"/>
    <tag k="oneway" v="yes"/>
    <tag k="operator" v="National Highways"/>
    <tag k="operator:wikidata" v="Q5760006"/>
    <tag k="ref" v="A1(M)"/>
    <tag k="surface" v="asphalt"/>
  </way>
  <way id="1268493824" version="2" timestamp="2024-11-16T23:26:45Z" changeset="159225606" uid="5229644" user="Nathan_A_RF">
    <nd ref="2016452960"/>
    <nd ref="11781550519"/>
    <tag k="active_traffic_management" v="no"/>
    <tag k="bridge" v="yes"/>
    <tag k="carriageway_ref" v="B"/>
    <tag k="highway" v="motorway"/>
    <tag k="int_ref" v="E 15"/>
    <tag k="lanes" v="3"/>
    <tag k="layer" v="1"/>
    <tag k="lit" v="yes"/>
    <tag k="maxheight" v="default"/>
    <tag k="maxspeed" v="70 mph"/>
    <tag k="maxspeed:type" v="GB:motorway"/>
    <tag k="maxspeed:variable" v="no"/>
    <tag k="name" v="Great North Road"/>
    <tag k="national_highways:area" v="DBFO28"/>
    <tag k="old_ref" v="A1"/>
    <tag k="oneway" v="yes"/>
    <tag k="operator" v="National Highways"/>
    <tag k="operator:wikidata" v="Q5760006"/>
    <tag k="ref" v="A1(M)"/>
    <tag k="surface" v="asphalt"/>
  </way>
  <way id="1268493827" version="1" timestamp="2024-04-02T22:14:05Z" changeset="149500703" uid="5229644" user="Nathan_A_RF">
    <nd ref="1035292865"/>
    <nd ref="25641111"/>
    <nd ref="2016550167"/>
    <nd ref="2016550164"/>
    <nd ref="2016550130"/>
    <nd ref="2016550086"/>
    <nd ref="2016550070"/>
    <tag k="dual_carriageway" v="yes"/>
    <tag k="expressway" v="yes"/>
    <tag k="highway" v="trunk"/>
    <tag k="lanes" v="2"/>
    <tag k="maxspeed" v="70 mph"/>
    <tag k="maxspeed:type" v="GB:nsl_dual"/>
    <tag k="name" v="Fletton Parkway"/>
    <tag k="oneway" v="yes"/>
    <tag k="ref" v="A1139"/>
  </way>

</osm>
