<?xml version="1.0" encoding="UTF-8"?>
<osm version="0.6" generator="Overpass API 0.7.62.5 1bd436f1">
<note>The data included in this document is from www.openstreetmap.org. The data is made available under ODbL.</note>
<meta osm_base="2025-04-27T07:28:05Z" areas="2024-12-31T00:49:33Z"/>

  <node id="328593" lat="52.2108491" lon="0.0775886" version="8" timestamp="2009-07-12T21:33:54Z" changeset="1811197" uid="84263" user="Robert Whittaker"/>
  <node id="15431293" lat="52.1911402" lon="0.0774405" version="9" timestamp="2019-01-07T17:57:12Z" changeset="66104412" uid="873940" user="Mike Baggaley"/>
  <node id="15431300" lat="52.1917371" lon="0.0781853" version="10" timestamp="2019-01-07T17:57:12Z" changeset="66104412" uid="873940" user="Mike Baggaley"/>
  <node id="15431303" lat="52.1933661" lon="0.0808737" version="7" timestamp="2024-12-29T19:50:00Z" changeset="160765840" uid="5229644" user="Nathan_A_RF"/>
  <node id="20962840" lat="52.1949097" lon="0.1006055" version="4" timestamp="2009-01-25T18:07:03Z" changeset="835874" uid="27598" user="markcoley"/>
  <node id="20963245" lat="52.1955544" lon="0.1004903" version="4" timestamp="2024-11-07T16:38:16Z" changeset="158863513" uid="21941706" user="VLD292"/>
  <node id="21076400" lat="52.1908463" lon="0.0782340" version="8" timestamp="2019-01-07T17:57:12Z" changeset="66104412" uid="873940" user="Mike Baggaley"/>
  <node id="21642170" lat="52.1741635" lon="0.1016259" version="9" timestamp="2009-01-25T17:59:30Z" changeset="835874" uid="27598" user="markcoley"/>
  <node id="21642627" lat="52.1935664" lon="0.0736407" version="6" timestamp="2015-04-14T15:14:44Z" changeset="30214578" uid="669183" user="Andy_W"/>
  <node id="21642629" lat="52.1917602" lon="0.0771770" version="7" timestamp="2019-01-07T17:57:12Z" changeset="66104412" uid="873940" user="Mike Baggaley"/>
  <node id="21642657" lat="52.1966981" lon="0.0745034" version="11" timestamp="2022-03-24T03:54:48Z" changeset="118845034" uid="13341565" user="Falsernet">
    <tag k="exit_to" v="Cambridge, Sandy A603"/>
    <tag k="highway" v="motorway_junction"/>
    <tag k="name" v="Haggis Farm Interchange"/>
    <tag k="ref" v="12"/>
  </node>
  <node id="23720199" lat="52.1727616" lon="0.0846069" version="5" timestamp="2019-12-01T20:43:52Z" changeset="77790887" uid="2773866" user="kreuzschnabel"/>
  <node id="36743538" lat="52.1679341" lon="0.0907769" version="4" timestamp="2012-06-07T12:09:22Z" changeset="11824438" uid="24119" user="Mauls"/>
  <node id="36743539" lat="52.1678640" lon="0.0906532" version="4" timestamp="2012-06-07T12:09:22Z" changeset="11824438" uid="24119" user="Mauls"/>
  <node id="369746464" lat="52.1866203" lon="0.0718980" version="3" timestamp="2024-12-29T19:50:00Z" changeset="160765840" uid="5229644" user="Nathan_A_RF"/>
  <node id="850011245" lat="52.1981717" lon="0.0913406" version="2" timestamp="2012-08-13T15:58:45Z" changeset="12715804" uid="281267" user="smb1001"/>
  <node id="1565532651" lat="52.1873483" lon="0.0725556" version="1" timestamp="2011-12-28T16:58:16Z" changeset="10227879" uid="28024" user="dbisping"/>
  <way id="3383107" version="22" timestamp="2023-12-22T21:26:58Z" changeset="145420800" uid="242345" user="confusedbuffalo">
    <nd ref="16709854"/>
    <nd ref="1830724345"/>
    <nd ref="7024277784"/>
    <nd ref="15431363"/>
    <nd ref="1830724327"/>
    <nd ref="15431360"/>
    <nd ref="1537155964"/>
    <nd ref="1830724332"/>
    <nd ref="15431354"/>
    <nd ref="1830724339"/>
    <nd ref="260287338"/>
    <nd ref="1830724336"/>
    <nd ref="260287339"/>
    <nd ref="1537155981"/>
    <tag k="destination" v="Cambridge;Sandy"/>
    <tag k="destination:ref" v="A603"/>
    <tag k="highway" v="motorway_link"/>
    <tag k="lanes" v="1"/>
    <tag k="lit" v="no"/>
    <tag k="maxspeed" v="70 mph"/>
    <tag k="maxspeed:type" v="GB:motorway"/>
    <tag k="national_highways:area" v="8"/>
    <tag k="oneway" v="yes"/>
    <tag k="operator" v="National Highways"/>
    <tag k="operator:wikidata" v="Q5760006"/>
    <tag k="surface" v="asphalt"/>
  </way>
  <way id="3997787" version="14" timestamp="2023-06-23T09:57:08Z" changeset="137681513" uid="242345" user="confusedbuffalo">
    <nd ref="271670986"/>
    <nd ref="336478251"/>
    <nd ref="23720398"/>
    <nd ref="23720412"/>
    <nd ref="2984708973"/>
    <nd ref="23720420"/>
    <nd ref="23720428"/>
    <nd ref="762756207"/>
    <nd ref="23720434"/>
    <nd ref="23720441"/>
    <nd ref="23720450"/>
    <nd ref="762756205"/>
    <nd ref="23720457"/>
    <nd ref="762756183"/>
    <nd ref="23720472"/>
    <nd ref="23719566"/>
    <tag k="highway" v="tertiary"/>
    <tag k="maxspeed" v="60 mph"/>
    <tag k="maxspeed:type" v="GB:nsl_single"/>
    <tag k="maxweight:hgv" v="7.5"/>
    <tag k="maxweight:hgv:conditional" v="none @ delivery"/>
    <tag k="name" v="Grantchester Road"/>
    <tag k="source:name" v="local knowledge"/>
  </way>
  <way id="3997900" version="9" timestamp="2022-12-24T08:13:49Z" changeset="130447252" uid="242345" user="confusedbuffalo">
    <nd ref="20963245"/>
    <nd ref="20962843"/>
    <nd ref="2191756840"/>
    <nd ref="20962805"/>
    <tag k="cycleway:both" v="no"/>
    <tag k="highway" v="residential"/>
    <tag k="maxspeed" v="20 mph"/>
    <tag k="name" v="Fulbrooke Road"/>
    <tag k="source:name" v="local knowledge"/>
    <tag k="surface" v="asphalt"/>
  </way>
  <way id="4004837" version="17" timestamp="2024-12-29T19:50:00Z" changeset="160765840" uid="5229644" user="Nathan_A_RF">
    <nd ref="1565532651"/>
    <nd ref="21076403"/>
    <nd ref="1565532610"/>
    <nd ref="260287330"/>
    <nd ref="1565532724"/>
    <nd ref="21076401"/>
    <nd ref="21076405"/>
    <nd ref="1565532680"/>
    <nd ref="15431349"/>
    <nd ref="1565532666"/>
    <nd ref="260287323"/>
    <nd ref="1565532753"/>
    <nd ref="369746467"/>
    <nd ref="1565532674"/>
    <nd ref="15431342"/>
    <nd ref="1565532588"/>
    <nd ref="10287479796"/>
    <tag k="cycleway:both" v="no"/>
    <tag k="highway" v="primary"/>
    <tag k="junction" v="roundabout"/>
    <tag k="lit" v="yes"/>
    <tag k="maxspeed" v="50 mph"/>
    <tag k="maxspeed:type" v="sign"/>
    <tag k="name" v="Haggis Farm Interchange"/>
    <tag k="oneway" v="yes"/>
    <tag k="sidewalk" v="no"/>
    <tag k="surface" v="asphalt"/>
  </way>
  <way id="4079962" version="19" timestamp="2023-12-26T17:34:07Z" changeset="145543722" uid="12661527" user="Kartenkarsten714">
    <nd ref="21642170"/>
    <nd ref="21642442"/>
    <tag k="bicycle" v="designated"/>
    <tag k="bridge" v="yes"/>
    <tag k="foot" v="designated"/>
    <tag k="highway" v="tertiary"/>
    <tag k="lane_markings" v="no"/>
    <tag k="layer" v="1"/>
    <tag k="lwn" v="yes"/>
    <tag k="maxspeed" v="40 mph"/>
    <tag k="maxweight" v="7.5"/>
    <tag k="motor_vehicle" v="yes"/>
    <tag k="name" v="Brasley Bridge"/>
    <tag k="sidewalk" v="both"/>
    <tag k="surface" v="asphalt"/>
    <tag k="wikidata" v="Q104833597"/>
  </way>
  <way id="4079963" version="21" timestamp="2023-12-26T20:13:49Z" changeset="145548415" uid="12661527" user="Kartenkarsten714">
    <nd ref="21642442"/>
    <nd ref="336463589"/>
    <nd ref="21642166"/>
    <nd ref="21642167"/>
    <nd ref="1200240877"/>
    <nd ref="336456079"/>
    <nd ref="21642168"/>
    <nd ref="21642169"/>
    <nd ref="2112340037"/>
    <nd ref="603198851"/>
    <tag k="cycleway:both" v="no"/>
    <tag k="highway" v="tertiary"/>
    <tag k="lane_markings" v="no"/>
    <tag k="lwn" v="yes"/>
    <tag k="maxspeed" v="40 mph"/>
    <tag k="maxweight:hgv" v="7.5"/>
    <tag k="maxweight:hgv:conditional" v="none @ delivery"/>
    <tag k="name" v="Grantchester Road"/>
    <tag k="note:access" v="Sign says [Goods vehicles exceeding 7.5 t maximum gross weight prohibited] &quot;Except for loading&quot;"/>
    <tag k="sidewalk" v="right"/>
    <tag k="source:name" v="local knowledge"/>
    <tag k="surface" v="asphalt"/>
  </way>
  <way id="4080015" version="18" timestamp="2024-12-29T19:50:00Z" changeset="160765840" uid="5229644" user="Nathan_A_RF">
    <nd ref="1565509610"/>
    <nd ref="23720886"/>
    <nd ref="1565509607"/>
    <nd ref="1565509569"/>
    <nd ref="15431303"/>
    <tag k="cycleway:left" v="separate"/>
    <tag k="cycleway:right" v="no"/>
    <tag k="dual_carriageway" v="yes"/>
    <tag k="highway" v="primary"/>
    <tag k="junction" v="approach"/>
    <tag k="lanes" v="1"/>
    <tag k="lit" v="no"/>
    <tag k="maxspeed" v="50 mph"/>
    <tag k="maxspeed:type" v="sign"/>
    <tag k="oneway" v="yes"/>
    <tag k="ref" v="A603"/>
    <tag k="shoulder" v="no"/>
    <tag k="sidewalk:left" v="separate"/>
    <tag k="sidewalk:right" v="no"/>
    <tag k="smoothness" v="good"/>
    <tag k="source:ref" v="local knowledge"/>
    <tag k="surface" v="asphalt"/>
  </way>
  <way id="4080016" version="10" timestamp="2022-12-26T12:49:55Z" changeset="130515157" uid="242345" user="confusedbuffalo">
    <nd ref="21642628"/>
    <nd ref="1537156002"/>
    <nd ref="23721052"/>
    <tag k="cycleway:both" v="no"/>
    <tag k="highway" v="tertiary"/>
    <tag k="lanes" v="2"/>
    <tag k="lit" v="no"/>
    <tag k="maxspeed" v="60 mph"/>
    <tag k="maxspeed:type" v="GB:nsl_single"/>
    <tag k="sidewalk" v="no"/>
    <tag k="surface" v="asphalt"/>
  </way>
  <way id="4080022" version="18" timestamp="2024-12-29T19:50:00Z" changeset="160765840" uid="5229644" user="Nathan_A_RF">
    <nd ref="21076400"/>
    <nd ref="260287232"/>
    <nd ref="1565509619"/>
    <nd ref="662434880"/>
    <nd ref="1565509621"/>
    <nd ref="25526767"/>
    <nd ref="1565509609"/>
    <nd ref="21642653"/>
    <tag k="cycleway:both" v="no"/>
    <tag k="dual_carriageway" v="yes"/>
    <tag k="highway" v="primary"/>
    <tag k="lanes" v="2"/>
    <tag k="lit" v="yes"/>
    <tag k="maxspeed" v="50 mph"/>
    <tag k="maxspeed:type" v="sign"/>
    <tag k="oneway" v="yes"/>
    <tag k="ref" v="A603"/>
    <tag k="sidewalk" v="no"/>
    <tag k="surface" v="asphalt"/>
  </way>
  <way id="4080028" version="18" timestamp="2023-12-22T21:24:25Z" changeset="145420800" uid="242345" user="confusedbuffalo">
    <nd ref="21642657"/>
    <nd ref="1831192296"/>
    <nd ref="260287118"/>
    <nd ref="260287119"/>
    <nd ref="21642656"/>
    <nd ref="1831192304"/>
    <nd ref="260287120"/>
    <nd ref="21642655"/>
    <nd ref="778551425"/>
    <tag k="destination" v="Cambridge;Sandu"/>
    <tag k="destination:ref" v="A603"/>
    <tag k="highway" v="motorway_link"/>
    <tag k="lanes" v="1"/>
    <tag k="lit" v="no"/>
    <tag k="maxspeed" v="70 mph"/>
    <tag k="maxspeed:type" v="GB:motorway"/>
    <tag k="national_highways:area" v="8"/>
    <tag k="oneway" v="yes"/>
    <tag k="operator" v="National Highways"/>
    <tag k="operator:wikidata" v="Q5760006"/>
    <tag k="surface" v="asphalt"/>
  </way>
  <way id="4080032" version="22" timestamp="2024-12-29T19:50:00Z" changeset="160765840" uid="5229644" user="Nathan_A_RF">
    <nd ref="15431300"/>
    <nd ref="1565509623"/>
    <nd ref="1565509581"/>
    <nd ref="308715027"/>
    <nd ref="1565509584"/>
    <nd ref="21076396"/>
    <nd ref="12461494921"/>
    <nd ref="21076397"/>
    <nd ref="1565509612"/>
    <nd ref="1565509618"/>
    <nd ref="308715025"/>
    <nd ref="308715023"/>
    <nd ref="1565509566"/>
    <nd ref="1565509604"/>
    <nd ref="21076399"/>
    <nd ref="21076400"/>
    <nd ref="1565509588"/>
    <nd ref="260287184"/>
    <nd ref="1565509585"/>
    <nd ref="308715021"/>
    <nd ref="1565509586"/>
    <nd ref="15431293"/>
    <tag k="cycleway:both" v="no"/>
    <tag k="highway" v="primary"/>
    <tag k="junction" v="roundabout"/>
    <tag k="lanes" v="2"/>
    <tag k="lit" v="yes"/>
    <tag k="maxspeed" v="50 mph"/>
    <tag k="maxspeed:type" v="sign"/>
    <tag k="name" v="Haggis Farm Interchange"/>
    <tag k="oneway" v="yes"/>
    <tag k="sidewalk" v="no"/>
    <tag k="surface" v="asphalt"/>
  </way>
  <way id="4080041" version="14" timestamp="2022-12-27T20:18:43Z" changeset="130572366" uid="242345" user="confusedbuffalo">
    <nd ref="21076397"/>
    <nd ref="762756204"/>
    <nd ref="762756170"/>
    <nd ref="23720956"/>
    <tag k="cycleway:both" v="no"/>
    <tag k="highway" v="tertiary"/>
    <tag k="junction" v="approach"/>
    <tag k="lit" v="yes"/>
    <tag k="maxspeed" v="60 mph"/>
    <tag k="maxspeed:type" v="GB:nsl_single"/>
    <tag k="maxweight:hgv" v="7.5"/>
    <tag k="maxweight:hgv:conditional" v="none @ delivery"/>
    <tag k="oneway" v="yes"/>
    <tag k="sidewalk" v="no"/>
    <tag k="surface" v="asphalt"/>
  </way>
  <way id="4159691" version="15" timestamp="2023-12-26T20:13:48Z" changeset="145548415" uid="12661527" user="Kartenkarsten714">
    <nd ref="23719271"/>
    <nd ref="603198730"/>
    <nd ref="23719260"/>
    <tag k="bridge" v="yes"/>
    <tag k="cycleway:both" v="no"/>
    <tag k="highway" v="tertiary"/>
    <tag k="lane_markings" v="no"/>
    <tag k="layer" v="1"/>
    <tag k="lwn" v="yes"/>
    <tag k="maxspeed" v="30 mph"/>
    <tag k="maxweight:hgv" v="7.5"/>
    <tag k="maxweight:hgv:conditional" v="none @ delivery"/>
    <tag k="name" v="Mill Way"/>
    <tag k="sidewalk" v="right"/>
    <tag k="surface" v="asphalt"/>
  </way>
  <way id="4159692" version="26" timestamp="2024-03-06T15:30:57Z" changeset="148300881" uid="742701" user="kerr smith">
    <nd ref="23719260"/>
    <nd ref="271768062"/>
    <nd ref="2112340039"/>
    <nd ref="11697797741"/>
    <nd ref="603198861"/>
    <nd ref="11697797742"/>
    <nd ref="336451774"/>
    <nd ref="336451780"/>
    <nd ref="23717550"/>
    <nd ref="1200240860"/>
    <nd ref="336451789"/>
    <nd ref="1248239211"/>
    <nd ref="23718012"/>
    <nd ref="271693134"/>
    <nd ref="1888044642"/>
    <nd ref="23718025"/>
    <nd ref="2112340055"/>
    <nd ref="2112340044"/>
    <nd ref="285555992"/>
    <nd ref="2112340052"/>
    <nd ref="2112340035"/>
    <nd ref="2112340051"/>
    <nd ref="23718061"/>
    <tag k="abutters" v="residential"/>
    <tag k="highway" v="tertiary"/>
    <tag k="lane_markings" v="no"/>
    <tag k="lwn" v="yes"/>
    <tag k="maxspeed" v="20 mph"/>
    <tag k="maxweight:hgv" v="7.5"/>
    <tag k="maxweight:hgv:conditional" v="none @ delivery"/>
    <tag k="name" v="Mill Way"/>
    <tag k="sidewalk" v="right"/>
    <tag k="source:name" v="survey"/>
    <tag k="surface" v="asphalt"/>
  </way>
  <way id="4159694" version="9" timestamp="2021-06-06T12:09:36Z" changeset="105914263" uid="49323" user="Ben Page">
    <nd ref="23718199"/>
    <nd ref="1248238384"/>
    <nd ref="23718254"/>
    <tag k="highway" v="residential"/>
    <tag k="sidewalk" v="none"/>
    <tag k="surface" v="asphalt"/>
  </way>
  <way id="4159697" version="4" timestamp="2021-06-06T12:09:58Z" changeset="105914263" uid="49323" user="Ben Page">
    <nd ref="23718254"/>
    <nd ref="1248238916"/>
    <nd ref="1248238748"/>
    <nd ref="23718185"/>
    <tag k="highway" v="residential"/>
    <tag k="sidewalk" v="none"/>
    <tag k="surface" v="asphalt"/>
  </way>
  <way id="4159700" version="4" timestamp="2023-12-26T17:34:16Z" changeset="145543722" uid="12661527" user="Kartenkarsten714">
    <nd ref="23718561"/>
    <nd ref="1896584326"/>
    <nd ref="23718594"/>
    <tag k="highway" v="residential"/>
    <tag k="name" v="Vicarage Drive"/>
    <tag k="sidewalk" v="no"/>
    <tag k="source:name" v="local knowledge"/>
    <tag k="surface" v="pebblestone"/>
  </way>
  <way id="4159701" version="10" timestamp="2023-12-26T20:13:48Z" changeset="145548416" uid="12661527" user="Kartenkarsten714">
    <nd ref="23719362"/>
    <nd ref="1248238967"/>
    <nd ref="1248238572"/>
    <nd ref="1248239440"/>
    <nd ref="23719353"/>
    <nd ref="1248238425"/>
    <nd ref="23719343"/>
    <nd ref="1248238920"/>
    <nd ref="23719291"/>
    <nd ref="2113892847"/>
    <nd ref="2113892868"/>
    <nd ref="23719303"/>
    <nd ref="23718730"/>
    <nd ref="23718707"/>
    <nd ref="4663100247"/>
    <nd ref="23718679"/>
    <nd ref="706541579"/>
    <nd ref="23718647"/>
    <tag k="abutters" v="residential"/>
    <tag k="highway" v="tertiary"/>
    <tag k="lanes" v="2"/>
    <tag k="maxspeed" v="30 mph"/>
    <tag k="maxweight:hgv" v="7.5"/>
    <tag k="maxweight:hgv:conditional" v="none @ delivery"/>
    <tag k="name" v="Coton Road"/>
    <tag k="sidewalk" v="both"/>
    <tag k="source:name" v="survey;sign"/>
    <tag k="surface" v="asphalt"/>
  </way>
  <way id="4159702" version="12" timestamp="2022-04-01T17:29:17Z" changeset="119211496" uid="1287673" user="sloerunner">
    <nd ref="23719383"/>
    <nd ref="2110715667"/>
    <nd ref="23719406"/>
    <nd ref="23719437"/>
    <nd ref="1248238435"/>
    <nd ref="1248238604"/>
    <nd ref="2110715597"/>
    <nd ref="23719461"/>
    <nd ref="1672233324"/>
    <nd ref="23719504"/>
    <nd ref="23719515"/>
    <nd ref="762756175"/>
    <nd ref="8024523458"/>
    <nd ref="762756192"/>
    <nd ref="23719524"/>
    <nd ref="23719566"/>
    <tag k="highway" v="tertiary"/>
    <tag k="maxspeed" v="30 mph"/>
    <tag k="maxweight:hgv" v="7.5"/>
    <tag k="maxweight:hgv:conditional" v="none @ delivery"/>
    <tag k="name" v="Broadway"/>
    <tag k="source:name" v="local knowledge"/>
    <tag k="surface" v="asphalt"/>
  </way>
  <way id="4159703" version="8" timestamp="2023-12-26T17:34:09Z" changeset="145543718" uid="12661527" user="Kartenkarsten714">
    <nd ref="23718730"/>
    <nd ref="706541584"/>
    <nd ref="23718740"/>
    <nd ref="3908795158"/>
    <nd ref="23718767"/>
    <nd ref="4663100246"/>
    <nd ref="23718774"/>
    <nd ref="23718920"/>
    <nd ref="1248238897"/>
    <nd ref="23718945"/>
    <nd ref="23718956"/>
    <nd ref="10648472392"/>
    <nd ref="23719084"/>
    <nd ref="1248239443"/>
    <nd ref="23719096"/>
    <nd ref="23719109"/>
    <tag k="highway" v="residential"/>
    <tag k="lit" v="yes"/>
    <tag k="maxspeed:type" v="GB:nsl_restricted"/>
    <tag k="name" v="Stulpfield Road"/>
    <tag k="sidewalk" v="both"/>
    <tag k="source:name" v="local knowledge"/>
  </way>
  <way id="4159704" version="1" timestamp="2007-01-01T18:20:50Z" changeset="182795" uid="3582" user="davidearl">
    <nd ref="23719096"/>
    <nd ref="23719130"/>
    <tag k="created_by" v="JOSM"/>
    <tag k="highway" v="residential"/>
  </way>
  <way id="4159706" version="3" timestamp="2023-02-11T12:28:23Z" changeset="132402358" uid="1287673" user="sloerunner">
    <nd ref="23719084"/>
    <nd ref="10648472393"/>
    <nd ref="23719154"/>
    <nd ref="10648472359"/>
    <nd ref="23719175"/>
    <nd ref="23719212"/>
    <nd ref="1248239137"/>
    <nd ref="1248238084"/>
    <nd ref="23719230"/>
    <nd ref="23719242"/>
    <tag k="highway" v="residential"/>
    <tag k="name" v="Sladwell Close"/>
    <tag k="source:name" v="local knowledge"/>
  </way>
  <way id="4159709" version="4" timestamp="2023-02-11T12:28:23Z" changeset="132402358" uid="1287673" user="sloerunner">
    <nd ref="23719175"/>
    <nd ref="10648472357"/>
    <nd ref="23719193"/>
    <nd ref="1248238640"/>
    <nd ref="1248238945"/>
    <tag k="highway" v="residential"/>
    <tag k="name" v="Sladwell Close"/>
    <tag k="source:name" v="local knowledge"/>
  </way>
  <way id="4159710" version="4" timestamp="2023-04-02T20:36:00Z" changeset="134429075" uid="1287673" user="sloerunner">
    <nd ref="23718920"/>
    <nd ref="1248239455"/>
    <nd ref="1248238501"/>
    <nd ref="10780425284"/>
    <nd ref="23718926"/>
    <nd ref="23718938"/>
    <tag k="highway" v="residential"/>
    <tag k="name" v="Tabrum Close"/>
    <tag k="source:name" v="local knowledge"/>
  </way>
  <way id="4159713" version="3" timestamp="2023-12-26T17:34:20Z" changeset="145543720" uid="12661527" user="Kartenkarsten714">
    <nd ref="23718767"/>
    <nd ref="10648472397"/>
    <nd ref="23719628"/>
    <nd ref="23719647"/>
    <tag k="highway" v="residential"/>
    <tag k="name" v="Widnall Close"/>
    <tag k="source:name" v="local knowledge"/>
    <tag k="surface" v="asphalt"/>
  </way>
  <way id="4159715" version="2" timestamp="2011-04-17T11:52:57Z" changeset="7885713" uid="383983" user="Ben Wheatley">
    <nd ref="23718774"/>
    <nd ref="1248239042"/>
    <nd ref="23718804"/>
    <nd ref="23718827"/>
    <tag k="highway" v="residential"/>
    <tag k="name" v="Nutters Close"/>
    <tag k="source:name" v="local knowledge"/>
  </way>
  <way id="4159716" version="3" timestamp="2012-09-04T10:29:50Z" changeset="12979845" uid="281267" user="smb1001">
    <nd ref="23718804"/>
    <nd ref="23718864"/>
    <tag k="highway" v="residential"/>
    <tag k="name" v="Nutters Close"/>
    <tag k="source:name" v="local knowledge"/>
  </way>
  <way id="4159717" version="2" timestamp="2011-04-17T11:52:58Z" changeset="7885713" uid="383983" user="Ben Wheatley">
    <nd ref="23718956"/>
    <nd ref="23718968"/>
    <nd ref="1248238879"/>
    <nd ref="23719057"/>
    <tag k="highway" v="residential"/>
    <tag k="name" v="Crome Ditch Close"/>
    <tag k="source:name" v="local knowledge"/>
  </way>
  <way id="4159718" version="2" timestamp="2023-02-11T12:28:23Z" changeset="132402358" uid="1287673" user="sloerunner">
    <nd ref="23718968"/>
    <nd ref="10648472384"/>
    <nd ref="23719011"/>
    <tag k="highway" v="residential"/>
    <tag k="name" v="Crome Ditch Close"/>
    <tag k="source:name" v="local knowledge"/>
  </way>
  <way id="4159719" version="10" timestamp="2023-12-26T17:34:18Z" changeset="145543719" uid="12661527" user="Kartenkarsten714">
    <nd ref="23718679"/>
    <nd ref="1248238688"/>
    <nd ref="23718698"/>
    <tag k="designation" v="public_footpath"/>
    <tag k="foot" v="designated"/>
    <tag k="highway" v="residential"/>
    <tag k="lane_markings" v="no"/>
    <tag k="lit" v="yes"/>
    <tag k="maxspeed:type" v="GB:nsl_restricted"/>
    <tag k="name" v="Burnt Close"/>
    <tag k="prow_ref" v="Grantchester FP 6"/>
    <tag k="sidewalk" v="no"/>
    <tag k="source:name" v="local knowledge"/>
    <tag k="source:prow_ref" v="cambridgeshire_county_council_prow_gis_data"/>
    <tag k="surface" v="asphalt"/>
    <tag k="vehicle" v="yes"/>
  </way>
  <way id="4159734" version="15" timestamp="2024-01-02T18:56:08Z" changeset="145810839" uid="742701" user="kerr smith">
    <nd ref="23719291"/>
    <nd ref="1248238220"/>
    <nd ref="706534529"/>
    <nd ref="2116562637"/>
    <nd ref="23720487"/>
    <nd ref="706534534"/>
    <nd ref="11480592831"/>
    <nd ref="271692035"/>
    <nd ref="11480592832"/>
    <nd ref="1248239417"/>
    <nd ref="11480592833"/>
    <nd ref="2116562697"/>
    <nd ref="4884010204"/>
    <tag k="fixme" v="check designation and access rights"/>
    <tag k="highway" v="residential"/>
    <tag k="name" v="Bridle Way"/>
    <tag k="note" v="The name &quot;Bridle Way&quot; appears on a residential street sign. But this isn't recorded as a Public Bridleway in the Cambs CC GIS data."/>
    <tag k="source:name" v="local knowledge"/>
  </way>
  <way id="4159746" version="12" timestamp="2022-12-27T20:18:42Z" changeset="130572366" uid="242345" user="confusedbuffalo">
    <nd ref="23720956"/>
    <nd ref="762756190"/>
    <nd ref="1565509617"/>
    <nd ref="762756202"/>
    <nd ref="21076399"/>
    <tag k="cycleway:both" v="no"/>
    <tag k="highway" v="tertiary"/>
    <tag k="junction" v="approach"/>
    <tag k="lit" v="yes"/>
    <tag k="maxspeed" v="60 mph"/>
    <tag k="maxspeed:type" v="GB:nsl_single"/>
    <tag k="oneway" v="yes"/>
    <tag k="sidewalk" v="no"/>
    <tag k="surface" v="asphalt"/>
  </way>
  <way id="4159749" version="10" timestamp="2022-12-26T13:05:16Z" changeset="130515041" uid="242345" user="confusedbuffalo">
    <nd ref="23721052"/>
    <nd ref="21642627"/>
    <tag k="bridge" v="yes"/>
    <tag k="cycleway:both" v="no"/>
    <tag k="highway" v="tertiary"/>
    <tag k="lanes" v="2"/>
    <tag k="layer" v="1"/>
    <tag k="lit" v="no"/>
    <tag k="maxspeed" v="60 mph"/>
    <tag k="maxspeed:type" v="GB:nsl_single"/>
    <tag k="maxweight:signed" v="no"/>
    <tag k="sidewalk" v="both"/>
    <tag k="surface" v="asphalt"/>
  </way>
  <way id="4159758" version="7" timestamp="2024-12-31T18:08:16Z" changeset="160843788" uid="5229644" user="Nathan_A_RF">
    <nd ref="23718707"/>
    <nd ref="23718723"/>
    <nd ref="1248239076"/>
    <nd ref="1248238807"/>
    <nd ref="1248238481"/>
    <tag k="highway" v="residential"/>
    <tag k="lane_markings" v="no"/>
    <tag k="lit" v="no"/>
    <tag k="name" v="Pearces Yard"/>
    <tag k="sidewalk" v="no"/>
    <tag k="source:name" v="local knowledge"/>
    <tag k="surface" v="asphalt"/>
  </way>
  <way id="4159762" version="2" timestamp="2014-02-13T15:28:16Z" changeset="20543239" uid="281267" user="smb1001">
    <nd ref="23719303"/>
    <nd ref="23719324"/>
    <nd ref="2670274874"/>
    <tag k="highway" v="residential"/>
    <tag k="name" v="Symonds Lane"/>
    <tag k="source:name" v="local knowledge"/>
  </way>
  <way id="4258562" version="15" timestamp="2024-12-29T19:50:00Z" changeset="160765840" uid="5229644" user="Nathan_A_RF">
    <nd ref="25526765"/>
    <nd ref="1565532731"/>
    <nd ref="1537155999"/>
    <nd ref="369746474"/>
    <nd ref="1565532723"/>
    <nd ref="1565532736"/>
    <nd ref="21076401"/>
    <tag k="cycleway:both" v="no"/>
    <tag k="dual_carriageway" v="yes"/>
    <tag k="highway" v="primary"/>
    <tag k="lanes" v="2"/>
    <tag k="lit" v="yes"/>
    <tag k="maxspeed" v="50 mph"/>
    <tag k="maxspeed:type" v="sign"/>
    <tag k="oneway" v="yes"/>
    <tag k="ref" v="A603"/>
    <tag k="sidewalk" v="no"/>
    <tag k="surface" v="asphalt"/>
  </way>
  <way id="4258564" version="20" timestamp="2023-12-22T21:26:37Z" changeset="145420800" uid="242345" user="confusedbuffalo">
    <nd ref="21642653"/>
    <nd ref="1565509571"/>
    <tag k="destination" v="London"/>
    <tag k="destination:ref" v="M11"/>
    <tag k="highway" v="motorway_link"/>
    <tag k="lanes" v="1"/>
    <tag k="lit" v="no"/>
    <tag k="maxspeed" v="50 mph"/>
    <tag k="maxspeed:type" v="sign"/>
    <tag k="national_highways:area" v="8"/>
    <tag k="oneway" v="yes"/>
    <tag k="operator" v="National Highways"/>
    <tag k="operator:wikidata" v="Q5760006"/>
    <tag k="surface" v="asphalt"/>
  </way>
  <way id="4678986" version="24" timestamp="2024-12-29T19:46:40Z" changeset="160765760" uid="5229644" user="Nathan_A_RF">
    <nd ref="21642627"/>
    <nd ref="3455675290"/>
    <nd ref="778551277"/>
    <nd ref="21642630"/>
    <nd ref="10889381912"/>
    <nd ref="5262409217"/>
    <nd ref="3455675317"/>
    <nd ref="23721056"/>
    <nd ref="6515180576"/>
    <nd ref="10889381909"/>
    <nd ref="281136261"/>
    <nd ref="281853130"/>
    <nd ref="23721069"/>
    <nd ref="23721076"/>
    <nd ref="3455675291"/>
    <nd ref="3455675297"/>
    <nd ref="23721087"/>
    <nd ref="3455675313"/>
    <nd ref="3455675292"/>
    <nd ref="29720627"/>
    <nd ref="3455675298"/>
    <nd ref="281853125"/>
    <nd ref="271811481"/>
    <nd ref="1756321813"/>
    <nd ref="3233338942"/>
    <nd ref="10889381920"/>
    <nd ref="23721115"/>
    <nd ref="3455675305"/>
    <nd ref="332616026"/>
    <nd ref="3455675294"/>
    <nd ref="3455675293"/>
    <nd ref="9060929790"/>
    <nd ref="3455675288"/>
    <nd ref="1756321834"/>
    <nd ref="23721119"/>
    <nd ref="3455675319"/>
    <nd ref="3455675312"/>
    <nd ref="3455675318"/>
    <nd ref="23721153"/>
    <tag k="cycleway:both" v="no"/>
    <tag k="highway" v="tertiary"/>
    <tag k="lanes" v="2"/>
    <tag k="lit" v="no"/>
    <tag k="maxspeed" v="60 mph"/>
    <tag k="maxspeed:type" v="GB:nsl_single"/>
    <tag k="name" v="Grantchester Road"/>
    <tag k="sidewalk" v="no"/>
    <tag k="source:name" v="local knowledge"/>
    <tag k="surface" v="asphalt"/>
  </way>
  <way id="4991496" version="21" timestamp="2024-12-29T19:50:00Z" changeset="160765840" uid="5229644" user="Nathan_A_RF">
    <nd ref="1565532542"/>
    <nd ref="12461494919"/>
    <nd ref="279675087"/>
    <nd ref="369746464"/>
    <tag k="cycleway:both" v="no"/>
    <tag k="highway" v="primary"/>
    <tag k="junction" v="approach"/>
    <tag k="lanes" v="1"/>
    <tag k="lit" v="yes"/>
    <tag k="maxspeed" v="50 mph"/>
    <tag k="maxspeed:type" v="sign"/>
    <tag k="oneway" v="yes"/>
    <tag k="ref" v="A603"/>
    <tag k="sidewalk" v="no"/>
    <tag k="surface" v="asphalt"/>
  </way>
  <way id="5228992" version="18" timestamp="2022-10-30T20:02:11Z" changeset="128261539" uid="3560" user="Firefishy">
    <nd ref="36743538"/>
    <nd ref="36743550"/>
    <tag k="bridge" v="yes"/>
    <tag k="carriageway_ref" v="B"/>
    <tag k="highway" v="motorway"/>
    <tag k="lanes" v="2"/>
    <tag k="layer" v="1"/>
    <tag k="lit" v="no"/>
    <tag k="maxspeed" v="70 mph"/>
    <tag k="national_highways:area" v="8"/>
    <tag k="oneway" v="yes"/>
    <tag k="operator" v="National Highways"/>
    <tag k="operator:wikidata" v="Q5760006"/>
    <tag k="ref" v="M11"/>
    <tag k="source:lit" v="2010-12-07"/>
    <tag k="source:ref" v="local knowledge"/>
    <tag k="surface" v="asphalt"/>
  </way>
  <way id="5228993" version="37" timestamp="2022-10-30T20:02:11Z" changeset="128261539" uid="3560" user="Firefishy">
    <nd ref="23720199"/>
    <nd ref="7024288894"/>
    <nd ref="7024288893"/>
    <nd ref="602592682"/>
    <nd ref="260286546"/>
    <nd ref="7024288891"/>
    <nd ref="1200359039"/>
    <nd ref="260286714"/>
    <nd ref="1200359035"/>
    <nd ref="231526"/>
    <nd ref="7024288890"/>
    <nd ref="7024288889"/>
    <nd ref="260286764"/>
    <nd ref="7024288887"/>
    <nd ref="9520340121"/>
    <nd ref="231512"/>
    <nd ref="16709854"/>
    <nd ref="1830724330"/>
    <nd ref="1830724343"/>
    <nd ref="1830724337"/>
    <nd ref="231515"/>
    <nd ref="260286975"/>
    <nd ref="1565545604"/>
    <nd ref="1565545639"/>
    <nd ref="260287014"/>
    <nd ref="1565545662"/>
    <nd ref="231510"/>
    <nd ref="260287059"/>
    <nd ref="231509"/>
    <nd ref="260287122"/>
    <nd ref="1831192445"/>
    <nd ref="260287135"/>
    <nd ref="231508"/>
    <nd ref="682026550"/>
    <tag k="carriageway_ref" v="A"/>
    <tag k="description" v="Cambridge Western Bypass"/>
    <tag k="highway" v="motorway"/>
    <tag k="lanes" v="2"/>
    <tag k="lit" v="no"/>
    <tag k="maxheight" v="default"/>
    <tag k="maxspeed" v="70 mph"/>
    <tag k="national_highways:area" v="8"/>
    <tag k="oneway" v="yes"/>
    <tag k="operator" v="National Highways"/>
    <tag k="operator:wikidata" v="Q5760006"/>
    <tag k="ref" v="M11"/>
    <tag k="source:lit" v="2010-12-07"/>
    <tag k="source:ref" v="local knowledge"/>
    <tag k="surface" v="asphalt"/>
  </way>
  <way id="5236359" version="24" timestamp="2022-10-30T20:02:11Z" changeset="128261539" uid="3560" user="Firefishy">
    <nd ref="36743539"/>
    <nd ref="7024288898"/>
    <nd ref="231530"/>
    <nd ref="9520266023"/>
    <nd ref="260283336"/>
    <nd ref="7024288900"/>
    <nd ref="260283494"/>
    <nd ref="7024288896"/>
    <nd ref="231527"/>
    <tag k="carriageway_ref" v="A"/>
    <tag k="description" v="Cambridge Western Bypass"/>
    <tag k="highway" v="motorway"/>
    <tag k="lanes" v="2"/>
    <tag k="lit" v="no"/>
    <tag k="maxheight" v="default"/>
    <tag k="maxspeed" v="70 mph"/>
    <tag k="national_highways:area" v="8"/>
    <tag k="oneway" v="yes"/>
    <tag k="operator" v="National Highways"/>
    <tag k="operator:wikidata" v="Q5760006"/>
    <tag k="ref" v="M11"/>
    <tag k="source:lit" v="2010-12-07"/>
    <tag k="source:ref" v="local knowledge"/>
    <tag k="surface" v="asphalt"/>
  </way>
  <way id="5236360" version="20" timestamp="2022-10-30T20:02:11Z" changeset="128261539" uid="3560" user="Firefishy">
    <nd ref="231527"/>
    <nd ref="23720199"/>
    <tag k="bridge" v="yes"/>
    <tag k="carriageway_ref" v="A"/>
    <tag k="description" v="Cambridge Western Bypass"/>
    <tag k="highway" v="motorway"/>
    <tag k="lanes" v="2"/>
    <tag k="layer" v="1"/>
    <tag k="lit" v="no"/>
    <tag k="maxspeed" v="70 mph"/>
    <tag k="national_highways:area" v="8"/>
    <tag k="oneway" v="yes"/>
    <tag k="operator" v="National Highways"/>
    <tag k="operator:wikidata" v="Q5760006"/>
    <tag k="ref" v="M11"/>
    <tag k="source:lit" v="2010-12-07"/>
    <tag k="source:ref" v="local knowledge"/>
    <tag k="surface" v="asphalt"/>
  </way>
  <way id="5236361" version="24" timestamp="2022-10-30T20:02:11Z" changeset="128261539" uid="3560" user="Firefishy">
    <nd ref="328572"/>
    <nd ref="7024288895"/>
    <nd ref="260283414"/>
    <nd ref="7024288899"/>
    <nd ref="260283415"/>
    <nd ref="328565"/>
    <nd ref="7024288897"/>
    <nd ref="36743538"/>
    <tag k="carriageway_ref" v="B"/>
    <tag k="description" v="Cambridge Western Bypass"/>
    <tag k="highway" v="motorway"/>
    <tag k="lanes" v="2"/>
    <tag k="lit" v="no"/>
    <tag k="maxheight" v="default"/>
    <tag k="maxspeed" v="70 mph"/>
    <tag k="national_highways:area" v="8"/>
    <tag k="oneway" v="yes"/>
    <tag k="operator" v="National Highways"/>
    <tag k="operator:wikidata" v="Q5760006"/>
    <tag k="ref" v="M11"/>
    <tag k="source:lit" v="2010-12-07"/>
    <tag k="source:ref" v="local knowledge"/>
    <tag k="surface" v="asphalt"/>
  </way>
  <way id="5236362" version="19" timestamp="2022-10-30T20:02:11Z" changeset="128261539" uid="3560" user="Firefishy">
    <nd ref="23720209"/>
    <nd ref="328572"/>
    <tag k="bridge" v="yes"/>
    <tag k="carriageway_ref" v="B"/>
    <tag k="description" v="Cambridge Western Bypass"/>
    <tag k="highway" v="motorway"/>
    <tag k="lanes" v="2"/>
    <tag k="layer" v="1"/>
    <tag k="lit" v="no"/>
    <tag k="maxspeed" v="70 mph"/>
    <tag k="national_highways:area" v="8"/>
    <tag k="oneway" v="yes"/>
    <tag k="operator" v="National Highways"/>
    <tag k="operator:wikidata" v="Q5760006"/>
    <tag k="ref" v="M11"/>
    <tag k="source:lit" v="2010-12-07"/>
    <tag k="source:ref" v="local knowledge"/>
    <tag k="surface" v="asphalt"/>
  </way>
  <way id="5651131" version="15" timestamp="2024-12-29T19:50:00Z" changeset="160765840" uid="5229644" user="Nathan_A_RF">
    <nd ref="42123291"/>
    <nd ref="25526765"/>
    <tag k="bridge" v="yes"/>
    <tag k="cycleway:both" v="no"/>
    <tag k="dual_carriageway" v="yes"/>
    <tag k="highway" v="primary"/>
    <tag k="lanes" v="2"/>
    <tag k="layer" v="1"/>
    <tag k="lit" v="yes"/>
    <tag k="maxspeed" v="50 mph"/>
    <tag k="maxspeed:type" v="sign"/>
    <tag k="maxweight:signed" v="no"/>
    <tag k="oneway" v="yes"/>
    <tag k="ref" v="A603"/>
    <tag k="sidewalk" v="no"/>
    <tag k="surface" v="asphalt"/>
  </way>
  <way id="24004575" version="18" timestamp="2024-12-29T19:50:00Z" changeset="160765840" uid="5229644" user="Nathan_A_RF">
    <nd ref="15431303"/>
    <nd ref="12461494922"/>
    <nd ref="15431308"/>
    <nd ref="15431311"/>
    <nd ref="3455664673"/>
    <nd ref="3455664653"/>
    <nd ref="359549738"/>
    <nd ref="15431314"/>
    <nd ref="1753759633"/>
    <nd ref="15431333"/>
    <nd ref="20963271"/>
    <nd ref="850011245"/>
    <tag k="cycleway:left" v="separate"/>
    <tag k="cycleway:right" v="no"/>
    <tag k="highway" v="primary"/>
    <tag k="lanes" v="2"/>
    <tag k="lit" v="no"/>
    <tag k="maxspeed" v="50 mph"/>
    <tag k="maxspeed:type" v="sign"/>
    <tag k="ref" v="A603"/>
    <tag k="shoulder" v="no"/>
    <tag k="sidewalk:left" v="separate"/>
    <tag k="sidewalk:right" v="no"/>
    <tag k="smoothness" v="good"/>
    <tag k="source:ref" v="local knowledge"/>
    <tag k="surface" v="asphalt"/>
  </way>
  <way id="24004576" version="16" timestamp="2024-12-29T19:50:00Z" changeset="160765840" uid="5229644" user="Nathan_A_RF">
    <nd ref="10287524504"/>
    <nd ref="260287521"/>
    <nd ref="260287722"/>
    <nd ref="1565509568"/>
    <nd ref="23720891"/>
    <nd ref="260287524"/>
    <nd ref="21076396"/>
    <tag k="cycleway:both" v="no"/>
    <tag k="dual_carriageway" v="yes"/>
    <tag k="highway" v="primary"/>
    <tag k="junction" v="approach"/>
    <tag k="lanes" v="2"/>
    <tag k="lit" v="yes"/>
    <tag k="maxspeed" v="50 mph"/>
    <tag k="maxspeed:type" v="sign"/>
    <tag k="oneway" v="yes"/>
    <tag k="ref" v="A603"/>
    <tag k="sidewalk" v="no"/>
    <tag k="source:ref" v="local knowledge"/>
    <tag k="surface" v="asphalt"/>
  </way>
  <way id="31154123" version="10" timestamp="2023-06-23T09:42:18Z" changeset="137680912" uid="242345" user="confusedbuffalo">
    <nd ref="23720956"/>
    <nd ref="23720951"/>
    <nd ref="762756197"/>
    <nd ref="662434868"/>
    <nd ref="23720947"/>
    <nd ref="662434869"/>
    <nd ref="662434870"/>
    <nd ref="23720934"/>
    <nd ref="21642834"/>
    <tag k="cycleway:both" v="no"/>
    <tag k="description" v="Weight restriction: 7.5 t"/>
    <tag k="highway" v="tertiary"/>
    <tag k="maxspeed" v="60 mph"/>
    <tag k="maxspeed:type" v="GB:nsl_single"/>
    <tag k="maxweight:hgv" v="7.5"/>
    <tag k="maxweight:hgv:conditional" v="none @ delivery"/>
    <tag k="source" v="aerials"/>
    <tag k="surface" v="asphalt"/>
  </way>
  <way id="31154124" version="13" timestamp="2024-04-09T22:12:23Z" changeset="149796436" uid="5229644" user="Nathan_A_RF">
    <nd ref="21642629"/>
    <nd ref="21642628"/>
    <tag k="cycleway:both" v="no"/>
    <tag k="highway" v="primary"/>
    <tag k="lanes" v="2"/>
    <tag k="lit" v="yes"/>
    <tag k="maxspeed" v="60 mph"/>
    <tag k="maxspeed:type" v="GB:nsl_single"/>
    <tag k="ref" v="A603"/>
    <tag k="sidewalk" v="no"/>
    <tag k="surface" v="asphalt"/>
  </way>
  <way id="32812996" version="19" timestamp="2024-12-29T19:50:00Z" changeset="160765840" uid="5229644" user="Nathan_A_RF">
    <nd ref="369746464"/>
    <nd ref="369746470"/>
    <nd ref="12461494920"/>
    <nd ref="4947765038"/>
    <tag k="cycleway:left" v="separate"/>
    <tag k="cycleway:right" v="no"/>
    <tag k="highway" v="primary"/>
    <tag k="junction" v="approach"/>
    <tag k="lanes" v="1"/>
    <tag k="lit" v="yes"/>
    <tag k="maxspeed" v="50 mph"/>
    <tag k="maxspeed:type" v="sign"/>
    <tag k="oneway" v="yes"/>
    <tag k="ref" v="A603"/>
    <tag k="sidewalk:left" v="separate"/>
    <tag k="sidewalk:right" v="no"/>
    <tag k="surface" v="asphalt"/>
  </way>
  <way id="34616777" version="14" timestamp="2023-12-26T20:13:48Z" changeset="145548415" uid="12661527" user="Kartenkarsten714">
    <nd ref="23718061"/>
    <nd ref="1888044643"/>
    <nd ref="23718068"/>
    <nd ref="1248239215"/>
    <nd ref="1248238106"/>
    <nd ref="1248238773"/>
    <nd ref="23718100"/>
    <nd ref="301150159"/>
    <nd ref="2113741094"/>
    <nd ref="23718104"/>
    <nd ref="2113741090"/>
    <tag k="abutters" v="residential"/>
    <tag k="highway" v="tertiary"/>
    <tag k="lane_markings" v="no"/>
    <tag k="lwn" v="yes"/>
    <tag k="maxspeed" v="20 mph"/>
    <tag k="maxweight:hgv" v="7.5"/>
    <tag k="maxweight:hgv:conditional" v="none @ delivery"/>
    <tag k="name" v="Mill Way"/>
    <tag k="sidewalk" v="right"/>
    <tag k="source:name" v="local knowledge"/>
    <tag k="surface" v="asphalt"/>
  </way>
  <way id="34617230" version="9" timestamp="2020-10-15T11:14:01Z" changeset="92519477" uid="281267" user="smb1001">
    <nd ref="402285462"/>
    <nd ref="402285463"/>
    <nd ref="402285464"/>
    <nd ref="402285465"/>
    <nd ref="402285466"/>
    <nd ref="1248238364"/>
    <nd ref="1248238112"/>
    <nd ref="7292374413"/>
    <nd ref="402285467"/>
    <nd ref="7292374412"/>
    <nd ref="7292374415"/>
    <nd ref="402285462"/>
    <tag k="amenity" v="place_of_worship"/>
    <tag k="building" v="church"/>
    <tag k="denomination" v="anglican"/>
    <tag k="name" v="St Andrew and St Mary (Grantchester Parish Church)"/>
    <tag k="religion" v="christian"/>
    <tag k="tower" v="yes"/>
    <tag k="wikidata" v="Q17550712"/>
  </way>
  <way id="42764658" version="17" timestamp="2024-12-29T19:50:00Z" changeset="160765840" uid="5229644" user="Nathan_A_RF">
    <nd ref="369746464"/>
    <nd ref="12461494916"/>
    <nd ref="12461494917"/>
    <nd ref="12461494918"/>
    <nd ref="11348850436"/>
    <nd ref="21076375"/>
    <nd ref="392447947"/>
    <nd ref="1565532537"/>
    <tag k="alt_name" v="Cambridge Road"/>
    <tag k="cycleway:left" v="no"/>
    <tag k="cycleway:right" v="separate"/>
    <tag k="highway" v="primary"/>
    <tag k="lanes" v="2"/>
    <tag k="maxspeed" v="50 mph"/>
    <tag k="maxspeed:type" v="sign"/>
    <tag k="ref" v="A603"/>
    <tag k="sidewalk:left" v="no"/>
    <tag k="sidewalk:right" v="separate"/>
    <tag k="surface" v="asphalt"/>
  </way>
  <way id="48654407" version="16" timestamp="2024-03-02T15:48:46Z" changeset="148137060" uid="742701" user="kerr smith">
    <nd ref="2113741072"/>
    <nd ref="11669050350"/>
    <nd ref="23718109"/>
    <nd ref="1248238190"/>
    <nd ref="706545941"/>
    <nd ref="1248238202"/>
    <nd ref="11684932108"/>
    <nd ref="23718130"/>
    <nd ref="23718185"/>
    <nd ref="1248238933"/>
    <nd ref="1248239135"/>
    <nd ref="23718199"/>
    <nd ref="23718509"/>
    <nd ref="2108011114"/>
    <nd ref="4663100248"/>
    <nd ref="23718561"/>
    <nd ref="1248239202"/>
    <nd ref="23718602"/>
    <nd ref="1248239512"/>
    <nd ref="23718647"/>
    <tag k="abutters" v="residential"/>
    <tag k="highway" v="tertiary"/>
    <tag k="lane_markings" v="no"/>
    <tag k="maxspeed" v="20 mph"/>
    <tag k="maxweight:hgv" v="7.5"/>
    <tag k="maxweight:hgv:conditional" v="none @ delivery"/>
    <tag k="name" v="High Street"/>
    <tag k="sidewalk" v="both"/>
    <tag k="source:name" v="local knowledge"/>
    <tag k="surface" v="asphalt"/>
  </way>
  <way id="51930984" version="9" timestamp="2023-06-23T09:42:28Z" changeset="137680912" uid="242345" user="confusedbuffalo">
    <nd ref="21642834"/>
    <nd ref="21642835"/>
    <nd ref="2117666015"/>
    <nd ref="1248239002"/>
    <nd ref="1248238399"/>
    <nd ref="23719362"/>
    <tag k="highway" v="tertiary"/>
    <tag k="maxspeed" v="60 mph"/>
    <tag k="maxspeed:type" v="GB:nsl_single"/>
    <tag k="maxweight:hgv" v="7.5"/>
    <tag k="maxweight:hgv:conditional" v="none @ delivery"/>
    <tag k="name" v="Coton Road"/>
  </way>
  <way id="53583374" version="12" timestamp="2024-12-29T19:50:00Z" changeset="160765840" uid="5229644" user="Nathan_A_RF">
    <nd ref="21642653"/>
    <nd ref="1565509590"/>
    <nd ref="42123291"/>
    <tag k="alt_name" v="Barton Road"/>
    <tag k="cycleway:both" v="no"/>
    <tag k="dual_carriageway" v="yes"/>
    <tag k="highway" v="primary"/>
    <tag k="lanes" v="2"/>
    <tag k="lit" v="yes"/>
    <tag k="maxspeed" v="50 mph"/>
    <tag k="maxspeed:type" v="sign"/>
    <tag k="oneway" v="yes"/>
    <tag k="ref" v="A603"/>
    <tag k="sidewalk" v="no"/>
    <tag k="surface" v="asphalt"/>
  </way>
  <way id="62319110" version="13" timestamp="2024-04-09T22:12:23Z" changeset="149796436" uid="5229644" user="Nathan_A_RF">
    <nd ref="21642629"/>
    <nd ref="778551159"/>
    <nd ref="21642632"/>
    <nd ref="778551175"/>
    <nd ref="1565509574"/>
    <nd ref="308715019"/>
    <tag k="cycleway:both" v="no"/>
    <tag k="highway" v="primary"/>
    <tag k="lanes" v="2"/>
    <tag k="lit" v="yes"/>
    <tag k="maxspeed" v="60 mph"/>
    <tag k="maxspeed:type" v="GB:nsl_single"/>
    <tag k="oneway" v="yes"/>
    <tag k="ref" v="A603"/>
    <tag k="sidewalk" v="no"/>
    <tag k="surface" v="asphalt"/>
  </way>
  <way id="71442032" version="10" timestamp="2022-12-27T20:18:48Z" changeset="130572414" uid="242345" user="confusedbuffalo">
    <nd ref="850011245"/>
    <nd ref="850011093"/>
    <nd ref="850011059"/>
    <tag k="cycleway:left" v="separate"/>
    <tag k="cycleway:right" v="no"/>
    <tag k="highway" v="primary"/>
    <tag k="lanes" v="2"/>
    <tag k="lit" v="no"/>
    <tag k="maxspeed" v="50 mph"/>
    <tag k="ref" v="A603"/>
    <tag k="shoulder" v="no"/>
    <tag k="sidewalk:left" v="separate"/>
    <tag k="sidewalk:right" v="no"/>
    <tag k="smoothness" v="good"/>
    <tag k="source" v="yahoo"/>
    <tag k="source:ref" v="local knowledge"/>
    <tag k="surface" v="asphalt"/>
  </way>
  <way id="82623471" version="2" timestamp="2020-04-29T11:49:31Z" changeset="84336327" uid="1287673" user="sloerunner">
    <nd ref="961551244"/>
    <nd ref="961551239"/>
    <nd ref="961551264"/>
    <nd ref="961551267"/>
    <nd ref="961551244"/>
    <tag k="building" v="museum"/>
    <tag k="disused:tourism" v="museum"/>
    <tag k="name" v="Rupert Brooke Museum"/>
    <tag k="source" v="local knowledge"/>
  </way>
  <way id="82623473" version="17" timestamp="2024-04-04T14:02:22Z" changeset="149572211" uid="12661527" user="Kartenkarsten714">
    <nd ref="961551269"/>
    <nd ref="961551262"/>
    <nd ref="961551278"/>
    <nd ref="961551284"/>
    <nd ref="961551263"/>
    <nd ref="1898001236"/>
    <nd ref="961551270"/>
    <nd ref="961551257"/>
    <nd ref="961551259"/>
    <nd ref="961551240"/>
    <nd ref="961551248"/>
    <nd ref="961551271"/>
    <nd ref="961551269"/>
    <tag k="addr:city" v="Cambridge"/>
    <tag k="addr:housenumber" v="45-47"/>
    <tag k="addr:postcode" v="CB3 9ND"/>
    <tag k="addr:street" v="Mill Way"/>
    <tag k="amenity" v="cafe"/>
    <tag k="building" v="commercial"/>
    <tag k="building:levels" v="1"/>
    <tag k="diet:vegan" v="yes"/>
    <tag k="diet:vegetarian" v="yes"/>
    <tag k="indoor_seating" v="yes"/>
    <tag k="name" v="The Orchard"/>
    <tag k="opening_hours" v="Apr-Oct Mo-Su 10:00-18:00; Jan-Mar, Nov, Dec Mo-Su 10:00-16:00"/>
    <tag k="outdoor_seating" v="yes"/>
    <tag k="roof:levels" v="0"/>
    <tag k="roof:shape" v="gabled"/>
    <tag k="source" v="OS Opendata StreetView"/>
    <tag k="source:name" v="Signs at entrances"/>
    <tag k="source:opening_hours" v="website"/>
    <tag k="source:outdoor_seating" v="survey"/>
    <tag k="source:start_date" v="sign"/>
    <tag k="start_date" v="1897"/>
    <tag k="website" v="https://www.theorchardteagarden.co.uk/"/>
    <tag k="wheelchair" v="limited"/>
    <tag k="wikidata" v="Q7755281"/>
  </way>
  <way id="99027438" version="22" timestamp="2022-10-30T20:02:11Z" changeset="128261539" uid="3560" user="Firefishy">
    <nd ref="328593"/>
    <nd ref="1618865595"/>
    <nd ref="260287123"/>
    <nd ref="1831192409"/>
    <nd ref="21642657"/>
    <tag k="carriageway_ref" v="B"/>
    <tag k="description" v="Cambridge Western Bypass"/>
    <tag k="highway" v="motorway"/>
    <tag k="lanes" v="2"/>
    <tag k="lit" v="no"/>
    <tag k="maxheight" v="default"/>
    <tag k="maxspeed" v="70 mph"/>
    <tag k="national_highways:area" v="8"/>
    <tag k="oneway" v="yes"/>
    <tag k="operator" v="National Highways"/>
    <tag k="operator:wikidata" v="Q5760006"/>
    <tag k="ref" v="M11"/>
    <tag k="source:lit" v="2010-12-07"/>
    <tag k="source:ref" v="local knowledge"/>
    <tag k="surface" v="asphalt"/>
  </way>
  <way id="108883383" version="5" timestamp="2023-12-26T17:34:13Z" changeset="145543726" uid="12661527" user="Kartenkarsten714">
    <nd ref="1248238466"/>
    <nd ref="1248239213"/>
    <nd ref="1248239290"/>
    <nd ref="1248239074"/>
    <nd ref="1248239047"/>
    <nd ref="1248239361"/>
    <nd ref="1248238466"/>
    <tag k="addr:housenumber" v="48"/>
    <tag k="addr:street" v="Mill Way"/>
    <tag k="building" v="house"/>
    <tag k="building:levels" v="2"/>
    <tag k="roof:levels" v="0"/>
    <tag k="roof:shape" v="gabled"/>
    <tag k="source" v="bing"/>
  </way>
  <way id="108883390" version="6" timestamp="2023-12-26T17:34:13Z" changeset="145543726" uid="12661527" user="Kartenkarsten714">
    <nd ref="1248238814"/>
    <nd ref="1248238195"/>
    <nd ref="1248238810"/>
    <nd ref="1248239218"/>
    <nd ref="1248238596"/>
    <nd ref="1248239093"/>
    <nd ref="1248239197"/>
    <nd ref="1248238188"/>
    <nd ref="1248238126"/>
    <nd ref="1248238759"/>
    <nd ref="1248238814"/>
    <tag k="addr:city" v="Cambridge"/>
    <tag k="addr:housename" v="Riversdale"/>
    <tag k="addr:housenumber" v="50"/>
    <tag k="addr:postcode" v="CB3 9NB"/>
    <tag k="addr:street" v="Mill Way"/>
    <tag k="building" v="house"/>
    <tag k="building:levels" v="2"/>
    <tag k="roof:levels" v="1"/>
    <tag k="roof:shape" v="gabled"/>
    <tag k="source" v="bing"/>
  </way>
  <way id="108883397" version="6" timestamp="2021-04-17T15:41:12Z" changeset="103108495" uid="12661527" user="Kartenkarsten714">
    <nd ref="1248238145"/>
    <nd ref="1248239370"/>
    <nd ref="1248238317"/>
    <nd ref="1248238332"/>
    <nd ref="1248238302"/>
    <nd ref="1248238267"/>
    <nd ref="1248239358"/>
    <nd ref="1248239312"/>
    <nd ref="1248238145"/>
    <tag k="addr:city" v="Cambridge"/>
    <tag k="addr:housenumber" v="68"/>
    <tag k="addr:postcode" v="CB3 9NB"/>
    <tag k="addr:street" v="Mill Way"/>
    <tag k="building" v="house"/>
    <tag k="building:levels" v="1"/>
    <tag k="roof:levels" v="1"/>
    <tag k="roof:shape" v="gabled"/>
    <tag k="source" v="bing"/>
  </way>
  <way id="108883409" version="8" timestamp="2023-12-26T17:34:13Z" changeset="145543726" uid="12661527" user="Kartenkarsten714">
    <nd ref="1248238316"/>
    <nd ref="1248239240"/>
    <nd ref="1248238253"/>
    <nd ref="1248238274"/>
    <nd ref="1248238295"/>
    <nd ref="1248238432"/>
    <nd ref="1248238461"/>
    <nd ref="1248238561"/>
    <nd ref="1248238594"/>
    <nd ref="1248238778"/>
    <nd ref="1248238804"/>
    <nd ref="1248238852"/>
    <nd ref="1248238683"/>
    <nd ref="1248239316"/>
    <nd ref="1248238316"/>
    <tag k="addr:city" v="Cambridge"/>
    <tag k="addr:housenumber" v="79"/>
    <tag k="addr:postcode" v="CB3 9ND"/>
    <tag k="addr:street" v="Mill Way"/>
    <tag k="building" v="detached"/>
    <tag k="name" v="Mill House"/>
    <tag k="roof:shape" v="half-hipped"/>
    <tag k="source" v="bing"/>
    <tag k="wikidata" v="Q26595921"/>
  </way>
  <way id="108883412" version="6" timestamp="2023-12-26T17:34:11Z" changeset="145543726" uid="12661527" user="Kartenkarsten714">
    <nd ref="1248239256"/>
    <nd ref="1248238598"/>
    <nd ref="1248238923"/>
    <nd ref="1248238509"/>
    <nd ref="1248239256"/>
    <tag k="addr:city" v="Cambridge"/>
    <tag k="addr:housename" v="The Old Mill"/>
    <tag k="addr:housenumber" v="80"/>
    <tag k="addr:postcode" v="CB3 9NB"/>
    <tag k="addr:street" v="Mill Way"/>
    <tag k="building" v="house"/>
    <tag k="building:levels" v="1"/>
    <tag k="roof:levels" v="1"/>
    <tag k="roof:shape" v="gabled"/>
    <tag k="source" v="bing"/>
  </way>
  <way id="108883416" version="3" timestamp="2016-07-11T16:24:28Z" changeset="40657142" uid="242345" user="confusedbuffalo">
    <nd ref="1248238185"/>
    <nd ref="1248238236"/>
    <nd ref="1248238797"/>
    <nd ref="1248239394"/>
    <nd ref="1248239171"/>
    <nd ref="1248238839"/>
    <nd ref="1248239282"/>
    <nd ref="1248239248"/>
    <nd ref="1248239258"/>
    <nd ref="1248238520"/>
    <nd ref="1248238636"/>
    <nd ref="1248239355"/>
    <nd ref="1248239334"/>
    <nd ref="1248239327"/>
    <nd ref="1248239367"/>
    <nd ref="1248238336"/>
    <nd ref="1248239457"/>
    <nd ref="1248239420"/>
    <nd ref="1248239414"/>
    <nd ref="1248239406"/>
    <nd ref="1248239399"/>
    <nd ref="1248238608"/>
    <nd ref="1248239374"/>
    <nd ref="1248238093"/>
    <nd ref="1248238082"/>
    <nd ref="1248238351"/>
    <nd ref="1248238717"/>
    <nd ref="1248238185"/>
    <tag k="addr:housenumber" v="46"/>
    <tag k="addr:street" v="Mill Way"/>
    <tag k="building" v="house"/>
    <tag k="source" v="bing"/>
  </way>
  <way id="108883420" version="9" timestamp="2024-03-06T15:30:57Z" changeset="148300881" uid="742701" user="kerr smith">
    <nd ref="1248239314"/>
    <nd ref="1248238154"/>
    <nd ref="1248238198"/>
    <nd ref="1248238327"/>
    <nd ref="1248239050"/>
    <nd ref="1248238241"/>
    <nd ref="1248238849"/>
    <nd ref="1248238298"/>
    <nd ref="11697719428"/>
    <nd ref="1248238756"/>
    <nd ref="1248239006"/>
    <nd ref="1248239009"/>
    <nd ref="1248239294"/>
    <nd ref="1248239324"/>
    <nd ref="1248239314"/>
    <tag k="addr:city" v="Cambridge"/>
    <tag k="addr:housenumber" v="80"/>
    <tag k="addr:postcode" v="CB3 9NB"/>
    <tag k="addr:street" v="Mill Way"/>
    <tag k="building" v="detached"/>
    <tag k="name" v="Grantchester Mill"/>
    <tag k="roof:shape" v="gabled"/>
    <tag k="source" v="bing"/>
  </way>
  <way id="108883423" version="3" timestamp="2016-07-11T16:24:31Z" changeset="40657142" uid="242345" user="confusedbuffalo">
    <nd ref="1248238216"/>
    <nd ref="1248238157"/>
    <nd ref="1248239038"/>
    <nd ref="1248239479"/>
    <nd ref="1248238216"/>
    <tag k="addr:housenumber" v="48a"/>
    <tag k="addr:street" v="Mill Way"/>
    <tag k="building" v="house"/>
    <tag k="source" v="bing"/>
  </way>
  <way id="108883430" version="7" timestamp="2023-11-10T05:58:59Z" changeset="143848233" uid="9451067" user="b-jazz-bot">
    <nd ref="1248238963"/>
    <nd ref="1248238321"/>
    <nd ref="2110715642"/>
    <nd ref="1248238291"/>
    <nd ref="1248238264"/>
    <nd ref="1248238692"/>
    <nd ref="1248238674"/>
    <nd ref="1248238727"/>
    <nd ref="1248238848"/>
    <nd ref="1248238737"/>
    <nd ref="1248238359"/>
    <nd ref="1248239503"/>
    <nd ref="1248238478"/>
    <nd ref="1248238403"/>
    <nd ref="1248239175"/>
    <nd ref="1248238963"/>
    <tag k="addr:city" v="Cambridge"/>
    <tag k="addr:housenumber" v="33"/>
    <tag k="addr:postcode" v="CB3 9NF"/>
    <tag k="addr:street" v="High Street"/>
    <tag k="amenity" v="pub"/>
    <tag k="building" v="pub"/>
    <tag k="food" v="yes"/>
    <tag k="name" v="Red Lion"/>
    <tag k="source" v="bing"/>
    <tag k="website" v="https://www.metropolitanpubcompany.com/our-pubs/the-red-lion/"/>
  </way>
  <way id="108883441" version="5" timestamp="2019-02-16T10:45:33Z" changeset="67250645" uid="5173844" user="ndrw6">
    <nd ref="1248238564"/>
    <nd ref="1248238319"/>
    <nd ref="1248239539"/>
    <nd ref="1248238472"/>
    <nd ref="1248238228"/>
    <nd ref="1248239118"/>
    <nd ref="1248238232"/>
    <nd ref="1248239278"/>
    <nd ref="1248238526"/>
    <nd ref="1248238591"/>
    <nd ref="1248238513"/>
    <nd ref="1248238300"/>
    <nd ref="1248238396"/>
    <nd ref="1248238507"/>
    <nd ref="1248239330"/>
    <nd ref="1248238733"/>
    <nd ref="1248238353"/>
    <nd ref="1248238912"/>
    <nd ref="1248239485"/>
    <nd ref="1248239165"/>
    <nd ref="1248238842"/>
    <nd ref="1248238800"/>
    <nd ref="1248238564"/>
    <tag k="addr:city" v="Cambridge"/>
    <tag k="addr:housenumber" v="7"/>
    <tag k="addr:postcode" v="CB3 9NE"/>
    <tag k="addr:street" v="The Footpath"/>
    <tag k="building" v="house"/>
    <tag k="building:levels" v="1"/>
    <tag k="roof:levels" v="0"/>
    <tag k="source" v="bing"/>
  </way>
  <way id="140293395" version="12" timestamp="2024-04-09T22:12:23Z" changeset="149796436" uid="5229644" user="Nathan_A_RF">
    <nd ref="778551425"/>
    <nd ref="260287121"/>
    <nd ref="10173394641"/>
    <nd ref="21642628"/>
    <tag k="destination" v="Cambridge;Sandu"/>
    <tag k="destination:ref" v="A603"/>
    <tag k="highway" v="motorway_link"/>
    <tag k="lanes" v="1"/>
    <tag k="lit" v="no"/>
    <tag k="maxspeed" v="70 mph"/>
    <tag k="maxspeed:type" v="GB:motorway"/>
    <tag k="national_highways:area" v="8"/>
    <tag k="oneway" v="yes"/>
    <tag k="operator" v="National Highways"/>
    <tag k="operator:wikidata" v="Q5760006"/>
    <tag k="surface" v="asphalt"/>
  </way>
  <way id="154730026" version="13" timestamp="2023-12-26T17:34:10Z" changeset="145543724" uid="12661527" user="Kartenkarsten714">
    <nd ref="1672239836"/>
    <nd ref="1672239820"/>
    <nd ref="1672239840"/>
    <nd ref="1672239833"/>
    <nd ref="1672239819"/>
    <nd ref="1672239829"/>
    <nd ref="1672239827"/>
    <nd ref="1672239826"/>
    <nd ref="1672239835"/>
    <nd ref="1672239838"/>
    <nd ref="1672239821"/>
    <nd ref="1672239824"/>
    <nd ref="1672239831"/>
    <nd ref="1672239836"/>
    <tag k="addr:city" v="Cambridge"/>
    <tag k="addr:housenumber" v="59"/>
    <tag k="addr:postcode" v="CB3 9NF"/>
    <tag k="addr:street" v="High Street"/>
    <tag k="amenity" v="pub"/>
    <tag k="building" v="pub"/>
    <tag k="name" v="The Green Man"/>
    <tag k="real_cider" v="1"/>
    <tag k="wikidata" v="Q26595957"/>
  </way>
  <way id="163695943" version="11" timestamp="2023-12-26T17:34:13Z" changeset="145543726" uid="12661527" user="Kartenkarsten714">
    <nd ref="1753759638"/>
    <nd ref="1753759639"/>
    <nd ref="1753759623"/>
    <nd ref="2112340054"/>
    <nd ref="1753759625"/>
    <nd ref="2112340038"/>
    <nd ref="1753759638"/>
    <tag k="addr:city" v="Cambridge"/>
    <tag k="addr:housenumber" v="61"/>
    <tag k="addr:postcode" v="CB3 9ND"/>
    <tag k="addr:street" v="Mill Way"/>
    <tag k="building" v="detached"/>
    <tag k="name" v="The Old Vicarage"/>
    <tag k="roof:shape" v="gabled"/>
    <tag k="wikidata" v="Q16271127"/>
  </way>
  <way id="172187325" version="3" timestamp="2021-06-19T12:02:10Z" changeset="106629657" uid="281267" user="smb1001">
    <nd ref="1831192514"/>
    <nd ref="1831192395"/>
    <nd ref="1831192328"/>
    <nd ref="1831192323"/>
    <nd ref="1831192514"/>
    <tag k="addr:housenumber" v="2"/>
    <tag k="addr:postcode" v="CB23 7AU"/>
    <tag k="addr:street" v="Dumpling Farm Cottage"/>
    <tag k="building" v="yes"/>
  </way>
  <way id="178165853" version="9" timestamp="2023-12-26T20:13:49Z" changeset="145548415" uid="12661527" user="Kartenkarsten714">
    <nd ref="603198851"/>
    <nd ref="23719271"/>
    <tag k="abutters" v="residential"/>
    <tag k="cycleway:both" v="no"/>
    <tag k="highway" v="tertiary"/>
    <tag k="lane_markings" v="no"/>
    <tag k="lwn" v="yes"/>
    <tag k="maxspeed" v="30 mph"/>
    <tag k="maxweight:hgv" v="7.5"/>
    <tag k="maxweight:hgv:conditional" v="none @ delivery"/>
    <tag k="name" v="Mill Way"/>
    <tag k="sidewalk" v="right"/>
    <tag k="source:name" v="local knowledge"/>
    <tag k="surface" v="asphalt"/>
  </way>
  <way id="179316396" version="6" timestamp="2024-03-10T11:37:41Z" changeset="148457569" uid="742701" user="kerr smith">
    <nd ref="1896584120"/>
    <nd ref="1896584265"/>
    <nd ref="1896584199"/>
    <nd ref="1896584185"/>
    <nd ref="1896584120"/>
    <tag k="addr:city" v="Cambridge"/>
    <tag k="addr:housename" v="Balls Grove Cottage"/>
    <tag k="addr:housenumber" v="5"/>
    <tag k="addr:postcode" v="CB3 9NE"/>
    <tag k="addr:street" v="The Footpath"/>
    <tag k="building" v="house"/>
    <tag k="building:levels" v="1"/>
    <tag k="roof:levels" v="1"/>
  </way>
  <way id="179316399" version="2" timestamp="2024-03-10T11:37:41Z" changeset="148457569" uid="742701" user="kerr smith">
    <nd ref="1896584080"/>
    <nd ref="1896584097"/>
    <nd ref="1896583880"/>
    <nd ref="1896584095"/>
    <nd ref="1896583923"/>
    <nd ref="1896584150"/>
    <nd ref="1896584080"/>
    <tag k="addr:city" v="Cambridge"/>
    <tag k="addr:housenumber" v="6"/>
    <tag k="addr:postcode" v="CB3 9NE"/>
    <tag k="addr:street" v="The Footpath"/>
    <tag k="building" v="house"/>
  </way>
  <way id="179316400" version="4" timestamp="2019-02-16T10:48:22Z" changeset="67250645" uid="5173844" user="ndrw6">
    <nd ref="1896584339"/>
    <nd ref="1896584294"/>
    <nd ref="1896584041"/>
    <nd ref="2110715572"/>
    <nd ref="1896584154"/>
    <nd ref="1896584339"/>
    <tag k="addr:city" v="Cambridge"/>
    <tag k="addr:housenumber" v="39"/>
    <tag k="addr:postcode" v="CB3 9NQ"/>
    <tag k="addr:street" v="Broadway"/>
    <tag k="building" v="house"/>
  </way>
  <way id="179316402" version="4" timestamp="2019-02-16T10:48:22Z" changeset="67250645" uid="5173844" user="ndrw6">
    <nd ref="1896584241"/>
    <nd ref="1896584143"/>
    <nd ref="1896584437"/>
    <nd ref="1896583878"/>
    <nd ref="1896584241"/>
    <tag k="addr:city" v="Cambridge"/>
    <tag k="addr:housenumber" v="27"/>
    <tag k="addr:postcode" v="CB3 9NH"/>
    <tag k="addr:street" v="Coton Road"/>
    <tag k="building" v="house"/>
  </way>
  <way id="179316409" version="5" timestamp="2019-02-16T10:48:22Z" changeset="67250645" uid="5173844" user="ndrw6">
    <nd ref="1896584085"/>
    <nd ref="1896584269"/>
    <nd ref="1896583927"/>
    <nd ref="1896584224"/>
    <nd ref="1896584435"/>
    <nd ref="1896584431"/>
    <nd ref="1896584084"/>
    <nd ref="1896584196"/>
    <nd ref="1896584085"/>
    <tag k="addr:city" v="Cambridge"/>
    <tag k="addr:housenumber" v="2"/>
    <tag k="addr:postcode" v="CB3 9NG"/>
    <tag k="addr:street" v="Vicarage Drive"/>
    <tag k="building" v="house"/>
  </way>
  <way id="179316410" version="6" timestamp="2019-02-16T10:48:22Z" changeset="67250645" uid="5173844" user="ndrw6">
    <nd ref="1896584395"/>
    <nd ref="1896583984"/>
    <nd ref="1896583873"/>
    <nd ref="1896584044"/>
    <nd ref="1896583817"/>
    <nd ref="1896584404"/>
    <nd ref="1896584395"/>
    <tag k="addr:city" v="Cambridge"/>
    <tag k="addr:housename" v="Grape House"/>
    <tag k="addr:housenumber" v="10"/>
    <tag k="addr:postcode" v="CB3 9NH"/>
    <tag k="addr:street" v="Coton Road"/>
    <tag k="building" v="house"/>
    <tag k="wikidata" v="Q26616028"/>
  </way>
  <way id="179316412" version="4" timestamp="2019-02-16T10:48:22Z" changeset="67250645" uid="5173844" user="ndrw6">
    <nd ref="1896584140"/>
    <nd ref="1896584178"/>
    <nd ref="1896584123"/>
    <nd ref="1896584283"/>
    <nd ref="1896584169"/>
    <nd ref="1896584202"/>
    <nd ref="1896584227"/>
    <nd ref="1896584036"/>
    <nd ref="1896584140"/>
    <tag k="addr:city" v="Cambridge"/>
    <tag k="addr:housenumber" v="23"/>
    <tag k="addr:postcode" v="CB3 9NQ"/>
    <tag k="addr:street" v="Broadway"/>
    <tag k="building" v="house"/>
  </way>
  <way id="179316414" version="5" timestamp="2023-12-26T17:34:16Z" changeset="145543726" uid="12661527" user="Kartenkarsten714">
    <nd ref="1896584076"/>
    <nd ref="1896583946"/>
    <nd ref="1896583865"/>
    <nd ref="1896584416"/>
    <nd ref="1896583862"/>
    <nd ref="1896583954"/>
    <nd ref="1896584076"/>
    <tag k="addr:city" v="Cambridge"/>
    <tag k="addr:housenumber" v="7"/>
    <tag k="addr:postcode" v="CB3 9NF"/>
    <tag k="addr:street" v="High Street"/>
    <tag k="building" v="house"/>
    <tag k="roof:shape" v="gabled"/>
  </way>
  <way id="179316415" version="4" timestamp="2019-02-16T10:48:23Z" changeset="67250645" uid="5173844" user="ndrw6">
    <nd ref="1896583843"/>
    <nd ref="1896584020"/>
    <nd ref="1896584231"/>
    <nd ref="1896584223"/>
    <nd ref="1896583843"/>
    <tag k="addr:city" v="Cambridge"/>
    <tag k="addr:housenumber" v="8"/>
    <tag k="addr:postcode" v="CB3 9NQ"/>
    <tag k="addr:street" v="Broadway"/>
    <tag k="building" v="house"/>
  </way>
  <way id="179316416" version="3" timestamp="2016-07-11T16:24:41Z" changeset="40657142" uid="242345" user="confusedbuffalo">
    <nd ref="1896584237"/>
    <nd ref="1896584028"/>
    <nd ref="1896584008"/>
    <nd ref="1896583998"/>
    <nd ref="1896584355"/>
    <nd ref="1896584093"/>
    <nd ref="1896584237"/>
    <tag k="addr:housenumber" v="53"/>
    <tag k="addr:street" v="High Street"/>
    <tag k="building" v="house"/>
  </way>
  <way id="179316417" version="4" timestamp="2019-02-16T10:48:23Z" changeset="67250645" uid="5173844" user="ndrw6">
    <nd ref="1896583881"/>
    <nd ref="1896583913"/>
    <nd ref="1896584221"/>
    <nd ref="1896583959"/>
    <nd ref="1896583881"/>
    <tag k="addr:city" v="Cambridge"/>
    <tag k="addr:housenumber" v="1"/>
    <tag k="addr:postcode" v="CB3 9NH"/>
    <tag k="addr:street" v="Coton Road"/>
    <tag k="building" v="house"/>
  </way>
  <way id="179316418" version="5" timestamp="2019-02-16T10:48:23Z" changeset="67250645" uid="5173844" user="ndrw6">
    <nd ref="1896584242"/>
    <nd ref="1896584312"/>
    <nd ref="1896583821"/>
    <nd ref="1896584054"/>
    <nd ref="1896583810"/>
    <nd ref="1896584424"/>
    <nd ref="1896584046"/>
    <nd ref="1896583850"/>
    <nd ref="1896584242"/>
    <tag k="addr:city" v="Cambridge"/>
    <tag k="addr:housenumber" v="1"/>
    <tag k="addr:postcode" v="CB3 9NG"/>
    <tag k="addr:street" v="Vicarage Drive"/>
    <tag k="building" v="house"/>
  </way>
  <way id="179316420" version="4" timestamp="2019-02-16T10:48:23Z" changeset="67250645" uid="5173844" user="ndrw6">
    <nd ref="1896584003"/>
    <nd ref="1896584374"/>
    <nd ref="1896584210"/>
    <nd ref="1896584426"/>
    <nd ref="1896584356"/>
    <nd ref="1896583900"/>
    <nd ref="1896583902"/>
    <nd ref="1896584003"/>
    <tag k="addr:city" v="Cambridge"/>
    <tag k="addr:housenumber" v="21"/>
    <tag k="addr:postcode" v="CB3 9NQ"/>
    <tag k="addr:street" v="Broadway"/>
    <tag k="building" v="house"/>
  </way>
  <way id="179316422" version="4" timestamp="2019-02-16T10:48:23Z" changeset="67250645" uid="5173844" user="ndrw6">
    <nd ref="1896584191"/>
    <nd ref="1896584025"/>
    <nd ref="1896584167"/>
    <nd ref="1896584195"/>
    <nd ref="1896584402"/>
    <nd ref="1896583800"/>
    <nd ref="1896583856"/>
    <nd ref="1896584152"/>
    <nd ref="1896584191"/>
    <tag k="addr:city" v="Cambridge"/>
    <tag k="addr:housename" v="North End House"/>
    <tag k="addr:housenumber" v="87"/>
    <tag k="addr:postcode" v="CB3 9NQ"/>
    <tag k="addr:street" v="Broadway"/>
    <tag k="building" v="house"/>
  </way>
  <way id="179316423" version="4" timestamp="2019-02-16T10:48:23Z" changeset="67250645" uid="5173844" user="ndrw6">
    <nd ref="1896584427"/>
    <nd ref="1896584147"/>
    <nd ref="1896584433"/>
    <nd ref="1896583874"/>
    <nd ref="1896583834"/>
    <nd ref="1896583979"/>
    <nd ref="1896584427"/>
    <tag k="addr:city" v="Cambridge"/>
    <tag k="addr:housename" v="Cedar House"/>
    <tag k="addr:housenumber" v="18"/>
    <tag k="addr:postcode" v="CB3 9NH"/>
    <tag k="addr:street" v="Coton Road"/>
    <tag k="building" v="house"/>
  </way>
  <way id="179316424" version="6" timestamp="2023-12-26T17:34:15Z" changeset="145543726" uid="12661527" user="Kartenkarsten714">
    <nd ref="1896583899"/>
    <nd ref="1896583965"/>
    <nd ref="1896584342"/>
    <nd ref="1896583922"/>
    <nd ref="1896584024"/>
    <nd ref="1896584330"/>
    <nd ref="1896583899"/>
    <tag k="addr:city" v="Cambridge"/>
    <tag k="addr:housename" v="The Old Master's House"/>
    <tag k="addr:housenumber" v="17"/>
    <tag k="addr:postcode" v="CB3 9NF"/>
    <tag k="addr:street" v="High Street"/>
    <tag k="building" v="house"/>
    <tag k="roof:shape" v="gabled"/>
  </way>
  <way id="179316427" version="4" timestamp="2019-02-16T10:48:23Z" changeset="67250645" uid="5173844" user="ndrw6">
    <nd ref="1896584056"/>
    <nd ref="1896584438"/>
    <nd ref="1896584156"/>
    <nd ref="1896584217"/>
    <nd ref="1896584056"/>
    <tag k="addr:city" v="Cambridge"/>
    <tag k="addr:housenumber" v="17"/>
    <tag k="addr:postcode" v="CB3 9NH"/>
    <tag k="addr:street" v="Coton Road"/>
    <tag k="building" v="house"/>
  </way>
  <way id="179316428" version="5" timestamp="2019-02-16T10:48:23Z" changeset="67250645" uid="5173844" user="ndrw6">
    <nd ref="1896584134"/>
    <nd ref="1896583835"/>
    <nd ref="1896583799"/>
    <nd ref="1896584058"/>
    <nd ref="1896584230"/>
    <nd ref="1896584060"/>
    <nd ref="1896584379"/>
    <nd ref="1896584459"/>
    <nd ref="1896584134"/>
    <tag k="addr:city" v="Cambridge"/>
    <tag k="addr:housenumber" v="9"/>
    <tag k="addr:postcode" v="CB3 9NZ"/>
    <tag k="addr:street" v="Pearces Yard"/>
    <tag k="building" v="house"/>
  </way>
  <way id="179316429" version="5" timestamp="2019-02-16T10:48:24Z" changeset="67250645" uid="5173844" user="ndrw6">
    <nd ref="1896584122"/>
    <nd ref="1896583925"/>
    <nd ref="1896583919"/>
    <nd ref="1896584343"/>
    <nd ref="1896584117"/>
    <nd ref="2113741085"/>
    <nd ref="1896584122"/>
    <tag k="addr:city" v="Cambridge"/>
    <tag k="addr:housenumber" v="7"/>
    <tag k="addr:postcode" v="CB3 9NH"/>
    <tag k="addr:street" v="Coton Road"/>
    <tag k="building" v="house"/>
  </way>
  <way id="179316430" version="4" timestamp="2019-02-16T10:48:24Z" changeset="67250645" uid="5173844" user="ndrw6">
    <nd ref="1896584015"/>
    <nd ref="1896584353"/>
    <nd ref="1896584289"/>
    <nd ref="1896584257"/>
    <nd ref="1896584015"/>
    <tag k="addr:city" v="Cambridge"/>
    <tag k="addr:housenumber" v="10"/>
    <tag k="addr:postcode" v="CB3 9NQ"/>
    <tag k="addr:street" v="Broadway"/>
    <tag k="building" v="house"/>
  </way>
  <way id="179316431" version="5" timestamp="2024-02-27T13:40:56Z" changeset="147973866" uid="742701" user="kerr smith">
    <nd ref="1896584447"/>
    <nd ref="1896583906"/>
    <nd ref="1896584448"/>
    <nd ref="1896584098"/>
    <nd ref="1896584447"/>
    <tag k="addr:housename" v="Balls Grove"/>
    <tag k="addr:housenumber" v="9"/>
    <tag k="addr:postcode" v="CB3 9ND"/>
    <tag k="addr:street" v="Mill Way"/>
    <tag k="building" v="house"/>
    <tag k="name" v="Balls Grove"/>
    <tag k="source" v="aerials"/>
    <tag k="source:name" v="dictaphone"/>
    <tag k="wikidata" v="Q26314606"/>
  </way>
  <way id="179316434" version="3" timestamp="2016-07-11T16:21:55Z" changeset="40657142" uid="242345" user="confusedbuffalo">
    <nd ref="1896583825"/>
    <nd ref="1896584454"/>
    <nd ref="1896584305"/>
    <nd ref="1896584037"/>
    <nd ref="1896583825"/>
    <tag k="addr:housenumber" v="1"/>
    <tag k="addr:street" v="Pearces Yard"/>
    <tag k="building" v="house"/>
  </way>
  <way id="179316435" version="5" timestamp="2019-02-16T10:48:24Z" changeset="67250645" uid="5173844" user="ndrw6">
    <nd ref="1896584251"/>
    <nd ref="1896584354"/>
    <nd ref="1896584035"/>
    <nd ref="1896584307"/>
    <nd ref="1896584251"/>
    <tag k="addr:city" v="Cambridge"/>
    <tag k="addr:housename" v="Willow House"/>
    <tag k="addr:housenumber" v="18"/>
    <tag k="addr:postcode" v="CB3 9NF"/>
    <tag k="addr:street" v="High Street"/>
    <tag k="building" v="house"/>
  </way>
  <way id="179316439" version="4" timestamp="2019-02-16T10:48:24Z" changeset="67250645" uid="5173844" user="ndrw6">
    <nd ref="1896584271"/>
    <nd ref="1896584217"/>
    <nd ref="1896584156"/>
    <nd ref="1896583870"/>
    <nd ref="1896584271"/>
    <tag k="addr:city" v="Cambridge"/>
    <tag k="addr:housenumber" v="15"/>
    <tag k="addr:postcode" v="CB3 9NH"/>
    <tag k="addr:street" v="Coton Road"/>
    <tag k="building" v="house"/>
  </way>
  <way id="179316441" version="4" timestamp="2023-12-25T14:07:41Z" changeset="145499128" uid="493595" user="Yorvik Prestigitator">
    <nd ref="1896584014"/>
    <nd ref="11452165457"/>
    <nd ref="1896583910"/>
    <nd ref="1896584332"/>
    <nd ref="1896584358"/>
    <nd ref="1896584042"/>
    <nd ref="1896584089"/>
    <nd ref="1896584014"/>
    <tag k="addr:city" v="Cambridge"/>
    <tag k="addr:postcode" v="CB3 9NF"/>
    <tag k="addr:street" v="High Street"/>
    <tag k="amenity" v="community_centre"/>
    <tag k="building" v="public"/>
    <tag k="community_centre" v="village_hall"/>
    <tag k="name" v="Grantchester Village Hall"/>
  </way>
  <way id="179316442" version="4" timestamp="2019-02-16T10:48:24Z" changeset="67250645" uid="5173844" user="ndrw6">
    <nd ref="1896584319"/>
    <nd ref="1896584187"/>
    <nd ref="1896584310"/>
    <nd ref="1896583911"/>
    <nd ref="1896584319"/>
    <tag k="addr:city" v="Cambridge"/>
    <tag k="addr:housenumber" v="31"/>
    <tag k="addr:postcode" v="CB3 9NH"/>
    <tag k="addr:street" v="Coton Road"/>
    <tag k="building" v="house"/>
  </way>
  <way id="179316443" version="5" timestamp="2019-02-16T10:48:24Z" changeset="67250645" uid="5173844" user="ndrw6">
    <nd ref="1896584378"/>
    <nd ref="1896584293"/>
    <nd ref="1896583801"/>
    <nd ref="1896584031"/>
    <nd ref="1896583809"/>
    <nd ref="1896584366"/>
    <nd ref="1896584350"/>
    <nd ref="1896583823"/>
    <nd ref="1896584422"/>
    <nd ref="1896583964"/>
    <nd ref="1896583842"/>
    <nd ref="1896583883"/>
    <nd ref="1896584391"/>
    <nd ref="1896584129"/>
    <nd ref="1896583875"/>
    <nd ref="1896583951"/>
    <nd ref="1896584378"/>
    <tag k="addr:city" v="Cambridge"/>
    <tag k="addr:housename" v="Merton House"/>
    <tag k="addr:housenumber" v="17"/>
    <tag k="addr:postcode" v="CB3 9NQ"/>
    <tag k="addr:street" v="Broadway"/>
    <tag k="building" v="house"/>
    <tag k="wikidata" v="Q26616027"/>
  </way>
  <way id="179316444" version="5" timestamp="2022-09-28T22:49:20Z" changeset="126757880" uid="6476359" user="NSiecw">
    <nd ref="1896584157"/>
    <nd ref="10059785592"/>
    <nd ref="2112340034"/>
    <nd ref="10059785599"/>
    <nd ref="10059785598"/>
    <nd ref="1896584032"/>
    <nd ref="10059785587"/>
    <nd ref="1896584157"/>
    <tag k="addr:city" v="Cambridge"/>
    <tag k="addr:housenumber" v="27"/>
    <tag k="addr:postcode" v="CB3 9NF"/>
    <tag k="addr:street" v="High Street"/>
    <tag k="addr:village" v="Barton"/>
    <tag k="building" v="house"/>
    <tag k="building:levels" v="2"/>
    <tag k="roof:levels" v="0"/>
    <tag k="roof:shape" v="hipped"/>
  </way>
  <way id="179316445" version="4" timestamp="2019-02-16T10:48:24Z" changeset="67250645" uid="5173844" user="ndrw6">
    <nd ref="1896583872"/>
    <nd ref="1896584360"/>
    <nd ref="1896584287"/>
    <nd ref="1896584119"/>
    <nd ref="1896583872"/>
    <tag k="addr:city" v="Cambridge"/>
    <tag k="addr:housenumber" v="24"/>
    <tag k="addr:postcode" v="CB3 9NF"/>
    <tag k="addr:street" v="High Street"/>
    <tag k="building" v="house"/>
  </way>
  <way id="179316447" version="5" timestamp="2019-02-16T10:48:25Z" changeset="67250645" uid="5173844" user="ndrw6">
    <nd ref="1896583931"/>
    <nd ref="1896584180"/>
    <nd ref="1896583981"/>
    <nd ref="1896584174"/>
    <nd ref="1896584276"/>
    <nd ref="1896584261"/>
    <nd ref="1896584306"/>
    <nd ref="1896584320"/>
    <nd ref="1896584255"/>
    <nd ref="1896583931"/>
    <tag k="addr:city" v="Cambridge"/>
    <tag k="addr:housenumber" v="3"/>
    <tag k="addr:postcode" v="CB3 9NG"/>
    <tag k="addr:street" v="Vicarage Drive"/>
    <tag k="building" v="house"/>
  </way>
  <way id="179316449" version="4" timestamp="2019-02-16T10:48:25Z" changeset="67250645" uid="5173844" user="ndrw6">
    <nd ref="1896584193"/>
    <nd ref="1896584127"/>
    <nd ref="1896584108"/>
    <nd ref="1896583961"/>
    <nd ref="1896584377"/>
    <nd ref="1896584245"/>
    <nd ref="1896584212"/>
    <nd ref="1896584341"/>
    <nd ref="1896584193"/>
    <tag k="addr:city" v="Cambridge"/>
    <tag k="addr:housenumber" v="19"/>
    <tag k="addr:postcode" v="CB3 9NQ"/>
    <tag k="addr:street" v="Broadway"/>
    <tag k="building" v="house"/>
  </way>
  <way id="179316450" version="4" timestamp="2020-01-20T21:44:21Z" changeset="79818634" uid="364" user="Edward">
    <nd ref="1896584331"/>
    <nd ref="1896584051"/>
    <nd ref="2113892850"/>
    <nd ref="1896584406"/>
    <nd ref="1896584168"/>
    <nd ref="1896584030"/>
    <nd ref="1896584088"/>
    <nd ref="1896584116"/>
    <nd ref="1896584114"/>
    <nd ref="1896584371"/>
    <nd ref="1896584315"/>
    <nd ref="1896584430"/>
    <nd ref="1896584236"/>
    <nd ref="1896583831"/>
    <nd ref="1896584029"/>
    <nd ref="1896584331"/>
    <tag k="addr:housenumber" v="34"/>
    <tag k="addr:street" v="Coton Road"/>
    <tag k="building" v="yes"/>
    <tag k="name" v="Lacies Farm"/>
    <tag k="wikidata" v="Q26456390"/>
  </way>
  <way id="179316451" version="5" timestamp="2023-12-26T17:34:16Z" changeset="145543726" uid="12661527" user="Kartenkarsten714">
    <nd ref="1896584274"/>
    <nd ref="1896584040"/>
    <nd ref="1896584344"/>
    <nd ref="1896583915"/>
    <nd ref="1896584423"/>
    <nd ref="1896584246"/>
    <nd ref="1896583898"/>
    <nd ref="1896584321"/>
    <nd ref="1896584274"/>
    <tag k="addr:city" v="Cambridge"/>
    <tag k="addr:housename" v="The Old Stores"/>
    <tag k="addr:housenumber" v="5"/>
    <tag k="addr:postcode" v="CB3 9NF"/>
    <tag k="addr:street" v="High Street"/>
    <tag k="building" v="house"/>
    <tag k="roof:shape" v="gabled"/>
  </way>
  <way id="179316452" version="4" timestamp="2019-02-16T10:48:25Z" changeset="67250645" uid="5173844" user="ndrw6">
    <nd ref="1896584337"/>
    <nd ref="1896584215"/>
    <nd ref="1896584113"/>
    <nd ref="2113892833"/>
    <nd ref="1896583830"/>
    <nd ref="1896584337"/>
    <tag k="addr:city" v="Cambridge"/>
    <tag k="addr:housenumber" v="35"/>
    <tag k="addr:postcode" v="CB3 9NH"/>
    <tag k="addr:street" v="Coton Road"/>
    <tag k="building" v="house"/>
  </way>
  <way id="179316457" version="6" timestamp="2019-02-16T10:48:25Z" changeset="67250645" uid="5173844" user="ndrw6">
    <nd ref="1896583988"/>
    <nd ref="1896584399"/>
    <nd ref="1896584318"/>
    <nd ref="1896584368"/>
    <nd ref="1896583940"/>
    <nd ref="1896584055"/>
    <nd ref="1896584216"/>
    <nd ref="1896584136"/>
    <nd ref="1896584302"/>
    <nd ref="1896584137"/>
    <nd ref="1896583988"/>
    <tag k="addr:city" v="Cambridge"/>
    <tag k="addr:housename" v="Merton Barn"/>
    <tag k="addr:housenumber" v="25"/>
    <tag k="addr:postcode" v="CB3 9NQ"/>
    <tag k="addr:street" v="Broadway"/>
    <tag k="building" v="house"/>
    <tag k="wikidata" v="Q26456357"/>
  </way>
  <way id="179316460" version="4" timestamp="2019-02-16T10:48:25Z" changeset="67250645" uid="5173844" user="ndrw6">
    <nd ref="1896584365"/>
    <nd ref="1896583911"/>
    <nd ref="1896584310"/>
    <nd ref="1896583969"/>
    <nd ref="1896584361"/>
    <nd ref="1896584365"/>
    <tag k="addr:city" v="Cambridge"/>
    <tag k="addr:housenumber" v="29"/>
    <tag k="addr:postcode" v="CB3 9NH"/>
    <tag k="addr:street" v="Coton Road"/>
    <tag k="building" v="house"/>
  </way>
  <way id="179316462" version="4" timestamp="2019-02-16T10:48:25Z" changeset="67250645" uid="5173844" user="ndrw6">
    <nd ref="1896584412"/>
    <nd ref="1896583824"/>
    <nd ref="1896583855"/>
    <nd ref="1896584385"/>
    <nd ref="1896584412"/>
    <tag k="addr:city" v="Cambridge"/>
    <tag k="addr:housenumber" v="8"/>
    <tag k="addr:postcode" v="CB3 9NH"/>
    <tag k="addr:street" v="Coton Road"/>
    <tag k="building" v="house"/>
  </way>
  <way id="179316465" version="7" timestamp="2023-12-26T17:34:14Z" changeset="145543726" uid="12661527" user="Kartenkarsten714">
    <nd ref="1896584033"/>
    <nd ref="1896583847"/>
    <nd ref="1896584124"/>
    <nd ref="1896584428"/>
    <nd ref="1896583985"/>
    <nd ref="1896584011"/>
    <nd ref="1896583806"/>
    <nd ref="1896584373"/>
    <nd ref="1896584033"/>
    <tag k="addr:city" v="Cambridge"/>
    <tag k="addr:housenumber" v="40"/>
    <tag k="addr:postcode" v="CB3 9NF"/>
    <tag k="addr:street" v="High Street"/>
    <tag k="building" v="house"/>
    <tag k="building:levels" v="1"/>
    <tag k="roof:levels" v="1"/>
    <tag k="roof:shape" v="gabled"/>
  </way>
  <way id="179316467" version="7" timestamp="2021-06-06T12:13:17Z" changeset="105914430" uid="49323" user="Ben Page">
    <nd ref="1896584248"/>
    <nd ref="1896583871"/>
    <nd ref="1896584240"/>
    <nd ref="1896584311"/>
    <nd ref="1896584248"/>
    <tag k="addr:city" v="Cambridge"/>
    <tag k="addr:housenumber" v="22"/>
    <tag k="addr:postcode" v="CB3 9NF"/>
    <tag k="addr:street" v="High Street"/>
    <tag k="building" v="retail"/>
    <tag k="building:levels" v="2"/>
    <tag k="name" v="Windmill Car &amp; Commercials"/>
    <tag k="roof:levels" v="0"/>
    <tag k="roof:shape" v="gabled"/>
    <tag k="shop" v="car"/>
  </way>
  <way id="179316469" version="4" timestamp="2019-02-16T10:48:26Z" changeset="67250645" uid="5173844" user="ndrw6">
    <nd ref="1896583997"/>
    <nd ref="1896584111"/>
    <nd ref="1896584335"/>
    <nd ref="1896583928"/>
    <nd ref="1896583997"/>
    <tag k="addr:city" v="Cambridge"/>
    <tag k="addr:housename" v="Bridle Way Cottage"/>
    <tag k="addr:housenumber" v="47"/>
    <tag k="addr:postcode" v="CB3 9NT"/>
    <tag k="addr:street" v="Coton Road"/>
    <tag k="building" v="house"/>
  </way>
  <way id="179316472" version="4" timestamp="2019-02-16T10:48:26Z" changeset="67250645" uid="5173844" user="ndrw6">
    <nd ref="1896584401"/>
    <nd ref="1896584213"/>
    <nd ref="1896584186"/>
    <nd ref="1896584087"/>
    <nd ref="1896583932"/>
    <nd ref="1896584439"/>
    <nd ref="1896583944"/>
    <nd ref="1896583937"/>
    <nd ref="1896584401"/>
    <tag k="addr:city" v="Cambridge"/>
    <tag k="addr:housenumber" v="23"/>
    <tag k="addr:postcode" v="CB3 9NH"/>
    <tag k="addr:street" v="Coton Road"/>
    <tag k="building" v="house"/>
  </way>
  <way id="179316473" version="5" timestamp="2019-02-16T10:48:26Z" changeset="67250645" uid="5173844" user="ndrw6">
    <nd ref="1896584007"/>
    <nd ref="1896584262"/>
    <nd ref="1896584175"/>
    <nd ref="1896583905"/>
    <nd ref="1896584092"/>
    <nd ref="1896584317"/>
    <nd ref="1896583996"/>
    <nd ref="1896584004"/>
    <nd ref="1896584079"/>
    <nd ref="1896584007"/>
    <tag k="addr:city" v="Cambridge"/>
    <tag k="addr:housename" v="Old School House"/>
    <tag k="addr:housenumber" v="16"/>
    <tag k="addr:postcode" v="CB3 9NF"/>
    <tag k="addr:street" v="High Street"/>
    <tag k="building" v="house"/>
  </way>
  <way id="179316474" version="7" timestamp="2023-12-26T17:34:14Z" changeset="145543726" uid="12661527" user="Kartenkarsten714">
    <nd ref="1896583939"/>
    <nd ref="1896584398"/>
    <nd ref="1896584389"/>
    <nd ref="1896584068"/>
    <nd ref="1896584139"/>
    <nd ref="1896584250"/>
    <nd ref="1896583929"/>
    <nd ref="1896583854"/>
    <nd ref="1896583939"/>
    <tag k="addr:city" v="Cambridge"/>
    <tag k="addr:housenumber" v="44"/>
    <tag k="addr:postcode" v="CB3 9NF"/>
    <tag k="addr:street" v="High Street"/>
    <tag k="building" v="house"/>
    <tag k="building:levels" v="1"/>
    <tag k="roof:levels" v="1"/>
    <tag k="roof:shape" v="gabled"/>
  </way>
  <way id="179316475" version="5" timestamp="2019-02-16T10:48:26Z" changeset="67250645" uid="5173844" user="ndrw6">
    <nd ref="1896584235"/>
    <nd ref="1896584372"/>
    <nd ref="1896584100"/>
    <nd ref="1896584021"/>
    <nd ref="1896583941"/>
    <nd ref="1896584005"/>
    <nd ref="1896583958"/>
    <nd ref="1896583869"/>
    <nd ref="1896584449"/>
    <nd ref="1896584415"/>
    <nd ref="1896584235"/>
    <tag k="addr:city" v="Cambridge"/>
    <tag k="addr:housenumber" v="35"/>
    <tag k="addr:postcode" v="CB3 9NF"/>
    <tag k="addr:street" v="High Street"/>
    <tag k="building" v="house"/>
    <tag k="building:levels" v="2"/>
    <tag k="roof:levels" v="0"/>
  </way>
  <way id="179316478" version="4" timestamp="2019-02-16T10:48:26Z" changeset="67250645" uid="5173844" user="ndrw6">
    <nd ref="1896584149"/>
    <nd ref="1896584280"/>
    <nd ref="1896584184"/>
    <nd ref="1896584012"/>
    <nd ref="1896583974"/>
    <nd ref="1896584278"/>
    <nd ref="1896584155"/>
    <nd ref="1896583967"/>
    <nd ref="1896584303"/>
    <nd ref="1896584291"/>
    <nd ref="1896584163"/>
    <nd ref="1896583918"/>
    <nd ref="1896584314"/>
    <nd ref="1896583901"/>
    <nd ref="1896584149"/>
    <tag k="addr:city" v="Cambridge"/>
    <tag k="addr:housenumber" v="19"/>
    <tag k="addr:postcode" v="CB3 9NF"/>
    <tag k="addr:street" v="High Street"/>
    <tag k="building" v="house"/>
  </way>
  <way id="179316483" version="5" timestamp="2019-02-16T10:48:26Z" changeset="67250645" uid="5173844" user="ndrw6">
    <nd ref="1896584369"/>
    <nd ref="1896584063"/>
    <nd ref="1896583892"/>
    <nd ref="1896584409"/>
    <nd ref="2113892838"/>
    <nd ref="1896584369"/>
    <tag k="addr:city" v="Cambridge"/>
    <tag k="addr:housenumber" v="13"/>
    <tag k="addr:postcode" v="CB3 9NH"/>
    <tag k="addr:street" v="Coton Road"/>
    <tag k="building" v="house"/>
  </way>
  <way id="179316484" version="4" timestamp="2019-02-16T10:48:27Z" changeset="67250645" uid="5173844" user="ndrw6">
    <nd ref="1896584452"/>
    <nd ref="1896583830"/>
    <nd ref="2113892833"/>
    <nd ref="1896584113"/>
    <nd ref="1896584112"/>
    <nd ref="1896584105"/>
    <nd ref="1896584452"/>
    <tag k="addr:city" v="Cambridge"/>
    <tag k="addr:housenumber" v="33"/>
    <tag k="addr:postcode" v="CB3 9NH"/>
    <tag k="addr:street" v="Coton Road"/>
    <tag k="building" v="house"/>
  </way>
  <way id="179316485" version="4" timestamp="2019-02-16T10:48:27Z" changeset="67250645" uid="5173844" user="ndrw6">
    <nd ref="1896584290"/>
    <nd ref="1896584161"/>
    <nd ref="1896583992"/>
    <nd ref="1896583805"/>
    <nd ref="1896584290"/>
    <tag k="addr:city" v="Cambridge"/>
    <tag k="addr:housenumber" v="7a"/>
    <tag k="addr:postcode" v="CB3 9NF"/>
    <tag k="addr:street" v="High Street"/>
    <tag k="building" v="house"/>
  </way>
  <way id="179316487" version="6" timestamp="2023-12-26T17:34:15Z" changeset="145543726" uid="12661527" user="Kartenkarsten714">
    <nd ref="1896584434"/>
    <nd ref="1896583924"/>
    <nd ref="1896584164"/>
    <nd ref="1896584125"/>
    <nd ref="1896584411"/>
    <nd ref="1896583916"/>
    <nd ref="1896584038"/>
    <nd ref="1896584336"/>
    <nd ref="1896584434"/>
    <tag k="addr:city" v="Cambridge"/>
    <tag k="addr:housenumber" v="67"/>
    <tag k="addr:postcode" v="CB3 9NF"/>
    <tag k="addr:street" v="High Street"/>
    <tag k="building" v="house"/>
    <tag k="building:levels" v="1"/>
    <tag k="roof:levels" v="1"/>
    <tag k="roof:shape" v="gabled"/>
  </way>
  <way id="179316488" version="5" timestamp="2019-02-16T10:48:27Z" changeset="67250645" uid="5173844" user="ndrw6">
    <nd ref="1896583994"/>
    <nd ref="1896584275"/>
    <nd ref="1896583893"/>
    <nd ref="1896583950"/>
    <nd ref="1896583978"/>
    <nd ref="1896584363"/>
    <nd ref="1896583994"/>
    <tag k="addr:city" v="Cambridge"/>
    <tag k="addr:housenumber" v="4"/>
    <tag k="addr:postcode" v="CB3 9NG"/>
    <tag k="addr:street" v="Vicarage Drive"/>
    <tag k="building" v="house"/>
  </way>
  <way id="179316489" version="4" timestamp="2019-02-16T10:48:27Z" changeset="67250645" uid="5173844" user="ndrw6">
    <nd ref="1896583837"/>
    <nd ref="1896584243"/>
    <nd ref="1896584351"/>
    <nd ref="1896584170"/>
    <nd ref="1896584045"/>
    <nd ref="1896584218"/>
    <nd ref="1896584189"/>
    <nd ref="1896584286"/>
    <nd ref="1896583837"/>
    <tag k="addr:city" v="Cambridge"/>
    <tag k="addr:housenumber" v="26"/>
    <tag k="addr:postcode" v="CB3 9NH"/>
    <tag k="addr:street" v="Coton Road"/>
    <tag k="building" v="house"/>
  </way>
  <way id="179424770" version="4" timestamp="2019-02-16T10:48:27Z" changeset="67250645" uid="5173844" user="ndrw6">
    <nd ref="1897989362"/>
    <nd ref="1897989518"/>
    <nd ref="1897989293"/>
    <nd ref="1897989571"/>
    <nd ref="1897989475"/>
    <nd ref="1897989477"/>
    <nd ref="1897989362"/>
    <tag k="addr:city" v="Cambridge"/>
    <tag k="addr:housenumber" v="6a"/>
    <tag k="addr:postcode" v="CB3 9NJ"/>
    <tag k="addr:street" v="Burnt Close"/>
    <tag k="building" v="house"/>
  </way>
  <way id="179424772" version="4" timestamp="2019-02-16T10:48:27Z" changeset="67250645" uid="5173844" user="ndrw6">
    <nd ref="1897989333"/>
    <nd ref="1897989549"/>
    <nd ref="1897989290"/>
    <nd ref="1897989258"/>
    <nd ref="1897989584"/>
    <nd ref="1897989546"/>
    <nd ref="1897989419"/>
    <nd ref="1897989333"/>
    <tag k="addr:city" v="Cambridge"/>
    <tag k="addr:housenumber" v="7"/>
    <tag k="addr:postcode" v="CB3 9NJ"/>
    <tag k="addr:street" v="Burnt Close"/>
    <tag k="building" v="house"/>
  </way>
  <way id="179424774" version="5" timestamp="2019-02-16T10:48:27Z" changeset="67250645" uid="5173844" user="ndrw6">
    <nd ref="2116562493"/>
    <nd ref="2116562692"/>
    <nd ref="1897989423"/>
    <nd ref="1897989228"/>
    <nd ref="1897989514"/>
    <nd ref="1897989268"/>
    <nd ref="2116562493"/>
    <tag k="addr:city" v="Cambridge"/>
    <tag k="addr:housenumber" v="1"/>
    <tag k="addr:postcode" v="CB3 9NR"/>
    <tag k="addr:street" v="Crome Ditch Close"/>
    <tag k="building" v="house"/>
  </way>
  <way id="179424785" version="4" timestamp="2019-02-16T10:48:27Z" changeset="67250645" uid="5173844" user="ndrw6">
    <nd ref="1897989504"/>
    <nd ref="1897989562"/>
    <nd ref="1897989375"/>
    <nd ref="1897989234"/>
    <nd ref="1897989504"/>
    <tag k="addr:city" v="Cambridge"/>
    <tag k="addr:housenumber" v="4"/>
    <tag k="addr:postcode" v="CB3 9NJ"/>
    <tag k="addr:street" v="Burnt Close"/>
    <tag k="building" v="house"/>
  </way>
  <way id="179424789" version="4" timestamp="2019-02-16T10:48:28Z" changeset="67250645" uid="5173844" user="ndrw6">
    <nd ref="1897989280"/>
    <nd ref="1897989331"/>
    <nd ref="1897989342"/>
    <nd ref="1897989425"/>
    <nd ref="1897989280"/>
    <tag k="addr:city" v="Cambridge"/>
    <tag k="addr:housenumber" v="6"/>
    <tag k="addr:postcode" v="CB3 9NJ"/>
    <tag k="addr:street" v="Burnt Close"/>
    <tag k="building" v="house"/>
  </way>
  <way id="179424796" version="3" timestamp="2016-07-11T16:24:53Z" changeset="40657142" uid="242345" user="confusedbuffalo">
    <nd ref="1897989334"/>
    <nd ref="1897989468"/>
    <nd ref="1897989232"/>
    <nd ref="1897989406"/>
    <nd ref="1897989334"/>
    <tag k="addr:housenumber" v="6"/>
    <tag k="addr:street" v="Stulpfield Road"/>
    <tag k="building" v="house"/>
  </way>
  <way id="179424800" version="4" timestamp="2019-02-16T10:48:28Z" changeset="67250645" uid="5173844" user="ndrw6">
    <nd ref="2116020628"/>
    <nd ref="2116020606"/>
    <nd ref="2116020587"/>
    <nd ref="1897989254"/>
    <nd ref="2116020628"/>
    <tag k="addr:city" v="Cambridge"/>
    <tag k="addr:housenumber" v="12"/>
    <tag k="addr:postcode" v="CB3 9NJ"/>
    <tag k="addr:street" v="Burnt Close"/>
    <tag k="building" v="house"/>
  </way>
  <way id="179424804" version="5" timestamp="2019-02-16T10:48:28Z" changeset="67250645" uid="5173844" user="ndrw6">
    <nd ref="2116562509"/>
    <nd ref="2116562706"/>
    <nd ref="1897989554"/>
    <nd ref="1897989505"/>
    <nd ref="1897989306"/>
    <nd ref="1897989523"/>
    <nd ref="2116562509"/>
    <tag k="addr:city" v="Cambridge"/>
    <tag k="addr:housenumber" v="5"/>
    <tag k="addr:postcode" v="CB3 9NR"/>
    <tag k="addr:street" v="Crome Ditch Close"/>
    <tag k="building" v="house"/>
  </way>
  <way id="179424805" version="4" timestamp="2019-02-16T10:48:28Z" changeset="67250645" uid="5173844" user="ndrw6">
    <nd ref="1897989249"/>
    <nd ref="2116562531"/>
    <nd ref="1897989221"/>
    <nd ref="1897989299"/>
    <nd ref="1897989601"/>
    <nd ref="1897989249"/>
    <tag k="addr:city" v="Cambridge"/>
    <tag k="addr:housenumber" v="3"/>
    <tag k="addr:postcode" v="CB3 9NN"/>
    <tag k="addr:street" v="Widnall Close"/>
    <tag k="building" v="house"/>
  </way>
  <way id="179424808" version="4" timestamp="2019-02-16T10:48:28Z" changeset="67250645" uid="5173844" user="ndrw6">
    <nd ref="1897989279"/>
    <nd ref="1897989262"/>
    <nd ref="1897989521"/>
    <nd ref="1897989282"/>
    <nd ref="1897989317"/>
    <nd ref="1897989272"/>
    <nd ref="1897989265"/>
    <nd ref="1897989304"/>
    <nd ref="1897989279"/>
    <tag k="addr:city" v="Cambridge"/>
    <tag k="addr:housenumber" v="14"/>
    <tag k="addr:postcode" v="CB3 9NJ"/>
    <tag k="addr:street" v="Burnt Close"/>
    <tag k="building" v="house"/>
  </way>
  <way id="179424810" version="5" timestamp="2021-09-29T02:23:42Z" changeset="111842572" uid="629" user="Wookey">
    <nd ref="1897989220"/>
    <nd ref="1897989555"/>
    <nd ref="1897989569"/>
    <nd ref="1897989591"/>
    <nd ref="9130888118"/>
    <nd ref="1897989389"/>
    <nd ref="1897989218"/>
    <nd ref="1897989312"/>
    <nd ref="1897989350"/>
    <nd ref="1897989220"/>
    <tag k="addr:city" v="Cambridge"/>
    <tag k="addr:housenumber" v="9"/>
    <tag k="addr:postcode" v="CB3 9NJ"/>
    <tag k="addr:street" v="Burnt Close"/>
    <tag k="building" v="house"/>
  </way>
  <way id="179424812" version="4" timestamp="2019-02-16T10:48:28Z" changeset="67250645" uid="5173844" user="ndrw6">
    <nd ref="1897989219"/>
    <nd ref="1897989561"/>
    <nd ref="1897989360"/>
    <nd ref="1897989413"/>
    <nd ref="1897989352"/>
    <nd ref="1897989492"/>
    <nd ref="1897989497"/>
    <nd ref="1897989292"/>
    <nd ref="1897989507"/>
    <nd ref="1897989384"/>
    <nd ref="1897989219"/>
    <tag k="addr:city" v="Cambridge"/>
    <tag k="addr:housename" v="Home Grove"/>
    <tag k="addr:housenumber" v="8"/>
    <tag k="addr:postcode" v="CB3 9NJ"/>
    <tag k="addr:street" v="Burnt Close"/>
    <tag k="building" v="house"/>
  </way>
  <way id="179425597" version="4" timestamp="2019-02-16T10:48:28Z" changeset="67250645" uid="5173844" user="ndrw6">
    <nd ref="1898001155"/>
    <nd ref="1898001200"/>
    <nd ref="1898001195"/>
    <nd ref="1898001179"/>
    <nd ref="1898001266"/>
    <nd ref="1898001151"/>
    <nd ref="1898001155"/>
    <tag k="addr:city" v="Cambridge"/>
    <tag k="addr:housenumber" v="3"/>
    <tag k="addr:postcode" v="CB3 9NY"/>
    <tag k="addr:street" v="Bridle Way"/>
    <tag k="building" v="house"/>
  </way>
  <way id="179425598" version="5" timestamp="2019-02-16T10:48:28Z" changeset="67250645" uid="5173844" user="ndrw6">
    <nd ref="1898001230"/>
    <nd ref="1898001228"/>
    <nd ref="1898001225"/>
    <nd ref="1898001320"/>
    <nd ref="1898001235"/>
    <nd ref="1898001214"/>
    <nd ref="1898001206"/>
    <nd ref="1898001255"/>
    <nd ref="1898001230"/>
    <tag k="addr:city" v="Cambridge"/>
    <tag k="addr:housenumber" v="59"/>
    <tag k="addr:postcode" v="CB3 9NY"/>
    <tag k="addr:street" v="Bridle Way"/>
    <tag k="building" v="house"/>
  </way>
  <way id="179425599" version="4" timestamp="2019-02-16T10:48:29Z" changeset="67250645" uid="5173844" user="ndrw6">
    <nd ref="1898001314"/>
    <nd ref="1898001247"/>
    <nd ref="1898001197"/>
    <nd ref="1898001170"/>
    <nd ref="1898001280"/>
    <nd ref="1898001292"/>
    <nd ref="1898001138"/>
    <nd ref="1898001199"/>
    <nd ref="1898001314"/>
    <tag k="addr:city" v="Cambridge"/>
    <tag k="addr:housenumber" v="39"/>
    <tag k="addr:postcode" v="CB3 9NT"/>
    <tag k="addr:street" v="Coton Road"/>
    <tag k="building" v="house"/>
  </way>
  <way id="179425600" version="4" timestamp="2019-02-16T10:48:29Z" changeset="67250645" uid="5173844" user="ndrw6">
    <nd ref="2116215726"/>
    <nd ref="2116215707"/>
    <nd ref="2116215736"/>
    <nd ref="2116215715"/>
    <nd ref="1898001180"/>
    <nd ref="1898001237"/>
    <nd ref="1898001298"/>
    <nd ref="1898001239"/>
    <nd ref="2116215726"/>
    <tag k="addr:city" v="Cambridge"/>
    <tag k="addr:housenumber" v="85"/>
    <tag k="addr:postcode" v="CB3 9NT"/>
    <tag k="addr:street" v="Coton Road"/>
    <tag k="building" v="house"/>
  </way>
  <way id="179425601" version="6" timestamp="2023-12-26T17:34:14Z" changeset="145543726" uid="12661527" user="Kartenkarsten714">
    <nd ref="1898001241"/>
    <nd ref="1898001259"/>
    <nd ref="1898001290"/>
    <nd ref="1898001262"/>
    <nd ref="1898001241"/>
    <tag k="addr:housename" v="Ivy Dene"/>
    <tag k="addr:housenumber" v="43"/>
    <tag k="addr:street" v="Mill Way"/>
    <tag k="building" v="house"/>
    <tag k="building:levels" v="1"/>
    <tag k="roof:levels" v="1"/>
    <tag k="roof:shape" v="hipped"/>
  </way>
  <way id="179425603" version="4" timestamp="2019-02-16T10:48:29Z" changeset="67250645" uid="5173844" user="ndrw6">
    <nd ref="1898001192"/>
    <nd ref="2116215756"/>
    <nd ref="1898001172"/>
    <nd ref="1898001208"/>
    <nd ref="1898001318"/>
    <nd ref="1898001174"/>
    <nd ref="1898001192"/>
    <tag k="addr:city" v="Cambridge"/>
    <tag k="addr:housenumber" v="81"/>
    <tag k="addr:postcode" v="CB3 9NT"/>
    <tag k="addr:street" v="Coton Road"/>
    <tag k="building" v="house"/>
  </way>
  <way id="179425604" version="4" timestamp="2019-02-16T10:48:29Z" changeset="67250645" uid="5173844" user="ndrw6">
    <nd ref="2116562547"/>
    <nd ref="2116562612"/>
    <nd ref="1898001224"/>
    <nd ref="1898001158"/>
    <nd ref="2116562547"/>
    <tag k="addr:city" v="Cambridge"/>
    <tag k="addr:housenumber" v="8"/>
    <tag k="addr:postcode" v="CB3 9NY"/>
    <tag k="addr:street" v="Bridle Way"/>
    <tag k="building" v="house"/>
  </way>
  <way id="179425607" version="6" timestamp="2023-12-26T17:34:14Z" changeset="145543726" uid="12661527" user="Kartenkarsten714">
    <nd ref="1898001278"/>
    <nd ref="1898001219"/>
    <nd ref="1898001164"/>
    <nd ref="1898001190"/>
    <nd ref="1898001234"/>
    <nd ref="1898001186"/>
    <nd ref="1898001278"/>
    <tag k="addr:housenumber" v="41"/>
    <tag k="addr:street" v="Mill Way"/>
    <tag k="building" v="house"/>
    <tag k="building:levels" v="1"/>
    <tag k="roof:levels" v="1"/>
    <tag k="roof:shape" v="hipped"/>
  </way>
  <way id="179425608" version="3" timestamp="2024-02-27T13:40:56Z" changeset="147973866" uid="742701" user="kerr smith">
    <nd ref="1898001328"/>
    <nd ref="1898001161"/>
    <nd ref="1898001330"/>
    <nd ref="1898001141"/>
    <nd ref="1898001328"/>
    <tag k="addr:housenumber" v="36"/>
    <tag k="addr:postcode" v="CB3 9NB"/>
    <tag k="addr:street" v="Mill Way"/>
    <tag k="building" v="yes"/>
  </way>
  <way id="179425609" version="4" timestamp="2019-02-16T10:48:29Z" changeset="67250645" uid="5173844" user="ndrw6">
    <nd ref="1898001187"/>
    <nd ref="1898001252"/>
    <nd ref="1898001301"/>
    <nd ref="1898001265"/>
    <nd ref="1898001221"/>
    <nd ref="1898001188"/>
    <nd ref="1898001273"/>
    <nd ref="1898001168"/>
    <nd ref="1898001187"/>
    <tag k="addr:city" v="Cambridge"/>
    <tag k="addr:housenumber" v="37"/>
    <tag k="addr:postcode" v="CB3 9NY"/>
    <tag k="addr:street" v="Bridle Way"/>
    <tag k="building" v="house"/>
  </way>
  <way id="179425610" version="6" timestamp="2023-12-26T17:34:14Z" changeset="145543726" uid="12661527" user="Kartenkarsten714">
    <nd ref="1898001166"/>
    <nd ref="1898001204"/>
    <nd ref="1898001240"/>
    <nd ref="1898001213"/>
    <nd ref="1898001166"/>
    <tag k="addr:housenumber" v="45"/>
    <tag k="addr:street" v="Mill Way"/>
    <tag k="building" v="house"/>
    <tag k="building:levels" v="1"/>
    <tag k="roof:levels" v="1"/>
    <tag k="roof:shape" v="gabled"/>
  </way>
  <way id="179425611" version="4" timestamp="2019-02-16T10:48:29Z" changeset="67250645" uid="5173844" user="ndrw6">
    <nd ref="1898001150"/>
    <nd ref="1898001203"/>
    <nd ref="1898001242"/>
    <nd ref="1898001264"/>
    <nd ref="1898001150"/>
    <tag k="addr:city" v="Cambridge"/>
    <tag k="addr:housenumber" v="71"/>
    <tag k="addr:postcode" v="CB3 9NT"/>
    <tag k="addr:street" v="Coton Road"/>
    <tag k="building" v="house"/>
  </way>
  <way id="179425612" version="5" timestamp="2019-02-16T10:48:29Z" changeset="67250645" uid="5173844" user="ndrw6">
    <nd ref="1898001165"/>
    <nd ref="1898001205"/>
    <nd ref="1898001222"/>
    <nd ref="1898001220"/>
    <nd ref="1898001160"/>
    <nd ref="1898001156"/>
    <nd ref="1898001210"/>
    <nd ref="1898001182"/>
    <nd ref="1898001165"/>
    <tag k="addr:city" v="Cambridge"/>
    <tag k="addr:housenumber" v="61"/>
    <tag k="addr:postcode" v="CB3 9NY"/>
    <tag k="addr:street" v="Bridle Way"/>
    <tag k="building" v="house"/>
  </way>
  <way id="179425613" version="5" timestamp="2019-02-16T10:48:29Z" changeset="67250645" uid="5173844" user="ndrw6">
    <nd ref="1898001198"/>
    <nd ref="1898001282"/>
    <nd ref="1898001148"/>
    <nd ref="1898001163"/>
    <nd ref="1898001211"/>
    <nd ref="1898001288"/>
    <nd ref="1898001253"/>
    <nd ref="1898001169"/>
    <nd ref="1898001198"/>
    <tag k="addr:city" v="Cambridge"/>
    <tag k="addr:housenumber" v="55"/>
    <tag k="addr:postcode" v="CB3 9NY"/>
    <tag k="addr:street" v="Bridle Way"/>
    <tag k="building" v="house"/>
  </way>
  <way id="179425614" version="4" timestamp="2019-02-16T10:48:30Z" changeset="67250645" uid="5173844" user="ndrw6">
    <nd ref="1898001324"/>
    <nd ref="1898001162"/>
    <nd ref="1898001147"/>
    <nd ref="1898001201"/>
    <nd ref="1898001140"/>
    <nd ref="1898001191"/>
    <nd ref="1898001324"/>
    <tag k="addr:city" v="Cambridge"/>
    <tag k="addr:housenumber" v="77"/>
    <tag k="addr:postcode" v="CB3 9NT"/>
    <tag k="addr:street" v="Coton Road"/>
    <tag k="building" v="house"/>
  </way>
  <way id="179425615" version="5" timestamp="2019-02-16T10:48:30Z" changeset="67250645" uid="5173844" user="ndrw6">
    <nd ref="1898001246"/>
    <nd ref="1898001173"/>
    <nd ref="1898001176"/>
    <nd ref="1898001254"/>
    <nd ref="1898001246"/>
    <tag k="addr:city" v="Cambridge"/>
    <tag k="addr:housenumber" v="57"/>
    <tag k="addr:postcode" v="CB3 9NY"/>
    <tag k="addr:street" v="Bridle Way"/>
    <tag k="building" v="house"/>
  </way>
  <way id="179425616" version="4" timestamp="2019-02-16T10:48:30Z" changeset="67250645" uid="5173844" user="ndrw6">
    <nd ref="1898001276"/>
    <nd ref="1898001209"/>
    <nd ref="1898001300"/>
    <nd ref="1898001144"/>
    <nd ref="1898001185"/>
    <nd ref="1898001152"/>
    <nd ref="1898001181"/>
    <nd ref="1898001207"/>
    <nd ref="1898001276"/>
    <tag k="addr:city" v="Cambridge"/>
    <tag k="addr:housenumber" v="43"/>
    <tag k="addr:postcode" v="CB3 9NT"/>
    <tag k="addr:street" v="Coton Road"/>
    <tag k="building" v="house"/>
  </way>
  <way id="179425617" version="4" timestamp="2019-02-16T10:48:30Z" changeset="67250645" uid="5173844" user="ndrw6">
    <nd ref="1898001189"/>
    <nd ref="1898001310"/>
    <nd ref="1898001184"/>
    <nd ref="1898001183"/>
    <nd ref="1898001295"/>
    <nd ref="1898001293"/>
    <nd ref="1898001226"/>
    <nd ref="1898001149"/>
    <nd ref="1898001231"/>
    <nd ref="1898001267"/>
    <nd ref="1898001189"/>
    <tag k="addr:city" v="Cambridge"/>
    <tag k="addr:housenumber" v="39"/>
    <tag k="addr:postcode" v="CB3 9NY"/>
    <tag k="addr:street" v="Bridle Way"/>
    <tag k="building" v="house"/>
  </way>
  <way id="179425618" version="4" timestamp="2019-02-16T10:48:30Z" changeset="67250645" uid="5173844" user="ndrw6">
    <nd ref="1898001146"/>
    <nd ref="1898001306"/>
    <nd ref="1898001248"/>
    <nd ref="1898001244"/>
    <nd ref="1898001202"/>
    <nd ref="1898001303"/>
    <nd ref="1898001227"/>
    <nd ref="1898001145"/>
    <nd ref="1898001143"/>
    <nd ref="1898001268"/>
    <nd ref="1898001146"/>
    <tag k="addr:city" v="Cambridge"/>
    <tag k="addr:housenumber" v="4"/>
    <tag k="addr:postcode" v="CB3 9NY"/>
    <tag k="addr:street" v="Bridle Way"/>
    <tag k="building" v="house"/>
  </way>
  <way id="179425619" version="4" timestamp="2019-02-16T10:48:30Z" changeset="67250645" uid="5173844" user="ndrw6">
    <nd ref="1898001212"/>
    <nd ref="1898001175"/>
    <nd ref="1898001261"/>
    <nd ref="1898001243"/>
    <nd ref="1898001260"/>
    <nd ref="1898001194"/>
    <nd ref="1898001250"/>
    <nd ref="1898001263"/>
    <nd ref="1898001212"/>
    <tag k="addr:city" v="Cambridge"/>
    <tag k="addr:housenumber" v="41"/>
    <tag k="addr:postcode" v="CB3 9NT"/>
    <tag k="addr:street" v="Coton Road"/>
    <tag k="building" v="house"/>
  </way>
  <way id="179425620" version="4" timestamp="2019-02-16T10:48:30Z" changeset="67250645" uid="5173844" user="ndrw6">
    <nd ref="1898001308"/>
    <nd ref="1898001258"/>
    <nd ref="1898001233"/>
    <nd ref="1898001322"/>
    <nd ref="1898001308"/>
    <tag k="addr:city" v="Cambridge"/>
    <tag k="addr:housenumber" v="67"/>
    <tag k="addr:postcode" v="CB3 9NT"/>
    <tag k="addr:street" v="Coton Road"/>
    <tag k="building" v="house"/>
  </way>
  <way id="179426354" version="2" timestamp="2024-02-27T13:40:56Z" changeset="147973866" uid="742701" user="kerr smith">
    <nd ref="1898017340"/>
    <nd ref="1898017383"/>
    <nd ref="11669110430"/>
    <nd ref="11669110429"/>
    <nd ref="11669110428"/>
    <nd ref="11669110431"/>
    <nd ref="1898017319"/>
    <nd ref="1898017329"/>
    <nd ref="1898017340"/>
    <tag k="addr:housename" v="Stable Barn"/>
    <tag k="addr:housenumber" v="8"/>
    <tag k="addr:postcode" v="CB3 9NB"/>
    <tag k="addr:street" v="Mill Way"/>
    <tag k="building" v="yes"/>
  </way>
  <way id="179426361" version="2" timestamp="2024-02-27T13:40:56Z" changeset="147973866" uid="742701" user="kerr smith">
    <nd ref="1898017317"/>
    <nd ref="1898017373"/>
    <nd ref="1898017353"/>
    <nd ref="1898017390"/>
    <nd ref="1898017279"/>
    <nd ref="1898017334"/>
    <nd ref="1898017406"/>
    <nd ref="1898017386"/>
    <nd ref="1898017370"/>
    <nd ref="1898017300"/>
    <nd ref="1898017331"/>
    <nd ref="1898017322"/>
    <nd ref="1898017414"/>
    <nd ref="1898017408"/>
    <nd ref="1898017378"/>
    <nd ref="1898017380"/>
    <nd ref="1898017317"/>
    <tag k="addr:housenumber" v="4-6"/>
    <tag k="addr:postcode" v="CB3 9NB"/>
    <tag k="addr:street" v="Mill Way"/>
    <tag k="building" v="yes"/>
  </way>
  <way id="200837805" version="4" timestamp="2019-02-16T10:48:44Z" changeset="67250645" uid="5173844" user="ndrw6">
    <nd ref="1896583935"/>
    <nd ref="1896584367"/>
    <nd ref="1896584259"/>
    <nd ref="1896584446"/>
    <nd ref="1896584273"/>
    <nd ref="1896584214"/>
    <nd ref="1896583980"/>
    <nd ref="1896583935"/>
    <tag k="addr:city" v="Cambridge"/>
    <tag k="addr:housenumber" v="61"/>
    <tag k="addr:postcode" v="CB3 9NF"/>
    <tag k="addr:street" v="High Street"/>
    <tag k="building" v="house"/>
    <tag k="building:levels" v="0"/>
    <tag k="roof:levels" v="1"/>
  </way>
  <way id="200837811" version="4" timestamp="2019-02-16T10:48:44Z" changeset="67250645" uid="5173844" user="ndrw6">
    <nd ref="2108011056"/>
    <nd ref="1896584254"/>
    <nd ref="1896584141"/>
    <nd ref="1896584050"/>
    <nd ref="1896584176"/>
    <nd ref="2108011067"/>
    <nd ref="2108011042"/>
    <nd ref="2108011038"/>
    <nd ref="2108011056"/>
    <tag k="addr:city" v="Cambridge"/>
    <tag k="addr:housenumber" v="69"/>
    <tag k="addr:postcode" v="CB3 9NF"/>
    <tag k="addr:street" v="High Street"/>
    <tag k="building" v="house"/>
    <tag k="building:levels" v="2"/>
    <tag k="roof:levels" v="0"/>
  </way>
  <way id="200837867" version="5" timestamp="2023-12-26T17:34:15Z" changeset="145543726" uid="12661527" user="Kartenkarsten714">
    <nd ref="2108011210"/>
    <nd ref="2108011069"/>
    <nd ref="2108011051"/>
    <nd ref="2108011215"/>
    <nd ref="2108011210"/>
    <tag k="addr:city" v="Cambridge"/>
    <tag k="addr:housenumber" v="20"/>
    <tag k="addr:postcode" v="CB3 9NF"/>
    <tag k="addr:street" v="High Street"/>
    <tag k="building" v="house"/>
    <tag k="roof:shape" v="gabled"/>
  </way>
  <way id="200837878" version="4" timestamp="2016-09-24T19:11:12Z" changeset="42410497" uid="16089" user="Ben Harris">
    <nd ref="2108011120"/>
    <nd ref="2108011059"/>
    <nd ref="2108011192"/>
    <nd ref="2108011062"/>
    <nd ref="2108011120"/>
    <tag k="building" v="yes"/>
    <tag k="frequency" v="50"/>
    <tag k="location" v="indoor"/>
    <tag k="name" v="School House"/>
    <tag k="operator" v="UK Power Networks"/>
    <tag k="power" v="substation"/>
    <tag k="ref" v="L4332 5564M"/>
    <tag k="source" v="survey"/>
    <tag k="substation" v="minor_distribution"/>
    <tag k="voltage" v="11000"/>
  </way>
  <way id="200837887" version="2" timestamp="2019-02-16T10:48:44Z" changeset="67250645" uid="5173844" user="ndrw6">
    <nd ref="1896583935"/>
    <nd ref="1896583980"/>
    <nd ref="1896583819"/>
    <nd ref="1896584340"/>
    <nd ref="1896584292"/>
    <nd ref="1896583935"/>
    <tag k="addr:city" v="Cambridge"/>
    <tag k="addr:housenumber" v="63"/>
    <tag k="addr:postcode" v="CB3 9NF"/>
    <tag k="addr:street" v="High Street"/>
    <tag k="building" v="yes"/>
    <tag k="name" v="Byron's Lodge"/>
    <tag k="tourism" v="guest_house"/>
  </way>
  <way id="200837896" version="4" timestamp="2019-02-16T10:48:45Z" changeset="67250645" uid="5173844" user="ndrw6">
    <nd ref="2108011038"/>
    <nd ref="1896583908"/>
    <nd ref="1896583897"/>
    <nd ref="1896584009"/>
    <nd ref="1896584099"/>
    <nd ref="1896584103"/>
    <nd ref="1896584159"/>
    <nd ref="2108011056"/>
    <nd ref="2108011038"/>
    <tag k="addr:city" v="Cambridge"/>
    <tag k="addr:housenumber" v="71"/>
    <tag k="addr:postcode" v="CB3 9NF"/>
    <tag k="addr:street" v="High Street"/>
    <tag k="building" v="house"/>
    <tag k="building:levels" v="2"/>
    <tag k="roof:levels" v="0"/>
  </way>
  <way id="201115566" version="2" timestamp="2019-02-16T10:48:45Z" changeset="67250645" uid="5173844" user="ndrw6">
    <nd ref="2110715658"/>
    <nd ref="2110715604"/>
    <nd ref="2110715692"/>
    <nd ref="1896584154"/>
    <nd ref="2110715572"/>
    <nd ref="2110715600"/>
    <nd ref="2110715658"/>
    <tag k="addr:city" v="Cambridge"/>
    <tag k="addr:housenumber" v="43"/>
    <tag k="addr:postcode" v="CB3 9NQ"/>
    <tag k="addr:street" v="Broadway"/>
    <tag k="building" v="yes"/>
    <tag k="note" v="Former Baptist Chapel, built 1876"/>
  </way>
  <way id="201115592" version="3" timestamp="2019-02-16T10:48:45Z" changeset="67250645" uid="5173844" user="ndrw6">
    <nd ref="2110715657"/>
    <nd ref="1896584010"/>
    <nd ref="2110715691"/>
    <nd ref="2110715580"/>
    <nd ref="2110715657"/>
    <tag k="addr:city" v="Cambridge"/>
    <tag k="addr:housenumber" v="53"/>
    <tag k="addr:postcode" v="CB3 9NQ"/>
    <tag k="addr:street" v="Broadway"/>
    <tag k="building" v="house"/>
  </way>
  <way id="201115609" version="3" timestamp="2019-02-16T10:48:45Z" changeset="67250645" uid="5173844" user="ndrw6">
    <nd ref="1896584010"/>
    <nd ref="2110715659"/>
    <nd ref="1896583920"/>
    <nd ref="1896583820"/>
    <nd ref="1896583813"/>
    <nd ref="1896584417"/>
    <nd ref="2110715691"/>
    <nd ref="1896584010"/>
    <tag k="addr:city" v="Cambridge"/>
    <tag k="addr:housenumber" v="45"/>
    <tag k="addr:postcode" v="CB3 9NQ"/>
    <tag k="addr:street" v="Broadway"/>
    <tag k="building" v="house"/>
  </way>
  <way id="201115620" version="4" timestamp="2023-05-07T15:22:48Z" changeset="135816232" uid="1795336" user="homer__simpsons">
    <nd ref="2110715722"/>
    <nd ref="2110715657"/>
    <nd ref="2110715580"/>
    <nd ref="2110715707"/>
    <nd ref="1896584066"/>
    <nd ref="1896584232"/>
    <nd ref="2110715722"/>
    <tag k="addr:city" v="Cambridge"/>
    <tag k="addr:housenumber" v="55"/>
    <tag k="addr:postcode" v="CB3 9NQ"/>
    <tag k="addr:street" v="Broadway"/>
    <tag k="building" v="house"/>
  </way>
  <way id="201117778" version="3" timestamp="2016-07-11T16:22:58Z" changeset="40657142" uid="242345" user="confusedbuffalo">
    <nd ref="2110733137"/>
    <nd ref="2110733120"/>
    <nd ref="2110733125"/>
    <nd ref="2110733126"/>
    <nd ref="2110733132"/>
    <nd ref="2110733122"/>
    <nd ref="2110733135"/>
    <nd ref="2110733121"/>
    <nd ref="2110733137"/>
    <tag k="addr:housenumber" v="18"/>
    <tag k="addr:street" v="Broadway"/>
    <tag k="building" v="house"/>
  </way>
  <way id="201277397" version="6" timestamp="2023-12-26T17:34:15Z" changeset="145543726" uid="12661527" user="Kartenkarsten714">
    <nd ref="2112340043"/>
    <nd ref="2112340040"/>
    <nd ref="2108011098"/>
    <nd ref="2108011169"/>
    <nd ref="2112340047"/>
    <nd ref="2112340043"/>
    <tag k="addr:city" v="Cambridge"/>
    <tag k="addr:housenumber" v="34"/>
    <tag k="addr:postcode" v="CB3 9NF"/>
    <tag k="addr:street" v="High Street"/>
    <tag k="building" v="house"/>
    <tag k="building:levels" v="1"/>
    <tag k="roof:levels" v="1"/>
    <tag k="roof:shape" v="gabled"/>
  </way>
  <way id="201277398" version="6" timestamp="2023-12-26T17:34:15Z" changeset="145543726" uid="12661527" user="Kartenkarsten714">
    <nd ref="2108011226"/>
    <nd ref="2108011169"/>
    <nd ref="2108011098"/>
    <nd ref="2108011033"/>
    <nd ref="2108011226"/>
    <tag k="addr:city" v="Cambridge"/>
    <tag k="addr:housenumber" v="36"/>
    <tag k="addr:postcode" v="CB3 9NF"/>
    <tag k="addr:street" v="High Street"/>
    <tag k="building" v="house"/>
    <tag k="building:levels" v="1"/>
    <tag k="roof:levels" v="1"/>
    <tag k="roof:shape" v="gabled"/>
  </way>
  <way id="201277399" version="6" timestamp="2023-12-26T17:34:15Z" changeset="145543726" uid="12661527" user="Kartenkarsten714">
    <nd ref="2112340045"/>
    <nd ref="2112340036"/>
    <nd ref="2108011033"/>
    <nd ref="2108011226"/>
    <nd ref="2112340041"/>
    <nd ref="2112340046"/>
    <nd ref="2112340045"/>
    <tag k="addr:city" v="Cambridge"/>
    <tag k="addr:housenumber" v="38"/>
    <tag k="addr:postcode" v="CB3 9NF"/>
    <tag k="addr:street" v="High Street"/>
    <tag k="building" v="house"/>
    <tag k="building:levels" v="1"/>
    <tag k="roof:levels" v="1"/>
    <tag k="roof:shape" v="gabled"/>
  </way>
  <way id="201402337" version="4" timestamp="2019-02-16T10:48:46Z" changeset="67250645" uid="5173844" user="ndrw6">
    <nd ref="2113741069"/>
    <nd ref="2113741089"/>
    <nd ref="2113741076"/>
    <nd ref="2113741092"/>
    <nd ref="1896583892"/>
    <nd ref="1896584409"/>
    <nd ref="2113741069"/>
    <tag k="addr:city" v="Cambridge"/>
    <tag k="addr:housenumber" v="11"/>
    <tag k="addr:postcode" v="CB3 9NH"/>
    <tag k="addr:street" v="Coton Road"/>
    <tag k="building" v="house"/>
  </way>
  <way id="201402341" version="4" timestamp="2019-02-16T10:48:46Z" changeset="67250645" uid="5173844" user="ndrw6">
    <nd ref="2113741083"/>
    <nd ref="2113741069"/>
    <nd ref="2113741089"/>
    <nd ref="2113741097"/>
    <nd ref="2113741087"/>
    <nd ref="2113741075"/>
    <nd ref="2113741083"/>
    <tag k="addr:city" v="Cambridge"/>
    <tag k="addr:housenumber" v="9"/>
    <tag k="addr:postcode" v="CB3 9NH"/>
    <tag k="addr:street" v="Coton Road"/>
    <tag k="building" v="house"/>
  </way>
  <way id="201402344" version="4" timestamp="2019-02-16T10:48:46Z" changeset="67250645" uid="5173844" user="ndrw6">
    <nd ref="2113741084"/>
    <nd ref="2113741091"/>
    <nd ref="2113741082"/>
    <nd ref="2113741068"/>
    <nd ref="2113741084"/>
    <tag k="addr:city" v="Cambridge"/>
    <tag k="addr:housenumber" v="3"/>
    <tag k="addr:postcode" v="CB3 9NH"/>
    <tag k="addr:street" v="Coton Road"/>
    <tag k="building" v="house"/>
  </way>
  <way id="201402349" version="4" timestamp="2019-02-16T10:48:46Z" changeset="67250645" uid="5173844" user="ndrw6">
    <nd ref="2113741091"/>
    <nd ref="2113741085"/>
    <nd ref="1896584117"/>
    <nd ref="2113741082"/>
    <nd ref="2113741091"/>
    <tag k="addr:city" v="Cambridge"/>
    <tag k="addr:housenumber" v="5"/>
    <tag k="addr:postcode" v="CB3 9NH"/>
    <tag k="addr:street" v="Coton Road"/>
    <tag k="building" v="house"/>
  </way>
  <way id="201415362" version="4" timestamp="2019-02-16T10:48:46Z" changeset="67250645" uid="5173844" user="ndrw6">
    <nd ref="2113892831"/>
    <nd ref="1897989280"/>
    <nd ref="1897989425"/>
    <nd ref="2113892811"/>
    <nd ref="2113892831"/>
    <tag k="addr:city" v="Cambridge"/>
    <tag k="addr:housenumber" v="5"/>
    <tag k="addr:postcode" v="CB3 9NJ"/>
    <tag k="addr:street" v="Burnt Close"/>
    <tag k="building" v="house"/>
  </way>
  <way id="201415366" version="4" timestamp="2019-02-16T10:48:46Z" changeset="67250645" uid="5173844" user="ndrw6">
    <nd ref="2113892817"/>
    <nd ref="1897989504"/>
    <nd ref="1897989234"/>
    <nd ref="2113892828"/>
    <nd ref="2113892817"/>
    <tag k="addr:city" v="Cambridge"/>
    <tag k="addr:housenumber" v="3"/>
    <tag k="addr:postcode" v="CB3 9NJ"/>
    <tag k="addr:street" v="Burnt Close"/>
    <tag k="building" v="house"/>
  </way>
  <way id="201415381" version="3" timestamp="2019-02-16T10:48:46Z" changeset="67250645" uid="5173844" user="ndrw6">
    <nd ref="2113892835"/>
    <nd ref="1896583878"/>
    <nd ref="1896584437"/>
    <nd ref="2113892879"/>
    <nd ref="2113892835"/>
    <tag k="addr:city" v="Cambridge"/>
    <tag k="addr:housenumber" v="25"/>
    <tag k="addr:postcode" v="CB3 9NH"/>
    <tag k="addr:street" v="Coton Road"/>
    <tag k="building" v="house"/>
  </way>
  <way id="201415384" version="3" timestamp="2019-02-16T10:48:46Z" changeset="67250645" uid="5173844" user="ndrw6">
    <nd ref="2113892877"/>
    <nd ref="1896583944"/>
    <nd ref="1896583937"/>
    <nd ref="2113892842"/>
    <nd ref="2113892877"/>
    <tag k="addr:city" v="Cambridge"/>
    <tag k="addr:housenumber" v="21"/>
    <tag k="addr:postcode" v="CB3 9NH"/>
    <tag k="addr:street" v="Coton Road"/>
    <tag k="building" v="house"/>
  </way>
  <way id="201579354" version="3" timestamp="2019-02-16T10:48:46Z" changeset="67250645" uid="5173844" user="ndrw6">
    <nd ref="2116020628"/>
    <nd ref="1897989439"/>
    <nd ref="1897989372"/>
    <nd ref="1897989278"/>
    <nd ref="1897989532"/>
    <nd ref="1897989428"/>
    <nd ref="1897989266"/>
    <nd ref="2116020606"/>
    <nd ref="2116020628"/>
    <tag k="addr:city" v="Cambridge"/>
    <tag k="addr:housenumber" v="11"/>
    <tag k="addr:postcode" v="CB3 9NJ"/>
    <tag k="addr:street" v="Burnt Close"/>
    <tag k="building" v="house"/>
  </way>
  <way id="201579360" version="3" timestamp="2019-02-16T10:48:47Z" changeset="67250645" uid="5173844" user="ndrw6">
    <nd ref="2116020636"/>
    <nd ref="2116020582"/>
    <nd ref="2116020580"/>
    <nd ref="2116020653"/>
    <nd ref="1897989254"/>
    <nd ref="2116020587"/>
    <nd ref="2116020636"/>
    <tag k="addr:city" v="Cambridge"/>
    <tag k="addr:housenumber" v="12a"/>
    <tag k="addr:postcode" v="CB3 9NJ"/>
    <tag k="addr:street" v="Burnt Close"/>
    <tag k="building" v="house"/>
  </way>
  <way id="201579365" version="3" timestamp="2019-02-16T10:48:47Z" changeset="67250645" uid="5173844" user="ndrw6">
    <nd ref="2116020589"/>
    <nd ref="2116020613"/>
    <nd ref="1897989317"/>
    <nd ref="1897989282"/>
    <nd ref="2116020589"/>
    <tag k="addr:city" v="Cambridge"/>
    <tag k="addr:housenumber" v="13"/>
    <tag k="addr:postcode" v="CB3 9NJ"/>
    <tag k="addr:street" v="Burnt Close"/>
    <tag k="building" v="house"/>
  </way>
  <way id="201593310" version="3" timestamp="2019-02-16T10:48:47Z" changeset="67250645" uid="5173844" user="ndrw6">
    <nd ref="2116215782"/>
    <nd ref="2116215719"/>
    <nd ref="2116215795"/>
    <nd ref="1898001292"/>
    <nd ref="1898001280"/>
    <nd ref="2116215797"/>
    <nd ref="2116215782"/>
    <tag k="addr:city" v="Cambridge"/>
    <tag k="addr:housenumber" v="37"/>
    <tag k="addr:postcode" v="CB3 9NT"/>
    <tag k="addr:street" v="Coton Road"/>
    <tag k="building" v="house"/>
  </way>
  <way id="201593315" version="3" timestamp="2019-02-16T10:48:47Z" changeset="67250645" uid="5173844" user="ndrw6">
    <nd ref="2116215695"/>
    <nd ref="2116215828"/>
    <nd ref="1898001308"/>
    <nd ref="1898001322"/>
    <nd ref="2116215695"/>
    <tag k="addr:city" v="Cambridge"/>
    <tag k="addr:housenumber" v="69"/>
    <tag k="addr:postcode" v="CB3 9NT"/>
    <tag k="addr:street" v="Coton Road"/>
    <tag k="building" v="house"/>
  </way>
  <way id="201593316" version="3" timestamp="2019-02-16T10:48:47Z" changeset="67250645" uid="5173844" user="ndrw6">
    <nd ref="2116215822"/>
    <nd ref="1898001171"/>
    <nd ref="1898001245"/>
    <nd ref="1898001316"/>
    <nd ref="1898001218"/>
    <nd ref="2116215746"/>
    <nd ref="2116215822"/>
    <tag k="addr:city" v="Cambridge"/>
    <tag k="addr:housenumber" v="51"/>
    <tag k="addr:postcode" v="CB3 9NT"/>
    <tag k="addr:street" v="Coton Road"/>
    <tag k="building" v="house"/>
  </way>
  <way id="201593318" version="3" timestamp="2016-07-11T16:24:20Z" changeset="40657142" uid="242345" user="confusedbuffalo">
    <nd ref="2116215813"/>
    <nd ref="1897989573"/>
    <nd ref="1897989553"/>
    <nd ref="2116215780"/>
    <nd ref="2116215813"/>
    <tag k="addr:housenumber" v="4"/>
    <tag k="addr:street" v="Stulpfield Road"/>
    <tag k="building" v="house"/>
  </way>
  <way id="201593322" version="3" timestamp="2019-02-16T10:48:47Z" changeset="67250645" uid="5173844" user="ndrw6">
    <nd ref="1898001192"/>
    <nd ref="1898001178"/>
    <nd ref="1898001229"/>
    <nd ref="1898001159"/>
    <nd ref="2116215756"/>
    <nd ref="1898001192"/>
    <tag k="addr:city" v="Cambridge"/>
    <tag k="addr:housenumber" v="79"/>
    <tag k="addr:postcode" v="CB3 9NT"/>
    <tag k="addr:street" v="Coton Road"/>
    <tag k="building" v="house"/>
  </way>
  <way id="201593325" version="3" timestamp="2016-07-11T16:23:13Z" changeset="40657142" uid="242345" user="confusedbuffalo">
    <nd ref="2116215780"/>
    <nd ref="1897989398"/>
    <nd ref="1897989586"/>
    <nd ref="2116215813"/>
    <nd ref="2116215780"/>
    <tag k="addr:housenumber" v="2"/>
    <tag k="addr:street" v="Stulpfield Road"/>
    <tag k="building" v="house"/>
  </way>
  <way id="201593327" version="3" timestamp="2019-02-16T10:48:47Z" changeset="67250645" uid="5173844" user="ndrw6">
    <nd ref="2116215726"/>
    <nd ref="1898001177"/>
    <nd ref="1898001142"/>
    <nd ref="1898001297"/>
    <nd ref="1898001215"/>
    <nd ref="2116215707"/>
    <nd ref="2116215726"/>
    <tag k="addr:city" v="Cambridge"/>
    <tag k="addr:housenumber" v="83"/>
    <tag k="addr:postcode" v="CB3 9NT"/>
    <tag k="addr:street" v="Coton Road"/>
    <tag k="building" v="house"/>
  </way>
  <way id="201593330" version="3" timestamp="2019-02-16T10:48:47Z" changeset="67250645" uid="5173844" user="ndrw6">
    <nd ref="2116215703"/>
    <nd ref="2116215680"/>
    <nd ref="1898001140"/>
    <nd ref="1898001201"/>
    <nd ref="2116215703"/>
    <tag k="addr:city" v="Cambridge"/>
    <tag k="addr:housenumber" v="75"/>
    <tag k="addr:postcode" v="CB3 9NT"/>
    <tag k="addr:street" v="Coton Road"/>
    <tag k="building" v="house"/>
  </way>
  <way id="201593332" version="3" timestamp="2019-02-16T10:48:47Z" changeset="67250645" uid="5173844" user="ndrw6">
    <nd ref="2116215688"/>
    <nd ref="2116215738"/>
    <nd ref="1898001203"/>
    <nd ref="1898001150"/>
    <nd ref="2116215688"/>
    <tag k="addr:city" v="Cambridge"/>
    <tag k="addr:housenumber" v="73"/>
    <tag k="addr:postcode" v="CB3 9NT"/>
    <tag k="addr:street" v="Coton Road"/>
    <tag k="building" v="house"/>
  </way>
  <way id="201593338" version="3" timestamp="2019-02-16T10:48:48Z" changeset="67250645" uid="5173844" user="ndrw6">
    <nd ref="2116215746"/>
    <nd ref="1898001284"/>
    <nd ref="1898001269"/>
    <nd ref="1898001326"/>
    <nd ref="2116215778"/>
    <nd ref="2116215822"/>
    <nd ref="2116215746"/>
    <tag k="addr:city" v="Cambridge"/>
    <tag k="addr:housenumber" v="53"/>
    <tag k="addr:postcode" v="CB3 9NT"/>
    <tag k="addr:street" v="Coton Road"/>
    <tag k="building" v="house"/>
  </way>
  <way id="201629906" version="3" timestamp="2019-02-16T10:48:48Z" changeset="67250645" uid="5173844" user="ndrw6">
    <nd ref="1897989556"/>
    <nd ref="1897989481"/>
    <nd ref="1897989467"/>
    <nd ref="1897989308"/>
    <nd ref="1897989320"/>
    <nd ref="1897989556"/>
    <tag k="addr:city" v="Cambridge"/>
    <tag k="addr:housenumber" v="21"/>
    <tag k="addr:postcode" v="CB3 9NS"/>
    <tag k="addr:street" v="Nutters Close"/>
    <tag k="building" v="house"/>
  </way>
  <way id="201629907" version="3" timestamp="2019-02-16T10:48:48Z" changeset="67250645" uid="5173844" user="ndrw6">
    <nd ref="2116562661"/>
    <nd ref="1897989564"/>
    <nd ref="1897989556"/>
    <nd ref="1897989320"/>
    <nd ref="2116562722"/>
    <nd ref="2116562661"/>
    <tag k="addr:city" v="Cambridge"/>
    <tag k="addr:housenumber" v="23"/>
    <tag k="addr:postcode" v="CB3 9NS"/>
    <tag k="addr:street" v="Nutters Close"/>
    <tag k="building" v="house"/>
  </way>
  <way id="201629909" version="4" timestamp="2019-02-16T10:48:48Z" changeset="67250645" uid="5173844" user="ndrw6">
    <nd ref="2116562741"/>
    <nd ref="1897989580"/>
    <nd ref="1897989589"/>
    <nd ref="1897989347"/>
    <nd ref="2116562737"/>
    <nd ref="2116562724"/>
    <nd ref="2116562741"/>
    <tag k="addr:city" v="Cambridge"/>
    <tag k="addr:housenumber" v="14"/>
    <tag k="addr:postcode" v="CB3 9NR"/>
    <tag k="addr:street" v="Crome Ditch Close"/>
    <tag k="building" v="house"/>
  </way>
  <way id="201629916" version="1" timestamp="2013-01-17T18:16:20Z" changeset="14686979" uid="281267" user="smb1001">
    <nd ref="23718926"/>
    <nd ref="1248238662"/>
    <tag k="highway" v="residential"/>
  </way>
  <way id="201629920" version="3" timestamp="2019-02-16T10:48:48Z" changeset="67250645" uid="5173844" user="ndrw6">
    <nd ref="1897989249"/>
    <nd ref="1897989245"/>
    <nd ref="1897989565"/>
    <nd ref="1897989388"/>
    <nd ref="1897989469"/>
    <nd ref="1897989465"/>
    <nd ref="1897989275"/>
    <nd ref="2116562531"/>
    <nd ref="1897989249"/>
    <tag k="addr:city" v="Cambridge"/>
    <tag k="addr:housenumber" v="1"/>
    <tag k="addr:postcode" v="CB3 9NN"/>
    <tag k="addr:street" v="Widnall Close"/>
    <tag k="building" v="house"/>
  </way>
  <way id="201629921" version="3" timestamp="2019-02-16T10:48:48Z" changeset="67250645" uid="5173844" user="ndrw6">
    <nd ref="2116562537"/>
    <nd ref="1897989318"/>
    <nd ref="1897989544"/>
    <nd ref="2116562572"/>
    <nd ref="2116562537"/>
    <tag k="addr:city" v="Cambridge"/>
    <tag k="addr:housenumber" v="17"/>
    <tag k="addr:postcode" v="CB3 9NS"/>
    <tag k="addr:street" v="Nutters Close"/>
    <tag k="building" v="house"/>
  </way>
  <way id="201629923" version="4" timestamp="2019-02-16T10:48:48Z" changeset="67250645" uid="5173844" user="ndrw6">
    <nd ref="2116562756"/>
    <nd ref="2116562682"/>
    <nd ref="1897989323"/>
    <nd ref="1897989509"/>
    <nd ref="1897989261"/>
    <nd ref="1897989417"/>
    <nd ref="2116562756"/>
    <tag k="addr:city" v="Cambridge"/>
    <tag k="addr:housenumber" v="12"/>
    <tag k="addr:postcode" v="CB3 9NR"/>
    <tag k="addr:street" v="Crome Ditch Close"/>
    <tag k="building" v="house"/>
  </way>
  <way id="201629934" version="3" timestamp="2019-02-16T10:48:48Z" changeset="67250645" uid="5173844" user="ndrw6">
    <nd ref="2116562670"/>
    <nd ref="1897989367"/>
    <nd ref="2116562684"/>
    <nd ref="2116562577"/>
    <nd ref="2116562670"/>
    <tag k="addr:city" v="Cambridge"/>
    <tag k="addr:housenumber" v="13"/>
    <tag k="addr:postcode" v="CB3 9NS"/>
    <tag k="addr:street" v="Nutters Close"/>
    <tag k="building" v="house"/>
  </way>
  <way id="201629937" version="4" timestamp="2019-02-16T10:48:49Z" changeset="67250645" uid="5173844" user="ndrw6">
    <nd ref="2116562685"/>
    <nd ref="1897989241"/>
    <nd ref="1897989590"/>
    <nd ref="1897989446"/>
    <nd ref="2116562557"/>
    <nd ref="2116562735"/>
    <nd ref="2116562685"/>
    <tag k="addr:city" v="Cambridge"/>
    <tag k="addr:housenumber" v="6"/>
    <tag k="addr:postcode" v="CB3 9NR"/>
    <tag k="addr:street" v="Crome Ditch Close"/>
    <tag k="building" v="house"/>
  </way>
  <way id="201629939" version="4" timestamp="2019-02-16T10:48:49Z" changeset="67250645" uid="5173844" user="ndrw6">
    <nd ref="2116562493"/>
    <nd ref="1897989617"/>
    <nd ref="1897989358"/>
    <nd ref="1897989433"/>
    <nd ref="1897989408"/>
    <nd ref="2116562692"/>
    <nd ref="2116562493"/>
    <tag k="addr:city" v="Cambridge"/>
    <tag k="addr:housenumber" v="3"/>
    <tag k="addr:postcode" v="CB3 9NR"/>
    <tag k="addr:street" v="Crome Ditch Close"/>
    <tag k="building" v="house"/>
  </way>
  <way id="201629943" version="3" timestamp="2019-02-16T10:48:49Z" changeset="67250645" uid="5173844" user="ndrw6">
    <nd ref="2116562661"/>
    <nd ref="2116562722"/>
    <nd ref="1897989587"/>
    <nd ref="1897989314"/>
    <nd ref="2116562661"/>
    <tag k="addr:city" v="Cambridge"/>
    <tag k="addr:housenumber" v="25"/>
    <tag k="addr:postcode" v="CB3 9NS"/>
    <tag k="addr:street" v="Nutters Close"/>
    <tag k="building" v="house"/>
  </way>
  <way id="201629945" version="4" timestamp="2019-02-16T10:48:49Z" changeset="67250645" uid="5173844" user="ndrw6">
    <nd ref="2116562601"/>
    <nd ref="2116562726"/>
    <nd ref="2116562732"/>
    <nd ref="2116562754"/>
    <nd ref="2116562569"/>
    <nd ref="2116562738"/>
    <nd ref="2116562730"/>
    <nd ref="2116562755"/>
    <nd ref="2116562601"/>
    <tag k="addr:city" v="Cambridge"/>
    <tag k="addr:housenumber" v="112"/>
    <tag k="addr:postcode" v="CB3 9NX"/>
    <tag k="addr:street" v="Coton Road"/>
    <tag k="building" v="house"/>
  </way>
  <way id="201629949" version="4" timestamp="2019-02-16T10:48:49Z" changeset="67250645" uid="5173844" user="ndrw6">
    <nd ref="2116562709"/>
    <nd ref="1897989231"/>
    <nd ref="1897989288"/>
    <nd ref="1897989411"/>
    <nd ref="1897989271"/>
    <nd ref="2116562681"/>
    <nd ref="2116562709"/>
    <tag k="addr:city" v="Cambridge"/>
    <tag k="addr:housenumber" v="4"/>
    <tag k="addr:postcode" v="CB3 9NR"/>
    <tag k="addr:street" v="Crome Ditch Close"/>
    <tag k="building" v="house"/>
  </way>
  <way id="201629950" version="4" timestamp="2019-02-16T10:48:49Z" changeset="67250645" uid="5173844" user="ndrw6">
    <nd ref="2116562756"/>
    <nd ref="1897989377"/>
    <nd ref="1897989348"/>
    <nd ref="1897989239"/>
    <nd ref="2116562698"/>
    <nd ref="2116562682"/>
    <nd ref="2116562756"/>
    <tag k="addr:city" v="Cambridge"/>
    <tag k="addr:housenumber" v="10"/>
    <tag k="addr:postcode" v="CB3 9NR"/>
    <tag k="addr:street" v="Crome Ditch Close"/>
    <tag k="building" v="house"/>
  </way>
  <way id="201629951" version="3" timestamp="2019-02-16T10:48:49Z" changeset="67250645" uid="5173844" user="ndrw6">
    <nd ref="2116562547"/>
    <nd ref="1898001216"/>
    <nd ref="1898001217"/>
    <nd ref="1898001157"/>
    <nd ref="1898001139"/>
    <nd ref="2116562612"/>
    <nd ref="2116562547"/>
    <tag k="addr:city" v="Cambridge"/>
    <tag k="addr:housenumber" v="6"/>
    <tag k="addr:postcode" v="CB3 9NY"/>
    <tag k="addr:street" v="Bridle Way"/>
    <tag k="building" v="house"/>
  </way>
  <way id="201629952" version="3" timestamp="2019-02-16T10:48:49Z" changeset="67250645" uid="5173844" user="ndrw6">
    <nd ref="1898001193"/>
    <nd ref="1898001302"/>
    <nd ref="1898001299"/>
    <nd ref="1898001251"/>
    <nd ref="1898001238"/>
    <nd ref="1898001249"/>
    <nd ref="1898001193"/>
    <tag k="addr:city" v="Cambridge"/>
    <tag k="addr:housenumber" v="10"/>
    <tag k="addr:postcode" v="CB3 9NY"/>
    <tag k="addr:street" v="Bridle Way"/>
    <tag k="building" v="house"/>
  </way>
  <way id="201629955" version="3" timestamp="2019-02-16T10:48:49Z" changeset="67250645" uid="5173844" user="ndrw6">
    <nd ref="1898001249"/>
    <nd ref="1898001286"/>
    <nd ref="1898001312"/>
    <nd ref="1898001193"/>
    <nd ref="1898001249"/>
    <tag k="addr:city" v="Cambridge"/>
    <tag k="addr:housenumber" v="12"/>
    <tag k="addr:postcode" v="CB3 9NY"/>
    <tag k="addr:street" v="Bridle Way"/>
    <tag k="building" v="house"/>
  </way>
  <way id="201629956" version="3" timestamp="2019-02-16T10:48:50Z" changeset="67250645" uid="5173844" user="ndrw6">
    <nd ref="2116562572"/>
    <nd ref="1897989263"/>
    <nd ref="1897989343"/>
    <nd ref="2116562537"/>
    <nd ref="2116562572"/>
    <tag k="addr:city" v="Cambridge"/>
    <tag k="addr:housenumber" v="19"/>
    <tag k="addr:postcode" v="CB3 9NS"/>
    <tag k="addr:street" v="Nutters Close"/>
    <tag k="building" v="house"/>
  </way>
  <way id="201629961" version="4" timestamp="2019-02-16T10:48:50Z" changeset="67250645" uid="5173844" user="ndrw6">
    <nd ref="2116562509"/>
    <nd ref="1897989277"/>
    <nd ref="1897989402"/>
    <nd ref="1897989391"/>
    <nd ref="1897989321"/>
    <nd ref="2116562706"/>
    <nd ref="2116562509"/>
    <tag k="addr:city" v="Cambridge"/>
    <tag k="addr:housenumber" v="7"/>
    <tag k="addr:postcode" v="CB3 9NR"/>
    <tag k="addr:street" v="Crome Ditch Close"/>
    <tag k="building" v="house"/>
  </way>
  <way id="201629964" version="4" timestamp="2019-02-16T10:48:50Z" changeset="67250645" uid="5173844" user="ndrw6">
    <nd ref="2116562741"/>
    <nd ref="2116562724"/>
    <nd ref="1897989223"/>
    <nd ref="1897989538"/>
    <nd ref="1897989450"/>
    <nd ref="1897989237"/>
    <nd ref="2116562741"/>
    <tag k="addr:city" v="Cambridge"/>
    <tag k="addr:housenumber" v="16"/>
    <tag k="addr:postcode" v="CB3 9NR"/>
    <tag k="addr:street" v="Crome Ditch Close"/>
    <tag k="building" v="house"/>
  </way>
  <way id="201629966" version="4" timestamp="2019-02-16T10:48:50Z" changeset="67250645" uid="5173844" user="ndrw6">
    <nd ref="2116562681"/>
    <nd ref="1897989576"/>
    <nd ref="1897989619"/>
    <nd ref="1897989250"/>
    <nd ref="1897989574"/>
    <nd ref="2116562709"/>
    <nd ref="2116562681"/>
    <tag k="addr:city" v="Cambridge"/>
    <tag k="addr:housenumber" v="2"/>
    <tag k="addr:postcode" v="CB3 9NR"/>
    <tag k="addr:street" v="Crome Ditch Close"/>
    <tag k="building" v="house"/>
  </way>
  <way id="201629969" version="3" timestamp="2019-02-16T10:48:50Z" changeset="67250645" uid="5173844" user="ndrw6">
    <nd ref="2116562577"/>
    <nd ref="1897989563"/>
    <nd ref="1897989448"/>
    <nd ref="2116562670"/>
    <nd ref="2116562577"/>
    <tag k="addr:city" v="Cambridge"/>
    <tag k="addr:housenumber" v="15"/>
    <tag k="addr:postcode" v="CB3 9NS"/>
    <tag k="addr:street" v="Nutters Close"/>
    <tag k="building" v="house"/>
  </way>
  <way id="201629971" version="2" timestamp="2016-07-11T16:25:27Z" changeset="40657142" uid="242345" user="confusedbuffalo">
    <nd ref="2116562585"/>
    <nd ref="2116562499"/>
    <nd ref="1897989232"/>
    <nd ref="1897989468"/>
    <nd ref="2116562585"/>
    <tag k="addr:housenumber" v="8"/>
    <tag k="addr:street" v="Stulpfield Road"/>
    <tag k="building" v="house"/>
  </way>
  <way id="201629973" version="4" timestamp="2019-02-16T10:48:50Z" changeset="67250645" uid="5173844" user="ndrw6">
    <nd ref="2116562597"/>
    <nd ref="2116562744"/>
    <nd ref="2116562691"/>
    <nd ref="2116562686"/>
    <nd ref="2116562597"/>
    <tag k="addr:city" v="Cambridge"/>
    <tag k="addr:housenumber" v="114"/>
    <tag k="addr:postcode" v="CB3 9NX"/>
    <tag k="addr:street" v="Coton Road"/>
    <tag k="building" v="house"/>
  </way>
  <way id="201629978" version="3" timestamp="2019-02-16T10:48:50Z" changeset="67250645" uid="5173844" user="ndrw6">
    <nd ref="2116562490"/>
    <nd ref="2116562564"/>
    <nd ref="2116562463"/>
    <nd ref="2116562707"/>
    <nd ref="2116562490"/>
    <tag k="addr:city" v="Cambridge"/>
    <tag k="addr:housenumber" v="27"/>
    <tag k="addr:postcode" v="CB3 9NS"/>
    <tag k="addr:street" v="Nutters Close"/>
    <tag k="building" v="house"/>
  </way>
  <way id="201629979" version="4" timestamp="2019-02-16T10:48:50Z" changeset="67250645" uid="5173844" user="ndrw6">
    <nd ref="2116562735"/>
    <nd ref="1897989373"/>
    <nd ref="1897989316"/>
    <nd ref="1897989310"/>
    <nd ref="1897989568"/>
    <nd ref="2116562685"/>
    <nd ref="2116562735"/>
    <tag k="addr:city" v="Cambridge"/>
    <tag k="addr:housenumber" v="8"/>
    <tag k="addr:postcode" v="CB3 9NR"/>
    <tag k="addr:street" v="Crome Ditch Close"/>
    <tag k="building" v="house"/>
  </way>
  <way id="204798480" version="12" timestamp="2022-10-30T20:02:11Z" changeset="128261539" uid="3560" user="Firefishy">
    <nd ref="21642657"/>
    <nd ref="1831192240"/>
    <nd ref="328586"/>
    <nd ref="260287058"/>
    <nd ref="1565545602"/>
    <nd ref="1565545608"/>
    <nd ref="328585"/>
    <nd ref="1565545643"/>
    <nd ref="1565545588"/>
    <nd ref="260286981"/>
    <nd ref="1565545596"/>
    <nd ref="260286946"/>
    <nd ref="21642836"/>
    <nd ref="328580"/>
    <nd ref="260286939"/>
    <nd ref="7024288885"/>
    <nd ref="9520340122"/>
    <nd ref="328579"/>
    <nd ref="7024288886"/>
    <nd ref="260286873"/>
    <nd ref="7024288888"/>
    <nd ref="1200506385"/>
    <nd ref="1200506399"/>
    <nd ref="328574"/>
    <nd ref="1200506389"/>
    <nd ref="260286608"/>
    <nd ref="1200506391"/>
    <nd ref="260286507"/>
    <nd ref="602592713"/>
    <nd ref="7024288892"/>
    <nd ref="602592718"/>
    <nd ref="23720209"/>
    <tag k="carriageway_ref" v="B"/>
    <tag k="description" v="Cambridge Western Bypass"/>
    <tag k="highway" v="motorway"/>
    <tag k="lanes" v="2"/>
    <tag k="lit" v="no"/>
    <tag k="maxheight" v="default"/>
    <tag k="maxspeed" v="70 mph"/>
    <tag k="national_highways:area" v="8"/>
    <tag k="oneway" v="yes"/>
    <tag k="operator" v="National Highways"/>
    <tag k="operator:wikidata" v="Q5760006"/>
    <tag k="ref" v="M11"/>
    <tag k="source:lit" v="2010-12-07"/>
    <tag k="source:ref" v="local knowledge"/>
    <tag k="surface" v="asphalt"/>
  </way>
  <way id="232926878" version="6" timestamp="2023-12-22T21:26:58Z" changeset="145420800" uid="242345" user="confusedbuffalo">
    <nd ref="1537155981"/>
    <nd ref="1565532727"/>
    <nd ref="1565532669"/>
    <nd ref="1565532666"/>
    <tag k="destination" v="Cambridge;Sandy"/>
    <tag k="destination:ref" v="A603"/>
    <tag k="highway" v="motorway_link"/>
    <tag k="lanes" v="1"/>
    <tag k="lit" v="no"/>
    <tag k="maxspeed" v="50 mph"/>
    <tag k="maxspeed:type" v="sign"/>
    <tag k="national_highways:area" v="8"/>
    <tag k="oneway" v="yes"/>
    <tag k="operator" v="National Highways"/>
    <tag k="operator:wikidata" v="Q5760006"/>
    <tag k="surface" v="asphalt"/>
  </way>
  <way id="232926879" version="7" timestamp="2023-12-22T21:24:26Z" changeset="145420800" uid="242345" user="confusedbuffalo">
    <nd ref="1565509571"/>
    <nd ref="1537155959"/>
    <nd ref="260287302"/>
    <nd ref="1565545651"/>
    <nd ref="260287303"/>
    <nd ref="1565545591"/>
    <nd ref="21642838"/>
    <nd ref="1565545648"/>
    <nd ref="260286948"/>
    <nd ref="1565545589"/>
    <nd ref="1565545562"/>
    <nd ref="260286949"/>
    <nd ref="21642836"/>
    <tag k="destination" v="London"/>
    <tag k="destination:ref" v="M11"/>
    <tag k="highway" v="motorway_link"/>
    <tag k="lanes" v="1"/>
    <tag k="lit" v="no"/>
    <tag k="maxspeed" v="70 mph"/>
    <tag k="maxspeed:type" v="GB:motorway"/>
    <tag k="national_highways:area" v="8"/>
    <tag k="oneway" v="yes"/>
    <tag k="operator" v="National Highways"/>
    <tag k="operator:wikidata" v="Q5760006"/>
    <tag k="surface" v="asphalt"/>
  </way>
  <way id="496729656" version="3" timestamp="2024-01-02T18:56:08Z" changeset="145810839" uid="742701" user="kerr smith">
    <nd ref="4884010204"/>
    <nd ref="11480592828"/>
    <nd ref="11480592829"/>
    <nd ref="23720520"/>
    <tag k="bicycle" v="yes"/>
    <tag k="designation" v="public_bridleway"/>
    <tag k="foot" v="designated"/>
    <tag k="highway" v="residential"/>
    <tag k="horse" v="designated"/>
    <tag k="name" v="Bridle Way"/>
    <tag k="note" v="The name &quot;Bridle Way&quot; appears on a residential street sign"/>
    <tag k="prow_ref" v="Grantchester BR 7"/>
    <tag k="source:name" v="local knowledge"/>
    <tag k="source:prow_ref" v="cambridgeshire_county_council_prow_gis_data"/>
  </way>
  <way id="504632127" version="5" timestamp="2022-12-27T20:18:40Z" changeset="130572366" uid="242345" user="confusedbuffalo">
    <nd ref="260287323"/>
    <nd ref="369746465"/>
    <nd ref="1565532542"/>
    <tag k="cycleway:both" v="no"/>
    <tag k="highway" v="primary"/>
    <tag k="junction" v="approach"/>
    <tag k="lanes" v="2"/>
    <tag k="lit" v="yes"/>
    <tag k="maxspeed" v="50 mph"/>
    <tag k="maxspeed:type" v="sign"/>
    <tag k="oneway" v="yes"/>
    <tag k="ref" v="A603"/>
    <tag k="sidewalk" v="no"/>
    <tag k="surface" v="asphalt"/>
  </way>
  <way id="504632128" version="6" timestamp="2024-12-29T19:50:00Z" changeset="160765840" uid="5229644" user="Nathan_A_RF">
    <nd ref="15431300"/>
    <nd ref="21642633"/>
    <nd ref="662434881"/>
    <nd ref="1565509616"/>
    <nd ref="260287472"/>
    <nd ref="1565509610"/>
    <tag k="cycleway:left" v="separate"/>
    <tag k="cycleway:right" v="no"/>
    <tag k="dual_carriageway" v="yes"/>
    <tag k="highway" v="primary"/>
    <tag k="junction" v="approach"/>
    <tag k="lanes" v="2"/>
    <tag k="lit" v="yes"/>
    <tag k="maxspeed" v="50 mph"/>
    <tag k="maxspeed:type" v="sign"/>
    <tag k="oneway" v="yes"/>
    <tag k="ref" v="A603"/>
    <tag k="sidewalk:left" v="separate"/>
    <tag k="sidewalk:right" v="no"/>
    <tag k="source:ref" v="local knowledge"/>
    <tag k="surface" v="asphalt"/>
  </way>
  <way id="515875613" version="2" timestamp="2023-12-26T17:34:11Z" changeset="145543722" uid="12661527" user="Kartenkarsten714">
    <nd ref="5037067029"/>
    <nd ref="23718326"/>
    <tag k="designation" v="public_footpath"/>
    <tag k="foot" v="designated"/>
    <tag k="highway" v="residential"/>
    <tag k="prow_ref" v="Grantchester FP 2"/>
    <tag k="sidewalk" v="no"/>
    <tag k="source:designation" v="cambridgeshire_county_council_prow_gis_data"/>
    <tag k="source:prow_ref" v="cambridgeshire_county_council_prow_gis_data"/>
  </way>
  <way id="797920384" version="4" timestamp="2023-12-26T17:34:17Z" changeset="145543719" uid="12661527" user="Kartenkarsten714">
    <nd ref="23718647"/>
    <nd ref="706541603"/>
    <nd ref="1248239254"/>
    <nd ref="23719383"/>
    <tag k="highway" v="tertiary"/>
    <tag k="lanes" v="2"/>
    <tag k="maxspeed" v="20 mph"/>
    <tag k="maxweight:hgv" v="7.5"/>
    <tag k="maxweight:hgv:conditional" v="none @ delivery"/>
    <tag k="name" v="Broadway"/>
    <tag k="sidewalk" v="both"/>
    <tag k="source:name" v="local knowledge"/>
    <tag k="surface" v="asphalt"/>
  </way>
  <way id="951685517" version="3" timestamp="2021-06-06T12:08:50Z" changeset="105914263" uid="49323" user="Ben Page">
    <nd ref="23718301"/>
    <nd ref="1248239517"/>
    <nd ref="1229868562"/>
    <nd ref="1248239452"/>
    <nd ref="5037067029"/>
    <tag k="highway" v="residential"/>
    <tag k="sidewalk" v="none"/>
    <tag k="surface" v="asphalt"/>
  </way>
  <way id="951685718" version="3" timestamp="2021-06-06T12:09:19Z" changeset="105914263" uid="49323" user="Ben Page">
    <nd ref="23718254"/>
    <nd ref="1248238835"/>
    <nd ref="23718301"/>
    <tag k="highway" v="residential"/>
    <tag k="sidewalk" v="left"/>
    <tag k="surface" v="asphalt"/>
  </way>
  <way id="956034950" version="1" timestamp="2021-06-19T12:02:10Z" changeset="106629657" uid="281267" user="smb1001">
    <nd ref="1831192323"/>
    <nd ref="8848083610"/>
    <nd ref="8848083611"/>
    <nd ref="1831192328"/>
    <nd ref="1831192323"/>
    <tag k="addr:housenumber" v="1"/>
    <tag k="addr:postcode" v="CB23 7AU"/>
    <tag k="addr:street" v="Dumpling Farm Cottage"/>
    <tag k="building" v="yes"/>
  </way>
  <way id="1047219886" version="3" timestamp="2022-12-24T08:13:50Z" changeset="130447056" uid="242345" user="confusedbuffalo">
    <nd ref="20962840"/>
    <nd ref="20962787"/>
    <nd ref="20963009"/>
    <nd ref="20962893"/>
    <nd ref="8984374228"/>
    <nd ref="6572344425"/>
    <nd ref="20963156"/>
    <nd ref="20963076"/>
    <nd ref="336449590"/>
    <nd ref="20963288"/>
    <nd ref="20963269"/>
    <nd ref="271670986"/>
    <tag k="cycleway:both" v="no"/>
    <tag k="highway" v="tertiary"/>
    <tag k="maxspeed" v="40 mph"/>
    <tag k="name" v="Grantchester Road"/>
    <tag k="source:name" v="local knowledge"/>
    <tag k="surface" v="asphalt"/>
  </way>
  <way id="1065955109" version="2" timestamp="2023-12-26T17:34:09Z" changeset="145543722" uid="12661527" user="Kartenkarsten714">
    <nd ref="2113741090"/>
    <nd ref="2113741071"/>
    <nd ref="2113741072"/>
    <tag k="abutters" v="residential"/>
    <tag k="highway" v="tertiary"/>
    <tag k="lane_markings" v="no"/>
    <tag k="maxspeed" v="20 mph"/>
    <tag k="maxweight:hgv" v="7.5"/>
    <tag k="maxweight:hgv:conditional" v="none @ delivery"/>
    <tag k="name" v="High Street"/>
    <tag k="sidewalk:right" v="yes"/>
    <tag k="source:name" v="local knowledge"/>
    <tag k="surface" v="asphalt"/>
  </way>
  <way id="1098688876" version="1" timestamp="2022-09-28T22:49:20Z" changeset="126757880" uid="6476359" user="NSiecw">
    <nd ref="10059785595"/>
    <nd ref="2112340056"/>
    <nd ref="10059785593"/>
    <nd ref="1896584328"/>
    <nd ref="10059785586"/>
    <nd ref="1896584324"/>
    <nd ref="10059785594"/>
    <nd ref="10059785595"/>
    <tag k="addr:city" v="Cambridge"/>
    <tag k="addr:housenumber" v="21"/>
    <tag k="addr:postcode" v="CB3 9NF"/>
    <tag k="addr:street" v="High Street"/>
    <tag k="addr:village" v="Barton"/>
    <tag k="building" v="house"/>
    <tag k="building:levels" v="2"/>
    <tag k="roof:levels" v="0"/>
    <tag k="roof:shape" v="hipped"/>
  </way>
  <way id="1098688877" version="1" timestamp="2022-09-28T22:49:20Z" changeset="126757880" uid="6476359" user="NSiecw">
    <nd ref="10059785597"/>
    <nd ref="10059785591"/>
    <nd ref="10059785589"/>
    <nd ref="10059785595"/>
    <nd ref="10059785594"/>
    <nd ref="10059785596"/>
    <nd ref="10059785585"/>
    <nd ref="10059785597"/>
    <tag k="addr:city" v="Cambridge"/>
    <tag k="addr:housenumber" v="23"/>
    <tag k="addr:postcode" v="CB3 9NF"/>
    <tag k="addr:street" v="High Street"/>
    <tag k="addr:village" v="Barton"/>
    <tag k="building" v="house"/>
    <tag k="building:levels" v="2"/>
    <tag k="roof:levels" v="0"/>
    <tag k="roof:shape" v="hipped"/>
  </way>
  <way id="1098688878" version="1" timestamp="2022-09-28T22:49:20Z" changeset="126757880" uid="6476359" user="NSiecw">
    <nd ref="10059785599"/>
    <nd ref="10059785588"/>
    <nd ref="10059785590"/>
    <nd ref="10059785597"/>
    <nd ref="10059785585"/>
    <nd ref="10059785596"/>
    <nd ref="10059785598"/>
    <nd ref="10059785599"/>
    <tag k="addr:city" v="Cambridge"/>
    <tag k="addr:housenumber" v="25"/>
    <tag k="addr:postcode" v="CB3 9NF"/>
    <tag k="addr:street" v="High Street"/>
    <tag k="addr:village" v="Barton"/>
    <tag k="building" v="house"/>
    <tag k="building:levels" v="2"/>
    <tag k="roof:levels" v="0"/>
    <tag k="roof:shape" v="hipped"/>
  </way>
  <way id="1124977626" version="4" timestamp="2024-12-29T19:50:00Z" changeset="160765840" uid="5229644" user="Nathan_A_RF">
    <nd ref="15431303"/>
    <nd ref="1537155975"/>
    <nd ref="23720880"/>
    <nd ref="10287524504"/>
    <tag k="cycleway:both" v="no"/>
    <tag k="dual_carriageway" v="yes"/>
    <tag k="highway" v="primary"/>
    <tag k="junction" v="approach"/>
    <tag k="lanes" v="2"/>
    <tag k="lit" v="no"/>
    <tag k="maxspeed" v="50 mph"/>
    <tag k="maxspeed:type" v="sign"/>
    <tag k="oneway" v="yes"/>
    <tag k="ref" v="A603"/>
    <tag k="sidewalk" v="no"/>
    <tag k="source:ref" v="local knowledge"/>
    <tag k="surface" v="asphalt"/>
  </way>
  <way id="1124979770" version="5" timestamp="2024-04-09T22:12:23Z" changeset="149796436" uid="5229644" user="Nathan_A_RF">
    <nd ref="15431293"/>
    <nd ref="15431558"/>
    <nd ref="778550771"/>
    <nd ref="15431296"/>
    <nd ref="1565509580"/>
    <nd ref="308715020"/>
    <nd ref="15431562"/>
    <nd ref="1565509600"/>
    <nd ref="778550794"/>
    <nd ref="308715019"/>
    <nd ref="23720898"/>
    <nd ref="6190442134"/>
    <nd ref="15431300"/>
    <tag k="cycleway:left" v="separate"/>
    <tag k="cycleway:right" v="no"/>
    <tag k="highway" v="primary"/>
    <tag k="junction" v="roundabout"/>
    <tag k="lanes" v="2"/>
    <tag k="lit" v="yes"/>
    <tag k="maxspeed" v="50 mph"/>
    <tag k="maxspeed:type" v="sign"/>
    <tag k="name" v="Haggis Farm Interchange"/>
    <tag k="oneway" v="yes"/>
    <tag k="sidewalk:left" v="separate"/>
    <tag k="sidewalk:right" v="no"/>
    <tag k="surface" v="asphalt"/>
  </way>
  <way id="1234036918" version="1" timestamp="2023-12-25T14:07:41Z" changeset="145499128" uid="493595" user="Yorvik Prestigitator">
    <nd ref="11452165453"/>
    <nd ref="11452165454"/>
    <nd ref="11452165455"/>
    <nd ref="11452165456"/>
    <nd ref="11452165458"/>
    <nd ref="11452165453"/>
    <tag k="addr:city" v="Grantchester"/>
    <tag k="addr:street" v="High Street"/>
    <tag k="amenity" v="community_centre"/>
    <tag k="building" v="public"/>
    <tag k="name" v="Grantchester Reading Room"/>
  </way>
  <way id="1236034509" version="2" timestamp="2024-02-27T13:40:56Z" changeset="147973866" uid="742701" user="kerr smith">
    <nd ref="11476021940"/>
    <nd ref="11476021939"/>
    <nd ref="11476021938"/>
    <nd ref="11476021937"/>
    <nd ref="11476021940"/>
    <tag k="addr:housename" v="Manor Farm Lodge"/>
    <tag k="addr:housenumber" v="2"/>
    <tag k="addr:postcode" v="CB3 9NB"/>
    <tag k="addr:street" v="Mill Way"/>
    <tag k="building" v="yes"/>
  </way>

</osm>
