<?xml version="1.0" encoding="UTF-8"?>
<osm version="0.6" generator="Overpass API 0.7.62.5 1bd436f1">
<note>The data included in this document is from www.openstreetmap.org. The data is made available under ODbL.</note>
<meta osm_base="2025-03-25T15:48:01Z" areas="2025-02-06T02:17:44Z"/>

  <node id="313725705" lat="52.3093790" lon="-0.1263184" version="3" timestamp="2024-05-18T13:45:08Z" changeset="151494922" uid="95856" user="john paul jones &amp; gringo">
    <tag k="addr:city" v="Huntingdon"/>
    <tag k="addr:country" v="GB"/>
    <tag k="addr:postcode" v="PE28 9HQ"/>
    <tag k="addr:street" v="Rideaway"/>
    <tag k="addr:suburb" v="Hemingford Abbots"/>
    <tag k="name" v="Hemingford Abbots Golf Complex"/>
    <tag k="sport" v="golf"/>
  </node>
  <node id="4330640647" lat="52.3107387" lon="-0.1266952" version="4" timestamp="2024-05-18T13:45:08Z" changeset="151494922" uid="95856" user="john paul jones &amp; gringo">
    <tag k="addr:city" v="Huntingdon"/>
    <tag k="addr:country" v="GB"/>
    <tag k="addr:postcode" v="PE28 9HL"/>
    <tag k="addr:street" v="Rideaway"/>
    <tag k="addr:suburb" v="Hemingford Abbots"/>
    <tag k="amenity" v="waste_transfer_station"/>
    <tag k="man_made" v="yes"/>
    <tag k="name" v="New Farm Recycling Centre"/>
  </node>
  <node id="4330921242" lat="52.3069009" lon="-0.1111280" version="2" timestamp="2024-05-18T13:45:08Z" changeset="151494922" uid="95856" user="john paul jones &amp; gringo">
    <tag k="addr:city" v="Huntingdon"/>
    <tag k="addr:country" v="GB"/>
    <tag k="addr:postcode" v="PE28 9HQ"/>
    <tag k="addr:street" v="Gore Tree Road"/>
    <tag k="addr:suburb" v="Hemingford Grey"/>
    <tag k="name" v="Gore Tree Farm"/>
    <tag k="place" v="farm"/>
  </node>
  <way id="4214967" version="8" timestamp="2023-02-07T00:43:40Z" changeset="132182879" uid="10420541" user="Thingummy">
    <nd ref="5543931358"/>
    <nd ref="24978853"/>
    <nd ref="24978850"/>
    <nd ref="24978845"/>
    <nd ref="24978841"/>
    <tag k="highway" v="residential"/>
    <tag k="name" v="Meadow Lane"/>
  </way>
  <way id="8107842" version="5" timestamp="2016-08-04T14:24:05Z" changeset="41239227" uid="4365955" user="Callum Dickerson">
    <nd ref="60751245"/>
    <nd ref="313724669"/>
    <nd ref="60751241"/>
    <nd ref="60751244"/>
    <nd ref="1141208760"/>
    <nd ref="60751243"/>
    <nd ref="313725583"/>
    <tag k="abutters" v="residential"/>
    <tag k="highway" v="tertiary"/>
    <tag k="maxspeed" v="30 mph"/>
    <tag k="name" v="New Road"/>
    <tag k="source:name" v="dictaphone"/>
  </way>
  <way id="22634463" version="13" timestamp="2023-01-26T17:51:34Z" changeset="131742193" uid="3582" user="davidearl">
    <nd ref="313725210"/>
    <nd ref="5543930705"/>
    <nd ref="2860184975"/>
    <nd ref="3784966656"/>
    <nd ref="8918316370"/>
    <nd ref="242767258"/>
    <nd ref="5543931614"/>
    <nd ref="313725281"/>
    <nd ref="313725740"/>
    <nd ref="5543930713"/>
    <nd ref="242767257"/>
    <nd ref="7816730494"/>
    <nd ref="242767256"/>
    <nd ref="7505660905"/>
    <nd ref="242767255"/>
    <nd ref="5543931359"/>
    <nd ref="1521509250"/>
    <nd ref="5543931358"/>
    <tag k="highway" v="residential"/>
    <tag k="lcn" v="CambsCC-Huntingdon-StIves"/>
    <tag k="name" v="Common Lane"/>
  </way>
  <way id="22634464" version="10" timestamp="2023-01-26T17:51:34Z" changeset="131742193" uid="3582" user="davidearl">
    <nd ref="70973401"/>
    <nd ref="313725297"/>
    <nd ref="1891069572"/>
    <nd ref="1083379926"/>
    <nd ref="2860184961"/>
    <nd ref="313724671"/>
    <nd ref="1891069574"/>
    <nd ref="70973409"/>
    <nd ref="1891069575"/>
    <nd ref="1891069576"/>
    <nd ref="70973416"/>
    <nd ref="1141208741"/>
    <nd ref="70973419"/>
    <nd ref="5543932418"/>
    <nd ref="313724654"/>
    <nd ref="9010649655"/>
    <nd ref="5543932417"/>
    <nd ref="70973420"/>
    <nd ref="5543932419"/>
    <nd ref="313725617"/>
    <nd ref="242767259"/>
    <tag k="highway" v="tertiary"/>
    <tag k="lcn" v="CambsCC-Huntingdon-StIves"/>
    <tag k="name" v="High Street"/>
  </way>
  <way id="22634465" version="6" timestamp="2023-01-26T17:51:34Z" changeset="131742193" uid="3582" user="davidearl">
    <nd ref="70973388"/>
    <nd ref="5543932329"/>
    <nd ref="313724673"/>
    <nd ref="70973398"/>
    <nd ref="3784980357"/>
    <nd ref="70973401"/>
    <tag k="highway" v="tertiary"/>
    <tag k="lcn" v="CambsCC-Huntingdon-StIves"/>
    <tag k="name" v="Chapmans"/>
  </way>
  <way id="22634466" version="7" timestamp="2023-01-26T17:51:34Z" changeset="131742193" uid="3582" user="davidearl">
    <nd ref="60751276"/>
    <nd ref="60751274"/>
    <nd ref="1306108308"/>
    <nd ref="1141217070"/>
    <nd ref="60751272"/>
    <nd ref="1891074603"/>
    <nd ref="313724666"/>
    <nd ref="60751251"/>
    <tag k="highway" v="tertiary"/>
    <tag k="lcn" v="CambsCC-Huntingdon-StIves"/>
    <tag k="maxspeed" v="30 mph"/>
  </way>
  <way id="28558210" version="3" timestamp="2016-08-01T09:00:28Z" changeset="41162234" uid="2983218" user="LovenOutdoors">
    <nd ref="313724558"/>
    <nd ref="3394026606"/>
    <nd ref="313724561"/>
    <tag k="bridge" v="yes"/>
    <tag k="highway" v="tertiary"/>
    <tag k="layer" v="1"/>
    <tag k="name" v="Rideaway"/>
  </way>
  <way id="28558211" version="7" timestamp="2025-03-15T14:14:58Z" changeset="163652595" uid="5229644" user="Nathan_A_RF">
    <nd ref="313724579"/>
    <nd ref="313724583"/>
    <nd ref="313724584"/>
    <nd ref="313724591"/>
    <nd ref="313724592"/>
    <nd ref="4626751478"/>
    <nd ref="313724588"/>
    <tag k="expressway" v="yes"/>
    <tag k="highway" v="primary_link"/>
    <tag k="oneway" v="yes"/>
    <tag k="operator" v="Cambridgeshire County Council"/>
  </way>
  <way id="28558212" version="2" timestamp="2016-08-01T09:00:28Z" changeset="41162234" uid="2983218" user="LovenOutdoors">
    <nd ref="313724561"/>
    <nd ref="313724560"/>
    <nd ref="313724564"/>
    <nd ref="313724563"/>
    <nd ref="313724567"/>
    <nd ref="313724566"/>
    <nd ref="313724570"/>
    <nd ref="313724569"/>
    <nd ref="313724573"/>
    <nd ref="313724572"/>
    <nd ref="313724576"/>
    <nd ref="313724575"/>
    <nd ref="313724579"/>
    <tag k="highway" v="tertiary"/>
    <tag k="name" v="Rideaway"/>
  </way>
  <way id="28558214" version="6" timestamp="2023-01-26T17:51:34Z" changeset="131742193" uid="3582" user="davidearl">
    <nd ref="60751251"/>
    <nd ref="60751270"/>
    <nd ref="60751250"/>
    <nd ref="8866082648"/>
    <nd ref="2399858842"/>
    <nd ref="60751249"/>
    <nd ref="60751269"/>
    <nd ref="60751268"/>
    <nd ref="2399858833"/>
    <nd ref="60751245"/>
    <tag k="abutters" v="residential"/>
    <tag k="highway" v="tertiary"/>
    <tag k="lcn" v="CambsCC-Huntingdon-StIves"/>
    <tag k="maxspeed" v="30 mph"/>
    <tag k="name" v="High Street"/>
    <tag k="source:name" v="dictaphone"/>
  </way>
  <way id="28558218" version="3" timestamp="2016-08-01T10:43:52Z" changeset="41164166" uid="2983218" user="LovenOutdoors">
    <nd ref="313724555"/>
    <nd ref="313724627"/>
    <nd ref="3394026605"/>
    <nd ref="313724617"/>
    <nd ref="313724619"/>
    <nd ref="313724620"/>
    <nd ref="313724621"/>
    <nd ref="4330744934"/>
    <tag k="highway" v="tertiary"/>
  </way>
  <way id="28558223" version="5" timestamp="2025-01-13T12:40:12Z" changeset="161308188" uid="5229644" user="Nathan_A_RF">
    <nd ref="60751236"/>
    <nd ref="12498036155"/>
    <nd ref="4626751471"/>
    <nd ref="4626751470"/>
    <nd ref="313724634"/>
    <tag k="expressway" v="yes"/>
    <tag k="highway" v="primary_link"/>
    <tag k="oneway" v="yes"/>
  </way>
  <way id="28558226" version="5" timestamp="2025-01-13T12:40:12Z" changeset="161308188" uid="5229644" user="Nathan_A_RF">
    <nd ref="313724634"/>
    <nd ref="4626751469"/>
    <nd ref="4626751468"/>
    <nd ref="12498036159"/>
    <nd ref="12498036158"/>
    <nd ref="313724636"/>
    <tag k="expressway" v="yes"/>
    <tag k="highway" v="primary_link"/>
    <tag k="oneway" v="yes"/>
  </way>
  <way id="28558231" version="8" timestamp="2025-03-15T14:14:58Z" changeset="163652595" uid="5229644" user="Nathan_A_RF">
    <nd ref="215660"/>
    <nd ref="313724613"/>
    <nd ref="9023186674"/>
    <nd ref="9023186675"/>
    <nd ref="9023186673"/>
    <nd ref="4626751476"/>
    <nd ref="9023186677"/>
    <nd ref="313724585"/>
    <nd ref="313724580"/>
    <nd ref="313724582"/>
    <nd ref="4626751477"/>
    <nd ref="313724577"/>
    <nd ref="313724579"/>
    <tag k="expressway" v="yes"/>
    <tag k="highway" v="primary_link"/>
    <tag k="oneway" v="yes"/>
    <tag k="operator" v="Cambridgeshire County Council"/>
  </way>
  <way id="28558238" version="8" timestamp="2022-06-08T01:07:19Z" changeset="122094155" uid="7463" user="kesterlester">
    <nd ref="313724575"/>
    <nd ref="313724696"/>
    <nd ref="313724695"/>
    <nd ref="313724694"/>
    <nd ref="313724693"/>
    <nd ref="313724692"/>
    <nd ref="313724719"/>
    <nd ref="313724718"/>
    <nd ref="313724722"/>
    <nd ref="3444465940"/>
    <nd ref="9802849088"/>
    <nd ref="4326636468"/>
    <nd ref="4326636470"/>
    <nd ref="313724720"/>
    <nd ref="3444444229"/>
    <nd ref="3444444245"/>
    <nd ref="313724724"/>
    <nd ref="313724723"/>
    <nd ref="313724726"/>
    <nd ref="4326637007"/>
    <nd ref="313724725"/>
    <nd ref="313724707"/>
    <nd ref="4326637014"/>
    <nd ref="313724704"/>
    <nd ref="313724712"/>
    <nd ref="313724711"/>
    <nd ref="313724714"/>
    <nd ref="4326832488"/>
    <nd ref="4326637024"/>
    <tag k="highway" v="unclassified"/>
    <tag k="name" v="Moats Way"/>
  </way>
  <way id="28558262" version="1" timestamp="2008-11-22T14:53:03Z" changeset="780225" uid="3582" user="davidearl">
    <nd ref="313725279"/>
    <nd ref="313725280"/>
    <tag k="highway" v="residential"/>
    <tag k="name" v="Abbots Close"/>
    <tag k="source:name" v="dictaphone"/>
  </way>
  <way id="28558263" version="2" timestamp="2018-04-10T22:15:55Z" changeset="57986647" uid="5173844" user="ndrw6">
    <nd ref="313725295"/>
    <nd ref="5543932070"/>
    <nd ref="5543932099"/>
    <nd ref="5543932098"/>
    <nd ref="313725292"/>
    <tag k="highway" v="residential"/>
    <tag k="name" v="Rideaway Drive"/>
    <tag k="source:name" v="dictaphone"/>
  </way>
  <way id="28558265" version="5" timestamp="2023-04-17T15:42:02Z" changeset="135020593" uid="3582" user="davidearl">
    <nd ref="313725733"/>
    <nd ref="5543931813"/>
    <nd ref="3371816540"/>
    <nd ref="313725300"/>
    <nd ref="313725299"/>
    <nd ref="313725298"/>
    <nd ref="1891069566"/>
    <nd ref="5543932368"/>
    <nd ref="313725297"/>
    <tag k="highway" v="residential"/>
    <tag k="name" v="Royal Oak Lane"/>
    <tag k="oneway" v="yes"/>
    <tag k="source:name" v="dictaphone"/>
  </way>
  <way id="28558267" version="1" timestamp="2008-11-22T14:53:07Z" changeset="780225" uid="3582" user="davidearl">
    <nd ref="313724644"/>
    <nd ref="313725296"/>
    <nd ref="313725295"/>
    <nd ref="313725294"/>
    <tag k="highway" v="residential"/>
    <tag k="name" v="Rideaway Drive"/>
    <tag k="source:name" v="dictaphone"/>
  </way>
  <way id="28558268" version="5" timestamp="2019-12-18T05:26:30Z" changeset="78559913" uid="10252544" user="uttarann">
    <nd ref="242767259"/>
    <nd ref="5543932541"/>
    <nd ref="313724656"/>
    <nd ref="5543932540"/>
    <nd ref="313724651"/>
    <nd ref="313724653"/>
    <nd ref="313724661"/>
    <nd ref="313724662"/>
    <nd ref="5543931775"/>
    <nd ref="313724657"/>
    <nd ref="313724659"/>
    <nd ref="313724642"/>
    <nd ref="313725736"/>
    <nd ref="5543931815"/>
    <nd ref="313724644"/>
    <nd ref="3446248353"/>
    <nd ref="728689433"/>
    <nd ref="7065476437"/>
    <nd ref="728689434"/>
    <nd ref="313725625"/>
    <tag k="highway" v="tertiary"/>
    <tag k="name" v="Rideaway"/>
    <tag k="source:name" v="dictaphone"/>
  </way>
  <way id="28558269" version="1" timestamp="2008-11-22T14:53:08Z" changeset="780225" uid="3582" user="davidearl">
    <nd ref="313724656"/>
    <nd ref="313725210"/>
    <tag k="highway" v="residential"/>
    <tag k="name" v="Rideaway"/>
    <tag k="source:name" v="dictaphone"/>
  </way>
  <way id="28558271" version="5" timestamp="2018-04-10T22:15:56Z" changeset="57986647" uid="5173844" user="ndrw6">
    <nd ref="313724654"/>
    <nd ref="2860184968"/>
    <nd ref="5543932569"/>
    <nd ref="5543932723"/>
    <nd ref="2399858840"/>
    <nd ref="313725609"/>
    <nd ref="313725611"/>
    <nd ref="313725612"/>
    <nd ref="313725614"/>
    <tag k="highway" v="residential"/>
    <tag k="name" v="Church Lane"/>
    <tag k="source:name" v="dictaphone"/>
  </way>
  <way id="28558274" version="2" timestamp="2021-02-26T06:08:50Z" changeset="100022433" uid="493595" user="Yorvik Prestigitator">
    <nd ref="313724673"/>
    <nd ref="313725235"/>
    <nd ref="313725237"/>
    <nd ref="313725239"/>
    <nd ref="8460052503"/>
    <nd ref="313725241"/>
    <nd ref="313725242"/>
    <nd ref="313725303"/>
    <tag k="highway" v="residential"/>
    <tag k="name" v="Chapmans"/>
    <tag k="source:name" v="dictaphone"/>
  </way>
  <way id="28558521" version="4" timestamp="2023-01-26T17:51:34Z" changeset="131742193" uid="3582" user="davidearl">
    <nd ref="242767259"/>
    <nd ref="313725210"/>
    <tag k="highway" v="residential"/>
    <tag k="lcn" v="CambsCC-Huntingdon-StIves"/>
    <tag k="name" v="High Street"/>
  </way>
  <way id="28558522" version="5" timestamp="2023-01-26T17:51:34Z" changeset="131742193" uid="3582" user="davidearl">
    <nd ref="60751245"/>
    <nd ref="2860184903"/>
    <nd ref="2399858837"/>
    <nd ref="60751246"/>
    <nd ref="70973347"/>
    <nd ref="70973388"/>
    <tag k="highway" v="tertiary"/>
    <tag k="lcn" v="CambsCC-Huntingdon-StIves"/>
  </way>
  <way id="28558561" version="12" timestamp="2025-01-13T12:40:12Z" changeset="161308188" uid="5229644" user="Nathan_A_RF">
    <nd ref="313725583"/>
    <nd ref="1457833820"/>
    <nd ref="313724670"/>
    <nd ref="1457833825"/>
    <nd ref="60751242"/>
    <nd ref="1457833726"/>
    <nd ref="60751237"/>
    <nd ref="1457833800"/>
    <nd ref="1457833799"/>
    <nd ref="3374824477"/>
    <nd ref="4330744925"/>
    <nd ref="1457833812"/>
    <nd ref="3394026616"/>
    <nd ref="3394027621"/>
    <nd ref="4330744943"/>
    <nd ref="4330744934"/>
    <nd ref="3394026610"/>
    <nd ref="313724634"/>
    <tag k="highway" v="tertiary"/>
    <tag k="lane_markings" v="no"/>
    <tag k="lit" v="no"/>
    <tag k="maxspeed" v="60 mph"/>
    <tag k="maxspeed:type" v="GB:nsl_single"/>
    <tag k="name" v="New Road"/>
    <tag k="surface" v="asphalt"/>
  </way>
  <way id="28558566" version="5" timestamp="2016-08-01T10:43:52Z" changeset="41164166" uid="2983218" user="LovenOutdoors">
    <nd ref="313725625"/>
    <nd ref="313724639"/>
    <nd ref="3374824483"/>
    <nd ref="313724640"/>
    <nd ref="313724649"/>
    <nd ref="313724650"/>
    <nd ref="313724646"/>
    <nd ref="313725682"/>
    <nd ref="313724647"/>
    <nd ref="313724631"/>
    <nd ref="3374824487"/>
    <nd ref="4330744186"/>
    <nd ref="313724630"/>
    <nd ref="313724629"/>
    <nd ref="4330744182"/>
    <nd ref="3394026615"/>
    <nd ref="313724628"/>
    <nd ref="313724637"/>
    <nd ref="313724552"/>
    <nd ref="313724554"/>
    <nd ref="313724555"/>
    <nd ref="313724557"/>
    <nd ref="313724558"/>
    <tag k="highway" v="tertiary"/>
    <tag k="name" v="Rideaway"/>
  </way>
  <way id="28558575" version="3" timestamp="2023-04-17T15:42:02Z" changeset="135020593" uid="3582" user="davidearl">
    <nd ref="313725736"/>
    <nd ref="5543931814"/>
    <nd ref="313725733"/>
    <tag k="highway" v="residential"/>
    <tag k="junction" v="approach"/>
    <tag k="name" v="Royal Oak Lane"/>
    <tag k="oneway" v="yes"/>
    <tag k="source:name" v="dictaphone"/>
  </way>
  <way id="28558576" version="2" timestamp="2014-05-15T15:34:30Z" changeset="22354564" uid="1876487" user="Jordan Mann">
    <nd ref="313725740"/>
    <nd ref="313725741"/>
    <tag k="highway" v="residential"/>
    <tag k="name" v="River Meadow"/>
    <tag k="source:name" v="dictaphone"/>
  </way>
  <way id="106276269" version="2" timestamp="2018-04-10T22:15:54Z" changeset="57986647" uid="5173844" user="ndrw6">
    <nd ref="1223167438"/>
    <nd ref="5543931213"/>
    <nd ref="5543931214"/>
    <nd ref="1223167439"/>
    <nd ref="1223167444"/>
    <nd ref="1223167443"/>
    <nd ref="1223167432"/>
    <tag k="highway" v="residential"/>
    <tag k="name" v="Braefield"/>
  </way>
  <way id="128494595" version="6" timestamp="2024-05-18T13:45:08Z" changeset="151494922" uid="95856" user="john paul jones &amp; gringo">
    <nd ref="1419936724"/>
    <nd ref="1419936719"/>
    <nd ref="1419936716"/>
    <nd ref="1419936715"/>
    <nd ref="1419936712"/>
    <nd ref="1419936714"/>
    <nd ref="1419936711"/>
    <nd ref="1419936713"/>
    <nd ref="1419936718"/>
    <nd ref="1419936717"/>
    <nd ref="1419936724"/>
    <tag k="addr:city" v="Huntingdon"/>
    <tag k="addr:country" v="GB"/>
    <tag k="addr:postcode" v="PE28 9HQ"/>
    <tag k="addr:street" v="Cambridge Road"/>
    <tag k="addr:suburb" v="Hemingford Abbots"/>
    <tag k="building" v="commercial"/>
    <tag k="name" v="Melior Spas"/>
    <tag k="source" v="Bing;survey"/>
    <tag k="source:addr:postcode" v="code-point_open"/>
    <tag k="website" v="http://www.meliorspas.co.uk/"/>
  </way>
  <way id="204809548" version="14" timestamp="2025-03-15T14:14:58Z" changeset="163652595" uid="5229644" user="Nathan_A_RF">
    <nd ref="60751236"/>
    <nd ref="12498036157"/>
    <nd ref="12498036156"/>
    <nd ref="12498036160"/>
    <nd ref="313724636"/>
    <nd ref="4626751467"/>
    <nd ref="20938813"/>
    <nd ref="4626751465"/>
    <nd ref="4626751464"/>
    <nd ref="20938815"/>
    <nd ref="70973425"/>
    <tag k="alt_name" v="Cambridge Road"/>
    <tag k="dual_carriageway" v="yes"/>
    <tag k="enforcement:maxspeed" v="average"/>
    <tag k="expressway" v="yes"/>
    <tag k="foot" v="no"/>
    <tag k="highway" v="primary"/>
    <tag k="lanes" v="2"/>
    <tag k="lit" v="no"/>
    <tag k="maxheight" v="default"/>
    <tag k="maxspeed" v="70 mph"/>
    <tag k="maxspeed:type" v="GB:nsl_dual"/>
    <tag k="old_ref" v="A14"/>
    <tag k="oneway" v="yes"/>
    <tag k="operator" v="Cambridgeshire County Council"/>
    <tag k="ref" v="A1307"/>
    <tag k="source:lit" v="trave/photos 2011/08/31"/>
    <tag k="surface" v="asphalt"/>
  </way>
  <way id="217135462" version="5" timestamp="2024-05-18T13:45:08Z" changeset="151494922" uid="95856" user="john paul jones &amp; gringo">
    <nd ref="2264389560"/>
    <nd ref="8322322707"/>
    <nd ref="8070138908"/>
    <nd ref="8070138909"/>
    <nd ref="2264389563"/>
    <nd ref="313725690"/>
    <nd ref="313724691"/>
    <nd ref="2264389569"/>
    <nd ref="313724686"/>
    <nd ref="313724684"/>
    <nd ref="8070138906"/>
    <nd ref="2264389560"/>
    <tag k="addr:city" v="Huntingdon"/>
    <tag k="addr:country" v="GB"/>
    <tag k="addr:postcode" v="PE28 9HQ"/>
    <tag k="addr:street" v="Rideaway"/>
    <tag k="addr:suburb" v="Hemingford Abbots"/>
    <tag k="leisure" v="golf_course"/>
    <tag k="name" v="American Golf Driving Range"/>
  </way>
  <way id="293222577" version="5" timestamp="2022-02-28T23:05:13Z" changeset="117961003" uid="1778799" user="SomeoneElse_Revert">
    <nd ref="2967963381"/>
    <nd ref="2967963382"/>
    <nd ref="8460052494"/>
    <nd ref="2967963387"/>
    <nd ref="8460052495"/>
    <nd ref="8460052493"/>
    <nd ref="2967963383"/>
    <nd ref="2967963386"/>
    <nd ref="2967963384"/>
    <nd ref="2967963380"/>
    <nd ref="2967963385"/>
    <nd ref="2967963381"/>
    <tag k="addr:city" v="Hemingford Abbots"/>
    <tag k="addr:street" v="High Street"/>
    <tag k="amenity" v="community_centre"/>
    <tag k="building" v="public"/>
    <tag k="community_centre" v="village_hall"/>
    <tag k="name" v="Hemingford  Abbots Village Hall"/>
  </way>
  <way id="303538746" version="5" timestamp="2024-05-18T05:47:21Z" changeset="151478669" uid="322785" user="BCNorwich">
    <nd ref="1324388069"/>
    <nd ref="11914933939"/>
    <nd ref="6893160719"/>
    <nd ref="242767251"/>
    <nd ref="6893160718"/>
    <nd ref="242767252"/>
    <nd ref="313725279"/>
    <nd ref="1223167432"/>
    <nd ref="242767253"/>
    <nd ref="24978858"/>
    <nd ref="24978857"/>
    <nd ref="5543931358"/>
    <tag k="highway" v="residential"/>
    <tag k="lcn" v="CambsCC-Huntingdon-StIves"/>
    <tag k="name" v="Common Lane"/>
  </way>
  <way id="332285749" version="3" timestamp="2024-05-18T14:03:42Z" changeset="151495767" uid="95856" user="john paul jones &amp; gringo">
    <nd ref="1521509219"/>
    <nd ref="3394018895"/>
    <nd ref="3394018896"/>
    <nd ref="1521509226"/>
    <nd ref="1521509219"/>
    <tag k="addr:city" v="Huntingdon"/>
    <tag k="addr:country" v="GB"/>
    <tag k="addr:postcode" v="PE28 9AS"/>
    <tag k="addr:street" v="Common Lane"/>
    <tag k="addr:suburb" v="Hemingford Abbots"/>
    <tag k="landuse" v="farmyard"/>
    <tag k="name" v="Home Farm"/>
  </way>
  <way id="332286062" version="4" timestamp="2024-05-18T14:03:42Z" changeset="151495767" uid="95856" user="john paul jones &amp; gringo">
    <nd ref="3394021315"/>
    <nd ref="7948501202"/>
    <nd ref="7948501203"/>
    <nd ref="7948501204"/>
    <nd ref="7948501201"/>
    <nd ref="3394021316"/>
    <nd ref="3394021317"/>
    <nd ref="7948501206"/>
    <nd ref="7948501205"/>
    <nd ref="3394021318"/>
    <nd ref="7948501199"/>
    <nd ref="7948501200"/>
    <nd ref="3394021315"/>
    <tag k="addr:city" v="Huntingdon"/>
    <tag k="addr:country" v="GB"/>
    <tag k="addr:postcode" v="PE28 9AS"/>
    <tag k="addr:street" v="Rideaway"/>
    <tag k="addr:suburb" v="Hemingford Abbots"/>
    <tag k="building" v="house"/>
    <tag k="name" v="Hemingford Park"/>
  </way>
  <way id="332286824" version="5" timestamp="2024-05-18T13:45:08Z" changeset="151494922" uid="95856" user="john paul jones &amp; gringo">
    <nd ref="3394026614"/>
    <nd ref="3394026613"/>
    <nd ref="4330744908"/>
    <nd ref="3374824485"/>
    <nd ref="3374824486"/>
    <nd ref="3374824487"/>
    <nd ref="4330744186"/>
    <nd ref="313724630"/>
    <nd ref="313724629"/>
    <nd ref="4330744182"/>
    <nd ref="3394026615"/>
    <nd ref="3394026614"/>
    <tag k="addr:city" v="Huntingdon"/>
    <tag k="addr:country" v="GB"/>
    <tag k="addr:postcode" v="PE28 9AT"/>
    <tag k="addr:street" v="Rideaway"/>
    <tag k="addr:suburb" v="Hemingford Abbots"/>
    <tag k="landuse" v="farmyard"/>
    <tag k="name" v="Ridgeway Farm"/>
  </way>
  <way id="332287561" version="5" timestamp="2024-05-18T13:45:08Z" changeset="151494922" uid="95856" user="john paul jones &amp; gringo">
    <nd ref="3394033661"/>
    <nd ref="4330767627"/>
    <nd ref="4330767626"/>
    <nd ref="4330767631"/>
    <nd ref="4330767630"/>
    <nd ref="3394033662"/>
    <nd ref="3394033663"/>
    <nd ref="3394033664"/>
    <nd ref="4330767602"/>
    <nd ref="3394033661"/>
    <tag k="addr:city" v="Huntingdon"/>
    <tag k="addr:country" v="GB"/>
    <tag k="addr:postcode" v="PE28 9HQ"/>
    <tag k="addr:street" v="Cambridge Road"/>
    <tag k="addr:suburb" v="Hemingford Abbots"/>
    <tag k="landuse" v="farmyard"/>
    <tag k="name" v="Rectory Farm"/>
  </way>
  <way id="337347570" version="3" timestamp="2024-05-18T13:49:01Z" changeset="151495082" uid="95856" user="john paul jones &amp; gringo">
    <nd ref="3444446387"/>
    <nd ref="3444446388"/>
    <nd ref="3444446389"/>
    <nd ref="3444446390"/>
    <nd ref="3444446391"/>
    <nd ref="3444446392"/>
    <nd ref="3444446387"/>
    <tag k="addr:city" v="Huntingdon"/>
    <tag k="addr:country" v="GB"/>
    <tag k="addr:postcode" v="PE28 9HH"/>
    <tag k="addr:street" v="Moats Way"/>
    <tag k="addr:suburb" v="Hemingford Abbots"/>
    <tag k="landuse" v="farmyard"/>
    <tag k="name" v="Moats Way Equestrian"/>
    <tag k="phone" v="+44 1480 464751"/>
    <tag k="website" v="http://www.moatswayequestrian.co.uk/"/>
  </way>
  <way id="337349955" version="3" timestamp="2024-05-18T13:49:01Z" changeset="151495082" uid="95856" user="john paul jones &amp; gringo">
    <nd ref="3444465946"/>
    <nd ref="3444465947"/>
    <nd ref="3444465948"/>
    <nd ref="3444465949"/>
    <nd ref="3444465950"/>
    <nd ref="3444465946"/>
    <tag k="addr:city" v="Huntingdon"/>
    <tag k="addr:country" v="GB"/>
    <tag k="addr:postcode" v="PE28 9HH"/>
    <tag k="addr:street" v="Moats Way"/>
    <tag k="addr:suburb" v="Hemingford Abbots"/>
    <tag k="landuse" v="farmyard"/>
    <tag k="name" v="Moats Way Farm"/>
  </way>
  <way id="337349959" version="3" timestamp="2024-05-18T13:49:01Z" changeset="151495082" uid="95856" user="john paul jones &amp; gringo">
    <nd ref="3444465965"/>
    <nd ref="3444465966"/>
    <nd ref="4326832914"/>
    <nd ref="4326832920"/>
    <nd ref="4326832919"/>
    <nd ref="3444465964"/>
    <nd ref="3444465967"/>
    <nd ref="3444465968"/>
    <nd ref="3444465965"/>
    <tag k="addr:city" v="Huntingdon"/>
    <tag k="addr:country" v="GB"/>
    <tag k="addr:postcode" v="PE28 9HH"/>
    <tag k="addr:street" v="Moats Way"/>
    <tag k="addr:suburb" v="Hemingford Abbots"/>
    <tag k="landuse" v="farmyard"/>
    <tag k="name" v="Top Farm"/>
  </way>
  <way id="337376290" version="5" timestamp="2024-04-28T17:22:06Z" changeset="150628902" uid="95856" user="john paul jones &amp; gringo">
    <nd ref="3444678354"/>
    <nd ref="3444678355"/>
    <nd ref="3444678356"/>
    <nd ref="3444678357"/>
    <nd ref="6919897240"/>
    <nd ref="3444678358"/>
    <nd ref="3444678359"/>
    <nd ref="3444678360"/>
    <nd ref="3444678361"/>
    <nd ref="3444678362"/>
    <nd ref="4324895011"/>
    <nd ref="3444678488"/>
    <nd ref="3444678363"/>
    <nd ref="3444678354"/>
    <tag k="addr:city" v="Huntingdon"/>
    <tag k="addr:country" v="GB"/>
    <tag k="addr:postcode" v="PE28 9PA"/>
    <tag k="addr:street" v="Lattenbury Lane"/>
    <tag k="addr:suburb" v="Hilton"/>
    <tag k="landuse" v="farmyard"/>
    <tag k="name" v="Lattenbury Farm"/>
  </way>
  <way id="337551702" version="4" timestamp="2024-05-18T14:03:42Z" changeset="151495767" uid="95856" user="john paul jones &amp; gringo">
    <nd ref="3446243304"/>
    <nd ref="3446243305"/>
    <nd ref="3446243306"/>
    <nd ref="3446243307"/>
    <nd ref="3446243308"/>
    <nd ref="3446243309"/>
    <nd ref="3446243304"/>
    <tag k="addr:city" v="Huntingdon"/>
    <tag k="addr:country" v="GB"/>
    <tag k="addr:postcode" v="PE28 9AN"/>
    <tag k="addr:street" v="Common Lane"/>
    <tag k="addr:suburb" v="Hemingford Abbots"/>
    <tag k="building" v="yes"/>
    <tag k="name" v="The Old Pavillion"/>
  </way>
  <way id="337552292" version="4" timestamp="2024-05-18T13:45:08Z" changeset="151494922" uid="95856" user="john paul jones &amp; gringo">
    <nd ref="3446249088"/>
    <nd ref="3446249089"/>
    <nd ref="3446249090"/>
    <nd ref="3446249091"/>
    <nd ref="3446249092"/>
    <nd ref="3446249493"/>
    <nd ref="3446249494"/>
    <nd ref="3446249495"/>
    <nd ref="3446249088"/>
    <tag k="addr:city" v="Huntingdon"/>
    <tag k="addr:country" v="GB"/>
    <tag k="addr:postcode" v="PE28 9AG"/>
    <tag k="addr:street" v="Rideaway"/>
    <tag k="addr:suburb" v="Hemingford Abbots"/>
    <tag k="building" v="house"/>
    <tag k="name" v="Park Lodge"/>
  </way>
  <way id="391859095" version="6" timestamp="2023-11-24T23:40:03Z" changeset="144424724" uid="10420541" user="Thingummy">
    <nd ref="3951225251"/>
    <nd ref="3951225247"/>
    <nd ref="11369686074"/>
    <nd ref="11369686122"/>
    <nd ref="11369676254"/>
    <nd ref="11369676256"/>
    <nd ref="11369676257"/>
    <nd ref="11369676258"/>
    <nd ref="3951225252"/>
    <nd ref="3951225249"/>
    <nd ref="11369676259"/>
    <nd ref="11369728202"/>
    <nd ref="11369676246"/>
    <nd ref="11369676260"/>
    <nd ref="11369676261"/>
    <nd ref="3951225251"/>
    <tag k="addr:parentstreet" v="High Street"/>
    <tag k="addr:street" v="Quiet Waters"/>
    <tag k="addr:village" v="Hemingford Abbots"/>
    <tag k="landuse" v="residential"/>
    <tag k="name" v="Quiet Waters"/>
    <tag k="residential" v="trailer_park"/>
    <tag k="tourism" v="yes"/>
    <tag k="website" v="https://www.quietwaterscaravanpark.co.uk/"/>
  </way>
  <way id="434720666" version="2" timestamp="2024-05-18T13:49:01Z" changeset="151495082" uid="95856" user="john paul jones &amp; gringo">
    <nd ref="3444446361"/>
    <nd ref="3444446362"/>
    <nd ref="3793984223"/>
    <nd ref="3444465955"/>
    <nd ref="3793984224"/>
    <nd ref="3793984198"/>
    <nd ref="3793984194"/>
    <nd ref="3793984193"/>
    <nd ref="3793984192"/>
    <nd ref="4326636473"/>
    <nd ref="313724715"/>
    <nd ref="4326636992"/>
    <nd ref="4326636475"/>
    <nd ref="4326636476"/>
    <nd ref="4326636477"/>
    <nd ref="4326636991"/>
    <nd ref="4326636478"/>
    <nd ref="3444446361"/>
    <tag k="addr:city" v="Huntingdon"/>
    <tag k="addr:country" v="GB"/>
    <tag k="addr:postcode" v="PE28 9HH"/>
    <tag k="addr:street" v="Moats Way"/>
    <tag k="addr:suburb" v="Hemingford Abbots"/>
    <tag k="landuse" v="farmyard"/>
    <tag k="name" v="Littlebury Farm"/>
  </way>
  <way id="435108316" version="3" timestamp="2024-05-18T13:45:08Z" changeset="151494922" uid="95856" user="john paul jones &amp; gringo">
    <nd ref="4330640591"/>
    <nd ref="4330640592"/>
    <nd ref="4330640595"/>
    <nd ref="4330640594"/>
    <nd ref="4330640591"/>
    <tag k="addr:city" v="Huntingdon"/>
    <tag k="addr:country" v="GB"/>
    <tag k="addr:postcode" v="PE28 9AG"/>
    <tag k="addr:street" v="Rideaway"/>
    <tag k="addr:suburb" v="Hemingford Abbots"/>
    <tag k="building" v="school"/>
    <tag k="name" v="Hemmingford Nursery School"/>
  </way>
  <way id="435118744" version="3" timestamp="2024-05-18T14:02:40Z" changeset="151495724" uid="95856" user="john paul jones &amp; gringo">
    <nd ref="3394027622"/>
    <nd ref="3394027623"/>
    <nd ref="4330744941"/>
    <nd ref="4330744942"/>
    <nd ref="4330744934"/>
    <nd ref="4330744943"/>
    <nd ref="3394027621"/>
    <nd ref="3394027622"/>
    <tag k="addr:city" v="Huntingdon"/>
    <tag k="addr:country" v="GB"/>
    <tag k="addr:postcode" v="PE28 9HJ"/>
    <tag k="addr:street" v="New Road"/>
    <tag k="addr:suburb" v="Hemingford Abbots"/>
    <tag k="landuse" v="farmyard"/>
    <tag k="name" v="Douglas Farm"/>
  </way>
  <way id="435118752" version="2" timestamp="2024-05-18T14:03:42Z" changeset="151495767" uid="95856" user="john paul jones &amp; gringo">
    <nd ref="4330744949"/>
    <nd ref="4330744950"/>
    <nd ref="4330744951"/>
    <nd ref="4330744952"/>
    <nd ref="4330744949"/>
    <tag k="addr:city" v="Huntingdon"/>
    <tag k="addr:country" v="GB"/>
    <tag k="addr:postcode" v="PE28 9AS"/>
    <tag k="addr:street" v="Common Lane"/>
    <tag k="addr:suburb" v="Hemingford Abbots"/>
    <tag k="building" v="yes"/>
    <tag k="name" v="Stables and Old Coachhouse"/>
  </way>
  <way id="463120481" version="10" timestamp="2024-10-19T13:44:54Z" changeset="158091550" uid="322785" user="BCNorwich">
    <nd ref="4584305908"/>
    <nd ref="6514864358"/>
    <nd ref="25720309"/>
    <nd ref="9163100337"/>
    <nd ref="991676984"/>
    <nd ref="986314596"/>
    <nd ref="25720310"/>
    <nd ref="1507313997"/>
    <nd ref="4751235422"/>
    <tag k="highway" v="primary"/>
    <tag k="lanes" v="2"/>
    <tag k="lit" v="no"/>
    <tag k="name" v="Ermine Street"/>
    <tag k="old_ref" v="A14"/>
    <tag k="ref" v="A1198"/>
    <tag k="surface" v="asphalt"/>
  </way>
  <way id="463120484" version="9" timestamp="2023-08-26T13:35:24Z" changeset="140412358" uid="12992" user="trigpoint">
    <nd ref="4584305940"/>
    <nd ref="6919897190"/>
    <nd ref="6919897193"/>
    <nd ref="4584305908"/>
    <tag k="highway" v="primary"/>
    <tag k="lit" v="no"/>
    <tag k="maxspeed" v="40 mph"/>
    <tag k="name" v="Ermine Street"/>
    <tag k="old_ref" v="A14"/>
    <tag k="ref" v="A1198"/>
    <tag k="surface" v="asphalt"/>
  </way>
  <way id="528465173" version="18" timestamp="2025-03-15T14:14:58Z" changeset="163652595" uid="5229644" user="Nathan_A_RF">
    <nd ref="3786122854"/>
    <nd ref="3733106787"/>
    <nd ref="4626751457"/>
    <nd ref="243493657"/>
    <nd ref="20938820"/>
    <nd ref="2269882510"/>
    <nd ref="215668"/>
    <nd ref="4626751459"/>
    <nd ref="4626751460"/>
    <nd ref="4626751461"/>
    <nd ref="2269882515"/>
    <nd ref="1223167428"/>
    <nd ref="20938818"/>
    <nd ref="1001131070"/>
    <nd ref="20938816"/>
    <nd ref="3374799758"/>
    <nd ref="1419936705"/>
    <nd ref="1419936710"/>
    <nd ref="20938814"/>
    <nd ref="4626751466"/>
    <nd ref="4330767605"/>
    <nd ref="20938812"/>
    <nd ref="4626751473"/>
    <nd ref="20938810"/>
    <nd ref="4626751475"/>
    <nd ref="215660"/>
    <nd ref="9023186676"/>
    <nd ref="20938808"/>
    <nd ref="313724588"/>
    <nd ref="215657"/>
    <nd ref="4626751480"/>
    <nd ref="20938806"/>
    <nd ref="215656"/>
    <nd ref="4626751483"/>
    <nd ref="4626751484"/>
    <nd ref="11170918544"/>
    <tag k="alt_name" v="Huntingdon Road"/>
    <tag k="dual_carriageway" v="yes"/>
    <tag k="enforcement:maxspeed" v="average"/>
    <tag k="expressway" v="yes"/>
    <tag k="foot" v="no"/>
    <tag k="highway" v="primary"/>
    <tag k="lanes" v="2"/>
    <tag k="lit" v="no"/>
    <tag k="maxheight" v="default"/>
    <tag k="maxspeed" v="70 mph"/>
    <tag k="maxspeed:type" v="GB:nsl_dual"/>
    <tag k="old_ref" v="A14"/>
    <tag k="oneway" v="yes"/>
    <tag k="operator" v="Cambridgeshire County Council"/>
    <tag k="ref" v="A1307"/>
    <tag k="sidewalk" v="no"/>
    <tag k="source:lit" v="trave/photos 2011/08/31"/>
    <tag k="surface" v="asphalt"/>
  </way>
  <way id="578660334" version="2" timestamp="2023-04-27T20:10:14Z" changeset="135442490" uid="10633286" user="Moorit">
    <nd ref="5543930623"/>
    <nd ref="5543930624"/>
    <nd ref="5543930625"/>
    <nd ref="5543930626"/>
    <nd ref="5543930623"/>
    <tag k="addr:housenumber" v="22"/>
    <tag k="addr:street" v="Common Lane"/>
    <tag k="building" v="house"/>
  </way>
  <way id="578660350" version="1" timestamp="2018-04-10T22:15:39Z" changeset="57986647" uid="5173844" user="ndrw6">
    <nd ref="5543930713"/>
    <nd ref="5543930714"/>
    <nd ref="5543930715"/>
    <nd ref="5543930716"/>
    <nd ref="5543930717"/>
    <nd ref="5543930718"/>
    <nd ref="5543930719"/>
    <tag k="highway" v="residential"/>
  </way>
  <way id="578660351" version="1" timestamp="2018-04-10T22:15:39Z" changeset="57986647" uid="5173844" user="ndrw6">
    <nd ref="5543930719"/>
    <nd ref="5543930720"/>
    <nd ref="5543930721"/>
    <nd ref="5543930743"/>
    <nd ref="5543930722"/>
    <nd ref="5543930723"/>
    <nd ref="5543930724"/>
    <nd ref="5543930725"/>
    <nd ref="5543930726"/>
    <nd ref="5543930727"/>
    <nd ref="5543930728"/>
    <nd ref="5543930729"/>
    <nd ref="5543930730"/>
    <nd ref="5543930719"/>
    <tag k="highway" v="residential"/>
    <tag k="oneway" v="yes"/>
  </way>
  <way id="693843081" version="25" timestamp="2025-02-19T20:43:07Z" changeset="162716806" uid="10420541" user="Thingummy">
    <nd ref="12601791678"/>
    <nd ref="4449493231"/>
    <nd ref="2673270931"/>
    <nd ref="6542806478"/>
    <nd ref="4449493233"/>
    <nd ref="9140678103"/>
    <nd ref="9140678104"/>
    <nd ref="2861536700"/>
    <nd ref="4449493230"/>
    <nd ref="3444674493"/>
    <nd ref="8315800966"/>
    <nd ref="6542806470"/>
    <nd ref="8315800968"/>
    <nd ref="4449493228"/>
    <nd ref="4584142434"/>
    <nd ref="8315800970"/>
    <nd ref="2673270934"/>
    <nd ref="8315800973"/>
    <nd ref="8315800977"/>
    <nd ref="8315800975"/>
    <nd ref="3324820371"/>
    <nd ref="6543289240"/>
    <nd ref="8315800978"/>
    <nd ref="4449493232"/>
    <nd ref="8315800979"/>
    <nd ref="4449493237"/>
    <nd ref="8315800980"/>
    <nd ref="8315800981"/>
    <nd ref="2673270932"/>
    <nd ref="8315800982"/>
    <nd ref="4449493238"/>
    <nd ref="4449493240"/>
    <nd ref="3230753463"/>
    <nd ref="8315717258"/>
    <nd ref="2673270936"/>
    <nd ref="8315717257"/>
    <nd ref="8315717254"/>
    <nd ref="8315717253"/>
    <nd ref="6514864362"/>
    <nd ref="8315717251"/>
    <nd ref="4449493242"/>
    <nd ref="8315717249"/>
    <nd ref="6919897213"/>
    <nd ref="8315717247"/>
    <nd ref="4449493243"/>
    <nd ref="4584305934"/>
    <tag k="agricultural" v="no"/>
    <tag k="bicycle" v="no"/>
    <tag k="carriage" v="no"/>
    <tag k="carriageway_ref" v="B"/>
    <tag k="dual_carriageway" v="yes"/>
    <tag k="expressway" v="yes"/>
    <tag k="foot" v="no"/>
    <tag k="highway" v="trunk"/>
    <tag k="horse" v="no"/>
    <tag k="int_ref" v="E 24"/>
    <tag k="lanes" v="3"/>
    <tag k="lit" v="no"/>
    <tag k="maxheight" v="default"/>
    <tag k="maxspeed" v="70 mph"/>
    <tag k="maxspeed:type" v="GB:nsl_dual"/>
    <tag k="maxspeed:variable" v="peak_traffic"/>
    <tag k="motorcycle:conditional" v="no @ (displacement &lt; 50 cc)"/>
    <tag k="motorroad" v="yes"/>
    <tag k="national_highways:area" v="8"/>
    <tag k="oneway" v="yes"/>
    <tag k="operator" v="National Highways"/>
    <tag k="operator:wikidata" v="Q5760006"/>
    <tag k="ref" v="A14"/>
    <tag k="surface" v="asphalt"/>
  </way>
  <way id="753761720" version="11" timestamp="2025-03-15T14:14:58Z" changeset="163652595" uid="5229644" user="Nathan_A_RF">
    <nd ref="2759918"/>
    <nd ref="3444437771"/>
    <nd ref="3444674387"/>
    <nd ref="4626751482"/>
    <nd ref="2759911"/>
    <nd ref="20938805"/>
    <nd ref="4626751481"/>
    <nd ref="2759810"/>
    <nd ref="4626751479"/>
    <nd ref="20938807"/>
    <nd ref="2759805"/>
    <nd ref="4626751474"/>
    <nd ref="20938809"/>
    <nd ref="4626751472"/>
    <nd ref="60751236"/>
    <tag k="alt_name" v="Cambridge Road"/>
    <tag k="cycleway:left" v="no"/>
    <tag k="dual_carriageway" v="yes"/>
    <tag k="enforcement:maxspeed" v="average"/>
    <tag k="expressway" v="yes"/>
    <tag k="foot" v="no"/>
    <tag k="highway" v="primary"/>
    <tag k="lanes" v="2"/>
    <tag k="lit" v="no"/>
    <tag k="maxheight" v="default"/>
    <tag k="maxspeed" v="70 mph"/>
    <tag k="maxspeed:type" v="GB:nsl_dual"/>
    <tag k="old_ref" v="A14"/>
    <tag k="oneway" v="yes"/>
    <tag k="operator" v="Cambridgeshire County Council"/>
    <tag k="ref" v="A1307"/>
    <tag k="shoulder" v="no"/>
    <tag k="sidewalk" v="no"/>
    <tag k="source:lit" v="trave/photos 2011/08/31"/>
    <tag k="surface" v="asphalt"/>
  </way>
  <way id="943351339" version="3" timestamp="2021-10-05T16:31:47Z" changeset="112131486" uid="10420541" user="Thingummy">
    <nd ref="1001130616"/>
    <nd ref="8734696574"/>
    <nd ref="1001130660"/>
    <nd ref="8734746724"/>
    <nd ref="5747866674"/>
    <nd ref="1001130654"/>
    <nd ref="5747866673"/>
    <nd ref="1001130666"/>
    <nd ref="1001130651"/>
    <nd ref="6589898437"/>
    <nd ref="1001130664"/>
    <nd ref="1001130612"/>
    <nd ref="8734696531"/>
    <nd ref="1001130624"/>
    <nd ref="8734696532"/>
    <nd ref="6589898443"/>
    <nd ref="1001130634"/>
    <nd ref="6589898439"/>
    <nd ref="3374799764"/>
    <nd ref="1001130643"/>
    <nd ref="5747866662"/>
    <nd ref="3374799767"/>
    <nd ref="5747866672"/>
    <tag k="bicycle" v="yes"/>
    <tag k="designation" v="public_bridleway"/>
    <tag k="foot" v="designated"/>
    <tag k="highway" v="unclassified"/>
    <tag k="horse" v="designated"/>
    <tag k="motor_vehicle" v="yes"/>
    <tag k="smoothness" v="intermediate"/>
    <tag k="surface" v="concrete"/>
    <tag k="tracktype" v="grade1"/>
  </way>
  <way id="1138537101" version="1" timestamp="2023-02-07T00:43:40Z" changeset="132182879" uid="10420541" user="Thingummy">
    <nd ref="24978841"/>
    <nd ref="24978833"/>
    <tag k="bicycle" v="designated"/>
    <tag k="foot" v="designated"/>
    <tag k="highway" v="unclassified"/>
    <tag k="horse" v="designated"/>
    <tag k="motor_vehicle" v="private"/>
    <tag k="name" v="Meadow Lane"/>
  </way>
  <way id="1163422692" version="1" timestamp="2023-04-17T15:42:02Z" changeset="135020593" uid="3582" user="davidearl">
    <nd ref="313724642"/>
    <nd ref="313725733"/>
    <tag k="highway" v="residential"/>
    <tag k="junction" v="approach"/>
    <tag k="name" v="Royal Oak Lane"/>
    <tag k="oneway" v="yes"/>
    <tag k="source:name" v="dictaphone"/>
  </way>
  <way id="1226033819" version="2" timestamp="2023-11-22T23:19:22Z" changeset="144346282" uid="10420541" user="Thingummy">
    <nd ref="11369676248"/>
    <nd ref="728689460"/>
    <nd ref="1281654171"/>
    <nd ref="1281654148"/>
    <nd ref="11369728203"/>
    <nd ref="11369728202"/>
    <nd ref="11369676262"/>
    <nd ref="3951225250"/>
    <nd ref="11369676249"/>
    <nd ref="11369676248"/>
    <tag k="addr:parentstreet" v="High Street"/>
    <tag k="addr:street" v="Manor Lane"/>
    <tag k="addr:village" v="Hemingford Abbots"/>
    <tag k="name" v="Quiet Waters Caravan Park"/>
    <tag k="power_supply" v="yes"/>
    <tag k="sanitary_dump_station" v="yes"/>
    <tag k="tourism" v="caravan_site"/>
  </way>
  <way id="1226038900" version="1" timestamp="2023-11-22T23:19:22Z" changeset="144346282" uid="10420541" user="Thingummy">
    <nd ref="313724671"/>
    <nd ref="5543932328"/>
    <nd ref="11369728201"/>
    <tag k="highway" v="residential"/>
    <tag k="name" v="Manor Lane"/>
  </way>
  <way id="1361251684" version="1" timestamp="2025-02-19T20:43:07Z" changeset="162716806" uid="10420541" user="Thingummy">
    <nd ref="3324820370"/>
    <nd ref="8315800976"/>
    <nd ref="8315800974"/>
    <nd ref="6514864357"/>
    <nd ref="8315800972"/>
    <nd ref="3230753465"/>
    <nd ref="8315800971"/>
    <nd ref="4584142427"/>
    <nd ref="8315800969"/>
    <nd ref="4449493229"/>
    <nd ref="8315800967"/>
    <nd ref="6542806482"/>
    <nd ref="8315800965"/>
    <nd ref="3230753468"/>
    <nd ref="4449493234"/>
    <nd ref="3230755116"/>
    <nd ref="9140678105"/>
    <nd ref="3230755117"/>
    <nd ref="6542806481"/>
    <nd ref="3230755118"/>
    <nd ref="4449493236"/>
    <nd ref="12601791677"/>
    <tag k="agricultural" v="no"/>
    <tag k="bicycle" v="no"/>
    <tag k="carriage" v="no"/>
    <tag k="carriageway_ref" v="A"/>
    <tag k="dual_carriageway" v="yes"/>
    <tag k="expressway" v="yes"/>
    <tag k="foot" v="no"/>
    <tag k="highway" v="trunk"/>
    <tag k="horse" v="no"/>
    <tag k="int_ref" v="E 24"/>
    <tag k="lanes" v="3"/>
    <tag k="lit" v="no"/>
    <tag k="maxheight" v="default"/>
    <tag k="maxspeed" v="70 mph"/>
    <tag k="maxspeed:type" v="GB:nsl_dual"/>
    <tag k="maxspeed:variable" v="peak_traffic"/>
    <tag k="motorcycle:conditional" v="no @ (displacement &lt; 50 cc)"/>
    <tag k="motorroad" v="yes"/>
    <tag k="national_highways:area" v="8"/>
    <tag k="oneway" v="yes"/>
    <tag k="operator" v="National Highways"/>
    <tag k="operator:wikidata" v="Q5760006"/>
    <tag k="ref" v="A14"/>
    <tag k="surface" v="asphalt"/>
  </way>

</osm>
