<?xml version="1.0" encoding="UTF-8"?>
<osm version="0.6" generator="Overpass API 0.7.62.5 1bd436f1">
<note>The data included in this document is from www.openstreetmap.org. The data is made available under ODbL.</note>
<meta osm_base="2025-03-25T15:46:00Z" areas="2025-02-06T02:17:44Z"/>

  <node id="631977789" lat="52.3267645" lon="-0.0252894" version="5" timestamp="2024-05-29T09:55:34Z" changeset="151980045" uid="95856" user="john paul jones &amp; gringo">
    <tag k="addr:city" v="St Ives"/>
    <tag k="addr:country" v="GB"/>
    <tag k="addr:postcode" v="PE27 4TN"/>
    <tag k="addr:street" v="Ashton Close"/>
    <tag k="addr:suburb" v="Needingworth"/>
    <tag k="landuse" v="farm"/>
    <tag k="name" v="Lodel Farm"/>
    <tag k="note:retag" v="CS #48756035"/>
  </node>
  <node id="4347308824" lat="52.3380328" lon="-0.0394268" version="2" timestamp="2024-05-21T13:07:43Z" changeset="151627949" uid="95856" user="john paul jones &amp; gringo">
    <tag k="addr:city" v="St Ives"/>
    <tag k="addr:postcode" v="PE27 4NE"/>
    <tag k="addr:street" v="Lowndes Drove"/>
    <tag k="addr:suburb" v="Needingworth"/>
    <tag k="name" v="Blackers Hill Farm"/>
    <tag k="place" v="farm"/>
  </node>
  <node id="4347308833" lat="52.3375381" lon="-0.0381111" version="2" timestamp="2024-05-21T13:07:43Z" changeset="151627949" uid="95856" user="john paul jones &amp; gringo">
    <tag k="addr:city" v="St Ives"/>
    <tag k="addr:postcode" v="PE27 4NE"/>
    <tag k="addr:street" v="Lowndes Drove"/>
    <tag k="addr:suburb" v="Needingworth"/>
    <tag k="name" v="Priory Farm"/>
    <tag k="place" v="farm"/>
  </node>
  <node id="12017527339" lat="52.3355812" lon="-0.0234930" version="2" timestamp="2024-06-30T09:40:30Z" changeset="153360887" uid="6476359" user="NSiecw">
    <tag k="addr:city" v="Cambridge"/>
    <tag k="addr:housenumber" v="45"/>
    <tag k="addr:street" v="Turnpike Close"/>
    <tag k="addr:suburb" v="Needingworth"/>
  </node>
  <node id="12017527340" lat="52.3355812" lon="-0.0235541" version="2" timestamp="2024-06-30T09:40:30Z" changeset="153360887" uid="6476359" user="NSiecw">
    <tag k="addr:city" v="Cambridge"/>
    <tag k="addr:housenumber" v="43"/>
    <tag k="addr:street" v="Turnpike Close"/>
    <tag k="addr:suburb" v="Needingworth"/>
  </node>
  <node id="12017527343" lat="52.3356526" lon="-0.0238180" version="2" timestamp="2024-06-30T09:40:30Z" changeset="153360887" uid="6476359" user="NSiecw">
    <tag k="addr:city" v="Cambridge"/>
    <tag k="addr:housenumber" v="35"/>
    <tag k="addr:street" v="Turnpike Close"/>
    <tag k="addr:suburb" v="Needingworth"/>
  </node>
  <node id="12017527344" lat="52.3356200" lon="-0.0238281" version="2" timestamp="2024-06-30T09:40:30Z" changeset="153360887" uid="6476359" user="NSiecw">
    <tag k="addr:city" v="Cambridge"/>
    <tag k="addr:housenumber" v="37"/>
    <tag k="addr:street" v="Turnpike Close"/>
    <tag k="addr:suburb" v="Needingworth"/>
  </node>
  <node id="12017527345" lat="52.3358349" lon="-0.0237410" version="2" timestamp="2024-06-30T09:40:30Z" changeset="153360887" uid="6476359" user="NSiecw">
    <tag k="addr:city" v="Cambridge"/>
    <tag k="addr:housenumber" v="33"/>
    <tag k="addr:street" v="Turnpike Close"/>
    <tag k="addr:suburb" v="Needingworth"/>
  </node>
  <node id="12017527346" lat="52.3358675" lon="-0.0237310" version="2" timestamp="2024-06-30T09:40:30Z" changeset="153360887" uid="6476359" user="NSiecw">
    <tag k="addr:city" v="Cambridge"/>
    <tag k="addr:housenumber" v="31"/>
    <tag k="addr:street" v="Turnpike Close"/>
    <tag k="addr:suburb" v="Needingworth"/>
  </node>
  <node id="12022542969" lat="52.3355857" lon="-0.0257375" version="1" timestamp="2024-06-30T09:40:30Z" changeset="153360887" uid="6476359" user="NSiecw">
    <tag k="addr:city" v="Cambridge"/>
    <tag k="addr:housenumber" v="9"/>
    <tag k="addr:street" v="Wilmer Way"/>
    <tag k="addr:suburb" v="Needingworth"/>
  </node>
  <node id="12022542970" lat="52.3355764" lon="-0.0256715" version="1" timestamp="2024-06-30T09:40:30Z" changeset="153360887" uid="6476359" user="NSiecw">
    <tag k="addr:city" v="Cambridge"/>
    <tag k="addr:housenumber" v="7"/>
    <tag k="addr:street" v="Wilmer Way"/>
    <tag k="addr:suburb" v="Needingworth"/>
  </node>
  <node id="12022542971" lat="52.3361676" lon="-0.0255521" version="1" timestamp="2024-06-30T09:40:30Z" changeset="153360887" uid="6476359" user="NSiecw">
    <tag k="addr:city" v="Cambridge"/>
    <tag k="addr:housenumber" v="14"/>
    <tag k="addr:street" v="Wilmer Way"/>
    <tag k="addr:suburb" v="Needingworth"/>
  </node>
  <node id="12022542972" lat="52.3361381" lon="-0.0255610" version="1" timestamp="2024-06-30T09:40:30Z" changeset="153360887" uid="6476359" user="NSiecw">
    <tag k="addr:city" v="Cambridge"/>
    <tag k="addr:housenumber" v="12"/>
    <tag k="addr:street" v="Wilmer Way"/>
    <tag k="addr:suburb" v="Needingworth"/>
  </node>
  <way id="4213995" version="9" timestamp="2023-12-26T17:47:52Z" changeset="145544035" uid="242345" user="confusedbuffalo">
    <nd ref="696526440"/>
    <nd ref="1170523066"/>
    <nd ref="2786117260"/>
    <nd ref="1170523069"/>
    <nd ref="2786117263"/>
    <nd ref="2525603199"/>
    <nd ref="1170523082"/>
    <nd ref="1170523073"/>
    <nd ref="24970981"/>
    <nd ref="1170523071"/>
    <nd ref="1170523065"/>
    <nd ref="1170523076"/>
    <nd ref="1170523088"/>
    <nd ref="24970982"/>
    <nd ref="1170523055"/>
    <nd ref="1170523056"/>
    <nd ref="24970983"/>
    <nd ref="2525603211"/>
    <nd ref="1170523087"/>
    <nd ref="2525603220"/>
    <nd ref="696526440"/>
    <tag k="highway" v="primary"/>
    <tag k="junction" v="roundabout"/>
    <tag k="maxspeed" v="60 mph"/>
    <tag k="maxspeed:type" v="GB:nsl_single"/>
    <tag k="ref" v="A1096"/>
    <tag k="surface" v="asphalt"/>
  </way>
  <way id="4213996" version="10" timestamp="2021-08-04T22:43:39Z" changeset="109166671" uid="1693722" user="andrewj720">
    <nd ref="24970983"/>
    <nd ref="1219108036"/>
    <nd ref="2786117258"/>
    <tag k="highway" v="primary"/>
    <tag k="junction" v="approach"/>
    <tag k="lanes" v="1"/>
    <tag k="maxspeed" v="60 mph"/>
    <tag k="maxspeed:type" v="GB:nsl_single"/>
    <tag k="oneway" v="yes"/>
    <tag k="ref" v="A1096"/>
    <tag k="surface" v="asphalt"/>
  </way>
  <way id="4214192" version="8" timestamp="2024-04-07T10:02:40Z" changeset="149685105" uid="5229644" user="Nathan_A_RF">
    <nd ref="24966037"/>
    <nd ref="35262630"/>
    <nd ref="24971042"/>
    <nd ref="11799406615"/>
    <nd ref="35262628"/>
    <nd ref="24966038"/>
    <nd ref="35262625"/>
    <nd ref="24966039"/>
    <nd ref="11799406613"/>
    <nd ref="725642060"/>
    <nd ref="2432856484"/>
    <nd ref="24966033"/>
    <nd ref="24971041"/>
    <nd ref="24966034"/>
    <nd ref="725642061"/>
    <nd ref="35262634"/>
    <nd ref="24971040"/>
    <nd ref="725642070"/>
    <nd ref="11799406614"/>
    <nd ref="5271951"/>
    <nd ref="24966037"/>
    <tag k="highway" v="primary"/>
    <tag k="junction" v="roundabout"/>
    <tag k="maxspeed" v="60 mph"/>
    <tag k="maxspeed:type" v="GB:nsl_single"/>
    <tag k="oneway" v="yes"/>
    <tag k="surface" v="asphalt"/>
  </way>
  <way id="4214193" version="5" timestamp="2015-04-05T17:26:35Z" changeset="29996889" uid="2675" user="Eckhart WÃ¶rner">
    <nd ref="24966195"/>
    <nd ref="3439561987"/>
    <nd ref="5271946"/>
    <nd ref="35262638"/>
    <nd ref="24966196"/>
    <nd ref="24966028"/>
    <nd ref="3439561990"/>
    <nd ref="3439561986"/>
    <nd ref="3439561983"/>
    <nd ref="24966193"/>
    <nd ref="3439561977"/>
    <nd ref="3439561975"/>
    <nd ref="24966029"/>
    <nd ref="347838848"/>
    <nd ref="24966191"/>
    <nd ref="24966027"/>
    <nd ref="3439561976"/>
    <nd ref="3439561980"/>
    <nd ref="3439561982"/>
    <nd ref="24966195"/>
    <tag k="highway" v="primary"/>
    <tag k="junction" v="roundabout"/>
    <tag k="maxspeed" v="60 mph"/>
    <tag k="maxspeed:type" v="GB:nsl_single"/>
    <tag k="oneway" v="yes"/>
  </way>
  <way id="4214195" version="16" timestamp="2024-04-07T10:02:40Z" changeset="149685105" uid="5229644" user="Nathan_A_RF">
    <nd ref="24966028"/>
    <nd ref="635403873"/>
    <nd ref="3439587094"/>
    <tag k="alt_name" v="Station Road"/>
    <tag k="highway" v="primary"/>
    <tag k="maxspeed" v="60 mph"/>
    <tag k="maxspeed:type" v="GB:nsl_single"/>
    <tag k="name" v="Needingworth Road"/>
    <tag k="oneway" v="yes"/>
    <tag k="ref" v="A1123"/>
  </way>
  <way id="4214206" version="15" timestamp="2021-08-26T13:28:05Z" changeset="110289039" uid="242345" user="confusedbuffalo">
    <nd ref="5271951"/>
    <nd ref="1463065613"/>
    <nd ref="2808173848"/>
    <nd ref="2786117070"/>
    <nd ref="2808173852"/>
    <nd ref="24966190"/>
    <nd ref="6522712535"/>
    <nd ref="5271949"/>
    <nd ref="6522712534"/>
    <nd ref="5271948"/>
    <nd ref="1528918564"/>
    <nd ref="635403733"/>
    <nd ref="1507205202"/>
    <nd ref="7994784414"/>
    <nd ref="3439561974"/>
    <tag k="highway" v="primary"/>
    <tag k="lanes" v="2"/>
    <tag k="maxspeed" v="60 mph"/>
    <tag k="maxspeed:type" v="GB:nsl_single"/>
    <tag k="name" v="Needingworth Road"/>
    <tag k="ref" v="A1123"/>
    <tag k="source:ref" v="npe"/>
    <tag k="surface" v="asphalt"/>
  </way>
  <way id="4215038" version="23" timestamp="2022-02-06T15:25:03Z" changeset="117083207" uid="11022773" user="GeoFens">
    <nd ref="24972765"/>
    <nd ref="1507202237"/>
    <nd ref="2795985804"/>
    <nd ref="24972766"/>
    <nd ref="9483666299"/>
    <nd ref="4377480737"/>
    <nd ref="4377480730"/>
    <nd ref="4377480723"/>
    <nd ref="24972767"/>
    <nd ref="8579074473"/>
    <nd ref="7994943822"/>
    <nd ref="1507205177"/>
    <nd ref="1305922515"/>
    <nd ref="4336806876"/>
    <nd ref="1305922510"/>
    <nd ref="4336806865"/>
    <nd ref="6837468425"/>
    <nd ref="1305922505"/>
    <nd ref="2810460934"/>
    <nd ref="4336806895"/>
    <nd ref="1305922490"/>
    <nd ref="1305922492"/>
    <nd ref="1305922480"/>
    <nd ref="1305922475"/>
    <nd ref="1305922473"/>
    <nd ref="1305922471"/>
    <nd ref="1305922463"/>
    <nd ref="1305922461"/>
    <tag k="highway" v="secondary"/>
    <tag k="maxspeed" v="60 mph"/>
    <tag k="maxspeed:type" v="GB:nsl_single"/>
    <tag k="name" v="Somersham Road"/>
    <tag k="ref" v="B1040"/>
    <tag k="source" v="survey"/>
  </way>
  <way id="31272013" version="8" timestamp="2024-04-07T10:02:40Z" changeset="149685105" uid="5229644" user="Nathan_A_RF">
    <nd ref="3439561977"/>
    <nd ref="3439561973"/>
    <nd ref="3439561970"/>
    <nd ref="3439561967"/>
    <tag k="highway" v="tertiary"/>
    <tag k="name" v="High Street"/>
    <tag k="oneway" v="yes"/>
    <tag k="source" v="survey"/>
  </way>
  <way id="31272014" version="7" timestamp="2021-08-04T10:53:24Z" changeset="109140245" uid="10455640" user="madnikhi">
    <nd ref="347838918"/>
    <nd ref="628094172"/>
    <nd ref="4161952697"/>
    <nd ref="347838919"/>
    <nd ref="347838926"/>
    <nd ref="347838927"/>
    <nd ref="8979639084"/>
    <nd ref="347838931"/>
    <nd ref="631172443"/>
    <nd ref="8630343945"/>
    <nd ref="347838935"/>
    <nd ref="4161952694"/>
    <nd ref="628094234"/>
    <nd ref="628094239"/>
    <tag k="highway" v="tertiary"/>
    <tag k="maxspeed" v="30 mph"/>
    <tag k="name" v="Bluntisham Road"/>
    <tag k="source" v="survey"/>
  </way>
  <way id="33915200" version="7" timestamp="2021-08-04T22:43:46Z" changeset="109166671" uid="1693722" user="andrewj720">
    <nd ref="2786117258"/>
    <nd ref="388592039"/>
    <nd ref="696526440"/>
    <tag k="highway" v="primary"/>
    <tag k="junction" v="approach"/>
    <tag k="lanes" v="1"/>
    <tag k="maxspeed" v="60 mph"/>
    <tag k="maxspeed:type" v="GB:nsl_single"/>
    <tag k="oneway" v="yes"/>
    <tag k="ref" v="A1096"/>
    <tag k="surface" v="asphalt"/>
  </way>
  <way id="33915201" version="6" timestamp="2023-12-26T17:47:51Z" changeset="145544035" uid="242345" user="confusedbuffalo">
    <nd ref="2786117265"/>
    <nd ref="24970981"/>
    <tag k="highway" v="primary"/>
    <tag k="junction" v="approach"/>
    <tag k="maxspeed" v="60 mph"/>
    <tag k="maxspeed:type" v="GB:nsl_single"/>
    <tag k="oneway" v="yes"/>
    <tag k="ref" v="A1096"/>
    <tag k="surface" v="asphalt"/>
  </way>
  <way id="33915669" version="6" timestamp="2023-12-26T17:47:50Z" changeset="145544035" uid="242345" user="confusedbuffalo">
    <nd ref="696526435"/>
    <nd ref="696526437"/>
    <nd ref="2786117267"/>
    <nd ref="24970979"/>
    <nd ref="2786117265"/>
    <tag k="highway" v="primary"/>
    <tag k="lanes" v="2"/>
    <tag k="maxspeed" v="60 mph"/>
    <tag k="maxspeed:type" v="GB:nsl_single"/>
    <tag k="name" v="Harrison Way"/>
    <tag k="ref" v="A1096"/>
    <tag k="surface" v="asphalt"/>
  </way>
  <way id="34150129" version="3" timestamp="2020-05-05T23:36:43Z" changeset="84721398" uid="5173844" user="ndrw6">
    <nd ref="391655111"/>
    <nd ref="391655112"/>
    <nd ref="391655113"/>
    <nd ref="391655114"/>
    <nd ref="391655115"/>
    <nd ref="391655116"/>
    <nd ref="628094149"/>
    <nd ref="628094153"/>
    <nd ref="628094155"/>
    <nd ref="628094158"/>
    <nd ref="7487604235"/>
    <nd ref="628094217"/>
    <tag k="highway" v="residential"/>
    <tag k="name" v="Willow Green"/>
  </way>
  <way id="34150130" version="4" timestamp="2010-02-05T23:32:40Z" changeset="3801672" uid="7098" user="richardm565">
    <nd ref="391655116"/>
    <nd ref="391655117"/>
    <nd ref="391655118"/>
    <nd ref="391655119"/>
    <nd ref="628096485"/>
    <nd ref="391655120"/>
    <nd ref="631172434"/>
    <nd ref="391655121"/>
    <nd ref="391655122"/>
    <nd ref="391655123"/>
    <nd ref="628094116"/>
    <nd ref="391655124"/>
    <nd ref="628094105"/>
    <nd ref="391655125"/>
    <nd ref="391655126"/>
    <nd ref="391655127"/>
    <nd ref="391655128"/>
    <tag k="highway" v="residential"/>
    <tag k="name" v="The Furlongs"/>
  </way>
  <way id="34150131" version="9" timestamp="2019-06-18T11:16:43Z" changeset="71361788" uid="9196102" user="pddondet">
    <nd ref="391655163"/>
    <nd ref="391655164"/>
    <nd ref="631977771"/>
    <nd ref="391655165"/>
    <nd ref="6555076359"/>
    <nd ref="1397331491"/>
    <nd ref="391655166"/>
    <nd ref="631172378"/>
    <nd ref="631977786"/>
    <nd ref="391655168"/>
    <nd ref="391655169"/>
    <nd ref="631977788"/>
    <nd ref="391655170"/>
    <nd ref="391655171"/>
    <nd ref="631977779"/>
    <nd ref="391655172"/>
    <nd ref="631977792"/>
    <nd ref="391655128"/>
    <nd ref="391655129"/>
    <nd ref="391655130"/>
    <nd ref="391655131"/>
    <tag k="highway" v="residential"/>
    <tag k="maxspeed" v="30 mph"/>
    <tag k="name" v="Overcote Lane"/>
  </way>
  <way id="34150132" version="5" timestamp="2021-08-24T10:27:48Z" changeset="110164628" uid="9196107" user="bashwith">
    <nd ref="391655174"/>
    <nd ref="391655175"/>
    <nd ref="391655176"/>
    <nd ref="631977761"/>
    <nd ref="391655177"/>
    <nd ref="391655178"/>
    <nd ref="9031785239"/>
    <nd ref="391655179"/>
    <nd ref="631977742"/>
    <nd ref="391655181"/>
    <nd ref="635403825"/>
    <nd ref="631977671"/>
    <nd ref="631977672"/>
    <tag k="highway" v="tertiary"/>
    <tag k="name" v="Church Street"/>
  </way>
  <way id="34150133" version="4" timestamp="2014-05-28T15:35:47Z" changeset="22602872" uid="1876487" user="Jordan Mann">
    <nd ref="391655243"/>
    <nd ref="635403765"/>
    <nd ref="2885469200"/>
    <nd ref="391655245"/>
    <nd ref="391655246"/>
    <nd ref="2885469195"/>
    <nd ref="391655247"/>
    <nd ref="391655248"/>
    <nd ref="391655200"/>
    <nd ref="391655201"/>
    <nd ref="391655202"/>
    <nd ref="391655203"/>
    <nd ref="2885469185"/>
    <nd ref="391655204"/>
    <nd ref="391655205"/>
    <nd ref="391655206"/>
    <nd ref="2885469177"/>
    <nd ref="391655207"/>
    <nd ref="391655208"/>
    <nd ref="391655209"/>
    <nd ref="2885469168"/>
    <nd ref="391655210"/>
    <nd ref="1755266307"/>
    <nd ref="391655211"/>
    <tag k="highway" v="residential"/>
    <tag k="name" v="Back Lane"/>
  </way>
  <way id="34150134" version="7" timestamp="2014-05-28T15:47:37Z" changeset="22603072" uid="1876487" user="Jordan Mann">
    <nd ref="391655211"/>
    <nd ref="1755266309"/>
    <nd ref="391655212"/>
    <nd ref="1842957953"/>
    <nd ref="391655213"/>
    <nd ref="391655214"/>
    <nd ref="1397412137"/>
    <nd ref="391655215"/>
    <nd ref="2885488225"/>
    <nd ref="391655216"/>
    <tag k="highway" v="residential"/>
    <tag k="name" v="Holywell Front"/>
  </way>
  <way id="34150135" version="5" timestamp="2023-12-23T00:02:38Z" changeset="145423708" uid="10420541" user="Thingummy">
    <nd ref="391655216"/>
    <nd ref="2885488211"/>
    <nd ref="2885488213"/>
    <nd ref="11445358584"/>
    <nd ref="391655252"/>
    <nd ref="391655253"/>
    <tag k="flood_prone" v="yes"/>
    <tag k="highway" v="residential"/>
    <tag k="name" v="Holywell Front"/>
  </way>
  <way id="49448964" version="8" timestamp="2023-08-18T14:13:35Z" changeset="140060219" uid="5173844" user="ndrw6">
    <nd ref="628094239"/>
    <nd ref="11125372280"/>
    <nd ref="347838936"/>
    <nd ref="4161732887"/>
    <nd ref="347838939"/>
    <nd ref="4161733589"/>
    <nd ref="347838941"/>
    <nd ref="3517362757"/>
    <nd ref="4161735182"/>
    <nd ref="4161735181"/>
    <nd ref="5712313598"/>
    <nd ref="4161732883"/>
    <nd ref="347838946"/>
    <nd ref="4161732885"/>
    <nd ref="347838953"/>
    <nd ref="347838955"/>
    <nd ref="631172455"/>
    <nd ref="347838957"/>
    <tag k="highway" v="tertiary"/>
    <tag k="name" v="Bluntisham Road"/>
    <tag k="source" v="survey"/>
  </way>
  <way id="49448965" version="7" timestamp="2022-06-04T17:30:20Z" changeset="121947718" uid="10420541" user="Thingummy">
    <nd ref="391655131"/>
    <nd ref="391655132"/>
    <nd ref="391655133"/>
    <nd ref="4161936874"/>
    <nd ref="4340931477"/>
    <nd ref="391655134"/>
    <nd ref="3517343778"/>
    <nd ref="391655135"/>
    <nd ref="391655136"/>
    <nd ref="391655137"/>
    <nd ref="391655138"/>
    <nd ref="9795207968"/>
    <tag k="highway" v="unclassified"/>
    <tag k="maxspeed" v="40 mph"/>
    <tag k="name" v="Overcote Lane"/>
  </way>
  <way id="49448966" version="9" timestamp="2024-04-26T22:43:24Z" changeset="150559651" uid="10420541" user="Thingummy">
    <nd ref="391655139"/>
    <nd ref="1397397447"/>
    <nd ref="391655154"/>
    <nd ref="11851520033"/>
    <nd ref="9458775250"/>
    <nd ref="631977799"/>
    <nd ref="2131012603"/>
    <nd ref="391655159"/>
    <nd ref="391655160"/>
    <tag k="highway" v="unclassified"/>
    <tag k="name" v="Overcote Lane"/>
  </way>
  <way id="49448968" version="3" timestamp="2020-05-05T23:36:43Z" changeset="84721398" uid="5173844" user="ndrw6">
    <nd ref="628094103"/>
    <nd ref="628094135"/>
    <nd ref="628094137"/>
    <nd ref="628094139"/>
    <nd ref="6153316887"/>
    <nd ref="6153316886"/>
    <nd ref="628094181"/>
    <nd ref="628094184"/>
    <nd ref="628094209"/>
    <nd ref="6153316780"/>
    <nd ref="7487606986"/>
    <nd ref="628094214"/>
    <tag k="highway" v="residential"/>
    <tag k="name" v="Old Farm Close"/>
  </way>
  <way id="49448971" version="11" timestamp="2025-01-13T12:13:21Z" changeset="161307170" uid="5229644" user="Nathan_A_RF">
    <nd ref="12497993224"/>
    <nd ref="347838868"/>
    <nd ref="2316606901"/>
    <nd ref="6888765798"/>
    <nd ref="347838870"/>
    <nd ref="635403833"/>
    <nd ref="347838871"/>
    <nd ref="347838872"/>
    <nd ref="347838875"/>
    <nd ref="347838879"/>
    <nd ref="347838885"/>
    <nd ref="347838887"/>
    <nd ref="631977749"/>
    <nd ref="347838888"/>
    <nd ref="635403828"/>
    <nd ref="347838891"/>
    <nd ref="2897408666"/>
    <nd ref="391655174"/>
    <nd ref="1397331498"/>
    <nd ref="347838896"/>
    <nd ref="391655163"/>
    <nd ref="631977770"/>
    <nd ref="631172375"/>
    <nd ref="347838901"/>
    <nd ref="2316606874"/>
    <nd ref="347838902"/>
    <nd ref="631172413"/>
    <nd ref="631172412"/>
    <nd ref="347838904"/>
    <nd ref="2316606960"/>
    <nd ref="347838907"/>
    <nd ref="631172424"/>
    <nd ref="631172421"/>
    <nd ref="347838908"/>
    <nd ref="631172429"/>
    <nd ref="391655111"/>
    <nd ref="347838909"/>
    <nd ref="347838910"/>
    <nd ref="4161952695"/>
    <nd ref="628094103"/>
    <nd ref="4161952692"/>
    <nd ref="347838917"/>
    <nd ref="4161952693"/>
    <nd ref="347838918"/>
    <tag k="highway" v="tertiary"/>
    <tag k="maxspeed" v="30 mph"/>
    <tag k="name" v="High Street"/>
    <tag k="source" v="survey"/>
    <tag k="surface" v="asphalt"/>
  </way>
  <way id="49448974" version="1" timestamp="2010-02-03T22:09:29Z" changeset="3786788" uid="7098" user="richardm565">
    <nd ref="628094169"/>
    <nd ref="628094223"/>
    <nd ref="628094226"/>
    <nd ref="628094228"/>
    <tag k="highway" v="residential"/>
    <tag k="name" v="Spinney Way"/>
  </way>
  <way id="49448976" version="2" timestamp="2018-12-22T12:00:30Z" changeset="65691655" uid="5173844" user="ndrw6">
    <nd ref="628094139"/>
    <nd ref="6153316888"/>
    <nd ref="628094141"/>
    <nd ref="628094143"/>
    <nd ref="628094145"/>
    <nd ref="628094147"/>
    <tag k="highway" v="residential"/>
    <tag k="name" v="Bedford Close"/>
  </way>
  <way id="49448977" version="2" timestamp="2020-05-05T23:36:43Z" changeset="84721398" uid="5173844" user="ndrw6">
    <nd ref="628094153"/>
    <nd ref="628094163"/>
    <nd ref="628094165"/>
    <nd ref="628094166"/>
    <nd ref="7487606993"/>
    <nd ref="628094167"/>
    <nd ref="628094169"/>
    <tag k="highway" v="residential"/>
    <tag k="name" v="Daintree"/>
  </way>
  <way id="49448978" version="1" timestamp="2010-02-03T22:09:29Z" changeset="3786788" uid="7098" user="richardm565">
    <nd ref="628094163"/>
    <nd ref="628094161"/>
    <tag k="highway" v="residential"/>
    <tag k="name" v="Daintree"/>
  </way>
  <way id="49448979" version="3" timestamp="2018-12-22T12:00:30Z" changeset="65691655" uid="5173844" user="ndrw6">
    <nd ref="628094105"/>
    <nd ref="6153317139"/>
    <nd ref="628094109"/>
    <nd ref="628094111"/>
    <nd ref="628094113"/>
    <nd ref="628094130"/>
    <tag k="highway" v="residential"/>
    <tag k="name" v="St Johns Close"/>
    <tag k="not:name" v="St John's Close"/>
  </way>
  <way id="49448980" version="4" timestamp="2020-05-05T18:56:56Z" changeset="84713857" uid="5173844" user="ndrw6">
    <nd ref="628094116"/>
    <nd ref="1397397398"/>
    <nd ref="628094088"/>
    <nd ref="4161952696"/>
    <nd ref="628094091"/>
    <nd ref="7486952754"/>
    <tag k="highway" v="residential"/>
    <tag k="name" v="Chapel Close"/>
  </way>
  <way id="49448981" version="2" timestamp="2013-05-23T01:36:40Z" changeset="16246330" uid="281267" user="smb1001">
    <nd ref="628094088"/>
    <nd ref="628094101"/>
    <nd ref="2316606877"/>
    <nd ref="628094119"/>
    <nd ref="628094123"/>
    <nd ref="628094125"/>
    <tag k="highway" v="residential"/>
    <tag k="name" v="Chapel Close"/>
  </way>
  <way id="49448982" version="2" timestamp="2010-02-05T23:32:40Z" changeset="3801672" uid="7098" user="richardm565">
    <nd ref="628094234"/>
    <nd ref="628094236"/>
    <nd ref="628094221"/>
    <nd ref="628094219"/>
    <tag k="highway" v="residential"/>
    <tag k="name" v="Bluntisham Road"/>
  </way>
  <way id="49448983" version="2" timestamp="2016-08-12T12:44:40Z" changeset="41410032" uid="2983218" user="LovenOutdoors">
    <nd ref="628094172"/>
    <nd ref="4347308862"/>
    <nd ref="628094178"/>
    <tag k="highway" v="residential"/>
    <tag k="name" v="Silverdale Close"/>
  </way>
  <way id="49448984" version="2" timestamp="2018-12-22T12:00:30Z" changeset="65691655" uid="5173844" user="ndrw6">
    <nd ref="628094226"/>
    <nd ref="6153316761"/>
    <nd ref="628094230"/>
    <nd ref="628094232"/>
    <tag k="highway" v="residential"/>
    <tag k="name" v="Spinney Way"/>
  </way>
  <way id="49449018" version="1" timestamp="2010-02-03T22:11:24Z" changeset="3786803" uid="7098" user="richardm565">
    <nd ref="628096485"/>
    <nd ref="628096487"/>
    <nd ref="628096489"/>
    <nd ref="628096490"/>
    <tag k="highway" v="residential"/>
    <tag k="name" v="Beldams"/>
  </way>
  <way id="49641894" version="2" timestamp="2022-12-12T06:59:51Z" changeset="129986713" uid="350183" user="Belseybob">
    <nd ref="631172460"/>
    <nd ref="631172455"/>
    <tag k="highway" v="tertiary"/>
    <tag k="name" v="Bluntisham Road"/>
    <tag k="oneway" v="yes"/>
    <tag k="source" v="survey"/>
    <tag k="surface" v="asphalt"/>
  </way>
  <way id="49641896" version="1" timestamp="2010-02-05T23:32:37Z" changeset="3801672" uid="7098" user="richardm565">
    <nd ref="631172424"/>
    <nd ref="631172418"/>
    <nd ref="631172419"/>
    <nd ref="631172437"/>
    <nd ref="631172432"/>
    <tag k="highway" v="residential"/>
    <tag k="name" v="Silver Lane"/>
  </way>
  <way id="49641897" version="3" timestamp="2020-05-05T18:56:56Z" changeset="84713857" uid="5173844" user="ndrw6">
    <nd ref="631172412"/>
    <nd ref="2316606944"/>
    <nd ref="7486952682"/>
    <nd ref="631172379"/>
    <tag k="highway" v="residential"/>
    <tag k="name" v="Senescalls"/>
  </way>
  <way id="49641901" version="3" timestamp="2018-12-22T12:00:30Z" changeset="65691655" uid="5173844" user="ndrw6">
    <nd ref="631172398"/>
    <nd ref="6153316906"/>
    <nd ref="631172400"/>
    <tag k="highway" v="residential"/>
    <tag k="name" v="Dales Way"/>
  </way>
  <way id="49641902" version="1" timestamp="2010-02-05T23:32:37Z" changeset="3801672" uid="7098" user="richardm565">
    <nd ref="631172422"/>
    <nd ref="631172426"/>
    <tag k="highway" v="residential"/>
    <tag k="name" v="Ravenscourt"/>
  </way>
  <way id="49641903" version="1" timestamp="2010-02-05T23:32:37Z" changeset="3801672" uid="7098" user="richardm565">
    <nd ref="631172427"/>
    <nd ref="631172426"/>
    <nd ref="631172428"/>
    <tag k="highway" v="residential"/>
    <tag k="name" v="Meeting Lane"/>
  </way>
  <way id="49641906" version="1" timestamp="2010-02-05T23:32:38Z" changeset="3801672" uid="7098" user="richardm565">
    <nd ref="631172406"/>
    <nd ref="631172401"/>
    <tag k="highway" v="residential"/>
    <tag k="name" v="Asplins Close"/>
  </way>
  <way id="49641907" version="3" timestamp="2020-05-05T18:56:56Z" changeset="84713857" uid="5173844" user="ndrw6">
    <nd ref="631172421"/>
    <nd ref="631172422"/>
    <nd ref="7486952932"/>
    <nd ref="631172414"/>
    <nd ref="631172416"/>
    <nd ref="631172397"/>
    <nd ref="6153316902"/>
    <nd ref="631172398"/>
    <nd ref="6153316907"/>
    <nd ref="631172408"/>
    <nd ref="6153316908"/>
    <nd ref="631172399"/>
    <tag k="highway" v="residential"/>
    <tag k="name" v="Townsend Road"/>
  </way>
  <way id="49641908" version="2" timestamp="2020-05-05T18:56:56Z" changeset="84713857" uid="5173844" user="ndrw6">
    <nd ref="631172406"/>
    <nd ref="7486952871"/>
    <nd ref="631172405"/>
    <nd ref="631172417"/>
    <tag k="highway" v="residential"/>
    <tag k="name" v="Asplins Avenue"/>
  </way>
  <way id="49641909" version="2" timestamp="2018-12-22T12:00:30Z" changeset="65691655" uid="5173844" user="ndrw6">
    <nd ref="631172418"/>
    <nd ref="6153316924"/>
    <nd ref="6153316923"/>
    <nd ref="631172425"/>
    <tag k="highway" v="residential"/>
    <tag k="name" v="Fews Close"/>
  </way>
  <way id="49728426" version="2" timestamp="2018-12-22T12:00:30Z" changeset="65691655" uid="5173844" user="ndrw6">
    <nd ref="631977788"/>
    <nd ref="631977774"/>
    <nd ref="631977775"/>
    <nd ref="6153317153"/>
    <nd ref="631977720"/>
    <tag k="highway" v="residential"/>
    <tag k="name" v="Harris Crescent"/>
  </way>
  <way id="49728427" version="4" timestamp="2018-12-22T12:00:30Z" changeset="65691655" uid="5173844" user="ndrw6">
    <nd ref="631977792"/>
    <nd ref="631977790"/>
    <nd ref="2316606879"/>
    <nd ref="631977726"/>
    <nd ref="631977727"/>
    <nd ref="6153317147"/>
    <nd ref="631977728"/>
    <nd ref="4340924346"/>
    <nd ref="6153317144"/>
    <nd ref="631977729"/>
    <nd ref="6153317145"/>
    <nd ref="6153317146"/>
    <nd ref="631977791"/>
    <tag k="highway" v="residential"/>
    <tag k="name" v="Ashton Close"/>
  </way>
  <way id="49728429" version="4" timestamp="2020-05-05T14:02:25Z" changeset="84700323" uid="5173844" user="ndrw6">
    <nd ref="631977720"/>
    <nd ref="6153317154"/>
    <nd ref="631977721"/>
    <nd ref="7485825798"/>
    <nd ref="631977677"/>
    <nd ref="1397331503"/>
    <nd ref="1397331514"/>
    <nd ref="631977671"/>
    <tag k="highway" v="residential"/>
    <tag k="name" v="Harris Crescent"/>
  </way>
  <way id="49728430" version="7" timestamp="2021-08-24T10:27:48Z" changeset="110164628" uid="9196107" user="bashwith">
    <nd ref="631977672"/>
    <nd ref="2316606967"/>
    <nd ref="9031785244"/>
    <nd ref="391655184"/>
    <nd ref="391655185"/>
    <nd ref="391655186"/>
    <nd ref="391655187"/>
    <nd ref="391655188"/>
    <nd ref="391655189"/>
    <nd ref="631977655"/>
    <nd ref="391655190"/>
    <nd ref="391655191"/>
    <nd ref="391655192"/>
    <nd ref="635403772"/>
    <nd ref="391655193"/>
    <nd ref="391655194"/>
    <nd ref="1116710989"/>
    <nd ref="391655195"/>
    <nd ref="391655196"/>
    <nd ref="635403770"/>
    <tag k="highway" v="tertiary"/>
    <tag k="name" v="Mill Way"/>
  </way>
  <way id="49728436" version="3" timestamp="2018-12-22T12:00:31Z" changeset="65691655" uid="5173844" user="ndrw6">
    <nd ref="631977727"/>
    <nd ref="6153317150"/>
    <nd ref="631977714"/>
    <nd ref="2316606878"/>
    <nd ref="631977715"/>
    <nd ref="6153317152"/>
    <nd ref="631977716"/>
    <tag k="highway" v="residential"/>
    <tag k="name" v="Ashton Close"/>
  </way>
  <way id="49728438" version="2" timestamp="2018-12-22T12:00:31Z" changeset="65691655" uid="5173844" user="ndrw6">
    <nd ref="631977728"/>
    <nd ref="631977730"/>
    <nd ref="631977731"/>
    <nd ref="631977733"/>
    <nd ref="6153317148"/>
    <nd ref="631977736"/>
    <tag k="highway" v="residential"/>
    <tag k="name" v="Ashton Close"/>
  </way>
  <way id="49728440" version="1" timestamp="2010-02-06T22:44:55Z" changeset="3809764" uid="7098" user="richardm565">
    <nd ref="631977712"/>
    <nd ref="631977717"/>
    <nd ref="631977718"/>
    <nd ref="631977719"/>
    <nd ref="631977716"/>
    <tag k="highway" v="residential"/>
    <tag k="name" v="Bramley Avenue"/>
  </way>
  <way id="49728442" version="1" timestamp="2010-02-06T22:44:55Z" changeset="3809764" uid="7098" user="richardm565">
    <nd ref="631977674"/>
    <nd ref="631977675"/>
    <tag k="highway" v="residential"/>
    <tag k="name" v="Russett Avenue"/>
  </way>
  <way id="49728443" version="2" timestamp="2023-02-09T18:57:47Z" changeset="132323273" uid="10633286" user="Moorit">
    <nd ref="631977691"/>
    <nd ref="631977695"/>
    <nd ref="631977713"/>
    <tag k="highway" v="residential"/>
    <tag k="name" v="Russett Avenue"/>
  </way>
  <way id="49728445" version="3" timestamp="2023-02-09T18:57:47Z" changeset="132323273" uid="10633286" user="Moorit">
    <nd ref="631977723"/>
    <nd ref="631977691"/>
    <nd ref="631977724"/>
    <nd ref="631977679"/>
    <tag k="highway" v="residential"/>
    <tag k="name" v="Russett Avenue"/>
  </way>
  <way id="49728446" version="3" timestamp="2020-05-05T14:02:25Z" changeset="84700323" uid="5173844" user="ndrw6">
    <nd ref="7485518987"/>
    <nd ref="631977679"/>
    <nd ref="631977674"/>
    <nd ref="631977693"/>
    <nd ref="631977694"/>
    <nd ref="631977687"/>
    <nd ref="631977689"/>
    <nd ref="7485825249"/>
    <nd ref="631977705"/>
    <tag k="highway" v="residential"/>
    <tag k="name" v="Russett Avenue"/>
  </way>
  <way id="49728447" version="1" timestamp="2010-02-06T22:44:56Z" changeset="3809764" uid="7098" user="richardm565">
    <nd ref="631977716"/>
    <nd ref="631977723"/>
    <nd ref="631977720"/>
    <tag k="highway" v="residential"/>
    <tag k="name" v="Bramley Avenue"/>
  </way>
  <way id="49728448" version="2" timestamp="2020-05-05T14:02:25Z" changeset="84700323" uid="5173844" user="ndrw6">
    <nd ref="391655177"/>
    <nd ref="631977744"/>
    <nd ref="7485824987"/>
    <nd ref="631977745"/>
    <nd ref="631977746"/>
    <nd ref="631977747"/>
    <nd ref="631977749"/>
    <tag k="highway" v="residential"/>
    <tag k="name" v="Hawkes Lane"/>
    <tag k="oneway" v="yes"/>
  </way>
  <way id="49728451" version="3" timestamp="2020-05-05T14:02:25Z" changeset="84700323" uid="5173844" user="ndrw6">
    <nd ref="631977770"/>
    <nd ref="631977771"/>
    <tag k="highway" v="residential"/>
    <tag k="maxspeed" v="30 mph"/>
    <tag k="name" v="Overcote Lane"/>
    <tag k="oneway" v="yes"/>
  </way>
  <way id="49728455" version="1" timestamp="2010-02-06T22:44:58Z" changeset="3809764" uid="7098" user="richardm565">
    <nd ref="631977761"/>
    <nd ref="631977762"/>
    <tag k="highway" v="residential"/>
    <tag k="name" v="The Maltings"/>
  </way>
  <way id="50030868" version="7" timestamp="2019-09-24T07:37:17Z" changeset="74839551" uid="10219370" user="rathjoth">
    <nd ref="635403789"/>
    <nd ref="4161963688"/>
    <nd ref="635403714"/>
    <nd ref="635403716"/>
    <nd ref="4161963686"/>
    <nd ref="635403718"/>
    <nd ref="4161963687"/>
    <nd ref="635403720"/>
    <nd ref="635403723"/>
    <nd ref="2781234419"/>
    <nd ref="2781234420"/>
    <nd ref="6819268456"/>
    <nd ref="6483362014"/>
    <nd ref="2781234421"/>
    <tag k="highway" v="unclassified"/>
  </way>
  <way id="50030869" version="3" timestamp="2016-08-08T08:48:18Z" changeset="41319137" uid="2983218" user="LovenOutdoors">
    <nd ref="635403720"/>
    <nd ref="635403728"/>
    <nd ref="635403732"/>
    <tag k="highway" v="unclassified"/>
  </way>
  <way id="50030875" version="3" timestamp="2014-05-28T15:58:54Z" changeset="22603282" uid="1876487" user="Jordan Mann">
    <nd ref="391655243"/>
    <nd ref="2316606881"/>
    <nd ref="635403756"/>
    <nd ref="2885501758"/>
    <nd ref="635403759"/>
    <tag k="highway" v="residential"/>
    <tag k="name" v="Conger Lane"/>
  </way>
  <way id="50030877" version="3" timestamp="2016-07-03T15:30:52Z" changeset="40460640" uid="242345" user="confusedbuffalo">
    <nd ref="635403770"/>
    <nd ref="391655199"/>
    <nd ref="391655200"/>
    <tag k="highway" v="tertiary"/>
    <tag k="maxspeed" v="30 mph"/>
    <tag k="name" v="Mill Way"/>
  </way>
  <way id="50030882" version="3" timestamp="2020-05-05T14:02:25Z" changeset="84700323" uid="5173844" user="ndrw6">
    <nd ref="635403828"/>
    <nd ref="635403829"/>
    <nd ref="635403852"/>
    <nd ref="635403853"/>
    <nd ref="635403854"/>
    <nd ref="635403857"/>
    <nd ref="2897409709"/>
    <nd ref="7485824477"/>
    <nd ref="635403904"/>
    <tag k="highway" v="residential"/>
    <tag k="name" v="Priory Road"/>
  </way>
  <way id="50030884" version="2" timestamp="2016-08-08T11:32:50Z" changeset="41322136" uid="2983218" user="LovenOutdoors">
    <nd ref="347838871"/>
    <nd ref="635403841"/>
    <nd ref="4340953589"/>
    <nd ref="635403831"/>
    <nd ref="4340953087"/>
    <nd ref="4340953088"/>
    <nd ref="4340953086"/>
    <tag k="highway" v="residential"/>
    <tag k="maxspeed" v="30 mph"/>
    <tag k="name" v="Kestrel Court"/>
    <tag k="surface" v="asphalt"/>
  </way>
  <way id="50030885" version="2" timestamp="2016-08-08T11:32:50Z" changeset="41322136" uid="2983218" user="LovenOutdoors">
    <nd ref="635403841"/>
    <nd ref="635403820"/>
    <nd ref="635403816"/>
    <tag k="highway" v="residential"/>
    <tag k="maxspeed" v="30 mph"/>
    <tag k="name" v="Pound Hill Close"/>
    <tag k="surface" v="asphalt"/>
  </way>
  <way id="50030887" version="2" timestamp="2014-06-03T16:28:44Z" changeset="22717970" uid="1876487" user="Jordan Mann">
    <nd ref="635403854"/>
    <nd ref="2897409705"/>
    <nd ref="635403859"/>
    <nd ref="635403862"/>
    <nd ref="635403865"/>
    <tag k="highway" v="residential"/>
    <tag k="name" v="Priory Road"/>
  </way>
  <way id="50030888" version="2" timestamp="2018-12-22T12:00:31Z" changeset="65691655" uid="5173844" user="ndrw6">
    <nd ref="6153316979"/>
    <nd ref="635403865"/>
    <nd ref="635403867"/>
    <nd ref="635403870"/>
    <nd ref="635403871"/>
    <nd ref="635403851"/>
    <tag k="highway" v="residential"/>
    <tag k="name" v="Priory Close"/>
  </way>
  <way id="50030889" version="1" timestamp="2010-02-10T23:14:27Z" changeset="3844647" uid="7098" user="richardm565">
    <nd ref="635403888"/>
    <nd ref="635403890"/>
    <nd ref="635403891"/>
    <nd ref="635403893"/>
    <nd ref="635403894"/>
    <nd ref="635403896"/>
    <nd ref="635403898"/>
    <tag k="highway" v="unclassified"/>
    <tag k="name" v="Lowndes Drove"/>
  </way>
  <way id="101367086" version="5" timestamp="2020-05-13T18:23:38Z" changeset="85159722" uid="11174795" user="Biker44">
    <nd ref="2269882509"/>
    <nd ref="2808173822"/>
    <nd ref="2269882506"/>
    <nd ref="2269882519"/>
    <nd ref="7515540398"/>
    <tag k="highway" v="unclassified"/>
    <tag k="name" v="Parsons Green"/>
  </way>
  <way id="103337323" version="1" timestamp="2011-03-08T21:19:08Z" changeset="7498656" uid="38828" user="Shane28R">
    <nd ref="1193389049"/>
    <nd ref="1193389045"/>
    <nd ref="631977742"/>
    <tag k="highway" v="residential"/>
    <tag k="name" v="Cinders Close"/>
  </way>
  <way id="125927106" version="1" timestamp="2011-08-13T17:04:29Z" changeset="9007327" uid="90142" user="andy mackey">
    <nd ref="391655181"/>
    <nd ref="1397331502"/>
    <nd ref="1397331518"/>
    <nd ref="631977743"/>
    <tag k="highway" v="residential"/>
    <tag k="name" v="Park View"/>
  </way>
  <way id="125927107" version="1" timestamp="2011-08-13T17:04:29Z" changeset="9007327" uid="90142" user="andy mackey">
    <nd ref="631977743"/>
    <nd ref="631977755"/>
    <nd ref="631977757"/>
    <nd ref="631977759"/>
    <nd ref="631977760"/>
    <tag k="highway" v="residential"/>
    <tag k="name" v="Park View"/>
  </way>
  <way id="125936495" version="11" timestamp="2024-11-02T14:48:25Z" changeset="158662019" uid="10420541" user="Thingummy">
    <nd ref="1397397399"/>
    <nd ref="1397397443"/>
    <nd ref="1397397400"/>
    <nd ref="1397397480"/>
    <nd ref="1397397462"/>
    <nd ref="1397397404"/>
    <nd ref="1397397446"/>
    <nd ref="1397397406"/>
    <nd ref="11445358573"/>
    <nd ref="11445358581"/>
    <nd ref="1397397397"/>
    <nd ref="11445358575"/>
    <nd ref="2885488224"/>
    <nd ref="11445358577"/>
    <nd ref="1397397454"/>
    <nd ref="2885488229"/>
    <nd ref="11445358582"/>
    <nd ref="1397397399"/>
    <tag k="addr:city" v="St Ives"/>
    <tag k="addr:postcode" v="PE27 4TG"/>
    <tag k="addr:street" v="Holywell Front"/>
    <tag k="addr:village" v="Holywell"/>
    <tag k="amenity" v="restaurant"/>
    <tag k="bar" v="yes"/>
    <tag k="beer_garden" v="yes"/>
    <tag k="building" v="pub"/>
    <tag k="food" v="yes"/>
    <tag k="heritage" v="2"/>
    <tag k="heritage:operator" v="he"/>
    <tag k="name" v="The Old Ferry Boat"/>
    <tag k="official_name" v="Ferry Boat Inn"/>
    <tag k="ref:GB:nhle" v="1128427"/>
    <tag k="tourism" v="hotel"/>
    <tag k="website" v="https://www.greeneking.co.uk/pubs/cambridgeshire/old-ferry-boat"/>
    <tag k="wikidata" v="Q26421296"/>
  </way>
  <way id="130194002" version="5" timestamp="2023-12-23T00:02:38Z" changeset="145423708" uid="10420541" user="Thingummy">
    <nd ref="391655216"/>
    <nd ref="391655217"/>
    <nd ref="391655218"/>
    <nd ref="391655219"/>
    <nd ref="2885487692"/>
    <nd ref="1397412148"/>
    <nd ref="391655220"/>
    <nd ref="391655221"/>
    <nd ref="391655222"/>
    <nd ref="2885488233"/>
    <nd ref="391655225"/>
    <nd ref="2885488244"/>
    <nd ref="391655226"/>
    <tag k="flood_prone" v="yes"/>
    <tag k="highway" v="residential"/>
    <tag k="name" v="Holywell Front"/>
  </way>
  <way id="130194007" version="2" timestamp="2014-05-28T15:35:47Z" changeset="22602872" uid="1876487" user="Jordan Mann">
    <nd ref="391655235"/>
    <nd ref="635403747"/>
    <nd ref="391655236"/>
    <nd ref="391655237"/>
    <nd ref="391655238"/>
    <nd ref="1397412173"/>
    <nd ref="391655239"/>
    <nd ref="391655240"/>
    <nd ref="1397412144"/>
    <nd ref="1397412232"/>
    <nd ref="1397412152"/>
    <nd ref="391655241"/>
    <nd ref="391655243"/>
    <tag k="highway" v="residential"/>
    <tag k="name" v="Holywell Front"/>
  </way>
  <way id="132966868" version="3" timestamp="2018-03-22T22:37:18Z" changeset="57439938" uid="5173844" user="ndrw6">
    <nd ref="1463065613"/>
    <nd ref="5497704664"/>
    <nd ref="1463065603"/>
    <nd ref="1463065579"/>
    <tag k="highway" v="unclassified"/>
  </way>
  <way id="146411806" version="6" timestamp="2022-02-06T16:08:01Z" changeset="117084938" uid="11022773" user="GeoFens">
    <nd ref="2794759115"/>
    <nd ref="2794759114"/>
    <nd ref="2781612855"/>
    <nd ref="1596833873"/>
    <nd ref="1596833869"/>
    <nd ref="2794759112"/>
    <nd ref="2794759110"/>
    <nd ref="1596833864"/>
    <nd ref="1596833866"/>
    <nd ref="2794759115"/>
    <tag k="abutters" v="Monsal Works"/>
    <tag k="addr:city" v="St Ives"/>
    <tag k="addr:postcode" v="PE27 3LY"/>
    <tag k="addr:street" v="Somersham Road"/>
    <tag k="landuse" v="industrial"/>
    <tag k="name" v="Monsal Works"/>
  </way>
  <way id="146538328" version="7" timestamp="2024-05-23T14:31:01Z" changeset="151726709" uid="13600075" user="Shilie Jackson">
    <nd ref="2786117258"/>
    <nd ref="696526442"/>
    <nd ref="24970990"/>
    <nd ref="2786117256"/>
    <nd ref="696526444"/>
    <nd ref="696526445"/>
    <nd ref="2786117255"/>
    <nd ref="696526447"/>
    <nd ref="696526450"/>
    <nd ref="696526452"/>
    <nd ref="2786117253"/>
    <nd ref="696526454"/>
    <nd ref="24971000"/>
    <nd ref="5541298866"/>
    <tag k="highway" v="primary"/>
    <tag k="lanes" v="2"/>
    <tag k="maxspeed" v="60 mph"/>
    <tag k="maxspeed:type" v="GB:nsl_single"/>
    <tag k="name" v="Harrison Way"/>
    <tag k="ref" v="A1096"/>
    <tag k="surface" v="asphalt"/>
  </way>
  <way id="154376055" version="5" timestamp="2024-04-26T22:43:24Z" changeset="150559651" uid="10420541" user="Thingummy">
    <nd ref="1669174262"/>
    <nd ref="11655928062"/>
    <nd ref="8402266474"/>
    <nd ref="11655928060"/>
    <nd ref="11655928059"/>
    <nd ref="11851520022"/>
    <nd ref="11851520023"/>
    <nd ref="1669174266"/>
    <nd ref="11851520025"/>
    <nd ref="1669174284"/>
    <nd ref="1669174265"/>
    <nd ref="1669174270"/>
    <nd ref="1669174268"/>
    <nd ref="1669174276"/>
    <nd ref="1669174269"/>
    <nd ref="1669174267"/>
    <nd ref="1669174263"/>
    <nd ref="1669174283"/>
    <nd ref="1669174280"/>
    <nd ref="11655928061"/>
    <nd ref="1669174262"/>
    <tag k="addr:city" v="St Ives"/>
    <tag k="addr:postcode" v="PE27 4TW"/>
    <tag k="addr:street" v="Overcote Lane"/>
    <tag k="amenity" v="restaurant"/>
    <tag k="bar" v="yes"/>
    <tag k="building" v="inn"/>
    <tag k="contact:email" v="reservations@pikeandeel.com"/>
    <tag k="email" v="enquiries@pikeandeel.com"/>
    <tag k="internet_access" v="yes"/>
    <tag k="name" v="Pike and Eel Hotel"/>
    <tag k="phone" v="+44 1480 463 336"/>
    <tag k="reservation" v="yes"/>
    <tag k="rooms" v="8"/>
    <tag k="start_date" v="~C17;~1608"/>
    <tag k="tourism" v="hotel"/>
    <tag k="website" v="https://www.pikeandeel.com/"/>
  </way>
  <way id="173495426" version="2" timestamp="2021-04-04T08:30:12Z" changeset="102260999" uid="12994418" user="Runner83">
    <nd ref="1842957953"/>
    <nd ref="1842957951"/>
    <nd ref="1842957949"/>
    <nd ref="1842957947"/>
    <nd ref="1842957945"/>
    <tag k="highway" v="residential"/>
    <tag k="name" v="Ferry Meadow"/>
    <tag k="source" v="survey"/>
  </way>
  <way id="217129260" version="12" timestamp="2024-05-21T13:07:43Z" changeset="151627949" uid="95856" user="john paul jones &amp; gringo">
    <nd ref="2794759134"/>
    <nd ref="2794759150"/>
    <nd ref="2794759163"/>
    <nd ref="2264336351"/>
    <nd ref="1507202394"/>
    <nd ref="1507202290"/>
    <nd ref="2796080292"/>
    <nd ref="2794759178"/>
    <nd ref="2794759176"/>
    <nd ref="303715436"/>
    <nd ref="2781612897"/>
    <nd ref="11523278490"/>
    <nd ref="11523278491"/>
    <nd ref="2794758959"/>
    <nd ref="2794758961"/>
    <nd ref="2794758963"/>
    <nd ref="2796077745"/>
    <nd ref="2794758965"/>
    <nd ref="2794759098"/>
    <nd ref="2796077749"/>
    <nd ref="2794759101"/>
    <nd ref="2794759103"/>
    <nd ref="2794759100"/>
    <nd ref="2794759138"/>
    <nd ref="2794759136"/>
    <nd ref="2794759105"/>
    <nd ref="2794759134"/>
    <tag k="addr:city" v="St Ives"/>
    <tag k="addr:postcode" v="PE27 4NB"/>
    <tag k="addr:street" v="Needingworth Road"/>
    <tag k="addr:suburb" v="Needingworth"/>
    <tag k="description" v="18 hole Par 72"/>
    <tag k="leisure" v="golf_course"/>
    <tag k="name" v="St Ives Golf Club"/>
    <tag k="phone" v="+44 1480 499920"/>
    <tag k="website" v="https://www.stivesgolfclub.co.uk/"/>
  </way>
  <way id="222716788" version="2" timestamp="2018-12-22T12:00:31Z" changeset="65691655" uid="5173844" user="ndrw6">
    <nd ref="2316606959"/>
    <nd ref="6153317155"/>
    <nd ref="2316606879"/>
    <tag k="highway" v="residential"/>
  </way>
  <way id="222716799" version="2" timestamp="2018-12-22T12:00:31Z" changeset="65691655" uid="5173844" user="ndrw6">
    <nd ref="2316606924"/>
    <nd ref="6153317156"/>
    <nd ref="2316606932"/>
    <nd ref="6153317151"/>
    <nd ref="2316606878"/>
    <tag k="highway" v="residential"/>
  </way>
  <way id="245350044" version="4" timestamp="2024-05-29T11:25:40Z" changeset="151984117" uid="95856" user="john paul jones &amp; gringo">
    <nd ref="2525603217"/>
    <nd ref="2525603172"/>
    <nd ref="2525603183"/>
    <nd ref="2525603169"/>
    <nd ref="2525603190"/>
    <nd ref="2525603165"/>
    <nd ref="2525603214"/>
    <nd ref="2525603184"/>
    <nd ref="2525603166"/>
    <nd ref="2525603168"/>
    <nd ref="2525603159"/>
    <nd ref="2525603170"/>
    <nd ref="2525603178"/>
    <nd ref="2525603156"/>
    <nd ref="2525603217"/>
    <tag k="addr:city" v="St Ives"/>
    <tag k="addr:country" v="GB"/>
    <tag k="addr:housename" v="Si One"/>
    <tag k="addr:postcode" v="PE27 4AA"/>
    <tag k="addr:street" v="Parsons Green"/>
    <tag k="building" v="yes"/>
    <tag k="building:levels" v="3"/>
    <tag k="name" v="Si One"/>
    <tag k="wheelchair" v="yes"/>
  </way>
  <way id="276195395" version="5" timestamp="2024-02-26T02:48:55Z" changeset="147914582" uid="10420541" user="Thingummy">
    <nd ref="2269882509"/>
    <nd ref="5497704700"/>
    <nd ref="2808173824"/>
    <nd ref="2808173825"/>
    <nd ref="2808173826"/>
    <nd ref="5497739896"/>
    <nd ref="5497739897"/>
    <nd ref="2808173827"/>
    <nd ref="5497739895"/>
    <nd ref="6522750601"/>
    <nd ref="5497704660"/>
    <nd ref="11664090051"/>
    <nd ref="5497739899"/>
    <nd ref="11664090052"/>
    <nd ref="2808173828"/>
    <tag k="highway" v="unclassified"/>
  </way>
  <way id="276465762" version="5" timestamp="2024-05-29T09:55:34Z" changeset="151980045" uid="95856" user="john paul jones &amp; gringo">
    <nd ref="2810622611"/>
    <nd ref="2810622574"/>
    <nd ref="2810622614"/>
    <nd ref="2810622609"/>
    <nd ref="2810622610"/>
    <nd ref="2810622617"/>
    <nd ref="2810622618"/>
    <nd ref="2810622619"/>
    <nd ref="2810622620"/>
    <nd ref="2810622611"/>
    <tag k="addr:city" v="St Ives"/>
    <tag k="addr:country" v="GB"/>
    <tag k="addr:postcode" v="PE27 4TF"/>
    <tag k="addr:street" v="Mill Way"/>
    <tag k="addr:suburb" v="Needingworth"/>
    <tag k="landuse" v="recreation_ground"/>
    <tag k="name" v="Millfields Recreation Ground"/>
    <tag k="surface" v="grass"/>
  </way>
  <way id="336875773" version="15" timestamp="2020-03-18T08:41:42Z" changeset="82338372" uid="10455640" user="madnikhi">
    <nd ref="3439587094"/>
    <nd ref="3439587095"/>
    <nd ref="635403888"/>
    <nd ref="5271945"/>
    <nd ref="4161732888"/>
    <nd ref="347838957"/>
    <nd ref="631172460"/>
    <nd ref="4161732886"/>
    <nd ref="4185827959"/>
    <nd ref="4161732884"/>
    <nd ref="5712313596"/>
    <nd ref="35262640"/>
    <nd ref="4347377605"/>
    <nd ref="3673473524"/>
    <nd ref="4347377180"/>
    <nd ref="5271943"/>
    <nd ref="4347377178"/>
    <nd ref="4161927018"/>
    <nd ref="4347377620"/>
    <nd ref="4161927015"/>
    <nd ref="4161927017"/>
    <nd ref="7305423538"/>
    <nd ref="24971044"/>
    <nd ref="4161757616"/>
    <nd ref="7037461592"/>
    <nd ref="4161757611"/>
    <nd ref="35262643"/>
    <nd ref="4161757609"/>
    <nd ref="35262649"/>
    <nd ref="3673476933"/>
    <nd ref="5686302870"/>
    <nd ref="5271942"/>
    <nd ref="4161757610"/>
    <nd ref="35262651"/>
    <nd ref="4161757607"/>
    <nd ref="24971045"/>
    <nd ref="24971046"/>
    <nd ref="35262653"/>
    <nd ref="5271941"/>
    <nd ref="35262657"/>
    <nd ref="35262659"/>
    <nd ref="24971047"/>
    <nd ref="4161935594"/>
    <tag k="alt_name" v="Station Road"/>
    <tag k="highway" v="primary"/>
    <tag k="lanes" v="2"/>
    <tag k="maxspeed" v="60 mph"/>
    <tag k="maxspeed:type" v="GB:nsl_single"/>
    <tag k="name" v="Needingworth Road"/>
    <tag k="ref" v="A1123"/>
    <tag k="surface" v="asphalt"/>
  </way>
  <way id="336875775" version="4" timestamp="2024-04-07T10:02:40Z" changeset="149685105" uid="5229644" user="Nathan_A_RF">
    <nd ref="24966027"/>
    <nd ref="1121915493"/>
    <nd ref="3439561974"/>
    <tag k="highway" v="primary"/>
    <tag k="maxspeed" v="60 mph"/>
    <tag k="maxspeed:type" v="GB:nsl_single"/>
    <tag k="name" v="Needingworth Road"/>
    <tag k="oneway" v="yes"/>
    <tag k="ref" v="A1123"/>
    <tag k="source:ref" v="npe"/>
    <tag k="surface" v="asphalt"/>
  </way>
  <way id="336875777" version="4" timestamp="2024-04-07T10:02:40Z" changeset="149685105" uid="5229644" user="Nathan_A_RF">
    <nd ref="3439561974"/>
    <nd ref="3439561978"/>
    <nd ref="3439561982"/>
    <tag k="highway" v="primary"/>
    <tag k="maxspeed" v="60 mph"/>
    <tag k="maxspeed:type" v="GB:nsl_single"/>
    <tag k="name" v="Needingworth Road"/>
    <tag k="oneway" v="yes"/>
    <tag k="ref" v="A1123"/>
    <tag k="source:ref" v="npe"/>
    <tag k="surface" v="asphalt"/>
  </way>
  <way id="336875778" version="2" timestamp="2024-04-07T10:02:40Z" changeset="149685105" uid="5229644" user="Nathan_A_RF">
    <nd ref="3439587094"/>
    <nd ref="3439561989"/>
    <nd ref="3439561985"/>
    <nd ref="3439561983"/>
    <tag k="alt_name" v="Station Road"/>
    <tag k="highway" v="primary"/>
    <tag k="maxspeed" v="60 mph"/>
    <tag k="maxspeed:type" v="GB:nsl_single"/>
    <tag k="name" v="Needingworth Road"/>
    <tag k="oneway" v="yes"/>
    <tag k="ref" v="A1123"/>
  </way>
  <way id="336875780" version="6" timestamp="2025-01-13T12:13:21Z" changeset="161307170" uid="5229644" user="Nathan_A_RF">
    <nd ref="3439561967"/>
    <nd ref="347838857"/>
    <nd ref="635403789"/>
    <nd ref="4161963685"/>
    <nd ref="347838858"/>
    <nd ref="4161964690"/>
    <nd ref="347838861"/>
    <nd ref="4161964689"/>
    <nd ref="347838864"/>
    <nd ref="635403784"/>
    <nd ref="347838865"/>
    <nd ref="635403809"/>
    <nd ref="12497993224"/>
    <tag k="highway" v="tertiary"/>
    <tag k="name" v="High Street"/>
    <tag k="source" v="survey"/>
    <tag k="surface" v="asphalt"/>
  </way>
  <way id="336875781" version="2" timestamp="2024-04-07T10:02:40Z" changeset="149685105" uid="5229644" user="Nathan_A_RF">
    <nd ref="3439561967"/>
    <nd ref="1121915535"/>
    <nd ref="347838848"/>
    <tag k="highway" v="tertiary"/>
    <tag k="name" v="High Street"/>
    <tag k="oneway" v="yes"/>
    <tag k="source" v="survey"/>
  </way>
  <way id="345037426" version="3" timestamp="2024-05-21T13:12:20Z" changeset="151628164" uid="95856" user="john paul jones &amp; gringo">
    <nd ref="3517343771"/>
    <nd ref="3517343772"/>
    <nd ref="3517343773"/>
    <nd ref="3517343774"/>
    <nd ref="3517343775"/>
    <nd ref="3517343776"/>
    <nd ref="3517343771"/>
    <tag k="addr:city" v="St Ives"/>
    <tag k="addr:postcode" v="PE27 4TN"/>
    <tag k="addr:street" v="Overcote Lane"/>
    <tag k="addr:suburb" v="Needingworth"/>
    <tag k="landuse" v="farmyard"/>
    <tag k="name" v="Overcote Farm"/>
  </way>
  <way id="399917678" version="2" timestamp="2024-05-29T09:55:34Z" changeset="151980045" uid="95856" user="john paul jones &amp; gringo">
    <nd ref="4025834329"/>
    <nd ref="4025834330"/>
    <nd ref="4025834331"/>
    <nd ref="4025834332"/>
    <nd ref="4025834333"/>
    <nd ref="4025834334"/>
    <nd ref="4025834335"/>
    <nd ref="4025834336"/>
    <nd ref="4025834329"/>
    <tag k="addr:city" v="St Ives"/>
    <tag k="addr:country" v="GB"/>
    <tag k="addr:housenumber" v="2"/>
    <tag k="addr:postcode" v="PE27 4SR"/>
    <tag k="addr:street" v="Spinney Way"/>
    <tag k="addr:suburb" v="Needingworth"/>
    <tag k="building" v="residential"/>
  </way>
  <way id="435281226" version="1" timestamp="2016-08-02T10:20:34Z" changeset="41188504" uid="2983218" user="LovenOutdoors">
    <nd ref="4332140971"/>
    <nd ref="4332140972"/>
    <nd ref="4332140973"/>
    <nd ref="4332140974"/>
    <nd ref="4332140975"/>
    <nd ref="4332140976"/>
    <nd ref="4332140971"/>
    <tag k="addr:city" v="St Ives"/>
    <tag k="addr:postcode" v="PE27 4NB"/>
    <tag k="addr:street" v="Needingworth Road"/>
    <tag k="amenity" v="pub"/>
    <tag k="building" v="yes"/>
    <tag k="name" v="The Marsh Harrier"/>
  </way>
  <way id="436203633" version="3" timestamp="2024-05-29T09:55:34Z" changeset="151980045" uid="95856" user="john paul jones &amp; gringo">
    <nd ref="4340802275"/>
    <nd ref="4340802276"/>
    <nd ref="4340802277"/>
    <nd ref="4340802278"/>
    <nd ref="4340802275"/>
    <tag k="addr:city" v="St Ives"/>
    <tag k="addr:country" v="GB"/>
    <tag k="addr:postcode" v="PE27 4TF"/>
    <tag k="addr:street" v="Mill Way"/>
    <tag k="addr:suburb" v="Needingworth"/>
    <tag k="building" v="yes"/>
    <tag k="club" v="sport"/>
    <tag k="name" v="Village Sports Pavillion"/>
  </way>
  <way id="436874798" version="4" timestamp="2024-05-21T13:07:43Z" changeset="151627949" uid="95856" user="john paul jones &amp; gringo">
    <nd ref="4347308834"/>
    <nd ref="4347308835"/>
    <nd ref="4347308836"/>
    <nd ref="4347308837"/>
    <nd ref="4347308834"/>
    <tag k="addr:city" v="St Ives"/>
    <tag k="addr:housenumber" v="Blackers Hill Cottage"/>
    <tag k="addr:postcode" v="PE27 4NE"/>
    <tag k="addr:street" v="Lowndes Drove"/>
    <tag k="addr:suburb" v="Needingworth"/>
    <tag k="building" v="yes"/>
  </way>
  <way id="436874804" version="2" timestamp="2024-05-29T09:55:34Z" changeset="151980045" uid="95856" user="john paul jones &amp; gringo">
    <nd ref="4347308858"/>
    <nd ref="4347308859"/>
    <nd ref="4347308860"/>
    <nd ref="4347308861"/>
    <nd ref="4347308858"/>
    <tag k="addr:city" v="St Ives"/>
    <tag k="addr:country" v="GB"/>
    <tag k="addr:postcode" v="PE27 4SZ"/>
    <tag k="addr:street" v="Silverdale Close"/>
    <tag k="addr:suburb" v="Needingworth"/>
    <tag k="building" v="yes"/>
    <tag k="name" v="Townsend Farm"/>
  </way>
  <way id="572205629" version="3" timestamp="2024-02-26T02:48:55Z" changeset="147914582" uid="10420541" user="Thingummy">
    <nd ref="5497704651"/>
    <nd ref="5497704652"/>
    <nd ref="5497704653"/>
    <nd ref="5497704654"/>
    <nd ref="5497704655"/>
    <nd ref="5497704656"/>
    <nd ref="5497704657"/>
    <nd ref="5497704658"/>
    <nd ref="5497704644"/>
    <nd ref="1463065579"/>
    <nd ref="5497704647"/>
    <nd ref="5497704648"/>
    <nd ref="5497704659"/>
    <nd ref="1463065593"/>
    <nd ref="5497704649"/>
    <nd ref="5497739898"/>
    <nd ref="11664090053"/>
    <nd ref="2808173828"/>
    <nd ref="5497704646"/>
    <nd ref="5497704651"/>
    <tag k="direction" v="clockwise"/>
    <tag k="highway" v="unclassified"/>
    <tag k="junction" v="roundabout"/>
    <tag k="oneway" v="yes"/>
  </way>
  <way id="572205632" version="6" timestamp="2024-02-26T02:28:34Z" changeset="147914284" uid="10420541" user="Thingummy">
    <nd ref="5497704670"/>
    <nd ref="6522750607"/>
    <nd ref="6522750608"/>
    <nd ref="6522712537"/>
    <nd ref="6522712536"/>
    <nd ref="5497704671"/>
    <nd ref="5497704672"/>
    <nd ref="5497704673"/>
    <nd ref="6522750605"/>
    <nd ref="6522750604"/>
    <nd ref="6522750603"/>
    <nd ref="11664090029"/>
    <nd ref="6522750606"/>
    <nd ref="5497704670"/>
    <tag k="addr:city" v="St Ives"/>
    <tag k="addr:housename" v="Morrisons"/>
    <tag k="addr:postcode" v="PE27 4NB"/>
    <tag k="addr:street" v="Parsons Green"/>
    <tag k="brand" v="Morrisons"/>
    <tag k="brand:wikidata" v="Q922344"/>
    <tag k="building" v="commercial"/>
    <tag k="name" v="Morrisons"/>
    <tag k="shop" v="supermarket"/>
    <tag k="website" v="https://my.morrisons.com/storefinder/644/saint-ives"/>
  </way>
  <way id="656942112" version="3" timestamp="2024-05-29T09:55:34Z" changeset="151980045" uid="95856" user="john paul jones &amp; gringo">
    <nd ref="6153316743"/>
    <nd ref="6153316740"/>
    <nd ref="6153316741"/>
    <nd ref="6153316742"/>
    <nd ref="6153316743"/>
    <tag k="addr:city" v="St Ives"/>
    <tag k="addr:country" v="GB"/>
    <tag k="addr:housenumber" v="10"/>
    <tag k="addr:postcode" v="PE27 4TY"/>
    <tag k="addr:street" v="Beldams"/>
    <tag k="addr:suburb" v="Needingworth"/>
    <tag k="building" v="yes"/>
  </way>
  <way id="656942116" version="1" timestamp="2018-12-22T12:00:21Z" changeset="65691655" uid="5173844" user="ndrw6">
    <nd ref="6153316760"/>
    <nd ref="628094228"/>
    <nd ref="6153316759"/>
    <nd ref="6153316758"/>
    <tag k="highway" v="residential"/>
    <tag k="name" v="Spinney Way"/>
  </way>
  <way id="656942118" version="3" timestamp="2024-05-29T09:55:34Z" changeset="151980045" uid="95856" user="john paul jones &amp; gringo">
    <nd ref="6153316769"/>
    <nd ref="6153316768"/>
    <nd ref="6153316767"/>
    <nd ref="6153316766"/>
    <nd ref="6153316769"/>
    <tag k="addr:city" v="St Ives"/>
    <tag k="addr:country" v="GB"/>
    <tag k="addr:housenumber" v="19"/>
    <tag k="addr:postcode" v="PE27 4SW"/>
    <tag k="addr:street" v="Willow Green"/>
    <tag k="addr:suburb" v="Needingworth"/>
    <tag k="building" v="yes"/>
  </way>
  <way id="656942121" version="1" timestamp="2018-12-22T12:00:21Z" changeset="65691655" uid="5173844" user="ndrw6">
    <nd ref="6153316886"/>
    <nd ref="6153316885"/>
    <nd ref="6153316784"/>
    <nd ref="6153316783"/>
    <nd ref="6153316782"/>
    <nd ref="6153316781"/>
    <tag k="highway" v="residential"/>
    <tag k="name" v="Old Farm Close"/>
  </way>
  <way id="656942125" version="1" timestamp="2018-12-22T12:00:22Z" changeset="65691655" uid="5173844" user="ndrw6">
    <nd ref="6153316902"/>
    <nd ref="6153316901"/>
    <tag k="highway" v="residential"/>
    <tag k="name" v="Townsend Road"/>
  </way>
  <way id="656942126" version="2" timestamp="2021-04-04T08:26:41Z" changeset="102260903" uid="12994418" user="Runner83">
    <nd ref="6153316905"/>
    <nd ref="631172400"/>
    <nd ref="6153316904"/>
    <tag k="highway" v="residential"/>
    <tag k="name" v="Dales Way"/>
  </way>
  <way id="656942167" version="4" timestamp="2024-05-29T09:55:34Z" changeset="151980045" uid="95856" user="john paul jones &amp; gringo">
    <nd ref="7486952571"/>
    <nd ref="6153317134"/>
    <nd ref="6153317131"/>
    <nd ref="7486952570"/>
    <nd ref="7486952571"/>
    <tag k="addr:city" v="St Ives"/>
    <tag k="addr:country" v="GB"/>
    <tag k="addr:housenumber" v="40"/>
    <tag k="addr:postcode" v="PE27 4SH"/>
    <tag k="addr:street" v="Chapel Close"/>
    <tag k="addr:suburb" v="Needingworth"/>
    <tag k="building" v="yes"/>
  </way>
  <way id="656942189" version="3" timestamp="2024-05-29T09:45:00Z" changeset="151979598" uid="95856" user="john paul jones &amp; gringo">
    <nd ref="6153317202"/>
    <nd ref="6153317196"/>
    <nd ref="6153317195"/>
    <nd ref="6153317199"/>
    <nd ref="6153317200"/>
    <nd ref="6153317197"/>
    <nd ref="6153317198"/>
    <nd ref="6153317201"/>
    <nd ref="6153317202"/>
    <tag k="addr:city" v="St Ives"/>
    <tag k="addr:country" v="GB"/>
    <tag k="addr:housenumber" v="2"/>
    <tag k="addr:postcode" v="PE27 4WA"/>
    <tag k="addr:street" v="Ferry Meadow"/>
    <tag k="addr:suburb" v="Holywell"/>
    <tag k="addr:town" v="St Ives"/>
    <tag k="addr:village" v="Holywell"/>
    <tag k="building" v="house"/>
  </way>
  <way id="665908938" version="5" timestamp="2023-12-26T17:47:49Z" changeset="145544035" uid="242345" user="confusedbuffalo">
    <nd ref="6231068381"/>
    <nd ref="24970972"/>
    <nd ref="24970973"/>
    <nd ref="7834842219"/>
    <nd ref="24970974"/>
    <nd ref="24970975"/>
    <nd ref="24970976"/>
    <tag k="highway" v="primary"/>
    <tag k="lanes" v="2"/>
    <tag k="maxspeed" v="60 mph"/>
    <tag k="maxspeed:type" v="GB:nsl_single"/>
    <tag k="name" v="Harrison Way"/>
    <tag k="ref" v="A1096"/>
    <tag k="surface" v="asphalt"/>
  </way>
  <way id="697987251" version="3" timestamp="2020-05-05T14:02:25Z" changeset="84700323" uid="5173844" user="ndrw6">
    <nd ref="6555076359"/>
    <nd ref="6555076360"/>
    <nd ref="6555076361"/>
    <nd ref="6555076362"/>
    <nd ref="6555076363"/>
    <nd ref="6555076364"/>
    <nd ref="6555076365"/>
    <nd ref="6555076366"/>
    <nd ref="7485824997"/>
    <nd ref="6555076367"/>
    <tag k="highway" v="residential"/>
  </way>
  <way id="800334147" version="3" timestamp="2024-05-29T09:45:00Z" changeset="151979598" uid="95856" user="john paul jones &amp; gringo">
    <nd ref="7484895632"/>
    <nd ref="7484895629"/>
    <nd ref="7484895630"/>
    <nd ref="7484895631"/>
    <nd ref="7484895632"/>
    <tag k="addr:city" v="St Ives"/>
    <tag k="addr:country" v="GB"/>
    <tag k="addr:housenumber" v="3"/>
    <tag k="addr:postcode" v="PE27 4WA"/>
    <tag k="addr:street" v="Ferry Meadow"/>
    <tag k="addr:suburb" v="Holywell"/>
    <tag k="addr:town" v="St Ives"/>
    <tag k="addr:village" v="Holywell"/>
    <tag k="building" v="house"/>
  </way>
  <way id="800334149" version="3" timestamp="2024-05-29T09:45:00Z" changeset="151979598" uid="95856" user="john paul jones &amp; gringo">
    <nd ref="7484895640"/>
    <nd ref="7484895637"/>
    <nd ref="7484895638"/>
    <nd ref="7484895639"/>
    <nd ref="7484895640"/>
    <tag k="addr:city" v="St Ives"/>
    <tag k="addr:country" v="GB"/>
    <tag k="addr:housename" v="Ferry Meadow House"/>
    <tag k="addr:housenumber" v="1"/>
    <tag k="addr:postcode" v="PE27 4WA"/>
    <tag k="addr:street" v="Ferry Meadow"/>
    <tag k="addr:suburb" v="Holywell"/>
    <tag k="addr:town" v="St Ives"/>
    <tag k="addr:village" v="Holywell"/>
    <tag k="building" v="house"/>
  </way>
  <way id="800394143" version="2" timestamp="2025-03-11T19:36:26Z" changeset="163499779" uid="10633286" user="Moorit">
    <nd ref="7485518708"/>
    <nd ref="7485518705"/>
    <nd ref="7485518706"/>
    <nd ref="7485518707"/>
    <nd ref="7485518708"/>
    <tag k="addr:housenumber" v="Park Mews"/>
    <tag k="addr:street" v="Overcote Lane"/>
    <tag k="building" v="yes"/>
  </way>
  <way id="800394151" version="1" timestamp="2020-05-05T12:39:37Z" changeset="84695982" uid="5173844" user="ndrw6">
    <nd ref="7485518742"/>
    <nd ref="631977762"/>
    <nd ref="7485518741"/>
    <tag k="highway" v="residential"/>
    <tag k="name" v="The Maltings"/>
  </way>
  <way id="800394176" version="2" timestamp="2024-02-15T21:17:41Z" changeset="147508542" uid="10633286" user="Moorit">
    <nd ref="7485518872"/>
    <nd ref="7485518871"/>
    <nd ref="7485518870"/>
    <nd ref="7485518869"/>
    <nd ref="7485518872"/>
    <tag k="addr:housenumber" v="2"/>
    <tag k="addr:street" v="Church Street"/>
    <tag k="building" v="yes"/>
  </way>
  <way id="800416312" version="1" timestamp="2020-05-05T14:02:25Z" changeset="84700323" uid="5173844" user="ndrw6">
    <nd ref="7485824477"/>
    <nd ref="7485824476"/>
    <tag k="highway" v="residential"/>
    <tag k="name" v="Priory Road"/>
  </way>
  <way id="800416338" version="2" timestamp="2024-02-15T21:17:41Z" changeset="147508542" uid="10633286" user="Moorit">
    <nd ref="7485824783"/>
    <nd ref="7485824782"/>
    <nd ref="7485824781"/>
    <nd ref="7485824780"/>
    <nd ref="7485824783"/>
    <tag k="addr:housenumber" v="5"/>
    <tag k="addr:street" v="Priory Road"/>
    <tag k="building" v="yes"/>
  </way>
  <way id="800416339" version="2" timestamp="2024-02-15T21:17:41Z" changeset="147508542" uid="10633286" user="Moorit">
    <nd ref="7485824787"/>
    <nd ref="7485824786"/>
    <nd ref="7485824785"/>
    <nd ref="7485824784"/>
    <nd ref="7485824787"/>
    <tag k="addr:housenumber" v="3"/>
    <tag k="addr:street" v="Priory Road"/>
    <tag k="building" v="yes"/>
  </way>
  <way id="800416340" version="2" timestamp="2024-02-15T21:17:41Z" changeset="147508542" uid="10633286" user="Moorit">
    <nd ref="7485824791"/>
    <nd ref="7485824790"/>
    <nd ref="7485824789"/>
    <nd ref="7485824788"/>
    <nd ref="7485824791"/>
    <tag k="addr:housenumber" v="1"/>
    <tag k="addr:street" v="Priory Road"/>
    <tag k="building" v="yes"/>
  </way>
  <way id="800416355" version="2" timestamp="2024-04-12T20:05:20Z" changeset="149927320" uid="10633286" user="Moorit">
    <nd ref="7485824857"/>
    <nd ref="7485824854"/>
    <nd ref="7485824855"/>
    <nd ref="7485824856"/>
    <nd ref="7485824857"/>
    <tag k="addr:housenumber" v="7"/>
    <tag k="addr:street" v="High Street"/>
    <tag k="building" v="yes"/>
  </way>
  <way id="800416384" version="1" timestamp="2020-05-05T14:02:25Z" changeset="84700323" uid="5173844" user="ndrw6">
    <nd ref="7485824997"/>
    <nd ref="7485824996"/>
    <tag k="highway" v="residential"/>
  </way>
  <way id="800416387" version="1" timestamp="2020-05-05T14:02:25Z" changeset="84700323" uid="5173844" user="ndrw6">
    <nd ref="7485825007"/>
    <nd ref="631977760"/>
    <nd ref="7485825006"/>
    <tag k="highway" v="residential"/>
    <tag k="name" v="Park View"/>
  </way>
  <way id="800416401" version="2" timestamp="2023-10-05T18:27:46Z" changeset="142201830" uid="10633286" user="Moorit">
    <nd ref="7485825069"/>
    <nd ref="7485825066"/>
    <nd ref="7485825065"/>
    <nd ref="7485825064"/>
    <nd ref="7485825067"/>
    <nd ref="7485825068"/>
    <nd ref="7485825069"/>
    <tag k="addr:housenumber" v="31"/>
    <tag k="addr:street" v="Overcote Lane"/>
    <tag k="building" v="yes"/>
  </way>
  <way id="800416402" version="2" timestamp="2023-10-05T18:27:46Z" changeset="142201830" uid="10633286" user="Moorit">
    <nd ref="7485825075"/>
    <nd ref="7485825074"/>
    <nd ref="7485825071"/>
    <nd ref="7485825070"/>
    <nd ref="7485825073"/>
    <nd ref="7485825072"/>
    <nd ref="7485825075"/>
    <tag k="addr:housenumber" v="29"/>
    <tag k="addr:street" v="Overcote Lane"/>
    <tag k="building" v="yes"/>
  </way>
  <way id="800416403" version="2" timestamp="2023-10-05T18:27:46Z" changeset="142201830" uid="10633286" user="Moorit">
    <nd ref="7485825081"/>
    <nd ref="7485825078"/>
    <nd ref="7485825076"/>
    <nd ref="7485825077"/>
    <nd ref="7485825079"/>
    <nd ref="7485825080"/>
    <nd ref="7485825081"/>
    <tag k="addr:housenumber" v="27"/>
    <tag k="addr:street" v="Overcote Lane"/>
    <tag k="building" v="yes"/>
  </way>
  <way id="800416404" version="2" timestamp="2023-10-05T18:27:46Z" changeset="142201830" uid="10633286" user="Moorit">
    <nd ref="7485825085"/>
    <nd ref="7485825084"/>
    <nd ref="7485825083"/>
    <nd ref="7485825082"/>
    <nd ref="7485825085"/>
    <tag k="addr:housenumber" v="25"/>
    <tag k="addr:street" v="Overcote Lane"/>
    <tag k="building" v="yes"/>
  </way>
  <way id="800416447" version="1" timestamp="2020-05-05T14:02:25Z" changeset="84700323" uid="5173844" user="ndrw6">
    <nd ref="7485825249"/>
    <nd ref="7485825248"/>
    <tag k="highway" v="residential"/>
    <tag k="name" v="Russett Avenue"/>
  </way>
  <way id="800416467" version="2" timestamp="2023-02-09T18:57:47Z" changeset="132323273" uid="10633286" user="Moorit">
    <nd ref="7485825329"/>
    <nd ref="7485825326"/>
    <nd ref="7485825327"/>
    <nd ref="7485825328"/>
    <nd ref="7485825329"/>
    <tag k="addr:housenumber" v="17"/>
    <tag k="addr:street" v="Russett Avenue"/>
    <tag k="building" v="yes"/>
  </way>
  <way id="800416523" version="3" timestamp="2024-05-29T09:55:34Z" changeset="151980045" uid="95856" user="john paul jones &amp; gringo">
    <nd ref="7485825577"/>
    <nd ref="7485825576"/>
    <nd ref="7485825575"/>
    <nd ref="7485825574"/>
    <nd ref="7485825577"/>
    <tag k="addr:city" v="St Ives"/>
    <tag k="addr:country" v="GB"/>
    <tag k="addr:housenumber" v="1"/>
    <tag k="addr:postcode" v="PE27 4UB"/>
    <tag k="addr:street" v="Ashton Close"/>
    <tag k="addr:suburb" v="Needingworth"/>
    <tag k="building" v="yes"/>
  </way>
  <way id="800416524" version="3" timestamp="2024-05-29T09:55:34Z" changeset="151980045" uid="95856" user="john paul jones &amp; gringo">
    <nd ref="7485825581"/>
    <nd ref="7485825580"/>
    <nd ref="7485825579"/>
    <nd ref="7485825578"/>
    <nd ref="7485825581"/>
    <tag k="addr:city" v="St Ives"/>
    <tag k="addr:country" v="GB"/>
    <tag k="addr:housenumber" v="3"/>
    <tag k="addr:postcode" v="PE27 4UB"/>
    <tag k="addr:street" v="Ashton Close"/>
    <tag k="addr:suburb" v="Needingworth"/>
    <tag k="building" v="yes"/>
  </way>
  <way id="800416525" version="3" timestamp="2024-05-29T09:55:34Z" changeset="151980045" uid="95856" user="john paul jones &amp; gringo">
    <nd ref="7485825585"/>
    <nd ref="7485825584"/>
    <nd ref="7485825583"/>
    <nd ref="7485825582"/>
    <nd ref="7485825585"/>
    <tag k="addr:city" v="St Ives"/>
    <tag k="addr:country" v="GB"/>
    <tag k="addr:housenumber" v="5"/>
    <tag k="addr:postcode" v="PE27 4UB"/>
    <tag k="addr:street" v="Ashton Close"/>
    <tag k="addr:suburb" v="Needingworth"/>
    <tag k="building" v="yes"/>
  </way>
  <way id="800416526" version="3" timestamp="2024-05-29T09:55:34Z" changeset="151980045" uid="95856" user="john paul jones &amp; gringo">
    <nd ref="7485825589"/>
    <nd ref="7485825588"/>
    <nd ref="7485825587"/>
    <nd ref="7485825586"/>
    <nd ref="7485825589"/>
    <tag k="addr:city" v="St Ives"/>
    <tag k="addr:country" v="GB"/>
    <tag k="addr:housenumber" v="7"/>
    <tag k="addr:postcode" v="PE27 4UB"/>
    <tag k="addr:street" v="Ashton Close"/>
    <tag k="addr:suburb" v="Needingworth"/>
    <tag k="building" v="yes"/>
  </way>
  <way id="800416527" version="3" timestamp="2024-05-29T09:55:34Z" changeset="151980045" uid="95856" user="john paul jones &amp; gringo">
    <nd ref="7485825593"/>
    <nd ref="7485825592"/>
    <nd ref="7485825591"/>
    <nd ref="7485825590"/>
    <nd ref="7485825593"/>
    <tag k="addr:city" v="St Ives"/>
    <tag k="addr:country" v="GB"/>
    <tag k="addr:housenumber" v="9"/>
    <tag k="addr:postcode" v="PE27 4UB"/>
    <tag k="addr:street" v="Ashton Close"/>
    <tag k="addr:suburb" v="Needingworth"/>
    <tag k="building" v="yes"/>
  </way>
  <way id="800416528" version="3" timestamp="2024-05-29T09:55:34Z" changeset="151980045" uid="95856" user="john paul jones &amp; gringo">
    <nd ref="7485825597"/>
    <nd ref="7485825594"/>
    <nd ref="7485825595"/>
    <nd ref="7485825596"/>
    <nd ref="7485825597"/>
    <tag k="addr:city" v="St Ives"/>
    <tag k="addr:country" v="GB"/>
    <tag k="addr:housenumber" v="11"/>
    <tag k="addr:postcode" v="PE27 4UB"/>
    <tag k="addr:street" v="Ashton Close"/>
    <tag k="addr:suburb" v="Needingworth"/>
    <tag k="building" v="yes"/>
  </way>
  <way id="800416576" version="3" timestamp="2024-05-29T09:59:57Z" changeset="151980213" uid="95856" user="john paul jones &amp; gringo">
    <nd ref="7485825731"/>
    <nd ref="7485825730"/>
    <nd ref="7485825729"/>
    <nd ref="7485825734"/>
    <nd ref="7485825731"/>
    <tag k="addr:city" v="St Ives"/>
    <tag k="addr:country" v="GB"/>
    <tag k="addr:housenumber" v="79"/>
    <tag k="addr:postcode" v="PE27 4UB"/>
    <tag k="addr:street" v="Harris Crescent"/>
    <tag k="addr:suburb" v="Needingworth"/>
    <tag k="building" v="yes"/>
  </way>
  <way id="800416577" version="3" timestamp="2024-05-29T09:59:57Z" changeset="151980213" uid="95856" user="john paul jones &amp; gringo">
    <nd ref="7485825734"/>
    <nd ref="7485825733"/>
    <nd ref="7485825732"/>
    <nd ref="7485825731"/>
    <nd ref="7485825734"/>
    <tag k="addr:city" v="St Ives"/>
    <tag k="addr:country" v="GB"/>
    <tag k="addr:housenumber" v="77"/>
    <tag k="addr:postcode" v="PE27 4UB"/>
    <tag k="addr:street" v="Harris Crescent"/>
    <tag k="addr:suburb" v="Needingworth"/>
    <tag k="building" v="yes"/>
  </way>
  <way id="800416585" version="3" timestamp="2024-05-29T09:59:57Z" changeset="151980213" uid="95856" user="john paul jones &amp; gringo">
    <nd ref="7485825754"/>
    <nd ref="7485825753"/>
    <nd ref="7485825752"/>
    <nd ref="7485825751"/>
    <nd ref="7485825754"/>
    <tag k="addr:city" v="St Ives"/>
    <tag k="addr:country" v="GB"/>
    <tag k="addr:housenumber" v="75"/>
    <tag k="addr:postcode" v="PE27 4UB"/>
    <tag k="addr:street" v="Harris Crescent"/>
    <tag k="addr:suburb" v="Needingworth"/>
    <tag k="building" v="yes"/>
  </way>
  <way id="800494569" version="1" timestamp="2020-05-05T18:56:56Z" changeset="84713857" uid="5173844" user="ndrw6">
    <nd ref="628094091"/>
    <nd ref="628094094"/>
    <tag k="highway" v="residential"/>
    <tag k="name" v="Chapel Close"/>
  </way>
  <way id="800494595" version="2" timestamp="2021-07-18T18:28:09Z" changeset="108203695" uid="10633286" user="Moorit">
    <nd ref="7486952849"/>
    <nd ref="7486952870"/>
    <nd ref="7486952867"/>
    <nd ref="7486952848"/>
    <nd ref="7486952849"/>
    <tag k="addr:housenumber" v="7"/>
    <tag k="addr:street" v="Asplins Close"/>
    <tag k="building" v="yes"/>
  </way>
  <way id="800494596" version="1" timestamp="2020-05-05T18:56:56Z" changeset="84713857" uid="5173844" user="ndrw6">
    <nd ref="631172408"/>
    <nd ref="631172407"/>
    <nd ref="631172406"/>
    <tag k="highway" v="residential"/>
    <tag k="name" v="Asplins Avenue"/>
  </way>
  <way id="800494597" version="1" timestamp="2020-05-05T18:56:56Z" changeset="84713857" uid="5173844" user="ndrw6">
    <nd ref="7486952873"/>
    <nd ref="631172417"/>
    <nd ref="7486952872"/>
    <tag k="highway" v="residential"/>
    <tag k="name" v="Asplins Avenue"/>
  </way>
  <way id="800494672" version="2" timestamp="2021-07-18T18:28:09Z" changeset="108203695" uid="10633286" user="Moorit">
    <nd ref="7486953140"/>
    <nd ref="7486953142"/>
    <nd ref="7486953143"/>
    <nd ref="7486953139"/>
    <nd ref="7486953140"/>
    <tag k="addr:housenumber" v="6"/>
    <tag k="addr:street" v="Asplins Close"/>
    <tag k="building" v="yes"/>
  </way>
  <way id="800494677" version="2" timestamp="2022-07-25T07:39:15Z" changeset="124037492" uid="10633286" user="Moorit">
    <nd ref="7486953160"/>
    <nd ref="7486953157"/>
    <nd ref="7486953158"/>
    <nd ref="7486953159"/>
    <nd ref="7486953160"/>
    <tag k="addr:housenumber" v="34"/>
    <tag k="addr:street" v="High Street"/>
    <tag k="building" v="yes"/>
  </way>
  <way id="800559508" version="2" timestamp="2023-07-27T22:07:09Z" changeset="139109240" uid="10633286" user="Moorit">
    <nd ref="7487604230"/>
    <nd ref="7487604227"/>
    <nd ref="7487604228"/>
    <nd ref="7487604229"/>
    <nd ref="7487604230"/>
    <tag k="addr:housenumber" v="79"/>
    <tag k="addr:street" v="High Street"/>
    <tag k="building" v="yes"/>
  </way>
  <way id="800559510" version="1" timestamp="2020-05-05T23:36:43Z" changeset="84721398" uid="5173844" user="ndrw6">
    <nd ref="628094149"/>
    <nd ref="7487604234"/>
    <tag k="highway" v="residential"/>
    <tag k="name" v="Willow Green"/>
  </way>
  <way id="800559511" version="1" timestamp="2020-05-05T23:36:43Z" changeset="84721398" uid="5173844" user="ndrw6">
    <nd ref="628094141"/>
    <nd ref="7487604236"/>
    <tag k="highway" v="residential"/>
    <tag k="name" v="Bedford Close"/>
  </way>
  <way id="800559513" version="3" timestamp="2024-05-29T09:55:34Z" changeset="151980045" uid="95856" user="john paul jones &amp; gringo">
    <nd ref="7487604240"/>
    <nd ref="7487604237"/>
    <nd ref="7487604238"/>
    <nd ref="7487604239"/>
    <nd ref="7487604240"/>
    <tag k="addr:city" v="St Ives"/>
    <tag k="addr:country" v="GB"/>
    <tag k="addr:housenumber" v="1"/>
    <tag k="addr:postcode" v="PE27 4TY"/>
    <tag k="addr:street" v="Willow Green"/>
    <tag k="addr:suburb" v="Needingworth"/>
    <tag k="building" v="yes"/>
  </way>
  <way id="800559514" version="3" timestamp="2024-05-29T09:55:34Z" changeset="151980045" uid="95856" user="john paul jones &amp; gringo">
    <nd ref="7487604246"/>
    <nd ref="7487604245"/>
    <nd ref="7487604244"/>
    <nd ref="7487604243"/>
    <nd ref="7487604241"/>
    <nd ref="7487604242"/>
    <nd ref="7487604246"/>
    <tag k="addr:city" v="St Ives"/>
    <tag k="addr:country" v="GB"/>
    <tag k="addr:housenumber" v="3"/>
    <tag k="addr:postcode" v="PE27 4TY"/>
    <tag k="addr:street" v="Willow Green"/>
    <tag k="addr:suburb" v="Needingworth"/>
    <tag k="building" v="yes"/>
  </way>
  <way id="800559515" version="3" timestamp="2024-05-29T09:55:34Z" changeset="151980045" uid="95856" user="john paul jones &amp; gringo">
    <nd ref="7487604250"/>
    <nd ref="7487604247"/>
    <nd ref="7487604248"/>
    <nd ref="7487604249"/>
    <nd ref="7487604250"/>
    <tag k="addr:city" v="St Ives"/>
    <tag k="addr:country" v="GB"/>
    <tag k="addr:housenumber" v="5"/>
    <tag k="addr:postcode" v="PE27 4TY"/>
    <tag k="addr:street" v="Willow Green"/>
    <tag k="addr:suburb" v="Needingworth"/>
    <tag k="building" v="yes"/>
  </way>
  <way id="800559516" version="3" timestamp="2024-05-29T09:55:34Z" changeset="151980045" uid="95856" user="john paul jones &amp; gringo">
    <nd ref="7487604254"/>
    <nd ref="7487604253"/>
    <nd ref="7487604252"/>
    <nd ref="7487604251"/>
    <nd ref="7487604254"/>
    <tag k="addr:city" v="St Ives"/>
    <tag k="addr:country" v="GB"/>
    <tag k="addr:housenumber" v="7"/>
    <tag k="addr:postcode" v="PE27 4TY"/>
    <tag k="addr:street" v="Willow Green"/>
    <tag k="addr:suburb" v="Needingworth"/>
    <tag k="building" v="yes"/>
  </way>
  <way id="800559517" version="3" timestamp="2024-05-29T09:55:34Z" changeset="151980045" uid="95856" user="john paul jones &amp; gringo">
    <nd ref="7487604258"/>
    <nd ref="7487604257"/>
    <nd ref="7487604256"/>
    <nd ref="7487604255"/>
    <nd ref="7487604258"/>
    <tag k="addr:city" v="St Ives"/>
    <tag k="addr:country" v="GB"/>
    <tag k="addr:housenumber" v="9"/>
    <tag k="addr:postcode" v="PE27 4TY"/>
    <tag k="addr:street" v="Willow Green"/>
    <tag k="addr:suburb" v="Needingworth"/>
    <tag k="building" v="yes"/>
  </way>
  <way id="800559518" version="3" timestamp="2024-05-29T09:55:34Z" changeset="151980045" uid="95856" user="john paul jones &amp; gringo">
    <nd ref="7487604262"/>
    <nd ref="7487604261"/>
    <nd ref="7487604260"/>
    <nd ref="7487604259"/>
    <nd ref="7487604262"/>
    <tag k="addr:city" v="St Ives"/>
    <tag k="addr:country" v="GB"/>
    <tag k="addr:housenumber" v="11"/>
    <tag k="addr:postcode" v="PE27 4TY"/>
    <tag k="addr:street" v="Willow Green"/>
    <tag k="addr:suburb" v="Needingworth"/>
    <tag k="building" v="yes"/>
  </way>
  <way id="800559519" version="3" timestamp="2024-05-29T09:55:34Z" changeset="151980045" uid="95856" user="john paul jones &amp; gringo">
    <nd ref="7487604266"/>
    <nd ref="7487604265"/>
    <nd ref="7487604264"/>
    <nd ref="7487604263"/>
    <nd ref="7487604266"/>
    <tag k="addr:city" v="St Ives"/>
    <tag k="addr:country" v="GB"/>
    <tag k="addr:housenumber" v="13"/>
    <tag k="addr:postcode" v="PE27 4TY"/>
    <tag k="addr:street" v="Willow Green"/>
    <tag k="addr:suburb" v="Needingworth"/>
    <tag k="building" v="yes"/>
  </way>
  <way id="800559520" version="3" timestamp="2024-05-29T09:55:34Z" changeset="151980045" uid="95856" user="john paul jones &amp; gringo">
    <nd ref="7487604270"/>
    <nd ref="7487604269"/>
    <nd ref="7487604268"/>
    <nd ref="7487604267"/>
    <nd ref="7487604270"/>
    <tag k="addr:city" v="St Ives"/>
    <tag k="addr:country" v="GB"/>
    <tag k="addr:housenumber" v="15"/>
    <tag k="addr:postcode" v="PE27 4TY"/>
    <tag k="addr:street" v="Willow Green"/>
    <tag k="addr:suburb" v="Needingworth"/>
    <tag k="building" v="yes"/>
  </way>
  <way id="800559521" version="3" timestamp="2024-05-29T09:55:34Z" changeset="151980045" uid="95856" user="john paul jones &amp; gringo">
    <nd ref="7487604274"/>
    <nd ref="7487604273"/>
    <nd ref="7487604272"/>
    <nd ref="7487604271"/>
    <nd ref="7487604274"/>
    <tag k="addr:city" v="St Ives"/>
    <tag k="addr:country" v="GB"/>
    <tag k="addr:housenumber" v="17"/>
    <tag k="addr:postcode" v="PE27 4TY"/>
    <tag k="addr:street" v="Willow Green"/>
    <tag k="addr:suburb" v="Needingworth"/>
    <tag k="building" v="yes"/>
  </way>
  <way id="800559524" version="1" timestamp="2020-05-05T23:36:43Z" changeset="84721398" uid="5173844" user="ndrw6">
    <nd ref="7487606986"/>
    <nd ref="7487606985"/>
    <tag k="highway" v="residential"/>
    <tag k="name" v="Old Farm Close"/>
  </way>
  <way id="800559547" version="3" timestamp="2024-05-29T09:55:34Z" changeset="151980045" uid="95856" user="john paul jones &amp; gringo">
    <nd ref="7487607111"/>
    <nd ref="7487607110"/>
    <nd ref="7487607109"/>
    <nd ref="7487607107"/>
    <nd ref="7487607105"/>
    <nd ref="7487607104"/>
    <nd ref="7487607106"/>
    <nd ref="7487607108"/>
    <nd ref="7487607111"/>
    <tag k="addr:city" v="St Ives"/>
    <tag k="addr:country" v="GB"/>
    <tag k="addr:housenumber" v="16"/>
    <tag k="addr:postcode" v="PE27 4SW"/>
    <tag k="addr:street" v="Willow Green"/>
    <tag k="addr:suburb" v="Needingworth"/>
    <tag k="building" v="yes"/>
  </way>
  <way id="800559558" version="2" timestamp="2021-06-27T18:54:18Z" changeset="107047943" uid="10633286" user="Moorit">
    <nd ref="7487607161"/>
    <nd ref="7487607160"/>
    <nd ref="7487607159"/>
    <nd ref="7487607158"/>
    <nd ref="7487607161"/>
    <tag k="addr:housenumber" v="9"/>
    <tag k="addr:street" v="Spinney Way"/>
    <tag k="building" v="yes"/>
  </way>
  <way id="800559559" version="2" timestamp="2021-06-27T18:54:18Z" changeset="107047943" uid="10633286" user="Moorit">
    <nd ref="7487607165"/>
    <nd ref="7487607164"/>
    <nd ref="7487607163"/>
    <nd ref="7487607162"/>
    <nd ref="7487607165"/>
    <tag k="addr:housenumber" v="7"/>
    <tag k="addr:street" v="Spinney Way"/>
    <tag k="building" v="yes"/>
  </way>
  <way id="800559565" version="2" timestamp="2021-07-18T18:44:46Z" changeset="108204284" uid="10633286" user="Moorit">
    <nd ref="7487607195"/>
    <nd ref="7487607192"/>
    <nd ref="7487607193"/>
    <nd ref="7487607194"/>
    <nd ref="7487607195"/>
    <tag k="addr:housenumber" v="34"/>
    <tag k="addr:street" v="Willow Green"/>
    <tag k="building" v="yes"/>
  </way>
  <way id="800559566" version="2" timestamp="2021-07-18T18:44:46Z" changeset="108204284" uid="10633286" user="Moorit">
    <nd ref="7487607199"/>
    <nd ref="7487607196"/>
    <nd ref="7487607197"/>
    <nd ref="7487607198"/>
    <nd ref="7487607199"/>
    <tag k="addr:housenumber" v="36"/>
    <tag k="addr:street" v="Willow Green"/>
    <tag k="building" v="yes"/>
  </way>
  <way id="800559622" version="2" timestamp="2023-07-27T22:07:09Z" changeset="139109240" uid="10633286" user="Moorit">
    <nd ref="7487607457"/>
    <nd ref="7487607454"/>
    <nd ref="7487607452"/>
    <nd ref="7487607451"/>
    <nd ref="7487607450"/>
    <nd ref="7487607453"/>
    <nd ref="7487607455"/>
    <nd ref="7487607456"/>
    <nd ref="7487607457"/>
    <tag k="addr:housenumber" v="94"/>
    <tag k="addr:street" v="High Street"/>
    <tag k="building" v="yes"/>
  </way>
  <way id="800559623" version="2" timestamp="2023-07-27T22:07:09Z" changeset="139109240" uid="10633286" user="Moorit">
    <nd ref="7487607465"/>
    <nd ref="7487607464"/>
    <nd ref="7487607461"/>
    <nd ref="7487607459"/>
    <nd ref="7487607458"/>
    <nd ref="7487607460"/>
    <nd ref="7487607463"/>
    <nd ref="7487607462"/>
    <nd ref="7487607465"/>
    <tag k="addr:housenumber" v="96"/>
    <tag k="addr:street" v="High Street"/>
    <tag k="building" v="yes"/>
  </way>
  <way id="800559629" version="2" timestamp="2024-06-30T09:40:30Z" changeset="153360887" uid="6476359" user="NSiecw">
    <nd ref="7487607495"/>
    <nd ref="7487607494"/>
    <nd ref="7487607493"/>
    <nd ref="7487607492"/>
    <nd ref="7487607495"/>
    <tag k="addr:city" v="Cambridge"/>
    <tag k="addr:street" v="Bluntisham Road"/>
    <tag k="addr:suburb" v="Needingworth"/>
    <tag k="building" v="yes"/>
    <tag k="name" v="Fairview"/>
  </way>
  <way id="800559651" version="3" timestamp="2024-05-29T09:55:34Z" changeset="151980045" uid="95856" user="john paul jones &amp; gringo">
    <nd ref="7487607569"/>
    <nd ref="7487607568"/>
    <nd ref="7487607567"/>
    <nd ref="7487607566"/>
    <nd ref="7487607569"/>
    <tag k="addr:city" v="St Ives"/>
    <tag k="addr:country" v="GB"/>
    <tag k="addr:housenumber" v="8"/>
    <tag k="addr:postcode" v="PE27 4SR"/>
    <tag k="addr:street" v="Spinney Way"/>
    <tag k="addr:suburb" v="Needingworth"/>
    <tag k="building" v="yes"/>
  </way>
  <way id="800559667" version="3" timestamp="2024-05-29T09:55:34Z" changeset="151980045" uid="95856" user="john paul jones &amp; gringo">
    <nd ref="7487607633"/>
    <nd ref="7487607632"/>
    <nd ref="7487607631"/>
    <nd ref="7487607630"/>
    <nd ref="7487607633"/>
    <tag k="addr:city" v="St Ives"/>
    <tag k="addr:country" v="GB"/>
    <tag k="addr:housenumber" v="15"/>
    <tag k="addr:postcode" v="PE27 4TY"/>
    <tag k="addr:street" v="Beldams"/>
    <tag k="addr:suburb" v="Needingworth"/>
    <tag k="building" v="yes"/>
  </way>
  <way id="800559668" version="3" timestamp="2024-05-29T09:55:34Z" changeset="151980045" uid="95856" user="john paul jones &amp; gringo">
    <nd ref="7487607637"/>
    <nd ref="7487607636"/>
    <nd ref="7487607635"/>
    <nd ref="7487607634"/>
    <nd ref="7487607637"/>
    <tag k="addr:city" v="St Ives"/>
    <tag k="addr:country" v="GB"/>
    <tag k="addr:housenumber" v="13"/>
    <tag k="addr:postcode" v="PE27 4TY"/>
    <tag k="addr:street" v="Beldams"/>
    <tag k="addr:suburb" v="Needingworth"/>
    <tag k="building" v="yes"/>
  </way>
  <way id="800559669" version="3" timestamp="2024-05-29T09:55:34Z" changeset="151980045" uid="95856" user="john paul jones &amp; gringo">
    <nd ref="7487607641"/>
    <nd ref="7487607640"/>
    <nd ref="7487607639"/>
    <nd ref="7487607638"/>
    <nd ref="7487607641"/>
    <tag k="addr:city" v="St Ives"/>
    <tag k="addr:country" v="GB"/>
    <tag k="addr:housenumber" v="11"/>
    <tag k="addr:postcode" v="PE27 4TY"/>
    <tag k="addr:street" v="Beldams"/>
    <tag k="addr:suburb" v="Needingworth"/>
    <tag k="building" v="yes"/>
  </way>
  <way id="800559670" version="3" timestamp="2024-05-29T09:55:34Z" changeset="151980045" uid="95856" user="john paul jones &amp; gringo">
    <nd ref="7487607645"/>
    <nd ref="7487607644"/>
    <nd ref="7487607643"/>
    <nd ref="7487607642"/>
    <nd ref="7487607645"/>
    <tag k="addr:city" v="St Ives"/>
    <tag k="addr:country" v="GB"/>
    <tag k="addr:housenumber" v="9"/>
    <tag k="addr:postcode" v="PE27 4TY"/>
    <tag k="addr:street" v="Beldams"/>
    <tag k="addr:suburb" v="Needingworth"/>
    <tag k="building" v="yes"/>
  </way>
  <way id="800559671" version="3" timestamp="2024-05-29T09:55:34Z" changeset="151980045" uid="95856" user="john paul jones &amp; gringo">
    <nd ref="7487607649"/>
    <nd ref="7487607648"/>
    <nd ref="7487607647"/>
    <nd ref="7487607646"/>
    <nd ref="7487607649"/>
    <tag k="addr:city" v="St Ives"/>
    <tag k="addr:country" v="GB"/>
    <tag k="addr:housenumber" v="7"/>
    <tag k="addr:postcode" v="PE27 4TY"/>
    <tag k="addr:street" v="Beldams"/>
    <tag k="addr:suburb" v="Needingworth"/>
    <tag k="building" v="yes"/>
  </way>
  <way id="800559672" version="3" timestamp="2024-05-29T09:55:34Z" changeset="151980045" uid="95856" user="john paul jones &amp; gringo">
    <nd ref="7487607653"/>
    <nd ref="7487607652"/>
    <nd ref="7487607651"/>
    <nd ref="7487607650"/>
    <nd ref="7487607653"/>
    <tag k="addr:city" v="St Ives"/>
    <tag k="addr:country" v="GB"/>
    <tag k="addr:housenumber" v="5"/>
    <tag k="addr:postcode" v="PE27 4TY"/>
    <tag k="addr:street" v="Beldams"/>
    <tag k="addr:suburb" v="Needingworth"/>
    <tag k="building" v="yes"/>
  </way>
  <way id="800559673" version="3" timestamp="2024-05-29T09:55:34Z" changeset="151980045" uid="95856" user="john paul jones &amp; gringo">
    <nd ref="7487607657"/>
    <nd ref="7487607656"/>
    <nd ref="7487607655"/>
    <nd ref="7487607654"/>
    <nd ref="7487607657"/>
    <tag k="addr:city" v="St Ives"/>
    <tag k="addr:country" v="GB"/>
    <tag k="addr:housenumber" v="3"/>
    <tag k="addr:postcode" v="PE27 4TY"/>
    <tag k="addr:street" v="Beldams"/>
    <tag k="addr:suburb" v="Needingworth"/>
    <tag k="building" v="yes"/>
  </way>
  <way id="800559674" version="3" timestamp="2024-05-29T09:55:34Z" changeset="151980045" uid="95856" user="john paul jones &amp; gringo">
    <nd ref="7487607661"/>
    <nd ref="7487607658"/>
    <nd ref="7487607659"/>
    <nd ref="7487607660"/>
    <nd ref="7487607661"/>
    <tag k="addr:city" v="St Ives"/>
    <tag k="addr:country" v="GB"/>
    <tag k="addr:housenumber" v="1"/>
    <tag k="addr:postcode" v="PE27 4TY"/>
    <tag k="addr:street" v="Beldams"/>
    <tag k="addr:suburb" v="Needingworth"/>
    <tag k="building" v="yes"/>
  </way>
  <way id="800559691" version="2" timestamp="2024-02-08T19:22:15Z" changeset="147230444" uid="10633286" user="Moorit">
    <nd ref="7487607715"/>
    <nd ref="7487607714"/>
    <nd ref="7487607713"/>
    <nd ref="7487607712"/>
    <nd ref="7487607715"/>
    <tag k="addr:housenumber" v="18"/>
    <tag k="addr:street" v="Beldams"/>
    <tag k="building" v="yes"/>
  </way>
  <way id="800559692" version="2" timestamp="2024-02-08T19:22:15Z" changeset="147230444" uid="10633286" user="Moorit">
    <nd ref="7487607719"/>
    <nd ref="7487607718"/>
    <nd ref="7487607717"/>
    <nd ref="7487607716"/>
    <nd ref="7487607719"/>
    <tag k="addr:housenumber" v="16"/>
    <tag k="addr:street" v="Beldams"/>
    <tag k="building" v="yes"/>
  </way>
  <way id="800559693" version="2" timestamp="2024-02-08T19:22:15Z" changeset="147230444" uid="10633286" user="Moorit">
    <nd ref="7487607723"/>
    <nd ref="7487607722"/>
    <nd ref="7487607721"/>
    <nd ref="7487607720"/>
    <nd ref="7487607723"/>
    <tag k="addr:housenumber" v="14"/>
    <tag k="addr:street" v="Beldams"/>
    <tag k="building" v="yes"/>
  </way>
  <way id="800559694" version="2" timestamp="2024-02-08T19:22:15Z" changeset="147230444" uid="10633286" user="Moorit">
    <nd ref="7487607727"/>
    <nd ref="7487607726"/>
    <nd ref="7487607725"/>
    <nd ref="7487607724"/>
    <nd ref="7487607727"/>
    <tag k="addr:housenumber" v="12"/>
    <tag k="addr:street" v="Beldams"/>
    <tag k="building" v="yes"/>
  </way>
  <way id="800559695" version="3" timestamp="2024-05-29T09:55:34Z" changeset="151980045" uid="95856" user="john paul jones &amp; gringo">
    <nd ref="7487607731"/>
    <nd ref="7487607730"/>
    <nd ref="7487607729"/>
    <nd ref="7487607728"/>
    <nd ref="7487607731"/>
    <tag k="addr:city" v="St Ives"/>
    <tag k="addr:country" v="GB"/>
    <tag k="addr:housenumber" v="8"/>
    <tag k="addr:postcode" v="PE27 4TY"/>
    <tag k="addr:street" v="Beldams"/>
    <tag k="addr:suburb" v="Needingworth"/>
    <tag k="building" v="yes"/>
  </way>
  <way id="800559696" version="3" timestamp="2024-05-29T09:55:34Z" changeset="151980045" uid="95856" user="john paul jones &amp; gringo">
    <nd ref="7487607735"/>
    <nd ref="7487607734"/>
    <nd ref="7487607733"/>
    <nd ref="7487607732"/>
    <nd ref="7487607735"/>
    <tag k="addr:city" v="St Ives"/>
    <tag k="addr:country" v="GB"/>
    <tag k="addr:housenumber" v="6"/>
    <tag k="addr:postcode" v="PE27 4TY"/>
    <tag k="addr:street" v="Beldams"/>
    <tag k="addr:suburb" v="Needingworth"/>
    <tag k="building" v="yes"/>
  </way>
  <way id="800559697" version="3" timestamp="2024-05-29T09:55:34Z" changeset="151980045" uid="95856" user="john paul jones &amp; gringo">
    <nd ref="7487607739"/>
    <nd ref="7487607738"/>
    <nd ref="7487607737"/>
    <nd ref="7487607736"/>
    <nd ref="7487607739"/>
    <tag k="addr:city" v="St Ives"/>
    <tag k="addr:country" v="GB"/>
    <tag k="addr:housenumber" v="4"/>
    <tag k="addr:postcode" v="PE27 4TY"/>
    <tag k="addr:street" v="Beldams"/>
    <tag k="addr:suburb" v="Needingworth"/>
    <tag k="building" v="yes"/>
  </way>
  <way id="800559698" version="3" timestamp="2024-05-29T09:55:34Z" changeset="151980045" uid="95856" user="john paul jones &amp; gringo">
    <nd ref="7487607743"/>
    <nd ref="7487607742"/>
    <nd ref="7487607741"/>
    <nd ref="7487607740"/>
    <nd ref="7487607743"/>
    <tag k="addr:city" v="St Ives"/>
    <tag k="addr:country" v="GB"/>
    <tag k="addr:housenumber" v="2"/>
    <tag k="addr:postcode" v="PE27 4TY"/>
    <tag k="addr:street" v="Beldams"/>
    <tag k="addr:suburb" v="Needingworth"/>
    <tag k="building" v="yes"/>
  </way>
  <way id="803445229" version="2" timestamp="2020-05-17T12:53:48Z" changeset="85333702" uid="322785" user="BCNorwich">
    <nd ref="7515540397"/>
    <nd ref="1219069725"/>
    <nd ref="1170523084"/>
    <nd ref="2525603210"/>
    <nd ref="1170523101"/>
    <nd ref="2525603208"/>
    <nd ref="1170523102"/>
    <nd ref="1170523099"/>
    <nd ref="2525603171"/>
    <nd ref="1170523100"/>
    <nd ref="2525603204"/>
    <nd ref="1170523057"/>
    <nd ref="2525603187"/>
    <nd ref="1170523068"/>
    <nd ref="1170523076"/>
    <tag k="highway" v="unclassified"/>
    <tag k="name" v="Parsons Green"/>
  </way>
  <way id="803445230" version="1" timestamp="2020-05-13T18:23:38Z" changeset="85159722" uid="11174795" user="Biker44">
    <nd ref="7515540398"/>
    <nd ref="7515540397"/>
    <tag k="bridge" v="yes"/>
    <tag k="highway" v="unclassified"/>
    <tag k="layer" v="1"/>
    <tag k="name" v="Parsons Green"/>
  </way>
  <way id="925815137" version="1" timestamp="2021-04-04T08:26:41Z" changeset="102260903" uid="12994418" user="Runner83">
    <nd ref="6153316904"/>
    <nd ref="6153316903"/>
    <tag k="access" v="private"/>
    <tag k="highway" v="residential"/>
    <tag k="name" v="Dales Way"/>
  </way>
  <way id="925815688" version="1" timestamp="2021-04-04T08:30:12Z" changeset="102260999" uid="12994418" user="Runner83">
    <nd ref="1842957945"/>
    <nd ref="1842957942"/>
    <tag k="access" v="private"/>
    <tag k="highway" v="residential"/>
    <tag k="name" v="Ferry Meadow"/>
    <tag k="source" v="survey"/>
  </way>
  <way id="930808859" version="3" timestamp="2024-06-30T09:40:30Z" changeset="153360887" uid="6476359" user="NSiecw">
    <nd ref="8630343945"/>
    <nd ref="8630343946"/>
    <nd ref="9192659736"/>
    <nd ref="8630343947"/>
    <nd ref="8630343948"/>
    <tag k="highway" v="residential"/>
    <tag k="name" v="Egret Close"/>
  </way>
  <way id="995509570" version="4" timestamp="2024-06-30T09:40:30Z" changeset="153360887" uid="6476359" user="NSiecw">
    <nd ref="9192648469"/>
    <nd ref="9192648468"/>
    <nd ref="9192648467"/>
    <nd ref="9192648466"/>
    <nd ref="9192648469"/>
    <tag k="addr:city" v="Cambridge"/>
    <tag k="addr:housenumber" v="52"/>
    <tag k="addr:street" v="Turnpike Close"/>
    <tag k="addr:suburb" v="Needingworth"/>
    <tag k="building" v="yes"/>
  </way>
  <way id="995509571" version="2" timestamp="2024-06-28T14:42:10Z" changeset="153297242" uid="6476359" user="NSiecw">
    <nd ref="9192648473"/>
    <nd ref="9192648472"/>
    <nd ref="9192648471"/>
    <nd ref="9192648470"/>
    <nd ref="9192648473"/>
    <tag k="addr:city" v="Cambridge"/>
    <tag k="addr:housenumber" v="1"/>
    <tag k="addr:street" v="Gaunt Way"/>
    <tag k="building" v="yes"/>
  </way>
  <way id="995509572" version="2" timestamp="2024-06-28T14:42:10Z" changeset="153297242" uid="6476359" user="NSiecw">
    <nd ref="9192648477"/>
    <nd ref="9192648476"/>
    <nd ref="9192648475"/>
    <nd ref="9192648474"/>
    <nd ref="9192648477"/>
    <tag k="addr:city" v="Cambridge"/>
    <tag k="addr:housenumber" v="3"/>
    <tag k="addr:street" v="Gaunt Way"/>
    <tag k="building" v="yes"/>
  </way>
  <way id="995509573" version="2" timestamp="2024-06-28T14:42:10Z" changeset="153297242" uid="6476359" user="NSiecw">
    <nd ref="9192648481"/>
    <nd ref="9192648480"/>
    <nd ref="9192648479"/>
    <nd ref="9192648478"/>
    <nd ref="9192648481"/>
    <tag k="addr:city" v="Cambridge"/>
    <tag k="addr:housenumber" v="5"/>
    <tag k="addr:street" v="Gaunt Way"/>
    <tag k="building" v="yes"/>
  </way>
  <way id="995509574" version="2" timestamp="2024-06-28T14:42:10Z" changeset="153297242" uid="6476359" user="NSiecw">
    <nd ref="9192648487"/>
    <nd ref="9192648486"/>
    <nd ref="9192648483"/>
    <nd ref="9192648482"/>
    <nd ref="9192648485"/>
    <nd ref="9192648484"/>
    <nd ref="9192648487"/>
    <tag k="addr:city" v="Cambridge"/>
    <tag k="addr:housenumber" v="7"/>
    <tag k="addr:street" v="Gaunt Way"/>
    <tag k="building" v="yes"/>
  </way>
  <way id="995509575" version="4" timestamp="2024-06-30T09:40:30Z" changeset="153360887" uid="6476359" user="NSiecw">
    <nd ref="9192648491"/>
    <nd ref="9192648488"/>
    <nd ref="9192648489"/>
    <nd ref="9192648490"/>
    <nd ref="9192648491"/>
    <tag k="addr:city" v="Cambridge"/>
    <tag k="addr:housenumber" v="64"/>
    <tag k="addr:street" v="Turnpike Close"/>
    <tag k="addr:suburb" v="Needingworth"/>
    <tag k="building" v="yes"/>
  </way>
  <way id="995509576" version="4" timestamp="2024-06-30T09:40:30Z" changeset="153360887" uid="6476359" user="NSiecw">
    <nd ref="9192648495"/>
    <nd ref="9192648492"/>
    <nd ref="9192648493"/>
    <nd ref="9192648494"/>
    <nd ref="9192648495"/>
    <tag k="addr:city" v="Cambridge"/>
    <tag k="addr:housenumber" v="62"/>
    <tag k="addr:street" v="Turnpike Close"/>
    <tag k="addr:suburb" v="Needingworth"/>
    <tag k="building" v="yes"/>
  </way>
  <way id="995509577" version="4" timestamp="2024-06-30T09:40:30Z" changeset="153360887" uid="6476359" user="NSiecw">
    <nd ref="9192648499"/>
    <nd ref="9192648496"/>
    <nd ref="9192648497"/>
    <nd ref="9192648498"/>
    <nd ref="9192648499"/>
    <tag k="addr:city" v="Cambridge"/>
    <tag k="addr:housenumber" v="60"/>
    <tag k="addr:street" v="Turnpike Close"/>
    <tag k="addr:suburb" v="Needingworth"/>
    <tag k="building" v="yes"/>
  </way>
  <way id="995509578" version="4" timestamp="2024-06-30T09:40:30Z" changeset="153360887" uid="6476359" user="NSiecw">
    <nd ref="9192648503"/>
    <nd ref="9192648500"/>
    <nd ref="9192648501"/>
    <nd ref="9192648502"/>
    <nd ref="9192648503"/>
    <tag k="addr:city" v="Cambridge"/>
    <tag k="addr:housenumber" v="58"/>
    <tag k="addr:street" v="Turnpike Close"/>
    <tag k="addr:suburb" v="Needingworth"/>
    <tag k="building" v="yes"/>
  </way>
  <way id="995509579" version="4" timestamp="2024-06-30T09:40:30Z" changeset="153360887" uid="6476359" user="NSiecw">
    <nd ref="9192648507"/>
    <nd ref="9192648504"/>
    <nd ref="9192648505"/>
    <nd ref="9192648506"/>
    <nd ref="9192648507"/>
    <tag k="addr:city" v="Cambridge"/>
    <tag k="addr:housenumber" v="56"/>
    <tag k="addr:street" v="Turnpike Close"/>
    <tag k="addr:suburb" v="Needingworth"/>
    <tag k="building" v="yes"/>
  </way>
  <way id="995509580" version="4" timestamp="2024-06-30T09:40:30Z" changeset="153360887" uid="6476359" user="NSiecw">
    <nd ref="9192648511"/>
    <nd ref="9192648508"/>
    <nd ref="9192648509"/>
    <nd ref="9192648510"/>
    <nd ref="9192648511"/>
    <tag k="addr:city" v="Cambridge"/>
    <tag k="addr:housenumber" v="54"/>
    <tag k="addr:street" v="Turnpike Close"/>
    <tag k="addr:suburb" v="Needingworth"/>
    <tag k="building" v="yes"/>
  </way>
  <way id="995509581" version="3" timestamp="2024-06-30T09:40:30Z" changeset="153360887" uid="6476359" user="NSiecw">
    <nd ref="9192648513"/>
    <nd ref="9192659426"/>
    <nd ref="9192659427"/>
    <nd ref="9192648512"/>
    <nd ref="9192648513"/>
    <tag k="addr:city" v="Cambridge"/>
    <tag k="addr:housenumber" v="83"/>
    <tag k="addr:street" v="Turnpike Close"/>
    <tag k="addr:suburb" v="Needingworth"/>
    <tag k="building" v="yes"/>
  </way>
  <way id="995509582" version="3" timestamp="2024-06-30T09:40:30Z" changeset="153360887" uid="6476359" user="NSiecw">
    <nd ref="9192659417"/>
    <nd ref="9192659434"/>
    <nd ref="9192659435"/>
    <nd ref="9192648516"/>
    <nd ref="9192659417"/>
    <tag k="addr:city" v="Cambridge"/>
    <tag k="addr:housenumber" v="89"/>
    <tag k="addr:street" v="Turnpike Close"/>
    <tag k="addr:suburb" v="Needingworth"/>
    <tag k="building" v="yes"/>
  </way>
  <way id="995509584" version="3" timestamp="2024-06-30T09:40:30Z" changeset="153360887" uid="6476359" user="NSiecw">
    <nd ref="9192659419"/>
    <nd ref="9192659417"/>
    <nd ref="9192648516"/>
    <nd ref="9192659418"/>
    <nd ref="9192659419"/>
    <tag k="addr:city" v="Cambridge"/>
    <tag k="addr:housenumber" v="87"/>
    <tag k="addr:street" v="Turnpike Close"/>
    <tag k="addr:suburb" v="Needingworth"/>
    <tag k="building" v="yes"/>
  </way>
  <way id="995509585" version="3" timestamp="2024-06-30T09:40:30Z" changeset="153360887" uid="6476359" user="NSiecw">
    <nd ref="9192659421"/>
    <nd ref="9192659442"/>
    <nd ref="9192659443"/>
    <nd ref="9192659420"/>
    <nd ref="9192659421"/>
    <tag k="addr:city" v="Cambridge"/>
    <tag k="addr:housenumber" v="95"/>
    <tag k="addr:street" v="Turnpike Close"/>
    <tag k="addr:suburb" v="Needingworth"/>
    <tag k="building" v="yes"/>
  </way>
  <way id="995509586" version="3" timestamp="2024-06-30T09:40:30Z" changeset="153360887" uid="6476359" user="NSiecw">
    <nd ref="9192659423"/>
    <nd ref="9192659448"/>
    <nd ref="9192659447"/>
    <nd ref="9192659422"/>
    <nd ref="9192659423"/>
    <tag k="addr:city" v="Cambridge"/>
    <tag k="addr:housenumber" v="99"/>
    <tag k="addr:street" v="Turnpike Close"/>
    <tag k="addr:suburb" v="Needingworth"/>
    <tag k="building" v="yes"/>
  </way>
  <way id="995509587" version="3" timestamp="2024-06-30T09:40:30Z" changeset="153360887" uid="6476359" user="NSiecw">
    <nd ref="9192659425"/>
    <nd ref="9192659423"/>
    <nd ref="9192659422"/>
    <nd ref="9192659424"/>
    <nd ref="9192659425"/>
    <tag k="addr:city" v="Cambridge"/>
    <tag k="addr:housenumber" v="101"/>
    <tag k="addr:street" v="Turnpike Close"/>
    <tag k="addr:suburb" v="Needingworth"/>
    <tag k="building" v="yes"/>
  </way>
  <way id="995509588" version="3" timestamp="2024-06-30T09:40:30Z" changeset="153360887" uid="6476359" user="NSiecw">
    <nd ref="9192659429"/>
    <nd ref="9192648513"/>
    <nd ref="9192648512"/>
    <nd ref="9192659428"/>
    <nd ref="9192659429"/>
    <tag k="addr:city" v="Cambridge"/>
    <tag k="addr:housenumber" v="81"/>
    <tag k="addr:street" v="Turnpike Close"/>
    <tag k="addr:suburb" v="Needingworth"/>
    <tag k="building" v="yes"/>
  </way>
  <way id="995509589" version="4" timestamp="2024-06-30T09:40:30Z" changeset="153360887" uid="6476359" user="NSiecw">
    <nd ref="9192659433"/>
    <nd ref="9192659430"/>
    <nd ref="9192659431"/>
    <nd ref="9192659432"/>
    <nd ref="9192659433"/>
    <tag k="addr:city" v="Cambridge"/>
    <tag k="addr:housenumber" v="91"/>
    <tag k="addr:street" v="Turnpike Close"/>
    <tag k="addr:suburb" v="Needingworth"/>
    <tag k="building" v="yes"/>
  </way>
  <way id="995509590" version="3" timestamp="2024-06-30T09:40:30Z" changeset="153360887" uid="6476359" user="NSiecw">
    <nd ref="9192659437"/>
    <nd ref="9192659419"/>
    <nd ref="9192659418"/>
    <nd ref="9192659436"/>
    <nd ref="9192659437"/>
    <tag k="addr:city" v="Cambridge"/>
    <tag k="addr:housenumber" v="85"/>
    <tag k="addr:street" v="Turnpike Close"/>
    <tag k="addr:suburb" v="Needingworth"/>
    <tag k="building" v="yes"/>
  </way>
  <way id="995509591" version="4" timestamp="2024-06-30T09:40:30Z" changeset="153360887" uid="6476359" user="NSiecw">
    <nd ref="9192659441"/>
    <nd ref="9192659438"/>
    <nd ref="9192659439"/>
    <nd ref="9192659440"/>
    <nd ref="9192659441"/>
    <tag k="addr:city" v="Cambridge"/>
    <tag k="addr:housenumber" v="93"/>
    <tag k="addr:street" v="Turnpike Close"/>
    <tag k="addr:suburb" v="Needingworth"/>
    <tag k="building" v="yes"/>
  </way>
  <way id="995509592" version="3" timestamp="2024-06-30T09:40:30Z" changeset="153360887" uid="6476359" user="NSiecw">
    <nd ref="9192659445"/>
    <nd ref="9192659421"/>
    <nd ref="9192659420"/>
    <nd ref="9192659444"/>
    <nd ref="9192659445"/>
    <tag k="addr:city" v="Cambridge"/>
    <tag k="addr:housenumber" v="97"/>
    <tag k="addr:street" v="Turnpike Close"/>
    <tag k="addr:suburb" v="Needingworth"/>
    <tag k="building" v="yes"/>
  </way>
  <way id="995509593" version="3" timestamp="2024-06-30T09:40:30Z" changeset="153360887" uid="6476359" user="NSiecw">
    <nd ref="9192659449"/>
    <nd ref="9192659425"/>
    <nd ref="9192659424"/>
    <nd ref="9192659446"/>
    <nd ref="9192659449"/>
    <tag k="addr:city" v="Cambridge"/>
    <tag k="addr:housenumber" v="103"/>
    <tag k="addr:street" v="Turnpike Close"/>
    <tag k="addr:suburb" v="Needingworth"/>
    <tag k="building" v="yes"/>
  </way>
  <way id="995509594" version="2" timestamp="2024-06-30T09:40:30Z" changeset="153360887" uid="6476359" user="NSiecw">
    <nd ref="9192659453"/>
    <nd ref="9192659450"/>
    <nd ref="9192659451"/>
    <nd ref="9192659452"/>
    <nd ref="9192659453"/>
    <tag k="addr:city" v="Cambridge"/>
    <tag k="addr:housenumber" v="2"/>
    <tag k="addr:street" v="Wilmer Way"/>
    <tag k="addr:suburb" v="Needingworth"/>
    <tag k="building" v="yes"/>
  </way>
  <way id="995509595" version="2" timestamp="2024-06-30T09:40:30Z" changeset="153360887" uid="6476359" user="NSiecw">
    <nd ref="9192659457"/>
    <nd ref="9192659454"/>
    <nd ref="9192659455"/>
    <nd ref="9192659456"/>
    <nd ref="9192659457"/>
    <tag k="addr:city" v="Cambridge"/>
    <tag k="addr:housenumber" v="4"/>
    <tag k="addr:street" v="Wilmer Way"/>
    <tag k="addr:suburb" v="Needingworth"/>
    <tag k="building" v="yes"/>
  </way>
  <way id="995509596" version="2" timestamp="2024-06-30T09:40:30Z" changeset="153360887" uid="6476359" user="NSiecw">
    <nd ref="9192659461"/>
    <nd ref="9192659458"/>
    <nd ref="9192659459"/>
    <nd ref="9192659460"/>
    <nd ref="9192659461"/>
    <tag k="addr:city" v="Cambridge"/>
    <tag k="addr:housenumber" v="6"/>
    <tag k="addr:street" v="Wilmer Way"/>
    <tag k="addr:suburb" v="Needingworth"/>
    <tag k="building" v="yes"/>
  </way>
  <way id="995509597" version="3" timestamp="2024-06-30T09:40:30Z" changeset="153360887" uid="6476359" user="NSiecw">
    <nd ref="11665395974"/>
    <nd ref="9192659462"/>
    <nd ref="9192659464"/>
    <nd ref="9192659469"/>
    <nd ref="9192659466"/>
    <nd ref="11665395973"/>
    <nd ref="11665395974"/>
    <tag k="addr:city" v="Cambridge"/>
    <tag k="addr:housenumber" v="10"/>
    <tag k="addr:street" v="Wilmer Way"/>
    <tag k="addr:suburb" v="Needingworth"/>
    <tag k="building" v="yes"/>
  </way>
  <way id="995509598" version="4" timestamp="2024-06-30T09:40:30Z" changeset="153360887" uid="6476359" user="NSiecw">
    <nd ref="9192659473"/>
    <nd ref="9192659470"/>
    <nd ref="9192659471"/>
    <nd ref="9192659472"/>
    <nd ref="9192659473"/>
    <tag k="addr:city" v="Cambridge"/>
    <tag k="addr:housenumber" v="71"/>
    <tag k="addr:street" v="Turnpike Close"/>
    <tag k="addr:suburb" v="Needingworth"/>
    <tag k="building" v="yes"/>
  </way>
  <way id="995509599" version="3" timestamp="2024-06-30T09:40:30Z" changeset="153360887" uid="6476359" user="NSiecw">
    <nd ref="9192659477"/>
    <nd ref="9192659476"/>
    <nd ref="9192659475"/>
    <nd ref="9192659474"/>
    <nd ref="9192659477"/>
    <tag k="addr:city" v="Cambridge"/>
    <tag k="addr:housenumber" v="73"/>
    <tag k="addr:street" v="Turnpike Close"/>
    <tag k="addr:suburb" v="Needingworth"/>
    <tag k="building" v="yes"/>
  </way>
  <way id="995509600" version="3" timestamp="2024-06-30T09:40:30Z" changeset="153360887" uid="6476359" user="NSiecw">
    <nd ref="9192659481"/>
    <nd ref="11665395966"/>
    <nd ref="11665395965"/>
    <nd ref="9192659480"/>
    <nd ref="9192659481"/>
    <tag k="addr:city" v="Cambridge"/>
    <tag k="addr:housenumber" v="22"/>
    <tag k="addr:street" v="Wilmer Way"/>
    <tag k="addr:suburb" v="Needingworth"/>
    <tag k="building" v="yes"/>
  </way>
  <way id="995509603" version="5" timestamp="2024-06-30T09:40:30Z" changeset="153360887" uid="6476359" user="NSiecw">
    <nd ref="9192659493"/>
    <nd ref="9192659490"/>
    <nd ref="9192659491"/>
    <nd ref="9192659492"/>
    <nd ref="11125354388"/>
    <nd ref="11125354387"/>
    <nd ref="9192659493"/>
    <tag k="addr:city" v="Cambridge"/>
    <tag k="addr:housenumber" v="79"/>
    <tag k="addr:street" v="Turnpike Close"/>
    <tag k="addr:suburb" v="Needingworth"/>
    <tag k="building" v="yes"/>
  </way>
  <way id="995509604" version="6" timestamp="2024-06-30T09:40:30Z" changeset="153360887" uid="6476359" user="NSiecw">
    <nd ref="9192659494"/>
    <nd ref="9192659495"/>
    <nd ref="9192659496"/>
    <nd ref="11125354389"/>
    <nd ref="9192659494"/>
    <tag k="addr:city" v="Cambridge"/>
    <tag k="addr:housenumber" v="77"/>
    <tag k="addr:street" v="Turnpike Close"/>
    <tag k="addr:suburb" v="Needingworth"/>
    <tag k="building" v="yes"/>
  </way>
  <way id="995509605" version="3" timestamp="2024-06-30T09:40:30Z" changeset="153360887" uid="6476359" user="NSiecw">
    <nd ref="9192659501"/>
    <nd ref="9192659498"/>
    <nd ref="9192659499"/>
    <nd ref="9192659500"/>
    <nd ref="9192659501"/>
    <tag k="addr:city" v="Cambridge"/>
    <tag k="addr:housenumber" v="75"/>
    <tag k="addr:street" v="Turnpike Close"/>
    <tag k="addr:suburb" v="Needingworth"/>
    <tag k="building" v="yes"/>
  </way>
  <way id="995509606" version="2" timestamp="2024-06-30T09:40:30Z" changeset="153360887" uid="6476359" user="NSiecw">
    <nd ref="9192659505"/>
    <nd ref="9192659502"/>
    <nd ref="9192659503"/>
    <nd ref="9192659504"/>
    <nd ref="9192659505"/>
    <tag k="addr:city" v="Cambridge"/>
    <tag k="addr:housenumber" v="2"/>
    <tag k="addr:street" v="Sandifer Way"/>
    <tag k="addr:suburb" v="Needingworth"/>
    <tag k="building" v="yes"/>
  </way>
  <way id="995509607" version="2" timestamp="2024-06-30T09:40:30Z" changeset="153360887" uid="6476359" user="NSiecw">
    <nd ref="9192659511"/>
    <nd ref="9192659507"/>
    <nd ref="9192659506"/>
    <nd ref="9192659508"/>
    <nd ref="9192659509"/>
    <nd ref="9192659510"/>
    <nd ref="9192659511"/>
    <tag k="addr:city" v="Cambridge"/>
    <tag k="addr:housenumber" v="4"/>
    <tag k="addr:street" v="Sandifer Way"/>
    <tag k="addr:suburb" v="Needingworth"/>
    <tag k="building" v="yes"/>
  </way>
  <way id="995509608" version="2" timestamp="2024-06-30T09:40:30Z" changeset="153360887" uid="6476359" user="NSiecw">
    <nd ref="9192659515"/>
    <nd ref="9192659512"/>
    <nd ref="9192659513"/>
    <nd ref="9192659514"/>
    <nd ref="9192659515"/>
    <tag k="addr:city" v="Cambridge"/>
    <tag k="addr:housenumber" v="6"/>
    <tag k="addr:street" v="Sandifer Way"/>
    <tag k="addr:suburb" v="Needingworth"/>
    <tag k="building" v="yes"/>
  </way>
  <way id="995509609" version="2" timestamp="2024-06-30T09:40:30Z" changeset="153360887" uid="6476359" user="NSiecw">
    <nd ref="9192659521"/>
    <nd ref="9192659518"/>
    <nd ref="9192659516"/>
    <nd ref="9192659517"/>
    <nd ref="9192659519"/>
    <nd ref="9192659520"/>
    <nd ref="9192659521"/>
    <tag k="addr:city" v="Cambridge"/>
    <tag k="addr:housenumber" v="8"/>
    <tag k="addr:street" v="Sandifer Way"/>
    <tag k="addr:suburb" v="Needingworth"/>
    <tag k="building" v="yes"/>
  </way>
  <way id="995509610" version="3" timestamp="2024-06-30T09:40:30Z" changeset="153360887" uid="6476359" user="NSiecw">
    <nd ref="9192659525"/>
    <nd ref="9192659522"/>
    <nd ref="9192659523"/>
    <nd ref="9192659524"/>
    <nd ref="9192659525"/>
    <tag k="addr:city" v="Cambridge"/>
    <tag k="addr:housenumber" v="6"/>
    <tag k="addr:street" v="Turnpike Close"/>
    <tag k="addr:suburb" v="Needingworth"/>
    <tag k="building" v="yes"/>
  </way>
  <way id="995509611" version="3" timestamp="2024-06-30T09:40:30Z" changeset="153360887" uid="6476359" user="NSiecw">
    <nd ref="9192659529"/>
    <nd ref="9192659526"/>
    <nd ref="9192659527"/>
    <nd ref="9192659528"/>
    <nd ref="9192659529"/>
    <tag k="addr:city" v="Cambridge"/>
    <tag k="addr:housenumber" v="4"/>
    <tag k="addr:street" v="Turnpike Close"/>
    <tag k="addr:suburb" v="Needingworth"/>
    <tag k="building" v="yes"/>
  </way>
  <way id="995509612" version="4" timestamp="2024-06-30T09:40:30Z" changeset="153360887" uid="6476359" user="NSiecw">
    <nd ref="9192659533"/>
    <nd ref="9192659530"/>
    <nd ref="9192659531"/>
    <nd ref="9192659532"/>
    <nd ref="11125354390"/>
    <nd ref="9192659533"/>
    <tag k="addr:city" v="Cambridge"/>
    <tag k="addr:housenumber" v="2"/>
    <tag k="addr:street" v="Turnpike Close"/>
    <tag k="addr:suburb" v="Needingworth"/>
    <tag k="building" v="yes"/>
  </way>
  <way id="995509613" version="3" timestamp="2024-06-30T09:40:30Z" changeset="153360887" uid="6476359" user="NSiecw">
    <nd ref="9192659537"/>
    <nd ref="9192659534"/>
    <nd ref="9192659535"/>
    <nd ref="9192659536"/>
    <nd ref="9192659537"/>
    <tag k="addr:city" v="Cambridge"/>
    <tag k="addr:housenumber" v="50"/>
    <tag k="addr:street" v="Turnpike Close"/>
    <tag k="addr:suburb" v="Needingworth"/>
    <tag k="building" v="yes"/>
  </way>
  <way id="995509614" version="3" timestamp="2024-06-30T09:40:30Z" changeset="153360887" uid="6476359" user="NSiecw">
    <nd ref="9192659543"/>
    <nd ref="9192659540"/>
    <nd ref="9192659538"/>
    <nd ref="9192659539"/>
    <nd ref="9192659541"/>
    <nd ref="9192659542"/>
    <nd ref="9192659543"/>
    <tag k="addr:city" v="Cambridge"/>
    <tag k="addr:housenumber" v="48"/>
    <tag k="addr:street" v="Turnpike Close"/>
    <tag k="addr:suburb" v="Needingworth"/>
    <tag k="building" v="yes"/>
  </way>
  <way id="995509615" version="4" timestamp="2024-06-30T09:40:30Z" changeset="153360887" uid="6476359" user="NSiecw">
    <nd ref="9192659547"/>
    <nd ref="9192659544"/>
    <nd ref="9192659545"/>
    <nd ref="9192659546"/>
    <nd ref="9192659547"/>
    <tag k="addr:city" v="Cambridge"/>
    <tag k="addr:housenumber" v="46"/>
    <tag k="addr:street" v="Turnpike Close"/>
    <tag k="addr:suburb" v="Needingworth"/>
    <tag k="building" v="yes"/>
  </way>
  <way id="995509616" version="3" timestamp="2024-06-30T09:40:30Z" changeset="153360887" uid="6476359" user="NSiecw">
    <nd ref="9192659551"/>
    <nd ref="9192659550"/>
    <nd ref="9192659549"/>
    <nd ref="9192659548"/>
    <nd ref="9192659551"/>
    <tag k="addr:city" v="Cambridge"/>
    <tag k="addr:housenumber" v="44"/>
    <tag k="addr:street" v="Turnpike Close"/>
    <tag k="addr:suburb" v="Needingworth"/>
    <tag k="building" v="yes"/>
  </way>
  <way id="995509617" version="3" timestamp="2024-06-30T09:40:30Z" changeset="153360887" uid="6476359" user="NSiecw">
    <nd ref="9192659555"/>
    <nd ref="9192659552"/>
    <nd ref="9192659553"/>
    <nd ref="9192659554"/>
    <nd ref="9192659555"/>
    <tag k="addr:city" v="Cambridge"/>
    <tag k="addr:housenumber" v="42"/>
    <tag k="addr:street" v="Turnpike Close"/>
    <tag k="addr:suburb" v="Needingworth"/>
    <tag k="building" v="yes"/>
  </way>
  <way id="995509618" version="3" timestamp="2024-06-30T09:40:30Z" changeset="153360887" uid="6476359" user="NSiecw">
    <nd ref="9192659559"/>
    <nd ref="9192659556"/>
    <nd ref="9192659557"/>
    <nd ref="9192659558"/>
    <nd ref="9192659559"/>
    <tag k="addr:city" v="Cambridge"/>
    <tag k="addr:housenumber" v="12"/>
    <tag k="addr:street" v="Turnpike Close"/>
    <tag k="addr:suburb" v="Needingworth"/>
    <tag k="building" v="yes"/>
  </way>
  <way id="995509619" version="3" timestamp="2024-06-30T09:40:30Z" changeset="153360887" uid="6476359" user="NSiecw">
    <nd ref="9192659563"/>
    <nd ref="9192659560"/>
    <nd ref="9192659561"/>
    <nd ref="9192659562"/>
    <nd ref="9192659563"/>
    <tag k="addr:city" v="Cambridge"/>
    <tag k="addr:housenumber" v="10"/>
    <tag k="addr:street" v="Turnpike Close"/>
    <tag k="addr:suburb" v="Needingworth"/>
    <tag k="building" v="yes"/>
  </way>
  <way id="995509620" version="3" timestamp="2024-06-30T09:40:30Z" changeset="153360887" uid="6476359" user="NSiecw">
    <nd ref="9192659567"/>
    <nd ref="9192659564"/>
    <nd ref="9192659565"/>
    <nd ref="9192659566"/>
    <nd ref="9192659567"/>
    <tag k="addr:city" v="Cambridge"/>
    <tag k="addr:housenumber" v="8"/>
    <tag k="addr:street" v="Turnpike Close"/>
    <tag k="addr:suburb" v="Needingworth"/>
    <tag k="building" v="yes"/>
  </way>
  <way id="995509621" version="3" timestamp="2024-06-30T09:40:30Z" changeset="153360887" uid="6476359" user="NSiecw">
    <nd ref="9192659571"/>
    <nd ref="9192659570"/>
    <nd ref="9192659569"/>
    <nd ref="9192659568"/>
    <nd ref="9192659571"/>
    <tag k="addr:city" v="Cambridge"/>
    <tag k="addr:housenumber" v="7"/>
    <tag k="addr:street" v="Turnpike Close"/>
    <tag k="addr:suburb" v="Needingworth"/>
    <tag k="building" v="house"/>
  </way>
  <way id="995509622" version="3" timestamp="2024-06-30T09:40:30Z" changeset="153360887" uid="6476359" user="NSiecw">
    <nd ref="9192659575"/>
    <nd ref="9192659574"/>
    <nd ref="9192659573"/>
    <nd ref="9192659572"/>
    <nd ref="9192659575"/>
    <tag k="addr:city" v="Cambridge"/>
    <tag k="addr:housenumber" v="5"/>
    <tag k="addr:street" v="Turnpike Close"/>
    <tag k="addr:suburb" v="Needingworth"/>
    <tag k="building" v="house"/>
  </way>
  <way id="995509623" version="3" timestamp="2024-06-30T09:40:30Z" changeset="153360887" uid="6476359" user="NSiecw">
    <nd ref="9192659579"/>
    <nd ref="9192659578"/>
    <nd ref="9192659577"/>
    <nd ref="9192659576"/>
    <nd ref="9192659579"/>
    <tag k="addr:city" v="Cambridge"/>
    <tag k="addr:housenumber" v="3"/>
    <tag k="addr:street" v="Turnpike Close"/>
    <tag k="addr:suburb" v="Needingworth"/>
    <tag k="building" v="house"/>
  </way>
  <way id="995509624" version="3" timestamp="2024-06-30T09:40:30Z" changeset="153360887" uid="6476359" user="NSiecw">
    <nd ref="9192659583"/>
    <nd ref="9192659580"/>
    <nd ref="9192659581"/>
    <nd ref="9192659582"/>
    <nd ref="9192659583"/>
    <tag k="addr:city" v="Cambridge"/>
    <tag k="addr:housenumber" v="1"/>
    <tag k="addr:street" v="Turnpike Close"/>
    <tag k="addr:suburb" v="Needingworth"/>
    <tag k="building" v="house"/>
  </way>
  <way id="995509625" version="4" timestamp="2024-06-30T09:40:30Z" changeset="153360887" uid="6476359" user="NSiecw">
    <nd ref="9192659587"/>
    <nd ref="9192659586"/>
    <nd ref="9192659585"/>
    <nd ref="9192659584"/>
    <nd ref="9192659587"/>
    <tag k="addr:city" v="Cambridge"/>
    <tag k="addr:housenumber" v="19"/>
    <tag k="addr:street" v="Turnpike Close"/>
    <tag k="addr:suburb" v="Needingworth"/>
    <tag k="building" v="house"/>
  </way>
  <way id="995509626" version="3" timestamp="2024-06-30T09:40:30Z" changeset="153360887" uid="6476359" user="NSiecw">
    <nd ref="9192659591"/>
    <nd ref="9192659590"/>
    <nd ref="9192659589"/>
    <nd ref="9192659588"/>
    <nd ref="9192659591"/>
    <tag k="addr:city" v="Cambridge"/>
    <tag k="addr:housenumber" v="17"/>
    <tag k="addr:street" v="Turnpike Close"/>
    <tag k="addr:suburb" v="Needingworth"/>
    <tag k="building" v="house"/>
  </way>
  <way id="995509627" version="4" timestamp="2024-06-30T09:40:30Z" changeset="153360887" uid="6476359" user="NSiecw">
    <nd ref="9192659595"/>
    <nd ref="9192659592"/>
    <nd ref="9192659593"/>
    <nd ref="11125372219"/>
    <nd ref="9192659595"/>
    <tag k="addr:city" v="Cambridge"/>
    <tag k="addr:housenumber" v="15"/>
    <tag k="addr:street" v="Turnpike Close"/>
    <tag k="addr:suburb" v="Needingworth"/>
    <tag k="building" v="house"/>
  </way>
  <way id="995509628" version="4" timestamp="2024-06-30T09:40:30Z" changeset="153360887" uid="6476359" user="NSiecw">
    <nd ref="9192659599"/>
    <nd ref="9192659596"/>
    <nd ref="9192659597"/>
    <nd ref="9192659598"/>
    <nd ref="9192659599"/>
    <tag k="addr:city" v="Cambridge"/>
    <tag k="addr:housenumber" v="11"/>
    <tag k="addr:street" v="Turnpike Close"/>
    <tag k="addr:suburb" v="Needingworth"/>
    <tag k="building" v="house"/>
  </way>
  <way id="995509629" version="4" timestamp="2024-06-30T09:40:30Z" changeset="153360887" uid="6476359" user="NSiecw">
    <nd ref="9192659605"/>
    <nd ref="9192659602"/>
    <nd ref="9192659600"/>
    <nd ref="9192659601"/>
    <nd ref="9192659603"/>
    <nd ref="9192659604"/>
    <nd ref="9192659605"/>
    <tag k="addr:city" v="Cambridge"/>
    <tag k="addr:housenumber" v="9"/>
    <tag k="addr:street" v="Turnpike Close"/>
    <tag k="addr:suburb" v="Needingworth"/>
    <tag k="building" v="house"/>
  </way>
  <way id="995509630" version="4" timestamp="2024-06-30T09:40:30Z" changeset="153360887" uid="6476359" user="NSiecw">
    <nd ref="9192659609"/>
    <nd ref="9192659608"/>
    <nd ref="9192659607"/>
    <nd ref="9192659606"/>
    <nd ref="9192659609"/>
    <tag k="addr:city" v="Cambridge"/>
    <tag k="addr:housenumber" v="117"/>
    <tag k="addr:street" v="Turnpike Close"/>
    <tag k="addr:suburb" v="Needingworth"/>
    <tag k="building" v="yes"/>
  </way>
  <way id="995509631" version="3" timestamp="2024-06-30T09:40:30Z" changeset="153360887" uid="6476359" user="NSiecw">
    <nd ref="9192659613"/>
    <nd ref="9192659612"/>
    <nd ref="9192659611"/>
    <nd ref="9192659610"/>
    <nd ref="9192659613"/>
    <tag k="addr:city" v="Cambridge"/>
    <tag k="addr:housenumber" v="115"/>
    <tag k="addr:street" v="Turnpike Close"/>
    <tag k="addr:suburb" v="Needingworth"/>
    <tag k="building" v="yes"/>
  </way>
  <way id="995509632" version="3" timestamp="2024-06-30T09:40:30Z" changeset="153360887" uid="6476359" user="NSiecw">
    <nd ref="9192659617"/>
    <nd ref="9192659616"/>
    <nd ref="9192659615"/>
    <nd ref="9192659614"/>
    <nd ref="9192659617"/>
    <tag k="addr:city" v="Cambridge"/>
    <tag k="addr:housenumber" v="113"/>
    <tag k="addr:street" v="Turnpike Close"/>
    <tag k="addr:suburb" v="Needingworth"/>
    <tag k="building" v="yes"/>
  </way>
  <way id="995509633" version="3" timestamp="2024-06-30T09:40:30Z" changeset="153360887" uid="6476359" user="NSiecw">
    <nd ref="9192659621"/>
    <nd ref="9192659620"/>
    <nd ref="9192659619"/>
    <nd ref="9192659618"/>
    <nd ref="9192659621"/>
    <tag k="addr:city" v="Cambridge"/>
    <tag k="addr:housenumber" v="111"/>
    <tag k="addr:street" v="Turnpike Close"/>
    <tag k="addr:suburb" v="Needingworth"/>
    <tag k="building" v="yes"/>
  </way>
  <way id="995509634" version="4" timestamp="2024-06-30T09:40:30Z" changeset="153360887" uid="6476359" user="NSiecw">
    <nd ref="9192659625"/>
    <nd ref="9192659624"/>
    <nd ref="9192659623"/>
    <nd ref="9192659622"/>
    <nd ref="9192659625"/>
    <tag k="addr:city" v="Cambridge"/>
    <tag k="addr:housenumber" v="109"/>
    <tag k="addr:street" v="Turnpike Close"/>
    <tag k="addr:suburb" v="Needingworth"/>
    <tag k="building" v="yes"/>
  </way>
  <way id="995509635" version="3" timestamp="2024-06-30T09:40:30Z" changeset="153360887" uid="6476359" user="NSiecw">
    <nd ref="9192659629"/>
    <nd ref="9192659628"/>
    <nd ref="9192659627"/>
    <nd ref="9192659626"/>
    <nd ref="9192659629"/>
    <tag k="addr:city" v="Cambridge"/>
    <tag k="addr:housenumber" v="107"/>
    <tag k="addr:street" v="Turnpike Close"/>
    <tag k="addr:suburb" v="Needingworth"/>
    <tag k="building" v="yes"/>
  </way>
  <way id="995509636" version="3" timestamp="2024-06-30T09:40:30Z" changeset="153360887" uid="6476359" user="NSiecw">
    <nd ref="9192659633"/>
    <nd ref="9192659632"/>
    <nd ref="9192659631"/>
    <nd ref="9192659630"/>
    <nd ref="9192659633"/>
    <tag k="addr:city" v="Cambridge"/>
    <tag k="addr:housenumber" v="105"/>
    <tag k="addr:street" v="Turnpike Close"/>
    <tag k="addr:suburb" v="Needingworth"/>
    <tag k="building" v="yes"/>
  </way>
  <way id="995509637" version="3" timestamp="2024-06-30T09:40:30Z" changeset="153360887" uid="6476359" user="NSiecw">
    <nd ref="9192659637"/>
    <nd ref="9192659636"/>
    <nd ref="9192659635"/>
    <nd ref="9192659634"/>
    <nd ref="9192659637"/>
    <tag k="addr:city" v="Cambridge"/>
    <tag k="addr:housenumber" v="123"/>
    <tag k="addr:street" v="Turnpike Close"/>
    <tag k="addr:suburb" v="Needingworth"/>
    <tag k="building" v="yes"/>
  </way>
  <way id="995509638" version="3" timestamp="2024-06-30T09:40:30Z" changeset="153360887" uid="6476359" user="NSiecw">
    <nd ref="9192659641"/>
    <nd ref="9192659640"/>
    <nd ref="9192659639"/>
    <nd ref="9192659638"/>
    <nd ref="9192659641"/>
    <tag k="addr:city" v="Cambridge"/>
    <tag k="addr:housenumber" v="121"/>
    <tag k="addr:street" v="Turnpike Close"/>
    <tag k="addr:suburb" v="Needingworth"/>
    <tag k="building" v="yes"/>
  </way>
  <way id="995509639" version="3" timestamp="2024-06-30T09:40:30Z" changeset="153360887" uid="6476359" user="NSiecw">
    <nd ref="9192659647"/>
    <nd ref="9192659644"/>
    <nd ref="9192659642"/>
    <nd ref="9192659643"/>
    <nd ref="9192659645"/>
    <nd ref="9192659646"/>
    <nd ref="9192659647"/>
    <tag k="addr:city" v="Cambridge"/>
    <tag k="addr:housenumber" v="119"/>
    <tag k="addr:street" v="Turnpike Close"/>
    <tag k="addr:suburb" v="Needingworth"/>
    <tag k="building" v="yes"/>
  </way>
  <way id="995509643" version="5" timestamp="2024-06-28T14:42:10Z" changeset="153297242" uid="6476359" user="NSiecw">
    <nd ref="9192659667"/>
    <nd ref="11665395900"/>
    <nd ref="12017527362"/>
    <nd ref="9192659666"/>
    <nd ref="9192659664"/>
    <nd ref="9192659663"/>
    <nd ref="9192659662"/>
    <nd ref="11665396122"/>
    <nd ref="9192659660"/>
    <nd ref="11665396118"/>
    <nd ref="9192659659"/>
    <nd ref="9192659658"/>
    <nd ref="9192659657"/>
    <nd ref="11125372214"/>
    <nd ref="9192659656"/>
    <nd ref="11125372207"/>
    <nd ref="9192648461"/>
    <nd ref="9192659655"/>
    <nd ref="11665396043"/>
    <nd ref="9192648463"/>
    <nd ref="9192659654"/>
    <nd ref="9192659653"/>
    <nd ref="11665395997"/>
    <nd ref="9192659671"/>
    <nd ref="11665395998"/>
    <nd ref="9192648459"/>
    <nd ref="11665396123"/>
    <nd ref="9192659672"/>
    <nd ref="9192659669"/>
    <nd ref="11665395977"/>
    <nd ref="9192659668"/>
    <nd ref="11125372218"/>
    <nd ref="9192659667"/>
    <tag k="highway" v="residential"/>
    <tag k="name" v="Turnpike Close"/>
  </way>
  <way id="995509644" version="5" timestamp="2024-06-28T14:42:10Z" changeset="153297242" uid="6476359" user="NSiecw">
    <nd ref="9192659662"/>
    <nd ref="11665396027"/>
    <nd ref="9192659661"/>
    <nd ref="11125372327"/>
    <nd ref="11125372326"/>
    <nd ref="11125372325"/>
    <nd ref="11125372324"/>
    <nd ref="11125372323"/>
    <nd ref="11125372322"/>
    <nd ref="11665396032"/>
    <nd ref="9192659659"/>
    <tag k="highway" v="residential"/>
    <tag k="name" v="Wilmer Way"/>
  </way>
  <way id="995509646" version="3" timestamp="2024-06-28T14:42:10Z" changeset="153297242" uid="6476359" user="NSiecw">
    <nd ref="3517362757"/>
    <nd ref="11665396114"/>
    <nd ref="9192659675"/>
    <nd ref="9192659674"/>
    <nd ref="9192659673"/>
    <nd ref="11665395976"/>
    <nd ref="9192659672"/>
    <tag k="highway" v="residential"/>
    <tag k="name" v="Turnpike Close"/>
  </way>
  <way id="995509649" version="2" timestamp="2024-06-30T09:40:30Z" changeset="153360887" uid="6476359" user="NSiecw">
    <nd ref="9192659693"/>
    <nd ref="9192659692"/>
    <nd ref="9192659691"/>
    <nd ref="9192659690"/>
    <nd ref="9192659693"/>
    <tag k="addr:city" v="Cambridge"/>
    <tag k="addr:housenumber" v="15"/>
    <tag k="addr:street" v="Egret Close"/>
    <tag k="addr:suburb" v="Needingworth"/>
    <tag k="building" v="yes"/>
  </way>
  <way id="995509650" version="2" timestamp="2024-06-30T09:40:30Z" changeset="153360887" uid="6476359" user="NSiecw">
    <nd ref="9192659697"/>
    <nd ref="9192659696"/>
    <nd ref="9192659695"/>
    <nd ref="9192659694"/>
    <nd ref="9192659697"/>
    <tag k="addr:city" v="Cambridge"/>
    <tag k="addr:housenumber" v="14"/>
    <tag k="addr:street" v="Egret Close"/>
    <tag k="addr:suburb" v="Needingworth"/>
    <tag k="building" v="yes"/>
  </way>
  <way id="995509651" version="2" timestamp="2024-06-30T09:40:30Z" changeset="153360887" uid="6476359" user="NSiecw">
    <nd ref="9192659702"/>
    <nd ref="9192659699"/>
    <nd ref="9192659698"/>
    <nd ref="9192659701"/>
    <nd ref="9192659702"/>
    <tag k="addr:city" v="Cambridge"/>
    <tag k="addr:housenumber" v="11"/>
    <tag k="addr:street" v="Egret Close"/>
    <tag k="addr:suburb" v="Needingworth"/>
    <tag k="building" v="yes"/>
  </way>
  <way id="995509652" version="2" timestamp="2024-06-30T09:40:30Z" changeset="153360887" uid="6476359" user="NSiecw">
    <nd ref="9192659703"/>
    <nd ref="9192659702"/>
    <nd ref="9192659701"/>
    <nd ref="9192659700"/>
    <nd ref="9192659703"/>
    <tag k="addr:city" v="Cambridge"/>
    <tag k="addr:housenumber" v="12"/>
    <tag k="addr:street" v="Egret Close"/>
    <tag k="addr:suburb" v="Needingworth"/>
    <tag k="building" v="yes"/>
  </way>
  <way id="995509653" version="2" timestamp="2024-06-30T09:40:30Z" changeset="153360887" uid="6476359" user="NSiecw">
    <nd ref="9192659708"/>
    <nd ref="9192659705"/>
    <nd ref="9192659704"/>
    <nd ref="9192659707"/>
    <nd ref="9192659708"/>
    <tag k="addr:city" v="Cambridge"/>
    <tag k="addr:housenumber" v="9"/>
    <tag k="addr:street" v="Egret Close"/>
    <tag k="addr:suburb" v="Needingworth"/>
    <tag k="building" v="yes"/>
  </way>
  <way id="995509654" version="2" timestamp="2024-06-30T09:40:30Z" changeset="153360887" uid="6476359" user="NSiecw">
    <nd ref="9192659709"/>
    <nd ref="9192659708"/>
    <nd ref="9192659707"/>
    <nd ref="9192659706"/>
    <nd ref="9192659709"/>
    <tag k="addr:city" v="Cambridge"/>
    <tag k="addr:housenumber" v="10"/>
    <tag k="addr:street" v="Egret Close"/>
    <tag k="addr:suburb" v="Needingworth"/>
    <tag k="building" v="yes"/>
  </way>
  <way id="995509655" version="2" timestamp="2024-06-30T09:40:30Z" changeset="153360887" uid="6476359" user="NSiecw">
    <nd ref="9192659711"/>
    <nd ref="9192659715"/>
    <nd ref="9192659712"/>
    <nd ref="9192659710"/>
    <nd ref="9192659711"/>
    <tag k="addr:city" v="Cambridge"/>
    <tag k="addr:housenumber" v="7"/>
    <tag k="addr:street" v="Egret Close"/>
    <tag k="addr:suburb" v="Needingworth"/>
    <tag k="building" v="yes"/>
  </way>
  <way id="995509656" version="2" timestamp="2024-06-30T09:40:30Z" changeset="153360887" uid="6476359" user="NSiecw">
    <nd ref="9192659714"/>
    <nd ref="9192659711"/>
    <nd ref="9192659710"/>
    <nd ref="9192659713"/>
    <nd ref="9192659714"/>
    <tag k="addr:city" v="Cambridge"/>
    <tag k="addr:housenumber" v="8"/>
    <tag k="addr:street" v="Egret Close"/>
    <tag k="addr:suburb" v="Needingworth"/>
    <tag k="building" v="yes"/>
  </way>
  <way id="995509657" version="2" timestamp="2024-06-30T09:40:30Z" changeset="153360887" uid="6476359" user="NSiecw">
    <nd ref="9192659719"/>
    <nd ref="9192659716"/>
    <nd ref="9192659717"/>
    <nd ref="9192659718"/>
    <nd ref="9192659719"/>
    <tag k="addr:city" v="Cambridge"/>
    <tag k="addr:housenumber" v="6"/>
    <tag k="addr:street" v="Egret Close"/>
    <tag k="addr:suburb" v="Needingworth"/>
    <tag k="building" v="yes"/>
  </way>
  <way id="995509658" version="2" timestamp="2024-06-30T09:40:30Z" changeset="153360887" uid="6476359" user="NSiecw">
    <nd ref="9192659724"/>
    <nd ref="9192659721"/>
    <nd ref="9192659720"/>
    <nd ref="9192659723"/>
    <nd ref="9192659724"/>
    <tag k="addr:city" v="Cambridge"/>
    <tag k="addr:housenumber" v="5"/>
    <tag k="addr:street" v="Egret Close"/>
    <tag k="addr:suburb" v="Needingworth"/>
    <tag k="building" v="yes"/>
  </way>
  <way id="995509659" version="2" timestamp="2024-06-30T09:40:30Z" changeset="153360887" uid="6476359" user="NSiecw">
    <nd ref="9192659725"/>
    <nd ref="9192659724"/>
    <nd ref="9192659723"/>
    <nd ref="9192659722"/>
    <nd ref="9192659725"/>
    <tag k="addr:city" v="Cambridge"/>
    <tag k="addr:housenumber" v="4"/>
    <tag k="addr:street" v="Egret Close"/>
    <tag k="addr:suburb" v="Needingworth"/>
    <tag k="building" v="yes"/>
  </way>
  <way id="995509660" version="2" timestamp="2024-06-30T09:40:30Z" changeset="153360887" uid="6476359" user="NSiecw">
    <nd ref="9192659727"/>
    <nd ref="9192659730"/>
    <nd ref="9192659729"/>
    <nd ref="9192659726"/>
    <nd ref="9192659727"/>
    <tag k="addr:city" v="Cambridge"/>
    <tag k="addr:housenumber" v="3"/>
    <tag k="addr:street" v="Egret Close"/>
    <tag k="addr:suburb" v="Needingworth"/>
    <tag k="building" v="yes"/>
  </way>
  <way id="995509661" version="2" timestamp="2024-06-30T09:40:30Z" changeset="153360887" uid="6476359" user="NSiecw">
    <nd ref="9192659731"/>
    <nd ref="9192659727"/>
    <nd ref="9192659726"/>
    <nd ref="9192659728"/>
    <nd ref="9192659731"/>
    <tag k="addr:city" v="Cambridge"/>
    <tag k="addr:housenumber" v="2"/>
    <tag k="addr:street" v="Egret Close"/>
    <tag k="addr:suburb" v="Needingworth"/>
    <tag k="building" v="yes"/>
  </way>
  <way id="995509662" version="2" timestamp="2024-06-30T09:40:30Z" changeset="153360887" uid="6476359" user="NSiecw">
    <nd ref="9192659735"/>
    <nd ref="9192659734"/>
    <nd ref="9192659733"/>
    <nd ref="9192659732"/>
    <nd ref="9192659735"/>
    <tag k="addr:city" v="Cambridge"/>
    <tag k="addr:housenumber" v="1"/>
    <tag k="addr:street" v="Egret Close"/>
    <tag k="addr:suburb" v="Needingworth"/>
    <tag k="building" v="yes"/>
  </way>
  <way id="995509663" version="2" timestamp="2024-06-30T09:40:30Z" changeset="153360887" uid="6476359" user="NSiecw">
    <nd ref="9192659739"/>
    <nd ref="8630343948"/>
    <nd ref="9192659738"/>
    <nd ref="9192659737"/>
    <nd ref="8630343947"/>
    <tag k="highway" v="residential"/>
    <tag k="name" v="Egret Close"/>
  </way>
  <way id="1066741569" version="1" timestamp="2022-06-04T17:30:20Z" changeset="121947718" uid="10420541" user="Thingummy">
    <nd ref="4161936873"/>
    <nd ref="391655139"/>
    <tag k="highway" v="unclassified"/>
    <tag k="maxspeed" v="40 mph"/>
    <tag k="name" v="Overcote Lane"/>
  </way>
  <way id="1066741570" version="1" timestamp="2022-06-04T17:30:20Z" changeset="121947718" uid="10420541" user="Thingummy">
    <nd ref="9795207968"/>
    <nd ref="4161936873"/>
    <tag k="bridge" v="yes"/>
    <tag k="highway" v="unclassified"/>
    <tag k="layer" v="1"/>
    <tag k="maxspeed" v="40 mph"/>
    <tag k="name" v="Overcote Lane"/>
  </way>
  <way id="1086793029" version="4" timestamp="2025-01-06T14:06:42Z" changeset="161059493" uid="10420541" user="Thingummy">
    <nd ref="391655226"/>
    <nd ref="11445358588"/>
    <nd ref="11445326042"/>
    <nd ref="1397412101"/>
    <nd ref="391655228"/>
    <nd ref="391655227"/>
    <nd ref="1397412121"/>
    <nd ref="391655229"/>
    <nd ref="391655231"/>
    <nd ref="2885469158"/>
    <nd ref="391655232"/>
    <nd ref="391655233"/>
    <nd ref="391655234"/>
    <nd ref="1397412130"/>
    <nd ref="12478534494"/>
    <nd ref="391655235"/>
    <tag k="highway" v="residential"/>
    <tag k="name" v="Holywell Front"/>
  </way>
  <way id="1160543831" version="1" timestamp="2023-04-07T18:58:10Z" changeset="134629244" uid="11022773" user="GeoFens">
    <nd ref="2781612895"/>
    <nd ref="10793643390"/>
    <nd ref="2794758975"/>
    <nd ref="2781612907"/>
    <nd ref="2781612906"/>
    <nd ref="2781612905"/>
    <nd ref="2781612880"/>
    <nd ref="2781612879"/>
    <nd ref="2781612877"/>
    <nd ref="10793643391"/>
    <nd ref="2781612890"/>
    <nd ref="2781612892"/>
    <nd ref="2781612893"/>
    <nd ref="2781612894"/>
    <nd ref="2781612895"/>
    <tag k="addr:city" v="St Ives"/>
    <tag k="addr:postcode" v="PE27 3ND"/>
    <tag k="addr:street" v="Needingworth Road"/>
    <tag k="landuse" v="farmyard"/>
    <tag k="name" v="Giffords Farm"/>
  </way>
  <way id="1160543832" version="1" timestamp="2023-04-07T18:58:10Z" changeset="134629244" uid="11022773" user="GeoFens">
    <nd ref="8591798888"/>
    <nd ref="10793643392"/>
    <nd ref="10793643393"/>
    <nd ref="9094809714"/>
    <nd ref="9094809715"/>
    <nd ref="6522712557"/>
    <nd ref="6522712556"/>
    <nd ref="6522712555"/>
    <nd ref="2781612966"/>
    <nd ref="2808178711"/>
    <nd ref="8591798887"/>
    <nd ref="2808178710"/>
    <nd ref="8591798888"/>
    <tag k="addr:city" v="St Ives"/>
    <tag k="addr:postcode" v="PE27 4NB"/>
    <tag k="addr:street" v="Needingworth Road"/>
    <tag k="landuse" v="farmyard"/>
    <tag k="name" v="Five Acres Farm"/>
  </way>
  <way id="1199494804" version="4" timestamp="2024-06-30T09:40:30Z" changeset="153360887" uid="6476359" user="NSiecw">
    <nd ref="11125372223"/>
    <nd ref="11125372220"/>
    <nd ref="11125372221"/>
    <nd ref="11125372222"/>
    <nd ref="11125372223"/>
    <tag k="addr:city" v="Cambridge"/>
    <tag k="addr:housenumber" v="26"/>
    <tag k="addr:street" v="Turnpike Close"/>
    <tag k="addr:suburb" v="Needingworth"/>
    <tag k="building" v="yes"/>
  </way>
  <way id="1199494805" version="4" timestamp="2024-06-30T09:40:30Z" changeset="153360887" uid="6476359" user="NSiecw">
    <nd ref="11125372227"/>
    <nd ref="11125372226"/>
    <nd ref="11125372225"/>
    <nd ref="11125372224"/>
    <nd ref="11125372227"/>
    <tag k="addr:city" v="Cambridge"/>
    <tag k="addr:housenumber" v="34"/>
    <tag k="addr:street" v="Turnpike Close"/>
    <tag k="addr:suburb" v="Needingworth"/>
    <tag k="building" v="yes"/>
  </way>
  <way id="1199494806" version="4" timestamp="2024-06-30T09:40:30Z" changeset="153360887" uid="6476359" user="NSiecw">
    <nd ref="11125372231"/>
    <nd ref="11125372230"/>
    <nd ref="11125372229"/>
    <nd ref="11125372228"/>
    <nd ref="11125372231"/>
    <tag k="addr:city" v="Cambridge"/>
    <tag k="addr:housenumber" v="20"/>
    <tag k="addr:street" v="Turnpike Close"/>
    <tag k="addr:suburb" v="Needingworth"/>
    <tag k="building" v="yes"/>
  </way>
  <way id="1199494807" version="4" timestamp="2024-06-30T09:40:30Z" changeset="153360887" uid="6476359" user="NSiecw">
    <nd ref="11125372235"/>
    <nd ref="11125372234"/>
    <nd ref="11125372233"/>
    <nd ref="11125372232"/>
    <nd ref="11125372235"/>
    <tag k="addr:city" v="Cambridge"/>
    <tag k="addr:housenumber" v="18"/>
    <tag k="addr:street" v="Turnpike Close"/>
    <tag k="addr:suburb" v="Needingworth"/>
    <tag k="building" v="yes"/>
  </way>
  <way id="1199494808" version="4" timestamp="2024-06-30T09:40:30Z" changeset="153360887" uid="6476359" user="NSiecw">
    <nd ref="11125372239"/>
    <nd ref="11125372238"/>
    <nd ref="11125372237"/>
    <nd ref="11125372236"/>
    <nd ref="11125372239"/>
    <tag k="addr:city" v="Cambridge"/>
    <tag k="addr:housenumber" v="16"/>
    <tag k="addr:street" v="Turnpike Close"/>
    <tag k="addr:suburb" v="Needingworth"/>
    <tag k="building" v="yes"/>
  </way>
  <way id="1199494809" version="4" timestamp="2024-06-30T09:40:30Z" changeset="153360887" uid="6476359" user="NSiecw">
    <nd ref="11125372243"/>
    <nd ref="11125372242"/>
    <nd ref="11125372241"/>
    <nd ref="11125372240"/>
    <nd ref="11125372243"/>
    <tag k="addr:city" v="Cambridge"/>
    <tag k="addr:housenumber" v="14"/>
    <tag k="addr:street" v="Turnpike Close"/>
    <tag k="addr:suburb" v="Needingworth"/>
    <tag k="building" v="yes"/>
  </way>
  <way id="1199494810" version="4" timestamp="2024-06-30T09:40:30Z" changeset="153360887" uid="6476359" user="NSiecw">
    <nd ref="11125372247"/>
    <nd ref="11125372246"/>
    <nd ref="11125372245"/>
    <nd ref="11125372244"/>
    <nd ref="11125372247"/>
    <tag k="addr:city" v="Cambridge"/>
    <tag k="addr:housenumber" v="40"/>
    <tag k="addr:street" v="Turnpike Close"/>
    <tag k="addr:suburb" v="Needingworth"/>
    <tag k="building" v="yes"/>
  </way>
  <way id="1199494811" version="4" timestamp="2024-06-30T09:40:30Z" changeset="153360887" uid="6476359" user="NSiecw">
    <nd ref="11125372251"/>
    <nd ref="11125372250"/>
    <nd ref="11125372249"/>
    <nd ref="11125372248"/>
    <nd ref="11125372251"/>
    <tag k="addr:city" v="Cambridge"/>
    <tag k="addr:housenumber" v="38"/>
    <tag k="addr:street" v="Turnpike Close"/>
    <tag k="addr:suburb" v="Needingworth"/>
    <tag k="building" v="yes"/>
  </way>
  <way id="1199494812" version="4" timestamp="2024-06-30T09:40:30Z" changeset="153360887" uid="6476359" user="NSiecw">
    <nd ref="11125372255"/>
    <nd ref="11125372254"/>
    <nd ref="11125372253"/>
    <nd ref="11125372252"/>
    <nd ref="11125372255"/>
    <tag k="addr:city" v="Cambridge"/>
    <tag k="addr:housenumber" v="36"/>
    <tag k="addr:street" v="Turnpike Close"/>
    <tag k="addr:suburb" v="Needingworth"/>
    <tag k="building" v="yes"/>
  </way>
  <way id="1199494813" version="4" timestamp="2024-06-30T09:40:30Z" changeset="153360887" uid="6476359" user="NSiecw">
    <nd ref="11125372259"/>
    <nd ref="11125372258"/>
    <nd ref="11125372257"/>
    <nd ref="11125372256"/>
    <nd ref="11125372259"/>
    <tag k="addr:city" v="Cambridge"/>
    <tag k="addr:housenumber" v="69"/>
    <tag k="addr:street" v="Turnpike Close"/>
    <tag k="addr:suburb" v="Needingworth"/>
    <tag k="building" v="yes"/>
  </way>
  <way id="1199494814" version="3" timestamp="2024-06-30T09:40:30Z" changeset="153360887" uid="6476359" user="NSiecw">
    <nd ref="11125372263"/>
    <nd ref="11125372262"/>
    <nd ref="11125372261"/>
    <nd ref="11125372260"/>
    <nd ref="11125372263"/>
    <tag k="addr:city" v="Cambridge"/>
    <tag k="addr:housenumber" v="32"/>
    <tag k="addr:street" v="Turnpike Close"/>
    <tag k="addr:suburb" v="Needingworth"/>
    <tag k="building" v="yes"/>
  </way>
  <way id="1199494815" version="3" timestamp="2024-06-30T09:40:30Z" changeset="153360887" uid="6476359" user="NSiecw">
    <nd ref="11125372267"/>
    <nd ref="11125372266"/>
    <nd ref="11125372265"/>
    <nd ref="11125372264"/>
    <nd ref="11125372267"/>
    <tag k="addr:city" v="Cambridge"/>
    <tag k="addr:housenumber" v="30"/>
    <tag k="addr:street" v="Turnpike Close"/>
    <tag k="addr:suburb" v="Needingworth"/>
    <tag k="building" v="yes"/>
  </way>
  <way id="1199494816" version="4" timestamp="2024-06-30T09:40:30Z" changeset="153360887" uid="6476359" user="NSiecw">
    <nd ref="11125372271"/>
    <nd ref="11125372270"/>
    <nd ref="11125372269"/>
    <nd ref="11125372268"/>
    <nd ref="11125372271"/>
    <tag k="addr:city" v="Cambridge"/>
    <tag k="addr:housenumber" v="28"/>
    <tag k="addr:street" v="Turnpike Close"/>
    <tag k="addr:suburb" v="Needingworth"/>
    <tag k="building" v="yes"/>
  </way>
  <way id="1199494817" version="4" timestamp="2024-06-30T09:40:30Z" changeset="153360887" uid="6476359" user="NSiecw">
    <nd ref="11125372275"/>
    <nd ref="11125372274"/>
    <nd ref="11125372273"/>
    <nd ref="11125372272"/>
    <nd ref="11125372275"/>
    <tag k="addr:city" v="Cambridge"/>
    <tag k="addr:housenumber" v="24"/>
    <tag k="addr:street" v="Turnpike Close"/>
    <tag k="addr:suburb" v="Needingworth"/>
    <tag k="building" v="yes"/>
  </way>
  <way id="1199494818" version="3" timestamp="2024-06-30T09:40:30Z" changeset="153360887" uid="6476359" user="NSiecw">
    <nd ref="11125372279"/>
    <nd ref="11125372278"/>
    <nd ref="11125372277"/>
    <nd ref="11125372276"/>
    <nd ref="11125372279"/>
    <tag k="addr:city" v="Cambridge"/>
    <tag k="addr:housenumber" v="22"/>
    <tag k="addr:street" v="Turnpike Close"/>
    <tag k="addr:suburb" v="Needingworth"/>
    <tag k="building" v="yes"/>
  </way>
  <way id="1199494819" version="3" timestamp="2024-06-30T09:40:30Z" changeset="153360887" uid="6476359" user="NSiecw">
    <nd ref="11125372285"/>
    <nd ref="11125372282"/>
    <nd ref="11125372283"/>
    <nd ref="11125372284"/>
    <nd ref="11125372285"/>
    <tag k="addr:city" v="Cambridge"/>
    <tag k="addr:housenumber" v="53"/>
    <tag k="addr:street" v="Turnpike Close"/>
    <tag k="addr:suburb" v="Needingworth"/>
    <tag k="building" v="yes"/>
  </way>
  <way id="1199494820" version="3" timestamp="2024-06-30T09:40:30Z" changeset="153360887" uid="6476359" user="NSiecw">
    <nd ref="11125372287"/>
    <nd ref="11125372288"/>
    <nd ref="11125372289"/>
    <nd ref="11125372286"/>
    <nd ref="11125372287"/>
    <tag k="addr:city" v="Cambridge"/>
    <tag k="addr:housenumber" v="55"/>
    <tag k="addr:street" v="Turnpike Close"/>
    <tag k="addr:suburb" v="Needingworth"/>
    <tag k="building" v="yes"/>
  </way>
  <way id="1199494821" version="3" timestamp="2024-06-30T09:40:30Z" changeset="153360887" uid="6476359" user="NSiecw">
    <nd ref="11125372291"/>
    <nd ref="11125372287"/>
    <nd ref="11125372286"/>
    <nd ref="11125372290"/>
    <nd ref="11125372291"/>
    <tag k="addr:city" v="Cambridge"/>
    <tag k="addr:housenumber" v="57"/>
    <tag k="addr:street" v="Turnpike Close"/>
    <tag k="addr:suburb" v="Needingworth"/>
    <tag k="building" v="yes"/>
  </way>
  <way id="1199494822" version="3" timestamp="2024-06-30T09:40:30Z" changeset="153360887" uid="6476359" user="NSiecw">
    <nd ref="11125372293"/>
    <nd ref="11125372296"/>
    <nd ref="11125372297"/>
    <nd ref="11125372292"/>
    <nd ref="11125372293"/>
    <tag k="addr:city" v="Cambridge"/>
    <tag k="addr:housenumber" v="59"/>
    <tag k="addr:street" v="Turnpike Close"/>
    <tag k="addr:suburb" v="Needingworth"/>
    <tag k="building" v="yes"/>
  </way>
  <way id="1199494823" version="3" timestamp="2024-06-30T09:40:30Z" changeset="153360887" uid="6476359" user="NSiecw">
    <nd ref="11125372295"/>
    <nd ref="11125372293"/>
    <nd ref="11125372292"/>
    <nd ref="11125372294"/>
    <nd ref="11125372295"/>
    <tag k="addr:city" v="Cambridge"/>
    <tag k="addr:housenumber" v="61"/>
    <tag k="addr:street" v="Turnpike Close"/>
    <tag k="addr:suburb" v="Needingworth"/>
    <tag k="building" v="yes"/>
  </way>
  <way id="1199494824" version="3" timestamp="2024-06-30T09:40:30Z" changeset="153360887" uid="6476359" user="NSiecw">
    <nd ref="11125372299"/>
    <nd ref="11125372295"/>
    <nd ref="11125372294"/>
    <nd ref="11125372298"/>
    <nd ref="11125372299"/>
    <tag k="addr:city" v="Cambridge"/>
    <tag k="addr:housenumber" v="63"/>
    <tag k="addr:street" v="Turnpike Close"/>
    <tag k="addr:suburb" v="Needingworth"/>
    <tag k="building" v="yes"/>
  </way>
  <way id="1199494825" version="4" timestamp="2024-06-30T09:40:30Z" changeset="153360887" uid="6476359" user="NSiecw">
    <nd ref="11125372301"/>
    <nd ref="11125372302"/>
    <nd ref="11125372303"/>
    <nd ref="11125372300"/>
    <nd ref="11125372301"/>
    <tag k="addr:city" v="Cambridge"/>
    <tag k="addr:housenumber" v="65"/>
    <tag k="addr:street" v="Turnpike Close"/>
    <tag k="addr:suburb" v="Needingworth"/>
    <tag k="building" v="yes"/>
  </way>
  <way id="1199494826" version="4" timestamp="2024-06-30T09:40:30Z" changeset="153360887" uid="6476359" user="NSiecw">
    <nd ref="11125372305"/>
    <nd ref="11125372301"/>
    <nd ref="11125372300"/>
    <nd ref="11125372304"/>
    <nd ref="11125372305"/>
    <tag k="addr:city" v="Cambridge"/>
    <tag k="addr:housenumber" v="67"/>
    <tag k="addr:street" v="Turnpike Close"/>
    <tag k="addr:suburb" v="Needingworth"/>
    <tag k="building" v="yes"/>
  </way>
  <way id="1199494827" version="2" timestamp="2024-06-30T09:40:30Z" changeset="153360887" uid="6476359" user="NSiecw">
    <nd ref="11125372307"/>
    <nd ref="11125372313"/>
    <nd ref="11125372312"/>
    <nd ref="11125372306"/>
    <nd ref="11125372307"/>
    <tag k="addr:city" v="Cambridge"/>
    <tag k="addr:housenumber" v="5"/>
    <tag k="addr:street" v="Wilmer Way"/>
    <tag k="addr:suburb" v="Needingworth"/>
    <tag k="building" v="yes"/>
  </way>
  <way id="1199494828" version="2" timestamp="2024-06-30T09:40:30Z" changeset="153360887" uid="6476359" user="NSiecw">
    <nd ref="11125372309"/>
    <nd ref="11125372307"/>
    <nd ref="11125372306"/>
    <nd ref="11125372308"/>
    <nd ref="11125372309"/>
    <tag k="addr:city" v="Cambridge"/>
    <tag k="addr:housenumber" v="3"/>
    <tag k="addr:street" v="Wilmer Way"/>
    <tag k="addr:suburb" v="Needingworth"/>
    <tag k="building" v="yes"/>
  </way>
  <way id="1199494829" version="2" timestamp="2024-06-30T09:40:30Z" changeset="153360887" uid="6476359" user="NSiecw">
    <nd ref="11125372310"/>
    <nd ref="11125372309"/>
    <nd ref="11125372308"/>
    <nd ref="11125372311"/>
    <nd ref="11125372310"/>
    <tag k="addr:city" v="Cambridge"/>
    <tag k="addr:housenumber" v="1"/>
    <tag k="addr:street" v="Wilmer Way"/>
    <tag k="addr:suburb" v="Needingworth"/>
    <tag k="building" v="yes"/>
  </way>
  <way id="1199494830" version="3" timestamp="2024-06-30T09:40:30Z" changeset="153360887" uid="6476359" user="NSiecw">
    <nd ref="11125372317"/>
    <nd ref="11665395933"/>
    <nd ref="11665395932"/>
    <nd ref="11125372314"/>
    <nd ref="11125372317"/>
    <tag k="addr:city" v="Cambridge"/>
    <tag k="addr:housenumber" v="11"/>
    <tag k="addr:street" v="Wilmer Way"/>
    <tag k="addr:suburb" v="Needingworth"/>
    <tag k="building" v="yes"/>
  </way>
  <way id="1199494831" version="2" timestamp="2024-06-30T09:40:30Z" changeset="153360887" uid="6476359" user="NSiecw">
    <nd ref="11125372321"/>
    <nd ref="11125372320"/>
    <nd ref="11125372319"/>
    <nd ref="11125372318"/>
    <nd ref="11125372321"/>
    <tag k="addr:city" v="Cambridge"/>
    <tag k="addr:housenumber" v="15"/>
    <tag k="addr:street" v="Wilmer Way"/>
    <tag k="addr:suburb" v="Needingworth"/>
    <tag k="building" v="yes"/>
  </way>
  <way id="1254896240" version="2" timestamp="2024-06-30T09:40:30Z" changeset="153360887" uid="6476359" user="NSiecw">
    <nd ref="11665395966"/>
    <nd ref="9192659478"/>
    <nd ref="9192659479"/>
    <nd ref="11665395965"/>
    <nd ref="11665395966"/>
    <tag k="addr:city" v="Cambridge"/>
    <tag k="addr:housenumber" v="24"/>
    <tag k="addr:street" v="Wilmer Way"/>
    <tag k="addr:suburb" v="Needingworth"/>
    <tag k="building" v="yes"/>
  </way>
  <way id="1254896241" version="2" timestamp="2024-06-30T09:40:30Z" changeset="153360887" uid="6476359" user="NSiecw">
    <nd ref="11665395968"/>
    <nd ref="9192659482"/>
    <nd ref="9192659483"/>
    <nd ref="11665395967"/>
    <nd ref="11665395968"/>
    <tag k="addr:city" v="Cambridge"/>
    <tag k="addr:housenumber" v="20"/>
    <tag k="addr:street" v="Wilmer Way"/>
    <tag k="addr:suburb" v="Needingworth"/>
    <tag k="building" v="yes"/>
  </way>
  <way id="1254896242" version="2" timestamp="2024-06-30T09:40:30Z" changeset="153360887" uid="6476359" user="NSiecw">
    <nd ref="11665395970"/>
    <nd ref="11665395968"/>
    <nd ref="11665395967"/>
    <nd ref="11665395969"/>
    <nd ref="11665395970"/>
    <tag k="addr:city" v="Cambridge"/>
    <tag k="addr:housenumber" v="18"/>
    <tag k="addr:street" v="Wilmer Way"/>
    <tag k="addr:suburb" v="Needingworth"/>
    <tag k="building" v="yes"/>
  </way>
  <way id="1254896243" version="2" timestamp="2024-06-30T09:40:30Z" changeset="153360887" uid="6476359" user="NSiecw">
    <nd ref="11665395972"/>
    <nd ref="11665395970"/>
    <nd ref="11665395969"/>
    <nd ref="11665395971"/>
    <nd ref="11665395972"/>
    <tag k="addr:city" v="Cambridge"/>
    <tag k="addr:housenumber" v="16"/>
    <tag k="addr:street" v="Wilmer Way"/>
    <tag k="addr:suburb" v="Needingworth"/>
    <tag k="building" v="yes"/>
  </way>
  <way id="1254896244" version="2" timestamp="2024-06-30T09:40:30Z" changeset="153360887" uid="6476359" user="NSiecw">
    <nd ref="11665395973"/>
    <nd ref="9192659467"/>
    <nd ref="9192659468"/>
    <nd ref="9192659465"/>
    <nd ref="9192659463"/>
    <nd ref="11665395974"/>
    <nd ref="11665395973"/>
    <tag k="addr:city" v="Cambridge"/>
    <tag k="addr:housenumber" v="8"/>
    <tag k="addr:street" v="Wilmer Way"/>
    <tag k="addr:suburb" v="Needingworth"/>
    <tag k="building" v="yes"/>
  </way>
  <way id="1254896266" version="3" timestamp="2024-06-30T09:40:30Z" changeset="153360887" uid="6476359" user="NSiecw">
    <nd ref="11665396130"/>
    <nd ref="11665396127"/>
    <nd ref="11665396128"/>
    <nd ref="11665396129"/>
    <nd ref="11665396130"/>
    <tag k="addr:city" v="Cambridge"/>
    <tag k="addr:housenumber" v="49"/>
    <tag k="addr:street" v="Turnpike Close"/>
    <tag k="addr:suburb" v="Needingworth"/>
    <tag k="building" v="yes"/>
  </way>
  <way id="1254896267" version="3" timestamp="2024-06-30T09:40:30Z" changeset="153360887" uid="6476359" user="NSiecw">
    <nd ref="11665396134"/>
    <nd ref="11665396131"/>
    <nd ref="11665396132"/>
    <nd ref="11665396133"/>
    <nd ref="11665396134"/>
    <tag k="addr:city" v="Cambridge"/>
    <tag k="addr:housenumber" v="51"/>
    <tag k="addr:street" v="Turnpike Close"/>
    <tag k="addr:suburb" v="Needingworth"/>
    <tag k="building" v="yes"/>
  </way>
  <way id="1296991337" version="2" timestamp="2024-06-30T09:40:30Z" changeset="153360887" uid="6476359" user="NSiecw">
    <nd ref="12017527337"/>
    <nd ref="12017527336"/>
    <nd ref="12017527335"/>
    <nd ref="12017527334"/>
    <nd ref="12017527337"/>
    <tag k="addr:city" v="Cambridge"/>
    <tag k="addr:housenumber" v="47"/>
    <tag k="addr:street" v="Turnpike Close"/>
    <tag k="addr:suburb" v="Needingworth"/>
    <tag k="building" v="yes"/>
  </way>
  <way id="1296991338" version="2" timestamp="2024-06-30T09:40:30Z" changeset="153360887" uid="6476359" user="NSiecw">
    <nd ref="12017527342"/>
    <nd ref="12017530872"/>
    <nd ref="12017530871"/>
    <nd ref="12017527341"/>
    <nd ref="12017527342"/>
    <tag k="addr:city" v="Cambridge"/>
    <tag k="addr:housenumber" v="39"/>
    <tag k="addr:street" v="Turnpike Close"/>
    <tag k="addr:suburb" v="Needingworth"/>
    <tag k="building" v="house"/>
  </way>
  <way id="1296991340" version="2" timestamp="2024-06-30T09:40:30Z" changeset="153360887" uid="6476359" user="NSiecw">
    <nd ref="12017527350"/>
    <nd ref="12017527348"/>
    <nd ref="12017527347"/>
    <nd ref="12017527349"/>
    <nd ref="12017527350"/>
    <tag k="addr:city" v="Cambridge"/>
    <tag k="addr:housenumber" v="29"/>
    <tag k="addr:street" v="Turnpike Close"/>
    <tag k="addr:suburb" v="Needingworth"/>
    <tag k="building" v="house"/>
  </way>
  <way id="1296991341" version="2" timestamp="2024-06-30T09:40:30Z" changeset="153360887" uid="6476359" user="NSiecw">
    <nd ref="12017527352"/>
    <nd ref="12017530880"/>
    <nd ref="12017530879"/>
    <nd ref="12017527351"/>
    <nd ref="12017527352"/>
    <tag k="addr:city" v="Cambridge"/>
    <tag k="addr:housenumber" v="25"/>
    <tag k="addr:street" v="Turnpike Close"/>
    <tag k="addr:suburb" v="Needingworth"/>
    <tag k="building" v="house"/>
  </way>
  <way id="1296991342" version="2" timestamp="2024-06-30T09:40:30Z" changeset="153360887" uid="6476359" user="NSiecw">
    <nd ref="12017527354"/>
    <nd ref="12017527352"/>
    <nd ref="12017527351"/>
    <nd ref="12017527353"/>
    <nd ref="12017527354"/>
    <tag k="addr:city" v="Cambridge"/>
    <tag k="addr:housenumber" v="23"/>
    <tag k="addr:street" v="Turnpike Close"/>
    <tag k="addr:suburb" v="Needingworth"/>
    <tag k="building" v="house"/>
  </way>
  <way id="1296991347" version="2" timestamp="2024-06-30T09:40:30Z" changeset="153360887" uid="6476359" user="NSiecw">
    <nd ref="12017530869"/>
    <nd ref="12017527342"/>
    <nd ref="12017527341"/>
    <nd ref="12017530870"/>
    <nd ref="12017530869"/>
    <tag k="addr:city" v="Cambridge"/>
    <tag k="addr:housenumber" v="41"/>
    <tag k="addr:street" v="Turnpike Close"/>
    <tag k="addr:suburb" v="Needingworth"/>
    <tag k="building" v="house"/>
  </way>
  <way id="1296991349" version="2" timestamp="2024-06-30T09:40:30Z" changeset="153360887" uid="6476359" user="NSiecw">
    <nd ref="12017530877"/>
    <nd ref="12017527354"/>
    <nd ref="12017527353"/>
    <nd ref="12017530878"/>
    <nd ref="12017530877"/>
    <tag k="addr:city" v="Cambridge"/>
    <tag k="addr:housenumber" v="21"/>
    <tag k="addr:street" v="Turnpike Close"/>
    <tag k="addr:suburb" v="Needingworth"/>
    <tag k="building" v="house"/>
  </way>
  <way id="1296991350" version="2" timestamp="2024-06-30T09:40:30Z" changeset="153360887" uid="6476359" user="NSiecw">
    <nd ref="12017530881"/>
    <nd ref="12017527350"/>
    <nd ref="12017527349"/>
    <nd ref="12017530882"/>
    <nd ref="12017530881"/>
    <tag k="addr:city" v="Cambridge"/>
    <tag k="addr:housenumber" v="27"/>
    <tag k="addr:street" v="Turnpike Close"/>
    <tag k="addr:suburb" v="Needingworth"/>
    <tag k="building" v="house"/>
  </way>

</osm>
