<?xml version="1.0" encoding="UTF-8"?>
<osm version="0.6" generator="Overpass API 0.7.62.5 1bd436f1">
<note>The data included in this document is from www.openstreetmap.org. The data is made available under ODbL.</note>
<meta osm_base="2025-04-05T17:14:15Z" areas="2025-02-06T02:17:44Z"/>

  <node id="21076409" lat="52.1489186" lon="0.0062495" version="2" timestamp="2015-09-21T10:25:56Z" changeset="34157287" uid="281267" user="smb1001"/>
  <node id="21076420" lat="52.1414078" lon="-0.0070078" version="2" timestamp="2010-05-20T16:58:33Z" changeset="4759350" uid="96640" user="v12mike"/>
  <node id="25710011" lat="52.1222723" lon="0.0220244" version="4" timestamp="2018-11-01T15:29:08Z" changeset="64082872" uid="1257159" user="Jean-Pierre Rondeau"/>
  <node id="31932512" lat="52.1266913" lon="0.0431664" version="4" timestamp="2012-07-08T18:16:15Z" changeset="12153325" uid="714383" user="alterain">
    <tag k="description" v="BARRINGTON | Reduce your speed"/>
    <tag k="note" v="Village sign and speed limit transition at Foxton end of bridge"/>
    <tag k="traffic_sign" v="city_limit"/>
  </node>
  <node id="32041915" lat="52.1351117" lon="-0.0026229" version="4" timestamp="2018-10-01T21:07:41Z" changeset="63107096" uid="5173844" user="ndrw6"/>
  <node id="32041983" lat="52.1161506" lon="0.0047726" version="3" timestamp="2022-08-01T01:46:34Z" changeset="124322516" uid="16703904" user="mcegan"/>
  <node id="443648806" lat="52.1443263" lon="0.0473740" version="5" timestamp="2024-01-27T17:29:04Z" changeset="146752846" uid="742701" user="kerr smith">
    <tag k="note" v="Incline ends at this footpath"/>
  </node>
  <node id="559554394" lat="52.1260574" lon="0.0356706" version="1" timestamp="2009-11-08T15:55:17Z" changeset="3065043" uid="21502" user="Kevin Steinhardt">
    <tag k="addr:housename" v="Hillcrest"/>
    <tag k="addr:housenumber" v="7"/>
    <tag k="addr:street" v="Mill Lane"/>
  </node>
  <node id="603866024" lat="52.1349704" lon="-0.0023683" version="3" timestamp="2018-10-01T21:07:43Z" changeset="63107096" uid="5173844" user="ndrw6"/>
  <node id="3118591452" lat="52.1351255" lon="-0.0023397" version="2" timestamp="2018-10-01T21:07:44Z" changeset="63107096" uid="5173844" user="ndrw6"/>
  <way id="4273810" version="10" timestamp="2020-06-04T21:37:03Z" changeset="86210575" uid="5173844" user="ndrw6">
    <nd ref="4088997069"/>
    <nd ref="4088964441"/>
    <nd ref="7593580062"/>
    <nd ref="33409390"/>
    <nd ref="25710044"/>
    <nd ref="33409391"/>
    <nd ref="3685120145"/>
    <nd ref="4088958358"/>
    <nd ref="33409411"/>
    <nd ref="33409392"/>
    <nd ref="33409393"/>
    <nd ref="2858982719"/>
    <nd ref="25710016"/>
    <tag k="highway" v="tertiary"/>
    <tag k="maxspeed" v="30 mph"/>
    <tag k="name" v="West Green"/>
    <tag k="source:name" v="dictaphone"/>
  </way>
  <way id="4899894" version="9" timestamp="2024-10-06T21:35:49Z" changeset="157558582" uid="20475686" user="Dan200">
    <nd ref="25710019"/>
    <nd ref="4088983024"/>
    <nd ref="31932309"/>
    <nd ref="33409402"/>
    <nd ref="31932325"/>
    <nd ref="31932351"/>
    <nd ref="4098283343"/>
    <nd ref="794434096"/>
    <nd ref="31932366"/>
    <nd ref="1200557722"/>
    <nd ref="31932379"/>
    <nd ref="1200557744"/>
    <nd ref="31932410"/>
    <nd ref="33409506"/>
    <nd ref="31932427"/>
    <nd ref="33409507"/>
    <nd ref="31932443"/>
    <tag k="highway" v="tertiary"/>
    <tag k="maxspeed" v="30 mph"/>
    <tag k="name" v="Challis Green"/>
    <tag k="source_ref" v="GPS survey"/>
  </way>
  <way id="4907196" version="4" timestamp="2019-06-03T17:22:56Z" changeset="70894171" uid="8512189" user="tejajt">
    <nd ref="31932443"/>
    <nd ref="31932459"/>
    <nd ref="33409508"/>
    <nd ref="31932474"/>
    <nd ref="6518678669"/>
    <nd ref="5874682339"/>
    <nd ref="31932489"/>
    <nd ref="31932844"/>
    <tag k="abutters" v="residential"/>
    <tag k="highway" v="tertiary"/>
    <tag k="maxspeed" v="30 mph"/>
    <tag k="name" v="Foxton Road"/>
    <tag k="source" v="survey"/>
  </way>
  <way id="4907197" version="3" timestamp="2024-12-29T21:18:15Z" changeset="160768298" uid="5229644" user="Nathan_A_RF">
    <nd ref="31932844"/>
    <nd ref="31932512"/>
    <tag k="bridge" v="yes"/>
    <tag k="highway" v="tertiary"/>
    <tag k="layer" v="1"/>
    <tag k="maxspeed" v="30 mph"/>
    <tag k="not:name" v="Foxton Road"/>
    <tag k="source" v="survey"/>
  </way>
  <way id="4991339" version="6" timestamp="2020-06-04T21:37:03Z" changeset="86210575" uid="5173844" user="ndrw6">
    <nd ref="25710022"/>
    <nd ref="33409404"/>
    <nd ref="25710023"/>
    <nd ref="33409406"/>
    <nd ref="33409405"/>
    <nd ref="25710024"/>
    <tag k="highway" v="tertiary"/>
    <tag k="maxspeed" v="60 mph"/>
    <tag k="maxspeed:type" v="GB:nsl_single"/>
    <tag k="name" v="Haslingfield Road"/>
    <tag k="source:name" v="dictaphone"/>
  </way>
  <way id="5015916" version="5" timestamp="2020-06-04T21:37:03Z" changeset="86210575" uid="5173844" user="ndrw6">
    <nd ref="25710011"/>
    <nd ref="25710039"/>
    <tag k="bridge" v="yes"/>
    <tag k="description" v="Narrow bridge; single lane's width"/>
    <tag k="highway" v="tertiary"/>
    <tag k="lanes" v="1"/>
    <tag k="layer" v="1"/>
    <tag k="maxspeed" v="30 mph"/>
  </way>
  <way id="5015926" version="4" timestamp="2018-09-02T03:11:03Z" changeset="62210245" uid="5173844" user="ndrw6">
    <nd ref="33409400"/>
    <nd ref="4088977210"/>
    <nd ref="33409441"/>
    <nd ref="1200557678"/>
    <nd ref="5874681720"/>
    <nd ref="5874681719"/>
    <nd ref="33409442"/>
    <tag k="highway" v="residential"/>
    <tag k="name" v="Slid Lane"/>
    <tag k="source:name" v="dictaphone"/>
  </way>
  <way id="5015928" version="4" timestamp="2018-11-01T15:29:18Z" changeset="64082872" uid="1257159" user="Jean-Pierre Rondeau">
    <nd ref="33409398"/>
    <nd ref="4088977207"/>
    <nd ref="6029985840"/>
    <nd ref="33409439"/>
    <nd ref="559554421"/>
    <nd ref="33409440"/>
    <tag k="foot" v="designated"/>
    <tag k="highway" v="residential"/>
    <tag k="name" v="Boot Lane"/>
    <tag k="source:name" v="dictaphone"/>
  </way>
  <way id="5015929" version="1" timestamp="2007-08-03T21:03:13Z" changeset="186181" uid="3582" user="davidearl">
    <nd ref="33409439"/>
    <nd ref="33409438"/>
    <tag k="created_by" v="JOSM"/>
    <tag k="highway" v="residential"/>
    <tag k="name" v="Hayzen Close"/>
    <tag k="source:name" v="dictaphone"/>
  </way>
  <way id="5015930" version="5" timestamp="2017-06-30T10:07:22Z" changeset="49939996" uid="1287673" user="sloerunner">
    <nd ref="33409397"/>
    <nd ref="4088977204"/>
    <nd ref="3130811968"/>
    <nd ref="33409436"/>
    <nd ref="559554392"/>
    <tag k="designation" v="public_footpath"/>
    <tag k="foot" v="designated"/>
    <tag k="highway" v="residential"/>
    <tag k="name" v="Mill Lane"/>
    <tag k="prow_ref" v="Barrington FP 6"/>
    <tag k="source:name" v="dictaphone"/>
    <tag k="source:prow_ref" v="cambridgeshire_county_council_prow_gis_data"/>
  </way>
  <way id="5015939" version="4" timestamp="2018-09-02T03:11:03Z" changeset="62210245" uid="5173844" user="ndrw6">
    <nd ref="33409416"/>
    <nd ref="5874680788"/>
    <nd ref="33409417"/>
    <nd ref="4088977194"/>
    <nd ref="33409393"/>
    <tag k="highway" v="residential"/>
  </way>
  <way id="5015947" version="4" timestamp="2016-04-04T21:17:01Z" changeset="38302855" uid="2032231" user="narboy">
    <nd ref="31932325"/>
    <nd ref="4098283346"/>
    <nd ref="1200557689"/>
    <nd ref="33409491"/>
    <tag k="highway" v="residential"/>
    <tag k="name" v="Daphmoir Close"/>
    <tag k="source:name" v="dictaphone"/>
  </way>
  <way id="5015953" version="4" timestamp="2018-09-02T03:11:04Z" changeset="62210245" uid="5173844" user="ndrw6">
    <nd ref="33409506"/>
    <nd ref="4098283341"/>
    <nd ref="2007668009"/>
    <nd ref="33409509"/>
    <nd ref="5874683710"/>
    <nd ref="5874683711"/>
    <nd ref="33409510"/>
    <nd ref="33409511"/>
    <tag k="highway" v="residential"/>
    <tag k="name" v="Challis Close"/>
    <tag k="source:name" v="dictaphone"/>
  </way>
  <way id="5015957" version="7" timestamp="2024-12-29T21:18:15Z" changeset="160768298" uid="5229644" user="Nathan_A_RF">
    <nd ref="33409507"/>
    <nd ref="5874682336"/>
    <nd ref="1200557683"/>
    <nd ref="33409521"/>
    <nd ref="12461652010"/>
    <nd ref="33409522"/>
    <nd ref="12461652011"/>
    <nd ref="33409523"/>
    <nd ref="2073092129"/>
    <nd ref="534923987"/>
    <nd ref="33409531"/>
    <nd ref="1200541278"/>
    <nd ref="1200541286"/>
    <tag k="highway" v="residential"/>
    <tag k="name" v="Glebe Road"/>
    <tag k="source:name" v="dictaphone"/>
  </way>
  <way id="5015960" version="2" timestamp="2018-09-02T03:11:04Z" changeset="62210245" uid="5173844" user="ndrw6">
    <nd ref="33409523"/>
    <nd ref="33409526"/>
    <nd ref="33409527"/>
    <nd ref="5874683377"/>
    <nd ref="5874683376"/>
    <nd ref="5874683375"/>
    <nd ref="5874683374"/>
    <nd ref="33409528"/>
    <tag k="highway" v="residential"/>
    <tag k="name" v="Bendyshe Way"/>
    <tag k="source:name" v="dictaphone"/>
  </way>
  <way id="5015961" version="4" timestamp="2024-10-21T14:43:16Z" changeset="158173768" uid="1287673" user="sloerunner">
    <nd ref="33409521"/>
    <nd ref="12274209819"/>
    <nd ref="12274209816"/>
    <nd ref="12274209814"/>
    <nd ref="12274209811"/>
    <nd ref="5874682613"/>
    <nd ref="12274209836"/>
    <nd ref="5874682342"/>
    <nd ref="12274209826"/>
    <nd ref="12274209829"/>
    <nd ref="7593602909"/>
    <nd ref="33409524"/>
    <tag k="highway" v="residential"/>
    <tag k="name" v="Malthouse Way"/>
    <tag k="source:name" v="dictaphone"/>
  </way>
  <way id="5015975" version="7" timestamp="2020-06-04T21:37:03Z" changeset="86210575" uid="5173844" user="ndrw6">
    <nd ref="25710039"/>
    <nd ref="6029985845"/>
    <nd ref="25710042"/>
    <nd ref="25710012"/>
    <tag k="description" v="Approach to narrow bridge"/>
    <tag k="highway" v="tertiary"/>
    <tag k="lanes" v="2"/>
    <tag k="maxspeed" v="30 mph"/>
  </way>
  <way id="5015976" version="11" timestamp="2020-06-04T21:37:03Z" changeset="86210575" uid="5173844" user="ndrw6">
    <nd ref="33409410"/>
    <nd ref="1829834407"/>
    <nd ref="7593603049"/>
    <nd ref="4088997013"/>
    <nd ref="32041893"/>
    <nd ref="4088996077"/>
    <nd ref="7593602892"/>
    <nd ref="4088996086"/>
    <nd ref="32041151"/>
    <nd ref="877946119"/>
    <nd ref="32041727"/>
    <nd ref="877946126"/>
    <nd ref="4088996071"/>
    <nd ref="4088996079"/>
    <nd ref="4088996989"/>
    <nd ref="6029985843"/>
    <nd ref="4088997069"/>
    <tag k="abutters" v="residential"/>
    <tag k="highway" v="tertiary"/>
    <tag k="maxspeed" v="30 mph"/>
    <tag k="name" v="Orwell Road"/>
    <tag k="source_ref" v="GPS survey"/>
  </way>
  <way id="5015977" version="11" timestamp="2021-09-08T02:19:05Z" changeset="110884679" uid="10305811" user="kumrnls">
    <nd ref="25710014"/>
    <nd ref="6715707029"/>
    <nd ref="968094705"/>
    <nd ref="9072406821"/>
    <nd ref="33409388"/>
    <nd ref="25710043"/>
    <nd ref="33409389"/>
    <nd ref="6638434383"/>
    <nd ref="1829937277"/>
    <nd ref="7026232321"/>
    <nd ref="4088997069"/>
    <tag k="highway" v="tertiary"/>
    <tag k="maxspeed" v="30 mph"/>
    <tag k="name" v="Shepreth Road"/>
    <tag k="source:name" v="dictaphone"/>
  </way>
  <way id="5015978" version="2" timestamp="2010-10-28T18:52:46Z" changeset="6211249" uid="5926" user="c2r">
    <nd ref="33409389"/>
    <nd ref="968094724"/>
    <nd ref="968094727"/>
    <nd ref="33409576"/>
    <tag k="highway" v="residential"/>
    <tag k="name" v="Old Mill Close"/>
    <tag k="source:name" v="dictaphone"/>
  </way>
  <way id="5015979" version="3" timestamp="2012-11-16T13:40:31Z" changeset="13894328" uid="1057913" user="randomtoast">
    <nd ref="33409388"/>
    <nd ref="33409577"/>
    <nd ref="2016555814"/>
    <nd ref="33409578"/>
    <tag k="highway" v="residential"/>
    <tag k="name" v="Prime's Close"/>
    <tag k="source:name" v="dictaphone"/>
  </way>
  <way id="5015980" version="1" timestamp="2007-08-03T21:03:41Z" changeset="186181" uid="3582" user="davidearl">
    <nd ref="33409577"/>
    <nd ref="33409579"/>
    <tag k="created_by" v="JOSM"/>
    <tag k="highway" v="residential"/>
    <tag k="name" v="Prime's Close"/>
    <tag k="source:name" v="dictaphone"/>
  </way>
  <way id="5015981" version="1" timestamp="2007-08-03T21:03:41Z" changeset="186181" uid="3582" user="davidearl">
    <nd ref="32041893"/>
    <nd ref="33409580"/>
    <tag k="created_by" v="JOSM"/>
    <tag k="highway" v="residential"/>
    <tag k="name" v="Orwell Terrace"/>
    <tag k="source:name" v="dictaphone"/>
  </way>
  <way id="5015982" version="8" timestamp="2023-09-11T12:57:08Z" changeset="141111877" uid="242345" user="confusedbuffalo">
    <nd ref="33409591"/>
    <nd ref="33409583"/>
    <nd ref="1829937349"/>
    <nd ref="33409584"/>
    <nd ref="1829937323"/>
    <nd ref="1829937319"/>
    <nd ref="33409591"/>
    <tag k="addr:postcode" v="CB22 7RG"/>
    <tag k="addr:street" v="Haslingfield Road"/>
    <tag k="amenity" v="school"/>
    <tag k="capacity" v="140"/>
    <tag k="denomination" v="anglican"/>
    <tag k="diocese" v="Diocese of Ely"/>
    <tag k="isced:level" v="1"/>
    <tag k="max_age" v="11"/>
    <tag k="min_age" v="4"/>
    <tag k="name" v="Barrington CofE VC Primary School"/>
    <tag k="phone" v="+44 1223 712273"/>
    <tag k="ref:GB:uprn" v="100091610475"/>
    <tag k="ref:edubase" v="110781"/>
    <tag k="religion" v="christian"/>
    <tag k="school:trust" v="no"/>
    <tag k="school:type" v="voluntary_controlled"/>
    <tag k="website" v="https://www.barrington.cambs.sch.uk"/>
    <tag k="wikidata" v="Q66223593"/>
  </way>
  <way id="5016006" version="9" timestamp="2020-06-04T22:10:29Z" changeset="86211363" uid="5173844" user="ndrw6">
    <nd ref="3118591452"/>
    <nd ref="32041237"/>
    <nd ref="32042179"/>
    <nd ref="6324616235"/>
    <nd ref="3118611330"/>
    <nd ref="32041349"/>
    <nd ref="7593639601"/>
    <tag k="highway" v="tertiary"/>
    <tag k="maxspeed" v="40 mph"/>
    <tag k="name" v="Barrington Road"/>
    <tag k="source" v="survey"/>
    <tag k="source:name" v="voice"/>
  </way>
  <way id="5016007" version="4" timestamp="2020-06-04T21:37:03Z" changeset="86210575" uid="5173844" user="ndrw6">
    <nd ref="25710016"/>
    <nd ref="1878837529"/>
    <nd ref="33409395"/>
    <nd ref="559554422"/>
    <tag k="highway" v="tertiary"/>
    <tag k="maxspeed" v="30 mph"/>
    <tag k="name" v="High Street"/>
    <tag k="source:name" v="dictaphone"/>
  </way>
  <way id="5016010" version="5" timestamp="2023-02-19T14:51:08Z" changeset="132751516" uid="16089" user="Ben Harris">
    <nd ref="25710019"/>
    <nd ref="33409695"/>
    <nd ref="33409401"/>
    <nd ref="25710020"/>
    <nd ref="1425222796"/>
    <nd ref="25710021"/>
    <nd ref="6637277265"/>
    <nd ref="10678465789"/>
    <nd ref="33409403"/>
    <nd ref="7593603056"/>
    <nd ref="25710022"/>
    <tag k="highway" v="tertiary"/>
    <tag k="maxspeed" v="30 mph"/>
    <tag k="name" v="Haslingfield Road"/>
    <tag k="source:name" v="local_knowledge"/>
  </way>
  <way id="11688714" version="9" timestamp="2021-04-01T03:20:56Z" changeset="102086637" uid="10252551" user="amanura">
    <nd ref="32041703"/>
    <nd ref="603866211"/>
    <nd ref="1147551108"/>
    <nd ref="603866051"/>
    <nd ref="32041137"/>
    <nd ref="603866052"/>
    <nd ref="603866053"/>
    <nd ref="32041586"/>
    <nd ref="603866054"/>
    <nd ref="1594006326"/>
    <nd ref="603866055"/>
    <nd ref="6595155113"/>
    <nd ref="104558571"/>
    <nd ref="8581230583"/>
    <nd ref="32041157"/>
    <nd ref="603866024"/>
    <nd ref="32041915"/>
    <tag k="fixme" v="Check this way's speed limit"/>
    <tag k="highway" v="tertiary"/>
    <tag k="name" v="Malton Road"/>
    <tag k="source" v="survey"/>
    <tag k="source:name" v="dictaphone"/>
  </way>
  <way id="11831643" version="18" timestamp="2024-08-20T22:56:50Z" changeset="155532473" uid="742701" user="kerr smith">
    <nd ref="32041983"/>
    <nd ref="603869221"/>
    <nd ref="603869230"/>
    <nd ref="32041146"/>
    <nd ref="603869236"/>
    <nd ref="603869258"/>
    <nd ref="603869269"/>
    <nd ref="603869278"/>
    <nd ref="603869287"/>
    <nd ref="32041947"/>
    <nd ref="32040961"/>
    <nd ref="603869296"/>
    <nd ref="32041694"/>
    <nd ref="8646765736"/>
    <nd ref="32041029"/>
    <nd ref="603868393"/>
    <nd ref="8107990708"/>
    <nd ref="603868413"/>
    <nd ref="32041709"/>
    <nd ref="603868310"/>
    <nd ref="32040945"/>
    <nd ref="603868325"/>
    <nd ref="32041588"/>
    <nd ref="1214445371"/>
    <nd ref="12123168651"/>
    <nd ref="32040909"/>
    <nd ref="603867544"/>
    <nd ref="32041379"/>
    <nd ref="603867385"/>
    <nd ref="603867388"/>
    <nd ref="1829835993"/>
    <nd ref="11688125731"/>
    <nd ref="32040877"/>
    <nd ref="603866848"/>
    <nd ref="32041542"/>
    <nd ref="603866707"/>
    <nd ref="603866711"/>
    <nd ref="603866714"/>
    <nd ref="32040980"/>
    <nd ref="32041523"/>
    <nd ref="603866503"/>
    <nd ref="603866380"/>
    <nd ref="32040976"/>
    <nd ref="3118586171"/>
    <nd ref="32041703"/>
    <tag k="highway" v="tertiary"/>
    <tag k="source" v="GPS"/>
  </way>
  <way id="32723717" version="10" timestamp="2021-04-16T21:04:54Z" changeset="103081045" uid="242345" user="confusedbuffalo">
    <nd ref="25710024"/>
    <nd ref="6029985838"/>
    <nd ref="25710025"/>
    <nd ref="6029985837"/>
    <nd ref="25710026"/>
    <nd ref="6029985836"/>
    <nd ref="25710027"/>
    <nd ref="25710029"/>
    <nd ref="25710030"/>
    <nd ref="368223838"/>
    <nd ref="443648806"/>
    <tag k="fixme" v="Where's the overtaking ban between? Where does the south side of the hill begin and end?"/>
    <tag k="highway" v="tertiary"/>
    <tag k="maxspeed" v="60 mph"/>
    <tag k="maxspeed:type" v="GB:nsl_single"/>
    <tag k="name" v="Chapel Hill"/>
    <tag k="source:name" v="dictaphone"/>
  </way>
  <way id="44006230" version="8" timestamp="2024-10-06T21:35:49Z" changeset="157558582" uid="20475686" user="Dan200">
    <nd ref="559554422"/>
    <nd ref="33409396"/>
    <nd ref="25710045"/>
    <nd ref="2858982735"/>
    <nd ref="33409397"/>
    <nd ref="4088996085"/>
    <nd ref="25710017"/>
    <nd ref="6029985841"/>
    <nd ref="33409398"/>
    <nd ref="6029985842"/>
    <nd ref="33409399"/>
    <nd ref="25710046"/>
    <nd ref="33409400"/>
    <nd ref="968094683"/>
    <nd ref="4088977213"/>
    <nd ref="25710018"/>
    <nd ref="4088977203"/>
    <nd ref="968094685"/>
    <nd ref="12230459164"/>
    <nd ref="25710019"/>
    <tag k="highway" v="tertiary"/>
    <tag k="maxspeed" v="30 mph"/>
    <tag k="name" v="High Street"/>
    <tag k="source:name" v="dictaphone"/>
  </way>
  <way id="56213516" version="6" timestamp="2021-07-12T06:10:55Z" changeset="107812353" uid="10126622" user="hvannere">
    <nd ref="25710012"/>
    <nd ref="705435670"/>
    <nd ref="705435674"/>
    <nd ref="25710040"/>
    <nd ref="5874678391"/>
    <nd ref="705435680"/>
    <nd ref="25710041"/>
    <nd ref="25710013"/>
    <nd ref="5874676082"/>
    <nd ref="705435692"/>
    <nd ref="597629442"/>
    <nd ref="597629443"/>
    <nd ref="8912863080"/>
    <nd ref="25710014"/>
    <tag k="highway" v="tertiary"/>
    <tag k="maxspeed" v="30 mph"/>
  </way>
  <way id="74230070" version="8" timestamp="2024-06-08T14:47:08Z" changeset="152418065" uid="5173844" user="ndrw6">
    <nd ref="877946127"/>
    <nd ref="11598727839"/>
    <nd ref="11598727840"/>
    <nd ref="11598727838"/>
    <nd ref="32042283"/>
    <nd ref="11598727836"/>
    <nd ref="11598727837"/>
    <nd ref="11598727835"/>
    <nd ref="32041358"/>
    <nd ref="32042248"/>
    <nd ref="1305830065"/>
    <nd ref="11964484577"/>
    <nd ref="32041013"/>
    <nd ref="32042258"/>
    <nd ref="32041318"/>
    <nd ref="7593603054"/>
    <nd ref="33409410"/>
    <tag k="highway" v="tertiary"/>
    <tag k="maxspeed" v="60 mph"/>
    <tag k="maxspeed:type" v="GB:nsl_single"/>
    <tag k="source" v="survey"/>
  </way>
  <way id="104027399" version="1" timestamp="2011-03-13T18:21:24Z" changeset="7548395" uid="5926" user="c2r">
    <nd ref="1200541286"/>
    <nd ref="33409532"/>
    <nd ref="33409533"/>
    <nd ref="1200541268"/>
    <nd ref="33409535"/>
    <tag k="access" v="private"/>
    <tag k="highway" v="residential"/>
    <tag k="name" v="Glebe Road"/>
    <tag k="source:name" v="dictaphone"/>
  </way>
  <way id="182178588" version="4" timestamp="2018-09-02T03:11:05Z" changeset="62210245" uid="5173844" user="ndrw6">
    <nd ref="1829907120"/>
    <nd ref="1829907107"/>
    <nd ref="1829907105"/>
    <nd ref="1829907102"/>
    <nd ref="5874680577"/>
    <nd ref="1829907122"/>
    <nd ref="33409413"/>
    <nd ref="33409416"/>
    <nd ref="3685120143"/>
    <nd ref="4088997000"/>
    <nd ref="33409411"/>
    <tag k="highway" v="residential"/>
    <tag k="name" v="Rhee Meadow"/>
  </way>
  <way id="190156078" version="5" timestamp="2021-04-08T13:03:55Z" changeset="102566891" uid="1287673" user="sloerunner">
    <nd ref="2007668011"/>
    <nd ref="2007668012"/>
    <nd ref="7962713227"/>
    <nd ref="5874683921"/>
    <nd ref="2007668013"/>
    <nd ref="5874683919"/>
    <nd ref="5874683920"/>
    <nd ref="2007668015"/>
    <nd ref="5874683922"/>
    <nd ref="2007668014"/>
    <nd ref="5874683923"/>
    <nd ref="5874683924"/>
    <nd ref="5874683925"/>
    <nd ref="8606726641"/>
    <nd ref="2007668008"/>
    <nd ref="2007668010"/>
    <nd ref="8606726642"/>
    <nd ref="5874683926"/>
    <nd ref="2007668016"/>
    <nd ref="2007668009"/>
    <tag k="fixme" v="ground survey needed - new road"/>
    <tag k="highway" v="residential"/>
    <tag k="name" v="Heslerton Way"/>
  </way>
  <way id="191071877" version="2" timestamp="2012-11-16T13:41:55Z" changeset="13894328" uid="1057913" user="randomtoast">
    <nd ref="2016555811"/>
    <nd ref="2016555814"/>
    <tag k="highway" v="residential"/>
  </way>
  <way id="191072046" version="2" timestamp="2018-11-01T15:29:26Z" changeset="64082872" uid="1257159" user="Jean-Pierre Rondeau">
    <nd ref="2016561449"/>
    <nd ref="6029985844"/>
    <nd ref="33409579"/>
    <tag k="highway" v="residential"/>
  </way>
  <way id="621870335" version="1" timestamp="2018-09-02T03:10:48Z" changeset="62210245" uid="5173844" user="ndrw6">
    <nd ref="559554392"/>
    <nd ref="33409437"/>
    <tag k="highway" v="residential"/>
    <tag k="name" v="Mill Lane"/>
    <tag k="source:name" v="dictaphone"/>
  </way>
  <way id="621870542" version="2" timestamp="2023-01-15T22:48:21Z" changeset="131316753" uid="5173844" user="ndrw6">
    <nd ref="5874683381"/>
    <nd ref="5874683380"/>
    <nd ref="5874683379"/>
    <nd ref="5874683378"/>
    <nd ref="5874683381"/>
    <tag k="addr:housenumber" v="7"/>
    <tag k="addr:street" v="Bendyshe Way"/>
    <tag k="building" v="yes"/>
  </way>
  <way id="621870544" version="2" timestamp="2023-01-15T22:48:21Z" changeset="131316753" uid="5173844" user="ndrw6">
    <nd ref="5874683497"/>
    <nd ref="5874683489"/>
    <nd ref="5874683488"/>
    <nd ref="5874683487"/>
    <nd ref="5874683486"/>
    <nd ref="5874683494"/>
    <nd ref="5874683495"/>
    <nd ref="5874683492"/>
    <nd ref="5874683491"/>
    <nd ref="5874683490"/>
    <nd ref="5874683493"/>
    <nd ref="5874683496"/>
    <nd ref="5874683485"/>
    <nd ref="5874683383"/>
    <nd ref="5874683382"/>
    <nd ref="5874683384"/>
    <nd ref="5874683497"/>
    <tag k="addr:housenumber" v="8"/>
    <tag k="addr:street" v="Bendyshe Way"/>
    <tag k="building" v="yes"/>
  </way>
  <way id="621870546" version="2" timestamp="2023-01-15T22:48:21Z" changeset="131316753" uid="5173844" user="ndrw6">
    <nd ref="5874683505"/>
    <nd ref="5874683502"/>
    <nd ref="5874683499"/>
    <nd ref="5874683498"/>
    <nd ref="5874683503"/>
    <nd ref="5874683500"/>
    <nd ref="5874683501"/>
    <nd ref="5874683504"/>
    <nd ref="5874683505"/>
    <tag k="addr:housenumber" v="8A"/>
    <tag k="addr:street" v="Bendyshe Way"/>
    <tag k="building" v="yes"/>
  </way>
  <way id="621870548" version="2" timestamp="2023-01-15T22:48:21Z" changeset="131316753" uid="5173844" user="ndrw6">
    <nd ref="5874683509"/>
    <nd ref="5874683508"/>
    <nd ref="5874683507"/>
    <nd ref="5874683506"/>
    <nd ref="5874683509"/>
    <tag k="addr:housenumber" v="8B"/>
    <tag k="addr:street" v="Bendyshe Way"/>
    <tag k="building" v="yes"/>
  </way>
  <way id="621870553" version="2" timestamp="2023-01-15T22:48:21Z" changeset="131316753" uid="5173844" user="ndrw6">
    <nd ref="5874683523"/>
    <nd ref="5874683520"/>
    <nd ref="5874683521"/>
    <nd ref="5874683518"/>
    <nd ref="5874683519"/>
    <nd ref="5874683522"/>
    <nd ref="5874683523"/>
    <tag k="addr:housenumber" v="9"/>
    <tag k="addr:street" v="Bendyshe Way"/>
    <tag k="building" v="yes"/>
  </way>
  <way id="621870555" version="2" timestamp="2023-01-15T22:48:21Z" changeset="131316753" uid="5173844" user="ndrw6">
    <nd ref="5874683529"/>
    <nd ref="5874683528"/>
    <nd ref="5874683524"/>
    <nd ref="5874683525"/>
    <nd ref="5874683527"/>
    <nd ref="5874683526"/>
    <nd ref="5874683529"/>
    <tag k="addr:housenumber" v="9A"/>
    <tag k="addr:street" v="Bendyshe Way"/>
    <tag k="building" v="yes"/>
  </way>
  <way id="621870557" version="2" timestamp="2023-01-15T22:48:21Z" changeset="131316753" uid="5173844" user="ndrw6">
    <nd ref="5874683535"/>
    <nd ref="5874683534"/>
    <nd ref="5874683531"/>
    <nd ref="5874683530"/>
    <nd ref="5874683533"/>
    <nd ref="5874683532"/>
    <nd ref="5874683535"/>
    <tag k="addr:housenumber" v="10"/>
    <tag k="addr:street" v="Bendyshe Way"/>
    <tag k="building" v="yes"/>
  </way>
  <way id="812971062" version="1" timestamp="2020-06-04T21:37:03Z" changeset="86210575" uid="5173844" user="ndrw6">
    <nd ref="7593602909"/>
    <nd ref="7593602908"/>
    <tag k="highway" v="residential"/>
    <tag k="name" v="Malthouse Way"/>
    <tag k="source:name" v="dictaphone"/>
  </way>
  <way id="812975833" version="4" timestamp="2024-02-08T16:15:32Z" changeset="147224262" uid="742701" user="kerr smith">
    <nd ref="7593639601"/>
    <nd ref="32042218"/>
    <nd ref="8703140913"/>
    <nd ref="32041206"/>
    <nd ref="32042334"/>
    <nd ref="11598727841"/>
    <nd ref="32041340"/>
    <nd ref="11598727842"/>
    <nd ref="877946127"/>
    <tag k="highway" v="tertiary"/>
    <tag k="maxspeed" v="60 mph"/>
    <tag k="maxspeed:type" v="GB:nsl_single"/>
    <tag k="name" v="Barrington Road"/>
    <tag k="source" v="survey"/>
    <tag k="source:name" v="voice"/>
  </way>
  <way id="860639627" version="4" timestamp="2024-09-29T19:53:42Z" changeset="157269186" uid="1287673" user="sloerunner">
    <nd ref="33409404"/>
    <nd ref="12209520322"/>
    <nd ref="5406101698"/>
    <nd ref="5406101709"/>
    <nd ref="10693504797"/>
    <nd ref="8021675158"/>
    <nd ref="10557836920"/>
    <nd ref="9727722427"/>
    <tag k="highway" v="residential"/>
    <tag k="name" v="Conybeare Road"/>
    <tag k="surface" v="asphalt"/>
  </way>
  <way id="1132296560" version="2" timestamp="2023-02-25T18:42:34Z" changeset="133017924" uid="16089" user="Ben Harris">
    <nd ref="10557836910"/>
    <nd ref="10557836823"/>
    <nd ref="10557836822"/>
    <nd ref="10557836821"/>
    <nd ref="10557836820"/>
    <nd ref="10557836819"/>
    <nd ref="10557836818"/>
    <nd ref="10557836886"/>
    <tag k="highway" v="residential"/>
    <tag k="name" v="Greensand Avenue"/>
    <tag k="source" v="survey"/>
    <tag k="surface" v="paving_stones"/>
  </way>
  <way id="1132296574" version="2" timestamp="2023-07-07T22:26:01Z" changeset="138246395" uid="5173844" user="ndrw6">
    <nd ref="10557836879"/>
    <nd ref="10557836876"/>
    <tag k="highway" v="residential"/>
    <tag k="name" v="Whybrow Road"/>
    <tag k="source" v="survey"/>
    <tag k="surface" v="paved"/>
  </way>
  <way id="1132296575" version="4" timestamp="2023-07-07T22:26:01Z" changeset="138246395" uid="5173844" user="ndrw6">
    <nd ref="10557836919"/>
    <nd ref="10557836881"/>
    <nd ref="10557836880"/>
    <nd ref="10557836879"/>
    <nd ref="10557836878"/>
    <nd ref="10693504793"/>
    <nd ref="10557836877"/>
    <nd ref="10557836882"/>
    <nd ref="10557836887"/>
    <tag k="highway" v="residential"/>
    <tag k="name" v="Whybrow Road"/>
    <tag k="source" v="survey"/>
    <tag k="surface" v="paved"/>
  </way>
  <way id="1132296576" version="3" timestamp="2023-02-25T18:42:34Z" changeset="133017924" uid="16089" user="Ben Harris">
    <nd ref="10557836900"/>
    <nd ref="10557836892"/>
    <nd ref="10557836891"/>
    <nd ref="10557836890"/>
    <nd ref="10557836889"/>
    <nd ref="10557836888"/>
    <nd ref="10557836887"/>
    <tag k="highway" v="residential"/>
    <tag k="name" v="Whybrow Road"/>
    <tag k="source" v="survey"/>
    <tag k="surface" v="paved"/>
  </way>
  <way id="1147638489" version="3" timestamp="2023-05-27T21:19:12Z" changeset="136638563" uid="629" user="Wookey">
    <nd ref="10557836887"/>
    <nd ref="10557836883"/>
    <nd ref="10557836884"/>
    <nd ref="10557836885"/>
    <nd ref="10557836886"/>
    <nd ref="10557836913"/>
    <tag k="highway" v="residential"/>
    <tag k="name" v="Whybrow Road"/>
    <tag k="source" v="survey"/>
    <tag k="surface" v="asphalt"/>
  </way>
  <way id="1147638491" version="3" timestamp="2023-07-07T22:26:01Z" changeset="138246395" uid="5173844" user="ndrw6">
    <nd ref="10557836919"/>
    <nd ref="10557836918"/>
    <nd ref="10557836917"/>
    <nd ref="10557836916"/>
    <nd ref="10557836915"/>
    <nd ref="10557836914"/>
    <nd ref="10557836913"/>
    <nd ref="10557836912"/>
    <nd ref="9727722427"/>
    <nd ref="10557836911"/>
    <nd ref="10557836910"/>
    <nd ref="10557836909"/>
    <tag k="highway" v="residential"/>
    <tag k="name" v="Greensand Avenue"/>
    <tag k="source" v="survey"/>
  </way>
  <way id="1149480882" version="1" timestamp="2023-02-25T18:42:34Z" changeset="133017924" uid="16089" user="Ben Harris">
    <nd ref="8021675158"/>
    <nd ref="10557836925"/>
    <tag k="highway" v="residential"/>
    <tag k="name" v="Conybeare Road"/>
    <tag k="source" v="survey"/>
    <tag k="surface" v="paved"/>
  </way>
  <way id="1149480884" version="1" timestamp="2023-02-25T18:42:34Z" changeset="133017924" uid="16089" user="Ben Harris">
    <nd ref="10557836909"/>
    <nd ref="10557836902"/>
    <nd ref="10557836901"/>
    <nd ref="10557836900"/>
    <nd ref="10557836899"/>
    <tag k="highway" v="residential"/>
  </way>
  <way id="1149480885" version="1" timestamp="2023-02-25T18:42:34Z" changeset="133017924" uid="16089" user="Ben Harris">
    <nd ref="10693504795"/>
    <nd ref="10693504794"/>
    <tag k="highway" v="residential"/>
    <tag k="name" v="Conybeare Road"/>
    <tag k="surface" v="paved"/>
  </way>
  <way id="1149480886" version="1" timestamp="2023-02-25T18:42:34Z" changeset="133017924" uid="16089" user="Ben Harris">
    <nd ref="10693504797"/>
    <nd ref="10693504795"/>
    <nd ref="10693504796"/>
    <tag k="highway" v="residential"/>
    <tag k="name" v="Conybeare Road"/>
    <tag k="surface" v="asphalt"/>
  </way>
  <way id="1206571186" version="2" timestamp="2024-12-20T22:38:37Z" changeset="160452125" uid="742701" user="kerr smith">
    <nd ref="21076409"/>
    <nd ref="21076415"/>
    <nd ref="12437777438"/>
    <nd ref="12437777442"/>
    <nd ref="21076418"/>
    <nd ref="3118616324"/>
    <nd ref="3118616325"/>
    <nd ref="21076420"/>
    <tag k="highway" v="primary"/>
    <tag k="lanes" v="2"/>
    <tag k="lit" v="no"/>
    <tag k="maxspeed" v="60 mph"/>
    <tag k="maxspeed:type" v="GB:nsl_single"/>
    <tag k="name" v="Hillside"/>
    <tag k="ref" v="A603"/>
    <tag k="smoothness" v="good"/>
    <tag k="surface" v="asphalt"/>
  </way>

</osm>
