<?xml version="1.0" encoding="UTF-8"?>
<osm version="0.6" generator="Overpass API 0.7.62.5 1bd436f1">
<note>The data included in this document is from www.openstreetmap.org. The data is made available under ODbL.</note>
<meta osm_base="2025-03-25T16:09:30Z" areas="2025-02-06T02:17:44Z"/>

  <way id="5270836" version="11" timestamp="2024-12-29T19:39:56Z" changeset="160765593" uid="5229644" user="Nathan_A_RF">
    <nd ref="25609395"/>
    <nd ref="11247803770"/>
    <nd ref="693343250"/>
    <nd ref="275939798"/>
    <nd ref="693343371"/>
    <nd ref="275939796"/>
    <nd ref="25609396"/>
    <nd ref="693343230"/>
    <nd ref="693343381"/>
    <nd ref="275939793"/>
    <nd ref="25609392"/>
    <nd ref="5443927514"/>
    <nd ref="11247803768"/>
    <nd ref="5443927510"/>
    <nd ref="275939792"/>
    <nd ref="275939790"/>
    <nd ref="5443927513"/>
    <nd ref="5443927511"/>
    <nd ref="25609393"/>
    <nd ref="693343396"/>
    <nd ref="275939813"/>
    <nd ref="25609395"/>
    <tag k="highway" v="primary"/>
    <tag k="junction" v="roundabout"/>
    <tag k="lit" v="yes"/>
    <tag k="maxspeed" v="60 mph"/>
    <tag k="maxspeed:type" v="GB:nsl_single"/>
    <tag k="oneway" v="yes"/>
    <tag k="sidewalk:left" v="separate"/>
    <tag k="surface" v="asphalt"/>
  </way>
  <way id="24558466" version="2" timestamp="2008-07-03T14:50:32Z" changeset="377944" uid="3582" user="davidearl">
    <nd ref="267023750"/>
    <nd ref="267023751"/>
    <nd ref="267023752"/>
    <nd ref="267023753"/>
    <nd ref="267023754"/>
    <nd ref="267023755"/>
    <nd ref="267023756"/>
    <nd ref="267023757"/>
    <nd ref="267023758"/>
    <tag k="highway" v="residential"/>
    <tag k="name" v="Clifden Close"/>
    <tag k="source:name" v="dictaphone"/>
  </way>
  <way id="24558470" version="4" timestamp="2024-07-27T09:13:38Z" changeset="154473894" uid="742701" user="kerr smith">
    <nd ref="267023764"/>
    <nd ref="12076582700"/>
    <nd ref="12076582705"/>
    <nd ref="267023791"/>
    <nd ref="267023792"/>
    <nd ref="12076582689"/>
    <nd ref="12076582762"/>
    <nd ref="267023793"/>
    <nd ref="12076582687"/>
    <nd ref="12076582688"/>
    <nd ref="267023794"/>
    <nd ref="12076582758"/>
    <nd ref="12076582759"/>
    <nd ref="12076582664"/>
    <nd ref="12076582680"/>
    <nd ref="267023795"/>
    <tag k="highway" v="residential"/>
    <tag k="name" v="Church End"/>
    <tag k="source:name" v="dictaphone"/>
  </way>
  <way id="24558474" version="3" timestamp="2024-07-07T11:48:26Z" changeset="153658578" uid="742701" user="kerr smith">
    <nd ref="267023806"/>
    <nd ref="12039833289"/>
    <nd ref="275939917"/>
    <nd ref="267023807"/>
    <tag k="highway" v="residential"/>
    <tag k="name" v="Hillside Lane"/>
    <tag k="source:name" v="dictaphone"/>
  </way>
  <way id="25327992" version="2" timestamp="2013-04-24T16:20:19Z" changeset="15851065" uid="281267" user="smb1001">
    <nd ref="275939955"/>
    <nd ref="2279702772"/>
    <nd ref="275939950"/>
    <nd ref="275941813"/>
    <nd ref="275941822"/>
    <tag k="highway" v="residential"/>
    <tag k="name" v="Newell Close"/>
    <tag k="source:name" v="dictaphone"/>
  </way>
  <way id="25328019" version="2" timestamp="2011-01-16T19:02:19Z" changeset="6992057" uid="96640" user="v12mike">
    <nd ref="275939800"/>
    <nd ref="275941830"/>
    <nd ref="275941832"/>
    <nd ref="275939839"/>
    <tag k="highway" v="unclassified"/>
  </way>
  <way id="25328021" version="2" timestamp="2024-07-24T13:59:09Z" changeset="154351975" uid="742701" user="kerr smith">
    <nd ref="275939910"/>
    <nd ref="12071701827"/>
    <nd ref="275939911"/>
    <nd ref="275939900"/>
    <nd ref="275939901"/>
    <nd ref="275939903"/>
    <tag k="highway" v="residential"/>
    <tag k="name" v="Mill Lane"/>
  </way>
  <way id="25328039" version="15" timestamp="2024-07-07T11:48:26Z" changeset="153658578" uid="742701" user="kerr smith">
    <nd ref="25609402"/>
    <nd ref="1572815423"/>
    <nd ref="12039739645"/>
    <nd ref="12039739646"/>
    <nd ref="660578188"/>
    <nd ref="1198090367"/>
    <nd ref="12039739642"/>
    <nd ref="25609403"/>
    <nd ref="1198090363"/>
    <nd ref="12039739643"/>
    <nd ref="1198090368"/>
    <nd ref="3438700045"/>
    <nd ref="1198090369"/>
    <tag k="highway" v="primary"/>
    <tag k="lanes" v="2"/>
    <tag k="lit" v="no"/>
    <tag k="maxspeed" v="40 mph"/>
    <tag k="maxspeed:type" v="sign"/>
    <tag k="name" v="Ermine Way"/>
    <tag k="old_ref" v="A14"/>
    <tag k="ref" v="A1198"/>
  </way>
  <way id="25328060" version="19" timestamp="2024-07-07T11:48:26Z" changeset="153658578" uid="742701" user="kerr smith">
    <nd ref="192484154"/>
    <nd ref="12039833319"/>
    <nd ref="25609412"/>
    <nd ref="275941755"/>
    <nd ref="7994382803"/>
    <nd ref="275939872"/>
    <nd ref="260377071"/>
    <nd ref="12039739619"/>
    <nd ref="25609413"/>
    <nd ref="12039739618"/>
    <nd ref="275939883"/>
    <nd ref="275939878"/>
    <nd ref="3752628956"/>
    <nd ref="275939866"/>
    <nd ref="12039739617"/>
    <nd ref="25609414"/>
    <nd ref="1479005696"/>
    <nd ref="25609415"/>
    <nd ref="12039739616"/>
    <nd ref="12039739615"/>
    <nd ref="275939865"/>
    <nd ref="12039739614"/>
    <nd ref="275939871"/>
    <nd ref="275941744"/>
    <nd ref="2377928557"/>
    <nd ref="1478978544"/>
    <nd ref="275939869"/>
    <nd ref="25609416"/>
    <nd ref="11660275412"/>
    <nd ref="11660275449"/>
    <nd ref="260377142"/>
    <nd ref="12039739613"/>
    <nd ref="3717998115"/>
    <nd ref="12039739612"/>
    <nd ref="275939919"/>
    <nd ref="12039739611"/>
    <nd ref="25609417"/>
    <nd ref="12039739610"/>
    <nd ref="275939921"/>
    <tag k="highway" v="primary"/>
    <tag k="lanes" v="2"/>
    <tag k="lit" v="no"/>
    <tag k="maxspeed" v="50 mph"/>
    <tag k="maxspeed:type" v="sign"/>
    <tag k="name" v="Ermine Way"/>
    <tag k="old_ref" v="A14"/>
    <tag k="ref" v="A1198"/>
    <tag k="surface" v="asphalt"/>
  </way>
  <way id="25328065" version="16" timestamp="2024-07-27T16:58:41Z" changeset="154492833" uid="742701" user="kerr smith">
    <nd ref="1180276658"/>
    <nd ref="267023871"/>
    <nd ref="1930567596"/>
    <nd ref="37235394"/>
    <nd ref="12077179659"/>
    <nd ref="12077179658"/>
    <nd ref="275939952"/>
    <nd ref="12077179657"/>
    <nd ref="37235396"/>
    <nd ref="12077179656"/>
    <nd ref="37235397"/>
    <nd ref="37235399"/>
    <nd ref="12077179654"/>
    <nd ref="12077179655"/>
    <nd ref="37235401"/>
    <nd ref="12077179653"/>
    <nd ref="37235403"/>
    <nd ref="12077179660"/>
    <nd ref="12077179662"/>
    <nd ref="12077179661"/>
    <nd ref="37235406"/>
    <nd ref="12077179663"/>
    <nd ref="12077179664"/>
    <nd ref="37235409"/>
    <nd ref="12077179666"/>
    <nd ref="12077179665"/>
    <nd ref="1095018608"/>
    <nd ref="6538779964"/>
    <nd ref="12076919180"/>
    <nd ref="7615857096"/>
    <nd ref="37235414"/>
    <nd ref="12076919174"/>
    <nd ref="1106542549"/>
    <nd ref="37235417"/>
    <nd ref="12076919182"/>
    <nd ref="37235420"/>
    <nd ref="12076919181"/>
    <nd ref="37235421"/>
    <nd ref="37235424"/>
    <nd ref="1523279060"/>
    <nd ref="37235427"/>
    <nd ref="1523279072"/>
    <nd ref="1523279062"/>
    <nd ref="275941836"/>
    <nd ref="8578240744"/>
    <nd ref="37235429"/>
    <nd ref="37235431"/>
    <nd ref="37235434"/>
    <nd ref="37235436"/>
    <nd ref="37235438"/>
    <nd ref="275939841"/>
    <nd ref="275939829"/>
    <nd ref="1034133162"/>
    <tag k="highway" v="secondary"/>
    <tag k="lanes" v="2"/>
    <tag k="maxspeed" v="50 mph"/>
    <tag k="name" v="Lower Road"/>
    <tag k="ref" v="B1042"/>
    <tag k="source:name" v="dictaphone"/>
    <tag k="source:ref" v="dictaphone"/>
  </way>
  <way id="25328085" version="5" timestamp="2024-07-27T09:13:38Z" changeset="154473894" uid="742701" user="kerr smith">
    <nd ref="275941894"/>
    <nd ref="267023771"/>
    <nd ref="12076582541"/>
    <nd ref="12076582540"/>
    <nd ref="267023770"/>
    <nd ref="12076582544"/>
    <nd ref="12076582543"/>
    <nd ref="12076582542"/>
    <nd ref="267023769"/>
    <nd ref="267023768"/>
    <nd ref="12076582545"/>
    <nd ref="12076582539"/>
    <nd ref="3423565790"/>
    <nd ref="267023767"/>
    <nd ref="7839472376"/>
    <nd ref="267023766"/>
    <nd ref="12076582765"/>
    <nd ref="12076582764"/>
    <nd ref="12076582763"/>
    <nd ref="267023765"/>
    <nd ref="12076582778"/>
    <nd ref="267023764"/>
    <tag k="abutters" v="residential"/>
    <tag k="highway" v="tertiary"/>
    <tag k="maxspeed" v="40 mph"/>
    <tag k="name" v="Croydon Road"/>
    <tag k="source:name" v="dictaphone"/>
  </way>
  <way id="25328087" version="8" timestamp="2024-07-27T09:13:38Z" changeset="154473894" uid="742701" user="kerr smith">
    <nd ref="267023764"/>
    <nd ref="12076582777"/>
    <nd ref="267023763"/>
    <nd ref="12076582776"/>
    <nd ref="267023762"/>
    <nd ref="12076582774"/>
    <nd ref="12076582775"/>
    <nd ref="267023761"/>
    <nd ref="12076582767"/>
    <nd ref="12076582766"/>
    <nd ref="8810969253"/>
    <nd ref="267023760"/>
    <nd ref="12076582769"/>
    <nd ref="12076582768"/>
    <nd ref="3437509244"/>
    <nd ref="267023759"/>
    <nd ref="12066467292"/>
    <nd ref="11331840060"/>
    <nd ref="25609401"/>
    <tag k="abutters" v="residential"/>
    <tag k="highway" v="tertiary"/>
    <tag k="maxspeed" v="40 mph"/>
    <tag k="name" v="Church Lane"/>
    <tag k="source:name" v="dictaphone"/>
  </way>
  <way id="38027965" version="8" timestamp="2024-12-29T19:39:56Z" changeset="160765593" uid="5229644" user="Nathan_A_RF">
    <nd ref="693343371"/>
    <nd ref="1034133185"/>
    <nd ref="1034133180"/>
    <nd ref="1034133178"/>
    <tag k="highway" v="primary"/>
    <tag k="lit" v="yes"/>
    <tag k="maxspeed" v="60 mph"/>
    <tag k="maxspeed:type" v="GB:nsl_single"/>
    <tag k="name" v="Ermine Way"/>
    <tag k="old_ref" v="A14"/>
    <tag k="oneway" v="yes"/>
    <tag k="ref" v="A1198"/>
    <tag k="source:maxspeed" v="Stats19"/>
    <tag k="surface" v="asphalt"/>
  </way>
  <way id="60911826" version="3" timestamp="2017-03-12T19:42:09Z" changeset="46793710" uid="238584" user="mcld">
    <nd ref="275939908"/>
    <nd ref="3733240041"/>
    <nd ref="275939906"/>
    <nd ref="4731029425"/>
    <nd ref="275939917"/>
    <tag k="abutters" v="residential"/>
    <tag k="highway" v="residential"/>
    <tag k="name" v="Hillside Lane"/>
    <tag k="surface" v="unpaved"/>
  </way>
  <way id="89152427" version="7" timestamp="2024-12-29T19:39:56Z" changeset="160765593" uid="5229644" user="Nathan_A_RF">
    <nd ref="1034133145"/>
    <nd ref="1034133147"/>
    <nd ref="12058822139"/>
    <nd ref="25609393"/>
    <tag k="highway" v="primary"/>
    <tag k="lit" v="yes"/>
    <tag k="maxspeed" v="60 mph"/>
    <tag k="maxspeed:type" v="GB:nsl_single"/>
    <tag k="old_ref" v="A14"/>
    <tag k="oneway" v="yes"/>
    <tag k="ref" v="A1198"/>
    <tag k="sidewalk:left" v="separate"/>
    <tag k="source:maxspeed" v="Stats19"/>
    <tag k="surface" v="asphalt"/>
  </way>
  <way id="89152431" version="4" timestamp="2023-10-08T10:39:58Z" changeset="142299025" uid="5173844" user="ndrw6">
    <nd ref="693343396"/>
    <nd ref="1034133165"/>
    <nd ref="11247803769"/>
    <nd ref="1034133162"/>
    <tag k="highway" v="secondary"/>
    <tag k="maxspeed" v="60 mph"/>
    <tag k="maxspeed:type" v="GB:nsl_single"/>
    <tag k="name" v="Lower Road"/>
    <tag k="oneway" v="yes"/>
    <tag k="ref" v="B1042"/>
    <tag k="source:name" v="dictaphone"/>
    <tag k="source:ref" v="dictaphone"/>
  </way>
  <way id="89152433" version="4" timestamp="2018-02-28T22:52:32Z" changeset="56770196" uid="2032231" user="narboy">
    <nd ref="1034133162"/>
    <nd ref="1034133159"/>
    <nd ref="5443956729"/>
    <nd ref="693343250"/>
    <tag k="highway" v="secondary"/>
    <tag k="maxspeed" v="60 mph"/>
    <tag k="maxspeed:type" v="GB:nsl_single"/>
    <tag k="name" v="Lower Road"/>
    <tag k="oneway" v="yes"/>
    <tag k="ref" v="B1042"/>
    <tag k="source:name" v="dictaphone"/>
    <tag k="source:ref" v="dictaphone"/>
  </way>
  <way id="107615236" version="5" timestamp="2019-02-06T10:07:53Z" changeset="66959052" uid="281267" user="smb1001">
    <nd ref="275939946"/>
    <nd ref="25609402"/>
    <tag k="abutters" v="residential"/>
    <tag k="highway" v="primary"/>
    <tag k="lanes" v="2"/>
    <tag k="lit" v="yes"/>
    <tag k="maxspeed" v="30 mph"/>
    <tag k="name" v="Ermine Way (Arrington)"/>
    <tag k="old_ref" v="A14"/>
    <tag k="ref" v="A1198"/>
  </way>
  <way id="107615237" version="6" timestamp="2024-09-11T13:27:03Z" changeset="156484587" uid="742701" user="kerr smith">
    <nd ref="25609401"/>
    <nd ref="275939949"/>
    <tag k="abutters" v="residential"/>
    <tag k="highway" v="primary"/>
    <tag k="lanes" v="2"/>
    <tag k="lit" v="yes"/>
    <tag k="maxspeed" v="30 mph"/>
    <tag k="name" v="Ermine Way (Arrington)"/>
    <tag k="old_ref" v="A14"/>
    <tag k="ref" v="A1198"/>
  </way>
  <way id="218743831" version="4" timestamp="2018-02-14T15:43:54Z" changeset="56357279" uid="364" user="Edward">
    <nd ref="2279702419"/>
    <nd ref="2279702317"/>
    <nd ref="2279702346"/>
    <nd ref="2279702420"/>
    <nd ref="2279702321"/>
    <nd ref="2279702626"/>
    <nd ref="2279702612"/>
    <nd ref="2279702599"/>
    <nd ref="2279702419"/>
    <tag k="addr:housenumber" v="96"/>
    <tag k="addr:postcode" v="SG8 0AH"/>
    <tag k="addr:street" v="Ermine Way"/>
    <tag k="amenity" v="pub"/>
    <tag k="building" v="yes"/>
    <tag k="food" v="yes"/>
    <tag k="name" v="Hardwicke Arms Hotel"/>
    <tag k="real_ale" v="3"/>
    <tag k="tourism" v="hotel"/>
    <tag k="wikidata" v="Q26456888"/>
  </way>
  <way id="245522968" version="4" timestamp="2019-02-06T10:07:53Z" changeset="66959052" uid="281267" user="smb1001">
    <nd ref="763408477"/>
    <nd ref="2279702329"/>
    <nd ref="267023750"/>
    <nd ref="275939955"/>
    <nd ref="25609401"/>
    <tag k="abutters" v="residential"/>
    <tag k="highway" v="primary"/>
    <tag k="lanes" v="2"/>
    <tag k="lit" v="yes"/>
    <tag k="maxspeed" v="30 mph"/>
    <tag k="name" v="Ermine Way (Arrington)"/>
    <tag k="old_ref" v="A14"/>
    <tag k="ref" v="A1198"/>
  </way>
  <way id="480076555" version="2" timestamp="2017-03-12T21:48:22Z" changeset="46796426" uid="238584" user="mcld">
    <nd ref="4731029427"/>
    <nd ref="4731029430"/>
    <nd ref="4731029431"/>
    <nd ref="4731029428"/>
    <nd ref="4731029427"/>
    <tag k="addr:housename" v="Dale View"/>
    <tag k="addr:housenumber" v="189"/>
    <tag k="addr:postcode" v="SG8 0AY"/>
    <tag k="addr:street" v="Ermine Way"/>
    <tag k="building" v="yes"/>
  </way>
  <way id="558627136" version="10" timestamp="2024-07-24T11:35:03Z" changeset="154345668" uid="742701" user="kerr smith">
    <nd ref="1198090369"/>
    <nd ref="25609404"/>
    <nd ref="12039739644"/>
    <nd ref="12039739647"/>
    <nd ref="1198090365"/>
    <nd ref="1198090366"/>
    <nd ref="1198090364"/>
    <nd ref="25609405"/>
    <nd ref="10576982989"/>
    <nd ref="25609406"/>
    <nd ref="275939910"/>
    <nd ref="12039739650"/>
    <nd ref="762458906"/>
    <nd ref="25609407"/>
    <nd ref="12039739655"/>
    <nd ref="12039739649"/>
    <nd ref="25609408"/>
    <nd ref="12039739648"/>
    <nd ref="12039739657"/>
    <nd ref="12039739656"/>
    <nd ref="275939908"/>
    <nd ref="12039739634"/>
    <nd ref="25609409"/>
    <nd ref="267023806"/>
    <nd ref="6702502193"/>
    <nd ref="12039493694"/>
    <nd ref="7299298604"/>
    <nd ref="25609410"/>
    <nd ref="631655159"/>
    <nd ref="12039833291"/>
    <nd ref="25609411"/>
    <nd ref="192484154"/>
    <tag k="highway" v="primary"/>
    <tag k="lanes" v="2"/>
    <tag k="lit" v="no"/>
    <tag k="maxspeed" v="50 mph"/>
    <tag k="maxspeed:type" v="sign"/>
    <tag k="name" v="Ermine Way"/>
    <tag k="old_ref" v="A14"/>
    <tag k="ref" v="A1198"/>
  </way>
  <way id="948395975" version="1" timestamp="2021-05-29T10:31:20Z" changeset="105528542" uid="281267" user="smb1001">
    <nd ref="8778702693"/>
    <nd ref="6810600418"/>
    <nd ref="3768537332"/>
    <nd ref="3966070640"/>
    <nd ref="8778702697"/>
    <nd ref="8778702693"/>
    <tag k="addr:postcode" v="SG8 0AG"/>
    <tag k="addr:street" v="Ermine Wat"/>
    <tag k="name" v="Arrington Garden Centre &amp; Cafe"/>
    <tag k="shop" v="garden_centre"/>
    <tag k="website" v="https://arringtongardencentre.co.uk"/>
  </way>
  <way id="1130923310" version="2" timestamp="2024-07-07T10:04:22Z" changeset="153654535" uid="742701" user="kerr smith">
    <nd ref="10539809793"/>
    <nd ref="10539809792"/>
    <nd ref="10539809791"/>
    <nd ref="10539809788"/>
    <nd ref="10539809789"/>
    <nd ref="10539809790"/>
    <nd ref="10539809793"/>
    <tag k="addr:housename" v="Four Winds"/>
    <tag k="addr:housenumber" v="197a"/>
    <tag k="addr:street" v="Ermine Way"/>
    <tag k="building" v="yes"/>
  </way>
  <way id="1130923311" version="2" timestamp="2024-07-07T10:04:22Z" changeset="153654535" uid="742701" user="kerr smith">
    <nd ref="10539809797"/>
    <nd ref="10539809796"/>
    <nd ref="10539809795"/>
    <nd ref="10539809794"/>
    <nd ref="10539809797"/>
    <tag k="addr:housename" v="Hillcrest"/>
    <tag k="addr:housenumber" v="199"/>
    <tag k="addr:street" v="Ermine Way"/>
    <tag k="building" v="yes"/>
  </way>
  <way id="1130923312" version="2" timestamp="2024-07-07T10:04:22Z" changeset="153654535" uid="742701" user="kerr smith">
    <nd ref="10539809801"/>
    <nd ref="10539809800"/>
    <nd ref="10539809799"/>
    <nd ref="10539809798"/>
    <nd ref="10539809801"/>
    <tag k="addr:housename" v="Springdale"/>
    <tag k="addr:housenumber" v="201"/>
    <tag k="addr:street" v="Ermine Way"/>
    <tag k="building" v="yes"/>
  </way>
  <way id="1135817337" version="1" timestamp="2023-01-28T00:30:39Z" changeset="131792931" uid="3999" user="BarryMyles">
    <nd ref="10587852022"/>
    <nd ref="10587852023"/>
    <nd ref="10587852024"/>
    <nd ref="10587852025"/>
    <nd ref="10587852026"/>
    <nd ref="10587852027"/>
    <nd ref="10587852022"/>
    <tag k="addr:city" v="Arrington"/>
    <tag k="addr:postcode" v="SG8 0AD"/>
    <tag k="addr:street" v="Ermine Way"/>
    <tag k="building" v="yes"/>
    <tag k="name" v="Arrington Telephone Exchange"/>
    <tag k="operator" v="Openreach"/>
    <tag k="operator:wikidata" v="Q7096543"/>
    <tag k="ref" v="EAARR"/>
    <tag k="telecom" v="exchange"/>
  </way>
  <way id="1304042066" version="1" timestamp="2024-07-27T09:13:38Z" changeset="154473894" uid="742701" user="kerr smith">
    <nd ref="12076582677"/>
    <nd ref="12076582676"/>
    <nd ref="12076582759"/>
    <tag k="highway" v="residential"/>
    <tag k="name" v="Church End"/>
  </way>
  <way id="1314856086" version="1" timestamp="2024-09-11T13:27:03Z" changeset="156484587" uid="742701" user="kerr smith">
    <nd ref="275939949"/>
    <nd ref="275939946"/>
    <tag k="abutters" v="residential"/>
    <tag k="highway" v="primary"/>
    <tag k="lanes" v="2"/>
    <tag k="lit" v="yes"/>
    <tag k="maxspeed" v="30 mph"/>
    <tag k="name" v="Ermine Way (Arrington)"/>
    <tag k="old_ref" v="A14"/>
    <tag k="ref" v="A1198"/>
  </way>
  <way id="1347149590" version="1" timestamp="2024-12-29T19:39:56Z" changeset="160765593" uid="5229644" user="Nathan_A_RF">
    <nd ref="1572817129"/>
    <nd ref="25609397"/>
    <nd ref="12039739636"/>
    <tag k="highway" v="primary"/>
    <tag k="lanes" v="2"/>
    <tag k="lit" v="no"/>
    <tag k="maxspeed" v="60 mph"/>
    <tag k="maxspeed:type" v="GB:nsl_single"/>
    <tag k="name" v="Ermine Way"/>
    <tag k="old_ref" v="A14"/>
    <tag k="ref" v="A1198"/>
  </way>

</osm>
