<?xml version="1.0" encoding="UTF-8"?>
<osm version="0.6" generator="Overpass API 0.7.62.5 1bd436f1">
<note>The data included in this document is from www.openstreetmap.org. The data is made available under ODbL.</note>
<meta osm_base="2025-05-17T10:28:35Z" areas="2024-12-31T00:49:33Z"/>

  <node id="49099163" lat="32.7157004" lon="-117.1601788" version="8" timestamp="2022-12-19T16:36:42Z" changeset="130256338" uid="2087961" user="JasonBob">
    <tag k="crossing" v="traffic_signals"/>
    <tag k="highway" v="traffic_signals"/>
  </node>
  <node id="49099164" lat="32.7157109" lon="-117.1592729" version="12" timestamp="2024-10-22T16:10:07Z" changeset="158219016" uid="20828150" user="VLD316">
    <tag k="button_operated" v="yes"/>
    <tag k="crossing" v="traffic_signals"/>
    <tag k="highway" v="traffic_signals"/>
    <tag k="tactile_paving" v="yes"/>
    <tag k="traffic_signals:sound" v="yes"/>
    <tag k="traffic_signals:vibration" v="yes"/>
  </node>
  <node id="49112936" lat="32.7093935" lon="-117.1628459" version="5" timestamp="2022-09-02T18:45:13Z" changeset="125711430" uid="999995" user="pkoby"/>
  <node id="49147064" lat="32.7083198" lon="-117.1610498" version="5" timestamp="2014-04-22T09:18:56Z" changeset="21857699" uid="902727" user="javbw"/>
  <node id="49147069" lat="32.7083335" lon="-117.1592088" version="5" timestamp="2014-02-04T01:59:14Z" changeset="20364239" uid="369747" user="crisnoble"/>
  <node id="49282607" lat="32.7125721" lon="-117.1601565" version="8" timestamp="2024-05-30T19:25:51Z" changeset="152051846" uid="1330847" user="TheDutchMan13">
    <tag k="highway" v="traffic_signals"/>
    <tag k="traffic_signals" v="traffic_lights"/>
    <tag k="traffic_signals:direction" v="forward"/>
  </node>
  <node id="49295378" lat="32.7072910" lon="-117.1582570" version="3" timestamp="2009-12-15T07:21:37Z" changeset="3377194" uid="147510" user="woodpeck_fixbot"/>
  <node id="49295392" lat="32.7136260" lon="-117.1583330" version="5" timestamp="2024-12-27T14:40:11Z" changeset="160679321" uid="340741" user="CRCulver">
    <tag k="highway" v="traffic_signals"/>
  </node>
  <node id="49337540" lat="32.7178080" lon="-117.1611004" version="7" timestamp="2018-12-31T20:47:13Z" changeset="65921489" uid="4085780" user="rivermont">
    <tag k="highway" v="traffic_signals"/>
  </node>
  <node id="49414976" lat="32.7146491" lon="-117.1601678" version="8" timestamp="2024-12-27T14:40:11Z" changeset="160679321" uid="340741" user="CRCulver">
    <tag k="highway" v="traffic_signals"/>
  </node>
  <node id="49705992" lat="32.7114995" lon="-117.1592290" version="6" timestamp="2022-11-12T12:10:02Z" changeset="128810165" uid="340741" user="CRCulver"/>
  <node id="2806006284" lat="32.7069048" lon="-117.1604618" version="5" timestamp="2024-01-22T05:08:16Z" changeset="146536749" uid="340741" user="CRCulver"/>
  <node id="2808094459" lat="32.7073548" lon="-117.1602492" version="2" timestamp="2016-12-04T05:46:04Z" changeset="44150922" uid="123633" user="stevea"/>
  <node id="2808094569" lat="32.7093987" lon="-117.1610434" version="3" timestamp="2022-09-21T00:39:59Z" changeset="126442827" uid="340741" user="CRCulver">
    <tag k="highway" v="stop"/>
    <tag k="stop" v="all"/>
  </node>
  <node id="3804292657" lat="32.7104283" lon="-117.1610416" version="4" timestamp="2024-01-25T09:41:50Z" changeset="146665114" uid="340741" user="CRCulver">
    <tag k="highway" v="stop"/>
    <tag k="stop" v="all"/>
  </node>
  <node id="4341585203" lat="32.7114895" lon="-117.1616169" version="1" timestamp="2016-08-08T18:55:50Z" changeset="41330536" uid="3526564" user="yurasi"/>
  <node id="4341675263" lat="32.7156937" lon="-117.1614189" version="2" timestamp="2020-02-18T22:26:34Z" changeset="81190768" uid="10430344" user="CSanders0"/>
  <node id="10261279249" lat="32.7125643" lon="-117.1613396" version="1" timestamp="2022-12-13T21:25:32Z" changeset="130051127" uid="11905428" user="amakarevich_lyft"/>
  <node id="12279022693" lat="32.7179692" lon="-117.1592902" version="1" timestamp="2024-10-22T16:18:38Z" changeset="158219384" uid="20828150" user="VLD316"/>
  <way id="5960813" version="26" timestamp="2024-10-22T16:18:38Z" changeset="158219384" uid="20828150" user="VLD316">
    <nd ref="49099162"/>
    <nd ref="10247405083"/>
    <nd ref="10273746026"/>
    <nd ref="49099163"/>
    <tag k="cycleway:both" v="no"/>
    <tag k="highway" v="secondary"/>
    <tag k="lanes" v="4"/>
    <tag k="name" v="Broadway"/>
    <tag k="sidewalk:both" v="separate"/>
    <tag k="sidewalk:left:surface" v="paving_stones"/>
    <tag k="surface" v="asphalt"/>
    <tag k="tiger:cfcc" v="A41"/>
    <tag k="tiger:county" v="San Diego, CA"/>
    <tag k="tiger:name_base" v="Broadway"/>
  </way>
  <way id="5980488" version="30" timestamp="2025-03-16T22:05:13Z" changeset="163708267" uid="21618251" user="Emiliz">
    <nd ref="49282607"/>
    <nd ref="10273740703"/>
    <nd ref="49282608"/>
    <nd ref="9995649756"/>
    <nd ref="10040858283"/>
    <nd ref="49282609"/>
    <nd ref="6971380219"/>
    <nd ref="49282610"/>
    <nd ref="5536776961"/>
    <nd ref="4486199629"/>
    <nd ref="49282611"/>
    <nd ref="4486199628"/>
    <nd ref="49120832"/>
    <nd ref="49282612"/>
    <nd ref="5536776926"/>
    <nd ref="49282614"/>
    <nd ref="9485136109"/>
    <nd ref="1357333676"/>
    <tag k="cycleway:right" v="no"/>
    <tag k="highway" v="secondary"/>
    <tag k="lanes" v="3"/>
    <tag k="mapillary" v="991790772371794"/>
    <tag k="name" v="G Street"/>
    <tag k="oneway" v="yes"/>
    <tag k="sidewalk" v="both"/>
    <tag k="surface" v="asphalt"/>
    <tag k="survey:date" v="2024-12-17"/>
  </way>
  <way id="5987900" version="30" timestamp="2024-10-24T19:50:45Z" changeset="158311513" uid="20828150" user="VLD316">
    <nd ref="49337540"/>
    <nd ref="10016855145"/>
    <nd ref="1952180677"/>
    <nd ref="10016809787"/>
    <nd ref="5825961084"/>
    <nd ref="49344778"/>
    <nd ref="1111263760"/>
    <nd ref="5825961087"/>
    <nd ref="49344775"/>
    <nd ref="1952180675"/>
    <nd ref="10247405085"/>
    <nd ref="49099162"/>
    <tag k="highway" v="secondary"/>
    <tag k="lanes" v="3"/>
    <tag k="name" v="4th Avenue"/>
    <tag k="oneway" v="yes"/>
    <tag k="sidewalk:both" v="separate"/>
    <tag k="tiger:cfcc" v="A41"/>
    <tag k="tiger:county" v="San Diego, CA"/>
    <tag k="tiger:name_base" v="4th"/>
    <tag k="tiger:name_type" v="Ave"/>
  </way>
  <way id="6008923" version="13" timestamp="2023-04-20T12:46:42Z" changeset="135147164" uid="61341" user="RubenKelevra">
    <nd ref="49295378"/>
    <nd ref="10665415518"/>
    <nd ref="10665365837"/>
    <nd ref="49504758"/>
    <nd ref="4411132197"/>
    <nd ref="10665365833"/>
    <nd ref="3678182508"/>
    <nd ref="2808094504"/>
    <nd ref="49426586"/>
    <tag k="highway" v="residential"/>
    <tag k="name" v="L Street"/>
    <tag k="sidewalk:both" v="separate"/>
    <tag k="tiger:cfcc" v="A41"/>
    <tag k="tiger:county" v="San Diego, CA"/>
    <tag k="tiger:name_base" v="L"/>
    <tag k="tiger:name_type" v="St"/>
  </way>
  <way id="25957961" version="9" timestamp="2025-03-19T19:43:39Z" changeset="163833619" uid="21618251" user="Emiliz">
    <nd ref="3804292657"/>
    <nd ref="4011740138"/>
    <nd ref="4011740139"/>
    <nd ref="10278558464"/>
    <nd ref="49080849"/>
    <tag k="highway" v="residential"/>
    <tag k="lanes" v="1"/>
    <tag k="mapillary" v="626752166659277"/>
    <tag k="name" v="Island Avenue"/>
    <tag k="oneway" v="yes"/>
    <tag k="sidewalk" v="both"/>
    <tag k="surface" v="asphalt"/>
    <tag k="survey:date" v="2024-12-16"/>
    <tag k="tiger:cfcc" v="A41"/>
    <tag k="tiger:county" v="San Diego, CA"/>
    <tag k="tiger:name_base" v="Island"/>
    <tag k="tiger:name_type" v="Ave"/>
    <tag k="tiger:reviewed" v="no"/>
  </way>
  <way id="31806834" version="5" timestamp="2021-07-16T17:58:43Z" changeset="108132489" uid="13771489" user="Chef's San Diego">
    <nd ref="356119696"/>
    <nd ref="356092531"/>
    <nd ref="356126798"/>
    <nd ref="356140511"/>
    <nd ref="356119696"/>
    <tag k="addr:city" v="San Diego"/>
    <tag k="addr:housenumber" v="531"/>
    <tag k="addr:postcode" v="92101"/>
    <tag k="addr:state" v="CA"/>
    <tag k="addr:street" v="F Street"/>
    <tag k="building" v="commercial"/>
    <tag k="building:levels" v="1"/>
    <tag k="building_type" v="commercial"/>
    <tag k="name" v="Chef's Bar and Lounge"/>
    <tag k="sangis:OBJECTID" v="5478"/>
    <tag k="sangis:TYPE" v="Commercial"/>
    <tag k="source" v="SanGIS Footprints_Nonresidential_SD public domain (http://www.sangis.org/)"/>
  </way>
  <way id="31807985" version="6" timestamp="2024-02-11T22:39:44Z" changeset="147346143" uid="3199858" user="Mateusz Konieczny - bot account">
    <nd ref="356130680"/>
    <nd ref="8669455755"/>
    <nd ref="8669455754"/>
    <nd ref="8669455753"/>
    <nd ref="8669455752"/>
    <nd ref="8669455751"/>
    <nd ref="8669455750"/>
    <nd ref="8669455749"/>
    <nd ref="8669455748"/>
    <nd ref="8669455747"/>
    <nd ref="8669455746"/>
    <nd ref="356082374"/>
    <nd ref="356107400"/>
    <nd ref="8669455768"/>
    <nd ref="8669455769"/>
    <nd ref="8669455770"/>
    <nd ref="8669455771"/>
    <nd ref="356094172"/>
    <nd ref="8669455767"/>
    <nd ref="8669455766"/>
    <nd ref="8669455765"/>
    <nd ref="8669455764"/>
    <nd ref="8669455763"/>
    <nd ref="8669455762"/>
    <nd ref="8669455761"/>
    <nd ref="8669455760"/>
    <nd ref="8669455759"/>
    <nd ref="8669455758"/>
    <nd ref="8669455757"/>
    <nd ref="8669455756"/>
    <nd ref="356130680"/>
    <tag k="addr:city" v="San Diego"/>
    <tag k="addr:housenumber" v="432"/>
    <tag k="addr:postcode" v="92101"/>
    <tag k="addr:state" v="CA"/>
    <tag k="addr:street" v="F Street"/>
    <tag k="building" v="office"/>
    <tag k="building:levels" v="5"/>
    <tag k="name" v="The Keating Hotel"/>
    <tag k="phone" v="619-814-5700"/>
    <tag k="sangis:OBJECTID" v="4916"/>
    <tag k="sangis:TYPE" v="Commercial"/>
    <tag k="source" v="SanGIS Footprints_Nonresidential_SD public domain (http://www.sangis.org/)"/>
    <tag k="start_date" v="1890"/>
    <tag k="tourism" v="hotel"/>
    <tag k="website" v="http://www.thekeating.com"/>
    <tag k="wikidata" v="Q7744028"/>
    <tag k="wikipedia" v="en:Keating Building"/>
  </way>
  <way id="31808231" version="5" timestamp="2021-11-01T01:01:16Z" changeset="113213001" uid="12420519" user="plumb bob">
    <nd ref="356091793"/>
    <nd ref="356078337"/>
    <nd ref="356132598"/>
    <nd ref="356115165"/>
    <nd ref="356096761"/>
    <nd ref="356091793"/>
    <tag k="addr:city" v="San Diego"/>
    <tag k="addr:country" v="US"/>
    <tag k="addr:housenumber" v="454"/>
    <tag k="addr:postcode" v="92101"/>
    <tag k="addr:state" v="CA"/>
    <tag k="addr:street" v="6th Avenue"/>
    <tag k="amenity" v="nightclub"/>
    <tag k="building" v="yes"/>
    <tag k="building_type" v="commercial"/>
    <tag k="name" v="OMNIA Nightclub San Diego"/>
    <tag k="opening_hours" v="Th-Sa 21:00-26:00"/>
    <tag k="sangis:OBJECTID" v="5775"/>
    <tag k="sangis:TYPE" v="Commercial"/>
    <tag k="source" v="SanGIS Footprints_Nonresidential_SD public domain (http://www.sangis.org/)"/>
  </way>
  <way id="31809052" version="5" timestamp="2021-04-25T22:31:38Z" changeset="103594382" uid="381909" user="JessAk71">
    <nd ref="356114606"/>
    <nd ref="356095623"/>
    <nd ref="356124489"/>
    <nd ref="356142426"/>
    <nd ref="356114606"/>
    <tag k="addr:city" v="San Diego"/>
    <tag k="addr:housenumber" v="207"/>
    <tag k="addr:postcode" v="92101"/>
    <tag k="addr:state" v="CA"/>
    <tag k="addr:street" v="5th Avenue"/>
    <tag k="building" v="yes"/>
    <tag k="building_type" v="commercial"/>
    <tag k="sangis:OBJECTID" v="5819"/>
    <tag k="sangis:TYPE" v="Commercial"/>
    <tag k="source" v="SanGIS Footprints_Nonresidential_SD public domain (http://www.sangis.org/)"/>
  </way>
  <way id="31809565" version="5" timestamp="2023-07-06T03:36:58Z" changeset="138169605" uid="12663989" user="AasmaK">
    <nd ref="356089969"/>
    <nd ref="3666681781"/>
    <nd ref="5529561822"/>
    <nd ref="356111303"/>
    <nd ref="356089969"/>
    <tag k="addr:city" v="San Diego"/>
    <tag k="addr:housenumber" v="770"/>
    <tag k="addr:postcode" v="92101"/>
    <tag k="addr:state" v="CA"/>
    <tag k="addr:street" v="F Street"/>
    <tag k="amenity" v="bar"/>
    <tag k="building" v="yes"/>
    <tag k="building_type" v="commercial"/>
    <tag k="name" v="The Tipsy Crow"/>
    <tag k="sangis:OBJECTID" v="5777"/>
    <tag k="sangis:TYPE" v="Commercial"/>
    <tag k="source" v="SanGIS Footprints_Nonresidential_SD public domain (http://www.sangis.org/)"/>
    <tag k="website" v="https://thetipsycrow.com/"/>
  </way>
  <way id="31818354" version="6" timestamp="2023-10-06T02:24:33Z" changeset="142212127" uid="9451067" user="b-jazz-bot">
    <nd ref="356216682"/>
    <nd ref="8677737919"/>
    <nd ref="356221830"/>
    <nd ref="356113677"/>
    <nd ref="356166529"/>
    <nd ref="356178110"/>
    <nd ref="356240311"/>
    <nd ref="356216682"/>
    <tag k="addr:city" v="San Diego"/>
    <tag k="addr:country" v="US"/>
    <tag k="addr:housenumber" v="520"/>
    <tag k="addr:postcode" v="92101"/>
    <tag k="addr:state" v="CA"/>
    <tag k="addr:street" v="5th Avenue"/>
    <tag k="building" v="yes"/>
    <tag k="building_type" v="commercial"/>
    <tag k="name" v="Sole Concepts"/>
    <tag k="sangis:OBJECTID" v="14742"/>
    <tag k="sangis:TYPE" v="Commercial"/>
    <tag k="shop" v="shoes"/>
    <tag k="source" v="SanGIS Addresses Public Domain (http://www.sangis.org/)"/>
    <tag k="website" v="https://birkenstocksd.com/sole-concepts/"/>
  </way>
  <way id="31841390" version="8" timestamp="2023-10-10T06:24:11Z" changeset="142377161" uid="19945956" user="blue_peregrine">
    <nd ref="356436100"/>
    <nd ref="356389209"/>
    <nd ref="356403056"/>
    <nd ref="356381030"/>
    <nd ref="356436100"/>
    <tag k="addr:housenumber" v="322"/>
    <tag k="addr:postcode" v="92101"/>
    <tag k="addr:street" v="5th Avenue"/>
    <tag k="amenity" v="restaurant"/>
    <tag k="building" v="yes"/>
    <tag k="building_type" v="office"/>
    <tag k="cuisine" v="american"/>
    <tag k="email" v="info@cervezajacks.com"/>
    <tag k="name" v="Cerveza Jack's Gaslamp"/>
    <tag k="opening_hours" v="Sa-Su 10:00-22:00; We-Fr 11:00-22:00"/>
    <tag k="phone" v="+1 (619) 546-9292"/>
    <tag k="sangis:OBJECTID" v="14355"/>
    <tag k="sangis:TYPE" v="Office"/>
    <tag k="source" v="SanGIS Footprints_Nonresidential_SD public domain (http://www.sangis.org/)"/>
    <tag k="website" v="https://www.cervezajacks.com"/>
  </way>
  <way id="31842628" version="4" timestamp="2023-07-21T20:19:43Z" changeset="138829906" uid="11022773" user="GeoFens">
    <nd ref="356112616"/>
    <nd ref="356375755"/>
    <nd ref="356335125"/>
    <nd ref="356086144"/>
    <nd ref="356112616"/>
    <tag k="amenity" v="bar"/>
    <tag k="building" v="yes"/>
    <tag k="building_type" v="commercial"/>
    <tag k="name" v="Werewolf"/>
    <tag k="sangis:OBJECTID" v="14523"/>
    <tag k="sangis:TYPE" v="Commercial"/>
    <tag k="source" v="SanGIS Footprints_Nonresidential_SD public domain (http://www.sangis.org/)"/>
  </way>
  <way id="31846148" version="7" timestamp="2025-02-06T03:47:05Z" changeset="162190713" uid="10468210" user="KingKratos">
    <nd ref="356089609"/>
    <nd ref="356076891"/>
    <nd ref="356168441"/>
    <nd ref="356198119"/>
    <nd ref="356205677"/>
    <nd ref="356525873"/>
    <nd ref="356089609"/>
    <tag k="addr:city" v="San Diego"/>
    <tag k="addr:housenumber" v="964"/>
    <tag k="addr:postcode" v="92101"/>
    <tag k="addr:state" v="CA"/>
    <tag k="addr:street" v="5th Avenue"/>
    <tag k="building" v="hotel"/>
    <tag k="building_type" v="office"/>
    <tag k="email" v="info@grangerhotel.com"/>
    <tag k="internet_access" v="wlan"/>
    <tag k="internet_access:fee" v="no"/>
    <tag k="name" v="Granger Hotel Gaslamp Quarter, a Member of Design Hotels"/>
    <tag k="not:brand:wikidata" v="Q1627894"/>
    <tag k="phone" v="+1 619 485 5006"/>
    <tag k="sangis:OBJECTID" v="14684"/>
    <tag k="sangis:TYPE" v="Office"/>
    <tag k="website" v="https://www.marriott.com/en-us/hotels/sangh-granger-hotel-gaslamp-quarter-a-member-of-design-hotels/overview/"/>
    <tag k="wikidata" v="Q27728184"/>
  </way>
  <way id="31929715" version="11" timestamp="2023-04-20T12:08:32Z" changeset="135147164" uid="61341" user="RubenKelevra">
    <nd ref="49147064"/>
    <nd ref="2808094560"/>
    <nd ref="4901279029"/>
    <nd ref="10272243622"/>
    <nd ref="49147067"/>
    <tag k="cycleway" v="shared_lane"/>
    <tag k="highway" v="secondary"/>
    <tag k="name" v="K Street"/>
    <tag k="sidewalk:both" v="separate"/>
    <tag k="tiger:cfcc" v="A41"/>
    <tag k="tiger:county" v="San Diego, CA"/>
    <tag k="tiger:name_base" v="K"/>
    <tag k="tiger:name_type" v="St"/>
  </way>
  <way id="31929716" version="14" timestamp="2024-04-26T16:16:53Z" changeset="150547143" uid="14893052" user="I-76">
    <nd ref="49147067"/>
    <nd ref="10272243621"/>
    <nd ref="10272243620"/>
    <nd ref="49147069"/>
    <tag k="cycleway:both" v="no"/>
    <tag k="highway" v="residential"/>
    <tag k="lanes" v="2"/>
    <tag k="lit" v="yes"/>
    <tag k="name" v="K Street"/>
    <tag k="sidewalk:both" v="separate"/>
    <tag k="surface" v="asphalt"/>
    <tag k="tiger:cfcc" v="A41"/>
    <tag k="tiger:county" v="San Diego, CA"/>
    <tag k="tiger:name_base" v="K"/>
    <tag k="tiger:name_type" v="St"/>
  </way>
  <way id="32502243" version="4" timestamp="2022-06-25T04:06:36Z" changeset="122824216" uid="115918" user="Timothy Smith">
    <nd ref="365430040"/>
    <nd ref="365430042"/>
    <nd ref="356082670"/>
    <nd ref="365430043"/>
    <nd ref="365430045"/>
    <nd ref="365430040"/>
    <tag k="brand" v="Wyndham"/>
    <tag k="brand:wikidata" v="Q8040120"/>
    <tag k="building" v="yes"/>
    <tag k="name" v="Wyndham Harbour Lights"/>
    <tag k="official_name" v="Wyndham Hotels &amp; Resorts"/>
    <tag k="tourism" v="hotel"/>
  </way>
  <way id="32502244" version="4" timestamp="2016-04-28T21:49:29Z" changeset="38968488" uid="3478684" user="GoWestTravel">
    <nd ref="365430101"/>
    <nd ref="3666676125"/>
    <nd ref="365430045"/>
    <nd ref="365430040"/>
    <nd ref="365430103"/>
    <nd ref="365430101"/>
    <tag k="building" v="yes"/>
    <tag k="name" v="Gaslamp Plaza Suites"/>
    <tag k="tourism" v="hotel"/>
  </way>
  <way id="32502257" version="6" timestamp="2023-07-04T21:04:46Z" changeset="138122973" uid="11022773" user="GeoFens">
    <nd ref="8669455744"/>
    <nd ref="3802411776"/>
    <nd ref="356096906"/>
    <nd ref="8642476892"/>
    <nd ref="8642476891"/>
    <nd ref="8642476890"/>
    <nd ref="8642476888"/>
    <nd ref="365430245"/>
    <nd ref="8669455744"/>
    <tag k="addr:city" v="San Diego"/>
    <tag k="addr:housenumber" v="830"/>
    <tag k="addr:postcode" v="92101"/>
    <tag k="addr:state" v="CA"/>
    <tag k="addr:street" v="6th Avenue"/>
    <tag k="brand" v="Palisociety"/>
    <tag k="building" v="yes"/>
    <tag k="building:levels" v="10"/>
    <tag k="layer" v="1"/>
    <tag k="name" v="Palihotel San Diego"/>
    <tag k="tourism" v="hotel"/>
    <tag k="website" v="https://www.palisociety.com/hotels/san-diego"/>
  </way>
  <way id="32502447" version="6" timestamp="2019-02-19T18:40:28Z" changeset="67363205" uid="9451067" user="b-jazz-bot">
    <nd ref="365435750"/>
    <nd ref="365435751"/>
    <nd ref="365435753"/>
    <nd ref="4901279051"/>
    <nd ref="365435754"/>
    <nd ref="365435755"/>
    <nd ref="365435757"/>
    <nd ref="365435758"/>
    <nd ref="365435760"/>
    <nd ref="365435762"/>
    <nd ref="365435764"/>
    <nd ref="365435765"/>
    <nd ref="365435767"/>
    <nd ref="365435768"/>
    <nd ref="365435770"/>
    <nd ref="365435750"/>
    <tag k="addr:city" v="San Diego"/>
    <tag k="addr:housenumber" v="401"/>
    <tag k="addr:postcode" v="92101"/>
    <tag k="addr:state" v="CA"/>
    <tag k="addr:street" v="K Street"/>
    <tag k="brand" v="Hilton"/>
    <tag k="brand:wikidata" v="Q598884"/>
    <tag k="building" v="hotel"/>
    <tag k="building:levels" v="8"/>
    <tag k="name" v="Hilton San Diego Gaslamp Quarter"/>
    <tag k="phone" v="+1-619-231-4040"/>
    <tag k="tourism" v="hotel"/>
    <tag k="website" v="https://www3.hilton.com/en/hotels/california/hilton-san-diego-gaslamp-quarter-SANGQHF/"/>
  </way>
  <way id="32502619" version="5" timestamp="2021-11-05T00:50:58Z" changeset="113390377" uid="9451067" user="b-jazz-bot">
    <nd ref="597184878"/>
    <nd ref="3807320971"/>
    <nd ref="3807320973"/>
    <nd ref="365442200"/>
    <nd ref="8674722351"/>
    <nd ref="597184878"/>
    <tag k="addr:city" v="San Diego"/>
    <tag k="addr:country" v="US"/>
    <tag k="addr:housenumber" v="714"/>
    <tag k="addr:postcode" v="92101"/>
    <tag k="addr:state" v="CA"/>
    <tag k="addr:street" v="5th Avenue"/>
    <tag k="amenity" v="nightclub"/>
    <tag k="building" v="yes"/>
    <tag k="building_type" v="commercial"/>
    <tag k="name" v="Whiskey Girl"/>
    <tag k="sangis:OBJECTID" v="5469"/>
    <tag k="sangis:TYPE" v="Commercial"/>
    <tag k="source" v="SanGIS Footprints_Nonresidential_SD public domain (http://www.sangis.org/);SanGIS Addresses Public Domain (http://www.sangis.org/)"/>
    <tag k="website" v="https://whiskeygirl.com/"/>
  </way>
  <way id="119397890" version="17" timestamp="2024-01-25T09:41:50Z" changeset="146665114" uid="340741" user="CRCulver">
    <nd ref="49112936"/>
    <nd ref="10040851264"/>
    <nd ref="49080848"/>
    <nd ref="10040851262"/>
    <nd ref="10040851268"/>
    <nd ref="2808094569"/>
    <nd ref="10040851266"/>
    <nd ref="10040851272"/>
    <nd ref="2808094570"/>
    <nd ref="10040851270"/>
    <nd ref="10040851273"/>
    <nd ref="49623171"/>
    <nd ref="9995649752"/>
    <nd ref="10295337193"/>
    <nd ref="10295337201"/>
    <nd ref="49295383"/>
    <tag k="cycleway:right" v="track"/>
    <tag k="highway" v="residential"/>
    <tag k="lanes" v="2"/>
    <tag k="name" v="J Street"/>
    <tag k="oneway:bicycle" v="no"/>
    <tag k="sidewalk:both" v="separate"/>
    <tag k="surface" v="asphalt"/>
  </way>
  <way id="276186634" version="6" timestamp="2025-05-13T15:51:43Z" changeset="166210296" uid="5774181" user="TMMM">
    <nd ref="49426590"/>
    <nd ref="10272193200"/>
    <nd ref="49147067"/>
    <tag k="highway" v="secondary"/>
    <tag k="name" v="5th Avenue"/>
    <tag k="sidewalk:left" v="separate"/>
    <tag k="sidewalk:right" v="separate"/>
    <tag k="surface" v="asphalt"/>
    <tag k="tiger:cfcc" v="A41"/>
    <tag k="tiger:county" v="San Diego, CA"/>
    <tag k="tiger:name_base" v="5th"/>
    <tag k="tiger:name_type" v="Ave"/>
  </way>
  <way id="276186637" version="7" timestamp="2024-12-25T04:53:56Z" changeset="160592860" uid="22137982" user="TeeEn">
    <nd ref="2808094458"/>
    <nd ref="2808094459"/>
    <tag k="cycleway:left" v="no"/>
    <tag k="highway" v="secondary"/>
    <tag k="lanes" v="1"/>
    <tag k="name" v="5th Avenue"/>
    <tag k="oneway" v="yes"/>
    <tag k="surface" v="asphalt"/>
  </way>
  <way id="276186658" version="7" timestamp="2023-04-20T12:08:38Z" changeset="135147164" uid="61341" user="RubenKelevra">
    <nd ref="2808094569"/>
    <nd ref="9995649794"/>
    <nd ref="10040851267"/>
    <nd ref="5540875208"/>
    <nd ref="4341585190"/>
    <tag k="highway" v="secondary"/>
    <tag k="name" v="4th Avenue"/>
    <tag k="oneway" v="no"/>
    <tag k="sidewalk:both" v="separate"/>
  </way>
  <way id="278160402" version="11" timestamp="2023-05-11T10:26:40Z" changeset="135970873" uid="13095167" user="atsialiak_lyft">
    <nd ref="49147069"/>
    <nd ref="9995649786"/>
    <nd ref="10272243619"/>
    <nd ref="9181554199"/>
    <nd ref="2653139430"/>
    <tag k="cycleway:both" v="no"/>
    <tag k="highway" v="residential"/>
    <tag k="lanes" v="2"/>
    <tag k="lit" v="yes"/>
    <tag k="name" v="K Street"/>
    <tag k="oneway" v="yes"/>
    <tag k="sidewalk:both" v="separate"/>
    <tag k="surface" v="asphalt"/>
    <tag k="turn:lanes" v="left|left"/>
  </way>
  <way id="377300617" version="10" timestamp="2024-10-23T18:47:23Z" changeset="158267141" uid="20828150" user="VLD316">
    <nd ref="49426598"/>
    <nd ref="10273746010"/>
    <nd ref="4341675247"/>
    <tag k="cycleway:right" v="no"/>
    <tag k="highway" v="secondary"/>
    <tag k="lanes" v="3"/>
    <tag k="maxspeed" v="25 mph"/>
    <tag k="name" v="F Street"/>
    <tag k="oneway" v="yes"/>
    <tag k="parking:lane:left" v="parallel"/>
    <tag k="sidewalk:both" v="separate"/>
    <tag k="source:maxspeed" v="sign"/>
    <tag k="surface" v="asphalt"/>
    <tag k="tiger:cfcc" v="A41"/>
    <tag k="tiger:county" v="San Diego, CA"/>
    <tag k="tiger:name_base" v="F"/>
    <tag k="tiger:name_type" v="St"/>
  </way>
  <way id="377300629" version="10" timestamp="2024-12-27T14:40:11Z" changeset="160679321" uid="340741" user="CRCulver">
    <nd ref="3806729365"/>
    <nd ref="7257106823"/>
    <nd ref="49344770"/>
    <tag k="highway" v="secondary"/>
    <tag k="lanes" v="3"/>
    <tag k="maxspeed" v="25 mph"/>
    <tag k="name" v="F Street"/>
    <tag k="oneway" v="yes"/>
    <tag k="parking:lane:both" v="parallel"/>
    <tag k="sidewalk:both" v="separate"/>
    <tag k="source:maxspeed" v="sign"/>
    <tag k="surface" v="asphalt"/>
    <tag k="tiger:cfcc" v="A41"/>
    <tag k="tiger:county" v="San Diego, CA"/>
    <tag k="tiger:name_base" v="F"/>
    <tag k="tiger:name_type" v="St"/>
    <tag k="turn:lanes" v="left|left;through|through"/>
  </way>
  <way id="377302726" version="11" timestamp="2024-10-23T18:47:23Z" changeset="158267141" uid="20828150" user="VLD316">
    <nd ref="3806746485"/>
    <nd ref="4341675248"/>
    <tag k="cycleway:right" v="no"/>
    <tag k="highway" v="secondary"/>
    <tag k="lanes" v="3"/>
    <tag k="lit" v="yes"/>
    <tag k="maxspeed" v="25 mph"/>
    <tag k="name" v="F Street"/>
    <tag k="oneway" v="yes"/>
    <tag k="parking:lane:both" v="parallel"/>
    <tag k="sidewalk" v="both"/>
    <tag k="sidewalk:both" v="separate"/>
    <tag k="source:maxspeed" v="sign"/>
    <tag k="surface" v="asphalt"/>
    <tag k="tiger:cfcc" v="A41"/>
    <tag k="tiger:county" v="San Diego, CA"/>
    <tag k="tiger:name_base" v="F"/>
    <tag k="tiger:name_type" v="St"/>
  </way>
  <way id="377302727" version="12" timestamp="2024-10-23T18:47:23Z" changeset="158267141" uid="20828150" user="VLD316">
    <nd ref="4341675248"/>
    <nd ref="3806746486"/>
    <nd ref="5651548479"/>
    <nd ref="49426598"/>
    <tag k="cycleway:right" v="no"/>
    <tag k="highway" v="secondary"/>
    <tag k="lanes" v="4"/>
    <tag k="lit" v="yes"/>
    <tag k="maxspeed" v="25 mph"/>
    <tag k="name" v="F Street"/>
    <tag k="oneway" v="yes"/>
    <tag k="parking:lane:both" v="parallel"/>
    <tag k="sidewalk" v="both"/>
    <tag k="sidewalk:both" v="separate"/>
    <tag k="source:maxspeed" v="sign"/>
    <tag k="surface" v="asphalt"/>
    <tag k="tiger:cfcc" v="A41"/>
    <tag k="tiger:county" v="San Diego, CA"/>
    <tag k="tiger:name_base" v="F"/>
    <tag k="tiger:name_type" v="St"/>
    <tag k="turn:lanes" v="||through;right|right"/>
  </way>
  <way id="377358714" version="4" timestamp="2024-03-22T02:37:09Z" changeset="148992443" uid="1962542" user="whammo">
    <nd ref="3807327097"/>
    <nd ref="3807327098"/>
    <nd ref="3807327099"/>
    <nd ref="3807327100"/>
    <nd ref="3807327101"/>
    <nd ref="3807327102"/>
    <nd ref="3807327103"/>
    <nd ref="3807327104"/>
    <nd ref="3807327105"/>
    <nd ref="3807327106"/>
    <nd ref="3807327107"/>
    <nd ref="3807327108"/>
    <nd ref="3807327109"/>
    <nd ref="3807327110"/>
    <nd ref="3807327112"/>
    <nd ref="3807327111"/>
    <nd ref="3807327097"/>
    <tag k="addr:city" v="San Diego"/>
    <tag k="addr:housenumber" v="356"/>
    <tag k="addr:postcode" v="92101"/>
    <tag k="addr:state" v="CA"/>
    <tag k="addr:street" v="6th Avenue"/>
    <tag k="branch" v="San Diego Downtown/Gaslamp Quarter"/>
    <tag k="brand" v="Residence Inn"/>
    <tag k="brand:wikidata" v="Q7315394"/>
    <tag k="building" v="yes"/>
    <tag k="name" v="Residence Inn San Diego Downtown/Gaslamp Quarter"/>
    <tag k="official_name" v="Residence Inn by Marriott"/>
    <tag k="phone" v="+1 619-487-1200"/>
    <tag k="ref" v="SANRG"/>
    <tag k="tourism" v="hotel"/>
    <tag k="website" v="https://www.marriott.com/sanrg"/>
  </way>
  <way id="436285023" version="4" timestamp="2023-04-20T12:08:41Z" changeset="135147164" uid="61341" user="RubenKelevra">
    <nd ref="4341585192"/>
    <nd ref="10040851265"/>
    <nd ref="2808094569"/>
    <tag k="highway" v="secondary"/>
    <tag k="lanes" v="3"/>
    <tag k="name" v="4th Avenue"/>
    <tag k="oneway" v="yes"/>
    <tag k="sidewalk:both" v="separate"/>
    <tag k="tiger:cfcc" v="A41"/>
    <tag k="tiger:county" v="San Diego, CA"/>
    <tag k="tiger:name_base" v="4th"/>
    <tag k="tiger:name_type" v="Ave"/>
    <tag k="turn:lanes" v="left||"/>
  </way>
  <way id="436285024" version="5" timestamp="2023-04-20T12:50:36Z" changeset="135147164" uid="61341" user="RubenKelevra">
    <nd ref="4341585214"/>
    <nd ref="10178056764"/>
    <nd ref="10178056754"/>
    <nd ref="5837177067"/>
    <nd ref="49344768"/>
    <tag k="highway" v="secondary"/>
    <tag k="lanes" v="4"/>
    <tag k="name" v="4th Avenue"/>
    <tag k="oneway" v="yes"/>
    <tag k="sidewalk:both" v="separate"/>
    <tag k="surface" v="asphalt"/>
    <tag k="tiger:cfcc" v="A41"/>
    <tag k="tiger:county" v="San Diego, CA"/>
    <tag k="tiger:name_base" v="4th"/>
    <tag k="tiger:name_type" v="Ave"/>
    <tag k="turn:lanes" v="left|through|through;right|right"/>
  </way>
  <way id="436285026" version="4" timestamp="2025-03-19T19:42:25Z" changeset="163833619" uid="21618251" user="Emiliz">
    <nd ref="4341585218"/>
    <nd ref="10278531142"/>
    <nd ref="49282606"/>
    <tag k="highway" v="secondary"/>
    <tag k="lanes" v="4"/>
    <tag k="mapillary" v="1698109801089043"/>
    <tag k="name" v="4th Avenue"/>
    <tag k="oneway" v="yes"/>
    <tag k="sidewalk" v="both"/>
    <tag k="survey:date" v="2024-12-17"/>
    <tag k="tiger:cfcc" v="A41"/>
    <tag k="tiger:county" v="San Diego, CA"/>
    <tag k="tiger:name_base" v="4th"/>
    <tag k="tiger:name_type" v="Ave"/>
    <tag k="turn:lanes" v="left|left;through||"/>
  </way>
  <way id="436285027" version="6" timestamp="2023-04-20T12:50:34Z" changeset="135147164" uid="61341" user="RubenKelevra">
    <nd ref="49282606"/>
    <nd ref="10278531141"/>
    <nd ref="5543395652"/>
    <nd ref="5543395653"/>
    <nd ref="4341585214"/>
    <tag k="highway" v="secondary"/>
    <tag k="lanes" v="3"/>
    <tag k="name" v="4th Avenue"/>
    <tag k="oneway" v="yes"/>
    <tag k="sidewalk:both" v="separate"/>
    <tag k="tiger:cfcc" v="A41"/>
    <tag k="tiger:county" v="San Diego, CA"/>
    <tag k="tiger:name_base" v="4th"/>
    <tag k="tiger:name_type" v="Ave"/>
  </way>
  <way id="436285028" version="7" timestamp="2023-04-20T12:08:48Z" changeset="135147164" uid="61341" user="RubenKelevra">
    <nd ref="49344768"/>
    <nd ref="10178056758"/>
    <nd ref="10278531151"/>
    <nd ref="3804292657"/>
    <nd ref="10278531150"/>
    <nd ref="4901275354"/>
    <nd ref="9565611404"/>
    <tag k="highway" v="secondary"/>
    <tag k="lanes" v="2"/>
    <tag k="name" v="4th Avenue"/>
    <tag k="oneway" v="yes"/>
    <tag k="sidewalk:both" v="separate"/>
    <tag k="surface" v="asphalt"/>
    <tag k="tiger:cfcc" v="A41"/>
    <tag k="tiger:county" v="San Diego, CA"/>
    <tag k="tiger:name_base" v="4th"/>
    <tag k="tiger:name_type" v="Ave"/>
  </way>
  <way id="436285038" version="4" timestamp="2024-12-25T04:54:00Z" changeset="160592860" uid="22137982" user="TeeEn">
    <nd ref="2808094456"/>
    <nd ref="2808094465"/>
    <nd ref="2808094457"/>
    <nd ref="2808094458"/>
    <tag k="cycleway:left" v="no"/>
    <tag k="highway" v="secondary"/>
    <tag k="lanes" v="2"/>
    <tag k="name" v="5th Avenue"/>
    <tag k="oneway" v="yes"/>
    <tag k="sidewalk:left" v="no"/>
    <tag k="sidewalk:right" v="separate"/>
    <tag k="turn:lanes" v="left|"/>
  </way>
  <way id="436285039" version="4" timestamp="2024-12-25T04:54:02Z" changeset="160592860" uid="22137982" user="TeeEn">
    <nd ref="49426590"/>
    <nd ref="2808094453"/>
    <nd ref="2808094454"/>
    <nd ref="2808094455"/>
    <nd ref="2808094456"/>
    <tag k="cycleway:left" v="no"/>
    <tag k="highway" v="secondary"/>
    <tag k="name" v="5th Avenue"/>
    <tag k="oneway" v="yes"/>
    <tag k="sidewalk:left" v="no"/>
    <tag k="sidewalk:right" v="separate"/>
    <tag k="surface" v="asphalt"/>
  </way>
  <way id="436285046" version="8" timestamp="2023-04-20T12:08:56Z" changeset="135147164" uid="61341" user="RubenKelevra">
    <nd ref="49344768"/>
    <nd ref="10178056756"/>
    <nd ref="10178056762"/>
    <nd ref="4341585204"/>
    <tag k="highway" v="secondary"/>
    <tag k="lanes" v="5"/>
    <tag k="lanes:backward" v="3"/>
    <tag k="lanes:forward" v="2"/>
    <tag k="name" v="Market Street"/>
    <tag k="old_ref" v="US 80;US 395 (old US 101)"/>
    <tag k="sidewalk:both" v="separate"/>
    <tag k="surface" v="asphalt"/>
    <tag k="tiger:cfcc" v="A41"/>
    <tag k="tiger:county" v="San Diego, CA"/>
    <tag k="tiger:name_base" v="Market"/>
    <tag k="tiger:name_type" v="St"/>
    <tag k="turn:lanes:backward" v="left||"/>
  </way>
  <way id="436285047" version="8" timestamp="2023-04-20T12:09:01Z" changeset="135147164" uid="61341" user="RubenKelevra">
    <nd ref="4341585205"/>
    <nd ref="10178056775"/>
    <nd ref="10178056771"/>
    <nd ref="49426597"/>
    <tag k="highway" v="secondary"/>
    <tag k="lanes" v="5"/>
    <tag k="lanes:backward" v="2"/>
    <tag k="lanes:forward" v="3"/>
    <tag k="name" v="Market Street"/>
    <tag k="old_ref" v="US 80;US 395 (old US 101)"/>
    <tag k="sidewalk:both" v="separate"/>
    <tag k="surface" v="asphalt"/>
    <tag k="tiger:cfcc" v="A41"/>
    <tag k="tiger:county" v="San Diego, CA"/>
    <tag k="tiger:name_base" v="Market"/>
    <tag k="tiger:name_type" v="St"/>
    <tag k="turn:lanes:forward" v="left||"/>
  </way>
  <way id="436285049" version="11" timestamp="2023-04-20T06:03:25Z" changeset="135131071" uid="61341" user="RubenKelevra">
    <nd ref="49705992"/>
    <nd ref="9995649755"/>
    <nd ref="10178056782"/>
    <nd ref="10178056777"/>
    <nd ref="4341585206"/>
    <tag k="cycleway:both" v="no"/>
    <tag k="highway" v="secondary"/>
    <tag k="lanes" v="5"/>
    <tag k="lanes:backward" v="3"/>
    <tag k="lanes:forward" v="2"/>
    <tag k="name" v="Market Street"/>
    <tag k="old_ref" v="US 80;US 395 (old US 101)"/>
    <tag k="sidewalk:both" v="separate"/>
    <tag k="surface" v="asphalt"/>
    <tag k="turn:lanes:backward" v="left||"/>
  </way>
  <way id="436285054" version="8" timestamp="2023-04-20T12:08:58Z" changeset="135147164" uid="61341" user="RubenKelevra">
    <nd ref="4341585204"/>
    <nd ref="4341585205"/>
    <tag k="highway" v="secondary"/>
    <tag k="name" v="Market Street"/>
    <tag k="old_ref" v="US 80;US 395 (old US 101)"/>
    <tag k="sidewalk:both" v="separate"/>
    <tag k="surface" v="asphalt"/>
    <tag k="tiger:cfcc" v="A41"/>
    <tag k="tiger:county" v="San Diego, CA"/>
    <tag k="tiger:name_base" v="Market"/>
    <tag k="tiger:name_type" v="St"/>
  </way>
  <way id="436285055" version="9" timestamp="2023-04-20T12:50:05Z" changeset="135147164" uid="61341" user="RubenKelevra">
    <nd ref="4341585203"/>
    <nd ref="10178056763"/>
    <nd ref="10178056760"/>
    <nd ref="49344768"/>
    <tag k="highway" v="secondary"/>
    <tag k="name" v="Market Street"/>
    <tag k="old_ref" v="US 80;US 395 (old US 101)"/>
    <tag k="sidewalk:both" v="separate"/>
    <tag k="surface" v="asphalt"/>
    <tag k="tiger:cfcc" v="A41"/>
    <tag k="tiger:county" v="San Diego, CA"/>
    <tag k="tiger:name_base" v="Market"/>
    <tag k="tiger:name_type" v="St"/>
  </way>
  <way id="436285058" version="10" timestamp="2023-04-20T06:03:29Z" changeset="135131071" uid="61341" user="RubenKelevra">
    <nd ref="49426597"/>
    <nd ref="10178056767"/>
    <nd ref="10178056774"/>
    <nd ref="10178056778"/>
    <nd ref="10178056786"/>
    <nd ref="49705992"/>
    <tag k="cycleway:both" v="no"/>
    <tag k="highway" v="secondary"/>
    <tag k="lanes" v="4"/>
    <tag k="name" v="Market Street"/>
    <tag k="old_ref" v="US 80;US 395 (old US 101)"/>
    <tag k="sidewalk:both" v="separate"/>
    <tag k="surface" v="asphalt"/>
    <tag k="tiger:cfcc" v="A41"/>
    <tag k="tiger:county" v="San Diego, CA"/>
    <tag k="tiger:name_base" v="Market"/>
    <tag k="tiger:name_type" v="St"/>
  </way>
  <way id="436291017" version="5" timestamp="2025-03-19T19:41:50Z" changeset="163833619" uid="21618251" user="Emiliz">
    <nd ref="12286151872"/>
    <nd ref="4341585218"/>
    <tag k="highway" v="secondary"/>
    <tag k="lanes" v="3"/>
    <tag k="mapillary" v="1153236072544617"/>
    <tag k="name" v="4th Avenue"/>
    <tag k="oneway" v="yes"/>
    <tag k="sidewalk" v="both"/>
    <tag k="survey:date" v="2024-12-17"/>
    <tag k="tiger:cfcc" v="A41"/>
    <tag k="tiger:county" v="San Diego, CA"/>
    <tag k="tiger:name_base" v="4th"/>
    <tag k="tiger:name_type" v="Ave"/>
  </way>
  <way id="436291033" version="8" timestamp="2024-10-24T19:50:45Z" changeset="158311513" uid="20828150" user="VLD316">
    <nd ref="4341675263"/>
    <nd ref="10247405091"/>
    <nd ref="49099162"/>
    <tag k="cycleway:both" v="no"/>
    <tag k="highway" v="secondary"/>
    <tag k="lanes" v="5"/>
    <tag k="lanes:backward" v="2"/>
    <tag k="lanes:forward" v="3"/>
    <tag k="name" v="Broadway"/>
    <tag k="sidewalk:both" v="separate"/>
    <tag k="sidewalk:left:surface" v="paving_stones"/>
    <tag k="surface" v="paving_stones"/>
    <tag k="tiger:cfcc" v="A41"/>
    <tag k="tiger:county" v="San Diego, CA"/>
    <tag k="tiger:name_base" v="Broadway"/>
    <tag k="turn:lanes:forward" v="||right"/>
  </way>
  <way id="436291047" version="7" timestamp="2024-12-27T14:40:11Z" changeset="160679321" uid="340741" user="CRCulver">
    <nd ref="4341675247"/>
    <nd ref="3806729365"/>
    <tag k="highway" v="secondary"/>
    <tag k="lanes" v="3"/>
    <tag k="maxspeed" v="25 mph"/>
    <tag k="name" v="F Street"/>
    <tag k="oneway" v="yes"/>
    <tag k="parking:lane:left" v="parallel"/>
    <tag k="sidewalk:both" v="separate"/>
    <tag k="source:maxspeed" v="sign"/>
    <tag k="surface" v="asphalt"/>
    <tag k="tiger:cfcc" v="A41"/>
    <tag k="tiger:county" v="San Diego, CA"/>
    <tag k="tiger:name_base" v="F"/>
    <tag k="tiger:name_type" v="St"/>
    <tag k="turn:lanes" v="left|left;through|through;right"/>
  </way>
  <way id="436592703" version="4" timestamp="2024-10-24T20:34:23Z" changeset="158312892" uid="20828150" user="VLD316">
    <nd ref="4344762328"/>
    <nd ref="5651548721"/>
    <nd ref="49344770"/>
    <tag k="highway" v="secondary"/>
    <tag k="lanes" v="4"/>
    <tag k="name" v="4th Avenue"/>
    <tag k="oneway" v="yes"/>
    <tag k="sidewalk:both" v="separate"/>
    <tag k="tiger:cfcc" v="A41"/>
    <tag k="tiger:county" v="San Diego, CA"/>
    <tag k="tiger:name_base" v="4th"/>
    <tag k="tiger:name_type" v="Ave"/>
    <tag k="turn:lanes" v="|||right"/>
  </way>
  <way id="498480885" version="3" timestamp="2023-07-21T20:19:43Z" changeset="138829906" uid="11022773" user="GeoFens">
    <nd ref="4898892598"/>
    <nd ref="365437953"/>
    <nd ref="356216682"/>
    <nd ref="8677737919"/>
    <nd ref="4898892598"/>
    <tag k="brand" v="Berkshire Hathaway HomeServices"/>
    <tag k="brand:wikidata" v="Q5887960"/>
    <tag k="building" v="yes"/>
    <tag k="building_type" v="commercial"/>
    <tag k="name" v="Berkshire Hathaway HomeServices"/>
    <tag k="office" v="estate_agent"/>
    <tag k="sangis:OBJECTID" v="14741"/>
    <tag k="sangis:TYPE" v="Commercial"/>
    <tag k="short_name" v="Berkshire Hathaway"/>
    <tag k="source" v="SanGIS Footprints_Nonresidential_SD public domain (http://www.sangis.org/)"/>
  </way>
  <way id="498782087" version="3" timestamp="2022-04-23T20:26:15Z" changeset="120104148" uid="115918" user="Timothy Smith">
    <nd ref="4901275385"/>
    <nd ref="4901279102"/>
    <nd ref="4901275391"/>
    <nd ref="4901275393"/>
    <nd ref="4901275369"/>
    <nd ref="4901275405"/>
    <nd ref="4901275370"/>
    <nd ref="4901279035"/>
    <nd ref="4901279030"/>
    <nd ref="4901279027"/>
    <nd ref="4901275396"/>
    <nd ref="4901275350"/>
    <nd ref="4901275380"/>
    <nd ref="3666668571"/>
    <nd ref="3666668572"/>
    <nd ref="4901279077"/>
    <nd ref="4901279079"/>
    <nd ref="4901279072"/>
    <nd ref="356095623"/>
    <nd ref="356124489"/>
    <nd ref="4901279074"/>
    <nd ref="4901279100"/>
    <nd ref="4901275385"/>
    <tag k="brand" v="Hard Rock Hotel"/>
    <tag k="brand:wikidata" v="Q109275902"/>
    <tag k="building" v="hotel"/>
    <tag k="building:levels" v="7"/>
    <tag k="name" v="Hard Rock Hotel San Diego"/>
    <tag k="official_name" v="Hard Rock Hotels &amp; Resorts"/>
    <tag k="tourism" v="hotel"/>
  </way>
  <way id="593769147" version="7" timestamp="2024-10-24T20:34:23Z" changeset="158312892" uid="20828150" user="VLD316">
    <nd ref="49099162"/>
    <nd ref="10247405084"/>
    <nd ref="283253598"/>
    <nd ref="283253578"/>
    <nd ref="10247405092"/>
    <nd ref="49344772"/>
    <tag k="cycleway:right" v="no"/>
    <tag k="highway" v="secondary"/>
    <tag k="lanes" v="3"/>
    <tag k="name" v="4th Avenue"/>
    <tag k="oneway" v="yes"/>
    <tag k="sidewalk:both" v="separate"/>
    <tag k="surface" v="paving_stones"/>
    <tag k="tiger:cfcc" v="A41"/>
    <tag k="tiger:county" v="San Diego, CA"/>
    <tag k="tiger:name_base" v="4th"/>
    <tag k="tiger:name_type" v="Ave"/>
  </way>
  <way id="594025573" version="10" timestamp="2024-10-22T16:18:38Z" changeset="158219384" uid="20828150" user="VLD316">
    <nd ref="49099164"/>
    <nd ref="11309725145"/>
    <nd ref="11309725120"/>
    <nd ref="49099166"/>
    <tag k="cycleway:both" v="no"/>
    <tag k="highway" v="secondary"/>
    <tag k="lanes" v="4"/>
    <tag k="name" v="Broadway"/>
    <tag k="sidewalk:left" v="separate"/>
    <tag k="sidewalk:right" v="yes"/>
    <tag k="surface" v="asphalt"/>
  </way>
  <way id="594025576" version="15" timestamp="2024-10-23T18:20:24Z" changeset="158266251" uid="20828150" user="VLD316">
    <nd ref="49099164"/>
    <nd ref="11309725144"/>
    <nd ref="5543430050"/>
    <nd ref="12282396948"/>
    <nd ref="49414978"/>
    <nd ref="12282396946"/>
    <nd ref="3843174834"/>
    <nd ref="3843174827"/>
    <nd ref="5543395639"/>
    <nd ref="10717988852"/>
    <nd ref="49746189"/>
    <nd ref="10717988851"/>
    <nd ref="49282608"/>
    <nd ref="2526075981"/>
    <nd ref="10178056776"/>
    <nd ref="10178056784"/>
    <nd ref="5837177077"/>
    <nd ref="49705992"/>
    <nd ref="10178056780"/>
    <nd ref="49671024"/>
    <nd ref="10040851275"/>
    <nd ref="49623171"/>
    <nd ref="9995649792"/>
    <nd ref="10040851274"/>
    <nd ref="10272193208"/>
    <nd ref="49147069"/>
    <nd ref="10272193203"/>
    <nd ref="10665365838"/>
    <nd ref="49504758"/>
    <tag k="cycleway:left" v="track"/>
    <tag k="highway" v="residential"/>
    <tag k="lanes" v="3"/>
    <tag k="name" v="6th Avenue"/>
    <tag k="oneway" v="yes"/>
    <tag k="oneway:bicycle" v="no"/>
    <tag k="sidewalk:both" v="separate"/>
    <tag k="surface" v="asphalt"/>
  </way>
  <way id="634217523" version="9" timestamp="2024-10-22T16:10:07Z" changeset="158219016" uid="20828150" user="VLD316">
    <nd ref="49099163"/>
    <nd ref="10273746025"/>
    <nd ref="49426601"/>
    <nd ref="5825961088"/>
    <tag k="cycleway:right" v="no"/>
    <tag k="highway" v="secondary"/>
    <tag k="lanes" v="3"/>
    <tag k="name" v="5th Avenue"/>
    <tag k="oneway" v="yes"/>
    <tag k="parking:lane:both" v="parallel"/>
    <tag k="sidewalk:both" v="separate"/>
    <tag k="sidewalk:left:surface" v="paving_stones"/>
    <tag k="surface" v="asphalt"/>
    <tag k="tiger:cfcc" v="A41"/>
    <tag k="tiger:county" v="San Diego, CA"/>
    <tag k="tiger:name_base" v="5th"/>
    <tag k="tiger:name_type" v="Ave"/>
    <tag k="turn:lanes" v="through|through|through"/>
  </way>
  <way id="634217524" version="7" timestamp="2024-10-22T16:18:38Z" changeset="158219384" uid="20828150" user="VLD316">
    <nd ref="49099163"/>
    <nd ref="10273746024"/>
    <nd ref="11309725143"/>
    <nd ref="49099164"/>
    <tag k="cycleway:left" v="separate"/>
    <tag k="highway" v="secondary"/>
    <tag k="lanes" v="4"/>
    <tag k="name" v="Broadway"/>
    <tag k="sidewalk:right" v="yes"/>
    <tag k="surface" v="asphalt"/>
    <tag k="tiger:cfcc" v="A41"/>
    <tag k="tiger:county" v="San Diego, CA"/>
    <tag k="tiger:name_base" v="Broadway"/>
  </way>
  <way id="642285116" version="8" timestamp="2022-12-21T17:42:44Z" changeset="130343189" uid="2087961" user="JasonBob">
    <nd ref="3804292657"/>
    <nd ref="10278531149"/>
    <nd ref="10273740700"/>
    <nd ref="49426595"/>
    <nd ref="10273740697"/>
    <nd ref="5540875206"/>
    <nd ref="49671024"/>
    <nd ref="9995649753"/>
    <nd ref="10040858282"/>
    <nd ref="49295386"/>
    <nd ref="10040858280"/>
    <nd ref="49671025"/>
    <nd ref="49313705"/>
    <nd ref="10178026809"/>
    <nd ref="10178026815"/>
    <nd ref="49636912"/>
    <nd ref="10178026813"/>
    <nd ref="10178026810"/>
    <nd ref="10178026808"/>
    <nd ref="49165421"/>
    <nd ref="10178026806"/>
    <nd ref="9485136067"/>
    <nd ref="49521835"/>
    <tag k="cycleway" v="shared_lane"/>
    <tag k="highway" v="residential"/>
    <tag k="lanes" v="2"/>
    <tag k="name" v="Island Avenue"/>
    <tag k="sidewalk" v="both"/>
    <tag k="surface" v="asphalt"/>
  </way>
  <way id="642337324" version="5" timestamp="2025-03-04T18:27:29Z" changeset="163213770" uid="5774181" user="TMMM">
    <nd ref="49344772"/>
    <nd ref="2050449721"/>
    <nd ref="10247405094"/>
    <nd ref="4344762328"/>
    <tag k="highway" v="secondary"/>
    <tag k="lanes" v="3"/>
    <tag k="name" v="4th Avenue"/>
    <tag k="oneway" v="yes"/>
    <tag k="sidewalk:both" v="separate"/>
    <tag k="surface" v="asphalt"/>
    <tag k="tiger:cfcc" v="A41"/>
    <tag k="tiger:county" v="San Diego, CA"/>
    <tag k="tiger:name_base" v="4th"/>
    <tag k="tiger:name_type" v="Ave"/>
  </way>
  <way id="642337326" version="8" timestamp="2024-12-27T14:40:11Z" changeset="160679321" uid="340741" user="CRCulver">
    <nd ref="49344772"/>
    <nd ref="10247405093"/>
    <nd ref="10273746019"/>
    <nd ref="49414976"/>
    <tag k="highway" v="tertiary"/>
    <tag k="lanes" v="3"/>
    <tag k="name" v="E Street"/>
    <tag k="oneway" v="yes"/>
    <tag k="sidewalk:both" v="separate"/>
    <tag k="surface" v="asphalt"/>
    <tag k="tiger:cfcc" v="A41"/>
    <tag k="tiger:county" v="San Diego, CA"/>
    <tag k="tiger:name_base" v="E"/>
    <tag k="tiger:name_type" v="St"/>
  </way>
  <way id="935154226" version="2" timestamp="2021-11-01T01:01:16Z" changeset="113213001" uid="12420519" user="plumb bob">
    <nd ref="356533798"/>
    <nd ref="356101697"/>
    <nd ref="8665950095"/>
    <nd ref="356082933"/>
    <nd ref="8665950094"/>
    <nd ref="356116505"/>
    <nd ref="356113312"/>
    <nd ref="356109600"/>
    <nd ref="356091793"/>
    <nd ref="356530807"/>
    <nd ref="8665950096"/>
    <nd ref="356533798"/>
    <tag k="addr:city" v="San Diego"/>
    <tag k="addr:housenumber" v="550"/>
    <tag k="addr:postcode" v="92101"/>
    <tag k="addr:state" v="CA"/>
    <tag k="addr:street" v="J Street"/>
    <tag k="building" v="hotel"/>
    <tag k="name" v="Pendry"/>
    <tag k="tourism" v="hotel"/>
    <tag k="website" v="https://www.pendry.com/san-diego/"/>
  </way>
  <way id="949825896" version="3" timestamp="2024-12-25T04:53:48Z" changeset="160592860" uid="22137982" user="TeeEn">
    <nd ref="49426586"/>
    <nd ref="2808094452"/>
    <nd ref="49426588"/>
    <nd ref="2808094451"/>
    <nd ref="2808094449"/>
    <nd ref="2808094450"/>
    <nd ref="2808094571"/>
    <nd ref="49426590"/>
    <tag k="cycleway:left" v="no"/>
    <tag k="highway" v="secondary"/>
    <tag k="lanes" v="1"/>
    <tag k="name" v="5th Avenue"/>
    <tag k="oneway" v="yes"/>
    <tag k="sidewalk:left" v="no"/>
    <tag k="sidewalk:right" v="separate"/>
    <tag k="surface" v="asphalt"/>
    <tag k="tiger:cfcc" v="A41"/>
    <tag k="tiger:county" v="San Diego, CA"/>
    <tag k="tiger:name_base" v="5th"/>
    <tag k="tiger:name_type" v="Ave"/>
  </way>
  <way id="949825897" version="2" timestamp="2023-04-20T12:46:17Z" changeset="135147164" uid="61341" user="RubenKelevra">
    <nd ref="49426586"/>
    <nd ref="2808094459"/>
    <tag k="highway" v="residential"/>
    <tag k="name" v="L Street"/>
    <tag k="sidewalk:left" v="no"/>
    <tag k="sidewalk:right" v="separate"/>
    <tag k="tiger:cfcc" v="A41"/>
    <tag k="tiger:county" v="San Diego, CA"/>
    <tag k="tiger:name_base" v="L"/>
    <tag k="tiger:name_type" v="St"/>
  </way>
  <way id="949825898" version="3" timestamp="2024-12-25T04:53:41Z" changeset="160592860" uid="22137982" user="TeeEn">
    <nd ref="2808094459"/>
    <nd ref="2808094460"/>
    <nd ref="2808094468"/>
    <nd ref="2808094461"/>
    <nd ref="2808094462"/>
    <nd ref="2808094463"/>
    <tag k="cycleway:left" v="no"/>
    <tag k="highway" v="secondary"/>
    <tag k="lanes" v="1"/>
    <tag k="name" v="5th Avenue"/>
    <tag k="oneway" v="yes"/>
    <tag k="sidewalk:left" v="no"/>
    <tag k="sidewalk:right" v="separate"/>
    <tag k="surface" v="asphalt"/>
  </way>
  <way id="959122790" version="1" timestamp="2021-06-29T13:08:07Z" changeset="107150441" uid="12694440" user="pabi12">
    <nd ref="596543369"/>
    <nd ref="8875036088"/>
    <nd ref="8875036089"/>
    <nd ref="8875036090"/>
    <nd ref="596543369"/>
    <tag k="addr:city" v="San Diego"/>
    <tag k="addr:country" v="US"/>
    <tag k="addr:housenumber" v="401"/>
    <tag k="addr:postcode" v="92101"/>
    <tag k="addr:state" v="CA"/>
    <tag k="addr:street" v="G Street"/>
    <tag k="amenity" v="restaurant"/>
    <tag k="building" v="yes"/>
    <tag k="layer" v="1"/>
    <tag k="name" v="Tin Roof"/>
    <tag k="source" v="SanGIS Addresses Public Domain (http://www.sangis.org/)"/>
  </way>
  <way id="1008407592" version="5" timestamp="2024-12-25T04:53:27Z" changeset="160592860" uid="22137982" user="TeeEn">
    <nd ref="2806006284"/>
    <nd ref="2803111597"/>
    <nd ref="285954572"/>
    <nd ref="49426584"/>
    <nd ref="48995943"/>
    <nd ref="49426586"/>
    <tag k="cycleway:left" v="no"/>
    <tag k="highway" v="secondary"/>
    <tag k="lanes" v="1"/>
    <tag k="name" v="5th Avenue"/>
    <tag k="oneway" v="yes"/>
    <tag k="sidewalk:left" v="no"/>
    <tag k="sidewalk:right" v="separate"/>
    <tag k="surface" v="asphalt"/>
    <tag k="tiger:cfcc" v="A41"/>
    <tag k="tiger:county" v="San Diego, CA"/>
    <tag k="tiger:name_base" v="5th"/>
    <tag k="tiger:name_type" v="Ave"/>
  </way>
  <way id="1028902009" version="6" timestamp="2024-12-27T14:40:11Z" changeset="160679321" uid="340741" user="CRCulver">
    <nd ref="49295392"/>
    <nd ref="10717988849"/>
    <nd ref="10717988850"/>
    <nd ref="9995649757"/>
    <nd ref="49746189"/>
    <nd ref="5651540679"/>
    <nd ref="3806746485"/>
    <tag k="highway" v="secondary"/>
    <tag k="lanes" v="3"/>
    <tag k="maxspeed" v="25 mph"/>
    <tag k="name" v="F Street"/>
    <tag k="oneway" v="yes"/>
    <tag k="parking:lane:both" v="parallel"/>
    <tag k="sidewalk:both" v="separate"/>
    <tag k="source:maxspeed" v="sign"/>
    <tag k="surface" v="asphalt"/>
  </way>
  <way id="1038703448" version="2" timestamp="2023-04-20T12:08:51Z" changeset="135147164" uid="61341" user="RubenKelevra">
    <nd ref="9565611404"/>
    <nd ref="4341585192"/>
    <tag k="highway" v="secondary"/>
    <tag k="lanes" v="3"/>
    <tag k="name" v="4th Avenue"/>
    <tag k="oneway" v="yes"/>
    <tag k="sidewalk:both" v="separate"/>
    <tag k="tiger:cfcc" v="A41"/>
    <tag k="tiger:county" v="San Diego, CA"/>
    <tag k="tiger:name_base" v="4th"/>
    <tag k="tiger:name_type" v="Ave"/>
  </way>
  <way id="1121918624" version="3" timestamp="2023-04-20T12:50:30Z" changeset="135147164" uid="61341" user="RubenKelevra">
    <nd ref="10261279249"/>
    <nd ref="10278531143"/>
    <nd ref="49282606"/>
    <tag k="cycleway:right" v="no"/>
    <tag k="highway" v="secondary"/>
    <tag k="lanes" v="3"/>
    <tag k="name" v="G Street"/>
    <tag k="oneway" v="yes"/>
    <tag k="sidewalk:both" v="separate"/>
    <tag k="surface" v="asphalt"/>
    <tag k="turn:lanes" v="through|through|through;right"/>
  </way>
  <way id="1121918625" version="3" timestamp="2025-03-19T19:42:56Z" changeset="163833619" uid="21618251" user="Emiliz">
    <nd ref="49282606"/>
    <nd ref="10278531140"/>
    <nd ref="10261279250"/>
    <tag k="cycleway:right" v="no"/>
    <tag k="highway" v="secondary"/>
    <tag k="lanes" v="3"/>
    <tag k="mapillary" v="938897991754092"/>
    <tag k="name" v="G Street"/>
    <tag k="oneway" v="yes"/>
    <tag k="sidewalk" v="both"/>
    <tag k="surface" v="asphalt"/>
    <tag k="survey:date" v="2024-12-17"/>
  </way>
  <way id="1121918626" version="3" timestamp="2025-03-19T19:43:14Z" changeset="163833619" uid="21618251" user="Emiliz">
    <nd ref="10261279250"/>
    <nd ref="10273740706"/>
    <nd ref="49282607"/>
    <tag k="cycleway:right" v="no"/>
    <tag k="highway" v="secondary"/>
    <tag k="lanes" v="3"/>
    <tag k="mapillary" v="1827748367981295"/>
    <tag k="name" v="G Street"/>
    <tag k="oneway" v="yes"/>
    <tag k="sidewalk" v="both"/>
    <tag k="surface" v="asphalt"/>
    <tag k="survey:date" v="2024-12-17"/>
    <tag k="turn:lanes" v="left;through|through|through"/>
  </way>
  <way id="1327277182" version="1" timestamp="2024-10-22T16:18:38Z" changeset="158219384" uid="20828150" user="VLD316">
    <nd ref="12279022693"/>
    <nd ref="11975666836"/>
    <nd ref="10016855135"/>
    <nd ref="49337544"/>
    <nd ref="10016855134"/>
    <nd ref="9995649763"/>
    <nd ref="7320401607"/>
    <nd ref="10016809785"/>
    <nd ref="5510257106"/>
    <nd ref="1111263622"/>
    <nd ref="1111263963"/>
    <nd ref="5825961089"/>
    <nd ref="49767208"/>
    <nd ref="11309725146"/>
    <nd ref="49099164"/>
    <tag k="cycleway:left" v="track"/>
    <tag k="highway" v="residential"/>
    <tag k="lanes" v="3"/>
    <tag k="name" v="6th Avenue"/>
    <tag k="oneway" v="yes"/>
    <tag k="oneway:bicycle" v="no"/>
    <tag k="sidewalk:both" v="separate"/>
    <tag k="smoothness" v="intermediate"/>
    <tag k="surface" v="asphalt"/>
  </way>
  <way id="1327598578" version="2" timestamp="2024-12-27T14:40:11Z" changeset="160679321" uid="340741" user="CRCulver">
    <nd ref="49414976"/>
    <nd ref="10273746017"/>
    <nd ref="3843174823"/>
    <nd ref="5543430043"/>
    <nd ref="12282396945"/>
    <nd ref="11144112585"/>
    <nd ref="49414978"/>
    <nd ref="9995649758"/>
    <nd ref="12282396943"/>
    <nd ref="5543395643"/>
    <nd ref="12282398577"/>
    <nd ref="49295395"/>
    <nd ref="12282398581"/>
    <nd ref="12282451415"/>
    <tag k="highway" v="tertiary"/>
    <tag k="lanes" v="3"/>
    <tag k="name" v="E Street"/>
    <tag k="oneway" v="yes"/>
    <tag k="sidewalk:both" v="separate"/>
    <tag k="surface" v="asphalt"/>
  </way>
  <way id="1327953098" version="1" timestamp="2024-10-24T20:34:23Z" changeset="158312892" uid="20828150" user="VLD316">
    <nd ref="49344770"/>
    <nd ref="12286151872"/>
    <tag k="highway" v="secondary"/>
    <tag k="lanes" v="3"/>
    <tag k="name" v="4th Avenue"/>
    <tag k="oneway" v="yes"/>
    <tag k="sidewalk:both" v="separate"/>
    <tag k="tiger:cfcc" v="A41"/>
    <tag k="tiger:county" v="San Diego, CA"/>
    <tag k="tiger:name_base" v="4th"/>
    <tag k="tiger:name_type" v="Ave"/>
  </way>
  <relation id="7316912" version="3" timestamp="2018-09-30T17:52:59Z" changeset="63071254" uid="8891646" user="tracyusa">
    <member type="way" ref="32502366" role="outer"/>
    <member type="way" ref="629259175" role="outer"/>
    <member type="way" ref="498782089" role="inner"/>
    <tag k="addr:city" v="San Diego"/>
    <tag k="addr:housenumber" v="450"/>
    <tag k="addr:postcode" v="92101"/>
    <tag k="addr:state" v="CA"/>
    <tag k="addr:street" v="J Street"/>
    <tag k="building" v="residential"/>
    <tag k="building:levels" v="7"/>
    <tag k="name" v="Gaslamp City Square"/>
    <tag k="type" v="multipolygon"/>
  </relation>

</osm>
