<?xml version="1.0" encoding="UTF-8"?>
<osm version="0.6" generator="Overpass API 0.7.62.5 1bd436f1">
<note>The data included in this document is from www.openstreetmap.org. The data is made available under ODbL.</note>
<meta osm_base="2025-04-27T07:35:19Z" areas="2024-12-31T00:49:33Z"/>

  <node id="13336681" lat="52.3065376" lon="0.4228224" version="2" timestamp="2022-01-18T02:52:46Z" changeset="116278091" uid="7463" user="kesterlester"/>
  <node id="13336703" lat="52.2812262" lon="0.3934465" version="2" timestamp="2010-12-30T20:23:01Z" changeset="6813665" uid="4951" user="PeterEastern"/>
  <node id="24341700" lat="52.3187522" lon="0.3646084" version="5" timestamp="2009-08-15T17:06:06Z" changeset="2155575" uid="3582" user="davidearl"/>
  <node id="24341738" lat="52.2870738" lon="0.4004307" version="5" timestamp="2012-11-10T15:30:49Z" changeset="13819416" uid="6871" user="smsm1"/>
  <node id="263364287" lat="52.3258885" lon="0.4037744" version="1" timestamp="2008-05-10T18:17:21Z" changeset="386379" uid="36701" user="Malcolm Boura">
    <tag k="created_by" v="JOSM"/>
  </node>
  <node id="279525739" lat="52.3006530" lon="0.3581054" version="26" timestamp="2024-03-07T17:29:06Z" changeset="148353231" uid="10420541" user="Thingummy"/>
  <node id="467767061" lat="52.3120811" lon="0.4115936" version="2" timestamp="2013-05-09T15:54:02Z" changeset="16050026" uid="281267" user="smb1001"/>
  <node id="467767700" lat="52.2899820" lon="0.3859500" version="2" timestamp="2019-10-25T13:07:10Z" changeset="76208310" uid="9196089" user="hemasvn"/>
  <node id="11784586583" lat="52.3130131" lon="0.3697151" version="1" timestamp="2024-04-03T20:25:24Z" changeset="149542413" uid="5229644" user="Nathan_A_RF"/>
  <way id="4189486" version="8" timestamp="2024-06-04T17:45:49Z" changeset="152254778" uid="13341565" user="Falsernet">
    <nd ref="11796095453"/>
    <nd ref="11796095454"/>
    <nd ref="13336731"/>
    <nd ref="467767712"/>
    <nd ref="705660976"/>
    <nd ref="11784586581"/>
    <nd ref="11784586582"/>
    <nd ref="11796095451"/>
    <nd ref="467767715"/>
    <nd ref="13336734"/>
    <nd ref="705660983"/>
    <nd ref="13336735"/>
    <nd ref="11796095452"/>
    <nd ref="11796095447"/>
    <nd ref="467767718"/>
    <nd ref="13336736"/>
    <nd ref="467767720"/>
    <nd ref="13336729"/>
    <nd ref="467767722"/>
    <nd ref="13336730"/>
    <nd ref="705660974"/>
    <nd ref="11796095453"/>
    <tag k="highway" v="trunk"/>
    <tag k="junction" v="roundabout"/>
    <tag k="maxspeed" v="60 mph"/>
    <tag k="maxspeed:type" v="GB:nsl_single"/>
    <tag k="oneway" v="yes"/>
    <tag k="ref" v="A142"/>
    <tag k="surface" v="asphalt"/>
  </way>
  <way id="4189487" version="17" timestamp="2024-06-04T17:45:49Z" changeset="152254778" uid="13341565" user="Falsernet">
    <nd ref="11796095430"/>
    <nd ref="24341649"/>
    <nd ref="8084103264"/>
    <nd ref="1780252296"/>
    <nd ref="24341646"/>
    <nd ref="1780252345"/>
    <nd ref="24341643"/>
    <nd ref="24341641"/>
    <nd ref="24341638"/>
    <nd ref="24341635"/>
    <nd ref="393126573"/>
    <nd ref="24341631"/>
    <nd ref="6319475040"/>
    <nd ref="24341629"/>
    <nd ref="6319475015"/>
    <nd ref="6319474642"/>
    <nd ref="6319474987"/>
    <nd ref="6319475175"/>
    <nd ref="24341625"/>
    <nd ref="6319475024"/>
    <nd ref="24341623"/>
    <nd ref="6319475151"/>
    <nd ref="24341620"/>
    <tag k="highway" v="trunk"/>
    <tag k="lanes" v="2"/>
    <tag k="lit" v="no"/>
    <tag k="maxspeed" v="60 mph"/>
    <tag k="maxspeed:type" v="GB:nsl_single"/>
    <tag k="ref" v="A142"/>
  </way>
  <way id="4189497" version="9" timestamp="2024-06-04T17:45:49Z" changeset="152254778" uid="13341565" user="Falsernet">
    <nd ref="11796089734"/>
    <nd ref="13336709"/>
    <nd ref="13336720"/>
    <nd ref="10092099379"/>
    <nd ref="705660981"/>
    <nd ref="10092099378"/>
    <nd ref="13336714"/>
    <nd ref="10092099388"/>
    <nd ref="13336715"/>
    <nd ref="11796089767"/>
    <nd ref="11796089731"/>
    <nd ref="13336716"/>
    <nd ref="10092099385"/>
    <nd ref="13336711"/>
    <nd ref="10092099384"/>
    <nd ref="11796089732"/>
    <nd ref="11796089766"/>
    <nd ref="11796089733"/>
    <nd ref="13336710"/>
    <nd ref="10092099382"/>
    <nd ref="13336719"/>
    <nd ref="10092099381"/>
    <nd ref="11796089750"/>
    <nd ref="11796089734"/>
    <tag k="highway" v="trunk"/>
    <tag k="junction" v="roundabout"/>
    <tag k="lane_markings" v="no"/>
    <tag k="maxspeed" v="60 mph"/>
    <tag k="maxspeed:type" v="GB:nsl_single"/>
    <tag k="ref" v="A142"/>
  </way>
  <way id="4234840" version="9" timestamp="2024-04-03T20:25:24Z" changeset="149542413" uid="5229644" user="Nathan_A_RF">
    <nd ref="6319465769"/>
    <nd ref="6319475096"/>
    <nd ref="6319475164"/>
    <nd ref="467767477"/>
    <nd ref="392601766"/>
    <tag k="highway" v="secondary"/>
    <tag k="lit" v="yes"/>
    <tag k="maxspeed" v="60 mph"/>
    <tag k="maxspeed:type" v="GB:nsl_single"/>
    <tag k="name" v="Station Road"/>
    <tag k="oneway" v="yes"/>
    <tag k="ref" v="B1102"/>
  </way>
  <way id="4236307" version="9" timestamp="2024-05-17T21:26:14Z" changeset="151472442" uid="5173844" user="ndrw6">
    <nd ref="11914264675"/>
    <nd ref="11653214622"/>
    <nd ref="11653214623"/>
    <nd ref="467767423"/>
    <nd ref="467767425"/>
    <nd ref="8763912139"/>
    <nd ref="467768007"/>
    <nd ref="13357680"/>
    <nd ref="7380320930"/>
    <nd ref="6496574295"/>
    <nd ref="467768141"/>
    <nd ref="1655950751"/>
    <nd ref="467767427"/>
    <nd ref="5255509"/>
    <tag k="highway" v="secondary"/>
    <tag k="name" v="Market Street"/>
    <tag k="ref" v="B1102"/>
    <tag k="source" v="survey"/>
  </way>
  <way id="4236309" version="4" timestamp="2009-08-15T17:06:18Z" changeset="2155575" uid="3582" user="davidearl">
    <nd ref="13336739"/>
    <nd ref="467767365"/>
    <nd ref="467767250"/>
    <nd ref="467767247"/>
    <nd ref="467767246"/>
    <nd ref="467767243"/>
    <nd ref="467767241"/>
    <nd ref="25291086"/>
    <nd ref="467768043"/>
    <tag k="highway" v="unclassified"/>
    <tag k="name" v="Carter Street"/>
  </way>
  <way id="4236362" version="7" timestamp="2013-05-09T14:16:17Z" changeset="16048370" uid="281267" user="smb1001">
    <nd ref="5255509"/>
    <nd ref="2297082695"/>
    <nd ref="13357679"/>
    <nd ref="13357673"/>
    <nd ref="467767429"/>
    <nd ref="5255512"/>
    <tag k="highway" v="tertiary"/>
    <tag k="maxspeed" v="30 mph"/>
    <tag k="name" v="Market Street"/>
    <tag k="source" v="survey"/>
  </way>
  <way id="4236363" version="8" timestamp="2019-05-24T01:48:50Z" changeset="70570039" uid="9196095" user="mhdrahm">
    <nd ref="5255512"/>
    <nd ref="467767431"/>
    <nd ref="467767433"/>
    <nd ref="13357743"/>
    <nd ref="5255513"/>
    <nd ref="467767435"/>
    <nd ref="467767437"/>
    <nd ref="6496574301"/>
    <nd ref="13357744"/>
    <nd ref="2297219635"/>
    <nd ref="13357745"/>
    <tag k="highway" v="tertiary"/>
    <tag k="maxspeed" v="30 mph"/>
    <tag k="name" v="River Lane"/>
    <tag k="source" v="survey"/>
  </way>
  <way id="24029662" version="10" timestamp="2024-06-04T17:45:49Z" changeset="152254778" uid="13341565" user="Falsernet">
    <nd ref="13336704"/>
    <nd ref="467768436"/>
    <nd ref="2006331557"/>
    <nd ref="13336703"/>
    <tag k="highway" v="trunk"/>
    <tag k="lanes" v="2"/>
    <tag k="lit" v="no"/>
    <tag k="maxspeed" v="60 mph"/>
    <tag k="maxspeed:type" v="GB:nsl_single"/>
    <tag k="name" v="Fordham Road"/>
    <tag k="ref" v="A142"/>
  </way>
  <way id="24029663" version="7" timestamp="2023-05-28T14:02:48Z" changeset="136657416" uid="12752888" user="U42">
    <nd ref="260595503"/>
    <nd ref="13336704"/>
    <tag k="bridge" v="yes"/>
    <tag k="highway" v="trunk"/>
    <tag k="lanes" v="2"/>
    <tag k="layer" v="1"/>
    <tag k="lit" v="no"/>
    <tag k="maxspeed" v="60 mph"/>
    <tag k="maxspeed:type" v="GB:nsl_single"/>
    <tag k="ref" v="A142"/>
  </way>
  <way id="24294092" version="6" timestamp="2025-04-10T12:11:50Z" changeset="164765941" uid="5603739" user="PikeUK">
    <nd ref="11914264681"/>
    <nd ref="13357683"/>
    <nd ref="467767513"/>
    <nd ref="13357684"/>
    <nd ref="467768079"/>
    <nd ref="12744504989"/>
    <nd ref="13357698"/>
    <nd ref="13357696"/>
    <tag k="highway" v="secondary"/>
    <tag k="name" v="Sharmans Road"/>
    <tag k="ref" v="B1102"/>
    <tag k="source" v="survey"/>
  </way>
  <way id="24305532" version="3" timestamp="2009-08-15T17:06:19Z" changeset="2155575" uid="3582" user="davidearl">
    <nd ref="263361853"/>
    <nd ref="467767417"/>
    <nd ref="467767377"/>
    <nd ref="24341670"/>
    <tag k="highway" v="residential"/>
    <tag k="name" v="Murfitt's Lane"/>
    <tag k="source" v="survey"/>
  </way>
  <way id="24347435" version="5" timestamp="2021-07-20T04:21:55Z" changeset="108283710" uid="10455633" user="tnayini">
    <nd ref="264123772"/>
    <nd ref="467766783"/>
    <nd ref="264123773"/>
    <nd ref="264123774"/>
    <nd ref="6881895790"/>
    <nd ref="264123775"/>
    <nd ref="467766794"/>
    <nd ref="8934701321"/>
    <nd ref="264123776"/>
    <nd ref="264123777"/>
    <nd ref="467766833"/>
    <nd ref="8020637003"/>
    <nd ref="264123778"/>
    <nd ref="264123779"/>
    <nd ref="264123783"/>
    <nd ref="264123787"/>
    <nd ref="467766848"/>
    <tag k="highway" v="unclassified"/>
    <tag k="name" v="Mill Lane"/>
    <tag k="source" v="survey"/>
  </way>
  <way id="25555953" version="9" timestamp="2024-04-03T20:25:24Z" changeset="149542413" uid="5229644" user="Nathan_A_RF">
    <nd ref="6319465736"/>
    <nd ref="467767475"/>
    <nd ref="6319474799"/>
    <nd ref="6319475309"/>
    <nd ref="6319474852"/>
    <nd ref="24341651"/>
    <tag k="highway" v="trunk"/>
    <tag k="lit" v="yes"/>
    <tag k="maxspeed" v="60 mph"/>
    <tag k="maxspeed:type" v="GB:nsl_single"/>
    <tag k="oneway" v="yes"/>
    <tag k="ref" v="A142"/>
  </way>
  <way id="25574689" version="6" timestamp="2019-03-05T22:30:43Z" changeset="67824101" uid="24119" user="Mauls">
    <nd ref="278781064"/>
    <nd ref="3716141438"/>
    <nd ref="278781065"/>
    <nd ref="279524107"/>
    <nd ref="278781066"/>
    <nd ref="278781067"/>
    <nd ref="6319474614"/>
    <nd ref="6319474805"/>
    <nd ref="6319475027"/>
    <nd ref="6319474874"/>
    <nd ref="279508822"/>
    <nd ref="278781068"/>
    <tag k="highway" v="unclassified"/>
    <tag k="name" v="Cockpen Road"/>
  </way>
  <way id="25574690" version="6" timestamp="2019-10-27T21:04:37Z" changeset="76276421" uid="84263" user="Robert Whittaker">
    <nd ref="279500092"/>
    <nd ref="6923402026"/>
    <nd ref="279500095"/>
    <nd ref="279500100"/>
    <nd ref="279500103"/>
    <nd ref="279500107"/>
    <nd ref="6319475157"/>
    <nd ref="6319474988"/>
    <nd ref="279500111"/>
    <nd ref="467767491"/>
    <nd ref="278781068"/>
    <nd ref="467767493"/>
    <nd ref="24341659"/>
    <tag k="highway" v="unclassified"/>
    <tag k="name" v="Larkhall Road"/>
  </way>
  <way id="25640866" version="3" timestamp="2020-07-30T09:44:48Z" changeset="88724160" uid="10170580" user="wellasus">
    <nd ref="278781067"/>
    <nd ref="7769512773"/>
    <nd ref="6319474824"/>
    <nd ref="279508824"/>
    <tag k="highway" v="unclassified"/>
    <tag k="name" v="Cockpen Road"/>
  </way>
  <way id="27730803" version="11" timestamp="2022-10-10T10:39:47Z" changeset="127294556" uid="9357577" user="MajaMaravic">
    <nd ref="24341700"/>
    <nd ref="467767339"/>
    <nd ref="24341704"/>
    <nd ref="467767345"/>
    <nd ref="6774070507"/>
    <nd ref="467768040"/>
    <nd ref="467767256"/>
    <nd ref="24341707"/>
    <nd ref="24341710"/>
    <nd ref="1667345930"/>
    <nd ref="24341712"/>
    <nd ref="467767253"/>
    <nd ref="6987397584"/>
    <nd ref="13336739"/>
    <nd ref="467767252"/>
    <tag k="highway" v="tertiary"/>
    <tag k="name" v="Fordham Road"/>
  </way>
  <way id="34233826" version="5" timestamp="2018-10-30T22:19:29Z" changeset="64026467" uid="5173844" user="ndrw6">
    <nd ref="5255513"/>
    <nd ref="392602094"/>
    <nd ref="6025968214"/>
    <nd ref="13357673"/>
    <tag k="highway" v="tertiary"/>
    <tag k="maxspeed" v="30 mph"/>
    <tag k="name" v="River Lane"/>
    <tag k="source" v="survey"/>
  </way>
  <way id="39118074" version="1" timestamp="2009-08-15T17:05:44Z" changeset="2155575" uid="3582" user="davidearl">
    <nd ref="264123773"/>
    <nd ref="467766786"/>
    <nd ref="467766788"/>
    <nd ref="467766790"/>
    <nd ref="467766792"/>
    <tag k="highway" v="residential"/>
    <tag k="name" v="Frowd Close"/>
    <tag k="source" v="survey"/>
  </way>
  <way id="39118076" version="1" timestamp="2009-08-15T17:05:44Z" changeset="2155575" uid="3582" user="davidearl">
    <nd ref="264123776"/>
    <nd ref="467766796"/>
    <tag k="highway" v="residential"/>
    <tag k="name" v="Mill Lane (spur)"/>
    <tag k="source" v="survey"/>
  </way>
  <way id="39118081" version="3" timestamp="2020-01-09T16:17:27Z" changeset="79384853" uid="8270424" user="theArchDruid">
    <nd ref="264123777"/>
    <nd ref="7119881191"/>
    <nd ref="467766798"/>
    <nd ref="467766800"/>
    <nd ref="467766802"/>
    <nd ref="467766804"/>
    <nd ref="467766805"/>
    <nd ref="467766808"/>
    <nd ref="467766809"/>
    <nd ref="467766812"/>
    <nd ref="467766814"/>
    <nd ref="467766815"/>
    <nd ref="467766818"/>
    <nd ref="2297082665"/>
    <nd ref="467766820"/>
    <nd ref="467766823"/>
    <nd ref="467766824"/>
    <tag k="highway" v="residential"/>
    <tag k="name" v="Hillside Meadow"/>
    <tag k="source" v="survey"/>
  </way>
  <way id="39118082" version="1" timestamp="2009-08-15T17:05:44Z" changeset="2155575" uid="3582" user="davidearl">
    <nd ref="467766823"/>
    <nd ref="467766826"/>
    <tag k="highway" v="residential"/>
    <tag k="name" v="Hillside Meadow"/>
    <tag k="source" v="survey"/>
  </way>
  <way id="39118083" version="1" timestamp="2009-08-15T17:05:45Z" changeset="2155575" uid="3582" user="davidearl">
    <nd ref="467766808"/>
    <nd ref="467766829"/>
    <tag k="highway" v="residential"/>
    <tag k="name" v="Hillside Meadow"/>
    <tag k="source" v="survey"/>
  </way>
  <way id="39118084" version="1" timestamp="2009-08-15T17:05:45Z" changeset="2155575" uid="3582" user="davidearl">
    <nd ref="467766820"/>
    <nd ref="467766831"/>
    <tag k="highway" v="residential"/>
    <tag k="name" v="Hillside Meadow"/>
    <tag k="source" v="survey"/>
  </way>
  <way id="39118085" version="1" timestamp="2009-08-15T17:05:45Z" changeset="2155575" uid="3582" user="davidearl">
    <nd ref="264123778"/>
    <nd ref="467766846"/>
    <tag k="highway" v="residential"/>
    <tag k="name" v="Feltons"/>
    <tag k="source" v="survey"/>
  </way>
  <way id="39118086" version="2" timestamp="2013-05-09T14:16:18Z" changeset="16048370" uid="281267" user="smb1001">
    <nd ref="467766873"/>
    <nd ref="467766875"/>
    <nd ref="467766877"/>
    <nd ref="2297082758"/>
    <nd ref="467766880"/>
    <nd ref="467766881"/>
    <tag k="highway" v="residential"/>
    <tag k="name" v="Trinity Close"/>
    <tag k="source" v="survey"/>
  </way>
  <way id="39118087" version="1" timestamp="2009-08-15T17:05:45Z" changeset="2155575" uid="3582" user="davidearl">
    <nd ref="467766877"/>
    <nd ref="467766885"/>
    <tag k="highway" v="residential"/>
    <tag k="name" v="Trinity Close"/>
    <tag k="source" v="survey"/>
  </way>
  <way id="39118088" version="1" timestamp="2009-08-15T17:05:45Z" changeset="2155575" uid="3582" user="davidearl">
    <nd ref="467766886"/>
    <nd ref="467766885"/>
    <nd ref="467766889"/>
    <tag k="highway" v="residential"/>
    <tag k="name" v="Trinity Close"/>
    <tag k="source" v="survey"/>
  </way>
  <way id="39118097" version="1" timestamp="2009-08-15T17:05:46Z" changeset="2155575" uid="3582" user="davidearl">
    <nd ref="13357732"/>
    <nd ref="467767081"/>
    <nd ref="467766952"/>
    <nd ref="467766955"/>
    <nd ref="467766956"/>
    <nd ref="467766959"/>
    <tag k="highway" v="residential"/>
    <tag k="name" v="St Peters Place"/>
    <tag k="source" v="survey"/>
  </way>
  <way id="39118098" version="1" timestamp="2009-08-15T17:05:46Z" changeset="2155575" uid="3582" user="davidearl">
    <nd ref="467766956"/>
    <nd ref="467766961"/>
    <nd ref="467766963"/>
    <nd ref="467766965"/>
    <tag k="highway" v="residential"/>
    <tag k="name" v="St Peters Place"/>
    <tag k="source" v="survey"/>
  </way>
  <way id="39118099" version="1" timestamp="2009-08-15T17:05:46Z" changeset="2155575" uid="3582" user="davidearl">
    <nd ref="467766980"/>
    <nd ref="467766982"/>
    <tag k="highway" v="residential"/>
    <tag k="name" v="Isleham Road"/>
    <tag k="source" v="survey"/>
  </way>
  <way id="39118100" version="2" timestamp="2024-09-12T13:40:06Z" changeset="156529318" uid="5173844" user="ndrw6">
    <nd ref="5255638"/>
    <nd ref="12172543133"/>
    <nd ref="467767890"/>
    <nd ref="12172543134"/>
    <nd ref="467766990"/>
    <tag k="highway" v="residential"/>
    <tag k="name" v="Eldith Avenue"/>
    <tag k="source" v="survey"/>
  </way>
  <way id="39118101" version="3" timestamp="2021-07-21T17:38:55Z" changeset="108379336" uid="10455643" user="kotamadh">
    <nd ref="467766991"/>
    <nd ref="8939443105"/>
    <nd ref="467766994"/>
    <nd ref="467766996"/>
    <nd ref="467766998"/>
    <nd ref="467767000"/>
    <nd ref="467767002"/>
    <nd ref="467767005"/>
    <nd ref="7821670654"/>
    <nd ref="467767007"/>
    <nd ref="7821670655"/>
    <nd ref="467767008"/>
    <nd ref="7821670656"/>
    <nd ref="467767011"/>
    <nd ref="467767013"/>
    <nd ref="467767029"/>
    <nd ref="7821670657"/>
    <nd ref="467767031"/>
    <nd ref="467767032"/>
    <tag k="highway" v="residential"/>
    <tag k="name" v="Newport Avenue"/>
    <tag k="source" v="survey"/>
  </way>
  <way id="39118104" version="1" timestamp="2009-08-15T17:05:46Z" changeset="2155575" uid="3582" user="davidearl">
    <nd ref="467766994"/>
    <nd ref="467767905"/>
    <tag k="highway" v="residential"/>
    <tag k="name" v="Newport Avenue"/>
    <tag k="source" v="survey"/>
  </way>
  <way id="39118105" version="2" timestamp="2012-09-03T07:26:55Z" changeset="12963584" uid="467833" user="fruit-uk">
    <nd ref="467767058"/>
    <nd ref="467767056"/>
    <nd ref="13336684"/>
    <nd ref="5255636"/>
    <tag k="abutters" v="residential"/>
    <tag k="highway" v="secondary"/>
    <tag k="maxspeed" v="40 mph"/>
    <tag k="name" v="Chippenham Road"/>
    <tag k="ref" v="B1085"/>
    <tag k="source" v="survey"/>
  </way>
  <way id="39118106" version="13" timestamp="2025-03-17T21:12:55Z" changeset="163750731" uid="5229644" user="Nathan_A_RF">
    <nd ref="467767061"/>
    <nd ref="2297219562"/>
    <nd ref="2297219599"/>
    <nd ref="5255633"/>
    <nd ref="7953866672"/>
    <nd ref="5255631"/>
    <nd ref="6494586369"/>
    <nd ref="5525326674"/>
    <nd ref="5255629"/>
    <nd ref="5525325478"/>
    <nd ref="6987397558"/>
    <nd ref="5255627"/>
    <nd ref="13357747"/>
    <nd ref="13357753"/>
    <nd ref="5255626"/>
    <tag k="highway" v="secondary"/>
    <tag k="maxspeed" v="60 mph"/>
    <tag k="maxspeed:type" v="GB:nsl_single"/>
    <tag k="name" v="Mildenhall Road"/>
    <tag k="ref" v="B1102"/>
  </way>
  <way id="39118111" version="2" timestamp="2017-08-18T11:33:35Z" changeset="51230779" uid="84263" user="Robert Whittaker">
    <nd ref="13357710"/>
    <nd ref="467767108"/>
    <nd ref="467767110"/>
    <nd ref="467767112"/>
    <nd ref="467767114"/>
    <nd ref="467767117"/>
    <nd ref="467767119"/>
    <nd ref="467767120"/>
    <nd ref="467767123"/>
    <tag k="highway" v="residential"/>
    <tag k="name" v="New Path"/>
    <tag k="source" v="survey"/>
  </way>
  <way id="39118112" version="1" timestamp="2009-08-15T17:05:48Z" changeset="2155575" uid="3582" user="davidearl">
    <nd ref="467767123"/>
    <nd ref="467767129"/>
    <nd ref="467767132"/>
    <tag k="highway" v="residential"/>
    <tag k="name" v="New Path"/>
    <tag k="source" v="survey"/>
  </way>
  <way id="39118113" version="1" timestamp="2009-08-15T17:05:48Z" changeset="2155575" uid="3582" user="davidearl">
    <nd ref="467767112"/>
    <nd ref="467767134"/>
    <tag k="highway" v="residential"/>
    <tag k="name" v="New Path"/>
    <tag k="source" v="survey"/>
  </way>
  <way id="39118114" version="2" timestamp="2013-05-09T14:16:18Z" changeset="16048370" uid="281267" user="smb1001">
    <nd ref="467767117"/>
    <nd ref="2297082830"/>
    <nd ref="2297082756"/>
    <nd ref="467767135"/>
    <nd ref="467767138"/>
    <tag k="highway" v="residential"/>
    <tag k="name" v="Walton Close"/>
    <tag k="source" v="survey"/>
  </way>
  <way id="39118115" version="2" timestamp="2013-05-09T14:16:18Z" changeset="16048370" uid="281267" user="smb1001">
    <nd ref="467767140"/>
    <nd ref="467767978"/>
    <nd ref="2297082651"/>
    <nd ref="2297082810"/>
    <nd ref="467767135"/>
    <nd ref="467767142"/>
    <tag k="highway" v="residential"/>
    <tag k="name" v="Walton Close"/>
    <tag k="source" v="survey"/>
  </way>
  <way id="39118116" version="1" timestamp="2009-08-15T17:05:48Z" changeset="2155575" uid="3582" user="davidearl">
    <nd ref="467767144"/>
    <nd ref="467767146"/>
    <nd ref="467767149"/>
    <nd ref="467767150"/>
    <nd ref="467767153"/>
    <tag k="highway" v="residential"/>
    <tag k="name" v="Carter Street (spur)"/>
    <tag k="source" v="survey"/>
  </way>
  <way id="39118117" version="1" timestamp="2009-08-15T17:05:49Z" changeset="2155575" uid="3582" user="davidearl">
    <nd ref="25291093"/>
    <nd ref="467767158"/>
    <tag k="highway" v="residential"/>
    <tag k="name" v="Grove Gardens"/>
    <tag k="source" v="survey"/>
  </way>
  <way id="39118118" version="2" timestamp="2018-10-30T22:19:29Z" changeset="64026467" uid="5173844" user="ndrw6">
    <nd ref="467767159"/>
    <nd ref="467767162"/>
    <nd ref="6025968265"/>
    <nd ref="467767158"/>
    <nd ref="467767164"/>
    <tag k="highway" v="residential"/>
    <tag k="name" v="Grove Gardens"/>
    <tag k="source" v="survey"/>
  </way>
  <way id="39118119" version="2" timestamp="2019-10-22T13:27:28Z" changeset="76051616" uid="10219370" user="rathjoth">
    <nd ref="467767155"/>
    <nd ref="467768008"/>
    <nd ref="6905729670"/>
    <nd ref="6905729668"/>
    <nd ref="467767166"/>
    <nd ref="467767168"/>
    <nd ref="467767170"/>
    <nd ref="467767173"/>
    <tag k="highway" v="residential"/>
    <tag k="name" v="Grove Park"/>
    <tag k="source" v="survey"/>
  </way>
  <way id="39118120" version="1" timestamp="2009-08-15T17:05:49Z" changeset="2155575" uid="3582" user="davidearl">
    <nd ref="467767170"/>
    <nd ref="467767175"/>
    <nd ref="467767177"/>
    <nd ref="467767179"/>
    <tag k="highway" v="residential"/>
    <tag k="name" v="Grove Park"/>
    <tag k="source" v="survey"/>
  </way>
  <way id="39118121" version="1" timestamp="2009-08-15T17:05:49Z" changeset="2155575" uid="3582" user="davidearl">
    <nd ref="467767166"/>
    <nd ref="467767181"/>
    <nd ref="467767184"/>
    <nd ref="467767186"/>
    <nd ref="467767188"/>
    <tag k="highway" v="residential"/>
    <tag k="name" v="Grove Park"/>
    <tag k="source" v="survey"/>
  </way>
  <way id="39118122" version="1" timestamp="2009-08-15T17:05:49Z" changeset="2155575" uid="3582" user="davidearl">
    <nd ref="25291090"/>
    <nd ref="467767212"/>
    <nd ref="467767214"/>
    <nd ref="467767216"/>
    <tag k="highway" v="residential"/>
    <tag k="name" v="Moor Road"/>
    <tag k="source" v="survey"/>
  </way>
  <way id="39118136" version="1" timestamp="2009-08-15T17:05:51Z" changeset="2155575" uid="3582" user="davidearl">
    <nd ref="467767417"/>
    <nd ref="467767420"/>
    <nd ref="467767421"/>
    <tag k="highway" v="residential"/>
    <tag k="name" v="Boyden Court"/>
  </way>
  <way id="39118137" version="3" timestamp="2018-10-30T22:19:29Z" changeset="64026467" uid="5173844" user="ndrw6">
    <nd ref="467767427"/>
    <nd ref="6025968215"/>
    <nd ref="467767439"/>
    <tag k="highway" v="residential"/>
    <tag k="name" v="Ironbridge Path"/>
  </way>
  <way id="39118140" version="1" timestamp="2009-08-15T17:05:51Z" changeset="2155575" uid="3582" user="davidearl">
    <nd ref="467767439"/>
    <nd ref="467767451"/>
    <nd ref="467767452"/>
    <tag k="highway" v="residential"/>
    <tag k="name" v="Ironbridge Path"/>
  </way>
  <way id="39118141" version="1" timestamp="2009-08-15T17:05:51Z" changeset="2155575" uid="3582" user="davidearl">
    <nd ref="467767435"/>
    <nd ref="467767455"/>
    <nd ref="467767457"/>
    <tag k="highway" v="unclassified"/>
    <tag k="name" v="Feast Close"/>
    <tag k="source" v="survey"/>
  </way>
  <way id="39118142" version="4" timestamp="2023-12-28T16:48:02Z" changeset="145628525" uid="242345" user="confusedbuffalo">
    <nd ref="467767461"/>
    <nd ref="467767465"/>
    <nd ref="467767467"/>
    <nd ref="467767469"/>
    <tag k="access" v="private"/>
    <tag k="highway" v="residential"/>
    <tag k="name" v="Scabious Gardens"/>
    <tag k="postal_code" v="CB7 5JZ"/>
  </way>
  <way id="39118143" version="3" timestamp="2024-04-03T20:25:24Z" changeset="149542413" uid="5229644" user="Nathan_A_RF">
    <nd ref="392601766"/>
    <nd ref="1895854621"/>
    <tag k="highway" v="secondary"/>
    <tag k="maxspeed" v="60 mph"/>
    <tag k="maxspeed:type" v="GB:nsl_single"/>
    <tag k="name" v="Station Road"/>
    <tag k="ref" v="B1102"/>
    <tag k="source" v="survey"/>
  </way>
  <way id="39118144" version="6" timestamp="2024-04-03T20:25:24Z" changeset="149542413" uid="5229644" user="Nathan_A_RF">
    <nd ref="6319465730"/>
    <nd ref="6319474623"/>
    <nd ref="6319475155"/>
    <nd ref="6319474636"/>
    <nd ref="467767482"/>
    <tag k="highway" v="secondary"/>
    <tag k="lit" v="yes"/>
    <tag k="maxspeed" v="60 mph"/>
    <tag k="maxspeed:type" v="GB:nsl_single"/>
    <tag k="name" v="Station Road"/>
    <tag k="oneway" v="yes"/>
    <tag k="ref" v="B1102"/>
  </way>
  <way id="39118145" version="6" timestamp="2024-04-03T20:25:24Z" changeset="149542413" uid="5229644" user="Nathan_A_RF">
    <nd ref="24341651"/>
    <nd ref="24341653"/>
    <nd ref="6319475153"/>
    <nd ref="6319474660"/>
    <nd ref="6319465722"/>
    <nd ref="6319475143"/>
    <nd ref="24341655"/>
    <nd ref="6319465743"/>
    <nd ref="6319475019"/>
    <nd ref="6319475154"/>
    <nd ref="6319465773"/>
    <nd ref="24341659"/>
    <tag k="highway" v="trunk"/>
    <tag k="lanes" v="2"/>
    <tag k="maxspeed" v="60 mph"/>
    <tag k="maxspeed:type" v="GB:nsl_single"/>
    <tag k="ref" v="A142"/>
  </way>
  <way id="39118146" version="7" timestamp="2024-04-03T20:25:24Z" changeset="149542413" uid="5229644" user="Nathan_A_RF">
    <nd ref="6319474985"/>
    <nd ref="6319474599"/>
    <nd ref="6319474620"/>
    <nd ref="6319474845"/>
    <nd ref="24341620"/>
    <tag k="highway" v="trunk"/>
    <tag k="lit" v="yes"/>
    <tag k="maxspeed" v="60 mph"/>
    <tag k="maxspeed:type" v="GB:nsl_single"/>
    <tag k="oneway" v="yes"/>
    <tag k="ref" v="A142"/>
  </way>
  <way id="39118148" version="1" timestamp="2009-08-15T17:05:52Z" changeset="2155575" uid="3582" user="davidearl">
    <nd ref="467767513"/>
    <nd ref="467767516"/>
    <nd ref="467767517"/>
    <nd ref="467768074"/>
    <nd ref="467767520"/>
    <nd ref="467767521"/>
    <nd ref="467767523"/>
    <tag k="highway" v="residential"/>
    <tag k="name" v="Harry Palmer Close"/>
    <tag k="source" v="survey"/>
  </way>
  <way id="39118149" version="2" timestamp="2011-02-01T22:16:42Z" changeset="7160026" uid="4951" user="PeterEastern">
    <nd ref="467768070"/>
    <nd ref="467767526"/>
    <nd ref="467767527"/>
    <nd ref="467767530"/>
    <nd ref="467767531"/>
    <nd ref="467767533"/>
    <tag k="highway" v="residential"/>
    <tag k="name" v="Stewards Fields"/>
    <tag k="not:name" v="Stewards Field"/>
    <tag k="source" v="survey"/>
  </way>
  <way id="39118150" version="1" timestamp="2009-08-15T17:05:52Z" changeset="2155575" uid="3582" user="davidearl">
    <nd ref="467767526"/>
    <nd ref="467767536"/>
    <nd ref="467767537"/>
    <nd ref="467767540"/>
    <tag k="highway" v="residential"/>
    <tag k="name" v="Stewards Fields"/>
    <tag k="source" v="survey"/>
  </way>
  <way id="39118151" version="2" timestamp="2013-05-09T14:16:19Z" changeset="16048370" uid="281267" user="smb1001">
    <nd ref="467767516"/>
    <nd ref="2297082667"/>
    <nd ref="467767541"/>
    <tag k="highway" v="residential"/>
    <tag k="name" v="Harry Palmer Close"/>
    <tag k="source" v="survey"/>
  </way>
  <way id="39118152" version="1" timestamp="2009-08-15T17:05:52Z" changeset="2155575" uid="3582" user="davidearl">
    <nd ref="467767541"/>
    <nd ref="467767543"/>
    <nd ref="467767546"/>
    <nd ref="467767547"/>
    <nd ref="467767549"/>
    <nd ref="467767551"/>
    <nd ref="467767553"/>
    <nd ref="467767555"/>
    <nd ref="467767557"/>
    <nd ref="467767559"/>
    <nd ref="467767541"/>
    <tag k="highway" v="residential"/>
    <tag k="junction" v="roundabout"/>
    <tag k="name" v="Harry Palmer Close"/>
    <tag k="source" v="survey"/>
  </way>
  <way id="39118153" version="1" timestamp="2009-08-15T17:05:53Z" changeset="2155575" uid="3582" user="davidearl">
    <nd ref="467767555"/>
    <nd ref="467767561"/>
    <nd ref="467767563"/>
    <nd ref="467767564"/>
    <tag k="highway" v="residential"/>
    <tag k="name" v="Harry Palmer Close"/>
    <tag k="source" v="survey"/>
  </way>
  <way id="39118154" version="1" timestamp="2009-08-15T17:05:53Z" changeset="2155575" uid="3582" user="davidearl">
    <nd ref="467767551"/>
    <nd ref="467767567"/>
    <nd ref="467767568"/>
    <nd ref="467767571"/>
    <nd ref="467767573"/>
    <tag k="highway" v="residential"/>
    <tag k="name" v="Harry Palmer Close"/>
    <tag k="source" v="survey"/>
  </way>
  <way id="39118155" version="1" timestamp="2009-08-15T17:05:53Z" changeset="2155575" uid="3582" user="davidearl">
    <nd ref="13357683"/>
    <nd ref="467767574"/>
    <tag k="highway" v="residential"/>
    <tag k="name" v="Withers Place"/>
    <tag k="source" v="survey"/>
  </way>
  <way id="39118156" version="1" timestamp="2009-08-15T17:05:53Z" changeset="2155575" uid="3582" user="davidearl">
    <nd ref="467767576"/>
    <nd ref="467767574"/>
    <nd ref="467767578"/>
    <nd ref="467767580"/>
    <nd ref="467767582"/>
    <nd ref="467767584"/>
    <nd ref="467767586"/>
    <nd ref="467767588"/>
    <tag k="highway" v="residential"/>
    <tag k="name" v="Withers Place"/>
    <tag k="source" v="survey"/>
  </way>
  <way id="39118158" version="1" timestamp="2009-08-15T17:05:53Z" changeset="2155575" uid="3582" user="davidearl">
    <nd ref="467767423"/>
    <nd ref="467768060"/>
    <nd ref="467767603"/>
    <tag k="highway" v="residential"/>
    <tag k="name" v="Hurts Croft"/>
    <tag k="source" v="survey"/>
  </way>
  <way id="39118161" version="10" timestamp="2024-06-04T17:45:49Z" changeset="152254778" uid="13341565" user="Falsernet">
    <nd ref="13336726"/>
    <nd ref="13336725"/>
    <nd ref="11796124477"/>
    <tag k="highway" v="trunk"/>
    <tag k="lanes" v="2"/>
    <tag k="lit" v="yes"/>
    <tag k="maxspeed" v="60 mph"/>
    <tag k="maxspeed:type" v="GB:nsl_single"/>
    <tag k="name" v="Newmarket Road"/>
    <tag k="ref" v="A142"/>
  </way>
  <way id="39118167" version="8" timestamp="2025-03-09T15:33:01Z" changeset="163405549" uid="6647145" user="Flic">
    <nd ref="7611352980"/>
    <nd ref="24341719"/>
    <nd ref="467767658"/>
    <nd ref="467767660"/>
    <nd ref="24341722"/>
    <nd ref="24341726"/>
    <nd ref="7621335230"/>
    <nd ref="7621335226"/>
    <nd ref="24341729"/>
    <nd ref="24341732"/>
    <nd ref="24341738"/>
    <tag k="highway" v="tertiary"/>
    <tag k="name" v="Snailwell Road"/>
    <tag k="surface" v="asphalt"/>
  </way>
  <way id="39118172" version="2" timestamp="2012-11-10T15:30:48Z" changeset="13819416" uid="6871" user="smsm1">
    <nd ref="467767700"/>
    <nd ref="467767698"/>
    <tag k="bridge" v="yes"/>
    <tag k="highway" v="tertiary"/>
    <tag k="lanes" v="2"/>
    <tag k="layer" v="1"/>
    <tag k="lit" v="no"/>
    <tag k="maxweight" v="7.5"/>
    <tag k="sidewalk" v="no"/>
  </way>
  <way id="39118173" version="3" timestamp="2012-11-10T15:30:47Z" changeset="13819416" uid="6871" user="smsm1">
    <nd ref="467767698"/>
    <nd ref="467768377"/>
    <tag k="highway" v="tertiary"/>
    <tag k="lanes" v="2"/>
    <tag k="maxweight" v="7.5"/>
    <tag k="name" v="Landwade Road"/>
  </way>
  <way id="39118181" version="3" timestamp="2022-01-01T13:15:45Z" changeset="115635837" uid="1287673" user="sloerunner">
    <nd ref="467766848"/>
    <nd ref="13357728"/>
    <nd ref="467766851"/>
    <nd ref="7896341446"/>
    <nd ref="467766854"/>
    <nd ref="467766856"/>
    <nd ref="467766857"/>
    <nd ref="9383539602"/>
    <nd ref="13357730"/>
    <nd ref="5255526"/>
    <tag k="highway" v="secondary"/>
    <tag k="name" v="Church Street"/>
    <tag k="ref" v="B1102"/>
    <tag k="source" v="survey"/>
  </way>
  <way id="39118188" version="5" timestamp="2021-05-03T10:53:20Z" changeset="104049826" uid="281267" user="smb1001">
    <nd ref="5255526"/>
    <nd ref="2297082733"/>
    <nd ref="13357732"/>
    <nd ref="6904337389"/>
    <nd ref="8693366330"/>
    <nd ref="467766985"/>
    <tag k="abutters" v="residential"/>
    <tag k="highway" v="secondary"/>
    <tag k="maxspeed" v="30 mph"/>
    <tag k="name" v="Mildenhall Road"/>
    <tag k="ref" v="B1102"/>
    <tag k="source" v="survey"/>
  </way>
  <way id="39118189" version="5" timestamp="2021-07-20T04:21:55Z" changeset="108283710" uid="10455633" user="tnayini">
    <nd ref="264123772"/>
    <nd ref="5255517"/>
    <nd ref="13357742"/>
    <nd ref="13357737"/>
    <nd ref="5255520"/>
    <nd ref="13357738"/>
    <nd ref="5255523"/>
    <nd ref="8934701346"/>
    <nd ref="13357741"/>
    <nd ref="8934701339"/>
    <nd ref="8934701338"/>
    <nd ref="467766869"/>
    <nd ref="8934701328"/>
    <nd ref="467766873"/>
    <nd ref="13357735"/>
    <nd ref="467766866"/>
    <nd ref="5255524"/>
    <nd ref="467766864"/>
    <nd ref="13357734"/>
    <nd ref="2297082655"/>
    <nd ref="467766860"/>
    <nd ref="5255526"/>
    <tag k="highway" v="tertiary"/>
    <tag k="maxspeed" v="30 mph"/>
    <tag k="name" v="Collins Hill"/>
    <tag k="source" v="survey"/>
  </way>
  <way id="39118190" version="2" timestamp="2012-09-03T09:15:26Z" changeset="12964667" uid="467833" user="fruit-uk">
    <nd ref="5255526"/>
    <nd ref="467767093"/>
    <nd ref="467767087"/>
    <nd ref="467766967"/>
    <nd ref="467766970"/>
    <nd ref="263364282"/>
    <tag k="abutters" v="residential"/>
    <tag k="highway" v="tertiary"/>
    <tag k="maxspeed" v="30 mph"/>
    <tag k="name" v="Isleham Road"/>
    <tag k="source" v="survey"/>
  </way>
  <way id="39118195" version="5" timestamp="2020-06-10T12:03:33Z" changeset="86462907" uid="10455639" user="srderang">
    <nd ref="263364282"/>
    <nd ref="263364283"/>
    <nd ref="467766971"/>
    <nd ref="1603571566"/>
    <nd ref="263364284"/>
    <nd ref="467766974"/>
    <nd ref="467766976"/>
    <nd ref="467766978"/>
    <nd ref="263364285"/>
    <nd ref="263364286"/>
    <nd ref="467766980"/>
    <nd ref="7608828711"/>
    <nd ref="263364287"/>
    <tag k="highway" v="tertiary"/>
    <tag k="name" v="Isleham Road"/>
  </way>
  <way id="39118197" version="4" timestamp="2021-07-21T17:38:55Z" changeset="108379336" uid="10455643" user="kotamadh">
    <nd ref="467766985"/>
    <nd ref="467767871"/>
    <nd ref="5255528"/>
    <nd ref="467767878"/>
    <nd ref="5255639"/>
    <nd ref="467766987"/>
    <nd ref="5255638"/>
    <nd ref="467767891"/>
    <nd ref="7821670658"/>
    <nd ref="467766991"/>
    <nd ref="8939443115"/>
    <nd ref="467767063"/>
    <nd ref="5255636"/>
    <nd ref="467767061"/>
    <tag k="highway" v="secondary"/>
    <tag k="maxspeed" v="40 mph"/>
    <tag k="name" v="Mildenhall Road"/>
    <tag k="ref" v="B1102"/>
    <tag k="source" v="survey"/>
  </way>
  <way id="39118201" version="2" timestamp="2024-09-12T13:40:06Z" changeset="156529318" uid="5173844" user="ndrw6">
    <nd ref="467767890"/>
    <nd ref="12172543132"/>
    <nd ref="467767891"/>
    <tag k="highway" v="residential"/>
    <tag k="name" v="Eldith Avenue"/>
    <tag k="source" v="survey"/>
  </way>
  <way id="39118202" version="1" timestamp="2009-08-15T17:05:58Z" changeset="2155575" uid="3582" user="davidearl">
    <nd ref="467767893"/>
    <nd ref="467766990"/>
    <nd ref="467767895"/>
    <tag k="highway" v="residential"/>
    <tag k="name" v="Eldith Avenue"/>
    <tag k="source" v="survey"/>
  </way>
  <way id="39118204" version="1" timestamp="2009-08-15T17:05:58Z" changeset="2155575" uid="3582" user="davidearl">
    <nd ref="467767905"/>
    <nd ref="467767910"/>
    <nd ref="467767050"/>
    <nd ref="467767052"/>
    <nd ref="467767054"/>
    <nd ref="467767056"/>
    <tag k="highway" v="residential"/>
    <tag k="name" v="Thirlwall Drive"/>
    <tag k="source" v="survey"/>
  </way>
  <way id="39118206" version="1" timestamp="2009-08-15T17:05:58Z" changeset="2155575" uid="3582" user="davidearl">
    <nd ref="467767910"/>
    <nd ref="467767912"/>
    <tag k="highway" v="residential"/>
    <tag k="name" v="Thirlwall Drive"/>
    <tag k="source" v="survey"/>
  </way>
  <way id="39118208" version="1" timestamp="2009-08-15T17:05:58Z" changeset="2155575" uid="3582" user="davidearl">
    <nd ref="467767063"/>
    <nd ref="467767064"/>
    <nd ref="467767917"/>
    <tag k="highway" v="residential"/>
    <tag k="name" v="The Pines"/>
    <tag k="source" v="survey"/>
  </way>
  <way id="39118213" version="2" timestamp="2010-05-11T23:08:00Z" changeset="4673522" uid="21502" user="Kevin Steinhardt">
    <nd ref="467767943"/>
    <nd ref="467767942"/>
    <tag k="bridge" v="yes"/>
    <tag k="highway" v="secondary"/>
    <tag k="layer" v="1"/>
    <tag k="source" v="survey"/>
  </way>
  <way id="39118214" version="3" timestamp="2018-09-17T10:00:17Z" changeset="62659105" uid="84263" user="Robert Whittaker">
    <nd ref="467767942"/>
    <nd ref="5911348208"/>
    <nd ref="13357725"/>
    <nd ref="5911340612"/>
    <nd ref="467766848"/>
    <tag k="highway" v="secondary"/>
    <tag k="name" v="Carter Street"/>
    <tag k="ref" v="B1102"/>
    <tag k="source" v="survey"/>
  </way>
  <way id="39118216" version="1" timestamp="2009-08-15T17:05:59Z" changeset="2155575" uid="3582" user="davidearl">
    <nd ref="467767982"/>
    <nd ref="467767142"/>
    <nd ref="467767985"/>
    <tag k="highway" v="residential"/>
    <tag k="name" v="Walton Close"/>
    <tag k="source" v="survey"/>
  </way>
  <way id="39118221" version="1" timestamp="2009-08-15T17:05:59Z" changeset="2155575" uid="3582" user="davidearl">
    <nd ref="467768008"/>
    <nd ref="467768011"/>
    <tag k="highway" v="residential"/>
    <tag k="name" v="Grove Park"/>
    <tag k="source" v="survey"/>
  </way>
  <way id="39118222" version="3" timestamp="2025-04-10T11:59:00Z" changeset="164765321" uid="5603739" user="PikeUK">
    <nd ref="467767216"/>
    <nd ref="7846232717"/>
    <nd ref="12744513738"/>
    <nd ref="467767219"/>
    <nd ref="467767221"/>
    <nd ref="467767224"/>
    <nd ref="467767225"/>
    <nd ref="467767228"/>
    <nd ref="467767230"/>
    <tag k="highway" v="unclassified"/>
    <tag k="name" v="Moor Road"/>
    <tag k="source" v="survey"/>
  </way>
  <way id="39118223" version="3" timestamp="2021-01-08T04:12:34Z" changeset="97140130" uid="322039" user="MacLondon">
    <nd ref="467767230"/>
    <nd ref="467768012"/>
    <tag k="bridge" v="yes"/>
    <tag k="bridge:name" v="Moor Bridge"/>
    <tag k="highway" v="unclassified"/>
    <tag k="layer" v="1"/>
    <tag k="name" v="Moor Road"/>
    <tag k="source" v="survey"/>
  </way>
  <way id="39118224" version="5" timestamp="2019-09-25T18:07:04Z" changeset="74923371" uid="90142" user="andy mackey">
    <nd ref="467768012"/>
    <nd ref="467767232"/>
    <nd ref="467767745"/>
    <nd ref="6319475035"/>
    <nd ref="6823529714"/>
    <nd ref="6319474795"/>
    <nd ref="6319475182"/>
    <tag k="highway" v="unclassified"/>
    <tag k="name" v="Fordham Road"/>
    <tag k="source" v="survey"/>
  </way>
  <way id="39118228" version="7" timestamp="2023-07-17T11:46:45Z" changeset="138618340" uid="8774347" user="Misa_zumba">
    <nd ref="467767252"/>
    <nd ref="24341672"/>
    <nd ref="24341670"/>
    <nd ref="24341667"/>
    <nd ref="13336740"/>
    <nd ref="7432234793"/>
    <nd ref="11050919373"/>
    <nd ref="467767415"/>
    <nd ref="467767413"/>
    <nd ref="467767411"/>
    <nd ref="11029100044"/>
    <nd ref="467767410"/>
    <nd ref="6987397580"/>
    <nd ref="467767405"/>
    <nd ref="13336741"/>
    <tag k="abutters" v="residential"/>
    <tag k="highway" v="tertiary"/>
    <tag k="maxspeed" v="40 mph"/>
    <tag k="name" v="Soham Road"/>
    <tag k="source" v="survey"/>
  </way>
  <way id="39118229" version="3" timestamp="2025-04-10T11:59:00Z" changeset="164765321" uid="5603739" user="PikeUK">
    <nd ref="467768043"/>
    <nd ref="467767239"/>
    <nd ref="467767236"/>
    <nd ref="467768044"/>
    <nd ref="25291087"/>
    <nd ref="25291088"/>
    <nd ref="263361853"/>
    <nd ref="467767235"/>
    <nd ref="25291090"/>
    <nd ref="25291091"/>
    <nd ref="25291092"/>
    <nd ref="467767155"/>
    <nd ref="25291093"/>
    <nd ref="25291094"/>
    <nd ref="467767144"/>
    <nd ref="25291095"/>
    <nd ref="12744513733"/>
    <nd ref="13357689"/>
    <nd ref="6771210632"/>
    <nd ref="467767105"/>
    <nd ref="13357696"/>
    <tag k="highway" v="residential"/>
    <tag k="name" v="Carter Street"/>
  </way>
  <way id="39118231" version="4" timestamp="2024-05-17T21:26:14Z" changeset="151472442" uid="5173844" user="ndrw6">
    <nd ref="13336741"/>
    <nd ref="13336742"/>
    <nd ref="2297082594"/>
    <nd ref="11914264604"/>
    <nd ref="11914264678"/>
    <tag k="abutters" v="residential"/>
    <tag k="highway" v="tertiary"/>
    <tag k="maxspeed" v="30 mph"/>
    <tag k="name" v="Soham Road"/>
    <tag k="source" v="survey"/>
  </way>
  <way id="39118232" version="3" timestamp="2013-05-09T14:16:20Z" changeset="16048370" uid="281267" user="smb1001">
    <nd ref="13357696"/>
    <nd ref="467767103"/>
    <nd ref="13357705"/>
    <nd ref="13357694"/>
    <nd ref="13357710"/>
    <nd ref="13357712"/>
    <nd ref="2297082634"/>
    <nd ref="13357711"/>
    <nd ref="2297082849"/>
    <nd ref="13357715"/>
    <nd ref="13357720"/>
    <nd ref="13357719"/>
    <nd ref="730198137"/>
    <tag k="highway" v="secondary"/>
    <tag k="name" v="Carter Street"/>
    <tag k="ref" v="B1102"/>
    <tag k="source" v="survey"/>
  </way>
  <way id="39118234" version="1" timestamp="2009-08-15T17:06:00Z" changeset="2155575" uid="3582" user="davidearl">
    <nd ref="467768070"/>
    <nd ref="467767521"/>
    <tag k="highway" v="residential"/>
    <tag k="name" v="Harry Palmer Close"/>
    <tag k="source" v="survey"/>
  </way>
  <way id="39118241" version="2" timestamp="2010-05-11T23:08:05Z" changeset="4673522" uid="21502" user="Kevin Steinhardt">
    <nd ref="13357745"/>
    <nd ref="467768099"/>
    <tag k="bridge" v="yes"/>
    <tag k="highway" v="tertiary"/>
    <tag k="layer" v="1"/>
    <tag k="maxspeed" v="30 mph"/>
    <tag k="source" v="survey"/>
  </way>
  <way id="39118242" version="2" timestamp="2010-05-11T23:08:06Z" changeset="4673522" uid="21502" user="Kevin Steinhardt">
    <nd ref="467768099"/>
    <nd ref="730198261"/>
    <nd ref="467768101"/>
    <tag k="highway" v="tertiary"/>
    <tag k="maxspeed" v="30 mph"/>
    <tag k="name" v="River Lane"/>
    <tag k="source" v="survey"/>
  </way>
  <way id="39118243" version="2" timestamp="2010-05-11T23:08:07Z" changeset="4673522" uid="21502" user="Kevin Steinhardt">
    <nd ref="467768101"/>
    <nd ref="5255516"/>
    <tag k="bridge" v="yes"/>
    <tag k="highway" v="tertiary"/>
    <tag k="layer" v="1"/>
    <tag k="maxspeed" v="30 mph"/>
    <tag k="source" v="survey"/>
  </way>
  <way id="39118244" version="5" timestamp="2021-07-20T04:21:55Z" changeset="108283710" uid="10455633" user="tnayini">
    <nd ref="5255516"/>
    <nd ref="8934701349"/>
    <nd ref="2297219357"/>
    <nd ref="6820009037"/>
    <nd ref="467766948"/>
    <nd ref="264123772"/>
    <tag k="highway" v="tertiary"/>
    <tag k="maxspeed" v="30 mph"/>
    <tag k="name" v="River Lane"/>
    <tag k="source" v="survey"/>
  </way>
  <way id="39118246" version="4" timestamp="2023-07-03T15:08:21Z" changeset="138069173" uid="281267" user="smb1001">
    <nd ref="467768112"/>
    <nd ref="11022887623"/>
    <nd ref="8631878187"/>
    <nd ref="467767461"/>
    <nd ref="467767458"/>
    <nd ref="467768145"/>
    <nd ref="5255509"/>
    <tag k="abutters" v="residential"/>
    <tag k="highway" v="secondary"/>
    <tag k="maxspeed" v="30 mph"/>
    <tag k="name" v="Station Road"/>
    <tag k="ref" v="B1102"/>
    <tag k="source" v="survey"/>
  </way>
  <way id="39118249" version="5" timestamp="2021-04-15T10:49:27Z" changeset="102988309" uid="10170582" user="priymose">
    <nd ref="5255512"/>
    <nd ref="13357672"/>
    <nd ref="8631878206"/>
    <nd ref="6025968213"/>
    <nd ref="467768155"/>
    <nd ref="13336744"/>
    <nd ref="8553545575"/>
    <nd ref="467767615"/>
    <nd ref="13357678"/>
    <tag k="highway" v="tertiary"/>
    <tag k="maxspeed" v="30 mph"/>
    <tag k="name" v="Newmarket Road"/>
    <tag k="source" v="survey"/>
  </way>
  <way id="39118251" version="13" timestamp="2024-06-04T17:45:49Z" changeset="152254778" uid="13341565" user="Falsernet">
    <nd ref="13357678"/>
    <nd ref="13357675"/>
    <nd ref="13336745"/>
    <nd ref="467767617"/>
    <nd ref="13357674"/>
    <nd ref="7944303764"/>
    <nd ref="13336746"/>
    <nd ref="467768203"/>
    <nd ref="467768204"/>
    <nd ref="6474710546"/>
    <nd ref="467767726"/>
    <nd ref="6474710547"/>
    <nd ref="13336747"/>
    <tag k="highway" v="tertiary"/>
    <tag k="lanes" v="2"/>
    <tag k="maxspeed" v="60 mph"/>
    <tag k="maxspeed:type" v="GB:nsl_single"/>
    <tag k="name" v="Newmarket Road"/>
    <tag k="source" v="survey"/>
  </way>
  <way id="39118256" version="7" timestamp="2025-03-15T13:54:03Z" changeset="163651751" uid="5229644" user="Nathan_A_RF">
    <nd ref="24341738"/>
    <nd ref="467767682"/>
    <tag k="bridge" v="yes"/>
    <tag k="cycleway:both" v="no"/>
    <tag k="highway" v="tertiary"/>
    <tag k="lane_markings" v="no"/>
    <tag k="layer" v="1"/>
    <tag k="lit" v="no"/>
    <tag k="maxspeed" v="60 mph"/>
    <tag k="maxspeed:type" v="GB:nsl_single"/>
    <tag k="maxweight" v="7.5"/>
    <tag k="name" v="Fordham Road"/>
    <tag k="surface" v="asphalt"/>
  </way>
  <way id="39118262" version="4" timestamp="2024-04-06T21:23:19Z" changeset="149672472" uid="9385857" user="Road5914">
    <nd ref="467768377"/>
    <nd ref="467768379"/>
    <nd ref="467767706"/>
    <nd ref="11796089730"/>
    <tag k="highway" v="tertiary"/>
    <tag k="name" v="Landwade Road"/>
  </way>
  <way id="39118264" version="8" timestamp="2024-04-06T21:23:19Z" changeset="149672472" uid="9385857" user="Road5914">
    <nd ref="13336707"/>
    <nd ref="11796124476"/>
    <nd ref="11796124506"/>
    <nd ref="13336737"/>
    <nd ref="11796124512"/>
    <nd ref="11796124511"/>
    <nd ref="11796124510"/>
    <nd ref="11796124509"/>
    <nd ref="13336706"/>
    <nd ref="11796124508"/>
    <nd ref="2006391873"/>
    <nd ref="11796124507"/>
    <nd ref="13336738"/>
    <nd ref="30804710"/>
    <nd ref="13336705"/>
    <nd ref="260595503"/>
    <tag k="highway" v="trunk"/>
    <tag k="lanes" v="2"/>
    <tag k="lit" v="no"/>
    <tag k="maxspeed" v="60 mph"/>
    <tag k="maxspeed:type" v="GB:nsl_single"/>
    <tag k="ref" v="A142"/>
    <tag k="sidewalk" v="none"/>
  </way>
  <way id="43175730" version="6" timestamp="2024-04-03T20:25:24Z" changeset="149542413" uid="5229644" user="Nathan_A_RF">
    <nd ref="24341651"/>
    <nd ref="6319474650"/>
    <nd ref="6319474855"/>
    <nd ref="6319475290"/>
    <nd ref="6319474880"/>
    <nd ref="6319465742"/>
    <nd ref="6319475029"/>
    <nd ref="6319475165"/>
    <tag k="highway" v="trunk"/>
    <tag k="lit" v="yes"/>
    <tag k="maxspeed" v="60 mph"/>
    <tag k="maxspeed:type" v="GB:nsl_single"/>
    <tag k="oneway" v="yes"/>
    <tag k="ref" v="A142"/>
  </way>
  <way id="43175731" version="5" timestamp="2024-04-03T20:25:24Z" changeset="149542413" uid="5229644" user="Nathan_A_RF">
    <nd ref="467767482"/>
    <nd ref="6319474785"/>
    <nd ref="6319474881"/>
    <nd ref="6319475172"/>
    <nd ref="6319474638"/>
    <tag k="highway" v="secondary"/>
    <tag k="lit" v="yes"/>
    <tag k="maxspeed" v="60 mph"/>
    <tag k="maxspeed:type" v="GB:nsl_single"/>
    <tag k="name" v="Station Road"/>
    <tag k="oneway" v="yes"/>
    <tag k="ref" v="B1102"/>
  </way>
  <way id="43175732" version="5" timestamp="2024-04-03T20:25:24Z" changeset="149542413" uid="5229644" user="Nathan_A_RF">
    <nd ref="392601766"/>
    <nd ref="6319465746"/>
    <nd ref="5255282"/>
    <nd ref="6319474628"/>
    <nd ref="6319474618"/>
    <nd ref="6319474841"/>
    <tag k="highway" v="secondary"/>
    <tag k="lit" v="yes"/>
    <tag k="maxspeed" v="60 mph"/>
    <tag k="maxspeed:type" v="GB:nsl_single"/>
    <tag k="name" v="Station Road"/>
    <tag k="oneway" v="yes"/>
    <tag k="ref" v="B1102"/>
  </way>
  <way id="43175733" version="6" timestamp="2024-04-03T20:25:24Z" changeset="149542413" uid="5229644" user="Nathan_A_RF">
    <nd ref="24341620"/>
    <nd ref="6319475093"/>
    <nd ref="6319474629"/>
    <nd ref="6319475011"/>
    <nd ref="6319465775"/>
    <nd ref="6319465774"/>
    <nd ref="6319474826"/>
    <tag k="highway" v="trunk"/>
    <tag k="lit" v="yes"/>
    <tag k="maxspeed" v="60 mph"/>
    <tag k="maxspeed:type" v="GB:nsl_single"/>
    <tag k="oneway" v="yes"/>
    <tag k="ref" v="A142"/>
  </way>
  <way id="58931834" version="1" timestamp="2010-05-11T23:08:01Z" changeset="4673522" uid="21502" user="Kevin Steinhardt">
    <nd ref="730198137"/>
    <nd ref="13357685"/>
    <tag k="bridge" v="yes"/>
    <tag k="highway" v="secondary"/>
    <tag k="layer" v="1"/>
    <tag k="source" v="survey"/>
  </way>
  <way id="58931835" version="1" timestamp="2010-05-11T23:08:01Z" changeset="4673522" uid="21502" user="Kevin Steinhardt">
    <nd ref="13357685"/>
    <nd ref="730198160"/>
    <nd ref="13357726"/>
    <nd ref="13357727"/>
    <nd ref="467767943"/>
    <tag k="highway" v="secondary"/>
    <tag k="name" v="Carter Street"/>
    <tag k="ref" v="B1102"/>
    <tag k="source" v="survey"/>
  </way>
  <way id="92484337" version="10" timestamp="2023-12-20T14:43:54Z" changeset="145334483" uid="9385857" user="Road5914">
    <nd ref="13336703"/>
    <nd ref="13336701"/>
    <nd ref="467768460"/>
    <nd ref="13336700"/>
    <nd ref="1371398420"/>
    <nd ref="13336699"/>
    <nd ref="13336698"/>
    <nd ref="1371398245"/>
    <nd ref="1371398578"/>
    <nd ref="13336695"/>
    <nd ref="13336694"/>
    <nd ref="13336693"/>
    <nd ref="13336692"/>
    <nd ref="393129309"/>
    <nd ref="13336690"/>
    <nd ref="13336689"/>
    <nd ref="467768499"/>
    <nd ref="11435073186"/>
    <nd ref="13336688"/>
    <nd ref="1377021945"/>
    <nd ref="13336687"/>
    <nd ref="1371398588"/>
    <nd ref="21774628"/>
    <tag k="highway" v="trunk"/>
    <tag k="lanes" v="2"/>
    <tag k="lit" v="no"/>
    <tag k="maxspeed" v="60 mph"/>
    <tag k="maxspeed:type" v="GB:nsl_single"/>
    <tag k="name" v="Fordham Road"/>
    <tag k="ref" v="A142"/>
    <tag k="sidewalk" v="no"/>
  </way>
  <way id="97047163" version="4" timestamp="2022-02-13T23:12:43Z" changeset="117372269" uid="7463" user="kesterlester">
    <nd ref="263364287"/>
    <nd ref="7372482091"/>
    <nd ref="473805458"/>
    <nd ref="9503623901"/>
    <nd ref="6319474791"/>
    <nd ref="6319475000"/>
    <nd ref="473805430"/>
    <tag k="highway" v="tertiary"/>
    <tag k="name" v="Fordham Road"/>
  </way>
  <way id="97047180" version="1" timestamp="2011-01-28T02:40:54Z" changeset="7109525" uid="4951" user="PeterEastern">
    <nd ref="13336681"/>
    <nd ref="13336682"/>
    <nd ref="13336683"/>
    <nd ref="467767058"/>
    <tag k="highway" v="secondary"/>
    <tag k="name" v="Dane Hill Road"/>
    <tag k="ref" v="B1085"/>
    <tag k="source" v="GPS"/>
  </way>
  <way id="152819182" version="10" timestamp="2025-03-15T13:56:13Z" changeset="163651844" uid="5229644" user="Nathan_A_RF">
    <nd ref="1655950748"/>
    <nd ref="1655950750"/>
    <nd ref="1655950749"/>
    <nd ref="1655950753"/>
    <nd ref="1655950751"/>
    <tag k="cycleway:both" v="no"/>
    <tag k="highway" v="residential"/>
    <tag k="lit" v="no"/>
    <tag k="name" v="Abbey Place"/>
    <tag k="sidewalk" v="no"/>
    <tag k="smoothness" v="good"/>
    <tag k="surface" v="asphalt"/>
  </way>
  <way id="152819183" version="6" timestamp="2024-04-03T20:25:24Z" changeset="149542413" uid="5229644" user="Nathan_A_RF">
    <nd ref="9502452637"/>
    <nd ref="2297219564"/>
    <nd ref="9502452636"/>
    <nd ref="5255261"/>
    <nd ref="5255265"/>
    <nd ref="1895854620"/>
    <tag k="highway" v="secondary"/>
    <tag k="maxspeed" v="60 mph"/>
    <tag k="maxspeed:type" v="GB:nsl_single"/>
    <tag k="name" v="Station Road"/>
    <tag k="ref" v="B1102"/>
  </way>
  <way id="152819184" version="4" timestamp="2023-09-02T12:33:14Z" changeset="140716899" uid="20086345" user="donq1986b">
    <nd ref="1655950756"/>
    <nd ref="1655950750"/>
    <tag k="highway" v="residential"/>
    <tag k="name" v="Abbey Place"/>
    <tag k="sidewalk" v="both"/>
    <tag k="smoothness" v="excellent"/>
    <tag k="surface" v="asphalt"/>
  </way>
  <way id="179240058" version="2" timestamp="2024-04-03T20:25:24Z" changeset="149542413" uid="5229644" user="Nathan_A_RF">
    <nd ref="467768120"/>
    <nd ref="467767482"/>
    <tag k="highway" v="secondary"/>
    <tag k="maxspeed" v="60 mph"/>
    <tag k="maxspeed:type" v="GB:nsl_single"/>
    <tag k="name" v="Station Road"/>
    <tag k="ref" v="B1102"/>
  </way>
  <way id="179240059" version="7" timestamp="2024-04-03T20:25:24Z" changeset="149542413" uid="5229644" user="Nathan_A_RF">
    <nd ref="1895854620"/>
    <nd ref="8269440437"/>
    <nd ref="278781064"/>
    <nd ref="2297219654"/>
    <nd ref="1371305130"/>
    <nd ref="3716141436"/>
    <nd ref="467767484"/>
    <nd ref="6319475034"/>
    <nd ref="8100821057"/>
    <nd ref="467768120"/>
    <tag k="highway" v="secondary"/>
    <tag k="maxspeed" v="50 mph"/>
    <tag k="maxspeed:type" v="sign"/>
    <tag k="name" v="Station Road"/>
    <tag k="ref" v="B1102"/>
  </way>
  <way id="179240060" version="4" timestamp="2024-05-16T06:46:21Z" changeset="151392015" uid="5173844" user="ndrw6">
    <nd ref="1895854621"/>
    <nd ref="5255286"/>
    <nd ref="467767473"/>
    <nd ref="5255499"/>
    <nd ref="467768114"/>
    <nd ref="1046561371"/>
    <nd ref="467767471"/>
    <nd ref="392601767"/>
    <nd ref="5255505"/>
    <nd ref="11909213761"/>
    <nd ref="467768112"/>
    <tag k="highway" v="secondary"/>
    <tag k="maxspeed" v="50 mph"/>
    <tag k="maxspeed:type" v="sign"/>
    <tag k="name" v="Station Road"/>
    <tag k="ref" v="B1102"/>
    <tag k="source" v="survey"/>
  </way>
  <way id="190036834" version="2" timestamp="2012-11-10T14:53:25Z" changeset="13819416" uid="6871" user="smsm1">
    <nd ref="2006344965"/>
    <nd ref="2006344967"/>
    <nd ref="2006344963"/>
    <nd ref="2006391853"/>
    <nd ref="2006344955"/>
    <nd ref="2006344959"/>
    <nd ref="2006344957"/>
    <nd ref="2006344961"/>
    <nd ref="2006344965"/>
    <tag k="addr:postcode" v="CB8 7LG"/>
    <tag k="building" v="warehouse"/>
    <tag k="name" v="City Link"/>
    <tag k="website" v="http://www.city-link.co.uk/our-locations/location/newmarket.html"/>
  </way>
  <way id="220607159" version="2" timestamp="2016-07-11T20:41:36Z" changeset="40665568" uid="242345" user="confusedbuffalo">
    <nd ref="2297082624"/>
    <nd ref="2297082865"/>
    <nd ref="2297082721"/>
    <nd ref="467768076"/>
    <nd ref="2297082624"/>
    <tag k="amenity" v="place_of_worship"/>
    <tag k="building" v="church"/>
    <tag k="denomination" v="wesleyan"/>
    <tag k="name" v="Wesleyan Chapel"/>
    <tag k="religion" v="christian"/>
  </way>
  <way id="220607163" version="5" timestamp="2023-11-02T20:59:52Z" changeset="143549059" uid="504708" user="HillWithSmallFields">
    <nd ref="2297082678"/>
    <nd ref="2297082650"/>
    <nd ref="2297082649"/>
    <nd ref="2297082699"/>
    <nd ref="2297082697"/>
    <nd ref="2297082662"/>
    <nd ref="2297082730"/>
    <nd ref="2297082860"/>
    <nd ref="2297082682"/>
    <nd ref="2297082680"/>
    <nd ref="2297082654"/>
    <nd ref="2297082755"/>
    <nd ref="2297082761"/>
    <nd ref="2297082648"/>
    <nd ref="467766927"/>
    <nd ref="2297082793"/>
    <nd ref="2297082747"/>
    <nd ref="2297082753"/>
    <nd ref="2297082678"/>
    <tag k="amenity" v="place_of_worship"/>
    <tag k="building" v="church"/>
    <tag k="denomination" v="anglican"/>
    <tag k="name" v="St Peter &amp; St Mary Magdalene"/>
    <tag k="ref:dove" v="16615"/>
    <tag k="religion" v="christian"/>
    <tag k="wikidata" v="Q17527677"/>
  </way>
  <way id="220607174" version="3" timestamp="2018-12-18T18:27:32Z" changeset="65589365" uid="364" user="Edward">
    <nd ref="2297082608"/>
    <nd ref="2297082669"/>
    <nd ref="2297082631"/>
    <nd ref="2297082778"/>
    <nd ref="2297082812"/>
    <nd ref="467767760"/>
    <nd ref="2297082608"/>
    <tag k="amenity" v="place_of_worship"/>
    <tag k="building" v="church"/>
    <tag k="name" v="Congregational Church"/>
    <tag k="notes" v="built 1818"/>
    <tag k="religion" v="christian"/>
    <tag k="wikidata" v="Q26616641"/>
  </way>
  <way id="220607181" version="3" timestamp="2018-09-17T09:58:46Z" changeset="62659064" uid="84263" user="Robert Whittaker">
    <nd ref="2297082659"/>
    <nd ref="5911340607"/>
    <nd ref="5911340609"/>
    <nd ref="2297082768"/>
    <nd ref="2297082638"/>
    <nd ref="5911340615"/>
    <nd ref="5911340614"/>
    <nd ref="2297082718"/>
    <nd ref="2297082877"/>
    <nd ref="2297082873"/>
    <nd ref="2297082819"/>
    <nd ref="2297082692"/>
    <nd ref="2297082659"/>
    <tag k="addr:city" v="Ely"/>
    <tag k="addr:housenumber" v="2"/>
    <tag k="addr:postcode" v="CB7 5NG"/>
    <tag k="addr:street" v="Carter Street"/>
    <tag k="addr:village" v="Fordham"/>
    <tag k="amenity" v="community_centre"/>
    <tag k="building" v="yes"/>
    <tag k="name" v="Victoria Hall and Hayward Institute"/>
    <tag k="source:addr" v="pol_branch_list_2018-02"/>
  </way>
  <way id="220625840" version="1" timestamp="2013-05-09T15:53:58Z" changeset="16050026" uid="281267" user="smb1001">
    <nd ref="2297219547"/>
    <nd ref="2297219523"/>
    <nd ref="2297219740"/>
    <nd ref="2297219650"/>
    <nd ref="2297219547"/>
    <tag k="building" v="pavilion"/>
    <tag k="name" v="pavilion"/>
  </way>
  <way id="220625847" version="4" timestamp="2025-04-20T12:43:58Z" changeset="165192221" uid="22792440" user="PayPointPub">
    <nd ref="2297219376"/>
    <nd ref="2297219378"/>
    <nd ref="2297219683"/>
    <nd ref="2297219597"/>
    <nd ref="2297219589"/>
    <nd ref="2297219587"/>
    <nd ref="2297219472"/>
    <nd ref="2297219455"/>
    <nd ref="2297219756"/>
    <nd ref="2297219402"/>
    <nd ref="2297219363"/>
    <nd ref="2297219598"/>
    <nd ref="2297219533"/>
    <nd ref="2297219376"/>
    <tag k="brand" v="Costcutter"/>
    <tag k="brand:wikidata" v="Q5175072"/>
    <tag k="brand:wikipedia" v="en:Costcutter"/>
    <tag k="building" v="yes"/>
    <tag k="name" v="Costcutter"/>
    <tag k="paypoint" v="yes"/>
    <tag k="shop" v="convenience"/>
  </way>
  <way id="220625852" version="1" timestamp="2013-05-09T15:53:58Z" changeset="16050026" uid="281267" user="smb1001">
    <nd ref="2297219588"/>
    <nd ref="2297219469"/>
    <nd ref="2297219574"/>
    <nd ref="2297219444"/>
    <nd ref="2297219433"/>
    <nd ref="2297219474"/>
    <nd ref="2297219407"/>
    <nd ref="2297219727"/>
    <nd ref="2297219588"/>
    <tag k="addr:housenumber" v="21"/>
    <tag k="addr:street" v="Carter Street"/>
    <tag k="building" v="yes"/>
  </way>
  <way id="220625858" version="1" timestamp="2013-05-09T15:53:59Z" changeset="16050026" uid="281267" user="smb1001">
    <nd ref="2297219537"/>
    <nd ref="2297219519"/>
    <nd ref="2297219541"/>
    <nd ref="2297219508"/>
    <nd ref="2297219537"/>
    <tag k="addr:housenumber" v="40"/>
    <tag k="addr:street" v="Carter Street"/>
    <tag k="building" v="yes"/>
  </way>
  <way id="220625876" version="2" timestamp="2023-01-29T00:14:48Z" changeset="131826273" uid="3999" user="BarryMyles">
    <nd ref="2297219755"/>
    <nd ref="2297219733"/>
    <nd ref="2297219535"/>
    <nd ref="10590009977"/>
    <nd ref="2297219721"/>
    <nd ref="2297219482"/>
    <nd ref="2297219755"/>
    <tag k="addr:city" v="Fordham"/>
    <tag k="addr:postcode" v="CB7 5NJ"/>
    <tag k="addr:street" v="Church Street"/>
    <tag k="building" v="yes"/>
    <tag k="name" v="Fordham Cambs Telephone Exchange"/>
    <tag k="operator" v="Openreach"/>
    <tag k="operator:wikidata" v="Q7096543"/>
    <tag k="ref" v="EAFDM"/>
    <tag k="telecom" v="exchange"/>
  </way>
  <way id="220625881" version="1" timestamp="2013-05-09T15:53:59Z" changeset="16050026" uid="281267" user="smb1001">
    <nd ref="2297219510"/>
    <nd ref="2297219715"/>
    <nd ref="2297219693"/>
    <nd ref="2297219623"/>
    <nd ref="2297219725"/>
    <nd ref="2297219604"/>
    <nd ref="2297219510"/>
    <tag k="building" v="pavilion"/>
    <tag k="name" v="pavilion"/>
  </way>
  <way id="220625889" version="1" timestamp="2013-05-09T15:54:00Z" changeset="16050026" uid="281267" user="smb1001">
    <nd ref="2297219591"/>
    <nd ref="2297219759"/>
    <nd ref="2297219411"/>
    <nd ref="2297219618"/>
    <nd ref="2297219752"/>
    <nd ref="2297219504"/>
    <nd ref="2297219591"/>
    <tag k="addr:housenumber" v="38"/>
    <tag k="addr:street" v="Carter Street"/>
    <tag k="building" v="yes"/>
  </way>
  <way id="256692196" version="2" timestamp="2024-01-09T14:05:24Z" changeset="146068427" uid="84263" user="Robert Whittaker">
    <nd ref="2623304223"/>
    <nd ref="2623304227"/>
    <nd ref="2623304229"/>
    <nd ref="2623304231"/>
    <nd ref="2623304223"/>
    <tag k="addr:housenumber" v="23"/>
    <tag k="addr:street" v="New Path"/>
    <tag k="building" v="house"/>
  </way>
  <way id="435051447" version="4" timestamp="2019-03-25T06:57:41Z" changeset="68495141" uid="9451067" user="b-jazz-bot">
    <nd ref="4329888198"/>
    <nd ref="4329888201"/>
    <nd ref="4329888212"/>
    <nd ref="4329888200"/>
    <nd ref="4329888198"/>
    <tag k="addr:housenumber" v="42"/>
    <tag k="addr:postcode" v="CB7 5LW"/>
    <tag k="addr:street" v="Station Road"/>
    <tag k="building" v="retail"/>
    <tag k="name" v="Simpson's Nurseries"/>
    <tag k="shop" v="garden_centre"/>
    <tag k="website" v="https://www.simpsonsnurseries.com/"/>
  </way>
  <way id="451101718" version="3" timestamp="2024-05-16T06:46:21Z" changeset="151392015" uid="5173844" user="ndrw6">
    <nd ref="4479664781"/>
    <nd ref="11909214732"/>
    <nd ref="11909214730"/>
    <nd ref="11909214728"/>
    <nd ref="4479664780"/>
    <nd ref="4479664779"/>
    <nd ref="4479664777"/>
    <nd ref="4479664775"/>
    <nd ref="4479664776"/>
    <nd ref="467767383"/>
    <nd ref="13336740"/>
    <tag k="highway" v="residential"/>
    <tag k="name" v="Rule Gardens"/>
    <tag k="source" v="OS_OpenData_StreetView"/>
  </way>
  <way id="491926229" version="1" timestamp="2017-05-07T16:07:02Z" changeset="48478770" uid="84263" user="Robert Whittaker">
    <nd ref="467767439"/>
    <nd ref="467768085"/>
    <tag k="abutters" v="residential"/>
    <tag k="designation" v="public_footpath"/>
    <tag k="foot" v="designated"/>
    <tag k="highway" v="residential"/>
    <tag k="name" v="Ironbridge Path"/>
    <tag k="prow_ref" v="Fordham FP 12"/>
    <tag k="source:designation" v="cambridgeshire_county_council_prow_gis_data"/>
    <tag k="source:prow_ref" v="cambridgeshire_county_council_prow_gis_data"/>
  </way>
  <way id="516605734" version="1" timestamp="2017-08-18T11:33:35Z" changeset="51230779" uid="84263" user="Robert Whittaker">
    <nd ref="467767123"/>
    <nd ref="467767125"/>
    <nd ref="467767128"/>
    <tag k="designation" v="public_footpath"/>
    <tag k="foot" v="designated"/>
    <tag k="highway" v="residential"/>
    <tag k="name" v="New Path"/>
    <tag k="prow_ref" v="Fordham FP 10"/>
    <tag k="source" v="survey"/>
    <tag k="source:designation" v="cambridgeshire_county_council_prow_gis_data"/>
    <tag k="source:prow_ref" v="cambridgeshire_county_council_prow_gis_data"/>
  </way>
  <way id="522520375" version="3" timestamp="2021-04-14T23:11:19Z" changeset="102955400" uid="11022773" user="GeoFens">
    <nd ref="5089015956"/>
    <nd ref="5089015955"/>
    <nd ref="5089015954"/>
    <nd ref="5089015953"/>
    <nd ref="5089015952"/>
    <nd ref="5089015951"/>
    <nd ref="5089015956"/>
    <tag k="amenity" v="cafe"/>
    <tag k="building" v="yes"/>
    <tag k="name" v="Simpson's Coffee Shop"/>
    <tag k="website" v="https://www.simpsonsnurseries.com/coffee-shop/"/>
  </way>
  <way id="639511754" version="4" timestamp="2023-09-02T12:33:40Z" changeset="140716997" uid="20086345" user="donq1986b">
    <nd ref="6025968222"/>
    <nd ref="6025968221"/>
    <nd ref="6025968217"/>
    <nd ref="6025968218"/>
    <nd ref="6025968220"/>
    <nd ref="6025968219"/>
    <nd ref="6025968222"/>
    <tag k="addr:housenumber" v="7"/>
    <tag k="addr:postcode" v="CB7 5WS"/>
    <tag k="addr:street" v="Abbey Place"/>
    <tag k="building" v="detached"/>
  </way>
  <way id="639511759" version="3" timestamp="2022-03-20T17:01:35Z" changeset="118703678" uid="11022773" user="GeoFens">
    <nd ref="6025968240"/>
    <nd ref="6025968232"/>
    <nd ref="6025968231"/>
    <nd ref="6025968239"/>
    <nd ref="6025968233"/>
    <nd ref="9592432582"/>
    <nd ref="6025968234"/>
    <nd ref="6025968235"/>
    <nd ref="6025968236"/>
    <nd ref="6025968238"/>
    <nd ref="6025968237"/>
    <nd ref="6025968240"/>
    <tag k="addr:postcode" v="CB7 5LH"/>
    <tag k="building" v="yes"/>
    <tag k="name" v="Scotsdales Garden Centre Fordham"/>
    <tag k="operator" v="Scotsdales"/>
    <tag k="shop" v="garden_centre"/>
    <tag k="website" v="https://scotsdalegardencentre.co.uk/store/fordham"/>
  </way>
  <way id="639511788" version="2" timestamp="2019-11-18T14:44:23Z" changeset="77233717" uid="84263" user="Robert Whittaker">
    <nd ref="6025968503"/>
    <nd ref="6025968500"/>
    <nd ref="6025968499"/>
    <nd ref="6025968498"/>
    <nd ref="6025968501"/>
    <nd ref="6025968502"/>
    <nd ref="6025968503"/>
    <tag k="addr:housenumber" v="12"/>
    <tag k="addr:postcode" v="CB7 5LD"/>
    <tag k="addr:street" v="Soham Road"/>
    <tag k="building" v="yes"/>
  </way>
  <way id="654765277" version="2" timestamp="2019-10-27T21:04:37Z" changeset="76276421" uid="84263" user="Robert Whittaker">
    <nd ref="279500071"/>
    <nd ref="279508827"/>
    <nd ref="279494071"/>
    <nd ref="279500077"/>
    <nd ref="4576826305"/>
    <nd ref="279500081"/>
    <nd ref="6135490987"/>
    <nd ref="279500083"/>
    <nd ref="279500087"/>
    <nd ref="6923402030"/>
    <nd ref="6923402029"/>
    <nd ref="279500092"/>
    <tag k="highway" v="unclassified"/>
    <tag k="name" v="Block Road"/>
  </way>
  <way id="674789697" version="2" timestamp="2021-01-08T04:12:47Z" changeset="97140130" uid="322039" user="MacLondon">
    <nd ref="6319475182"/>
    <nd ref="6319475020"/>
    <tag k="bridge" v="yes"/>
    <tag k="bridge:name" v="Fordham Moor Bridge"/>
    <tag k="highway" v="unclassified"/>
    <tag k="layer" v="1"/>
    <tag k="name" v="Fordham Road"/>
    <tag k="source" v="survey"/>
  </way>
  <way id="674789700" version="1" timestamp="2019-03-05T22:30:31Z" changeset="67824101" uid="24119" user="Mauls">
    <nd ref="6319475020"/>
    <nd ref="1603916988"/>
    <nd ref="467767749"/>
    <nd ref="1603916968"/>
    <nd ref="467767751"/>
    <nd ref="1603916946"/>
    <nd ref="467767753"/>
    <tag k="highway" v="unclassified"/>
    <tag k="name" v="Fordham Road"/>
    <tag k="source" v="survey"/>
  </way>
  <way id="674789708" version="4" timestamp="2024-04-03T20:25:24Z" changeset="149542413" uid="5229644" user="Nathan_A_RF">
    <nd ref="6319474587"/>
    <nd ref="6319465783"/>
    <nd ref="6319474841"/>
    <nd ref="6319474823"/>
    <nd ref="6319474985"/>
    <nd ref="6319474872"/>
    <nd ref="6319474820"/>
    <nd ref="6319475133"/>
    <nd ref="6319474802"/>
    <nd ref="6319474589"/>
    <nd ref="6319475140"/>
    <nd ref="6319474655"/>
    <nd ref="6319475090"/>
    <nd ref="6319474612"/>
    <nd ref="6319474652"/>
    <nd ref="6319474831"/>
    <nd ref="6319475139"/>
    <nd ref="6319474648"/>
    <nd ref="6319474826"/>
    <nd ref="6319474632"/>
    <nd ref="6319465730"/>
    <nd ref="6319474800"/>
    <nd ref="6319475052"/>
    <nd ref="6319474654"/>
    <nd ref="6319475050"/>
    <nd ref="6319474637"/>
    <nd ref="6319474843"/>
    <nd ref="6319474991"/>
    <nd ref="6319474674"/>
    <nd ref="6319474638"/>
    <nd ref="6319474658"/>
    <nd ref="6319474819"/>
    <nd ref="6319465736"/>
    <nd ref="6319474879"/>
    <nd ref="6319474647"/>
    <nd ref="6319474613"/>
    <nd ref="6319475307"/>
    <nd ref="6319474883"/>
    <nd ref="6319474659"/>
    <nd ref="6319474840"/>
    <nd ref="6319475160"/>
    <nd ref="6319474877"/>
    <nd ref="6319474634"/>
    <nd ref="6319474804"/>
    <nd ref="6319474814"/>
    <nd ref="6319475165"/>
    <nd ref="6319474828"/>
    <nd ref="6319465769"/>
    <nd ref="6319474825"/>
    <nd ref="6319474873"/>
    <nd ref="6319474989"/>
    <nd ref="6319474633"/>
    <nd ref="6319474649"/>
    <nd ref="6319474657"/>
    <nd ref="6319474653"/>
    <nd ref="6319474641"/>
    <nd ref="6319474587"/>
    <tag k="highway" v="trunk"/>
    <tag k="junction" v="roundabout"/>
    <tag k="lit" v="yes"/>
    <tag k="maxspeed" v="60 mph"/>
    <tag k="maxspeed:type" v="GB:nsl_single"/>
    <tag k="oneway" v="yes"/>
  </way>
  <way id="692104009" version="1" timestamp="2019-05-24T01:48:50Z" changeset="70570039" uid="9196095" user="mhdrahm">
    <nd ref="6496574295"/>
    <nd ref="6496574296"/>
    <nd ref="6496574297"/>
    <nd ref="6496574298"/>
    <nd ref="6496574299"/>
    <nd ref="6496574300"/>
    <tag k="highway" v="residential"/>
  </way>
  <way id="698305669" version="1" timestamp="2019-06-19T16:29:13Z" changeset="71408603" uid="9196095" user="mhdrahm">
    <nd ref="467767239"/>
    <nd ref="6558053483"/>
    <nd ref="6558053484"/>
    <nd ref="6558072685"/>
    <nd ref="6558072686"/>
    <nd ref="6558072687"/>
    <nd ref="6558072688"/>
    <tag k="highway" v="residential"/>
  </way>
  <way id="746662665" version="4" timestamp="2023-04-18T19:14:00Z" changeset="135073672" uid="6816132" user="CjMalone">
    <nd ref="6987397574"/>
    <nd ref="6987397575"/>
    <nd ref="6987397576"/>
    <nd ref="6987397577"/>
    <nd ref="6987397578"/>
    <nd ref="6987397579"/>
    <nd ref="6987397574"/>
    <tag k="building" v="yes"/>
    <tag k="club" v="yes"/>
    <tag k="contact:facebook" v="https://www.facebook.com/fordhamrbl/"/>
    <tag k="name" v="Fordham Royal British Legion Social Club"/>
  </way>
  <way id="746662666" version="3" timestamp="2024-05-16T06:46:21Z" changeset="151392015" uid="5173844" user="ndrw6">
    <nd ref="6987397580"/>
    <nd ref="467767395"/>
    <nd ref="11029100043"/>
    <nd ref="11029100040"/>
    <nd ref="6987397582"/>
    <nd ref="11029100041"/>
    <nd ref="11029100042"/>
    <nd ref="11909214621"/>
    <nd ref="11909214620"/>
    <tag k="highway" v="residential"/>
    <tag k="name" v="Hamilton Gardens"/>
  </way>
  <way id="789316999" version="2" timestamp="2024-05-16T06:46:21Z" changeset="151392015" uid="5173844" user="ndrw6">
    <nd ref="7380320930"/>
    <nd ref="7380320931"/>
    <nd ref="7380320932"/>
    <nd ref="7380320933"/>
    <nd ref="7380320934"/>
    <nd ref="7380320936"/>
    <nd ref="7380320937"/>
    <tag k="highway" v="residential"/>
  </way>
  <way id="928453603" version="1" timestamp="2021-04-09T16:22:20Z" changeset="102657410" uid="11022773" user="GeoFens">
    <nd ref="8612143080"/>
    <nd ref="8612143081"/>
    <nd ref="8612143082"/>
    <nd ref="8612143088"/>
    <nd ref="8612143083"/>
    <nd ref="8612143080"/>
    <tag k="building" v="yes"/>
    <tag k="name" v="DS Smith Impact Centre"/>
  </way>
  <way id="938365486" version="1" timestamp="2021-05-03T10:53:20Z" changeset="104049826" uid="281267" user="smb1001">
    <nd ref="6987397573"/>
    <nd ref="8693366329"/>
    <nd ref="8693366331"/>
    <nd ref="8693366333"/>
    <nd ref="8693366336"/>
    <nd ref="8693366337"/>
    <nd ref="6987397573"/>
    <tag k="addr:housename" v="Gable End"/>
    <tag k="addr:housenumber" v="63"/>
    <tag k="addr:street" v="Mildenhall Road"/>
    <tag k="building" v="residential"/>
  </way>
  <way id="938365487" version="3" timestamp="2024-05-16T06:46:21Z" changeset="151392015" uid="5173844" user="ndrw6">
    <nd ref="11909213542"/>
    <nd ref="11909213543"/>
    <nd ref="11909213544"/>
    <nd ref="11909213545"/>
    <nd ref="11909213546"/>
    <nd ref="11909213547"/>
    <nd ref="8693366332"/>
    <nd ref="11909213548"/>
    <nd ref="8693366330"/>
    <tag k="highway" v="residential"/>
    <tag k="name" v="Victoria Mews"/>
  </way>
  <way id="938365488" version="1" timestamp="2021-05-03T10:53:20Z" changeset="104049826" uid="281267" user="smb1001">
    <nd ref="8693366339"/>
    <nd ref="8693366335"/>
    <nd ref="8693366338"/>
    <nd ref="8693366334"/>
    <nd ref="8693366339"/>
    <tag k="addr:housenumber" v="1"/>
    <tag k="addr:postcode" v="CB7 5XD"/>
    <tag k="addr:street" v="Victoria Mews"/>
    <tag k="building" v="residential"/>
  </way>
  <way id="1008081307" version="4" timestamp="2024-09-12T13:40:06Z" changeset="156529318" uid="5173844" user="ndrw6">
    <nd ref="5255639"/>
    <nd ref="12172543299"/>
    <nd ref="9300159213"/>
    <nd ref="11909213290"/>
    <nd ref="11909213289"/>
    <nd ref="11909213291"/>
    <nd ref="11909213294"/>
    <nd ref="9300159212"/>
    <nd ref="9300159209"/>
    <nd ref="9300159211"/>
    <nd ref="9300159210"/>
    <tag k="highway" v="residential"/>
    <tag k="name" v="Hares Run"/>
  </way>
  <way id="1041998892" version="4" timestamp="2024-05-17T07:06:41Z" changeset="151438850" uid="5173844" user="ndrw6">
    <nd ref="11463228557"/>
    <nd ref="9592419468"/>
    <nd ref="11911763792"/>
    <nd ref="11050901249"/>
    <nd ref="11050901248"/>
    <nd ref="9300159210"/>
    <tag k="highway" v="residential"/>
    <tag k="name" v="Bohemia Place"/>
  </way>
  <way id="1041998893" version="2" timestamp="2023-07-17T11:37:26Z" changeset="138617941" uid="8774347" user="Misa_zumba">
    <nd ref="9300159210"/>
    <nd ref="11050901253"/>
    <nd ref="11050901252"/>
    <nd ref="11050901251"/>
    <nd ref="11050901250"/>
    <nd ref="9592419469"/>
    <tag k="highway" v="residential"/>
    <tag k="name" v="King James Close"/>
  </way>
  <way id="1044360504" version="1" timestamp="2022-03-26T22:06:33Z" changeset="118964087" uid="11022773" user="GeoFens">
    <nd ref="9609840031"/>
    <nd ref="9609840032"/>
    <nd ref="9609840033"/>
    <nd ref="9609840034"/>
    <nd ref="9609840031"/>
    <tag k="building" v="yes"/>
    <tag k="name" v="Fordham Abbey"/>
  </way>
  <way id="1044360505" version="1" timestamp="2022-03-26T22:06:33Z" changeset="118964087" uid="11022773" user="GeoFens">
    <nd ref="9609840035"/>
    <nd ref="9609840036"/>
    <nd ref="9609840037"/>
    <nd ref="9609840038"/>
    <nd ref="9609840035"/>
    <tag k="building" v="yes"/>
    <tag k="craft" v="brewery"/>
    <tag k="name" v="Dojima Sake Brewery"/>
    <tag k="website" v="https://www.fordhamabbey.co.uk/dojima-sake-brewery/"/>
  </way>
  <way id="1044575149" version="1" timestamp="2022-03-27T21:01:37Z" changeset="118996277" uid="11022773" user="GeoFens">
    <nd ref="9611625476"/>
    <nd ref="9611625477"/>
    <nd ref="9611625478"/>
    <nd ref="9611625479"/>
    <nd ref="9611625476"/>
    <tag k="brand" v="The Scout Association"/>
    <tag k="brand:wikidata" v="Q849740"/>
    <tag k="brand:wikipedia" v="en:The Scout Association"/>
    <tag k="building" v="yes"/>
    <tag k="club" v="scout"/>
    <tag k="name" v="Fordham Scout Hut"/>
  </way>
  <way id="1102870696" version="2" timestamp="2024-04-06T21:23:19Z" changeset="149672472" uid="9385857" user="Road5914">
    <nd ref="24341715"/>
    <nd ref="304514404"/>
    <nd ref="11796124480"/>
    <nd ref="7611352980"/>
    <tag k="highway" v="tertiary"/>
    <tag k="name" v="Snailwell Road"/>
  </way>
  <way id="1102870697" version="4" timestamp="2024-06-04T17:45:49Z" changeset="152254778" uid="13341565" user="Falsernet">
    <nd ref="13336716"/>
    <nd ref="11796089743"/>
    <nd ref="11796089740"/>
    <nd ref="11796124505"/>
    <nd ref="11796089741"/>
    <nd ref="11796089742"/>
    <nd ref="10092099374"/>
    <tag k="highway" v="trunk"/>
    <tag k="lanes" v="1"/>
    <tag k="lit" v="yes"/>
    <tag k="maxspeed" v="60 mph"/>
    <tag k="maxspeed:type" v="GB:nsl_single"/>
    <tag k="name" v="Newmarket Road"/>
    <tag k="oneway" v="yes"/>
    <tag k="ref" v="A142"/>
  </way>
  <way id="1186877802" version="4" timestamp="2024-05-17T21:26:14Z" changeset="151472442" uid="5173844" user="ndrw6">
    <nd ref="11022886774"/>
    <nd ref="11022886763"/>
    <nd ref="11653281410"/>
    <nd ref="11914264642"/>
    <nd ref="11022886779"/>
    <nd ref="11022886776"/>
    <nd ref="11653281403"/>
    <nd ref="11022886751"/>
    <nd ref="11909214332"/>
    <nd ref="11653281402"/>
    <nd ref="11914264724"/>
    <nd ref="11022886769"/>
    <nd ref="11914264723"/>
    <nd ref="11022886767"/>
    <nd ref="11653214625"/>
    <nd ref="11022886757"/>
    <nd ref="11653214627"/>
    <nd ref="11022886773"/>
    <nd ref="11022886761"/>
    <nd ref="11914264508"/>
    <nd ref="11914264677"/>
    <tag k="highway" v="residential"/>
    <tag k="name" v="Ash Road"/>
  </way>
  <way id="1186877803" version="3" timestamp="2024-05-17T21:26:14Z" changeset="151472442" uid="5173844" user="ndrw6">
    <nd ref="11022886772"/>
    <nd ref="11022886749"/>
    <nd ref="11914264586"/>
    <nd ref="11653214605"/>
    <nd ref="11022886773"/>
    <tag k="highway" v="residential"/>
    <tag k="name" v="Elm Drive"/>
  </way>
  <way id="1186877806" version="3" timestamp="2024-05-17T21:26:14Z" changeset="151472442" uid="5173844" user="ndrw6">
    <nd ref="11022886759"/>
    <nd ref="11022886778"/>
    <nd ref="11914264584"/>
    <nd ref="11914264583"/>
    <nd ref="11914264633"/>
    <nd ref="11022886750"/>
    <nd ref="11653281407"/>
    <nd ref="11914264582"/>
    <nd ref="11022886767"/>
    <tag k="highway" v="residential"/>
    <tag k="name" v="Beech Close"/>
  </way>
  <way id="1186877807" version="3" timestamp="2024-05-17T21:26:14Z" changeset="151472442" uid="5173844" user="ndrw6">
    <nd ref="11022886747"/>
    <nd ref="11909214330"/>
    <nd ref="11022886753"/>
    <nd ref="11909214331"/>
    <nd ref="11914264647"/>
    <nd ref="11022886751"/>
    <tag k="highway" v="residential"/>
    <tag k="name" v="Poplar Avenue"/>
  </way>
  <way id="1186877809" version="3" timestamp="2024-05-17T21:26:14Z" changeset="151472442" uid="5173844" user="ndrw6">
    <nd ref="11022886779"/>
    <nd ref="11022886762"/>
    <nd ref="11914264721"/>
    <nd ref="11022886750"/>
    <tag k="highway" v="residential"/>
    <tag k="name" v="Maple Way"/>
  </way>
  <way id="1186878450" version="1" timestamp="2023-07-03T15:08:21Z" changeset="138069173" uid="281267" user="smb1001">
    <nd ref="11022887628"/>
    <nd ref="11022887630"/>
    <nd ref="11022887624"/>
    <nd ref="11022887629"/>
    <nd ref="11022887627"/>
    <nd ref="11022887623"/>
    <tag k="highway" v="residential"/>
    <tag k="name" v="Terence Place"/>
  </way>
  <way id="1187765353" version="1" timestamp="2023-07-06T05:44:26Z" changeset="138171898" uid="16163347" user="tkammasu">
    <nd ref="11029100044"/>
    <nd ref="11029100047"/>
    <nd ref="11029100045"/>
    <nd ref="11029100046"/>
    <tag k="highway" v="residential"/>
  </way>
  <way id="1190155530" version="2" timestamp="2024-05-17T07:06:41Z" changeset="151438850" uid="5173844" user="ndrw6">
    <nd ref="11050901255"/>
    <nd ref="11911763771"/>
    <nd ref="11050901254"/>
    <tag k="highway" v="residential"/>
    <tag k="name" v="King James Close"/>
  </way>
  <way id="1190155531" version="3" timestamp="2024-05-17T07:06:41Z" changeset="151438850" uid="5173844" user="ndrw6">
    <nd ref="11050901257"/>
    <nd ref="11909213300"/>
    <nd ref="11911763834"/>
    <nd ref="11911763833"/>
    <nd ref="11911763835"/>
    <nd ref="11911742356"/>
    <nd ref="9592419469"/>
    <nd ref="11911742359"/>
    <nd ref="11050901255"/>
    <nd ref="11911763727"/>
    <nd ref="11050901256"/>
    <tag k="highway" v="residential"/>
    <tag k="name" v="King James Close"/>
  </way>
  <way id="1190155793" version="2" timestamp="2024-05-17T21:26:14Z" changeset="151472442" uid="5173844" user="ndrw6">
    <nd ref="11022886762"/>
    <nd ref="11914264564"/>
    <nd ref="11050879631"/>
    <tag k="highway" v="residential"/>
    <tag k="name" v="Maple Way"/>
  </way>
  <way id="1190157705" version="2" timestamp="2024-05-16T06:46:21Z" changeset="151392015" uid="5173844" user="ndrw6">
    <nd ref="4479664781"/>
    <nd ref="11050919335"/>
    <nd ref="11050919334"/>
    <nd ref="11050919333"/>
    <nd ref="11050919330"/>
    <nd ref="11050919329"/>
    <nd ref="11050919328"/>
    <nd ref="11050919327"/>
    <nd ref="11050919324"/>
    <nd ref="11050919325"/>
    <tag k="highway" v="residential"/>
    <tag k="name" v="Rule Gardens"/>
  </way>
  <way id="1190157707" version="2" timestamp="2024-05-16T06:46:21Z" changeset="151392015" uid="5173844" user="ndrw6">
    <nd ref="11909214923"/>
    <nd ref="11050919341"/>
    <nd ref="11909214921"/>
    <nd ref="11050919344"/>
    <nd ref="11050919339"/>
    <nd ref="11050919338"/>
    <nd ref="11050919340"/>
    <tag k="highway" v="residential"/>
  </way>
  <way id="1190157708" version="2" timestamp="2024-05-16T06:46:21Z" changeset="151392015" uid="5173844" user="ndrw6">
    <nd ref="11050919343"/>
    <nd ref="11909214897"/>
    <nd ref="11909214896"/>
    <nd ref="11050919342"/>
    <tag k="highway" v="residential"/>
  </way>
  <way id="1190157709" version="3" timestamp="2024-05-16T06:46:21Z" changeset="151392015" uid="5173844" user="ndrw6">
    <nd ref="11050919355"/>
    <nd ref="11050919352"/>
    <nd ref="11050919354"/>
    <nd ref="11050919351"/>
    <nd ref="11050919350"/>
    <nd ref="11050919347"/>
    <nd ref="11050919349"/>
    <nd ref="11050919346"/>
    <nd ref="11050919345"/>
    <nd ref="11050919348"/>
    <nd ref="11050919343"/>
    <nd ref="11050919344"/>
    <tag k="highway" v="residential"/>
    <tag k="name" v="Bishops Field"/>
  </way>
  <way id="1190157710" version="2" timestamp="2024-05-16T06:46:21Z" changeset="151392015" uid="5173844" user="ndrw6">
    <nd ref="11050919373"/>
    <nd ref="11050919372"/>
    <nd ref="11050919371"/>
    <nd ref="11050919370"/>
    <nd ref="11050919369"/>
    <nd ref="11050919368"/>
    <nd ref="11050919367"/>
    <nd ref="11050919366"/>
    <nd ref="11050919363"/>
    <nd ref="11050919365"/>
    <nd ref="11050919360"/>
    <nd ref="11050919362"/>
    <nd ref="11050919358"/>
    <nd ref="11050919357"/>
    <nd ref="11050919361"/>
    <nd ref="11050919356"/>
    <nd ref="11050919355"/>
    <tag k="highway" v="residential"/>
    <tag k="name" v="Bishops Field"/>
  </way>
  <way id="1204406152" version="7" timestamp="2025-03-15T13:56:13Z" changeset="163651844" uid="5229644" user="Nathan_A_RF">
    <nd ref="1655950754"/>
    <nd ref="6025968216"/>
    <nd ref="1655950748"/>
    <tag k="cycleway:both" v="no"/>
    <tag k="highway" v="residential"/>
    <tag k="lane_markings" v="no"/>
    <tag k="lit" v="no"/>
    <tag k="name" v="Abbey Place"/>
    <tag k="sidewalk" v="no"/>
    <tag k="smoothness" v="good"/>
    <tag k="surface" v="paving_stones"/>
  </way>
  <way id="1223636344" version="3" timestamp="2025-04-20T12:43:58Z" changeset="165192221" uid="22792440" user="PayPointPub">
    <nd ref="11349939007"/>
    <nd ref="11349939008"/>
    <nd ref="11349939009"/>
    <nd ref="11349939010"/>
    <nd ref="11349939007"/>
    <tag k="brand" v="Co-op Food"/>
    <tag k="brand:wikidata" v="Q3277439"/>
    <tag k="building" v="yes"/>
    <tag k="check_date" v="2024-07-15"/>
    <tag k="check_date:opening_hours" v="2024-07-15"/>
    <tag k="name" v="Co-op Food"/>
    <tag k="opening_hours" v="Mo-Su 07:00-22:00"/>
    <tag k="operator" v="The Co-operative Group"/>
    <tag k="operator:wikidata" v="Q117202"/>
    <tag k="paypoint" v="yes"/>
    <tag k="shop" v="supermarket"/>
    <tag k="website" v="https://www.coop.co.uk/store-finder/CB7-5JT/58-62-carter-street"/>
  </way>
  <way id="1234960230" version="4" timestamp="2024-09-12T13:40:06Z" changeset="156529318" uid="5173844" user="ndrw6">
    <nd ref="11463228551"/>
    <nd ref="11911763794"/>
    <nd ref="11911763680"/>
    <nd ref="11463228557"/>
    <nd ref="11909213286"/>
    <tag k="highway" v="residential"/>
    <tag k="name" v="Bohemia Place"/>
  </way>
  <way id="1234960231" version="4" timestamp="2024-09-12T13:40:06Z" changeset="156529318" uid="5173844" user="ndrw6">
    <nd ref="11463228553"/>
    <nd ref="11463228554"/>
    <nd ref="11911763697"/>
    <nd ref="11463228552"/>
    <nd ref="11909213280"/>
    <tag k="highway" v="residential"/>
    <tag k="name" v="Bohemia Place"/>
  </way>
  <way id="1234960232" version="3" timestamp="2024-09-12T13:40:06Z" changeset="156529318" uid="5173844" user="ndrw6">
    <nd ref="9592419468"/>
    <nd ref="11911763670"/>
    <nd ref="11463228556"/>
    <nd ref="11463228555"/>
    <nd ref="11463228554"/>
    <tag k="highway" v="residential"/>
    <tag k="name" v="Bohemia Place"/>
  </way>
  <way id="1234960243" version="1" timestamp="2023-12-28T16:48:02Z" changeset="145628525" uid="242345" user="confusedbuffalo">
    <nd ref="11463228609"/>
    <nd ref="11463228608"/>
    <nd ref="11463228607"/>
    <nd ref="11463228606"/>
    <nd ref="11463228605"/>
    <nd ref="11463228604"/>
    <nd ref="7846232717"/>
    <tag k="highway" v="residential"/>
    <tag k="name" v="Arthurs Way"/>
    <tag k="postal_code" v="CB7 5UR"/>
  </way>
  <way id="1253663676" version="2" timestamp="2024-05-17T21:26:14Z" changeset="151472442" uid="5173844" user="ndrw6">
    <nd ref="11022886767"/>
    <nd ref="11653214621"/>
    <nd ref="11653214620"/>
    <nd ref="11653214619"/>
    <nd ref="11914264716"/>
    <nd ref="11653214618"/>
    <tag k="highway" v="residential"/>
  </way>
  <way id="1253663684" version="2" timestamp="2024-05-16T06:46:21Z" changeset="151392015" uid="5173844" user="ndrw6">
    <nd ref="11022886747"/>
    <nd ref="11653281400"/>
    <nd ref="11909214287"/>
    <nd ref="11653281399"/>
    <tag k="highway" v="residential"/>
    <tag k="name" v="Poplar Avenue"/>
  </way>
  <way id="1253663689" version="1" timestamp="2024-02-22T16:25:25Z" changeset="147780463" uid="1287673" user="sloerunner">
    <nd ref="11653281409"/>
    <nd ref="11022886774"/>
    <nd ref="11653281408"/>
    <tag k="highway" v="residential"/>
    <tag k="name" v="Ash Road"/>
  </way>
  <way id="1258749805" version="2" timestamp="2024-04-03T20:25:24Z" changeset="149542413" uid="5229644" user="Nathan_A_RF">
    <nd ref="279525739"/>
    <nd ref="9502452637"/>
    <tag k="bridge" v="yes"/>
    <tag k="highway" v="secondary"/>
    <tag k="layer" v="1"/>
    <tag k="maxspeed" v="60 mph"/>
    <tag k="maxspeed:type" v="GB:nsl_single"/>
    <tag k="name" v="Station Road"/>
    <tag k="ref" v="B1102"/>
  </way>
  <way id="1268824843" version="1" timestamp="2024-04-03T20:25:24Z" changeset="149542413" uid="5229644" user="Nathan_A_RF">
    <nd ref="11784586583"/>
    <nd ref="24341661"/>
    <nd ref="6319474631"/>
    <nd ref="24341664"/>
    <nd ref="279557793"/>
    <nd ref="24341675"/>
    <tag k="highway" v="trunk"/>
    <tag k="lanes" v="2"/>
    <tag k="maxspeed" v="60 mph"/>
    <tag k="maxspeed:type" v="GB:nsl_single"/>
    <tag k="ref" v="A142"/>
  </way>
  <way id="1268824844" version="1" timestamp="2024-04-03T20:25:24Z" changeset="149542413" uid="5229644" user="Nathan_A_RF">
    <nd ref="24341659"/>
    <nd ref="6319475013"/>
    <nd ref="6319475293"/>
    <nd ref="6319475044"/>
    <nd ref="11784586583"/>
    <tag k="highway" v="trunk"/>
    <tag k="lanes" v="3"/>
    <tag k="maxspeed" v="60 mph"/>
    <tag k="maxspeed:type" v="GB:nsl_single"/>
    <tag k="ref" v="A142"/>
  </way>
  <way id="1270447388" version="1" timestamp="2024-04-06T21:23:19Z" changeset="149672472" uid="9385857" user="Road5914">
    <nd ref="13336714"/>
    <nd ref="11796089735"/>
    <nd ref="11796089738"/>
    <nd ref="11796124495"/>
    <nd ref="11796089737"/>
    <nd ref="11796089736"/>
    <nd ref="11796089730"/>
    <tag k="highway" v="tertiary"/>
    <tag k="name" v="Landwade Road"/>
    <tag k="oneway" v="yes"/>
  </way>
  <way id="1270447389" version="1" timestamp="2024-04-06T21:23:19Z" changeset="149672472" uid="9385857" user="Road5914">
    <nd ref="13336709"/>
    <nd ref="11796124475"/>
    <nd ref="11796124472"/>
    <nd ref="11796124474"/>
    <nd ref="13336707"/>
    <tag k="highway" v="trunk"/>
    <tag k="lanes" v="1"/>
    <tag k="lit" v="no"/>
    <tag k="maxspeed" v="60 mph"/>
    <tag k="maxspeed:type" v="GB:nsl_single"/>
    <tag k="oneway" v="yes"/>
    <tag k="ref" v="A142"/>
    <tag k="sidewalk" v="none"/>
  </way>
  <way id="1270447390" version="1" timestamp="2024-04-06T21:23:19Z" changeset="149672472" uid="9385857" user="Road5914">
    <nd ref="13336710"/>
    <nd ref="11796089739"/>
    <nd ref="705660979"/>
    <nd ref="10092099375"/>
    <nd ref="24341715"/>
    <tag k="highway" v="tertiary"/>
    <tag k="name" v="Snailwell Road"/>
    <tag k="oneway" v="yes"/>
  </way>
  <way id="1270447391" version="1" timestamp="2024-04-06T21:23:19Z" changeset="149672472" uid="9385857" user="Road5914">
    <nd ref="24341715"/>
    <nd ref="11796089744"/>
    <nd ref="11796089745"/>
    <nd ref="11796089746"/>
    <nd ref="11796089747"/>
    <nd ref="11796089748"/>
    <nd ref="11796089749"/>
    <nd ref="11796089750"/>
    <tag k="highway" v="tertiary"/>
    <tag k="name" v="Snailwell Road"/>
    <tag k="oneway" v="yes"/>
  </way>
  <way id="1270447392" version="1" timestamp="2024-04-06T21:23:19Z" changeset="149672472" uid="9385857" user="Road5914">
    <nd ref="11796089730"/>
    <nd ref="11796089751"/>
    <nd ref="11796089752"/>
    <nd ref="11796089753"/>
    <nd ref="11796124494"/>
    <nd ref="11796089754"/>
    <nd ref="11796089731"/>
    <tag k="highway" v="tertiary"/>
    <tag k="name" v="Landwade Road"/>
    <tag k="oneway" v="yes"/>
  </way>
  <way id="1270447393" version="1" timestamp="2024-04-06T21:23:19Z" changeset="149672472" uid="9385857" user="Road5914">
    <nd ref="13336707"/>
    <nd ref="11796089755"/>
    <nd ref="11796089756"/>
    <nd ref="11796089757"/>
    <nd ref="11796089758"/>
    <nd ref="11796124496"/>
    <nd ref="11796089759"/>
    <nd ref="705660981"/>
    <tag k="highway" v="trunk"/>
    <tag k="lanes" v="2"/>
    <tag k="lit" v="no"/>
    <tag k="maxspeed" v="60 mph"/>
    <tag k="maxspeed:type" v="GB:nsl_single"/>
    <tag k="oneway" v="yes"/>
    <tag k="ref" v="A142"/>
    <tag k="sidewalk" v="none"/>
  </way>
  <way id="1270447394" version="2" timestamp="2024-06-04T17:45:49Z" changeset="152254778" uid="13341565" user="Falsernet">
    <nd ref="11796089762"/>
    <nd ref="11796089763"/>
    <nd ref="11796089764"/>
    <nd ref="11796089765"/>
    <nd ref="11796089766"/>
    <tag k="highway" v="trunk"/>
    <tag k="lanes" v="2"/>
    <tag k="lit" v="no"/>
    <tag k="maxspeed" v="60 mph"/>
    <tag k="maxspeed:type" v="GB:nsl_single"/>
    <tag k="name" v="Newmarket Road"/>
    <tag k="oneway" v="yes"/>
    <tag k="ref" v="A142"/>
    <tag k="sidewalk" v="none"/>
  </way>
  <way id="1270447395" version="2" timestamp="2024-06-04T17:45:49Z" changeset="152254778" uid="13341565" user="Falsernet">
    <nd ref="11796124477"/>
    <nd ref="467767619"/>
    <nd ref="13336724"/>
    <nd ref="11796124479"/>
    <tag k="highway" v="trunk"/>
    <tag k="lanes" v="3"/>
    <tag k="lit" v="yes"/>
    <tag k="maxspeed" v="60 mph"/>
    <tag k="maxspeed:type" v="GB:nsl_single"/>
    <tag k="name" v="Newmarket Road"/>
    <tag k="ref" v="A142"/>
  </way>
  <way id="1270447396" version="2" timestamp="2024-06-04T17:45:49Z" changeset="152254778" uid="13341565" user="Falsernet">
    <nd ref="11796124479"/>
    <nd ref="11796124478"/>
    <nd ref="10092099374"/>
    <tag k="highway" v="trunk"/>
    <tag k="lanes" v="2"/>
    <tag k="lit" v="yes"/>
    <tag k="maxspeed" v="60 mph"/>
    <tag k="maxspeed:type" v="GB:nsl_single"/>
    <tag k="name" v="Newmarket Road"/>
    <tag k="ref" v="A142"/>
  </way>
  <way id="1270447397" version="2" timestamp="2024-06-04T17:45:49Z" changeset="152254778" uid="13341565" user="Falsernet">
    <nd ref="10092099374"/>
    <nd ref="11796089760"/>
    <nd ref="11796089761"/>
    <nd ref="11796089762"/>
    <tag k="highway" v="trunk"/>
    <tag k="lanes" v="1"/>
    <tag k="lit" v="no"/>
    <tag k="maxspeed" v="60 mph"/>
    <tag k="maxspeed:type" v="GB:nsl_single"/>
    <tag k="name" v="Newmarket Road"/>
    <tag k="oneway" v="yes"/>
    <tag k="ref" v="A142"/>
    <tag k="sidewalk" v="none"/>
  </way>
  <way id="1270448746" version="2" timestamp="2024-06-04T17:45:49Z" changeset="152254778" uid="13341565" user="Falsernet">
    <nd ref="13336730"/>
    <nd ref="11796095429"/>
    <nd ref="11796095428"/>
    <nd ref="11796095427"/>
    <nd ref="11796095426"/>
    <nd ref="11796095425"/>
    <nd ref="11796095424"/>
    <nd ref="13336726"/>
    <tag k="highway" v="trunk"/>
    <tag k="lanes" v="2"/>
    <tag k="lit" v="yes"/>
    <tag k="maxspeed" v="60 mph"/>
    <tag k="maxspeed:type" v="GB:nsl_single"/>
    <tag k="name" v="Newmarket Road"/>
    <tag k="oneway" v="yes"/>
    <tag k="ref" v="A142"/>
    <tag k="surface" v="asphalt"/>
  </way>
  <way id="1270448747" version="2" timestamp="2024-06-04T17:45:49Z" changeset="152254778" uid="13341565" user="Falsernet">
    <nd ref="705660976"/>
    <nd ref="11796095440"/>
    <nd ref="11796095439"/>
    <nd ref="11796095438"/>
    <nd ref="11796095436"/>
    <nd ref="11796095430"/>
    <tag k="highway" v="trunk"/>
    <tag k="lanes" v="2"/>
    <tag k="lit" v="no"/>
    <tag k="maxspeed" v="60 mph"/>
    <tag k="maxspeed:type" v="GB:nsl_single"/>
    <tag k="oneway" v="yes"/>
    <tag k="ref" v="A142"/>
    <tag k="surface" v="asphalt"/>
  </way>
  <way id="1270448748" version="2" timestamp="2024-06-04T17:45:49Z" changeset="152254778" uid="13341565" user="Falsernet">
    <nd ref="11796095430"/>
    <nd ref="13336733"/>
    <nd ref="11796095432"/>
    <nd ref="11796095433"/>
    <nd ref="11796095434"/>
    <nd ref="11796095435"/>
    <nd ref="467767715"/>
    <tag k="highway" v="trunk"/>
    <tag k="lanes" v="2"/>
    <tag k="lit" v="no"/>
    <tag k="maxspeed" v="60 mph"/>
    <tag k="maxspeed:type" v="GB:nsl_single"/>
    <tag k="oneway" v="yes"/>
    <tag k="ref" v="A142"/>
    <tag k="surface" v="asphalt"/>
  </way>
  <way id="1270448749" version="2" timestamp="2024-06-04T17:45:49Z" changeset="152254778" uid="13341565" user="Falsernet">
    <nd ref="13336726"/>
    <nd ref="705660977"/>
    <nd ref="11796095421"/>
    <nd ref="11796095422"/>
    <nd ref="11796095423"/>
    <nd ref="13336731"/>
    <tag k="highway" v="trunk"/>
    <tag k="lanes" v="2"/>
    <tag k="lit" v="yes"/>
    <tag k="maxspeed" v="60 mph"/>
    <tag k="maxspeed:type" v="GB:nsl_single"/>
    <tag k="name" v="Newmarket Road"/>
    <tag k="oneway" v="yes"/>
    <tag k="ref" v="A142"/>
    <tag k="surface" v="asphalt"/>
  </way>
  <way id="1270448750" version="2" timestamp="2024-06-04T17:45:49Z" changeset="152254778" uid="13341565" user="Falsernet">
    <nd ref="705660983"/>
    <nd ref="11796095448"/>
    <nd ref="11796095449"/>
    <nd ref="11796095450"/>
    <nd ref="13336747"/>
    <tag k="highway" v="tertiary"/>
    <tag k="lanes" v="2"/>
    <tag k="maxspeed" v="60 mph"/>
    <tag k="maxspeed:type" v="GB:nsl_single"/>
    <tag k="name" v="Newmarket Road"/>
    <tag k="oneway" v="yes"/>
    <tag k="source" v="survey"/>
    <tag k="surface" v="asphalt"/>
  </way>
  <way id="1270448751" version="2" timestamp="2024-06-04T17:45:49Z" changeset="152254778" uid="13341565" user="Falsernet">
    <nd ref="13336747"/>
    <nd ref="11796095442"/>
    <nd ref="11796095443"/>
    <nd ref="11796095444"/>
    <nd ref="11796095445"/>
    <nd ref="11796095446"/>
    <nd ref="11796095447"/>
    <tag k="highway" v="tertiary"/>
    <tag k="lanes" v="2"/>
    <tag k="maxspeed" v="60 mph"/>
    <tag k="maxspeed:type" v="GB:nsl_single"/>
    <tag k="name" v="Newmarket Road"/>
    <tag k="oneway" v="yes"/>
    <tag k="source" v="survey"/>
    <tag k="surface" v="asphalt"/>
  </way>
  <way id="1283532132" version="1" timestamp="2024-05-16T06:46:21Z" changeset="151392015" uid="5173844" user="ndrw6">
    <nd ref="11909213285"/>
    <nd ref="11050901256"/>
    <nd ref="11909213284"/>
    <nd ref="11909213283"/>
    <nd ref="11909213282"/>
    <nd ref="11909213281"/>
    <tag k="highway" v="residential"/>
    <tag k="name" v="King James Close"/>
  </way>
  <way id="1283532133" version="3" timestamp="2024-09-12T13:40:06Z" changeset="156529318" uid="5173844" user="ndrw6">
    <nd ref="11909213289"/>
    <nd ref="11911742347"/>
    <nd ref="11909213288"/>
    <nd ref="11909213287"/>
    <tag k="highway" v="residential"/>
    <tag k="name" v="Hares Run"/>
  </way>
  <way id="1283532134" version="3" timestamp="2024-09-12T13:40:06Z" changeset="156529318" uid="5173844" user="ndrw6">
    <nd ref="11909213294"/>
    <nd ref="11911763691"/>
    <nd ref="11909213293"/>
    <nd ref="11909213292"/>
    <tag k="highway" v="residential"/>
    <tag k="name" v="Hares Run"/>
  </way>
  <way id="1283532135" version="2" timestamp="2024-09-12T13:40:06Z" changeset="156529318" uid="5173844" user="ndrw6">
    <nd ref="11909213298"/>
    <nd ref="11909213299"/>
    <nd ref="11909213297"/>
    <nd ref="11909213296"/>
    <nd ref="11909213295"/>
    <tag k="highway" v="residential"/>
    <tag k="name" v="King James Close"/>
  </way>
  <way id="1283532136" version="2" timestamp="2024-09-12T13:40:06Z" changeset="156529318" uid="5173844" user="ndrw6">
    <nd ref="11909213300"/>
    <nd ref="11909213299"/>
    <tag k="highway" v="residential"/>
    <tag k="name" v="King James Close"/>
  </way>
  <way id="1283532175" version="2" timestamp="2024-09-12T13:40:06Z" changeset="156529318" uid="5173844" user="ndrw6">
    <nd ref="11909213444"/>
    <nd ref="11909213443"/>
    <nd ref="11909213442"/>
    <nd ref="11909213441"/>
    <nd ref="11909213444"/>
    <tag k="addr:city" v="Fordham"/>
    <tag k="addr:housenumber" v="3"/>
    <tag k="addr:postcode" v="CB7 5XJ"/>
    <tag k="addr:street" v="Bohemia Place"/>
    <tag k="addr:village" v="Fordham"/>
    <tag k="building" v="house"/>
  </way>
  <way id="1283532201" version="1" timestamp="2024-05-16T06:46:21Z" changeset="151392015" uid="5173844" user="ndrw6">
    <nd ref="11909213545"/>
    <nd ref="11909213539"/>
    <tag k="highway" v="residential"/>
    <tag k="name" v="Victoria Mews"/>
  </way>
  <way id="1283532202" version="1" timestamp="2024-05-16T06:46:21Z" changeset="151392015" uid="5173844" user="ndrw6">
    <nd ref="11909213544"/>
    <nd ref="11909213541"/>
    <nd ref="11909213540"/>
    <tag k="highway" v="residential"/>
  </way>
  <way id="1283532241" version="1" timestamp="2024-05-16T06:46:21Z" changeset="151392015" uid="5173844" user="ndrw6">
    <nd ref="11909213761"/>
    <nd ref="11909213760"/>
    <nd ref="11909213759"/>
    <nd ref="11909213758"/>
    <tag k="highway" v="residential"/>
  </way>
  <way id="1283532242" version="1" timestamp="2024-05-16T06:46:21Z" changeset="151392015" uid="5173844" user="ndrw6">
    <nd ref="11909213760"/>
    <nd ref="11909213740"/>
    <tag k="highway" v="residential"/>
  </way>
  <way id="1283532370" version="1" timestamp="2024-05-16T06:46:21Z" changeset="151392015" uid="5173844" user="ndrw6">
    <nd ref="11909214287"/>
    <nd ref="11909214286"/>
    <tag k="highway" v="residential"/>
    <tag k="name" v="Poplar Avenue"/>
  </way>
  <way id="1283532436" version="1" timestamp="2024-05-16T06:46:21Z" changeset="151392015" uid="5173844" user="ndrw6">
    <nd ref="6987397582"/>
    <nd ref="11909214619"/>
    <tag k="highway" v="residential"/>
    <tag k="name" v="Hamilton Gardens"/>
  </way>
  <way id="1283532450" version="1" timestamp="2024-05-16T06:46:21Z" changeset="151392015" uid="5173844" user="ndrw6">
    <nd ref="4479664779"/>
    <nd ref="11909214726"/>
    <tag k="highway" v="residential"/>
    <tag k="name" v="Rule Gardens"/>
    <tag k="source" v="OS_OpenData_StreetView"/>
  </way>
  <way id="1283532451" version="1" timestamp="2024-05-16T06:46:21Z" changeset="151392015" uid="5173844" user="ndrw6">
    <nd ref="11909214728"/>
    <nd ref="11909214727"/>
    <tag k="highway" v="residential"/>
    <tag k="name" v="Rule Gardens"/>
    <tag k="source" v="OS_OpenData_StreetView"/>
  </way>
  <way id="1283532452" version="1" timestamp="2024-05-16T06:46:21Z" changeset="151392015" uid="5173844" user="ndrw6">
    <nd ref="11909214730"/>
    <nd ref="11909214729"/>
    <tag k="highway" v="residential"/>
    <tag k="name" v="Rule Gardens"/>
    <tag k="source" v="OS_OpenData_StreetView"/>
  </way>
  <way id="1283532453" version="1" timestamp="2024-05-16T06:46:21Z" changeset="151392015" uid="5173844" user="ndrw6">
    <nd ref="11909214732"/>
    <nd ref="11909214731"/>
    <tag k="highway" v="residential"/>
    <tag k="name" v="Rule Gardens"/>
    <tag k="source" v="OS_OpenData_StreetView"/>
  </way>
  <way id="1283532454" version="1" timestamp="2024-05-16T06:46:21Z" changeset="151392015" uid="5173844" user="ndrw6">
    <nd ref="11050919334"/>
    <nd ref="11909214734"/>
    <nd ref="11909214733"/>
    <tag k="highway" v="residential"/>
    <tag k="name" v="Rule Gardens"/>
  </way>
  <way id="1283532455" version="1" timestamp="2024-05-16T06:46:21Z" changeset="151392015" uid="5173844" user="ndrw6">
    <nd ref="11909214736"/>
    <nd ref="11050919325"/>
    <nd ref="11909214735"/>
    <tag k="highway" v="residential"/>
    <tag k="name" v="Rule Gardens"/>
  </way>
  <way id="1283532502" version="1" timestamp="2024-05-16T06:46:21Z" changeset="151392015" uid="5173844" user="ndrw6">
    <nd ref="11909214896"/>
    <nd ref="11909214895"/>
    <tag k="highway" v="residential"/>
  </way>
  <way id="1283532504" version="1" timestamp="2024-05-16T06:46:21Z" changeset="151392015" uid="5173844" user="ndrw6">
    <nd ref="11909214910"/>
    <nd ref="11909214909"/>
    <tag k="highway" v="residential"/>
  </way>
  <way id="1283532505" version="1" timestamp="2024-05-16T06:46:21Z" changeset="151392015" uid="5173844" user="ndrw6">
    <nd ref="11050919350"/>
    <nd ref="11909214912"/>
    <nd ref="11909214910"/>
    <nd ref="11909214911"/>
    <tag k="highway" v="residential"/>
  </way>
  <way id="1283532506" version="1" timestamp="2024-05-16T06:46:21Z" changeset="151392015" uid="5173844" user="ndrw6">
    <nd ref="11050919351"/>
    <nd ref="11909214914"/>
    <nd ref="11909214913"/>
    <tag k="highway" v="residential"/>
  </way>
  <way id="1283532507" version="1" timestamp="2024-05-16T06:46:21Z" changeset="151392015" uid="5173844" user="ndrw6">
    <nd ref="11050919356"/>
    <nd ref="11909214916"/>
    <nd ref="11909214915"/>
    <tag k="highway" v="residential"/>
  </way>
  <way id="1283532508" version="1" timestamp="2024-05-16T06:46:21Z" changeset="151392015" uid="5173844" user="ndrw6">
    <nd ref="11050919360"/>
    <nd ref="11909214919"/>
    <nd ref="11909214918"/>
    <nd ref="11909214917"/>
    <tag k="highway" v="residential"/>
  </way>
  <way id="1283532509" version="1" timestamp="2024-05-16T06:46:21Z" changeset="151392015" uid="5173844" user="ndrw6">
    <nd ref="11050919338"/>
    <nd ref="11909214920"/>
    <tag k="highway" v="residential"/>
  </way>
  <way id="1283538251" version="2" timestamp="2025-02-26T11:33:21Z" changeset="162967688" uid="84263" user="Robert Whittaker">
    <nd ref="11909266373"/>
    <nd ref="11909245666"/>
    <nd ref="11909245667"/>
    <nd ref="11909266372"/>
    <nd ref="11909266371"/>
    <nd ref="11909266369"/>
    <nd ref="11909245668"/>
    <nd ref="11909266370"/>
    <nd ref="11909266373"/>
    <tag k="amenity" v="clinic"/>
    <tag k="building" v="yes"/>
    <tag k="healthcare" v="clinic"/>
    <tag k="healthcare:speciality" v="osteopathy"/>
    <tag k="name" v="Derby Cottage Clinic"/>
    <tag k="website" v="https://www.derbycottageclinic.com/"/>
  </way>
  <way id="1283538264" version="1" timestamp="2024-05-16T07:24:48Z" changeset="151393353" uid="5173844" user="ndrw6">
    <nd ref="11909266457"/>
    <nd ref="11909266454"/>
    <nd ref="11909266455"/>
    <nd ref="11909266456"/>
    <nd ref="11909266457"/>
    <tag k="building" v="yes"/>
    <tag k="name" v="Cemex"/>
    <tag k="office" v="yes"/>
    <tag k="website" v="https://www.cemex.co.uk/"/>
  </way>
  <way id="1284243532" version="1" timestamp="2024-05-17T21:26:14Z" changeset="151472442" uid="5173844" user="ndrw6">
    <nd ref="11914264698"/>
    <nd ref="11914264697"/>
    <nd ref="11914264696"/>
    <tag k="highway" v="secondary"/>
    <tag k="junction" v="roundabout"/>
    <tag k="oneway" v="yes"/>
  </way>
  <way id="1284243533" version="1" timestamp="2024-05-17T21:26:14Z" changeset="151472442" uid="5173844" user="ndrw6">
    <nd ref="11914264700"/>
    <nd ref="11914264699"/>
    <nd ref="11914264698"/>
    <tag k="highway" v="secondary"/>
    <tag k="junction" v="roundabout"/>
    <tag k="oneway" v="yes"/>
  </way>
  <way id="1284243534" version="1" timestamp="2024-05-17T21:26:14Z" changeset="151472442" uid="5173844" user="ndrw6">
    <nd ref="11914264702"/>
    <nd ref="11914264701"/>
    <nd ref="11914264700"/>
    <tag k="highway" v="secondary"/>
    <tag k="junction" v="roundabout"/>
    <tag k="oneway" v="yes"/>
  </way>
  <way id="1284243563" version="1" timestamp="2024-05-17T21:26:14Z" changeset="151472442" uid="5173844" user="ndrw6">
    <nd ref="11914264675"/>
    <nd ref="11653214628"/>
    <nd ref="11914264708"/>
    <tag k="highway" v="secondary"/>
    <tag k="name" v="Market Street"/>
    <tag k="oneway" v="yes"/>
    <tag k="ref" v="B1102"/>
    <tag k="source" v="survey"/>
  </way>
  <way id="1284243564" version="1" timestamp="2024-05-17T21:26:14Z" changeset="151472442" uid="5173844" user="ndrw6">
    <nd ref="11914264694"/>
    <nd ref="11914264676"/>
    <nd ref="11914264675"/>
    <tag k="highway" v="secondary"/>
    <tag k="name" v="Market Street"/>
    <tag k="oneway" v="yes"/>
    <tag k="ref" v="B1102"/>
    <tag k="source" v="survey"/>
  </way>
  <way id="1284243565" version="1" timestamp="2024-05-17T21:26:14Z" changeset="151472442" uid="5173844" user="ndrw6">
    <nd ref="11914264706"/>
    <nd ref="11914264677"/>
    <tag k="highway" v="residential"/>
    <tag k="name" v="Ash Road"/>
    <tag k="oneway" v="yes"/>
  </way>
  <way id="1284243566" version="1" timestamp="2024-05-17T21:26:14Z" changeset="151472442" uid="5173844" user="ndrw6">
    <nd ref="11914264677"/>
    <nd ref="11914264704"/>
    <tag k="highway" v="residential"/>
    <tag k="name" v="Ash Road"/>
    <tag k="oneway" v="yes"/>
  </way>
  <way id="1284243567" version="1" timestamp="2024-05-17T21:26:14Z" changeset="151472442" uid="5173844" user="ndrw6">
    <nd ref="11914264702"/>
    <nd ref="11914264678"/>
    <tag k="abutters" v="residential"/>
    <tag k="highway" v="tertiary"/>
    <tag k="maxspeed" v="30 mph"/>
    <tag k="name" v="Soham Road"/>
    <tag k="oneway" v="yes"/>
    <tag k="source" v="survey"/>
  </way>
  <way id="1284243568" version="1" timestamp="2024-05-17T21:26:14Z" changeset="151472442" uid="5173844" user="ndrw6">
    <nd ref="11914264678"/>
    <nd ref="11914264700"/>
    <tag k="abutters" v="residential"/>
    <tag k="highway" v="tertiary"/>
    <tag k="maxspeed" v="30 mph"/>
    <tag k="name" v="Soham Road"/>
    <tag k="oneway" v="yes"/>
    <tag k="source" v="survey"/>
  </way>
  <way id="1284243569" version="1" timestamp="2024-05-17T21:26:14Z" changeset="151472442" uid="5173844" user="ndrw6">
    <nd ref="11914264698"/>
    <nd ref="11914264679"/>
    <nd ref="11914264681"/>
    <tag k="highway" v="secondary"/>
    <tag k="name" v="Sharmans Road"/>
    <tag k="oneway" v="yes"/>
    <tag k="ref" v="B1102"/>
    <tag k="source" v="survey"/>
  </way>
  <way id="1284243570" version="1" timestamp="2024-05-17T21:26:14Z" changeset="151472442" uid="5173844" user="ndrw6">
    <nd ref="11914264681"/>
    <nd ref="11914264680"/>
    <nd ref="11914264696"/>
    <tag k="highway" v="secondary"/>
    <tag k="name" v="Sharmans Road"/>
    <tag k="oneway" v="yes"/>
    <tag k="ref" v="B1102"/>
    <tag k="source" v="survey"/>
  </way>
  <way id="1284243572" version="1" timestamp="2024-05-17T21:26:14Z" changeset="151472442" uid="5173844" user="ndrw6">
    <nd ref="11914264696"/>
    <nd ref="11914264695"/>
    <nd ref="11914264694"/>
    <nd ref="11914264709"/>
    <nd ref="11914264708"/>
    <nd ref="11914264707"/>
    <nd ref="11914264706"/>
    <nd ref="11914264705"/>
    <nd ref="11914264704"/>
    <nd ref="11914264703"/>
    <nd ref="11914264702"/>
    <tag k="highway" v="secondary"/>
    <tag k="junction" v="roundabout"/>
    <tag k="oneway" v="yes"/>
  </way>

</osm>
