<?xml version="1.0" encoding="UTF-8"?>
<osm version="0.6" generator="Overpass API 0.7.62.5 1bd436f1">
<note>The data included in this document is from www.openstreetmap.org. The data is made available under ODbL.</note>
<meta osm_base="2025-05-17T10:33:45Z" areas="2024-12-31T00:49:33Z"/>

  <node id="49337695" lat="32.5837972" lon="-117.1056707" version="5" timestamp="2024-04-10T05:48:55Z" changeset="149803356" uid="11609320" user="telcodude"/>
  <node id="49418956" lat="32.5838435" lon="-117.1142962" version="6" timestamp="2024-04-10T05:48:55Z" changeset="149803356" uid="11609320" user="telcodude"/>
  <node id="279046477" lat="32.5861730" lon="-117.1206011" version="2" timestamp="2024-04-04T08:02:56Z" changeset="149557391" uid="11609320" user="telcodude"/>
  <node id="279046869" lat="32.5845659" lon="-117.1180204" version="1" timestamp="2008-07-16T23:47:57Z" changeset="518259" uid="15891" user="francesco_pe"/>
  <node id="279049259" lat="32.5839670" lon="-117.1093778" version="3" timestamp="2024-04-10T06:15:14Z" changeset="149803966" uid="11609320" user="telcodude"/>
  <node id="279049375" lat="32.5838192" lon="-117.1113018" version="3" timestamp="2024-04-10T05:48:55Z" changeset="149803356" uid="11609320" user="telcodude"/>
  <node id="279049902" lat="32.5839247" lon="-117.0995106" version="6" timestamp="2024-05-10T12:51:13Z" changeset="151144022" uid="21393709" user="CtI5UDYpRmUS"/>
  <node id="279049959" lat="32.5839570" lon="-117.1075160" version="3" timestamp="2024-04-10T06:15:14Z" changeset="149803966" uid="11609320" user="telcodude"/>
  <node id="7262802140" lat="32.5842408" lon="-117.1169799" version="2" timestamp="2022-06-30T07:55:52Z" changeset="123032482" uid="14512381" user="anilkgba">
    <tag k="highway" v="traffic_signals"/>
    <tag k="traffic_signals:direction" v="forward"/>
  </node>
  <node id="11806461015" lat="32.5839655" lon="-117.1111724" version="1" timestamp="2024-04-10T05:48:55Z" changeset="149803356" uid="11609320" user="telcodude"/>
  <way id="5961358" version="19" timestamp="2025-01-01T08:45:20Z" changeset="160855629" uid="22137982" user="TeeEn">
    <nd ref="49105197"/>
    <nd ref="11817994347"/>
    <nd ref="11898497899"/>
    <nd ref="11898497900"/>
    <nd ref="12297131904"/>
    <nd ref="11898497901"/>
    <nd ref="12297131902"/>
    <nd ref="12297131900"/>
    <nd ref="11898497898"/>
    <nd ref="11958406361"/>
    <nd ref="11898497897"/>
    <nd ref="11898497350"/>
    <nd ref="7262815058"/>
    <nd ref="11817994365"/>
    <tag k="highway" v="residential"/>
    <tag k="lanes" v="2"/>
    <tag k="name" v="Florence Street"/>
    <tag k="sidewalk:both" v="separate"/>
    <tag k="surface" v="asphalt"/>
    <tag k="tiger:cfcc" v="A41"/>
    <tag k="tiger:county" v="San Diego, CA"/>
    <tag k="tiger:name_base" v="Florence"/>
    <tag k="tiger:name_type" v="St"/>
    <tag k="tiger:reviewed" v="no"/>
  </way>
  <way id="5962105" version="19" timestamp="2025-01-04T08:12:02Z" changeset="160974961" uid="22137982" user="TeeEn">
    <nd ref="7262815047"/>
    <nd ref="7262815052"/>
    <nd ref="11901047556"/>
    <nd ref="11947509982"/>
    <nd ref="11947509203"/>
    <nd ref="11901047307"/>
    <nd ref="11901047407"/>
    <nd ref="11947509880"/>
    <nd ref="11901047744"/>
    <nd ref="11947510117"/>
    <nd ref="11901047367"/>
    <nd ref="11947510081"/>
    <nd ref="11901047191"/>
    <nd ref="7262815051"/>
    <nd ref="11818008770"/>
    <nd ref="49110399"/>
    <tag k="highway" v="residential"/>
    <tag k="lane_markings" v="no"/>
    <tag k="name" v="12th Street"/>
    <tag k="sidewalk:both" v="separate"/>
    <tag k="surface" v="asphalt"/>
    <tag k="tiger:cfcc" v="A41"/>
    <tag k="tiger:county" v="San Diego, CA"/>
    <tag k="tiger:name_base" v="12th"/>
    <tag k="tiger:name_type" v="St"/>
    <tag k="tiger:reviewed" v="no"/>
  </way>
  <way id="5963710" version="15" timestamp="2025-01-06T15:38:53Z" changeset="161063478" uid="22137982" user="TeeEn">
    <nd ref="11817948300"/>
    <nd ref="7262815039"/>
    <nd ref="5530476703"/>
    <nd ref="49128596"/>
    <nd ref="296255616"/>
    <nd ref="11813406886"/>
    <nd ref="49128599"/>
    <tag k="highway" v="residential"/>
    <tag k="lane_markings" v="no"/>
    <tag k="name" v="Cherry Avenue"/>
    <tag k="sidewalk:both" v="separate"/>
    <tag k="surface" v="asphalt"/>
    <tag k="tiger:cfcc" v="A41"/>
    <tag k="tiger:county" v="San Diego, CA"/>
    <tag k="tiger:name_base" v="Cherry"/>
    <tag k="tiger:name_type" v="Ave"/>
    <tag k="tiger:reviewed" v="no"/>
  </way>
  <way id="5963711" version="10" timestamp="2025-01-06T14:57:40Z" changeset="161054906" uid="22137982" user="TeeEn">
    <nd ref="49128603"/>
    <nd ref="7262802152"/>
    <nd ref="7262802153"/>
    <nd ref="49128604"/>
    <nd ref="11817853550"/>
    <nd ref="49128606"/>
    <nd ref="7262802180"/>
    <nd ref="3701827405"/>
    <nd ref="49128608"/>
    <nd ref="11817936814"/>
    <nd ref="11817936809"/>
    <nd ref="49128609"/>
    <tag k="highway" v="residential"/>
    <tag k="lane_markings" v="no"/>
    <tag k="name" v="Cherry Avenue"/>
    <tag k="surface" v="asphalt"/>
    <tag k="tiger:cfcc" v="A41"/>
    <tag k="tiger:county" v="San Diego, CA"/>
    <tag k="tiger:name_base" v="Cherry"/>
    <tag k="tiger:name_type" v="Ave"/>
    <tag k="tiger:reviewed" v="no"/>
  </way>
  <way id="5968357" version="20" timestamp="2025-01-06T15:01:29Z" changeset="161054906" uid="22137982" user="TeeEn">
    <nd ref="49169945"/>
    <nd ref="49128595"/>
    <nd ref="7262815037"/>
    <nd ref="7262815036"/>
    <nd ref="5530476708"/>
    <nd ref="11925202367"/>
    <nd ref="11947509414"/>
    <nd ref="11947510014"/>
    <nd ref="11947509354"/>
    <nd ref="11947508199"/>
    <nd ref="11947509928"/>
    <nd ref="11947510195"/>
    <nd ref="7262815031"/>
    <nd ref="49169948"/>
    <tag k="highway" v="residential"/>
    <tag k="lane_markings" v="no"/>
    <tag k="name" v="10th Street"/>
    <tag k="sidewalk:both" v="separate"/>
    <tag k="surface" v="asphalt"/>
    <tag k="tiger:cfcc" v="A41"/>
    <tag k="tiger:county" v="San Diego, CA"/>
    <tag k="tiger:name_base" v="10th"/>
    <tag k="tiger:name_type" v="St"/>
    <tag k="tiger:reviewed" v="no"/>
  </way>
  <way id="5968775" version="19" timestamp="2025-01-06T14:16:52Z" changeset="161054906" uid="22137982" user="TeeEn">
    <nd ref="49173885"/>
    <nd ref="12297130804"/>
    <nd ref="12297130806"/>
    <nd ref="12297130815"/>
    <nd ref="12297130818"/>
    <nd ref="12297130810"/>
    <nd ref="12297130821"/>
    <nd ref="12297130808"/>
    <nd ref="11947509975"/>
    <nd ref="11947509459"/>
    <nd ref="11947509444"/>
    <nd ref="11947509332"/>
    <nd ref="11947510259"/>
    <nd ref="7262814989"/>
    <nd ref="49128608"/>
    <nd ref="7262814990"/>
    <tag k="highway" v="residential"/>
    <tag k="lane_markings" v="no"/>
    <tag k="name" v="8th Street"/>
    <tag k="oneway" v="no"/>
    <tag k="surface" v="asphalt"/>
    <tag k="tiger:cfcc" v="A41"/>
    <tag k="tiger:county" v="San Diego, CA"/>
    <tag k="tiger:name_base" v="8th"/>
    <tag k="tiger:name_type" v="St"/>
    <tag k="tiger:reviewed" v="no"/>
  </way>
  <way id="5996938" version="24" timestamp="2025-02-19T12:26:52Z" changeset="162698849" uid="21393709" user="CtI5UDYpRmUS">
    <nd ref="7262814995"/>
    <nd ref="7262814998"/>
    <nd ref="12600613060"/>
    <nd ref="11945510537"/>
    <nd ref="11949686401"/>
    <nd ref="11945510539"/>
    <nd ref="11949686399"/>
    <nd ref="11945510541"/>
    <nd ref="3701827384"/>
    <nd ref="7262815001"/>
    <nd ref="7262814999"/>
    <tag k="highway" v="residential"/>
    <tag k="lanes" v="2"/>
    <tag k="name" v="9th Street"/>
    <tag k="sidewalk:both" v="separate"/>
    <tag k="surface" v="asphalt"/>
    <tag k="tiger:cfcc" v="A41"/>
    <tag k="tiger:county" v="San Diego, CA"/>
    <tag k="tiger:name_base" v="9th"/>
    <tag k="tiger:name_type" v="St"/>
    <tag k="tiger:reviewed" v="no"/>
  </way>
  <way id="6017408" version="18" timestamp="2025-01-01T08:43:17Z" changeset="160855629" uid="22137982" user="TeeEn">
    <nd ref="7262814999"/>
    <nd ref="11817879617"/>
    <nd ref="11947509271"/>
    <nd ref="11947509195"/>
    <nd ref="49556816"/>
    <nd ref="11947509468"/>
    <nd ref="11947509306"/>
    <nd ref="11947509266"/>
    <nd ref="11947510053"/>
    <nd ref="11947509341"/>
    <nd ref="7262815020"/>
    <nd ref="49169950"/>
    <nd ref="7262815021"/>
    <nd ref="11947510070"/>
    <nd ref="11947509158"/>
    <nd ref="5530999344"/>
    <nd ref="11947509166"/>
    <nd ref="49415669"/>
    <nd ref="49556818"/>
    <nd ref="7262815024"/>
    <nd ref="49190447"/>
    <nd ref="7262815041"/>
    <nd ref="49556820"/>
    <nd ref="7262815054"/>
    <nd ref="49110399"/>
    <nd ref="7262815055"/>
    <nd ref="49556821"/>
    <nd ref="49105198"/>
    <nd ref="49556824"/>
    <nd ref="7262815059"/>
    <nd ref="11817875085"/>
    <tag k="highway" v="residential"/>
    <tag k="lanes" v="2"/>
    <tag k="name" v="Calla Avenue"/>
    <tag k="sidewalk:both" v="separate"/>
    <tag k="surface" v="asphalt"/>
    <tag k="tiger:cfcc" v="A41"/>
    <tag k="tiger:county" v="San Diego, CA"/>
    <tag k="tiger:name_base" v="Calla"/>
    <tag k="tiger:name_type" v="Ave"/>
    <tag k="tiger:reviewed" v="no"/>
  </way>
  <way id="6018763" version="22" timestamp="2025-01-06T14:47:06Z" changeset="161054906" uid="22137982" user="TeeEn">
    <nd ref="49561922"/>
    <nd ref="7262814987"/>
    <nd ref="48996996"/>
    <nd ref="49561924"/>
    <nd ref="11947886453"/>
    <nd ref="12297130832"/>
    <nd ref="12297130836"/>
    <nd ref="12297130834"/>
    <nd ref="12297130830"/>
    <nd ref="11893603293"/>
    <nd ref="12297130828"/>
    <nd ref="11901047584"/>
    <nd ref="11901047211"/>
    <nd ref="12297131048"/>
    <nd ref="11901047323"/>
    <nd ref="11901047495"/>
    <nd ref="7262802182"/>
    <nd ref="49128606"/>
    <nd ref="7262802181"/>
    <nd ref="12466637320"/>
    <tag k="highway" v="residential"/>
    <tag k="lane_markings" v="no"/>
    <tag k="name" v="Delaware Street"/>
    <tag k="oneway" v="no"/>
    <tag k="surface" v="asphalt"/>
    <tag k="tiger:cfcc" v="A41"/>
    <tag k="tiger:county" v="San Diego, CA"/>
    <tag k="tiger:name_base" v="Delaware"/>
    <tag k="tiger:name_type" v="St"/>
    <tag k="tiger:reviewed" v="no"/>
  </way>
  <way id="6041114" version="9" timestamp="2025-01-06T14:16:11Z" changeset="161054906" uid="22137982" user="TeeEn">
    <nd ref="8771695764"/>
    <nd ref="7262814988"/>
    <nd ref="11947509197"/>
    <nd ref="49173885"/>
    <tag k="highway" v="residential"/>
    <tag k="lane_markings" v="no"/>
    <tag k="name" v="Boulevard Avenue"/>
    <tag k="oneway" v="no"/>
    <tag k="surface" v="asphalt"/>
    <tag k="tiger:cfcc" v="A41"/>
    <tag k="tiger:county" v="San Diego, CA"/>
    <tag k="tiger:name_base" v="Boulevard"/>
    <tag k="tiger:name_type" v="Ave"/>
    <tag k="tiger:reviewed" v="no"/>
  </way>
  <way id="6041118" version="12" timestamp="2025-01-06T15:30:27Z" changeset="161054906" uid="22137982" user="TeeEn">
    <nd ref="49190444"/>
    <nd ref="11925202368"/>
    <nd ref="11947510051"/>
    <nd ref="11947509464"/>
    <nd ref="11947510186"/>
    <nd ref="49632143"/>
    <nd ref="12297131060"/>
    <nd ref="49110395"/>
    <tag k="highway" v="residential"/>
    <tag k="lane_markings" v="no"/>
    <tag k="name" v="Boulevard Avenue"/>
    <tag k="sidewalk:right" v="separate"/>
    <tag k="surface" v="asphalt"/>
    <tag k="tiger:cfcc" v="A41"/>
    <tag k="tiger:county" v="San Diego, CA"/>
    <tag k="tiger:name_base" v="Boulevard"/>
    <tag k="tiger:name_type" v="Ave"/>
    <tag k="tiger:reviewed" v="no"/>
  </way>
  <way id="6041131" version="18" timestamp="2025-01-06T14:48:25Z" changeset="161054906" uid="22137982" user="TeeEn">
    <nd ref="49632147"/>
    <nd ref="7262802149"/>
    <nd ref="49632149"/>
    <nd ref="49632150"/>
    <nd ref="49632151"/>
    <nd ref="12324186983"/>
    <nd ref="49561922"/>
    <nd ref="12324188595"/>
    <nd ref="12324190199"/>
    <nd ref="49632152"/>
    <nd ref="11947510256"/>
    <nd ref="49632154"/>
    <nd ref="8771695764"/>
    <tag k="highway" v="residential"/>
    <tag k="lane_markings" v="no"/>
    <tag k="name" v="Boulevard Avenue"/>
    <tag k="oneway" v="yes"/>
    <tag k="surface" v="asphalt"/>
    <tag k="tiger:cfcc" v="A41"/>
    <tag k="tiger:county" v="San Diego, CA"/>
    <tag k="tiger:name_base" v="Boulevard"/>
    <tag k="tiger:name_type" v="Ave"/>
    <tag k="tiger:reviewed" v="no"/>
  </way>
  <way id="6050490" version="11" timestamp="2025-01-06T14:34:18Z" changeset="161054906" uid="22137982" user="TeeEn">
    <nd ref="49709309"/>
    <nd ref="7262802150"/>
    <nd ref="7262802151"/>
    <nd ref="12297131073"/>
    <nd ref="49709312"/>
    <nd ref="12289706208"/>
    <nd ref="12289706212"/>
    <nd ref="7262814985"/>
    <nd ref="7262802184"/>
    <nd ref="49561924"/>
    <nd ref="7262802183"/>
    <nd ref="7262814986"/>
    <nd ref="3701827409"/>
    <nd ref="11947509548"/>
    <nd ref="49173885"/>
    <tag k="highway" v="residential"/>
    <tag k="lane_markings" v="no"/>
    <tag k="name" v="Basswood Avenue"/>
    <tag k="surface" v="asphalt"/>
    <tag k="tiger:cfcc" v="A41"/>
    <tag k="tiger:county" v="San Diego, CA"/>
    <tag k="tiger:name_base" v="Basswood"/>
    <tag k="tiger:name_type" v="Ave"/>
    <tag k="tiger:reviewed" v="no"/>
  </way>
  <way id="6053717" version="26" timestamp="2025-01-06T14:32:31Z" changeset="161054906" uid="22137982" user="TeeEn">
    <nd ref="49632147"/>
    <nd ref="5530437561"/>
    <nd ref="12297131892"/>
    <nd ref="48996995"/>
    <nd ref="11901047501"/>
    <nd ref="11901047330"/>
    <nd ref="11901047487"/>
    <nd ref="11901047632"/>
    <nd ref="49709309"/>
    <nd ref="11901047523"/>
    <nd ref="12297130839"/>
    <nd ref="11901047659"/>
    <nd ref="11901047751"/>
    <nd ref="11901021983"/>
    <nd ref="12289706218"/>
    <nd ref="12289706220"/>
    <nd ref="11901047333"/>
    <nd ref="11901047437"/>
    <nd ref="11901047489"/>
    <nd ref="11901047389"/>
    <nd ref="12466632364"/>
    <tag k="cycleway" v="shared_lane"/>
    <tag k="highway" v="residential"/>
    <tag k="lane_markings" v="no"/>
    <tag k="name" v="7th Street"/>
    <tag k="oneway" v="no"/>
    <tag k="sidewalk:right" v="separate"/>
    <tag k="surface" v="asphalt"/>
    <tag k="tiger:cfcc" v="A41"/>
    <tag k="tiger:county" v="San Diego, CA"/>
    <tag k="tiger:name_base" v="7th"/>
    <tag k="tiger:name_type" v="St"/>
    <tag k="tiger:reviewed" v="no"/>
  </way>
  <way id="6055889" version="19" timestamp="2025-01-04T07:21:17Z" changeset="160974961" uid="22137982" user="TeeEn">
    <nd ref="49415666"/>
    <nd ref="49776274"/>
    <nd ref="49190445"/>
    <nd ref="7262815048"/>
    <nd ref="49776275"/>
    <nd ref="11947509553"/>
    <nd ref="5530476687"/>
    <nd ref="49110398"/>
    <nd ref="12327173994"/>
    <nd ref="4612504740"/>
    <nd ref="12297131895"/>
    <nd ref="11817994351"/>
    <nd ref="11817994350"/>
    <nd ref="49105197"/>
    <nd ref="11817994349"/>
    <nd ref="7262815060"/>
    <nd ref="5530476689"/>
    <nd ref="9970748673"/>
    <tag k="highway" v="residential"/>
    <tag k="lane_markings" v="no"/>
    <tag k="name" v="Cypress Avenue"/>
    <tag k="sidewalk:both" v="separate"/>
    <tag k="surface" v="asphalt"/>
    <tag k="tiger:cfcc" v="A41"/>
    <tag k="tiger:county" v="San Diego, CA"/>
    <tag k="tiger:name_base" v="Cypress"/>
    <tag k="tiger:name_type" v="Ave"/>
  </way>
  <way id="6056053" version="19" timestamp="2025-01-04T07:09:45Z" changeset="160974961" uid="22137982" user="TeeEn">
    <nd ref="49776271"/>
    <nd ref="7262815010"/>
    <nd ref="11901047581"/>
    <nd ref="11898497894"/>
    <nd ref="49777732"/>
    <nd ref="7262815015"/>
    <nd ref="7262815013"/>
    <tag k="highway" v="residential"/>
    <tag k="lane_markings" v="no"/>
    <tag k="name" v="Emory Street"/>
    <tag k="sidewalk:both" v="separate"/>
    <tag k="surface" v="asphalt"/>
    <tag k="tiger:cfcc" v="A41"/>
    <tag k="tiger:county" v="San Diego, CA"/>
    <tag k="tiger:name_base" v="Emory"/>
    <tag k="tiger:name_type" v="St"/>
    <tag k="tiger:reviewed" v="no"/>
  </way>
  <way id="25583198" version="21" timestamp="2025-01-06T15:24:16Z" changeset="161054906" uid="22137982" user="TeeEn">
    <nd ref="7262815028"/>
    <nd ref="7262815029"/>
    <nd ref="11958406369"/>
    <nd ref="11901047453"/>
    <nd ref="11893636978"/>
    <nd ref="11901047591"/>
    <nd ref="11901047639"/>
    <nd ref="3701827389"/>
    <nd ref="5530999346"/>
    <nd ref="7262815026"/>
    <nd ref="12466627697"/>
    <tag k="highway" v="residential"/>
    <tag k="lane_markings" v="no"/>
    <tag k="name" v="11th Street"/>
    <tag k="sidewalk:both" v="separate"/>
    <tag k="surface" v="asphalt"/>
    <tag k="tiger:cfcc" v="A41"/>
    <tag k="tiger:county" v="San Diego, CA"/>
    <tag k="tiger:name_base" v="11th"/>
    <tag k="tiger:name_type" v="St"/>
    <tag k="tiger:reviewed" v="no"/>
  </way>
  <way id="25600110" version="14" timestamp="2025-01-09T07:58:38Z" changeset="161159196" uid="22137982" user="TeeEn">
    <nd ref="279048730"/>
    <nd ref="279049015"/>
    <nd ref="5060520474"/>
    <nd ref="11785013550"/>
    <nd ref="279049014"/>
    <nd ref="5530999352"/>
    <nd ref="279049013"/>
    <tag k="cycleway:left" v="no"/>
    <tag k="highway" v="primary_link"/>
    <tag k="lanes" v="1"/>
    <tag k="name" v="Delaware Street"/>
    <tag k="oneway" v="yes"/>
    <tag k="parking:left" v="no"/>
    <tag k="sidewalk:left" v="no"/>
    <tag k="sidewalk:right" v="separate"/>
    <tag k="surface" v="asphalt"/>
    <tag k="tiger:cfcc" v="A41"/>
    <tag k="tiger:county" v="San Diego, CA"/>
    <tag k="tiger:name_base" v="Delaware"/>
    <tag k="tiger:name_type" v="St"/>
    <tag k="tiger:reviewed" v="no"/>
  </way>
  <way id="25600114" version="16" timestamp="2025-01-09T07:58:32Z" changeset="161159196" uid="22137982" user="TeeEn">
    <nd ref="5530925080"/>
    <nd ref="5060520475"/>
    <nd ref="5530925079"/>
    <tag k="cycleway:left" v="no"/>
    <tag k="highway" v="primary_link"/>
    <tag k="lanes" v="1"/>
    <tag k="name" v="Delaware Street"/>
    <tag k="oneway" v="yes"/>
    <tag k="parking:left" v="no"/>
    <tag k="sidewalk:left" v="no"/>
    <tag k="surface" v="asphalt"/>
    <tag k="tiger:cfcc" v="A41"/>
    <tag k="tiger:county" v="San Diego, CA"/>
    <tag k="tiger:name_base" v="Delaware"/>
    <tag k="tiger:name_type" v="St"/>
    <tag k="tiger:reviewed" v="no"/>
  </way>
  <way id="25600125" version="21" timestamp="2025-01-09T07:49:10Z" changeset="161159196" uid="22137982" user="TeeEn">
    <nd ref="279046477"/>
    <nd ref="6774858602"/>
    <nd ref="279046480"/>
    <nd ref="279046481"/>
    <nd ref="279046482"/>
    <nd ref="279046438"/>
    <nd ref="279046439"/>
    <nd ref="279046440"/>
    <nd ref="279046441"/>
    <nd ref="279046442"/>
    <nd ref="279046443"/>
    <nd ref="279046364"/>
    <nd ref="279046347"/>
    <nd ref="279046337"/>
    <nd ref="279046338"/>
    <nd ref="279046339"/>
    <nd ref="279046340"/>
    <nd ref="279046291"/>
    <nd ref="280487935"/>
    <nd ref="279045919"/>
    <nd ref="279045920"/>
    <nd ref="279045921"/>
    <nd ref="279045922"/>
    <nd ref="279045923"/>
    <nd ref="279045924"/>
    <nd ref="279045925"/>
    <nd ref="279045926"/>
    <nd ref="279045927"/>
    <nd ref="279045928"/>
    <nd ref="279045445"/>
    <nd ref="279045446"/>
    <nd ref="279045447"/>
    <nd ref="279045448"/>
    <nd ref="279045450"/>
    <nd ref="279045451"/>
    <nd ref="279045129"/>
    <nd ref="9473438830"/>
    <tag k="expressway" v="yes"/>
    <tag k="hgv" v="designated"/>
    <tag k="hgv:national_network" v="terminal_access"/>
    <tag k="highway" v="primary"/>
    <tag k="lanes" v="2"/>
    <tag k="name" v="Silver Strand Boulevard"/>
    <tag k="oneway" v="yes"/>
    <tag k="parking:left" v="no"/>
    <tag k="ref" v="CA 75"/>
    <tag k="sidewalk:left" v="no"/>
    <tag k="source" v="Yahoo,TIGER"/>
    <tag k="source:hgv:national_network" v="Caltrans http://www.dot.ca.gov/hq/traffops/trucks/truckmap/"/>
    <tag k="surface" v="asphalt"/>
  </way>
  <way id="25600154" version="12" timestamp="2025-01-09T08:00:35Z" changeset="161159196" uid="22137982" user="TeeEn">
    <nd ref="279049375"/>
    <nd ref="11806461013"/>
    <nd ref="279049377"/>
    <nd ref="11806510321"/>
    <nd ref="279049376"/>
    <nd ref="11806510320"/>
    <nd ref="11806510319"/>
    <tag k="foot" v="no"/>
    <tag k="highway" v="primary_link"/>
    <tag k="lanes" v="1"/>
    <tag k="oneway" v="yes"/>
    <tag k="parking:both" v="no"/>
    <tag k="sidewalk" v="no"/>
    <tag k="surface" v="asphalt"/>
    <tag k="turn:lanes" v="left"/>
  </way>
  <way id="25600276" version="12" timestamp="2025-01-09T08:01:20Z" changeset="161159196" uid="22137982" user="TeeEn">
    <nd ref="279049959"/>
    <nd ref="11806464158"/>
    <nd ref="279049960"/>
    <nd ref="279049961"/>
    <nd ref="279049962"/>
    <nd ref="49110400"/>
    <tag k="cycleway:left" v="no"/>
    <tag k="foot" v="no"/>
    <tag k="highway" v="primary_link"/>
    <tag k="lanes" v="1"/>
    <tag k="oneway" v="yes"/>
    <tag k="parking:both" v="no"/>
    <tag k="sidewalk" v="no"/>
    <tag k="surface" v="asphalt"/>
    <tag k="turn" v="left"/>
  </way>
  <way id="149560890" version="10" timestamp="2025-01-09T07:51:57Z" changeset="161159196" uid="22137982" user="TeeEn">
    <nd ref="7262802140"/>
    <nd ref="7262802139"/>
    <tag k="highway" v="tertiary"/>
    <tag k="name" v="Palm Avenue"/>
    <tag k="oneway" v="yes"/>
    <tag k="parking:both" v="no"/>
    <tag k="surface" v="asphalt"/>
    <tag k="tiger:cfcc" v="A41"/>
    <tag k="tiger:county" v="San Diego, CA"/>
    <tag k="tiger:name_base" v="Palm"/>
    <tag k="tiger:name_type" v="Ave"/>
    <tag k="tiger:reviewed" v="no"/>
  </way>
  <way id="153343711" version="17" timestamp="2025-01-09T07:58:57Z" changeset="161159196" uid="22137982" user="TeeEn">
    <nd ref="4343226640"/>
    <nd ref="3629326916"/>
    <nd ref="279048730"/>
    <tag k="cycleway:left" v="no"/>
    <tag k="hgv" v="designated"/>
    <tag k="hgv:national_network" v="terminal_access"/>
    <tag k="highway" v="primary"/>
    <tag k="lanes" v="4"/>
    <tag k="maxspeed" v="40 mph"/>
    <tag k="name" v="Palm Avenue"/>
    <tag k="oneway" v="yes"/>
    <tag k="parking:left" v="no"/>
    <tag k="ref" v="CA 75"/>
    <tag k="sidewalk:left" v="no"/>
    <tag k="sidewalk:right" v="separate"/>
    <tag k="source:hgv:national_network" v="Caltrans http://www.dot.ca.gov/hq/traffops/trucks/truckmap/"/>
    <tag k="surface" v="asphalt"/>
    <tag k="turn:lanes" v="left|left|through|through"/>
  </way>
  <way id="153343733" version="7" timestamp="2025-01-09T07:59:38Z" changeset="161159196" uid="22137982" user="TeeEn">
    <nd ref="49418956"/>
    <nd ref="279049153"/>
    <tag k="highway" v="tertiary"/>
    <tag k="lanes" v="4"/>
    <tag k="lanes:backward" v="2"/>
    <tag k="lanes:forward" v="2"/>
    <tag k="maxspeed" v="35 mph"/>
    <tag k="name" v="9th Street"/>
    <tag k="parking:both" v="no"/>
    <tag k="sidewalk:both" v="separate"/>
    <tag k="source:maxspeed" v="sign"/>
    <tag k="surface" v="asphalt"/>
    <tag k="tiger:cfcc" v="A41"/>
    <tag k="tiger:county" v="San Diego, CA"/>
    <tag k="tiger:name_base" v="9th"/>
    <tag k="tiger:name_type" v="St"/>
    <tag k="tiger:reviewed" v="no"/>
    <tag k="turn:lanes:backward" v="left|"/>
    <tag k="turn:lanes:forward" v="left|"/>
  </way>
  <way id="436433782" version="11" timestamp="2025-01-09T08:01:53Z" changeset="161159196" uid="22137982" user="TeeEn">
    <nd ref="4343226631"/>
    <nd ref="5531027751"/>
    <nd ref="7262815068"/>
    <nd ref="11331902203"/>
    <nd ref="279049511"/>
    <tag k="cycleway:left" v="no"/>
    <tag k="cycleway:right" v="lane"/>
    <tag k="cycleway:right:buffer" v="no"/>
    <tag k="hgv" v="designated"/>
    <tag k="hgv:national_network" v="terminal_access"/>
    <tag k="highway" v="primary"/>
    <tag k="lanes" v="4"/>
    <tag k="lit" v="yes"/>
    <tag k="maxspeed" v="45 mph"/>
    <tag k="name" v="Palm Avenue"/>
    <tag k="oneway" v="yes"/>
    <tag k="parking:left" v="no"/>
    <tag k="ref" v="CA 75"/>
    <tag k="sidewalk:left" v="no"/>
    <tag k="sidewalk:right" v="separate"/>
    <tag k="source:hgv:national_network" v="Caltrans http://www.dot.ca.gov/hq/traffops/trucks/truckmap/"/>
    <tag k="surface" v="asphalt"/>
    <tag k="turn:lanes" v="left|through|through|through"/>
  </way>
  <way id="436433785" version="10" timestamp="2025-01-09T07:59:51Z" changeset="161159196" uid="22137982" user="TeeEn">
    <nd ref="279049261"/>
    <nd ref="3583955176"/>
    <tag k="cycleway:left" v="no"/>
    <tag k="cycleway:right" v="lane"/>
    <tag k="hgv" v="designated"/>
    <tag k="hgv:national_network" v="terminal_access"/>
    <tag k="highway" v="primary"/>
    <tag k="lanes" v="3"/>
    <tag k="lit" v="yes"/>
    <tag k="maxspeed" v="40 mph"/>
    <tag k="name" v="Palm Avenue"/>
    <tag k="oneway" v="yes"/>
    <tag k="parking:left" v="no"/>
    <tag k="ref" v="CA 75"/>
    <tag k="sidewalk:left" v="no"/>
    <tag k="sidewalk:right" v="separate"/>
    <tag k="source:hgv:national_network" v="Caltrans http://www.dot.ca.gov/hq/traffops/trucks/truckmap/"/>
    <tag k="surface" v="asphalt"/>
    <tag k="tiger:zip_right" v="92154"/>
  </way>
  <way id="436433786" version="8" timestamp="2025-01-09T07:59:56Z" changeset="161159196" uid="22137982" user="TeeEn">
    <nd ref="4343226637"/>
    <nd ref="279049261"/>
    <tag k="cycleway:left" v="no"/>
    <tag k="cycleway:right" v="lane"/>
    <tag k="hgv" v="designated"/>
    <tag k="hgv:national_network" v="terminal_access"/>
    <tag k="highway" v="primary"/>
    <tag k="lanes" v="3"/>
    <tag k="lit" v="yes"/>
    <tag k="maxspeed" v="40 mph"/>
    <tag k="name" v="Palm Avenue"/>
    <tag k="oneway" v="yes"/>
    <tag k="parking:left" v="no"/>
    <tag k="ref" v="CA 75"/>
    <tag k="sidewalk:left" v="no"/>
    <tag k="sidewalk:right" v="separate"/>
    <tag k="source:hgv:national_network" v="Caltrans http://www.dot.ca.gov/hq/traffops/trucks/truckmap/"/>
    <tag k="surface" v="asphalt"/>
    <tag k="tiger:zip_right" v="92154"/>
    <tag k="turn:lanes" v="through|through|through"/>
  </way>
  <way id="436433788" version="14" timestamp="2025-01-09T07:59:27Z" changeset="161159196" uid="22137982" user="TeeEn">
    <nd ref="279049153"/>
    <nd ref="11331902185"/>
    <nd ref="4343226639"/>
    <tag k="cycleway:left" v="no"/>
    <tag k="hgv" v="designated"/>
    <tag k="hgv:national_network" v="terminal_access"/>
    <tag k="highway" v="primary"/>
    <tag k="lanes" v="3"/>
    <tag k="maxspeed" v="40 mph"/>
    <tag k="name" v="Palm Avenue"/>
    <tag k="oneway" v="yes"/>
    <tag k="parking:left" v="no"/>
    <tag k="ref" v="CA 75"/>
    <tag k="sidewalk:left" v="no"/>
    <tag k="sidewalk:right" v="separate"/>
    <tag k="source:hgv:national_network" v="Caltrans http://www.dot.ca.gov/hq/traffops/trucks/truckmap/"/>
    <tag k="surface" v="asphalt"/>
    <tag k="turn:lanes" v="||merge_to_left"/>
  </way>
  <way id="436433794" version="11" timestamp="2025-01-09T08:01:33Z" changeset="161159196" uid="22137982" user="TeeEn">
    <nd ref="279049511"/>
    <nd ref="11331902209"/>
    <nd ref="5532584790"/>
    <nd ref="279049499"/>
    <tag k="cycleway:left" v="no"/>
    <tag k="cycleway:right" v="lane"/>
    <tag k="hgv" v="designated"/>
    <tag k="hgv:national_network" v="terminal_access"/>
    <tag k="highway" v="primary"/>
    <tag k="lanes" v="3"/>
    <tag k="lit" v="yes"/>
    <tag k="maxspeed" v="40 mph"/>
    <tag k="name" v="Palm Avenue"/>
    <tag k="oneway" v="yes"/>
    <tag k="parking:left" v="no"/>
    <tag k="ref" v="CA 75"/>
    <tag k="sidewalk:left" v="no"/>
    <tag k="sidewalk:right" v="separate"/>
    <tag k="source:hgv:national_network" v="Caltrans http://www.dot.ca.gov/hq/traffops/trucks/truckmap/"/>
    <tag k="surface" v="asphalt"/>
    <tag k="tiger:zip_right" v="92154"/>
  </way>
  <way id="436433799" version="11" timestamp="2025-01-09T08:00:18Z" changeset="161159196" uid="22137982" user="TeeEn">
    <nd ref="4344861600"/>
    <nd ref="10905308474"/>
    <nd ref="279049262"/>
    <tag k="cycleway:left" v="no"/>
    <tag k="cycleway:right" v="lane"/>
    <tag k="hgv" v="designated"/>
    <tag k="hgv:national_network" v="terminal_access"/>
    <tag k="highway" v="primary"/>
    <tag k="lanes" v="3"/>
    <tag k="lit" v="yes"/>
    <tag k="name" v="Palm Avenue"/>
    <tag k="oneway" v="yes"/>
    <tag k="parking:left" v="no"/>
    <tag k="ref" v="CA 75"/>
    <tag k="sidewalk:left" v="no"/>
    <tag k="sidewalk:right" v="separate"/>
    <tag k="source:hgv:national_network" v="Caltrans http://www.dot.ca.gov/hq/traffops/trucks/truckmap/"/>
    <tag k="surface" v="asphalt"/>
    <tag k="tiger:zip_right" v="92154"/>
    <tag k="turn:lanes" v="through|through|through;right"/>
  </way>
  <way id="436433809" version="13" timestamp="2025-01-09T07:52:10Z" changeset="161159196" uid="22137982" user="TeeEn">
    <nd ref="7262802142"/>
    <nd ref="5530950402"/>
    <nd ref="279048729"/>
    <nd ref="4343226640"/>
    <tag k="cycleway:left" v="no"/>
    <tag k="hgv" v="designated"/>
    <tag k="hgv:national_network" v="terminal_access"/>
    <tag k="highway" v="primary"/>
    <tag k="lanes" v="3"/>
    <tag k="maxspeed" v="40 mph"/>
    <tag k="name" v="Palm Avenue"/>
    <tag k="oneway" v="yes"/>
    <tag k="parking:left" v="no"/>
    <tag k="ref" v="CA 75"/>
    <tag k="sidewalk:left" v="no"/>
    <tag k="sidewalk:right" v="separate"/>
    <tag k="source:hgv:national_network" v="Caltrans http://www.dot.ca.gov/hq/traffops/trucks/truckmap/"/>
    <tag k="surface" v="asphalt"/>
    <tag k="turn:lanes" v="reverse;left||"/>
  </way>
  <way id="436433810" version="11" timestamp="2025-01-09T07:59:58Z" changeset="161159196" uid="22137982" user="TeeEn">
    <nd ref="279049262"/>
    <nd ref="3583955175"/>
    <nd ref="4343226637"/>
    <tag k="cycleway:left" v="no"/>
    <tag k="cycleway:right" v="lane"/>
    <tag k="hgv" v="designated"/>
    <tag k="hgv:national_network" v="terminal_access"/>
    <tag k="highway" v="primary"/>
    <tag k="lanes" v="3"/>
    <tag k="lit" v="yes"/>
    <tag k="maxspeed" v="40 mph"/>
    <tag k="name" v="Palm Avenue"/>
    <tag k="oneway" v="yes"/>
    <tag k="parking:left" v="no"/>
    <tag k="ref" v="CA 75"/>
    <tag k="sidewalk:left" v="no"/>
    <tag k="sidewalk:right" v="separate"/>
    <tag k="source:hgv:national_network" v="Caltrans http://www.dot.ca.gov/hq/traffops/trucks/truckmap/"/>
    <tag k="surface" v="asphalt"/>
    <tag k="tiger:zip_right" v="92154"/>
  </way>
  <way id="436433813" version="12" timestamp="2025-01-09T08:01:58Z" changeset="161159196" uid="22137982" user="TeeEn">
    <nd ref="279049902"/>
    <nd ref="11331902220"/>
    <nd ref="5532600165"/>
    <nd ref="5532600161"/>
    <nd ref="5532600171"/>
    <nd ref="5532600166"/>
    <nd ref="279049904"/>
    <nd ref="9033909425"/>
    <nd ref="4343226631"/>
    <tag k="cycleway:left" v="no"/>
    <tag k="cycleway:right" v="lane"/>
    <tag k="cycleway:right:buffer" v="no"/>
    <tag k="hgv" v="designated"/>
    <tag k="hgv:national_network" v="terminal_access"/>
    <tag k="highway" v="primary"/>
    <tag k="lanes" v="3"/>
    <tag k="lit" v="yes"/>
    <tag k="maxspeed" v="45 mph"/>
    <tag k="name" v="Palm Avenue"/>
    <tag k="oneway" v="yes"/>
    <tag k="parking:left" v="no"/>
    <tag k="ref" v="CA 75"/>
    <tag k="sidewalk:left" v="no"/>
    <tag k="sidewalk:right" v="separate"/>
    <tag k="source:hgv:national_network" v="Caltrans http://www.dot.ca.gov/hq/traffops/trucks/truckmap/"/>
    <tag k="surface" v="asphalt"/>
  </way>
  <way id="436433814" version="13" timestamp="2025-01-09T08:00:21Z" changeset="161159196" uid="22137982" user="TeeEn">
    <nd ref="11806510319"/>
    <nd ref="11806461015"/>
    <nd ref="279049371"/>
    <tag k="cycleway:left" v="no"/>
    <tag k="cycleway:right" v="lane"/>
    <tag k="hgv" v="designated"/>
    <tag k="hgv:national_network" v="terminal_access"/>
    <tag k="highway" v="primary"/>
    <tag k="lanes" v="3"/>
    <tag k="lit" v="yes"/>
    <tag k="maxspeed" v="40 mph"/>
    <tag k="name" v="Palm Avenue"/>
    <tag k="oneway" v="yes"/>
    <tag k="parking:left" v="no"/>
    <tag k="ref" v="CA 75"/>
    <tag k="sidewalk:left" v="no"/>
    <tag k="sidewalk:right" v="separate"/>
    <tag k="source:hgv:national_network" v="Caltrans http://www.dot.ca.gov/hq/traffops/trucks/truckmap/"/>
    <tag k="surface" v="asphalt"/>
    <tag k="tiger:zip_right" v="92154"/>
  </way>
  <way id="436433818" version="11" timestamp="2025-01-09T08:00:43Z" changeset="161159196" uid="22137982" user="TeeEn">
    <nd ref="279049259"/>
    <nd ref="11331902196"/>
    <nd ref="3701183891"/>
    <nd ref="5530999338"/>
    <nd ref="11806510319"/>
    <tag k="cycleway:left" v="no"/>
    <tag k="cycleway:right" v="lane"/>
    <tag k="hgv" v="designated"/>
    <tag k="hgv:national_network" v="terminal_access"/>
    <tag k="highway" v="primary"/>
    <tag k="lanes" v="3"/>
    <tag k="lit" v="yes"/>
    <tag k="maxspeed" v="40 mph"/>
    <tag k="name" v="Palm Avenue"/>
    <tag k="oneway" v="yes"/>
    <tag k="parking:left" v="no"/>
    <tag k="ref" v="CA 75"/>
    <tag k="sidewalk:left" v="no"/>
    <tag k="sidewalk:right" v="separate"/>
    <tag k="source:hgv:national_network" v="Caltrans http://www.dot.ca.gov/hq/traffops/trucks/truckmap/"/>
    <tag k="surface" v="asphalt"/>
    <tag k="tiger:zip_right" v="92154"/>
  </way>
  <way id="436433819" version="11" timestamp="2025-01-09T08:00:57Z" changeset="161159196" uid="22137982" user="TeeEn">
    <nd ref="4343226633"/>
    <nd ref="5531027501"/>
    <nd ref="3701183890"/>
    <nd ref="7257255539"/>
    <nd ref="11331902190"/>
    <nd ref="279049259"/>
    <tag k="cycleway:left" v="no"/>
    <tag k="cycleway:right" v="lane"/>
    <tag k="hgv" v="designated"/>
    <tag k="hgv:national_network" v="terminal_access"/>
    <tag k="highway" v="primary"/>
    <tag k="lanes" v="4"/>
    <tag k="lit" v="yes"/>
    <tag k="maxspeed" v="40 mph"/>
    <tag k="name" v="Palm Avenue"/>
    <tag k="oneway" v="yes"/>
    <tag k="parking:left" v="no"/>
    <tag k="ref" v="CA 75"/>
    <tag k="sidewalk:left" v="no"/>
    <tag k="sidewalk:right" v="separate"/>
    <tag k="source:hgv:national_network" v="Caltrans http://www.dot.ca.gov/hq/traffops/trucks/truckmap/"/>
    <tag k="surface" v="asphalt"/>
    <tag k="tiger:zip_right" v="92154"/>
    <tag k="turn:lanes" v="reverse;left|through|through|through"/>
  </way>
  <way id="436433820" version="12" timestamp="2025-01-09T07:59:48Z" changeset="161159196" uid="22137982" user="TeeEn">
    <nd ref="3583955176"/>
    <nd ref="5530950346"/>
    <nd ref="7257255518"/>
    <nd ref="11331902181"/>
    <nd ref="279049153"/>
    <tag k="cycleway:left" v="no"/>
    <tag k="cycleway:right" v="lane"/>
    <tag k="hgv" v="designated"/>
    <tag k="hgv:national_network" v="terminal_access"/>
    <tag k="highway" v="primary"/>
    <tag k="lanes" v="5"/>
    <tag k="lit" v="yes"/>
    <tag k="maxspeed" v="40 mph"/>
    <tag k="name" v="Palm Avenue"/>
    <tag k="oneway" v="yes"/>
    <tag k="parking:left" v="no"/>
    <tag k="ref" v="CA 75"/>
    <tag k="sidewalk:left" v="no"/>
    <tag k="sidewalk:right" v="separate"/>
    <tag k="source:hgv:national_network" v="Caltrans http://www.dot.ca.gov/hq/traffops/trucks/truckmap/"/>
    <tag k="surface" v="asphalt"/>
    <tag k="tiger:zip_right" v="92154"/>
    <tag k="turn:lanes" v="reverse;left||||right"/>
  </way>
  <way id="436433821" version="11" timestamp="2025-01-09T08:01:09Z" changeset="161159196" uid="22137982" user="TeeEn">
    <nd ref="279049499"/>
    <nd ref="279049959"/>
    <nd ref="5531027504"/>
    <nd ref="279049464"/>
    <nd ref="4343226633"/>
    <tag k="cycleway:left" v="no"/>
    <tag k="cycleway:right" v="lane"/>
    <tag k="hgv" v="designated"/>
    <tag k="hgv:national_network" v="terminal_access"/>
    <tag k="highway" v="primary"/>
    <tag k="lanes" v="3"/>
    <tag k="lit" v="yes"/>
    <tag k="maxspeed" v="40 mph"/>
    <tag k="name" v="Palm Avenue"/>
    <tag k="oneway" v="yes"/>
    <tag k="parking:left" v="no"/>
    <tag k="ref" v="CA 75"/>
    <tag k="sidewalk:left" v="no"/>
    <tag k="sidewalk:right" v="separate"/>
    <tag k="source:hgv:national_network" v="Caltrans http://www.dot.ca.gov/hq/traffops/trucks/truckmap/"/>
    <tag k="surface" v="asphalt"/>
    <tag k="tiger:zip_right" v="92154"/>
  </way>
  <way id="436433822" version="8" timestamp="2025-01-09T07:51:21Z" changeset="161159196" uid="22137982" user="TeeEn">
    <nd ref="4343226642"/>
    <nd ref="7262802171"/>
    <nd ref="7262802158"/>
    <nd ref="279046869"/>
    <tag k="cycleway:left" v="no"/>
    <tag k="hgv" v="designated"/>
    <tag k="hgv:national_network" v="terminal_access"/>
    <tag k="highway" v="primary"/>
    <tag k="lanes" v="3"/>
    <tag k="name" v="Silver Strand Boulevard"/>
    <tag k="oneway" v="yes"/>
    <tag k="parking:left" v="no"/>
    <tag k="ref" v="CA 75"/>
    <tag k="sidewalk:left" v="no"/>
    <tag k="sidewalk:right" v="separate"/>
    <tag k="source" v="Yahoo,TIGER"/>
    <tag k="source:hgv:national_network" v="Caltrans http://www.dot.ca.gov/hq/traffops/trucks/truckmap/"/>
    <tag k="surface" v="asphalt"/>
    <tag k="turn:lanes" v="through|through|through"/>
  </way>
  <way id="436433827" version="9" timestamp="2025-01-09T07:51:30Z" changeset="161159196" uid="22137982" user="TeeEn">
    <nd ref="279047523"/>
    <nd ref="3629326917"/>
    <tag k="cycleway:left" v="no"/>
    <tag k="hgv" v="designated"/>
    <tag k="hgv:national_network" v="terminal_access"/>
    <tag k="highway" v="primary"/>
    <tag k="lanes" v="3"/>
    <tag k="name" v="Silver Strand Boulevard"/>
    <tag k="oneway" v="yes"/>
    <tag k="parking:left" v="no"/>
    <tag k="ref" v="CA 75"/>
    <tag k="sidewalk:left" v="no"/>
    <tag k="sidewalk:right" v="separate"/>
    <tag k="source" v="Yahoo,TIGER"/>
    <tag k="source:hgv:national_network" v="Caltrans http://www.dot.ca.gov/hq/traffops/trucks/truckmap/"/>
    <tag k="surface" v="asphalt"/>
  </way>
  <way id="436602742" version="10" timestamp="2025-01-09T08:00:33Z" changeset="161159196" uid="22137982" user="TeeEn">
    <nd ref="11806461015"/>
    <nd ref="11806461016"/>
    <nd ref="11806461017"/>
    <nd ref="11806461014"/>
    <nd ref="49169955"/>
    <tag k="foot" v="no"/>
    <tag k="highway" v="primary_link"/>
    <tag k="lanes" v="1"/>
    <tag k="oneway" v="yes"/>
    <tag k="parking:both" v="no"/>
    <tag k="sidewalk" v="no"/>
    <tag k="surface" v="asphalt"/>
    <tag k="turn" v="left"/>
  </way>
  <way id="549418969" version="2" timestamp="2018-01-19T22:43:17Z" changeset="55590931" uid="131314" user="doujinflip">
    <nd ref="5307201898"/>
    <nd ref="5307201899"/>
    <nd ref="5307201900"/>
    <nd ref="5307201901"/>
    <nd ref="5307201898"/>
    <tag k="addr:city" v="Imperial Beach"/>
    <tag k="addr:housenumber" v="730"/>
    <tag k="addr:postcode" v="91932"/>
    <tag k="addr:state" v="CA"/>
    <tag k="addr:street" v="Silver Strand Boulevard"/>
    <tag k="amenity" v="dojo"/>
    <tag k="building" v="yes"/>
    <tag k="height" v="5.0"/>
    <tag k="name" v="Pan Am Tae Kwon Do Academy"/>
  </way>
  <way id="549418970" version="1" timestamp="2017-12-27T22:04:24Z" changeset="54968395" uid="131314" user="doujinflip">
    <nd ref="5307201898"/>
    <nd ref="5307201902"/>
    <nd ref="5307201903"/>
    <nd ref="5307201899"/>
    <nd ref="5307201898"/>
    <tag k="addr:city" v="Imperial Beach"/>
    <tag k="addr:housenumber" v="720"/>
    <tag k="addr:postcode" v="91932"/>
    <tag k="addr:state" v="CA"/>
    <tag k="addr:street" v="Silver Strand Boulevard"/>
    <tag k="amenity" v="pharmacy"/>
    <tag k="building" v="yes"/>
    <tag k="healthcare" v="pharmacy"/>
    <tag k="height" v="5.0"/>
    <tag k="name" v="Imperial Beach Pharmacy"/>
  </way>
  <way id="549418974" version="1" timestamp="2017-12-27T22:04:24Z" changeset="54968395" uid="131314" user="doujinflip">
    <nd ref="5307201916"/>
    <nd ref="5307201917"/>
    <nd ref="5307201918"/>
    <nd ref="5307201919"/>
    <nd ref="5307201920"/>
    <nd ref="5307201916"/>
    <tag k="amenity" v="fast_food"/>
    <tag k="building" v="yes"/>
    <tag k="name" v="Don Pancho's Taco Shop"/>
  </way>
  <way id="549418976" version="1" timestamp="2017-12-27T22:04:24Z" changeset="54968395" uid="131314" user="doujinflip">
    <nd ref="5307202021"/>
    <nd ref="5307202022"/>
    <nd ref="5307202023"/>
    <nd ref="5307202024"/>
    <nd ref="5307202021"/>
    <tag k="amenity" v="cafe"/>
    <tag k="building" v="yes"/>
    <tag k="name" v="Star Dust Donut Shop"/>
  </way>
  <way id="549418979" version="4" timestamp="2024-09-17T19:36:44Z" changeset="156744970" uid="21425661" user="CjMalone">
    <nd ref="5307202031"/>
    <nd ref="5307202032"/>
    <nd ref="5307202033"/>
    <nd ref="5307202034"/>
    <nd ref="5307202031"/>
    <tag k="amenity" v="bank"/>
    <tag k="brand" v="Chase"/>
    <tag k="brand:wikidata" v="Q524629"/>
    <tag k="building" v="yes"/>
    <tag k="check_date" v="2024-09-17"/>
    <tag k="check_date:opening_hours" v="2024-09-17"/>
    <tag k="height" v="10"/>
    <tag k="name" v="Chase"/>
    <tag k="opening_hours" v="Mo-Fr 09:00-17:00; Sa 09:00-14:00; Su closed"/>
    <tag k="phone" v="+1 619-424-8197"/>
    <tag k="website" v="https://locator.chase.com/ca/imperial-beach/1100-palm-ave"/>
  </way>
  <way id="549619416" version="4" timestamp="2024-05-14T13:03:11Z" changeset="151312683" uid="1962542" user="whammo">
    <nd ref="5309130385"/>
    <nd ref="5309130386"/>
    <nd ref="5309130387"/>
    <nd ref="5309130388"/>
    <nd ref="5309130390"/>
    <nd ref="5309130391"/>
    <nd ref="5309130392"/>
    <nd ref="5309130389"/>
    <nd ref="5309130385"/>
    <tag k="addr:city" v="Imperial Beach"/>
    <tag k="addr:housenumber" v="1180"/>
    <tag k="addr:postcode" v="91932-1627"/>
    <tag k="addr:state" v="CA"/>
    <tag k="addr:street" v="Palm Avenue"/>
    <tag k="amenity" v="fast_food"/>
    <tag k="brand" v="Burger King"/>
    <tag k="brand:wikidata" v="Q177054"/>
    <tag k="building" v="yes"/>
    <tag k="cuisine" v="burger"/>
    <tag k="delivery" v="yes"/>
    <tag k="drive_through" v="yes"/>
    <tag k="height" v="5"/>
    <tag k="internet_access" v="wlan"/>
    <tag k="name" v="Burger King"/>
    <tag k="opening_hours" v="Mo-Fr 06:30-20:00; Sa 07:00-20:00; Su 07:30-20:00"/>
    <tag k="phone" v="+1 619-500-5881"/>
    <tag k="ref" v="806"/>
    <tag k="takeaway" v="yes"/>
    <tag k="website" v="https://www.bk.com/store-locator/store/restaurant_408"/>
  </way>
  <way id="642926592" version="11" timestamp="2025-01-04T07:24:41Z" changeset="160974961" uid="22137982" user="TeeEn">
    <nd ref="49337693"/>
    <nd ref="11817865057"/>
    <nd ref="11898497904"/>
    <nd ref="11898497905"/>
    <nd ref="11898497906"/>
    <nd ref="11947886448"/>
    <nd ref="7271149158"/>
    <nd ref="11898497908"/>
    <nd ref="11898497903"/>
    <nd ref="11898497907"/>
    <nd ref="49337682"/>
    <tag k="cycleway" v="lane"/>
    <tag k="highway" v="residential"/>
    <tag k="lanes" v="2"/>
    <tag k="name" v="13th Street"/>
    <tag k="sidewalk:both" v="separate"/>
    <tag k="surface" v="asphalt"/>
    <tag k="tiger:cfcc" v="A41"/>
    <tag k="tiger:county" v="San Diego, CA"/>
    <tag k="tiger:name_base" v="13th"/>
    <tag k="tiger:name_type" v="St"/>
    <tag k="tiger:reviewed" v="no"/>
  </way>
  <way id="642926598" version="8" timestamp="2025-01-09T07:51:11Z" changeset="161159196" uid="22137982" user="TeeEn">
    <nd ref="279046869"/>
    <nd ref="49175736"/>
    <tag k="cycleway" v="shared_lane"/>
    <tag k="highway" v="tertiary"/>
    <tag k="lane_markings" v="no"/>
    <tag k="name" v="7th Street"/>
    <tag k="parking:both" v="no"/>
    <tag k="sidewalk:left" v="separate"/>
    <tag k="sidewalk:right" v="no"/>
    <tag k="surface" v="asphalt"/>
    <tag k="tiger:cfcc" v="A41"/>
    <tag k="tiger:county" v="San Diego, CA"/>
    <tag k="tiger:name_base" v="7th"/>
    <tag k="tiger:name_type" v="St"/>
    <tag k="tiger:reviewed" v="no"/>
  </way>
  <way id="722251616" version="11" timestamp="2025-01-09T07:49:43Z" changeset="161159196" uid="22137982" user="TeeEn">
    <nd ref="6793163687"/>
    <nd ref="6793163686"/>
    <nd ref="7262802130"/>
    <nd ref="279046477"/>
    <tag k="cycleway:left" v="no"/>
    <tag k="highway" v="residential"/>
    <tag k="lanes" v="2"/>
    <tag k="name" v="Bayside Way"/>
    <tag k="oneway" v="yes"/>
    <tag k="parking:left" v="no"/>
    <tag k="sidewalk:left" v="no"/>
    <tag k="surface" v="paved"/>
  </way>
  <way id="724345933" version="7" timestamp="2025-01-06T14:41:19Z" changeset="161054906" uid="22137982" user="TeeEn">
    <nd ref="6793163696"/>
    <nd ref="11808289936"/>
    <nd ref="7071370561"/>
    <nd ref="6793163698"/>
    <nd ref="6793163699"/>
    <tag k="highway" v="residential"/>
    <tag k="lane_markings" v="no"/>
    <tag k="name" v="Lark Way"/>
    <tag k="surface" v="asphalt"/>
  </way>
  <way id="724345934" version="8" timestamp="2025-01-06T14:39:52Z" changeset="161054906" uid="22137982" user="TeeEn">
    <nd ref="6793163700"/>
    <nd ref="7071370560"/>
    <nd ref="7262802148"/>
    <nd ref="6793163702"/>
    <nd ref="7262802146"/>
    <nd ref="7071370557"/>
    <nd ref="7262802144"/>
    <nd ref="11806519129"/>
    <nd ref="6793163703"/>
    <tag k="highway" v="residential"/>
    <tag k="lane_markings" v="no"/>
    <tag k="name" v="Shorebird Way"/>
    <tag k="surface" v="asphalt"/>
  </way>
  <way id="755784179" version="6" timestamp="2025-01-09T07:50:50Z" changeset="161159196" uid="22137982" user="TeeEn">
    <nd ref="7262802138"/>
    <nd ref="279046875"/>
    <nd ref="279046876"/>
    <nd ref="279046877"/>
    <nd ref="279046878"/>
    <nd ref="279046478"/>
    <nd ref="7262802137"/>
    <tag k="cycleway:left" v="no"/>
    <tag k="hgv" v="designated"/>
    <tag k="hgv:national_network" v="terminal_access"/>
    <tag k="highway" v="primary"/>
    <tag k="lanes" v="2"/>
    <tag k="name" v="Silver Strand Boulevard"/>
    <tag k="oneway" v="yes"/>
    <tag k="parking:left" v="no"/>
    <tag k="ref" v="CA 75"/>
    <tag k="sidewalk:left" v="no"/>
    <tag k="sidewalk:right" v="separate"/>
    <tag k="source" v="Yahoo,TIGER"/>
    <tag k="source:hgv:national_network" v="Caltrans http://www.dot.ca.gov/hq/traffops/trucks/truckmap/"/>
    <tag k="surface" v="asphalt"/>
  </way>
  <way id="772666867" version="3" timestamp="2024-04-15T05:56:20Z" changeset="150018749" uid="11609320" user="telcodude">
    <nd ref="7213665356"/>
    <nd ref="11817887221"/>
    <nd ref="11817887222"/>
    <nd ref="11817887223"/>
    <nd ref="7213665355"/>
    <nd ref="7213665354"/>
    <nd ref="11817887219"/>
    <nd ref="7213665353"/>
    <nd ref="11817887220"/>
    <nd ref="7213665352"/>
    <nd ref="7213665356"/>
    <tag k="addr:city" v="Imperial Beach"/>
    <tag k="addr:housenumber" v="880"/>
    <tag k="addr:postcode" v="91932"/>
    <tag k="addr:state" v="CA"/>
    <tag k="addr:street" v="Palm Avenue"/>
    <tag k="brand" v="Goodwill"/>
    <tag k="brand:wikidata" v="Q5583655"/>
    <tag k="building" v="yes"/>
    <tag k="name" v="Goodwill"/>
    <tag k="operator" v="Goodwill Industries of San Diego County"/>
    <tag k="operator:wikidata" v="Q114928055"/>
    <tag k="shop" v="charity"/>
    <tag k="website" v="https://sdgoodwill.org/location/imperial-beach-retail-store/"/>
  </way>
  <way id="778186641" version="6" timestamp="2025-01-09T07:50:45Z" changeset="161159196" uid="22137982" user="TeeEn">
    <nd ref="9810757666"/>
    <nd ref="7262802136"/>
    <nd ref="11785222744"/>
    <nd ref="7262802131"/>
    <nd ref="6774858626"/>
    <nd ref="279046477"/>
    <tag k="cycleway:right" v="no"/>
    <tag k="hgv" v="designated"/>
    <tag k="hgv:national_network" v="terminal_access"/>
    <tag k="highway" v="primary"/>
    <tag k="lanes" v="4"/>
    <tag k="name" v="Silver Strand Boulevard"/>
    <tag k="oneway" v="yes"/>
    <tag k="parking:left" v="no"/>
    <tag k="ref" v="CA 75"/>
    <tag k="sidewalk:left" v="no"/>
    <tag k="sidewalk:right" v="separate"/>
    <tag k="source" v="Yahoo,TIGER"/>
    <tag k="source:hgv:national_network" v="Caltrans http://www.dot.ca.gov/hq/traffops/trucks/truckmap/"/>
    <tag k="surface" v="asphalt"/>
    <tag k="turn:lanes" v="reverse;left|||right"/>
  </way>
  <way id="778186642" version="4" timestamp="2025-01-09T07:51:05Z" changeset="161159196" uid="22137982" user="TeeEn">
    <nd ref="279046869"/>
    <nd ref="279046874"/>
    <nd ref="5530925084"/>
    <nd ref="7262802138"/>
    <tag k="cycleway:left" v="no"/>
    <tag k="hgv" v="designated"/>
    <tag k="hgv:national_network" v="terminal_access"/>
    <tag k="highway" v="primary"/>
    <tag k="lanes" v="3"/>
    <tag k="name" v="Silver Strand Boulevard"/>
    <tag k="oneway" v="yes"/>
    <tag k="parking:left" v="no"/>
    <tag k="ref" v="CA 75"/>
    <tag k="sidewalk:left" v="no"/>
    <tag k="sidewalk:right" v="separate"/>
    <tag k="source" v="Yahoo,TIGER"/>
    <tag k="source:hgv:national_network" v="Caltrans http://www.dot.ca.gov/hq/traffops/trucks/truckmap/"/>
    <tag k="surface" v="asphalt"/>
  </way>
  <way id="778186643" version="7" timestamp="2025-01-09T07:59:13Z" changeset="161159196" uid="22137982" user="TeeEn">
    <nd ref="7262802140"/>
    <nd ref="11786394893"/>
    <nd ref="279047523"/>
    <tag k="cycleway:left" v="no"/>
    <tag k="hgv" v="designated"/>
    <tag k="hgv:national_network" v="terminal_access"/>
    <tag k="highway" v="primary"/>
    <tag k="lanes" v="2"/>
    <tag k="name" v="Silver Strand Boulevard"/>
    <tag k="oneway" v="yes"/>
    <tag k="parking:both" v="no"/>
    <tag k="ref" v="CA 75"/>
    <tag k="sidewalk:left" v="no"/>
    <tag k="sidewalk:right" v="separate"/>
    <tag k="source" v="Yahoo,TIGER"/>
    <tag k="source:hgv:national_network" v="Caltrans http://www.dot.ca.gov/hq/traffops/trucks/truckmap/"/>
    <tag k="surface" v="asphalt"/>
  </way>
  <way id="778186644" version="5" timestamp="2025-01-09T07:59:25Z" changeset="161159196" uid="22137982" user="TeeEn">
    <nd ref="4343226639"/>
    <nd ref="7262802142"/>
    <tag k="cycleway:left" v="no"/>
    <tag k="hgv" v="designated"/>
    <tag k="hgv:national_network" v="terminal_access"/>
    <tag k="highway" v="primary"/>
    <tag k="lanes" v="2"/>
    <tag k="maxspeed" v="40 mph"/>
    <tag k="name" v="Palm Avenue"/>
    <tag k="oneway" v="yes"/>
    <tag k="parking:left" v="no"/>
    <tag k="ref" v="CA 75"/>
    <tag k="sidewalk:left" v="no"/>
    <tag k="sidewalk:right" v="separate"/>
    <tag k="source:hgv:national_network" v="Caltrans http://www.dot.ca.gov/hq/traffops/trucks/truckmap/"/>
    <tag k="surface" v="asphalt"/>
  </way>
  <way id="1031317290" version="6" timestamp="2025-01-01T10:25:34Z" changeset="160857795" uid="22137982" user="TeeEn">
    <nd ref="279049371"/>
    <nd ref="4344861600"/>
    <tag k="cycleway:left" v="no"/>
    <tag k="cycleway:right" v="lane"/>
    <tag k="hgv" v="designated"/>
    <tag k="hgv:national_network" v="terminal_access"/>
    <tag k="highway" v="primary"/>
    <tag k="lanes" v="3"/>
    <tag k="lit" v="yes"/>
    <tag k="maxspeed" v="40 mph"/>
    <tag k="name" v="Palm Avenue"/>
    <tag k="oneway" v="yes"/>
    <tag k="ref" v="CA 75"/>
    <tag k="sidewalk:left" v="no"/>
    <tag k="sidewalk:right" v="separate"/>
    <tag k="source:hgv:national_network" v="Caltrans http://www.dot.ca.gov/hq/traffops/trucks/truckmap/"/>
    <tag k="surface" v="asphalt"/>
    <tag k="tiger:zip_right" v="92154"/>
  </way>
  <way id="1042789757" version="2" timestamp="2024-04-17T07:09:24Z" changeset="150113232" uid="11609320" user="telcodude">
    <nd ref="9598564157"/>
    <nd ref="9598564158"/>
    <nd ref="9598564159"/>
    <nd ref="11823996695"/>
    <nd ref="9598564160"/>
    <nd ref="9598564161"/>
    <nd ref="9598564162"/>
    <nd ref="9598564157"/>
    <tag k="addr:city" v="Imperial Beach"/>
    <tag k="addr:housenumber" v="1288"/>
    <tag k="addr:postcode" v="91932"/>
    <tag k="addr:state" v="CA"/>
    <tag k="addr:street" v="Palm Avenue"/>
    <tag k="building" v="yes"/>
    <tag k="name" v="AT&amp;T"/>
    <tag k="operator" v="AT&amp;T"/>
    <tag k="operator:wikidata" v="Q108085506"/>
    <tag k="telecom" v="exchange"/>
  </way>
  <way id="1068771631" version="3" timestamp="2025-01-09T07:50:47Z" changeset="161159196" uid="22137982" user="TeeEn">
    <nd ref="7262802137"/>
    <nd ref="279046479"/>
    <nd ref="9810757666"/>
    <tag k="cycleway:right" v="no"/>
    <tag k="hgv" v="designated"/>
    <tag k="hgv:national_network" v="terminal_access"/>
    <tag k="highway" v="primary"/>
    <tag k="lanes" v="3"/>
    <tag k="name" v="Silver Strand Boulevard"/>
    <tag k="oneway" v="yes"/>
    <tag k="parking:left" v="no"/>
    <tag k="ref" v="CA 75"/>
    <tag k="sidewalk:left" v="no"/>
    <tag k="sidewalk:right" v="separate"/>
    <tag k="source" v="Yahoo,TIGER"/>
    <tag k="source:hgv:national_network" v="Caltrans http://www.dot.ca.gov/hq/traffops/trucks/truckmap/"/>
    <tag k="surface" v="asphalt"/>
    <tag k="turn:lanes" v="||right"/>
  </way>
  <way id="1074727088" version="5" timestamp="2025-01-09T07:59:07Z" changeset="161159196" uid="22137982" user="TeeEn">
    <nd ref="9857499761"/>
    <nd ref="7262802140"/>
    <tag k="addr:postcode" v="92154"/>
    <tag k="cycleway:left" v="no"/>
    <tag k="hgv" v="designated"/>
    <tag k="hgv:national_network" v="terminal_access"/>
    <tag k="highway" v="primary"/>
    <tag k="lanes" v="4"/>
    <tag k="maxspeed" v="40 mph"/>
    <tag k="name" v="Palm Avenue"/>
    <tag k="oneway" v="yes"/>
    <tag k="parking:both" v="no"/>
    <tag k="ref" v="CA 75"/>
    <tag k="sidewalk:left" v="no"/>
    <tag k="sidewalk:right" v="separate"/>
    <tag k="source:hgv:national_network" v="Caltrans http://www.dot.ca.gov/hq/traffops/trucks/truckmap/"/>
    <tag k="surface" v="asphalt"/>
    <tag k="turn:lanes" v="left|left|through|through"/>
  </way>
  <way id="1094773289" version="4" timestamp="2025-01-09T07:51:23Z" changeset="161159196" uid="22137982" user="TeeEn">
    <nd ref="3629326917"/>
    <nd ref="4343226642"/>
    <tag k="cycleway:left" v="no"/>
    <tag k="hgv" v="designated"/>
    <tag k="hgv:national_network" v="terminal_access"/>
    <tag k="highway" v="primary"/>
    <tag k="lanes" v="3"/>
    <tag k="name" v="Silver Strand Boulevard"/>
    <tag k="oneway" v="yes"/>
    <tag k="parking:left" v="no"/>
    <tag k="ref" v="CA 75"/>
    <tag k="sidewalk:left" v="no"/>
    <tag k="sidewalk:right" v="separate"/>
    <tag k="source" v="Yahoo,TIGER"/>
    <tag k="source:hgv:national_network" v="Caltrans http://www.dot.ca.gov/hq/traffops/trucks/truckmap/"/>
    <tag k="surface" v="asphalt"/>
  </way>
  <way id="1094773290" version="5" timestamp="2025-01-09T07:58:28Z" changeset="161159196" uid="22137982" user="TeeEn">
    <nd ref="5530925079"/>
    <nd ref="279049070"/>
    <nd ref="279049071"/>
    <nd ref="11786394894"/>
    <nd ref="279047523"/>
    <tag k="cycleway:left" v="no"/>
    <tag k="highway" v="primary_link"/>
    <tag k="lanes" v="1"/>
    <tag k="name" v="Delaware Street"/>
    <tag k="oneway" v="yes"/>
    <tag k="parking:left" v="no"/>
    <tag k="sidewalk:left" v="no"/>
    <tag k="sidewalk:right" v="separate"/>
    <tag k="surface" v="asphalt"/>
    <tag k="tiger:cfcc" v="A41"/>
    <tag k="tiger:county" v="San Diego, CA"/>
    <tag k="tiger:name_base" v="Delaware"/>
    <tag k="tiger:name_type" v="St"/>
    <tag k="tiger:reviewed" v="no"/>
  </way>
  <way id="1221856694" version="4" timestamp="2025-01-09T08:07:38Z" changeset="161159196" uid="22137982" user="TeeEn">
    <nd ref="5530950390"/>
    <nd ref="5530950348"/>
    <nd ref="5530950389"/>
    <nd ref="7257255515"/>
    <nd ref="11331902183"/>
    <tag k="highway" v="residential"/>
    <tag k="lanes" v="3"/>
    <tag k="lanes:backward" v="1"/>
    <tag k="lanes:forward" v="2"/>
    <tag k="name" v="9th Street"/>
    <tag k="sidewalk:both" v="separate"/>
    <tag k="surface" v="asphalt"/>
    <tag k="tiger:cfcc" v="A41"/>
    <tag k="tiger:county" v="San Diego, CA"/>
    <tag k="tiger:name_base" v="9th"/>
    <tag k="tiger:name_type" v="St"/>
    <tag k="tiger:reviewed" v="no"/>
    <tag k="turn:lanes:forward" v="left|"/>
  </way>
  <way id="1221856696" version="3" timestamp="2025-01-09T08:00:51Z" changeset="161159196" uid="22137982" user="TeeEn">
    <nd ref="279049259"/>
    <nd ref="49190451"/>
    <tag k="highway" v="residential"/>
    <tag k="lanes" v="3"/>
    <tag k="lanes:backward" v="1"/>
    <tag k="lanes:forward" v="2"/>
    <tag k="name" v="Florida Street"/>
    <tag k="parking:both" v="no"/>
    <tag k="sidewalk:both" v="separate"/>
    <tag k="surface" v="asphalt"/>
    <tag k="tiger:cfcc" v="A41"/>
    <tag k="tiger:county" v="San Diego, CA"/>
    <tag k="tiger:name_base" v="Florida"/>
    <tag k="tiger:name_type" v="St"/>
    <tag k="tiger:reviewed" v="no"/>
    <tag k="turn:lanes:forward" v="left|through"/>
  </way>
  <way id="1221856697" version="3" timestamp="2025-01-09T08:08:24Z" changeset="161159196" uid="22137982" user="TeeEn">
    <nd ref="11331902188"/>
    <nd ref="7257255537"/>
    <nd ref="11331902198"/>
    <tag k="highway" v="residential"/>
    <tag k="lanes" v="3"/>
    <tag k="lanes:backward" v="1"/>
    <tag k="lanes:forward" v="2"/>
    <tag k="name" v="Florida Street"/>
    <tag k="sidewalk:both" v="separate"/>
    <tag k="surface" v="asphalt"/>
    <tag k="tiger:cfcc" v="A41"/>
    <tag k="tiger:county" v="San Diego, CA"/>
    <tag k="tiger:name_base" v="Florida"/>
    <tag k="tiger:name_type" v="St"/>
    <tag k="tiger:reviewed" v="no"/>
    <tag k="turn:lanes:forward" v="left|through;right"/>
  </way>
  <way id="1221856698" version="9" timestamp="2025-05-05T18:04:06Z" changeset="165858788" uid="21393709" user="CtI5UDYpRmUS">
    <nd ref="7262815043"/>
    <nd ref="11898497896"/>
    <nd ref="11947510248"/>
    <nd ref="12812234776"/>
    <nd ref="12812235652"/>
    <nd ref="11898497895"/>
    <nd ref="7262815044"/>
    <tag k="highway" v="residential"/>
    <tag k="lanes" v="2"/>
    <tag k="name" v="Florida Street"/>
    <tag k="sidewalk:both" v="separate"/>
    <tag k="surface" v="asphalt"/>
    <tag k="tiger:cfcc" v="A41"/>
    <tag k="tiger:county" v="San Diego, CA"/>
    <tag k="tiger:name_base" v="Florida"/>
    <tag k="tiger:name_type" v="St"/>
    <tag k="tiger:reviewed" v="no"/>
  </way>
  <way id="1221856702" version="4" timestamp="2025-01-09T08:01:44Z" changeset="161159196" uid="22137982" user="TeeEn">
    <nd ref="49337695"/>
    <nd ref="279049511"/>
    <tag k="cycleway" v="lane"/>
    <tag k="highway" v="tertiary"/>
    <tag k="lanes" v="3"/>
    <tag k="lanes:backward" v="2"/>
    <tag k="lanes:forward" v="1"/>
    <tag k="name" v="13th Street"/>
    <tag k="parking:both" v="no"/>
    <tag k="sidewalk:both" v="separate"/>
    <tag k="surface" v="asphalt"/>
    <tag k="tiger:cfcc" v="A41"/>
    <tag k="tiger:county" v="San Diego, CA"/>
    <tag k="tiger:name_base" v="13th"/>
    <tag k="tiger:name_type" v="St"/>
    <tag k="turn:lanes:backward" v="left;through|through"/>
    <tag k="turn:lanes:forward" v="left;through"/>
  </way>
  <way id="1221856704" version="4" timestamp="2025-01-09T08:09:02Z" changeset="161159196" uid="22137982" user="TeeEn">
    <nd ref="11331902201"/>
    <nd ref="7262815069"/>
    <nd ref="11331902211"/>
    <tag k="cycleway" v="lane"/>
    <tag k="highway" v="residential"/>
    <tag k="lanes" v="3"/>
    <tag k="lanes:backward" v="2"/>
    <tag k="lanes:forward" v="1"/>
    <tag k="name" v="13th Street"/>
    <tag k="sidewalk:both" v="separate"/>
    <tag k="surface" v="asphalt"/>
    <tag k="tiger:cfcc" v="A41"/>
    <tag k="tiger:county" v="San Diego, CA"/>
    <tag k="tiger:name_base" v="13th"/>
    <tag k="tiger:name_type" v="St"/>
    <tag k="tiger:reviewed" v="no"/>
    <tag k="turn:lanes:backward" v="left;through|through;right"/>
  </way>
  <way id="1241902696" version="4" timestamp="2024-01-23T01:05:19Z" changeset="146574244" uid="20773552" user="MapSk8r">
    <nd ref="11539599952"/>
    <nd ref="11541613279"/>
    <nd ref="11541613280"/>
    <nd ref="11539599953"/>
    <nd ref="11539626791"/>
    <nd ref="11539599954"/>
    <nd ref="11539599952"/>
    <tag k="addr:city" v="Imperial Beach"/>
    <tag k="addr:postcode" v="91932"/>
    <tag k="addr:state" v="CA"/>
    <tag k="addr:street" v="Delaware Street"/>
    <tag k="building" v="house"/>
    <tag k="building:colour" v="#ffffff"/>
    <tag k="building:levels" v="2"/>
    <tag k="house" v="detached"/>
    <tag k="name" v="508"/>
    <tag k="roof:colour" v="#77767b"/>
    <tag k="roof:shape" v="hipped"/>
  </way>
  <way id="1242053266" version="7" timestamp="2024-01-23T01:05:19Z" changeset="146574244" uid="20773552" user="MapSk8r">
    <nd ref="11541146978"/>
    <nd ref="11541146986"/>
    <nd ref="11541146979"/>
    <nd ref="11541146980"/>
    <nd ref="11541613289"/>
    <nd ref="11541146981"/>
    <nd ref="11541146982"/>
    <nd ref="11541613291"/>
    <nd ref="11541146983"/>
    <nd ref="11541146978"/>
    <tag k="addr:city" v="Imperial Beach"/>
    <tag k="addr:postcode" v="91932"/>
    <tag k="addr:state" v="CA"/>
    <tag k="addr:street" v="Delaware Street"/>
    <tag k="building" v="house"/>
    <tag k="building:levels" v="1"/>
    <tag k="house" v="duplex"/>
    <tag k="name" v="502-4"/>
  </way>
  <way id="1242059502" version="6" timestamp="2024-01-23T01:05:19Z" changeset="146574244" uid="20773552" user="MapSk8r">
    <nd ref="11541191845"/>
    <nd ref="11541191852"/>
    <nd ref="11541191846"/>
    <nd ref="11541191847"/>
    <nd ref="11541613283"/>
    <nd ref="11541191848"/>
    <nd ref="11541191849"/>
    <nd ref="11541191857"/>
    <nd ref="11541191867"/>
    <nd ref="11541191850"/>
    <nd ref="11541191845"/>
    <tag k="addr:city" v="Imperial Beach"/>
    <tag k="addr:postcode" v="91932"/>
    <tag k="addr:state" v="CA"/>
    <tag k="addr:street" v="Delaware Street"/>
    <tag k="building" v="house"/>
    <tag k="building:levels" v="1"/>
    <tag k="house" v="duplex"/>
    <tag k="name" v="510-12"/>
  </way>
  <way id="1268096852" version="3" timestamp="2025-01-04T07:20:18Z" changeset="160974961" uid="22137982" user="TeeEn">
    <nd ref="9970748673"/>
    <nd ref="49337682"/>
    <tag k="highway" v="residential"/>
    <tag k="lane_markings" v="no"/>
    <tag k="name" v="Cypress Avenue"/>
    <tag k="surface" v="asphalt"/>
    <tag k="tiger:cfcc" v="A41"/>
    <tag k="tiger:county" v="San Diego, CA"/>
    <tag k="tiger:name_base" v="Cypress"/>
    <tag k="tiger:name_type" v="Ave"/>
  </way>
  <way id="1268976385" version="7" timestamp="2025-01-09T07:49:50Z" changeset="161159196" uid="22137982" user="TeeEn">
    <nd ref="6793163688"/>
    <nd ref="6774858625"/>
    <tag k="cycleway:left" v="no"/>
    <tag k="highway" v="residential"/>
    <tag k="lanes" v="1"/>
    <tag k="name" v="Bayside Way"/>
    <tag k="oneway" v="yes"/>
    <tag k="parking:left" v="no"/>
    <tag k="sidewalk:left" v="no"/>
    <tag k="surface" v="paving_stones"/>
  </way>
  <way id="1271375411" version="6" timestamp="2025-01-04T08:16:23Z" changeset="160974961" uid="22137982" user="TeeEn">
    <nd ref="49110399"/>
    <nd ref="11817993891"/>
    <nd ref="7262815050"/>
    <nd ref="5532584786"/>
    <nd ref="5531027503"/>
    <nd ref="5532584782"/>
    <nd ref="5532584780"/>
    <nd ref="5531027507"/>
    <nd ref="7262815049"/>
    <nd ref="11806464163"/>
    <tag k="highway" v="residential"/>
    <tag k="lane_markings" v="no"/>
    <tag k="name" v="12th Street"/>
    <tag k="sidewalk:both" v="separate"/>
    <tag k="surface" v="asphalt"/>
    <tag k="tiger:cfcc" v="A41"/>
    <tag k="tiger:county" v="San Diego, CA"/>
    <tag k="tiger:name_base" v="12th"/>
    <tag k="tiger:name_type" v="St"/>
    <tag k="tiger:reviewed" v="no"/>
  </way>
  <way id="1271375430" version="6" timestamp="2025-01-06T15:20:36Z" changeset="161054906" uid="22137982" user="TeeEn">
    <nd ref="11817982516"/>
    <nd ref="7262815025"/>
    <nd ref="49415671"/>
    <nd ref="5530999342"/>
    <nd ref="5530999336"/>
    <nd ref="11806510361"/>
    <nd ref="7262815023"/>
    <nd ref="7262815022"/>
    <tag k="highway" v="residential"/>
    <tag k="lane_markings" v="no"/>
    <tag k="name" v="11th Street"/>
    <tag k="sidewalk:both" v="separate"/>
    <tag k="surface" v="asphalt"/>
    <tag k="tiger:cfcc" v="A41"/>
    <tag k="tiger:county" v="San Diego, CA"/>
    <tag k="tiger:name_base" v="11th"/>
    <tag k="tiger:name_type" v="St"/>
    <tag k="tiger:reviewed" v="no"/>
  </way>
  <way id="1271375431" version="6" timestamp="2025-01-06T15:26:05Z" changeset="161054906" uid="22137982" user="TeeEn">
    <nd ref="7262815019"/>
    <nd ref="49169952"/>
    <nd ref="5530999340"/>
    <nd ref="11336083671"/>
    <nd ref="10905308472"/>
    <nd ref="7262815018"/>
    <nd ref="11806510333"/>
    <tag k="highway" v="residential"/>
    <tag k="lane_markings" v="no"/>
    <tag k="name" v="10th Street"/>
    <tag k="sidewalk:both" v="separate"/>
    <tag k="surface" v="asphalt"/>
    <tag k="tiger:cfcc" v="A41"/>
    <tag k="tiger:county" v="San Diego, CA"/>
    <tag k="tiger:name_base" v="10th"/>
    <tag k="tiger:name_type" v="St"/>
    <tag k="tiger:reviewed" v="no"/>
  </way>
  <way id="1271375434" version="7" timestamp="2025-05-05T18:04:06Z" changeset="165858788" uid="21393709" user="CtI5UDYpRmUS">
    <nd ref="7262815014"/>
    <nd ref="7262815016"/>
    <nd ref="3583955178"/>
    <nd ref="12812237497"/>
    <nd ref="5530950353"/>
    <nd ref="5530950361"/>
    <nd ref="5530950350"/>
    <nd ref="5530950358"/>
    <nd ref="7262815017"/>
    <nd ref="11806510348"/>
    <tag k="highway" v="residential"/>
    <tag k="lane_markings" v="no"/>
    <tag k="name" v="Emory Street"/>
    <tag k="sidewalk:both" v="separate"/>
    <tag k="surface" v="asphalt"/>
    <tag k="tiger:cfcc" v="A41"/>
    <tag k="tiger:county" v="San Diego, CA"/>
    <tag k="tiger:name_base" v="Emory"/>
    <tag k="tiger:name_type" v="St"/>
    <tag k="tiger:reviewed" v="no"/>
  </way>
  <way id="1271377875" version="4" timestamp="2025-01-04T07:01:33Z" changeset="160974961" uid="22137982" user="TeeEn">
    <nd ref="49556815"/>
    <nd ref="49561929"/>
    <nd ref="11785013542"/>
    <nd ref="279049013"/>
    <tag k="highway" v="residential"/>
    <tag k="lane_markings" v="no"/>
    <tag k="name" v="Delaware Street"/>
    <tag k="oneway" v="no"/>
    <tag k="sidewalk:both" v="separate"/>
    <tag k="surface" v="asphalt"/>
    <tag k="tiger:cfcc" v="A41"/>
    <tag k="tiger:county" v="San Diego, CA"/>
    <tag k="tiger:name_base" v="Delaware"/>
    <tag k="tiger:name_type" v="St"/>
    <tag k="tiger:reviewed" v="no"/>
  </way>
  <way id="1271377879" version="13" timestamp="2025-01-06T14:29:49Z" changeset="161054906" uid="22137982" user="TeeEn">
    <nd ref="7262802154"/>
    <nd ref="7262802155"/>
    <nd ref="3701827402"/>
    <nd ref="12289706044"/>
    <nd ref="11817866708"/>
    <tag k="highway" v="residential"/>
    <tag k="lane_markings" v="no"/>
    <tag k="name" v="Cypress Avenue"/>
    <tag k="sidewalk:both" v="separate"/>
    <tag k="surface" v="asphalt"/>
    <tag k="tiger:cfcc" v="A41"/>
    <tag k="tiger:county" v="San Diego, CA"/>
    <tag k="tiger:name_base" v="Cypress"/>
    <tag k="tiger:name_type" v="Ave"/>
  </way>
  <way id="1271377884" version="9" timestamp="2025-01-06T14:26:47Z" changeset="161054906" uid="22137982" user="TeeEn">
    <nd ref="11817887232"/>
    <nd ref="7262814994"/>
    <nd ref="12466643578"/>
    <tag k="highway" v="residential"/>
    <tag k="lane_markings" v="no"/>
    <tag k="name" v="8th Street"/>
    <tag k="oneway" v="no"/>
    <tag k="sidewalk:both" v="separate"/>
    <tag k="surface" v="asphalt"/>
    <tag k="tiger:cfcc" v="A41"/>
    <tag k="tiger:county" v="San Diego, CA"/>
    <tag k="tiger:name_base" v="8th"/>
    <tag k="tiger:name_type" v="St"/>
    <tag k="tiger:reviewed" v="no"/>
  </way>
  <way id="1271377889" version="4" timestamp="2025-01-06T14:41:34Z" changeset="161054906" uid="22137982" user="TeeEn">
    <nd ref="6774858625"/>
    <nd ref="6793163687"/>
    <nd ref="6793163694"/>
    <tag k="highway" v="residential"/>
    <tag k="lane_markings" v="no"/>
    <tag k="name" v="Pelican Lane"/>
    <tag k="surface" v="paved"/>
  </way>
  <way id="1271377891" version="4" timestamp="2025-01-06T14:41:36Z" changeset="161054906" uid="22137982" user="TeeEn">
    <nd ref="6774858625"/>
    <nd ref="6793163700"/>
    <tag k="highway" v="residential"/>
    <tag k="lane_markings" v="no"/>
    <tag k="name" v="Pelican Lane"/>
    <tag k="oneway" v="no"/>
    <tag k="surface" v="paved"/>
  </way>
  <way id="1271580163" version="6" timestamp="2025-01-09T07:49:47Z" changeset="161159196" uid="22137982" user="TeeEn">
    <nd ref="279046477"/>
    <nd ref="6793163689"/>
    <nd ref="11785222743"/>
    <nd ref="6793163688"/>
    <tag k="cycleway:left" v="no"/>
    <tag k="highway" v="residential"/>
    <tag k="lanes" v="1"/>
    <tag k="name" v="Bayside Way"/>
    <tag k="oneway" v="yes"/>
    <tag k="parking:left" v="no"/>
    <tag k="sidewalk:left" v="no"/>
    <tag k="surface" v="paved"/>
  </way>
  <way id="1271580165" version="3" timestamp="2025-01-06T14:41:25Z" changeset="161054906" uid="22137982" user="TeeEn">
    <nd ref="6793163694"/>
    <nd ref="6793163695"/>
    <nd ref="6793163696"/>
    <tag k="highway" v="residential"/>
    <tag k="lane_markings" v="no"/>
    <tag k="name" v="Lark Way"/>
    <tag k="surface" v="asphalt"/>
  </way>
  <way id="1272163768" version="3" timestamp="2025-01-01T09:36:48Z" changeset="160855629" uid="22137982" user="TeeEn">
    <nd ref="7262815045"/>
    <nd ref="11806510276"/>
    <nd ref="11331902188"/>
    <tag k="highway" v="residential"/>
    <tag k="lanes" v="2"/>
    <tag k="name" v="Florida Street"/>
    <tag k="sidewalk:both" v="separate"/>
    <tag k="surface" v="asphalt"/>
    <tag k="tiger:cfcc" v="A41"/>
    <tag k="tiger:county" v="San Diego, CA"/>
    <tag k="tiger:name_base" v="Florida"/>
    <tag k="tiger:name_type" v="St"/>
    <tag k="tiger:reviewed" v="no"/>
  </way>
  <way id="1272167380" version="9" timestamp="2025-01-06T15:01:24Z" changeset="161054906" uid="22137982" user="TeeEn">
    <nd ref="49169948"/>
    <nd ref="7262815030"/>
    <nd ref="11901022064"/>
    <nd ref="11898497893"/>
    <nd ref="11898497346"/>
    <nd ref="11958406378"/>
    <nd ref="11898497892"/>
    <nd ref="11901047548"/>
    <nd ref="49169949"/>
    <nd ref="12466593091"/>
    <tag k="highway" v="residential"/>
    <tag k="lane_markings" v="no"/>
    <tag k="name" v="10th Street"/>
    <tag k="sidewalk:both" v="separate"/>
    <tag k="surface" v="asphalt"/>
    <tag k="tiger:cfcc" v="A41"/>
    <tag k="tiger:county" v="San Diego, CA"/>
    <tag k="tiger:name_base" v="10th"/>
    <tag k="tiger:name_type" v="St"/>
    <tag k="tiger:reviewed" v="no"/>
  </way>
  <way id="1272167382" version="7" timestamp="2025-01-04T07:12:01Z" changeset="160974961" uid="22137982" user="TeeEn">
    <nd ref="49777729"/>
    <nd ref="11925202426"/>
    <nd ref="11925202429"/>
    <nd ref="11947509520"/>
    <nd ref="7262815009"/>
    <nd ref="49776271"/>
    <tag k="highway" v="residential"/>
    <tag k="lane_markings" v="no"/>
    <tag k="name" v="Emory Street"/>
    <tag k="sidewalk:both" v="separate"/>
    <tag k="surface" v="asphalt"/>
    <tag k="tiger:cfcc" v="A41"/>
    <tag k="tiger:county" v="San Diego, CA"/>
    <tag k="tiger:name_base" v="Emory"/>
    <tag k="tiger:name_type" v="St"/>
    <tag k="tiger:reviewed" v="no"/>
  </way>
  <way id="1272174877" version="3" timestamp="2025-01-01T09:27:29Z" changeset="160855629" uid="22137982" user="TeeEn">
    <nd ref="49105196"/>
    <nd ref="11817972838"/>
    <nd ref="49105197"/>
    <tag k="highway" v="residential"/>
    <tag k="lanes" v="2"/>
    <tag k="name" v="Florence Street"/>
    <tag k="sidewalk:right" v="separate"/>
    <tag k="surface" v="asphalt"/>
    <tag k="tiger:cfcc" v="A41"/>
    <tag k="tiger:county" v="San Diego, CA"/>
    <tag k="tiger:name_base" v="Florence"/>
    <tag k="tiger:name_type" v="St"/>
    <tag k="tiger:reviewed" v="no"/>
  </way>
  <way id="1272661845" version="6" timestamp="2025-01-01T09:54:28Z" changeset="160855629" uid="22137982" user="TeeEn">
    <nd ref="7262802174"/>
    <nd ref="7262802176"/>
    <nd ref="5530925073"/>
    <nd ref="11947508204"/>
    <nd ref="11947509618"/>
    <nd ref="49173889"/>
    <nd ref="11947509881"/>
    <nd ref="11947509251"/>
    <nd ref="11947509275"/>
    <nd ref="5530950406"/>
    <nd ref="11817879606"/>
    <nd ref="7262814999"/>
    <tag k="highway" v="residential"/>
    <tag k="lanes" v="2"/>
    <tag k="name" v="Calla Avenue"/>
    <tag k="sidewalk:both" v="separate"/>
    <tag k="surface" v="asphalt"/>
    <tag k="tiger:cfcc" v="A41"/>
    <tag k="tiger:county" v="San Diego, CA"/>
    <tag k="tiger:name_base" v="Calla"/>
    <tag k="tiger:name_type" v="Ave"/>
    <tag k="tiger:reviewed" v="no"/>
  </way>
  <way id="1272661846" version="4" timestamp="2025-01-04T06:48:25Z" changeset="160974875" uid="22137982" user="TeeEn">
    <nd ref="7262814999"/>
    <nd ref="7262815002"/>
    <nd ref="3583955180"/>
    <nd ref="5530950343"/>
    <nd ref="5530950390"/>
    <tag k="highway" v="residential"/>
    <tag k="lanes" v="2"/>
    <tag k="name" v="9th Street"/>
    <tag k="sidewalk:both" v="separate"/>
    <tag k="surface" v="asphalt"/>
    <tag k="tiger:cfcc" v="A41"/>
    <tag k="tiger:county" v="San Diego, CA"/>
    <tag k="tiger:name_base" v="9th"/>
    <tag k="tiger:name_type" v="St"/>
    <tag k="tiger:reviewed" v="no"/>
  </way>
  <way id="1272663279" version="2" timestamp="2024-07-12T08:39:00Z" changeset="153844743" uid="21425661" user="CjMalone">
    <nd ref="7213665354"/>
    <nd ref="11817887206"/>
    <nd ref="11817887207"/>
    <nd ref="11817887208"/>
    <nd ref="11817887209"/>
    <nd ref="11817887210"/>
    <nd ref="11817887211"/>
    <nd ref="11817887212"/>
    <nd ref="11817887213"/>
    <nd ref="11817887214"/>
    <nd ref="11817887215"/>
    <nd ref="11817887216"/>
    <nd ref="11817887217"/>
    <nd ref="11817887218"/>
    <nd ref="11817887219"/>
    <nd ref="7213665354"/>
    <tag k="addr:city" v="Imperial Beach"/>
    <tag k="addr:housenumber" v="836"/>
    <tag k="addr:postcode" v="91932"/>
    <tag k="addr:state" v="CA"/>
    <tag k="addr:street" v="Palm Avenue"/>
    <tag k="brand" v="Dollar Tree"/>
    <tag k="brand:wikidata" v="Q5289230"/>
    <tag k="building" v="yes"/>
    <tag k="check_date" v="2024-07-11"/>
    <tag k="check_date:opening_hours" v="2024-07-11"/>
    <tag k="name" v="Dollar Tree"/>
    <tag k="opening_hours" v="Mo-Sa 08:00-22:00; Su 08:00-21:00"/>
    <tag k="shop" v="variety_store"/>
    <tag k="website" v="https://www.dollartree.com/locations/ca/imperial-beach/7616/"/>
  </way>
  <way id="1272664938" version="2" timestamp="2024-07-16T16:15:05Z" changeset="154023196" uid="16155068" user="spughetti">
    <nd ref="11817879636"/>
    <nd ref="11817879637"/>
    <nd ref="11817879638"/>
    <nd ref="11817879639"/>
    <nd ref="11817879640"/>
    <nd ref="11817879641"/>
    <nd ref="11817879642"/>
    <nd ref="11817879643"/>
    <nd ref="11817879644"/>
    <nd ref="11817879645"/>
    <nd ref="11817879646"/>
    <nd ref="11817879647"/>
    <nd ref="11817879648"/>
    <nd ref="11817879649"/>
    <nd ref="11817879636"/>
    <tag k="addr:city" v="Imperial Beach"/>
    <tag k="addr:housenumber" v="800"/>
    <tag k="addr:postcode" v="91932"/>
    <tag k="addr:state" v="CA"/>
    <tag k="addr:street" v="Palm Avenue"/>
    <tag k="brand" v="CVS Pharmacy"/>
    <tag k="brand:website" v="https://www.cvs.com/"/>
    <tag k="brand:wikidata" v="Q2078880"/>
    <tag k="brand:wikipedia" v="en:CVS Pharmacy"/>
    <tag k="building" v="yes"/>
    <tag k="name" v="CVS Pharmacy"/>
    <tag k="shop" v="chemist"/>
    <tag k="short_name" v="CVS"/>
    <tag k="website" v="https://www.cvs.com/store-locator/imperial-beach-ca-pharmacies/800-palm-ave-imperial-beach-ca-91932/storeid=9120"/>
  </way>
  <way id="1272668660" version="6" timestamp="2025-01-06T14:29:05Z" changeset="161054906" uid="22137982" user="TeeEn">
    <nd ref="49561925"/>
    <nd ref="7262802178"/>
    <nd ref="12289706047"/>
    <nd ref="12289706050"/>
    <nd ref="11947509466"/>
    <nd ref="12289706053"/>
    <nd ref="12289706056"/>
    <nd ref="11947508211"/>
    <nd ref="11947509400"/>
    <nd ref="12289706059"/>
    <nd ref="11947509157"/>
    <nd ref="48992239"/>
    <nd ref="5530925075"/>
    <nd ref="49556815"/>
    <tag k="highway" v="residential"/>
    <tag k="lane_markings" v="no"/>
    <tag k="name" v="Delaware Street"/>
    <tag k="oneway" v="no"/>
    <tag k="sidewalk:both" v="separate"/>
    <tag k="surface" v="asphalt"/>
    <tag k="tiger:cfcc" v="A41"/>
    <tag k="tiger:county" v="San Diego, CA"/>
    <tag k="tiger:name_base" v="Delaware"/>
    <tag k="tiger:name_type" v="St"/>
    <tag k="tiger:reviewed" v="no"/>
  </way>
  <way id="1272669080" version="8" timestamp="2025-01-04T06:58:54Z" changeset="160974875" uid="22137982" user="TeeEn">
    <nd ref="49741872"/>
    <nd ref="11898497887"/>
    <nd ref="11898497888"/>
    <nd ref="11898497886"/>
    <nd ref="11947510223"/>
    <nd ref="11947729646"/>
    <nd ref="6793163703"/>
    <nd ref="48992238"/>
    <nd ref="5530925083"/>
    <nd ref="12466653879"/>
    <tag k="cycleway" v="shared_lane"/>
    <tag k="highway" v="residential"/>
    <tag k="name" v="7th Street"/>
    <tag k="oneway" v="no"/>
    <tag k="sidewalk:both" v="separate"/>
    <tag k="surface" v="asphalt"/>
    <tag k="tiger:cfcc" v="A41"/>
    <tag k="tiger:county" v="San Diego, CA"/>
    <tag k="tiger:name_base" v="7th"/>
    <tag k="tiger:name_type" v="St"/>
    <tag k="tiger:reviewed" v="no"/>
  </way>
  <way id="1272672370" version="7" timestamp="2025-01-06T15:10:17Z" changeset="161054906" uid="22137982" user="TeeEn">
    <nd ref="49128599"/>
    <nd ref="11817957406"/>
    <nd ref="49415664"/>
    <nd ref="12097694844"/>
    <nd ref="11982608042"/>
    <nd ref="11982608040"/>
    <nd ref="11982608038"/>
    <nd ref="11982608036"/>
    <nd ref="11982608034"/>
    <nd ref="11982608032"/>
    <nd ref="7262815038"/>
    <nd ref="7262815027"/>
    <tag k="highway" v="residential"/>
    <tag k="lane_markings" v="no"/>
    <tag k="name" v="11th Street"/>
    <tag k="sidewalk:both" v="separate"/>
    <tag k="surface" v="asphalt"/>
    <tag k="tiger:cfcc" v="A41"/>
    <tag k="tiger:county" v="San Diego, CA"/>
    <tag k="tiger:name_base" v="11th"/>
    <tag k="tiger:name_type" v="St"/>
    <tag k="tiger:reviewed" v="no"/>
  </way>
  <way id="1272672371" version="8" timestamp="2025-05-05T18:04:06Z" changeset="165858788" uid="21393709" user="CtI5UDYpRmUS">
    <nd ref="49418948"/>
    <nd ref="12812236102"/>
    <nd ref="12812231711"/>
    <nd ref="3701827399"/>
    <nd ref="7262815007"/>
    <nd ref="49776271"/>
    <nd ref="7262815008"/>
    <nd ref="49776272"/>
    <nd ref="12289751277"/>
    <nd ref="7262815034"/>
    <nd ref="7262815032"/>
    <nd ref="49169948"/>
    <nd ref="7262815033"/>
    <nd ref="7262815035"/>
    <nd ref="3701827398"/>
    <nd ref="11958406365"/>
    <nd ref="49415666"/>
    <tag k="highway" v="residential"/>
    <tag k="lane_markings" v="no"/>
    <tag k="name" v="Cypress Avenue"/>
    <tag k="sidewalk:both" v="separate"/>
    <tag k="surface" v="asphalt"/>
    <tag k="tiger:cfcc" v="A41"/>
    <tag k="tiger:county" v="San Diego, CA"/>
    <tag k="tiger:name_base" v="Cypress"/>
    <tag k="tiger:name_type" v="Ave"/>
  </way>
  <way id="1272674307" version="4" timestamp="2025-01-01T09:52:19Z" changeset="160855629" uid="22137982" user="TeeEn">
    <nd ref="49190444"/>
    <nd ref="11817967068"/>
    <nd ref="11947509480"/>
    <nd ref="7262815042"/>
    <tag k="highway" v="residential"/>
    <tag k="lanes" v="2"/>
    <tag k="name" v="Florida Street"/>
    <tag k="sidewalk:both" v="separate"/>
    <tag k="surface" v="asphalt"/>
    <tag k="tiger:cfcc" v="A41"/>
    <tag k="tiger:county" v="San Diego, CA"/>
    <tag k="tiger:name_base" v="Florida"/>
    <tag k="tiger:name_type" v="St"/>
    <tag k="tiger:reviewed" v="no"/>
  </way>
  <way id="1272674312" version="6" timestamp="2025-01-04T08:12:59Z" changeset="160974961" uid="22137982" user="TeeEn">
    <nd ref="49110395"/>
    <nd ref="12297131059"/>
    <nd ref="12297131058"/>
    <nd ref="49110396"/>
    <nd ref="12297131057"/>
    <nd ref="12297131056"/>
    <nd ref="12297131053"/>
    <nd ref="5530476685"/>
    <nd ref="7262815053"/>
    <nd ref="7262815046"/>
    <tag k="highway" v="residential"/>
    <tag k="lane_markings" v="no"/>
    <tag k="name" v="12th Street"/>
    <tag k="sidewalk:both" v="separate"/>
    <tag k="surface" v="asphalt"/>
    <tag k="tiger:cfcc" v="A41"/>
    <tag k="tiger:county" v="San Diego, CA"/>
    <tag k="tiger:name_base" v="12th"/>
    <tag k="tiger:name_type" v="St"/>
    <tag k="tiger:reviewed" v="no"/>
  </way>
  <way id="1273265841" version="1" timestamp="2024-04-17T07:09:24Z" changeset="150113232" uid="11609320" user="telcodude">
    <nd ref="11823996695"/>
    <nd ref="11823996696"/>
    <nd ref="11823996697"/>
    <nd ref="11823996698"/>
    <nd ref="9598564160"/>
    <nd ref="11823996695"/>
    <tag k="building" v="yes"/>
    <tag k="name" v="AT&amp;T"/>
    <tag k="operator" v="AT&amp;T"/>
    <tag k="operator:wikidata" v="Q108085506"/>
    <tag k="telecom" v="exchange"/>
  </way>
  <way id="1297734606" version="1" timestamp="2024-06-30T19:16:22Z" changeset="153382503" uid="11609320" user="telcodude">
    <nd ref="12023290973"/>
    <nd ref="12023290974"/>
    <nd ref="12023290975"/>
    <nd ref="12023290976"/>
    <nd ref="12023290977"/>
    <nd ref="12023290978"/>
    <nd ref="12023290973"/>
    <tag k="addr:city" v="Imperial Beach"/>
    <tag k="addr:housenumber" v="890"/>
    <tag k="addr:postcode" v="91932"/>
    <tag k="addr:state" v="CA"/>
    <tag k="addr:street" v="Palm Avenue"/>
    <tag k="amenity" v="fast_food"/>
    <tag k="brand" v="Jack in the Box"/>
    <tag k="brand:wikidata" v="Q1538507"/>
    <tag k="building" v="yes"/>
    <tag k="cuisine" v="burger"/>
    <tag k="layer" v="1"/>
    <tag k="name" v="Jack in the Box"/>
    <tag k="takeaway" v="yes"/>
  </way>
  <way id="1297734607" version="1" timestamp="2024-06-30T19:16:22Z" changeset="153382503" uid="11609320" user="telcodude">
    <nd ref="12023290979"/>
    <nd ref="12023290980"/>
    <nd ref="12023290981"/>
    <nd ref="12023290982"/>
    <nd ref="12023290983"/>
    <nd ref="12023290984"/>
    <nd ref="12023290985"/>
    <nd ref="12023290986"/>
    <nd ref="12023290979"/>
    <tag k="addr:city" v="Imperial Beach"/>
    <tag k="addr:housenumber" v="900"/>
    <tag k="addr:postcode" v="91932"/>
    <tag k="addr:state" v="CA"/>
    <tag k="addr:street" v="Palm Avenue"/>
    <tag k="alt_name" v="UnionBank"/>
    <tag k="amenity" v="bank"/>
    <tag k="brand" v="Union Bank"/>
    <tag k="brand:wikidata" v="Q1442804"/>
    <tag k="building" v="yes"/>
    <tag k="name" v="Union Bank"/>
  </way>
  <way id="1347734906" version="2" timestamp="2025-01-09T10:19:40Z" changeset="161159196" uid="22137982" user="TeeEn">
    <nd ref="11817875085"/>
    <nd ref="49337693"/>
    <tag k="highway" v="residential"/>
    <tag k="lanes" v="2"/>
    <tag k="name" v="Calla Avenue"/>
    <tag k="parking:both" v="no"/>
    <tag k="surface" v="asphalt"/>
    <tag k="tiger:cfcc" v="A41"/>
    <tag k="tiger:county" v="San Diego, CA"/>
    <tag k="tiger:name_base" v="Calla"/>
    <tag k="tiger:name_type" v="Ave"/>
    <tag k="tiger:reviewed" v="no"/>
  </way>
  <way id="1347735046" version="4" timestamp="2025-01-09T10:19:58Z" changeset="161159196" uid="22137982" user="TeeEn">
    <nd ref="7262815046"/>
    <nd ref="49110398"/>
    <tag k="highway" v="residential"/>
    <tag k="lane_markings" v="no"/>
    <tag k="name" v="12th Street"/>
    <tag k="parking:both" v="no"/>
    <tag k="surface" v="asphalt"/>
    <tag k="tiger:cfcc" v="A41"/>
    <tag k="tiger:county" v="San Diego, CA"/>
    <tag k="tiger:name_base" v="12th"/>
    <tag k="tiger:name_type" v="St"/>
    <tag k="tiger:reviewed" v="no"/>
  </way>
  <way id="1347735047" version="4" timestamp="2025-01-09T10:20:01Z" changeset="161159196" uid="22137982" user="TeeEn">
    <nd ref="49110398"/>
    <nd ref="7262815047"/>
    <tag k="highway" v="residential"/>
    <tag k="lane_markings" v="no"/>
    <tag k="name" v="12th Street"/>
    <tag k="parking:both" v="no"/>
    <tag k="surface" v="asphalt"/>
    <tag k="tiger:cfcc" v="A41"/>
    <tag k="tiger:county" v="San Diego, CA"/>
    <tag k="tiger:name_base" v="12th"/>
    <tag k="tiger:name_type" v="St"/>
    <tag k="tiger:reviewed" v="no"/>
  </way>
  <way id="1347735056" version="4" timestamp="2025-01-09T08:03:13Z" changeset="161159196" uid="22137982" user="TeeEn">
    <nd ref="11806464163"/>
    <nd ref="279049464"/>
    <tag k="highway" v="residential"/>
    <tag k="lane_markings" v="no"/>
    <tag k="name" v="12th Street"/>
    <tag k="parking:both" v="no"/>
    <tag k="surface" v="asphalt"/>
    <tag k="tiger:cfcc" v="A41"/>
    <tag k="tiger:county" v="San Diego, CA"/>
    <tag k="tiger:name_base" v="12th"/>
    <tag k="tiger:name_type" v="St"/>
    <tag k="tiger:reviewed" v="no"/>
  </way>
  <way id="1347735138" version="2" timestamp="2025-01-09T10:20:42Z" changeset="161159196" uid="22137982" user="TeeEn">
    <nd ref="11817994365"/>
    <nd ref="49105198"/>
    <nd ref="11817993877"/>
    <tag k="highway" v="residential"/>
    <tag k="lanes" v="2"/>
    <tag k="name" v="Florence Street"/>
    <tag k="parking:both" v="no"/>
    <tag k="surface" v="asphalt"/>
    <tag k="tiger:cfcc" v="A41"/>
    <tag k="tiger:county" v="San Diego, CA"/>
    <tag k="tiger:name_base" v="Florence"/>
    <tag k="tiger:name_type" v="St"/>
    <tag k="tiger:reviewed" v="no"/>
  </way>
  <way id="1347735139" version="3" timestamp="2025-01-01T08:45:32Z" changeset="160855629" uid="22137982" user="TeeEn">
    <nd ref="11817993877"/>
    <nd ref="7262815057"/>
    <nd ref="11817993870"/>
    <nd ref="12297119977"/>
    <nd ref="12297119975"/>
    <nd ref="11947510187"/>
    <nd ref="12305195429"/>
    <nd ref="5531027510"/>
    <nd ref="7262815056"/>
    <nd ref="11806464150"/>
    <tag k="highway" v="residential"/>
    <tag k="lanes" v="2"/>
    <tag k="name" v="Florence Street"/>
    <tag k="sidewalk:both" v="separate"/>
    <tag k="surface" v="asphalt"/>
    <tag k="tiger:cfcc" v="A41"/>
    <tag k="tiger:county" v="San Diego, CA"/>
    <tag k="tiger:name_base" v="Florence"/>
    <tag k="tiger:name_type" v="St"/>
    <tag k="tiger:reviewed" v="no"/>
  </way>
  <way id="1347735140" version="2" timestamp="2025-01-09T08:04:25Z" changeset="161159196" uid="22137982" user="TeeEn">
    <nd ref="11806464150"/>
    <nd ref="279049499"/>
    <tag k="highway" v="residential"/>
    <tag k="lanes" v="2"/>
    <tag k="name" v="Florence Street"/>
    <tag k="parking:both" v="no"/>
    <tag k="surface" v="asphalt"/>
    <tag k="tiger:cfcc" v="A41"/>
    <tag k="tiger:county" v="San Diego, CA"/>
    <tag k="tiger:name_base" v="Florence"/>
    <tag k="tiger:name_type" v="St"/>
    <tag k="tiger:reviewed" v="no"/>
  </way>
  <way id="1347739397" version="4" timestamp="2025-01-09T08:05:54Z" changeset="161159196" uid="22137982" user="TeeEn">
    <nd ref="11806510348"/>
    <nd ref="279049261"/>
    <tag k="highway" v="residential"/>
    <tag k="lane_markings" v="no"/>
    <tag k="name" v="Emory Street"/>
    <tag k="parking:both" v="no"/>
    <tag k="surface" v="asphalt"/>
    <tag k="tiger:cfcc" v="A41"/>
    <tag k="tiger:county" v="San Diego, CA"/>
    <tag k="tiger:name_base" v="Emory"/>
    <tag k="tiger:name_type" v="St"/>
    <tag k="tiger:reviewed" v="no"/>
  </way>
  <way id="1347739398" version="4" timestamp="2025-01-09T11:03:22Z" changeset="161159196" uid="22137982" user="TeeEn">
    <nd ref="49556816"/>
    <nd ref="7262815014"/>
    <tag k="highway" v="residential"/>
    <tag k="lane_markings" v="no"/>
    <tag k="name" v="Emory Street"/>
    <tag k="parking:both" v="no"/>
    <tag k="surface" v="asphalt"/>
    <tag k="tiger:cfcc" v="A41"/>
    <tag k="tiger:county" v="San Diego, CA"/>
    <tag k="tiger:name_base" v="Emory"/>
    <tag k="tiger:name_type" v="St"/>
    <tag k="tiger:reviewed" v="no"/>
  </way>
  <way id="1347739405" version="4" timestamp="2025-01-09T11:03:19Z" changeset="161159196" uid="22137982" user="TeeEn">
    <nd ref="7262815013"/>
    <nd ref="49556816"/>
    <tag k="highway" v="residential"/>
    <tag k="lane_markings" v="no"/>
    <tag k="name" v="Emory Street"/>
    <tag k="parking:both" v="no"/>
    <tag k="surface" v="asphalt"/>
    <tag k="tiger:cfcc" v="A41"/>
    <tag k="tiger:county" v="San Diego, CA"/>
    <tag k="tiger:name_base" v="Emory"/>
    <tag k="tiger:name_type" v="St"/>
    <tag k="tiger:reviewed" v="no"/>
  </way>
  <way id="1347739482" version="4" timestamp="2025-01-09T11:03:54Z" changeset="161159196" uid="22137982" user="TeeEn">
    <nd ref="12466593091"/>
    <nd ref="49169950"/>
    <tag k="highway" v="residential"/>
    <tag k="lane_markings" v="no"/>
    <tag k="name" v="10th Street"/>
    <tag k="parking:both" v="no"/>
    <tag k="surface" v="asphalt"/>
    <tag k="tiger:cfcc" v="A41"/>
    <tag k="tiger:county" v="San Diego, CA"/>
    <tag k="tiger:name_base" v="10th"/>
    <tag k="tiger:name_type" v="St"/>
    <tag k="tiger:reviewed" v="no"/>
  </way>
  <way id="1347739485" version="4" timestamp="2025-01-09T11:03:58Z" changeset="161159196" uid="22137982" user="TeeEn">
    <nd ref="49169950"/>
    <nd ref="7262815019"/>
    <tag k="highway" v="residential"/>
    <tag k="lane_markings" v="no"/>
    <tag k="name" v="10th Street"/>
    <tag k="parking:both" v="no"/>
    <tag k="surface" v="asphalt"/>
    <tag k="tiger:cfcc" v="A41"/>
    <tag k="tiger:county" v="San Diego, CA"/>
    <tag k="tiger:name_base" v="10th"/>
    <tag k="tiger:name_type" v="St"/>
    <tag k="tiger:reviewed" v="no"/>
  </way>
  <way id="1347739524" version="4" timestamp="2025-01-09T08:05:40Z" changeset="161159196" uid="22137982" user="TeeEn">
    <nd ref="11806510333"/>
    <nd ref="279049262"/>
    <tag k="highway" v="residential"/>
    <tag k="lane_markings" v="no"/>
    <tag k="name" v="10th Street"/>
    <tag k="parking:both" v="no"/>
    <tag k="surface" v="asphalt"/>
    <tag k="tiger:cfcc" v="A41"/>
    <tag k="tiger:county" v="San Diego, CA"/>
    <tag k="tiger:name_base" v="10th"/>
    <tag k="tiger:name_type" v="St"/>
    <tag k="tiger:reviewed" v="no"/>
  </way>
  <way id="1347739570" version="4" timestamp="2025-01-09T11:04:08Z" changeset="161159196" uid="22137982" user="TeeEn">
    <nd ref="49415669"/>
    <nd ref="11817982516"/>
    <tag k="highway" v="residential"/>
    <tag k="lane_markings" v="no"/>
    <tag k="name" v="11th Street"/>
    <tag k="parking:both" v="no"/>
    <tag k="surface" v="asphalt"/>
    <tag k="tiger:cfcc" v="A41"/>
    <tag k="tiger:county" v="San Diego, CA"/>
    <tag k="tiger:name_base" v="11th"/>
    <tag k="tiger:name_type" v="St"/>
    <tag k="tiger:reviewed" v="no"/>
  </way>
  <way id="1347739571" version="4" timestamp="2025-01-09T08:05:21Z" changeset="161159196" uid="22137982" user="TeeEn">
    <nd ref="7262815022"/>
    <nd ref="11806510319"/>
    <tag k="highway" v="residential"/>
    <tag k="lane_markings" v="no"/>
    <tag k="name" v="11th Street"/>
    <tag k="parking:both" v="no"/>
    <tag k="surface" v="asphalt"/>
    <tag k="tiger:cfcc" v="A41"/>
    <tag k="tiger:county" v="San Diego, CA"/>
    <tag k="tiger:name_base" v="11th"/>
    <tag k="tiger:name_type" v="St"/>
    <tag k="tiger:reviewed" v="no"/>
  </way>
  <way id="1347739773" version="4" timestamp="2025-01-09T11:04:20Z" changeset="161159196" uid="22137982" user="TeeEn">
    <nd ref="49415666"/>
    <nd ref="7262815028"/>
    <tag k="highway" v="residential"/>
    <tag k="lane_markings" v="no"/>
    <tag k="name" v="11th Street"/>
    <tag k="parking:both" v="no"/>
    <tag k="surface" v="asphalt"/>
    <tag k="tiger:cfcc" v="A41"/>
    <tag k="tiger:county" v="San Diego, CA"/>
    <tag k="tiger:name_base" v="11th"/>
    <tag k="tiger:name_type" v="St"/>
    <tag k="tiger:reviewed" v="no"/>
  </way>
  <way id="1347739774" version="4" timestamp="2025-01-09T11:04:06Z" changeset="161159196" uid="22137982" user="TeeEn">
    <nd ref="12466627697"/>
    <nd ref="49415669"/>
    <tag k="highway" v="residential"/>
    <tag k="lane_markings" v="no"/>
    <tag k="name" v="11th Street"/>
    <tag k="parking:both" v="no"/>
    <tag k="surface" v="asphalt"/>
    <tag k="tiger:cfcc" v="A41"/>
    <tag k="tiger:county" v="San Diego, CA"/>
    <tag k="tiger:name_base" v="11th"/>
    <tag k="tiger:name_type" v="St"/>
    <tag k="tiger:reviewed" v="no"/>
  </way>
  <way id="1347739778" version="2" timestamp="2025-01-09T10:20:15Z" changeset="161159196" uid="22137982" user="TeeEn">
    <nd ref="49190445"/>
    <nd ref="7262815043"/>
    <tag k="highway" v="residential"/>
    <tag k="lanes" v="2"/>
    <tag k="name" v="Florida Street"/>
    <tag k="parking:both" v="no"/>
    <tag k="surface" v="asphalt"/>
    <tag k="tiger:cfcc" v="A41"/>
    <tag k="tiger:county" v="San Diego, CA"/>
    <tag k="tiger:name_base" v="Florida"/>
    <tag k="tiger:name_type" v="St"/>
    <tag k="tiger:reviewed" v="no"/>
  </way>
  <way id="1347739779" version="2" timestamp="2025-01-09T10:20:20Z" changeset="161159196" uid="22137982" user="TeeEn">
    <nd ref="7262815044"/>
    <nd ref="49190447"/>
    <tag k="highway" v="residential"/>
    <tag k="lanes" v="2"/>
    <tag k="name" v="Florida Street"/>
    <tag k="parking:both" v="no"/>
    <tag k="surface" v="asphalt"/>
    <tag k="tiger:cfcc" v="A41"/>
    <tag k="tiger:county" v="San Diego, CA"/>
    <tag k="tiger:name_base" v="Florida"/>
    <tag k="tiger:name_type" v="St"/>
    <tag k="tiger:reviewed" v="no"/>
  </way>
  <way id="1347739780" version="2" timestamp="2025-01-09T10:20:24Z" changeset="161159196" uid="22137982" user="TeeEn">
    <nd ref="49190447"/>
    <nd ref="7262815045"/>
    <tag k="highway" v="residential"/>
    <tag k="lanes" v="2"/>
    <tag k="name" v="Florida Street"/>
    <tag k="parking:both" v="no"/>
    <tag k="surface" v="asphalt"/>
    <tag k="tiger:cfcc" v="A41"/>
    <tag k="tiger:county" v="San Diego, CA"/>
    <tag k="tiger:name_base" v="Florida"/>
    <tag k="tiger:name_type" v="St"/>
    <tag k="tiger:reviewed" v="no"/>
  </way>
  <way id="1347740458" version="3" timestamp="2025-01-06T14:08:15Z" changeset="161054784" uid="22137982" user="TeeEn">
    <nd ref="49418946"/>
    <nd ref="12297119994"/>
    <nd ref="7262814997"/>
    <nd ref="7262814996"/>
    <tag k="highway" v="residential"/>
    <tag k="lanes" v="2"/>
    <tag k="name" v="9th Street"/>
    <tag k="sidewalk:both" v="separate"/>
    <tag k="surface" v="asphalt"/>
    <tag k="tiger:cfcc" v="A41"/>
    <tag k="tiger:county" v="San Diego, CA"/>
    <tag k="tiger:name_base" v="9th"/>
    <tag k="tiger:name_type" v="St"/>
    <tag k="tiger:reviewed" v="no"/>
  </way>
  <way id="1347740459" version="3" timestamp="2025-01-09T11:03:04Z" changeset="161159196" uid="22137982" user="TeeEn">
    <nd ref="7262814996"/>
    <nd ref="49418948"/>
    <nd ref="7262814995"/>
    <tag k="highway" v="residential"/>
    <tag k="lanes" v="2"/>
    <tag k="name" v="9th Street"/>
    <tag k="parking:both" v="no"/>
    <tag k="surface" v="asphalt"/>
    <tag k="tiger:cfcc" v="A41"/>
    <tag k="tiger:county" v="San Diego, CA"/>
    <tag k="tiger:name_base" v="9th"/>
    <tag k="tiger:name_type" v="St"/>
    <tag k="tiger:reviewed" v="no"/>
  </way>
  <way id="1347740540" version="4" timestamp="2025-01-09T11:02:53Z" changeset="161159196" uid="22137982" user="TeeEn">
    <nd ref="7262814991"/>
    <nd ref="49173887"/>
    <nd ref="11817936828"/>
    <tag k="highway" v="residential"/>
    <tag k="lane_markings" v="no"/>
    <tag k="name" v="Cypress Avenue"/>
    <tag k="parking:both" v="no"/>
    <tag k="surface" v="asphalt"/>
    <tag k="tiger:cfcc" v="A41"/>
    <tag k="tiger:county" v="San Diego, CA"/>
    <tag k="tiger:name_base" v="Cypress"/>
    <tag k="tiger:name_type" v="Ave"/>
  </way>
  <way id="1347740541" version="4" timestamp="2025-01-06T14:09:24Z" changeset="161054906" uid="22137982" user="TeeEn">
    <nd ref="11817936828"/>
    <nd ref="7262814992"/>
    <nd ref="11925363946"/>
    <nd ref="3701827401"/>
    <nd ref="11925363945"/>
    <nd ref="49418948"/>
    <tag k="highway" v="residential"/>
    <tag k="lane_markings" v="no"/>
    <tag k="name" v="Cypress Avenue"/>
    <tag k="sidewalk:both" v="separate"/>
    <tag k="surface" v="asphalt"/>
    <tag k="tiger:cfcc" v="A41"/>
    <tag k="tiger:county" v="San Diego, CA"/>
    <tag k="tiger:name_base" v="Cypress"/>
    <tag k="tiger:name_type" v="Ave"/>
  </way>
  <way id="1347740558" version="4" timestamp="2025-01-09T11:02:43Z" changeset="161159196" uid="22137982" user="TeeEn">
    <nd ref="11817866708"/>
    <nd ref="49561925"/>
    <nd ref="7262802177"/>
    <tag k="highway" v="residential"/>
    <tag k="lane_markings" v="no"/>
    <tag k="name" v="Cypress Avenue"/>
    <tag k="parking:both" v="no"/>
    <tag k="surface" v="asphalt"/>
    <tag k="tiger:cfcc" v="A41"/>
    <tag k="tiger:county" v="San Diego, CA"/>
    <tag k="tiger:name_base" v="Cypress"/>
    <tag k="tiger:name_type" v="Ave"/>
  </way>
  <way id="1347740559" version="4" timestamp="2025-01-06T14:24:45Z" changeset="161054906" uid="22137982" user="TeeEn">
    <nd ref="7262802177"/>
    <nd ref="49776268"/>
    <nd ref="7262814991"/>
    <tag k="highway" v="residential"/>
    <tag k="lane_markings" v="no"/>
    <tag k="name" v="Cypress Avenue"/>
    <tag k="sidewalk:both" v="separate"/>
    <tag k="surface" v="asphalt"/>
    <tag k="tiger:cfcc" v="A41"/>
    <tag k="tiger:county" v="San Diego, CA"/>
    <tag k="tiger:name_base" v="Cypress"/>
    <tag k="tiger:name_type" v="Ave"/>
  </way>
  <way id="1347740570" version="4" timestamp="2025-01-09T11:01:55Z" changeset="161159196" uid="22137982" user="TeeEn">
    <nd ref="49741872"/>
    <nd ref="7262802154"/>
    <tag k="highway" v="residential"/>
    <tag k="lane_markings" v="no"/>
    <tag k="name" v="Cypress Avenue"/>
    <tag k="parking:both" v="no"/>
    <tag k="surface" v="asphalt"/>
    <tag k="tiger:cfcc" v="A41"/>
    <tag k="tiger:county" v="San Diego, CA"/>
    <tag k="tiger:name_base" v="Cypress"/>
    <tag k="tiger:name_type" v="Ave"/>
  </way>
  <way id="1347740586" version="4" timestamp="2025-01-09T11:04:18Z" changeset="161159196" uid="22137982" user="TeeEn">
    <nd ref="7262815027"/>
    <nd ref="49415666"/>
    <tag k="highway" v="residential"/>
    <tag k="lane_markings" v="no"/>
    <tag k="name" v="11th Street"/>
    <tag k="parking:both" v="no"/>
    <tag k="surface" v="asphalt"/>
    <tag k="tiger:cfcc" v="A41"/>
    <tag k="tiger:county" v="San Diego, CA"/>
    <tag k="tiger:name_base" v="11th"/>
    <tag k="tiger:name_type" v="St"/>
    <tag k="tiger:reviewed" v="no"/>
  </way>
  <way id="1347740673" version="2" timestamp="2025-01-09T10:20:10Z" changeset="161159196" uid="22137982" user="TeeEn">
    <nd ref="7262815042"/>
    <nd ref="49190445"/>
    <tag k="highway" v="residential"/>
    <tag k="lanes" v="2"/>
    <tag k="name" v="Florida Street"/>
    <tag k="parking:both" v="no"/>
    <tag k="surface" v="asphalt"/>
    <tag k="tiger:cfcc" v="A41"/>
    <tag k="tiger:county" v="San Diego, CA"/>
    <tag k="tiger:name_base" v="Florida"/>
    <tag k="tiger:name_type" v="St"/>
    <tag k="tiger:reviewed" v="no"/>
  </way>
  <way id="1347740945" version="3" timestamp="2025-01-09T11:01:33Z" changeset="161159196" uid="22137982" user="TeeEn">
    <nd ref="49556814"/>
    <nd ref="7262802156"/>
    <nd ref="7262802157"/>
    <tag k="highway" v="residential"/>
    <tag k="lanes" v="2"/>
    <tag k="name" v="Calla Avenue"/>
    <tag k="parking:both" v="no"/>
    <tag k="surface" v="asphalt"/>
    <tag k="tiger:cfcc" v="A41"/>
    <tag k="tiger:county" v="San Diego, CA"/>
    <tag k="tiger:name_base" v="Calla"/>
    <tag k="tiger:name_type" v="Ave"/>
    <tag k="tiger:reviewed" v="no"/>
  </way>
  <way id="1347740946" version="2" timestamp="2025-01-09T11:01:24Z" changeset="161159196" uid="22137982" user="TeeEn">
    <nd ref="11806535486"/>
    <nd ref="49556815"/>
    <nd ref="7262802174"/>
    <tag k="highway" v="residential"/>
    <tag k="lanes" v="2"/>
    <tag k="name" v="Calla Avenue"/>
    <tag k="parking:both" v="no"/>
    <tag k="surface" v="asphalt"/>
    <tag k="tiger:cfcc" v="A41"/>
    <tag k="tiger:county" v="San Diego, CA"/>
    <tag k="tiger:name_base" v="Calla"/>
    <tag k="tiger:name_type" v="Ave"/>
    <tag k="tiger:reviewed" v="no"/>
  </way>
  <way id="1347740947" version="2" timestamp="2025-01-01T09:54:39Z" changeset="160855629" uid="22137982" user="TeeEn">
    <nd ref="7262802157"/>
    <nd ref="7262802175"/>
    <nd ref="11806535486"/>
    <tag k="highway" v="residential"/>
    <tag k="lanes" v="2"/>
    <tag k="name" v="Calla Avenue"/>
    <tag k="sidewalk:both" v="separate"/>
    <tag k="surface" v="asphalt"/>
    <tag k="tiger:cfcc" v="A41"/>
    <tag k="tiger:county" v="San Diego, CA"/>
    <tag k="tiger:name_base" v="Calla"/>
    <tag k="tiger:name_type" v="Ave"/>
    <tag k="tiger:reviewed" v="no"/>
  </way>
  <way id="1347741034" version="4" timestamp="2025-01-06T14:34:48Z" changeset="161054906" uid="22137982" user="TeeEn">
    <nd ref="12466637320"/>
    <nd ref="11947509382"/>
    <nd ref="11947509547"/>
    <nd ref="11947509100"/>
    <nd ref="11947509339"/>
    <nd ref="11947509902"/>
    <nd ref="11947510199"/>
    <nd ref="7262802179"/>
    <nd ref="49561925"/>
    <tag k="highway" v="residential"/>
    <tag k="lane_markings" v="no"/>
    <tag k="name" v="Delaware Street"/>
    <tag k="oneway" v="no"/>
    <tag k="sidewalk:both" v="separate"/>
    <tag k="surface" v="asphalt"/>
    <tag k="tiger:cfcc" v="A41"/>
    <tag k="tiger:county" v="San Diego, CA"/>
    <tag k="tiger:name_base" v="Delaware"/>
    <tag k="tiger:name_type" v="St"/>
    <tag k="tiger:reviewed" v="no"/>
  </way>
  <way id="1347741046" version="7" timestamp="2025-01-04T06:45:54Z" changeset="160974961" uid="22137982" user="TeeEn">
    <nd ref="12466569749"/>
    <nd ref="11898497891"/>
    <nd ref="11898497890"/>
    <nd ref="11898497889"/>
    <nd ref="3701827391"/>
    <nd ref="7262814993"/>
    <nd ref="11817879614"/>
    <tag k="highway" v="residential"/>
    <tag k="lane_markings" v="no"/>
    <tag k="name" v="8th Street"/>
    <tag k="oneway" v="no"/>
    <tag k="sidewalk:both" v="separate"/>
    <tag k="surface" v="asphalt"/>
    <tag k="tiger:cfcc" v="A41"/>
    <tag k="tiger:county" v="San Diego, CA"/>
    <tag k="tiger:name_base" v="8th"/>
    <tag k="tiger:name_type" v="St"/>
    <tag k="tiger:reviewed" v="no"/>
  </way>
  <way id="1347741054" version="4" timestamp="2025-01-06T14:16:56Z" changeset="161054906" uid="22137982" user="TeeEn">
    <nd ref="7262814990"/>
    <nd ref="12297119998"/>
    <nd ref="11893637054"/>
    <nd ref="11947509448"/>
    <nd ref="12466569748"/>
    <tag k="highway" v="residential"/>
    <tag k="lane_markings" v="no"/>
    <tag k="name" v="8th Street"/>
    <tag k="oneway" v="no"/>
    <tag k="sidewalk:both" v="separate"/>
    <tag k="surface" v="asphalt"/>
    <tag k="tiger:cfcc" v="A41"/>
    <tag k="tiger:county" v="San Diego, CA"/>
    <tag k="tiger:name_base" v="8th"/>
    <tag k="tiger:name_type" v="St"/>
    <tag k="tiger:reviewed" v="no"/>
  </way>
  <way id="1347741056" version="4" timestamp="2025-01-09T11:02:56Z" changeset="161159196" uid="22137982" user="TeeEn">
    <nd ref="12466569748"/>
    <nd ref="49173887"/>
    <nd ref="12466569749"/>
    <tag k="highway" v="residential"/>
    <tag k="lane_markings" v="no"/>
    <tag k="name" v="8th Street"/>
    <tag k="oneway" v="no"/>
    <tag k="parking:both" v="no"/>
    <tag k="surface" v="asphalt"/>
    <tag k="tiger:cfcc" v="A41"/>
    <tag k="tiger:county" v="San Diego, CA"/>
    <tag k="tiger:name_base" v="8th"/>
    <tag k="tiger:name_type" v="St"/>
    <tag k="tiger:reviewed" v="no"/>
  </way>
  <way id="1347741092" version="4" timestamp="2025-01-09T11:01:11Z" changeset="161159196" uid="22137982" user="TeeEn">
    <nd ref="11817879614"/>
    <nd ref="49173889"/>
    <tag k="highway" v="residential"/>
    <tag k="lane_markings" v="no"/>
    <tag k="name" v="8th Street"/>
    <tag k="oneway" v="no"/>
    <tag k="parking:both" v="no"/>
    <tag k="surface" v="asphalt"/>
    <tag k="tiger:cfcc" v="A41"/>
    <tag k="tiger:county" v="San Diego, CA"/>
    <tag k="tiger:name_base" v="8th"/>
    <tag k="tiger:name_type" v="St"/>
    <tag k="tiger:reviewed" v="no"/>
  </way>
  <way id="1347742578" version="6" timestamp="2025-01-04T06:58:35Z" changeset="160974961" uid="22137982" user="TeeEn">
    <nd ref="12466639227"/>
    <nd ref="3629320975"/>
    <nd ref="49741876"/>
    <nd ref="5530925077"/>
    <nd ref="11785005552"/>
    <tag k="cycleway" v="shared_lane"/>
    <tag k="highway" v="residential"/>
    <tag k="lane_markings" v="no"/>
    <tag k="name" v="7th Street"/>
    <tag k="oneway" v="no"/>
    <tag k="sidewalk:both" v="separate"/>
    <tag k="surface" v="asphalt"/>
    <tag k="tiger:cfcc" v="A41"/>
    <tag k="tiger:county" v="San Diego, CA"/>
    <tag k="tiger:name_base" v="7th"/>
    <tag k="tiger:name_type" v="St"/>
    <tag k="tiger:reviewed" v="no"/>
  </way>
  <way id="1347742617" version="5" timestamp="2025-01-09T08:06:45Z" changeset="161159196" uid="22137982" user="TeeEn">
    <nd ref="11785005552"/>
    <nd ref="7262802173"/>
    <nd ref="7262802172"/>
    <nd ref="279046869"/>
    <tag k="cycleway" v="shared_lane"/>
    <tag k="highway" v="residential"/>
    <tag k="lane_markings" v="no"/>
    <tag k="name" v="7th Street"/>
    <tag k="oneway" v="no"/>
    <tag k="parking:both" v="no"/>
    <tag k="sidewalk:left" v="separate"/>
    <tag k="sidewalk:right" v="no"/>
    <tag k="surface" v="asphalt"/>
    <tag k="tiger:cfcc" v="A41"/>
    <tag k="tiger:county" v="San Diego, CA"/>
    <tag k="tiger:name_base" v="7th"/>
    <tag k="tiger:name_type" v="St"/>
    <tag k="tiger:reviewed" v="no"/>
  </way>
  <way id="1347742700" version="5" timestamp="2025-01-09T11:01:40Z" changeset="161159196" uid="22137982" user="TeeEn">
    <nd ref="12466653879"/>
    <nd ref="49556814"/>
    <nd ref="12466639227"/>
    <tag k="cycleway" v="shared_lane"/>
    <tag k="highway" v="residential"/>
    <tag k="lane_markings" v="no"/>
    <tag k="name" v="7th Street"/>
    <tag k="oneway" v="no"/>
    <tag k="parking:left" v="no"/>
    <tag k="sidewalk:right" v="separate"/>
    <tag k="surface" v="asphalt"/>
    <tag k="tiger:cfcc" v="A41"/>
    <tag k="tiger:county" v="San Diego, CA"/>
    <tag k="tiger:name_base" v="7th"/>
    <tag k="tiger:name_type" v="St"/>
    <tag k="tiger:reviewed" v="no"/>
  </way>
  <way id="1347742715" version="5" timestamp="2025-02-19T12:26:52Z" changeset="162698849" uid="21393709" user="CtI5UDYpRmUS">
    <nd ref="12466632364"/>
    <nd ref="49128603"/>
    <nd ref="11898497884"/>
    <nd ref="11947729650"/>
    <nd ref="11947729602"/>
    <nd ref="11947729678"/>
    <nd ref="11947729604"/>
    <nd ref="11947729824"/>
    <nd ref="11947509335"/>
    <nd ref="11947508227"/>
    <nd ref="12600613574"/>
    <nd ref="12600613571"/>
    <nd ref="11947509360"/>
    <nd ref="49741872"/>
    <tag k="cycleway" v="shared_lane"/>
    <tag k="highway" v="residential"/>
    <tag k="lane_markings" v="no"/>
    <tag k="name" v="7th Street"/>
    <tag k="oneway" v="no"/>
    <tag k="sidewalk:both" v="separate"/>
    <tag k="surface" v="asphalt"/>
    <tag k="tiger:cfcc" v="A41"/>
    <tag k="tiger:county" v="San Diego, CA"/>
    <tag k="tiger:name_base" v="7th"/>
    <tag k="tiger:name_type" v="St"/>
    <tag k="tiger:reviewed" v="no"/>
  </way>
  <way id="1347743269" version="4" timestamp="2025-01-09T11:01:16Z" changeset="161159196" uid="22137982" user="TeeEn">
    <nd ref="49173889"/>
    <nd ref="11817887232"/>
    <tag k="highway" v="residential"/>
    <tag k="lane_markings" v="no"/>
    <tag k="name" v="8th Street"/>
    <tag k="oneway" v="no"/>
    <tag k="parking:both" v="no"/>
    <tag k="surface" v="asphalt"/>
    <tag k="tiger:cfcc" v="A41"/>
    <tag k="tiger:county" v="San Diego, CA"/>
    <tag k="tiger:name_base" v="8th"/>
    <tag k="tiger:name_type" v="St"/>
    <tag k="tiger:reviewed" v="no"/>
  </way>
  <way id="1347743271" version="3" timestamp="2025-01-06T14:27:16Z" changeset="161054906" uid="22137982" user="TeeEn">
    <nd ref="3629320972"/>
    <nd ref="5530950388"/>
    <nd ref="279049090"/>
    <tag k="highway" v="residential"/>
    <tag k="lane_markings" v="no"/>
    <tag k="name" v="8th Street"/>
    <tag k="oneway" v="no"/>
    <tag k="surface" v="asphalt"/>
    <tag k="tiger:cfcc" v="A41"/>
    <tag k="tiger:county" v="San Diego, CA"/>
    <tag k="tiger:name_base" v="8th"/>
    <tag k="tiger:name_type" v="St"/>
    <tag k="tiger:reviewed" v="no"/>
  </way>
  <way id="1347743289" version="3" timestamp="2025-01-06T14:27:13Z" changeset="161054906" uid="22137982" user="TeeEn">
    <nd ref="12466643578"/>
    <nd ref="3629320972"/>
    <tag k="highway" v="residential"/>
    <tag k="lane_markings" v="no"/>
    <tag k="name" v="8th Street"/>
    <tag k="oneway" v="no"/>
    <tag k="sidewalk:right" v="separate"/>
    <tag k="surface" v="asphalt"/>
    <tag k="tiger:cfcc" v="A41"/>
    <tag k="tiger:county" v="San Diego, CA"/>
    <tag k="tiger:name_base" v="8th"/>
    <tag k="tiger:name_type" v="St"/>
    <tag k="tiger:reviewed" v="no"/>
  </way>
  <way id="1347743315" version="2" timestamp="2025-01-01T10:19:03Z" changeset="160855629" uid="22137982" user="TeeEn">
    <nd ref="279049013"/>
    <nd ref="5530925080"/>
    <tag k="highway" v="primary_link"/>
    <tag k="lanes" v="1"/>
    <tag k="name" v="Delaware Street"/>
    <tag k="oneway" v="yes"/>
    <tag k="sidewalk:left" v="no"/>
    <tag k="sidewalk:right" v="separate"/>
    <tag k="surface" v="asphalt"/>
    <tag k="tiger:cfcc" v="A41"/>
    <tag k="tiger:county" v="San Diego, CA"/>
    <tag k="tiger:name_base" v="Delaware"/>
    <tag k="tiger:name_type" v="St"/>
    <tag k="tiger:reviewed" v="no"/>
  </way>
  <way id="1347746118" version="3" timestamp="2025-01-09T07:50:15Z" changeset="161159196" uid="22137982" user="TeeEn">
    <nd ref="279046477"/>
    <nd ref="49017144"/>
    <tag k="cycleway:left" v="shared_lane"/>
    <tag k="cycleway:left:lane" v="pictogram"/>
    <tag k="cycleway:right" v="lane"/>
    <tag k="cycleway:right:lane" v="exclusive"/>
    <tag k="highway" v="tertiary"/>
    <tag k="lane_markings" v="no"/>
    <tag k="name" v="Rainbow Drive"/>
    <tag k="parking:both" v="no"/>
    <tag k="sidewalk:left" v="separate"/>
    <tag k="surface" v="asphalt"/>
    <tag k="tiger:cfcc" v="A41"/>
    <tag k="tiger:county" v="San Diego, CA"/>
    <tag k="tiger:name_base" v="Rainbow"/>
    <tag k="tiger:name_type" v="Dr"/>
    <tag k="tiger:reviewed" v="no"/>
  </way>
  <way id="1348434050" version="1" timestamp="2025-01-04T07:24:38Z" changeset="160974961" uid="22137982" user="TeeEn">
    <nd ref="11331902211"/>
    <nd ref="5531027756"/>
    <nd ref="5531027765"/>
    <nd ref="5531027762"/>
    <nd ref="49337693"/>
    <tag k="cycleway" v="lane"/>
    <tag k="highway" v="residential"/>
    <tag k="name" v="13th Street"/>
    <tag k="sidewalk:both" v="separate"/>
    <tag k="surface" v="asphalt"/>
    <tag k="tiger:cfcc" v="A41"/>
    <tag k="tiger:county" v="San Diego, CA"/>
    <tag k="tiger:name_base" v="13th"/>
    <tag k="tiger:name_type" v="St"/>
    <tag k="tiger:reviewed" v="no"/>
  </way>
  <way id="1349017594" version="2" timestamp="2025-01-09T11:03:37Z" changeset="161159196" uid="22137982" user="TeeEn">
    <nd ref="49128595"/>
    <nd ref="11817948300"/>
    <tag k="highway" v="residential"/>
    <tag k="lane_markings" v="no"/>
    <tag k="name" v="Cherry Avenue"/>
    <tag k="parking:both" v="no"/>
    <tag k="sidewalk:right" v="separate"/>
    <tag k="surface" v="asphalt"/>
    <tag k="tiger:cfcc" v="A41"/>
    <tag k="tiger:county" v="San Diego, CA"/>
    <tag k="tiger:name_base" v="Cherry"/>
    <tag k="tiger:name_type" v="Ave"/>
    <tag k="tiger:reviewed" v="no"/>
  </way>
  <way id="1349727966" version="2" timestamp="2025-01-09T07:59:01Z" changeset="161159196" uid="22137982" user="TeeEn">
    <nd ref="279048730"/>
    <nd ref="9857499761"/>
    <tag k="cycleway:left" v="no"/>
    <tag k="hgv" v="designated"/>
    <tag k="hgv:national_network" v="terminal_access"/>
    <tag k="highway" v="primary"/>
    <tag k="lanes" v="4"/>
    <tag k="maxspeed" v="40 mph"/>
    <tag k="name" v="Palm Avenue"/>
    <tag k="oneway" v="yes"/>
    <tag k="parking:both" v="no"/>
    <tag k="ref" v="CA 75"/>
    <tag k="sidewalk:left" v="no"/>
    <tag k="sidewalk:right" v="separate"/>
    <tag k="source:hgv:national_network" v="Caltrans http://www.dot.ca.gov/hq/traffops/trucks/truckmap/"/>
    <tag k="surface" v="asphalt"/>
    <tag k="turn:lanes" v="left|left|through|through"/>
  </way>
  <way id="1349729254" version="2" timestamp="2025-01-09T08:07:41Z" changeset="161159196" uid="22137982" user="TeeEn">
    <nd ref="11331902183"/>
    <nd ref="279049153"/>
    <tag k="highway" v="residential"/>
    <tag k="lanes" v="3"/>
    <tag k="lanes:backward" v="1"/>
    <tag k="lanes:forward" v="2"/>
    <tag k="name" v="9th Street"/>
    <tag k="parking:both" v="no"/>
    <tag k="sidewalk:both" v="separate"/>
    <tag k="surface" v="asphalt"/>
    <tag k="tiger:cfcc" v="A41"/>
    <tag k="tiger:county" v="San Diego, CA"/>
    <tag k="tiger:name_base" v="9th"/>
    <tag k="tiger:name_type" v="St"/>
    <tag k="tiger:reviewed" v="no"/>
    <tag k="turn:lanes:forward" v="left|"/>
  </way>
  <way id="1349729266" version="2" timestamp="2025-01-09T08:08:27Z" changeset="161159196" uid="22137982" user="TeeEn">
    <nd ref="11331902198"/>
    <nd ref="279049259"/>
    <tag k="highway" v="residential"/>
    <tag k="lanes" v="3"/>
    <tag k="lanes:backward" v="1"/>
    <tag k="lanes:forward" v="2"/>
    <tag k="name" v="Florida Street"/>
    <tag k="parking:both" v="no"/>
    <tag k="sidewalk:both" v="separate"/>
    <tag k="surface" v="asphalt"/>
    <tag k="tiger:cfcc" v="A41"/>
    <tag k="tiger:county" v="San Diego, CA"/>
    <tag k="tiger:name_base" v="Florida"/>
    <tag k="tiger:name_type" v="St"/>
    <tag k="tiger:reviewed" v="no"/>
    <tag k="turn:lanes:forward" v="left|through;right"/>
  </way>
  <way id="1349729310" version="2" timestamp="2025-01-09T08:09:26Z" changeset="161159196" uid="22137982" user="TeeEn">
    <nd ref="279049511"/>
    <nd ref="11331902201"/>
    <tag k="cycleway" v="lane"/>
    <tag k="highway" v="residential"/>
    <tag k="lanes" v="3"/>
    <tag k="lanes:backward" v="2"/>
    <tag k="lanes:forward" v="1"/>
    <tag k="name" v="13th Street"/>
    <tag k="parking:both" v="no"/>
    <tag k="sidewalk:both" v="separate"/>
    <tag k="surface" v="asphalt"/>
    <tag k="tiger:cfcc" v="A41"/>
    <tag k="tiger:county" v="San Diego, CA"/>
    <tag k="tiger:name_base" v="13th"/>
    <tag k="tiger:name_type" v="St"/>
    <tag k="tiger:reviewed" v="no"/>
    <tag k="turn:lanes:backward" v="left;through|through;right"/>
  </way>

</osm>
