<?xml version="1.0" encoding="UTF-8"?>
<osm version="0.6" generator="Overpass API 0.7.62.5 1bd436f1">
<note>The data included in this document is from www.openstreetmap.org. The data is made available under ODbL.</note>
<meta osm_base="2025-04-05T17:14:15Z" areas="2024-12-31T00:49:33Z"/>

  <node id="38704409" lat="52.2056839" lon="-0.1593868" version="4" timestamp="2024-11-03T16:20:59Z" changeset="158706696" uid="4910264" user="Black Tusk"/>
  <node id="289029206" lat="52.1931552" lon="-0.1870176" version="5" timestamp="2011-02-11T18:35:41Z" changeset="7257184" uid="5926" user="c2r"/>
  <node id="473807333" lat="52.2241899" lon="-0.1968191" version="2" timestamp="2012-11-19T19:32:39Z" changeset="13936408" uid="571483" user="Madryn"/>
  <node id="475934426" lat="52.2219499" lon="-0.1486817" version="4" timestamp="2024-12-29T19:31:06Z" changeset="160765333" uid="5229644" user="Nathan_A_RF"/>
  <node id="1381891210" lat="52.2129388" lon="-0.1513171" version="2" timestamp="2024-11-03T16:20:59Z" changeset="158706696" uid="4910264" user="Black Tusk"/>
  <node id="8907901161" lat="52.2467917" lon="-0.1779118" version="1" timestamp="2021-07-09T17:54:44Z" changeset="107719667" uid="5173844" user="ndrw6"/>
  <way id="22725046" version="10" timestamp="2023-09-30T19:28:41Z" changeset="141965290" uid="18964624" user="Exterprook58">
    <nd ref="8907901161"/>
    <nd ref="8907901160"/>
    <nd ref="242766529"/>
    <nd ref="5325659763"/>
    <nd ref="243754278"/>
    <nd ref="243754277"/>
    <nd ref="1125101860"/>
    <nd ref="11229850252"/>
    <nd ref="243754276"/>
    <nd ref="1110694453"/>
    <nd ref="5436274626"/>
    <nd ref="5436274625"/>
    <nd ref="294954950"/>
    <nd ref="5436274624"/>
    <nd ref="5436274623"/>
    <nd ref="5435849218"/>
    <nd ref="5435853526"/>
    <nd ref="5435853524"/>
    <nd ref="473813246"/>
    <tag k="highway" v="tertiary"/>
    <tag k="source" v="npe"/>
  </way>
  <way id="26382368" version="15" timestamp="2019-03-21T12:08:08Z" changeset="68370841" uid="281267" user="smb1001">
    <nd ref="289029206"/>
    <nd ref="1147753016"/>
    <nd ref="289029209"/>
    <nd ref="289029047"/>
    <nd ref="1134151500"/>
    <nd ref="1289145740"/>
    <nd ref="1289145742"/>
    <tag k="highway" v="tertiary"/>
    <tag k="name" v="Croxton Road"/>
  </way>
  <way id="26893552" version="5" timestamp="2021-06-28T12:13:33Z" changeset="107086786" uid="10455643" user="kotamadh">
    <nd ref="294954920"/>
    <nd ref="475863663"/>
    <nd ref="8872054795"/>
    <nd ref="294954921"/>
    <nd ref="294954922"/>
    <nd ref="294954923"/>
    <nd ref="2278228869"/>
    <nd ref="294954926"/>
    <nd ref="294954924"/>
    <tag k="highway" v="residential"/>
    <tag k="maxspeed" v="30 mph"/>
    <tag k="name" v="High Street"/>
    <tag k="oneway" v="no"/>
    <tag k="surface" v="asphalt"/>
  </way>
  <way id="26893562" version="6" timestamp="2018-04-24T22:06:23Z" changeset="58390501" uid="713168" user="zimrh">
    <nd ref="294954943"/>
    <nd ref="2278228948"/>
    <nd ref="2278228792"/>
    <nd ref="294954944"/>
    <tag k="foot" v="designated"/>
    <tag k="highway" v="residential"/>
    <tag k="source" v="survey"/>
    <tag k="surface" v="dirt"/>
  </way>
  <way id="119808881" version="15" timestamp="2024-12-29T19:31:06Z" changeset="160765333" uid="5229644" user="Nathan_A_RF">
    <nd ref="473813246"/>
    <nd ref="5436274002"/>
    <nd ref="5436274019"/>
    <nd ref="5436272134"/>
    <nd ref="621007"/>
    <nd ref="1795794407"/>
    <nd ref="621008"/>
    <nd ref="1795794403"/>
    <nd ref="1795794379"/>
    <nd ref="5435849220"/>
    <nd ref="621009"/>
    <nd ref="1795794357"/>
    <nd ref="1795794374"/>
    <nd ref="621011"/>
    <nd ref="1795794385"/>
    <nd ref="5435853528"/>
    <nd ref="621012"/>
    <nd ref="5435853525"/>
    <nd ref="2022007252"/>
    <nd ref="621013"/>
    <nd ref="475932302"/>
    <nd ref="5435849217"/>
    <nd ref="2022007208"/>
    <nd ref="621014"/>
    <nd ref="473807333"/>
    <tag k="fut_ref" v="B1428"/>
    <tag k="highway" v="trunk"/>
    <tag k="lanes" v="2"/>
    <tag k="maxspeed" v="60 mph"/>
    <tag k="maxspeed:type" v="GB:nsl_single"/>
    <tag k="name" v="Cambridge Road"/>
    <tag k="national_highways:area" v="8"/>
    <tag k="note" v="To be reclassified as B1428 in 2027 once the A421 dualling scheme is complete"/>
    <tag k="operator" v="National Highways"/>
    <tag k="operator:wikidata" v="Q5760006"/>
    <tag k="ref" v="A428"/>
    <tag k="source:ref" v="survey;local knowledge"/>
  </way>
  <way id="119808882" version="9" timestamp="2024-12-29T19:31:06Z" changeset="160765333" uid="5229644" user="Nathan_A_RF">
    <nd ref="243754275"/>
    <nd ref="473813246"/>
    <tag k="alt_name" v="Cambridge Road"/>
    <tag k="fut_ref" v="B1428"/>
    <tag k="highway" v="trunk"/>
    <tag k="lanes" v="3"/>
    <tag k="maxspeed" v="60 mph"/>
    <tag k="maxspeed:type" v="GB:nsl_single"/>
    <tag k="name" v="Saint Neots Road"/>
    <tag k="national_highways:area" v="8"/>
    <tag k="note" v="To be reclassified as B1428 in 2027 once the A421 dualling scheme is complete"/>
    <tag k="operator" v="National Highways"/>
    <tag k="operator:wikidata" v="Q5760006"/>
    <tag k="ref" v="A428"/>
    <tag k="source:ref" v="survey;local knowledge"/>
  </way>
  <way id="218587781" version="5" timestamp="2024-04-04T11:18:03Z" changeset="149565180" uid="95856" user="john paul jones &amp; gringo">
    <nd ref="2278228749"/>
    <nd ref="2278229093"/>
    <nd ref="2278229119"/>
    <nd ref="2278228864"/>
    <nd ref="2278228899"/>
    <nd ref="2278228873"/>
    <nd ref="2278228749"/>
    <tag k="addr:city" v="St Neots"/>
    <tag k="addr:country" v="GB"/>
    <tag k="addr:housename" v="Rose Cottage"/>
    <tag k="addr:housenumber" v="12"/>
    <tag k="addr:postcode" v="PE19 6SX"/>
    <tag k="addr:street" v="High Street"/>
    <tag k="addr:suburb" v="Croxton"/>
    <tag k="building" v="yes"/>
    <tag k="wikidata" v="Q26420084"/>
  </way>
  <way id="218587783" version="3" timestamp="2024-04-04T11:18:03Z" changeset="149565180" uid="95856" user="john paul jones &amp; gringo">
    <nd ref="2278228906"/>
    <nd ref="2278228735"/>
    <nd ref="2278228734"/>
    <nd ref="2278228969"/>
    <nd ref="2278228906"/>
    <tag k="addr:city" v="St Neots"/>
    <tag k="addr:country" v="GB"/>
    <tag k="addr:housenumber" v="18"/>
    <tag k="addr:postcode" v="PE19 6SX"/>
    <tag k="addr:street" v="High Street"/>
    <tag k="addr:suburb" v="Croxton"/>
    <tag k="building" v="yes"/>
  </way>
  <way id="218587786" version="5" timestamp="2024-04-04T11:18:03Z" changeset="149565180" uid="95856" user="john paul jones &amp; gringo">
    <nd ref="2278228727"/>
    <nd ref="2278228797"/>
    <nd ref="2278228769"/>
    <nd ref="2278228819"/>
    <nd ref="2278228775"/>
    <nd ref="2278228988"/>
    <nd ref="2278228727"/>
    <tag k="addr:city" v="St Neots"/>
    <tag k="addr:country" v="GB"/>
    <tag k="addr:housename" v="Lyndsey Cottage"/>
    <tag k="addr:housenumber" v="23"/>
    <tag k="addr:postcode" v="PE19 6SX"/>
    <tag k="addr:street" v="High Street"/>
    <tag k="addr:suburb" v="Croxton"/>
    <tag k="building" v="yes"/>
    <tag k="wikidata" v="Q26456883"/>
  </way>
  <way id="218587788" version="3" timestamp="2022-07-16T16:09:28Z" changeset="123694679" uid="242345" user="confusedbuffalo">
    <nd ref="2278229073"/>
    <nd ref="2278228791"/>
    <nd ref="2278228894"/>
    <nd ref="2278228903"/>
    <nd ref="2278229073"/>
    <tag k="addr:city" v="St Neots"/>
    <tag k="addr:housenumber" v="29"/>
    <tag k="addr:postcode" v="PE19 6SX"/>
    <tag k="addr:street" v="High Street"/>
    <tag k="building" v="yes"/>
  </way>
  <way id="218587789" version="4" timestamp="2024-04-04T11:18:03Z" changeset="149565180" uid="95856" user="john paul jones &amp; gringo">
    <nd ref="2278228905"/>
    <nd ref="2278228805"/>
    <nd ref="9779818250"/>
    <nd ref="9779818249"/>
    <nd ref="2278229169"/>
    <nd ref="2278229078"/>
    <nd ref="2278229163"/>
    <nd ref="2278228891"/>
    <nd ref="2278228905"/>
    <tag k="addr:city" v="St Neots"/>
    <tag k="addr:country" v="GB"/>
    <tag k="addr:housenumber" v="9"/>
    <tag k="addr:postcode" v="PE19 6SX"/>
    <tag k="addr:street" v="High Street"/>
    <tag k="addr:suburb" v="Croxton"/>
    <tag k="building" v="yes"/>
  </way>
  <way id="218587791" version="3" timestamp="2024-04-04T11:18:03Z" changeset="149565180" uid="95856" user="john paul jones &amp; gringo">
    <nd ref="2278228714"/>
    <nd ref="2278228768"/>
    <nd ref="2278228958"/>
    <nd ref="2278229011"/>
    <nd ref="2278229053"/>
    <nd ref="2278228975"/>
    <nd ref="2278229092"/>
    <nd ref="2278228724"/>
    <nd ref="2278229058"/>
    <nd ref="2278228967"/>
    <nd ref="2278228714"/>
    <tag k="addr:city" v="St Neots"/>
    <tag k="addr:country" v="GB"/>
    <tag k="addr:housenumber" v="22"/>
    <tag k="addr:postcode" v="PE19 6SX"/>
    <tag k="addr:street" v="High Street"/>
    <tag k="addr:suburb" v="Croxton"/>
    <tag k="building" v="yes"/>
  </way>
  <way id="218587800" version="3" timestamp="2024-04-04T11:18:03Z" changeset="149565180" uid="95856" user="john paul jones &amp; gringo">
    <nd ref="2278229072"/>
    <nd ref="2278228778"/>
    <nd ref="2278229071"/>
    <nd ref="2278228710"/>
    <nd ref="2278229137"/>
    <nd ref="2278229060"/>
    <nd ref="2278229072"/>
    <tag k="addr:city" v="St Neots"/>
    <tag k="addr:country" v="GB"/>
    <tag k="addr:housenumber" v="13"/>
    <tag k="addr:postcode" v="PE19 6SX"/>
    <tag k="addr:street" v="High Street"/>
    <tag k="addr:suburb" v="Croxton"/>
    <tag k="building" v="yes"/>
  </way>
  <way id="218587802" version="3" timestamp="2024-04-04T11:18:03Z" changeset="149565180" uid="95856" user="john paul jones &amp; gringo">
    <nd ref="2278228914"/>
    <nd ref="2278229142"/>
    <nd ref="2278229062"/>
    <nd ref="2278228783"/>
    <nd ref="2278229122"/>
    <nd ref="2278228730"/>
    <nd ref="2278228914"/>
    <tag k="addr:city" v="St Neots"/>
    <tag k="addr:country" v="GB"/>
    <tag k="addr:housenumber" v="27"/>
    <tag k="addr:postcode" v="PE19 6SX"/>
    <tag k="addr:street" v="High Street"/>
    <tag k="addr:suburb" v="Croxton"/>
    <tag k="building" v="yes"/>
  </way>
  <way id="218587806" version="5" timestamp="2024-04-04T11:18:03Z" changeset="149565180" uid="95856" user="john paul jones &amp; gringo">
    <nd ref="2278229015"/>
    <nd ref="2278228809"/>
    <nd ref="2278228916"/>
    <nd ref="2278228736"/>
    <nd ref="2278229015"/>
    <tag k="addr:city" v="St Neots"/>
    <tag k="addr:country" v="GB"/>
    <tag k="addr:housename" v="Myrune Cottage"/>
    <tag k="addr:housenumber" v="21"/>
    <tag k="addr:postcode" v="PE19 6SX"/>
    <tag k="addr:street" v="High Street"/>
    <tag k="addr:suburb" v="Croxton"/>
    <tag k="building" v="yes"/>
    <tag k="wikidata" v="Q26616305"/>
  </way>
  <way id="218587808" version="4" timestamp="2022-07-16T16:09:28Z" changeset="123694679" uid="242345" user="confusedbuffalo">
    <nd ref="2278228925"/>
    <nd ref="2278228857"/>
    <nd ref="2278229043"/>
    <nd ref="2278228811"/>
    <nd ref="2278228925"/>
    <tag k="addr:city" v="St Neots"/>
    <tag k="addr:housenumber" v="28"/>
    <tag k="addr:postcode" v="PE19 6SX"/>
    <tag k="addr:street" v="High Street"/>
    <tag k="building" v="yes"/>
    <tag k="wikidata" v="Q26456858"/>
  </way>
  <way id="218587809" version="3" timestamp="2024-04-04T11:18:03Z" changeset="149565180" uid="95856" user="john paul jones &amp; gringo">
    <nd ref="2278228799"/>
    <nd ref="2278228877"/>
    <nd ref="2278228990"/>
    <nd ref="2278228912"/>
    <nd ref="2278229144"/>
    <nd ref="2278228855"/>
    <nd ref="2278228799"/>
    <tag k="addr:city" v="St Neots"/>
    <tag k="addr:country" v="GB"/>
    <tag k="addr:housenumber" v="10"/>
    <tag k="addr:postcode" v="PE19 6SX"/>
    <tag k="addr:street" v="High Street"/>
    <tag k="addr:suburb" v="Croxton"/>
    <tag k="building" v="yes"/>
  </way>
  <way id="218587810" version="3" timestamp="2024-04-04T11:18:03Z" changeset="149565180" uid="95856" user="john paul jones &amp; gringo">
    <nd ref="2278228930"/>
    <nd ref="2278229140"/>
    <nd ref="2278229025"/>
    <nd ref="2278229068"/>
    <nd ref="2278228832"/>
    <nd ref="2278228922"/>
    <nd ref="2278228865"/>
    <nd ref="2278228838"/>
    <nd ref="2278228930"/>
    <tag k="addr:city" v="St Neots"/>
    <tag k="addr:country" v="GB"/>
    <tag k="addr:housenumber" v="25"/>
    <tag k="addr:postcode" v="PE19 6SX"/>
    <tag k="addr:street" v="High Street"/>
    <tag k="addr:suburb" v="Croxton"/>
    <tag k="building" v="yes"/>
  </way>
  <way id="218587811" version="4" timestamp="2022-07-16T16:09:28Z" changeset="123694679" uid="242345" user="confusedbuffalo">
    <nd ref="2278228818"/>
    <nd ref="2278228924"/>
    <nd ref="2278228874"/>
    <nd ref="2278228776"/>
    <nd ref="2278228876"/>
    <nd ref="2278228764"/>
    <nd ref="2278229076"/>
    <nd ref="2278229107"/>
    <nd ref="2278228818"/>
    <tag k="addr:city" v="St Neots"/>
    <tag k="addr:housename" v="The Old Gatehouse"/>
    <tag k="addr:housenumber" v="31"/>
    <tag k="addr:postcode" v="PE19 6SX"/>
    <tag k="addr:street" v="High Street"/>
    <tag k="building" v="yes"/>
    <tag k="wikidata" v="Q26420087"/>
  </way>
  <way id="218587813" version="3" timestamp="2022-07-16T16:09:28Z" changeset="123694679" uid="242345" user="confusedbuffalo">
    <nd ref="2278229153"/>
    <nd ref="2278228839"/>
    <nd ref="2278228954"/>
    <nd ref="2278229170"/>
    <nd ref="2278229010"/>
    <nd ref="2278228732"/>
    <nd ref="2278228952"/>
    <nd ref="2278228773"/>
    <nd ref="2278229006"/>
    <nd ref="2278228977"/>
    <nd ref="2278228923"/>
    <nd ref="2278228929"/>
    <nd ref="2278228739"/>
    <nd ref="2278229148"/>
    <nd ref="2278229153"/>
    <tag k="addr:city" v="St Neots"/>
    <tag k="addr:housename" v="The Downs"/>
    <tag k="addr:housenumber" v="2"/>
    <tag k="addr:postcode" v="PE19 6SX"/>
    <tag k="addr:street" v="High Street"/>
    <tag k="building" v="yes"/>
    <tag k="wikidata" v="Q26420083"/>
  </way>
  <way id="218587814" version="5" timestamp="2024-04-04T11:18:03Z" changeset="149565180" uid="95856" user="john paul jones &amp; gringo">
    <nd ref="2278229155"/>
    <nd ref="2278228767"/>
    <nd ref="2278228780"/>
    <nd ref="2278228784"/>
    <nd ref="2278228897"/>
    <nd ref="2278229094"/>
    <nd ref="2278229155"/>
    <tag k="addr:city" v="St Neots"/>
    <tag k="addr:country" v="GB"/>
    <tag k="addr:housename" v="Orchard Cottage"/>
    <tag k="addr:housenumber" v="24"/>
    <tag k="addr:postcode" v="PE19 6SX"/>
    <tag k="addr:street" v="High Street"/>
    <tag k="addr:suburb" v="Croxton"/>
    <tag k="building" v="yes"/>
    <tag k="wikidata" v="Q26616304"/>
  </way>
  <way id="218587817" version="3" timestamp="2024-04-04T11:18:03Z" changeset="149565180" uid="95856" user="john paul jones &amp; gringo">
    <nd ref="2278228728"/>
    <nd ref="2278229017"/>
    <nd ref="2278229110"/>
    <nd ref="2278228909"/>
    <nd ref="2278228728"/>
    <tag k="addr:city" v="St Neots"/>
    <tag k="addr:country" v="GB"/>
    <tag k="addr:housenumber" v="14"/>
    <tag k="addr:postcode" v="PE19 6SX"/>
    <tag k="addr:street" v="High Street"/>
    <tag k="addr:suburb" v="Croxton"/>
    <tag k="building" v="yes"/>
  </way>
  <way id="218587818" version="3" timestamp="2024-04-04T11:18:03Z" changeset="149565180" uid="95856" user="john paul jones &amp; gringo">
    <nd ref="2278228763"/>
    <nd ref="2278229005"/>
    <nd ref="2278228803"/>
    <nd ref="2278229114"/>
    <nd ref="2278228935"/>
    <nd ref="2278229085"/>
    <nd ref="2278228833"/>
    <nd ref="2278229096"/>
    <nd ref="2278228763"/>
    <tag k="addr:city" v="St Neots"/>
    <tag k="addr:country" v="GB"/>
    <tag k="addr:housenumber" v="17"/>
    <tag k="addr:postcode" v="PE19 6SX"/>
    <tag k="addr:street" v="High Street"/>
    <tag k="addr:suburb" v="Croxton"/>
    <tag k="building" v="yes"/>
  </way>
  <way id="218587819" version="3" timestamp="2024-04-04T11:18:03Z" changeset="149565180" uid="95856" user="john paul jones &amp; gringo">
    <nd ref="2278228969"/>
    <nd ref="2278228734"/>
    <nd ref="2278229110"/>
    <nd ref="2278229017"/>
    <nd ref="2278228969"/>
    <tag k="addr:city" v="St Neots"/>
    <tag k="addr:country" v="GB"/>
    <tag k="addr:housenumber" v="16"/>
    <tag k="addr:postcode" v="PE19 6SX"/>
    <tag k="addr:street" v="High Street"/>
    <tag k="addr:suburb" v="Croxton"/>
    <tag k="building" v="yes"/>
  </way>
  <way id="218587829" version="5" timestamp="2024-04-04T11:18:03Z" changeset="149565180" uid="95856" user="john paul jones &amp; gringo">
    <nd ref="2278229123"/>
    <nd ref="2278228868"/>
    <nd ref="2278228896"/>
    <nd ref="2278229083"/>
    <nd ref="2278228927"/>
    <nd ref="2278228756"/>
    <nd ref="2278228861"/>
    <nd ref="2278228866"/>
    <nd ref="2278229123"/>
    <tag k="addr:city" v="St Neots"/>
    <tag k="addr:country" v="GB"/>
    <tag k="addr:housename" v="Chef's Cottage"/>
    <tag k="addr:housenumber" v="19"/>
    <tag k="addr:postcode" v="PE19 6SX"/>
    <tag k="addr:street" v="High Street"/>
    <tag k="addr:suburb" v="Croxton"/>
    <tag k="building" v="yes"/>
    <tag k="wikidata" v="Q26456876"/>
  </way>
  <way id="218587837" version="3" timestamp="2024-04-04T11:18:03Z" changeset="149565180" uid="95856" user="john paul jones &amp; gringo">
    <nd ref="2278228843"/>
    <nd ref="2278228761"/>
    <nd ref="2278228960"/>
    <nd ref="2278228747"/>
    <nd ref="2278228843"/>
    <tag k="addr:city" v="St Neots"/>
    <tag k="addr:country" v="GB"/>
    <tag k="addr:housenumber" v="26"/>
    <tag k="addr:postcode" v="PE19 6SX"/>
    <tag k="addr:street" v="High Street"/>
    <tag k="addr:suburb" v="Croxton"/>
    <tag k="building" v="yes"/>
  </way>
  <way id="218587839" version="3" timestamp="2024-04-04T11:18:03Z" changeset="149565180" uid="95856" user="john paul jones &amp; gringo">
    <nd ref="2278229047"/>
    <nd ref="2278228841"/>
    <nd ref="2278228921"/>
    <nd ref="2278228826"/>
    <nd ref="2278229047"/>
    <tag k="addr:city" v="St Neots"/>
    <tag k="addr:country" v="GB"/>
    <tag k="addr:housenumber" v="11"/>
    <tag k="addr:postcode" v="PE19 6SX"/>
    <tag k="addr:street" v="High Street"/>
    <tag k="addr:suburb" v="Croxton"/>
    <tag k="building" v="yes"/>
  </way>
  <way id="218587842" version="4" timestamp="2024-04-04T11:18:03Z" changeset="149565180" uid="95856" user="john paul jones &amp; gringo">
    <nd ref="2278228782"/>
    <nd ref="2278229106"/>
    <nd ref="2278228717"/>
    <nd ref="2278228902"/>
    <nd ref="2278228750"/>
    <nd ref="2278229158"/>
    <nd ref="2278228973"/>
    <nd ref="2278228733"/>
    <nd ref="2278228782"/>
    <tag k="addr:city" v="St Neots"/>
    <tag k="addr:country" v="GB"/>
    <tag k="addr:housenumber" v="8"/>
    <tag k="addr:postcode" v="PE19 6SX"/>
    <tag k="addr:street" v="High Street"/>
    <tag k="addr:suburb" v="Croxton"/>
    <tag k="building" v="yes"/>
    <tag k="building:levels" v="1"/>
  </way>
  <way id="218587845" version="3" timestamp="2024-04-04T11:18:03Z" changeset="149565180" uid="95856" user="john paul jones &amp; gringo">
    <nd ref="2278228711"/>
    <nd ref="2278228806"/>
    <nd ref="2278228735"/>
    <nd ref="2278228906"/>
    <nd ref="2278228711"/>
    <tag k="addr:city" v="St Neots"/>
    <tag k="addr:country" v="GB"/>
    <tag k="addr:housenumber" v="20"/>
    <tag k="addr:postcode" v="PE19 6SX"/>
    <tag k="addr:street" v="High Street"/>
    <tag k="addr:suburb" v="Croxton"/>
    <tag k="building" v="yes"/>
  </way>
  <way id="678389489" version="2" timestamp="2024-12-09T12:44:41Z" changeset="160090717" uid="10420541" user="Thingummy">
    <nd ref="12407090147"/>
    <nd ref="3776903960"/>
    <nd ref="289029213"/>
    <nd ref="3776891155"/>
    <nd ref="289029216"/>
    <nd ref="3776903957"/>
    <nd ref="5519887054"/>
    <nd ref="3776891156"/>
    <nd ref="289029218"/>
    <nd ref="1134151554"/>
    <nd ref="294954936"/>
    <nd ref="294954943"/>
    <nd ref="289029066"/>
    <nd ref="1795794412"/>
    <nd ref="289029068"/>
    <nd ref="1795794383"/>
    <nd ref="5617867864"/>
    <nd ref="475863665"/>
    <nd ref="243754275"/>
    <tag k="highway" v="tertiary"/>
    <tag k="name" v="Abbotsley Road"/>
  </way>
  <way id="1086560753" version="5" timestamp="2024-12-29T19:31:06Z" changeset="160765333" uid="5229644" user="Nathan_A_RF">
    <nd ref="475934426"/>
    <nd ref="458234303"/>
    <nd ref="1381891714"/>
    <nd ref="1381891312"/>
    <nd ref="620998"/>
    <nd ref="6278435300"/>
    <nd ref="12368353670"/>
    <nd ref="1381891358"/>
    <nd ref="475934422"/>
    <nd ref="620997"/>
    <nd ref="1381891498"/>
    <nd ref="458234285"/>
    <nd ref="5352733651"/>
    <nd ref="5352733655"/>
    <nd ref="458234288"/>
    <nd ref="2022007221"/>
    <nd ref="5436272140"/>
    <nd ref="620996"/>
    <nd ref="5436272162"/>
    <nd ref="1381891626"/>
    <nd ref="5436272155"/>
    <nd ref="2022007207"/>
    <nd ref="5436272137"/>
    <nd ref="5436272158"/>
    <nd ref="620995"/>
    <nd ref="5436272124"/>
    <nd ref="473820209"/>
    <nd ref="5436272132"/>
    <nd ref="621003"/>
    <nd ref="5436272153"/>
    <nd ref="621004"/>
    <nd ref="473816762"/>
    <nd ref="621005"/>
    <nd ref="294954920"/>
    <nd ref="5436272149"/>
    <nd ref="443116327"/>
    <nd ref="443116334"/>
    <nd ref="621006"/>
    <nd ref="243754275"/>
    <tag k="alt_name" v="Cambridge Road"/>
    <tag k="fut_ref" v="B1428"/>
    <tag k="highway" v="trunk"/>
    <tag k="lanes" v="2"/>
    <tag k="maxspeed" v="60 mph"/>
    <tag k="maxspeed:type" v="GB:nsl_single"/>
    <tag k="name" v="Saint Neots Road"/>
    <tag k="national_highways:area" v="8"/>
    <tag k="note" v="To be reclassified as B1428 in 2027 once the A421 dualling scheme is complete"/>
    <tag k="operator" v="National Highways"/>
    <tag k="operator:wikidata" v="Q5760006"/>
    <tag k="ref" v="A428"/>
    <tag k="source:ref" v="survey;local knowledge"/>
  </way>
  <way id="1330431215" version="2" timestamp="2024-11-23T17:46:42Z" changeset="159509364" uid="4910264" user="Black Tusk">
    <nd ref="38704409"/>
    <nd ref="1381891634"/>
    <nd ref="1381891655"/>
    <nd ref="38714700"/>
    <nd ref="38704413"/>
    <nd ref="4083419143"/>
    <nd ref="38704416"/>
    <nd ref="1381891615"/>
    <nd ref="38704420"/>
    <nd ref="38714697"/>
    <nd ref="766082924"/>
    <nd ref="38704422"/>
    <nd ref="1381891505"/>
    <nd ref="1381891210"/>
    <tag k="highway" v="secondary"/>
    <tag k="name" v="Eltisley Road"/>
    <tag k="ref" v="B1040"/>
    <tag k="source:ref" v="interpolation"/>
  </way>
  <way id="1341281803" version="1" timestamp="2024-12-09T12:44:41Z" changeset="160090717" uid="10420541" user="Thingummy">
    <nd ref="1289145742"/>
    <nd ref="289029048"/>
    <nd ref="289029051"/>
    <nd ref="289029053"/>
    <nd ref="289029055"/>
    <nd ref="289029211"/>
    <nd ref="1185579936"/>
    <nd ref="12407090148"/>
    <tag k="highway" v="tertiary"/>
    <tag k="name" v="Abbotsley Road"/>
  </way>
  <way id="1341281804" version="1" timestamp="2024-12-09T12:44:41Z" changeset="160090717" uid="10420541" user="Thingummy">
    <nd ref="12407090148"/>
    <nd ref="12407090147"/>
    <tag k="bridge" v="yes"/>
    <tag k="highway" v="tertiary"/>
    <tag k="layer" v="1"/>
    <tag k="name" v="Abbotsley Road"/>
  </way>

</osm>
