<?xml version="1.0" encoding="UTF-8"?>
<osm version="0.6" generator="Overpass API 0.7.62.5 1bd436f1">
<note>The data included in this document is from www.openstreetmap.org. The data is made available under ODbL.</note>
<meta osm_base="2025-03-25T15:50:06Z" areas="2025-02-06T02:17:44Z"/>

  <way id="27393047" version="23" timestamp="2021-08-29T13:18:53Z" changeset="110412547" uid="5173844" user="ndrw6">
    <nd ref="300715042"/>
    <nd ref="9045267831"/>
    <nd ref="703692023"/>
    <nd ref="2811368456"/>
    <nd ref="2811368436"/>
    <tag k="highway" v="secondary"/>
    <tag k="maxspeed" v="30 mph"/>
    <tag k="name" v="Mill Lane"/>
    <tag k="ref" v="B1041"/>
    <tag k="source:maxspeed" v="Stats19"/>
  </way>
  <way id="29309500" version="11" timestamp="2021-08-30T09:54:48Z" changeset="110450487" uid="9196107" user="bashwith">
    <nd ref="322469738"/>
    <nd ref="322469740"/>
    <nd ref="322469741"/>
    <nd ref="322469743"/>
    <nd ref="322469744"/>
    <nd ref="322469746"/>
    <nd ref="322469747"/>
    <nd ref="322469749"/>
    <nd ref="322469751"/>
    <nd ref="322469753"/>
    <nd ref="322469754"/>
    <nd ref="322469755"/>
    <nd ref="322469757"/>
    <nd ref="322469758"/>
    <nd ref="322469764"/>
    <nd ref="322469768"/>
    <nd ref="322469771"/>
    <nd ref="322477156"/>
    <nd ref="322477157"/>
    <nd ref="322477158"/>
    <nd ref="1650228010"/>
    <nd ref="322477159"/>
    <nd ref="322477160"/>
    <nd ref="9047680270"/>
    <nd ref="322477161"/>
    <nd ref="322477162"/>
    <nd ref="322477163"/>
    <nd ref="322477164"/>
    <nd ref="322477165"/>
    <nd ref="322477166"/>
    <nd ref="322477167"/>
    <nd ref="322477168"/>
    <nd ref="322477169"/>
    <nd ref="322477170"/>
    <nd ref="322477171"/>
    <nd ref="322477172"/>
    <nd ref="322477173"/>
    <nd ref="322477174"/>
    <nd ref="1122446843"/>
    <nd ref="322477176"/>
    <nd ref="322477177"/>
    <nd ref="322477178"/>
    <nd ref="322477179"/>
    <nd ref="322477180"/>
    <nd ref="322477181"/>
    <nd ref="7290328360"/>
    <nd ref="322477182"/>
    <nd ref="9036762309"/>
    <nd ref="322477183"/>
    <tag k="highway" v="unclassified"/>
    <tag k="name" v="Ford End"/>
    <tag k="source" v="survey"/>
  </way>
  <way id="29472737" version="8" timestamp="2011-06-30T09:06:51Z" changeset="8588429" uid="3582" user="davidearl">
    <nd ref="300715042"/>
    <nd ref="324826242"/>
    <nd ref="324826241"/>
    <nd ref="301822504"/>
    <nd ref="301822505"/>
    <nd ref="346328705"/>
    <nd ref="301822506"/>
    <nd ref="344795198"/>
    <tag k="highway" v="secondary"/>
    <tag k="name" v="Great North Road"/>
    <tag k="ref" v="B1041"/>
  </way>
  <way id="30444335" version="20" timestamp="2021-08-31T20:14:23Z" changeset="110531207" uid="5173844" user="ndrw6">
    <nd ref="302887559"/>
    <nd ref="440890024"/>
    <nd ref="335985819"/>
    <nd ref="9051795978"/>
    <nd ref="335985823"/>
    <nd ref="335985824"/>
    <nd ref="346363524"/>
    <nd ref="335985828"/>
    <nd ref="346363521"/>
    <nd ref="335985831"/>
    <nd ref="346328763"/>
    <nd ref="335985836"/>
    <nd ref="335985872"/>
    <nd ref="346368673"/>
    <nd ref="9050300345"/>
    <nd ref="335985838"/>
    <nd ref="3587803805"/>
    <nd ref="335985843"/>
    <nd ref="6869631307"/>
    <nd ref="335985845"/>
    <nd ref="9045399047"/>
    <nd ref="7192692252"/>
    <nd ref="335985847"/>
    <nd ref="1266346248"/>
    <nd ref="1343825727"/>
    <nd ref="1343825721"/>
    <nd ref="9045399046"/>
    <nd ref="335985850"/>
    <nd ref="1343825718"/>
    <nd ref="335985853"/>
    <nd ref="703692161"/>
    <nd ref="1343825724"/>
    <nd ref="1343825730"/>
    <nd ref="7769091938"/>
    <nd ref="703692042"/>
    <nd ref="7769091939"/>
    <nd ref="335985859"/>
    <nd ref="7769091937"/>
    <nd ref="7953585844"/>
    <nd ref="346369570"/>
    <nd ref="335985864"/>
    <nd ref="9016329805"/>
    <nd ref="703692033"/>
    <nd ref="335985868"/>
    <tag k="highway" v="residential"/>
    <tag k="lcn" v="cambs_cc_stneots_proposed"/>
    <tag k="name" v="Gordon Road"/>
  </way>
  <way id="30444336" version="6" timestamp="2021-08-31T23:35:03Z" changeset="110535493" uid="5173844" user="ndrw6">
    <nd ref="9051797783"/>
    <nd ref="335985874"/>
    <nd ref="9051797787"/>
    <nd ref="6989144259"/>
    <nd ref="6989144258"/>
    <nd ref="2883812817"/>
    <nd ref="9052014241"/>
    <nd ref="335985877"/>
    <tag k="highway" v="residential"/>
    <tag k="name" v="Kingfisher Close"/>
    <tag k="source" v="GPS"/>
  </way>
  <way id="31009225" version="15" timestamp="2024-07-25T11:56:27Z" changeset="154390466" uid="5008136" user="JayTurnr">
    <nd ref="344795164"/>
    <nd ref="5694373488"/>
    <nd ref="344795165"/>
    <nd ref="11410158937"/>
    <nd ref="6386281308"/>
    <nd ref="11410158938"/>
    <nd ref="344795166"/>
    <nd ref="11410158939"/>
    <nd ref="1621983869"/>
    <tag k="cycleway:both" v="no"/>
    <tag k="description" v="Paxton Pits access road"/>
    <tag k="designation" v="public_footpath"/>
    <tag k="foot" v="designated"/>
    <tag k="highway" v="unclassified"/>
    <tag k="note" v="sign says Quarry and Plant traffic only"/>
    <tag k="source" v="survey"/>
    <tag k="surface" v="asphalt"/>
  </way>
  <way id="31009226" version="14" timestamp="2021-08-31T23:35:03Z" changeset="110535493" uid="5173844" user="ndrw6">
    <nd ref="344795186"/>
    <nd ref="9052014240"/>
    <nd ref="464341121"/>
    <nd ref="302887734"/>
    <nd ref="335985877"/>
    <nd ref="5718043447"/>
    <nd ref="346365236"/>
    <nd ref="346366128"/>
    <nd ref="6989144256"/>
    <nd ref="302887695"/>
    <nd ref="6989144254"/>
    <nd ref="346365226"/>
    <nd ref="9051797836"/>
    <nd ref="302887576"/>
    <nd ref="6228387171"/>
    <nd ref="346366167"/>
    <nd ref="302887561"/>
    <nd ref="346367640"/>
    <nd ref="302887559"/>
    <tag k="highway" v="residential"/>
    <tag k="lcn" v="cambs_cc_stneots_proposed"/>
    <tag k="name" v="High Street"/>
    <tag k="source" v="GPS"/>
  </way>
  <way id="31009228" version="16" timestamp="2024-12-31T00:04:35Z" changeset="160814835" uid="5229644" user="Nathan_A_RF">
    <nd ref="9045094273"/>
    <nd ref="8987874156"/>
    <nd ref="8987874157"/>
    <nd ref="10902466192"/>
    <nd ref="10902466197"/>
    <nd ref="10902466196"/>
    <nd ref="10902466193"/>
    <nd ref="11410159038"/>
    <nd ref="10557567551"/>
    <nd ref="302343247"/>
    <nd ref="1619901979"/>
    <nd ref="11410159037"/>
    <nd ref="301822503"/>
    <tag k="highway" v="tertiary"/>
    <tag k="lanes" v="2"/>
    <tag k="maxspeed" v="60 mph"/>
    <tag k="maxspeed:type" v="GB:nsl_single"/>
    <tag k="name" v="Great North Road"/>
  </way>
  <way id="31141629" version="6" timestamp="2021-08-31T09:09:52Z" changeset="110501275" uid="5173844" user="ndrw6">
    <nd ref="346328705"/>
    <nd ref="346328713"/>
    <nd ref="9045267827"/>
    <nd ref="346328715"/>
    <nd ref="346328718"/>
    <nd ref="346328721"/>
    <nd ref="346328722"/>
    <nd ref="346328724"/>
    <nd ref="346328741"/>
    <nd ref="346369999"/>
    <nd ref="346328744"/>
    <nd ref="346328746"/>
    <nd ref="346328748"/>
    <nd ref="346369533"/>
    <nd ref="9050301759"/>
    <nd ref="346328751"/>
    <nd ref="346363547"/>
    <nd ref="346328753"/>
    <nd ref="346328757"/>
    <nd ref="346328758"/>
    <nd ref="346363539"/>
    <nd ref="346328761"/>
    <nd ref="346328763"/>
    <tag k="highway" v="residential"/>
    <tag k="name" v="Park Avenue"/>
    <tag k="source" v="survey"/>
  </way>
  <way id="31141630" version="6" timestamp="2021-02-20T12:20:01Z" changeset="99638844" uid="11250071" user="MikeRuns">
    <nd ref="346328724"/>
    <nd ref="346328781"/>
    <nd ref="6228387289"/>
    <nd ref="6228387288"/>
    <nd ref="346328783"/>
    <nd ref="346328785"/>
    <nd ref="346328788"/>
    <tag k="highway" v="residential"/>
    <tag k="lit" v="yes"/>
    <tag k="name" v="Park Crescent"/>
    <tag k="sidewalk" v="both"/>
    <tag k="source" v="GPS"/>
    <tag k="surface" v="asphalt"/>
  </way>
  <way id="31141631" version="7" timestamp="2021-08-31T23:35:03Z" changeset="110535493" uid="5173844" user="ndrw6">
    <nd ref="346328792"/>
    <nd ref="9052015312"/>
    <nd ref="346328799"/>
    <nd ref="6228387241"/>
    <nd ref="346328801"/>
    <tag k="highway" v="residential"/>
    <tag k="lit" v="yes"/>
    <tag k="name" v="The Sycamores"/>
    <tag k="sidewalk" v="both"/>
    <tag k="source" v="survey"/>
    <tag k="surface" v="asphalt"/>
  </way>
  <way id="31141633" version="9" timestamp="2021-08-31T23:35:03Z" changeset="110535493" uid="5173844" user="ndrw6">
    <nd ref="302887534"/>
    <nd ref="9045267605"/>
    <nd ref="9052015148"/>
    <nd ref="346328824"/>
    <nd ref="346328828"/>
    <nd ref="346328830"/>
    <nd ref="346328833"/>
    <nd ref="9045267690"/>
    <nd ref="7219975911"/>
    <tag k="highway" v="residential"/>
    <tag k="lit" v="yes"/>
    <tag k="name" v="Grove Road"/>
    <tag k="sidewalk" v="both"/>
    <tag k="source" v="survey"/>
    <tag k="surface" v="asphalt"/>
  </way>
  <way id="31141634" version="6" timestamp="2021-05-11T22:53:04Z" changeset="104537739" uid="11022773" user="GeoFens">
    <nd ref="346328824"/>
    <nd ref="346328841"/>
    <nd ref="8723192848"/>
    <nd ref="346328844"/>
    <tag k="highway" v="residential"/>
    <tag k="lit" v="yes"/>
    <tag k="name" v="Meadow Close"/>
    <tag k="sidewalk" v="both"/>
    <tag k="source" v="survey"/>
    <tag k="surface" v="asphalt"/>
  </way>
  <way id="31141635" version="4" timestamp="2022-05-06T13:09:21Z" changeset="120630975" uid="15062731" user="Olga418">
    <nd ref="346328830"/>
    <nd ref="346328848"/>
    <nd ref="346328851"/>
    <nd ref="6228387140"/>
    <nd ref="346328854"/>
    <nd ref="9045267688"/>
    <nd ref="346328855"/>
    <nd ref="346328858"/>
    <nd ref="9720479351"/>
    <nd ref="346328860"/>
    <tag k="highway" v="residential"/>
    <tag k="name" v="Manor Close"/>
    <tag k="source" v="survey"/>
  </way>
  <way id="31143159" version="2" timestamp="2021-08-29T14:49:52Z" changeset="110415887" uid="5173844" user="ndrw6">
    <nd ref="346363379"/>
    <nd ref="9045398481"/>
    <nd ref="346363382"/>
    <tag k="highway" v="residential"/>
    <tag k="name" v="Dial Close"/>
    <tag k="source" v="survey"/>
  </way>
  <way id="31143161" version="3" timestamp="2019-01-22T22:54:06Z" changeset="66553305" uid="5173844" user="ndrw6">
    <nd ref="346363386"/>
    <nd ref="346363388"/>
    <nd ref="346363389"/>
    <nd ref="346363390"/>
    <nd ref="346363392"/>
    <nd ref="346363393"/>
    <nd ref="346363398"/>
    <nd ref="346363400"/>
    <nd ref="346363401"/>
    <nd ref="6228387095"/>
    <nd ref="346363403"/>
    <nd ref="6228387094"/>
    <nd ref="346363405"/>
    <nd ref="1343825862"/>
    <nd ref="346363408"/>
    <nd ref="346363409"/>
    <nd ref="1343825865"/>
    <nd ref="346363412"/>
    <tag k="highway" v="residential"/>
    <tag k="name" v="Saint James Road"/>
    <tag k="source" v="survey"/>
  </way>
  <way id="31143162" version="3" timestamp="2021-08-29T14:49:52Z" changeset="110415887" uid="5173844" user="ndrw6">
    <nd ref="346363389"/>
    <nd ref="9045398294"/>
    <nd ref="703692182"/>
    <nd ref="346363418"/>
    <tag k="highway" v="residential"/>
    <tag k="name" v="Jubilee Close"/>
    <tag k="source" v="survey"/>
  </way>
  <way id="31143163" version="1" timestamp="2009-02-16T21:31:49Z" changeset="500206" uid="91225" user="tms13">
    <nd ref="346363393"/>
    <nd ref="346363421"/>
    <nd ref="346363424"/>
    <tag k="created_by" v="Merkaartor 0.12"/>
    <tag k="highway" v="residential"/>
    <tag k="name" v="The Rookery"/>
    <tag k="source" v="survey"/>
  </way>
  <way id="31143164" version="2" timestamp="2021-08-29T14:49:52Z" changeset="110415887" uid="5173844" user="ndrw6">
    <nd ref="346363426"/>
    <nd ref="9045398359"/>
    <nd ref="346363429"/>
    <tag k="highway" v="residential"/>
    <tag k="name" v="Hall Close"/>
    <tag k="source" v="survey"/>
  </way>
  <way id="31143165" version="2" timestamp="2019-01-22T22:54:06Z" changeset="66553305" uid="5173844" user="ndrw6">
    <nd ref="346363400"/>
    <nd ref="6228387091"/>
    <nd ref="6228387089"/>
    <tag k="highway" v="residential"/>
    <tag k="name" v="Field Close"/>
    <tag k="source" v="survey"/>
  </way>
  <way id="31143166" version="2" timestamp="2019-01-22T22:54:06Z" changeset="66553305" uid="5173844" user="ndrw6">
    <nd ref="346363403"/>
    <nd ref="6228387093"/>
    <nd ref="6228387092"/>
    <tag k="highway" v="residential"/>
    <tag k="name" v="Elm Croft"/>
    <tag k="source" v="survey"/>
  </way>
  <way id="31143172" version="7" timestamp="2021-08-29T14:49:52Z" changeset="110415887" uid="5173844" user="ndrw6">
    <nd ref="346363492"/>
    <nd ref="9031387675"/>
    <nd ref="346363497"/>
    <nd ref="346363498"/>
    <nd ref="346363500"/>
    <nd ref="9045398470"/>
    <nd ref="703692194"/>
    <tag k="highway" v="residential"/>
    <tag k="name" v="Bydand Lane"/>
    <tag k="source" v="GPS"/>
  </way>
  <way id="31143174" version="2" timestamp="2021-08-29T14:49:52Z" changeset="110415887" uid="5173844" user="ndrw6">
    <nd ref="346363508"/>
    <nd ref="9045399097"/>
    <nd ref="346363510"/>
    <nd ref="9045399099"/>
    <nd ref="346363512"/>
    <tag k="highway" v="residential"/>
    <tag k="name" v="Beeson Close"/>
    <tag k="source" v="survey"/>
  </way>
  <way id="31143176" version="1" timestamp="2009-02-16T21:31:59Z" changeset="500206" uid="91225" user="tms13">
    <nd ref="346363510"/>
    <nd ref="346363517"/>
    <nd ref="346363519"/>
    <nd ref="346363521"/>
    <tag k="created_by" v="Merkaartor 0.12"/>
    <tag k="highway" v="residential"/>
    <tag k="name" v="Beeson Close"/>
    <tag k="source" v="survey"/>
  </way>
  <way id="31143178" version="1" timestamp="2009-02-16T21:32:00Z" changeset="500206" uid="91225" user="tms13">
    <nd ref="346363524"/>
    <nd ref="346363528"/>
    <nd ref="346363529"/>
    <nd ref="346363531"/>
    <nd ref="346363532"/>
    <nd ref="346363534"/>
    <tag k="created_by" v="Merkaartor 0.12"/>
    <tag k="highway" v="residential"/>
    <tag k="name" v="Boardman Close"/>
    <tag k="source" v="survey"/>
  </way>
  <way id="31143180" version="2" timestamp="2021-08-29T14:49:52Z" changeset="110415887" uid="5173844" user="ndrw6">
    <nd ref="346363539"/>
    <nd ref="9045398468"/>
    <nd ref="9045398467"/>
    <nd ref="346363540"/>
    <tag k="highway" v="residential"/>
    <tag k="name" v="Park Avenue"/>
    <tag k="source" v="survey"/>
  </way>
  <way id="31143181" version="2" timestamp="2021-08-31T09:09:52Z" changeset="110501275" uid="5173844" user="ndrw6">
    <nd ref="346363547"/>
    <nd ref="9050301762"/>
    <nd ref="346363560"/>
    <tag k="highway" v="residential"/>
    <tag k="name" v="Park Avenue"/>
    <tag k="source" v="survey"/>
  </way>
  <way id="31143265" version="5" timestamp="2021-08-31T23:35:03Z" changeset="110535493" uid="5173844" user="ndrw6">
    <nd ref="302887561"/>
    <nd ref="9052014544"/>
    <nd ref="346365195"/>
    <nd ref="9052014545"/>
    <nd ref="346365197"/>
    <nd ref="346365199"/>
    <nd ref="346365201"/>
    <nd ref="346365203"/>
    <nd ref="346365205"/>
    <nd ref="703692167"/>
    <nd ref="8276736350"/>
    <nd ref="346365207"/>
    <tag k="highway" v="residential"/>
    <tag k="name" v="Lakefield Avenue"/>
    <tag k="source" v="GPS"/>
  </way>
  <way id="31143266" version="1" timestamp="2009-02-16T21:36:05Z" changeset="500206" uid="91225" user="tms13">
    <nd ref="346365216"/>
    <nd ref="346365217"/>
    <nd ref="346365220"/>
    <nd ref="346365223"/>
    <nd ref="346365226"/>
    <tag k="created_by" v="Merkaartor 0.12"/>
    <tag k="highway" v="residential"/>
    <tag k="name" v="Pipistrelle Close"/>
    <tag k="source" v="survey"/>
  </way>
  <way id="31143267" version="1" timestamp="2009-02-16T21:36:08Z" changeset="500206" uid="91225" user="tms13">
    <nd ref="346365246"/>
    <nd ref="346365236"/>
    <tag k="created_by" v="Merkaartor 0.12"/>
    <tag k="highway" v="residential"/>
    <tag k="name" v="Nursery Gardens"/>
    <tag k="source" v="survey"/>
  </way>
  <way id="31143309" version="7" timestamp="2021-08-31T20:14:23Z" changeset="110531207" uid="5173844" user="ndrw6">
    <nd ref="346366128"/>
    <nd ref="346366596"/>
    <nd ref="346366132"/>
    <nd ref="346366136"/>
    <nd ref="6989144253"/>
    <nd ref="346366140"/>
    <nd ref="346366609"/>
    <nd ref="6989144255"/>
    <nd ref="346366145"/>
    <nd ref="346366149"/>
    <nd ref="9051770186"/>
    <nd ref="346366153"/>
    <nd ref="346366158"/>
    <nd ref="6989144252"/>
    <nd ref="346366163"/>
    <nd ref="9045398238"/>
    <nd ref="9045398234"/>
    <nd ref="9045398237"/>
    <nd ref="9051797837"/>
    <nd ref="346366167"/>
    <tag k="highway" v="residential"/>
    <tag k="name" v="Hayling Avenue"/>
    <tag k="source" v="GPS"/>
  </way>
  <way id="31143310" version="2" timestamp="2021-08-31T20:14:23Z" changeset="110531207" uid="5173844" user="ndrw6">
    <nd ref="346366183"/>
    <nd ref="346366184"/>
    <nd ref="346366187"/>
    <nd ref="9051770185"/>
    <nd ref="346366153"/>
    <tag k="highway" v="residential"/>
    <tag k="name" v="Hayling Avenue"/>
    <tag k="source" v="survey"/>
  </way>
  <way id="31143338" version="3" timestamp="2021-08-31T20:14:23Z" changeset="110531207" uid="5173844" user="ndrw6">
    <nd ref="346366596"/>
    <nd ref="346366600"/>
    <nd ref="9051798094"/>
    <nd ref="346366603"/>
    <tag k="highway" v="residential"/>
    <tag k="name" v="Davis Close"/>
    <tag k="source" v="GPS"/>
  </way>
  <way id="31143390" version="2" timestamp="2021-08-31T20:14:23Z" changeset="110531207" uid="5173844" user="ndrw6">
    <nd ref="346367632"/>
    <nd ref="346367634"/>
    <nd ref="346367637"/>
    <nd ref="9051795977"/>
    <nd ref="346367640"/>
    <tag k="highway" v="residential"/>
    <tag k="name" v="Wantage Gardens"/>
    <tag k="source" v="survey"/>
  </way>
  <way id="31143391" version="2" timestamp="2009-08-17T19:18:31Z" changeset="2181274" uid="2406" user="JeffB">
    <nd ref="346367653"/>
    <nd ref="346367657"/>
    <nd ref="346367662"/>
    <nd ref="346367666"/>
    <nd ref="346367671"/>
    <nd ref="346367675"/>
    <nd ref="346367632"/>
    <tag k="created_by" v="Merkaartor 0.12"/>
    <tag k="highway" v="residential"/>
    <tag k="name" v="Lakeside Close"/>
    <tag k="source" v="GPS"/>
  </way>
  <way id="31143476" version="3" timestamp="2021-08-31T09:09:52Z" changeset="110501275" uid="5173844" user="ndrw6">
    <nd ref="346368673"/>
    <nd ref="346368683"/>
    <nd ref="346368687"/>
    <nd ref="346368690"/>
    <nd ref="346368694"/>
    <nd ref="346368696"/>
    <nd ref="9045398869"/>
    <nd ref="346368700"/>
    <nd ref="346368702"/>
    <nd ref="9050300833"/>
    <nd ref="346368707"/>
    <tag k="highway" v="residential"/>
    <tag k="name" v="Gordon Close"/>
    <tag k="source" v="survey"/>
  </way>
  <way id="31143477" version="2" timestamp="2021-08-29T14:49:52Z" changeset="110415887" uid="5173844" user="ndrw6">
    <nd ref="346368690"/>
    <nd ref="9045398893"/>
    <nd ref="9045398892"/>
    <nd ref="346368717"/>
    <tag k="highway" v="residential"/>
    <tag k="name" v="Gordon Close"/>
    <tag k="source" v="survey"/>
  </way>
  <way id="31143480" version="4" timestamp="2021-08-29T14:49:52Z" changeset="110415887" uid="5173844" user="ndrw6">
    <nd ref="346368683"/>
    <nd ref="346368727"/>
    <nd ref="346368730"/>
    <nd ref="703692188"/>
    <nd ref="703692185"/>
    <nd ref="346368734"/>
    <tag k="highway" v="residential"/>
    <tag k="name" v="The Crofts"/>
    <tag k="sidewalk" v="both"/>
    <tag k="source" v="survey"/>
  </way>
  <way id="31143511" version="8" timestamp="2021-08-31T09:09:52Z" changeset="110501275" uid="5173844" user="ndrw6">
    <nd ref="346369533"/>
    <nd ref="9050301760"/>
    <nd ref="346369540"/>
    <nd ref="346369541"/>
    <nd ref="346369542"/>
    <nd ref="346369992"/>
    <nd ref="346369545"/>
    <nd ref="2157505841"/>
    <nd ref="9050301803"/>
    <nd ref="346369996"/>
    <nd ref="9050301830"/>
    <nd ref="1343825821"/>
    <nd ref="9050301864"/>
    <nd ref="346369549"/>
    <nd ref="346369551"/>
    <nd ref="346369553"/>
    <tag k="highway" v="residential"/>
    <tag k="name" v="Park Drive"/>
    <tag k="source" v="survey"/>
  </way>
  <way id="31143524" version="3" timestamp="2021-08-29T14:49:52Z" changeset="110415887" uid="5173844" user="ndrw6">
    <nd ref="346369996"/>
    <nd ref="9045398447"/>
    <nd ref="346369997"/>
    <nd ref="2157505860"/>
    <nd ref="2157505869"/>
    <nd ref="346369999"/>
    <tag k="highway" v="residential"/>
    <tag k="name" v="Park Way"/>
    <tag k="source" v="survey"/>
  </way>
  <way id="31143525" version="4" timestamp="2020-09-29T07:15:11Z" changeset="91686330" uid="10252541" user="thadad">
    <nd ref="346370005"/>
    <nd ref="7769091936"/>
    <nd ref="346370011"/>
    <nd ref="346370012"/>
    <nd ref="7953585846"/>
    <nd ref="346370014"/>
    <tag k="highway" v="residential"/>
    <tag k="name" v="Ramply Close"/>
    <tag k="source" v="GPS"/>
    <tag k="source:name" v="survey"/>
  </way>
  <way id="31143607" version="5" timestamp="2023-12-11T17:30:27Z" changeset="145008360" uid="9385857" user="Road5914">
    <nd ref="346371958"/>
    <nd ref="11410158931"/>
    <nd ref="1619901955"/>
    <nd ref="11410158932"/>
    <nd ref="11410158933"/>
    <nd ref="6406339175"/>
    <nd ref="346371960"/>
    <nd ref="11410158936"/>
    <nd ref="11410158934"/>
    <nd ref="6406339176"/>
    <nd ref="346371962"/>
    <nd ref="346371963"/>
    <nd ref="346371964"/>
    <nd ref="346371966"/>
    <nd ref="346371967"/>
    <nd ref="322469738"/>
    <tag k="highway" v="unclassified"/>
    <tag k="name" v="Ford End"/>
    <tag k="source" v="survey"/>
  </way>
  <way id="38997883" version="2" timestamp="2013-11-17T16:05:27Z" changeset="18954715" uid="90142" user="andy mackey">
    <nd ref="464341114"/>
    <nd ref="2536611975"/>
    <nd ref="464341121"/>
    <tag k="highway" v="unclassified"/>
    <tag k="surface" v="paved"/>
  </way>
  <way id="38997885" version="5" timestamp="2015-12-30T13:02:37Z" changeset="36261540" uid="873940" user="Mike Baggaley">
    <nd ref="464341114"/>
    <nd ref="344795185"/>
    <nd ref="344795186"/>
    <tag k="description" v="Paxton Pits access road"/>
    <tag k="highway" v="unclassified"/>
    <tag k="source" v="survey"/>
  </way>
  <way id="38997886" version="5" timestamp="2021-08-29T13:18:53Z" changeset="110412547" uid="5173844" user="ndrw6">
    <nd ref="302887537"/>
    <nd ref="344795191"/>
    <nd ref="1346955447"/>
    <nd ref="1346955446"/>
    <nd ref="344795192"/>
    <nd ref="1346955445"/>
    <nd ref="344795193"/>
    <nd ref="344795194"/>
    <nd ref="346363492"/>
    <nd ref="469930698"/>
    <nd ref="469930719"/>
    <nd ref="344795195"/>
    <nd ref="346328788"/>
    <nd ref="346328792"/>
    <nd ref="344795196"/>
    <nd ref="344795197"/>
    <nd ref="9045267826"/>
    <nd ref="344795198"/>
    <tag k="highway" v="residential"/>
    <tag k="name" v="Little Paxton Lane"/>
    <tag k="source" v="GPS"/>
    <tag k="source:name" v="survey"/>
  </way>
  <way id="38997892" version="7" timestamp="2021-02-20T12:19:51Z" changeset="99638834" uid="11250071" user="MikeRuns">
    <nd ref="346328715"/>
    <nd ref="464341271"/>
    <nd ref="469933475"/>
    <nd ref="346369553"/>
    <nd ref="346369554"/>
    <nd ref="346369556"/>
    <nd ref="346369558"/>
    <nd ref="1343825783"/>
    <nd ref="346369560"/>
    <nd ref="346369563"/>
    <nd ref="346370005"/>
    <nd ref="346369564"/>
    <nd ref="346369566"/>
    <nd ref="346369567"/>
    <nd ref="346369570"/>
    <tag k="highway" v="residential"/>
    <tag k="name" v="Parkside"/>
    <tag k="sidewalk" v="both"/>
    <tag k="source" v="GPS"/>
    <tag k="source:name" v="survey"/>
  </way>
  <way id="38997910" version="5" timestamp="2021-08-29T13:18:53Z" changeset="110412547" uid="5173844" user="ndrw6">
    <nd ref="464341809"/>
    <nd ref="9045267825"/>
    <nd ref="464341813"/>
    <tag k="highway" v="secondary"/>
    <tag k="name" v="Great North Road"/>
    <tag k="ref" v="B1041"/>
  </way>
  <way id="39226746" version="11" timestamp="2024-12-31T00:08:04Z" changeset="160814893" uid="5229644" user="Nathan_A_RF">
    <nd ref="469926020"/>
    <nd ref="1619901971"/>
    <nd ref="11410158908"/>
    <nd ref="11410158909"/>
    <nd ref="11410158910"/>
    <nd ref="11410158911"/>
    <nd ref="469926025"/>
    <nd ref="11410158912"/>
    <nd ref="11410158913"/>
    <nd ref="469926030"/>
    <nd ref="11410158914"/>
    <nd ref="469926035"/>
    <nd ref="11410158915"/>
    <nd ref="11410158916"/>
    <nd ref="469926040"/>
    <nd ref="11410158917"/>
    <nd ref="469926043"/>
    <nd ref="11410158918"/>
    <nd ref="469926046"/>
    <nd ref="11410158926"/>
    <nd ref="1619901973"/>
    <tag k="expressway" v="yes"/>
    <tag k="highway" v="trunk_link"/>
    <tag k="lit" v="no"/>
    <tag k="national_highways:area" v="8"/>
    <tag k="oneway" v="yes"/>
    <tag k="operator" v="National Highways"/>
    <tag k="operator:wikidata" v="Q5760006"/>
    <tag k="ref" v="A1"/>
    <tag k="sidewalk" v="no"/>
    <tag k="source" v="GPS"/>
  </way>
  <way id="39226749" version="5" timestamp="2024-12-31T00:08:04Z" changeset="160814893" uid="5229644" user="Nathan_A_RF">
    <nd ref="344795198"/>
    <nd ref="302887499"/>
    <nd ref="12464010823"/>
    <nd ref="8688029459"/>
    <nd ref="8688029460"/>
    <nd ref="301822510"/>
    <nd ref="464341809"/>
    <nd ref="12464010822"/>
    <nd ref="1343825848"/>
    <tag k="highway" v="secondary"/>
    <tag k="lcn" v="with_care"/>
    <tag k="name" v="Great North Road"/>
    <tag k="ref" v="B1041"/>
  </way>
  <way id="39226751" version="7" timestamp="2021-05-01T13:59:26Z" changeset="103958403" uid="659911" user="mikey-b">
    <nd ref="703692075"/>
    <nd ref="301822369"/>
    <nd ref="7991391241"/>
    <nd ref="1619901993"/>
    <nd ref="301822370"/>
    <nd ref="464341813"/>
    <tag k="highway" v="secondary"/>
    <tag k="name" v="Great North Road"/>
    <tag k="ref" v="B1041"/>
  </way>
  <way id="39227329" version="1" timestamp="2009-08-17T19:25:26Z" changeset="2181382" uid="2406" user="JeffB">
    <nd ref="469933475"/>
    <nd ref="469933487"/>
    <tag k="highway" v="residential"/>
    <tag k="name" v="Park Close"/>
    <tag k="source" v="GPS"/>
    <tag k="source:name" v="survey"/>
  </way>
  <way id="39227570" version="10" timestamp="2024-09-29T14:10:47Z" changeset="157255725" uid="5173844" user="ndrw6">
    <nd ref="469936874"/>
    <nd ref="469936879"/>
    <nd ref="2157505854"/>
    <nd ref="2157505856"/>
    <nd ref="469936889"/>
    <nd ref="2157505850"/>
    <nd ref="469936874"/>
    <tag k="addr:housename" v="Londis"/>
    <tag k="addr:street" v="Park Way"/>
    <tag k="brand" v="Londis"/>
    <tag k="brand:wikidata" v="Q21008564"/>
    <tag k="brand:wikipedia" v="en:Londis (United Kingdom)"/>
    <tag k="building" v="retail"/>
    <tag k="name" v="Londis"/>
    <tag k="shop" v="convenience"/>
    <tag k="source" v="survey"/>
  </way>
  <way id="54690388" version="4" timestamp="2013-09-18T05:36:26Z" changeset="17897715" uid="4951" user="PeterEastern">
    <nd ref="688687543"/>
    <nd ref="688687506"/>
    <tag k="bridge" v="yes"/>
    <tag k="highway" v="secondary"/>
    <tag k="layer" v="1"/>
    <tag k="maxspeed" v="30 mph"/>
    <tag k="name" v="Mill Lane"/>
    <tag k="ref" v="B1041"/>
    <tag k="source:maxspeed" v="Stats19"/>
  </way>
  <way id="54690395" version="4" timestamp="2021-05-15T13:12:28Z" changeset="104733176" uid="22799" user="DaveArq">
    <nd ref="469951181"/>
    <nd ref="8733886726"/>
    <nd ref="688687563"/>
    <tag k="bridge" v="yes"/>
    <tag k="highway" v="secondary"/>
    <tag k="layer" v="1"/>
    <tag k="maxspeed" v="30 mph"/>
    <tag k="name" v="Mill Lane"/>
    <tag k="ref" v="B1041"/>
    <tag k="source:maxspeed" v="Stats19"/>
  </way>
  <way id="54690402" version="9" timestamp="2021-05-15T13:12:28Z" changeset="104733176" uid="22799" user="DaveArq">
    <nd ref="688687563"/>
    <nd ref="1245832892"/>
    <nd ref="1146911718"/>
    <nd ref="1266346247"/>
    <nd ref="1343825716"/>
    <nd ref="302343006"/>
    <nd ref="3751279409"/>
    <nd ref="8733886772"/>
    <nd ref="688687543"/>
    <tag k="highway" v="secondary"/>
    <tag k="maxspeed" v="30 mph"/>
    <tag k="name" v="Mill Lane"/>
    <tag k="ref" v="B1041"/>
    <tag k="source:maxspeed" v="Stats19"/>
  </way>
  <way id="56063722" version="4" timestamp="2020-10-10T06:22:22Z" changeset="92264155" uid="10170574" user="asnghpi">
    <nd ref="703692005"/>
    <nd ref="7994140280"/>
    <nd ref="6228387170"/>
    <nd ref="302887576"/>
    <tag k="highway" v="residential"/>
    <tag k="name" v="School Lane"/>
    <tag k="source" v="OS_OpenData_StreetView"/>
  </way>
  <way id="56063723" version="3" timestamp="2021-08-29T14:49:52Z" changeset="110415887" uid="5173844" user="ndrw6">
    <nd ref="703692015"/>
    <nd ref="9045398950"/>
    <nd ref="703692018"/>
    <nd ref="703692023"/>
    <tag k="highway" v="residential"/>
    <tag k="name" v="Bloomfield Close"/>
    <tag k="source" v="OS_OpenData_StreetView"/>
  </way>
  <way id="56063724" version="2" timestamp="2011-02-11T09:00:36Z" changeset="7253052" uid="38828" user="Shane28R">
    <nd ref="703692028"/>
    <nd ref="703692033"/>
    <tag k="highway" v="residential"/>
    <tag k="name" v="Silvan Close"/>
    <tag k="source" v="OS_OpenData_StreetView"/>
  </way>
  <way id="56063725" version="2" timestamp="2021-08-29T14:49:52Z" changeset="110415887" uid="5173844" user="ndrw6">
    <nd ref="703692039"/>
    <nd ref="703692041"/>
    <nd ref="703692042"/>
    <tag k="highway" v="residential"/>
    <tag k="name" v="River Close"/>
    <tag k="source" v="OS_OpenData_StreetView"/>
  </way>
  <way id="56063726" version="2" timestamp="2021-08-29T14:49:52Z" changeset="110415887" uid="5173844" user="ndrw6">
    <nd ref="703692052"/>
    <nd ref="9045399044"/>
    <nd ref="703692055"/>
    <nd ref="9045399045"/>
    <nd ref="9045399046"/>
    <tag k="highway" v="residential"/>
    <tag k="name" v="Willow Close"/>
    <tag k="source" v="OS_OpenData_StreetView"/>
  </way>
  <way id="56063727" version="6" timestamp="2021-02-20T12:20:02Z" changeset="99638844" uid="11250071" user="MikeRuns">
    <nd ref="703692075"/>
    <nd ref="7219975910"/>
    <tag k="highway" v="residential"/>
    <tag k="lit" v="yes"/>
    <tag k="name" v="Rampley Lane"/>
    <tag k="sidewalk" v="none"/>
    <tag k="source" v="OS_OpenData_StreetView"/>
    <tag k="surface" v="asphalt"/>
  </way>
  <way id="56063728" version="7" timestamp="2023-09-28T20:35:23Z" changeset="141881152" uid="11250071" user="MikeRuns">
    <nd ref="703692103"/>
    <nd ref="6228387136"/>
    <nd ref="6228387137"/>
    <nd ref="9052014747"/>
    <nd ref="6228387138"/>
    <nd ref="6228387139"/>
    <nd ref="9052014748"/>
    <nd ref="703692106"/>
    <nd ref="703692108"/>
    <nd ref="6542427672"/>
    <nd ref="7219975910"/>
    <tag k="access" v="private"/>
    <tag k="highway" v="residential"/>
    <tag k="name" v="Grove Court"/>
    <tag k="source" v="OS_OpenData_StreetView"/>
  </way>
  <way id="56063729" version="6" timestamp="2024-12-31T00:08:04Z" changeset="160814893" uid="5229644" user="Nathan_A_RF">
    <nd ref="703692122"/>
    <nd ref="11410158944"/>
    <nd ref="5694373461"/>
    <nd ref="12464010818"/>
    <tag k="highway" v="unclassified"/>
    <tag k="oneway" v="yes"/>
  </way>
  <way id="56063730" version="3" timestamp="2021-07-23T16:36:25Z" changeset="108504063" uid="11250071" user="MikeRuns">
    <nd ref="8944566242"/>
    <nd ref="703692138"/>
    <nd ref="703692122"/>
    <tag k="highway" v="unclassified"/>
    <tag k="name" v="The Orchard"/>
  </way>
  <way id="56063731" version="3" timestamp="2021-08-29T14:49:52Z" changeset="110415887" uid="5173844" user="ndrw6">
    <nd ref="703692142"/>
    <nd ref="9045398320"/>
    <nd ref="703692138"/>
    <tag k="highway" v="unclassified"/>
    <tag k="name" v="The Orchard"/>
  </way>
  <way id="56063732" version="4" timestamp="2021-08-29T14:49:52Z" changeset="110415887" uid="5173844" user="ndrw6">
    <nd ref="703692155"/>
    <nd ref="9045399042"/>
    <nd ref="703692157"/>
    <nd ref="703692159"/>
    <nd ref="1343825741"/>
    <nd ref="703692161"/>
    <tag k="highway" v="residential"/>
    <tag k="name" v="Booth Way"/>
    <tag k="source" v="OS_OpenData_StreetView"/>
  </way>
  <way id="56063733" version="2" timestamp="2021-08-20T06:13:21Z" changeset="109966236" uid="11250071" user="MikeRuns">
    <nd ref="703692165"/>
    <nd ref="703692167"/>
    <tag k="highway" v="residential"/>
    <tag k="name" v="Lakefield Avenue"/>
    <tag k="source" v="OS_OpenData_StreetView"/>
  </way>
  <way id="56063734" version="2" timestamp="2021-08-20T06:13:16Z" changeset="109966236" uid="11250071" user="MikeRuns">
    <nd ref="703692172"/>
    <nd ref="703692173"/>
    <nd ref="346365203"/>
    <tag k="highway" v="residential"/>
    <tag k="name" v="Lakefield Avenue"/>
    <tag k="source" v="OS_OpenData_StreetView"/>
  </way>
  <way id="56063735" version="3" timestamp="2021-08-31T23:35:03Z" changeset="110535493" uid="5173844" user="ndrw6">
    <nd ref="703692178"/>
    <nd ref="9052014547"/>
    <nd ref="9052014546"/>
    <nd ref="346365197"/>
    <tag k="highway" v="residential"/>
    <tag k="name" v="Lakefield Avenue"/>
    <tag k="source" v="OS_OpenData_StreetView"/>
  </way>
  <way id="56063736" version="3" timestamp="2021-08-29T14:49:52Z" changeset="110415887" uid="5173844" user="ndrw6">
    <nd ref="703692180"/>
    <nd ref="9045398307"/>
    <nd ref="9045398306"/>
    <nd ref="9045398308"/>
    <nd ref="703692181"/>
    <nd ref="703692182"/>
    <tag k="highway" v="residential"/>
    <tag k="name" v="Jubilee Close"/>
    <tag k="source" v="OS_OpenData_StreetView"/>
  </way>
  <way id="56063738" version="4" timestamp="2021-08-29T14:49:52Z" changeset="110415887" uid="5173844" user="ndrw6">
    <nd ref="9045398860"/>
    <nd ref="703692183"/>
    <nd ref="9045398861"/>
    <nd ref="9045398862"/>
    <nd ref="703692184"/>
    <nd ref="703692185"/>
    <tag k="highway" v="residential"/>
    <tag k="name" v="The Crofts"/>
    <tag k="sidewalk" v="both"/>
    <tag k="source" v="OS_OpenData_StreetView"/>
  </way>
  <way id="56063739" version="4" timestamp="2021-08-29T14:49:52Z" changeset="110415887" uid="5173844" user="ndrw6">
    <nd ref="9045398864"/>
    <nd ref="703692186"/>
    <nd ref="346368730"/>
    <tag k="highway" v="residential"/>
    <tag k="name" v="The Crofts"/>
    <tag k="sidewalk" v="both"/>
    <tag k="source" v="OS_OpenData_StreetView"/>
  </way>
  <way id="56063740" version="4" timestamp="2021-08-29T14:49:52Z" changeset="110415887" uid="5173844" user="ndrw6">
    <nd ref="9045398863"/>
    <nd ref="703692187"/>
    <nd ref="703692188"/>
    <tag k="highway" v="residential"/>
    <tag k="name" v="The Crofts"/>
    <tag k="sidewalk" v="both"/>
    <tag k="source" v="OS_OpenData_StreetView"/>
  </way>
  <way id="56063741" version="4" timestamp="2021-08-29T14:49:52Z" changeset="110415887" uid="5173844" user="ndrw6">
    <nd ref="703692190"/>
    <nd ref="5368960772"/>
    <nd ref="703692191"/>
    <nd ref="9045399048"/>
    <nd ref="335985843"/>
    <tag k="highway" v="residential"/>
    <tag k="name" v="Reynolds Drive"/>
    <tag k="source" v="OS_OpenData_StreetView"/>
  </way>
  <way id="56063742" version="4" timestamp="2021-08-29T14:49:52Z" changeset="110415887" uid="5173844" user="ndrw6">
    <nd ref="703692192"/>
    <nd ref="9045398690"/>
    <nd ref="703692193"/>
    <nd ref="1343825762"/>
    <nd ref="335985850"/>
    <tag k="highway" v="residential"/>
    <tag k="name" v="Sweeting Avenue"/>
    <tag k="source" v="OS_OpenData_StreetView"/>
  </way>
  <way id="99153710" version="7" timestamp="2021-08-29T11:26:42Z" changeset="110408700" uid="5173844" user="ndrw6">
    <nd ref="1146911705"/>
    <nd ref="2305041650"/>
    <nd ref="2305041649"/>
    <nd ref="2305041657"/>
    <nd ref="8733886731"/>
    <nd ref="1245832898"/>
    <nd ref="1146911721"/>
    <nd ref="1245832899"/>
    <nd ref="1146911716"/>
    <nd ref="9045094533"/>
    <nd ref="8733886795"/>
    <nd ref="1245832921"/>
    <nd ref="8733886774"/>
    <nd ref="9045094590"/>
    <nd ref="1146911707"/>
    <nd ref="1245832896"/>
    <nd ref="9045094655"/>
    <nd ref="1245832903"/>
    <nd ref="1146911720"/>
    <nd ref="9045094525"/>
    <nd ref="1146911722"/>
    <nd ref="8733886735"/>
    <nd ref="1245832877"/>
    <nd ref="1781747268"/>
    <nd ref="1146911702"/>
    <nd ref="1146911718"/>
    <tag k="highway" v="residential"/>
    <tag k="name" v="Skipper Way"/>
    <tag k="source" v="os_street_view"/>
    <tag k="survey" v="no"/>
  </way>
  <way id="118721663" version="20" timestamp="2021-11-04T09:18:09Z" changeset="113361838" uid="5173844" user="ndrw6">
    <nd ref="1334638501"/>
    <nd ref="4006514381"/>
    <nd ref="4006514379"/>
    <nd ref="4006467115"/>
    <nd ref="4006514382"/>
    <nd ref="4006514380"/>
    <nd ref="4004857872"/>
    <nd ref="1334638467"/>
    <nd ref="1334638463"/>
    <nd ref="7400018553"/>
    <nd ref="8041085295"/>
    <nd ref="4004842810"/>
    <nd ref="4004842824"/>
    <nd ref="4004842811"/>
    <nd ref="4004837853"/>
    <nd ref="1334638491"/>
    <nd ref="1334638494"/>
    <nd ref="4004831921"/>
    <nd ref="4004831922"/>
    <nd ref="1334638496"/>
    <nd ref="4004831546"/>
    <nd ref="1334638490"/>
    <nd ref="4005355036"/>
    <nd ref="1334638485"/>
    <nd ref="4005355033"/>
    <nd ref="4005355034"/>
    <nd ref="1334638483"/>
    <nd ref="1334638497"/>
    <nd ref="4004905741"/>
    <nd ref="1334638498"/>
    <nd ref="1334638499"/>
    <nd ref="4005349669"/>
    <nd ref="4005349636"/>
    <nd ref="1334638500"/>
    <nd ref="4005349661"/>
    <nd ref="4005349641"/>
    <nd ref="4006260796"/>
    <nd ref="4006260797"/>
    <nd ref="4004831581"/>
    <nd ref="4006260799"/>
    <nd ref="4006273149"/>
    <nd ref="4006273142"/>
    <nd ref="4006273148"/>
    <nd ref="4006273141"/>
    <nd ref="4006273153"/>
    <nd ref="4006273147"/>
    <nd ref="1334638506"/>
    <nd ref="1334638507"/>
    <nd ref="4004905706"/>
    <nd ref="1334638511"/>
    <nd ref="4004905717"/>
    <nd ref="1334638513"/>
    <nd ref="1334638521"/>
    <nd ref="1334638523"/>
    <nd ref="4004905718"/>
    <nd ref="1334638515"/>
    <nd ref="1334638508"/>
    <nd ref="1334638520"/>
    <nd ref="1334638522"/>
    <nd ref="1334638524"/>
    <nd ref="1334638526"/>
    <nd ref="4004905710"/>
    <nd ref="4004905744"/>
    <nd ref="4004905721"/>
    <nd ref="4004905702"/>
    <nd ref="4004905737"/>
    <nd ref="1334638534"/>
    <nd ref="1334638545"/>
    <nd ref="4004905728"/>
    <nd ref="4004905708"/>
    <nd ref="4004905742"/>
    <nd ref="1334638532"/>
    <nd ref="4004905699"/>
    <nd ref="4004905734"/>
    <nd ref="4004905712"/>
    <nd ref="1334638536"/>
    <nd ref="4004905726"/>
    <nd ref="4004905705"/>
    <nd ref="1334638540"/>
    <nd ref="4004905716"/>
    <nd ref="1334638541"/>
    <nd ref="4004905732"/>
    <nd ref="1334638538"/>
    <nd ref="4004905694"/>
    <nd ref="4004905724"/>
    <nd ref="1334638529"/>
    <nd ref="4004905738"/>
    <nd ref="4004905715"/>
    <nd ref="4004905696"/>
    <nd ref="4004905731"/>
    <nd ref="4004905698"/>
    <nd ref="1334638527"/>
    <nd ref="8599534968"/>
    <nd ref="1291040737"/>
    <nd ref="1291040782"/>
    <nd ref="8599534970"/>
    <nd ref="8599534965"/>
    <nd ref="8599534966"/>
    <nd ref="8599534964"/>
    <nd ref="1334638546"/>
    <nd ref="1334638551"/>
    <nd ref="1334638552"/>
    <nd ref="1334638550"/>
    <nd ref="1334638549"/>
    <nd ref="1334638548"/>
    <nd ref="1334638547"/>
    <nd ref="1334638525"/>
    <nd ref="4006467085"/>
    <nd ref="1334638505"/>
    <nd ref="4006467142"/>
    <nd ref="1334638501"/>
    <tag k="addr:city" v="St Neots"/>
    <tag k="addr:postcode" v="PE19 7GE"/>
    <tag k="addr:street" v="Crosshall Road"/>
    <tag k="description" v="18 hole Par 70"/>
    <tag k="email" v="office@stneotsgolfclub.co.uk"/>
    <tag k="golf:course" v="18_hole"/>
    <tag k="golf:par" v="70"/>
    <tag k="leisure" v="golf_course"/>
    <tag k="name" v="St Neots Golf Club"/>
    <tag k="phone" v="+44 1480 472363;+44 1480 476513"/>
    <tag k="website" v="http://www.stneotsgolfclub.co.uk/"/>
  </way>
  <way id="119684795" version="2" timestamp="2023-04-11T13:40:44Z" changeset="134774985" uid="3582" user="davidearl">
    <nd ref="1343825848"/>
    <nd ref="1343825852"/>
    <tag k="bridge" v="yes"/>
    <tag k="highway" v="secondary"/>
    <tag k="layer" v="1"/>
    <tag k="lcn" v="with_care"/>
    <tag k="name" v="Great North Road"/>
    <tag k="ref" v="B1041"/>
  </way>
  <way id="119684796" version="4" timestamp="2023-12-11T17:30:27Z" changeset="145008360" uid="9385857" user="Road5914">
    <nd ref="1343825852"/>
    <nd ref="11410158945"/>
    <nd ref="301822511"/>
    <nd ref="11410158947"/>
    <nd ref="11410158946"/>
    <nd ref="1619901990"/>
    <nd ref="11410158948"/>
    <nd ref="344795199"/>
    <nd ref="1619901992"/>
    <nd ref="11410158929"/>
    <nd ref="11410158930"/>
    <nd ref="344795200"/>
    <nd ref="1619901976"/>
    <nd ref="11410158928"/>
    <nd ref="11410158927"/>
    <nd ref="346371958"/>
    <tag k="highway" v="secondary"/>
    <tag k="lcn" v="with_care"/>
    <tag k="lit" v="no"/>
    <tag k="name" v="Great North Road"/>
    <tag k="ref" v="B1041"/>
  </way>
  <way id="119684803" version="9" timestamp="2021-05-15T13:12:28Z" changeset="104733176" uid="22799" user="DaveArq">
    <nd ref="2811368438"/>
    <nd ref="2811368455"/>
    <nd ref="2812077421"/>
    <nd ref="302343005"/>
    <nd ref="6869623580"/>
    <nd ref="2620223539"/>
    <nd ref="7826823831"/>
    <nd ref="2813026043"/>
    <nd ref="8733886784"/>
    <nd ref="469951181"/>
    <tag k="highway" v="secondary"/>
    <tag k="lcn" v="cambs_cc_stneots_proposed"/>
    <tag k="maxspeed" v="30 mph"/>
    <tag k="name" v="Mill Lane"/>
    <tag k="ref" v="B1041"/>
    <tag k="source:maxspeed" v="Stats19"/>
  </way>
  <way id="119684815" version="3" timestamp="2021-08-29T13:18:53Z" changeset="110412547" uid="5173844" user="ndrw6">
    <nd ref="1343825832"/>
    <nd ref="9045267653"/>
    <nd ref="1343825840"/>
    <nd ref="9045267654"/>
    <nd ref="1343825846"/>
    <tag k="highway" v="residential"/>
    <tag k="name" v="Hawthorn Close"/>
  </way>
  <way id="119684866" version="9" timestamp="2024-09-17T00:12:45Z" changeset="156709273" uid="21226027" user="DorneyLake123">
    <nd ref="1343825831"/>
    <nd ref="9045398918"/>
    <nd ref="9050301910"/>
    <nd ref="1343825784"/>
    <nd ref="1343825823"/>
    <nd ref="1343825825"/>
    <nd ref="9045398436"/>
    <nd ref="9050301909"/>
    <nd ref="1343825827"/>
    <nd ref="1343825829"/>
    <nd ref="9050301743"/>
    <nd ref="1343825831"/>
    <tag k="addr:city" v="St Neots"/>
    <tag k="addr:postcode" v="PE19 6NG"/>
    <tag k="addr:street" v="Gordon Road"/>
    <tag k="amenity" v="school"/>
    <tag k="capacity" v="405"/>
    <tag k="isced:level" v="1"/>
    <tag k="max_age" v="11"/>
    <tag k="min_age" v="4"/>
    <tag k="name" v="Little Paxton Primary School"/>
    <tag k="ref:edubase" v="110733"/>
    <tag k="wikidata" v="Q66223563"/>
  </way>
  <way id="119742293" version="4" timestamp="2024-07-26T00:54:11Z" changeset="154416314" uid="13341565" user="Falsernet">
    <nd ref="346371958"/>
    <nd ref="1619901978"/>
    <nd ref="1619901973"/>
    <tag k="highway" v="trunk_link"/>
    <tag k="lit" v="no"/>
    <tag k="name" v="Great North Road"/>
    <tag k="oneway" v="no"/>
    <tag k="sidewalk" v="no"/>
  </way>
  <way id="119742296" version="7" timestamp="2021-08-31T23:35:03Z" changeset="110535493" uid="5173844" user="ndrw6">
    <nd ref="302887537"/>
    <nd ref="9052014146"/>
    <nd ref="346363386"/>
    <nd ref="346328818"/>
    <nd ref="346363379"/>
    <nd ref="302887535"/>
    <nd ref="6228387153"/>
    <nd ref="485248432"/>
    <nd ref="302887534"/>
    <nd ref="1343825842"/>
    <nd ref="8723192858"/>
    <nd ref="346328801"/>
    <nd ref="1343825838"/>
    <nd ref="302887533"/>
    <nd ref="1343825834"/>
    <nd ref="1343825832"/>
    <nd ref="485248431"/>
    <nd ref="8723192842"/>
    <nd ref="302887499"/>
    <tag k="highway" v="residential"/>
    <tag k="lit" v="yes"/>
    <tag k="name" v="High Street"/>
    <tag k="sidewalk" v="both"/>
    <tag k="source" v="GPS"/>
    <tag k="surface" v="asphalt"/>
  </way>
  <way id="119742298" version="3" timestamp="2021-08-31T20:14:23Z" changeset="110531207" uid="5173844" user="ndrw6">
    <nd ref="302887559"/>
    <nd ref="346363481"/>
    <nd ref="302887540"/>
    <nd ref="1343825844"/>
    <nd ref="3639494077"/>
    <nd ref="464341500"/>
    <nd ref="9051770170"/>
    <nd ref="302887537"/>
    <tag k="highway" v="residential"/>
    <tag k="name" v="High Street"/>
    <tag k="source" v="GPS"/>
  </way>
  <way id="125209402" version="4" timestamp="2021-08-31T23:35:03Z" changeset="110535493" uid="5173844" user="ndrw6">
    <nd ref="344795186"/>
    <nd ref="1390858609"/>
    <nd ref="9052014239"/>
    <nd ref="440889956"/>
    <tag k="highway" v="unclassified"/>
    <tag k="lcn" v="cambs_cc_stneots_proposed"/>
    <tag k="source" v="survey"/>
  </way>
  <way id="148927668" version="4" timestamp="2023-12-11T17:30:27Z" changeset="145008360" uid="9385857" user="Road5914">
    <nd ref="8688029451"/>
    <nd ref="8688029453"/>
    <nd ref="8688029452"/>
    <nd ref="11410158901"/>
    <nd ref="8688029454"/>
    <nd ref="11410158900"/>
    <nd ref="11410158899"/>
    <nd ref="344795162"/>
    <tag k="foot" v="no"/>
    <tag k="highway" v="trunk_link"/>
    <tag k="name" v="Great North Road"/>
    <tag k="oneway" v="yes"/>
    <tag k="source" v="GPS"/>
  </way>
  <way id="148927675" version="10" timestamp="2024-07-26T00:54:11Z" changeset="154416314" uid="13341565" user="Falsernet">
    <nd ref="1619901972"/>
    <nd ref="1619901987"/>
    <tag k="bridge" v="yes"/>
    <tag k="carriageway_ref" v="A"/>
    <tag k="dual_carriageway" v="yes"/>
    <tag k="expressway" v="yes"/>
    <tag k="highway" v="trunk"/>
    <tag k="int_ref" v="E 15"/>
    <tag k="lanes" v="2"/>
    <tag k="layer" v="1"/>
    <tag k="lit" v="no"/>
    <tag k="maxspeed" v="70 mph"/>
    <tag k="maxspeed:type" v="GB:nsl_dual"/>
    <tag k="national_highways:area" v="8"/>
    <tag k="oneway" v="yes"/>
    <tag k="operator" v="National Highways"/>
    <tag k="operator:wikidata" v="Q5760006"/>
    <tag k="ref" v="A1"/>
    <tag k="sidewalk" v="no"/>
    <tag k="source" v="GPS"/>
  </way>
  <way id="148927684" version="9" timestamp="2024-07-26T00:54:11Z" changeset="154416314" uid="13341565" user="Falsernet">
    <nd ref="1619901966"/>
    <nd ref="1619901982"/>
    <tag k="alt_name" v="Great North Road"/>
    <tag k="bridge" v="yes"/>
    <tag k="carriageway_ref" v="B"/>
    <tag k="dual_carriageway" v="yes"/>
    <tag k="expressway" v="yes"/>
    <tag k="highway" v="trunk"/>
    <tag k="int_ref" v="E 15"/>
    <tag k="lanes" v="2"/>
    <tag k="layer" v="1"/>
    <tag k="lit" v="no"/>
    <tag k="maxspeed" v="70 mph"/>
    <tag k="maxspeed:type" v="GB:nsl_dual"/>
    <tag k="national_highways:area" v="8"/>
    <tag k="oneway" v="yes"/>
    <tag k="operator" v="National Highways"/>
    <tag k="operator:wikidata" v="Q5760006"/>
    <tag k="ref" v="A1"/>
    <tag k="sidewalk" v="no"/>
  </way>
  <way id="148927689" version="8" timestamp="2024-07-26T00:54:11Z" changeset="154416314" uid="13341565" user="Falsernet">
    <nd ref="1619901973"/>
    <nd ref="11410158925"/>
    <nd ref="11410158919"/>
    <nd ref="344795202"/>
    <nd ref="11410158920"/>
    <nd ref="11410158921"/>
    <nd ref="344795203"/>
    <nd ref="344795204"/>
    <nd ref="344795205"/>
    <nd ref="1615026644"/>
    <nd ref="11410158922"/>
    <nd ref="11410158923"/>
    <nd ref="1615026649"/>
    <nd ref="11410158924"/>
    <nd ref="344795206"/>
    <tag k="expressway" v="yes"/>
    <tag k="highway" v="trunk_link"/>
    <tag k="lit" v="no"/>
    <tag k="name" v="Great North Road"/>
    <tag k="national_highways:area" v="8"/>
    <tag k="oneway" v="yes"/>
    <tag k="operator" v="National Highways"/>
    <tag k="operator:wikidata" v="Q5760006"/>
    <tag k="ref" v="B1041"/>
    <tag k="sidewalk" v="no"/>
  </way>
  <way id="170424485" version="9" timestamp="2024-09-29T14:10:47Z" changeset="157255725" uid="5173844" user="ndrw6">
    <nd ref="1815657681"/>
    <nd ref="469936879"/>
    <nd ref="2157505854"/>
    <nd ref="1815657682"/>
    <nd ref="1815657681"/>
    <tag k="addr:street" v="Park Way"/>
    <tag k="amenity" v="fast_food"/>
    <tag k="building" v="retail"/>
    <tag k="cuisine" v="chinese"/>
    <tag k="name" v="Beijing Palace"/>
    <tag k="source" v="survey"/>
  </way>
  <way id="170424616" version="5" timestamp="2020-01-04T23:51:20Z" changeset="79202312" uid="1418967" user="RAC_UK">
    <nd ref="1815660633"/>
    <nd ref="1815657681"/>
    <nd ref="1815657682"/>
    <nd ref="1815660631"/>
    <nd ref="1815660633"/>
    <tag k="addr:street" v="Park Way"/>
    <tag k="building" v="retail"/>
    <tag k="designation" v="Chemist"/>
    <tag k="name" v="Little Paxton Pharmacy"/>
    <tag k="source" v="survey"/>
  </way>
  <way id="235263839" version="11" timestamp="2024-07-25T11:56:27Z" changeset="154390466" uid="5008136" user="JayTurnr">
    <nd ref="1621983869"/>
    <nd ref="11410158940"/>
    <nd ref="344795167"/>
    <nd ref="6386281309"/>
    <nd ref="344795168"/>
    <nd ref="2883812737"/>
    <nd ref="2536611999"/>
    <tag k="access" v="permissive"/>
    <tag k="description" v="Paxton Pits access road"/>
    <tag k="designation" v="public_footpath"/>
    <tag k="foot" v="designated"/>
    <tag k="highway" v="unclassified"/>
    <tag k="note" v="sign says Quarry and Plant traffic only"/>
    <tag k="source" v="survey"/>
    <tag k="surface" v="asphalt"/>
  </way>
  <way id="256362785" version="8" timestamp="2021-08-29T11:26:42Z" changeset="110408700" uid="5173844" user="ndrw6">
    <nd ref="2811368437"/>
    <nd ref="2812077420"/>
    <nd ref="2811368435"/>
    <nd ref="2811368458"/>
    <nd ref="2812077406"/>
    <nd ref="2811368457"/>
    <nd ref="8561230795"/>
    <nd ref="9045094438"/>
    <nd ref="2811368459"/>
    <nd ref="2811368481"/>
    <nd ref="2811368460"/>
    <nd ref="2620223533"/>
    <nd ref="2811368490"/>
    <nd ref="2620223534"/>
    <nd ref="2812077422"/>
    <nd ref="2812077430"/>
    <nd ref="2811368464"/>
    <nd ref="2812077424"/>
    <nd ref="2620223535"/>
    <nd ref="2812077402"/>
    <nd ref="2811368463"/>
    <nd ref="2811368462"/>
    <nd ref="2812077403"/>
    <nd ref="2811368461"/>
    <nd ref="2620223536"/>
    <nd ref="2620225057"/>
    <nd ref="2811368470"/>
    <nd ref="2620223537"/>
    <nd ref="7953585839"/>
    <nd ref="2811368465"/>
    <nd ref="2811368467"/>
    <nd ref="2811368466"/>
    <nd ref="7953585835"/>
    <nd ref="2812077408"/>
    <nd ref="2620223539"/>
    <tag k="highway" v="residential"/>
    <tag k="maxspeed" v="30 mph"/>
    <tag k="name" v="Samuel Jones Crescent"/>
    <tag k="oneway" v="no"/>
  </way>
  <way id="276541383" version="3" timestamp="2016-11-27T09:25:54Z" changeset="43979305" uid="64735" user="Barry Downs">
    <nd ref="2811368451"/>
    <nd ref="2811368452"/>
    <nd ref="2811368437"/>
    <nd ref="2811368453"/>
    <nd ref="2811368454"/>
    <nd ref="2811368439"/>
    <nd ref="2811368440"/>
    <nd ref="2811368436"/>
    <nd ref="2811368441"/>
    <nd ref="2811368447"/>
    <nd ref="2811368448"/>
    <nd ref="335985868"/>
    <nd ref="2811368449"/>
    <nd ref="2811368450"/>
    <nd ref="2811368442"/>
    <nd ref="2811368443"/>
    <nd ref="2811368438"/>
    <nd ref="2811368444"/>
    <nd ref="2811368445"/>
    <nd ref="2811368446"/>
    <nd ref="2811368451"/>
    <tag k="highway" v="secondary"/>
    <tag k="junction" v="roundabout"/>
    <tag k="oneway" v="yes"/>
  </way>
  <way id="276541384" version="3" timestamp="2021-08-29T11:26:42Z" changeset="110408700" uid="5173844" user="ndrw6">
    <nd ref="2811368467"/>
    <nd ref="2811368468"/>
    <nd ref="9045094422"/>
    <nd ref="2811368489"/>
    <nd ref="2811368469"/>
    <tag k="highway" v="residential"/>
    <tag k="name" v="Samuel Jones Crescent"/>
  </way>
  <way id="276541388" version="4" timestamp="2020-07-30T00:41:48Z" changeset="88702607" uid="11572942" user="MJFazz">
    <nd ref="2620223534"/>
    <nd ref="2811368491"/>
    <nd ref="7768412814"/>
    <nd ref="2812077427"/>
    <nd ref="2811368492"/>
    <tag k="highway" v="residential"/>
    <tag k="name" v="Holly Blue Close"/>
    <tag k="oneway" v="no"/>
  </way>
  <way id="284658437" version="2" timestamp="2021-08-29T14:49:52Z" changeset="110415887" uid="5173844" user="ndrw6">
    <nd ref="2883810467"/>
    <nd ref="2883810488"/>
    <nd ref="2883812817"/>
    <tag k="highway" v="residential"/>
    <tag k="name" v="Kingfisher Close"/>
    <tag k="source" v="GPS"/>
  </way>
  <way id="284658444" version="3" timestamp="2021-02-20T12:19:54Z" changeset="99638838" uid="11250071" user="MikeRuns">
    <nd ref="2883812823"/>
    <nd ref="346369556"/>
    <tag k="highway" v="residential"/>
    <tag k="name" v="Parkside"/>
    <tag k="sidewalk" v="both"/>
  </way>
  <way id="429511421" version="4" timestamp="2021-08-18T08:29:01Z" changeset="109857858" uid="13750939" user="FortQuake">
    <nd ref="440890018"/>
    <nd ref="344795175"/>
    <nd ref="344795176"/>
    <nd ref="344795177"/>
    <nd ref="344795178"/>
    <nd ref="344795179"/>
    <nd ref="9016385900"/>
    <nd ref="344795180"/>
    <nd ref="485239207"/>
    <nd ref="344795181"/>
    <nd ref="344795182"/>
    <nd ref="2536611987"/>
    <nd ref="2883810481"/>
    <nd ref="344795183"/>
    <nd ref="344795184"/>
    <nd ref="6989144257"/>
    <nd ref="464341114"/>
    <tag k="access" v="permissive"/>
    <tag k="description" v="Paxton Pits access road"/>
    <tag k="highway" v="unclassified"/>
    <tag k="note" v="sign says Quarry and Plant traffic only"/>
    <tag k="source" v="survey"/>
  </way>
  <way id="556573395" version="1" timestamp="2018-01-28T21:43:07Z" changeset="55842176" uid="5173844" user="ndrw6">
    <nd ref="5368960772"/>
    <nd ref="5368960773"/>
    <tag k="highway" v="residential"/>
  </way>
  <way id="665448058" version="1" timestamp="2019-01-22T22:53:56Z" changeset="66553305" uid="5173844" user="ndrw6">
    <nd ref="346363431"/>
    <nd ref="6228387089"/>
    <nd ref="346363432"/>
    <tag k="highway" v="residential"/>
    <tag k="name" v="Field Close"/>
    <tag k="source" v="survey"/>
  </way>
  <way id="665448059" version="1" timestamp="2019-01-22T22:53:56Z" changeset="66553305" uid="5173844" user="ndrw6">
    <nd ref="346363436"/>
    <nd ref="6228387092"/>
    <nd ref="346363438"/>
    <tag k="highway" v="residential"/>
    <tag k="name" v="Elm Croft"/>
    <tag k="source" v="survey"/>
  </way>
  <way id="665448063" version="3" timestamp="2024-04-04T11:39:15Z" changeset="149566150" uid="95856" user="john paul jones &amp; gringo">
    <nd ref="6228387119"/>
    <nd ref="6228387116"/>
    <nd ref="6228387117"/>
    <nd ref="6228387118"/>
    <nd ref="6228387119"/>
    <tag k="addr:city" v="St Neots"/>
    <tag k="addr:country" v="GB"/>
    <tag k="addr:postcode" v="PE19 6EN"/>
    <tag k="addr:street" v="The Conservatory Village"/>
    <tag k="addr:suburb" v="Little Paxton"/>
    <tag k="building" v="yes"/>
    <tag k="name" v="Kitchen Magician"/>
    <tag k="operator" v="The Kitchen Magician"/>
    <tag k="shop" v="kitchen"/>
    <tag k="website" v="https://www.thekitchenmagician.co.uk"/>
  </way>
  <way id="665448110" version="8" timestamp="2021-08-29T14:49:52Z" changeset="110415887" uid="5173844" user="ndrw6">
    <nd ref="346328783"/>
    <nd ref="6228387287"/>
    <nd ref="6228387286"/>
    <nd ref="6228387285"/>
    <nd ref="6753213758"/>
    <nd ref="6964847127"/>
    <tag k="highway" v="residential"/>
    <tag k="lit" v="yes"/>
    <tag k="name" v="Dandby Close"/>
    <tag k="sidewalk" v="both"/>
    <tag k="surface" v="asphalt"/>
  </way>
  <way id="719346288" version="3" timestamp="2021-02-20T12:19:55Z" changeset="99638838" uid="11250071" user="MikeRuns">
    <nd ref="6753213758"/>
    <nd ref="6964847129"/>
    <nd ref="6753213759"/>
    <nd ref="6753213760"/>
    <nd ref="6753213761"/>
    <nd ref="6753213762"/>
    <nd ref="6753213763"/>
    <nd ref="6753213764"/>
    <nd ref="6753213765"/>
    <tag k="highway" v="residential"/>
    <tag k="name" v="Dandby Close"/>
  </way>
  <way id="744182151" version="3" timestamp="2021-08-29T14:49:52Z" changeset="110415887" uid="5173844" user="ndrw6">
    <nd ref="346363500"/>
    <nd ref="6964871645"/>
    <nd ref="6964871644"/>
    <nd ref="9045398471"/>
    <tag k="highway" v="residential"/>
    <tag k="name" v="Lodge Drive"/>
  </way>
  <way id="744182152" version="3" timestamp="2021-08-24T08:06:22Z" changeset="110155858" uid="10455629" user="jgopatho">
    <nd ref="6964871646"/>
    <nd ref="6964871647"/>
    <nd ref="6753213765"/>
    <nd ref="9031387671"/>
    <nd ref="6753213767"/>
    <tag k="highway" v="residential"/>
    <tag k="name" v="Dandby Close"/>
  </way>
  <way id="791105110" version="4" timestamp="2021-08-18T08:29:01Z" changeset="109857858" uid="13750939" user="FortQuake">
    <nd ref="2536611999"/>
    <nd ref="344795169"/>
    <nd ref="7991391250"/>
    <nd ref="344795170"/>
    <nd ref="344795171"/>
    <nd ref="344795172"/>
    <nd ref="9016385899"/>
    <nd ref="344795173"/>
    <nd ref="344795174"/>
    <nd ref="440890018"/>
    <tag k="access" v="permissive"/>
    <tag k="description" v="Paxton Pits access road"/>
    <tag k="highway" v="unclassified"/>
    <tag k="note" v="sign says Quarry and Plant traffic only"/>
    <tag k="source" v="survey"/>
  </way>
  <way id="937763158" version="2" timestamp="2023-12-11T17:30:27Z" changeset="145008360" uid="9385857" user="Road5914">
    <nd ref="344795162"/>
    <nd ref="8688029456"/>
    <nd ref="11410158943"/>
    <nd ref="344795164"/>
    <tag k="cycleway:both" v="no"/>
    <tag k="description" v="Paxton Pits access road"/>
    <tag k="highway" v="unclassified"/>
    <tag k="note" v="sign says Quarry and Plant traffic only"/>
    <tag k="oneway" v="yes"/>
    <tag k="source" v="survey"/>
    <tag k="surface" v="asphalt"/>
  </way>
  <way id="937763159" version="1" timestamp="2021-05-01T13:59:26Z" changeset="103958403" uid="659911" user="mikey-b">
    <nd ref="703692122"/>
    <nd ref="344795164"/>
    <tag k="highway" v="unclassified"/>
  </way>
  <way id="966787066" version="4" timestamp="2024-12-31T00:08:04Z" changeset="160814893" uid="5229644" user="Nathan_A_RF">
    <nd ref="344795162"/>
    <nd ref="12464010816"/>
    <nd ref="11410158902"/>
    <tag k="foot" v="no"/>
    <tag k="highway" v="secondary"/>
    <tag k="name" v="Great North Road"/>
    <tag k="oneway" v="yes"/>
    <tag k="ref" v="B1041"/>
    <tag k="source" v="GPS"/>
  </way>
  <way id="966787067" version="1" timestamp="2021-07-23T16:36:25Z" changeset="108504063" uid="11250071" user="MikeRuns">
    <nd ref="703692130"/>
    <nd ref="703692134"/>
    <nd ref="8944566242"/>
    <tag k="access" v="private"/>
    <tag k="highway" v="unclassified"/>
    <tag k="name" v="The Orchard"/>
  </way>
  <way id="971141209" version="4" timestamp="2024-12-31T00:04:35Z" changeset="160814835" uid="5229644" user="Nathan_A_RF">
    <nd ref="9045094273"/>
    <nd ref="2811368493"/>
    <nd ref="6462617519"/>
    <nd ref="9045267830"/>
    <nd ref="300715042"/>
    <tag k="highway" v="tertiary"/>
    <tag k="name" v="Great North Road"/>
  </way>
  <way id="974957211" version="2" timestamp="2024-12-31T00:08:04Z" changeset="160814893" uid="5229644" user="Nathan_A_RF">
    <nd ref="11410158902"/>
    <nd ref="12464010815"/>
    <nd ref="12464010819"/>
    <nd ref="12464010818"/>
    <nd ref="12464010814"/>
    <nd ref="8688029458"/>
    <nd ref="703692075"/>
    <tag k="highway" v="secondary"/>
    <tag k="name" v="Great North Road"/>
    <tag k="ref" v="B1041"/>
    <tag k="source" v="GPS"/>
  </way>
  <way id="977520926" version="1" timestamp="2021-08-29T11:26:41Z" changeset="110408700" uid="5173844" user="ndrw6">
    <nd ref="9045094422"/>
    <nd ref="9045094421"/>
    <tag k="highway" v="residential"/>
    <tag k="name" v="Samuel Jones Crescent"/>
  </way>
  <way id="977539673" version="1" timestamp="2021-08-29T13:18:53Z" changeset="110412547" uid="5173844" user="ndrw6">
    <nd ref="9045267690"/>
    <nd ref="9045267689"/>
    <tag k="highway" v="residential"/>
    <tag k="lit" v="yes"/>
    <tag k="name" v="Grove Road"/>
    <tag k="sidewalk" v="both"/>
    <tag k="source" v="survey"/>
    <tag k="surface" v="asphalt"/>
  </way>
  <way id="977554982" version="1" timestamp="2021-08-29T14:49:52Z" changeset="110415887" uid="5173844" user="ndrw6">
    <nd ref="2883810490"/>
    <nd ref="2883810467"/>
    <nd ref="9045385729"/>
    <tag k="highway" v="residential"/>
    <tag k="name" v="Kingfisher Close"/>
    <tag k="source" v="GPS"/>
  </way>
  <way id="977555022" version="1" timestamp="2021-08-29T14:49:52Z" changeset="110415887" uid="5173844" user="ndrw6">
    <nd ref="9045398306"/>
    <nd ref="9045398305"/>
    <tag k="highway" v="residential"/>
    <tag k="name" v="Jubilee Close"/>
    <tag k="source" v="OS_OpenData_StreetView"/>
  </way>
  <way id="977555027" version="1" timestamp="2021-08-29T14:49:52Z" changeset="110415887" uid="5173844" user="ndrw6">
    <nd ref="9045398320"/>
    <nd ref="9045398319"/>
    <tag k="highway" v="unclassified"/>
    <tag k="name" v="The Orchard"/>
  </way>
  <way id="977555043" version="1" timestamp="2021-08-29T14:49:52Z" changeset="110415887" uid="5173844" user="ndrw6">
    <nd ref="346363398"/>
    <nd ref="346363426"/>
    <nd ref="9045398358"/>
    <tag k="highway" v="residential"/>
    <tag k="name" v="Hall Close"/>
    <tag k="source" v="survey"/>
  </way>
  <way id="977555065" version="1" timestamp="2021-08-29T14:49:52Z" changeset="110415887" uid="5173844" user="ndrw6">
    <nd ref="9045398481"/>
    <nd ref="9045398480"/>
    <tag k="highway" v="residential"/>
    <tag k="name" v="Dial Close"/>
    <tag k="source" v="survey"/>
  </way>
  <way id="977555111" version="1" timestamp="2021-08-29T14:49:52Z" changeset="110415887" uid="5173844" user="ndrw6">
    <nd ref="9045398649"/>
    <nd ref="469933487"/>
    <nd ref="9045398648"/>
    <tag k="highway" v="residential"/>
    <tag k="name" v="Park Close"/>
    <tag k="source" v="GPS"/>
    <tag k="source:name" v="survey"/>
  </way>
  <way id="977555127" version="1" timestamp="2021-08-29T14:49:52Z" changeset="110415887" uid="5173844" user="ndrw6">
    <nd ref="9045398690"/>
    <nd ref="9045398689"/>
    <tag k="highway" v="residential"/>
    <tag k="name" v="Sweeting Avenue"/>
    <tag k="source" v="OS_OpenData_StreetView"/>
  </way>
  <way id="977555144" version="1" timestamp="2021-08-29T14:49:52Z" changeset="110415887" uid="5173844" user="ndrw6">
    <nd ref="9045398777"/>
    <nd ref="703692039"/>
    <nd ref="9045398776"/>
    <tag k="highway" v="residential"/>
    <tag k="name" v="River Close"/>
    <tag k="source" v="OS_OpenData_StreetView"/>
  </way>
  <way id="977555166" version="1" timestamp="2021-08-29T14:49:52Z" changeset="110415887" uid="5173844" user="ndrw6">
    <nd ref="9045398858"/>
    <nd ref="346368734"/>
    <nd ref="9045398857"/>
    <nd ref="346368735"/>
    <tag k="highway" v="residential"/>
    <tag k="name" v="The Crofts"/>
    <tag k="sidewalk" v="both"/>
    <tag k="source" v="survey"/>
  </way>
  <way id="977555167" version="1" timestamp="2021-08-29T14:49:52Z" changeset="110415887" uid="5173844" user="ndrw6">
    <nd ref="703692184"/>
    <nd ref="9045398859"/>
    <tag k="highway" v="residential"/>
    <tag k="name" v="The Crofts"/>
    <tag k="sidewalk" v="both"/>
    <tag k="source" v="OS_OpenData_StreetView"/>
  </way>
  <way id="977555191" version="1" timestamp="2021-08-29T14:49:52Z" changeset="110415887" uid="5173844" user="ndrw6">
    <nd ref="9045399042"/>
    <nd ref="9045399041"/>
    <tag k="highway" v="residential"/>
    <tag k="name" v="Booth Way"/>
    <tag k="source" v="OS_OpenData_StreetView"/>
  </way>
  <way id="977555192" version="1" timestamp="2021-08-29T14:49:52Z" changeset="110415887" uid="5173844" user="ndrw6">
    <nd ref="9045399044"/>
    <nd ref="9045399043"/>
    <tag k="highway" v="residential"/>
    <tag k="name" v="Willow Close"/>
    <tag k="source" v="OS_OpenData_StreetView"/>
  </way>
  <way id="977555195" version="1" timestamp="2021-08-29T14:49:52Z" changeset="110415887" uid="5173844" user="ndrw6">
    <nd ref="9045399097"/>
    <nd ref="9045399096"/>
    <tag k="highway" v="residential"/>
    <tag k="name" v="Beeson Close"/>
    <tag k="source" v="survey"/>
  </way>
  <way id="977555196" version="1" timestamp="2021-08-29T14:49:52Z" changeset="110415887" uid="5173844" user="ndrw6">
    <nd ref="9045399099"/>
    <nd ref="9045399098"/>
    <tag k="highway" v="residential"/>
    <tag k="name" v="Beeson Close"/>
    <tag k="source" v="survey"/>
  </way>
  <way id="978084537" version="1" timestamp="2021-08-31T09:09:51Z" changeset="110501275" uid="5173844" user="ndrw6">
    <nd ref="9050301762"/>
    <nd ref="9050301761"/>
    <tag k="highway" v="residential"/>
    <tag k="name" v="Park Avenue"/>
    <tag k="source" v="survey"/>
  </way>
  <way id="978259963" version="1" timestamp="2021-08-31T23:35:03Z" changeset="110535493" uid="5173844" user="ndrw6">
    <nd ref="1343825865"/>
    <nd ref="9052015531"/>
    <tag k="highway" v="residential"/>
    <tag k="name" v="Saint James Road"/>
    <tag k="source" v="survey"/>
  </way>
  <way id="980586114" version="7" timestamp="2024-12-31T00:08:04Z" changeset="160814893" uid="5229644" user="Nathan_A_RF">
    <nd ref="621501"/>
    <nd ref="1621983920"/>
    <nd ref="11410158894"/>
    <nd ref="11410158887"/>
    <nd ref="1621983894"/>
    <nd ref="12464010820"/>
    <nd ref="8688029451"/>
    <nd ref="11410158905"/>
    <nd ref="11410158963"/>
    <nd ref="621499"/>
    <nd ref="11410158965"/>
    <nd ref="621498"/>
    <nd ref="1619901996"/>
    <nd ref="11410158969"/>
    <nd ref="11410159019"/>
    <nd ref="1615026643"/>
    <nd ref="1615026647"/>
    <nd ref="11410159020"/>
    <nd ref="621496"/>
    <nd ref="11410159021"/>
    <nd ref="621494"/>
    <nd ref="11410159022"/>
    <nd ref="11410159023"/>
    <nd ref="11410159024"/>
    <nd ref="11410159025"/>
    <nd ref="621495"/>
    <nd ref="11410159026"/>
    <nd ref="11410158999"/>
    <nd ref="11410159027"/>
    <nd ref="1615026652"/>
    <nd ref="11410159029"/>
    <nd ref="11410159028"/>
    <nd ref="1615026639"/>
    <nd ref="1615026648"/>
    <nd ref="1619901970"/>
    <nd ref="11410159031"/>
    <nd ref="344795208"/>
    <nd ref="1619901966"/>
    <tag k="alt_name" v="Great North Road"/>
    <tag k="carriageway_ref" v="B"/>
    <tag k="dual_carriageway" v="yes"/>
    <tag k="expressway" v="yes"/>
    <tag k="highway" v="trunk"/>
    <tag k="int_ref" v="E 15"/>
    <tag k="lanes" v="2"/>
    <tag k="lit" v="no"/>
    <tag k="maxspeed" v="70 mph"/>
    <tag k="maxspeed:type" v="GB:nsl_dual"/>
    <tag k="national_highways:area" v="8"/>
    <tag k="oneway" v="yes"/>
    <tag k="operator" v="National Highways"/>
    <tag k="operator:wikidata" v="Q5760006"/>
    <tag k="ref" v="A1"/>
    <tag k="sidewalk" v="no"/>
  </way>
  <way id="1132268456" version="7" timestamp="2024-12-11T11:01:57Z" changeset="160163856" uid="22282452" user="willrussell">
    <nd ref="11082089047"/>
    <nd ref="12208996063"/>
    <nd ref="11082089188"/>
    <nd ref="11082089187"/>
    <nd ref="11225662003"/>
    <nd ref="11034023256"/>
    <nd ref="11034023255"/>
    <nd ref="11034023254"/>
    <nd ref="11034023253"/>
    <nd ref="11034023252"/>
    <nd ref="11034023257"/>
    <nd ref="12208998106"/>
    <nd ref="11034023251"/>
    <nd ref="11034023250"/>
    <nd ref="11034023249"/>
    <nd ref="11034023248"/>
    <nd ref="11082089201"/>
    <nd ref="10557567553"/>
    <nd ref="11034023261"/>
    <nd ref="11082089190"/>
    <nd ref="10902466195"/>
    <nd ref="10557567552"/>
    <nd ref="11082089193"/>
    <nd ref="11082089167"/>
    <nd ref="10902466194"/>
    <nd ref="10557567551"/>
    <tag k="highway" v="residential"/>
    <tag k="name" v="Brimstone Avenue"/>
    <tag k="source:name" v="OS_OpenMap_Local"/>
  </way>
  <way id="1188255827" version="2" timestamp="2023-08-02T00:09:54Z" changeset="139322071" uid="5173844" user="ndrw6">
    <nd ref="11034023257"/>
    <nd ref="11034023258"/>
    <nd ref="11034023259"/>
    <nd ref="11034023260"/>
    <nd ref="11082089200"/>
    <nd ref="11082089199"/>
    <tag k="highway" v="residential"/>
    <tag k="name" v="Glanville Crescent"/>
  </way>
  <way id="1193874001" version="3" timestamp="2024-12-11T11:01:57Z" changeset="160163856" uid="22282452" user="willrussell">
    <nd ref="11082088766"/>
    <nd ref="11082088765"/>
    <nd ref="11082088764"/>
    <nd ref="11082088763"/>
    <nd ref="11082088766"/>
    <tag k="addr:housenumber" v="5"/>
    <tag k="addr:street" v="Copper Drive"/>
    <tag k="building" v="house"/>
  </way>
  <way id="1193874005" version="3" timestamp="2024-12-11T11:01:57Z" changeset="160163856" uid="22282452" user="willrussell">
    <nd ref="11082088782"/>
    <nd ref="11082088781"/>
    <nd ref="11082088780"/>
    <nd ref="11082088779"/>
    <nd ref="11082088782"/>
    <tag k="addr:housenumber" v="3"/>
    <tag k="addr:street" v="Copper Drive"/>
    <tag k="building" v="house"/>
  </way>
  <way id="1193874058" version="3" timestamp="2024-12-11T11:01:57Z" changeset="160163856" uid="22282452" user="willrussell">
    <nd ref="11082088960"/>
    <nd ref="11082088959"/>
    <nd ref="11082088958"/>
    <nd ref="11082088957"/>
    <nd ref="11082088960"/>
    <tag k="addr:housenumber" v="6"/>
    <tag k="addr:street" v="Copper Drive"/>
    <tag k="building" v="house"/>
  </way>
  <way id="1193874059" version="3" timestamp="2024-12-11T11:01:57Z" changeset="160163856" uid="22282452" user="willrussell">
    <nd ref="11082088964"/>
    <nd ref="11082088963"/>
    <nd ref="11082088962"/>
    <nd ref="11082088961"/>
    <nd ref="11082088964"/>
    <tag k="addr:housenumber" v="4"/>
    <tag k="addr:street" v="Copper Drive"/>
    <tag k="building" v="house"/>
  </way>
  <way id="1193874060" version="3" timestamp="2024-12-11T11:01:57Z" changeset="160163856" uid="22282452" user="willrussell">
    <nd ref="11082088968"/>
    <nd ref="11082088967"/>
    <nd ref="11082088966"/>
    <nd ref="11082088965"/>
    <nd ref="11082088968"/>
    <tag k="addr:housenumber" v="2"/>
    <tag k="addr:street" v="Copper Drive"/>
    <tag k="building" v="house"/>
  </way>
  <way id="1193874111" version="3" timestamp="2024-09-29T14:07:26Z" changeset="157255595" uid="5173844" user="ndrw6">
    <nd ref="11034023255"/>
    <nd ref="11082089179"/>
    <nd ref="11082089178"/>
    <nd ref="11082089177"/>
    <nd ref="12208996043"/>
    <nd ref="11082089176"/>
    <nd ref="12208996044"/>
    <nd ref="11082089175"/>
    <nd ref="11082089174"/>
    <nd ref="11082089173"/>
    <nd ref="11082089172"/>
    <nd ref="11082089171"/>
    <nd ref="11082089170"/>
    <nd ref="11082089182"/>
    <tag k="highway" v="residential"/>
    <tag k="name" v="Swallowtail Way"/>
  </way>
  <way id="1193874112" version="3" timestamp="2024-12-11T11:01:57Z" changeset="160163856" uid="22282452" user="willrussell">
    <nd ref="11082089187"/>
    <nd ref="11082089186"/>
    <nd ref="11082089185"/>
    <nd ref="11082089184"/>
    <nd ref="11082089183"/>
    <nd ref="11082089182"/>
    <nd ref="11082089181"/>
    <nd ref="11082089180"/>
    <nd ref="12208998165"/>
    <nd ref="12412125863"/>
    <nd ref="12208998164"/>
    <tag k="highway" v="residential"/>
  </way>
  <way id="1193874113" version="3" timestamp="2024-12-11T11:01:57Z" changeset="160163856" uid="22282452" user="willrussell">
    <nd ref="11082089210"/>
    <nd ref="12208998110"/>
    <nd ref="11082089188"/>
    <tag k="highway" v="residential"/>
  </way>
  <way id="1193874115" version="2" timestamp="2023-09-28T20:35:23Z" changeset="141881152" uid="11250071" user="MikeRuns">
    <nd ref="11082089196"/>
    <nd ref="11082089197"/>
    <nd ref="11082089195"/>
    <nd ref="11082089194"/>
    <tag k="highway" v="residential"/>
    <tag k="name" v="Grayling Close"/>
  </way>
  <way id="1193874116" version="2" timestamp="2023-09-28T20:35:23Z" changeset="141881152" uid="11250071" user="MikeRuns">
    <nd ref="11082089203"/>
    <nd ref="11082089198"/>
    <nd ref="11082089197"/>
    <tag k="highway" v="residential"/>
    <tag k="name" v="Grayling Close"/>
  </way>
  <way id="1193874117" version="1" timestamp="2023-08-02T00:09:54Z" changeset="139322071" uid="5173844" user="ndrw6">
    <nd ref="11034023260"/>
    <nd ref="11082088709"/>
    <nd ref="11034023261"/>
    <tag k="highway" v="residential"/>
    <tag k="name" v="Glanville Crescent"/>
  </way>
  <way id="1193874118" version="4" timestamp="2024-12-11T11:01:57Z" changeset="160163856" uid="22282452" user="willrussell">
    <nd ref="11082089211"/>
    <nd ref="9223319130"/>
    <nd ref="11082089210"/>
    <nd ref="12208998105"/>
    <nd ref="11082089209"/>
    <nd ref="11082089208"/>
    <nd ref="11082089207"/>
    <tag k="highway" v="residential"/>
  </way>
  <way id="1211668548" version="3" timestamp="2024-12-11T11:01:57Z" changeset="160163856" uid="22282452" user="willrussell">
    <nd ref="11082089207"/>
    <nd ref="12208998108"/>
    <nd ref="11082089206"/>
    <nd ref="11082089205"/>
    <nd ref="11082089204"/>
    <nd ref="11082089203"/>
    <nd ref="11082089202"/>
    <nd ref="11034023249"/>
    <tag k="highway" v="residential"/>
    <tag k="name" v="Copper Drive"/>
    <tag k="oneway" v="no"/>
  </way>
  <way id="1211668549" version="1" timestamp="2023-09-28T20:35:23Z" changeset="141881152" uid="11250071" user="MikeRuns">
    <nd ref="11225662003"/>
    <nd ref="11225662004"/>
    <nd ref="11225662005"/>
    <tag k="highway" v="residential"/>
    <tag k="name" v="Meadow Brown Close"/>
  </way>
  <way id="1238386450" version="3" timestamp="2024-12-31T00:08:04Z" changeset="160814893" uid="5229644" user="Nathan_A_RF">
    <nd ref="1619901987"/>
    <nd ref="11410159012"/>
    <nd ref="11410159030"/>
    <nd ref="12952450"/>
    <nd ref="1615026650"/>
    <nd ref="1615026655"/>
    <nd ref="11410158995"/>
    <nd ref="12952411"/>
    <nd ref="11410159013"/>
    <nd ref="1615026651"/>
    <nd ref="1615026640"/>
    <nd ref="11410159014"/>
    <nd ref="11410159015"/>
    <nd ref="12952452"/>
    <nd ref="11410159016"/>
    <nd ref="1615026638"/>
    <nd ref="1615026642"/>
    <nd ref="11410159017"/>
    <nd ref="11410159018"/>
    <nd ref="11410158968"/>
    <nd ref="1619901977"/>
    <nd ref="12952454"/>
    <nd ref="11410158967"/>
    <nd ref="11410158964"/>
    <nd ref="12952456"/>
    <nd ref="11410158906"/>
    <nd ref="12952457"/>
    <nd ref="12464010821"/>
    <nd ref="469926020"/>
    <nd ref="12952458"/>
    <nd ref="11410158893"/>
    <nd ref="11410158884"/>
    <nd ref="1615026641"/>
    <nd ref="11410158885"/>
    <nd ref="344795206"/>
    <nd ref="12952459"/>
    <tag k="carriageway_ref" v="A"/>
    <tag k="dual_carriageway" v="yes"/>
    <tag k="expressway" v="yes"/>
    <tag k="highway" v="trunk"/>
    <tag k="int_ref" v="E 15"/>
    <tag k="lanes" v="2"/>
    <tag k="lit" v="no"/>
    <tag k="maxspeed" v="70 mph"/>
    <tag k="maxspeed:type" v="GB:nsl_dual"/>
    <tag k="national_highways:area" v="8"/>
    <tag k="oneway" v="yes"/>
    <tag k="operator" v="National Highways"/>
    <tag k="operator:wikidata" v="Q5760006"/>
    <tag k="ref" v="A1"/>
    <tag k="sidewalk" v="no"/>
    <tag k="source" v="GPS"/>
  </way>
  <way id="1238386451" version="2" timestamp="2024-07-26T00:54:11Z" changeset="154416314" uid="13341565" user="Falsernet">
    <nd ref="11410158881"/>
    <nd ref="11410158880"/>
    <nd ref="621502"/>
    <nd ref="11410158882"/>
    <nd ref="11410158883"/>
    <nd ref="621501"/>
    <tag k="alt_name" v="Great North Road"/>
    <tag k="carriageway_ref" v="B"/>
    <tag k="dual_carriageway" v="yes"/>
    <tag k="expressway" v="yes"/>
    <tag k="highway" v="trunk"/>
    <tag k="int_ref" v="E 15"/>
    <tag k="lanes" v="2"/>
    <tag k="lit" v="no"/>
    <tag k="maxspeed" v="70 mph"/>
    <tag k="maxspeed:type" v="GB:nsl_dual"/>
    <tag k="national_highways:area" v="8"/>
    <tag k="oneway" v="yes"/>
    <tag k="operator" v="National Highways"/>
    <tag k="operator:wikidata" v="Q5760006"/>
    <tag k="ref" v="A1"/>
    <tag k="sidewalk" v="separate"/>
  </way>
  <way id="1319254386" version="2" timestamp="2024-12-11T11:01:57Z" changeset="160163856" uid="22282452" user="willrussell">
    <nd ref="12208996060"/>
    <nd ref="11082088783"/>
    <nd ref="11082088784"/>
    <nd ref="12208996059"/>
    <nd ref="12208996060"/>
    <tag k="addr:housenumber" v="1"/>
    <tag k="addr:street" v="Copper Drive"/>
    <tag k="building" v="house"/>
  </way>
  <way id="1319254388" version="1" timestamp="2024-09-29T14:07:26Z" changeset="157255595" uid="5173844" user="ndrw6">
    <nd ref="12208996063"/>
    <nd ref="12208996062"/>
    <tag k="highway" v="residential"/>
    <tag k="name" v="Brimstone Avenue"/>
    <tag k="source:name" v="OS_OpenMap_Local"/>
  </way>
  <way id="1319254397" version="2" timestamp="2024-12-11T11:01:57Z" changeset="160163856" uid="22282452" user="willrussell">
    <nd ref="11082089207"/>
    <nd ref="12208998107"/>
    <nd ref="12208998106"/>
    <tag k="highway" v="residential"/>
    <tag k="name" v="Copper Drive"/>
    <tag k="oneway" v="no"/>
  </way>
  <way id="1319254398" version="2" timestamp="2024-12-11T11:01:57Z" changeset="160163856" uid="22282452" user="willrussell">
    <nd ref="12208998111"/>
    <nd ref="11225662005"/>
    <nd ref="12208996061"/>
    <nd ref="12208998110"/>
    <tag k="highway" v="residential"/>
  </way>
  <way id="1319254416" version="2" timestamp="2024-12-11T11:01:57Z" changeset="160163856" uid="22282452" user="willrussell">
    <nd ref="12208998165"/>
    <nd ref="12208998163"/>
    <nd ref="12208998162"/>
    <tag k="highway" v="residential"/>
  </way>
  <way id="1347438048" version="1" timestamp="2024-12-31T00:04:35Z" changeset="160814835" uid="5229644" user="Nathan_A_RF">
    <nd ref="301822503"/>
    <nd ref="11410159036"/>
    <nd ref="11410159035"/>
    <nd ref="344795207"/>
    <nd ref="11410159042"/>
    <nd ref="11410159034"/>
    <nd ref="11410159033"/>
    <nd ref="1619901995"/>
    <nd ref="11410159032"/>
    <nd ref="11410159043"/>
    <nd ref="344795208"/>
    <tag k="expressway" v="yes"/>
    <tag k="highway" v="trunk_link"/>
    <tag k="lanes" v="2"/>
    <tag k="maxspeed" v="60 mph"/>
    <tag k="maxspeed:type" v="GB:nsl_single"/>
    <tag k="name" v="Great North Road"/>
    <tag k="national_highways:area" v="8"/>
    <tag k="oneway" v="yes"/>
    <tag k="operator" v="National Highways"/>
    <tag k="operator:wikidata" v="Q5760006"/>
    <tag k="ref" v="A1"/>
    <tag k="sidewalk" v="no"/>
  </way>
  <way id="1347438490" version="1" timestamp="2024-12-31T00:08:04Z" changeset="160814893" uid="5229644" user="Nathan_A_RF">
    <nd ref="11410158902"/>
    <nd ref="12464010817"/>
    <nd ref="1343825856"/>
    <nd ref="11410158941"/>
    <nd ref="9016385880"/>
    <nd ref="11410158942"/>
    <nd ref="464506987"/>
    <nd ref="344795162"/>
    <tag k="foot" v="no"/>
    <tag k="highway" v="secondary"/>
    <tag k="name" v="Great North Road"/>
    <tag k="oneway" v="yes"/>
    <tag k="ref" v="B1041"/>
    <tag k="source" v="GPS"/>
  </way>

</osm>
