<?xml version="1.0" encoding="UTF-8"?>
<osm version="0.6" generator="Overpass API 0.7.62.5 1bd436f1">
<note>The data included in this document is from www.openstreetmap.org. The data is made available under ODbL.</note>
<meta osm_base="2025-04-05T17:08:06Z" areas="2024-12-31T00:49:33Z"/>

  <node id="35262875" lat="52.3529929" lon="0.0444812" version="15" timestamp="2023-03-02T17:47:16Z" changeset="133222141" uid="10420541" user="Thingummy"/>
  <node id="265832522" lat="52.3509897" lon="0.0160905" version="3" timestamp="2025-01-13T12:49:14Z" changeset="161308489" uid="5229644" user="Nathan_A_RF"/>
  <node id="1591696030" lat="52.3645391" lon="0.0209387" version="2" timestamp="2014-05-20T09:32:51Z" changeset="22441298" uid="1876487" user="Jordan Mann"/>
  <node id="4242953111" lat="52.3568351" lon="0.0335630" version="2" timestamp="2024-05-21T11:41:37Z" changeset="151624094" uid="95856" user="john paul jones &amp; gringo">
    <tag k="addr:city" v="Huntingdon"/>
    <tag k="addr:country" v="GB"/>
    <tag k="addr:housenumber" v="109"/>
    <tag k="addr:postcode" v="PE28 3QZ"/>
    <tag k="addr:street" v="Greenfields"/>
    <tag k="addr:suburb" v="Earith"/>
  </node>
  <node id="7578473600" lat="52.3632419" lon="0.0229768" version="2" timestamp="2023-09-25T09:20:06Z" changeset="141721566" uid="5173844" user="ndrw6"/>
  <node id="12216566091" lat="52.3606894" lon="0.0443180" version="2" timestamp="2024-10-07T08:46:11Z" changeset="157571267" uid="95856" user="john paul jones &amp; gringo">
    <tag k="addr:city" v="Huntingdon"/>
    <tag k="addr:housename" v="Unit 32 Earith Business Park"/>
    <tag k="addr:postcode" v="PE28 3QF"/>
    <tag k="addr:street" v="Meadow Drove"/>
    <tag k="addr:suburb" v="Earith"/>
    <tag k="amenity" v="pub"/>
    <tag k="email" v="bar@papworthbrewery.com"/>
    <tag k="name" v="The Crystal Ship"/>
    <tag k="outdoor_seating" v="yes"/>
    <tag k="phone" v="01487 740634"/>
  </node>
  <way id="4743053" version="5" timestamp="2009-12-29T22:37:24Z" changeset="3485990" uid="7098" user="richardm565">
    <nd ref="30223499"/>
    <nd ref="601167085"/>
    <nd ref="601167062"/>
    <tag k="highway" v="unclassified"/>
    <tag k="name" v="Meadow Drove"/>
  </way>
  <way id="17505886" version="6" timestamp="2017-04-19T07:16:18Z" changeset="47927762" uid="90142" user="andy mackey">
    <nd ref="181317408"/>
    <nd ref="4803087939"/>
    <nd ref="601166990"/>
    <nd ref="181317415"/>
    <nd ref="181317416"/>
    <nd ref="181317417"/>
    <nd ref="4389413718"/>
    <nd ref="264593942"/>
    <tag k="highway" v="residential"/>
    <tag k="name" v="Bridge End"/>
  </way>
  <way id="24384886" version="11" timestamp="2017-02-06T23:00:54Z" changeset="45869506" uid="3178375" user="LeTopographeFou">
    <nd ref="264593946"/>
    <nd ref="1179076165"/>
    <nd ref="601606306"/>
    <tag k="highway" v="primary"/>
    <tag k="lanes" v="2"/>
    <tag k="maxspeed" v="30 mph"/>
    <tag k="ref" v="A1123"/>
  </way>
  <way id="24384888" version="13" timestamp="2025-01-13T12:49:14Z" changeset="161308489" uid="5229644" user="Nathan_A_RF">
    <nd ref="24971054"/>
    <nd ref="12498055935"/>
    <nd ref="4389409020"/>
    <nd ref="5713819715"/>
    <nd ref="7575640450"/>
    <nd ref="312631488"/>
    <tag k="highway" v="primary"/>
    <tag k="lanes" v="2"/>
    <tag k="maxspeed" v="30 mph"/>
    <tag k="name" v="High Street"/>
    <tag k="ref" v="A1123"/>
    <tag k="surface" v="asphalt"/>
  </way>
  <way id="24384890" version="10" timestamp="2020-05-31T18:29:36Z" changeset="86017478" uid="5173844" user="ndrw6">
    <nd ref="264593942"/>
    <nd ref="4389413719"/>
    <nd ref="181317418"/>
    <nd ref="4389413720"/>
    <nd ref="181317419"/>
    <nd ref="601167034"/>
    <nd ref="181317420"/>
    <nd ref="181317421"/>
    <nd ref="7575641155"/>
    <nd ref="601167029"/>
    <nd ref="181317422"/>
    <nd ref="181317423"/>
    <nd ref="601167046"/>
    <nd ref="181317424"/>
    <nd ref="181317425"/>
    <nd ref="601167048"/>
    <nd ref="181317426"/>
    <nd ref="181317427"/>
    <nd ref="264596720"/>
    <nd ref="7553829691"/>
    <nd ref="181317429"/>
    <nd ref="265825740"/>
    <nd ref="181317430"/>
    <nd ref="6153315851"/>
    <nd ref="181317431"/>
    <tag k="highway" v="residential"/>
    <tag k="name" v="Cook's Drove"/>
  </way>
  <way id="24385056" version="3" timestamp="2018-12-22T12:00:28Z" changeset="65691655" uid="5173844" user="ndrw6">
    <nd ref="181317427"/>
    <nd ref="264596699"/>
    <nd ref="264596702"/>
    <tag k="highway" v="residential"/>
    <tag k="name" v="Darford"/>
  </way>
  <way id="24385057" version="3" timestamp="2010-02-14T15:00:40Z" changeset="3874499" uid="7098" user="richardm565">
    <nd ref="181317425"/>
    <nd ref="264596703"/>
    <nd ref="264596704"/>
    <nd ref="264596705"/>
    <nd ref="264596706"/>
    <nd ref="264596708"/>
    <nd ref="264596709"/>
    <nd ref="264596710"/>
    <nd ref="264596711"/>
    <nd ref="264596712"/>
    <nd ref="264596713"/>
    <nd ref="264596714"/>
    <nd ref="264596715"/>
    <nd ref="601167072"/>
    <tag k="highway" v="residential"/>
    <tag k="name" v="Vermuyden"/>
  </way>
  <way id="24385058" version="3" timestamp="2020-05-31T18:29:36Z" changeset="86017478" uid="5173844" user="ndrw6">
    <nd ref="181317426"/>
    <nd ref="264596716"/>
    <nd ref="264596717"/>
    <nd ref="7575641824"/>
    <nd ref="264596719"/>
    <tag k="highway" v="residential"/>
    <tag k="name" v="Adelaide Walk"/>
  </way>
  <way id="24385059" version="4" timestamp="2018-12-22T12:00:28Z" changeset="65691655" uid="5173844" user="ndrw6">
    <nd ref="264596720"/>
    <nd ref="264596721"/>
    <nd ref="264596725"/>
    <nd ref="601167052"/>
    <nd ref="601167076"/>
    <tag k="highway" v="residential"/>
    <tag k="name" v="Hereward"/>
  </way>
  <way id="24385060" version="3" timestamp="2018-12-22T12:00:28Z" changeset="65691655" uid="5173844" user="ndrw6">
    <nd ref="181317429"/>
    <nd ref="264596727"/>
    <nd ref="264596729"/>
    <nd ref="264596730"/>
    <nd ref="264596731"/>
    <nd ref="264596734"/>
    <nd ref="264596735"/>
    <nd ref="264596736"/>
    <nd ref="264596737"/>
    <nd ref="264596738"/>
    <nd ref="264596740"/>
    <nd ref="264596746"/>
    <tag k="highway" v="residential"/>
    <tag k="name" v="Meadow Way"/>
  </way>
  <way id="24385061" version="4" timestamp="2018-12-22T12:00:28Z" changeset="65691655" uid="5173844" user="ndrw6">
    <nd ref="264596734"/>
    <nd ref="264596747"/>
    <nd ref="264596749"/>
    <nd ref="264596758"/>
    <nd ref="264596757"/>
    <tag k="highway" v="residential"/>
    <tag k="name" v="Hermitage Road"/>
  </way>
  <way id="24385062" version="2" timestamp="2010-02-14T15:00:42Z" changeset="3874499" uid="7098" user="richardm565">
    <nd ref="264596758"/>
    <nd ref="264596759"/>
    <tag k="highway" v="residential"/>
    <tag k="name" v="Hermitage"/>
  </way>
  <way id="24385063" version="3" timestamp="2018-12-22T12:00:28Z" changeset="65691655" uid="5173844" user="ndrw6">
    <nd ref="181317430"/>
    <nd ref="264596760"/>
    <nd ref="264596767"/>
    <nd ref="264596768"/>
    <tag k="highway" v="residential"/>
    <tag k="name" v="St. Mary's"/>
  </way>
  <way id="24401779" version="14" timestamp="2023-09-25T09:20:06Z" changeset="141721566" uid="5173844" user="ndrw6">
    <nd ref="76588953"/>
    <nd ref="615963153"/>
    <nd ref="76588954"/>
    <nd ref="8251122030"/>
    <nd ref="2870016513"/>
    <nd ref="76588955"/>
    <nd ref="2870016514"/>
    <nd ref="76588956"/>
    <nd ref="4564855675"/>
    <nd ref="2870016515"/>
    <nd ref="1496429864"/>
    <nd ref="6908082704"/>
    <nd ref="76588957"/>
    <nd ref="1496429830"/>
    <nd ref="1496429861"/>
    <nd ref="11217477356"/>
    <nd ref="1496429785"/>
    <nd ref="7578473600"/>
    <nd ref="76588958"/>
    <nd ref="7578473602"/>
    <nd ref="2870016530"/>
    <nd ref="1591696030"/>
    <tag k="alt_name" v="Colne Road"/>
    <tag k="highway" v="secondary"/>
    <tag k="maxspeed" v="40 mph"/>
    <tag k="name" v="Colne Road (Earith)"/>
    <tag k="ref" v="B1050"/>
    <tag k="source:ref" v="npe"/>
  </way>
  <way id="24451501" version="4" timestamp="2010-02-14T15:00:40Z" changeset="3874499" uid="7098" user="richardm565">
    <nd ref="181317418"/>
    <nd ref="265752968"/>
    <nd ref="601166974"/>
    <nd ref="265752969"/>
    <nd ref="265752970"/>
    <nd ref="265752971"/>
    <tag k="highway" v="residential"/>
    <tag k="name" v="Chapel Road"/>
  </way>
  <way id="24451502" version="4" timestamp="2018-12-22T12:00:28Z" changeset="65691655" uid="5173844" user="ndrw6">
    <nd ref="265752977"/>
    <nd ref="6153315721"/>
    <nd ref="265752978"/>
    <nd ref="6153315720"/>
    <nd ref="265752979"/>
    <tag k="highway" v="residential"/>
    <tag k="name" v="Whybrows Lane"/>
  </way>
  <way id="24451503" version="2" timestamp="2010-02-14T15:00:39Z" changeset="3874499" uid="7098" user="richardm565">
    <nd ref="265752980"/>
    <nd ref="265752981"/>
    <nd ref="265752982"/>
    <nd ref="265752983"/>
    <nd ref="265752984"/>
    <nd ref="265752985"/>
    <nd ref="265752986"/>
    <tag k="highway" v="residential"/>
    <tag k="name" v="Orchard Crescent"/>
  </way>
  <way id="24451505" version="6" timestamp="2022-01-12T20:26:14Z" changeset="116081436" uid="1102246" user="jtn20">
    <nd ref="181317431"/>
    <nd ref="6547756724"/>
    <nd ref="265825678"/>
    <nd ref="7575641032"/>
    <nd ref="9413726549"/>
    <nd ref="30223513"/>
    <tag k="highway" v="residential"/>
    <tag k="name" v="Meadow Lane"/>
  </way>
  <way id="24458223" version="9" timestamp="2020-05-31T18:29:36Z" changeset="86017478" uid="5173844" user="ndrw6">
    <nd ref="265752976"/>
    <nd ref="7575640884"/>
    <nd ref="265752975"/>
    <nd ref="265752974"/>
    <nd ref="265752973"/>
    <nd ref="4136497136"/>
    <nd ref="601166964"/>
    <tag k="cycleway" v="opposite"/>
    <tag k="highway" v="residential"/>
    <tag k="name" v="Chapel Road"/>
    <tag k="oneway" v="yes"/>
  </way>
  <way id="24458582" version="3" timestamp="2020-05-31T18:29:36Z" changeset="86017478" uid="5173844" user="ndrw6">
    <nd ref="265752971"/>
    <nd ref="265825593"/>
    <nd ref="7575640826"/>
    <nd ref="7575640737"/>
    <nd ref="7575640731"/>
    <nd ref="265825596"/>
    <nd ref="265825597"/>
    <nd ref="265825598"/>
    <nd ref="265825599"/>
    <nd ref="265825601"/>
    <nd ref="265825602"/>
    <tag k="highway" v="residential"/>
    <tag k="name" v="School Road"/>
  </way>
  <way id="24458583" version="3" timestamp="2020-05-31T18:29:36Z" changeset="86017478" uid="5173844" user="ndrw6">
    <nd ref="265825596"/>
    <nd ref="265825604"/>
    <nd ref="265825605"/>
    <nd ref="265825607"/>
    <nd ref="265825608"/>
    <tag k="highway" v="residential"/>
    <tag k="name" v="School Road"/>
  </way>
  <way id="24458584" version="3" timestamp="2020-05-31T18:29:36Z" changeset="86017478" uid="5173844" user="ndrw6">
    <nd ref="7575640731"/>
    <nd ref="265825609"/>
    <nd ref="265825610"/>
    <nd ref="7575640820"/>
    <tag k="highway" v="residential"/>
    <tag k="name" v="School Road"/>
  </way>
  <way id="24458585" version="5" timestamp="2020-05-31T18:29:36Z" changeset="86017478" uid="5173844" user="ndrw6">
    <nd ref="265825602"/>
    <nd ref="265825613"/>
    <nd ref="265825615"/>
    <nd ref="265825617"/>
    <nd ref="265825619"/>
    <nd ref="265825620"/>
    <nd ref="265825621"/>
    <nd ref="265825622"/>
    <nd ref="265825634"/>
    <nd ref="265825636"/>
    <nd ref="265825639"/>
    <nd ref="265825641"/>
    <nd ref="265825642"/>
    <nd ref="265825644"/>
    <nd ref="265825645"/>
    <nd ref="265825648"/>
    <nd ref="265825649"/>
    <nd ref="265825650"/>
    <nd ref="601167058"/>
    <nd ref="601167055"/>
    <nd ref="601167057"/>
    <nd ref="601167056"/>
    <tag k="highway" v="residential"/>
    <tag k="name" v="Greenfields"/>
  </way>
  <way id="24458587" version="1" timestamp="2008-05-20T00:47:59Z" changeset="489426" uid="37944" user="john_g">
    <nd ref="265825620"/>
    <nd ref="265825627"/>
    <nd ref="265825629"/>
    <tag k="created_by" v="JOSM"/>
    <tag k="highway" v="unclassified"/>
    <tag k="name" v="Greenfields"/>
  </way>
  <way id="24458588" version="5" timestamp="2020-05-31T18:29:36Z" changeset="86017478" uid="5173844" user="ndrw6">
    <nd ref="265825641"/>
    <nd ref="265825653"/>
    <nd ref="265825655"/>
    <nd ref="265825656"/>
    <nd ref="7575641311"/>
    <tag k="highway" v="residential"/>
    <tag k="name" v="Greenfields"/>
  </way>
  <way id="24458589" version="3" timestamp="2018-12-22T12:00:28Z" changeset="65691655" uid="5173844" user="ndrw6">
    <nd ref="265825636"/>
    <nd ref="265825659"/>
    <nd ref="265825661"/>
    <nd ref="265825671"/>
    <tag k="highway" v="residential"/>
    <tag k="name" v="Greenfields"/>
  </way>
  <way id="24458590" version="3" timestamp="2018-12-22T12:00:28Z" changeset="65691655" uid="5173844" user="ndrw6">
    <nd ref="265825644"/>
    <nd ref="265825672"/>
    <nd ref="6153315759"/>
    <nd ref="265825675"/>
    <nd ref="265825677"/>
    <tag k="highway" v="residential"/>
    <tag k="name" v="Greenfields"/>
  </way>
  <way id="24458591" version="4" timestamp="2020-05-31T18:29:36Z" changeset="86017478" uid="5173844" user="ndrw6">
    <nd ref="265825678"/>
    <nd ref="265825679"/>
    <nd ref="265825680"/>
    <nd ref="265825683"/>
    <nd ref="7575642888"/>
    <nd ref="265825684"/>
    <nd ref="265825686"/>
    <nd ref="265825687"/>
    <nd ref="265825717"/>
    <nd ref="265825689"/>
    <nd ref="265825690"/>
    <nd ref="265825691"/>
    <tag k="highway" v="residential"/>
    <tag k="name" v="Greenfields"/>
  </way>
  <way id="24458592" version="4" timestamp="2018-12-22T12:00:28Z" changeset="65691655" uid="5173844" user="ndrw6">
    <nd ref="265825687"/>
    <nd ref="265825692"/>
    <nd ref="265825695"/>
    <nd ref="265825696"/>
    <nd ref="265825697"/>
    <nd ref="265825702"/>
    <nd ref="6153315765"/>
    <nd ref="601167054"/>
    <tag k="highway" v="residential"/>
    <tag k="name" v="Greenfields"/>
  </way>
  <way id="24458593" version="2" timestamp="2010-02-14T15:00:39Z" changeset="3874499" uid="7098" user="richardm565">
    <nd ref="265825690"/>
    <nd ref="265825703"/>
    <nd ref="265825704"/>
    <nd ref="265825705"/>
    <nd ref="265825706"/>
    <tag k="highway" v="residential"/>
    <tag k="name" v="Greenfields"/>
  </way>
  <way id="24458594" version="6" timestamp="2020-05-31T18:29:36Z" changeset="86017478" uid="5173844" user="ndrw6">
    <nd ref="265825691"/>
    <nd ref="265825708"/>
    <nd ref="265825712"/>
    <tag k="highway" v="residential"/>
    <tag k="maxspeed" v="30 mph"/>
    <tag k="name" v="Greenfields"/>
    <tag k="surface" v="asphalt"/>
  </way>
  <way id="24458595" version="5" timestamp="2020-05-31T18:29:36Z" changeset="86017478" uid="5173844" user="ndrw6">
    <nd ref="265825691"/>
    <nd ref="265825718"/>
    <nd ref="265825739"/>
    <nd ref="265825724"/>
    <nd ref="265825726"/>
    <nd ref="265825728"/>
    <nd ref="7575642559"/>
    <nd ref="265825732"/>
    <nd ref="265825733"/>
    <nd ref="265825735"/>
    <nd ref="265825738"/>
    <nd ref="7570232114"/>
    <nd ref="265825602"/>
    <tag k="highway" v="residential"/>
    <tag k="name" v="Greenfields"/>
  </way>
  <way id="24458596" version="3" timestamp="2018-12-22T12:00:29Z" changeset="65691655" uid="5173844" user="ndrw6">
    <nd ref="265825650"/>
    <nd ref="265825741"/>
    <nd ref="265825745"/>
    <nd ref="265825740"/>
    <tag k="highway" v="residential"/>
    <tag k="name" v="Parrens Road"/>
  </way>
  <way id="24575240" version="12" timestamp="2022-12-11T11:44:58Z" changeset="129959516" uid="350183" user="Belseybob">
    <nd ref="35262873"/>
    <nd ref="35262875"/>
    <tag k="bridge" v="yes"/>
    <tag k="highway" v="primary"/>
    <tag k="lanes" v="2"/>
    <tag k="layer" v="1"/>
    <tag k="maxspeed" v="30 mph"/>
    <tag k="maxweight:signed" v="no"/>
    <tag k="ref" v="A1123"/>
    <tag k="surface" v="asphalt"/>
  </way>
  <way id="47159277" version="2" timestamp="2020-05-31T18:29:36Z" changeset="86017478" uid="5173844" user="ndrw6">
    <nd ref="601166873"/>
    <nd ref="601166878"/>
    <nd ref="601166879"/>
    <nd ref="601166881"/>
    <nd ref="601166883"/>
    <nd ref="601166885"/>
    <nd ref="7575640375"/>
    <nd ref="601166896"/>
    <tag k="highway" v="residential"/>
    <tag k="name" v="Marina Drive"/>
  </way>
  <way id="47159283" version="5" timestamp="2021-07-07T12:43:05Z" changeset="107564914" uid="10126622" user="hvannere">
    <nd ref="601166958"/>
    <nd ref="8901019291"/>
    <nd ref="615963152"/>
    <nd ref="7256343855"/>
    <nd ref="7256343854"/>
    <nd ref="76588953"/>
    <tag k="highway" v="secondary"/>
    <tag k="maxspeed" v="40 mph"/>
    <tag k="name" v="Colne Road"/>
    <tag k="ref" v="B1050"/>
    <tag k="source:ref" v="npe"/>
  </way>
  <way id="47159285" version="10" timestamp="2025-01-13T12:55:06Z" changeset="161308670" uid="5229644" user="Nathan_A_RF">
    <nd ref="601167004"/>
    <nd ref="35262833"/>
    <nd ref="35262839"/>
    <nd ref="4226820182"/>
    <nd ref="35262851"/>
    <nd ref="35262862"/>
    <nd ref="24966022"/>
    <tag k="cycleway:both" v="no"/>
    <tag k="flood_prone" v="seasonal;tidal"/>
    <tag k="highway" v="primary"/>
    <tag k="lanes" v="2"/>
    <tag k="maxspeed" v="40 mph"/>
    <tag k="maxspeed:type" v="sign"/>
    <tag k="ref" v="A1123"/>
    <tag k="surface" v="asphalt"/>
  </way>
  <way id="47159293" version="2" timestamp="2010-02-14T15:00:40Z" changeset="3874499" uid="7098" user="richardm565">
    <nd ref="601166964"/>
    <nd ref="265752972"/>
    <nd ref="265752971"/>
    <tag k="highway" v="residential"/>
    <tag k="name" v="Chapel Road"/>
    <tag k="oneway" v="yes"/>
  </way>
  <way id="47159295" version="1" timestamp="2009-12-29T22:37:11Z" changeset="3485990" uid="7098" user="richardm565">
    <nd ref="264596747"/>
    <nd ref="601167078"/>
    <nd ref="601167080"/>
    <nd ref="601167061"/>
    <tag k="highway" v="residential"/>
  </way>
  <way id="47159300" version="1" timestamp="2009-12-29T22:37:12Z" changeset="3485990" uid="7098" user="richardm565">
    <nd ref="265825617"/>
    <nd ref="601167016"/>
    <nd ref="601167022"/>
    <tag k="highway" v="residential"/>
    <tag k="name" v="Greenfields"/>
  </way>
  <way id="47159305" version="3" timestamp="2016-12-21T09:49:09Z" changeset="44561201" uid="1302721" user="Glucosamine">
    <nd ref="601167062"/>
    <nd ref="4564841430"/>
    <nd ref="181317431"/>
    <tag k="highway" v="residential"/>
    <tag k="name" v="Meadow Drove"/>
  </way>
  <way id="47159306" version="2" timestamp="2018-12-22T12:00:29Z" changeset="65691655" uid="5173844" user="ndrw6">
    <nd ref="264596715"/>
    <nd ref="6153315740"/>
    <nd ref="601167073"/>
    <tag k="highway" v="residential"/>
    <tag k="name" v="Vermuyden"/>
  </way>
  <way id="47217146" version="5" timestamp="2017-04-29T16:35:13Z" changeset="48258464" uid="1778799" user="SomeoneElse_Revert">
    <nd ref="601606306"/>
    <nd ref="601606304"/>
    <tag k="bridge" v="yes"/>
    <tag k="highway" v="primary"/>
    <tag k="lanes" v="2"/>
    <tag k="maxspeed" v="30 mph"/>
    <tag k="ref" v="A1123"/>
  </way>
  <way id="47217147" version="7" timestamp="2025-01-13T12:55:06Z" changeset="161308670" uid="5229644" user="Nathan_A_RF">
    <nd ref="601606304"/>
    <nd ref="601166981"/>
    <nd ref="35262825"/>
    <nd ref="601167004"/>
    <tag k="highway" v="primary"/>
    <tag k="lanes" v="2"/>
    <tag k="maxspeed" v="40 mph"/>
    <tag k="maxspeed:type" v="sign"/>
    <tag k="ref" v="A1123"/>
  </way>
  <way id="101159212" version="7" timestamp="2019-10-11T13:26:39Z" changeset="75566644" uid="10252538" user="Raihas">
    <nd ref="1591696117"/>
    <nd ref="4564855682"/>
    <nd ref="615963213"/>
    <nd ref="6870850455"/>
    <nd ref="1352705327"/>
    <tag k="designation" v="public_bridleway"/>
    <tag k="highway" v="unclassified"/>
    <tag k="name" v="Earith Fen Drove"/>
  </way>
  <way id="145344982" version="6" timestamp="2022-12-11T15:12:59Z" changeset="129965867" uid="350183" user="Belseybob">
    <nd ref="5271928"/>
    <nd ref="1587623486"/>
    <nd ref="1587623489"/>
    <nd ref="7831093394"/>
    <nd ref="7575640882"/>
    <nd ref="265752976"/>
    <nd ref="1587623492"/>
    <nd ref="601166944"/>
    <nd ref="1587623494"/>
    <nd ref="265752977"/>
    <nd ref="265752980"/>
    <nd ref="1587623495"/>
    <nd ref="1587623503"/>
    <nd ref="1587623505"/>
    <nd ref="1587623508"/>
    <nd ref="30223513"/>
    <nd ref="1587623510"/>
    <nd ref="615963154"/>
    <nd ref="601166958"/>
    <tag k="cycleway:both" v="no"/>
    <tag k="highway" v="secondary"/>
    <tag k="maxspeed" v="30 mph"/>
    <tag k="name" v="Colne Road"/>
    <tag k="not:name" v="Chapel Lane"/>
    <tag k="ref" v="B1050"/>
    <tag k="source" v="survey"/>
    <tag k="source:name" v="survey"/>
    <tag k="surface" v="asphalt"/>
  </way>
  <way id="145779799" version="7" timestamp="2025-01-13T12:55:06Z" changeset="161308670" uid="5229644" user="Nathan_A_RF">
    <nd ref="24966022"/>
    <nd ref="12265896690"/>
    <nd ref="12498067013"/>
    <nd ref="12265896692"/>
    <nd ref="10704927102"/>
    <nd ref="35262873"/>
    <tag k="highway" v="primary"/>
    <tag k="lanes" v="2"/>
    <tag k="maxspeed" v="30 mph"/>
    <tag k="ref" v="A1123"/>
  </way>
  <way id="145830701" version="7" timestamp="2023-06-23T09:55:21Z" changeset="137681456" uid="242345" user="confusedbuffalo">
    <nd ref="1591696030"/>
    <nd ref="1591696033"/>
    <nd ref="2869988706"/>
    <nd ref="1591696043"/>
    <nd ref="7578473503"/>
    <nd ref="1591696054"/>
    <nd ref="7578473437"/>
    <nd ref="1591696069"/>
    <nd ref="1591696074"/>
    <nd ref="7578473438"/>
    <nd ref="1591696079"/>
    <nd ref="1591696083"/>
    <nd ref="1591696086"/>
    <nd ref="1591696088"/>
    <nd ref="1591696091"/>
    <nd ref="1591696106"/>
    <nd ref="1179078944"/>
    <nd ref="1591696110"/>
    <nd ref="1591696112"/>
    <nd ref="4564836816"/>
    <nd ref="1591696114"/>
    <nd ref="1591696117"/>
    <tag k="highway" v="unclassified"/>
    <tag k="maxspeed" v="60 mph"/>
    <tag k="maxspeed:type" v="GB:nsl_single"/>
    <tag k="name" v="Holme Fen Drove"/>
    <tag k="not:name" v="Holme Drove"/>
  </way>
  <way id="283108958" version="8" timestamp="2022-12-11T15:11:51Z" changeset="129965622" uid="350183" user="Belseybob">
    <nd ref="312631488"/>
    <nd ref="601166873"/>
    <nd ref="24971058"/>
    <nd ref="4136484234"/>
    <nd ref="6485066404"/>
    <nd ref="35262758"/>
    <nd ref="5271929"/>
    <nd ref="6485066397"/>
    <nd ref="24971059"/>
    <nd ref="601166897"/>
    <nd ref="7575640275"/>
    <nd ref="601166891"/>
    <nd ref="24971056"/>
    <nd ref="4389409019"/>
    <nd ref="35262766"/>
    <nd ref="601166908"/>
    <nd ref="5271928"/>
    <nd ref="601166901"/>
    <nd ref="601166927"/>
    <nd ref="601166918"/>
    <nd ref="35262775"/>
    <nd ref="7575640142"/>
    <nd ref="35262783"/>
    <nd ref="264593947"/>
    <nd ref="601166959"/>
    <nd ref="5271927"/>
    <nd ref="4389413716"/>
    <nd ref="35262788"/>
    <nd ref="601166972"/>
    <nd ref="4389413717"/>
    <nd ref="24971057"/>
    <nd ref="7575639995"/>
    <nd ref="601166993"/>
    <nd ref="35262803"/>
    <nd ref="181317408"/>
    <nd ref="264593946"/>
    <tag k="highway" v="primary"/>
    <tag k="lanes" v="2"/>
    <tag k="maxspeed" v="30 mph"/>
    <tag k="name" v="High Street"/>
    <tag k="ref" v="A1123"/>
    <tag k="surface" v="asphalt"/>
  </way>
  <way id="597101489" version="4" timestamp="2025-01-13T12:49:14Z" changeset="161308489" uid="5229644" user="Nathan_A_RF">
    <nd ref="265832522"/>
    <nd ref="265832523"/>
    <nd ref="2861859667"/>
    <nd ref="2705506582"/>
    <nd ref="265832524"/>
    <nd ref="2861859669"/>
    <nd ref="265832525"/>
    <nd ref="265832526"/>
    <nd ref="265832528"/>
    <nd ref="265832529"/>
    <nd ref="4389409018"/>
    <nd ref="1790699712"/>
    <nd ref="265832530"/>
    <nd ref="265832531"/>
    <nd ref="4389419666"/>
    <nd ref="265832532"/>
    <nd ref="265832533"/>
    <nd ref="265832535"/>
    <nd ref="24971054"/>
    <tag k="highway" v="primary"/>
    <tag k="lanes" v="2"/>
    <tag k="maxspeed" v="50 mph"/>
    <tag k="maxspeed:type" v="sign"/>
    <tag k="name" v="Rectory Road"/>
    <tag k="ref" v="A1123"/>
    <tag k="surface" v="asphalt"/>
  </way>
  <way id="656942017" version="1" timestamp="2018-12-22T12:00:15Z" changeset="65691655" uid="5173844" user="ndrw6">
    <nd ref="6153315865"/>
    <nd ref="264596746"/>
    <nd ref="6153315864"/>
    <tag k="highway" v="residential"/>
    <tag k="name" v="Meadow Way"/>
  </way>
  <way id="810277742" version="1" timestamp="2020-05-31T18:29:36Z" changeset="86017478" uid="5173844" user="ndrw6">
    <nd ref="7575639995"/>
    <nd ref="7575639994"/>
    <nd ref="7575639993"/>
    <tag k="highway" v="residential"/>
  </way>
  <way id="810277861" version="4" timestamp="2022-12-11T14:59:29Z" changeset="129965456" uid="350183" user="Belseybob">
    <nd ref="7575640530"/>
    <nd ref="7575640529"/>
    <nd ref="7575640528"/>
    <nd ref="7575640527"/>
    <nd ref="7575640530"/>
    <tag k="addr:housenumber" v="4,6"/>
    <tag k="addr:street" v="Colne Road"/>
    <tag k="building" v="semidetached_house"/>
  </way>
  <way id="810277904" version="1" timestamp="2020-05-31T18:29:36Z" changeset="86017478" uid="5173844" user="ndrw6">
    <nd ref="7575640730"/>
    <nd ref="265825608"/>
    <nd ref="7575640729"/>
    <tag k="highway" v="residential"/>
    <tag k="name" v="School Road"/>
  </way>
  <way id="810277995" version="1" timestamp="2020-05-31T18:29:36Z" changeset="86017478" uid="5173844" user="ndrw6">
    <nd ref="7575641074"/>
    <nd ref="7575641073"/>
    <nd ref="7575641072"/>
    <nd ref="264596757"/>
    <nd ref="7575641071"/>
    <nd ref="7575641070"/>
    <nd ref="7575641069"/>
    <tag k="highway" v="residential"/>
  </way>
  <way id="810278064" version="1" timestamp="2020-05-31T18:29:36Z" changeset="86017478" uid="5173844" user="ndrw6">
    <nd ref="265825656"/>
    <nd ref="6153315760"/>
    <nd ref="265825658"/>
    <tag k="highway" v="residential"/>
    <tag k="name" v="Greenfields"/>
  </way>
  <way id="810278069" version="1" timestamp="2020-05-31T18:29:36Z" changeset="86017478" uid="5173844" user="ndrw6">
    <nd ref="601167019"/>
    <nd ref="265825712"/>
    <nd ref="7575641329"/>
    <tag k="highway" v="residential"/>
    <tag k="maxspeed" v="30 mph"/>
    <tag k="name" v="Greenfields"/>
    <tag k="surface" v="asphalt"/>
  </way>
  <way id="810278203" version="1" timestamp="2020-05-31T18:29:36Z" changeset="86017478" uid="5173844" user="ndrw6">
    <nd ref="7575641824"/>
    <nd ref="7575641823"/>
    <tag k="highway" v="residential"/>
    <tag k="name" v="Adelaide Walk"/>
  </way>
  <way id="810278344" version="1" timestamp="2020-05-31T18:29:36Z" changeset="86017478" uid="5173844" user="ndrw6">
    <nd ref="264596767"/>
    <nd ref="7575642332"/>
    <tag k="highway" v="residential"/>
    <tag k="name" v="St. Mary's"/>
  </way>
  <way id="1020655328" version="1" timestamp="2022-01-12T20:26:14Z" changeset="116081436" uid="1102246" user="jtn20">
    <nd ref="1587623508"/>
    <nd ref="9413726549"/>
    <tag k="highway" v="residential"/>
  </way>

</osm>
