<?xml version="1.0" encoding="UTF-8"?>
<osm version="0.6" generator="Overpass API 0.7.62.5 1bd436f1">
<note>The data included in this document is from www.openstreetmap.org. The data is made available under ODbL.</note>
<meta osm_base="2025-04-27T07:42:30Z" areas="2025-02-06T02:17:44Z"/>

  <node id="569976" lat="52.3739895" lon="-0.4631302" version="3" timestamp="2011-12-18T11:22:50Z" changeset="10144810" uid="5926" user="c2r"/>
  <node id="569984" lat="52.3822209" lon="-0.4858546" version="3" timestamp="2025-03-12T11:31:17Z" changeset="163523362" uid="5229644" user="Nathan_A_RF">
    <tag k="highway" v="motorway_junction"/>
    <tag k="name" v="Obelisk Farm"/>
    <tag k="noref" v="yes"/>
  </node>
  <node id="346389794" lat="52.3384126" lon="-0.4398411" version="3" timestamp="2017-01-21T17:11:30Z" changeset="45354228" uid="90142" user="andy mackey"/>
  <node id="346425360" lat="52.3684550" lon="-0.4473723" version="4" timestamp="2019-06-21T08:04:26Z" changeset="71471457" uid="90142" user="andy mackey"/>
  <node id="365745173" lat="52.3962610" lon="-0.4331300" version="2" timestamp="2022-06-12T10:34:22Z" changeset="122274723" uid="486701" user="eteb3">
    <tag k="direction" v="270"/>
    <tag k="man_made" v="surveillance"/>
  </node>
  <node id="1551763458" lat="52.3712536" lon="-0.4583886" version="2" timestamp="2020-11-13T18:56:46Z" changeset="94081276" uid="5229644" user="Nathan_A_RF"/>
  <node id="1638824231" lat="52.3622664" lon="-0.4691362" version="2" timestamp="2024-05-04T22:03:36Z" changeset="150899523" uid="10420541" user="Thingummy"/>
  <node id="2187619526" lat="52.3891146" lon="-0.4323152" version="2" timestamp="2013-03-07T12:19:09Z" changeset="15281319" uid="90142" user="andy mackey"/>
  <node id="11170885444" lat="52.3638219" lon="-0.4307877" version="1" timestamp="2023-09-06T01:18:59Z" changeset="140872892" uid="13341565" user="Falsernet"/>
  <way id="31144162" version="7" timestamp="2012-02-19T10:15:36Z" changeset="10727932" uid="188349" user="MatSmith">
    <nd ref="346383686"/>
    <nd ref="346383690"/>
    <nd ref="1298879541"/>
    <nd ref="346383693"/>
    <tag k="highway" v="secondary"/>
    <tag k="lit" v="yes"/>
    <tag k="name" v="Toll Bar Lane"/>
    <tag k="ref" v="B663"/>
    <tag k="source" v="survey"/>
  </way>
  <way id="31144163" version="11" timestamp="2020-01-19T17:05:42Z" changeset="79759856" uid="493595" user="Yorvik Prestigitator">
    <nd ref="346383711"/>
    <nd ref="346383718"/>
    <nd ref="346383721"/>
    <nd ref="346383722"/>
    <nd ref="7111868588"/>
    <nd ref="346383723"/>
    <nd ref="346383725"/>
    <nd ref="346383726"/>
    <nd ref="6907929988"/>
    <nd ref="346383727"/>
    <nd ref="346383729"/>
    <nd ref="346383730"/>
    <nd ref="346383731"/>
    <nd ref="346383733"/>
    <nd ref="346383734"/>
    <nd ref="346383736"/>
    <nd ref="346383737"/>
    <nd ref="1676722660"/>
    <nd ref="346383738"/>
    <nd ref="346383739"/>
    <nd ref="346383741"/>
    <nd ref="7143022434"/>
    <nd ref="1638840067"/>
    <nd ref="346383742"/>
    <nd ref="3334758935"/>
    <nd ref="346383743"/>
    <nd ref="3334758947"/>
    <nd ref="7143022436"/>
    <nd ref="346383744"/>
    <nd ref="346383746"/>
    <nd ref="346383749"/>
    <nd ref="346383750"/>
    <nd ref="346383751"/>
    <nd ref="346383752"/>
    <nd ref="346383754"/>
    <nd ref="346383755"/>
    <nd ref="346383756"/>
    <nd ref="346383758"/>
    <nd ref="346383760"/>
    <nd ref="346383762"/>
    <tag k="highway" v="residential"/>
    <tag k="maxspeed" v="30 mph"/>
    <tag k="name" v="Loop Road"/>
    <tag k="source" v="survey"/>
  </way>
  <way id="31144164" version="4" timestamp="2017-02-06T23:04:29Z" changeset="45869506" uid="3178375" user="LeTopographeFou">
    <nd ref="346383758"/>
    <nd ref="346383764"/>
    <nd ref="346383766"/>
    <nd ref="346383767"/>
    <tag k="highway" v="residential"/>
    <tag k="maxspeed" v="30 mph"/>
    <tag k="name" v="The Park"/>
  </way>
  <way id="31144165" version="5" timestamp="2020-01-19T17:05:42Z" changeset="79759856" uid="493595" user="Yorvik Prestigitator">
    <nd ref="346383751"/>
    <nd ref="346383770"/>
    <nd ref="346383771"/>
    <nd ref="346383773"/>
    <nd ref="7143022441"/>
    <tag k="highway" v="residential"/>
    <tag k="maxspeed" v="30 mph"/>
    <tag k="name" v="Church View"/>
  </way>
  <way id="31144284" version="8" timestamp="2022-09-26T12:14:48Z" changeset="126653614" uid="13713182" user="dtbhavan">
    <nd ref="346383711"/>
    <nd ref="346383712"/>
    <nd ref="346383714"/>
    <nd ref="10053593629"/>
    <nd ref="1638840062"/>
    <nd ref="346388005"/>
    <nd ref="346388006"/>
    <nd ref="3334758952"/>
    <nd ref="346388007"/>
    <nd ref="346388009"/>
    <nd ref="346388010"/>
    <nd ref="346388012"/>
    <nd ref="346388014"/>
    <nd ref="346388015"/>
    <nd ref="346388016"/>
    <nd ref="346383762"/>
    <nd ref="346388017"/>
    <nd ref="534924525"/>
    <tag k="highway" v="secondary"/>
    <tag k="maxspeed" v="30 mph"/>
    <tag k="name" v="Raunds Road"/>
    <tag k="ref" v="B663"/>
    <tag k="source" v="survey"/>
  </way>
  <way id="32523713" version="7" timestamp="2024-05-01T20:52:26Z" changeset="150768716" uid="1782504" user="corgicity">
    <nd ref="365745173"/>
    <nd ref="365745194"/>
    <nd ref="11872640893"/>
    <nd ref="365745195"/>
    <nd ref="365745196"/>
    <nd ref="2187619532"/>
    <nd ref="365745198"/>
    <nd ref="2187619528"/>
    <nd ref="365745199"/>
    <nd ref="2187619529"/>
    <nd ref="365745200"/>
    <nd ref="365745201"/>
    <nd ref="2187619525"/>
    <nd ref="365745203"/>
    <nd ref="9811405740"/>
    <nd ref="365745204"/>
    <nd ref="2187619526"/>
    <nd ref="2187619524"/>
    <nd ref="1099078673"/>
    <tag k="highway" v="unclassified"/>
    <tag k="name" v="Warren Lane"/>
  </way>
  <way id="42782023" version="7" timestamp="2020-08-17T04:42:40Z" changeset="89492435" uid="11558561" user="borramou">
    <nd ref="534924526"/>
    <nd ref="3334758978"/>
    <nd ref="346383698"/>
    <nd ref="346383699"/>
    <nd ref="3334758932"/>
    <nd ref="3334758984"/>
    <nd ref="7818607250"/>
    <nd ref="346383701"/>
    <nd ref="346383702"/>
    <nd ref="1676722574"/>
    <nd ref="346383703"/>
    <nd ref="346383704"/>
    <nd ref="346383706"/>
    <nd ref="7284036887"/>
    <nd ref="346383707"/>
    <nd ref="3334758945"/>
    <nd ref="346383708"/>
    <nd ref="346383710"/>
    <nd ref="346383711"/>
    <tag k="highway" v="secondary"/>
    <tag k="maxspeed" v="30 mph"/>
    <tag k="name" v="Toll Bar Lane"/>
    <tag k="ref" v="B663"/>
    <tag k="source" v="survey"/>
  </way>
  <way id="42782024" version="8" timestamp="2024-05-04T22:03:36Z" changeset="150899523" uid="10420541" user="Thingummy">
    <nd ref="1638824231"/>
    <nd ref="346388022"/>
    <nd ref="346388024"/>
    <nd ref="346388028"/>
    <nd ref="6964796248"/>
    <nd ref="346388029"/>
    <nd ref="346388031"/>
    <nd ref="346388033"/>
    <nd ref="346388034"/>
    <nd ref="346388036"/>
    <nd ref="346388037"/>
    <nd ref="346388040"/>
    <nd ref="346388041"/>
    <nd ref="346388042"/>
    <nd ref="346388045"/>
    <nd ref="346388046"/>
    <nd ref="346388048"/>
    <nd ref="346388050"/>
    <nd ref="1638840077"/>
    <nd ref="346388051"/>
    <nd ref="2473867768"/>
    <nd ref="8251295848"/>
    <nd ref="346404461"/>
    <tag k="highway" v="secondary"/>
    <tag k="name" v="Toll Bar Lane"/>
    <tag k="ref" v="B663"/>
    <tag k="source" v="survey"/>
  </way>
  <way id="42782025" version="2" timestamp="2009-10-18T21:50:53Z" changeset="2889073" uid="57884" user="EdLoach">
    <nd ref="534924522"/>
    <nd ref="534924524"/>
    <tag k="access" v="private"/>
    <tag k="highway" v="residential"/>
    <tag k="name" v="Linden Grove"/>
  </way>
  <way id="42783003" version="5" timestamp="2020-11-13T18:56:46Z" changeset="94081276" uid="5229644" user="Nathan_A_RF">
    <nd ref="1298879553"/>
    <nd ref="8116919111"/>
    <nd ref="1298879523"/>
    <nd ref="346425337"/>
    <nd ref="346425339"/>
    <nd ref="346425341"/>
    <nd ref="7797901721"/>
    <nd ref="1405010767"/>
    <nd ref="346425342"/>
    <nd ref="1405010780"/>
    <nd ref="1405010687"/>
    <nd ref="346425345"/>
    <nd ref="346425347"/>
    <tag k="highway" v="tertiary"/>
    <tag k="name" v="Thrapston Road"/>
  </way>
  <way id="42783004" version="6" timestamp="2021-08-26T07:01:26Z" changeset="110267250" uid="9196107" user="bashwith">
    <nd ref="346425347"/>
    <nd ref="346425348"/>
    <nd ref="346425351"/>
    <nd ref="534935766"/>
    <nd ref="346425353"/>
    <nd ref="7962868228"/>
    <nd ref="346425355"/>
    <nd ref="534935770"/>
    <nd ref="534935765"/>
    <nd ref="9037093276"/>
    <nd ref="346425357"/>
    <nd ref="534935764"/>
    <nd ref="9037093266"/>
    <nd ref="8011967573"/>
    <nd ref="1297711323"/>
    <nd ref="346425360"/>
    <tag k="highway" v="tertiary"/>
    <tag k="maxspeed" v="30 mph"/>
    <tag k="name" v="Thrapston Road"/>
  </way>
  <way id="42783005" version="8" timestamp="2020-11-13T18:56:46Z" changeset="94081276" uid="5229644" user="Nathan_A_RF">
    <nd ref="346425360"/>
    <nd ref="6562444353"/>
    <nd ref="346425378"/>
    <nd ref="346425380"/>
    <nd ref="346425382"/>
    <nd ref="1676722607"/>
    <nd ref="346425384"/>
    <nd ref="346425385"/>
    <nd ref="7996881464"/>
    <nd ref="346425387"/>
    <nd ref="346425390"/>
    <nd ref="346425393"/>
    <nd ref="346425396"/>
    <nd ref="7996941887"/>
    <nd ref="346425400"/>
    <nd ref="7996941891"/>
    <nd ref="346425401"/>
    <nd ref="1166274920"/>
    <nd ref="346426286"/>
    <nd ref="346425408"/>
    <nd ref="346425411"/>
    <nd ref="346425414"/>
    <nd ref="1297711298"/>
    <nd ref="346426199"/>
    <tag k="highway" v="tertiary"/>
    <tag k="name" v="Thrapston Road"/>
  </way>
  <way id="42783007" version="6" timestamp="2020-10-22T05:18:38Z" changeset="92866059" uid="9196099" user="nmotupal">
    <nd ref="534935766"/>
    <nd ref="1298879545"/>
    <nd ref="1298879517"/>
    <nd ref="534935761"/>
    <nd ref="1298879564"/>
    <nd ref="8034683674"/>
    <nd ref="534935762"/>
    <nd ref="1298879535"/>
    <nd ref="534935763"/>
    <nd ref="534935781"/>
    <nd ref="534935778"/>
    <nd ref="534935787"/>
    <nd ref="1298879532"/>
    <nd ref="1298879566"/>
    <nd ref="5866514065"/>
    <nd ref="1298879530"/>
    <nd ref="534935789"/>
    <tag k="highway" v="residential"/>
    <tag k="lit" v="no"/>
    <tag k="maxspeed" v="30 mph"/>
    <tag k="name" v="Warren Lane"/>
  </way>
  <way id="42783008" version="7" timestamp="2025-01-26T18:57:53Z" changeset="161791770" uid="493595" user="Yorvik Prestigitator">
    <nd ref="534935787"/>
    <nd ref="1298879567"/>
    <nd ref="1298879531"/>
    <nd ref="534935794"/>
    <nd ref="1405048174"/>
    <nd ref="1298879510"/>
    <nd ref="12534678569"/>
    <nd ref="534935783"/>
    <tag k="highway" v="residential"/>
    <tag k="lit" v="no"/>
    <tag k="maxspeed" v="30 mph"/>
    <tag k="name" v="Smiths Lane"/>
  </way>
  <way id="42783009" version="2" timestamp="2011-05-25T21:50:18Z" changeset="8249102" uid="7098" user="richardm565">
    <nd ref="534935779"/>
    <nd ref="534935781"/>
    <tag k="highway" v="residential"/>
    <tag k="lit" v="no"/>
    <tag k="name" v="Church Lane"/>
  </way>
  <way id="42783011" version="3" timestamp="2017-02-06T23:07:58Z" changeset="45869506" uid="3178375" user="LeTopographeFou">
    <nd ref="346425355"/>
    <nd ref="534935767"/>
    <nd ref="534935768"/>
    <tag k="highway" v="residential"/>
    <tag k="lit" v="no"/>
    <tag k="maxspeed" v="30 mph"/>
    <tag k="name" v="School Lane"/>
  </way>
  <way id="42783013" version="7" timestamp="2025-01-26T18:57:53Z" changeset="161791770" uid="493595" user="Yorvik Prestigitator">
    <nd ref="1300219369"/>
    <nd ref="1300219381"/>
    <nd ref="1300219386"/>
    <nd ref="1405048166"/>
    <nd ref="534935783"/>
    <nd ref="12534678567"/>
    <nd ref="1298879550"/>
    <nd ref="1405048168"/>
    <nd ref="534935784"/>
    <nd ref="1300219351"/>
    <nd ref="534935785"/>
    <nd ref="534935776"/>
    <nd ref="534935774"/>
    <nd ref="534935773"/>
    <nd ref="1297711285"/>
    <nd ref="1297711360"/>
    <nd ref="1297711327"/>
    <nd ref="534935764"/>
    <tag k="highway" v="residential"/>
    <tag k="lit" v="no"/>
    <tag k="maxspeed" v="30 mph"/>
    <tag k="name" v="Main Street"/>
  </way>
  <way id="43153085" version="11" timestamp="2023-01-04T20:39:15Z" changeset="130881799" uid="123091" user="ianc">
    <nd ref="346389794"/>
    <nd ref="4622252115"/>
    <nd ref="4622252116"/>
    <nd ref="346389795"/>
    <nd ref="346389796"/>
    <nd ref="346389797"/>
    <nd ref="346389799"/>
    <nd ref="346389800"/>
    <nd ref="346389801"/>
    <nd ref="346389802"/>
    <nd ref="346389804"/>
    <nd ref="346389805"/>
    <nd ref="346389807"/>
    <nd ref="1367720788"/>
    <nd ref="4622252118"/>
    <nd ref="1367720789"/>
    <nd ref="346389810"/>
    <nd ref="346389812"/>
    <nd ref="346389813"/>
    <nd ref="346389815"/>
    <nd ref="3428589340"/>
    <nd ref="346389816"/>
    <nd ref="346389818"/>
    <nd ref="3428589328"/>
    <nd ref="346389819"/>
    <nd ref="1638824245"/>
    <nd ref="346388028"/>
    <tag k="highway" v="unclassified"/>
    <tag k="name" v="Mickle Hill"/>
  </way>
  <way id="68998145" version="11" timestamp="2024-02-04T09:05:36Z" changeset="147045213" uid="7633766" user="Greyseal18">
    <nd ref="569959"/>
    <nd ref="1298879514"/>
    <nd ref="8116919112"/>
    <nd ref="8116919113"/>
    <nd ref="828169574"/>
    <nd ref="828169575"/>
    <nd ref="8116919114"/>
    <nd ref="346425327"/>
    <tag k="highway" v="trunk_link"/>
    <tag k="lane_markings" v="no"/>
    <tag k="lit" v="yes"/>
    <tag k="national_highways:area" v="8"/>
    <tag k="oneway" v="yes"/>
    <tag k="operator" v="National Highways"/>
    <tag k="operator:wikidata" v="Q5760006"/>
    <tag k="source" v="OS OpenData StreetView"/>
  </way>
  <way id="114729819" version="2" timestamp="2025-01-26T18:57:53Z" changeset="161791770" uid="493595" user="Yorvik Prestigitator">
    <nd ref="1298879513"/>
    <nd ref="1298879524"/>
    <nd ref="1298879561"/>
    <nd ref="1298879543"/>
    <nd ref="1298879513"/>
    <tag k="amenity" v="community_centre"/>
    <tag k="building" v="public"/>
    <tag k="community_centre" v="village_hall"/>
    <tag k="name" v="Bythorn Village Hall"/>
  </way>
  <way id="114885601" version="3" timestamp="2017-02-06T23:15:05Z" changeset="45869506" uid="3178375" user="LeTopographeFou">
    <nd ref="534935768"/>
    <nd ref="1405048169"/>
    <nd ref="534935785"/>
    <tag k="highway" v="residential"/>
    <tag k="lit" v="no"/>
    <tag k="maxspeed" v="30 mph"/>
    <tag k="name" v="The Green"/>
  </way>
  <way id="118393046" version="3" timestamp="2022-10-21T17:40:31Z" changeset="127896104" uid="13341565" user="Falsernet">
    <nd ref="1331534623"/>
    <nd ref="1331534612"/>
    <nd ref="1331534617"/>
    <nd ref="1331534602"/>
    <nd ref="1331534610"/>
    <nd ref="1331534605"/>
    <nd ref="1331534627"/>
    <nd ref="1331534628"/>
    <nd ref="1331534615"/>
    <nd ref="1331534611"/>
    <nd ref="1331534607"/>
    <nd ref="1331534630"/>
    <nd ref="1331534621"/>
    <nd ref="1331534619"/>
    <nd ref="8116919110"/>
    <nd ref="8116919109"/>
    <nd ref="1298879553"/>
    <tag k="highway" v="unclassified"/>
    <tag k="name" v="Thrapston Road"/>
  </way>
  <way id="141761731" version="11" timestamp="2023-09-06T01:18:59Z" changeset="140872892" uid="13341565" user="Falsernet">
    <nd ref="1551763458"/>
    <nd ref="1551763426"/>
    <nd ref="569961"/>
    <nd ref="1551763407"/>
    <nd ref="215553"/>
    <nd ref="569964"/>
    <nd ref="569965"/>
    <nd ref="215555"/>
    <nd ref="1551763403"/>
    <nd ref="215559"/>
    <nd ref="1551763459"/>
    <nd ref="215578"/>
    <nd ref="6845345368"/>
    <tag k="dual_carriageway" v="yes"/>
    <tag k="highway" v="trunk"/>
    <tag k="int_ref" v="E 24"/>
    <tag k="lanes" v="2"/>
    <tag k="lit" v="no"/>
    <tag k="maxheight" v="default"/>
    <tag k="maxspeed" v="70 mph"/>
    <tag k="maxspeed:type" v="GB:nsl_dual"/>
    <tag k="national_highways:area" v="8"/>
    <tag k="oneway" v="yes"/>
    <tag k="operator" v="National Highways"/>
    <tag k="operator:wikidata" v="Q5760006"/>
    <tag k="ref" v="A14"/>
  </way>
  <way id="141761737" version="12" timestamp="2023-09-06T01:18:59Z" changeset="140872892" uid="13341565" user="Falsernet">
    <nd ref="1551763401"/>
    <nd ref="346383686"/>
    <tag k="dual_carriageway" v="yes"/>
    <tag k="highway" v="trunk"/>
    <tag k="int_ref" v="E 24"/>
    <tag k="lanes" v="2"/>
    <tag k="lit" v="yes"/>
    <tag k="maxspeed" v="70 mph"/>
    <tag k="maxspeed:type" v="GB:nsl_dual"/>
    <tag k="national_highways:area" v="8"/>
    <tag k="oneway" v="yes"/>
    <tag k="operator" v="National Highways"/>
    <tag k="operator:wikidata" v="Q5760006"/>
    <tag k="ref" v="A14"/>
  </way>
  <way id="141762242" version="13" timestamp="2025-03-12T11:31:17Z" changeset="163523362" uid="5229644" user="Nathan_A_RF">
    <nd ref="569976"/>
    <nd ref="1551773855"/>
    <nd ref="215552"/>
    <nd ref="1551773890"/>
    <nd ref="215549"/>
    <nd ref="1551773853"/>
    <nd ref="1551773884"/>
    <nd ref="215548"/>
    <nd ref="1419482555"/>
    <nd ref="1551773932"/>
    <nd ref="1419482561"/>
    <nd ref="215547"/>
    <nd ref="569981"/>
    <nd ref="1551773945"/>
    <nd ref="215546"/>
    <nd ref="1551773885"/>
    <nd ref="569988"/>
    <nd ref="1551773882"/>
    <nd ref="1551773921"/>
    <nd ref="569986"/>
    <nd ref="1551773868"/>
    <nd ref="1551773892"/>
    <nd ref="1551773849"/>
    <nd ref="215543"/>
    <nd ref="1551773938"/>
    <nd ref="569990"/>
    <nd ref="569992"/>
    <nd ref="1551814199"/>
    <nd ref="569983"/>
    <nd ref="569994"/>
    <nd ref="569996"/>
    <nd ref="569997"/>
    <nd ref="569999"/>
    <nd ref="570002"/>
    <nd ref="570004"/>
    <nd ref="570005"/>
    <nd ref="6750606213"/>
    <tag k="dual_carriageway" v="yes"/>
    <tag k="highway" v="trunk"/>
    <tag k="int_ref" v="E 24"/>
    <tag k="lanes" v="2"/>
    <tag k="lit" v="no"/>
    <tag k="maxspeed" v="70 mph"/>
    <tag k="maxspeed:type" v="GB:nsl_dual"/>
    <tag k="name" v="Thrapston Road"/>
    <tag k="national_highways:area" v="8"/>
    <tag k="oneway" v="yes"/>
    <tag k="operator" v="National Highways"/>
    <tag k="operator:wikidata" v="Q5760006"/>
    <tag k="ref" v="A14"/>
  </way>
  <way id="141762246" version="11" timestamp="2023-09-06T01:18:59Z" changeset="140872892" uid="13341565" user="Falsernet">
    <nd ref="569967"/>
    <nd ref="1551773913"/>
    <nd ref="1551773894"/>
    <nd ref="569959"/>
    <nd ref="346425320"/>
    <tag k="dual_carriageway" v="yes"/>
    <tag k="highway" v="trunk"/>
    <tag k="int_ref" v="E 24"/>
    <tag k="lanes" v="2"/>
    <tag k="lit" v="yes"/>
    <tag k="maxspeed" v="70 mph"/>
    <tag k="maxspeed:type" v="GB:nsl_dual"/>
    <tag k="name" v="Thrapston Road"/>
    <tag k="national_highways:area" v="8"/>
    <tag k="oneway" v="yes"/>
    <tag k="operator" v="National Highways"/>
    <tag k="operator:wikidata" v="Q5760006"/>
    <tag k="ref" v="A14"/>
  </way>
  <way id="141762247" version="2" timestamp="2013-08-09T23:10:41Z" changeset="17286025" uid="281267" user="smb1001">
    <nd ref="346383693"/>
    <nd ref="535068808"/>
    <nd ref="346383694"/>
    <nd ref="346383695"/>
    <nd ref="2412682857"/>
    <nd ref="346383696"/>
    <nd ref="534924526"/>
    <tag k="highway" v="secondary"/>
    <tag k="name" v="Toll Bar Lane"/>
    <tag k="ref" v="B663"/>
    <tag k="source" v="survey"/>
  </way>
  <way id="204907836" version="9" timestamp="2023-09-06T01:18:59Z" changeset="140872892" uid="13341565" user="Falsernet">
    <nd ref="569984"/>
    <nd ref="8116919106"/>
    <nd ref="8116919105"/>
    <nd ref="1551773863"/>
    <nd ref="569985"/>
    <nd ref="569987"/>
    <nd ref="1551773911"/>
    <nd ref="569982"/>
    <nd ref="569980"/>
    <nd ref="1551773851"/>
    <nd ref="1551773903"/>
    <nd ref="569979"/>
    <nd ref="1551773838"/>
    <nd ref="1551773927"/>
    <nd ref="569978"/>
    <nd ref="1551773901"/>
    <nd ref="1551773859"/>
    <nd ref="569977"/>
    <nd ref="1551773918"/>
    <nd ref="1551773930"/>
    <nd ref="569968"/>
    <nd ref="1551773888"/>
    <nd ref="569967"/>
    <tag k="dual_carriageway" v="yes"/>
    <tag k="highway" v="trunk"/>
    <tag k="int_ref" v="E 24"/>
    <tag k="lanes" v="2"/>
    <tag k="lit" v="no"/>
    <tag k="maxspeed" v="70 mph"/>
    <tag k="maxspeed:type" v="GB:nsl_dual"/>
    <tag k="name" v="Thrapston Road"/>
    <tag k="national_highways:area" v="8"/>
    <tag k="oneway" v="yes"/>
    <tag k="operator" v="National Highways"/>
    <tag k="operator:wikidata" v="Q5760006"/>
    <tag k="ref" v="A14"/>
  </way>
  <way id="232946876" version="5" timestamp="2023-11-03T18:38:55Z" changeset="143587010" uid="504708" user="HillWithSmallFields">
    <nd ref="2412682752"/>
    <nd ref="2412682824"/>
    <nd ref="2412682786"/>
    <nd ref="2412682835"/>
    <nd ref="2412682827"/>
    <nd ref="2412682764"/>
    <nd ref="2412682808"/>
    <nd ref="2412682815"/>
    <nd ref="2412682758"/>
    <nd ref="2412682783"/>
    <nd ref="2412682833"/>
    <nd ref="2412682816"/>
    <nd ref="2412682817"/>
    <nd ref="2412682859"/>
    <nd ref="2412682767"/>
    <nd ref="2412682838"/>
    <nd ref="2412682766"/>
    <nd ref="2412682820"/>
    <nd ref="2412682865"/>
    <nd ref="2412682860"/>
    <nd ref="2412682752"/>
    <tag k="amenity" v="place_of_worship"/>
    <tag k="building" v="church"/>
    <tag k="denomination" v="anglican"/>
    <tag k="name" v="St John the Baptist"/>
    <tag k="ref:dove" v="16877"/>
    <tag k="religion" v="christian"/>
    <tag k="wikidata" v="Q17527925"/>
  </way>
  <way id="232946880" version="4" timestamp="2024-05-12T10:14:50Z" changeset="151217721" uid="95856" user="john paul jones &amp; gringo">
    <nd ref="2412682775"/>
    <nd ref="2412682839"/>
    <nd ref="2412682800"/>
    <nd ref="2412682753"/>
    <nd ref="2412682775"/>
    <tag k="addr:city" v="Huntingdon"/>
    <tag k="addr:country" v="GB"/>
    <tag k="addr:postcode" v="PE28 0RE"/>
    <tag k="addr:suburb" v="Keyston"/>
    <tag k="amenity" v="pub"/>
    <tag k="building" v="yes"/>
    <tag k="name" v="The Pheasant Inn"/>
    <tag k="website" v="http://www.thepheasant-keyston.co.uk/home.php"/>
  </way>
  <way id="239597985" version="4" timestamp="2023-11-03T18:35:20Z" changeset="143586911" uid="504708" user="HillWithSmallFields">
    <nd ref="2473753610"/>
    <nd ref="11310324734"/>
    <nd ref="11310324735"/>
    <nd ref="2473753671"/>
    <nd ref="2473753635"/>
    <nd ref="2473753637"/>
    <nd ref="2473753656"/>
    <nd ref="2473753661"/>
    <nd ref="2473753603"/>
    <nd ref="2473753624"/>
    <nd ref="2473753601"/>
    <nd ref="2473753596"/>
    <nd ref="2473753610"/>
    <tag k="amenity" v="place_of_worship"/>
    <tag k="building" v="church"/>
    <tag k="denomination" v="anglican"/>
    <tag k="name" v="Saint Lawrence"/>
    <tag k="ref:dove" v="14359"/>
    <tag k="religion" v="christian"/>
    <tag k="source:name" v="http://www.robschurches.moonfruit.com/#/bythorn/4556143783"/>
    <tag k="wikidata" v="Q17543967"/>
  </way>
  <way id="239597987" version="1" timestamp="2013-09-27T16:27:10Z" changeset="18064212" uid="281267" user="smb1001">
    <nd ref="2473753599"/>
    <nd ref="2473753682"/>
    <nd ref="2473753593"/>
    <nd ref="1298879530"/>
    <tag k="highway" v="residential"/>
  </way>
  <way id="333288393" version="4" timestamp="2024-02-04T09:05:36Z" changeset="147045213" uid="7633766" user="Greyseal18">
    <nd ref="346425320"/>
    <nd ref="8116919115"/>
    <nd ref="3404107299"/>
    <nd ref="346425327"/>
    <nd ref="346425330"/>
    <nd ref="1551773840"/>
    <nd ref="8116919108"/>
    <nd ref="8116919107"/>
    <nd ref="1298879553"/>
    <tag k="highway" v="secondary"/>
    <tag k="lit" v="yes"/>
    <tag k="name" v="Toll Bar Lane"/>
    <tag k="ref" v="B663"/>
  </way>
  <way id="333288396" version="2" timestamp="2020-11-13T18:56:46Z" changeset="94081276" uid="5229644" user="Nathan_A_RF">
    <nd ref="346383686"/>
    <nd ref="3404107284"/>
    <nd ref="8116919122"/>
    <nd ref="8116919123"/>
    <nd ref="3404107290"/>
    <tag k="highway" v="secondary"/>
    <tag k="lit" v="yes"/>
    <tag k="name" v="Toll Bar Lane"/>
    <tag k="oneway" v="yes"/>
    <tag k="ref" v="B663"/>
  </way>
  <way id="335752471" version="1" timestamp="2015-03-31T14:06:32Z" changeset="29877457" uid="1302721" user="Glucosamine">
    <nd ref="3428589340"/>
    <nd ref="3428589341"/>
    <tag k="highway" v="unclassified"/>
  </way>
  <way id="335951391" version="3" timestamp="2021-08-31T04:01:55Z" changeset="110487386" uid="11734032" user="daitv">
    <nd ref="1367720789"/>
    <nd ref="3430434409"/>
    <nd ref="3430434410"/>
    <nd ref="9049678244"/>
    <nd ref="3430434411"/>
    <nd ref="9049678245"/>
    <nd ref="3430421181"/>
    <nd ref="3430421182"/>
    <nd ref="9049678246"/>
    <nd ref="3430421183"/>
    <nd ref="9049678247"/>
    <nd ref="3430421185"/>
    <nd ref="9049678243"/>
    <nd ref="3430421184"/>
    <nd ref="9049678242"/>
    <nd ref="9049678241"/>
    <nd ref="3430421186"/>
    <nd ref="9049678239"/>
    <nd ref="9049678240"/>
    <nd ref="9049678238"/>
    <nd ref="3430421187"/>
    <tag k="access" v="private"/>
    <tag k="bicycle" v="no"/>
    <tag k="foot" v="no"/>
    <tag k="highway" v="residential"/>
    <tag k="horse" v="private"/>
    <tag k="motor_vehicle" v="private"/>
  </way>
  <way id="467734560" version="1" timestamp="2017-01-22T11:11:30Z" changeset="45367195" uid="90142" user="andy mackey">
    <nd ref="4623318338"/>
    <nd ref="4623318356"/>
    <nd ref="4623318352"/>
    <nd ref="4623318350"/>
    <nd ref="4623318338"/>
    <tag k="building" v="residential"/>
    <tag k="name" v="Mickle Hill Farm"/>
  </way>
  <way id="764604916" version="1" timestamp="2020-01-19T17:05:42Z" changeset="79759856" uid="493595" user="Yorvik Prestigitator">
    <nd ref="7143022440"/>
    <nd ref="7143022431"/>
    <nd ref="7143022439"/>
    <nd ref="7143022438"/>
    <nd ref="7143022442"/>
    <nd ref="7143022443"/>
    <nd ref="7143022437"/>
    <nd ref="7143022433"/>
    <nd ref="7143022440"/>
    <tag k="amenity" v="community_centre"/>
    <tag k="building" v="public"/>
    <tag k="community_centre" v="village_hall"/>
    <tag k="name" v="Keyston Village Hall"/>
  </way>
  <way id="871433534" version="3" timestamp="2024-02-04T09:05:36Z" changeset="147045213" uid="7633766" user="Greyseal18">
    <nd ref="346425320"/>
    <nd ref="3404107276"/>
    <nd ref="8116919124"/>
    <nd ref="8116919125"/>
    <nd ref="346425304"/>
    <tag k="highway" v="secondary"/>
    <tag k="lit" v="yes"/>
    <tag k="name" v="Toll Bar Lane"/>
    <tag k="oneway" v="yes"/>
    <tag k="ref" v="B663"/>
  </way>
  <way id="871433535" version="3" timestamp="2024-02-04T09:05:36Z" changeset="147045213" uid="7633766" user="Greyseal18">
    <nd ref="8116919126"/>
    <nd ref="8116919116"/>
    <nd ref="8116919117"/>
    <nd ref="8116919118"/>
    <nd ref="346425320"/>
    <tag k="highway" v="secondary"/>
    <tag k="lit" v="yes"/>
    <tag k="name" v="Toll Bar Lane"/>
    <tag k="oneway" v="yes"/>
    <tag k="ref" v="B663"/>
  </way>
  <way id="871433536" version="1" timestamp="2020-11-13T18:56:46Z" changeset="94081276" uid="5229644" user="Nathan_A_RF">
    <nd ref="8116919127"/>
    <nd ref="8116919119"/>
    <nd ref="8116919120"/>
    <nd ref="8116919121"/>
    <nd ref="346383686"/>
    <tag k="highway" v="secondary"/>
    <tag k="lit" v="yes"/>
    <tag k="name" v="Toll Bar Lane"/>
    <tag k="oneway" v="yes"/>
    <tag k="ref" v="B663"/>
  </way>
  <way id="871433537" version="6" timestamp="2023-09-06T01:18:59Z" changeset="140872892" uid="13341565" user="Falsernet">
    <nd ref="346383686"/>
    <nd ref="8116919126"/>
    <nd ref="346425304"/>
    <tag k="dual_carriageway" v="yes"/>
    <tag k="highway" v="trunk"/>
    <tag k="int_ref" v="E 24"/>
    <tag k="lanes" v="2"/>
    <tag k="lit" v="yes"/>
    <tag k="maxspeed" v="70 mph"/>
    <tag k="maxspeed:type" v="GB:nsl_dual"/>
    <tag k="name" v="Thrapston Road"/>
    <tag k="national_highways:area" v="8"/>
    <tag k="oneway" v="yes"/>
    <tag k="operator" v="National Highways"/>
    <tag k="operator:wikidata" v="Q5760006"/>
    <tag k="ref" v="A14"/>
  </way>
  <way id="871433538" version="5" timestamp="2023-09-06T01:18:59Z" changeset="140872892" uid="13341565" user="Falsernet">
    <nd ref="346425320"/>
    <nd ref="8116919127"/>
    <nd ref="346383680"/>
    <nd ref="3404107290"/>
    <nd ref="1551763458"/>
    <tag k="dual_carriageway" v="yes"/>
    <tag k="highway" v="trunk"/>
    <tag k="int_ref" v="E 24"/>
    <tag k="lanes" v="2"/>
    <tag k="lit" v="yes"/>
    <tag k="maxspeed" v="70 mph"/>
    <tag k="maxspeed:type" v="GB:nsl_dual"/>
    <tag k="national_highways:area" v="8"/>
    <tag k="oneway" v="yes"/>
    <tag k="operator" v="National Highways"/>
    <tag k="operator:wikidata" v="Q5760006"/>
    <tag k="ref" v="A14"/>
  </way>
  <way id="871433539" version="6" timestamp="2023-09-06T01:18:59Z" changeset="140872892" uid="13341565" user="Falsernet">
    <nd ref="346425304"/>
    <nd ref="1551773909"/>
    <nd ref="569976"/>
    <tag k="dual_carriageway" v="yes"/>
    <tag k="highway" v="trunk"/>
    <tag k="int_ref" v="E 24"/>
    <tag k="lanes" v="2"/>
    <tag k="lit" v="yes"/>
    <tag k="maxspeed" v="70 mph"/>
    <tag k="maxspeed:type" v="GB:nsl_dual"/>
    <tag k="name" v="Thrapston Road"/>
    <tag k="national_highways:area" v="8"/>
    <tag k="oneway" v="yes"/>
    <tag k="operator" v="National Highways"/>
    <tag k="operator:wikidata" v="Q5760006"/>
    <tag k="ref" v="A14"/>
  </way>
  <way id="871433540" version="5" timestamp="2023-09-06T01:18:59Z" changeset="140872892" uid="13341565" user="Falsernet">
    <nd ref="11170885444"/>
    <nd ref="569956"/>
    <nd ref="569955"/>
    <nd ref="1551763366"/>
    <nd ref="569958"/>
    <nd ref="569966"/>
    <nd ref="1551763350"/>
    <nd ref="569963"/>
    <nd ref="569962"/>
    <nd ref="1551763427"/>
    <nd ref="569960"/>
    <nd ref="1551763352"/>
    <nd ref="1551763446"/>
    <nd ref="1551763401"/>
    <tag k="dual_carriageway" v="yes"/>
    <tag k="highway" v="trunk"/>
    <tag k="int_ref" v="E 24"/>
    <tag k="lanes" v="2"/>
    <tag k="lit" v="no"/>
    <tag k="maxspeed" v="70 mph"/>
    <tag k="maxspeed:type" v="GB:nsl_dual"/>
    <tag k="national_highways:area" v="8"/>
    <tag k="oneway" v="yes"/>
    <tag k="operator" v="National Highways"/>
    <tag k="operator:wikidata" v="Q5760006"/>
    <tag k="ref" v="A14"/>
  </way>
  <way id="1068854145" version="1" timestamp="2022-06-11T18:58:04Z" changeset="122261043" uid="486701" user="eteb3">
    <nd ref="2187619526"/>
    <nd ref="9811405744"/>
    <nd ref="9811405746"/>
    <nd ref="9811405761"/>
    <tag k="access" v="no"/>
    <tag k="bicycle" v="designated"/>
    <tag k="foot" v="designated"/>
    <tag k="highway" v="unclassified"/>
    <tag k="horse" v="designated"/>
    <tag k="motor_vehicle" v="designated"/>
    <tag k="note" v="signed as a byway as it turns south opposite the gate to RAF Molesworth. Impassable in June 2022 - thick overgrowth."/>
  </way>
  <way id="1279765353" version="1" timestamp="2024-05-04T22:03:36Z" changeset="150899523" uid="10420541" user="Thingummy">
    <nd ref="534924525"/>
    <nd ref="346388019"/>
    <nd ref="534924524"/>
    <nd ref="346388020"/>
    <nd ref="11879919160"/>
    <tag k="highway" v="secondary"/>
    <tag k="name" v="Toll Bar Lane"/>
    <tag k="ref" v="B663"/>
    <tag k="source" v="survey"/>
  </way>
  <way id="1279765354" version="1" timestamp="2024-05-04T22:03:36Z" changeset="150899523" uid="10420541" user="Thingummy">
    <nd ref="11879919160"/>
    <nd ref="1638824231"/>
    <tag k="bridge" v="yes"/>
    <tag k="highway" v="secondary"/>
    <tag k="layer" v="1"/>
    <tag k="name" v="Toll Bar Lane"/>
    <tag k="ref" v="B663"/>
    <tag k="source" v="survey"/>
  </way>

</osm>
