<?xml version="1.0" encoding="UTF-8"?>
<osm version="0.6" generator="Overpass API 0.7.62.5 1bd436f1">
<note>The data included in this document is from www.openstreetmap.org. The data is made available under ODbL.</note>
<meta osm_base="2025-04-27T07:34:15Z" areas="2025-02-06T02:17:44Z"/>

  <node id="213907" lat="52.2943830" lon="0.4752260" version="2" timestamp="2025-02-26T17:20:09Z" changeset="162981181" uid="5008136" user="JayTurnr"/>
  <node id="213951" lat="52.2737173" lon="0.4524772" version="2" timestamp="2012-01-26T17:42:44Z" changeset="10505042" uid="504708" user="HillWithSmallFields"/>
  <node id="14911546" lat="52.2767688" lon="0.4765427" version="4" timestamp="2011-12-29T19:38:38Z" changeset="10238938" uid="5926" user="c2r"/>
  <node id="24966350" lat="52.2878038" lon="0.5032568" version="8" timestamp="2024-10-03T18:15:11Z" changeset="157431556" uid="5173844" user="ndrw6"/>
  <node id="260596270" lat="52.2766251" lon="0.4746301" version="3" timestamp="2011-12-29T19:38:39Z" changeset="10238938" uid="5926" user="c2r"/>
  <node id="262551328" lat="52.2891584" lon="0.4697049" version="4" timestamp="2025-02-26T17:16:43Z" changeset="162981023" uid="5008136" user="JayTurnr"/>
  <node id="263045837" lat="52.2850632" lon="0.4662819" version="3" timestamp="2025-02-26T17:16:43Z" changeset="162981023" uid="5008136" user="JayTurnr"/>
  <node id="935801149" lat="52.2881591" lon="0.4936844" version="3" timestamp="2011-05-16T08:41:12Z" changeset="8160228" uid="17576" user="Laverock"/>
  <node id="936983701" lat="52.2951894" lon="0.4763368" version="1" timestamp="2010-10-03T17:57:45Z" changeset="5946718" uid="7098" user="richardm565"/>
  <node id="1146065763" lat="52.2758039" lon="0.4951011" version="2" timestamp="2023-09-06T00:34:34Z" changeset="140872290" uid="13341565" user="Falsernet"/>
  <node id="1146065866" lat="52.2758886" lon="0.4954170" version="2" timestamp="2023-09-06T00:34:34Z" changeset="140872290" uid="13341565" user="Falsernet"/>
  <node id="1370466580" lat="52.2719384" lon="0.5208474" version="2" timestamp="2011-12-29T19:48:37Z" changeset="10238938" uid="5926" user="c2r"/>
  <node id="1556286066" lat="52.2802206" lon="0.4610858" version="2" timestamp="2025-02-26T17:16:43Z" changeset="162981023" uid="5008136" user="JayTurnr"/>
  <node id="1896116302" lat="52.2718394" lon="0.4925186" version="4" timestamp="2024-08-27T19:58:59Z" changeset="155849428" uid="3999" user="BarryMyles"/>
  <way id="3999443" version="26" timestamp="2025-02-26T17:21:02Z" changeset="162981219" uid="5008136" user="JayTurnr">
    <nd ref="1556286066"/>
    <nd ref="1556286021"/>
    <nd ref="12620924967"/>
    <nd ref="569276"/>
    <nd ref="569275"/>
    <nd ref="263047262"/>
    <nd ref="569274"/>
    <nd ref="12620924970"/>
    <nd ref="12620932408"/>
    <nd ref="12620911593"/>
    <nd ref="569273"/>
    <nd ref="569272"/>
    <nd ref="569269"/>
    <nd ref="569268"/>
    <tag k="expressway" v="yes"/>
    <tag k="foot" v="no"/>
    <tag k="highway" v="trunk"/>
    <tag k="lanes" v="2"/>
    <tag k="lit" v="no"/>
    <tag k="maintenance" v="salting"/>
    <tag k="maxheight" v="default"/>
    <tag k="maxspeed" v="70 mph"/>
    <tag k="maxspeed:type" v="GB:nsl_dual"/>
    <tag k="national_highways:area" v="6"/>
    <tag k="oneway" v="yes"/>
    <tag k="operator" v="National Highways"/>
    <tag k="operator:wikidata" v="Q5760006"/>
    <tag k="ref" v="A11"/>
    <tag k="sidewalk" v="no"/>
    <tag k="surface" v="asphalt"/>
  </way>
  <way id="4040611" version="11" timestamp="2025-02-26T17:18:59Z" changeset="162981132" uid="5008136" user="JayTurnr">
    <nd ref="263045841"/>
    <nd ref="939458774"/>
    <tag k="highway" v="secondary"/>
    <tag k="lanes" v="1"/>
    <tag k="lit" v="yes"/>
    <tag k="maxspeed" v="60 mph"/>
    <tag k="maxspeed:type" v="GB:nsl_single"/>
    <tag k="name" v="Dane Hill Road"/>
    <tag k="oneway" v="yes"/>
    <tag k="ref" v="B1085"/>
    <tag k="surface" v="asphalt"/>
  </way>
  <way id="4213409" version="14" timestamp="2025-02-26T17:18:59Z" changeset="162981132" uid="5008136" user="JayTurnr">
    <nd ref="24554348"/>
    <nd ref="9162685555"/>
    <nd ref="9162685562"/>
    <nd ref="263045843"/>
    <tag k="highway" v="secondary"/>
    <tag k="junction" v="roundabout"/>
    <tag k="lit" v="yes"/>
    <tag k="maxspeed" v="60 mph"/>
    <tag k="maxspeed:type" v="GB:nsl_single"/>
    <tag k="surface" v="asphalt"/>
  </way>
  <way id="4213474" version="8" timestamp="2025-03-15T15:30:46Z" changeset="163655947" uid="5229644" user="Nathan_A_RF">
    <nd ref="24554348"/>
    <nd ref="939458829"/>
    <nd ref="939458813"/>
    <tag k="highway" v="secondary"/>
    <tag k="lanes" v="1"/>
    <tag k="maxspeed" v="60 mph"/>
    <tag k="maxspeed:type" v="GB:nsl_single"/>
    <tag k="name" v="Dane Hill Road"/>
    <tag k="oneway" v="yes"/>
    <tag k="ref" v="B1085"/>
    <tag k="surface" v="asphalt"/>
  </way>
  <way id="4244122" version="14" timestamp="2021-07-21T10:11:15Z" changeset="108358764" uid="10455633" user="tnayini">
    <nd ref="25553106"/>
    <nd ref="1380700223"/>
    <nd ref="25553105"/>
    <nd ref="1380700159"/>
    <nd ref="6485334977"/>
    <nd ref="25553104"/>
    <nd ref="1380700267"/>
    <nd ref="6771364205"/>
    <nd ref="1380700199"/>
    <nd ref="1380700201"/>
    <nd ref="8938483546"/>
    <nd ref="1896116302"/>
    <tag k="highway" v="secondary"/>
    <tag k="maxspeed" v="40 mph"/>
    <tag k="name" v="Station Road"/>
    <tag k="ref" v="B1085"/>
  </way>
  <way id="4261287" version="4" timestamp="2010-10-02T21:52:25Z" changeset="5940085" uid="7098" user="richardm565">
    <nd ref="25553114"/>
    <nd ref="935801056"/>
    <nd ref="935801119"/>
    <tag k="highway" v="tertiary"/>
    <tag k="name" v="Dane Hill Road"/>
  </way>
  <way id="5214280" version="11" timestamp="2025-03-15T15:30:46Z" changeset="163655947" uid="5229644" user="Nathan_A_RF">
    <nd ref="12140789876"/>
    <nd ref="12140789877"/>
    <tag k="bridge" v="yes"/>
    <tag k="bridge:name" v="Kennett Station Bridge"/>
    <tag k="bridge:ref" v="CCH 1121"/>
    <tag k="highway" v="secondary"/>
    <tag k="lanes" v="1"/>
    <tag k="layer" v="1"/>
    <tag k="maxspeed" v="40 mph"/>
    <tag k="name" v="Station Road"/>
    <tag k="oneway" v="alternating"/>
    <tag k="ref" v="B1085"/>
  </way>
  <way id="10501654" version="18" timestamp="2023-09-06T00:34:34Z" changeset="140872290" uid="13341565" user="Falsernet">
    <nd ref="213951"/>
    <nd ref="14911541"/>
    <nd ref="1568028300"/>
    <nd ref="14911542"/>
    <nd ref="14911540"/>
    <nd ref="6319520091"/>
    <nd ref="14911543"/>
    <nd ref="1568028336"/>
    <nd ref="14911545"/>
    <nd ref="1568028296"/>
    <nd ref="14911544"/>
    <nd ref="1568028294"/>
    <nd ref="1568028290"/>
    <nd ref="14911547"/>
    <nd ref="260596106"/>
    <tag k="expressway" v="yes"/>
    <tag k="highway" v="trunk"/>
    <tag k="int_ref" v="E 24"/>
    <tag k="lanes" v="2"/>
    <tag k="lit" v="no"/>
    <tag k="maxheight" v="default"/>
    <tag k="maxspeed" v="70 mph"/>
    <tag k="maxspeed:type" v="GB:nsl_dual"/>
    <tag k="national_highways:area" v="6"/>
    <tag k="oneway" v="yes"/>
    <tag k="operator" v="National Highways"/>
    <tag k="operator:wikidata" v="Q5760006"/>
    <tag k="ref" v="A14"/>
    <tag k="source:ref" v="local knowledge"/>
  </way>
  <way id="23338622" version="9" timestamp="2023-10-23T19:42:47Z" changeset="143033249" uid="7294453" user="TimGoodwyn">
    <nd ref="25553114"/>
    <nd ref="935801138"/>
    <nd ref="477465160"/>
    <nd ref="935801197"/>
    <nd ref="4901730437"/>
    <nd ref="288841779"/>
    <tag k="highway" v="secondary"/>
    <tag k="maxspeed" v="40 mph"/>
    <tag k="name" v="Station Road"/>
    <tag k="ref" v="B1085"/>
  </way>
  <way id="23338719" version="6" timestamp="2025-03-15T15:30:46Z" changeset="163655947" uid="5229644" user="Nathan_A_RF">
    <nd ref="25553107"/>
    <nd ref="12667526890"/>
    <nd ref="25553106"/>
    <tag k="bridge" v="yes"/>
    <tag k="highway" v="secondary"/>
    <tag k="layer" v="1"/>
    <tag k="maxspeed" v="40 mph"/>
    <tag k="name" v="Station Road"/>
    <tag k="ref" v="B1085"/>
  </way>
  <way id="23338720" version="7" timestamp="2025-03-15T15:30:46Z" changeset="163655947" uid="5229644" user="Nathan_A_RF">
    <nd ref="25553108"/>
    <nd ref="6485334981"/>
    <nd ref="25553107"/>
    <tag k="highway" v="secondary"/>
    <tag k="lanes" v="2"/>
    <tag k="maxspeed" v="40 mph"/>
    <tag k="name" v="Station Road"/>
    <tag k="ref" v="B1085"/>
  </way>
  <way id="24029688" version="16" timestamp="2023-09-06T00:34:34Z" changeset="140872290" uid="13341565" user="Falsernet">
    <nd ref="14911546"/>
    <nd ref="1568028298"/>
    <nd ref="1568028292"/>
    <nd ref="14911549"/>
    <nd ref="14911548"/>
    <nd ref="8849327270"/>
    <nd ref="14911550"/>
    <nd ref="14911551"/>
    <nd ref="1146065837"/>
    <tag k="expressway" v="yes"/>
    <tag k="highway" v="trunk"/>
    <tag k="int_ref" v="E 24"/>
    <tag k="lanes" v="2"/>
    <tag k="lit" v="no"/>
    <tag k="maxspeed" v="70 mph"/>
    <tag k="maxspeed:type" v="GB:nsl_dual"/>
    <tag k="national_highways:area" v="6"/>
    <tag k="oneway" v="yes"/>
    <tag k="operator" v="National Highways"/>
    <tag k="operator:wikidata" v="Q5760006"/>
    <tag k="ref" v="A14"/>
    <tag k="source:ref" v="local knowledge"/>
  </way>
  <way id="24029690" version="16" timestamp="2024-08-10T07:56:46Z" changeset="155050748" uid="15718999" user="MapSeaDee">
    <nd ref="260596106"/>
    <nd ref="14911546"/>
    <tag k="bridge" v="yes"/>
    <tag k="expressway" v="yes"/>
    <tag k="highway" v="trunk"/>
    <tag k="int_ref" v="E 24"/>
    <tag k="lanes" v="2"/>
    <tag k="layer" v="1"/>
    <tag k="lit" v="no"/>
    <tag k="maxspeed" v="70 mph"/>
    <tag k="maxspeed:type" v="GB:nsl_dual"/>
    <tag k="maxweight:signed" v="no"/>
    <tag k="national_highways:area" v="6"/>
    <tag k="oneway" v="yes"/>
    <tag k="operator" v="National Highways"/>
    <tag k="operator:wikidata" v="Q5760006"/>
    <tag k="ref" v="A14"/>
    <tag k="source:ref" v="local knowledge"/>
  </way>
  <way id="24029694" version="16" timestamp="2024-08-10T07:59:06Z" changeset="155050781" uid="15718999" user="MapSeaDee">
    <nd ref="260596270"/>
    <nd ref="14912384"/>
    <nd ref="14912383"/>
    <nd ref="14912382"/>
    <nd ref="14912381"/>
    <nd ref="6319520086"/>
    <nd ref="14912377"/>
    <nd ref="14912376"/>
    <nd ref="213948"/>
    <nd ref="14912379"/>
    <tag k="expressway" v="yes"/>
    <tag k="highway" v="trunk"/>
    <tag k="int_ref" v="E 24"/>
    <tag k="lanes" v="2"/>
    <tag k="lit" v="no"/>
    <tag k="maxheight:signed" v="no"/>
    <tag k="maxspeed" v="70 mph"/>
    <tag k="maxspeed:type" v="GB:nsl_dual"/>
    <tag k="national_highways:area" v="6"/>
    <tag k="oneway" v="yes"/>
    <tag k="operator" v="National Highways"/>
    <tag k="operator:wikidata" v="Q5760006"/>
    <tag k="ref" v="A14"/>
    <tag k="source:ref" v="local knowledge"/>
    <tag k="surface" v="asphalt"/>
  </way>
  <way id="24029695" version="17" timestamp="2024-08-10T07:56:41Z" changeset="155050743" uid="15718999" user="MapSeaDee">
    <nd ref="14912385"/>
    <nd ref="260596270"/>
    <tag k="bridge" v="yes"/>
    <tag k="expressway" v="yes"/>
    <tag k="highway" v="trunk"/>
    <tag k="int_ref" v="E 24"/>
    <tag k="lanes" v="2"/>
    <tag k="layer" v="1"/>
    <tag k="lit" v="no"/>
    <tag k="maxspeed" v="70 mph"/>
    <tag k="maxspeed:type" v="GB:nsl_dual"/>
    <tag k="maxweight:signed" v="no"/>
    <tag k="national_highways:area" v="6"/>
    <tag k="oneway" v="yes"/>
    <tag k="operator" v="National Highways"/>
    <tag k="operator:wikidata" v="Q5760006"/>
    <tag k="ref" v="A14"/>
    <tag k="source:ref" v="local knowledge"/>
    <tag k="surface" v="asphalt"/>
  </way>
  <way id="24250280" version="14" timestamp="2025-04-22T21:27:54Z" changeset="165304991" uid="3999" user="BarryMyles">
    <nd ref="262551328"/>
    <nd ref="263047269"/>
    <nd ref="9162685572"/>
    <nd ref="939458839"/>
    <nd ref="24554352"/>
    <nd ref="936983735"/>
    <nd ref="939458841"/>
    <nd ref="24554353"/>
    <nd ref="939458843"/>
    <nd ref="939458845"/>
    <nd ref="24554355"/>
    <nd ref="939458846"/>
    <nd ref="24554357"/>
    <nd ref="24554358"/>
    <nd ref="939458849"/>
    <nd ref="24554360"/>
    <nd ref="939458850"/>
    <nd ref="939458852"/>
    <nd ref="24554362"/>
    <nd ref="10173288501"/>
    <nd ref="939458853"/>
    <nd ref="24554364"/>
    <nd ref="10173288497"/>
    <nd ref="13336647"/>
    <nd ref="10173288499"/>
    <nd ref="10173288498"/>
    <nd ref="13336648"/>
    <nd ref="6525086781"/>
    <nd ref="13336650"/>
    <nd ref="13336651"/>
    <nd ref="12777184602"/>
    <nd ref="13336652"/>
    <nd ref="12777184603"/>
    <nd ref="13336653"/>
    <nd ref="13336654"/>
    <nd ref="13336655"/>
    <nd ref="8021360940"/>
    <nd ref="13336656"/>
    <nd ref="13336657"/>
    <nd ref="8167015514"/>
    <nd ref="248484998"/>
    <tag k="highway" v="secondary"/>
    <tag k="lanes" v="2"/>
    <tag k="name" v="Dane Hill Road"/>
    <tag k="ref" v="B1085"/>
    <tag k="source" v="GPS"/>
    <tag k="surface" v="asphalt"/>
  </way>
  <way id="24292863" version="16" timestamp="2025-02-26T17:18:59Z" changeset="162981132" uid="5008136" user="JayTurnr">
    <nd ref="24554349"/>
    <nd ref="263045828"/>
    <nd ref="939458862"/>
    <nd ref="263045831"/>
    <nd ref="263045834"/>
    <tag k="expressway" v="yes"/>
    <tag k="highway" v="trunk_link"/>
    <tag k="lanes" v="1"/>
    <tag k="lit" v="yes"/>
    <tag k="maintenance" v="salting"/>
    <tag k="maxspeed" v="70 mph"/>
    <tag k="maxspeed:type" v="GB:nsl_dual"/>
    <tag k="national_highways:area" v="6"/>
    <tag k="oneway" v="yes"/>
    <tag k="operator" v="National Highways"/>
    <tag k="operator:wikidata" v="Q5760006"/>
    <tag k="ref" v="A11"/>
    <tag k="source" v="GPS"/>
    <tag k="surface" v="asphalt"/>
  </way>
  <way id="24292961" version="17" timestamp="2025-02-26T17:18:59Z" changeset="162981132" uid="5008136" user="JayTurnr">
    <nd ref="263047262"/>
    <nd ref="12620932725"/>
    <nd ref="12620924968"/>
    <nd ref="263047264"/>
    <nd ref="12620924969"/>
    <nd ref="1556286164"/>
    <tag k="expressway" v="yes"/>
    <tag k="highway" v="trunk_link"/>
    <tag k="lanes" v="1"/>
    <tag k="lit" v="no"/>
    <tag k="maintenance" v="salting"/>
    <tag k="maxspeed" v="70 mph"/>
    <tag k="maxspeed:type" v="GB:nsl_dual"/>
    <tag k="national_highways:area" v="6"/>
    <tag k="oneway" v="yes"/>
    <tag k="operator" v="National Highways"/>
    <tag k="operator:wikidata" v="Q5760006"/>
    <tag k="ref" v="A11"/>
    <tag k="source" v="GPS"/>
    <tag k="surface" v="asphalt"/>
  </way>
  <way id="26363724" version="7" timestamp="2020-06-24T06:03:05Z" changeset="87063886" uid="10192121" user="jamenimm">
    <nd ref="24966365"/>
    <nd ref="935801166"/>
    <nd ref="4901730436"/>
    <nd ref="7648270405"/>
    <nd ref="4901730438"/>
    <nd ref="288841779"/>
    <tag k="highway" v="tertiary"/>
    <tag k="maxspeed" v="30 mph"/>
    <tag k="name" v="Church Lane"/>
    <tag k="source" v="survey"/>
  </way>
  <way id="80202122" version="6" timestamp="2023-10-23T19:42:47Z" changeset="143033249" uid="7294453" user="TimGoodwyn">
    <nd ref="935801119"/>
    <nd ref="24966363"/>
    <nd ref="935801156"/>
    <nd ref="935801170"/>
    <nd ref="935801140"/>
    <nd ref="24966364"/>
    <nd ref="24966365"/>
    <tag k="highway" v="tertiary"/>
    <tag k="maxspeed" v="30 mph"/>
    <tag k="name" v="Dane Hill Road"/>
  </way>
  <way id="80202124" version="4" timestamp="2020-01-13T02:43:58Z" changeset="79493096" uid="10219381" user="shhys">
    <nd ref="935801149"/>
    <nd ref="939458873"/>
    <nd ref="24966369"/>
    <nd ref="939458874"/>
    <nd ref="939458875"/>
    <nd ref="6295606941"/>
    <nd ref="24966370"/>
    <nd ref="939458876"/>
    <nd ref="939458877"/>
    <nd ref="6295606935"/>
    <nd ref="24966371"/>
    <nd ref="935801159"/>
    <nd ref="288644481"/>
    <nd ref="7127332880"/>
    <nd ref="935801087"/>
    <nd ref="935801063"/>
    <nd ref="935801195"/>
    <tag k="highway" v="tertiary"/>
    <tag k="name" v="Dane Hill Road"/>
  </way>
  <way id="80202125" version="2" timestamp="2010-10-06T19:12:45Z" changeset="5972334" uid="5926" user="c2r">
    <nd ref="935801154"/>
    <nd ref="24966366"/>
    <nd ref="935801106"/>
    <nd ref="939458882"/>
    <nd ref="939458884"/>
    <nd ref="935801120"/>
    <nd ref="24966367"/>
    <nd ref="935801175"/>
    <nd ref="935801151"/>
    <nd ref="24966368"/>
    <nd ref="935801196"/>
    <tag k="highway" v="tertiary"/>
    <tag k="name" v="Dane Hill Road"/>
  </way>
  <way id="80202127" version="2" timestamp="2016-10-09T12:33:46Z" changeset="42753039" uid="118021" user="maggot27">
    <nd ref="935801085"/>
    <nd ref="935801164"/>
    <nd ref="935801250"/>
    <nd ref="25553114"/>
    <tag k="highway" v="secondary"/>
    <tag k="maxspeed" v="40 mph"/>
    <tag k="name" v="Dane Hill Road"/>
    <tag k="ref" v="B1085"/>
  </way>
  <way id="80202128" version="2" timestamp="2018-11-26T23:45:49Z" changeset="64915489" uid="5173844" user="ndrw6">
    <nd ref="935801140"/>
    <nd ref="935801249"/>
    <nd ref="935801276"/>
    <nd ref="935801193"/>
    <nd ref="935801132"/>
    <tag k="highway" v="residential"/>
    <tag k="name" v="Saint Nicholas Close"/>
  </way>
  <way id="80202134" version="2" timestamp="2010-10-03T17:57:51Z" changeset="5946718" uid="7098" user="richardm565">
    <nd ref="935801196"/>
    <nd ref="935801149"/>
    <tag k="bridge" v="yes"/>
    <tag k="highway" v="tertiary"/>
    <tag k="layer" v="1"/>
    <tag k="name" v="Dane Hill Road"/>
  </way>
  <way id="80278402" version="1" timestamp="2010-10-03T17:57:47Z" changeset="5946718" uid="7098" user="richardm565">
    <nd ref="936983752"/>
    <nd ref="936983656"/>
    <nd ref="935801247"/>
    <tag k="highway" v="residential"/>
    <tag k="name" v="The Close"/>
  </way>
  <way id="80278409" version="3" timestamp="2025-03-15T15:30:46Z" changeset="163655947" uid="5229644" user="Nathan_A_RF">
    <nd ref="936983675"/>
    <nd ref="25553113"/>
    <nd ref="936983766"/>
    <nd ref="936983636"/>
    <nd ref="25553112"/>
    <nd ref="25553110"/>
    <nd ref="936983661"/>
    <tag k="highway" v="secondary"/>
    <tag k="maxspeed" v="60 mph"/>
    <tag k="maxspeed:type" v="GB:nsl_single"/>
    <tag k="name" v="Station Road"/>
    <tag k="ref" v="B1085"/>
  </way>
  <way id="80278414" version="5" timestamp="2025-03-17T20:52:44Z" changeset="163750154" uid="5229644" user="Nathan_A_RF">
    <nd ref="24966350"/>
    <nd ref="6656385160"/>
    <nd ref="1285253379"/>
    <nd ref="477465242"/>
    <nd ref="24966349"/>
    <nd ref="7622329105"/>
    <nd ref="477465164"/>
    <nd ref="24966348"/>
    <nd ref="24966347"/>
    <nd ref="477465162"/>
    <nd ref="24966346"/>
    <nd ref="1467457369"/>
    <nd ref="24966345"/>
    <nd ref="936983647"/>
    <nd ref="1467457330"/>
    <tag k="highway" v="tertiary"/>
    <tag k="maxspeed" v="60 mph"/>
    <tag k="maxspeed:type" v="GB:nsl_single"/>
    <tag k="name" v="Herringswell Road"/>
  </way>
  <way id="80278420" version="1" timestamp="2010-10-03T17:57:49Z" changeset="5946718" uid="7098" user="richardm565">
    <nd ref="936983633"/>
    <nd ref="936983645"/>
    <nd ref="935801247"/>
    <nd ref="935801270"/>
    <nd ref="935801153"/>
    <nd ref="935801166"/>
    <tag k="highway" v="residential"/>
    <tag k="name" v="The Close"/>
  </way>
  <way id="80278422" version="7" timestamp="2025-03-15T15:30:46Z" changeset="163655947" uid="5229644" user="Nathan_A_RF">
    <nd ref="936983661"/>
    <nd ref="6317242335"/>
    <nd ref="25553111"/>
    <nd ref="12667526889"/>
    <nd ref="6560773586"/>
    <nd ref="9052972962"/>
    <nd ref="936983621"/>
    <nd ref="25553109"/>
    <tag k="highway" v="secondary"/>
    <tag k="lanes" v="2"/>
    <tag k="maxspeed" v="40 mph"/>
    <tag k="name" v="Station Road"/>
    <tag k="ref" v="B1085"/>
  </way>
  <way id="80529093" version="5" timestamp="2025-03-15T15:30:46Z" changeset="163655947" uid="5229644" user="Nathan_A_RF">
    <nd ref="263045839"/>
    <nd ref="939458764"/>
    <nd ref="939458765"/>
    <tag k="highway" v="tertiary"/>
    <tag k="lanes" v="1"/>
    <tag k="maxspeed" v="60 mph"/>
    <tag k="maxspeed:type" v="GB:nsl_single"/>
    <tag k="name" v="Turnpike Road"/>
    <tag k="oneway" v="yes"/>
    <tag k="surface" v="asphalt"/>
  </way>
  <way id="80529094" version="5" timestamp="2025-03-15T15:30:46Z" changeset="163655947" uid="5229644" user="Nathan_A_RF">
    <nd ref="939458765"/>
    <nd ref="24554347"/>
    <tag k="highway" v="tertiary"/>
    <tag k="lanes" v="1"/>
    <tag k="maxspeed" v="60 mph"/>
    <tag k="maxspeed:type" v="GB:nsl_single"/>
    <tag k="name" v="Turnpike Road"/>
    <tag k="oneway" v="yes"/>
    <tag k="surface" v="asphalt"/>
  </way>
  <way id="80529095" version="5" timestamp="2025-02-26T17:18:59Z" changeset="162981132" uid="5008136" user="JayTurnr">
    <nd ref="939458774"/>
    <nd ref="939458776"/>
    <tag k="highway" v="secondary"/>
    <tag k="lanes" v="2"/>
    <tag k="lit" v="yes"/>
    <tag k="maxspeed" v="60 mph"/>
    <tag k="maxspeed:type" v="GB:nsl_single"/>
    <tag k="name" v="Dane Hill Road"/>
    <tag k="ref" v="B1085"/>
    <tag k="surface" v="asphalt"/>
  </way>
  <way id="80529096" version="6" timestamp="2025-02-26T17:18:59Z" changeset="162981132" uid="5008136" user="JayTurnr">
    <nd ref="939458774"/>
    <nd ref="9162685573"/>
    <nd ref="9162685574"/>
    <nd ref="24554350"/>
    <tag k="highway" v="secondary"/>
    <tag k="lanes" v="1"/>
    <tag k="lit" v="yes"/>
    <tag k="maxspeed" v="60 mph"/>
    <tag k="maxspeed:type" v="GB:nsl_single"/>
    <tag k="name" v="Dane Hill Road"/>
    <tag k="oneway" v="yes"/>
    <tag k="ref" v="B1085"/>
    <tag k="surface" v="asphalt"/>
  </way>
  <way id="80529098" version="6" timestamp="2025-02-26T17:18:59Z" changeset="162981132" uid="5008136" user="JayTurnr">
    <nd ref="939458776"/>
    <nd ref="262551328"/>
    <tag k="bridge" v="yes"/>
    <tag k="highway" v="secondary"/>
    <tag k="lanes" v="2"/>
    <tag k="layer" v="1"/>
    <tag k="lit" v="yes"/>
    <tag k="maxspeed" v="60 mph"/>
    <tag k="maxspeed:type" v="GB:nsl_single"/>
    <tag k="name" v="Dane Hill Road"/>
    <tag k="ref" v="B1085"/>
    <tag k="surface" v="asphalt"/>
  </way>
  <way id="80529099" version="6" timestamp="2025-03-15T15:30:46Z" changeset="163655947" uid="5229644" user="Nathan_A_RF">
    <nd ref="939458813"/>
    <nd ref="935801240"/>
    <nd ref="9162685565"/>
    <nd ref="24966357"/>
    <nd ref="9162685566"/>
    <nd ref="24966358"/>
    <nd ref="935801253"/>
    <nd ref="24966359"/>
    <nd ref="6458002119"/>
    <nd ref="935801190"/>
    <nd ref="24966360"/>
    <nd ref="935801152"/>
    <nd ref="935801209"/>
    <nd ref="24966361"/>
    <nd ref="935801081"/>
    <nd ref="24966362"/>
    <nd ref="935801107"/>
    <nd ref="935801085"/>
    <tag k="highway" v="secondary"/>
    <tag k="lanes" v="2"/>
    <tag k="maxspeed" v="60 mph"/>
    <tag k="maxspeed:type" v="GB:nsl_single"/>
    <tag k="name" v="Dane Hill Road"/>
    <tag k="ref" v="B1085"/>
    <tag k="surface" v="asphalt"/>
  </way>
  <way id="80529102" version="5" timestamp="2025-03-15T15:30:46Z" changeset="163655947" uid="5229644" user="Nathan_A_RF">
    <nd ref="939458813"/>
    <nd ref="9162685564"/>
    <nd ref="939458825"/>
    <nd ref="263045843"/>
    <tag k="highway" v="secondary"/>
    <tag k="lanes" v="1"/>
    <tag k="maxspeed" v="60 mph"/>
    <tag k="maxspeed:type" v="GB:nsl_single"/>
    <tag k="name" v="Dane Hill Road"/>
    <tag k="oneway" v="yes"/>
    <tag k="ref" v="B1085"/>
    <tag k="surface" v="asphalt"/>
  </way>
  <way id="99063107" version="14" timestamp="2023-09-06T00:34:34Z" changeset="140872290" uid="13341565" user="Falsernet">
    <nd ref="1146065866"/>
    <nd ref="14911552"/>
    <nd ref="14911553"/>
    <nd ref="14911554"/>
    <nd ref="14911556"/>
    <nd ref="14911558"/>
    <nd ref="14911559"/>
    <nd ref="1568038369"/>
    <nd ref="14911560"/>
    <nd ref="14911564"/>
    <nd ref="14911566"/>
    <nd ref="1370466645"/>
    <tag k="expressway" v="yes"/>
    <tag k="highway" v="trunk"/>
    <tag k="int_ref" v="E 24"/>
    <tag k="lanes" v="2"/>
    <tag k="lit" v="no"/>
    <tag k="maxspeed" v="70 mph"/>
    <tag k="maxspeed:type" v="GB:nsl_dual"/>
    <tag k="national_highways:area" v="6"/>
    <tag k="oneway" v="yes"/>
    <tag k="operator" v="National Highways"/>
    <tag k="operator:wikidata" v="Q5760006"/>
    <tag k="ref" v="A14"/>
    <tag k="source:ref" v="local knowledge"/>
  </way>
  <way id="99063125" version="15" timestamp="2024-08-10T07:56:29Z" changeset="155050781" uid="15718999" user="MapSeaDee">
    <nd ref="1146065763"/>
    <nd ref="14912389"/>
    <nd ref="14912388"/>
    <nd ref="8849327269"/>
    <nd ref="14912387"/>
    <nd ref="1568028321"/>
    <nd ref="14912386"/>
    <nd ref="14912385"/>
    <tag k="expressway" v="yes"/>
    <tag k="highway" v="trunk"/>
    <tag k="int_ref" v="E 24"/>
    <tag k="lanes" v="2"/>
    <tag k="lit" v="no"/>
    <tag k="maxheight:signed" v="no"/>
    <tag k="maxspeed" v="70 mph"/>
    <tag k="maxspeed:type" v="GB:nsl_dual"/>
    <tag k="national_highways:area" v="6"/>
    <tag k="oneway" v="yes"/>
    <tag k="operator" v="National Highways"/>
    <tag k="operator:wikidata" v="Q5760006"/>
    <tag k="ref" v="A14"/>
    <tag k="source:ref" v="local knowledge"/>
    <tag k="surface" v="asphalt"/>
  </way>
  <way id="122713097" version="10" timestamp="2024-08-10T07:54:34Z" changeset="155050743" uid="15718999" user="MapSeaDee">
    <nd ref="1370466580"/>
    <nd ref="1370466444"/>
    <nd ref="14912404"/>
    <nd ref="14912403"/>
    <nd ref="14912396"/>
    <nd ref="14912395"/>
    <nd ref="14912394"/>
    <nd ref="14912393"/>
    <nd ref="14912392"/>
    <nd ref="14912391"/>
    <nd ref="14912390"/>
    <nd ref="1146065861"/>
    <tag k="expressway" v="yes"/>
    <tag k="highway" v="trunk"/>
    <tag k="int_ref" v="E 24"/>
    <tag k="lanes" v="2"/>
    <tag k="lit" v="no"/>
    <tag k="maxspeed" v="70 mph"/>
    <tag k="maxspeed:type" v="GB:nsl_dual"/>
    <tag k="national_highways:area" v="6"/>
    <tag k="oneway" v="yes"/>
    <tag k="operator" v="National Highways"/>
    <tag k="operator:wikidata" v="Q5760006"/>
    <tag k="ref" v="A14"/>
    <tag k="source:ref" v="local knowledge"/>
    <tag k="surface" v="asphalt"/>
  </way>
  <way id="142189974" version="12" timestamp="2025-02-26T17:18:59Z" changeset="162981132" uid="5008136" user="JayTurnr">
    <nd ref="1556286164"/>
    <nd ref="263047267"/>
    <nd ref="1556286096"/>
    <tag k="expressway" v="yes"/>
    <tag k="highway" v="trunk_link"/>
    <tag k="lanes" v="1"/>
    <tag k="lit" v="yes"/>
    <tag k="maintenance" v="salting"/>
    <tag k="maxspeed" v="70 mph"/>
    <tag k="maxspeed:type" v="GB:nsl_dual"/>
    <tag k="national_highways:area" v="6"/>
    <tag k="oneway" v="yes"/>
    <tag k="operator" v="National Highways"/>
    <tag k="operator:wikidata" v="Q5760006"/>
    <tag k="ref" v="A11"/>
    <tag k="source" v="GPS"/>
    <tag k="surface" v="asphalt"/>
  </way>
  <way id="142189985" version="12" timestamp="2025-02-26T17:18:59Z" changeset="162981132" uid="5008136" user="JayTurnr">
    <nd ref="263045834"/>
    <nd ref="263045835"/>
    <nd ref="12620924971"/>
    <nd ref="12620924972"/>
    <nd ref="263045837"/>
    <tag k="expressway" v="yes"/>
    <tag k="highway" v="trunk_link"/>
    <tag k="lanes" v="1"/>
    <tag k="lit" v="no"/>
    <tag k="maintenance" v="salting"/>
    <tag k="maxspeed" v="70 mph"/>
    <tag k="maxspeed:type" v="GB:nsl_dual"/>
    <tag k="national_highways:area" v="6"/>
    <tag k="oneway" v="yes"/>
    <tag k="operator" v="National Highways"/>
    <tag k="operator:wikidata" v="Q5760006"/>
    <tag k="ref" v="A11"/>
    <tag k="source" v="GPS"/>
    <tag k="surface" v="asphalt"/>
  </way>
  <way id="179268122" version="3" timestamp="2021-03-10T13:19:17Z" changeset="100782151" uid="5173844" user="ndrw6">
    <nd ref="1896116302"/>
    <nd ref="8503718296"/>
    <tag k="highway" v="secondary"/>
    <tag k="maxspeed" v="30 mph"/>
    <tag k="name" v="Station Road"/>
    <tag k="ref" v="B1085"/>
  </way>
  <way id="204492728" version="4" timestamp="2025-03-15T15:30:46Z" changeset="163655947" uid="5229644" user="Nathan_A_RF">
    <nd ref="936983701"/>
    <nd ref="477465219"/>
    <nd ref="936983720"/>
    <nd ref="24554344"/>
    <nd ref="24554345"/>
    <nd ref="9162685553"/>
    <nd ref="939458866"/>
    <nd ref="24554346"/>
    <nd ref="939458867"/>
    <nd ref="939458765"/>
    <tag k="highway" v="tertiary"/>
    <tag k="lanes" v="2"/>
    <tag k="maxspeed" v="60 mph"/>
    <tag k="maxspeed:type" v="GB:nsl_single"/>
    <tag k="name" v="Turnpike Road"/>
    <tag k="surface" v="asphalt"/>
  </way>
  <way id="204492729" version="15" timestamp="2025-02-26T17:20:09Z" changeset="162981181" uid="5008136" user="JayTurnr">
    <nd ref="213907"/>
    <nd ref="12620932409"/>
    <nd ref="569270"/>
    <nd ref="569271"/>
    <nd ref="11919224947"/>
    <nd ref="213908"/>
    <nd ref="11919224953"/>
    <nd ref="263045837"/>
    <tag k="expressway" v="yes"/>
    <tag k="foot" v="no"/>
    <tag k="highway" v="trunk"/>
    <tag k="lanes" v="2"/>
    <tag k="lit" v="no"/>
    <tag k="maintenance" v="salting"/>
    <tag k="maxheight" v="default"/>
    <tag k="maxspeed" v="70 mph"/>
    <tag k="maxspeed:type" v="GB:nsl_dual"/>
    <tag k="national_highways:area" v="6"/>
    <tag k="oneway" v="yes"/>
    <tag k="operator" v="National Highways"/>
    <tag k="operator:wikidata" v="Q5760006"/>
    <tag k="ref" v="A11"/>
    <tag k="sidewalk" v="no"/>
    <tag k="surface" v="asphalt"/>
  </way>
  <way id="406436140" version="2" timestamp="2018-12-18T18:27:25Z" changeset="65589365" uid="364" user="Edward">
    <nd ref="4085023921"/>
    <nd ref="4085024232"/>
    <nd ref="4085023949"/>
    <nd ref="4085024012"/>
    <nd ref="4085023921"/>
    <tag k="amenity" v="place_of_worship"/>
    <tag k="building" v="church"/>
    <tag k="denomination" v="anglican"/>
    <tag k="name" v="St Nicholas"/>
    <tag k="religion" v="christian"/>
    <tag k="wikidata" v="Q17543570"/>
  </way>
  <way id="528467450" version="9" timestamp="2025-02-26T17:12:08Z" changeset="162980846" uid="5008136" user="JayTurnr">
    <nd ref="263045837"/>
    <nd ref="1556285993"/>
    <nd ref="213909"/>
    <nd ref="1556286052"/>
    <nd ref="213910"/>
    <nd ref="11816337124"/>
    <nd ref="213911"/>
    <tag k="expressway" v="yes"/>
    <tag k="foot" v="no"/>
    <tag k="highway" v="trunk"/>
    <tag k="lanes" v="2"/>
    <tag k="lit" v="no"/>
    <tag k="maintenance" v="salting"/>
    <tag k="maxspeed" v="70 mph"/>
    <tag k="maxspeed:type" v="GB:nsl_dual"/>
    <tag k="national_highways:area" v="6"/>
    <tag k="oneway" v="yes"/>
    <tag k="operator" v="National Highways"/>
    <tag k="operator:wikidata" v="Q5760006"/>
    <tag k="ref" v="A11"/>
    <tag k="sidewalk" v="no"/>
    <tag k="surface" v="asphalt"/>
  </way>
  <way id="674559079" version="3" timestamp="2020-01-23T10:20:03Z" changeset="79968082" uid="10219386" user="bathines">
    <nd ref="6317242335"/>
    <nd ref="7153555435"/>
    <nd ref="6317242336"/>
    <nd ref="6904744564"/>
    <nd ref="6317242337"/>
    <nd ref="6317242338"/>
    <tag k="highway" v="residential"/>
  </way>
  <way id="904436832" version="2" timestamp="2023-03-12T19:19:28Z" changeset="133598205" uid="493595" user="Yorvik Prestigitator">
    <nd ref="8399652527"/>
    <nd ref="8399652526"/>
    <nd ref="8399652525"/>
    <nd ref="8399652524"/>
    <nd ref="10731272013"/>
    <nd ref="10731272017"/>
    <nd ref="8399652527"/>
    <tag k="amenity" v="community_centre"/>
    <tag k="building" v="public"/>
    <tag k="community_centre" v="village_hall"/>
    <tag k="name" v="Kentford and Kennett Village Hall"/>
    <tag k="source" v="Bing"/>
  </way>
  <way id="915475128" version="2" timestamp="2024-01-03T11:47:18Z" changeset="145836083" uid="84263" user="Robert Whittaker">
    <nd ref="8503718137"/>
    <nd ref="8503718136"/>
    <nd ref="8503718135"/>
    <nd ref="8503718133"/>
    <nd ref="8503718132"/>
    <nd ref="8503718134"/>
    <nd ref="8503718130"/>
    <nd ref="8503718131"/>
    <nd ref="8503718137"/>
    <tag k="addr:city" v="Newmarket"/>
    <tag k="addr:postcode" v="CB8 7PP"/>
    <tag k="addr:street" v="Newmarket Road"/>
    <tag k="addr:village" v="Kennett"/>
    <tag k="amenity" v="pub"/>
    <tag k="building" v="yes"/>
    <tag k="fhrs:id" v="336384"/>
    <tag k="name" v="The Bell"/>
    <tag k="source:addr" v="FHRS Open Data"/>
    <tag k="wikidata" v="Q26616646"/>
  </way>
  <way id="983368627" version="1" timestamp="2021-09-14T19:48:24Z" changeset="111212483" uid="2428436" user="ND184BF239D">
    <nd ref="9092321265"/>
    <nd ref="9092321266"/>
    <nd ref="9092321267"/>
    <nd ref="9092321268"/>
    <nd ref="9092321269"/>
    <nd ref="9092321270"/>
    <nd ref="9092321271"/>
    <nd ref="9092321272"/>
    <nd ref="9092321273"/>
    <nd ref="9092321274"/>
    <nd ref="9092321275"/>
    <nd ref="9092321276"/>
    <nd ref="9092321277"/>
    <nd ref="9092321278"/>
    <nd ref="9092321279"/>
    <nd ref="9092321280"/>
    <nd ref="9092321281"/>
    <nd ref="9092321282"/>
    <nd ref="9092321283"/>
    <nd ref="9092321284"/>
    <nd ref="9092321285"/>
    <nd ref="9092321286"/>
    <nd ref="9092321287"/>
    <nd ref="9092321288"/>
    <nd ref="9092321289"/>
    <nd ref="9092321290"/>
    <nd ref="9092321291"/>
    <nd ref="9092321292"/>
    <nd ref="9092321293"/>
    <nd ref="9092321294"/>
    <nd ref="9092321295"/>
    <nd ref="9092321296"/>
    <nd ref="9092321297"/>
    <nd ref="9092321298"/>
    <nd ref="9092321299"/>
    <nd ref="9092321300"/>
    <nd ref="9092321301"/>
    <nd ref="9092321302"/>
    <nd ref="9092321303"/>
    <nd ref="9092321304"/>
    <nd ref="9092321305"/>
    <nd ref="9092321306"/>
    <nd ref="9092321307"/>
    <nd ref="9092321308"/>
    <nd ref="9092321309"/>
    <nd ref="9092321265"/>
    <tag k="addr:city" v="Kennett, Newmarket"/>
    <tag k="addr:housename" v="WildTracks Offroad Activity Park"/>
    <tag k="addr:postcode" v="CB8 7QJ"/>
    <tag k="addr:street" v="Chippenham Road"/>
    <tag k="building" v="no"/>
    <tag k="fee" v="yes"/>
    <tag k="leisure" v="sports_centre"/>
    <tag k="name" v="WildTracks Outdoor Activity Park"/>
    <tag k="phone" v="+44 1638 751918"/>
    <tag k="sport" v="karting;motocross;quad_biking;archery;clay_shooting"/>
    <tag k="website" v="https://www.wildtracksltd.co.uk/"/>
  </way>
  <way id="1136043503" version="1" timestamp="2023-01-29T00:14:48Z" changeset="131826273" uid="3999" user="BarryMyles">
    <nd ref="10590009978"/>
    <nd ref="10590009979"/>
    <nd ref="10590009980"/>
    <nd ref="10590009981"/>
    <nd ref="10590009982"/>
    <nd ref="10590009983"/>
    <nd ref="10590009978"/>
    <tag k="addr:city" v="Kentford"/>
    <tag k="addr:housenumber" v="44"/>
    <tag k="addr:postcode" v="CB8 7QD"/>
    <tag k="addr:street" v="Station Road"/>
    <tag k="building" v="yes"/>
    <tag k="name" v="Kentford Telephone Exchange"/>
    <tag k="operator" v="Openreach"/>
    <tag k="operator:wikidata" v="Q7096543"/>
    <tag k="ref" v="EAKEN"/>
    <tag k="telecom" v="exchange"/>
  </way>
  <way id="1217874902" version="2" timestamp="2025-02-26T17:18:59Z" changeset="162981132" uid="5008136" user="JayTurnr">
    <nd ref="263045841"/>
    <nd ref="936983690"/>
    <nd ref="9162685559"/>
    <nd ref="24554350"/>
    <nd ref="9162685560"/>
    <nd ref="263045839"/>
    <nd ref="9162685557"/>
    <nd ref="9162685561"/>
    <nd ref="24554347"/>
    <tag k="highway" v="secondary"/>
    <tag k="junction" v="roundabout"/>
    <tag k="lit" v="yes"/>
    <tag k="maxspeed" v="60 mph"/>
    <tag k="maxspeed:type" v="GB:nsl_single"/>
    <tag k="surface" v="asphalt"/>
  </way>
  <way id="1217874903" version="2" timestamp="2025-02-26T17:18:59Z" changeset="162981132" uid="5008136" user="JayTurnr">
    <nd ref="24554347"/>
    <nd ref="263045845"/>
    <nd ref="936983671"/>
    <nd ref="9162685554"/>
    <nd ref="24554348"/>
    <tag k="highway" v="secondary"/>
    <tag k="junction" v="roundabout"/>
    <tag k="lit" v="yes"/>
    <tag k="maxspeed" v="60 mph"/>
    <tag k="maxspeed:type" v="GB:nsl_single"/>
    <tag k="surface" v="asphalt"/>
  </way>
  <way id="1217874904" version="1" timestamp="2023-10-23T19:42:47Z" changeset="143033249" uid="7294453" user="TimGoodwyn">
    <nd ref="24966365"/>
    <nd ref="935801139"/>
    <nd ref="939458832"/>
    <nd ref="6908004567"/>
    <nd ref="8950638841"/>
    <nd ref="939458834"/>
    <nd ref="935801154"/>
    <tag k="highway" v="tertiary"/>
    <tag k="maxspeed" v="30 mph"/>
    <tag k="name" v="Dane Hill Road"/>
  </way>
  <way id="1217874905" version="1" timestamp="2023-10-23T19:42:47Z" changeset="143033249" uid="7294453" user="TimGoodwyn">
    <nd ref="288841779"/>
    <nd ref="936983675"/>
    <tag k="highway" v="secondary"/>
    <tag k="maxspeed" v="40 mph"/>
    <tag k="name" v="Station Road"/>
    <tag k="ref" v="B1085"/>
  </way>
  <way id="1217874906" version="2" timestamp="2025-02-26T17:18:59Z" changeset="162981132" uid="5008136" user="JayTurnr">
    <nd ref="263045843"/>
    <nd ref="9162685563"/>
    <nd ref="24554349"/>
    <tag k="highway" v="secondary"/>
    <tag k="junction" v="roundabout"/>
    <tag k="lit" v="yes"/>
    <tag k="maxspeed" v="60 mph"/>
    <tag k="maxspeed:type" v="GB:nsl_single"/>
    <tag k="surface" v="asphalt"/>
  </way>
  <way id="1217874907" version="2" timestamp="2025-02-26T17:18:59Z" changeset="162981132" uid="5008136" user="JayTurnr">
    <nd ref="24554349"/>
    <nd ref="9162685556"/>
    <nd ref="9162685558"/>
    <nd ref="263045841"/>
    <tag k="highway" v="secondary"/>
    <tag k="junction" v="roundabout"/>
    <tag k="lit" v="yes"/>
    <tag k="maxspeed" v="60 mph"/>
    <tag k="maxspeed:type" v="GB:nsl_single"/>
    <tag k="surface" v="asphalt"/>
  </way>
  <way id="1363120141" version="1" timestamp="2025-02-26T17:18:59Z" changeset="162981132" uid="5008136" user="JayTurnr">
    <nd ref="1556286096"/>
    <nd ref="9162685567"/>
    <nd ref="12620932726"/>
    <nd ref="263047269"/>
    <tag k="expressway" v="yes"/>
    <tag k="highway" v="trunk_link"/>
    <tag k="lanes" v="2"/>
    <tag k="lit" v="yes"/>
    <tag k="maintenance" v="salting"/>
    <tag k="maxspeed" v="70 mph"/>
    <tag k="maxspeed:type" v="GB:nsl_dual"/>
    <tag k="national_highways:area" v="6"/>
    <tag k="oneway" v="yes"/>
    <tag k="operator" v="National Highways"/>
    <tag k="operator:wikidata" v="Q5760006"/>
    <tag k="ref" v="A11"/>
    <tag k="source" v="GPS"/>
    <tag k="surface" v="asphalt"/>
  </way>
  <way id="1367806751" version="1" timestamp="2025-03-15T15:30:46Z" changeset="163655947" uid="5229644" user="Nathan_A_RF">
    <nd ref="12140789877"/>
    <nd ref="25553108"/>
    <tag k="highway" v="secondary"/>
    <tag k="lanes" v="1"/>
    <tag k="maxspeed" v="40 mph"/>
    <tag k="name" v="Station Road"/>
    <tag k="oneway" v="alternating"/>
    <tag k="ref" v="B1085"/>
  </way>
  <way id="1367806752" version="1" timestamp="2025-03-15T15:30:46Z" changeset="163655947" uid="5229644" user="Nathan_A_RF">
    <nd ref="25553109"/>
    <nd ref="12140789876"/>
    <tag k="highway" v="secondary"/>
    <tag k="lanes" v="1"/>
    <tag k="maxspeed" v="40 mph"/>
    <tag k="name" v="Station Road"/>
    <tag k="oneway" v="alternating"/>
    <tag k="ref" v="B1085"/>
  </way>

</osm>
