<?xml version="1.0" encoding="UTF-8"?>
<osm version="0.6" generator="Overpass API 0.7.62.5 1bd436f1">
<note>The data included in this document is from www.openstreetmap.org. The data is made available under ODbL.</note>
<meta osm_base="2025-04-27T07:34:15Z" areas="2025-02-06T02:17:44Z"/>

  <node id="213907" lat="52.2943830" lon="0.4752260" version="2" timestamp="2025-02-26T17:20:09Z" changeset="162981181" uid="5008136" user="JayTurnr"/>
  <node id="213944" lat="52.2725749" lon="0.4500256" version="7" timestamp="2025-02-27T20:04:42Z" changeset="163027132" uid="5229644" user="Nathan_A_RF">
    <tag k="highway" v="motorway_junction"/>
    <tag k="name" v="Waterhall"/>
  </node>
  <node id="213951" lat="52.2737173" lon="0.4524772" version="2" timestamp="2012-01-26T17:42:44Z" changeset="10505042" uid="504708" user="HillWithSmallFields"/>
  <node id="13336610" lat="52.2694966" lon="0.4451185" version="4" timestamp="2025-02-27T20:04:42Z" changeset="163027132" uid="5229644" user="Nathan_A_RF"/>
  <node id="13336681" lat="52.3065376" lon="0.4228224" version="2" timestamp="2022-01-18T02:52:46Z" changeset="116278091" uid="7463" user="kesterlester"/>
  <node id="14912379" lat="52.2736210" lon="0.4525286" version="1" timestamp="2007-01-21T00:42:42Z" changeset="198894" uid="2955" user="Matthew Newton">
    <tag k="created_by" v="JOSM"/>
  </node>
  <node id="24966353" lat="52.2745237" lon="0.4649724" version="3" timestamp="2019-03-05T22:47:49Z" changeset="67824460" uid="24119" user="Mauls"/>
  <node id="24966389" lat="52.3109654" lon="0.4612620" version="4" timestamp="2018-09-30T13:35:00Z" changeset="63062936" uid="84263" user="Robert Whittaker"/>
  <node id="24968987" lat="52.3165413" lon="0.4383789" version="1" timestamp="2007-01-08T21:50:33Z" changeset="190545" uid="4734" user="KoolKat">
    <tag k="created_by" v="JOSM"/>
  </node>
  <node id="248410019" lat="52.2690536" lon="0.4116368" version="5" timestamp="2011-12-20T21:13:43Z" changeset="10167088" uid="5926" user="c2r"/>
  <node id="260596270" lat="52.2766251" lon="0.4746301" version="3" timestamp="2011-12-29T19:38:39Z" changeset="10238938" uid="5926" user="c2r"/>
  <node id="262551328" lat="52.2891584" lon="0.4697049" version="4" timestamp="2025-02-26T17:16:43Z" changeset="162981023" uid="5008136" user="JayTurnr"/>
  <node id="263045837" lat="52.2850632" lon="0.4662819" version="3" timestamp="2025-02-26T17:16:43Z" changeset="162981023" uid="5008136" user="JayTurnr"/>
  <node id="477465213" lat="52.3000504" lon="0.4812292" version="1" timestamp="2009-08-30T16:02:33Z" changeset="2314579" uid="66869" user="Simon Daw"/>
  <node id="936983701" lat="52.2951894" lon="0.4763368" version="1" timestamp="2010-10-03T17:57:45Z" changeset="5946718" uid="7098" user="richardm565"/>
  <node id="1184006707" lat="52.3022454" lon="0.4765236" version="3" timestamp="2016-07-05T15:47:58Z" changeset="40502876" uid="705850" user="Cebderby"/>
  <node id="1184006708" lat="52.3023866" lon="0.4767886" version="4" timestamp="2016-07-05T15:47:58Z" changeset="40502876" uid="705850" user="Cebderby"/>
  <node id="1556286066" lat="52.2802206" lon="0.4610858" version="2" timestamp="2025-02-26T17:16:43Z" changeset="162981023" uid="5008136" user="JayTurnr"/>
  <node id="2547437800" lat="52.2813326" lon="0.4123642" version="2" timestamp="2018-10-11T10:05:07Z" changeset="63410712" uid="84263" user="Robert Whittaker"/>
  <node id="9868291281" lat="52.3039242" lon="0.4341907" version="1" timestamp="2022-07-05T13:46:06Z" changeset="123236547" uid="281267" user="smb1001"/>
  <way id="3999441" version="21" timestamp="2025-02-26T17:32:10Z" changeset="162981679" uid="5008136" user="JayTurnr">
    <nd ref="1184006709"/>
    <nd ref="213900"/>
    <nd ref="3796885792"/>
    <nd ref="1905236134"/>
    <nd ref="213901"/>
    <nd ref="1556286075"/>
    <nd ref="213902"/>
    <nd ref="1556286058"/>
    <nd ref="213903"/>
    <nd ref="12620942873"/>
    <nd ref="1556286061"/>
    <nd ref="213904"/>
    <nd ref="213905"/>
    <nd ref="213906"/>
    <nd ref="213907"/>
    <tag k="expressway" v="yes"/>
    <tag k="foot" v="no"/>
    <tag k="highway" v="trunk"/>
    <tag k="lanes" v="2"/>
    <tag k="lit" v="no"/>
    <tag k="maintenance" v="salting"/>
    <tag k="maxspeed" v="70 mph"/>
    <tag k="maxspeed:type" v="GB:nsl_dual"/>
    <tag k="name" v="Red Lodge Bypass"/>
    <tag k="national_highways:area" v="6"/>
    <tag k="oneway" v="yes"/>
    <tag k="operator" v="National Highways"/>
    <tag k="operator:wikidata" v="Q5760006"/>
    <tag k="ref" v="A11"/>
    <tag k="sidewalk" v="no"/>
    <tag k="surface" v="asphalt"/>
  </way>
  <way id="3999442" version="16" timestamp="2025-02-26T17:12:08Z" changeset="162980846" uid="5008136" user="JayTurnr">
    <nd ref="213914"/>
    <nd ref="262663989"/>
    <tag k="expressway" v="yes"/>
    <tag k="foot" v="no"/>
    <tag k="highway" v="trunk"/>
    <tag k="lanes" v="2"/>
    <tag k="maintenance" v="salting"/>
    <tag k="maxspeed" v="70 mph"/>
    <tag k="maxspeed:type" v="GB:nsl_dual"/>
    <tag k="national_highways:area" v="6"/>
    <tag k="oneway" v="yes"/>
    <tag k="operator" v="National Highways"/>
    <tag k="operator:wikidata" v="Q5760006"/>
    <tag k="ref" v="A11"/>
    <tag k="sidewalk" v="no"/>
    <tag k="surface" v="asphalt"/>
  </way>
  <way id="3999443" version="26" timestamp="2025-02-26T17:21:02Z" changeset="162981219" uid="5008136" user="JayTurnr">
    <nd ref="1556286066"/>
    <nd ref="1556286021"/>
    <nd ref="12620924967"/>
    <nd ref="569276"/>
    <nd ref="569275"/>
    <nd ref="263047262"/>
    <nd ref="569274"/>
    <nd ref="12620924970"/>
    <nd ref="12620932408"/>
    <nd ref="12620911593"/>
    <nd ref="569273"/>
    <nd ref="569272"/>
    <nd ref="569269"/>
    <nd ref="569268"/>
    <tag k="expressway" v="yes"/>
    <tag k="foot" v="no"/>
    <tag k="highway" v="trunk"/>
    <tag k="lanes" v="2"/>
    <tag k="lit" v="no"/>
    <tag k="maintenance" v="salting"/>
    <tag k="maxheight" v="default"/>
    <tag k="maxspeed" v="70 mph"/>
    <tag k="maxspeed:type" v="GB:nsl_dual"/>
    <tag k="national_highways:area" v="6"/>
    <tag k="oneway" v="yes"/>
    <tag k="operator" v="National Highways"/>
    <tag k="operator:wikidata" v="Q5760006"/>
    <tag k="ref" v="A11"/>
    <tag k="sidewalk" v="no"/>
    <tag k="surface" v="asphalt"/>
  </way>
  <way id="4040548" version="19" timestamp="2025-02-26T17:09:03Z" changeset="162980683" uid="5008136" user="JayTurnr">
    <nd ref="1556285999"/>
    <nd ref="14911447"/>
    <nd ref="12620914988"/>
    <nd ref="14911449"/>
    <nd ref="5455079613"/>
    <nd ref="13336613"/>
    <tag k="destination:ref" v="A11"/>
    <tag k="expressway" v="yes"/>
    <tag k="highway" v="trunk_link"/>
    <tag k="lanes" v="2"/>
    <tag k="lit" v="no"/>
    <tag k="maintenance" v="salting"/>
    <tag k="maxspeed" v="70 mph"/>
    <tag k="maxspeed:type" v="GB:nsl_dual"/>
    <tag k="national_highways:area" v="6"/>
    <tag k="oneway" v="yes"/>
    <tag k="operator" v="National Highways"/>
    <tag k="operator:wikidata" v="Q5760006"/>
    <tag k="ref" v="A1304"/>
    <tag k="sidewalk" v="no"/>
    <tag k="surface" v="asphalt"/>
  </way>
  <way id="4041755" version="13" timestamp="2025-02-26T17:12:08Z" changeset="162980846" uid="5008136" user="JayTurnr">
    <nd ref="213917"/>
    <nd ref="213916"/>
    <nd ref="213951"/>
    <tag k="expressway" v="yes"/>
    <tag k="highway" v="trunk"/>
    <tag k="int_ref" v="E 24"/>
    <tag k="lanes" v="2"/>
    <tag k="lit" v="no"/>
    <tag k="maxheight" v="default"/>
    <tag k="maxspeed" v="70 mph"/>
    <tag k="national_highways:area" v="6"/>
    <tag k="oneway" v="yes"/>
    <tag k="operator" v="National Highways"/>
    <tag k="operator:wikidata" v="Q5760006"/>
    <tag k="ref" v="A14"/>
    <tag k="source:ref" v="local knowledge;survey"/>
    <tag k="surface" v="asphalt"/>
  </way>
  <way id="4213398" version="13" timestamp="2022-07-05T13:46:06Z" changeset="123236547" uid="281267" user="smb1001">
    <nd ref="13336666"/>
    <nd ref="5940659258"/>
    <nd ref="24966407"/>
    <nd ref="248484990"/>
    <nd ref="9868291294"/>
    <nd ref="1124252337"/>
    <nd ref="1606677958"/>
    <nd ref="24966405"/>
    <tag k="highway" v="unclassified"/>
    <tag k="maxspeed" v="30 mph"/>
    <tag k="name" v="New Street"/>
  </way>
  <way id="4213411" version="6" timestamp="2025-02-27T20:02:02Z" changeset="163027046" uid="5229644" user="Nathan_A_RF">
    <nd ref="24966355"/>
    <nd ref="1046572559"/>
    <nd ref="24966354"/>
    <tag k="alt_name" v="Moulton Road"/>
    <tag k="bridge" v="yes"/>
    <tag k="highway" v="tertiary"/>
    <tag k="layer" v="1"/>
    <tag k="maxspeed" v="60 mph"/>
    <tag k="maxspeed:type" v="GB:nsl_single"/>
    <tag k="name" v="Norwich Road"/>
  </way>
  <way id="4213414" version="8" timestamp="2024-04-14T10:19:55Z" changeset="149985767" uid="5229644" user="Nathan_A_RF">
    <nd ref="24966356"/>
    <nd ref="11517065170"/>
    <nd ref="8167801709"/>
    <nd ref="24966355"/>
    <tag k="alt_name" v="Moulton Road"/>
    <tag k="highway" v="tertiary"/>
    <tag k="maxspeed" v="60 mph"/>
    <tag k="maxspeed:type" v="GB:nsl_single"/>
    <tag k="name" v="Norwich Road"/>
  </way>
  <way id="4213416" version="8" timestamp="2025-02-27T20:02:02Z" changeset="163027046" uid="5229644" user="Nathan_A_RF">
    <nd ref="24966354"/>
    <nd ref="1046572581"/>
    <nd ref="263050723"/>
    <tag k="alt_name" v="Moulton Road"/>
    <tag k="highway" v="tertiary"/>
    <tag k="maxspeed" v="60 mph"/>
    <tag k="maxspeed:type" v="GB:nsl_single"/>
    <tag k="name" v="Norwich Road"/>
  </way>
  <way id="4213418" version="12" timestamp="2025-02-27T20:04:42Z" changeset="163027132" uid="5229644" user="Nathan_A_RF">
    <nd ref="13336610"/>
    <nd ref="12623992383"/>
    <nd ref="13336626"/>
    <nd ref="1147124279"/>
    <nd ref="87863372"/>
    <nd ref="248409981"/>
    <tag k="highway" v="primary"/>
    <tag k="lanes" v="2"/>
    <tag k="maxspeed" v="60 mph"/>
    <tag k="maxspeed:type" v="GB:nsl_single"/>
    <tag k="old_ref" v="A11"/>
    <tag k="ref" v="A1304"/>
    <tag k="surface" v="asphalt"/>
  </way>
  <way id="4213420" version="9" timestamp="2022-12-15T20:50:55Z" changeset="130130736" uid="7463" user="kesterlester">
    <nd ref="24969094"/>
    <nd ref="24969051"/>
    <nd ref="248485019"/>
    <nd ref="10266194789"/>
    <nd ref="939462230"/>
    <nd ref="8038792794"/>
    <nd ref="10266194788"/>
    <nd ref="24969017"/>
    <nd ref="939462231"/>
    <nd ref="939462233"/>
    <nd ref="10266222347"/>
    <nd ref="5556413339"/>
    <nd ref="939462235"/>
    <nd ref="10266222348"/>
    <nd ref="10266222349"/>
    <nd ref="939462244"/>
    <nd ref="939462246"/>
    <nd ref="939462250"/>
    <nd ref="939462252"/>
    <nd ref="24968987"/>
    <tag k="highway" v="unclassified"/>
    <tag k="source" v="GPS"/>
  </way>
  <way id="4276471" version="18" timestamp="2025-02-26T17:12:08Z" changeset="162980846" uid="5008136" user="JayTurnr">
    <nd ref="213944"/>
    <nd ref="12620913643"/>
    <nd ref="12620914994"/>
    <nd ref="1282885584"/>
    <tag k="expressway" v="yes"/>
    <tag k="highway" v="trunk_link"/>
    <tag k="lanes" v="1"/>
    <tag k="lit" v="no"/>
    <tag k="maintenance" v="salting"/>
    <tag k="maxspeed" v="70 mph"/>
    <tag k="maxspeed:type" v="GB:nsl_dual"/>
    <tag k="national_highways:area" v="6"/>
    <tag k="oneway" v="yes"/>
    <tag k="operator" v="National Highways"/>
    <tag k="operator:wikidata" v="Q5760006"/>
    <tag k="ref" v="A1304"/>
    <tag k="sidewalk" v="no"/>
    <tag k="surface" v="asphalt"/>
  </way>
  <way id="4325058" version="8" timestamp="2022-07-05T13:46:06Z" changeset="123236547" uid="281267" user="smb1001">
    <nd ref="9868291281"/>
    <nd ref="9868291274"/>
    <nd ref="9868291286"/>
    <nd ref="9868291252"/>
    <nd ref="9868291251"/>
    <nd ref="248484977"/>
    <nd ref="26290367"/>
    <nd ref="24969094"/>
    <nd ref="6908858797"/>
    <nd ref="26290366"/>
    <nd ref="6560783777"/>
    <nd ref="26290365"/>
    <nd ref="6987397560"/>
    <nd ref="9754130382"/>
    <nd ref="9754130383"/>
    <nd ref="6987397559"/>
    <nd ref="5255626"/>
    <tag k="highway" v="secondary"/>
    <tag k="ref" v="B1104"/>
  </way>
  <way id="4678949" version="18" timestamp="2025-02-26T17:12:08Z" changeset="162980846" uid="5008136" user="JayTurnr">
    <nd ref="12620913641"/>
    <nd ref="1219695434"/>
    <nd ref="5455079605"/>
    <nd ref="1219695445"/>
    <nd ref="13336624"/>
    <nd ref="14911441"/>
    <nd ref="213915"/>
    <tag k="expressway" v="yes"/>
    <tag k="highway" v="trunk"/>
    <tag k="lanes" v="2"/>
    <tag k="lit" v="no"/>
    <tag k="maintenance" v="salting"/>
    <tag k="maxspeed" v="70 mph"/>
    <tag k="maxspeed:type" v="GB:nsl_dual"/>
    <tag k="national_highways:area" v="6"/>
    <tag k="oneway" v="yes"/>
    <tag k="operator" v="National Highways"/>
    <tag k="operator:wikidata" v="Q5760006"/>
    <tag k="ref" v="A11"/>
    <tag k="sidewalk" v="no"/>
    <tag k="surface" v="asphalt"/>
  </way>
  <way id="10501653" version="16" timestamp="2024-08-10T07:59:07Z" changeset="155050853" uid="15718999" user="MapSeaDee">
    <nd ref="14912379"/>
    <nd ref="14912380"/>
    <nd ref="213947"/>
    <nd ref="5455079606"/>
    <nd ref="213946"/>
    <nd ref="213945"/>
    <nd ref="5455079618"/>
    <nd ref="5455079615"/>
    <nd ref="213939"/>
    <tag k="expressway" v="yes"/>
    <tag k="highway" v="trunk"/>
    <tag k="int_ref" v="E 24"/>
    <tag k="lanes" v="2"/>
    <tag k="lit" v="no"/>
    <tag k="maxheight" v="default"/>
    <tag k="maxspeed" v="70 mph"/>
    <tag k="maxspeed:type" v="GB:nsl_dual"/>
    <tag k="national_highways:area" v="6"/>
    <tag k="oneway" v="yes"/>
    <tag k="operator" v="National Highways"/>
    <tag k="operator:wikidata" v="Q5760006"/>
    <tag k="ref" v="A14"/>
    <tag k="source:ref" v="local knowledge"/>
    <tag k="surface" v="asphalt"/>
  </way>
  <way id="10501654" version="18" timestamp="2023-09-06T00:34:34Z" changeset="140872290" uid="13341565" user="Falsernet">
    <nd ref="213951"/>
    <nd ref="14911541"/>
    <nd ref="1568028300"/>
    <nd ref="14911542"/>
    <nd ref="14911540"/>
    <nd ref="6319520091"/>
    <nd ref="14911543"/>
    <nd ref="1568028336"/>
    <nd ref="14911545"/>
    <nd ref="1568028296"/>
    <nd ref="14911544"/>
    <nd ref="1568028294"/>
    <nd ref="1568028290"/>
    <nd ref="14911547"/>
    <nd ref="260596106"/>
    <tag k="expressway" v="yes"/>
    <tag k="highway" v="trunk"/>
    <tag k="int_ref" v="E 24"/>
    <tag k="lanes" v="2"/>
    <tag k="lit" v="no"/>
    <tag k="maxheight" v="default"/>
    <tag k="maxspeed" v="70 mph"/>
    <tag k="maxspeed:type" v="GB:nsl_dual"/>
    <tag k="national_highways:area" v="6"/>
    <tag k="oneway" v="yes"/>
    <tag k="operator" v="National Highways"/>
    <tag k="operator:wikidata" v="Q5760006"/>
    <tag k="ref" v="A14"/>
    <tag k="source:ref" v="local knowledge"/>
  </way>
  <way id="10501655" version="22" timestamp="2025-02-27T20:04:42Z" changeset="163027132" uid="5229644" user="Nathan_A_RF">
    <nd ref="248410019"/>
    <nd ref="213974"/>
    <nd ref="213975"/>
    <nd ref="213976"/>
    <nd ref="213977"/>
    <nd ref="213929"/>
    <nd ref="554312"/>
    <nd ref="213928"/>
    <nd ref="213927"/>
    <nd ref="213926"/>
    <nd ref="213925"/>
    <nd ref="213924"/>
    <nd ref="213923"/>
    <nd ref="1556285954"/>
    <nd ref="213922"/>
    <nd ref="1556286141"/>
    <nd ref="213921"/>
    <nd ref="213920"/>
    <nd ref="213919"/>
    <nd ref="213918"/>
    <nd ref="12623992385"/>
    <nd ref="213917"/>
    <tag k="expressway" v="yes"/>
    <tag k="highway" v="trunk"/>
    <tag k="int_ref" v="E 24"/>
    <tag k="lanes" v="3"/>
    <tag k="lit" v="no"/>
    <tag k="maintenance" v="salting"/>
    <tag k="maxheight" v="default"/>
    <tag k="maxspeed" v="70 mph"/>
    <tag k="maxspeed:type" v="GB:nsl_dual"/>
    <tag k="name" v="Newmarket Bypass"/>
    <tag k="national_highways:area" v="6"/>
    <tag k="oneway" v="yes"/>
    <tag k="operator" v="National Highways"/>
    <tag k="operator:wikidata" v="Q5760006"/>
    <tag k="ref" v="A14"/>
    <tag k="surface" v="asphalt"/>
  </way>
  <way id="23031945" version="5" timestamp="2024-05-18T08:16:25Z" changeset="151482074" uid="5173844" user="ndrw6">
    <nd ref="13336669"/>
    <nd ref="8994200748"/>
    <nd ref="248484464"/>
    <nd ref="9868314236"/>
    <nd ref="248484465"/>
    <nd ref="248484467"/>
    <nd ref="11915163131"/>
    <nd ref="2297276746"/>
    <nd ref="248484469"/>
    <nd ref="248484470"/>
    <tag k="highway" v="residential"/>
    <tag k="name" v="Scotland End"/>
  </way>
  <way id="23031946" version="2" timestamp="2024-05-18T08:16:25Z" changeset="151482074" uid="5173844" user="ndrw6">
    <nd ref="248484470"/>
    <nd ref="11915163148"/>
    <nd ref="248484479"/>
    <nd ref="11915163147"/>
    <nd ref="11915163146"/>
    <tag k="highway" v="residential"/>
  </way>
  <way id="24029694" version="16" timestamp="2024-08-10T07:59:06Z" changeset="155050781" uid="15718999" user="MapSeaDee">
    <nd ref="260596270"/>
    <nd ref="14912384"/>
    <nd ref="14912383"/>
    <nd ref="14912382"/>
    <nd ref="14912381"/>
    <nd ref="6319520086"/>
    <nd ref="14912377"/>
    <nd ref="14912376"/>
    <nd ref="213948"/>
    <nd ref="14912379"/>
    <tag k="expressway" v="yes"/>
    <tag k="highway" v="trunk"/>
    <tag k="int_ref" v="E 24"/>
    <tag k="lanes" v="2"/>
    <tag k="lit" v="no"/>
    <tag k="maxheight:signed" v="no"/>
    <tag k="maxspeed" v="70 mph"/>
    <tag k="maxspeed:type" v="GB:nsl_dual"/>
    <tag k="national_highways:area" v="6"/>
    <tag k="oneway" v="yes"/>
    <tag k="operator" v="National Highways"/>
    <tag k="operator:wikidata" v="Q5760006"/>
    <tag k="ref" v="A14"/>
    <tag k="source:ref" v="local knowledge"/>
    <tag k="surface" v="asphalt"/>
  </way>
  <way id="24250280" version="14" timestamp="2025-04-22T21:27:54Z" changeset="165304991" uid="3999" user="BarryMyles">
    <nd ref="262551328"/>
    <nd ref="263047269"/>
    <nd ref="9162685572"/>
    <nd ref="939458839"/>
    <nd ref="24554352"/>
    <nd ref="936983735"/>
    <nd ref="939458841"/>
    <nd ref="24554353"/>
    <nd ref="939458843"/>
    <nd ref="939458845"/>
    <nd ref="24554355"/>
    <nd ref="939458846"/>
    <nd ref="24554357"/>
    <nd ref="24554358"/>
    <nd ref="939458849"/>
    <nd ref="24554360"/>
    <nd ref="939458850"/>
    <nd ref="939458852"/>
    <nd ref="24554362"/>
    <nd ref="10173288501"/>
    <nd ref="939458853"/>
    <nd ref="24554364"/>
    <nd ref="10173288497"/>
    <nd ref="13336647"/>
    <nd ref="10173288499"/>
    <nd ref="10173288498"/>
    <nd ref="13336648"/>
    <nd ref="6525086781"/>
    <nd ref="13336650"/>
    <nd ref="13336651"/>
    <nd ref="12777184602"/>
    <nd ref="13336652"/>
    <nd ref="12777184603"/>
    <nd ref="13336653"/>
    <nd ref="13336654"/>
    <nd ref="13336655"/>
    <nd ref="8021360940"/>
    <nd ref="13336656"/>
    <nd ref="13336657"/>
    <nd ref="8167015514"/>
    <nd ref="248484998"/>
    <tag k="highway" v="secondary"/>
    <tag k="lanes" v="2"/>
    <tag k="name" v="Dane Hill Road"/>
    <tag k="ref" v="B1085"/>
    <tag k="source" v="GPS"/>
    <tag k="surface" v="asphalt"/>
  </way>
  <way id="24260331" version="18" timestamp="2025-02-26T17:12:08Z" changeset="162980846" uid="5008136" user="JayTurnr">
    <nd ref="262663989"/>
    <nd ref="13336627"/>
    <tag k="bridge" v="yes"/>
    <tag k="expressway" v="yes"/>
    <tag k="highway" v="trunk"/>
    <tag k="lanes" v="2"/>
    <tag k="layer" v="1"/>
    <tag k="maintenance" v="salting"/>
    <tag k="maxspeed" v="70 mph"/>
    <tag k="maxspeed:type" v="GB:nsl_dual"/>
    <tag k="maxweight:signed" v="no"/>
    <tag k="national_highways:area" v="6"/>
    <tag k="oneway" v="yes"/>
    <tag k="operator" v="National Highways"/>
    <tag k="operator:wikidata" v="Q5760006"/>
    <tag k="ref" v="A11"/>
    <tag k="sidewalk" v="both"/>
    <tag k="surface" v="asphalt"/>
  </way>
  <way id="24260332" version="17" timestamp="2025-02-26T17:12:08Z" changeset="162980846" uid="5008136" user="JayTurnr">
    <nd ref="13336627"/>
    <nd ref="14911443"/>
    <nd ref="213944"/>
    <tag k="expressway" v="yes"/>
    <tag k="foot" v="no"/>
    <tag k="highway" v="trunk"/>
    <tag k="lanes" v="2"/>
    <tag k="lit" v="no"/>
    <tag k="maintenance" v="salting"/>
    <tag k="maxspeed" v="70 mph"/>
    <tag k="maxspeed:type" v="GB:nsl_dual"/>
    <tag k="national_highways:area" v="6"/>
    <tag k="oneway" v="yes"/>
    <tag k="operator" v="National Highways"/>
    <tag k="operator:wikidata" v="Q5760006"/>
    <tag k="ref" v="A11"/>
    <tag k="sidewalk" v="no"/>
    <tag k="surface" v="asphalt"/>
  </way>
  <way id="24293224" version="8" timestamp="2025-02-27T20:02:02Z" changeset="163027046" uid="5229644" user="Nathan_A_RF">
    <nd ref="263050723"/>
    <nd ref="24966353"/>
    <tag k="alt_name" v="Moulton Road"/>
    <tag k="bridge" v="yes"/>
    <tag k="bridge:name" v="Moulton Road Bridge"/>
    <tag k="highway" v="tertiary"/>
    <tag k="layer" v="1"/>
    <tag k="maxspeed" v="60 mph"/>
    <tag k="maxspeed:type" v="GB:nsl_single"/>
    <tag k="name" v="Norwich Road"/>
  </way>
  <way id="24293226" version="8" timestamp="2025-02-27T20:02:02Z" changeset="163027046" uid="5229644" user="Nathan_A_RF">
    <nd ref="24966353"/>
    <nd ref="24966352"/>
    <nd ref="24966333"/>
    <tag k="alt_name" v="Moulton Road"/>
    <tag k="highway" v="tertiary"/>
    <tag k="maxspeed" v="60 mph"/>
    <tag k="maxspeed:type" v="GB:nsl_single"/>
    <tag k="name" v="Norwich Road"/>
  </way>
  <way id="83621502" version="18" timestamp="2025-02-26T17:12:08Z" changeset="162980846" uid="5008136" user="JayTurnr">
    <nd ref="213944"/>
    <nd ref="12620913644"/>
    <nd ref="14911444"/>
    <nd ref="12620913645"/>
    <nd ref="213943"/>
    <nd ref="14911446"/>
    <nd ref="213942"/>
    <nd ref="213941"/>
    <nd ref="12620913646"/>
    <nd ref="213940"/>
    <nd ref="5455079616"/>
    <nd ref="5455079617"/>
    <nd ref="5455079614"/>
    <nd ref="213939"/>
    <tag k="destination:ref" v="A14"/>
    <tag k="expressway" v="yes"/>
    <tag k="foot" v="no"/>
    <tag k="highway" v="trunk"/>
    <tag k="lanes" v="2"/>
    <tag k="lit" v="no"/>
    <tag k="maintenance" v="salting"/>
    <tag k="maxheight" v="default"/>
    <tag k="maxspeed" v="70 mph"/>
    <tag k="maxspeed:type" v="GB:nsl_dual"/>
    <tag k="national_highways:area" v="6"/>
    <tag k="oneway" v="yes"/>
    <tag k="operator" v="National Highways"/>
    <tag k="operator:wikidata" v="Q5760006"/>
    <tag k="ref" v="A11"/>
    <tag k="sidewalk" v="no"/>
    <tag k="surface" v="asphalt"/>
  </way>
  <way id="90778614" version="5" timestamp="2025-03-15T15:30:46Z" changeset="163655947" uid="5229644" user="Nathan_A_RF">
    <nd ref="477465213"/>
    <nd ref="1184006711"/>
    <tag k="bridge" v="yes"/>
    <tag k="highway" v="tertiary"/>
    <tag k="layer" v="1"/>
    <tag k="maxspeed" v="60 mph"/>
    <tag k="maxspeed:type" v="GB:nsl_single"/>
    <tag k="name" v="Turnpike Road"/>
  </way>
  <way id="90778737" version="3" timestamp="2024-09-05T20:23:23Z" changeset="156247589" uid="3999" user="BarryMyles">
    <nd ref="24968987"/>
    <nd ref="939462253"/>
    <nd ref="939462254"/>
    <nd ref="12158490559"/>
    <nd ref="12158490544"/>
    <nd ref="24968976"/>
    <nd ref="12158490558"/>
    <nd ref="12158490557"/>
    <nd ref="939462255"/>
    <nd ref="24968952"/>
    <nd ref="12158490562"/>
    <nd ref="939462259"/>
    <nd ref="12158490563"/>
    <nd ref="939462262"/>
    <nd ref="24968934"/>
    <nd ref="24968894"/>
    <nd ref="1070511926"/>
    <nd ref="939462268"/>
    <nd ref="939462270"/>
    <nd ref="24968888"/>
    <nd ref="13359204"/>
    <nd ref="939462275"/>
    <tag k="highway" v="unclassified"/>
    <tag k="name" v="Chippenham Road"/>
    <tag k="source" v="GPS"/>
  </way>
  <way id="97015675" version="8" timestamp="2025-03-15T13:55:20Z" changeset="163651803" uid="5229644" user="Nathan_A_RF">
    <nd ref="2547437800"/>
    <nd ref="24554391"/>
    <nd ref="24554389"/>
    <nd ref="1667345926"/>
    <nd ref="24554386"/>
    <nd ref="24554385"/>
    <tag k="highway" v="tertiary"/>
    <tag k="maxspeed" v="60 mph"/>
    <tag k="maxspeed:type" v="GB:nsl_single"/>
    <tag k="name" v="Chippenham Road"/>
  </way>
  <way id="97015676" version="8" timestamp="2025-03-15T13:55:20Z" changeset="163651803" uid="5229644" user="Nathan_A_RF">
    <nd ref="24554385"/>
    <nd ref="12666739361"/>
    <nd ref="12666739360"/>
    <nd ref="4085093578"/>
    <nd ref="24554384"/>
    <nd ref="12666739363"/>
    <nd ref="24554383"/>
    <nd ref="12666739364"/>
    <nd ref="24554380"/>
    <nd ref="24554382"/>
    <nd ref="24554378"/>
    <nd ref="24554377"/>
    <nd ref="6771858416"/>
    <nd ref="24554374"/>
    <nd ref="1606723005"/>
    <nd ref="24554375"/>
    <nd ref="24554372"/>
    <nd ref="260029710"/>
    <tag k="highway" v="tertiary"/>
    <tag k="maxspeed" v="60 mph"/>
    <tag k="maxspeed:type" v="GB:nsl_single"/>
  </way>
  <way id="97047169" version="4" timestamp="2025-03-15T13:55:20Z" changeset="163651803" uid="5229644" user="Nathan_A_RF">
    <nd ref="260029710"/>
    <nd ref="24554371"/>
    <nd ref="1926779400"/>
    <tag k="highway" v="tertiary"/>
    <tag k="maxspeed" v="60 mph"/>
    <tag k="maxspeed:type" v="GB:nsl_single"/>
    <tag k="name" v="Palace Lane"/>
  </way>
  <way id="97047171" version="3" timestamp="2019-02-22T18:26:30Z" changeset="67475809" uid="8476264" user="jojoyal">
    <nd ref="248484998"/>
    <nd ref="13336658"/>
    <nd ref="2297276799"/>
    <nd ref="6296223106"/>
    <nd ref="13336659"/>
    <nd ref="13336660"/>
    <tag k="highway" v="secondary"/>
    <tag k="name" v="Parkside"/>
    <tag k="ref" v="B1085"/>
    <tag k="source" v="GPS"/>
  </way>
  <way id="97047175" version="11" timestamp="2025-03-15T15:39:18Z" changeset="163656313" uid="5229644" user="Nathan_A_RF">
    <nd ref="248484975"/>
    <nd ref="24966406"/>
    <nd ref="1606677937"/>
    <nd ref="1606677946"/>
    <nd ref="1606677957"/>
    <nd ref="24966404"/>
    <nd ref="24966403"/>
    <nd ref="1175647425"/>
    <nd ref="24966402"/>
    <nd ref="1175647371"/>
    <nd ref="24966401"/>
    <nd ref="1175647415"/>
    <nd ref="6572745413"/>
    <nd ref="24966393"/>
    <nd ref="1175647398"/>
    <nd ref="1175647410"/>
    <nd ref="24966392"/>
    <nd ref="1175647492"/>
    <nd ref="1175647395"/>
    <nd ref="1175647443"/>
    <nd ref="8953803425"/>
    <nd ref="1175647380"/>
    <nd ref="6771938915"/>
    <nd ref="7065820686"/>
    <nd ref="24966391"/>
    <nd ref="1175647404"/>
    <nd ref="1175647486"/>
    <nd ref="5940662685"/>
    <nd ref="1175647377"/>
    <nd ref="24966390"/>
    <nd ref="1175647386"/>
    <nd ref="1175647434"/>
    <nd ref="24966389"/>
    <tag k="highway" v="unclassified"/>
    <tag k="maxspeed" v="60 mph"/>
    <tag k="maxspeed:type" v="GB:nsl_single"/>
    <tag k="name" v="Badlingham Road"/>
  </way>
  <way id="97047179" version="2" timestamp="2022-01-18T02:52:46Z" changeset="116278091" uid="7463" user="kesterlester">
    <nd ref="13336670"/>
    <nd ref="13336671"/>
    <nd ref="13336672"/>
    <nd ref="13336673"/>
    <nd ref="13336674"/>
    <nd ref="13336675"/>
    <nd ref="13336677"/>
    <nd ref="9427078528"/>
    <nd ref="13336678"/>
    <nd ref="9427078526"/>
    <nd ref="13336680"/>
    <nd ref="9427073614"/>
    <nd ref="9427073616"/>
    <nd ref="9427073613"/>
    <nd ref="9427078531"/>
    <nd ref="9427073615"/>
    <nd ref="13336681"/>
    <tag k="highway" v="secondary"/>
    <tag k="name" v="Chippenham Road"/>
    <tag k="ref" v="B1085"/>
    <tag k="source" v="GPS"/>
  </way>
  <way id="97047180" version="1" timestamp="2011-01-28T02:40:54Z" changeset="7109525" uid="4951" user="PeterEastern">
    <nd ref="13336681"/>
    <nd ref="13336682"/>
    <nd ref="13336683"/>
    <nd ref="467767058"/>
    <tag k="highway" v="secondary"/>
    <tag k="name" v="Dane Hill Road"/>
    <tag k="ref" v="B1085"/>
    <tag k="source" v="GPS"/>
  </way>
  <way id="97047183" version="6" timestamp="2020-12-15T09:47:45Z" changeset="95864584" uid="11734151" user="aniaswin">
    <nd ref="13336660"/>
    <nd ref="1467317307"/>
    <nd ref="13336661"/>
    <nd ref="13336662"/>
    <nd ref="8230598223"/>
    <nd ref="13336663"/>
    <nd ref="13336664"/>
    <nd ref="6296223108"/>
    <nd ref="2297276790"/>
    <nd ref="2297276925"/>
    <nd ref="13336665"/>
    <tag k="highway" v="secondary"/>
    <tag k="name" v="High Street"/>
    <tag k="ref" v="B1085"/>
    <tag k="source" v="GPS"/>
  </way>
  <way id="99063116" version="7" timestamp="2025-03-15T15:39:18Z" changeset="163656313" uid="5229644" user="Nathan_A_RF">
    <nd ref="24966389"/>
    <nd ref="5940664609"/>
    <tag k="bridge" v="yes"/>
    <tag k="highway" v="unclassified"/>
    <tag k="layer" v="1"/>
    <tag k="maxspeed" v="60 mph"/>
    <tag k="maxspeed:type" v="GB:nsl_single"/>
    <tag k="maxweightrating" v="3"/>
    <tag k="name" v="Badlingham Road"/>
  </way>
  <way id="99273974" version="16" timestamp="2025-02-26T17:09:03Z" changeset="162980683" uid="5008136" user="JayTurnr">
    <nd ref="14911467"/>
    <nd ref="14911438"/>
    <nd ref="13336615"/>
    <nd ref="14911439"/>
    <nd ref="14911420"/>
    <nd ref="13336616"/>
    <nd ref="14911422"/>
    <nd ref="13336617"/>
    <nd ref="14911425"/>
    <nd ref="13336618"/>
    <nd ref="12620914990"/>
    <nd ref="13336619"/>
    <nd ref="12620914991"/>
    <nd ref="13336620"/>
    <nd ref="13336621"/>
    <nd ref="12620914992"/>
    <nd ref="14911432"/>
    <nd ref="14911435"/>
    <nd ref="13336623"/>
    <nd ref="12620914993"/>
    <nd ref="14911436"/>
    <nd ref="1219717440"/>
    <nd ref="213915"/>
    <tag k="destination:ref" v="A11"/>
    <tag k="expressway" v="yes"/>
    <tag k="highway" v="trunk_link"/>
    <tag k="lanes" v="2"/>
    <tag k="lit" v="no"/>
    <tag k="maintenance" v="salting"/>
    <tag k="maxspeed" v="70 mph"/>
    <tag k="maxspeed:type" v="GB:nsl_dual"/>
    <tag k="national_highways:area" v="6"/>
    <tag k="oneway" v="yes"/>
    <tag k="operator" v="National Highways"/>
    <tag k="operator:wikidata" v="Q5760006"/>
    <tag k="ref" v="A1304"/>
    <tag k="sidewalk" v="no"/>
    <tag k="surface" v="asphalt"/>
  </way>
  <way id="99273976" version="14" timestamp="2025-02-26T17:09:03Z" changeset="162980683" uid="5008136" user="JayTurnr">
    <nd ref="13336613"/>
    <nd ref="14911467"/>
    <tag k="bridge" v="yes"/>
    <tag k="destination:ref" v="A11"/>
    <tag k="expressway" v="yes"/>
    <tag k="highway" v="trunk_link"/>
    <tag k="lanes" v="2"/>
    <tag k="layer" v="1"/>
    <tag k="lit" v="no"/>
    <tag k="maintenance" v="salting"/>
    <tag k="maxspeed" v="70 mph"/>
    <tag k="maxspeed:type" v="GB:nsl_dual"/>
    <tag k="national_highways:area" v="6"/>
    <tag k="oneway" v="yes"/>
    <tag k="operator" v="National Highways"/>
    <tag k="operator:wikidata" v="Q5760006"/>
    <tag k="ref" v="A1304"/>
    <tag k="sidewalk" v="left"/>
    <tag k="surface" v="asphalt"/>
  </way>
  <way id="102518964" version="14" timestamp="2025-02-26T17:32:10Z" changeset="162981679" uid="5008136" user="JayTurnr">
    <nd ref="1184006707"/>
    <nd ref="1184006706"/>
    <tag k="bridge" v="yes"/>
    <tag k="expressway" v="yes"/>
    <tag k="highway" v="trunk"/>
    <tag k="lanes" v="2"/>
    <tag k="layer" v="1"/>
    <tag k="lit" v="no"/>
    <tag k="maintenance" v="salting"/>
    <tag k="maxspeed" v="70 mph"/>
    <tag k="maxspeed:type" v="GB:nsl_dual"/>
    <tag k="maxweight:signed" v="no"/>
    <tag k="name" v="Red Lodge Bypass"/>
    <tag k="national_highways:area" v="6"/>
    <tag k="oneway" v="yes"/>
    <tag k="operator" v="National Highways"/>
    <tag k="operator:wikidata" v="Q5760006"/>
    <tag k="ref" v="A11"/>
    <tag k="sidewalk" v="both"/>
    <tag k="surface" v="asphalt"/>
  </way>
  <way id="102518966" version="15" timestamp="2025-02-26T17:32:10Z" changeset="162981679" uid="5008136" user="JayTurnr">
    <nd ref="1184006708"/>
    <nd ref="1184006709"/>
    <tag k="bridge" v="yes"/>
    <tag k="expressway" v="yes"/>
    <tag k="highway" v="trunk"/>
    <tag k="lanes" v="2"/>
    <tag k="layer" v="1"/>
    <tag k="lit" v="no"/>
    <tag k="maintenance" v="salting"/>
    <tag k="maxspeed" v="70 mph"/>
    <tag k="maxspeed:type" v="GB:nsl_dual"/>
    <tag k="maxweight:signed" v="no"/>
    <tag k="name" v="Red Lodge Bypass"/>
    <tag k="national_highways:area" v="6"/>
    <tag k="oneway" v="yes"/>
    <tag k="operator" v="National Highways"/>
    <tag k="operator:wikidata" v="Q5760006"/>
    <tag k="ref" v="A11"/>
    <tag k="sidewalk" v="left"/>
    <tag k="surface" v="asphalt"/>
  </way>
  <way id="102518968" version="9" timestamp="2025-03-15T15:30:46Z" changeset="163655947" uid="5229644" user="Nathan_A_RF">
    <nd ref="1184006711"/>
    <nd ref="3421381883"/>
    <nd ref="3421389924"/>
    <nd ref="477465215"/>
    <nd ref="24554343"/>
    <nd ref="7998653476"/>
    <nd ref="477465217"/>
    <nd ref="477465220"/>
    <nd ref="936983701"/>
    <tag k="highway" v="tertiary"/>
    <tag k="lanes" v="2"/>
    <tag k="maxspeed" v="60 mph"/>
    <tag k="maxspeed:type" v="GB:nsl_single"/>
    <tag k="name" v="Turnpike Road"/>
    <tag k="old_ref" v="A11"/>
  </way>
  <way id="112995358" version="12" timestamp="2025-02-26T17:09:03Z" changeset="162980683" uid="5008136" user="JayTurnr">
    <nd ref="1282885584"/>
    <nd ref="14911539"/>
    <tag k="bridge" v="yes"/>
    <tag k="expressway" v="yes"/>
    <tag k="highway" v="trunk_link"/>
    <tag k="lanes" v="1"/>
    <tag k="layer" v="1"/>
    <tag k="lit" v="no"/>
    <tag k="maintenance" v="salting"/>
    <tag k="maxspeed" v="70 mph"/>
    <tag k="maxspeed:type" v="GB:nsl_dual"/>
    <tag k="maxweight:signed" v="no"/>
    <tag k="national_highways:area" v="6"/>
    <tag k="oneway" v="yes"/>
    <tag k="operator" v="National Highways"/>
    <tag k="operator:wikidata" v="Q5760006"/>
    <tag k="ref" v="A1304"/>
    <tag k="sidewalk" v="both"/>
    <tag k="surface" v="asphalt"/>
  </way>
  <way id="112995359" version="11" timestamp="2025-02-26T17:09:03Z" changeset="162980683" uid="5008136" user="JayTurnr">
    <nd ref="14911539"/>
    <nd ref="14911469"/>
    <tag k="expressway" v="yes"/>
    <tag k="highway" v="trunk_link"/>
    <tag k="lanes" v="1"/>
    <tag k="lit" v="no"/>
    <tag k="maintenance" v="salting"/>
    <tag k="maxspeed" v="70 mph"/>
    <tag k="maxspeed:type" v="GB:nsl_dual"/>
    <tag k="national_highways:area" v="6"/>
    <tag k="oneway" v="yes"/>
    <tag k="operator" v="National Highways"/>
    <tag k="operator:wikidata" v="Q5760006"/>
    <tag k="ref" v="A1304"/>
    <tag k="sidewalk" v="no"/>
    <tag k="surface" v="asphalt"/>
  </way>
  <way id="122834281" version="13" timestamp="2025-02-26T17:12:51Z" changeset="162980887" uid="5008136" user="JayTurnr">
    <nd ref="213911"/>
    <nd ref="11816337125"/>
    <nd ref="1371414234"/>
    <nd ref="11816337126"/>
    <nd ref="6101215681"/>
    <nd ref="1371414177"/>
    <nd ref="24966356"/>
    <tag k="expressway" v="yes"/>
    <tag k="highway" v="trunk_link"/>
    <tag k="lanes" v="1"/>
    <tag k="lit" v="no"/>
    <tag k="maxspeed" v="70 mph"/>
    <tag k="maxspeed:type" v="GB:nsl_dual"/>
    <tag k="national_highways:area" v="6"/>
    <tag k="oneway" v="yes"/>
    <tag k="operator" v="National Highways"/>
    <tag k="operator:wikidata" v="Q5760006"/>
    <tag k="sidewalk" v="no"/>
    <tag k="surface" v="asphalt"/>
  </way>
  <way id="122834285" version="10" timestamp="2025-02-26T17:12:51Z" changeset="162980887" uid="5008136" user="JayTurnr">
    <nd ref="24966356"/>
    <nd ref="11816337123"/>
    <nd ref="1371414133"/>
    <nd ref="1371414146"/>
    <nd ref="11816337122"/>
    <nd ref="1371414164"/>
    <nd ref="1371414184"/>
    <tag k="expressway" v="yes"/>
    <tag k="highway" v="trunk_link"/>
    <tag k="lanes" v="1"/>
    <tag k="lit" v="no"/>
    <tag k="maxspeed" v="70 mph"/>
    <tag k="maxspeed:type" v="GB:nsl_dual"/>
    <tag k="national_highways:area" v="6"/>
    <tag k="oneway" v="yes"/>
    <tag k="operator" v="National Highways"/>
    <tag k="operator:wikidata" v="Q5760006"/>
    <tag k="sidewalk" v="no"/>
    <tag k="surface" v="asphalt"/>
  </way>
  <way id="142189981" version="9" timestamp="2025-02-26T17:13:44Z" changeset="162980911" uid="5008136" user="JayTurnr">
    <nd ref="1556285980"/>
    <nd ref="11516939762"/>
    <nd ref="1667328790"/>
    <nd ref="13336628"/>
    <nd ref="13336629"/>
    <nd ref="13336630"/>
    <nd ref="13336631"/>
    <nd ref="13336632"/>
    <nd ref="13336633"/>
    <nd ref="1606684550"/>
    <nd ref="1606684643"/>
    <nd ref="5940655885"/>
    <nd ref="13336634"/>
    <nd ref="13336635"/>
    <nd ref="5940655886"/>
    <nd ref="13336636"/>
    <nd ref="13336637"/>
    <nd ref="13336638"/>
    <nd ref="1606684545"/>
    <nd ref="1606684631"/>
    <nd ref="1606684541"/>
    <nd ref="13336639"/>
    <nd ref="13336640"/>
    <nd ref="1606684591"/>
    <nd ref="10173311648"/>
    <nd ref="1606684605"/>
    <nd ref="1606684576"/>
    <nd ref="13336641"/>
    <nd ref="13336643"/>
    <nd ref="13336644"/>
    <nd ref="13336645"/>
    <nd ref="13336649"/>
    <nd ref="13336646"/>
    <nd ref="10173288500"/>
    <nd ref="13336647"/>
    <tag k="highway" v="unclassified"/>
    <tag k="lanes" v="2"/>
    <tag k="surface" v="asphalt"/>
  </way>
  <way id="142189988" version="10" timestamp="2025-02-26T17:12:51Z" changeset="162980887" uid="5008136" user="JayTurnr">
    <nd ref="1556285988"/>
    <nd ref="1556285984"/>
    <nd ref="1556286104"/>
    <nd ref="1556286169"/>
    <nd ref="1556286013"/>
    <nd ref="1556285912"/>
    <nd ref="1556285980"/>
    <tag k="expressway" v="yes"/>
    <tag k="highway" v="trunk_link"/>
    <tag k="lanes" v="1"/>
    <tag k="lit" v="no"/>
    <tag k="maxspeed" v="70 mph"/>
    <tag k="maxspeed:type" v="GB:nsl_dual"/>
    <tag k="national_highways:area" v="6"/>
    <tag k="oneway" v="yes"/>
    <tag k="operator" v="National Highways"/>
    <tag k="operator:wikidata" v="Q5760006"/>
    <tag k="surface" v="asphalt"/>
  </way>
  <way id="142189989" version="7" timestamp="2025-02-27T20:04:42Z" changeset="163027132" uid="5229644" user="Nathan_A_RF">
    <nd ref="1556286091"/>
    <nd ref="1556286055"/>
    <nd ref="5455079612"/>
    <nd ref="1556285999"/>
    <tag k="destination:ref" v="A11"/>
    <tag k="highway" v="trunk_link"/>
    <tag k="lanes" v="1"/>
    <tag k="maintenance" v="salting"/>
    <tag k="maxspeed" v="70 mph"/>
    <tag k="maxspeed:type" v="GB:nsl_dual"/>
    <tag k="oneway" v="yes"/>
    <tag k="ref" v="A1304"/>
    <tag k="surface" v="asphalt"/>
  </way>
  <way id="182325632" version="3" timestamp="2022-07-05T13:46:06Z" changeset="123236547" uid="281267" user="smb1001">
    <nd ref="13336668"/>
    <nd ref="13336669"/>
    <nd ref="6573126698"/>
    <nd ref="9868291281"/>
    <nd ref="13336670"/>
    <tag k="highway" v="secondary"/>
    <tag k="name" v="High Street"/>
    <tag k="ref" v="B1085"/>
    <tag k="source" v="GPS"/>
  </way>
  <way id="182325633" version="3" timestamp="2019-10-14T12:48:24Z" changeset="75665449" uid="10219371" user="arjuu">
    <nd ref="13336665"/>
    <nd ref="13336666"/>
    <nd ref="13336667"/>
    <nd ref="2297276610"/>
    <nd ref="2297276972"/>
    <nd ref="6878121727"/>
    <nd ref="13336668"/>
    <tag k="highway" v="secondary"/>
    <tag k="maxspeed" v="30 mph"/>
    <tag k="name" v="High Street"/>
    <tag k="ref" v="B1085"/>
    <tag k="source" v="GPS"/>
  </way>
  <way id="182325641" version="3" timestamp="2022-07-05T13:46:06Z" changeset="123236547" uid="281267" user="smb1001">
    <nd ref="1926779400"/>
    <nd ref="24554369"/>
    <nd ref="9868297253"/>
    <nd ref="24554367"/>
    <nd ref="24554365"/>
    <nd ref="9868268044"/>
    <nd ref="13336667"/>
    <tag k="highway" v="tertiary"/>
    <tag k="maxspeed" v="30 mph"/>
    <tag k="name" v="Palace Lane"/>
  </way>
  <way id="182325644" version="3" timestamp="2025-03-15T15:39:18Z" changeset="163656313" uid="5229644" user="Nathan_A_RF">
    <nd ref="24966405"/>
    <nd ref="2297276667"/>
    <nd ref="248484975"/>
    <tag k="highway" v="unclassified"/>
    <tag k="maxspeed" v="60 mph"/>
    <tag k="maxspeed:type" v="GB:nsl_single"/>
  </way>
  <way id="204492728" version="4" timestamp="2025-03-15T15:30:46Z" changeset="163655947" uid="5229644" user="Nathan_A_RF">
    <nd ref="936983701"/>
    <nd ref="477465219"/>
    <nd ref="936983720"/>
    <nd ref="24554344"/>
    <nd ref="24554345"/>
    <nd ref="9162685553"/>
    <nd ref="939458866"/>
    <nd ref="24554346"/>
    <nd ref="939458867"/>
    <nd ref="939458765"/>
    <tag k="highway" v="tertiary"/>
    <tag k="lanes" v="2"/>
    <tag k="maxspeed" v="60 mph"/>
    <tag k="maxspeed:type" v="GB:nsl_single"/>
    <tag k="name" v="Turnpike Road"/>
    <tag k="surface" v="asphalt"/>
  </way>
  <way id="204492729" version="15" timestamp="2025-02-26T17:20:09Z" changeset="162981181" uid="5008136" user="JayTurnr">
    <nd ref="213907"/>
    <nd ref="12620932409"/>
    <nd ref="569270"/>
    <nd ref="569271"/>
    <nd ref="11919224947"/>
    <nd ref="213908"/>
    <nd ref="11919224953"/>
    <nd ref="263045837"/>
    <tag k="expressway" v="yes"/>
    <tag k="foot" v="no"/>
    <tag k="highway" v="trunk"/>
    <tag k="lanes" v="2"/>
    <tag k="lit" v="no"/>
    <tag k="maintenance" v="salting"/>
    <tag k="maxheight" v="default"/>
    <tag k="maxspeed" v="70 mph"/>
    <tag k="maxspeed:type" v="GB:nsl_dual"/>
    <tag k="national_highways:area" v="6"/>
    <tag k="oneway" v="yes"/>
    <tag k="operator" v="National Highways"/>
    <tag k="operator:wikidata" v="Q5760006"/>
    <tag k="ref" v="A11"/>
    <tag k="sidewalk" v="no"/>
    <tag k="surface" v="asphalt"/>
  </way>
  <way id="204492730" version="10" timestamp="2025-02-26T17:32:10Z" changeset="162981679" uid="5008136" user="JayTurnr">
    <nd ref="569268"/>
    <nd ref="12620942872"/>
    <nd ref="569267"/>
    <nd ref="569266"/>
    <nd ref="569265"/>
    <nd ref="1556286167"/>
    <nd ref="569264"/>
    <nd ref="12620942874"/>
    <nd ref="569263"/>
    <nd ref="1556285956"/>
    <nd ref="1556285905"/>
    <nd ref="569260"/>
    <nd ref="1905236145"/>
    <nd ref="3796885791"/>
    <nd ref="569259"/>
    <nd ref="1905236146"/>
    <nd ref="1184006707"/>
    <tag k="expressway" v="yes"/>
    <tag k="foot" v="no"/>
    <tag k="highway" v="trunk"/>
    <tag k="lanes" v="2"/>
    <tag k="lit" v="no"/>
    <tag k="maintenance" v="salting"/>
    <tag k="maxspeed" v="70 mph"/>
    <tag k="maxspeed:type" v="GB:nsl_dual"/>
    <tag k="name" v="Red Lodge Bypass"/>
    <tag k="national_highways:area" v="6"/>
    <tag k="oneway" v="yes"/>
    <tag k="operator" v="National Highways"/>
    <tag k="operator:wikidata" v="Q5760006"/>
    <tag k="ref" v="A11"/>
    <tag k="sidewalk" v="no"/>
    <tag k="surface" v="asphalt"/>
  </way>
  <way id="220633101" version="6" timestamp="2023-11-03T18:35:20Z" changeset="143586911" uid="504708" user="HillWithSmallFields">
    <nd ref="2297276798"/>
    <nd ref="9868261811"/>
    <nd ref="2297276802"/>
    <nd ref="2297276896"/>
    <nd ref="2297276681"/>
    <nd ref="248484457"/>
    <nd ref="2297276958"/>
    <nd ref="9868268075"/>
    <nd ref="2297276788"/>
    <nd ref="2297276839"/>
    <nd ref="2297276694"/>
    <nd ref="2297276847"/>
    <nd ref="2297276908"/>
    <nd ref="2297276956"/>
    <nd ref="2297276886"/>
    <nd ref="2297276904"/>
    <nd ref="2297276798"/>
    <tag k="amenity" v="place_of_worship"/>
    <tag k="building" v="church"/>
    <tag k="denomination" v="anglican"/>
    <tag k="name" v="Saint Margaret, Chippenham"/>
    <tag k="ref:dove" v="16234"/>
    <tag k="religion" v="christian"/>
    <tag k="wikidata" v="Q17527610"/>
  </way>
  <way id="220633105" version="3" timestamp="2025-03-15T13:55:20Z" changeset="163651803" uid="5229644" user="Nathan_A_RF">
    <nd ref="24554365"/>
    <nd ref="2297276868"/>
    <nd ref="2297276610"/>
    <tag k="highway" v="tertiary"/>
    <tag k="maxspeed" v="30 mph"/>
    <tag k="name" v="Palace Lane"/>
  </way>
  <way id="220633106" version="3" timestamp="2022-08-30T11:31:25Z" changeset="125564596" uid="11078419" user="JSB88">
    <nd ref="2297276945"/>
    <nd ref="9988137466"/>
    <nd ref="2297276687"/>
    <nd ref="2297276853"/>
    <nd ref="2297276859"/>
    <nd ref="2297276757"/>
    <nd ref="2297276882"/>
    <nd ref="2297276898"/>
    <nd ref="9988137479"/>
    <nd ref="2297276645"/>
    <nd ref="2297276945"/>
    <tag k="addr:postcode" v="CB7 5PT"/>
    <tag k="building" v="yes"/>
    <tag k="name" v="Chippenham Park Stables"/>
  </way>
  <way id="220633107" version="4" timestamp="2022-08-30T11:31:25Z" changeset="125564596" uid="11078419" user="JSB88">
    <nd ref="2297276860"/>
    <nd ref="2297276669"/>
    <nd ref="2297276676"/>
    <nd ref="2297276691"/>
    <nd ref="2297276836"/>
    <nd ref="2297276808"/>
    <nd ref="2297276750"/>
    <nd ref="2297276683"/>
    <nd ref="2297276730"/>
    <nd ref="2297276717"/>
    <nd ref="2297276679"/>
    <nd ref="2297276779"/>
    <nd ref="2297276641"/>
    <nd ref="2297276614"/>
    <nd ref="2297276933"/>
    <nd ref="2297276824"/>
    <nd ref="2297276878"/>
    <nd ref="2297276966"/>
    <nd ref="2297276970"/>
    <nd ref="2297276866"/>
    <nd ref="2297276794"/>
    <nd ref="2297276765"/>
    <nd ref="2297276860"/>
    <tag k="building" v="yes"/>
    <tag k="historic" v="manor"/>
    <tag k="name" v="Chippenham Hall"/>
  </way>
  <way id="220633109" version="1" timestamp="2013-05-09T16:46:22Z" changeset="16050887" uid="281267" user="smb1001">
    <nd ref="2297276655"/>
    <nd ref="2297276828"/>
    <nd ref="2297276929"/>
    <nd ref="2297276616"/>
    <nd ref="2297276612"/>
    <nd ref="2297276927"/>
    <nd ref="2297276816"/>
    <nd ref="2297276862"/>
    <nd ref="2297276655"/>
    <tag k="building" v="yes"/>
    <tag k="name" v="Butler's Cottage"/>
  </way>
  <way id="220633116" version="2" timestamp="2022-08-30T11:31:25Z" changeset="125564596" uid="11078419" user="JSB88">
    <nd ref="2297276980"/>
    <nd ref="2297276698"/>
    <nd ref="2297276832"/>
    <nd ref="2297276693"/>
    <nd ref="2297276759"/>
    <nd ref="2297276900"/>
    <nd ref="2297276980"/>
    <tag k="building" v="yes"/>
    <tag k="name" v="Hare Hall"/>
  </way>
  <way id="220633119" version="3" timestamp="2018-12-18T18:27:27Z" changeset="65589365" uid="364" user="Edward">
    <nd ref="2297276837"/>
    <nd ref="2297276632"/>
    <nd ref="2297276864"/>
    <nd ref="2297276920"/>
    <nd ref="2297276837"/>
    <tag k="addr:housenumber" v="46"/>
    <tag k="addr:postcode" v="CB7 5PR"/>
    <tag k="addr:street" v="High Street"/>
    <tag k="amenity" v="pub"/>
    <tag k="building" v="yes"/>
    <tag k="name" v="Tharp Arms"/>
    <tag k="wikidata" v="Q26419341"/>
  </way>
  <way id="233813075" version="9" timestamp="2025-02-26T17:12:51Z" changeset="162980887" uid="5008136" user="JayTurnr">
    <nd ref="1556285980"/>
    <nd ref="1556286009"/>
    <nd ref="1556285996"/>
    <nd ref="1556285958"/>
    <nd ref="1556285948"/>
    <nd ref="1556286144"/>
    <nd ref="11816337129"/>
    <nd ref="1556286066"/>
    <tag k="expressway" v="yes"/>
    <tag k="highway" v="trunk_link"/>
    <tag k="lane_markings" v="no"/>
    <tag k="lanes" v="1"/>
    <tag k="lit" v="no"/>
    <tag k="maxspeed" v="70 mph"/>
    <tag k="maxspeed:type" v="GB:nsl_dual"/>
    <tag k="national_highways:area" v="6"/>
    <tag k="oneway" v="yes"/>
    <tag k="operator" v="National Highways"/>
    <tag k="operator:wikidata" v="Q5760006"/>
    <tag k="surface" v="asphalt"/>
  </way>
  <way id="256577513" version="5" timestamp="2021-08-09T20:36:07Z" changeset="109428134" uid="493595" user="Yorvik Prestigitator">
    <nd ref="2622271726"/>
    <nd ref="2622271728"/>
    <nd ref="7781356945"/>
    <nd ref="7781356946"/>
    <nd ref="7781356947"/>
    <nd ref="7781356948"/>
    <nd ref="2622271730"/>
    <nd ref="2622271732"/>
    <nd ref="2622271734"/>
    <nd ref="2622271736"/>
    <nd ref="2622271726"/>
    <tag k="addr:city" v="Chippenham"/>
    <tag k="amenity" v="community_centre"/>
    <tag k="building" v="public"/>
    <tag k="community_centre" v="village_hall"/>
    <tag k="name" v="Chippenham Village Hall"/>
  </way>
  <way id="256577576" version="2" timestamp="2021-02-01T14:01:02Z" changeset="98516365" uid="11078419" user="JSB88">
    <nd ref="2622272319"/>
    <nd ref="8384127225"/>
    <nd ref="8384127226"/>
    <nd ref="8384127227"/>
    <nd ref="8384127228"/>
    <nd ref="8384127229"/>
    <nd ref="8384127230"/>
    <nd ref="2622272320"/>
    <nd ref="8384127231"/>
    <nd ref="8384127224"/>
    <nd ref="2622272321"/>
    <nd ref="2622272322"/>
    <nd ref="2622272319"/>
    <tag k="building" v="yes"/>
    <tag k="name" v="Chippenham Old School House"/>
  </way>
  <way id="528467450" version="9" timestamp="2025-02-26T17:12:08Z" changeset="162980846" uid="5008136" user="JayTurnr">
    <nd ref="263045837"/>
    <nd ref="1556285993"/>
    <nd ref="213909"/>
    <nd ref="1556286052"/>
    <nd ref="213910"/>
    <nd ref="11816337124"/>
    <nd ref="213911"/>
    <tag k="expressway" v="yes"/>
    <tag k="foot" v="no"/>
    <tag k="highway" v="trunk"/>
    <tag k="lanes" v="2"/>
    <tag k="lit" v="no"/>
    <tag k="maintenance" v="salting"/>
    <tag k="maxspeed" v="70 mph"/>
    <tag k="maxspeed:type" v="GB:nsl_dual"/>
    <tag k="national_highways:area" v="6"/>
    <tag k="oneway" v="yes"/>
    <tag k="operator" v="National Highways"/>
    <tag k="operator:wikidata" v="Q5760006"/>
    <tag k="ref" v="A11"/>
    <tag k="sidewalk" v="no"/>
    <tag k="surface" v="asphalt"/>
  </way>
  <way id="629213856" version="4" timestamp="2023-05-14T11:00:41Z" changeset="136080390" uid="3199858" user="Mateusz Konieczny - bot account">
    <nd ref="5940655216"/>
    <nd ref="5940655214"/>
    <nd ref="10231932819"/>
    <nd ref="5940655219"/>
    <nd ref="5940655223"/>
    <nd ref="10231932820"/>
    <nd ref="10231932821"/>
    <nd ref="5940655216"/>
    <tag k="addr:postcode" v="CB7 5PZ"/>
    <tag k="addr:village" v="Chippenham"/>
    <tag k="amenity" v="cafe"/>
    <tag k="building" v="yes"/>
    <tag k="name" v="La Hogue Farm Shop &amp; Caf"/>
    <tag k="shop" v="farm"/>
    <tag k="url" v="http://www.lahogue.co.uk/"/>
  </way>
  <way id="629214843" version="2" timestamp="2018-12-18T18:27:33Z" changeset="65589365" uid="364" user="Edward">
    <nd ref="5940659265"/>
    <nd ref="5940659251"/>
    <nd ref="5940659254"/>
    <nd ref="5940659256"/>
    <nd ref="5940659253"/>
    <nd ref="5940659255"/>
    <nd ref="5940659265"/>
    <tag k="addr:housenumber" v="50"/>
    <tag k="addr:street" v="High Street"/>
    <tag k="addr:village" v="Chippenham"/>
    <tag k="building" v="house"/>
    <tag k="wikidata" v="Q26616655"/>
  </way>
  <way id="648699370" version="2" timestamp="2021-02-08T13:36:56Z" changeset="98913600" uid="11078419" user="JSB88">
    <nd ref="6089719090"/>
    <nd ref="8405122588"/>
    <nd ref="8405122587"/>
    <nd ref="8405122586"/>
    <nd ref="8405122585"/>
    <nd ref="6089719089"/>
    <nd ref="6089719088"/>
    <nd ref="6089719086"/>
    <nd ref="6089718884"/>
    <nd ref="6089718883"/>
    <nd ref="6089719085"/>
    <nd ref="6089719087"/>
    <nd ref="6089719090"/>
    <tag k="addr:housenumber" v="2"/>
    <tag k="addr:postcode" v="CB7 5PS"/>
    <tag k="addr:street" v="Parkside"/>
    <tag k="building" v="house"/>
  </way>
  <way id="654772820" version="2" timestamp="2024-05-18T08:16:25Z" changeset="151482074" uid="5173844" user="ndrw6">
    <nd ref="6135566059"/>
    <nd ref="11915163019"/>
    <nd ref="1124252335"/>
    <nd ref="2297276843"/>
    <nd ref="2297276783"/>
    <nd ref="2297276892"/>
    <nd ref="1124252350"/>
    <nd ref="11915163014"/>
    <tag k="highway" v="residential"/>
    <tag k="name" v="Tharp Way"/>
    <tag k="source" v="OS OpenData StreetView"/>
  </way>
  <way id="843038263" version="1" timestamp="2020-09-01T09:17:37Z" changeset="90234096" uid="11078419" user="JSB88">
    <nd ref="7864320510"/>
    <nd ref="7864320511"/>
    <nd ref="7864320512"/>
    <nd ref="7864320513"/>
    <nd ref="7864320510"/>
    <tag k="addr:housenumber" v="71"/>
    <tag k="addr:street" v="New Street"/>
    <tag k="building" v="house"/>
  </way>
  <way id="843038264" version="1" timestamp="2020-09-01T09:17:37Z" changeset="90234096" uid="11078419" user="JSB88">
    <nd ref="7864320514"/>
    <nd ref="7864320511"/>
    <nd ref="7864320512"/>
    <nd ref="7864320515"/>
    <nd ref="7864320514"/>
    <tag k="addr:housenumber" v="73"/>
    <tag k="addr:street" v="New Street"/>
    <tag k="building" v="house"/>
  </way>
  <way id="843038265" version="1" timestamp="2020-09-01T09:17:37Z" changeset="90234096" uid="11078419" user="JSB88">
    <nd ref="7864320516"/>
    <nd ref="7864320517"/>
    <nd ref="7864320518"/>
    <nd ref="7864320519"/>
    <nd ref="7864320516"/>
    <tag k="addr:housenumber" v="75"/>
    <tag k="addr:street" v="New Street"/>
    <tag k="building" v="house"/>
  </way>
  <way id="843038266" version="1" timestamp="2020-09-01T09:17:37Z" changeset="90234096" uid="11078419" user="JSB88">
    <nd ref="7864320519"/>
    <nd ref="7864320518"/>
    <nd ref="7864320520"/>
    <nd ref="7864320521"/>
    <nd ref="7864320519"/>
    <tag k="addr:housenumber" v="77"/>
    <tag k="addr:street" v="New Street"/>
    <tag k="building" v="house"/>
  </way>
  <way id="843038267" version="1" timestamp="2020-09-01T09:17:37Z" changeset="90234096" uid="11078419" user="JSB88">
    <nd ref="7864320522"/>
    <nd ref="7864320523"/>
    <nd ref="7864320524"/>
    <nd ref="7864320525"/>
    <nd ref="7864320526"/>
    <nd ref="7864320527"/>
    <nd ref="7864320528"/>
    <nd ref="7864320529"/>
    <nd ref="7864320522"/>
    <tag k="addr:housenumber" v="79"/>
    <tag k="addr:street" v="New Street"/>
    <tag k="building" v="house"/>
  </way>
  <way id="843038268" version="1" timestamp="2020-09-01T09:17:37Z" changeset="90234096" uid="11078419" user="JSB88">
    <nd ref="7864320530"/>
    <nd ref="7864320531"/>
    <nd ref="7864320532"/>
    <nd ref="7864320533"/>
    <nd ref="7864320534"/>
    <nd ref="7864320535"/>
    <nd ref="7864320530"/>
    <tag k="addr:housenumber" v="81"/>
    <tag k="addr:street" v="New Street"/>
    <tag k="building" v="house"/>
  </way>
  <way id="843038275" version="2" timestamp="2022-07-05T13:30:46Z" changeset="123235957" uid="281267" user="smb1001">
    <nd ref="7864320566"/>
    <nd ref="7864320567"/>
    <nd ref="7864320568"/>
    <nd ref="7864320569"/>
    <nd ref="7864320570"/>
    <nd ref="7864320571"/>
    <nd ref="7864320572"/>
    <nd ref="7864320573"/>
    <nd ref="7864320566"/>
    <tag k="building" v="yes"/>
    <tag k="name" v="Chippenham Lawn Bowls Club"/>
  </way>
  <way id="843038276" version="1" timestamp="2020-09-01T09:17:37Z" changeset="90234096" uid="11078419" user="JSB88">
    <nd ref="7864320574"/>
    <nd ref="7864320575"/>
    <nd ref="7864320576"/>
    <nd ref="7864320577"/>
    <nd ref="7864320578"/>
    <nd ref="7864320579"/>
    <nd ref="7864320580"/>
    <nd ref="7864320581"/>
    <nd ref="7864320582"/>
    <nd ref="7864320583"/>
    <nd ref="7864320584"/>
    <nd ref="7864335585"/>
    <nd ref="7864335586"/>
    <nd ref="7864335587"/>
    <nd ref="7864335588"/>
    <nd ref="7864335589"/>
    <nd ref="7864335590"/>
    <nd ref="7864335591"/>
    <nd ref="7864335592"/>
    <nd ref="7864335593"/>
    <nd ref="7864335594"/>
    <nd ref="7864335595"/>
    <nd ref="7864335596"/>
    <nd ref="7864335597"/>
    <nd ref="7864335598"/>
    <nd ref="7864335599"/>
    <nd ref="7864335600"/>
    <nd ref="7864335601"/>
    <nd ref="7864335602"/>
    <nd ref="7864335603"/>
    <nd ref="7864335604"/>
    <nd ref="7864335605"/>
    <nd ref="7864335606"/>
    <nd ref="7864335607"/>
    <nd ref="7864335608"/>
    <nd ref="7864335609"/>
    <nd ref="7864320574"/>
    <tag k="building" v="house"/>
    <tag k="name" v="Chippenham Lodge Stud"/>
  </way>
  <way id="905062740" version="1" timestamp="2021-02-08T13:36:56Z" changeset="98913600" uid="11078419" user="JSB88">
    <nd ref="8405122589"/>
    <nd ref="8405122590"/>
    <nd ref="8405122591"/>
    <nd ref="8405122592"/>
    <nd ref="8405122589"/>
    <tag k="addr:housenumber" v="3"/>
    <tag k="addr:postcode" v="CB7 5PS"/>
    <tag k="addr:street" v="Parkside"/>
    <tag k="building" v="house"/>
  </way>
  <way id="905062741" version="1" timestamp="2021-02-08T13:36:56Z" changeset="98913600" uid="11078419" user="JSB88">
    <nd ref="8405122593"/>
    <nd ref="8405122594"/>
    <nd ref="8405122595"/>
    <nd ref="8405144149"/>
    <nd ref="8405122596"/>
    <nd ref="8405122593"/>
    <tag k="addr:housenumber" v="1"/>
    <tag k="addr:postcode" v="CB7 5PS"/>
    <tag k="addr:street" v="Parkside"/>
    <tag k="building" v="house"/>
  </way>
  <way id="905062742" version="1" timestamp="2021-02-08T13:36:56Z" changeset="98913600" uid="11078419" user="JSB88">
    <nd ref="8405122597"/>
    <nd ref="8405122598"/>
    <nd ref="8405122599"/>
    <nd ref="8405122600"/>
    <nd ref="8405122601"/>
    <nd ref="8405122602"/>
    <nd ref="8405122603"/>
    <nd ref="8405122604"/>
    <nd ref="8405122597"/>
    <tag k="addr:housenumber" v="65"/>
    <tag k="addr:street" v="High Street"/>
    <tag k="building" v="house"/>
  </way>
  <way id="905062743" version="1" timestamp="2021-02-08T13:36:56Z" changeset="98913600" uid="11078419" user="JSB88">
    <nd ref="8405122605"/>
    <nd ref="8405122606"/>
    <nd ref="8405122607"/>
    <nd ref="8405122609"/>
    <nd ref="8405122610"/>
    <nd ref="8405122611"/>
    <nd ref="8405122608"/>
    <nd ref="8405122612"/>
    <nd ref="8405122605"/>
    <tag k="addr:housenumber" v="63"/>
    <tag k="addr:street" v="High Street"/>
    <tag k="building" v="house"/>
  </way>
  <way id="905062744" version="1" timestamp="2021-02-08T13:36:56Z" changeset="98913600" uid="11078419" user="JSB88">
    <nd ref="8405122613"/>
    <nd ref="8405122614"/>
    <nd ref="8405122615"/>
    <nd ref="8405122616"/>
    <nd ref="8405144117"/>
    <nd ref="8405144118"/>
    <nd ref="8405122610"/>
    <nd ref="8405144119"/>
    <nd ref="8405122613"/>
    <tag k="addr:housenumber" v="64"/>
    <tag k="addr:street" v="High Street"/>
    <tag k="building" v="house"/>
  </way>
  <way id="905062747" version="1" timestamp="2021-02-08T13:36:56Z" changeset="98913600" uid="11078419" user="JSB88">
    <nd ref="8405144134"/>
    <nd ref="8405144135"/>
    <nd ref="8405144136"/>
    <nd ref="8405144137"/>
    <nd ref="8405144134"/>
    <tag k="addr:housenumber" v="62"/>
    <tag k="addr:street" v="High Street"/>
    <tag k="building" v="house"/>
  </way>
  <way id="905062752" version="2" timestamp="2021-05-03T10:47:04Z" changeset="104049349" uid="281267" user="smb1001">
    <nd ref="8405144153"/>
    <nd ref="8405144154"/>
    <nd ref="8405144155"/>
    <nd ref="8405144156"/>
    <nd ref="8405144157"/>
    <nd ref="8405144164"/>
    <nd ref="8405144163"/>
    <nd ref="8405144162"/>
    <nd ref="8405144161"/>
    <nd ref="8405144158"/>
    <nd ref="8405144159"/>
    <nd ref="8405144160"/>
    <nd ref="8405144153"/>
    <tag k="addr:housenumber" v="57"/>
    <tag k="addr:postcode" v="CB7 5PP"/>
    <tag k="addr:street" v="High Street"/>
    <tag k="building" v="house"/>
  </way>
  <way id="905062771" version="1" timestamp="2021-02-08T13:36:56Z" changeset="98913600" uid="11078419" user="JSB88">
    <nd ref="8405144348"/>
    <nd ref="8405144349"/>
    <nd ref="8405144350"/>
    <nd ref="8405144351"/>
    <nd ref="8405144352"/>
    <nd ref="8405144353"/>
    <nd ref="8405144354"/>
    <nd ref="8405144355"/>
    <nd ref="8405144348"/>
    <tag k="addr:city" v="Chippenham"/>
    <tag k="addr:housename" v="Ostlers Cottage"/>
    <tag k="addr:housenumber" v="2"/>
    <tag k="addr:postcode" v="CB7 5PN"/>
    <tag k="addr:street" v="Scotland End"/>
    <tag k="building" v="house"/>
  </way>
  <way id="1090466208" version="1" timestamp="2022-08-30T11:31:25Z" changeset="125564596" uid="11078419" user="JSB88">
    <nd ref="9988137466"/>
    <nd ref="9988137467"/>
    <nd ref="9988137468"/>
    <nd ref="9988137469"/>
    <nd ref="9988137470"/>
    <nd ref="9988137471"/>
    <nd ref="9988137472"/>
    <nd ref="9988137473"/>
    <nd ref="9988137474"/>
    <nd ref="9988137475"/>
    <nd ref="9988137476"/>
    <nd ref="9988137477"/>
    <nd ref="9988137478"/>
    <nd ref="9988137479"/>
    <nd ref="2297276645"/>
    <nd ref="2297276945"/>
    <nd ref="9988137466"/>
    <tag k="building" v="house"/>
    <tag k="name" v="John Tharp House"/>
  </way>
  <way id="1090466217" version="2" timestamp="2023-12-28T16:48:02Z" changeset="145628525" uid="242345" user="confusedbuffalo">
    <nd ref="9988137528"/>
    <nd ref="9988137529"/>
    <nd ref="9988137530"/>
    <nd ref="9988137531"/>
    <nd ref="9988137532"/>
    <nd ref="9988137533"/>
    <nd ref="9988137534"/>
    <nd ref="9988137535"/>
    <nd ref="9988137536"/>
    <nd ref="9988137537"/>
    <nd ref="9988137538"/>
    <nd ref="9988137539"/>
    <nd ref="9988137540"/>
    <nd ref="9988137541"/>
    <nd ref="9988137542"/>
    <nd ref="9988137543"/>
    <nd ref="9988137544"/>
    <nd ref="9988137545"/>
    <nd ref="9988137546"/>
    <nd ref="9988137547"/>
    <nd ref="9988137548"/>
    <nd ref="9988137549"/>
    <nd ref="9988137550"/>
    <nd ref="9988137551"/>
    <nd ref="9988137528"/>
    <tag k="addr:postcode" v="CB7 5QQ"/>
    <tag k="building" v="yes"/>
    <tag k="historic" v="manor"/>
    <tag k="name" v="Badlingham Manor"/>
  </way>
  <way id="1216361929" version="4" timestamp="2025-02-27T20:04:42Z" changeset="163027132" uid="5229644" user="Nathan_A_RF">
    <nd ref="13336610"/>
    <nd ref="12620914987"/>
    <nd ref="13336609"/>
    <nd ref="1556285999"/>
    <tag k="destination:ref" v="A11"/>
    <tag k="expressway" v="yes"/>
    <tag k="highway" v="primary"/>
    <tag k="lanes" v="2"/>
    <tag k="lit" v="no"/>
    <tag k="maintenance" v="salting"/>
    <tag k="maxspeed" v="70 mph"/>
    <tag k="maxspeed:type" v="GB:nsl_dual"/>
    <tag k="national_highways:area" v="6"/>
    <tag k="oneway" v="yes"/>
    <tag k="operator" v="National Highways"/>
    <tag k="operator:wikidata" v="Q5760006"/>
    <tag k="ref" v="A1304"/>
    <tag k="sidewalk" v="no"/>
    <tag k="surface" v="asphalt"/>
  </way>
  <way id="1216361930" version="3" timestamp="2025-02-27T20:04:42Z" changeset="163027132" uid="5229644" user="Nathan_A_RF">
    <nd ref="1556286091"/>
    <nd ref="13336608"/>
    <nd ref="12623992384"/>
    <nd ref="13336610"/>
    <tag k="expressway" v="yes"/>
    <tag k="highway" v="primary"/>
    <tag k="lanes" v="1"/>
    <tag k="lit" v="no"/>
    <tag k="maintenance" v="salting"/>
    <tag k="maxspeed" v="70 mph"/>
    <tag k="maxspeed:type" v="GB:nsl_dual"/>
    <tag k="national_highways:area" v="6"/>
    <tag k="oneway" v="yes"/>
    <tag k="operator" v="National Highways"/>
    <tag k="operator:wikidata" v="Q5760006"/>
    <tag k="ref" v="A1304"/>
    <tag k="sidewalk" v="no"/>
    <tag k="surface" v="asphalt"/>
  </way>
  <way id="1284335893" version="1" timestamp="2024-05-18T08:16:25Z" changeset="151482074" uid="5173844" user="ndrw6">
    <nd ref="1124252350"/>
    <nd ref="6135566194"/>
    <nd ref="11915163015"/>
    <tag k="highway" v="residential"/>
    <tag k="name" v="Tharp Way"/>
    <tag k="source" v="OS OpenData StreetView"/>
  </way>
  <way id="1284335895" version="1" timestamp="2024-05-18T08:16:25Z" changeset="151482074" uid="5173844" user="ndrw6">
    <nd ref="1124252335"/>
    <nd ref="1124252337"/>
    <tag k="highway" v="residential"/>
    <tag k="name" v="Tharp Way"/>
    <tag k="source" v="OS OpenData StreetView"/>
  </way>
  <way id="1284335919" version="1" timestamp="2024-05-18T08:16:25Z" changeset="151482074" uid="5173844" user="ndrw6">
    <nd ref="11915163147"/>
    <nd ref="11915163145"/>
    <tag k="highway" v="residential"/>
  </way>
  <way id="1284335920" version="1" timestamp="2024-05-18T08:16:25Z" changeset="151482074" uid="5173844" user="ndrw6">
    <nd ref="248484470"/>
    <nd ref="2297276661"/>
    <nd ref="248484472"/>
    <nd ref="248484474"/>
    <nd ref="11915163135"/>
    <nd ref="248484476"/>
    <nd ref="248484478"/>
    <nd ref="11915163152"/>
    <nd ref="11915163150"/>
    <nd ref="11915163151"/>
    <tag k="highway" v="residential"/>
    <tag k="name" v="Scotland End"/>
  </way>
  <way id="1363118118" version="1" timestamp="2025-02-26T17:09:03Z" changeset="162980683" uid="5008136" user="JayTurnr">
    <nd ref="14911469"/>
    <nd ref="1556286091"/>
    <tag k="expressway" v="yes"/>
    <tag k="highway" v="trunk_link"/>
    <tag k="lanes" v="2"/>
    <tag k="lit" v="no"/>
    <tag k="maintenance" v="salting"/>
    <tag k="maxspeed" v="70 mph"/>
    <tag k="maxspeed:type" v="GB:nsl_dual"/>
    <tag k="national_highways:area" v="6"/>
    <tag k="oneway" v="yes"/>
    <tag k="operator" v="National Highways"/>
    <tag k="operator:wikidata" v="Q5760006"/>
    <tag k="ref" v="A1304"/>
    <tag k="sidewalk" v="no"/>
    <tag k="surface" v="asphalt"/>
  </way>
  <way id="1363118512" version="1" timestamp="2025-02-26T17:12:08Z" changeset="162980846" uid="5008136" user="JayTurnr">
    <nd ref="213917"/>
    <nd ref="12620913641"/>
    <tag k="expressway" v="yes"/>
    <tag k="highway" v="trunk"/>
    <tag k="lanes" v="1"/>
    <tag k="lit" v="no"/>
    <tag k="maintenance" v="salting"/>
    <tag k="maxspeed" v="70 mph"/>
    <tag k="maxspeed:type" v="GB:nsl_dual"/>
    <tag k="national_highways:area" v="6"/>
    <tag k="oneway" v="yes"/>
    <tag k="operator" v="National Highways"/>
    <tag k="operator:wikidata" v="Q5760006"/>
    <tag k="ref" v="A11"/>
    <tag k="sidewalk" v="no"/>
    <tag k="surface" v="asphalt"/>
  </way>
  <way id="1363118513" version="1" timestamp="2025-02-26T17:12:08Z" changeset="162980846" uid="5008136" user="JayTurnr">
    <nd ref="1371414184"/>
    <nd ref="213913"/>
    <nd ref="1556286024"/>
    <nd ref="213914"/>
    <tag k="expressway" v="yes"/>
    <tag k="foot" v="no"/>
    <tag k="highway" v="trunk"/>
    <tag k="lanes" v="2"/>
    <tag k="lit" v="no"/>
    <tag k="maintenance" v="salting"/>
    <tag k="maxspeed" v="70 mph"/>
    <tag k="maxspeed:type" v="GB:nsl_dual"/>
    <tag k="national_highways:area" v="6"/>
    <tag k="oneway" v="yes"/>
    <tag k="operator" v="National Highways"/>
    <tag k="operator:wikidata" v="Q5760006"/>
    <tag k="ref" v="A11"/>
    <tag k="sidewalk" v="no"/>
    <tag k="surface" v="asphalt"/>
  </way>
  <way id="1363118514" version="1" timestamp="2025-02-26T17:12:08Z" changeset="162980846" uid="5008136" user="JayTurnr">
    <nd ref="213915"/>
    <nd ref="12620913642"/>
    <nd ref="11816337127"/>
    <nd ref="213952"/>
    <nd ref="11816337128"/>
    <nd ref="1556285988"/>
    <tag k="expressway" v="yes"/>
    <tag k="foot" v="no"/>
    <tag k="highway" v="trunk"/>
    <tag k="lanes" v="2"/>
    <tag k="lit" v="no"/>
    <tag k="maintenance" v="salting"/>
    <tag k="maxheight" v="default"/>
    <tag k="maxspeed" v="70 mph"/>
    <tag k="maxspeed:type" v="GB:nsl_dual"/>
    <tag k="national_highways:area" v="6"/>
    <tag k="oneway" v="yes"/>
    <tag k="operator" v="National Highways"/>
    <tag k="operator:wikidata" v="Q5760006"/>
    <tag k="ref" v="A11"/>
    <tag k="sidewalk" v="no"/>
    <tag k="surface" v="asphalt"/>
  </way>
  <way id="1363118515" version="1" timestamp="2025-02-26T17:12:08Z" changeset="162980846" uid="5008136" user="JayTurnr">
    <nd ref="1556285988"/>
    <nd ref="554314"/>
    <nd ref="11816337130"/>
    <nd ref="1556286066"/>
    <tag k="expressway" v="yes"/>
    <tag k="foot" v="no"/>
    <tag k="highway" v="trunk"/>
    <tag k="lanes" v="2"/>
    <tag k="lit" v="no"/>
    <tag k="maintenance" v="salting"/>
    <tag k="maxheight" v="default"/>
    <tag k="maxspeed" v="70 mph"/>
    <tag k="maxspeed:type" v="GB:nsl_dual"/>
    <tag k="national_highways:area" v="6"/>
    <tag k="oneway" v="yes"/>
    <tag k="operator" v="National Highways"/>
    <tag k="operator:wikidata" v="Q5760006"/>
    <tag k="ref" v="A11"/>
    <tag k="sidewalk" v="no"/>
    <tag k="surface" v="asphalt"/>
  </way>
  <way id="1363118516" version="2" timestamp="2025-02-26T17:16:43Z" changeset="162981023" uid="5008136" user="JayTurnr">
    <nd ref="213911"/>
    <nd ref="213912"/>
    <nd ref="12620924966"/>
    <nd ref="1371414184"/>
    <tag k="expressway" v="yes"/>
    <tag k="foot" v="no"/>
    <tag k="highway" v="trunk"/>
    <tag k="lanes" v="2"/>
    <tag k="lit" v="no"/>
    <tag k="maintenance" v="salting"/>
    <tag k="maxspeed" v="70 mph"/>
    <tag k="maxspeed:type" v="GB:nsl_dual"/>
    <tag k="national_highways:area" v="6"/>
    <tag k="oneway" v="yes"/>
    <tag k="operator" v="National Highways"/>
    <tag k="operator:wikidata" v="Q5760006"/>
    <tag k="ref" v="A11"/>
    <tag k="sidewalk" v="no"/>
    <tag k="surface" v="asphalt"/>
  </way>

</osm>
