<?xml version="1.0" encoding="UTF-8"?>
<osm version="0.6" generator="Overpass API 0.7.62.5 1bd436f1">
<note>The data included in this document is from www.openstreetmap.org. The data is made available under ODbL.</note>
<meta osm_base="2025-05-17T22:24:15Z" areas="2024-12-31T00:49:33Z"/>

  <node id="368319" lat="48.8743369" lon="2.2954443" version="8" timestamp="2025-02-03T15:13:04Z" changeset="162090991" uid="7512839" user="Benoît C MdP"/>
  <node id="368320" lat="48.8741145" lon="2.2958561" version="12" timestamp="2025-02-03T15:13:04Z" changeset="162090991" uid="7512839" user="Benoît C MdP"/>
  <node id="368322" lat="48.8735055" lon="2.2958868" version="16" timestamp="2025-02-03T15:13:04Z" changeset="162090991" uid="7512839" user="Benoît C MdP"/>
  <node id="661218" lat="48.8751368" lon="2.2960232" version="5" timestamp="2019-04-26T21:24:27Z" changeset="69616345" uid="7336068" user="Florimondable">
    <tag k="highway" v="traffic_signals"/>
  </node>
  <node id="661220" lat="48.8745805" lon="2.2969670" version="12" timestamp="2024-12-03T23:24:52Z" changeset="159900058" uid="2678738" user="fgouget"/>
  <node id="21660107" lat="48.8718414" lon="2.3011326" version="11" timestamp="2024-09-23T21:56:32Z" changeset="157015066" uid="2678738" user="fgouget"/>
  <node id="21660970" lat="48.8778465" lon="2.2977738" version="8" timestamp="2025-01-27T08:01:53Z" changeset="161807095" uid="7512839" user="Benoît C MdP"/>
  <node id="21661080" lat="48.8771461" lon="2.3003255" version="4" timestamp="2012-09-13T14:17:24Z" changeset="13096519" uid="456113" user="eric_G"/>
  <node id="21661082" lat="48.8788915" lon="2.3035789" version="10" timestamp="2010-07-21T19:41:49Z" changeset="5281707" uid="17286" user="Pieren"/>
  <node id="25626269" lat="48.8701191" lon="2.3065541" version="17" timestamp="2024-09-23T21:56:32Z" changeset="157015066" uid="2678738" user="fgouget"/>
  <node id="25626383" lat="48.8690566" lon="2.3098986" version="13" timestamp="2024-09-23T21:56:32Z" changeset="157015066" uid="2678738" user="fgouget"/>
  <node id="25934280" lat="48.8690756" lon="2.3103197" version="16" timestamp="2024-09-19T00:04:35Z" changeset="156797238" uid="2678738" user="fgouget"/>
  <node id="27235305" lat="48.8763928" lon="2.3078886" version="15" timestamp="2020-06-21T08:10:27Z" changeset="86928349" uid="311391" user="patman37">
    <tag k="highway" v="traffic_signals"/>
  </node>
  <node id="27235327" lat="48.8778763" lon="2.3016909" version="3" timestamp="2010-07-29T23:15:45Z" changeset="5350976" uid="17286" user="Pieren"/>
  <node id="27286715" lat="48.8754383" lon="2.2962423" version="5" timestamp="2011-01-17T11:11:53Z" changeset="6997877" uid="33634" user="lapinos03"/>
  <node id="32560653" lat="48.8732327" lon="2.3001982" version="6" timestamp="2015-12-26T10:44:13Z" changeset="36174005" uid="316829" user="Morannon"/>
  <node id="32560682" lat="48.8750189" lon="2.3086667" version="17" timestamp="2024-12-03T23:10:17Z" changeset="159899829" uid="2678738" user="fgouget">
    <tag k="highway" v="traffic_signals"/>
  </node>
  <node id="32560724" lat="48.8709386" lon="2.3088316" version="10" timestamp="2019-02-01T16:56:06Z" changeset="66838583" uid="570635" user="_phiphou_">
    <tag k="highway" v="traffic_signals"/>
  </node>
  <node id="32560746" lat="48.8730914" lon="2.3100236" version="21" timestamp="2019-01-10T17:23:05Z" changeset="66202941" uid="311391" user="patman37">
    <tag k="highway" v="traffic_signals"/>
  </node>
  <node id="32560750" lat="48.8699287" lon="2.3119315" version="20" timestamp="2013-08-14T15:25:09Z" changeset="17347340" uid="456113" user="eric_G"/>
  <node id="32560751" lat="48.8704136" lon="2.3129040" version="13" timestamp="2010-07-10T16:51:05Z" changeset="5184018" uid="17286" user="Pieren"/>
  <node id="32564555" lat="48.8742701" lon="2.3100246" version="20" timestamp="2019-01-10T17:23:05Z" changeset="66202941" uid="311391" user="patman37"/>
  <node id="34843118" lat="48.8726107" lon="2.2987107" version="20" timestamp="2025-03-10T20:14:01Z" changeset="163458538" uid="21556038" user="VLD282">
    <tag k="button_operated" v="no"/>
    <tag k="crossing" v="traffic_signals"/>
    <tag k="crossing:island" v="yes"/>
    <tag k="crossing:markings" v="zebra"/>
    <tag k="crossing:signals" v="yes"/>
    <tag k="highway" v="crossing"/>
    <tag k="tactile_paving" v="yes"/>
    <tag k="traffic_signals:vibration" v="no"/>
  </node>
  <node id="829526332" lat="48.8706496" lon="2.3055276" version="4" timestamp="2024-09-20T23:06:09Z" changeset="156890640" uid="2678738" user="fgouget"/>
  <node id="981730952" lat="48.8780975" lon="2.3051282" version="7" timestamp="2025-01-20T22:43:03Z" changeset="161580858" uid="2678738" user="fgouget"/>
  <node id="1534568367" lat="48.8733120" lon="2.2965033" version="19" timestamp="2024-10-05T20:11:07Z" changeset="157516316" uid="5589" user="user_5589">
    <tag k="button_operated" v="no"/>
    <tag k="crossing" v="traffic_signals"/>
    <tag k="crossing:island" v="no"/>
    <tag k="crossing:markings" v="zebra"/>
    <tag k="highway" v="crossing"/>
    <tag k="kerb" v="lowered"/>
    <tag k="tactile_paving" v="yes"/>
    <tag k="traffic_signals:sound" v="no"/>
  </node>
  <node id="1534591769" lat="48.8691385" lon="2.3104363" version="10" timestamp="2024-12-05T19:13:58Z" changeset="159969642" uid="21652306" user="VLD284">
    <tag k="button_operated" v="no"/>
    <tag k="crossing" v="traffic_signals"/>
    <tag k="crossing:markings" v="zebra"/>
    <tag k="crossing:signals" v="yes"/>
    <tag k="highway" v="crossing"/>
    <tag k="source" v="cadastre-dgi-fr source : Direction Générale des Impôts - Cadastre. Mise à jour : 2011"/>
    <tag k="tactile_paving" v="yes"/>
  </node>
  <node id="1757087085" lat="48.8722245" lon="2.3125564" version="3" timestamp="2019-01-11T11:35:10Z" changeset="66223519" uid="311391" user="patman37"/>
  <node id="1757087088" lat="48.8728365" lon="2.3107374" version="5" timestamp="2024-11-17T22:13:20Z" changeset="159261441" uid="2678738" user="fgouget">
    <tag k="highway" v="traffic_signals"/>
  </node>
  <node id="2698157917" lat="48.8743703" lon="2.3099465" version="11" timestamp="2024-11-19T00:01:53Z" changeset="159304903" uid="2678738" user="fgouget">
    <tag k="crossing" v="uncontrolled"/>
    <tag k="crossing:island" v="yes"/>
    <tag k="crossing:markings" v="zebra"/>
    <tag k="highway" v="crossing"/>
  </node>
  <node id="3219846389" lat="48.8781213" lon="2.2986556" version="5" timestamp="2021-08-07T09:15:49Z" changeset="109301247" uid="412560" user="Meersbrook"/>
  <node id="3780940363" lat="48.8723189" lon="2.3037216" version="2" timestamp="2024-09-06T21:44:56Z" changeset="156293422" uid="5589" user="user_5589">
    <tag k="building" v="public"/>
    <tag k="name" v="Maison des travaux publics"/>
  </node>
  <node id="3980268306" lat="48.8719050" lon="2.3021035" version="2" timestamp="2016-02-01T09:13:38Z" changeset="36932438" uid="3583058" user="Bolobolo123">
    <tag k="building" v="yes"/>
    <tag k="name" v="ACF"/>
  </node>
  <node id="3985131776" lat="48.8770633" lon="2.3001812" version="2" timestamp="2019-06-28T17:53:59Z" changeset="71716973" uid="3507424" user="Jooxor">
    <tag k="building" v="yes"/>
    <tag k="name" v="Maison nordique"/>
  </node>
  <node id="5057169767" lat="48.8685511" lon="2.3092901" version="2" timestamp="2020-05-29T12:38:06Z" changeset="85947194" uid="311391" user="patman37"/>
  <node id="5937839269" lat="48.8700859" lon="2.3066588" version="7" timestamp="2024-09-23T21:56:32Z" changeset="157015066" uid="2678738" user="fgouget"/>
  <node id="6200688912" lat="48.8714309" lon="2.3024249" version="3" timestamp="2024-09-23T21:56:32Z" changeset="157015066" uid="2678738" user="fgouget"/>
  <node id="6736481995" lat="48.8731280" lon="2.2970824" version="5" timestamp="2024-09-23T21:56:32Z" changeset="157015066" uid="2678738" user="fgouget"/>
  <node id="6892173207" lat="48.8780063" lon="2.3051850" version="5" timestamp="2025-01-20T22:43:03Z" changeset="161580858" uid="2678738" user="fgouget"/>
  <node id="8187832965" lat="48.8783566" lon="2.2994275" version="1" timestamp="2020-12-02T15:50:13Z" changeset="95165537" uid="138059" user="Truchin"/>
  <node id="12009276962" lat="48.8774561" lon="2.2977185" version="2" timestamp="2025-01-25T20:36:44Z" changeset="161760436" uid="5589" user="user_5589"/>
  <node id="12532433232" lat="48.8777857" lon="2.2980745" version="2" timestamp="2025-01-27T08:01:53Z" changeset="161807095" uid="7512839" user="Benoît C MdP">
    <tag k="direction" v="forward"/>
    <tag k="highway" v="give_way"/>
  </node>
  <way id="4039136" version="36" timestamp="2024-12-25T22:09:47Z" changeset="160618030" uid="5589" user="user_5589">
    <nd ref="8187832965"/>
    <nd ref="10218317517"/>
    <nd ref="6213150083"/>
    <nd ref="6213150081"/>
    <nd ref="6213150082"/>
    <nd ref="6166858699"/>
    <nd ref="27235433"/>
    <nd ref="10218266256"/>
    <nd ref="27235424"/>
    <nd ref="4948291638"/>
    <nd ref="12451799473"/>
    <nd ref="10218226793"/>
    <nd ref="12198087424"/>
    <tag k="cycleway:both" v="lane"/>
    <tag k="highway" v="primary"/>
    <tag k="lanes" v="4"/>
    <tag k="lanes:backward" v="2"/>
    <tag k="lanes:forward" v="2"/>
    <tag k="lit" v="yes"/>
    <tag k="maxspeed" v="30"/>
    <tag k="name" v="Boulevard de Courcelles"/>
    <tag k="name:etymology:wikidata" v="Q3001242"/>
    <tag k="sidewalk:both" v="separate"/>
    <tag k="sidewalk:both:surface" v="asphalt"/>
    <tag k="smoothness" v="excellent"/>
    <tag k="source:maxspeed" v="FR:urban"/>
    <tag k="surface" v="asphalt"/>
  </way>
  <way id="4082035" version="32" timestamp="2025-01-27T08:01:53Z" changeset="161807095" uid="7512839" user="Benoît C MdP">
    <nd ref="12532433215"/>
    <nd ref="2698142534"/>
    <tag k="cycleway:left" v="no"/>
    <tag k="cycleway:right" v="lane"/>
    <tag k="cycleway:right:lane" v="exclusive"/>
    <tag k="highway" v="primary"/>
    <tag k="lanes" v="2"/>
    <tag k="lit" v="yes"/>
    <tag k="maxspeed" v="30"/>
    <tag k="name" v="Place des Ternes"/>
    <tag k="name:etymology:wikidata" v="Q968881"/>
    <tag k="oneway" v="yes"/>
    <tag k="sidewalk" v="separate"/>
    <tag k="source:maxspeed" v="FR:urban"/>
    <tag k="surface" v="sett"/>
  </way>
  <way id="4082038" version="16" timestamp="2025-01-16T11:11:46Z" changeset="161413888" uid="7512839" user="Benoît C MdP">
    <nd ref="27286715"/>
    <nd ref="12506750896"/>
    <nd ref="6788935918"/>
    <nd ref="5964830404"/>
    <nd ref="21660275"/>
    <tag k="highway" v="residential"/>
    <tag k="lit" v="yes"/>
    <tag k="maxspeed" v="30"/>
    <tag k="name" v="Rue Beaujon"/>
    <tag k="name:etymology:wikidata" v="Q3340081"/>
    <tag k="oneway" v="yes"/>
    <tag k="sidewalk:left" v="separate"/>
    <tag k="sidewalk:right" v="yes"/>
    <tag k="surface" v="asphalt"/>
  </way>
  <way id="4082041" version="15" timestamp="2025-01-26T11:43:28Z" changeset="161775975" uid="5589" user="user_5589">
    <nd ref="21660279"/>
    <nd ref="8143391114"/>
    <nd ref="21660339"/>
    <nd ref="838123174"/>
    <nd ref="6900188392"/>
    <nd ref="838121846"/>
    <tag k="highway" v="residential"/>
    <tag k="lit" v="yes"/>
    <tag k="maxspeed" v="30"/>
    <tag k="name" v="Avenue Bertie Albrecht"/>
    <tag k="name:etymology:wikidata" v="Q454199"/>
    <tag k="oneway" v="yes"/>
    <tag k="sidewalk:both" v="separate"/>
  </way>
  <way id="4082043" version="27" timestamp="2025-02-28T09:52:09Z" changeset="163044379" uid="2678738" user="fgouget">
    <nd ref="6736481995"/>
    <nd ref="838076500"/>
    <nd ref="1534607383"/>
    <nd ref="11012446365"/>
    <nd ref="11012446368"/>
    <nd ref="3670340321"/>
    <nd ref="8143391109"/>
    <nd ref="21660273"/>
    <nd ref="8143391110"/>
    <nd ref="8143411217"/>
    <nd ref="21660278"/>
    <tag k="cycleway:right" v="no"/>
    <tag k="highway" v="residential"/>
    <tag k="lanes" v="1"/>
    <tag k="lit" v="yes"/>
    <tag k="maxspeed" v="30"/>
    <tag k="name" v="Rue Arsène Houssaye"/>
    <tag k="name:etymology:wikidata" v="Q705210"/>
    <tag k="oneway" v="yes"/>
    <tag k="sidewalk" v="separate"/>
    <tag k="surface" v="asphalt"/>
  </way>
  <way id="4444183" version="27" timestamp="2024-05-24T15:50:45Z" changeset="151777258" uid="21159449" user="elisabeth_geovelo">
    <nd ref="368319"/>
    <nd ref="5620560314"/>
    <nd ref="4950063150"/>
    <nd ref="6170914493"/>
    <nd ref="911471111"/>
    <nd ref="4934446333"/>
    <nd ref="6788936445"/>
    <nd ref="6370024886"/>
    <tag k="busway:right" v="lane"/>
    <tag k="cycleway:right" v="share_busway"/>
    <tag k="highway" v="primary"/>
    <tag k="lanes" v="4"/>
    <tag k="lanes:backward" v="2"/>
    <tag k="lanes:forward" v="2"/>
    <tag k="lit" v="yes"/>
    <tag k="maxspeed" v="30"/>
    <tag k="name" v="Avenue de Wagram"/>
    <tag k="name:etymology:wikidata" v="Q467777"/>
    <tag k="sidewalk" v="separate"/>
    <tag k="smoothness" v="intermediate"/>
    <tag k="surface" v="sett"/>
  </way>
  <way id="4941938" version="37" timestamp="2025-02-28T12:02:43Z" changeset="163049247" uid="2678738" user="fgouget">
    <nd ref="5996498046"/>
    <nd ref="830668046"/>
    <nd ref="11012446359"/>
    <nd ref="3206788753"/>
    <nd ref="32560666"/>
    <nd ref="301571968"/>
    <nd ref="3206788756"/>
    <nd ref="32560667"/>
    <nd ref="301572069"/>
    <nd ref="6900130803"/>
    <nd ref="828134609"/>
    <tag k="cycleway:right" v="no"/>
    <tag k="highway" v="residential"/>
    <tag k="lit" v="yes"/>
    <tag k="maxspeed" v="30"/>
    <tag k="name" v="Rue Washington"/>
    <tag k="name:etymology:wikidata" v="Q23"/>
    <tag k="oneway" v="yes"/>
    <tag k="sidewalk" v="separate"/>
    <tag k="source" v="survey"/>
    <tag k="surface" v="sett"/>
  </way>
  <way id="4941940" version="37" timestamp="2024-11-19T00:01:53Z" changeset="159304903" uid="2678738" user="fgouget">
    <nd ref="5996498049"/>
    <nd ref="830668047"/>
    <nd ref="11012446339"/>
    <nd ref="829203608"/>
    <nd ref="301572445"/>
    <nd ref="6252031114"/>
    <nd ref="32560679"/>
    <nd ref="3088912025"/>
    <nd ref="32560680"/>
    <nd ref="3088912028"/>
    <nd ref="12352452530"/>
    <nd ref="2698157922"/>
    <nd ref="32560681"/>
    <nd ref="2698157908"/>
    <nd ref="3088912029"/>
    <nd ref="12352452523"/>
    <nd ref="32560682"/>
    <tag k="cycleway:both" v="no"/>
    <tag k="highway" v="residential"/>
    <tag k="lit" v="yes"/>
    <tag k="maxspeed" v="30"/>
    <tag k="name" v="Rue de Berri"/>
    <tag k="name:etymology:wikidata" v="Q7758"/>
    <tag k="oneway" v="yes"/>
    <tag k="sidewalk:both" v="separate"/>
    <tag k="surface" v="asphalt"/>
  </way>
  <way id="4941948" version="33" timestamp="2024-03-31T22:07:29Z" changeset="149406831" uid="2678738" user="fgouget">
    <nd ref="32560750"/>
    <nd ref="6898064671"/>
    <nd ref="810136877"/>
    <nd ref="6898098917"/>
    <nd ref="32564556"/>
    <nd ref="6897970843"/>
    <nd ref="6898099597"/>
    <nd ref="32560725"/>
    <tag k="highway" v="residential"/>
    <tag k="maxspeed" v="30"/>
    <tag k="name" v="Rue de Ponthieu"/>
    <tag k="name:etymology:wikidata" v="Q60930"/>
    <tag k="oneway" v="yes"/>
    <tag k="sidewalk:both" v="separate"/>
  </way>
  <way id="4941949" version="23" timestamp="2024-10-09T06:28:32Z" changeset="157656538" uid="53964" user="_Mathieu_">
    <nd ref="32560722"/>
    <nd ref="11012446391"/>
    <nd ref="8143411222"/>
    <nd ref="32560727"/>
    <tag k="cycleway:both" v="no"/>
    <tag k="highway" v="residential"/>
    <tag k="lanes" v="1"/>
    <tag k="maxspeed" v="30"/>
    <tag k="name" v="Rue Paul Baudry"/>
    <tag k="name:etymology:wikidata" v="Q911575"/>
    <tag k="oneway" v="yes"/>
    <tag k="sidewalk" v="separate"/>
    <tag k="surface" v="asphalt"/>
  </way>
  <way id="4941950" version="17" timestamp="2024-10-09T06:28:30Z" changeset="157656538" uid="53964" user="_Mathieu_">
    <nd ref="32560727"/>
    <nd ref="8143411221"/>
    <nd ref="6598790622"/>
    <nd ref="6893342574"/>
    <nd ref="32560718"/>
    <tag k="cycleway:both" v="no"/>
    <tag k="highway" v="residential"/>
    <tag k="maxspeed" v="30"/>
    <tag k="name" v="Rue Frédéric Bastiat"/>
    <tag k="oneway" v="yes"/>
    <tag k="sidewalk:right" v="separate"/>
  </way>
  <way id="4941951" version="25" timestamp="2025-02-28T09:52:11Z" changeset="163044382" uid="2678738" user="fgouget">
    <nd ref="292881410"/>
    <nd ref="3670340322"/>
    <nd ref="3670340321"/>
    <nd ref="3910397145"/>
    <nd ref="11012446367"/>
    <nd ref="3910397144"/>
    <nd ref="3172353226"/>
    <nd ref="32560653"/>
    <nd ref="3172353223"/>
    <nd ref="32560730"/>
    <nd ref="833541039"/>
    <nd ref="833541248"/>
    <nd ref="32560731"/>
    <nd ref="32560732"/>
    <nd ref="32560609"/>
    <tag k="cycleway:right" v="no"/>
    <tag k="highway" v="residential"/>
    <tag k="lanes" v="1"/>
    <tag k="lit" v="yes"/>
    <tag k="maxspeed" v="30"/>
    <tag k="name" v="Rue Lord Byron"/>
    <tag k="name:etymology:wikidata" v="Q5679"/>
    <tag k="oneway" v="yes"/>
    <tag k="sidewalk:both" v="separate"/>
    <tag k="surface" v="sett"/>
  </way>
  <way id="4942516" version="29" timestamp="2024-03-31T20:14:50Z" changeset="149406831" uid="2678738" user="fgouget">
    <nd ref="32564555"/>
    <nd ref="2698157914"/>
    <nd ref="267983455"/>
    <nd ref="267983454"/>
    <nd ref="2698157912"/>
    <nd ref="15644295"/>
    <tag k="cycleway:left" v="opposite_lane"/>
    <tag k="cycleway:left:lane" v="advisory"/>
    <tag k="cycleway:right" v="no"/>
    <tag k="highway" v="unclassified"/>
    <tag k="lane_markings" v="no"/>
    <tag k="lit" v="yes"/>
    <tag k="maxspeed" v="30"/>
    <tag k="name" v="Rue de Courcelles"/>
    <tag k="name:etymology:wikidata" v="Q3001242"/>
    <tag k="oneway" v="yes"/>
    <tag k="oneway:bicycle" v="no"/>
    <tag k="parking:left" v="no"/>
    <tag k="parking:right" v="lane"/>
    <tag k="parking:right:orientation" v="parallel"/>
    <tag k="sidewalk:both" v="separate"/>
    <tag k="surface" v="asphalt"/>
  </way>
  <way id="5098490" version="22" timestamp="2024-12-04T02:32:41Z" changeset="159902356" uid="2678738" user="fgouget">
    <nd ref="25934315"/>
    <nd ref="2419011898"/>
    <nd ref="810236438"/>
    <nd ref="810237228"/>
    <nd ref="25934316"/>
    <tag k="enforcement:operator" v="Police nationale"/>
    <tag k="highway" v="residential"/>
    <tag k="lane_markings" v="no"/>
    <tag k="lit" v="yes"/>
    <tag k="maxspeed" v="30"/>
    <tag k="name" v="Rond-Point des Champs-Élysées - Marcel Dassault"/>
    <tag k="oneway" v="yes"/>
    <tag k="operator" v="Ville de Paris"/>
    <tag k="operator:authority" v="Maire de Paris dans le respect des prescriptions prises par le préfet de police"/>
    <tag k="operator:authority:related_law" v="III de l'article L. 2512-14 du code général des collectivités territoriales"/>
    <tag k="sidewalk:both" v="separate"/>
    <tag k="source:operator:authority" v="https://www.legifrance.gouv.fr/loda/id/LEGIARTI000035244298/#LEGIARTI000035244298"/>
    <tag k="surface" v="asphalt"/>
    <tag k="zone:traffic" v="FR:urban"/>
  </way>
  <way id="5098491" version="17" timestamp="2024-10-04T09:31:10Z" changeset="157451938" uid="7512839" user="Benoît C MdP">
    <nd ref="32560751"/>
    <nd ref="314920133"/>
    <nd ref="6898040883"/>
    <nd ref="11012446326"/>
    <nd ref="34843153"/>
    <tag k="access" v="private"/>
    <tag k="highway" v="residential"/>
    <tag k="maxspeed" v="30"/>
    <tag k="name" v="Rue Rabelais"/>
    <tag k="name:etymology:wikidata" v="Q131018"/>
  </way>
  <way id="5098494" version="14" timestamp="2024-03-31T22:07:12Z" changeset="149406831" uid="2678738" user="fgouget">
    <nd ref="1757087085"/>
    <nd ref="2698157919"/>
    <nd ref="8143391105"/>
    <nd ref="34843153"/>
    <nd ref="6898085421"/>
    <nd ref="32564556"/>
    <nd ref="6898010006"/>
    <nd ref="6898024045"/>
    <nd ref="25934315"/>
    <tag k="highway" v="residential"/>
    <tag k="maxspeed" v="30"/>
    <tag k="name" v="Rue Jean Mermoz"/>
    <tag k="name:etymology:wikidata" v="Q680897"/>
    <tag k="oneway" v="yes"/>
    <tag k="sidewalk:both" v="separate"/>
  </way>
  <way id="5103393" version="16" timestamp="2024-12-04T10:05:17Z" changeset="159911745" uid="2678738" user="fgouget">
    <nd ref="270678320"/>
    <nd ref="270678186"/>
    <tag k="highway" v="unclassified"/>
    <tag k="lit" v="yes"/>
    <tag k="maxspeed" v="30"/>
    <tag k="oneway" v="yes"/>
    <tag k="source:maxspeed" v="FR:urban"/>
    <tag k="surface" v="sett"/>
  </way>
  <way id="8412455" version="22" timestamp="2024-08-24T19:22:39Z" changeset="155709581" uid="5589" user="user_5589">
    <nd ref="27235327"/>
    <nd ref="10218316501"/>
    <nd ref="10218316497"/>
    <nd ref="6213150081"/>
    <tag k="highway" v="residential"/>
    <tag k="lit" v="yes"/>
    <tag k="maxspeed" v="30"/>
    <tag k="name" v="Rue Pierre le Grand"/>
    <tag k="name:etymology:wikidata" v="Q8479"/>
    <tag k="oneway" v="yes"/>
    <tag k="sidewalk:both" v="separate"/>
    <tag k="surface" v="asphalt"/>
  </way>
  <way id="8412456" version="27" timestamp="2024-09-26T16:46:38Z" changeset="157138076" uid="5589" user="user_5589">
    <nd ref="21661082"/>
    <nd ref="12202153520"/>
    <tag k="cycleway:both" v="no"/>
    <tag k="highway" v="residential"/>
    <tag k="lit" v="yes"/>
    <tag k="maxspeed" v="30"/>
    <tag k="name" v="Rue Daru"/>
    <tag k="name:etymology:wikidata" v="Q715144"/>
    <tag k="oneway" v="yes"/>
    <tag k="sidewalk:both" v="separate"/>
    <tag k="surface" v="sett"/>
  </way>
  <way id="16405957" version="23" timestamp="2025-05-11T07:25:08Z" changeset="166095973" uid="195017" user="Julien39">
    <nd ref="169326630"/>
    <nd ref="4935628423"/>
    <nd ref="2698157961"/>
    <nd ref="32560720"/>
    <tag k="cycleway:both" v="no"/>
    <tag k="highway" v="residential"/>
    <tag k="lane_markings" v="no"/>
    <tag k="lit" v="yes"/>
    <tag k="maxspeed" v="30"/>
    <tag k="name" v="Rue du Commandant Rivière"/>
    <tag k="oneway" v="yes"/>
    <tag k="parking:both" v="lane"/>
    <tag k="parking:both:orientation" v="parallel"/>
    <tag k="sidewalk:both" v="separate"/>
    <tag k="surface" v="asphalt"/>
  </way>
  <way id="17067845" version="25" timestamp="2024-03-31T18:11:45Z" changeset="149401603" uid="2678738" user="fgouget">
    <nd ref="32560746"/>
    <nd ref="2698157911"/>
    <nd ref="314916314"/>
    <nd ref="2698157930"/>
    <nd ref="1757087088"/>
    <tag k="cycleway" v="no"/>
    <tag k="highway" v="tertiary"/>
    <tag k="lanes" v="2"/>
    <tag k="lit" v="yes"/>
    <tag k="maxspeed" v="30"/>
    <tag k="name" v="Rue du Faubourg Saint-Honoré"/>
    <tag k="name:etymology:wikidata" v="Q3067310"/>
    <tag k="parking:both" v="no"/>
    <tag k="sidewalk:both" v="separate"/>
    <tag k="smoothness" v="intermediate"/>
    <tag k="source:maxspeed" v="FR:urban"/>
    <tag k="surface" v="sett"/>
  </way>
  <way id="17242996" version="33" timestamp="2024-03-31T22:05:35Z" changeset="149406831" uid="2678738" user="fgouget">
    <nd ref="32560746"/>
    <nd ref="4943067529"/>
    <nd ref="169326630"/>
    <nd ref="11067079883"/>
    <nd ref="32561279"/>
    <tag k="bicycle:lanes" v="yes|yes|designated"/>
    <tag k="busway:right" v="lane"/>
    <tag k="cycleway:left" v="opposite_track"/>
    <tag k="cycleway:right" v="share_busway"/>
    <tag k="highway" v="tertiary"/>
    <tag k="lanes" v="3"/>
    <tag k="lit" v="yes"/>
    <tag k="maxspeed" v="30"/>
    <tag k="name" v="Avenue Franklin Delano Roosevelt"/>
    <tag k="name:etymology:wikidata" v="Q8007"/>
    <tag k="old_name" v="Avenue Victor-Emmanuel III"/>
    <tag k="oneway" v="yes"/>
    <tag k="oneway:bicycle" v="no"/>
    <tag k="parking:left" v="lane"/>
    <tag k="parking:left:orientation" v="parallel"/>
    <tag k="parking:right" v="no"/>
    <tag k="psv:lanes" v="yes|yes|designated"/>
    <tag k="sidewalk:left" v="no"/>
    <tag k="sidewalk:right" v="separate"/>
    <tag k="smoothness" v="intermediate"/>
    <tag k="surface" v="sett"/>
  </way>
  <way id="20205692" version="16" timestamp="2024-12-04T10:05:04Z" changeset="159911745" uid="2678738" user="fgouget">
    <nd ref="270678185"/>
    <nd ref="12098888209"/>
    <nd ref="270678310"/>
    <tag k="highway" v="unclassified"/>
    <tag k="lit" v="yes"/>
    <tag k="maxspeed" v="30"/>
    <tag k="oneway" v="yes"/>
    <tag k="surface" v="sett"/>
  </way>
  <way id="22605479" version="14" timestamp="2024-03-31T18:09:48Z" changeset="149401603" uid="2678738" user="fgouget">
    <nd ref="21660389"/>
    <nd ref="2698157903"/>
    <nd ref="3206788760"/>
    <nd ref="32560667"/>
    <tag k="highway" v="residential"/>
    <tag k="lit" v="yes"/>
    <tag k="maxspeed" v="30"/>
    <tag k="name" v="Rue Lamennais"/>
    <tag k="oneway" v="yes"/>
    <tag k="sidewalk:both" v="separate"/>
    <tag k="source" v="survey"/>
    <tag k="surface" v="asphalt"/>
  </way>
  <way id="24027319" version="29" timestamp="2024-09-25T02:07:06Z" changeset="157061405" uid="2678738" user="fgouget">
    <nd ref="368320"/>
    <nd ref="3670345637"/>
    <nd ref="838123109"/>
    <tag k="highway" v="tertiary"/>
    <tag k="lanes" v="4"/>
    <tag k="lanes:backward" v="2"/>
    <tag k="lanes:forward" v="2"/>
    <tag k="lit" v="yes"/>
    <tag k="maxspeed" v="30"/>
    <tag k="name" v="Avenue Hoche"/>
    <tag k="name:etymology:wikidata" v="Q367042"/>
    <tag k="sidewalk:both" v="separate"/>
    <tag k="smoothness" v="intermediate"/>
    <tag k="surface" v="sett"/>
  </way>
  <way id="24027327" version="27" timestamp="2025-01-27T08:01:53Z" changeset="161807095" uid="7512839" user="Benoît C MdP">
    <nd ref="21660340"/>
    <nd ref="2698142518"/>
    <nd ref="259681779"/>
    <nd ref="5561542459"/>
    <nd ref="2698142497"/>
    <nd ref="21661080"/>
    <nd ref="838545863"/>
    <nd ref="21661077"/>
    <nd ref="2698142560"/>
    <nd ref="21661076"/>
    <nd ref="273415121"/>
    <nd ref="12532433226"/>
    <tag k="bicycle:lanes:backward" v="yes|designated"/>
    <tag k="busway:left" v="lane"/>
    <tag k="cycleway:left" v="share_busway"/>
    <tag k="cycleway:right" v="no"/>
    <tag k="highway" v="tertiary"/>
    <tag k="lanes" v="3"/>
    <tag k="lanes:backward" v="2"/>
    <tag k="lanes:forward" v="1"/>
    <tag k="lit" v="yes"/>
    <tag k="maxspeed" v="30"/>
    <tag k="name" v="Rue du Faubourg Saint-Honoré"/>
    <tag k="name:etymology:wikidata" v="Q3067310"/>
    <tag k="psv:lanes:backward" v="yes|designated"/>
    <tag k="sidewalk:both" v="separate"/>
    <tag k="surface" v="sett"/>
  </way>
  <way id="24792898" version="14" timestamp="2025-01-26T11:43:21Z" changeset="161775975" uid="5589" user="user_5589">
    <nd ref="21660275"/>
    <nd ref="5964830379"/>
    <nd ref="21660278"/>
    <nd ref="8143391116"/>
    <nd ref="8143391115"/>
    <nd ref="21660279"/>
    <nd ref="2698157907"/>
    <nd ref="21660280"/>
    <tag k="highway" v="residential"/>
    <tag k="lit" v="yes"/>
    <tag k="maxspeed" v="30"/>
    <tag k="name" v="Rue Beaujon"/>
    <tag k="name:etymology:wikidata" v="Q3340081"/>
    <tag k="sidewalk:both" v="separate"/>
    <tag k="surface" v="asphalt"/>
  </way>
  <way id="24911190" version="36" timestamp="2024-09-25T02:05:48Z" changeset="157061405" uid="2678738" user="fgouget">
    <nd ref="368321"/>
    <nd ref="5620560316"/>
    <nd ref="7978832006"/>
    <nd ref="838076532"/>
    <nd ref="838122995"/>
    <tag k="highway" v="primary"/>
    <tag k="lanes" v="4"/>
    <tag k="lanes:backward" v="2"/>
    <tag k="lanes:forward" v="2"/>
    <tag k="lit" v="yes"/>
    <tag k="maxspeed" v="30"/>
    <tag k="name" v="Avenue de Friedland"/>
    <tag k="name:etymology:wikidata" v="Q241108"/>
    <tag k="sidewalk:both" v="separate"/>
    <tag k="sidewalk:both:surface" v="asphalt"/>
    <tag k="smoothness" v="intermediate"/>
    <tag k="surface" v="sett"/>
  </way>
  <way id="24911205" version="17" timestamp="2024-08-08T14:05:27Z" changeset="154981319" uid="7512839" user="Benoît C MdP">
    <nd ref="270678168"/>
    <nd ref="2698157910"/>
    <nd ref="12098894126"/>
    <tag k="bicycle:lanes" v="yes|yes|designated"/>
    <tag k="busway:right" v="lane"/>
    <tag k="cycleway:right" v="share_busway"/>
    <tag k="dual_carriageway" v="yes"/>
    <tag k="highway" v="primary"/>
    <tag k="lanes" v="3"/>
    <tag k="lit" v="yes"/>
    <tag k="maxspeed" v="30"/>
    <tag k="name" v="Boulevard Haussmann"/>
    <tag k="name:etymology:wikidata" v="Q191798"/>
    <tag k="oneway" v="yes"/>
    <tag k="psv:lanes" v="yes|yes|designated"/>
    <tag k="sidewalk:right" v="separate"/>
    <tag k="source:maxspeed" v="FR:urban"/>
    <tag k="surface" v="sett"/>
  </way>
  <way id="24911210" version="35" timestamp="2024-11-19T00:01:53Z" changeset="159304903" uid="2678738" user="fgouget">
    <nd ref="270678168"/>
    <nd ref="5693712463"/>
    <nd ref="5561542462"/>
    <nd ref="4943067530"/>
    <nd ref="12352452528"/>
    <nd ref="12352452527"/>
    <nd ref="7847753431"/>
    <nd ref="12352452526"/>
    <nd ref="12352452525"/>
    <nd ref="826706429"/>
    <nd ref="12352452522"/>
    <nd ref="32560682"/>
    <tag k="bicycle:lanes:backward" v="yes|designated"/>
    <tag k="busway:left" v="lane"/>
    <tag k="cycleway:both" v="share_busway"/>
    <tag k="highway" v="primary"/>
    <tag k="lanes" v="5"/>
    <tag k="lanes:backward" v="2"/>
    <tag k="lanes:forward" v="3"/>
    <tag k="lit" v="yes"/>
    <tag k="maxspeed" v="30"/>
    <tag k="name" v="Boulevard Haussmann"/>
    <tag k="name:etymology:wikidata" v="Q191798"/>
    <tag k="psv:lanes:backward" v="yes|designated"/>
    <tag k="sidewalk" v="both"/>
    <tag k="sidewalk:both:surface" v="asphalt"/>
    <tag k="smoothness" v="intermediate"/>
    <tag k="surface" v="sett"/>
  </way>
  <way id="24911219" version="18" timestamp="2024-12-04T02:40:22Z" changeset="159902356" uid="2678738" user="fgouget">
    <nd ref="270678310"/>
    <nd ref="271081455"/>
    <nd ref="4943067533"/>
    <nd ref="270678320"/>
    <tag k="cycleway:left" v="no"/>
    <tag k="cycleway:right" v="separate"/>
    <tag k="dual_carriageway" v="yes"/>
    <tag k="highway" v="primary"/>
    <tag k="lanes" v="3"/>
    <tag k="lit" v="yes"/>
    <tag k="maxspeed" v="30"/>
    <tag k="name" v="Boulevard Haussmann"/>
    <tag k="name:etymology:wikidata" v="Q191798"/>
    <tag k="oneway" v="yes"/>
    <tag k="sidewalk:left" v="no"/>
    <tag k="sidewalk:right" v="separate"/>
    <tag k="source:maxspeed" v="FR:urban"/>
    <tag k="surface" v="sett"/>
  </way>
  <way id="24911231" version="27" timestamp="2024-12-03T23:10:17Z" changeset="159899829" uid="2678738" user="fgouget">
    <nd ref="7639791827"/>
    <nd ref="12098894104"/>
    <nd ref="177235297"/>
    <nd ref="2755900486"/>
    <nd ref="8168344743"/>
    <nd ref="2755900483"/>
    <nd ref="2698157940"/>
    <nd ref="271080767"/>
    <nd ref="3110686888"/>
    <nd ref="270678784"/>
    <tag k="cycleway:both" v="no"/>
    <tag k="highway" v="tertiary"/>
    <tag k="lane_markings" v="no"/>
    <tag k="lit" v="yes"/>
    <tag k="maxspeed" v="30"/>
    <tag k="name" v="Rue du Faubourg Saint-Honoré"/>
    <tag k="name:etymology:wikidata" v="Q3067310"/>
    <tag k="oneway" v="yes"/>
    <tag k="sidewalk:both" v="separate"/>
    <tag k="source:maxspeed" v="FR:urban"/>
    <tag k="surface" v="sett"/>
  </way>
  <way id="24911252" version="21" timestamp="2024-11-19T00:01:53Z" changeset="159304903" uid="2678738" user="fgouget">
    <nd ref="270678320"/>
    <nd ref="12098894114"/>
    <nd ref="2698157946"/>
    <nd ref="32560742"/>
    <nd ref="826680544"/>
    <nd ref="12352452531"/>
    <nd ref="2698157935"/>
    <nd ref="32560681"/>
    <tag k="cycleway:both" v="no"/>
    <tag k="highway" v="tertiary"/>
    <tag k="lane_markings" v="no"/>
    <tag k="lit" v="yes"/>
    <tag k="maxspeed" v="30"/>
    <tag k="name" v="Rue du Faubourg Saint-Honoré"/>
    <tag k="name:etymology:wikidata" v="Q3067310"/>
    <tag k="oneway" v="yes"/>
    <tag k="sidewalk:both" v="separate"/>
    <tag k="source:maxspeed" v="FR:urban"/>
    <tag k="surface" v="sett"/>
  </way>
  <way id="24911264" version="21" timestamp="2024-03-31T18:09:14Z" changeset="149401603" uid="2678738" user="fgouget">
    <nd ref="270678784"/>
    <nd ref="2698142573"/>
    <nd ref="828098457"/>
    <nd ref="270679171"/>
    <nd ref="6900198585"/>
    <nd ref="2698157905"/>
    <nd ref="6996510788"/>
    <nd ref="21660458"/>
    <tag k="highway" v="residential"/>
    <tag k="lit" v="yes"/>
    <tag k="maxspeed" v="30"/>
    <tag k="name" v="Rue Berryer"/>
    <tag k="name:etymology:wikidata" v="Q917890"/>
    <tag k="oneway" v="yes"/>
    <tag k="sidewalk:left" v="yes"/>
    <tag k="sidewalk:right" v="separate"/>
    <tag k="surface" v="sett"/>
  </way>
  <way id="24944190" version="11" timestamp="2024-12-03T23:10:17Z" changeset="159899829" uid="2678738" user="fgouget">
    <nd ref="271080767"/>
    <nd ref="8168344741"/>
    <nd ref="12394889944"/>
    <nd ref="270679171"/>
    <tag k="highway" v="unclassified"/>
    <tag k="maxspeed" v="30"/>
    <tag k="name" v="Place du Père Ambroise-Marie Carré"/>
    <tag k="name:etymology:wikidata" v="Q481450"/>
    <tag k="oneway" v="yes"/>
    <tag k="sidewalk:left" v="separate"/>
    <tag k="surface" v="sett"/>
  </way>
  <way id="24944197" version="13" timestamp="2024-08-24T19:25:46Z" changeset="155709581" uid="5589" user="user_5589">
    <nd ref="270678784"/>
    <nd ref="2698142516"/>
    <nd ref="21660667"/>
    <tag k="cycleway" v="no"/>
    <tag k="highway" v="tertiary"/>
    <tag k="lane_markings" v="no"/>
    <tag k="lit" v="yes"/>
    <tag k="maxspeed" v="30"/>
    <tag k="name" v="Rue du Faubourg Saint-Honoré"/>
    <tag k="name:etymology:wikidata" v="Q3067310"/>
    <tag k="sidewalk:both" v="separate"/>
    <tag k="surface" v="sett"/>
  </way>
  <way id="24944206" version="12" timestamp="2024-12-04T10:05:01Z" changeset="159911745" uid="2678738" user="fgouget">
    <nd ref="270678310"/>
    <nd ref="12098888206"/>
    <nd ref="2698157945"/>
    <nd ref="32560668"/>
    <tag k="cycleway:both" v="no"/>
    <tag k="highway" v="unclassified"/>
    <tag k="lit" v="yes"/>
    <tag k="maxspeed" v="30"/>
    <tag k="oneway" v="yes"/>
    <tag k="surface" v="sett"/>
  </way>
  <way id="24944221" version="21" timestamp="2024-12-04T02:40:34Z" changeset="159902356" uid="2678738" user="fgouget">
    <nd ref="583368069"/>
    <nd ref="2698157909"/>
    <nd ref="12098888207"/>
    <nd ref="270678310"/>
    <tag k="cycleway:left" v="no"/>
    <tag k="cycleway:right" v="separate"/>
    <tag k="dual_carriageway" v="yes"/>
    <tag k="highway" v="primary"/>
    <tag k="lanes" v="2"/>
    <tag k="lit" v="yes"/>
    <tag k="maxspeed" v="30"/>
    <tag k="name" v="Avenue de Friedland"/>
    <tag k="name:etymology:wikidata" v="Q241108"/>
    <tag k="oneway" v="yes"/>
    <tag k="sidewalk:right" v="separate"/>
    <tag k="source:maxspeed" v="FR:urban"/>
    <tag k="surface" v="sett"/>
  </way>
  <way id="24944224" version="14" timestamp="2024-12-04T10:04:39Z" changeset="159911745" uid="2678738" user="fgouget">
    <nd ref="6284856482"/>
    <nd ref="6284856484"/>
    <nd ref="6284856481"/>
    <nd ref="6284856483"/>
    <nd ref="2698157932"/>
    <nd ref="2698157931"/>
    <nd ref="21660280"/>
    <tag k="cycleway:both" v="no"/>
    <tag k="highway" v="residential"/>
    <tag k="lit" v="yes"/>
    <tag k="maxspeed" v="30"/>
    <tag k="name" v="Place Georges Guillaumin"/>
    <tag k="name:etymology:wikidata" v="Q61961713"/>
    <tag k="oneway" v="yes"/>
    <tag k="oneway:bicycle" v="yes"/>
    <tag k="sidewalk:both" v="separate"/>
  </way>
  <way id="25095051" version="22" timestamp="2024-08-15T17:22:30Z" changeset="155293930" uid="11963177" user="JeroenvanderGun">
    <nd ref="5996498060"/>
    <nd ref="270187715"/>
    <nd ref="830668028"/>
    <nd ref="810252539"/>
    <nd ref="270187919"/>
    <nd ref="810252635"/>
    <nd ref="270187713"/>
    <nd ref="9436952746"/>
    <nd ref="810252696"/>
    <nd ref="810252639"/>
    <nd ref="25934313"/>
    <tag k="enforcement:operator" v="Police nationale"/>
    <tag k="highway" v="residential"/>
    <tag k="lanes" v="1"/>
    <tag k="lit" v="yes"/>
    <tag k="maxspeed" v="30"/>
    <tag k="name" v="Rond-Point des Champs-Élysées - Marcel Dassault"/>
    <tag k="oneway" v="yes"/>
    <tag k="operator" v="Ville de Paris"/>
    <tag k="operator:authority" v="Maire de Paris dans le respect des prescriptions prises par le préfet de police"/>
    <tag k="operator:authority:related_law" v="III de l'article L. 2512-14 du code général des collectivités territoriales"/>
    <tag k="sidewalk" v="separate"/>
    <tag k="source:operator:authority" v="https://www.legifrance.gouv.fr/loda/id/LEGIARTI000035244298/#LEGIARTI000035244298"/>
    <tag k="surface" v="asphalt"/>
    <tag k="zone:traffic" v="FR:urban"/>
  </way>
  <way id="25095073" version="27" timestamp="2024-12-04T19:06:08Z" changeset="159930698" uid="2678738" user="fgouget">
    <nd ref="5057169767"/>
    <nd ref="810252552"/>
    <nd ref="1984358581"/>
    <nd ref="270187903"/>
    <nd ref="9811566335"/>
    <nd ref="3149359090"/>
    <nd ref="270187904"/>
    <nd ref="810252730"/>
    <nd ref="3149359091"/>
    <nd ref="810252661"/>
    <nd ref="830665342"/>
    <nd ref="270187905"/>
    <nd ref="5996498063"/>
    <nd ref="270187712"/>
    <tag k="enforcement:operator" v="Police nationale"/>
    <tag k="highway" v="residential"/>
    <tag k="lanes" v="1"/>
    <tag k="lit" v="yes"/>
    <tag k="maxspeed" v="30"/>
    <tag k="name" v="Rond-Point des Champs-Élysées - Marcel Dassault"/>
    <tag k="oneway" v="yes"/>
    <tag k="operator" v="Ville de Paris"/>
    <tag k="operator:authority" v="Maire de Paris dans le respect des prescriptions prises par le préfet de police"/>
    <tag k="operator:authority:related_law" v="III de l'article L. 2512-14 du code général des collectivités territoriales"/>
    <tag k="sidewalk:both" v="separate"/>
    <tag k="source:operator:authority" v="https://www.legifrance.gouv.fr/loda/id/LEGIARTI000035244298/#LEGIARTI000035244298"/>
    <tag k="surface" v="asphalt"/>
    <tag k="zone:traffic" v="FR:urban"/>
  </way>
  <way id="27245904" version="30" timestamp="2024-09-17T16:03:42Z" changeset="156736145" uid="2678738" user="fgouget">
    <nd ref="5996498056"/>
    <nd ref="830668031"/>
    <nd ref="11012446411"/>
    <nd ref="6251951623"/>
    <nd ref="32560724"/>
    <tag k="cycleway:right" v="no"/>
    <tag k="highway" v="unclassified"/>
    <tag k="lane_markings" v="no"/>
    <tag k="lit" v="yes"/>
    <tag k="maxspeed" v="30"/>
    <tag k="name" v="Rue du Colisée"/>
    <tag k="name:etymology:wikidata" v="Q2982683"/>
    <tag k="oneway" v="yes"/>
    <tag k="sidewalk:both" v="separate"/>
    <tag k="surface" v="asphalt"/>
  </way>
  <way id="27465317" version="19" timestamp="2025-02-28T09:58:32Z" changeset="163044382" uid="2678738" user="fgouget">
    <nd ref="32560666"/>
    <nd ref="3206788754"/>
    <nd ref="32560735"/>
    <nd ref="32560734"/>
    <nd ref="833522291"/>
    <nd ref="32560733"/>
    <nd ref="833541472"/>
    <nd ref="32560609"/>
    <nd ref="833542940"/>
    <nd ref="833522634"/>
    <nd ref="6829512111"/>
    <nd ref="32560608"/>
    <nd ref="6829512109"/>
    <nd ref="3027860103"/>
    <nd ref="8143391111"/>
    <nd ref="21660274"/>
    <tag k="highway" v="residential"/>
    <tag k="lit" v="yes"/>
    <tag k="maxspeed" v="30"/>
    <tag k="name" v="Rue Chateaubriand"/>
    <tag k="name:etymology:wikidata" v="Q49767"/>
    <tag k="oneway" v="yes"/>
    <tag k="sidewalk:both" v="separate"/>
    <tag k="surface" v="sett"/>
  </way>
  <way id="28228767" version="33" timestamp="2024-11-25T06:24:56Z" changeset="159558677" uid="158826" user="cquest">
    <nd ref="826835718"/>
    <nd ref="8143532339"/>
    <nd ref="12373023773"/>
    <nd ref="10781418088"/>
    <nd ref="12098894121"/>
    <nd ref="270678186"/>
    <tag k="cycleway:left" v="no"/>
    <tag k="cycleway:right" v="lane"/>
    <tag k="cycleway:right:lane" v="exclusive"/>
    <tag k="highway" v="residential"/>
    <tag k="lit" v="yes"/>
    <tag k="maxspeed" v="30"/>
    <tag k="maxspeed:type" v="sign"/>
    <tag k="name" v="Rue de Monceau"/>
    <tag k="name:etymology:wikidata" v="Q1763599"/>
    <tag k="oneway" v="yes"/>
    <tag k="oneway:bicycle" v="no"/>
    <tag k="sidewalk:both" v="separate"/>
    <tag k="smoothness" v="good"/>
    <tag k="surface" v="asphalt"/>
  </way>
  <way id="28604003" version="17" timestamp="2024-10-09T06:30:06Z" changeset="157656538" uid="53964" user="_Mathieu_">
    <nd ref="32560719"/>
    <nd ref="2698157943"/>
    <nd ref="32560720"/>
    <tag k="cycleway:both" v="no"/>
    <tag k="highway" v="residential"/>
    <tag k="lit" v="yes"/>
    <tag k="maxspeed" v="30"/>
    <tag k="name" v="Rue d'Artois"/>
    <tag k="name:etymology:wikidata" v="Q7758"/>
    <tag k="parking:left" v="no"/>
    <tag k="parking:right" v="lane"/>
    <tag k="parking:right:orientation" v="parallel"/>
    <tag k="sidewalk:both" v="separate"/>
    <tag k="surface" v="asphalt"/>
  </way>
  <way id="28604006" version="17" timestamp="2024-10-09T06:30:02Z" changeset="157656538" uid="53964" user="_Mathieu_">
    <nd ref="32560720"/>
    <nd ref="6893359325"/>
    <nd ref="32560721"/>
    <tag k="cycleway:both" v="no"/>
    <tag k="highway" v="residential"/>
    <tag k="lit" v="yes"/>
    <tag k="maxspeed" v="30"/>
    <tag k="name" v="Rue d'Artois"/>
    <tag k="name:etymology:wikidata" v="Q7758"/>
    <tag k="oneway" v="yes"/>
    <tag k="parking:left" v="no"/>
    <tag k="parking:right" v="street_side"/>
    <tag k="parking:right:orientation" v="parallel"/>
    <tag k="sidewalk:both" v="separate"/>
    <tag k="smoothness" v="good"/>
    <tag k="surface" v="asphalt"/>
  </way>
  <way id="28604180" version="20" timestamp="2024-11-14T16:53:57Z" changeset="159138548" uid="2678738" user="fgouget">
    <nd ref="32560746"/>
    <nd ref="2698157942"/>
    <nd ref="2698157933"/>
    <nd ref="32564555"/>
    <tag k="highway" v="tertiary"/>
    <tag k="lanes" v="2"/>
    <tag k="lit" v="yes"/>
    <tag k="maxspeed" v="30"/>
    <tag k="name" v="Avenue Myron Herrick"/>
    <tag k="name:etymology:wikidata" v="Q882184"/>
    <tag k="parking:left" v="street_side"/>
    <tag k="parking:left:orientation" v="parallel"/>
    <tag k="parking:right" v="no"/>
    <tag k="sidewalk:left" v="separate"/>
    <tag k="surface" v="sett"/>
  </way>
  <way id="28604201" version="18" timestamp="2024-10-09T06:30:18Z" changeset="157656538" uid="53964" user="_Mathieu_">
    <nd ref="32560719"/>
    <nd ref="2698157921"/>
    <nd ref="2698157904"/>
    <nd ref="32560728"/>
    <tag k="cycleway:both" v="no"/>
    <tag k="highway" v="residential"/>
    <tag k="lit" v="yes"/>
    <tag k="maxspeed" v="30"/>
    <tag k="name" v="Rue Saint-Philippe du Roule"/>
    <tag k="oneway" v="yes"/>
    <tag k="parking:both" v="lane"/>
    <tag k="parking:both:orientation" v="parallel"/>
    <tag k="sidewalk:both" v="separate"/>
    <tag k="surface" v="asphalt"/>
  </way>
  <way id="34378247" version="25" timestamp="2024-03-31T18:08:44Z" changeset="149401603" uid="2678738" user="fgouget">
    <nd ref="21660667"/>
    <nd ref="2698142540"/>
    <nd ref="2698157976"/>
    <nd ref="21660280"/>
    <nd ref="10781493977"/>
    <nd ref="838076324"/>
    <nd ref="8143391113"/>
    <nd ref="6996510786"/>
    <nd ref="6996510784"/>
    <tag k="highway" v="residential"/>
    <tag k="lanes" v="2"/>
    <tag k="lit" v="yes"/>
    <tag k="maxspeed" v="30"/>
    <tag k="name" v="Rue Balzac"/>
    <tag k="name:etymology:wikidata" v="Q9711"/>
    <tag k="oneway" v="yes"/>
    <tag k="sidewalk:both" v="separate"/>
  </way>
  <way id="41872851" version="24" timestamp="2025-01-16T11:11:46Z" changeset="161413888" uid="7512839" user="Benoît C MdP">
    <nd ref="661218"/>
    <nd ref="6788918924"/>
    <nd ref="21660281"/>
    <nd ref="27286715"/>
    <nd ref="6788861526"/>
    <nd ref="27286712"/>
    <nd ref="6788865717"/>
    <nd ref="10773221133"/>
    <nd ref="27286711"/>
    <nd ref="6788644948"/>
    <nd ref="273414792"/>
    <nd ref="12009276962"/>
    <tag k="busway:both" v="lane"/>
    <tag k="cycleway:both" v="separate"/>
    <tag k="highway" v="primary"/>
    <tag k="lanes" v="4"/>
    <tag k="lanes:backward" v="2"/>
    <tag k="lanes:forward" v="2"/>
    <tag k="lit" v="yes"/>
    <tag k="maxspeed" v="30"/>
    <tag k="name" v="Avenue de Wagram"/>
    <tag k="name:etymology:wikidata" v="Q467777"/>
    <tag k="psv:lanes:backward" v="yes|designated"/>
    <tag k="psv:lanes:forward" v="yes|designated"/>
    <tag k="sidewalk:both" v="separate"/>
    <tag k="sidewalk:both:surface" v="asphalt"/>
    <tag k="smoothness" v="intermediate"/>
    <tag k="surface" v="sett"/>
    <tag k="was:cycleway:right" v="share_busway"/>
  </way>
  <way id="52026462" version="20" timestamp="2024-10-09T06:27:27Z" changeset="157656538" uid="53964" user="_Mathieu_">
    <nd ref="32560681"/>
    <nd ref="2698157936"/>
    <nd ref="826681489"/>
    <nd ref="32560745"/>
    <nd ref="2698157902"/>
    <nd ref="32560728"/>
    <nd ref="3088912024"/>
    <nd ref="32560746"/>
    <tag k="cycleway:both" v="no"/>
    <tag k="highway" v="tertiary"/>
    <tag k="lane_markings" v="no"/>
    <tag k="lit" v="yes"/>
    <tag k="maxspeed" v="30"/>
    <tag k="name" v="Rue du Faubourg Saint-Honoré"/>
    <tag k="name:etymology:wikidata" v="Q3067310"/>
    <tag k="oneway" v="yes"/>
    <tag k="parking:both" v="lane"/>
    <tag k="parking:both:orientation" v="parallel"/>
    <tag k="sidewalk:both" v="separate"/>
    <tag k="source:maxspeed" v="FR:urban"/>
    <tag k="surface" v="sett"/>
  </way>
  <way id="67056564" version="6" timestamp="2016-05-06T16:03:10Z" changeset="39147357" uid="1598001" user="OsmIdf">
    <nd ref="810236533"/>
    <nd ref="813890252"/>
    <nd ref="813890335"/>
    <nd ref="813890264"/>
    <nd ref="810236280"/>
    <nd ref="810237026"/>
    <nd ref="810236636"/>
    <nd ref="810236347"/>
    <nd ref="840886979"/>
    <nd ref="810237186"/>
    <nd ref="810236402"/>
    <nd ref="810236192"/>
    <nd ref="810236477"/>
    <nd ref="810236232"/>
    <nd ref="810236912"/>
    <nd ref="810236550"/>
    <nd ref="813890220"/>
    <nd ref="813890240"/>
    <nd ref="810236876"/>
    <nd ref="810236530"/>
    <nd ref="810236633"/>
    <nd ref="810236346"/>
    <nd ref="810237170"/>
    <nd ref="810236533"/>
    <tag k="architect" v="G. Dalbin"/>
    <tag k="building" v="yes"/>
    <tag k="name" v="Immeuble Matignon-Mermoz"/>
    <tag k="source" v="cadastre-dgi-fr source : Direction Générale des Impôts - Cadastre. Mise à jour : 2010"/>
    <tag k="source:name" v="survey"/>
    <tag k="start_date" v="1881"/>
  </way>
  <way id="68829907" version="5" timestamp="2023-12-05T21:44:59Z" changeset="144807858" uid="332493" user="bazgal">
    <nd ref="826850132"/>
    <nd ref="826851184"/>
    <nd ref="826851365"/>
    <nd ref="826851600"/>
    <nd ref="826850247"/>
    <nd ref="826850534"/>
    <nd ref="841045422"/>
    <nd ref="826850813"/>
    <nd ref="826851071"/>
    <nd ref="826851283"/>
    <nd ref="826850822"/>
    <nd ref="826851086"/>
    <nd ref="826851291"/>
    <nd ref="826851468"/>
    <nd ref="826850127"/>
    <nd ref="826850389"/>
    <nd ref="826850693"/>
    <nd ref="826850132"/>
    <tag k="addr:city" v="Paris"/>
    <tag k="addr:housenumber" v="172"/>
    <tag k="addr:postcode" v="75009"/>
    <tag k="addr:street" v="Boulevard Haussmann"/>
    <tag k="amenity" v="restaurant"/>
    <tag k="building" v="yes"/>
    <tag k="building:levels" v="7"/>
    <tag k="cuisine" v="bowl;pita"/>
    <tag k="name" v="Côme Haussman"/>
    <tag k="opening_hours" v="Mo-Fr 10:00-15:15"/>
    <tag k="phone" v="+33 1 42 89 48 98"/>
    <tag k="source" v="cadastre-dgi-fr source : Direction Générale des Impôts - Cadastre. Mise à jour : 2010"/>
    <tag k="website" v="http://www.come-paris.fr"/>
  </way>
  <way id="68831257" version="14" timestamp="2024-08-22T15:31:24Z" changeset="155612420" uid="18823907" user="Andr0w">
    <nd ref="826931897"/>
    <nd ref="826932036"/>
    <nd ref="826931760"/>
    <nd ref="826931908"/>
    <nd ref="826932043"/>
    <nd ref="826932266"/>
    <nd ref="826932432"/>
    <nd ref="826931573"/>
    <nd ref="826932338"/>
    <nd ref="826931601"/>
    <nd ref="826931744"/>
    <nd ref="826931891"/>
    <nd ref="842161550"/>
    <nd ref="826932024"/>
    <nd ref="826932167"/>
    <nd ref="826932255"/>
    <nd ref="826932410"/>
    <nd ref="826932174"/>
    <nd ref="826932054"/>
    <nd ref="826932184"/>
    <nd ref="826932185"/>
    <nd ref="826932276"/>
    <nd ref="826931688"/>
    <nd ref="826931830"/>
    <nd ref="826931980"/>
    <nd ref="826931847"/>
    <nd ref="826932124"/>
    <nd ref="826932365"/>
    <nd ref="826931768"/>
    <nd ref="826931922"/>
    <nd ref="826932438"/>
    <nd ref="826931682"/>
    <nd ref="826931826"/>
    <nd ref="826931975"/>
    <nd ref="826932116"/>
    <nd ref="826931897"/>
    <tag k="amenity" v="place_of_worship"/>
    <tag k="architect" v="Jean-François-Thérèse Chalgrin"/>
    <tag k="architect:wikidata" v="Q525487"/>
    <tag k="architect:wikipedia" v="fr:Jean-François Chalgrin"/>
    <tag k="building" v="church"/>
    <tag k="building:levels" v="4"/>
    <tag k="check_date" v="2024-08-22"/>
    <tag k="denomination" v="catholic"/>
    <tag k="heritage" v="2"/>
    <tag k="heritage:operator" v="mhs"/>
    <tag k="image" v="https://upload.wikimedia.org/wikipedia/commons/2/22/P1050475_Paris_VIII_%C3%A9glise_Saint-Philippe-du-Roule_rwk.JPG"/>
    <tag k="mhs:inscription_date" v="1993-07-05"/>
    <tag k="name" v="Église Saint-Philippe du Roule"/>
    <tag k="ref:FR:CEF" v="75108_03"/>
    <tag k="ref:mhs" v="PA00088814"/>
    <tag k="religion" v="christian"/>
    <tag k="source" v="cadastre-dgi-fr source : Direction Générale des Impôts - Cadastre. Mise à jour : 2010"/>
    <tag k="source:architect" v="data.gouv.fr:Ministère de la culture - 08/2017"/>
    <tag k="source:heritage" v="data.gouv.fr:Ministère de la Culture - 03/2018"/>
    <tag k="start_date" v="1772"/>
    <tag k="wikidata" v="Q1076211"/>
    <tag k="wikipedia" v="fr:Église Saint-Philippe-du-Roule"/>
  </way>
  <way id="68831261" version="11" timestamp="2022-11-19T21:40:13Z" changeset="129139118" uid="172867" user="AmiFritz">
    <nd ref="826931574"/>
    <nd ref="826932313"/>
    <nd ref="826931719"/>
    <nd ref="826932237"/>
    <nd ref="826932379"/>
    <nd ref="826931644"/>
    <nd ref="826931779"/>
    <nd ref="841045613"/>
    <nd ref="826931574"/>
    <tag k="building" v="yes"/>
    <tag k="building:levels" v="6"/>
    <tag k="contact:city" v="Paris"/>
    <tag k="contact:email" v="contact@ambaburkina-fr.org"/>
    <tag k="contact:fax" v="+33 1 42 56 50 07"/>
    <tag k="contact:housenumber" v="159"/>
    <tag k="contact:phone" v="+33 1 43 59 90 63"/>
    <tag k="contact:postcode" v="75008"/>
    <tag k="contact:street" v="Boulevard Haussmann"/>
    <tag k="contact:website" v="http://www.ambaburkina-fr.org"/>
    <tag k="country" v="BF"/>
    <tag k="diplomatic" v="embassy"/>
    <tag k="embassy" v="yes"/>
    <tag k="name" v="Ambassade du Burkina Faso"/>
    <tag k="office" v="diplomatic"/>
    <tag k="opening_hours" v="Mo-Fr 09:30-17:00"/>
    <tag k="source" v="cadastre-dgi-fr source : Direction Générale des Impôts - Cadastre. Mise à jour : 2010"/>
    <tag k="target" v="FR"/>
    <tag k="wikidata" v="Q15149889"/>
    <tag k="wikipedia" v="fr:Ambassade du Burkina Faso en France"/>
  </way>
  <way id="68831265" version="5" timestamp="2017-01-11T15:41:25Z" changeset="45079252" uid="860575" user="Marcel Herault">
    <nd ref="826932343"/>
    <nd ref="4601983517"/>
    <nd ref="4601983518"/>
    <nd ref="4601983516"/>
    <nd ref="826931897"/>
    <nd ref="826932116"/>
    <nd ref="826932223"/>
    <nd ref="826932353"/>
    <nd ref="826932227"/>
    <nd ref="826932358"/>
    <nd ref="826931619"/>
    <nd ref="826931763"/>
    <nd ref="826931912"/>
    <nd ref="826932048"/>
    <nd ref="826932178"/>
    <nd ref="826932270"/>
    <nd ref="826931963"/>
    <nd ref="4601983519"/>
    <nd ref="826932343"/>
    <tag k="amenity" v="place_of_worship"/>
    <tag k="building" v="yes"/>
    <tag k="building:levels" v="2"/>
    <tag k="denomination" v="catholic"/>
    <tag k="name" v="Chapelle Baltard"/>
    <tag k="religion" v="christian"/>
    <tag k="source" v="cadastre-dgi-fr source : Direction Générale des Impôts - Cadastre. Mise à jour : 2010"/>
  </way>
  <way id="68907539" version="25" timestamp="2024-11-14T16:54:02Z" changeset="159138548" uid="2678738" user="fgouget">
    <nd ref="32561279"/>
    <nd ref="2698157926"/>
    <nd ref="3027860097"/>
    <nd ref="11012446336"/>
    <nd ref="32560721"/>
    <nd ref="6251993456"/>
    <nd ref="32560723"/>
    <tag k="cycleway:both" v="no"/>
    <tag k="highway" v="tertiary"/>
    <tag k="lane_markings" v="no"/>
    <tag k="lit" v="yes"/>
    <tag k="maxspeed" v="30"/>
    <tag k="name" v="Rue La Boétie"/>
    <tag k="name:etymology:wikidata" v="Q290227"/>
    <tag k="oneway" v="yes"/>
    <tag k="parking:left" v="no"/>
    <tag k="parking:right" v="street_side"/>
    <tag k="parking:right:orientation" v="parallel"/>
    <tag k="postal_code" v="75008"/>
    <tag k="sidewalk:both" v="separate"/>
    <tag k="smoothness" v="good"/>
    <tag k="source:maxspeed" v="FR:urban"/>
    <tag k="surface" v="asphalt"/>
  </way>
  <way id="68907549" version="33" timestamp="2025-03-03T16:00:17Z" changeset="163167702" uid="7512839" user="Benoît C MdP">
    <nd ref="32561279"/>
    <nd ref="5495864107"/>
    <nd ref="6335961821"/>
    <nd ref="6042219176"/>
    <nd ref="32561341"/>
    <nd ref="6042220286"/>
    <nd ref="11012446332"/>
    <nd ref="32560725"/>
    <nd ref="11012446331"/>
    <nd ref="9436952748"/>
    <nd ref="6898072383"/>
    <nd ref="25934313"/>
    <tag k="busway:right" v="separate"/>
    <tag k="cycleway:left" v="opposite_track"/>
    <tag k="cycleway:right" v="separate"/>
    <tag k="highway" v="tertiary"/>
    <tag k="lanes" v="3"/>
    <tag k="lit" v="yes"/>
    <tag k="maxspeed" v="30"/>
    <tag k="name" v="Avenue Franklin Delano Roosevelt"/>
    <tag k="name:etymology:wikidata" v="Q8007"/>
    <tag k="old_name" v="Avenue Victor-Emmanuel III"/>
    <tag k="oneway" v="yes"/>
    <tag k="oneway:bicycle" v="no"/>
    <tag k="sidewalk:left" v="separate"/>
    <tag k="sidewalk:left:surface" v="asphalt"/>
    <tag k="sidewalk:right" v="no"/>
    <tag k="surface" v="asphalt"/>
  </way>
  <way id="68991281" version="8" timestamp="2021-09-11T17:32:43Z" changeset="111071525" uid="1205555" user="benoitdd">
    <nd ref="828091253"/>
    <nd ref="828090193"/>
    <nd ref="9082433477"/>
    <nd ref="828090316"/>
    <nd ref="828090482"/>
    <nd ref="828090772"/>
    <nd ref="828090939"/>
    <nd ref="828091097"/>
    <nd ref="828090246"/>
    <nd ref="828090384"/>
    <nd ref="828090596"/>
    <nd ref="828091278"/>
    <nd ref="828090335"/>
    <nd ref="828090810"/>
    <nd ref="828091137"/>
    <nd ref="828090138"/>
    <nd ref="828090262"/>
    <nd ref="828090401"/>
    <nd ref="828090630"/>
    <nd ref="828091012"/>
    <nd ref="828090202"/>
    <nd ref="828090328"/>
    <nd ref="828090793"/>
    <nd ref="828090949"/>
    <nd ref="828091120"/>
    <nd ref="828090131"/>
    <nd ref="828090616"/>
    <nd ref="828090885"/>
    <nd ref="828090321"/>
    <nd ref="828090777"/>
    <nd ref="828090353"/>
    <nd ref="828090543"/>
    <nd ref="2857544228"/>
    <nd ref="828091253"/>
    <tag k="amenity" v="place_of_worship"/>
    <tag k="building" v="church"/>
    <tag k="building:levels" v="1"/>
    <tag k="denomination" v="catholic"/>
    <tag k="name" v="Chapelle Notre-Dame de l'Annonciation"/>
    <tag k="ref:FR:CEF" v="75108_04"/>
    <tag k="religion" v="christian"/>
    <tag k="source" v="cadastre-dgi-fr source : Direction Générale des Impôts - Cadastre. Mise à jour : 2010"/>
  </way>
  <way id="68995090" version="6" timestamp="2024-10-06T13:44:35Z" changeset="157541037" uid="5589" user="user_5589">
    <nd ref="828127924"/>
    <nd ref="828127895"/>
    <nd ref="828127829"/>
    <nd ref="828127994"/>
    <nd ref="828128190"/>
    <nd ref="828127616"/>
    <nd ref="828127739"/>
    <nd ref="828127817"/>
    <nd ref="828127882"/>
    <nd ref="828127581"/>
    <nd ref="828127780"/>
    <nd ref="828127919"/>
    <nd ref="828128174"/>
    <nd ref="828127734"/>
    <nd ref="828128189"/>
    <nd ref="828127614"/>
    <nd ref="828127815"/>
    <nd ref="828128067"/>
    <nd ref="828127643"/>
    <nd ref="828127779"/>
    <nd ref="828127848"/>
    <nd ref="828127918"/>
    <nd ref="828127990"/>
    <nd ref="828128171"/>
    <nd ref="828127611"/>
    <nd ref="828127758"/>
    <nd ref="828127812"/>
    <nd ref="828127878"/>
    <nd ref="828127954"/>
    <nd ref="839872355"/>
    <nd ref="828128056"/>
    <nd ref="828128270"/>
    <nd ref="828127924"/>
    <tag k="building" v="apartments"/>
    <tag k="building:colour" v="lightyellow"/>
    <tag k="contact:city" v="Paris"/>
    <tag k="contact:housenumber" v="10"/>
    <tag k="contact:postcode" v="75008"/>
    <tag k="contact:street" v="Avenue de Friedland"/>
    <tag k="name" v="Aurige"/>
    <tag k="source" v="cadastre-dgi-fr source : Direction Générale des Impôts - Cadastre. Mise à jour : 2010"/>
  </way>
  <way id="68995099" version="5" timestamp="2024-10-07T13:10:21Z" changeset="157581790" uid="195017" user="Julien39">
    <nd ref="828127706"/>
    <nd ref="839922172"/>
    <nd ref="828127806"/>
    <nd ref="828127872"/>
    <nd ref="828127945"/>
    <nd ref="828128035"/>
    <nd ref="828128238"/>
    <nd ref="828127633"/>
    <nd ref="828127767"/>
    <nd ref="828127839"/>
    <nd ref="828127907"/>
    <nd ref="828127980"/>
    <nd ref="828128142"/>
    <nd ref="828127602"/>
    <nd ref="828127697"/>
    <nd ref="828127800"/>
    <nd ref="828127869"/>
    <nd ref="828127939"/>
    <nd ref="828128028"/>
    <nd ref="828128223"/>
    <nd ref="828127630"/>
    <nd ref="828127762"/>
    <nd ref="828127835"/>
    <nd ref="828127900"/>
    <nd ref="828127976"/>
    <nd ref="828127944"/>
    <nd ref="828127598"/>
    <nd ref="828127678"/>
    <nd ref="828127796"/>
    <nd ref="828127863"/>
    <nd ref="828127935"/>
    <nd ref="828128017"/>
    <nd ref="828127979"/>
    <nd ref="828127758"/>
    <nd ref="828127829"/>
    <nd ref="828127895"/>
    <nd ref="828127970"/>
    <nd ref="828128108"/>
    <nd ref="828127706"/>
    <tag k="alt_name" v="Hôtel de Beaujon"/>
    <tag k="building" v="yes"/>
    <tag k="building:levels" v="3"/>
    <tag k="heritage" v="3"/>
    <tag k="heritage:operator" v="mhs"/>
    <tag k="heritage:ref" v="PA00088834"/>
    <tag k="heritage:since" v="2005-03-04"/>
    <tag k="heritage:website" v="https://pop.culture.gouv.fr/notice/merimee/PA00088834"/>
    <tag k="historic" v="manor"/>
    <tag k="name" v="Hôtel Salomon de Rothschild"/>
    <tag k="source" v="cadastre-dgi-fr source : Direction Générale des Impôts - Cadastre. Mise à jour : 2010"/>
    <tag k="wikidata" v="Q3145671"/>
    <tag k="wikipedia" v="fr:Hôtel Salomon de Rothschild"/>
  </way>
  <way id="68995797" version="16" timestamp="2024-10-09T06:26:54Z" changeset="157656538" uid="53964" user="_Mathieu_">
    <nd ref="828134609"/>
    <nd ref="6900177161"/>
    <nd ref="3088912027"/>
    <nd ref="32560680"/>
    <nd ref="3088912026"/>
    <nd ref="32560718"/>
    <nd ref="2698157928"/>
    <nd ref="32560719"/>
    <tag k="cycleway:both" v="no"/>
    <tag k="highway" v="residential"/>
    <tag k="lit" v="yes"/>
    <tag k="maxspeed" v="30"/>
    <tag k="maxspeed:type" v="sign"/>
    <tag k="name" v="Rue d'Artois"/>
    <tag k="name:etymology:wikidata" v="Q7758"/>
    <tag k="oneway" v="yes"/>
    <tag k="parking:both:orientation" v="parallel"/>
    <tag k="parking:left" v="lane"/>
    <tag k="parking:right" v="street_side"/>
    <tag k="sidewalk:both" v="separate"/>
    <tag k="source" v="cadastre-dgi-fr source : Direction Générale des Impôts - Cadastre. Mise à jour : 2010"/>
    <tag k="surface" v="asphalt"/>
  </way>
  <way id="68995839" version="8" timestamp="2024-06-12T14:55:39Z" changeset="152591559" uid="1205555" user="benoitdd">
    <nd ref="828134228"/>
    <nd ref="828134083"/>
    <nd ref="828134868"/>
    <nd ref="839922714"/>
    <nd ref="828134294"/>
    <nd ref="828134484"/>
    <nd ref="839370572"/>
    <nd ref="828134655"/>
    <nd ref="828134767"/>
    <nd ref="828134852"/>
    <nd ref="828134488"/>
    <nd ref="828134228"/>
    <tag k="brand" v="Sofitel"/>
    <tag k="brand:wikidata" v="Q749431"/>
    <tag k="building" v="yes"/>
    <tag k="building:levels" v="8"/>
    <tag k="name" v="Sofitel Arc de Triomphe"/>
    <tag k="operator" v="Accor"/>
    <tag k="source" v="cadastre-dgi-fr source : Direction Générale des Impôts - Cadastre. Mise à jour : 2010"/>
    <tag k="stars" v="5"/>
    <tag k="toilets:wheelchair" v="yes"/>
    <tag k="tourism" v="hotel"/>
    <tag k="wheelchair" v="yes"/>
  </way>
  <way id="68996284" version="7" timestamp="2023-10-20T21:35:52Z" changeset="142895764" uid="1198089" user="GeorgeKaplan">
    <nd ref="828138966"/>
    <nd ref="828138852"/>
    <nd ref="828138876"/>
    <nd ref="828138988"/>
    <nd ref="828138330"/>
    <nd ref="828138451"/>
    <nd ref="828138563"/>
    <nd ref="828138682"/>
    <nd ref="828138813"/>
    <nd ref="828138928"/>
    <nd ref="828139044"/>
    <nd ref="828138387"/>
    <nd ref="828138503"/>
    <nd ref="828138623"/>
    <nd ref="828138750"/>
    <nd ref="828138869"/>
    <nd ref="828138444"/>
    <nd ref="828138556"/>
    <nd ref="828138676"/>
    <nd ref="828138806"/>
    <nd ref="828138922"/>
    <nd ref="828139037"/>
    <nd ref="828138380"/>
    <nd ref="828138966"/>
    <tag k="building" v="yes"/>
    <tag k="building:levels" v="3"/>
    <tag k="name" v="Hôtel de Rigny"/>
    <tag k="source" v="cadastre-dgi-fr source : Direction Générale des Impôts - Cadastre. Mise à jour : 2010"/>
  </way>
  <way id="68996307" version="8" timestamp="2016-11-28T22:49:03Z" changeset="44021424" uid="50179" user="Aroche">
    <nd ref="828138742"/>
    <nd ref="828138465"/>
    <nd ref="828138709"/>
    <nd ref="828138586"/>
    <nd ref="828138548"/>
    <nd ref="828138668"/>
    <nd ref="828138798"/>
    <nd ref="828138915"/>
    <nd ref="828139031"/>
    <nd ref="828138373"/>
    <nd ref="828138490"/>
    <nd ref="828138607"/>
    <nd ref="828138735"/>
    <nd ref="828138852"/>
    <nd ref="828138966"/>
    <nd ref="828138309"/>
    <nd ref="828138429"/>
    <nd ref="828138661"/>
    <nd ref="828138368"/>
    <nd ref="828138826"/>
    <nd ref="828138400"/>
    <nd ref="828138517"/>
    <nd ref="828138637"/>
    <nd ref="828138762"/>
    <nd ref="828138884"/>
    <nd ref="828138996"/>
    <nd ref="828138339"/>
    <nd ref="828138742"/>
    <tag k="alt_name" v="Hôtel de Talhouet-Roy"/>
    <tag k="building" v="yes"/>
    <tag k="heritage" v="3"/>
    <tag k="heritage:operator" v="mhs"/>
    <tag k="mhs:inscription_date" v="1980/03/06"/>
    <tag k="name" v="Hôtel Schneider"/>
    <tag k="ref:mhs" v="PA00088835"/>
    <tag k="source" v="cadastre-dgi-fr source : Direction Générale des Impôts - Cadastre. Mise à jour : 2010"/>
    <tag k="start_date" v="1860"/>
    <tag k="wikidata" v="Q15950513"/>
    <tag k="wikipedia" v="fr:Hôtel Schneider"/>
  </way>
  <way id="69073766" version="7" timestamp="2024-10-09T13:58:03Z" changeset="157673942" uid="2179792" user="votre_solution_de_visibilite_digitale_locale">
    <nd ref="828787152"/>
    <nd ref="828785187"/>
    <nd ref="828785745"/>
    <nd ref="828787215"/>
    <nd ref="828787748"/>
    <nd ref="828786942"/>
    <nd ref="828787507"/>
    <nd ref="828786213"/>
    <nd ref="828786579"/>
    <nd ref="828787129"/>
    <nd ref="828785977"/>
    <nd ref="828787634"/>
    <nd ref="828787677"/>
    <nd ref="840870825"/>
    <nd ref="828787152"/>
    <tag k="amenity" v="restaurant"/>
    <tag k="building" v="yes"/>
    <tag k="building:levels" v="6"/>
    <tag k="contact:phone" v="+33 1 45 63 28 34"/>
    <tag k="cuisine" v="french"/>
    <tag k="name" v="O'Sullivans"/>
    <tag k="opening_hours" v="Mo-We 12:00-02:00; Th-Fr 12:00-05:00; Sa 18:00-02:00"/>
    <tag k="phone" v="+33 1 45 63 28 34"/>
    <tag k="source" v="cadastre-dgi-fr source : Direction Générale des Impôts - Cadastre. Mise à jour : 2010"/>
    <tag k="website" v="https://www.osullivans-pubs.com/"/>
  </way>
  <way id="69073798" version="6" timestamp="2021-02-01T12:03:58Z" changeset="98509696" uid="125897" user="overflorian">
    <nd ref="828786351"/>
    <nd ref="828786692"/>
    <nd ref="828786149"/>
    <nd ref="828785187"/>
    <nd ref="828787152"/>
    <nd ref="840870308"/>
    <nd ref="828786351"/>
    <tag k="addr:city" v="Paris"/>
    <tag k="addr:housenumber" v="65"/>
    <tag k="addr:postcode" v="75008"/>
    <tag k="addr:street" v="Avenue Franklin Delano Roosevelt"/>
    <tag k="building" v="yes"/>
    <tag k="country" v="BR"/>
    <tag k="diplomatic" v="consulate"/>
    <tag k="email" v="consulat.cgparis@itamaraty.gov.br"/>
    <tag k="name" v="Consulat Général du Brésil"/>
    <tag k="name:en" v="Consulate General of Brazil"/>
    <tag k="name:pt" v="Consulado-Geral do Brasil"/>
    <tag k="office" v="diplomatic"/>
    <tag k="opening_hours" v="Mo-Fr 09:00-13:00"/>
    <tag k="source" v="cadastre-dgi-fr source : Direction Générale des Impôts - Cadastre. Mise à jour : 2010"/>
    <tag k="target" v="FR"/>
    <tag k="website" v="http://cgparis.itamaraty.gov.br"/>
    <tag k="wikidata" v="Q16507610"/>
  </way>
  <way id="69073839" version="7" timestamp="2024-02-12T22:31:04Z" changeset="147387150" uid="7550430" user="Britzz">
    <nd ref="828786547"/>
    <nd ref="828785140"/>
    <nd ref="828785704"/>
    <nd ref="828784836"/>
    <nd ref="828785402"/>
    <nd ref="828786914"/>
    <nd ref="828787490"/>
    <nd ref="840927867"/>
    <nd ref="828786547"/>
    <tag k="addr:housenumber" v="91"/>
    <tag k="addr:street" v="Rue La Boétie"/>
    <tag k="building" v="yes"/>
    <tag k="building:levels" v="6"/>
    <tag k="name" v="Hôtel de La Boétie"/>
    <tag k="source" v="cadastre-dgi-fr source : Direction Générale des Impôts - Cadastre. Mise à jour : 2010"/>
    <tag k="tourism" v="hotel"/>
    <tag k="website" v="https://www.hoteldelaboetie.com/fr/"/>
  </way>
  <way id="69103161" version="18" timestamp="2025-04-25T10:25:14Z" changeset="165416649" uid="1722488" user="Mateusz Konieczny">
    <nd ref="829051718"/>
    <nd ref="829051450"/>
    <nd ref="829051704"/>
    <nd ref="829051650"/>
    <nd ref="829051505"/>
    <nd ref="829051736"/>
    <nd ref="829051904"/>
    <nd ref="829051438"/>
    <nd ref="829051696"/>
    <nd ref="3207012648"/>
    <nd ref="840927416"/>
    <nd ref="829051758"/>
    <nd ref="3207012647"/>
    <nd ref="829051718"/>
    <tag k="air_conditioning" v="yes"/>
    <tag k="branch" v="Alimentation"/>
    <tag k="brand" v="Monoprix"/>
    <tag k="brand:wikidata" v="Q3321241"/>
    <tag k="brand:wikipedia" v="en:Monoprix"/>
    <tag k="building" v="retail"/>
    <tag k="check_date" v="2023-10-17"/>
    <tag k="currency:EUR" v="yes"/>
    <tag k="level" v="0"/>
    <tag k="name" v="Monoprix"/>
    <tag k="old_name" v="IGN"/>
    <tag k="opening_hours" v="Mo-Sa 08:00-23:00; Su 09:00-21:00"/>
    <tag k="operator" v="Monoprix"/>
    <tag k="shop" v="supermarket"/>
    <tag k="start_date:Monoprix" v="mars 2013"/>
    <tag k="stroller" v="yes"/>
    <tag k="toilets" v="no"/>
    <tag k="website" v="https://www.monoprix.fr/1603.html"/>
    <tag k="wheelchair" v="yes"/>
  </way>
  <way id="69104422" version="10" timestamp="2025-01-19T00:49:19Z" changeset="161510582" uid="5589" user="user_5589">
    <nd ref="829071009"/>
    <nd ref="829071322"/>
    <nd ref="829071406"/>
    <nd ref="829071402"/>
    <nd ref="829071488"/>
    <nd ref="829071343"/>
    <nd ref="829071259"/>
    <nd ref="829071233"/>
    <nd ref="840887459"/>
    <nd ref="829071542"/>
    <nd ref="829071009"/>
    <tag k="building" v="yes"/>
    <tag k="building:levels" v="3"/>
    <tag k="frequency" v="50"/>
    <tag k="location" v="indoor"/>
    <tag k="name" v="Poste électrique Baudry"/>
    <tag k="operator" v="Enedis"/>
    <tag k="operator:wikidata" v="Q3587594"/>
    <tag k="power" v="substation"/>
    <tag k="ref:FR:RTE" v="BAUDR"/>
    <tag k="ref:FR:RTE_nom" v="BAUDRY"/>
    <tag k="source" v="cadastre-dgi-fr source : Direction Générale des Impôts - Cadastre. Mise à jour : 2010"/>
    <tag k="substation" v="distribution"/>
    <tag k="voltage" v="225000;20000"/>
  </way>
  <way id="69167295" version="6" timestamp="2025-04-09T10:41:13Z" changeset="164717900" uid="22454012" user="Stichhy">
    <nd ref="829526270"/>
    <nd ref="840653069"/>
    <nd ref="829526490"/>
    <nd ref="829526331"/>
    <nd ref="829526111"/>
    <nd ref="829526270"/>
    <tag k="addr:city" v="Paris"/>
    <tag k="addr:housenumber" v="70"/>
    <tag k="addr:postcode" v="75008"/>
    <tag k="addr:street" v="Avenue des Champs-Élysées"/>
    <tag k="building" v="apartments"/>
    <tag k="heritage" v="3"/>
    <tag k="heritage:operator" v="mhs"/>
    <tag k="mhs:inscription_date" v="1992"/>
    <tag k="ref:mhs" v="PA00088898"/>
    <tag k="source" v="cadastre-dgi-fr source : Direction Générale des Impôts - Cadastre. Mise à jour : 2010"/>
    <tag k="source:heritage" v="data.gouv.fr:Ministère de la Culture - 08/2011"/>
    <tag k="wikidata" v="Q20974233"/>
  </way>
  <way id="69167309" version="12" timestamp="2024-09-20T23:06:09Z" changeset="156890640" uid="2678738" user="fgouget">
    <nd ref="829526722"/>
    <nd ref="829525918"/>
    <nd ref="829526061"/>
    <nd ref="829526335"/>
    <nd ref="829526192"/>
    <nd ref="829526142"/>
    <nd ref="829526451"/>
    <nd ref="840652386"/>
    <nd ref="12183003774"/>
    <nd ref="829526679"/>
    <nd ref="829526139"/>
    <nd ref="829526755"/>
    <nd ref="829525924"/>
    <nd ref="829526449"/>
    <nd ref="2916243329"/>
    <nd ref="840927148"/>
    <nd ref="829526693"/>
    <nd ref="829526147"/>
    <nd ref="829526005"/>
    <nd ref="829526463"/>
    <nd ref="829526283"/>
    <nd ref="829526486"/>
    <nd ref="829526722"/>
    <tag k="building" v="yes"/>
    <tag k="contact:city" v="Paris"/>
    <tag k="contact:housenumber" v="66"/>
    <tag k="contact:postcode" v="75008"/>
    <tag k="contact:street" v="Avenue des Champs-Élysées"/>
    <tag k="name" v="Show Room 66"/>
    <tag k="shop" v="clothes"/>
    <tag k="source" v="cadastre-dgi-fr source : Direction Générale des Impôts - Cadastre. Mise à jour : 2010"/>
  </way>
  <way id="69167386" version="14" timestamp="2025-04-01T07:04:51Z" changeset="164359913" uid="7512839" user="Benoît C MdP">
    <nd ref="829526332"/>
    <nd ref="5996498053"/>
    <nd ref="368341"/>
    <tag k="cycleway:both" v="no"/>
    <tag k="highway" v="tertiary"/>
    <tag k="lane_markings" v="no"/>
    <tag k="lit" v="yes"/>
    <tag k="maxspeed" v="30"/>
    <tag k="name" v="Rue La Boétie"/>
    <tag k="name:etymology:wikidata" v="Q290227"/>
    <tag k="source" v="cadastre-dgi-fr source : Direction Générale des Impôts - Cadastre. Mise à jour : 2010"/>
    <tag k="source:maxspeed" v="Arrêté 2021P110904"/>
    <tag k="surface" v="sett"/>
  </way>
  <way id="70184559" version="6" timestamp="2023-09-21T13:19:35Z" changeset="141559294" uid="20301942" user="fedezil">
    <nd ref="838041031"/>
    <nd ref="838040775"/>
    <nd ref="838041056"/>
    <nd ref="838040760"/>
    <nd ref="838040520"/>
    <nd ref="838040902"/>
    <nd ref="838040644"/>
    <nd ref="838041485"/>
    <nd ref="838041248"/>
    <nd ref="838041867"/>
    <nd ref="838041583"/>
    <nd ref="838040619"/>
    <nd ref="838040359"/>
    <nd ref="838041568"/>
    <nd ref="838041333"/>
    <nd ref="838040345"/>
    <nd ref="838041856"/>
    <nd ref="838040484"/>
    <nd ref="838041963"/>
    <nd ref="838041012"/>
    <nd ref="838040729"/>
    <nd ref="838040372"/>
    <nd ref="838041878"/>
    <nd ref="839922148"/>
    <nd ref="838040883"/>
    <nd ref="838040627"/>
    <nd ref="839922344"/>
    <nd ref="838041039"/>
    <nd ref="838041744"/>
    <nd ref="838041353"/>
    <nd ref="838040757"/>
    <nd ref="838041595"/>
    <nd ref="838041585"/>
    <nd ref="2688141178"/>
    <nd ref="2688141177"/>
    <nd ref="838041031"/>
    <tag k="addr:city" v="Paris"/>
    <tag k="addr:housenumber" v="20"/>
    <tag k="addr:postcode" v="75008"/>
    <tag k="addr:street" v="Rue Washington"/>
    <tag k="building" v="yes"/>
    <tag k="name" v="Cisco Systems France"/>
    <tag k="office" v="company"/>
    <tag k="website" v="https://www.cisco.com/site/fr/"/>
  </way>
  <way id="70184595" version="9" timestamp="2024-06-12T14:55:39Z" changeset="152591559" uid="1205555" user="benoitdd">
    <nd ref="838041284"/>
    <nd ref="839922127"/>
    <nd ref="839922069"/>
    <nd ref="839922508"/>
    <nd ref="839922327"/>
    <nd ref="839922765"/>
    <nd ref="838040989"/>
    <nd ref="838041158"/>
    <nd ref="838041679"/>
    <nd ref="838041014"/>
    <nd ref="839922854"/>
    <nd ref="839921996"/>
    <nd ref="838040287"/>
    <nd ref="11975621819"/>
    <nd ref="11975621823"/>
    <nd ref="11975621824"/>
    <nd ref="11975621822"/>
    <nd ref="11975621826"/>
    <nd ref="11975621825"/>
    <nd ref="11975621827"/>
    <nd ref="11975621821"/>
    <nd ref="11975621829"/>
    <nd ref="11975621828"/>
    <nd ref="11975621820"/>
    <nd ref="11975621832"/>
    <nd ref="11975621830"/>
    <nd ref="11975621831"/>
    <nd ref="11975621818"/>
    <nd ref="11975621815"/>
    <nd ref="11975621814"/>
    <nd ref="11975621816"/>
    <nd ref="11975621817"/>
    <nd ref="11975621803"/>
    <nd ref="11975621813"/>
    <nd ref="838040410"/>
    <nd ref="838040932"/>
    <nd ref="838040396"/>
    <nd ref="838041897"/>
    <nd ref="11975621812"/>
    <nd ref="838041445"/>
    <nd ref="11975621808"/>
    <nd ref="11975621809"/>
    <nd ref="838040609"/>
    <nd ref="838040348"/>
    <nd ref="838041416"/>
    <nd ref="839922995"/>
    <nd ref="839922554"/>
    <nd ref="838040340"/>
    <nd ref="11975621786"/>
    <nd ref="11975621788"/>
    <nd ref="11975621790"/>
    <nd ref="11975621789"/>
    <nd ref="11975621791"/>
    <nd ref="11975621787"/>
    <nd ref="11975621785"/>
    <nd ref="11975621780"/>
    <nd ref="11975621782"/>
    <nd ref="11975621784"/>
    <nd ref="11975621783"/>
    <nd ref="11975621781"/>
    <nd ref="838040735"/>
    <nd ref="838040241"/>
    <nd ref="838040486"/>
    <nd ref="11975621778"/>
    <nd ref="11975621777"/>
    <nd ref="11975621776"/>
    <nd ref="11975621774"/>
    <nd ref="838040427"/>
    <nd ref="838041284"/>
    <tag k="architect" v="Lucien Bechmann"/>
    <tag k="architect:1994-" v="Jean-Jacques Ory"/>
    <tag k="building" v="yes"/>
    <tag k="building:levels" v="10"/>
    <tag k="construction:1929-1932" v="yes"/>
    <tag k="name" v="Washington Plaza"/>
    <tag k="owner:1929-2000" v="Shell"/>
    <tag k="source" v="cadastre-dgi-fr source : Direction Générale des Impôts - Cadastre. Mise à jour : 2010"/>
    <tag k="start_date" v="1932"/>
    <tag k="wikidata" v="Q105612966"/>
  </way>
  <way id="70184664" version="5" timestamp="2024-06-12T14:55:39Z" changeset="152591559" uid="1205555" user="benoitdd">
    <nd ref="838040837"/>
    <nd ref="838040442"/>
    <nd ref="838041928"/>
    <nd ref="838040427"/>
    <nd ref="838041284"/>
    <nd ref="839922838"/>
    <nd ref="838040954"/>
    <nd ref="838041410"/>
    <nd ref="838041120"/>
    <nd ref="838040991"/>
    <nd ref="838041941"/>
    <nd ref="838040456"/>
    <nd ref="838040438"/>
    <nd ref="838041925"/>
    <nd ref="838040971"/>
    <nd ref="838040695"/>
    <nd ref="838041526"/>
    <nd ref="838041297"/>
    <nd ref="838040681"/>
    <nd ref="838041722"/>
    <nd ref="838040361"/>
    <nd ref="838041869"/>
    <nd ref="838040871"/>
    <nd ref="838040623"/>
    <nd ref="838041857"/>
    <nd ref="838041446"/>
    <nd ref="838041702"/>
    <nd ref="838041569"/>
    <nd ref="838040608"/>
    <nd ref="838040346"/>
    <nd ref="11975621779"/>
    <nd ref="838040735"/>
    <nd ref="838040241"/>
    <nd ref="838040486"/>
    <nd ref="11975621775"/>
    <nd ref="838041339"/>
    <nd ref="838041018"/>
    <nd ref="838040317"/>
    <nd ref="838041823"/>
    <nd ref="838040822"/>
    <nd ref="838040573"/>
    <nd ref="838040328"/>
    <nd ref="838041147"/>
    <nd ref="838040837"/>
    <tag k="addr:city" v="Paris"/>
    <tag k="addr:housenumber" v="36"/>
    <tag k="addr:postcode" v="75008"/>
    <tag k="addr:street" v="Rue Washington"/>
    <tag k="amenity" v="restaurant"/>
    <tag k="building" v="yes"/>
    <tag k="cuisine" v="bowl;pita"/>
    <tag k="name" v="Côme Washington"/>
    <tag k="opening_hours" v="Mo-Fr 10:00-15:15: Sa-Su off"/>
    <tag k="phone" v="+33 1 45 63 30 04"/>
    <tag k="source" v="cadastre-dgi-fr source : Direction Générale des Impôts - Cadastre. Mise à jour : 2010"/>
    <tag k="toilets" v="yes"/>
    <tag k="website" v="http://www.come-paris.fr"/>
  </way>
  <way id="70185807" version="8" timestamp="2023-02-07T12:42:06Z" changeset="132204287" uid="7512839" user="Benoît C MdP">
    <nd ref="838045321"/>
    <nd ref="839872114"/>
    <nd ref="838045413"/>
    <nd ref="838045573"/>
    <nd ref="838045810"/>
    <nd ref="838045266"/>
    <nd ref="838045555"/>
    <nd ref="838045896"/>
    <nd ref="838045321"/>
    <tag k="alt_name" v="Église du Saint-Sacrement"/>
    <tag k="amenity" v="place_of_worship"/>
    <tag k="building" v="church"/>
    <tag k="denomination" v="catholic"/>
    <tag k="name" v="Chapelle du Corpus-Christi"/>
    <tag k="opening_hours" v="Mo-Fr 07:00-19:00; Sa,Su,Th 07:00-12:00,15:00-19:00"/>
    <tag k="religion" v="christian"/>
    <tag k="service_times" v="Mo-Sa 18:30, Tu 12:30, 18:30"/>
    <tag k="source" v="cadastre-dgi-fr source : Direction Générale des Impôts - Cadastre. Mise à jour : 2010"/>
    <tag k="website" v="http://maison-eymard.fr/"/>
    <tag k="wikidata" v="Q56229994"/>
  </way>
  <way id="70187653" version="10" timestamp="2024-09-29T22:18:41Z" changeset="157272733" uid="195017" user="Julien39">
    <nd ref="2689483524"/>
    <nd ref="2689483521"/>
    <nd ref="2689483519"/>
    <nd ref="838076152"/>
    <nd ref="8461413565"/>
    <nd ref="838076275"/>
    <nd ref="2689483516"/>
    <nd ref="2689483517"/>
    <nd ref="2689483518"/>
    <nd ref="2689483520"/>
    <nd ref="2689483522"/>
    <nd ref="838076416"/>
    <nd ref="838076378"/>
    <nd ref="838076241"/>
    <nd ref="838076449"/>
    <nd ref="2689483524"/>
    <tag k="amenity" v="community_centre"/>
    <tag k="building" v="yes"/>
    <tag k="community_centre" v="cultural_centre"/>
    <tag k="name" v="Maison du Danemark"/>
    <tag k="name:da" v="Danmarkshuset"/>
    <tag k="website" v="https://www.maisondudanemark.dk/"/>
    <tag k="wikidata" v="Q2720995"/>
    <tag k="wikimedia_commons" v="File:Maison du Danemark.jpg"/>
    <tag k="wikipedia" v="fr:Maison du Danemark"/>
  </way>
  <way id="70187665" version="3" timestamp="2016-11-28T22:49:08Z" changeset="44021424" uid="50179" user="Aroche">
    <nd ref="838076125"/>
    <nd ref="838076516"/>
    <nd ref="838076433"/>
    <nd ref="838076216"/>
    <nd ref="838076400"/>
    <nd ref="838076172"/>
    <nd ref="839922468"/>
    <nd ref="838076125"/>
    <tag k="amenity" v="place_of_worship"/>
    <tag k="building" v="church"/>
    <tag k="denomination" v="protestant"/>
    <tag k="name" v="Église Protestante Danoise"/>
    <tag k="religion" v="christian"/>
    <tag k="source" v="cadastre-dgi-fr source : Direction Générale des Impôts - Cadastre. Mise à jour : 2010"/>
    <tag k="wikidata" v="Q11862861"/>
  </way>
  <way id="70187668" version="28" timestamp="2024-09-29T22:18:41Z" changeset="157272733" uid="195017" user="Julien39">
    <nd ref="6736481995"/>
    <nd ref="6736492392"/>
    <nd ref="830668049"/>
    <nd ref="12183015104"/>
    <nd ref="727891941"/>
    <nd ref="1534547339"/>
    <nd ref="21660042"/>
    <nd ref="3670345633"/>
    <nd ref="12198027331"/>
    <nd ref="1534547345"/>
    <nd ref="661221"/>
    <tag k="bicycle:backward" v="use_sidepath"/>
    <tag k="cycleway" v="separate"/>
    <tag k="highway" v="residential"/>
    <tag k="lanes" v="1"/>
    <tag k="lit" v="yes"/>
    <tag k="maxspeed" v="30"/>
    <tag k="name" v="Rue de Tilsitt"/>
    <tag k="name:etymology:wikidata" v="Q154596"/>
    <tag k="oneway" v="yes"/>
    <tag k="sidewalk" v="both"/>
    <tag k="source" v="cadastre-dgi-fr source : Direction Générale des Impôts - Cadastre. Mise à jour : 2010"/>
    <tag k="surface" v="asphalt"/>
  </way>
  <way id="70192450" version="8" timestamp="2024-08-19T09:02:17Z" changeset="155449157" uid="17632051" user="Nanonej">
    <nd ref="838121846"/>
    <nd ref="21660332"/>
    <tag k="highway" v="unclassified"/>
    <tag k="lane_markings" v="no"/>
    <tag k="lit" v="yes"/>
    <tag k="maxspeed" v="30"/>
    <tag k="name" v="Avenue Bertie Albrecht"/>
    <tag k="name:etymology:wikidata" v="Q454199"/>
    <tag k="oneway" v="yes"/>
    <tag k="smoothness" v="good"/>
    <tag k="source" v="cadastre-dgi-fr source : Direction Générale des Impôts - Cadastre. Mise à jour : 2010"/>
    <tag k="surface" v="asphalt"/>
  </way>
  <way id="70192452" version="16" timestamp="2024-08-04T01:03:23Z" changeset="154793359" uid="2252690" user="gourlaysama">
    <nd ref="21661080"/>
    <nd ref="2698142538"/>
    <nd ref="10218317523"/>
    <nd ref="10218316514"/>
    <nd ref="6213150083"/>
    <tag k="cycleway:both" v="no"/>
    <tag k="highway" v="residential"/>
    <tag k="lit" v="yes"/>
    <tag k="maxspeed" v="30"/>
    <tag k="name" v="Rue de la Néva"/>
    <tag k="name:etymology:wikidata" v="Q645"/>
    <tag k="oneway" v="yes"/>
    <tag k="sidewalk:both" v="separate"/>
    <tag k="source" v="cadastre-dgi-fr source : Direction Générale des Impôts - Cadastre. Mise à jour : 2010"/>
    <tag k="surface" v="asphalt"/>
  </way>
  <way id="70192510" version="6" timestamp="2024-06-12T14:55:39Z" changeset="152591559" uid="1205555" user="benoitdd">
    <nd ref="838122261"/>
    <nd ref="838122610"/>
    <nd ref="838122940"/>
    <nd ref="838123070"/>
    <nd ref="839872616"/>
    <nd ref="838122270"/>
    <nd ref="838121799"/>
    <nd ref="838122664"/>
    <nd ref="838122086"/>
    <nd ref="838123098"/>
    <nd ref="838122335"/>
    <nd ref="838121863"/>
    <nd ref="838123211"/>
    <nd ref="838122774"/>
    <nd ref="838121830"/>
    <nd ref="838122261"/>
    <tag k="building" v="yes"/>
    <tag k="check_date" v="2024-04-14"/>
    <tag k="name" v="Hôtel Napoléon"/>
    <tag k="source" v="cadastre-dgi-fr source : Direction Générale des Impôts - Cadastre. Mise à jour : 2010"/>
    <tag k="stars" v="5"/>
    <tag k="tourism" v="hotel"/>
    <tag k="wheelchair" v="yes"/>
    <tag k="wikidata" v="Q2915167"/>
  </way>
  <way id="70192893" version="12" timestamp="2024-03-24T14:22:07Z" changeset="149088273" uid="5670825" user="Christophe Raverdy">
    <nd ref="838145835"/>
    <nd ref="838145792"/>
    <nd ref="838145945"/>
    <nd ref="838145895"/>
    <nd ref="838145807"/>
    <nd ref="838145936"/>
    <nd ref="838145920"/>
    <nd ref="838145859"/>
    <nd ref="838145948"/>
    <nd ref="838145902"/>
    <nd ref="838145889"/>
    <nd ref="838145828"/>
    <nd ref="838145900"/>
    <nd ref="838145836"/>
    <nd ref="838145827"/>
    <nd ref="838145946"/>
    <nd ref="838145849"/>
    <nd ref="838145802"/>
    <nd ref="838145794"/>
    <nd ref="838145915"/>
    <nd ref="838145912"/>
    <nd ref="838145841"/>
    <nd ref="838145830"/>
    <nd ref="838145950"/>
    <nd ref="838145855"/>
    <nd ref="838145805"/>
    <nd ref="838145798"/>
    <nd ref="838145918"/>
    <nd ref="838145804"/>
    <nd ref="838145931"/>
    <nd ref="838145917"/>
    <nd ref="838145850"/>
    <nd ref="838145943"/>
    <nd ref="838145892"/>
    <nd ref="838145874"/>
    <nd ref="838145813"/>
    <nd ref="838145919"/>
    <nd ref="838145857"/>
    <nd ref="838145847"/>
    <nd ref="838145800"/>
    <nd ref="838145880"/>
    <nd ref="838145825"/>
    <nd ref="838145806"/>
    <nd ref="838145935"/>
    <nd ref="838145820"/>
    <nd ref="838145944"/>
    <nd ref="838145933"/>
    <nd ref="838145877"/>
    <nd ref="838145956"/>
    <nd ref="838145914"/>
    <nd ref="838145894"/>
    <nd ref="838145834"/>
    <nd ref="838145835"/>
    <tag k="addr:city" v="Paris"/>
    <tag k="addr:housenumber" v="12"/>
    <tag k="addr:postcode" v="75008"/>
    <tag k="addr:street" v="Rue Daru"/>
    <tag k="amenity" v="place_of_worship"/>
    <tag k="building" v="cathedral"/>
    <tag k="building:colour" v="#E8D3AE"/>
    <tag k="building:levels" v="3"/>
    <tag k="check_date" v="2024-03-24"/>
    <tag k="denomination" v="russian_orthodox"/>
    <tag k="height" v="6"/>
    <tag k="heritage" v="2"/>
    <tag k="heritage:operator" v="mhs"/>
    <tag k="mhs:inscription_date" v="1981-05-11"/>
    <tag k="name" v="Cathédrale Saint-Alexandre-Nevsky"/>
    <tag k="ref:mhs" v="PA00088807"/>
    <tag k="religion" v="christian"/>
    <tag k="roof:colour" v="#173131"/>
    <tag k="roof:shape" v="mansard"/>
    <tag k="source" v="cadastre-dgi-fr source : Direction Générale des Impôts - Cadastre. Mise à jour : 2010"/>
    <tag k="wikidata" v="Q1493222"/>
    <tag k="wikipedia" v="fr:Cathédrale Saint-Alexandre-Nevsky de Paris"/>
  </way>
  <way id="70223332" version="14" timestamp="2024-03-31T20:28:32Z" changeset="149406831" uid="2678738" user="fgouget">
    <nd ref="3219846389"/>
    <nd ref="8987506995"/>
    <nd ref="2698142574"/>
    <nd ref="10218349669"/>
    <nd ref="8987506989"/>
    <nd ref="21661060"/>
    <tag k="busway:right" v="lane"/>
    <tag k="cycleway:right" v="share_busway"/>
    <tag k="highway" v="primary"/>
    <tag k="lanes" v="2"/>
    <tag k="lit" v="yes"/>
    <tag k="maxspeed" v="30"/>
    <tag k="name" v="Boulevard de Courcelles"/>
    <tag k="name:etymology:wikidata" v="Q3001242"/>
    <tag k="oneway" v="yes"/>
    <tag k="sidewalk:right" v="separate"/>
    <tag k="source" v="cadastre-dgi-fr source : Direction Générale des Impôts - Cadastre. Mise à jour : 2010"/>
    <tag k="source:maxspeed" v="FR:urban"/>
    <tag k="surface" v="sett"/>
  </way>
  <way id="70223975" version="10" timestamp="2024-07-13T19:06:47Z" changeset="153906413" uid="3834000" user="cartoleo">
    <nd ref="838546757"/>
    <nd ref="838546069"/>
    <nd ref="838546592"/>
    <nd ref="838546810"/>
    <nd ref="838545601"/>
    <nd ref="838546421"/>
    <nd ref="838547094"/>
    <nd ref="838545476"/>
    <nd ref="838545946"/>
    <nd ref="838545391"/>
    <nd ref="838545851"/>
    <nd ref="838545972"/>
    <nd ref="838546450"/>
    <nd ref="838545908"/>
    <nd ref="839370242"/>
    <nd ref="838546757"/>
    <tag k="amenity" v="place_of_worship"/>
    <tag k="building" v="yes"/>
    <tag k="building:levels" v="8"/>
    <tag k="contact:city" v="Paris"/>
    <tag k="contact:housenumber" v="50"/>
    <tag k="contact:postcode" v="75008"/>
    <tag k="contact:street" v="Avenue Hoche"/>
    <tag k="denomination" v="catholic"/>
    <tag k="name" v="Saint-Joseph's Church (mission anglophone)"/>
    <tag k="note" v="emplacement approximatif"/>
    <tag k="ref:FR:CEF" v="75108_08"/>
    <tag k="religion" v="christian"/>
    <tag k="source" v="cadastre-dgi-fr source : Direction Générale des Impôts - Cadastre. Mise à jour : 2010"/>
    <tag k="wheelchair" v="yes"/>
    <tag k="wikidata" v="Q65882326"/>
  </way>
  <way id="70224004" version="19" timestamp="2024-06-12T14:55:39Z" changeset="152591559" uid="1205555" user="benoitdd">
    <nd ref="838545458"/>
    <nd ref="838546173"/>
    <nd ref="11975621941"/>
    <nd ref="838546068"/>
    <nd ref="838545600"/>
    <nd ref="838545778"/>
    <nd ref="838546372"/>
    <nd ref="838545804"/>
    <nd ref="838546275"/>
    <nd ref="838546402"/>
    <nd ref="838547067"/>
    <nd ref="839370579"/>
    <nd ref="839370274"/>
    <nd ref="838546145"/>
    <nd ref="838546725"/>
    <nd ref="838545931"/>
    <nd ref="838545458"/>
    <tag k="brand" v="Decathlon"/>
    <tag k="brand:wikidata" v="Q509349"/>
    <tag k="brand:wikipedia" v="en:Decathlon (retailer)"/>
    <tag k="building" v="retail"/>
    <tag k="contact:city" v="Paris"/>
    <tag k="contact:housename" v="Decathlon"/>
    <tag k="contact:housenumber" v="26"/>
    <tag k="contact:phone" v="+33 1 45 72 66 88"/>
    <tag k="contact:postcode" v="75008"/>
    <tag k="contact:street" v="Avenue de Wagram"/>
    <tag k="contact:website" v="https://www.decathlon.fr/fr/magasin/magasin-sport-paris-wagram-MS_0070009000090.html"/>
    <tag k="name" v="Decathlon"/>
    <tag k="opening_hours" v="Mo-Sa 09:00-20:00"/>
    <tag k="service:bicycle:repair" v="yes"/>
    <tag k="service:bicycle:retail" v="yes"/>
    <tag k="shop" v="sports"/>
    <tag k="source" v="cadastre-dgi-fr source : Direction Générale des Impôts - Cadastre. Mise à jour : 2010"/>
    <tag k="sport" v="cycling"/>
    <tag k="wheelchair" v="yes"/>
  </way>
  <way id="70224059" version="15" timestamp="2024-03-24T14:02:59Z" changeset="149088273" uid="5670825" user="Christophe Raverdy">
    <nd ref="838546189"/>
    <nd ref="838545721"/>
    <nd ref="839370543"/>
    <nd ref="838546588"/>
    <nd ref="838545969"/>
    <nd ref="838546444"/>
    <nd ref="838546637"/>
    <nd ref="838545501"/>
    <nd ref="838546314"/>
    <nd ref="838546960"/>
    <nd ref="838546159"/>
    <nd ref="838547090"/>
    <nd ref="838545384"/>
    <nd ref="838545848"/>
    <nd ref="838546996"/>
    <nd ref="838545747"/>
    <nd ref="838545871"/>
    <nd ref="838546189"/>
    <tag k="architect" v="J. Lavirotte"/>
    <tag k="architect:wikidata" v="Q3188718"/>
    <tag k="building" v="apartments"/>
    <tag k="building:levels" v="8"/>
    <tag k="check_date" v="2024-03-24"/>
    <tag k="contact:city" v="Paris"/>
    <tag k="contact:housenumber" v="34"/>
    <tag k="contact:postcode" v="75008"/>
    <tag k="contact:street" v="Avenue de Wagram"/>
    <tag k="email" v="info@elysees-ceramic.com"/>
    <tag k="fax" v="+33 1 46 22 95 83"/>
    <tag k="heritage" v="3"/>
    <tag k="heritage:operator" v="mhs"/>
    <tag k="mhs:inscription_date" v="1964-07-17"/>
    <tag k="name" v="Hôtel Elysées Céramic"/>
    <tag k="old_name" v="Céramic Hôtel"/>
    <tag k="phone" v="+33 1 42 27 20 30"/>
    <tag k="ref:mhs" v="PA00088808"/>
    <tag k="source" v="cadastre-dgi-fr source : Direction Générale des Impôts - Cadastre. Mise à jour : 2010"/>
    <tag k="source:architect" v="survey"/>
    <tag k="source:heritage" v="data.gouv.fr:Ministère de la Culture - 04/2015"/>
    <tag k="stars" v="3"/>
    <tag k="start_date" v="1904"/>
    <tag k="tourism" v="hotel"/>
    <tag k="website" v="https://www.ceramic-paris-hotel.com/"/>
    <tag k="wheelchair" v="no"/>
    <tag k="wikidata" v="Q3010267"/>
    <tag k="wikipedia" v="fr:Céramic Hôtel"/>
  </way>
  <way id="70287898" version="7" timestamp="2025-04-24T15:21:42Z" changeset="165384942" uid="270456" user="pyrog">
    <nd ref="839110225"/>
    <nd ref="839110687"/>
    <nd ref="839110614"/>
    <nd ref="839109798"/>
    <nd ref="3450512086"/>
    <nd ref="3450512085"/>
    <nd ref="3450512084"/>
    <nd ref="839110890"/>
    <nd ref="839109756"/>
    <nd ref="839110535"/>
    <nd ref="839370267"/>
    <nd ref="12783732672"/>
    <nd ref="839110447"/>
    <nd ref="839110563"/>
    <nd ref="839110408"/>
    <nd ref="839110225"/>
    <tag k="building" v="office"/>
    <tag k="building:levels" v="7"/>
    <tag k="contact:city" v="Paris"/>
    <tag k="contact:fax" v="+33 1 42 12 82 51"/>
    <tag k="contact:housenumber" v="4 bis"/>
    <tag k="contact:phone" v="+33 1 42 12 82 50"/>
    <tag k="contact:postcode" v="75008"/>
    <tag k="contact:street" v="Avenue Hoche"/>
    <tag k="contact:website" v="http://www.academiediplomatique.org/"/>
    <tag k="name" v="Académie Diplomatique Internationale"/>
    <tag k="name:de" v="Internationale Diplomatische Akademie"/>
    <tag k="name:en" v="International Diplomatic Academy"/>
    <tag k="office" v="international_organisation"/>
    <tag k="short_name" v="ADI"/>
    <tag k="source" v="cadastre-dgi-fr source : Direction Générale des Impôts - Cadastre. Mise à jour : 2010"/>
  </way>
  <way id="70736939" version="15" timestamp="2024-03-31T22:05:48Z" changeset="149406831" uid="2678738" user="fgouget">
    <nd ref="1757087088"/>
    <nd ref="11067079884"/>
    <nd ref="32561279"/>
    <tag k="cycleway:right" v="no"/>
    <tag k="highway" v="tertiary"/>
    <tag k="lane_markings" v="no"/>
    <tag k="lit" v="yes"/>
    <tag k="maxspeed" v="30"/>
    <tag k="name" v="Rue La Boétie"/>
    <tag k="name:etymology:wikidata" v="Q290227"/>
    <tag k="oneway" v="yes"/>
    <tag k="parking:left" v="lane"/>
    <tag k="parking:left:orientation" v="parallel"/>
    <tag k="parking:right" v="no"/>
    <tag k="sidewalk:both" v="separate"/>
    <tag k="smoothness" v="intermediate"/>
    <tag k="source:maxspeed" v="FR:urban"/>
    <tag k="surface" v="sett"/>
  </way>
  <way id="71505096" version="17" timestamp="2024-09-09T14:08:55Z" changeset="156396641" uid="7512839" user="Benoît C MdP">
    <nd ref="7847753433"/>
    <nd ref="21660274"/>
    <nd ref="838076540"/>
    <nd ref="21660341"/>
    <nd ref="6996510784"/>
    <nd ref="6996510785"/>
    <nd ref="838050011"/>
    <nd ref="9632372807"/>
    <nd ref="21660389"/>
    <nd ref="9632399432"/>
    <nd ref="2698157915"/>
    <nd ref="6284856482"/>
    <tag k="bicycle:lanes:forward" v="yes|designated"/>
    <tag k="busway:both" v="lane"/>
    <tag k="cycleway:both" v="share_busway"/>
    <tag k="highway" v="primary"/>
    <tag k="lanes" v="4"/>
    <tag k="lanes:backward" v="2"/>
    <tag k="lanes:forward" v="2"/>
    <tag k="lit" v="yes"/>
    <tag k="maxspeed" v="30"/>
    <tag k="name" v="Avenue de Friedland"/>
    <tag k="name:etymology:wikidata" v="Q241108"/>
    <tag k="psv:lanes:forward" v="yes|designated"/>
    <tag k="sidewalk" v="both"/>
    <tag k="surface" v="sett"/>
  </way>
  <way id="82144898" version="4" timestamp="2024-07-21T15:29:20Z" changeset="154224626" uid="21317125" user="eenah5Oh">
    <nd ref="956519019"/>
    <nd ref="956519074"/>
    <nd ref="956519052"/>
    <nd ref="956518962"/>
    <nd ref="956519019"/>
    <tag k="building" v="yes"/>
    <tag k="check_date" v="2024-07-20"/>
    <tag k="name" v="Kiosque"/>
    <tag k="shop" v="newsagent"/>
    <tag k="source" v="survey; bing"/>
  </way>
  <way id="82144903" version="7" timestamp="2024-09-19T21:53:24Z" changeset="156841939" uid="392288" user="Kalepom">
    <nd ref="956519004"/>
    <nd ref="956519061"/>
    <nd ref="956519037"/>
    <nd ref="956519093"/>
    <nd ref="12187178347"/>
    <nd ref="956519004"/>
    <tag k="building" v="yes"/>
    <tag k="building:levels" v="1"/>
    <tag k="name" v="Kiosque"/>
    <tag k="roof:levels" v="0"/>
    <tag k="shop" v="newsagent"/>
    <tag k="source" v="survey; bing"/>
    <tag k="wheelchair" v="yes"/>
  </way>
  <way id="82144905" version="5" timestamp="2024-09-19T21:53:24Z" changeset="156841939" uid="392288" user="Kalepom">
    <nd ref="956519070"/>
    <nd ref="956518980"/>
    <nd ref="956518957"/>
    <nd ref="956519014"/>
    <nd ref="12187178348"/>
    <nd ref="956519070"/>
    <tag k="building" v="yes"/>
    <tag k="name" v="Kiosque"/>
    <tag k="shop" v="newsagent"/>
    <tag k="source" v="survey;bing"/>
  </way>
  <way id="83724048" version="16" timestamp="2024-12-03T23:10:17Z" changeset="159899829" uid="2678738" user="fgouget">
    <nd ref="270678186"/>
    <nd ref="5561542461"/>
    <nd ref="7639791827"/>
    <tag k="cycleway:left" v="no"/>
    <tag k="cycleway:right" v="separate"/>
    <tag k="dual_carriageway" v="yes"/>
    <tag k="highway" v="primary"/>
    <tag k="lanes" v="5"/>
    <tag k="lit" v="yes"/>
    <tag k="maxspeed" v="30"/>
    <tag k="name" v="Boulevard Haussmann"/>
    <tag k="name:etymology:wikidata" v="Q191798"/>
    <tag k="oneway" v="yes"/>
    <tag k="sidewalk:left" v="no"/>
    <tag k="sidewalk:right" v="separate"/>
    <tag k="source:maxspeed" v="FR:urban"/>
    <tag k="surface" v="sett"/>
  </way>
  <way id="83724056" version="14" timestamp="2024-08-08T13:55:23Z" changeset="154980893" uid="7512839" user="Benoît C MdP">
    <nd ref="270678320"/>
    <nd ref="12098894117"/>
    <tag k="cycleway:left" v="no"/>
    <tag k="cycleway:right" v="separate"/>
    <tag k="dual_carriageway" v="yes"/>
    <tag k="highway" v="primary"/>
    <tag k="lanes" v="2"/>
    <tag k="lit" v="yes"/>
    <tag k="maxspeed" v="30"/>
    <tag k="name" v="Boulevard Haussmann"/>
    <tag k="name:etymology:wikidata" v="Q191798"/>
    <tag k="oneway" v="yes"/>
    <tag k="sidewalk:left" v="no"/>
    <tag k="sidewalk:right" v="separate"/>
    <tag k="source:maxspeed" v="FR:urban"/>
    <tag k="surface" v="sett"/>
  </way>
  <way id="108200345" version="10" timestamp="2022-11-21T08:20:47Z" changeset="129184802" uid="172867" user="AmiFritz">
    <nd ref="838076260"/>
    <nd ref="838076477"/>
    <nd ref="838076558"/>
    <nd ref="838076099"/>
    <nd ref="838076322"/>
    <nd ref="838076178"/>
    <nd ref="838076042"/>
    <nd ref="838076284"/>
    <nd ref="838076135"/>
    <nd ref="838076362"/>
    <nd ref="838076116"/>
    <nd ref="838076202"/>
    <nd ref="838076366"/>
    <nd ref="839872576"/>
    <nd ref="838076229"/>
    <nd ref="838076510"/>
    <nd ref="2728443118"/>
    <nd ref="838076456"/>
    <nd ref="838076159"/>
    <nd ref="838076249"/>
    <nd ref="838076296"/>
    <nd ref="8596020254"/>
    <nd ref="1983648232"/>
    <nd ref="1986745629"/>
    <nd ref="840652735"/>
    <nd ref="8596020252"/>
    <nd ref="8596020251"/>
    <nd ref="838076384"/>
    <nd ref="838076076"/>
    <nd ref="838076498"/>
    <nd ref="838076195"/>
    <nd ref="838076031"/>
    <nd ref="838076273"/>
    <nd ref="838076335"/>
    <nd ref="838076553"/>
    <nd ref="838076260"/>
    <tag k="addr:city" v="Paris"/>
    <tag k="building" v="yes"/>
    <tag k="building:levels" v="4"/>
    <tag k="name" v="Hôtel Landolfo-Carcano"/>
    <tag k="roof:colour" v="#5C6882"/>
    <tag k="roof:levels" v="1"/>
    <tag k="roof:shape" v="mansard"/>
    <tag k="source" v="cadastre-dgi-fr source : Direction Générale des Impôts - Cadastre. Mise à jour : 2010"/>
    <tag k="wikidata" v="Q2841879"/>
  </way>
  <way id="108200349" version="6" timestamp="2022-11-21T08:20:47Z" changeset="129184802" uid="172867" user="AmiFritz">
    <nd ref="838122479"/>
    <nd ref="839370257"/>
    <nd ref="838123003"/>
    <nd ref="2728443143"/>
    <nd ref="2728443139"/>
    <nd ref="838121897"/>
    <nd ref="839871876"/>
    <nd ref="838122920"/>
    <nd ref="838122376"/>
    <nd ref="838122612"/>
    <nd ref="838122496"/>
    <nd ref="838123250"/>
    <nd ref="838123130"/>
    <nd ref="838122479"/>
    <tag k="building" v="yes"/>
    <tag k="building:levels" v="4"/>
    <tag k="name" v="Ambassade du Kazakhstan"/>
    <tag k="roof:colour" v="#5C6882"/>
    <tag k="roof:levels" v="1"/>
    <tag k="roof:shape" v="mansard"/>
    <tag k="source" v="cadastre-dgi-fr source : Direction Générale des Impôts - Cadastre. Mise à jour : 2010"/>
  </way>
  <way id="142321476" version="26" timestamp="2025-04-26T15:02:26Z" changeset="165469750" uid="53964" user="_Mathieu_">
    <nd ref="368254"/>
    <nd ref="1912528121"/>
    <nd ref="34843151"/>
    <nd ref="1912528118"/>
    <nd ref="6051380687"/>
    <nd ref="6051380686"/>
    <nd ref="25626383"/>
    <tag k="cycleway:left" v="no"/>
    <tag k="cycleway:right" v="separate"/>
    <tag k="enforcement:operator" v="Police nationale"/>
    <tag k="highway" v="primary"/>
    <tag k="junction" v="circular"/>
    <tag k="lanes" v="4"/>
    <tag k="lit" v="yes"/>
    <tag k="maxspeed" v="30"/>
    <tag k="name" v="Rond-point des Champs-Élysées-Marcel-Dassault"/>
    <tag k="note" v="not a roundabout; pas un giratoire"/>
    <tag k="oneway" v="yes"/>
    <tag k="operator" v="Ville de Paris"/>
    <tag k="operator:authority" v="Maire de Paris dans le respect des prescriptions prises par le préfet de police"/>
    <tag k="operator:authority:related_law" v="III de l'article L. 2512-14 du code général des collectivités territoriales"/>
    <tag k="parking:both" v="no"/>
    <tag k="parking:both:restriction" v="no_parking"/>
    <tag k="sidewalk" v="separate"/>
    <tag k="smoothness" v="intermediate"/>
    <tag k="source:maxspeed" v="FR:urban"/>
    <tag k="source:operator:authority" v="https://www.legifrance.gouv.fr/loda/id/LEGIARTI000035244298/#LEGIARTI000035244298"/>
    <tag k="surface" v="sett"/>
    <tag k="zone:traffic" v="FR:urban"/>
  </way>
  <way id="161357555" version="22" timestamp="2024-09-26T16:36:22Z" changeset="157138037" uid="5589" user="user_5589">
    <nd ref="21660340"/>
    <nd ref="2698142549"/>
    <nd ref="838145949"/>
    <nd ref="838145947"/>
    <nd ref="270088047"/>
    <nd ref="838145867"/>
    <nd ref="838145839"/>
    <nd ref="270088070"/>
    <nd ref="6892173226"/>
    <nd ref="11527278900"/>
    <nd ref="3110686892"/>
    <nd ref="10775927559"/>
    <nd ref="12202141271"/>
    <tag k="cycleway:both" v="no"/>
    <tag k="highway" v="tertiary"/>
    <tag k="lanes" v="2"/>
    <tag k="lit" v="yes"/>
    <tag k="maxspeed" v="30"/>
    <tag k="name" v="Avenue Hoche"/>
    <tag k="name:etymology:wikidata" v="Q367042"/>
    <tag k="sidewalk:both" v="separate"/>
    <tag k="smoothness" v="good"/>
    <tag k="surface" v="asphalt"/>
  </way>
  <way id="190627543" version="14" timestamp="2024-12-04T02:41:14Z" changeset="159902356" uid="2678738" user="fgouget">
    <nd ref="270678185"/>
    <nd ref="12098894107"/>
    <nd ref="2698157941"/>
    <nd ref="6996510791"/>
    <nd ref="21660458"/>
    <tag k="cycleway:right" v="separate"/>
    <tag k="dual_carriageway" v="yes"/>
    <tag k="highway" v="primary"/>
    <tag k="lanes" v="2"/>
    <tag k="lit" v="yes"/>
    <tag k="maxspeed" v="30"/>
    <tag k="name" v="Avenue de Friedland"/>
    <tag k="name:etymology:wikidata" v="Q241108"/>
    <tag k="oneway" v="yes"/>
    <tag k="sidewalk:right" v="separate"/>
    <tag k="source:maxspeed" v="FR:urban"/>
    <tag k="surface" v="sett"/>
  </way>
  <way id="193465140" version="40" timestamp="2025-05-06T14:33:32Z" changeset="165895433" uid="195017" user="Julien39">
    <nd ref="368322"/>
    <nd ref="6051259203"/>
    <nd ref="1924310837"/>
    <nd ref="350530157"/>
    <nd ref="1924310839"/>
    <nd ref="368321"/>
    <tag k="cycleway:right" v="no"/>
    <tag k="enforcement:operator" v="Police nationale"/>
    <tag k="highway" v="primary"/>
    <tag k="junction" v="circular"/>
    <tag k="lanes" v="12"/>
    <tag k="lit" v="yes"/>
    <tag k="maxspeed" v="30"/>
    <tag k="name" v="Place Charles de Gaulle"/>
    <tag k="name:etymology:wikidata" v="Q2042"/>
    <tag k="name:ru" v="Площадь Шарль де Голл"/>
    <tag k="name:vi" v="Quảng trường Charles de Gaulle"/>
    <tag k="name:wa" v="Plèce Charles di Gaulle"/>
    <tag k="note" v="this is not a roundabout; ceci n'est pas un carrefour giratoire"/>
    <tag k="old_name" v="Place de l'Étoile"/>
    <tag k="old_name:vi" v="Quảng trường Étoile"/>
    <tag k="oneway" v="yes"/>
    <tag k="operator" v="Ville de Paris"/>
    <tag k="operator:authority" v="Maire de Paris dans le respect des prescriptions prises par le préfet de police"/>
    <tag k="operator:authority:related_law" v="III de l'article L. 2512-14 du code général des collectivités territoriales"/>
    <tag k="parking:both" v="no"/>
    <tag k="parking:both:restriction" v="no_parking"/>
    <tag k="sidewalk:left" v="yes"/>
    <tag k="sidewalk:right" v="separate"/>
    <tag k="source:operator:authority" v="https://www.legifrance.gouv.fr/loda/id/LEGIARTI000035244298/#LEGIARTI000035244298"/>
    <tag k="surface" v="sett"/>
    <tag k="zone:traffic" v="FR:urban"/>
  </way>
  <way id="294955902" version="3" timestamp="2023-11-07T07:48:01Z" changeset="143723440" uid="2115804" user="maferikotupi">
    <nd ref="2985947967"/>
    <nd ref="2985947966"/>
    <nd ref="2985947964"/>
    <nd ref="2985947965"/>
    <nd ref="2985947967"/>
    <tag k="building" v="yes"/>
    <tag k="check_date" v="2023-11-07"/>
    <tag k="name" v="Kiosque"/>
    <tag k="shop" v="newsagent"/>
    <tag k="source" v="survey; bing"/>
  </way>
  <way id="314456032" version="14" timestamp="2024-09-25T02:06:03Z" changeset="157061405" uid="2678738" user="fgouget">
    <nd ref="838122995"/>
    <nd ref="3670345634"/>
    <nd ref="7977754608"/>
    <nd ref="12183015032"/>
    <nd ref="3670345635"/>
    <nd ref="3670340323"/>
    <nd ref="6370024889"/>
    <tag k="highway" v="primary"/>
    <tag k="lanes" v="4"/>
    <tag k="lanes:backward" v="2"/>
    <tag k="lanes:forward" v="2"/>
    <tag k="lit" v="yes"/>
    <tag k="maxspeed" v="30"/>
    <tag k="name" v="Avenue de Friedland"/>
    <tag k="name:etymology:wikidata" v="Q241108"/>
    <tag k="sidewalk:both" v="separate"/>
    <tag k="surface" v="paving_stones"/>
  </way>
  <way id="314456033" version="12" timestamp="2024-09-09T14:08:55Z" changeset="156396641" uid="7512839" user="Benoît C MdP">
    <nd ref="661221"/>
    <nd ref="3670340324"/>
    <nd ref="3670345636"/>
    <nd ref="292881410"/>
    <nd ref="838076387"/>
    <nd ref="21660273"/>
    <tag k="bicycle:lanes:forward" v="yes|designated"/>
    <tag k="busway:both" v="lane"/>
    <tag k="cycleway:both" v="share_busway"/>
    <tag k="highway" v="primary"/>
    <tag k="lanes" v="4"/>
    <tag k="lanes:backward" v="2"/>
    <tag k="lanes:forward" v="2"/>
    <tag k="lit" v="yes"/>
    <tag k="maxspeed" v="30"/>
    <tag k="name" v="Avenue de Friedland"/>
    <tag k="name:etymology:wikidata" v="Q241108"/>
    <tag k="psv:lanes:forward" v="yes|designated"/>
    <tag k="surface" v="sett"/>
  </way>
  <way id="314456040" version="20" timestamp="2025-05-09T10:16:22Z" changeset="166020785" uid="195017" user="Julien39">
    <nd ref="661221"/>
    <nd ref="3670342625"/>
    <nd ref="21660041"/>
    <nd ref="838122014"/>
    <nd ref="3670345638"/>
    <nd ref="3670345639"/>
    <nd ref="661220"/>
    <tag k="bicycle:backward" v="use_sidepath"/>
    <tag k="cycleway" v="separate"/>
    <tag k="highway" v="residential"/>
    <tag k="lanes" v="1"/>
    <tag k="lit" v="yes"/>
    <tag k="maxspeed" v="30"/>
    <tag k="name" v="Rue de Tilsitt"/>
    <tag k="name:etymology:wikidata" v="Q154596"/>
    <tag k="oneway" v="yes"/>
    <tag k="sidewalk:both" v="separate"/>
    <tag k="source" v="cadastre-dgi-fr source : Direction Générale des Impôts - Cadastre. Mise à jour : 2010"/>
    <tag k="surface" v="paving_stones"/>
  </way>
  <way id="330436158" version="14" timestamp="2024-08-03T23:49:41Z" changeset="154792832" uid="2252690" user="gourlaysama">
    <nd ref="2698157917"/>
    <nd ref="6199003717"/>
    <nd ref="32564428"/>
    <nd ref="2698157927"/>
    <nd ref="32561132"/>
    <tag k="bicycle:lanes:forward" v="yes|designated"/>
    <tag k="busway:right" v="lane"/>
    <tag k="cycleway:left" v="no"/>
    <tag k="cycleway:right" v="share_busway"/>
    <tag k="highway" v="tertiary"/>
    <tag k="lanes" v="3"/>
    <tag k="lanes:backward" v="1"/>
    <tag k="lanes:forward" v="2"/>
    <tag k="lit" v="yes"/>
    <tag k="maxspeed" v="30"/>
    <tag k="name" v="Rue de Courcelles"/>
    <tag k="name:etymology:wikidata" v="Q3001242"/>
    <tag k="parking:left" v="no"/>
    <tag k="parking:right" v="street_side"/>
    <tag k="parking:right:orientation" v="parallel"/>
    <tag k="psv:lanes:forward" v="yes|designated"/>
    <tag k="sidewalk:both" v="separate"/>
    <tag k="surface" v="sett"/>
  </way>
  <way id="331135219" version="17" timestamp="2025-04-26T15:02:26Z" changeset="165469750" uid="53964" user="_Mathieu_">
    <nd ref="25934280"/>
    <nd ref="1912528115"/>
    <nd ref="34843149"/>
    <nd ref="1912528117"/>
    <nd ref="810097720"/>
    <nd ref="1912528119"/>
    <nd ref="368254"/>
    <tag k="cycleway:left" v="no"/>
    <tag k="cycleway:right" v="separate"/>
    <tag k="enforcement:operator" v="Police nationale"/>
    <tag k="highway" v="primary"/>
    <tag k="junction" v="circular"/>
    <tag k="lanes" v="4"/>
    <tag k="lit" v="yes"/>
    <tag k="maxspeed" v="30"/>
    <tag k="name" v="Rond-point des Champs-Élysées-Marcel-Dassault"/>
    <tag k="note" v="not a roundabout; pas un giratoire"/>
    <tag k="oneway" v="yes"/>
    <tag k="operator" v="Ville de Paris"/>
    <tag k="operator:authority" v="Maire de Paris dans le respect des prescriptions prises par le préfet de police"/>
    <tag k="operator:authority:related_law" v="III de l'article L. 2512-14 du code général des collectivités territoriales"/>
    <tag k="parking:both" v="no"/>
    <tag k="parking:both:restriction" v="no_parking"/>
    <tag k="sidewalk" v="separate"/>
    <tag k="source:maxspeed" v="FR:urban"/>
    <tag k="source:operator:authority" v="https://www.legifrance.gouv.fr/loda/id/LEGIARTI000035244298/#LEGIARTI000035244298"/>
    <tag k="surface" v="sett"/>
    <tag k="zone:traffic" v="FR:urban"/>
  </way>
  <way id="362231920" version="13" timestamp="2024-02-11T17:19:37Z" changeset="147336052" uid="6290466" user="benjamintchik">
    <nd ref="810252514"/>
    <nd ref="6620531018"/>
    <nd ref="368254"/>
    <tag k="cycleway:left" v="opposite_track"/>
    <tag k="highway" v="tertiary"/>
    <tag k="lanes" v="1"/>
    <tag k="lit" v="yes"/>
    <tag k="maxspeed" v="30"/>
    <tag k="name" v="Avenue Franklin Delano Roosevelt"/>
    <tag k="name:etymology:wikidata" v="Q8007"/>
    <tag k="old_name" v="Avenue Victor-Emmanuel III"/>
    <tag k="oneway" v="yes"/>
    <tag k="oneway:bicycle" v="no"/>
    <tag k="sidewalk" v="separate"/>
    <tag k="surface" v="sett"/>
  </way>
  <way id="364649040" version="11" timestamp="2024-09-25T02:07:45Z" changeset="157061405" uid="2678738" user="fgouget">
    <nd ref="3686921239"/>
    <nd ref="8987506997"/>
    <nd ref="8987506996"/>
    <nd ref="3219846389"/>
    <tag k="cycleway:left" v="no"/>
    <tag k="cycleway:right" v="lane"/>
    <tag k="cycleway:right:lane" v="exclusive"/>
    <tag k="highway" v="primary"/>
    <tag k="lanes" v="2"/>
    <tag k="lit" v="yes"/>
    <tag k="maxspeed" v="30"/>
    <tag k="name" v="Place des Ternes"/>
    <tag k="name:etymology:wikidata" v="Q968881"/>
    <tag k="oneway" v="yes"/>
    <tag k="sidewalk:right" v="separate"/>
    <tag k="source:maxspeed" v="FR:urban"/>
    <tag k="surface" v="sett"/>
  </way>
  <way id="364649042" version="16" timestamp="2025-01-27T08:01:53Z" changeset="161807095" uid="7512839" user="Benoît C MdP">
    <nd ref="12532433232"/>
    <nd ref="3219846391"/>
    <nd ref="5475922894"/>
    <nd ref="8987506990"/>
    <nd ref="3219846390"/>
    <nd ref="8987506991"/>
    <nd ref="8987506992"/>
    <nd ref="3219846393"/>
    <nd ref="8987506993"/>
    <nd ref="8987506994"/>
    <nd ref="3686942562"/>
    <tag k="cycleway:left" v="no"/>
    <tag k="cycleway:right" v="lane"/>
    <tag k="cycleway:right:lane" v="advisory"/>
    <tag k="highway" v="primary"/>
    <tag k="lanes" v="2"/>
    <tag k="lit" v="yes"/>
    <tag k="maxspeed" v="30"/>
    <tag k="name" v="Place des Ternes"/>
    <tag k="name:etymology:wikidata" v="Q968881"/>
    <tag k="oneway" v="yes"/>
    <tag k="source:maxspeed" v="FR:urban"/>
    <tag k="surface" v="sett"/>
  </way>
  <way id="364650614" version="13" timestamp="2024-08-04T01:03:22Z" changeset="154793359" uid="2252690" user="gourlaysama">
    <nd ref="2698142534"/>
    <nd ref="3686921239"/>
    <tag k="cycleway:left" v="no"/>
    <tag k="cycleway:right" v="lane"/>
    <tag k="cycleway:right:lane" v="exclusive"/>
    <tag k="highway" v="primary"/>
    <tag k="lanes" v="2"/>
    <tag k="lit" v="yes"/>
    <tag k="maxspeed" v="30"/>
    <tag k="name" v="Place des Ternes"/>
    <tag k="name:etymology:wikidata" v="Q968881"/>
    <tag k="oneway" v="yes"/>
    <tag k="sidewalk:left" v="yes"/>
    <tag k="sidewalk:right" v="separate"/>
    <tag k="source:maxspeed" v="FR:urban"/>
    <tag k="surface" v="sett"/>
  </way>
  <way id="365158937" version="10" timestamp="2024-12-04T02:31:44Z" changeset="159902356" uid="2678738" user="fgouget">
    <nd ref="1534591769"/>
    <nd ref="810136813"/>
    <nd ref="25934316"/>
    <nd ref="5070885931"/>
    <nd ref="6898112925"/>
    <nd ref="32560750"/>
    <tag k="busway:right" v="track"/>
    <tag k="cycleway:right" v="share_busway"/>
    <tag k="highway" v="residential"/>
    <tag k="lanes" v="2"/>
    <tag k="lit" v="yes"/>
    <tag k="maxspeed" v="30"/>
    <tag k="name" v="Avenue Matignon"/>
    <tag k="name:etymology:wikidata" v="Q2958446"/>
    <tag k="oneway" v="yes"/>
    <tag k="sidewalk:left" v="separate"/>
    <tag k="surface" v="asphalt"/>
  </way>
  <way id="372826823" version="4" timestamp="2024-05-14T07:03:59Z" changeset="151297020" uid="15406028" user="Mobinaute">
    <nd ref="3763744658"/>
    <nd ref="3763744059"/>
    <nd ref="3763742957"/>
    <nd ref="840652914"/>
    <nd ref="840653653"/>
    <nd ref="3763745357"/>
    <nd ref="3763745058"/>
    <nd ref="829526016"/>
    <nd ref="829525877"/>
    <nd ref="829526291"/>
    <nd ref="3763744658"/>
    <tag k="brand" v="Adidas"/>
    <tag k="brand:wikidata" v="Q3895"/>
    <tag k="building" v="yes"/>
    <tag k="level" v="0"/>
    <tag k="name" v="Adidas"/>
    <tag k="note" v="Anciennement fut &quot;Club Med&quot;"/>
    <tag k="old_name" v="H&amp;M"/>
    <tag k="shop" v="sports"/>
    <tag k="wheelchair" v="yes"/>
  </way>
  <way id="373232606" version="2" timestamp="2019-09-27T21:11:59Z" changeset="75026562" uid="4948143" user="doublah">
    <nd ref="3767437862"/>
    <nd ref="3767438859"/>
    <nd ref="3767138369"/>
    <nd ref="3767435664"/>
    <nd ref="3767436766"/>
    <nd ref="3767436258"/>
    <nd ref="3767436359"/>
    <nd ref="3767282460"/>
    <nd ref="3767437862"/>
    <tag k="brand" v="Dune London"/>
    <tag k="brand:wikidata" v="Q65557112"/>
    <tag k="building" v="yes"/>
    <tag k="level" v="0"/>
    <tag k="name" v="Dune London"/>
    <tag k="room" v="shop"/>
    <tag k="shop" v="shoes"/>
    <tag k="short_name" v="Dune"/>
  </way>
  <way id="373232612" version="7" timestamp="2025-01-04T23:18:32Z" changeset="161005011" uid="53964" user="_Mathieu_">
    <nd ref="3767435660"/>
    <nd ref="3767435965"/>
    <nd ref="3767438957"/>
    <nd ref="3767436763"/>
    <nd ref="3767436764"/>
    <nd ref="3767438584"/>
    <nd ref="3767136368"/>
    <nd ref="3767436360"/>
    <nd ref="3767435665"/>
    <nd ref="3767138370"/>
    <nd ref="3767438672"/>
    <nd ref="3767435766"/>
    <nd ref="3767436659"/>
    <nd ref="3767438471"/>
    <nd ref="3767438470"/>
    <nd ref="3767438585"/>
    <nd ref="3767136367"/>
    <nd ref="3767435661"/>
    <nd ref="3767435966"/>
    <nd ref="3767437860"/>
    <nd ref="3767435660"/>
    <tag k="addr:city" v="Paris"/>
    <tag k="addr:housenumber" v="74"/>
    <tag k="addr:postcode" v="75008"/>
    <tag k="addr:street" v="Avenue des Champs-Élysées"/>
    <tag k="building" v="yes"/>
    <tag k="check_date" v="2025-01-05"/>
    <tag k="level" v="-1"/>
    <tag k="old_name" v="Fnac"/>
    <tag k="shop" v="vacant"/>
  </way>
  <way id="374056161" version="18" timestamp="2024-09-20T23:06:09Z" changeset="156890640" uid="2678738" user="fgouget">
    <nd ref="32560723"/>
    <nd ref="6251995686"/>
    <nd ref="9632584293"/>
    <nd ref="9966563526"/>
    <nd ref="11012446338"/>
    <nd ref="829526332"/>
    <tag k="bicycle:lanes" v="yes|designated"/>
    <tag k="busway:right" v="lane"/>
    <tag k="cycleway:right" v="share_busway"/>
    <tag k="highway" v="tertiary"/>
    <tag k="lanes" v="2"/>
    <tag k="lit" v="yes"/>
    <tag k="maxspeed" v="30"/>
    <tag k="name" v="Rue La Boétie"/>
    <tag k="name:etymology:wikidata" v="Q290227"/>
    <tag k="oneway" v="yes"/>
    <tag k="parking:both" v="no"/>
    <tag k="postal_code" v="75008"/>
    <tag k="psv:lanes" v="yes|designated"/>
    <tag k="sidewalk" v="separate"/>
    <tag k="smoothness" v="good"/>
    <tag k="source:maxspeed" v="FR:urban"/>
    <tag k="surface" v="asphalt"/>
  </way>
  <way id="395231171" version="5" timestamp="2024-09-29T22:18:41Z" changeset="157272733" uid="195017" user="Julien39">
    <nd ref="12209843122"/>
    <nd ref="2683634167"/>
    <nd ref="2683634176"/>
    <nd ref="12209843116"/>
    <nd ref="2683634193"/>
    <nd ref="2683634190"/>
    <nd ref="2683634191"/>
    <nd ref="2683634184"/>
    <nd ref="2683634179"/>
    <nd ref="2683634170"/>
    <nd ref="2683634162"/>
    <nd ref="2683634145"/>
    <nd ref="2683634133"/>
    <nd ref="2683634130"/>
    <nd ref="2683634123"/>
    <nd ref="2683634116"/>
    <nd ref="12209843117"/>
    <nd ref="3981430557"/>
    <nd ref="12209843118"/>
    <nd ref="3981430558"/>
    <nd ref="12209843119"/>
    <nd ref="3981430560"/>
    <nd ref="12209843120"/>
    <nd ref="12209843121"/>
    <nd ref="3981430559"/>
    <nd ref="12209843122"/>
    <tag k="brand" v="Swatch"/>
    <tag k="brand:wikidata" v="Q573422"/>
    <tag k="brand:wikipedia" v="en:Swatch"/>
    <tag k="building" v="yes"/>
    <tag k="contact:city" v="Paris"/>
    <tag k="contact:housenumber" v="104"/>
    <tag k="contact:postcode" v="75008"/>
    <tag k="contact:street" v="Avenue des Champs-Élysées"/>
    <tag k="name" v="Swatch"/>
    <tag k="shop" v="watches"/>
    <tag k="wheelchair" v="no"/>
  </way>
  <way id="395231173" version="4" timestamp="2023-12-14T14:26:09Z" changeset="145114654" uid="290680" user="wheelmap_visitor">
    <nd ref="3981430561"/>
    <nd ref="3981430562"/>
    <nd ref="2683634133"/>
    <nd ref="3981430563"/>
    <nd ref="3981430561"/>
    <tag k="brand" v="TAG Heuer"/>
    <tag k="brand:wikidata" v="Q645984"/>
    <tag k="brand:wikipedia" v="en:TAG Heuer"/>
    <tag k="building" v="yes"/>
    <tag k="contact:city" v="Paris"/>
    <tag k="contact:housenumber" v="104"/>
    <tag k="contact:postcode" v="75008"/>
    <tag k="contact:street" v="Avenue des Champs-Élysées"/>
    <tag k="name" v="TAG Heuer"/>
    <tag k="shop" v="watches"/>
    <tag k="wheelchair" v="yes"/>
  </way>
  <way id="395687665" version="1" timestamp="2016-02-02T23:15:41Z" changeset="36968348" uid="3583786" user="Alison24">
    <nd ref="3985130978"/>
    <nd ref="3985130979"/>
    <nd ref="3985130980"/>
    <nd ref="3985130981"/>
    <nd ref="3985130978"/>
    <tag k="building" v="yes"/>
    <tag k="name" v="Deret"/>
  </way>
  <way id="395687708" version="1" timestamp="2016-02-02T23:15:43Z" changeset="36968348" uid="3583786" user="Alison24">
    <nd ref="3985131203"/>
    <nd ref="3985131204"/>
    <nd ref="3985131205"/>
    <nd ref="3985131206"/>
    <nd ref="3985131203"/>
    <tag k="building" v="yes"/>
    <tag k="name" v="G Sarti"/>
    <tag k="shop" v="art"/>
  </way>
  <way id="395687759" version="4" timestamp="2022-09-11T16:15:11Z" changeset="126055968" uid="2517256" user="spipau">
    <nd ref="3985131487"/>
    <nd ref="3985131488"/>
    <nd ref="3985131489"/>
    <nd ref="3985131490"/>
    <nd ref="3985131487"/>
    <tag k="building" v="yes"/>
    <tag k="building:levels" v="5"/>
    <tag k="name" v="Pleun Fard"/>
    <tag k="opening_hours" v="Mo-Sa 10:00-19:00, Sa 12:00-18:00"/>
    <tag k="shop" v="beauty"/>
    <tag k="wheelchair" v="limited"/>
  </way>
  <way id="502174127" version="16" timestamp="2024-07-13T19:06:48Z" changeset="153906410" uid="3834000" user="cartoleo">
    <nd ref="4927356928"/>
    <nd ref="21660275"/>
    <nd ref="5964830380"/>
    <nd ref="4927356929"/>
    <nd ref="6900193196"/>
    <nd ref="21660332"/>
    <nd ref="2698142507"/>
    <nd ref="21660340"/>
    <tag k="cycleway" v="no"/>
    <tag k="highway" v="tertiary"/>
    <tag k="lanes" v="2"/>
    <tag k="lit" v="yes"/>
    <tag k="maxspeed" v="30"/>
    <tag k="name" v="Avenue Hoche"/>
    <tag k="name:etymology:wikidata" v="Q367042"/>
    <tag k="sidewalk:both" v="separate"/>
    <tag k="smoothness" v="good"/>
    <tag k="surface" v="asphalt"/>
  </way>
  <way id="503103507" version="36" timestamp="2025-05-06T14:33:32Z" changeset="165895433" uid="195017" user="Julien39">
    <nd ref="368320"/>
    <nd ref="350530163"/>
    <nd ref="1924310844"/>
    <nd ref="368319"/>
    <tag k="enforcement:operator" v="Police nationale"/>
    <tag k="highway" v="primary"/>
    <tag k="junction" v="circular"/>
    <tag k="lanes" v="12"/>
    <tag k="lit" v="yes"/>
    <tag k="maxspeed" v="30"/>
    <tag k="name" v="Place Charles de Gaulle"/>
    <tag k="name:etymology:wikidata" v="Q2042"/>
    <tag k="name:ru" v="Площадь Шарль де Голл"/>
    <tag k="name:vi" v="Quảng trường Charles de Gaulle"/>
    <tag k="name:wa" v="Plèce Charles di Gaulle"/>
    <tag k="note" v="this is not a roundabout; ceci n'est pas un carrefour giratoire"/>
    <tag k="old_name" v="Place de l'Étoile"/>
    <tag k="old_name:vi" v="Quảng trường Étoile"/>
    <tag k="oneway" v="yes"/>
    <tag k="operator" v="Ville de Paris"/>
    <tag k="operator:authority" v="Maire de Paris dans le respect des prescriptions prises par le préfet de police"/>
    <tag k="operator:authority:related_law" v="III de l'article L. 2512-14 du code général des collectivités territoriales"/>
    <tag k="parking:both" v="no"/>
    <tag k="parking:both:restriction" v="no_parking"/>
    <tag k="sidewalk:left" v="yes"/>
    <tag k="sidewalk:right" v="separate"/>
    <tag k="smoothness" v="intermediate"/>
    <tag k="source:operator:authority" v="https://www.legifrance.gouv.fr/loda/id/LEGIARTI000035244298/#LEGIARTI000035244298"/>
    <tag k="surface" v="sett"/>
    <tag k="zone:traffic" v="FR:urban"/>
  </way>
  <way id="503103508" version="32" timestamp="2025-05-06T14:33:32Z" changeset="165895433" uid="195017" user="Julien39">
    <nd ref="368321"/>
    <nd ref="1924310840"/>
    <nd ref="350530161"/>
    <nd ref="1924310841"/>
    <nd ref="368320"/>
    <tag k="enforcement:operator" v="Police nationale"/>
    <tag k="highway" v="primary"/>
    <tag k="junction" v="circular"/>
    <tag k="lanes" v="12"/>
    <tag k="lit" v="yes"/>
    <tag k="maxspeed" v="30"/>
    <tag k="name" v="Place Charles de Gaulle"/>
    <tag k="name:etymology:wikidata" v="Q2042"/>
    <tag k="name:ru" v="Площадь Шарль де Голл"/>
    <tag k="name:vi" v="Quảng trường Charles de Gaulle"/>
    <tag k="name:wa" v="Plèce Charles di Gaulle"/>
    <tag k="note" v="this is not a roundabout; ceci n'est pas un carrefour giratoire"/>
    <tag k="old_name" v="Place de l'Étoile"/>
    <tag k="old_name:vi" v="Quảng trường Étoile"/>
    <tag k="oneway" v="yes"/>
    <tag k="operator" v="Ville de Paris"/>
    <tag k="operator:authority" v="Maire de Paris dans le respect des prescriptions prises par le préfet de police"/>
    <tag k="operator:authority:related_law" v="III de l'article L. 2512-14 du code général des collectivités territoriales"/>
    <tag k="parking:both" v="no"/>
    <tag k="parking:both:restriction" v="no_parking"/>
    <tag k="sidewalk:left" v="yes"/>
    <tag k="sidewalk:right" v="separate"/>
    <tag k="source:operator:authority" v="https://www.legifrance.gouv.fr/loda/id/LEGIARTI000035244298/#LEGIARTI000035244298"/>
    <tag k="surface" v="sett"/>
    <tag k="zone:traffic" v="FR:urban"/>
  </way>
  <way id="503103509" version="14" timestamp="2025-05-09T10:16:22Z" changeset="166020785" uid="195017" user="Julien39">
    <nd ref="661220"/>
    <nd ref="3670345644"/>
    <nd ref="838122102"/>
    <nd ref="21660040"/>
    <nd ref="838121800"/>
    <nd ref="838122286"/>
    <nd ref="12506750894"/>
    <nd ref="661218"/>
    <tag k="bicycle:backward" v="use_sidepath"/>
    <tag k="cycleway" v="separate"/>
    <tag k="highway" v="residential"/>
    <tag k="lanes" v="1"/>
    <tag k="maxspeed" v="30"/>
    <tag k="name" v="Rue de Tilsitt"/>
    <tag k="name:etymology:wikidata" v="Q154596"/>
    <tag k="oneway" v="yes"/>
    <tag k="sidewalk:both" v="separate"/>
    <tag k="source" v="cadastre-dgi-fr source : Direction Générale des Impôts - Cadastre. Mise à jour : 2010"/>
    <tag k="source:maxspeed" v="FR:urban"/>
    <tag k="surface" v="paving_stones"/>
  </way>
  <way id="517322729" version="11" timestamp="2025-04-26T15:02:26Z" changeset="165469750" uid="53964" user="_Mathieu_">
    <nd ref="25626383"/>
    <nd ref="6051380685"/>
    <nd ref="6051380584"/>
    <nd ref="1912528112"/>
    <nd ref="34843142"/>
    <nd ref="1912528110"/>
    <nd ref="1912528109"/>
    <nd ref="25626414"/>
    <tag k="cycleway:left" v="no"/>
    <tag k="cycleway:right" v="separate"/>
    <tag k="enforcement:operator" v="Police nationale"/>
    <tag k="highway" v="primary"/>
    <tag k="junction" v="circular"/>
    <tag k="lanes" v="4"/>
    <tag k="lit" v="yes"/>
    <tag k="maxspeed" v="30"/>
    <tag k="name" v="Rond-point des Champs-Élysées-Marcel-Dassault"/>
    <tag k="note" v="not a roundabout; pas un giratoire"/>
    <tag k="oneway" v="yes"/>
    <tag k="operator" v="Ville de Paris"/>
    <tag k="operator:authority" v="Maire de Paris dans le respect des prescriptions prises par le préfet de police"/>
    <tag k="operator:authority:related_law" v="III de l'article L. 2512-14 du code général des collectivités territoriales"/>
    <tag k="parking:both" v="no"/>
    <tag k="parking:both:restriction" v="no_parking"/>
    <tag k="sidewalk" v="separate"/>
    <tag k="source:maxspeed" v="FR:urban"/>
    <tag k="source:operator:authority" v="https://www.legifrance.gouv.fr/loda/id/LEGIARTI000035244298/#LEGIARTI000035244298"/>
    <tag k="surface" v="sett"/>
    <tag k="zone:traffic" v="FR:urban"/>
  </way>
  <way id="522266410" version="35" timestamp="2025-05-06T14:33:32Z" changeset="165895433" uid="195017" user="Julien39">
    <nd ref="368319"/>
    <nd ref="1962530972"/>
    <nd ref="272337436"/>
    <nd ref="1962530975"/>
    <nd ref="368318"/>
    <tag k="enforcement:operator" v="Police nationale"/>
    <tag k="highway" v="primary"/>
    <tag k="junction" v="circular"/>
    <tag k="lanes" v="12"/>
    <tag k="lit" v="yes"/>
    <tag k="maxspeed" v="30"/>
    <tag k="name" v="Place Charles de Gaulle"/>
    <tag k="name:etymology:wikidata" v="Q2042"/>
    <tag k="name:ru" v="Площадь Шарль де Голл"/>
    <tag k="name:vi" v="Quảng trường Charles de Gaulle"/>
    <tag k="name:wa" v="Plèce Charles di Gaulle"/>
    <tag k="note" v="this is not a roundabout; ceci n'est pas un carrefour giratoire"/>
    <tag k="old_name" v="Place de l'Étoile"/>
    <tag k="old_name:vi" v="Quảng trường Étoile"/>
    <tag k="oneway" v="yes"/>
    <tag k="operator" v="Ville de Paris"/>
    <tag k="operator:authority" v="Maire de Paris dans le respect des prescriptions prises par le préfet de police"/>
    <tag k="operator:authority:related_law" v="III de l'article L. 2512-14 du code général des collectivités territoriales"/>
    <tag k="parking:both" v="no"/>
    <tag k="parking:both:restriction" v="no_parking"/>
    <tag k="sidewalk:left" v="yes"/>
    <tag k="sidewalk:right" v="separate"/>
    <tag k="smoothness" v="intermediate"/>
    <tag k="source:operator:authority" v="https://www.legifrance.gouv.fr/loda/id/LEGIARTI000035244298/#LEGIARTI000035244298"/>
    <tag k="surface" v="sett"/>
    <tag k="zone:traffic" v="FR:urban"/>
  </way>
  <way id="538989328" version="3" timestamp="2024-04-29T18:03:21Z" changeset="150675723" uid="3834000" user="cartoleo">
    <nd ref="5216212187"/>
    <nd ref="5216212186"/>
    <nd ref="5216212184"/>
    <nd ref="5216212185"/>
    <nd ref="5216212187"/>
    <tag k="building" v="yes"/>
    <tag k="building:colour" v="#47544A"/>
    <tag k="building:part" v="yes"/>
    <tag k="check_date" v="2024-04-29"/>
    <tag k="height" v="3"/>
    <tag k="name" v="Kiosque"/>
    <tag k="roof:colour" v="#47544A"/>
    <tag k="roof:shape" v="flat"/>
    <tag k="shop" v="newsagent"/>
    <tag k="source" v="survey; bing"/>
    <tag k="wheelchair" v="yes"/>
  </way>
  <way id="553772532" version="12" timestamp="2024-02-11T17:12:29Z" changeset="147336052" uid="6290466" user="benjamintchik">
    <nd ref="32560682"/>
    <nd ref="2698157934"/>
    <nd ref="32561132"/>
    <tag k="bicycle:lanes:backward" v="yes|designated"/>
    <tag k="bicycle:lanes:forward" v="yes|yes|designated"/>
    <tag k="busway" v="lane"/>
    <tag k="cycleway" v="share_busway"/>
    <tag k="highway" v="primary"/>
    <tag k="lanes" v="5"/>
    <tag k="lanes:backward" v="2"/>
    <tag k="lanes:forward" v="3"/>
    <tag k="lit" v="yes"/>
    <tag k="maxspeed" v="30"/>
    <tag k="name" v="Boulevard Haussmann"/>
    <tag k="name:etymology:wikidata" v="Q191798"/>
    <tag k="psv:lanes:backward" v="yes|designated"/>
    <tag k="psv:lanes:forward" v="yes|yes|designated"/>
    <tag k="sidewalk" v="both"/>
    <tag k="surface" v="sett"/>
  </way>
  <way id="556784599" version="10" timestamp="2025-02-28T15:06:21Z" changeset="163056560" uid="2678738" user="fgouget">
    <nd ref="25934315"/>
    <nd ref="810236675"/>
    <nd ref="2419011899"/>
    <nd ref="9436952745"/>
    <nd ref="25934318"/>
    <nd ref="25934313"/>
    <tag k="enforcement:operator" v="Police nationale"/>
    <tag k="highway" v="residential"/>
    <tag k="lanes" v="1"/>
    <tag k="lit" v="yes"/>
    <tag k="maxspeed" v="30"/>
    <tag k="name" v="Rond-Point des Champs-Élysées - Marcel Dassault"/>
    <tag k="oneway" v="yes"/>
    <tag k="operator" v="Ville de Paris"/>
    <tag k="operator:authority" v="Maire de Paris dans le respect des prescriptions prises par le préfet de police"/>
    <tag k="operator:authority:related_law" v="III de l'article L. 2512-14 du code général des collectivités territoriales"/>
    <tag k="sidewalk:both" v="separate"/>
    <tag k="source:operator:authority" v="https://www.legifrance.gouv.fr/loda/id/LEGIARTI000035244298/#LEGIARTI000035244298"/>
    <tag k="surface" v="asphalt"/>
    <tag k="zone:traffic" v="FR:urban"/>
  </way>
  <way id="565522607" version="11" timestamp="2024-12-04T02:33:06Z" changeset="159902356" uid="2678738" user="fgouget">
    <nd ref="25934313"/>
    <nd ref="830668014"/>
    <nd ref="810252514"/>
    <tag k="cycleway:left" v="opposite_track"/>
    <tag k="highway" v="tertiary"/>
    <tag k="lanes" v="2"/>
    <tag k="lit" v="yes"/>
    <tag k="maxspeed" v="30"/>
    <tag k="name" v="Avenue Franklin Delano Roosevelt"/>
    <tag k="name:etymology:wikidata" v="Q8007"/>
    <tag k="old_name" v="Avenue Victor-Emmanuel III"/>
    <tag k="oneway" v="yes"/>
    <tag k="oneway:bicycle" v="no"/>
    <tag k="sidewalk:left" v="separate"/>
    <tag k="sidewalk:right" v="no"/>
    <tag k="surface" v="sett"/>
    <tag k="turn:lanes" v="left|through"/>
  </way>
  <way id="566475371" version="17" timestamp="2024-04-01T11:14:53Z" changeset="149427719" uid="2678738" user="fgouget">
    <nd ref="32560653"/>
    <nd ref="3172353225"/>
    <nd ref="6172885192"/>
    <nd ref="830668051"/>
    <nd ref="5996498044"/>
    <nd ref="368338"/>
    <tag k="highway" v="residential"/>
    <tag k="lanes" v="2"/>
    <tag k="lit" v="yes"/>
    <tag k="maxspeed" v="30"/>
    <tag k="name" v="Rue Balzac"/>
    <tag k="name:etymology:wikidata" v="Q9711"/>
    <tag k="oneway" v="yes"/>
    <tag k="sidewalk:both" v="separate"/>
    <tag k="surface" v="sett"/>
    <tag k="turn:lanes" v="left|right"/>
  </way>
  <way id="566475381" version="9" timestamp="2024-12-03T23:10:17Z" changeset="159899829" uid="2678738" user="fgouget">
    <nd ref="661220"/>
    <nd ref="6788929236"/>
    <nd ref="3670345642"/>
    <nd ref="838123131"/>
    <nd ref="4927356928"/>
    <tag k="highway" v="tertiary"/>
    <tag k="maxspeed" v="30"/>
    <tag k="name" v="Avenue Hoche"/>
    <tag k="name:etymology:wikidata" v="Q367042"/>
    <tag k="surface" v="asphalt"/>
  </way>
  <way id="626668696" version="21" timestamp="2025-04-26T15:02:26Z" changeset="165469750" uid="53964" user="_Mathieu_">
    <nd ref="34843118"/>
    <nd ref="9966559374"/>
    <nd ref="9966559373"/>
    <nd ref="9966559376"/>
    <nd ref="9966559378"/>
    <nd ref="1534568286"/>
    <nd ref="9966559379"/>
    <nd ref="6170935125"/>
    <nd ref="368338"/>
    <nd ref="5455382505"/>
    <nd ref="9966559384"/>
    <nd ref="1534568256"/>
    <nd ref="6172903538"/>
    <nd ref="260928393"/>
    <tag k="enforcement:operator" v="Police nationale"/>
    <tag k="highway" v="primary"/>
    <tag k="lanes" v="7"/>
    <tag k="lanes:backward" v="4"/>
    <tag k="lanes:forward" v="3"/>
    <tag k="lit" v="yes"/>
    <tag k="maxspeed" v="50"/>
    <tag k="motor_vehicle:conditional" v="no @ (Jan-Mar,Oct-Dec Su[1] 10:00-17:00; Apr-Sep Su[1] 11:00-18:00)"/>
    <tag k="name" v="Avenue des Champs-Élysées"/>
    <tag k="name:es" v="Campos Elíseos"/>
    <tag k="name:etymology:wikidata" v="Q157128"/>
    <tag k="name:fa" v="خیابان شانزلیزه"/>
    <tag k="name:ko" v="샹젤리제 거리"/>
    <tag k="name:pl" v="Pola Elizejskie"/>
    <tag k="name:pt" v="Avenida dos Campos Elísios"/>
    <tag k="name:vi" v="Đại lộ Champs-Élysées"/>
    <tag k="old_name" v="Grand Cours"/>
    <tag k="operator" v="Ville de Paris"/>
    <tag k="operator:authority" v="Maire de Paris dans le respect des prescriptions prises par le préfet de police"/>
    <tag k="operator:authority:related_law" v="III de l'article L. 2512-14 du code général des collectivités territoriales"/>
    <tag k="parking:both" v="no"/>
    <tag k="parking:both:restriction" v="no_parking"/>
    <tag k="sidewalk:both" v="separate"/>
    <tag k="source:operator:authority" v="https://www.legifrance.gouv.fr/loda/id/LEGIARTI000035244298/#LEGIARTI000035244298"/>
    <tag k="surface" v="sett"/>
    <tag k="zone:traffic" v="FR:urban"/>
  </way>
  <way id="642727550" version="8" timestamp="2024-05-02T09:18:48Z" changeset="150783389" uid="2678738" user="fgouget">
    <nd ref="6200688912"/>
    <nd ref="5996498049"/>
    <tag k="highway" v="residential"/>
    <tag k="lit" v="yes"/>
    <tag k="maxspeed" v="30"/>
    <tag k="name" v="Rue de Berri"/>
    <tag k="name:etymology:wikidata" v="Q7758"/>
    <tag k="oneway" v="yes"/>
    <tag k="oneway:bicycle" v="no"/>
    <tag k="surface" v="sett"/>
  </way>
  <way id="642727556" version="8" timestamp="2024-09-25T11:05:28Z" changeset="157076440" uid="2678738" user="fgouget">
    <nd ref="21660107"/>
    <nd ref="5996498046"/>
    <tag k="highway" v="residential"/>
    <tag k="lit" v="yes"/>
    <tag k="maxspeed" v="30"/>
    <tag k="name" v="Rue Washington"/>
    <tag k="name:etymology:wikidata" v="Q23"/>
    <tag k="oneway" v="yes"/>
    <tag k="oneway:bicycle" v="no"/>
    <tag k="postal_code" v="75008"/>
    <tag k="source" v="survey"/>
    <tag k="surface" v="sett"/>
  </way>
  <way id="642898830" version="18" timestamp="2024-08-24T18:28:11Z" changeset="155710029" uid="21692918" user="Amir Ali Asghari 1">
    <nd ref="1534568367"/>
    <nd ref="9966559362"/>
    <nd ref="2880104581"/>
    <nd ref="9966559363"/>
    <nd ref="1534568331"/>
    <nd ref="10750309673"/>
    <nd ref="6736481995"/>
    <tag k="enforcement:operator" v="Police nationale"/>
    <tag k="highway" v="primary"/>
    <tag k="lanes" v="8"/>
    <tag k="lit" v="yes"/>
    <tag k="maxspeed" v="50"/>
    <tag k="name" v="Avenue des Champs-Élysées"/>
    <tag k="name:es" v="Campos Elíseos"/>
    <tag k="name:etymology:wikidata" v="Q157128"/>
    <tag k="name:fa" v="خیابان شانزلیزه"/>
    <tag k="name:pl" v="Pola Elizejskie"/>
    <tag k="name:pt" v="Avenida dos Campos Elísios"/>
    <tag k="name:vi" v="Đại lộ Champs-Élysées"/>
    <tag k="old_name" v="Grand Cours"/>
    <tag k="operator" v="Ville de Paris"/>
    <tag k="operator:authority" v="Maire de Paris dans le respect des prescriptions prises par le préfet de police"/>
    <tag k="operator:authority:related_law" v="III de l'article L. 2512-14 du code général des collectivités territoriales"/>
    <tag k="parking:lane:both" v="no_parking"/>
    <tag k="sidewalk:both" v="separate"/>
    <tag k="smoothness" v="intermediate"/>
    <tag k="source:operator:authority" v="https://www.legifrance.gouv.fr/loda/id/LEGIARTI000035244298/#LEGIARTI000035244298"/>
    <tag k="surface" v="sett"/>
    <tag k="zone:traffic" v="FR:urban"/>
  </way>
  <way id="642901742" version="19" timestamp="2025-04-26T15:02:26Z" changeset="165469750" uid="53964" user="_Mathieu_">
    <nd ref="6736481995"/>
    <nd ref="1534568309"/>
    <nd ref="9966559368"/>
    <nd ref="9966559375"/>
    <nd ref="34843118"/>
    <tag k="enforcement:operator" v="Police nationale"/>
    <tag k="highway" v="primary"/>
    <tag k="lanes" v="7"/>
    <tag k="lanes:backward" v="4"/>
    <tag k="lanes:forward" v="3"/>
    <tag k="lit" v="yes"/>
    <tag k="maxspeed" v="50"/>
    <tag k="motor_vehicle:conditional" v="no @ (Jan-Mar,Oct-Dec Su[1] 10:00-17:00; Apr-Sep Su[1] 11:00-18:00)"/>
    <tag k="name" v="Avenue des Champs-Élysées"/>
    <tag k="name:es" v="Campos Elíseos"/>
    <tag k="name:etymology:wikidata" v="Q157128"/>
    <tag k="name:fa" v="خیابان شانزلیزه"/>
    <tag k="name:kr" v="샹젤리제 거리"/>
    <tag k="name:pl" v="Pola Elizejskie"/>
    <tag k="name:pt" v="Avenida dos Campos Elísios"/>
    <tag k="name:vi" v="Đại lộ Champs-Élysées"/>
    <tag k="old_name" v="Grand Cours"/>
    <tag k="operator" v="Ville de Paris"/>
    <tag k="operator:authority" v="Maire de Paris dans le respect des prescriptions prises par le préfet de police"/>
    <tag k="operator:authority:related_law" v="III de l'article L. 2512-14 du code général des collectivités territoriales"/>
    <tag k="parking:both" v="no"/>
    <tag k="parking:both:restriction" v="no_parking"/>
    <tag k="sidewalk:both" v="separate"/>
    <tag k="source:operator:authority" v="https://www.legifrance.gouv.fr/loda/id/LEGIARTI000035244298/#LEGIARTI000035244298"/>
    <tag k="surface" v="sett"/>
    <tag k="zone:traffic" v="FR:urban"/>
  </way>
  <way id="642915295" version="16" timestamp="2024-09-25T11:02:39Z" changeset="157072862" uid="2678738" user="fgouget">
    <nd ref="270187712"/>
    <nd ref="9966672188"/>
    <nd ref="9966672185"/>
    <nd ref="9966672186"/>
    <nd ref="1534591766"/>
    <nd ref="6804926127"/>
    <nd ref="25626383"/>
    <tag k="enforcement:operator" v="Police nationale"/>
    <tag k="highway" v="primary"/>
    <tag k="lanes" v="4"/>
    <tag k="lit" v="yes"/>
    <tag k="maxspeed" v="50"/>
    <tag k="name" v="Avenue des Champs-Élysées"/>
    <tag k="name:es" v="Campos Elíseos"/>
    <tag k="name:fa" v="خیابان شانزلیزه"/>
    <tag k="name:ko" v="샹젤리제 거리"/>
    <tag k="name:pl" v="Pola Elizejskie"/>
    <tag k="name:pt" v="Avenida dos Campos Elísios"/>
    <tag k="name:vi" v="Đại lộ Champs-Élysées"/>
    <tag k="old_name" v="Grand Cours"/>
    <tag k="operator" v="Ville de Paris"/>
    <tag k="operator:authority" v="Maire de Paris dans le respect des prescriptions prises par le préfet de police"/>
    <tag k="operator:authority:related_law" v="III de l'article L. 2512-14 du code général des collectivités territoriales"/>
    <tag k="parking:lane:both" v="no_parking"/>
    <tag k="sidewalk:both" v="separate"/>
    <tag k="smoothness" v="intermediate"/>
    <tag k="source:operator:authority" v="https://www.legifrance.gouv.fr/loda/id/LEGIARTI000035244298/#LEGIARTI000035244298"/>
    <tag k="surface" v="sett"/>
    <tag k="zone:traffic" v="FR:urban"/>
  </way>
  <way id="648763388" version="12" timestamp="2024-11-14T13:25:24Z" changeset="159130262" uid="2678738" user="fgouget">
    <nd ref="838123109"/>
    <nd ref="9092818002"/>
    <nd ref="3670345641"/>
    <nd ref="6788917774"/>
    <nd ref="6370024887"/>
    <nd ref="661220"/>
    <tag k="highway" v="tertiary"/>
    <tag k="lanes" v="4"/>
    <tag k="lanes:backward" v="2"/>
    <tag k="lanes:forward" v="2"/>
    <tag k="lit" v="yes"/>
    <tag k="maxspeed" v="30"/>
    <tag k="name" v="Avenue Hoche"/>
    <tag k="name:etymology:wikidata" v="Q2857109"/>
    <tag k="sidewalk:both" v="separate"/>
    <tag k="smoothness" v="intermediate"/>
    <tag k="surface" v="paving_stones"/>
  </way>
  <way id="672711447" version="7" timestamp="2024-12-04T02:35:20Z" changeset="159902356" uid="2678738" user="fgouget">
    <nd ref="270187712"/>
    <nd ref="5996498060"/>
    <tag k="enforcement:operator" v="Police nationale"/>
    <tag k="highway" v="residential"/>
    <tag k="lanes" v="1"/>
    <tag k="lit" v="yes"/>
    <tag k="maxspeed" v="30"/>
    <tag k="name" v="Rond-Point des Champs-Élysées - Marcel Dassault"/>
    <tag k="oneway" v="yes"/>
    <tag k="oneway:bicycle" v="no"/>
    <tag k="operator" v="Ville de Paris"/>
    <tag k="operator:authority" v="Maire de Paris dans le respect des prescriptions prises par le préfet de police"/>
    <tag k="operator:authority:related_law" v="III de l'article L. 2512-14 du code général des collectivités territoriales"/>
    <tag k="sidewalk:left" v="separate"/>
    <tag k="smoothness" v="excellent"/>
    <tag k="source:operator:authority" v="https://www.legifrance.gouv.fr/loda/id/LEGIARTI000035244298/#LEGIARTI000035244298"/>
    <tag k="surface" v="asphalt"/>
    <tag k="zone:traffic" v="FR:urban"/>
  </way>
  <way id="672711448" version="6" timestamp="2024-10-14T10:05:00Z" changeset="157868852" uid="53964" user="_Mathieu_">
    <nd ref="25626269"/>
    <nd ref="5996498056"/>
    <tag k="cycleway:both" v="no"/>
    <tag k="highway" v="unclassified"/>
    <tag k="lane_markings" v="no"/>
    <tag k="lit" v="yes"/>
    <tag k="maxspeed" v="30"/>
    <tag k="name" v="Rue du Colisée"/>
    <tag k="name:etymology:wikidata" v="Q2982683"/>
    <tag k="oneway" v="yes"/>
    <tag k="oneway:bicycle" v="no"/>
    <tag k="surface" v="asphalt"/>
  </way>
  <way id="680338499" version="12" timestamp="2025-02-07T21:40:53Z" changeset="162261897" uid="5589" user="user_5589">
    <nd ref="6370094875"/>
    <nd ref="5220407042"/>
    <nd ref="6370094878"/>
    <nd ref="6370094877"/>
    <nd ref="5220407045"/>
    <nd ref="5220407043"/>
    <nd ref="6370094874"/>
    <nd ref="6370094875"/>
    <tag k="addr:city" v="Paris"/>
    <tag k="addr:postcode" v="75016;75017"/>
    <tag k="addr:street" v="Place Charles de Gaulle"/>
    <tag k="building" v="transportation"/>
    <tag k="building:levels:underground" v="2"/>
    <tag k="layer" v="-2"/>
    <tag k="level" v="-2"/>
    <tag k="location" v="underground"/>
    <tag k="name" v="Charles de Gaulle — Étoile (Métro 6)"/>
    <tag k="network" v="Métro de Paris;RATP"/>
    <tag k="operator" v="RATP"/>
    <tag k="public_transport" v="station"/>
    <tag k="railway" v="station"/>
    <tag k="start_date" v="1900-10-02"/>
    <tag k="station" v="subway"/>
    <tag k="subway" v="yes"/>
    <tag k="tunnel" v="yes"/>
    <tag k="wheelchair" v="no"/>
  </way>
  <way id="715177008" version="4" timestamp="2024-09-06T21:44:56Z" changeset="156293422" uid="5589" user="user_5589">
    <nd ref="6721871293"/>
    <nd ref="6721871301"/>
    <nd ref="6721871300"/>
    <nd ref="6721871299"/>
    <nd ref="6721871298"/>
    <nd ref="6721871297"/>
    <nd ref="6721871296"/>
    <nd ref="6721871295"/>
    <nd ref="6721871294"/>
    <nd ref="6721871293"/>
    <tag k="building" v="industrial"/>
    <tag k="description" v="Poste électrique important sous la place"/>
    <tag k="layer" v="-2"/>
    <tag k="location" v="underground"/>
    <tag k="name" v="Poste source de Courcelles"/>
    <tag k="operator" v="Enedis"/>
    <tag k="operator:wikidata" v="Q3587594"/>
    <tag k="power" v="substation"/>
    <tag k="ref:FR:RTE" v="CZCEL"/>
    <tag k="ref:FR:RTE_nom" v="COURCELLES"/>
    <tag k="substation" v="distribution"/>
    <tag k="utility" v="power"/>
    <tag k="voltage" v="225000"/>
  </way>
  <way id="729730636" version="8" timestamp="2025-02-05T17:37:41Z" changeset="162175307" uid="485808" user="Alexey Lukin">
    <nd ref="32560724"/>
    <nd ref="6251949431"/>
    <nd ref="6042220162"/>
    <nd ref="810252758"/>
    <nd ref="32561341"/>
    <nd ref="6042219313"/>
    <nd ref="6251935207"/>
    <nd ref="9851801148"/>
    <nd ref="2698157923"/>
    <nd ref="32561070"/>
    <tag k="highway" v="unclassified"/>
    <tag k="lane_markings" v="no"/>
    <tag k="lit" v="yes"/>
    <tag k="maxspeed" v="30"/>
    <tag k="name" v="Rue du Colisée"/>
    <tag k="name:etymology:wikidata" v="Q2982683"/>
    <tag k="oneway" v="yes"/>
    <tag k="sidewalk" v="separate"/>
    <tag k="surface" v="asphalt"/>
  </way>
  <way id="729730637" version="10" timestamp="2024-10-09T06:29:10Z" changeset="157656538" uid="53964" user="_Mathieu_">
    <nd ref="32560723"/>
    <nd ref="6251993815"/>
    <nd ref="829051728"/>
    <nd ref="6252008045"/>
    <nd ref="32560722"/>
    <nd ref="11012446390"/>
    <nd ref="829051484"/>
    <nd ref="301572648"/>
    <nd ref="301572569"/>
    <nd ref="301572465"/>
    <nd ref="6252025165"/>
    <nd ref="32560679"/>
    <tag k="cycleway:both" v="no"/>
    <tag k="highway" v="residential"/>
    <tag k="maxspeed" v="30"/>
    <tag k="name" v="Rue de Ponthieu"/>
    <tag k="name:etymology:wikidata" v="Q60930"/>
    <tag k="oneway" v="yes"/>
    <tag k="parking:left" v="no"/>
    <tag k="parking:right" v="street_side"/>
    <tag k="parking:right:orientation" v="parallel"/>
    <tag k="sidewalk" v="separate"/>
  </way>
  <way id="747817945" version="10" timestamp="2025-02-28T09:58:27Z" changeset="163044382" uid="2678738" user="fgouget">
    <nd ref="21660341"/>
    <nd ref="8143391112"/>
    <nd ref="1986454076"/>
    <nd ref="6829512110"/>
    <nd ref="32560608"/>
    <nd ref="6829512112"/>
    <nd ref="3172353224"/>
    <nd ref="32560653"/>
    <tag k="highway" v="residential"/>
    <tag k="lanes" v="2"/>
    <tag k="lit" v="yes"/>
    <tag k="maxspeed" v="30"/>
    <tag k="name" v="Rue Balzac"/>
    <tag k="name:etymology:wikidata" v="Q9711"/>
    <tag k="oneway" v="yes"/>
    <tag k="sidewalk:both" v="separate"/>
    <tag k="surface" v="sett"/>
  </way>
  <way id="747817949" version="8" timestamp="2024-08-08T13:55:23Z" changeset="154980893" uid="7512839" user="Benoît C MdP">
    <nd ref="32560668"/>
    <nd ref="6900185525"/>
    <nd ref="12098894110"/>
    <nd ref="271081455"/>
    <tag k="cycleway:both" v="no"/>
    <tag k="highway" v="residential"/>
    <tag k="lit" v="yes"/>
    <tag k="maxspeed" v="30"/>
    <tag k="name" v="Rue Washington"/>
    <tag k="name:etymology:wikidata" v="Q23"/>
    <tag k="oneway" v="yes"/>
    <tag k="sidewalk:left" v="yes"/>
    <tag k="sidewalk:right" v="separate"/>
    <tag k="source" v="survey"/>
    <tag k="surface" v="sett"/>
  </way>
  <way id="747817950" version="7" timestamp="2025-02-28T12:02:43Z" changeset="163049247" uid="2678738" user="fgouget">
    <nd ref="828134609"/>
    <nd ref="32560668"/>
    <tag k="cycleway:right" v="no"/>
    <tag k="highway" v="residential"/>
    <tag k="lit" v="yes"/>
    <tag k="maxspeed" v="30"/>
    <tag k="name" v="Rue Washington"/>
    <tag k="name:etymology:wikidata" v="Q23"/>
    <tag k="oneway" v="no"/>
    <tag k="sidewalk:both" v="separate"/>
    <tag k="source" v="survey"/>
    <tag k="surface" v="sett"/>
  </way>
  <way id="757095733" version="3" timestamp="2025-02-11T23:58:06Z" changeset="162410833" uid="7550430" user="Britzz">
    <nd ref="7070741737"/>
    <nd ref="7070741738"/>
    <nd ref="12580468496"/>
    <nd ref="7071524729"/>
    <nd ref="4301318348"/>
    <nd ref="4301318353"/>
    <nd ref="4301318350"/>
    <nd ref="4301318345"/>
    <nd ref="7070741737"/>
    <tag k="building" v="yes"/>
    <tag k="leisure" v="sports_centre"/>
    <tag k="name" v="Centre sportif Jacqueline Auriol"/>
    <tag k="source" v="BDOrtho"/>
    <tag k="sport" v="climbing;multi;fitness"/>
    <tag k="website" v="https://www.paris.fr/equipements/centre-sportif-jacqueline-auriol-ex-beaujon-17906"/>
  </way>
  <way id="773727625" version="13" timestamp="2025-01-20T22:43:03Z" changeset="161580858" uid="2678738" user="fgouget">
    <nd ref="6892173207"/>
    <nd ref="6892173220"/>
    <nd ref="6892173205"/>
    <nd ref="12519339806"/>
    <nd ref="12202141266"/>
    <nd ref="6892173219"/>
    <nd ref="6892173218"/>
    <nd ref="981730959"/>
    <tag k="cycleway:both" v="no"/>
    <tag k="foot" v="yes"/>
    <tag k="highway" v="tertiary"/>
    <tag k="junction" v="circular"/>
    <tag k="lane_markings" v="no"/>
    <tag k="lit" v="yes"/>
    <tag k="maxspeed" v="30"/>
    <tag k="name" v="Place du Général Brocard"/>
    <tag k="name:etymology:wikidata" v="Q2857109"/>
    <tag k="oneway" v="yes"/>
    <tag k="sidewalk" v="no"/>
    <tag k="smoothness" v="intermediate"/>
    <tag k="source" v="cadastre-dgi-fr source : Direction Générale des Impôts - Cadastre. Mise à jour : 2010"/>
    <tag k="surface" v="sett"/>
  </way>
  <way id="813587017" version="11" timestamp="2024-08-24T18:28:11Z" changeset="155710029" uid="21692918" user="Amir Ali Asghari 1">
    <nd ref="368322"/>
    <nd ref="9966559361"/>
    <nd ref="1534568367"/>
    <tag k="enforcement:operator" v="Police nationale"/>
    <tag k="highway" v="primary"/>
    <tag k="lanes" v="8"/>
    <tag k="lit" v="yes"/>
    <tag k="maxspeed" v="50"/>
    <tag k="name" v="Avenue des Champs-Élysées"/>
    <tag k="name:es" v="Campos Elíseos"/>
    <tag k="name:etymology:wikidata" v="Q157128"/>
    <tag k="name:fa" v="خیابان شانزلیزه"/>
    <tag k="name:pl" v="Pola Elizejskie"/>
    <tag k="name:pt" v="Avenida dos Campos Elísios"/>
    <tag k="name:vi" v="Đại lộ Champs-Élysées"/>
    <tag k="old_name" v="Grand Cours"/>
    <tag k="operator" v="Ville de Paris"/>
    <tag k="operator:authority" v="Maire de Paris dans le respect des prescriptions prises par le préfet de police"/>
    <tag k="operator:authority:related_law" v="III de l'article L. 2512-14 du code général des collectivités territoriales"/>
    <tag k="parking:lane:both" v="no_parking"/>
    <tag k="sidewalk:both" v="separate"/>
    <tag k="source:operator:authority" v="https://www.legifrance.gouv.fr/loda/id/LEGIARTI000035244298/#LEGIARTI000035244298"/>
    <tag k="surface" v="sett"/>
    <tag k="zone:traffic" v="FR:urban"/>
  </way>
  <way id="818002039" version="8" timestamp="2024-12-04T02:41:18Z" changeset="159902356" uid="2678738" user="fgouget">
    <nd ref="7639791827"/>
    <nd ref="270678185"/>
    <tag k="cycleway:right" v="separate"/>
    <tag k="dual_carriageway" v="yes"/>
    <tag k="highway" v="primary"/>
    <tag k="lanes" v="5"/>
    <tag k="lit" v="yes"/>
    <tag k="maxspeed" v="30"/>
    <tag k="name" v="Boulevard Haussmann"/>
    <tag k="name:etymology:wikidata" v="Q191798"/>
    <tag k="oneway" v="yes"/>
    <tag k="sidewalk:left" v="no"/>
    <tag k="sidewalk:right" v="separate"/>
    <tag k="source:maxspeed" v="FR:urban"/>
    <tag k="surface" v="sett"/>
  </way>
  <way id="933813492" version="6" timestamp="2024-08-24T19:25:41Z" changeset="155709581" uid="5589" user="user_5589">
    <nd ref="21660667"/>
    <nd ref="4943067531"/>
    <nd ref="2698142575"/>
    <nd ref="21660340"/>
    <tag k="cycleway" v="no"/>
    <tag k="highway" v="tertiary"/>
    <tag k="lane_markings" v="no"/>
    <tag k="lit" v="yes"/>
    <tag k="maxspeed" v="30"/>
    <tag k="name" v="Rue du Faubourg Saint-Honoré"/>
    <tag k="name:etymology:wikidata" v="Q3067310"/>
    <tag k="sidewalk:both" v="separate"/>
    <tag k="surface" v="sett"/>
  </way>
  <way id="1087767628" version="12" timestamp="2025-04-26T15:02:26Z" changeset="165469750" uid="53964" user="_Mathieu_">
    <nd ref="5937839269"/>
    <nd ref="1534591802"/>
    <nd ref="9966563542"/>
    <nd ref="9966563541"/>
    <nd ref="6152410941"/>
    <nd ref="2883697224"/>
    <nd ref="314918326"/>
    <nd ref="9966672183"/>
    <nd ref="9966672187"/>
    <nd ref="1534591782"/>
    <nd ref="270187712"/>
    <tag k="cycleway:both" v="separate"/>
    <tag k="enforcement:operator" v="Police nationale"/>
    <tag k="highway" v="primary"/>
    <tag k="lanes" v="8"/>
    <tag k="lit" v="yes"/>
    <tag k="maxspeed" v="50"/>
    <tag k="motor_vehicle:conditional" v="no @ (Jan-Mar,Oct-Dec Su[1] 10:00-17:00; Apr-Sep Su[1] 11:00-18:00)"/>
    <tag k="name" v="Avenue des Champs-Élysées"/>
    <tag k="name:es" v="Campos Elíseos"/>
    <tag k="name:fa" v="خیابان شانزلیزه"/>
    <tag k="name:ko" v="샹젤리제 거리"/>
    <tag k="name:pl" v="Pola Elizejskie"/>
    <tag k="name:pt" v="Avenida dos Campos Elísios"/>
    <tag k="name:vi" v="Đại lộ Champs-Élysées"/>
    <tag k="old_name" v="Grand Cours"/>
    <tag k="operator" v="Ville de Paris"/>
    <tag k="operator:authority" v="Maire de Paris dans le respect des prescriptions prises par le préfet de police"/>
    <tag k="operator:authority:related_law" v="III de l'article L. 2512-14 du code général des collectivités territoriales"/>
    <tag k="parking:both" v="no"/>
    <tag k="parking:both:restriction" v="no_parking"/>
    <tag k="sidewalk:both" v="separate"/>
    <tag k="source:operator:authority" v="https://www.legifrance.gouv.fr/loda/id/LEGIARTI000035244298/#LEGIARTI000035244298"/>
    <tag k="surface" v="sett"/>
    <tag k="zone:traffic" v="FR:urban"/>
  </way>
  <way id="1093768628" version="6" timestamp="2025-01-20T22:43:03Z" changeset="161580858" uid="2678738" user="fgouget">
    <nd ref="981730952"/>
    <nd ref="6892173209"/>
    <nd ref="6892173206"/>
    <nd ref="6892173208"/>
    <nd ref="6892173223"/>
    <nd ref="12202141268"/>
    <nd ref="6892173207"/>
    <tag k="cycleway:both" v="no"/>
    <tag k="foot" v="yes"/>
    <tag k="highway" v="tertiary"/>
    <tag k="junction" v="circular"/>
    <tag k="lane_markings" v="no"/>
    <tag k="lit" v="yes"/>
    <tag k="maxspeed" v="30"/>
    <tag k="name" v="Place du Général Brocard"/>
    <tag k="name:etymology:wikidata" v="Q2857109"/>
    <tag k="oneway" v="yes"/>
    <tag k="sidewalk" v="no"/>
    <tag k="smoothness" v="intermediate"/>
    <tag k="source" v="cadastre-dgi-fr source : Direction Générale des Impôts - Cadastre. Mise à jour : 2010"/>
    <tag k="surface" v="sett"/>
  </way>
  <way id="1161617328" version="2" timestamp="2024-02-11T17:20:48Z" changeset="147336052" uid="6290466" user="benjamintchik">
    <nd ref="32560725"/>
    <nd ref="810252719"/>
    <tag k="cycleway:left" v="opposite"/>
    <tag k="highway" v="residential"/>
    <tag k="maxspeed" v="30"/>
    <tag k="name" v="Rue de Ponthieu"/>
    <tag k="name:etymology:wikidata" v="Q60930"/>
    <tag k="oneway" v="yes"/>
    <tag k="oneway:bicycle" v="no"/>
  </way>
  <way id="1184856362" version="6" timestamp="2024-10-25T12:57:23Z" changeset="158336506" uid="53964" user="_Mathieu_">
    <nd ref="27235305"/>
    <nd ref="826835718"/>
    <tag k="cycleway:both" v="no"/>
    <tag k="highway" v="residential"/>
    <tag k="lit" v="yes"/>
    <tag k="maxspeed" v="30"/>
    <tag k="maxspeed:type" v="sign"/>
    <tag k="name" v="Place Gérard Oury"/>
    <tag k="name:etymology:wikidata" v="Q470798"/>
    <tag k="oneway" v="yes"/>
    <tag k="oneway:bicycle" v="no"/>
    <tag k="sidewalk:both" v="separate"/>
    <tag k="smoothness" v="good"/>
    <tag k="surface" v="asphalt"/>
  </way>
  <way id="1293355149" version="1" timestamp="2024-06-18T06:51:26Z" changeset="152832397" uid="6654756" user="simon_geovelo">
    <nd ref="6370024889"/>
    <nd ref="661221"/>
    <tag k="highway" v="primary"/>
    <tag k="lanes" v="4"/>
    <tag k="lanes:backward" v="2"/>
    <tag k="lanes:forward" v="2"/>
    <tag k="lit" v="yes"/>
    <tag k="maxspeed" v="30"/>
    <tag k="name" v="Avenue de Friedland"/>
    <tag k="name:etymology:wikidata" v="Q241108"/>
    <tag k="sidewalk" v="both"/>
    <tag k="surface" v="paving_stones"/>
  </way>
  <way id="1296016893" version="6" timestamp="2025-01-31T16:43:20Z" changeset="161984128" uid="3085" user="mat">
    <nd ref="12009276962"/>
    <nd ref="12532433228"/>
    <nd ref="2698142513"/>
    <nd ref="12532433218"/>
    <nd ref="12532433232"/>
    <tag k="busway:right" v="lane"/>
    <tag k="cycleway:right" v="separate"/>
    <tag k="dual_carriageway" v="yes"/>
    <tag k="highway" v="primary"/>
    <tag k="lanes" v="2"/>
    <tag k="lit" v="yes"/>
    <tag k="maxspeed" v="30"/>
    <tag k="name" v="Avenue de Wagram"/>
    <tag k="name:etymology:wikidata" v="Q467777"/>
    <tag k="oneway" v="yes"/>
    <tag k="psv:lanes:forward" v="yes|designated"/>
    <tag k="sidewalk:right" v="separate"/>
    <tag k="smoothness" v="intermediate"/>
    <tag k="surface" v="sett"/>
    <tag k="was:cycleway:right" v="share_busway"/>
  </way>
  <way id="1305477340" version="2" timestamp="2024-08-03T23:49:39Z" changeset="154792832" uid="2252690" user="gourlaysama">
    <nd ref="21660458"/>
    <nd ref="583368069"/>
    <tag k="cycleway:both" v="no"/>
    <tag k="dual_carriageway" v="yes"/>
    <tag k="highway" v="primary"/>
    <tag k="lanes" v="2"/>
    <tag k="lit" v="yes"/>
    <tag k="maxspeed" v="30"/>
    <tag k="name" v="Avenue de Friedland"/>
    <tag k="name:etymology:wikidata" v="Q241108"/>
    <tag k="oneway" v="yes"/>
    <tag k="source:maxspeed" v="FR:urban"/>
    <tag k="surface" v="sett"/>
  </way>
  <way id="1306367785" version="1" timestamp="2024-08-08T13:55:23Z" changeset="154980893" uid="7512839" user="Benoît C MdP">
    <nd ref="12098894122"/>
    <nd ref="270678168"/>
    <tag k="cycleway:left" v="no"/>
    <tag k="cycleway:right" v="lane"/>
    <tag k="cycleway:right:lane" v="exclusive"/>
    <tag k="dual_carriageway" v="yes"/>
    <tag k="highway" v="primary"/>
    <tag k="lanes" v="2"/>
    <tag k="lit" v="yes"/>
    <tag k="maxspeed" v="30"/>
    <tag k="name" v="Boulevard Haussmann"/>
    <tag k="name:etymology:wikidata" v="Q191798"/>
    <tag k="oneway" v="yes"/>
    <tag k="sidewalk:left" v="no"/>
    <tag k="sidewalk:right" v="separate"/>
    <tag k="source:maxspeed" v="FR:urban"/>
    <tag k="surface" v="sett"/>
  </way>
  <way id="1306367786" version="1" timestamp="2024-08-08T13:55:23Z" changeset="154980893" uid="7512839" user="Benoît C MdP">
    <nd ref="12098894117"/>
    <nd ref="6219625564"/>
    <nd ref="12098894122"/>
    <tag k="cycleway:left" v="no"/>
    <tag k="cycleway:right" v="lane"/>
    <tag k="cycleway:right:lane" v="exclusive"/>
    <tag k="dual_carriageway" v="yes"/>
    <tag k="highway" v="primary"/>
    <tag k="lanes" v="2"/>
    <tag k="lit" v="yes"/>
    <tag k="maxspeed" v="30"/>
    <tag k="name" v="Boulevard Haussmann"/>
    <tag k="name:etymology:wikidata" v="Q191798"/>
    <tag k="oneway" v="yes"/>
    <tag k="sidewalk:left" v="no"/>
    <tag k="sidewalk:right" v="separate"/>
    <tag k="source:maxspeed" v="FR:urban"/>
    <tag k="surface" v="sett"/>
  </way>
  <way id="1306369425" version="2" timestamp="2024-12-03T23:10:17Z" changeset="159899829" uid="2678738" user="fgouget">
    <nd ref="12098894126"/>
    <nd ref="270678186"/>
    <tag k="cycleway:left" v="no"/>
    <tag k="cycleway:right" v="separate"/>
    <tag k="dual_carriageway" v="yes"/>
    <tag k="highway" v="primary"/>
    <tag k="lanes" v="3"/>
    <tag k="lit" v="yes"/>
    <tag k="maxspeed" v="30"/>
    <tag k="name" v="Boulevard Haussmann"/>
    <tag k="name:etymology:wikidata" v="Q191798"/>
    <tag k="oneway" v="yes"/>
    <tag k="psv:lanes" v="yes|yes|designated"/>
    <tag k="sidewalk:left" v="no"/>
    <tag k="sidewalk:right" v="separate"/>
    <tag k="source:maxspeed" v="FR:urban"/>
    <tag k="surface" v="sett"/>
  </way>
  <way id="1314383168" version="1" timestamp="2024-09-09T14:08:55Z" changeset="156396641" uid="7512839" user="Benoît C MdP">
    <nd ref="21660273"/>
    <nd ref="838076254"/>
    <nd ref="7847753433"/>
    <tag k="bicycle:lanes:forward" v="yes|designated"/>
    <tag k="busway:right" v="lane"/>
    <tag k="cycleway:left" v="no"/>
    <tag k="cycleway:right" v="share_busway"/>
    <tag k="highway" v="primary"/>
    <tag k="lanes" v="4"/>
    <tag k="lanes:backward" v="2"/>
    <tag k="lanes:forward" v="2"/>
    <tag k="lit" v="yes"/>
    <tag k="maxspeed" v="30"/>
    <tag k="name" v="Avenue de Friedland"/>
    <tag k="name:etymology:wikidata" v="Q241108"/>
    <tag k="psv:lanes:forward" v="yes|designated"/>
    <tag k="sidewalk" v="both"/>
    <tag k="surface" v="sett"/>
  </way>
  <way id="1314383169" version="2" timestamp="2025-01-30T10:32:17Z" changeset="161931605" uid="7512839" user="Benoît C MdP">
    <nd ref="21660312"/>
    <nd ref="7847753432"/>
    <nd ref="12165646587"/>
    <tag k="bicycle:lanes:forward" v="yes|designated"/>
    <tag k="busway:right" v="lane"/>
    <tag k="cycleway:left" v="no"/>
    <tag k="cycleway:right" v="share_busway"/>
    <tag k="highway" v="primary"/>
    <tag k="lanes" v="4"/>
    <tag k="lanes:backward" v="2"/>
    <tag k="lanes:forward" v="2"/>
    <tag k="lit" v="yes"/>
    <tag k="maxspeed" v="30"/>
    <tag k="name" v="Avenue de Friedland"/>
    <tag k="name:etymology:wikidata" v="Q241108"/>
    <tag k="psv:lanes:forward" v="yes|designated"/>
    <tag k="sidewalk" v="both"/>
    <tag k="surface" v="sett"/>
  </way>
  <way id="1314383170" version="1" timestamp="2024-09-09T14:08:55Z" changeset="156396641" uid="7512839" user="Benoît C MdP">
    <nd ref="6284856482"/>
    <nd ref="21660312"/>
    <tag k="bicycle:lanes:forward" v="yes|designated"/>
    <tag k="busway:right" v="lane"/>
    <tag k="cycleway:left" v="lane"/>
    <tag k="cycleway:right" v="share_busway"/>
    <tag k="highway" v="primary"/>
    <tag k="lanes" v="4"/>
    <tag k="lanes:backward" v="2"/>
    <tag k="lanes:forward" v="2"/>
    <tag k="lit" v="yes"/>
    <tag k="maxspeed" v="30"/>
    <tag k="name" v="Avenue de Friedland"/>
    <tag k="name:etymology:wikidata" v="Q241108"/>
    <tag k="psv:lanes:forward" v="yes|designated"/>
    <tag k="sidewalk" v="both"/>
    <tag k="surface" v="sett"/>
  </way>
  <way id="1314383171" version="1" timestamp="2024-09-09T14:08:55Z" changeset="156396641" uid="7512839" user="Benoît C MdP">
    <nd ref="12165646587"/>
    <nd ref="21660458"/>
    <tag k="bicycle:lanes:forward" v="yes|designated"/>
    <tag k="busway:both" v="lane"/>
    <tag k="cycleway:both" v="share_busway"/>
    <tag k="highway" v="primary"/>
    <tag k="lanes" v="4"/>
    <tag k="lanes:backward" v="2"/>
    <tag k="lanes:forward" v="2"/>
    <tag k="lit" v="yes"/>
    <tag k="maxspeed" v="30"/>
    <tag k="name" v="Avenue de Friedland"/>
    <tag k="name:etymology:wikidata" v="Q241108"/>
    <tag k="psv:lanes:forward" v="yes|designated"/>
    <tag k="sidewalk" v="both"/>
    <tag k="surface" v="sett"/>
  </way>
  <way id="1318464124" version="2" timestamp="2024-09-26T16:37:43Z" changeset="157138076" uid="5589" user="user_5589">
    <nd ref="12202141271"/>
    <nd ref="6892173207"/>
    <tag k="cycleway:both" v="no"/>
    <tag k="highway" v="tertiary"/>
    <tag k="lanes" v="2"/>
    <tag k="lit" v="yes"/>
    <tag k="maxspeed" v="30"/>
    <tag k="name" v="Avenue Hoche"/>
    <tag k="name:etymology:wikidata" v="Q367042"/>
    <tag k="sidewalk:both" v="separate"/>
    <tag k="surface" v="sett"/>
  </way>
  <way id="1318465683" version="1" timestamp="2024-09-26T16:45:14Z" changeset="157138358" uid="5589" user="user_5589">
    <nd ref="12202153520"/>
    <nd ref="6867671708"/>
    <nd ref="8168344740"/>
    <nd ref="27235327"/>
    <nd ref="8168344739"/>
    <nd ref="2698142588"/>
    <nd ref="2698142555"/>
    <nd ref="21661080"/>
    <tag k="cycleway:both" v="no"/>
    <tag k="highway" v="residential"/>
    <tag k="lit" v="yes"/>
    <tag k="maxspeed" v="30"/>
    <tag k="name" v="Rue Daru"/>
    <tag k="name:etymology:wikidata" v="Q715144"/>
    <tag k="oneway" v="yes"/>
    <tag k="sidewalk:both" v="separate"/>
    <tag k="surface" v="asphalt"/>
  </way>
  <way id="1354258987" version="2" timestamp="2025-01-27T08:01:53Z" changeset="161807095" uid="7512839" user="Benoît C MdP">
    <nd ref="12532433215"/>
    <nd ref="12532433232"/>
    <tag k="highway" v="primary"/>
    <tag k="lanes" v="2"/>
    <tag k="lanes:forward" v="2"/>
    <tag k="lit" v="yes"/>
    <tag k="maxspeed" v="30"/>
    <tag k="name" v="Rue du Faubourg Saint-Honoré"/>
    <tag k="name:etymology:wikidata" v="Q3067310"/>
    <tag k="surface" v="sett"/>
  </way>
  <way id="1354258999" version="2" timestamp="2025-01-27T08:01:53Z" changeset="161807095" uid="7512839" user="Benoît C MdP">
    <nd ref="12532433232"/>
    <nd ref="12532433220"/>
    <nd ref="21660970"/>
    <tag k="highway" v="primary"/>
    <tag k="lanes" v="3"/>
    <tag k="lanes:forward" v="3"/>
    <tag k="lit" v="yes"/>
    <tag k="maxspeed" v="30"/>
    <tag k="name" v="Avenue des Ternes"/>
    <tag k="name:etymology:wikidata" v="Q968881"/>
    <tag k="surface" v="sett"/>
  </way>
  <way id="1354259003" version="4" timestamp="2025-03-03T15:47:37Z" changeset="163167202" uid="7512839" user="Benoît C MdP">
    <nd ref="21660970"/>
    <nd ref="12633563739"/>
    <nd ref="11358659516"/>
    <nd ref="12009276962"/>
    <tag k="busway:right" v="lane"/>
    <tag k="cycleway:right" v="separate"/>
    <tag k="dual_carriageway" v="yes"/>
    <tag k="highway" v="primary"/>
    <tag k="lanes" v="2"/>
    <tag k="lit" v="yes"/>
    <tag k="maxspeed" v="30"/>
    <tag k="name" v="Avenue de Wagram"/>
    <tag k="name:etymology:wikidata" v="Q467777"/>
    <tag k="oneway" v="yes"/>
    <tag k="psv:lanes:forward" v="yes|designated"/>
    <tag k="sidewalk:right" v="separate"/>
    <tag k="smoothness" v="intermediate"/>
    <tag k="surface" v="sett"/>
    <tag k="was:cycleway:right" v="share_busway"/>
  </way>
  <way id="1354259005" version="2" timestamp="2025-01-27T08:01:53Z" changeset="161807095" uid="7512839" user="Benoît C MdP">
    <nd ref="12532433226"/>
    <nd ref="4927356930"/>
    <nd ref="12532433233"/>
    <nd ref="2698142503"/>
    <nd ref="12532433215"/>
    <tag k="highway" v="tertiary"/>
    <tag k="lanes" v="2"/>
    <tag k="lanes:forward" v="2"/>
    <tag k="lit" v="yes"/>
    <tag k="maxspeed" v="30"/>
    <tag k="name" v="Rue du Faubourg Saint-Honoré"/>
    <tag k="name:etymology:wikidata" v="Q3067310"/>
    <tag k="surface" v="sett"/>
    <tag k="turn:lanes" v="through;right|through"/>
  </way>
  <relation id="1084840" version="3" timestamp="2022-01-03T15:48:33Z" changeset="115717650" uid="195017" user="Julien39">
    <member type="way" ref="69167212" role="inner"/>
    <member type="way" ref="69167313" role="outer"/>
    <tag k="addr:city" v="Paris"/>
    <tag k="addr:housenumber" v="68"/>
    <tag k="addr:postcode" v="75008"/>
    <tag k="addr:street" v="Avenue des Champs-Élysées"/>
    <tag k="building" v="yes"/>
    <tag k="type" v="multipolygon"/>
    <tag k="wikidata" v="Q20978623"/>
  </relation>
  <relation id="1104579" version="5" timestamp="2022-11-07T19:22:50Z" changeset="128610931" uid="172867" user="AmiFritz">
    <member type="way" ref="70184637" role="inner"/>
    <member type="way" ref="70184663" role="inner"/>
    <member type="way" ref="70184690" role="outer"/>
    <tag k="amenity" v="events_venue"/>
    <tag k="architect" v="G. Lauzanne"/>
    <tag k="building" v="yes"/>
    <tag k="building:levels" v="5"/>
    <tag k="contact:city" v="Paris"/>
    <tag k="contact:housenumber" v="3"/>
    <tag k="contact:phone" v="+33 1 44 13 31 63"/>
    <tag k="contact:postcode" v="75008"/>
    <tag k="contact:street" v="Rue de Berri"/>
    <tag k="contact:website" v="https://www.fntp.fr/location-la-maison-des-travaux-publics"/>
    <tag k="name" v="Maison des Travaux Publics"/>
    <tag k="operator" v="Fédération Nationale des Travaux Publics"/>
    <tag k="source:architect" v="survey"/>
    <tag k="type" v="multipolygon"/>
  </relation>
  <relation id="1104589" version="4" timestamp="2023-09-21T15:39:02Z" changeset="141565746" uid="20301942" user="fedezil">
    <member type="way" ref="70184719" role="inner"/>
    <member type="way" ref="70184559" role="outer"/>
    <tag k="building" v="office"/>
    <tag k="name" v="Cisco Systems France"/>
    <tag k="office" v="company"/>
    <tag k="type" v="multipolygon"/>
  </relation>
  <relation id="1104615" version="3" timestamp="2023-02-07T09:58:16Z" changeset="132196637" uid="7512839" user="Benoît C MdP">
    <member type="way" ref="70185803" role="inner"/>
    <member type="way" ref="70185816" role="inner"/>
    <member type="way" ref="70185805" role="inner"/>
    <member type="way" ref="70185806" role="inner"/>
    <member type="way" ref="70185790" role="outer"/>
    <tag k="building" v="yes"/>
    <tag k="building:levels" v="4"/>
    <tag k="name" v="Hôtel Potocki"/>
    <tag k="type" v="multipolygon"/>
    <tag k="wikidata" v="Q3145634"/>
  </relation>
  <relation id="6410906" version="2" timestamp="2025-02-04T23:21:23Z" changeset="162145734" uid="7550430" user="Britzz">
    <member type="way" ref="430869592" role="outer"/>
    <member type="way" ref="430869597" role="inner"/>
    <tag k="addr:city" v="Paris"/>
    <tag k="addr:housenumber" v="51-57"/>
    <tag k="addr:postcode" v="75008"/>
    <tag k="addr:street" v="Rue de Courcelles"/>
    <tag k="building" v="yes"/>
    <tag k="name" v="L'Hôtel du Collectionneur"/>
    <tag k="name:zh" v="巴黎凯旋门收藏家酒店"/>
    <tag k="phone" v="+33 1 58366700"/>
    <tag k="source" v="cadastre-dgi-fr source : Direction Générale des Impôts - Cadastre. Mise à jour : 2010"/>
    <tag k="stars" v="5"/>
    <tag k="tourism" v="hotel"/>
    <tag k="type" v="multipolygon"/>
    <tag k="website" v="https://www.hotelducollectionneur.com/"/>
  </relation>
  <relation id="6410908" version="2" timestamp="2021-09-11T17:32:43Z" changeset="111071525" uid="1205555" user="benoitdd">
    <member type="way" ref="430869611" role="outer"/>
    <member type="way" ref="430869595" role="inner"/>
    <tag k="building" v="yes"/>
    <tag k="building:levels" v="3"/>
    <tag k="name" v="Hôtel Beaujon"/>
    <tag k="roof:levels" v="1"/>
    <tag k="type" v="multipolygon"/>
  </relation>
  <relation id="11084430" version="1" timestamp="2020-05-09T13:52:34Z" changeset="84938703" uid="612309" user="JBRPHND">
    <member type="way" ref="70184699" role="inner"/>
    <member type="way" ref="70184670" role="inner"/>
    <tag k="addr:city" v="Paris"/>
    <tag k="addr:housenumber" v="116bis"/>
    <tag k="addr:postcode" v="75008"/>
    <tag k="addr:street" v="avenue des Champs-Elysées"/>
    <tag k="architect" v="Jean Desbouis"/>
    <tag k="building" v="apartments"/>
    <tag k="building:levels" v="8"/>
    <tag k="name" v="Lido - UGC Normandie"/>
    <tag k="type" v="multipolygon"/>
  </relation>

</osm>
