<?xml version="1.0" encoding="UTF-8"?>
<osm version="0.6" generator="Overpass API 0.7.62.5 1bd436f1">
<note>The data included in this document is from www.openstreetmap.org. The data is made available under ODbL.</note>
<meta osm_base="2025-04-26T22:38:59Z" areas="2024-12-31T00:49:33Z"/>

  <node id="255892530" lat="51.1657059" lon="1.3561335" version="3" timestamp="2011-02-15T09:13:07Z" changeset="7293028" uid="7037" user="Gregory Williams"/>
  <node id="282909101" lat="51.1879081" lon="1.3696917" version="3" timestamp="2024-09-07T09:30:59Z" changeset="156305033" uid="11471297" user="Palgrave Peter"/>
  <node id="339678783" lat="51.1921660" lon="1.3723952" version="1" timestamp="2009-02-01T14:32:18Z" changeset="27853" uid="7221" user="Crid"/>
  <node id="627875177" lat="51.1890941" lon="1.4033959" version="4" timestamp="2016-02-05T07:44:14Z" changeset="37014168" uid="7037" user="Gregory Williams"/>
  <node id="913199040" lat="51.1893056" lon="1.4043375" version="3" timestamp="2011-03-02T02:32:19Z" changeset="7434815" uid="359193" user="JeffH"/>
  <node id="1281854796" lat="51.1863865" lon="1.3790291" version="1" timestamp="2011-05-12T17:20:59Z" changeset="8124331" uid="7037" user="Gregory Williams"/>
  <node id="1906599072" lat="51.1890354" lon="1.3923399" version="4" timestamp="2025-01-21T08:55:16Z" changeset="161591239" uid="7037" user="Gregory Williams"/>
  <node id="9711497990" lat="51.2069601" lon="1.4027256" version="1" timestamp="2022-05-03T14:33:55Z" changeset="120502763" uid="4833194" user="motogs"/>
  <way id="4471748" version="13" timestamp="2025-01-21T08:55:16Z" changeset="161591239" uid="7037" user="Gregory Williams">
    <nd ref="769158938"/>
    <nd ref="5598877562"/>
    <tag k="highway" v="tertiary"/>
    <tag k="maxspeed" v="20 mph"/>
    <tag k="name" v="Cliffe Road"/>
  </way>
  <way id="4471749" version="12" timestamp="2025-01-21T08:55:16Z" changeset="161591239" uid="7037" user="Gregory Williams">
    <nd ref="27411879"/>
    <nd ref="27411880"/>
    <nd ref="12158207371"/>
    <nd ref="27411881"/>
    <tag k="cycleway:both" v="no"/>
    <tag k="highway" v="unclassified"/>
    <tag k="lane_markings" v="no"/>
    <tag k="maxspeed" v="20 mph"/>
    <tag k="name" v="Undercliffe Road"/>
    <tag k="surface" v="asphalt"/>
  </way>
  <way id="4471916" version="18" timestamp="2025-01-21T08:55:16Z" changeset="161591239" uid="7037" user="Gregory Williams">
    <nd ref="27411892"/>
    <nd ref="27412777"/>
    <nd ref="27412778"/>
    <nd ref="27412779"/>
    <nd ref="27412780"/>
    <nd ref="27412781"/>
    <nd ref="27412782"/>
    <nd ref="27412783"/>
    <nd ref="12158189895"/>
    <nd ref="27412784"/>
    <nd ref="769215921"/>
    <tag k="highway" v="residential"/>
    <tag k="lit" v="no"/>
    <tag k="maxspeed" v="20 mph"/>
    <tag k="name" v="Oldstairs Road"/>
    <tag k="surface" v="asphalt"/>
  </way>
  <way id="23335885" version="10" timestamp="2025-01-21T08:55:16Z" changeset="161591239" uid="7037" user="Gregory Williams">
    <nd ref="282908605"/>
    <nd ref="282908604"/>
    <nd ref="1906599034"/>
    <nd ref="282908603"/>
    <nd ref="282908602"/>
    <nd ref="3526062643"/>
    <nd ref="282908601"/>
    <nd ref="282908600"/>
    <nd ref="1154174630"/>
    <nd ref="282908599"/>
    <nd ref="1906599045"/>
    <nd ref="282908598"/>
    <nd ref="282908606"/>
    <nd ref="1906599037"/>
    <nd ref="290594865"/>
    <nd ref="290594866"/>
    <nd ref="353783776"/>
    <nd ref="255890777"/>
    <tag k="highway" v="residential"/>
    <tag k="maxspeed" v="20 mph"/>
    <tag k="maxweight" v="7.5"/>
    <tag k="name" v="The Rise"/>
  </way>
  <way id="24718531" version="9" timestamp="2016-04-03T17:19:07Z" changeset="38271396" uid="42123" user="Ropino">
    <nd ref="33452948"/>
    <nd ref="339678839"/>
    <nd ref="339678834"/>
    <nd ref="339678831"/>
    <nd ref="282909098"/>
    <nd ref="1925694538"/>
    <nd ref="282909092"/>
    <nd ref="339678828"/>
    <nd ref="282909093"/>
    <tag k="highway" v="unclassified"/>
    <tag k="maxspeed" v="30 mph"/>
    <tag k="name" v="Front Street"/>
  </way>
  <way id="25935779" version="10" timestamp="2025-01-21T08:55:16Z" changeset="161591239" uid="7037" user="Gregory Williams">
    <nd ref="769158928"/>
    <nd ref="4419889277"/>
    <nd ref="4419889278"/>
    <nd ref="4419889279"/>
    <nd ref="4419889281"/>
    <nd ref="4419889282"/>
    <nd ref="4419889283"/>
    <nd ref="4419889284"/>
    <nd ref="282908598"/>
    <tag k="highway" v="residential"/>
    <tag k="maxspeed" v="20 mph"/>
    <tag k="maxweight" v="7.5"/>
    <tag k="name" v="St. James Road"/>
    <tag k="source" v="OS_OpenData_StreetView"/>
  </way>
  <way id="25935780" version="14" timestamp="2025-01-21T08:55:16Z" changeset="161591239" uid="7037" user="Gregory Williams">
    <nd ref="1906599072"/>
    <nd ref="1906599073"/>
    <nd ref="1906599074"/>
    <nd ref="282908590"/>
    <nd ref="1154174618"/>
    <nd ref="282908589"/>
    <nd ref="8034558037"/>
    <nd ref="1906599076"/>
    <nd ref="282908588"/>
    <nd ref="282908587"/>
    <nd ref="282908586"/>
    <nd ref="1793214949"/>
    <nd ref="353783722"/>
    <nd ref="252686999"/>
    <nd ref="353783724"/>
    <tag k="highway" v="unclassified"/>
    <tag k="maxspeed" v="60 mph"/>
    <tag k="maxspeed:type" v="GB:nsl_single"/>
    <tag k="name" v="Glen Road"/>
  </way>
  <way id="25935860" version="4" timestamp="2016-04-03T17:19:03Z" changeset="38271396" uid="42123" user="Ropino">
    <nd ref="282909084"/>
    <nd ref="282909085"/>
    <nd ref="282909086"/>
    <nd ref="282909087"/>
    <nd ref="282909088"/>
    <nd ref="282909089"/>
    <nd ref="282909090"/>
    <nd ref="1925694539"/>
    <nd ref="1925694550"/>
    <nd ref="282909091"/>
    <nd ref="282909092"/>
    <tag k="highway" v="unclassified"/>
    <tag k="maxspeed" v="30 mph"/>
    <tag k="name" v="Church Lane"/>
  </way>
  <way id="30713311" version="4" timestamp="2025-04-20T10:48:06Z" changeset="165187579" uid="7037" user="Gregory Williams">
    <nd ref="339678804"/>
    <nd ref="12161589729"/>
    <nd ref="339678798"/>
    <tag k="highway" v="unclassified"/>
    <tag k="maxspeed" v="60 mph"/>
    <tag k="maxspeed:type" v="GB:nsl_single"/>
    <tag k="name" v="Ringwould Road"/>
    <tag k="ref:GB:usrn" v="11301027"/>
  </way>
  <way id="30713312" version="7" timestamp="2025-04-20T10:48:06Z" changeset="165187579" uid="7037" user="Gregory Williams">
    <nd ref="339678783"/>
    <nd ref="339678785"/>
    <nd ref="339678788"/>
    <nd ref="339678790"/>
    <nd ref="339678795"/>
    <nd ref="339678798"/>
    <nd ref="282909101"/>
    <tag k="highway" v="unclassified"/>
    <tag k="maxspeed" v="60 mph"/>
    <tag k="maxspeed:type" v="GB:nsl_single"/>
    <tag k="name" v="Ringwould Road"/>
    <tag k="ref:GB:usrn" v="11301027"/>
    <tag k="source:name" v="OS_OpenData_Locator"/>
  </way>
  <way id="30713313" version="4" timestamp="2024-07-22T22:19:26Z" changeset="154282639" uid="5008136" user="JayTurnr">
    <nd ref="33452949"/>
    <nd ref="339678851"/>
    <nd ref="339678856"/>
    <nd ref="12068881558"/>
    <nd ref="339678859"/>
    <nd ref="12068881560"/>
    <nd ref="339678863"/>
    <nd ref="339678865"/>
    <tag k="highway" v="residential"/>
    <tag k="maxspeed" v="30 mph"/>
    <tag k="name" v="Queens Rise"/>
    <tag k="not:name" v="Queen's Rise"/>
  </way>
  <way id="30713314" version="7" timestamp="2024-09-07T09:30:59Z" changeset="156305033" uid="11471297" user="Palgrave Peter">
    <nd ref="339678839"/>
    <nd ref="6805348259"/>
    <nd ref="339678866"/>
    <nd ref="339678865"/>
    <nd ref="339678868"/>
    <nd ref="1925694534"/>
    <nd ref="339678871"/>
    <tag k="highway" v="residential"/>
    <tag k="maxspeed" v="30 mph"/>
    <tag k="name" v="Back Street"/>
  </way>
  <way id="30713315" version="4" timestamp="2021-01-28T23:41:43Z" changeset="98324568" uid="5008136" user="JayTurnr">
    <nd ref="339678874"/>
    <nd ref="282909093"/>
    <tag k="highway" v="residential"/>
    <tag k="maxspeed" v="30 mph"/>
  </way>
  <way id="30713316" version="6" timestamp="2024-09-07T09:30:59Z" changeset="156305033" uid="11471297" user="Palgrave Peter">
    <nd ref="339678883"/>
    <nd ref="339678882"/>
    <nd ref="1354252393"/>
    <nd ref="339678880"/>
    <nd ref="339678879"/>
    <nd ref="339678876"/>
    <nd ref="339678871"/>
    <nd ref="339678874"/>
    <nd ref="282909094"/>
    <tag k="highway" v="residential"/>
    <tag k="maxspeed" v="30 mph"/>
    <tag k="name" v="Hangmans Lane"/>
    <tag k="not:name" v="Hangman's Lane"/>
  </way>
  <way id="30713979" version="10" timestamp="2025-04-20T10:48:06Z" changeset="165187579" uid="7037" user="Gregory Williams">
    <nd ref="282909101"/>
    <nd ref="339685121"/>
    <nd ref="339685124"/>
    <nd ref="339685127"/>
    <nd ref="339685131"/>
    <nd ref="339685134"/>
    <nd ref="339685139"/>
    <nd ref="339685142"/>
    <nd ref="339685146"/>
    <nd ref="339685152"/>
    <nd ref="339685157"/>
    <nd ref="339685163"/>
    <nd ref="339685168"/>
    <nd ref="1354252310"/>
    <nd ref="339685175"/>
    <nd ref="339685179"/>
    <nd ref="339685184"/>
    <nd ref="339685192"/>
    <nd ref="339685198"/>
    <nd ref="339685203"/>
    <nd ref="339685208"/>
    <nd ref="339685396"/>
    <tag k="highway" v="unclassified"/>
    <tag k="maxspeed" v="60 mph"/>
    <tag k="maxspeed:type" v="GB:nsl_single"/>
    <tag k="name" v="Ringwould Road"/>
    <tag k="ref:GB:usrn" v="11301027"/>
    <tag k="source:name" v="OS_OpenData_StreetView"/>
  </way>
  <way id="31620897" version="7" timestamp="2025-01-21T08:55:16Z" changeset="161591239" uid="7037" user="Gregory Williams">
    <nd ref="282908594"/>
    <nd ref="353783725"/>
    <tag k="highway" v="residential"/>
    <tag k="maxspeed" v="20 mph"/>
    <tag k="name" v="Osborne Road"/>
  </way>
  <way id="31620898" version="6" timestamp="2025-01-21T08:55:16Z" changeset="161591239" uid="7037" user="Gregory Williams">
    <nd ref="353783726"/>
    <nd ref="769157460"/>
    <nd ref="353783725"/>
    <nd ref="353783727"/>
    <tag k="highway" v="residential"/>
    <tag k="maxspeed" v="20 mph"/>
    <tag k="name" v="Claremont Road"/>
    <tag k="source" v="OS_OpenData_StreetView"/>
  </way>
  <way id="31620899" version="7" timestamp="2025-01-21T08:55:16Z" changeset="161591239" uid="7037" user="Gregory Williams">
    <nd ref="353783764"/>
    <nd ref="353783774"/>
    <nd ref="353783775"/>
    <nd ref="769157439"/>
    <nd ref="769157458"/>
    <nd ref="769157446"/>
    <nd ref="769157459"/>
    <nd ref="1154174624"/>
    <nd ref="353783731"/>
    <nd ref="353783729"/>
    <nd ref="353783727"/>
    <nd ref="353783728"/>
    <tag k="highway" v="residential"/>
    <tag k="maxspeed" v="20 mph"/>
    <tag k="name" v="Balmoral Road"/>
    <tag k="source" v="OS_OpenData_StreetView"/>
  </way>
  <way id="31620900" version="7" timestamp="2025-01-21T08:55:16Z" changeset="161591239" uid="7037" user="Gregory Williams">
    <nd ref="353783729"/>
    <nd ref="769157440"/>
    <nd ref="353783732"/>
    <nd ref="353783736"/>
    <tag k="highway" v="residential"/>
    <tag k="maxspeed" v="20 mph"/>
    <tag k="name" v="Edward Road"/>
    <tag k="source" v="OS_OpenData_StreetView"/>
  </way>
  <way id="31620901" version="7" timestamp="2025-01-21T08:55:16Z" changeset="161591239" uid="7037" user="Gregory Williams">
    <nd ref="282908597"/>
    <nd ref="353783736"/>
    <nd ref="353783746"/>
    <nd ref="353783752"/>
    <nd ref="353783755"/>
    <nd ref="353783760"/>
    <tag k="highway" v="residential"/>
    <tag k="maxspeed" v="20 mph"/>
    <tag k="name" v="Sea Road"/>
    <tag k="source" v="OS_OpenData_StreetView"/>
  </way>
  <way id="49431756" version="10" timestamp="2025-01-21T08:55:16Z" changeset="161591239" uid="7037" user="Gregory Williams">
    <nd ref="627875177"/>
    <nd ref="7553698082"/>
    <nd ref="1681360963"/>
    <nd ref="1681360959"/>
    <tag k="highway" v="unclassified"/>
    <tag k="maxspeed" v="20 mph"/>
    <tag k="name" v="No Name Lane"/>
  </way>
  <way id="49431758" version="11" timestamp="2024-09-05T17:10:17Z" changeset="156241055" uid="11471297" user="Palgrave Peter">
    <nd ref="27411879"/>
    <nd ref="627875158"/>
    <nd ref="12158207369"/>
    <nd ref="1181940665"/>
    <nd ref="769215878"/>
    <tag k="access" v="destination"/>
    <tag k="foot" v="yes"/>
    <tag k="highway" v="residential"/>
    <tag k="lit" v="no"/>
    <tag k="maxspeed" v="5 mph"/>
    <tag k="name" v="South Road"/>
    <tag k="source" v="OS_OpenData_StreetView"/>
    <tag k="surface" v="gravel"/>
  </way>
  <way id="52464813" version="5" timestamp="2025-01-21T08:55:16Z" changeset="161591239" uid="7037" user="Gregory Williams">
    <nd ref="255890777"/>
    <nd ref="255890778"/>
    <nd ref="1906599019"/>
    <nd ref="1906599026"/>
    <nd ref="255890780"/>
    <nd ref="353783777"/>
    <nd ref="12520155953"/>
    <tag k="highway" v="unclassified"/>
    <tag k="maxspeed" v="20 mph"/>
    <tag k="maxweight" v="7.5"/>
  </way>
  <way id="52464814" version="5" timestamp="2025-01-21T08:55:16Z" changeset="161591239" uid="7037" user="Gregory Williams">
    <nd ref="666992496"/>
    <nd ref="666992493"/>
    <nd ref="255890775"/>
    <nd ref="666992491"/>
    <nd ref="255890776"/>
    <nd ref="255890777"/>
    <tag k="highway" v="unclassified"/>
    <tag k="maxspeed" v="20 mph"/>
    <tag k="maxweight" v="7.5"/>
    <tag k="name" v="Chalkhill Road"/>
  </way>
  <way id="52464815" version="10" timestamp="2020-01-18T20:27:20Z" changeset="79740749" uid="231477" user="SiHollett">
    <nd ref="627875130"/>
    <nd ref="3980016539"/>
    <nd ref="3980016538"/>
    <nd ref="769215945"/>
    <nd ref="769215962"/>
    <nd ref="769215939"/>
    <nd ref="666992498"/>
    <nd ref="1154174648"/>
    <tag k="highway" v="residential"/>
    <tag k="maxspeed" v="20 mph"/>
    <tag k="name" v="The Avenue"/>
    <tag k="source" v="OS_OpenData_StreetView"/>
  </way>
  <way id="61726486" version="6" timestamp="2025-01-21T08:55:16Z" changeset="161591239" uid="7037" user="Gregory Williams">
    <nd ref="769157460"/>
    <nd ref="769157447"/>
    <nd ref="769157438"/>
    <nd ref="769157457"/>
    <nd ref="769157444"/>
    <tag k="highway" v="residential"/>
    <tag k="maxspeed" v="20 mph"/>
    <tag k="name" v="Claremont Close"/>
    <tag k="source" v="OS_OpenData_StreetView"/>
    <tag k="source:name" v="OS_OpenData_Locator"/>
  </way>
  <way id="61726487" version="8" timestamp="2025-01-21T08:55:16Z" changeset="161591239" uid="7037" user="Gregory Williams">
    <nd ref="769157435"/>
    <nd ref="3071972849"/>
    <nd ref="7449793951"/>
    <nd ref="7449793949"/>
    <nd ref="8595386944"/>
    <nd ref="769157454"/>
    <nd ref="1906599056"/>
    <nd ref="769157434"/>
    <tag k="highway" v="residential"/>
    <tag k="maxspeed" v="20 mph"/>
    <tag k="name" v="King's Close"/>
    <tag k="source" v="OS_OpenData_StreetView"/>
  </way>
  <way id="61726488" version="6" timestamp="2025-01-21T08:55:16Z" changeset="161591239" uid="7037" user="Gregory Williams">
    <nd ref="769157448"/>
    <nd ref="769157455"/>
    <nd ref="1154174666"/>
    <nd ref="1154174645"/>
    <nd ref="769157441"/>
    <nd ref="769157450"/>
    <nd ref="769157435"/>
    <tag k="highway" v="residential"/>
    <tag k="maxspeed" v="20 mph"/>
    <tag k="name" v="Clim Down"/>
    <tag k="source" v="OS_OpenData_StreetView"/>
  </way>
  <way id="61726489" version="8" timestamp="2025-01-21T08:55:16Z" changeset="161591239" uid="7037" user="Gregory Williams">
    <nd ref="353783760"/>
    <nd ref="353783762"/>
    <nd ref="1154174639"/>
    <nd ref="353783763"/>
    <nd ref="353783764"/>
    <nd ref="3979957979"/>
    <nd ref="353783767"/>
    <nd ref="3526165516"/>
    <nd ref="353783769"/>
    <nd ref="5598951203"/>
    <nd ref="1154174619"/>
    <nd ref="353783771"/>
    <nd ref="353783773"/>
    <nd ref="353783760"/>
    <tag k="highway" v="residential"/>
    <tag k="maxspeed" v="20 mph"/>
    <tag k="name" v="Balmoral Road"/>
    <tag k="source" v="OS_OpenData_StreetView"/>
  </way>
  <way id="61726490" version="6" timestamp="2025-01-21T08:55:16Z" changeset="161591239" uid="7037" user="Gregory Williams">
    <nd ref="769157453"/>
    <nd ref="769157440"/>
    <tag k="highway" v="residential"/>
    <tag k="maxspeed" v="20 mph"/>
    <tag k="name" v="Carlton Road"/>
    <tag k="source" v="OS_OpenData_StreetView"/>
  </way>
  <way id="61726491" version="9" timestamp="2025-01-21T08:55:16Z" changeset="161591239" uid="7037" user="Gregory Williams">
    <nd ref="282908602"/>
    <nd ref="769157449"/>
    <nd ref="769157433"/>
    <nd ref="8883635343"/>
    <nd ref="769157452"/>
    <nd ref="769157436"/>
    <nd ref="1182546011"/>
    <nd ref="4397021774"/>
    <nd ref="769157456"/>
    <nd ref="769157442"/>
    <tag k="highway" v="residential"/>
    <tag k="maxspeed" v="20 mph"/>
    <tag k="maxweight" v="7.5"/>
    <tag k="name" v="Saint Monicas Road"/>
    <tag k="source" v="OS_OpenData_StreetView"/>
    <tag k="surface" v="gravel"/>
  </way>
  <way id="61726658" version="5" timestamp="2025-01-21T08:55:16Z" changeset="161591239" uid="7037" user="Gregory Williams">
    <nd ref="769158922"/>
    <nd ref="769158940"/>
    <nd ref="769158926"/>
    <nd ref="769158944"/>
    <nd ref="769158931"/>
    <nd ref="769158934"/>
    <nd ref="769158948"/>
    <tag k="highway" v="residential"/>
    <tag k="maxspeed" v="20 mph"/>
    <tag k="name" v="Jarvist Place"/>
    <tag k="source" v="OS_OpenData_StreetView"/>
  </way>
  <way id="61726659" version="6" timestamp="2025-01-21T08:55:16Z" changeset="161591239" uid="7037" user="Gregory Williams">
    <nd ref="290594865"/>
    <nd ref="769215951"/>
    <nd ref="769158935"/>
    <tag k="highway" v="residential"/>
    <tag k="maxspeed" v="20 mph"/>
    <tag k="maxweight" v="7.5"/>
    <tag k="name" v="Alexandra Road"/>
    <tag k="source" v="OS_OpenData_StreetView"/>
  </way>
  <way id="61726660" version="8" timestamp="2025-01-21T08:55:16Z" changeset="161591239" uid="7037" user="Gregory Williams">
    <nd ref="769158938"/>
    <nd ref="769158924"/>
    <nd ref="769158942"/>
    <nd ref="769158929"/>
    <nd ref="769158937"/>
    <nd ref="769158923"/>
    <nd ref="769158941"/>
    <nd ref="769158927"/>
    <nd ref="769158945"/>
    <nd ref="12163650831"/>
    <tag k="highway" v="residential"/>
    <tag k="maxspeed" v="20 mph"/>
    <tag k="name" v="Courtlands"/>
    <tag k="source" v="OS_OpenData_StreetView"/>
  </way>
  <way id="61726661" version="8" timestamp="2025-01-21T08:55:16Z" changeset="161591239" uid="7037" user="Gregory Williams">
    <nd ref="769158949"/>
    <nd ref="769158939"/>
    <nd ref="769158925"/>
    <nd ref="769158943"/>
    <nd ref="769158930"/>
    <nd ref="769158946"/>
    <nd ref="7379591967"/>
    <nd ref="1182545982"/>
    <nd ref="5663716533"/>
    <nd ref="5663716535"/>
    <nd ref="769158933"/>
    <nd ref="5663716542"/>
    <nd ref="769158947"/>
    <nd ref="769158936"/>
    <tag k="highway" v="residential"/>
    <tag k="maxspeed" v="20 mph"/>
    <tag k="name" v="Church Cliff"/>
    <tag k="source" v="OS_OpenData_StreetView"/>
  </way>
  <way id="61726662" version="10" timestamp="2025-01-21T08:55:16Z" changeset="161591239" uid="7037" user="Gregory Williams">
    <nd ref="1906599052"/>
    <nd ref="5598951205"/>
    <nd ref="1906599054"/>
    <nd ref="769157434"/>
    <nd ref="8205709916"/>
    <nd ref="1906599068"/>
    <nd ref="8918396875"/>
    <nd ref="282908597"/>
    <nd ref="282908596"/>
    <nd ref="769157453"/>
    <nd ref="282908595"/>
    <nd ref="353783728"/>
    <nd ref="769157451"/>
    <nd ref="282908594"/>
    <nd ref="1154174654"/>
    <tag k="highway" v="unclassified"/>
    <tag k="maxspeed" v="20 mph"/>
    <tag k="name" v="Glen Road"/>
  </way>
  <way id="61732432" version="5" timestamp="2016-02-05T07:47:12Z" changeset="37014168" uid="7037" user="Gregory Williams">
    <nd ref="769215867"/>
    <nd ref="769215945"/>
    <tag k="highway" v="residential"/>
    <tag k="maxspeed" v="20 mph"/>
    <tag k="name" v="The Avenue"/>
    <tag k="source" v="OS_OpenData_StreetView"/>
  </way>
  <way id="61732433" version="5" timestamp="2016-02-05T07:47:11Z" changeset="37014168" uid="7037" user="Gregory Williams">
    <nd ref="769215888"/>
    <nd ref="769215933"/>
    <nd ref="769215902"/>
    <nd ref="769215958"/>
    <nd ref="769215929"/>
    <tag k="highway" v="residential"/>
    <tag k="maxspeed" v="20 mph"/>
    <tag k="name" v="Hillcrest Road"/>
    <tag k="source" v="OS_OpenData_StreetView"/>
    <tag k="source:name" v="OS_OpenData_Locator"/>
  </way>
  <way id="61732435" version="3" timestamp="2025-04-20T10:36:51Z" changeset="165187142" uid="7037" user="Gregory Williams">
    <nd ref="769215883"/>
    <nd ref="1181940379"/>
    <nd ref="769215874"/>
    <tag k="highway" v="residential"/>
    <tag k="maxspeed" v="20 mph"/>
    <tag k="name" v="Undercliffe Road"/>
    <tag k="source" v="OS_OpenData_StreetView"/>
  </way>
  <way id="61732436" version="6" timestamp="2024-09-05T17:10:17Z" changeset="156241055" uid="11471297" user="Palgrave Peter">
    <nd ref="769215908"/>
    <nd ref="769215870"/>
    <nd ref="769215896"/>
    <nd ref="627875126"/>
    <nd ref="12158189887"/>
    <nd ref="27412784"/>
    <tag k="highway" v="residential"/>
    <tag k="maxspeed" v="20 mph"/>
    <tag k="name" v="Kingsdown Hill"/>
    <tag k="source" v="OS_OpenData_StreetView"/>
  </way>
  <way id="61732437" version="6" timestamp="2019-12-30T11:44:22Z" changeset="79011534" uid="10252547" user="goltapan">
    <nd ref="769215876"/>
    <nd ref="769215881"/>
    <nd ref="769215947"/>
    <nd ref="7095453902"/>
    <nd ref="769215921"/>
    <tag k="highway" v="residential"/>
    <tag k="maxspeed" v="20 mph"/>
    <tag k="name" v="Queensdown Road"/>
    <tag k="source" v="OS_OpenData_StreetView"/>
    <tag k="source:name" v="OS_OpenData_Locator"/>
  </way>
  <way id="61732439" version="16" timestamp="2024-09-05T17:10:17Z" changeset="156241055" uid="11471297" user="Palgrave Peter">
    <nd ref="1182352987"/>
    <nd ref="1182352984"/>
    <nd ref="1182352982"/>
    <nd ref="1182352992"/>
    <nd ref="1182352991"/>
    <nd ref="1182352978"/>
    <nd ref="1182352973"/>
    <nd ref="1182352989"/>
    <nd ref="769216512"/>
    <nd ref="7642171784"/>
    <nd ref="769216501"/>
    <nd ref="4539904596"/>
    <nd ref="7432634411"/>
    <nd ref="1181940976"/>
    <nd ref="5643646063"/>
    <nd ref="769216508"/>
    <nd ref="769216514"/>
    <nd ref="2095686556"/>
    <nd ref="5643646058"/>
    <nd ref="1154174644"/>
    <nd ref="4539904597"/>
    <nd ref="5643646065"/>
    <nd ref="4539904589"/>
    <nd ref="769215861"/>
    <nd ref="5643646068"/>
    <nd ref="4539904592"/>
    <nd ref="8607404117"/>
    <nd ref="1154174660"/>
    <nd ref="8607404118"/>
    <nd ref="9179023941"/>
    <nd ref="12158189863"/>
    <nd ref="2095686620"/>
    <nd ref="769215960"/>
    <nd ref="2095686637"/>
    <nd ref="12158189862"/>
    <nd ref="1154174610"/>
    <nd ref="769215938"/>
    <nd ref="1154174628"/>
    <nd ref="769215895"/>
    <nd ref="769215953"/>
    <nd ref="769215923"/>
    <nd ref="1181941025"/>
    <nd ref="1181940428"/>
    <nd ref="769215887"/>
    <nd ref="769215949"/>
    <tag k="highway" v="residential"/>
    <tag k="name" v="The Leas"/>
    <tag k="source" v="OS_OpenData_StreetView"/>
    <tag k="source:name" v="OS_OpenData_Locator"/>
  </way>
  <way id="61732440" version="8" timestamp="2019-03-12T16:55:18Z" changeset="68070080" uid="8270424" user="theArchDruid">
    <nd ref="769215914"/>
    <nd ref="1681360954"/>
    <nd ref="1181940026"/>
    <nd ref="769215860"/>
    <nd ref="769215900"/>
    <tag k="access" v="destination"/>
    <tag k="highway" v="residential"/>
    <tag k="maxspeed" v="5 mph"/>
    <tag k="name" v="North Road"/>
    <tag k="source" v="OS_OpenData_StreetView"/>
    <tag k="surface" v="gravel"/>
  </way>
  <way id="61732441" version="9" timestamp="2022-03-05T08:17:51Z" changeset="118117217" uid="12900760" user="NastassiaKalesnikava">
    <nd ref="5598977863"/>
    <nd ref="5598977862"/>
    <nd ref="769216503"/>
    <nd ref="7403904544"/>
    <nd ref="9179029944"/>
    <nd ref="769216516"/>
    <nd ref="769215916"/>
    <nd ref="769215949"/>
    <nd ref="9555620736"/>
    <nd ref="9555620738"/>
    <nd ref="9555620737"/>
    <nd ref="769215921"/>
    <tag k="highway" v="unclassified"/>
    <tag k="name" v="Granville Road"/>
    <tag k="source" v="OS_OpenData_StreetView"/>
    <tag k="source:name" v="OS_OpenData_Locator"/>
  </way>
  <way id="61732445" version="7" timestamp="2021-06-29T23:39:00Z" changeset="107174026" uid="5008136" user="JayTurnr">
    <nd ref="769215908"/>
    <nd ref="8878457891"/>
    <nd ref="769215888"/>
    <nd ref="769215876"/>
    <nd ref="627875118"/>
    <tag k="highway" v="residential"/>
    <tag k="maxspeed" v="20 mph"/>
    <tag k="name" v="Victoria Road"/>
    <tag k="source" v="OS_OpenData_StreetView"/>
  </way>
  <way id="61732446" version="11" timestamp="2021-05-03T14:31:14Z" changeset="104063162" uid="1204286" user="romikk82">
    <nd ref="769215917"/>
    <nd ref="5643646057"/>
    <nd ref="1681360956"/>
    <nd ref="769215914"/>
    <nd ref="1181940772"/>
    <nd ref="769215878"/>
    <tag k="access" v="destination"/>
    <tag k="foot" v="yes"/>
    <tag k="highway" v="residential"/>
    <tag k="lit" v="no"/>
    <tag k="maxspeed" v="5 mph"/>
    <tag k="name" v="Wellington Parade"/>
    <tag k="source" v="OS_OpenData_StreetView"/>
    <tag k="surface" v="gravel"/>
  </way>
  <way id="75736023" version="6" timestamp="2021-08-27T11:52:01Z" changeset="110338149" uid="242345" user="confusedbuffalo">
    <nd ref="282909101"/>
    <nd ref="282909103"/>
    <nd ref="1354252444"/>
    <tag k="highway" v="unclassified"/>
    <tag k="maxspeed" v="60 mph"/>
    <tag k="maxspeed:type" v="GB:nsl_single"/>
  </way>
  <way id="75736025" version="3" timestamp="2012-09-21T17:54:53Z" changeset="13198792" uid="7037" user="Gregory Williams">
    <nd ref="282909093"/>
    <nd ref="282909094"/>
    <nd ref="339678822"/>
    <nd ref="339678816"/>
    <nd ref="282909096"/>
    <nd ref="1472895345"/>
    <nd ref="282909097"/>
    <nd ref="1925694552"/>
    <tag k="highway" v="unclassified"/>
    <tag k="maxspeed" v="30 mph"/>
    <tag k="name" v="Sutton Lane"/>
  </way>
  <way id="84060613" version="5" timestamp="2025-01-21T08:55:16Z" changeset="161591239" uid="7037" user="Gregory Williams">
    <nd ref="27411879"/>
    <nd ref="977975040"/>
    <tag k="highway" v="unclassified"/>
    <tag k="maxspeed" v="20 mph"/>
  </way>
  <way id="84079705" version="12" timestamp="2025-01-21T08:55:16Z" changeset="161591239" uid="7037" user="Gregory Williams">
    <nd ref="913199040"/>
    <nd ref="627875177"/>
    <nd ref="5598877562"/>
    <tag k="highway" v="residential"/>
    <tag k="lane_markings" v="no"/>
    <tag k="lit" v="no"/>
    <tag k="maxspeed" v="20 mph"/>
    <tag k="name" v="Boundary Road"/>
    <tag k="surface" v="asphalt"/>
    <tag k="width" v="5"/>
  </way>
  <way id="102371980" version="10" timestamp="2025-01-21T08:55:16Z" changeset="161591239" uid="7037" user="Gregory Williams">
    <nd ref="255890765"/>
    <nd ref="1182545978"/>
    <nd ref="1181939911"/>
    <nd ref="977975040"/>
    <nd ref="255890767"/>
    <nd ref="769158936"/>
    <nd ref="2206309732"/>
    <nd ref="255890768"/>
    <nd ref="282908605"/>
    <nd ref="255890769"/>
    <nd ref="4419889280"/>
    <nd ref="2918473113"/>
    <nd ref="255890770"/>
    <nd ref="769158928"/>
    <nd ref="627875149"/>
    <nd ref="769215898"/>
    <nd ref="769158935"/>
    <nd ref="255890771"/>
    <nd ref="769215919"/>
    <nd ref="8142855710"/>
    <nd ref="255890773"/>
    <nd ref="666992496"/>
    <tag k="highway" v="unclassified"/>
    <tag k="maxspeed" v="20 mph"/>
    <tag k="maxweight" v="7.5"/>
    <tag k="name" v="Upper Street"/>
  </way>
  <way id="112866064" version="6" timestamp="2024-03-30T15:56:09Z" changeset="149357732" uid="7037" user="Gregory Williams">
    <nd ref="1281854739"/>
    <nd ref="1281854743"/>
    <nd ref="33452951"/>
    <nd ref="1281854738"/>
    <nd ref="33452950"/>
    <nd ref="1281854760"/>
    <nd ref="1281854781"/>
    <nd ref="33452949"/>
    <nd ref="7357983720"/>
    <nd ref="6239984952"/>
    <nd ref="1281854786"/>
    <nd ref="33452948"/>
    <nd ref="622558915"/>
    <nd ref="282909084"/>
    <nd ref="255890794"/>
    <tag k="highway" v="primary"/>
    <tag k="lanes" v="2"/>
    <tag k="maxspeed" v="40 mph"/>
    <tag k="name" v="Dover Road"/>
    <tag k="ref" v="A258"/>
    <tag k="surface" v="asphalt"/>
  </way>
  <way id="112866072" version="9" timestamp="2024-09-07T09:30:59Z" changeset="156305033" uid="11471297" user="Palgrave Peter">
    <nd ref="1281854796"/>
    <nd ref="33452648"/>
    <nd ref="12161589826"/>
    <nd ref="8901669159"/>
    <nd ref="8935339718"/>
    <nd ref="6715394239"/>
    <nd ref="1281854795"/>
    <nd ref="1281854746"/>
    <nd ref="1281854764"/>
    <nd ref="1281854784"/>
    <nd ref="3577170751"/>
    <tag k="highway" v="primary"/>
    <tag k="lanes" v="2"/>
    <tag k="maxspeed" v="50 mph"/>
    <tag k="maxspeed:type" v="sign"/>
    <tag k="name" v="Dover Road"/>
    <tag k="ref" v="A258"/>
    <tag k="surface" v="asphalt"/>
  </way>
  <way id="133831783" version="2" timestamp="2012-09-21T17:54:53Z" changeset="13198792" uid="7037" user="Gregory Williams">
    <nd ref="339678816"/>
    <nd ref="1472895554"/>
    <nd ref="1472895555"/>
    <nd ref="1472895556"/>
    <nd ref="1472895557"/>
    <tag k="highway" v="residential"/>
    <tag k="maxspeed" v="30 mph"/>
    <tag k="name" v="Manor Mews"/>
  </way>
  <way id="155775674" version="4" timestamp="2025-01-21T08:55:16Z" changeset="161591239" uid="7037" user="Gregory Williams">
    <nd ref="1681360957"/>
    <nd ref="769158948"/>
    <nd ref="1681360958"/>
    <tag k="highway" v="residential"/>
    <tag k="maxspeed" v="20 mph"/>
    <tag k="name" v="Jarvist Place"/>
    <tag k="source" v="OS_OpenData_StreetView"/>
  </way>
  <way id="155775675" version="6" timestamp="2025-01-21T08:55:16Z" changeset="161591239" uid="7037" user="Gregory Williams">
    <nd ref="1681360981"/>
    <nd ref="1681360980"/>
    <nd ref="2940657074"/>
    <nd ref="769158938"/>
    <tag k="highway" v="tertiary"/>
    <tag k="maxspeed" v="20 mph"/>
    <tag k="name" v="Kingsdown Road"/>
  </way>
  <way id="155775676" version="17" timestamp="2023-03-28T16:47:47Z" changeset="134228498" uid="4833194" user="motogs">
    <nd ref="9711497990"/>
    <nd ref="9711497991"/>
    <nd ref="9711497992"/>
    <nd ref="252689778"/>
    <nd ref="1181940951"/>
    <nd ref="1181940166"/>
    <nd ref="9084073614"/>
    <nd ref="1181939757"/>
    <nd ref="252688835"/>
    <nd ref="9084120336"/>
    <nd ref="8184524624"/>
    <nd ref="9084073616"/>
    <nd ref="252688119"/>
    <nd ref="10768910126"/>
    <nd ref="10768910127"/>
    <nd ref="10768910134"/>
    <nd ref="8868694536"/>
    <nd ref="252688020"/>
    <nd ref="8868694537"/>
    <nd ref="469802467"/>
    <nd ref="252689783"/>
    <nd ref="1181940676"/>
    <nd ref="252689784"/>
    <nd ref="252689785"/>
    <nd ref="1181940576"/>
    <nd ref="252689787"/>
    <nd ref="1181939942"/>
    <nd ref="252689788"/>
    <nd ref="252689789"/>
    <nd ref="252689790"/>
    <nd ref="252689791"/>
    <nd ref="252690161"/>
    <nd ref="252689792"/>
    <nd ref="977988779"/>
    <nd ref="255890742"/>
    <nd ref="10768698181"/>
    <nd ref="1181939823"/>
    <nd ref="255890745"/>
    <nd ref="913195772"/>
    <nd ref="255890747"/>
    <nd ref="8878457881"/>
    <nd ref="1793214941"/>
    <nd ref="255890757"/>
    <nd ref="255890763"/>
    <nd ref="1681360981"/>
    <tag k="cycleway:left" v="separate"/>
    <tag k="cycleway:right" v="no"/>
    <tag k="highway" v="tertiary"/>
    <tag k="maxspeed" v="40 mph"/>
    <tag k="name" v="Kingsdown Road"/>
    <tag k="surface" v="asphalt"/>
  </way>
  <way id="155775681" version="11" timestamp="2025-01-21T08:55:16Z" changeset="161591239" uid="7037" user="Gregory Williams">
    <nd ref="6947995456"/>
    <nd ref="27411885"/>
    <nd ref="27411886"/>
    <nd ref="1181941076"/>
    <nd ref="27411888"/>
    <nd ref="1181940179"/>
    <nd ref="27411889"/>
    <nd ref="27411891"/>
    <nd ref="769215874"/>
    <nd ref="1181940863"/>
    <nd ref="27411892"/>
    <tag k="highway" v="unclassified"/>
    <tag k="maxspeed" v="20 mph"/>
    <tag k="name" v="Undercliffe Road"/>
  </way>
  <way id="155775689" version="4" timestamp="2025-01-21T08:55:16Z" changeset="161591239" uid="7037" user="Gregory Williams">
    <nd ref="1681360962"/>
    <nd ref="1681360963"/>
    <nd ref="1681360964"/>
    <nd ref="1681360978"/>
    <tag k="highway" v="unclassified"/>
    <tag k="maxspeed" v="20 mph"/>
  </way>
  <way id="155775691" version="4" timestamp="2019-03-12T16:55:18Z" changeset="68070080" uid="8270424" user="theArchDruid">
    <nd ref="627875162"/>
    <nd ref="910369514"/>
    <nd ref="1681360955"/>
    <nd ref="627875174"/>
    <nd ref="1681360956"/>
    <tag k="access" v="destination"/>
    <tag k="highway" v="residential"/>
    <tag k="maxspeed" v="5 mph"/>
  </way>
  <way id="180216281" version="4" timestamp="2025-01-21T08:55:16Z" changeset="161591239" uid="7037" user="Gregory Williams">
    <nd ref="1906599052"/>
    <nd ref="1906599047"/>
    <nd ref="1906599041"/>
    <nd ref="1906599037"/>
    <tag k="highway" v="unclassified"/>
    <tag k="maxspeed" v="20 mph"/>
    <tag k="maxweight" v="7.5"/>
    <tag k="name" v="Glen Road"/>
  </way>
  <way id="180216283" version="12" timestamp="2025-01-21T08:55:16Z" changeset="161591239" uid="7037" user="Gregory Williams">
    <nd ref="12520155953"/>
    <nd ref="255890781"/>
    <nd ref="3978094527"/>
    <nd ref="1906599029"/>
    <nd ref="1906599030"/>
    <nd ref="255890782"/>
    <nd ref="255890783"/>
    <nd ref="1906599027"/>
    <nd ref="255890784"/>
    <nd ref="255890785"/>
    <nd ref="12163650842"/>
    <nd ref="1906599017"/>
    <nd ref="1906599013"/>
    <nd ref="1906599009"/>
    <nd ref="255890787"/>
    <nd ref="622516728"/>
    <nd ref="1906599007"/>
    <nd ref="8088086299"/>
    <nd ref="255890788"/>
    <nd ref="1906599011"/>
    <nd ref="255890789"/>
    <nd ref="255890790"/>
    <nd ref="11579659797"/>
    <nd ref="255890791"/>
    <nd ref="255890793"/>
    <nd ref="11579659794"/>
    <nd ref="339678847"/>
    <nd ref="12161589883"/>
    <nd ref="12068906548"/>
    <nd ref="255890794"/>
    <tag k="highway" v="unclassified"/>
    <tag k="maxspeed" v="50 mph"/>
    <tag k="maxweight" v="7.5"/>
  </way>
  <way id="182226687" version="4" timestamp="2024-09-07T09:30:59Z" changeset="156305033" uid="11471297" user="Palgrave Peter">
    <nd ref="1925694552"/>
    <nd ref="1925694554"/>
    <nd ref="339678811"/>
    <nd ref="282909099"/>
    <nd ref="282909100"/>
    <nd ref="12161589772"/>
    <nd ref="339678799"/>
    <nd ref="339678804"/>
    <nd ref="282909101"/>
    <tag k="highway" v="unclassified"/>
    <tag k="maxspeed" v="60 mph"/>
    <tag k="maxspeed:type" v="GB:nsl_single"/>
    <tag k="name" v="Sutton Lane"/>
  </way>
  <way id="351913694" version="3" timestamp="2024-09-07T09:30:59Z" changeset="156305033" uid="11471297" user="Palgrave Peter">
    <nd ref="3577170744"/>
    <nd ref="12161589884"/>
    <nd ref="3577170750"/>
    <nd ref="3577170749"/>
    <nd ref="3577170748"/>
    <nd ref="3577170747"/>
    <nd ref="3577170745"/>
    <nd ref="3577170746"/>
    <nd ref="3577170743"/>
    <nd ref="3577170744"/>
    <tag k="addr:city" v="Ringwould"/>
    <tag k="amenity" v="community_centre"/>
    <tag k="building" v="public"/>
    <tag k="community_centre" v="village_hall"/>
    <tag k="name" v="Ringwould Village Hall"/>
  </way>
  <way id="375824640" version="3" timestamp="2021-08-25T14:19:27Z" changeset="110236258" uid="242345" user="confusedbuffalo">
    <nd ref="3791645173"/>
    <nd ref="3791645051"/>
    <nd ref="3791645178"/>
    <nd ref="3791645196"/>
    <nd ref="3791645203"/>
    <nd ref="3791645173"/>
    <tag k="building" v="residential"/>
    <tag k="name" v="100"/>
    <tag k="operator" v="Kingsdown Holiday Park"/>
    <tag k="smoking" v="no"/>
    <tag k="tourism" v="chalet"/>
  </way>
  <way id="375824641" version="3" timestamp="2021-08-25T14:19:27Z" changeset="110236258" uid="242345" user="confusedbuffalo">
    <nd ref="3791645164"/>
    <nd ref="3791645038"/>
    <nd ref="3791645017"/>
    <nd ref="3791645043"/>
    <nd ref="3791645052"/>
    <nd ref="3791645164"/>
    <tag k="building" v="residential"/>
    <tag k="name" v="101"/>
    <tag k="operator" v="Kingsdown Holiday Park"/>
    <tag k="smoking" v="no"/>
    <tag k="tourism" v="chalet"/>
  </way>
  <way id="375824642" version="3" timestamp="2021-08-25T14:19:27Z" changeset="110236258" uid="242345" user="confusedbuffalo">
    <nd ref="3791645017"/>
    <nd ref="3791644991"/>
    <nd ref="3791645021"/>
    <nd ref="3791645036"/>
    <nd ref="3791645043"/>
    <nd ref="3791645017"/>
    <tag k="building" v="residential"/>
    <tag k="name" v="102"/>
    <tag k="operator" v="Kingsdown Holiday Park"/>
    <tag k="smoking" v="no"/>
    <tag k="tourism" v="chalet"/>
  </way>
  <way id="375824643" version="3" timestamp="2021-08-25T14:19:27Z" changeset="110236258" uid="242345" user="confusedbuffalo">
    <nd ref="3791645012"/>
    <nd ref="3791644971"/>
    <nd ref="3791644753"/>
    <nd ref="3791644995"/>
    <nd ref="3791645003"/>
    <nd ref="3791645012"/>
    <tag k="building" v="residential"/>
    <tag k="name" v="103"/>
    <tag k="operator" v="Kingsdown Holiday Park"/>
    <tag k="smoking" v="no"/>
    <tag k="tourism" v="chalet"/>
  </way>
  <way id="375824644" version="3" timestamp="2021-08-25T14:19:27Z" changeset="110236258" uid="242345" user="confusedbuffalo">
    <nd ref="3791644753"/>
    <nd ref="3791644735"/>
    <nd ref="3791644976"/>
    <nd ref="3791644989"/>
    <nd ref="3791644995"/>
    <nd ref="3791644753"/>
    <tag k="building" v="residential"/>
    <tag k="name" v="104"/>
    <tag k="operator" v="Kingsdown Holiday Park"/>
    <tag k="smoking" v="no"/>
    <tag k="tourism" v="chalet"/>
  </way>
  <way id="375824645" version="3" timestamp="2021-08-25T14:19:27Z" changeset="110236258" uid="242345" user="confusedbuffalo">
    <nd ref="3791644981"/>
    <nd ref="3791644745"/>
    <nd ref="3791644726"/>
    <nd ref="3791644962"/>
    <nd ref="3791644970"/>
    <nd ref="3791644981"/>
    <tag k="building" v="residential"/>
    <tag k="name" v="105"/>
    <tag k="operator" v="Kingsdown Holiday Park"/>
    <tag k="smoking" v="no"/>
    <tag k="tourism" v="chalet"/>
  </way>
  <way id="375824646" version="3" timestamp="2021-08-25T14:19:27Z" changeset="110236258" uid="242345" user="confusedbuffalo">
    <nd ref="3791644726"/>
    <nd ref="3791644707"/>
    <nd ref="3791644743"/>
    <nd ref="3791644756"/>
    <nd ref="3791644962"/>
    <nd ref="3791644726"/>
    <tag k="building" v="residential"/>
    <tag k="name" v="106"/>
    <tag k="operator" v="Kingsdown Holiday Park"/>
    <tag k="smoking" v="no"/>
    <tag k="tourism" v="chalet"/>
  </way>
  <way id="375824647" version="3" timestamp="2021-08-25T14:19:27Z" changeset="110236258" uid="242345" user="confusedbuffalo">
    <nd ref="3791644696"/>
    <nd ref="3791644687"/>
    <nd ref="3791644657"/>
    <nd ref="3791644672"/>
    <nd ref="3791644686"/>
    <nd ref="3791644696"/>
    <tag k="building" v="residential"/>
    <tag k="name" v="107"/>
    <tag k="operator" v="Kingsdown Holiday Park"/>
    <tag k="smoking" v="no"/>
    <tag k="tourism" v="chalet"/>
  </way>
  <way id="375824648" version="3" timestamp="2021-08-25T14:19:27Z" changeset="110236258" uid="242345" user="confusedbuffalo">
    <nd ref="3791644657"/>
    <nd ref="3791644533"/>
    <nd ref="3791644548"/>
    <nd ref="3791644665"/>
    <nd ref="3791644672"/>
    <nd ref="3791644657"/>
    <tag k="building" v="residential"/>
    <tag k="name" v="108"/>
    <tag k="operator" v="Kingsdown Holiday Park"/>
    <tag k="smoking" v="no"/>
    <tag k="tourism" v="chalet"/>
  </way>
  <way id="375824649" version="1" timestamp="2015-10-18T16:51:32Z" changeset="34715342" uid="251543" user="ChrissW-R1">
    <nd ref="3791644471"/>
    <nd ref="3791643538"/>
    <nd ref="3791643541"/>
    <nd ref="3791644482"/>
    <nd ref="3791644474"/>
    <nd ref="3791644471"/>
    <tag k="building" v="residential"/>
    <tag k="name" v="109 - Beach House"/>
    <tag k="operator" v="Kingsdown Holiday Park"/>
    <tag k="smoking" v="no"/>
    <tag k="tourism" v="chalet"/>
  </way>
  <way id="375824650" version="1" timestamp="2015-10-18T16:51:32Z" changeset="34715342" uid="251543" user="ChrissW-R1">
    <nd ref="3791646194"/>
    <nd ref="3791646195"/>
    <nd ref="3791646196"/>
    <nd ref="3791646205"/>
    <nd ref="3791646203"/>
    <nd ref="3791646194"/>
    <tag k="building" v="residential"/>
    <tag k="name" v="10"/>
    <tag k="operator" v="Kingsdown Holiday Park"/>
    <tag k="smoking" v="no"/>
    <tag k="tourism" v="chalet"/>
  </way>
  <way id="375824651" version="1" timestamp="2015-10-18T16:51:32Z" changeset="34715342" uid="251543" user="ChrissW-R1">
    <nd ref="3791643549"/>
    <nd ref="3791643539"/>
    <nd ref="3791644480"/>
    <nd ref="3791644484"/>
    <nd ref="3791644494"/>
    <nd ref="3791643549"/>
    <tag k="beds" v="6"/>
    <tag k="building" v="residential"/>
    <tag k="building:levels" v="2"/>
    <tag k="name" v="110"/>
    <tag k="operator" v="Kingsdown Holiday Park"/>
    <tag k="rooms" v="6"/>
    <tag k="smoking" v="no"/>
    <tag k="tourism" v="chalet"/>
    <tag k="wheelchair" v="no"/>
  </way>
  <way id="375824652" version="3" timestamp="2021-08-25T14:19:27Z" changeset="110236258" uid="242345" user="confusedbuffalo">
    <nd ref="3791644507"/>
    <nd ref="3791644460"/>
    <nd ref="3791643549"/>
    <nd ref="3791644494"/>
    <nd ref="3791644501"/>
    <nd ref="3791644507"/>
    <tag k="building" v="residential"/>
    <tag k="name" v="111"/>
    <tag k="operator" v="Kingsdown Holiday Park"/>
    <tag k="smoking" v="no"/>
    <tag k="tourism" v="chalet"/>
    <tag k="wheelchair" v="no"/>
  </way>
  <way id="375824653" version="3" timestamp="2021-08-25T14:19:27Z" changeset="110236258" uid="242345" user="confusedbuffalo">
    <nd ref="3791643554"/>
    <nd ref="3791643544"/>
    <nd ref="3791644477"/>
    <nd ref="3791644487"/>
    <nd ref="3791644491"/>
    <nd ref="3791643554"/>
    <tag k="building" v="residential"/>
    <tag k="name" v="112"/>
    <tag k="operator" v="Kingsdown Holiday Park"/>
    <tag k="smoking" v="no"/>
    <tag k="tourism" v="chalet"/>
  </way>
  <way id="375824654" version="3" timestamp="2021-08-25T14:19:27Z" changeset="110236258" uid="242345" user="confusedbuffalo">
    <nd ref="3791644506"/>
    <nd ref="3791644464"/>
    <nd ref="3791643554"/>
    <nd ref="3791644491"/>
    <nd ref="3791644498"/>
    <nd ref="3791644506"/>
    <tag k="building" v="residential"/>
    <tag k="name" v="113"/>
    <tag k="operator" v="Kingsdown Holiday Park"/>
    <tag k="smoking" v="no"/>
    <tag k="tourism" v="chalet"/>
  </way>
  <way id="375824655" version="1" timestamp="2015-10-18T16:51:32Z" changeset="34715342" uid="251543" user="ChrissW-R1">
    <nd ref="3791643552"/>
    <nd ref="3791643542"/>
    <nd ref="3791644475"/>
    <nd ref="3791644490"/>
    <nd ref="3791643552"/>
    <tag k="building" v="residential"/>
    <tag k="name" v="114"/>
    <tag k="operator" v="Kingsdown Holiday Park"/>
    <tag k="smoking" v="no"/>
    <tag k="tourism" v="chalet"/>
  </way>
  <way id="375824656" version="1" timestamp="2015-10-18T16:51:33Z" changeset="34715342" uid="251543" user="ChrissW-R1">
    <nd ref="3791644505"/>
    <nd ref="3791644462"/>
    <nd ref="3791643552"/>
    <nd ref="3791644490"/>
    <nd ref="3791644505"/>
    <tag k="building" v="residential"/>
    <tag k="name" v="115"/>
    <tag k="operator" v="Kingsdown Holiday Park"/>
    <tag k="smoking" v="no"/>
    <tag k="tourism" v="chalet"/>
  </way>
  <way id="375824657" version="1" timestamp="2015-10-18T16:51:33Z" changeset="34715342" uid="251543" user="ChrissW-R1">
    <nd ref="3791643550"/>
    <nd ref="3791643540"/>
    <nd ref="3791644478"/>
    <nd ref="3791644489"/>
    <nd ref="3791643550"/>
    <tag k="building" v="residential"/>
    <tag k="name" v="116"/>
    <tag k="operator" v="Kingsdown Holiday Park"/>
    <tag k="smoking" v="no"/>
    <tag k="tourism" v="chalet"/>
  </way>
  <way id="375824658" version="1" timestamp="2015-10-18T16:51:33Z" changeset="34715342" uid="251543" user="ChrissW-R1">
    <nd ref="3791644502"/>
    <nd ref="3791644459"/>
    <nd ref="3791643550"/>
    <nd ref="3791644489"/>
    <nd ref="3791644502"/>
    <tag k="building" v="residential"/>
    <tag k="name" v="117"/>
    <tag k="operator" v="Kingsdown Holiday Park"/>
    <tag k="smoking" v="no"/>
    <tag k="tourism" v="chalet"/>
  </way>
  <way id="375824661" version="1" timestamp="2015-10-18T16:51:33Z" changeset="34715342" uid="251543" user="ChrissW-R1">
    <nd ref="3791643553"/>
    <nd ref="3791643545"/>
    <nd ref="3791644479"/>
    <nd ref="3791644488"/>
    <nd ref="3791643553"/>
    <tag k="building" v="residential"/>
    <tag k="name" v="118"/>
    <tag k="operator" v="Kingsdown Holiday Park"/>
    <tag k="smoking" v="no"/>
    <tag k="tourism" v="chalet"/>
  </way>
  <way id="375824663" version="1" timestamp="2015-10-18T16:51:33Z" changeset="34715342" uid="251543" user="ChrissW-R1">
    <nd ref="3791644499"/>
    <nd ref="3791644461"/>
    <nd ref="3791643553"/>
    <nd ref="3791644488"/>
    <nd ref="3791644499"/>
    <tag k="building" v="residential"/>
    <tag k="name" v="119"/>
    <tag k="operator" v="Kingsdown Holiday Park"/>
    <tag k="smoking" v="no"/>
    <tag k="tourism" v="chalet"/>
  </way>
  <way id="375824666" version="1" timestamp="2015-10-18T16:51:33Z" changeset="34715342" uid="251543" user="ChrissW-R1">
    <nd ref="3791646204"/>
    <nd ref="3791646198"/>
    <nd ref="3791646193"/>
    <nd ref="3791646190"/>
    <nd ref="3791646201"/>
    <nd ref="3791646204"/>
    <tag k="building" v="residential"/>
    <tag k="name" v="11"/>
    <tag k="operator" v="Kingsdown Holiday Park"/>
    <tag k="smoking" v="no"/>
    <tag k="tourism" v="chalet"/>
  </way>
  <way id="375824668" version="1" timestamp="2015-10-18T16:51:33Z" changeset="34715342" uid="251543" user="ChrissW-R1">
    <nd ref="3791643547"/>
    <nd ref="3791643534"/>
    <nd ref="3791644457"/>
    <nd ref="3791644469"/>
    <nd ref="3791643547"/>
    <tag k="building" v="residential"/>
    <tag k="name" v="120"/>
    <tag k="operator" v="Kingsdown Holiday Park"/>
    <tag k="smoking" v="no"/>
    <tag k="tourism" v="chalet"/>
  </way>
  <way id="375824673" version="1" timestamp="2015-10-18T16:51:33Z" changeset="34715342" uid="251543" user="ChrissW-R1">
    <nd ref="3791644495"/>
    <nd ref="3791644465"/>
    <nd ref="3791643547"/>
    <nd ref="3791644469"/>
    <nd ref="3791644495"/>
    <tag k="building" v="residential"/>
    <tag k="name" v="121"/>
    <tag k="operator" v="Kingsdown Holiday Park"/>
    <tag k="smoking" v="no"/>
    <tag k="tourism" v="chalet"/>
  </way>
  <way id="375824675" version="1" timestamp="2015-10-18T16:51:34Z" changeset="34715342" uid="251543" user="ChrissW-R1">
    <nd ref="3791644523"/>
    <nd ref="3791644512"/>
    <nd ref="3791644473"/>
    <nd ref="3791644497"/>
    <nd ref="3791644523"/>
    <tag k="building" v="residential"/>
    <tag k="name" v="122"/>
    <tag k="operator" v="Kingsdown Holiday Park"/>
    <tag k="smoking" v="no"/>
    <tag k="tourism" v="chalet"/>
  </way>
  <way id="375824678" version="1" timestamp="2015-10-18T16:51:34Z" changeset="34715342" uid="251543" user="ChrissW-R1">
    <nd ref="3791644693"/>
    <nd ref="3791644667"/>
    <nd ref="3791644682"/>
    <nd ref="3791644701"/>
    <nd ref="3791644708"/>
    <nd ref="3791644693"/>
    <tag k="building" v="residential"/>
    <tag k="name" v="123"/>
    <tag k="operator" v="Kingsdown Holiday Park"/>
    <tag k="smoking" v="no"/>
    <tag k="tourism" v="chalet"/>
  </way>
  <way id="375824681" version="1" timestamp="2015-10-18T16:51:34Z" changeset="34715342" uid="251543" user="ChrissW-R1">
    <nd ref="3791644734"/>
    <nd ref="3791644717"/>
    <nd ref="3791644693"/>
    <nd ref="3791644708"/>
    <nd ref="3791644716"/>
    <nd ref="3791644734"/>
    <tag k="building" v="residential"/>
    <tag k="name" v="124"/>
    <tag k="operator" v="Kingsdown Holiday Park"/>
    <tag k="smoking" v="no"/>
    <tag k="tourism" v="chalet"/>
  </way>
  <way id="375824684" version="1" timestamp="2015-10-18T16:51:34Z" changeset="34715342" uid="251543" user="ChrissW-R1">
    <nd ref="3791644994"/>
    <nd ref="3791644979"/>
    <nd ref="3791644742"/>
    <nd ref="3791644957"/>
    <nd ref="3791644973"/>
    <nd ref="3791644994"/>
    <tag k="building" v="residential"/>
    <tag k="name" v="125"/>
    <tag k="operator" v="Kingsdown Holiday Park"/>
    <tag k="smoking" v="no"/>
    <tag k="tourism" v="chalet"/>
  </way>
  <way id="375824686" version="1" timestamp="2015-10-18T16:51:34Z" changeset="34715342" uid="251543" user="ChrissW-R1">
    <nd ref="3791644959"/>
    <nd ref="3791644736"/>
    <nd ref="3791644969"/>
    <nd ref="3791644985"/>
    <nd ref="3791644992"/>
    <nd ref="3791644959"/>
    <tag k="building" v="residential"/>
    <tag k="name" v="126"/>
    <tag k="operator" v="Kingsdown Holiday Park"/>
    <tag k="smoking" v="no"/>
    <tag k="tourism" v="chalet"/>
  </way>
  <way id="375824689" version="1" timestamp="2015-10-18T16:51:34Z" changeset="34715342" uid="251543" user="ChrissW-R1">
    <nd ref="3791645013"/>
    <nd ref="3791644980"/>
    <nd ref="3791644959"/>
    <nd ref="3791644992"/>
    <nd ref="3791645002"/>
    <nd ref="3791645013"/>
    <tag k="building" v="residential"/>
    <tag k="name" v="127"/>
    <tag k="operator" v="Kingsdown Holiday Park"/>
    <tag k="smoking" v="no"/>
    <tag k="tourism" v="chalet"/>
  </way>
  <way id="375824691" version="1" timestamp="2015-10-18T16:51:34Z" changeset="34715342" uid="251543" user="ChrissW-R1">
    <nd ref="3791645166"/>
    <nd ref="3791645041"/>
    <nd ref="3791645049"/>
    <nd ref="3791645159"/>
    <nd ref="3791645172"/>
    <nd ref="3791645166"/>
    <tag k="building" v="residential"/>
    <tag k="name" v="128"/>
    <tag k="operator" v="Kingsdown Holiday Park"/>
    <tag k="smoking" v="no"/>
    <tag k="tourism" v="chalet"/>
  </way>
  <way id="375824693" version="1" timestamp="2015-10-18T16:51:34Z" changeset="34715342" uid="251543" user="ChrissW-R1">
    <nd ref="3791645201"/>
    <nd ref="3791645193"/>
    <nd ref="3791645166"/>
    <nd ref="3791645172"/>
    <nd ref="3791645185"/>
    <nd ref="3791645201"/>
    <tag k="building" v="residential"/>
    <tag k="name" v="129"/>
    <tag k="operator" v="Kingsdown Holiday Park"/>
    <tag k="smoking" v="no"/>
    <tag k="tourism" v="chalet"/>
  </way>
  <way id="375824696" version="1" timestamp="2015-10-18T16:51:34Z" changeset="34715342" uid="251543" user="ChrissW-R1">
    <nd ref="3791646190"/>
    <nd ref="3791646189"/>
    <nd ref="3791646186"/>
    <nd ref="3791646199"/>
    <nd ref="3791646201"/>
    <nd ref="3791646190"/>
    <tag k="building" v="residential"/>
    <tag k="name" v="12"/>
    <tag k="operator" v="Kingsdown Holiday Park"/>
    <tag k="smoking" v="no"/>
    <tag k="tourism" v="chalet"/>
  </way>
  <way id="375824699" version="1" timestamp="2015-10-18T16:51:35Z" changeset="34715342" uid="251543" user="ChrissW-R1">
    <nd ref="3791645237"/>
    <nd ref="3791645208"/>
    <nd ref="3791645220"/>
    <nd ref="3791645236"/>
    <nd ref="3791645247"/>
    <nd ref="3791645237"/>
    <tag k="building" v="residential"/>
    <tag k="name" v="130"/>
    <tag k="operator" v="Kingsdown Holiday Park"/>
    <tag k="smoking" v="no"/>
    <tag k="tourism" v="chalet"/>
  </way>
  <way id="375824702" version="1" timestamp="2015-10-18T16:51:35Z" changeset="34715342" uid="251543" user="ChrissW-R1">
    <nd ref="3791645371"/>
    <nd ref="3791645363"/>
    <nd ref="3791645237"/>
    <nd ref="3791645247"/>
    <nd ref="3791645359"/>
    <nd ref="3791645371"/>
    <tag k="building" v="residential"/>
    <tag k="name" v="131"/>
    <tag k="operator" v="Kingsdown Holiday Park"/>
    <tag k="smoking" v="no"/>
    <tag k="tourism" v="chalet"/>
  </way>
  <way id="375824704" version="1" timestamp="2015-10-18T16:51:35Z" changeset="34715342" uid="251543" user="ChrissW-R1">
    <nd ref="3791645411"/>
    <nd ref="3791645391"/>
    <nd ref="3791645392"/>
    <nd ref="3791645402"/>
    <nd ref="3791645412"/>
    <nd ref="3791645411"/>
    <tag k="building" v="residential"/>
    <tag k="name" v="132"/>
    <tag k="operator" v="Kingsdown Holiday Park"/>
    <tag k="smoking" v="no"/>
    <tag k="tourism" v="chalet"/>
  </way>
  <way id="375824707" version="1" timestamp="2015-10-18T16:51:35Z" changeset="34715342" uid="251543" user="ChrissW-R1">
    <nd ref="3791645436"/>
    <nd ref="3791645435"/>
    <nd ref="3791645411"/>
    <nd ref="3791645412"/>
    <nd ref="3791645421"/>
    <nd ref="3791645436"/>
    <tag k="building" v="residential"/>
    <tag k="name" v="133"/>
    <tag k="operator" v="Kingsdown Holiday Park"/>
    <tag k="smoking" v="no"/>
    <tag k="tourism" v="chalet"/>
  </way>
  <way id="375824709" version="1" timestamp="2015-10-18T16:51:35Z" changeset="34715342" uid="251543" user="ChrissW-R1">
    <nd ref="3791645585"/>
    <nd ref="3791645561"/>
    <nd ref="3791645564"/>
    <nd ref="3791645579"/>
    <nd ref="3791645590"/>
    <nd ref="3791645585"/>
    <tag k="building" v="residential"/>
    <tag k="name" v="134"/>
    <tag k="operator" v="Kingsdown Holiday Park"/>
    <tag k="smoking" v="no"/>
    <tag k="tourism" v="chalet"/>
  </way>
  <way id="375824711" version="1" timestamp="2015-10-18T16:51:35Z" changeset="34715342" uid="251543" user="ChrissW-R1">
    <nd ref="3791645619"/>
    <nd ref="3791645617"/>
    <nd ref="3791645585"/>
    <nd ref="3791645590"/>
    <nd ref="3791645598"/>
    <nd ref="3791645619"/>
    <tag k="building" v="residential"/>
    <tag k="name" v="135"/>
    <tag k="operator" v="Kingsdown Holiday Park"/>
    <tag k="smoking" v="no"/>
    <tag k="tourism" v="chalet"/>
  </way>
  <way id="375824714" version="1" timestamp="2015-10-18T16:51:35Z" changeset="34715342" uid="251543" user="ChrissW-R1">
    <nd ref="3791645789"/>
    <nd ref="3791645762"/>
    <nd ref="3791645642"/>
    <nd ref="3791645655"/>
    <nd ref="3791645765"/>
    <nd ref="3791645789"/>
    <tag k="building" v="residential"/>
    <tag k="name" v="136"/>
    <tag k="operator" v="Kingsdown Holiday Park"/>
    <tag k="smoking" v="no"/>
    <tag k="tourism" v="chalet"/>
  </way>
  <way id="375824716" version="1" timestamp="2015-10-18T16:51:35Z" changeset="34715342" uid="251543" user="ChrissW-R1">
    <nd ref="3791645807"/>
    <nd ref="3791645789"/>
    <nd ref="3791645765"/>
    <nd ref="3791645776"/>
    <nd ref="3791645791"/>
    <nd ref="3791645807"/>
    <tag k="building" v="residential"/>
    <tag k="name" v="137"/>
    <tag k="operator" v="Kingsdown Holiday Park"/>
    <tag k="smoking" v="no"/>
    <tag k="tourism" v="chalet"/>
  </way>
  <way id="375824719" version="1" timestamp="2015-10-18T16:51:35Z" changeset="34715342" uid="251543" user="ChrissW-R1">
    <nd ref="3791645840"/>
    <nd ref="3791645825"/>
    <nd ref="3791645798"/>
    <nd ref="3791645803"/>
    <nd ref="3791645808"/>
    <nd ref="3791645840"/>
    <tag k="building" v="residential"/>
    <tag k="name" v="138"/>
    <tag k="operator" v="Kingsdown Holiday Park"/>
    <tag k="smoking" v="no"/>
    <tag k="tourism" v="chalet"/>
  </way>
  <way id="375824721" version="1" timestamp="2015-10-18T16:51:36Z" changeset="34715342" uid="251543" user="ChrissW-R1">
    <nd ref="3791645852"/>
    <nd ref="3791645840"/>
    <nd ref="3791645808"/>
    <nd ref="3791645820"/>
    <nd ref="3791645831"/>
    <nd ref="3791645852"/>
    <tag k="building" v="residential"/>
    <tag k="name" v="139"/>
    <tag k="operator" v="Kingsdown Holiday Park"/>
    <tag k="smoking" v="no"/>
    <tag k="tourism" v="chalet"/>
  </way>
  <way id="375824724" version="1" timestamp="2015-10-18T16:51:36Z" changeset="34715342" uid="251543" user="ChrissW-R1">
    <nd ref="3791646185"/>
    <nd ref="3791646174"/>
    <nd ref="3791646169"/>
    <nd ref="3791646160"/>
    <nd ref="3791646167"/>
    <nd ref="3791646185"/>
    <tag k="building" v="residential"/>
    <tag k="name" v="13"/>
    <tag k="operator" v="Kingsdown Holiday Park"/>
    <tag k="smoking" v="no"/>
    <tag k="tourism" v="chalet"/>
  </way>
  <way id="375824726" version="1" timestamp="2015-10-18T16:51:36Z" changeset="34715342" uid="251543" user="ChrissW-R1">
    <nd ref="3791645853"/>
    <nd ref="3791645848"/>
    <nd ref="3791645814"/>
    <nd ref="3791645819"/>
    <nd ref="3791645822"/>
    <nd ref="3791645853"/>
    <tag k="building" v="residential"/>
    <tag k="name" v="140"/>
    <tag k="operator" v="Kingsdown Holiday Park"/>
    <tag k="smoking" v="no"/>
    <tag k="tourism" v="chalet"/>
  </way>
  <way id="375824728" version="1" timestamp="2015-10-18T16:51:36Z" changeset="34715342" uid="251543" user="ChrissW-R1">
    <nd ref="3791645958"/>
    <nd ref="3791645853"/>
    <nd ref="3791645822"/>
    <nd ref="3791645826"/>
    <nd ref="3791645833"/>
    <nd ref="3791645958"/>
    <tag k="building" v="residential"/>
    <tag k="name" v="141"/>
    <tag k="operator" v="Kingsdown Holiday Park"/>
    <tag k="smoking" v="no"/>
    <tag k="tourism" v="chalet"/>
  </way>
  <way id="375824731" version="1" timestamp="2015-10-18T16:51:36Z" changeset="34715342" uid="251543" user="ChrissW-R1">
    <nd ref="3791645982"/>
    <nd ref="3791645976"/>
    <nd ref="3791645849"/>
    <nd ref="3791645856"/>
    <nd ref="3791645982"/>
    <tag k="building" v="residential"/>
    <tag k="name" v="142"/>
    <tag k="operator" v="Kingsdown Holiday Park"/>
    <tag k="smoking" v="no"/>
    <tag k="tourism" v="chalet"/>
  </way>
  <way id="375824733" version="1" timestamp="2015-10-18T16:51:36Z" changeset="34715342" uid="251543" user="ChrissW-R1">
    <nd ref="3791645998"/>
    <nd ref="3791645988"/>
    <nd ref="3791645963"/>
    <nd ref="3791645972"/>
    <nd ref="3791645998"/>
    <tag k="building" v="residential"/>
    <tag k="name" v="143"/>
    <tag k="operator" v="Kingsdown Holiday Park"/>
    <tag k="smoking" v="no"/>
    <tag k="tourism" v="chalet"/>
  </way>
  <way id="375824735" version="1" timestamp="2015-10-18T16:51:36Z" changeset="34715342" uid="251543" user="ChrissW-R1">
    <nd ref="3791646003"/>
    <nd ref="3791645993"/>
    <nd ref="3791645965"/>
    <nd ref="3791645974"/>
    <nd ref="3791646003"/>
    <tag k="building" v="residential"/>
    <tag k="name" v="144"/>
    <tag k="operator" v="Kingsdown Holiday Park"/>
    <tag k="smoking" v="no"/>
    <tag k="tourism" v="chalet"/>
  </way>
  <way id="375824737" version="1" timestamp="2015-10-18T16:51:36Z" changeset="34715342" uid="251543" user="ChrissW-R1">
    <nd ref="3791646010"/>
    <nd ref="3791646003"/>
    <nd ref="3791645974"/>
    <nd ref="3791645979"/>
    <nd ref="3791646010"/>
    <tag k="building" v="residential"/>
    <tag k="name" v="145"/>
    <tag k="operator" v="Kingsdown Holiday Park"/>
    <tag k="smoking" v="no"/>
    <tag k="tourism" v="chalet"/>
  </way>
  <way id="375824740" version="1" timestamp="2015-10-18T16:51:37Z" changeset="34715342" uid="251543" user="ChrissW-R1">
    <nd ref="3791646168"/>
    <nd ref="3791646162"/>
    <nd ref="3791646056"/>
    <nd ref="3791646054"/>
    <nd ref="3791646159"/>
    <nd ref="3791646168"/>
    <tag k="building" v="residential"/>
    <tag k="name" v="14"/>
    <tag k="operator" v="Kingsdown Holiday Park"/>
    <tag k="smoking" v="no"/>
    <tag k="tourism" v="chalet"/>
  </way>
  <way id="375824743" version="1" timestamp="2015-10-18T16:51:37Z" changeset="34715342" uid="251543" user="ChrissW-R1">
    <nd ref="3791646054"/>
    <nd ref="3791646051"/>
    <nd ref="3791646050"/>
    <nd ref="3791646052"/>
    <nd ref="3791646159"/>
    <nd ref="3791646054"/>
    <tag k="building" v="residential"/>
    <tag k="name" v="15"/>
    <tag k="operator" v="Kingsdown Holiday Park"/>
    <tag k="smoking" v="no"/>
    <tag k="tourism" v="chalet"/>
  </way>
  <way id="375824746" version="1" timestamp="2015-10-18T16:51:37Z" changeset="34715342" uid="251543" user="ChrissW-R1">
    <nd ref="3791646043"/>
    <nd ref="3791646038"/>
    <nd ref="3791646034"/>
    <nd ref="3791646032"/>
    <nd ref="3791646040"/>
    <nd ref="3791646043"/>
    <tag k="building" v="residential"/>
    <tag k="name" v="16"/>
    <tag k="operator" v="Kingsdown Holiday Park"/>
    <tag k="smoking" v="no"/>
    <tag k="tourism" v="chalet"/>
  </way>
  <way id="375824749" version="1" timestamp="2015-10-18T16:51:37Z" changeset="34715342" uid="251543" user="ChrissW-R1">
    <nd ref="3791646034"/>
    <nd ref="3791646031"/>
    <nd ref="3791646025"/>
    <nd ref="3791646021"/>
    <nd ref="3791646032"/>
    <nd ref="3791646034"/>
    <tag k="building" v="residential"/>
    <tag k="name" v="17"/>
    <tag k="operator" v="Kingsdown Holiday Park"/>
    <tag k="smoking" v="no"/>
    <tag k="tourism" v="chalet"/>
  </way>
  <way id="375824752" version="1" timestamp="2015-10-18T16:51:37Z" changeset="34715342" uid="251543" user="ChrissW-R1">
    <nd ref="3791646013"/>
    <nd ref="3791646006"/>
    <nd ref="3791645996"/>
    <nd ref="3791645987"/>
    <nd ref="3791646004"/>
    <nd ref="3791646013"/>
    <tag k="building" v="residential"/>
    <tag k="name" v="18"/>
    <tag k="operator" v="Kingsdown Holiday Park"/>
    <tag k="smoking" v="no"/>
    <tag k="tourism" v="chalet"/>
  </way>
  <way id="375824755" version="1" timestamp="2015-10-18T16:51:37Z" changeset="34715342" uid="251543" user="ChrissW-R1">
    <nd ref="3791645996"/>
    <nd ref="3791645989"/>
    <nd ref="3791645981"/>
    <nd ref="3791645975"/>
    <nd ref="3791645987"/>
    <nd ref="3791645996"/>
    <tag k="building" v="residential"/>
    <tag k="name" v="19"/>
    <tag k="operator" v="Kingsdown Holiday Park"/>
    <tag k="smoking" v="no"/>
    <tag k="tourism" v="chalet"/>
  </way>
  <way id="375824758" version="1" timestamp="2015-10-18T16:51:37Z" changeset="34715342" uid="251543" user="ChrissW-R1">
    <nd ref="3791645837"/>
    <nd ref="3791645834"/>
    <nd ref="3791645961"/>
    <nd ref="3791645964"/>
    <nd ref="3791645837"/>
    <tag k="building" v="residential"/>
    <tag k="name" v="1A"/>
    <tag k="operator" v="Kingsdown Holiday Park"/>
    <tag k="smoking" v="no"/>
    <tag k="tourism" v="chalet"/>
  </way>
  <way id="375824761" version="1" timestamp="2015-10-18T16:51:37Z" changeset="34715342" uid="251543" user="ChrissW-R1">
    <nd ref="3791645970"/>
    <nd ref="3791645842"/>
    <nd ref="3791645837"/>
    <nd ref="3791645964"/>
    <nd ref="3791645970"/>
    <tag k="building" v="residential"/>
    <tag k="name" v="1B"/>
    <tag k="operator" v="Kingsdown Holiday Park"/>
    <tag k="smoking" v="no"/>
    <tag k="tourism" v="chalet"/>
  </way>
  <way id="375824764" version="1" timestamp="2015-10-18T16:51:37Z" changeset="34715342" uid="251543" user="ChrissW-R1">
    <nd ref="3791645971"/>
    <nd ref="3791645960"/>
    <nd ref="3791645984"/>
    <nd ref="3791645992"/>
    <nd ref="3791645994"/>
    <nd ref="3791645971"/>
    <tag k="building" v="residential"/>
    <tag k="name" v="1C"/>
    <tag k="operator" v="Kingsdown Holiday Park"/>
    <tag k="smoking" v="no"/>
    <tag k="tourism" v="chalet"/>
  </way>
  <way id="375824767" version="1" timestamp="2015-10-18T16:51:38Z" changeset="34715342" uid="251543" user="ChrissW-R1">
    <nd ref="3791646008"/>
    <nd ref="3791645980"/>
    <nd ref="3791645971"/>
    <nd ref="3791645994"/>
    <nd ref="3791646001"/>
    <nd ref="3791646008"/>
    <tag k="building" v="residential"/>
    <tag k="name" v="1D"/>
    <tag k="operator" v="Kingsdown Holiday Park"/>
    <tag k="smoking" v="no"/>
    <tag k="tourism" v="chalet"/>
  </way>
  <way id="375824770" version="1" timestamp="2015-10-18T16:51:38Z" changeset="34715342" uid="251543" user="ChrissW-R1">
    <nd ref="3791645999"/>
    <nd ref="3791645985"/>
    <nd ref="3791646015"/>
    <nd ref="3791646022"/>
    <nd ref="3791645999"/>
    <tag k="building" v="residential"/>
    <tag k="name" v="1"/>
    <tag k="operator" v="Kingsdown Holiday Park"/>
    <tag k="smoking" v="no"/>
    <tag k="tourism" v="chalet"/>
  </way>
  <way id="375824773" version="1" timestamp="2015-10-18T16:51:38Z" changeset="34715342" uid="251543" user="ChrissW-R1">
    <nd ref="3791645606"/>
    <nd ref="3791645602"/>
    <nd ref="3791645449"/>
    <nd ref="3791645452"/>
    <nd ref="3791645454"/>
    <nd ref="3791645606"/>
    <tag k="building" v="residential"/>
    <tag k="name" v="20"/>
    <tag k="operator" v="Kingsdown Holiday Park"/>
    <tag k="smoking" v="no"/>
    <tag k="tourism" v="chalet"/>
  </way>
  <way id="375824775" version="1" timestamp="2015-10-18T16:51:38Z" changeset="34715342" uid="251543" user="ChrissW-R1">
    <nd ref="3791645611"/>
    <nd ref="3791645606"/>
    <nd ref="3791645454"/>
    <nd ref="3791645455"/>
    <nd ref="3791645456"/>
    <nd ref="3791645611"/>
    <tag k="building" v="residential"/>
    <tag k="name" v="21"/>
    <tag k="operator" v="Kingsdown Holiday Park"/>
    <tag k="smoking" v="no"/>
    <tag k="tourism" v="chalet"/>
  </way>
  <way id="375824779" version="1" timestamp="2015-10-18T16:51:38Z" changeset="34715342" uid="251543" user="ChrissW-R1">
    <nd ref="3791645610"/>
    <nd ref="3791645571"/>
    <nd ref="3791645563"/>
    <nd ref="3791645451"/>
    <nd ref="3791645591"/>
    <nd ref="3791645610"/>
    <tag k="building" v="residential"/>
    <tag k="name" v="22"/>
    <tag k="operator" v="Kingsdown Holiday Park"/>
    <tag k="smoking" v="no"/>
    <tag k="tourism" v="chalet"/>
  </way>
  <way id="375824782" version="1" timestamp="2015-10-18T16:51:38Z" changeset="34715342" uid="251543" user="ChrissW-R1">
    <nd ref="3791645451"/>
    <nd ref="3791645446"/>
    <nd ref="3791645433"/>
    <nd ref="3791645575"/>
    <nd ref="3791645591"/>
    <nd ref="3791645451"/>
    <tag k="building" v="residential"/>
    <tag k="name" v="23"/>
    <tag k="operator" v="Kingsdown Holiday Park"/>
    <tag k="smoking" v="no"/>
    <tag k="tourism" v="chalet"/>
  </way>
  <way id="375824785" version="1" timestamp="2015-10-18T16:51:38Z" changeset="34715342" uid="251543" user="ChrissW-R1">
    <nd ref="3791645439"/>
    <nd ref="3791645416"/>
    <nd ref="3791645407"/>
    <nd ref="3791645396"/>
    <nd ref="3791645410"/>
    <nd ref="3791645439"/>
    <tag k="building" v="residential"/>
    <tag k="name" v="24"/>
    <tag k="operator" v="Kingsdown Holiday Park"/>
    <tag k="smoking" v="no"/>
    <tag k="tourism" v="chalet"/>
  </way>
  <way id="375824786" version="1" timestamp="2015-10-18T16:51:38Z" changeset="34715342" uid="251543" user="ChrissW-R1">
    <nd ref="3791645396"/>
    <nd ref="3791645389"/>
    <nd ref="3791645375"/>
    <nd ref="3791645390"/>
    <nd ref="3791645410"/>
    <nd ref="3791645396"/>
    <tag k="building" v="residential"/>
    <tag k="name" v="25"/>
    <tag k="operator" v="Kingsdown Holiday Park"/>
    <tag k="smoking" v="no"/>
    <tag k="tourism" v="chalet"/>
  </way>
  <way id="375824787" version="1" timestamp="2015-10-18T16:51:38Z" changeset="34715342" uid="251543" user="ChrissW-R1">
    <nd ref="3791645376"/>
    <nd ref="3791645256"/>
    <nd ref="3791645231"/>
    <nd ref="3791645251"/>
    <nd ref="3791645376"/>
    <tag k="building" v="residential"/>
    <tag k="name" v="26"/>
    <tag k="operator" v="Kingsdown Holiday Park"/>
    <tag k="smoking" v="no"/>
    <tag k="tourism" v="chalet"/>
  </way>
  <way id="375824790" version="1" timestamp="2015-10-18T16:51:39Z" changeset="34715342" uid="251543" user="ChrissW-R1">
    <nd ref="3791645231"/>
    <nd ref="3791645198"/>
    <nd ref="3791645219"/>
    <nd ref="3791645251"/>
    <nd ref="3791645231"/>
    <tag k="building" v="residential"/>
    <tag k="name" v="27"/>
    <tag k="operator" v="Kingsdown Holiday Park"/>
    <tag k="smoking" v="no"/>
    <tag k="tourism" v="chalet"/>
  </way>
  <way id="375824793" version="1" timestamp="2015-10-18T16:51:39Z" changeset="34715342" uid="251543" user="ChrissW-R1">
    <nd ref="3791645206"/>
    <nd ref="3791645189"/>
    <nd ref="3791645175"/>
    <nd ref="3791645162"/>
    <nd ref="3791645181"/>
    <nd ref="3791645206"/>
    <tag k="building" v="residential"/>
    <tag k="name" v="28"/>
    <tag k="operator" v="Kingsdown Holiday Park"/>
    <tag k="smoking" v="no"/>
    <tag k="tourism" v="chalet"/>
  </way>
  <way id="375824796" version="1" timestamp="2015-10-18T16:51:39Z" changeset="34715342" uid="251543" user="ChrissW-R1">
    <nd ref="3791645162"/>
    <nd ref="3791645054"/>
    <nd ref="3791645042"/>
    <nd ref="3791645056"/>
    <nd ref="3791645181"/>
    <nd ref="3791645162"/>
    <tag k="building" v="residential"/>
    <tag k="name" v="29"/>
    <tag k="operator" v="Kingsdown Holiday Park"/>
    <tag k="smoking" v="no"/>
    <tag k="tourism" v="chalet"/>
  </way>
  <way id="375824799" version="1" timestamp="2015-10-18T16:51:39Z" changeset="34715342" uid="251543" user="ChrissW-R1">
    <nd ref="3791646027"/>
    <nd ref="3791646011"/>
    <nd ref="3791645999"/>
    <nd ref="3791646022"/>
    <nd ref="3791646027"/>
    <tag k="building" v="residential"/>
    <tag k="name" v="2"/>
    <tag k="operator" v="Kingsdown Holiday Park"/>
    <tag k="smoking" v="no"/>
    <tag k="tourism" v="chalet"/>
  </way>
  <way id="375824801" version="1" timestamp="2015-10-18T16:51:39Z" changeset="34715342" uid="251543" user="ChrissW-R1">
    <nd ref="3791645034"/>
    <nd ref="3791645024"/>
    <nd ref="3791645007"/>
    <nd ref="3791644993"/>
    <nd ref="3791645004"/>
    <nd ref="3791645034"/>
    <tag k="building" v="residential"/>
    <tag k="name" v="30"/>
    <tag k="operator" v="Kingsdown Holiday Park"/>
    <tag k="smoking" v="no"/>
    <tag k="tourism" v="chalet"/>
  </way>
  <way id="375824804" version="1" timestamp="2015-10-18T16:51:39Z" changeset="34715342" uid="251543" user="ChrissW-R1">
    <nd ref="3791644993"/>
    <nd ref="3791644984"/>
    <nd ref="3791644958"/>
    <nd ref="3791644967"/>
    <nd ref="3791645004"/>
    <nd ref="3791644993"/>
    <tag k="building" v="residential"/>
    <tag k="name" v="31"/>
    <tag k="operator" v="Kingsdown Holiday Park"/>
    <tag k="smoking" v="no"/>
    <tag k="tourism" v="chalet"/>
  </way>
  <way id="375824805" version="1" timestamp="2015-10-18T16:51:39Z" changeset="34715342" uid="251543" user="ChrissW-R1">
    <nd ref="3791644754"/>
    <nd ref="3791644741"/>
    <nd ref="3791644727"/>
    <nd ref="3791644718"/>
    <nd ref="3791644749"/>
    <nd ref="3791644754"/>
    <tag k="building" v="residential"/>
    <tag k="name" v="32"/>
    <tag k="operator" v="Kingsdown Holiday Park"/>
    <tag k="smoking" v="no"/>
    <tag k="tourism" v="chalet"/>
  </way>
  <way id="375824806" version="1" timestamp="2015-10-18T16:51:39Z" changeset="34715342" uid="251543" user="ChrissW-R1">
    <nd ref="3791644727"/>
    <nd ref="3791644715"/>
    <nd ref="3791644700"/>
    <nd ref="3791644694"/>
    <nd ref="3791644718"/>
    <nd ref="3791644727"/>
    <tag k="building" v="residential"/>
    <tag k="name" v="33"/>
    <tag k="operator" v="Kingsdown Holiday Park"/>
    <tag k="smoking" v="no"/>
    <tag k="tourism" v="chalet"/>
  </way>
  <way id="375824807" version="1" timestamp="2015-10-18T16:51:40Z" changeset="34715342" uid="251543" user="ChrissW-R1">
    <nd ref="3791644689"/>
    <nd ref="3791644670"/>
    <nd ref="3791644551"/>
    <nd ref="3791644543"/>
    <nd ref="3791644678"/>
    <nd ref="3791644689"/>
    <tag k="building" v="residential"/>
    <tag k="name" v="34"/>
    <tag k="operator" v="Kingsdown Holiday Park"/>
    <tag k="smoking" v="no"/>
    <tag k="tourism" v="chalet"/>
  </way>
  <way id="375824810" version="1" timestamp="2015-10-18T16:51:40Z" changeset="34715342" uid="251543" user="ChrissW-R1">
    <nd ref="3791644524"/>
    <nd ref="3791644509"/>
    <nd ref="3791644541"/>
    <nd ref="3791644555"/>
    <nd ref="3791644524"/>
    <tag k="building" v="residential"/>
    <tag k="name" v="39"/>
    <tag k="operator" v="Kingsdown Holiday Park"/>
    <tag k="smoking" v="no"/>
    <tag k="tourism" v="chalet"/>
  </way>
  <way id="375824813" version="1" timestamp="2015-10-18T16:51:40Z" changeset="34715342" uid="251543" user="ChrissW-R1">
    <nd ref="3791646026"/>
    <nd ref="3791646017"/>
    <nd ref="3791646035"/>
    <nd ref="3791646039"/>
    <nd ref="3791646042"/>
    <nd ref="3791646026"/>
    <tag k="building" v="residential"/>
    <tag k="name" v="3"/>
    <tag k="operator" v="Kingsdown Holiday Park"/>
    <tag k="smoking" v="no"/>
    <tag k="tourism" v="chalet"/>
  </way>
  <way id="375824815" version="1" timestamp="2015-10-18T16:51:40Z" changeset="34715342" uid="251543" user="ChrissW-R1">
    <nd ref="3791644675"/>
    <nd ref="3791644544"/>
    <nd ref="3791644524"/>
    <nd ref="3791644555"/>
    <nd ref="3791644661"/>
    <nd ref="3791644675"/>
    <tag k="building" v="residential"/>
    <tag k="name" v="40"/>
    <tag k="operator" v="Kingsdown Holiday Park"/>
    <tag k="smoking" v="no"/>
    <tag k="tourism" v="chalet"/>
  </way>
  <way id="375824817" version="1" timestamp="2015-10-18T16:51:40Z" changeset="34715342" uid="251543" user="ChrissW-R1">
    <nd ref="3791644685"/>
    <nd ref="3791644659"/>
    <nd ref="3791644679"/>
    <nd ref="3791644695"/>
    <nd ref="3791644702"/>
    <nd ref="3791644685"/>
    <tag k="building" v="residential"/>
    <tag k="name" v="41"/>
    <tag k="operator" v="Kingsdown Holiday Park"/>
    <tag k="smoking" v="no"/>
    <tag k="tourism" v="chalet"/>
  </way>
  <way id="375824819" version="1" timestamp="2015-10-18T16:51:40Z" changeset="34715342" uid="251543" user="ChrissW-R1">
    <nd ref="3791644723"/>
    <nd ref="3791644705"/>
    <nd ref="3791644685"/>
    <nd ref="3791644702"/>
    <nd ref="3791644713"/>
    <nd ref="3791644723"/>
    <tag k="building" v="residential"/>
    <tag k="name" v="42"/>
    <tag k="operator" v="Kingsdown Holiday Park"/>
    <tag k="smoking" v="no"/>
    <tag k="tourism" v="chalet"/>
  </way>
  <way id="375824821" version="1" timestamp="2015-10-18T16:51:40Z" changeset="34715342" uid="251543" user="ChrissW-R1">
    <nd ref="3791645008"/>
    <nd ref="3791644977"/>
    <nd ref="3791644966"/>
    <nd ref="3791644988"/>
    <nd ref="3791644998"/>
    <nd ref="3791645008"/>
    <tag k="building" v="residential"/>
    <tag k="name" v="43"/>
    <tag k="operator" v="Kingsdown Holiday Park"/>
    <tag k="smoking" v="no"/>
    <tag k="tourism" v="chalet"/>
  </way>
  <way id="375824824" version="1" timestamp="2015-10-18T16:51:40Z" changeset="34715342" uid="251543" user="ChrissW-R1">
    <nd ref="3791645039"/>
    <nd ref="3791645008"/>
    <nd ref="3791644998"/>
    <nd ref="3791645011"/>
    <nd ref="3791645032"/>
    <nd ref="3791645039"/>
    <tag k="building" v="residential"/>
    <tag k="name" v="44"/>
    <tag k="operator" v="Kingsdown Holiday Park"/>
    <tag k="smoking" v="no"/>
    <tag k="tourism" v="chalet"/>
  </way>
  <way id="375824826" version="1" timestamp="2015-10-18T16:51:41Z" changeset="34715342" uid="251543" user="ChrissW-R1">
    <nd ref="3791645171"/>
    <nd ref="3791645048"/>
    <nd ref="3791645165"/>
    <nd ref="3791645192"/>
    <nd ref="3791645171"/>
    <tag k="building" v="residential"/>
    <tag k="name" v="45"/>
    <tag k="operator" v="Kingsdown Holiday Park"/>
    <tag k="smoking" v="no"/>
    <tag k="tourism" v="chalet"/>
  </way>
  <way id="375824828" version="1" timestamp="2015-10-18T16:51:41Z" changeset="34715342" uid="251543" user="ChrissW-R1">
    <nd ref="3791645217"/>
    <nd ref="3791645200"/>
    <nd ref="3791645171"/>
    <nd ref="3791645192"/>
    <nd ref="3791645204"/>
    <nd ref="3791645217"/>
    <tag k="building" v="residential"/>
    <tag k="name" v="46"/>
    <tag k="operator" v="Kingsdown Holiday Park"/>
    <tag k="smoking" v="no"/>
    <tag k="tourism" v="chalet"/>
  </way>
  <way id="375824830" version="1" timestamp="2015-10-18T16:51:41Z" changeset="34715342" uid="251543" user="ChrissW-R1">
    <nd ref="3791645378"/>
    <nd ref="3791645250"/>
    <nd ref="3791645242"/>
    <nd ref="3791645362"/>
    <nd ref="3791645372"/>
    <nd ref="3791645378"/>
    <tag k="building" v="residential"/>
    <tag k="name" v="47"/>
    <tag k="operator" v="Kingsdown Holiday Park"/>
    <tag k="smoking" v="no"/>
    <tag k="tourism" v="chalet"/>
  </way>
  <way id="375824831" version="1" timestamp="2015-10-18T16:51:41Z" changeset="34715342" uid="251543" user="ChrissW-R1">
    <nd ref="3791645401"/>
    <nd ref="3791645378"/>
    <nd ref="3791645372"/>
    <nd ref="3791645381"/>
    <nd ref="3791645399"/>
    <nd ref="3791645401"/>
    <tag k="building" v="residential"/>
    <tag k="name" v="48"/>
    <tag k="operator" v="Kingsdown Holiday Park"/>
    <tag k="smoking" v="no"/>
    <tag k="tourism" v="chalet"/>
  </way>
  <way id="375824832" version="1" timestamp="2015-10-18T16:51:41Z" changeset="34715342" uid="251543" user="ChrissW-R1">
    <nd ref="3791645448"/>
    <nd ref="3791645420"/>
    <nd ref="3791645415"/>
    <nd ref="3791645431"/>
    <nd ref="3791645442"/>
    <nd ref="3791645448"/>
    <tag k="building" v="residential"/>
    <tag k="name" v="49"/>
    <tag k="operator" v="Kingsdown Holiday Park"/>
    <tag k="smoking" v="no"/>
    <tag k="tourism" v="chalet"/>
  </way>
  <way id="375824833" version="1" timestamp="2015-10-18T16:51:41Z" changeset="34715342" uid="251543" user="ChrissW-R1">
    <nd ref="3791645577"/>
    <nd ref="3791645448"/>
    <nd ref="3791645442"/>
    <nd ref="3791645557"/>
    <nd ref="3791645566"/>
    <nd ref="3791645577"/>
    <tag k="building" v="residential"/>
    <tag k="name" v="50"/>
    <tag k="operator" v="Kingsdown Holiday Park"/>
    <tag k="smoking" v="no"/>
    <tag k="tourism" v="chalet"/>
  </way>
  <way id="375824834" version="1" timestamp="2015-10-18T16:51:41Z" changeset="34715342" uid="251543" user="ChrissW-R1">
    <nd ref="3791645169"/>
    <nd ref="3791645168"/>
    <nd ref="3791645027"/>
    <nd ref="3791645028"/>
    <nd ref="3791645169"/>
    <tag k="building" v="residential"/>
    <tag k="name" v="51"/>
    <tag k="operator" v="Kingsdown Holiday Park"/>
    <tag k="smoking" v="no"/>
    <tag k="tourism" v="chalet"/>
  </way>
  <way id="375824835" version="1" timestamp="2015-10-18T16:51:42Z" changeset="34715342" uid="251543" user="ChrissW-R1">
    <nd ref="3791645014"/>
    <nd ref="3791645001"/>
    <nd ref="3791644986"/>
    <nd ref="3791644961"/>
    <nd ref="3791644974"/>
    <nd ref="3791645014"/>
    <tag k="building" v="residential"/>
    <tag k="name" v="52"/>
    <tag k="operator" v="Kingsdown Holiday Park"/>
    <tag k="smoking" v="no"/>
    <tag k="tourism" v="chalet"/>
  </way>
  <way id="375824836" version="1" timestamp="2015-10-18T16:51:42Z" changeset="34715342" uid="251543" user="ChrissW-R1">
    <nd ref="3791644750"/>
    <nd ref="3791644733"/>
    <nd ref="3791644710"/>
    <nd ref="3791644724"/>
    <nd ref="3791644750"/>
    <tag k="building" v="residential"/>
    <tag k="name" v="53"/>
    <tag k="operator" v="Kingsdown Holiday Park"/>
    <tag k="smoking" v="no"/>
    <tag k="tourism" v="chalet"/>
  </way>
  <way id="375824838" version="1" timestamp="2015-10-18T16:51:42Z" changeset="34715342" uid="251543" user="ChrissW-R1">
    <nd ref="3791644710"/>
    <nd ref="3791644690"/>
    <nd ref="3791644703"/>
    <nd ref="3791644724"/>
    <nd ref="3791644710"/>
    <tag k="building" v="residential"/>
    <tag k="name" v="54"/>
    <tag k="operator" v="Kingsdown Holiday Park"/>
    <tag k="smoking" v="no"/>
    <tag k="tourism" v="chalet"/>
  </way>
  <way id="375824840" version="1" timestamp="2015-10-18T16:51:42Z" changeset="34715342" uid="251543" user="ChrissW-R1">
    <nd ref="3791644714"/>
    <nd ref="3791644688"/>
    <nd ref="3791644676"/>
    <nd ref="3791644663"/>
    <nd ref="3791644691"/>
    <nd ref="3791644714"/>
    <tag k="building" v="residential"/>
    <tag k="name" v="55"/>
    <tag k="operator" v="Kingsdown Holiday Park"/>
    <tag k="smoking" v="no"/>
    <tag k="tourism" v="chalet"/>
  </way>
  <way id="375824843" version="1" timestamp="2015-10-18T16:51:42Z" changeset="34715342" uid="251543" user="ChrissW-R1">
    <nd ref="3791644663"/>
    <nd ref="3791644658"/>
    <nd ref="3791644547"/>
    <nd ref="3791644674"/>
    <nd ref="3791644691"/>
    <nd ref="3791644663"/>
    <tag k="building" v="residential"/>
    <tag k="name" v="56"/>
    <tag k="operator" v="Kingsdown Holiday Park"/>
    <tag k="smoking" v="no"/>
    <tag k="tourism" v="chalet"/>
  </way>
  <way id="375824844" version="1" timestamp="2015-10-18T16:51:42Z" changeset="34715342" uid="251543" user="ChrissW-R1">
    <nd ref="3791644553"/>
    <nd ref="3791644535"/>
    <nd ref="3791644525"/>
    <nd ref="3791644516"/>
    <nd ref="3791644538"/>
    <nd ref="3791644553"/>
    <tag k="building" v="residential"/>
    <tag k="name" v="57"/>
    <tag k="operator" v="Kingsdown Holiday Park"/>
    <tag k="smoking" v="no"/>
    <tag k="tourism" v="chalet"/>
  </way>
  <way id="375824845" version="1" timestamp="2015-10-18T16:51:42Z" changeset="34715342" uid="251543" user="ChrissW-R1">
    <nd ref="3791644516"/>
    <nd ref="3791644511"/>
    <nd ref="3791644492"/>
    <nd ref="3791644518"/>
    <nd ref="3791644538"/>
    <nd ref="3791644516"/>
    <tag k="building" v="residential"/>
    <tag k="name" v="58"/>
    <tag k="operator" v="Kingsdown Holiday Park"/>
    <tag k="smoking" v="no"/>
    <tag k="tourism" v="chalet"/>
  </way>
  <way id="375824846" version="1" timestamp="2015-10-18T16:51:42Z" changeset="34715342" uid="251543" user="ChrissW-R1">
    <nd ref="3791643530"/>
    <nd ref="3791643533"/>
    <nd ref="3791644466"/>
    <nd ref="3791644463"/>
    <nd ref="3791643555"/>
    <nd ref="3791643530"/>
    <tag k="building" v="residential"/>
    <tag k="name" v="59"/>
    <tag k="operator" v="Kingsdown Holiday Park"/>
    <tag k="smoking" v="no"/>
    <tag k="tourism" v="chalet"/>
  </way>
  <way id="375824847" version="1" timestamp="2015-10-18T16:51:43Z" changeset="34715342" uid="251543" user="ChrissW-R1">
    <nd ref="3791643555"/>
    <nd ref="3791643551"/>
    <nd ref="3791643543"/>
    <nd ref="3791643529"/>
    <nd ref="3791643530"/>
    <nd ref="3791643555"/>
    <tag k="building" v="residential"/>
    <tag k="name" v="60"/>
    <tag k="operator" v="Kingsdown Holiday Park"/>
    <tag k="smoking" v="no"/>
    <tag k="tourism" v="chalet"/>
  </way>
  <way id="375824849" version="1" timestamp="2015-10-18T16:51:43Z" changeset="34715342" uid="251543" user="ChrissW-R1">
    <nd ref="3791643526"/>
    <nd ref="3791643527"/>
    <nd ref="3791643546"/>
    <nd ref="3791643537"/>
    <nd ref="3791643526"/>
    <tag k="building" v="residential"/>
    <tag k="name" v="61"/>
    <tag k="operator" v="Kingsdown Holiday Park"/>
    <tag k="smoking" v="no"/>
    <tag k="tourism" v="chalet"/>
  </way>
  <way id="375824851" version="1" timestamp="2015-10-18T16:51:43Z" changeset="34715342" uid="251543" user="ChrissW-R1">
    <nd ref="3791643532"/>
    <nd ref="3791643524"/>
    <nd ref="3791643526"/>
    <nd ref="3791643537"/>
    <nd ref="3791643535"/>
    <nd ref="3791643532"/>
    <tag k="building" v="residential"/>
    <tag k="name" v="62"/>
    <tag k="operator" v="Kingsdown Holiday Park"/>
    <tag k="smoking" v="no"/>
    <tag k="tourism" v="chalet"/>
  </way>
  <way id="375824852" version="1" timestamp="2015-10-18T16:51:43Z" changeset="34715342" uid="251543" user="ChrissW-R1">
    <nd ref="3791643528"/>
    <nd ref="3791643525"/>
    <nd ref="3791643536"/>
    <nd ref="3791643548"/>
    <nd ref="3791643528"/>
    <tag k="building" v="residential"/>
    <tag k="name" v="63"/>
    <tag k="operator" v="Kingsdown Holiday Park"/>
    <tag k="smoking" v="no"/>
    <tag k="tourism" v="chalet"/>
  </way>
  <way id="375824853" version="1" timestamp="2015-10-18T16:51:43Z" changeset="34715342" uid="251543" user="ChrissW-R1">
    <nd ref="3791644458"/>
    <nd ref="3791643531"/>
    <nd ref="3791643528"/>
    <nd ref="3791643548"/>
    <nd ref="3791644458"/>
    <tag k="building" v="residential"/>
    <tag k="name" v="64"/>
    <tag k="operator" v="Kingsdown Holiday Park"/>
    <tag k="smoking" v="no"/>
    <tag k="tourism" v="chalet"/>
  </way>
  <way id="375824854" version="1" timestamp="2015-10-18T16:51:43Z" changeset="34715342" uid="251543" user="ChrissW-R1">
    <nd ref="3791644472"/>
    <nd ref="3791643556"/>
    <nd ref="3791644467"/>
    <nd ref="3791644483"/>
    <nd ref="3791644496"/>
    <nd ref="3791644472"/>
    <tag k="building" v="residential"/>
    <tag k="name" v="65"/>
    <tag k="operator" v="Kingsdown Holiday Park"/>
    <tag k="smoking" v="no"/>
    <tag k="tourism" v="chalet"/>
  </way>
  <way id="375824855" version="1" timestamp="2015-10-18T16:51:43Z" changeset="34715342" uid="251543" user="ChrissW-R1">
    <nd ref="3791644519"/>
    <nd ref="3791644503"/>
    <nd ref="3791644472"/>
    <nd ref="3791644496"/>
    <nd ref="3791644510"/>
    <nd ref="3791644519"/>
    <tag k="building" v="residential"/>
    <tag k="name" v="66"/>
    <tag k="operator" v="Kingsdown Holiday Park"/>
    <tag k="smoking" v="no"/>
    <tag k="tourism" v="chalet"/>
  </way>
  <way id="375824858" version="1" timestamp="2015-10-18T16:51:43Z" changeset="34715342" uid="251543" user="ChrissW-R1">
    <nd ref="3791644539"/>
    <nd ref="3791644517"/>
    <nd ref="3791644528"/>
    <nd ref="3791644546"/>
    <nd ref="3791644549"/>
    <nd ref="3791644539"/>
    <tag k="building" v="residential"/>
    <tag k="name" v="67"/>
    <tag k="operator" v="Kingsdown Holiday Park"/>
    <tag k="smoking" v="no"/>
    <tag k="tourism" v="chalet"/>
  </way>
  <way id="375824861" version="1" timestamp="2015-10-18T16:51:43Z" changeset="34715342" uid="251543" user="ChrissW-R1">
    <nd ref="3791644671"/>
    <nd ref="3791644556"/>
    <nd ref="3791644539"/>
    <nd ref="3791644549"/>
    <nd ref="3791644664"/>
    <nd ref="3791644671"/>
    <tag k="building" v="residential"/>
    <tag k="name" v="68"/>
    <tag k="operator" v="Kingsdown Holiday Park"/>
    <tag k="smoking" v="no"/>
    <tag k="tourism" v="chalet"/>
  </way>
  <way id="375824864" version="1" timestamp="2015-10-18T16:51:44Z" changeset="34715342" uid="251543" user="ChrissW-R1">
    <nd ref="3791644731"/>
    <nd ref="3791644706"/>
    <nd ref="3791644719"/>
    <nd ref="3791644739"/>
    <nd ref="3791644747"/>
    <nd ref="3791644731"/>
    <tag k="building" v="residential"/>
    <tag k="name" v="69"/>
    <tag k="operator" v="Kingsdown Holiday Park"/>
    <tag k="smoking" v="no"/>
    <tag k="tourism" v="chalet"/>
  </way>
  <way id="375824866" version="1" timestamp="2015-10-18T16:51:44Z" changeset="34715342" uid="251543" user="ChrissW-R1">
    <nd ref="3791646179"/>
    <nd ref="3791646175"/>
    <nd ref="3791646164"/>
    <nd ref="3791646166"/>
    <nd ref="3791646179"/>
    <tag k="building" v="residential"/>
    <tag k="name" v="6"/>
    <tag k="operator" v="Kingsdown Holiday Park"/>
    <tag k="smoking" v="no"/>
    <tag k="tourism" v="chalet"/>
  </way>
  <way id="375824867" version="1" timestamp="2015-10-18T16:51:44Z" changeset="34715342" uid="251543" user="ChrissW-R1">
    <nd ref="3791644972"/>
    <nd ref="3791644755"/>
    <nd ref="3791644731"/>
    <nd ref="3791644747"/>
    <nd ref="3791644960"/>
    <nd ref="3791644972"/>
    <tag k="building" v="residential"/>
    <tag k="name" v="70"/>
    <tag k="operator" v="Kingsdown Holiday Park"/>
    <tag k="smoking" v="no"/>
    <tag k="tourism" v="chalet"/>
  </way>
  <way id="375824868" version="1" timestamp="2015-10-18T16:51:44Z" changeset="34715342" uid="251543" user="ChrissW-R1">
    <nd ref="3791644996"/>
    <nd ref="3791644968"/>
    <nd ref="3791644990"/>
    <nd ref="3791645010"/>
    <nd ref="3791645018"/>
    <nd ref="3791644996"/>
    <tag k="building" v="residential"/>
    <tag k="name" v="71"/>
    <tag k="operator" v="Kingsdown Holiday Park"/>
    <tag k="smoking" v="no"/>
    <tag k="tourism" v="chalet"/>
  </way>
  <way id="375824869" version="3" timestamp="2021-08-25T14:19:27Z" changeset="110236258" uid="242345" user="confusedbuffalo">
    <nd ref="3791645040"/>
    <nd ref="3791645026"/>
    <nd ref="3791644996"/>
    <nd ref="3791645018"/>
    <nd ref="3791645031"/>
    <nd ref="3791645040"/>
    <tag k="building" v="residential"/>
    <tag k="name" v="72"/>
    <tag k="operator" v="Kingsdown Holiday Park"/>
    <tag k="smoking" v="no"/>
    <tag k="tourism" v="chalet"/>
  </way>
  <way id="375824870" version="1" timestamp="2015-10-18T16:51:44Z" changeset="34715342" uid="251543" user="ChrissW-R1">
    <nd ref="3791645047"/>
    <nd ref="3791645023"/>
    <nd ref="3791645045"/>
    <nd ref="3791645161"/>
    <nd ref="3791645170"/>
    <nd ref="3791645047"/>
    <tag k="building" v="residential"/>
    <tag k="name" v="73"/>
    <tag k="operator" v="Kingsdown Holiday Park"/>
    <tag k="smoking" v="no"/>
    <tag k="tourism" v="chalet"/>
  </way>
  <way id="375824871" version="1" timestamp="2015-10-18T16:51:44Z" changeset="34715342" uid="251543" user="ChrissW-R1">
    <nd ref="3791645202"/>
    <nd ref="3791645177"/>
    <nd ref="3791645047"/>
    <nd ref="3791645170"/>
    <nd ref="3791645183"/>
    <nd ref="3791645202"/>
    <tag k="building" v="residential"/>
    <tag k="name" v="74"/>
    <tag k="operator" v="Kingsdown Holiday Park"/>
    <tag k="smoking" v="no"/>
    <tag k="tourism" v="chalet"/>
  </way>
  <way id="375824873" version="1" timestamp="2015-10-18T16:51:44Z" changeset="34715342" uid="251543" user="ChrissW-R1">
    <nd ref="3791645187"/>
    <nd ref="3791645158"/>
    <nd ref="3791645190"/>
    <nd ref="3791645207"/>
    <nd ref="3791645213"/>
    <nd ref="3791645187"/>
    <tag k="building" v="residential"/>
    <tag k="name" v="75"/>
    <tag k="operator" v="Kingsdown Holiday Park"/>
    <tag k="smoking" v="no"/>
    <tag k="tourism" v="chalet"/>
  </way>
  <way id="375824874" version="1" timestamp="2015-10-18T16:51:45Z" changeset="34715342" uid="251543" user="ChrissW-R1">
    <nd ref="3791645246"/>
    <nd ref="3791645214"/>
    <nd ref="3791645187"/>
    <nd ref="3791645213"/>
    <nd ref="3791645229"/>
    <nd ref="3791645246"/>
    <tag k="building" v="residential"/>
    <tag k="name" v="76"/>
    <tag k="operator" v="Kingsdown Holiday Park"/>
    <tag k="smoking" v="no"/>
    <tag k="tourism" v="chalet"/>
  </way>
  <way id="375824875" version="1" timestamp="2015-10-18T16:51:45Z" changeset="34715342" uid="251543" user="ChrissW-R1">
    <nd ref="3791645360"/>
    <nd ref="3791645234"/>
    <nd ref="3791645248"/>
    <nd ref="3791645367"/>
    <nd ref="3791645374"/>
    <nd ref="3791645360"/>
    <tag k="building" v="residential"/>
    <tag k="name" v="77"/>
    <tag k="operator" v="Kingsdown Holiday Park"/>
    <tag k="smoking" v="no"/>
    <tag k="tourism" v="chalet"/>
  </way>
  <way id="375824876" version="1" timestamp="2015-10-18T16:51:45Z" changeset="34715342" uid="251543" user="ChrissW-R1">
    <nd ref="3791645400"/>
    <nd ref="3791645387"/>
    <nd ref="3791645360"/>
    <nd ref="3791645374"/>
    <nd ref="3791645386"/>
    <nd ref="3791645400"/>
    <tag k="building" v="residential"/>
    <tag k="name" v="78"/>
    <tag k="operator" v="Kingsdown Holiday Park"/>
    <tag k="smoking" v="no"/>
    <tag k="tourism" v="chalet"/>
  </way>
  <way id="375824877" version="1" timestamp="2015-10-18T16:51:45Z" changeset="34715342" uid="251543" user="ChrissW-R1">
    <nd ref="3791645558"/>
    <nd ref="3791645417"/>
    <nd ref="3791645406"/>
    <nd ref="3791645429"/>
    <nd ref="3791645445"/>
    <nd ref="3791645558"/>
    <tag k="building" v="residential"/>
    <tag k="name" v="79"/>
    <tag k="operator" v="Kingsdown Holiday Park"/>
    <tag k="smoking" v="no"/>
    <tag k="tourism" v="chalet"/>
  </way>
  <way id="375824878" version="1" timestamp="2015-10-18T16:51:45Z" changeset="34715342" uid="251543" user="ChrissW-R1">
    <nd ref="3791646166"/>
    <nd ref="3791646171"/>
    <nd ref="3791646183"/>
    <nd ref="3791646179"/>
    <nd ref="3791646166"/>
    <tag k="building" v="residential"/>
    <tag k="name" v="7"/>
    <tag k="operator" v="Kingsdown Holiday Park"/>
    <tag k="smoking" v="no"/>
    <tag k="tourism" v="chalet"/>
  </way>
  <way id="375824880" version="1" timestamp="2015-10-18T16:51:45Z" changeset="34715342" uid="251543" user="ChrissW-R1">
    <nd ref="3791645589"/>
    <nd ref="3791645559"/>
    <nd ref="3791645437"/>
    <nd ref="3791645560"/>
    <nd ref="3791645567"/>
    <nd ref="3791645589"/>
    <tag k="building" v="residential"/>
    <tag k="name" v="80"/>
    <tag k="operator" v="Kingsdown Holiday Park"/>
    <tag k="smoking" v="no"/>
    <tag k="tourism" v="chalet"/>
  </way>
  <way id="375824882" version="1" timestamp="2015-10-18T16:51:45Z" changeset="34715342" uid="251543" user="ChrissW-R1">
    <nd ref="3791645624"/>
    <nd ref="3791645589"/>
    <nd ref="3791645567"/>
    <nd ref="3791645583"/>
    <nd ref="3791645597"/>
    <nd ref="3791645624"/>
    <tag k="building" v="residential"/>
    <tag k="name" v="81"/>
    <tag k="operator" v="Kingsdown Holiday Park"/>
    <tag k="smoking" v="no"/>
    <tag k="tourism" v="chalet"/>
  </way>
  <way id="375824883" version="1" timestamp="2015-10-18T16:51:45Z" changeset="34715342" uid="251543" user="ChrissW-R1">
    <nd ref="3791645759"/>
    <nd ref="3791645645"/>
    <nd ref="3791645593"/>
    <nd ref="3791645604"/>
    <nd ref="3791645614"/>
    <nd ref="3791645759"/>
    <tag k="building" v="residential"/>
    <tag k="name" v="82"/>
    <tag k="operator" v="Kingsdown Holiday Park"/>
    <tag k="smoking" v="no"/>
    <tag k="tourism" v="chalet"/>
  </way>
  <way id="375824885" version="1" timestamp="2015-10-18T16:51:45Z" changeset="34715342" uid="251543" user="ChrissW-R1">
    <nd ref="3791645777"/>
    <nd ref="3791645759"/>
    <nd ref="3791645614"/>
    <nd ref="3791645622"/>
    <nd ref="3791645634"/>
    <nd ref="3791645777"/>
    <tag k="building" v="residential"/>
    <tag k="name" v="83"/>
    <tag k="operator" v="Kingsdown Holiday Park"/>
    <tag k="smoking" v="no"/>
    <tag k="tourism" v="chalet"/>
  </way>
  <way id="375824886" version="1" timestamp="2015-10-18T16:51:46Z" changeset="34715342" uid="251543" user="ChrissW-R1">
    <nd ref="3791645786"/>
    <nd ref="3791645768"/>
    <nd ref="3791645623"/>
    <nd ref="3791645631"/>
    <nd ref="3791645641"/>
    <nd ref="3791645786"/>
    <tag k="building" v="residential"/>
    <tag k="name" v="84"/>
    <tag k="operator" v="Kingsdown Holiday Park"/>
    <tag k="smoking" v="no"/>
    <tag k="tourism" v="chalet"/>
  </way>
  <way id="375824888" version="3" timestamp="2021-08-25T14:19:27Z" changeset="110236258" uid="242345" user="confusedbuffalo">
    <nd ref="3791645967"/>
    <nd ref="3791645854"/>
    <nd ref="3791645832"/>
    <nd ref="3791645839"/>
    <nd ref="3791645845"/>
    <nd ref="3791645967"/>
    <tag k="building" v="residential"/>
    <tag k="name" v="85"/>
    <tag k="operator" v="Kingsdown Holiday Park"/>
    <tag k="smoking" v="no"/>
    <tag k="tourism" v="chalet"/>
  </way>
  <way id="375824889" version="3" timestamp="2021-08-25T14:19:27Z" changeset="110236258" uid="242345" user="confusedbuffalo">
    <nd ref="3791645854"/>
    <nd ref="3791645841"/>
    <nd ref="3791645810"/>
    <nd ref="3791645827"/>
    <nd ref="3791645832"/>
    <nd ref="3791645854"/>
    <tag k="building" v="residential"/>
    <tag k="name" v="86"/>
    <tag k="operator" v="Kingsdown Holiday Park"/>
    <tag k="smoking" v="no"/>
    <tag k="tourism" v="chalet"/>
  </way>
  <way id="375824890" version="3" timestamp="2021-08-25T14:19:27Z" changeset="110236258" uid="242345" user="confusedbuffalo">
    <nd ref="3791645855"/>
    <nd ref="3791645843"/>
    <nd ref="3791645809"/>
    <nd ref="3791645818"/>
    <nd ref="3791645830"/>
    <nd ref="3791645855"/>
    <tag k="building" v="residential"/>
    <tag k="name" v="87"/>
    <tag k="operator" v="Kingsdown Holiday Park"/>
    <tag k="smoking" v="no"/>
    <tag k="tourism" v="chalet"/>
  </way>
  <way id="375824891" version="3" timestamp="2021-08-25T14:19:27Z" changeset="110236258" uid="242345" user="confusedbuffalo">
    <nd ref="3791645843"/>
    <nd ref="3791645829"/>
    <nd ref="3791645797"/>
    <nd ref="3791645805"/>
    <nd ref="3791645809"/>
    <nd ref="3791645843"/>
    <tag k="building" v="residential"/>
    <tag k="name" v="88"/>
    <tag k="operator" v="Kingsdown Holiday Park"/>
    <tag k="smoking" v="no"/>
    <tag k="tourism" v="chalet"/>
  </way>
  <way id="375824892" version="3" timestamp="2021-08-25T14:19:27Z" changeset="110236258" uid="242345" user="confusedbuffalo">
    <nd ref="3791645813"/>
    <nd ref="3791645795"/>
    <nd ref="3791645763"/>
    <nd ref="3791645775"/>
    <nd ref="3791645788"/>
    <nd ref="3791645813"/>
    <tag k="building" v="residential"/>
    <tag k="name" v="89"/>
    <tag k="operator" v="Kingsdown Holiday Park"/>
    <tag k="smoking" v="no"/>
    <tag k="tourism" v="chalet"/>
  </way>
  <way id="375824893" version="1" timestamp="2015-10-18T16:51:46Z" changeset="34715342" uid="251543" user="ChrissW-R1">
    <nd ref="3791646200"/>
    <nd ref="3791646197"/>
    <nd ref="3791646177"/>
    <nd ref="3791646182"/>
    <nd ref="3791646187"/>
    <nd ref="3791646200"/>
    <tag k="building" v="residential"/>
    <tag k="name" v="8"/>
    <tag k="operator" v="Kingsdown Holiday Park"/>
    <tag k="smoking" v="no"/>
    <tag k="tourism" v="chalet"/>
  </way>
  <way id="375824894" version="3" timestamp="2021-08-25T14:19:27Z" changeset="110236258" uid="242345" user="confusedbuffalo">
    <nd ref="3791645795"/>
    <nd ref="3791645770"/>
    <nd ref="3791645640"/>
    <nd ref="3791645656"/>
    <nd ref="3791645763"/>
    <nd ref="3791645795"/>
    <tag k="building" v="residential"/>
    <tag k="name" v="90"/>
    <tag k="operator" v="Kingsdown Holiday Park"/>
    <tag k="smoking" v="no"/>
    <tag k="tourism" v="chalet"/>
  </way>
  <way id="375824895" version="3" timestamp="2021-08-25T14:19:27Z" changeset="110236258" uid="242345" user="confusedbuffalo">
    <nd ref="3791645802"/>
    <nd ref="3791645781"/>
    <nd ref="3791645758"/>
    <nd ref="3791645769"/>
    <nd ref="3791645780"/>
    <nd ref="3791645802"/>
    <tag k="building" v="residential"/>
    <tag k="name" v="91"/>
    <tag k="operator" v="Kingsdown Holiday Park"/>
    <tag k="smoking" v="no"/>
    <tag k="tourism" v="chalet"/>
  </way>
  <way id="375824896" version="3" timestamp="2021-08-25T14:19:27Z" changeset="110236258" uid="242345" user="confusedbuffalo">
    <nd ref="3791645781"/>
    <nd ref="3791645760"/>
    <nd ref="3791645637"/>
    <nd ref="3791645650"/>
    <nd ref="3791645758"/>
    <nd ref="3791645781"/>
    <tag k="building" v="residential"/>
    <tag k="name" v="92"/>
    <tag k="operator" v="Kingsdown Holiday Park"/>
    <tag k="smoking" v="no"/>
    <tag k="tourism" v="chalet"/>
  </way>
  <way id="375824897" version="3" timestamp="2021-08-25T14:19:27Z" changeset="110236258" uid="242345" user="confusedbuffalo">
    <nd ref="3791645651"/>
    <nd ref="3791645626"/>
    <nd ref="3791645612"/>
    <nd ref="3791645625"/>
    <nd ref="3791645638"/>
    <nd ref="3791645651"/>
    <tag k="building" v="residential"/>
    <tag k="name" v="93"/>
    <tag k="operator" v="Kingsdown Holiday Park"/>
    <tag k="smoking" v="no"/>
    <tag k="tourism" v="chalet"/>
  </way>
  <way id="375824898" version="3" timestamp="2021-08-25T14:19:27Z" changeset="110236258" uid="242345" user="confusedbuffalo">
    <nd ref="3791645626"/>
    <nd ref="3791645600"/>
    <nd ref="3791645584"/>
    <nd ref="3791645599"/>
    <nd ref="3791645612"/>
    <nd ref="3791645626"/>
    <tag k="building" v="residential"/>
    <tag k="name" v="94"/>
    <tag k="operator" v="Kingsdown Holiday Park"/>
    <tag k="smoking" v="no"/>
    <tag k="tourism" v="chalet"/>
  </way>
  <way id="375824899" version="3" timestamp="2021-08-25T14:19:27Z" changeset="110236258" uid="242345" user="confusedbuffalo">
    <nd ref="3791645574"/>
    <nd ref="3791645441"/>
    <nd ref="3791645438"/>
    <nd ref="3791645450"/>
    <nd ref="3791645568"/>
    <nd ref="3791645574"/>
    <tag k="building" v="residential"/>
    <tag k="name" v="95"/>
    <tag k="operator" v="Kingsdown Holiday Park"/>
    <tag k="smoking" v="no"/>
    <tag k="tourism" v="chalet"/>
  </way>
  <way id="375824900" version="3" timestamp="2021-08-25T14:19:27Z" changeset="110236258" uid="242345" user="confusedbuffalo">
    <nd ref="3791645441"/>
    <nd ref="3791645408"/>
    <nd ref="3791645403"/>
    <nd ref="3791645428"/>
    <nd ref="3791645438"/>
    <nd ref="3791645441"/>
    <tag k="building" v="residential"/>
    <tag k="name" v="96"/>
    <tag k="operator" v="Kingsdown Holiday Park"/>
    <tag k="smoking" v="no"/>
    <tag k="tourism" v="chalet"/>
  </way>
  <way id="375824901" version="3" timestamp="2021-08-25T14:19:27Z" changeset="110236258" uid="242345" user="confusedbuffalo">
    <nd ref="3791645393"/>
    <nd ref="3791645382"/>
    <nd ref="3791645358"/>
    <nd ref="3791645370"/>
    <nd ref="3791645384"/>
    <nd ref="3791645393"/>
    <tag k="building" v="residential"/>
    <tag k="name" v="97"/>
    <tag k="operator" v="Kingsdown Holiday Park"/>
    <tag k="smoking" v="no"/>
    <tag k="tourism" v="chalet"/>
  </way>
  <way id="375824902" version="3" timestamp="2021-08-25T14:19:27Z" changeset="110236258" uid="242345" user="confusedbuffalo">
    <nd ref="3791645358"/>
    <nd ref="3791645233"/>
    <nd ref="3791645244"/>
    <nd ref="3791645365"/>
    <nd ref="3791645370"/>
    <nd ref="3791645358"/>
    <tag k="building" v="residential"/>
    <tag k="name" v="98"/>
    <tag k="operator" v="Kingsdown Holiday Park"/>
    <tag k="smoking" v="no"/>
    <tag k="tourism" v="chalet"/>
  </way>
  <way id="375824903" version="3" timestamp="2021-08-25T14:19:27Z" changeset="110236258" uid="242345" user="confusedbuffalo">
    <nd ref="3791645227"/>
    <nd ref="3791645197"/>
    <nd ref="3791645173"/>
    <nd ref="3791645203"/>
    <nd ref="3791645209"/>
    <nd ref="3791645227"/>
    <tag k="building" v="residential"/>
    <tag k="name" v="99"/>
    <tag k="operator" v="Kingsdown Holiday Park"/>
    <tag k="smoking" v="no"/>
    <tag k="tourism" v="chalet"/>
  </way>
  <way id="375824904" version="1" timestamp="2015-10-18T16:51:48Z" changeset="34715342" uid="251543" user="ChrissW-R1">
    <nd ref="3791646203"/>
    <nd ref="3791646202"/>
    <nd ref="3791646191"/>
    <nd ref="3791646192"/>
    <nd ref="3791646194"/>
    <nd ref="3791646203"/>
    <tag k="building" v="residential"/>
    <tag k="name" v="9"/>
    <tag k="operator" v="Kingsdown Holiday Park"/>
    <tag k="smoking" v="no"/>
    <tag k="tourism" v="chalet"/>
  </way>
  <way id="375824907" version="2" timestamp="2017-11-27T20:22:06Z" changeset="54131916" uid="7037" user="Gregory Williams">
    <nd ref="3791646044"/>
    <nd ref="3791646030"/>
    <nd ref="3791645977"/>
    <nd ref="3791646005"/>
    <nd ref="3791646044"/>
    <tag k="addr:city" v="Deal"/>
    <tag k="addr:place" v="Kingsdown"/>
    <tag k="addr:postcode" v="CT14 8EU"/>
    <tag k="addr:street" v="Upper Street"/>
    <tag k="building" v="yes"/>
    <tag k="name" v="Goodwin's Suite"/>
  </way>
  <way id="585929582" version="2" timestamp="2025-01-21T08:55:16Z" changeset="161591239" uid="7037" user="Gregory Williams">
    <nd ref="5598877562"/>
    <nd ref="3980714977"/>
    <nd ref="1181940202"/>
    <nd ref="27411874"/>
    <nd ref="1681360962"/>
    <nd ref="769158922"/>
    <nd ref="27411876"/>
    <nd ref="627875160"/>
    <nd ref="27411877"/>
    <nd ref="769215900"/>
    <nd ref="27411878"/>
    <nd ref="27411879"/>
    <tag k="highway" v="tertiary"/>
    <tag k="maxspeed" v="20 mph"/>
    <tag k="name" v="Cliffe Road"/>
  </way>
  <way id="593774213" version="3" timestamp="2021-02-03T16:22:05Z" changeset="98655765" uid="281267" user="smb1001">
    <nd ref="5663708922"/>
    <nd ref="5663708923"/>
    <nd ref="5663708924"/>
    <nd ref="5663708925"/>
    <nd ref="5663708922"/>
    <tag k="amenity" v="place_of_worship"/>
    <tag k="building" v="yes"/>
    <tag k="denomination" v="anglican"/>
    <tag k="name" v="St. John the Evangelist"/>
    <tag k="religion" v="christian"/>
    <tag k="source" v="OS_OpenData_StreetView;aerial imagery"/>
    <tag k="wikidata" v="Q105092518"/>
  </way>
  <way id="691846784" version="2" timestamp="2022-06-20T08:53:54Z" changeset="122610481" uid="15062731" user="Olga418">
    <nd ref="769158941"/>
    <nd ref="6493372603"/>
    <nd ref="9832761356"/>
    <nd ref="9832761348"/>
    <nd ref="6493372604"/>
    <nd ref="6493372605"/>
    <tag k="highway" v="residential"/>
  </way>
  <way id="742145470" version="2" timestamp="2024-09-05T17:10:17Z" changeset="156241055" uid="11471297" user="Palgrave Peter">
    <nd ref="6947995447"/>
    <nd ref="6947995448"/>
    <nd ref="6947995449"/>
    <nd ref="6947995450"/>
    <nd ref="12158207247"/>
    <nd ref="12158207246"/>
    <nd ref="12158207245"/>
    <nd ref="12158207244"/>
    <nd ref="12158207243"/>
    <nd ref="12158207242"/>
    <nd ref="12158207241"/>
    <nd ref="6947995447"/>
    <tag k="building" v="house"/>
    <tag k="name" v="The Gunnery"/>
  </way>
  <way id="764453710" version="3" timestamp="2021-07-05T04:49:29Z" changeset="107414826" uid="10457692" user="pravallg">
    <nd ref="769215921"/>
    <nd ref="27412785"/>
    <nd ref="8000466363"/>
    <nd ref="8000466364"/>
    <nd ref="27412786"/>
    <nd ref="27412787"/>
    <nd ref="3980025171"/>
    <nd ref="27412789"/>
    <nd ref="27412790"/>
    <nd ref="8893866674"/>
    <nd ref="27412791"/>
    <nd ref="27412792"/>
    <tag k="highway" v="residential"/>
    <tag k="lit" v="no"/>
    <tag k="name" v="Oldstairs Road"/>
    <tag k="surface" v="asphalt"/>
  </way>
  <way id="764453713" version="1" timestamp="2020-01-18T20:27:20Z" changeset="79740749" uid="231477" user="SiHollett">
    <nd ref="1154174648"/>
    <nd ref="666992496"/>
    <tag k="highway" v="residential"/>
    <tag k="maxspeed" v="20 mph"/>
    <tag k="name" v="The Avenue"/>
    <tag k="source" v="OS_OpenData_StreetView"/>
  </way>
  <way id="764453714" version="2" timestamp="2024-02-02T17:36:16Z" changeset="146994542" uid="493595" user="Yorvik Prestigitator">
    <nd ref="255890794"/>
    <nd ref="33452947"/>
    <nd ref="11579659798"/>
    <nd ref="33452946"/>
    <nd ref="1281854744"/>
    <nd ref="33452945"/>
    <nd ref="1281854762"/>
    <nd ref="339678843"/>
    <nd ref="1281854796"/>
    <tag k="highway" v="primary"/>
    <tag k="maxspeed" v="40 mph"/>
    <tag k="name" v="Dover Road"/>
    <tag k="ref" v="A258"/>
  </way>
  <way id="799326683" version="4" timestamp="2023-11-04T17:39:53Z" changeset="143623910" uid="504708" user="HillWithSmallFields">
    <nd ref="7475667857"/>
    <nd ref="7475667855"/>
    <nd ref="7475667862"/>
    <nd ref="7475667863"/>
    <nd ref="7475667872"/>
    <nd ref="7475667874"/>
    <nd ref="7475667875"/>
    <nd ref="7475667866"/>
    <nd ref="7475667857"/>
    <tag k="amenity" v="place_of_worship"/>
    <tag k="building" v="church"/>
    <tag k="denomination" v="anglican"/>
    <tag k="name" v="St Nicholas"/>
    <tag k="ref:dove" v="13395"/>
    <tag k="religion" v="christian"/>
    <tag k="wikidata" v="Q17529712"/>
  </way>
  <way id="959591930" version="1" timestamp="2021-06-29T23:39:00Z" changeset="107174026" uid="5008136" user="JayTurnr">
    <nd ref="769215939"/>
    <nd ref="8878457892"/>
    <nd ref="769215908"/>
    <tag k="highway" v="residential"/>
    <tag k="maxspeed" v="20 mph"/>
    <tag k="name" v="Victoria Road"/>
    <tag k="source" v="OS_OpenData_StreetView"/>
  </way>
  <way id="1203304558" version="1" timestamp="2023-08-29T20:42:58Z" changeset="140559359" uid="13416516" user="Mikey Co">
    <nd ref="11154500992"/>
    <nd ref="11154500993"/>
    <nd ref="11154500994"/>
    <nd ref="11154500995"/>
    <nd ref="11154500996"/>
    <nd ref="11154500997"/>
    <nd ref="11154500998"/>
    <nd ref="11154500992"/>
    <tag k="addr:city" v="Kingsdown"/>
    <tag k="addr:postcode" v="CT14 8AF"/>
    <tag k="addr:street" v="Wellington Parade"/>
    <tag k="amenity" v="pub"/>
    <tag k="building" v="yes"/>
    <tag k="name" v="Zetland Arms"/>
    <tag k="website" v="https://www.zetlandarms.co.uk/"/>
  </way>
  <way id="1245618038" version="1" timestamp="2024-02-02T17:27:53Z" changeset="146994220" uid="493595" user="Yorvik Prestigitator">
    <nd ref="11579679771"/>
    <nd ref="11579679772"/>
    <nd ref="11579679773"/>
    <nd ref="11579679774"/>
    <nd ref="11579679775"/>
    <nd ref="11579679776"/>
    <nd ref="3791596480"/>
    <nd ref="11579679779"/>
    <nd ref="11579679778"/>
    <nd ref="11579679771"/>
    <tag k="addr:city" v="Kingsdown"/>
    <tag k="addr:postcode" v="CT14 8BJ"/>
    <tag k="addr:street" v="Upper Street"/>
    <tag k="alt_name" v="Kingsdown Village Hall"/>
    <tag k="amenity" v="community_centre"/>
    <tag k="building" v="public"/>
    <tag k="community_centre" v="village_hall"/>
    <tag k="name" v="St John's Kingsdown Village Hall"/>
  </way>
  <way id="1254582467" version="2" timestamp="2025-01-21T08:55:16Z" changeset="161591239" uid="7037" user="Gregory Williams">
    <nd ref="27411881"/>
    <nd ref="27411882"/>
    <nd ref="27411883"/>
    <nd ref="6947995458"/>
    <nd ref="6947995453"/>
    <nd ref="27411884"/>
    <nd ref="6947995456"/>
    <tag k="highway" v="unclassified"/>
    <tag k="maxspeed" v="20 mph"/>
    <tag k="name" v="Undercliffe Road"/>
  </way>
  <way id="1278571457" version="2" timestamp="2024-09-07T09:30:59Z" changeset="156305033" uid="11471297" user="Palgrave Peter">
    <nd ref="255892530"/>
    <nd ref="33452963"/>
    <nd ref="33452962"/>
    <nd ref="33452961"/>
    <nd ref="33452960"/>
    <nd ref="33452959"/>
    <nd ref="12161579757"/>
    <nd ref="33452958"/>
    <nd ref="33452957"/>
    <nd ref="859224906"/>
    <nd ref="9021808275"/>
    <nd ref="33452956"/>
    <nd ref="33452955"/>
    <nd ref="859226102"/>
    <nd ref="33452954"/>
    <nd ref="1281854733"/>
    <nd ref="33452953"/>
    <nd ref="33452952"/>
    <nd ref="1281854739"/>
    <tag k="highway" v="primary"/>
    <tag k="lanes" v="2"/>
    <tag k="maxspeed" v="50 mph"/>
    <tag k="maxspeed:type" v="sign"/>
    <tag k="name" v="Dover Road"/>
    <tag k="ref" v="A258"/>
    <tag k="surface" v="asphalt"/>
  </way>
  <way id="1353103278" version="1" timestamp="2025-01-21T08:55:16Z" changeset="161591239" uid="7037" user="Gregory Williams">
    <nd ref="282908598"/>
    <nd ref="4419889285"/>
    <nd ref="1906599052"/>
    <tag k="highway" v="unclassified"/>
    <tag k="maxspeed" v="20 mph"/>
    <tag k="maxweight" v="7.5"/>
    <tag k="name" v="Glen Road"/>
  </way>
  <way id="1353103279" version="1" timestamp="2025-01-21T08:55:16Z" changeset="161591239" uid="7037" user="Gregory Williams">
    <nd ref="27411878"/>
    <nd ref="1182546007"/>
    <nd ref="255890765"/>
    <tag k="highway" v="unclassified"/>
    <tag k="maxspeed" v="20 mph"/>
    <tag k="name" v="Upper Street"/>
  </way>
  <way id="1353103280" version="1" timestamp="2025-01-21T08:55:16Z" changeset="161591239" uid="7037" user="Gregory Williams">
    <nd ref="1154174654"/>
    <nd ref="353783721"/>
    <nd ref="282908593"/>
    <nd ref="1906599070"/>
    <nd ref="282908592"/>
    <nd ref="1906599071"/>
    <nd ref="282908591"/>
    <nd ref="1906599072"/>
    <tag k="highway" v="unclassified"/>
    <tag k="maxspeed" v="20 mph"/>
    <tag k="name" v="Glen Road"/>
  </way>

</osm>
