<?xml version="1.0" encoding="UTF-8"?>
<osm version="0.6" generator="Overpass API 0.7.62.5 1bd436f1">
<note>The data included in this document is from www.openstreetmap.org. The data is made available under ODbL.</note>
<meta osm_base="2025-05-17T22:13:01Z" areas="2024-12-31T00:49:33Z"/>

  <node id="368205" lat="48.8637542" lon="2.3320906" version="21" timestamp="2024-12-06T00:56:23Z" changeset="159977052" uid="14651319" user="VLD190">
    <tag k="crossing" v="marked"/>
    <tag k="crossing:markings" v="dashes"/>
    <tag k="highway" v="crossing"/>
  </node>
  <node id="15643098" lat="48.8666409" lon="2.3373626" version="11" timestamp="2019-01-22T12:01:49Z" changeset="66535287" uid="311391" user="patman37">
    <tag k="highway" v="traffic_signals"/>
  </node>
  <node id="25207339" lat="48.8675112" lon="2.3336619" version="7" timestamp="2025-01-20T16:11:54Z" changeset="161569791" uid="2678738" user="fgouget"/>
  <node id="25272892" lat="48.8674085" lon="2.3324720" version="4" timestamp="2012-09-13T08:07:41Z" changeset="13092591" uid="456113" user="eric_G"/>
  <node id="25272914" lat="48.8666349" lon="2.3331001" version="11" timestamp="2019-02-01T15:45:12Z" changeset="66836721" uid="311391" user="patman37"/>
  <node id="25272936" lat="48.8671374" lon="2.3352462" version="5" timestamp="2019-01-22T10:28:02Z" changeset="66532869" uid="311391" user="patman37"/>
  <node id="25273148" lat="48.8649204" lon="2.3319590" version="12" timestamp="2019-02-01T15:45:13Z" changeset="66836721" uid="311391" user="patman37"/>
  <node id="25581027" lat="48.8639118" lon="2.3381497" version="6" timestamp="2010-04-02T14:24:32Z" changeset="4303976" uid="17286" user="Pieren"/>
  <node id="25581143" lat="48.8660492" lon="2.3398964" version="8" timestamp="2025-01-07T23:08:26Z" changeset="161114375" uid="2678738" user="fgouget"/>
  <node id="25581144" lat="48.8661692" lon="2.3399833" version="5" timestamp="2010-04-06T21:47:12Z" changeset="4349592" uid="17286" user="Pieren"/>
  <node id="25581148" lat="48.8658230" lon="2.3408664" version="9" timestamp="2012-06-29T12:26:37Z" changeset="12056054" uid="456113" user="eric_G"/>
  <node id="25581186" lat="48.8650363" lon="2.3406534" version="8" timestamp="2025-03-01T23:21:45Z" changeset="163105468" uid="7550430" user="Britzz"/>
  <node id="681534715" lat="48.8659604" lon="2.3395712" version="1" timestamp="2010-04-02T14:24:27Z" changeset="4303976" uid="17286" user="Pieren"/>
  <node id="5238528592" lat="48.8625647" lon="2.3378549" version="5" timestamp="2024-11-19T14:13:47Z" changeset="159326480" uid="2678738" user="fgouget">
    <tag k="bus" v="yes"/>
    <tag k="name" v="Palais Royal - Musée du Louvre"/>
    <tag k="public_transport" v="stop_position"/>
  </node>
  <node id="6227111304" lat="48.8657689" lon="2.3352610" version="2" timestamp="2019-12-03T18:52:33Z" changeset="77895513" uid="7336068" user="Florimondable"/>
  <node id="8255942949" lat="48.8666086" lon="2.3340417" version="2" timestamp="2025-01-20T16:11:54Z" changeset="161569791" uid="2678738" user="fgouget"/>
  <node id="12629308645" lat="48.8640232" lon="2.3400240" version="1" timestamp="2025-03-02T00:16:09Z" changeset="163106360" uid="7550430" user="Britzz"/>
  <way id="4018043" version="53" timestamp="2024-02-18T16:24:20Z" changeset="147615976" uid="6290466" user="benjamintchik">
    <nd ref="25273197"/>
    <nd ref="2200150991"/>
    <nd ref="682347926"/>
    <nd ref="338667206"/>
    <nd ref="6145476528"/>
    <nd ref="25273196"/>
    <nd ref="682294040"/>
    <nd ref="6227111306"/>
    <nd ref="682294053"/>
    <nd ref="682294054"/>
    <tag k="highway" v="secondary"/>
    <tag k="lanes" v="2"/>
    <tag k="lit" v="yes"/>
    <tag k="maxspeed" v="30"/>
    <tag k="name" v="Rue des Pyramides"/>
    <tag k="name:etymology:wikidata" v="Q332543"/>
    <tag k="name:ru" v="улица Пирамид"/>
    <tag k="oneway" v="yes"/>
    <tag k="sidewalk:both" v="separate"/>
    <tag k="smoothness" v="good"/>
    <tag k="surface" v="asphalt"/>
  </way>
  <way id="4039451" version="60" timestamp="2024-03-27T10:19:58Z" changeset="149216608" uid="2678738" user="fgouget">
    <nd ref="25554239"/>
    <nd ref="25554240"/>
    <nd ref="2200326723"/>
    <nd ref="25554265"/>
    <nd ref="2200326722"/>
    <nd ref="5238528592"/>
    <tag k="cycleway:left" v="lane"/>
    <tag k="cycleway:left:lane" v="advisory"/>
    <tag k="cycleway:left:oneway" v="-1"/>
    <tag k="cycleway:right" v="no"/>
    <tag k="highway" v="tertiary"/>
    <tag k="lanes" v="2"/>
    <tag k="lit" v="yes"/>
    <tag k="maxspeed" v="30"/>
    <tag k="name" v="Rue Saint-Honoré"/>
    <tag k="name:etymology:wikidata" v="Q17802602"/>
    <tag k="name:ru" v="улица Сент-Оноре"/>
    <tag k="oneway" v="yes"/>
    <tag k="oneway:bicycle" v="no"/>
    <tag k="sidewalk:left" v="separate"/>
    <tag k="sidewalk:left:surface" v="paving_stones"/>
    <tag k="sidewalk:right" v="yes"/>
    <tag k="sidewalk:right:surface" v="asphalt"/>
    <tag k="smoothness" v="good"/>
    <tag k="surface" v="asphalt"/>
  </way>
  <way id="4251048" version="23" timestamp="2024-02-18T16:25:10Z" changeset="147615976" uid="6290466" user="benjamintchik">
    <nd ref="25272914"/>
    <nd ref="2200326813"/>
    <nd ref="11027628062"/>
    <nd ref="25273196"/>
    <tag k="cycleway" v="opposite"/>
    <tag k="highway" v="residential"/>
    <tag k="lit" v="yes"/>
    <tag k="maxspeed" v="30"/>
    <tag k="maxspeed:type" v="FR:zone30"/>
    <tag k="name" v="Rue d'Argenteuil"/>
    <tag k="name:etymology:wikidata" v="Q181946"/>
    <tag k="oneway" v="yes"/>
    <tag k="sidewalk:both" v="separate"/>
    <tag k="smoothness" v="good"/>
    <tag k="surface" v="asphalt"/>
  </way>
  <way id="4251051" version="37" timestamp="2024-02-14T21:34:46Z" changeset="147467347" uid="6290466" user="benjamintchik">
    <nd ref="25273190"/>
    <nd ref="2200150925"/>
    <nd ref="5143667126"/>
    <nd ref="2200150902"/>
    <nd ref="25273380"/>
    <tag k="cycleway:both" v="no"/>
    <tag k="highway" v="residential"/>
    <tag k="lit" v="yes"/>
    <tag k="maxspeed" v="30"/>
    <tag k="maxspeed:type" v="FR:zone30"/>
    <tag k="name" v="Place André Malraux"/>
    <tag k="name:etymology:wikidata" v="Q151164"/>
    <tag k="name:ru" v="площадь Андре Мальро"/>
    <tag k="oneway" v="yes"/>
    <tag k="sidewalk:both" v="separate"/>
    <tag k="smoothness" v="intermediate"/>
    <tag k="surface" v="sett"/>
  </way>
  <way id="4251052" version="41" timestamp="2024-03-27T10:34:24Z" changeset="149216608" uid="2678738" user="fgouget">
    <nd ref="25273190"/>
    <nd ref="2200150929"/>
    <nd ref="10229624714"/>
    <nd ref="2200150920"/>
    <nd ref="10229624712"/>
    <tag k="cycleway:left" v="lane"/>
    <tag k="cycleway:left:lane" v="exclusive"/>
    <tag k="cycleway:left:oneway" v="-1"/>
    <tag k="cycleway:right" v="no"/>
    <tag k="highway" v="residential"/>
    <tag k="lit" v="yes"/>
    <tag k="maxspeed" v="30"/>
    <tag k="name" v="Place André Malraux"/>
    <tag k="name:etymology:wikidata" v="Q151164"/>
    <tag k="name:ru" v="площадь Андре Мальро"/>
    <tag k="oneway" v="yes"/>
    <tag k="oneway:bicycle" v="no"/>
    <tag k="sidewalk:left" v="separate"/>
    <tag k="sidewalk:right" v="yes"/>
    <tag k="smoothness" v="intermediate"/>
    <tag k="surface" v="sett"/>
  </way>
  <way id="4251053" version="46" timestamp="2025-02-22T11:41:06Z" changeset="162810641" uid="19679725" user="Planespotter1">
    <nd ref="25581027"/>
    <nd ref="3131558420"/>
    <nd ref="2200326733"/>
    <nd ref="25581017"/>
    <nd ref="2200326729"/>
    <nd ref="2200326724"/>
    <nd ref="25554265"/>
    <tag k="cycleway" v="opposite"/>
    <tag k="highway" v="residential"/>
    <tag k="lit" v="yes"/>
    <tag k="maxspeed" v="30"/>
    <tag k="name" v="Rue de Valois"/>
    <tag k="name:etymology:wikidata" v="Q7771"/>
    <tag k="name:ru" v="улица Валуа"/>
    <tag k="oneway" v="yes"/>
    <tag k="oneway:bicycle" v="no"/>
    <tag k="sidewalk:both" v="separate"/>
    <tag k="source:maxspeed" v="FR:zone30"/>
    <tag k="surface" v="asphalt"/>
    <tag k="width" v="5.5"/>
    <tag k="zone:maxspeed" v="FR:30"/>
  </way>
  <way id="4251055" version="24" timestamp="2024-02-20T15:01:53Z" changeset="147695833" uid="6290466" user="benjamintchik">
    <nd ref="25272937"/>
    <nd ref="6858702720"/>
    <nd ref="2200326794"/>
    <nd ref="25272938"/>
    <nd ref="2200326793"/>
    <nd ref="6858687741"/>
    <nd ref="25273362"/>
    <tag k="cycleway" v="opposite"/>
    <tag k="highway" v="residential"/>
    <tag k="lit" v="yes"/>
    <tag k="maxspeed" v="30"/>
    <tag k="maxspeed:type" v="FR:zone30"/>
    <tag k="name" v="Rue Thérèse"/>
    <tag k="name:etymology:wikidata" v="Q152549"/>
    <tag k="oneway" v="yes"/>
    <tag k="oneway:bicycle" v="no"/>
    <tag k="sidewalk:both" v="separate"/>
    <tag k="smoothness" v="good"/>
    <tag k="source:maxspeed" v="FR:zone30"/>
    <tag k="surface" v="asphalt"/>
    <tag k="zone:maxspeed" v="FR:30"/>
  </way>
  <way id="4251056" version="20" timestamp="2024-01-03T00:39:03Z" changeset="145818902" uid="53964" user="_Mathieu_">
    <nd ref="25207329"/>
    <nd ref="6227111301"/>
    <nd ref="2200326811"/>
    <nd ref="25272940"/>
    <tag k="cycleway" v="opposite"/>
    <tag k="highway" v="residential"/>
    <tag k="lit" v="yes"/>
    <tag k="maxspeed" v="30"/>
    <tag k="name" v="Rue Villedo"/>
    <tag k="oneway" v="yes"/>
    <tag k="oneway:bicycle" v="no"/>
    <tag k="sidewalk:both" v="separate"/>
    <tag k="smoothness" v="good"/>
    <tag k="source:maxspeed" v="FR:zone30"/>
    <tag k="surface" v="asphalt"/>
    <tag k="zone:maxspeed" v="FR:30"/>
  </way>
  <way id="4251058" version="28" timestamp="2024-02-20T15:02:16Z" changeset="147695833" uid="6290466" user="benjamintchik">
    <nd ref="6227111304"/>
    <nd ref="2200326789"/>
    <nd ref="25272938"/>
    <nd ref="2200326796"/>
    <nd ref="25272940"/>
    <nd ref="2200326827"/>
    <nd ref="25272939"/>
    <tag k="cycleway:left" v="opposite_lane"/>
    <tag k="cycleway:left:lane" v="exclusive"/>
    <tag k="cycleway:right" v="no"/>
    <tag k="highway" v="residential"/>
    <tag k="lit" v="yes"/>
    <tag k="maxspeed" v="30"/>
    <tag k="maxspeed:type" v="FR:zone30"/>
    <tag k="name" v="Rue Sainte-Anne"/>
    <tag k="name:etymology:wikidata" v="Q151209"/>
    <tag k="oneway" v="yes"/>
    <tag k="oneway:bicycle" v="no"/>
    <tag k="sidewalk:both" v="separate"/>
    <tag k="smoothness" v="good"/>
    <tag k="source:maxspeed" v="FR:zone30"/>
    <tag k="surface" v="asphalt"/>
    <tag k="zone:maxspeed" v="FR:30"/>
  </way>
  <way id="4251059" version="19" timestamp="2024-07-20T18:18:45Z" changeset="154190854" uid="2252690" user="gourlaysama">
    <nd ref="25272936"/>
    <nd ref="2200326835"/>
    <nd ref="2200326804"/>
    <nd ref="25272937"/>
    <tag k="cycleway:left" v="no"/>
    <tag k="highway" v="residential"/>
    <tag k="lanes" v="1"/>
    <tag k="lit" v="yes"/>
    <tag k="maxspeed" v="30"/>
    <tag k="maxspeed:type" v="FR:zone30"/>
    <tag k="name" v="Rue des Moulins"/>
    <tag k="name:etymology:wikidata" v="Q56822897"/>
    <tag k="oneway" v="yes"/>
    <tag k="oneway:bicycle" v="no"/>
    <tag k="sidewalk:both" v="separate"/>
    <tag k="smoothness" v="good"/>
    <tag k="surface" v="asphalt"/>
    <tag k="zone:maxspeed" v="FR:30"/>
  </way>
  <way id="4251060" version="23" timestamp="2024-08-28T17:26:12Z" changeset="155892081" uid="19003715" user="Gil ANDRE">
    <nd ref="8255942949"/>
    <nd ref="4695326498"/>
    <nd ref="6227111307"/>
    <nd ref="2200326843"/>
    <nd ref="25272935"/>
    <tag k="cycleway:both" v="no"/>
    <tag k="highway" v="residential"/>
    <tag k="lit" v="yes"/>
    <tag k="maxspeed" v="30"/>
    <tag k="maxspeed:type" v="sign"/>
    <tag k="name" v="Rue de Ventadour"/>
    <tag k="name:etymology:wikidata" v="Q3260433"/>
    <tag k="oneway" v="yes"/>
    <tag k="oneway:bicycle" v="no"/>
    <tag k="sidewalk:both" v="separate"/>
    <tag k="smoothness" v="good"/>
    <tag k="surface" v="asphalt"/>
    <tag k="width" v="3.5"/>
  </way>
  <way id="4263207" version="37" timestamp="2024-11-14T21:33:29Z" changeset="159147361" uid="21820374" user="VLD287">
    <nd ref="25581143"/>
    <nd ref="25581142"/>
    <nd ref="2200326786"/>
    <nd ref="253963373"/>
    <nd ref="681555465"/>
    <nd ref="253963379"/>
    <nd ref="2200326798"/>
    <nd ref="25581141"/>
    <tag k="cycleway:both" v="no"/>
    <tag k="highway" v="unclassified"/>
    <tag k="lane_markings" v="no"/>
    <tag k="lit" v="yes"/>
    <tag k="maxspeed" v="30"/>
    <tag k="maxspeed:type" v="sign"/>
    <tag k="motor_vehicle" v="destination"/>
    <tag k="name" v="Rue des Petits Champs"/>
    <tag k="name:etymology:wikidata" v="Q188869"/>
    <tag k="oneway" v="yes"/>
    <tag k="oneway:bicycle" v="no"/>
    <tag k="psv" v="yes"/>
    <tag k="sidewalk:both" v="separate"/>
    <tag k="smoothness" v="good"/>
    <tag k="surface" v="asphalt"/>
  </way>
  <way id="4263215" version="28" timestamp="2025-02-22T11:44:51Z" changeset="162810641" uid="19679725" user="Planespotter1">
    <nd ref="25581027"/>
    <nd ref="2200326739"/>
    <nd ref="25581033"/>
    <nd ref="9074748724"/>
    <nd ref="10796182102"/>
    <nd ref="11029810169"/>
    <nd ref="9074748722"/>
    <tag k="cycleway:both" v="no"/>
    <tag k="highway" v="residential"/>
    <tag k="lit" v="yes"/>
    <tag k="maxspeed" v="30"/>
    <tag k="maxspeed:type" v="FR:zone30"/>
    <tag k="name" v="Rue du Colonel Driant"/>
    <tag k="name:etymology:wikidata" v="Q275053"/>
    <tag k="sidewalk:both" v="separate"/>
    <tag k="sidewalk:both:surface" v="asphalt"/>
    <tag k="smoothness" v="excellent"/>
    <tag k="surface" v="asphalt"/>
    <tag k="width" v="7"/>
  </way>
  <way id="4263219" version="47" timestamp="2025-01-07T23:08:26Z" changeset="161114375" uid="2678738" user="fgouget">
    <nd ref="25581143"/>
    <nd ref="2200326781"/>
    <nd ref="12481927543"/>
    <nd ref="2200326759"/>
    <nd ref="25581184"/>
    <nd ref="2200326751"/>
    <nd ref="2200326747"/>
    <nd ref="25581186"/>
    <tag k="cycleway:both" v="no"/>
    <tag k="highway" v="residential"/>
    <tag k="lit" v="yes"/>
    <tag k="maxspeed" v="30"/>
    <tag k="name" v="Rue La Vrillière"/>
    <tag k="name:ru" v="улица Врийер"/>
    <tag k="oneway" v="yes"/>
    <tag k="oneway:bicycle" v="no"/>
    <tag k="service" v="alley"/>
    <tag k="sidewalk:both" v="separate"/>
    <tag k="smoothness" v="good"/>
    <tag k="surface" v="asphalt"/>
  </way>
  <way id="4263220" version="45" timestamp="2024-07-22T18:22:18Z" changeset="154275756" uid="2252690" user="gourlaysama">
    <nd ref="25581155"/>
    <nd ref="2200326764"/>
    <nd ref="2200326754"/>
    <nd ref="25581184"/>
    <tag k="cycleway:both" v="no"/>
    <tag k="highway" v="residential"/>
    <tag k="lit" v="yes"/>
    <tag k="maxspeed" v="30"/>
    <tag k="name" v="Rue Catinat"/>
    <tag k="name:etymology:wikidata" v="Q315308"/>
    <tag k="name:ru" v="улица Катина"/>
    <tag k="oneway" v="yes"/>
    <tag k="oneway:bicycle" v="no"/>
    <tag k="service" v="alley"/>
    <tag k="sidewalk:both" v="separate"/>
    <tag k="sidewalk:both:surface" v="asphalt"/>
    <tag k="smoothness" v="good"/>
    <tag k="surface" v="asphalt"/>
  </way>
  <way id="4472319" version="17" timestamp="2024-02-14T21:35:03Z" changeset="147467347" uid="6290466" user="benjamintchik">
    <nd ref="25554240"/>
    <nd ref="2200326721"/>
    <nd ref="4839141973"/>
    <nd ref="2200326717"/>
    <nd ref="693605057"/>
    <tag k="cycleway:left" v="opposite"/>
    <tag k="highway" v="residential"/>
    <tag k="lit" v="yes"/>
    <tag k="maxspeed" v="30"/>
    <tag k="name" v="Place du Palais Royal"/>
    <tag k="name:etymology:wikidata" v="Q329948"/>
    <tag k="oneway" v="yes"/>
    <tag k="oneway:bicycle" v="no"/>
    <tag k="surface" v="asphalt"/>
  </way>
  <way id="4758584" version="19" timestamp="2024-02-14T21:35:03Z" changeset="147467347" uid="6290466" user="benjamintchik">
    <nd ref="968757781"/>
    <nd ref="2200326719"/>
    <nd ref="2200326725"/>
    <nd ref="25554239"/>
    <tag k="cycleway:left" v="opposite"/>
    <tag k="highway" v="residential"/>
    <tag k="lit" v="yes"/>
    <tag k="maxspeed" v="30"/>
    <tag k="name" v="Place du Palais Royal"/>
    <tag k="name:etymology:wikidata" v="Q329948"/>
    <tag k="oneway" v="yes"/>
    <tag k="oneway:bicycle" v="no"/>
    <tag k="surface" v="asphalt"/>
  </way>
  <way id="18229335" version="29" timestamp="2025-04-05T17:39:27Z" changeset="164561925" uid="57126" user="yxoc">
    <nd ref="25581148"/>
    <nd ref="11070833901"/>
    <nd ref="11070833900"/>
    <nd ref="12731655818"/>
    <nd ref="2200326784"/>
    <nd ref="25581143"/>
    <tag k="cycleway:both" v="no"/>
    <tag k="highway" v="residential"/>
    <tag k="lit" v="yes"/>
    <tag k="maxspeed" v="30"/>
    <tag k="name" v="Rue la Feuillade"/>
    <tag k="name:etymology:wikidata" v="Q3084897"/>
    <tag k="oneway" v="no"/>
    <tag k="sidewalk:both" v="separate"/>
    <tag k="sidewalk:both:surface" v="asphalt"/>
    <tag k="smoothness" v="good"/>
    <tag k="surface" v="asphalt"/>
  </way>
  <way id="19856739" version="19" timestamp="2024-03-27T10:19:16Z" changeset="149216608" uid="2678738" user="fgouget">
    <nd ref="10229624712"/>
    <nd ref="6454346355"/>
    <nd ref="10229624713"/>
    <nd ref="6454346356"/>
    <nd ref="25273423"/>
    <tag k="highway" v="residential"/>
    <tag k="lit" v="yes"/>
    <tag k="maxspeed" v="30"/>
    <tag k="name" v="Rue de Montpensier"/>
    <tag k="name:etymology:wikidata" v="Q586877"/>
    <tag k="sidewalk:both" v="separate"/>
    <tag k="smoothness" v="good"/>
    <tag k="source:maxspeed" v="FR:zone30"/>
    <tag k="surface" v="asphalt"/>
    <tag k="zone:maxspeed" v="FR:30"/>
  </way>
  <way id="33112850" version="44" timestamp="2024-02-18T16:25:49Z" changeset="147615976" uid="6290466" user="benjamintchik">
    <nd ref="368205"/>
    <nd ref="6506262917"/>
    <nd ref="2200150910"/>
    <nd ref="6621336338"/>
    <nd ref="373732187"/>
    <tag k="highway" v="secondary"/>
    <tag k="lanes" v="2"/>
    <tag k="lit" v="yes"/>
    <tag k="maxspeed" v="30"/>
    <tag k="name" v="Place des Pyramides"/>
    <tag k="name:etymology:wikidata" v="Q332543"/>
    <tag k="name:ru" v="площадь Пирамид"/>
    <tag k="oneway" v="yes"/>
    <tag k="source" v="cadastre-dgi-fr source : Direction Générale des Impôts - Cadastre;mise à jour : 2008"/>
    <tag k="surface" v="asphalt"/>
  </way>
  <way id="34321456" version="16" timestamp="2025-01-20T16:11:54Z" changeset="161569791" uid="2678738" user="fgouget">
    <nd ref="25272892"/>
    <nd ref="2200326855"/>
    <nd ref="25272913"/>
    <nd ref="12518535871"/>
    <nd ref="3708765652"/>
    <nd ref="25273063"/>
    <nd ref="12518535874"/>
    <nd ref="2200326840"/>
    <nd ref="280462687"/>
    <tag k="cycleway" v="opposite"/>
    <tag k="highway" v="residential"/>
    <tag k="lit" v="yes"/>
    <tag k="maxspeed" v="30"/>
    <tag k="maxspeed:type" v="FR:zone30"/>
    <tag k="name" v="Rue Gomboust"/>
    <tag k="name:etymology:wikidata" v="Q1578663"/>
    <tag k="oneway" v="yes"/>
    <tag k="oneway:bicycle" v="no"/>
    <tag k="sidewalk" v="separate"/>
    <tag k="smoothness" v="good"/>
    <tag k="surface" v="asphalt"/>
  </way>
  <way id="34321457" version="40" timestamp="2024-02-18T16:25:10Z" changeset="147615976" uid="6290466" user="benjamintchik">
    <nd ref="25273191"/>
    <nd ref="10751528312"/>
    <nd ref="5299452117"/>
    <nd ref="5299452118"/>
    <nd ref="25273162"/>
    <nd ref="5299452119"/>
    <nd ref="3455598000"/>
    <tag k="highway" v="residential"/>
    <tag k="lit" v="yes"/>
    <tag k="maxspeed" v="30"/>
    <tag k="maxspeed:type" v="FR:zone30"/>
    <tag k="name" v="Rue d'Argenteuil"/>
    <tag k="name:etymology:wikidata" v="Q181946"/>
    <tag k="name:ru" v="улица Аржантёй"/>
    <tag k="oneway" v="yes"/>
    <tag k="sidewalk" v="separate"/>
    <tag k="surface" v="asphalt"/>
  </way>
  <way id="42722202" version="17" timestamp="2023-08-11T16:26:26Z" changeset="139757837" uid="318821" user="Yod4z">
    <nd ref="534280971"/>
    <nd ref="534280972"/>
    <nd ref="534280973"/>
    <nd ref="534280974"/>
    <nd ref="534280975"/>
    <nd ref="534280976"/>
    <nd ref="534280977"/>
    <nd ref="534280978"/>
    <nd ref="534280979"/>
    <nd ref="534280980"/>
    <nd ref="534280981"/>
    <nd ref="534280982"/>
    <nd ref="534280983"/>
    <nd ref="534280984"/>
    <nd ref="534280985"/>
    <nd ref="534280986"/>
    <nd ref="534280988"/>
    <nd ref="534280989"/>
    <nd ref="534280990"/>
    <nd ref="534280991"/>
    <nd ref="534280992"/>
    <nd ref="534280993"/>
    <nd ref="534280994"/>
    <nd ref="534280995"/>
    <nd ref="534280996"/>
    <nd ref="534280997"/>
    <nd ref="534280998"/>
    <nd ref="534280999"/>
    <nd ref="534281000"/>
    <nd ref="534281001"/>
    <nd ref="534281002"/>
    <nd ref="534281003"/>
    <nd ref="534281004"/>
    <nd ref="534281005"/>
    <nd ref="534281006"/>
    <nd ref="534281007"/>
    <nd ref="534281008"/>
    <nd ref="534281009"/>
    <nd ref="534281014"/>
    <nd ref="534281015"/>
    <nd ref="534281016"/>
    <nd ref="534281011"/>
    <nd ref="534281012"/>
    <nd ref="534281013"/>
    <nd ref="534281018"/>
    <nd ref="534281019"/>
    <nd ref="534281020"/>
    <nd ref="534281021"/>
    <nd ref="534281022"/>
    <nd ref="534281024"/>
    <nd ref="534281025"/>
    <nd ref="534281026"/>
    <nd ref="534281027"/>
    <nd ref="534281030"/>
    <nd ref="534281031"/>
    <nd ref="534281032"/>
    <nd ref="534281034"/>
    <nd ref="534281035"/>
    <nd ref="534281036"/>
    <nd ref="534281037"/>
    <nd ref="534281047"/>
    <nd ref="534281048"/>
    <nd ref="534281049"/>
    <nd ref="534281038"/>
    <nd ref="534281039"/>
    <nd ref="534281040"/>
    <nd ref="534281041"/>
    <nd ref="534281042"/>
    <nd ref="534281044"/>
    <nd ref="534281045"/>
    <nd ref="534281060"/>
    <nd ref="534281059"/>
    <nd ref="534281058"/>
    <nd ref="534281057"/>
    <nd ref="534281056"/>
    <nd ref="534281055"/>
    <nd ref="534281054"/>
    <nd ref="534281052"/>
    <nd ref="534281051"/>
    <nd ref="534281050"/>
    <nd ref="534281070"/>
    <nd ref="534281069"/>
    <nd ref="534281068"/>
    <nd ref="534281067"/>
    <nd ref="534281066"/>
    <nd ref="534281065"/>
    <nd ref="534281064"/>
    <nd ref="534281063"/>
    <nd ref="534281083"/>
    <nd ref="534281082"/>
    <nd ref="534281081"/>
    <nd ref="534281080"/>
    <nd ref="534281079"/>
    <nd ref="534281078"/>
    <nd ref="534281077"/>
    <nd ref="534281076"/>
    <nd ref="534281075"/>
    <nd ref="534281074"/>
    <nd ref="534281073"/>
    <nd ref="534281072"/>
    <nd ref="534281071"/>
    <nd ref="534281090"/>
    <nd ref="534281089"/>
    <nd ref="534281088"/>
    <nd ref="534281087"/>
    <nd ref="534281086"/>
    <nd ref="534281085"/>
    <nd ref="534281084"/>
    <nd ref="534281095"/>
    <nd ref="534281094"/>
    <nd ref="534281093"/>
    <nd ref="534281092"/>
    <nd ref="640361449"/>
    <nd ref="640361445"/>
    <nd ref="640361463"/>
    <nd ref="640361460"/>
    <nd ref="640361456"/>
    <nd ref="640361453"/>
    <nd ref="640361515"/>
    <nd ref="640361512"/>
    <nd ref="640361510"/>
    <nd ref="640361507"/>
    <nd ref="640361565"/>
    <nd ref="640361561"/>
    <nd ref="640361558"/>
    <nd ref="640361554"/>
    <nd ref="534281128"/>
    <nd ref="534281126"/>
    <nd ref="534281125"/>
    <nd ref="640361605"/>
    <nd ref="640361603"/>
    <nd ref="640361601"/>
    <nd ref="640361600"/>
    <nd ref="640361598"/>
    <nd ref="640361596"/>
    <nd ref="640361595"/>
    <nd ref="640361593"/>
    <nd ref="640361592"/>
    <nd ref="640361588"/>
    <nd ref="640361584"/>
    <nd ref="640361581"/>
    <nd ref="640361579"/>
    <nd ref="640361576"/>
    <nd ref="640361573"/>
    <nd ref="640361570"/>
    <nd ref="640361568"/>
    <nd ref="640361503"/>
    <nd ref="640361550"/>
    <nd ref="640361548"/>
    <nd ref="640361544"/>
    <nd ref="640361540"/>
    <nd ref="640361538"/>
    <nd ref="640361534"/>
    <nd ref="640361500"/>
    <nd ref="640361497"/>
    <nd ref="640361495"/>
    <nd ref="640361492"/>
    <nd ref="640361490"/>
    <nd ref="640361488"/>
    <nd ref="640361486"/>
    <nd ref="640361484"/>
    <nd ref="640361482"/>
    <nd ref="640361479"/>
    <nd ref="640361477"/>
    <nd ref="640361475"/>
    <nd ref="640361472"/>
    <nd ref="640361469"/>
    <nd ref="640361465"/>
    <nd ref="8016758828"/>
    <nd ref="640361444"/>
    <nd ref="640361440"/>
    <nd ref="640361436"/>
    <nd ref="640361433"/>
    <nd ref="640361430"/>
    <nd ref="640361426"/>
    <nd ref="640361422"/>
    <nd ref="640361420"/>
    <nd ref="640361417"/>
    <nd ref="640361413"/>
    <nd ref="640361410"/>
    <nd ref="640361406"/>
    <nd ref="640361404"/>
    <nd ref="640361401"/>
    <nd ref="640361399"/>
    <nd ref="640361396"/>
    <nd ref="640361394"/>
    <nd ref="640361379"/>
    <nd ref="640361376"/>
    <nd ref="640361373"/>
    <nd ref="640361372"/>
    <nd ref="640361371"/>
    <nd ref="640361370"/>
    <nd ref="640361369"/>
    <nd ref="640361368"/>
    <nd ref="640361367"/>
    <nd ref="640361364"/>
    <nd ref="640361361"/>
    <nd ref="640361359"/>
    <nd ref="640361356"/>
    <nd ref="640361353"/>
    <nd ref="640361350"/>
    <nd ref="640361348"/>
    <nd ref="640361344"/>
    <nd ref="640361341"/>
    <nd ref="640361338"/>
    <nd ref="640361336"/>
    <nd ref="640361333"/>
    <nd ref="640361330"/>
    <nd ref="640361327"/>
    <nd ref="640361326"/>
    <nd ref="640361322"/>
    <nd ref="640361319"/>
    <nd ref="640361317"/>
    <nd ref="640361315"/>
    <nd ref="640361313"/>
    <nd ref="640361311"/>
    <nd ref="640361309"/>
    <nd ref="640361308"/>
    <nd ref="640361306"/>
    <nd ref="640361304"/>
    <nd ref="640361302"/>
    <nd ref="640361301"/>
    <nd ref="640361299"/>
    <nd ref="640361297"/>
    <nd ref="640361296"/>
    <nd ref="640361294"/>
    <nd ref="640361293"/>
    <nd ref="640361292"/>
    <nd ref="640361291"/>
    <nd ref="640361285"/>
    <nd ref="640361283"/>
    <nd ref="640361281"/>
    <nd ref="640361280"/>
    <nd ref="640361278"/>
    <nd ref="640361276"/>
    <nd ref="640361275"/>
    <nd ref="640361273"/>
    <nd ref="640361271"/>
    <nd ref="640361269"/>
    <nd ref="640361268"/>
    <nd ref="640361266"/>
    <nd ref="640361264"/>
    <nd ref="640361263"/>
    <nd ref="640361262"/>
    <nd ref="640361261"/>
    <nd ref="640361260"/>
    <nd ref="640361259"/>
    <nd ref="640361258"/>
    <nd ref="640361257"/>
    <nd ref="640361255"/>
    <nd ref="640361252"/>
    <nd ref="640361254"/>
    <nd ref="640361246"/>
    <nd ref="640361244"/>
    <nd ref="640361243"/>
    <nd ref="640361241"/>
    <nd ref="640361240"/>
    <nd ref="640361238"/>
    <nd ref="640361236"/>
    <nd ref="11108004647"/>
    <nd ref="640361249"/>
    <nd ref="640361248"/>
    <nd ref="640361235"/>
    <nd ref="640361233"/>
    <nd ref="640361230"/>
    <nd ref="640361227"/>
    <nd ref="640361226"/>
    <nd ref="640361216"/>
    <nd ref="640361223"/>
    <nd ref="640361220"/>
    <nd ref="682364957"/>
    <nd ref="640361218"/>
    <nd ref="640361132"/>
    <nd ref="640361170"/>
    <nd ref="640361169"/>
    <nd ref="640361168"/>
    <nd ref="640361167"/>
    <nd ref="640361166"/>
    <nd ref="640361163"/>
    <nd ref="640361160"/>
    <nd ref="640361157"/>
    <nd ref="11108004648"/>
    <nd ref="640361156"/>
    <nd ref="640361153"/>
    <nd ref="640361150"/>
    <nd ref="640361148"/>
    <nd ref="640361146"/>
    <nd ref="640361143"/>
    <nd ref="640361141"/>
    <nd ref="534280971"/>
    <tag k="amenity" v="place_of_worship"/>
    <tag k="building" v="church"/>
    <tag k="building:levels" v="1"/>
    <tag k="denomination" v="catholic"/>
    <tag k="heritage" v="2"/>
    <tag k="heritage:operator" v="mhs"/>
    <tag k="mhs:inscription_date" v="1914-12-07"/>
    <tag k="name" v="Église Saint-Roch"/>
    <tag k="name:es" v="Iglesia de San Roque"/>
    <tag k="organ:builder:chapel" v="Abbey"/>
    <tag k="organ:builder:choir" v="Cavaillé-Coll;Mutin"/>
    <tag k="organ:builder:tribune" v="Lesclop;F.H. Clicquot;Dallery;Cavaillé-Coll;Gutschenritter;Renaud"/>
    <tag k="organ:capacity" v="3"/>
    <tag k="organ:listed_status" v="yes"/>
    <tag k="organ:type" v="choir;chapel"/>
    <tag k="organ:type:FR" v="tribune"/>
    <tag k="ref:FR:CEF" v="75101_05"/>
    <tag k="ref:mhs" v="PA00085798"/>
    <tag k="religion" v="christian"/>
    <tag k="source" v="cadastre-dgi-fr source : Direction Générale des Impôts - Cadastre. Mise à jour : 2009"/>
    <tag k="source:heritage" v="data.gouv.fr:Ministère de la culture et de la communication - 05/2016"/>
    <tag k="tourism" v="attraction"/>
    <tag k="website" v="http://www.saintrochparis.cef.fr/"/>
    <tag k="wheelchair" v="no"/>
    <tag k="wikidata" v="Q1436962"/>
    <tag k="wikipedia" v="fr:Église Saint-Roch (Paris)"/>
  </way>
  <way id="53818038" version="7" timestamp="2022-11-01T17:44:43Z" changeset="128357518" uid="172867" user="AmiFritz">
    <nd ref="679398892"/>
    <nd ref="679466971"/>
    <nd ref="679398895"/>
    <nd ref="679398853"/>
    <nd ref="679398782"/>
    <nd ref="679398893"/>
    <nd ref="679398780"/>
    <nd ref="679398892"/>
    <tag k="amenity" v="dentist"/>
    <tag k="architect" v="Philippe de Fouchier"/>
    <tag k="building" v="yes"/>
    <tag k="check_date:opening_hours" v="2022-08-24"/>
    <tag k="contact:city" v="Paris"/>
    <tag k="contact:housenumber" v="179"/>
    <tag k="contact:postcode" v="75001"/>
    <tag k="contact:street" v="Rue Saint-Honoré"/>
    <tag k="healthcare" v="dentist"/>
    <tag k="name" v="Cabinet de radiologue dentaire"/>
    <tag k="opening_hours:signed" v="no"/>
    <tag k="source" v="cadastre-dgi-fr source : Direction Générale des Impôts - Cadastre. Mise à jour : 2010"/>
    <tag k="start_date" v="1997"/>
  </way>
  <way id="53818041" version="8" timestamp="2023-12-19T16:08:29Z" changeset="145298203" uid="2179792" user="votre_solution_de_visibilite_digitale_locale">
    <nd ref="679398897"/>
    <nd ref="679466975"/>
    <nd ref="679398898"/>
    <nd ref="679398899"/>
    <nd ref="679398900"/>
    <nd ref="679398844"/>
    <nd ref="679398839"/>
    <nd ref="679398831"/>
    <nd ref="679398877"/>
    <nd ref="679398879"/>
    <nd ref="679398880"/>
    <nd ref="679398881"/>
    <nd ref="679398882"/>
    <nd ref="679398837"/>
    <nd ref="679398883"/>
    <nd ref="679398876"/>
    <nd ref="679398875"/>
    <nd ref="679398884"/>
    <nd ref="679398897"/>
    <tag k="amenity" v="bar"/>
    <tag k="building" v="yes"/>
    <tag k="building:levels" v="6"/>
    <tag k="contact:city" v="Paris"/>
    <tag k="contact:housenumber" v="169"/>
    <tag k="contact:phone" v="+33 1 42 60 69 29"/>
    <tag k="contact:postcode" v="75001"/>
    <tag k="contact:street" v="Rue Saint-Honoré"/>
    <tag k="level" v="0"/>
    <tag k="name" v="Le Musset"/>
    <tag k="outdoor_seating" v="yes"/>
    <tag k="source" v="cadastre-dgi-fr source : Direction Générale des Impôts - Cadastre. Mise à jour : 2010"/>
    <tag k="toilets" v="yes"/>
  </way>
  <way id="54046079" version="33" timestamp="2024-03-28T17:28:44Z" changeset="149279721" uid="2678738" user="fgouget">
    <nd ref="681534715"/>
    <nd ref="2200326785"/>
    <nd ref="25581142"/>
    <tag k="highway" v="residential"/>
    <tag k="lit" v="yes"/>
    <tag k="maxspeed" v="30"/>
    <tag k="name" v="Rue Radziwill"/>
    <tag k="name:ru" v="улица Радзьвилль"/>
    <tag k="sidewalk:both" v="separate"/>
    <tag k="smoothness" v="good"/>
    <tag k="source" v="cadastre-dgi-fr source : Direction Générale des Impôts - Cadastre. Mise à jour : 2010"/>
    <tag k="surface" v="asphalt"/>
  </way>
  <way id="54046087" version="38" timestamp="2024-04-06T11:22:12Z" changeset="149650405" uid="6290466" user="benjamintchik">
    <nd ref="25581186"/>
    <nd ref="2200326746"/>
    <nd ref="2200326758"/>
    <nd ref="338647491"/>
    <tag k="highway" v="residential"/>
    <tag k="lit" v="yes"/>
    <tag k="maxspeed" v="30"/>
    <tag k="name" v="Rue Croix des Petits Champs"/>
    <tag k="name:etymology:wikidata" v="Q17172602"/>
    <tag k="name:ru" v="улица Круа-де-Пети-Шанз"/>
    <tag k="oneway" v="yes"/>
    <tag k="oneway:bicycle" v="no"/>
    <tag k="sidewalk:both" v="separate"/>
    <tag k="sidewalk:both:surface" v="paving_stones"/>
    <tag k="smoothness" v="good"/>
    <tag k="source" v="cadastre-dgi-fr source : Direction Générale des Impôts - Cadastre. Mise à jour : 2010"/>
    <tag k="surface" v="asphalt"/>
  </way>
  <way id="54046088" version="2" timestamp="2025-02-22T10:59:07Z" changeset="162811443" uid="19679725" user="Planespotter1">
    <nd ref="681534776"/>
    <nd ref="681534778"/>
    <nd ref="681534779"/>
    <nd ref="681534782"/>
    <nd ref="681534786"/>
    <nd ref="681534789"/>
    <nd ref="681534776"/>
    <tag k="building" v="yes"/>
    <tag k="name" v="Banque de France"/>
    <tag k="shop" v="kiosk"/>
    <tag k="source" v="cadastre-dgi-fr source : Direction Générale des Impôts - Cadastre. Mise à jour : 2010"/>
  </way>
  <way id="54046934" version="14" timestamp="2024-03-16T22:26:00Z" changeset="148752428" uid="7550430" user="Britzz">
    <nd ref="681564916"/>
    <nd ref="681564917"/>
    <nd ref="9987856621"/>
    <nd ref="9987856622"/>
    <nd ref="9987856620"/>
    <nd ref="681564918"/>
    <nd ref="681564920"/>
    <nd ref="681564921"/>
    <nd ref="9987856619"/>
    <nd ref="9987856618"/>
    <nd ref="681564922"/>
    <nd ref="9987856617"/>
    <nd ref="681564901"/>
    <nd ref="9987852516"/>
    <nd ref="681564902"/>
    <nd ref="681564903"/>
    <nd ref="9987852515"/>
    <nd ref="681564905"/>
    <nd ref="681564906"/>
    <nd ref="681564907"/>
    <nd ref="681564908"/>
    <nd ref="681564909"/>
    <nd ref="681564910"/>
    <nd ref="681564913"/>
    <nd ref="681564911"/>
    <nd ref="681564912"/>
    <nd ref="681564860"/>
    <nd ref="681564863"/>
    <nd ref="8561668409"/>
    <nd ref="681564865"/>
    <nd ref="681564867"/>
    <nd ref="681564869"/>
    <nd ref="681564870"/>
    <nd ref="8561668410"/>
    <nd ref="681564871"/>
    <nd ref="681564873"/>
    <nd ref="681564826"/>
    <nd ref="681564829"/>
    <nd ref="9987852514"/>
    <nd ref="681564831"/>
    <nd ref="9987852513"/>
    <nd ref="681564833"/>
    <nd ref="681564836"/>
    <nd ref="9987852512"/>
    <nd ref="681564838"/>
    <nd ref="9987852511"/>
    <nd ref="681564840"/>
    <nd ref="681564841"/>
    <nd ref="681564844"/>
    <nd ref="681564846"/>
    <nd ref="681564848"/>
    <nd ref="681564851"/>
    <nd ref="9987852509"/>
    <nd ref="9987852510"/>
    <nd ref="681564853"/>
    <nd ref="681564856"/>
    <nd ref="681564858"/>
    <nd ref="681564896"/>
    <nd ref="681564880"/>
    <nd ref="681564881"/>
    <nd ref="8596109235"/>
    <nd ref="681564882"/>
    <nd ref="681564884"/>
    <nd ref="681564889"/>
    <nd ref="681571385"/>
    <nd ref="681564915"/>
    <nd ref="681564933"/>
    <nd ref="681564891"/>
    <nd ref="681564897"/>
    <nd ref="681564898"/>
    <nd ref="8596109236"/>
    <nd ref="681564892"/>
    <nd ref="681564895"/>
    <nd ref="681564894"/>
    <nd ref="681564937"/>
    <nd ref="681564936"/>
    <nd ref="681564935"/>
    <nd ref="681564934"/>
    <nd ref="681564938"/>
    <nd ref="681564939"/>
    <nd ref="681564930"/>
    <nd ref="10767549524"/>
    <nd ref="681564931"/>
    <nd ref="681564926"/>
    <nd ref="681564927"/>
    <nd ref="8561668412"/>
    <nd ref="8561668411"/>
    <nd ref="681564928"/>
    <nd ref="681564929"/>
    <nd ref="8561668413"/>
    <nd ref="681564923"/>
    <nd ref="681564924"/>
    <nd ref="681564916"/>
    <tag k="admin_level" v="2"/>
    <tag k="building" v="public"/>
    <tag k="government" v="ministry"/>
    <tag k="height" v="30"/>
    <tag k="name" v="Ministère de la Culture et de la Communication"/>
    <tag k="office" v="government"/>
    <tag k="source" v="cadastre-dgi-fr source : Direction Générale des Impôts - Cadastre. Mise à jour : 2010"/>
    <tag k="wikidata" v="Q384602"/>
    <tag k="wikipedia" v="fr:Ministère de la Culture (France)"/>
  </way>
  <way id="54046936" version="3" timestamp="2023-04-02T04:22:58Z" changeset="134400789" uid="10731965" user="Hydrel">
    <nd ref="681564966"/>
    <nd ref="681564950"/>
    <nd ref="681564949"/>
    <nd ref="681564953"/>
    <nd ref="681564955"/>
    <nd ref="681564986"/>
    <nd ref="681564995"/>
    <nd ref="681565029"/>
    <nd ref="681564981"/>
    <nd ref="681564980"/>
    <nd ref="681564978"/>
    <nd ref="681564983"/>
    <nd ref="681564966"/>
    <tag k="architect" v="Truelle Architecture"/>
    <tag k="building" v="apartments"/>
    <tag k="name" v="Centre d’Hébergement Montesquieu Emmaüs"/>
    <tag k="source" v="cadastre-dgi-fr source : Direction Générale des Impôts - Cadastre. Mise à jour : 2010"/>
  </way>
  <way id="54053055" version="42" timestamp="2025-01-15T10:39:48Z" changeset="161375351" uid="7512839" user="Benoît C MdP">
    <nd ref="25273190"/>
    <nd ref="6210875050"/>
    <nd ref="1829447185"/>
    <nd ref="15643099"/>
    <tag k="highway" v="tertiary"/>
    <tag k="lanes" v="4"/>
    <tag k="lanes:backward" v="2"/>
    <tag k="lanes:forward" v="2"/>
    <tag k="lit" v="yes"/>
    <tag k="maxspeed" v="30"/>
    <tag k="name" v="Place André Malraux"/>
    <tag k="name:etymology:wikidata" v="Q151164"/>
    <tag k="name:ru" v="площадь Андре Мальро"/>
    <tag k="sidewalk:both" v="separate"/>
    <tag k="smoothness" v="intermediate"/>
    <tag k="source" v="cadastre-dgi-fr source : Direction Générale des Impôts - Cadastre. Mise à jour : 2010"/>
    <tag k="surface" v="sett"/>
  </way>
  <way id="54054009" version="45" timestamp="2024-06-04T22:34:12Z" changeset="152263644" uid="2678738" user="fgouget">
    <nd ref="25273423"/>
    <nd ref="3027464981"/>
    <tag k="cycleway:left" v="track"/>
    <tag k="cycleway:left:oneway" v="-1"/>
    <tag k="cycleway:right" v="no"/>
    <tag k="highway" v="residential"/>
    <tag k="lit" v="yes"/>
    <tag k="maxspeed" v="30"/>
    <tag k="name" v="Rue de Montpensier"/>
    <tag k="name:etymology:wikidata" v="Q586877"/>
    <tag k="name:ru" v="улица Монпансье"/>
    <tag k="oneway" v="yes"/>
    <tag k="oneway:bicycle" v="no"/>
    <tag k="parking:lane:both" v="no"/>
    <tag k="sidewalk:both" v="separate"/>
    <tag k="smoothness" v="good"/>
    <tag k="source" v="cadastre-dgi-fr source : Direction Générale des Impôts - Cadastre. Mise à jour : 2010"/>
    <tag k="source:maxspeed" v="FR:zone30"/>
    <tag k="surface" v="asphalt"/>
    <tag k="zone:maxspeed" v="FR:30"/>
  </way>
  <way id="54054915" version="15" timestamp="2023-04-23T13:44:32Z" changeset="135262629" uid="974272" user="baprischka">
    <nd ref="681742562"/>
    <nd ref="681742571"/>
    <nd ref="681742573"/>
    <nd ref="2292717532"/>
    <nd ref="681742564"/>
    <nd ref="681818407"/>
    <nd ref="681742574"/>
    <nd ref="681742577"/>
    <nd ref="681818452"/>
    <nd ref="10009399014"/>
    <nd ref="681742579"/>
    <nd ref="681742578"/>
    <nd ref="2292717544"/>
    <nd ref="681742562"/>
    <tag k="amenity" v="theatre"/>
    <tag k="building" v="yes"/>
    <tag k="building:levels" v="5"/>
    <tag k="check_date" v="2023-04-23"/>
    <tag k="contact:city" v="Paris"/>
    <tag k="contact:email" v="tpr@theatrepalaisroyal.com"/>
    <tag k="contact:housenumber" v="38"/>
    <tag k="contact:phone" v="+33 1 42 97 59 76"/>
    <tag k="contact:postcode" v="75001"/>
    <tag k="contact:street" v="Rue de Montpensier"/>
    <tag k="contact:website" v="https://theatrepalaisroyal.com"/>
    <tag k="name" v="Théâtre du Palais Royal"/>
    <tag k="source" v="cadastre-dgi-fr source : Direction Générale des Impôts - Cadastre. Mise à jour : 2010"/>
    <tag k="start_date" v="1783"/>
    <tag k="wheelchair" v="no"/>
    <tag k="wikidata" v="Q3527809"/>
    <tag k="wikipedia" v="fr:Théâtre du Palais-Royal"/>
  </way>
  <way id="54058979" version="6" timestamp="2025-04-15T21:21:11Z" changeset="165003713" uid="15094172" user="chl-osm">
    <nd ref="681818370"/>
    <nd ref="681842338"/>
    <nd ref="681818371"/>
    <nd ref="681818411"/>
    <nd ref="681842395"/>
    <nd ref="681818409"/>
    <nd ref="681818370"/>
    <tag k="building" v="yes"/>
    <tag k="building:levels" v="7"/>
    <tag k="contact:phone" v="+33 1 42 96 68 06"/>
    <tag k="name" v="Hôtel Washington Opéra"/>
    <tag k="ref:FR:SIREN" v="542053640"/>
    <tag k="ref:FR:SIRET" v="54205364000018"/>
    <tag k="ref:vatin" v="FR67542053640"/>
    <tag k="source" v="cadastre-dgi-fr source : Direction Générale des Impôts - Cadastre. Mise à jour : 2010"/>
    <tag k="stars" v="4"/>
    <tag k="tourism" v="hotel"/>
    <tag k="website" v="https://www.hotelwashingtonopera.com"/>
    <tag k="wheelchair" v="limited"/>
  </way>
  <way id="54059381" version="24" timestamp="2024-11-03T20:23:49Z" changeset="158715873" uid="7550430" user="Britzz">
    <nd ref="25273362"/>
    <nd ref="6858691550"/>
    <nd ref="7029557305"/>
    <nd ref="12310311904"/>
    <nd ref="6385343749"/>
    <nd ref="10229689295"/>
    <nd ref="2200150978"/>
    <nd ref="10229689292"/>
    <tag k="highway" v="residential"/>
    <tag k="lit" v="yes"/>
    <tag k="maxspeed" v="30"/>
    <tag k="maxspeed:type" v="FR:zone30"/>
    <tag k="name" v="Rue Molière"/>
    <tag k="name:etymology:wikidata" v="Q820628"/>
    <tag k="oneway" v="yes"/>
    <tag k="oneway:bicycle" v="no"/>
    <tag k="parking:lane:left" v="no"/>
    <tag k="parking:lane:right" v="parallel"/>
    <tag k="parking:lane:right:parallel" v="painted_area_only"/>
    <tag k="sidewalk:both" v="separate"/>
    <tag k="smoothness" v="good"/>
    <tag k="source" v="cadastre-dgi-fr source : Direction Générale des Impôts - Cadastre. Mise à jour : 2010"/>
    <tag k="source:maxspeed" v="FR:zone30"/>
    <tag k="surface" v="asphalt"/>
    <tag k="zone:maxspeed" v="FR:30"/>
  </way>
  <way id="54097804" version="8" timestamp="2022-03-16T13:04:15Z" changeset="118551350" uid="195017" user="Julien39">
    <nd ref="682215821"/>
    <nd ref="682215822"/>
    <nd ref="682215823"/>
    <nd ref="682215831"/>
    <nd ref="682215824"/>
    <nd ref="682215825"/>
    <nd ref="682215826"/>
    <nd ref="682215828"/>
    <nd ref="682215829"/>
    <nd ref="682215834"/>
    <nd ref="8630423028"/>
    <nd ref="682215835"/>
    <nd ref="682215836"/>
    <nd ref="682215837"/>
    <nd ref="682215838"/>
    <nd ref="682215839"/>
    <nd ref="682215830"/>
    <nd ref="682215832"/>
    <nd ref="682215813"/>
    <nd ref="682215814"/>
    <nd ref="682215815"/>
    <nd ref="682215812"/>
    <nd ref="682215821"/>
    <tag k="amenity" v="fountain"/>
    <tag k="building" v="yes"/>
    <tag k="building:levels" v="3"/>
    <tag k="fountain" v="decorative"/>
    <tag k="name" v="Fontaine Molière"/>
    <tag k="source" v="cadastre-dgi-fr source : Direction Générale des Impôts - Cadastre. Mise à jour : 2010"/>
    <tag k="tourism" v="attraction"/>
    <tag k="wikidata" v="Q3076047"/>
    <tag k="wikipedia" v="fr:Fontaine Molière"/>
  </way>
  <way id="54106139" version="6" timestamp="2025-04-19T13:19:05Z" changeset="165153614" uid="15094172" user="chl-osm">
    <nd ref="682244288"/>
    <nd ref="682259032"/>
    <nd ref="682259031"/>
    <nd ref="682244291"/>
    <nd ref="682243993"/>
    <nd ref="682243904"/>
    <nd ref="682243884"/>
    <nd ref="682244288"/>
    <tag k="building" v="hotel"/>
    <tag k="building:levels" v="6"/>
    <tag k="contact:phone" v="+33 1 42 96 10 01"/>
    <tag k="name" v="Hôtel Thérèse"/>
    <tag k="ref:FR:SIREN" v="542054101"/>
    <tag k="ref:FR:SIRET" v="54205410100010"/>
    <tag k="ref:vatin" v="FR92542054101"/>
    <tag k="source" v="cadastre-dgi-fr source : Direction Générale des Impôts - Cadastre. Mise à jour : 2010"/>
    <tag k="stars" v="4"/>
    <tag k="tourism" v="hotel"/>
    <tag k="website" v="https://www.hoteltherese.com"/>
  </way>
  <way id="54106142" version="17" timestamp="2025-02-20T15:35:25Z" changeset="162746756" uid="5589" user="user_5589">
    <nd ref="682243820"/>
    <nd ref="682243693"/>
    <nd ref="682258939"/>
    <nd ref="682244075"/>
    <nd ref="682243834"/>
    <nd ref="682243837"/>
    <nd ref="682243854"/>
    <nd ref="682243840"/>
    <nd ref="682243777"/>
    <nd ref="682243768"/>
    <nd ref="682243714"/>
    <nd ref="682243711"/>
    <nd ref="682243707"/>
    <nd ref="682243704"/>
    <nd ref="682243827"/>
    <nd ref="682243823"/>
    <nd ref="682243820"/>
    <tag k="amenity" v="fire_station"/>
    <tag k="building" v="yes"/>
    <tag k="check_date" v="2024-04-02"/>
    <tag k="emergency:phone" v="+33 1 42 61 03 93"/>
    <tag k="name" v="Centre de secours Saint-Honoré"/>
    <tag k="official_name" v="SAINT HONORE"/>
    <tag k="operator" v="BSPP"/>
    <tag k="operator:en" v="Paris Fire Brigade"/>
    <tag k="operator:fr" v="BSPP"/>
    <tag k="operator:wikidata" v="Q583422"/>
    <tag k="operator:wikipedia" v="fr:Brigade de sapeurs-pompiers de Paris"/>
    <tag k="phone" v="+33 1 42 61 03 26"/>
    <tag k="ref" v="STHO"/>
    <tag k="ref:FR:BSPP:CIE" v="7"/>
    <tag k="ref:FR:BSPP:EM_GRPT" v="0"/>
    <tag k="ref:FR:BSPP:GRPT" v="1"/>
    <tag k="ref:FR:BSPP:PC_CIE" v="0"/>
    <tag k="source" v="cadastre-dgi-fr source : Direction Générale des Impôts - Cadastre. Mise à jour : 2010"/>
    <tag k="source:BSPP" v="data.gouv.fr"/>
    <tag k="wikidata" v="Q28445247"/>
  </way>
  <way id="54108312" version="6" timestamp="2025-04-15T21:21:11Z" changeset="165003713" uid="15094172" user="chl-osm">
    <nd ref="682267035"/>
    <nd ref="682294269"/>
    <nd ref="682266941"/>
    <nd ref="682267022"/>
    <nd ref="682267033"/>
    <nd ref="682267045"/>
    <nd ref="682267036"/>
    <nd ref="682267035"/>
    <tag k="building" v="hotel"/>
    <tag k="building:levels" v="5"/>
    <tag k="contact:phone" v="+33 1 42 97 46 20"/>
    <tag k="name" v="Louvre Richelieu"/>
    <tag k="ref:FR:SIREN" v="542032958"/>
    <tag k="ref:FR:SIRET" v="54203295800010"/>
    <tag k="ref:vatin" v="FR04542032958"/>
    <tag k="source" v="cadastre-dgi-fr source : Direction Générale des Impôts - Cadastre. Mise à jour : 2010"/>
    <tag k="stars" v="3"/>
    <tag k="tourism" v="hotel"/>
    <tag k="website" v="https://www.louvre-richelieu.com"/>
  </way>
  <way id="61980999" version="43" timestamp="2024-02-18T16:25:49Z" changeset="147615976" uid="6290466" user="benjamintchik">
    <nd ref="368205"/>
    <nd ref="6506262918"/>
    <nd ref="2200150915"/>
    <nd ref="6621336339"/>
    <nd ref="373732187"/>
    <tag k="highway" v="secondary"/>
    <tag k="lanes" v="2"/>
    <tag k="lit" v="yes"/>
    <tag k="maxspeed" v="30"/>
    <tag k="name" v="Place des Pyramides"/>
    <tag k="name:etymology:wikidata" v="Q332543"/>
    <tag k="name:ru" v="площадь Пирамид"/>
    <tag k="oneway" v="yes"/>
    <tag k="source" v="cadastre-dgi-fr source : Direction Générale des Impôts - Cadastre;mise à jour : 2008"/>
    <tag k="surface" v="asphalt"/>
  </way>
  <way id="71122986" version="52" timestamp="2025-03-04T11:39:11Z" changeset="163197650" uid="12133211" user="FlorentParisCentre">
    <nd ref="15643098"/>
    <nd ref="6111089543"/>
    <nd ref="283279676"/>
    <nd ref="25207329"/>
    <nd ref="11028038026"/>
    <nd ref="11028144048"/>
    <nd ref="25273340"/>
    <nd ref="681818225"/>
    <nd ref="25207327"/>
    <nd ref="2200150923"/>
    <nd ref="10229624712"/>
    <tag k="busway:right" v="lane"/>
    <tag k="cycleway" v="no"/>
    <tag k="highway" v="tertiary"/>
    <tag k="lanes" v="2"/>
    <tag k="lanes:bus" v="1"/>
    <tag k="lit" v="yes"/>
    <tag k="maxspeed" v="30"/>
    <tag k="name" v="Rue de Richelieu"/>
    <tag k="name:etymology:wikidata" v="Q26702"/>
    <tag k="name:ru" v="улица Ришельё"/>
    <tag k="oneway" v="yes"/>
    <tag k="sidewalk:both" v="separate"/>
    <tag k="smoothness" v="good"/>
    <tag k="source:maxspeed" v="FR:zone30"/>
    <tag k="surface" v="asphalt"/>
    <tag k="zone:maxspeed" v="FR:30"/>
  </way>
  <way id="96156233" version="30" timestamp="2025-01-21T11:22:54Z" changeset="161596411" uid="11220113" user="ivanbranco">
    <nd ref="1114192971"/>
    <nd ref="1114192792"/>
    <nd ref="1114193140"/>
    <nd ref="1114192776"/>
    <nd ref="1114193945"/>
    <nd ref="5592104585"/>
    <nd ref="1114193226"/>
    <nd ref="1114192866"/>
    <nd ref="1114194094"/>
    <nd ref="1114193456"/>
    <nd ref="1114192951"/>
    <nd ref="1114194230"/>
    <nd ref="1114193648"/>
    <nd ref="1114193054"/>
    <nd ref="1114192971"/>
    <tag k="artist:wikidata" v="Q499022"/>
    <tag k="artist_name" v="Emmanuel Frémiet"/>
    <tag k="artwork_type" v="sculpture"/>
    <tag k="building" v="yes"/>
    <tag k="historic" v="monument"/>
    <tag k="name" v="Jeanne d'Arc"/>
    <tag k="name:fr" v="Jeanne d'Arc"/>
    <tag k="name:ko" v="다르크"/>
    <tag k="name:ru" v="Жанна д'Арк"/>
    <tag k="name:zh" v="聖女貞德"/>
    <tag k="start_date" v="1874"/>
    <tag k="statue" v="equestrian"/>
    <tag k="subject:wikidata" v="Q7226"/>
    <tag k="tourism" v="artwork"/>
    <tag k="wheelchair" v="yes"/>
    <tag k="wikidata" v="Q3497617"/>
    <tag k="wikipedia" v="fr:Statue équestre de Jeanne d'Arc (place des Pyramides)"/>
  </way>
  <way id="123324285" version="40" timestamp="2025-01-15T10:39:48Z" changeset="161375351" uid="7512839" user="Benoît C MdP">
    <nd ref="10229689292"/>
    <nd ref="2200150970"/>
    <nd ref="10229689293"/>
    <nd ref="5660204338"/>
    <nd ref="4745803461"/>
    <nd ref="2200150936"/>
    <nd ref="25273190"/>
    <tag k="busway" v="lane"/>
    <tag k="cycleway" v="share_busway"/>
    <tag k="highway" v="tertiary"/>
    <tag k="lanes" v="4"/>
    <tag k="lit" v="yes"/>
    <tag k="maxspeed" v="30"/>
    <tag k="name" v="Avenue de l'Opéra"/>
    <tag k="name:etymology:wikidata" v="Q283339"/>
    <tag k="name:ru" v="проспект Оперы"/>
    <tag k="sidewalk:both" v="separate"/>
    <tag k="smoothness" v="good"/>
    <tag k="surface" v="asphalt"/>
  </way>
  <way id="123487808" version="43" timestamp="2025-01-20T16:11:54Z" changeset="161569791" uid="2678738" user="fgouget">
    <nd ref="25207339"/>
    <nd ref="280462687"/>
    <nd ref="5819918134"/>
    <nd ref="12518535873"/>
    <nd ref="12518535872"/>
    <nd ref="4693372782"/>
    <nd ref="6262431135"/>
    <nd ref="12518535848"/>
    <nd ref="12518535849"/>
    <nd ref="2200326824"/>
    <nd ref="8255942949"/>
    <nd ref="4695326496"/>
    <nd ref="6227111305"/>
    <nd ref="682294054"/>
    <tag k="busway" v="lane"/>
    <tag k="cycleway" v="share_busway"/>
    <tag k="highway" v="secondary"/>
    <tag k="lanes" v="4"/>
    <tag k="lit" v="yes"/>
    <tag k="maxspeed" v="30"/>
    <tag k="name" v="Avenue de l'Opéra"/>
    <tag k="name:etymology:wikidata" v="Q283339"/>
    <tag k="name:ru" v="проспект Оперы"/>
    <tag k="sidewalk:both" v="separate"/>
    <tag k="smoothness" v="good"/>
    <tag k="source" v="cadastre-dgi-fr source : Direction Générale des Impôts - Cadastre. Mise à jour : 2011"/>
    <tag k="surface" v="asphalt"/>
  </way>
  <way id="123487843" version="44" timestamp="2024-11-14T21:33:29Z" changeset="159147361" uid="21820374" user="VLD287">
    <nd ref="25581144"/>
    <nd ref="12341402135"/>
    <nd ref="25581143"/>
    <tag k="cycleway:both" v="no"/>
    <tag k="highway" v="residential"/>
    <tag k="lit" v="yes"/>
    <tag k="maxspeed" v="30"/>
    <tag k="name" v="Rue des Petits Pères"/>
    <tag k="name:etymology:wikidata" v="Q60965652"/>
    <tag k="name:ru" v="улица Пети Пэр"/>
    <tag k="oneway" v="yes"/>
    <tag k="oneway:bicycle" v="no"/>
    <tag k="sidewalk:both" v="separate"/>
    <tag k="sidewalk:both:surface" v="paving_stones"/>
    <tag k="smoothness" v="good"/>
    <tag k="source" v="cadastre-dgi-fr source : Direction Générale des Impôts - Cadastre. Mise à jour : 2010"/>
    <tag k="surface" v="asphalt"/>
  </way>
  <way id="187019914" version="41" timestamp="2025-01-19T18:28:24Z" changeset="161535631" uid="7550430" user="Britzz">
    <nd ref="25273209"/>
    <nd ref="10229689296"/>
    <nd ref="2200151024"/>
    <nd ref="12515919664"/>
    <nd ref="10229689292"/>
    <tag k="busway" v="lane"/>
    <tag k="cycleway" v="share_busway"/>
    <tag k="highway" v="tertiary"/>
    <tag k="lanes" v="4"/>
    <tag k="lit" v="yes"/>
    <tag k="maxspeed" v="30"/>
    <tag k="name" v="Avenue de l'Opéra"/>
    <tag k="name:etymology:wikidata" v="Q283339"/>
    <tag k="name:ru" v="проспект Оперы"/>
    <tag k="sidewalk:both" v="separate"/>
    <tag k="smoothness" v="good"/>
    <tag k="source" v="cadastre-dgi-fr source : Direction Générale des Impôts - Cadastre. Mise à jour : 2011"/>
    <tag k="surface" v="asphalt"/>
  </way>
  <way id="192903838" version="44" timestamp="2025-01-20T16:11:54Z" changeset="161569791" uid="2678738" user="fgouget">
    <nd ref="682294054"/>
    <nd ref="2200326791"/>
    <nd ref="12518535845"/>
    <nd ref="12518535844"/>
    <nd ref="6289521433"/>
    <nd ref="11029801067"/>
    <nd ref="25273209"/>
    <tag k="busway" v="lane"/>
    <tag k="cycleway" v="share_busway"/>
    <tag k="highway" v="tertiary"/>
    <tag k="lanes" v="4"/>
    <tag k="lit" v="yes"/>
    <tag k="maxspeed" v="30"/>
    <tag k="name" v="Avenue de l'Opéra"/>
    <tag k="name:etymology:wikidata" v="Q283339"/>
    <tag k="name:ru" v="проспект Оперы"/>
    <tag k="sidewalk:both" v="separate"/>
    <tag k="smoothness" v="good"/>
    <tag k="source" v="cadastre-dgi-fr source : Direction Générale des Impôts - Cadastre. Mise à jour : 2011"/>
    <tag k="surface" v="asphalt"/>
  </way>
  <way id="193939957" version="47" timestamp="2025-01-07T23:08:26Z" changeset="161114375" uid="2678738" user="fgouget">
    <nd ref="25581148"/>
    <nd ref="1806081224"/>
    <nd ref="25581154"/>
    <nd ref="1806081222"/>
    <nd ref="12481927547"/>
    <nd ref="25581155"/>
    <nd ref="1806081220"/>
    <nd ref="25581156"/>
    <nd ref="338647491"/>
    <tag k="cycleway:both" v="no"/>
    <tag k="highway" v="tertiary"/>
    <tag k="junction" v="circular"/>
    <tag k="lane_markings" v="no"/>
    <tag k="lit" v="yes"/>
    <tag k="maxspeed" v="30"/>
    <tag k="name" v="Place des Victoires"/>
    <tag k="name:etymology:wikidata" v="Q3119163"/>
    <tag k="name:ru" v="площадь Побед"/>
    <tag k="note" v="not a roundabout; pas un giratoire"/>
    <tag k="oneway" v="yes"/>
    <tag k="sidewalk" v="left"/>
    <tag k="sidewalk:left:surface" v="paving_stones"/>
    <tag k="smoothness" v="good"/>
    <tag k="source" v="cadastre-dgi-fr source : Direction Générale des Impôts - Cadastre. Mise à jour : 2011"/>
    <tag k="surface" v="asphalt"/>
  </way>
  <way id="338480184" version="33" timestamp="2024-02-18T16:25:10Z" changeset="147615976" uid="6290466" user="benjamintchik">
    <nd ref="3455598000"/>
    <nd ref="5299452116"/>
    <nd ref="25273159"/>
    <nd ref="5299452115"/>
    <nd ref="6145476529"/>
    <nd ref="25273196"/>
    <tag k="highway" v="residential"/>
    <tag k="lit" v="yes"/>
    <tag k="maxspeed" v="30"/>
    <tag k="name" v="Rue d'Argenteuil"/>
    <tag k="name:etymology:wikidata" v="Q181946"/>
    <tag k="name:ru" v="улица Аржантёй"/>
    <tag k="oneway" v="yes"/>
    <tag k="sidewalk:both" v="separate"/>
    <tag k="smoothness" v="good"/>
    <tag k="surface" v="asphalt"/>
  </way>
  <way id="529535632" version="33" timestamp="2024-02-14T21:35:53Z" changeset="147467347" uid="6290466" user="benjamintchik">
    <nd ref="25273380"/>
    <nd ref="6210870217"/>
    <nd ref="1829447197"/>
    <nd ref="15643099"/>
    <tag k="cycleway:right" v="no"/>
    <tag k="highway" v="unclassified"/>
    <tag k="lane_markings" v="no"/>
    <tag k="lit" v="yes"/>
    <tag k="maxspeed" v="30"/>
    <tag k="maxspeed:type" v="FR:zone30"/>
    <tag k="name" v="Rue Saint-Honoré"/>
    <tag k="name:etymology:wikidata" v="Q17802602"/>
    <tag k="name:ru" v="улица Сент-Оноре"/>
    <tag k="oneway" v="yes"/>
    <tag k="sidewalk:both" v="separate"/>
    <tag k="surface" v="sett"/>
  </way>
  <way id="547703139" version="32" timestamp="2024-03-27T10:33:17Z" changeset="149216608" uid="2678738" user="fgouget">
    <nd ref="5291947480"/>
    <nd ref="2200326740"/>
    <nd ref="25581027"/>
    <tag k="cycleway:left" v="opposite_lane"/>
    <tag k="highway" v="residential"/>
    <tag k="lit" v="yes"/>
    <tag k="maxspeed" v="30"/>
    <tag k="name" v="Rue de Valois"/>
    <tag k="name:etymology:wikidata" v="Q7771"/>
    <tag k="name:ru" v="улица Валуа"/>
    <tag k="oneway" v="yes"/>
    <tag k="oneway:bicycle" v="no"/>
    <tag k="sidewalk:both" v="separate"/>
    <tag k="source:maxspeed" v="FR:zone30"/>
    <tag k="surface" v="asphalt"/>
    <tag k="zone:maxspeed" v="FR:30"/>
  </way>
  <way id="547703140" version="33" timestamp="2024-04-06T11:18:29Z" changeset="149650405" uid="6290466" user="benjamintchik">
    <nd ref="25581029"/>
    <nd ref="681555439"/>
    <nd ref="6208331891"/>
    <nd ref="6208331890"/>
    <nd ref="5291947480"/>
    <tag k="cycleway" v="opposite"/>
    <tag k="highway" v="residential"/>
    <tag k="lit" v="yes"/>
    <tag k="maxspeed" v="30"/>
    <tag k="name" v="Rue de Valois"/>
    <tag k="name:etymology:wikidata" v="Q7771"/>
    <tag k="name:ru" v="улица Валуа"/>
    <tag k="oneway" v="yes"/>
    <tag k="oneway:bicycle" v="no"/>
    <tag k="sidewalk:both" v="separate"/>
    <tag k="smoothness" v="good"/>
    <tag k="source:maxspeed" v="FR:zone30"/>
    <tag k="surface" v="asphalt"/>
    <tag k="zone:maxspeed" v="FR:30"/>
  </way>
  <way id="565884681" version="33" timestamp="2024-03-28T17:26:31Z" changeset="149279721" uid="2678738" user="fgouget">
    <nd ref="373732187"/>
    <nd ref="4693372783"/>
    <nd ref="11108004603"/>
    <nd ref="11108004602"/>
    <nd ref="2200150980"/>
    <nd ref="25273197"/>
    <tag k="highway" v="secondary"/>
    <tag k="lanes" v="3"/>
    <tag k="maxspeed" v="30"/>
    <tag k="name" v="Rue des Pyramides"/>
    <tag k="name:etymology:wikidata" v="Q332543"/>
    <tag k="name:ru" v="улица Пирамид"/>
    <tag k="oneway" v="yes"/>
    <tag k="sidewalk:both" v="separate"/>
    <tag k="surface" v="asphalt"/>
  </way>
  <way id="583429791" version="41" timestamp="2025-02-22T11:36:01Z" changeset="162810641" uid="19679725" user="Planespotter1">
    <nd ref="5238528592"/>
    <nd ref="25554266"/>
    <nd ref="10750763143"/>
    <nd ref="5143667125"/>
    <nd ref="2200150835"/>
    <nd ref="25554267"/>
    <tag k="busway:right" v="lane"/>
    <tag k="cycleway:left" v="lane"/>
    <tag k="cycleway:left:lane" v="exclusive"/>
    <tag k="cycleway:left:oneway" v="-1"/>
    <tag k="cycleway:right" v="share_busway"/>
    <tag k="highway" v="tertiary"/>
    <tag k="lane_markings" v="no"/>
    <tag k="lit" v="yes"/>
    <tag k="maxspeed" v="30"/>
    <tag k="name" v="Rue Saint-Honoré"/>
    <tag k="name:etymology:wikidata" v="Q17802602"/>
    <tag k="name:ru" v="улица Сент-Оноре"/>
    <tag k="oneway" v="yes"/>
    <tag k="oneway:bicycle" v="no"/>
    <tag k="sidewalk:both" v="separate"/>
    <tag k="sidewalk:both:surface" v="asphalt"/>
    <tag k="smoothness" v="good"/>
    <tag k="surface" v="asphalt"/>
    <tag k="width" v="12"/>
  </way>
  <way id="609331035" version="38" timestamp="2024-03-27T10:19:46Z" changeset="149216608" uid="2678738" user="fgouget">
    <nd ref="15643099"/>
    <nd ref="6210848131"/>
    <nd ref="6210852937"/>
    <nd ref="681677223"/>
    <nd ref="10091264938"/>
    <nd ref="5771737780"/>
    <tag k="cycleway:left" v="lane"/>
    <tag k="cycleway:left:lane" v="exclusive"/>
    <tag k="cycleway:left:oneway" v="-1"/>
    <tag k="cycleway:right" v="no"/>
    <tag k="highway" v="tertiary"/>
    <tag k="lane_markings" v="no"/>
    <tag k="lit" v="yes"/>
    <tag k="maxspeed" v="30"/>
    <tag k="name" v="Rue Saint-Honoré"/>
    <tag k="name:etymology:wikidata" v="Q17802602"/>
    <tag k="name:ru" v="улица Сент-Оноре"/>
    <tag k="oneway" v="yes"/>
    <tag k="oneway:bicycle" v="no"/>
    <tag k="sidewalk:both" v="separate"/>
    <tag k="smoothness" v="intermediate"/>
    <tag k="surface" v="sett"/>
  </way>
  <way id="666970007" version="9" timestamp="2025-01-20T16:11:54Z" changeset="161569791" uid="2678738" user="fgouget">
    <nd ref="25207339"/>
    <nd ref="12518535875"/>
    <nd ref="6244897491"/>
    <nd ref="25273063"/>
    <tag k="highway" v="residential"/>
    <tag k="lit" v="yes"/>
    <tag k="maxspeed" v="30"/>
    <tag k="maxspeed:type" v="FR:zone30"/>
    <tag k="name" v="Rue Saint-Roch"/>
    <tag k="name:etymology:wikidata" v="Q1436962"/>
    <tag k="oneway" v="yes"/>
    <tag k="sidewalk:both" v="separate"/>
    <tag k="smoothness" v="good"/>
    <tag k="surface" v="asphalt"/>
  </way>
  <way id="678302493" version="33" timestamp="2024-03-27T10:19:50Z" changeset="149216608" uid="2678738" user="fgouget">
    <nd ref="5771737780"/>
    <nd ref="9742667222"/>
    <nd ref="25554239"/>
    <tag k="cycleway:left" v="lane"/>
    <tag k="cycleway:left:lane" v="exclusive"/>
    <tag k="cycleway:left:oneway" v="-1"/>
    <tag k="cycleway:right" v="no"/>
    <tag k="highway" v="tertiary"/>
    <tag k="lane_markings" v="no"/>
    <tag k="lit" v="yes"/>
    <tag k="maxspeed" v="30"/>
    <tag k="name" v="Rue Saint-Honoré"/>
    <tag k="name:etymology:wikidata" v="Q17802602"/>
    <tag k="name:ru" v="улица Сент-Оноре"/>
    <tag k="oneway" v="yes"/>
    <tag k="oneway:bicycle" v="no"/>
    <tag k="sidewalk:both" v="separate"/>
    <tag k="surface" v="asphalt"/>
  </way>
  <way id="693014366" version="39" timestamp="2025-01-19T18:28:24Z" changeset="161535631" uid="7550430" user="Britzz">
    <nd ref="11247130726"/>
    <nd ref="2200150918"/>
    <nd ref="25273194"/>
    <nd ref="25273191"/>
    <nd ref="10751528313"/>
    <nd ref="1928862527"/>
    <tag k="busway:right" v="lane"/>
    <tag k="cycleway:right" v="share_busway"/>
    <tag k="highway" v="unclassified"/>
    <tag k="lit" v="yes"/>
    <tag k="maxspeed" v="30"/>
    <tag k="name" v="Rue de l'Échelle"/>
    <tag k="name:etymology:wikidata" v="Q241212"/>
    <tag k="name:ru" v="улица Эшель"/>
    <tag k="sidewalk:both" v="separate"/>
    <tag k="source:maxspeed" v="FR:urban"/>
    <tag k="surface" v="asphalt"/>
  </way>
  <way id="743357027" version="9" timestamp="2024-02-20T15:01:53Z" changeset="147695833" uid="6290466" user="benjamintchik">
    <nd ref="4695326496"/>
    <nd ref="2200326807"/>
    <nd ref="25273016"/>
    <nd ref="25272937"/>
    <tag k="cycleway:left" v="opposite"/>
    <tag k="highway" v="residential"/>
    <tag k="lit" v="yes"/>
    <tag k="maxspeed" v="30"/>
    <tag k="maxspeed:type" v="FR:zone30"/>
    <tag k="name" v="Rue Thérèse"/>
    <tag k="name:etymology:wikidata" v="Q152549"/>
    <tag k="oneway" v="yes"/>
    <tag k="oneway:bicycle" v="no"/>
    <tag k="sidewalk:both" v="separate"/>
    <tag k="smoothness" v="good"/>
    <tag k="source:maxspeed" v="FR:zone30"/>
    <tag k="surface" v="asphalt"/>
    <tag k="zone:maxspeed" v="FR:30"/>
  </way>
  <way id="751818082" version="8" timestamp="2024-03-27T10:19:09Z" changeset="149216608" uid="2678738" user="fgouget">
    <nd ref="3027464981"/>
    <nd ref="6858699919"/>
    <nd ref="681818241"/>
    <nd ref="681818256"/>
    <nd ref="2292694597"/>
    <nd ref="681842204"/>
    <nd ref="25273429"/>
    <tag k="cycleway" v="opposite"/>
    <tag k="highway" v="residential"/>
    <tag k="maxspeed" v="30"/>
    <tag k="name" v="Rue de Montpensier"/>
    <tag k="name:etymology:wikidata" v="Q586877"/>
    <tag k="oneway" v="yes"/>
    <tag k="oneway:bicycle" v="no"/>
    <tag k="parking:lane:left" v="parallel"/>
    <tag k="parking:lane:left:parallel" v="painted_area_only"/>
    <tag k="parking:lane:right" v="no"/>
    <tag k="sidewalk:both" v="separate"/>
    <tag k="source:maxspeed" v="FR:zone30"/>
    <tag k="surface" v="asphalt"/>
    <tag k="zone:maxspeed" v="FR:30"/>
  </way>
  <way id="751986542" version="8" timestamp="2024-02-20T15:02:16Z" changeset="147695833" uid="6290466" user="benjamintchik">
    <nd ref="25273209"/>
    <nd ref="2200151072"/>
    <nd ref="6227111303"/>
    <nd ref="6227111304"/>
    <tag k="highway" v="residential"/>
    <tag k="lanes" v="2"/>
    <tag k="lit" v="yes"/>
    <tag k="maxspeed" v="30"/>
    <tag k="maxspeed:type" v="FR:zone30"/>
    <tag k="name" v="Rue Sainte-Anne"/>
    <tag k="name:etymology:wikidata" v="Q151209"/>
    <tag k="oneway" v="yes"/>
    <tag k="oneway:bicycle" v="no"/>
    <tag k="oneway:emergency" v="no"/>
    <tag k="parking:lane:both" v="no"/>
    <tag k="sidewalk:both" v="separate"/>
    <tag k="smoothness" v="good"/>
    <tag k="source:maxspeed" v="FR:zone30"/>
    <tag k="surface" v="asphalt"/>
    <tag k="zone:maxspeed" v="FR:30"/>
  </way>
  <way id="751989122" version="33" timestamp="2025-02-05T10:21:09Z" changeset="162158971" uid="7512839" user="Benoît C MdP">
    <nd ref="10229624712"/>
    <nd ref="681677328"/>
    <nd ref="1760623533"/>
    <nd ref="15643099"/>
    <tag k="highway" v="tertiary"/>
    <tag k="lane_markings" v="no"/>
    <tag k="lit" v="yes"/>
    <tag k="maxspeed" v="30"/>
    <tag k="name" v="Rue de Richelieu"/>
    <tag k="name:etymology:wikidata" v="Q26702"/>
    <tag k="name:ru" v="улица Ришельё"/>
    <tag k="oneway" v="yes"/>
    <tag k="sidewalk:left" v="separate"/>
    <tag k="sidewalk:right" v="yes"/>
    <tag k="smoothness" v="good"/>
    <tag k="surface" v="asphalt"/>
  </way>
  <way id="1180389715" version="29" timestamp="2024-10-30T08:30:48Z" changeset="158529991" uid="12133211" user="FlorentParisCentre">
    <nd ref="25273148"/>
    <nd ref="2200151051"/>
    <nd ref="338667205"/>
    <nd ref="11108004583"/>
    <nd ref="2200150995"/>
    <nd ref="25273197"/>
    <nd ref="2200150982"/>
    <nd ref="11247130727"/>
    <nd ref="2200150916"/>
    <nd ref="11247130726"/>
    <tag k="highway" v="unclassified"/>
    <tag k="lane_markings" v="no"/>
    <tag k="lit" v="yes"/>
    <tag k="maxspeed" v="30"/>
    <tag k="name" v="Rue Saint-Honoré"/>
    <tag k="name:etymology:wikidata" v="Q17802602"/>
    <tag k="name:fr" v="Rue Saint-Honoré"/>
    <tag k="name:ru" v="улица Сент-Оноре"/>
    <tag k="oneway" v="yes"/>
    <tag k="sidewalk:both" v="separate"/>
    <tag k="smoothness" v="good"/>
    <tag k="source:maxspeed" v="FR:urban"/>
    <tag k="surface" v="asphalt"/>
  </way>
  <way id="1274939131" version="5" timestamp="2025-03-03T10:29:11Z" changeset="163154823" uid="12133211" user="FlorentParisCentre">
    <nd ref="25581186"/>
    <nd ref="2200151042"/>
    <nd ref="25581044"/>
    <nd ref="25581042"/>
    <nd ref="12629308645"/>
    <tag k="cycleway:right" v="lane"/>
    <tag k="highway" v="residential"/>
    <tag k="lane_markings" v="no"/>
    <tag k="lit" v="yes"/>
    <tag k="maxspeed" v="30"/>
    <tag k="name" v="Rue Croix des Petits Champs"/>
    <tag k="name:etymology:wikidata" v="Q188869"/>
    <tag k="name:ru" v="улица Круа-де-Пети-Шанз"/>
    <tag k="oneway" v="no"/>
    <tag k="sidewalk:both" v="separate"/>
    <tag k="smoothness" v="good"/>
    <tag k="surface" v="asphalt"/>
    <tag k="width" v="10"/>
  </way>
  <way id="1329312090" version="1" timestamp="2024-10-30T08:30:48Z" changeset="158529991" uid="12133211" user="FlorentParisCentre">
    <nd ref="11247130726"/>
    <nd ref="2200150908"/>
    <nd ref="25273380"/>
    <tag k="highway" v="unclassified"/>
    <tag k="lane_markings" v="no"/>
    <tag k="lit" v="yes"/>
    <tag k="maxspeed" v="30"/>
    <tag k="name" v="Rue Saint-Honoré"/>
    <tag k="name:etymology:wikidata" v="Q17802602"/>
    <tag k="name:fr" v="Rue Saint-Honoré"/>
    <tag k="name:ru" v="улица Сент-Оноре"/>
    <tag k="oneway" v="yes"/>
    <tag k="sidewalk:both" v="separate"/>
    <tag k="smoothness" v="good"/>
    <tag k="source:maxspeed" v="FR:urban"/>
    <tag k="surface" v="asphalt"/>
  </way>
  <way id="1329312091" version="2" timestamp="2024-11-19T11:44:59Z" changeset="159320841" uid="2678738" user="fgouget">
    <nd ref="847813980"/>
    <nd ref="6506262916"/>
    <nd ref="9966710630"/>
    <nd ref="679339298"/>
    <nd ref="2200150904"/>
    <nd ref="11247130726"/>
    <tag k="busway:right" v="lane"/>
    <tag k="cycleway" v="opposite_lane"/>
    <tag k="cycleway:right" v="share_busway"/>
    <tag k="highway" v="unclassified"/>
    <tag k="lit" v="yes"/>
    <tag k="maxspeed" v="30"/>
    <tag k="name" v="Rue de l'Échelle"/>
    <tag k="name:etymology:wikidata" v="Q241212"/>
    <tag k="name:ru" v="улица Эшель"/>
    <tag k="oneway" v="yes"/>
    <tag k="sidewalk:both" v="separate"/>
    <tag k="source:maxspeed" v="FR:urban"/>
    <tag k="surface" v="asphalt"/>
  </way>
  <way id="1352689766" version="1" timestamp="2025-01-19T18:28:24Z" changeset="161535631" uid="7550430" user="Britzz">
    <nd ref="12515919664"/>
    <nd ref="12515919663"/>
    <nd ref="12515919662"/>
    <nd ref="1928862527"/>
    <tag k="highway" v="unclassified"/>
    <tag k="lit" v="yes"/>
    <tag k="maxspeed" v="30"/>
    <tag k="name" v="Rue de l'Échelle"/>
    <tag k="name:etymology:wikidata" v="Q241212"/>
    <tag k="name:ru" v="улица Эшель"/>
    <tag k="oneway" v="yes"/>
    <tag k="sidewalk:both" v="separate"/>
    <tag k="source:maxspeed" v="FR:urban"/>
    <tag k="surface" v="asphalt"/>
  </way>
  <way id="1352689767" version="1" timestamp="2025-01-19T18:28:24Z" changeset="161535631" uid="7550430" user="Britzz">
    <nd ref="1928862527"/>
    <nd ref="6227111302"/>
    <nd ref="10229689294"/>
    <nd ref="10751496795"/>
    <nd ref="10229689292"/>
    <tag k="highway" v="unclassified"/>
    <tag k="lit" v="yes"/>
    <tag k="maxspeed" v="30"/>
    <tag k="name" v="Rue de l'Échelle"/>
    <tag k="name:etymology:wikidata" v="Q241212"/>
    <tag k="name:ru" v="улица Эшель"/>
    <tag k="oneway" v="yes"/>
    <tag k="sidewalk:both" v="separate"/>
    <tag k="source:maxspeed" v="FR:urban"/>
    <tag k="surface" v="asphalt"/>
  </way>
  <way id="1363936457" version="2" timestamp="2025-03-03T10:29:11Z" changeset="163154823" uid="12133211" user="FlorentParisCentre">
    <nd ref="12629308645"/>
    <nd ref="9074748725"/>
    <nd ref="11029810170"/>
    <nd ref="9074748722"/>
    <tag k="cycleway:right" v="lane"/>
    <tag k="highway" v="residential"/>
    <tag k="lane_markings" v="no"/>
    <tag k="lit" v="yes"/>
    <tag k="maxspeed" v="30"/>
    <tag k="name" v="Rue Croix des Petits Champs"/>
    <tag k="name:etymology:wikidata" v="Q188869"/>
    <tag k="name:ru" v="улица Круа-де-Пети-Шанз"/>
    <tag k="oneway" v="no"/>
    <tag k="sidewalk:both" v="separate"/>
    <tag k="smoothness" v="good"/>
    <tag k="surface" v="asphalt"/>
    <tag k="width" v="10"/>
  </way>
  <relation id="539568" version="4" timestamp="2023-08-11T16:26:26Z" changeset="139757837" uid="318821" user="Yod4z">
    <member type="way" ref="53818035" role="outer"/>
    <member type="way" ref="53818048" role="inner"/>
    <tag k="building" v="yes"/>
    <tag k="building:levels" v="5"/>
    <tag k="layer" v="1"/>
    <tag k="name" v="PERSPECTIVE REIM - PERSPECTIVE SERVICES"/>
    <tag k="type" v="multipolygon"/>
  </relation>
  <relation id="541080" version="29" timestamp="2023-08-21T19:33:36Z" changeset="140197976" uid="19233464" user="secondaryhighway">
    <member type="way" ref="54046037" role="outer"/>
    <member type="way" ref="54046049" role="inner"/>
    <member type="way" ref="54046046" role="inner"/>
    <member type="way" ref="54046065" role="inner"/>
    <member type="way" ref="54046045" role="inner"/>
    <member type="way" ref="54046064" role="inner"/>
    <member type="way" ref="54046056" role="inner"/>
    <member type="way" ref="54046086" role="inner"/>
    <member type="way" ref="54046042" role="inner"/>
    <tag k="amenity" v="bank"/>
    <tag k="brand" v="Banque de France"/>
    <tag k="brand:wikidata" v="Q806950"/>
    <tag k="brand:wikipedia" v="en:Bank of France"/>
    <tag k="building" v="public"/>
    <tag k="building:levels" v="5"/>
    <tag k="name" v="Banque de France"/>
    <tag k="name:ru" v="Банк Франции"/>
    <tag k="operator:wikidata" v="Q806950"/>
    <tag k="source" v="cadastre-dgi-fr source : Direction Générale des Impôts - Cadastre. Mise à jour : 2010"/>
    <tag k="type" v="multipolygon"/>
  </relation>
  <relation id="541438" version="3" timestamp="2025-04-04T23:31:07Z" changeset="164531481" uid="15094172" user="chl-osm">
    <member type="way" ref="54097739" role="inner"/>
    <member type="way" ref="54097743" role="outer"/>
    <tag k="building" v="hotel"/>
    <tag k="contact:phone" v="+33 1 73 62 11 11"/>
    <tag k="name" v="Drawing Hotel"/>
    <tag k="stars" v="4"/>
    <tag k="tourism" v="hotel"/>
    <tag k="type" v="multipolygon"/>
    <tag k="website" v="https://www.drawinghotel.com"/>
  </relation>
  <relation id="3300400" version="29" timestamp="2023-08-21T19:33:36Z" changeset="140197976" uid="19233464" user="secondaryhighway">
    <member type="way" ref="54053049" role="outer"/>
    <member type="way" ref="54053050" role="inner"/>
    <member type="way" ref="244102109" role="inner"/>
    <tag k="building" v="palace"/>
    <tag k="height" v="30"/>
    <tag k="historic" v="manor"/>
    <tag k="name" v="Palais Royal"/>
    <tag k="name:ru" v="Пале-Рояль"/>
    <tag k="tourism" v="attraction"/>
    <tag k="type" v="multipolygon"/>
    <tag k="wikidata" v="Q329948"/>
    <tag k="wikipedia" v="fr:Palais-Royal"/>
  </relation>

</osm>
