<?xml version="1.0" encoding="UTF-8"?>
<osm version="0.6" generator="Overpass API 0.7.62.5 1bd436f1">
<note>The data included in this document is from www.openstreetmap.org. The data is made available under ODbL.</note>
<meta osm_base="2025-04-05T17:03:56Z" areas="2024-12-31T00:49:33Z"/>

  <node id="27220334" lat="51.1549463" lon="1.3196609" version="2" timestamp="2008-04-26T18:31:08Z" changeset="259047" uid="7221" user="Crid">
    <tag k="created_by" v="JOSM"/>
  </node>
  <node id="36900972" lat="51.1943398" lon="1.3416877" version="4" timestamp="2024-09-03T15:40:12Z" changeset="156148212" uid="11471297" user="Palgrave Peter"/>
  <node id="260030328" lat="51.1787956" lon="1.3392592" version="4" timestamp="2014-11-30T17:43:21Z" changeset="27137196" uid="100214" user="chris boucher"/>
  <node id="282909101" lat="51.1879081" lon="1.3696917" version="3" timestamp="2024-09-07T09:30:59Z" changeset="156305033" uid="11471297" user="Palgrave Peter"/>
  <node id="282915632" lat="51.1808803" lon="1.3100691" version="3" timestamp="2012-12-13T09:30:53Z" changeset="14257924" uid="7037" user="Gregory Williams"/>
  <node id="339685543" lat="51.1597295" lon="1.3516150" version="3" timestamp="2012-09-22T17:14:15Z" changeset="13210072" uid="7037" user="Gregory Williams"/>
  <node id="349152433" lat="51.1679882" lon="1.3103937" version="2" timestamp="2024-09-04T14:13:27Z" changeset="156189382" uid="11471297" user="Palgrave Peter"/>
  <node id="384343143" lat="51.1745073" lon="1.3435514" version="6" timestamp="2021-07-15T09:31:21Z" changeset="108036947" uid="608760" user="gregrs">
    <tag k="addr:county" v="Kent"/>
    <tag k="addr:postcode" v="CT15 5JL"/>
    <tag k="addr:street" v="The Street"/>
    <tag k="addr:village" v="Martin"/>
    <tag k="amenity" v="pub"/>
    <tag k="fhrs:id" v="1340256"/>
    <tag k="food" v="yes"/>
    <tag k="name" v="The Old Lantern Inn"/>
    <tag k="phone" v="+44 1304 852276"/>
    <tag k="source:addr" v="FHRS Open Data"/>
    <tag k="website" v="http://www.theoldlanterninn.co.uk/"/>
  </node>
  <node id="1154174665" lat="51.1658312" lon="1.3558318" version="1" timestamp="2011-02-15T09:12:54Z" changeset="7293028" uid="7037" user="Gregory Williams"/>
  <node id="7160271801" lat="51.1683537" lon="1.3397450" version="5" timestamp="2024-09-04T10:31:01Z" changeset="156179250" uid="11471297" user="Palgrave Peter">
    <tag k="addr:city" v="East Langdon"/>
    <tag k="addr:housename" v="East Langdon Village Hall"/>
    <tag k="addr:postcode" v="CT15 5JH"/>
    <tag k="addr:street" v="The Street"/>
    <tag k="amenity" v="post_office"/>
    <tag k="brand" v="Post Office"/>
    <tag k="brand:wikidata" v="Q1783168"/>
    <tag k="name" v="East Langdon Post Office"/>
    <tag k="note" v="Post Office data refers to &quot;Village Hall&quot; however the building is known as and labelled &quot;Parish Hall&quot;."/>
    <tag k="opening_hours" v="Tu,Th 09:00-12:00"/>
    <tag k="ref:pol_id" v="119751"/>
    <tag k="website" v="https://www.postoffice.co.uk/branch-finder/1184717/east-langdon"/>
  </node>
  <way id="23623024" version="6" timestamp="2024-08-17T12:05:25Z" changeset="155367054" uid="115894" user="DaveF">
    <nd ref="255892527"/>
    <nd ref="12116782387"/>
    <nd ref="339685467"/>
    <nd ref="1154174657"/>
    <tag k="highway" v="unclassified"/>
    <tag k="maxspeed" v="30 mph"/>
    <tag k="name" v="Station Approach"/>
    <tag k="source:name" v="OS_OpenData_Locator"/>
  </way>
  <way id="23623027" version="10" timestamp="2021-10-29T18:42:27Z" changeset="113136917" uid="493595" user="Yorvik Prestigitator">
    <nd ref="255892538"/>
    <nd ref="9210744618"/>
    <nd ref="9210744617"/>
    <nd ref="255892537"/>
    <nd ref="9210710516"/>
    <nd ref="255892536"/>
    <nd ref="351866430"/>
    <tag k="highway" v="unclassified"/>
    <tag k="maxspeed" v="30 mph"/>
    <tag k="name" v="Station Road"/>
  </way>
  <way id="23623028" version="15" timestamp="2024-09-04T10:31:01Z" changeset="156179250" uid="11471297" user="Palgrave Peter">
    <nd ref="255892544"/>
    <nd ref="255892550"/>
    <nd ref="255892546"/>
    <nd ref="5339702811"/>
    <nd ref="5339702812"/>
    <nd ref="12155158047"/>
    <nd ref="255892547"/>
    <nd ref="5339702807"/>
    <nd ref="5339703082"/>
    <nd ref="255892545"/>
    <tag k="highway" v="unclassified"/>
    <tag k="maxspeed" v="60 mph"/>
    <tag k="maxspeed:type" v="GB:nsl_single"/>
    <tag k="name" v="Church Lane"/>
  </way>
  <way id="23623029" version="10" timestamp="2021-08-27T11:52:01Z" changeset="110338149" uid="242345" user="confusedbuffalo">
    <nd ref="36901041"/>
    <nd ref="866620053"/>
    <nd ref="351866243"/>
    <nd ref="255892558"/>
    <nd ref="351866257"/>
    <nd ref="351866288"/>
    <nd ref="255892557"/>
    <nd ref="866616705"/>
    <nd ref="351866294"/>
    <nd ref="255892556"/>
    <nd ref="866618889"/>
    <nd ref="351866304"/>
    <nd ref="866619782"/>
    <nd ref="255892555"/>
    <nd ref="866618696"/>
    <nd ref="255892554"/>
    <nd ref="255892553"/>
    <nd ref="255892552"/>
    <nd ref="351866320"/>
    <nd ref="8039028183"/>
    <nd ref="351866332"/>
    <nd ref="3212803967"/>
    <nd ref="255892551"/>
    <nd ref="351866346"/>
    <nd ref="255892549"/>
    <nd ref="351866357"/>
    <nd ref="255892544"/>
    <tag k="highway" v="unclassified"/>
    <tag k="maxspeed" v="60 mph"/>
    <tag k="maxspeed:type" v="GB:nsl_single"/>
    <tag k="name" v="Waldershare Lane"/>
  </way>
  <way id="23983511" version="8" timestamp="2024-09-03T15:40:12Z" changeset="156148212" uid="11471297" user="Palgrave Peter">
    <nd ref="36901053"/>
    <nd ref="260030295"/>
    <nd ref="859225612"/>
    <nd ref="260030302"/>
    <nd ref="260030303"/>
    <nd ref="12153962634"/>
    <nd ref="260030306"/>
    <nd ref="260030307"/>
    <nd ref="260030308"/>
    <nd ref="859224724"/>
    <nd ref="859227130"/>
    <nd ref="260030309"/>
    <nd ref="859226377"/>
    <nd ref="260030310"/>
    <nd ref="859227494"/>
    <nd ref="859225475"/>
    <nd ref="859226774"/>
    <nd ref="859223882"/>
    <nd ref="859222874"/>
    <nd ref="859223786"/>
    <nd ref="260030311"/>
    <nd ref="859222780"/>
    <nd ref="260030312"/>
    <nd ref="260030313"/>
    <nd ref="260030314"/>
    <nd ref="260030315"/>
    <nd ref="859227150"/>
    <nd ref="260030316"/>
    <nd ref="549256531"/>
    <nd ref="260030317"/>
    <nd ref="549256528"/>
    <nd ref="260030318"/>
    <nd ref="260030319"/>
    <tag k="highway" v="unclassified"/>
    <tag k="maxspeed" v="60 mph"/>
    <tag k="maxspeed:type" v="GB:nsl_single"/>
    <tag k="name" v="Waterworks Hill"/>
    <tag k="source:name" v="OS_OpenData_Locator"/>
  </way>
  <way id="30713979" version="9" timestamp="2021-08-27T11:52:01Z" changeset="110338149" uid="242345" user="confusedbuffalo">
    <nd ref="282909101"/>
    <nd ref="339685121"/>
    <nd ref="339685124"/>
    <nd ref="339685127"/>
    <nd ref="339685131"/>
    <nd ref="339685134"/>
    <nd ref="339685139"/>
    <nd ref="339685142"/>
    <nd ref="339685146"/>
    <nd ref="339685152"/>
    <nd ref="339685157"/>
    <nd ref="339685163"/>
    <nd ref="339685168"/>
    <nd ref="1354252310"/>
    <nd ref="339685175"/>
    <nd ref="339685179"/>
    <nd ref="339685184"/>
    <nd ref="339685192"/>
    <nd ref="339685198"/>
    <nd ref="339685203"/>
    <nd ref="339685208"/>
    <nd ref="339685396"/>
    <tag k="highway" v="unclassified"/>
    <tag k="maxspeed" v="60 mph"/>
    <tag k="maxspeed:type" v="GB:nsl_single"/>
    <tag k="name" v="Ringwould Road"/>
    <tag k="source:name" v="OS_OpenData_StreetView"/>
  </way>
  <way id="30713981" version="7" timestamp="2021-08-27T11:52:01Z" changeset="110338149" uid="242345" user="confusedbuffalo">
    <nd ref="339685396"/>
    <nd ref="339685399"/>
    <tag k="bridge" v="yes"/>
    <tag k="highway" v="unclassified"/>
    <tag k="layer" v="1"/>
    <tag k="maxspeed" v="60 mph"/>
    <tag k="maxspeed:type" v="GB:nsl_single"/>
    <tag k="name" v="Ringwould Road"/>
    <tag k="source:name" v="OS_OpenData_StreetView"/>
  </way>
  <way id="30713983" version="11" timestamp="2024-07-01T08:07:25Z" changeset="153399512" uid="20432726" user="Byenin">
    <nd ref="339685399"/>
    <nd ref="339685335"/>
    <nd ref="339685339"/>
    <nd ref="339685343"/>
    <nd ref="339685346"/>
    <nd ref="6576410507"/>
    <nd ref="339685351"/>
    <nd ref="339685355"/>
    <nd ref="12025290794"/>
    <nd ref="339685358"/>
    <nd ref="12025290793"/>
    <nd ref="339685363"/>
    <nd ref="339685365"/>
    <nd ref="807713545"/>
    <tag k="highway" v="unclassified"/>
    <tag k="maxspeed" v="60 mph"/>
    <tag k="maxspeed:type" v="GB:nsl_single"/>
    <tag k="name" v="Ringwould Road"/>
    <tag k="source:name" v="OS_OpenData_StreetView"/>
  </way>
  <way id="30713991" version="3" timestamp="2016-04-03T17:19:10Z" changeset="38271396" uid="42123" user="Ropino">
    <nd ref="339685459"/>
    <nd ref="339685461"/>
    <nd ref="339685463"/>
    <tag k="highway" v="residential"/>
    <tag k="maxspeed" v="30 mph"/>
    <tag k="name" v="Martin Dale Crescent"/>
  </way>
  <way id="30714002" version="2" timestamp="2012-09-22T17:16:07Z" changeset="13210096" uid="7037" user="Gregory Williams">
    <nd ref="339685572"/>
    <nd ref="339685576"/>
    <nd ref="339685578"/>
    <nd ref="339685570"/>
    <tag k="highway" v="unclassified"/>
    <tag k="maxspeed" v="30 mph"/>
    <tag k="oneway" v="yes"/>
  </way>
  <way id="30714004" version="5" timestamp="2021-08-27T11:52:01Z" changeset="110338149" uid="242345" user="confusedbuffalo">
    <nd ref="339685560"/>
    <nd ref="339685580"/>
    <nd ref="260030340"/>
    <tag k="highway" v="unclassified"/>
    <tag k="maxspeed" v="60 mph"/>
    <tag k="maxspeed:type" v="GB:nsl_single"/>
    <tag k="name" v="Guston Road"/>
    <tag k="oneway" v="yes"/>
  </way>
  <way id="31480189" version="3" timestamp="2016-04-03T17:18:59Z" changeset="38271396" uid="42123" user="Ropino">
    <nd ref="351866450"/>
    <nd ref="351866458"/>
    <nd ref="351866467"/>
    <nd ref="351866476"/>
    <nd ref="351866491"/>
    <nd ref="351866501"/>
    <nd ref="351866530"/>
    <tag k="highway" v="residential"/>
    <tag k="maxspeed" v="30 mph"/>
    <tag k="name" v="Barley Close"/>
  </way>
  <way id="33617192" version="7" timestamp="2024-09-03T17:11:09Z" changeset="156152162" uid="11471297" user="Palgrave Peter">
    <nd ref="384343144"/>
    <nd ref="822241013"/>
    <nd ref="822240570"/>
    <nd ref="5339688296"/>
    <nd ref="822240724"/>
    <tag k="highway" v="unclassified"/>
    <tag k="maxspeed" v="60 mph"/>
    <tag k="maxspeed:type" v="GB:nsl_single"/>
    <tag k="name" v="The Street"/>
    <tag k="source:name" v="http://www.theoldlanterninn.co.uk/contact.html"/>
  </way>
  <way id="49978530" version="9" timestamp="2024-09-04T10:31:01Z" changeset="156179250" uid="11471297" user="Palgrave Peter">
    <nd ref="260030340"/>
    <nd ref="866616763"/>
    <nd ref="8064411385"/>
    <nd ref="866615988"/>
    <tag k="highway" v="unclassified"/>
    <tag k="maxspeed" v="60 mph"/>
    <tag k="maxspeed:type" v="GB:nsl_single"/>
    <tag k="name" v="Guston Road"/>
    <tag k="source:name" v="OS_OpenData_Locator"/>
  </way>
  <way id="49978531" version="5" timestamp="2021-08-27T11:52:01Z" changeset="110338149" uid="242345" user="confusedbuffalo">
    <nd ref="255892544"/>
    <nd ref="255892548"/>
    <nd ref="260030340"/>
    <tag k="highway" v="unclassified"/>
    <tag k="maxspeed" v="60 mph"/>
    <tag k="maxspeed:type" v="GB:nsl_single"/>
    <tag k="name" v="Guston Road"/>
  </way>
  <way id="49978532" version="7" timestamp="2024-09-03T17:11:09Z" changeset="156152162" uid="11471297" user="Palgrave Peter">
    <nd ref="260030335"/>
    <nd ref="339685388"/>
    <nd ref="260030334"/>
    <nd ref="822240869"/>
    <nd ref="351866537"/>
    <nd ref="1193864179"/>
    <tag k="highway" v="unclassified"/>
    <tag k="maxspeed" v="30 mph"/>
    <tag k="name" v="Waterworks Lane"/>
  </way>
  <way id="66829111" version="3" timestamp="2016-04-03T17:19:17Z" changeset="38271396" uid="42123" user="Ropino">
    <nd ref="260030335"/>
    <nd ref="384343144"/>
    <tag k="highway" v="unclassified"/>
    <tag k="maxspeed" v="30 mph"/>
  </way>
  <way id="66829113" version="4" timestamp="2024-08-17T12:05:25Z" changeset="155367054" uid="115894" user="DaveF">
    <nd ref="255892527"/>
    <nd ref="9061342675"/>
    <nd ref="12116782400"/>
    <nd ref="12116782373"/>
    <nd ref="255892531"/>
    <nd ref="339685459"/>
    <tag k="highway" v="unclassified"/>
    <tag k="maxspeed" v="30 mph"/>
  </way>
  <way id="66829114" version="10" timestamp="2024-09-03T17:11:09Z" changeset="156152162" uid="11471297" user="Palgrave Peter">
    <nd ref="807707164"/>
    <nd ref="255892543"/>
    <nd ref="1193865103"/>
    <nd ref="255892542"/>
    <nd ref="1193865027"/>
    <nd ref="1193865075"/>
    <nd ref="255892541"/>
    <nd ref="1193865105"/>
    <nd ref="255892539"/>
    <nd ref="9153319992"/>
    <nd ref="255892538"/>
    <nd ref="255892540"/>
    <nd ref="8598064619"/>
    <nd ref="260030339"/>
    <nd ref="549256604"/>
    <nd ref="260030338"/>
    <nd ref="12154067600"/>
    <nd ref="12154067598"/>
    <nd ref="260030337"/>
    <nd ref="549256606"/>
    <nd ref="260030336"/>
    <nd ref="384343144"/>
    <tag k="highway" v="unclassified"/>
    <tag k="maxspeed" v="60 mph"/>
    <tag k="maxspeed:type" v="GB:nsl_single"/>
    <tag k="name" v="East Langdon Road"/>
  </way>
  <way id="66829116" version="5" timestamp="2024-04-30T17:38:05Z" changeset="150719970" uid="19880472" user="aknight22">
    <nd ref="339685572"/>
    <nd ref="351866404"/>
    <nd ref="1193865087"/>
    <nd ref="1193865072"/>
    <nd ref="807707164"/>
    <tag k="highway" v="unclassified"/>
    <tag k="maxspeed" v="30 mph"/>
    <tag k="name" v="The Street"/>
  </way>
  <way id="66829117" version="8" timestamp="2021-09-04T01:47:38Z" changeset="110700159" uid="5229644" user="Nathan_A_RF">
    <nd ref="339685459"/>
    <nd ref="9061342674"/>
    <nd ref="339685454"/>
    <nd ref="339685452"/>
    <nd ref="339685448"/>
    <nd ref="9061342673"/>
    <nd ref="339685446"/>
    <nd ref="339685443"/>
    <tag k="hgv" v="discouraged"/>
    <tag k="highway" v="unclassified"/>
    <tag k="maxspeed" v="60 mph"/>
    <tag k="maxspeed:type" v="GB:nsl_single"/>
    <tag k="name" v="Lucerne Lane"/>
  </way>
  <way id="66829394" version="7" timestamp="2024-04-30T17:38:05Z" changeset="150719970" uid="19880472" user="aknight22">
    <nd ref="339685375"/>
    <nd ref="339685379"/>
    <nd ref="339685381"/>
    <nd ref="6715715201"/>
    <nd ref="6715715199"/>
    <nd ref="339685385"/>
    <nd ref="339685391"/>
    <nd ref="260030335"/>
    <tag k="highway" v="unclassified"/>
    <tag k="maxspeed" v="30 mph"/>
  </way>
  <way id="72323100" version="3" timestamp="2021-08-27T11:52:01Z" changeset="110338149" uid="242345" user="confusedbuffalo">
    <nd ref="859227395"/>
    <nd ref="859224699"/>
    <tag k="highway" v="unclassified"/>
    <tag k="maxspeed" v="60 mph"/>
    <tag k="maxspeed:type" v="GB:nsl_single"/>
    <tag k="name" v="Church Lane"/>
  </way>
  <way id="72323225" version="4" timestamp="2024-09-03T13:34:26Z" changeset="156143149" uid="11471297" user="Palgrave Peter">
    <nd ref="36901023"/>
    <nd ref="859225408"/>
    <nd ref="859224699"/>
    <nd ref="859227913"/>
    <nd ref="859223313"/>
    <nd ref="859226352"/>
    <nd ref="859227100"/>
    <nd ref="859225927"/>
    <nd ref="859226683"/>
    <nd ref="859224287"/>
    <nd ref="859225124"/>
    <nd ref="859223799"/>
    <nd ref="859224630"/>
    <nd ref="859227413"/>
    <nd ref="859222789"/>
    <nd ref="859227513"/>
    <nd ref="859222917"/>
    <nd ref="859226001"/>
    <tag k="highway" v="unclassified"/>
    <tag k="maxspeed" v="60 mph"/>
    <tag k="maxspeed:type" v="GB:nsl_single"/>
    <tag k="name" v="Church Lane"/>
  </way>
  <way id="91937164" version="7" timestamp="2024-09-04T14:13:27Z" changeset="156189382" uid="11471297" user="Palgrave Peter">
    <nd ref="349152433"/>
    <nd ref="255892562"/>
    <nd ref="12155533749"/>
    <nd ref="349152524"/>
    <nd ref="349152519"/>
    <nd ref="349152518"/>
    <nd ref="255892561"/>
    <nd ref="255892560"/>
    <nd ref="859225335"/>
    <nd ref="255892559"/>
    <nd ref="36901041"/>
    <tag k="highway" v="tertiary"/>
    <tag k="maxspeed" v="60 mph"/>
    <tag k="maxspeed:type" v="GB:nsl_single"/>
    <tag k="maxwidth" v="2"/>
    <tag k="maxwidth:conditional" v="none @ destination"/>
    <tag k="name" v="Forge Lane"/>
  </way>
  <way id="91937167" version="4" timestamp="2024-09-03T13:34:26Z" changeset="156143149" uid="11471297" user="Palgrave Peter">
    <nd ref="282915632"/>
    <nd ref="351866231"/>
    <nd ref="36901015"/>
    <nd ref="36901017"/>
    <nd ref="36901018"/>
    <nd ref="36901019"/>
    <nd ref="36901021"/>
    <nd ref="260030319"/>
    <nd ref="859227395"/>
    <nd ref="36901023"/>
    <nd ref="36901024"/>
    <nd ref="36901026"/>
    <nd ref="36901027"/>
    <nd ref="859225874"/>
    <nd ref="36901029"/>
    <nd ref="36901032"/>
    <nd ref="859226618"/>
    <nd ref="36901039"/>
    <nd ref="36901041"/>
    <tag k="highway" v="unclassified"/>
    <tag k="maxspeed" v="60 mph"/>
    <tag k="maxspeed:type" v="GB:nsl_single"/>
  </way>
  <way id="99836180" version="8" timestamp="2024-03-30T15:58:11Z" changeset="149357886" uid="7037" user="Gregory Williams">
    <nd ref="1154174657"/>
    <nd ref="255892528"/>
    <nd ref="4232816873"/>
    <nd ref="339685468"/>
    <nd ref="255892529"/>
    <nd ref="1154174665"/>
    <tag k="highway" v="unclassified"/>
    <tag k="maxspeed" v="60 mph"/>
    <tag k="maxspeed:type" v="GB:nsl_single"/>
    <tag k="name" v="Station Road"/>
    <tag k="surface" v="asphalt"/>
  </way>
  <way id="102690058" version="10" timestamp="2024-09-04T14:13:27Z" changeset="156189382" uid="11471297" user="Palgrave Peter">
    <nd ref="866615988"/>
    <nd ref="260030341"/>
    <nd ref="866617467"/>
    <nd ref="260030342"/>
    <nd ref="12155533943"/>
    <nd ref="260030343"/>
    <nd ref="260030344"/>
    <nd ref="260030345"/>
    <nd ref="260030346"/>
    <nd ref="260030348"/>
    <nd ref="260030349"/>
    <nd ref="8205749062"/>
    <nd ref="8595474621"/>
    <nd ref="260030351"/>
    <nd ref="8595474618"/>
    <nd ref="260030352"/>
    <nd ref="4611566175"/>
    <nd ref="8205749078"/>
    <nd ref="12155533894"/>
    <nd ref="27220334"/>
    <tag k="highway" v="unclassified"/>
    <tag k="maxspeed" v="60 mph"/>
    <tag k="maxspeed:type" v="GB:nsl_single"/>
    <tag k="name" v="East Langdon Road"/>
  </way>
  <way id="103387565" version="5" timestamp="2024-09-03T15:40:12Z" changeset="156148212" uid="11471297" user="Palgrave Peter">
    <nd ref="260030332"/>
    <nd ref="260030331"/>
    <nd ref="260030330"/>
    <nd ref="260030329"/>
    <nd ref="260030328"/>
    <nd ref="260030327"/>
    <nd ref="260030326"/>
    <nd ref="260030325"/>
    <nd ref="260030324"/>
    <nd ref="12153962723"/>
    <nd ref="260030323"/>
    <nd ref="339686065"/>
    <nd ref="260030322"/>
    <nd ref="260030321"/>
    <nd ref="859226106"/>
    <nd ref="260030320"/>
    <nd ref="36901053"/>
    <tag k="highway" v="unclassified"/>
    <tag k="maxspeed" v="60 mph"/>
    <tag k="maxspeed:type" v="GB:nsl_single"/>
    <tag k="name" v="Waterworks Hill"/>
    <tag k="source:name" v="OS_OpenData_Locator"/>
  </way>
  <way id="103387566" version="2" timestamp="2016-04-03T17:19:20Z" changeset="38271396" uid="42123" user="Ropino">
    <nd ref="1193864179"/>
    <nd ref="260030333"/>
    <nd ref="1193864184"/>
    <nd ref="260030332"/>
    <tag k="highway" v="unclassified"/>
    <tag k="maxspeed" v="30 mph"/>
    <tag k="name" v="Waterworks Hill"/>
    <tag k="source:name" v="OS_OpenData_Locator"/>
  </way>
  <way id="103387637" version="3" timestamp="2024-09-18T22:23:41Z" changeset="156795485" uid="3951648" user="rskedgell">
    <nd ref="1193865087"/>
    <nd ref="1193865063"/>
    <tag k="designation" v="public_footpath"/>
    <tag k="foot" v="designated"/>
    <tag k="highway" v="residential"/>
    <tag k="maxspeed" v="30 mph"/>
    <tag k="name" v="West Side"/>
    <tag k="prow_ref" v="ER44"/>
  </way>
  <way id="103387639" version="3" timestamp="2021-07-05T05:19:03Z" changeset="107416134" uid="10455640" user="madnikhi">
    <nd ref="1193865072"/>
    <nd ref="8894020951"/>
    <nd ref="1193865091"/>
    <nd ref="1193865086"/>
    <nd ref="1193865060"/>
    <nd ref="1193865081"/>
    <nd ref="1193865026"/>
    <tag k="highway" v="residential"/>
    <tag k="maxspeed" v="30 mph"/>
    <tag k="name" v="West Side"/>
  </way>
  <way id="103387801" version="2" timestamp="2012-09-22T17:14:12Z" changeset="13210072" uid="7037" user="Gregory Williams">
    <nd ref="1193866618"/>
    <nd ref="1193866606"/>
    <nd ref="1193866604"/>
    <tag k="highway" v="residential"/>
    <tag k="maxspeed" v="30 mph"/>
    <tag k="name" v="Church Farm Mews"/>
  </way>
  <way id="103387803" version="2" timestamp="2012-09-22T17:14:11Z" changeset="13210072" uid="7037" user="Gregory Williams">
    <nd ref="1193866622"/>
    <nd ref="1193866606"/>
    <tag k="highway" v="residential"/>
    <tag k="maxspeed" v="30 mph"/>
    <tag k="name" v="Church Farm Mews"/>
  </way>
  <way id="182410352" version="4" timestamp="2021-08-27T11:52:01Z" changeset="110338149" uid="242345" user="confusedbuffalo">
    <nd ref="339685543"/>
    <nd ref="339685544"/>
    <nd ref="339685545"/>
    <nd ref="866617568"/>
    <nd ref="339685547"/>
    <nd ref="339685548"/>
    <nd ref="339685550"/>
    <nd ref="339685551"/>
    <nd ref="339685552"/>
    <nd ref="339685554"/>
    <nd ref="3763647910"/>
    <tag k="highway" v="unclassified"/>
    <tag k="maxspeed" v="60 mph"/>
    <tag k="maxspeed:type" v="GB:nsl_single"/>
  </way>
  <way id="182410353" version="4" timestamp="2024-04-30T17:38:05Z" changeset="150719970" uid="19880472" user="aknight22">
    <nd ref="339685560"/>
    <nd ref="7768687488"/>
    <nd ref="5339702817"/>
    <nd ref="339685566"/>
    <nd ref="5339702816"/>
    <nd ref="5339702815"/>
    <nd ref="5339702814"/>
    <nd ref="339685570"/>
    <tag k="highway" v="unclassified"/>
    <tag k="maxspeed" v="30 mph"/>
  </way>
  <way id="196083756" version="7" timestamp="2024-09-03T15:40:12Z" changeset="156148212" uid="11471297" user="Palgrave Peter">
    <nd ref="36901053"/>
    <nd ref="351873302"/>
    <nd ref="12153962627"/>
    <nd ref="3212803976"/>
    <nd ref="36901057"/>
    <nd ref="36901055"/>
    <nd ref="6441241286"/>
    <nd ref="36901059"/>
    <nd ref="36901061"/>
    <nd ref="36901063"/>
    <nd ref="36901064"/>
    <nd ref="36901066"/>
    <nd ref="351873299"/>
    <nd ref="12153962639"/>
    <nd ref="36901068"/>
    <nd ref="351873294"/>
    <nd ref="36901069"/>
    <nd ref="36901071"/>
    <nd ref="6441241291"/>
    <nd ref="36901073"/>
    <nd ref="36901074"/>
    <nd ref="12153962525"/>
    <nd ref="351873289"/>
    <nd ref="36901075"/>
    <nd ref="6441240955"/>
    <nd ref="36901076"/>
    <nd ref="1925452968"/>
    <nd ref="36900972"/>
    <tag k="highway" v="unclassified"/>
    <tag k="maxspeed" v="60 mph"/>
    <tag k="maxspeed:type" v="GB:nsl_single"/>
    <tag k="maxwidth" v="2"/>
    <tag k="name" v="Forge Lane"/>
  </way>
  <way id="196083758" version="4" timestamp="2024-09-03T13:34:26Z" changeset="156143149" uid="11471297" user="Palgrave Peter">
    <nd ref="36901041"/>
    <nd ref="36901043"/>
    <nd ref="36901045"/>
    <nd ref="10213219379"/>
    <nd ref="36901047"/>
    <nd ref="822240972"/>
    <nd ref="12153751838"/>
    <nd ref="36901048"/>
    <nd ref="36901050"/>
    <nd ref="36901052"/>
    <nd ref="36901053"/>
    <tag k="highway" v="tertiary"/>
    <tag k="maxspeed" v="60 mph"/>
    <tag k="maxspeed:type" v="GB:nsl_single"/>
    <tag k="maxwidth" v="6'6&quot;"/>
    <tag k="maxwidth:conditional" v="none @ destination"/>
    <tag k="name" v="Sutton Road"/>
  </way>
  <way id="372815927" version="3" timestamp="2021-09-04T01:47:38Z" changeset="110700159" uid="5229644" user="Nathan_A_RF">
    <nd ref="339685443"/>
    <nd ref="339685440"/>
    <tag k="hgv" v="discouraged"/>
    <tag k="highway" v="unclassified"/>
    <tag k="maxheight" v="default"/>
    <tag k="maxspeed" v="60 mph"/>
    <tag k="maxspeed:type" v="GB:nsl_single"/>
    <tag k="name" v="Lucerne Lane"/>
  </way>
  <way id="372815928" version="5" timestamp="2024-09-03T17:11:09Z" changeset="156152162" uid="11471297" user="Palgrave Peter">
    <nd ref="339685440"/>
    <nd ref="9061342676"/>
    <nd ref="339685439"/>
    <nd ref="339685436"/>
    <nd ref="339685435"/>
    <nd ref="339685432"/>
    <nd ref="339685430"/>
    <nd ref="339685428"/>
    <nd ref="339685424"/>
    <nd ref="8585752755"/>
    <nd ref="339685422"/>
    <nd ref="12154067596"/>
    <nd ref="339685375"/>
    <tag k="hgv" v="discouraged"/>
    <tag k="highway" v="unclassified"/>
    <tag k="maxspeed" v="60 mph"/>
    <tag k="maxspeed:type" v="GB:nsl_single"/>
    <tag k="name" v="Lucerne Lane"/>
  </way>
  <way id="372816065" version="3" timestamp="2021-09-04T01:47:38Z" changeset="110700159" uid="5229644" user="Nathan_A_RF">
    <nd ref="351866430"/>
    <nd ref="3763645428"/>
    <tag k="highway" v="unclassified"/>
    <tag k="maxheight" v="13'6&quot;"/>
    <tag k="maxspeed" v="30 mph"/>
    <tag k="name" v="Station Road"/>
  </way>
  <way id="372816066" version="5" timestamp="2024-04-30T17:38:05Z" changeset="150719970" uid="19880472" user="aknight22">
    <nd ref="3763645428"/>
    <nd ref="351866422"/>
    <nd ref="3057528444"/>
    <nd ref="255892533"/>
    <nd ref="351866440"/>
    <nd ref="351866450"/>
    <tag k="highway" v="unclassified"/>
    <tag k="maxspeed" v="30 mph"/>
    <tag k="name" v="Station Road"/>
  </way>
  <way id="372816375" version="5" timestamp="2021-09-15T23:32:34Z" changeset="111264809" uid="1778799" user="SomeoneElse_Revert">
    <nd ref="3763647910"/>
    <nd ref="3763647911"/>
    <tag k="highway" v="unclassified"/>
    <tag k="maxheight" v="14'0&quot;"/>
    <tag k="maxspeed" v="60 mph"/>
    <tag k="maxspeed:type" v="GB:nsl_single"/>
  </way>
  <way id="372816376" version="2" timestamp="2021-08-27T11:52:01Z" changeset="110338149" uid="242345" user="confusedbuffalo">
    <nd ref="3763647911"/>
    <nd ref="339685555"/>
    <nd ref="339685556"/>
    <nd ref="339685558"/>
    <nd ref="866619106"/>
    <nd ref="1927634622"/>
    <tag k="highway" v="unclassified"/>
    <tag k="maxspeed" v="60 mph"/>
    <tag k="maxspeed:type" v="GB:nsl_single"/>
  </way>
  <way id="389258438" version="8" timestamp="2024-09-04T10:31:01Z" changeset="156179250" uid="11471297" user="Palgrave Peter">
    <nd ref="3924155509"/>
    <nd ref="3924155510"/>
    <nd ref="3924171140"/>
    <nd ref="3924171144"/>
    <nd ref="3924155513"/>
    <nd ref="3924155515"/>
    <nd ref="3924155514"/>
    <nd ref="3924155509"/>
    <tag k="addr:city" v="Dover"/>
    <tag k="addr:country" v="GB"/>
    <tag k="addr:county" v="Kent"/>
    <tag k="addr:postcode" v="CT15 5JQ"/>
    <tag k="addr:street" v="West Side"/>
    <tag k="addr:village" v="East Langdon"/>
    <tag k="amenity" v="school"/>
    <tag k="capacity" v="82"/>
    <tag k="contact:phone" v="+44 1304 852600"/>
    <tag k="contact:website" v="https://www.langdonprimaryschool.co.uk/"/>
    <tag k="fhrs:id" v="459947"/>
    <tag k="isced:level" v="1"/>
    <tag k="max_age" v="11"/>
    <tag k="min_age" v="4"/>
    <tag k="name" v="Langdon Primary School"/>
    <tag k="ref:GB:uprn" v="100062287609"/>
    <tag k="ref:edubase" v="118398"/>
    <tag k="religion" v="none"/>
    <tag k="school:boarding" v="no"/>
    <tag k="school:gender" v="mixed"/>
    <tag k="school:selective" v="no"/>
    <tag k="school:trust" v="no"/>
    <tag k="school:type" v="community"/>
    <tag k="source:addr" v="https://www.langdonprimaryschool.co.uk/contact-us/"/>
    <tag k="wikidata" v="Q66226246"/>
  </way>
  <way id="423709298" version="6" timestamp="2024-09-04T10:31:01Z" changeset="156179250" uid="11471297" user="Palgrave Peter">
    <nd ref="4232823225"/>
    <nd ref="4232823222"/>
    <nd ref="11780921470"/>
    <nd ref="4232823214"/>
    <nd ref="4232823211"/>
    <nd ref="4232823202"/>
    <nd ref="4232823200"/>
    <nd ref="4232823197"/>
    <nd ref="4232823190"/>
    <nd ref="8609193243"/>
    <nd ref="4232816887"/>
    <nd ref="4232816877"/>
    <nd ref="4232816854"/>
    <nd ref="4232816850"/>
    <tag k="highway" v="residential"/>
    <tag k="source" v="Bing"/>
  </way>
  <way id="766654071" version="2" timestamp="2021-10-29T18:42:27Z" changeset="113136917" uid="493595" user="Yorvik Prestigitator">
    <nd ref="7160271797"/>
    <nd ref="9210710503"/>
    <nd ref="9210710505"/>
    <nd ref="9210710506"/>
    <nd ref="9210710504"/>
    <nd ref="7160271798"/>
    <nd ref="7160271799"/>
    <nd ref="7160271800"/>
    <nd ref="7160271797"/>
    <tag k="addr:city" v="East Langdon"/>
    <tag k="addr:postcode" v="CT15 5JH"/>
    <tag k="addr:street" v="The Street"/>
    <tag k="amenity" v="community_centre"/>
    <tag k="building" v="public"/>
    <tag k="name" v="East Langdon Parish Hall"/>
  </way>
  <way id="960659682" version="1" timestamp="2021-07-02T06:59:16Z" changeset="107293927" uid="10455633" user="tnayini">
    <nd ref="339685461"/>
    <nd ref="8886866665"/>
    <tag k="highway" v="residential"/>
  </way>
  <way id="1278571456" version="2" timestamp="2024-09-03T17:11:09Z" changeset="156152162" uid="11471297" user="Palgrave Peter">
    <nd ref="807713545"/>
    <nd ref="12154067464"/>
    <nd ref="3009590235"/>
    <nd ref="339685367"/>
    <nd ref="3009590233"/>
    <nd ref="9061342678"/>
    <nd ref="339685372"/>
    <nd ref="9061342677"/>
    <nd ref="339685375"/>
    <tag k="highway" v="unclassified"/>
    <tag k="maxspeed" v="30 mph"/>
  </way>
  <way id="1278571464" version="1" timestamp="2024-04-30T17:38:05Z" changeset="150719970" uid="19880472" user="aknight22">
    <nd ref="255892545"/>
    <nd ref="339685572"/>
    <tag k="highway" v="unclassified"/>
    <tag k="maxspeed" v="30 mph"/>
    <tag k="name" v="The Street"/>
  </way>
  <way id="1278571465" version="1" timestamp="2024-04-30T17:38:05Z" changeset="150719970" uid="19880472" user="aknight22">
    <nd ref="339685570"/>
    <nd ref="1193866622"/>
    <nd ref="255892545"/>
    <tag k="highway" v="unclassified"/>
    <tag k="maxspeed" v="30 mph"/>
  </way>
  <way id="1278571466" version="1" timestamp="2024-04-30T17:38:05Z" changeset="150719970" uid="19880472" user="aknight22">
    <nd ref="1927634622"/>
    <nd ref="339685560"/>
    <tag k="highway" v="unclassified"/>
    <tag k="maxspeed" v="30 mph"/>
  </way>
  <way id="1278571467" version="2" timestamp="2024-08-17T12:05:25Z" changeset="155367054" uid="115894" user="DaveF">
    <nd ref="351866450"/>
    <nd ref="4232823225"/>
    <nd ref="12116799706"/>
    <nd ref="255892527"/>
    <tag k="highway" v="unclassified"/>
    <tag k="maxspeed" v="30 mph"/>
    <tag k="name" v="Station Road"/>
  </way>

</osm>
