<?xml version="1.0" encoding="UTF-8"?>
<osm version="0.6" generator="Overpass API 0.7.62.5 1bd436f1">
<note>The data included in this document is from www.openstreetmap.org. The data is made available under ODbL.</note>
<meta osm_base="2025-05-17T22:11:02Z" areas="2024-12-31T00:49:33Z"/>

  <node id="644163" lat="48.8521389" lon="2.3609324" version="6" timestamp="2019-03-09T14:01:36Z" changeset="67960212" uid="311391" user="patman37"/>
  <node id="26401688" lat="48.8529653" lon="2.3611291" version="4" timestamp="2019-06-21T12:56:10Z" changeset="71480674" uid="167573" user="CartoCharles"/>
  <node id="26401690" lat="48.8526512" lon="2.3633266" version="6" timestamp="2019-09-29T13:28:07Z" changeset="75062551" uid="570635" user="_phiphou_"/>
  <node id="26401805" lat="48.8538760" lon="2.3673852" version="3" timestamp="2009-11-28T18:01:51Z" changeset="3238115" uid="33634" user="lapinos03"/>
  <node id="26666916" lat="48.8560484" lon="2.3665633" version="10" timestamp="2023-04-22T22:51:04Z" changeset="135245613" uid="7550430" user="Britzz"/>
  <node id="218267571" lat="48.8504233" lon="2.3601009" version="10" timestamp="2025-01-10T08:59:22Z" changeset="161196700" uid="7512839" user="Benoît C MdP"/>
  <node id="247345851" lat="48.8472526" lon="2.3658142" version="11" timestamp="2024-05-28T08:47:17Z" changeset="151933054" uid="311391" user="patman37"/>
  <node id="4418673952" lat="48.8470690" lon="2.3649266" version="2" timestamp="2017-11-25T22:48:54Z" changeset="54083551" uid="522742" user="josmougn"/>
  <node id="4958110952" lat="48.8511396" lon="2.3622991" version="3" timestamp="2019-01-09T17:04:26Z" changeset="66169031" uid="311391" user="patman37"/>
  <node id="5059182789" lat="48.8467960" lon="2.3653419" version="6" timestamp="2024-05-31T17:38:00Z" changeset="152092205" uid="4499" user="Jochen Topf"/>
  <node id="6554662989" lat="48.8535535" lon="2.3690599" version="5" timestamp="2021-07-09T11:53:28Z" changeset="107701505" uid="13703712" user="Kouji915"/>
  <way id="4039212" version="48" timestamp="2025-04-21T20:44:30Z" changeset="165257498" uid="11884206" user="Tom_Lbe">
    <nd ref="361031"/>
    <nd ref="4954755827"/>
    <nd ref="2284436490"/>
    <nd ref="9949036428"/>
    <nd ref="26588382"/>
    <nd ref="6103776397"/>
    <nd ref="26588378"/>
    <nd ref="6103779104"/>
    <nd ref="6532198445"/>
    <nd ref="26588374"/>
    <nd ref="3657878914"/>
    <nd ref="26588359"/>
    <nd ref="9418241096"/>
    <nd ref="6291071028"/>
    <nd ref="3657885233"/>
    <nd ref="214843853"/>
    <nd ref="9755433507"/>
    <nd ref="568432117"/>
    <nd ref="6288229365"/>
    <nd ref="5088842630"/>
    <nd ref="2366444349"/>
    <nd ref="25671388"/>
    <tag k="bicycle:backward" v="use_sidepath"/>
    <tag k="cycleway:left" v="no"/>
    <tag k="cycleway:right" v="separate"/>
    <tag k="enforcement:operator" v="Police nationale"/>
    <tag k="highway" v="primary"/>
    <tag k="lanes" v="2"/>
    <tag k="lit" v="yes"/>
    <tag k="maxspeed" v="30"/>
    <tag k="name" v="Boulevard Morland"/>
    <tag k="name:etymology:wikidata" v="Q3085220"/>
    <tag k="oneway" v="yes"/>
    <tag k="operator" v="Ville de Paris"/>
    <tag k="operator:authority" v="Maire de Paris dans le respect des prescriptions prises par le préfet de police"/>
    <tag k="operator:authority:related_law" v="III de l'article L. 2512-14 du code général des collectivités territoriales"/>
    <tag k="parking:left" v="street_side"/>
    <tag k="parking:left:orientation" v="parallel"/>
    <tag k="parking:right" v="no"/>
    <tag k="sidewalk:both" v="separate"/>
    <tag k="smoothness" v="good"/>
    <tag k="source:operator:authority" v="https://www.legifrance.gouv.fr/loda/id/LEGIARTI000035244298/#LEGIARTI000035244298"/>
    <tag k="surface" v="asphalt"/>
    <tag k="zone:traffic" v="FR:urban"/>
  </way>
  <way id="4294233" version="28" timestamp="2024-08-15T17:22:30Z" changeset="155293930" uid="11963177" user="JeroenvanderGun">
    <nd ref="4958110952"/>
    <nd ref="6288229363"/>
    <nd ref="376059053"/>
    <nd ref="2366444351"/>
    <nd ref="25671389"/>
    <nd ref="5077662097"/>
    <nd ref="11368027202"/>
    <nd ref="705045345"/>
    <nd ref="644163"/>
    <tag k="bicycle:backward" v="use_sidepath"/>
    <tag k="enforcement:operator" v="Police nationale"/>
    <tag k="highway" v="primary"/>
    <tag k="lanes" v="2"/>
    <tag k="lit" v="yes"/>
    <tag k="maxspeed" v="30"/>
    <tag k="name" v="Quai des Célestins"/>
    <tag k="name:etymology:wikidata" v="Q657921"/>
    <tag k="oneway" v="yes"/>
    <tag k="operator" v="Ville de Paris"/>
    <tag k="operator:authority" v="Maire de Paris dans le respect des prescriptions prises par le préfet de police"/>
    <tag k="operator:authority:related_law" v="III de l'article L. 2512-14 du code général des collectivités territoriales"/>
    <tag k="sidewalk:both" v="separate"/>
    <tag k="smoothness" v="excellent"/>
    <tag k="source:operator:authority" v="https://www.legifrance.gouv.fr/loda/id/LEGIARTI000035244298/#LEGIARTI000035244298"/>
    <tag k="surface" v="asphalt"/>
    <tag k="zone:traffic" v="FR:urban"/>
  </way>
  <way id="4294237" version="23" timestamp="2024-11-03T22:07:26Z" changeset="158719380" uid="7550430" user="Britzz">
    <nd ref="4603914571"/>
    <nd ref="247346781"/>
    <nd ref="25675611"/>
    <nd ref="5059182790"/>
    <nd ref="25675612"/>
    <nd ref="9123175881"/>
    <tag k="bicycle" v="no"/>
    <tag k="bicycle:backward" v="use_sidepath"/>
    <tag k="enforcement:operator" v="Police nationale"/>
    <tag k="hazmat" v="no"/>
    <tag k="highway" v="secondary"/>
    <tag k="lanes" v="2"/>
    <tag k="lit" v="yes"/>
    <tag k="maxheight" v="4"/>
    <tag k="maxspeed" v="50"/>
    <tag k="name" v="Voie Mazas"/>
    <tag k="name:etymology:wikidata" v="Q3158925"/>
    <tag k="oneway" v="yes"/>
    <tag k="operator" v="Ville de Paris"/>
    <tag k="operator:authority" v="Maire de Paris dans le respect des prescriptions prises par le préfet de police"/>
    <tag k="operator:authority:related_law" v="III de l'article L. 2512-14 du code général des collectivités territoriales"/>
    <tag k="sidewalk:left" v="separate"/>
    <tag k="sidewalk:right" v="no"/>
    <tag k="source:operator:authority" v="https://www.legifrance.gouv.fr/loda/id/LEGIARTI000035244298/#LEGIARTI000035244298"/>
    <tag k="surface" v="asphalt"/>
    <tag k="zone:traffic" v="FR:urban"/>
  </way>
  <way id="4527576" version="21" timestamp="2024-02-17T11:33:54Z" changeset="147566293" uid="6290466" user="benjamintchik">
    <nd ref="26401693"/>
    <nd ref="2284436549"/>
    <nd ref="2284436556"/>
    <nd ref="26401690"/>
    <tag k="cycleway:left" v="opposite_lane"/>
    <tag k="highway" v="residential"/>
    <tag k="lit" v="yes"/>
    <tag k="maxspeed" v="30"/>
    <tag k="name" v="Rue Charles V"/>
    <tag k="name:etymology:wikidata" v="Q167782"/>
    <tag k="oneway" v="yes"/>
    <tag k="oneway:bicycle" v="no"/>
    <tag k="service" v="alley"/>
    <tag k="sidewalk:both" v="separate"/>
    <tag k="surface" v="asphalt"/>
    <tag k="zone:maxspeed" v="FR:30"/>
  </way>
  <way id="4527577" version="16" timestamp="2024-02-17T11:35:33Z" changeset="147566293" uid="6290466" user="benjamintchik">
    <nd ref="26401688"/>
    <nd ref="2284436561"/>
    <nd ref="705203718"/>
    <nd ref="705204128"/>
    <nd ref="26401691"/>
    <nd ref="2284436542"/>
    <nd ref="26401692"/>
    <tag k="cycleway" v="opposite"/>
    <tag k="highway" v="residential"/>
    <tag k="maxspeed" v="30"/>
    <tag k="name" v="Rue des Lions Saint-Paul"/>
    <tag k="name:etymology" v="unknown"/>
    <tag k="oneway" v="yes"/>
    <tag k="oneway:bicycle" v="no"/>
    <tag k="sidewalk:both" v="separate"/>
    <tag k="surface" v="asphalt"/>
    <tag k="zone:maxspeed" v="FR:30"/>
  </way>
  <way id="4527581" version="29" timestamp="2024-07-20T15:33:50Z" changeset="154184614" uid="2252690" user="gourlaysama">
    <nd ref="5092153448"/>
    <nd ref="11069078864"/>
    <nd ref="693538119"/>
    <nd ref="26401722"/>
    <nd ref="26401694"/>
    <tag k="cycleway:left" v="no"/>
    <tag k="highway" v="residential"/>
    <tag k="lit" v="yes"/>
    <tag k="maxspeed" v="30"/>
    <tag k="name" v="Rue du Petit Musc"/>
    <tag k="name:etymology" v="unknown"/>
    <tag k="oneway" v="yes"/>
    <tag k="oneway:bicycle" v="no"/>
    <tag k="sidewalk:both" v="separate"/>
    <tag k="smoothness" v="good"/>
    <tag k="surface" v="asphalt"/>
    <tag k="zone:maxspeed" v="FR:30"/>
  </way>
  <way id="4527583" version="32" timestamp="2024-09-08T09:01:17Z" changeset="156341122" uid="11291363" user="u4Dy46Xe">
    <nd ref="368139"/>
    <nd ref="5092153447"/>
    <nd ref="6088476090"/>
    <nd ref="6388851568"/>
    <nd ref="6388842676"/>
    <nd ref="11069078883"/>
    <nd ref="4958110948"/>
    <nd ref="26401864"/>
    <tag k="cycleway:left" v="shared_lane"/>
    <tag k="cycleway:left:lane" v="pictogram"/>
    <tag k="cycleway:left:oneway" v="-1"/>
    <tag k="cycleway:right" v="no"/>
    <tag k="highway" v="residential"/>
    <tag k="lit" v="yes"/>
    <tag k="maxspeed" v="30"/>
    <tag k="maxspeed:type" v="FR:zone30"/>
    <tag k="name" v="Rue Castex"/>
    <tag k="name:etymology:wikidata" v="Q17280416"/>
    <tag k="oneway" v="yes"/>
    <tag k="oneway:bicycle" v="no"/>
    <tag k="sidewalk:both" v="separate"/>
    <tag k="smoothness" v="good"/>
    <tag k="surface" v="asphalt"/>
    <tag k="zone:maxspeed" v="FR:30"/>
  </way>
  <way id="4527587" version="20" timestamp="2024-03-30T14:57:44Z" changeset="149350834" uid="2678738" user="fgouget">
    <nd ref="25671506"/>
    <nd ref="3657885225"/>
    <nd ref="7024075667"/>
    <nd ref="3657878919"/>
    <nd ref="7024075666"/>
    <nd ref="26588359"/>
    <tag k="highway" v="residential"/>
    <tag k="maxspeed" v="30"/>
    <tag k="name" v="Rue de Schomberg"/>
    <tag k="name:etymology:wikidata" v="Q88679"/>
    <tag k="oneway" v="yes"/>
    <tag k="sidewalk:both" v="separate"/>
    <tag k="surface" v="asphalt"/>
  </way>
  <way id="4527588" version="17" timestamp="2024-03-28T10:22:25Z" changeset="149261012" uid="2678738" user="fgouget">
    <nd ref="26588374"/>
    <nd ref="26588384"/>
    <nd ref="6103775340"/>
    <nd ref="6394348859"/>
    <nd ref="26588376"/>
    <tag k="cycleway" v="opposite"/>
    <tag k="highway" v="residential"/>
    <tag k="lit" v="yes"/>
    <tag k="maxspeed" v="30"/>
    <tag k="name" v="Rue de Brissac"/>
    <tag k="oneway" v="yes"/>
    <tag k="oneway:bicycle" v="no"/>
    <tag k="sidewalk:both" v="separate"/>
    <tag k="surface" v="asphalt"/>
  </way>
  <way id="4527589" version="29" timestamp="2024-03-28T08:34:12Z" changeset="149255723" uid="2678738" user="fgouget">
    <nd ref="26588378"/>
    <nd ref="277500482"/>
    <nd ref="6103762791"/>
    <nd ref="5088842633"/>
    <nd ref="6394348860"/>
    <nd ref="26588376"/>
    <nd ref="2284436510"/>
    <nd ref="26588350"/>
    <tag k="alt_name" v="Rue de Crillon"/>
    <tag k="cycleway" v="opposite"/>
    <tag k="highway" v="residential"/>
    <tag k="lit" v="yes"/>
    <tag k="maxspeed" v="30"/>
    <tag k="name" v="Rue Crillon"/>
    <tag k="name:etymology:wikidata" v="Q2624700"/>
    <tag k="oneway" v="yes"/>
    <tag k="oneway:bicycle" v="no"/>
    <tag k="sidewalk:both" v="separate"/>
    <tag k="surface" v="asphalt"/>
  </way>
  <way id="4527590" version="24" timestamp="2024-03-28T10:22:17Z" changeset="149261012" uid="2678738" user="fgouget">
    <nd ref="26588357"/>
    <nd ref="3657885230"/>
    <nd ref="5057260418"/>
    <nd ref="3657885229"/>
    <nd ref="277500481"/>
    <tag k="cycleway:both" v="no"/>
    <tag k="highway" v="residential"/>
    <tag k="lit" v="yes"/>
    <tag k="maxspeed" v="30"/>
    <tag k="name" v="Rue de Schomberg"/>
    <tag k="name:etymology:wikidata" v="Q88679"/>
    <tag k="oneway" v="no"/>
    <tag k="sidewalk:both" v="separate"/>
    <tag k="surface" v="asphalt"/>
    <tag k="zone:maxspeed" v="FR:30"/>
  </way>
  <way id="4527592" version="6" timestamp="2017-05-13T12:01:24Z" changeset="48646499" uid="27454" user="Popolon">
    <nd ref="26588370"/>
    <nd ref="705483521"/>
    <nd ref="26588372"/>
    <nd ref="26588370"/>
    <tag k="area" v="yes"/>
    <tag k="highway" v="unclassified"/>
    <tag k="noname" v="yes"/>
    <tag k="oneway" v="yes"/>
    <tag k="surface" v="asphalt"/>
  </way>
  <way id="4527595" version="21" timestamp="2024-09-08T09:01:25Z" changeset="156341122" uid="11291363" user="u4Dy46Xe">
    <nd ref="26588862"/>
    <nd ref="6388838450"/>
    <nd ref="705299283"/>
    <nd ref="431507192"/>
    <nd ref="2284436535"/>
    <nd ref="2284436532"/>
    <nd ref="26401904"/>
    <tag k="cycleway:left" v="shared_lane"/>
    <tag k="cycleway:left:lane" v="pictogram"/>
    <tag k="cycleway:left:oneway" v="-1"/>
    <tag k="cycleway:right" v="no"/>
    <tag k="highway" v="residential"/>
    <tag k="lit" v="yes"/>
    <tag k="maxspeed" v="30"/>
    <tag k="name" v="Rue de la Cerisaie"/>
    <tag k="name:etymology:wikidata" v="Q124593615"/>
    <tag k="oneway" v="yes"/>
    <tag k="oneway:bicycle" v="no"/>
    <tag k="sidewalk:both" v="separate"/>
    <tag k="smoothness" v="good"/>
    <tag k="surface" v="asphalt"/>
    <tag k="zone:maxspeed" v="FR:30"/>
  </way>
  <way id="4527596" version="16" timestamp="2024-10-02T16:23:54Z" changeset="157386816" uid="20602401" user="esteka3000">
    <nd ref="26401859"/>
    <nd ref="6388842677"/>
    <nd ref="2284436546"/>
    <nd ref="2284436539"/>
    <nd ref="431507192"/>
    <tag k="cycleway:both" v="no"/>
    <tag k="highway" v="residential"/>
    <tag k="lit" v="yes"/>
    <tag k="maxspeed" v="30"/>
    <tag k="name" v="Rue de Lesdiguières"/>
    <tag k="name:etymology:wikidata" v="Q1451233"/>
    <tag k="oneway" v="yes"/>
    <tag k="oneway:bicycle" v="no"/>
    <tag k="sidewalk:both" v="separate"/>
    <tag k="smoothness" v="excellent"/>
    <tag k="surface" v="asphalt"/>
    <tag k="zone:maxspeed" v="FR:30"/>
  </way>
  <way id="4527597" version="26" timestamp="2024-07-20T15:33:50Z" changeset="154184614" uid="2252690" user="gourlaysama">
    <nd ref="26401819"/>
    <nd ref="5760792409"/>
    <nd ref="693535746"/>
    <nd ref="2284436559"/>
    <nd ref="11069078867"/>
    <nd ref="4958110946"/>
    <nd ref="26401868"/>
    <tag k="cycleway:left" v="lane"/>
    <tag k="cycleway:left:lane" v="exclusive"/>
    <tag k="cycleway:left:oneway" v="-1"/>
    <tag k="highway" v="residential"/>
    <tag k="lit" v="yes"/>
    <tag k="maxspeed" v="30"/>
    <tag k="maxspeed:type" v="FR:zone30"/>
    <tag k="name" v="Rue Jacques Cœur"/>
    <tag k="name:etymology:wikidata" v="Q461757"/>
    <tag k="oneway" v="yes"/>
    <tag k="oneway:bicycle" v="no"/>
    <tag k="sidewalk:both" v="separate"/>
    <tag k="smoothness" v="good"/>
    <tag k="surface" v="asphalt"/>
  </way>
  <way id="4574332" version="11" timestamp="2024-03-30T00:17:23Z" changeset="149332975" uid="2678738" user="fgouget">
    <nd ref="573458038"/>
    <nd ref="11064616737"/>
    <nd ref="2284436593"/>
    <nd ref="26401796"/>
    <tag k="highway" v="residential"/>
    <tag k="maxspeed" v="30"/>
    <tag k="name" v="Cour Bérard"/>
    <tag k="service" v="alley"/>
    <tag k="sidewalk:both" v="separate"/>
    <tag k="zone:maxspeed" v="FR:30"/>
  </way>
  <way id="4574353" version="35" timestamp="2025-03-31T07:54:05Z" changeset="164316549" uid="7512839" user="Benoît C MdP">
    <nd ref="26401805"/>
    <nd ref="2284436582"/>
    <nd ref="5528716178"/>
    <nd ref="632026680"/>
    <nd ref="26666921"/>
    <nd ref="5528037467"/>
    <nd ref="5528037468"/>
    <nd ref="5528037466"/>
    <nd ref="5528037723"/>
    <nd ref="26666918"/>
    <tag k="cycleway:both" v="no"/>
    <tag k="highway" v="residential"/>
    <tag k="lit" v="yes"/>
    <tag k="maxspeed" v="30"/>
    <tag k="name" v="Rue des Tournelles"/>
    <tag k="name:etymology:wikidata" v="Q1476769"/>
    <tag k="oneway" v="yes"/>
    <tag k="oneway:bicycle" v="no"/>
    <tag k="sidewalk:both" v="separate"/>
    <tag k="smoothness" v="good"/>
    <tag k="surface" v="asphalt"/>
    <tag k="zone:maxspeed" v="FR:30"/>
  </way>
  <way id="4574357" version="18" timestamp="2024-03-30T00:17:11Z" changeset="149332975" uid="2678738" user="fgouget">
    <nd ref="703837537"/>
    <nd ref="26401700"/>
    <tag k="cycleway" v="opposite"/>
    <tag k="highway" v="residential"/>
    <tag k="lit" v="yes"/>
    <tag k="maxspeed" v="30"/>
    <tag k="maxspeed:type" v="FR:zone30"/>
    <tag k="name" v="Rue de Birague"/>
    <tag k="name:etymology:wikidata" v="Q921075"/>
    <tag k="oneway" v="yes"/>
    <tag k="oneway:bicycle" v="no"/>
    <tag k="sidewalk:both" v="separate"/>
    <tag k="smoothness" v="good"/>
    <tag k="surface" v="asphalt"/>
    <tag k="width" v="10"/>
  </way>
  <way id="18232134" version="29" timestamp="2024-03-30T00:16:49Z" changeset="149332975" uid="2678738" user="fgouget">
    <nd ref="26666916"/>
    <nd ref="2387990220"/>
    <nd ref="1141998488"/>
    <nd ref="2387990579"/>
    <nd ref="10832878791"/>
    <nd ref="10832878790"/>
    <nd ref="26666914"/>
    <nd ref="2387990222"/>
    <nd ref="26401700"/>
    <nd ref="2387990221"/>
    <nd ref="26401701"/>
    <nd ref="10832898171"/>
    <nd ref="10832898172"/>
    <nd ref="10832898173"/>
    <nd ref="2387989873"/>
    <nd ref="1141998464"/>
    <nd ref="2387989300"/>
    <nd ref="26401919"/>
    <tag k="cycleway" v="opposite"/>
    <tag k="highway" v="residential"/>
    <tag k="lit" v="yes"/>
    <tag k="maxspeed" v="30"/>
    <tag k="name" v="Place des Vosges"/>
    <tag k="name:de" v="Vogesenplatz"/>
    <tag k="name:etymology:wikidata" v="Q3105"/>
    <tag k="name:fr" v="Place des Vosges"/>
    <tag k="oneway" v="yes"/>
    <tag k="oneway:bicycle" v="no"/>
    <tag k="sidewalk:both" v="separate"/>
    <tag k="smoothness" v="good"/>
    <tag k="surface" v="asphalt"/>
    <tag k="zone:maxspeed" v="FR:30"/>
  </way>
  <way id="20275989" version="16" timestamp="2025-04-21T20:35:16Z" changeset="165257498" uid="11884206" user="Tom_Lbe">
    <nd ref="214843848"/>
    <nd ref="3657878913"/>
    <nd ref="705056209"/>
    <nd ref="3657878908"/>
    <nd ref="214843853"/>
    <tag k="cycleway:both" v="no"/>
    <tag k="highway" v="residential"/>
    <tag k="lit" v="yes"/>
    <tag k="maxspeed" v="30"/>
    <tag k="name" v="Rue Agrippa d'Aubigné"/>
    <tag k="name:etymology:wikidata" v="Q334950"/>
    <tag k="parking:both" v="lane"/>
    <tag k="parking:both:staggered" v="yes"/>
    <tag k="parking:left:orientation" v="parallel"/>
    <tag k="parking:right:orientation" v="perpendicular"/>
    <tag k="sidewalk:both" v="separate"/>
    <tag k="surface" v="asphalt"/>
  </way>
  <way id="20445190" version="37" timestamp="2025-01-10T08:59:22Z" changeset="161196700" uid="7512839" user="Benoît C MdP">
    <nd ref="218267571"/>
    <nd ref="2734148906"/>
    <nd ref="6335319284"/>
    <tag k="alt_name" v="Pont Sully"/>
    <tag k="bicycle:backward" v="use_sidepath"/>
    <tag k="bridge" v="yes"/>
    <tag k="busway:left" v="lane"/>
    <tag k="busway:left:oneway" v="-1"/>
    <tag k="cycleway:left" v="share_busway"/>
    <tag k="cycleway:left:oneway" v="-1"/>
    <tag k="cycleway:right" v="lane"/>
    <tag k="cycleway:right:lane" v="exclusive"/>
    <tag k="highway" v="primary"/>
    <tag k="lanes" v="3"/>
    <tag k="lanes:backward" v="1"/>
    <tag k="lanes:forward" v="2"/>
    <tag k="layer" v="1"/>
    <tag k="lit" v="yes"/>
    <tag k="maxspeed" v="30"/>
    <tag k="maxweight:signed" v="no"/>
    <tag k="name" v="Pont de Sully"/>
    <tag k="name:etymology:wikidata" v="Q379953"/>
    <tag k="oneway" v="yes"/>
    <tag k="oneway:bicycle" v="no"/>
    <tag k="oneway:psv" v="no"/>
    <tag k="parking:both" v="no"/>
    <tag k="sidewalk:both" v="separate"/>
    <tag k="smoothness" v="good"/>
    <tag k="source:maxspeed" v="BMO Arrêté n o 2018 P 12837"/>
    <tag k="surface" v="asphalt"/>
    <tag k="wikidata" v="Q1196688"/>
    <tag k="wikipedia" v="fr:Pont de Sully"/>
    <tag k="zone:maxspeed" v="FR:30"/>
  </way>
  <way id="22956317" version="14" timestamp="2024-03-03T20:50:34Z" changeset="148181185" uid="6290466" user="benjamintchik">
    <nd ref="26588372"/>
    <nd ref="6394299205"/>
    <nd ref="26588347"/>
    <nd ref="2284436520"/>
    <nd ref="2284436528"/>
    <nd ref="26401904"/>
    <tag k="cycleway" v="opposite"/>
    <tag k="highway" v="residential"/>
    <tag k="lit" v="yes"/>
    <tag k="maxspeed" v="30"/>
    <tag k="name" v="Rue de l'Arsenal"/>
    <tag k="name:etymology:wikidata" v="Q2864379"/>
    <tag k="oneway" v="yes"/>
    <tag k="oneway:bicycle" v="no"/>
    <tag k="sidewalk:both" v="separate"/>
    <tag k="surface" v="asphalt"/>
  </way>
  <way id="22956648" version="20" timestamp="2024-08-15T17:26:47Z" changeset="155294126" uid="11963177" user="JeroenvanderGun">
    <nd ref="361031"/>
    <nd ref="247345851"/>
    <tag k="cycleway:left" v="separate"/>
    <tag k="cycleway:right" v="no"/>
    <tag k="enforcement:operator" v="Police nationale"/>
    <tag k="highway" v="primary"/>
    <tag k="lanes" v="4"/>
    <tag k="lanes:backward" v="2"/>
    <tag k="lanes:forward" v="2"/>
    <tag k="lit" v="yes"/>
    <tag k="maxspeed" v="30"/>
    <tag k="name" v="Pont Morland"/>
    <tag k="name:etymology:wikidata" v="Q3085220"/>
    <tag k="operator" v="Ville de Paris"/>
    <tag k="operator:authority" v="Maire de Paris après avis du préfet de police"/>
    <tag k="operator:authority:related_law" v="IV de l'article L. 2512-14 du code général des collectivités territoriales"/>
    <tag k="operator:url" v="https://cdn.paris.fr/paris/2020/02/26/5bf469a311d0beb9911e92d113781550.ai"/>
    <tag k="sidewalk:both" v="separate"/>
    <tag k="smoothness" v="good"/>
    <tag k="surface" v="asphalt"/>
  </way>
  <way id="22956670" version="27" timestamp="2024-12-09T09:26:38Z" changeset="160084024" uid="27454" user="Popolon">
    <nd ref="247345851"/>
    <nd ref="247342541"/>
    <tag k="bridge" v="yes"/>
    <tag k="cycleway:left" v="separate"/>
    <tag k="cycleway:right" v="no"/>
    <tag k="enforcement:operator" v="Police nationale"/>
    <tag k="highway" v="primary"/>
    <tag k="lanes" v="3"/>
    <tag k="lanes:backward" v="2"/>
    <tag k="lanes:forward" v="1"/>
    <tag k="layer" v="1"/>
    <tag k="lit" v="yes"/>
    <tag k="maxspeed" v="30"/>
    <tag k="maxweight:signed" v="no"/>
    <tag k="name" v="Pont Morland"/>
    <tag k="name:etymology:wikidata" v="Q3085220"/>
    <tag k="operator" v="Ville de Paris"/>
    <tag k="operator:authority" v="Maire de Paris après avis du préfet de police"/>
    <tag k="operator:authority:related_law" v="IV de l'article L. 2512-14 du code général des collectivités territoriales"/>
    <tag k="operator:url" v="https://cdn.paris.fr/paris/2020/02/26/5bf469a311d0beb9911e92d113781550.ai"/>
    <tag k="shoulder" v="no"/>
    <tag k="sidewalk:both" v="separate"/>
    <tag k="smoothness" v="good"/>
    <tag k="surface" v="asphalt"/>
    <tag k="wikidata" v="Q3396657"/>
  </way>
  <way id="30172924" version="32" timestamp="2025-01-10T08:59:22Z" changeset="161196700" uid="7512839" user="Benoît C MdP">
    <nd ref="368175"/>
    <nd ref="6288229364"/>
    <nd ref="11069086133"/>
    <nd ref="25671388"/>
    <tag k="bicycle:backward" v="use_sidepath"/>
    <tag k="busway:left" v="lane"/>
    <tag k="busway:left:oneway" v="-1"/>
    <tag k="cycleway:left" v="share_busway"/>
    <tag k="cycleway:left:oneway" v="-1"/>
    <tag k="cycleway:right" v="lane"/>
    <tag k="cycleway:right:lane" v="exclusive"/>
    <tag k="highway" v="primary"/>
    <tag k="lanes" v="3"/>
    <tag k="lanes:backward" v="1"/>
    <tag k="lanes:forward" v="2"/>
    <tag k="lit" v="yes"/>
    <tag k="maxspeed" v="30"/>
    <tag k="name" v="Boulevard Henri IV"/>
    <tag k="name:etymology:wikidata" v="Q161866"/>
    <tag k="oneway" v="yes"/>
    <tag k="oneway:bicycle" v="no"/>
    <tag k="oneway:psv" v="no"/>
    <tag k="sidewalk:both" v="separate"/>
    <tag k="smoothness" v="good"/>
    <tag k="source:maxspeed" v="sign"/>
    <tag k="surface" v="asphalt"/>
    <tag k="zone:maxspeed" v="FR:30"/>
  </way>
  <way id="34322443" version="17" timestamp="2024-03-28T10:22:03Z" changeset="149261012" uid="2678738" user="fgouget">
    <nd ref="26588357"/>
    <nd ref="6394331467"/>
    <nd ref="26588354"/>
    <nd ref="2284436514"/>
    <nd ref="26588350"/>
    <tag k="highway" v="residential"/>
    <tag k="lit" v="yes"/>
    <tag k="maxspeed" v="30"/>
    <tag k="name" v="Rue Mornay"/>
    <tag k="name:etymology:wikidata" v="Q944098"/>
    <tag k="sidewalk:both" v="separate"/>
    <tag k="smoothness" v="good"/>
    <tag k="source:maxspeed" v="FR:zone30"/>
    <tag k="surface" v="asphalt"/>
  </way>
  <way id="41465217" version="32" timestamp="2025-05-02T16:17:42Z" changeset="165726785" uid="6593606" user="DUKE73">
    <nd ref="26401868"/>
    <nd ref="568421719"/>
    <nd ref="7272634165"/>
    <nd ref="1498653785"/>
    <nd ref="1498653786"/>
    <tag k="bicycle:backward" v="use_sidepath"/>
    <tag k="busway:left" v="lane"/>
    <tag k="busway:left:oneway" v="-1"/>
    <tag k="cycleway:left" v="track"/>
    <tag k="cycleway:left:oneway" v="-1"/>
    <tag k="cycleway:right" v="lane"/>
    <tag k="highway" v="primary"/>
    <tag k="lanes" v="3"/>
    <tag k="lanes:backward" v="1"/>
    <tag k="lanes:forward" v="2"/>
    <tag k="lit" v="yes"/>
    <tag k="maxspeed" v="30"/>
    <tag k="name" v="Boulevard Henri IV"/>
    <tag k="name:etymology:wikidata" v="Q936976"/>
    <tag k="oneway" v="yes"/>
    <tag k="oneway:bicycle" v="no"/>
    <tag k="oneway:psv" v="no"/>
    <tag k="sidewalk:both" v="separate"/>
    <tag k="smoothness" v="good"/>
    <tag k="surface" v="asphalt"/>
    <tag k="zone:maxspeed" v="FR:30"/>
  </way>
  <way id="44834670" version="24" timestamp="2025-01-10T08:59:22Z" changeset="161196700" uid="7512839" user="Benoît C MdP">
    <nd ref="568421719"/>
    <nd ref="7070422993"/>
    <nd ref="568421726"/>
    <nd ref="8907143460"/>
    <nd ref="8907143461"/>
    <nd ref="1498653781"/>
    <nd ref="11069078872"/>
    <nd ref="5496064178"/>
    <nd ref="7070422992"/>
    <nd ref="568421754"/>
    <tag k="bicycle:backward" v="use_sidepath"/>
    <tag k="highway" v="secondary_link"/>
    <tag k="lane_markings" v="no"/>
    <tag k="lit" v="yes"/>
    <tag k="maxspeed" v="30"/>
    <tag k="name" v="Boulevard Bourdon"/>
    <tag k="oneway" v="yes"/>
    <tag k="sidewalk:both" v="separate"/>
    <tag k="smoothness" v="good"/>
    <tag k="surface" v="asphalt"/>
  </way>
  <way id="49734495" version="15" timestamp="2023-04-22T22:28:53Z" changeset="135245343" uid="7550430" user="Britzz">
    <nd ref="632026327"/>
    <nd ref="10832887306"/>
    <nd ref="632026325"/>
    <nd ref="632026328"/>
    <nd ref="632026858"/>
    <nd ref="632026324"/>
    <nd ref="632026855"/>
    <nd ref="632026852"/>
    <nd ref="632026853"/>
    <nd ref="632026854"/>
    <nd ref="632026860"/>
    <nd ref="10832887307"/>
    <nd ref="2388265381"/>
    <nd ref="632026861"/>
    <nd ref="632026327"/>
    <tag k="building" v="apartments"/>
    <tag k="building:levels" v="3"/>
    <tag k="heritage" v="2"/>
    <tag k="heritage:operator" v="mhs"/>
    <tag k="layer" v="1"/>
    <tag k="mhs:inscription_date" v="1954"/>
    <tag k="name" v="Hôtel de Montbrun"/>
    <tag k="ref:mhs" v="PA00086304"/>
    <tag k="roof:levels" v="1"/>
    <tag k="source" v="Direction générales des finances publiques - année 2010"/>
    <tag k="wikidata" v="Q3145910"/>
    <tag k="wikipedia" v="fr:Hôtel de Montbrun"/>
  </way>
  <way id="49734496" version="14" timestamp="2024-11-05T09:13:12Z" changeset="158770674" uid="195017" user="Julien39">
    <nd ref="632026264"/>
    <nd ref="10832878796"/>
    <nd ref="632026708"/>
    <nd ref="632026267"/>
    <nd ref="10832878797"/>
    <nd ref="632026270"/>
    <nd ref="632026266"/>
    <nd ref="632026269"/>
    <nd ref="632026263"/>
    <nd ref="632026265"/>
    <nd ref="632026264"/>
    <tag k="building" v="apartments"/>
    <tag k="building:levels" v="3"/>
    <tag k="heritage" v="2"/>
    <tag k="heritage:operator" v="mhs"/>
    <tag k="historic" v="manor"/>
    <tag k="layer" v="1"/>
    <tag k="mhs:inscription_date" v="1953-10-22"/>
    <tag k="name" v="Hôtel de Montmorin"/>
    <tag k="ref:mhs" v="PA00086307"/>
    <tag k="roof:levels" v="2"/>
    <tag k="roof:shape" v="hipped"/>
    <tag k="source" v="Direction générales des finances publiques - année 2010"/>
    <tag k="source:heritage" v="data.gouv.fr:Ministère de la Culture - 04/2015"/>
    <tag k="wikidata" v="Q3145916"/>
    <tag k="wikipedia" v="fr:Hôtel de Montmorin"/>
  </way>
  <way id="49734498" version="15" timestamp="2023-04-22T22:28:53Z" changeset="135245343" uid="7550430" user="Britzz">
    <nd ref="632026528"/>
    <nd ref="632026526"/>
    <nd ref="10832887328"/>
    <nd ref="632026720"/>
    <nd ref="632026719"/>
    <nd ref="10832887329"/>
    <nd ref="632026517"/>
    <nd ref="632026509"/>
    <nd ref="632026510"/>
    <nd ref="632026514"/>
    <nd ref="632026513"/>
    <nd ref="632026515"/>
    <nd ref="632026529"/>
    <nd ref="632026524"/>
    <nd ref="632026528"/>
    <tag k="building" v="yes"/>
    <tag k="building:levels" v="5"/>
    <tag k="heritage" v="2"/>
    <tag k="heritage:operator" v="mhs"/>
    <tag k="layer" v="1"/>
    <tag k="mhs:inscription_date" v="1955-08-16"/>
    <tag k="name" v="Hôtel Genou de Guiberville"/>
    <tag k="ref:mhs" v="PA00086290"/>
    <tag k="source" v="Direction générales des finances publiques - année 2010"/>
    <tag k="source:heritage" v="data.gouv.fr:Ministère de la Culture - 04/2015"/>
    <tag k="wikidata" v="Q3145504"/>
    <tag k="wikipedia" v="fr:Hôtel Genou de Guiberville"/>
  </way>
  <way id="49734499" version="12" timestamp="2023-08-13T23:14:55Z" changeset="139847544" uid="318821" user="Yod4z">
    <nd ref="632026709"/>
    <nd ref="632026712"/>
    <nd ref="632026716"/>
    <nd ref="10832887330"/>
    <nd ref="10832887353"/>
    <nd ref="632026707"/>
    <nd ref="632026719"/>
    <nd ref="10832887329"/>
    <nd ref="632026517"/>
    <nd ref="632026512"/>
    <nd ref="632026516"/>
    <nd ref="632026710"/>
    <nd ref="632026709"/>
    <tag k="building" v="yes"/>
    <tag k="building:levels" v="4"/>
    <tag k="heritage" v="2"/>
    <tag k="heritage:operator" v="mhs"/>
    <tag k="layer" v="1"/>
    <tag k="mhs:inscription_date" v="1956-11-06"/>
    <tag k="name" v="Pavillon du Roi"/>
    <tag k="ref:mhs" v="PA00086473"/>
    <tag k="source" v="Direction générales des finances publiques - année 2010"/>
    <tag k="source:heritage" v="data.gouv.fr:Ministère de la Culture - 04/2015"/>
    <tag k="wikidata" v="Q3373109"/>
    <tag k="wikipedia" v="fr:Pavillon du Roi"/>
  </way>
  <way id="49734501" version="11" timestamp="2023-04-22T22:28:53Z" changeset="135245343" uid="7550430" user="Britzz">
    <nd ref="632026717"/>
    <nd ref="632026720"/>
    <nd ref="10832887328"/>
    <nd ref="632026526"/>
    <nd ref="632026527"/>
    <nd ref="703518546"/>
    <nd ref="632026537"/>
    <nd ref="10832887327"/>
    <nd ref="632026717"/>
    <tag k="building" v="yes"/>
    <tag k="building:levels" v="5"/>
    <tag k="heritage" v="2"/>
    <tag k="heritage:operator" v="mhs"/>
    <tag k="layer" v="1"/>
    <tag k="mhs:inscription_date" v="1955-08-16"/>
    <tag k="name" v="Hôtel Regnouart"/>
    <tag k="ref:mhs" v="PA00086465"/>
    <tag k="source" v="Direction générales des finances publiques - année 2010"/>
    <tag k="source:heritage" v="data.gouv.fr:Ministère de la Culture - 04/2015"/>
    <tag k="wikidata" v="Q3146268"/>
  </way>
  <way id="49734549" version="17" timestamp="2024-09-16T13:48:27Z" changeset="156689556" uid="195017" user="Julien39">
    <nd ref="632026274"/>
    <nd ref="10832878802"/>
    <nd ref="632026282"/>
    <nd ref="632026303"/>
    <nd ref="10832878803"/>
    <nd ref="632026294"/>
    <nd ref="12180268152"/>
    <nd ref="632026274"/>
    <tag k="addr:housenumber" v="11"/>
    <tag k="addr:street" v="Place des Vosges"/>
    <tag k="alt_name" v="Hôtel Colbert-de-Villacerf; Hôtel de Creil; Hôtel Voisenon"/>
    <tag k="building" v="apartments"/>
    <tag k="building:levels" v="3"/>
    <tag k="heritage" v="2"/>
    <tag k="heritage:operator" v="mhs"/>
    <tag k="layer" v="1"/>
    <tag k="mhs:inscription_date" v="1954-10-26"/>
    <tag k="name" v="Hôtel Pierrard"/>
    <tag k="ref:mhs" v="PA00086311"/>
    <tag k="roof:levels" v="1"/>
    <tag k="roof:shape" v="hipped"/>
    <tag k="source" v="Direction générales des finances publiques - année 2010"/>
    <tag k="source:heritage" v="data.gouv.fr:Ministère de la Culture - 04/2015"/>
    <tag k="wikidata" v="Q3145629"/>
    <tag k="wikipedia" v="fr:Hôtel Pierrard"/>
  </way>
  <way id="49734550" version="17" timestamp="2024-09-25T08:50:29Z" changeset="157070989" uid="195017" user="Julien39">
    <nd ref="632026229"/>
    <nd ref="632026284"/>
    <nd ref="632026242"/>
    <nd ref="632026282"/>
    <nd ref="10832878802"/>
    <nd ref="632026274"/>
    <nd ref="632026254"/>
    <nd ref="10832878801"/>
    <nd ref="11112968985"/>
    <nd ref="632026271"/>
    <nd ref="632026281"/>
    <nd ref="632026275"/>
    <nd ref="632026243"/>
    <nd ref="632026229"/>
    <tag k="alt_name" v="Hôtel Descures, Hôtel Nicolay-Goussainville"/>
    <tag k="building" v="apartments"/>
    <tag k="building:levels" v="3"/>
    <tag k="heritage" v="2"/>
    <tag k="heritage:operator" v="mhs"/>
    <tag k="historic" v="manor"/>
    <tag k="layer" v="1"/>
    <tag k="mhs:inscription_date" v="1954-04-03"/>
    <tag k="name" v="Hôtel de Chaulnes"/>
    <tag k="ref:mhs" v="PA00086282"/>
    <tag k="roof:levels" v="2"/>
    <tag k="source" v="Direction générales des finances publiques - année 2010"/>
    <tag k="source:heritage" v="data.gouv.fr:Ministère de la Culture - 04/2015"/>
    <tag k="wikidata" v="Q3145795"/>
    <tag k="wikipedia" v="fr:Hôtel de Chaulnes"/>
  </way>
  <way id="49734554" version="16" timestamp="2023-04-22T22:28:53Z" changeset="135245343" uid="7550430" user="Britzz">
    <nd ref="632026249"/>
    <nd ref="632026250"/>
    <nd ref="632026251"/>
    <nd ref="632026246"/>
    <nd ref="632026247"/>
    <nd ref="632026255"/>
    <nd ref="632026259"/>
    <nd ref="632026258"/>
    <nd ref="632026268"/>
    <nd ref="632026270"/>
    <nd ref="10832878797"/>
    <nd ref="632026267"/>
    <nd ref="632026254"/>
    <nd ref="10832878798"/>
    <nd ref="632026256"/>
    <nd ref="632026249"/>
    <tag k="alt_name" v="Hôtel Castelnau; Hôtel de Rotrou"/>
    <tag k="building" v="apartments"/>
    <tag k="building:levels" v="3"/>
    <tag k="heritage" v="2"/>
    <tag k="heritage:operator" v="mhs"/>
    <tag k="layer" v="1"/>
    <tag k="mhs:inscription_date" v="1926-02-22"/>
    <tag k="name" v="Hôtel de la Salle"/>
    <tag k="ref:mhs" v="PA00086315"/>
    <tag k="roof:levels" v="2"/>
    <tag k="roof:shape" v="hipped"/>
    <tag k="source" v="Direction générales des finances publiques - année 2010"/>
    <tag k="source:heritage" v="data.gouv.fr:Ministère de la Culture - 04/2015"/>
    <tag k="wikidata" v="Q3146047"/>
    <tag k="wikipedia" v="fr:Hôtel de la Salle"/>
  </way>
  <way id="49734558" version="6" timestamp="2015-04-22T02:28:19Z" changeset="30394142" uid="2814778" user="VinceBot">
    <nd ref="632026232"/>
    <nd ref="632026243"/>
    <nd ref="632026229"/>
    <nd ref="703870888"/>
    <nd ref="632026228"/>
    <nd ref="632026225"/>
    <nd ref="632026232"/>
    <tag k="building" v="yes"/>
    <tag k="building:levels" v="1"/>
    <tag k="name" v="Galerie Nikki Diana Marquard"/>
    <tag k="shop" v="art"/>
    <tag k="source" v="survey 2013"/>
    <tag k="wheelchair" v="no"/>
  </way>
  <way id="49734560" version="16" timestamp="2023-08-13T23:14:55Z" changeset="139847544" uid="318821" user="Yod4z">
    <nd ref="632026234"/>
    <nd ref="632026241"/>
    <nd ref="632026230"/>
    <nd ref="11112968986"/>
    <nd ref="632026271"/>
    <nd ref="11112968985"/>
    <nd ref="10832878801"/>
    <nd ref="632026254"/>
    <nd ref="10832878798"/>
    <nd ref="632026256"/>
    <nd ref="633027785"/>
    <nd ref="632026252"/>
    <nd ref="632026248"/>
    <nd ref="632026213"/>
    <nd ref="632026217"/>
    <nd ref="11112968989"/>
    <nd ref="632026234"/>
    <tag k="building" v="apartments"/>
    <tag k="building:levels" v="1"/>
    <tag k="heritage" v="2"/>
    <tag k="heritage:operator" v="mhs"/>
    <tag k="layer" v="1"/>
    <tag k="mhs:inscription_date" v="1953-07-07"/>
    <tag k="name" v="Hôtel de Sully"/>
    <tag k="ref:mhs" v="PA00086310"/>
    <tag k="roof:levels" v="1"/>
    <tag k="source" v="Direction générales des finances publiques - année 2010"/>
    <tag k="source:heritage" v="data.gouv.fr:Ministère de la Culture - 04/2015"/>
    <tag k="wikidata" v="Q1643144"/>
    <tag k="wikipedia" v="fr:Hôtel de Sully"/>
  </way>
  <way id="49734566" version="15" timestamp="2023-04-22T22:28:53Z" changeset="135245343" uid="7550430" user="Britzz">
    <nd ref="632026294"/>
    <nd ref="632026295"/>
    <nd ref="10832878804"/>
    <nd ref="632026301"/>
    <nd ref="632026297"/>
    <nd ref="632026293"/>
    <nd ref="632026305"/>
    <nd ref="632026306"/>
    <nd ref="632026304"/>
    <nd ref="632026303"/>
    <nd ref="10832878803"/>
    <nd ref="632026294"/>
    <tag k="building" v="apartments"/>
    <tag k="building:levels" v="3"/>
    <tag k="heritage" v="2"/>
    <tag k="heritage:operator" v="mhs"/>
    <tag k="layer" v="1"/>
    <tag k="mhs:inscription_date" v="1920-07-17"/>
    <tag k="name" v="Hôtel Dyel des Hameaux"/>
    <tag k="ref:mhs" v="PA00086287"/>
    <tag k="roof:levels" v="1"/>
    <tag k="source" v="Direction générales des finances publiques - année 2010"/>
    <tag k="source:heritage" v="data.gouv.fr:Ministère de la Culture - 04/2015"/>
    <tag k="wikidata" v="Q3145482"/>
    <tag k="wikipedia" v="fr:Hôtel Dyel des Hameaux"/>
  </way>
  <way id="49734570" version="15" timestamp="2024-09-25T08:53:00Z" changeset="157071076" uid="195017" user="Julien39">
    <nd ref="632026327"/>
    <nd ref="632026322"/>
    <nd ref="10832887305"/>
    <nd ref="632026314"/>
    <nd ref="632026318"/>
    <nd ref="632026312"/>
    <nd ref="632026317"/>
    <nd ref="632026323"/>
    <nd ref="632026326"/>
    <nd ref="632026325"/>
    <nd ref="10832887306"/>
    <nd ref="632026327"/>
    <tag k="alt_name" v="Hôtel de Flers"/>
    <tag k="building" v="apartments"/>
    <tag k="building:levels" v="3"/>
    <tag k="heritage" v="2"/>
    <tag k="heritage:operator" v="mhs"/>
    <tag k="historic" v="manor"/>
    <tag k="layer" v="1"/>
    <tag k="mhs:inscription_date" v="1920-07-17"/>
    <tag k="name" v="Hôtel de Chabannes"/>
    <tag k="ref:mhs" v="PA00086466"/>
    <tag k="roof:levels" v="1"/>
    <tag k="source" v="Direction générales des finances publiques - année 2010"/>
    <tag k="source:heritage" v="data.gouv.fr:Ministère de la Culture - 04/2015"/>
    <tag k="wikidata" v="Q3145790"/>
    <tag k="wikipedia" v="fr:Hôtel de Chabannes"/>
  </way>
  <way id="49734571" version="16" timestamp="2023-04-22T22:28:53Z" changeset="135245343" uid="7550430" user="Britzz">
    <nd ref="632026295"/>
    <nd ref="632026322"/>
    <nd ref="10832887305"/>
    <nd ref="632026314"/>
    <nd ref="632026292"/>
    <nd ref="703870932"/>
    <nd ref="632026291"/>
    <nd ref="632026302"/>
    <nd ref="632026315"/>
    <nd ref="632026313"/>
    <nd ref="632026310"/>
    <nd ref="632026309"/>
    <nd ref="703518610"/>
    <nd ref="703518544"/>
    <nd ref="703518454"/>
    <nd ref="632026301"/>
    <nd ref="10832878804"/>
    <nd ref="632026295"/>
    <tag k="building" v="apartments"/>
    <tag k="building:levels" v="3"/>
    <tag k="heritage" v="2"/>
    <tag k="heritage:operator" v="mhs"/>
    <tag k="layer" v="1"/>
    <tag k="mhs:inscription_date" v="1953-10-22"/>
    <tag k="name" v="Hôtel Marchand"/>
    <tag k="ref:mhs" v="PA00086303"/>
    <tag k="roof:levels" v="1"/>
    <tag k="source" v="Direction générales des finances publiques - année 2010"/>
    <tag k="source:heritage" v="data.gouv.fr:Ministère de la Culture - 04/2015"/>
    <tag k="wikidata" v="Q3145584"/>
    <tag k="wikipedia" v="fr:Hôtel Marchand"/>
  </way>
  <way id="49734611" version="6" timestamp="2022-12-20T16:56:00Z" changeset="130299022" uid="172867" user="AmiFritz">
    <nd ref="632026546"/>
    <nd ref="703870882"/>
    <nd ref="632026547"/>
    <nd ref="632026566"/>
    <nd ref="632026565"/>
    <nd ref="632026546"/>
    <tag k="building" v="yes"/>
    <tag k="contact:city" v="Paris"/>
    <tag k="contact:housenumber" v="20"/>
    <tag k="contact:postcode" v="75004"/>
    <tag k="contact:street" v="Rue Saint-Antoine"/>
    <tag k="name" v="La Herse d'Or"/>
    <tag k="source" v="Direction générales des finances publiques - année 2010"/>
    <tag k="tourism" v="hotel"/>
    <tag k="wheelchair" v="no"/>
  </way>
  <way id="49734634" version="16" timestamp="2023-04-22T22:28:53Z" changeset="135245343" uid="7550430" user="Britzz">
    <nd ref="632026785"/>
    <nd ref="632026786"/>
    <nd ref="632026787"/>
    <nd ref="632026791"/>
    <nd ref="632026763"/>
    <nd ref="632026764"/>
    <nd ref="632026765"/>
    <nd ref="703837758"/>
    <nd ref="10832887321"/>
    <nd ref="632026752"/>
    <nd ref="632026792"/>
    <nd ref="10832887320"/>
    <nd ref="632026817"/>
    <nd ref="632026818"/>
    <nd ref="632026788"/>
    <nd ref="632026789"/>
    <nd ref="632026784"/>
    <nd ref="632026785"/>
    <tag k="building" v="apartments"/>
    <tag k="building:levels" v="3"/>
    <tag k="heritage" v="2"/>
    <tag k="heritage:operator" v="mhs"/>
    <tag k="layer" v="1"/>
    <tag k="mhs:inscription_date" v="1953-10-22"/>
    <tag k="name" v="Hôtel d'Asfeldt"/>
    <tag k="ref:mhs" v="PA00086274"/>
    <tag k="roof:levels" v="2"/>
    <tag k="roof:shape" v="hipped"/>
    <tag k="source" v="Direction générales des finances publiques - année 2010"/>
    <tag k="source:heritage" v="data.gouv.fr:Ministère de la Culture - 04/2015"/>
    <tag k="wikidata" v="Q3145713"/>
    <tag k="wikipedia" v="fr:Hôtel d'Asfeldt"/>
  </way>
  <way id="49734636" version="14" timestamp="2023-08-13T23:14:55Z" changeset="139847544" uid="318821" user="Yod4z">
    <nd ref="632026715"/>
    <nd ref="10832878795"/>
    <nd ref="10832878794"/>
    <nd ref="632026706"/>
    <nd ref="11112968972"/>
    <nd ref="10832887362"/>
    <nd ref="703837537"/>
    <nd ref="10832878744"/>
    <nd ref="632026707"/>
    <nd ref="10832887353"/>
    <nd ref="10832887330"/>
    <nd ref="632026716"/>
    <nd ref="632026712"/>
    <nd ref="10832887355"/>
    <nd ref="10832887360"/>
    <nd ref="11112968971"/>
    <nd ref="10832878746"/>
    <nd ref="703837547"/>
    <nd ref="10832887361"/>
    <nd ref="632026714"/>
    <nd ref="632026715"/>
    <tag k="building" v="apartments"/>
    <tag k="building:levels" v="3"/>
    <tag k="heritage" v="2"/>
    <tag k="heritage:operator" v="mhs"/>
    <tag k="layer" v="1"/>
    <tag k="mhs:inscription_date" v="1956-11-06"/>
    <tag k="name" v="Pavillon du Roi"/>
    <tag k="ref:mhs" v="PA00086473"/>
    <tag k="roof:levels" v="1"/>
    <tag k="roof:shape" v="hipped"/>
    <tag k="source" v="Direction générales des finances publiques - année 2010"/>
    <tag k="source:heritage" v="data.gouv.fr:Ministère de la Culture - 04/2015"/>
    <tag k="wikidata" v="Q3373109"/>
    <tag k="wikipedia" v="fr:Pavillon du Roi"/>
  </way>
  <way id="49734640" version="14" timestamp="2023-04-22T22:28:53Z" changeset="135245343" uid="7550430" user="Britzz">
    <nd ref="632026726"/>
    <nd ref="632026736"/>
    <nd ref="632026734"/>
    <nd ref="632026741"/>
    <nd ref="632026740"/>
    <nd ref="632026745"/>
    <nd ref="632026744"/>
    <nd ref="632026735"/>
    <nd ref="632026751"/>
    <nd ref="632026750"/>
    <nd ref="10832887323"/>
    <nd ref="632026728"/>
    <nd ref="632026725"/>
    <nd ref="10832887324"/>
    <nd ref="632026726"/>
    <tag k="alt_name" v="Hôtel de Marie de Lyonne; Hôtel de Gagny; Hôtel Chatainville"/>
    <tag k="building" v="apartments"/>
    <tag k="building:levels" v="3"/>
    <tag k="heritage" v="2"/>
    <tag k="heritage:operator" v="mhs"/>
    <tag k="layer" v="1"/>
    <tag k="mhs:inscription_date" v="1920-07-17"/>
    <tag k="name" v="Hôtel de Châtillon"/>
    <tag k="ref:mhs" v="PA00086281"/>
    <tag k="roof:levels" v="2"/>
    <tag k="source" v="Direction générales des finances publiques - année 2010"/>
    <tag k="source:heritage" v="data.gouv.fr:Ministère de la Culture - 04/2015"/>
    <tag k="wikidata" v="Q3145805"/>
    <tag k="wikipedia" v="fr:Hôtel de Châtillon"/>
  </way>
  <way id="49734641" version="17" timestamp="2023-04-22T22:28:53Z" changeset="135245343" uid="7550430" user="Britzz">
    <nd ref="632026778"/>
    <nd ref="703870871"/>
    <nd ref="632026777"/>
    <nd ref="632026781"/>
    <nd ref="632026779"/>
    <nd ref="632026729"/>
    <nd ref="632026727"/>
    <nd ref="632026730"/>
    <nd ref="632026762"/>
    <nd ref="632026754"/>
    <nd ref="632026759"/>
    <nd ref="632026761"/>
    <nd ref="632026757"/>
    <nd ref="632026760"/>
    <nd ref="632026755"/>
    <nd ref="632026756"/>
    <nd ref="632026758"/>
    <nd ref="703837759"/>
    <nd ref="10832887322"/>
    <nd ref="632026753"/>
    <nd ref="632026728"/>
    <nd ref="10832887323"/>
    <nd ref="632026750"/>
    <nd ref="632026775"/>
    <nd ref="632026770"/>
    <nd ref="632026769"/>
    <nd ref="632026767"/>
    <nd ref="632026768"/>
    <nd ref="632026778"/>
    <tag k="alt_name" v="Hôtel de Breteuil; Hôtel Dangeau; Hôtel de Missan; Hôtel de Sainson"/>
    <tag k="building" v="school"/>
    <tag k="building:levels" v="3"/>
    <tag k="heritage" v="2"/>
    <tag k="heritage:operator" v="mhs"/>
    <tag k="layer" v="1"/>
    <tag k="mhs:inscription_date" v="1954-10-26"/>
    <tag k="name" v="Hôtel Lafont"/>
    <tag k="ref:mhs" v="PA00086294"/>
    <tag k="roof:levels" v="2"/>
    <tag k="source" v="Direction générales des finances publiques - année 2010"/>
    <tag k="source:heritage" v="data.gouv.fr:Ministère de la Culture - 04/2015"/>
    <tag k="wikidata" v="Q3145541"/>
    <tag k="wikipedia" v="fr:Hôtel Lafont"/>
  </way>
  <way id="49734642" version="18" timestamp="2025-05-01T21:32:51Z" changeset="165695056" uid="5670825" user="Christophe Raverdy">
    <nd ref="632026780"/>
    <nd ref="703518658"/>
    <nd ref="703518477"/>
    <nd ref="703518533"/>
    <nd ref="703518572"/>
    <nd ref="632026777"/>
    <nd ref="632026781"/>
    <nd ref="632026758"/>
    <nd ref="703837759"/>
    <nd ref="703837758"/>
    <nd ref="632026765"/>
    <nd ref="632026786"/>
    <nd ref="632026785"/>
    <nd ref="632026780"/>
    <tag k="amenity" v="place_of_worship"/>
    <tag k="building" v="yes"/>
    <tag k="check_date" v="2025-05-01"/>
    <tag k="denomination" v="ashkenazi"/>
    <tag k="heritage" v="2"/>
    <tag k="heritage:operator" v="mhs"/>
    <tag k="mhs:inscription_date" v="1987-12-29"/>
    <tag k="name" v="Synagogue de la rue des Tournelles"/>
    <tag k="ref:mhs" v="PA00086478"/>
    <tag k="religion" v="jewish"/>
    <tag k="source" v="Direction générales des finances publiques - année 2010"/>
    <tag k="source:heritage" v="data.gouv.fr:Ministère de la Culture - 04/2015"/>
    <tag k="wikidata" v="Q1129979"/>
    <tag k="wikipedia" v="fr:Synagogue de la rue des Tournelles"/>
  </way>
  <way id="49734644" version="14" timestamp="2023-04-22T22:28:53Z" changeset="135245343" uid="7550430" user="Britzz">
    <nd ref="632026817"/>
    <nd ref="632026808"/>
    <nd ref="632026809"/>
    <nd ref="632026810"/>
    <nd ref="632026793"/>
    <nd ref="632026794"/>
    <nd ref="632026795"/>
    <nd ref="632026796"/>
    <nd ref="632026797"/>
    <nd ref="632026811"/>
    <nd ref="632026819"/>
    <nd ref="632026812"/>
    <nd ref="632026822"/>
    <nd ref="632026821"/>
    <nd ref="10832887319"/>
    <nd ref="632026798"/>
    <nd ref="632026792"/>
    <nd ref="10832887320"/>
    <nd ref="632026817"/>
    <tag k="building" v="apartments"/>
    <tag k="building:levels" v="3"/>
    <tag k="heritage" v="2"/>
    <tag k="heritage:operator" v="mhs"/>
    <tag k="layer" v="1"/>
    <tag k="mhs:inscription_date" v="1954-10-26"/>
    <tag k="name" v="Hôtel de Clermont-Tonnerre"/>
    <tag k="ref:mhs" v="PA00086285"/>
    <tag k="roof:levels" v="2"/>
    <tag k="roof:shape" v="hipped"/>
    <tag k="source" v="Direction générales des finances publiques - année 2010"/>
    <tag k="source:heritage" v="data.gouv.fr:Ministère de la Culture - 04/2015"/>
    <tag k="wikidata" v="Q3145810"/>
    <tag k="wikipedia" v="fr:Hôtel de Clermont-Tonnerre"/>
  </way>
  <way id="49734646" version="14" timestamp="2023-04-22T22:28:53Z" changeset="135245343" uid="7550430" user="Britzz">
    <nd ref="632026823"/>
    <nd ref="632026821"/>
    <nd ref="10832887319"/>
    <nd ref="632026798"/>
    <nd ref="632026804"/>
    <nd ref="10832887318"/>
    <nd ref="632026831"/>
    <nd ref="632026824"/>
    <nd ref="632026825"/>
    <nd ref="632026826"/>
    <nd ref="632026799"/>
    <nd ref="632026800"/>
    <nd ref="632026801"/>
    <nd ref="632026802"/>
    <nd ref="632026823"/>
    <tag k="building" v="apartments"/>
    <tag k="building:levels" v="3"/>
    <tag k="heritage" v="2"/>
    <tag k="heritage:operator" v="mhs"/>
    <tag k="layer" v="1"/>
    <tag k="mhs:inscription_date" v="1955-08-16"/>
    <tag k="name" v="Hôtel d'Angennes de Rambouillet"/>
    <tag k="ref:mhs" v="PA00086271"/>
    <tag k="roof:levels" v="2"/>
    <tag k="roof:shape" v="hipped"/>
    <tag k="source" v="Direction générales des finances publiques - année 2010"/>
    <tag k="source:heritage" v="data.gouv.fr:Ministère de la Culture - 04/2015"/>
    <tag k="wikidata" v="Q3145707"/>
    <tag k="wikipedia" v="fr:Hôtel d'Angennes de Rambouillet"/>
  </way>
  <way id="49734651" version="19" timestamp="2025-02-09T10:22:23Z" changeset="162308165" uid="10162567" user="12caracteres">
    <nd ref="632026805"/>
    <nd ref="632026804"/>
    <nd ref="10832887318"/>
    <nd ref="632026831"/>
    <nd ref="632026832"/>
    <nd ref="703837521"/>
    <nd ref="632026847"/>
    <nd ref="632026851"/>
    <nd ref="632026850"/>
    <nd ref="632026833"/>
    <nd ref="632026806"/>
    <nd ref="632026807"/>
    <nd ref="632026841"/>
    <nd ref="632026843"/>
    <nd ref="632026842"/>
    <nd ref="703870775"/>
    <nd ref="10832887317"/>
    <nd ref="2388265379"/>
    <nd ref="632026805"/>
    <tag k="building" v="apartments"/>
    <tag k="building:levels" v="3"/>
    <tag k="heritage" v="2"/>
    <tag k="heritage:operator" v="mhs"/>
    <tag k="layer" v="1"/>
    <tag k="mhs:inscription_date" v="1920-07-17"/>
    <tag k="name" v="Hôtel de Laffemas"/>
    <tag k="ref:mhs" v="PA00086293"/>
    <tag k="roof:levels" v="2"/>
    <tag k="roof:shape" v="hipped"/>
    <tag k="source" v="Direction générales des finances publiques - année 2010"/>
    <tag k="source:heritage" v="data.gouv.fr:Ministère de la Culture - 04/2015"/>
    <tag k="wikidata" v="Q3145540"/>
    <tag k="wikipedia" v="fr:Hôtel Laffemas"/>
  </way>
  <way id="56077547" version="13" timestamp="2024-03-30T00:17:07Z" changeset="149332975" uid="2678738" user="fgouget">
    <nd ref="703837547"/>
    <nd ref="703837537"/>
    <tag k="cycleway" v="opposite"/>
    <tag k="highway" v="residential"/>
    <tag k="maxheight" v="default"/>
    <tag k="maxspeed" v="30"/>
    <tag k="name" v="Rue de Birague"/>
    <tag k="name:etymology:wikidata" v="Q921075"/>
    <tag k="oneway" v="yes"/>
    <tag k="oneway:bicycle" v="no"/>
    <tag k="sidewalk:both" v="separate"/>
    <tag k="smoothness" v="good"/>
    <tag k="source" v="cadastre-dgi-fr source : Direction Générale des Impôts - Cadastre. Mise à jour : 2010"/>
    <tag k="surface" v="asphalt"/>
    <tag k="tunnel" v="yes"/>
    <tag k="zone:maxspeed" v="FR:30"/>
  </way>
  <way id="56077554" version="15" timestamp="2024-03-30T00:17:00Z" changeset="149332975" uid="2678738" user="fgouget">
    <nd ref="568421601"/>
    <nd ref="11069078858"/>
    <nd ref="703837547"/>
    <tag k="cycleway" v="opposite"/>
    <tag k="highway" v="residential"/>
    <tag k="lit" v="yes"/>
    <tag k="maxspeed" v="30"/>
    <tag k="name" v="Rue de Birague"/>
    <tag k="name:etymology:wikidata" v="Q921075"/>
    <tag k="oneway" v="yes"/>
    <tag k="oneway:bicycle" v="no"/>
    <tag k="sidewalk:both" v="separate"/>
    <tag k="smoothness" v="good"/>
    <tag k="surface" v="asphalt"/>
    <tag k="zone:maxspeed" v="FR:30"/>
  </way>
  <way id="56077556" version="16" timestamp="2024-03-30T00:17:30Z" changeset="149332975" uid="2678738" user="fgouget">
    <nd ref="26401820"/>
    <nd ref="11069078863"/>
    <nd ref="26401796"/>
    <tag k="highway" v="residential"/>
    <tag k="lit" v="yes"/>
    <tag k="maxspeed" v="30"/>
    <tag k="name" v="Impasse Guéménée"/>
    <tag k="name:etymology:wikidata" v="Q3145952"/>
    <tag k="service" v="alley"/>
    <tag k="sidewalk:both" v="separate"/>
    <tag k="smoothness" v="good"/>
    <tag k="source" v="cadastre-dgi-fr source : Direction Générale des Impôts - Cadastre. Mise à jour : 2010"/>
    <tag k="surface" v="asphalt"/>
    <tag k="zone:maxspeed" v="FR:30"/>
  </way>
  <way id="56077594" version="8" timestamp="2023-04-22T22:28:53Z" changeset="135245343" uid="7550430" user="Britzz">
    <nd ref="703837759"/>
    <nd ref="10832887322"/>
    <nd ref="632026753"/>
    <nd ref="632026752"/>
    <nd ref="10832887321"/>
    <nd ref="703837758"/>
    <nd ref="703837759"/>
    <tag k="building" v="apartments"/>
    <tag k="building:levels" v="3"/>
    <tag k="heritage" v="2"/>
    <tag k="heritage:operator" v="mhs"/>
    <tag k="layer" v="1"/>
    <tag k="mhs:inscription_date" v="1954-10-26"/>
    <tag k="name" v="Hôtel de Ribault"/>
    <tag k="ref:mhs" v="PA00086314"/>
    <tag k="roof:levels" v="2"/>
    <tag k="roof:shape" v="hipped"/>
    <tag k="source" v="Direction générales des finances publiques - année 2010"/>
    <tag k="source:heritage" v="data.gouv.fr:Ministère de la Culture - 04/2015"/>
    <tag k="wikidata" v="Q3145941"/>
    <tag k="wikipedia" v="fr:Hôtel de Ribault"/>
  </way>
  <way id="56092465" version="4" timestamp="2023-07-10T06:47:47Z" changeset="138322646" uid="14854203" user="clajersanlau">
    <nd ref="703988246"/>
    <nd ref="703988321"/>
    <nd ref="703988031"/>
    <nd ref="703988258"/>
    <nd ref="703988703"/>
    <nd ref="703987729"/>
    <nd ref="703987881"/>
    <nd ref="703988155"/>
    <nd ref="703988558"/>
    <nd ref="703987636"/>
    <nd ref="703987774"/>
    <nd ref="703987629"/>
    <nd ref="703988547"/>
    <nd ref="703988440"/>
    <nd ref="703988722"/>
    <nd ref="703988625"/>
    <nd ref="703987671"/>
    <nd ref="703988069"/>
    <nd ref="703988308"/>
    <nd ref="703988487"/>
    <nd ref="703988758"/>
    <nd ref="703987930"/>
    <nd ref="703988246"/>
    <tag k="alt_name" v="Hôtel Mansart"/>
    <tag k="building" v="apartments"/>
    <tag k="name" v="Hôtel de Sagonne"/>
    <tag k="source" v="cadastre-dgi-fr source : Direction Générale des Impôts - Cadastre. Mise à jour : 2010"/>
    <tag k="wikidata" v="Q3145964"/>
  </way>
  <way id="56104231" version="26" timestamp="2024-08-15T17:26:47Z" changeset="155294126" uid="11963177" user="JeroenvanderGun">
    <nd ref="568421754"/>
    <nd ref="8916466380"/>
    <nd ref="2284436529"/>
    <nd ref="26401905"/>
    <nd ref="6288229337"/>
    <nd ref="11069078887"/>
    <nd ref="361032"/>
    <nd ref="11069078889"/>
    <nd ref="6291071004"/>
    <nd ref="11069078900"/>
    <nd ref="26588366"/>
    <tag k="bicycle:backward" v="use_sidepath"/>
    <tag k="cycleway:left" v="separate"/>
    <tag k="cycleway:right" v="no"/>
    <tag k="enforcement:operator" v="Police nationale"/>
    <tag k="highway" v="secondary"/>
    <tag k="lanes" v="2"/>
    <tag k="lit" v="yes"/>
    <tag k="maxspeed" v="30"/>
    <tag k="name" v="Boulevard Bourdon"/>
    <tag k="name:etymology:wikidata" v="Q28053837"/>
    <tag k="oneway" v="yes"/>
    <tag k="operator" v="Ville de Paris"/>
    <tag k="operator:authority" v="Maire de Paris après avis du préfet de police"/>
    <tag k="operator:authority:related_law" v="IV de l'article L. 2512-14 du code général des collectivités territoriales"/>
    <tag k="operator:url" v="https://cdn.paris.fr/paris/2020/02/26/5bf469a311d0beb9911e92d113781550.ai"/>
    <tag k="sidewalk:both" v="separate"/>
    <tag k="smoothness" v="good"/>
    <tag k="source" v="cadastre-dgi-fr source : Direction Générale des Impôts - Cadastre. Mise à jour : 2010"/>
    <tag k="surface" v="asphalt"/>
  </way>
  <way id="56185430" version="32" timestamp="2024-10-17T13:11:28Z" changeset="158007663" uid="7512839" user="Benoît C MdP">
    <nd ref="644163"/>
    <nd ref="543569713"/>
    <nd ref="6271362903"/>
    <nd ref="25671370"/>
    <nd ref="6271362904"/>
    <nd ref="11368027200"/>
    <nd ref="25671372"/>
    <nd ref="11069303084"/>
    <nd ref="376059038"/>
    <tag k="bicycle:backward" v="use_sidepath"/>
    <tag k="cycleway:right" v="no"/>
    <tag k="enforcement:operator" v="Police nationale"/>
    <tag k="highway" v="primary"/>
    <tag k="lanes" v="2"/>
    <tag k="lit" v="yes"/>
    <tag k="maxspeed" v="30"/>
    <tag k="motor_vehicle" v="yes"/>
    <tag k="name" v="Quai des Célestins"/>
    <tag k="name:etymology:wikidata" v="Q657921"/>
    <tag k="oneway" v="yes"/>
    <tag k="operator" v="Ville de Paris"/>
    <tag k="operator:authority" v="Maire de Paris dans le respect des prescriptions prises par le préfet de police"/>
    <tag k="operator:authority:related_law" v="III de l'article L. 2512-14 du code général des collectivités territoriales"/>
    <tag k="sidewalk" v="both"/>
    <tag k="smoothness" v="good"/>
    <tag k="source" v="cadastre-dgi-fr source : Direction Générale des Impôts - Cadastre. Mise à jour : 2010"/>
    <tag k="source:operator:authority" v="https://www.legifrance.gouv.fr/loda/id/LEGIARTI000035244298/#LEGIARTI000035244298"/>
    <tag k="surface" v="asphalt"/>
    <tag k="zone:traffic" v="FR:urban"/>
  </way>
  <way id="56186898" version="42" timestamp="2024-10-31T12:43:08Z" changeset="158579895" uid="1556219" user="tbo47">
    <nd ref="9464454685"/>
    <nd ref="705056252"/>
    <nd ref="705056205"/>
    <nd ref="705056120"/>
    <nd ref="705056391"/>
    <nd ref="705056291"/>
    <nd ref="705056087"/>
    <nd ref="705056269"/>
    <nd ref="705056413"/>
    <nd ref="705056319"/>
    <nd ref="2582304437"/>
    <nd ref="2582304435"/>
    <nd ref="2582304436"/>
    <nd ref="705056265"/>
    <nd ref="705056417"/>
    <nd ref="705056439"/>
    <nd ref="705056342"/>
    <nd ref="9464454685"/>
    <tag k="addr:city" v="Paris"/>
    <tag k="addr:housenumber" v="21"/>
    <tag k="addr:postcode" v="75004"/>
    <tag k="addr:street" v="Boulevard Morland"/>
    <tag k="building" v="yes"/>
    <tag k="building:levels" v="3"/>
    <tag k="contact:instagram" v="pavillonarsenal"/>
    <tag k="email" v="infopa@pavillon-arsenal.com"/>
    <tag k="fee" v="no"/>
    <tag k="name" v="Pavillon de l'Arsenal"/>
    <tag k="name:ru" v="Павильон Арсенала"/>
    <tag k="note:fr" v="wheelchair pas vérifié pour les étages"/>
    <tag k="opening_hours" v="Tu-Su 11:00-19:00"/>
    <tag k="phone" v="+33 1 42 76 33 97"/>
    <tag k="source" v="Cadastre. Mise à jour : 2010;survey 2014"/>
    <tag k="tourism" v="museum"/>
    <tag k="website" v="https://www.pavillon-arsenal.com/"/>
    <tag k="wheelchair" v="limited"/>
    <tag k="wikidata" v="Q2000339"/>
    <tag k="wikipedia" v="fr:Pavillon de l'Arsenal"/>
  </way>
  <way id="56199245" version="14" timestamp="2024-03-17T00:35:37Z" changeset="148755030" uid="16159295" user="Gesmas">
    <nd ref="26401692"/>
    <nd ref="2284436538"/>
    <nd ref="6288229371"/>
    <nd ref="11069086138"/>
    <nd ref="507125490"/>
    <nd ref="4958110950"/>
    <nd ref="25671390"/>
    <tag k="cycleway" v="opposite"/>
    <tag k="highway" v="residential"/>
    <tag k="lit" v="yes"/>
    <tag k="maxspeed" v="30"/>
    <tag k="name" v="Rue Jules Cousin"/>
    <tag k="name:etymology:wikidata" v="Q3188502"/>
    <tag k="oneway" v="yes"/>
    <tag k="oneway:bicycle" v="no"/>
    <tag k="sidewalk:both" v="separate"/>
    <tag k="source" v="cadastre-dgi-fr source : Direction Générale des Impôts - Cadastre. Mise à jour : 2010"/>
    <tag k="surface" v="asphalt"/>
    <tag k="zone:maxspeed" v="FR:30"/>
  </way>
  <way id="56200020" version="23" timestamp="2024-09-14T17:23:10Z" changeset="156620815" uid="12245326" user="NaiveContact">
    <nd ref="705204146"/>
    <nd ref="705211297"/>
    <nd ref="2673413425"/>
    <nd ref="2673281676"/>
    <nd ref="2673413427"/>
    <nd ref="2673413429"/>
    <nd ref="705203805"/>
    <nd ref="705203887"/>
    <nd ref="705203834"/>
    <nd ref="705204097"/>
    <nd ref="705204146"/>
    <tag k="addr:city" v="Paris"/>
    <tag k="addr:housename" v="École Massillon"/>
    <tag k="addr:postcode" v="75004"/>
    <tag k="addr:street" v="Rue des Lions Saint-Paul"/>
    <tag k="amenity" v="school"/>
    <tag k="architect" v="Gaston Bouzy;Jean Giraud"/>
    <tag k="building" v="school"/>
    <tag k="building:levels" v="7"/>
    <tag k="check_date" v="2024-09-14"/>
    <tag k="name" v="École élémentaire privée Massillon"/>
    <tag k="name:en" v="Massillon School"/>
    <tag k="name:lv" v="Massillon Skola"/>
    <tag k="old_name" v="Bâtiment Gratry de l'École Massillon"/>
    <tag k="operator" v="Oratoire de France"/>
    <tag k="operator:type" v="religious"/>
    <tag k="ref:UAI" v="0750141W"/>
    <tag k="school:FR" v="élémentaire"/>
    <tag k="short_name" v="École Massillon"/>
    <tag k="source" v="cadastre-dgi-fr source : Direction Générale des Impôts - Cadastre. Mise à jour : 2010;data.gouv.fr:Ministère de l'Éducation nationale, de la Jeunesse et de la Vie associative - 05/2012"/>
    <tag k="start_date" v="1933"/>
    <tag k="wheelchair" v="limited"/>
  </way>
  <way id="56203241" version="2" timestamp="2023-07-14T20:25:31Z" changeset="138522702" uid="7550430" user="Britzz">
    <nd ref="705253110"/>
    <nd ref="705253261"/>
    <nd ref="705252903"/>
    <nd ref="705252882"/>
    <nd ref="705253382"/>
    <nd ref="705253063"/>
    <nd ref="705253028"/>
    <nd ref="705253232"/>
    <nd ref="705253152"/>
    <nd ref="705253356"/>
    <nd ref="705253110"/>
    <tag k="building" v="yes"/>
    <tag k="name" v="Jardins de Paris Marais-Bastille"/>
    <tag k="source" v="cadastre-dgi-fr source : Direction Générale des Impôts - Cadastre. Mise à jour : 2010"/>
    <tag k="tourism" v="hotel"/>
  </way>
  <way id="56206062" version="19" timestamp="2024-05-04T18:58:00Z" changeset="150894257" uid="12169583" user="davidfaure_bot">
    <nd ref="705299904"/>
    <nd ref="705323751"/>
    <nd ref="705300315"/>
    <nd ref="705323647"/>
    <nd ref="705323841"/>
    <nd ref="705299547"/>
    <nd ref="705323749"/>
    <nd ref="705323605"/>
    <nd ref="705299769"/>
    <nd ref="705299497"/>
    <nd ref="705299928"/>
    <nd ref="705299706"/>
    <nd ref="705300243"/>
    <nd ref="705299904"/>
    <tag k="addr:postcode" v="75004"/>
    <tag k="amenity" v="post_office"/>
    <tag k="architect" v="J. Bukiet"/>
    <tag k="architect:wikidata" v="Q3184680"/>
    <tag k="architect:wikipedia" v="fr:Joseph Bukiet"/>
    <tag k="atm" v="yes"/>
    <tag k="building" v="yes"/>
    <tag k="change_machine" v="yes"/>
    <tag k="copy_facility" v="yes"/>
    <tag k="name" v="Paris Bastille"/>
    <tag k="opening_hours" v="Mo-Fr 09:00-19:00; Sa 09:00-12:30; PH off; 2024 May 20 off"/>
    <tag k="operator" v="La Poste"/>
    <tag k="operator:wikidata" v="Q373724"/>
    <tag k="operator:wikipedia" v="fr:La Poste (entreprise française)"/>
    <tag k="phone:FR" v="3631"/>
    <tag k="ref:FR:LaPoste" v="14248A"/>
    <tag k="source" v="data.gouv.fr:LaPoste - 06/2015"/>
    <tag k="stamping_machine" v="yes"/>
    <tag k="start_date" v="1935"/>
    <tag k="wheelchair" v="yes"/>
  </way>
  <way id="56206112" version="10" timestamp="2023-11-03T19:02:50Z" changeset="143587735" uid="9451067" user="b-jazz-bot">
    <nd ref="705299407"/>
    <nd ref="705299699"/>
    <nd ref="705299540"/>
    <nd ref="705300007"/>
    <nd ref="705299912"/>
    <nd ref="705299304"/>
    <nd ref="705300229"/>
    <nd ref="705299490"/>
    <nd ref="705299287"/>
    <nd ref="705300231"/>
    <nd ref="705299595"/>
    <nd ref="705299443"/>
    <nd ref="705299869"/>
    <nd ref="705299785"/>
    <nd ref="705300302"/>
    <nd ref="705300094"/>
    <nd ref="705299397"/>
    <nd ref="705323644"/>
    <nd ref="705299719"/>
    <nd ref="11112968908"/>
    <nd ref="11112968909"/>
    <nd ref="11112900904"/>
    <nd ref="705300256"/>
    <nd ref="705300036"/>
    <nd ref="705299368"/>
    <nd ref="705299321"/>
    <nd ref="705299650"/>
    <nd ref="705299407"/>
    <tag k="alt_name" v="Temple Sainte-Marie"/>
    <tag k="amenity" v="place_of_worship"/>
    <tag k="architect" v="François Mansart;Michel Villedo"/>
    <tag k="architect:wikipedia" v="fr:François Mansart"/>
    <tag k="building" v="yes"/>
    <tag k="denomination" v="reformed"/>
    <tag k="name" v="Temple du Marais"/>
    <tag k="religion" v="christian"/>
    <tag k="service_times" v="Su 10:30, 17:30, Su[1] 20:00"/>
    <tag k="service_times:ar" v="Su 17:00"/>
    <tag k="service_times:ja" v="Su 15:00"/>
    <tag k="source" v="cadastre-dgi-fr source : Direction Générale des Impôts - Cadastre. Mise à jour : 2010"/>
    <tag k="start_date" v="1634"/>
    <tag k="website" v="https://temple.dumarais.fr/"/>
    <tag k="wheelchair" v="no"/>
    <tag k="wikidata" v="Q1383413"/>
    <tag k="wikipedia" v="fr:Temple du Marais"/>
  </way>
  <way id="56208771" version="3" timestamp="2022-03-27T07:00:45Z" changeset="118970077" uid="4516620" user="Anaximandre">
    <nd ref="705357619"/>
    <nd ref="705357612"/>
    <nd ref="705357622"/>
    <nd ref="705357617"/>
    <nd ref="705357615"/>
    <nd ref="705357609"/>
    <nd ref="705357618"/>
    <nd ref="705357614"/>
    <nd ref="705357611"/>
    <nd ref="705357623"/>
    <nd ref="705357613"/>
    <nd ref="705357608"/>
    <nd ref="705357619"/>
    <tag k="building" v="yes"/>
    <tag k="level" v="0"/>
    <tag k="name" v="Le Kiosque de Paris"/>
    <tag k="opening_hours" v="Mo-Fr 07:30-18:30; Sa 08:30-18:00"/>
    <tag k="operator" v="Mairie de Paris"/>
    <tag k="shop" v="kiosk"/>
    <tag k="source" v="cadastre-dgi-fr source : Direction Générale des Impôts - Cadastre. Mise à jour : 2010"/>
    <tag k="wheelchair" v="yes"/>
  </way>
  <way id="56214460" version="4" timestamp="2016-08-22T10:03:01Z" changeset="41610737" uid="158826" user="cquest">
    <nd ref="705458959"/>
    <nd ref="705458802"/>
    <nd ref="705483224"/>
    <nd ref="705458762"/>
    <nd ref="705459007"/>
    <nd ref="705458846"/>
    <nd ref="705483203"/>
    <nd ref="705483526"/>
    <nd ref="705483399"/>
    <nd ref="705458730"/>
    <nd ref="705483674"/>
    <nd ref="705459017"/>
    <nd ref="705458791"/>
    <nd ref="705458820"/>
    <nd ref="705458928"/>
    <nd ref="705458728"/>
    <nd ref="705458723"/>
    <nd ref="705458822"/>
    <nd ref="705458864"/>
    <nd ref="705458959"/>
    <tag k="building" v="yes"/>
    <tag k="name" v="Centre RATP de dépannage Bastille"/>
    <tag k="operator" v="RATP"/>
    <tag k="source" v="cadastre-dgi-fr source : Direction Générale des Impôts - Cadastre. Mise à jour : 2010"/>
  </way>
  <way id="56214464" version="10" timestamp="2023-09-29T07:33:53Z" changeset="141899112" uid="4346095" user="jerome92370">
    <nd ref="705458869"/>
    <nd ref="705458763"/>
    <nd ref="705483742"/>
    <nd ref="705459008"/>
    <nd ref="705458848"/>
    <nd ref="705483735"/>
    <nd ref="705483364"/>
    <nd ref="11226445654"/>
    <nd ref="705483489"/>
    <nd ref="705458732"/>
    <nd ref="705459027"/>
    <nd ref="705458942"/>
    <nd ref="705458784"/>
    <nd ref="705459014"/>
    <nd ref="705483805"/>
    <nd ref="705458869"/>
    <tag k="architect" v="Paul Friesé"/>
    <tag k="architect:wikipedia" v="fr:Paul Friesé"/>
    <tag k="building" v="yes"/>
    <tag k="building:levels" v="5"/>
    <tag k="heritage" v="3"/>
    <tag k="heritage:operator" v="mhs"/>
    <tag k="mhs:inscription_date" v="1992-04-07"/>
    <tag k="name" v="RATP Sous Station Électrique"/>
    <tag k="operator" v="RATP"/>
    <tag k="operator:wikidata" v="Q643290"/>
    <tag k="power" v="substation"/>
    <tag k="ref:mhs" v="PA00086481"/>
    <tag k="source" v="cadastre-dgi-fr source : Direction Générale des Impôts - Cadastre. Mise à jour : 2010"/>
    <tag k="source:heritage" v="data.gouv.fr:Ministère de la culture - 08/2017"/>
    <tag k="start_date" v="1911"/>
    <tag k="wikidata" v="Q3492079"/>
    <tag k="wikipedia" v="fr:Sous-station Bastille"/>
  </way>
  <way id="56214477" version="20" timestamp="2024-10-02T16:19:42Z" changeset="157386724" uid="20602401" user="esteka3000">
    <nd ref="26401859"/>
    <nd ref="4958110947"/>
    <nd ref="2284436552"/>
    <nd ref="8895505773"/>
    <nd ref="6388842678"/>
    <nd ref="705323549"/>
    <nd ref="705323847"/>
    <nd ref="6388851569"/>
    <nd ref="11069078841"/>
    <nd ref="703876606"/>
    <nd ref="26401818"/>
    <tag k="cycleway:both" v="no"/>
    <tag k="highway" v="residential"/>
    <tag k="lit" v="yes"/>
    <tag k="maxspeed" v="30"/>
    <tag k="maxspeed:type" v="FR:zone30"/>
    <tag k="name" v="Rue de Lesdiguières"/>
    <tag k="name:etymology:wikidata" v="Q1451233"/>
    <tag k="oneway" v="yes"/>
    <tag k="oneway:bicycle" v="no"/>
    <tag k="sidewalk:both" v="separate"/>
    <tag k="smoothness" v="good"/>
    <tag k="source" v="cadastre-dgi-fr source : Direction Générale des Impôts - Cadastre. Mise à jour : 2010"/>
    <tag k="surface" v="asphalt"/>
  </way>
  <way id="56216667" version="6" timestamp="2015-04-22T02:33:32Z" changeset="30394156" uid="2814778" user="VinceBot">
    <nd ref="705483304"/>
    <nd ref="705483576"/>
    <nd ref="705483346"/>
    <nd ref="705483301"/>
    <nd ref="705483096"/>
    <nd ref="705483398"/>
    <nd ref="705483204"/>
    <nd ref="705483158"/>
    <nd ref="705483653"/>
    <nd ref="705483193"/>
    <nd ref="705483700"/>
    <nd ref="705483638"/>
    <nd ref="705483388"/>
    <nd ref="705483773"/>
    <nd ref="705483517"/>
    <nd ref="705483454"/>
    <nd ref="705483244"/>
    <nd ref="705483645"/>
    <nd ref="705483392"/>
    <nd ref="705483339"/>
    <nd ref="705483151"/>
    <nd ref="705483502"/>
    <nd ref="705483145"/>
    <nd ref="705483631"/>
    <nd ref="705483559"/>
    <nd ref="705483331"/>
    <nd ref="705483457"/>
    <nd ref="705483303"/>
    <nd ref="705483455"/>
    <nd ref="705483247"/>
    <nd ref="705483196"/>
    <nd ref="705483702"/>
    <nd ref="705483304"/>
    <tag k="building" v="yes"/>
    <tag k="building:levels" v="1"/>
    <tag k="name" v="Direction de la Jeunesse et des Sports"/>
    <tag k="operator" v="Mairie de Paris"/>
    <tag k="short_name" v="DJS"/>
    <tag k="source" v="cadastre-dgi-fr source : Direction Générale des Impôts - Cadastre. Mise à jour : 2010"/>
  </way>
  <way id="56216685" version="5" timestamp="2022-12-16T14:09:28Z" changeset="130158113" uid="1205555" user="benoitdd">
    <nd ref="705483222"/>
    <nd ref="705483750"/>
    <nd ref="705483675"/>
    <nd ref="705483432"/>
    <nd ref="705483152"/>
    <nd ref="705483646"/>
    <nd ref="705483570"/>
    <nd ref="705483342"/>
    <nd ref="705483222"/>
    <tag k="building" v="riding_hall"/>
    <tag k="building:levels" v="2"/>
    <tag k="name" v="Manège Battesti"/>
    <tag k="roof:shape" v="hipped"/>
    <tag k="source" v="cadastre-dgi-fr source : Direction Générale des Impôts - Cadastre. Mise à jour : 2010"/>
    <tag k="sport" v="equestrian"/>
  </way>
  <way id="56216691" version="11" timestamp="2024-03-28T08:33:37Z" changeset="149255723" uid="2678738" user="fgouget">
    <nd ref="26588372"/>
    <nd ref="26588370"/>
    <nd ref="6394327843"/>
    <nd ref="2284436516"/>
    <nd ref="26588354"/>
    <tag k="cycleway" v="opposite"/>
    <tag k="highway" v="residential"/>
    <tag k="lit" v="yes"/>
    <tag k="maxspeed" v="30"/>
    <tag k="name" v="Rue de l'Arsenal"/>
    <tag k="name:etymology:wikidata" v="Q2864379"/>
    <tag k="oneway" v="yes"/>
    <tag k="oneway:bicycle" v="no"/>
    <tag k="sidewalk:right" v="separate"/>
    <tag k="source" v="cadastre-dgi-fr source : Direction Générale des Impôts - Cadastre. Mise à jour : 2010"/>
    <tag k="surface" v="asphalt"/>
  </way>
  <way id="56216699" version="7" timestamp="2023-11-03T19:09:23Z" changeset="143587884" uid="9451067" user="b-jazz-bot">
    <nd ref="705483236"/>
    <nd ref="705483334"/>
    <nd ref="705483348"/>
    <nd ref="705483715"/>
    <nd ref="705483469"/>
    <nd ref="705483405"/>
    <nd ref="705483210"/>
    <nd ref="705483466"/>
    <nd ref="705483258"/>
    <nd ref="705483729"/>
    <nd ref="705483208"/>
    <nd ref="9458542576"/>
    <nd ref="705483310"/>
    <nd ref="705483113"/>
    <nd ref="705483787"/>
    <nd ref="705483442"/>
    <nd ref="705483534"/>
    <nd ref="705483100"/>
    <nd ref="705483568"/>
    <nd ref="705483236"/>
    <tag k="addr:housenumber" v="4"/>
    <tag k="building" v="public"/>
    <tag k="building:levels" v="6"/>
    <tag k="name" v="Direction des affaires scolaires"/>
    <tag k="operator" v="Mairie de Paris"/>
    <tag k="short_name" v="DASCO"/>
    <tag k="source" v="cadastre-dgi-fr source : Direction Générale des Impôts - Cadastre. Mise à jour : 2010"/>
    <tag k="website" v="https://paris.fr/politiques/organigramme-des-directions-services/direction-des-affaires-scolaires-dasco/organigramme-de-la-direction/rub_5399_stand_8675_port_11621"/>
  </way>
  <way id="56217774" version="17" timestamp="2025-04-21T09:43:38Z" changeset="165229260" uid="11884206" user="Tom_Lbe">
    <nd ref="705491931"/>
    <nd ref="705491951"/>
    <nd ref="705514912"/>
    <nd ref="705491939"/>
    <nd ref="705492061"/>
    <nd ref="705491987"/>
    <nd ref="705491937"/>
    <nd ref="705491913"/>
    <nd ref="705492035"/>
    <nd ref="705491945"/>
    <nd ref="705492068"/>
    <nd ref="705492043"/>
    <nd ref="705492008"/>
    <nd ref="705492066"/>
    <nd ref="705492015"/>
    <nd ref="705491995"/>
    <nd ref="705491943"/>
    <nd ref="705492028"/>
    <nd ref="705491975"/>
    <nd ref="705491971"/>
    <nd ref="705491905"/>
    <nd ref="705491973"/>
    <nd ref="705491911"/>
    <nd ref="705491903"/>
    <nd ref="705492025"/>
    <nd ref="705491935"/>
    <nd ref="705492040"/>
    <nd ref="705492033"/>
    <nd ref="705491985"/>
    <nd ref="4701887057"/>
    <nd ref="705492038"/>
    <nd ref="705491993"/>
    <nd ref="705491983"/>
    <nd ref="705491934"/>
    <nd ref="705492011"/>
    <nd ref="1353124017"/>
    <nd ref="705491958"/>
    <nd ref="705491941"/>
    <nd ref="1353123978"/>
    <nd ref="705492063"/>
    <nd ref="705491991"/>
    <nd ref="705491931"/>
    <tag k="amenity" v="library"/>
    <tag k="architect" v="Théodore Labrouste;Germain Boffrand"/>
    <tag k="architect:wikidata" v="Q3526446"/>
    <tag k="architect:wikipedia" v="fr:Théodore Labrouste"/>
    <tag k="building" v="yes"/>
    <tag k="building:levels" v="4"/>
    <tag k="check_date:opening_hours" v="2025-04-21"/>
    <tag k="heritage" v="2"/>
    <tag k="heritage:operator" v="mhs"/>
    <tag k="internet_access" v="wlan"/>
    <tag k="internet_access:fee" v="no"/>
    <tag k="internet_access:operator" v="Mairie de Paris"/>
    <tag k="mhs:inscription_date" v="2003-10-27"/>
    <tag k="name" v="Bibliothèque de l'Arsenal"/>
    <tag k="opening_hours" v="Mo 14:00-19:00; Tu-Fr 10:00-19:00; Sa 10:00-18:00; PH closed"/>
    <tag k="ref:mhs" v="PA00086239"/>
    <tag k="roof:material" v="slate"/>
    <tag k="roof:shape" v="hipped"/>
    <tag k="source" v="cadastre-dgi-fr source : Direction Générale des Impôts - Cadastre. Mise à jour : 2010"/>
    <tag k="source:architect" v="data.gouv.fr:Ministère de la culture et de la communication - 05/2016"/>
    <tag k="source:heritage" v="data.gouv.fr:Ministère de la Culture - 03/2018"/>
    <tag k="source:internet_access" v="Paris Open Data"/>
    <tag k="website" v="https://www.bnf.fr/fr/la_bnf/sites/a.site_bibliotheque_arsenal.html"/>
    <tag k="wikidata" v="Q2256147"/>
    <tag k="wikipedia" v="fr:Bibliothèque de l'Arsenal"/>
  </way>
  <way id="59854677" version="15" timestamp="2024-03-03T20:47:43Z" changeset="148181185" uid="6290466" user="benjamintchik">
    <nd ref="26401904"/>
    <nd ref="2284436534"/>
    <nd ref="11069078870"/>
    <nd ref="26401868"/>
    <tag k="cycleway" v="opposite"/>
    <tag k="highway" v="residential"/>
    <tag k="lit" v="yes"/>
    <tag k="maxspeed" v="30"/>
    <tag k="name" v="Rue Jacques Cœur"/>
    <tag k="name:etymology:wikidata" v="Q461757"/>
    <tag k="oneway" v="yes"/>
    <tag k="oneway:bicycle" v="no"/>
    <tag k="sidewalk:both" v="separate"/>
    <tag k="smoothness" v="good"/>
    <tag k="surface" v="asphalt"/>
  </way>
  <way id="60208897" version="20" timestamp="2024-02-17T11:33:40Z" changeset="147566293" uid="6290466" user="benjamintchik">
    <nd ref="277500563"/>
    <nd ref="2366444350"/>
    <nd ref="2284436537"/>
    <nd ref="26401692"/>
    <tag k="highway" v="residential"/>
    <tag k="lit" v="yes"/>
    <tag k="maxspeed" v="30"/>
    <tag k="name" v="Rue du Petit Musc"/>
    <tag k="name:etymology" v="unknown"/>
    <tag k="oneway" v="yes"/>
    <tag k="oneway:bicycle" v="no"/>
    <tag k="sidewalk:both" v="separate"/>
    <tag k="surface" v="asphalt"/>
    <tag k="zone:maxspeed" v="FR:30"/>
  </way>
  <way id="64963501" version="15" timestamp="2024-02-17T11:33:54Z" changeset="147566293" uid="6290466" user="benjamintchik">
    <nd ref="26401690"/>
    <nd ref="2284436557"/>
    <nd ref="9742587476"/>
    <nd ref="704820078"/>
    <nd ref="705204453"/>
    <nd ref="2038017584"/>
    <nd ref="2284436565"/>
    <nd ref="26401689"/>
    <tag k="cycleway" v="opposite"/>
    <tag k="highway" v="residential"/>
    <tag k="lit" v="yes"/>
    <tag k="maxspeed" v="30"/>
    <tag k="name" v="Rue Charles V"/>
    <tag k="name:etymology:wikidata" v="Q167782"/>
    <tag k="oneway" v="yes"/>
    <tag k="oneway:bicycle" v="no"/>
    <tag k="service" v="alley"/>
    <tag k="sidewalk:both" v="separate"/>
    <tag k="surface" v="asphalt"/>
    <tag k="zone:maxspeed" v="FR:30"/>
  </way>
  <way id="64963505" version="16" timestamp="2025-01-21T09:06:22Z" changeset="161591633" uid="7512839" user="Benoît C MdP">
    <nd ref="26401904"/>
    <nd ref="2284436530"/>
    <nd ref="6291069646"/>
    <nd ref="11069078874"/>
    <nd ref="26401905"/>
    <tag k="cycleway:left" v="lane"/>
    <tag k="cycleway:left:oneway" v="-1"/>
    <tag k="highway" v="residential"/>
    <tag k="lit" v="yes"/>
    <tag k="maxspeed" v="30"/>
    <tag k="name" v="Rue de la Cerisaie"/>
    <tag k="name:etymology:wikidata" v="Q124593615"/>
    <tag k="oneway" v="yes"/>
    <tag k="oneway:bicycle" v="no"/>
    <tag k="sidewalk:both" v="separate"/>
    <tag k="smoothness" v="good"/>
    <tag k="surface" v="asphalt"/>
  </way>
  <way id="72077767" version="12" timestamp="2025-01-10T08:59:22Z" changeset="161196700" uid="7512839" user="Benoît C MdP">
    <nd ref="26401727"/>
    <nd ref="2284436544"/>
    <nd ref="2284436554"/>
    <nd ref="26401694"/>
    <tag k="cycleway:left" v="shared_lane"/>
    <tag k="cycleway:left:lane" v="pictogram"/>
    <tag k="cycleway:left:oneway" v="-1"/>
    <tag k="cycleway:right" v="no"/>
    <tag k="highway" v="residential"/>
    <tag k="maxspeed" v="30"/>
    <tag k="name" v="Rue de la Cerisaie"/>
    <tag k="name:etymology:wikidata" v="Q124593615"/>
    <tag k="oneway" v="yes"/>
    <tag k="oneway:bicycle" v="no"/>
    <tag k="sidewalk:both" v="separate"/>
    <tag k="smoothness" v="excellent"/>
    <tag k="surface" v="asphalt"/>
  </way>
  <way id="149749643" version="8" timestamp="2024-09-12T14:27:12Z" changeset="156531339" uid="195017" user="Julien39">
    <nd ref="1627031628"/>
    <nd ref="5548042885"/>
    <nd ref="1627031623"/>
    <nd ref="1627031631"/>
    <nd ref="1627031621"/>
    <nd ref="1627031604"/>
    <nd ref="1627031629"/>
    <nd ref="1627031626"/>
    <nd ref="1627031579"/>
    <nd ref="1627031576"/>
    <nd ref="1627031594"/>
    <nd ref="10889332468"/>
    <nd ref="1627031581"/>
    <nd ref="1627031634"/>
    <nd ref="1627031607"/>
    <nd ref="1627031582"/>
    <nd ref="1627031602"/>
    <nd ref="1627031610"/>
    <nd ref="1627031617"/>
    <nd ref="1627031584"/>
    <nd ref="1627031619"/>
    <nd ref="1627031628"/>
    <tag k="building" v="ruins"/>
    <tag k="historic" v="ruins"/>
    <tag k="historic:civilization" v="medieval"/>
    <tag k="inscription" v="Vestiges des fondations de la Bastille Tour de la Liberté découverts en 1899 et transportés sur cet emplacement."/>
    <tag k="name" v="Tour de la Liberté"/>
    <tag k="name:en" v="Liberté Tower"/>
    <tag k="name:fr" v="Tour de la Liberté"/>
    <tag k="wikidata" v="Q16185913"/>
    <tag k="wikipedia" v="fr:Tour de la Liberté (Paris)"/>
    <tag k="year_of_construction" v="1370..1380s"/>
  </way>
  <way id="162384244" version="18" timestamp="2024-08-15T17:22:30Z" changeset="155293930" uid="11963177" user="JeroenvanderGun">
    <nd ref="5059182789"/>
    <nd ref="25675614"/>
    <tag k="alt_name" v="Voie Georges Pompidou"/>
    <tag k="bicycle" v="no"/>
    <tag k="bridge" v="yes"/>
    <tag k="busway:right" v="lane"/>
    <tag k="cycleway:left" v="no"/>
    <tag k="cycleway:right" v="separate"/>
    <tag k="enforcement:operator" v="Police nationale"/>
    <tag k="foot" v="no"/>
    <tag k="hazmat" v="no"/>
    <tag k="highway" v="primary"/>
    <tag k="lanes" v="5"/>
    <tag k="layer" v="1"/>
    <tag k="lit" v="yes"/>
    <tag k="maxheight" v="4"/>
    <tag k="maxspeed" v="50"/>
    <tag k="maxweight:signed" v="no"/>
    <tag k="name" v="Voie Mazas"/>
    <tag k="name:etymology:wikidata" v="Q3158925"/>
    <tag k="oneway" v="yes"/>
    <tag k="operator" v="Ville de Paris"/>
    <tag k="operator:authority" v="Maire de Paris dans le respect des prescriptions prises par le préfet de police"/>
    <tag k="operator:authority:related_law" v="III de l'article L. 2512-14 du code général des collectivités territoriales"/>
    <tag k="psv:lanes" v="yes|yes|yes|yes|designated"/>
    <tag k="source:operator:authority" v="https://www.legifrance.gouv.fr/loda/id/LEGIARTI000035244298/#LEGIARTI000035244298"/>
    <tag k="surface" v="asphalt"/>
    <tag k="zone:traffic" v="FR:urban"/>
  </way>
  <way id="192222119" version="18" timestamp="2025-01-10T08:59:22Z" changeset="161196700" uid="7512839" user="Benoît C MdP">
    <nd ref="25671388"/>
    <nd ref="4958110951"/>
    <tag k="bicycle:backward" v="use_sidepath"/>
    <tag k="busway:left" v="lane"/>
    <tag k="busway:left:oneway" v="-1"/>
    <tag k="cycleway:left" v="share_busway"/>
    <tag k="cycleway:left:oneway" v="-1"/>
    <tag k="cycleway:right" v="shared_lane"/>
    <tag k="cycleway:right:lane" v="pictogram"/>
    <tag k="highway" v="primary"/>
    <tag k="lanes" v="3"/>
    <tag k="lanes:backward" v="1"/>
    <tag k="lanes:forward" v="2"/>
    <tag k="lit" v="yes"/>
    <tag k="maxspeed" v="30"/>
    <tag k="name" v="Boulevard Henri IV"/>
    <tag k="name:etymology:wikidata" v="Q161866"/>
    <tag k="oneway" v="yes"/>
    <tag k="oneway:bicycle" v="no"/>
    <tag k="oneway:psv" v="no"/>
    <tag k="sidewalk:both" v="separate"/>
    <tag k="smoothness" v="excellent"/>
    <tag k="source:maxspeed" v="sign"/>
    <tag k="surface" v="asphalt"/>
    <tag k="zone:maxspeed" v="FR:30"/>
  </way>
  <way id="261732187" version="10" timestamp="2024-09-12T14:24:46Z" changeset="156531230" uid="195017" user="Julien39">
    <nd ref="705182366"/>
    <nd ref="705182201"/>
    <nd ref="11114591341"/>
    <nd ref="705182759"/>
    <nd ref="705182032"/>
    <nd ref="705182608"/>
    <nd ref="705182649"/>
    <nd ref="705182308"/>
    <nd ref="11114591336"/>
    <nd ref="705182463"/>
    <nd ref="705182090"/>
    <nd ref="705182344"/>
    <nd ref="705182823"/>
    <nd ref="2653700657"/>
    <nd ref="11114591320"/>
    <nd ref="705182613"/>
    <nd ref="11114591322"/>
    <nd ref="705182180"/>
    <nd ref="705182726"/>
    <nd ref="705182794"/>
    <nd ref="2148951482"/>
    <nd ref="705182499"/>
    <nd ref="705182621"/>
    <nd ref="705182246"/>
    <nd ref="705182523"/>
    <nd ref="2673413423"/>
    <nd ref="705182366"/>
    <tag k="building" v="school"/>
    <tag k="building:colour" v="#ffe0a0"/>
    <tag k="building:levels" v="3"/>
    <tag k="historic" v="manor"/>
    <tag k="name" v="Hôtel Fieubet"/>
    <tag k="roof:levels" v="1"/>
    <tag k="source" v="cadastre-dgi-fr source : Direction Générale des Impôts - Cadastre. Mise à jour : 2014"/>
    <tag k="wheelchair" v="limited"/>
    <tag k="wikidata" v="Q38571305"/>
    <tag k="wikipedia" v="fr:Hôtel Fieubet"/>
  </way>
  <way id="294826462" version="9" timestamp="2024-03-28T10:21:42Z" changeset="149261012" uid="2678738" user="fgouget">
    <nd ref="25671389"/>
    <nd ref="277500563"/>
    <tag k="cycleway" v="opposite"/>
    <tag k="highway" v="residential"/>
    <tag k="maxspeed" v="30"/>
    <tag k="maxspeed:type" v="FR:zone30"/>
    <tag k="name" v="Rue du Petit Musc"/>
    <tag k="name:etymology" v="unknown"/>
    <tag k="oneway" v="yes"/>
    <tag k="oneway:bicycle" v="no"/>
    <tag k="sidewalk:both" v="separate"/>
    <tag k="surface" v="asphalt"/>
  </way>
  <way id="376214217" version="30" timestamp="2024-10-04T09:31:10Z" changeset="157451938" uid="7512839" user="Benoît C MdP">
    <nd ref="368175"/>
    <nd ref="11069303082"/>
    <nd ref="2399929966"/>
    <nd ref="382056"/>
    <nd ref="3657878921"/>
    <nd ref="6195904214"/>
    <nd ref="214843848"/>
    <nd ref="705056143"/>
    <nd ref="25671505"/>
    <nd ref="1682456706"/>
    <nd ref="9512455541"/>
    <nd ref="11069086109"/>
    <nd ref="25671506"/>
    <nd ref="1682456723"/>
    <nd ref="6532198443"/>
    <nd ref="382054"/>
    <nd ref="6532198453"/>
    <nd ref="6195904213"/>
    <nd ref="4964850349"/>
    <nd ref="4964850344"/>
    <nd ref="4964850340"/>
    <tag k="enforcement:operator" v="Police nationale"/>
    <tag k="hazmat" v="no"/>
    <tag k="highway" v="primary"/>
    <tag k="lanes" v="2"/>
    <tag k="lit" v="yes"/>
    <tag k="maxheight" v="4"/>
    <tag k="maxspeed" v="30"/>
    <tag k="name" v="Quai Henri IV"/>
    <tag k="name:etymology:wikidata" v="Q161866"/>
    <tag k="oneway" v="yes"/>
    <tag k="operator" v="Ville de Paris"/>
    <tag k="operator:authority" v="Maire de Paris dans le respect des prescriptions prises par le préfet de police"/>
    <tag k="operator:authority:related_law" v="III de l'article L. 2512-14 du code général des collectivités territoriales"/>
    <tag k="sidewalk:both" v="separate"/>
    <tag k="smoothness" v="good"/>
    <tag k="source" v="cadastre-dgi-fr source : Direction Générale des Impôts - Cadastre. Mise à jour : 2010"/>
    <tag k="source:operator:authority" v="https://www.legifrance.gouv.fr/loda/id/LEGIARTI000035244298/#LEGIARTI000035244298"/>
    <tag k="surface" v="asphalt"/>
    <tag k="zone:traffic" v="FR:urban"/>
  </way>
  <way id="390294215" version="19" timestamp="2025-01-10T08:59:22Z" changeset="161196700" uid="7512839" user="Benoît C MdP">
    <nd ref="25671390"/>
    <nd ref="11069086139"/>
    <nd ref="10267745608"/>
    <nd ref="6287132641"/>
    <nd ref="26401727"/>
    <tag k="bicycle:backward" v="use_sidepath"/>
    <tag k="busway:left" v="lane"/>
    <tag k="busway:left:oneway" v="-1"/>
    <tag k="cycleway:left" v="share_busway"/>
    <tag k="cycleway:left:oneway" v="-1"/>
    <tag k="cycleway:right" v="lane"/>
    <tag k="cycleway:right:lane" v="exclusive"/>
    <tag k="highway" v="primary"/>
    <tag k="lanes" v="3"/>
    <tag k="lanes:backward" v="1"/>
    <tag k="lanes:forward" v="2"/>
    <tag k="lit" v="yes"/>
    <tag k="maxspeed" v="30"/>
    <tag k="name" v="Boulevard Henri IV"/>
    <tag k="name:etymology:wikidata" v="Q161866"/>
    <tag k="oneway" v="yes"/>
    <tag k="oneway:bicycle" v="no"/>
    <tag k="oneway:psv" v="no"/>
    <tag k="sidewalk:both" v="separate"/>
    <tag k="smoothness" v="good"/>
    <tag k="source:maxspeed" v="FR:urban"/>
    <tag k="surface" v="asphalt"/>
    <tag k="zone:maxspeed" v="FR:30"/>
  </way>
  <way id="390294216" version="18" timestamp="2025-05-02T16:17:42Z" changeset="165726785" uid="6593606" user="DUKE73">
    <nd ref="26401859"/>
    <nd ref="6288229319"/>
    <nd ref="5515713258"/>
    <nd ref="26401868"/>
    <tag k="bicycle:backward" v="use_sidepath"/>
    <tag k="busway:left" v="lane"/>
    <tag k="busway:left:oneway" v="-1"/>
    <tag k="cycleway:left" v="track"/>
    <tag k="cycleway:left:oneway" v="-1"/>
    <tag k="cycleway:right" v="lane"/>
    <tag k="highway" v="primary"/>
    <tag k="lanes" v="3"/>
    <tag k="lanes:backward" v="1"/>
    <tag k="lanes:forward" v="2"/>
    <tag k="lit" v="yes"/>
    <tag k="maxspeed" v="30"/>
    <tag k="name" v="Boulevard Henri IV"/>
    <tag k="name:etymology:wikidata" v="Q161866"/>
    <tag k="oneway" v="yes"/>
    <tag k="oneway:bicycle" v="no"/>
    <tag k="oneway:psv" v="no"/>
    <tag k="sidewalk:both" v="separate"/>
    <tag k="smoothness" v="good"/>
    <tag k="surface" v="asphalt"/>
    <tag k="zone:maxspeed" v="FR:30"/>
  </way>
  <way id="390294217" version="20" timestamp="2025-01-10T08:59:22Z" changeset="161196700" uid="7512839" user="Benoît C MdP">
    <nd ref="2366444204"/>
    <nd ref="5688693957"/>
    <nd ref="6288229373"/>
    <nd ref="11069086137"/>
    <nd ref="25671390"/>
    <tag k="bicycle:backward" v="use_sidepath"/>
    <tag k="busway:left" v="lane"/>
    <tag k="busway:left:oneway" v="-1"/>
    <tag k="cycleway:left" v="share_busway"/>
    <tag k="cycleway:left:oneway" v="-1"/>
    <tag k="cycleway:right" v="lane"/>
    <tag k="cycleway:right:lane" v="exclusive"/>
    <tag k="highway" v="primary"/>
    <tag k="lanes" v="3"/>
    <tag k="lanes:backward" v="1"/>
    <tag k="lanes:forward" v="2"/>
    <tag k="lit" v="yes"/>
    <tag k="maxspeed" v="30"/>
    <tag k="name" v="Boulevard Henri IV"/>
    <tag k="name:etymology:wikidata" v="Q161866"/>
    <tag k="oneway" v="yes"/>
    <tag k="oneway:bicycle" v="no"/>
    <tag k="oneway:psv" v="no"/>
    <tag k="sidewalk:both" v="separate"/>
    <tag k="smoothness" v="good"/>
    <tag k="source:maxspeed" v="sign"/>
    <tag k="surface" v="asphalt"/>
    <tag k="zone:maxspeed" v="FR:30"/>
  </way>
  <way id="390294218" version="18" timestamp="2025-05-02T16:17:42Z" changeset="165726785" uid="6593606" user="DUKE73">
    <nd ref="26401864"/>
    <nd ref="6288229318"/>
    <nd ref="11069078879"/>
    <nd ref="5688693958"/>
    <nd ref="26401859"/>
    <tag k="bicycle:backward" v="use_sidepath"/>
    <tag k="busway:left" v="lane"/>
    <tag k="busway:left:oneway" v="-1"/>
    <tag k="cycleway:left" v="track"/>
    <tag k="cycleway:left:oneway" v="-1"/>
    <tag k="cycleway:right" v="lane"/>
    <tag k="highway" v="primary"/>
    <tag k="lanes" v="3"/>
    <tag k="lanes:backward" v="1"/>
    <tag k="lanes:forward" v="2"/>
    <tag k="lit" v="yes"/>
    <tag k="maxspeed" v="30"/>
    <tag k="name" v="Boulevard Henri IV"/>
    <tag k="name:etymology:wikidata" v="Q161866"/>
    <tag k="oneway" v="yes"/>
    <tag k="oneway:bicycle" v="no"/>
    <tag k="oneway:psv" v="no"/>
    <tag k="sidewalk:both" v="separate"/>
    <tag k="smoothness" v="good"/>
    <tag k="source:maxspeed" v="FR:urban"/>
    <tag k="surface" v="asphalt"/>
    <tag k="zone:maxspeed" v="FR:30"/>
  </way>
  <way id="390294221" version="10" timestamp="2024-03-03T20:54:58Z" changeset="148181185" uid="6290466" user="benjamintchik">
    <nd ref="277500481"/>
    <nd ref="26588359"/>
    <tag k="highway" v="residential"/>
    <tag k="lit" v="yes"/>
    <tag k="maxspeed" v="30"/>
    <tag k="name" v="Rue de Schomberg"/>
    <tag k="name:etymology:wikidata" v="Q88679"/>
    <tag k="sidewalk" v="both"/>
    <tag k="source:width" v="ARCore"/>
    <tag k="surface" v="asphalt"/>
    <tag k="width" v="6.1"/>
  </way>
  <way id="465426977" version="4" timestamp="2019-03-08T18:22:57Z" changeset="67934052" uid="311391" user="patman37">
    <nd ref="4964850341"/>
    <nd ref="4603914573"/>
    <nd ref="4603914570"/>
    <nd ref="4603914571"/>
    <tag k="access" v="no"/>
    <tag k="highway" v="unclassified"/>
  </way>
  <way id="506007807" version="14" timestamp="2024-08-15T17:26:47Z" changeset="155294126" uid="11963177" user="JeroenvanderGun">
    <nd ref="332476879"/>
    <nd ref="1498653782"/>
    <tag k="bicycle:backward" v="use_sidepath"/>
    <tag k="enforcement:operator" v="Police nationale"/>
    <tag k="foot" v="no"/>
    <tag k="highway" v="secondary"/>
    <tag k="lanes" v="2"/>
    <tag k="lit" v="yes"/>
    <tag k="maxspeed" v="30"/>
    <tag k="name" v="Place de la Bastille"/>
    <tag k="name:etymology:wikidata" v="Q1865480"/>
    <tag k="oneway" v="yes"/>
    <tag k="operator" v="Ville de Paris"/>
    <tag k="operator:authority" v="Maire de Paris après avis du préfet de police"/>
    <tag k="operator:authority:related_law" v="IV de l'article L. 2512-14 du code général des collectivités territoriales"/>
    <tag k="operator:url" v="https://cdn.paris.fr/paris/2020/02/26/5bf469a311d0beb9911e92d113781550.ai"/>
    <tag k="sidewalk:left" v="separate"/>
    <tag k="smoothness" v="good"/>
    <tag k="surface" v="asphalt"/>
  </way>
  <way id="557026896" version="16" timestamp="2024-07-20T15:33:50Z" changeset="154184614" uid="2252690" user="gourlaysama">
    <nd ref="26401818"/>
    <nd ref="8762164100"/>
    <nd ref="2284436569"/>
    <nd ref="8762164098"/>
    <nd ref="2284436572"/>
    <nd ref="26401805"/>
    <tag k="cycleway:left" v="no"/>
    <tag k="highway" v="residential"/>
    <tag k="lit" v="yes"/>
    <tag k="maxspeed" v="30"/>
    <tag k="name" v="Rue des Tournelles"/>
    <tag k="name:etymology:wikidata" v="Q1476769"/>
    <tag k="oneway" v="yes"/>
    <tag k="oneway:bicycle" v="no"/>
    <tag k="sidewalk:both" v="separate"/>
    <tag k="sidewalk:left:surface" v="paving_stones"/>
    <tag k="sidewalk:right:surface" v="asphalt"/>
    <tag k="smoothness" v="good"/>
    <tag k="surface" v="asphalt"/>
    <tag k="zone:maxspeed" v="FR:30"/>
  </way>
  <way id="574681654" version="12" timestamp="2024-08-15T17:26:47Z" changeset="155294126" uid="11963177" user="JeroenvanderGun">
    <nd ref="26588366"/>
    <nd ref="11069078901"/>
    <nd ref="247346511"/>
    <nd ref="568421946"/>
    <nd ref="5057260419"/>
    <nd ref="6103769546"/>
    <nd ref="277500492"/>
    <nd ref="361031"/>
    <tag k="bicycle:backward" v="use_sidepath"/>
    <tag k="cycleway:left" v="separate"/>
    <tag k="cycleway:right" v="no"/>
    <tag k="enforcement:operator" v="Police nationale"/>
    <tag k="highway" v="secondary"/>
    <tag k="lanes" v="2"/>
    <tag k="lit" v="yes"/>
    <tag k="maxspeed" v="30"/>
    <tag k="name" v="Boulevard Bourdon"/>
    <tag k="name:etymology:wikidata" v="Q28053837"/>
    <tag k="oneway" v="yes"/>
    <tag k="operator" v="Ville de Paris"/>
    <tag k="operator:authority" v="Maire de Paris après avis du préfet de police"/>
    <tag k="operator:authority:related_law" v="IV de l'article L. 2512-14 du code général des collectivités territoriales"/>
    <tag k="operator:url" v="https://cdn.paris.fr/paris/2020/02/26/5bf469a311d0beb9911e92d113781550.ai"/>
    <tag k="sidewalk:both" v="separate"/>
    <tag k="source" v="cadastre-dgi-fr source : Direction Générale des Impôts - Cadastre. Mise à jour : 2010"/>
    <tag k="surface" v="asphalt"/>
    <tag k="turn:lanes" v="left;through|through;right"/>
  </way>
  <way id="598187740" version="2" timestamp="2019-01-09T17:04:28Z" changeset="66169031" uid="311391" user="patman37">
    <nd ref="4418673952"/>
    <nd ref="5693696744"/>
    <nd ref="5693696746"/>
    <tag k="access" v="no"/>
    <tag k="highway" v="unclassified"/>
  </way>
  <way id="606503738" version="4" timestamp="2021-07-04T14:13:42Z" changeset="107392509" uid="8874984" user="anyroka">
    <nd ref="5750324838"/>
    <nd ref="5750324839"/>
    <nd ref="5750324840"/>
    <nd ref="5750324841"/>
    <nd ref="5750324838"/>
    <tag k="building" v="kiosk"/>
    <tag k="name" v="Le kiosque de Paris"/>
    <tag k="shop" v="kiosk"/>
    <tag k="wheelchair" v="yes"/>
  </way>
  <way id="656594250" version="8" timestamp="2024-03-30T00:17:41Z" changeset="149332975" uid="2678738" user="fgouget">
    <nd ref="26401820"/>
    <nd ref="5092153448"/>
    <tag k="cycleway" v="opposite"/>
    <tag k="highway" v="residential"/>
    <tag k="lit" v="yes"/>
    <tag k="maxspeed" v="30"/>
    <tag k="name" v="Rue du Petit Musc"/>
    <tag k="name:etymology" v="unknown"/>
    <tag k="oneway" v="yes"/>
    <tag k="oneway:bicycle" v="no"/>
    <tag k="sidewalk:both" v="separate"/>
    <tag k="smoothness" v="good"/>
    <tag k="surface" v="asphalt"/>
  </way>
  <way id="668235514" version="11" timestamp="2025-01-10T08:59:22Z" changeset="161196700" uid="7512839" user="Benoît C MdP">
    <nd ref="4958110951"/>
    <nd ref="470139"/>
    <tag k="bicycle:backward" v="use_sidepath"/>
    <tag k="busway:left" v="lane"/>
    <tag k="busway:left:oneway" v="-1"/>
    <tag k="cycleway:left" v="share_busway"/>
    <tag k="cycleway:left:oneway" v="-1"/>
    <tag k="cycleway:right" v="shared_lane"/>
    <tag k="cycleway:right:lane" v="pictogram"/>
    <tag k="highway" v="primary"/>
    <tag k="lanes" v="3"/>
    <tag k="lanes:backward" v="1"/>
    <tag k="lanes:forward" v="2"/>
    <tag k="lit" v="yes"/>
    <tag k="maxspeed" v="30"/>
    <tag k="name" v="Boulevard Henri IV"/>
    <tag k="name:etymology:wikidata" v="Q161866"/>
    <tag k="oneway" v="yes"/>
    <tag k="oneway:bicycle" v="no"/>
    <tag k="oneway:psv" v="no"/>
    <tag k="sidewalk:both" v="separate"/>
    <tag k="smoothness" v="good"/>
    <tag k="source:maxspeed" v="sign"/>
    <tag k="surface" v="asphalt"/>
    <tag k="zone:maxspeed" v="FR:30"/>
  </way>
  <way id="684100338" version="5" timestamp="2024-08-15T17:22:30Z" changeset="155293930" uid="11963177" user="JeroenvanderGun">
    <nd ref="25671388"/>
    <nd ref="4958110952"/>
    <tag k="enforcement:operator" v="Police nationale"/>
    <tag k="highway" v="primary"/>
    <tag k="lanes" v="2"/>
    <tag k="lit" v="yes"/>
    <tag k="maxspeed" v="30"/>
    <tag k="name" v="Quai des Célestins"/>
    <tag k="name:etymology:wikidata" v="Q657921"/>
    <tag k="oneway" v="yes"/>
    <tag k="operator" v="Ville de Paris"/>
    <tag k="operator:authority" v="Maire de Paris dans le respect des prescriptions prises par le préfet de police"/>
    <tag k="operator:authority:related_law" v="III de l'article L. 2512-14 du code général des collectivités territoriales"/>
    <tag k="smoothness" v="good"/>
    <tag k="source:operator:authority" v="https://www.legifrance.gouv.fr/loda/id/LEGIARTI000035244298/#LEGIARTI000035244298"/>
    <tag k="surface" v="asphalt"/>
    <tag k="zone:traffic" v="FR:urban"/>
  </way>
  <way id="684104425" version="10" timestamp="2024-08-15T17:22:30Z" changeset="155293930" uid="11963177" user="JeroenvanderGun">
    <nd ref="376059038"/>
    <nd ref="368175"/>
    <tag k="bicycle:backward" v="use_sidepath"/>
    <tag k="cycleway:right" v="no"/>
    <tag k="enforcement:operator" v="Police nationale"/>
    <tag k="foot" v="no"/>
    <tag k="highway" v="primary"/>
    <tag k="lanes" v="3"/>
    <tag k="lit" v="yes"/>
    <tag k="maxspeed" v="30"/>
    <tag k="name" v="Quai Henri IV"/>
    <tag k="oneway" v="yes"/>
    <tag k="operator" v="Ville de Paris"/>
    <tag k="operator:authority" v="Maire de Paris dans le respect des prescriptions prises par le préfet de police"/>
    <tag k="operator:authority:related_law" v="III de l'article L. 2512-14 du code général des collectivités territoriales"/>
    <tag k="sidewalk" v="no"/>
    <tag k="smoothness" v="good"/>
    <tag k="source" v="cadastre-dgi-fr source : Direction Générale des Impôts - Cadastre. Mise à jour : 2010"/>
    <tag k="source:operator:authority" v="https://www.legifrance.gouv.fr/loda/id/LEGIARTI000035244298/#LEGIARTI000035244298"/>
    <tag k="surface" v="asphalt"/>
    <tag k="zone:traffic" v="FR:urban"/>
  </way>
  <way id="684104426" version="16" timestamp="2025-01-10T08:59:22Z" changeset="161196700" uid="7512839" user="Benoît C MdP">
    <nd ref="218267572"/>
    <nd ref="11069303088"/>
    <nd ref="368175"/>
    <tag k="bicycle:backward" v="use_sidepath"/>
    <tag k="busway:left" v="lane"/>
    <tag k="busway:left:oneway" v="-1"/>
    <tag k="cycleway:left" v="share_busway"/>
    <tag k="cycleway:left:oneway" v="-1"/>
    <tag k="cycleway:right" v="track"/>
    <tag k="cycleway:right:lane" v="exclusive"/>
    <tag k="highway" v="primary"/>
    <tag k="lanes" v="3"/>
    <tag k="lanes:backward" v="1"/>
    <tag k="lanes:forward" v="2"/>
    <tag k="lit" v="yes"/>
    <tag k="maxspeed" v="30"/>
    <tag k="name" v="Boulevard Henri IV"/>
    <tag k="name:etymology:wikidata" v="Q161866"/>
    <tag k="oneway" v="yes"/>
    <tag k="oneway:bicycle" v="no"/>
    <tag k="oneway:psv" v="no"/>
    <tag k="sidewalk:both" v="separate"/>
    <tag k="smoothness" v="good"/>
    <tag k="source:maxspeed" v="sign"/>
    <tag k="surface" v="asphalt"/>
    <tag k="zone:maxspeed" v="FR:30"/>
  </way>
  <way id="697946271" version="16" timestamp="2025-01-22T10:33:11Z" changeset="161632163" uid="7512839" user="Benoît C MdP">
    <nd ref="6554662989"/>
    <nd ref="8907127497"/>
    <nd ref="6554663000"/>
    <nd ref="8907127500"/>
    <nd ref="6554663001"/>
    <nd ref="8907127498"/>
    <nd ref="8907127499"/>
    <nd ref="6554663002"/>
    <nd ref="8907143471"/>
    <nd ref="6405905300"/>
    <tag k="busway:left" v="lane"/>
    <tag k="cycleway:left" v="separate"/>
    <tag k="enforcement:operator" v="Police nationale"/>
    <tag k="foot" v="no"/>
    <tag k="highway" v="primary"/>
    <tag k="lanes" v="6"/>
    <tag k="lanes:backward" v="3"/>
    <tag k="lanes:forward" v="3"/>
    <tag k="lit" v="yes"/>
    <tag k="maxspeed" v="30"/>
    <tag k="name" v="Place de la Bastille"/>
    <tag k="name:da" v="Bastillepladsen"/>
    <tag k="name:etymology:wikidata" v="Q1865480"/>
    <tag k="name:fr" v="Place de la Bastille"/>
    <tag k="name:zh" v="巴士底广场"/>
    <tag k="operator" v="Ville de Paris"/>
    <tag k="operator:authority" v="Maire de Paris après avis du préfet de police"/>
    <tag k="operator:authority:related_law" v="IV de l'article L. 2512-14 du code général des collectivités territoriales"/>
    <tag k="operator:url" v="https://cdn.paris.fr/paris/2020/02/26/5bf469a311d0beb9911e92d113781550.ai"/>
    <tag k="sidewalk:both" v="separate"/>
    <tag k="smoothness" v="good"/>
    <tag k="surface" v="asphalt"/>
    <tag k="turn:lanes:backward" v="left|through|"/>
    <tag k="turn:lanes:forward" v="through|through|right"/>
  </way>
  <way id="697946272" version="14" timestamp="2025-05-05T20:25:22Z" changeset="165863758" uid="6593606" user="DUKE73">
    <nd ref="5688693959"/>
    <nd ref="332476879"/>
    <tag k="cycleway:left" v="separate"/>
    <tag k="cycleway:right" v="track"/>
    <tag k="enforcement:operator" v="Police nationale"/>
    <tag k="foot" v="no"/>
    <tag k="highway" v="primary"/>
    <tag k="lanes" v="4"/>
    <tag k="lanes:backward" v="2"/>
    <tag k="lanes:forward" v="2"/>
    <tag k="lit" v="yes"/>
    <tag k="maxspeed" v="30"/>
    <tag k="name" v="Place de la Bastille"/>
    <tag k="name:da" v="Bastillepladsen"/>
    <tag k="name:etymology:wikidata" v="Q1865480"/>
    <tag k="name:fr" v="Place de la Bastille"/>
    <tag k="name:zh" v="巴士底广场"/>
    <tag k="operator" v="Ville de Paris"/>
    <tag k="operator:authority" v="Maire de Paris après avis du préfet de police"/>
    <tag k="operator:authority:related_law" v="IV de l'article L. 2512-14 du code général des collectivités territoriales"/>
    <tag k="operator:url" v="https://cdn.paris.fr/paris/2020/02/26/5bf469a311d0beb9911e92d113781550.ai"/>
    <tag k="sidewalk:both" v="separate"/>
    <tag k="smoothness" v="excellent"/>
    <tag k="surface" v="paving_stones"/>
  </way>
  <way id="697946274" version="14" timestamp="2024-08-15T17:26:47Z" changeset="155294126" uid="11963177" user="JeroenvanderGun">
    <nd ref="6405905300"/>
    <nd ref="1499029745"/>
    <nd ref="6935814523"/>
    <nd ref="5688693959"/>
    <tag k="cycleway:left" v="separate"/>
    <tag k="cycleway:right" v="no"/>
    <tag k="enforcement:operator" v="Police nationale"/>
    <tag k="foot" v="no"/>
    <tag k="highway" v="primary"/>
    <tag k="lanes" v="4"/>
    <tag k="lanes:backward" v="2"/>
    <tag k="lanes:forward" v="2"/>
    <tag k="lit" v="yes"/>
    <tag k="maxspeed" v="30"/>
    <tag k="name" v="Place de la Bastille"/>
    <tag k="name:da" v="Bastillepladsen"/>
    <tag k="name:etymology:wikidata" v="Q1865480"/>
    <tag k="name:fr" v="Place de la Bastille"/>
    <tag k="name:zh" v="巴士底广场"/>
    <tag k="operator" v="Ville de Paris"/>
    <tag k="operator:authority" v="Maire de Paris après avis du préfet de police"/>
    <tag k="operator:authority:related_law" v="IV de l'article L. 2512-14 du code général des collectivités territoriales"/>
    <tag k="operator:url" v="https://cdn.paris.fr/paris/2020/02/26/5bf469a311d0beb9911e92d113781550.ai"/>
    <tag k="smoothness" v="excellent"/>
    <tag k="surface" v="paving_stones"/>
  </way>
  <way id="733971932" version="5" timestamp="2024-02-17T11:32:52Z" changeset="147566293" uid="6290466" user="benjamintchik">
    <nd ref="26401690"/>
    <nd ref="2284436553"/>
    <nd ref="2284436545"/>
    <nd ref="26401691"/>
    <tag k="cycleway" v="opposite"/>
    <tag k="highway" v="residential"/>
    <tag k="lit" v="yes"/>
    <tag k="maxspeed" v="30"/>
    <tag k="name" v="Rue Beautreillis"/>
    <tag k="name:etymology:wikidata" v="Q60160082"/>
    <tag k="oneway" v="yes"/>
    <tag k="oneway:bicycle" v="no"/>
    <tag k="sidewalk:both" v="separate"/>
    <tag k="surface" v="asphalt"/>
    <tag k="zone:maxspeed" v="FR:30"/>
  </way>
  <way id="963932918" version="10" timestamp="2025-05-05T20:25:22Z" changeset="165863758" uid="6593606" user="DUKE73">
    <nd ref="1498653786"/>
    <nd ref="9953006157"/>
    <nd ref="332476879"/>
    <tag k="bicycle:backward" v="use_sidepath"/>
    <tag k="cycleway:left" v="track"/>
    <tag k="cycleway:left:oneway" v="-1"/>
    <tag k="cycleway:right" v="no"/>
    <tag k="dual_carriageway" v="yes"/>
    <tag k="foot" v="no"/>
    <tag k="highway" v="primary"/>
    <tag k="lanes" v="2"/>
    <tag k="lit" v="yes"/>
    <tag k="maxspeed" v="30"/>
    <tag k="name" v="Boulevard Henri IV"/>
    <tag k="name:etymology:wikidata" v="Q936976"/>
    <tag k="oneway" v="yes"/>
    <tag k="smoothness" v="good"/>
    <tag k="surface" v="asphalt"/>
  </way>
  <way id="963932920" version="9" timestamp="2024-10-08T12:04:40Z" changeset="157623031" uid="8353937" user="Helge Kreutzmannn">
    <nd ref="1498653782"/>
    <nd ref="7272634161"/>
    <nd ref="568421754"/>
    <tag k="bicycle:backward" v="use_sidepath"/>
    <tag k="enforcement:operator" v="Police nationale"/>
    <tag k="highway" v="secondary"/>
    <tag k="lanes" v="2"/>
    <tag k="lit" v="no"/>
    <tag k="maxspeed" v="30"/>
    <tag k="name" v="Place de la Bastille"/>
    <tag k="name:etymology:wikidata" v="Q1865480"/>
    <tag k="oneway" v="yes"/>
    <tag k="operator" v="Ville de Paris"/>
    <tag k="operator:authority" v="Maire de Paris après avis du préfet de police"/>
    <tag k="operator:authority:related_law" v="IV de l'article L. 2512-14 du code général des collectivités territoriales"/>
    <tag k="operator:url" v="https://cdn.paris.fr/paris/2020/02/26/5bf469a311d0beb9911e92d113781550.ai"/>
    <tag k="smoothness" v="good"/>
    <tag k="surface" v="asphalt"/>
  </way>
  <way id="987008354" version="7" timestamp="2024-08-15T17:22:30Z" changeset="155293930" uid="11963177" user="JeroenvanderGun">
    <nd ref="5693696746"/>
    <nd ref="5059182789"/>
    <tag k="bicycle" v="no"/>
    <tag k="bridge" v="yes"/>
    <tag k="cycleway:left" v="no"/>
    <tag k="cycleway:right" v="separate"/>
    <tag k="enforcement:operator" v="Police nationale"/>
    <tag k="hazmat" v="no"/>
    <tag k="highway" v="primary"/>
    <tag k="lanes" v="2"/>
    <tag k="layer" v="1"/>
    <tag k="lit" v="yes"/>
    <tag k="maxheight" v="4"/>
    <tag k="maxspeed" v="30"/>
    <tag k="maxweight:signed" v="no"/>
    <tag k="name" v="Quai Henri IV"/>
    <tag k="name:etymology:wikidata" v="Q161866"/>
    <tag k="oneway" v="yes"/>
    <tag k="operator" v="Ville de Paris"/>
    <tag k="operator:authority" v="Maire de Paris dans le respect des prescriptions prises par le préfet de police"/>
    <tag k="operator:authority:related_law" v="III de l'article L. 2512-14 du code général des collectivités territoriales"/>
    <tag k="source" v="cadastre-dgi-fr source : Direction Générale des Impôts - Cadastre. Mise à jour : 2010"/>
    <tag k="source:operator:authority" v="https://www.legifrance.gouv.fr/loda/id/LEGIARTI000035244298/#LEGIARTI000035244298"/>
    <tag k="surface" v="asphalt"/>
    <tag k="zone:traffic" v="FR:urban"/>
  </way>
  <way id="987008355" version="5" timestamp="2024-08-15T17:22:30Z" changeset="155293930" uid="11963177" user="JeroenvanderGun">
    <nd ref="9123175881"/>
    <nd ref="5059182789"/>
    <tag k="bicycle" v="no"/>
    <tag k="bridge" v="yes"/>
    <tag k="enforcement:operator" v="Police nationale"/>
    <tag k="hazmat" v="no"/>
    <tag k="highway" v="secondary"/>
    <tag k="lanes" v="2"/>
    <tag k="layer" v="1"/>
    <tag k="lit" v="yes"/>
    <tag k="maxheight" v="4"/>
    <tag k="maxspeed" v="50"/>
    <tag k="maxweight:signed" v="no"/>
    <tag k="name" v="Voie Mazas"/>
    <tag k="oneway" v="yes"/>
    <tag k="operator" v="Ville de Paris"/>
    <tag k="operator:authority" v="Maire de Paris dans le respect des prescriptions prises par le préfet de police"/>
    <tag k="operator:authority:related_law" v="III de l'article L. 2512-14 du code général des collectivités territoriales"/>
    <tag k="source:operator:authority" v="https://www.legifrance.gouv.fr/loda/id/LEGIARTI000035244298/#LEGIARTI000035244298"/>
    <tag k="surface" v="asphalt"/>
    <tag k="zone:traffic" v="FR:urban"/>
  </way>
  <way id="987008356" version="7" timestamp="2024-11-03T22:07:26Z" changeset="158719380" uid="7550430" user="Britzz">
    <nd ref="4964850340"/>
    <nd ref="4964850341"/>
    <tag k="bicycle" v="no"/>
    <tag k="enforcement:operator" v="Police nationale"/>
    <tag k="hazmat" v="no"/>
    <tag k="highway" v="primary"/>
    <tag k="lanes" v="2"/>
    <tag k="lit" v="yes"/>
    <tag k="maxheight" v="4"/>
    <tag k="maxspeed" v="30"/>
    <tag k="name" v="Quai Henri IV"/>
    <tag k="name:etymology:wikidata" v="Q936976"/>
    <tag k="oneway" v="yes"/>
    <tag k="operator" v="Ville de Paris"/>
    <tag k="operator:authority" v="Maire de Paris dans le respect des prescriptions prises par le préfet de police"/>
    <tag k="operator:authority:related_law" v="III de l'article L. 2512-14 du code général des collectivités territoriales"/>
    <tag k="sidewalk" v="right"/>
    <tag k="source" v="cadastre-dgi-fr source : Direction Générale des Impôts - Cadastre. Mise à jour : 2010"/>
    <tag k="source:operator:authority" v="https://www.legifrance.gouv.fr/loda/id/LEGIARTI000035244298/#LEGIARTI000035244298"/>
    <tag k="surface" v="asphalt"/>
    <tag k="zone:traffic" v="FR:urban"/>
  </way>
  <way id="988731606" version="6" timestamp="2024-02-17T11:33:40Z" changeset="147566293" uid="6290466" user="benjamintchik">
    <nd ref="26401694"/>
    <nd ref="26401693"/>
    <tag k="cycleway:left" v="opposite"/>
    <tag k="cycleway:right" v="no"/>
    <tag k="highway" v="residential"/>
    <tag k="maxspeed" v="30"/>
    <tag k="name" v="Rue du Petit Musc"/>
    <tag k="name:etymology" v="unknown"/>
    <tag k="oneway" v="yes"/>
    <tag k="oneway:bicycle" v="no"/>
    <tag k="sidewalk" v="both"/>
    <tag k="surface" v="asphalt"/>
    <tag k="zone:maxspeed" v="FR:30"/>
  </way>
  <way id="1061393200" version="7" timestamp="2025-04-21T20:40:59Z" changeset="165257591" uid="11884206" user="Tom_Lbe">
    <nd ref="9751790109"/>
    <nd ref="9751790110"/>
    <nd ref="9751790115"/>
    <nd ref="9751790111"/>
    <nd ref="9751790112"/>
    <nd ref="9751790114"/>
    <nd ref="9751790109"/>
    <tag k="addr:city" v="Paris"/>
    <tag k="addr:housenumber" v="17"/>
    <tag k="addr:postcode" v="75004"/>
    <tag k="addr:street" v="Boulevard Morland"/>
    <tag k="architect" v="David Chipperfield"/>
    <tag k="brand" v="The People"/>
    <tag k="brand:wikidata" v="Q130213669"/>
    <tag k="building" v="hotel"/>
    <tag k="building:levels" v="6"/>
    <tag k="building:min_level" v="1"/>
    <tag k="contact:instagram" v="https://www.instagram.com/the_people_hostel"/>
    <tag k="guest_house" v="hostel"/>
    <tag k="internet_access" v="wlan"/>
    <tag k="name" v="The People Hostel"/>
    <tag k="phone" v="+33 1 81 22 40 88"/>
    <tag k="start_date" v="2022-05"/>
    <tag k="tourism" v="hostel"/>
    <tag k="website" v="https://www.thepeoplehostel.com/paris-marais/"/>
    <tag k="wheelchair" v="yes"/>
  </way>
  <way id="1061469492" version="2" timestamp="2024-10-10T21:45:06Z" changeset="157734310" uid="5670825" user="Christophe Raverdy">
    <nd ref="705553208"/>
    <nd ref="9752391890"/>
    <nd ref="9752391891"/>
    <nd ref="705553273"/>
    <nd ref="705553253"/>
    <nd ref="705553335"/>
    <nd ref="705553357"/>
    <nd ref="705553165"/>
    <nd ref="705553313"/>
    <nd ref="705553237"/>
    <nd ref="705553241"/>
    <nd ref="705553348"/>
    <nd ref="705553196"/>
    <nd ref="705553108"/>
    <nd ref="705553218"/>
    <nd ref="705553345"/>
    <nd ref="705553152"/>
    <nd ref="705553174"/>
    <nd ref="705553266"/>
    <nd ref="705553122"/>
    <nd ref="705553208"/>
    <tag k="building" v="apartments"/>
    <tag k="name" v="a"/>
    <tag k="source" v="cadastre-dgi-fr source : Direction Générale des Impôts - Cadastre. Mise à jour : 2010"/>
  </way>
  <way id="1164286880" version="5" timestamp="2025-01-10T08:59:22Z" changeset="161196700" uid="7512839" user="Benoît C MdP">
    <nd ref="470139"/>
    <nd ref="2366444204"/>
    <tag k="bicycle:backward" v="use_sidepath"/>
    <tag k="busway:left" v="lane"/>
    <tag k="busway:left:oneway" v="-1"/>
    <tag k="cycleway:left" v="share_busway"/>
    <tag k="cycleway:left:oneway" v="-1"/>
    <tag k="cycleway:right" v="lane"/>
    <tag k="highway" v="primary"/>
    <tag k="lanes" v="3"/>
    <tag k="lanes:backward" v="1"/>
    <tag k="lanes:forward" v="2"/>
    <tag k="lit" v="yes"/>
    <tag k="maxspeed" v="30"/>
    <tag k="name" v="Boulevard Henri IV"/>
    <tag k="name:etymology:wikidata" v="Q161866"/>
    <tag k="oneway" v="yes"/>
    <tag k="oneway:bicycle" v="no"/>
    <tag k="oneway:psv" v="no"/>
    <tag k="sidewalk:both" v="separate"/>
    <tag k="source:maxspeed" v="sign"/>
    <tag k="surface" v="asphalt"/>
    <tag k="zone:maxspeed" v="FR:30"/>
  </way>
  <way id="1211840274" version="5" timestamp="2025-01-10T08:59:22Z" changeset="161196700" uid="7512839" user="Benoît C MdP">
    <nd ref="6335319284"/>
    <nd ref="218267572"/>
    <tag k="alt_name" v="Pont Sully"/>
    <tag k="bicycle:backward" v="use_sidepath"/>
    <tag k="bridge" v="yes"/>
    <tag k="busway:left" v="lane"/>
    <tag k="busway:left:oneway" v="-1"/>
    <tag k="cycleway:left" v="share_busway"/>
    <tag k="cycleway:left:oneway" v="-1"/>
    <tag k="cycleway:right" v="track"/>
    <tag k="cycleway:right:lane" v="exclusive"/>
    <tag k="highway" v="primary"/>
    <tag k="lanes" v="3"/>
    <tag k="lanes:backward" v="1"/>
    <tag k="lanes:forward" v="2"/>
    <tag k="layer" v="1"/>
    <tag k="lit" v="yes"/>
    <tag k="maxspeed" v="30"/>
    <tag k="maxweight:signed" v="no"/>
    <tag k="name" v="Pont de Sully"/>
    <tag k="name:etymology:wikidata" v="Q379953"/>
    <tag k="oneway" v="yes"/>
    <tag k="oneway:bicycle" v="no"/>
    <tag k="oneway:psv" v="no"/>
    <tag k="parking:both" v="no"/>
    <tag k="sidewalk:both" v="separate"/>
    <tag k="smoothness" v="good"/>
    <tag k="source:maxspeed" v="BMO Arrêté n o 2018 P 12837"/>
    <tag k="surface" v="asphalt"/>
    <tag k="wikidata" v="Q1196688"/>
    <tag k="wikipedia" v="fr:Pont de Sully"/>
    <tag k="zone:maxspeed" v="FR:30"/>
  </way>
  <way id="1212698534" version="4" timestamp="2024-03-28T08:33:26Z" changeset="149255723" uid="2678738" user="fgouget">
    <nd ref="26588350"/>
    <nd ref="2284436515"/>
    <nd ref="6394328127"/>
    <nd ref="705483521"/>
    <nd ref="26588372"/>
    <tag k="alt_name" v="Rue de Crillon"/>
    <tag k="cycleway" v="opposite"/>
    <tag k="highway" v="residential"/>
    <tag k="lit" v="yes"/>
    <tag k="maxspeed" v="30"/>
    <tag k="name" v="Rue Crillon"/>
    <tag k="name:etymology:wikidata" v="Q2624700"/>
    <tag k="oneway" v="yes"/>
    <tag k="oneway:bicycle" v="no"/>
    <tag k="sidewalk:left" v="yes"/>
    <tag k="sidewalk:right" v="separate"/>
    <tag k="surface" v="asphalt"/>
  </way>
  <way id="1212698535" version="2" timestamp="2024-03-28T08:33:15Z" changeset="149255723" uid="2678738" user="fgouget">
    <nd ref="26588350"/>
    <nd ref="2284436512"/>
    <nd ref="6291071003"/>
    <nd ref="11069078899"/>
    <nd ref="26588366"/>
    <tag k="cycleway" v="opposite"/>
    <tag k="highway" v="residential"/>
    <tag k="lit" v="yes"/>
    <tag k="maxspeed" v="30"/>
    <tag k="name" v="Rue Mornay"/>
    <tag k="name:etymology:wikidata" v="Q944098"/>
    <tag k="oneway" v="yes"/>
    <tag k="sidewalk:both" v="separate"/>
    <tag k="smoothness" v="good"/>
    <tag k="source:maxspeed" v="FR:zone30"/>
    <tag k="surface" v="asphalt"/>
  </way>
  <way id="1225843641" version="8" timestamp="2024-07-30T08:28:42Z" changeset="154594220" uid="2678738" user="fgouget">
    <nd ref="11368027202"/>
    <nd ref="11368027201"/>
    <nd ref="11368027200"/>
    <tag k="cycleway:both" v="no"/>
    <tag k="highway" v="primary_link"/>
    <tag k="lane_markings" v="no"/>
    <tag k="maxspeed:type" v="FR:urban"/>
    <tag k="sidewalk:left" v="separate"/>
    <tag k="sidewalk:right" v="yes"/>
    <tag k="smoothness" v="excellent"/>
    <tag k="surface" v="asphalt"/>
  </way>
  <way id="1330498754" version="1" timestamp="2024-11-03T22:07:26Z" changeset="158719380" uid="7550430" user="Britzz">
    <nd ref="361031"/>
    <nd ref="25675609"/>
    <nd ref="6103768358"/>
    <nd ref="4603914571"/>
    <tag k="bicycle" v="no"/>
    <tag k="bicycle:backward" v="use_sidepath"/>
    <tag k="enforcement:operator" v="Police nationale"/>
    <tag k="hazmat" v="no"/>
    <tag k="highway" v="secondary"/>
    <tag k="lanes" v="2"/>
    <tag k="lit" v="yes"/>
    <tag k="maxheight" v="4"/>
    <tag k="maxspeed" v="50"/>
    <tag k="name" v="Voie Mazas"/>
    <tag k="name:etymology:wikidata" v="Q3158925"/>
    <tag k="oneway" v="yes"/>
    <tag k="operator" v="Ville de Paris"/>
    <tag k="operator:authority" v="Maire de Paris dans le respect des prescriptions prises par le préfet de police"/>
    <tag k="operator:authority:related_law" v="III de l'article L. 2512-14 du code général des collectivités territoriales"/>
    <tag k="sidewalk:left" v="separate"/>
    <tag k="sidewalk:right" v="no"/>
    <tag k="source:operator:authority" v="https://www.legifrance.gouv.fr/loda/id/LEGIARTI000035244298/#LEGIARTI000035244298"/>
    <tag k="surface" v="asphalt"/>
    <tag k="zone:traffic" v="FR:urban"/>
  </way>
  <way id="1330498755" version="1" timestamp="2024-11-03T22:07:26Z" changeset="158719380" uid="7550430" user="Britzz">
    <nd ref="4964850341"/>
    <nd ref="5693696746"/>
    <tag k="bicycle" v="no"/>
    <tag k="enforcement:operator" v="Police nationale"/>
    <tag k="hazmat" v="no"/>
    <tag k="highway" v="primary"/>
    <tag k="lanes" v="2"/>
    <tag k="lit" v="yes"/>
    <tag k="maxheight" v="4"/>
    <tag k="maxspeed" v="30"/>
    <tag k="name" v="Quai Henri IV"/>
    <tag k="name:etymology:wikidata" v="Q936976"/>
    <tag k="oneway" v="yes"/>
    <tag k="operator" v="Ville de Paris"/>
    <tag k="operator:authority" v="Maire de Paris dans le respect des prescriptions prises par le préfet de police"/>
    <tag k="operator:authority:related_law" v="III de l'article L. 2512-14 du code général des collectivités territoriales"/>
    <tag k="sidewalk" v="right"/>
    <tag k="source" v="cadastre-dgi-fr source : Direction Générale des Impôts - Cadastre. Mise à jour : 2010"/>
    <tag k="source:operator:authority" v="https://www.legifrance.gouv.fr/loda/id/LEGIARTI000035244298/#LEGIARTI000035244298"/>
    <tag k="surface" v="asphalt"/>
    <tag k="zone:traffic" v="FR:urban"/>
  </way>
  <way id="1383018087" version="1" timestamp="2025-05-02T16:17:42Z" changeset="165726785" uid="6593606" user="DUKE73">
    <nd ref="26401727"/>
    <nd ref="2284436543"/>
    <nd ref="26588862"/>
    <nd ref="26401864"/>
    <tag k="bicycle:backward" v="use_sidepath"/>
    <tag k="busway:left" v="lane"/>
    <tag k="busway:left:oneway" v="-1"/>
    <tag k="cycleway:left" v="share_busway"/>
    <tag k="cycleway:left:oneway" v="-1"/>
    <tag k="cycleway:right" v="lane"/>
    <tag k="highway" v="primary"/>
    <tag k="lanes" v="3"/>
    <tag k="lanes:backward" v="1"/>
    <tag k="lanes:forward" v="2"/>
    <tag k="lit" v="yes"/>
    <tag k="maxspeed" v="30"/>
    <tag k="name" v="Boulevard Henri IV"/>
    <tag k="name:etymology:wikidata" v="Q161866"/>
    <tag k="oneway" v="yes"/>
    <tag k="oneway:bicycle" v="no"/>
    <tag k="oneway:psv" v="no"/>
    <tag k="sidewalk:both" v="separate"/>
    <tag k="smoothness" v="good"/>
    <tag k="source:maxspeed" v="FR:urban"/>
    <tag k="surface" v="asphalt"/>
    <tag k="zone:maxspeed" v="FR:30"/>
  </way>
  <relation id="403146" version="6" timestamp="2023-08-13T23:14:55Z" changeset="139847544" uid="318821" user="Yod4z">
    <member type="way" ref="49734532" role="inner"/>
    <member type="way" ref="49734503" role="outer"/>
    <tag k="building" v="yes"/>
    <tag k="building:levels" v="2"/>
    <tag k="heritage" v="2"/>
    <tag k="heritage:operator" v="mhs"/>
    <tag k="mhs:inscription_date" v="1862"/>
    <tag k="name" v="Hôtel de Sully"/>
    <tag k="ref:mhs" v="PA00086278"/>
    <tag k="roof:levels" v="1"/>
    <tag k="source:heritage" v="data.gouv.fr:Ministère de la Culture - 04/2015"/>
    <tag k="tourism" v="museum"/>
    <tag k="type" v="multipolygon"/>
    <tag k="wikidata" v="Q1643144"/>
    <tag k="wikipedia" v="fr:Hôtel de Sully"/>
  </relation>
  <relation id="403147" version="8" timestamp="2023-08-13T23:14:55Z" changeset="139847544" uid="318821" user="Yod4z">
    <member type="way" ref="49734497" role="outer"/>
    <member type="way" ref="49734512" role="inner"/>
    <tag k="addr:city" v="Paris"/>
    <tag k="addr:housenumber" v="11 bis"/>
    <tag k="addr:postcode" v="75004"/>
    <tag k="addr:street" v="Rue de Birague"/>
    <tag k="building" v="apartments"/>
    <tag k="building:levels" v="3"/>
    <tag k="heritage" v="2"/>
    <tag k="heritage:operator" v="mhs"/>
    <tag k="layer" v="1"/>
    <tag k="mhs:inscription_date" v="1920-07-17"/>
    <tag k="name" v="Hôtel Coulanges"/>
    <tag k="ref:mhs" v="PA00086286"/>
    <tag k="roof:levels" v="1"/>
    <tag k="roof:shape" v="hipped"/>
    <tag k="smoking" v="outside"/>
    <tag k="source:heritage" v="data.gouv.fr:Ministère de la Culture - 04/2015"/>
    <tag k="type" v="multipolygon"/>
    <tag k="wikidata" v="Q3145465"/>
    <tag k="wikipedia" v="fr:Hôtel Coulanges"/>
  </relation>
  <relation id="571726" version="3" timestamp="2017-07-05T19:55:15Z" changeset="50067409" uid="57126" user="yxoc">
    <member type="way" ref="56077548" role="inner"/>
    <member type="way" ref="56077552" role="inner"/>
    <member type="way" ref="56077551" role="outer"/>
    <tag k="alt_name" v="Hôtel de Rohan-Guéménée"/>
    <tag k="building" v="yes"/>
    <tag k="heritage" v="2"/>
    <tag k="heritage:operator" v="mhs"/>
    <tag k="mhs:inscription_date" v="1954-10-26"/>
    <tag k="name" v="Hôtel Arnaud"/>
    <tag k="ref:mhs" v="PA00086272"/>
    <tag k="source:heritage" v="data.gouv.fr:Ministère de la Culture - 04/2015"/>
    <tag k="type" v="multipolygon"/>
    <tag k="wikidata" v="Q3145952"/>
    <tag k="wikipedia" v="fr:Hôtel de Rohan-Guémené"/>
  </relation>
  <relation id="571727" version="6" timestamp="2023-04-21T16:47:42Z" changeset="135202263" uid="7550430" user="Britzz">
    <member type="way" ref="56077558" role="inner"/>
    <member type="way" ref="49734506" role="outer"/>
    <tag k="building" v="apartments"/>
    <tag k="building:levels" v="3"/>
    <tag k="heritage" v="2"/>
    <tag k="heritage:operator" v="mhs"/>
    <tag k="layer" v="1"/>
    <tag k="mhs:inscription_date" v="1954-10-26"/>
    <tag k="name" v="Hôtel de Fourcy"/>
    <tag k="ref:mhs" v="PA00086289"/>
    <tag k="roof:levels" v="2"/>
    <tag k="source:heritage" v="data.gouv.fr:Ministère de la Culture - 04/2015"/>
    <tag k="type" v="multipolygon"/>
    <tag k="wikidata" v="Q3145840"/>
    <tag k="wikipedia" v="fr:Hôtel de Fourcy"/>
  </relation>
  <relation id="571849" version="4" timestamp="2023-04-02T12:12:57Z" changeset="134411385" uid="974272" user="baprischka">
    <member type="way" ref="56092429" role="inner"/>
    <member type="way" ref="56092497" role="outer"/>
    <tag k="addr:housenumber" v="1"/>
    <tag k="addr:postcode" v="75004"/>
    <tag k="addr:street" v="rue de la Bastille"/>
    <tag k="building" v="yes"/>
    <tag k="building:levels" v="6"/>
    <tag k="check_date" v="2023-04-02"/>
    <tag k="name" v="Hôtel Bastille Speria"/>
    <tag k="tourism" v="hotel"/>
    <tag k="type" v="multipolygon"/>
    <tag k="website" v="https://www.hotel-bastille-speria.com/"/>
  </relation>
  <relation id="574749" version="4" timestamp="2024-09-12T14:13:11Z" changeset="156530699" uid="195017" user="Julien39">
    <member type="way" ref="56199257" role="inner"/>
    <member type="way" ref="56199255" role="outer"/>
    <tag k="building" v="yes"/>
    <tag k="building:levels" v="3"/>
    <tag k="description" v="Hôtel Nicolaï et maison où mourut en 1875 le sculpteur Barye"/>
    <tag k="historic" v="manor"/>
    <tag k="name" v="Hôtel Nicolai"/>
    <tag k="roof:levels" v="1"/>
    <tag k="type" v="multipolygon"/>
  </relation>
  <relation id="19036128" version="2" timestamp="2025-04-25T12:18:18Z" changeset="165421641" uid="11884206" user="Tom_Lbe">
    <member type="way" ref="56222979" role="outer"/>
    <member type="way" ref="1381125084" role="outer"/>
    <member type="node" ref="12785804619" role="vehicle_gate"/>
    <member type="node" ref="705529755" role="entrance / exit"/>
    <member type="node" ref="9755479021" role="entrance / exit"/>
    <tag k="addr:housenumber" v="10"/>
    <tag k="addr:street" v="Rue Agrippa d'Aubigné"/>
    <tag k="building" v="hotel"/>
    <tag k="building:levels" v="10"/>
    <tag k="source" v="cadastre-dgi-fr source : Direction Générale des Impôts - Cadastre. Mise à jour : 2010"/>
    <tag k="type" v="multipolygon"/>
  </relation>

</osm>
