<?xml version="1.0" encoding="UTF-8"?>
<osm version="0.6" generator="Overpass API 0.7.62.5 1bd436f1">
<note>The data included in this document is from www.openstreetmap.org. The data is made available under ODbL.</note>
<meta osm_base="2025-05-17T22:20:12Z" areas="2024-12-31T00:49:33Z"/>

  <node id="367506" lat="48.8513977" lon="2.3431724" version="18" timestamp="2016-07-06T19:54:21Z" changeset="40528557" uid="1778799" user="SomeoneElse_Revert">
    <tag k="highway" v="traffic_signals"/>
  </node>
  <node id="24958023" lat="48.8527246" lon="2.3377361" version="9" timestamp="2013-02-03T21:57:14Z" changeset="14903186" uid="1198089" user="GeorgeKaplan"/>
  <node id="24958030" lat="48.8531684" lon="2.3358949" version="9" timestamp="2013-02-03T21:57:14Z" changeset="14903186" uid="1198089" user="GeorgeKaplan">
    <tag k="highway" v="traffic_signals"/>
  </node>
  <node id="24972376" lat="48.8518134" lon="2.3398684" version="6" timestamp="2022-10-22T20:42:42Z" changeset="127937477" uid="7550430" user="Britzz"/>
  <node id="24983568" lat="48.8524745" lon="2.3387535" version="7" timestamp="2012-09-13T17:09:47Z" changeset="13098383" uid="456113" user="eric_G">
    <tag k="highway" v="traffic_signals"/>
  </node>
  <node id="25095606" lat="48.8527586" lon="2.3438219" version="14" timestamp="2022-09-09T14:46:46Z" changeset="125984754" uid="7550430" user="Britzz">
    <tag k="highway" v="traffic_signals"/>
    <tag k="traffic_signals" v="signal"/>
  </node>
  <node id="25183693" lat="48.8552786" lon="2.3377567" version="6" timestamp="2019-01-02T15:57:00Z" changeset="65962717" uid="311391" user="patman37"/>
  <node id="324579210" lat="48.8503076" lon="2.3426437" version="13" timestamp="2019-01-09T13:19:37Z" changeset="66161837" uid="311391" user="patman37">
    <tag k="highway" v="traffic_signals"/>
  </node>
  <node id="664205951" lat="48.8519902" lon="2.3396836" version="2" timestamp="2019-01-07T14:51:54Z" changeset="66098843" uid="311391" user="patman37"/>
  <node id="777218474" lat="48.8574614" lon="2.3380930" version="4" timestamp="2024-10-29T13:47:53Z" changeset="158499259" uid="17310249" user="VLD275">
    <tag k="crossing" v="unmarked"/>
    <tag k="crossing:markings" v="no"/>
    <tag k="highway" v="crossing"/>
  </node>
  <node id="1756949013" lat="48.8571228" lon="2.3365131" version="4" timestamp="2020-08-05T17:54:01Z" changeset="88995097" uid="311391" user="patman37"/>
  <node id="2734089715" lat="48.8567498" lon="2.3410051" version="9" timestamp="2023-07-19T13:00:59Z" changeset="138716672" uid="125897" user="overflorian"/>
  <node id="11070910848" lat="48.8537679" lon="2.3443404" version="4" timestamp="2024-05-03T12:29:59Z" changeset="150835222" uid="7512839" user="Benoît C MdP">
    <tag k="highway" v="traffic_signals"/>
  </node>
  <way id="4039190" version="26" timestamp="2025-01-27T13:43:40Z" changeset="161819051" uid="7512839" user="Benoît C MdP">
    <nd ref="5690243693"/>
    <nd ref="5608762540"/>
    <nd ref="6291704573"/>
    <nd ref="6131080898"/>
    <nd ref="12536294954"/>
    <nd ref="243552531"/>
    <tag k="cycleway:both" v="no"/>
    <tag k="cycleway:left" v="lane"/>
    <tag k="cycleway:left:oneway" v="-1"/>
    <tag k="enforcement:operator" v="Police nationale"/>
    <tag k="highway" v="tertiary"/>
    <tag k="lanes" v="2"/>
    <tag k="lit" v="yes"/>
    <tag k="maxspeed" v="30"/>
    <tag k="name" v="Place Saint-Michel"/>
    <tag k="name:etymology:wikidata" v="Q1329076"/>
    <tag k="oneway" v="yes"/>
    <tag k="oneway:bicycle" v="no"/>
    <tag k="operator" v="Ville de Paris"/>
    <tag k="operator:authority" v="Maire de Paris dans le respect des prescriptions prises par le préfet de police"/>
    <tag k="operator:authority:related_law" v="III de l'article L. 2512-14 du code général des collectivités territoriales"/>
    <tag k="sidewalk" v="separate"/>
    <tag k="smoothness" v="intermediate"/>
    <tag k="source:maxspeed" v="FR:urban"/>
    <tag k="source:operator:authority" v="https://www.legifrance.gouv.fr/loda/id/LEGIARTI000035244298/#LEGIARTI000035244298"/>
    <tag k="surface" v="asphalt"/>
    <tag k="zone:traffic" v="FR:urban"/>
  </way>
  <way id="4039255" version="54" timestamp="2024-08-15T17:22:30Z" changeset="155293930" uid="11963177" user="JeroenvanderGun">
    <nd ref="470142"/>
    <nd ref="25188950"/>
    <tag k="bicycle:backward" v="use_sidepath"/>
    <tag k="busway:right" v="lane"/>
    <tag k="cycleway:both" v="separate"/>
    <tag k="enforcement:operator" v="Police nationale"/>
    <tag k="highway" v="primary"/>
    <tag k="lane_markings" v="no"/>
    <tag k="lit" v="yes"/>
    <tag k="maxspeed" v="30"/>
    <tag k="name" v="Quai de Conti"/>
    <tag k="name:ru" v="набережная Конти"/>
    <tag k="oneway" v="yes"/>
    <tag k="operator" v="Ville de Paris"/>
    <tag k="operator:authority" v="Maire de Paris dans le respect des prescriptions prises par le préfet de police"/>
    <tag k="operator:authority:related_law" v="III de l'article L. 2512-14 du code général des collectivités territoriales"/>
    <tag k="sidewalk:both" v="separate"/>
    <tag k="smoothness" v="good"/>
    <tag k="source:maxspeed" v="FR:urban"/>
    <tag k="source:operator:authority" v="https://www.legifrance.gouv.fr/loda/id/LEGIARTI000035244298/#LEGIARTI000035244298"/>
    <tag k="surface" v="asphalt"/>
    <tag k="zone:traffic" v="FR:urban"/>
  </way>
  <way id="4039666" version="54" timestamp="2024-08-15T17:22:30Z" changeset="155293930" uid="11963177" user="JeroenvanderGun">
    <nd ref="11070910848"/>
    <nd ref="11876395627"/>
    <nd ref="635779423"/>
    <tag k="bicycle:backward" v="use_sidepath"/>
    <tag k="cycleway:both" v="separate"/>
    <tag k="enforcement:operator" v="Police nationale"/>
    <tag k="highway" v="primary"/>
    <tag k="lane_markings" v="no"/>
    <tag k="lit" v="yes"/>
    <tag k="maxspeed" v="30"/>
    <tag k="name" v="Quai des Grands Augustins"/>
    <tag k="name:etymology:wikidata" v="Q3001716"/>
    <tag k="name:ru" v="набережная Гран Огюстен"/>
    <tag k="oneway" v="yes"/>
    <tag k="operator" v="Ville de Paris"/>
    <tag k="operator:authority" v="Maire de Paris dans le respect des prescriptions prises par le préfet de police"/>
    <tag k="operator:authority:related_law" v="III de l'article L. 2512-14 du code général des collectivités territoriales"/>
    <tag k="parking:both" v="no"/>
    <tag k="sidewalk:left" v="separate"/>
    <tag k="smoothness" v="intermediate"/>
    <tag k="source:maxspeed" v="FR:urban"/>
    <tag k="source:operator:authority" v="https://www.legifrance.gouv.fr/loda/id/LEGIARTI000035244298/#LEGIARTI000035244298"/>
    <tag k="surface" v="asphalt"/>
    <tag k="zone:traffic" v="FR:urban"/>
  </way>
  <way id="4216833" version="21" timestamp="2024-08-08T11:54:25Z" changeset="154975038" uid="15968482" user="PtitLouis_">
    <nd ref="24972376"/>
    <nd ref="2496113370"/>
    <nd ref="2496113363"/>
    <nd ref="24972375"/>
    <tag k="cycleway:left" v="shared_lane"/>
    <tag k="cycleway:left:lane" v="pictogram"/>
    <tag k="cycleway:left:oneway" v="-1"/>
    <tag k="cycleway:right" v="no"/>
    <tag k="highway" v="residential"/>
    <tag k="lit" v="yes"/>
    <tag k="maxspeed" v="30"/>
    <tag k="name" v="Rue Dupuytren"/>
    <tag k="oneway" v="yes"/>
    <tag k="oneway:bicycle" v="no"/>
    <tag k="sidewalk" v="separate"/>
    <tag k="smoothness" v="good"/>
    <tag k="surface" v="asphalt"/>
  </way>
  <way id="4216834" version="22" timestamp="2024-03-16T09:11:39Z" changeset="148722122" uid="6290466" user="benjamintchik">
    <nd ref="664205947"/>
    <nd ref="2496113374"/>
    <nd ref="24972376"/>
    <tag k="cycleway:left" v="lane"/>
    <tag k="cycleway:left:lane" v="exclusive"/>
    <tag k="cycleway:left:oneway" v="-1"/>
    <tag k="cycleway:right" v="no"/>
    <tag k="highway" v="residential"/>
    <tag k="lanes" v="2"/>
    <tag k="lit" v="yes"/>
    <tag k="maxspeed" v="30"/>
    <tag k="name" v="Boulevard Saint-Germain"/>
    <tag k="name:etymology:wikidata" v="Q255910"/>
    <tag k="oneway" v="yes"/>
    <tag k="oneway:bicycle" v="no"/>
    <tag k="sidewalk" v="both"/>
    <tag k="sidewalk:both:surface" v="asphalt"/>
    <tag k="smoothness" v="good"/>
    <tag k="surface" v="asphalt"/>
  </way>
  <way id="4227133" version="25" timestamp="2024-12-23T00:56:22Z" changeset="160519947" uid="8123953" user="Davileci">
    <nd ref="1756949013"/>
    <nd ref="2734064516"/>
    <nd ref="777293360"/>
    <nd ref="2904713506"/>
    <nd ref="25189800"/>
    <nd ref="6358767231"/>
    <nd ref="6358767232"/>
    <nd ref="8630143444"/>
    <nd ref="1489202440"/>
    <nd ref="25183693"/>
    <tag k="cycleway:left" v="opposite"/>
    <tag k="cycleway:right" v="no"/>
    <tag k="highway" v="residential"/>
    <tag k="maxspeed" v="30"/>
    <tag k="name" v="Rue Mazarine"/>
    <tag k="name:etymology:wikidata" v="Q166056"/>
    <tag k="oneway" v="yes"/>
    <tag k="oneway:bicycle" v="no"/>
    <tag k="sidewalk:both" v="separate"/>
    <tag k="smoothness" v="good"/>
    <tag k="source:maxspeed" v="BMO arrêté n°2014P0193"/>
    <tag k="surface" v="asphalt"/>
    <tag k="zone:maxspeed" v="FR:30"/>
  </way>
  <way id="4227137" version="39" timestamp="2024-03-16T07:41:21Z" changeset="148719283" uid="6290466" user="benjamintchik">
    <nd ref="25183693"/>
    <nd ref="2734064487"/>
    <nd ref="2734064489"/>
    <nd ref="25186633"/>
    <tag k="cycleway" v="opposite"/>
    <tag k="highway" v="residential"/>
    <tag k="lit" v="yes"/>
    <tag k="maxspeed" v="30"/>
    <tag k="name" v="Rue Jacques Callot"/>
    <tag k="name:etymology:wikidata" v="Q460124"/>
    <tag k="name:ru" v="улица Жак Кало"/>
    <tag k="oneway" v="yes"/>
    <tag k="oneway:bicycle" v="no"/>
    <tag k="sidewalk:both" v="separate"/>
    <tag k="smoothness" v="good"/>
    <tag k="source:maxspeed" v="BMO arrêté n°2014P0193"/>
    <tag k="surface" v="asphalt"/>
    <tag k="zone:maxspeed" v="FR:30"/>
  </way>
  <way id="4227151" version="54" timestamp="2024-12-23T00:56:22Z" changeset="160519947" uid="8123953" user="Davileci">
    <nd ref="25183601"/>
    <nd ref="2496113404"/>
    <nd ref="4909571106"/>
    <nd ref="2904713195"/>
    <nd ref="25183590"/>
    <nd ref="8500321734"/>
    <nd ref="2904713196"/>
    <nd ref="25184020"/>
    <nd ref="2904713197"/>
    <nd ref="25184021"/>
    <nd ref="25184031"/>
    <nd ref="2904713501"/>
    <nd ref="4910064270"/>
    <nd ref="9975523702"/>
    <nd ref="11022195850"/>
    <nd ref="6263794045"/>
    <nd ref="470142"/>
    <tag k="cycleway" v="opposite"/>
    <tag k="highway" v="tertiary"/>
    <tag k="lane_markings" v="no"/>
    <tag k="lit" v="yes"/>
    <tag k="maxspeed" v="30"/>
    <tag k="name" v="Rue Dauphine"/>
    <tag k="name:etymology:wikidata" v="Q737533"/>
    <tag k="name:ru" v="улица Дофин"/>
    <tag k="note:fr" v="La mise à double sens vélo s'est faite après la réalisation de la zone30"/>
    <tag k="oneway" v="yes"/>
    <tag k="oneway:bicycle" v="no"/>
    <tag k="sidewalk" v="separate"/>
    <tag k="source:maxspeed" v="BMO arrêté n°2014P0193"/>
    <tag k="surface" v="asphalt"/>
    <tag k="zone:maxspeed" v="FR:30"/>
  </way>
  <way id="4414195" version="21" timestamp="2024-06-13T11:05:23Z" changeset="152622257" uid="2678738" user="fgouget">
    <nd ref="24972376"/>
    <nd ref="2496113375"/>
    <nd ref="664205951"/>
    <tag k="bicycle" v="yes"/>
    <tag k="bus:lanes" v="designated|yes"/>
    <tag k="cycleway:left" v="no"/>
    <tag k="cycleway:right" v="share_busway"/>
    <tag k="highway" v="residential"/>
    <tag k="lanes" v="2"/>
    <tag k="lit" v="yes"/>
    <tag k="maxspeed" v="30"/>
    <tag k="name" v="Boulevard Saint-Germain"/>
    <tag k="name:etymology:wikidata" v="Q255910"/>
    <tag k="oneway" v="yes"/>
    <tag k="psv:lanes" v="designated|yes"/>
    <tag k="sidewalk" v="both"/>
    <tag k="sidewalk:both:surface" v="asphalt"/>
    <tag k="smoothness" v="excellent"/>
    <tag k="surface" v="asphalt"/>
  </way>
  <way id="19780769" version="18" timestamp="2024-06-13T11:01:12Z" changeset="152622257" uid="2678738" user="fgouget">
    <nd ref="25095600"/>
    <nd ref="8119051113"/>
    <nd ref="367508"/>
    <tag k="cycleway:both" v="no"/>
    <tag k="cycleway:left" v="lane"/>
    <tag k="cycleway:left:oneway" v="-1"/>
    <tag k="highway" v="tertiary"/>
    <tag k="lanes" v="2"/>
    <tag k="lit" v="yes"/>
    <tag k="maxspeed" v="30"/>
    <tag k="name" v="Place Saint-André des Arts"/>
    <tag k="name:etymology:wikidata" v="Q1230964"/>
    <tag k="oneway" v="yes"/>
    <tag k="oneway:bicycle" v="no"/>
    <tag k="sidewalk:right" v="separate"/>
    <tag k="surface" v="sett"/>
  </way>
  <way id="19780809" version="23" timestamp="2024-04-18T08:36:49Z" changeset="150162621" uid="1424448" user="nlehuby">
    <nd ref="25183601"/>
    <nd ref="2496113399"/>
    <nd ref="11022518681"/>
    <nd ref="4886258762"/>
    <nd ref="25183704"/>
    <nd ref="11022657195"/>
    <nd ref="24983568"/>
    <tag k="cycleway:both" v="no"/>
    <tag k="highway" v="tertiary"/>
    <tag k="lanes" v="2"/>
    <tag k="lit" v="yes"/>
    <tag k="maxspeed" v="30"/>
    <tag k="name" v="Rue de l'Ancienne Comédie"/>
    <tag k="name:etymology:wikidata" v="Q61460498"/>
    <tag k="sidewalk" v="separate"/>
    <tag k="source:maxspeed" v="BMO arrêté n°2014P0193"/>
    <tag k="surface" v="asphalt"/>
    <tag k="zone:maxspeed" v="FR:30"/>
  </way>
  <way id="20107406" version="25" timestamp="2024-03-16T09:11:39Z" changeset="148722122" uid="6290466" user="benjamintchik">
    <nd ref="367505"/>
    <nd ref="5904976360"/>
    <nd ref="11042480193"/>
    <nd ref="664205947"/>
    <tag k="cycleway:left" v="lane"/>
    <tag k="cycleway:left:lane" v="exclusive"/>
    <tag k="cycleway:left:oneway" v="-1"/>
    <tag k="cycleway:right" v="no"/>
    <tag k="highway" v="tertiary"/>
    <tag k="lanes" v="2"/>
    <tag k="lit" v="yes"/>
    <tag k="maxspeed" v="30"/>
    <tag k="name" v="Boulevard Saint-Germain"/>
    <tag k="name:etymology:wikidata" v="Q255910"/>
    <tag k="oneway" v="yes"/>
    <tag k="oneway:bicycle" v="no"/>
    <tag k="smoothness" v="good"/>
    <tag k="surface" v="asphalt"/>
  </way>
  <way id="20107557" version="27" timestamp="2024-03-16T09:11:39Z" changeset="148722122" uid="6290466" user="benjamintchik">
    <nd ref="664205951"/>
    <nd ref="11056885708"/>
    <nd ref="4716627317"/>
    <nd ref="8129809891"/>
    <nd ref="24983651"/>
    <tag k="bus:lanes" v="designated|yes"/>
    <tag k="busway:left" v="lane"/>
    <tag k="cycleway:left" v="share_busway"/>
    <tag k="cycleway:left:oneway" v="yes"/>
    <tag k="highway" v="tertiary"/>
    <tag k="lanes" v="2"/>
    <tag k="lit" v="yes"/>
    <tag k="maxspeed" v="30"/>
    <tag k="name" v="Boulevard Saint-Germain"/>
    <tag k="name:etymology:wikidata" v="Q255910"/>
    <tag k="oneway" v="yes"/>
    <tag k="oneway:bicycle" v="yes"/>
    <tag k="psv:lanes" v="designated|yes"/>
    <tag k="sidewalk:both" v="separate"/>
    <tag k="smoothness" v="excellent"/>
    <tag k="surface" v="asphalt"/>
  </way>
  <way id="20326518" version="66" timestamp="2023-09-19T00:14:20Z" changeset="141445413" uid="10731965" user="Hydrel">
    <nd ref="2734089715"/>
    <nd ref="11054817256"/>
    <nd ref="6263794046"/>
    <nd ref="6291704556"/>
    <nd ref="919598167"/>
    <tag k="alt_name:ru" v="Новый Мост"/>
    <tag k="bridge" v="yes"/>
    <tag k="busway:left" v="opposite_lane"/>
    <tag k="cycleway:left" v="lane"/>
    <tag k="cycleway:left:lane" v="exclusive"/>
    <tag k="cycleway:left:oneway" v="-1"/>
    <tag k="cycleway:right" v="lane"/>
    <tag k="cycleway:right:lane" v="exclusive"/>
    <tag k="highway" v="tertiary"/>
    <tag k="lanes" v="2"/>
    <tag k="lanes:backward" v="1"/>
    <tag k="lanes:forward" v="1"/>
    <tag k="layer" v="1"/>
    <tag k="lit" v="yes"/>
    <tag k="maxspeed" v="30"/>
    <tag k="maxweight:signed" v="no"/>
    <tag k="name" v="Pont Neuf"/>
    <tag k="name:de" v="Neue Brücke"/>
    <tag k="name:es" v="Puente Nuevo"/>
    <tag k="name:pt" v="Ponte Nova"/>
    <tag k="name:ru" v="Новый мост"/>
    <tag k="name:zh" v="新桥"/>
    <tag k="oneway" v="yes"/>
    <tag k="oneway:bicycle" v="no"/>
    <tag k="oneway:psv" v="no"/>
    <tag k="parking:both" v="no"/>
    <tag k="psv:lanes:backward" v="designated"/>
    <tag k="sidewalk" v="separate"/>
    <tag k="sidewalk:both:surface" v="paving_stones"/>
    <tag k="smoothness" v="intermediate"/>
    <tag k="surface" v="sett"/>
    <tag k="zone:maxspeed" v="FR:30"/>
  </way>
  <way id="20326523" version="45" timestamp="2024-03-28T10:37:30Z" changeset="149261012" uid="2678738" user="fgouget">
    <nd ref="919598167"/>
    <nd ref="2904713503"/>
    <nd ref="9544520303"/>
    <nd ref="470142"/>
    <tag k="bicycle:lanes:backward" v="designated"/>
    <tag k="busway:left" v="opposite_lane"/>
    <tag k="cycleway:left" v="lane"/>
    <tag k="cycleway:left:lane" v="exclusive"/>
    <tag k="cycleway:left:oneway" v="-1"/>
    <tag k="cycleway:right" v="lane"/>
    <tag k="cycleway:right:lane" v="exclusive"/>
    <tag k="highway" v="tertiary"/>
    <tag k="lanes" v="4"/>
    <tag k="lanes:backward" v="1"/>
    <tag k="lanes:forward" v="3"/>
    <tag k="lit" v="yes"/>
    <tag k="maxspeed" v="30"/>
    <tag k="maxspeed:type" v="sign"/>
    <tag k="name" v="Pont Neuf"/>
    <tag k="name:de" v="Neue Brücke"/>
    <tag k="name:en" v="New Bridge"/>
    <tag k="name:es" v="Puente Nuevo"/>
    <tag k="name:pt" v="Ponte Nova"/>
    <tag k="name:ru" v="Новый мост"/>
    <tag k="name:zh" v="新桥"/>
    <tag k="oneway" v="yes"/>
    <tag k="oneway:bicycle" v="no"/>
    <tag k="oneway:psv" v="no"/>
    <tag k="psv:lanes:backward" v="designated"/>
    <tag k="sidewalk:both" v="separate"/>
    <tag k="smoothness" v="good"/>
    <tag k="surface" v="sett"/>
  </way>
  <way id="22700860" version="42" timestamp="2024-03-16T07:39:05Z" changeset="148719283" uid="6290466" user="benjamintchik">
    <nd ref="25188950"/>
    <nd ref="2904713504"/>
    <nd ref="4920983803"/>
    <nd ref="11022195852"/>
    <nd ref="11022195844"/>
    <nd ref="25183693"/>
    <tag k="highway" v="residential"/>
    <tag k="lit" v="yes"/>
    <tag k="maxspeed" v="30"/>
    <tag k="name" v="Rue Guénégaud"/>
    <tag k="name:etymology:wikidata" v="Q3132411"/>
    <tag k="name:ru" v="улица Генего"/>
    <tag k="oneway" v="yes"/>
    <tag k="oneway:bicycle" v="yes"/>
    <tag k="sidewalk:both" v="separate"/>
    <tag k="smoothness" v="good"/>
    <tag k="source:maxspeed" v="BMO arrêté n°2014P0193"/>
    <tag k="surface" v="asphalt"/>
    <tag k="zone:maxspeed" v="FR:30"/>
  </way>
  <way id="22706102" version="27" timestamp="2024-04-05T22:51:55Z" changeset="149635332" uid="11291363" user="u4Dy46Xe">
    <nd ref="367508"/>
    <nd ref="25095598"/>
    <nd ref="6131085117"/>
    <nd ref="206091866"/>
    <nd ref="206091857"/>
    <tag k="cycleway:left" v="lane"/>
    <tag k="cycleway:left:lane" v="exclusive"/>
    <tag k="cycleway:left:oneway" v="-1"/>
    <tag k="cycleway:right" v="no"/>
    <tag k="highway" v="tertiary"/>
    <tag k="lanes" v="1"/>
    <tag k="lit" v="yes"/>
    <tag k="maxspeed" v="30"/>
    <tag k="name" v="Rue Danton"/>
    <tag k="name:etymology:wikidata" v="Q184623"/>
    <tag k="oneway" v="yes"/>
    <tag k="oneway:bicycle" v="no"/>
    <tag k="parking:both" v="lane"/>
    <tag k="parking:both:orientation" v="parallel"/>
    <tag k="parking:both:staggered" v="yes"/>
    <tag k="sidewalk:both" v="separate"/>
    <tag k="smoothness" v="good"/>
    <tag k="source:maxspeed" v="opendata.paris.fr"/>
    <tag k="surface" v="asphalt"/>
  </way>
  <way id="22706126" version="17" timestamp="2024-08-15T17:22:30Z" changeset="155293930" uid="11963177" user="JeroenvanderGun">
    <nd ref="243552531"/>
    <nd ref="11042494150"/>
    <nd ref="25095600"/>
    <tag k="bicycle" v="yes"/>
    <tag k="cycleway:both" v="no"/>
    <tag k="cycleway:left" v="lane"/>
    <tag k="cycleway:left:oneway" v="-1"/>
    <tag k="enforcement:operator" v="Police nationale"/>
    <tag k="highway" v="tertiary"/>
    <tag k="lanes" v="2"/>
    <tag k="lit" v="yes"/>
    <tag k="maxspeed" v="30"/>
    <tag k="name" v="Place Saint-Michel"/>
    <tag k="name:etymology:wikidata" v="Q1329076"/>
    <tag k="oneway" v="yes"/>
    <tag k="oneway:bicycle" v="no"/>
    <tag k="operator" v="Ville de Paris"/>
    <tag k="operator:authority" v="Maire de Paris dans le respect des prescriptions prises par le préfet de police"/>
    <tag k="operator:authority:related_law" v="III de l'article L. 2512-14 du code général des collectivités territoriales"/>
    <tag k="sidewalk:both" v="separate"/>
    <tag k="smoothness" v="good"/>
    <tag k="source:operator:authority" v="https://www.legifrance.gouv.fr/loda/id/LEGIARTI000035244298/#LEGIARTI000035244298"/>
    <tag k="surface" v="asphalt"/>
    <tag k="zone:traffic" v="FR:urban"/>
  </way>
  <way id="34856561" version="56" timestamp="2024-10-12T22:27:35Z" changeset="157814716" uid="19623620" user="Melrok">
    <nd ref="24958030"/>
    <nd ref="2878370342"/>
    <nd ref="2496113398"/>
    <nd ref="1756761496"/>
    <nd ref="2496113397"/>
    <nd ref="5005356200"/>
    <nd ref="24958023"/>
    <nd ref="2496113394"/>
    <nd ref="6291070987"/>
    <nd ref="2496113390"/>
    <nd ref="24983568"/>
    <tag k="cycleway:left" v="no"/>
    <tag k="cycleway:right" v="separate"/>
    <tag k="highway" v="primary"/>
    <tag k="lanes" v="3"/>
    <tag k="lit" v="yes"/>
    <tag k="maxspeed" v="30"/>
    <tag k="name" v="Boulevard Saint-Germain"/>
    <tag k="name:etymology:wikidata" v="Q255910"/>
    <tag k="name:ru" v="бульвар Сен-Жермен"/>
    <tag k="oneway" v="yes"/>
    <tag k="sidewalk" v="separate"/>
    <tag k="smoothness" v="good"/>
    <tag k="source" v="cadastre-dgi-fr source : Direction Générale des Impôts - Cadastre. Mise à jour : 2010"/>
    <tag k="surface" v="asphalt"/>
  </way>
  <way id="40432022" version="17" timestamp="2024-03-16T09:14:09Z" changeset="148722122" uid="6290466" user="benjamintchik">
    <nd ref="25183389"/>
    <nd ref="4185943597"/>
    <nd ref="367505"/>
    <tag k="cycleway" v="no"/>
    <tag k="highway" v="tertiary"/>
    <tag k="lane_markings" v="no"/>
    <tag k="lit" v="yes"/>
    <tag k="maxspeed" v="30"/>
    <tag k="maxspeed:type" v="sign"/>
    <tag k="name" v="Rue Danton"/>
    <tag k="name:etymology:wikidata" v="Q184623"/>
    <tag k="oneway" v="no"/>
    <tag k="parking:both" v="no"/>
    <tag k="smoothness" v="good"/>
    <tag k="source" v="cadastre-dgi-fr source : Direction Générale des Impôts - Cadastre. Mise à jour : 2008"/>
    <tag k="surface" v="asphalt"/>
  </way>
  <way id="40579763" version="14" timestamp="2025-03-24T21:59:49Z" changeset="164053356" uid="132826" user="Mickael S">
    <nd ref="492529787"/>
    <nd ref="11114586484"/>
    <nd ref="11114586481"/>
    <nd ref="707076290"/>
    <nd ref="492529793"/>
    <nd ref="492529796"/>
    <nd ref="492529801"/>
    <nd ref="492529803"/>
    <nd ref="7720101446"/>
    <nd ref="492529787"/>
    <tag k="addr:housenumber" v="7"/>
    <tag k="addr:street" v="Rue Hautefeuille"/>
    <tag k="amenity" v="cinema"/>
    <tag k="brand" v="MK2"/>
    <tag k="brand:website" v="https://www.mk2.com"/>
    <tag k="brand:wikidata" v="Q19814222"/>
    <tag k="brand:wikipedia" v="fr:MK2"/>
    <tag k="building" v="yes"/>
    <tag k="building:levels" v="5"/>
    <tag k="capacity" v="690"/>
    <tag k="contact:facebook" v="https://www.facebook.com/mk2odeonstmichel"/>
    <tag k="description" v="Art et Essai"/>
    <tag k="name" v="MK2 Odéon (côté Saint-Michel)"/>
    <tag k="old_name" v="MK2 Hautefeuille"/>
    <tag k="operator" v="MK2"/>
    <tag k="ref:FR:Allocine" v="C0092"/>
    <tag k="ref:FR:CNC" v="721"/>
    <tag k="roof:levels" v="1"/>
    <tag k="screen" v="4"/>
    <tag k="source" v="cadastre-dgi-fr source : Direction Générale des Impôts - Cadastre. Mise à jour : 2009"/>
    <tag k="website" v="https://www.mk2.com/salles/mk2-odeon-0"/>
    <tag k="wikidata" v="Q3273028"/>
  </way>
  <way id="55886350" version="8" timestamp="2019-06-12T15:16:23Z" changeset="71184712" uid="502891" user="chabe01">
    <nd ref="701743295"/>
    <nd ref="701748575"/>
    <nd ref="701743347"/>
    <nd ref="701743363"/>
    <nd ref="701743246"/>
    <nd ref="701743394"/>
    <nd ref="701743413"/>
    <nd ref="701743295"/>
    <tag k="alt_name_1" v="Ancien hôtel Séguier"/>
    <tag k="alt_name_2" v="Hôtel d'O"/>
    <tag k="building" v="yes"/>
    <tag k="building:levels" v="6"/>
    <tag k="description" v="Ancien hôtel Séguier, devenu hôtel d'O, puis hôtel de Luynes"/>
    <tag k="heritage" v="3"/>
    <tag k="heritage:operator" v="mhs"/>
    <tag k="mhs:inscription_date" v="2006-12-14"/>
    <tag k="name" v="Hôtel de Luynes"/>
    <tag k="ref:mhs" v="PA75060006"/>
    <tag k="source" v="cadastre-dgi-fr source : Direction Générale des Impôts - Cadastre;mise à jour : 2010"/>
    <tag k="source:heritage" v="Ministère de la Culture - 07/2018"/>
    <tag k="wikidata" v="Q22980206"/>
  </way>
  <way id="55893096" version="5" timestamp="2024-10-07T12:49:54Z" changeset="157580911" uid="8454198" user="Kennergf">
    <nd ref="701827825"/>
    <nd ref="701827675"/>
    <nd ref="701827800"/>
    <nd ref="701827721"/>
    <nd ref="701827640"/>
    <nd ref="701827669"/>
    <nd ref="701827749"/>
    <nd ref="701827770"/>
    <nd ref="701827645"/>
    <nd ref="701827726"/>
    <nd ref="701827825"/>
    <tag k="addr:housenumber" v="45"/>
    <tag k="addr:street" v="Quai des Grands Augustins"/>
    <tag k="building" v="apartments"/>
    <tag k="building:levels" v="5"/>
    <tag k="roof:levels" v="1"/>
    <tag k="source" v="cadastre-dgi-fr source : Direction Générale des Impôts - Cadastre ; mise à jour : 2010"/>
  </way>
  <way id="56420908" version="5" timestamp="2023-04-17T17:50:55Z" changeset="135026356" uid="11291363" user="u4Dy46Xe">
    <nd ref="707133855"/>
    <nd ref="707133839"/>
    <nd ref="707133842"/>
    <nd ref="707133860"/>
    <nd ref="707133835"/>
    <nd ref="707133871"/>
    <nd ref="707133855"/>
    <tag k="building" v="yes"/>
    <tag k="building:levels" v="5"/>
    <tag k="check_date" v="2023-04-16"/>
    <tag k="contact:website" v="http://www.leclubetudiant.com/"/>
    <tag k="name" v="O. S. E. Le Club Étudiant"/>
    <tag k="office" v="association"/>
    <tag k="source" v="cadastre-dgi-fr source : Direction Générale des Impôts - Cadastre. Mise à jour : 2010"/>
  </way>
  <way id="56645234" version="15" timestamp="2024-05-16T09:24:18Z" changeset="151397796" uid="16019190" user="VLD528">
    <nd ref="205272413"/>
    <nd ref="708684530"/>
    <nd ref="205272414"/>
    <nd ref="205272415"/>
    <nd ref="10121846477"/>
    <nd ref="708684516"/>
    <nd ref="205272416"/>
    <nd ref="205272417"/>
    <nd ref="10121846421"/>
    <nd ref="205272418"/>
    <nd ref="205272420"/>
    <nd ref="205272421"/>
    <nd ref="708454476"/>
    <nd ref="708454532"/>
    <nd ref="708454273"/>
    <nd ref="708454516"/>
    <nd ref="708454445"/>
    <nd ref="708454547"/>
    <nd ref="708684538"/>
    <nd ref="708454330"/>
    <nd ref="708454487"/>
    <nd ref="708454411"/>
    <nd ref="708454218"/>
    <nd ref="708454384"/>
    <nd ref="708454280"/>
    <nd ref="205272413"/>
    <tag k="addr:city" v="Paris"/>
    <tag k="addr:housenumber" v="15"/>
    <tag k="addr:postcode" v="75006"/>
    <tag k="addr:street" v="Rue de l'École de Médecine"/>
    <tag k="building" v="university"/>
    <tag k="building:levels" v="4"/>
    <tag k="name" v="Faculté de Médecine"/>
    <tag k="roof:levels" v="1"/>
    <tag k="website" v="https://u-paris.fr/medecine/"/>
    <tag k="wikidata" v="Q55849612"/>
    <tag k="wikipedia" v="fr:Université Paris-Cité"/>
  </way>
  <way id="56659889" version="6" timestamp="2023-06-11T06:37:58Z" changeset="137192478" uid="4346095" user="jerome92370">
    <nd ref="708598689"/>
    <nd ref="10968670407"/>
    <nd ref="708598665"/>
    <nd ref="708598705"/>
    <nd ref="708598740"/>
    <nd ref="708598678"/>
    <nd ref="708598671"/>
    <nd ref="708598761"/>
    <nd ref="708598675"/>
    <nd ref="708598689"/>
    <tag k="building" v="yes"/>
    <tag k="building:levels" v="8"/>
    <tag k="contact:website" v="http://www.saintpierre-hotel.com/"/>
    <tag k="name" v="Hôtel Saint-Pierre"/>
    <tag k="source" v="cadastre-dgi-fr source : Direction Générale des Impôts - Cadastre ; mise à jour : 2010"/>
    <tag k="tourism" v="hotel"/>
  </way>
  <way id="57041201" version="5" timestamp="2025-04-01T21:13:01Z" changeset="164394318" uid="7550430" user="Britzz">
    <nd ref="593898364"/>
    <nd ref="712185899"/>
    <nd ref="12720376736"/>
    <nd ref="712185834"/>
    <nd ref="712186070"/>
    <nd ref="712185994"/>
    <nd ref="712185923"/>
    <nd ref="712185861"/>
    <nd ref="712186096"/>
    <nd ref="712185891"/>
    <nd ref="712185819"/>
    <nd ref="712186061"/>
    <nd ref="712185984"/>
    <nd ref="712185917"/>
    <nd ref="712185853"/>
    <nd ref="712186086"/>
    <nd ref="712186020"/>
    <nd ref="593898358"/>
    <nd ref="593898360"/>
    <nd ref="593898361"/>
    <nd ref="712185996"/>
    <nd ref="712186050"/>
    <nd ref="712185970"/>
    <nd ref="712185908"/>
    <nd ref="593898362"/>
    <nd ref="593898364"/>
    <tag k="building" v="hotel"/>
    <tag k="building:levels" v="9"/>
    <tag k="contact:email" v="hotel@damedesarts.com"/>
    <tag k="name" v="Dame des Arts"/>
    <tag k="phone" v="+33 1 81 69 00 60"/>
    <tag k="source" v="cadastre-dgi-fr source : Direction Générale des Impôts - Cadastre ; mise à jour : 2010"/>
    <tag k="tourism" v="hotel"/>
    <tag k="website" v="https://www.damedesarts.com"/>
  </way>
  <way id="62231557" version="6" timestamp="2019-10-11T08:55:08Z" changeset="75547145" uid="290680" user="wheelmap_visitor">
    <nd ref="776938467"/>
    <nd ref="776938229"/>
    <nd ref="776937989"/>
    <nd ref="776938178"/>
    <nd ref="776938654"/>
    <nd ref="776938412"/>
    <nd ref="776938238"/>
    <nd ref="776938092"/>
    <nd ref="776938308"/>
    <nd ref="806114368"/>
    <nd ref="806114430"/>
    <nd ref="776938391"/>
    <nd ref="776938637"/>
    <nd ref="776938220"/>
    <nd ref="776938546"/>
    <nd ref="776938112"/>
    <nd ref="776938252"/>
    <nd ref="776938038"/>
    <nd ref="776938607"/>
    <nd ref="776938201"/>
    <nd ref="776938500"/>
    <nd ref="776938467"/>
    <tag k="addr:city" v="Paris"/>
    <tag k="addr:housenumber" v="5"/>
    <tag k="addr:postcode" v="75006"/>
    <tag k="addr:street" v="Rue André Mazet"/>
    <tag k="amenity" v="restaurant"/>
    <tag k="building" v="apartments"/>
    <tag k="name" v="Restaurant Universitaire Mazet"/>
    <tag k="opening_hours" v="Mo-Fr 11:30-14:00"/>
    <tag k="outdoor_seating" v="yes"/>
    <tag k="source" v="cadastre-dgi-fr source : Direction Générale des Impôts - Cadastre. Mise à jour : 2010"/>
    <tag k="takeaway" v="no"/>
    <tag k="wheelchair" v="limited"/>
  </way>
  <way id="62234122" version="5" timestamp="2019-07-22T07:57:07Z" changeset="72502621" uid="2517134" user="Beeers">
    <nd ref="777089586"/>
    <nd ref="777089486"/>
    <nd ref="806100072"/>
    <nd ref="777090005"/>
    <nd ref="777089726"/>
    <nd ref="777089878"/>
    <nd ref="777089499"/>
    <nd ref="806100239"/>
    <nd ref="777090197"/>
    <nd ref="777089956"/>
    <nd ref="777090054"/>
    <nd ref="777089586"/>
    <tag k="addr:city" v="Paris"/>
    <tag k="addr:housenumber" v="12"/>
    <tag k="addr:postcode" v="75006"/>
    <tag k="addr:street" v="Rue Dauphine"/>
    <tag k="amenity" v="bar"/>
    <tag k="brewery" v="yes"/>
    <tag k="building" v="yes"/>
    <tag k="name" v="Ni 1 Ni 2"/>
    <tag k="outdoor_seating" v="no"/>
    <tag k="source" v="cadastre-dgi-fr source : Direction Générale des Impôts - Cadastre. Mise à jour : 2010"/>
  </way>
  <way id="62234518" version="5" timestamp="2019-10-11T08:55:58Z" changeset="75547145" uid="290680" user="wheelmap_visitor">
    <nd ref="777108431"/>
    <nd ref="777109459"/>
    <nd ref="777107803"/>
    <nd ref="806099991"/>
    <nd ref="777108010"/>
    <nd ref="777108769"/>
    <nd ref="777108431"/>
    <tag k="amenity" v="restaurant"/>
    <tag k="building" v="yes"/>
    <tag k="building:levels" v="6"/>
    <tag k="cuisine" v="pizza"/>
    <tag k="name" v="Pizza Marinara"/>
    <tag k="source" v="survey"/>
    <tag k="wheelchair" v="no"/>
  </way>
  <way id="62235594" version="40" timestamp="2024-03-16T07:40:36Z" changeset="148719283" uid="6290466" user="benjamintchik">
    <nd ref="1756949013"/>
    <nd ref="1944234858"/>
    <nd ref="1944234859"/>
    <nd ref="25189812"/>
    <nd ref="1944234860"/>
    <nd ref="777294396"/>
    <nd ref="1944234861"/>
    <nd ref="25189818"/>
    <nd ref="2734064517"/>
    <nd ref="227228433"/>
    <tag k="cycleway:both" v="no"/>
    <tag k="highway" v="residential"/>
    <tag k="lit" v="yes"/>
    <tag k="maxspeed" v="30"/>
    <tag k="name" v="Rue de Seine"/>
    <tag k="name:etymology:wikidata" v="Q1471"/>
    <tag k="name:ru" v="улица Сена"/>
    <tag k="sidewalk:both" v="separate"/>
    <tag k="smoothness" v="good"/>
    <tag k="source:maxspeed" v="BMO arrêté n°2014P0193"/>
    <tag k="surface" v="asphalt"/>
    <tag k="zone:maxspeed" v="FR:30"/>
  </way>
  <way id="62250835" version="8" timestamp="2023-12-19T14:08:11Z" changeset="145293583" uid="290680" user="wheelmap_visitor">
    <nd ref="777400748"/>
    <nd ref="777400455"/>
    <nd ref="777400631"/>
    <nd ref="777400732"/>
    <nd ref="777400442"/>
    <nd ref="777400371"/>
    <nd ref="806100123"/>
    <nd ref="11266614516"/>
    <nd ref="777400649"/>
    <nd ref="777400748"/>
    <tag k="addr:city" v="Paris"/>
    <tag k="addr:housenumber" v="60"/>
    <tag k="addr:postcode" v="75006"/>
    <tag k="addr:street" v="Rue Mazarine"/>
    <tag k="amenity" v="university"/>
    <tag k="building" v="yes"/>
    <tag k="building:levels" v="6"/>
    <tag k="name" v="Université PSL"/>
    <tag k="roof:levels" v="1"/>
    <tag k="source" v="cadastre-dgi-fr source : Direction Générale des Impôts - Cadastre. Mise à jour : 2010"/>
    <tag k="wheelchair" v="yes"/>
    <tag k="wikidata" v="Q1163431"/>
  </way>
  <way id="62250888" version="11" timestamp="2019-03-20T12:17:51Z" changeset="68333295" uid="4354893" user="William Desportes">
    <nd ref="777400608"/>
    <nd ref="777400421"/>
    <nd ref="777400595"/>
    <nd ref="777400334"/>
    <nd ref="777400537"/>
    <nd ref="777400722"/>
    <nd ref="777400445"/>
    <nd ref="806100671"/>
    <nd ref="777400736"/>
    <nd ref="777400549"/>
    <nd ref="777400608"/>
    <tag k="addr:city" v="Paris"/>
    <tag k="addr:housenumber" v="1"/>
    <tag k="addr:postcode" v="75006"/>
    <tag k="addr:street" v="Rue Jacques Callot"/>
    <tag k="amenity" v="university"/>
    <tag k="building" v="school"/>
    <tag k="building:levels" v="6"/>
    <tag k="heritage" v="3"/>
    <tag k="heritage:operator" v="mhs"/>
    <tag k="mhs:inscription_date" v="1996-04-01"/>
    <tag k="name" v="École nationale supérieure d'architecture Paris-Malaquais - Bâtiment Callot"/>
    <tag k="ref:mhs" v="PA75060001"/>
    <tag k="source:heritage" v="Ministère de la Culture - 07/2018"/>
    <tag k="website" v="https://paris-malaquais.archi.fr/"/>
  </way>
  <way id="66320306" version="35" timestamp="2024-08-15T17:22:30Z" changeset="155293930" uid="11963177" user="JeroenvanderGun">
    <nd ref="367506"/>
    <nd ref="9599363055"/>
    <nd ref="3335200988"/>
    <nd ref="25095604"/>
    <nd ref="2887958205"/>
    <nd ref="2418577618"/>
    <nd ref="25095606"/>
    <tag k="busway:left" v="opposite_lane"/>
    <tag k="busway:right" v="lane"/>
    <tag k="cycleway:left" v="share_busway"/>
    <tag k="cycleway:left:oneway" v="-1"/>
    <tag k="cycleway:right" v="share_busway"/>
    <tag k="enforcement:operator" v="Police nationale"/>
    <tag k="highway" v="primary"/>
    <tag k="lanes" v="2"/>
    <tag k="lit" v="yes"/>
    <tag k="maxspeed" v="30"/>
    <tag k="name" v="Boulevard Saint-Michel"/>
    <tag k="name:etymology:wikidata" v="Q1329076"/>
    <tag k="oneway" v="yes"/>
    <tag k="oneway:bicycle" v="no"/>
    <tag k="oneway:psv" v="no"/>
    <tag k="operator" v="Ville de Paris"/>
    <tag k="operator:authority" v="Maire de Paris dans le respect des prescriptions prises par le préfet de police"/>
    <tag k="operator:authority:related_law" v="III de l'article L. 2512-14 du code général des collectivités territoriales"/>
    <tag k="parking:lane:both" v="no"/>
    <tag k="sidewalk" v="separate"/>
    <tag k="sidewalk:both:surface" v="asphalt"/>
    <tag k="smoothness" v="excellent"/>
    <tag k="source" v="cadastre-dgi-fr source : Direction Générale des Impôts - Cadastre. Mise à jour : 2010"/>
    <tag k="source:operator:authority" v="https://www.legifrance.gouv.fr/loda/id/LEGIARTI000035244298/#LEGIARTI000035244298"/>
    <tag k="surface" v="asphalt"/>
    <tag k="zone:traffic" v="FR:urban"/>
  </way>
  <way id="72240224" version="13" timestamp="2024-09-24T07:28:31Z" changeset="157025293" uid="7512839" user="Benoît C MdP">
    <nd ref="24958023"/>
    <nd ref="5904976366"/>
    <nd ref="2496113393"/>
    <nd ref="24983630"/>
    <nd ref="2496113372"/>
    <nd ref="24983566"/>
    <tag k="highway" v="residential"/>
    <tag k="maxspeed" v="30"/>
    <tag k="name" v="Rue Grégoire de Tours"/>
    <tag k="name:etymology:wikidata" v="Q67841"/>
    <tag k="oneway" v="yes"/>
    <tag k="oneway:bicycle" v="no"/>
    <tag k="sidewalk" v="separate"/>
    <tag k="smoothness" v="good"/>
    <tag k="source:maxspeed" v="BMO arrêté n°2014-00011"/>
    <tag k="surface" v="asphalt"/>
    <tag k="zone:maxspeed" v="FR:30"/>
  </way>
  <way id="84789823" version="44" timestamp="2024-04-18T08:36:49Z" changeset="150162621" uid="1424448" user="nlehuby">
    <nd ref="25183693"/>
    <nd ref="2496113412"/>
    <nd ref="11022195845"/>
    <nd ref="11022195846"/>
    <nd ref="7527295270"/>
    <nd ref="4920983802"/>
    <nd ref="6358770565"/>
    <nd ref="6943145663"/>
    <nd ref="2496113406"/>
    <nd ref="25183601"/>
    <tag k="cycleway:left" v="opposite"/>
    <tag k="cycleway:right" v="no"/>
    <tag k="highway" v="residential"/>
    <tag k="lit" v="yes"/>
    <tag k="maxspeed" v="30"/>
    <tag k="name" v="Rue Mazarine"/>
    <tag k="name:etymology:wikidata" v="Q166056"/>
    <tag k="name:ru" v="улица Мазарен"/>
    <tag k="oneway" v="yes"/>
    <tag k="oneway:bicycle" v="no"/>
    <tag k="sidewalk" v="separate"/>
    <tag k="smoothness" v="good"/>
    <tag k="source:maxspeed" v="BMO arrêté n°2014P0193"/>
    <tag k="surface" v="asphalt"/>
    <tag k="zone:maxspeed" v="FR:30"/>
  </way>
  <way id="84789825" version="53" timestamp="2025-01-21T16:26:52Z" changeset="161606972" uid="7512839" user="Benoît C MdP">
    <nd ref="25188950"/>
    <nd ref="2904713505"/>
    <nd ref="777218446"/>
    <nd ref="777218474"/>
    <tag k="bicycle:backward" v="use_sidepath"/>
    <tag k="cycleway:both" v="separate"/>
    <tag k="enforcement:operator" v="Police nationale"/>
    <tag k="highway" v="primary"/>
    <tag k="lane_markings" v="no"/>
    <tag k="lit" v="yes"/>
    <tag k="maxspeed" v="30"/>
    <tag k="name" v="Quai de Conti"/>
    <tag k="name:ru" v="набережная Конти"/>
    <tag k="oneway" v="yes"/>
    <tag k="operator" v="Ville de Paris"/>
    <tag k="operator:authority" v="Maire de Paris dans le respect des prescriptions prises par le préfet de police"/>
    <tag k="operator:authority:related_law" v="III de l'article L. 2512-14 du code général des collectivités territoriales"/>
    <tag k="sidewalk:left" v="separate"/>
    <tag k="sidewalk:right" v="yes"/>
    <tag k="smoothness" v="good"/>
    <tag k="source:maxspeed" v="FR:urban"/>
    <tag k="source:operator:authority" v="https://www.legifrance.gouv.fr/loda/id/LEGIARTI000035244298/#LEGIARTI000035244298"/>
    <tag k="surface" v="asphalt"/>
    <tag k="zone:traffic" v="FR:urban"/>
  </way>
  <way id="102440303" version="23" timestamp="2024-08-15T17:22:30Z" changeset="155293930" uid="11963177" user="JeroenvanderGun">
    <nd ref="324579210"/>
    <nd ref="4185965146"/>
    <nd ref="470131"/>
    <tag k="busway:left" v="opposite_lane"/>
    <tag k="busway:right" v="lane"/>
    <tag k="cycleway:left" v="share_busway"/>
    <tag k="cycleway:left:oneway" v="-1"/>
    <tag k="cycleway:right" v="share_busway"/>
    <tag k="enforcement:operator" v="Police nationale"/>
    <tag k="highway" v="primary"/>
    <tag k="lanes" v="2"/>
    <tag k="lit" v="yes"/>
    <tag k="maxspeed" v="30"/>
    <tag k="name" v="Boulevard Saint-Michel"/>
    <tag k="name:etymology:wikidata" v="Q1329076"/>
    <tag k="oneway" v="yes"/>
    <tag k="oneway:bicycle" v="no"/>
    <tag k="oneway:psv" v="no"/>
    <tag k="operator" v="Ville de Paris"/>
    <tag k="operator:authority" v="Maire de Paris dans le respect des prescriptions prises par le préfet de police"/>
    <tag k="operator:authority:related_law" v="III de l'article L. 2512-14 du code général des collectivités territoriales"/>
    <tag k="sidewalk" v="separate"/>
    <tag k="smoothness" v="good"/>
    <tag k="source" v="cadastre-dgi-fr source : Direction Générale des Impôts - Cadastre. Mise à jour : 2010"/>
    <tag k="source:operator:authority" v="https://www.legifrance.gouv.fr/loda/id/LEGIARTI000035244298/#LEGIARTI000035244298"/>
    <tag k="surface" v="asphalt"/>
    <tag k="zone:traffic" v="FR:urban"/>
  </way>
  <way id="204056329" version="57" timestamp="2024-03-28T10:35:56Z" changeset="149261012" uid="2678738" user="fgouget">
    <nd ref="24983568"/>
    <nd ref="2496113389"/>
    <nd ref="243545956"/>
    <nd ref="6291704562"/>
    <nd ref="2496113387"/>
    <nd ref="11042480192"/>
    <nd ref="367505"/>
    <nd ref="24972424"/>
    <nd ref="11042473123"/>
    <nd ref="24972423"/>
    <nd ref="6291704535"/>
    <nd ref="3335200933"/>
    <nd ref="4964831512"/>
    <tag k="cycleway:left" v="no"/>
    <tag k="cycleway:right" v="separate"/>
    <tag k="highway" v="primary"/>
    <tag k="lanes" v="3"/>
    <tag k="lit" v="yes"/>
    <tag k="maxspeed" v="30"/>
    <tag k="name" v="Boulevard Saint-Germain"/>
    <tag k="name:etymology:wikidata" v="Q255910"/>
    <tag k="name:ru" v="бульвар Сен-Жермен"/>
    <tag k="oneway" v="yes"/>
    <tag k="parking:left" v="lane"/>
    <tag k="parking:left:orientation" v="parallel"/>
    <tag k="parking:left:staggered" v="yes"/>
    <tag k="parking:right" v="no"/>
    <tag k="sidewalk:both" v="separate"/>
    <tag k="sidewalk:left:surface" v="asphalt"/>
    <tag k="smoothness" v="excellent"/>
    <tag k="source" v="bing;survey"/>
    <tag k="surface" v="asphalt"/>
  </way>
  <way id="208079553" version="51" timestamp="2024-10-27T19:49:43Z" changeset="158428384" uid="53964" user="_Mathieu_">
    <nd ref="6190019965"/>
    <nd ref="2876214410"/>
    <nd ref="6291704555"/>
    <nd ref="9975523700"/>
    <nd ref="2904713502"/>
    <nd ref="470142"/>
    <tag k="bicycle:backward" v="use_sidepath"/>
    <tag k="busway:right" v="lane"/>
    <tag k="cycleway:left" v="no"/>
    <tag k="cycleway:right" v="separate"/>
    <tag k="enforcement:operator" v="Police nationale"/>
    <tag k="highway" v="primary"/>
    <tag k="lanes" v="3"/>
    <tag k="lit" v="yes"/>
    <tag k="maxspeed" v="30"/>
    <tag k="name" v="Quai des Grands Augustins"/>
    <tag k="name:etymology:wikidata" v="Q3001716"/>
    <tag k="name:ru" v="набережная Гран Огюстен"/>
    <tag k="oneway" v="yes"/>
    <tag k="operator" v="Ville de Paris"/>
    <tag k="operator:authority" v="Maire de Paris dans le respect des prescriptions prises par le préfet de police"/>
    <tag k="operator:authority:related_law" v="III de l'article L. 2512-14 du code général des collectivités territoriales"/>
    <tag k="sidewalk:both" v="separate"/>
    <tag k="smoothness" v="excellent"/>
    <tag k="source:operator:authority" v="https://www.legifrance.gouv.fr/loda/id/LEGIARTI000035244298/#LEGIARTI000035244298"/>
    <tag k="surface" v="asphalt"/>
    <tag k="zone:traffic" v="FR:urban"/>
  </way>
  <way id="233604300" version="12" timestamp="2022-03-18T04:20:07Z" changeset="118617382" uid="10731965" user="Hydrel">
    <nd ref="2419650498"/>
    <nd ref="2419650509"/>
    <nd ref="2419650502"/>
    <nd ref="5848172165"/>
    <nd ref="2419650500"/>
    <nd ref="5848172166"/>
    <nd ref="5848172167"/>
    <nd ref="2419650493"/>
    <nd ref="2419650501"/>
    <nd ref="2419650495"/>
    <nd ref="2419650499"/>
    <nd ref="2419650506"/>
    <nd ref="2419650508"/>
    <nd ref="2419650497"/>
    <nd ref="2419650505"/>
    <nd ref="2419650507"/>
    <nd ref="2419650498"/>
    <tag k="addr:city" v="Paris"/>
    <tag k="addr:country" v="FR"/>
    <tag k="addr:housenumber" v="11"/>
    <tag k="addr:postcode" v="75006"/>
    <tag k="addr:street" v="Quai de Conti"/>
    <tag k="alt_name" v="Commandant Beinier"/>
    <tag k="amenity" v="fire_station"/>
    <tag k="building" v="boat"/>
    <tag k="emergency" v="marine_rescue"/>
    <tag k="name" v="Centre de Secours La Monnaie"/>
    <tag k="operator" v="BSPP"/>
    <tag k="operator:en" v="Paris Fire Brigade"/>
    <tag k="operator:wikidata" v="Q583422"/>
    <tag k="operator:wikipedia" v="fr:Brigade de sapeurs-pompiers de Paris"/>
    <tag k="seamark:rescue_station:category" v="lifeboat"/>
    <tag k="seamark:type" v="rescue_station"/>
    <tag k="wikidata" v="Q2945495"/>
    <tag k="wikipedia" v="fr:Centre de secours La Monnaie"/>
  </way>
  <way id="242054967" version="5" timestamp="2023-05-25T15:50:06Z" changeset="136549894" uid="10246445" user="871694e9-20e8-4037-b035-e4c8607650cf">
    <nd ref="776899921"/>
    <nd ref="2496157432"/>
    <nd ref="2496157435"/>
    <nd ref="2496157440"/>
    <nd ref="776899921"/>
    <tag k="amenity" v="cafe"/>
    <tag k="building" v="yes"/>
    <tag k="check_date" v="2023-05-20"/>
    <tag k="name" v="Café Pierre Hermé"/>
    <tag k="opening_hours" v="Mo-Su 09:00-20:00"/>
    <tag k="phone" v="+33 1 43 54 47 77"/>
    <tag k="website" v="https://www.pierreherme.com/"/>
  </way>
  <way id="310676147" version="5" timestamp="2023-09-26T13:11:10Z" changeset="141774345" uid="1205555" user="benoitdd">
    <nd ref="777172412"/>
    <nd ref="9654330045"/>
    <nd ref="777173127"/>
    <nd ref="11220119013"/>
    <nd ref="777174238"/>
    <nd ref="11220119014"/>
    <nd ref="11220119020"/>
    <nd ref="11220119021"/>
    <nd ref="11220119022"/>
    <nd ref="11220119019"/>
    <nd ref="11220119018"/>
    <nd ref="11220119017"/>
    <nd ref="11220119016"/>
    <nd ref="11220119015"/>
    <nd ref="11220119026"/>
    <nd ref="11220119025"/>
    <nd ref="11220119024"/>
    <nd ref="11220119023"/>
    <nd ref="3161334002"/>
    <nd ref="777174317"/>
    <nd ref="3161333998"/>
    <nd ref="9654330033"/>
    <nd ref="777172656"/>
    <nd ref="9654330031"/>
    <nd ref="9654330032"/>
    <nd ref="9654330036"/>
    <nd ref="9654330037"/>
    <nd ref="9654330038"/>
    <nd ref="9654330039"/>
    <nd ref="9654330040"/>
    <nd ref="9654330041"/>
    <nd ref="9654330042"/>
    <nd ref="9654330043"/>
    <nd ref="9654330044"/>
    <nd ref="9887810179"/>
    <nd ref="777174203"/>
    <nd ref="777172412"/>
    <tag k="building" v="yes"/>
    <tag k="building:levels" v="2"/>
    <tag k="name" v="Guénégaud"/>
    <tag k="source" v="bing;knowledge"/>
  </way>
  <way id="413069094" version="22" timestamp="2024-08-15T17:22:30Z" changeset="155293930" uid="11963177" user="JeroenvanderGun">
    <nd ref="470131"/>
    <nd ref="2432408156"/>
    <nd ref="6386935376"/>
    <tag k="busway:left" v="opposite_lane"/>
    <tag k="busway:right" v="lane"/>
    <tag k="cycleway:left" v="share_busway"/>
    <tag k="cycleway:left:oneway" v="-1"/>
    <tag k="cycleway:right" v="share_busway"/>
    <tag k="enforcement:operator" v="Police nationale"/>
    <tag k="highway" v="primary"/>
    <tag k="lanes" v="2"/>
    <tag k="lit" v="yes"/>
    <tag k="maxspeed" v="30"/>
    <tag k="name" v="Boulevard Saint-Michel"/>
    <tag k="name:etymology:wikidata" v="Q1329076"/>
    <tag k="oneway" v="yes"/>
    <tag k="oneway:bicycle" v="no"/>
    <tag k="oneway:psv" v="no"/>
    <tag k="operator" v="Ville de Paris"/>
    <tag k="operator:authority" v="Maire de Paris dans le respect des prescriptions prises par le préfet de police"/>
    <tag k="operator:authority:related_law" v="III de l'article L. 2512-14 du code général des collectivités territoriales"/>
    <tag k="parking:lane:both" v="no"/>
    <tag k="sidewalk" v="separate"/>
    <tag k="sidewalk:both:surface" v="asphalt"/>
    <tag k="smoothness" v="good"/>
    <tag k="source" v="cadastre-dgi-fr source : Direction Générale des Impôts - Cadastre. Mise à jour : 2010"/>
    <tag k="source:operator:authority" v="https://www.legifrance.gouv.fr/loda/id/LEGIARTI000035244298/#LEGIARTI000035244298"/>
    <tag k="surface" v="asphalt"/>
    <tag k="was:cycleway:right" v="share_busway"/>
    <tag k="zone:traffic" v="FR:urban"/>
  </way>
  <way id="563066953" version="1" timestamp="2018-02-21T16:08:10Z" changeset="56554038" uid="7553454" user="Pedrooh">
    <nd ref="5426949849"/>
    <nd ref="5426949850"/>
    <nd ref="5426949851"/>
    <nd ref="5426949852"/>
    <nd ref="5426949849"/>
    <tag k="addr:city" v="Paris"/>
    <tag k="addr:housenumber" v="53"/>
    <tag k="addr:postcode" v="75006"/>
    <tag k="addr:street" v="Rue de Seine"/>
    <tag k="building" v="yes"/>
    <tag k="name" v="Galerie Jeanne Bucher"/>
    <tag k="tourism" v="gallery"/>
  </way>
  <way id="618752764" version="4" timestamp="2023-11-03T19:13:55Z" changeset="143588068" uid="9451067" user="b-jazz-bot">
    <nd ref="5848172142"/>
    <nd ref="5848172141"/>
    <nd ref="5848172140"/>
    <nd ref="5848172139"/>
    <nd ref="5848172138"/>
    <nd ref="5848172137"/>
    <nd ref="5848172136"/>
    <nd ref="5848172135"/>
    <nd ref="5848172134"/>
    <nd ref="5848172133"/>
    <nd ref="5848172132"/>
    <nd ref="5848172131"/>
    <nd ref="5848172130"/>
    <nd ref="5848172129"/>
    <nd ref="5848172128"/>
    <nd ref="5848172127"/>
    <nd ref="2244600614"/>
    <nd ref="5848172126"/>
    <nd ref="5848172125"/>
    <nd ref="5848172124"/>
    <nd ref="5848172123"/>
    <nd ref="5848172122"/>
    <nd ref="5848172142"/>
    <tag k="addr:street" v="Quai Malaquais"/>
    <tag k="amenity" v="bar"/>
    <tag k="building" v="houseboat"/>
    <tag k="name" v="La Balle au Bond"/>
    <tag k="website" v="https://www.laballeaubond.fr/Bienvenue.html"/>
    <tag k="wikidata" v="Q65947847"/>
  </way>
  <way id="618752766" version="3" timestamp="2023-11-03T19:11:37Z" changeset="143587960" uid="9451067" user="b-jazz-bot">
    <nd ref="5848172164"/>
    <nd ref="5848172163"/>
    <nd ref="5848172162"/>
    <nd ref="5848172161"/>
    <nd ref="5848172160"/>
    <nd ref="5848172159"/>
    <nd ref="5848172158"/>
    <nd ref="5848172157"/>
    <nd ref="5848172156"/>
    <nd ref="5848172155"/>
    <nd ref="5848172154"/>
    <nd ref="5848172153"/>
    <nd ref="5848172152"/>
    <nd ref="5848172151"/>
    <nd ref="5848172150"/>
    <nd ref="5016021405"/>
    <nd ref="5848172149"/>
    <nd ref="5848172148"/>
    <nd ref="5848172147"/>
    <nd ref="5848172146"/>
    <nd ref="5848172145"/>
    <nd ref="5848172164"/>
    <tag k="amenity" v="restaurant"/>
    <tag k="building" v="houseboat"/>
    <tag k="cuisine" v="french"/>
    <tag k="email" v="info@calife.com"/>
    <tag k="name" v="Calife"/>
    <tag k="phone" v="+33 1 43 54 50 04"/>
    <tag k="website" v="https://www.calife.com/"/>
  </way>
  <way id="668237354" version="31" timestamp="2024-03-16T09:11:39Z" changeset="148722122" uid="6290466" user="benjamintchik">
    <nd ref="4964831512"/>
    <nd ref="367506"/>
    <tag k="cycleway:both" v="no"/>
    <tag k="highway" v="primary"/>
    <tag k="lanes" v="2"/>
    <tag k="lit" v="yes"/>
    <tag k="maxspeed" v="30"/>
    <tag k="name" v="Boulevard Saint-Germain"/>
    <tag k="name:etymology:wikidata" v="Q255910"/>
    <tag k="name:ru" v="бульвар Сен-Жермен"/>
    <tag k="oneway" v="yes"/>
    <tag k="sidewalk" v="both"/>
    <tag k="smoothness" v="good"/>
    <tag k="source" v="bing; survey"/>
    <tag k="surface" v="asphalt"/>
  </way>
  <way id="682020604" version="12" timestamp="2024-08-15T17:22:30Z" changeset="155293930" uid="11963177" user="JeroenvanderGun">
    <nd ref="6386935376"/>
    <nd ref="367506"/>
    <tag k="busway:left" v="opposite_lane"/>
    <tag k="busway:right" v="lane"/>
    <tag k="cycleway:left" v="share_busway"/>
    <tag k="cycleway:left:oneway" v="-1"/>
    <tag k="cycleway:right" v="share_busway"/>
    <tag k="enforcement:operator" v="Police nationale"/>
    <tag k="highway" v="primary"/>
    <tag k="lanes" v="2"/>
    <tag k="lit" v="yes"/>
    <tag k="maxspeed" v="30"/>
    <tag k="name" v="Boulevard Saint-Michel"/>
    <tag k="name:etymology:wikidata" v="Q1329076"/>
    <tag k="oneway" v="yes"/>
    <tag k="oneway:bicycle" v="no"/>
    <tag k="oneway:psv" v="no"/>
    <tag k="operator" v="Ville de Paris"/>
    <tag k="operator:authority" v="Maire de Paris dans le respect des prescriptions prises par le préfet de police"/>
    <tag k="operator:authority:related_law" v="III de l'article L. 2512-14 du code général des collectivités territoriales"/>
    <tag k="sidewalk" v="separate"/>
    <tag k="smoothness" v="good"/>
    <tag k="source" v="cadastre-dgi-fr source : Direction Générale des Impôts - Cadastre. Mise à jour : 2010"/>
    <tag k="source:operator:authority" v="https://www.legifrance.gouv.fr/loda/id/LEGIARTI000035244298/#LEGIARTI000035244298"/>
    <tag k="surface" v="asphalt"/>
    <tag k="was:cycleway:right" v="share_busway"/>
    <tag k="zone:traffic" v="FR:urban"/>
  </way>
  <way id="682020605" version="8" timestamp="2024-04-20T00:35:29Z" changeset="150243141" uid="2678738" user="fgouget">
    <nd ref="24983568"/>
    <nd ref="5904976363"/>
    <tag k="cycleway:both" v="no"/>
    <tag k="highway" v="tertiary"/>
    <tag k="lanes" v="3"/>
    <tag k="lanes:backward" v="2"/>
    <tag k="lanes:forward" v="1"/>
    <tag k="lit" v="yes"/>
    <tag k="maxspeed" v="30"/>
    <tag k="name" v="Carrefour de l'Odéon"/>
    <tag k="smoothness" v="excellent"/>
    <tag k="surface" v="asphalt"/>
  </way>
  <way id="688388695" version="36" timestamp="2024-08-15T17:22:30Z" changeset="155293930" uid="11963177" user="JeroenvanderGun">
    <nd ref="635779423"/>
    <nd ref="2875175582"/>
    <nd ref="25183526"/>
    <nd ref="11793838048"/>
    <tag k="bicycle:backward" v="use_sidepath"/>
    <tag k="cycleway:both" v="separate"/>
    <tag k="enforcement:operator" v="Police nationale"/>
    <tag k="highway" v="primary"/>
    <tag k="lane_markings" v="no"/>
    <tag k="lit" v="yes"/>
    <tag k="maxspeed" v="30"/>
    <tag k="name" v="Quai des Grands Augustins"/>
    <tag k="name:etymology:wikidata" v="Q3001716"/>
    <tag k="name:ru" v="набережная Гран Огюстен"/>
    <tag k="oneway" v="yes"/>
    <tag k="operator" v="Ville de Paris"/>
    <tag k="operator:authority" v="Maire de Paris dans le respect des prescriptions prises par le préfet de police"/>
    <tag k="operator:authority:related_law" v="III de l'article L. 2512-14 du code général des collectivités territoriales"/>
    <tag k="parking:both" v="no"/>
    <tag k="sidewalk:both" v="separate"/>
    <tag k="smoothness" v="excellent"/>
    <tag k="source:operator:authority" v="https://www.legifrance.gouv.fr/loda/id/LEGIARTI000035244298/#LEGIARTI000035244298"/>
    <tag k="surface" v="asphalt"/>
    <tag k="zone:traffic" v="FR:urban"/>
  </way>
  <way id="809893107" version="14" timestamp="2024-08-15T17:22:30Z" changeset="155293930" uid="11963177" user="JeroenvanderGun">
    <nd ref="25095606"/>
    <nd ref="11876395630"/>
    <nd ref="6310561995"/>
    <nd ref="25095608"/>
    <tag k="busway:left" v="opposite_lane"/>
    <tag k="busway:right" v="lane"/>
    <tag k="cycleway:both" v="share_busway"/>
    <tag k="cycleway:left:oneway" v="-1"/>
    <tag k="enforcement:operator" v="Police nationale"/>
    <tag k="highway" v="primary"/>
    <tag k="lanes" v="2"/>
    <tag k="lit" v="yes"/>
    <tag k="maxspeed" v="30"/>
    <tag k="name" v="Boulevard Saint-Michel"/>
    <tag k="name:etymology:wikidata" v="Q1329076"/>
    <tag k="oneway" v="yes"/>
    <tag k="oneway:bicycle" v="no"/>
    <tag k="oneway:psv" v="no"/>
    <tag k="operator" v="Ville de Paris"/>
    <tag k="operator:authority" v="Maire de Paris dans le respect des prescriptions prises par le préfet de police"/>
    <tag k="operator:authority:related_law" v="III de l'article L. 2512-14 du code général des collectivités territoriales"/>
    <tag k="parking:lane:both" v="no"/>
    <tag k="sidewalk" v="separate"/>
    <tag k="sidewalk:left:surface" v="asphalt"/>
    <tag k="smoothness" v="good"/>
    <tag k="source" v="cadastre-dgi-fr source : Direction Générale des Impôts - Cadastre. Mise à jour : 2010"/>
    <tag k="source:operator:authority" v="https://www.legifrance.gouv.fr/loda/id/LEGIARTI000035244298/#LEGIARTI000035244298"/>
    <tag k="surface" v="asphalt"/>
    <tag k="zone:traffic" v="FR:urban"/>
  </way>
  <way id="1088885343" version="31" timestamp="2024-10-27T19:49:39Z" changeset="158428384" uid="53964" user="_Mathieu_">
    <nd ref="21305936"/>
    <nd ref="3761982457"/>
    <nd ref="6190019965"/>
    <tag k="bicycle:backward" v="use_sidepath"/>
    <tag k="cycleway:left" v="no"/>
    <tag k="cycleway:right" v="separate"/>
    <tag k="enforcement:operator" v="Police nationale"/>
    <tag k="highway" v="primary"/>
    <tag k="lanes" v="2"/>
    <tag k="lit" v="yes"/>
    <tag k="maxspeed" v="30"/>
    <tag k="name" v="Quai des Grands Augustins"/>
    <tag k="name:etymology:wikidata" v="Q3001716"/>
    <tag k="name:ru" v="набережная Гран Огюстен"/>
    <tag k="oneway" v="yes"/>
    <tag k="operator" v="Ville de Paris"/>
    <tag k="operator:authority" v="Maire de Paris dans le respect des prescriptions prises par le préfet de police"/>
    <tag k="operator:authority:related_law" v="III de l'article L. 2512-14 du code général des collectivités territoriales"/>
    <tag k="sidewalk:both" v="separate"/>
    <tag k="smoothness" v="excellent"/>
    <tag k="source:operator:authority" v="https://www.legifrance.gouv.fr/loda/id/LEGIARTI000035244298/#LEGIARTI000035244298"/>
    <tag k="surface" v="asphalt"/>
    <tag k="zone:traffic" v="FR:urban"/>
  </way>
  <way id="1169102028" version="8" timestamp="2024-03-28T10:32:11Z" changeset="149261012" uid="2678738" user="fgouget">
    <nd ref="206091857"/>
    <nd ref="6358119068"/>
    <nd ref="489458466"/>
    <nd ref="25183389"/>
    <tag k="cycleway:left" v="lane"/>
    <tag k="cycleway:left:lane" v="exclusive"/>
    <tag k="cycleway:left:oneway" v="-1"/>
    <tag k="cycleway:right" v="no"/>
    <tag k="highway" v="tertiary"/>
    <tag k="lanes" v="1"/>
    <tag k="lit" v="yes"/>
    <tag k="maxspeed" v="30"/>
    <tag k="name" v="Rue Danton"/>
    <tag k="name:etymology:wikidata" v="Q184623"/>
    <tag k="oneway" v="yes"/>
    <tag k="oneway:bicycle" v="no"/>
    <tag k="parking:both:orientation" v="parallel"/>
    <tag k="parking:left" v="lane"/>
    <tag k="parking:right" v="street_side"/>
    <tag k="sidewalk:both" v="separate"/>
    <tag k="sidewalk:both:surface" v="asphalt"/>
    <tag k="smoothness" v="excellent"/>
    <tag k="source:maxspeed" v="opendata.paris.fr"/>
    <tag k="surface" v="asphalt"/>
  </way>
  <way id="1173693483" version="3" timestamp="2024-03-16T09:11:39Z" changeset="148722122" uid="6290466" user="benjamintchik">
    <nd ref="664205947"/>
    <nd ref="2496113377"/>
    <nd ref="664205951"/>
    <tag k="cycleway:right" v="no"/>
    <tag k="highway" v="tertiary"/>
    <tag k="lanes" v="2"/>
    <tag k="lit" v="yes"/>
    <tag k="maxspeed" v="30"/>
    <tag k="name" v="Boulevard Saint-Germain"/>
    <tag k="name:etymology:wikidata" v="Q255910"/>
    <tag k="oneway" v="yes"/>
    <tag k="oneway:bicycle" v="yes"/>
    <tag k="smoothness" v="good"/>
    <tag k="surface" v="asphalt"/>
  </way>
  <way id="1188653754" version="25" timestamp="2024-03-28T10:35:43Z" changeset="149261012" uid="2678738" user="fgouget">
    <nd ref="367506"/>
    <nd ref="11037394543"/>
    <tag k="cycleway:both" v="no"/>
    <tag k="highway" v="primary"/>
    <tag k="lanes" v="3"/>
    <tag k="lit" v="yes"/>
    <tag k="maxspeed" v="30"/>
    <tag k="name" v="Boulevard Saint-Germain"/>
    <tag k="name:etymology:wikidata" v="Q255910"/>
    <tag k="name:ru" v="бульвар Сен-Жермен"/>
    <tag k="oneway" v="yes"/>
    <tag k="sidewalk:both:surface" v="asphalt"/>
    <tag k="sidewalk:left" v="separate"/>
    <tag k="sidewalk:right" v="yes"/>
    <tag k="smoothness" v="good"/>
    <tag k="source" v="cadastre-dgi-fr source : Direction Générale des Impôts - Cadastre. Mise à jour : 2010"/>
    <tag k="surface" v="asphalt"/>
  </way>
  <way id="1270196782" version="3" timestamp="2024-08-15T17:22:30Z" changeset="155293930" uid="11963177" user="JeroenvanderGun">
    <nd ref="11793838048"/>
    <nd ref="3761982458"/>
    <nd ref="21305936"/>
    <tag k="bicycle:backward" v="use_sidepath"/>
    <tag k="cycleway:both" v="separate"/>
    <tag k="enforcement:operator" v="Police nationale"/>
    <tag k="highway" v="primary"/>
    <tag k="lane_markings" v="no"/>
    <tag k="lit" v="yes"/>
    <tag k="maxspeed" v="30"/>
    <tag k="name" v="Quai des Grands Augustins"/>
    <tag k="name:etymology:wikidata" v="Q3001716"/>
    <tag k="name:ru" v="набережная Гран Огюстен"/>
    <tag k="oneway" v="yes"/>
    <tag k="operator" v="Ville de Paris"/>
    <tag k="operator:authority" v="Maire de Paris dans le respect des prescriptions prises par le préfet de police"/>
    <tag k="operator:authority:related_law" v="III de l'article L. 2512-14 du code général des collectivités territoriales"/>
    <tag k="parking:left" v="street_side"/>
    <tag k="parking:left:orientation" v="parallel"/>
    <tag k="parking:right" v="no"/>
    <tag k="sidewalk:both" v="separate"/>
    <tag k="smoothness" v="excellent"/>
    <tag k="source:operator:authority" v="https://www.legifrance.gouv.fr/loda/id/LEGIARTI000035244298/#LEGIARTI000035244298"/>
    <tag k="surface" v="asphalt"/>
    <tag k="zone:traffic" v="FR:urban"/>
  </way>
  <way id="1279326377" version="2" timestamp="2024-08-15T17:22:30Z" changeset="155293930" uid="11963177" user="JeroenvanderGun">
    <nd ref="11070910848"/>
    <nd ref="11876395629"/>
    <nd ref="5690243693"/>
    <tag k="cycleway:both" v="no"/>
    <tag k="cycleway:left" v="separate"/>
    <tag k="enforcement:operator" v="Police nationale"/>
    <tag k="highway" v="tertiary"/>
    <tag k="lanes" v="2"/>
    <tag k="lit" v="yes"/>
    <tag k="maxspeed" v="30"/>
    <tag k="name" v="Place Saint-Michel"/>
    <tag k="name:etymology:wikidata" v="Q1329076"/>
    <tag k="oneway" v="yes"/>
    <tag k="oneway:bicycle" v="yes"/>
    <tag k="operator" v="Ville de Paris"/>
    <tag k="operator:authority" v="Maire de Paris dans le respect des prescriptions prises par le préfet de police"/>
    <tag k="operator:authority:related_law" v="III de l'article L. 2512-14 du code général des collectivités territoriales"/>
    <tag k="sidewalk" v="separate"/>
    <tag k="smoothness" v="intermediate"/>
    <tag k="source:maxspeed" v="FR:urban"/>
    <tag k="source:operator:authority" v="https://www.legifrance.gouv.fr/loda/id/LEGIARTI000035244298/#LEGIARTI000035244298"/>
    <tag k="surface" v="asphalt"/>
    <tag k="zone:traffic" v="FR:urban"/>
  </way>
  <way id="1353185570" version="1" timestamp="2025-01-21T16:26:52Z" changeset="161606972" uid="7512839" user="Benoît C MdP">
    <nd ref="777218474"/>
    <nd ref="5374911023"/>
    <nd ref="2876214411"/>
    <nd ref="470144"/>
    <nd ref="4508688462"/>
    <nd ref="11032450314"/>
    <nd ref="25188960"/>
    <tag k="bicycle:backward" v="use_sidepath"/>
    <tag k="busway:right" v="lane"/>
    <tag k="cycleway:both" v="separate"/>
    <tag k="cycleway:left" v="separate"/>
    <tag k="cycleway:right" v="share_busway"/>
    <tag k="enforcement:operator" v="Police nationale"/>
    <tag k="highway" v="primary"/>
    <tag k="lane_markings" v="no"/>
    <tag k="lit" v="yes"/>
    <tag k="maxspeed" v="30"/>
    <tag k="name" v="Quai de Conti"/>
    <tag k="name:ru" v="набережная Конти"/>
    <tag k="oneway" v="yes"/>
    <tag k="operator" v="Ville de Paris"/>
    <tag k="operator:authority" v="Maire de Paris dans le respect des prescriptions prises par le préfet de police"/>
    <tag k="operator:authority:related_law" v="III de l'article L. 2512-14 du code général des collectivités territoriales"/>
    <tag k="sidewalk:left" v="separate"/>
    <tag k="sidewalk:right" v="yes"/>
    <tag k="smoothness" v="good"/>
    <tag k="source:maxspeed" v="FR:urban"/>
    <tag k="source:operator:authority" v="https://www.legifrance.gouv.fr/loda/id/LEGIARTI000035244298/#LEGIARTI000035244298"/>
    <tag k="surface" v="asphalt"/>
    <tag k="zone:traffic" v="FR:urban"/>
  </way>
  <relation id="568681" version="5" timestamp="2024-04-05T18:11:52Z" changeset="149627563" uid="3834000" user="cartoleo">
    <member type="way" ref="55886822" role="outer"/>
    <member type="way" ref="55886829" role="inner"/>
    <tag k="addr:city" v="Paris"/>
    <tag k="addr:housenumber" v="22"/>
    <tag k="addr:postcode" v="75006"/>
    <tag k="addr:street" v="Rue Saint-André des Arts"/>
    <tag k="building" v="apartments"/>
    <tag k="building:levels" v="6"/>
    <tag k="roof:levels" v="0"/>
    <tag k="type" v="multipolygon"/>
  </relation>
  <relation id="572449" version="3" timestamp="2019-03-20T12:17:51Z" changeset="68333295" uid="4354893" user="William Desportes">
    <member type="way" ref="56140790" role="outer"/>
    <member type="way" ref="56140772" role="inner"/>
    <tag k="building" v="yes"/>
    <tag k="heritage" v="3"/>
    <tag k="heritage:operator" v="mhs"/>
    <tag k="mhs:inscription_date" v="2010-03-31"/>
    <tag k="name" v="Hôtel dit Séguier"/>
    <tag k="ref:mhs" v="PA75060009"/>
    <tag k="source:heritage" v="Ministère de la Culture - 07/2018"/>
    <tag k="type" v="multipolygon"/>
    <tag k="wikidata" v="Q22980216"/>
  </relation>
  <relation id="659681" version="6" timestamp="2024-09-22T12:49:13Z" changeset="156950142" uid="15094172" user="chl-osm">
    <member type="way" ref="56640817" role="outer"/>
    <member type="way" ref="56640820" role="inner"/>
    <tag k="building" v="house"/>
    <tag k="building:levels" v="3"/>
    <tag k="contact:phone" v="+33 1 43 26 97 57"/>
    <tag k="name" v="Hôtel du Lys"/>
    <tag k="roof:levels" v="1"/>
    <tag k="stars" v="3"/>
    <tag k="tourism" v="hotel"/>
    <tag k="type" v="multipolygon"/>
    <tag k="website" v="http://www.hoteldulys.com/"/>
  </relation>
  <relation id="659699" version="6" timestamp="2023-07-17T08:38:23Z" changeset="138610200" uid="14930061" user="Vlouzman">
    <member type="way" ref="56645234" role="outer"/>
    <member type="way" ref="56645236" role="inner"/>
    <member type="way" ref="56645232" role="inner"/>
    <member type="way" ref="56645233" role="inner"/>
    <tag k="addr:city" v="Paris"/>
    <tag k="addr:housenumber" v="15"/>
    <tag k="addr:postcode" v="75006"/>
    <tag k="addr:street" v="Rue de l'École de Médecine"/>
    <tag k="building" v="university"/>
    <tag k="building:levels" v="4"/>
    <tag k="name" v="Faculté de Médecine Paris Centre (Université Paris Cité)"/>
    <tag k="roof:levels" v="1"/>
    <tag k="type" v="multipolygon"/>
  </relation>
  <relation id="967664" version="9" timestamp="2022-04-09T18:19:33Z" changeset="119513831" uid="10505227" user="Smockwette">
    <member type="way" ref="62235550" role="inner"/>
    <member type="way" ref="62235595" role="inner"/>
    <member type="way" ref="62235615" role="outer"/>
    <member type="way" ref="1050591571" role="inner"/>
    <member type="way" ref="310676148" role="inner"/>
    <tag k="addr:housenumber" v="11"/>
    <tag k="addr:street" v="Quai de Conti"/>
    <tag k="building" v="yes"/>
    <tag k="name" v="Hôtel de la Monnaie"/>
    <tag k="opening_hours" v="Mo-Su 11:00-19:00; Th 11:00-22:00; Dec 25 off; Jan 01 off; May 01 off"/>
    <tag k="source" v="cadastre-dgi-fr source : Direction Générale des Impôts - Cadastre. Mise à jour : 2010"/>
    <tag k="tourism" v="museum"/>
    <tag k="type" v="multipolygon"/>
    <tag k="website" v="https://www.monnaiedeparis.fr/"/>
    <tag k="wikidata" v="Q2411384"/>
    <tag k="wikipedia" v="fr:Hôtel de la Monnaie (Paris)"/>
  </relation>
  <relation id="967665" version="9" timestamp="2024-12-23T01:13:48Z" changeset="160520223" uid="8123953" user="Davileci">
    <member type="way" ref="62235592" role="inner"/>
    <member type="way" ref="62235545" role="inner"/>
    <member type="way" ref="62235581" role="outer"/>
    <member type="way" ref="920086122" role="outer"/>
    <tag k="building" v="public"/>
    <tag k="height" v="30"/>
    <tag k="image" v="https://photos.app.goo.gl/5vThAV1mEJvVzPZLA"/>
    <tag k="name" v="Institut de France"/>
    <tag k="ref:mhs" v="PA00088652"/>
    <tag k="source" v="cadastre-dgi-fr source : Direction Générale des Impôts - Cadastre. Mise à jour : 2010"/>
    <tag k="type" v="multipolygon"/>
    <tag k="wikidata" v="Q19297902"/>
  </relation>
  <relation id="1401754" version="3" timestamp="2024-06-08T13:47:03Z" changeset="152415391" uid="9657215" user="DeryClem">
    <member type="way" ref="97589313" role="inner"/>
    <member type="way" ref="62250871" role="outer"/>
    <tag k="building" v="yes"/>
    <tag k="name" v="Galerie Lara Vincy"/>
    <tag k="tourism" v="gallery"/>
    <tag k="type" v="multipolygon"/>
  </relation>

</osm>
