<?xml version="1.0" encoding="UTF-8"?>
<osm version="0.6" generator="Overpass API 0.7.62.5 1bd436f1">
<note>The data included in this document is from www.openstreetmap.org. The data is made available under ODbL.</note>
<meta osm_base="2025-03-24T16:03:37Z" areas="2025-02-06T02:17:44Z"/>

  <node id="1504307692" lat="51.2571625" lon="1.3491131" version="4" timestamp="2022-01-19T10:14:05Z" changeset="116334628" uid="7037" user="Gregory Williams">
    <tag k="addr:city" v="Sandwich"/>
    <tag k="addr:postcode" v="CT14 0DF"/>
    <tag k="addr:street" v="The Street"/>
    <tag k="addr:village" v="Worth"/>
    <tag k="amenity" v="pub"/>
    <tag k="fhrs:id" v="749894"/>
    <tag k="name" v="St Crispin Inn"/>
  </node>
  <node id="1675973330" lat="51.2564436" lon="1.3469427" version="4" timestamp="2022-01-19T10:14:05Z" changeset="116334628" uid="7037" user="Gregory Williams">
    <tag k="addr:city" v="Sandwich"/>
    <tag k="addr:postcode" v="CT14 0DE"/>
    <tag k="addr:street" v="The Street"/>
    <tag k="addr:village" v="Worth"/>
    <tag k="amenity" v="pub"/>
    <tag k="fhrs:id" v="528928"/>
    <tag k="name" v="The Blue Pigeon"/>
  </node>
  <way id="4471740" version="15" timestamp="2021-09-03T14:43:45Z" changeset="110682330" uid="5229644" user="Nathan_A_RF">
    <nd ref="27411048"/>
    <nd ref="1801434347"/>
    <nd ref="1759713597"/>
    <nd ref="556787356"/>
    <nd ref="1801434346"/>
    <nd ref="556787357"/>
    <nd ref="27411049"/>
    <nd ref="27411050"/>
    <nd ref="7051180463"/>
    <nd ref="556786382"/>
    <nd ref="556786384"/>
    <nd ref="556786381"/>
    <nd ref="556786379"/>
    <nd ref="556786377"/>
    <nd ref="3557799248"/>
    <nd ref="27411053"/>
    <tag k="bicycle" v="permissive"/>
    <tag k="highway" v="unclassified"/>
    <tag k="lit" v="no"/>
    <tag k="maxspeed" v="30 mph"/>
    <tag k="name" v="Guilford Road"/>
    <tag k="source:name" v="OS_OpenData_Locator"/>
    <tag k="surface" v="asphalt"/>
    <tag k="toll" v="yes"/>
    <tag k="toll:bicycle" v="no"/>
  </way>
  <way id="4472452" version="3" timestamp="2023-11-15T10:11:08Z" changeset="144044896" uid="10599253" user="DanGlover">
    <nd ref="27416220"/>
    <nd ref="408447"/>
    <tag k="highway" v="tertiary"/>
    <tag k="maxwidth" v="6'6&quot;"/>
    <tag k="maxwidth:conditional" v="none @ destination"/>
    <tag k="name" v="Felderland Lane"/>
  </way>
  <way id="4472455" version="12" timestamp="2024-07-22T23:19:32Z" changeset="154283662" uid="5008136" user="JayTurnr">
    <nd ref="298686802"/>
    <nd ref="1767610832"/>
    <nd ref="1767610834"/>
    <nd ref="1280733558"/>
    <nd ref="1280733588"/>
    <nd ref="1280733601"/>
    <nd ref="1280733515"/>
    <nd ref="8941172347"/>
    <nd ref="408447"/>
    <nd ref="1890131355"/>
    <nd ref="1280733682"/>
    <nd ref="12068947790"/>
    <nd ref="1280733567"/>
    <nd ref="408625"/>
    <nd ref="1280733652"/>
    <nd ref="6915054364"/>
    <nd ref="6915054365"/>
    <nd ref="1280733616"/>
    <nd ref="1280733549"/>
    <nd ref="298686681"/>
    <nd ref="408626"/>
    <nd ref="1111436324"/>
    <nd ref="408629"/>
    <nd ref="12068969493"/>
    <nd ref="1280733554"/>
    <nd ref="1111436323"/>
    <nd ref="1111436330"/>
    <tag k="highway" v="primary"/>
    <tag k="maxspeed" v="40 mph"/>
    <tag k="name" v="Deal Road"/>
    <tag k="ref" v="A258"/>
  </way>
  <way id="5019434" version="10" timestamp="2024-08-25T14:19:42Z" changeset="155739592" uid="11471297" user="Palgrave Peter">
    <nd ref="408623"/>
    <nd ref="1280733535"/>
    <nd ref="1280733620"/>
    <nd ref="12135846386"/>
    <nd ref="33452565"/>
    <nd ref="6514601479"/>
    <nd ref="1280733551"/>
    <nd ref="1280733654"/>
    <nd ref="33452566"/>
    <nd ref="1280733658"/>
    <tag k="highway" v="primary"/>
    <tag k="maxspeed" v="40 mph"/>
    <tag k="ref" v="A258"/>
  </way>
  <way id="27217042" version="3" timestamp="2010-09-30T16:25:37Z" changeset="5921378" uid="7037" user="Gregory Williams">
    <nd ref="298686749"/>
    <nd ref="298686748"/>
    <tag k="bridge" v="yes"/>
    <tag k="highway" v="unclassified"/>
    <tag k="layer" v="1"/>
    <tag k="lcn" v="proposed"/>
    <tag k="name" v="Goretop Lane"/>
    <tag k="source:name" v="OS_OpenData_Locator"/>
  </way>
  <way id="27217043" version="8" timestamp="2021-08-27T11:52:01Z" changeset="110338149" uid="242345" user="confusedbuffalo">
    <nd ref="298686748"/>
    <nd ref="298686747"/>
    <nd ref="298686746"/>
    <nd ref="298686745"/>
    <nd ref="298686744"/>
    <nd ref="298686743"/>
    <nd ref="298686733"/>
    <nd ref="298686770"/>
    <nd ref="298686771"/>
    <nd ref="298686772"/>
    <nd ref="298686773"/>
    <nd ref="298686774"/>
    <nd ref="298686775"/>
    <nd ref="298686776"/>
    <nd ref="298686777"/>
    <nd ref="298686778"/>
    <nd ref="298686779"/>
    <nd ref="298686780"/>
    <tag k="highway" v="unclassified"/>
    <tag k="lcn" v="proposed"/>
    <tag k="maxspeed" v="60 mph"/>
    <tag k="maxspeed:type" v="GB:nsl_single"/>
    <tag k="name" v="Goretop Lane"/>
    <tag k="source:name" v="OS_OpenData_Locator"/>
  </way>
  <way id="27217046" version="5" timestamp="2024-06-11T13:13:08Z" changeset="152542969" uid="11471297" user="Palgrave Peter">
    <nd ref="298686761"/>
    <nd ref="298686760"/>
    <nd ref="298686759"/>
    <nd ref="1096164651"/>
    <nd ref="298686750"/>
    <nd ref="298686749"/>
    <tag k="highway" v="unclassified"/>
    <tag k="lcn" v="proposed"/>
    <tag k="name" v="Goretop Lane"/>
    <tag k="source:name" v="OS_OpenData_Locator"/>
  </way>
  <way id="27217047" version="8" timestamp="2024-07-15T19:43:31Z" changeset="153987359" uid="493595" user="Yorvik Prestigitator">
    <nd ref="298686780"/>
    <nd ref="298686781"/>
    <nd ref="298686782"/>
    <nd ref="298686783"/>
    <nd ref="298686785"/>
    <nd ref="298686786"/>
    <nd ref="298686787"/>
    <nd ref="298686788"/>
    <nd ref="298686789"/>
    <nd ref="298686790"/>
    <nd ref="298686791"/>
    <nd ref="298686792"/>
    <nd ref="6912165402"/>
    <nd ref="298686793"/>
    <nd ref="298686794"/>
    <nd ref="12056036386"/>
    <nd ref="298686795"/>
    <nd ref="12056036388"/>
    <nd ref="1504307754"/>
    <nd ref="298686796"/>
    <nd ref="12056036389"/>
    <nd ref="298686797"/>
    <nd ref="12056036390"/>
    <nd ref="298686798"/>
    <nd ref="12056036391"/>
    <nd ref="298686799"/>
    <nd ref="298686800"/>
    <nd ref="11972124244"/>
    <tag k="highway" v="residential"/>
    <tag k="lcn" v="proposed"/>
    <tag k="maxspeed" v="30 mph"/>
    <tag k="name" v="The Street"/>
  </way>
  <way id="27217048" version="5" timestamp="2016-03-30T10:42:07Z" changeset="38163626" uid="42123" user="Ropino">
    <nd ref="298686802"/>
    <nd ref="298694062"/>
    <tag k="abutters" v="residential"/>
    <tag k="highway" v="tertiary"/>
    <tag k="lcn" v="proposed"/>
    <tag k="maxspeed" v="40 mph"/>
    <tag k="name" v="The Street"/>
  </way>
  <way id="27217049" version="7" timestamp="2024-06-11T13:13:08Z" changeset="152542969" uid="11471297" user="Palgrave Peter">
    <nd ref="11972124244"/>
    <nd ref="298686810"/>
    <nd ref="298686811"/>
    <nd ref="11971643858"/>
    <nd ref="298686812"/>
    <nd ref="298686813"/>
    <nd ref="298686814"/>
    <nd ref="1753522801"/>
    <nd ref="298686815"/>
    <nd ref="298686816"/>
    <nd ref="1753523500"/>
    <nd ref="6914600701"/>
    <nd ref="298686817"/>
    <nd ref="298686818"/>
    <tag k="abutters" v="residential"/>
    <tag k="highway" v="tertiary"/>
    <tag k="maxspeed" v="30 mph"/>
    <tag k="name" v="Jubilee Road"/>
  </way>
  <way id="27217050" version="5" timestamp="2023-12-27T15:38:43Z" changeset="145581578" uid="5229644" user="Nathan_A_RF">
    <nd ref="298686818"/>
    <nd ref="298686819"/>
    <nd ref="1280733627"/>
    <nd ref="298686820"/>
    <tag k="highway" v="tertiary"/>
    <tag k="maxspeed" v="50 mph"/>
    <tag k="maxspeed:type" v="sign"/>
    <tag k="name" v="Jubilee Road"/>
  </way>
  <way id="27217706" version="3" timestamp="2024-07-15T19:43:31Z" changeset="153987359" uid="493595" user="Yorvik Prestigitator">
    <nd ref="298686794"/>
    <nd ref="12056036384"/>
    <nd ref="298693438"/>
    <nd ref="298693441"/>
    <nd ref="298693443"/>
    <nd ref="298693445"/>
    <nd ref="298693447"/>
    <nd ref="298693450"/>
    <nd ref="298693454"/>
    <nd ref="298693459"/>
    <tag k="highway" v="residential"/>
    <tag k="maxspeed" v="30 mph"/>
    <tag k="name" v="Minnis Way"/>
  </way>
  <way id="27217708" version="2" timestamp="2012-09-21T17:32:41Z" changeset="13198548" uid="7037" user="Gregory Williams">
    <nd ref="298693438"/>
    <nd ref="298693466"/>
    <nd ref="298693462"/>
    <tag k="highway" v="residential"/>
    <tag k="maxspeed" v="30 mph"/>
    <tag k="name" v="Minnis Way"/>
  </way>
  <way id="27217723" version="2" timestamp="2012-09-21T17:32:42Z" changeset="13198548" uid="7037" user="Gregory Williams">
    <nd ref="298686804"/>
    <nd ref="298693798"/>
    <nd ref="298693799"/>
    <nd ref="298693800"/>
    <tag k="highway" v="residential"/>
    <tag k="maxspeed" v="30 mph"/>
    <tag k="name" v="Temple Way"/>
  </way>
  <way id="27217724" version="2" timestamp="2012-09-21T17:32:42Z" changeset="13198548" uid="7037" user="Gregory Williams">
    <nd ref="298693801"/>
    <nd ref="298693800"/>
    <nd ref="298693802"/>
    <tag k="highway" v="residential"/>
    <tag k="maxspeed" v="30 mph"/>
    <tag k="name" v="Temple Way"/>
  </way>
  <way id="27217737" version="2" timestamp="2012-09-21T17:32:41Z" changeset="13198548" uid="7037" user="Gregory Williams">
    <nd ref="298686803"/>
    <nd ref="298693830"/>
    <nd ref="298693831"/>
    <nd ref="298693832"/>
    <tag k="highway" v="residential"/>
    <tag k="maxspeed" v="30 mph"/>
    <tag k="name" v="Chestnut Drive"/>
  </way>
  <way id="27217746" version="9" timestamp="2024-06-11T13:13:08Z" changeset="152542969" uid="11471297" user="Palgrave Peter">
    <nd ref="298694062"/>
    <nd ref="298686803"/>
    <nd ref="298686804"/>
    <nd ref="11971643892"/>
    <nd ref="298682423"/>
    <nd ref="1767610907"/>
    <nd ref="7331068429"/>
    <nd ref="298686805"/>
    <nd ref="1767610909"/>
    <nd ref="298686801"/>
    <tag k="abutters" v="residential"/>
    <tag k="highway" v="tertiary"/>
    <tag k="lcn" v="proposed"/>
    <tag k="maxspeed" v="30 mph"/>
    <tag k="name" v="The Street"/>
    <tag k="sidewalk" v="both"/>
  </way>
  <way id="44388996" version="12" timestamp="2024-08-25T16:21:38Z" changeset="155745725" uid="11471297" user="Palgrave Peter">
    <nd ref="1280733684"/>
    <nd ref="11221718738"/>
    <nd ref="6564430313"/>
    <nd ref="6564430318"/>
    <nd ref="1280733606"/>
    <nd ref="12136027994"/>
    <nd ref="2032660382"/>
    <nd ref="1096167783"/>
    <nd ref="35963176"/>
    <tag k="highway" v="primary"/>
    <tag k="maxspeed" v="50 mph"/>
    <tag k="maxspeed:type" v="sign"/>
    <tag k="name" v="Sandwich Road"/>
    <tag k="ref" v="A258"/>
    <tag k="source:name" v="OS_OpenData_Locator"/>
  </way>
  <way id="44388997" version="4" timestamp="2021-04-09T04:56:48Z" changeset="102604360" uid="10170574" user="asnghpi">
    <nd ref="564185015"/>
    <nd ref="1280733602"/>
    <nd ref="1280733529"/>
    <nd ref="564185017"/>
    <nd ref="564185019"/>
    <nd ref="1280733611"/>
    <nd ref="7184835453"/>
    <nd ref="564185021"/>
    <nd ref="1280733542"/>
    <nd ref="8609302496"/>
    <nd ref="564185023"/>
    <nd ref="564185025"/>
    <nd ref="564185027"/>
    <nd ref="564185029"/>
    <nd ref="564185030"/>
    <nd ref="564185031"/>
    <nd ref="564185034"/>
    <nd ref="564185032"/>
    <nd ref="564185033"/>
    <nd ref="564185035"/>
    <tag k="highway" v="unclassified"/>
    <tag k="name" v="Homemead Lane"/>
    <tag k="source" v="survey"/>
  </way>
  <way id="44388999" version="6" timestamp="2024-08-23T16:54:36Z" changeset="155663276" uid="11471297" user="Palgrave Peter">
    <nd ref="408612"/>
    <nd ref="408613"/>
    <nd ref="408614"/>
    <nd ref="408615"/>
    <nd ref="408616"/>
    <nd ref="8607476624"/>
    <nd ref="408617"/>
    <nd ref="12132308659"/>
    <nd ref="408619"/>
    <nd ref="408618"/>
    <nd ref="1280733596"/>
    <nd ref="408623"/>
    <tag k="highway" v="unclassified"/>
    <tag k="lcn" v="proposed"/>
    <tag k="name" v="Mill Lane"/>
  </way>
  <way id="45751077" version="7" timestamp="2021-08-27T11:52:01Z" changeset="110338149" uid="242345" user="confusedbuffalo">
    <nd ref="582696449"/>
    <nd ref="408854"/>
    <nd ref="1280659496"/>
    <nd ref="1616615217"/>
    <nd ref="298742145"/>
    <nd ref="1616615216"/>
    <nd ref="408869"/>
    <nd ref="1280659497"/>
    <tag k="highway" v="primary"/>
    <tag k="maxspeed" v="60 mph"/>
    <tag k="maxspeed:type" v="GB:nsl_single"/>
    <tag k="ref" v="A258"/>
  </way>
  <way id="73899343" version="9" timestamp="2021-08-27T11:52:01Z" changeset="110338149" uid="242345" user="confusedbuffalo">
    <nd ref="874319412"/>
    <nd ref="874319386"/>
    <tag k="bridge" v="yes"/>
    <tag k="bridge:name" v="Newcut Bridge"/>
    <tag k="highway" v="unclassified"/>
    <tag k="layer" v="1"/>
    <tag k="lit" v="no"/>
    <tag k="maxspeed" v="60 mph"/>
    <tag k="maxspeed:type" v="GB:nsl_single"/>
    <tag k="name" v="Guilford Road"/>
    <tag k="source:name" v="OS_OpenData_Locator"/>
    <tag k="surface" v="asphalt"/>
  </way>
  <way id="73899351" version="11" timestamp="2021-08-27T11:52:01Z" changeset="110338149" uid="242345" user="confusedbuffalo">
    <nd ref="874319386"/>
    <nd ref="874325508"/>
    <nd ref="666957831"/>
    <nd ref="1752594680"/>
    <nd ref="1752594679"/>
    <nd ref="27411046"/>
    <nd ref="666957832"/>
    <nd ref="27411047"/>
    <nd ref="556787352"/>
    <nd ref="556787353"/>
    <nd ref="556787354"/>
    <nd ref="556787355"/>
    <nd ref="1752594682"/>
    <nd ref="27411048"/>
    <tag k="highway" v="unclassified"/>
    <tag k="lit" v="no"/>
    <tag k="maxspeed" v="60 mph"/>
    <tag k="maxspeed:type" v="GB:nsl_single"/>
    <tag k="name" v="Guilford Road"/>
    <tag k="source:name" v="OS_OpenData_Locator"/>
    <tag k="surface" v="asphalt"/>
  </way>
  <way id="93077024" version="7" timestamp="2024-06-08T16:29:41Z" changeset="152422436" uid="11471297" user="Palgrave Peter">
    <nd ref="1078869491"/>
    <nd ref="3357230354"/>
    <nd ref="3357230322"/>
    <nd ref="3691113474"/>
    <nd ref="3691112094"/>
    <nd ref="3357230301"/>
    <nd ref="3691113509"/>
    <nd ref="3691113485"/>
    <nd ref="3691113430"/>
    <nd ref="3691112101"/>
    <nd ref="3691112105"/>
    <nd ref="3691112070"/>
    <nd ref="11964656476"/>
    <nd ref="1078869533"/>
    <tag k="highway" v="residential"/>
    <tag k="maxspeed" v="20 mph"/>
    <tag k="motor_vehicle" v="private"/>
    <tag k="name" v="North Road"/>
    <tag k="source" v="Bing"/>
    <tag k="source:name" v="OS_OpenData_Locator"/>
    <tag k="toll" v="yes"/>
    <tag k="toll:bicycle" v="no"/>
  </way>
  <way id="93077026" version="6" timestamp="2021-09-03T14:43:45Z" changeset="110682330" uid="5229644" user="Nathan_A_RF">
    <nd ref="1078869397"/>
    <nd ref="1078869461"/>
    <nd ref="1078869402"/>
    <nd ref="3557825196"/>
    <nd ref="3357230378"/>
    <nd ref="3357230336"/>
    <nd ref="1078869398"/>
    <tag k="highway" v="residential"/>
    <tag k="maxspeed" v="20 mph"/>
    <tag k="motor_vehicle" v="private"/>
    <tag k="name" v="Princes Drive"/>
    <tag k="source" v="Bing"/>
    <tag k="source:name" v="OS_OpenData_Locator"/>
    <tag k="toll" v="yes"/>
    <tag k="toll:bicycle" v="no"/>
  </way>
  <way id="93077027" version="9" timestamp="2021-09-03T14:43:45Z" changeset="110682330" uid="5229644" user="Nathan_A_RF">
    <nd ref="27411053"/>
    <nd ref="1759713545"/>
    <nd ref="3691112088"/>
    <nd ref="3691112049"/>
    <nd ref="3691112097"/>
    <nd ref="3357230334"/>
    <nd ref="3357230325"/>
    <nd ref="3691112061"/>
    <nd ref="3357230381"/>
    <nd ref="3357230297"/>
    <nd ref="3357230323"/>
    <nd ref="1078869489"/>
    <nd ref="3357230309"/>
    <nd ref="3557825260"/>
    <nd ref="3357230305"/>
    <nd ref="3357230356"/>
    <nd ref="3691113484"/>
    <nd ref="3557825241"/>
    <nd ref="3357230303"/>
    <nd ref="3557824381"/>
    <nd ref="3691113450"/>
    <nd ref="3691112083"/>
    <nd ref="3557825220"/>
    <nd ref="3691113511"/>
    <nd ref="3357230326"/>
    <nd ref="1078869533"/>
    <nd ref="3357230329"/>
    <nd ref="3557825199"/>
    <nd ref="3557825228"/>
    <nd ref="3357229849"/>
    <nd ref="3557824379"/>
    <nd ref="3557825253"/>
    <nd ref="3357230321"/>
    <nd ref="1078869398"/>
    <tag k="highway" v="residential"/>
    <tag k="maxspeed" v="20 mph"/>
    <tag k="name" v="King's Avenue"/>
    <tag k="source" v="Bing"/>
    <tag k="source:name" v="OS_OpenData_Locator"/>
    <tag k="toll" v="yes"/>
    <tag k="toll:bicycle" v="no"/>
  </way>
  <way id="93077028" version="8" timestamp="2021-09-03T14:43:45Z" changeset="110682330" uid="5229644" user="Nathan_A_RF">
    <nd ref="1078869402"/>
    <nd ref="3357230359"/>
    <nd ref="3557824384"/>
    <nd ref="3691113522"/>
    <nd ref="3557825246"/>
    <nd ref="3357230300"/>
    <nd ref="3357230327"/>
    <nd ref="3557824375"/>
    <nd ref="3357230382"/>
    <nd ref="1078869491"/>
    <nd ref="3691112111"/>
    <nd ref="3357230350"/>
    <nd ref="3557825193"/>
    <nd ref="3691112113"/>
    <nd ref="3557824385"/>
    <nd ref="1759713530"/>
    <tag k="highway" v="residential"/>
    <tag k="maxspeed" v="20 mph"/>
    <tag k="motor_vehicle" v="private"/>
    <tag k="name" v="Waldershare Avenue"/>
    <tag k="source" v="Bing"/>
    <tag k="source:name" v="OS_OpenData_Locator"/>
    <tag k="toll" v="yes"/>
    <tag k="toll:bicycle" v="no"/>
  </way>
  <way id="95795020" version="11" timestamp="2023-06-23T05:31:46Z" changeset="137671609" uid="11396838" user="Denomyc">
    <nd ref="27411055"/>
    <nd ref="556786372"/>
    <nd ref="556786371"/>
    <nd ref="556786370"/>
    <nd ref="1757702682"/>
    <nd ref="556786368"/>
    <nd ref="556786369"/>
    <nd ref="27411056"/>
    <nd ref="556786394"/>
    <nd ref="556786393"/>
    <nd ref="556786392"/>
    <nd ref="556786390"/>
    <nd ref="556786391"/>
    <nd ref="556786386"/>
    <nd ref="556786389"/>
    <nd ref="556786388"/>
    <nd ref="556786367"/>
    <nd ref="556786365"/>
    <nd ref="1757702673"/>
    <nd ref="27411057"/>
    <nd ref="556786363"/>
    <nd ref="556786361"/>
    <nd ref="556786359"/>
    <nd ref="556786357"/>
    <nd ref="556786355"/>
    <nd ref="556786354"/>
    <nd ref="556786353"/>
    <nd ref="556786352"/>
    <nd ref="556786351"/>
    <nd ref="556786347"/>
    <nd ref="556786346"/>
    <nd ref="556786344"/>
    <nd ref="556786342"/>
    <nd ref="27411717"/>
    <nd ref="556786340"/>
    <nd ref="556786338"/>
    <nd ref="556786336"/>
    <nd ref="556786335"/>
    <nd ref="556786334"/>
    <nd ref="556786333"/>
    <nd ref="556786332"/>
    <nd ref="556786349"/>
    <nd ref="556786348"/>
    <nd ref="27411719"/>
    <nd ref="556786330"/>
    <nd ref="556786329"/>
    <nd ref="556786328"/>
    <nd ref="556786327"/>
    <nd ref="556786325"/>
    <nd ref="556786323"/>
    <nd ref="556786318"/>
    <nd ref="27411720"/>
    <nd ref="556786317"/>
    <nd ref="556786316"/>
    <nd ref="556786315"/>
    <nd ref="556786314"/>
    <nd ref="556786313"/>
    <nd ref="27411721"/>
    <nd ref="556786312"/>
    <nd ref="556786331"/>
    <nd ref="556786350"/>
    <nd ref="556786292"/>
    <nd ref="11001095301"/>
    <nd ref="556786293"/>
    <nd ref="556786291"/>
    <nd ref="10997765617"/>
    <nd ref="27411722"/>
    <nd ref="10997765618"/>
    <nd ref="556786289"/>
    <nd ref="10997765619"/>
    <nd ref="556786288"/>
    <nd ref="11001095302"/>
    <nd ref="556786287"/>
    <nd ref="3691112063"/>
    <nd ref="556786290"/>
    <nd ref="27411723"/>
    <nd ref="556786285"/>
    <nd ref="27411724"/>
    <tag k="bicycle" v="permissive"/>
    <tag k="highway" v="unclassified"/>
    <tag k="lit" v="no"/>
    <tag k="maxspeed" v="30 mph"/>
    <tag k="surface" v="asphalt"/>
  </way>
  <way id="95795022" version="4" timestamp="2021-09-03T14:43:45Z" changeset="110682330" uid="5229644" user="Nathan_A_RF">
    <nd ref="1110281049"/>
    <nd ref="3357230358"/>
    <nd ref="1078869461"/>
    <tag k="highway" v="residential"/>
    <tag k="maxspeed" v="20 mph"/>
    <tag k="motor_vehicle" v="private"/>
    <tag k="name" v="Shawdon Avenue"/>
    <tag k="source" v="Bing"/>
    <tag k="source:name" v="OS_OpenData_Locator"/>
    <tag k="toll" v="yes"/>
    <tag k="toll:bicycle" v="no"/>
  </way>
  <way id="95795026" version="3" timestamp="2021-09-03T14:43:45Z" changeset="110682330" uid="5229644" user="Nathan_A_RF">
    <nd ref="1078869515"/>
    <nd ref="1078869397"/>
    <tag k="highway" v="residential"/>
    <tag k="maxspeed" v="20 mph"/>
    <tag k="motor_vehicle" v="private"/>
    <tag k="name" v="Cambridge Avenue"/>
    <tag k="source" v="Bing"/>
    <tag k="source:name" v="OS_OpenData_Locator"/>
    <tag k="toll" v="yes"/>
    <tag k="toll:bicycle" v="no"/>
  </way>
  <way id="95795027" version="8" timestamp="2021-09-03T14:43:45Z" changeset="110682330" uid="5229644" user="Nathan_A_RF">
    <nd ref="1106284581"/>
    <nd ref="1078869575"/>
    <nd ref="1110281022"/>
    <nd ref="1110281050"/>
    <nd ref="8094429326"/>
    <nd ref="1096944040"/>
    <tag k="highway" v="unclassified"/>
    <tag k="name" v="Princes Drive"/>
    <tag k="source" v="Bing"/>
    <tag k="source:name" v="OS_OpenData_Locator"/>
    <tag k="toll" v="yes"/>
    <tag k="toll:bicycle" v="no"/>
  </way>
  <way id="101775337" version="7" timestamp="2024-06-08T14:44:24Z" changeset="152417936" uid="11471297" user="Palgrave Peter">
    <nd ref="874325508"/>
    <nd ref="1078869434"/>
    <nd ref="1078869417"/>
    <nd ref="1078869553"/>
    <nd ref="1078869536"/>
    <nd ref="874325490"/>
    <nd ref="1106284805"/>
    <nd ref="874325516"/>
    <nd ref="874325477"/>
    <nd ref="2071615383"/>
    <nd ref="874325511"/>
    <nd ref="874325473"/>
    <nd ref="874325505"/>
    <nd ref="874325523"/>
    <nd ref="874325479"/>
    <nd ref="874325506"/>
    <nd ref="874325465"/>
    <nd ref="874325499"/>
    <nd ref="1616144814"/>
    <nd ref="874325457"/>
    <nd ref="1106284831"/>
    <nd ref="7999525778"/>
    <nd ref="1616144841"/>
    <nd ref="7999525751"/>
    <nd ref="874325486"/>
    <nd ref="874325468"/>
    <nd ref="874325466"/>
    <tag k="highway" v="unclassified"/>
    <tag k="source" v="Bing;OS_OpenData_StreetView;OS_OpenData_StreetView"/>
  </way>
  <way id="112717285" version="2" timestamp="2023-12-28T18:16:10Z" changeset="145632024" uid="5229644" user="Nathan_A_RF">
    <nd ref="1277076422"/>
    <nd ref="1280659491"/>
    <nd ref="1280659501"/>
    <tag k="highway" v="trunk"/>
    <tag k="maxspeed" v="60 mph"/>
    <tag k="maxspeed:type" v="GB:nsl_single"/>
    <tag k="name" v="Sandwich Road"/>
    <tag k="oneway" v="yes"/>
    <tag k="ref" v="A256"/>
    <tag k="source:name" v="OS_OpenData_Locator"/>
  </way>
  <way id="112717289" version="2" timestamp="2023-12-28T18:16:10Z" changeset="145632024" uid="5229644" user="Nathan_A_RF">
    <nd ref="1280659497"/>
    <nd ref="1280659502"/>
    <nd ref="1277076408"/>
    <tag k="highway" v="primary"/>
    <tag k="maxspeed" v="60 mph"/>
    <tag k="maxspeed:type" v="GB:nsl_single"/>
    <tag k="oneway" v="yes"/>
    <tag k="ref" v="A258"/>
  </way>
  <way id="112717290" version="2" timestamp="2023-12-28T18:16:10Z" changeset="145632024" uid="5229644" user="Nathan_A_RF">
    <nd ref="1277076429"/>
    <nd ref="1280659494"/>
    <nd ref="1280659497"/>
    <tag k="highway" v="primary"/>
    <tag k="maxspeed" v="60 mph"/>
    <tag k="maxspeed:type" v="GB:nsl_single"/>
    <tag k="oneway" v="yes"/>
    <tag k="ref" v="A258"/>
  </way>
  <way id="112724818" version="4" timestamp="2023-12-27T15:38:43Z" changeset="145581578" uid="5229644" user="Nathan_A_RF">
    <nd ref="1280733658"/>
    <nd ref="1280733615"/>
    <nd ref="1280733548"/>
    <nd ref="1280733533"/>
    <nd ref="1753522901"/>
    <nd ref="33452567"/>
    <nd ref="1280733674"/>
    <nd ref="1280733562"/>
    <nd ref="1753522833"/>
    <nd ref="1280733584"/>
    <nd ref="33452568"/>
    <nd ref="1280733599"/>
    <nd ref="1280733522"/>
    <nd ref="1280733527"/>
    <nd ref="33452569"/>
    <nd ref="1280733537"/>
    <nd ref="298686820"/>
    <tag k="highway" v="primary"/>
    <tag k="maxspeed" v="50 mph"/>
    <tag k="maxspeed:type" v="sign"/>
    <tag k="ref" v="A258"/>
  </way>
  <way id="112724823" version="3" timestamp="2023-12-27T15:38:43Z" changeset="145581578" uid="5229644" user="Nathan_A_RF">
    <nd ref="1280733570"/>
    <nd ref="1280733684"/>
    <tag k="bridge" v="yes"/>
    <tag k="highway" v="primary"/>
    <tag k="layer" v="1"/>
    <tag k="maxspeed" v="50 mph"/>
    <tag k="maxspeed:type" v="sign"/>
    <tag k="name" v="Sandwich Road"/>
    <tag k="ref" v="A258"/>
    <tag k="source:name" v="OS_OpenData_Locator"/>
  </way>
  <way id="117796209" version="5" timestamp="2023-12-27T15:38:43Z" changeset="145581578" uid="5229644" user="Nathan_A_RF">
    <nd ref="298686820"/>
    <nd ref="1280733667"/>
    <nd ref="1280733581"/>
    <nd ref="6476902283"/>
    <nd ref="33452570"/>
    <nd ref="1280733692"/>
    <nd ref="1280733683"/>
    <nd ref="1280733589"/>
    <nd ref="33452571"/>
    <nd ref="1753523363"/>
    <nd ref="1280733574"/>
    <nd ref="1326200107"/>
    <nd ref="1280733525"/>
    <nd ref="1280733608"/>
    <nd ref="33452572"/>
    <nd ref="1280733531"/>
    <nd ref="1280733614"/>
    <nd ref="33452573"/>
    <nd ref="1280733516"/>
    <nd ref="564185015"/>
    <tag k="highway" v="primary"/>
    <tag k="maxspeed" v="50 mph"/>
    <tag k="maxspeed:type" v="sign"/>
    <tag k="name" v="Hacklinge Hill"/>
    <tag k="ref" v="A258"/>
    <tag k="source:name" v="OS_OpenData_Locator"/>
  </way>
  <way id="117796212" version="3" timestamp="2023-12-27T15:38:43Z" changeset="145581578" uid="5229644" user="Nathan_A_RF">
    <nd ref="564185015"/>
    <nd ref="33452574"/>
    <nd ref="1280733570"/>
    <tag k="highway" v="primary"/>
    <tag k="maxspeed" v="50 mph"/>
    <tag k="maxspeed:type" v="sign"/>
    <tag k="name" v="Sandwich Road"/>
    <tag k="ref" v="A258"/>
    <tag k="source:name" v="OS_OpenData_Locator"/>
  </way>
  <way id="123002446" version="6" timestamp="2021-09-03T14:43:45Z" changeset="110682330" uid="5229644" user="Nathan_A_RF">
    <nd ref="1096944040"/>
    <nd ref="1078869462"/>
    <nd ref="1110281032"/>
    <nd ref="8094429325"/>
    <nd ref="1078869482"/>
    <nd ref="1110281036"/>
    <nd ref="1504320453"/>
    <nd ref="1110281044"/>
    <nd ref="8094428840"/>
    <nd ref="1078869522"/>
    <nd ref="1078869537"/>
    <nd ref="1110281026"/>
    <nd ref="1110281059"/>
    <nd ref="1078869398"/>
    <tag k="highway" v="unclassified"/>
    <tag k="maxspeed" v="20 mph"/>
    <tag k="name" v="Princes Drive"/>
    <tag k="source" v="Bing"/>
    <tag k="source:name" v="OS_OpenData_Locator"/>
    <tag k="toll" v="yes"/>
    <tag k="toll:bicycle" v="no"/>
  </way>
  <way id="148522368" version="2" timestamp="2024-06-08T14:44:24Z" changeset="152417936" uid="11471297" user="Palgrave Peter">
    <nd ref="874325466"/>
    <nd ref="1616145655"/>
    <nd ref="1616145651"/>
    <nd ref="1616145652"/>
    <nd ref="1106284463"/>
    <tag k="highway" v="unclassified"/>
  </way>
  <way id="148578660" version="1" timestamp="2012-02-03T11:43:18Z" changeset="10575386" uid="7037" user="Gregory Williams">
    <nd ref="1616614975"/>
    <nd ref="1616615006"/>
    <nd ref="408452"/>
    <nd ref="1616615010"/>
    <nd ref="1616615008"/>
    <nd ref="1616614995"/>
    <nd ref="1616614993"/>
    <nd ref="1616615002"/>
    <nd ref="1616615001"/>
    <nd ref="1616614990"/>
    <nd ref="1616614984"/>
    <nd ref="1616614968"/>
    <tag k="highway" v="residential"/>
    <tag k="name" v="Felderland Close"/>
  </way>
  <way id="168425118" version="7" timestamp="2023-11-15T10:11:08Z" changeset="144044896" uid="10599253" user="DanGlover">
    <nd ref="1796911731"/>
    <nd ref="1616614901"/>
    <nd ref="1616614902"/>
    <nd ref="6735342742"/>
    <nd ref="1925733020"/>
    <nd ref="1616614903"/>
    <nd ref="1925733023"/>
    <nd ref="1616614910"/>
    <nd ref="1616614915"/>
    <nd ref="1616614929"/>
    <nd ref="1616614931"/>
    <nd ref="1616614937"/>
    <nd ref="8599507369"/>
    <nd ref="1616614940"/>
    <nd ref="1616614946"/>
    <nd ref="1616614952"/>
    <nd ref="1616614956"/>
    <nd ref="1616614963"/>
    <nd ref="1616614975"/>
    <nd ref="1249664043"/>
    <nd ref="1616614973"/>
    <nd ref="1616614972"/>
    <nd ref="1616614977"/>
    <nd ref="1616614983"/>
    <nd ref="1616615019"/>
    <nd ref="27416220"/>
    <tag k="highway" v="tertiary"/>
    <tag k="lit" v="yes"/>
    <tag k="maxspeed" v="40 mph"/>
    <tag k="maxwidth" v="6'6&quot;"/>
    <tag k="maxwidth:conditional" v="none @ destination"/>
    <tag k="name" v="Felderland Lane"/>
    <tag k="surface" v="asphalt"/>
  </way>
  <way id="178663990" version="3" timestamp="2024-07-22T23:18:42Z" changeset="154283645" uid="5008136" user="JayTurnr">
    <nd ref="1280733652"/>
    <nd ref="1890131359"/>
    <nd ref="1890131358"/>
    <nd ref="7842884145"/>
    <nd ref="1890131357"/>
    <nd ref="12068947789"/>
    <nd ref="1890131356"/>
    <nd ref="1890131355"/>
    <tag k="highway" v="residential"/>
    <tag k="maxspeed" v="40 mph"/>
    <tag k="name" v="Deal Road"/>
  </way>
  <way id="389833917" version="6" timestamp="2024-06-11T13:13:08Z" changeset="152542969" uid="11471297" user="Palgrave Peter">
    <nd ref="3929925489"/>
    <nd ref="3929925485"/>
    <nd ref="3929925486"/>
    <nd ref="3929925488"/>
    <nd ref="3929925490"/>
    <nd ref="3929925491"/>
    <nd ref="3929925492"/>
    <nd ref="3929925489"/>
    <tag k="addr:city" v="Worth"/>
    <tag k="addr:country" v="GB"/>
    <tag k="addr:postcode" v="CT14 0DF"/>
    <tag k="addr:street" v="The Street"/>
    <tag k="amenity" v="school"/>
    <tag k="capacity" v="70"/>
    <tag k="contact:phone" v="+44 1304 612148"/>
    <tag k="contact:website" v="http://www.worthprimary.co.uk/"/>
    <tag k="fhrs:id" v="254264"/>
    <tag k="isced:level" v="1"/>
    <tag k="max_age" v="11"/>
    <tag k="min_age" v="4"/>
    <tag k="name" v="Worth Primary School"/>
    <tag k="ref:GB:uprn" v="100062620829"/>
    <tag k="ref:edubase" v="148370"/>
    <tag k="ref:edubase:group" v="17199"/>
    <tag k="school:trust" v="yes"/>
    <tag k="school:trust:name" v="Deal Education Alliance For Learning Trust"/>
    <tag k="school:trust:type" v="multi_academy"/>
    <tag k="school:type" v="academy"/>
    <tag k="wikidata" v="Q67148898"/>
  </way>
  <way id="693866960" version="1" timestamp="2019-06-01T05:11:41Z" changeset="70827981" uid="8369526" user="anilredd">
    <nd ref="6514601479"/>
    <nd ref="6514601480"/>
    <nd ref="6514601481"/>
    <nd ref="6514601482"/>
    <nd ref="6514601483"/>
    <nd ref="6514601484"/>
    <tag k="highway" v="residential"/>
  </way>
  <way id="947156249" version="2" timestamp="2021-09-03T14:43:45Z" changeset="110682330" uid="5229644" user="Nathan_A_RF">
    <nd ref="1106284420"/>
    <nd ref="1106284581"/>
    <tag k="designation" v="public_footpath"/>
    <tag k="foot" v="permissive"/>
    <tag k="highway" v="unclassified"/>
    <tag k="name" v="Princes Drive"/>
    <tag k="source" v="Bing"/>
    <tag k="source:name" v="OS_OpenData_Locator"/>
    <tag k="toll" v="yes"/>
    <tag k="toll:bicycle" v="no"/>
  </way>
  <way id="979347832" version="1" timestamp="2021-09-03T14:43:45Z" changeset="110682330" uid="5229644" user="Nathan_A_RF">
    <nd ref="9060462694"/>
    <nd ref="556786376"/>
    <nd ref="27411054"/>
    <nd ref="556786375"/>
    <nd ref="556786374"/>
    <nd ref="556786373"/>
    <nd ref="27411055"/>
    <tag k="bicycle" v="permissive"/>
    <tag k="highway" v="unclassified"/>
    <tag k="lit" v="no"/>
    <tag k="maxspeed" v="30 mph"/>
    <tag k="surface" v="asphalt"/>
  </way>
  <way id="979347833" version="1" timestamp="2021-09-03T14:43:45Z" changeset="110682330" uid="5229644" user="Nathan_A_RF">
    <nd ref="27411053"/>
    <nd ref="9060462694"/>
    <tag k="bicycle" v="permissive"/>
    <tag k="highway" v="unclassified"/>
    <tag k="lit" v="no"/>
    <tag k="maxspeed" v="30 mph"/>
    <tag k="surface" v="asphalt"/>
    <tag k="toll" v="yes"/>
    <tag k="toll:bicycle" v="no"/>
  </way>
  <way id="1077491506" version="3" timestamp="2023-12-28T18:16:10Z" changeset="145632024" uid="5229644" user="Nathan_A_RF">
    <nd ref="1277076429"/>
    <nd ref="1277076399"/>
    <nd ref="1277076411"/>
    <nd ref="1277076398"/>
    <nd ref="1277076408"/>
    <tag k="highway" v="trunk"/>
    <tag k="junction" v="roundabout"/>
    <tag k="maxspeed" v="60 mph"/>
    <tag k="maxspeed:type" v="GB:nsl_single"/>
  </way>
  <way id="1077491508" version="2" timestamp="2023-12-28T18:16:10Z" changeset="145632024" uid="5229644" user="Nathan_A_RF">
    <nd ref="1277076422"/>
    <nd ref="1277076385"/>
    <nd ref="1277076392"/>
    <nd ref="1277076402"/>
    <nd ref="1277076400"/>
    <nd ref="1277076405"/>
    <tag k="highway" v="trunk"/>
    <tag k="junction" v="roundabout"/>
    <tag k="maxspeed" v="60 mph"/>
    <tag k="maxspeed:type" v="GB:nsl_single"/>
  </way>
  <way id="1177974840" version="2" timestamp="2023-12-28T18:16:10Z" changeset="145632024" uid="5229644" user="Nathan_A_RF">
    <nd ref="1277076408"/>
    <nd ref="1277076422"/>
    <tag k="highway" v="trunk"/>
    <tag k="junction" v="roundabout"/>
    <tag k="maxspeed" v="60 mph"/>
    <tag k="maxspeed:type" v="GB:nsl_single"/>
  </way>
  <way id="1279870760" version="1" timestamp="2024-05-05T10:52:16Z" changeset="150914376" uid="19880472" user="aknight22">
    <nd ref="408623"/>
    <nd ref="298686802"/>
    <tag k="highway" v="primary"/>
    <tag k="maxspeed" v="40 mph"/>
    <tag k="name" v="Deal Road"/>
    <tag k="ref" v="A258"/>
  </way>
  <way id="1291320590" version="2" timestamp="2024-07-15T19:43:31Z" changeset="153987359" uid="493595" user="Yorvik Prestigitator">
    <nd ref="298686801"/>
    <nd ref="11972124247"/>
    <nd ref="11972124246"/>
    <nd ref="12056036392"/>
    <nd ref="11972124245"/>
    <nd ref="11972124244"/>
    <tag k="highway" v="tertiary"/>
    <tag k="lcn" v="proposed"/>
    <tag k="maxspeed" v="30 mph"/>
    <tag k="name" v="The Street"/>
    <tag k="sidewalk" v="no"/>
  </way>
  <way id="1310870678" version="1" timestamp="2024-08-24T15:22:32Z" changeset="155701899" uid="11471297" user="Palgrave Peter">
    <nd ref="12134062068"/>
    <nd ref="1616614887"/>
    <nd ref="1616614891"/>
    <nd ref="1753523046"/>
    <nd ref="1616614894"/>
    <nd ref="408612"/>
    <tag k="highway" v="unclassified"/>
    <tag k="lcn" v="proposed"/>
    <tag k="name" v="Hay Lane"/>
    <tag k="source:name" v="OS_OpenData_Locator"/>
  </way>

</osm>
