<?xml version="1.0" encoding="UTF-8"?>
<osm version="0.6" generator="Overpass API 0.7.62.5 1bd436f1">
<note>The data included in this document is from www.openstreetmap.org. The data is made available under ODbL.</note>
<meta osm_base="2025-05-18T04:32:30Z" areas="2024-12-31T00:49:33Z"/>

  <node id="21518305" lat="53.4459846" lon="10.0341905" version="7" timestamp="2019-04-12T21:36:10Z" changeset="69164374" uid="1913655" user="hotteliene"/>
  <node id="26359674" lat="53.4452852" lon="10.0063162" version="7" timestamp="2020-08-01T21:52:46Z" changeset="88825792" uid="3619264" user="Bahntech"/>
  <node id="243761062" lat="53.4387823" lon="10.0305174" version="2" timestamp="2019-08-06T20:50:51Z" changeset="73084443" uid="1913655" user="hotteliene"/>
  <node id="288012709" lat="53.4274079" lon="10.0289672" version="3" timestamp="2014-05-26T10:06:54Z" changeset="22559264" uid="40595" user="friesede"/>
  <node id="288035266" lat="53.4347216" lon="10.0191794" version="6" timestamp="2022-12-14T04:18:48Z" changeset="130057383" uid="11211647" user="wermak"/>
  <node id="291166547" lat="53.4507770" lon="10.0237856" version="3" timestamp="2013-12-23T10:50:23Z" changeset="19597757" uid="40595" user="friesede"/>
  <node id="313858186" lat="53.4477012" lon="10.0043295" version="4" timestamp="2021-12-26T11:37:56Z" changeset="115383276" uid="1431737" user="ma-rt-in"/>
  <node id="1656096485" lat="53.4467965" lon="10.0296066" version="6" timestamp="2019-11-16T17:57:37Z" changeset="77171205" uid="1431737" user="ma-rt-in"/>
  <node id="1658682990" lat="53.4262169" lon="10.0348422" version="4" timestamp="2014-08-22T20:40:00Z" changeset="24942080" uid="50299" user="Todeskuh"/>
  <node id="1658683473" lat="53.4466799" lon="10.0293699" version="4" timestamp="2019-11-16T17:57:37Z" changeset="77171205" uid="1431737" user="ma-rt-in"/>
  <node id="1946620615" lat="53.4348719" lon="10.0193534" version="1" timestamp="2012-10-04T19:48:37Z" changeset="13365360" uid="45882" user="smarties">
    <tag k="name" v="Hamburg"/>
    <tag k="traffic_sign" v="city_limit"/>
  </node>
  <node id="2357758988" lat="53.4458934" lon="10.0341324" version="3" timestamp="2019-04-12T21:36:10Z" changeset="69164374" uid="1913655" user="hotteliene"/>
  <node id="2591282696" lat="53.4511380" lon="10.0105794" version="3" timestamp="2022-07-11T01:12:28Z" changeset="123451017" uid="1913655" user="hotteliene"/>
  <node id="2591298467" lat="53.4477800" lon="10.0226219" version="1" timestamp="2013-12-23T11:10:34Z" changeset="19597757" uid="40595" user="friesede"/>
  <node id="6236715171" lat="53.4510438" lon="10.0288677" version="1" timestamp="2019-01-25T18:18:27Z" changeset="66639755" uid="45882" user="smarties"/>
  <way id="4088935" version="13" timestamp="2021-08-08T14:39:39Z" changeset="109349148" uid="13023339" user="Ari_ane">
    <nd ref="26359675"/>
    <nd ref="1425288206"/>
    <nd ref="313858184"/>
    <nd ref="313858186"/>
    <tag k="bicycle" v="yes"/>
    <tag k="class:bicycle" v="2"/>
    <tag k="highway" v="unclassified"/>
    <tag k="incline" v="0%"/>
    <tag k="lit" v="no"/>
    <tag k="name" v="Hörstener Straße"/>
    <tag k="smoothness" v="intermediate"/>
    <tag k="surface" v="asphalt"/>
    <tag k="traffic_sign" v="DE:250,1020-12"/>
    <tag k="vehicle" v="destination"/>
  </way>
  <way id="25213366" version="9" timestamp="2016-09-09T12:47:08Z" changeset="42024112" uid="3275044" user="Capsicum666">
    <nd ref="21518305"/>
    <nd ref="2357758988"/>
    <tag k="highway" v="unclassified"/>
    <tag k="name" v="Alter Damm"/>
    <tag k="surface" v="asphalt"/>
  </way>
  <way id="26292341" version="10" timestamp="2022-10-27T10:44:03Z" changeset="128123002" uid="14001942" user="renekost">
    <nd ref="26359674"/>
    <nd ref="7776416039"/>
    <nd ref="3567220232"/>
    <nd ref="307458229"/>
    <nd ref="26359675"/>
    <tag k="highway" v="unclassified"/>
    <tag k="name" v="Wasmerstraße"/>
    <tag k="oneway" v="no"/>
    <tag k="smoothness" v="good"/>
    <tag k="surface" v="asphalt"/>
  </way>
  <way id="26561112" version="6" timestamp="2024-07-07T09:26:58Z" changeset="153652936" uid="385585" user="ggtkgv">
    <nd ref="291166547"/>
    <nd ref="464370865"/>
    <nd ref="291166548"/>
    <nd ref="291166549"/>
    <nd ref="291166550"/>
    <nd ref="291166551"/>
    <tag k="foot" v="yes"/>
    <tag k="highway" v="residential"/>
    <tag k="lane_markings" v="no"/>
    <tag k="name" v="Brammerhäger Damm"/>
    <tag k="surface" v="asphalt"/>
  </way>
  <way id="28000243" version="13" timestamp="2022-12-14T04:18:48Z" changeset="130057383" uid="11211647" user="wermak">
    <nd ref="288035266"/>
    <nd ref="10261661803"/>
    <tag k="bridge" v="yes"/>
    <tag k="cycleway:both" v="no"/>
    <tag k="highway" v="unclassified"/>
    <tag k="lane_markings" v="no"/>
    <tag k="layer" v="1"/>
    <tag k="lit" v="yes"/>
    <tag k="maxaxleload" v="10"/>
    <tag k="maxspeed:type" v="DE:urban"/>
    <tag k="name" v="Wagenwerkweg"/>
    <tag k="sidewalk" v="both"/>
    <tag k="surface" v="asphalt"/>
  </way>
  <way id="28296850" version="5" timestamp="2017-11-10T08:30:06Z" changeset="53660099" uid="507893" user="wsoroe">
    <nd ref="2591298487"/>
    <nd ref="2591298508"/>
    <tag k="highway" v="unclassified"/>
    <tag k="maxspeed" v="30"/>
    <tag k="name" v="Kanzlershofer Weg"/>
  </way>
  <way id="28982708" version="6" timestamp="2025-04-22T09:01:59Z" changeset="165273828" uid="75623" user="KTim">
    <nd ref="243761062"/>
    <nd ref="6689713470"/>
    <nd ref="288004171"/>
    <nd ref="1425288178"/>
    <nd ref="243761061"/>
    <nd ref="318694288"/>
    <nd ref="6689713464"/>
    <nd ref="6689713463"/>
    <nd ref="318694285"/>
    <nd ref="6689713465"/>
    <nd ref="6689713466"/>
    <nd ref="6689713467"/>
    <nd ref="6689713468"/>
    <nd ref="6689713469"/>
    <nd ref="244010525"/>
    <tag k="highway" v="unclassified"/>
    <tag k="surface" v="paved"/>
  </way>
  <way id="28982709" version="7" timestamp="2025-04-22T09:06:10Z" changeset="165274005" uid="75623" user="KTim">
    <nd ref="318694287"/>
    <nd ref="6689713462"/>
    <nd ref="318694285"/>
    <tag k="highway" v="unclassified"/>
    <tag k="surface" v="paved"/>
  </way>
  <way id="38782313" version="15" timestamp="2023-04-17T20:02:58Z" changeset="135030914" uid="14001942" user="renekost">
    <nd ref="2591282696"/>
    <nd ref="2591282728"/>
    <nd ref="5722431349"/>
    <nd ref="9366903401"/>
    <nd ref="7809671632"/>
    <nd ref="2591282691"/>
    <nd ref="2591282717"/>
    <nd ref="2591282732"/>
    <tag k="cycleway:both" v="no"/>
    <tag k="highway" v="tertiary"/>
    <tag k="lane_markings" v="no"/>
    <tag k="maxspeed" v="50"/>
    <tag k="name" v="Großmoordamm"/>
    <tag k="sidewalk" v="right"/>
    <tag k="sidewalk:right:surface" v="paving_stones"/>
    <tag k="sidewalk:right:width" v="1.5"/>
    <tag k="smoothness" v="good"/>
    <tag k="surface" v="asphalt"/>
  </way>
  <way id="38782327" version="12" timestamp="2021-12-26T11:37:56Z" changeset="115383276" uid="1431737" user="ma-rt-in">
    <nd ref="313858186"/>
    <nd ref="26359676"/>
    <nd ref="2398185491"/>
    <nd ref="26359677"/>
    <nd ref="1883431042"/>
    <nd ref="26359678"/>
    <nd ref="5733830007"/>
    <nd ref="5733830008"/>
    <nd ref="5733830009"/>
    <nd ref="5733830011"/>
    <nd ref="5733830010"/>
    <nd ref="26359682"/>
    <nd ref="5733830121"/>
    <nd ref="5733830122"/>
    <nd ref="5733830123"/>
    <nd ref="26359683"/>
    <tag k="bicycle" v="yes"/>
    <tag k="class:bicycle" v="2"/>
    <tag k="highway" v="unclassified"/>
    <tag k="incline" v="0%"/>
    <tag k="lane_markings" v="no"/>
    <tag k="lit" v="no"/>
    <tag k="maxspeed" v="50"/>
    <tag k="name" v="Hörstener Straße"/>
    <tag k="smoothness" v="good"/>
    <tag k="surface" v="asphalt"/>
    <tag k="traffic_sign" v="DE:250,1020-12"/>
    <tag k="vehicle" v="destination"/>
  </way>
  <way id="152832964" version="16" timestamp="2025-03-28T15:53:11Z" changeset="164214235" uid="12917251" user="rs_mapping">
    <nd ref="1656096485"/>
    <nd ref="1656096498"/>
    <nd ref="2256122536"/>
    <nd ref="2243150727"/>
    <nd ref="2243150772"/>
    <nd ref="6236715169"/>
    <nd ref="2243150777"/>
    <tag k="bdouble" v="yes"/>
    <tag k="highway" v="motorway"/>
    <tag k="int_ref" v="E 22"/>
    <tag k="lanes" v="3"/>
    <tag k="lit" v="no"/>
    <tag k="loc_name" v="Hansalinie"/>
    <tag k="maxspeed" v="120"/>
    <tag k="maxspeed:variable" v="peak_traffic"/>
    <tag k="note:name" v="Der reg_name, sowie ggf. der loc_name sind dem zugehörigen Wikipediaartikel entnommen."/>
    <tag k="oneway" v="yes"/>
    <tag k="ref" v="A 1"/>
    <tag k="source" v="GPS and Videomapping"/>
    <tag k="surface" v="asphalt"/>
  </way>
  <way id="153142346" version="12" timestamp="2025-03-28T15:53:11Z" changeset="164214235" uid="12917251" user="rs_mapping">
    <nd ref="1658682990"/>
    <nd ref="1658683010"/>
    <nd ref="1658683048"/>
    <nd ref="1658683069"/>
    <nd ref="3035687668"/>
    <nd ref="1658683102"/>
    <nd ref="2243150701"/>
    <nd ref="2243150706"/>
    <nd ref="2256122528"/>
    <nd ref="2243150717"/>
    <nd ref="2256122532"/>
    <nd ref="2256122534"/>
    <nd ref="2243150792"/>
    <tag k="bdouble" v="yes"/>
    <tag k="highway" v="motorway"/>
    <tag k="int_ref" v="E 22"/>
    <tag k="lanes" v="3"/>
    <tag k="lit" v="no"/>
    <tag k="loc_name" v="Hansalinie"/>
    <tag k="maxheight" v="default"/>
    <tag k="maxspeed" v="120"/>
    <tag k="note:name" v="Der reg_name, sowie ggf. der loc_name sind dem zugehörigen Wikipediaartikel entnommen."/>
    <tag k="oneway" v="yes"/>
    <tag k="ref" v="A 1"/>
    <tag k="source" v="GPS and Videomapping"/>
    <tag k="surface" v="asphalt"/>
  </way>
  <way id="153142349" version="9" timestamp="2025-03-28T15:53:11Z" changeset="164214235" uid="12917251" user="rs_mapping">
    <nd ref="1658683486"/>
    <nd ref="1656096485"/>
    <tag k="bdouble" v="yes"/>
    <tag k="bridge" v="yes"/>
    <tag k="highway" v="motorway"/>
    <tag k="int_ref" v="E 22"/>
    <tag k="lanes" v="3"/>
    <tag k="layer" v="1"/>
    <tag k="lit" v="no"/>
    <tag k="loc_name" v="Hansalinie"/>
    <tag k="maxspeed" v="120"/>
    <tag k="maxspeed:variable" v="peak_traffic"/>
    <tag k="note" v="Brückennummer 488"/>
    <tag k="note:name" v="Der reg_name, sowie ggf. der loc_name sind dem zugehörigen Wikipediaartikel entnommen."/>
    <tag k="oneway" v="yes"/>
    <tag k="ref" v="A 1"/>
    <tag k="source" v="GPS and Videomapping"/>
    <tag k="surface" v="asphalt"/>
  </way>
  <way id="153142353" version="6" timestamp="2025-03-28T15:53:11Z" changeset="164214235" uid="12917251" user="rs_mapping">
    <nd ref="1656096486"/>
    <nd ref="1658683473"/>
    <tag k="bdouble" v="yes"/>
    <tag k="bridge" v="yes"/>
    <tag k="highway" v="motorway"/>
    <tag k="int_ref" v="E 22"/>
    <tag k="lanes" v="3"/>
    <tag k="layer" v="1"/>
    <tag k="lit" v="no"/>
    <tag k="loc_name" v="Hansalinie"/>
    <tag k="maxspeed" v="120"/>
    <tag k="note" v="Brückennummer 488"/>
    <tag k="note:name" v="Der reg_name, sowie ggf. der loc_name sind dem zugehörigen Wikipediaartikel entnommen."/>
    <tag k="oneway" v="yes"/>
    <tag k="ref" v="A 1"/>
    <tag k="source" v="GPS and Videomapping"/>
    <tag k="surface" v="asphalt"/>
  </way>
  <way id="153142363" version="7" timestamp="2025-03-28T15:53:11Z" changeset="164214235" uid="12917251" user="rs_mapping">
    <nd ref="1658683473"/>
    <nd ref="1658683458"/>
    <tag k="bdouble" v="yes"/>
    <tag k="highway" v="motorway"/>
    <tag k="int_ref" v="E 22"/>
    <tag k="lanes" v="3"/>
    <tag k="lit" v="no"/>
    <tag k="loc_name" v="Hansalinie"/>
    <tag k="maxspeed" v="120"/>
    <tag k="note:name" v="Der reg_name, sowie ggf. der loc_name sind dem zugehörigen Wikipediaartikel entnommen."/>
    <tag k="oneway" v="yes"/>
    <tag k="ref" v="A 1"/>
    <tag k="source" v="GPS and Videomapping"/>
    <tag k="surface" v="asphalt"/>
  </way>
  <way id="167004298" version="3" timestamp="2019-01-10T09:19:54Z" changeset="66188232" uid="13861" user="Abendstund">
    <nd ref="1783975305"/>
    <nd ref="1783975311"/>
    <nd ref="1783975308"/>
    <nd ref="1783975318"/>
    <nd ref="1783975305"/>
    <tag k="addr:housenumber" v="253"/>
    <tag k="addr:street" v="Großmoordamm"/>
    <tag k="building" v="yes"/>
    <tag k="roof:material" v="thatch"/>
  </way>
  <way id="167004299" version="2" timestamp="2016-03-02T10:53:55Z" changeset="37563769" uid="578473" user="cassy">
    <nd ref="1783975329"/>
    <nd ref="1783975286"/>
    <nd ref="1783975333"/>
    <nd ref="1783975328"/>
    <nd ref="1783975329"/>
    <tag k="addr:housenumber" v="254"/>
    <tag k="addr:street" v="Großmoordamm"/>
    <tag k="building" v="yes"/>
  </way>
  <way id="167004305" version="2" timestamp="2016-03-02T10:53:55Z" changeset="37563769" uid="578473" user="cassy">
    <nd ref="1783975301"/>
    <nd ref="1783975300"/>
    <nd ref="1783975296"/>
    <nd ref="1783975293"/>
    <nd ref="1783975291"/>
    <nd ref="1783975292"/>
    <nd ref="1783975301"/>
    <tag k="addr:housenumber" v="253a"/>
    <tag k="addr:street" v="Großmoordamm"/>
    <tag k="building" v="yes"/>
  </way>
  <way id="167004307" version="2" timestamp="2018-12-11T15:41:30Z" changeset="65379939" uid="1431737" user="ma-rt-in">
    <nd ref="1783975299"/>
    <nd ref="1783975297"/>
    <nd ref="1783975306"/>
    <nd ref="1783975295"/>
    <nd ref="1783975298"/>
    <nd ref="1783975316"/>
    <nd ref="1783975299"/>
    <tag k="addr:city" v="Hamburg"/>
    <tag k="addr:country" v="DE"/>
    <tag k="addr:housenumber" v="248"/>
    <tag k="addr:postcode" v="21079"/>
    <tag k="addr:street" v="Großmoordamm"/>
    <tag k="building" v="yes"/>
  </way>
  <way id="167004308" version="2" timestamp="2016-03-02T10:53:55Z" changeset="37563769" uid="578473" user="cassy">
    <nd ref="1783975327"/>
    <nd ref="1783975320"/>
    <nd ref="1783975325"/>
    <nd ref="1783975330"/>
    <nd ref="1783975327"/>
    <tag k="addr:housenumber" v="262a"/>
    <tag k="addr:street" v="Großmoordamm"/>
    <tag k="building" v="yes"/>
  </way>
  <way id="167004309" version="2" timestamp="2016-03-02T10:53:55Z" changeset="37563769" uid="578473" user="cassy">
    <nd ref="1783975310"/>
    <nd ref="1783975319"/>
    <nd ref="1783975303"/>
    <nd ref="1783975332"/>
    <nd ref="1783975310"/>
    <tag k="addr:housenumber" v="262"/>
    <tag k="addr:street" v="Großmoordamm"/>
    <tag k="building" v="yes"/>
  </way>
  <way id="184205675" version="5" timestamp="2022-06-29T12:20:41Z" changeset="123000668" uid="10592928" user="Ralle61">
    <nd ref="244010525"/>
    <nd ref="1946620615"/>
    <tag k="cycleway:both" v="no"/>
    <tag k="highway" v="unclassified"/>
    <tag k="lane_markings" v="no"/>
    <tag k="maxspeed:type" v="DE:urban"/>
    <tag k="name" v="Seevedeich"/>
    <tag k="surface" v="asphalt"/>
  </way>
  <way id="184205676" version="6" timestamp="2021-08-08T14:26:03Z" changeset="109348659" uid="13023339" user="Ari_ane">
    <nd ref="1946620615"/>
    <nd ref="1366789532"/>
    <nd ref="26359668"/>
    <tag k="bicycle" v="yes"/>
    <tag k="class:bicycle" v="2"/>
    <tag k="highway" v="unclassified"/>
    <tag k="incline" v="0%"/>
    <tag k="lit" v="no"/>
    <tag k="maxspeed" v="30"/>
    <tag k="maxspeed:type" v="sign"/>
    <tag k="name" v="Seevedeich"/>
    <tag k="smoothness" v="good"/>
    <tag k="surface" v="asphalt"/>
  </way>
  <way id="235071636" version="6" timestamp="2023-04-17T20:02:58Z" changeset="135030914" uid="14001942" user="renekost">
    <nd ref="2431678302"/>
    <nd ref="2431678304"/>
    <tag k="cycleway" v="no"/>
    <tag k="highway" v="tertiary"/>
    <tag k="lanes" v="2"/>
    <tag k="lanes:backward" v="1"/>
    <tag k="lanes:forward" v="1"/>
    <tag k="maxheight" v="4"/>
    <tag k="maxspeed" v="50"/>
    <tag k="name" v="Großmoordamm"/>
    <tag k="sidewalk" v="right"/>
    <tag k="sidewalk:right:surface" v="paving_stones"/>
    <tag k="sidewalk:right:width" v="1.5"/>
    <tag k="smoothness" v="good"/>
    <tag k="surface" v="asphalt"/>
  </way>
  <way id="235071637" version="11" timestamp="2023-04-17T20:02:58Z" changeset="135030914" uid="14001942" user="renekost">
    <nd ref="21518305"/>
    <nd ref="2357758989"/>
    <nd ref="5722431358"/>
    <nd ref="5722431357"/>
    <nd ref="8192970703"/>
    <nd ref="2431678302"/>
    <tag k="cycleway" v="no"/>
    <tag k="highway" v="tertiary"/>
    <tag k="lanes" v="2"/>
    <tag k="lanes:backward" v="1"/>
    <tag k="lanes:forward" v="1"/>
    <tag k="maxspeed" v="50"/>
    <tag k="name" v="Großmoordamm"/>
    <tag k="sidewalk" v="right"/>
    <tag k="sidewalk:right:surface" v="paving_stones"/>
    <tag k="sidewalk:right:width" v="1.5"/>
    <tag k="smoothness" v="good"/>
    <tag k="surface" v="asphalt"/>
  </way>
  <way id="235071638" version="15" timestamp="2023-04-17T20:02:58Z" changeset="135030914" uid="14001942" user="renekost">
    <nd ref="2431678304"/>
    <nd ref="291166551"/>
    <nd ref="9028522568"/>
    <nd ref="5722431354"/>
    <nd ref="2591298487"/>
    <nd ref="2591298523"/>
    <nd ref="8716784804"/>
    <nd ref="2591298482"/>
    <nd ref="5722431352"/>
    <nd ref="2591298535"/>
    <nd ref="2591298504"/>
    <nd ref="2591298546"/>
    <nd ref="2591282722"/>
    <nd ref="2591282723"/>
    <nd ref="2591282696"/>
    <tag k="cycleway" v="no"/>
    <tag k="highway" v="tertiary"/>
    <tag k="lane_markings" v="no"/>
    <tag k="maxspeed" v="50"/>
    <tag k="name" v="Großmoordamm"/>
    <tag k="sidewalk" v="right"/>
    <tag k="sidewalk:right:surface" v="paving_stones"/>
    <tag k="sidewalk:right:width" v="1.5"/>
    <tag k="smoothness" v="good"/>
    <tag k="surface" v="asphalt"/>
  </way>
  <way id="253153603" version="2" timestamp="2018-12-11T15:41:30Z" changeset="65379939" uid="1431737" user="ma-rt-in">
    <nd ref="2591282701"/>
    <nd ref="2591282700"/>
    <nd ref="2591282709"/>
    <nd ref="2591282683"/>
    <nd ref="2591282686"/>
    <nd ref="2591282730"/>
    <nd ref="2591282701"/>
    <tag k="addr:city" v="Hamburg"/>
    <tag k="addr:country" v="DE"/>
    <tag k="addr:housenumber" v="123"/>
    <tag k="addr:postcode" v="21079"/>
    <tag k="addr:street" v="Großmoordamm"/>
    <tag k="building" v="yes"/>
  </way>
  <way id="253153605" version="3" timestamp="2021-12-26T11:37:56Z" changeset="115383276" uid="1431737" user="ma-rt-in">
    <nd ref="2591282731"/>
    <nd ref="2591282719"/>
    <nd ref="2591282724"/>
    <nd ref="2591282727"/>
    <nd ref="2591282731"/>
    <tag k="addr:city" v="Hamburg"/>
    <tag k="addr:country" v="DE"/>
    <tag k="addr:housenumber" v="122"/>
    <tag k="addr:postcode" v="21079"/>
    <tag k="addr:street" v="Großmoordamm"/>
    <tag k="building" v="commercial"/>
    <tag k="company" v="transport"/>
    <tag k="contact:email" v="hoermann@hoermann-hamburg.de"/>
    <tag k="contact:fax" v="+49 40 767374-24"/>
    <tag k="contact:phone" v="+49 40 767374-0"/>
    <tag k="contact:website" v="https://hoermann-busvermietung.de/"/>
    <tag k="name" v="Omnibusbetrieb Karlheinz Hörmann und Söhne GmbH"/>
    <tag k="office" v="company"/>
  </way>
  <way id="253153606" version="2" timestamp="2018-12-11T15:41:31Z" changeset="65379939" uid="1431737" user="ma-rt-in">
    <nd ref="2591282698"/>
    <nd ref="6130932832"/>
    <nd ref="6130932831"/>
    <nd ref="6130932830"/>
    <nd ref="6130932829"/>
    <nd ref="2591282694"/>
    <nd ref="2591282720"/>
    <nd ref="2591282725"/>
    <nd ref="2591282726"/>
    <nd ref="2591282713"/>
    <nd ref="2591282715"/>
    <nd ref="2591282688"/>
    <nd ref="2591282698"/>
    <tag k="addr:city" v="Hamburg"/>
    <tag k="addr:country" v="DE"/>
    <tag k="addr:housenumber" v="121"/>
    <tag k="addr:postcode" v="21079"/>
    <tag k="addr:street" v="Großmoordamm"/>
    <tag k="building" v="yes"/>
  </way>
  <way id="253155277" version="2" timestamp="2018-12-11T15:41:31Z" changeset="65379939" uid="1431737" user="ma-rt-in">
    <nd ref="2591298550"/>
    <nd ref="2591298507"/>
    <nd ref="2591298533"/>
    <nd ref="2591298543"/>
    <nd ref="2591298455"/>
    <nd ref="2591298462"/>
    <nd ref="2591298550"/>
    <tag k="addr:city" v="Hamburg"/>
    <tag k="addr:country" v="DE"/>
    <tag k="addr:housenumber" v="223"/>
    <tag k="addr:postcode" v="21079"/>
    <tag k="addr:street" v="Großmoordamm"/>
    <tag k="building" v="yes"/>
  </way>
  <way id="253155278" version="2" timestamp="2018-12-11T15:41:31Z" changeset="65379939" uid="1431737" user="ma-rt-in">
    <nd ref="2591298516"/>
    <nd ref="2591298461"/>
    <nd ref="2591298514"/>
    <nd ref="2591298545"/>
    <nd ref="2591298515"/>
    <nd ref="2591298552"/>
    <nd ref="6130932825"/>
    <nd ref="6130932826"/>
    <nd ref="6130932827"/>
    <nd ref="6130932828"/>
    <nd ref="2591298516"/>
    <tag k="addr:city" v="Hamburg"/>
    <tag k="addr:country" v="DE"/>
    <tag k="addr:housenumber" v="153"/>
    <tag k="addr:postcode" v="21079"/>
    <tag k="addr:street" v="Großmoordamm"/>
    <tag k="building" v="yes"/>
  </way>
  <way id="253155280" version="2" timestamp="2017-11-10T08:31:51Z" changeset="53660099" uid="507893" user="wsoroe">
    <nd ref="2591298508"/>
    <nd ref="2591298467"/>
    <tag k="highway" v="unclassified"/>
    <tag k="maxspeed" v="30"/>
    <tag k="name" v="Kanzlershofer Weg"/>
  </way>
  <way id="253155282" version="6" timestamp="2020-10-07T18:43:00Z" changeset="92128197" uid="1431737" user="ma-rt-in">
    <nd ref="2591298467"/>
    <nd ref="2591298526"/>
    <nd ref="2591298531"/>
    <nd ref="2591298460"/>
    <nd ref="2591298500"/>
    <nd ref="2591298536"/>
    <nd ref="2591298492"/>
    <nd ref="2591298472"/>
    <nd ref="2591298452"/>
    <nd ref="2591298505"/>
    <nd ref="2924769400"/>
    <nd ref="2591298522"/>
    <tag k="highway" v="unclassified"/>
    <tag k="maxspeed" v="30"/>
    <tag k="name" v="Kanzlershofer Weg"/>
    <tag k="surface" v="asphalt"/>
  </way>
  <way id="253155283" version="2" timestamp="2018-12-11T15:41:31Z" changeset="65379939" uid="1431737" user="ma-rt-in">
    <nd ref="2591298511"/>
    <nd ref="2591298496"/>
    <nd ref="2591298528"/>
    <nd ref="2591298544"/>
    <nd ref="2591298511"/>
    <tag k="addr:city" v="Hamburg"/>
    <tag k="addr:country" v="DE"/>
    <tag k="addr:housenumber" v="209"/>
    <tag k="addr:postcode" v="21079"/>
    <tag k="addr:street" v="Großmoordamm"/>
    <tag k="building" v="yes"/>
  </way>
  <way id="269141467" version="5" timestamp="2025-04-22T09:01:59Z" changeset="165273828" uid="75623" user="KTim">
    <nd ref="2357758988"/>
    <nd ref="8723756363"/>
    <nd ref="8526760051"/>
    <nd ref="2692392386"/>
    <nd ref="288008431"/>
    <nd ref="2692392390"/>
    <nd ref="2692392391"/>
    <nd ref="288008421"/>
    <nd ref="1611654016"/>
    <nd ref="288006474"/>
    <nd ref="288008451"/>
    <nd ref="4036073606"/>
    <nd ref="4036073605"/>
    <nd ref="288008423"/>
    <nd ref="1042409444"/>
    <tag k="highway" v="unclassified"/>
    <tag k="motor_vehicle" v="destination"/>
    <tag k="name" v="Alter Damm"/>
    <tag k="surface" v="asphalt"/>
  </way>
  <way id="269169685" version="5" timestamp="2022-06-29T12:20:31Z" changeset="123000601" uid="10592928" user="Ralle61">
    <nd ref="318694287"/>
    <nd ref="244010525"/>
    <tag k="class:bicycle" v="2"/>
    <tag k="cycleway:both" v="no"/>
    <tag k="highway" v="unclassified"/>
    <tag k="incline" v="0%"/>
    <tag k="lane_markings" v="no"/>
    <tag k="lit" v="no"/>
    <tag k="maxspeed" v="30"/>
    <tag k="maxweight" v="3.5"/>
    <tag k="motor_vehicle" v="no"/>
    <tag k="name" v="Seevedeich"/>
    <tag k="smoothness" v="good"/>
    <tag k="surface" v="asphalt"/>
    <tag k="traffic_sign" v="DE:260,1020-30"/>
  </way>
  <way id="352041999" version="7" timestamp="2022-06-29T12:18:45Z" changeset="123000601" uid="10592928" user="Ralle61">
    <nd ref="288012709"/>
    <nd ref="2881436942"/>
    <nd ref="288010356"/>
    <nd ref="288010357"/>
    <nd ref="1425288169"/>
    <nd ref="288010362"/>
    <nd ref="8989930093"/>
    <tag k="class:bicycle" v="2"/>
    <tag k="cycleway:both" v="no"/>
    <tag k="highway" v="unclassified"/>
    <tag k="incline" v="0%"/>
    <tag k="lane_markings" v="no"/>
    <tag k="lit" v="no"/>
    <tag k="maxspeed" v="30"/>
    <tag k="maxweight" v="3.5"/>
    <tag k="motor_vehicle" v="permissive"/>
    <tag k="name" v="Seevedeich"/>
    <tag k="oneway" v="no"/>
    <tag k="smoothness" v="intermediate"/>
    <tag k="surface" v="asphalt"/>
    <tag k="traffic_sign" v="DE:260,1020-30"/>
  </way>
  <way id="401172213" version="1" timestamp="2016-03-02T10:53:53Z" changeset="37563769" uid="578473" user="cassy">
    <nd ref="4036227135"/>
    <nd ref="4036227137"/>
    <nd ref="4036227136"/>
    <nd ref="4036227134"/>
    <nd ref="4036227135"/>
    <tag k="addr:city" v="Hamburg"/>
    <tag k="addr:country" v="DE"/>
    <tag k="addr:housenumber" v="2"/>
    <tag k="addr:postcode" v="21079"/>
    <tag k="addr:street" v="Alter Damm"/>
    <tag k="building" v="yes"/>
  </way>
  <way id="401172217" version="4" timestamp="2020-04-24T06:19:17Z" changeset="84040129" uid="507893" user="wsoroe">
    <nd ref="4036227146"/>
    <nd ref="4036227149"/>
    <nd ref="4036227148"/>
    <nd ref="4036227144"/>
    <nd ref="4036227146"/>
    <tag k="addr:city" v="Hamburg"/>
    <tag k="addr:country" v="DE"/>
    <tag k="addr:housenumber" v="276"/>
    <tag k="addr:postcode" v="21079"/>
    <tag k="addr:street" v="Großmoordamm"/>
    <tag k="addr:suburb" v="Groß-Moor"/>
    <tag k="building" v="yes"/>
  </way>
  <way id="401172218" version="1" timestamp="2016-03-02T10:53:53Z" changeset="37563769" uid="578473" user="cassy">
    <nd ref="4036227162"/>
    <nd ref="4036227154"/>
    <nd ref="4036227151"/>
    <nd ref="4036227158"/>
    <nd ref="4036227162"/>
    <tag k="addr:housenumber" v="277"/>
    <tag k="addr:street" v="Großmoordamm"/>
    <tag k="building" v="yes"/>
  </way>
  <way id="401172223" version="1" timestamp="2016-03-02T10:53:54Z" changeset="37563769" uid="578473" user="cassy">
    <nd ref="4036227127"/>
    <nd ref="4036227129"/>
    <nd ref="4036227128"/>
    <nd ref="4036227126"/>
    <nd ref="4036227127"/>
    <tag k="addr:city" v="Hamburg"/>
    <tag k="addr:country" v="DE"/>
    <tag k="addr:housenumber" v="4"/>
    <tag k="addr:postcode" v="21079"/>
    <tag k="addr:street" v="Alter Damm"/>
    <tag k="building" v="yes"/>
  </way>
  <way id="654270504" version="1" timestamp="2018-12-11T15:41:27Z" changeset="65379939" uid="1431737" user="ma-rt-in">
    <nd ref="6130932800"/>
    <nd ref="6130932799"/>
    <nd ref="6130932798"/>
    <nd ref="6130932797"/>
    <nd ref="6130932800"/>
    <tag k="addr:city" v="Hamburg"/>
    <tag k="addr:country" v="DE"/>
    <tag k="addr:housenumber" v="205"/>
    <tag k="addr:postcode" v="21079"/>
    <tag k="addr:street" v="Großmoordamm"/>
    <tag k="building" v="yes"/>
  </way>
  <way id="654270506" version="1" timestamp="2018-12-11T15:41:27Z" changeset="65379939" uid="1431737" user="ma-rt-in">
    <nd ref="6130932811"/>
    <nd ref="6130932810"/>
    <nd ref="6130932809"/>
    <nd ref="6130932808"/>
    <nd ref="6130932807"/>
    <nd ref="6130932811"/>
    <tag k="addr:city" v="Hamburg"/>
    <tag k="addr:country" v="DE"/>
    <tag k="addr:housenumber" v="187"/>
    <tag k="addr:postcode" v="21079"/>
    <tag k="addr:street" v="Großmoordamm"/>
    <tag k="building" v="yes"/>
  </way>
  <way id="654270508" version="1" timestamp="2018-12-11T15:41:27Z" changeset="65379939" uid="1431737" user="ma-rt-in">
    <nd ref="6130932824"/>
    <nd ref="6130932823"/>
    <nd ref="6130932822"/>
    <nd ref="6130932821"/>
    <nd ref="6130932820"/>
    <nd ref="6130932812"/>
    <nd ref="6130932819"/>
    <nd ref="6130932818"/>
    <nd ref="6130932817"/>
    <nd ref="6130932816"/>
    <nd ref="6130932815"/>
    <nd ref="6130932824"/>
    <tag k="addr:city" v="Hamburg"/>
    <tag k="addr:country" v="DE"/>
    <tag k="addr:housenumber" v="159"/>
    <tag k="addr:postcode" v="21079"/>
    <tag k="addr:street" v="Großmoordamm"/>
    <tag k="building" v="yes"/>
  </way>
  <way id="666153490" version="3" timestamp="2025-03-28T15:53:11Z" changeset="164214235" uid="12917251" user="rs_mapping">
    <nd ref="2243150792"/>
    <nd ref="1658683486"/>
    <tag k="bdouble" v="yes"/>
    <tag k="highway" v="motorway"/>
    <tag k="int_ref" v="E 22"/>
    <tag k="lanes" v="3"/>
    <tag k="lit" v="no"/>
    <tag k="loc_name" v="Hansalinie"/>
    <tag k="maxspeed" v="120"/>
    <tag k="maxspeed:variable" v="peak_traffic"/>
    <tag k="note:name" v="Der reg_name, sowie ggf. der loc_name sind dem zugehörigen Wikipediaartikel entnommen."/>
    <tag k="oneway" v="yes"/>
    <tag k="ref" v="A 1"/>
    <tag k="source" v="GPS and Videomapping"/>
    <tag k="surface" v="asphalt"/>
  </way>
  <way id="666153491" version="2" timestamp="2025-03-28T15:53:11Z" changeset="164214235" uid="12917251" user="rs_mapping">
    <nd ref="6236715171"/>
    <nd ref="2256122538"/>
    <nd ref="1656096497"/>
    <nd ref="1656096486"/>
    <tag k="bdouble" v="yes"/>
    <tag k="highway" v="motorway"/>
    <tag k="int_ref" v="E 22"/>
    <tag k="lanes" v="3"/>
    <tag k="lit" v="no"/>
    <tag k="loc_name" v="Hansalinie"/>
    <tag k="maxspeed" v="120"/>
    <tag k="note:name" v="Der reg_name, sowie ggf. der loc_name sind dem zugehörigen Wikipediaartikel entnommen."/>
    <tag k="oneway" v="yes"/>
    <tag k="ref" v="A 1"/>
    <tag k="source" v="GPS and Videomapping"/>
    <tag k="surface" v="asphalt"/>
  </way>
  <way id="971360293" version="4" timestamp="2025-05-04T17:18:03Z" changeset="165810801" uid="10287454" user="Ole Kröger">
    <nd ref="8989930093"/>
    <nd ref="1425288172"/>
    <nd ref="318694287"/>
    <tag k="access" v="destination"/>
    <tag k="class:bicycle" v="2"/>
    <tag k="cycleway:both" v="no"/>
    <tag k="highway" v="unclassified"/>
    <tag k="incline" v="0%"/>
    <tag k="lane_markings" v="no"/>
    <tag k="lit" v="no"/>
    <tag k="maxspeed" v="30"/>
    <tag k="maxweight" v="3.5"/>
    <tag k="motor_vehicle" v="permissive"/>
    <tag k="name" v="Seevedeich"/>
    <tag k="oneway" v="no"/>
    <tag k="smoothness" v="good"/>
    <tag k="surface" v="asphalt"/>
    <tag k="traffic_sign" v="DE:260,1020-30"/>
  </way>
  <way id="1121955424" version="1" timestamp="2022-12-14T04:18:48Z" changeset="130057383" uid="11211647" user="wermak">
    <nd ref="10261661803"/>
    <nd ref="244010525"/>
    <tag k="cycleway:both" v="no"/>
    <tag k="highway" v="unclassified"/>
    <tag k="lane_markings" v="no"/>
    <tag k="lit" v="yes"/>
    <tag k="maxaxleload" v="10"/>
    <tag k="maxspeed:type" v="DE:urban"/>
    <tag k="name" v="Wagenwerkweg"/>
    <tag k="sidewalk" v="both"/>
    <tag k="surface" v="asphalt"/>
  </way>

</osm>
