<?xml version="1.0" encoding="UTF-8"?>
<osm version="0.6" generator="Overpass API 0.7.62.5 1bd436f1">
<note>The data included in this document is from www.openstreetmap.org. The data is made available under ODbL.</note>
<meta osm_base="2025-03-24T16:04:43Z" areas="2025-02-06T02:17:44Z"/>

  <node id="977975018" lat="51.2160801" lon="1.4024792" version="5" timestamp="2020-12-01T00:19:10Z" changeset="95073687" uid="10060014" user="cebab">
    <tag k="addr:city" v="Deal"/>
    <tag k="addr:housenumber" v="61"/>
    <tag k="addr:place" v="Walmer"/>
    <tag k="addr:postcode" v="CT14 7DP"/>
    <tag k="addr:street" v="The Strand"/>
    <tag k="amenity" v="restaurant"/>
    <tag k="contact:phone" v="+44 1304 368881"/>
    <tag k="contact:website" v="http://www.whits.co.uk/"/>
    <tag k="fhrs:id" v="852608"/>
    <tag k="name" v="Eva's"/>
  </node>
  <node id="977975032" lat="51.2130991" lon="1.3998640" version="4" timestamp="2022-05-01T21:14:28Z" changeset="120435837" uid="4833194" user="motogs">
    <tag k="addr:city" v="Walmer"/>
    <tag k="addr:housenumber" v="23"/>
    <tag k="addr:postcode" v="CT14 7EQ"/>
    <tag k="addr:street" v="Canada Road"/>
    <tag k="amenity" v="pub"/>
    <tag k="craft_keg" v="yes"/>
    <tag k="fhrs:id" v="254522"/>
    <tag k="name" v="The Berry"/>
    <tag k="note" v="The sign outside still says the Green Berry but the proprietor and FHRS confirm the current name as the Berry"/>
    <tag k="old_name" v="The Green Berry"/>
    <tag k="real_ale" v="yes"/>
    <tag k="real_cider" v="yes"/>
  </node>
  <node id="1638334010" lat="51.2159797" lon="1.4024742" version="2" timestamp="2017-11-27T21:03:14Z" changeset="54132899" uid="7037" user="Gregory Williams">
    <tag k="addr:city" v="Deal"/>
    <tag k="addr:housenumber" v="59"/>
    <tag k="addr:place" v="Walmer"/>
    <tag k="addr:postcode" v="CT14 7DP"/>
    <tag k="addr:street" v="The Strand"/>
    <tag k="amenity" v="fast_food"/>
    <tag k="cuisine" v="fish_and_chips"/>
    <tag k="fhrs:id" v="459924"/>
    <tag k="name" v="Mario's Fish Bar"/>
  </node>
  <node id="1638336369" lat="51.2157092" lon="1.4024528" version="5" timestamp="2021-07-15T09:49:52Z" changeset="108038633" uid="608760" user="gregrs">
    <tag k="addr:city" v="Deal"/>
    <tag k="addr:county" v="Kent"/>
    <tag k="addr:housenumber" v="53"/>
    <tag k="addr:postcode" v="CT14 7DP"/>
    <tag k="addr:street" v="The Strand"/>
    <tag k="addr:suburb" v="Walmer"/>
    <tag k="amenity" v="restaurant"/>
    <tag k="cuisine" v="indian"/>
    <tag k="fhrs:id" v="1291400"/>
    <tag k="name" v="Bengal Spice"/>
  </node>
  <node id="3577621268" lat="51.2140437" lon="1.3975237" version="1" timestamp="2015-06-06T23:02:49Z" changeset="31778933" uid="82783" user="Paul The Archivist">
    <tag k="addr:housenumber" v="87"/>
    <tag k="addr:street" v="Canada Road"/>
  </node>
  <node id="8179723105" lat="51.2194267" lon="1.4022549" version="3" timestamp="2022-07-14T23:19:36Z" changeset="123628691" uid="251543" user="ChrissW-R1">
    <tag k="addr:city" v="Deal"/>
    <tag k="addr:country" v="GB"/>
    <tag k="addr:housename" v="The Gallery, The Captains Garden"/>
    <tag k="addr:street" v="Victoria Road"/>
    <tag k="contact:email" v="info@thegreenandfound.com"/>
    <tag k="contact:mobile" v="+44 7895 725778"/>
    <tag k="contact:phone" v="+44 1304 373907"/>
    <tag k="contact:website" v="https://www.thegreenandfound.com"/>
    <tag k="contact:whatsapp" v="+44 7895 725778"/>
    <tag k="name" v="The Green and Found"/>
    <tag k="opening_hours" v="We-Su 10:00-18:00"/>
    <tag k="operator" v="Adolfo &amp; James"/>
    <tag k="tourism" v="gallery"/>
  </node>
  <node id="8181376321" lat="51.2160594" lon="1.4024745" version="3" timestamp="2021-07-15T09:49:52Z" changeset="108038633" uid="608760" user="gregrs">
    <tag k="addr:city" v="Deal"/>
    <tag k="addr:county" v="Kent"/>
    <tag k="addr:housenumber" v="61"/>
    <tag k="addr:postcode" v="CT14 7DP"/>
    <tag k="addr:street" v="The Strand"/>
    <tag k="addr:suburb" v="Walmer"/>
    <tag k="fhrs:id" v="1334942"/>
    <tag k="name" v="Pomegranate"/>
    <tag k="opening_hours" v="We-Sa"/>
    <tag k="phone" v="+44 1304 368656"/>
    <tag k="shop" v="deli"/>
    <tag k="website" v="https://www.pomegranatedeal.com/"/>
  </node>
  <node id="8225163124" lat="51.2154625" lon="1.4018385" version="1" timestamp="2020-12-13T18:28:16Z" changeset="95766399" uid="10060014" user="cebab">
    <tag k="addr:city" v="Deal"/>
    <tag k="addr:housenumber" v="5"/>
    <tag k="addr:postcode" v="CT14 7DS"/>
    <tag k="addr:street" v="North Barrack Road"/>
    <tag k="name" v="Keith Chadwick"/>
    <tag k="phone" v="+44 7306 380395"/>
    <tag k="shop" v="hairdresser"/>
  </node>
  <node id="8225163125" lat="51.2156557" lon="1.4019458" version="1" timestamp="2020-12-13T18:28:16Z" changeset="95766399" uid="10060014" user="cebab">
    <tag k="addr:city" v="Deal"/>
    <tag k="addr:housenumber" v="1"/>
    <tag k="addr:postcode" v="CT14 7DS"/>
    <tag k="addr:street" v="North Barrack Road"/>
    <tag k="name" v="Autobase"/>
    <tag k="phone" v="+44 1304 374444"/>
    <tag k="shop" v="bicycle"/>
    <tag k="website" v="https://autobasekent.co.uk/"/>
  </node>
  <node id="8225163126" lat="51.2157986" lon="1.4017044" version="1" timestamp="2020-12-13T18:28:16Z" changeset="95766399" uid="10060014" user="cebab">
    <tag k="addr:city" v="Deal"/>
    <tag k="addr:housenumber" v="1"/>
    <tag k="addr:postcode" v="CT14 7DS"/>
    <tag k="addr:street" v="North Barrack Road"/>
    <tag k="name" v="Autobase"/>
    <tag k="operator" v="Autobase"/>
    <tag k="phone" v="+44 1304 374444"/>
    <tag k="shop" v="car_repair"/>
    <tag k="website" v="https://autobasekent.co.uk/"/>
  </node>
  <node id="8225163127" lat="51.2162606" lon="1.4003848" version="1" timestamp="2020-12-13T18:28:16Z" changeset="95766399" uid="10060014" user="cebab">
    <tag k="addr:city" v="Deal"/>
    <tag k="addr:housenumber" v="36"/>
    <tag k="addr:postcode" v="CT14 7DU"/>
    <tag k="addr:street" v="North Barrack Road"/>
    <tag k="email" v="walmerbatteries@hotmail.com"/>
    <tag k="name" v="Walmer Batteries &amp; Signs"/>
    <tag k="phone" v="+44 1304 372164"/>
    <tag k="shop" v="car_parts"/>
    <tag k="website" v="https://www.walmerbatteries.co.uk/"/>
  </node>
  <way id="22947067" version="11" timestamp="2023-08-02T07:45:50Z" changeset="139332587" uid="8774347" user="Misa_zumba">
    <nd ref="249190182"/>
    <nd ref="249190180"/>
    <nd ref="249190125"/>
    <nd ref="249190123"/>
    <nd ref="249190095"/>
    <nd ref="249186057"/>
    <nd ref="249190024"/>
    <nd ref="11082768737"/>
    <nd ref="247230490"/>
    <tag k="cycleway:both" v="no"/>
    <tag k="highway" v="residential"/>
    <tag k="lane_markings" v="no"/>
    <tag k="lit" v="yes"/>
    <tag k="maxspeed" v="30 mph"/>
    <tag k="name" v="Mayers Road"/>
    <tag k="sidewalk" v="both"/>
    <tag k="source" v="survey"/>
    <tag k="surface" v="asphalt"/>
  </way>
  <way id="22997620" version="10" timestamp="2021-09-04T01:24:07Z" changeset="110699912" uid="5229644" user="Nathan_A_RF">
    <nd ref="247929788"/>
    <nd ref="9061349330"/>
    <nd ref="247929818"/>
    <nd ref="247929805"/>
    <nd ref="247929825"/>
    <nd ref="9061349328"/>
    <nd ref="247929826"/>
    <tag k="abutters" v="residential"/>
    <tag k="cycleway:both" v="no"/>
    <tag k="highway" v="tertiary"/>
    <tag k="lane_markings" v="no"/>
    <tag k="lit" v="yes"/>
    <tag k="maxspeed" v="30 mph"/>
    <tag k="name" v="Gilford Road"/>
    <tag k="sidewalk" v="both"/>
    <tag k="surface" v="asphalt"/>
  </way>
  <way id="22998076" version="9" timestamp="2024-07-22T22:59:16Z" changeset="154283345" uid="5008136" user="JayTurnr">
    <nd ref="247933935"/>
    <nd ref="12068919247"/>
    <nd ref="249193703"/>
    <nd ref="12068919245"/>
    <nd ref="12068919246"/>
    <nd ref="247229113"/>
    <nd ref="249193749"/>
    <nd ref="7148231992"/>
    <nd ref="12068943090"/>
    <nd ref="33452631"/>
    <tag k="highway" v="secondary"/>
    <tag k="maxspeed" v="30 mph"/>
    <tag k="name" v="Cornwall Road"/>
    <tag k="ref" v="B2056"/>
    <tag k="source" v="survey"/>
  </way>
  <way id="22998299" version="3" timestamp="2012-03-14T08:06:17Z" changeset="10975181" uid="7037" user="Gregory Williams">
    <nd ref="247935942"/>
    <nd ref="247935941"/>
    <tag k="highway" v="residential"/>
    <tag k="maxspeed" v="30 mph"/>
    <tag k="name" v="Gladstone Road"/>
  </way>
  <way id="22998300" version="5" timestamp="2021-09-04T01:24:07Z" changeset="110699912" uid="5229644" user="Nathan_A_RF">
    <nd ref="247935942"/>
    <nd ref="247935943"/>
    <nd ref="247935944"/>
    <nd ref="7984410152"/>
    <nd ref="247935945"/>
    <nd ref="247935946"/>
    <nd ref="1674313967"/>
    <nd ref="247935947"/>
    <nd ref="247935948"/>
    <nd ref="247935949"/>
    <nd ref="247935950"/>
    <nd ref="9061349329"/>
    <nd ref="247929825"/>
    <tag k="highway" v="residential"/>
    <tag k="lit" v="yes"/>
    <tag k="maxspeed" v="30 mph"/>
    <tag k="name" v="Blenheim Road"/>
    <tag k="sidewalk" v="both"/>
    <tag k="surface" v="asphalt"/>
  </way>
  <way id="22998301" version="4" timestamp="2021-09-04T01:24:07Z" changeset="110699912" uid="5229644" user="Nathan_A_RF">
    <nd ref="247935942"/>
    <nd ref="247935953"/>
    <nd ref="247935951"/>
    <nd ref="247935952"/>
    <nd ref="247935954"/>
    <nd ref="247935955"/>
    <tag k="hgv" v="discouraged"/>
    <tag k="highway" v="residential"/>
    <tag k="lit" v="yes"/>
    <tag k="maxspeed" v="30 mph"/>
    <tag k="name" v="Gladstone Road"/>
    <tag k="sidewalk" v="left"/>
    <tag k="surface" v="asphalt"/>
  </way>
  <way id="22998302" version="2" timestamp="2012-03-14T08:06:18Z" changeset="10975181" uid="7037" user="Gregory Williams">
    <nd ref="247935946"/>
    <nd ref="247935957"/>
    <tag k="highway" v="residential"/>
    <tag k="maxspeed" v="30 mph"/>
    <tag k="name" v="Granville Street"/>
  </way>
  <way id="22998303" version="2" timestamp="2012-03-14T08:06:19Z" changeset="10975181" uid="7037" user="Gregory Williams">
    <nd ref="247935957"/>
    <nd ref="247935958"/>
    <tag k="highway" v="residential"/>
    <tag k="maxspeed" v="30 mph"/>
    <tag k="name" v="Orchard Mews"/>
  </way>
  <way id="22998304" version="2" timestamp="2012-03-14T08:06:20Z" changeset="10975181" uid="7037" user="Gregory Williams">
    <nd ref="247935945"/>
    <nd ref="247935959"/>
    <nd ref="1674313962"/>
    <nd ref="1674313959"/>
    <nd ref="247935960"/>
    <tag k="highway" v="residential"/>
    <tag k="maxspeed" v="30 mph"/>
    <tag k="name" v="Ravenscourt Road"/>
  </way>
  <way id="22998305" version="2" timestamp="2012-03-14T08:06:13Z" changeset="10975181" uid="7037" user="Gregory Williams">
    <nd ref="247935940"/>
    <nd ref="247935963"/>
    <nd ref="247935965"/>
    <tag k="highway" v="residential"/>
    <tag k="maxspeed" v="30 mph"/>
    <tag k="name" v="Bamford Way"/>
  </way>
  <way id="22998306" version="2" timestamp="2012-03-14T08:06:19Z" changeset="10975181" uid="7037" user="Gregory Williams">
    <nd ref="247935963"/>
    <nd ref="247935966"/>
    <nd ref="247935967"/>
    <tag k="highway" v="residential"/>
    <tag k="maxspeed" v="30 mph"/>
    <tag k="name" v="Maxwell Place"/>
  </way>
  <way id="22998307" version="3" timestamp="2012-03-14T08:06:19Z" changeset="10975181" uid="7037" user="Gregory Williams">
    <nd ref="247935966"/>
    <nd ref="247935968"/>
    <tag k="highway" v="residential"/>
    <tag k="maxspeed" v="30 mph"/>
    <tag k="name" v="Maxwell Place"/>
  </way>
  <way id="22998308" version="2" timestamp="2012-03-14T08:06:16Z" changeset="10975181" uid="7037" user="Gregory Williams">
    <nd ref="247935969"/>
    <nd ref="247935970"/>
    <nd ref="247935971"/>
    <nd ref="247935965"/>
    <nd ref="247935972"/>
    <nd ref="247935973"/>
    <tag k="highway" v="residential"/>
    <tag k="maxspeed" v="30 mph"/>
    <tag k="name" v="Drew Lane"/>
  </way>
  <way id="22998309" version="2" timestamp="2012-03-14T08:06:17Z" changeset="10975181" uid="7037" user="Gregory Williams">
    <nd ref="247935974"/>
    <nd ref="247935973"/>
    <nd ref="247935976"/>
    <nd ref="247935977"/>
    <nd ref="247935978"/>
    <tag k="highway" v="residential"/>
    <tag k="maxspeed" v="30 mph"/>
    <tag k="name" v="Finch Mews"/>
  </way>
  <way id="22998310" version="3" timestamp="2012-03-14T08:06:17Z" changeset="10975181" uid="7037" user="Gregory Williams">
    <nd ref="247935979"/>
    <nd ref="247935977"/>
    <tag k="highway" v="residential"/>
    <tag k="maxspeed" v="30 mph"/>
    <tag k="name" v="Finch Mews"/>
  </way>
  <way id="22998311" version="3" timestamp="2012-03-14T08:06:16Z" changeset="10975181" uid="7037" user="Gregory Williams">
    <nd ref="247935980"/>
    <nd ref="247935976"/>
    <tag k="highway" v="residential"/>
    <tag k="maxspeed" v="30 mph"/>
    <tag k="name" v="Finch Mews"/>
  </way>
  <way id="22998312" version="3" timestamp="2012-03-14T08:06:14Z" changeset="10975181" uid="7037" user="Gregory Williams">
    <nd ref="247935970"/>
    <nd ref="247935982"/>
    <nd ref="247935983"/>
    <tag k="highway" v="residential"/>
    <tag k="maxspeed" v="30 mph"/>
    <tag k="name" v="Chater Court"/>
    <tag k="not:name" v="Chater Close"/>
  </way>
  <way id="22998313" version="4" timestamp="2012-03-14T08:06:14Z" changeset="10975181" uid="7037" user="Gregory Williams">
    <nd ref="247935984"/>
    <nd ref="247935982"/>
    <tag k="highway" v="residential"/>
    <tag k="maxspeed" v="30 mph"/>
    <tag k="name" v="Chater Court"/>
    <tag k="not:name" v="Chater Close"/>
  </way>
  <way id="22998314" version="2" timestamp="2012-03-14T08:06:17Z" changeset="10975181" uid="7037" user="Gregory Williams">
    <nd ref="247935938"/>
    <nd ref="247935985"/>
    <tag k="highway" v="residential"/>
    <tag k="maxspeed" v="30 mph"/>
    <tag k="name" v="Gladstone Road"/>
    <tag k="note" v="old_name is a guess based upon old-looking name on the side of the houses about halfway along the road."/>
    <tag k="old_name" v="Thornberry Terrace"/>
  </way>
  <way id="22998315" version="3" timestamp="2024-01-13T18:42:27Z" changeset="146223623" uid="54831" user="Mex">
    <nd ref="247935937"/>
    <nd ref="11514457560"/>
    <nd ref="247935986"/>
    <tag k="highway" v="residential"/>
    <tag k="maxspeed" v="30 mph"/>
    <tag k="name" v="Woodstock Road"/>
  </way>
  <way id="22998575" version="9" timestamp="2021-09-12T14:28:20Z" changeset="111098972" uid="1867429" user="James_Griffiths">
    <nd ref="33452624"/>
    <nd ref="9084120386"/>
    <nd ref="1181940806"/>
    <nd ref="252690449"/>
    <nd ref="252691876"/>
    <nd ref="252692442"/>
    <nd ref="252691877"/>
    <nd ref="8894011154"/>
    <nd ref="252691878"/>
    <nd ref="252690448"/>
    <nd ref="959317612"/>
    <tag k="highway" v="unclassified"/>
    <tag k="maxspeed" v="30 mph"/>
    <tag k="name" v="Marine Road"/>
  </way>
  <way id="22998584" version="2" timestamp="2012-03-14T08:06:15Z" changeset="10975181" uid="7037" user="Gregory Williams">
    <nd ref="247939039"/>
    <nd ref="247939074"/>
    <tag k="highway" v="residential"/>
    <tag k="maxspeed" v="30 mph"/>
    <tag k="name" v="Cheriton Place"/>
  </way>
  <way id="22998585" version="2" timestamp="2012-03-14T08:06:21Z" changeset="10975181" uid="7037" user="Gregory Williams">
    <nd ref="247939038"/>
    <nd ref="247939076"/>
    <tag k="highway" v="residential"/>
    <tag k="maxspeed" v="30 mph"/>
    <tag k="name" v="York Road"/>
  </way>
  <way id="22998586" version="2" timestamp="2012-03-14T08:06:19Z" changeset="10975181" uid="7037" user="Gregory Williams">
    <nd ref="247939077"/>
    <nd ref="247939076"/>
    <nd ref="247939078"/>
    <nd ref="247939081"/>
    <nd ref="247939074"/>
    <nd ref="247939047"/>
    <nd ref="247939053"/>
    <nd ref="247935939"/>
    <tag k="highway" v="residential"/>
    <tag k="maxspeed" v="30 mph"/>
    <tag k="name" v="North Barrack Road"/>
  </way>
  <way id="22998587" version="2" timestamp="2012-03-14T08:06:24Z" changeset="10975181" uid="7037" user="Gregory Williams">
    <nd ref="247939081"/>
    <nd ref="247939082"/>
    <nd ref="247939083"/>
    <tag k="highway" v="unclassified"/>
    <tag k="maxspeed" v="30 mph"/>
  </way>
  <way id="22998588" version="2" timestamp="2012-03-14T08:06:19Z" changeset="10975181" uid="7037" user="Gregory Williams">
    <nd ref="247939082"/>
    <nd ref="247939085"/>
    <nd ref="247939086"/>
    <nd ref="247939088"/>
    <nd ref="247939089"/>
    <nd ref="247939090"/>
    <nd ref="247939091"/>
    <tag k="highway" v="residential"/>
    <tag k="maxspeed" v="30 mph"/>
    <tag k="name" v="North Barracks"/>
  </way>
  <way id="22998589" version="3" timestamp="2023-03-30T14:45:59Z" changeset="134308205" uid="4833194" user="motogs">
    <nd ref="247939083"/>
    <nd ref="247939093"/>
    <nd ref="247939094"/>
    <nd ref="10773570886"/>
    <nd ref="247939095"/>
    <tag k="highway" v="residential"/>
    <tag k="maxspeed" v="30 mph"/>
    <tag k="name" v="Campbell Road"/>
  </way>
  <way id="22998590" version="4" timestamp="2021-07-02T06:17:06Z" changeset="107291753" uid="10219379" user="jaravn">
    <nd ref="247939103"/>
    <nd ref="247939104"/>
    <nd ref="247939101"/>
    <nd ref="247939105"/>
    <nd ref="7955782890"/>
    <nd ref="247939106"/>
    <nd ref="8886820920"/>
    <nd ref="247939107"/>
    <nd ref="247939113"/>
    <nd ref="247935936"/>
    <tag k="highway" v="residential"/>
    <tag k="maxspeed" v="30 mph"/>
    <tag k="name" v="Canada Road"/>
  </way>
  <way id="22998592" version="2" timestamp="2012-03-14T08:06:12Z" changeset="10975181" uid="7037" user="Gregory Williams">
    <nd ref="247939113"/>
    <nd ref="247939117"/>
    <nd ref="247939118"/>
    <nd ref="247939120"/>
    <nd ref="247939121"/>
    <nd ref="247939123"/>
    <nd ref="247939124"/>
    <nd ref="247939125"/>
    <nd ref="247939127"/>
    <nd ref="247939128"/>
    <nd ref="247939129"/>
    <nd ref="247939131"/>
    <nd ref="247939132"/>
    <nd ref="247939135"/>
    <nd ref="247939136"/>
    <nd ref="247939137"/>
    <nd ref="247939138"/>
    <nd ref="247939139"/>
    <nd ref="247939140"/>
    <nd ref="247939141"/>
    <nd ref="247939142"/>
    <nd ref="1674313885"/>
    <nd ref="247939144"/>
    <tag k="highway" v="residential"/>
    <tag k="maxspeed" v="30 mph"/>
    <tag k="name" v="Ardent Avenue"/>
  </way>
  <way id="22998593" version="2" timestamp="2012-03-14T08:06:16Z" changeset="10975181" uid="7037" user="Gregory Williams">
    <nd ref="247939158"/>
    <nd ref="247939156"/>
    <nd ref="247939155"/>
    <nd ref="247939154"/>
    <nd ref="247939153"/>
    <tag k="highway" v="residential"/>
    <tag k="maxspeed" v="30 mph"/>
    <tag k="name" v="Coventry Gardens"/>
  </way>
  <way id="22998594" version="3" timestamp="2021-07-05T17:24:26Z" changeset="107453216" uid="9259458" user="aepunavy">
    <nd ref="247939153"/>
    <nd ref="247939152"/>
    <nd ref="247939151"/>
    <nd ref="1674313908"/>
    <nd ref="247939144"/>
    <nd ref="247939145"/>
    <nd ref="247939146"/>
    <nd ref="247939147"/>
    <nd ref="247939148"/>
    <nd ref="8895550378"/>
    <nd ref="247939090"/>
    <tag k="highway" v="residential"/>
    <tag k="maxspeed" v="30 mph"/>
    <tag k="name" v="Ardent Avenue"/>
  </way>
  <way id="22998595" version="3" timestamp="2012-03-14T08:06:16Z" changeset="10975181" uid="7037" user="Gregory Williams">
    <nd ref="247939159"/>
    <nd ref="247939156"/>
    <tag k="highway" v="residential"/>
    <tag k="maxspeed" v="30 mph"/>
    <tag k="name" v="Coventry Gardens"/>
  </way>
  <way id="22998596" version="3" timestamp="2023-03-30T14:45:59Z" changeset="134308205" uid="4833194" user="motogs">
    <nd ref="247939076"/>
    <nd ref="10773570887"/>
    <nd ref="247939160"/>
    <tag k="highway" v="residential"/>
    <tag k="maxspeed" v="30 mph"/>
    <tag k="name" v="York Road"/>
  </way>
  <way id="22998597" version="3" timestamp="2023-03-30T19:57:48Z" changeset="134318767" uid="4833194" user="motogs">
    <nd ref="247939160"/>
    <nd ref="10774102078"/>
    <nd ref="247939104"/>
    <tag k="highway" v="residential"/>
    <tag k="maxspeed" v="30 mph"/>
    <tag k="name" v="York Road"/>
  </way>
  <way id="22998598" version="4" timestamp="2023-03-30T19:57:48Z" changeset="134318767" uid="4833194" user="motogs">
    <nd ref="247939095"/>
    <nd ref="247939097"/>
    <nd ref="247939099"/>
    <nd ref="7955782895"/>
    <nd ref="247939101"/>
    <tag k="highway" v="residential"/>
    <tag k="maxspeed" v="30 mph"/>
    <tag k="name" v="Campbell Road"/>
  </way>
  <way id="22998599" version="3" timestamp="2023-03-30T12:23:03Z" changeset="134302573" uid="4833194" user="motogs">
    <nd ref="247939095"/>
    <nd ref="247939162"/>
    <nd ref="247939160"/>
    <nd ref="33452626"/>
    <tag k="highway" v="residential"/>
    <tag k="maxspeed" v="30 mph"/>
    <tag k="name" v="Wollaston Road"/>
  </way>
  <way id="22998600" version="10" timestamp="2021-09-12T14:28:20Z" changeset="111098972" uid="1867429" user="James_Griffiths">
    <nd ref="247935955"/>
    <nd ref="9084120383"/>
    <nd ref="847767854"/>
    <nd ref="247929788"/>
    <tag k="cycleway:both" v="no"/>
    <tag k="highway" v="primary"/>
    <tag k="lanes" v="2"/>
    <tag k="lit" v="yes"/>
    <tag k="maxspeed" v="30 mph"/>
    <tag k="name" v="Victoria Road"/>
    <tag k="ref" v="A258"/>
    <tag k="sidewalk" v="both"/>
    <tag k="surface" v="asphalt"/>
  </way>
  <way id="22998601" version="2" timestamp="2012-03-14T08:06:20Z" changeset="10975181" uid="7037" user="Gregory Williams">
    <nd ref="247939131"/>
    <nd ref="247939163"/>
    <tag k="highway" v="residential"/>
    <tag k="maxspeed" v="30 mph"/>
    <tag k="name" v="Sheffield Gardens"/>
  </way>
  <way id="22998602" version="3" timestamp="2012-03-14T08:06:20Z" changeset="10975181" uid="7037" user="Gregory Williams">
    <nd ref="247939164"/>
    <nd ref="247939163"/>
    <nd ref="247939165"/>
    <tag k="highway" v="residential"/>
    <tag k="maxspeed" v="30 mph"/>
    <tag k="name" v="Sheffield Gardens"/>
  </way>
  <way id="22998603" version="1" timestamp="2008-02-16T22:02:57Z" changeset="133863" uid="7037" user="Gregory Williams">
    <nd ref="247939106"/>
    <nd ref="247939166"/>
    <tag k="created_by" v="JOSM"/>
    <tag k="highway" v="residential"/>
    <tag k="name" v="Canada Mews"/>
  </way>
  <way id="22998604" version="5" timestamp="2022-05-03T16:25:46Z" changeset="120507105" uid="4833194" user="motogs">
    <nd ref="247939105"/>
    <nd ref="247939167"/>
    <nd ref="247939168"/>
    <nd ref="247939169"/>
    <nd ref="247939170"/>
    <nd ref="247939171"/>
    <nd ref="247939172"/>
    <nd ref="247939173"/>
    <nd ref="247939174"/>
    <nd ref="247939175"/>
    <nd ref="247939176"/>
    <nd ref="247939177"/>
    <nd ref="247939178"/>
    <nd ref="247939179"/>
    <nd ref="247939180"/>
    <nd ref="247939181"/>
    <nd ref="247939182"/>
    <tag k="access" v="destination"/>
    <tag k="highway" v="residential"/>
    <tag k="maxspeed" v="20 mph"/>
    <tag k="name" v="Halliday Drive"/>
  </way>
  <way id="22998605" version="5" timestamp="2022-05-03T16:25:46Z" changeset="120507105" uid="4833194" user="motogs">
    <nd ref="247939183"/>
    <nd ref="247939184"/>
    <nd ref="247939185"/>
    <tag k="access" v="destination"/>
    <tag k="highway" v="residential"/>
    <tag k="maxspeed" v="20 mph"/>
    <tag k="name" v="Halliday Drive"/>
  </way>
  <way id="22998606" version="8" timestamp="2022-07-14T10:10:59Z" changeset="123601528" uid="8971394" user="vojtechzaboril">
    <nd ref="247939182"/>
    <nd ref="247939186"/>
    <nd ref="247939187"/>
    <nd ref="247939188"/>
    <nd ref="247939189"/>
    <nd ref="247939190"/>
    <nd ref="247939191"/>
    <nd ref="247939192"/>
    <nd ref="247939183"/>
    <nd ref="247939193"/>
    <nd ref="247939194"/>
    <nd ref="247939195"/>
    <nd ref="247939196"/>
    <nd ref="247939197"/>
    <nd ref="247939182"/>
    <tag k="access" v="destination"/>
    <tag k="fixme" v="oneway/roundabout?"/>
    <tag k="highway" v="residential"/>
    <tag k="maxspeed" v="20 mph"/>
    <tag k="name" v="Halliday Drive"/>
  </way>
  <way id="22998607" version="6" timestamp="2022-05-03T16:25:46Z" changeset="120507105" uid="4833194" user="motogs">
    <nd ref="247939181"/>
    <nd ref="247939198"/>
    <nd ref="247939199"/>
    <nd ref="247939200"/>
    <nd ref="247939201"/>
    <nd ref="247939202"/>
    <nd ref="247939203"/>
    <tag k="access" v="destination"/>
    <tag k="highway" v="residential"/>
    <tag k="maxspeed" v="20 mph"/>
    <tag k="name" v="Dowell Mews"/>
    <tag k="source:name" v="OS_OpenData_Locator"/>
  </way>
  <way id="22998610" version="5" timestamp="2016-03-31T20:44:22Z" changeset="38211488" uid="42123" user="Ropino">
    <nd ref="247939235"/>
    <nd ref="247939238"/>
    <tag k="highway" v="residential"/>
    <tag k="maxspeed" v="20 mph"/>
    <tag k="name" v="Harvey Avenue"/>
  </way>
  <way id="22998611" version="6" timestamp="2022-05-03T16:25:46Z" changeset="120507105" uid="4833194" user="motogs">
    <nd ref="247939184"/>
    <nd ref="247939206"/>
    <nd ref="247939207"/>
    <nd ref="247939208"/>
    <nd ref="247939210"/>
    <nd ref="247939215"/>
    <nd ref="247939224"/>
    <nd ref="247939230"/>
    <nd ref="247939231"/>
    <nd ref="247939232"/>
    <nd ref="247939234"/>
    <nd ref="247939185"/>
    <nd ref="247939235"/>
    <nd ref="247939236"/>
    <tag k="access" v="destination"/>
    <tag k="highway" v="residential"/>
    <tag k="maxspeed" v="20 mph"/>
    <tag k="name" v="Harvey Avenue"/>
  </way>
  <way id="22998613" version="5" timestamp="2022-05-03T16:25:46Z" changeset="120507105" uid="4833194" user="motogs">
    <nd ref="247939244"/>
    <nd ref="247939246"/>
    <nd ref="247939247"/>
    <nd ref="247939249"/>
    <nd ref="247939251"/>
    <nd ref="247939252"/>
    <nd ref="247939254"/>
    <nd ref="247939179"/>
    <tag k="access" v="destination"/>
    <tag k="highway" v="residential"/>
    <tag k="maxspeed" v="20 mph"/>
    <tag k="name" v="Wilkinson Drive"/>
  </way>
  <way id="22998616" version="6" timestamp="2022-05-03T16:25:46Z" changeset="120507105" uid="4833194" user="motogs">
    <nd ref="247939251"/>
    <nd ref="247939256"/>
    <tag k="access" v="destination"/>
    <tag k="highway" v="residential"/>
    <tag k="maxspeed" v="20 mph"/>
    <tag k="name" v="Wilkinson Drive"/>
  </way>
  <way id="22998618" version="5" timestamp="2022-05-03T16:25:46Z" changeset="120507105" uid="4833194" user="motogs">
    <nd ref="247939177"/>
    <nd ref="247939264"/>
    <nd ref="247939265"/>
    <nd ref="247939267"/>
    <nd ref="247939268"/>
    <nd ref="247939270"/>
    <nd ref="247939271"/>
    <nd ref="247939272"/>
    <nd ref="247939274"/>
    <nd ref="247939275"/>
    <tag k="access" v="destination"/>
    <tag k="highway" v="residential"/>
    <tag k="maxspeed" v="20 mph"/>
    <tag k="name" v="Cavalry Court"/>
  </way>
  <way id="22998620" version="4" timestamp="2016-03-31T20:44:20Z" changeset="38211488" uid="42123" user="Ropino">
    <nd ref="247939272"/>
    <nd ref="247939283"/>
    <nd ref="247939285"/>
    <nd ref="247939286"/>
    <nd ref="247939287"/>
    <nd ref="247939289"/>
    <nd ref="247939290"/>
    <nd ref="247939292"/>
    <nd ref="247939293"/>
    <nd ref="247939294"/>
    <nd ref="247939295"/>
    <nd ref="247939297"/>
    <nd ref="247939298"/>
    <nd ref="247939300"/>
    <nd ref="247939275"/>
    <tag k="highway" v="residential"/>
    <tag k="maxspeed" v="20 mph"/>
    <tag k="name" v="Cavalry Court"/>
  </way>
  <way id="22998649" version="11" timestamp="2017-11-27T21:36:08Z" changeset="54133724" uid="7037" user="Gregory Williams">
    <nd ref="247939116"/>
    <nd ref="247939882"/>
    <nd ref="1826281537"/>
    <nd ref="247939884"/>
    <nd ref="1088159392"/>
    <nd ref="247939886"/>
    <nd ref="247939116"/>
    <tag k="addr:place" v="Walmer"/>
    <tag k="addr:postcode" v="CT14 7EQ"/>
    <tag k="addr:street" v="Canada Road"/>
    <tag k="alt_name" v="Drill Field"/>
    <tag k="fhrs:id" v="254707"/>
    <tag k="landuse" v="recreation_ground"/>
    <tag k="name" v="Deal &amp; Betteshanger Lions RFC"/>
    <tag k="source" v="Bing"/>
    <tag k="sport" v="rugby"/>
  </way>
  <way id="23085491" version="12" timestamp="2022-07-28T16:27:22Z" changeset="124192746" uid="1784239" user="SvenTX">
    <nd ref="249186055"/>
    <nd ref="249186054"/>
    <nd ref="247230490"/>
    <tag k="abutters" v="residential"/>
    <tag k="cycleway:both" v="no"/>
    <tag k="highway" v="residential"/>
    <tag k="lane_markings" v="no"/>
    <tag k="lit" v="yes"/>
    <tag k="maxspeed" v="30 mph"/>
    <tag k="name" v="Station Road"/>
    <tag k="sidewalk" v="both"/>
    <tag k="source" v="survey"/>
    <tag k="surface" v="asphalt"/>
  </way>
  <way id="23085492" version="7" timestamp="2022-07-28T16:27:59Z" changeset="124192746" uid="1784239" user="SvenTX">
    <nd ref="249186055"/>
    <nd ref="249186056"/>
    <nd ref="249186057"/>
    <tag k="highway" v="residential"/>
    <tag k="lit" v="no"/>
    <tag k="maxspeed" v="30 mph"/>
    <tag k="name" v="Mayers Road"/>
    <tag k="sidewalk" v="no"/>
    <tag k="source" v="survey"/>
    <tag k="surface" v="dirt"/>
  </way>
  <way id="23085493" version="7" timestamp="2022-07-28T16:32:39Z" changeset="124192746" uid="1784239" user="SvenTX">
    <nd ref="249186047"/>
    <nd ref="249186048"/>
    <nd ref="4581644916"/>
    <nd ref="249186049"/>
    <nd ref="249186050"/>
    <nd ref="249186051"/>
    <nd ref="249186052"/>
    <nd ref="249186053"/>
    <nd ref="249186054"/>
    <tag k="highway" v="residential"/>
    <tag k="lane_markings" v="no"/>
    <tag k="lit" v="yes"/>
    <tag k="maxspeed" v="30 mph"/>
    <tag k="name" v="Station Drive"/>
    <tag k="source" v="survey"/>
    <tag k="surface" v="asphalt"/>
  </way>
  <way id="23085494" version="3" timestamp="2012-03-12T10:02:29Z" changeset="10952842" uid="7037" user="Gregory Williams">
    <nd ref="249186048"/>
    <nd ref="249186058"/>
    <tag k="highway" v="residential"/>
    <tag k="maxspeed" v="30 mph"/>
    <tag k="name" v="Station Drive"/>
    <tag k="source" v="survey"/>
  </way>
  <way id="23085495" version="9" timestamp="2022-07-28T16:22:25Z" changeset="124192746" uid="1784239" user="SvenTX">
    <nd ref="249186061"/>
    <nd ref="249186062"/>
    <nd ref="249186063"/>
    <nd ref="249186064"/>
    <nd ref="249186065"/>
    <tag k="cycleway:both" v="no"/>
    <tag k="highway" v="residential"/>
    <tag k="lane_markings" v="no"/>
    <tag k="lit" v="yes"/>
    <tag k="maxspeed" v="30 mph"/>
    <tag k="name" v="John Tapping Close"/>
    <tag k="sidewalk" v="both"/>
    <tag k="source" v="survey"/>
    <tag k="surface" v="asphalt"/>
  </way>
  <way id="23085496" version="7" timestamp="2022-07-28T16:21:13Z" changeset="124192746" uid="1784239" user="SvenTX">
    <nd ref="249186066"/>
    <nd ref="249186067"/>
    <nd ref="249186068"/>
    <nd ref="249186069"/>
    <nd ref="249186070"/>
    <tag k="cycleway:both" v="no"/>
    <tag k="highway" v="residential"/>
    <tag k="lane_markings" v="no"/>
    <tag k="lit" v="yes"/>
    <tag k="maxspeed" v="30 mph"/>
    <tag k="name" v="Station Road"/>
    <tag k="sidewalk" v="left"/>
    <tag k="source" v="survey"/>
    <tag k="surface" v="asphalt"/>
  </way>
  <way id="23085499" version="7" timestamp="2022-07-28T16:19:27Z" changeset="124192746" uid="1784239" user="SvenTX">
    <nd ref="249186076"/>
    <nd ref="249186075"/>
    <nd ref="249186077"/>
    <tag k="cycleway:both" v="no"/>
    <tag k="highway" v="residential"/>
    <tag k="lane_markings" v="no"/>
    <tag k="lit" v="yes"/>
    <tag k="maxspeed" v="30 mph"/>
    <tag k="name" v="Belmont"/>
    <tag k="sidewalk" v="no"/>
    <tag k="source" v="survey"/>
    <tag k="surface" v="asphalt"/>
  </way>
  <way id="23085500" version="3" timestamp="2016-12-30T17:50:46Z" changeset="44790547" uid="359193" user="JeffH">
    <nd ref="247230496"/>
    <nd ref="4581644918"/>
    <nd ref="249186078"/>
    <nd ref="249186079"/>
    <nd ref="249186080"/>
    <nd ref="249186081"/>
    <nd ref="249186082"/>
    <nd ref="249186083"/>
    <nd ref="249186084"/>
    <nd ref="249186085"/>
    <nd ref="249186086"/>
    <nd ref="249186087"/>
    <tag k="highway" v="residential"/>
    <tag k="maxspeed" v="30 mph"/>
    <tag k="name" v="Nevill Gardens"/>
    <tag k="source" v="survey"/>
  </way>
  <way id="23085502" version="7" timestamp="2022-07-28T16:24:33Z" changeset="124192746" uid="1784239" user="SvenTX">
    <nd ref="249186096"/>
    <nd ref="249186097"/>
    <nd ref="249186098"/>
    <nd ref="249186099"/>
    <nd ref="249186100"/>
    <nd ref="249186101"/>
    <nd ref="249186102"/>
    <nd ref="249186103"/>
    <nd ref="249186104"/>
    <tag k="cycleway:both" v="no"/>
    <tag k="highway" v="residential"/>
    <tag k="lane_markings" v="no"/>
    <tag k="lit" v="yes"/>
    <tag k="maxspeed" v="30 mph"/>
    <tag k="name" v="Menzies Avenue"/>
    <tag k="sidewalk" v="both"/>
    <tag k="source" v="survey"/>
    <tag k="surface" v="asphalt"/>
  </way>
  <way id="23085503" version="2" timestamp="2012-03-12T10:02:28Z" changeset="10952842" uid="7037" user="Gregory Williams">
    <nd ref="249186099"/>
    <nd ref="249186105"/>
    <nd ref="249186106"/>
    <nd ref="249186107"/>
    <nd ref="249186108"/>
    <nd ref="249186109"/>
    <nd ref="249186110"/>
    <nd ref="249186111"/>
    <nd ref="249186112"/>
    <nd ref="249186113"/>
    <nd ref="249186098"/>
    <tag k="highway" v="residential"/>
    <tag k="maxspeed" v="30 mph"/>
    <tag k="name" v="Reading Close"/>
    <tag k="source" v="survey"/>
  </way>
  <way id="23086148" version="11" timestamp="2022-07-28T16:26:23Z" changeset="124192746" uid="1784239" user="SvenTX">
    <nd ref="247230490"/>
    <nd ref="249186104"/>
    <nd ref="247230491"/>
    <nd ref="249190183"/>
    <nd ref="4581644915"/>
    <nd ref="1674695360"/>
    <nd ref="247230492"/>
    <nd ref="249186043"/>
    <nd ref="249186044"/>
    <nd ref="247230489"/>
    <tag k="cycleway:both" v="no"/>
    <tag k="highway" v="tertiary"/>
    <tag k="lane_markings" v="no"/>
    <tag k="lit" v="yes"/>
    <tag k="maxspeed" v="30 mph"/>
    <tag k="name" v="Court Road"/>
    <tag k="source" v="survey"/>
    <tag k="surface" v="asphalt"/>
  </way>
  <way id="23086149" version="6" timestamp="2024-07-22T22:27:10Z" changeset="154282772" uid="5008136" user="JayTurnr">
    <nd ref="249190183"/>
    <nd ref="249190216"/>
    <nd ref="4581803188"/>
    <nd ref="249190217"/>
    <nd ref="249190218"/>
    <nd ref="249190219"/>
    <nd ref="249190228"/>
    <nd ref="4581803187"/>
    <nd ref="249190229"/>
    <nd ref="249190230"/>
    <nd ref="249190231"/>
    <nd ref="249190232"/>
    <nd ref="249190260"/>
    <nd ref="249190283"/>
    <nd ref="249186095"/>
    <nd ref="6912024125"/>
    <nd ref="249190273"/>
    <nd ref="249190274"/>
    <nd ref="249190275"/>
    <nd ref="12068912687"/>
    <nd ref="249190276"/>
    <tag k="hgv" v="unsuitable"/>
    <tag k="highway" v="residential"/>
    <tag k="maxspeed" v="30 mph"/>
    <tag k="name" v="Church Street"/>
    <tag k="source" v="survey"/>
  </way>
  <way id="23086150" version="2" timestamp="2012-03-12T10:02:22Z" changeset="10952842" uid="7037" user="Gregory Williams">
    <nd ref="249190274"/>
    <nd ref="249190278"/>
    <nd ref="249190279"/>
    <nd ref="249190280"/>
    <nd ref="249190281"/>
    <tag k="highway" v="residential"/>
    <tag k="maxspeed" v="30 mph"/>
    <tag k="name" v="Green Lane"/>
    <tag k="source" v="survey"/>
  </way>
  <way id="23086151" version="2" timestamp="2012-03-12T10:02:22Z" changeset="10952842" uid="7037" user="Gregory Williams">
    <nd ref="249190278"/>
    <nd ref="249190282"/>
    <tag k="highway" v="residential"/>
    <tag k="maxspeed" v="30 mph"/>
    <tag k="name" v="Green Lane"/>
    <tag k="source" v="survey"/>
  </way>
  <way id="23086152" version="2" timestamp="2012-03-12T10:02:19Z" changeset="10952842" uid="7037" user="Gregory Williams">
    <nd ref="249190283"/>
    <nd ref="249190284"/>
    <nd ref="249190285"/>
    <nd ref="249190286"/>
    <nd ref="249190287"/>
    <nd ref="249190290"/>
    <nd ref="249190232"/>
    <tag k="highway" v="residential"/>
    <tag k="maxspeed" v="30 mph"/>
    <tag k="name" v="Church Street"/>
  </way>
  <way id="23086154" version="2" timestamp="2012-03-12T10:02:20Z" changeset="10952842" uid="7037" user="Gregory Williams">
    <nd ref="249190218"/>
    <nd ref="249190292"/>
    <nd ref="249190293"/>
    <nd ref="249190294"/>
    <nd ref="249190295"/>
    <nd ref="249190297"/>
    <nd ref="249190298"/>
    <tag k="highway" v="residential"/>
    <tag k="maxspeed" v="30 mph"/>
    <tag k="name" v="Church Street"/>
    <tag k="source" v="survey"/>
  </way>
  <way id="23086155" version="7" timestamp="2012-03-14T16:19:37Z" changeset="10979442" uid="7037" user="Gregory Williams">
    <nd ref="247230489"/>
    <nd ref="1354211213"/>
    <nd ref="249193642"/>
    <tag k="abutters" v="residential"/>
    <tag k="highway" v="tertiary"/>
    <tag k="lcn" v="yes"/>
    <tag k="maxspeed" v="30 mph"/>
    <tag k="name" v="Salisbury Road"/>
    <tag k="source" v="survey"/>
  </way>
  <way id="23086156" version="2" timestamp="2012-03-19T09:37:28Z" changeset="11027798" uid="7037" user="Gregory Williams">
    <nd ref="249193570"/>
    <nd ref="249193575"/>
    <tag k="highway" v="unclassified"/>
    <tag k="maxspeed" v="30 mph"/>
    <tag k="note" v="Name unclear. Could be considered to be part of Balfour Road or Salisbury Road."/>
    <tag k="source" v="survey"/>
  </way>
  <way id="23086157" version="3" timestamp="2012-03-19T09:37:12Z" changeset="11027798" uid="7037" user="Gregory Williams">
    <nd ref="249193565"/>
    <nd ref="249193575"/>
    <nd ref="249193576"/>
    <nd ref="249193578"/>
    <tag k="highway" v="residential"/>
    <tag k="lcn" v="proposed"/>
    <tag k="maxspeed" v="30 mph"/>
    <tag k="name" v="Balfour Road"/>
    <tag k="source" v="survey"/>
  </way>
  <way id="23086158" version="3" timestamp="2012-03-19T09:37:11Z" changeset="11027798" uid="7037" user="Gregory Williams">
    <nd ref="249193578"/>
    <nd ref="249193580"/>
    <tag k="highway" v="residential"/>
    <tag k="lcn" v="proposed"/>
    <tag k="maxspeed" v="30 mph"/>
    <tag k="name" v="Balfour Road"/>
    <tag k="source" v="survey"/>
  </way>
  <way id="23086159" version="3" timestamp="2012-03-19T09:37:13Z" changeset="11027798" uid="7037" user="Gregory Williams">
    <nd ref="249193576"/>
    <nd ref="249193581"/>
    <nd ref="249193584"/>
    <nd ref="249193586"/>
    <nd ref="249193587"/>
    <nd ref="249193589"/>
    <nd ref="249193590"/>
    <nd ref="249193592"/>
    <nd ref="249193594"/>
    <nd ref="249193595"/>
    <nd ref="249193597"/>
    <nd ref="249193599"/>
    <tag k="highway" v="residential"/>
    <tag k="maxspeed" v="30 mph"/>
    <tag k="name" v="Churchill Avenue"/>
    <tag k="source" v="survey"/>
  </way>
  <way id="23086166" version="2" timestamp="2012-03-19T09:37:15Z" changeset="11027798" uid="7037" user="Gregory Williams">
    <nd ref="249193586"/>
    <nd ref="249193619"/>
    <nd ref="249193621"/>
    <nd ref="249193622"/>
    <nd ref="249193624"/>
    <nd ref="249193625"/>
    <nd ref="249193628"/>
    <nd ref="249193630"/>
    <nd ref="249193631"/>
    <nd ref="249193633"/>
    <nd ref="249193634"/>
    <nd ref="249193636"/>
    <tag k="highway" v="residential"/>
    <tag k="maxspeed" v="30 mph"/>
    <tag k="name" v="Dorset Gardens"/>
    <tag k="source" v="survey"/>
  </way>
  <way id="23086172" version="3" timestamp="2012-03-19T09:02:15Z" changeset="11027544" uid="7037" user="Gregory Williams">
    <nd ref="249193662"/>
    <nd ref="1681313756"/>
    <nd ref="249193664"/>
    <nd ref="249193666"/>
    <nd ref="1681312421"/>
    <nd ref="1681313783"/>
    <nd ref="249193667"/>
    <nd ref="249193669"/>
    <tag k="highway" v="residential"/>
    <tag k="maxspeed" v="20 mph"/>
    <tag k="name" v="Owen Square"/>
    <tag k="source" v="survey"/>
  </way>
  <way id="23086173" version="2" timestamp="2012-03-19T09:01:03Z" changeset="11027537" uid="7037" user="Gregory Williams">
    <nd ref="249193669"/>
    <nd ref="249193671"/>
    <nd ref="249193672"/>
    <nd ref="249193674"/>
    <nd ref="1681312431"/>
    <nd ref="249193675"/>
    <tag k="highway" v="residential"/>
    <tag k="maxspeed" v="20 mph"/>
    <tag k="name" v="Owen Square"/>
    <tag k="source" v="survey"/>
  </way>
  <way id="23086174" version="2" timestamp="2012-03-19T09:01:03Z" changeset="11027537" uid="7037" user="Gregory Williams">
    <nd ref="249193675"/>
    <nd ref="249193677"/>
    <tag k="highway" v="residential"/>
    <tag k="maxspeed" v="20 mph"/>
    <tag k="name" v="Owen Square"/>
    <tag k="source" v="survey"/>
  </way>
  <way id="23086177" version="2" timestamp="2012-03-19T09:01:03Z" changeset="11027537" uid="7037" user="Gregory Williams">
    <nd ref="249193674"/>
    <nd ref="249193685"/>
    <nd ref="249193687"/>
    <tag k="highway" v="residential"/>
    <tag k="maxspeed" v="20 mph"/>
    <tag k="name" v="Owen Square"/>
    <tag k="source" v="survey"/>
  </way>
  <way id="23086178" version="2" timestamp="2012-03-19T09:01:02Z" changeset="11027537" uid="7037" user="Gregory Williams">
    <nd ref="249193675"/>
    <nd ref="249193688"/>
    <nd ref="249193690"/>
    <nd ref="249193692"/>
    <nd ref="249193693"/>
    <tag k="highway" v="residential"/>
    <tag k="maxspeed" v="20 mph"/>
    <tag k="name" v="Kennedy Drive"/>
    <tag k="source" v="survey"/>
  </way>
  <way id="23086179" version="3" timestamp="2012-03-19T09:01:00Z" changeset="11027537" uid="7037" user="Gregory Williams">
    <nd ref="249193662"/>
    <nd ref="249193695"/>
    <nd ref="249193696"/>
    <nd ref="1681312426"/>
    <nd ref="249193677"/>
    <tag k="highway" v="residential"/>
    <tag k="maxspeed" v="20 mph"/>
    <tag k="name" v="Downs Road"/>
    <tag k="source" v="survey"/>
  </way>
  <way id="23086180" version="3" timestamp="2012-03-19T09:37:15Z" changeset="11027798" uid="7037" user="Gregory Williams">
    <nd ref="249193701"/>
    <nd ref="249193703"/>
    <tag k="highway" v="residential"/>
    <tag k="maxspeed" v="30 mph"/>
    <tag k="name" v="Downs Road"/>
    <tag k="source" v="survey"/>
  </way>
  <way id="23086181" version="3" timestamp="2012-03-19T09:37:15Z" changeset="11027798" uid="7037" user="Gregory Williams">
    <nd ref="249193698"/>
    <nd ref="249193700"/>
    <nd ref="249193701"/>
    <tag k="highway" v="residential"/>
    <tag k="maxspeed" v="30 mph"/>
    <tag k="name" v="Downs Road"/>
    <tag k="source" v="survey"/>
  </way>
  <way id="23086182" version="3" timestamp="2012-03-19T09:01:00Z" changeset="11027537" uid="7037" user="Gregory Williams">
    <nd ref="249193677"/>
    <nd ref="1681312434"/>
    <nd ref="1681312438"/>
    <nd ref="249193698"/>
    <tag k="highway" v="residential"/>
    <tag k="maxspeed" v="20 mph"/>
    <tag k="name" v="Downs Road"/>
    <tag k="source" v="survey"/>
  </way>
  <way id="23086283" version="2" timestamp="2012-03-19T09:04:35Z" changeset="11027559" uid="7037" user="Gregory Williams">
    <nd ref="249193715"/>
    <nd ref="249193719"/>
    <tag k="highway" v="residential"/>
    <tag k="maxspeed" v="30 mph"/>
    <tag k="name" v="Havelock Road"/>
    <tag k="source" v="survey"/>
  </way>
  <way id="23086284" version="3" timestamp="2021-04-02T14:23:47Z" changeset="102199618" uid="10205154" user="mundlk">
    <nd ref="249193698"/>
    <nd ref="249193599"/>
    <nd ref="249193721"/>
    <nd ref="8586762423"/>
    <nd ref="249193578"/>
    <tag k="highway" v="residential"/>
    <tag k="maxspeed" v="30 mph"/>
    <tag k="name" v="Palmerston Avenue"/>
    <tag k="source" v="survey"/>
  </way>
  <way id="23086285" version="2" timestamp="2012-03-19T09:37:26Z" changeset="11027798" uid="7037" user="Gregory Williams">
    <nd ref="249193721"/>
    <nd ref="249193723"/>
    <nd ref="249193724"/>
    <tag k="highway" v="residential"/>
    <tag k="maxspeed" v="30 mph"/>
    <tag k="name" v="Wellesley Avenue"/>
    <tag k="source" v="survey"/>
  </way>
  <way id="23086286" version="2" timestamp="2012-03-19T09:37:14Z" changeset="11027798" uid="7037" user="Gregory Williams">
    <nd ref="249193723"/>
    <nd ref="249193726"/>
    <tag k="highway" v="residential"/>
    <tag k="maxspeed" v="30 mph"/>
    <tag k="name" v="Curzon Close"/>
    <tag k="source" v="survey"/>
  </way>
  <way id="23086288" version="2" timestamp="2012-03-19T09:37:17Z" changeset="11027798" uid="7037" user="Gregory Williams">
    <nd ref="249193700"/>
    <nd ref="249193727"/>
    <tag k="highway" v="residential"/>
    <tag k="maxspeed" v="30 mph"/>
    <tag k="name" v="Herschell Road West"/>
    <tag k="source" v="survey"/>
  </way>
  <way id="23086289" version="2" timestamp="2012-03-19T09:37:18Z" changeset="11027798" uid="7037" user="Gregory Williams">
    <nd ref="249193580"/>
    <nd ref="249193724"/>
    <tag k="highway" v="residential"/>
    <tag k="maxspeed" v="30 mph"/>
    <tag k="name" v="Herschell Square"/>
    <tag k="source" v="survey"/>
  </way>
  <way id="23086290" version="2" timestamp="2012-03-19T09:37:19Z" changeset="11027798" uid="7037" user="Gregory Williams">
    <nd ref="249193724"/>
    <nd ref="249193727"/>
    <nd ref="249193729"/>
    <tag k="highway" v="residential"/>
    <tag k="maxspeed" v="30 mph"/>
    <tag k="name" v="Herschell Square"/>
    <tag k="source" v="survey"/>
  </way>
  <way id="23086291" version="2" timestamp="2012-03-19T09:37:19Z" changeset="11027798" uid="7037" user="Gregory Williams">
    <nd ref="249193729"/>
    <nd ref="249193731"/>
    <nd ref="249193745"/>
    <tag k="highway" v="residential"/>
    <tag k="maxspeed" v="30 mph"/>
    <tag k="name" v="Herschell Square"/>
    <tag k="source" v="survey"/>
  </way>
  <way id="23086292" version="3" timestamp="2012-03-19T09:37:18Z" changeset="11027798" uid="7037" user="Gregory Williams">
    <nd ref="249193745"/>
    <nd ref="249193746"/>
    <tag k="highway" v="residential"/>
    <tag k="maxspeed" v="30 mph"/>
    <tag k="name" v="Herschell Square"/>
    <tag k="source" v="survey"/>
  </way>
  <way id="23086293" version="3" timestamp="2012-03-19T09:37:17Z" changeset="11027798" uid="7037" user="Gregory Williams">
    <nd ref="249193746"/>
    <nd ref="249193747"/>
    <tag k="highway" v="residential"/>
    <tag k="lcn" v="proposed"/>
    <tag k="maxspeed" v="30 mph"/>
    <tag k="name" v="Herschell Road East"/>
    <tag k="source" v="survey"/>
  </way>
  <way id="23086294" version="2" timestamp="2012-03-19T09:37:15Z" changeset="11027798" uid="7037" user="Gregory Williams">
    <nd ref="249193731"/>
    <nd ref="249193748"/>
    <nd ref="249193749"/>
    <tag k="highway" v="residential"/>
    <tag k="maxspeed" v="30 mph"/>
    <tag k="name" v="Devon Avenue"/>
    <tag k="source" v="survey"/>
  </way>
  <way id="23086296" version="2" timestamp="2012-03-19T09:37:19Z" changeset="11027798" uid="7037" user="Gregory Williams">
    <nd ref="249193701"/>
    <nd ref="249193751"/>
    <nd ref="249193754"/>
    <tag k="highway" v="residential"/>
    <tag k="maxspeed" v="30 mph"/>
    <tag k="name" v="James Hall Gardens"/>
    <tag k="source" v="survey"/>
  </way>
  <way id="23086297" version="3" timestamp="2012-03-19T09:37:19Z" changeset="11027798" uid="7037" user="Gregory Williams">
    <nd ref="249193757"/>
    <nd ref="249193759"/>
    <nd ref="249193760"/>
    <tag k="highway" v="residential"/>
    <tag k="maxspeed" v="30 mph"/>
    <tag k="name" v="James Hall Gardens"/>
    <tag k="source" v="survey"/>
  </way>
  <way id="23086298" version="2" timestamp="2012-03-19T09:37:20Z" changeset="11027798" uid="7037" user="Gregory Williams">
    <nd ref="249193759"/>
    <nd ref="249193761"/>
    <nd ref="249193764"/>
    <nd ref="249193754"/>
    <nd ref="249193762"/>
    <nd ref="249193763"/>
    <tag k="highway" v="residential"/>
    <tag k="maxspeed" v="30 mph"/>
    <tag k="name" v="James Hall Gardens"/>
    <tag k="source" v="survey"/>
  </way>
  <way id="23086300" version="3" timestamp="2012-03-19T09:37:20Z" changeset="11027798" uid="7037" user="Gregory Williams">
    <nd ref="249193765"/>
    <nd ref="249193766"/>
    <nd ref="249193763"/>
    <nd ref="249193767"/>
    <nd ref="249193768"/>
    <tag k="highway" v="residential"/>
    <tag k="maxspeed" v="30 mph"/>
    <tag k="name" v="James Hall Gardens"/>
    <tag k="source" v="survey"/>
  </way>
  <way id="23086301" version="2" timestamp="2012-03-19T09:37:20Z" changeset="11027798" uid="7037" user="Gregory Williams">
    <nd ref="249193578"/>
    <nd ref="249193773"/>
    <tag k="highway" v="residential"/>
    <tag k="maxspeed" v="30 mph"/>
    <tag k="name" v="Kelvedon Road"/>
    <tag k="source" v="survey"/>
  </way>
  <way id="23086302" version="2" timestamp="2012-03-14T16:19:34Z" changeset="10979442" uid="7037" user="Gregory Williams">
    <nd ref="249193774"/>
    <nd ref="249193775"/>
    <tag k="highway" v="residential"/>
    <tag k="maxspeed" v="30 mph"/>
    <tag k="name" v="Lawn Road"/>
    <tag k="source" v="survey"/>
  </way>
  <way id="23086306" version="2" timestamp="2012-03-14T16:19:35Z" changeset="10979442" uid="7037" user="Gregory Williams">
    <nd ref="249193560"/>
    <nd ref="249193788"/>
    <nd ref="249193821"/>
    <nd ref="249193822"/>
    <nd ref="249193823"/>
    <nd ref="249193824"/>
    <nd ref="249193825"/>
    <nd ref="249193826"/>
    <nd ref="249193832"/>
    <nd ref="249193833"/>
    <tag k="highway" v="residential"/>
    <tag k="maxspeed" v="30 mph"/>
    <tag k="name" v="Meryl Gardens"/>
    <tag k="source" v="survey"/>
  </way>
  <way id="23086307" version="2" timestamp="2011-01-06T21:24:07Z" changeset="6886621" uid="207745" user="NE2">
    <nd ref="249193834"/>
    <nd ref="249193833"/>
    <nd ref="249193836"/>
    <tag k="highway" v="residential"/>
    <tag k="name" v="Meryl Gardens"/>
    <tag k="source" v="survey"/>
  </way>
  <way id="23086309" version="3" timestamp="2016-12-30T20:23:52Z" changeset="44794052" uid="359193" user="JeffH">
    <nd ref="33452639"/>
    <nd ref="249193841"/>
    <nd ref="249193843"/>
    <nd ref="249193844"/>
    <nd ref="249193845"/>
    <tag k="highway" v="unclassified"/>
    <tag k="source" v="survey"/>
  </way>
  <way id="23086310" version="3" timestamp="2024-04-30T17:38:05Z" changeset="150719970" uid="19880472" user="aknight22">
    <nd ref="249193845"/>
    <nd ref="4581803689"/>
    <nd ref="249193848"/>
    <nd ref="4581803690"/>
    <nd ref="249193850"/>
    <nd ref="4581803691"/>
    <nd ref="249193851"/>
    <nd ref="249193852"/>
    <tag k="highway" v="residential"/>
    <tag k="name" v="Gothic Close"/>
    <tag k="source" v="survey"/>
  </way>
  <way id="23086312" version="4" timestamp="2015-08-17T20:32:33Z" changeset="33401700" uid="1916323" user="Dover UK com">
    <nd ref="249190230"/>
    <nd ref="249193854"/>
    <nd ref="249193855"/>
    <nd ref="249193862"/>
    <nd ref="249193863"/>
    <nd ref="249193864"/>
    <nd ref="249193865"/>
    <nd ref="249193866"/>
    <nd ref="249193867"/>
    <tag k="highway" v="residential"/>
    <tag k="maxspeed" v="30 mph"/>
    <tag k="name" v="York and Albany Close"/>
    <tag k="not:name" v="York and Albany Close"/>
    <tag k="source" v="survey"/>
  </way>
  <way id="23086363" version="6" timestamp="2020-12-14T05:02:22Z" changeset="95781998" uid="11734026" user="sourabik">
    <nd ref="33452625"/>
    <nd ref="1181939951"/>
    <nd ref="249197252"/>
    <nd ref="249197551"/>
    <nd ref="8226372568"/>
    <nd ref="249197552"/>
    <nd ref="249197553"/>
    <nd ref="249197554"/>
    <nd ref="8226372564"/>
    <nd ref="8226372563"/>
    <nd ref="249197555"/>
    <nd ref="249197557"/>
    <tag k="highway" v="residential"/>
    <tag k="maxspeed" v="10 mph"/>
    <tag k="name" v="Admiralty Mews"/>
    <tag k="note" v="10 mph"/>
    <tag k="source" v="survey"/>
  </way>
  <way id="23086364" version="4" timestamp="2020-12-14T05:02:22Z" changeset="95781998" uid="11734026" user="sourabik">
    <nd ref="249197551"/>
    <nd ref="249197558"/>
    <nd ref="8226372566"/>
    <nd ref="8226372567"/>
    <nd ref="8226372565"/>
    <nd ref="249197612"/>
    <tag k="highway" v="residential"/>
    <tag k="maxspeed" v="10 mph"/>
    <tag k="name" v="Admiralty Mews"/>
    <tag k="note" v="10 mph"/>
    <tag k="source" v="survey"/>
  </way>
  <way id="23086366" version="20" timestamp="2024-04-30T17:38:05Z" changeset="150719970" uid="19880472" user="aknight22">
    <nd ref="249193847"/>
    <nd ref="1182568798"/>
    <nd ref="33452638"/>
    <nd ref="1182568790"/>
    <nd ref="33452637"/>
    <nd ref="33452636"/>
    <nd ref="1182568805"/>
    <nd ref="252687787"/>
    <nd ref="1182568800"/>
    <nd ref="1281854731"/>
    <nd ref="33452635"/>
    <nd ref="249193779"/>
    <nd ref="249193774"/>
    <nd ref="249193572"/>
    <tag k="cycleway:both" v="no"/>
    <tag k="highway" v="primary"/>
    <tag k="lanes" v="2"/>
    <tag k="lit" v="yes"/>
    <tag k="maxspeed" v="30 mph"/>
    <tag k="ref" v="A258"/>
    <tag k="sidewalk" v="both"/>
    <tag k="source" v="survey"/>
    <tag k="surface" v="asphalt"/>
  </way>
  <way id="23331250" version="2" timestamp="2012-03-12T10:02:29Z" changeset="10952842" uid="7037" user="Gregory Williams">
    <nd ref="252636571"/>
    <nd ref="252636573"/>
    <nd ref="252636575"/>
    <nd ref="252636577"/>
    <nd ref="252636579"/>
    <nd ref="252636580"/>
    <nd ref="252636583"/>
    <tag k="highway" v="residential"/>
    <tag k="maxspeed" v="30 mph"/>
    <tag k="name" v="St. Margarets Drive"/>
  </way>
  <way id="23331252" version="3" timestamp="2012-03-12T10:02:29Z" changeset="10952842" uid="7037" user="Gregory Williams">
    <nd ref="252636585"/>
    <nd ref="252636583"/>
    <nd ref="252636587"/>
    <tag k="highway" v="residential"/>
    <tag k="maxspeed" v="30 mph"/>
    <tag k="name" v="St. Margarets Drive"/>
  </way>
  <way id="23331253" version="3" timestamp="2012-03-12T10:02:28Z" changeset="10952842" uid="7037" user="Gregory Williams">
    <nd ref="252636589"/>
    <nd ref="252636575"/>
    <tag k="highway" v="residential"/>
    <tag k="maxspeed" v="30 mph"/>
    <tag k="name" v="St. Margarets Drive"/>
  </way>
  <way id="23331254" version="3" timestamp="2024-07-22T22:27:10Z" changeset="154282772" uid="5008136" user="JayTurnr">
    <nd ref="252636592"/>
    <nd ref="12068912684"/>
    <nd ref="252636596"/>
    <nd ref="252636598"/>
    <nd ref="252636600"/>
    <tag k="highway" v="residential"/>
    <tag k="maxspeed" v="30 mph"/>
    <tag k="name" v="Thompson Close"/>
  </way>
  <way id="23331255" version="2" timestamp="2012-03-12T10:02:35Z" changeset="10952842" uid="7037" user="Gregory Williams">
    <nd ref="252636598"/>
    <nd ref="252636601"/>
    <nd ref="252636603"/>
    <nd ref="252636605"/>
    <nd ref="252636606"/>
    <nd ref="252636607"/>
    <nd ref="252636608"/>
    <nd ref="252636609"/>
    <tag k="highway" v="residential"/>
    <tag k="maxspeed" v="30 mph"/>
    <tag k="name" v="Thompson Close"/>
  </way>
  <way id="23331782" version="2" timestamp="2012-03-12T10:02:21Z" changeset="10952842" uid="7037" user="Gregory Williams">
    <nd ref="252636590"/>
    <nd ref="252642802"/>
    <nd ref="252642803"/>
    <tag k="highway" v="residential"/>
    <tag k="maxspeed" v="30 mph"/>
    <tag k="name" v="Downlands"/>
  </way>
  <way id="23331783" version="2" timestamp="2012-03-12T10:02:32Z" changeset="10952842" uid="7037" user="Gregory Williams">
    <nd ref="252642803"/>
    <nd ref="252642804"/>
    <nd ref="252642805"/>
    <tag k="highway" v="residential"/>
    <tag k="maxspeed" v="30 mph"/>
    <tag k="name" v="The Maltings"/>
  </way>
  <way id="23331784" version="3" timestamp="2012-03-12T10:02:32Z" changeset="10952842" uid="7037" user="Gregory Williams">
    <nd ref="252642806"/>
    <nd ref="252642805"/>
    <nd ref="252642807"/>
    <tag k="highway" v="residential"/>
    <tag k="maxspeed" v="30 mph"/>
    <tag k="name" v="The Maltings"/>
  </way>
  <way id="23331785" version="3" timestamp="2021-10-06T21:34:29Z" changeset="112188117" uid="6218813" user="St Mary Clay">
    <nd ref="252642803"/>
    <nd ref="252642808"/>
    <nd ref="252642809"/>
    <nd ref="252642811"/>
    <tag k="highway" v="residential"/>
    <tag k="maxspeed" v="30 mph"/>
    <tag k="name" v="Thistledown"/>
  </way>
  <way id="23331786" version="2" timestamp="2012-03-12T10:02:34Z" changeset="10952842" uid="7037" user="Gregory Williams">
    <nd ref="252642812"/>
    <nd ref="252642813"/>
    <nd ref="252642814"/>
    <nd ref="252642811"/>
    <nd ref="252642815"/>
    <nd ref="252642816"/>
    <tag k="highway" v="residential"/>
    <tag k="maxspeed" v="30 mph"/>
    <tag k="name" v="Thistledown"/>
  </way>
  <way id="23331787" version="3" timestamp="2012-03-12T10:02:33Z" changeset="10952842" uid="7037" user="Gregory Williams">
    <nd ref="252642813"/>
    <nd ref="252642817"/>
    <tag k="highway" v="residential"/>
    <tag k="maxspeed" v="30 mph"/>
    <tag k="name" v="Thistledown"/>
  </way>
  <way id="23331788" version="4" timestamp="2021-10-06T21:34:29Z" changeset="112188117" uid="6218813" user="St Mary Clay">
    <nd ref="252642815"/>
    <nd ref="252642818"/>
    <nd ref="252642819"/>
    <nd ref="252642820"/>
    <tag k="highway" v="residential"/>
    <tag k="maxspeed" v="30 mph"/>
    <tag k="name" v="Thistledown"/>
  </way>
  <way id="23331790" version="2" timestamp="2012-03-12T10:02:28Z" changeset="10952842" uid="7037" user="Gregory Williams">
    <nd ref="252642802"/>
    <nd ref="252642822"/>
    <nd ref="252642823"/>
    <tag k="highway" v="residential"/>
    <tag k="maxspeed" v="30 mph"/>
    <tag k="name" v="Newlands Drive"/>
  </way>
  <way id="23331791" version="3" timestamp="2012-03-12T10:02:28Z" changeset="10952842" uid="7037" user="Gregory Williams">
    <nd ref="252642824"/>
    <nd ref="252642823"/>
    <nd ref="252642825"/>
    <tag k="highway" v="residential"/>
    <tag k="maxspeed" v="30 mph"/>
    <tag k="name" v="Newlands Drive"/>
  </way>
  <way id="23331794" version="2" timestamp="2012-03-12T10:02:25Z" changeset="10952842" uid="7037" user="Gregory Williams">
    <nd ref="252642822"/>
    <nd ref="252642831"/>
    <nd ref="252642830"/>
    <tag k="highway" v="residential"/>
    <tag k="maxspeed" v="30 mph"/>
    <tag k="name" v="Kingsland Gardens"/>
  </way>
  <way id="23331795" version="3" timestamp="2012-03-12T10:02:25Z" changeset="10952842" uid="7037" user="Gregory Williams">
    <nd ref="252642831"/>
    <nd ref="252642832"/>
    <tag k="highway" v="residential"/>
    <tag k="maxspeed" v="30 mph"/>
    <tag k="name" v="Kingsland Gardens"/>
  </way>
  <way id="23335742" version="2" timestamp="2012-03-12T10:02:24Z" changeset="10952842" uid="7037" user="Gregory Williams">
    <nd ref="252686228"/>
    <nd ref="252686229"/>
    <nd ref="252686230"/>
    <nd ref="252686231"/>
    <nd ref="252686232"/>
    <nd ref="252686233"/>
    <nd ref="252686234"/>
    <tag k="highway" v="residential"/>
    <tag k="maxspeed" v="30 mph"/>
    <tag k="name" v="Hawksdown"/>
  </way>
  <way id="23335743" version="5" timestamp="2021-04-06T06:28:54Z" changeset="102375599" uid="10305810" user="peddil">
    <nd ref="252686234"/>
    <nd ref="252686235"/>
    <nd ref="252686236"/>
    <nd ref="252686237"/>
    <nd ref="252686238"/>
    <nd ref="252686239"/>
    <nd ref="252686240"/>
    <nd ref="252686241"/>
    <nd ref="252686242"/>
    <nd ref="8597721826"/>
    <nd ref="252686243"/>
    <nd ref="252686244"/>
    <tag k="access" v="private"/>
    <tag k="highway" v="residential"/>
    <tag k="maxspeed" v="15 mph"/>
    <tag k="name" v="Hawksdown"/>
  </way>
  <way id="23335744" version="4" timestamp="2012-03-12T10:02:23Z" changeset="10952842" uid="7037" user="Gregory Williams">
    <nd ref="252686249"/>
    <nd ref="252686241"/>
    <tag k="access" v="private"/>
    <tag k="highway" v="residential"/>
    <tag k="maxspeed" v="15 mph"/>
    <tag k="name" v="Hawksdown"/>
  </way>
  <way id="23335745" version="3" timestamp="2010-02-27T22:20:36Z" changeset="3993236" uid="91657" user="Pink Duck">
    <nd ref="252686246"/>
    <nd ref="252686248"/>
    <nd ref="252686249"/>
    <nd ref="252686247"/>
    <tag k="highway" v="residential"/>
    <tag k="maxspeed" v="15 mph"/>
    <tag k="name" v="Hawksdown"/>
  </way>
  <way id="23335746" version="3" timestamp="2010-02-27T22:20:36Z" changeset="3993236" uid="91657" user="Pink Duck">
    <nd ref="252686244"/>
    <nd ref="252686245"/>
    <nd ref="252686246"/>
    <tag k="highway" v="residential"/>
    <tag k="maxspeed" v="15 mph"/>
    <tag k="name" v="Hawksdown"/>
  </way>
  <way id="23335747" version="3" timestamp="2010-02-27T22:20:37Z" changeset="3993236" uid="91657" user="Pink Duck">
    <nd ref="252686246"/>
    <nd ref="252686250"/>
    <tag k="highway" v="residential"/>
    <tag k="maxspeed" v="15 mph"/>
    <tag k="name" v="Hawksdown"/>
  </way>
  <way id="23335748" version="4" timestamp="2011-01-06T21:48:36Z" changeset="6886621" uid="207745" user="NE2">
    <nd ref="252686251"/>
    <nd ref="252686250"/>
    <nd ref="252686252"/>
    <tag k="highway" v="residential"/>
    <tag k="maxspeed" v="15 mph"/>
    <tag k="name" v="Hawksdown"/>
  </way>
  <way id="23335749" version="3" timestamp="2010-02-27T22:20:36Z" changeset="3993236" uid="91657" user="Pink Duck">
    <nd ref="252686245"/>
    <nd ref="252686253"/>
    <tag k="highway" v="residential"/>
    <tag k="maxspeed" v="15 mph"/>
    <tag k="name" v="Hawksdown"/>
  </way>
  <way id="23335750" version="3" timestamp="2010-02-27T22:20:36Z" changeset="3993236" uid="91657" user="Pink Duck">
    <nd ref="252686254"/>
    <nd ref="252686253"/>
    <nd ref="252686255"/>
    <tag k="highway" v="residential"/>
    <tag k="maxspeed" v="15 mph"/>
    <tag k="name" v="Hawksdown"/>
  </way>
  <way id="23335752" version="3" timestamp="2019-09-18T09:27:03Z" changeset="74614787" uid="10252553" user="chaubean">
    <nd ref="252686258"/>
    <nd ref="6805027958"/>
    <nd ref="252686256"/>
    <tag k="highway" v="residential"/>
    <tag k="maxspeed" v="30 mph"/>
    <tag k="name" v="Hawksdown Road"/>
  </way>
  <way id="23335753" version="2" timestamp="2012-03-12T10:02:35Z" changeset="10952842" uid="7037" user="Gregory Williams">
    <nd ref="252686230"/>
    <nd ref="252686259"/>
    <nd ref="252686260"/>
    <nd ref="252686261"/>
    <nd ref="252686262"/>
    <nd ref="252686263"/>
    <nd ref="252686264"/>
    <nd ref="252686265"/>
    <tag k="highway" v="residential"/>
    <tag k="maxspeed" v="30 mph"/>
    <tag k="name" v="White Acre Drive"/>
  </way>
  <way id="23335774" version="16" timestamp="2024-07-22T22:27:10Z" changeset="154282772" uid="5008136" user="JayTurnr">
    <nd ref="252686494"/>
    <nd ref="12068912686"/>
    <nd ref="1182568796"/>
    <nd ref="252686495"/>
    <nd ref="252686496"/>
    <nd ref="252686497"/>
    <nd ref="252686498"/>
    <nd ref="666992506"/>
    <nd ref="252686258"/>
    <nd ref="252686499"/>
    <nd ref="8601662301"/>
    <nd ref="6710142993"/>
    <nd ref="252686500"/>
    <nd ref="11869581289"/>
    <nd ref="11869581290"/>
    <nd ref="11869581291"/>
    <nd ref="252686501"/>
    <tag k="cycleway:both" v="no"/>
    <tag k="highway" v="residential"/>
    <tag k="lane_markings" v="no"/>
    <tag k="lit" v="yes"/>
    <tag k="maxspeed" v="30 mph"/>
    <tag k="name" v="Grams Road"/>
    <tag k="not:name" v="Gram's Road"/>
    <tag k="sidewalk" v="right"/>
    <tag k="surface" v="asphalt"/>
  </way>
  <way id="23335775" version="7" timestamp="2022-07-28T16:14:21Z" changeset="124192746" uid="1784239" user="SvenTX">
    <nd ref="252686495"/>
    <nd ref="252686502"/>
    <nd ref="252686503"/>
    <nd ref="252686504"/>
    <nd ref="252686505"/>
    <nd ref="252686506"/>
    <nd ref="252686507"/>
    <nd ref="252686508"/>
    <nd ref="252686509"/>
    <tag k="cycleway:both" v="no"/>
    <tag k="highway" v="residential"/>
    <tag k="lane_markings" v="no"/>
    <tag k="lit" v="yes"/>
    <tag k="maxspeed" v="30 mph"/>
    <tag k="name" v="Blake Close"/>
    <tag k="sidewalk" v="both"/>
    <tag k="surface" v="asphalt"/>
  </way>
  <way id="23335776" version="3" timestamp="2012-03-14T16:19:30Z" changeset="10979442" uid="7037" user="Gregory Williams">
    <nd ref="252686510"/>
    <nd ref="252686511"/>
    <tag k="highway" v="residential"/>
    <tag k="maxspeed" v="30 mph"/>
    <tag k="name" v="Blake Close"/>
  </way>
  <way id="23335777" version="3" timestamp="2012-03-14T16:19:30Z" changeset="10979442" uid="7037" user="Gregory Williams">
    <nd ref="252686513"/>
    <nd ref="252686511"/>
    <tag k="highway" v="residential"/>
    <tag k="maxspeed" v="30 mph"/>
    <tag k="name" v="Blake Close"/>
  </way>
  <way id="23335778" version="3" timestamp="2012-03-14T16:19:30Z" changeset="10979442" uid="7037" user="Gregory Williams">
    <nd ref="252686507"/>
    <nd ref="252686511"/>
    <tag k="highway" v="residential"/>
    <tag k="maxspeed" v="30 mph"/>
    <tag k="name" v="Blake Close"/>
  </way>
  <way id="23335779" version="2" timestamp="2012-03-14T16:19:31Z" changeset="10979442" uid="7037" user="Gregory Williams">
    <nd ref="252686508"/>
    <nd ref="252686514"/>
    <nd ref="252686515"/>
    <nd ref="252686516"/>
    <nd ref="252686517"/>
    <tag k="highway" v="residential"/>
    <tag k="maxspeed" v="30 mph"/>
    <tag k="name" v="Blake Close"/>
  </way>
  <way id="23335780" version="3" timestamp="2012-03-14T16:19:30Z" changeset="10979442" uid="7037" user="Gregory Williams">
    <nd ref="252686515"/>
    <nd ref="252686518"/>
    <tag k="highway" v="residential"/>
    <tag k="maxspeed" v="30 mph"/>
    <tag k="name" v="Blake Close"/>
  </way>
  <way id="23335781" version="3" timestamp="2012-03-14T16:19:30Z" changeset="10979442" uid="7037" user="Gregory Williams">
    <nd ref="252686514"/>
    <nd ref="252686519"/>
    <nd ref="252686520"/>
    <nd ref="252686521"/>
    <tag k="highway" v="residential"/>
    <tag k="maxspeed" v="30 mph"/>
    <tag k="name" v="Blake Close"/>
  </way>
  <way id="23335782" version="3" timestamp="2012-03-14T16:19:31Z" changeset="10979442" uid="7037" user="Gregory Williams">
    <nd ref="252686522"/>
    <nd ref="252686523"/>
    <nd ref="252686521"/>
    <nd ref="252686524"/>
    <nd ref="252686525"/>
    <tag k="highway" v="residential"/>
    <tag k="maxspeed" v="30 mph"/>
    <tag k="name" v="Blake Close"/>
  </way>
  <way id="23335783" version="3" timestamp="2012-03-14T16:19:30Z" changeset="10979442" uid="7037" user="Gregory Williams">
    <nd ref="252686504"/>
    <nd ref="252686526"/>
    <tag k="highway" v="residential"/>
    <tag k="maxspeed" v="30 mph"/>
    <tag k="name" v="Blake Close"/>
  </way>
  <way id="23335838" version="8" timestamp="2022-07-28T16:08:45Z" changeset="124192746" uid="1784239" user="SvenTX">
    <nd ref="252686830"/>
    <nd ref="252687794"/>
    <nd ref="252686831"/>
    <nd ref="252686832"/>
    <nd ref="252686833"/>
    <nd ref="252686834"/>
    <nd ref="252686835"/>
    <nd ref="252686836"/>
    <nd ref="252686837"/>
    <nd ref="252686838"/>
    <nd ref="252686498"/>
    <tag k="cycleway:both" v="no"/>
    <tag k="highway" v="residential"/>
    <tag k="lane_markings" v="no"/>
    <tag k="lit" v="yes"/>
    <tag k="maxspeed" v="30 mph"/>
    <tag k="name" v="St. Clare Road"/>
    <tag k="sidewalk" v="both"/>
    <tag k="surface" v="asphalt"/>
  </way>
  <way id="23335839" version="6" timestamp="2022-07-28T16:11:18Z" changeset="124192746" uid="1784239" user="SvenTX">
    <nd ref="252686837"/>
    <nd ref="252686839"/>
    <nd ref="7298718710"/>
    <nd ref="252686840"/>
    <nd ref="252686841"/>
    <nd ref="252686842"/>
    <nd ref="252686843"/>
    <nd ref="252686844"/>
    <nd ref="252686845"/>
    <nd ref="252686846"/>
    <nd ref="252686847"/>
    <nd ref="252686848"/>
    <nd ref="252686849"/>
    <tag k="highway" v="residential"/>
    <tag k="lane_markings" v="no"/>
    <tag k="lit" v="yes"/>
    <tag k="maxspeed" v="30 mph"/>
    <tag k="name" v="Roselands"/>
    <tag k="surface" v="asphalt"/>
  </way>
  <way id="23335849" version="2" timestamp="2012-03-14T16:19:35Z" changeset="10979442" uid="7037" user="Gregory Williams">
    <nd ref="252686842"/>
    <nd ref="252686886"/>
    <nd ref="252686884"/>
    <nd ref="252686871"/>
    <nd ref="252686872"/>
    <nd ref="252686873"/>
    <nd ref="252686874"/>
    <nd ref="252686875"/>
    <tag k="highway" v="residential"/>
    <tag k="maxspeed" v="30 mph"/>
    <tag k="name" v="Poets Walk"/>
  </way>
  <way id="23335872" version="2" timestamp="2012-03-14T16:19:29Z" changeset="10979442" uid="7037" user="Gregory Williams">
    <nd ref="252686500"/>
    <nd ref="252686944"/>
    <nd ref="252686945"/>
    <nd ref="252686946"/>
    <tag k="highway" v="residential"/>
    <tag k="maxspeed" v="30 mph"/>
    <tag k="name" v="Badgers Rise"/>
  </way>
  <way id="23335873" version="3" timestamp="2012-03-14T16:19:29Z" changeset="10979442" uid="7037" user="Gregory Williams">
    <nd ref="252686945"/>
    <nd ref="252686947"/>
    <tag k="highway" v="residential"/>
    <tag k="maxspeed" v="30 mph"/>
    <tag k="name" v="Badgers Rise"/>
  </way>
  <way id="23335875" version="1" timestamp="2008-03-18T08:11:55Z" changeset="346657" uid="7037" user="Gregory Williams">
    <nd ref="252686949"/>
    <nd ref="252686960"/>
    <nd ref="252686950"/>
    <nd ref="252686951"/>
    <nd ref="252686952"/>
    <nd ref="252686953"/>
    <nd ref="252686948"/>
    <nd ref="252686954"/>
    <nd ref="252686955"/>
    <nd ref="252686956"/>
    <nd ref="252686957"/>
    <nd ref="252686961"/>
    <nd ref="252686958"/>
    <tag k="created_by" v="JOSM"/>
    <tag k="highway" v="residential"/>
    <tag k="name" v="Trinity Homes"/>
  </way>
  <way id="23335886" version="7" timestamp="2024-04-30T17:30:28Z" changeset="150719625" uid="4833194" user="motogs">
    <nd ref="353783724"/>
    <nd ref="252687000"/>
    <nd ref="1906599077"/>
    <nd ref="1906599078"/>
    <nd ref="252687001"/>
    <nd ref="252687002"/>
    <nd ref="1906599080"/>
    <nd ref="252687003"/>
    <nd ref="1906599081"/>
    <nd ref="252687004"/>
    <nd ref="252687005"/>
    <nd ref="11869581288"/>
    <nd ref="252687006"/>
    <tag k="highway" v="unclassified"/>
    <tag k="maxspeed" v="60 mph"/>
    <tag k="maxspeed:type" v="GB:nsl_single"/>
    <tag k="name" v="Liverpool Road"/>
  </way>
  <way id="23335945" version="7" timestamp="2024-04-30T17:30:28Z" changeset="150719625" uid="4833194" user="motogs">
    <nd ref="252687015"/>
    <nd ref="252687399"/>
    <nd ref="252687400"/>
    <nd ref="252687401"/>
    <nd ref="252687402"/>
    <nd ref="252687403"/>
    <nd ref="252687404"/>
    <nd ref="252687406"/>
    <nd ref="252687407"/>
    <nd ref="252687408"/>
    <nd ref="252687409"/>
    <nd ref="252687410"/>
    <nd ref="252687411"/>
    <nd ref="252687412"/>
    <nd ref="252687413"/>
    <nd ref="252687414"/>
    <tag k="cycleway:both" v="no"/>
    <tag k="highway" v="residential"/>
    <tag k="lane_markings" v="no"/>
    <tag k="maxspeed" v="30 mph"/>
    <tag k="note" v="I didn't see a name anywhere."/>
    <tag k="sidewalk" v="no"/>
    <tag k="surface" v="asphalt"/>
  </way>
  <way id="23335963" version="6" timestamp="2024-01-26T13:44:19Z" changeset="146710712" uid="20727137" user="JXL56JLI0B">
    <nd ref="252686836"/>
    <nd ref="252686864"/>
    <nd ref="252687596"/>
    <nd ref="252687597"/>
    <nd ref="252687598"/>
    <nd ref="252686865"/>
    <nd ref="252687599"/>
    <nd ref="252687602"/>
    <nd ref="11553969646"/>
    <nd ref="252687600"/>
    <nd ref="252687601"/>
    <tag k="highway" v="residential"/>
    <tag k="lane_markings" v="no"/>
    <tag k="lit" v="yes"/>
    <tag k="maxspeed" v="30 mph"/>
    <tag k="name" v="St. Marys Road"/>
    <tag k="surface" v="asphalt"/>
  </way>
  <way id="23335964" version="3" timestamp="2012-03-14T16:19:39Z" changeset="10979442" uid="7037" user="Gregory Williams">
    <nd ref="252687600"/>
    <nd ref="252687604"/>
    <nd ref="252687605"/>
    <tag k="highway" v="residential"/>
    <tag k="maxspeed" v="30 mph"/>
    <tag k="name" v="St. Mildreds Court"/>
  </way>
  <way id="23335965" version="3" timestamp="2012-03-14T16:19:39Z" changeset="10979442" uid="7037" user="Gregory Williams">
    <nd ref="252687606"/>
    <nd ref="252687605"/>
    <nd ref="252687607"/>
    <tag k="highway" v="residential"/>
    <tag k="maxspeed" v="30 mph"/>
    <tag k="name" v="St. Mildreds Court"/>
  </way>
  <way id="23335967" version="2" timestamp="2012-03-14T16:19:41Z" changeset="10979442" uid="7037" user="Gregory Williams">
    <nd ref="252687599"/>
    <nd ref="252687609"/>
    <nd ref="252686866"/>
    <nd ref="252687610"/>
    <tag k="highway" v="residential"/>
    <tag k="maxspeed" v="30 mph"/>
    <tag k="name" v="The Shrubbery"/>
  </way>
  <way id="23335968" version="3" timestamp="2012-03-14T16:19:40Z" changeset="10979442" uid="7037" user="Gregory Williams">
    <nd ref="252687611"/>
    <nd ref="252687610"/>
    <nd ref="252687612"/>
    <tag k="highway" v="residential"/>
    <tag k="maxspeed" v="30 mph"/>
    <tag k="name" v="The Shrubbery"/>
  </way>
  <way id="23335969" version="2" timestamp="2012-03-14T16:19:39Z" changeset="10979442" uid="7037" user="Gregory Williams">
    <nd ref="252687609"/>
    <nd ref="252687613"/>
    <nd ref="252687614"/>
    <tag k="highway" v="residential"/>
    <tag k="maxspeed" v="30 mph"/>
    <tag k="name" v="The Shrubbery"/>
  </way>
  <way id="23335970" version="2" timestamp="2012-03-14T16:19:39Z" changeset="10979442" uid="7037" user="Gregory Williams">
    <nd ref="252687613"/>
    <nd ref="252687615"/>
    <tag k="highway" v="residential"/>
    <tag k="maxspeed" v="30 mph"/>
    <tag k="name" v="The Shrubbery"/>
  </way>
  <way id="23335971" version="3" timestamp="2012-03-14T16:19:40Z" changeset="10979442" uid="7037" user="Gregory Williams">
    <nd ref="252687616"/>
    <nd ref="252687615"/>
    <nd ref="252687617"/>
    <tag k="highway" v="residential"/>
    <tag k="maxspeed" v="30 mph"/>
    <tag k="name" v="The Shrubbery"/>
  </way>
  <way id="23335980" version="7" timestamp="2022-07-28T16:07:59Z" changeset="124193545" uid="1784239" user="SvenTX">
    <nd ref="252687787"/>
    <nd ref="252687788"/>
    <nd ref="8603251418"/>
    <nd ref="252687601"/>
    <nd ref="252693807"/>
    <nd ref="252687608"/>
    <nd ref="252687789"/>
    <nd ref="252687790"/>
    <nd ref="252687791"/>
    <nd ref="252687792"/>
    <nd ref="252687793"/>
    <nd ref="252687794"/>
    <tag k="cycleway:both" v="no"/>
    <tag k="highway" v="residential"/>
    <tag k="maxspeed" v="30 mph"/>
    <tag k="name" v="Walmer Castle Road"/>
    <tag k="sidewalk" v="right"/>
    <tag k="surface" v="asphalt"/>
  </way>
  <way id="23335981" version="2" timestamp="2012-03-14T16:19:32Z" changeset="10979442" uid="7037" user="Gregory Williams">
    <nd ref="252687789"/>
    <nd ref="252687795"/>
    <nd ref="252687796"/>
    <nd ref="252687797"/>
    <nd ref="252687798"/>
    <nd ref="252687799"/>
    <nd ref="252687800"/>
    <nd ref="252687801"/>
    <nd ref="249193777"/>
    <nd ref="252687802"/>
    <nd ref="252687803"/>
    <nd ref="252687804"/>
    <tag k="highway" v="residential"/>
    <tag k="maxspeed" v="30 mph"/>
    <tag k="name" v="Channel Lea"/>
    <tag k="source" v="survey"/>
  </way>
  <way id="23335985" version="2" timestamp="2012-03-14T16:19:32Z" changeset="10979442" uid="7037" user="Gregory Williams">
    <nd ref="252687797"/>
    <nd ref="252687812"/>
    <nd ref="252687813"/>
    <nd ref="252687814"/>
    <nd ref="252687815"/>
    <nd ref="252687816"/>
    <tag k="highway" v="residential"/>
    <tag k="maxspeed" v="30 mph"/>
    <tag k="name" v="Channel Lea"/>
  </way>
  <way id="23335986" version="2" timestamp="2012-03-14T16:19:33Z" changeset="10979442" uid="7037" user="Gregory Williams">
    <nd ref="252687799"/>
    <nd ref="252687817"/>
    <tag k="highway" v="residential"/>
    <tag k="maxspeed" v="30 mph"/>
    <tag k="name" v="Greenacre Drive"/>
  </way>
  <way id="23335987" version="2" timestamp="2012-03-14T16:19:33Z" changeset="10979442" uid="7037" user="Gregory Williams">
    <nd ref="252687818"/>
    <nd ref="252687811"/>
    <nd ref="252687819"/>
    <nd ref="252687820"/>
    <nd ref="252687821"/>
    <nd ref="252687817"/>
    <nd ref="252687822"/>
    <nd ref="252687823"/>
    <nd ref="252687824"/>
    <nd ref="252687825"/>
    <nd ref="252687826"/>
    <tag k="highway" v="residential"/>
    <tag k="maxspeed" v="30 mph"/>
    <tag k="name" v="Greenacre Drive"/>
  </way>
  <way id="23335988" version="3" timestamp="2012-03-14T16:19:34Z" changeset="10979442" uid="7037" user="Gregory Williams">
    <nd ref="252687827"/>
    <nd ref="252687826"/>
    <nd ref="252687828"/>
    <tag k="highway" v="residential"/>
    <tag k="maxspeed" v="30 mph"/>
    <tag k="name" v="Greenacre Drive"/>
  </way>
  <way id="23336013" version="8" timestamp="2022-07-28T16:06:29Z" changeset="124192746" uid="1784239" user="SvenTX">
    <nd ref="252686830"/>
    <nd ref="252688007"/>
    <nd ref="252688008"/>
    <nd ref="252688009"/>
    <nd ref="252688010"/>
    <nd ref="252688011"/>
    <nd ref="252688013"/>
    <nd ref="252688014"/>
    <nd ref="7787038858"/>
    <nd ref="252688015"/>
    <nd ref="252688016"/>
    <nd ref="252688017"/>
    <nd ref="252688018"/>
    <nd ref="252688019"/>
    <tag k="cycleway:both" v="no"/>
    <tag k="highway" v="residential"/>
    <tag k="lanes" v="2"/>
    <tag k="lit" v="yes"/>
    <tag k="maxspeed" v="30 mph"/>
    <tag k="name" v="Liverpool Road"/>
    <tag k="sidewalk" v="left"/>
    <tag k="surface" v="asphalt"/>
  </way>
  <way id="23336022" version="6" timestamp="2024-07-22T22:29:18Z" changeset="154282804" uid="5008136" user="JayTurnr">
    <nd ref="249193572"/>
    <nd ref="12068929427"/>
    <nd ref="12068929424"/>
    <nd ref="252688114"/>
    <nd ref="252688115"/>
    <nd ref="8882680873"/>
    <nd ref="252688116"/>
    <nd ref="8882680867"/>
    <nd ref="252688117"/>
    <nd ref="252688118"/>
    <tag k="abutters" v="residential"/>
    <tag k="highway" v="tertiary"/>
    <tag k="maxspeed" v="30 mph"/>
    <tag k="name" v="Granville Road"/>
    <tag k="source" v="survey"/>
    <tag k="surface" v="asphalt"/>
  </way>
  <way id="23336023" version="2" timestamp="2012-03-14T16:19:41Z" changeset="10979442" uid="7037" user="Gregory Williams">
    <nd ref="252688116"/>
    <nd ref="252688120"/>
    <tag k="highway" v="residential"/>
    <tag k="maxspeed" v="30 mph"/>
    <tag k="name" v="Willingdon Place"/>
  </way>
  <way id="23336024" version="3" timestamp="2012-03-14T16:19:41Z" changeset="10979442" uid="7037" user="Gregory Williams">
    <nd ref="252688121"/>
    <nd ref="252688120"/>
    <nd ref="252688122"/>
    <tag k="highway" v="residential"/>
    <tag k="maxspeed" v="30 mph"/>
    <tag k="name" v="Willingdon Place"/>
  </way>
  <way id="23336025" version="2" timestamp="2012-03-14T16:19:34Z" changeset="10979442" uid="7037" user="Gregory Williams">
    <nd ref="252688114"/>
    <nd ref="252688123"/>
    <nd ref="252688124"/>
    <nd ref="252688125"/>
    <nd ref="252688126"/>
    <nd ref="252688127"/>
    <nd ref="252688128"/>
    <tag k="highway" v="residential"/>
    <tag k="maxspeed" v="30 mph"/>
    <tag k="name" v="Knoll Place"/>
  </way>
  <way id="23336026" version="2" timestamp="2011-09-01T02:22:56Z" changeset="9181205" uid="207745" user="NE2">
    <nd ref="252688129"/>
    <nd ref="252688125"/>
    <tag k="highway" v="residential"/>
    <tag k="name" v="Knoll Place"/>
  </way>
  <way id="23336046" version="4" timestamp="2024-04-30T17:38:05Z" changeset="150719970" uid="19880472" user="aknight22">
    <nd ref="252688261"/>
    <nd ref="8815761713"/>
    <nd ref="8815761714"/>
    <nd ref="8815761715"/>
    <nd ref="8815761716"/>
    <nd ref="8815765717"/>
    <nd ref="8815765718"/>
    <nd ref="8815765719"/>
    <nd ref="8815765720"/>
    <nd ref="8815765721"/>
    <nd ref="8815765722"/>
    <tag k="highway" v="residential"/>
    <tag k="maxspeed" v="30 mph"/>
    <tag k="name" v="Liverpool Road"/>
  </way>
  <way id="23336047" version="4" timestamp="2021-06-08T21:24:03Z" changeset="106057679" uid="4833194" user="motogs">
    <nd ref="8815765722"/>
    <nd ref="252688263"/>
    <tag k="highway" v="residential"/>
    <tag k="maxspeed" v="30 mph"/>
    <tag k="name" v="Liverpool Road"/>
  </way>
  <way id="23336048" version="3" timestamp="2012-03-19T09:37:26Z" changeset="11027798" uid="7037" user="Gregory Williams">
    <nd ref="252688263"/>
    <nd ref="252688206"/>
    <nd ref="252688273"/>
    <nd ref="252688274"/>
    <nd ref="252688275"/>
    <nd ref="252688276"/>
    <nd ref="252688277"/>
    <tag k="highway" v="residential"/>
    <tag k="lcn" v="proposed"/>
    <tag k="maxspeed" v="30 mph"/>
    <tag k="name" v="Warwick Road"/>
  </way>
  <way id="23336069" version="4" timestamp="2020-12-08T07:16:26Z" changeset="95466373" uid="11734041" user="gnischa">
    <nd ref="252688261"/>
    <nd ref="252688644"/>
    <nd ref="252688645"/>
    <nd ref="252688646"/>
    <nd ref="252688647"/>
    <nd ref="252688648"/>
    <nd ref="252688649"/>
    <nd ref="252688650"/>
    <nd ref="252688651"/>
    <nd ref="252688652"/>
    <nd ref="252688684"/>
    <nd ref="252688653"/>
    <nd ref="252688654"/>
    <nd ref="252688655"/>
    <nd ref="8204612928"/>
    <nd ref="252688656"/>
    <nd ref="252688657"/>
    <nd ref="252688658"/>
    <nd ref="252688659"/>
    <nd ref="252688660"/>
    <nd ref="252688264"/>
    <tag k="highway" v="residential"/>
    <tag k="maxspeed" v="30 mph"/>
    <tag k="name" v="Lord Warden Avenue"/>
  </way>
  <way id="23336072" version="1" timestamp="2008-03-18T08:50:53Z" changeset="346657" uid="7037" user="Gregory Williams">
    <nd ref="252688654"/>
    <nd ref="252688664"/>
    <nd ref="252688665"/>
    <tag k="created_by" v="JOSM"/>
    <tag k="highway" v="residential"/>
    <tag k="name" v="Lord Warden Avenue"/>
  </way>
  <way id="23336073" version="2" timestamp="2012-03-19T09:37:23Z" changeset="11027798" uid="7037" user="Gregory Williams">
    <nd ref="252688666"/>
    <nd ref="252688667"/>
    <nd ref="252688664"/>
    <tag k="highway" v="residential"/>
    <tag k="maxspeed" v="30 mph"/>
    <tag k="name" v="Lord Warden Avenue"/>
  </way>
  <way id="23336075" version="3" timestamp="2012-03-19T09:37:24Z" changeset="11027798" uid="7037" user="Gregory Williams">
    <nd ref="252688652"/>
    <nd ref="252688683"/>
    <nd ref="252688668"/>
    <nd ref="252688669"/>
    <nd ref="252688670"/>
    <nd ref="252688671"/>
    <nd ref="252688672"/>
    <nd ref="252688673"/>
    <tag k="highway" v="residential"/>
    <tag k="maxspeed" v="30 mph"/>
    <tag k="name" v="Lord Warden Avenue"/>
  </way>
  <way id="23336088" version="2" timestamp="2012-03-19T09:37:16Z" changeset="11027798" uid="7037" user="Gregory Williams">
    <nd ref="252688647"/>
    <nd ref="252688824"/>
    <nd ref="252688826"/>
    <nd ref="252688827"/>
    <nd ref="252688829"/>
    <nd ref="252688830"/>
    <tag k="highway" v="residential"/>
    <tag k="maxspeed" v="30 mph"/>
    <tag k="name" v="Hanover Close"/>
  </way>
  <way id="23336134" version="4" timestamp="2022-05-03T16:55:29Z" changeset="120508105" uid="4833194" user="motogs">
    <nd ref="252689314"/>
    <nd ref="9711800781"/>
    <nd ref="1182567247"/>
    <nd ref="1182567249"/>
    <nd ref="252688266"/>
    <tag k="highway" v="residential"/>
    <tag k="maxspeed" v="30 mph"/>
    <tag k="name" v="Archery Square"/>
    <tag k="source" v="survey"/>
  </way>
  <way id="23336135" version="5" timestamp="2024-07-22T22:58:17Z" changeset="154283332" uid="5008136" user="JayTurnr">
    <nd ref="33452631"/>
    <nd ref="12068943091"/>
    <nd ref="9711800784"/>
    <nd ref="12068938707"/>
    <nd ref="12068938708"/>
    <nd ref="252688268"/>
    <tag k="highway" v="residential"/>
    <tag k="maxspeed" v="30 mph"/>
    <tag k="name" v="Archery Square"/>
    <tag k="source" v="survey"/>
  </way>
  <way id="23336136" version="4" timestamp="2012-03-19T09:37:13Z" changeset="11027798" uid="7037" user="Gregory Williams">
    <nd ref="252688268"/>
    <nd ref="1181939841"/>
    <nd ref="1181940683"/>
    <nd ref="252689315"/>
    <tag k="highway" v="residential"/>
    <tag k="maxspeed" v="30 mph"/>
    <tag k="name" v="Clarence Road"/>
    <tag k="source" v="survey"/>
  </way>
  <way id="23336142" version="3" timestamp="2012-03-19T09:37:21Z" changeset="11027798" uid="7037" user="Gregory Williams">
    <nd ref="252688269"/>
    <nd ref="1182567250"/>
    <nd ref="33452630"/>
    <tag k="highway" v="residential"/>
    <tag k="maxspeed" v="30 mph"/>
    <tag k="name" v="King Street"/>
  </way>
  <way id="23336143" version="4" timestamp="2021-06-08T21:24:03Z" changeset="106057679" uid="4833194" user="motogs">
    <nd ref="252689767"/>
    <nd ref="8815761693"/>
    <nd ref="252688270"/>
    <nd ref="252689387"/>
    <nd ref="252689388"/>
    <nd ref="252689389"/>
    <tag k="highway" v="residential"/>
    <tag k="maxspeed" v="30 mph"/>
    <tag k="name" v="Cambridge Road"/>
  </way>
  <way id="23336144" version="2" timestamp="2012-03-19T09:37:12Z" changeset="11027798" uid="7037" user="Gregory Williams">
    <nd ref="252689387"/>
    <nd ref="252689391"/>
    <nd ref="252689392"/>
    <tag k="access" v="private"/>
    <tag k="highway" v="residential"/>
    <tag k="maxspeed" v="30 mph"/>
    <tag k="name" v="Cambridge Mews"/>
  </way>
  <way id="23336145" version="2" timestamp="2012-03-19T09:37:16Z" changeset="11027798" uid="7037" user="Gregory Williams">
    <nd ref="252689388"/>
    <nd ref="252689393"/>
    <nd ref="252688271"/>
    <tag k="highway" v="residential"/>
    <tag k="maxspeed" v="30 mph"/>
    <tag k="name" v="Grove Road"/>
  </way>
  <way id="23336185" version="3" timestamp="2012-03-19T09:37:10Z" changeset="11027798" uid="7037" user="Gregory Williams">
    <nd ref="252688265"/>
    <nd ref="252689766"/>
    <tag k="highway" v="residential"/>
    <tag k="lcn" v="proposed"/>
    <tag k="maxspeed" v="30 mph"/>
    <tag k="name" v="Alexandra Road"/>
  </way>
  <way id="23336186" version="2" timestamp="2023-03-30T12:23:03Z" changeset="134302573" uid="4833194" user="motogs">
    <nd ref="33452628"/>
    <nd ref="252689769"/>
    <tag k="highway" v="unclassified"/>
    <tag k="note" v="Doesn't appear to have a name."/>
  </way>
  <way id="23336187" version="3" timestamp="2024-07-22T22:43:35Z" changeset="154283076" uid="5008136" user="JayTurnr">
    <nd ref="10773289551"/>
    <nd ref="12068938605"/>
    <nd ref="10773289549"/>
    <tag k="highway" v="tertiary"/>
    <tag k="name" v="The Beach"/>
    <tag k="oneway" v="yes"/>
  </way>
  <way id="23336188" version="11" timestamp="2024-07-22T22:43:35Z" changeset="154283076" uid="5008136" user="JayTurnr">
    <nd ref="10773289551"/>
    <nd ref="12068938604"/>
    <nd ref="252691228"/>
    <nd ref="252689769"/>
    <nd ref="252689771"/>
    <nd ref="252689772"/>
    <nd ref="252689767"/>
    <nd ref="252689773"/>
    <nd ref="252689315"/>
    <nd ref="1181941082"/>
    <nd ref="252689766"/>
    <tag k="highway" v="tertiary"/>
    <tag k="maxspeed" v="30 mph"/>
    <tag k="name" v="The Beach"/>
  </way>
  <way id="23336320" version="5" timestamp="2024-07-22T22:43:35Z" changeset="154283076" uid="5008136" user="JayTurnr">
    <nd ref="10773289550"/>
    <nd ref="252690445"/>
    <nd ref="10773289556"/>
    <nd ref="10773289555"/>
    <nd ref="10773289551"/>
    <tag k="highway" v="tertiary"/>
    <tag k="name" v="The Strand"/>
    <tag k="oneway" v="yes"/>
  </way>
  <way id="23336340" version="3" timestamp="2021-08-18T18:34:12Z" changeset="109890688" uid="5008136" user="JayTurnr">
    <nd ref="247939037"/>
    <nd ref="247939038"/>
    <nd ref="247939039"/>
    <nd ref="249197613"/>
    <nd ref="247939042"/>
    <nd ref="247939043"/>
    <nd ref="247939044"/>
    <nd ref="247939045"/>
    <tag k="cycleway:both" v="no"/>
    <tag k="highway" v="residential"/>
    <tag k="maxspeed" v="30 mph"/>
    <tag k="name" v="Cheriton Road"/>
  </way>
  <way id="23622828" version="3" timestamp="2023-03-28T14:49:12Z" changeset="134224071" uid="4833194" user="motogs">
    <nd ref="10768910131"/>
    <nd ref="252690149"/>
    <nd ref="252690150"/>
    <nd ref="252690151"/>
    <nd ref="252690147"/>
    <nd ref="255890728"/>
    <nd ref="255890730"/>
    <nd ref="255890732"/>
    <nd ref="255890734"/>
    <nd ref="255890736"/>
    <nd ref="255890738"/>
    <nd ref="255890740"/>
    <nd ref="252690161"/>
    <tag k="access" v="private"/>
    <tag k="highway" v="residential"/>
    <tag k="name" v="Hawkshill Road"/>
  </way>
  <way id="25935780" version="14" timestamp="2025-01-21T08:55:16Z" changeset="161591239" uid="7037" user="Gregory Williams">
    <nd ref="1906599072"/>
    <nd ref="1906599073"/>
    <nd ref="1906599074"/>
    <nd ref="282908590"/>
    <nd ref="1154174618"/>
    <nd ref="282908589"/>
    <nd ref="8034558037"/>
    <nd ref="1906599076"/>
    <nd ref="282908588"/>
    <nd ref="282908587"/>
    <nd ref="282908586"/>
    <nd ref="1793214949"/>
    <nd ref="353783722"/>
    <nd ref="252686999"/>
    <nd ref="353783724"/>
    <tag k="highway" v="unclassified"/>
    <tag k="maxspeed" v="60 mph"/>
    <tag k="maxspeed:type" v="GB:nsl_single"/>
    <tag k="name" v="Glen Road"/>
  </way>
  <way id="26484454" version="4" timestamp="2012-03-14T16:25:50Z" changeset="10979517" uid="7037" user="Gregory Williams">
    <nd ref="249193642"/>
    <nd ref="249190299"/>
    <nd ref="249190300"/>
    <nd ref="1674687486"/>
    <nd ref="249190301"/>
    <nd ref="1674687484"/>
    <nd ref="249190533"/>
    <nd ref="249193554"/>
    <nd ref="249193556"/>
    <nd ref="1674687481"/>
    <nd ref="249193557"/>
    <tag k="abutters" v="residential"/>
    <tag k="highway" v="tertiary"/>
    <tag k="maxspeed" v="30 mph"/>
    <tag k="name" v="Salisbury Road"/>
    <tag k="source" v="survey"/>
  </way>
  <way id="49431756" version="10" timestamp="2025-01-21T08:55:16Z" changeset="161591239" uid="7037" user="Gregory Williams">
    <nd ref="627875177"/>
    <nd ref="7553698082"/>
    <nd ref="1681360963"/>
    <nd ref="1681360959"/>
    <tag k="highway" v="unclassified"/>
    <tag k="maxspeed" v="20 mph"/>
    <tag k="name" v="No Name Lane"/>
  </way>
  <way id="49978534" version="10" timestamp="2024-07-22T22:36:16Z" changeset="154282960" uid="5008136" user="JayTurnr">
    <nd ref="249193747"/>
    <nd ref="8107422788"/>
    <nd ref="12068937803"/>
    <nd ref="252689314"/>
    <nd ref="33452631"/>
    <nd ref="33452630"/>
    <nd ref="252689389"/>
    <nd ref="33452629"/>
    <nd ref="9711725292"/>
    <nd ref="247939307"/>
    <nd ref="1182567246"/>
    <nd ref="247939103"/>
    <tag k="highway" v="primary"/>
    <tag k="maxspeed" v="30 mph"/>
    <tag k="name" v="Dover Road"/>
    <tag k="ref" v="A258"/>
    <tag k="source" v="survey"/>
  </way>
  <way id="49978538" version="10" timestamp="2024-07-22T22:27:10Z" changeset="154282772" uid="5008136" user="JayTurnr">
    <nd ref="247230490"/>
    <nd ref="249186096"/>
    <nd ref="11082768715"/>
    <nd ref="627850781"/>
    <nd ref="247230494"/>
    <nd ref="249186061"/>
    <nd ref="249186060"/>
    <nd ref="247230495"/>
    <nd ref="249186070"/>
    <nd ref="249186066"/>
    <nd ref="247230496"/>
    <nd ref="4581644917"/>
    <nd ref="12068912685"/>
    <nd ref="33452641"/>
    <tag k="abutters" v="residential"/>
    <tag k="cycleway:both" v="no"/>
    <tag k="highway" v="tertiary"/>
    <tag k="lane_markings" v="no"/>
    <tag k="lit" v="yes"/>
    <tag k="maxspeed" v="30 mph"/>
    <tag k="name" v="Station Road"/>
    <tag k="sidewalk" v="both"/>
    <tag k="source" v="survey"/>
    <tag k="surface" v="asphalt"/>
  </way>
  <way id="49978540" version="2" timestamp="2012-03-14T16:19:38Z" changeset="10979442" uid="7037" user="Gregory Williams">
    <nd ref="249193557"/>
    <nd ref="1674687483"/>
    <nd ref="249193559"/>
    <nd ref="249193560"/>
    <nd ref="249193562"/>
    <nd ref="1674687485"/>
    <nd ref="249193563"/>
    <nd ref="249193565"/>
    <tag k="abutters" v="residential"/>
    <tag k="highway" v="tertiary"/>
    <tag k="lcn" v="proposed"/>
    <tag k="maxspeed" v="30 mph"/>
    <tag k="name" v="Salisbury Road"/>
    <tag k="source" v="survey"/>
  </way>
  <way id="49978541" version="4" timestamp="2024-07-22T22:29:18Z" changeset="154282804" uid="5008136" user="JayTurnr">
    <nd ref="249193565"/>
    <nd ref="1674687498"/>
    <nd ref="249193567"/>
    <nd ref="249193568"/>
    <nd ref="249193570"/>
    <nd ref="6485981385"/>
    <nd ref="6485981391"/>
    <nd ref="12068929425"/>
    <nd ref="12068929426"/>
    <nd ref="249193572"/>
    <tag k="abutters" v="residential"/>
    <tag k="highway" v="tertiary"/>
    <tag k="maxspeed" v="30 mph"/>
    <tag k="name" v="Salisbury Road"/>
    <tag k="source" v="survey"/>
  </way>
  <way id="49978542" version="4" timestamp="2022-05-03T16:25:46Z" changeset="120507105" uid="4833194" user="motogs">
    <nd ref="252688265"/>
    <nd ref="8815761696"/>
    <nd ref="252688266"/>
    <nd ref="252688267"/>
    <nd ref="252688268"/>
    <nd ref="252688269"/>
    <nd ref="252688270"/>
    <nd ref="252688271"/>
    <nd ref="252688272"/>
    <nd ref="9711725291"/>
    <nd ref="9711725292"/>
    <tag k="highway" v="residential"/>
    <tag k="maxspeed" v="30 mph"/>
    <tag k="name" v="Liverpool Road"/>
  </way>
  <way id="49978543" version="2" timestamp="2011-05-12T17:21:08Z" changeset="8124331" uid="7037" user="Gregory Williams">
    <nd ref="252688277"/>
    <nd ref="249193747"/>
    <tag k="highway" v="primary"/>
    <tag k="lcn" v="proposed"/>
    <tag k="maxspeed" v="30 mph"/>
    <tag k="ref" v="A258"/>
    <tag k="source" v="survey"/>
  </way>
  <way id="49978544" version="2" timestamp="2012-03-19T09:37:18Z" changeset="11027798" uid="7037" user="Gregory Williams">
    <nd ref="249193746"/>
    <nd ref="249193580"/>
    <tag k="highway" v="residential"/>
    <tag k="lcn" v="proposed"/>
    <tag k="maxspeed" v="30 mph"/>
    <tag k="name" v="Herschell Square"/>
    <tag k="source" v="survey"/>
  </way>
  <way id="49978545" version="3" timestamp="2024-04-30T17:38:05Z" changeset="150719970" uid="19880472" user="aknight22">
    <nd ref="252688264"/>
    <nd ref="252688265"/>
    <tag k="highway" v="residential"/>
    <tag k="lcn" v="proposed"/>
    <tag k="maxspeed" v="30 mph"/>
    <tag k="name" v="Liverpool Road"/>
  </way>
  <way id="68875300" version="8" timestamp="2022-05-03T14:33:55Z" changeset="120502763" uid="4833194" user="motogs">
    <nd ref="252689766"/>
    <nd ref="1681361010"/>
    <nd ref="252689774"/>
    <nd ref="1181939953"/>
    <nd ref="252689775"/>
    <nd ref="252689776"/>
    <nd ref="9711497990"/>
    <tag k="highway" v="tertiary"/>
    <tag k="maxspeed" v="30 mph"/>
    <tag k="name" v="Kingsdown Road"/>
  </way>
  <way id="77611523" version="6" timestamp="2025-01-21T08:55:16Z" changeset="161591239" uid="7037" user="Gregory Williams">
    <nd ref="913199043"/>
    <nd ref="913199039"/>
    <nd ref="913199035"/>
    <nd ref="913199037"/>
    <nd ref="913199036"/>
    <nd ref="913199038"/>
    <nd ref="913199041"/>
    <nd ref="913199042"/>
    <nd ref="913199034"/>
    <nd ref="913199040"/>
    <tag k="access" v="private"/>
    <tag k="highway" v="residential"/>
    <tag k="maxspeed" v="20 mph"/>
    <tag k="name" v="Wellington Parade"/>
    <tag k="paved" v="no"/>
    <tag k="surface" v="unpaved"/>
  </way>
  <way id="84079705" version="12" timestamp="2025-01-21T08:55:16Z" changeset="161591239" uid="7037" user="Gregory Williams">
    <nd ref="913199040"/>
    <nd ref="627875177"/>
    <nd ref="5598877562"/>
    <tag k="highway" v="residential"/>
    <tag k="lane_markings" v="no"/>
    <tag k="lit" v="no"/>
    <tag k="maxspeed" v="20 mph"/>
    <tag k="name" v="Boundary Road"/>
    <tag k="surface" v="asphalt"/>
    <tag k="width" v="5"/>
  </way>
  <way id="84079709" version="3" timestamp="2025-01-21T08:55:16Z" changeset="161591239" uid="7037" user="Gregory Williams">
    <nd ref="913199037"/>
    <nd ref="8606553563"/>
    <nd ref="913195772"/>
    <tag k="highway" v="residential"/>
    <tag k="lit" v="no"/>
    <tag k="maxspeed" v="10 mph"/>
    <tag k="name" v="Cecil Road"/>
    <tag k="surface" v="gravel"/>
  </way>
  <way id="98102542" version="9" timestamp="2024-07-22T22:43:35Z" changeset="154283076" uid="5008136" user="JayTurnr">
    <nd ref="247939103"/>
    <nd ref="33452628"/>
    <nd ref="1281854715"/>
    <nd ref="1281854774"/>
    <nd ref="10773289549"/>
    <nd ref="10773289550"/>
    <nd ref="1181940320"/>
    <nd ref="1181940191"/>
    <nd ref="252691868"/>
    <nd ref="10774102093"/>
    <nd ref="12068938606"/>
    <nd ref="33452626"/>
    <nd ref="12068938607"/>
    <nd ref="252690447"/>
    <nd ref="12068938608"/>
    <nd ref="12068938609"/>
    <nd ref="252691872"/>
    <nd ref="247939077"/>
    <nd ref="12068938610"/>
    <nd ref="1281854805"/>
    <nd ref="959317612"/>
    <nd ref="247939037"/>
    <nd ref="33452625"/>
    <nd ref="1181940792"/>
    <nd ref="33452624"/>
    <nd ref="1407604878"/>
    <nd ref="247935955"/>
    <tag k="highway" v="primary"/>
    <tag k="maxspeed" v="30 mph"/>
    <tag k="name" v="The Strand"/>
    <tag k="ref" v="A258"/>
    <tag k="source" v="survey"/>
  </way>
  <way id="105717942" version="3" timestamp="2020-09-29T17:15:42Z" changeset="91721294" uid="10252541" user="thadad">
    <nd ref="1217471708"/>
    <nd ref="1217471711"/>
    <nd ref="1217471693"/>
    <nd ref="7955782891"/>
    <nd ref="247939106"/>
    <tag k="highway" v="residential"/>
    <tag k="maxspeed" v="30 mph"/>
    <tag k="name" v="Trafalgar Drive"/>
    <tag k="source" v="OS_OpenData_StreetView"/>
    <tag k="source:name" v="OS_OpenData_Locator"/>
  </way>
  <way id="112866067" version="8" timestamp="2024-07-22T22:24:44Z" changeset="154282733" uid="5008136" user="JayTurnr">
    <nd ref="1281854725"/>
    <nd ref="1154174623"/>
    <nd ref="33452646"/>
    <nd ref="1182568807"/>
    <nd ref="1182568797"/>
    <nd ref="1182568802"/>
    <nd ref="33452645"/>
    <nd ref="6173609684"/>
    <nd ref="12068912339"/>
    <nd ref="12068891750"/>
    <nd ref="6173610072"/>
    <nd ref="1281854790"/>
    <nd ref="33452644"/>
    <nd ref="1182568794"/>
    <nd ref="252636590"/>
    <nd ref="252636592"/>
    <nd ref="33452643"/>
    <nd ref="1182568789"/>
    <nd ref="252636594"/>
    <nd ref="33452642"/>
    <nd ref="1182568799"/>
    <nd ref="252686228"/>
    <nd ref="252636571"/>
    <nd ref="249186076"/>
    <nd ref="1182568791"/>
    <nd ref="1182568795"/>
    <nd ref="894153416"/>
    <nd ref="33452641"/>
    <tag k="highway" v="primary"/>
    <tag k="lanes" v="2"/>
    <tag k="lit" v="yes"/>
    <tag k="maxspeed" v="30 mph"/>
    <tag k="name" v="Dover Road"/>
    <tag k="ref" v="A258"/>
    <tag k="surface" v="asphalt"/>
  </way>
  <way id="120872901" version="3" timestamp="2012-06-25T08:56:08Z" changeset="12008671" uid="7037" user="Gregory Williams">
    <nd ref="1354211211"/>
    <nd ref="1354211214"/>
    <nd ref="1354211212"/>
    <nd ref="247230489"/>
    <tag k="highway" v="tertiary"/>
    <tag k="lcn" v="yes"/>
    <tag k="lit" v="yes"/>
    <tag k="maxspeed" v="30 mph"/>
    <tag k="name" v="St Richards Road"/>
    <tag k="surface" v="asphalt"/>
  </way>
  <way id="120872902" version="4" timestamp="2012-06-25T08:56:08Z" changeset="12008671" uid="7037" user="Gregory Williams">
    <nd ref="249184495"/>
    <nd ref="1354211211"/>
    <tag k="bridge" v="yes"/>
    <tag k="highway" v="tertiary"/>
    <tag k="layer" v="1"/>
    <tag k="lcn" v="yes"/>
    <tag k="lit" v="yes"/>
    <tag k="maxspeed" v="30 mph"/>
    <tag k="name" v="St Richards Road"/>
    <tag k="not:name" v="St. Richards Road"/>
    <tag k="surface" v="asphalt"/>
  </way>
  <way id="154980852" version="4" timestamp="2024-09-08T17:28:41Z" changeset="156362490" uid="11471297" user="Palgrave Peter">
    <nd ref="247935936"/>
    <nd ref="247935935"/>
    <nd ref="247935934"/>
    <nd ref="247935933"/>
    <nd ref="12068919248"/>
    <nd ref="247933935"/>
    <tag k="highway" v="residential"/>
    <tag k="maxspeed" v="30 mph"/>
    <tag k="name" v="Gladstone Road"/>
  </way>
  <way id="154980853" version="4" timestamp="2020-12-19T00:24:28Z" changeset="96094819" uid="10060014" user="cebab">
    <nd ref="247935941"/>
    <nd ref="247939060"/>
    <nd ref="247935940"/>
    <nd ref="247935939"/>
    <nd ref="8241776149"/>
    <nd ref="6039256816"/>
    <tag k="cycleway:left" v="lane"/>
    <tag k="cycleway:left:lane" v="advisory"/>
    <tag k="cycleway:left:width" v="1.25"/>
    <tag k="highway" v="residential"/>
    <tag k="lit" v="yes"/>
    <tag k="maxspeed" v="30 mph"/>
    <tag k="name" v="Gladstone Road"/>
    <tag k="sidewalk" v="both"/>
    <tag k="surface" v="asphalt"/>
  </way>
  <way id="155023458" version="1" timestamp="2012-03-14T16:19:28Z" changeset="10979442" uid="7037" user="Gregory Williams">
    <nd ref="1674687480"/>
    <nd ref="252688119"/>
    <tag k="abutters" v="residential"/>
    <tag k="highway" v="tertiary"/>
    <tag k="maxspeed" v="40 mph"/>
    <tag k="name" v="Granville Road"/>
    <tag k="source" v="survey"/>
  </way>
  <way id="155023461" version="5" timestamp="2022-07-28T16:08:18Z" changeset="124193545" uid="1784239" user="SvenTX">
    <nd ref="252687006"/>
    <nd ref="252686501"/>
    <nd ref="6239984936"/>
    <nd ref="252687007"/>
    <nd ref="252687008"/>
    <nd ref="252687009"/>
    <nd ref="1674687457"/>
    <nd ref="252687010"/>
    <nd ref="252687011"/>
    <nd ref="252687012"/>
    <nd ref="252687013"/>
    <nd ref="252687014"/>
    <nd ref="252687015"/>
    <nd ref="252686830"/>
    <tag k="cycleway:both" v="no"/>
    <tag k="highway" v="residential"/>
    <tag k="maxspeed" v="30 mph"/>
    <tag k="name" v="Liverpool Road"/>
    <tag k="sidewalk" v="left"/>
    <tag k="surface" v="asphalt"/>
  </way>
  <way id="155023938" version="7" timestamp="2024-09-08T17:28:41Z" changeset="156362490" uid="11471297" user="Palgrave Peter">
    <nd ref="1674692952"/>
    <nd ref="1674692954"/>
    <nd ref="1674692956"/>
    <nd ref="1674692969"/>
    <nd ref="1674692972"/>
    <nd ref="1681313755"/>
    <nd ref="1674692976"/>
    <nd ref="1674692979"/>
    <nd ref="1674692981"/>
    <nd ref="1681313768"/>
    <nd ref="1674692983"/>
    <nd ref="1674692984"/>
    <nd ref="1674692985"/>
    <nd ref="1674692986"/>
    <nd ref="1088159191"/>
    <nd ref="1088159254"/>
    <nd ref="1088159323"/>
    <nd ref="8050923490"/>
    <nd ref="1088159384"/>
    <nd ref="1088159273"/>
    <nd ref="1088159329"/>
    <nd ref="12164054681"/>
    <nd ref="12164054685"/>
    <nd ref="12164054682"/>
    <nd ref="1674692952"/>
    <tag k="addr:city" v="Deal"/>
    <tag k="addr:place" v="Walmer"/>
    <tag k="addr:postcode" v="CT14 7TL"/>
    <tag k="addr:street" v="Owen Square"/>
    <tag k="amenity" v="school"/>
    <tag k="capacity" v="420"/>
    <tag k="contact:website" v="http://www.downs.kent.sch.uk/"/>
    <tag k="denomination" v="anglican"/>
    <tag k="diocese" v="Diocese of Canterbury"/>
    <tag k="fhrs:id" v="446300"/>
    <tag k="isced:level" v="1"/>
    <tag k="max_age" v="11"/>
    <tag k="min_age" v="4"/>
    <tag k="name" v="The Downs Church of England Primary School"/>
    <tag k="phone" v="+44 1304 372486"/>
    <tag k="ref:GB:uprn" v="100062286224"/>
    <tag k="ref:edubase" v="147058"/>
    <tag k="ref:edubase:group" v="17199"/>
    <tag k="religion" v="christian"/>
    <tag k="school:trust" v="yes"/>
    <tag k="school:trust:name" v="Deal Education Alliance For Learning Trust"/>
    <tag k="school:trust:type" v="multi_academy"/>
    <tag k="school:type" v="academy"/>
    <tag k="wikidata" v="Q66232926"/>
  </way>
  <way id="155023940" version="5" timestamp="2024-09-08T17:28:41Z" changeset="156362490" uid="11471297" user="Palgrave Peter">
    <nd ref="1674692903"/>
    <nd ref="1674692913"/>
    <nd ref="1674692915"/>
    <nd ref="1674692932"/>
    <nd ref="1088159347"/>
    <nd ref="1088159234"/>
    <nd ref="1674692958"/>
    <nd ref="1674692948"/>
    <nd ref="1674692943"/>
    <nd ref="2330821559"/>
    <nd ref="1674692909"/>
    <nd ref="1674692907"/>
    <nd ref="1674692905"/>
    <nd ref="1674692904"/>
    <nd ref="1674692900"/>
    <nd ref="1674692902"/>
    <nd ref="1674692903"/>
    <tag k="addr:postcode" v="CT14 7QJ"/>
    <tag k="addr:street" v="Salisbury Road"/>
    <tag k="amenity" v="school"/>
    <tag k="amenity:closed" v="school"/>
    <tag k="name" v="Walmer Science College"/>
  </way>
  <way id="155772162" version="4" timestamp="2021-09-03T14:43:45Z" changeset="110682330" uid="5229644" user="Nathan_A_RF">
    <nd ref="247229111"/>
    <nd ref="247933935"/>
    <tag k="highway" v="secondary"/>
    <tag k="maxheight" v="3.9"/>
    <tag k="maxspeed" v="30 mph"/>
    <tag k="name" v="Hamilton Road"/>
    <tag k="ref" v="B2056"/>
  </way>
  <way id="155772657" version="4" timestamp="2021-09-15T23:24:36Z" changeset="111264809" uid="1778799" user="SomeoneElse_Revert">
    <nd ref="1681316175"/>
    <nd ref="249193709"/>
    <tag k="highway" v="residential"/>
    <tag k="maxheight" v="10'9&quot;"/>
    <tag k="maxspeed" v="30 mph"/>
    <tag k="name" v="Somerset Road"/>
    <tag k="source" v="survey"/>
  </way>
  <way id="155772658" version="1" timestamp="2012-03-19T09:04:34Z" changeset="11027559" uid="7037" user="Gregory Williams">
    <nd ref="249193709"/>
    <nd ref="249193712"/>
    <nd ref="249193715"/>
    <nd ref="249193698"/>
    <tag k="highway" v="residential"/>
    <tag k="maxspeed" v="30 mph"/>
    <tag k="name" v="Somerset Road"/>
    <tag k="source" v="survey"/>
  </way>
  <way id="155775676" version="17" timestamp="2023-03-28T16:47:47Z" changeset="134228498" uid="4833194" user="motogs">
    <nd ref="9711497990"/>
    <nd ref="9711497991"/>
    <nd ref="9711497992"/>
    <nd ref="252689778"/>
    <nd ref="1181940951"/>
    <nd ref="1181940166"/>
    <nd ref="9084073614"/>
    <nd ref="1181939757"/>
    <nd ref="252688835"/>
    <nd ref="9084120336"/>
    <nd ref="8184524624"/>
    <nd ref="9084073616"/>
    <nd ref="252688119"/>
    <nd ref="10768910126"/>
    <nd ref="10768910127"/>
    <nd ref="10768910134"/>
    <nd ref="8868694536"/>
    <nd ref="252688020"/>
    <nd ref="8868694537"/>
    <nd ref="469802467"/>
    <nd ref="252689783"/>
    <nd ref="1181940676"/>
    <nd ref="252689784"/>
    <nd ref="252689785"/>
    <nd ref="1181940576"/>
    <nd ref="252689787"/>
    <nd ref="1181939942"/>
    <nd ref="252689788"/>
    <nd ref="252689789"/>
    <nd ref="252689790"/>
    <nd ref="252689791"/>
    <nd ref="252690161"/>
    <nd ref="252689792"/>
    <nd ref="977988779"/>
    <nd ref="255890742"/>
    <nd ref="10768698181"/>
    <nd ref="1181939823"/>
    <nd ref="255890745"/>
    <nd ref="913195772"/>
    <nd ref="255890747"/>
    <nd ref="8878457881"/>
    <nd ref="1793214941"/>
    <nd ref="255890757"/>
    <nd ref="255890763"/>
    <nd ref="1681360981"/>
    <tag k="cycleway:left" v="separate"/>
    <tag k="cycleway:right" v="no"/>
    <tag k="highway" v="tertiary"/>
    <tag k="maxspeed" v="40 mph"/>
    <tag k="name" v="Kingsdown Road"/>
    <tag k="surface" v="asphalt"/>
  </way>
  <way id="163206142" version="12" timestamp="2024-09-08T17:28:41Z" changeset="156362490" uid="11471297" user="Palgrave Peter">
    <nd ref="1749555682"/>
    <nd ref="2226095501"/>
    <nd ref="8050912761"/>
    <nd ref="1749555645"/>
    <nd ref="247939116"/>
    <nd ref="247939886"/>
    <nd ref="2226095507"/>
    <nd ref="1749555639"/>
    <nd ref="1749555640"/>
    <nd ref="1749555642"/>
    <nd ref="1749555641"/>
    <nd ref="1749555643"/>
    <nd ref="1749555644"/>
    <nd ref="1749555658"/>
    <nd ref="1749555661"/>
    <nd ref="1749555663"/>
    <nd ref="1749555666"/>
    <nd ref="1749555672"/>
    <nd ref="1749555682"/>
    <tag k="addr:city" v="Deal"/>
    <tag k="addr:country" v="GB"/>
    <tag k="addr:county" v="Kent"/>
    <tag k="addr:postcode" v="CT14 7ER"/>
    <tag k="addr:street" v="Gladstone Road"/>
    <tag k="addr:suburb" v="Walmer"/>
    <tag k="amenity" v="school"/>
    <tag k="capacity" v="210"/>
    <tag k="contact:phone" v="+44 1304 374464"/>
    <tag k="contact:website" v="http://www.deal-parochial.kent.sch.uk/"/>
    <tag k="denomination" v="anglican"/>
    <tag k="diocese" v="Diocese of Canterbury"/>
    <tag k="fhrs:id" v="254442;499219"/>
    <tag k="isced:level" v="1"/>
    <tag k="max_age" v="11"/>
    <tag k="min_age" v="4"/>
    <tag k="name" v="Deal Parochial Church of England Primary School"/>
    <tag k="ref:GB:uprn" v="200002882433"/>
    <tag k="ref:edubase" v="147053"/>
    <tag k="ref:edubase:group" v="17199"/>
    <tag k="religion" v="christian"/>
    <tag k="school:trust" v="yes"/>
    <tag k="school:trust:name" v="Deal Education Alliance For Learning Trust"/>
    <tag k="school:trust:type" v="multi_academy"/>
    <tag k="school:type" v="academy"/>
    <tag k="wikidata" v="Q66232917"/>
  </way>
  <way id="212798839" version="2" timestamp="2013-07-14T17:51:44Z" changeset="16952302" uid="607399" user="ehm1806">
    <nd ref="2226080621"/>
    <nd ref="2226080618"/>
    <nd ref="2226080622"/>
    <nd ref="2226080614"/>
    <nd ref="2226080612"/>
    <nd ref="2226080616"/>
    <nd ref="2226080601"/>
    <nd ref="2226080606"/>
    <nd ref="2226080604"/>
    <nd ref="2226080598"/>
    <nd ref="2226080610"/>
    <nd ref="2226080608"/>
    <nd ref="2226080621"/>
    <tag k="addr:postcode" v="CT14 7AX"/>
    <tag k="addr:street" v="Halliday Drive"/>
    <tag k="building" v="terrace"/>
    <tag k="name" v="The Old Gymnasium (1-11)"/>
  </way>
  <way id="212818649" version="4" timestamp="2024-04-22T22:51:38Z" changeset="150369039" uid="6816132" user="CjMalone">
    <nd ref="2226241120"/>
    <nd ref="2226241125"/>
    <nd ref="2226241124"/>
    <nd ref="2226241134"/>
    <nd ref="2226241123"/>
    <nd ref="2226241120"/>
    <tag k="addr:housenumber" v="137"/>
    <tag k="addr:postcode" v="CT14 7JH"/>
    <tag k="addr:street" v="Dover Road"/>
    <tag k="amenity" v="fuel"/>
    <tag k="brand" v="Esso"/>
    <tag k="brand:wikidata" v="Q867662"/>
    <tag k="brand:wikipedia" v="en:Esso"/>
    <tag k="building" v="retail"/>
    <tag k="contact:website" v="https://www.esso.co.uk/en-gb/find-station/esso-deal-essomfgwalmer-100342141"/>
    <tag k="name" v="Esso"/>
    <tag k="operator" v="Motor Fuel Group"/>
    <tag k="operator:website" v="https://www.motorfuelgroup.com/locations/walmer-fs695/"/>
    <tag k="operator:wikidata" v="Q107271358"/>
  </way>
  <way id="229919599" version="1" timestamp="2013-07-14T17:30:09Z" changeset="16952020" uid="607399" user="ehm1806">
    <nd ref="2384544439"/>
    <nd ref="2384544400"/>
    <nd ref="2384544445"/>
    <nd ref="2384544424"/>
    <nd ref="2384544422"/>
    <nd ref="2384544435"/>
    <nd ref="2384544406"/>
    <nd ref="2384544414"/>
    <nd ref="2384544416"/>
    <nd ref="2384544419"/>
    <nd ref="2384544441"/>
    <nd ref="2384544429"/>
    <nd ref="2384544431"/>
    <nd ref="2384544420"/>
    <nd ref="2384544443"/>
    <nd ref="2384544447"/>
    <nd ref="2384544439"/>
    <tag k="addr:housename" v="Beachways"/>
    <tag k="addr:housenumber" v="26"/>
    <tag k="addr:postcode" v="CT14 8AA"/>
    <tag k="addr:street" v="Wellington Parade"/>
    <tag k="building" v="house"/>
  </way>
  <way id="229920972" version="6" timestamp="2023-02-03T14:00:34Z" changeset="132043800" uid="84263" user="Robert Whittaker">
    <nd ref="2384557789"/>
    <nd ref="2384557783"/>
    <nd ref="2384557790"/>
    <nd ref="2384557788"/>
    <nd ref="2384557786"/>
    <nd ref="2384557785"/>
    <nd ref="2384557781"/>
    <nd ref="2384557787"/>
    <nd ref="2384557782"/>
    <nd ref="2384557784"/>
    <nd ref="2384557789"/>
    <tag k="addr:city" v="Walmer"/>
    <tag k="addr:housenumber" v="311-313"/>
    <tag k="addr:postcode" v="CT14 7NS"/>
    <tag k="addr:street" v="Dover Road"/>
    <tag k="alt_name" v="Town &amp; Country Stores"/>
    <tag k="brand" v="Londis"/>
    <tag k="brand:wikidata" v="Q21008564"/>
    <tag k="building" v="retail"/>
    <tag k="building:levels" v="2"/>
    <tag k="fhrs:id" v="254799"/>
    <tag k="name" v="Londis"/>
    <tag k="note" v="Minimarket + Post office inside"/>
    <tag k="opening_hours" v="Mo-Sa 08:30-19:30;Su 09:00-14:00"/>
    <tag k="roof:levels" v="0"/>
    <tag k="shop" v="convenience"/>
  </way>
  <way id="229920973" version="2" timestamp="2018-03-06T07:40:09Z" changeset="56926047" uid="7037" user="Gregory Williams">
    <nd ref="2384557792"/>
    <nd ref="2384557779"/>
    <nd ref="2384557780"/>
    <nd ref="2384557791"/>
    <nd ref="2384557792"/>
    <tag k="addr:city" v="Deal"/>
    <tag k="addr:country" v="GB"/>
    <tag k="addr:housenumber" v="329"/>
    <tag k="addr:postcode" v="CT14 7NX"/>
    <tag k="addr:street" v="Dover Road"/>
    <tag k="amenity" v="pub"/>
    <tag k="building" v="yes"/>
    <tag k="contact:website" v="http://www.thefreed-man.co.uk/"/>
    <tag k="fhrs:id" v="847418"/>
    <tag k="name" v="The Freed Man"/>
    <tag k="opening_hours" v="Mo,We,Th 12:00-21:00;Tu 12:00-22:00;Fr,Sa 12:00-23:00;Su 12:00-20:00"/>
  </way>
  <way id="229921191" version="2" timestamp="2017-11-27T20:48:09Z" changeset="54132502" uid="7037" user="Gregory Williams">
    <nd ref="2384560312"/>
    <nd ref="2384560313"/>
    <nd ref="2384557779"/>
    <nd ref="2384557792"/>
    <nd ref="2384560312"/>
    <tag k="addr:city" v="Deal"/>
    <tag k="addr:housenumber" v="331"/>
    <tag k="addr:place" v="Walmer"/>
    <tag k="addr:postcode" v="CT14 7NX"/>
    <tag k="addr:street" v="Dover Road"/>
    <tag k="building" v="yes"/>
    <tag k="fhrs:id" v="254266"/>
    <tag k="name" v="Gilliver's Newsagents"/>
    <tag k="shop" v="convenience"/>
  </way>
  <way id="289368603" version="3" timestamp="2017-11-27T20:48:10Z" changeset="54132502" uid="7037" user="Gregory Williams">
    <nd ref="2929175472"/>
    <nd ref="2929175473"/>
    <nd ref="2929175474"/>
    <nd ref="2929175475"/>
    <nd ref="2929175476"/>
    <nd ref="2929175477"/>
    <nd ref="2929175478"/>
    <nd ref="2929175479"/>
    <nd ref="2929175480"/>
    <nd ref="2929175481"/>
    <nd ref="2929175472"/>
    <tag k="addr:city" v="Deal"/>
    <tag k="addr:place" v="Walmer"/>
    <tag k="addr:postcode" v="CT14 7PY"/>
    <tag k="addr:street" v="St. Clare Road"/>
    <tag k="amenity" v="social_facility"/>
    <tag k="building" v="house"/>
    <tag k="building:levels" v="3"/>
    <tag k="contact:phone" v="+44 1304 360965"/>
    <tag k="contact:website" v="http://generalsmeadowresidentialhome.co.uk/"/>
    <tag k="fhrs:id" v="254759"/>
    <tag k="name" v="General Meadows Care Home"/>
    <tag k="social_facility" v="assisted_living"/>
  </way>
  <way id="293404922" version="6" timestamp="2022-07-28T16:28:12Z" changeset="124193645" uid="1784239" user="SvenTX">
    <nd ref="2969980856"/>
    <nd ref="249186055"/>
    <tag k="cycleway:both" v="no"/>
    <tag k="highway" v="unclassified"/>
    <tag k="lane_markings" v="no"/>
    <tag k="lit" v="yes"/>
    <tag k="maxspeed" v="30 mph"/>
    <tag k="name" v="Station Road"/>
    <tag k="sidewalk" v="both"/>
    <tag k="surface" v="asphalt"/>
  </way>
  <way id="293404923" version="6" timestamp="2022-07-28T16:28:06Z" changeset="124193645" uid="1784239" user="SvenTX">
    <nd ref="2969980857"/>
    <nd ref="2969980856"/>
    <tag k="cycleway:both" v="no"/>
    <tag k="highway" v="unclassified"/>
    <tag k="lane_markings" v="no"/>
    <tag k="lit" v="yes"/>
    <tag k="maxheight" v="14'3&quot;"/>
    <tag k="maxspeed" v="30 mph"/>
    <tag k="name" v="Station Road"/>
    <tag k="sidewalk" v="both"/>
    <tag k="surface" v="asphalt"/>
  </way>
  <way id="351913695" version="2" timestamp="2018-12-28T20:53:29Z" changeset="65852572" uid="608760" user="gregrs">
    <nd ref="3577170758"/>
    <nd ref="3577170762"/>
    <nd ref="3577170763"/>
    <nd ref="3577170761"/>
    <nd ref="3577170760"/>
    <nd ref="3577170757"/>
    <nd ref="3577170756"/>
    <nd ref="3577170759"/>
    <nd ref="3577170758"/>
    <tag k="addr:housenumber" v="30"/>
    <tag k="addr:place" v="Walmer"/>
    <tag k="addr:postcode" v="CT14 7QS"/>
    <tag k="addr:street" v="Station Road"/>
    <tag k="amenity" v="place_of_worship"/>
    <tag k="building" v="chapel"/>
    <tag k="fhrs:id" v="1085327"/>
    <tag k="name" v="Walmer Chapel"/>
    <tag k="religion" v="christian"/>
    <tag k="source:addr" v="FHRS Open Data"/>
  </way>
  <way id="351964745" version="1" timestamp="2015-06-06T23:02:52Z" changeset="31778933" uid="82783" user="Paul The Archivist">
    <nd ref="3577621486"/>
    <nd ref="3577621483"/>
    <nd ref="3577621470"/>
    <nd ref="3577621472"/>
    <nd ref="3577621468"/>
    <nd ref="3577621471"/>
    <nd ref="3577621486"/>
    <tag k="addr:housenumber" v="101"/>
    <tag k="addr:street" v="Canada Road"/>
    <tag k="building" v="house"/>
    <tag k="source" v="Bing;survey"/>
  </way>
  <way id="351964746" version="1" timestamp="2015-06-06T23:02:52Z" changeset="31778933" uid="82783" user="Paul The Archivist">
    <nd ref="3577621489"/>
    <nd ref="3577621486"/>
    <nd ref="3577621471"/>
    <nd ref="3577621474"/>
    <nd ref="3577621477"/>
    <nd ref="3577621480"/>
    <nd ref="3577621489"/>
    <tag k="addr:housenumber" v="103"/>
    <tag k="addr:street" v="Canada Road"/>
    <tag k="building" v="house"/>
    <tag k="source" v="Bing;survey"/>
  </way>
  <way id="351964747" version="1" timestamp="2015-06-06T23:02:53Z" changeset="31778933" uid="82783" user="Paul The Archivist">
    <nd ref="3577621490"/>
    <nd ref="3577621489"/>
    <nd ref="3577621480"/>
    <nd ref="3577621481"/>
    <nd ref="3577621476"/>
    <nd ref="3577621479"/>
    <nd ref="3577621490"/>
    <tag k="addr:housenumber" v="105"/>
    <tag k="addr:street" v="Canada Road"/>
    <tag k="building" v="house"/>
    <tag k="source" v="Bing;survey"/>
  </way>
  <way id="351964748" version="1" timestamp="2015-06-06T23:02:53Z" changeset="31778933" uid="82783" user="Paul The Archivist">
    <nd ref="3577621487"/>
    <nd ref="3577621494"/>
    <nd ref="3577621490"/>
    <nd ref="3577621479"/>
    <nd ref="3577621482"/>
    <nd ref="3577621485"/>
    <nd ref="3577621487"/>
    <tag k="addr:housenumber" v="107"/>
    <tag k="addr:street" v="Canada Road"/>
    <tag k="building" v="house"/>
    <tag k="source" v="Bing;survey"/>
  </way>
  <way id="351964749" version="1" timestamp="2015-06-06T23:02:53Z" changeset="31778933" uid="82783" user="Paul The Archivist">
    <nd ref="3577621500"/>
    <nd ref="3577621505"/>
    <nd ref="3577621511"/>
    <nd ref="3577621509"/>
    <nd ref="3577621510"/>
    <nd ref="3577621508"/>
    <nd ref="3577621507"/>
    <nd ref="3577621506"/>
    <nd ref="3577621500"/>
    <tag k="addr:housenumber" v="178"/>
    <tag k="addr:street" v="Gladstone Road"/>
    <tag k="building" v="house"/>
    <tag k="source" v="Bing;survey"/>
  </way>
  <way id="351964750" version="1" timestamp="2015-06-06T23:02:53Z" changeset="31778933" uid="82783" user="Paul The Archivist">
    <nd ref="3577621495"/>
    <nd ref="3577621501"/>
    <nd ref="3577621499"/>
    <nd ref="3577621503"/>
    <nd ref="3577621504"/>
    <nd ref="3577621502"/>
    <nd ref="3577621506"/>
    <nd ref="3577621500"/>
    <nd ref="3577621495"/>
    <tag k="addr:housenumber" v="180"/>
    <tag k="addr:street" v="Gladstone Road"/>
    <tag k="building" v="house"/>
    <tag k="source" v="Bing;survey"/>
  </way>
  <way id="351964751" version="1" timestamp="2015-06-06T23:02:53Z" changeset="31778933" uid="82783" user="Paul The Archivist">
    <nd ref="3577621488"/>
    <nd ref="3577621493"/>
    <nd ref="3577621498"/>
    <nd ref="3577621496"/>
    <nd ref="3577621497"/>
    <nd ref="3577621492"/>
    <nd ref="3577621488"/>
    <tag k="addr:housenumber" v="182"/>
    <tag k="addr:street" v="Gladstone Road"/>
    <tag k="building" v="house"/>
    <tag k="source" v="Bing;survey"/>
  </way>
  <way id="351964752" version="1" timestamp="2015-06-06T23:02:53Z" changeset="31778933" uid="82783" user="Paul The Archivist">
    <nd ref="3577621289"/>
    <nd ref="3577621285"/>
    <nd ref="3577621274"/>
    <nd ref="3577621276"/>
    <nd ref="3577621272"/>
    <nd ref="3577621273"/>
    <nd ref="3577621275"/>
    <nd ref="3577621289"/>
    <tag k="addr:housenumber" v="59"/>
    <tag k="addr:street" v="Canada Road"/>
    <tag k="building" v="house"/>
    <tag k="source" v="Bing;survey"/>
  </way>
  <way id="351964753" version="1" timestamp="2015-06-06T23:02:53Z" changeset="31778933" uid="82783" user="Paul The Archivist">
    <nd ref="3577621395"/>
    <nd ref="3577621289"/>
    <nd ref="3577621275"/>
    <nd ref="3577621277"/>
    <nd ref="3577621280"/>
    <nd ref="3577621281"/>
    <nd ref="3577621395"/>
    <tag k="addr:housenumber" v="61"/>
    <tag k="addr:street" v="Canada Road"/>
    <tag k="building" v="house"/>
    <tag k="source" v="Bing;survey"/>
  </way>
  <way id="351964754" version="1" timestamp="2015-06-06T23:02:53Z" changeset="31778933" uid="82783" user="Paul The Archivist">
    <nd ref="3577621398"/>
    <nd ref="3577621395"/>
    <nd ref="3577621281"/>
    <nd ref="3577621283"/>
    <nd ref="3577621278"/>
    <nd ref="3577621279"/>
    <nd ref="3577621398"/>
    <tag k="addr:housenumber" v="63"/>
    <tag k="addr:street" v="Canada Road"/>
    <tag k="building" v="house"/>
    <tag k="source" v="Bing;survey"/>
  </way>
  <way id="351964755" version="1" timestamp="2015-06-06T23:02:53Z" changeset="31778933" uid="82783" user="Paul The Archivist">
    <nd ref="3577621403"/>
    <nd ref="3577621398"/>
    <nd ref="3577621279"/>
    <nd ref="3577621282"/>
    <nd ref="3577621288"/>
    <nd ref="3577621290"/>
    <nd ref="3577621403"/>
    <tag k="addr:housenumber" v="65"/>
    <tag k="addr:street" v="Canada Road"/>
    <tag k="building" v="house"/>
    <tag k="source" v="Bing;survey"/>
  </way>
  <way id="351964756" version="1" timestamp="2015-06-06T23:02:53Z" changeset="31778933" uid="82783" user="Paul The Archivist">
    <nd ref="3577621407"/>
    <nd ref="3577621403"/>
    <nd ref="3577621290"/>
    <nd ref="3577621393"/>
    <nd ref="3577621286"/>
    <nd ref="3577621287"/>
    <nd ref="3577621407"/>
    <tag k="addr:housenumber" v="67"/>
    <tag k="addr:street" v="Canada Road"/>
    <tag k="building" v="house"/>
    <tag k="source" v="Bing;survey"/>
  </way>
  <way id="351964757" version="1" timestamp="2015-06-06T23:02:53Z" changeset="31778933" uid="82783" user="Paul The Archivist">
    <nd ref="3577621415"/>
    <nd ref="3577621407"/>
    <nd ref="3577621287"/>
    <nd ref="3577621292"/>
    <nd ref="3577621399"/>
    <nd ref="3577621400"/>
    <nd ref="3577621415"/>
    <tag k="addr:housenumber" v="69"/>
    <tag k="addr:street" v="Canada Road"/>
    <tag k="building" v="house"/>
    <tag k="source" v="Bing;survey"/>
  </way>
  <way id="351964758" version="1" timestamp="2015-06-06T23:02:53Z" changeset="31778933" uid="82783" user="Paul The Archivist">
    <nd ref="3577621421"/>
    <nd ref="3577621415"/>
    <nd ref="3577621400"/>
    <nd ref="3577621402"/>
    <nd ref="3577621396"/>
    <nd ref="3577621397"/>
    <nd ref="3577621421"/>
    <tag k="addr:housenumber" v="71"/>
    <tag k="addr:street" v="Canada Road"/>
    <tag k="building" v="house"/>
    <tag k="source" v="Bing;survey"/>
  </way>
  <way id="351964759" version="1" timestamp="2015-06-06T23:02:54Z" changeset="31778933" uid="82783" user="Paul The Archivist">
    <nd ref="3577621408"/>
    <nd ref="3577621426"/>
    <nd ref="3577621421"/>
    <nd ref="3577621397"/>
    <nd ref="3577621401"/>
    <nd ref="3577621406"/>
    <nd ref="3577621408"/>
    <tag k="addr:housenumber" v="73"/>
    <tag k="addr:street" v="Canada Road"/>
    <tag k="building" v="house"/>
    <tag k="source" v="Bing;survey"/>
  </way>
  <way id="351964760" version="1" timestamp="2015-06-06T23:02:54Z" changeset="31778933" uid="82783" user="Paul The Archivist">
    <nd ref="3577621436"/>
    <nd ref="3577621428"/>
    <nd ref="3577621404"/>
    <nd ref="3577621405"/>
    <nd ref="3577621414"/>
    <nd ref="3577621417"/>
    <nd ref="3577621436"/>
    <tag k="addr:housenumber" v="75"/>
    <tag k="addr:street" v="Canada Road"/>
    <tag k="building" v="house"/>
    <tag k="source" v="Bing;survey"/>
  </way>
  <way id="351964761" version="1" timestamp="2015-06-06T23:02:54Z" changeset="31778933" uid="82783" user="Paul The Archivist">
    <nd ref="3577621440"/>
    <nd ref="3577621436"/>
    <nd ref="3577621417"/>
    <nd ref="3577621418"/>
    <nd ref="3577621411"/>
    <nd ref="3577621416"/>
    <nd ref="3577621423"/>
    <nd ref="3577621440"/>
    <tag k="addr:housenumber" v="77"/>
    <tag k="addr:street" v="Canada Road"/>
    <tag k="building" v="house"/>
    <tag k="source" v="Bing;survey"/>
  </way>
  <way id="351964762" version="1" timestamp="2015-06-06T23:02:54Z" changeset="31778933" uid="82783" user="Paul The Archivist">
    <nd ref="3577621442"/>
    <nd ref="3577621440"/>
    <nd ref="3577621423"/>
    <nd ref="3577621425"/>
    <nd ref="3577621419"/>
    <nd ref="3577621424"/>
    <nd ref="3577621442"/>
    <tag k="addr:housenumber" v="79"/>
    <tag k="addr:street" v="Canada Road"/>
    <tag k="building" v="house"/>
    <tag k="source" v="Bing;survey"/>
  </way>
  <way id="351964763" version="1" timestamp="2015-06-06T23:02:54Z" changeset="31778933" uid="82783" user="Paul The Archivist">
    <nd ref="3577621447"/>
    <nd ref="3577621442"/>
    <nd ref="3577621424"/>
    <nd ref="3577621427"/>
    <nd ref="3577621432"/>
    <nd ref="3577621437"/>
    <nd ref="3577621447"/>
    <tag k="addr:housenumber" v="81"/>
    <tag k="addr:street" v="Canada Road"/>
    <tag k="building" v="house"/>
    <tag k="source" v="Bing;survey"/>
  </way>
  <way id="351964764" version="1" timestamp="2015-06-06T23:02:54Z" changeset="31778933" uid="82783" user="Paul The Archivist">
    <nd ref="3577621434"/>
    <nd ref="3577621449"/>
    <nd ref="3577621447"/>
    <nd ref="3577621437"/>
    <nd ref="3577621438"/>
    <nd ref="3577621429"/>
    <nd ref="3577621434"/>
    <tag k="addr:housenumber" v="83"/>
    <tag k="addr:street" v="Canada Road"/>
    <tag k="building" v="house"/>
    <tag k="source" v="Bing;survey"/>
  </way>
  <way id="351964765" version="1" timestamp="2015-06-06T23:02:54Z" changeset="31778933" uid="82783" user="Paul The Archivist">
    <nd ref="3577621473"/>
    <nd ref="3577621467"/>
    <nd ref="3577621456"/>
    <nd ref="3577621458"/>
    <nd ref="3577621453"/>
    <nd ref="3577621457"/>
    <nd ref="3577621473"/>
    <tag k="addr:housenumber" v="93"/>
    <tag k="addr:street" v="Canada Road"/>
    <tag k="building" v="house"/>
    <tag k="source" v="Bing;survey"/>
  </way>
  <way id="351964766" version="1" timestamp="2015-06-06T23:02:54Z" changeset="31778933" uid="82783" user="Paul The Archivist">
    <nd ref="3577621475"/>
    <nd ref="3577621473"/>
    <nd ref="3577621457"/>
    <nd ref="3577621459"/>
    <nd ref="3577621462"/>
    <nd ref="3577621463"/>
    <nd ref="3577621475"/>
    <tag k="addr:housenumber" v="95"/>
    <tag k="addr:street" v="Canada Road"/>
    <tag k="building" v="house"/>
    <tag k="source" v="Bing;survey"/>
  </way>
  <way id="351964767" version="1" timestamp="2015-06-06T23:02:54Z" changeset="31778933" uid="82783" user="Paul The Archivist">
    <nd ref="3577621478"/>
    <nd ref="3577621475"/>
    <nd ref="3577621463"/>
    <nd ref="3577621465"/>
    <nd ref="3577621461"/>
    <nd ref="3577621464"/>
    <nd ref="3577621478"/>
    <tag k="addr:housenumber" v="97"/>
    <tag k="addr:street" v="Canada Road"/>
    <tag k="building" v="house"/>
    <tag k="source" v="Bing;survey"/>
  </way>
  <way id="351964768" version="1" timestamp="2015-06-06T23:02:54Z" changeset="31778933" uid="82783" user="Paul The Archivist">
    <nd ref="3577621483"/>
    <nd ref="3577621478"/>
    <nd ref="3577621464"/>
    <nd ref="3577621466"/>
    <nd ref="3577621469"/>
    <nd ref="3577621470"/>
    <nd ref="3577621483"/>
    <tag k="addr:housenumber" v="99"/>
    <tag k="addr:street" v="Canada Road"/>
    <tag k="building" v="house"/>
    <tag k="source" v="Bing;survey"/>
  </way>
  <way id="351964769" version="1" timestamp="2015-06-06T23:02:54Z" changeset="31778933" uid="82783" user="Paul The Archivist">
    <nd ref="3577621448"/>
    <nd ref="3577621450"/>
    <nd ref="3577621491"/>
    <nd ref="3577621484"/>
    <nd ref="3577621448"/>
    <tag k="addr:housenumber" v="184"/>
    <tag k="addr:street" v="Gladstone Road"/>
    <tag k="building" v="commercial"/>
    <tag k="name" v="J. Dilnot Smith &amp; Son"/>
    <tag k="shop" v="funeral_directors"/>
  </way>
  <way id="372814633" version="2" timestamp="2021-09-04T01:24:07Z" changeset="110699912" uid="5229644" user="Nathan_A_RF">
    <nd ref="247929826"/>
    <nd ref="247929853"/>
    <tag k="abutters" v="residential"/>
    <tag k="highway" v="tertiary"/>
    <tag k="maxheight" v="13'0&quot;"/>
    <tag k="maxspeed" v="30 mph"/>
    <tag k="name" v="Gilford Road"/>
  </way>
  <way id="555375139" version="3" timestamp="2023-11-04T17:39:53Z" changeset="143623910" uid="504708" user="HillWithSmallFields">
    <nd ref="5358400534"/>
    <nd ref="5358400535"/>
    <nd ref="5358400543"/>
    <nd ref="5358400539"/>
    <nd ref="5358400542"/>
    <nd ref="5358400537"/>
    <nd ref="5358400536"/>
    <nd ref="5358400538"/>
    <nd ref="5358400540"/>
    <nd ref="5358400541"/>
    <nd ref="5358400534"/>
    <tag k="addr:city" v="Walmer"/>
    <tag k="addr:street" v="St. Marys Road"/>
    <tag k="amenity" v="place_of_worship"/>
    <tag k="building" v="church"/>
    <tag k="building:architecture" v="gothic_revival"/>
    <tag k="denomination" v="anglican"/>
    <tag k="name" v="St Mary's Church"/>
    <tag k="ref:dove" v="13344"/>
    <tag k="religion" v="christian"/>
    <tag k="wikidata" v="Q7594444"/>
  </way>
  <way id="641222978" version="2" timestamp="2019-10-24T08:15:35Z" changeset="76139767" uid="10252556" user="bibasra">
    <nd ref="6039256816"/>
    <nd ref="247935938"/>
    <nd ref="247935937"/>
    <nd ref="6911592013"/>
    <nd ref="247935936"/>
    <tag k="cycleway:left" v="lane"/>
    <tag k="cycleway:left:lane" v="advisory"/>
    <tag k="cycleway:left:width" v="1.25"/>
    <tag k="highway" v="residential"/>
    <tag k="lit" v="yes"/>
    <tag k="maxspeed" v="30 mph"/>
    <tag k="name" v="Gladstone Road"/>
    <tag k="sidewalk" v="right"/>
    <tag k="surface" v="asphalt"/>
  </way>
  <way id="641231459" version="2" timestamp="2019-10-26T22:52:15Z" changeset="76254297" uid="3951648" user="rskedgell">
    <nd ref="252691230"/>
    <nd ref="6039305209"/>
    <nd ref="6039305208"/>
    <nd ref="6039305207"/>
    <nd ref="6039305206"/>
    <nd ref="252691230"/>
    <tag k="addr:city" v="Deal"/>
    <tag k="addr:postcode" v="CT14 7DY"/>
    <tag k="addr:street" v="The Strand"/>
    <tag k="addr:suburb" v="Walmer"/>
    <tag k="amenity" v="cafe"/>
    <tag k="breakfast" v="yes"/>
    <tag k="building" v="yes"/>
    <tag k="building:levels" v="1"/>
    <tag k="contact:facebook" v="https://www.facebook.com/SeaCafeontheGreen/"/>
    <tag k="diet:vegetarian" v="yes"/>
    <tag k="fhrs:id" v="444763"/>
    <tag k="name" v="Sea Caf On The Green"/>
    <tag k="toilets" v="yes"/>
    <tag k="toilets:access" v="customers"/>
  </way>
  <way id="699145060" version="3" timestamp="2023-09-19T07:37:47Z" changeset="141454737" uid="9026132" user="PulisakZ">
    <nd ref="1217471693"/>
    <nd ref="7199461830"/>
    <nd ref="6565303984"/>
    <nd ref="6565378985"/>
    <tag k="highway" v="residential"/>
    <tag k="name" v="Trafalgar Drive"/>
  </way>
  <way id="831652017" version="2" timestamp="2021-09-16T10:33:42Z" changeset="111284426" uid="4932427" user="s4br1">
    <nd ref="247939146"/>
    <nd ref="7764441670"/>
    <nd ref="9097402439"/>
    <nd ref="9097402440"/>
    <nd ref="7199461830"/>
    <tag k="highway" v="residential"/>
  </way>
  <way id="879827190" version="2" timestamp="2021-09-12T14:28:20Z" changeset="111098972" uid="1867429" user="James_Griffiths">
    <nd ref="8184487457"/>
    <nd ref="8184487458"/>
    <nd ref="8184487459"/>
    <nd ref="9084120361"/>
    <nd ref="8184487461"/>
    <nd ref="9084120360"/>
    <nd ref="9084120359"/>
    <nd ref="9084120358"/>
    <nd ref="8184487457"/>
    <tag k="addr:city" v="Deal"/>
    <tag k="addr:housenumber" v="24"/>
    <tag k="addr:postcode" v="CT14 7DN"/>
    <tag k="addr:street" v="Marine Road"/>
    <tag k="building" v="yes"/>
    <tag k="healthcare" v="Medical_Centre"/>
    <tag k="name" v="Cedars Surgery"/>
    <tag k="operator" v="Cedars Surgery"/>
    <tag k="phone" v="+44 1304 373341"/>
    <tag k="website" v="https://www.cedarssurgery.co.uk/"/>
  </way>
  <way id="879832397" version="3" timestamp="2023-11-01T18:11:06Z" changeset="143489468" uid="9451067" user="b-jazz-bot">
    <nd ref="5535926204"/>
    <nd ref="5535926205"/>
    <nd ref="1086939627"/>
    <nd ref="5535926206"/>
    <nd ref="10773289531"/>
    <nd ref="5535926204"/>
    <tag k="addr:city" v="Deal"/>
    <tag k="addr:housename" v="The Club House"/>
    <tag k="addr:postcode" v="CT14 7DY"/>
    <tag k="addr:street" v="The Strand"/>
    <tag k="club" v="sport"/>
    <tag k="email" v="secretary@downssailingclub.co.uk"/>
    <tag k="name" v="Downs Sailing Club"/>
    <tag k="operator" v="Downs Sailing Club"/>
    <tag k="phone" v="+44 1304 361932"/>
    <tag k="sport" v="sailing"/>
    <tag k="website" v="https://downssailingclub.co.uk/"/>
  </way>
  <way id="1158533009" version="2" timestamp="2023-04-06T20:09:04Z" changeset="134591820" uid="4833194" user="motogs">
    <nd ref="10774062254"/>
    <nd ref="10774062264"/>
    <nd ref="10774062267"/>
    <nd ref="10790946672"/>
    <nd ref="10790946671"/>
    <nd ref="10790946667"/>
    <nd ref="10790946666"/>
    <nd ref="10790946668"/>
    <nd ref="10790946664"/>
    <nd ref="10790946665"/>
    <nd ref="10790946669"/>
    <nd ref="10790946670"/>
    <nd ref="10774062254"/>
    <tag k="addr:city" v="Walmer"/>
    <tag k="addr:housenumber" v="7"/>
    <tag k="addr:postcode" v="CT14 7DY"/>
    <tag k="addr:street" v="The Strand"/>
    <tag k="amenity" v="pub"/>
    <tag k="building" v="yes"/>
    <tag k="fhrs:id" v="736958"/>
    <tag k="name" v="The Stag"/>
  </way>
  <way id="1158533027" version="2" timestamp="2023-04-06T20:09:04Z" changeset="134591820" uid="4833194" user="motogs">
    <nd ref="10774102011"/>
    <nd ref="10774102012"/>
    <nd ref="10790946700"/>
    <nd ref="3577621267"/>
    <nd ref="10774102011"/>
    <tag k="addr:city" v="Walmer"/>
    <tag k="addr:housenumber" v="26"/>
    <tag k="addr:postcode" v="CT14 7DX"/>
    <tag k="addr:street" v="The Strand"/>
    <tag k="building" v="yes"/>
    <tag k="fhrs:id" v="254190"/>
    <tag k="name" v="Bandstand Bakery"/>
    <tag k="shop" v="bakery"/>
  </way>
  <way id="1158533032" version="2" timestamp="2023-04-06T20:09:04Z" changeset="134591820" uid="4833194" user="motogs">
    <nd ref="10774102024"/>
    <nd ref="10774102022"/>
    <nd ref="10774102021"/>
    <nd ref="10774102020"/>
    <nd ref="10774102024"/>
    <tag k="addr:housenumber" v="30-31"/>
    <tag k="addr:street" v="The Strand"/>
    <tag k="building" v="house"/>
  </way>
  <way id="1158533037" version="2" timestamp="2024-07-22T22:43:35Z" changeset="154283076" uid="5008136" user="JayTurnr">
    <nd ref="10774102033"/>
    <nd ref="10773570883"/>
    <nd ref="10774102030"/>
    <nd ref="10774102032"/>
    <nd ref="10774102033"/>
    <tag k="addr:city" v="Walmer"/>
    <tag k="addr:housenumber" v="36"/>
    <tag k="addr:postcode" v="CT14 7DX"/>
    <tag k="addr:street" v="The Strand"/>
    <tag k="amenity" v="fast_food"/>
    <tag k="building" v="yes"/>
    <tag k="cuisine" v="fish_and_chips"/>
    <tag k="fhrs:id" v="429951"/>
    <tag k="name" v="Walmer Fish &amp; Chips"/>
    <tag k="phone" v="+44 1304 381712"/>
    <tag k="wheelchair" v="yes"/>
  </way>
  <way id="1158533038" version="2" timestamp="2024-07-22T22:43:35Z" changeset="154283076" uid="5008136" user="JayTurnr">
    <nd ref="8184040904"/>
    <nd ref="10774102033"/>
    <nd ref="10774102032"/>
    <nd ref="10774102036"/>
    <nd ref="8184040904"/>
    <tag k="addr:city" v="Walmer"/>
    <tag k="addr:housenumber" v="37"/>
    <tag k="addr:postcode" v="CT14 7DX"/>
    <tag k="addr:street" v="The Strand"/>
    <tag k="building" v="yes"/>
    <tag k="fhrs:id" v="607338"/>
    <tag k="leisure" v="social_club"/>
    <tag k="name" v="Royal Marines Association and Social Club"/>
  </way>
  <way id="1193914534" version="2" timestamp="2024-09-08T17:28:41Z" changeset="156362490" uid="11471297" user="Palgrave Peter">
    <nd ref="11082768721"/>
    <nd ref="11082744092"/>
    <nd ref="11082744094"/>
    <nd ref="11082744093"/>
    <nd ref="11082744099"/>
    <nd ref="11082744095"/>
    <nd ref="11082744096"/>
    <nd ref="11082744100"/>
    <nd ref="11082744097"/>
    <nd ref="11082744098"/>
    <nd ref="11082744103"/>
    <nd ref="11082744101"/>
    <nd ref="11082744102"/>
    <nd ref="11082768707"/>
    <nd ref="11082744104"/>
    <nd ref="11082768705"/>
    <nd ref="11082768708"/>
    <nd ref="11082768706"/>
    <nd ref="11082768712"/>
    <nd ref="11082768709"/>
    <nd ref="11082768710"/>
    <nd ref="11082768713"/>
    <nd ref="11082768711"/>
    <nd ref="11082768714"/>
    <nd ref="12164054654"/>
    <nd ref="12164054655"/>
    <tag k="highway" v="residential"/>
    <tag k="name" v="Mongeham Way"/>
  </way>
  <way id="1193914535" version="1" timestamp="2023-08-02T07:45:50Z" changeset="139332587" uid="8774347" user="Misa_zumba">
    <nd ref="11082768736"/>
    <nd ref="11082768733"/>
    <nd ref="11082768732"/>
    <nd ref="11082768735"/>
    <nd ref="11082768731"/>
    <nd ref="11082768734"/>
    <nd ref="11082768728"/>
    <nd ref="11082768727"/>
    <nd ref="11082768730"/>
    <nd ref="11082768726"/>
    <nd ref="11082768725"/>
    <nd ref="11082768723"/>
    <nd ref="11082768729"/>
    <nd ref="11082768722"/>
    <nd ref="11082768724"/>
    <nd ref="11082768719"/>
    <nd ref="11082768718"/>
    <nd ref="11082768721"/>
    <nd ref="11082768717"/>
    <nd ref="11082768716"/>
    <nd ref="11082768720"/>
    <nd ref="11082768715"/>
    <tag k="highway" v="residential"/>
    <tag k="name" v="Millers Road"/>
  </way>
  <way id="1270585468" version="1" timestamp="2024-04-07T08:08:33Z" changeset="149681379" uid="20103" user="I like cats">
    <nd ref="11799255145"/>
    <nd ref="11799255146"/>
    <nd ref="11799255147"/>
    <nd ref="11799255148"/>
    <nd ref="11799255149"/>
    <nd ref="11799255150"/>
    <nd ref="11799255145"/>
    <tag k="addr:city" v="Deal"/>
    <tag k="addr:housename" v="Bow House"/>
    <tag k="addr:housenumber" v="18"/>
    <tag k="addr:postcode" v="CT14 7HP"/>
    <tag k="addr:street" v="Archery Square"/>
    <tag k="building" v="house"/>
    <tag k="building:levels" v="2"/>
    <tag k="house" v="detached"/>
    <tag k="name" v="Bow House"/>
  </way>
  <way id="1278571460" version="3" timestamp="2024-07-22T22:30:54Z" changeset="154282839" uid="5008136" user="JayTurnr">
    <nd ref="249193572"/>
    <nd ref="12068929428"/>
    <nd ref="252640814"/>
    <nd ref="12068905598"/>
    <nd ref="252640887"/>
    <nd ref="249193773"/>
    <nd ref="252688277"/>
    <tag k="cycleway:both" v="no"/>
    <tag k="highway" v="primary"/>
    <tag k="lanes" v="2"/>
    <tag k="lit" v="yes"/>
    <tag k="maxspeed" v="30 mph"/>
    <tag k="ref" v="A258"/>
    <tag k="sidewalk" v="both"/>
    <tag k="source" v="survey"/>
    <tag k="surface" v="asphalt"/>
  </way>
  <way id="1278571461" version="1" timestamp="2024-04-30T17:38:05Z" changeset="150719970" uid="19880472" user="aknight22">
    <nd ref="252688118"/>
    <nd ref="252688019"/>
    <nd ref="1674687480"/>
    <tag k="abutters" v="residential"/>
    <tag k="highway" v="tertiary"/>
    <tag k="maxspeed" v="30 mph"/>
    <tag k="name" v="Granville Road"/>
    <tag k="source" v="survey"/>
    <tag k="surface" v="asphalt"/>
  </way>
  <way id="1278571462" version="1" timestamp="2024-04-30T17:38:05Z" changeset="150719970" uid="19880472" user="aknight22">
    <nd ref="252688118"/>
    <nd ref="252688260"/>
    <nd ref="252688261"/>
    <tag k="highway" v="residential"/>
    <tag k="maxspeed" v="30 mph"/>
    <tag k="name" v="Liverpool Road"/>
  </way>
  <way id="1278571463" version="1" timestamp="2024-04-30T17:38:05Z" changeset="150719970" uid="19880472" user="aknight22">
    <nd ref="252688263"/>
    <nd ref="252688264"/>
    <tag k="highway" v="residential"/>
    <tag k="lcn" v="proposed"/>
    <tag k="maxspeed" v="30 mph"/>
    <tag k="name" v="Liverpool Road"/>
  </way>
  <way id="1278571468" version="2" timestamp="2024-07-22T22:27:10Z" changeset="154282772" uid="5008136" user="JayTurnr">
    <nd ref="33452641"/>
    <nd ref="1182568806"/>
    <nd ref="252686494"/>
    <nd ref="1182568801"/>
    <nd ref="1182568793"/>
    <nd ref="33452640"/>
    <nd ref="249190276"/>
    <nd ref="1281854777"/>
    <nd ref="249190277"/>
    <nd ref="1182568808"/>
    <nd ref="33452639"/>
    <tag k="cycleway:both" v="no"/>
    <tag k="highway" v="primary"/>
    <tag k="lanes" v="2"/>
    <tag k="lit" v="yes"/>
    <tag k="maxspeed" v="30 mph"/>
    <tag k="ref" v="A258"/>
    <tag k="sidewalk" v="both"/>
    <tag k="source" v="survey"/>
    <tag k="surface" v="asphalt"/>
  </way>
  <way id="1278571469" version="1" timestamp="2024-04-30T17:38:05Z" changeset="150719970" uid="19880472" user="aknight22">
    <nd ref="33452639"/>
    <nd ref="1182568792"/>
    <nd ref="1182568803"/>
    <nd ref="249193847"/>
    <tag k="cycleway:both" v="no"/>
    <tag k="highway" v="primary"/>
    <tag k="lanes" v="2"/>
    <tag k="lit" v="yes"/>
    <tag k="maxspeed" v="30 mph"/>
    <tag k="ref" v="A258"/>
    <tag k="sidewalk" v="both"/>
    <tag k="source" v="survey"/>
    <tag k="surface" v="asphalt"/>
  </way>
  <way id="1278571470" version="1" timestamp="2024-04-30T17:38:05Z" changeset="150719970" uid="19880472" user="aknight22">
    <nd ref="249193847"/>
    <nd ref="249193845"/>
    <tag k="highway" v="residential"/>
    <tag k="name" v="Gothic Close"/>
    <tag k="source" v="survey"/>
  </way>
  <relation id="16791040" version="1" timestamp="2023-12-06T15:27:03Z" changeset="144833209" uid="115894" user="DaveF">
    <member type="way" ref="84086908" role="outer"/>
    <member type="way" ref="84086909" role="outer"/>
    <tag k="addr:city" v="Deal"/>
    <tag k="addr:place" v="Walmer"/>
    <tag k="addr:postcode" v="CT14 7DY"/>
    <tag k="addr:street" v="The Strand"/>
    <tag k="emergency" v="water_rescue"/>
    <tag k="fhrs:id" v="624164"/>
    <tag k="name" v="Walmer Lifeboat Station"/>
    <tag k="operator" v="Royal National Lifeboat Institution"/>
    <tag k="operator:short" v="RNLI"/>
    <tag k="operator:wikidata" v="Q2166873"/>
    <tag k="seamark:name" v="Walmer Lifeboat Station"/>
    <tag k="seamark:rescue_station:category" v="lifeboat"/>
    <tag k="seamark:type" v="rescue_station"/>
    <tag k="type" v="multipolygon"/>
    <tag k="website" v="https://rnli.org/find-my-nearest/lifeboat-stations/walmer-lifeboat-station"/>
    <tag k="wikidata" v="Q7963534"/>
    <tag k="wikipedia" v="en:Walmer Lifeboat Station"/>
  </relation>

</osm>
