<?xml version="1.0" encoding="UTF-8"?>
<osm version="0.6" generator="Overpass API 0.7.62.5 1bd436f1">
<note>The data included in this document is from www.openstreetmap.org. The data is made available under ODbL.</note>
<meta osm_base="2025-05-17T22:14:05Z" areas="2024-12-31T00:49:33Z"/>

  <node id="361073" lat="48.8609197" lon="2.3408208" version="12" timestamp="2023-07-25T21:52:16Z" changeset="139010033" uid="7550430" user="Britzz"/>
  <node id="15643088" lat="48.8553326" lon="2.3458912" version="15" timestamp="2023-07-27T09:59:36Z" changeset="139077944" uid="7512839" user="Benoît C MdP"/>
  <node id="25554694" lat="48.8571857" lon="2.3472935" version="10" timestamp="2020-05-26T12:26:03Z" changeset="85770437" uid="311391" user="patman37"/>
  <node id="25669389" lat="48.8640862" lon="2.3204757" version="3" timestamp="2011-01-22T01:08:15Z" changeset="7046426" uid="210173" user="osmmaker"/>
  <node id="227211630" lat="48.8596719" lon="2.3295809" version="10" timestamp="2024-06-19T20:58:21Z" changeset="152915332" uid="2678738" user="fgouget"/>
  <node id="338664822" lat="48.8542668" lon="2.3448485" version="26" timestamp="2025-01-02T11:08:32Z" changeset="160901899" uid="15118949" user="Nzau">
    <tag k="button_operated" v="no"/>
    <tag k="crossing" v="traffic_signals"/>
    <tag k="crossing:island" v="no"/>
    <tag k="crossing:markings" v="zebra"/>
    <tag k="crossing:signals" v="yes"/>
    <tag k="highway" v="crossing"/>
    <tag k="kerb" v="lowered"/>
    <tag k="source" v="BD Ortho 2018"/>
    <tag k="tactile_paving" v="yes"/>
    <tag k="traffic_signals:sound" v="no"/>
    <tag k="traffic_signals:vibration" v="no"/>
  </node>
  <node id="676758863" lat="48.8543358" lon="2.3449201" version="8" timestamp="2023-07-27T09:59:36Z" changeset="139077944" uid="7512839" user="Benoît C MdP">
    <tag k="cyclestreets_id" v="70800"/>
    <tag k="highway" v="traffic_signals"/>
    <tag k="source" v="BD Ortho 2018"/>
    <tag k="tactile_paving" v="yes"/>
  </node>
  <node id="676821350" lat="48.8572394" lon="2.3471199" version="7" timestamp="2023-09-21T18:15:48Z" changeset="141572412" uid="9588949" user="cavejlam">
    <tag k="bicycle" v="yes"/>
    <tag k="comment" v="test fonction étapes véloroute"/>
    <tag k="highway" v="traffic_signals"/>
    <tag k="name" v="Paris"/>
    <tag k="route_bicycle" v="stage"/>
    <tag k="source" v="paneuropa-radweg.de"/>
    <tag k="traffic_signals" v="signal"/>
  </node>
  <node id="676872600" lat="48.8590891" lon="2.3464146" version="10" timestamp="2019-06-04T07:44:16Z" changeset="70912179" uid="138059" user="Truchin"/>
  <node id="2734089715" lat="48.8567498" lon="2.3410051" version="9" timestamp="2023-07-19T13:00:59Z" changeset="138716672" uid="125897" user="overflorian"/>
  <node id="2883229672" lat="48.8576537" lon="2.3480340" version="4" timestamp="2020-10-24T15:16:33Z" changeset="92991413" uid="1424448" user="nlehuby">
    <tag k="bus" v="yes"/>
    <tag k="name" v="Châtelet"/>
    <tag k="public_transport" v="stop_position"/>
    <tag k="source" v="survey"/>
  </node>
  <node id="4616996334" lat="48.8580983" lon="2.3479898" version="6" timestamp="2020-10-24T15:16:33Z" changeset="92991413" uid="1424448" user="nlehuby">
    <tag k="bus" v="yes"/>
    <tag k="name" v="Châtelet"/>
    <tag k="public_transport" v="stop_position"/>
    <tag k="source" v="survey"/>
  </node>
  <node id="6282960248" lat="48.8637024" lon="2.3320515" version="2" timestamp="2024-11-19T11:44:59Z" changeset="159320841" uid="2678738" user="fgouget"/>
  <node id="6282960281" lat="48.8587222" lon="2.3474362" version="6" timestamp="2025-03-24T09:03:22Z" changeset="164020633" uid="19679725" user="Planespotter1">
    <tag k="button_operated" v="no"/>
    <tag k="crossing:signals" v="yes"/>
    <tag k="highway" v="crossing"/>
  </node>
  <node id="7887163381" lat="48.8595305" lon="2.3451817" version="1" timestamp="2020-09-08T12:35:35Z" changeset="90587982" uid="138059" user="Truchin"/>
  <node id="7887163382" lat="48.8605209" lon="2.3421428" version="1" timestamp="2020-09-08T12:35:35Z" changeset="90587982" uid="138059" user="Truchin"/>
  <node id="8615812356" lat="48.8561977" lon="2.3464808" version="1" timestamp="2021-04-10T19:56:18Z" changeset="102713694" uid="10731965" user="Hydrel"/>
  <node id="11070910853" lat="48.8543673" lon="2.3448388" version="1" timestamp="2023-07-27T09:59:36Z" changeset="139077944" uid="7512839" user="Benoît C MdP"/>
  <node id="11187908892" lat="48.8640248" lon="2.3202531" version="2" timestamp="2024-10-25T17:51:52Z" changeset="158348858" uid="7291944" user="VLD032">
    <tag k="crossing" v="traffic_signals"/>
    <tag k="crossing:markings" v="zebra"/>
    <tag k="crossing:signals" v="yes"/>
    <tag k="highway" v="crossing"/>
  </node>
  <way id="4039311" version="59" timestamp="2024-11-20T09:49:47Z" changeset="159358110" uid="2678738" user="fgouget">
    <nd ref="368195"/>
    <nd ref="6145448584"/>
    <nd ref="338664953"/>
    <tag k="bus:lanes" v="yes|yes|yes|designated"/>
    <tag k="busway:right" v="lane"/>
    <tag k="cycleway:left" v="no"/>
    <tag k="cycleway:right" v="share_busway"/>
    <tag k="enforcement:operator" v="Police nationale"/>
    <tag k="highway" v="primary"/>
    <tag k="lanes" v="4"/>
    <tag k="lanes:psv" v="1"/>
    <tag k="lit" v="yes"/>
    <tag k="maxspeed" v="30"/>
    <tag k="name" v="Quai François Mitterrand"/>
    <tag k="name:etymology:wikidata" v="Q2038"/>
    <tag k="name:ru" v="набережная Франсуа Миттеран"/>
    <tag k="old_name" v="Quai du Louvre"/>
    <tag k="oneway" v="yes"/>
    <tag k="operator" v="Ville de Paris"/>
    <tag k="operator:authority" v="Maire de Paris dans le respect des prescriptions prises par le préfet de police"/>
    <tag k="operator:authority:related_law" v="III de l'article L. 2512-14 du code général des collectivités territoriales"/>
    <tag k="psv:lanes" v="yes|yes|yes|designated"/>
    <tag k="sidewalk:left" v="separate"/>
    <tag k="sidewalk:right" v="yes"/>
    <tag k="smoothness" v="intermediate"/>
    <tag k="source" v="Bing"/>
    <tag k="source:operator:authority" v="https://www.legifrance.gouv.fr/loda/id/LEGIARTI000035244298/#LEGIARTI000035244298"/>
    <tag k="surface" v="sett"/>
    <tag k="taxi:lanes" v="yes|yes|yes|designated"/>
    <tag k="zone:traffic" v="FR:urban"/>
  </way>
  <way id="4039366" version="49" timestamp="2025-01-16T09:28:00Z" changeset="161409963" uid="7512839" user="Benoît C MdP">
    <nd ref="25554694"/>
    <nd ref="7559552839"/>
    <nd ref="7559552840"/>
    <nd ref="676890492"/>
    <nd ref="1924241863"/>
    <nd ref="557366294"/>
    <nd ref="676860056"/>
    <nd ref="4619165930"/>
    <tag k="busway:right" v="lane"/>
    <tag k="cycleway:left" v="separate"/>
    <tag k="cycleway:right" v="share_busway"/>
    <tag k="enforcement:operator" v="Police nationale"/>
    <tag k="highway" v="primary"/>
    <tag k="lanes" v="5"/>
    <tag k="lit" v="yes"/>
    <tag k="maxspeed" v="30"/>
    <tag k="name" v="Place du Châtelet"/>
    <tag k="oneway" v="yes"/>
    <tag k="operator" v="Ville de Paris"/>
    <tag k="operator:authority" v="Maire de Paris dans le respect des prescriptions prises par le préfet de police"/>
    <tag k="operator:authority:related_law" v="III de l'article L. 2512-14 du code général des collectivités territoriales"/>
    <tag k="parking:lane:both" v="no"/>
    <tag k="sidewalk" v="separate"/>
    <tag k="sidewalk:both:surface" v="asphalt"/>
    <tag k="smoothness" v="excellent"/>
    <tag k="source" v="Bing"/>
    <tag k="source:operator:authority" v="https://www.legifrance.gouv.fr/loda/id/LEGIARTI000035244298/#LEGIARTI000035244298"/>
    <tag k="surface" v="asphalt"/>
    <tag k="zone:traffic" v="FR:urban"/>
  </way>
  <way id="4039626" version="27" timestamp="2024-08-15T17:22:30Z" changeset="155293930" uid="11963177" user="JeroenvanderGun">
    <nd ref="676821350"/>
    <nd ref="25554694"/>
    <tag k="bicycle" v="yes"/>
    <tag k="busway:right" v="track"/>
    <tag k="cycleway:right" v="share_busway"/>
    <tag k="enforcement:operator" v="Police nationale"/>
    <tag k="highway" v="primary"/>
    <tag k="lanes" v="5"/>
    <tag k="lit" v="yes"/>
    <tag k="maxspeed" v="30"/>
    <tag k="name" v="Quai de Gesvres"/>
    <tag k="name:etymology:wikidata" v="Q3426770"/>
    <tag k="oneway" v="yes"/>
    <tag k="operator" v="Ville de Paris"/>
    <tag k="operator:authority" v="Maire de Paris dans le respect des prescriptions prises par le préfet de police"/>
    <tag k="operator:authority:related_law" v="III de l'article L. 2512-14 du code général des collectivités territoriales"/>
    <tag k="sidewalk" v="separate"/>
    <tag k="sidewalk:left:surface" v="asphalt"/>
    <tag k="sidewalk:right:surface" v="paving_stones"/>
    <tag k="smoothness" v="good"/>
    <tag k="source" v="Bing"/>
    <tag k="source:operator:authority" v="https://www.legifrance.gouv.fr/loda/id/LEGIARTI000035244298/#LEGIARTI000035244298"/>
    <tag k="surface" v="asphalt"/>
    <tag k="zone:traffic" v="FR:urban"/>
  </way>
  <way id="4261451" version="46" timestamp="2025-04-08T06:57:38Z" changeset="164663043" uid="2678738" user="fgouget">
    <nd ref="25554425"/>
    <nd ref="8168344755"/>
    <nd ref="678892280"/>
    <nd ref="282187576"/>
    <tag k="highway" v="unclassified"/>
    <tag k="lanes" v="2"/>
    <tag k="lit" v="yes"/>
    <tag k="maxspeed" v="30"/>
    <tag k="motor_vehicle" v="destination"/>
    <tag k="name" v="Place du Louvre"/>
    <tag k="name:etymology:wikidata" v="Q1075988"/>
    <tag k="name:ru" v="Луврская площадь"/>
    <tag k="oneway" v="no"/>
    <tag k="sidewalk:right" v="separate"/>
    <tag k="smoothness" v="intermediate"/>
    <tag k="surface" v="sett"/>
  </way>
  <way id="4294103" version="54" timestamp="2025-05-15T14:58:41Z" changeset="166309470" uid="22407040" user="Simon-MAPPY">
    <nd ref="11187908892"/>
    <nd ref="1524568691"/>
    <nd ref="2880433267"/>
    <nd ref="3303874334"/>
    <nd ref="5059182773"/>
    <tag k="bus:lanes" v="yes|designated"/>
    <tag k="busway:right" v="lane"/>
    <tag k="cycleway:left" v="separate"/>
    <tag k="cycleway:right" v="share_busway"/>
    <tag k="enforcement:operator" v="Police nationale"/>
    <tag k="fixme" v="vérifier si du marquage est bien en place pour le couloir bus"/>
    <tag k="foot" v="no"/>
    <tag k="highway" v="primary"/>
    <tag k="lanes" v="2"/>
    <tag k="lit" v="yes"/>
    <tag k="maxspeed" v="30"/>
    <tag k="name" v="Quai des Tuileries"/>
    <tag k="name:ru" v="набережная Тюильри"/>
    <tag k="oneway" v="yes"/>
    <tag k="operator" v="Ville de Paris"/>
    <tag k="operator:authority" v="Maire de Paris dans le respect des prescriptions prises par le préfet de police"/>
    <tag k="operator:authority:related_law" v="III de l'article L. 2512-14 du code général des collectivités territoriales"/>
    <tag k="psv:lanes" v="yes|designated"/>
    <tag k="source:operator:authority" v="https://www.legifrance.gouv.fr/loda/id/LEGIARTI000035244298/#LEGIARTI000035244298"/>
    <tag k="surface" v="asphalt"/>
    <tag k="taxi:lanes" v="yes|designated"/>
    <tag k="zone:traffic" v="FR:urban"/>
  </way>
  <way id="14882405" version="49" timestamp="2024-06-28T14:25:18Z" changeset="153296454" uid="7512839" user="Benoît C MdP">
    <nd ref="470193"/>
    <nd ref="1461333063"/>
    <tag k="VROP:left" v="opposite_lane"/>
    <tag k="bicycle" v="no"/>
    <tag k="cycleway" v="no"/>
    <tag k="hazmat" v="no"/>
    <tag k="highway" v="secondary"/>
    <tag k="lanes" v="3"/>
    <tag k="layer" v="-1"/>
    <tag k="lit" v="24/7"/>
    <tag k="maxspeed" v="30"/>
    <tag k="name" v="Avenue du Général Lemonnier"/>
    <tag k="name:ru" v="проспект Женераль Лемонье"/>
    <tag k="oneway" v="yes"/>
    <tag k="ref:FR:FANTOIR" v="751014064T"/>
    <tag k="surface" v="asphalt"/>
    <tag k="tunnel" v="yes"/>
    <tag k="wikidata" v="Q2874152"/>
  </way>
  <way id="14882406" version="51" timestamp="2024-06-28T14:25:18Z" changeset="153296454" uid="7512839" user="Benoît C MdP">
    <nd ref="470194"/>
    <nd ref="1202452856"/>
    <nd ref="3980173917"/>
    <nd ref="2200150897"/>
    <nd ref="6282960248"/>
    <tag k="VROP:left" v="opposite_lane"/>
    <tag k="bicycle" v="no"/>
    <tag k="cycleway" v="no"/>
    <tag k="hazmat" v="no"/>
    <tag k="highway" v="secondary"/>
    <tag k="lanes" v="3"/>
    <tag k="lit" v="yes"/>
    <tag k="maxspeed" v="30"/>
    <tag k="name" v="Avenue du Général Lemonnier"/>
    <tag k="name:ru" v="проспект Женераль Лемонье"/>
    <tag k="oneway" v="yes"/>
    <tag k="ref:FR:FANTOIR" v="751014064T"/>
    <tag k="surface" v="asphalt"/>
    <tag k="wikidata" v="Q2874152"/>
  </way>
  <way id="20326518" version="66" timestamp="2023-09-19T00:14:20Z" changeset="141445413" uid="10731965" user="Hydrel">
    <nd ref="2734089715"/>
    <nd ref="11054817256"/>
    <nd ref="6263794046"/>
    <nd ref="6291704556"/>
    <nd ref="919598167"/>
    <tag k="alt_name:ru" v="Новый Мост"/>
    <tag k="bridge" v="yes"/>
    <tag k="busway:left" v="opposite_lane"/>
    <tag k="cycleway:left" v="lane"/>
    <tag k="cycleway:left:lane" v="exclusive"/>
    <tag k="cycleway:left:oneway" v="-1"/>
    <tag k="cycleway:right" v="lane"/>
    <tag k="cycleway:right:lane" v="exclusive"/>
    <tag k="highway" v="tertiary"/>
    <tag k="lanes" v="2"/>
    <tag k="lanes:backward" v="1"/>
    <tag k="lanes:forward" v="1"/>
    <tag k="layer" v="1"/>
    <tag k="lit" v="yes"/>
    <tag k="maxspeed" v="30"/>
    <tag k="maxweight:signed" v="no"/>
    <tag k="name" v="Pont Neuf"/>
    <tag k="name:de" v="Neue Brücke"/>
    <tag k="name:es" v="Puente Nuevo"/>
    <tag k="name:pt" v="Ponte Nova"/>
    <tag k="name:ru" v="Новый мост"/>
    <tag k="name:zh" v="新桥"/>
    <tag k="oneway" v="yes"/>
    <tag k="oneway:bicycle" v="no"/>
    <tag k="oneway:psv" v="no"/>
    <tag k="parking:both" v="no"/>
    <tag k="psv:lanes:backward" v="designated"/>
    <tag k="sidewalk" v="separate"/>
    <tag k="sidewalk:both:surface" v="paving_stones"/>
    <tag k="smoothness" v="intermediate"/>
    <tag k="surface" v="sett"/>
    <tag k="zone:maxspeed" v="FR:30"/>
  </way>
  <way id="21124959" version="51" timestamp="2024-08-08T17:19:53Z" changeset="154989680" uid="15968482" user="PtitLouis_">
    <nd ref="227211630"/>
    <nd ref="227214316"/>
    <tag k="bridge" v="yes"/>
    <tag k="cycleway:both" v="no"/>
    <tag k="highway" v="secondary"/>
    <tag k="lanes" v="2"/>
    <tag k="layer" v="1"/>
    <tag k="lit" v="yes"/>
    <tag k="maxspeed" v="30"/>
    <tag k="maxweight:signed" v="no"/>
    <tag k="name" v="Pont Royal"/>
    <tag k="name:es" v="Puente Real"/>
    <tag k="name:etymology:wikidata" v="Q7742"/>
    <tag k="name:ru" v="Мост Руаяль"/>
    <tag k="oneway" v="yes"/>
    <tag k="shoulder" v="no"/>
    <tag k="sidewalk" v="both"/>
    <tag k="sidewalk:both:surface" v="asphalt"/>
    <tag k="smoothness" v="good"/>
    <tag k="surface" v="sett"/>
  </way>
  <way id="21821064" version="43" timestamp="2024-08-27T08:52:49Z" changeset="155818919" uid="7512839" user="Benoît C MdP">
    <nd ref="338664822"/>
    <nd ref="676758863"/>
    <tag k="busway:left" v="opposite_lane"/>
    <tag k="busway:right" v="lane"/>
    <tag k="cycleway:both" v="share_busway"/>
    <tag k="cycleway:left:oneway" v="-1"/>
    <tag k="enforcement:operator" v="Police nationale"/>
    <tag k="highway" v="primary"/>
    <tag k="lane_markings" v="no"/>
    <tag k="lit" v="yes"/>
    <tag k="maxspeed" v="30"/>
    <tag k="name" v="Boulevard du Palais"/>
    <tag k="name:etymology:wikidata" v="Q143080"/>
    <tag k="note" v="Voies de bus+vélo dans les 2 sens"/>
    <tag k="oneway" v="yes"/>
    <tag k="oneway:bicycle" v="no"/>
    <tag k="oneway:psv" v="no"/>
    <tag k="operator" v="Ville de Paris"/>
    <tag k="operator:authority" v="Maire de Paris dans le respect des prescriptions prises par le préfet de police"/>
    <tag k="operator:authority:related_law" v="III de l'article L. 2512-14 du code général des collectivités territoriales"/>
    <tag k="sidewalk" v="separate"/>
    <tag k="smoothness" v="good"/>
    <tag k="source:maxspeed" v="FR:zone30"/>
    <tag k="source:operator:authority" v="https://www.legifrance.gouv.fr/loda/id/LEGIARTI000035244298/#LEGIARTI000035244298"/>
    <tag k="surface" v="asphalt"/>
    <tag k="zone:traffic" v="FR:urban"/>
  </way>
  <way id="24803490" version="46" timestamp="2024-10-04T07:44:37Z" changeset="157448175" uid="7512839" user="Benoît C MdP">
    <nd ref="25669389"/>
    <nd ref="5059182772"/>
    <nd ref="5059182773"/>
    <tag k="bicycle" v="no"/>
    <tag k="cycleway:both" v="separate"/>
    <tag k="enforcement:operator" v="Police nationale"/>
    <tag k="foot" v="no"/>
    <tag k="highway" v="primary"/>
    <tag k="lanes" v="2"/>
    <tag k="layer" v="-1"/>
    <tag k="lit" v="yes"/>
    <tag k="maxspeed" v="30"/>
    <tag k="name" v="Voie Georges-Pompidou"/>
    <tag k="name:ru" v="дорога Жорж Помпиду"/>
    <tag k="oneway" v="yes"/>
    <tag k="operator" v="Ville de Paris"/>
    <tag k="operator:authority" v="Maire de Paris dans le respect des prescriptions prises par le préfet de police"/>
    <tag k="operator:authority:related_law" v="III de l'article L. 2512-14 du code général des collectivités territoriales"/>
    <tag k="source:operator:authority" v="https://www.legifrance.gouv.fr/loda/id/LEGIARTI000035244298/#LEGIARTI000035244298"/>
    <tag k="surface" v="asphalt"/>
    <tag k="zone:traffic" v="FR:urban"/>
  </way>
  <way id="25869892" version="44" timestamp="2024-08-08T18:59:55Z" changeset="154993584" uid="15968482" user="PtitLouis_">
    <nd ref="4519595975"/>
    <nd ref="10013974003"/>
    <tag k="cycleway:both" v="no"/>
    <tag k="highway" v="residential"/>
    <tag k="lit" v="yes"/>
    <tag k="maxspeed" v="30"/>
    <tag k="name" v="Rue Perrault"/>
    <tag k="name:etymology:wikidata" v="Q347699"/>
    <tag k="name:ru" v="улица Перро"/>
    <tag k="oneway" v="yes"/>
    <tag k="oneway:bicycle" v="no"/>
    <tag k="sidewalk:both" v="separate"/>
    <tag k="smoothness" v="excellent"/>
    <tag k="source" v="cadastre-dgi-fr source : Direction Générale des Impôts - Cadastre. Mise à jour : 2009"/>
    <tag k="source:maxspeed" v="opendata.paris.fr"/>
    <tag k="surface" v="asphalt"/>
  </way>
  <way id="30621996" version="45" timestamp="2024-08-08T17:21:11Z" changeset="154989680" uid="15968482" user="PtitLouis_">
    <nd ref="227214316"/>
    <nd ref="1869409578"/>
    <tag k="bridge" v="yes"/>
    <tag k="cycleway:both" v="no"/>
    <tag k="highway" v="secondary"/>
    <tag k="lane_markings" v="no"/>
    <tag k="layer" v="1"/>
    <tag k="lit" v="yes"/>
    <tag k="maxspeed" v="30"/>
    <tag k="maxweight:signed" v="no"/>
    <tag k="name" v="Pont Royal"/>
    <tag k="name:es" v="Puente Real"/>
    <tag k="name:etymology:wikidata" v="Q7742"/>
    <tag k="name:ru" v="Мост Руаяль"/>
    <tag k="oneway" v="yes"/>
    <tag k="source" v="cadastre-dgi-fr source : Direction Générale des Impôts - Cadastre;mise à jour : 2007"/>
    <tag k="surface" v="sett"/>
  </way>
  <way id="34200356" version="50" timestamp="2024-10-04T07:44:37Z" changeset="157448175" uid="7512839" user="Benoît C MdP">
    <nd ref="5059182773"/>
    <nd ref="1905700651"/>
    <tag k="bus:lanes" v="yes|yes|designated"/>
    <tag k="busway:right" v="lane"/>
    <tag k="cycleway:right" v="share_busway"/>
    <tag k="enforcement:operator" v="Police nationale"/>
    <tag k="highway" v="primary"/>
    <tag k="lanes" v="3"/>
    <tag k="lanes:psv" v="1"/>
    <tag k="lit" v="yes"/>
    <tag k="maxspeed" v="30"/>
    <tag k="name" v="Quai des Tuileries"/>
    <tag k="name:ru" v="набережная Тюильри"/>
    <tag k="oneway" v="yes"/>
    <tag k="operator" v="Ville de Paris"/>
    <tag k="operator:authority" v="Maire de Paris dans le respect des prescriptions prises par le préfet de police"/>
    <tag k="operator:authority:related_law" v="III de l'article L. 2512-14 du code général des collectivités territoriales"/>
    <tag k="psv:lanes" v="yes|yes|designated"/>
    <tag k="source" v="Bing"/>
    <tag k="source:operator:authority" v="https://www.legifrance.gouv.fr/loda/id/LEGIARTI000035244298/#LEGIARTI000035244298"/>
    <tag k="surface" v="asphalt"/>
    <tag k="taxi:lanes" v="yes|yes|designated"/>
    <tag k="zone:traffic" v="FR:urban"/>
  </way>
  <way id="39371291" version="40" timestamp="2024-08-15T17:22:30Z" changeset="155293930" uid="11963177" user="JeroenvanderGun">
    <nd ref="4616996334"/>
    <nd ref="7508676445"/>
    <nd ref="697183823"/>
    <nd ref="3376283552"/>
    <nd ref="6282960235"/>
    <tag k="bicycle:lanes" v="yes|yes|designated"/>
    <tag k="busway:right" v="lane"/>
    <tag k="cycleway:left" v="separate"/>
    <tag k="cycleway:right" v="share_busway"/>
    <tag k="enforcement:operator" v="Police nationale"/>
    <tag k="highway" v="primary"/>
    <tag k="lanes" v="3"/>
    <tag k="lanes:psv" v="1"/>
    <tag k="lit" v="yes"/>
    <tag k="maxspeed" v="30"/>
    <tag k="name" v="Boulevard de Sébastopol"/>
    <tag k="name:etymology:wikidata" v="Q815216"/>
    <tag k="oneway" v="yes"/>
    <tag k="operator" v="Ville de Paris"/>
    <tag k="operator:authority" v="Maire de Paris dans le respect des prescriptions prises par le préfet de police"/>
    <tag k="operator:authority:related_law" v="III de l'article L. 2512-14 du code général des collectivités territoriales"/>
    <tag k="psv:lanes" v="yes|yes|designated"/>
    <tag k="sidewalk" v="separate"/>
    <tag k="smoothness" v="good"/>
    <tag k="source:maxspeed" v="FR:urban"/>
    <tag k="source:operator:authority" v="https://www.legifrance.gouv.fr/loda/id/LEGIARTI000035244298/#LEGIARTI000035244298"/>
    <tag k="surface" v="asphalt"/>
    <tag k="zone:traffic" v="FR:urban"/>
  </way>
  <way id="53567909" version="43" timestamp="2024-02-17T17:49:21Z" changeset="147580915" uid="6290466" user="benjamintchik">
    <nd ref="676758859"/>
    <nd ref="11066775740"/>
    <nd ref="11066775739"/>
    <nd ref="1978093085"/>
    <nd ref="676748207"/>
    <nd ref="676727427"/>
    <nd ref="1978093090"/>
    <nd ref="676728069"/>
    <nd ref="1978097462"/>
    <nd ref="676728070"/>
    <tag k="cycleway:both" v="shared_lane"/>
    <tag k="cycleway:both:lane" v="pictogram"/>
    <tag k="cycleway:left:oneway" v="-1"/>
    <tag k="highway" v="residential"/>
    <tag k="lit" v="yes"/>
    <tag k="maxspeed" v="30"/>
    <tag k="name" v="Rue de Harlay"/>
    <tag k="name:etymology:wikidata" v="Q2823122"/>
    <tag k="name:ru" v="улица Арле"/>
    <tag k="oneway" v="yes"/>
    <tag k="oneway:bicycle" v="no"/>
    <tag k="sidewalk" v="separate"/>
    <tag k="smoothness" v="excellent"/>
    <tag k="source" v="cadastre-dgi-fr source : Direction Générale des Impôts - Cadastre. Mise à jour : 2010"/>
    <tag k="surface" v="asphalt"/>
    <tag k="zone:maxspeed" v="FR:30"/>
  </way>
  <way id="53570003" version="6" timestamp="2019-12-08T14:41:06Z" changeset="78110962" uid="62548" user="Coucouf">
    <nd ref="676748420"/>
    <nd ref="676748441"/>
    <nd ref="676748442"/>
    <nd ref="676748443"/>
    <nd ref="676748444"/>
    <nd ref="676748446"/>
    <nd ref="676748449"/>
    <nd ref="676748447"/>
    <nd ref="676748448"/>
    <nd ref="676748423"/>
    <nd ref="676748422"/>
    <nd ref="676748424"/>
    <nd ref="676748421"/>
    <nd ref="676748420"/>
    <tag k="building" v="apartments"/>
    <tag k="building:levels" v="4"/>
    <tag k="name" v="Maison du Barreau"/>
    <tag k="roof:levels" v="2"/>
    <tag k="roof:shape" v="hipped"/>
    <tag k="source" v="cadastre-dgi-fr source : Direction Générale des Impôts - Cadastre. Mise à jour : 2010"/>
    <tag k="wikidata" v="Q22921028"/>
  </way>
  <way id="53570785" version="55" timestamp="2024-11-25T06:24:56Z" changeset="159558677" uid="158826" user="cquest">
    <nd ref="676758859"/>
    <nd ref="676758861"/>
    <nd ref="1978093088"/>
    <nd ref="5536182717"/>
    <nd ref="676788789"/>
    <nd ref="676758864"/>
    <nd ref="676758865"/>
    <nd ref="5536182714"/>
    <nd ref="5915269349"/>
    <nd ref="6353008548"/>
    <nd ref="12373040015"/>
    <nd ref="5915269348"/>
    <nd ref="11070910853"/>
    <tag k="busway:right" v="lane"/>
    <tag k="cycleway:left" v="no"/>
    <tag k="cycleway:right" v="share_busway"/>
    <tag k="highway" v="residential"/>
    <tag k="lanes" v="1"/>
    <tag k="lit" v="yes"/>
    <tag k="maxspeed" v="30"/>
    <tag k="motor_vehicle" v="destination"/>
    <tag k="name" v="Quai des Orfèvres"/>
    <tag k="name:etymology:wikidata" v="Q211423"/>
    <tag k="name:ru" v="набережная Орфевр"/>
    <tag k="oneway" v="yes"/>
    <tag k="oneway:bicycle" v="yes"/>
    <tag k="sidewalk" v="separate"/>
    <tag k="smoothness" v="good"/>
    <tag k="source" v="cadastre-dgi-fr source : Direction Générale des Impôts - Cadastre. Mise à jour : 2010"/>
    <tag k="surface" v="asphalt"/>
    <tag k="width" v="1.5"/>
    <tag k="zone:maxspeed" v="FR:30"/>
  </way>
  <way id="53570788" version="46" timestamp="2023-08-21T19:33:31Z" changeset="140197976" uid="19233464" user="secondaryhighway">
    <nd ref="676758884"/>
    <nd ref="403534532"/>
    <tag k="busway:left" v="opposite_lane"/>
    <tag k="cycleway:left" v="no"/>
    <tag k="cycleway:right" v="lane"/>
    <tag k="cycleway:right:lane" v="exclusive"/>
    <tag k="dual_carriageway" v="yes"/>
    <tag k="highway" v="tertiary"/>
    <tag k="lanes" v="1"/>
    <tag k="lit" v="yes"/>
    <tag k="maxspeed" v="30"/>
    <tag k="name" v="Place du Pont Neuf"/>
    <tag k="name:ru" v="площадь Пон-Нёф"/>
    <tag k="oneway" v="yes"/>
    <tag k="sidewalk" v="separate"/>
    <tag k="smoothness" v="intermediate"/>
    <tag k="source" v="cadastre-dgi-fr source : Direction Générale des Impôts - Cadastre. Mise à jour : 2010"/>
    <tag k="surface" v="sett"/>
    <tag k="zone:maxspeed" v="FR:30"/>
  </way>
  <way id="53574163" version="53" timestamp="2024-03-29T08:00:17Z" changeset="149299148" uid="2678738" user="fgouget">
    <nd ref="678833511"/>
    <nd ref="2734089741"/>
    <nd ref="677017619"/>
    <nd ref="5374911024"/>
    <tag k="alt_name:ru" v="Новый Мост"/>
    <tag k="bridge" v="yes"/>
    <tag k="cycleway:both" v="lane"/>
    <tag k="cycleway:both:lane" v="exclusive"/>
    <tag k="highway" v="tertiary"/>
    <tag k="lanes" v="2"/>
    <tag k="layer" v="1"/>
    <tag k="lit" v="yes"/>
    <tag k="maxspeed" v="30"/>
    <tag k="maxweight:signed" v="no"/>
    <tag k="name" v="Pont Neuf"/>
    <tag k="name:de" v="Neue Brücke"/>
    <tag k="name:es" v="Puente Nuevo"/>
    <tag k="name:pt" v="Ponte Nova"/>
    <tag k="name:ru" v="Новый мост"/>
    <tag k="name:zh" v="新桥"/>
    <tag k="parking:both" v="no"/>
    <tag k="sidewalk:both" v="separate"/>
    <tag k="sidewalk:both:surface" v="paving_stones"/>
    <tag k="smoothness" v="good"/>
    <tag k="source" v="cadastre-dgi-fr source : Direction Générale des Impôts - Cadastre. Mise à jour : 2010"/>
    <tag k="surface" v="sett"/>
    <tag k="zone:maxspeed" v="FR:30"/>
  </way>
  <way id="53574168" version="22" timestamp="2023-07-26T07:05:59Z" changeset="139021521" uid="125897" user="overflorian">
    <nd ref="676788930"/>
    <nd ref="676788922"/>
    <tag k="cycleway:left" v="no"/>
    <tag k="cycleway:right" v="lane"/>
    <tag k="cycleway:right:lane" v="exclusive"/>
    <tag k="dual_carriageway" v="yes"/>
    <tag k="highway" v="tertiary"/>
    <tag k="lanes" v="2"/>
    <tag k="lit" v="yes"/>
    <tag k="maxspeed" v="30"/>
    <tag k="name" v="Pont Neuf"/>
    <tag k="oneway" v="yes"/>
    <tag k="sidewalk" v="separate"/>
    <tag k="smoothness" v="intermediate"/>
    <tag k="source" v="cadastre-dgi-fr source : Direction Générale des Impôts - Cadastre. Mise à jour : 2010"/>
    <tag k="surface" v="sett"/>
    <tag k="zone:maxspeed" v="FR:30"/>
  </way>
  <way id="53574171" version="47" timestamp="2023-08-21T19:33:31Z" changeset="140197976" uid="19233464" user="secondaryhighway">
    <nd ref="6400526959"/>
    <nd ref="8394448775"/>
    <nd ref="11066482361"/>
    <nd ref="676728036"/>
    <tag k="cycleway:left" v="no"/>
    <tag k="cycleway:right" v="shared_lane"/>
    <tag k="cycleway:right:lane" v="pictogram"/>
    <tag k="dual_carriageway" v="yes"/>
    <tag k="highway" v="residential"/>
    <tag k="lanes" v="2"/>
    <tag k="lit" v="yes"/>
    <tag k="maxspeed" v="30"/>
    <tag k="name" v="Place du Pont Neuf"/>
    <tag k="name:ru" v="площадь Пон-Нёф"/>
    <tag k="oneway" v="yes"/>
    <tag k="sidewalk" v="separate"/>
    <tag k="smoothness" v="intermediate"/>
    <tag k="source" v="cadastre-dgi-fr source : Direction Générale des Impôts - Cadastre. Mise à jour : 2010"/>
    <tag k="surface" v="sett"/>
    <tag k="zone:maxspeed" v="FR:30"/>
  </way>
  <way id="53574179" version="44" timestamp="2024-03-29T08:00:26Z" changeset="149299148" uid="2678738" user="fgouget">
    <nd ref="678833511"/>
    <nd ref="5059182780"/>
    <tag k="cycleway:left" v="no"/>
    <tag k="cycleway:right" v="lane"/>
    <tag k="highway" v="tertiary"/>
    <tag k="lanes" v="4"/>
    <tag k="lanes:backward" v="3"/>
    <tag k="lanes:forward" v="1"/>
    <tag k="lit" v="yes"/>
    <tag k="maxspeed" v="30"/>
    <tag k="maxspeed:type" v="sign"/>
    <tag k="name" v="Pont Neuf"/>
    <tag k="name:de" v="Neue Brücke"/>
    <tag k="name:es" v="Puente Nuevo"/>
    <tag k="name:pt" v="Ponte Nova"/>
    <tag k="name:ru" v="Новый мост"/>
    <tag k="name:zh" v="新桥"/>
    <tag k="sidewalk:both" v="separate"/>
    <tag k="smoothness" v="excellent"/>
    <tag k="source" v="cadastre-dgi-fr source : Direction Générale des Impôts - Cadastre. Mise à jour : 2010"/>
    <tag k="surface" v="asphalt"/>
  </way>
  <way id="53574718" version="17" timestamp="2024-02-04T12:25:30Z" changeset="147051846" uid="20953139" user="日本語翻訳">
    <nd ref="676795009"/>
    <nd ref="676795008"/>
    <nd ref="676795007"/>
    <nd ref="676795006"/>
    <nd ref="676860091"/>
    <nd ref="9178483326"/>
    <nd ref="676794975"/>
    <nd ref="676794974"/>
    <nd ref="676794969"/>
    <nd ref="676860044"/>
    <nd ref="676860083"/>
    <nd ref="676794998"/>
    <nd ref="676794997"/>
    <nd ref="676794995"/>
    <nd ref="676794994"/>
    <nd ref="676860084"/>
    <nd ref="2555407203"/>
    <nd ref="676794965"/>
    <nd ref="676860085"/>
    <nd ref="676860087"/>
    <nd ref="676794999"/>
    <nd ref="676795000"/>
    <nd ref="676795001"/>
    <nd ref="676795002"/>
    <nd ref="676860090"/>
    <nd ref="676795003"/>
    <nd ref="676795004"/>
    <nd ref="676860089"/>
    <nd ref="2555407234"/>
    <nd ref="676860088"/>
    <nd ref="676860094"/>
    <nd ref="676795011"/>
    <nd ref="676795012"/>
    <nd ref="676795013"/>
    <nd ref="676795015"/>
    <nd ref="676795017"/>
    <nd ref="676795018"/>
    <nd ref="676795019"/>
    <nd ref="676795009"/>
    <tag k="amenity" v="theatre"/>
    <tag k="architect" v="Gabriel Davioud"/>
    <tag k="building" v="yes"/>
    <tag k="height" v="25"/>
    <tag k="heritage" v="3"/>
    <tag k="heritage:operator" v="mhs"/>
    <tag k="mhs:inscription_date" v="1979-11-14"/>
    <tag k="name" v="Théâtre du Châtelet"/>
    <tag k="name:ja" v="シャトレ座"/>
    <tag k="name:uk" v="Театр Шатле"/>
    <tag k="phone" v="+33140282800"/>
    <tag k="ref:mhs" v="PA00086003"/>
    <tag k="source" v="layer cadastrre 2013"/>
    <tag k="source:architect" v="data.culture.gouv.fr:Ministère de la Culture - 2020-07"/>
    <tag k="source:heritage" v="data.culture.gouv.fr:Ministère de la Culture - 2020-07"/>
    <tag k="theatre:genre" v="philharmonic"/>
    <tag k="website" v="https://www.chatelet.com/"/>
    <tag k="wheelchair" v="yes"/>
    <tag k="wikidata" v="Q1469315"/>
    <tag k="wikipedia" v="fr:Théâtre du Châtelet"/>
  </way>
  <way id="53578230" version="21" timestamp="2024-03-29T08:03:39Z" changeset="149299148" uid="2678738" user="fgouget">
    <nd ref="7887163381"/>
    <nd ref="676821346"/>
    <nd ref="6282960278"/>
    <nd ref="6213883749"/>
    <nd ref="676821343"/>
    <nd ref="6321693331"/>
    <nd ref="676821342"/>
    <tag k="cycleway" v="opposite"/>
    <tag k="highway" v="residential"/>
    <tag k="lit" v="yes"/>
    <tag k="maxspeed" v="30"/>
    <tag k="name" v="Rue Bertin Poirée"/>
    <tag k="name:etymology" v="un particulier nommé « Bertin Poirée » qui y demeurait au début du XIIIe siècle."/>
    <tag k="oneway" v="yes"/>
    <tag k="oneway:bicycle" v="no"/>
    <tag k="sidewalk:both" v="separate"/>
    <tag k="sidewalk:both:surface" v="asphalt"/>
    <tag k="smoothness" v="good"/>
    <tag k="source" v="cadastre-dgi-fr source : Direction Générale des Impôts - Cadastre. Mise à jour : 2010"/>
    <tag k="surface" v="asphalt"/>
  </way>
  <way id="53578231" version="14" timestamp="2024-04-07T13:07:31Z" changeset="149691598" uid="6290466" user="benjamintchik">
    <nd ref="676821343"/>
    <nd ref="2218564147"/>
    <nd ref="2218564144"/>
    <nd ref="676821355"/>
    <tag k="cycleway:left" v="shared_lane"/>
    <tag k="cycleway:left:lane" v="pictogram"/>
    <tag k="cycleway:left:oneway" v="-1"/>
    <tag k="cycleway:right" v="no"/>
    <tag k="highway" v="residential"/>
    <tag k="maxspeed" v="30"/>
    <tag k="name" v="Rue des Deux Boules"/>
    <tag k="name:etymology:wikidata" v="Q1211272"/>
    <tag k="oneway" v="yes"/>
    <tag k="oneway:bicycle" v="no"/>
    <tag k="sidewalk:both" v="separate"/>
    <tag k="sidewalk:left:surface" v="asphalt"/>
    <tag k="sidewalk:right:surface" v="paving_stones"/>
    <tag k="smoothness" v="good"/>
    <tag k="source" v="cadastre-dgi-fr source : Direction Générale des Impôts - Cadastre. Mise à jour : 2010"/>
    <tag k="surface" v="asphalt"/>
  </way>
  <way id="53578233" version="12" timestamp="2024-03-31T10:27:58Z" changeset="149383770" uid="7550430" user="Britzz">
    <nd ref="676821321"/>
    <nd ref="2218564145"/>
    <nd ref="676821342"/>
    <tag k="cycleway" v="opposite"/>
    <tag k="highway" v="residential"/>
    <tag k="lit" v="yes"/>
    <tag k="maxspeed" v="30"/>
    <tag k="name" v="Rue Jean Lantier"/>
    <tag k="name:etymology" v="Jean Lointier, un riche propriétaire habitant la rue au XIIe siècle1."/>
    <tag k="oneway" v="yes"/>
    <tag k="oneway:bicycle" v="no"/>
    <tag k="sidewalk:both" v="separate"/>
    <tag k="smoothness" v="good"/>
    <tag k="source" v="cadastre-dgi-fr source : Direction Générale des Impôts - Cadastre. Mise à jour : 2010"/>
    <tag k="surface" v="asphalt"/>
  </way>
  <way id="53578234" version="33" timestamp="2024-08-15T17:22:30Z" changeset="155293930" uid="11963177" user="JeroenvanderGun">
    <nd ref="5059182780"/>
    <nd ref="676821309"/>
    <nd ref="2468304196"/>
    <nd ref="2880573972"/>
    <nd ref="676821311"/>
    <nd ref="4879118831"/>
    <nd ref="676821315"/>
    <nd ref="6321683987"/>
    <nd ref="676821316"/>
    <tag k="bicycle:lanes" v="yes|yes|yes|designated"/>
    <tag k="busway:right" v="track"/>
    <tag k="cycleway:left" v="no"/>
    <tag k="cycleway:right" v="share_busway"/>
    <tag k="enforcement:operator" v="Police nationale"/>
    <tag k="highway" v="primary"/>
    <tag k="lanes" v="4"/>
    <tag k="lanes:psv" v="1"/>
    <tag k="lit" v="yes"/>
    <tag k="maxspeed" v="30"/>
    <tag k="name" v="Quai de la Mégisserie"/>
    <tag k="name:etymology:wikidata" v="Q3332813"/>
    <tag k="oneway" v="yes"/>
    <tag k="operator" v="Ville de Paris"/>
    <tag k="operator:authority" v="Maire de Paris dans le respect des prescriptions prises par le préfet de police"/>
    <tag k="operator:authority:related_law" v="III de l'article L. 2512-14 du code général des collectivités territoriales"/>
    <tag k="psv:lanes" v="yes|yes|yes|designated"/>
    <tag k="sidewalk:both" v="separate"/>
    <tag k="sidewalk:left:surface" v="asphalt"/>
    <tag k="sidewalk:right:surface" v="paving_stones"/>
    <tag k="smoothness" v="excellent"/>
    <tag k="source" v="cadastre-dgi-fr source : Direction Générale des Impôts - Cadastre. Mise à jour : 2010"/>
    <tag k="source:operator:authority" v="https://www.legifrance.gouv.fr/loda/id/LEGIARTI000035244298/#LEGIARTI000035244298"/>
    <tag k="surface" v="asphalt"/>
    <tag k="zone:traffic" v="FR:urban"/>
  </way>
  <way id="53578237" version="19" timestamp="2024-08-08T19:09:20Z" changeset="154993584" uid="15968482" user="PtitLouis_">
    <nd ref="676821316"/>
    <nd ref="2211556528"/>
    <nd ref="676821352"/>
    <tag k="cycleway:both" v="no"/>
    <tag k="highway" v="residential"/>
    <tag k="lit" v="yes"/>
    <tag k="maxspeed" v="30"/>
    <tag k="name" v="Rue Édouard Colonne"/>
    <tag k="name:etymology:wikidata" v="Q274278"/>
    <tag k="oneway" v="yes"/>
    <tag k="oneway:bicycle" v="no"/>
    <tag k="sidewalk:both" v="separate"/>
    <tag k="sidewalk:both:surface" v="asphalt"/>
    <tag k="smoothness" v="excellent"/>
    <tag k="source" v="cadastre-dgi-fr source : Direction Générale des Impôts - Cadastre. Mise à jour : 2010"/>
    <tag k="surface" v="asphalt"/>
    <tag k="width" v="4.8"/>
  </way>
  <way id="53578238" version="16" timestamp="2024-03-29T08:01:20Z" changeset="149299148" uid="2678738" user="fgouget">
    <nd ref="676821352"/>
    <nd ref="6871551538"/>
    <nd ref="676821317"/>
    <tag k="cycleway" v="opposite"/>
    <tag k="highway" v="residential"/>
    <tag k="lit" v="yes"/>
    <tag k="maxspeed" v="30"/>
    <tag k="name" v="Rue Saint-Germain l'Auxerrois"/>
    <tag k="name:etymology:wikidata" v="Q1429394"/>
    <tag k="oneway" v="yes"/>
    <tag k="oneway:bicycle" v="no"/>
    <tag k="sidewalk:both" v="separate"/>
    <tag k="smoothness" v="excellent"/>
    <tag k="source" v="cadastre-dgi-fr source : Direction Générale des Impôts - Cadastre. Mise à jour : 2010"/>
    <tag k="surface" v="asphalt"/>
  </way>
  <way id="53578239" version="13" timestamp="2024-03-29T08:01:41Z" changeset="149299148" uid="2678738" user="fgouget">
    <nd ref="676821317"/>
    <nd ref="2218564137"/>
    <nd ref="2218564143"/>
    <nd ref="676821321"/>
    <tag k="cycleway" v="opposite"/>
    <tag k="highway" v="residential"/>
    <tag k="lit" v="yes"/>
    <tag k="maxspeed" v="30"/>
    <tag k="name" v="Rue des Orfèvres"/>
    <tag k="name:etymology:wikidata" v="Q211423"/>
    <tag k="oneway" v="yes"/>
    <tag k="oneway:bicycle" v="no"/>
    <tag k="sidewalk:both" v="separate"/>
    <tag k="smoothness" v="excellent"/>
    <tag k="source" v="cadastre-dgi-fr source : Direction Générale des Impôts - Cadastre. Mise à jour : 2010"/>
    <tag k="surface" v="asphalt"/>
  </way>
  <way id="53578240" version="14" timestamp="2024-08-08T19:06:54Z" changeset="154993717" uid="15968482" user="PtitLouis_">
    <nd ref="676821313"/>
    <nd ref="2468304200"/>
    <nd ref="2218564139"/>
    <nd ref="676821319"/>
    <tag k="cycleway:both" v="no"/>
    <tag k="highway" v="residential"/>
    <tag k="lit" v="yes"/>
    <tag k="maxspeed" v="30"/>
    <tag k="name" v="Rue Saint-Germain l'Auxerrois"/>
    <tag k="name:etymology:wikidata" v="Q1429394"/>
    <tag k="oneway" v="yes"/>
    <tag k="oneway:bicycle" v="no"/>
    <tag k="sidewalk:both" v="separate"/>
    <tag k="smoothness" v="excellent"/>
    <tag k="source" v="cadastre-dgi-fr source : Direction Générale des Impôts - Cadastre. Mise à jour : 2010"/>
    <tag k="surface" v="asphalt"/>
  </way>
  <way id="53578241" version="13" timestamp="2024-07-29T13:55:22Z" changeset="154564210" uid="2678738" user="fgouget">
    <nd ref="676821317"/>
    <nd ref="2218564138"/>
    <nd ref="676821319"/>
    <tag k="cycleway" v="opposite"/>
    <tag k="highway" v="residential"/>
    <tag k="lit" v="yes"/>
    <tag k="maxspeed" v="30"/>
    <tag k="name" v="Rue Saint-Germain l'Auxerrois"/>
    <tag k="name:etymology:wikidata" v="Q1429394"/>
    <tag k="oneway" v="yes"/>
    <tag k="oneway:bicycle" v="no"/>
    <tag k="sidewalk:both" v="separate"/>
    <tag k="source" v="cadastre-dgi-fr source : Direction Générale des Impôts - Cadastre. Mise à jour : 2010"/>
    <tag k="surface" v="asphalt"/>
  </way>
  <way id="53578244" version="20" timestamp="2024-03-29T22:50:01Z" changeset="149332975" uid="2678738" user="fgouget">
    <nd ref="676821358"/>
    <nd ref="7057141551"/>
    <nd ref="2211556540"/>
    <nd ref="11071270454"/>
    <nd ref="676872513"/>
    <tag k="cycleway" v="opposite"/>
    <tag k="highway" v="residential"/>
    <tag k="lit" v="yes"/>
    <tag k="maxspeed" v="30"/>
    <tag k="name" v="Rue Jean Lantier"/>
    <tag k="name:etymology" v="Jean Lointier, un riche propriétaire habitant la rue au XIIe siècle1."/>
    <tag k="oneway" v="yes"/>
    <tag k="oneway:bicycle" v="no"/>
    <tag k="sidewalk:both" v="separate"/>
    <tag k="smoothness" v="good"/>
    <tag k="source" v="cadastre-dgi-fr source : Direction Générale des Impôts - Cadastre. Mise à jour : 2010"/>
    <tag k="surface" v="asphalt"/>
  </way>
  <way id="53578245" version="27" timestamp="2024-03-29T22:49:38Z" changeset="149332975" uid="2678738" user="fgouget">
    <nd ref="676821352"/>
    <nd ref="676821354"/>
    <nd ref="2218564136"/>
    <nd ref="676821351"/>
    <tag k="cycleway" v="opposite"/>
    <tag k="highway" v="residential"/>
    <tag k="lit" v="yes"/>
    <tag k="maxspeed" v="30"/>
    <tag k="name" v="Rue des Lavandières Sainte-Opportune"/>
    <tag k="name:etymology:wikidata" v="Q16624872"/>
    <tag k="oneway" v="yes"/>
    <tag k="oneway:bicycle" v="no"/>
    <tag k="service" v="alley"/>
    <tag k="sidewalk:both" v="separate"/>
    <tag k="sidewalk:both:surface" v="asphalt"/>
    <tag k="smoothness" v="excellent"/>
    <tag k="source" v="cadastre-dgi-fr source : Direction Générale des Impôts - Cadastre. Mise à jour : 2010"/>
    <tag k="source:maxspeed" v="opendata.paris.fr"/>
    <tag k="surface" v="asphalt"/>
  </way>
  <way id="53583655" version="25" timestamp="2024-08-15T17:26:47Z" changeset="155294126" uid="11963177" user="JeroenvanderGun">
    <nd ref="2883229672"/>
    <nd ref="2211556527"/>
    <nd ref="676890545"/>
    <tag k="cycleway:both" v="no"/>
    <tag k="enforcement:operator" v="Police nationale"/>
    <tag k="highway" v="secondary"/>
    <tag k="lanes" v="4"/>
    <tag k="lit" v="yes"/>
    <tag k="maxspeed" v="30"/>
    <tag k="name" v="Avenue Victoria"/>
    <tag k="name:etymology:wikidata" v="Q9439"/>
    <tag k="oneway" v="yes"/>
    <tag k="operator" v="Ville de Paris"/>
    <tag k="operator:authority" v="Maire de Paris après avis du préfet de police"/>
    <tag k="operator:authority:related_law" v="IV de l'article L. 2512-14 du code général des collectivités territoriales"/>
    <tag k="operator:url" v="https://cdn.paris.fr/paris/2020/02/26/5bf469a311d0beb9911e92d113781550.ai"/>
    <tag k="sidewalk:both" v="separate"/>
    <tag k="sidewalk:left:surface" v="asphalt"/>
    <tag k="smoothness" v="good"/>
    <tag k="surface" v="asphalt"/>
  </way>
  <way id="53583667" version="6" timestamp="2021-03-25T22:05:46Z" changeset="101746091" uid="145231" user="woodpeck_repair">
    <nd ref="676872550"/>
    <nd ref="676872553"/>
    <nd ref="676872552"/>
    <nd ref="676872560"/>
    <nd ref="676872562"/>
    <nd ref="676872559"/>
    <nd ref="676872551"/>
    <nd ref="676872550"/>
    <tag k="addr:city" v="Paris"/>
    <tag k="addr:housenumber" v="4"/>
    <tag k="addr:postcode" v="75001"/>
    <tag k="addr:street" v="Rue Jean Lantier"/>
    <tag k="building" v="commercial"/>
    <tag k="building:levels" v="5"/>
    <tag k="name" v="CCFD-Terre Solidaire"/>
    <tag k="roof:levels" v="1"/>
    <tag k="roof:shape" v="gambrel"/>
    <tag k="source" v="cadastre-dgi-fr source : Direction Générale des Impôts - Cadastre. Mise à jour : 2010"/>
    <tag k="website" v="https://ccfd-terresolidaire.org/"/>
  </way>
  <way id="53585865" version="21" timestamp="2024-08-15T17:26:47Z" changeset="155294126" uid="11963177" user="JeroenvanderGun">
    <nd ref="676821351"/>
    <nd ref="2211556534"/>
    <nd ref="676890544"/>
    <tag k="cycleway:left" v="lane"/>
    <tag k="cycleway:left:lane" v="exclusive"/>
    <tag k="cycleway:left:oneway" v="-1"/>
    <tag k="cycleway:right" v="no"/>
    <tag k="enforcement:operator" v="Police nationale"/>
    <tag k="highway" v="residential"/>
    <tag k="lit" v="yes"/>
    <tag k="maxspeed" v="30"/>
    <tag k="name" v="Avenue Victoria"/>
    <tag k="name:etymology:wikidata" v="Q9439"/>
    <tag k="oneway" v="yes"/>
    <tag k="oneway:bicycle" v="no"/>
    <tag k="operator" v="Ville de Paris"/>
    <tag k="operator:authority" v="Maire de Paris après avis du préfet de police"/>
    <tag k="operator:authority:related_law" v="IV de l'article L. 2512-14 du code général des collectivités territoriales"/>
    <tag k="operator:url" v="https://cdn.paris.fr/paris/2020/02/26/5bf469a311d0beb9911e92d113781550.ai"/>
    <tag k="sidewalk:both" v="separate"/>
    <tag k="sidewalk:both:surface" v="asphalt"/>
    <tag k="smoothness" v="good"/>
    <tag k="source" v="cadastre-dgi-fr source : Direction Générale des Impôts - Cadastre. Mise à jour : 2010"/>
    <tag k="surface" v="asphalt"/>
  </way>
  <way id="53770908" version="39" timestamp="2023-08-21T19:33:31Z" changeset="140197976" uid="19233464" user="secondaryhighway">
    <nd ref="678876654"/>
    <nd ref="678876655"/>
    <nd ref="678876656"/>
    <nd ref="678876657"/>
    <nd ref="678876658"/>
    <nd ref="678876659"/>
    <nd ref="678876535"/>
    <nd ref="678876536"/>
    <nd ref="678876537"/>
    <nd ref="678876538"/>
    <nd ref="11076249500"/>
    <nd ref="11076249499"/>
    <nd ref="678876539"/>
    <nd ref="11076249498"/>
    <nd ref="678876540"/>
    <nd ref="11076249497"/>
    <nd ref="678876530"/>
    <nd ref="11076249496"/>
    <nd ref="10674394299"/>
    <nd ref="678876531"/>
    <nd ref="10674394298"/>
    <nd ref="678876532"/>
    <nd ref="678876533"/>
    <nd ref="678876534"/>
    <nd ref="10674394297"/>
    <nd ref="678876524"/>
    <nd ref="678876525"/>
    <nd ref="678876526"/>
    <nd ref="9696363281"/>
    <nd ref="9696363280"/>
    <nd ref="678876527"/>
    <nd ref="678876528"/>
    <nd ref="678876529"/>
    <nd ref="678876541"/>
    <nd ref="678876542"/>
    <nd ref="678876543"/>
    <nd ref="678876544"/>
    <nd ref="678876545"/>
    <nd ref="678876546"/>
    <nd ref="678876547"/>
    <nd ref="678876548"/>
    <nd ref="678876549"/>
    <nd ref="11107972075"/>
    <nd ref="678876550"/>
    <nd ref="678876551"/>
    <nd ref="678876570"/>
    <nd ref="678876571"/>
    <nd ref="678876572"/>
    <nd ref="678876573"/>
    <nd ref="678876567"/>
    <nd ref="678876568"/>
    <nd ref="678876569"/>
    <nd ref="678876574"/>
    <nd ref="678876575"/>
    <nd ref="678876576"/>
    <nd ref="678876577"/>
    <nd ref="678876578"/>
    <nd ref="678876579"/>
    <nd ref="678876580"/>
    <nd ref="678876581"/>
    <nd ref="678876666"/>
    <nd ref="678876660"/>
    <nd ref="678876662"/>
    <nd ref="678876663"/>
    <nd ref="678876664"/>
    <nd ref="678876665"/>
    <nd ref="678876661"/>
    <nd ref="678876654"/>
    <tag k="addr:city" v="Paris"/>
    <tag k="addr:postcode" v="75001"/>
    <tag k="amenity" v="place_of_worship"/>
    <tag k="building" v="church"/>
    <tag k="building:levels" v="7"/>
    <tag k="denomination" v="catholic"/>
    <tag k="height" v="20"/>
    <tag k="heritage" v="2"/>
    <tag k="heritage:operator" v="mhs"/>
    <tag k="mhs:inscription_date" v="1862"/>
    <tag k="name" v="Église Saint-Germain l'Auxerrois"/>
    <tag k="name:es" v="Iglesia Saint-Germain-l'Auxerrois"/>
    <tag k="name:ru" v="церковь Сен-Жермена-л’Осерруа"/>
    <tag k="organ:builder:choir" v="J. Abbey;Joseph Merklin;Hermann;Dargassies"/>
    <tag k="organ:builder:tribune" v="François-Henri Clicquot;Pierre-Noël Rousset;Ducroquet;Joseph Merklin;Adrien Maciet"/>
    <tag k="organ:capacity" v="2"/>
    <tag k="organ:listed_status" v="yes"/>
    <tag k="organ:type" v="choir"/>
    <tag k="organ:type:FR" v="tribune"/>
    <tag k="ref:FR:CEF" v="75101_03"/>
    <tag k="ref:mhs" v="PA00085796"/>
    <tag k="religion" v="christian"/>
    <tag k="source" v="Cadastre. Mise à jour : 2009;survey"/>
    <tag k="website" v="http://www.saintgermainauxerrois.cef.fr/"/>
    <tag k="wheelchair" v="yes"/>
    <tag k="wikidata" v="Q1429394"/>
    <tag k="wikipedia" v="fr:Église Saint-Germain-l'Auxerrois (Paris)"/>
  </way>
  <way id="53772767" version="7" timestamp="2023-10-29T13:02:59Z" changeset="143311326" uid="11291363" user="u4Dy46Xe">
    <nd ref="678892196"/>
    <nd ref="678898284"/>
    <nd ref="9731436460"/>
    <nd ref="8636225791"/>
    <nd ref="8636225790"/>
    <nd ref="678892286"/>
    <nd ref="8591671054"/>
    <nd ref="678892340"/>
    <nd ref="678892294"/>
    <nd ref="678892296"/>
    <nd ref="678892298"/>
    <nd ref="678892338"/>
    <nd ref="678892290"/>
    <nd ref="678892300"/>
    <nd ref="678892302"/>
    <nd ref="678892288"/>
    <nd ref="678892196"/>
    <tag k="addr:city" v="Paris"/>
    <tag k="addr:housenumber" v="24"/>
    <tag k="addr:postcode" v="75001"/>
    <tag k="addr:street" v="Quai du Louvre"/>
    <tag k="building" v="apartments"/>
    <tag k="building:levels" v="5"/>
    <tag k="roof:levels" v="2"/>
    <tag k="source" v="cadastre-dgi-fr source : Direction Générale des Impôts - Cadastre. Mise à jour : 2010"/>
  </way>
  <way id="53772778" version="6" timestamp="2023-10-29T13:02:58Z" changeset="143311326" uid="11291363" user="u4Dy46Xe">
    <nd ref="678892286"/>
    <nd ref="8591671053"/>
    <nd ref="678898287"/>
    <nd ref="9731436459"/>
    <nd ref="678892227"/>
    <nd ref="678892229"/>
    <nd ref="678892304"/>
    <nd ref="678892306"/>
    <nd ref="678892231"/>
    <nd ref="678892342"/>
    <nd ref="678892348"/>
    <nd ref="678892358"/>
    <nd ref="678892344"/>
    <nd ref="678892346"/>
    <nd ref="678892350"/>
    <nd ref="678892340"/>
    <nd ref="8591671054"/>
    <nd ref="678892286"/>
    <tag k="addr:city" v="Paris"/>
    <tag k="addr:housenumber" v="26"/>
    <tag k="addr:postcode" v="75001"/>
    <tag k="addr:street" v="Quai du Louvre"/>
    <tag k="building" v="apartments"/>
    <tag k="building:levels" v="5"/>
    <tag k="roof:levels" v="2"/>
    <tag k="source" v="cadastre-dgi-fr source : Direction Générale des Impôts - Cadastre. Mise à jour : 2010"/>
  </way>
  <way id="53814914" version="25" timestamp="2023-08-13T07:30:51Z" changeset="139811717" uid="3610826" user="km2bp">
    <nd ref="679345438"/>
    <nd ref="679345443"/>
    <nd ref="679345457"/>
    <nd ref="679345456"/>
    <nd ref="679345455"/>
    <nd ref="679345458"/>
    <nd ref="3423935058"/>
    <nd ref="679345459"/>
    <nd ref="679345460"/>
    <nd ref="679345461"/>
    <nd ref="679345462"/>
    <nd ref="679345463"/>
    <nd ref="679345465"/>
    <nd ref="679345466"/>
    <nd ref="679345467"/>
    <nd ref="679345469"/>
    <nd ref="4460085189"/>
    <nd ref="679345508"/>
    <nd ref="679345509"/>
    <nd ref="679345510"/>
    <nd ref="679345511"/>
    <nd ref="679345500"/>
    <nd ref="679345499"/>
    <nd ref="4808159969"/>
    <nd ref="679345503"/>
    <nd ref="679345502"/>
    <nd ref="679345505"/>
    <nd ref="679345504"/>
    <nd ref="679345507"/>
    <nd ref="679345506"/>
    <nd ref="3423935055"/>
    <nd ref="679345497"/>
    <nd ref="679345495"/>
    <nd ref="4458818692"/>
    <nd ref="4460140192"/>
    <nd ref="4808159964"/>
    <nd ref="4458818894"/>
    <nd ref="679345492"/>
    <nd ref="679345491"/>
    <nd ref="679345494"/>
    <nd ref="679345493"/>
    <nd ref="4458818897"/>
    <nd ref="4460140191"/>
    <nd ref="4458831094"/>
    <nd ref="679345523"/>
    <nd ref="679345520"/>
    <nd ref="679345518"/>
    <nd ref="679345517"/>
    <nd ref="679345521"/>
    <nd ref="679345519"/>
    <nd ref="679345515"/>
    <nd ref="679345513"/>
    <nd ref="679345516"/>
    <nd ref="679345512"/>
    <nd ref="4460098493"/>
    <nd ref="679345525"/>
    <nd ref="679345524"/>
    <nd ref="4460071691"/>
    <nd ref="4460098491"/>
    <nd ref="679345527"/>
    <nd ref="679345526"/>
    <nd ref="679345530"/>
    <nd ref="679345533"/>
    <nd ref="679345532"/>
    <nd ref="679345528"/>
    <nd ref="679345529"/>
    <nd ref="679345318"/>
    <nd ref="679345312"/>
    <nd ref="679345313"/>
    <nd ref="679345314"/>
    <nd ref="4524348455"/>
    <nd ref="679345315"/>
    <nd ref="679345324"/>
    <nd ref="679345325"/>
    <nd ref="679345326"/>
    <nd ref="679345327"/>
    <nd ref="679345319"/>
    <nd ref="4524348454"/>
    <nd ref="679345320"/>
    <nd ref="679345321"/>
    <nd ref="679345322"/>
    <nd ref="679345316"/>
    <nd ref="679345311"/>
    <nd ref="679345304"/>
    <nd ref="679345308"/>
    <nd ref="4427378789"/>
    <nd ref="679345309"/>
    <nd ref="679345310"/>
    <nd ref="679345305"/>
    <nd ref="679345307"/>
    <nd ref="4427378790"/>
    <nd ref="679345283"/>
    <nd ref="679345285"/>
    <nd ref="679345299"/>
    <nd ref="679345300"/>
    <nd ref="679345301"/>
    <nd ref="679345302"/>
    <nd ref="679345296"/>
    <nd ref="679345295"/>
    <nd ref="4427354297"/>
    <nd ref="679345298"/>
    <nd ref="679345297"/>
    <nd ref="4468683493"/>
    <nd ref="4468703690"/>
    <nd ref="4468672096"/>
    <nd ref="679345292"/>
    <nd ref="679345291"/>
    <nd ref="679345294"/>
    <nd ref="679345293"/>
    <nd ref="4460146590"/>
    <nd ref="679345287"/>
    <nd ref="679345286"/>
    <nd ref="3423935017"/>
    <nd ref="679345289"/>
    <nd ref="679345288"/>
    <nd ref="679345271"/>
    <nd ref="679345272"/>
    <nd ref="679345275"/>
    <nd ref="679345273"/>
    <nd ref="679345278"/>
    <nd ref="679345279"/>
    <nd ref="679345276"/>
    <nd ref="679345277"/>
    <nd ref="679345281"/>
    <nd ref="679345282"/>
    <nd ref="679345280"/>
    <nd ref="679345268"/>
    <nd ref="679345266"/>
    <nd ref="679345267"/>
    <nd ref="679345265"/>
    <nd ref="679345269"/>
    <nd ref="679345270"/>
    <nd ref="679345454"/>
    <nd ref="679345448"/>
    <nd ref="3423935033"/>
    <nd ref="679345447"/>
    <nd ref="679345446"/>
    <nd ref="679345444"/>
    <nd ref="679345453"/>
    <nd ref="679345452"/>
    <nd ref="679345451"/>
    <nd ref="679345450"/>
    <nd ref="679345442"/>
    <nd ref="679345440"/>
    <nd ref="679345439"/>
    <nd ref="679345438"/>
    <tag k="building" v="roof"/>
    <tag k="building:levels" v="5"/>
    <tag k="layer" v="1"/>
    <tag k="name" v="Cour Puget"/>
    <tag k="roof:material" v="glass"/>
    <tag k="roof:orientation" v="along"/>
    <tag k="roof:shape" v="hipped"/>
    <tag k="source" v="cadastre-dgi-fr source : Direction Générale des Impôts - Cadastre. Mise à jour : 2010"/>
    <tag k="wall" v="no"/>
    <tag k="wikidata" v="Q17426004"/>
  </way>
  <way id="53814916" version="22" timestamp="2023-08-13T07:30:51Z" changeset="139811717" uid="3610826" user="km2bp">
    <nd ref="679345328"/>
    <nd ref="4468613493"/>
    <nd ref="4524329077"/>
    <nd ref="4808056108"/>
    <nd ref="679345303"/>
    <nd ref="4482592398"/>
    <nd ref="4465294990"/>
    <nd ref="4482592396"/>
    <nd ref="4465294989"/>
    <nd ref="4482592394"/>
    <nd ref="679345329"/>
    <nd ref="4465215903"/>
    <nd ref="4808159937"/>
    <nd ref="4809496399"/>
    <nd ref="4465242309"/>
    <nd ref="679345330"/>
    <nd ref="4468606300"/>
    <nd ref="4537420784"/>
    <nd ref="4468606496"/>
    <nd ref="4468606495"/>
    <nd ref="4809496412"/>
    <nd ref="4537421094"/>
    <nd ref="4468624498"/>
    <nd ref="679345328"/>
    <tag k="building" v="roof"/>
    <tag k="building:levels" v="5"/>
    <tag k="layer" v="1"/>
    <tag k="name" v="Cour Khorsabad"/>
    <tag k="roof:material" v="glass"/>
    <tag k="roof:shape" v="pyramidal"/>
    <tag k="source" v="cadastre-dgi-fr source : Direction Générale des Impôts - Cadastre. Mise à jour : 2010"/>
    <tag k="wall" v="no"/>
  </way>
  <way id="53814917" version="15" timestamp="2023-08-13T07:30:51Z" changeset="139811717" uid="3610826" user="km2bp">
    <nd ref="679345249"/>
    <nd ref="679345247"/>
    <nd ref="679345248"/>
    <nd ref="679345237"/>
    <nd ref="679345241"/>
    <nd ref="679345243"/>
    <nd ref="679345244"/>
    <nd ref="679345245"/>
    <nd ref="679345246"/>
    <nd ref="3803017555"/>
    <nd ref="679345250"/>
    <nd ref="679345251"/>
    <nd ref="679345253"/>
    <nd ref="679345254"/>
    <nd ref="679345255"/>
    <nd ref="679345249"/>
    <tag k="building" v="roof"/>
    <tag k="covered" v="yes"/>
    <tag k="height" v="3.5"/>
    <tag k="layer" v="1"/>
    <tag k="level" v="-0.5"/>
    <tag k="name" v="Cour Visconti"/>
    <tag k="roof:material" v="glass"/>
    <tag k="source" v="cadastre-dgi-fr source : Direction Générale des Impôts - Cadastre. Mise à jour : 2010"/>
  </way>
  <way id="53814919" version="34" timestamp="2023-08-13T07:30:51Z" changeset="139811717" uid="3610826" user="km2bp">
    <nd ref="679345333"/>
    <nd ref="679345340"/>
    <nd ref="679345337"/>
    <nd ref="4459676192"/>
    <nd ref="4835566493"/>
    <nd ref="4459676191"/>
    <nd ref="679345338"/>
    <nd ref="679345335"/>
    <nd ref="4444450590"/>
    <nd ref="679345336"/>
    <nd ref="679345334"/>
    <nd ref="679345351"/>
    <nd ref="679345350"/>
    <nd ref="4444472089"/>
    <nd ref="679345352"/>
    <nd ref="679345355"/>
    <nd ref="679345353"/>
    <nd ref="679345357"/>
    <nd ref="679345356"/>
    <nd ref="679345360"/>
    <nd ref="679345359"/>
    <nd ref="679345362"/>
    <nd ref="4444430994"/>
    <nd ref="679345361"/>
    <nd ref="679345364"/>
    <nd ref="679345363"/>
    <nd ref="679345366"/>
    <nd ref="679345365"/>
    <nd ref="679345367"/>
    <nd ref="679345368"/>
    <nd ref="679345369"/>
    <nd ref="4444432593"/>
    <nd ref="679345370"/>
    <nd ref="679345371"/>
    <nd ref="4459676091"/>
    <nd ref="4835566491"/>
    <nd ref="4459676090"/>
    <nd ref="679345373"/>
    <nd ref="679345374"/>
    <nd ref="679345375"/>
    <nd ref="4447411791"/>
    <nd ref="679345376"/>
    <nd ref="679345391"/>
    <nd ref="679345392"/>
    <nd ref="679345393"/>
    <nd ref="4447433098"/>
    <nd ref="679345394"/>
    <nd ref="679345395"/>
    <nd ref="679345386"/>
    <nd ref="679345385"/>
    <nd ref="4447384590"/>
    <nd ref="679345384"/>
    <nd ref="679345383"/>
    <nd ref="679345390"/>
    <nd ref="679345389"/>
    <nd ref="4447411691"/>
    <nd ref="679345378"/>
    <nd ref="679345377"/>
    <nd ref="4459634590"/>
    <nd ref="4835566489"/>
    <nd ref="4459675989"/>
    <nd ref="679345382"/>
    <nd ref="679345381"/>
    <nd ref="4447411692"/>
    <nd ref="679345380"/>
    <nd ref="679345379"/>
    <nd ref="4439269390"/>
    <nd ref="4459676195"/>
    <nd ref="679345475"/>
    <nd ref="679345474"/>
    <nd ref="4447482389"/>
    <nd ref="679345473"/>
    <nd ref="679345472"/>
    <nd ref="679345478"/>
    <nd ref="679345479"/>
    <nd ref="4438780415"/>
    <nd ref="679345476"/>
    <nd ref="679345477"/>
    <nd ref="4439140391"/>
    <nd ref="4874690223"/>
    <nd ref="4457482790"/>
    <nd ref="4447412591"/>
    <nd ref="679345470"/>
    <nd ref="679345471"/>
    <nd ref="679345481"/>
    <nd ref="679345482"/>
    <nd ref="4874689317"/>
    <nd ref="4458358989"/>
    <nd ref="679345485"/>
    <nd ref="679345486"/>
    <nd ref="679345483"/>
    <nd ref="679345484"/>
    <nd ref="679345489"/>
    <nd ref="679345490"/>
    <nd ref="679345487"/>
    <nd ref="679345435"/>
    <nd ref="679345436"/>
    <nd ref="679345437"/>
    <nd ref="679345429"/>
    <nd ref="4438771190"/>
    <nd ref="679345431"/>
    <nd ref="679345433"/>
    <nd ref="4439269691"/>
    <nd ref="679345434"/>
    <nd ref="679345425"/>
    <nd ref="679345426"/>
    <nd ref="679345427"/>
    <nd ref="4439252202"/>
    <nd ref="679345428"/>
    <nd ref="679345422"/>
    <nd ref="4438758292"/>
    <nd ref="679345423"/>
    <nd ref="679345424"/>
    <nd ref="4439207404"/>
    <nd ref="679345414"/>
    <nd ref="679345419"/>
    <nd ref="679345418"/>
    <nd ref="679345421"/>
    <nd ref="4439269298"/>
    <nd ref="679345420"/>
    <nd ref="679345415"/>
    <nd ref="4433156190"/>
    <nd ref="679345413"/>
    <nd ref="679345417"/>
    <nd ref="679345408"/>
    <nd ref="679345407"/>
    <nd ref="679345404"/>
    <nd ref="4441141663"/>
    <nd ref="4441141662"/>
    <nd ref="4458810594"/>
    <nd ref="4458810595"/>
    <nd ref="4441141664"/>
    <nd ref="4441141665"/>
    <nd ref="4441141667"/>
    <nd ref="4441141666"/>
    <nd ref="4458804790"/>
    <nd ref="4454896393"/>
    <nd ref="4458808893"/>
    <nd ref="4441141668"/>
    <nd ref="4441141669"/>
    <nd ref="4485460851"/>
    <nd ref="4441141671"/>
    <nd ref="4441141670"/>
    <nd ref="4441141672"/>
    <nd ref="4441141673"/>
    <nd ref="4485440344"/>
    <nd ref="4441141675"/>
    <nd ref="4441141674"/>
    <nd ref="4441141676"/>
    <nd ref="4441141677"/>
    <nd ref="4439252190"/>
    <nd ref="4439269292"/>
    <nd ref="4439252200"/>
    <nd ref="4459634592"/>
    <nd ref="4835566923"/>
    <nd ref="4439252199"/>
    <nd ref="4439207398"/>
    <nd ref="4444432590"/>
    <nd ref="4439269097"/>
    <nd ref="4439269105"/>
    <nd ref="4459624492"/>
    <nd ref="4439195491"/>
    <nd ref="4439269104"/>
    <nd ref="4439252197"/>
    <nd ref="4444449590"/>
    <nd ref="4441141679"/>
    <nd ref="4441141678"/>
    <nd ref="4441141680"/>
    <nd ref="4441141681"/>
    <nd ref="4444452890"/>
    <nd ref="4441141683"/>
    <nd ref="4441141682"/>
    <nd ref="4441141684"/>
    <nd ref="679345348"/>
    <nd ref="4444449491"/>
    <nd ref="4441141686"/>
    <nd ref="4441141685"/>
    <nd ref="4441141687"/>
    <nd ref="679345332"/>
    <nd ref="679345333"/>
    <tag k="building" v="roof"/>
    <tag k="building:levels" v="5"/>
    <tag k="layer" v="1"/>
    <tag k="name" v="Cour Marly"/>
    <tag k="roof:material" v="glass"/>
    <tag k="roof:orientation" v="along"/>
    <tag k="roof:shape" v="hipped"/>
    <tag k="source" v="cadastre-dgi-fr source : Direction Générale des Impôts - Cadastre. Mise à jour : 2010"/>
    <tag k="wall" v="no"/>
  </way>
  <way id="54188994" version="40" timestamp="2024-01-22T09:54:06Z" changeset="146545364" uid="10267325" user="mirikaaa">
    <nd ref="683512836"/>
    <nd ref="683512834"/>
    <nd ref="683512839"/>
    <nd ref="683512838"/>
    <nd ref="683512844"/>
    <nd ref="683512843"/>
    <nd ref="683512848"/>
    <nd ref="683512846"/>
    <nd ref="683512831"/>
    <nd ref="683512865"/>
    <nd ref="683512833"/>
    <nd ref="683512866"/>
    <nd ref="683512869"/>
    <nd ref="683512868"/>
    <nd ref="683512872"/>
    <nd ref="683512871"/>
    <nd ref="683512860"/>
    <nd ref="683512862"/>
    <nd ref="683512857"/>
    <nd ref="683512859"/>
    <nd ref="683512863"/>
    <nd ref="683512812"/>
    <nd ref="683512809"/>
    <nd ref="683512810"/>
    <nd ref="683512804"/>
    <nd ref="683512806"/>
    <nd ref="683512801"/>
    <nd ref="683512803"/>
    <nd ref="683512807"/>
    <nd ref="683512828"/>
    <nd ref="683512818"/>
    <nd ref="683512827"/>
    <nd ref="683512817"/>
    <nd ref="683512815"/>
    <nd ref="683512813"/>
    <nd ref="683512793"/>
    <nd ref="683512799"/>
    <nd ref="683512798"/>
    <nd ref="683512796"/>
    <nd ref="683512795"/>
    <nd ref="683512792"/>
    <nd ref="683512791"/>
    <nd ref="683512786"/>
    <nd ref="683512789"/>
    <nd ref="683512951"/>
    <nd ref="683512787"/>
    <nd ref="683512950"/>
    <nd ref="683512948"/>
    <nd ref="683512959"/>
    <nd ref="683512960"/>
    <nd ref="683512962"/>
    <nd ref="683512963"/>
    <nd ref="683512953"/>
    <nd ref="683512954"/>
    <nd ref="683512956"/>
    <nd ref="683512957"/>
    <nd ref="683512935"/>
    <nd ref="683512936"/>
    <nd ref="683512937"/>
    <nd ref="683512939"/>
    <nd ref="683512923"/>
    <nd ref="683512930"/>
    <nd ref="683512932"/>
    <nd ref="683512933"/>
    <nd ref="683512944"/>
    <nd ref="683512942"/>
    <nd ref="683512947"/>
    <nd ref="683512945"/>
    <nd ref="683512725"/>
    <nd ref="683512724"/>
    <nd ref="683512729"/>
    <nd ref="683512727"/>
    <nd ref="4655962859"/>
    <nd ref="683512711"/>
    <nd ref="683512710"/>
    <nd ref="683512715"/>
    <nd ref="683512713"/>
    <nd ref="683512705"/>
    <nd ref="6944525700"/>
    <nd ref="683512703"/>
    <nd ref="683512708"/>
    <nd ref="683512706"/>
    <nd ref="683512988"/>
    <nd ref="683512989"/>
    <nd ref="683512986"/>
    <nd ref="683512987"/>
    <nd ref="683512977"/>
    <nd ref="683512984"/>
    <nd ref="683512985"/>
    <nd ref="683512982"/>
    <nd ref="683512983"/>
    <nd ref="683512980"/>
    <nd ref="683512981"/>
    <nd ref="683512978"/>
    <nd ref="683512979"/>
    <nd ref="683512941"/>
    <nd ref="683512976"/>
    <nd ref="683512974"/>
    <nd ref="683512975"/>
    <nd ref="683512973"/>
    <nd ref="683512972"/>
    <nd ref="683512971"/>
    <nd ref="683512970"/>
    <nd ref="683512969"/>
    <nd ref="683512968"/>
    <nd ref="683512967"/>
    <nd ref="683512966"/>
    <nd ref="683512965"/>
    <nd ref="683513014"/>
    <nd ref="683513012"/>
    <nd ref="683513010"/>
    <nd ref="683513000"/>
    <nd ref="683512999"/>
    <nd ref="683512998"/>
    <nd ref="683512997"/>
    <nd ref="683512992"/>
    <nd ref="683513015"/>
    <nd ref="683512991"/>
    <nd ref="683512990"/>
    <nd ref="683512996"/>
    <nd ref="683512995"/>
    <nd ref="683512994"/>
    <nd ref="683512993"/>
    <nd ref="683512830"/>
    <nd ref="683512877"/>
    <nd ref="683512875"/>
    <nd ref="683512874"/>
    <nd ref="683512883"/>
    <nd ref="683512881"/>
    <nd ref="683512880"/>
    <nd ref="683512878"/>
    <nd ref="683512887"/>
    <nd ref="683512889"/>
    <nd ref="683512884"/>
    <nd ref="683512886"/>
    <nd ref="683512891"/>
    <nd ref="683512916"/>
    <nd ref="683512913"/>
    <nd ref="683512914"/>
    <nd ref="683512918"/>
    <nd ref="683512899"/>
    <nd ref="683512896"/>
    <nd ref="683512897"/>
    <nd ref="683512904"/>
    <nd ref="683512905"/>
    <nd ref="683512900"/>
    <nd ref="683512902"/>
    <nd ref="683512894"/>
    <nd ref="683512893"/>
    <nd ref="683512907"/>
    <nd ref="683512908"/>
    <nd ref="683512910"/>
    <nd ref="683512911"/>
    <nd ref="683512851"/>
    <nd ref="683512853"/>
    <nd ref="683512854"/>
    <nd ref="683512856"/>
    <nd ref="683512836"/>
    <tag k="building" v="yes"/>
    <tag k="building:levels" v="3"/>
    <tag k="fee" v="yes"/>
    <tag k="internet_access" v="wlan"/>
    <tag k="internet_access:fee" v="no"/>
    <tag k="museum" v="photography"/>
    <tag k="museum_type" v="national"/>
    <tag k="name" v="Jeu de Paume"/>
    <tag k="opening_hours" v="Tu 11:00-21:00; We-Su 11:00-19:00"/>
    <tag k="phone" v="+33 1 47 03 12 50"/>
    <tag k="roof:shape" v="hipped"/>
    <tag k="source" v="cadastre-dgi-fr source : Direction Générale des Impôts - Cadastre. Mise à jour : 2010"/>
    <tag k="toilets" v="yes"/>
    <tag k="toilets:access" v="yes"/>
    <tag k="toilets:wheelchair" v="designated"/>
    <tag k="tourism" v="museum"/>
    <tag k="website" v="https://jeudepaume.org/"/>
    <tag k="wheelchair" v="yes"/>
    <tag k="wikidata" v="Q656296"/>
    <tag k="wikipedia" v="fr:Galerie nationale du Jeu de Paume"/>
  </way>
  <way id="54188995" version="4" timestamp="2024-02-18T16:22:01Z" changeset="147616081" uid="2414126" user="Weasel-Wiesel">
    <nd ref="683512742"/>
    <nd ref="683512744"/>
    <nd ref="683512919"/>
    <nd ref="683512921"/>
    <nd ref="683512742"/>
    <tag k="amenity" v="cafe"/>
    <tag k="building" v="yes"/>
    <tag k="indoor_seating" v="yes"/>
    <tag k="name" v="Café Médicis"/>
    <tag k="outdoor_seating" v="yes"/>
    <tag k="source" v="cadastre-dgi-fr source : Direction Générale des Impôts - Cadastre. Mise à jour : 2010"/>
    <tag k="wheelchair" v="yes"/>
  </way>
  <way id="54188996" version="43" timestamp="2024-05-21T18:38:17Z" changeset="151642629" uid="18933775" user="TOSMgo">
    <nd ref="683512575"/>
    <nd ref="683512578"/>
    <nd ref="683512580"/>
    <nd ref="683512581"/>
    <nd ref="683512583"/>
    <nd ref="683512584"/>
    <nd ref="683512586"/>
    <nd ref="683512596"/>
    <nd ref="683512598"/>
    <nd ref="683512600"/>
    <nd ref="683512601"/>
    <nd ref="683512566"/>
    <nd ref="683512565"/>
    <nd ref="683512563"/>
    <nd ref="683512562"/>
    <nd ref="683512560"/>
    <nd ref="683512558"/>
    <nd ref="683512556"/>
    <nd ref="683512554"/>
    <nd ref="683512573"/>
    <nd ref="683512572"/>
    <nd ref="683512569"/>
    <nd ref="683512568"/>
    <nd ref="683512646"/>
    <nd ref="683512645"/>
    <nd ref="683512643"/>
    <nd ref="683512641"/>
    <nd ref="683512651"/>
    <nd ref="683512652"/>
    <nd ref="683512648"/>
    <nd ref="683512649"/>
    <nd ref="683512527"/>
    <nd ref="683512528"/>
    <nd ref="683512523"/>
    <nd ref="683512525"/>
    <nd ref="683512532"/>
    <nd ref="683512533"/>
    <nd ref="683512530"/>
    <nd ref="683512552"/>
    <nd ref="683512549"/>
    <nd ref="683512550"/>
    <nd ref="683512544"/>
    <nd ref="9812246013"/>
    <nd ref="683512547"/>
    <nd ref="683512540"/>
    <nd ref="683512537"/>
    <nd ref="683512543"/>
    <nd ref="683512541"/>
    <nd ref="683512536"/>
    <nd ref="683512534"/>
    <nd ref="683512655"/>
    <nd ref="683512654"/>
    <nd ref="683512660"/>
    <nd ref="683512658"/>
    <nd ref="683512663"/>
    <nd ref="683512661"/>
    <nd ref="683512657"/>
    <nd ref="683512633"/>
    <nd ref="683512637"/>
    <nd ref="683512635"/>
    <nd ref="683512638"/>
    <nd ref="683512640"/>
    <nd ref="683512671"/>
    <nd ref="683512673"/>
    <nd ref="683512665"/>
    <nd ref="683512666"/>
    <nd ref="683512668"/>
    <nd ref="683512669"/>
    <nd ref="683512678"/>
    <nd ref="683512679"/>
    <nd ref="683512681"/>
    <nd ref="683512682"/>
    <nd ref="683512674"/>
    <nd ref="683512676"/>
    <nd ref="683512593"/>
    <nd ref="683512594"/>
    <nd ref="683512606"/>
    <nd ref="683512607"/>
    <nd ref="683512603"/>
    <nd ref="683512604"/>
    <nd ref="683512609"/>
    <nd ref="683512610"/>
    <nd ref="683512624"/>
    <nd ref="683512625"/>
    <nd ref="683512627"/>
    <nd ref="683512628"/>
    <nd ref="683512630"/>
    <nd ref="683512611"/>
    <nd ref="683512632"/>
    <nd ref="683512588"/>
    <nd ref="683512622"/>
    <nd ref="683512590"/>
    <nd ref="683512591"/>
    <nd ref="683512575"/>
    <tag k="addr:city" v="Paris"/>
    <tag k="addr:postcode" v="75001"/>
    <tag k="addr:street" v="Quai des Tuileries"/>
    <tag k="building" v="yes"/>
    <tag k="building:levels" v="3"/>
    <tag k="fee" v="yes"/>
    <tag k="internet_access" v="wlan"/>
    <tag k="name" v="Musée de l'Orangerie"/>
    <tag k="name:de" v="Orangerie-Museum"/>
    <tag k="name:en" v="Orangerie Museum"/>
    <tag k="name:fr" v="Musée de l'Orangerie"/>
    <tag k="name:he" v="מוזיאון האורנז'רי"/>
    <tag k="name:ru" v="Музей Orangerie"/>
    <tag k="name:uk" v="Музей Оранжері"/>
    <tag k="official_name" v="Musée de l'Orangerie - Valéry Giscard d'Estaing"/>
    <tag k="opening_hours" v="Mo-Su 09:00-18:00; Tu off"/>
    <tag k="phone" v="+33144504300"/>
    <tag k="roof:shape" v="hipped"/>
    <tag k="source" v="cadastre-dgi-fr source : Direction Générale des Impôts - Cadastre. Mise à jour : 2010"/>
    <tag k="tourism" v="museum"/>
    <tag k="website" v="https://www.musee-orangerie.fr/"/>
    <tag k="wheelchair" v="yes"/>
    <tag k="wikidata" v="Q726781"/>
    <tag k="wikipedia" v="fr:Musée de l'Orangerie"/>
  </way>
  <way id="54188997" version="4" timestamp="2024-01-13T22:24:50Z" changeset="146229073" uid="332493" user="bazgal">
    <nd ref="683512745"/>
    <nd ref="683512740"/>
    <nd ref="683512747"/>
    <nd ref="1679240296"/>
    <nd ref="683512745"/>
    <tag k="addr:postcode" v="75001"/>
    <tag k="addr:street" v="Jardins des Tuileries"/>
    <tag k="amenity" v="cafe"/>
    <tag k="building" v="yes"/>
    <tag k="check_date" v="2022-10-01"/>
    <tag k="name" v="Café des Marronniers"/>
    <tag k="source" v="cadastre-dgi-fr source : Direction Générale des Impôts - Cadastre. Mise à jour : 2010"/>
    <tag k="website" v="https://www.caferenard.fr"/>
    <tag k="wheelchair" v="yes"/>
  </way>
  <way id="58421552" version="23" timestamp="2024-04-05T18:13:14Z" changeset="149627642" uid="3834000" user="cartoleo">
    <nd ref="6282960279"/>
    <nd ref="2218564146"/>
    <nd ref="676821355"/>
    <nd ref="2218564142"/>
    <nd ref="676872513"/>
    <tag k="cycleway:left" v="lane"/>
    <tag k="cycleway:left:lane" v="exclusive"/>
    <tag k="cycleway:left:oneway" v="-1"/>
    <tag k="cycleway:right" v="no"/>
    <tag k="highway" v="residential"/>
    <tag k="lit" v="yes"/>
    <tag k="maxspeed" v="30"/>
    <tag k="name" v="Rue des Lavandières Sainte-Opportune"/>
    <tag k="name:etymology:wikidata" v="Q16624872"/>
    <tag k="oneway" v="yes"/>
    <tag k="oneway:bicycle" v="no"/>
    <tag k="sidewalk:both" v="separate"/>
    <tag k="sidewalk:both:surface" v="asphalt"/>
    <tag k="smoothness" v="good"/>
    <tag k="source" v="cadastre-dgi-fr source : Direction Générale des Impôts - Cadastre. Mise à jour : 2010"/>
    <tag k="surface" v="asphalt"/>
  </way>
  <way id="64051397" version="44" timestamp="2023-08-21T19:33:31Z" changeset="140197976" uid="19233464" user="secondaryhighway">
    <nd ref="676788922"/>
    <nd ref="676758884"/>
    <tag k="cycleway:left" v="no"/>
    <tag k="cycleway:right" v="lane"/>
    <tag k="cycleway:right:lane" v="exclusive"/>
    <tag k="dual_carriageway" v="yes"/>
    <tag k="highway" v="tertiary"/>
    <tag k="lanes" v="2"/>
    <tag k="lit" v="yes"/>
    <tag k="maxspeed" v="30"/>
    <tag k="name" v="Place du Pont Neuf"/>
    <tag k="name:ru" v="площадь Пон-Нёф"/>
    <tag k="oneway" v="yes"/>
    <tag k="sidewalk" v="separate"/>
    <tag k="smoothness" v="intermediate"/>
    <tag k="source" v="cadastre-dgi-fr source : Direction Générale des Impôts - Cadastre. Mise à jour : 2010"/>
    <tag k="surface" v="sett"/>
    <tag k="zone:maxspeed" v="FR:30"/>
  </way>
  <way id="68881721" version="21" timestamp="2024-08-15T17:22:30Z" changeset="155293930" uid="11963177" user="JeroenvanderGun">
    <nd ref="676890491"/>
    <nd ref="11033269488"/>
    <nd ref="676821350"/>
    <tag k="busway:right" v="track"/>
    <tag k="cycleway:right" v="share_busway"/>
    <tag k="enforcement:operator" v="Police nationale"/>
    <tag k="highway" v="primary"/>
    <tag k="lanes" v="5"/>
    <tag k="lit" v="yes"/>
    <tag k="maxspeed" v="30"/>
    <tag k="name" v="Quai de la Mégisserie"/>
    <tag k="name:etymology:wikidata" v="Q3332813"/>
    <tag k="oneway" v="yes"/>
    <tag k="operator" v="Ville de Paris"/>
    <tag k="operator:authority" v="Maire de Paris dans le respect des prescriptions prises par le préfet de police"/>
    <tag k="operator:authority:related_law" v="III de l'article L. 2512-14 du code général des collectivités territoriales"/>
    <tag k="public_transport:version" v="2"/>
    <tag k="sidewalk:both" v="separate"/>
    <tag k="sidewalk:left:surface" v="asphalt"/>
    <tag k="sidewalk:right:surface" v="paving_stones"/>
    <tag k="smoothness" v="good"/>
    <tag k="source" v="Bing"/>
    <tag k="source:operator:authority" v="https://www.legifrance.gouv.fr/loda/id/LEGIARTI000035244298/#LEGIARTI000035244298"/>
    <tag k="surface" v="asphalt"/>
    <tag k="zone:traffic" v="FR:urban"/>
  </way>
  <way id="92316097" version="5" timestamp="2023-04-11T08:20:40Z" changeset="134761113" uid="290680" user="wheelmap_visitor">
    <nd ref="1071425900"/>
    <nd ref="1071425751"/>
    <nd ref="1071426322"/>
    <nd ref="1071425397"/>
    <nd ref="1071425900"/>
    <tag k="artist_name" v="Henry Moore"/>
    <tag k="artwork_type" v="sculpture"/>
    <tag k="building" v="yes"/>
    <tag k="name" v="Figure Couchee"/>
    <tag k="name:en" v="Reclining Figure"/>
    <tag k="source" v="survey, bing"/>
    <tag k="tourism" v="artwork"/>
    <tag k="wheelchair" v="no"/>
    <tag k="wikidata" v="Q3422002"/>
  </way>
  <way id="96156159" version="5" timestamp="2023-04-11T08:24:12Z" changeset="134761113" uid="290680" user="wheelmap_visitor">
    <nd ref="1114193011"/>
    <nd ref="1114192832"/>
    <nd ref="1114194051"/>
    <nd ref="1114193354"/>
    <nd ref="1114193011"/>
    <tag k="artist:wikidata" v="Q30755"/>
    <tag k="artist_name" v="Auguste Rodin"/>
    <tag k="artwork_type" v="sculpture"/>
    <tag k="building" v="yes"/>
    <tag k="name" v="Le Baiser"/>
    <tag k="name:en" v="The Kiss"/>
    <tag k="name:es" v="El Beso"/>
    <tag k="name:it" v="Il Baccio"/>
    <tag k="sculpture_type" v="bronze"/>
    <tag k="source" v="survey, bing"/>
    <tag k="tourism" v="artwork"/>
    <tag k="wheelchair" v="yes"/>
    <tag k="wikidata" v="Q63184381"/>
  </way>
  <way id="96156251" version="3" timestamp="2023-04-11T08:28:24Z" changeset="134761113" uid="290680" user="wheelmap_visitor">
    <nd ref="1114193459"/>
    <nd ref="1114192779"/>
    <nd ref="1114193962"/>
    <nd ref="1114193241"/>
    <nd ref="1114193459"/>
    <tag k="artist:wikidata" v="Q451489"/>
    <tag k="artist_name" v="Antoine-Louis Barye"/>
    <tag k="artwork_type" v="sculpture"/>
    <tag k="building" v="yes"/>
    <tag k="name" v="Lion au serpent"/>
    <tag k="source" v="survey, bing"/>
    <tag k="tourism" v="artwork"/>
    <tag k="wheelchair" v="yes"/>
  </way>
  <way id="104212749" version="8" timestamp="2024-11-02T08:59:21Z" changeset="158648840" uid="1556219" user="tbo47">
    <nd ref="1202459182"/>
    <nd ref="1686624457"/>
    <nd ref="1202447063"/>
    <nd ref="1202455173"/>
    <nd ref="1202459182"/>
    <tag k="addr:postcode" v="75001"/>
    <tag k="addr:street" v="Jardins des Tuileries"/>
    <tag k="brand" v="Eric Kayser"/>
    <tag k="brand:wikidata" v="Q99231745"/>
    <tag k="building" v="yes"/>
    <tag k="check_date" v="2024-11-02"/>
    <tag k="check_date:opening_hours" v="2023-02-04"/>
    <tag k="description" v="Anciennement :Paul"/>
    <tag k="indoor_seating" v="no"/>
    <tag k="name" v="Eric Kayser"/>
    <tag k="opening_hours:signed" v="no"/>
    <tag k="outdoor_seating" v="yes"/>
    <tag k="pastry" v="yes"/>
    <tag k="shop" v="bakery"/>
    <tag k="smoking" v="separated"/>
    <tag k="wheelchair" v="yes"/>
  </way>
  <way id="123324309" version="52" timestamp="2024-05-24T13:21:57Z" changeset="151769829" uid="14464629" user="samuel_geovelo">
    <nd ref="6665582265"/>
    <nd ref="2200150744"/>
    <nd ref="693639500"/>
    <nd ref="9586748060"/>
    <nd ref="4876720684"/>
    <nd ref="25554300"/>
    <tag k="busway:right" v="lane"/>
    <tag k="cycleway:right" v="share_busway"/>
    <tag k="highway" v="secondary"/>
    <tag k="lanes" v="5"/>
    <tag k="lanes:backward" v="3"/>
    <tag k="lanes:forward" v="2"/>
    <tag k="lit" v="yes"/>
    <tag k="maxspeed" v="30"/>
    <tag k="name" v="Rue de l'Amiral de Coligny"/>
    <tag k="name:etymology:wikidata" v="Q204975"/>
    <tag k="name:ru" v="улица Амираль де Колиньи"/>
    <tag k="sidewalk:both" v="separate"/>
    <tag k="smoothness" v="intermediate"/>
    <tag k="surface" v="sett"/>
  </way>
  <way id="123461253" version="64" timestamp="2024-08-27T08:52:49Z" changeset="155818919" uid="7512839" user="Benoît C MdP">
    <nd ref="676758863"/>
    <nd ref="2303421399"/>
    <nd ref="6413849015"/>
    <nd ref="5536182718"/>
    <nd ref="6413849016"/>
    <nd ref="15643088"/>
    <tag k="busway:left" v="opposite_lane"/>
    <tag k="busway:right" v="lane"/>
    <tag k="cycleway:both" v="share_busway"/>
    <tag k="cycleway:left:oneway" v="-1"/>
    <tag k="enforcement:operator" v="Police nationale"/>
    <tag k="highway" v="primary"/>
    <tag k="lane_markings" v="no"/>
    <tag k="lit" v="yes"/>
    <tag k="maxspeed" v="30"/>
    <tag k="name" v="Boulevard du Palais"/>
    <tag k="name:etymology:wikidata" v="Q143080"/>
    <tag k="name:ru" v="бульвар Пале"/>
    <tag k="oneway" v="yes"/>
    <tag k="oneway:bicycle" v="no"/>
    <tag k="oneway:psv" v="no"/>
    <tag k="operator" v="Ville de Paris"/>
    <tag k="operator:authority" v="Maire de Paris dans le respect des prescriptions prises par le préfet de police"/>
    <tag k="operator:authority:related_law" v="III de l'article L. 2512-14 du code général des collectivités territoriales"/>
    <tag k="parking:lane:both" v="no"/>
    <tag k="sidewalk" v="separate"/>
    <tag k="smoothness" v="excellent"/>
    <tag k="source:maxspeed" v="FR:zone30"/>
    <tag k="source:operator:authority" v="https://www.legifrance.gouv.fr/loda/id/LEGIARTI000035244298/#LEGIARTI000035244298"/>
    <tag k="surface" v="asphalt"/>
    <tag k="zone:traffic" v="FR:urban"/>
  </way>
  <way id="123461259" version="52" timestamp="2024-11-21T16:35:14Z" changeset="159419563" uid="7512839" user="Benoît C MdP">
    <nd ref="25554243"/>
    <nd ref="12362040071"/>
    <nd ref="1376133959"/>
    <nd ref="1202445451"/>
    <nd ref="2880573974"/>
    <nd ref="2788380636"/>
    <nd ref="12031129167"/>
    <nd ref="25554242"/>
    <nd ref="683595558"/>
    <nd ref="9791523071"/>
    <nd ref="683598757"/>
    <nd ref="9780271908"/>
    <nd ref="683598765"/>
    <nd ref="2880573973"/>
    <nd ref="4418280678"/>
    <nd ref="4285759448"/>
    <nd ref="2200150708"/>
    <nd ref="368190"/>
    <tag k="bus:lanes" v="yes|yes|yes|designated"/>
    <tag k="busway:right" v="track"/>
    <tag k="cycleway:right" v="share_busway"/>
    <tag k="enforcement:operator" v="Police nationale"/>
    <tag k="highway" v="primary"/>
    <tag k="lanes" v="4"/>
    <tag k="lanes:psv" v="1"/>
    <tag k="lit" v="yes"/>
    <tag k="maxspeed" v="30"/>
    <tag k="name" v="Quai François Mitterrand"/>
    <tag k="name:etymology:wikidata" v="Q2038"/>
    <tag k="name:ru" v="набережная Франсуа Миттеран"/>
    <tag k="old_name" v="Quai du Louvre"/>
    <tag k="oneway" v="yes"/>
    <tag k="operator" v="Ville de Paris"/>
    <tag k="operator:authority" v="Maire de Paris dans le respect des prescriptions prises par le préfet de police"/>
    <tag k="operator:authority:related_law" v="III de l'article L. 2512-14 du code général des collectivités territoriales"/>
    <tag k="psv:lanes" v="yes|yes|yes|designated"/>
    <tag k="smoothness" v="intermediate"/>
    <tag k="source" v="Bing"/>
    <tag k="source:operator:authority" v="https://www.legifrance.gouv.fr/loda/id/LEGIARTI000035244298/#LEGIARTI000035244298"/>
    <tag k="surface" v="sett"/>
    <tag k="taxi:lanes" v="yes|yes|yes|designated"/>
    <tag k="zone:traffic" v="FR:urban"/>
  </way>
  <way id="169128627" version="21" timestamp="2025-04-01T10:03:31Z" changeset="164366998" uid="12133211" user="FlorentParisCentre">
    <nd ref="676890545"/>
    <nd ref="8008876962"/>
    <nd ref="2211556530"/>
    <nd ref="2211556532"/>
    <nd ref="676890544"/>
    <tag k="cycleway" v="opposite_lane"/>
    <tag k="enforcement:operator" v="Police nationale"/>
    <tag k="highway" v="tertiary"/>
    <tag k="lane_markings" v="no"/>
    <tag k="lit" v="yes"/>
    <tag k="maxspeed" v="30"/>
    <tag k="name" v="Avenue Victoria"/>
    <tag k="name:etymology:wikidata" v="Q9439"/>
    <tag k="oneway" v="yes"/>
    <tag k="operator" v="Ville de Paris"/>
    <tag k="operator:authority" v="Maire de Paris après avis du préfet de police"/>
    <tag k="operator:authority:related_law" v="IV de l'article L. 2512-14 du code général des collectivités territoriales"/>
    <tag k="operator:url" v="https://cdn.paris.fr/paris/2020/02/26/5bf469a311d0beb9911e92d113781550.ai"/>
    <tag k="sidewalk" v="separate"/>
    <tag k="smoothness" v="excellent"/>
    <tag k="source:maxspeed" v="FR:urban"/>
    <tag k="surface" v="asphalt"/>
  </way>
  <way id="176408881" version="38" timestamp="2024-08-08T17:21:31Z" changeset="154989680" uid="15968482" user="PtitLouis_">
    <nd ref="1869409578"/>
    <nd ref="2200150739"/>
    <nd ref="338664953"/>
    <tag k="cycleway:both" v="no"/>
    <tag k="highway" v="secondary"/>
    <tag k="lit" v="yes"/>
    <tag k="maxspeed" v="30"/>
    <tag k="name" v="Pont Royal"/>
    <tag k="name:es" v="Puente Real"/>
    <tag k="name:etymology:wikidata" v="Q7742"/>
    <tag k="name:ru" v="Мост Руаяль"/>
    <tag k="oneway" v="yes"/>
    <tag k="smoothness" v="intermediate"/>
    <tag k="source" v="cadastre-dgi-fr source : Direction Générale des Impôts - Cadastre;mise à jour : 2007"/>
    <tag k="surface" v="sett"/>
  </way>
  <way id="176408882" version="39" timestamp="2024-08-08T17:20:59Z" changeset="154989680" uid="15968482" user="PtitLouis_">
    <nd ref="5157284087"/>
    <nd ref="11992807325"/>
    <nd ref="1869409579"/>
    <nd ref="368195"/>
    <tag k="cycleway:both" v="no"/>
    <tag k="highway" v="secondary"/>
    <tag k="lanes" v="2"/>
    <tag k="lit" v="yes"/>
    <tag k="maxspeed" v="30"/>
    <tag k="name" v="Pont Royal"/>
    <tag k="name:es" v="Puente Real"/>
    <tag k="name:etymology:wikidata" v="Q7742"/>
    <tag k="name:ru" v="Мост Руаяль"/>
    <tag k="oneway" v="yes"/>
    <tag k="smoothness" v="intermediate"/>
    <tag k="source" v="Bing"/>
    <tag k="surface" v="sett"/>
  </way>
  <way id="192961821" version="47" timestamp="2024-11-21T16:35:14Z" changeset="159419563" uid="7512839" user="Benoît C MdP">
    <nd ref="349940632"/>
    <nd ref="12355177671"/>
    <nd ref="4418281211"/>
    <nd ref="7128024106"/>
    <nd ref="9951379995"/>
    <nd ref="2101547317"/>
    <nd ref="1202451221"/>
    <nd ref="7128024107"/>
    <nd ref="12362040082"/>
    <nd ref="25554243"/>
    <tag k="bus:lanes" v="yes|yes|yes|yes|designated"/>
    <tag k="busway:right" v="lane"/>
    <tag k="cycleway:right" v="share_busway"/>
    <tag k="enforcement:operator" v="Police nationale"/>
    <tag k="highway" v="primary"/>
    <tag k="lanes" v="5"/>
    <tag k="lanes:psv" v="1"/>
    <tag k="lit" v="yes"/>
    <tag k="maxspeed" v="30"/>
    <tag k="name" v="Quai François Mitterrand"/>
    <tag k="name:etymology:wikidata" v="Q2038"/>
    <tag k="name:ru" v="набережная Франсуа Миттеран"/>
    <tag k="old_name" v="Quai du Louvre"/>
    <tag k="oneway" v="yes"/>
    <tag k="operator" v="Ville de Paris"/>
    <tag k="operator:authority" v="Maire de Paris dans le respect des prescriptions prises par le préfet de police"/>
    <tag k="operator:authority:related_law" v="III de l'article L. 2512-14 du code général des collectivités territoriales"/>
    <tag k="psv:lanes" v="yes|yes|yes|yes|designated"/>
    <tag k="sidewalk:left" v="separate"/>
    <tag k="smoothness" v="intermediate"/>
    <tag k="source:operator:authority" v="https://www.legifrance.gouv.fr/loda/id/LEGIARTI000035244298/#LEGIARTI000035244298"/>
    <tag k="surface" v="sett"/>
    <tag k="taxi:lanes" v="yes|yes|yes|yes|designated"/>
    <tag k="zone:traffic" v="FR:urban"/>
  </way>
  <way id="196820524" version="25" timestamp="2025-04-01T10:03:31Z" changeset="164366998" uid="12133211" user="FlorentParisCentre">
    <nd ref="4910064269"/>
    <nd ref="1055820788"/>
    <nd ref="2168591562"/>
    <nd ref="6282960281"/>
    <tag k="bicycle:backward" v="use_sidepath"/>
    <tag k="busway:right" v="lane"/>
    <tag k="cycleway" v="share_busway"/>
    <tag k="enforcement:operator" v="Police nationale"/>
    <tag k="highway" v="unclassified"/>
    <tag k="lanes" v="3"/>
    <tag k="lanes:psv" v="1"/>
    <tag k="lit" v="yes"/>
    <tag k="maxspeed" v="30"/>
    <tag k="name" v="Rue Saint-Denis"/>
    <tag k="name:etymology:wikidata" v="Q3603203"/>
    <tag k="name:ja" v="サン＝ドニ通り"/>
    <tag k="oneway" v="yes"/>
    <tag k="operator" v="Ville de Paris"/>
    <tag k="operator:authority" v="Maire de Paris après avis du préfet de police"/>
    <tag k="operator:authority:related_law" v="IV de l'article L. 2512-14 du code général des collectivités territoriales"/>
    <tag k="operator:url" v="https://cdn.paris.fr/paris/2020/02/26/5bf469a311d0beb9911e92d113781550.ai"/>
    <tag k="sidewalk:both:surface" v="asphalt"/>
    <tag k="sidewalk:left" v="yes"/>
    <tag k="sidewalk:right" v="separate"/>
    <tag k="smoothness" v="good"/>
    <tag k="source" v="Bing"/>
    <tag k="source:maxspeed" v="FR:urban"/>
    <tag k="surface" v="asphalt"/>
  </way>
  <way id="200452259" version="28" timestamp="2025-01-21T11:22:54Z" changeset="161596411" uid="11220113" user="ivanbranco">
    <nd ref="2104406542"/>
    <nd ref="2104406539"/>
    <nd ref="2104406541"/>
    <nd ref="2104406547"/>
    <nd ref="2104406542"/>
    <tag k="artist_name" v="François-Frédéric Lemot"/>
    <tag k="building" v="yes"/>
    <tag k="heritage" v="2"/>
    <tag k="heritage:operator" v="mhs"/>
    <tag k="historic" v="statue"/>
    <tag k="image" v="https://photos.app.goo.gl/m3z2CJ8Bn97xMfLm9"/>
    <tag k="mhs:inscription_date" v="1992-03-31"/>
    <tag k="name" v="Henri IV"/>
    <tag k="name:ru" v="Генрих IV"/>
    <tag k="ref:mhs" v="PA00086006"/>
    <tag k="statue" v="equestrian"/>
    <tag k="subject:wikidata" v="Q936976"/>
    <tag k="tourism" v="artwork"/>
    <tag k="wikidata" v="Q3497607"/>
    <tag k="wikipedia" v="fr:Statue équestre d'Henri IV"/>
  </way>
  <way id="200452261" version="7" timestamp="2023-08-11T16:26:26Z" changeset="139757837" uid="318821" user="Yod4z">
    <nd ref="2104406643"/>
    <nd ref="2104406639"/>
    <nd ref="2104406637"/>
    <nd ref="2104406635"/>
    <nd ref="2104406628"/>
    <nd ref="2104406626"/>
    <nd ref="2104406625"/>
    <nd ref="2104406624"/>
    <nd ref="2104406621"/>
    <nd ref="2104406616"/>
    <nd ref="2104406615"/>
    <nd ref="2104406620"/>
    <nd ref="2104406607"/>
    <nd ref="2104406603"/>
    <nd ref="2104406596"/>
    <nd ref="2104406599"/>
    <nd ref="2104406583"/>
    <nd ref="11107972076"/>
    <nd ref="2104406586"/>
    <nd ref="2104406593"/>
    <nd ref="2104406601"/>
    <nd ref="2104406610"/>
    <nd ref="2104406608"/>
    <nd ref="2104406609"/>
    <nd ref="2104406612"/>
    <nd ref="2104406618"/>
    <nd ref="2104406630"/>
    <nd ref="2104406627"/>
    <nd ref="2104406631"/>
    <nd ref="2104406636"/>
    <nd ref="2104406634"/>
    <nd ref="2104406638"/>
    <nd ref="10922432900"/>
    <nd ref="2104406655"/>
    <nd ref="2104406657"/>
    <nd ref="2104406658"/>
    <nd ref="2104406661"/>
    <nd ref="2104406664"/>
    <nd ref="2104406665"/>
    <nd ref="2104406671"/>
    <nd ref="2104406669"/>
    <nd ref="2104406673"/>
    <nd ref="2104406672"/>
    <nd ref="2104406668"/>
    <nd ref="11107972080"/>
    <nd ref="2104406659"/>
    <nd ref="2104406662"/>
    <nd ref="2104406667"/>
    <nd ref="11107972078"/>
    <nd ref="2104406666"/>
    <nd ref="2104406656"/>
    <nd ref="2104406650"/>
    <nd ref="2104406642"/>
    <nd ref="2104406643"/>
    <tag k="building" v="yes"/>
    <tag k="building:levels" v="8"/>
    <tag k="building:material" v="stone"/>
    <tag k="height" v="50"/>
    <tag k="man_made" v="tower"/>
    <tag k="name" v="Beffroi de Saint-Germain l'Auxerrois"/>
    <tag k="source" v="cadastre-dgi-fr source : Direction Générale des Impôts - Cadastre;mise à jour : 2012"/>
    <tag k="tower:type" v="bell_tower"/>
    <tag k="wikidata" v="Q18627583"/>
  </way>
  <way id="200454185" version="33" timestamp="2024-02-17T19:45:54Z" changeset="147585412" uid="6290466" user="benjamintchik">
    <nd ref="282187579"/>
    <nd ref="678892463"/>
    <tag k="cycleway" v="opposite"/>
    <tag k="highway" v="residential"/>
    <tag k="lit" v="yes"/>
    <tag k="maxspeed" v="30"/>
    <tag k="name" v="Place du Louvre"/>
    <tag k="name:etymology:wikidata" v="Q1075988"/>
    <tag k="name:ru" v="Луврская площадь"/>
    <tag k="oneway" v="yes"/>
    <tag k="oneway:bicycle" v="no"/>
    <tag k="sidewalk:both" v="separate"/>
    <tag k="surface" v="sett"/>
  </way>
  <way id="200454186" version="35" timestamp="2024-11-03T21:16:51Z" changeset="158717637" uid="7550430" user="Britzz">
    <nd ref="9698350999"/>
    <nd ref="2104440828"/>
    <nd ref="2104440826"/>
    <nd ref="2499549567"/>
    <nd ref="10922432903"/>
    <nd ref="2104440823"/>
    <nd ref="282187576"/>
    <tag k="cycleway:both" v="no"/>
    <tag k="highway" v="residential"/>
    <tag k="lit" v="yes"/>
    <tag k="maxspeed" v="30"/>
    <tag k="motor_vehicle" v="destination"/>
    <tag k="name" v="Place du Louvre"/>
    <tag k="name:etymology:wikidata" v="Q1075988"/>
    <tag k="name:ru" v="Луврская площадь"/>
    <tag k="oneway" v="no"/>
    <tag k="sidewalk" v="both"/>
    <tag k="surface" v="paving_stones"/>
  </way>
  <way id="227483542" version="29" timestamp="2025-04-29T21:02:49Z" changeset="165609203" uid="2678738" user="fgouget">
    <nd ref="2361493394"/>
    <nd ref="2361493385"/>
    <nd ref="2361493390"/>
    <nd ref="12529508730"/>
    <nd ref="2361493332"/>
    <nd ref="2361493300"/>
    <nd ref="2361493274"/>
    <nd ref="2361493292"/>
    <nd ref="2361493270"/>
    <nd ref="2361493349"/>
    <nd ref="2361493381"/>
    <nd ref="12529508725"/>
    <nd ref="2361493466"/>
    <nd ref="2361493406"/>
    <nd ref="2361493562"/>
    <nd ref="2361493586"/>
    <nd ref="12529508736"/>
    <nd ref="2361493709"/>
    <nd ref="2361493697"/>
    <nd ref="2361493780"/>
    <nd ref="2361493817"/>
    <nd ref="12529508735"/>
    <nd ref="2361493899"/>
    <nd ref="2361493835"/>
    <nd ref="2361494005"/>
    <nd ref="2361494022"/>
    <nd ref="2361494025"/>
    <nd ref="12529508731"/>
    <nd ref="2361494090"/>
    <nd ref="2361494084"/>
    <nd ref="2361494092"/>
    <nd ref="2361494046"/>
    <nd ref="2361494030"/>
    <nd ref="12529508739"/>
    <nd ref="2361493960"/>
    <nd ref="2361494019"/>
    <nd ref="2361493853"/>
    <nd ref="2361493828"/>
    <nd ref="12529508738"/>
    <nd ref="2361493675"/>
    <nd ref="2361493699"/>
    <nd ref="2361493623"/>
    <nd ref="2361493596"/>
    <nd ref="12529508737"/>
    <nd ref="2361493532"/>
    <nd ref="2361493580"/>
    <nd ref="2361493430"/>
    <nd ref="2361493399"/>
    <nd ref="2361493394"/>
    <tag k="building" v="triumphal_arch"/>
    <tag k="height" v="18"/>
    <tag k="historic" v="monument"/>
    <tag k="name" v="Arc de Triomphe du Carrousel"/>
    <tag k="name:he" v="שער הניצחון של קרוסל"/>
    <tag k="name:ru" v="Триумфальная арка на площади Каррузель"/>
    <tag k="source" v="cadastre-dgi-fr source : Direction Générale des Impôts - Cadastre. Mise à jour : 2010"/>
    <tag k="tourism" v="attraction"/>
    <tag k="wheelchair" v="yes"/>
    <tag k="wikidata" v="Q631104"/>
    <tag k="wikipedia" v="fr:Arc de triomphe du Carrousel"/>
  </way>
  <way id="245531936" version="5" timestamp="2024-07-27T21:00:06Z" changeset="154499725" uid="21784560" user="iionccub365">
    <nd ref="2527147635"/>
    <nd ref="2552594391"/>
    <nd ref="2552582376"/>
    <nd ref="2527147590"/>
    <nd ref="2527169881"/>
    <nd ref="2527147538"/>
    <nd ref="2527147611"/>
    <nd ref="2527147664"/>
    <nd ref="2552582379"/>
    <nd ref="2552594395"/>
    <nd ref="2527147635"/>
    <tag k="amenity" v="courthouse"/>
    <tag k="building" v="yes"/>
    <tag k="name" v="Cour d'Assise"/>
  </way>
  <way id="261092850" version="11" timestamp="2024-08-28T23:31:31Z" changeset="155904570" uid="291453" user="Atalanttore">
    <nd ref="2667068712"/>
    <nd ref="2667090533"/>
    <nd ref="2667068746"/>
    <nd ref="2667068802"/>
    <nd ref="2667068873"/>
    <nd ref="2667068955"/>
    <nd ref="2667068980"/>
    <nd ref="2667069008"/>
    <nd ref="2667069039"/>
    <nd ref="2667069061"/>
    <nd ref="2667069068"/>
    <nd ref="2667069078"/>
    <nd ref="2667069087"/>
    <nd ref="2667069095"/>
    <nd ref="2667069099"/>
    <nd ref="2667069100"/>
    <nd ref="2667069093"/>
    <nd ref="2667069084"/>
    <nd ref="2667069075"/>
    <nd ref="2667090535"/>
    <nd ref="2667069108"/>
    <nd ref="2667069109"/>
    <nd ref="2667090534"/>
    <nd ref="2667069081"/>
    <nd ref="2667069096"/>
    <nd ref="2667069102"/>
    <nd ref="2667069103"/>
    <nd ref="2667069104"/>
    <nd ref="2667069101"/>
    <nd ref="2667069089"/>
    <nd ref="2667069080"/>
    <nd ref="2667069070"/>
    <nd ref="2667069060"/>
    <nd ref="2667069041"/>
    <nd ref="2667069013"/>
    <nd ref="2667068991"/>
    <nd ref="2667068962"/>
    <nd ref="2667068904"/>
    <nd ref="2667068812"/>
    <nd ref="6216379255"/>
    <nd ref="2667090531"/>
    <nd ref="2667068743"/>
    <nd ref="2667068474"/>
    <nd ref="2667090530"/>
    <nd ref="2667068458"/>
    <nd ref="2667068434"/>
    <nd ref="2667068410"/>
    <nd ref="2667068387"/>
    <nd ref="2667068359"/>
    <nd ref="2667068335"/>
    <nd ref="2667068301"/>
    <nd ref="2667068291"/>
    <nd ref="2667068281"/>
    <nd ref="2667068273"/>
    <nd ref="2667068263"/>
    <nd ref="2667068260"/>
    <nd ref="2667068262"/>
    <nd ref="2667068271"/>
    <nd ref="2667068279"/>
    <nd ref="2667090528"/>
    <nd ref="2667068255"/>
    <nd ref="2667068254"/>
    <nd ref="2667090529"/>
    <nd ref="2667068280"/>
    <nd ref="2667068269"/>
    <nd ref="2667068261"/>
    <nd ref="2667068258"/>
    <nd ref="2667068259"/>
    <nd ref="2667068267"/>
    <nd ref="2667068278"/>
    <nd ref="2667068286"/>
    <nd ref="2667068295"/>
    <nd ref="2667068300"/>
    <nd ref="2667068324"/>
    <nd ref="2667068354"/>
    <nd ref="2667068376"/>
    <nd ref="2667068409"/>
    <nd ref="2667068439"/>
    <nd ref="2667068461"/>
    <nd ref="2667090532"/>
    <nd ref="2667068467"/>
    <nd ref="2667068712"/>
    <tag k="amenity" v="fountain"/>
    <tag k="building" v="yes"/>
    <tag k="building:part" v="no"/>
    <tag k="heritage" v="3"/>
    <tag k="heritage:operator" v="mhs"/>
    <tag k="historic" v="yes"/>
    <tag k="image" v="https://photos.app.goo.gl/Z9gJMLup7JXBnvMp6"/>
    <tag k="mhs:inscription_date" v="1925-02-05"/>
    <tag k="name" v="Fontaine du Palmier"/>
    <tag k="name:de" v="Palmenbrunnen"/>
    <tag k="name:en" v="Fountain of the Palm"/>
    <tag k="name:fr" v="Fontaine du Palmier"/>
    <tag k="ref:mhs" v="PA00085806"/>
    <tag k="source" v="cadastre-dgi-fr source : Direction Générale des Impôts - Cadastre. Mise à jour : 2010"/>
    <tag k="source:heritage" v="data.culture.gouv.fr:Ministère de la Culture - 2020-07"/>
    <tag k="wikidata" v="Q3076281"/>
    <tag k="wikipedia" v="fr:Fontaine du Palmier"/>
  </way>
  <way id="284241422" version="5" timestamp="2022-05-03T19:27:54Z" changeset="120513451" uid="10731965" user="Hydrel">
    <nd ref="677998786"/>
    <nd ref="677998817"/>
    <nd ref="677998813"/>
    <nd ref="677998815"/>
    <nd ref="677998820"/>
    <nd ref="677998825"/>
    <nd ref="677998854"/>
    <nd ref="677998853"/>
    <nd ref="677998848"/>
    <nd ref="677998850"/>
    <nd ref="677998852"/>
    <nd ref="677998835"/>
    <nd ref="677998836"/>
    <nd ref="677998846"/>
    <nd ref="677998843"/>
    <nd ref="677998833"/>
    <nd ref="677998834"/>
    <nd ref="677998838"/>
    <nd ref="677998766"/>
    <nd ref="2879892901"/>
    <nd ref="677998783"/>
    <nd ref="677998772"/>
    <nd ref="677998782"/>
    <nd ref="677998747"/>
    <nd ref="3966675098"/>
    <nd ref="677998786"/>
    <tag k="addr:city" v="Paris"/>
    <tag k="addr:postcode" v="75001"/>
    <tag k="alt_name" v="Bâtiment Rivoli"/>
    <tag k="architect" v="Sanaa"/>
    <tag k="building" v="retail"/>
    <tag k="building:levels" v="8"/>
    <tag k="building:levels:underground" v="3"/>
    <tag k="name" v="La Samaritaine"/>
    <tag k="source" v="cadastre-dgi-fr source : Direction Générale des Impôts - Cadastre. Mise à jour : 2010"/>
    <tag k="start_date" v="2021-06-23"/>
  </way>
  <way id="298804024" version="17" timestamp="2024-10-04T07:44:37Z" changeset="157448175" uid="7512839" user="Benoît C MdP">
    <nd ref="1905700651"/>
    <nd ref="5157284089"/>
    <nd ref="5157284092"/>
    <tag k="bus:lanes" v="yes|yes|designated"/>
    <tag k="busway:right" v="lane"/>
    <tag k="cycleway:right" v="share_busway"/>
    <tag k="highway" v="primary"/>
    <tag k="lanes" v="3"/>
    <tag k="lanes:psv" v="1"/>
    <tag k="lit" v="yes"/>
    <tag k="maxspeed" v="30"/>
    <tag k="name" v="Quai Aimé Césaire"/>
    <tag k="oneway" v="yes"/>
    <tag k="psv:lanes" v="yes|yes|designated"/>
    <tag k="source" v="Bing"/>
    <tag k="surface" v="cobblestone:flattened"/>
    <tag k="taxi:lanes" v="yes|yes|designated"/>
  </way>
  <way id="318380798" version="40" timestamp="2024-06-28T14:25:18Z" changeset="153296454" uid="7512839" user="Benoît C MdP">
    <nd ref="368195"/>
    <nd ref="7114530184"/>
    <nd ref="1202453799"/>
    <nd ref="1114192940"/>
    <nd ref="7114530181"/>
    <nd ref="470193"/>
    <tag k="VROP:left" v="opposite_lane"/>
    <tag k="bicycle" v="no"/>
    <tag k="cycleway" v="no"/>
    <tag k="end_date:VROP" v="2024-09-15"/>
    <tag k="foot" v="no"/>
    <tag k="hazmat" v="no"/>
    <tag k="highway" v="secondary"/>
    <tag k="lanes" v="3"/>
    <tag k="lit" v="yes"/>
    <tag k="maxspeed" v="30"/>
    <tag k="name" v="Avenue du Général Lemonnier"/>
    <tag k="name:ru" v="проспект Женераль Лемонье"/>
    <tag k="oneway" v="yes"/>
    <tag k="ref:FR:FANTOIR" v="751014064T"/>
    <tag k="sidewalk" v="no"/>
    <tag k="source" v="Bing"/>
    <tag k="start_date:VROP" v="2024-07-01"/>
    <tag k="surface" v="asphalt"/>
    <tag k="wikidata" v="Q2874152"/>
  </way>
  <way id="323605308" version="14" timestamp="2024-10-04T07:44:37Z" changeset="157448175" uid="7512839" user="Benoît C MdP">
    <nd ref="2705514266"/>
    <nd ref="2880433273"/>
    <nd ref="12031166569"/>
    <nd ref="25670350"/>
    <nd ref="8142408229"/>
    <tag k="bus:lanes" v="yes|yes|designated"/>
    <tag k="busway:right" v="lane"/>
    <tag k="cycleway:right" v="share_busway"/>
    <tag k="highway" v="primary"/>
    <tag k="lanes" v="3"/>
    <tag k="lanes:psv" v="1"/>
    <tag k="lit" v="yes"/>
    <tag k="maxspeed" v="30"/>
    <tag k="name" v="Quai Aimé Césaire"/>
    <tag k="oneway" v="yes"/>
    <tag k="psv:lanes" v="yes|yes|designated"/>
    <tag k="source" v="Bing"/>
    <tag k="surface" v="asphalt"/>
    <tag k="taxi:lanes" v="yes|yes|designated"/>
  </way>
  <way id="352839550" version="25" timestamp="2024-08-15T17:22:30Z" changeset="155293930" uid="11963177" user="JeroenvanderGun">
    <nd ref="676821316"/>
    <nd ref="11162777723"/>
    <nd ref="6321678968"/>
    <nd ref="2211556523"/>
    <nd ref="676821348"/>
    <tag k="bicycle:lanes" v="yes|yes|yes|designated"/>
    <tag k="busway:right" v="lane"/>
    <tag k="cycleway:left" v="no"/>
    <tag k="cycleway:right" v="share_busway"/>
    <tag k="enforcement:operator" v="Police nationale"/>
    <tag k="highway" v="primary"/>
    <tag k="lanes" v="4"/>
    <tag k="lanes:psv" v="1"/>
    <tag k="lit" v="yes"/>
    <tag k="maxspeed" v="30"/>
    <tag k="name" v="Quai de la Mégisserie"/>
    <tag k="name:etymology:wikidata" v="Q3332813"/>
    <tag k="oneway" v="yes"/>
    <tag k="operator" v="Ville de Paris"/>
    <tag k="operator:authority" v="Maire de Paris dans le respect des prescriptions prises par le préfet de police"/>
    <tag k="operator:authority:related_law" v="III de l'article L. 2512-14 du code général des collectivités territoriales"/>
    <tag k="psv:lanes" v="yes|yes|yes|designated"/>
    <tag k="sidewalk:both" v="separate"/>
    <tag k="sidewalk:left:surface" v="asphalt"/>
    <tag k="sidewalk:right:surface" v="paving_stones"/>
    <tag k="smoothness" v="good"/>
    <tag k="source" v="cadastre-dgi-fr source : Direction Générale des Impôts - Cadastre. Mise à jour : 2010"/>
    <tag k="source:operator:authority" v="https://www.legifrance.gouv.fr/loda/id/LEGIARTI000035244298/#LEGIARTI000035244298"/>
    <tag k="surface" v="asphalt"/>
    <tag k="zone:traffic" v="FR:urban"/>
  </way>
  <way id="375076234" version="33" timestamp="2023-08-21T19:33:31Z" changeset="140197976" uid="19233464" user="secondaryhighway">
    <nd ref="679352082"/>
    <nd ref="679352096"/>
    <nd ref="679352088"/>
    <nd ref="679352072"/>
    <nd ref="712397665"/>
    <nd ref="679352082"/>
    <tag k="building" v="yes"/>
    <tag k="building:levels" v="4"/>
    <tag k="building:material" v="glass"/>
    <tag k="height" v="21.65"/>
    <tag k="image" v="https://photos.app.goo.gl/3b9AWzf4xz4exQWp8"/>
    <tag k="layer" v="1"/>
    <tag k="name" v="Pyramide du Louvre"/>
    <tag k="name:de" v="Pyramide im Louvre"/>
    <tag k="name:et" v="Louvre'i püramiid"/>
    <tag k="name:fr" v="Pyramide du Louvre"/>
    <tag k="name:he" v="פירמידת מוזיאון הלובר"/>
    <tag k="name:it" v="Piramide del Louvre"/>
    <tag k="name:ko" v="루브르 피라미드"/>
    <tag k="name:pl" v="Piramida Luwru"/>
    <tag k="name:pt" v="Pirâmide do Louvre"/>
    <tag k="name:ru" v="Пирамида Лувра"/>
    <tag k="name:uk" v="Піраміда Лувра"/>
    <tag k="name:zh" v="卢浮宫金字塔"/>
    <tag k="roof:height" v="21.65"/>
    <tag k="roof:material" v="glass"/>
    <tag k="roof:shape" v="pyramidal"/>
    <tag k="source" v="cadastre-dgi-fr source : Direction Générale des Impôts - Cadastre. Mise à jour : 2009"/>
    <tag k="start_date" v="1989"/>
    <tag k="tourism" v="attraction"/>
    <tag k="wheelchair" v="yes"/>
    <tag k="wikidata" v="Q13397"/>
    <tag k="wikipedia" v="fr:Pyramide du Louvre"/>
  </way>
  <way id="480447824" version="17" timestamp="2024-04-05T18:13:10Z" changeset="149627642" uid="3834000" user="cartoleo">
    <nd ref="676872513"/>
    <nd ref="6871528343"/>
    <nd ref="676872480"/>
    <nd ref="7049698814"/>
    <nd ref="676821351"/>
    <tag k="cycleway:left" v="lane"/>
    <tag k="cycleway:left:lane" v="exclusive"/>
    <tag k="cycleway:left:oneway" v="-1"/>
    <tag k="cycleway:right" v="no"/>
    <tag k="highway" v="residential"/>
    <tag k="lit" v="yes"/>
    <tag k="maxspeed" v="30"/>
    <tag k="name" v="Rue des Lavandières Sainte-Opportune"/>
    <tag k="name:etymology:wikidata" v="Q16624872"/>
    <tag k="oneway" v="yes"/>
    <tag k="oneway:bicycle" v="no"/>
    <tag k="sidewalk:both" v="separate"/>
    <tag k="sidewalk:both:surface" v="asphalt"/>
    <tag k="smoothness" v="good"/>
    <tag k="source" v="cadastre-dgi-fr source : Direction Générale des Impôts - Cadastre. Mise à jour : 2010"/>
    <tag k="surface" v="asphalt"/>
  </way>
  <way id="499783624" version="19" timestamp="2025-04-01T10:03:31Z" changeset="164366998" uid="12133211" user="FlorentParisCentre">
    <nd ref="676821358"/>
    <nd ref="4910064269"/>
    <tag k="bicycle:backward" v="use_sidepath"/>
    <tag k="busway:right" v="lane"/>
    <tag k="cycleway" v="share_busway"/>
    <tag k="enforcement:operator" v="Police nationale"/>
    <tag k="highway" v="unclassified"/>
    <tag k="lanes" v="2"/>
    <tag k="lanes:psv" v="1"/>
    <tag k="lit" v="yes"/>
    <tag k="maxspeed" v="30"/>
    <tag k="name" v="Rue Saint-Denis"/>
    <tag k="name:etymology:wikidata" v="Q3603203"/>
    <tag k="name:ja" v="サン＝ドニ通り"/>
    <tag k="oneway" v="yes"/>
    <tag k="operator" v="Ville de Paris"/>
    <tag k="operator:authority" v="Maire de Paris après avis du préfet de police"/>
    <tag k="operator:authority:related_law" v="IV de l'article L. 2512-14 du code général des collectivités territoriales"/>
    <tag k="operator:url" v="https://cdn.paris.fr/paris/2020/02/26/5bf469a311d0beb9911e92d113781550.ai"/>
    <tag k="sidewalk:both:surface" v="asphalt"/>
    <tag k="sidewalk:left" v="yes"/>
    <tag k="sidewalk:right" v="separate"/>
    <tag k="smoothness" v="excellent"/>
    <tag k="source" v="Bing"/>
    <tag k="source:maxspeed" v="FR:urban"/>
    <tag k="surface" v="asphalt"/>
  </way>
  <way id="517156289" version="39" timestamp="2024-11-04T13:34:39Z" changeset="158740882" uid="7512839" user="Benoît C MdP">
    <nd ref="368190"/>
    <nd ref="683598766"/>
    <nd ref="5059182774"/>
    <nd ref="5059182775"/>
    <nd ref="5059182779"/>
    <nd ref="5088842635"/>
    <nd ref="12311914070"/>
    <nd ref="12311914076"/>
    <nd ref="5059182776"/>
    <nd ref="5059182777"/>
    <nd ref="5059182780"/>
    <tag k="bicycle:lanes" v="yes|yes|yes|designated"/>
    <tag k="busway:right" v="track"/>
    <tag k="cycleway:left" v="no"/>
    <tag k="cycleway:right" v="share_busway"/>
    <tag k="enforcement:operator" v="Police nationale"/>
    <tag k="highway" v="primary"/>
    <tag k="lanes" v="4"/>
    <tag k="lanes:psv" v="1"/>
    <tag k="lit" v="yes"/>
    <tag k="maxspeed" v="30"/>
    <tag k="name" v="Quai du Louvre"/>
    <tag k="name:etymology:wikidata" v="Q1075988"/>
    <tag k="name:ru" v="Луврская набережная"/>
    <tag k="oneway" v="yes"/>
    <tag k="operator" v="Ville de Paris"/>
    <tag k="operator:authority" v="Maire de Paris dans le respect des prescriptions prises par le préfet de police"/>
    <tag k="operator:authority:related_law" v="III de l'article L. 2512-14 du code général des collectivités territoriales"/>
    <tag k="psv:lanes" v="yes|yes|yes|designated"/>
    <tag k="sidewalk:both" v="separate"/>
    <tag k="smoothness" v="good"/>
    <tag k="source:operator:authority" v="https://www.legifrance.gouv.fr/loda/id/LEGIARTI000035244298/#LEGIARTI000035244298"/>
    <tag k="surface" v="asphalt"/>
    <tag k="zone:traffic" v="FR:urban"/>
  </way>
  <way id="519023655" version="45" timestamp="2025-03-24T09:09:18Z" changeset="164020655" uid="19679725" user="Planespotter1">
    <nd ref="8615812356"/>
    <nd ref="2165221540"/>
    <nd ref="676789104"/>
    <nd ref="676789103"/>
    <nd ref="676789098"/>
    <nd ref="676789097"/>
    <nd ref="676789064"/>
    <nd ref="676789076"/>
    <nd ref="676728070"/>
    <nd ref="1978097469"/>
    <nd ref="1978097467"/>
    <nd ref="2734089732"/>
    <nd ref="6400526956"/>
    <nd ref="11066482364"/>
    <nd ref="11066482363"/>
    <nd ref="11066482362"/>
    <nd ref="676788922"/>
    <tag k="cycleway:left" v="opposite_lane"/>
    <tag k="cycleway:left:lane" v="exclusive"/>
    <tag k="cycleway:right" v="no"/>
    <tag k="highway" v="residential"/>
    <tag k="lit" v="yes"/>
    <tag k="maxspeed" v="30"/>
    <tag k="name" v="Quai de l'Horloge"/>
    <tag k="name:etymology:wikidata" v="Q3533566"/>
    <tag k="name:ru" v="набережная Орлож"/>
    <tag k="oneway" v="yes"/>
    <tag k="oneway:bicycle" v="no"/>
    <tag k="sidewalk" v="separate"/>
    <tag k="smoothness" v="excellent"/>
    <tag k="source" v="cadastre-dgi-fr source : Direction Générale des Impôts - Cadastre. Mise à jour : 2010"/>
    <tag k="surface" v="asphalt"/>
    <tag k="width" v="6"/>
    <tag k="zone:maxspeed" v="FR:30"/>
  </way>
  <way id="531267850" version="37" timestamp="2024-08-08T17:21:08Z" changeset="154989680" uid="15968482" user="PtitLouis_">
    <nd ref="227214316"/>
    <nd ref="5157284087"/>
    <tag k="bridge" v="yes"/>
    <tag k="cycleway:both" v="no"/>
    <tag k="highway" v="secondary"/>
    <tag k="lanes" v="2"/>
    <tag k="layer" v="1"/>
    <tag k="lit" v="yes"/>
    <tag k="maxspeed" v="30"/>
    <tag k="maxweight:signed" v="no"/>
    <tag k="name" v="Pont Royal"/>
    <tag k="name:es" v="Puente Real"/>
    <tag k="name:etymology:wikidata" v="Q7742"/>
    <tag k="name:ru" v="Мост Руаяль"/>
    <tag k="oneway" v="yes"/>
    <tag k="sidewalk" v="both"/>
    <tag k="source" v="Bing"/>
    <tag k="surface" v="sett"/>
  </way>
  <way id="545616651" version="35" timestamp="2024-03-29T07:53:23Z" changeset="149299148" uid="2678738" user="fgouget">
    <nd ref="25554300"/>
    <nd ref="5273168652"/>
    <tag k="busway:right" v="lane"/>
    <tag k="cycleway:right" v="share_busway"/>
    <tag k="highway" v="secondary"/>
    <tag k="lanes" v="5"/>
    <tag k="lanes:backward" v="2"/>
    <tag k="lanes:forward" v="3"/>
    <tag k="lit" v="yes"/>
    <tag k="maxspeed" v="30"/>
    <tag k="name" v="Rue de l'Amiral de Coligny"/>
    <tag k="name:etymology:wikidata" v="Q204975"/>
    <tag k="name:ru" v="улица Амираль де Колиньи"/>
    <tag k="sidewalk:both" v="separate"/>
    <tag k="smoothness" v="intermediate"/>
    <tag k="surface" v="sett"/>
  </way>
  <way id="545617466" version="38" timestamp="2024-08-08T18:56:43Z" changeset="154993584" uid="15968482" user="PtitLouis_">
    <nd ref="7029884396"/>
    <nd ref="687066197"/>
    <nd ref="25554425"/>
    <nd ref="9738485775"/>
    <nd ref="1376133927"/>
    <nd ref="2200150713"/>
    <nd ref="368190"/>
    <tag k="busway:right" v="lane"/>
    <tag k="cycleway:left" v="no"/>
    <tag k="cycleway:right" v="share_busway"/>
    <tag k="highway" v="secondary"/>
    <tag k="lanes" v="4"/>
    <tag k="lit" v="yes"/>
    <tag k="maxspeed" v="30"/>
    <tag k="name" v="Rue de l'Amiral de Coligny"/>
    <tag k="name:etymology:wikidata" v="Q204975"/>
    <tag k="name:ru" v="улица Амираль де Колиньи"/>
    <tag k="sidewalk:both" v="separate"/>
    <tag k="smoothness" v="intermediate"/>
    <tag k="surface" v="sett"/>
  </way>
  <way id="545617467" version="35" timestamp="2024-08-08T19:01:18Z" changeset="154993584" uid="15968482" user="PtitLouis_">
    <nd ref="7887163382"/>
    <nd ref="7887163383"/>
    <nd ref="7887163384"/>
    <nd ref="25554308"/>
    <nd ref="4519595975"/>
    <tag k="cycleway:both" v="no"/>
    <tag k="highway" v="residential"/>
    <tag k="lit" v="yes"/>
    <tag k="maxspeed" v="30"/>
    <tag k="name" v="Rue Perrault"/>
    <tag k="name:etymology:wikidata" v="Q347699"/>
    <tag k="name:ru" v="улица Перро"/>
    <tag k="oneway" v="yes"/>
    <tag k="oneway:bicycle" v="no"/>
    <tag k="sidewalk:both" v="separate"/>
    <tag k="smoothness" v="good"/>
    <tag k="source" v="cadastre-dgi-fr source : Direction Générale des Impôts - Cadastre. Mise à jour : 2009"/>
    <tag k="source:maxspeed" v="opendata.paris.fr"/>
    <tag k="surface" v="asphalt"/>
  </way>
  <way id="545617468" version="34" timestamp="2025-04-08T06:57:07Z" changeset="164663043" uid="2678738" user="fgouget">
    <nd ref="678892463"/>
    <nd ref="2200150736"/>
    <nd ref="25554300"/>
    <tag k="cycleway" v="opposite"/>
    <tag k="highway" v="residential"/>
    <tag k="lit" v="yes"/>
    <tag k="maxspeed" v="30"/>
    <tag k="name" v="Place du Louvre"/>
    <tag k="name:etymology:wikidata" v="Q1075988"/>
    <tag k="name:ru" v="Луврская площадь"/>
    <tag k="oneway" v="yes"/>
    <tag k="oneway:bicycle" v="no"/>
    <tag k="sidewalk:left" v="yes"/>
    <tag k="sidewalk:left:surface" v="compacted"/>
    <tag k="sidewalk:right" v="separate"/>
    <tag k="sidewalk:right:surface" v="paving_stones"/>
    <tag k="smoothness" v="intermediate"/>
    <tag k="surface" v="sett"/>
  </way>
  <way id="554016157" version="12" timestamp="2024-08-08T19:07:55Z" changeset="154993584" uid="15968482" user="PtitLouis_">
    <nd ref="676821319"/>
    <nd ref="9835815711"/>
    <nd ref="2218564135"/>
    <nd ref="676821315"/>
    <tag k="cycleway:both" v="no"/>
    <tag k="highway" v="residential"/>
    <tag k="lit" v="yes"/>
    <tag k="maxspeed" v="30"/>
    <tag k="name" v="Rue Bertin Poirée"/>
    <tag k="name:etymology" v="un particulier nommé « Bertin Poirée » qui y demeurait au début du XIIIe siècle."/>
    <tag k="oneway" v="yes"/>
    <tag k="oneway:bicycle" v="no"/>
    <tag k="sidewalk:both" v="separate"/>
    <tag k="sidewalk:both:surface" v="asphalt"/>
    <tag k="smoothness" v="excellent"/>
    <tag k="source" v="cadastre-dgi-fr source : Direction Générale des Impôts - Cadastre. Mise à jour : 2010"/>
    <tag k="surface" v="asphalt"/>
  </way>
  <way id="554016158" version="9" timestamp="2024-03-29T08:01:55Z" changeset="149299148" uid="2678738" user="fgouget">
    <nd ref="676821342"/>
    <nd ref="7049698810"/>
    <nd ref="7049698811"/>
    <nd ref="2218564140"/>
    <nd ref="676821319"/>
    <tag k="cycleway" v="opposite"/>
    <tag k="highway" v="residential"/>
    <tag k="lit" v="yes"/>
    <tag k="maxspeed" v="30"/>
    <tag k="name" v="Rue Bertin Poirée"/>
    <tag k="name:etymology" v="un particulier nommé « Bertin Poirée » qui y demeurait au début du XIIIe siècle."/>
    <tag k="oneway" v="yes"/>
    <tag k="oneway:bicycle" v="no"/>
    <tag k="sidewalk:both" v="separate"/>
    <tag k="smoothness" v="excellent"/>
    <tag k="source" v="cadastre-dgi-fr source : Direction Générale des Impôts - Cadastre. Mise à jour : 2010"/>
    <tag k="surface" v="asphalt"/>
  </way>
  <way id="557297166" version="38" timestamp="2024-03-28T10:34:56Z" changeset="149261012" uid="2678738" user="fgouget">
    <nd ref="5374911024"/>
    <nd ref="2734089737"/>
    <tag k="alt_name:ru" v="Новый Мост"/>
    <tag k="bridge" v="yes"/>
    <tag k="cycleway:both" v="lane"/>
    <tag k="cycleway:both:lane" v="exclusive"/>
    <tag k="highway" v="tertiary"/>
    <tag k="lanes" v="2"/>
    <tag k="layer" v="1"/>
    <tag k="lit" v="yes"/>
    <tag k="maxspeed" v="30"/>
    <tag k="maxweight:signed" v="no"/>
    <tag k="name" v="Pont Neuf"/>
    <tag k="name:de" v="Neue Brücke"/>
    <tag k="name:es" v="Puente Nuevo"/>
    <tag k="name:pt" v="Ponte Nova"/>
    <tag k="name:ru" v="Новый мост"/>
    <tag k="name:zh" v="新桥"/>
    <tag k="parking:both" v="no"/>
    <tag k="sidewalk:both" v="separate"/>
    <tag k="sidewalk:both:surface" v="paving_stones"/>
    <tag k="smoothness" v="intermediate"/>
    <tag k="source" v="cadastre-dgi-fr source : Direction Générale des Impôts - Cadastre. Mise à jour : 2010"/>
    <tag k="surface" v="sett"/>
    <tag k="zone:maxspeed" v="FR:30"/>
  </way>
  <way id="568455193" version="6" timestamp="2023-10-15T06:56:31Z" changeset="142603932" uid="318821" user="Yod4z">
    <nd ref="5468882152"/>
    <nd ref="5468882153"/>
    <nd ref="5468882154"/>
    <nd ref="5468882155"/>
    <nd ref="5468882152"/>
    <tag k="artist:wikidata" v="Q160538"/>
    <tag k="artist_name" v="Gian Lorenzo Bernini"/>
    <tag k="artwork_type" v="statue"/>
    <tag k="building" v="yes"/>
    <tag k="image" v="https://photos.app.goo.gl/UjCy7PmkqhHpkRzz7"/>
    <tag k="name" v="Louis XIV"/>
    <tag k="statue" v="equestrian"/>
    <tag k="tourism" v="artwork"/>
    <tag k="wheelchair" v="yes"/>
    <tag k="wikidata" v="Q18156060"/>
    <tag k="wikimedia_commons" v="Category:Statue of Louis XIV by Gianlorenzo Bernini (Paris)"/>
  </way>
  <way id="600969582" version="18" timestamp="2025-04-01T10:03:31Z" changeset="164366998" uid="12133211" user="FlorentParisCentre">
    <nd ref="676890544"/>
    <nd ref="368182"/>
    <nd ref="5712897353"/>
    <nd ref="676821358"/>
    <tag k="busway:right" v="lane"/>
    <tag k="cycleway:left" v="share_busway"/>
    <tag k="cycleway:right" v="share_busway"/>
    <tag k="enforcement:operator" v="Police nationale"/>
    <tag k="highway" v="unclassified"/>
    <tag k="lanes" v="2"/>
    <tag k="lanes:psv" v="1"/>
    <tag k="lit" v="yes"/>
    <tag k="maxspeed" v="30"/>
    <tag k="name" v="Rue Saint-Denis"/>
    <tag k="name:ja" v="サン＝ドニ通り"/>
    <tag k="oneway" v="yes"/>
    <tag k="operator" v="Ville de Paris"/>
    <tag k="operator:authority" v="Maire de Paris après avis du préfet de police"/>
    <tag k="operator:authority:related_law" v="IV de l'article L. 2512-14 du code général des collectivités territoriales"/>
    <tag k="operator:url" v="https://cdn.paris.fr/paris/2020/02/26/5bf469a311d0beb9911e92d113781550.ai"/>
    <tag k="sidewalk:both:surface" v="asphalt"/>
    <tag k="sidewalk:left" v="yes"/>
    <tag k="sidewalk:right" v="separate"/>
    <tag k="smoothness" v="excellent"/>
    <tag k="source" v="Bing"/>
    <tag k="source:maxspeed" v="FR:urban"/>
    <tag k="surface" v="asphalt"/>
  </way>
  <way id="601952770" version="14" timestamp="2024-08-15T17:22:30Z" changeset="155293930" uid="11963177" user="JeroenvanderGun">
    <nd ref="5143667124"/>
    <nd ref="6335319276"/>
    <nd ref="25670833"/>
    <nd ref="2165221559"/>
    <nd ref="676890491"/>
    <tag k="bicycle:lanes" v="yes|yes|yes|designated"/>
    <tag k="busway:right" v="lane"/>
    <tag k="cycleway:left" v="no"/>
    <tag k="cycleway:right" v="share_busway"/>
    <tag k="enforcement:operator" v="Police nationale"/>
    <tag k="highway" v="primary"/>
    <tag k="lanes" v="4"/>
    <tag k="lanes:psv" v="1"/>
    <tag k="lit" v="yes"/>
    <tag k="maxspeed" v="30"/>
    <tag k="name" v="Quai de la Mégisserie"/>
    <tag k="name:etymology:wikidata" v="Q3332813"/>
    <tag k="oneway" v="yes"/>
    <tag k="operator" v="Ville de Paris"/>
    <tag k="operator:authority" v="Maire de Paris dans le respect des prescriptions prises par le préfet de police"/>
    <tag k="operator:authority:related_law" v="III de l'article L. 2512-14 du code général des collectivités territoriales"/>
    <tag k="psv:lanes" v="yes|yes|yes|designated"/>
    <tag k="sidewalk:both" v="separate"/>
    <tag k="sidewalk:left:surface" v="asphalt"/>
    <tag k="sidewalk:right:surface" v="paving_stones"/>
    <tag k="smoothness" v="good"/>
    <tag k="source" v="cadastre-dgi-fr source : Direction Générale des Impôts - Cadastre. Mise à jour : 2010"/>
    <tag k="source:operator:authority" v="https://www.legifrance.gouv.fr/loda/id/LEGIARTI000035244298/#LEGIARTI000035244298"/>
    <tag k="surface" v="asphalt"/>
    <tag k="zone:traffic" v="FR:urban"/>
  </way>
  <way id="655981043" version="32" timestamp="2024-06-28T14:25:18Z" changeset="153296454" uid="7512839" user="Benoît C MdP">
    <nd ref="1461333063"/>
    <nd ref="470194"/>
    <tag k="VROP:left" v="opposite_lane"/>
    <tag k="bicycle" v="no"/>
    <tag k="cycleway" v="no"/>
    <tag k="hazmat" v="no"/>
    <tag k="highway" v="secondary"/>
    <tag k="layer" v="-1"/>
    <tag k="lit" v="24/7"/>
    <tag k="maxspeed" v="30"/>
    <tag k="name" v="Avenue du Général Lemonnier"/>
    <tag k="name:ru" v="проспект Женераль Лемонье"/>
    <tag k="oneway" v="yes"/>
    <tag k="ref:FR:FANTOIR" v="751014064T"/>
    <tag k="surface" v="asphalt"/>
    <tag k="tunnel" v="yes"/>
    <tag k="wikidata" v="Q2874152"/>
  </way>
  <way id="674945572" version="18" timestamp="2025-01-16T09:28:00Z" changeset="161409963" uid="7512839" user="Benoît C MdP">
    <nd ref="4619165930"/>
    <nd ref="6335319277"/>
    <nd ref="2165221579"/>
    <nd ref="676890545"/>
    <tag k="busway:right" v="lane"/>
    <tag k="cycleway:left" v="separate"/>
    <tag k="cycleway:right" v="share_busway"/>
    <tag k="enforcement:operator" v="Police nationale"/>
    <tag k="highway" v="primary"/>
    <tag k="lanes" v="3"/>
    <tag k="lit" v="yes"/>
    <tag k="maxspeed" v="30"/>
    <tag k="name" v="Place du Châtelet"/>
    <tag k="oneway" v="yes"/>
    <tag k="operator" v="Ville de Paris"/>
    <tag k="operator:authority" v="Maire de Paris dans le respect des prescriptions prises par le préfet de police"/>
    <tag k="operator:authority:related_law" v="III de l'article L. 2512-14 du code général des collectivités territoriales"/>
    <tag k="sidewalk" v="separate"/>
    <tag k="smoothness" v="excellent"/>
    <tag k="source" v="Bing"/>
    <tag k="source:operator:authority" v="https://www.legifrance.gouv.fr/loda/id/LEGIARTI000035244298/#LEGIARTI000035244298"/>
    <tag k="surface" v="asphalt"/>
    <tag k="zone:traffic" v="FR:urban"/>
  </way>
  <way id="674945573" version="15" timestamp="2024-08-15T17:22:30Z" changeset="155293930" uid="11963177" user="JeroenvanderGun">
    <nd ref="676890545"/>
    <nd ref="6394060995"/>
    <nd ref="4616996334"/>
    <tag k="bicycle" v="yes"/>
    <tag k="bicycle:lanes" v="yes|yes|designated"/>
    <tag k="busway:right" v="lane"/>
    <tag k="cycleway:left" v="separate"/>
    <tag k="cycleway:right" v="share_busway"/>
    <tag k="enforcement:operator" v="Police nationale"/>
    <tag k="highway" v="primary"/>
    <tag k="lanes" v="3"/>
    <tag k="lanes:psv" v="1"/>
    <tag k="lit" v="yes"/>
    <tag k="maxspeed" v="30"/>
    <tag k="name" v="Boulevard de Sébastopol"/>
    <tag k="name:etymology:wikidata" v="Q815216"/>
    <tag k="oneway" v="yes"/>
    <tag k="operator" v="Ville de Paris"/>
    <tag k="operator:authority" v="Maire de Paris dans le respect des prescriptions prises par le préfet de police"/>
    <tag k="operator:authority:related_law" v="III de l'article L. 2512-14 du code général des collectivités territoriales"/>
    <tag k="psv:lanes" v="yes|yes|designated"/>
    <tag k="sidewalk" v="separate"/>
    <tag k="smoothness" v="good"/>
    <tag k="source" v="Bing"/>
    <tag k="source:maxspeed" v="FR:urban"/>
    <tag k="source:operator:authority" v="https://www.legifrance.gouv.fr/loda/id/LEGIARTI000035244298/#LEGIARTI000035244298"/>
    <tag k="surface" v="asphalt"/>
    <tag k="zone:traffic" v="FR:urban"/>
  </way>
  <way id="683347671" version="35" timestamp="2023-08-21T19:33:31Z" changeset="140197976" uid="19233464" user="secondaryhighway">
    <nd ref="6400526957"/>
    <nd ref="11054817253"/>
    <nd ref="6400526959"/>
    <tag k="cycleway:left" v="no"/>
    <tag k="cycleway:right" v="lane"/>
    <tag k="cycleway:right:lane" v="exclusive"/>
    <tag k="dual_carriageway" v="yes"/>
    <tag k="highway" v="residential"/>
    <tag k="lanes" v="1"/>
    <tag k="lit" v="yes"/>
    <tag k="maxspeed" v="30"/>
    <tag k="name" v="Place du Pont Neuf"/>
    <tag k="name:ru" v="площадь Пон-Нёф"/>
    <tag k="oneway" v="yes"/>
    <tag k="sidewalk" v="separate"/>
    <tag k="smoothness" v="intermediate"/>
    <tag k="source" v="cadastre-dgi-fr source : Direction Générale des Impôts - Cadastre. Mise à jour : 2010"/>
    <tag k="surface" v="sett"/>
    <tag k="zone:maxspeed" v="FR:30"/>
  </way>
  <way id="683347672" version="36" timestamp="2024-10-27T19:49:59Z" changeset="158428384" uid="53964" user="_Mathieu_">
    <nd ref="6400526959"/>
    <nd ref="11054817252"/>
    <nd ref="2734089722"/>
    <nd ref="6353008549"/>
    <nd ref="676758859"/>
    <tag k="cycleway:left" v="lane"/>
    <tag k="cycleway:left:lane" v="pictogram"/>
    <tag k="cycleway:left:oneway" v="-1"/>
    <tag k="cycleway:right" v="no"/>
    <tag k="highway" v="residential"/>
    <tag k="lanes" v="1"/>
    <tag k="lit" v="yes"/>
    <tag k="maxspeed" v="30"/>
    <tag k="name" v="Quai des Orfèvres"/>
    <tag k="name:etymology:wikidata" v="Q211423"/>
    <tag k="name:ru" v="набережная Орфевр"/>
    <tag k="oneway" v="yes"/>
    <tag k="oneway:bicycle" v="no"/>
    <tag k="sidewalk" v="separate"/>
    <tag k="smoothness" v="excellent"/>
    <tag k="source" v="cadastre-dgi-fr source : Direction Générale des Impôts - Cadastre. Mise à jour : 2010"/>
    <tag k="surface" v="asphalt"/>
    <tag k="zone:maxspeed" v="FR:30"/>
  </way>
  <way id="683347673" version="14" timestamp="2025-04-08T06:54:05Z" changeset="164663043" uid="2678738" user="fgouget">
    <nd ref="6400526956"/>
    <nd ref="6403520814"/>
    <tag k="cycleway:left" v="no"/>
    <tag k="cycleway:right" v="lane"/>
    <tag k="cycleway:right:lane" v="exclusive"/>
    <tag k="dual_carriageway" v="yes"/>
    <tag k="highway" v="residential"/>
    <tag k="lanes" v="1"/>
    <tag k="lit" v="yes"/>
    <tag k="maxspeed" v="30"/>
    <tag k="name" v="Pont Neuf"/>
    <tag k="oneway" v="yes"/>
    <tag k="sidewalk:left" v="no"/>
    <tag k="sidewalk:right" v="separate"/>
    <tag k="sidewalk:right:surface" v="paving_stones"/>
    <tag k="smoothness" v="intermediate"/>
    <tag k="source" v="cadastre-dgi-fr source : Direction Générale des Impôts - Cadastre. Mise à jour : 2010"/>
    <tag k="surface" v="sett"/>
    <tag k="wikidata" v="Q3390686"/>
    <tag k="zone:maxspeed" v="FR:30"/>
  </way>
  <way id="683347674" version="36" timestamp="2023-08-21T19:33:31Z" changeset="140197976" uid="19233464" user="secondaryhighway">
    <nd ref="2734089737"/>
    <nd ref="676788930"/>
    <tag k="alt_name:ru" v="Новый Мост"/>
    <tag k="bridge" v="yes"/>
    <tag k="cycleway:left" v="no"/>
    <tag k="cycleway:right" v="lane"/>
    <tag k="cycleway:right:lane" v="exclusive"/>
    <tag k="dual_carriageway" v="yes"/>
    <tag k="highway" v="tertiary"/>
    <tag k="lanes" v="1"/>
    <tag k="layer" v="1"/>
    <tag k="lit" v="yes"/>
    <tag k="maxspeed" v="30"/>
    <tag k="maxweight:signed" v="no"/>
    <tag k="name" v="Pont Neuf"/>
    <tag k="name:de" v="Neue Brücke"/>
    <tag k="name:es" v="Puente Nuevo"/>
    <tag k="name:pt" v="Ponte Nova"/>
    <tag k="name:ru" v="Новый мост"/>
    <tag k="name:zh" v="新桥"/>
    <tag k="oneway" v="yes"/>
    <tag k="sidewalk" v="separate"/>
    <tag k="smoothness" v="intermediate"/>
    <tag k="source" v="cadastre-dgi-fr source : Direction Générale des Impôts - Cadastre. Mise à jour : 2010"/>
    <tag k="surface" v="sett"/>
    <tag k="zone:maxspeed" v="FR:30"/>
  </way>
  <way id="683347675" version="35" timestamp="2023-08-21T19:33:31Z" changeset="140197976" uid="19233464" user="secondaryhighway">
    <nd ref="2734089715"/>
    <nd ref="11054817254"/>
    <nd ref="6400526957"/>
    <tag k="alt_name:ru" v="Новый Мост"/>
    <tag k="bridge" v="yes"/>
    <tag k="cycleway:left" v="no"/>
    <tag k="cycleway:right" v="lane"/>
    <tag k="cycleway:right:lane" v="exclusive"/>
    <tag k="dual_carriageway" v="yes"/>
    <tag k="highway" v="residential"/>
    <tag k="lanes" v="1"/>
    <tag k="layer" v="1"/>
    <tag k="lit" v="yes"/>
    <tag k="maxspeed" v="30"/>
    <tag k="maxweight:signed" v="no"/>
    <tag k="name" v="Pont Neuf"/>
    <tag k="name:de" v="Neue Brücke"/>
    <tag k="name:es" v="Puente Nuevo"/>
    <tag k="name:pt" v="Ponte Nova"/>
    <tag k="name:ru" v="Новый мост"/>
    <tag k="name:zh" v="新桥"/>
    <tag k="oneway" v="yes"/>
    <tag k="sidewalk" v="separate"/>
    <tag k="smoothness" v="intermediate"/>
    <tag k="source" v="cadastre-dgi-fr source : Direction Générale des Impôts - Cadastre. Mise à jour : 2010"/>
    <tag k="surface" v="sett"/>
    <tag k="wikidata" v="Q335277"/>
    <tag k="wikipedia" v="fr:Pont Neuf"/>
    <tag k="zone:maxspeed" v="FR:30"/>
  </way>
  <way id="683347676" version="37" timestamp="2023-08-21T19:33:31Z" changeset="140197976" uid="19233464" user="secondaryhighway">
    <nd ref="403534532"/>
    <nd ref="2734089715"/>
    <tag k="alt_name:ru" v="Новый Мост"/>
    <tag k="bridge" v="yes"/>
    <tag k="cycleway:left" v="no"/>
    <tag k="cycleway:right" v="lane"/>
    <tag k="cycleway:right:lane" v="exclusive"/>
    <tag k="dual_carriageway" v="yes"/>
    <tag k="highway" v="tertiary"/>
    <tag k="lanes" v="2"/>
    <tag k="layer" v="1"/>
    <tag k="lit" v="yes"/>
    <tag k="maxspeed" v="30"/>
    <tag k="maxweight:signed" v="no"/>
    <tag k="name" v="Pont Neuf"/>
    <tag k="name:de" v="Neue Brücke"/>
    <tag k="name:es" v="Puente Nuevo"/>
    <tag k="name:pt" v="Ponte Nova"/>
    <tag k="name:ru" v="Новый мост"/>
    <tag k="name:zh" v="新桥"/>
    <tag k="oneway" v="yes"/>
    <tag k="sidewalk" v="separate"/>
    <tag k="smoothness" v="intermediate"/>
    <tag k="surface" v="sett"/>
    <tag k="wikidata" v="Q335277"/>
    <tag k="wikipedia" v="fr:Pont Neuf"/>
    <tag k="zone:maxspeed" v="FR:30"/>
  </way>
  <way id="683347678" version="39" timestamp="2024-02-17T17:48:30Z" changeset="147580915" uid="6290466" user="benjamintchik">
    <nd ref="676758884"/>
    <nd ref="11066515587"/>
    <nd ref="11066515588"/>
    <nd ref="11054817251"/>
    <nd ref="8394448774"/>
    <nd ref="6400526959"/>
    <tag k="cycleway:both" v="no"/>
    <tag k="highway" v="residential"/>
    <tag k="lanes" v="1"/>
    <tag k="lit" v="yes"/>
    <tag k="maxspeed" v="30"/>
    <tag k="name" v="Quai des Orfèvres"/>
    <tag k="name:etymology:wikidata" v="Q211423"/>
    <tag k="name:ru" v="набережная Орфевр"/>
    <tag k="oneway" v="yes"/>
    <tag k="sidewalk" v="separate"/>
    <tag k="smoothness" v="intermediate"/>
    <tag k="source" v="cadastre-dgi-fr source : Direction Générale des Impôts - Cadastre. Mise à jour : 2010"/>
    <tag k="surface" v="sett"/>
    <tag k="zone:maxspeed" v="FR:30"/>
  </way>
  <way id="683651856" version="18" timestamp="2025-04-08T06:54:02Z" changeset="164663043" uid="2678738" user="fgouget">
    <nd ref="6403520814"/>
    <nd ref="2734089737"/>
    <tag k="bridge" v="yes"/>
    <tag k="cycleway:left" v="no"/>
    <tag k="cycleway:right" v="lane"/>
    <tag k="cycleway:right:lane" v="exclusive"/>
    <tag k="dual_carriageway" v="yes"/>
    <tag k="highway" v="residential"/>
    <tag k="lanes" v="1"/>
    <tag k="layer" v="1"/>
    <tag k="lit" v="yes"/>
    <tag k="maxspeed" v="30"/>
    <tag k="maxweight:signed" v="no"/>
    <tag k="name" v="Pont Neuf"/>
    <tag k="oneway" v="yes"/>
    <tag k="sidewalk:left" v="yes"/>
    <tag k="sidewalk:left:surface" v="asphalt"/>
    <tag k="sidewalk:right" v="separate"/>
    <tag k="sidewalk:right:surface" v="paving_stones"/>
    <tag k="smoothness" v="intermediate"/>
    <tag k="source" v="cadastre-dgi-fr source : Direction Générale des Impôts - Cadastre. Mise à jour : 2010"/>
    <tag k="surface" v="sett"/>
    <tag k="wikidata" v="Q3390686"/>
    <tag k="zone:maxspeed" v="FR:30"/>
  </way>
  <way id="688754236" version="14" timestamp="2024-08-15T17:26:47Z" changeset="155294126" uid="11963177" user="JeroenvanderGun">
    <nd ref="6282960281"/>
    <nd ref="368180"/>
    <tag k="bicycle:backward" v="use_sidepath"/>
    <tag k="busway:right" v="lane"/>
    <tag k="cycleway:left" v="opposite"/>
    <tag k="enforcement:operator" v="Police nationale"/>
    <tag k="highway" v="unclassified"/>
    <tag k="lanes" v="4"/>
    <tag k="lanes:psv" v="1"/>
    <tag k="lit" v="yes"/>
    <tag k="maxspeed" v="30"/>
    <tag k="name" v="Rue Saint-Denis"/>
    <tag k="name:etymology:wikidata" v="Q3603203"/>
    <tag k="name:ja" v="サン＝ドニ通り"/>
    <tag k="oneway" v="yes"/>
    <tag k="oneway:bicycle" v="no"/>
    <tag k="operator" v="Ville de Paris"/>
    <tag k="operator:authority" v="Maire de Paris après avis du préfet de police"/>
    <tag k="operator:authority:related_law" v="IV de l'article L. 2512-14 du code général des collectivités territoriales"/>
    <tag k="operator:url" v="https://cdn.paris.fr/paris/2020/02/26/5bf469a311d0beb9911e92d113781550.ai"/>
    <tag k="sidewalk" v="both"/>
    <tag k="sidewalk:both:surface" v="paving_stones"/>
    <tag k="smoothness" v="good"/>
    <tag k="source" v="Bing"/>
    <tag k="source:maxspeed" v="FR:urban"/>
    <tag k="surface" v="asphalt"/>
  </way>
  <way id="754883369" version="4" timestamp="2024-02-17T17:53:37Z" changeset="147580915" uid="6290466" user="benjamintchik">
    <nd ref="676872600"/>
    <nd ref="6282960279"/>
    <tag k="cycleway:left" v="opposite_lane"/>
    <tag k="highway" v="residential"/>
    <tag k="lit" v="yes"/>
    <tag k="maxspeed" v="30"/>
    <tag k="name" v="Rue des Lavandières Sainte-Opportune"/>
    <tag k="name:etymology:wikidata" v="Q16624872"/>
    <tag k="oneway" v="yes"/>
    <tag k="oneway:bicycle" v="no"/>
    <tag k="source" v="cadastre-dgi-fr source : Direction Générale des Impôts - Cadastre. Mise à jour : 2010"/>
    <tag k="surface" v="asphalt"/>
  </way>
  <way id="835019120" version="2" timestamp="2024-02-11T13:46:41Z" changeset="147328378" uid="10055437" user="Spiekerooger">
    <nd ref="7794426934"/>
    <nd ref="7794426932"/>
    <nd ref="7794426933"/>
    <nd ref="1114193523"/>
    <nd ref="7794426934"/>
    <tag k="artist_name" v="Pierre Bourdict"/>
    <tag k="artwork_type" v="sculpture"/>
    <tag k="building" v="yes"/>
    <tag k="name" v="Le Tibre"/>
    <tag k="name:en" v="The Tiber"/>
    <tag k="name:es" v="El Tiber"/>
    <tag k="name:fr" v="Le Tibre"/>
    <tag k="name:it" v="Il Tevere"/>
    <tag k="tourism" v="artwork"/>
    <tag k="wikidata" v="Q18147662"/>
  </way>
  <way id="835019121" version="3" timestamp="2024-02-11T13:47:10Z" changeset="147328410" uid="10055437" user="Spiekerooger">
    <nd ref="7794426938"/>
    <nd ref="1083632044"/>
    <nd ref="7794426936"/>
    <nd ref="7794426937"/>
    <nd ref="7794426938"/>
    <tag k="artist:wikidata" v="Q3426922"/>
    <tag k="artist_name" v="Lorenzo Ottone"/>
    <tag k="artwork_type" v="sculpture"/>
    <tag k="building" v="yes"/>
    <tag k="image" v="http://commons.wikimedia.org/wiki/File:Colossus_of_the_Nile-Jardin_des_Tuileries.jpg"/>
    <tag k="name" v="Le Nil"/>
    <tag k="name:en" v="The Nile"/>
    <tag k="name:es" v="El Nilo"/>
    <tag k="name:fr" v="Le Nil"/>
    <tag k="name:it" v="Il Nilo"/>
    <tag k="source" v="survey, bing"/>
    <tag k="tourism" v="artwork"/>
    <tag k="wheelchair" v="yes"/>
    <tag k="wikimedia_commons" v="Category:Le Nil by Lorenzo Ottoni (Paris)"/>
  </way>
  <way id="865084962" version="36" timestamp="2024-08-27T08:52:49Z" changeset="155818919" uid="7512839" user="Benoît C MdP">
    <nd ref="15643088"/>
    <nd ref="677151953"/>
    <nd ref="677151955"/>
    <nd ref="1978091880"/>
    <nd ref="6413849014"/>
    <nd ref="2875175581"/>
    <nd ref="8615812357"/>
    <nd ref="4704242138"/>
    <nd ref="8615812356"/>
    <tag k="busway:left" v="opposite_lane"/>
    <tag k="busway:right" v="lane"/>
    <tag k="cycleway:both" v="share_busway"/>
    <tag k="cycleway:left:oneway" v="-1"/>
    <tag k="enforcement:operator" v="Police nationale"/>
    <tag k="highway" v="primary"/>
    <tag k="lanes" v="2"/>
    <tag k="lit" v="yes"/>
    <tag k="maxspeed" v="30"/>
    <tag k="motor_vehicle:conditional" v="no @ (Sep 08-May 25 Tu-Fr 08:00-19:00)"/>
    <tag k="name" v="Boulevard du Palais"/>
    <tag k="name:etymology:wikidata" v="Q143080"/>
    <tag k="name:ru" v="бульвар Пале"/>
    <tag k="oneway" v="yes"/>
    <tag k="oneway:bicycle" v="no"/>
    <tag k="oneway:psv" v="no"/>
    <tag k="operator" v="Ville de Paris"/>
    <tag k="operator:authority" v="Maire de Paris dans le respect des prescriptions prises par le préfet de police"/>
    <tag k="operator:authority:related_law" v="III de l'article L. 2512-14 du code général des collectivités territoriales"/>
    <tag k="parking:lane:both" v="no"/>
    <tag k="sidewalk" v="separate"/>
    <tag k="smoothness" v="good"/>
    <tag k="source:maxspeed" v="FR:zone30"/>
    <tag k="source:operator:authority" v="https://www.legifrance.gouv.fr/loda/id/LEGIARTI000035244298/#LEGIARTI000035244298"/>
    <tag k="surface" v="asphalt"/>
    <tag k="zone:traffic" v="FR:urban"/>
  </way>
  <way id="874683203" version="32" timestamp="2024-11-20T09:51:45Z" changeset="159358110" uid="2678738" user="fgouget">
    <nd ref="338664953"/>
    <nd ref="25670315"/>
    <nd ref="4418239717"/>
    <nd ref="2880433272"/>
    <nd ref="25670349"/>
    <nd ref="349940632"/>
    <tag k="bus:lanes" v="yes|yes|yes|designated"/>
    <tag k="busway:right" v="lane"/>
    <tag k="cycleway:left" v="no"/>
    <tag k="cycleway:right" v="share_busway"/>
    <tag k="enforcement:operator" v="Police nationale"/>
    <tag k="highway" v="primary"/>
    <tag k="lanes" v="4"/>
    <tag k="lanes:psv" v="1"/>
    <tag k="lit" v="yes"/>
    <tag k="maxspeed" v="30"/>
    <tag k="name" v="Quai François Mitterrand"/>
    <tag k="name:etymology:wikidata" v="Q2038"/>
    <tag k="name:ru" v="набережная Франсуа Миттеран"/>
    <tag k="old_name" v="Quai du Louvre"/>
    <tag k="oneway" v="yes"/>
    <tag k="operator" v="Ville de Paris"/>
    <tag k="operator:authority" v="Maire de Paris dans le respect des prescriptions prises par le préfet de police"/>
    <tag k="operator:authority:related_law" v="III de l'article L. 2512-14 du code général des collectivités territoriales"/>
    <tag k="psv:lanes" v="yes|yes|yes|designated"/>
    <tag k="sidewalk:left" v="separate"/>
    <tag k="smoothness" v="intermediate"/>
    <tag k="source:operator:authority" v="https://www.legifrance.gouv.fr/loda/id/LEGIARTI000035244298/#LEGIARTI000035244298"/>
    <tag k="surface" v="sett"/>
    <tag k="taxi:lanes" v="yes|yes|yes|designated"/>
    <tag k="zone:traffic" v="FR:urban"/>
  </way>
  <way id="874683204" version="5" timestamp="2024-10-04T07:44:37Z" changeset="157448175" uid="7512839" user="Benoît C MdP">
    <nd ref="8142408229"/>
    <nd ref="368196"/>
    <nd ref="25554232"/>
    <nd ref="368195"/>
    <tag k="bus:lanes" v="yes|yes|yes|yes|designated"/>
    <tag k="busway:right" v="lane"/>
    <tag k="cycleway:right" v="share_busway"/>
    <tag k="highway" v="primary"/>
    <tag k="lanes" v="5"/>
    <tag k="lanes:psv" v="1"/>
    <tag k="lit" v="yes"/>
    <tag k="maxspeed" v="30"/>
    <tag k="name" v="Quai Aimé Césaire"/>
    <tag k="oneway" v="yes"/>
    <tag k="psv:lanes" v="yes|yes|yes|yes|designated"/>
    <tag k="source" v="Bing"/>
    <tag k="surface" v="asphalt"/>
    <tag k="taxi:lanes" v="yes|yes|yes|yes|designated"/>
  </way>
  <way id="1025768592" version="4" timestamp="2024-03-29T08:00:56Z" changeset="149299148" uid="2678738" user="fgouget">
    <nd ref="676821311"/>
    <nd ref="2468304195"/>
    <nd ref="676821312"/>
    <nd ref="676821313"/>
    <tag k="highway" v="residential"/>
    <tag k="lit" v="yes"/>
    <tag k="maxspeed" v="30"/>
    <tag k="name" v="Rue des Bourdonnais"/>
    <tag k="name:etymology:wikidata" v="Q16860298"/>
    <tag k="oneway" v="yes"/>
    <tag k="sidewalk:both" v="separate"/>
    <tag k="smoothness" v="excellent"/>
    <tag k="source" v="cadastre-dgi-fr source : Direction Générale des Impôts - Cadastre. Mise à jour : 2010"/>
    <tag k="source:maxspeed" v="opendata.paris.fr"/>
    <tag k="surface" v="asphalt"/>
  </way>
  <way id="1064739953" version="27" timestamp="2024-03-29T07:53:41Z" changeset="149299148" uid="2678738" user="fgouget">
    <nd ref="5273168652"/>
    <nd ref="7029884396"/>
    <tag k="busway:right" v="lane"/>
    <tag k="cycleway:right" v="share_busway"/>
    <tag k="highway" v="secondary"/>
    <tag k="lanes" v="2"/>
    <tag k="lit" v="yes"/>
    <tag k="maxspeed" v="30"/>
    <tag k="name" v="Rue de l'Amiral de Coligny"/>
    <tag k="name:etymology:wikidata" v="Q204975"/>
    <tag k="name:ru" v="улица Амираль де Колиньи"/>
    <tag k="sidewalk:both" v="separate"/>
    <tag k="surface" v="sett"/>
  </way>
  <way id="1088755096" version="30" timestamp="2023-10-29T13:03:02Z" changeset="143311343" uid="11291363" user="u4Dy46Xe">
    <nd ref="676728036"/>
    <nd ref="676788942"/>
    <nd ref="6400526956"/>
    <tag k="cycleway:left" v="no"/>
    <tag k="cycleway:right" v="lane"/>
    <tag k="cycleway:right:lane" v="exclusive"/>
    <tag k="dual_carriageway" v="yes"/>
    <tag k="highway" v="residential"/>
    <tag k="lanes" v="2"/>
    <tag k="lit" v="yes"/>
    <tag k="maxspeed" v="30"/>
    <tag k="name" v="Place du Pont Neuf"/>
    <tag k="name:ru" v="площадь Пон-Нёф"/>
    <tag k="oneway" v="yes"/>
    <tag k="sidewalk" v="separate"/>
    <tag k="smoothness" v="intermediate"/>
    <tag k="source" v="cadastre-dgi-fr source : Direction Générale des Impôts - Cadastre. Mise à jour : 2010"/>
    <tag k="surface" v="sett"/>
    <tag k="zone:maxspeed" v="FR:30"/>
  </way>
  <way id="1093450145" version="25" timestamp="2024-02-17T19:46:09Z" changeset="147585412" uid="6290466" user="benjamintchik">
    <nd ref="10013974003"/>
    <nd ref="282187579"/>
    <tag k="cycleway" v="opposite"/>
    <tag k="highway" v="residential"/>
    <tag k="lit" v="yes"/>
    <tag k="maxspeed" v="30"/>
    <tag k="name" v="Rue Perrault"/>
    <tag k="name:etymology:wikidata" v="Q347699"/>
    <tag k="name:ru" v="улица Перро"/>
    <tag k="oneway" v="yes"/>
    <tag k="oneway:bicycle" v="no"/>
    <tag k="sidewalk:both" v="separate"/>
    <tag k="source" v="cadastre-dgi-fr source : Direction Générale des Impôts - Cadastre. Mise à jour : 2009"/>
    <tag k="source:maxspeed" v="opendata.paris.fr"/>
    <tag k="surface" v="sett"/>
  </way>
  <way id="1153389179" version="7" timestamp="2024-08-15T17:22:30Z" changeset="155293930" uid="11963177" user="JeroenvanderGun">
    <nd ref="676821348"/>
    <nd ref="5143667124"/>
    <tag k="bicycle:lanes" v="yes|yes|yes|designated"/>
    <tag k="busway:right" v="lane"/>
    <tag k="cycleway:left" v="no"/>
    <tag k="cycleway:right" v="share_busway"/>
    <tag k="enforcement:operator" v="Police nationale"/>
    <tag k="highway" v="primary"/>
    <tag k="lanes" v="4"/>
    <tag k="lanes:psv" v="1"/>
    <tag k="lit" v="yes"/>
    <tag k="maxspeed" v="30"/>
    <tag k="name" v="Quai de la Mégisserie"/>
    <tag k="name:etymology:wikidata" v="Q3332813"/>
    <tag k="oneway" v="yes"/>
    <tag k="operator" v="Ville de Paris"/>
    <tag k="operator:authority" v="Maire de Paris dans le respect des prescriptions prises par le préfet de police"/>
    <tag k="operator:authority:related_law" v="III de l'article L. 2512-14 du code général des collectivités territoriales"/>
    <tag k="psv:lanes" v="yes|yes|yes|designated"/>
    <tag k="sidewalk:both" v="separate"/>
    <tag k="sidewalk:left:surface" v="asphalt"/>
    <tag k="sidewalk:right:surface" v="paving_stones"/>
    <tag k="smoothness" v="good"/>
    <tag k="source" v="cadastre-dgi-fr source : Direction Générale des Impôts - Cadastre. Mise à jour : 2010"/>
    <tag k="source:operator:authority" v="https://www.legifrance.gouv.fr/loda/id/LEGIARTI000035244298/#LEGIARTI000035244298"/>
    <tag k="surface" v="asphalt"/>
    <tag k="zone:traffic" v="FR:urban"/>
  </way>
  <way id="1182693162" version="24" timestamp="2024-06-28T14:25:18Z" changeset="153296454" uid="7512839" user="Benoît C MdP">
    <nd ref="6282960248"/>
    <nd ref="368205"/>
    <tag k="VROP:left" v="opposite_lane"/>
    <tag k="cycleway" v="no"/>
    <tag k="hazmat" v="no"/>
    <tag k="highway" v="secondary"/>
    <tag k="lanes" v="3"/>
    <tag k="lit" v="yes"/>
    <tag k="maxspeed" v="30"/>
    <tag k="name" v="Avenue du Général Lemonnier"/>
    <tag k="name:ru" v="проспект Женераль Лемонье"/>
    <tag k="oneway" v="yes"/>
    <tag k="ref:FR:FANTOIR" v="751014064T"/>
    <tag k="surface" v="asphalt"/>
    <tag k="wikidata" v="Q2874152"/>
  </way>
  <way id="1192612774" version="12" timestamp="2024-02-17T17:48:30Z" changeset="147580915" uid="6290466" user="benjamintchik">
    <nd ref="11070910853"/>
    <nd ref="676758863"/>
    <tag k="busway:right" v="lane"/>
    <tag k="cycleway:left" v="no"/>
    <tag k="cycleway:right" v="share_busway"/>
    <tag k="highway" v="residential"/>
    <tag k="lanes" v="1"/>
    <tag k="lit" v="yes"/>
    <tag k="maxspeed" v="30"/>
    <tag k="motor_vehicle" v="destination"/>
    <tag k="name" v="Quai des Orfèvres"/>
    <tag k="name:etymology:wikidata" v="Q211423"/>
    <tag k="name:ru" v="набережная Орфевр"/>
    <tag k="oneway" v="yes"/>
    <tag k="oneway:bicycle" v="no"/>
    <tag k="sidewalk" v="separate"/>
    <tag k="smoothness" v="good"/>
    <tag k="source" v="cadastre-dgi-fr source : Direction Générale des Impôts - Cadastre. Mise à jour : 2010"/>
    <tag k="surface" v="asphalt"/>
    <tag k="zone:maxspeed" v="FR:30"/>
  </way>
  <way id="1284153788" version="2" timestamp="2024-06-28T14:25:18Z" changeset="153296454" uid="7512839" user="Benoît C MdP">
    <nd ref="5157284092"/>
    <nd ref="2705514266"/>
    <tag k="VROP:left" v="opposite_lane"/>
    <tag k="bus:lanes" v="yes|yes|designated"/>
    <tag k="busway:right" v="lane"/>
    <tag k="cycleway:right" v="share_busway"/>
    <tag k="end_date:VROP:left" v="2024-09-15"/>
    <tag k="highway" v="primary"/>
    <tag k="lanes" v="3"/>
    <tag k="lanes:psv" v="1"/>
    <tag k="lit" v="yes"/>
    <tag k="maxspeed" v="30"/>
    <tag k="name" v="Quai Aimé Césaire"/>
    <tag k="oneway" v="yes"/>
    <tag k="psv:lanes" v="yes|yes|designated"/>
    <tag k="source" v="Bing"/>
    <tag k="start_date:VROP:left" v="2024-07-01"/>
    <tag k="surface" v="cobblestone:flattened"/>
    <tag k="taxi:lanes" v="yes|yes|designated"/>
  </way>
  <way id="1286263228" version="1" timestamp="2024-05-24T13:21:57Z" changeset="151769829" uid="14464629" user="samuel_geovelo">
    <nd ref="361073"/>
    <nd ref="6665582265"/>
    <tag k="busway:right" v="lane"/>
    <tag k="cycleway:right" v="share_busway"/>
    <tag k="highway" v="secondary"/>
    <tag k="lanes" v="5"/>
    <tag k="lanes:backward" v="3"/>
    <tag k="lanes:forward" v="2"/>
    <tag k="lit" v="yes"/>
    <tag k="maxspeed" v="30"/>
    <tag k="name" v="Rue de l'Amiral de Coligny"/>
    <tag k="name:etymology:wikidata" v="Q204975"/>
    <tag k="name:ru" v="улица Амираль де Колиньи"/>
    <tag k="sidewalk:both" v="separate"/>
    <tag k="smoothness" v="intermediate"/>
    <tag k="surface" v="sett"/>
  </way>
  <relation id="536982" version="40" timestamp="2025-05-04T18:27:41Z" changeset="165813744" uid="22579215" user="fhqi819hds91">
    <member type="way" ref="249003524" role="inner"/>
    <member type="way" ref="248853219" role="inner"/>
    <member type="way" ref="248853225" role="inner"/>
    <member type="way" ref="53567906" role="outer"/>
    <member type="way" ref="53567931" role="inner"/>
    <member type="way" ref="53567929" role="inner"/>
    <member type="way" ref="53567930" role="inner"/>
    <member type="way" ref="53567904" role="inner"/>
    <member type="way" ref="53567922" role="inner"/>
    <member type="way" ref="53567923" role="inner"/>
    <member type="way" ref="53567915" role="inner"/>
    <member type="way" ref="53567924" role="inner"/>
    <member type="way" ref="53567925" role="inner"/>
    <member type="way" ref="53567920" role="inner"/>
    <member type="way" ref="53567921" role="inner"/>
    <member type="way" ref="53567918" role="inner"/>
    <member type="way" ref="53567917" role="inner"/>
    <member type="way" ref="53567916" role="inner"/>
    <member type="way" ref="53567911" role="inner"/>
    <member type="way" ref="53567912" role="inner"/>
    <member type="way" ref="53567910" role="inner"/>
    <member type="way" ref="53567905" role="inner"/>
    <tag k="alt_name" v="Conciergerie"/>
    <tag k="building" v="civic"/>
    <tag k="heritage:operator" v="mhs"/>
    <tag k="historic" v="building"/>
    <tag k="image" v="https://photos.app.goo.gl/zaP1oGyxiGyqkdWs7"/>
    <tag k="layer" v="2"/>
    <tag k="mhs:inscription_date" v="1862"/>
    <tag k="name" v="Palais de Justice de Paris"/>
    <tag k="name:ar" v="قصر العدل في باريس"/>
    <tag k="name:de" v="Justizpalast"/>
    <tag k="name:en" v="Palace of Justice"/>
    <tag k="name:es" v="Palacio de Justicia"/>
    <tag k="name:fr" v="Palais de Justice de Paris"/>
    <tag k="name:it" v="Palazzo di Giustizia"/>
    <tag k="name:pt" v="Palácio da Justiça"/>
    <tag k="name:ru" v="Дворец правосудия"/>
    <tag k="name:zh" v="巴黎司法宫"/>
    <tag k="name:zh-Hans" v="巴黎司法宫"/>
    <tag k="name:zh-Hant" v="巴黎司法宮"/>
    <tag k="operator" v="Ministère de la Justice"/>
    <tag k="ref:mhs" v="PA00085991"/>
    <tag k="source" v="data.gouv.fr:Ministère de la Culture - 08/2011, cadastre-dgi-fr source : Direction Générale des Impôts - Cadastre. Mise à jour : 2010"/>
    <tag k="tourism" v="attraction"/>
    <tag k="type" v="multipolygon"/>
    <tag k="wikidata" v="Q143080"/>
    <tag k="wikimedia_commons" v="Category:Palais de justice de Paris"/>
    <tag k="wikipedia" v="fr:Palais de justice de Paris"/>
  </relation>
  <relation id="537232" version="3" timestamp="2018-02-02T14:04:10Z" changeset="55996902" uid="195017" user="Julien39">
    <member type="way" ref="53596328" role="outer"/>
    <member type="way" ref="53596348" role="inner"/>
    <tag k="addr:city" v="Paris"/>
    <tag k="addr:housenumber" v="3"/>
    <tag k="addr:postcode" v="75001"/>
    <tag k="addr:street" v="Rue des Deux Boules"/>
    <tag k="amenity" v="arts_centre"/>
    <tag k="building" v="yes"/>
    <tag k="email" v="info@maisonvda.com"/>
    <tag k="name" v="Maison du Val d'Aoste"/>
    <tag k="phone" v="+33 1 44 50 13 50"/>
    <tag k="type" v="multipolygon"/>
    <tag k="website" v="http://www.maisonvda.com"/>
  </relation>
  <relation id="538908" version="31" timestamp="2024-07-10T14:09:17Z" changeset="153786595" uid="1205555" user="benoitdd">
    <member type="way" ref="53770907" role="outer"/>
    <member type="way" ref="53770905" role="inner"/>
    <member type="way" ref="53770909" role="inner"/>
    <tag k="addr:city" v="Paris"/>
    <tag k="addr:postcode" v="75001"/>
    <tag k="amenity" v="social_centre"/>
    <tag k="building" v="yes"/>
    <tag k="internet_access" v="wlan"/>
    <tag k="internet_access:fee" v="no"/>
    <tag k="internet_access:operator" v="Mairie de Paris"/>
    <tag k="name" v="Mairie du 1er arrondissement"/>
    <tag k="name:ru" v="Городской совет района 1"/>
    <tag k="source" v="cadastre-dgi-fr source : Direction Générale des Impôts - Cadastre. Mise à jour : 2009"/>
    <tag k="source:internet_access" v="Paris Open Data"/>
    <tag k="type" v="multipolygon"/>
    <tag k="wikidata" v="Q3278495"/>
  </relation>
  <relation id="2426462" version="3" timestamp="2022-05-11T03:27:38Z" changeset="120817073" uid="10731965" user="Hydrel">
    <member type="way" ref="53772766" role="outer"/>
    <member type="way" ref="53772775" role="inner"/>
    <tag k="addr:city" v="Paris"/>
    <tag k="addr:housenumber" v="22"/>
    <tag k="addr:postcode" v="75001"/>
    <tag k="addr:street" v="Quai du Louvre"/>
    <tag k="building" v="apartments"/>
    <tag k="building:levels" v="6"/>
    <tag k="type" v="multipolygon"/>
  </relation>
  <relation id="3075632" version="8" timestamp="2023-08-20T19:38:47Z" changeset="140149153" uid="3610826" user="km2bp">
    <member type="way" ref="53691705" role="outer"/>
    <member type="way" ref="229376403" role="outer"/>
    <tag k="architect" v="Frantz Jourdain;Henri Sauvage"/>
    <tag k="building" v="retail"/>
    <tag k="heritage" v="3"/>
    <tag k="heritage:operator" v="mhs"/>
    <tag k="image" v="https://photos.app.goo.gl/DErHBRJvXmYSK8db6"/>
    <tag k="mhs:inscription_date" v="1990-07-25"/>
    <tag k="name" v="La Samaritaine"/>
    <tag k="ref:mhs" v="PA00086005"/>
    <tag k="source" v="cadastre-dgi-fr source : Direction Générale des Impôts - Cadastre. Mise à jour : 2010"/>
    <tag k="source:architect" v="data.culture.gouv.fr:Ministère de la Culture - 2020-07"/>
    <tag k="source:heritage" v="data.culture.gouv.fr:Ministère de la Culture - 2020-07"/>
    <tag k="tourism" v="attraction"/>
    <tag k="type" v="multipolygon"/>
    <tag k="website" v="https://www.lasamaritaine.com/"/>
    <tag k="wikidata" v="Q1583780"/>
    <tag k="wikipedia" v="fr:La Samaritaine"/>
  </relation>
  <relation id="3075633" version="3" timestamp="2025-01-07T04:27:18Z" changeset="161082016" uid="22068719" user="EvelinaGas">
    <member type="way" ref="53691705" role="outer"/>
    <member type="way" ref="229376404" role="outer"/>
    <tag k="amenity" v="restaurant"/>
    <tag k="building" v="yes"/>
    <tag k="building:levels" v="11"/>
    <tag k="building:levels:underground" v="3"/>
    <tag k="height" v="27"/>
    <tag k="name" v="Hakuba"/>
    <tag k="type" v="multipolygon"/>
  </relation>
  <relation id="3262297" version="52" timestamp="2025-05-04T18:27:41Z" changeset="165813744" uid="22579215" user="fhqi819hds91">
    <member type="way" ref="53813362" role="outer"/>
    <member type="way" ref="53814916" role="inner"/>
    <member type="way" ref="53814914" role="inner"/>
    <member type="way" ref="53814919" role="inner"/>
    <member type="way" ref="53814917" role="inner"/>
    <member type="way" ref="53813363" role="inner"/>
    <member type="way" ref="53814915" role="inner"/>
    <tag k="addr:city" v="Paris"/>
    <tag k="addr:postcode" v="75001"/>
    <tag k="alt_name:zh" v="卢浮宫"/>
    <tag k="building" v="castle"/>
    <tag k="building:levels" v="3"/>
    <tag k="castle_type" v="stately"/>
    <tag k="heritage" v="2"/>
    <tag k="historic" v="castle"/>
    <tag k="image" v="http://upload.wikimedia.org/wikipedia/commons/6/66/Louvre_Museum_Wikimedia_Commons.jpg"/>
    <tag k="image:0" v="https://photos.app.goo.gl/nvWhqUJ2HyqyL2jr5"/>
    <tag k="image:panorama" v="http://upload.wikimedia.org/wikipedia/commons/d/d2/Jardin_du_Carrousel.jpg"/>
    <tag k="importance" v="international"/>
    <tag k="name" v="Palais du Louvre"/>
    <tag k="name:de" v="Louvre"/>
    <tag k="name:en" v="Louvre Palace"/>
    <tag k="name:fr" v="Palais du Louvre"/>
    <tag k="name:it" v="Palazzo del Louvre"/>
    <tag k="name:ja" v="ルーブル美術館"/>
    <tag k="name:pl" v="Luwr"/>
    <tag k="name:ru" v="Лувр"/>
    <tag k="name:zh" v="卢浮宫博物馆"/>
    <tag k="name:zh-Hans" v="卢浮宫博物馆"/>
    <tag k="name:zh-Hant" v="羅浮宮博物館"/>
    <tag k="note" v="This is for the LOUVRE PALACE and includes only the building itself. DO NOT MIX IT UP WITH THE LOUVRE MUSEUM!"/>
    <tag k="phone" v="+33 1 40205050"/>
    <tag k="roof:material" v="metal"/>
    <tag k="source" v="cadastre-dgi-fr source : Direction Générale des Impôts - Cadastre. Mise à jour : 2010"/>
    <tag k="toilets:wheelchair" v="yes"/>
    <tag k="tourism" v="attraction"/>
    <tag k="type" v="multipolygon"/>
    <tag k="website" v="https://www.louvre.fr/"/>
    <tag k="wheelchair" v="yes"/>
    <tag k="wikidata" v="Q1075988"/>
    <tag k="wikipedia" v="fr:Palais du Louvre"/>
  </relation>
  <relation id="3344870" version="41" timestamp="2025-05-04T18:27:41Z" changeset="165813744" uid="22579215" user="fhqi819hds91">
    <member type="way" ref="53567913" role="outer"/>
    <member type="way" ref="248296369" role="outer"/>
    <member type="way" ref="248296345" role="outer"/>
    <member type="way" ref="248296381" role="outer"/>
    <member type="way" ref="248296341" role="outer"/>
    <member type="way" ref="248296378" role="outer"/>
    <member type="way" ref="248296336" role="outer"/>
    <member type="way" ref="248296375" role="outer"/>
    <member type="way" ref="248296328" role="outer"/>
    <member type="way" ref="248296367" role="outer"/>
    <member type="way" ref="248296346" role="outer"/>
    <member type="way" ref="248296363" role="outer"/>
    <member type="way" ref="248296343" role="outer"/>
    <member type="way" ref="248296362" role="outer"/>
    <member type="way" ref="248296386" role="outer"/>
    <member type="way" ref="248296358" role="outer"/>
    <member type="way" ref="248296337" role="outer"/>
    <member type="way" ref="248296376" role="outer"/>
    <member type="way" ref="248296329" role="outer"/>
    <member type="way" ref="248296373" role="outer"/>
    <member type="way" ref="248296388" role="outer"/>
    <member type="way" ref="248296319" role="outer"/>
    <member type="way" ref="248296355" role="outer"/>
    <member type="way" ref="248296372" role="outer"/>
    <member type="way" ref="248296351" role="outer"/>
    <member type="way" ref="248296365" role="outer"/>
    <member type="way" ref="248296335" role="outer"/>
    <member type="way" ref="248296380" role="outer"/>
    <member type="way" ref="248296353" role="outer"/>
    <member type="way" ref="248296371" role="outer"/>
    <member type="way" ref="248296349" role="outer"/>
    <member type="way" ref="248296370" role="outer"/>
    <member type="way" ref="248296383" role="outer"/>
    <member type="way" ref="248296387" role="outer"/>
    <member type="way" ref="248296368" role="outer"/>
    <member type="way" ref="248296340" role="outer"/>
    <member type="way" ref="248296364" role="outer"/>
    <member type="way" ref="248296333" role="outer"/>
    <member type="way" ref="248296379" role="outer"/>
    <member type="way" ref="248296325" role="outer"/>
    <tag k="addr:housenumber" v="8"/>
    <tag k="addr:postcode" v="75001"/>
    <tag k="addr:street" v="Boulevard du Palais"/>
    <tag k="amenity" v="place_of_worship"/>
    <tag k="building" v="church"/>
    <tag k="building:facade:colour" v="#F2EBD8"/>
    <tag k="building:part" v="no"/>
    <tag k="check_date" v="2024-02-15"/>
    <tag k="denomination" v="roman_catholic"/>
    <tag k="fare" v="full:11,5;group 9,5"/>
    <tag k="fee" v="yes"/>
    <tag k="height" v="75"/>
    <tag k="heritage" v="2"/>
    <tag k="heritage:operator" v="mhs"/>
    <tag k="language:audioguides:de" v="yes"/>
    <tag k="language:audioguides:en" v="yes"/>
    <tag k="language:audioguides:es" v="yes"/>
    <tag k="language:audioguides:fr" v="yes"/>
    <tag k="language:audioguides:it" v="yes"/>
    <tag k="language:audioguides:ja" v="yes"/>
    <tag k="language:brochures:de" v="yes"/>
    <tag k="language:brochures:en" v="yes"/>
    <tag k="language:brochures:es" v="yes"/>
    <tag k="language:brochures:fr" v="yes"/>
    <tag k="language:brochures:it" v="yes"/>
    <tag k="language:brochures:ja" v="yes"/>
    <tag k="language:brochures:nl" v="yes"/>
    <tag k="language:brochures:pl" v="yes"/>
    <tag k="language:brochures:pt" v="yes"/>
    <tag k="language:brochures:ru" v="yes"/>
    <tag k="language:brochures:zh" v="yes"/>
    <tag k="language:guides:fr" v="yes"/>
    <tag k="mhs:inscription_date" v="1862"/>
    <tag k="name" v="Sainte-Chapelle"/>
    <tag k="name:ar" v="سانت شابيل"/>
    <tag k="name:ja" v="サントシャペル協会"/>
    <tag k="name:ko" v="생트 샤펠 성당"/>
    <tag k="name:ru" v="Святая Капелла"/>
    <tag k="name:zh" v="聖徒禮拜堂"/>
    <tag k="name:zh-Hans" v="圣徒礼拜堂"/>
    <tag k="name:zh-Hant" v="聖徒禮拜堂"/>
    <tag k="opening_hours" v="Jan-Mar 09:00-17:00; Apr-Sep 09:00-19:00; Oct-Dec 09:00-17:00"/>
    <tag k="operator" v="Centre des monuments nationaux"/>
    <tag k="phone" v="+33153406080"/>
    <tag k="ref:mhs" v="PA00086001"/>
    <tag k="religion" v="christian"/>
    <tag k="roof:colour" v="#F2EBD8"/>
    <tag k="source" v="cadastre-dgi-fr source : Direction Générale des Impôts - Cadastre. Mise à jour : 2010"/>
    <tag k="start_date" v="1248"/>
    <tag k="tourism" v="museum"/>
    <tag k="type" v="multipolygon"/>
    <tag k="website" v="http://sainte-chapelle.monuments-nationaux.fr/"/>
    <tag k="wheelchair" v="yes"/>
    <tag k="wikidata" v="Q193193"/>
    <tag k="wikimedia_commons" v="Category:Sainte-Chapelle (Paris)"/>
    <tag k="wikipedia" v="fr:Sainte-Chapelle"/>
  </relation>
  <relation id="13452556" version="3" timestamp="2022-11-22T01:55:20Z" changeset="129217450" uid="5653955" user="Timmy_Tesseract">
    <member type="way" ref="278497602" role="outer"/>
    <member type="way" ref="1003830775" role="inner"/>
    <member type="way" ref="1003830776" role="outer"/>
    <tag k="building" v="yes"/>
    <tag k="building:levels" v="0"/>
    <tag k="building:levels:underground" v="2"/>
    <tag k="layer" v="-1"/>
    <tag k="level" v="1;-2"/>
    <tag k="location" v="underground"/>
    <tag k="name" v="Carrousel du Louvre"/>
    <tag k="operator" v="Unibail - Rodamco"/>
    <tag k="shop" v="mall"/>
    <tag k="type" v="multipolygon"/>
    <tag k="website" v="https://www.carrouseldulouvre.com/"/>
    <tag k="wheelchair" v="yes"/>
    <tag k="wikidata" v="Q2940350"/>
    <tag k="wikipedia" v="fr:Carrousel du Louvre"/>
  </relation>

</osm>
