<?xml version="1.0" encoding="UTF-8"?>
<osm version="0.6" generator="Overpass API 0.7.62.5 1bd436f1">
<note>The data included in this document is from www.openstreetmap.org. The data is made available under ODbL.</note>
<meta osm_base="2025-05-18T02:57:29Z" areas="2024-12-31T00:49:33Z"/>

  <node id="363194" lat="48.1486898" lon="11.5524260" version="5" timestamp="2012-03-14T10:10:25Z" changeset="10976088" uid="42393" user="mawi42"/>
  <node id="363196" lat="48.1498133" lon="11.5467644" version="9" timestamp="2024-03-26T22:36:35Z" changeset="149197968" uid="14742734" user="The_Nickname">
    <tag k="button_operated" v="yes"/>
    <tag k="crossing" v="traffic_signals"/>
    <tag k="crossing:island" v="no"/>
    <tag k="highway" v="crossing"/>
  </node>
  <node id="398692" lat="48.1452196" lon="11.5414971" version="20" timestamp="2015-10-15T10:53:28Z" changeset="34651972" uid="2290263" user="soemisch">
    <tag k="tmc" v="DE:35375"/>
  </node>
  <node id="1956111" lat="48.1480635" lon="11.5557095" version="8" timestamp="2015-10-14T15:12:07Z" changeset="34635081" uid="2290263" user="soemisch"/>
  <node id="1956113" lat="48.1471532" lon="11.5438127" version="3" timestamp="2013-11-27T08:41:29Z" changeset="19140124" uid="109029" user="shorty_de"/>
  <node id="1956126" lat="48.1495848" lon="11.5479341" version="8" timestamp="2016-12-01T19:37:32Z" changeset="44095132" uid="8748" user="ToniE"/>
  <node id="1956142" lat="48.1491605" lon="11.5500663" version="5" timestamp="2017-01-08T19:41:19Z" changeset="45010050" uid="14390" user="BeKri"/>
  <node id="13883943" lat="48.1455320" lon="11.5580608" version="6" timestamp="2012-03-14T18:53:45Z" changeset="10980971" uid="13832" user="Peter14"/>
  <node id="20980554" lat="48.1475789" lon="11.5587614" version="13" timestamp="2015-10-14T15:12:07Z" changeset="34635081" uid="2290263" user="soemisch">
    <tag k="tmc" v="DE:27959;DE:27999"/>
  </node>
  <node id="20981711" lat="48.1436485" lon="11.5568402" version="9" timestamp="2021-02-08T21:17:29Z" changeset="98931610" uid="11895847" user="rigilk3nt">
    <tag k="TMC:cid_58:tabcd_1:Class" v="Point"/>
    <tag k="TMC:cid_58:tabcd_1:Direction" v="positive"/>
    <tag k="TMC:cid_58:tabcd_1:LCLversion" v="9.00"/>
    <tag k="TMC:cid_58:tabcd_1:LocationCode" v="35376"/>
    <tag k="TMC:cid_58:tabcd_1:NextLocationCode" v="35377"/>
    <tag k="TMC:cid_58:tabcd_1:PrevLocationCode" v="35375"/>
  </node>
  <node id="21026891" lat="48.1436964" lon="11.5570837" version="13" timestamp="2021-02-08T21:17:29Z" changeset="98931610" uid="11895847" user="rigilk3nt">
    <tag k="TMC:cid_58:tabcd_1:Class" v="Point"/>
    <tag k="TMC:cid_58:tabcd_1:Direction" v="negative"/>
    <tag k="TMC:cid_58:tabcd_1:LCLversion" v="9.00"/>
    <tag k="TMC:cid_58:tabcd_1:LocationCode" v="35376"/>
    <tag k="TMC:cid_58:tabcd_1:NextLocationCode" v="35377"/>
    <tag k="TMC:cid_58:tabcd_1:PrevLocationCode" v="35375"/>
  </node>
  <node id="21324003" lat="48.1421070" lon="11.5560807" version="6" timestamp="2015-10-27T16:40:36Z" changeset="34907255" uid="2385132" user="MENTZ_TU">
    <tag k="TMC:cid_58:tabcd_1:Class" v="Point"/>
    <tag k="TMC:cid_58:tabcd_1:Direction" v="negative"/>
    <tag k="TMC:cid_58:tabcd_1:LCLversion" v="9.00"/>
    <tag k="TMC:cid_58:tabcd_1:LocationCode" v="35369"/>
    <tag k="TMC:cid_58:tabcd_1:NextLocationCode" v="35370"/>
    <tag k="TMC:cid_58:tabcd_1:PrevLocationCode" v="35368"/>
  </node>
  <node id="21324004" lat="48.1420973" lon="11.5562338" version="9" timestamp="2015-10-27T16:40:36Z" changeset="34907255" uid="2385132" user="MENTZ_TU">
    <tag k="TMC:cid_58:tabcd_1:Class" v="Point"/>
    <tag k="TMC:cid_58:tabcd_1:Direction" v="negative"/>
    <tag k="TMC:cid_58:tabcd_1:LCLversion" v="9.00"/>
    <tag k="TMC:cid_58:tabcd_1:LocationCode" v="35357"/>
    <tag k="TMC:cid_58:tabcd_1:NextLocationCode" v="35358"/>
    <tag k="TMC:cid_58:tabcd_1:PrevLocationCode" v="35356"/>
  </node>
  <node id="21324383" lat="48.1468775" lon="11.5439679" version="4" timestamp="2011-08-04T17:20:49Z" changeset="8921564" uid="8748" user="ToniE"/>
  <node id="31297413" lat="48.1493609" lon="11.5427257" version="2" timestamp="2008-09-21T19:52:26Z" changeset="675158" uid="9402" user="ludwich"/>
  <node id="268098211" lat="48.1442398" lon="11.5424654" version="18" timestamp="2023-03-05T21:17:05Z" changeset="133341145" uid="536583" user="Strubbl">
    <tag k="crossing" v="unmarked"/>
    <tag k="crossing:island" v="no"/>
    <tag k="crossing:markings" v="no"/>
    <tag k="highway" v="crossing"/>
    <tag k="kerb" v="lowered"/>
    <tag k="tactile_paving" v="no"/>
  </node>
  <node id="309890117" lat="48.1427111" lon="11.5528729" version="7" timestamp="2012-05-10T19:48:21Z" changeset="11562366" uid="367380" user="Mloni"/>
  <node id="353290785" lat="48.1435697" lon="11.5487827" version="10" timestamp="2025-05-08T09:41:14Z" changeset="165973913" uid="16061279" user="YellowSoul">
    <tag k="TMC:cid_58:tabcd_1:Class" v="Point"/>
    <tag k="TMC:cid_58:tabcd_1:Direction" v="both"/>
    <tag k="TMC:cid_58:tabcd_1:LCLversion" v="9.00"/>
    <tag k="TMC:cid_58:tabcd_1:LocationCode" v="61453"/>
    <tag k="TMC:cid_58:tabcd_1:PrevLocationCode" v="61452"/>
    <tag k="crossing:barrier" v="no"/>
    <tag k="railway" v="tram_level_crossing"/>
  </node>
  <node id="480314303" lat="48.1448170" lon="11.5425827" version="3" timestamp="2011-10-30T16:47:20Z" changeset="9695595" uid="534662" user="Q12"/>
  <node id="737219016" lat="48.1425278" lon="11.5540608" version="8" timestamp="2022-11-21T16:19:29Z" changeset="129203875" uid="8225234" user="94621">
    <tag k="button_operated" v="yes"/>
    <tag k="crossing" v="traffic_signals"/>
    <tag k="crossing_ref" v="toucan"/>
    <tag k="highway" v="traffic_signals"/>
  </node>
  <node id="774634238" lat="48.1493095" lon="11.5488868" version="7" timestamp="2024-09-25T22:38:30Z" changeset="157104041" uid="14742734" user="The_Nickname">
    <tag k="crossing:markings" v="no"/>
    <tag k="crossing:signals" v="no"/>
    <tag k="highway" v="crossing"/>
    <tag k="tactile_paving" v="no"/>
  </node>
  <node id="814227811" lat="48.1431584" lon="11.5503752" version="6" timestamp="2012-04-21T15:02:06Z" changeset="11374628" uid="13832" user="Peter14"/>
  <node id="1012031604" lat="48.1467564" lon="11.5585014" version="5" timestamp="2015-09-29T12:57:18Z" changeset="34324708" uid="2290263" user="soemisch"/>
  <node id="1430460315" lat="48.1448592" lon="11.5428510" version="2" timestamp="2011-10-30T16:47:09Z" changeset="9695595" uid="534662" user="Q12"/>
  <node id="3161628296" lat="48.1479326" lon="11.5567469" version="1" timestamp="2014-11-01T20:25:01Z" changeset="26490251" uid="78613" user="heilbron"/>
  <node id="3212215142" lat="48.1453797" lon="11.5401933" version="1" timestamp="2014-11-30T11:18:45Z" changeset="27129113" uid="15766" user="ToB"/>
  <node id="3487635978" lat="48.1427935" lon="11.5468944" version="2" timestamp="2015-05-29T16:01:24Z" changeset="31566605" uid="29003" user="zarl"/>
  <node id="4532626873" lat="48.1498415" lon="11.5466222" version="2" timestamp="2019-06-28T09:42:51Z" changeset="71700771" uid="531886" user="drlellinger"/>
  <node id="6593561371" lat="48.1493495" lon="11.5501512" version="1" timestamp="2019-07-06T19:12:39Z" changeset="71966456" uid="531886" user="drlellinger"/>
  <way id="4060632" version="16" timestamp="2024-03-05T08:35:49Z" changeset="148239058" uid="3251916" user="Alex_mappt">
    <nd ref="1956113"/>
    <nd ref="21924917"/>
    <nd ref="1906058219"/>
    <nd ref="21924919"/>
    <nd ref="2734075594"/>
    <nd ref="2734075678"/>
    <nd ref="8938051131"/>
    <nd ref="21500001"/>
    <nd ref="8938051129"/>
    <nd ref="2541052034"/>
    <nd ref="1956115"/>
    <tag k="highway" v="residential"/>
    <tag k="lit" v="yes"/>
    <tag k="maxspeed" v="30"/>
    <tag k="name" v="Rupprechtstraße"/>
    <tag k="name:etymology:wikidata" v="Q44893"/>
    <tag k="sidewalk" v="separate"/>
    <tag k="surface" v="sett"/>
  </way>
  <way id="4098001" version="46" timestamp="2025-05-01T20:26:57Z" changeset="165693341" uid="38546" user="wikimax">
    <nd ref="3487635978"/>
    <nd ref="3556567926"/>
    <nd ref="302685400"/>
    <nd ref="2829682558"/>
    <nd ref="303137074"/>
    <nd ref="302684401"/>
    <nd ref="1084340230"/>
    <nd ref="303134748"/>
    <nd ref="12802998430"/>
    <nd ref="21585834"/>
    <nd ref="2475837800"/>
    <nd ref="1894324154"/>
    <nd ref="268098189"/>
    <nd ref="12298783978"/>
    <nd ref="8262527915"/>
    <nd ref="21585832"/>
    <tag k="bicycle" v="designated"/>
    <tag k="bicycle_road" v="yes"/>
    <tag k="class:bicycle" v="1"/>
    <tag k="highway" v="residential"/>
    <tag k="lane_markings" v="no"/>
    <tag k="lit" v="yes"/>
    <tag k="mapillary" v="489166645625682"/>
    <tag k="maxspeed" v="30"/>
    <tag k="motor_vehicle" v="yes"/>
    <tag k="name" v="Erika-Mann-Straße"/>
    <tag k="name:etymology:wikidata" v="Q61597"/>
    <tag k="parking:lane:both" v="parallel"/>
    <tag k="sidewalk" v="separate"/>
    <tag k="smoothness" v="excellent"/>
    <tag k="source:maxspeed" v="DE:bicycle_road"/>
    <tag k="surface" v="asphalt"/>
  </way>
  <way id="4513915" version="24" timestamp="2025-01-22T13:45:07Z" changeset="161638940" uid="16061279" user="YellowSoul">
    <nd ref="21324004"/>
    <nd ref="21324003"/>
    <tag k="class:bicycle" v="-2"/>
    <tag k="cycleway:both" v="no"/>
    <tag k="highway" v="tertiary"/>
    <tag k="lanes" v="2"/>
    <tag k="lit" v="yes"/>
    <tag k="maxspeed" v="50"/>
    <tag k="name" v="Arnulfstraße"/>
    <tag k="name:etymology:wikidata" v="Q64956"/>
    <tag k="oneway" v="yes"/>
    <tag k="sidewalk:left" v="no"/>
    <tag k="sidewalk:right" v="separate"/>
    <tag k="smoothness" v="intermediate"/>
    <tag k="source:maxspeed" v="DE:urban"/>
    <tag k="surface" v="asphalt"/>
    <tag k="tmc" v="DE:35357"/>
  </way>
  <way id="4592518" version="14" timestamp="2024-08-03T22:32:23Z" changeset="154791705" uid="14742734" user="The_Nickname">
    <nd ref="1012031604"/>
    <nd ref="1028580874"/>
    <nd ref="1028580770"/>
    <nd ref="1028580861"/>
    <nd ref="1028580806"/>
    <tag k="highway" v="residential"/>
    <tag k="lanes" v="1"/>
    <tag k="lit" v="yes"/>
    <tag k="maxspeed" v="50"/>
    <tag k="name" v="Dachauer Straße"/>
    <tag k="oneway" v="yes"/>
    <tag k="parking:both" v="no"/>
    <tag k="sidewalk" v="no"/>
    <tag k="surface" v="asphalt"/>
  </way>
  <way id="4592559" version="12" timestamp="2024-09-02T14:50:36Z" changeset="156102789" uid="16960231" user="DLystopadov">
    <nd ref="21632162"/>
    <nd ref="818083371"/>
    <nd ref="21619899"/>
    <nd ref="21632161"/>
    <tag k="cycleway:both" v="no"/>
    <tag k="highway" v="residential"/>
    <tag k="lit" v="yes"/>
    <tag k="maxspeed" v="50"/>
    <tag k="name" v="Spatenstraße"/>
    <tag k="oneway" v="yes"/>
    <tag k="surface" v="asphalt"/>
  </way>
  <way id="4592560" version="11" timestamp="2021-10-31T14:13:31Z" changeset="113194890" uid="7702726" user="d2quadra">
    <nd ref="21619899"/>
    <nd ref="1386432609"/>
    <nd ref="1386432610"/>
    <tag k="cycleway:both" v="no"/>
    <tag k="highway" v="residential"/>
    <tag k="lane_markings" v="no"/>
    <tag k="maxspeed" v="50"/>
    <tag k="name" v="Spatenstraße"/>
    <tag k="oneway" v="yes"/>
    <tag k="sidewalk" v="left"/>
    <tag k="surface" v="asphalt"/>
  </way>
  <way id="4645395" version="17" timestamp="2024-07-28T07:45:00Z" changeset="154508732" uid="18493611" user="MunichWays">
    <nd ref="363194"/>
    <nd ref="773301345"/>
    <tag k="class:bicycle" v="-1"/>
    <tag k="highway" v="residential"/>
    <tag k="lanes" v="1"/>
    <tag k="lit" v="yes"/>
    <tag k="maxspeed" v="30"/>
    <tag k="name" v="Erzgießereistraße"/>
    <tag k="oneway" v="yes"/>
    <tag k="sidewalk" v="no"/>
    <tag k="smoothness" v="excellent"/>
    <tag k="surface" v="asphalt"/>
  </way>
  <way id="4820410" version="46" timestamp="2023-10-22T09:08:32Z" changeset="142958062" uid="16960231" user="DLystopadov">
    <nd ref="309857388"/>
    <nd ref="739381842"/>
    <nd ref="302741837"/>
    <nd ref="3556567932"/>
    <nd ref="3487635978"/>
    <tag k="bicycle" v="yes"/>
    <tag k="class:bicycle" v="1"/>
    <tag k="cycleway:both" v="no"/>
    <tag k="highway" v="residential"/>
    <tag k="lit" v="yes"/>
    <tag k="maxspeed" v="30"/>
    <tag k="name" v="Bernhard-Wicki-Straße"/>
    <tag k="name:etymology:wikidata" v="Q78924"/>
    <tag k="parking:lane:both" v="parallel"/>
    <tag k="sidewalk" v="both"/>
    <tag k="smoothness" v="good"/>
    <tag k="surface" v="asphalt"/>
  </way>
  <way id="19371988" version="35" timestamp="2024-07-31T18:34:43Z" changeset="154663530" uid="6407047" user="eggwatch">
    <nd ref="201409893"/>
    <nd ref="303792509"/>
    <nd ref="303792510"/>
    <nd ref="1317214652"/>
    <nd ref="1317215690"/>
    <nd ref="1317214539"/>
    <nd ref="1317215469"/>
    <nd ref="3700231643"/>
    <nd ref="1317215259"/>
    <nd ref="3700231640"/>
    <nd ref="5171976717"/>
    <nd ref="1317215020"/>
    <nd ref="201409895"/>
    <nd ref="3700231647"/>
    <nd ref="1317215125"/>
    <nd ref="1317214897"/>
    <nd ref="303792474"/>
    <nd ref="303792475"/>
    <nd ref="303792183"/>
    <nd ref="7449170354"/>
    <nd ref="1914494454"/>
    <nd ref="1914494455"/>
    <nd ref="5171976701"/>
    <nd ref="5171976700"/>
    <nd ref="5171976699"/>
    <nd ref="5171976698"/>
    <nd ref="303792184"/>
    <nd ref="5171976711"/>
    <nd ref="5171976710"/>
    <nd ref="5171976712"/>
    <nd ref="303792185"/>
    <nd ref="5521423363"/>
    <nd ref="201409900"/>
    <nd ref="3700231648"/>
    <nd ref="2773973810"/>
    <nd ref="3700235673"/>
    <nd ref="303792186"/>
    <nd ref="201409893"/>
    <tag k="addr:city" v="München"/>
    <tag k="addr:housenumber" v="4"/>
    <tag k="addr:postcode" v="80335"/>
    <tag k="addr:street" v="Marsplatz"/>
    <tag k="building" v="yes"/>
    <tag k="name" v="Deutsche Telekom Technik GmbH"/>
  </way>
  <way id="19373058" version="29" timestamp="2022-02-17T14:45:03Z" changeset="117525111" uid="15109379" user="Berufsschule Metall-Design-Mechatronik">
    <nd ref="201423067"/>
    <nd ref="201423068"/>
    <nd ref="201423070"/>
    <nd ref="201423071"/>
    <nd ref="201423072"/>
    <nd ref="201423073"/>
    <nd ref="201423074"/>
    <nd ref="201423075"/>
    <nd ref="201423079"/>
    <nd ref="1659974364"/>
    <nd ref="303208363"/>
    <nd ref="303208365"/>
    <nd ref="201423081"/>
    <nd ref="201423082"/>
    <nd ref="303208358"/>
    <nd ref="303208359"/>
    <nd ref="201423083"/>
    <nd ref="2475788263"/>
    <nd ref="2475788242"/>
    <nd ref="201423067"/>
    <tag k="addr:city" v="München"/>
    <tag k="addr:country" v="DE"/>
    <tag k="addr:housenumber" v="1"/>
    <tag k="addr:postcode" v="80335"/>
    <tag k="addr:street" v="Deroystraße"/>
    <tag k="building" v="school"/>
    <tag k="building:levels" v="5"/>
    <tag k="operator" v="Landeshauptstadt München"/>
    <tag k="roof:levels" v="0"/>
    <tag k="wheelchair" v="no"/>
  </way>
  <way id="26558455" version="32" timestamp="2022-11-04T19:28:32Z" changeset="128497888" uid="536583" user="Strubbl">
    <nd ref="303144586"/>
    <nd ref="291136034"/>
    <nd ref="2595938023"/>
    <nd ref="291136035"/>
    <nd ref="1289034293"/>
    <nd ref="5398388928"/>
    <nd ref="5398388929"/>
    <nd ref="5398388930"/>
    <nd ref="3102481779"/>
    <nd ref="291136126"/>
    <nd ref="291136387"/>
    <nd ref="1289038693"/>
    <nd ref="1289038692"/>
    <nd ref="2475749804"/>
    <nd ref="1289038690"/>
    <nd ref="6521874509"/>
    <nd ref="303144586"/>
    <tag k="addr:city" v="München"/>
    <tag k="addr:housenumber" v="4"/>
    <tag k="addr:postcode" v="80335"/>
    <tag k="addr:street" v="Arnulfstraße"/>
    <tag k="amenity" v="Rundfunkhaus"/>
    <tag k="building" v="yes"/>
    <tag k="building:levels" v="17"/>
    <tag k="layer" v="1"/>
    <tag k="name:de" v="BR-Funkhaus"/>
    <tag k="name:en" v="Bavarian Broadcasting"/>
    <tag k="phone" v="+49 89 590001"/>
    <tag k="website" v="https://www.br.de/index.html"/>
    <tag k="wheelchair" v="yes"/>
    <tag k="wheelchair:description" v="Klingel + Automatiktür (nicht die Drehtür)"/>
    <tag k="wikidata" v="Q278637"/>
    <tag k="wikipedia" v="de:Bayerischer Rundfunk"/>
  </way>
  <way id="26612843" version="21" timestamp="2024-09-02T14:54:59Z" changeset="156102789" uid="16960231" user="DLystopadov">
    <nd ref="302715923"/>
    <nd ref="21632177"/>
    <nd ref="480314301"/>
    <nd ref="268098211"/>
    <tag k="cycleway:both" v="shared_lane"/>
    <tag k="cycleway:both:lane" v="pictogram"/>
    <tag k="highway" v="residential"/>
    <tag k="lit" v="yes"/>
    <tag k="maxspeed" v="30"/>
    <tag k="name" v="Marlene-Dietrich-Straße"/>
    <tag k="name:etymology:wikidata" v="Q4612"/>
    <tag k="parking:lane:both" v="parallel"/>
    <tag k="surface" v="asphalt"/>
  </way>
  <way id="26836882" version="25" timestamp="2025-04-01T16:21:09Z" changeset="164383142" uid="170763" user="SoulCover">
    <nd ref="1956126"/>
    <nd ref="4784572785"/>
    <nd ref="12211594634"/>
    <nd ref="2734313823"/>
    <nd ref="3749201425"/>
    <nd ref="8419157389"/>
    <nd ref="363196"/>
    <tag k="bicycle" v="use_sidepath"/>
    <tag k="foot" v="use_sidepath"/>
    <tag k="highway" v="secondary"/>
    <tag k="lanes" v="2"/>
    <tag k="lit" v="yes"/>
    <tag k="maxspeed" v="50"/>
    <tag k="name" v="Nymphenburger Straße"/>
    <tag k="sidewalk" v="separate"/>
    <tag k="smoothness" v="good"/>
    <tag k="source:maxspeed" v="DE:urban"/>
    <tag k="surface" v="asphalt"/>
  </way>
  <way id="26836883" version="18" timestamp="2025-02-19T18:36:29Z" changeset="162713041" uid="22537807" user="CityMappingSuperhero">
    <nd ref="363193"/>
    <nd ref="11363576977"/>
    <nd ref="363194"/>
    <nd ref="8233658063"/>
    <nd ref="8233658056"/>
    <nd ref="4102962074"/>
    <nd ref="1956142"/>
    <tag k="bicycle" v="use_sidepath"/>
    <tag k="foot" v="use_sidepath"/>
    <tag k="highway" v="secondary"/>
    <tag k="lanes" v="2"/>
    <tag k="maxspeed" v="50"/>
    <tag k="name" v="Nymphenburger Straße"/>
    <tag k="sidewalk" v="separate"/>
    <tag k="surface" v="asphalt"/>
  </way>
  <way id="27567632" version="33" timestamp="2023-05-04T18:02:15Z" changeset="135711892" uid="12120321" user="bollyboll">
    <nd ref="302696303"/>
    <nd ref="303134751"/>
    <nd ref="2858907408"/>
    <nd ref="302696304"/>
    <nd ref="302730527"/>
    <nd ref="2475788300"/>
    <nd ref="303202865"/>
    <nd ref="302696306"/>
    <nd ref="302730456"/>
    <nd ref="302696307"/>
    <nd ref="302729446"/>
    <nd ref="302729447"/>
    <nd ref="302729448"/>
    <nd ref="302729449"/>
    <nd ref="302696303"/>
    <tag k="building" v="apartments"/>
    <tag k="name" v="VELUM"/>
    <tag k="note" v="könnte auch noch weitere Hausnummern haben"/>
    <tag k="roof:shape" v="flat"/>
  </way>
  <way id="27568819" version="41" timestamp="2024-10-16T15:54:37Z" changeset="157971875" uid="22038202" user="digital analyst3">
    <nd ref="2663133160"/>
    <nd ref="302711130"/>
    <nd ref="2475788475"/>
    <nd ref="302711131"/>
    <nd ref="2858907401"/>
    <nd ref="302711132"/>
    <nd ref="2663133157"/>
    <nd ref="302711353"/>
    <nd ref="4167798710"/>
    <nd ref="302711134"/>
    <nd ref="1843099541"/>
    <nd ref="1843099537"/>
    <nd ref="302711355"/>
    <nd ref="2663133159"/>
    <nd ref="2663133160"/>
    <tag k="addr:city" v="München"/>
    <tag k="addr:country" v="DE"/>
    <tag k="addr:housenumber" v="35"/>
    <tag k="addr:postcode" v="80636"/>
    <tag k="addr:street" v="Arnulfstraße"/>
    <tag k="brand" v="Eurostars Hotel Company"/>
    <tag k="brand:wikidata" v="Q8846494"/>
    <tag k="building" v="yes"/>
    <tag k="email" v="info@eurostarsgrandcentral.com"/>
    <tag k="fax" v="+49 (0) 89-516574188"/>
    <tag k="internet_access" v="wlan"/>
    <tag k="name" v="Eurostars Grand Central"/>
    <tag k="operator" v="Hotusa Group"/>
    <tag k="phone" v="+49 89 5165740"/>
    <tag k="stars" v="4"/>
    <tag k="tourism" v="hotel"/>
    <tag k="website" v="https://www.eurostarshotels.de/eurostars-grand-central.html"/>
    <tag k="wheelchair" v="yes"/>
  </way>
  <way id="27569272" version="32" timestamp="2023-07-17T09:57:40Z" changeset="138614109" uid="531886" user="drlellinger">
    <nd ref="302716002"/>
    <nd ref="1843099373"/>
    <nd ref="1843099375"/>
    <nd ref="1843099377"/>
    <nd ref="1843099395"/>
    <nd ref="1843099397"/>
    <nd ref="1843099381"/>
    <nd ref="1843099385"/>
    <nd ref="1843099386"/>
    <nd ref="1843099388"/>
    <nd ref="1843099417"/>
    <nd ref="1843099421"/>
    <nd ref="1843099390"/>
    <nd ref="302716003"/>
    <nd ref="2475788229"/>
    <nd ref="302716004"/>
    <nd ref="1843099467"/>
    <nd ref="1843099463"/>
    <nd ref="1843099458"/>
    <nd ref="2475788417"/>
    <nd ref="1843099413"/>
    <nd ref="1843099396"/>
    <nd ref="2475788438"/>
    <nd ref="1843099435"/>
    <nd ref="1843099430"/>
    <nd ref="1843099428"/>
    <nd ref="302716005"/>
    <nd ref="302698917"/>
    <nd ref="4758755209"/>
    <nd ref="304144045"/>
    <nd ref="302698913"/>
    <nd ref="2475788288"/>
    <nd ref="304144044"/>
    <nd ref="302698911"/>
    <nd ref="1843099360"/>
    <nd ref="302716002"/>
    <tag k="architect" v="Bothe Richter Teherani Architekten"/>
    <tag k="building" v="office"/>
    <tag k="name" v="Skygarden"/>
    <tag k="roof:shape" v="flat"/>
    <tag k="start_date" v="2011"/>
    <tag k="website" v="https://www.caimmo.com/de/portfolio/projekt/skygarden/"/>
  </way>
  <way id="27570587" version="12" timestamp="2023-12-13T20:15:01Z" changeset="145088388" uid="536583" user="Strubbl">
    <nd ref="302728025"/>
    <nd ref="302728026"/>
    <nd ref="2338018517"/>
    <nd ref="2338018503"/>
    <nd ref="2475749797"/>
    <nd ref="2475749812"/>
    <nd ref="302728027"/>
    <nd ref="302728028"/>
    <nd ref="2338018523"/>
    <nd ref="2338018522"/>
    <nd ref="2338018520"/>
    <nd ref="2338018521"/>
    <nd ref="2338018519"/>
    <nd ref="2338018518"/>
    <nd ref="2338018483"/>
    <nd ref="2338018487"/>
    <nd ref="2338018469"/>
    <nd ref="302728025"/>
    <tag k="addr:city" v="München"/>
    <tag k="addr:country" v="DE"/>
    <tag k="addr:housenumber" v="50"/>
    <tag k="addr:postcode" v="80335"/>
    <tag k="addr:street" v="Arnulfstraße"/>
    <tag k="building" v="office"/>
    <tag k="designation" v="Bausparkasse"/>
    <tag k="email" v="info-by@lbs-sued.de"/>
    <tag k="fax" v="+49 89 41113-47000"/>
    <tag k="housename" v="LBS Landesbausparkasse Süd"/>
    <tag k="name" v="LBS Landesbausparkasse Süd"/>
    <tag k="office" v="financial"/>
    <tag k="phone" v="+49 89 41113-0"/>
    <tag k="roof:levels" v="12"/>
    <tag k="website" v="https://www.lbs.de/"/>
  </way>
  <way id="27572226" version="22" timestamp="2024-10-22T21:44:48Z" changeset="158230359" uid="137242" user="Rainero">
    <nd ref="302741121"/>
    <nd ref="302741122"/>
    <nd ref="5489351427"/>
    <nd ref="303203709"/>
    <nd ref="302741124"/>
    <nd ref="2475788351"/>
    <nd ref="302741121"/>
    <tag k="building" v="public"/>
    <tag k="building:levels" v="1"/>
    <tag k="contact:website" v="https://www.finanzamt.bayern/"/>
    <tag k="government" v="tax"/>
    <tag k="name" v="Finanzamt München Servicezentrum"/>
    <tag k="office" v="government"/>
    <tag k="opening_hours" v="Mo-We 07:30-16:00; Th 07:30-18:00; Fr 07:30-12:30"/>
    <tag k="roof:levels" v="0"/>
  </way>
  <way id="27572252" version="13" timestamp="2021-05-04T14:42:33Z" changeset="104131357" uid="531886" user="drlellinger">
    <nd ref="2744921117"/>
    <nd ref="302741373"/>
    <nd ref="1843099581"/>
    <nd ref="302741374"/>
    <nd ref="302741375"/>
    <nd ref="302741376"/>
    <nd ref="302741377"/>
    <nd ref="1843099552"/>
    <nd ref="302741378"/>
    <nd ref="302741380"/>
    <nd ref="302741381"/>
    <nd ref="302741382"/>
    <nd ref="302741383"/>
    <nd ref="302741384"/>
    <nd ref="302741385"/>
    <nd ref="302741386"/>
    <nd ref="302741387"/>
    <nd ref="1843099614"/>
    <nd ref="302741388"/>
    <nd ref="302741389"/>
    <nd ref="302741390"/>
    <nd ref="302741391"/>
    <nd ref="302741392"/>
    <nd ref="302741393"/>
    <nd ref="1843099600"/>
    <nd ref="1843099602"/>
    <nd ref="2744921117"/>
    <tag k="building" v="yes"/>
    <tag k="building:levels" v="1"/>
    <tag k="historic" v="building"/>
    <tag k="name" v="Postpalast"/>
    <tag k="old_name" v="Paketzustellamt"/>
    <tag k="wikidata" v="Q26845685"/>
    <tag k="wikipedia" v="de:Arnulfstraße 62"/>
  </way>
  <way id="27572611" version="40" timestamp="2023-01-24T04:15:39Z" changeset="131632060" uid="461130" user="Fizzie-DWG">
    <nd ref="302743385"/>
    <nd ref="303208344"/>
    <nd ref="303207979"/>
    <nd ref="302743386"/>
    <nd ref="303207980"/>
    <nd ref="303208291"/>
    <nd ref="303208292"/>
    <nd ref="303208293"/>
    <nd ref="302743387"/>
    <nd ref="303208179"/>
    <nd ref="303208180"/>
    <nd ref="303208181"/>
    <nd ref="303207981"/>
    <nd ref="302743388"/>
    <nd ref="2475788244"/>
    <nd ref="302743389"/>
    <nd ref="303207982"/>
    <nd ref="303208183"/>
    <nd ref="302743390"/>
    <nd ref="302743391"/>
    <nd ref="302743392"/>
    <nd ref="201423081"/>
    <nd ref="201423082"/>
    <nd ref="302743385"/>
    <tag k="addr:city" v="München"/>
    <tag k="addr:country" v="DE"/>
    <tag k="addr:housenumber" v="2"/>
    <tag k="addr:postcode" v="80335"/>
    <tag k="addr:street" v="Pranckhstraße"/>
    <tag k="building" v="school"/>
    <tag k="fax" v="+49 89 23335800"/>
    <tag k="phone" v="+49 89 23335799"/>
    <tag k="wheelchair" v="no"/>
  </way>
  <way id="27607093" version="9" timestamp="2020-08-05T21:15:06Z" changeset="89001989" uid="38546" user="wikimax">
    <nd ref="303142297"/>
    <nd ref="303142298"/>
    <nd ref="303142299"/>
    <nd ref="2475749811"/>
    <nd ref="303142300"/>
    <nd ref="7788404636"/>
    <nd ref="303142297"/>
    <tag k="building" v="yes"/>
    <tag k="name" v="BR Haus 7"/>
  </way>
  <way id="27607119" version="19" timestamp="2025-01-23T16:04:01Z" changeset="161680250" uid="22208132" user="Helena Polyakovka">
    <nd ref="303142316"/>
    <nd ref="303142318"/>
    <nd ref="303142320"/>
    <nd ref="303142322"/>
    <nd ref="303142323"/>
    <nd ref="2773973807"/>
    <nd ref="303142324"/>
    <nd ref="303142326"/>
    <nd ref="303142327"/>
    <nd ref="303142541"/>
    <nd ref="303142542"/>
    <nd ref="303142330"/>
    <nd ref="1659974241"/>
    <nd ref="1659974246"/>
    <nd ref="1659974250"/>
    <nd ref="1659974252"/>
    <nd ref="1659974254"/>
    <nd ref="1659974256"/>
    <nd ref="1659974264"/>
    <nd ref="1659974258"/>
    <nd ref="1659974262"/>
    <nd ref="1659974268"/>
    <nd ref="1659974286"/>
    <nd ref="1659974273"/>
    <nd ref="1659974278"/>
    <nd ref="1659974280"/>
    <nd ref="1659974287"/>
    <nd ref="1659974293"/>
    <nd ref="303142332"/>
    <nd ref="303142335"/>
    <nd ref="303142337"/>
    <nd ref="303142316"/>
    <tag k="building" v="office"/>
    <tag k="building:levels" v="8"/>
    <tag k="name" v="WWK Versicherungen a. G."/>
  </way>
  <way id="27658381" version="18" timestamp="2023-02-07T11:04:52Z" changeset="132199768" uid="18069" user="Claudius Henrichs">
    <nd ref="303773742"/>
    <nd ref="2699948464"/>
    <nd ref="2699948465"/>
    <nd ref="2699948466"/>
    <nd ref="2699948467"/>
    <nd ref="2699948474"/>
    <nd ref="2699948472"/>
    <nd ref="2699948473"/>
    <nd ref="2699948475"/>
    <nd ref="1141315637"/>
    <nd ref="2699948511"/>
    <nd ref="2699948510"/>
    <nd ref="2699948512"/>
    <nd ref="2699948514"/>
    <nd ref="4692344990"/>
    <nd ref="2699948519"/>
    <nd ref="2699948516"/>
    <nd ref="2699948520"/>
    <nd ref="2699948521"/>
    <nd ref="1138948191"/>
    <nd ref="2699948532"/>
    <nd ref="2699948531"/>
    <nd ref="2699948533"/>
    <nd ref="2699948534"/>
    <nd ref="2699948536"/>
    <nd ref="2699948535"/>
    <nd ref="2699948537"/>
    <nd ref="2699948538"/>
    <nd ref="4685791892"/>
    <nd ref="2699948547"/>
    <nd ref="2699948546"/>
    <nd ref="2699948548"/>
    <nd ref="2699948549"/>
    <nd ref="2699948551"/>
    <nd ref="2699948550"/>
    <nd ref="1659974147"/>
    <nd ref="4685791907"/>
    <nd ref="1659974142"/>
    <nd ref="303773745"/>
    <nd ref="303773744"/>
    <nd ref="2699948545"/>
    <nd ref="1659974113"/>
    <nd ref="2699948544"/>
    <nd ref="2699948543"/>
    <nd ref="2699948540"/>
    <nd ref="2699948542"/>
    <nd ref="2699948541"/>
    <nd ref="2699948539"/>
    <nd ref="2699948529"/>
    <nd ref="2699948530"/>
    <nd ref="2699948528"/>
    <nd ref="2699948527"/>
    <nd ref="2699948524"/>
    <nd ref="2699948526"/>
    <nd ref="2699948525"/>
    <nd ref="2699948523"/>
    <nd ref="1138948186"/>
    <nd ref="2699948501"/>
    <nd ref="2699948502"/>
    <nd ref="2699948500"/>
    <nd ref="2699948499"/>
    <nd ref="2699948494"/>
    <nd ref="2699948496"/>
    <nd ref="2699948495"/>
    <nd ref="2699948493"/>
    <nd ref="1240028254"/>
    <nd ref="1240027542"/>
    <nd ref="2699948481"/>
    <nd ref="2699948480"/>
    <nd ref="2699948478"/>
    <nd ref="2699948479"/>
    <nd ref="1240027825"/>
    <nd ref="1157895104"/>
    <nd ref="1157895189"/>
    <nd ref="2699948461"/>
    <nd ref="2699948460"/>
    <nd ref="2699948459"/>
    <nd ref="1157895118"/>
    <nd ref="2699948457"/>
    <nd ref="2699948455"/>
    <nd ref="1157895248"/>
    <nd ref="303773743"/>
    <nd ref="4692583239"/>
    <nd ref="303773742"/>
    <tag k="building" v="commercial"/>
    <tag k="building:levels" v="6"/>
    <tag k="name" v="Neue Hopfenpost"/>
    <tag k="operator" v="Invesco Real Estate"/>
    <tag k="roof:shape" v="flat"/>
  </way>
  <way id="27660863" version="25" timestamp="2021-03-05T22:11:50Z" changeset="100516565" uid="531886" user="drlellinger">
    <nd ref="1914494454"/>
    <nd ref="7449170354"/>
    <nd ref="303792272"/>
    <nd ref="3111562732"/>
    <nd ref="303792273"/>
    <nd ref="1914494459"/>
    <nd ref="1914494463"/>
    <nd ref="303792274"/>
    <nd ref="3111562731"/>
    <nd ref="303792275"/>
    <nd ref="1914494458"/>
    <nd ref="1914494453"/>
    <nd ref="303793131"/>
    <nd ref="1914494457"/>
    <nd ref="3111562730"/>
    <nd ref="5171976701"/>
    <nd ref="1914494455"/>
    <nd ref="1914494454"/>
    <tag k="building" v="yes"/>
    <tag k="communication:radio" v="yes"/>
    <tag k="ele" v="530"/>
    <tag k="height" v="101.6"/>
    <tag k="man_made" v="tower"/>
    <tag k="name" v="Fernmeldeturm der Oberpostdirektion München"/>
    <tag k="start_date" v="1956"/>
    <tag k="tower:construction" v="freestanding"/>
    <tag k="tower:type" v="communication"/>
    <tag k="wikidata" v="Q1407127"/>
    <tag k="wikipedia" v="de:Fernmeldeturm der Oberpostdirektion München"/>
  </way>
  <way id="27660875" version="18" timestamp="2014-10-04T19:39:36Z" changeset="25858767" uid="599469" user="daganzdaanda">
    <nd ref="303792412"/>
    <nd ref="303792413"/>
    <nd ref="2734095457"/>
    <nd ref="303792414"/>
    <nd ref="303792415"/>
    <nd ref="303792416"/>
    <nd ref="303792417"/>
    <nd ref="303792418"/>
    <nd ref="303792419"/>
    <nd ref="303792412"/>
    <tag k="BLfD:criteria" v="Baudenkmal"/>
    <tag k="addr:housenumber" v="14"/>
    <tag k="addr:street" v="Pappenheimstraße"/>
    <tag k="architect" v="Gustav Freiherr von Schacky"/>
    <tag k="building" v="yes"/>
    <tag k="heritage" v="4"/>
    <tag k="heritage:operator" v="BLfD"/>
    <tag k="historic" v="heritage"/>
    <tag k="name" v="Altes Pappenheimkrankenhaus"/>
    <tag k="ref:BLfD" v="D-1-62-000-5102"/>
    <tag k="start_date" v="1889-1890"/>
    <tag k="wikipedia" v="de:Bayerische Kriegsakademie"/>
  </way>
  <way id="27662091" version="21" timestamp="2023-04-22T17:42:41Z" changeset="135237353" uid="4376164" user="redweizn">
    <nd ref="303804472"/>
    <nd ref="303804694"/>
    <nd ref="303381720"/>
    <nd ref="303381714"/>
    <nd ref="2475837601"/>
    <nd ref="303804472"/>
    <tag k="addr:housename" v="Panorama Towers"/>
    <tag k="addr:housenumber" v="47"/>
    <tag k="addr:postcode" v="80636"/>
    <tag k="addr:street" v="Erika-Mann-Straße"/>
    <tag k="building" v="residential"/>
    <tag k="building:levels" v="13"/>
    <tag k="name" v="Panorama Towers"/>
    <tag k="roof:shape" v="flat"/>
  </way>
  <way id="33806193" version="5" timestamp="2023-11-24T16:02:37Z" changeset="144413738" uid="4238158" user="RiderOnTheStorm">
    <nd ref="387211331"/>
    <nd ref="387211333"/>
    <nd ref="387211383"/>
    <nd ref="2844712634"/>
    <nd ref="387211391"/>
    <nd ref="387211335"/>
    <nd ref="387211381"/>
    <nd ref="387211372"/>
    <nd ref="387211336"/>
    <nd ref="387211331"/>
    <tag k="addr:city" v="München"/>
    <tag k="addr:country" v="DE"/>
    <tag k="addr:housenumber" v="66"/>
    <tag k="addr:postcode" v="80335"/>
    <tag k="addr:street" v="Karlstraße"/>
    <tag k="amenity" v="courthouse"/>
    <tag k="building" v="public"/>
    <tag k="email" v="poststelle@gensta-m.bayern.de"/>
    <tag k="fax" v="+49 9621 96241-0392"/>
    <tag k="name" v="Generalstaatsanwaltschaft München"/>
    <tag k="opening_hours" v="Mo-Th 08:00-12:00, 13:00-15:00; Fr 08:00-12:00"/>
    <tag k="phone" v="+49 89 5597-08"/>
    <tag k="website" v="https://www.justiz.bayern.de/gerichte-und-behoerden/generalstaatsanwaltschaft/muenchen/"/>
  </way>
  <way id="34926623" version="10" timestamp="2023-04-26T19:43:48Z" changeset="135400632" uid="162901" user="erwinnindl">
    <nd ref="409786294"/>
    <nd ref="6215988089"/>
    <nd ref="737219022"/>
    <nd ref="309890117"/>
    <tag k="highway" v="residential"/>
    <tag k="lane_markings" v="no"/>
    <tag k="maxspeed" v="50"/>
    <tag k="name" v="Herbststraße"/>
    <tag k="sidewalk" v="both"/>
    <tag k="surface" v="asphalt"/>
  </way>
  <way id="36996107" version="17" timestamp="2024-12-31T15:58:36Z" changeset="160837879" uid="11652964" user="Olufanz">
    <nd ref="430262604"/>
    <nd ref="6521874549"/>
    <nd ref="6521874514"/>
    <nd ref="430262624"/>
    <nd ref="430262614"/>
    <tag k="class:bicycle" v="1"/>
    <tag k="cycleway:both" v="no"/>
    <tag k="highway" v="residential"/>
    <tag k="lane_markings" v="no"/>
    <tag k="maxspeed" v="50"/>
    <tag k="name" v="Hopfenstraße"/>
    <tag k="sidewalk:both" v="separate"/>
    <tag k="smoothness" v="good"/>
    <tag k="surface" v="asphalt"/>
  </way>
  <way id="38159426" version="21" timestamp="2023-05-29T16:20:51Z" changeset="136708133" uid="14742734" user="The_Nickname">
    <nd ref="20980554"/>
    <nd ref="773287494"/>
    <nd ref="6636918834"/>
    <nd ref="6636918837"/>
    <nd ref="4464804311"/>
    <nd ref="3161628295"/>
    <tag k="bicycle" v="use_sidepath"/>
    <tag k="foot" v="use_sidepath"/>
    <tag k="highway" v="secondary"/>
    <tag k="lanes:backward" v="3"/>
    <tag k="lanes:forward" v="2"/>
    <tag k="lit" v="yes"/>
    <tag k="maxspeed" v="50"/>
    <tag k="name" v="Nymphenburger Straße"/>
    <tag k="sidewalk:both" v="separate"/>
    <tag k="surface" v="asphalt"/>
    <tag k="turn:lanes:backward" v="left|through|through;right"/>
  </way>
  <way id="43040829" version="15" timestamp="2023-12-27T12:46:04Z" changeset="145573380" uid="18493611" user="MunichWays">
    <nd ref="1386432614"/>
    <nd ref="1386432620"/>
    <nd ref="1386432621"/>
    <tag k="class:bicycle" v="1"/>
    <tag k="cycleway:both" v="no"/>
    <tag k="highway" v="residential"/>
    <tag k="lanes" v="1"/>
    <tag k="lit" v="yes"/>
    <tag k="maxspeed" v="50"/>
    <tag k="name" v="Karlstraße"/>
    <tag k="name:etymology:wikidata" v="Q44961"/>
    <tag k="oneway" v="yes"/>
    <tag k="sidewalk" v="right"/>
    <tag k="smoothness" v="excellent"/>
    <tag k="surface" v="asphalt"/>
    <tag k="width" v="5"/>
  </way>
  <way id="51733708" version="12" timestamp="2024-07-06T11:55:37Z" changeset="153620787" uid="18493611" user="MunichWays">
    <nd ref="353290785"/>
    <nd ref="353290796"/>
    <nd ref="1956100"/>
    <tag k="bicycle" v="yes"/>
    <tag k="class:bicycle" v="-1"/>
    <tag k="cycleway:both" v="no"/>
    <tag k="foot" v="yes"/>
    <tag k="highway" v="tertiary"/>
    <tag k="lane_markings" v="no"/>
    <tag k="lit" v="yes"/>
    <tag k="maxspeed" v="50"/>
    <tag k="name" v="Wredestraße"/>
    <tag k="name:etymology:wikidata" v="Q64759"/>
    <tag k="sidewalk:both" v="separate"/>
    <tag k="smoothness" v="good"/>
    <tag k="surface" v="asphalt"/>
  </way>
  <way id="51775137" version="19" timestamp="2022-03-31T16:59:29Z" changeset="119169966" uid="78613" user="heilbron">
    <nd ref="398692"/>
    <nd ref="737219007"/>
    <nd ref="2964993435"/>
    <nd ref="1386432514"/>
    <nd ref="398673"/>
    <nd ref="1386432523"/>
    <nd ref="1386432542"/>
    <tag k="bicycle" v="use_sidepath"/>
    <tag k="foot" v="use_sidepath"/>
    <tag k="highway" v="secondary"/>
    <tag k="lanes" v="2"/>
    <tag k="lit" v="yes"/>
    <tag k="maxspeed" v="50"/>
    <tag k="name" v="Marsstraße"/>
    <tag k="oneway" v="yes"/>
    <tag k="surface" v="asphalt"/>
    <tag k="tmc" v="DE:35375/35376"/>
  </way>
  <way id="55607472" version="17" timestamp="2024-11-11T16:59:43Z" changeset="159017488" uid="22146345" user="eeshi">
    <nd ref="1956142"/>
    <nd ref="4208491061"/>
    <nd ref="4532626879"/>
    <nd ref="6497302432"/>
    <nd ref="21620068"/>
    <nd ref="4532626875"/>
    <nd ref="2734313997"/>
    <nd ref="6616532493"/>
    <nd ref="6616532498"/>
    <nd ref="1956126"/>
    <tag k="bicycle" v="use_sidepath"/>
    <tag k="foot" v="use_sidepath"/>
    <tag k="highway" v="secondary"/>
    <tag k="lanes" v="2"/>
    <tag k="maxspeed" v="50"/>
    <tag k="name" v="Nymphenburger Straße"/>
    <tag k="sidewalk" v="separate"/>
    <tag k="surface" v="asphalt"/>
  </way>
  <way id="57009989" version="13" timestamp="2024-12-18T18:10:03Z" changeset="160363065" uid="16960231" user="DLystopadov">
    <nd ref="21632176"/>
    <nd ref="739381837"/>
    <nd ref="3712297478"/>
    <nd ref="1487012462"/>
    <nd ref="21585827"/>
    <tag k="class:bicycle" v="1"/>
    <tag k="cycleway:left" v="separate"/>
    <tag k="highway" v="residential"/>
    <tag k="lit" v="yes"/>
    <tag k="maxspeed" v="30"/>
    <tag k="name" v="Helmholtzstraße"/>
    <tag k="name:etymology:wikidata" v="Q109501"/>
    <tag k="sidewalk" v="both"/>
    <tag k="sidewalk:both:surface" v="paving_stones"/>
    <tag k="smoothness" v="good"/>
    <tag k="surface" v="asphalt"/>
  </way>
  <way id="57009992" version="12" timestamp="2024-09-02T14:54:39Z" changeset="156102789" uid="16960231" user="DLystopadov">
    <nd ref="302721332"/>
    <nd ref="322027001"/>
    <nd ref="19404292"/>
    <tag k="class:bicycle" v="1"/>
    <tag k="cycleway:both" v="shoulder"/>
    <tag k="highway" v="residential"/>
    <tag k="lane_markings" v="no"/>
    <tag k="lit" v="yes"/>
    <tag k="maxspeed" v="50"/>
    <tag k="name" v="Grete-Mosheim-Straße"/>
    <tag k="name:etymology:wikidata" v="Q91872"/>
    <tag k="sidewalk:both" v="separate"/>
    <tag k="smoothness" v="good"/>
    <tag k="surface" v="asphalt"/>
  </way>
  <way id="57018956" version="7" timestamp="2024-05-09T10:56:04Z" changeset="151093656" uid="13987295" user="Arthur B E">
    <nd ref="2699948552"/>
    <nd ref="2699948554"/>
    <nd ref="2699948553"/>
    <nd ref="2699948555"/>
    <nd ref="2699948559"/>
    <nd ref="711767578"/>
    <nd ref="2699948552"/>
    <tag k="addr:city" v="München"/>
    <tag k="addr:country" v="DE"/>
    <tag k="addr:housenumber" v="30"/>
    <tag k="addr:postcode" v="80335"/>
    <tag k="addr:street" v="Marsstraße"/>
    <tag k="building" v="public"/>
    <tag k="building:levels" v="6"/>
    <tag k="name" v="Staatliches Bauamt München 2"/>
    <tag k="roof:shape" v="flat"/>
  </way>
  <way id="57018957" version="12" timestamp="2019-06-07T20:44:28Z" changeset="71037792" uid="4453208" user="jogemu">
    <nd ref="2699948613"/>
    <nd ref="2699948618"/>
    <nd ref="2699948619"/>
    <nd ref="2699948616"/>
    <nd ref="2699948621"/>
    <nd ref="2699948622"/>
    <nd ref="2699948623"/>
    <nd ref="2699948624"/>
    <nd ref="2699948627"/>
    <nd ref="2699948629"/>
    <nd ref="2699948630"/>
    <nd ref="2699948628"/>
    <nd ref="2699948634"/>
    <nd ref="2699948639"/>
    <nd ref="2699948635"/>
    <nd ref="2699948633"/>
    <nd ref="2699948637"/>
    <nd ref="2699948646"/>
    <nd ref="711767617"/>
    <nd ref="711767606"/>
    <nd ref="2699948607"/>
    <nd ref="2699948613"/>
    <tag k="addr:city" v="München"/>
    <tag k="addr:country" v="DE"/>
    <tag k="addr:housenumber" v="11"/>
    <tag k="addr:postcode" v="80335"/>
    <tag k="addr:street" v="Seidlstraße"/>
    <tag k="building" v="public"/>
    <tag k="building:levels" v="5"/>
    <tag k="name" v="Autobahndirektion Südbayern"/>
  </way>
  <way id="57019106" version="11" timestamp="2020-02-20T14:39:28Z" changeset="81277717" uid="428092" user="Geo-OSM">
    <nd ref="4692345013"/>
    <nd ref="2699948578"/>
    <nd ref="711770672"/>
    <nd ref="711770677"/>
    <nd ref="711767613"/>
    <nd ref="738224238"/>
    <nd ref="711770682"/>
    <nd ref="711770687"/>
    <nd ref="4692345013"/>
    <tag k="addr:city" v="München"/>
    <tag k="addr:country" v="DE"/>
    <tag k="addr:housenumber" v="2"/>
    <tag k="addr:postcode" v="80335"/>
    <tag k="addr:street" v="Denisstraße"/>
    <tag k="building" v="public"/>
    <tag k="building:levels" v="7"/>
    <tag k="name" v="LHM Kommunalreferat"/>
  </way>
  <way id="59529263" version="10" timestamp="2021-02-15T13:08:37Z" changeset="99312062" uid="9438373" user="Thomas Weigl">
    <nd ref="711767617"/>
    <nd ref="738224248"/>
    <nd ref="2270912666"/>
    <nd ref="738224255"/>
    <nd ref="738224256"/>
    <nd ref="711767606"/>
    <nd ref="711767617"/>
    <tag k="addr:city" v="München"/>
    <tag k="addr:country" v="DE"/>
    <tag k="addr:housenumber" v="15"/>
    <tag k="addr:postcode" v="80335"/>
    <tag k="addr:street" v="Seidlstraße"/>
    <tag k="building" v="office"/>
    <tag k="building:levels" v="5"/>
    <tag k="roof:levels" v="1"/>
  </way>
  <way id="59531575" version="6" timestamp="2024-03-05T08:21:20Z" changeset="148238368" uid="3251916" user="Alex_mappt">
    <nd ref="738257233"/>
    <nd ref="738257248"/>
    <tag k="highway" v="unclassified"/>
    <tag k="lane_markings" v="no"/>
    <tag k="maxspeed" v="50"/>
    <tag k="name" v="Marsstraße"/>
    <tag k="surface" v="asphalt"/>
  </way>
  <way id="59531576" version="7" timestamp="2024-03-05T08:18:33Z" changeset="148238368" uid="3251916" user="Alex_mappt">
    <nd ref="738257263"/>
    <nd ref="21642946"/>
    <nd ref="818083114"/>
    <tag k="class:bicycle" v="-3"/>
    <tag k="highway" v="residential"/>
    <tag k="lane_markings" v="no"/>
    <tag k="maxspeed" v="50"/>
    <tag k="name" v="Rundfunkplatz"/>
    <tag k="surface" v="asphalt"/>
  </way>
  <way id="59531578" version="11" timestamp="2024-03-15T05:50:01Z" changeset="148670978" uid="18493611" user="MunichWays">
    <nd ref="4692345008"/>
    <nd ref="21619890"/>
    <nd ref="2844799148"/>
    <nd ref="2844799140"/>
    <nd ref="21619891"/>
    <nd ref="4685788782"/>
    <nd ref="1387117368"/>
    <nd ref="738226001"/>
    <nd ref="21619892"/>
    <tag k="class:bicycle" v="1"/>
    <tag k="highway" v="residential"/>
    <tag k="lanes" v="2"/>
    <tag k="lit" v="yes"/>
    <tag k="maxspeed" v="50"/>
    <tag k="name" v="Denisstraße"/>
    <tag k="name:etymology:wikidata" v="Q2059114"/>
    <tag k="smoothness" v="good"/>
    <tag k="source:maxspeed" v="DE:urban"/>
    <tag k="surface" v="asphalt"/>
  </way>
  <way id="59543687" version="4" timestamp="2017-02-18T15:54:08Z" changeset="46195527" uid="753289" user="Marsupium">
    <nd ref="2699948612"/>
    <nd ref="2699948606"/>
    <nd ref="2699948604"/>
    <nd ref="2699948603"/>
    <nd ref="4692344567"/>
    <nd ref="2699948593"/>
    <nd ref="2699948595"/>
    <nd ref="2699948592"/>
    <nd ref="2699948597"/>
    <nd ref="2699948600"/>
    <nd ref="2699948601"/>
    <nd ref="2699948610"/>
    <nd ref="2699948608"/>
    <nd ref="4692344585"/>
    <nd ref="2699948612"/>
    <tag k="addr:city" v="München"/>
    <tag k="addr:country" v="DE"/>
    <tag k="addr:housenumber" v="1b"/>
    <tag k="addr:postcode" v="80335"/>
    <tag k="addr:street" v="Denisstraße"/>
    <tag k="building" v="yes"/>
    <tag k="building:levels" v="7"/>
  </way>
  <way id="59988832" version="9" timestamp="2023-10-20T14:42:55Z" changeset="142874041" uid="16960231" user="DLystopadov">
    <nd ref="745764066"/>
    <nd ref="1394031623"/>
    <nd ref="2475788405"/>
    <nd ref="745764065"/>
    <nd ref="21619883"/>
    <tag k="cycleway:both" v="no"/>
    <tag k="highway" v="residential"/>
    <tag k="lane_markings" v="no"/>
    <tag k="lit" v="yes"/>
    <tag k="maxspeed" v="50"/>
    <tag k="name" v="Zirkus-Krone-Straße"/>
    <tag k="oneway" v="yes"/>
    <tag k="parking:left" v="half_on_kerb"/>
    <tag k="parking:left:orientation" v="diagonal"/>
    <tag k="parking:right" v="no"/>
    <tag k="sidewalk" v="both"/>
    <tag k="surface" v="asphalt"/>
  </way>
  <way id="60441778" version="23" timestamp="2023-11-11T16:47:06Z" changeset="143907289" uid="18493611" user="MunichWays">
    <nd ref="363191"/>
    <nd ref="2579532068"/>
    <nd ref="21620060"/>
    <tag k="bicycle_road" v="yes"/>
    <tag k="class:bicycle" v="2"/>
    <tag k="foot" v="yes"/>
    <tag k="highway" v="residential"/>
    <tag k="horse" v="yes"/>
    <tag k="lanes" v="2"/>
    <tag k="lit" v="yes"/>
    <tag k="maxspeed" v="30"/>
    <tag k="name" v="Blutenburgstraße"/>
    <tag k="sidewalk:both" v="separate"/>
    <tag k="smoothness" v="excellent"/>
    <tag k="surface" v="asphalt"/>
  </way>
  <way id="62140745" version="19" timestamp="2025-04-11T10:49:42Z" changeset="164809940" uid="2554996" user="Nanoilite">
    <nd ref="4532626873"/>
    <nd ref="774634236"/>
    <nd ref="1866330511"/>
    <nd ref="19404289"/>
    <nd ref="30976863"/>
    <nd ref="2734075674"/>
    <nd ref="2734075673"/>
    <nd ref="19404291"/>
    <nd ref="12747567807"/>
    <nd ref="1906058236"/>
    <nd ref="1386432617"/>
    <nd ref="2553939807"/>
    <nd ref="12747567869"/>
    <nd ref="1956113"/>
    <nd ref="21924922"/>
    <nd ref="818083308"/>
    <tag k="class:bicycle" v="1"/>
    <tag k="highway" v="residential"/>
    <tag k="lit" v="yes"/>
    <tag k="maxspeed" v="30"/>
    <tag k="name" v="Maillingerstraße"/>
    <tag k="name:etymology:wikidata" v="Q107337"/>
    <tag k="sidewalk" v="separate"/>
    <tag k="smoothness" v="good"/>
    <tag k="source:maxspeed" v="DE:zone30"/>
    <tag k="surface" v="asphalt"/>
  </way>
  <way id="70869680" version="16" timestamp="2024-11-08T14:23:31Z" changeset="158898031" uid="11758604" user="map per">
    <nd ref="363191"/>
    <nd ref="363192"/>
    <tag k="class:bicycle" v="1"/>
    <tag k="cycleway:left" v="separate"/>
    <tag k="cycleway:right" v="lane"/>
    <tag k="cycleway:right:lane" v="exclusive"/>
    <tag k="foot" v="use_sidepath"/>
    <tag k="highway" v="tertiary"/>
    <tag k="lanes" v="2"/>
    <tag k="lit" v="yes"/>
    <tag k="maxspeed" v="50"/>
    <tag k="name" v="Pappenheimstraße"/>
    <tag k="name:etymology:wikidata" v="Q61869"/>
    <tag k="oneway:bicycle" v="-1"/>
    <tag k="sidewalk:left" v="separate"/>
    <tag k="smoothness" v="good"/>
    <tag k="surface" v="asphalt"/>
  </way>
  <way id="71001814" version="26" timestamp="2025-05-17T21:36:04Z" changeset="166409655" uid="170763" user="SoulCover">
    <nd ref="1956111"/>
    <nd ref="773301329"/>
    <nd ref="8419133808"/>
    <nd ref="4464825675"/>
    <nd ref="27590691"/>
    <nd ref="4211024602"/>
    <nd ref="4211024622"/>
    <nd ref="4211024603"/>
    <nd ref="1113634530"/>
    <nd ref="2441647618"/>
    <nd ref="2441647625"/>
    <nd ref="20834530"/>
    <tag k="class:bicycle" v="-2"/>
    <tag k="highway" v="tertiary"/>
    <tag k="lanes" v="2"/>
    <tag k="lit" v="yes"/>
    <tag k="maxspeed" v="30"/>
    <tag k="name" v="Sandstraße"/>
    <tag k="parking:both" v="yes"/>
    <tag k="parking:both:orientation" v="parallel"/>
    <tag k="parking:lane:both:parallel" v="street_side"/>
    <tag k="sidewalk" v="separate"/>
    <tag k="smoothness" v="intermediate"/>
    <tag k="source:maxspeed" v="sign"/>
    <tag k="surface" v="asphalt"/>
  </way>
  <way id="71745404" version="9" timestamp="2025-04-25T20:58:52Z" changeset="165442231" uid="14742734" user="The_Nickname">
    <nd ref="398664"/>
    <nd ref="21324383"/>
    <tag k="class:bicycle" v="-2"/>
    <tag k="highway" v="residential"/>
    <tag k="lanes" v="1"/>
    <tag k="maxspeed" v="50"/>
    <tag k="name" v="Maillingerstraße"/>
    <tag k="name:etymology:wikidata" v="Q107337"/>
    <tag k="oneway" v="yes"/>
    <tag k="sidewalk:left" v="no"/>
    <tag k="sidewalk:right" v="separate"/>
    <tag k="surface" v="asphalt"/>
  </way>
  <way id="71822768" version="17" timestamp="2024-03-05T08:25:50Z" changeset="148238580" uid="3251916" user="Alex_mappt">
    <nd ref="715297484"/>
    <nd ref="8266983456"/>
    <nd ref="21632175"/>
    <tag k="class:bicycle" v="1"/>
    <tag k="cycleway:both" v="no"/>
    <tag k="foot" v="use_sidepath"/>
    <tag k="highway" v="tertiary"/>
    <tag k="lane_markings" v="no"/>
    <tag k="maxspeed" v="50"/>
    <tag k="name" v="Wredestraße"/>
    <tag k="name:etymology:wikidata" v="Q64759"/>
    <tag k="sidewalk:both" v="separate"/>
    <tag k="smoothness" v="excellent"/>
    <tag k="surface" v="asphalt"/>
    <tag k="width" v="14"/>
  </way>
  <way id="71822772" version="12" timestamp="2024-11-25T06:53:31Z" changeset="159559346" uid="18493611" user="MunichWays">
    <nd ref="21924908"/>
    <nd ref="2475788278"/>
    <nd ref="3221291123"/>
    <tag k="class:bicycle" v="1"/>
    <tag k="cycleway:both" v="separate"/>
    <tag k="foot" v="use_sidepath"/>
    <tag k="highway" v="tertiary"/>
    <tag k="lit" v="yes"/>
    <tag k="maxspeed" v="50"/>
    <tag k="name" v="Wredestraße"/>
    <tag k="name:etymology:wikidata" v="Q64759"/>
    <tag k="sidewalk:both" v="separate"/>
    <tag k="smoothness" v="good"/>
    <tag k="surface" v="asphalt"/>
  </way>
  <way id="80716173" version="20" timestamp="2024-12-31T15:59:07Z" changeset="160837879" uid="11652964" user="Olufanz">
    <nd ref="3487635978"/>
    <nd ref="2858907402"/>
    <nd ref="4758755210"/>
    <nd ref="303134719"/>
    <nd ref="941369075"/>
    <tag k="bicycle" v="yes"/>
    <tag k="bicycle_road" v="yes"/>
    <tag k="class:bicycle" v="1"/>
    <tag k="highway" v="residential"/>
    <tag k="lane_markings" v="no"/>
    <tag k="lit" v="yes"/>
    <tag k="mapillary" v="1482760212063154"/>
    <tag k="maxspeed" v="30"/>
    <tag k="name" v="Bernhard-Wicki-Straße"/>
    <tag k="name:etymology:wikidata" v="Q78924"/>
    <tag k="parking:lane:both" v="parallel"/>
    <tag k="sidewalk:both" v="separate"/>
    <tag k="smoothness" v="excellent"/>
    <tag k="source:maxspeed" v="DE:bicycle_road"/>
    <tag k="surface" v="asphalt"/>
  </way>
  <way id="86962356" version="13" timestamp="2024-05-09T10:46:39Z" changeset="151093246" uid="13987295" user="Arthur B E">
    <nd ref="1011643575"/>
    <nd ref="774801314"/>
    <nd ref="1141315624"/>
    <tag k="bicycle" v="use_sidepath"/>
    <tag k="foot" v="use_sidepath"/>
    <tag k="highway" v="secondary"/>
    <tag k="lanes" v="2"/>
    <tag k="lit" v="yes"/>
    <tag k="maxspeed" v="50"/>
    <tag k="name" v="Seidlstraße"/>
    <tag k="name:etymology:wikidata" v="Q86955"/>
    <tag k="oneway" v="yes"/>
    <tag k="parking:both" v="no"/>
    <tag k="sidewalk:left" v="no"/>
    <tag k="sidewalk:right" v="separate"/>
    <tag k="surface" v="asphalt"/>
    <tag k="tmc" v="DE:35370/27999"/>
  </way>
  <way id="87598989" version="26" timestamp="2025-03-22T21:16:15Z" changeset="163964538" uid="44217" user="kjon">
    <nd ref="363196"/>
    <nd ref="4532626873"/>
    <nd ref="6576366774"/>
    <nd ref="1866330519"/>
    <nd ref="6702598706"/>
    <nd ref="3017699269"/>
    <nd ref="363197"/>
    <tag k="bicycle" v="use_sidepath"/>
    <tag k="foot" v="use_sidepath"/>
    <tag k="highway" v="secondary"/>
    <tag k="lanes" v="4"/>
    <tag k="lit" v="yes"/>
    <tag k="maxspeed" v="50"/>
    <tag k="name" v="Nymphenburger Straße"/>
    <tag k="parking:both" v="yes"/>
    <tag k="parking:both:orientation" v="parallel"/>
    <tag k="sidewalk" v="separate"/>
    <tag k="source:maxspeed" v="DE:urban"/>
    <tag k="surface" v="asphalt"/>
  </way>
  <way id="88501256" version="12" timestamp="2024-05-09T10:46:24Z" changeset="151093246" uid="13987295" user="Arthur B E">
    <nd ref="1012031604"/>
    <nd ref="1011643575"/>
    <tag k="bicycle" v="use_sidepath"/>
    <tag k="foot" v="use_sidepath"/>
    <tag k="highway" v="secondary"/>
    <tag k="lanes" v="2"/>
    <tag k="lit" v="yes"/>
    <tag k="maxspeed" v="50"/>
    <tag k="name" v="Seidlstraße"/>
    <tag k="name:etymology:wikidata" v="Q86955"/>
    <tag k="oneway" v="yes"/>
    <tag k="parking:both" v="no"/>
    <tag k="sidewalk:left" v="no"/>
    <tag k="sidewalk:right" v="separate"/>
    <tag k="surface" v="asphalt"/>
    <tag k="tmc" v="DE:35370/27999"/>
  </way>
  <way id="90394155" version="20" timestamp="2024-12-31T15:56:57Z" changeset="160837879" uid="11652964" user="Olufanz">
    <nd ref="12405262840"/>
    <nd ref="11554518775"/>
    <nd ref="739448726"/>
    <nd ref="11554501730"/>
    <nd ref="1430460271"/>
    <nd ref="1020955836"/>
    <tag k="class:bicycle" v="-1"/>
    <tag k="cycleway:left" v="no"/>
    <tag k="cycleway:right" v="lane"/>
    <tag k="cycleway:right:lane" v="exclusive"/>
    <tag k="highway" v="tertiary"/>
    <tag k="lanes" v="2"/>
    <tag k="lit" v="yes"/>
    <tag k="maxspeed" v="50"/>
    <tag k="name" v="Arnulfstraße"/>
    <tag k="name:etymology:wikidata" v="Q64956"/>
    <tag k="oneway" v="yes"/>
    <tag k="parking:both" v="no"/>
    <tag k="sidewalk:left" v="no"/>
    <tag k="sidewalk:right" v="separate"/>
    <tag k="smoothness" v="good"/>
    <tag k="surface" v="asphalt"/>
    <tag k="tmc" v="DE:35356/35357"/>
  </way>
  <way id="90394166" version="18" timestamp="2025-05-01T21:27:20Z" changeset="165694927" uid="38546" user="wikimax">
    <nd ref="21324403"/>
    <nd ref="315935169"/>
    <nd ref="730507618"/>
    <nd ref="1747884042"/>
    <nd ref="1387117363"/>
    <nd ref="309890165"/>
    <nd ref="12803064580"/>
    <nd ref="1747884044"/>
    <nd ref="309890117"/>
    <tag k="bicycle" v="use_sidepath"/>
    <tag k="class:bicycle" v="-1"/>
    <tag k="cycleway:left" v="no"/>
    <tag k="cycleway:right" v="separate"/>
    <tag k="foot" v="use_sidepath"/>
    <tag k="highway" v="tertiary"/>
    <tag k="lane_markings" v="no"/>
    <tag k="lit" v="yes"/>
    <tag k="maxspeed" v="50"/>
    <tag k="name" v="Arnulfstraße"/>
    <tag k="name:etymology:wikidata" v="Q64956"/>
    <tag k="oneway" v="yes"/>
    <tag k="parking:lane:right" v="parallel"/>
    <tag k="sidewalk:left" v="no"/>
    <tag k="sidewalk:right" v="separate"/>
    <tag k="surface" v="asphalt"/>
    <tag k="tmc" v="DE:35356/35357"/>
  </way>
  <way id="90394173" version="5" timestamp="2024-12-31T15:56:42Z" changeset="160837879" uid="11652964" user="Olufanz">
    <nd ref="309890117"/>
    <nd ref="1022404038"/>
    <nd ref="1022404031"/>
    <nd ref="1022404024"/>
    <tag k="highway" v="residential"/>
    <tag k="lane_markings" v="no"/>
    <tag k="maxspeed" v="50"/>
    <tag k="name" v="Herbststraße"/>
    <tag k="sidewalk" v="no"/>
    <tag k="surface" v="asphalt"/>
  </way>
  <way id="90394174" version="14" timestamp="2024-12-31T15:53:22Z" changeset="160838945" uid="11652964" user="Olufanz">
    <nd ref="21324003"/>
    <nd ref="1077566566"/>
    <nd ref="21324403"/>
    <tag k="bicycle" v="use_sidepath"/>
    <tag k="class:bicycle" v="-1"/>
    <tag k="cycleway:left" v="no"/>
    <tag k="cycleway:right" v="separate"/>
    <tag k="foot" v="use_sidepath"/>
    <tag k="highway" v="tertiary"/>
    <tag k="lane_markings" v="no"/>
    <tag k="lit" v="yes"/>
    <tag k="maxspeed" v="50"/>
    <tag k="name" v="Arnulfstraße"/>
    <tag k="name:etymology:wikidata" v="Q64956"/>
    <tag k="oneway" v="yes"/>
    <tag k="sidewalk:left" v="no"/>
    <tag k="sidewalk:right" v="separate"/>
    <tag k="surface" v="asphalt"/>
    <tag k="tmc" v="DE:35356/35357"/>
  </way>
  <way id="90394180" version="12" timestamp="2024-12-31T15:53:48Z" changeset="160838945" uid="11652964" user="Olufanz">
    <nd ref="737219016"/>
    <nd ref="309890165"/>
    <nd ref="1020955835"/>
    <nd ref="1020955834"/>
    <nd ref="1387117359"/>
    <tag k="class:bicycle" v="-1"/>
    <tag k="cycleway:both" v="no"/>
    <tag k="highway" v="residential"/>
    <tag k="lane_markings" v="no"/>
    <tag k="lit" v="yes"/>
    <tag k="maxspeed" v="50"/>
    <tag k="name" v="Hopfenstraße"/>
    <tag k="sidewalk" v="no"/>
    <tag k="surface" v="asphalt"/>
  </way>
  <way id="93195112" version="10" timestamp="2024-12-31T15:58:42Z" changeset="160837879" uid="11652964" user="Olufanz">
    <nd ref="818083114"/>
    <nd ref="5380631323"/>
    <nd ref="430262604"/>
    <tag k="class:bicycle" v="1"/>
    <tag k="cycleway:both" v="no"/>
    <tag k="highway" v="residential"/>
    <tag k="lane_markings" v="no"/>
    <tag k="maxspeed" v="50"/>
    <tag k="name" v="Rundfunkplatz"/>
    <tag k="sidewalk:both" v="separate"/>
    <tag k="smoothness" v="good"/>
    <tag k="surface" v="asphalt"/>
  </way>
  <way id="93195123" version="12" timestamp="2024-12-31T15:57:14Z" changeset="160837879" uid="11652964" user="Olufanz">
    <nd ref="737219031"/>
    <nd ref="21324005"/>
    <tag k="bicycle" v="yes"/>
    <tag k="class:bicycle" v="-1"/>
    <tag k="cycleway:both" v="separate"/>
    <tag k="foot" v="yes"/>
    <tag k="highway" v="tertiary"/>
    <tag k="lane_markings" v="no"/>
    <tag k="lit" v="yes"/>
    <tag k="maxspeed" v="50"/>
    <tag k="name" v="Wredestraße"/>
    <tag k="name:etymology:wikidata" v="Q64759"/>
    <tag k="sidewalk:both" v="separate"/>
    <tag k="smoothness" v="good"/>
    <tag k="surface" v="asphalt"/>
  </way>
  <way id="93195136" version="13" timestamp="2025-01-22T13:49:36Z" changeset="161639068" uid="16061279" user="YellowSoul">
    <nd ref="21632175"/>
    <nd ref="12522877644"/>
    <nd ref="21924908"/>
    <tag k="class:bicycle" v="1"/>
    <tag k="cycleway:both" v="separate"/>
    <tag k="foot" v="use_sidepath"/>
    <tag k="highway" v="tertiary"/>
    <tag k="lanes" v="2"/>
    <tag k="lit" v="yes"/>
    <tag k="maxspeed" v="50"/>
    <tag k="name" v="Wredestraße"/>
    <tag k="name:etymology:wikidata" v="Q64759"/>
    <tag k="sidewalk:both" v="separate"/>
    <tag k="smoothness" v="excellent"/>
    <tag k="surface" v="asphalt"/>
  </way>
  <way id="93195139" version="12" timestamp="2024-03-26T22:36:15Z" changeset="149197947" uid="14742734" user="The_Nickname">
    <nd ref="21619887"/>
    <nd ref="6209749147"/>
    <nd ref="4984671227"/>
    <nd ref="21924911"/>
    <tag k="class:bicycle" v="1"/>
    <tag k="cycleway:left" v="shared_lane"/>
    <tag k="cycleway:left:lane" v="pictogram"/>
    <tag k="cycleway:left:oneway" v="-1"/>
    <tag k="cycleway:right" v="no"/>
    <tag k="highway" v="residential"/>
    <tag k="lane_markings" v="no"/>
    <tag k="maxspeed" v="50"/>
    <tag k="name" v="Marsplatz"/>
    <tag k="oneway" v="yes"/>
    <tag k="oneway:bicycle" v="no"/>
    <tag k="sidewalk:left" v="yes"/>
    <tag k="sidewalk:left:surface" v="paving_stones"/>
    <tag k="sidewalk:right" v="separate"/>
    <tag k="smoothness" v="good"/>
    <tag k="surface" v="asphalt"/>
  </way>
  <way id="93524623" version="11" timestamp="2025-04-25T20:58:53Z" changeset="165442234" uid="14742734" user="The_Nickname">
    <nd ref="268098211"/>
    <nd ref="706534563"/>
    <nd ref="268098203"/>
    <nd ref="268098198"/>
    <nd ref="268098191"/>
    <nd ref="1131555294"/>
    <nd ref="21585827"/>
    <nd ref="12755663408"/>
    <nd ref="21585828"/>
    <tag k="class:bicycle" v="1"/>
    <tag k="cycleway:both" v="shared_lane"/>
    <tag k="cycleway:both:lane" v="pictogram"/>
    <tag k="highway" v="residential"/>
    <tag k="lit" v="yes"/>
    <tag k="maxspeed" v="30"/>
    <tag k="name" v="Marlene-Dietrich-Straße"/>
    <tag k="name:etymology:wikidata" v="Q4612"/>
    <tag k="parking:lane:both" v="parallel"/>
    <tag k="sidewalk" v="both"/>
    <tag k="sidewalk:both:surface" v="paving_stones"/>
    <tag k="smoothness" v="good"/>
    <tag k="surface" v="asphalt"/>
  </way>
  <way id="96114067" version="6" timestamp="2022-03-10T10:49:38Z" changeset="118318107" uid="194111" user="btrs">
    <nd ref="387211370"/>
    <nd ref="1113634718"/>
    <nd ref="1113634415"/>
    <nd ref="1113634280"/>
    <nd ref="1113634555"/>
    <nd ref="1113635111"/>
    <nd ref="1113634364"/>
    <nd ref="1113634896"/>
    <nd ref="1113634847"/>
    <nd ref="387211338"/>
    <nd ref="387211340"/>
    <nd ref="387211363"/>
    <nd ref="387211366"/>
    <nd ref="387211370"/>
    <tag k="addr:city" v="München"/>
    <tag k="addr:country" v="DE"/>
    <tag k="addr:housenumber" v="25"/>
    <tag k="addr:postcode" v="80335"/>
    <tag k="addr:street" v="Seidlstraße"/>
    <tag k="building" v="yes"/>
    <tag k="heritage" v="4"/>
    <tag k="heritage:operator" v="BLfD"/>
    <tag k="image" v="https://commons.wikimedia.org/wiki/File:Seidlstr._25_Muenchen-1.jpg"/>
    <tag k="name" v="Mayer'sche Hofkunstanstalt GmbH"/>
    <tag k="ref:BLfD" v="D-1-62-000-6463"/>
    <tag k="website" v="https://mayersche-hofkunst.de"/>
    <tag k="wikidata" v="Q829445"/>
    <tag k="wikimedia_commons" v="Category:Mayer’sche Hofkunstanstalt"/>
    <tag k="wikipedia" v="de:Mayer’sche Hofkunstanstalt"/>
  </way>
  <way id="98653129" version="19" timestamp="2024-05-09T10:46:57Z" changeset="151093246" uid="13987295" user="Arthur B E">
    <nd ref="1141315624"/>
    <nd ref="3161628293"/>
    <tag k="class:bicycle" v="-1"/>
    <tag k="cycleway:left" v="no"/>
    <tag k="cycleway:right" v="lane"/>
    <tag k="cycleway:right:lane" v="exclusive"/>
    <tag k="foot" v="use_sidepath"/>
    <tag k="highway" v="secondary"/>
    <tag k="lanes" v="2"/>
    <tag k="lit" v="yes"/>
    <tag k="maxspeed" v="50"/>
    <tag k="name" v="Seidlstraße"/>
    <tag k="name:etymology:wikidata" v="Q86955"/>
    <tag k="oneway" v="yes"/>
    <tag k="parking:left" v="no"/>
    <tag k="parking:right" v="street_side"/>
    <tag k="parking:right:orientation" v="parallel"/>
    <tag k="sidewalk:left" v="no"/>
    <tag k="sidewalk:right" v="separate"/>
    <tag k="surface" v="asphalt"/>
    <tag k="tmc" v="DE:35370/27999"/>
  </way>
  <way id="100177587" version="22" timestamp="2024-12-31T15:55:59Z" changeset="160837879" uid="11652964" user="Olufanz">
    <nd ref="738257263"/>
    <nd ref="11016180257"/>
    <nd ref="6902632213"/>
    <nd ref="11016180255"/>
    <nd ref="738257233"/>
    <nd ref="21632162"/>
    <tag k="class:bicycle" v="-1"/>
    <tag k="cycleway:left" v="no"/>
    <tag k="cycleway:right" v="lane"/>
    <tag k="cycleway:right:lane" v="exclusive"/>
    <tag k="foot" v="use_sidepath"/>
    <tag k="highway" v="secondary"/>
    <tag k="lanes" v="1"/>
    <tag k="maxspeed" v="50"/>
    <tag k="name" v="Marsstraße"/>
    <tag k="oneway" v="yes"/>
    <tag k="sidewalk:left" v="no"/>
    <tag k="sidewalk:right" v="separate"/>
    <tag k="smoothness" v="good"/>
    <tag k="surface" v="asphalt"/>
    <tag k="tmc" v="DE:35375/35376"/>
  </way>
  <way id="116940869" version="10" timestamp="2024-03-15T09:55:37Z" changeset="148679073" uid="248338" user="mbethke">
    <nd ref="1317215298"/>
    <nd ref="1317214555"/>
    <nd ref="1317215538"/>
    <nd ref="1317214671"/>
    <nd ref="1317215298"/>
    <tag k="addr:city" v="München"/>
    <tag k="addr:country" v="DE"/>
    <tag k="addr:housenumber" v="54"/>
    <tag k="addr:postcode" v="80335"/>
    <tag k="addr:street" v="Marsstraße"/>
    <tag k="building" v="yes"/>
    <tag k="operator" v="Radlbauer"/>
    <tag k="wheelchair" v="yes"/>
  </way>
  <way id="117195441" version="11" timestamp="2023-01-25T16:20:53Z" changeset="131695136" uid="290680" user="wheelmap_visitor">
    <nd ref="1320044943"/>
    <nd ref="4793949695"/>
    <nd ref="4793949696"/>
    <nd ref="4793949697"/>
    <nd ref="4793949698"/>
    <nd ref="4793949699"/>
    <nd ref="4793949700"/>
    <nd ref="1320044962"/>
    <nd ref="1320044960"/>
    <nd ref="1320044974"/>
    <nd ref="1320044972"/>
    <nd ref="1320044981"/>
    <nd ref="1320044986"/>
    <nd ref="1320044994"/>
    <nd ref="1320045000"/>
    <nd ref="1320044999"/>
    <nd ref="1320044988"/>
    <nd ref="2734272951"/>
    <nd ref="1320044973"/>
    <nd ref="1320044977"/>
    <nd ref="1320044976"/>
    <nd ref="1320044970"/>
    <nd ref="1320044966"/>
    <nd ref="1320044963"/>
    <nd ref="1320044950"/>
    <nd ref="1320044947"/>
    <nd ref="1320044911"/>
    <nd ref="1320044915"/>
    <nd ref="1320044920"/>
    <nd ref="1320044924"/>
    <nd ref="1320044896"/>
    <nd ref="1320044910"/>
    <nd ref="1320044941"/>
    <nd ref="1320044943"/>
    <tag k="addr:housenumber" v="43"/>
    <tag k="addr:street" v="Nymphenburger Straße"/>
    <tag k="amenity" v="hospital"/>
    <tag k="building" v="yes"/>
    <tag k="healthcare" v="hospital"/>
    <tag k="name" v="Augenklinik Herzog Carl Theodor"/>
    <tag k="smoking" v="no"/>
    <tag k="website" v="https://www.augenklinik-muenchen.de/"/>
    <tag k="wheelchair" v="yes"/>
    <tag k="wikidata" v="Q510979"/>
  </way>
  <way id="117195449" version="9" timestamp="2023-07-09T11:09:48Z" changeset="138291800" uid="29096" user="buergi">
    <nd ref="1320044892"/>
    <nd ref="1320044866"/>
    <nd ref="1320044878"/>
    <nd ref="3898199985"/>
    <nd ref="3898199986"/>
    <nd ref="3898199987"/>
    <nd ref="3898199988"/>
    <nd ref="3898199990"/>
    <nd ref="3898199989"/>
    <nd ref="3898199991"/>
    <nd ref="1320044909"/>
    <nd ref="1320044892"/>
    <tag k="addr:city" v="München"/>
    <tag k="addr:housenumber" v="2"/>
    <tag k="addr:postcode" v="80335"/>
    <tag k="addr:street" v="Pappenheimstraße"/>
    <tag k="building" v="apartments"/>
    <tag k="building:levels" v="5"/>
    <tag k="roof:levels" v="1"/>
    <tag k="roof:shape" v="gabled"/>
  </way>
  <way id="117195463" version="7" timestamp="2021-10-31T14:16:22Z" changeset="113194958" uid="7702726" user="d2quadra">
    <nd ref="1179552112"/>
    <nd ref="1320044856"/>
    <nd ref="1320044829"/>
    <nd ref="3898199982"/>
    <nd ref="1179552114"/>
    <nd ref="1179552112"/>
    <tag k="addr:city" v="München"/>
    <tag k="addr:country" v="DE"/>
    <tag k="addr:housenumber" v="3"/>
    <tag k="addr:postcode" v="80335"/>
    <tag k="addr:street" v="Pappenheimstraße"/>
    <tag k="building" v="apartments"/>
    <tag k="roof:shape" v="gabled"/>
  </way>
  <way id="117195467" version="6" timestamp="2021-10-31T14:15:44Z" changeset="113194958" uid="7702726" user="d2quadra">
    <nd ref="1320044856"/>
    <nd ref="1320044820"/>
    <nd ref="1320044790"/>
    <nd ref="1320044829"/>
    <nd ref="1320044856"/>
    <tag k="addr:city" v="München"/>
    <tag k="addr:country" v="DE"/>
    <tag k="addr:housenumber" v="5"/>
    <tag k="addr:postcode" v="80335"/>
    <tag k="addr:street" v="Pappenheimstraße"/>
    <tag k="building" v="apartments"/>
    <tag k="roof:orientation" v="across"/>
    <tag k="roof:shape" v="gabled"/>
  </way>
  <way id="117195472" version="8" timestamp="2024-05-05T21:28:26Z" changeset="150939810" uid="137242" user="Rainero">
    <nd ref="1320045227"/>
    <nd ref="1320045185"/>
    <nd ref="1320045169"/>
    <nd ref="11882279185"/>
    <nd ref="11882279184"/>
    <nd ref="1320045196"/>
    <nd ref="1320045227"/>
    <tag k="addr:housenumber" v="9"/>
    <tag k="addr:street" v="Maillingerstraße"/>
    <tag k="building" v="apartments"/>
    <tag k="building:levels" v="5"/>
    <tag k="roof:levels" v="1"/>
    <tag k="wikidata" v="Q41180998"/>
  </way>
  <way id="117195495" version="6" timestamp="2024-01-28T11:56:15Z" changeset="146775345" uid="8312062" user="Fadatag">
    <nd ref="1320044674"/>
    <nd ref="1320044649"/>
    <nd ref="1320044647"/>
    <nd ref="1320044664"/>
    <nd ref="1320044670"/>
    <nd ref="1320044676"/>
    <nd ref="1320044674"/>
    <tag k="addr:city" v="München"/>
    <tag k="addr:country" v="DE"/>
    <tag k="addr:housenumber" v="15"/>
    <tag k="addr:postcode" v="80335"/>
    <tag k="addr:street" v="Pappenheimstraße"/>
    <tag k="building" v="apartments"/>
  </way>
  <way id="117195497" version="9" timestamp="2021-10-31T14:15:18Z" changeset="113194958" uid="7702726" user="d2quadra">
    <nd ref="1320044739"/>
    <nd ref="1320044723"/>
    <nd ref="1320044708"/>
    <nd ref="1320044719"/>
    <nd ref="1320044727"/>
    <nd ref="1320044739"/>
    <tag k="addr:city" v="München"/>
    <tag k="addr:country" v="DE"/>
    <tag k="addr:housenumber" v="11"/>
    <tag k="addr:postcode" v="80335"/>
    <tag k="addr:street" v="Pappenheimstraße"/>
    <tag k="building" v="apartments"/>
    <tag k="roof:orientation" v="across"/>
    <tag k="roof:shape" v="gabled"/>
    <tag k="wikidata" v="Q98644332"/>
  </way>
  <way id="117195511" version="8" timestamp="2024-05-05T21:28:26Z" changeset="150939810" uid="137242" user="Rainero">
    <nd ref="1320045250"/>
    <nd ref="4596917670"/>
    <nd ref="1320045227"/>
    <nd ref="1320045196"/>
    <nd ref="1320045190"/>
    <nd ref="1320045199"/>
    <nd ref="1320045191"/>
    <nd ref="1320045216"/>
    <nd ref="11882279182"/>
    <nd ref="11882279183"/>
    <nd ref="4596917671"/>
    <nd ref="4596917672"/>
    <nd ref="1320045250"/>
    <tag k="addr:housenumber" v="7"/>
    <tag k="addr:street" v="Maillingerstraße"/>
    <tag k="building" v="apartments"/>
    <tag k="building:levels" v="4"/>
    <tag k="roof:levels" v="1"/>
  </way>
  <way id="117195513" version="4" timestamp="2013-07-10T15:57:06Z" changeset="16901757" uid="293774" user="Oli-Wan">
    <nd ref="1320045069"/>
    <nd ref="1320045040"/>
    <nd ref="1320045023"/>
    <nd ref="1320045021"/>
    <nd ref="1320044998"/>
    <nd ref="1320045002"/>
    <nd ref="1320044984"/>
    <nd ref="1320045008"/>
    <nd ref="1320045069"/>
    <tag k="building" v="yes"/>
    <tag k="name" v="Thüga"/>
  </way>
  <way id="117195535" version="7" timestamp="2021-10-31T14:15:11Z" changeset="113194958" uid="7702726" user="d2quadra">
    <nd ref="1320044723"/>
    <nd ref="1320044710"/>
    <nd ref="1320044674"/>
    <nd ref="1320044676"/>
    <nd ref="1320044677"/>
    <nd ref="1320044682"/>
    <nd ref="1320044684"/>
    <nd ref="1320044703"/>
    <nd ref="1320044708"/>
    <nd ref="1320044723"/>
    <tag k="addr:city" v="München"/>
    <tag k="addr:country" v="DE"/>
    <tag k="addr:housenumber" v="13"/>
    <tag k="addr:postcode" v="80335"/>
    <tag k="addr:street" v="Pappenheimstraße"/>
    <tag k="building" v="apartments"/>
    <tag k="wikidata" v="Q98644330"/>
  </way>
  <way id="124559496" version="13" timestamp="2023-12-27T12:46:04Z" changeset="145573380" uid="18493611" user="MunichWays">
    <nd ref="1386432621"/>
    <nd ref="363192"/>
    <tag k="class:bicycle" v="1"/>
    <tag k="cycleway:both" v="no"/>
    <tag k="highway" v="residential"/>
    <tag k="lane_markings" v="no"/>
    <tag k="lit" v="yes"/>
    <tag k="maxspeed" v="50"/>
    <tag k="name" v="Karlstraße"/>
    <tag k="name:etymology:wikidata" v="Q44961"/>
    <tag k="oneway" v="yes"/>
    <tag k="sidewalk" v="right"/>
    <tag k="smoothness" v="excellent"/>
    <tag k="surface" v="asphalt"/>
    <tag k="width" v="5"/>
  </way>
  <way id="124559497" version="11" timestamp="2024-11-08T14:23:31Z" changeset="158898031" uid="11758604" user="map per">
    <nd ref="774634127"/>
    <nd ref="363193"/>
    <tag k="class:bicycle" v="-1"/>
    <tag k="cycleway:both" v="separate"/>
    <tag k="foot" v="use_sidepath"/>
    <tag k="highway" v="tertiary"/>
    <tag k="maxspeed" v="50"/>
    <tag k="name" v="Pappenheimstraße"/>
    <tag k="name:etymology:wikidata" v="Q61869"/>
    <tag k="smoothness" v="good"/>
    <tag k="surface" v="asphalt"/>
  </way>
  <way id="124559498" version="17" timestamp="2025-04-01T07:32:40Z" changeset="164360913" uid="170763" user="SoulCover">
    <nd ref="1386432612"/>
    <nd ref="363191"/>
    <tag k="class:bicycle" v="1"/>
    <tag k="cycleway:left" v="separate"/>
    <tag k="cycleway:right" v="lane"/>
    <tag k="cycleway:right:lane" v="exclusive"/>
    <tag k="highway" v="tertiary"/>
    <tag k="lanes" v="2"/>
    <tag k="lit" v="yes"/>
    <tag k="maxspeed" v="50"/>
    <tag k="name" v="Pappenheimstraße"/>
    <tag k="name:etymology:wikidata" v="Q61869"/>
    <tag k="sidewalk:left" v="separate"/>
    <tag k="sidewalk:right" v="yes"/>
    <tag k="sidewalk:right:surface" v="paving_stones"/>
    <tag k="smoothness" v="good"/>
    <tag k="surface" v="asphalt"/>
  </way>
  <way id="124559501" version="14" timestamp="2025-04-01T07:32:38Z" changeset="164360900" uid="170763" user="SoulCover">
    <nd ref="363192"/>
    <nd ref="2734171704"/>
    <nd ref="774634127"/>
    <tag k="cycleway:both" v="no"/>
    <tag k="foot" v="use_sidepath"/>
    <tag k="highway" v="tertiary"/>
    <tag k="lanes" v="2"/>
    <tag k="lit" v="yes"/>
    <tag k="maxspeed" v="50"/>
    <tag k="name" v="Pappenheimstraße"/>
    <tag k="name:etymology:wikidata" v="Q61869"/>
    <tag k="sidewalk:both" v="separate"/>
    <tag k="smoothness" v="good"/>
    <tag k="surface" v="asphalt"/>
  </way>
  <way id="137340401" version="10" timestamp="2025-05-01T20:26:57Z" changeset="165693341" uid="38546" user="wikimax">
    <nd ref="941369075"/>
    <nd ref="941369077"/>
    <nd ref="2829682556"/>
    <nd ref="302714904"/>
    <nd ref="12802998419"/>
    <nd ref="941532668"/>
    <tag k="bicycle" v="yes"/>
    <tag k="class:bicycle" v="1"/>
    <tag k="cycleway:both" v="no"/>
    <tag k="highway" v="residential"/>
    <tag k="lit" v="yes"/>
    <tag k="maxspeed" v="30"/>
    <tag k="name" v="Bernhard-Wicki-Straße"/>
    <tag k="name:etymology:wikidata" v="Q78924"/>
    <tag k="oneway" v="yes"/>
    <tag k="smoothness" v="good"/>
    <tag k="surface" v="asphalt"/>
  </way>
  <way id="151082431" version="15" timestamp="2025-03-22T21:16:15Z" changeset="163964538" uid="44217" user="kjon">
    <nd ref="20980554"/>
    <nd ref="788021897"/>
    <tag k="bicycle" v="use_sidepath"/>
    <tag k="foot" v="use_sidepath"/>
    <tag k="highway" v="secondary"/>
    <tag k="lanes" v="2"/>
    <tag k="lit" v="yes"/>
    <tag k="maxspeed" v="50"/>
    <tag k="name" v="Seidlstraße"/>
    <tag k="name:etymology:wikidata" v="Q86955"/>
    <tag k="oneway" v="yes"/>
    <tag k="parking:both" v="no"/>
    <tag k="sidewalk:left" v="no"/>
    <tag k="sidewalk:right" v="separate"/>
    <tag k="surface" v="asphalt"/>
    <tag k="tmc" v="DE:35370/27999"/>
  </way>
  <way id="151521563" version="10" timestamp="2023-07-06T07:40:07Z" changeset="138174689" uid="9957868" user="anarkiisto">
    <nd ref="21632176"/>
    <nd ref="1131555288"/>
    <nd ref="480314303"/>
    <tag k="bicycle" v="use_sidepath"/>
    <tag k="highway" v="tertiary"/>
    <tag k="lanes" v="1"/>
    <tag k="lit" v="yes"/>
    <tag k="maxspeed" v="50"/>
    <tag k="name" v="Arnulfstraße"/>
    <tag k="name:etymology:wikidata" v="Q64956"/>
    <tag k="oneway" v="yes"/>
    <tag k="sidewalk:left" v="no"/>
    <tag k="sidewalk:right" v="separate"/>
    <tag k="surface" v="asphalt"/>
    <tag k="tmc" v="DE:35355/35356"/>
  </way>
  <way id="151521564" version="20" timestamp="2025-04-11T10:49:42Z" changeset="164809940" uid="2554996" user="Nanoilite">
    <nd ref="21326676"/>
    <nd ref="19404294"/>
    <nd ref="715297388"/>
    <nd ref="1659974592"/>
    <nd ref="21924911"/>
    <nd ref="201418037"/>
    <nd ref="1906159447"/>
    <nd ref="1502862322"/>
    <nd ref="21924914"/>
    <nd ref="6071582320"/>
    <nd ref="201416172"/>
    <nd ref="2475788296"/>
    <nd ref="9203368973"/>
    <nd ref="6071582319"/>
    <nd ref="737219006"/>
    <nd ref="302721333"/>
    <nd ref="19404292"/>
    <tag k="class:bicycle" v="1"/>
    <tag k="cycleway:both" v="shared_lane"/>
    <tag k="cycleway:both:lane" v="pictogram"/>
    <tag k="highway" v="residential"/>
    <tag k="lane_markings" v="no"/>
    <tag k="lit" v="yes"/>
    <tag k="maxspeed" v="50"/>
    <tag k="name" v="Deroystraße"/>
    <tag k="name:etymology:wikidata" v="Q88444"/>
    <tag k="parking:lane:both" v="perpendicular"/>
    <tag k="sidewalk:left" v="separate"/>
    <tag k="smoothness" v="good"/>
    <tag k="surface" v="asphalt"/>
  </way>
  <way id="151521565" version="20" timestamp="2025-04-01T07:32:41Z" changeset="164360911" uid="170763" user="SoulCover">
    <nd ref="12323822097"/>
    <nd ref="3700240481"/>
    <nd ref="4268520832"/>
    <nd ref="21632160"/>
    <tag k="class:bicycle" v="1"/>
    <tag k="cycleway:both" v="lane"/>
    <tag k="cycleway:both:lane" v="exclusive"/>
    <tag k="highway" v="tertiary"/>
    <tag k="lanes" v="2"/>
    <tag k="lit" v="yes"/>
    <tag k="maxspeed" v="50"/>
    <tag k="name" v="Pappenheimstraße"/>
    <tag k="name:etymology:wikidata" v="Q61869"/>
    <tag k="sidewalk:both" v="separate"/>
    <tag k="smoothness" v="good"/>
    <tag k="surface" v="asphalt"/>
  </way>
  <way id="151521566" version="8" timestamp="2022-06-02T21:41:08Z" changeset="121869589" uid="78613" user="heilbron">
    <nd ref="398692"/>
    <nd ref="1132664802"/>
    <nd ref="1132664782"/>
    <nd ref="21632176"/>
    <tag k="cycleway:both" v="separate"/>
    <tag k="highway" v="secondary"/>
    <tag k="maxspeed" v="50"/>
    <tag k="name" v="Arnulfstraße"/>
    <tag k="name:etymology:wikidata" v="Q64956"/>
    <tag k="surface" v="asphalt"/>
  </way>
  <way id="153292451" version="6" timestamp="2023-10-20T14:55:37Z" changeset="142874628" uid="16960231" user="DLystopadov">
    <nd ref="1659974301"/>
    <nd ref="1659974315"/>
    <nd ref="1659974324"/>
    <nd ref="1659974338"/>
    <nd ref="1659974339"/>
    <nd ref="1659974343"/>
    <nd ref="1659974347"/>
    <nd ref="1659974351"/>
    <nd ref="1659974361"/>
    <nd ref="1659974368"/>
    <nd ref="1659974360"/>
    <nd ref="1659974366"/>
    <nd ref="1659974387"/>
    <nd ref="1659974388"/>
    <nd ref="1659974391"/>
    <nd ref="1659974401"/>
    <nd ref="1659974389"/>
    <nd ref="1659974379"/>
    <nd ref="1659974353"/>
    <nd ref="1659974345"/>
    <nd ref="1659974341"/>
    <nd ref="1659974335"/>
    <nd ref="1659974329"/>
    <nd ref="1659974333"/>
    <nd ref="1659974326"/>
    <nd ref="1659974314"/>
    <nd ref="1659974310"/>
    <nd ref="1659974309"/>
    <nd ref="1659974303"/>
    <nd ref="1659974305"/>
    <nd ref="1659974297"/>
    <nd ref="1659974301"/>
    <tag k="building" v="retail"/>
    <tag k="name" v="Kronebau"/>
    <tag k="wikidata" v="Q1789836"/>
    <tag k="wikipedia" v="de:Kronebau"/>
  </way>
  <way id="153292452" version="5" timestamp="2017-12-20T15:17:28Z" changeset="54789438" uid="155922" user="Zeitlupe">
    <nd ref="1659974349"/>
    <nd ref="2773973811"/>
    <nd ref="1659974386"/>
    <nd ref="1659974384"/>
    <nd ref="1659974344"/>
    <nd ref="1659974349"/>
    <tag k="building" v="yes"/>
    <tag k="name" v="Krone-Villa"/>
  </way>
  <way id="153292468" version="11" timestamp="2024-09-02T14:44:40Z" changeset="156102551" uid="16960231" user="DLystopadov">
    <nd ref="21619883"/>
    <nd ref="7788404629"/>
    <nd ref="303192845"/>
    <nd ref="738269651"/>
    <nd ref="4153473517"/>
    <nd ref="818083107"/>
    <nd ref="358563818"/>
    <tag k="cycleway:both" v="no"/>
    <tag k="highway" v="residential"/>
    <tag k="lane_markings" v="no"/>
    <tag k="lit" v="yes"/>
    <tag k="maxspeed" v="50"/>
    <tag k="name" v="Zirkus-Krone-Straße"/>
    <tag k="sidewalk" v="both"/>
    <tag k="surface" v="asphalt"/>
    <tag k="width" v="8"/>
  </way>
  <way id="155039623" version="16" timestamp="2025-03-22T21:16:15Z" changeset="163964538" uid="44217" user="kjon">
    <nd ref="13883943"/>
    <nd ref="20980561"/>
    <nd ref="1077566377"/>
    <nd ref="6622548606"/>
    <nd ref="6622548605"/>
    <nd ref="2844712619"/>
    <nd ref="1426417137"/>
    <nd ref="2844712656"/>
    <nd ref="21619892"/>
    <tag k="class:bicycle" v="-1"/>
    <tag k="highway" v="residential"/>
    <tag k="lit" v="yes"/>
    <tag k="maxspeed" v="50"/>
    <tag k="name" v="Karlstraße"/>
    <tag k="name:etymology:wikidata" v="Q44961"/>
    <tag k="parking:left" v="no"/>
    <tag k="parking:left:restriction" v="no_stopping"/>
    <tag k="parking:right" v="yes"/>
    <tag k="parking:right:orientation" v="parallel"/>
    <tag k="sidewalk" v="both"/>
    <tag k="source:maxspeed" v="DE:urban"/>
    <tag k="surface" v="asphalt"/>
    <tag k="zone:traffic" v="DE:urban"/>
  </way>
  <way id="155039625" version="10" timestamp="2023-11-20T07:25:06Z" changeset="144234133" uid="18493611" user="MunichWays">
    <nd ref="13883942"/>
    <nd ref="2734171649"/>
    <nd ref="2734171720"/>
    <nd ref="2734171620"/>
    <nd ref="4464804345"/>
    <nd ref="2734171401"/>
    <nd ref="8419133810"/>
    <nd ref="774634149"/>
    <tag k="class:bicycle" v="1"/>
    <tag k="highway" v="residential"/>
    <tag k="lit" v="yes"/>
    <tag k="maxspeed" v="50"/>
    <tag k="name" v="Sandstraße"/>
    <tag k="sidewalk" v="both"/>
    <tag k="source:maxspeed" v="DE:urban"/>
    <tag k="surface" v="asphalt"/>
    <tag k="zone:traffic" v="DE:urban"/>
  </way>
  <way id="160489251" version="8" timestamp="2023-10-20T14:42:32Z" changeset="142874041" uid="16960231" user="DLystopadov">
    <nd ref="21619883"/>
    <nd ref="853545460"/>
    <nd ref="21924908"/>
    <tag k="cycleway:both" v="no"/>
    <tag k="highway" v="residential"/>
    <tag k="lane_markings" v="no"/>
    <tag k="lit" v="yes"/>
    <tag k="maxspeed" v="50"/>
    <tag k="name" v="Georg-Schätzel-Straße"/>
    <tag k="name:etymology:wikidata" v="Q110896"/>
    <tag k="oneway" v="yes"/>
    <tag k="parking:left" v="half_on_kerb"/>
    <tag k="parking:left:orientation" v="diagonal"/>
    <tag k="parking:right" v="no"/>
    <tag k="sidewalk" v="both"/>
    <tag k="surface" v="asphalt"/>
  </way>
  <way id="160489253" version="10" timestamp="2024-09-02T14:54:00Z" changeset="156102789" uid="16960231" user="DLystopadov">
    <nd ref="21585834"/>
    <nd ref="3487635990"/>
    <nd ref="3487638895"/>
    <nd ref="1843099523"/>
    <nd ref="268098180"/>
    <nd ref="2475788356"/>
    <nd ref="480314288"/>
    <nd ref="480314286"/>
    <nd ref="739381839"/>
    <nd ref="302721332"/>
    <tag k="class:bicycle" v="1"/>
    <tag k="cycleway:both" v="shared_lane"/>
    <tag k="cycleway:both:lane" v="pictogram"/>
    <tag k="highway" v="residential"/>
    <tag k="lit" v="yes"/>
    <tag k="maxspeed" v="30"/>
    <tag k="name" v="Grete-Mosheim-Straße"/>
    <tag k="name:etymology:wikidata" v="Q91872"/>
    <tag k="smoothness" v="good"/>
    <tag k="surface" v="asphalt"/>
  </way>
  <way id="160489254" version="12" timestamp="2024-09-02T14:52:50Z" changeset="156102789" uid="16960231" user="DLystopadov">
    <nd ref="21632175"/>
    <nd ref="7002654725"/>
    <nd ref="21619887"/>
    <tag k="class:bicycle" v="1"/>
    <tag k="cycleway:left" v="shared_lane"/>
    <tag k="cycleway:left:lane" v="pictogram"/>
    <tag k="cycleway:left:oneway" v="-1"/>
    <tag k="cycleway:right" v="no"/>
    <tag k="highway" v="residential"/>
    <tag k="maxspeed" v="30"/>
    <tag k="name" v="Marsplatz"/>
    <tag k="oneway" v="yes"/>
    <tag k="oneway:bicycle" v="no"/>
    <tag k="sidewalk" v="left"/>
    <tag k="sidewalk:left:surface" v="paving_stones"/>
    <tag k="smoothness" v="good"/>
    <tag k="source:maxspeed" v="sign"/>
    <tag k="surface" v="asphalt"/>
  </way>
  <way id="160489255" version="9" timestamp="2022-07-30T07:00:16Z" changeset="124256436" uid="51597" user="bjelli">
    <nd ref="1725449395"/>
    <nd ref="21619887"/>
    <tag k="cycleway:both" v="no"/>
    <tag k="highway" v="residential"/>
    <tag k="lane_markings" v="no"/>
    <tag k="maxspeed" v="50"/>
    <tag k="name" v="Pranckhstraße"/>
    <tag k="name:etymology:wikidata" v="Q123479"/>
    <tag k="psv" v="no"/>
    <tag k="sidewalk" v="both"/>
    <tag k="surface" v="asphalt"/>
  </way>
  <way id="160489256" version="7" timestamp="2021-10-31T14:13:01Z" changeset="113194875" uid="7702726" user="d2quadra">
    <nd ref="21632160"/>
    <nd ref="1386432610"/>
    <tag k="highway" v="residential"/>
    <tag k="lanes" v="1"/>
    <tag k="maxspeed" v="50"/>
    <tag k="name" v="Spatenstraße"/>
    <tag k="oneway" v="yes"/>
    <tag k="sidewalk" v="right"/>
    <tag k="surface" v="asphalt"/>
  </way>
  <way id="160489257" version="11" timestamp="2022-07-30T07:00:01Z" changeset="124256436" uid="51597" user="bjelli">
    <nd ref="21924908"/>
    <nd ref="7002654727"/>
    <nd ref="1725449395"/>
    <nd ref="6209749148"/>
    <nd ref="21924914"/>
    <tag k="cycleway:both" v="no"/>
    <tag k="highway" v="residential"/>
    <tag k="lane_markings" v="no"/>
    <tag k="lit" v="yes"/>
    <tag k="maxspeed" v="50"/>
    <tag k="name" v="Tillystraße"/>
    <tag k="name:etymology:wikidata" v="Q155534"/>
    <tag k="oneway" v="yes"/>
    <tag k="sidewalk" v="right"/>
    <tag k="surface" v="asphalt"/>
  </way>
  <way id="160489258" version="7" timestamp="2023-04-22T08:53:56Z" changeset="135220113" uid="1849074" user="vmicho">
    <nd ref="814227811"/>
    <nd ref="1020955833"/>
    <nd ref="1020955832"/>
    <nd ref="309889867"/>
    <nd ref="737219028"/>
    <nd ref="745764066"/>
    <tag k="cycleway:both" v="no"/>
    <tag k="highway" v="residential"/>
    <tag k="lane_markings" v="no"/>
    <tag k="lit" v="yes"/>
    <tag k="maxspeed" v="50"/>
    <tag k="name" v="Zirkus-Krone-Straße"/>
    <tag k="oneway" v="yes"/>
    <tag k="sidewalk" v="both"/>
    <tag k="surface" v="asphalt"/>
  </way>
  <way id="163989121" version="18" timestamp="2024-10-24T21:20:06Z" changeset="158314202" uid="137242" user="Rainero">
    <nd ref="6501835876"/>
    <nd ref="4532626877"/>
    <nd ref="774634238"/>
    <tag k="class:bicycle" v="1"/>
    <tag k="highway" v="residential"/>
    <tag k="lit" v="yes"/>
    <tag k="maxspeed" v="30"/>
    <tag k="name" v="Adamstraße"/>
    <tag k="name:etymology:wikidata" v="Q723297"/>
    <tag k="oneway" v="yes"/>
    <tag k="oneway:bicycle" v="no"/>
    <tag k="sidewalk:both" v="separate"/>
    <tag k="surface" v="asphalt"/>
  </way>
  <way id="173514102" version="8" timestamp="2021-05-15T07:35:57Z" changeset="104719406" uid="1928791" user="biker-2">
    <nd ref="1843099455"/>
    <nd ref="303381716"/>
    <nd ref="2475837817"/>
    <nd ref="1843099476"/>
    <nd ref="1843099427"/>
    <nd ref="1843099432"/>
    <nd ref="1843099455"/>
    <tag k="addr:housename" v="Panorama Towers"/>
    <tag k="addr:housenumber" v="17"/>
    <tag k="addr:postcode" v="80636"/>
    <tag k="addr:street" v="Erika-Mann-Straße"/>
    <tag k="building" v="residential"/>
    <tag k="building:levels" v="12"/>
    <tag k="name" v="Panorama Towers"/>
    <tag k="roof:levels" v="1"/>
    <tag k="roof:shape" v="flat"/>
  </way>
  <way id="180175487" version="8" timestamp="2022-03-31T16:59:28Z" changeset="119169966" uid="78613" user="heilbron">
    <nd ref="21324383"/>
    <nd ref="1386432570"/>
    <nd ref="1386432553"/>
    <nd ref="1386432529"/>
    <nd ref="1386432518"/>
    <nd ref="21324377"/>
    <nd ref="1386432516"/>
    <nd ref="1487012485"/>
    <nd ref="21324378"/>
    <nd ref="3712364863"/>
    <nd ref="834709828"/>
    <tag k="bicycle" v="use_sidepath"/>
    <tag k="foot" v="use_sidepath"/>
    <tag k="highway" v="secondary"/>
    <tag k="lanes" v="2"/>
    <tag k="lit" v="yes"/>
    <tag k="maxspeed" v="50"/>
    <tag k="name" v="Marsstraße"/>
    <tag k="oneway" v="yes"/>
    <tag k="surface" v="asphalt"/>
    <tag k="tmc" v="DE:35375/35376"/>
  </way>
  <way id="224855182" version="18" timestamp="2025-05-08T09:41:14Z" changeset="165973913" uid="16061279" user="YellowSoul">
    <nd ref="21324005"/>
    <nd ref="2470092097"/>
    <nd ref="1659974143"/>
    <nd ref="1659974155"/>
    <nd ref="303162176"/>
    <nd ref="303189190"/>
    <nd ref="3757105321"/>
    <nd ref="302721333"/>
    <nd ref="3757114337"/>
    <nd ref="3712348775"/>
    <nd ref="303189139"/>
    <nd ref="3712348751"/>
    <nd ref="3712348745"/>
    <nd ref="1430460315"/>
    <tag k="bicycle" v="use_sidepath"/>
    <tag k="cycleway:left" v="no"/>
    <tag k="cycleway:right" v="separate"/>
    <tag k="highway" v="tertiary"/>
    <tag k="lanes" v="2"/>
    <tag k="lit" v="yes"/>
    <tag k="maxspeed" v="50"/>
    <tag k="name" v="Arnulfstraße"/>
    <tag k="name:etymology:wikidata" v="Q64956"/>
    <tag k="oneway" v="yes"/>
    <tag k="parking:right" v="yes"/>
    <tag k="parking:right:orientation" v="parallel"/>
    <tag k="sidewalk:left" v="no"/>
    <tag k="sidewalk:right" v="separate"/>
    <tag k="source:maxspeed" v="DE:urban"/>
    <tag k="surface" v="asphalt"/>
    <tag k="tmc" v="DE:35355/35356"/>
  </way>
  <way id="224855183" version="14" timestamp="2024-12-31T15:54:18Z" changeset="160838945" uid="11652964" user="Olufanz">
    <nd ref="12405262838"/>
    <nd ref="1394031615"/>
    <nd ref="309889867"/>
    <nd ref="1394031617"/>
    <nd ref="4696310001"/>
    <nd ref="3757126943"/>
    <nd ref="21324005"/>
    <tag k="bicycle" v="use_sidepath"/>
    <tag k="cycleway:left" v="no"/>
    <tag k="cycleway:right" v="separate"/>
    <tag k="highway" v="tertiary"/>
    <tag k="lanes" v="2"/>
    <tag k="lit" v="yes"/>
    <tag k="maxspeed" v="50"/>
    <tag k="name" v="Arnulfstraße"/>
    <tag k="name:etymology:wikidata" v="Q64956"/>
    <tag k="oneway" v="yes"/>
    <tag k="sidewalk:left" v="no"/>
    <tag k="sidewalk:right" v="separate"/>
    <tag k="source:maxspeed" v="DE:urban"/>
    <tag k="surface" v="asphalt"/>
    <tag k="tmc" v="DE:35356/35357"/>
  </way>
  <way id="224855185" version="8" timestamp="2024-07-06T11:55:37Z" changeset="153620787" uid="18493611" user="MunichWays">
    <nd ref="21324005"/>
    <nd ref="353290785"/>
    <tag k="bicycle" v="yes"/>
    <tag k="class:bicycle" v="-1"/>
    <tag k="cycleway:both" v="no"/>
    <tag k="foot" v="yes"/>
    <tag k="highway" v="tertiary"/>
    <tag k="lane_markings" v="no"/>
    <tag k="lit" v="yes"/>
    <tag k="maxspeed" v="50"/>
    <tag k="name" v="Wredestraße"/>
    <tag k="name:etymology:wikidata" v="Q64759"/>
    <tag k="sidewalk:both" v="separate"/>
    <tag k="smoothness" v="good"/>
    <tag k="surface" v="asphalt"/>
  </way>
  <way id="226979011" version="11" timestamp="2024-11-03T12:54:58Z" changeset="158697726" uid="20085156" user="map per StreetComplete">
    <nd ref="21324003"/>
    <nd ref="353290783"/>
    <nd ref="353290800"/>
    <nd ref="20981713"/>
    <tag k="bicycle" v="yes"/>
    <tag k="class:bicycle" v="-2"/>
    <tag k="cycleway:left" v="no"/>
    <tag k="cycleway:right" v="lane"/>
    <tag k="cycleway:right:lane" v="exclusive"/>
    <tag k="highway" v="secondary"/>
    <tag k="lanes" v="2"/>
    <tag k="lit" v="yes"/>
    <tag k="maxspeed" v="50"/>
    <tag k="name" v="Seidlstraße"/>
    <tag k="name:etymology:wikidata" v="Q86955"/>
    <tag k="oneway" v="yes"/>
    <tag k="sidewalk:left" v="no"/>
    <tag k="sidewalk:right" v="separate"/>
    <tag k="surface" v="asphalt"/>
    <tag k="tmc" v="DE:35369"/>
  </way>
  <way id="231932322" version="11" timestamp="2022-09-15T20:51:29Z" changeset="126240138" uid="536583" user="Strubbl">
    <nd ref="2402541458"/>
    <nd ref="3102481780"/>
    <nd ref="2402541459"/>
    <nd ref="2627397908"/>
    <nd ref="3102481774"/>
    <nd ref="5712212321"/>
    <nd ref="3795361107"/>
    <nd ref="5398388942"/>
    <nd ref="2402541458"/>
    <tag k="addr:city" v="München"/>
    <tag k="addr:housename" v="Bayerischer Rundfunk"/>
    <tag k="addr:housenumber" v="1"/>
    <tag k="addr:postcode" v="80335"/>
    <tag k="addr:street" v="Rundfunkplatz"/>
    <tag k="building" v="yes"/>
    <tag k="building:levels" v="2"/>
    <tag k="ele" v="1"/>
    <tag k="name" v="BR Haus 6 (Kantine)"/>
    <tag k="website" v="https://www.br.de/index.html"/>
    <tag k="wheelchair" v="limited"/>
    <tag k="wikidata" v="Q278637"/>
    <tag k="wikipedia" v="de:Bayerischer Rundfunk"/>
  </way>
  <way id="234870645" version="17" timestamp="2023-11-11T16:47:06Z" changeset="143907289" uid="18493611" user="MunichWays">
    <nd ref="31297413"/>
    <nd ref="8938018300"/>
    <nd ref="2086422412"/>
    <nd ref="8509775727"/>
    <nd ref="6616532517"/>
    <nd ref="19404289"/>
    <nd ref="6616532511"/>
    <nd ref="2734095621"/>
    <nd ref="291887239"/>
    <tag k="bicycle" v="designated"/>
    <tag k="bicycle_road" v="yes"/>
    <tag k="class:bicycle" v="1"/>
    <tag k="highway" v="residential"/>
    <tag k="lane_markings" v="no"/>
    <tag k="lit" v="yes"/>
    <tag k="maxspeed" v="30"/>
    <tag k="name" v="Blutenburgstraße"/>
    <tag k="oneway" v="no"/>
    <tag k="sidewalk" v="separate"/>
    <tag k="smoothness" v="good"/>
    <tag k="source:maxspeed" v="DE:bicycle_road"/>
    <tag k="surface" v="asphalt"/>
    <tag k="traffic_sign" v="DE:244.1"/>
  </way>
  <way id="236713562" version="17" timestamp="2025-03-22T21:16:15Z" changeset="163964538" uid="44217" user="kjon">
    <nd ref="6501835878"/>
    <nd ref="2734119484"/>
    <nd ref="4268520834"/>
    <nd ref="315969670"/>
    <nd ref="2734095538"/>
    <nd ref="6501835880"/>
    <nd ref="21620060"/>
    <tag k="bicycle" v="designated"/>
    <tag k="bicycle_road" v="yes"/>
    <tag k="class:bicycle" v="2"/>
    <tag k="highway" v="residential"/>
    <tag k="lanes" v="2"/>
    <tag k="maxspeed" v="30"/>
    <tag k="name" v="Blutenburgstraße"/>
    <tag k="oneway" v="no"/>
    <tag k="parking:both" v="yes"/>
    <tag k="parking:both:orientation" v="parallel"/>
    <tag k="sidewalk:both" v="separate"/>
    <tag k="smoothness" v="good"/>
    <tag k="source:maxspeed" v="DE:bicycle_road"/>
    <tag k="surface" v="asphalt"/>
    <tag k="traffic_sign" v="DE:244.1"/>
  </way>
  <way id="236947477" version="12" timestamp="2023-12-27T12:46:04Z" changeset="145573380" uid="18493611" user="MunichWays">
    <nd ref="363191"/>
    <nd ref="1386432614"/>
    <tag k="bicycle" v="yes"/>
    <tag k="class:bicycle" v="1"/>
    <tag k="cycleway:both" v="no"/>
    <tag k="foot" v="yes"/>
    <tag k="highway" v="residential"/>
    <tag k="horse" v="yes"/>
    <tag k="lanes" v="2"/>
    <tag k="lit" v="yes"/>
    <tag k="maxspeed" v="50"/>
    <tag k="name" v="Karlstraße"/>
    <tag k="name:etymology:wikidata" v="Q44961"/>
    <tag k="note" v="Temporäre Sperrung von der 36. KW bis 51. KW 2013 zwischen Pappenheim- und Sandstraße im Rahmen einer Baumaßnahme. Die Karlstraße kann von der Pappenheimstraße nur über die Spatenstraße erreicht werden."/>
    <tag k="oneway" v="no"/>
    <tag k="sidewalk" v="both"/>
    <tag k="smoothness" v="excellent"/>
    <tag k="surface" v="asphalt"/>
  </way>
  <way id="236949942" version="13" timestamp="2023-11-20T07:25:06Z" changeset="144234133" uid="18493611" user="MunichWays">
    <nd ref="1386432614"/>
    <nd ref="21619897"/>
    <nd ref="2844712635"/>
    <nd ref="4211216574"/>
    <nd ref="2844712626"/>
    <nd ref="13883942"/>
    <tag k="class:bicycle" v="1"/>
    <tag k="highway" v="residential"/>
    <tag k="lanes" v="2"/>
    <tag k="lit" v="yes"/>
    <tag k="maxspeed" v="50"/>
    <tag k="name" v="Karlstraße"/>
    <tag k="name:etymology:wikidata" v="Q44961"/>
    <tag k="sidewalk" v="both"/>
    <tag k="smoothness" v="good"/>
    <tag k="source:maxspeed" v="DE:urban"/>
    <tag k="surface" v="asphalt"/>
    <tag k="zone:traffic" v="DE:urban"/>
  </way>
  <way id="244258801" version="12" timestamp="2022-09-15T20:34:43Z" changeset="126239614" uid="536583" user="Strubbl">
    <nd ref="2515982009"/>
    <nd ref="2515982010"/>
    <nd ref="2515982011"/>
    <nd ref="2515982012"/>
    <nd ref="5398388939"/>
    <nd ref="2627397913"/>
    <nd ref="2515982009"/>
    <tag k="addr:city" v="München"/>
    <tag k="addr:country" v="DE"/>
    <tag k="addr:housenumber" v="1"/>
    <tag k="addr:postcode" v="80335"/>
    <tag k="addr:street" v="Rundfunkplatz"/>
    <tag k="building" v="commercial"/>
    <tag k="building:levels" v="5"/>
    <tag k="name" v="BR Haus 1"/>
    <tag k="phone" v="+49 89 590001"/>
    <tag k="website" v="https://www.br.de/index.html"/>
    <tag k="wheelchair" v="no"/>
    <tag k="wheelchair:description" v="Zwei Stufen (kleine Treppe)"/>
    <tag k="wikidata" v="Q97585673"/>
  </way>
  <way id="244258803" version="9" timestamp="2022-09-15T20:33:57Z" changeset="126239595" uid="536583" user="Strubbl">
    <nd ref="2515982012"/>
    <nd ref="2515982011"/>
    <nd ref="2515982014"/>
    <nd ref="2515982013"/>
    <nd ref="2515982012"/>
    <tag k="addr:city" v="München"/>
    <tag k="addr:country" v="DE"/>
    <tag k="addr:housenumber" v="7"/>
    <tag k="addr:postcode" v="80335"/>
    <tag k="addr:street" v="Hopfenstraße"/>
    <tag k="building" v="commercial"/>
    <tag k="building:levels" v="5"/>
    <tag k="name" v="BR Haus 2"/>
    <tag k="website" v="https://www.br.de/radio/bayern1/index.html"/>
    <tag k="wikidata" v="Q812476"/>
    <tag k="wikipedia" v="de:Bayern 1"/>
  </way>
  <way id="244258804" version="5" timestamp="2019-02-12T17:36:37Z" changeset="67138949" uid="202779" user="tv-arnd">
    <nd ref="2515982013"/>
    <nd ref="5398388940"/>
    <nd ref="2595938025"/>
    <nd ref="2515982015"/>
    <nd ref="2515982016"/>
    <nd ref="2515982014"/>
    <nd ref="2515982013"/>
    <tag k="building" v="yes"/>
    <tag k="name" v="BR Haus 3"/>
  </way>
  <way id="244258805" version="5" timestamp="2019-02-12T17:32:36Z" changeset="67138841" uid="202779" user="tv-arnd">
    <nd ref="2515982009"/>
    <nd ref="2515982017"/>
    <nd ref="2627397907"/>
    <nd ref="2627397920"/>
    <nd ref="2627397913"/>
    <nd ref="2515982009"/>
    <tag k="building" v="yes"/>
    <tag k="name" v="BR Haus 4"/>
  </way>
  <way id="253700927" version="7" timestamp="2019-06-04T18:58:46Z" changeset="70934414" uid="753289" user="Marsupium">
    <nd ref="291136034"/>
    <nd ref="2595938023"/>
    <nd ref="2595938021"/>
    <nd ref="2515982016"/>
    <nd ref="2515982015"/>
    <nd ref="2595938025"/>
    <nd ref="2627397914"/>
    <nd ref="2627397912"/>
    <nd ref="291136386"/>
    <nd ref="291136124"/>
    <nd ref="2595938026"/>
    <nd ref="2595938028"/>
    <nd ref="2595938022"/>
    <nd ref="5398388933"/>
    <nd ref="5398388932"/>
    <nd ref="6521874509"/>
    <nd ref="303144586"/>
    <nd ref="291136034"/>
    <tag k="building" v="yes"/>
    <tag k="name" v="BR Haus 8"/>
  </way>
  <way id="264305934" version="2" timestamp="2019-06-07T20:44:28Z" changeset="71037792" uid="4453208" user="jogemu">
    <nd ref="2699948613"/>
    <nd ref="2699948607"/>
    <nd ref="2699948575"/>
    <nd ref="2699948584"/>
    <nd ref="1289034292"/>
    <nd ref="1289034294"/>
    <nd ref="2699948590"/>
    <nd ref="738224225"/>
    <nd ref="738224226"/>
    <nd ref="738224227"/>
    <nd ref="2699948599"/>
    <nd ref="738224228"/>
    <nd ref="738224230"/>
    <nd ref="738224231"/>
    <nd ref="2699948609"/>
    <nd ref="2699948613"/>
    <tag k="addr:city" v="München"/>
    <tag k="addr:country" v="DE"/>
    <tag k="addr:housenumber" v="9"/>
    <tag k="addr:postcode" v="80335"/>
    <tag k="addr:street" v="Seidlstraße"/>
    <tag k="building" v="public"/>
    <tag k="building:levels" v="5"/>
    <tag k="name" v="Autobahndirektion Südbayern"/>
  </way>
  <way id="264305935" version="2" timestamp="2019-06-07T20:44:28Z" changeset="71037792" uid="4453208" user="jogemu">
    <nd ref="2699948584"/>
    <nd ref="2699948575"/>
    <nd ref="2699948556"/>
    <nd ref="711767578"/>
    <nd ref="2699948559"/>
    <nd ref="711767582"/>
    <nd ref="711767613"/>
    <nd ref="711770677"/>
    <nd ref="738224224"/>
    <nd ref="2699948562"/>
    <nd ref="1289034295"/>
    <nd ref="2699948564"/>
    <nd ref="2699948565"/>
    <nd ref="1289034269"/>
    <nd ref="2699948566"/>
    <nd ref="2699948568"/>
    <nd ref="1289034270"/>
    <nd ref="1289034266"/>
    <nd ref="2699948584"/>
    <tag k="addr:city" v="München"/>
    <tag k="addr:country" v="DE"/>
    <tag k="addr:housenumber" v="7"/>
    <tag k="addr:postcode" v="80335"/>
    <tag k="addr:street" v="Seidlstraße"/>
    <tag k="building" v="public"/>
    <tag k="building:levels" v="5"/>
    <tag k="name" v="Autobahndirektion Südbayern"/>
  </way>
  <way id="264305943" version="1" timestamp="2014-03-03T14:33:20Z" changeset="20889536" uid="109029" user="shorty_de">
    <nd ref="2699948571"/>
    <nd ref="738533468"/>
    <nd ref="2699948558"/>
    <nd ref="2699948557"/>
    <nd ref="2699948560"/>
    <nd ref="2699948561"/>
    <nd ref="2699948570"/>
    <nd ref="2699948567"/>
    <nd ref="2699948572"/>
    <nd ref="2699948573"/>
    <nd ref="2699948576"/>
    <nd ref="2699948580"/>
    <nd ref="2699948571"/>
    <tag k="addr:city" v="München"/>
    <tag k="addr:country" v="DE"/>
    <tag k="addr:housenumber" v="1"/>
    <tag k="addr:postcode" v="80335"/>
    <tag k="addr:street" v="Denisstraße"/>
    <tag k="building" v="yes"/>
    <tag k="building:levels" v="7"/>
  </way>
  <way id="264305944" version="1" timestamp="2014-03-03T14:33:20Z" changeset="20889536" uid="109029" user="shorty_de">
    <nd ref="2699948597"/>
    <nd ref="2699948592"/>
    <nd ref="2699948591"/>
    <nd ref="2699948571"/>
    <nd ref="2699948580"/>
    <nd ref="2699948597"/>
    <tag k="addr:city" v="München"/>
    <tag k="addr:country" v="DE"/>
    <tag k="addr:housenumber" v="1a"/>
    <tag k="addr:postcode" v="80335"/>
    <tag k="addr:street" v="Denisstraße"/>
    <tag k="building" v="yes"/>
    <tag k="building:levels" v="7"/>
  </way>
  <way id="264305948" version="7" timestamp="2021-07-08T06:56:43Z" changeset="107609143" uid="120636" user="luja">
    <nd ref="2699948552"/>
    <nd ref="711767592"/>
    <nd ref="1156911659"/>
    <nd ref="1156911655"/>
    <nd ref="711767587"/>
    <nd ref="711767582"/>
    <nd ref="2699948559"/>
    <nd ref="2699948555"/>
    <nd ref="2699948553"/>
    <nd ref="2699948554"/>
    <nd ref="2699948552"/>
    <tag k="addr:housenumber" v="30"/>
    <tag k="addr:street" v="Marsstraße"/>
    <tag k="building" v="commercial"/>
    <tag k="building:levels" v="1"/>
    <tag k="roof:shape" v="flat"/>
  </way>
  <way id="264305949" version="1" timestamp="2014-03-03T14:33:21Z" changeset="20889536" uid="109029" user="shorty_de">
    <nd ref="2699948569"/>
    <nd ref="2699948586"/>
    <nd ref="2699948585"/>
    <nd ref="2699948579"/>
    <nd ref="2699948577"/>
    <nd ref="2699948570"/>
    <nd ref="2699948561"/>
    <nd ref="2699948569"/>
    <tag k="addr:city" v="München"/>
    <tag k="addr:country" v="DE"/>
    <tag k="addr:housenumber" v="38"/>
    <tag k="addr:postcode" v="80335"/>
    <tag k="addr:street" v="Marsstraße"/>
    <tag k="building" v="yes"/>
    <tag k="building:levels" v="7"/>
  </way>
  <way id="264305950" version="3" timestamp="2024-11-25T10:06:20Z" changeset="159565854" uid="536583" user="Strubbl">
    <nd ref="2699948569"/>
    <nd ref="2699948582"/>
    <nd ref="738533473"/>
    <nd ref="738533475"/>
    <nd ref="738533478"/>
    <nd ref="2699948602"/>
    <nd ref="1157895281"/>
    <nd ref="2699948617"/>
    <nd ref="12373334917"/>
    <nd ref="2699948598"/>
    <nd ref="2699948585"/>
    <nd ref="2699948586"/>
    <nd ref="2699948569"/>
    <tag k="addr:city" v="München"/>
    <tag k="addr:country" v="DE"/>
    <tag k="addr:housenumber" v="40"/>
    <tag k="addr:postcode" v="80335"/>
    <tag k="addr:street" v="Marsstraße"/>
    <tag k="building" v="yes"/>
    <tag k="building:levels" v="7"/>
  </way>
  <way id="264305953" version="6" timestamp="2022-10-20T14:26:13Z" changeset="127828199" uid="290680" user="wheelmap_visitor">
    <nd ref="2699948617"/>
    <nd ref="1157895281"/>
    <nd ref="1240027794"/>
    <nd ref="738533482"/>
    <nd ref="738533485"/>
    <nd ref="4211216567"/>
    <nd ref="1240027948"/>
    <nd ref="738533489"/>
    <nd ref="738533490"/>
    <nd ref="2699948647"/>
    <nd ref="2699948648"/>
    <nd ref="4211216578"/>
    <nd ref="2699948644"/>
    <nd ref="2699948645"/>
    <nd ref="2699948641"/>
    <nd ref="2699948638"/>
    <nd ref="2699948636"/>
    <nd ref="2699948640"/>
    <nd ref="2699948631"/>
    <nd ref="2699948632"/>
    <nd ref="738533459"/>
    <nd ref="2699948605"/>
    <nd ref="2699948606"/>
    <nd ref="2699948612"/>
    <nd ref="2699948615"/>
    <nd ref="2699948625"/>
    <nd ref="2699948617"/>
    <tag k="addr:city" v="München"/>
    <tag k="addr:country" v="DE"/>
    <tag k="addr:housenumber" v="3"/>
    <tag k="addr:postcode" v="80335"/>
    <tag k="addr:street" v="Denisstraße"/>
    <tag k="amenity" v="courthouse"/>
    <tag k="building" v="yes"/>
    <tag k="building:levels" v="7"/>
    <tag k="fax" v="+49 89 5597-3561"/>
    <tag k="name" v="Landgericht München II"/>
    <tag k="phone" v="+49 89 5597-0"/>
    <tag k="website" v="https://www.justiz.bayern.de/"/>
    <tag k="wheelchair" v="limited"/>
    <tag k="wikidata" v="Q1802883"/>
  </way>
  <way id="279455280" version="2" timestamp="2015-12-18T12:44:28Z" changeset="36027032" uid="14390" user="BeKri">
    <nd ref="2836697616"/>
    <nd ref="2836697611"/>
    <nd ref="2836697613"/>
    <nd ref="2836697615"/>
    <nd ref="2836697616"/>
    <tag k="addr:city" v="München"/>
    <tag k="addr:country" v="DE"/>
    <tag k="addr:housenumber" v="19"/>
    <tag k="addr:postcode" v="80335"/>
    <tag k="addr:street" v="Pappenheimstraße"/>
    <tag k="building" v="yes"/>
  </way>
  <way id="292767087" version="11" timestamp="2024-11-03T12:55:01Z" changeset="158697726" uid="20085156" user="map per StreetComplete">
    <nd ref="21026891"/>
    <nd ref="21026892"/>
    <tag k="class:bicycle" v="-1"/>
    <tag k="cycleway:left" v="no"/>
    <tag k="cycleway:right" v="lane"/>
    <tag k="cycleway:right:lane" v="exclusive"/>
    <tag k="foot" v="use_sidepath"/>
    <tag k="highway" v="secondary"/>
    <tag k="lanes" v="2"/>
    <tag k="lit" v="yes"/>
    <tag k="maxspeed" v="50"/>
    <tag k="name" v="Marsstraße"/>
    <tag k="oneway" v="yes"/>
    <tag k="sidewalk:left" v="no"/>
    <tag k="sidewalk:right" v="separate"/>
    <tag k="smoothness" v="excellent"/>
    <tag k="source:maxspeed" v="DE:urban"/>
    <tag k="surface" v="asphalt"/>
    <tag k="tmc" v="DE:35376"/>
  </way>
  <way id="292767088" version="11" timestamp="2024-11-03T12:55:01Z" changeset="158697726" uid="20085156" user="map per StreetComplete">
    <nd ref="20981711"/>
    <nd ref="361786"/>
    <tag k="class:bicycle" v="-1"/>
    <tag k="cycleway:left" v="no"/>
    <tag k="cycleway:right" v="lane"/>
    <tag k="cycleway:right:lane" v="exclusive"/>
    <tag k="foot" v="use_sidepath"/>
    <tag k="highway" v="secondary"/>
    <tag k="lanes" v="2"/>
    <tag k="lit" v="yes"/>
    <tag k="maxspeed" v="50"/>
    <tag k="name" v="Marsstraße"/>
    <tag k="oneway" v="yes"/>
    <tag k="sidewalk:left" v="no"/>
    <tag k="sidewalk:right" v="separate"/>
    <tag k="smoothness" v="excellent"/>
    <tag k="source:maxspeed" v="DE:urban"/>
    <tag k="surface" v="asphalt"/>
    <tag k="tmc" v="DE:35376"/>
  </way>
  <way id="292767089" version="16" timestamp="2024-11-03T12:55:01Z" changeset="158697726" uid="20085156" user="map per StreetComplete">
    <nd ref="21026892"/>
    <nd ref="1077566411"/>
    <nd ref="4692344991"/>
    <nd ref="21326678"/>
    <tag k="class:bicycle" v="-1"/>
    <tag k="cycleway:left" v="no"/>
    <tag k="cycleway:right" v="lane"/>
    <tag k="cycleway:right:lane" v="exclusive"/>
    <tag k="foot" v="use_sidepath"/>
    <tag k="highway" v="secondary"/>
    <tag k="lanes" v="2"/>
    <tag k="lit" v="yes"/>
    <tag k="maxspeed" v="50"/>
    <tag k="name" v="Marsstraße"/>
    <tag k="oneway" v="yes"/>
    <tag k="sidewalk:left" v="no"/>
    <tag k="sidewalk:right" v="separate"/>
    <tag k="smoothness" v="excellent"/>
    <tag k="source:maxspeed" v="DE:urban"/>
    <tag k="surface" v="asphalt"/>
    <tag k="tmc" v="DE:35375/35376"/>
  </way>
  <way id="292767091" version="12" timestamp="2024-11-03T12:55:00Z" changeset="158697726" uid="20085156" user="map per StreetComplete">
    <nd ref="21026892"/>
    <nd ref="20981711"/>
    <tag k="class:bicycle" v="-1"/>
    <tag k="cycleway:left" v="no"/>
    <tag k="cycleway:right" v="lane"/>
    <tag k="cycleway:right:lane" v="exclusive"/>
    <tag k="foot" v="use_sidepath"/>
    <tag k="highway" v="secondary"/>
    <tag k="lanes" v="2"/>
    <tag k="lit" v="yes"/>
    <tag k="maxspeed" v="50"/>
    <tag k="name" v="Seidlstraße"/>
    <tag k="name:etymology:wikidata" v="Q86955"/>
    <tag k="oneway" v="yes"/>
    <tag k="sidewalk:left" v="no"/>
    <tag k="sidewalk:right" v="separate"/>
    <tag k="smoothness" v="good"/>
    <tag k="source:maxspeed" v="DE:urban"/>
    <tag k="surface" v="asphalt"/>
    <tag k="tmc" v="DE:35370"/>
  </way>
  <way id="292767092" version="20" timestamp="2025-03-22T20:41:43Z" changeset="163963753" uid="44217" user="kjon">
    <nd ref="20981711"/>
    <nd ref="1011643595"/>
    <nd ref="20981712"/>
    <tag k="bicycle:lanes" v="no|no|designated"/>
    <tag k="class:bicycle" v="-1"/>
    <tag k="cycleway:left" v="no"/>
    <tag k="cycleway:right" v="lane"/>
    <tag k="cycleway:right:lane" v="exclusive"/>
    <tag k="dual_carriageway" v="yes"/>
    <tag k="foot" v="use_sidepath"/>
    <tag k="highway" v="secondary"/>
    <tag k="lanes" v="2"/>
    <tag k="lit" v="yes"/>
    <tag k="maxspeed" v="50"/>
    <tag k="name" v="Seidlstraße"/>
    <tag k="name:etymology:wikidata" v="Q86955"/>
    <tag k="oneway" v="yes"/>
    <tag k="parking:lane:right:parallel" v="painted_area_only"/>
    <tag k="parking:right" v="yes"/>
    <tag k="parking:right:orientation" v="parallel"/>
    <tag k="sidewalk:left" v="no"/>
    <tag k="sidewalk:right" v="separate"/>
    <tag k="smoothness" v="good"/>
    <tag k="source:maxspeed" v="DE:urban"/>
    <tag k="surface" v="asphalt"/>
    <tag k="tmc" v="DE:35369/35370"/>
    <tag k="vehicle:lanes" v="yes|yes|no"/>
  </way>
  <way id="310707189" version="11" timestamp="2024-08-03T22:32:40Z" changeset="154791721" uid="14742734" user="The_Nickname">
    <nd ref="3161628296"/>
    <nd ref="8419133807"/>
    <nd ref="4256322741"/>
    <nd ref="1956111"/>
    <tag k="bicycle" v="use_sidepath"/>
    <tag k="foot" v="use_sidepath"/>
    <tag k="highway" v="secondary"/>
    <tag k="lanes" v="4"/>
    <tag k="lanes:forward" v="3"/>
    <tag k="lit" v="yes"/>
    <tag k="maxspeed" v="50"/>
    <tag k="name" v="Nymphenburger Straße"/>
    <tag k="sidewalk:both" v="separate"/>
    <tag k="surface" v="asphalt"/>
    <tag k="turn:lanes:forward" v="left|through|through;right"/>
  </way>
  <way id="310707192" version="12" timestamp="2023-12-23T13:45:53Z" changeset="145437747" uid="13109449" user="aleabodo">
    <nd ref="1956111"/>
    <nd ref="4256322740"/>
    <nd ref="8419133809"/>
    <nd ref="2734171599"/>
    <nd ref="2966573107"/>
    <nd ref="2616002758"/>
    <nd ref="2966573109"/>
    <nd ref="11363576975"/>
    <nd ref="4526791591"/>
    <nd ref="363193"/>
    <tag k="bicycle" v="use_sidepath"/>
    <tag k="foot" v="use_sidepath"/>
    <tag k="highway" v="secondary"/>
    <tag k="lanes" v="2"/>
    <tag k="maxspeed" v="50"/>
    <tag k="name" v="Nymphenburger Straße"/>
    <tag k="sidewalk" v="separate"/>
    <tag k="surface" v="asphalt"/>
  </way>
  <way id="310707194" version="19" timestamp="2025-05-13T12:51:37Z" changeset="166201344" uid="42123" user="Ropino">
    <nd ref="3161628293"/>
    <nd ref="6622548602"/>
    <nd ref="1011643583"/>
    <nd ref="20980561"/>
    <tag k="bicycle:lanes" v="yes|no|no|designated"/>
    <tag k="class:bicycle" v="-1"/>
    <tag k="cycleway:left" v="no"/>
    <tag k="cycleway:right" v="lane"/>
    <tag k="cycleway:right:lane" v="exclusive"/>
    <tag k="foot" v="use_sidepath"/>
    <tag k="highway" v="secondary"/>
    <tag k="lanes" v="3"/>
    <tag k="lit" v="yes"/>
    <tag k="maxspeed" v="50"/>
    <tag k="name" v="Seidlstraße"/>
    <tag k="name:etymology:wikidata" v="Q86955"/>
    <tag k="oneway" v="yes"/>
    <tag k="parking:left" v="no"/>
    <tag k="parking:right" v="street_side"/>
    <tag k="parking:right:orientation" v="parallel"/>
    <tag k="sidewalk:left" v="no"/>
    <tag k="sidewalk:right" v="separate"/>
    <tag k="smoothness" v="good"/>
    <tag k="source:maxspeed" v="DE:urban"/>
    <tag k="surface" v="asphalt"/>
    <tag k="tmc" v="DE:35370/27999"/>
    <tag k="turn:lanes" v="left|through|through;right|through;right"/>
    <tag k="vehicle:lanes" v="yes|yes|yes|no"/>
    <tag k="zone:traffic" v="DE:urban"/>
  </way>
  <way id="310707195" version="23" timestamp="2024-11-03T12:55:00Z" changeset="158697726" uid="20085156" user="map per StreetComplete">
    <nd ref="8576481316"/>
    <nd ref="4972204809"/>
    <nd ref="8406282860"/>
    <nd ref="1011643600"/>
    <nd ref="21026892"/>
    <tag k="bicycle:lanes" v="yes|no|no|designated"/>
    <tag k="class:bicycle" v="-1"/>
    <tag k="cycleway:left" v="no"/>
    <tag k="cycleway:right" v="lane"/>
    <tag k="cycleway:right:lane" v="exclusive"/>
    <tag k="foot" v="use_sidepath"/>
    <tag k="highway" v="secondary"/>
    <tag k="lanes" v="3"/>
    <tag k="lit" v="yes"/>
    <tag k="maxspeed" v="50"/>
    <tag k="name" v="Seidlstraße"/>
    <tag k="name:etymology:wikidata" v="Q86955"/>
    <tag k="oneway" v="yes"/>
    <tag k="sidewalk:left" v="no"/>
    <tag k="sidewalk:right" v="separate"/>
    <tag k="smoothness" v="excellent"/>
    <tag k="source:maxspeed" v="DE:urban"/>
    <tag k="surface" v="asphalt"/>
    <tag k="tmc" v="DE:35370/27999"/>
    <tag k="turn:lanes" v="left|through|through;right|through;right"/>
    <tag k="vehicle:lanes" v="yes|yes|yes|no"/>
    <tag k="zone:traffic" v="DE:urban"/>
  </way>
  <way id="313579587" version="10" timestamp="2024-12-31T15:55:48Z" changeset="160837879" uid="11652964" user="Olufanz">
    <nd ref="21632162"/>
    <nd ref="1386432495"/>
    <tag k="class:bicycle" v="1"/>
    <tag k="cycleway:left" v="no"/>
    <tag k="cycleway:right" v="lane"/>
    <tag k="cycleway:right:lane" v="exclusive"/>
    <tag k="foot" v="use_sidepath"/>
    <tag k="highway" v="secondary"/>
    <tag k="lanes" v="1"/>
    <tag k="maxspeed" v="50"/>
    <tag k="name" v="Marsstraße"/>
    <tag k="oneway" v="yes"/>
    <tag k="sidewalk:left" v="no"/>
    <tag k="sidewalk:right" v="separate"/>
    <tag k="surface" v="asphalt"/>
    <tag k="tmc" v="DE:35375/35376"/>
    <tag k="turn:lanes" v="left;through|through;right"/>
  </way>
  <way id="313579591" version="8" timestamp="2024-12-31T15:59:42Z" changeset="160837879" uid="11652964" user="Olufanz">
    <nd ref="3195779283"/>
    <nd ref="8406356782"/>
    <nd ref="6209749135"/>
    <tag k="bicycle" v="use_sidepath"/>
    <tag k="cycleway:left" v="no"/>
    <tag k="cycleway:right" v="separate"/>
    <tag k="foot" v="use_sidepath"/>
    <tag k="highway" v="secondary"/>
    <tag k="lanes" v="3"/>
    <tag k="lit" v="yes"/>
    <tag k="maxspeed" v="50"/>
    <tag k="name" v="Marsstraße"/>
    <tag k="oneway" v="yes"/>
    <tag k="sidewalk:left" v="no"/>
    <tag k="surface" v="asphalt"/>
    <tag k="tmc" v="DE:35375/35376"/>
    <tag k="turn:lanes" v="left|through|through;right"/>
  </way>
  <way id="313579592" version="13" timestamp="2024-12-31T15:55:44Z" changeset="160837879" uid="11652964" user="Olufanz">
    <nd ref="1386432495"/>
    <nd ref="8266983457"/>
    <nd ref="8266983469"/>
    <nd ref="21326677"/>
    <tag k="bicycle:lanes" v="yes|yes|yes|designated"/>
    <tag k="class:bicycle" v="1"/>
    <tag k="cycleway:left" v="no"/>
    <tag k="cycleway:right" v="lane"/>
    <tag k="cycleway:right:lane" v="exclusive"/>
    <tag k="foot" v="use_sidepath"/>
    <tag k="highway" v="secondary"/>
    <tag k="lanes" v="3"/>
    <tag k="maxspeed" v="50"/>
    <tag k="name" v="Marsstraße"/>
    <tag k="oneway" v="yes"/>
    <tag k="sidewalk:left" v="no"/>
    <tag k="sidewalk:right" v="separate"/>
    <tag k="surface" v="asphalt"/>
    <tag k="tmc" v="DE:35375/35376"/>
    <tag k="turn:lanes" v="left|through|through;right|through"/>
    <tag k="vehicle:lanes" v="yes|yes|yes|no"/>
  </way>
  <way id="313579593" version="9" timestamp="2024-12-31T15:59:33Z" changeset="160837879" uid="11652964" user="Olufanz">
    <nd ref="21326677"/>
    <nd ref="8266983462"/>
    <nd ref="3700231646"/>
    <nd ref="3195779283"/>
    <tag k="bicycle" v="use_sidepath"/>
    <tag k="cycleway:left" v="no"/>
    <tag k="cycleway:right" v="separate"/>
    <tag k="foot" v="use_sidepath"/>
    <tag k="highway" v="secondary"/>
    <tag k="lanes" v="2"/>
    <tag k="lit" v="yes"/>
    <tag k="maxspeed" v="50"/>
    <tag k="name" v="Marsstraße"/>
    <tag k="oneway" v="yes"/>
    <tag k="sidewalk:left" v="no"/>
    <tag k="surface" v="asphalt"/>
    <tag k="tmc" v="DE:35375/35376"/>
  </way>
  <way id="313579594" version="9" timestamp="2024-12-31T15:59:29Z" changeset="160837879" uid="11652964" user="Olufanz">
    <nd ref="3195779282"/>
    <nd ref="8266983458"/>
    <nd ref="8266983461"/>
    <nd ref="363189"/>
    <tag k="bicycle" v="use_sidepath"/>
    <tag k="cycleway:left" v="no"/>
    <tag k="cycleway:right" v="separate"/>
    <tag k="foot" v="use_sidepath"/>
    <tag k="highway" v="secondary"/>
    <tag k="lanes" v="3"/>
    <tag k="lit" v="yes"/>
    <tag k="maxspeed" v="50"/>
    <tag k="name" v="Marsstraße"/>
    <tag k="oneway" v="yes"/>
    <tag k="sidewalk:left" v="no"/>
    <tag k="smoothness" v="good"/>
    <tag k="surface" v="asphalt"/>
    <tag k="tmc" v="DE:35375/35376"/>
    <tag k="turn:lanes" v="left|through|through;right"/>
  </way>
  <way id="313579595" version="19" timestamp="2024-11-03T12:55:01Z" changeset="158697726" uid="20085156" user="map per StreetComplete">
    <nd ref="3195779281"/>
    <nd ref="8406282863"/>
    <nd ref="1077566327"/>
    <nd ref="20981711"/>
    <tag k="bicycle:lanes" v="yes|yes|designated"/>
    <tag k="class:bicycle" v="-1"/>
    <tag k="cycleway:left" v="no"/>
    <tag k="cycleway:right" v="lane"/>
    <tag k="cycleway:right:lane" v="exclusive"/>
    <tag k="foot" v="use_sidepath"/>
    <tag k="highway" v="secondary"/>
    <tag k="lanes" v="2"/>
    <tag k="lit" v="yes"/>
    <tag k="maxspeed" v="50"/>
    <tag k="name" v="Marsstraße"/>
    <tag k="oneway" v="yes"/>
    <tag k="sidewalk:left" v="no"/>
    <tag k="sidewalk:right" v="separate"/>
    <tag k="smoothness" v="excellent"/>
    <tag k="source:maxspeed" v="DE:urban"/>
    <tag k="surface" v="asphalt"/>
    <tag k="tmc" v="DE:35375/35376"/>
    <tag k="turn:lanes" v="left;through|through;right|through"/>
    <tag k="vehicle:lanes" v="yes|yes|no"/>
  </way>
  <way id="313579596" version="4" timestamp="2022-03-31T16:59:28Z" changeset="119169966" uid="78613" user="heilbron">
    <nd ref="1386432542"/>
    <nd ref="3195779284"/>
    <nd ref="1386432550"/>
    <nd ref="398664"/>
    <tag k="bicycle" v="use_sidepath"/>
    <tag k="foot" v="use_sidepath"/>
    <tag k="highway" v="secondary"/>
    <tag k="lanes" v="3"/>
    <tag k="lit" v="yes"/>
    <tag k="maxspeed" v="50"/>
    <tag k="name" v="Marsstraße"/>
    <tag k="oneway" v="yes"/>
    <tag k="surface" v="asphalt"/>
    <tag k="tmc" v="DE:35375/35376"/>
    <tag k="turn:lanes" v="left|none|none"/>
  </way>
  <way id="313579597" version="7" timestamp="2025-04-11T10:49:42Z" changeset="164809940" uid="2554996" user="Nanoilite">
    <nd ref="21326676"/>
    <nd ref="9497783101"/>
    <nd ref="1386432585"/>
    <nd ref="1386432603"/>
    <nd ref="21326675"/>
    <nd ref="1386432606"/>
    <nd ref="1386432605"/>
    <nd ref="12747567866"/>
    <nd ref="21324383"/>
    <tag k="bicycle" v="use_sidepath"/>
    <tag k="cycleway:left" v="no"/>
    <tag k="cycleway:right" v="separate"/>
    <tag k="foot" v="use_sidepath"/>
    <tag k="highway" v="secondary"/>
    <tag k="lanes" v="2"/>
    <tag k="maxspeed" v="50"/>
    <tag k="name" v="Marsstraße"/>
    <tag k="oneway" v="yes"/>
    <tag k="sidewalk:left" v="no"/>
    <tag k="surface" v="asphalt"/>
    <tag k="tmc" v="DE:35375/35376"/>
  </way>
  <way id="313579599" version="10" timestamp="2025-04-11T10:49:42Z" changeset="164809940" uid="2554996" user="Nanoilite">
    <nd ref="398664"/>
    <nd ref="12747567865"/>
    <nd ref="852920982"/>
    <nd ref="1386432575"/>
    <nd ref="398649"/>
    <nd ref="1386432562"/>
    <nd ref="852920987"/>
    <nd ref="8406356783"/>
    <nd ref="9497783102"/>
    <nd ref="19404294"/>
    <nd ref="6209749133"/>
    <nd ref="3195779282"/>
    <tag k="bicycle" v="use_sidepath"/>
    <tag k="cycleway:left" v="no"/>
    <tag k="cycleway:right" v="separate"/>
    <tag k="foot" v="use_sidepath"/>
    <tag k="highway" v="secondary"/>
    <tag k="lanes" v="2"/>
    <tag k="lit" v="yes"/>
    <tag k="maxspeed" v="50"/>
    <tag k="name" v="Marsstraße"/>
    <tag k="oneway" v="yes"/>
    <tag k="sidewalk:left" v="no"/>
    <tag k="surface" v="asphalt"/>
    <tag k="tmc" v="DE:35375/35376"/>
  </way>
  <way id="313579600" version="15" timestamp="2024-12-31T15:55:53Z" changeset="160837879" uid="11652964" user="Olufanz">
    <nd ref="363189"/>
    <nd ref="8266983460"/>
    <nd ref="1386432487"/>
    <nd ref="358563818"/>
    <nd ref="8572482383"/>
    <tag k="class:bicycle" v="-1"/>
    <tag k="cycleway:left" v="no"/>
    <tag k="cycleway:right" v="lane"/>
    <tag k="cycleway:right:lane" v="exclusive"/>
    <tag k="foot" v="use_sidepath"/>
    <tag k="highway" v="secondary"/>
    <tag k="lanes" v="2"/>
    <tag k="lit" v="yes"/>
    <tag k="maxspeed" v="50"/>
    <tag k="name" v="Marsstraße"/>
    <tag k="oneway" v="yes"/>
    <tag k="sidewalk:left" v="no"/>
    <tag k="sidewalk:right" v="separate"/>
    <tag k="source:maxspeed" v="DE:urban"/>
    <tag k="surface" v="asphalt"/>
    <tag k="tmc" v="DE:35375/35376"/>
  </way>
  <way id="315127281" version="10" timestamp="2023-07-06T07:39:31Z" changeset="138174689" uid="9957868" user="anarkiisto">
    <nd ref="3212215142"/>
    <nd ref="398694"/>
    <nd ref="10180087151"/>
    <nd ref="3712297471"/>
    <nd ref="10180087152"/>
    <nd ref="21632176"/>
    <tag k="bicycle" v="use_sidepath"/>
    <tag k="highway" v="secondary"/>
    <tag k="lanes" v="3"/>
    <tag k="lit" v="yes"/>
    <tag k="maxspeed" v="50"/>
    <tag k="name" v="Arnulfstraße"/>
    <tag k="name:etymology:wikidata" v="Q64956"/>
    <tag k="oneway" v="yes"/>
    <tag k="sidewalk:left" v="no"/>
    <tag k="sidewalk:right" v="separate"/>
    <tag k="surface" v="asphalt"/>
    <tag k="tmc" v="DE:27974/35355"/>
    <tag k="turn:lanes" v="left|left|through;right"/>
  </way>
  <way id="315127282" version="14" timestamp="2025-05-08T09:41:14Z" changeset="165973913" uid="16061279" user="YellowSoul">
    <nd ref="480314303"/>
    <nd ref="1643342630"/>
    <nd ref="1643342628"/>
    <nd ref="1643342625"/>
    <nd ref="3757105315"/>
    <nd ref="302721332"/>
    <nd ref="3757105310"/>
    <nd ref="309857388"/>
    <nd ref="1643342615"/>
    <nd ref="1643342613"/>
    <nd ref="4696310003"/>
    <nd ref="430262633"/>
    <nd ref="1956100"/>
    <tag k="bicycle" v="use_sidepath"/>
    <tag k="cycleway:left" v="no"/>
    <tag k="cycleway:right" v="separate"/>
    <tag k="highway" v="tertiary"/>
    <tag k="lanes" v="2"/>
    <tag k="lit" v="yes"/>
    <tag k="maxspeed" v="50"/>
    <tag k="name" v="Arnulfstraße"/>
    <tag k="name:etymology:wikidata" v="Q64956"/>
    <tag k="oneway" v="yes"/>
    <tag k="parking:right" v="yes"/>
    <tag k="parking:right:orientation" v="parallel"/>
    <tag k="sidewalk:left" v="no"/>
    <tag k="sidewalk:right" v="separate"/>
    <tag k="source:maxspeed" v="DE:urban"/>
    <tag k="surface" v="asphalt"/>
    <tag k="tmc" v="DE:35355/35356"/>
  </way>
  <way id="315127283" version="9" timestamp="2023-07-06T08:08:04Z" changeset="138174689" uid="9957868" user="anarkiisto">
    <nd ref="1430460315"/>
    <nd ref="3712297495"/>
    <nd ref="21324376"/>
    <nd ref="398692"/>
    <tag k="bicycle" v="use_sidepath"/>
    <tag k="highway" v="tertiary"/>
    <tag k="lanes" v="3"/>
    <tag k="lit" v="yes"/>
    <tag k="maxspeed" v="50"/>
    <tag k="name" v="Arnulfstraße"/>
    <tag k="name:etymology:wikidata" v="Q64956"/>
    <tag k="oneway" v="yes"/>
    <tag k="sidewalk:left" v="no"/>
    <tag k="sidewalk:right" v="separate"/>
    <tag k="surface" v="asphalt"/>
    <tag k="tmc" v="DE:35355/35356"/>
    <tag k="turn:lanes" v="left|through|through;right"/>
  </way>
  <way id="316009880" version="8" timestamp="2024-12-31T15:58:31Z" changeset="160837879" uid="11652964" user="Olufanz">
    <nd ref="430262614"/>
    <nd ref="737219016"/>
    <tag k="class:bicycle" v="1"/>
    <tag k="cycleway:both" v="no"/>
    <tag k="highway" v="residential"/>
    <tag k="lane_markings" v="no"/>
    <tag k="lit" v="yes"/>
    <tag k="maxspeed" v="50"/>
    <tag k="name" v="Hopfenstraße"/>
    <tag k="sidewalk:both" v="separate"/>
    <tag k="smoothness" v="good"/>
    <tag k="surface" v="asphalt"/>
    <tag k="turn:lanes:forward" v="left|through;right"/>
  </way>
  <way id="316009881" version="20" timestamp="2025-03-22T20:41:43Z" changeset="163963753" uid="44217" user="kjon">
    <nd ref="6864673996"/>
    <nd ref="3805414342"/>
    <nd ref="21324003"/>
    <tag k="bicycle:lanes" v="yes|no|no|designated"/>
    <tag k="class:bicycle" v="-1"/>
    <tag k="cycleway:left" v="no"/>
    <tag k="cycleway:right" v="lane"/>
    <tag k="cycleway:right:lane" v="exclusive"/>
    <tag k="dual_carriageway" v="yes"/>
    <tag k="foot" v="use_sidepath"/>
    <tag k="highway" v="secondary"/>
    <tag k="lanes" v="3"/>
    <tag k="lit" v="yes"/>
    <tag k="maxspeed" v="50"/>
    <tag k="name" v="Seidlstraße"/>
    <tag k="name:etymology:wikidata" v="Q86955"/>
    <tag k="oneway" v="yes"/>
    <tag k="parking:right" v="no"/>
    <tag k="sidewalk:left" v="no"/>
    <tag k="sidewalk:right" v="separate"/>
    <tag k="smoothness" v="good"/>
    <tag k="source:maxspeed" v="DE:urban"/>
    <tag k="surface" v="asphalt"/>
    <tag k="tmc" v="DE:35369/35370"/>
    <tag k="turn:lanes" v="left|through|through;right"/>
    <tag k="vehicle:lanes" v="yes|yes|yes|no"/>
  </way>
  <way id="316009882" version="10" timestamp="2024-11-25T06:53:31Z" changeset="159559346" uid="18493611" user="MunichWays">
    <nd ref="3221291123"/>
    <nd ref="4696310004"/>
    <nd ref="737219031"/>
    <tag k="class:bicycle" v="1"/>
    <tag k="cycleway:both" v="separate"/>
    <tag k="foot" v="use_sidepath"/>
    <tag k="highway" v="tertiary"/>
    <tag k="lanes" v="3"/>
    <tag k="lanes:backward" v="1"/>
    <tag k="lanes:forward" v="2"/>
    <tag k="lit" v="yes"/>
    <tag k="maxspeed" v="50"/>
    <tag k="name" v="Wredestraße"/>
    <tag k="name:etymology:wikidata" v="Q64759"/>
    <tag k="sidewalk:both" v="separate"/>
    <tag k="surface" v="asphalt"/>
    <tag k="turn:lanes:forward" v="left|through;right"/>
  </way>
  <way id="340783840" version="8" timestamp="2023-10-22T09:07:11Z" changeset="142958062" uid="16960231" user="DLystopadov">
    <nd ref="941532668"/>
    <nd ref="302714903"/>
    <nd ref="941369076"/>
    <nd ref="291887236"/>
    <nd ref="941532667"/>
    <nd ref="9741555359"/>
    <nd ref="941369075"/>
    <tag k="bicycle" v="yes"/>
    <tag k="check_date:surface" v="2021-07-11"/>
    <tag k="class:bicycle" v="1"/>
    <tag k="cycleway:both" v="no"/>
    <tag k="highway" v="residential"/>
    <tag k="lit" v="yes"/>
    <tag k="maxspeed" v="30"/>
    <tag k="name" v="Bernhard-Wicki-Straße"/>
    <tag k="name:etymology:wikidata" v="Q78924"/>
    <tag k="oneway" v="yes"/>
    <tag k="smoothness" v="good"/>
    <tag k="surface" v="asphalt"/>
  </way>
  <way id="456746082" version="4" timestamp="2024-08-03T22:32:40Z" changeset="154791721" uid="14742734" user="The_Nickname">
    <nd ref="774634149"/>
    <nd ref="1956111"/>
    <tag k="highway" v="residential"/>
    <tag k="lane_markings" v="no"/>
    <tag k="maxspeed" v="50"/>
    <tag k="name" v="Sandstraße"/>
    <tag k="sidewalk:both" v="separate"/>
    <tag k="surface" v="asphalt"/>
  </way>
  <way id="457055894" version="5" timestamp="2025-04-25T20:58:52Z" changeset="165442231" uid="14742734" user="The_Nickname">
    <nd ref="818083308"/>
    <nd ref="21324383"/>
    <tag k="class:bicycle" v="-2"/>
    <tag k="highway" v="residential"/>
    <tag k="maxspeed" v="30"/>
    <tag k="name" v="Maillingerstraße"/>
    <tag k="name:etymology:wikidata" v="Q107337"/>
    <tag k="sidewalk:left" v="separate"/>
    <tag k="sidewalk:right" v="no"/>
    <tag k="surface" v="asphalt"/>
  </way>
  <way id="475493618" version="4" timestamp="2020-02-20T14:39:28Z" changeset="81277717" uid="428092" user="Geo-OSM">
    <nd ref="4692345013"/>
    <nd ref="711770691"/>
    <nd ref="4692344999"/>
    <nd ref="2699948583"/>
    <nd ref="4692345028"/>
    <nd ref="711770667"/>
    <nd ref="711770670"/>
    <nd ref="4692344584"/>
    <nd ref="711770672"/>
    <nd ref="2699948578"/>
    <nd ref="4692345013"/>
    <tag k="addr:city" v="München"/>
    <tag k="addr:country" v="DE"/>
    <tag k="addr:housenumber" v="2"/>
    <tag k="addr:postcode" v="80335"/>
    <tag k="addr:street" v="Denisstraße"/>
    <tag k="building" v="public"/>
    <tag k="building:levels" v="7"/>
    <tag k="name" v="LHM Kommunalreferat"/>
  </way>
  <way id="559757032" version="7" timestamp="2019-02-12T17:32:21Z" changeset="67138829" uid="202779" user="tv-arnd">
    <nd ref="5398388950"/>
    <nd ref="5709686851"/>
    <nd ref="5709686847"/>
    <nd ref="303142537"/>
    <nd ref="2475749795"/>
    <nd ref="5709686845"/>
    <nd ref="5398388943"/>
    <nd ref="4043452415"/>
    <nd ref="2627397907"/>
    <nd ref="2515982017"/>
    <nd ref="5380631325"/>
    <nd ref="5398388950"/>
    <tag k="building" v="yes"/>
    <tag k="building:levels" v="8"/>
    <tag k="name" v="BR Haus 5"/>
  </way>
  <way id="646051346" version="3" timestamp="2024-10-22T21:44:48Z" changeset="158230359" uid="137242" user="Rainero">
    <nd ref="6071363220"/>
    <nd ref="6071363219"/>
    <nd ref="12279999577"/>
    <nd ref="6071363218"/>
    <nd ref="6071363217"/>
    <nd ref="6071363216"/>
    <nd ref="6071363220"/>
    <tag k="building" v="public"/>
    <tag k="building:levels" v="6"/>
    <tag k="government" v="tax"/>
    <tag k="name" v="Finanzamt München"/>
    <tag k="office" v="government"/>
    <tag k="roof:levels" v="0"/>
    <tag k="wheelchair" v="yes"/>
  </way>
  <way id="663428717" version="4" timestamp="2024-12-31T15:59:52Z" changeset="160837879" uid="11652964" user="Olufanz">
    <nd ref="6209749135"/>
    <nd ref="21326676"/>
    <tag k="bicycle" v="use_sidepath"/>
    <tag k="cycleway:left" v="no"/>
    <tag k="cycleway:right" v="separate"/>
    <tag k="foot" v="use_sidepath"/>
    <tag k="highway" v="secondary"/>
    <tag k="lanes" v="3"/>
    <tag k="lit" v="yes"/>
    <tag k="maxspeed" v="50"/>
    <tag k="name" v="Marsstraße"/>
    <tag k="oneway" v="yes"/>
    <tag k="sidewalk:left" v="no"/>
    <tag k="surface" v="asphalt"/>
    <tag k="tmc" v="DE:35375/35376"/>
    <tag k="turn:lanes" v="left|through|through;right"/>
  </way>
  <way id="692564103" version="5" timestamp="2025-04-25T20:58:48Z" changeset="165442231" uid="14742734" user="The_Nickname">
    <nd ref="774634238"/>
    <nd ref="21620068"/>
    <tag k="class:bicycle" v="1"/>
    <tag k="highway" v="residential"/>
    <tag k="lit" v="yes"/>
    <tag k="maxspeed" v="30"/>
    <tag k="name" v="Adamstraße"/>
    <tag k="name:etymology:wikidata" v="Q723297"/>
    <tag k="oneway" v="yes"/>
    <tag k="sidewalk:left" v="separate"/>
    <tag k="sidewalk:right" v="no"/>
    <tag k="surface" v="asphalt"/>
  </way>
  <way id="692564105" version="9" timestamp="2025-03-22T21:16:15Z" changeset="163964538" uid="44217" user="kjon">
    <nd ref="6501835873"/>
    <nd ref="315935231"/>
    <nd ref="21620061"/>
    <nd ref="6501835874"/>
    <nd ref="4197772712"/>
    <nd ref="6501835879"/>
    <tag k="bicycle" v="designated"/>
    <tag k="bicycle_road" v="yes"/>
    <tag k="class:bicycle" v="2"/>
    <tag k="highway" v="residential"/>
    <tag k="maxspeed" v="30"/>
    <tag k="name" v="Blutenburgstraße"/>
    <tag k="oneway" v="no"/>
    <tag k="parking:both" v="yes"/>
    <tag k="parking:both:orientation" v="parallel"/>
    <tag k="sidewalk:both" v="separate"/>
    <tag k="smoothness" v="good"/>
    <tag k="source:maxspeed" v="DE:bicycle_road"/>
    <tag k="surface" v="asphalt"/>
    <tag k="traffic_sign" v="DE:244.1"/>
  </way>
  <way id="692564107" version="6" timestamp="2025-04-25T20:58:49Z" changeset="165442234" uid="14742734" user="The_Nickname">
    <nd ref="21620061"/>
    <nd ref="6501835875"/>
    <tag k="class:bicycle" v="1"/>
    <tag k="cycleway:both" v="no"/>
    <tag k="highway" v="residential"/>
    <tag k="maxspeed" v="30"/>
    <tag k="name" v="Adamstraße"/>
    <tag k="name:etymology:wikidata" v="Q723297"/>
    <tag k="oneway" v="yes"/>
    <tag k="oneway:bicycle" v="no"/>
    <tag k="sidewalk" v="both"/>
    <tag k="sidewalk:both:surface" v="paving_stones"/>
    <tag k="surface" v="sett"/>
  </way>
  <way id="692564108" version="6" timestamp="2025-03-22T21:16:15Z" changeset="163964538" uid="44217" user="kjon">
    <nd ref="6501835877"/>
    <nd ref="21620065"/>
    <nd ref="6501835876"/>
    <tag k="class:bicycle" v="1"/>
    <tag k="cycleway:both" v="no"/>
    <tag k="highway" v="residential"/>
    <tag k="maxspeed" v="30"/>
    <tag k="name" v="Adamstraße"/>
    <tag k="name:etymology:wikidata" v="Q723297"/>
    <tag k="oneway" v="yes"/>
    <tag k="oneway:bicycle" v="no"/>
    <tag k="sidewalk:both" v="separate"/>
    <tag k="surface" v="sett"/>
  </way>
  <way id="692564109" version="9" timestamp="2025-04-26T05:55:23Z" changeset="165449733" uid="11758604" user="map per">
    <nd ref="6501835875"/>
    <nd ref="6616532525"/>
    <nd ref="12787528504"/>
    <nd ref="21620063"/>
    <nd ref="6501835877"/>
    <tag k="class:bicycle" v="1"/>
    <tag k="cycleway:both" v="no"/>
    <tag k="highway" v="residential"/>
    <tag k="lit" v="yes"/>
    <tag k="maxspeed" v="30"/>
    <tag k="name" v="Adamstraße"/>
    <tag k="name:etymology:wikidata" v="Q723297"/>
    <tag k="oneway" v="yes"/>
    <tag k="oneway:bicycle" v="no"/>
    <tag k="sidewalk:both" v="separate"/>
    <tag k="surface" v="asphalt"/>
  </way>
  <way id="692564110" version="8" timestamp="2025-03-22T21:16:15Z" changeset="163964538" uid="44217" user="kjon">
    <nd ref="6501835879"/>
    <nd ref="315969669"/>
    <nd ref="6501835878"/>
    <tag k="bicycle" v="designated"/>
    <tag k="bicycle_road" v="yes"/>
    <tag k="class:bicycle" v="2"/>
    <tag k="highway" v="residential"/>
    <tag k="lit" v="yes"/>
    <tag k="maxspeed" v="30"/>
    <tag k="name" v="Blutenburgstraße"/>
    <tag k="narrow" v="yes"/>
    <tag k="oneway" v="no"/>
    <tag k="parking:both" v="yes"/>
    <tag k="parking:both:orientation" v="parallel"/>
    <tag k="sidewalk:both" v="separate"/>
    <tag k="smoothness" v="good"/>
    <tag k="source:maxspeed" v="DE:bicycle_road"/>
    <tag k="surface" v="asphalt"/>
    <tag k="traffic_sign" v="DE:244.1"/>
  </way>
  <way id="692564111" version="12" timestamp="2025-04-26T05:55:23Z" changeset="165449733" uid="11758604" user="map per">
    <nd ref="291887239"/>
    <nd ref="2734095616"/>
    <nd ref="12787000469"/>
    <nd ref="12787528507"/>
    <nd ref="6501835873"/>
    <tag k="bicycle" v="designated"/>
    <tag k="bicycle_road" v="yes"/>
    <tag k="class:bicycle" v="2"/>
    <tag k="highway" v="residential"/>
    <tag k="lane_markings" v="no"/>
    <tag k="lit" v="yes"/>
    <tag k="maxspeed" v="30"/>
    <tag k="name" v="Blutenburgstraße"/>
    <tag k="oneway" v="no"/>
    <tag k="parking:both" v="yes"/>
    <tag k="parking:both:orientation" v="parallel"/>
    <tag k="sidewalk:both" v="separate"/>
    <tag k="smoothness" v="good"/>
    <tag k="source:maxspeed" v="DE:bicycle_road"/>
    <tag k="surface" v="asphalt"/>
    <tag k="traffic_sign" v="DE:244.1"/>
  </way>
  <way id="702129093" version="10" timestamp="2025-04-01T07:32:35Z" changeset="164360882" uid="170763" user="SoulCover">
    <nd ref="6593561371"/>
    <nd ref="773301356"/>
    <nd ref="1956142"/>
    <tag k="class:bicycle" v="1"/>
    <tag k="cycleway:both" v="no"/>
    <tag k="foot" v="use_sidepath"/>
    <tag k="highway" v="residential"/>
    <tag k="lanes" v="1"/>
    <tag k="lit" v="yes"/>
    <tag k="maxspeed" v="30"/>
    <tag k="name" v="Loristraße"/>
    <tag k="name:etymology:wikidata" v="Q1694012"/>
    <tag k="oneway" v="yes"/>
    <tag k="oneway:bicycle" v="no"/>
    <tag k="parking:both" v="yes"/>
    <tag k="parking:both:orientation" v="parallel"/>
    <tag k="parking:condition:both" v="residents_or_ticket"/>
    <tag k="parking:condition:both:residents" v="St.-Benno-Viertel"/>
    <tag k="smoothness" v="good"/>
    <tag k="surface" v="asphalt"/>
    <tag k="width" v="7.8"/>
  </way>
  <way id="705107442" version="7" timestamp="2025-03-22T21:16:15Z" changeset="163964538" uid="44217" user="kjon">
    <nd ref="21619892"/>
    <nd ref="7350358404"/>
    <nd ref="9020343254"/>
    <tag k="class:bicycle" v="1"/>
    <tag k="highway" v="residential"/>
    <tag k="lane_markings" v="no"/>
    <tag k="lit" v="yes"/>
    <tag k="maxspeed" v="50"/>
    <tag k="name" v="Karlstraße"/>
    <tag k="name:etymology:wikidata" v="Q44961"/>
    <tag k="parking:both" v="yes"/>
    <tag k="parking:both:orientation" v="parallel"/>
    <tag k="sidewalk" v="both"/>
    <tag k="smoothness" v="good"/>
    <tag k="source:maxspeed" v="DE:urban"/>
    <tag k="surface" v="asphalt"/>
    <tag k="zone:traffic" v="DE:urban"/>
  </way>
  <way id="733064239" version="11" timestamp="2024-11-03T12:54:59Z" changeset="158697726" uid="20085156" user="map per StreetComplete">
    <nd ref="20981712"/>
    <nd ref="6864673996"/>
    <tag k="bicycle:lanes" v="yes|no|no|designated"/>
    <tag k="class:bicycle" v="-1"/>
    <tag k="cycleway:left" v="no"/>
    <tag k="cycleway:right" v="lane"/>
    <tag k="cycleway:right:lane" v="exclusive"/>
    <tag k="dual_carriageway" v="yes"/>
    <tag k="foot" v="use_sidepath"/>
    <tag k="highway" v="secondary"/>
    <tag k="lanes" v="3"/>
    <tag k="lit" v="yes"/>
    <tag k="maxspeed" v="50"/>
    <tag k="name" v="Seidlstraße"/>
    <tag k="name:etymology:wikidata" v="Q86955"/>
    <tag k="oneway" v="yes"/>
    <tag k="sidewalk:left" v="no"/>
    <tag k="sidewalk:right" v="separate"/>
    <tag k="smoothness" v="good"/>
    <tag k="source:maxspeed" v="DE:urban"/>
    <tag k="surface" v="asphalt"/>
    <tag k="tmc" v="DE:35369/35370"/>
    <tag k="turn:lanes" v="left|through|through;right"/>
    <tag k="vehicle:lanes" v="yes|yes|yes|no"/>
  </way>
  <way id="776715808" version="10" timestamp="2025-04-01T07:32:40Z" changeset="164360881" uid="170763" user="SoulCover">
    <nd ref="21632160"/>
    <nd ref="3809858759"/>
    <tag k="class:bicycle" v="1"/>
    <tag k="cycleway:both" v="lane"/>
    <tag k="cycleway:both:lane" v="exclusive"/>
    <tag k="highway" v="tertiary"/>
    <tag k="lanes" v="2"/>
    <tag k="lit" v="yes"/>
    <tag k="maxspeed" v="50"/>
    <tag k="name" v="Pappenheimstraße"/>
    <tag k="name:etymology:wikidata" v="Q61869"/>
    <tag k="sidewalk:left" v="separate"/>
    <tag k="sidewalk:right" v="yes"/>
    <tag k="sidewalk:right:surface" v="paving_stones"/>
    <tag k="smoothness" v="good"/>
    <tag k="surface" v="asphalt"/>
  </way>
  <way id="776715809" version="4" timestamp="2023-12-27T12:46:04Z" changeset="145573380" uid="18493611" user="MunichWays">
    <nd ref="1386432610"/>
    <nd ref="21632161"/>
    <nd ref="21619897"/>
    <tag k="class:bicycle" v="1"/>
    <tag k="cycleway:both" v="no"/>
    <tag k="highway" v="residential"/>
    <tag k="lanes" v="1"/>
    <tag k="maxspeed" v="50"/>
    <tag k="name" v="Spatenstraße"/>
    <tag k="oneway" v="yes"/>
    <tag k="sidewalk" v="right"/>
    <tag k="surface" v="asphalt"/>
  </way>
  <way id="776715810" version="9" timestamp="2025-04-01T07:32:40Z" changeset="164360913" uid="170763" user="SoulCover">
    <nd ref="3809858759"/>
    <nd ref="1386432612"/>
    <tag k="class:bicycle" v="1"/>
    <tag k="cycleway:left" v="separate"/>
    <tag k="cycleway:right" v="lane"/>
    <tag k="cycleway:right:lane" v="exclusive"/>
    <tag k="highway" v="tertiary"/>
    <tag k="lanes" v="2"/>
    <tag k="lit" v="yes"/>
    <tag k="maxspeed" v="50"/>
    <tag k="name" v="Pappenheimstraße"/>
    <tag k="name:etymology:wikidata" v="Q61869"/>
    <tag k="sidewalk:left" v="separate"/>
    <tag k="sidewalk:right" v="yes"/>
    <tag k="sidewalk:right:surface" v="paving_stones"/>
    <tag k="smoothness" v="good"/>
    <tag k="surface" v="asphalt"/>
  </way>
  <way id="778925878" version="9" timestamp="2024-11-03T12:55:01Z" changeset="158697726" uid="20085156" user="map per StreetComplete">
    <nd ref="738257248"/>
    <nd ref="11016180256"/>
    <nd ref="21642946"/>
    <nd ref="738257376"/>
    <nd ref="18290978"/>
    <nd ref="3195779281"/>
    <tag k="class:bicycle" v="1"/>
    <tag k="cycleway:left" v="no"/>
    <tag k="cycleway:right" v="lane"/>
    <tag k="cycleway:right:lane" v="exclusive"/>
    <tag k="foot" v="use_sidepath"/>
    <tag k="highway" v="secondary"/>
    <tag k="lanes" v="1"/>
    <tag k="lit" v="yes"/>
    <tag k="maxspeed" v="50"/>
    <tag k="name" v="Marsstraße"/>
    <tag k="oneway" v="yes"/>
    <tag k="sidewalk:left" v="no"/>
    <tag k="sidewalk:right" v="separate"/>
    <tag k="source:maxspeed" v="DE:urban"/>
    <tag k="surface" v="asphalt"/>
    <tag k="tmc" v="DE:35375/35376"/>
  </way>
  <way id="923478467" version="8" timestamp="2024-12-31T15:56:03Z" changeset="160837879" uid="11652964" user="Olufanz">
    <nd ref="8572482383"/>
    <nd ref="738257248"/>
    <tag k="bicycle:lanes" v="yes|yes|designated"/>
    <tag k="class:bicycle" v="-1"/>
    <tag k="cycleway:left" v="no"/>
    <tag k="cycleway:right" v="lane"/>
    <tag k="cycleway:right:lane" v="exclusive"/>
    <tag k="foot" v="use_sidepath"/>
    <tag k="highway" v="secondary"/>
    <tag k="lanes" v="2"/>
    <tag k="lit" v="yes"/>
    <tag k="maxspeed" v="50"/>
    <tag k="name" v="Marsstraße"/>
    <tag k="oneway" v="yes"/>
    <tag k="sidewalk:left" v="no"/>
    <tag k="sidewalk:right" v="separate"/>
    <tag k="source:maxspeed" v="DE:urban"/>
    <tag k="surface" v="asphalt"/>
    <tag k="tmc" v="DE:35375/35376"/>
    <tag k="turn:lanes" v="left|through|through"/>
    <tag k="vehicle:lanes" v="yes|yes|no"/>
  </way>
  <way id="923916235" version="6" timestamp="2024-11-03T12:55:02Z" changeset="158697726" uid="20085156" user="map per StreetComplete">
    <nd ref="21326678"/>
    <nd ref="738257263"/>
    <tag k="class:bicycle" v="-1"/>
    <tag k="cycleway:left" v="no"/>
    <tag k="cycleway:right" v="lane"/>
    <tag k="cycleway:right:lane" v="exclusive"/>
    <tag k="foot" v="use_sidepath"/>
    <tag k="highway" v="secondary"/>
    <tag k="lanes" v="1"/>
    <tag k="lit" v="yes"/>
    <tag k="maxspeed" v="50"/>
    <tag k="name" v="Marsstraße"/>
    <tag k="oneway" v="yes"/>
    <tag k="sidewalk:left" v="no"/>
    <tag k="sidewalk:right" v="separate"/>
    <tag k="source:maxspeed" v="DE:urban"/>
    <tag k="surface" v="asphalt"/>
    <tag k="tmc" v="DE:35375/35376"/>
  </way>
  <way id="923916236" version="9" timestamp="2024-11-03T12:55:02Z" changeset="158697726" uid="20085156" user="map per StreetComplete">
    <nd ref="20980561"/>
    <nd ref="6622548600"/>
    <nd ref="8576481316"/>
    <tag k="bicycle:lanes" v="no|no|designated"/>
    <tag k="class:bicycle" v="-1"/>
    <tag k="cycleway:left" v="no"/>
    <tag k="cycleway:right" v="lane"/>
    <tag k="cycleway:right:lane" v="exclusive"/>
    <tag k="foot" v="use_sidepath"/>
    <tag k="highway" v="secondary"/>
    <tag k="lanes" v="2"/>
    <tag k="lit" v="yes"/>
    <tag k="maxspeed" v="50"/>
    <tag k="name" v="Seidlstraße"/>
    <tag k="name:etymology:wikidata" v="Q86955"/>
    <tag k="oneway" v="yes"/>
    <tag k="sidewalk:left" v="no"/>
    <tag k="sidewalk:right" v="separate"/>
    <tag k="smoothness" v="excellent"/>
    <tag k="source:maxspeed" v="DE:urban"/>
    <tag k="surface" v="asphalt"/>
    <tag k="tmc" v="DE:35370/27999"/>
    <tag k="vehicle:lanes" v="yes|yes|no"/>
    <tag k="zone:traffic" v="DE:urban"/>
  </way>
  <way id="974689917" version="5" timestamp="2025-03-22T21:16:15Z" changeset="163964538" uid="44217" user="kjon">
    <nd ref="9020343255"/>
    <nd ref="13883942"/>
    <tag k="class:bicycle" v="1"/>
    <tag k="highway" v="residential"/>
    <tag k="lane_markings" v="no"/>
    <tag k="lit" v="yes"/>
    <tag k="maxspeed" v="50"/>
    <tag k="name" v="Karlstraße"/>
    <tag k="name:etymology:wikidata" v="Q44961"/>
    <tag k="parking:both" v="yes"/>
    <tag k="parking:both:orientation" v="parallel"/>
    <tag k="sidewalk" v="both"/>
    <tag k="source:maxspeed" v="DE:urban"/>
    <tag k="surface" v="asphalt"/>
    <tag k="zone:traffic" v="DE:urban"/>
  </way>
  <way id="974689918" version="5" timestamp="2025-03-22T21:16:15Z" changeset="163964538" uid="44217" user="kjon">
    <nd ref="9020343254"/>
    <nd ref="9020343255"/>
    <tag k="covered" v="yes"/>
    <tag k="highway" v="residential"/>
    <tag k="lane_markings" v="no"/>
    <tag k="lit" v="yes"/>
    <tag k="maxheight" v="default"/>
    <tag k="maxspeed" v="50"/>
    <tag k="name" v="Karlstraße"/>
    <tag k="name:etymology:wikidata" v="Q44961"/>
    <tag k="parking:both" v="yes"/>
    <tag k="parking:both:orientation" v="parallel"/>
    <tag k="sidewalk" v="both"/>
    <tag k="source:maxspeed" v="DE:urban"/>
    <tag k="surface" v="asphalt"/>
    <tag k="zone:traffic" v="DE:urban"/>
  </way>
  <way id="981163710" version="1" timestamp="2021-09-09T08:26:35Z" changeset="110960429" uid="13523345" user="enanoide">
    <nd ref="1320044634"/>
    <nd ref="1317215174"/>
    <nd ref="1317215758"/>
    <nd ref="1320044644"/>
    <nd ref="1320044634"/>
    <tag k="addr:city" v="München"/>
    <tag k="addr:housenumber" v="112"/>
    <tag k="addr:postcode" v="80335"/>
    <tag k="addr:street" v="Karlstraße"/>
    <tag k="building" v="apartments"/>
  </way>
  <way id="1120424563" version="3" timestamp="2024-05-09T10:46:18Z" changeset="151093246" uid="13987295" user="Arthur B E">
    <nd ref="10247590649"/>
    <nd ref="1012031604"/>
    <tag k="bicycle" v="use_sidepath"/>
    <tag k="foot" v="use_sidepath"/>
    <tag k="highway" v="secondary"/>
    <tag k="lanes" v="2"/>
    <tag k="lit" v="yes"/>
    <tag k="maxspeed" v="50"/>
    <tag k="name" v="Seidlstraße"/>
    <tag k="name:etymology:wikidata" v="Q86955"/>
    <tag k="oneway" v="yes"/>
    <tag k="parking:left" v="no"/>
    <tag k="parking:right" v="on_kerb"/>
    <tag k="parking:right:orientation" v="parallel"/>
    <tag k="sidewalk:left" v="no"/>
    <tag k="sidewalk:right" v="separate"/>
    <tag k="surface" v="asphalt"/>
    <tag k="tmc" v="DE:35370/27999"/>
  </way>
  <way id="1120424564" version="3" timestamp="2025-03-22T21:16:15Z" changeset="163964538" uid="44217" user="kjon">
    <nd ref="788021897"/>
    <nd ref="10247590649"/>
    <tag k="bicycle" v="use_sidepath"/>
    <tag k="foot" v="use_sidepath"/>
    <tag k="highway" v="secondary"/>
    <tag k="lanes" v="2"/>
    <tag k="lit" v="yes"/>
    <tag k="maxspeed" v="50"/>
    <tag k="name" v="Seidlstraße"/>
    <tag k="name:etymology:wikidata" v="Q86955"/>
    <tag k="oneway" v="yes"/>
    <tag k="parking:lane:right:parallel" v="on_kerb"/>
    <tag k="parking:left" v="no"/>
    <tag k="parking:right" v="yes"/>
    <tag k="parking:right:orientation" v="parallel"/>
    <tag k="sidewalk:left" v="no"/>
    <tag k="sidewalk:right" v="separate"/>
    <tag k="surface" v="asphalt"/>
    <tag k="tmc" v="DE:35370/27999"/>
  </way>
  <way id="1262798545" version="1" timestamp="2024-03-15T05:50:01Z" changeset="148670978" uid="18493611" user="MunichWays">
    <nd ref="21326678"/>
    <nd ref="818083361"/>
    <nd ref="4692345010"/>
    <nd ref="4692345008"/>
    <tag k="class:bicycle" v="-1"/>
    <tag k="highway" v="residential"/>
    <tag k="lanes" v="2"/>
    <tag k="lit" v="yes"/>
    <tag k="maxspeed" v="50"/>
    <tag k="name" v="Denisstraße"/>
    <tag k="name:etymology:wikidata" v="Q2059114"/>
    <tag k="smoothness" v="intermediate"/>
    <tag k="source:maxspeed" v="DE:urban"/>
    <tag k="surface" v="sett"/>
  </way>
  <way id="1278503033" version="2" timestamp="2024-08-04T10:54:27Z" changeset="154806395" uid="13987295" user="Arthur B E">
    <nd ref="11869044885"/>
    <nd ref="11869044886"/>
    <nd ref="11869044887"/>
    <nd ref="11869044888"/>
    <nd ref="11869044885"/>
    <tag k="building" v="transportation"/>
    <tag k="height" v="10"/>
    <tag k="name" v="Rettungsschacht 3"/>
    <tag k="roof:shape" v="gabled"/>
    <tag k="start_date" v="2024-04"/>
  </way>
  <way id="1331965616" version="2" timestamp="2025-04-01T07:32:41Z" changeset="164360911" uid="170763" user="SoulCover">
    <nd ref="715297484"/>
    <nd ref="363189"/>
    <nd ref="21326677"/>
    <nd ref="818083375"/>
    <nd ref="1906058182"/>
    <nd ref="1643342631"/>
    <nd ref="1643342632"/>
    <nd ref="12323822097"/>
    <tag k="class:bicycle" v="1"/>
    <tag k="cycleway:left" v="lane"/>
    <tag k="cycleway:left:lane" v="exclusive"/>
    <tag k="cycleway:right" v="separate"/>
    <tag k="highway" v="tertiary"/>
    <tag k="lanes" v="2"/>
    <tag k="lit" v="yes"/>
    <tag k="maxspeed" v="50"/>
    <tag k="name" v="Pappenheimstraße"/>
    <tag k="name:etymology:wikidata" v="Q61869"/>
    <tag k="sidewalk:both" v="separate"/>
    <tag k="smoothness" v="good"/>
    <tag k="surface" v="asphalt"/>
  </way>
  <way id="1341063702" version="2" timestamp="2024-12-31T15:56:36Z" changeset="160837879" uid="11652964" user="Olufanz">
    <nd ref="309890117"/>
    <nd ref="11554518778"/>
    <nd ref="1020955831"/>
    <nd ref="12405262840"/>
    <tag k="bicycle" v="use_sidepath"/>
    <tag k="highway" v="tertiary"/>
    <tag k="lanes" v="2"/>
    <tag k="lit" v="yes"/>
    <tag k="maxspeed" v="50"/>
    <tag k="name" v="Arnulfstraße"/>
    <tag k="name:etymology:wikidata" v="Q64956"/>
    <tag k="oneway" v="yes"/>
    <tag k="parking:left" v="no"/>
    <tag k="parking:right" v="lane"/>
    <tag k="parking:right:orientation" v="parallel"/>
    <tag k="sidewalk:left" v="no"/>
    <tag k="sidewalk:right" v="separate"/>
    <tag k="smoothness" v="good"/>
    <tag k="surface" v="asphalt"/>
    <tag k="tmc" v="DE:35356/35357"/>
  </way>
  <way id="1341063703" version="2" timestamp="2024-12-23T07:56:47Z" changeset="160526997" uid="18493611" user="MunichWays">
    <nd ref="1020955836"/>
    <nd ref="11554501727"/>
    <nd ref="12405262838"/>
    <tag k="class:bicycle" v="-1"/>
    <tag k="cycleway:left" v="no"/>
    <tag k="cycleway:right" v="lane"/>
    <tag k="cycleway:right:lane" v="exclusive"/>
    <tag k="highway" v="tertiary"/>
    <tag k="lanes" v="2"/>
    <tag k="lit" v="yes"/>
    <tag k="maxspeed" v="50"/>
    <tag k="name" v="Arnulfstraße"/>
    <tag k="name:etymology:wikidata" v="Q64956"/>
    <tag k="oneway" v="yes"/>
    <tag k="parking:both" v="no"/>
    <tag k="sidewalk:left" v="no"/>
    <tag k="sidewalk:right" v="separate"/>
    <tag k="source:maxspeed" v="DE:urban"/>
    <tag k="surface" v="asphalt"/>
    <tag k="tmc" v="DE:35356/35357"/>
  </way>
  <way id="1382881944" version="1" timestamp="2025-05-01T23:40:37Z" changeset="165697501" uid="38546" user="wikimax">
    <nd ref="12803278205"/>
    <nd ref="12803278204"/>
    <nd ref="201430039"/>
    <nd ref="5442595045"/>
    <nd ref="201430040"/>
    <nd ref="10831555613"/>
    <nd ref="303161286"/>
    <nd ref="6718071639"/>
    <nd ref="10831555614"/>
    <nd ref="10831555615"/>
    <nd ref="201430037"/>
    <nd ref="12803278203"/>
    <nd ref="12803278202"/>
    <nd ref="12803278201"/>
    <nd ref="12803276900"/>
    <nd ref="12803276895"/>
    <nd ref="303160918"/>
    <nd ref="739448597"/>
    <nd ref="739448606"/>
    <nd ref="12803276899"/>
    <nd ref="303160920"/>
    <nd ref="303160921"/>
    <nd ref="8662661680"/>
    <nd ref="303160923"/>
    <nd ref="303160924"/>
    <nd ref="10831555616"/>
    <nd ref="12803276898"/>
    <nd ref="12803276897"/>
    <nd ref="12803276896"/>
    <nd ref="10831555617"/>
    <nd ref="10831555624"/>
    <nd ref="10831555618"/>
    <nd ref="303160925"/>
    <nd ref="12803278205"/>
    <tag k="addr:city" v="München"/>
    <tag k="addr:housenumber" v="52"/>
    <tag k="addr:postcode" v="80335"/>
    <tag k="addr:street" v="Arnulfstraße"/>
    <tag k="amenity" v="restaurant"/>
    <tag k="brewery" v="Augustiner Bräu München"/>
    <tag k="building" v="yes"/>
    <tag k="contact:email" v="büro@augustiner-keller.de"/>
    <tag k="contact:fax" v="+49 89 550 4415"/>
    <tag k="contact:phone" v="+49 89 594393"/>
    <tag k="contact:website" v="https://www.augustinerkeller.de/de"/>
    <tag k="cuisine" v="bavarian"/>
    <tag k="name" v="Augustiner-Keller"/>
    <tag k="name:zh" v="慕尼黑啤酒花園"/>
    <tag k="opening_hours" v="Mo-Su 10:00-1:00"/>
    <tag k="toilets:wheelchair" v="no"/>
    <tag k="wheelchair" v="no"/>
  </way>
  <relation id="56857" version="13" timestamp="2024-09-07T13:37:59Z" changeset="156313642" uid="7532683" user="dendreier">
    <member type="way" ref="28879054" role="inner"/>
    <member type="way" ref="28879078" role="inner"/>
    <member type="way" ref="28879082" role="inner"/>
    <member type="way" ref="28879121" role="inner"/>
    <member type="way" ref="28879151" role="inner"/>
    <member type="way" ref="28879288" role="outer"/>
    <tag k="building" v="office"/>
    <tag k="building:levels" v="6"/>
    <tag k="name" v="Art Deco Palais"/>
    <tag k="old_name" v="Oberpostdirektion"/>
    <tag k="roof:levels" v="2"/>
    <tag k="roof:shape" v="hipped"/>
    <tag k="type" v="multipolygon"/>
  </relation>
  <relation id="56965" version="7" timestamp="2023-02-07T11:04:52Z" changeset="132199768" uid="18069" user="Claudius Henrichs">
    <member type="way" ref="27658167" role="outer"/>
    <member type="way" ref="27658241" role="inner"/>
    <tag k="building" v="commercial"/>
    <tag k="building:levels" v="4"/>
    <tag k="name" v="Alte Hopfenpost"/>
    <tag k="roof:levels" v="2"/>
    <tag k="roof:shape" v="hipped"/>
    <tag k="type" v="multipolygon"/>
  </relation>
  <relation id="56966" version="5" timestamp="2023-09-05T18:35:43Z" changeset="140863731" uid="536583" user="Strubbl">
    <member type="way" ref="27567808" role="outer"/>
    <member type="way" ref="27627302" role="inner"/>
    <member type="way" ref="27627306" role="inner"/>
    <tag k="addr:city" v="München"/>
    <tag k="addr:housenumber" v="29-31"/>
    <tag k="addr:postcode" v="80636"/>
    <tag k="addr:street" v="Arnulfstraße"/>
    <tag k="air_conditioning" v="yes"/>
    <tag k="architect" v="Jürgen Engel"/>
    <tag k="building" v="office"/>
    <tag k="building:levels" v="7"/>
    <tag k="building:levels:underground" v="2"/>
    <tag k="image" v="https://uir-objektsuche.union-investment.de/image?action=showImage&amp;uuid=1337ebbe-5a5e-11e7-b6a7-005056874be5&amp;w=1200"/>
    <tag k="name" v="ATMOS"/>
    <tag k="operator" v="Union Investment Real Estate GmbH"/>
    <tag k="start_date" v="2008"/>
    <tag k="type" v="multipolygon"/>
    <tag k="website" v="https://realestate.union-investment.com/liegenschaften/1253_munich_atmos"/>
  </relation>
  <relation id="2316667" version="5" timestamp="2022-03-16T13:33:08Z" changeset="118552266" uid="4376164" user="redweizn">
    <member type="way" ref="27662019" role="outer"/>
    <member type="way" ref="173514228" role="inner"/>
    <member type="way" ref="173514238" role="inner"/>
    <member type="way" ref="173514233" role="inner"/>
    <tag k="building" v="office"/>
    <tag k="building:levels" v="7"/>
    <tag k="name" v="24 seven"/>
    <tag k="roof:shape" v="flat"/>
    <tag k="type" v="multipolygon"/>
  </relation>
  <relation id="15549902" version="3" timestamp="2024-01-28T11:56:11Z" changeset="146775346" uid="8312062" user="Fadatag">
    <member type="way" ref="1150750590" role="outer"/>
    <member type="way" ref="1150750591" role="inner"/>
    <tag k="architect" v="David Chipperfield"/>
    <tag k="building" v="office"/>
    <tag k="building:levels" v="6"/>
    <tag k="name" v="KARL München"/>
    <tag k="roof:levels" v="0"/>
    <tag k="type" v="multipolygon"/>
    <tag k="website" v="https://www.karl-muenchen.de/"/>
  </relation>
  <relation id="16806991" version="1" timestamp="2023-12-10T14:34:24Z" changeset="144966642" uid="1208453" user="chewey">
    <member type="way" ref="1230102112" role="inner"/>
    <member type="way" ref="219431674" role="outer"/>
    <member type="way" ref="1230102111" role="inner"/>
    <member type="way" ref="1230102110" role="inner"/>
    <member type="way" ref="1230102109" role="inner"/>
    <tag k="building" v="commercial"/>
    <tag k="building:levels" v="3"/>
    <tag k="name" v="Kontorhaus"/>
    <tag k="roof:levels" v="4"/>
    <tag k="roof:shape" v="flat"/>
    <tag k="type" v="multipolygon"/>
  </relation>

</osm>
