<?xml version="1.0" encoding="UTF-8"?>
<osm version="0.6" generator="Overpass API 0.7.62.5 1bd436f1">
<note>The data included in this document is from www.openstreetmap.org. The data is made available under ODbL.</note>
<meta osm_base="2025-05-17T22:21:15Z" areas="2024-12-31T00:49:33Z"/>

  <node id="470146" lat="48.8582658" lon="2.3332665" version="8" timestamp="2012-05-18T07:30:58Z" changeset="11630186" uid="37548" user="Marcussacapuces91"/>
  <node id="470149" lat="48.8544757" lon="2.3304737" version="9" timestamp="2025-01-09T14:41:11Z" changeset="161172592" uid="7512839" user="Benoît C MdP">
    <tag k="highway" v="traffic_signals"/>
  </node>
  <node id="21305937" lat="48.8584113" lon="2.3327875" version="8" timestamp="2023-01-13T17:53:29Z" changeset="131239842" uid="311391" user="patman37"/>
  <node id="24958030" lat="48.8531684" lon="2.3358949" version="9" timestamp="2013-02-03T21:57:14Z" changeset="14903186" uid="1198089" user="GeorgeKaplan">
    <tag k="highway" v="traffic_signals"/>
  </node>
  <node id="24958711" lat="48.8524605" lon="2.3319308" version="9" timestamp="2019-02-15T17:42:00Z" changeset="67233875" uid="311391" user="patman37">
    <tag k="highway" v="traffic_signals"/>
  </node>
  <node id="24958752" lat="48.8516757" lon="2.3352891" version="6" timestamp="2019-01-01T17:44:37Z" changeset="65938290" uid="311391" user="patman37"/>
  <node id="25183693" lat="48.8552786" lon="2.3377567" version="6" timestamp="2019-01-02T15:57:00Z" changeset="65962717" uid="311391" user="patman37"/>
  <node id="25186813" lat="48.8547693" lon="2.3361010" version="2" timestamp="2010-03-11T20:31:22Z" changeset="4100730" uid="33634" user="lapinos03"/>
  <node id="25253964" lat="48.8522684" lon="2.3300292" version="7" timestamp="2012-09-13T16:58:09Z" changeset="13098252" uid="456113" user="eric_G"/>
  <node id="777218474" lat="48.8574614" lon="2.3380930" version="4" timestamp="2024-10-29T13:47:53Z" changeset="158499259" uid="17310249" user="VLD275">
    <tag k="crossing" v="unmarked"/>
    <tag k="crossing:markings" v="no"/>
    <tag k="highway" v="crossing"/>
  </node>
  <node id="778523467" lat="48.8530806" lon="2.3357210" version="3" timestamp="2025-03-19T10:03:47Z" changeset="163809496" uid="7512839" user="Benoît C MdP"/>
  <node id="786142279" lat="48.8520856" lon="2.3298830" version="7" timestamp="2024-01-03T17:25:10Z" changeset="145848702" uid="1205555" user="benoitdd">
    <tag k="highway" v="traffic_signals"/>
    <tag k="junction" v="yes"/>
    <tag k="name" v="Place Michel Debré"/>
    <tag k="old_name" v="Carrefour de la Croix Rouge"/>
    <tag k="source" v="cadastre-dgi-fr source : Direction Générale des Impôts - Cadastre. Mise à jour : 2010"/>
    <tag k="wikidata" v="Q3389993"/>
  </node>
  <node id="1481263033" lat="48.8526541" lon="2.3331658" version="4" timestamp="2025-04-02T11:51:28Z" changeset="164417501" uid="7550430" user="Britzz">
    <tag k="highway" v="traffic_signals"/>
    <tag k="junction" v="yes"/>
    <tag k="name" v="Place Mehdi Ben Barka"/>
    <tag k="traffic_signals" v="signal"/>
  </node>
  <node id="1756949013" lat="48.8571228" lon="2.3365131" version="4" timestamp="2020-08-05T17:54:01Z" changeset="88995097" uid="311391" user="patman37"/>
  <node id="6787724465" lat="48.8515768" lon="2.3329254" version="1" timestamp="2019-09-11T09:12:00Z" changeset="74343133" uid="138059" user="Truchin"/>
  <way id="4039249" version="17" timestamp="2024-03-28T10:51:57Z" changeset="149261012" uid="2678738" user="fgouget">
    <nd ref="470146"/>
    <nd ref="968748864"/>
    <tag k="highway" v="tertiary"/>
    <tag k="lit" v="yes"/>
    <tag k="maxspeed" v="30"/>
    <tag k="name" v="Rue des Saints-Pères"/>
    <tag k="oneway" v="yes"/>
    <tag k="sidewalk:left" v="separate"/>
    <tag k="sidewalk:right" v="yes"/>
    <tag k="surface" v="asphalt"/>
  </way>
  <way id="4039477" version="30" timestamp="2023-04-29T08:59:46Z" changeset="135495784" uid="12035222" user="millup">
    <nd ref="364627449"/>
    <nd ref="10655489887"/>
    <tag k="cycleway:right" v="no"/>
    <tag k="highway" v="secondary"/>
    <tag k="lane_markings" v="no"/>
    <tag k="lit" v="yes"/>
    <tag k="maxspeed" v="30"/>
    <tag k="name" v="Place du Québec"/>
    <tag k="oneway" v="yes"/>
    <tag k="sidewalk" v="both"/>
    <tag k="smoothness" v="excellent"/>
    <tag k="source:maxspeed" v="FR:urban"/>
    <tag k="surface" v="asphalt"/>
  </way>
  <way id="4212141" version="29" timestamp="2024-10-12T03:10:20Z" changeset="157777982" uid="2678738" user="fgouget">
    <nd ref="127877668"/>
    <nd ref="6157227794"/>
    <nd ref="4865355945"/>
    <nd ref="260382140"/>
    <nd ref="11042032480"/>
    <nd ref="24958711"/>
    <tag k="cycleway:left" v="lane"/>
    <tag k="cycleway:left:lane" v="exclusive"/>
    <tag k="cycleway:left:oneway" v="-1"/>
    <tag k="cycleway:right" v="no"/>
    <tag k="highway" v="tertiary"/>
    <tag k="lanes" v="1"/>
    <tag k="lit" v="yes"/>
    <tag k="maxspeed" v="30"/>
    <tag k="name" v="Rue du Four"/>
    <tag k="oneway" v="yes"/>
    <tag k="oneway:bicycle" v="no"/>
    <tag k="sidewalk:both" v="separate"/>
    <tag k="surface" v="asphalt"/>
  </way>
  <way id="4227115" version="16" timestamp="2024-04-01T14:39:17Z" changeset="149436432" uid="6290466" user="benjamintchik">
    <nd ref="25187836"/>
    <nd ref="6796761864"/>
    <nd ref="6222770463"/>
    <nd ref="24958038"/>
    <tag k="bicycle" v="yes"/>
    <tag k="cycleway" v="opposite"/>
    <tag k="highway" v="residential"/>
    <tag k="maxspeed" v="30"/>
    <tag k="name" v="Passage de la Petite Boucherie"/>
    <tag k="name:etymology:wikidata" v="Q13164546"/>
    <tag k="oneway" v="yes"/>
    <tag k="oneway:bicycle" v="no"/>
    <tag k="sidewalk:both" v="separate"/>
    <tag k="source:maxspeed" v="BMO arrêté n°2014P0193"/>
    <tag k="surface" v="asphalt"/>
    <tag k="zone:maxspeed" v="FR:30"/>
  </way>
  <way id="4227118" version="21" timestamp="2024-04-01T14:35:27Z" changeset="149436432" uid="6290466" user="benjamintchik">
    <nd ref="25183146"/>
    <nd ref="2734064468"/>
    <nd ref="2734064456"/>
    <nd ref="25186861"/>
    <nd ref="6796754308"/>
    <nd ref="25187836"/>
    <tag k="bicycle" v="yes"/>
    <tag k="cycleway:left" v="opposite"/>
    <tag k="highway" v="residential"/>
    <tag k="maxspeed" v="30"/>
    <tag k="name" v="Rue de l'Abbaye"/>
    <tag k="name:etymology:wikidata" v="Q160742"/>
    <tag k="oneway" v="yes"/>
    <tag k="oneway:bicycle" v="no"/>
    <tag k="sidewalk:both" v="separate"/>
    <tag k="source:maxspeed" v="BMO arrêté n°2014P0193"/>
    <tag k="surface" v="sett"/>
    <tag k="zone:maxspeed" v="FR:30"/>
  </way>
  <way id="4227121" version="41" timestamp="2024-12-23T00:56:22Z" changeset="160519947" uid="8123953" user="Davileci">
    <nd ref="25188963"/>
    <nd ref="2734064513"/>
    <nd ref="2734064511"/>
    <nd ref="25188352"/>
    <tag k="cycleway" v="opposite"/>
    <tag k="highway" v="residential"/>
    <tag k="maxspeed" v="30"/>
    <tag k="name" v="Rue des Beaux-Arts"/>
    <tag k="name:etymology:wikidata" v="Q273593"/>
    <tag k="name:ru" v="улица Боз-Ар"/>
    <tag k="oneway" v="yes"/>
    <tag k="oneway:bicycle" v="no"/>
    <tag k="sidewalk:both" v="separate"/>
    <tag k="smoothness" v="good"/>
    <tag k="source:maxspeed" v="BMO arrêté n°2014P0193"/>
    <tag k="surface" v="asphalt"/>
    <tag k="zone:maxspeed" v="FR:30"/>
  </way>
  <way id="4227124" version="16" timestamp="2024-03-16T07:42:21Z" changeset="148719283" uid="6290466" user="benjamintchik">
    <nd ref="25186689"/>
    <nd ref="6178786869"/>
    <nd ref="25186796"/>
    <nd ref="25186813"/>
    <tag k="cycleway:left" v="lane"/>
    <tag k="cycleway:left:lane" v="exclusive"/>
    <tag k="cycleway:left:oneway" v="-1"/>
    <tag k="cycleway:right" v="no"/>
    <tag k="highway" v="residential"/>
    <tag k="maxspeed" v="30"/>
    <tag k="name" v="Rue Jacob"/>
    <tag k="name:etymology:wikidata" v="Q289957"/>
    <tag k="oneway" v="yes"/>
    <tag k="oneway:bicycle" v="no"/>
    <tag k="sidewalk:both" v="separate"/>
    <tag k="surface" v="asphalt"/>
    <tag k="zone:maxspeed" v="FR:30"/>
  </way>
  <way id="4227133" version="25" timestamp="2024-12-23T00:56:22Z" changeset="160519947" uid="8123953" user="Davileci">
    <nd ref="1756949013"/>
    <nd ref="2734064516"/>
    <nd ref="777293360"/>
    <nd ref="2904713506"/>
    <nd ref="25189800"/>
    <nd ref="6358767231"/>
    <nd ref="6358767232"/>
    <nd ref="8630143444"/>
    <nd ref="1489202440"/>
    <nd ref="25183693"/>
    <tag k="cycleway:left" v="opposite"/>
    <tag k="cycleway:right" v="no"/>
    <tag k="highway" v="residential"/>
    <tag k="maxspeed" v="30"/>
    <tag k="name" v="Rue Mazarine"/>
    <tag k="name:etymology:wikidata" v="Q166056"/>
    <tag k="oneway" v="yes"/>
    <tag k="oneway:bicycle" v="no"/>
    <tag k="sidewalk:both" v="separate"/>
    <tag k="smoothness" v="good"/>
    <tag k="source:maxspeed" v="BMO arrêté n°2014P0193"/>
    <tag k="surface" v="asphalt"/>
    <tag k="zone:maxspeed" v="FR:30"/>
  </way>
  <way id="4227136" version="17" timestamp="2024-04-01T14:36:43Z" changeset="149436432" uid="6290466" user="benjamintchik">
    <nd ref="25187844"/>
    <nd ref="25186841"/>
    <nd ref="6286404821"/>
    <nd ref="25186813"/>
    <tag k="alt_name" v="Rue de Furstenberg"/>
    <tag k="bicycle" v="yes"/>
    <tag k="cycleway" v="opposite"/>
    <tag k="highway" v="residential"/>
    <tag k="lit" v="yes"/>
    <tag k="maxspeed" v="30"/>
    <tag k="name" v="Rue de Furstemberg"/>
    <tag k="name:etymology:wikidata" v="Q70876"/>
    <tag k="oneway" v="yes"/>
    <tag k="oneway:bicycle" v="no"/>
    <tag k="sidewalk:both" v="separate"/>
    <tag k="smoothness" v="good"/>
    <tag k="source:maxspeed" v="BMO arrêté n°2014P0193"/>
    <tag k="surface" v="asphalt"/>
    <tag k="zone:maxspeed" v="FR:30"/>
  </way>
  <way id="4227137" version="39" timestamp="2024-03-16T07:41:21Z" changeset="148719283" uid="6290466" user="benjamintchik">
    <nd ref="25183693"/>
    <nd ref="2734064487"/>
    <nd ref="2734064489"/>
    <nd ref="25186633"/>
    <tag k="cycleway" v="opposite"/>
    <tag k="highway" v="residential"/>
    <tag k="lit" v="yes"/>
    <tag k="maxspeed" v="30"/>
    <tag k="name" v="Rue Jacques Callot"/>
    <tag k="name:etymology:wikidata" v="Q460124"/>
    <tag k="name:ru" v="улица Жак Кало"/>
    <tag k="oneway" v="yes"/>
    <tag k="oneway:bicycle" v="no"/>
    <tag k="sidewalk:both" v="separate"/>
    <tag k="smoothness" v="good"/>
    <tag k="source:maxspeed" v="BMO arrêté n°2014P0193"/>
    <tag k="surface" v="asphalt"/>
    <tag k="zone:maxspeed" v="FR:30"/>
  </way>
  <way id="4227140" version="15" timestamp="2024-04-01T14:36:43Z" changeset="149436432" uid="6290466" user="benjamintchik">
    <nd ref="25186861"/>
    <nd ref="2734064458"/>
    <nd ref="25187841"/>
    <tag k="alt_name" v="Rue de Furstenberg"/>
    <tag k="bicycle" v="yes"/>
    <tag k="cycleway" v="opposite"/>
    <tag k="highway" v="residential"/>
    <tag k="maxspeed" v="30"/>
    <tag k="name" v="Rue de Furstemberg"/>
    <tag k="name:etymology:wikidata" v="Q70876"/>
    <tag k="oneway" v="yes"/>
    <tag k="oneway:bicycle" v="no"/>
    <tag k="sidewalk:both" v="separate"/>
    <tag k="source:maxspeed" v="BMO arrêté n°2014P0193"/>
    <tag k="surface" v="asphalt"/>
    <tag k="zone:maxspeed" v="FR:30"/>
  </way>
  <way id="4227146" version="55" timestamp="2024-10-12T22:13:22Z" changeset="157814716" uid="19623620" user="Melrok">
    <nd ref="25186702"/>
    <nd ref="6147317945"/>
    <nd ref="1756949010"/>
    <nd ref="25186689"/>
    <nd ref="6178786870"/>
    <nd ref="25186665"/>
    <nd ref="2734064484"/>
    <nd ref="25186633"/>
    <nd ref="5655930055"/>
    <nd ref="1756949012"/>
    <nd ref="25186984"/>
    <nd ref="2734064510"/>
    <nd ref="25188352"/>
    <nd ref="11022195843"/>
    <nd ref="2734064515"/>
    <nd ref="1756949013"/>
    <tag k="cycleway:both" v="no"/>
    <tag k="highway" v="residential"/>
    <tag k="maxspeed" v="30"/>
    <tag k="name" v="Rue de Seine"/>
    <tag k="name:etymology:wikidata" v="Q1471"/>
    <tag k="name:ru" v="улица Сена"/>
    <tag k="oneway" v="yes"/>
    <tag k="oneway:bicycle" v="no"/>
    <tag k="parking:both" v="lane"/>
    <tag k="sidewalk:both" v="separate"/>
    <tag k="source:maxspeed" v="BMO arrêté n°2014P0193"/>
    <tag k="surface" v="asphalt"/>
    <tag k="zone:maxspeed" v="FR:30"/>
  </way>
  <way id="4227148" version="17" timestamp="2024-04-01T14:36:43Z" changeset="149436432" uid="6290466" user="benjamintchik">
    <nd ref="25187841"/>
    <nd ref="11409627318"/>
    <nd ref="11409627313"/>
    <nd ref="25187860"/>
    <nd ref="11409627319"/>
    <nd ref="25187847"/>
    <nd ref="11409627314"/>
    <nd ref="25187844"/>
    <tag k="alt_name" v="Rue de Furstenberg"/>
    <tag k="bicycle" v="yes"/>
    <tag k="cycleway:both" v="no"/>
    <tag k="highway" v="residential"/>
    <tag k="maxspeed" v="30"/>
    <tag k="name" v="Rue de Furstemberg"/>
    <tag k="name:etymology:wikidata" v="Q70876"/>
    <tag k="note" v="not a roundabout ! pas un rond-point !"/>
    <tag k="oneway" v="yes"/>
    <tag k="sidewalk:left" v="no"/>
    <tag k="sidewalk:right" v="separate"/>
    <tag k="source:maxspeed" v="BMO arrêté n°2014P0193"/>
    <tag k="surface" v="asphalt"/>
    <tag k="zone:maxspeed" v="FR:30"/>
  </way>
  <way id="4227150" version="16" timestamp="2024-04-01T14:37:22Z" changeset="149436432" uid="6290466" user="benjamintchik">
    <nd ref="25186841"/>
    <nd ref="25187796"/>
    <nd ref="25187817"/>
    <nd ref="25187828"/>
    <tag k="bicycle" v="yes"/>
    <tag k="cycleway" v="opposite"/>
    <tag k="highway" v="residential"/>
    <tag k="maxspeed" v="30"/>
    <tag k="name" v="Rue Cardinale"/>
    <tag k="name:etymology:wikidata" v="Q45722"/>
    <tag k="oneway" v="yes"/>
    <tag k="oneway:bicycle" v="no"/>
    <tag k="sidewalk:both" v="separate"/>
    <tag k="source:maxspeed" v="BMO arrêté n°2014P0193"/>
    <tag k="surface" v="asphalt"/>
    <tag k="zone:maxspeed" v="FR:30"/>
  </way>
  <way id="4262805" version="33" timestamp="2024-09-02T21:48:54Z" changeset="156117993" uid="2678738" user="fgouget">
    <nd ref="25253964"/>
    <nd ref="2734029839"/>
    <nd ref="2755814648"/>
    <nd ref="11026013625"/>
    <nd ref="21378246"/>
    <nd ref="2734029854"/>
    <nd ref="25253721"/>
    <nd ref="6284392878"/>
    <nd ref="640426002"/>
    <nd ref="25253720"/>
    <nd ref="2734029877"/>
    <nd ref="25253719"/>
    <tag k="highway" v="residential"/>
    <tag k="lane_markings" v="no"/>
    <tag k="lit" v="yes"/>
    <tag k="maxspeed" v="30"/>
    <tag k="name" v="Rue de Grenelle"/>
    <tag k="name:etymology:wikidata" v="Q18199186"/>
    <tag k="oneway" v="yes"/>
    <tag k="sidewalk:both" v="separate"/>
    <tag k="source" v="cadastre-dgi-fr source : Direction Générale des Impôts - Cadastre. Mise à jour : 2010"/>
    <tag k="source:maxspeed" v="FR:urban"/>
    <tag k="surface" v="asphalt"/>
  </way>
  <way id="4262852" version="22" timestamp="2023-04-29T09:01:05Z" changeset="135495784" uid="12035222" user="millup">
    <nd ref="25253723"/>
    <nd ref="364627452"/>
    <tag k="cycleway:right" v="no"/>
    <tag k="highway" v="secondary"/>
    <tag k="lane_markings" v="no"/>
    <tag k="lit" v="yes"/>
    <tag k="maxspeed" v="30"/>
    <tag k="name" v="Place Jean-Paul Sartre et Simone de Beauvoir"/>
    <tag k="oneway" v="yes"/>
    <tag k="sidewalk" v="right"/>
    <tag k="smoothness" v="excellent"/>
    <tag k="source" v="cadastre-dgi-fr source : Direction Générale des Impôts - Cadastre. Mise à jour : 2010"/>
    <tag k="source:maxspeed" v="FR:urban"/>
    <tag k="surface" v="asphalt"/>
  </way>
  <way id="6511301" version="22" timestamp="2024-04-16T01:34:28Z" changeset="150062528" uid="2678738" user="fgouget">
    <nd ref="24958711"/>
    <nd ref="53248489"/>
    <nd ref="5961992393"/>
    <nd ref="250524313"/>
    <tag k="check_date:cycleway" v="2021-05-29"/>
    <tag k="cycleway" v="no"/>
    <tag k="highway" v="residential"/>
    <tag k="lit" v="yes"/>
    <tag k="maxspeed" v="30"/>
    <tag k="name" v="Rue Madame"/>
    <tag k="note" v="ParisJecourte : &quot;Le double-sens cyclable n’a pas été réalisé en raison du refus de la RATP, jugeant le conflit vélo/bus dangereux, les bus étant en plus à cet endroit en plein mouvement tournant.&quot;"/>
    <tag k="oneway" v="yes"/>
    <tag k="sidewalk:both" v="separate"/>
    <tag k="source:maxspeed" v="sign"/>
    <tag k="surface" v="asphalt"/>
  </way>
  <way id="16189206" version="35" timestamp="2024-10-12T03:10:44Z" changeset="157777982" uid="2678738" user="fgouget">
    <nd ref="786142279"/>
    <nd ref="6157227793"/>
    <nd ref="25253964"/>
    <tag k="highway" v="residential"/>
    <tag k="lane_markings" v="no"/>
    <tag k="lit" v="yes"/>
    <tag k="maxspeed" v="30"/>
    <tag k="name" v="Rue du Dragon"/>
    <tag k="oneway" v="yes"/>
    <tag k="oneway:bicycle" v="no"/>
    <tag k="sidewalk:left" v="separate"/>
    <tag k="source:maxspeed" v="FR:urban"/>
    <tag k="surface" v="asphalt"/>
  </way>
  <way id="21126149" version="14" timestamp="2024-08-15T17:22:30Z" changeset="155293930" uid="11963177" user="JeroenvanderGun">
    <nd ref="227228433"/>
    <nd ref="2734064518"/>
    <nd ref="11022195855"/>
    <nd ref="25188960"/>
    <tag k="enforcement:operator" v="Police nationale"/>
    <tag k="highway" v="residential"/>
    <tag k="lit" v="yes"/>
    <tag k="maxspeed" v="30"/>
    <tag k="name" v="Quai Malaquais"/>
    <tag k="name:etymology" v="unknown"/>
    <tag k="oneway" v="yes"/>
    <tag k="operator" v="Ville de Paris"/>
    <tag k="operator:authority" v="Maire de Paris dans le respect des prescriptions prises par le préfet de police"/>
    <tag k="operator:authority:related_law" v="III de l'article L. 2512-14 du code général des collectivités territoriales"/>
    <tag k="source:maxspeed" v="opendata.paris.fr"/>
    <tag k="source:operator:authority" v="https://www.legifrance.gouv.fr/loda/id/LEGIARTI000035244298/#LEGIARTI000035244298"/>
    <tag k="surface" v="asphalt"/>
    <tag k="zone:traffic" v="FR:urban"/>
  </way>
  <way id="21509474" version="18" timestamp="2024-10-12T22:14:38Z" changeset="157814716" uid="19623620" user="Melrok">
    <nd ref="25187832"/>
    <nd ref="778219582"/>
    <nd ref="11022195856"/>
    <nd ref="25186734"/>
    <tag k="bicycle" v="yes"/>
    <tag k="cycleway:left" v="lane"/>
    <tag k="cycleway:left:lane" v="exclusive"/>
    <tag k="cycleway:left:oneway" v="-1"/>
    <tag k="cycleway:right" v="no"/>
    <tag k="highway" v="residential"/>
    <tag k="maxspeed" v="30"/>
    <tag k="name" v="Rue de Bourbon le Château"/>
    <tag k="name:etymology:wikidata" v="Q544166"/>
    <tag k="oneway" v="yes"/>
    <tag k="oneway:bicycle" v="no"/>
    <tag k="sidewalk:both" v="separate"/>
    <tag k="source:maxspeed" v="BMO arrêté n°2014P0193"/>
    <tag k="surface" v="asphalt"/>
    <tag k="zone:maxspeed" v="FR:30"/>
  </way>
  <way id="22617759" version="44" timestamp="2024-07-10T18:37:26Z" changeset="153796576" uid="10731965" user="Hydrel">
    <nd ref="25183146"/>
    <nd ref="2734064474"/>
    <nd ref="12046529094"/>
    <nd ref="25183165"/>
    <nd ref="11022117214"/>
    <nd ref="12046529092"/>
    <nd ref="11022117216"/>
    <nd ref="2734064508"/>
    <nd ref="1989837228"/>
    <nd ref="5660204341"/>
    <nd ref="2734064512"/>
    <nd ref="25188963"/>
    <nd ref="2734064514"/>
    <nd ref="777172943"/>
    <nd ref="11022117213"/>
    <nd ref="25189867"/>
    <tag k="cycleway:both" v="no"/>
    <tag k="highway" v="tertiary"/>
    <tag k="lanes" v="2"/>
    <tag k="lit" v="yes"/>
    <tag k="maxspeed" v="30"/>
    <tag k="name" v="Rue Bonaparte"/>
    <tag k="name:br" v="Straed Buonaparte"/>
    <tag k="name:etymology:wikidata" v="Q517"/>
    <tag k="name:ru" v="улица Бонапарт"/>
    <tag k="oneway" v="yes"/>
    <tag k="sidewalk:both" v="separate"/>
    <tag k="source:maxspeed" v="BMO arrêté n°2014P0193"/>
    <tag k="surface" v="asphalt"/>
    <tag k="zone:maxspeed" v="FR:30"/>
  </way>
  <way id="22617760" version="29" timestamp="2024-04-16T01:35:09Z" changeset="150062528" uid="2678738" user="fgouget">
    <nd ref="6787724465"/>
    <nd ref="2420685488"/>
    <nd ref="1481263026"/>
    <nd ref="1481263033"/>
    <tag k="cycleway:left" v="lane"/>
    <tag k="cycleway:left:lane" v="exclusive"/>
    <tag k="cycleway:left:oneway" v="-1"/>
    <tag k="cycleway:right" v="no"/>
    <tag k="highway" v="residential"/>
    <tag k="lanes" v="1"/>
    <tag k="lit" v="yes"/>
    <tag k="maxspeed" v="30"/>
    <tag k="name" v="Rue Bonaparte"/>
    <tag k="name:etymology:wikidata" v="Q517"/>
    <tag k="oneway" v="yes"/>
    <tag k="oneway:bicycle" v="no"/>
    <tag k="sidewalk:both" v="separate"/>
    <tag k="surface" v="asphalt"/>
  </way>
  <way id="22617761" version="24" timestamp="2024-04-01T14:35:08Z" changeset="149436432" uid="6290466" user="benjamintchik">
    <nd ref="367504"/>
    <nd ref="2734064446"/>
    <nd ref="4865355942"/>
    <nd ref="2734064466"/>
    <nd ref="25183146"/>
    <tag k="cycleway" v="no"/>
    <tag k="highway" v="residential"/>
    <tag k="lit" v="yes"/>
    <tag k="maxspeed" v="30"/>
    <tag k="name" v="Place Saint-Germain des Prés"/>
    <tag k="name:br" v="Plasenn Sant Jermen ar Prajeier"/>
    <tag k="name:etymology:wikidata" v="Q334186"/>
    <tag k="oneway" v="yes"/>
    <tag k="oneway:bicycle" v="yes"/>
    <tag k="sidewalk:both" v="separate"/>
    <tag k="smoothness" v="bad"/>
    <tag k="source:maxspeed" v="BMO arrêté n°2014P0193"/>
    <tag k="surface" v="sett"/>
    <tag k="zone:maxspeed" v="FR:30"/>
  </way>
  <way id="22617767" version="19" timestamp="2024-03-16T09:11:39Z" changeset="148722122" uid="6290466" user="benjamintchik">
    <nd ref="24958048"/>
    <nd ref="5688740190"/>
    <nd ref="24958726"/>
    <tag k="cycleway:left" v="opposite"/>
    <tag k="cycleway:right" v="no"/>
    <tag k="highway" v="residential"/>
    <tag k="lit" v="yes"/>
    <tag k="maxspeed" v="30"/>
    <tag k="name" v="Boulevard Saint-Germain"/>
    <tag k="name:etymology:wikidata" v="Q255910"/>
    <tag k="oneway" v="yes"/>
    <tag k="oneway:bicycle" v="no"/>
    <tag k="sidewalk" v="both"/>
    <tag k="surface" v="asphalt"/>
  </way>
  <way id="22617793" version="25" timestamp="2024-08-08T11:50:14Z" changeset="154975006" uid="15968482" user="PtitLouis_">
    <nd ref="24958752"/>
    <nd ref="24958750"/>
    <nd ref="11030326728"/>
    <nd ref="2839173473"/>
    <nd ref="779767884"/>
    <nd ref="24958744"/>
    <nd ref="11030326759"/>
    <nd ref="11030262694"/>
    <nd ref="779768681"/>
    <nd ref="2496113396"/>
    <nd ref="11937413350"/>
    <nd ref="24958740"/>
    <tag k="cycleway:both" v="no"/>
    <tag k="highway" v="residential"/>
    <tag k="lit" v="yes"/>
    <tag k="maxspeed" v="30"/>
    <tag k="name" v="Rue Mabillon"/>
    <tag k="oneway" v="yes"/>
    <tag k="oneway:bicycle" v="no"/>
    <tag k="sidewalk:both" v="separate"/>
    <tag k="source:maxspeed" v="BMO arrêté n°2014-00011"/>
    <tag k="surface" v="asphalt"/>
    <tag k="zone:maxspeed" v="FR:30"/>
  </way>
  <way id="24476106" version="37" timestamp="2024-04-01T14:37:46Z" changeset="149436432" uid="6290466" user="benjamintchik">
    <nd ref="25187832"/>
    <nd ref="11021951474"/>
    <nd ref="777320135"/>
    <nd ref="25186796"/>
    <nd ref="2734064479"/>
    <nd ref="777320133"/>
    <nd ref="25186665"/>
    <tag k="bicycle" v="yes"/>
    <tag k="cycleway" v="opposite"/>
    <tag k="highway" v="residential"/>
    <tag k="maxspeed" v="30"/>
    <tag k="name" v="Rue de l'Échaudé"/>
    <tag k="name:etymology:wikidata" v="Q3577420"/>
    <tag k="name:ru" v="улица Эшоде"/>
    <tag k="oneway" v="yes"/>
    <tag k="oneway:bicycle" v="no"/>
    <tag k="source:maxspeed" v="BMO arrêté n°2014P0193"/>
    <tag k="surface" v="asphalt"/>
    <tag k="zone:maxspeed" v="FR:30"/>
  </way>
  <way id="24689004" version="25" timestamp="2024-05-27T15:31:54Z" changeset="151905409" uid="21577762" user="loloums">
    <nd ref="1481263033"/>
    <nd ref="11937413317"/>
    <nd ref="2420685487"/>
    <nd ref="6404126903"/>
    <nd ref="24958725"/>
    <nd ref="2651570674"/>
    <nd ref="367504"/>
    <tag k="cycleway:left" v="lane"/>
    <tag k="cycleway:left:lane" v="exclusive"/>
    <tag k="cycleway:left:oneway" v="-1"/>
    <tag k="cycleway:right" v="no"/>
    <tag k="highway" v="residential"/>
    <tag k="lit" v="yes"/>
    <tag k="maxspeed" v="30"/>
    <tag k="name" v="Rue Bonaparte"/>
    <tag k="name:etymology:wikidata" v="Q517"/>
    <tag k="oneway" v="yes"/>
    <tag k="oneway:bicycle" v="no"/>
    <tag k="sidewalk" v="both"/>
    <tag k="surface" v="asphalt"/>
  </way>
  <way id="34856551" version="21" timestamp="2024-11-25T06:24:56Z" changeset="159558677" uid="158826" user="cquest">
    <nd ref="24958711"/>
    <nd ref="5961993653"/>
    <nd ref="12373037867"/>
    <nd ref="4942457173"/>
    <nd ref="367521"/>
    <tag k="busway:left" v="lane"/>
    <tag k="cycleway:left" v="share_busway"/>
    <tag k="highway" v="secondary"/>
    <tag k="lanes" v="2"/>
    <tag k="lit" v="yes"/>
    <tag k="maxspeed" v="30"/>
    <tag k="name" v="Rue de Rennes"/>
    <tag k="name:br" v="Straed Roazhon"/>
    <tag k="name:etymology:wikidata" v="Q647"/>
    <tag k="sidewalk:both" v="separate"/>
    <tag k="sidewalk:both:surface" v="asphalt"/>
    <tag k="smoothness" v="excellent"/>
    <tag k="source:maxspeed" v="FR:urban"/>
    <tag k="surface" v="asphalt"/>
  </way>
  <way id="34856561" version="56" timestamp="2024-10-12T22:27:35Z" changeset="157814716" uid="19623620" user="Melrok">
    <nd ref="24958030"/>
    <nd ref="2878370342"/>
    <nd ref="2496113398"/>
    <nd ref="1756761496"/>
    <nd ref="2496113397"/>
    <nd ref="5005356200"/>
    <nd ref="24958023"/>
    <nd ref="2496113394"/>
    <nd ref="6291070987"/>
    <nd ref="2496113390"/>
    <nd ref="24983568"/>
    <tag k="cycleway:left" v="no"/>
    <tag k="cycleway:right" v="separate"/>
    <tag k="highway" v="primary"/>
    <tag k="lanes" v="3"/>
    <tag k="lit" v="yes"/>
    <tag k="maxspeed" v="30"/>
    <tag k="name" v="Boulevard Saint-Germain"/>
    <tag k="name:etymology:wikidata" v="Q255910"/>
    <tag k="name:ru" v="бульвар Сен-Жермен"/>
    <tag k="oneway" v="yes"/>
    <tag k="sidewalk" v="separate"/>
    <tag k="smoothness" v="good"/>
    <tag k="source" v="cadastre-dgi-fr source : Direction Générale des Impôts - Cadastre. Mise à jour : 2010"/>
    <tag k="surface" v="asphalt"/>
  </way>
  <way id="41467715" version="42" timestamp="2025-03-19T10:03:47Z" changeset="163809496" uid="7512839" user="Benoît C MdP">
    <nd ref="1481263033"/>
    <nd ref="2420685485"/>
    <nd ref="2878370334"/>
    <nd ref="24958732"/>
    <nd ref="24958730"/>
    <nd ref="11030326729"/>
    <nd ref="12679808054"/>
    <nd ref="24958739"/>
    <nd ref="6147317940"/>
    <nd ref="24958740"/>
    <tag k="cycleway:left" v="separate"/>
    <tag k="cycleway:right" v="lane"/>
    <tag k="cycleway:right:lane" v="exclusive"/>
    <tag k="highway" v="tertiary"/>
    <tag k="lanes" v="1"/>
    <tag k="lit" v="yes"/>
    <tag k="maxspeed" v="30"/>
    <tag k="name" v="Rue du Four"/>
    <tag k="oneway" v="yes"/>
    <tag k="sidewalk:both" v="separate"/>
    <tag k="smoothness" v="excellent"/>
    <tag k="source:maxspeed" v="FR:urban"/>
    <tag k="surface" v="asphalt"/>
  </way>
  <way id="62235594" version="40" timestamp="2024-03-16T07:40:36Z" changeset="148719283" uid="6290466" user="benjamintchik">
    <nd ref="1756949013"/>
    <nd ref="1944234858"/>
    <nd ref="1944234859"/>
    <nd ref="25189812"/>
    <nd ref="1944234860"/>
    <nd ref="777294396"/>
    <nd ref="1944234861"/>
    <nd ref="25189818"/>
    <nd ref="2734064517"/>
    <nd ref="227228433"/>
    <tag k="cycleway:both" v="no"/>
    <tag k="highway" v="residential"/>
    <tag k="lit" v="yes"/>
    <tag k="maxspeed" v="30"/>
    <tag k="name" v="Rue de Seine"/>
    <tag k="name:etymology:wikidata" v="Q1471"/>
    <tag k="name:ru" v="улица Сена"/>
    <tag k="sidewalk:both" v="separate"/>
    <tag k="smoothness" v="good"/>
    <tag k="source:maxspeed" v="BMO arrêté n°2014P0193"/>
    <tag k="surface" v="asphalt"/>
    <tag k="zone:maxspeed" v="FR:30"/>
  </way>
  <way id="62235610" version="15" timestamp="2025-02-24T13:52:16Z" changeset="162893722" uid="7512839" user="Benoît C MdP">
    <nd ref="25189867"/>
    <nd ref="470145"/>
    <tag k="cycleway:both" v="lane"/>
    <tag k="cycleway:both:lane" v="exclusive"/>
    <tag k="cycleway:left:oneway" v="-1"/>
    <tag k="enforcement:operator" v="Police nationale"/>
    <tag k="highway" v="tertiary"/>
    <tag k="lane_markings" v="no"/>
    <tag k="lit" v="yes"/>
    <tag k="maxspeed" v="30"/>
    <tag k="name" v="Quai Malaquais"/>
    <tag k="name:etymology" v="unknown"/>
    <tag k="oneway" v="yes"/>
    <tag k="oneway:bicycle" v="no"/>
    <tag k="operator" v="Ville de Paris"/>
    <tag k="operator:authority" v="Maire de Paris dans le respect des prescriptions prises par le préfet de police"/>
    <tag k="operator:authority:related_law" v="III de l'article L. 2512-14 du code général des collectivités territoriales"/>
    <tag k="smoothness" v="good"/>
    <tag k="source:maxspeed" v="FR:urban"/>
    <tag k="source:operator:authority" v="https://www.legifrance.gouv.fr/loda/id/LEGIARTI000035244298/#LEGIARTI000035244298"/>
    <tag k="surface" v="asphalt"/>
    <tag k="zone:traffic" v="FR:urban"/>
  </way>
  <way id="62287122" version="12" timestamp="2025-04-19T09:23:21Z" changeset="165144562" uid="195017" user="Julien39">
    <nd ref="25187836"/>
    <nd ref="25187828"/>
    <nd ref="25187832"/>
    <tag k="bicycle" v="yes"/>
    <tag k="cycleway:both" v="no"/>
    <tag k="highway" v="residential"/>
    <tag k="lit" v="yes"/>
    <tag k="maxspeed" v="30"/>
    <tag k="name" v="Rue de l'Abbaye"/>
    <tag k="name:etymology:wikidata" v="Q160742"/>
    <tag k="oneway" v="yes"/>
    <tag k="oneway:bicycle" v="no"/>
    <tag k="sidewalk:both" v="separate"/>
    <tag k="source:maxspeed" v="BMO arrêté n°2014P0193"/>
    <tag k="surface" v="asphalt"/>
    <tag k="zone:maxspeed" v="FR:30"/>
  </way>
  <way id="62287141" version="5" timestamp="2024-05-14T16:06:49Z" changeset="151320174" uid="15094172" user="chl-osm">
    <nd ref="778219409"/>
    <nd ref="778219305"/>
    <nd ref="806101073"/>
    <nd ref="778220089"/>
    <nd ref="778219762"/>
    <nd ref="778220111"/>
    <nd ref="778219491"/>
    <nd ref="778220310"/>
    <nd ref="778220195"/>
    <nd ref="778219817"/>
    <nd ref="778219991"/>
    <nd ref="778219670"/>
    <nd ref="778219575"/>
    <nd ref="778220395"/>
    <nd ref="778219759"/>
    <nd ref="778219422"/>
    <nd ref="778219324"/>
    <nd ref="778220105"/>
    <nd ref="778219405"/>
    <nd ref="778220188"/>
    <nd ref="778220081"/>
    <nd ref="778219741"/>
    <nd ref="778220303"/>
    <nd ref="778219813"/>
    <nd ref="778219486"/>
    <nd ref="778219869"/>
    <nd ref="778219547"/>
    <nd ref="778219466"/>
    <nd ref="778220266"/>
    <nd ref="778219645"/>
    <nd ref="778219409"/>
    <tag k="building" v="hotel"/>
    <tag k="building:levels" v="8"/>
    <tag k="contact:email" v="reservations@villadespres.com"/>
    <tag k="contact:phone" v="+33 1 89 40 05 00"/>
    <tag k="name" v="Villa des Prés"/>
    <tag k="source" v="cadastre-dgi-fr source : Direction Générale des Impôts - Cadastre. Mise à jour : 2010"/>
    <tag k="stars" v="5"/>
    <tag k="tourism" v="hotel"/>
    <tag k="website" v="https://www.villadespres.com"/>
  </way>
  <way id="62287168" version="5" timestamp="2018-06-16T17:42:04Z" changeset="59899066" uid="57126" user="yxoc">
    <nd ref="778220044"/>
    <nd ref="778219341"/>
    <nd ref="778220119"/>
    <nd ref="806897726"/>
    <nd ref="778220021"/>
    <nd ref="778219695"/>
    <nd ref="806898017"/>
    <nd ref="778220226"/>
    <nd ref="778219840"/>
    <nd ref="778219772"/>
    <nd ref="778219436"/>
    <nd ref="778219829"/>
    <nd ref="778219502"/>
    <nd ref="5695218702"/>
    <nd ref="778219420"/>
    <nd ref="778220207"/>
    <nd ref="806898166"/>
    <nd ref="778219597"/>
    <nd ref="778220410"/>
    <nd ref="778219713"/>
    <nd ref="778220344"/>
    <nd ref="778220324"/>
    <nd ref="778219903"/>
    <nd ref="778220392"/>
    <nd ref="778219988"/>
    <nd ref="778220044"/>
    <tag k="alt_name" v="Palais Abbatical"/>
    <tag k="building" v="yes"/>
    <tag k="building:levels" v="8"/>
    <tag k="name" v="Palais du Cardinal"/>
    <tag k="source" v="cadastre-dgi-fr source : Direction Générale des Impôts - Cadastre. Mise à jour : 2010"/>
  </way>
  <way id="62287173" version="19" timestamp="2025-05-03T22:28:30Z" changeset="165779019" uid="4346095" user="jerome92370">
    <nd ref="4873724151"/>
    <nd ref="4873724148"/>
    <nd ref="4873724149"/>
    <nd ref="4873724152"/>
    <nd ref="778220040"/>
    <nd ref="778219901"/>
    <nd ref="778219595"/>
    <nd ref="778220117"/>
    <nd ref="778219769"/>
    <nd ref="778219690"/>
    <nd ref="778219339"/>
    <nd ref="778219752"/>
    <nd ref="778219417"/>
    <nd ref="778219317"/>
    <nd ref="778220102"/>
    <nd ref="778219501"/>
    <nd ref="778220322"/>
    <nd ref="778220205"/>
    <nd ref="778219827"/>
    <nd ref="778220287"/>
    <nd ref="778219884"/>
    <nd ref="778219810"/>
    <nd ref="778219481"/>
    <nd ref="778219986"/>
    <nd ref="778219666"/>
    <nd ref="778219572"/>
    <nd ref="778220391"/>
    <nd ref="778219639"/>
    <nd ref="778220452"/>
    <nd ref="778220367"/>
    <nd ref="778219949"/>
    <nd ref="778219385"/>
    <nd ref="778220180"/>
    <nd ref="778220075"/>
    <nd ref="778219738"/>
    <nd ref="778220156"/>
    <nd ref="778219793"/>
    <nd ref="778219723"/>
    <nd ref="778219368"/>
    <nd ref="778219867"/>
    <nd ref="778219544"/>
    <nd ref="778219462"/>
    <nd ref="778220263"/>
    <nd ref="778220066"/>
    <nd ref="778219941"/>
    <nd ref="778219635"/>
    <nd ref="778220175"/>
    <nd ref="778219804"/>
    <nd ref="778219732"/>
    <nd ref="778219379"/>
    <nd ref="778219789"/>
    <nd ref="778219454"/>
    <nd ref="778219364"/>
    <nd ref="778220149"/>
    <nd ref="778220359"/>
    <nd ref="778219861"/>
    <nd ref="778219922"/>
    <nd ref="778219845"/>
    <nd ref="778219522"/>
    <nd ref="778220047"/>
    <nd ref="778219720"/>
    <nd ref="778220432"/>
    <nd ref="778220414"/>
    <nd ref="778220027"/>
    <nd ref="778219440"/>
    <nd ref="778220125"/>
    <nd ref="778219775"/>
    <nd ref="778219761"/>
    <nd ref="778219910"/>
    <nd ref="778219600"/>
    <nd ref="778219505"/>
    <nd ref="778220329"/>
    <nd ref="778219579"/>
    <nd ref="778220398"/>
    <nd ref="778220307"/>
    <nd ref="778219890"/>
    <nd ref="778219327"/>
    <nd ref="778220109"/>
    <nd ref="778219998"/>
    <nd ref="778219678"/>
    <nd ref="778220085"/>
    <nd ref="778219743"/>
    <nd ref="778219652"/>
    <nd ref="778220460"/>
    <nd ref="778219815"/>
    <nd ref="778219489"/>
    <nd ref="778219407"/>
    <nd ref="778220193"/>
    <nd ref="778219471"/>
    <nd ref="778220166"/>
    <nd ref="778219799"/>
    <nd ref="778220372"/>
    <nd ref="778219963"/>
    <nd ref="778219872"/>
    <nd ref="778219739"/>
    <nd ref="778220454"/>
    <nd ref="778220077"/>
    <nd ref="778219482"/>
    <nd ref="778220289"/>
    <nd ref="778220184"/>
    <nd ref="778219811"/>
    <nd ref="778220264"/>
    <nd ref="778219868"/>
    <nd ref="778219794"/>
    <nd ref="778219465"/>
    <nd ref="778219953"/>
    <nd ref="778219642"/>
    <nd ref="778219545"/>
    <nd ref="778220369"/>
    <nd ref="778219624"/>
    <nd ref="778220437"/>
    <nd ref="778220169"/>
    <nd ref="778220351"/>
    <nd ref="778219928"/>
    <nd ref="778219370"/>
    <nd ref="778220159"/>
    <nd ref="778220050"/>
    <nd ref="778220134"/>
    <nd ref="778219779"/>
    <nd ref="778219710"/>
    <nd ref="778219351"/>
    <nd ref="291530549"/>
    <nd ref="778219527"/>
    <nd ref="778219443"/>
    <nd ref="778220241"/>
    <nd ref="778219512"/>
    <nd ref="778220335"/>
    <nd ref="778220219"/>
    <nd ref="778219837"/>
    <nd ref="778220423"/>
    <nd ref="778220036"/>
    <nd ref="778219915"/>
    <nd ref="778219610"/>
    <nd ref="778220010"/>
    <nd ref="778219686"/>
    <nd ref="778219589"/>
    <nd ref="778220404"/>
    <nd ref="778219766"/>
    <nd ref="778219432"/>
    <nd ref="778219333"/>
    <nd ref="778220115"/>
    <nd ref="5695218830"/>
    <nd ref="778219748"/>
    <nd ref="778220317"/>
    <nd ref="778219897"/>
    <nd ref="778219821"/>
    <nd ref="4873724151"/>
    <tag k="addr:housenumber" v="3"/>
    <tag k="addr:street" v="Place Saint-Germain des Prés"/>
    <tag k="alt_name" v="Église Saint-Germain-des-Prés"/>
    <tag k="amenity" v="place_of_worship"/>
    <tag k="building" v="church"/>
    <tag k="building:levels" v="1"/>
    <tag k="check_date" v="2024-07-19"/>
    <tag k="denomination" v="catholic"/>
    <tag k="heritage" v="2"/>
    <tag k="heritage:operator" v="mhs"/>
    <tag k="image" v="https://commons.wikimedia.org/wiki/File:P1240300_Paris_VI_eglise_St-Germain_v2_rwk.jpg"/>
    <tag k="mhs:inscription_date" v="1862"/>
    <tag k="name" v="Église Saint-Germain des Prés"/>
    <tag k="name:zh" v="圣日耳曼德佩修道院"/>
    <tag k="opening_hours" v="Mo,Su 09:30-20:00; Tu-Fr 07:30-20:00; Sa 08:30-20:00"/>
    <tag k="ref:FR:CEF" v="75106_03"/>
    <tag k="ref:mhs" v="PA00088509"/>
    <tag k="religion" v="christian"/>
    <tag k="source:heritage" v="data.gouv.fr:Ministère de la Culture - 04/2015"/>
    <tag k="website" v="https://eglise-saintgermaindespres.fr"/>
    <tag k="wikidata" v="Q22924488"/>
    <tag k="wikimedia_commons" v="File:P1240300 Paris VI eglise St-Germain v2 rwk.jpg"/>
    <tag k="wikipedia" v="fr:Abbaye de Saint-Germain-des-Prés"/>
  </way>
  <way id="62287183" version="5" timestamp="2023-12-11T13:10:17Z" changeset="144999210" uid="4346095" user="jerome92370">
    <nd ref="778219946"/>
    <nd ref="778219865"/>
    <nd ref="778219542"/>
    <nd ref="778220069"/>
    <nd ref="778219734"/>
    <nd ref="806898336"/>
    <nd ref="11409627304"/>
    <nd ref="778219638"/>
    <nd ref="806898058"/>
    <nd ref="778220450"/>
    <nd ref="778219474"/>
    <nd ref="778220275"/>
    <nd ref="778220172"/>
    <nd ref="806897969"/>
    <nd ref="778219802"/>
    <nd ref="778219946"/>
    <tag k="building" v="yes"/>
    <tag k="building:levels" v="5"/>
    <tag k="name" v="Maison du Bailli"/>
    <tag k="source" v="cadastre-dgi-fr source : Direction Générale des Impôts - Cadastre. Mise à jour : 2010"/>
  </way>
  <way id="62288001" version="4" timestamp="2016-02-03T12:20:17Z" changeset="36975950" uid="365274" user="thbz">
    <nd ref="778229117"/>
    <nd ref="778228313"/>
    <nd ref="778228555"/>
    <nd ref="778229543"/>
    <nd ref="3986015857"/>
    <nd ref="778229117"/>
    <tag k="building" v="yes"/>
    <tag k="building:levels" v="2"/>
    <tag k="name" v="Atelier de Delacroix"/>
    <tag k="source" v="cadastre-dgi-fr source : Direction Générale des Impôts - Cadastre. Mise à jour : 2010"/>
  </way>
  <way id="62288099" version="4" timestamp="2015-04-22T03:04:24Z" changeset="30394320" uid="2814778" user="VinceBot">
    <nd ref="778228033"/>
    <nd ref="778228146"/>
    <nd ref="778228002"/>
    <nd ref="778229471"/>
    <nd ref="778228311"/>
    <nd ref="778228033"/>
    <tag k="building" v="temple"/>
    <tag k="building:levels" v="1"/>
    <tag k="historic" v="monument"/>
    <tag k="name" v="Temple de l'Amitié"/>
    <tag k="source" v="cadastre-dgi-fr source : Direction Générale des Impôts - Cadastre. Mise à jour : 2010"/>
  </way>
  <way id="62289714" version="18" timestamp="2024-10-12T03:09:53Z" changeset="157777982" uid="2678738" user="fgouget">
    <nd ref="364627449"/>
    <nd ref="2734064439"/>
    <nd ref="2876905482"/>
    <nd ref="24958714"/>
    <nd ref="5961993658"/>
    <nd ref="5961993656"/>
    <nd ref="24958711"/>
    <tag k="busway:left" v="lane"/>
    <tag k="cycleway:left" v="share_busway"/>
    <tag k="highway" v="secondary"/>
    <tag k="lanes" v="3"/>
    <tag k="lanes:backward" v="2"/>
    <tag k="lanes:forward" v="1"/>
    <tag k="lit" v="yes"/>
    <tag k="maxspeed" v="30"/>
    <tag k="name" v="Rue de Rennes"/>
    <tag k="name:br" v="Straed Roazhon"/>
    <tag k="name:etymology:wikidata" v="Q647"/>
    <tag k="sidewalk:both" v="separate"/>
    <tag k="smoothness" v="excellent"/>
    <tag k="source:maxspeed" v="FR:urban"/>
    <tag k="surface" v="asphalt"/>
  </way>
  <way id="62289716" version="14" timestamp="2024-04-01T14:34:38Z" changeset="149436432" uid="6290466" user="benjamintchik">
    <nd ref="25253777"/>
    <nd ref="6796721981"/>
    <nd ref="2734064453"/>
    <nd ref="25253723"/>
    <tag k="cycleway" v="opposite"/>
    <tag k="highway" v="residential"/>
    <tag k="maxspeed" v="30"/>
    <tag k="name" v="Rue Saint-Benoît"/>
    <tag k="name:etymology:wikidata" v="Q44265"/>
    <tag k="oneway" v="yes"/>
    <tag k="oneway:bicycle" v="no"/>
    <tag k="sidewalk:both" v="separate"/>
    <tag k="sidewalk:both:surface" v="asphalt"/>
    <tag k="smoothness" v="excellent"/>
    <tag k="source:maxspeed" v="BMO arrêté n°2014P0193"/>
    <tag k="surface" v="asphalt"/>
    <tag k="zone:maxspeed" v="FR:30"/>
  </way>
  <way id="62296353" version="4" timestamp="2024-07-19T22:49:05Z" changeset="154161432" uid="10731965" user="Hydrel">
    <nd ref="12063917621"/>
    <nd ref="778289204"/>
    <nd ref="778287960"/>
    <nd ref="806897795"/>
    <nd ref="778287735"/>
    <nd ref="778287985"/>
    <nd ref="778289296"/>
    <nd ref="778289179"/>
    <nd ref="12063917621"/>
    <tag k="building" v="yes"/>
    <tag k="name" v="Société de Géographie"/>
    <tag k="source" v="cadastre-dgi-fr source : Direction Générale des Impôts - Cadastre. Mise à jour : 2010"/>
  </way>
  <way id="62296389" version="13" timestamp="2024-09-04T20:03:33Z" changeset="156202966" uid="7550430" user="Britzz">
    <nd ref="778288878"/>
    <nd ref="778289197"/>
    <nd ref="778288993"/>
    <nd ref="778288402"/>
    <nd ref="778288957"/>
    <nd ref="778287630"/>
    <nd ref="778288470"/>
    <nd ref="778287770"/>
    <nd ref="778289131"/>
    <nd ref="778287863"/>
    <nd ref="778289207"/>
    <nd ref="778289102"/>
    <nd ref="778288419"/>
    <nd ref="778289332"/>
    <nd ref="805954691"/>
    <nd ref="778288842"/>
    <nd ref="778288660"/>
    <nd ref="778287995"/>
    <nd ref="778288240"/>
    <nd ref="778287627"/>
    <nd ref="778288987"/>
    <nd ref="778287565"/>
    <nd ref="778288917"/>
    <nd ref="778287830"/>
    <nd ref="12156227431"/>
    <nd ref="12156227432"/>
    <nd ref="778289171"/>
    <nd ref="778289053"/>
    <nd ref="778288365"/>
    <nd ref="12156274563"/>
    <nd ref="12156227450"/>
    <nd ref="12156274564"/>
    <nd ref="12156227451"/>
    <nd ref="778289155"/>
    <nd ref="778288551"/>
    <nd ref="778288326"/>
    <nd ref="778287808"/>
    <nd ref="778288762"/>
    <nd ref="778288043"/>
    <nd ref="778287932"/>
    <nd ref="778289272"/>
    <nd ref="778288021"/>
    <nd ref="778287520"/>
    <nd ref="778289247"/>
    <nd ref="778288724"/>
    <nd ref="12063917622"/>
    <nd ref="778287975"/>
    <nd ref="778287718"/>
    <nd ref="778288387"/>
    <nd ref="778288878"/>
    <tag k="amenity" v="place_of_worship"/>
    <tag k="building" v="cathedral"/>
    <tag k="building:levels" v="4"/>
    <tag k="denomination" v="greek_catholic"/>
    <tag k="heritage" v="3"/>
    <tag k="heritage:operator" v="mhs"/>
    <tag k="mhs:inscription_date" v="1926-03-16"/>
    <tag k="name" v="Cathédrale Ukrainienne Saint-Vladimir-le-Grand"/>
    <tag k="name:uk" v="Собор святого Володимира Великого"/>
    <tag k="opening_hours" v="Sep-Jun: Tu,We,Fr 10:00-12:00, Sep-Jun: Su 08:00-20:15, Mo-We,Fr 15:00-19:30, Th 17:30-19:30, Sa 09:00-19:30, Su 08:00-18:30"/>
    <tag k="ref:mhs" v="PA00088490"/>
    <tag k="religion" v="christian"/>
    <tag k="service_times" v="Mo-Sa 18:00, Sa 09:00, Sa-Su 17:00, Su 08:00,10:00,12:00, Sep-Jun: Su 19:00"/>
    <tag k="source" v="Cadastre. Mise à jour : 2010;survey"/>
    <tag k="wheelchair" v="no"/>
    <tag k="wikidata" v="Q2942460"/>
    <tag k="wikipedia" v="fr:Cathédrale Saint-Vladimir-le-Grand"/>
  </way>
  <way id="62296409" version="6" timestamp="2015-04-22T02:56:47Z" changeset="30394295" uid="2814778" user="VinceBot">
    <nd ref="778289021"/>
    <nd ref="778287924"/>
    <nd ref="778287848"/>
    <nd ref="778288945"/>
    <nd ref="2916167633"/>
    <nd ref="2916167632"/>
    <nd ref="778288307"/>
    <nd ref="806898303"/>
    <nd ref="778289021"/>
    <tag k="amenity" v="cafe"/>
    <tag k="building" v="yes"/>
    <tag k="building:levels" v="8"/>
    <tag k="name" v="Le Montana"/>
    <tag k="source" v="cadastre-dgi-fr source : Direction Générale des Impôts - Cadastre. Mise à jour : 2010"/>
  </way>
  <way id="62296411" version="7" timestamp="2023-11-21T05:39:22Z" changeset="144271736" uid="11291363" user="u4Dy46Xe">
    <nd ref="778288175"/>
    <nd ref="778287721"/>
    <nd ref="778289309"/>
    <nd ref="778287846"/>
    <nd ref="778289189"/>
    <nd ref="778289219"/>
    <nd ref="778287876"/>
    <nd ref="778288976"/>
    <nd ref="778287608"/>
    <nd ref="806897664"/>
    <nd ref="778287821"/>
    <nd ref="806898337"/>
    <nd ref="778289163"/>
    <nd ref="778287927"/>
    <nd ref="806897641"/>
    <nd ref="778287948"/>
    <nd ref="778288586"/>
    <nd ref="778288175"/>
    <tag k="addr:city" v="Paris"/>
    <tag k="addr:housenumber" v="4"/>
    <tag k="addr:postcode" v="75006"/>
    <tag k="addr:street" v="Place Saint-Germain des Prés"/>
    <tag k="building" v="apartments"/>
    <tag k="building:levels" v="5"/>
    <tag k="name" v="Hôtel de l'Industrie"/>
    <tag k="source" v="cadastre-dgi-fr source : Direction Générale des Impôts - Cadastre. Mise à jour : 2010"/>
    <tag k="website" v="http://www.industrienationale.fr/lhôtel-de-lindustrie"/>
  </way>
  <way id="62298446" version="4" timestamp="2021-06-07T10:40:58Z" changeset="105965038" uid="10246445" user="871694e9-20e8-4037-b035-e4c8607650cf">
    <nd ref="778304939"/>
    <nd ref="778304389"/>
    <nd ref="778305184"/>
    <nd ref="778304677"/>
    <nd ref="778305978"/>
    <nd ref="778305567"/>
    <nd ref="778304647"/>
    <nd ref="778304939"/>
    <tag k="addr:housenumber" v="14"/>
    <tag k="addr:street" v="Rue Bonaparte"/>
    <tag k="building" v="university"/>
    <tag k="source" v="cadastre-dgi-fr source : Direction Générale des Impôts - Cadastre. Mise à jour : 2010"/>
  </way>
  <way id="62299605" version="4" timestamp="2024-07-29T17:13:56Z" changeset="154572908" uid="1598001" user="OsmIdf">
    <nd ref="778319802"/>
    <nd ref="778318769"/>
    <nd ref="778317190"/>
    <nd ref="778320322"/>
    <nd ref="778319802"/>
    <tag k="artist:wikidata" v="Q360376"/>
    <tag k="artist:wikipedia" v="fr:Jean Gautherin"/>
    <tag k="artist_name" v="Jean Gautherin"/>
    <tag k="artwork_type" v="statue"/>
    <tag k="building" v="yes"/>
    <tag k="name" v="Diderot"/>
    <tag k="source" v="cadastre-dgi-fr source : Direction Générale des Impôts - Cadastre. Mise à jour : 2010"/>
    <tag k="start_date" v="1885"/>
    <tag k="subject:wikidata" v="Q448"/>
    <tag k="tourism" v="artwork"/>
  </way>
  <way id="62299646" version="13" timestamp="2024-04-16T01:36:04Z" changeset="150062528" uid="2678738" user="fgouget">
    <nd ref="24958726"/>
    <nd ref="24958728"/>
    <nd ref="778318082"/>
    <nd ref="6404123034"/>
    <nd ref="24958041"/>
    <tag k="cycleway:left" v="opposite"/>
    <tag k="cycleway:right" v="no"/>
    <tag k="highway" v="residential"/>
    <tag k="lit" v="yes"/>
    <tag k="maxspeed" v="30"/>
    <tag k="name" v="Boulevard Saint-Germain"/>
    <tag k="name:etymology:wikidata" v="Q255910"/>
    <tag k="oneway" v="yes"/>
    <tag k="oneway:bicycle" v="no"/>
    <tag k="sidewalk:left" v="yes"/>
    <tag k="sidewalk:right" v="separate"/>
    <tag k="surface" v="asphalt"/>
  </way>
  <way id="62305621" version="7" timestamp="2022-11-03T22:27:03Z" changeset="128458010" uid="7550430" user="Britzz">
    <nd ref="778379558"/>
    <nd ref="778379290"/>
    <nd ref="778380233"/>
    <nd ref="778379835"/>
    <nd ref="778380346"/>
    <nd ref="778380077"/>
    <nd ref="778379033"/>
    <nd ref="778380614"/>
    <nd ref="778378988"/>
    <nd ref="778379537"/>
    <nd ref="778380405"/>
    <nd ref="778380801"/>
    <nd ref="778379184"/>
    <nd ref="805954468"/>
    <nd ref="778379558"/>
    <tag k="building" v="hotel"/>
    <tag k="building:levels" v="5"/>
    <tag k="name" v="Hôtel du Pas-de-Calais"/>
    <tag k="phone" v="+33 1 45 48 78 74"/>
    <tag k="source" v="cadastre-dgi-fr source : Direction Générale des Impôts - Cadastre. Mise à jour : 2010"/>
    <tag k="stars" v="4"/>
    <tag k="tourism" v="hotel"/>
    <tag k="website" v="https://www.hotelpasdecalais.com"/>
  </way>
  <way id="62316777" version="10" timestamp="2025-03-19T10:03:47Z" changeset="163809496" uid="7512839" user="Benoît C MdP">
    <nd ref="778523467"/>
    <nd ref="33899860"/>
    <nd ref="24958030"/>
    <nd ref="778523467"/>
    <tag k="area" v="yes"/>
    <tag k="highway" v="residential"/>
    <tag k="maxspeed" v="30"/>
    <tag k="name" v="Place d'Acadie"/>
    <tag k="ref:FR:FANTOIR" v="751060091L"/>
    <tag k="smoothness" v="excellent"/>
    <tag k="surface" v="asphalt"/>
    <tag k="wikidata" v="Q3390190"/>
  </way>
  <way id="66486068" version="46" timestamp="2025-03-31T19:43:29Z" changeset="164346350" uid="10731965" user="Hydrel">
    <nd ref="25186813"/>
    <nd ref="12046529095"/>
    <nd ref="12046529093"/>
    <nd ref="11022117215"/>
    <nd ref="12046529092"/>
    <nd ref="11022117217"/>
    <nd ref="2734064505"/>
    <nd ref="25191080"/>
    <nd ref="2734064507"/>
    <nd ref="12716977068"/>
    <nd ref="12716977073"/>
    <nd ref="12716977066"/>
    <nd ref="11981132089"/>
    <nd ref="11022195841"/>
    <nd ref="25190293"/>
    <tag k="bicycle" v="yes"/>
    <tag k="cycleway" v="opposite"/>
    <tag k="highway" v="residential"/>
    <tag k="lanes" v="1"/>
    <tag k="lit" v="yes"/>
    <tag k="maxspeed" v="30"/>
    <tag k="name" v="Rue Jacob"/>
    <tag k="name:etymology:wikidata" v="Q289957"/>
    <tag k="name:ru" v="улица Жакоб"/>
    <tag k="oneway" v="yes"/>
    <tag k="oneway:bicycle" v="no"/>
    <tag k="sidewalk:both" v="separate"/>
    <tag k="source:maxspeed" v="BMO arrêté n°2014P0193"/>
    <tag k="surface" v="asphalt"/>
    <tag k="wikidata" v="Q3448385"/>
    <tag k="wikipedia" v="fr:Rue Jacob"/>
    <tag k="zone:maxspeed" v="FR:30"/>
  </way>
  <way id="72224017" version="13" timestamp="2024-10-12T22:18:07Z" changeset="157814716" uid="19623620" user="Melrok">
    <nd ref="25187832"/>
    <nd ref="11021951442"/>
    <nd ref="6178786871"/>
    <nd ref="24958034"/>
    <tag k="bicycle" v="yes"/>
    <tag k="cycleway:both" v="no"/>
    <tag k="highway" v="residential"/>
    <tag k="maxspeed" v="30"/>
    <tag k="name" v="Rue de l'Échaudé"/>
    <tag k="name:etymology:wikidata" v="Q3577420"/>
    <tag k="oneway" v="yes"/>
    <tag k="oneway:bicycle" v="no"/>
    <tag k="source:maxspeed" v="BMO arrêté n°2014P0193"/>
    <tag k="surface" v="asphalt"/>
    <tag k="zone:maxspeed" v="FR:30"/>
  </way>
  <way id="72224018" version="34" timestamp="2024-04-01T14:34:38Z" changeset="149436432" uid="6290466" user="benjamintchik">
    <nd ref="25191080"/>
    <nd ref="2734064503"/>
    <nd ref="8121170423"/>
    <nd ref="231418193"/>
    <nd ref="664203762"/>
    <nd ref="2734064482"/>
    <nd ref="25253777"/>
    <tag k="cycleway" v="opposite"/>
    <tag k="highway" v="residential"/>
    <tag k="maxspeed" v="30"/>
    <tag k="name" v="Rue Saint-Benoît"/>
    <tag k="name:etymology:wikidata" v="Q44265"/>
    <tag k="name:ru" v="улица Сэн-Бенуа"/>
    <tag k="oneway" v="yes"/>
    <tag k="oneway:bicycle" v="no"/>
    <tag k="sidewalk:both" v="separate"/>
    <tag k="source:maxspeed" v="BMO arrêté n°2014P0193"/>
    <tag k="surface" v="asphalt"/>
    <tag k="zone:maxspeed" v="FR:30"/>
  </way>
  <way id="83261039" version="42" timestamp="2024-10-27T19:50:42Z" changeset="158428384" uid="53964" user="_Mathieu_">
    <nd ref="21305937"/>
    <nd ref="968748889"/>
    <nd ref="6281458806"/>
    <nd ref="25191241"/>
    <tag k="bicycle:backward" v="use_sidepath"/>
    <tag k="cycleway:left" v="no"/>
    <tag k="cycleway:right" v="separate"/>
    <tag k="enforcement:operator" v="Police nationale"/>
    <tag k="highway" v="primary"/>
    <tag k="lit" v="yes"/>
    <tag k="maxspeed" v="30"/>
    <tag k="name" v="Quai Voltaire"/>
    <tag k="name:etymology:wikidata" v="Q9068"/>
    <tag k="name:ru" v="набережная Вольтер"/>
    <tag k="oneway" v="yes"/>
    <tag k="operator" v="Ville de Paris"/>
    <tag k="operator:authority" v="Maire de Paris dans le respect des prescriptions prises par le préfet de police"/>
    <tag k="operator:authority:related_law" v="III de l'article L. 2512-14 du code général des collectivités territoriales"/>
    <tag k="sidewalk:left" v="separate"/>
    <tag k="source:maxspeed" v="FR:urban"/>
    <tag k="source:operator:authority" v="https://www.legifrance.gouv.fr/loda/id/LEGIARTI000035244298/#LEGIARTI000035244298"/>
    <tag k="surface" v="asphalt"/>
    <tag k="zone:traffic" v="FR:urban"/>
  </way>
  <way id="83261048" version="47" timestamp="2024-10-29T14:24:38Z" changeset="158500951" uid="17310249" user="VLD275">
    <nd ref="470145"/>
    <nd ref="664115751"/>
    <nd ref="4508688482"/>
    <nd ref="6768938074"/>
    <nd ref="12296953023"/>
    <nd ref="2734064525"/>
    <nd ref="470146"/>
    <tag k="bicycle:backward" v="use_sidepath"/>
    <tag k="busway:right" v="lane"/>
    <tag k="cycleway:left" v="no"/>
    <tag k="cycleway:right" v="share_busway"/>
    <tag k="enforcement:operator" v="Police nationale"/>
    <tag k="highway" v="primary"/>
    <tag k="lanes" v="4"/>
    <tag k="lit" v="yes"/>
    <tag k="maxspeed" v="30"/>
    <tag k="name" v="Quai Malaquais"/>
    <tag k="name:etymology" v="unknown"/>
    <tag k="name:ru" v="набережная Малаке"/>
    <tag k="oneway" v="yes"/>
    <tag k="operator" v="Ville de Paris"/>
    <tag k="operator:authority" v="Maire de Paris dans le respect des prescriptions prises par le préfet de police"/>
    <tag k="operator:authority:related_law" v="III de l'article L. 2512-14 du code général des collectivités territoriales"/>
    <tag k="sidewalk:left" v="separate"/>
    <tag k="sidewalk:right" v="yes"/>
    <tag k="source:maxspeed" v="FR:urban"/>
    <tag k="source:operator:authority" v="https://www.legifrance.gouv.fr/loda/id/LEGIARTI000035244298/#LEGIARTI000035244298"/>
    <tag k="surface" v="asphalt"/>
    <tag k="zone:traffic" v="FR:urban"/>
  </way>
  <way id="83590777" version="14" timestamp="2024-10-12T03:10:25Z" changeset="157777982" uid="2678738" user="fgouget">
    <nd ref="786142279"/>
    <nd ref="127877668"/>
    <tag k="highway" v="tertiary"/>
    <tag k="lanes" v="1"/>
    <tag k="lit" v="yes"/>
    <tag k="maxspeed" v="30"/>
    <tag k="name" v="Place Michel Debré"/>
    <tag k="oneway" v="yes"/>
    <tag k="oneway:bicycle" v="no"/>
    <tag k="sidewalk:right" v="separate"/>
    <tag k="surface" v="asphalt"/>
    <tag k="wikidata" v="Q3389993"/>
  </way>
  <way id="204056318" version="19" timestamp="2024-06-06T01:05:31Z" changeset="152308811" uid="2678738" user="fgouget">
    <nd ref="25253723"/>
    <nd ref="6291704531"/>
    <nd ref="2734064444"/>
    <nd ref="367504"/>
    <tag k="bus:lanes" v="yes|yes|yes|yes|designated"/>
    <tag k="busway:right" v="lane"/>
    <tag k="cycleway:right" v="share_busway"/>
    <tag k="highway" v="primary"/>
    <tag k="lanes" v="5"/>
    <tag k="lit" v="yes"/>
    <tag k="maxspeed" v="30"/>
    <tag k="name" v="Place Jean-Paul Sartre et Simone de Beauvoir"/>
    <tag k="note" v="Le nom sur la plaque est &quot;Place Sartre - Beauvoir&quot;"/>
    <tag k="oneway" v="yes"/>
    <tag k="psv:lanes" v="yes|yes|yes|yes|designated"/>
    <tag k="ref:FR:FANTOIR" v="751064949S"/>
    <tag k="sidewalk:left" v="separate"/>
    <tag k="sidewalk:right" v="yes"/>
    <tag k="smoothness" v="excellent"/>
    <tag k="source" v="cadastre-dgi-fr source : Direction Générale des Impôts - Cadastre. Mise à jour : 2010"/>
    <tag k="surface" v="asphalt"/>
    <tag k="taxi:lanes" v="yes|yes|yes|yes|designated"/>
  </way>
  <way id="204056323" version="37" timestamp="2024-07-12T01:00:51Z" changeset="153833844" uid="10731965" user="Hydrel">
    <nd ref="470149"/>
    <nd ref="12048207626"/>
    <nd ref="778242900"/>
    <nd ref="6407107802"/>
    <nd ref="25253722"/>
    <nd ref="778242906"/>
    <nd ref="25253723"/>
    <tag k="cycleway:right" v="no"/>
    <tag k="highway" v="primary"/>
    <tag k="lanes" v="3"/>
    <tag k="lit" v="yes"/>
    <tag k="maxspeed" v="30"/>
    <tag k="name" v="Boulevard Saint-Germain"/>
    <tag k="name:etymology:wikidata" v="Q255910"/>
    <tag k="name:ru" v="бульвар Сен-Жермен"/>
    <tag k="oneway" v="yes"/>
    <tag k="sidewalk:left" v="separate"/>
    <tag k="sidewalk:right" v="no"/>
    <tag k="source" v="cadastre-dgi-fr source : Direction Générale des Impôts - Cadastre. Mise à jour : 2010"/>
    <tag k="surface" v="asphalt"/>
  </way>
  <way id="204056326" version="42" timestamp="2024-10-12T22:27:59Z" changeset="157814716" uid="19623620" user="Melrok">
    <nd ref="367504"/>
    <nd ref="2734064442"/>
    <nd ref="5005356201"/>
    <nd ref="24958048"/>
    <nd ref="4865355941"/>
    <nd ref="24958041"/>
    <tag k="bus:lanes" v="yes|yes|yes|designated"/>
    <tag k="busway:right" v="lane"/>
    <tag k="cycleway:left" v="no"/>
    <tag k="cycleway:right" v="share_busway"/>
    <tag k="highway" v="primary"/>
    <tag k="lanes" v="4"/>
    <tag k="lit" v="yes"/>
    <tag k="maxspeed" v="30"/>
    <tag k="name" v="Boulevard Saint-Germain"/>
    <tag k="name:etymology:wikidata" v="Q255910"/>
    <tag k="name:ru" v="бульвар Сен-Жермен"/>
    <tag k="oneway" v="yes"/>
    <tag k="psv:lanes" v="yes|yes|yes|designated"/>
    <tag k="sidewalk" v="both"/>
    <tag k="source" v="cadastre-dgi-fr source : Direction Générale des Impôts - Cadastre. Mise à jour : 2010"/>
    <tag k="surface" v="asphalt"/>
    <tag k="taxi:lanes" v="yes|yes|yes|designated"/>
  </way>
  <way id="205547140" version="43" timestamp="2025-01-21T16:26:52Z" changeset="161606972" uid="7512839" user="Benoît C MdP">
    <nd ref="25188960"/>
    <nd ref="2155057132"/>
    <nd ref="5881319925"/>
    <nd ref="2734064521"/>
    <nd ref="470145"/>
    <tag k="bicycle:backward" v="use_sidepath"/>
    <tag k="busway:right" v="lane"/>
    <tag k="cycleway:left" v="separate"/>
    <tag k="cycleway:right" v="share_busway"/>
    <tag k="enforcement:operator" v="Police nationale"/>
    <tag k="highway" v="primary"/>
    <tag k="lanes" v="3"/>
    <tag k="lit" v="yes"/>
    <tag k="maxspeed" v="30"/>
    <tag k="name" v="Quai Malaquais"/>
    <tag k="name:etymology" v="unknown"/>
    <tag k="name:ru" v="набережная Малаке"/>
    <tag k="oneway" v="yes"/>
    <tag k="operator" v="Ville de Paris"/>
    <tag k="operator:authority" v="Maire de Paris dans le respect des prescriptions prises par le préfet de police"/>
    <tag k="operator:authority:related_law" v="III de l'article L. 2512-14 du code général des collectivités territoriales"/>
    <tag k="smoothness" v="good"/>
    <tag k="source:maxspeed" v="FR:urban"/>
    <tag k="source:operator:authority" v="https://www.legifrance.gouv.fr/loda/id/LEGIARTI000035244298/#LEGIARTI000035244298"/>
    <tag k="surface" v="asphalt"/>
    <tag k="zone:traffic" v="FR:urban"/>
  </way>
  <way id="306426265" version="13" timestamp="2025-03-19T10:03:47Z" changeset="163809496" uid="7512839" user="Benoît C MdP">
    <nd ref="24958030"/>
    <nd ref="33899860"/>
    <nd ref="6147317942"/>
    <nd ref="2496113391"/>
    <nd ref="6358746334"/>
    <tag k="cycleway:both" v="no"/>
    <tag k="highway" v="residential"/>
    <tag k="maxspeed" v="30"/>
    <tag k="name" v="Rue de Montfaucon"/>
    <tag k="oneway" v="yes"/>
    <tag k="oneway:bicycle" v="no"/>
    <tag k="sidewalk:both" v="separate"/>
    <tag k="smoothness" v="excellent"/>
    <tag k="source:maxspeed" v="opendata.paris.fr"/>
    <tag k="surface" v="asphalt"/>
    <tag k="zone:maxspeed" v="FR:30"/>
  </way>
  <way id="495635813" version="5" timestamp="2024-07-02T22:45:11Z" changeset="153478940" uid="10731965" user="Hydrel">
    <nd ref="4873724151"/>
    <nd ref="806897810"/>
    <nd ref="806897986"/>
    <nd ref="778219494"/>
    <nd ref="778219878"/>
    <nd ref="778219562"/>
    <nd ref="778219476"/>
    <nd ref="778220279"/>
    <nd ref="778219659"/>
    <nd ref="778219310"/>
    <nd ref="778219971"/>
    <nd ref="12030036638"/>
    <nd ref="778219816"/>
    <nd ref="778219408"/>
    <nd ref="778219893"/>
    <nd ref="778219490"/>
    <nd ref="778220017"/>
    <nd ref="4873724150"/>
    <nd ref="4873724149"/>
    <nd ref="4873724148"/>
    <nd ref="4873724151"/>
    <tag k="building" v="yes"/>
    <tag k="building:levels" v="3"/>
    <tag k="denomination" v="catholic"/>
    <tag k="name" v="Presbytère"/>
    <tag k="office" v="religion"/>
    <tag k="religion" v="christian"/>
    <tag k="source" v="cadastre-dgi-fr source : Direction Générale des Impôts - Cadastre. Mise à jour : 2010"/>
  </way>
  <way id="495635817" version="3" timestamp="2018-06-16T17:42:05Z" changeset="59899066" uid="57126" user="yxoc">
    <nd ref="4873724150"/>
    <nd ref="5695218704"/>
    <nd ref="778220040"/>
    <nd ref="4873724152"/>
    <nd ref="4873724149"/>
    <nd ref="4873724150"/>
    <tag k="amenity" v="place_of_worship"/>
    <tag k="building" v="church"/>
    <tag k="building:levels" v="1"/>
    <tag k="denomination" v="catholic"/>
    <tag k="heritage" v="2"/>
    <tag k="heritage:operator" v="mhs"/>
    <tag k="mhs:inscription_date" v="1862"/>
    <tag k="name" v="Chapelle Saint-Symphorien"/>
    <tag k="ref:FR:CEF" v="75106_03"/>
    <tag k="ref:mhs" v="PA00088509"/>
    <tag k="religion" v="christian"/>
    <tag k="source" v="cadastre-dgi-fr source : Direction Générale des Impôts - Cadastre. Mise à jour : 2010"/>
    <tag k="source:heritage" v="data.gouv.fr:Ministère de la Culture - 04/2015"/>
    <tag k="wikidata" v="Q22924488"/>
  </way>
  <way id="541411378" version="40" timestamp="2025-03-19T10:03:47Z" changeset="163809496" uid="7512839" user="Benoît C MdP">
    <nd ref="24958041"/>
    <nd ref="24958038"/>
    <nd ref="24958034"/>
    <nd ref="2734064436"/>
    <nd ref="24958030"/>
    <tag k="bus:lanes" v="yes|yes|yes|designated"/>
    <tag k="busway:right" v="lane"/>
    <tag k="cycleway:left" v="no"/>
    <tag k="cycleway:right" v="share_busway"/>
    <tag k="highway" v="primary"/>
    <tag k="lanes" v="4"/>
    <tag k="lit" v="yes"/>
    <tag k="maxspeed" v="30"/>
    <tag k="name" v="Boulevard Saint-Germain"/>
    <tag k="name:etymology:wikidata" v="Q255910"/>
    <tag k="name:ru" v="бульвар Сен-Жермен"/>
    <tag k="oneway" v="yes"/>
    <tag k="psv:lanes" v="yes|yes|yes|designated"/>
    <tag k="sidewalk" v="both"/>
    <tag k="smoothness" v="good"/>
    <tag k="source" v="cadastre-dgi-fr source : Direction Générale des Impôts - Cadastre. Mise à jour : 2010"/>
    <tag k="surface" v="asphalt"/>
    <tag k="taxi:lanes" v="yes|yes|yes|designated"/>
  </way>
  <way id="556453393" version="5" timestamp="2024-04-01T14:36:43Z" changeset="149436432" uid="6290466" user="benjamintchik">
    <nd ref="25187841"/>
    <nd ref="11409627317"/>
    <nd ref="11409627312"/>
    <nd ref="25187856"/>
    <nd ref="11409627316"/>
    <nd ref="25187851"/>
    <nd ref="11409627315"/>
    <nd ref="25187844"/>
    <tag k="alt_name" v="Rue de Furstenberg"/>
    <tag k="bicycle" v="yes"/>
    <tag k="highway" v="residential"/>
    <tag k="maxspeed" v="30"/>
    <tag k="name" v="Rue de Furstemberg"/>
    <tag k="name:etymology:wikidata" v="Q70876"/>
    <tag k="note" v="not a roundabout ! pas un rond-point !"/>
    <tag k="oneway" v="yes"/>
    <tag k="sidewalk:left" v="separate"/>
    <tag k="sidewalk:right" v="no"/>
    <tag k="source:maxspeed" v="BMO arrêté n°2014P0193"/>
    <tag k="surface" v="asphalt"/>
    <tag k="zone:maxspeed" v="FR:30"/>
  </way>
  <way id="558558725" version="7" timestamp="2024-08-15T17:22:30Z" changeset="155293930" uid="11963177" user="JeroenvanderGun">
    <nd ref="25189867"/>
    <nd ref="2734064519"/>
    <nd ref="5881319924"/>
    <nd ref="227228433"/>
    <tag k="enforcement:operator" v="Police nationale"/>
    <tag k="highway" v="residential"/>
    <tag k="lit" v="yes"/>
    <tag k="maxspeed" v="30"/>
    <tag k="name" v="Quai Malaquais"/>
    <tag k="name:etymology" v="unknown"/>
    <tag k="oneway" v="yes"/>
    <tag k="operator" v="Ville de Paris"/>
    <tag k="operator:authority" v="Maire de Paris dans le respect des prescriptions prises par le préfet de police"/>
    <tag k="operator:authority:related_law" v="III de l'article L. 2512-14 du code général des collectivités territoriales"/>
    <tag k="sidewalk:right" v="separate"/>
    <tag k="source:maxspeed" v="opendata.paris.fr"/>
    <tag k="source:operator:authority" v="https://www.legifrance.gouv.fr/loda/id/LEGIARTI000035244298/#LEGIARTI000035244298"/>
    <tag k="surface" v="asphalt"/>
    <tag k="zone:traffic" v="FR:urban"/>
  </way>
  <way id="622691733" version="13" timestamp="2024-08-15T17:22:30Z" changeset="155293930" uid="11963177" user="JeroenvanderGun">
    <nd ref="5881319925"/>
    <nd ref="6281445582"/>
    <nd ref="5881319924"/>
    <tag k="enforcement:operator" v="Police nationale"/>
    <tag k="highway" v="residential"/>
    <tag k="lit" v="yes"/>
    <tag k="maxspeed" v="30"/>
    <tag k="name" v="Quai Malaquais"/>
    <tag k="name:etymology" v="unknown"/>
    <tag k="oneway" v="yes"/>
    <tag k="operator" v="Ville de Paris"/>
    <tag k="operator:authority" v="Maire de Paris dans le respect des prescriptions prises par le préfet de police"/>
    <tag k="operator:authority:related_law" v="III de l'article L. 2512-14 du code général des collectivités territoriales"/>
    <tag k="smoothness" v="intermediate"/>
    <tag k="source:operator:authority" v="https://www.legifrance.gouv.fr/loda/id/LEGIARTI000035244298/#LEGIARTI000035244298"/>
    <tag k="surface" v="sett"/>
    <tag k="zone:traffic" v="FR:urban"/>
  </way>
  <way id="682020603" version="15" timestamp="2024-06-06T01:04:54Z" changeset="152308811" uid="2678738" user="fgouget">
    <nd ref="24958711"/>
    <nd ref="6222822698"/>
    <nd ref="5961993657"/>
    <nd ref="6291704565"/>
    <nd ref="2420685486"/>
    <nd ref="1481263033"/>
    <tag k="cycleway:left" v="lane"/>
    <tag k="cycleway:left:lane" v="exclusive"/>
    <tag k="cycleway:left:oneway" v="-1"/>
    <tag k="cycleway:right" v="lane"/>
    <tag k="cycleway:right:lane" v="exclusive"/>
    <tag k="highway" v="tertiary"/>
    <tag k="lanes" v="1"/>
    <tag k="lit" v="yes"/>
    <tag k="maxspeed" v="30"/>
    <tag k="name" v="Rue du Four"/>
    <tag k="oneway" v="yes"/>
    <tag k="oneway:bicycle" v="no"/>
    <tag k="sidewalk:both" v="separate"/>
    <tag k="sidewalk:both:surface" v="asphalt"/>
    <tag k="smoothness" v="good"/>
    <tag k="source:maxspeed" v="FR:urban"/>
    <tag k="surface" v="asphalt"/>
  </way>
  <way id="701119872" version="35" timestamp="2024-10-27T19:50:28Z" changeset="158428384" uid="53964" user="_Mathieu_">
    <nd ref="470146"/>
    <nd ref="6645921750"/>
    <nd ref="21305937"/>
    <tag k="bicycle:backward" v="use_sidepath"/>
    <tag k="busway:right" v="lane"/>
    <tag k="cycleway:left" v="no"/>
    <tag k="cycleway:right" v="separate"/>
    <tag k="enforcement:operator" v="Police nationale"/>
    <tag k="highway" v="primary"/>
    <tag k="lit" v="yes"/>
    <tag k="maxspeed" v="30"/>
    <tag k="name" v="Quai Voltaire"/>
    <tag k="name:etymology:wikidata" v="Q9068"/>
    <tag k="name:ru" v="набережная Вольтер"/>
    <tag k="oneway" v="yes"/>
    <tag k="operator" v="Ville de Paris"/>
    <tag k="operator:authority" v="Maire de Paris dans le respect des prescriptions prises par le préfet de police"/>
    <tag k="operator:authority:related_law" v="III de l'article L. 2512-14 du code général des collectivités territoriales"/>
    <tag k="sidewalk:left" v="separate"/>
    <tag k="sidewalk:right" v="yes"/>
    <tag k="source:maxspeed" v="FR:urban"/>
    <tag k="source:operator:authority" v="https://www.legifrance.gouv.fr/loda/id/LEGIARTI000035244298/#LEGIARTI000035244298"/>
    <tag k="surface" v="asphalt"/>
    <tag k="wikidata" v="Q3090472"/>
    <tag k="zone:traffic" v="FR:urban"/>
  </way>
  <way id="849542808" version="11" timestamp="2025-03-19T10:03:47Z" changeset="163809496" uid="7512839" user="Benoît C MdP">
    <nd ref="24958740"/>
    <nd ref="6147317941"/>
    <nd ref="6291704542"/>
    <nd ref="5513296046"/>
    <nd ref="778523467"/>
    <nd ref="24958030"/>
    <tag k="cycleway:left" v="separate"/>
    <tag k="cycleway:right" v="lane"/>
    <tag k="cycleway:right:lane" v="exclusive"/>
    <tag k="highway" v="tertiary"/>
    <tag k="lane_markings" v="no"/>
    <tag k="lit" v="yes"/>
    <tag k="maxspeed" v="30"/>
    <tag k="name" v="Rue du Four"/>
    <tag k="oneway" v="yes"/>
    <tag k="sidewalk:both" v="separate"/>
    <tag k="smoothness" v="excellent"/>
    <tag k="source:maxspeed" v="FR:urban"/>
    <tag k="surface" v="asphalt"/>
  </way>
  <way id="1144849650" version="3" timestamp="2024-04-16T01:34:54Z" changeset="150062528" uid="2678738" user="fgouget">
    <nd ref="364627452"/>
    <nd ref="778242817"/>
    <nd ref="6404127209"/>
    <nd ref="364627449"/>
    <tag k="cycleway:right" v="no"/>
    <tag k="highway" v="secondary"/>
    <tag k="lane_markings" v="no"/>
    <tag k="lit" v="yes"/>
    <tag k="maxspeed" v="30"/>
    <tag k="name" v="Place du Québec"/>
    <tag k="oneway" v="yes"/>
    <tag k="sidewalk:left" v="no"/>
    <tag k="sidewalk:right" v="separate"/>
    <tag k="smoothness" v="excellent"/>
    <tag k="source" v="cadastre-dgi-fr source : Direction Générale des Impôts - Cadastre. Mise à jour : 2010"/>
    <tag k="source:maxspeed" v="FR:urban"/>
    <tag k="surface" v="asphalt"/>
  </way>
  <way id="1144849651" version="2" timestamp="2023-04-29T08:59:40Z" changeset="135495784" uid="12035222" user="millup">
    <nd ref="10655489887"/>
    <nd ref="367504"/>
    <tag k="cycleway:right" v="no"/>
    <tag k="highway" v="secondary"/>
    <tag k="lane_markings" v="no"/>
    <tag k="lit" v="yes"/>
    <tag k="maxspeed" v="30"/>
    <tag k="name" v="Place Jean-Paul Sartre et Simone de Beauvoir"/>
    <tag k="name:br" v="Plasenn Jean-Paul Sartre ha Simone de Beauvoir"/>
    <tag k="oneway" v="yes"/>
    <tag k="sidewalk" v="both"/>
    <tag k="smoothness" v="excellent"/>
    <tag k="source:maxspeed" v="FR:urban"/>
    <tag k="surface" v="asphalt"/>
  </way>
  <way id="1353185570" version="1" timestamp="2025-01-21T16:26:52Z" changeset="161606972" uid="7512839" user="Benoît C MdP">
    <nd ref="777218474"/>
    <nd ref="5374911023"/>
    <nd ref="2876214411"/>
    <nd ref="470144"/>
    <nd ref="4508688462"/>
    <nd ref="11032450314"/>
    <nd ref="25188960"/>
    <tag k="bicycle:backward" v="use_sidepath"/>
    <tag k="busway:right" v="lane"/>
    <tag k="cycleway:both" v="separate"/>
    <tag k="cycleway:left" v="separate"/>
    <tag k="cycleway:right" v="share_busway"/>
    <tag k="enforcement:operator" v="Police nationale"/>
    <tag k="highway" v="primary"/>
    <tag k="lane_markings" v="no"/>
    <tag k="lit" v="yes"/>
    <tag k="maxspeed" v="30"/>
    <tag k="name" v="Quai de Conti"/>
    <tag k="name:ru" v="набережная Конти"/>
    <tag k="oneway" v="yes"/>
    <tag k="operator" v="Ville de Paris"/>
    <tag k="operator:authority" v="Maire de Paris dans le respect des prescriptions prises par le préfet de police"/>
    <tag k="operator:authority:related_law" v="III de l'article L. 2512-14 du code général des collectivités territoriales"/>
    <tag k="sidewalk:left" v="separate"/>
    <tag k="sidewalk:right" v="yes"/>
    <tag k="smoothness" v="good"/>
    <tag k="source:maxspeed" v="FR:urban"/>
    <tag k="source:operator:authority" v="https://www.legifrance.gouv.fr/loda/id/LEGIARTI000035244298/#LEGIARTI000035244298"/>
    <tag k="surface" v="asphalt"/>
    <tag k="zone:traffic" v="FR:urban"/>
  </way>
  <relation id="969757" version="4" timestamp="2023-02-09T09:45:01Z" changeset="132297097" uid="18359439" user="Liviapiriou">
    <member type="way" ref="62296408" role="inner"/>
    <member type="way" ref="62296308" role="inner"/>
    <member type="way" ref="62296366" role="outer"/>
    <tag k="addr:city" v="Paris"/>
    <tag k="addr:housenumber" v="8"/>
    <tag k="addr:postcode" v="75006"/>
    <tag k="addr:street" v="Rue Saint-Benoît"/>
    <tag k="building" v="school"/>
    <tag k="building:levels" v="3"/>
    <tag k="name" v="Collège Jacques Prévert"/>
    <tag k="roof:levels" v="1"/>
    <tag k="type" v="multipolygon"/>
  </relation>
  <relation id="969762" version="7" timestamp="2022-05-03T09:18:23Z" changeset="120492076" uid="14930061" user="Vlouzman">
    <member type="way" ref="62296316" role="outer"/>
    <member type="way" ref="62296417" role="inner"/>
    <member type="way" ref="62296325" role="outer"/>
    <member type="way" ref="62296323" role="inner"/>
    <tag k="addr:city" v="Paris"/>
    <tag k="addr:housenumber" v="45"/>
    <tag k="addr:postcode" v="75006"/>
    <tag k="addr:street" v="Rue des Saints-Pères"/>
    <tag k="building" v="university"/>
    <tag k="height" v="38.5"/>
    <tag k="name" v="Université Paris Cité - Campus Saint-Germain-des-Prés"/>
    <tag k="old_name" v="Université Paris Descartes - Centre universitaire des Saints-Pères"/>
    <tag k="type" v="multipolygon"/>
    <tag k="website" v="https://u-paris.fr/nos-sites-et-campus/"/>
    <tag k="wheelchair" v="yes"/>
    <tag k="wikidata" v="Q3550801"/>
    <tag k="wikipedia" v="fr:Unité de formation et de recherche biomédicale des Saints-Pères"/>
  </relation>
  <relation id="10366169" version="1" timestamp="2019-12-03T14:24:43Z" changeset="77883957" uid="15908" user="cantece">
    <member type="way" ref="751903236" role="outer"/>
    <tag k="addr:city" v="Paris"/>
    <tag k="addr:housenumber" v="7b"/>
    <tag k="addr:street" v="Rue des Saints-Pères"/>
    <tag k="building" v="residential"/>
    <tag k="source" v="cadastre-dgi-fr source : Direction Générale des Impôts - Cadastre. Mise à jour : 2010"/>
    <tag k="type" v="multipolygon"/>
  </relation>

</osm>
