<?xml version="1.0" encoding="UTF-8"?>
<osm version="0.6" generator="Overpass API 0.7.62.5 1bd436f1">
<note>The data included in this document is from www.openstreetmap.org. The data is made available under ODbL.</note>
<meta osm_base="2025-05-17T22:42:28Z" areas="2024-12-31T00:49:33Z"/>

  <node id="430788" lat="48.8597514" lon="2.3768492" version="11" timestamp="2019-03-05T14:23:24Z" changeset="67807127" uid="570635" user="_phiphou_">
    <tag k="highway" v="traffic_signals"/>
    <tag k="source" v="survey"/>
  </node>
  <node id="430794" lat="48.8533915" lon="2.3794021" version="10" timestamp="2014-01-03T21:00:33Z" changeset="19795204" uid="1198089" user="GeorgeKaplan">
    <tag k="highway" v="traffic_signals"/>
  </node>
  <node id="430795" lat="48.8532743" lon="2.3770075" version="6" timestamp="2024-11-05T21:10:17Z" changeset="158795173" uid="7550430" user="Britzz">
    <tag k="highway" v="traffic_signals"/>
  </node>
  <node id="430796" lat="48.8532065" lon="2.3750770" version="7" timestamp="2019-10-12T15:53:47Z" changeset="75603987" uid="570635" user="_phiphou_"/>
  <node id="8809451" lat="48.8559257" lon="2.3692026" version="9" timestamp="2019-09-08T20:37:45Z" changeset="74236403" uid="7336068" user="Florimondable"/>
  <node id="17809169" lat="48.8577790" lon="2.3709068" version="9" timestamp="2022-10-19T23:30:23Z" changeset="127812416" uid="7550430" user="Britzz"/>
  <node id="25009246" lat="48.8535745" lon="2.3804181" version="12" timestamp="2012-11-21T13:07:24Z" changeset="13958448" uid="456113" user="eric_G"/>
  <node id="30183055" lat="48.8551202" lon="2.3871219" version="17" timestamp="2019-02-16T12:51:56Z" changeset="67253339" uid="7336068" user="Florimondable">
    <tag k="highway" v="traffic_signals"/>
  </node>
  <node id="30183253" lat="48.8585347" lon="2.3836681" version="13" timestamp="2023-05-25T20:30:41Z" changeset="136558978" uid="7550430" user="Britzz"/>
  <node id="30183255" lat="48.8573512" lon="2.3808768" version="30" timestamp="2025-01-21T15:12:42Z" changeset="161604326" uid="7512839" user="Benoît C MdP"/>
  <node id="34632754" lat="48.8623021" lon="2.3852205" version="6" timestamp="2020-12-06T15:30:35Z" changeset="95370389" uid="311391" user="patman37"/>
  <node id="34632783" lat="48.8581375" lon="2.3719568" version="7" timestamp="2021-05-30T11:19:10Z" changeset="105563536" uid="9397053" user="didapike"/>
  <node id="123479648" lat="48.8629298" lon="2.3872280" version="20" timestamp="2023-03-10T17:56:37Z" changeset="133528579" uid="7550430" user="Britzz"/>
  <node id="123488806" lat="48.8598315" lon="2.3887552" version="22" timestamp="2023-07-27T23:23:14Z" changeset="139110687" uid="7550430" user="Britzz"/>
  <node id="123495722" lat="48.8585477" lon="2.3896646" version="12" timestamp="2022-07-22T17:35:28Z" changeset="123949337" uid="7550430" user="Britzz"/>
  <node id="123497817" lat="48.8564739" lon="2.3942138" version="18" timestamp="2024-09-09T07:01:50Z" changeset="156380027" uid="7512839" user="Benoît C MdP"/>
  <node id="123498923" lat="48.8577134" lon="2.3922853" version="7" timestamp="2022-07-22T17:35:28Z" changeset="123949337" uid="7550430" user="Britzz"/>
  <node id="148944645" lat="48.8591975" lon="2.3862187" version="15" timestamp="2012-06-29T12:11:36Z" changeset="12055882" uid="456113" user="eric_G"/>
  <node id="152738277" lat="48.8602752" lon="2.3720370" version="13" timestamp="2021-07-05T14:38:49Z" changeset="107445983" uid="13703712" user="Kouji915"/>
  <node id="152739326" lat="48.8568139" lon="2.3704746" version="12" timestamp="2021-07-07T11:50:16Z" changeset="107561160" uid="13703712" user="Kouji915"/>
  <node id="153512281" lat="48.8539222" lon="2.3820074" version="10" timestamp="2011-05-31T23:24:15Z" changeset="8306611" uid="17286" user="Pieren"/>
  <node id="199624817" lat="48.8559326" lon="2.3923567" version="8" timestamp="2011-06-16T20:49:54Z" changeset="8460051" uid="17286" user="Pieren"/>
  <node id="244455587" lat="48.8532731" lon="2.3772848" version="15" timestamp="2011-06-15T19:19:57Z" changeset="8450083" uid="17286" user="Pieren">
    <tag k="highway" v="traffic_signals"/>
  </node>
  <node id="256423560" lat="48.8580027" lon="2.3715552" version="9" timestamp="2024-10-23T20:12:47Z" changeset="158270081" uid="16974287" user="VLD304">
    <tag k="crossing" v="marked"/>
    <tag k="crossing:markings" v="zebra"/>
    <tag k="highway" v="crossing"/>
  </node>
  <node id="257936405" lat="48.8555137" lon="2.3857737" version="6" timestamp="2023-07-26T15:51:19Z" changeset="139044436" uid="474183" user="ratrun"/>
  <node id="367917324" lat="48.8578463" lon="2.3800467" version="16" timestamp="2022-07-08T22:31:13Z" changeset="123383338" uid="7550430" user="Britzz">
    <tag k="highway" v="traffic_signals"/>
  </node>
  <node id="420673782" lat="48.8532772" lon="2.3702856" version="15" timestamp="2022-12-01T11:22:43Z" changeset="129598994" uid="7512839" user="Benoît C MdP"/>
  <node id="560860385" lat="48.8579688" lon="2.3899634" version="5" timestamp="2023-10-21T19:35:04Z" changeset="142938058" uid="7550430" user="Britzz"/>
  <node id="602383486" lat="48.8591447" lon="2.3749638" version="4" timestamp="2011-05-31T19:36:38Z" changeset="8304753" uid="17286" user="Pieren"/>
  <node id="691304751" lat="48.8579579" lon="2.3803040" version="8" timestamp="2022-07-08T22:31:13Z" changeset="123383338" uid="7550430" user="Britzz">
    <tag k="highway" v="traffic_signals"/>
  </node>
  <node id="697813609" lat="48.8558253" lon="2.3684984" version="6" timestamp="2019-03-13T17:27:08Z" changeset="68108026" uid="311391" user="patman37">
    <tag k="highway" v="traffic_signals"/>
  </node>
  <node id="774720082" lat="48.8570473" lon="2.3808406" version="3" timestamp="2025-01-21T15:12:42Z" changeset="161604326" uid="7512839" user="Benoît C MdP"/>
  <node id="1298884223" lat="48.8610200" lon="2.3884477" version="1" timestamp="2011-05-24T22:25:33Z" changeset="8240378" uid="17286" user="Pieren"/>
  <node id="1759389841" lat="48.8532983" lon="2.3787298" version="1" timestamp="2012-05-20T07:51:45Z" changeset="11648137" uid="37548" user="Marcussacapuces91"/>
  <node id="5528037494" lat="48.8564548" lon="2.3709571" version="10" timestamp="2025-01-02T11:09:30Z" changeset="160901955" uid="15118949" user="Nzau">
    <tag k="button_operated" v="no"/>
    <tag k="crossing" v="traffic_signals"/>
    <tag k="crossing:island" v="no"/>
    <tag k="crossing:markings" v="zebra"/>
    <tag k="highway" v="crossing"/>
    <tag k="source" v="BDOrtho IGN 2018"/>
    <tag k="tactile_paving" v="yes"/>
    <tag k="traffic_signals:vibration" v="yes"/>
  </node>
  <node id="5773573552" lat="48.8605556" lon="2.3754899" version="2" timestamp="2019-01-21T17:19:03Z" changeset="66511842" uid="311391" user="patman37"/>
  <node id="6554662989" lat="48.8535535" lon="2.3690599" version="5" timestamp="2021-07-09T11:53:28Z" changeset="107701505" uid="13703712" user="Kouji915"/>
  <node id="6554662994" lat="48.8532974" lon="2.3697178" version="6" timestamp="2021-07-12T08:58:16Z" changeset="107824543" uid="13703712" user="Kouji915"/>
  <node id="9901902686" lat="48.8638700" lon="2.3811448" version="2" timestamp="2025-04-15T13:17:12Z" changeset="164984699" uid="703542" user="nuitsfauves"/>
  <node id="10089762252" lat="48.8628231" lon="2.3873142" version="2" timestamp="2022-12-07T14:11:45Z" changeset="129823975" uid="7512839" user="Benoît C MdP"/>
  <node id="10089762253" lat="48.8628797" lon="2.3871439" version="3" timestamp="2024-10-16T21:26:17Z" changeset="157984151" uid="16974287" user="VLD304">
    <tag k="crossing" v="marked"/>
    <tag k="crossing:markings" v="pictograms"/>
    <tag k="highway" v="crossing"/>
  </node>
  <node id="11253108232" lat="48.8540242" lon="2.3689521" version="2" timestamp="2024-04-18T22:27:56Z" changeset="150196538" uid="7550430" user="Britzz">
    <tag k="highway" v="traffic_signals"/>
  </node>
  <node id="11486190886" lat="48.8565569" lon="2.3944695" version="2" timestamp="2024-09-09T07:01:50Z" changeset="156380027" uid="7512839" user="Benoît C MdP"/>
  <node id="12168025945" lat="48.8540409" lon="2.3924032" version="1" timestamp="2024-09-10T12:31:12Z" changeset="156438202" uid="7512839" user="Benoît C MdP"/>
  <way id="4039340" version="35" timestamp="2024-08-10T06:04:25Z" changeset="155048101" uid="17330386" user="FloBob">
    <nd ref="8809442"/>
    <nd ref="2284436596"/>
    <nd ref="8809443"/>
    <nd ref="8809444"/>
    <nd ref="1301155762"/>
    <nd ref="5528037499"/>
    <nd ref="8809445"/>
    <nd ref="5528037497"/>
    <nd ref="5528037495"/>
    <tag k="cycleway:both" v="no"/>
    <tag k="highway" v="residential"/>
    <tag k="lit" v="yes"/>
    <tag k="maxspeed" v="30"/>
    <tag k="name" v="Rue Saint-Sabin"/>
    <tag k="name:etymology" v="Charles Pierre Angelenne de Saint-Sabin était échevin de la Ville de Paris lorsque le tracé de cette voie fut rectifié en 1777."/>
    <tag k="oneway" v="yes"/>
    <tag k="oneway:bicycle" v="no"/>
    <tag k="sidewalk:both" v="separate"/>
    <tag k="smoothness" v="good"/>
    <tag k="surface" v="asphalt"/>
  </way>
  <way id="4039396" version="45" timestamp="2024-11-25T06:24:56Z" changeset="159558677" uid="158826" user="cquest">
    <nd ref="691304751"/>
    <nd ref="2291048633"/>
    <nd ref="8895505764"/>
    <nd ref="12373037899"/>
    <nd ref="5727442587"/>
    <nd ref="621239293"/>
    <nd ref="1298787957"/>
    <nd ref="5746330851"/>
    <nd ref="12373040020"/>
    <nd ref="1789061755"/>
    <nd ref="151362739"/>
    <nd ref="1789062086"/>
    <nd ref="12373040019"/>
    <nd ref="5746330852"/>
    <nd ref="12373039925"/>
    <nd ref="1789061794"/>
    <nd ref="34151805"/>
    <tag k="highway" v="tertiary"/>
    <tag k="lit" v="yes"/>
    <tag k="maxspeed" v="30"/>
    <tag k="name" v="Avenue Parmentier"/>
    <tag k="name:etymology:wikidata" v="Q360312"/>
    <tag k="sidewalk" v="separate"/>
    <tag k="source:maxspeed" v="FR:zone30"/>
    <tag k="surface" v="asphalt"/>
    <tag k="traffic:hourly" v="570"/>
    <tag k="traffic:hourly:source" v="Open Data Paris 2019 : Comptage routier - Données trafic issues des capteurs permanents"/>
  </way>
  <way id="4039503" version="17" timestamp="2024-04-13T19:15:44Z" changeset="149966043" uid="6290466" user="benjamintchik">
    <nd ref="8809440"/>
    <nd ref="5528037432"/>
    <nd ref="5528037282"/>
    <nd ref="252682722"/>
    <nd ref="5528037283"/>
    <nd ref="5528037284"/>
    <nd ref="11090136348"/>
    <nd ref="11066991985"/>
    <nd ref="430795"/>
    <tag k="cycleway" v="opposite"/>
    <tag k="highway" v="residential"/>
    <tag k="lit" v="yes"/>
    <tag k="maxspeed" v="30"/>
    <tag k="name" v="Rue Keller"/>
    <tag k="name:etymology:wikidata" v="Q121360"/>
    <tag k="oneway" v="yes"/>
    <tag k="oneway:bicycle" v="no"/>
    <tag k="sidewalk" v="separate"/>
    <tag k="surface" v="asphalt"/>
  </way>
  <way id="4039912" version="60" timestamp="2024-04-13T19:14:30Z" changeset="149966043" uid="6290466" user="benjamintchik">
    <nd ref="420673782"/>
    <nd ref="6549456217"/>
    <tag k="highway" v="residential"/>
    <tag k="lanes" v="1"/>
    <tag k="lit" v="yes"/>
    <tag k="maxspeed" v="30"/>
    <tag k="name" v="Rue de la Roquette"/>
    <tag k="name:etymology:wikidata" v="Q3413209"/>
    <tag k="oneway" v="yes"/>
    <tag k="sidewalk:both" v="separate"/>
    <tag k="sidewalk:both:surface" v="asphalt"/>
    <tag k="smoothness" v="good"/>
    <tag k="source" v="cadastre-dgi-fr source : Direction Générale des Impôts - Cadastre. Mise à jour : 2010"/>
    <tag k="surface" v="asphalt"/>
    <tag k="width" v="3"/>
  </way>
  <way id="4039928" version="26" timestamp="2024-01-03T21:13:53Z" changeset="145855202" uid="53964" user="_Mathieu_">
    <nd ref="430796"/>
    <nd ref="6808428599"/>
    <nd ref="249580372"/>
    <nd ref="8079545438"/>
    <nd ref="1312774942"/>
    <nd ref="1312774944"/>
    <nd ref="1312774960"/>
    <nd ref="5528037425"/>
    <nd ref="248492214"/>
    <nd ref="573449946"/>
    <nd ref="5528037470"/>
    <nd ref="8809438"/>
    <tag k="cycleway" v="opposite"/>
    <tag k="highway" v="residential"/>
    <tag k="lit" v="yes"/>
    <tag k="maxspeed" v="30"/>
    <tag k="name" v="Passage Thiéré"/>
    <tag k="oneway" v="yes"/>
    <tag k="oneway:bicycle" v="no"/>
    <tag k="sidewalk:both" v="separate"/>
    <tag k="smoothness" v="good"/>
    <tag k="surface" v="asphalt"/>
  </way>
  <way id="4039962" version="20" timestamp="2024-04-13T19:16:05Z" changeset="149966043" uid="6290466" user="benjamintchik">
    <nd ref="8809441"/>
    <nd ref="5528037279"/>
    <nd ref="7514802591"/>
    <tag k="cycleway:left" v="no"/>
    <tag k="cycleway:right" v="no"/>
    <tag k="highway" v="residential"/>
    <tag k="lit" v="yes"/>
    <tag k="maxspeed" v="30"/>
    <tag k="name" v="Rue des Taillandiers"/>
    <tag k="name:etymology:wikidata" v="Q17305604"/>
    <tag k="oneway" v="yes"/>
    <tag k="oneway:bicycle" v="no"/>
    <tag k="sidewalk" v="separate"/>
    <tag k="smoothness" v="good"/>
    <tag k="surface" v="asphalt"/>
  </way>
  <way id="4039974" version="44" timestamp="2024-04-13T19:14:42Z" changeset="149966043" uid="6290466" user="benjamintchik">
    <nd ref="153512631"/>
    <nd ref="367916864"/>
    <nd ref="6092407611"/>
    <nd ref="5528037260"/>
    <nd ref="367918448"/>
    <tag k="highway" v="secondary"/>
    <tag k="lanes" v="4"/>
    <tag k="lanes:backward" v="2"/>
    <tag k="lanes:forward" v="2"/>
    <tag k="lit" v="yes"/>
    <tag k="maxspeed" v="30"/>
    <tag k="name" v="Avenue Ledru-Rollin"/>
    <tag k="name:etymology:wikidata" v="Q1382222"/>
    <tag k="sidewalk" v="separate"/>
    <tag k="source:maxspeed" v="FR:urban"/>
    <tag k="surface" v="asphalt"/>
    <tag k="traffic:hourly" v="600"/>
    <tag k="traffic:hourly:source" v="Open Data Paris 2019 : Comptage routier - Données trafic issues des capteurs permanents"/>
  </way>
  <way id="4039995" version="30" timestamp="2024-11-25T06:24:56Z" changeset="159558677" uid="158826" user="cquest">
    <nd ref="153512631"/>
    <nd ref="6066233396"/>
    <nd ref="12373040001"/>
    <nd ref="5528037309"/>
    <nd ref="2069524357"/>
    <nd ref="367918343"/>
    <tag k="bicycle:lanes:forward" v="yes|yes|designated"/>
    <tag k="busway:right" v="lane"/>
    <tag k="cycleway:left" v="no"/>
    <tag k="cycleway:right" v="share_busway"/>
    <tag k="highway" v="secondary"/>
    <tag k="lanes" v="5"/>
    <tag k="lanes:backward" v="2"/>
    <tag k="lanes:forward" v="3"/>
    <tag k="lit" v="yes"/>
    <tag k="maxspeed" v="30"/>
    <tag k="name" v="Rue de la Roquette"/>
    <tag k="name:etymology:wikidata" v="Q3413209"/>
    <tag k="psv:lanes:forward" v="yes|yes|designated"/>
    <tag k="sidewalk:both" v="separate"/>
    <tag k="smoothness" v="good"/>
    <tag k="source:maxspeed" v="FR:urban"/>
    <tag k="surface" v="asphalt"/>
  </way>
  <way id="4040012" version="20" timestamp="2024-08-10T06:04:26Z" changeset="155048101" uid="17330386" user="FloBob">
    <nd ref="8809450"/>
    <nd ref="458367263"/>
    <nd ref="5528037504"/>
    <nd ref="6365085736"/>
    <nd ref="5528037503"/>
    <nd ref="431394176"/>
    <nd ref="8809447"/>
    <tag k="cycleway:both" v="no"/>
    <tag k="highway" v="residential"/>
    <tag k="lit" v="yes"/>
    <tag k="maxspeed" v="30"/>
    <tag k="name" v="Esplanade Roger Joseph Boscovich"/>
    <tag k="name:etymology:wikidata" v="Q310757"/>
    <tag k="oneway" v="yes"/>
    <tag k="sidewalk" v="separate"/>
    <tag k="smoothness" v="good"/>
    <tag k="surface" v="asphalt"/>
  </way>
  <way id="5064105" version="17" timestamp="2024-09-08T15:42:20Z" changeset="156357857" uid="53964" user="_Mathieu_">
    <nd ref="6190626978"/>
    <nd ref="6190626976"/>
    <nd ref="6190639075"/>
    <nd ref="6201026130"/>
    <nd ref="2493546471"/>
    <nd ref="34096462"/>
    <tag k="cycleway:both" v="no"/>
    <tag k="highway" v="residential"/>
    <tag k="lit" v="yes"/>
    <tag k="maxspeed" v="30"/>
    <tag k="name" v="Rue Pache"/>
    <tag k="name:etymology:wikidata" v="Q1685102"/>
    <tag k="oneway" v="yes"/>
    <tag k="oneway:bicycle" v="no"/>
    <tag k="sidewalk:both" v="separate"/>
    <tag k="smoothness" v="good"/>
    <tag k="surface" v="asphalt"/>
    <tag k="zone:maxspeed" v="FR:30"/>
  </way>
  <way id="5066657" version="20" timestamp="2024-09-08T15:42:29Z" changeset="156357857" uid="53964" user="_Mathieu_">
    <nd ref="621239293"/>
    <nd ref="1789061740"/>
    <nd ref="1111763208"/>
    <nd ref="1789062088"/>
    <nd ref="5528037305"/>
    <nd ref="332951211"/>
    <nd ref="5528037301"/>
    <nd ref="34096774"/>
    <nd ref="5528037302"/>
    <nd ref="2493546376"/>
    <nd ref="34151758"/>
    <tag k="cycleway:both" v="no"/>
    <tag k="highway" v="residential"/>
    <tag k="lit" v="yes"/>
    <tag k="maxspeed" v="30"/>
    <tag k="name" v="Rue Camille Desmoulins"/>
    <tag k="name:etymology:wikidata" v="Q249313"/>
    <tag k="oneway" v="yes"/>
    <tag k="oneway:bicycle" v="no"/>
    <tag k="sidewalk" v="separate"/>
    <tag k="surface" v="asphalt"/>
    <tag k="zone:maxspeed" v="FR:30"/>
  </way>
  <way id="5066660" version="37" timestamp="2024-02-22T07:23:01Z" changeset="147760119" uid="12287265" user="bilbosquet">
    <nd ref="10089762253"/>
    <nd ref="10089762250"/>
    <nd ref="10082790940"/>
    <nd ref="10082790948"/>
    <nd ref="11067035838"/>
    <nd ref="1789061975"/>
    <nd ref="34632752"/>
    <nd ref="1789061460"/>
    <nd ref="34632753"/>
    <nd ref="34632754"/>
    <tag k="cycleway:right" v="no"/>
    <tag k="highway" v="tertiary"/>
    <tag k="lane_markings" v="no"/>
    <tag k="lit" v="yes"/>
    <tag k="maxspeed" v="30"/>
    <tag k="name" v="Rue du Chemin Vert"/>
    <tag k="name:etymology:wikidata" v="Q143970"/>
    <tag k="oneway" v="yes"/>
    <tag k="oneway:bicycle" v="yes"/>
    <tag k="sidewalk:both" v="separate"/>
    <tag k="smoothness" v="good"/>
    <tag k="surface" v="asphalt"/>
    <tag k="zone:maxspeed" v="FR:30"/>
  </way>
  <way id="5095264" version="33" timestamp="2024-02-20T18:18:47Z" changeset="147702158" uid="6290466" user="benjamintchik">
    <nd ref="123488806"/>
    <nd ref="687890641"/>
    <nd ref="6193032332"/>
    <nd ref="2385215118"/>
    <nd ref="1327901835"/>
    <nd ref="3817753771"/>
    <nd ref="3817753770"/>
    <nd ref="2385215309"/>
    <nd ref="148944692"/>
    <tag k="cycleway:both" v="no"/>
    <tag k="highway" v="tertiary"/>
    <tag k="lanes" v="2"/>
    <tag k="maxspeed" v="30"/>
    <tag k="name" v="Rue de la Roquette"/>
    <tag k="name:etymology:wikidata" v="Q3413209"/>
    <tag k="oneway" v="no"/>
    <tag k="sidewalk:both" v="separate"/>
    <tag k="surface" v="asphalt"/>
    <tag k="zone:maxspeed" v="FR:30"/>
  </way>
  <way id="6282697" version="34" timestamp="2025-04-15T13:17:12Z" changeset="164984699" uid="703542" user="nuitsfauves">
    <nd ref="9901902686"/>
    <nd ref="12757420379"/>
    <nd ref="12757420380"/>
    <nd ref="2250942982"/>
    <nd ref="52842221"/>
    <nd ref="1298847692"/>
    <nd ref="1298848284"/>
    <nd ref="4881957069"/>
    <nd ref="11065322624"/>
    <nd ref="34674541"/>
    <nd ref="11065322622"/>
    <nd ref="258676899"/>
    <nd ref="8199026430"/>
    <nd ref="1300983622"/>
    <nd ref="2250942939"/>
    <nd ref="148944517"/>
    <tag k="cycleway:both" v="no"/>
    <tag k="highway" v="residential"/>
    <tag k="lit" v="yes"/>
    <tag k="maxspeed" v="30"/>
    <tag k="name" v="Rue Servan"/>
    <tag k="name:etymology:wikidata" v="Q2684623"/>
    <tag k="oneway" v="yes"/>
    <tag k="oneway:bicycle" v="no"/>
    <tag k="sidewalk:both" v="separate"/>
    <tag k="smoothness" v="good"/>
    <tag k="surface" v="asphalt"/>
    <tag k="zone:maxspeed" v="FR:30"/>
  </way>
  <way id="8059155" version="23" timestamp="2025-03-07T22:47:12Z" changeset="163346150" uid="7550430" user="Britzz">
    <nd ref="148945034"/>
    <nd ref="1300983647"/>
    <nd ref="2385215284"/>
    <nd ref="148945035"/>
    <nd ref="2385215097"/>
    <nd ref="2385215229"/>
    <nd ref="148945036"/>
    <tag k="highway" v="residential"/>
    <tag k="lit" v="yes"/>
    <tag k="maxspeed" v="30"/>
    <tag k="name" v="Rue Maillard"/>
    <tag k="oneway" v="yes"/>
    <tag k="oneway:bicycle" v="no"/>
    <tag k="sidewalk:both" v="separate"/>
    <tag k="smoothness" v="good"/>
    <tag k="surface" v="asphalt"/>
    <tag k="zone:maxspeed" v="FR:30"/>
  </way>
  <way id="8059156" version="22" timestamp="2024-04-13T19:15:19Z" changeset="149966043" uid="6290466" user="benjamintchik">
    <nd ref="1759389841"/>
    <nd ref="5528037285"/>
    <nd ref="5528037288"/>
    <nd ref="252682761"/>
    <nd ref="10048157407"/>
    <tag k="cycleway" v="opposite"/>
    <tag k="highway" v="residential"/>
    <tag k="lit" v="yes"/>
    <tag k="maxspeed" v="30"/>
    <tag k="name" v="Passage Charles Dallery"/>
    <tag k="name:etymology:wikidata" v="Q965957"/>
    <tag k="oneway" v="yes"/>
    <tag k="oneway:bicycle" v="no"/>
    <tag k="sidewalk:both" v="separate"/>
    <tag k="surface" v="asphalt"/>
    <tag k="zone:maxspeed" v="FR:30"/>
  </way>
  <way id="8059158" version="20" timestamp="2024-04-13T19:12:34Z" changeset="149966043" uid="6290466" user="benjamintchik">
    <nd ref="151363007"/>
    <nd ref="11066991993"/>
    <nd ref="1307270990"/>
    <nd ref="6190594899"/>
    <nd ref="130099806"/>
    <tag k="cycleway" v="opposite"/>
    <tag k="highway" v="residential"/>
    <tag k="lit" v="yes"/>
    <tag k="maxspeed" v="30"/>
    <tag k="name" v="Rue Basfroi"/>
    <tag k="name:etymology" v="lieu-dit"/>
    <tag k="oneway" v="yes"/>
    <tag k="oneway:bicycle" v="no"/>
    <tag k="sidewalk:both" v="separate"/>
    <tag k="surface" v="asphalt"/>
  </way>
  <way id="8059184" version="24" timestamp="2024-01-01T13:20:05Z" changeset="145761774" uid="53964" user="_Mathieu_">
    <nd ref="430794"/>
    <nd ref="6808475086"/>
    <nd ref="25009249"/>
    <nd ref="8196183478"/>
    <nd ref="8196183476"/>
    <nd ref="25009257"/>
    <tag k="cycleway:left" v="lane"/>
    <tag k="cycleway:left:lane" v="exclusive"/>
    <tag k="cycleway:left:oneway" v="-1"/>
    <tag k="cycleway:right" v="no"/>
    <tag k="highway" v="residential"/>
    <tag k="maxspeed" v="30"/>
    <tag k="name" v="Rue Trousseau"/>
    <tag k="oneway" v="yes"/>
    <tag k="oneway:bicycle" v="no"/>
    <tag k="sidewalk:both" v="separate"/>
    <tag k="surface" v="asphalt"/>
    <tag k="zone:maxspeed" v="FR:30"/>
  </way>
  <way id="13423887" version="40" timestamp="2024-05-24T13:28:50Z" changeset="151770131" uid="21159449" user="elisabeth_geovelo">
    <nd ref="11068720774"/>
    <nd ref="8128660056"/>
    <nd ref="123497816"/>
    <nd ref="8128660053"/>
    <nd ref="2907989659"/>
    <nd ref="691418826"/>
    <nd ref="6808875103"/>
    <tag k="cycleway:right" v="lane"/>
    <tag k="dual_carriageway" v="yes"/>
    <tag k="highway" v="primary"/>
    <tag k="lane_markings" v="no"/>
    <tag k="lit" v="yes"/>
    <tag k="maxspeed" v="30"/>
    <tag k="name" v="Boulevard de Charonne"/>
    <tag k="name:etymology:wikidata" v="Q728591"/>
    <tag k="oneway" v="yes"/>
    <tag k="parking:left" v="lane"/>
    <tag k="parking:left:orientation" v="parallel"/>
    <tag k="parking:right" v="no"/>
    <tag k="sidewalk:both" v="separate"/>
    <tag k="source" v="cadastre-dgi-fr source : Direction Générale des Impôts - Cadastre. Mise à jour : 2010"/>
    <tag k="surface" v="asphalt"/>
  </way>
  <way id="13862275" version="28" timestamp="2024-12-06T13:41:13Z" changeset="159994928" uid="16630545" user="Vivien GUEANT">
    <nd ref="244455587"/>
    <nd ref="6190538594"/>
    <nd ref="430795"/>
    <tag k="cycleway:both" v="no"/>
    <tag k="highway" v="unclassified"/>
    <tag k="lane_markings" v="no"/>
    <tag k="lit" v="yes"/>
    <tag k="maxspeed" v="30"/>
    <tag k="name" v="Rue de Charonne"/>
    <tag k="name:etymology:wikidata" v="Q18199435"/>
    <tag k="oneway" v="no"/>
    <tag k="sidewalk:both" v="separate"/>
    <tag k="surface" v="asphalt"/>
  </way>
  <way id="15091831" version="24" timestamp="2024-10-08T09:39:40Z" changeset="157617253" uid="3834000" user="cartoleo">
    <nd ref="34632754"/>
    <nd ref="1789061917"/>
    <nd ref="4945774680"/>
    <nd ref="2385215189"/>
    <nd ref="148944519"/>
    <nd ref="2385215332"/>
    <nd ref="258675828"/>
    <nd ref="8198678888"/>
    <nd ref="8198678887"/>
    <nd ref="1298884356"/>
    <nd ref="4945774679"/>
    <nd ref="2385215139"/>
    <nd ref="148944692"/>
    <tag k="alt_name" v="Rue de la Folie-Régnault"/>
    <tag k="cycleway:both" v="no"/>
    <tag k="highway" v="residential"/>
    <tag k="lanes" v="1"/>
    <tag k="lit" v="yes"/>
    <tag k="maxspeed" v="30"/>
    <tag k="name" v="Rue de la Folie Regnault"/>
    <tag k="name:etymology" v="un lieu-dit"/>
    <tag k="oneway" v="yes"/>
    <tag k="oneway:bicycle" v="no"/>
    <tag k="sidewalk:both" v="separate"/>
    <tag k="smoothness" v="intermediate"/>
    <tag k="surface" v="asphalt"/>
    <tag k="zone:maxspeed" v="FR:30"/>
  </way>
  <way id="15091841" version="26" timestamp="2024-10-08T09:38:24Z" changeset="157617253" uid="3834000" user="cartoleo">
    <nd ref="148944851"/>
    <nd ref="2493546430"/>
    <nd ref="148944923"/>
    <nd ref="8199026433"/>
    <nd ref="8199026434"/>
    <nd ref="148944889"/>
    <nd ref="2385215365"/>
    <nd ref="148944850"/>
    <nd ref="205006634"/>
    <nd ref="2385215282"/>
    <nd ref="2385215108"/>
    <nd ref="148944849"/>
    <tag k="alt_name" v="Rue de la Folie-Régnault"/>
    <tag k="cycleway:both" v="no"/>
    <tag k="highway" v="residential"/>
    <tag k="lit" v="yes"/>
    <tag k="maxspeed" v="30"/>
    <tag k="name" v="Rue de la Folie Regnault"/>
    <tag k="name:etymology" v="un lieu-dit"/>
    <tag k="oneway" v="yes"/>
    <tag k="oneway:bicycle" v="no"/>
    <tag k="sidewalk:both" v="separate"/>
    <tag k="smoothness" v="good"/>
    <tag k="surface" v="asphalt"/>
    <tag k="zone:maxspeed" v="FR:30"/>
  </way>
  <way id="15091843" version="20" timestamp="2024-09-08T15:41:57Z" changeset="156357857" uid="53964" user="_Mathieu_">
    <nd ref="148944876"/>
    <nd ref="2385215350"/>
    <nd ref="1300983661"/>
    <nd ref="2385215293"/>
    <nd ref="148945036"/>
    <nd ref="2385215241"/>
    <nd ref="2385215352"/>
    <nd ref="148944850"/>
    <tag k="cycleway:both" v="no"/>
    <tag k="highway" v="residential"/>
    <tag k="lit" v="yes"/>
    <tag k="maxspeed" v="30"/>
    <tag k="name" v="Rue Gerbier"/>
    <tag k="name:etymology:wikidata" v="Q22342494"/>
    <tag k="oneway" v="yes"/>
    <tag k="oneway:bicycle" v="no"/>
    <tag k="sidewalk:both" v="separate"/>
    <tag k="smoothness" v="good"/>
    <tag k="surface" v="asphalt"/>
    <tag k="zone:maxspeed" v="FR:30"/>
  </way>
  <way id="15091846" version="18" timestamp="2024-09-08T15:41:54Z" changeset="156357857" uid="53964" user="_Mathieu_">
    <nd ref="148944889"/>
    <nd ref="8199026435"/>
    <nd ref="2385215178"/>
    <nd ref="148945035"/>
    <nd ref="2385215137"/>
    <nd ref="2385215121"/>
    <nd ref="148944914"/>
    <tag k="cycleway:both" v="no"/>
    <tag k="highway" v="residential"/>
    <tag k="lit" v="yes"/>
    <tag k="maxspeed" v="30"/>
    <tag k="name" v="Rue de la Croix-Faubin"/>
    <tag k="name:etymology:wikidata" v="Q5084"/>
    <tag k="oneway" v="yes"/>
    <tag k="oneway:bicycle" v="no"/>
    <tag k="sidewalk:both" v="separate"/>
    <tag k="smoothness" v="good"/>
    <tag k="surface" v="asphalt"/>
    <tag k="zone:maxspeed" v="FR:30"/>
  </way>
  <way id="15091849" version="21" timestamp="2025-03-07T22:47:12Z" changeset="163346150" uid="7550430" user="Britzz">
    <nd ref="148944950"/>
    <nd ref="2385215381"/>
    <nd ref="12644310963"/>
    <nd ref="2385215223"/>
    <nd ref="148945034"/>
    <nd ref="2385215167"/>
    <nd ref="8199026432"/>
    <nd ref="148944923"/>
    <tag k="cycleway:both" v="no"/>
    <tag k="highway" v="residential"/>
    <tag k="lit" v="yes"/>
    <tag k="maxspeed" v="30"/>
    <tag k="name" v="Rue La Vacquerie"/>
    <tag k="name:etymology:wikidata" v="Q3175494"/>
    <tag k="oneway" v="yes"/>
    <tag k="oneway:bicycle" v="no"/>
    <tag k="sidewalk:both" v="separate"/>
    <tag k="smoothness" v="good"/>
    <tag k="source:name" v="survey"/>
    <tag k="surface" v="asphalt"/>
    <tag k="zone:maxspeed" v="FR:30"/>
  </way>
  <way id="15091856" version="20" timestamp="2023-07-24T15:16:23Z" changeset="138945831" uid="19622282" user="Etiennemapper5362">
    <nd ref="123488801"/>
    <nd ref="687891787"/>
    <nd ref="11065166054"/>
    <nd ref="746980321"/>
    <nd ref="5952293190"/>
    <nd ref="746988315"/>
    <nd ref="2385215271"/>
    <nd ref="148945054"/>
    <tag k="alt_name" v="Rue de Montlouis"/>
    <tag k="cycleway" v="opposite"/>
    <tag k="highway" v="residential"/>
    <tag k="lit" v="yes"/>
    <tag k="maxspeed" v="30"/>
    <tag k="name" v="Rue de Mont-Louis"/>
    <tag k="old_name" v="Rue Mont-Louis"/>
    <tag k="oneway" v="yes"/>
    <tag k="oneway:bicycle" v="no"/>
    <tag k="sidewalk" v="separate"/>
    <tag k="surface" v="sett"/>
    <tag k="zone:maxspeed" v="FR:30"/>
  </way>
  <way id="15276201" version="29" timestamp="2024-08-10T06:04:24Z" changeset="155048101" uid="17330386" user="FloBob">
    <nd ref="430789"/>
    <nd ref="5749702242"/>
    <nd ref="1789061419"/>
    <nd ref="11066991996"/>
    <nd ref="151362738"/>
    <nd ref="11066991998"/>
    <nd ref="3278452100"/>
    <nd ref="6888187751"/>
    <nd ref="774720077"/>
    <nd ref="5528037480"/>
    <nd ref="151362736"/>
    <nd ref="5528037479"/>
    <nd ref="5939197668"/>
    <nd ref="5528037498"/>
    <nd ref="8809445"/>
    <nd ref="5528037496"/>
    <nd ref="5528037501"/>
    <nd ref="151362735"/>
    <tag k="cycleway:both" v="no"/>
    <tag k="highway" v="residential"/>
    <tag k="lit" v="yes"/>
    <tag k="maxspeed" v="30"/>
    <tag k="name" v="Rue Sedaine"/>
    <tag k="name:etymology:wikidata" v="Q367243"/>
    <tag k="oneway" v="yes"/>
    <tag k="oneway:bicycle" v="no"/>
    <tag k="sidewalk:both" v="separate"/>
    <tag k="sidewalk:both:surface" v="asphalt"/>
    <tag k="smoothness" v="good"/>
    <tag k="surface" v="asphalt"/>
  </way>
  <way id="15276205" version="20" timestamp="2024-07-20T18:19:02Z" changeset="154190854" uid="2252690" user="gourlaysama">
    <nd ref="5773573552"/>
    <nd ref="5749702244"/>
    <nd ref="602383491"/>
    <nd ref="5528037245"/>
    <nd ref="151363033"/>
    <nd ref="602383489"/>
    <nd ref="1323653849"/>
    <nd ref="6318398755"/>
    <nd ref="34632786"/>
    <tag k="cycleway:both" v="no"/>
    <tag k="highway" v="residential"/>
    <tag k="lit" v="yes"/>
    <tag k="maxspeed" v="30"/>
    <tag k="name" v="Rue Popincourt"/>
    <tag k="name:etymology:wikidata" v="Q28495615"/>
    <tag k="oneway" v="yes"/>
    <tag k="oneway:bicycle" v="no"/>
    <tag k="sidewalk:both" v="separate"/>
    <tag k="smoothness" v="good"/>
    <tag k="surface" v="asphalt"/>
    <tag k="zone:maxspeed" v="FR:30"/>
  </way>
  <way id="15409804" version="15" timestamp="2024-04-13T19:13:49Z" changeset="149966043" uid="6290466" user="benjamintchik">
    <nd ref="152739363"/>
    <nd ref="5528037491"/>
    <nd ref="5528037490"/>
    <nd ref="152739591"/>
    <nd ref="5528037487"/>
    <nd ref="5528037482"/>
    <nd ref="152739592"/>
    <tag k="cycleway" v="opposite"/>
    <tag k="highway" v="residential"/>
    <tag k="lit" v="yes"/>
    <tag k="maxspeed" v="30"/>
    <tag k="name" v="Rue Boulle"/>
    <tag k="name:etymology:wikidata" v="Q128964"/>
    <tag k="oneway" v="yes"/>
    <tag k="oneway:bicycle" v="no"/>
    <tag k="sidewalk:both" v="separate"/>
    <tag k="smoothness" v="good"/>
    <tag k="surface" v="asphalt"/>
  </way>
  <way id="15459808" version="22" timestamp="2024-04-13T19:14:50Z" changeset="149966043" uid="6290466" user="benjamintchik">
    <nd ref="153512281"/>
    <nd ref="5528037296"/>
    <nd ref="5728950365"/>
    <nd ref="5528037297"/>
    <nd ref="8850883517"/>
    <nd ref="1326727535"/>
    <nd ref="1326728532"/>
    <nd ref="774720081"/>
    <nd ref="1789062127"/>
    <nd ref="153512631"/>
    <tag k="cycleway" v="opposite"/>
    <tag k="highway" v="residential"/>
    <tag k="lit" v="yes"/>
    <tag k="maxspeed" v="30"/>
    <tag k="name" v="Rue Godefroy Cavaignac"/>
    <tag k="name:etymology:wikidata" v="Q2615314"/>
    <tag k="oneway" v="yes"/>
    <tag k="oneway:bicycle" v="no"/>
    <tag k="sidewalk" v="separate"/>
    <tag k="smoothness" v="good"/>
    <tag k="surface" v="asphalt"/>
    <tag k="width" v="7"/>
    <tag k="zone:maxspeed" v="FR:30"/>
  </way>
  <way id="15459829" version="29" timestamp="2025-01-22T10:32:50Z" changeset="161632151" uid="7512839" user="Benoît C MdP">
    <nd ref="30183255"/>
    <nd ref="5994012600"/>
    <nd ref="1789061565"/>
    <nd ref="12520804453"/>
    <nd ref="12520804449"/>
    <nd ref="12520804454"/>
    <nd ref="1111763210"/>
    <nd ref="774720082"/>
    <tag k="highway" v="residential"/>
    <tag k="lit" v="yes"/>
    <tag k="maxspeed" v="30"/>
    <tag k="name" v="Rue Richard Lenoir"/>
    <tag k="name:etymology:wikidata" v="Q3085685"/>
    <tag k="oneway" v="yes"/>
    <tag k="oneway:bicycle" v="no"/>
    <tag k="sidewalk" v="separate"/>
    <tag k="smoothness" v="good"/>
    <tag k="surface" v="asphalt"/>
    <tag k="zone:maxspeed" v="FR:30"/>
  </way>
  <way id="15459915" version="18" timestamp="2024-07-20T18:19:07Z" changeset="154190879" uid="2252690" user="gourlaysama">
    <nd ref="153514849"/>
    <nd ref="2271189539"/>
    <nd ref="195864777"/>
    <nd ref="5894702609"/>
    <nd ref="5994012597"/>
    <nd ref="153515015"/>
    <tag k="cycleway:both" v="no"/>
    <tag k="highway" v="residential"/>
    <tag k="lit" v="yes"/>
    <tag k="maxspeed" v="30"/>
    <tag k="name" v="Rue Gobert"/>
    <tag k="name:etymology:wikidata" v="Q64526030"/>
    <tag k="oneway" v="yes"/>
    <tag k="oneway:bicycle" v="no"/>
    <tag k="sidewalk:both" v="separate"/>
    <tag k="smoothness" v="good"/>
    <tag k="surface" v="asphalt"/>
    <tag k="zone:maxspeed" v="FR:30"/>
  </way>
  <way id="18795734" version="18" timestamp="2024-07-20T18:19:07Z" changeset="154190879" uid="2252690" user="gourlaysama">
    <nd ref="148944851"/>
    <nd ref="2493546406"/>
    <nd ref="8850821758"/>
    <nd ref="5894702612"/>
    <nd ref="5894702607"/>
    <nd ref="5994012592"/>
    <nd ref="25034620"/>
    <tag k="cycleway:both" v="no"/>
    <tag k="highway" v="residential"/>
    <tag k="lit" v="yes"/>
    <tag k="maxspeed" v="30"/>
    <tag k="name" v="Rue de Belfort"/>
    <tag k="name:etymology:wikidata" v="Q472982"/>
    <tag k="oneway" v="yes"/>
    <tag k="oneway:bicycle" v="no"/>
    <tag k="sidewalk" v="separate"/>
    <tag k="smoothness" v="good"/>
    <tag k="surface" v="asphalt"/>
    <tag k="zone:maxspeed" v="FR:30"/>
  </way>
  <way id="18796058" version="17" timestamp="2025-03-07T23:26:12Z" changeset="163346764" uid="7550430" user="Britzz">
    <nd ref="12644382030"/>
    <nd ref="12644382026"/>
    <nd ref="194146960"/>
    <nd ref="1912479759"/>
    <nd ref="5994012593"/>
    <nd ref="25034619"/>
    <tag k="highway" v="residential"/>
    <tag k="lit" v="yes"/>
    <tag k="maxspeed" v="30"/>
    <tag k="name" v="Cité de Phalsbourg"/>
    <tag k="name:etymology:wikidata" v="Q21009429"/>
    <tag k="sidewalk" v="separate"/>
    <tag k="smoothness" v="good"/>
    <tag k="surface" v="asphalt"/>
    <tag k="zone:maxspeed" v="FR:30"/>
  </way>
  <way id="18927333" version="24" timestamp="2024-09-08T15:42:02Z" changeset="156357857" uid="53964" user="_Mathieu_">
    <nd ref="30183344"/>
    <nd ref="5994012591"/>
    <nd ref="3751397998"/>
    <nd ref="199182646"/>
    <nd ref="11056798195"/>
    <nd ref="8850821802"/>
    <nd ref="2385215220"/>
    <nd ref="30183343"/>
    <tag k="cycleway:both" v="no"/>
    <tag k="highway" v="residential"/>
    <tag k="lit" v="yes"/>
    <tag k="maxspeed" v="30"/>
    <tag k="name" v="Rue Mercœur"/>
    <tag k="name:etymology:wikidata" v="Q22274206"/>
    <tag k="oneway" v="yes"/>
    <tag k="oneway:bicycle" v="no"/>
    <tag k="sidewalk" v="separate"/>
    <tag k="smoothness" v="good"/>
    <tag k="surface" v="asphalt"/>
    <tag k="zone:maxspeed" v="FR:30"/>
  </way>
  <way id="19200516" version="17" timestamp="2024-09-08T15:44:22Z" changeset="156357857" uid="53964" user="_Mathieu_">
    <nd ref="199183487"/>
    <nd ref="5528037307"/>
    <nd ref="5528037239"/>
    <nd ref="199182646"/>
    <tag k="cycleway:both" v="no"/>
    <tag k="highway" v="residential"/>
    <tag k="lit" v="yes"/>
    <tag k="maxspeed" v="30"/>
    <tag k="name" v="Rue Auguste Laurent"/>
    <tag k="name:etymology:wikidata" v="Q766718"/>
    <tag k="oneway" v="yes"/>
    <tag k="oneway:bicycle" v="no"/>
    <tag k="sidewalk:both" v="separate"/>
    <tag k="smoothness" v="good"/>
    <tag k="surface" v="asphalt"/>
    <tag k="zone:maxspeed" v="FR:30"/>
  </way>
  <way id="19230779" version="10" timestamp="2021-11-05T13:13:55Z" changeset="113408605" uid="562805" user="MatthieuLyon69">
    <nd ref="199624817"/>
    <nd ref="1328013324"/>
    <tag k="cycleway:both" v="no"/>
    <tag k="highway" v="unclassified"/>
    <tag k="lane_markings" v="no"/>
    <tag k="maxspeed" v="30"/>
    <tag k="name" v="Passage du Bureau"/>
    <tag k="oneway" v="yes"/>
    <tag k="oneway:bicycle" v="yes"/>
    <tag k="surface" v="asphalt"/>
    <tag k="zone:maxspeed" v="FR:30"/>
  </way>
  <way id="19725416" version="17" timestamp="2024-09-21T20:37:14Z" changeset="156927887" uid="7550430" user="Britzz">
    <nd ref="205006823"/>
    <nd ref="205006636"/>
    <tag k="cycleway:both" v="no"/>
    <tag k="highway" v="unclassified"/>
    <tag k="lane_markings" v="no"/>
    <tag k="maxspeed" v="30"/>
    <tag k="name" v="Passage Courtois"/>
    <tag k="name:etymology:wikidata" v="Q618532"/>
    <tag k="sidewalk:both" v="separate"/>
    <tag k="surface" v="sett"/>
    <tag k="zone:maxspeed" v="FR:30"/>
  </way>
  <way id="19897051" version="14" timestamp="2023-07-20T13:40:51Z" changeset="138766090" uid="19622282" user="Etiennemapper5362">
    <nd ref="208759442"/>
    <nd ref="208759444"/>
    <nd ref="11056815581"/>
    <nd ref="5994012596"/>
    <nd ref="6389583850"/>
    <tag k="highway" v="residential"/>
    <tag k="lit" v="yes"/>
    <tag k="maxspeed" v="30"/>
    <tag k="name" v="Impasse Bon Secours"/>
    <tag k="smoothness" v="good"/>
    <tag k="surface" v="asphalt"/>
    <tag k="zone:maxspeed" v="FR:30"/>
  </way>
  <way id="20108910" version="49" timestamp="2024-11-25T06:24:56Z" changeset="159558677" uid="158826" user="cquest">
    <nd ref="123497817"/>
    <nd ref="12164926930"/>
    <nd ref="5904804581"/>
    <nd ref="1328012894"/>
    <nd ref="6518810594"/>
    <nd ref="152803063"/>
    <nd ref="199624817"/>
    <nd ref="1327915129"/>
    <nd ref="1589796653"/>
    <nd ref="12373023791"/>
    <nd ref="11065114204"/>
    <nd ref="1759389853"/>
    <nd ref="11065114203"/>
    <nd ref="5904804580"/>
    <nd ref="6808584825"/>
    <nd ref="153517221"/>
    <nd ref="6808546561"/>
    <nd ref="30183089"/>
    <nd ref="4371695905"/>
    <nd ref="10927013963"/>
    <nd ref="11280417706"/>
    <nd ref="1328013415"/>
    <nd ref="12264841997"/>
    <nd ref="12373037825"/>
    <nd ref="2385215265"/>
    <nd ref="30183055"/>
    <tag k="cycleway:both" v="no"/>
    <tag k="enforcement:operator" v="Police nationale"/>
    <tag k="highway" v="tertiary"/>
    <tag k="lane_markings" v="no"/>
    <tag k="lit" v="yes"/>
    <tag k="maxspeed" v="30"/>
    <tag k="maxspeed:type" v="FR:zone30"/>
    <tag k="name" v="Rue de Charonne"/>
    <tag k="name:etymology:wikidata" v="Q728591"/>
    <tag k="oneway" v="no"/>
    <tag k="operator" v="Ville de Paris"/>
    <tag k="operator:authority" v="Maire de Paris après avis du préfet de police"/>
    <tag k="operator:authority:related_law" v="IV de l'article L. 2512-14 du code général des collectivités territoriales"/>
    <tag k="operator:url" v="https://cdn.paris.fr/paris/2020/02/26/5bf469a311d0beb9911e92d113781550.ai"/>
    <tag k="sidewalk:both" v="separate"/>
    <tag k="smoothness" v="intermediate"/>
    <tag k="surface" v="asphalt"/>
    <tag k="zone:maxspeed" v="FR:30"/>
  </way>
  <way id="22987415" version="19" timestamp="2024-07-20T18:19:03Z" changeset="154190854" uid="2252690" user="gourlaysama">
    <nd ref="151362739"/>
    <nd ref="1789061623"/>
    <nd ref="1789061412"/>
    <nd ref="5749702247"/>
    <nd ref="430789"/>
    <tag k="cycleway:both" v="no"/>
    <tag k="highway" v="residential"/>
    <tag k="lit" v="yes"/>
    <tag k="maxspeed" v="30"/>
    <tag k="name" v="Rue Sedaine"/>
    <tag k="name:etymology:wikidata" v="Q367243"/>
    <tag k="oneway" v="yes"/>
    <tag k="oneway:bicycle" v="no"/>
    <tag k="sidewalk:both" v="separate"/>
    <tag k="smoothness" v="good"/>
    <tag k="source" v="survey 2013-09"/>
    <tag k="surface" v="asphalt"/>
    <tag k="zone:maxspeed" v="FR:30"/>
  </way>
  <way id="23032674" version="30" timestamp="2024-04-13T19:13:13Z" changeset="149966043" uid="6290466" user="benjamintchik">
    <nd ref="431394661"/>
    <nd ref="8900878795"/>
    <nd ref="8906420678"/>
    <nd ref="8906420676"/>
    <nd ref="8906420679"/>
    <nd ref="8900878790"/>
    <nd ref="8922483481"/>
    <nd ref="151362822"/>
    <tag k="cycleway" v="opposite"/>
    <tag k="highway" v="residential"/>
    <tag k="lit" v="yes"/>
    <tag k="maxspeed" v="30"/>
    <tag k="name" v="Rue Bréguet"/>
    <tag k="name:etymology:wikidata" v="Q123679"/>
    <tag k="name:fr" v="Rue Bréguet"/>
    <tag k="oneway" v="yes"/>
    <tag k="oneway:bicycle" v="no"/>
    <tag k="sidewalk:left" v="separate"/>
    <tag k="sidewalk:right" v="no"/>
    <tag k="surface" v="asphalt"/>
  </way>
  <way id="23032764" version="27" timestamp="2024-04-13T19:11:28Z" changeset="149966043" uid="6290466" user="benjamintchik">
    <nd ref="152739326"/>
    <nd ref="5528037508"/>
    <nd ref="4432212268"/>
    <nd ref="152739328"/>
    <tag k="cycleway:left" v="opposite"/>
    <tag k="highway" v="residential"/>
    <tag k="lit" v="yes"/>
    <tag k="maxspeed" v="30"/>
    <tag k="name" v="Rue Saint-Sabin"/>
    <tag k="name:etymology" v="Charles Pierre Angelenne de Saint-Sabin était échevin de la Ville de Paris lorsque le tracé de cette voie fut rectifié en 1777."/>
    <tag k="oneway" v="yes"/>
    <tag k="oneway:bicycle" v="no"/>
    <tag k="sidewalk:both" v="separate"/>
    <tag k="smoothness" v="good"/>
    <tag k="surface" v="asphalt"/>
    <tag k="zone:maxspeed" v="FR:30"/>
  </way>
  <way id="23235937" version="40" timestamp="2024-05-28T15:51:38Z" changeset="151951881" uid="311391" user="patman37">
    <nd ref="560855525"/>
    <nd ref="6335361962"/>
    <nd ref="6365085737"/>
    <nd ref="2284436605"/>
    <nd ref="8809447"/>
    <tag k="dual_carriageway" v="yes"/>
    <tag k="highway" v="tertiary"/>
    <tag k="lanes" v="2"/>
    <tag k="lit" v="yes"/>
    <tag k="maxspeed" v="30"/>
    <tag k="name" v="Boulevard Richard-Lenoir"/>
    <tag k="name:etymology:wikidata" v="Q3085685"/>
    <tag k="oneway" v="yes"/>
    <tag k="sidewalk:right" v="separate"/>
    <tag k="smoothness" v="good"/>
    <tag k="surface" v="asphalt"/>
  </way>
  <way id="23335193" version="18" timestamp="2024-04-13T19:15:19Z" changeset="149966043" uid="6290466" user="benjamintchik">
    <nd ref="252682718"/>
    <nd ref="5528037272"/>
    <nd ref="9896301406"/>
    <nd ref="5528037271"/>
    <nd ref="252682723"/>
    <tag k="cycleway" v="opposite"/>
    <tag k="highway" v="residential"/>
    <tag k="maxspeed" v="30"/>
    <tag k="maxspeed:type" v="FR:zone30"/>
    <tag k="name" v="Passage Charles Dallery"/>
    <tag k="name:etymology:wikidata" v="Q965957"/>
    <tag k="oneway" v="yes"/>
    <tag k="oneway:bicycle" v="no"/>
    <tag k="sidewalk" v="separate"/>
    <tag k="surface" v="asphalt"/>
  </way>
  <way id="23335202" version="14" timestamp="2024-04-13T19:17:05Z" changeset="149966043" uid="6290466" user="benjamintchik">
    <nd ref="252682761"/>
    <nd ref="5528037289"/>
    <nd ref="5528037290"/>
    <nd ref="252682762"/>
    <tag k="cycleway" v="opposite"/>
    <tag k="highway" v="residential"/>
    <tag k="lit" v="yes"/>
    <tag k="maxspeed" v="30"/>
    <tag k="name" v="Passage Rauch"/>
    <tag k="name:etymology:wikidata" v="Q618532"/>
    <tag k="oneway" v="yes"/>
    <tag k="oneway:bicycle" v="no"/>
    <tag k="sidewalk" v="separate"/>
    <tag k="surface" v="asphalt"/>
    <tag k="zone:maxspeed" v="FR:30"/>
  </way>
  <way id="23695693" version="28" timestamp="2024-09-08T15:42:11Z" changeset="156357857" uid="53964" user="_Mathieu_">
    <nd ref="30183253"/>
    <nd ref="2250942922"/>
    <nd ref="2493546358"/>
    <nd ref="34096462"/>
    <nd ref="34151758"/>
    <nd ref="2493546474"/>
    <nd ref="2250942931"/>
    <nd ref="34097214"/>
    <nd ref="2250942934"/>
    <nd ref="1789062118"/>
    <nd ref="34674540"/>
    <nd ref="1789062095"/>
    <nd ref="1789062098"/>
    <nd ref="34097216"/>
    <nd ref="34097217"/>
    <nd ref="52842207"/>
    <nd ref="52842211"/>
    <nd ref="1789061560"/>
    <nd ref="34097218"/>
    <nd ref="1944211198"/>
    <nd ref="34097219"/>
    <nd ref="2250942951"/>
    <nd ref="34097220"/>
    <nd ref="1290926661"/>
    <nd ref="2250943040"/>
    <nd ref="2250943053"/>
    <nd ref="9901902690"/>
    <nd ref="25034650"/>
    <tag k="cycleway:both" v="no"/>
    <tag k="highway" v="residential"/>
    <tag k="lit" v="yes"/>
    <tag k="maxspeed" v="30"/>
    <tag k="name" v="Rue Saint-Maur"/>
    <tag k="name:etymology:wikidata" v="Q2820692"/>
    <tag k="oneway" v="yes"/>
    <tag k="oneway:bicycle" v="no"/>
    <tag k="sidewalk" v="separate"/>
    <tag k="smoothness" v="good"/>
    <tag k="surface" v="asphalt"/>
    <tag k="zone:maxspeed" v="FR:30"/>
  </way>
  <way id="23695696" version="16" timestamp="2024-04-27T05:49:53Z" changeset="150564672" uid="6290466" user="benjamintchik">
    <nd ref="30183343"/>
    <nd ref="3170506496"/>
    <nd ref="5116972778"/>
    <tag k="cycleway" v="opposite"/>
    <tag k="highway" v="residential"/>
    <tag k="lit" v="yes"/>
    <tag k="maxspeed" v="30"/>
    <tag k="name" v="Rue Léon Frot"/>
    <tag k="name:etymology:wikidata" v="Q3270971"/>
    <tag k="oneway" v="yes"/>
    <tag k="oneway:bicycle" v="no"/>
    <tag k="sidewalk" v="separate"/>
    <tag k="smoothness" v="good"/>
    <tag k="surface" v="asphalt"/>
    <tag k="zone:maxspeed" v="FR:30"/>
  </way>
  <way id="23695697" version="23" timestamp="2024-09-08T15:40:11Z" changeset="156357857" uid="53964" user="_Mathieu_">
    <nd ref="30183055"/>
    <nd ref="1307325782"/>
    <nd ref="43880829"/>
    <nd ref="2493546494"/>
    <nd ref="195393628"/>
    <nd ref="43880810"/>
    <nd ref="2493546351"/>
    <nd ref="153516060"/>
    <nd ref="205006637"/>
    <nd ref="2493546391"/>
    <nd ref="148944851"/>
    <nd ref="2493546395"/>
    <nd ref="2385215113"/>
    <nd ref="30183343"/>
    <tag k="cycleway:both" v="no"/>
    <tag k="highway" v="residential"/>
    <tag k="lit" v="yes"/>
    <tag k="maxspeed" v="30"/>
    <tag k="name" v="Rue Léon Frot"/>
    <tag k="name:etymology:wikidata" v="Q3270971"/>
    <tag k="oneway" v="yes"/>
    <tag k="oneway:bicycle" v="no"/>
    <tag k="sidewalk:both" v="separate"/>
    <tag k="smoothness" v="good"/>
    <tag k="surface" v="asphalt"/>
    <tag k="zone:maxspeed" v="FR:30"/>
  </way>
  <way id="23803840" version="12" timestamp="2023-12-19T16:48:55Z" changeset="145299569" uid="1424448" user="nlehuby">
    <nd ref="257936405"/>
    <nd ref="2385215291"/>
    <nd ref="257936406"/>
    <tag k="cycleway:both" v="no"/>
    <tag k="highway" v="residential"/>
    <tag k="lit" v="yes"/>
    <tag k="maxspeed" v="30"/>
    <tag k="name" v="Impasse Delaunay"/>
    <tag k="sidewalk" v="separate"/>
    <tag k="surface" v="sett"/>
  </way>
  <way id="23866393" version="24" timestamp="2024-10-08T09:39:28Z" changeset="157617253" uid="3834000" user="cartoleo">
    <nd ref="148944645"/>
    <nd ref="2385215263"/>
    <nd ref="3622388824"/>
    <nd ref="3923272326"/>
    <nd ref="2385215343"/>
    <nd ref="148944518"/>
    <nd ref="2385215207"/>
    <nd ref="8199026429"/>
    <nd ref="258677333"/>
    <nd ref="1789062093"/>
    <nd ref="34632755"/>
    <tag k="cycleway:both" v="no"/>
    <tag k="highway" v="residential"/>
    <tag k="lit" v="yes"/>
    <tag k="maxspeed" v="30"/>
    <tag k="name" v="Rue Merlin"/>
    <tag k="name:etymology:wikidata" v="Q1550536"/>
    <tag k="oneway" v="yes"/>
    <tag k="oneway:bicycle" v="no"/>
    <tag k="sidewalk:both" v="separate"/>
    <tag k="smoothness" v="good"/>
    <tag k="surface" v="asphalt"/>
    <tag k="zone:maxspeed" v="FR:30"/>
  </way>
  <way id="23866431" version="18" timestamp="2024-10-08T09:39:47Z" changeset="157617253" uid="3834000" user="cartoleo">
    <nd ref="258676368"/>
    <nd ref="687890802"/>
    <nd ref="2385215150"/>
    <nd ref="11056798184"/>
    <nd ref="258675828"/>
    <tag k="cycleway" v="opposite"/>
    <tag k="highway" v="residential"/>
    <tag k="lanes" v="1"/>
    <tag k="lit" v="yes"/>
    <tag k="maxspeed" v="30"/>
    <tag k="name" v="Passage de la Folie-Regnault"/>
    <tag k="name:etymology" v="lieu-dit"/>
    <tag k="oneway" v="yes"/>
    <tag k="oneway:bicycle" v="no"/>
    <tag k="sidewalk" v="separate"/>
    <tag k="smoothness" v="intermediate"/>
    <tag k="surface" v="sett"/>
    <tag k="zone:maxspeed" v="FR:30"/>
  </way>
  <way id="23866454" version="15" timestamp="2024-09-08T15:42:58Z" changeset="156357857" uid="53964" user="_Mathieu_">
    <nd ref="258677333"/>
    <nd ref="8199026428"/>
    <nd ref="8199026431"/>
    <nd ref="258676899"/>
    <tag k="cycleway:both" v="no"/>
    <tag k="highway" v="residential"/>
    <tag k="lit" v="yes"/>
    <tag k="maxspeed" v="30"/>
    <tag k="name" v="Rue Omer Talon"/>
    <tag k="name:etymology:wikidata" v="Q3352009"/>
    <tag k="oneway" v="yes"/>
    <tag k="oneway:bicycle" v="no"/>
    <tag k="sidewalk:both" v="separate"/>
    <tag k="surface" v="asphalt"/>
    <tag k="zone:maxspeed" v="FR:30"/>
  </way>
  <way id="23866656" version="16" timestamp="2024-09-08T15:41:37Z" changeset="156357857" uid="53964" user="_Mathieu_">
    <nd ref="205006634"/>
    <nd ref="2385215094"/>
    <nd ref="8199026437"/>
    <nd ref="205006636"/>
    <tag k="cycleway:both" v="no"/>
    <tag k="highway" v="residential"/>
    <tag k="lit" v="yes"/>
    <tag k="maxspeed" v="30"/>
    <tag k="name" v="Passage Courtois"/>
    <tag k="name:etymology:wikidata" v="Q618532"/>
    <tag k="oneway" v="yes"/>
    <tag k="oneway:bicycle" v="no"/>
    <tag k="sidewalk" v="separate"/>
    <tag k="surface" v="sett"/>
    <tag k="zone:maxspeed" v="FR:30"/>
  </way>
  <way id="24660608" version="32" timestamp="2024-08-15T17:26:47Z" changeset="155294126" uid="11963177" user="JeroenvanderGun">
    <nd ref="367917324"/>
    <nd ref="8895505763"/>
    <nd ref="1789061420"/>
    <nd ref="5528037310"/>
    <nd ref="650854445"/>
    <nd ref="1789061432"/>
    <nd ref="430789"/>
    <nd ref="1789062102"/>
    <nd ref="1789061644"/>
    <nd ref="430788"/>
    <tag k="cycleway:both" v="separate"/>
    <tag k="enforcement:operator" v="Police nationale"/>
    <tag k="highway" v="secondary"/>
    <tag k="lanes" v="2"/>
    <tag k="lanes:backward" v="1"/>
    <tag k="lanes:forward" v="1"/>
    <tag k="lit" v="yes"/>
    <tag k="maxspeed" v="30"/>
    <tag k="name" v="Boulevard Voltaire"/>
    <tag k="name:etymology:wikidata" v="Q9068"/>
    <tag k="operator" v="Ville de Paris"/>
    <tag k="operator:authority" v="Maire de Paris après avis du préfet de police"/>
    <tag k="operator:authority:related_law" v="IV de l'article L. 2512-14 du code général des collectivités territoriales"/>
    <tag k="operator:url" v="https://cdn.paris.fr/paris/2020/02/26/5bf469a311d0beb9911e92d113781550.ai"/>
    <tag k="sidewalk:both" v="separate"/>
    <tag k="smoothness" v="good"/>
    <tag k="surface" v="asphalt"/>
  </way>
  <way id="24721137" version="28" timestamp="2024-02-22T07:21:59Z" changeset="147760119" uid="12287265" user="bilbosquet">
    <nd ref="10089762252"/>
    <nd ref="6210867744"/>
    <nd ref="6227595169"/>
    <nd ref="6227595170"/>
    <nd ref="10244782457"/>
    <tag k="cycleway:left" v="no"/>
    <tag k="cycleway:right" v="separate"/>
    <tag k="highway" v="primary_link"/>
    <tag k="lanes" v="3"/>
    <tag k="lit" v="yes"/>
    <tag k="maxspeed" v="30"/>
    <tag k="name" v="Boulevard de Ménilmontant"/>
    <tag k="name:etymology:wikidata" v="Q2701404"/>
    <tag k="oneway" v="yes"/>
    <tag k="sidewalk" v="separate"/>
    <tag k="smoothness" v="good"/>
    <tag k="source:maxspeed" v="FR:urban"/>
    <tag k="surface" v="asphalt"/>
  </way>
  <way id="29731544" version="19" timestamp="2024-08-10T06:04:25Z" changeset="155048101" uid="17330386" user="FloBob">
    <nd ref="8809439"/>
    <nd ref="5528037475"/>
    <nd ref="573449948"/>
    <nd ref="5528037477"/>
    <tag k="cycleway:both" v="no"/>
    <tag k="highway" v="residential"/>
    <tag k="lit" v="yes"/>
    <tag k="maxspeed" v="30"/>
    <tag k="name" v="Rue du Commandant Lamy"/>
    <tag k="name:etymology:wikidata" v="Q353572"/>
    <tag k="oneway" v="yes"/>
    <tag k="oneway:bicycle" v="no"/>
    <tag k="sidewalk:both" v="separate"/>
    <tag k="sidewalk:both:surface" v="asphalt"/>
    <tag k="smoothness" v="good"/>
    <tag k="surface" v="asphalt"/>
  </way>
  <way id="29873622" version="54" timestamp="2025-03-09T09:26:08Z" changeset="163392053" uid="7550430" user="Britzz">
    <nd ref="30183255"/>
    <nd ref="1789061701"/>
    <nd ref="1326727505"/>
    <nd ref="5528037240"/>
    <nd ref="30183344"/>
    <nd ref="5894702613"/>
    <nd ref="5894702606"/>
    <nd ref="25034620"/>
    <nd ref="11065114062"/>
    <nd ref="5894702610"/>
    <nd ref="153515015"/>
    <nd ref="12279462017"/>
    <nd ref="5894702608"/>
    <nd ref="367903104"/>
    <nd ref="2385215134"/>
    <nd ref="25034619"/>
    <nd ref="6389583850"/>
    <nd ref="11065114135"/>
    <nd ref="2665180182"/>
    <tag k="cycleway:both" v="separate"/>
    <tag k="enforcement:operator" v="Police nationale"/>
    <tag k="highway" v="secondary"/>
    <tag k="lanes" v="2"/>
    <tag k="lit" v="yes"/>
    <tag k="maxspeed" v="30"/>
    <tag k="name" v="Boulevard Voltaire"/>
    <tag k="name:etymology:wikidata" v="Q9068"/>
    <tag k="operator" v="Ville de Paris"/>
    <tag k="operator:authority" v="Maire de Paris après avis du préfet de police"/>
    <tag k="operator:authority:related_law" v="IV de l'article L. 2512-14 du code général des collectivités territoriales"/>
    <tag k="operator:url" v="https://cdn.paris.fr/paris/2020/02/26/5bf469a311d0beb9911e92d113781550.ai"/>
    <tag k="sidewalk:both" v="separate"/>
    <tag k="smoothness" v="good"/>
    <tag k="surface" v="asphalt"/>
  </way>
  <way id="30212827" version="13" timestamp="2024-09-08T15:44:16Z" changeset="156357857" uid="53964" user="_Mathieu_">
    <nd ref="332951231"/>
    <nd ref="5528037303"/>
    <nd ref="332951211"/>
    <tag k="cycleway:both" v="no"/>
    <tag k="highway" v="residential"/>
    <tag k="lit" v="yes"/>
    <tag k="maxspeed" v="30"/>
    <tag k="maxweight" v="3.5"/>
    <tag k="name" v="Cité Industrielle"/>
    <tag k="name:etymology:wikidata" v="Q187939"/>
    <tag k="narrow" v="yes"/>
    <tag k="sidewalk" v="separate"/>
    <tag k="surface" v="asphalt"/>
  </way>
  <way id="32695817" version="16" timestamp="2024-04-13T19:14:30Z" changeset="149966043" uid="6290466" user="benjamintchik">
    <nd ref="367916799"/>
    <nd ref="1789062027"/>
    <nd ref="6092407611"/>
    <tag k="highway" v="residential"/>
    <tag k="lit" v="yes"/>
    <tag k="maxspeed" v="30"/>
    <tag k="name" v="Rue de la Roquette"/>
    <tag k="name:etymology:wikidata" v="Q3413209"/>
    <tag k="oneway" v="yes"/>
    <tag k="sidewalk" v="separate"/>
    <tag k="surface" v="asphalt"/>
  </way>
  <way id="32695939" version="28" timestamp="2024-11-25T06:24:56Z" changeset="159558677" uid="158826" user="cquest">
    <nd ref="621326844"/>
    <nd ref="5939231955"/>
    <nd ref="8895505766"/>
    <nd ref="12373037900"/>
    <nd ref="8895505770"/>
    <nd ref="30183255"/>
    <tag k="cycleway:both" v="separate"/>
    <tag k="enforcement:operator" v="Police nationale"/>
    <tag k="highway" v="secondary"/>
    <tag k="lanes" v="2"/>
    <tag k="lit" v="yes"/>
    <tag k="maxspeed" v="30"/>
    <tag k="name" v="Boulevard Voltaire"/>
    <tag k="name:etymology:wikidata" v="Q9068"/>
    <tag k="operator" v="Ville de Paris"/>
    <tag k="operator:authority" v="Maire de Paris après avis du préfet de police"/>
    <tag k="operator:authority:related_law" v="IV de l'article L. 2512-14 du code général des collectivités territoriales"/>
    <tag k="operator:url" v="https://cdn.paris.fr/paris/2020/02/26/5bf469a311d0beb9911e92d113781550.ai"/>
    <tag k="sidewalk:both" v="separate"/>
    <tag k="smoothness" v="good"/>
    <tag k="surface" v="asphalt"/>
  </way>
  <way id="32696078" version="20" timestamp="2024-04-13T19:12:34Z" changeset="149966043" uid="6290466" user="benjamintchik">
    <nd ref="252682762"/>
    <nd ref="11295465629"/>
    <nd ref="5878425005"/>
    <nd ref="5528037268"/>
    <nd ref="130099806"/>
    <tag k="cycleway" v="opposite"/>
    <tag k="highway" v="residential"/>
    <tag k="lane_markings" v="no"/>
    <tag k="lit" v="yes"/>
    <tag k="maxspeed" v="20"/>
    <tag k="name" v="Rue Basfroi"/>
    <tag k="name:etymology" v="lieu-dit"/>
    <tag k="oneway" v="yes"/>
    <tag k="oneway:bicycle" v="no"/>
    <tag k="sidewalk" v="separate"/>
    <tag k="source:maxspeed" v="sign"/>
    <tag k="surface" v="asphalt"/>
  </way>
  <way id="34491578" version="17" timestamp="2024-09-08T15:42:33Z" changeset="156357857" uid="53964" user="_Mathieu_">
    <nd ref="34096777"/>
    <nd ref="1789062091"/>
    <nd ref="34096776"/>
    <nd ref="5528037299"/>
    <nd ref="2250942929"/>
    <nd ref="34096774"/>
    <nd ref="2250942927"/>
    <nd ref="6190626978"/>
    <nd ref="2250942918"/>
    <nd ref="6190625873"/>
    <tag k="cycleway:both" v="no"/>
    <tag k="highway" v="residential"/>
    <tag k="lit" v="yes"/>
    <tag k="maxspeed" v="30"/>
    <tag k="name" v="Rue Pétion"/>
    <tag k="name:etymology:wikidata" v="Q947901"/>
    <tag k="oneway" v="yes"/>
    <tag k="oneway:bicycle" v="no"/>
    <tag k="sidewalk" v="separate"/>
    <tag k="surface" v="asphalt"/>
    <tag k="zone:maxspeed" v="FR:30"/>
  </way>
  <way id="37095779" version="19" timestamp="2024-09-22T11:25:02Z" changeset="156946503" uid="13118161" user="orhapsodos">
    <nd ref="5528037494"/>
    <nd ref="152739363"/>
    <nd ref="5528037492"/>
    <nd ref="5528037427"/>
    <nd ref="34632819"/>
    <tag k="dual_carriageway" v="yes"/>
    <tag k="highway" v="tertiary"/>
    <tag k="lane_markings" v="no"/>
    <tag k="lit" v="yes"/>
    <tag k="maxspeed" v="30"/>
    <tag k="name" v="Boulevard Richard-Lenoir"/>
    <tag k="name:etymology:wikidata" v="Q3085685"/>
    <tag k="oneway" v="yes"/>
    <tag k="sidewalk:both" v="separate"/>
    <tag k="smoothness" v="good"/>
    <tag k="surface" v="asphalt"/>
  </way>
  <way id="37576625" version="16" timestamp="2024-02-20T18:19:45Z" changeset="147702158" uid="6290466" user="benjamintchik">
    <nd ref="148944849"/>
    <nd ref="2385215312"/>
    <nd ref="2385215218"/>
    <nd ref="148945054"/>
    <nd ref="2385215078"/>
    <nd ref="148945037"/>
    <nd ref="1300983785"/>
    <nd ref="2385215340"/>
    <nd ref="148944692"/>
    <tag k="alt_name" v="Rue de la Folie-Régnault"/>
    <tag k="cycleway" v="opposite"/>
    <tag k="highway" v="residential"/>
    <tag k="lit" v="yes"/>
    <tag k="maxspeed" v="30"/>
    <tag k="name" v="Rue de la Folie Regnault"/>
    <tag k="name:etymology" v="un lieu-dit"/>
    <tag k="oneway" v="yes"/>
    <tag k="oneway:bicycle" v="no"/>
    <tag k="sidewalk:both" v="separate"/>
    <tag k="surface" v="asphalt"/>
    <tag k="zone:maxspeed" v="FR:30"/>
  </way>
  <way id="37576637" version="14" timestamp="2024-09-08T15:40:35Z" changeset="156357857" uid="53964" user="_Mathieu_">
    <nd ref="43880829"/>
    <nd ref="2493546342"/>
    <nd ref="1300983790"/>
    <nd ref="195393625"/>
    <nd ref="153515888"/>
    <nd ref="43880815"/>
    <tag k="cycleway:both" v="no"/>
    <tag k="highway" v="residential"/>
    <tag k="lit" v="yes"/>
    <tag k="maxspeed" v="30"/>
    <tag k="name" v="Rue Émile Lepeu"/>
    <tag k="name:etymology:wikidata" v="Q27910250"/>
    <tag k="oneway" v="yes"/>
    <tag k="oneway:bicycle" v="no"/>
    <tag k="sidewalk:both" v="separate"/>
    <tag k="surface" v="asphalt"/>
    <tag k="zone:maxspeed" v="FR:30"/>
  </way>
  <way id="37919881" version="30" timestamp="2024-08-15T17:26:47Z" changeset="155294126" uid="11963177" user="JeroenvanderGun">
    <nd ref="30183055"/>
    <nd ref="2385215105"/>
    <nd ref="257936406"/>
    <nd ref="5929567974"/>
    <nd ref="11065114137"/>
    <nd ref="6282793802"/>
    <nd ref="2665180182"/>
    <tag k="cycleway:both" v="no"/>
    <tag k="enforcement:operator" v="Police nationale"/>
    <tag k="highway" v="tertiary"/>
    <tag k="lane_markings" v="no"/>
    <tag k="lit" v="yes"/>
    <tag k="maxspeed" v="30"/>
    <tag k="name" v="Rue de Charonne"/>
    <tag k="name:etymology:wikidata" v="Q728591"/>
    <tag k="operator" v="Ville de Paris"/>
    <tag k="operator:authority" v="Maire de Paris après avis du préfet de police"/>
    <tag k="operator:authority:related_law" v="IV de l'article L. 2512-14 du code général des collectivités territoriales"/>
    <tag k="operator:url" v="https://cdn.paris.fr/paris/2020/02/26/5bf469a311d0beb9911e92d113781550.ai"/>
    <tag k="sidewalk:both" v="separate"/>
    <tag k="smoothness" v="good"/>
    <tag k="surface" v="asphalt"/>
    <tag k="zone:maxspeed" v="FR:30"/>
  </way>
  <way id="41114116" version="26" timestamp="2024-09-08T15:43:34Z" changeset="156357857" uid="53964" user="_Mathieu_">
    <nd ref="34632754"/>
    <nd ref="1789062130"/>
    <nd ref="11056798191"/>
    <nd ref="1789061746"/>
    <nd ref="34632755"/>
    <nd ref="8409395769"/>
    <nd ref="6364051938"/>
    <nd ref="11056798188"/>
    <nd ref="34632756"/>
    <nd ref="148945399"/>
    <nd ref="1789061454"/>
    <nd ref="11065322623"/>
    <nd ref="34674541"/>
    <nd ref="11065322625"/>
    <nd ref="1789061834"/>
    <nd ref="34674540"/>
    <nd ref="1789061422"/>
    <nd ref="52842194"/>
    <nd ref="1789061602"/>
    <nd ref="1789061830"/>
    <nd ref="34096777"/>
    <nd ref="1789061417"/>
    <nd ref="1789062116"/>
    <nd ref="34151805"/>
    <tag k="cycleway:both" v="no"/>
    <tag k="highway" v="tertiary"/>
    <tag k="lane_markings" v="no"/>
    <tag k="lit" v="yes"/>
    <tag k="maxspeed" v="30"/>
    <tag k="name" v="Rue du Chemin Vert"/>
    <tag k="name:etymology:wikidata" v="Q143970"/>
    <tag k="oneway" v="yes"/>
    <tag k="oneway:bicycle" v="yes"/>
    <tag k="sidewalk" v="separate"/>
    <tag k="smoothness" v="good"/>
    <tag k="source:maxspeed" v="FR:zone30"/>
    <tag k="surface" v="asphalt"/>
    <tag k="width" v="6"/>
    <tag k="zone:maxspeed" v="FR:30"/>
  </way>
  <way id="41462973" version="17" timestamp="2024-05-28T15:51:38Z" changeset="151951881" uid="311391" user="patman37">
    <nd ref="431395231"/>
    <nd ref="1498968378"/>
    <nd ref="11253108231"/>
    <nd ref="11253108232"/>
    <tag k="dual_carriageway" v="yes"/>
    <tag k="highway" v="tertiary"/>
    <tag k="lane_markings" v="no"/>
    <tag k="lit" v="yes"/>
    <tag k="maxspeed" v="30"/>
    <tag k="name" v="Boulevard Richard-Lenoir"/>
    <tag k="name:etymology:wikidata" v="Q3085685"/>
    <tag k="oneway" v="yes"/>
    <tag k="sidewalk:both" v="separate"/>
    <tag k="smoothness" v="good"/>
    <tag k="surface" v="asphalt"/>
  </way>
  <way id="43964512" version="17" timestamp="2023-12-31T12:56:12Z" changeset="145731562" uid="53964" user="_Mathieu_">
    <nd ref="8809447"/>
    <nd ref="2284436606"/>
    <nd ref="327517717"/>
    <nd ref="11295465659"/>
    <nd ref="2284436597"/>
    <nd ref="8809442"/>
    <tag k="access" v="yes"/>
    <tag k="bicycle" v="yes"/>
    <tag k="cycleway" v="opposite"/>
    <tag k="highway" v="residential"/>
    <tag k="layer" v="1"/>
    <tag k="lit" v="yes"/>
    <tag k="maxspeed" v="30"/>
    <tag k="name" v="Rue Daval"/>
    <tag k="oneway" v="yes"/>
    <tag k="oneway:bicycle" v="no"/>
    <tag k="psv" v="yes"/>
    <tag k="sidewalk:both" v="separate"/>
    <tag k="sidewalk:both:surface" v="asphalt"/>
    <tag k="smoothness" v="good"/>
    <tag k="surface" v="asphalt"/>
  </way>
  <way id="43965095" version="16" timestamp="2024-08-10T06:04:25Z" changeset="155048101" uid="17330386" user="FloBob">
    <nd ref="431394191"/>
    <nd ref="6396835977"/>
    <nd ref="6396831487"/>
    <nd ref="431394919"/>
    <nd ref="178888599"/>
    <tag k="cycleway:both" v="no"/>
    <tag k="highway" v="residential"/>
    <tag k="lit" v="yes"/>
    <tag k="maxspeed" v="30"/>
    <tag k="oneway" v="yes"/>
    <tag k="sidewalk" v="separate"/>
    <tag k="smoothness" v="good"/>
    <tag k="surface" v="asphalt"/>
  </way>
  <way id="44145488" version="18" timestamp="2024-02-11T11:51:02Z" changeset="147323884" uid="6290466" user="benjamintchik">
    <nd ref="560860390"/>
    <nd ref="687891786"/>
    <nd ref="2385215191"/>
    <nd ref="11280191030"/>
    <nd ref="560860385"/>
    <tag k="dual_carriageway" v="yes"/>
    <tag k="highway" v="secondary"/>
    <tag k="lane_markings" v="no"/>
    <tag k="lit" v="yes"/>
    <tag k="maxspeed" v="30"/>
    <tag k="name" v="Avenue Philippe Auguste"/>
    <tag k="name:etymology:wikidata" v="Q34428"/>
    <tag k="oneway" v="yes"/>
    <tag k="parking:both" v="no"/>
    <tag k="surface" v="asphalt"/>
  </way>
  <way id="44145489" version="18" timestamp="2024-02-11T11:51:02Z" changeset="147323884" uid="6290466" user="benjamintchik">
    <nd ref="560860385"/>
    <nd ref="11280191031"/>
    <nd ref="2385215085"/>
    <nd ref="687891785"/>
    <nd ref="123496677"/>
    <nd ref="11065166058"/>
    <nd ref="560860387"/>
    <tag k="dual_carriageway" v="yes"/>
    <tag k="highway" v="secondary"/>
    <tag k="lane_markings" v="no"/>
    <tag k="lit" v="yes"/>
    <tag k="maxspeed" v="30"/>
    <tag k="name" v="Avenue Philippe Auguste"/>
    <tag k="name:etymology:wikidata" v="Q34428"/>
    <tag k="oneway" v="yes"/>
    <tag k="parking:both" v="no"/>
    <tag k="sidewalk" v="separate"/>
    <tag k="surface" v="asphalt"/>
  </way>
  <way id="45188343" version="20" timestamp="2024-08-10T06:04:26Z" changeset="155048101" uid="17330386" user="FloBob">
    <nd ref="2490369942"/>
    <nd ref="8900878788"/>
    <nd ref="6335361963"/>
    <nd ref="5528037505"/>
    <nd ref="178888599"/>
    <tag k="cycleway:left" v="no"/>
    <tag k="cycleway:right" v="separate"/>
    <tag k="dual_carriageway" v="yes"/>
    <tag k="highway" v="tertiary"/>
    <tag k="lane_markings" v="no"/>
    <tag k="lit" v="yes"/>
    <tag k="maxspeed" v="30"/>
    <tag k="maxspeed:type" v="sign"/>
    <tag k="name" v="Boulevard Richard-Lenoir"/>
    <tag k="name:etymology:wikidata" v="Q3085685"/>
    <tag k="oneway" v="yes"/>
    <tag k="sidewalk" v="separate"/>
    <tag k="surface" v="asphalt"/>
    <tag k="traffic_sign" v="FR:A13a"/>
  </way>
  <way id="47282034" version="11" timestamp="2023-12-19T17:09:13Z" changeset="145300175" uid="1424448" user="nlehuby">
    <nd ref="602383486"/>
    <nd ref="5528037252"/>
    <nd ref="602383487"/>
    <nd ref="5528037249"/>
    <nd ref="602383485"/>
    <tag k="cycleway" v="opposite"/>
    <tag k="highway" v="residential"/>
    <tag k="lit" v="yes"/>
    <tag k="maxspeed" v="30"/>
    <tag k="name" v="Passage du Chemin Vert"/>
    <tag k="oneway" v="yes"/>
    <tag k="oneway:bicycle" v="no"/>
    <tag k="sidewalk" v="separate"/>
    <tag k="surface" v="asphalt"/>
  </way>
  <way id="49429177" version="16" timestamp="2024-08-10T06:04:26Z" changeset="155048101" uid="17330386" user="FloBob">
    <nd ref="8809449"/>
    <nd ref="2284436603"/>
    <nd ref="2284436608"/>
    <nd ref="8809451"/>
    <tag k="cycleway:left" v="lane"/>
    <tag k="cycleway:left:lane" v="exclusive"/>
    <tag k="cycleway:left:oneway" v="-1"/>
    <tag k="cycleway:right" v="no"/>
    <tag k="highway" v="residential"/>
    <tag k="lit" v="yes"/>
    <tag k="maxspeed" v="30"/>
    <tag k="name" v="Rue Amelot"/>
    <tag k="name:etymology:wikidata" v="Q674816"/>
    <tag k="oneway" v="yes"/>
    <tag k="oneway:bicycle" v="no"/>
    <tag k="sidewalk:both" v="separate"/>
    <tag k="smoothness" v="good"/>
    <tag k="surface" v="asphalt"/>
    <tag k="zone:maxspeed" v="FR:30"/>
  </way>
  <way id="51042848" version="21" timestamp="2024-04-13T19:10:26Z" changeset="149966043" uid="6290466" user="benjamintchik">
    <nd ref="430788"/>
    <nd ref="5749702243"/>
    <nd ref="1789062109"/>
    <nd ref="1323653839"/>
    <nd ref="11065317335"/>
    <nd ref="34632786"/>
    <nd ref="6318398830"/>
    <nd ref="5528037251"/>
    <nd ref="602383486"/>
    <nd ref="1734990328"/>
    <nd ref="5297934234"/>
    <nd ref="5528037253"/>
    <nd ref="34632784"/>
    <tag k="bicycle:lanes" v="yes|designated"/>
    <tag k="busway:right" v="lane"/>
    <tag k="cycleway:right" v="share_busway"/>
    <tag k="highway" v="tertiary"/>
    <tag k="lanes" v="2"/>
    <tag k="lit" v="yes"/>
    <tag k="maxspeed" v="30"/>
    <tag k="name" v="Rue du Chemin Vert"/>
    <tag k="name:etymology:wikidata" v="Q143970"/>
    <tag k="oneway" v="yes"/>
    <tag k="psv:lanes" v="yes|designated"/>
    <tag k="sidewalk" v="separate"/>
    <tag k="smoothness" v="good"/>
    <tag k="surface" v="asphalt"/>
    <tag k="zone:maxspeed" v="FR:30"/>
  </way>
  <way id="54952893" version="18" timestamp="2024-03-30T00:20:49Z" changeset="149332975" uid="2678738" user="fgouget">
    <nd ref="10089762252"/>
    <nd ref="10244782462"/>
    <nd ref="1789062132"/>
    <tag k="cycleway:left" v="no"/>
    <tag k="cycleway:right" v="separate"/>
    <tag k="dual_carriageway" v="yes"/>
    <tag k="highway" v="primary"/>
    <tag k="lanes" v="1"/>
    <tag k="lit" v="yes"/>
    <tag k="maxspeed" v="30"/>
    <tag k="name" v="Boulevard de Ménilmontant"/>
    <tag k="name:etymology:wikidata" v="Q2701404"/>
    <tag k="oneway" v="yes"/>
    <tag k="sidewalk:right" v="separate"/>
    <tag k="smoothness" v="good"/>
    <tag k="source" v="cadastre-dgi-fr source : Direction Générale des Impôts - Cadastre. Mise à jour : 2010"/>
    <tag k="source:maxspeed" v="FR:urban"/>
    <tag k="surface" v="asphalt"/>
  </way>
  <way id="55527630" version="19" timestamp="2024-03-03T20:43:21Z" changeset="148181185" uid="6290466" user="benjamintchik">
    <nd ref="697813609"/>
    <nd ref="5528037517"/>
    <nd ref="5528037516"/>
    <nd ref="8809451"/>
    <tag k="cycleway:both" v="no"/>
    <tag k="highway" v="residential"/>
    <tag k="lit" v="yes"/>
    <tag k="maxspeed" v="30"/>
    <tag k="name" v="Rue du Pasteur Wagner"/>
    <tag k="name:etymology:wikidata" v="Q2315416"/>
    <tag k="sidewalk:both" v="separate"/>
    <tag k="smoothness" v="good"/>
    <tag k="source" v="cadastre-dgi-fr source : Direction Générale des Impôts - Cadastre. Mise à jour : 2010"/>
    <tag k="surface" v="asphalt"/>
    <tag k="zone:maxspeed" v="FR:30"/>
  </way>
  <way id="60123428" version="8" timestamp="2024-04-27T05:37:16Z" changeset="150564672" uid="6290466" user="benjamintchik">
    <nd ref="746980321"/>
    <nd ref="746980318"/>
    <tag k="highway" v="residential"/>
    <tag k="lit" v="yes"/>
    <tag k="maxspeed" v="30"/>
    <tag k="name" v="Impasse Lamier"/>
    <tag k="name:etymology:wikidata" v="Q618532"/>
    <tag k="surface" v="sett"/>
    <tag k="zone:maxspeed" v="FR:30"/>
  </way>
  <way id="60124503" version="7" timestamp="2021-08-29T08:19:41Z" changeset="110402686" uid="158826" user="cquest">
    <nd ref="746988337"/>
    <nd ref="746988315"/>
    <tag k="highway" v="residential"/>
    <tag k="lit" v="yes"/>
    <tag k="maxspeed" v="30"/>
    <tag k="name" v="Impasse de Mont-Louis"/>
    <tag k="surface" v="sett"/>
    <tag k="zone:maxspeed" v="FR:30"/>
  </way>
  <way id="62117003" version="15" timestamp="2024-04-13T19:15:12Z" changeset="149966043" uid="6290466" user="benjamintchik">
    <nd ref="25009246"/>
    <nd ref="5528037293"/>
    <nd ref="6256111814"/>
    <nd ref="6808466031"/>
    <nd ref="430794"/>
    <tag k="cycleway" v="no"/>
    <tag k="highway" v="tertiary"/>
    <tag k="lane_markings" v="no"/>
    <tag k="lit" v="yes"/>
    <tag k="maxspeed" v="30"/>
    <tag k="name" v="Rue de Charonne"/>
    <tag k="name:etymology:wikidata" v="Q18199435"/>
    <tag k="oneway" v="yes"/>
    <tag k="oneway:bicycle" v="no"/>
    <tag k="oneway:psv" v="no"/>
    <tag k="sidewalk" v="separate"/>
    <tag k="surface" v="asphalt"/>
  </way>
  <way id="62117446" version="20" timestamp="2024-08-10T06:04:25Z" changeset="155048101" uid="17330386" user="FloBob">
    <nd ref="34632783"/>
    <nd ref="5528037431"/>
    <nd ref="11114591412"/>
    <nd ref="5528037485"/>
    <nd ref="151362823"/>
    <nd ref="5528037484"/>
    <nd ref="5528037483"/>
    <nd ref="774720074"/>
    <nd ref="152739592"/>
    <nd ref="5528037476"/>
    <tag k="cycleway:both" v="no"/>
    <tag k="highway" v="residential"/>
    <tag k="lit" v="yes"/>
    <tag k="maxspeed" v="30"/>
    <tag k="name" v="Rue Froment"/>
    <tag k="name:etymology:wikidata" v="Q1419387"/>
    <tag k="oneway" v="yes"/>
    <tag k="oneway:bicycle" v="no"/>
    <tag k="sidewalk:both" v="separate"/>
    <tag k="sidewalk:both:surface" v="asphalt"/>
    <tag k="smoothness" v="good"/>
    <tag k="surface" v="asphalt"/>
  </way>
  <way id="62117447" version="20" timestamp="2024-04-13T19:15:03Z" changeset="149966043" uid="6290466" user="benjamintchik">
    <nd ref="774720082"/>
    <nd ref="1326727744"/>
    <nd ref="8850821810"/>
    <nd ref="5746330850"/>
    <nd ref="5528037241"/>
    <nd ref="153514264"/>
    <nd ref="2271189540"/>
    <nd ref="153514849"/>
    <nd ref="2271189538"/>
    <nd ref="5528037243"/>
    <nd ref="1759389846"/>
    <tag k="cycleway:left" v="lane"/>
    <tag k="cycleway:left:lane" v="exclusive"/>
    <tag k="cycleway:left:oneway" v="-1"/>
    <tag k="cycleway:right" v="no"/>
    <tag k="highway" v="residential"/>
    <tag k="lit" v="yes"/>
    <tag k="maxspeed" v="30"/>
    <tag k="name" v="Rue Richard Lenoir"/>
    <tag k="name:etymology:wikidata" v="Q3085685"/>
    <tag k="oneway" v="yes"/>
    <tag k="oneway:bicycle" v="no"/>
    <tag k="sidewalk:both" v="separate"/>
    <tag k="smoothness" v="good"/>
    <tag k="surface" v="asphalt"/>
    <tag k="zone:maxspeed" v="FR:30"/>
  </way>
  <way id="62117448" version="15" timestamp="2025-03-12T13:56:08Z" changeset="163529232" uid="703542" user="nuitsfauves">
    <nd ref="9896301408"/>
    <nd ref="12656248196"/>
    <nd ref="11066991992"/>
    <nd ref="252682723"/>
    <tag k="highway" v="residential"/>
    <tag k="lit" v="yes"/>
    <tag k="maxspeed" v="30"/>
    <tag k="maxspeed:type" v="FR:zone30"/>
    <tag k="name" v="Passage Bullourde"/>
    <tag k="name:etymology:wikidata" v="Q618532"/>
    <tag k="oneway" v="no"/>
    <tag k="sidewalk" v="separate"/>
    <tag k="surface" v="paving_stones"/>
  </way>
  <way id="62117449" version="15" timestamp="2024-08-10T06:04:24Z" changeset="155048101" uid="17330386" user="FloBob">
    <nd ref="774720074"/>
    <nd ref="11053170868"/>
    <nd ref="1307127497"/>
    <nd ref="1307127533"/>
    <nd ref="1307127415"/>
    <nd ref="1307127466"/>
    <nd ref="11053170876"/>
    <nd ref="774720077"/>
    <tag k="cycleway:both" v="no"/>
    <tag k="highway" v="residential"/>
    <tag k="lit" v="yes"/>
    <tag k="maxspeed" v="30"/>
    <tag k="maxspeed:type" v="FR:zone30"/>
    <tag k="name" v="Passage Salarnier"/>
    <tag k="name:etymology:wikidata" v="Q618532"/>
    <tag k="oneway" v="yes"/>
    <tag k="oneway:bicycle" v="no"/>
    <tag k="sidewalk" v="no"/>
    <tag k="smoothness" v="good"/>
    <tag k="surface" v="asphalt"/>
  </way>
  <way id="62120165" version="26" timestamp="2024-09-13T06:13:19Z" changeset="156556679" uid="3834000" user="cartoleo">
    <nd ref="123497817"/>
    <nd ref="12164926921"/>
    <nd ref="6808765191"/>
    <nd ref="6808733964"/>
    <nd ref="194211512"/>
    <nd ref="6808765957"/>
    <nd ref="393178415"/>
    <nd ref="691418887"/>
    <nd ref="10589503461"/>
    <nd ref="6812824169"/>
    <nd ref="123497818"/>
    <tag k="cycleway:left" v="no"/>
    <tag k="cycleway:right" v="lane"/>
    <tag k="cycleway:right:lane" v="exclusive"/>
    <tag k="dual_carriageway" v="yes"/>
    <tag k="highway" v="primary"/>
    <tag k="lanes" v="1"/>
    <tag k="lit" v="yes"/>
    <tag k="maxspeed" v="30"/>
    <tag k="name" v="Boulevard de Charonne"/>
    <tag k="name:etymology:wikidata" v="Q728591"/>
    <tag k="oneway" v="yes"/>
    <tag k="parking:both" v="no"/>
    <tag k="sidewalk:both" v="separate"/>
    <tag k="smoothness" v="good"/>
    <tag k="source" v="cadastre-dgi-fr source : Direction Générale des Impôts - Cadastre. Mise à jour : 2010"/>
    <tag k="surface" v="asphalt"/>
  </way>
  <way id="62120166" version="15" timestamp="2024-09-08T15:41:24Z" changeset="156357857" uid="53964" user="_Mathieu_">
    <nd ref="205006636"/>
    <nd ref="11065166062"/>
    <nd ref="2493546490"/>
    <nd ref="205006637"/>
    <tag k="cycleway:both" v="no"/>
    <tag k="highway" v="residential"/>
    <tag k="lit" v="yes"/>
    <tag k="maxspeed" v="30"/>
    <tag k="name" v="Passage Courtois"/>
    <tag k="name:etymology:wikidata" v="Q618532"/>
    <tag k="oneway" v="yes"/>
    <tag k="oneway:bicycle" v="no"/>
    <tag k="sidewalk" v="separate"/>
    <tag k="surface" v="sett"/>
    <tag k="zone:maxspeed" v="FR:30"/>
  </way>
  <way id="62120167" version="13" timestamp="2024-04-27T05:37:54Z" changeset="150564672" uid="6290466" user="benjamintchik">
    <nd ref="148945036"/>
    <nd ref="2385215170"/>
    <nd ref="2385215128"/>
    <nd ref="148945037"/>
    <tag k="cycleway" v="opposite"/>
    <tag k="highway" v="residential"/>
    <tag k="lit" v="yes"/>
    <tag k="maxspeed" v="30"/>
    <tag k="name" v="Rue Félix Voisin"/>
    <tag k="name:etymology:wikidata" v="Q5511655"/>
    <tag k="oneway" v="yes"/>
    <tag k="oneway:bicycle" v="no"/>
    <tag k="sidewalk:both" v="separate"/>
    <tag k="surface" v="asphalt"/>
    <tag k="zone:maxspeed" v="FR:30"/>
  </way>
  <way id="62120496" version="13" timestamp="2025-03-07T22:47:12Z" changeset="163346150" uid="7550430" user="Britzz">
    <nd ref="148945034"/>
    <nd ref="2385215239"/>
    <nd ref="2385215334"/>
    <nd ref="30183343"/>
    <tag k="highway" v="residential"/>
    <tag k="lit" v="yes"/>
    <tag k="maxspeed" v="30"/>
    <tag k="name" v="Rue Mercœur"/>
    <tag k="name:etymology:wikidata" v="Q22274206"/>
    <tag k="oneway" v="yes"/>
    <tag k="oneway:bicycle" v="no"/>
    <tag k="sidewalk" v="separate"/>
    <tag k="smoothness" v="good"/>
    <tag k="surface" v="asphalt"/>
    <tag k="zone:maxspeed" v="FR:30"/>
  </way>
  <way id="62175165" version="15" timestamp="2024-03-03T20:43:21Z" changeset="148181185" uid="6290466" user="benjamintchik">
    <nd ref="8809451"/>
    <nd ref="6781512867"/>
    <nd ref="178888598"/>
    <nd ref="11200318052"/>
    <nd ref="5528037506"/>
    <nd ref="178888599"/>
    <tag k="cycleway:left" v="lane"/>
    <tag k="cycleway:left:lane" v="exclusive"/>
    <tag k="cycleway:left:oneway" v="-1"/>
    <tag k="cycleway:right" v="no"/>
    <tag k="highway" v="residential"/>
    <tag k="lit" v="yes"/>
    <tag k="maxspeed" v="30"/>
    <tag k="name" v="Rue du Pasteur Wagner"/>
    <tag k="name:etymology:wikidata" v="Q2315416"/>
    <tag k="oneway" v="yes"/>
    <tag k="oneway:bicycle" v="no"/>
    <tag k="sidewalk:both" v="separate"/>
    <tag k="smoothness" v="good"/>
    <tag k="source" v="cadastre-dgi-fr source : Direction Générale des Impôts - Cadastre. Mise à jour : 2010"/>
    <tag k="surface" v="asphalt"/>
    <tag k="zone:maxspeed" v="FR:30"/>
  </way>
  <way id="62359260" version="19" timestamp="2024-09-13T06:09:59Z" changeset="156556679" uid="3834000" user="cartoleo">
    <nd ref="244455587"/>
    <nd ref="6190539342"/>
    <nd ref="4962470530"/>
    <nd ref="327526390"/>
    <nd ref="6190530108"/>
    <nd ref="249580374"/>
    <nd ref="4962453969"/>
    <nd ref="2385164993"/>
    <nd ref="367986"/>
    <tag k="bicycle:lanes:forward" v="yes|designated"/>
    <tag k="busway:right" v="lane"/>
    <tag k="cycleway:right" v="share_busway"/>
    <tag k="highway" v="secondary"/>
    <tag k="lanes" v="3"/>
    <tag k="lanes:backward" v="1"/>
    <tag k="lanes:forward" v="2"/>
    <tag k="lit" v="yes"/>
    <tag k="maxspeed" v="30"/>
    <tag k="name" v="Avenue Ledru-Rollin"/>
    <tag k="name:etymology:wikidata" v="Q1382222"/>
    <tag k="psv:lanes:forward" v="yes|designated"/>
    <tag k="sidewalk" v="separate"/>
    <tag k="smoothness" v="good"/>
    <tag k="source:maxspeed" v="FR:urban"/>
    <tag k="surface" v="asphalt"/>
    <tag k="traffic:hourly" v="600"/>
    <tag k="traffic:hourly:source" v="Open Data Paris 2019 : Comptage routier - Données trafic issues des capteurs permanents"/>
  </way>
  <way id="63638147" version="7" timestamp="2023-04-19T15:38:45Z" changeset="135108957" uid="703542" user="nuitsfauves">
    <nd ref="787337815"/>
    <nd ref="787384017"/>
    <nd ref="787323522"/>
    <nd ref="787380448"/>
    <nd ref="787357186"/>
    <nd ref="787360196"/>
    <nd ref="787362810"/>
    <nd ref="787345238"/>
    <nd ref="787369182"/>
    <nd ref="787337742"/>
    <nd ref="787377839"/>
    <nd ref="1326727452"/>
    <nd ref="787398459"/>
    <nd ref="787337815"/>
    <tag k="building" v="yes"/>
    <tag k="building:levels" v="5"/>
    <tag k="name" v="Hôtel Le Petit Prince"/>
    <tag k="phone" v="+33 1 43487082"/>
    <tag k="roof:levels" v="1"/>
    <tag k="source" v="cadastre-dgi-fr source : Direction Générale des Impôts - Cadastre. Mise à jour : 2010"/>
    <tag k="tourism" v="hostel"/>
  </way>
  <way id="63638376" version="5" timestamp="2025-01-07T16:49:31Z" changeset="161103202" uid="22357385" user="Stoprat Paris">
    <nd ref="787322463"/>
    <nd ref="787363226"/>
    <nd ref="787387308"/>
    <nd ref="787348862"/>
    <nd ref="787355059"/>
    <nd ref="787351446"/>
    <nd ref="787362624"/>
    <nd ref="1301041882"/>
    <nd ref="787381752"/>
    <nd ref="787342060"/>
    <nd ref="1298883601"/>
    <nd ref="787334228"/>
    <nd ref="787322463"/>
    <tag k="addr:city" v="Paris"/>
    <tag k="addr:housenumber" v="132"/>
    <tag k="addr:postcode" v="75011"/>
    <tag k="addr:street" v="Rue du Chemin Vert"/>
    <tag k="building" v="yes"/>
    <tag k="building:levels" v="6"/>
    <tag k="name" v="Stoprat"/>
    <tag k="source" v="cadastre-dgi-fr source : Direction Générale des Impôts - Cadastre. Mise à jour : 2010;local knowledge"/>
  </way>
  <way id="63638453" version="6" timestamp="2024-06-16T12:39:40Z" changeset="152758996" uid="59866" user="Fats">
    <nd ref="787398404"/>
    <nd ref="787323829"/>
    <nd ref="787330487"/>
    <nd ref="787322323"/>
    <nd ref="787367067"/>
    <nd ref="787331944"/>
    <nd ref="787319013"/>
    <nd ref="787361055"/>
    <nd ref="787361159"/>
    <nd ref="787355040"/>
    <nd ref="787365178"/>
    <nd ref="1300983640"/>
    <nd ref="787325186"/>
    <nd ref="787398404"/>
    <tag k="addr:city" v="Paris"/>
    <tag k="addr:housenumber" v="37"/>
    <tag k="addr:postcode" v="75011"/>
    <tag k="addr:street" v="Rue Servan"/>
    <tag k="building" v="hotel"/>
    <tag k="building:levels" v="7"/>
    <tag k="name" v="Hipotel Paris Père Lachaise République"/>
    <tag k="source" v="cadastre-dgi-fr source : Direction Générale des Impôts - Cadastre. Mise à jour : 2010"/>
    <tag k="tourism" v="hotel"/>
    <tag k="website" v="https://hotel-pere-lachaise.hipotel.fr"/>
  </way>
  <way id="63638493" version="8" timestamp="2023-06-14T07:54:28Z" changeset="137315326" uid="1205555" user="benoitdd">
    <nd ref="787380341"/>
    <nd ref="10976173526"/>
    <nd ref="10976173529"/>
    <nd ref="10976173530"/>
    <nd ref="10976173527"/>
    <nd ref="787346670"/>
    <nd ref="787349470"/>
    <nd ref="1327901733"/>
    <nd ref="1327901791"/>
    <nd ref="787336663"/>
    <nd ref="787318634"/>
    <nd ref="787357574"/>
    <nd ref="1333895343"/>
    <nd ref="787380341"/>
    <tag k="amenity" v="nightclub"/>
    <tag k="building" v="apartments"/>
    <tag k="building:levels" v="2"/>
    <tag k="name" v="Pan Piper"/>
    <tag k="opening_hours" v="Mo 00:00-02:00; Fr 19:30-24:00; Sa,Su 00:00-02:00,19:30-24:00"/>
    <tag k="phone" v="+33 1 40094130"/>
    <tag k="smoking" v="dedicated"/>
    <tag k="source" v="Bing + cadastre-dgi-fr source : Direction Générale des Impôts - Cadastre. Mise à jour : 2010"/>
    <tag k="website" v="https://www.pan-piper.com/"/>
    <tag k="wheelchair" v="yes"/>
  </way>
  <way id="63639290" version="6" timestamp="2022-11-17T22:08:52Z" changeset="129061650" uid="7550430" user="Britzz">
    <nd ref="787360951"/>
    <nd ref="787337072"/>
    <nd ref="787362779"/>
    <nd ref="787348129"/>
    <nd ref="787365207"/>
    <nd ref="787338289"/>
    <nd ref="787359797"/>
    <nd ref="787384980"/>
    <nd ref="787321230"/>
    <nd ref="787348980"/>
    <nd ref="787358412"/>
    <nd ref="787326065"/>
    <nd ref="787324700"/>
    <nd ref="10198325278"/>
    <nd ref="787395663"/>
    <nd ref="1298847418"/>
    <nd ref="787360951"/>
    <tag k="amenity" v="social_facility"/>
    <tag k="building" v="yes"/>
    <tag k="name" v="Résidence d'Accueil Spécialisée Stéphane Hessel"/>
    <tag k="ref:FR:FINESS" v="750801151"/>
    <tag k="social_facility" v="group_home"/>
    <tag k="social_facility:for" v="senior"/>
    <tag k="source" v="cadastre-dgi-fr source : Direction Générale des Impôts - Cadastre. Mise à jour : 2010"/>
    <tag k="source:name" v="survey"/>
    <tag k="website" v="http://www.vivre-asso.com/residence_stephane_hessel.aspx"/>
    <tag k="wikidata" v="Q112924161"/>
  </way>
  <way id="63639456" version="9" timestamp="2020-01-18T20:22:25Z" changeset="79740580" uid="652655" user="Alexandre Devos">
    <nd ref="787332657"/>
    <nd ref="787335089"/>
    <nd ref="787387648"/>
    <nd ref="787383437"/>
    <nd ref="787347338"/>
    <nd ref="787357560"/>
    <nd ref="787334542"/>
    <nd ref="787407032"/>
    <nd ref="787342153"/>
    <nd ref="787370507"/>
    <nd ref="787359707"/>
    <nd ref="787332657"/>
    <tag k="amenity" v="fountain"/>
    <tag k="building" v="shrine"/>
    <tag k="heritage" v="3"/>
    <tag k="heritage:operator" v="mhs"/>
    <tag k="mhs:inscription_date" v="1992-11-02"/>
    <tag k="name" v="Fontaine de la Roquette"/>
    <tag k="ref:mhs" v="PA00086559"/>
    <tag k="source" v="cadastre-dgi-fr source : Direction Générale des Impôts - Cadastre. Mise à jour : 2010"/>
    <tag k="source:heritage" v="data.gouv.fr:Ministère de la Culture - 04/2015"/>
    <tag k="wikidata" v="Q3076205"/>
    <tag k="wikipedia" v="fr:Fontaine de la Roquette"/>
  </way>
  <way id="63639517" version="7" timestamp="2024-12-03T14:37:58Z" changeset="159884112" uid="598158" user="Kropotkine_113">
    <nd ref="787328880"/>
    <nd ref="787319634"/>
    <nd ref="787368814"/>
    <nd ref="787356570"/>
    <nd ref="787384286"/>
    <nd ref="787376084"/>
    <nd ref="787373729"/>
    <nd ref="787334856"/>
    <nd ref="787332485"/>
    <nd ref="787374730"/>
    <nd ref="787348393"/>
    <nd ref="787325937"/>
    <nd ref="787394472"/>
    <nd ref="787369008"/>
    <nd ref="787371867"/>
    <nd ref="787320434"/>
    <nd ref="787317945"/>
    <nd ref="787365772"/>
    <nd ref="787342947"/>
    <nd ref="787365351"/>
    <nd ref="787350475"/>
    <nd ref="787380648"/>
    <nd ref="787378802"/>
    <nd ref="787389797"/>
    <nd ref="787336851"/>
    <nd ref="787375411"/>
    <nd ref="1334007229"/>
    <nd ref="787380547"/>
    <nd ref="787326007"/>
    <nd ref="787368976"/>
    <nd ref="787335371"/>
    <nd ref="787320751"/>
    <nd ref="787351977"/>
    <nd ref="787340022"/>
    <nd ref="787328880"/>
    <tag k="amenity" v="social_facility"/>
    <tag k="building" v="yes"/>
    <tag k="building:levels" v="5"/>
    <tag k="check_date" v="2024-12-03"/>
    <tag k="name" v="Logements Léon Frot"/>
    <tag k="ref:FR:FINESS" v="750827321"/>
    <tag k="social_facility" v="group_home"/>
    <tag k="social_facility:for" v="senior"/>
    <tag k="source" v="cadastre-dgi-fr source : Direction Générale des Impôts - Cadastre. Mise à jour : 2010"/>
    <tag k="source:ref:FR:FINESS" v="data.gouv.fr:Ministère des Affaires sociales et de la Santé - 2014-05-05"/>
    <tag k="type:FR:FINESS" v="202"/>
    <tag k="wikidata" v="Q112924235"/>
  </way>
  <way id="63639757" version="6" timestamp="2023-07-27T23:23:14Z" changeset="139110687" uid="7550430" user="Britzz">
    <nd ref="787338301"/>
    <nd ref="1301074130"/>
    <nd ref="787354351"/>
    <nd ref="787318388"/>
    <nd ref="787338493"/>
    <nd ref="787365157"/>
    <nd ref="787337045"/>
    <nd ref="787337954"/>
    <nd ref="787321720"/>
    <nd ref="787334331"/>
    <nd ref="787331652"/>
    <nd ref="787385907"/>
    <nd ref="787370183"/>
    <nd ref="787398934"/>
    <nd ref="787328898"/>
    <nd ref="787330261"/>
    <nd ref="787378792"/>
    <nd ref="787333631"/>
    <nd ref="787358115"/>
    <nd ref="787378486"/>
    <nd ref="787368586"/>
    <nd ref="787322204"/>
    <nd ref="787373378"/>
    <nd ref="787368950"/>
    <nd ref="787324836"/>
    <nd ref="787333210"/>
    <nd ref="787349938"/>
    <nd ref="787363240"/>
    <nd ref="787368205"/>
    <nd ref="787367836"/>
    <nd ref="787408189"/>
    <nd ref="787364983"/>
    <nd ref="787365974"/>
    <nd ref="787367800"/>
    <nd ref="787398681"/>
    <nd ref="787334661"/>
    <nd ref="787326802"/>
    <nd ref="787354818"/>
    <nd ref="787323537"/>
    <nd ref="787341137"/>
    <nd ref="787317780"/>
    <nd ref="787319427"/>
    <nd ref="787389770"/>
    <nd ref="787381851"/>
    <nd ref="787322144"/>
    <nd ref="787371562"/>
    <nd ref="787345589"/>
    <nd ref="787318832"/>
    <nd ref="787325489"/>
    <nd ref="787348150"/>
    <nd ref="787386715"/>
    <nd ref="787324574"/>
    <nd ref="787350568"/>
    <nd ref="9828465782"/>
    <nd ref="787409473"/>
    <nd ref="787349972"/>
    <nd ref="1327901857"/>
    <nd ref="1327901534"/>
    <nd ref="1327901764"/>
    <nd ref="1327901847"/>
    <nd ref="1327901667"/>
    <nd ref="1327901620"/>
    <nd ref="11072105115"/>
    <nd ref="787361799"/>
    <nd ref="787352772"/>
    <nd ref="787350673"/>
    <nd ref="787369607"/>
    <nd ref="787338301"/>
    <tag k="building" v="apartments"/>
    <tag k="building:levels" v="8"/>
    <tag k="name" v="Résidence La Roquette"/>
    <tag k="source" v="cadastre-dgi-fr source : Direction Générale des Impôts - Cadastre. Mise à jour : 2010"/>
  </way>
  <way id="63639782" version="6" timestamp="2025-02-23T19:56:01Z" changeset="162867003" uid="7550430" user="Britzz">
    <nd ref="787395400"/>
    <nd ref="787379479"/>
    <nd ref="787345727"/>
    <nd ref="787322221"/>
    <nd ref="787395388"/>
    <nd ref="787351397"/>
    <nd ref="787409113"/>
    <nd ref="787399440"/>
    <nd ref="787349628"/>
    <nd ref="787333174"/>
    <nd ref="787371627"/>
    <nd ref="787354586"/>
    <nd ref="787327529"/>
    <nd ref="787346885"/>
    <nd ref="787353266"/>
    <nd ref="787380862"/>
    <nd ref="787387070"/>
    <nd ref="787331710"/>
    <nd ref="787338178"/>
    <nd ref="787349519"/>
    <nd ref="787382855"/>
    <nd ref="787353099"/>
    <nd ref="787350731"/>
    <nd ref="787356246"/>
    <nd ref="787332946"/>
    <nd ref="787354148"/>
    <nd ref="787319032"/>
    <nd ref="787363454"/>
    <nd ref="787395400"/>
    <tag k="alt_website" v="https://www.paris.fr/lieux/conservatoire-municipal-charles-munch-1608"/>
    <tag k="amenity" v="music_school"/>
    <tag k="building" v="yes"/>
    <tag k="name" v="Conservatoire Municipal Charles Münch"/>
    <tag k="operator" v="Ville de Paris"/>
    <tag k="operator:type" v="public"/>
    <tag k="source" v="cadastre-dgi-fr source : Direction Générale des Impôts - Cadastre. Mise à jour : 2010"/>
    <tag k="website" v="https://conservatoires.paris.fr/conservatoires/munch"/>
  </way>
  <way id="63639927" version="5" timestamp="2022-04-19T20:16:41Z" changeset="119924168" uid="1885164" user="Xandrex">
    <nd ref="787358768"/>
    <nd ref="787395717"/>
    <nd ref="787337815"/>
    <nd ref="787398459"/>
    <nd ref="1326727856"/>
    <nd ref="787358768"/>
    <tag k="addr:city" v="Paris"/>
    <tag k="addr:housenumber" v="33"/>
    <tag k="addr:postcode" v="75011"/>
    <tag k="addr:street" v="Rue Richard Lenoir"/>
    <tag k="building" v="yes"/>
    <tag k="building:levels" v="4"/>
    <tag k="source" v="cadastre-dgi-fr source : Direction Générale des Impôts - Cadastre. Mise à jour : 2010"/>
  </way>
  <way id="63639989" version="8" timestamp="2022-11-25T17:46:22Z" changeset="129377755" uid="172867" user="AmiFritz">
    <nd ref="787363725"/>
    <nd ref="787328512"/>
    <nd ref="787322587"/>
    <nd ref="787370527"/>
    <nd ref="787353085"/>
    <nd ref="787389619"/>
    <nd ref="787344248"/>
    <nd ref="1312774904"/>
    <nd ref="787377043"/>
    <nd ref="787333582"/>
    <nd ref="787363725"/>
    <tag k="amenity" v="theatre"/>
    <tag k="building" v="yes"/>
    <tag k="building:levels" v="3"/>
    <tag k="contact:city" v="Paris"/>
    <tag k="contact:housenumber" v="5"/>
    <tag k="contact:phone" v="+33 1 47 00 57 59"/>
    <tag k="contact:postcode" v="75011"/>
    <tag k="contact:street" v="Passage Louis-Philippe"/>
    <tag k="contact:website" v="https://www.cafedeladanse.com/"/>
    <tag k="description" v="Salle de 500 places située près de Bastille à Paris, le Café de la Danse propose des spectacles, des concerts et des évènements depuis 1992."/>
    <tag k="name" v="Café de la Danse"/>
    <tag k="source" v="cadastre-dgi-fr source : Direction Générale des Impôts - Cadastre. Mise à jour : 2010"/>
    <tag k="wikidata" v="Q2932984"/>
  </way>
  <way id="63640089" version="9" timestamp="2024-12-01T19:50:50Z" changeset="159818221" uid="5670825" user="Christophe Raverdy">
    <nd ref="787362749"/>
    <nd ref="787353443"/>
    <nd ref="787385856"/>
    <nd ref="787375559"/>
    <nd ref="787321891"/>
    <nd ref="1307259129"/>
    <nd ref="1307259054"/>
    <nd ref="787405122"/>
    <nd ref="787381797"/>
    <nd ref="787333491"/>
    <nd ref="787402121"/>
    <nd ref="787384170"/>
    <nd ref="10001469944"/>
    <nd ref="10001469946"/>
    <nd ref="787365174"/>
    <nd ref="787350819"/>
    <nd ref="787378834"/>
    <nd ref="787346878"/>
    <nd ref="787362749"/>
    <tag k="amenity" v="place_of_worship"/>
    <tag k="architect" v="Arthur-Georges Héaume;Alexandre Persitz;René Sarger"/>
    <tag k="architect:wikidata" v="Q22211462;Q22826541;Q15783549"/>
    <tag k="architect:wikipedia" v="fr:Arthur-Georges Héaume"/>
    <tag k="building" v="synagogue"/>
    <tag k="building:levels" v="3"/>
    <tag k="check_date" v="2024-12-01"/>
    <tag k="name" v="Synagogue Don Isaac Abravanel"/>
    <tag k="note" v="Labellisé Architecture contemporaine remarquable ACR0000693"/>
    <tag k="religion" v="jewish"/>
    <tag k="source" v="cadastre-dgi-fr source : Direction Générale des Impôts - Cadastre. Mise à jour : 2010"/>
    <tag k="source:architect" v="data.culture.gouv.fr:Ministère de la Culture - Direction générale du Patrimoine et de l’Architecture - 2021-05"/>
    <tag k="start_date" v="1974"/>
    <tag k="wikidata" v="Q1663837"/>
    <tag k="wikipedia" v="fr:Synagogue Don Isaac Abravanel"/>
  </way>
  <way id="63640142" version="10" timestamp="2024-08-26T20:47:33Z" changeset="155802190" uid="7550430" user="Britzz">
    <nd ref="787349694"/>
    <nd ref="787326500"/>
    <nd ref="787365192"/>
    <nd ref="787388456"/>
    <nd ref="787324306"/>
    <nd ref="787370136"/>
    <nd ref="787319037"/>
    <nd ref="787323809"/>
    <nd ref="787350874"/>
    <nd ref="787403216"/>
    <nd ref="787333247"/>
    <nd ref="787334059"/>
    <nd ref="787366713"/>
    <nd ref="5792383087"/>
    <nd ref="787348531"/>
    <nd ref="1334020486"/>
    <nd ref="787371334"/>
    <nd ref="787349694"/>
    <tag k="addr:city" v="Paris"/>
    <tag k="addr:housenumber" v="69"/>
    <tag k="addr:postcode" v="75011"/>
    <tag k="addr:street" v="Rue Léon Frot"/>
    <tag k="building" v="apartments"/>
    <tag k="building:levels" v="6"/>
    <tag k="source" v="cadastre-dgi-fr source : Direction Générale des Impôts - Cadastre. Mise à jour : 2010"/>
  </way>
  <way id="63640471" version="7" timestamp="2021-12-12T17:45:34Z" changeset="114854024" uid="7550430" user="Britzz">
    <nd ref="1589796651"/>
    <nd ref="787361609"/>
    <nd ref="787396227"/>
    <nd ref="787384643"/>
    <nd ref="787359613"/>
    <nd ref="9332444945"/>
    <nd ref="787330758"/>
    <nd ref="787368613"/>
    <nd ref="787327513"/>
    <nd ref="1328013376"/>
    <nd ref="787327138"/>
    <nd ref="787359687"/>
    <nd ref="1328013588"/>
    <nd ref="1328013451"/>
    <nd ref="787365935"/>
    <nd ref="787355151"/>
    <nd ref="787351635"/>
    <nd ref="787330720"/>
    <nd ref="787392414"/>
    <nd ref="787349393"/>
    <nd ref="787390169"/>
    <nd ref="787331642"/>
    <nd ref="787370851"/>
    <nd ref="1589796651"/>
    <tag k="addr:city" v="Paris"/>
    <tag k="addr:housenumber" v="177"/>
    <tag k="addr:postcode" v="75011"/>
    <tag k="addr:street" v="Rue de Charonne"/>
    <tag k="building" v="apartments"/>
    <tag k="building:levels" v="1"/>
    <tag k="name" v="Ageca"/>
    <tag k="smoking" v="outside"/>
    <tag k="source" v="cadastre-dgi-fr source : Direction Générale des Impôts - Cadastre. Mise à jour : 2010"/>
  </way>
  <way id="63640725" version="16" timestamp="2023-01-28T16:48:03Z" changeset="131814935" uid="7550430" user="Britzz">
    <nd ref="787379070"/>
    <nd ref="787334552"/>
    <nd ref="787405547"/>
    <nd ref="787392193"/>
    <nd ref="787367929"/>
    <nd ref="787361338"/>
    <nd ref="787351601"/>
    <nd ref="787353947"/>
    <nd ref="787362303"/>
    <nd ref="787322805"/>
    <nd ref="787383669"/>
    <nd ref="787333609"/>
    <nd ref="787354786"/>
    <nd ref="787347399"/>
    <nd ref="787376980"/>
    <nd ref="787374182"/>
    <nd ref="787365229"/>
    <nd ref="787406733"/>
    <nd ref="787324247"/>
    <nd ref="787359125"/>
    <nd ref="787409083"/>
    <nd ref="787349265"/>
    <nd ref="787351511"/>
    <nd ref="787355238"/>
    <nd ref="787395289"/>
    <nd ref="2880591794"/>
    <nd ref="787342925"/>
    <nd ref="787344444"/>
    <nd ref="787335016"/>
    <nd ref="787359879"/>
    <nd ref="787404203"/>
    <nd ref="787351544"/>
    <nd ref="787361173"/>
    <nd ref="787359874"/>
    <nd ref="787336037"/>
    <nd ref="787363363"/>
    <nd ref="787398648"/>
    <nd ref="787386834"/>
    <nd ref="787372716"/>
    <nd ref="787337668"/>
    <nd ref="787361991"/>
    <nd ref="787344646"/>
    <nd ref="787319629"/>
    <nd ref="787359417"/>
    <nd ref="787330810"/>
    <nd ref="787317539"/>
    <nd ref="787328974"/>
    <nd ref="787340514"/>
    <nd ref="787333984"/>
    <nd ref="787319070"/>
    <nd ref="787405320"/>
    <nd ref="787325331"/>
    <nd ref="787352898"/>
    <nd ref="787381380"/>
    <nd ref="787340557"/>
    <nd ref="787365687"/>
    <nd ref="787396179"/>
    <nd ref="787369520"/>
    <nd ref="10589315309"/>
    <nd ref="2880591790"/>
    <nd ref="787397615"/>
    <nd ref="787379070"/>
    <tag k="addr:city" v="Paris"/>
    <tag k="addr:housenumber" v="55"/>
    <tag k="addr:postcode" v="75011"/>
    <tag k="addr:street" v="Boulevard de Ménilmontant"/>
    <tag k="amenity" v="place_of_worship"/>
    <tag k="basilica" v="minor"/>
    <tag k="building" v="church"/>
    <tag k="building:levels" v="4"/>
    <tag k="denomination" v="catholic"/>
    <tag k="name" v="Basilique Notre-Dame du Perpétuel Secours"/>
    <tag k="opening_hours" v="Mo 09:00-20:00; Tu-Fr 07:30-20:00; Sa 08:30-19:00; Su 09:00-20:00"/>
    <tag k="ref:FR:CEF" v="75111_02"/>
    <tag k="religion" v="christian"/>
    <tag k="service_times" v="Tu-Sa 12:00; Su 09:00, 10:30, 19:00"/>
    <tag k="source" v="cadastre-dgi-fr source : Direction Générale des Impôts - Cadastre. Mise à jour : 2010"/>
    <tag k="website" v="https://basilique-ndps.fr/infos-pratiques/"/>
    <tag k="wikidata" v="Q1030135"/>
    <tag k="wikipedia" v="fr:Basilique Notre-Dame-du-Perpétuel-Secours"/>
  </way>
  <way id="63640869" version="6" timestamp="2025-03-30T16:59:39Z" changeset="164296056" uid="7550430" user="Britzz">
    <nd ref="787376463"/>
    <nd ref="787392426"/>
    <nd ref="787402621"/>
    <nd ref="787353044"/>
    <nd ref="12714087591"/>
    <nd ref="787408240"/>
    <nd ref="787323946"/>
    <nd ref="787382954"/>
    <nd ref="787332004"/>
    <nd ref="787329897"/>
    <nd ref="787333158"/>
    <nd ref="787356322"/>
    <nd ref="787359358"/>
    <nd ref="787379182"/>
    <nd ref="787359051"/>
    <nd ref="787331903"/>
    <nd ref="787348018"/>
    <nd ref="787352178"/>
    <nd ref="787335522"/>
    <nd ref="787332963"/>
    <nd ref="787404428"/>
    <nd ref="787369036"/>
    <nd ref="787345031"/>
    <nd ref="787333293"/>
    <nd ref="787390113"/>
    <nd ref="787376463"/>
    <tag k="addr:housenumber" v="11"/>
    <tag k="addr:street" v="Rue Mercœur"/>
    <tag k="building" v="apartments"/>
    <tag k="building:levels" v="9"/>
    <tag k="source" v="cadastre-dgi-fr source : Direction Générale des Impôts - Cadastre. Mise à jour : 2010"/>
  </way>
  <way id="63641010" version="13" timestamp="2023-08-14T15:42:32Z" changeset="139877746" uid="318821" user="Yod4z">
    <nd ref="787349691"/>
    <nd ref="787344051"/>
    <nd ref="787353236"/>
    <nd ref="787400281"/>
    <nd ref="787370855"/>
    <nd ref="787320602"/>
    <nd ref="787369958"/>
    <nd ref="787334959"/>
    <nd ref="787399483"/>
    <nd ref="1313543594"/>
    <nd ref="1313543587"/>
    <nd ref="787346286"/>
    <nd ref="787343280"/>
    <nd ref="787383154"/>
    <nd ref="787373041"/>
    <nd ref="787402798"/>
    <nd ref="787327385"/>
    <nd ref="787323055"/>
    <nd ref="787348711"/>
    <nd ref="11114591404"/>
    <nd ref="787372435"/>
    <nd ref="787330678"/>
    <nd ref="787334631"/>
    <nd ref="1307180117"/>
    <nd ref="787387141"/>
    <nd ref="787334903"/>
    <nd ref="787337169"/>
    <nd ref="11114591376"/>
    <nd ref="11114591377"/>
    <nd ref="787356054"/>
    <nd ref="5324631710"/>
    <nd ref="5324631712"/>
    <nd ref="5324631714"/>
    <nd ref="5324631709"/>
    <nd ref="787340694"/>
    <nd ref="787349691"/>
    <tag k="brand" v="Ibis"/>
    <tag k="brand:wikidata" v="Q920166"/>
    <tag k="brand:wikipedia" v="en:Ibis (hotel)"/>
    <tag k="building" v="yes"/>
    <tag k="building:levels" v="7"/>
    <tag k="fax" v="+33149292030"/>
    <tag k="internet_access" v="yes"/>
    <tag k="internet_access:fee" v="no"/>
    <tag k="name" v="Ibis"/>
    <tag k="operator" v="Ibis"/>
    <tag k="phone" v="+33149292020"/>
    <tag k="roof:levels" v="2"/>
    <tag k="source" v="cadastre-dgi-fr source : Direction Générale des Impôts - Cadastre. Mise à jour : 2010"/>
    <tag k="stars" v="2"/>
    <tag k="tourism" v="hotel"/>
    <tag k="website" v="http://www.ibishotel.com/gb/hotel-1399-ibis-paris-bastille-opera-11eme/index.shtml"/>
    <tag k="wheelchair" v="yes"/>
  </way>
  <way id="63641625" version="8" timestamp="2024-11-05T21:10:17Z" changeset="158795173" uid="7550430" user="Britzz">
    <nd ref="787349149"/>
    <nd ref="787367891"/>
    <nd ref="1326762311"/>
    <nd ref="787360761"/>
    <nd ref="787336628"/>
    <nd ref="1307319366"/>
    <nd ref="787365418"/>
    <nd ref="787336084"/>
    <nd ref="787320695"/>
    <nd ref="787368986"/>
    <nd ref="787407363"/>
    <nd ref="787334710"/>
    <nd ref="787349149"/>
    <tag k="building" v="apartments"/>
    <tag k="building:levels" v="5"/>
    <tag k="name" v="Immeuble Rollin-Charonne"/>
    <tag k="source" v="cadastre-dgi-fr source : Direction Générale des Impôts - Cadastre. Mise à jour : 2010"/>
  </way>
  <way id="63642440" version="5" timestamp="2023-10-02T18:09:02Z" changeset="142050852" uid="9396646" user="lecolibri258">
    <nd ref="787379936"/>
    <nd ref="1301073084"/>
    <nd ref="787365459"/>
    <nd ref="787362192"/>
    <nd ref="787353727"/>
    <nd ref="787388878"/>
    <nd ref="787342298"/>
    <nd ref="787351606"/>
    <nd ref="787335798"/>
    <nd ref="787337629"/>
    <nd ref="787333694"/>
    <nd ref="787374087"/>
    <nd ref="787394999"/>
    <nd ref="787375872"/>
    <nd ref="787356525"/>
    <nd ref="787346875"/>
    <nd ref="787344651"/>
    <nd ref="787348104"/>
    <nd ref="787379936"/>
    <tag k="addr:city" v="Paris"/>
    <tag k="addr:housenumber" v="47"/>
    <tag k="addr:postcode" v="75011"/>
    <tag k="addr:street" v="Boulevard de Ménilmontant"/>
    <tag k="building" v="apartments"/>
    <tag k="building:levels" v="6"/>
    <tag k="roof:levels" v="1"/>
    <tag k="source" v="cadastre-dgi-fr source : Direction Générale des Impôts - Cadastre. Mise à jour : 2010"/>
  </way>
  <way id="63642690" version="9" timestamp="2025-05-14T08:58:08Z" changeset="166242979" uid="22889393" user="vbmithr">
    <nd ref="787373882"/>
    <nd ref="10258031230"/>
    <nd ref="787327659"/>
    <nd ref="787365437"/>
    <nd ref="787337726"/>
    <nd ref="787369165"/>
    <nd ref="787321535"/>
    <nd ref="787321722"/>
    <nd ref="787333593"/>
    <nd ref="787370463"/>
    <nd ref="10261401848"/>
    <nd ref="1301125372"/>
    <nd ref="787323949"/>
    <nd ref="10261401882"/>
    <nd ref="787373882"/>
    <tag k="amenity" v="social_facility"/>
    <tag k="building" v="yes"/>
    <tag k="building:levels" v="4"/>
    <tag k="check_date" v="2025-05-14"/>
    <tag k="name" v="Établissement d'hébergement pour personnes âgées dépendantes mutualiste Bastille"/>
    <tag k="ref:FR:FINESS" v="750044232"/>
    <tag k="short_name" v="EHPAD Mutualiste Bastille"/>
    <tag k="social_facility" v="group_home"/>
    <tag k="social_facility:for" v="senior"/>
    <tag k="source" v="cadastre-dgi-fr source : Direction Générale des Impôts - Cadastre. Mise à jour : 2010"/>
    <tag k="source:ref:FR:FINESS" v="data.gouv.fr:Ministère des Affaires sociales et de la Santé - 2014-05-05"/>
    <tag k="type:FR:FINESS" v="200"/>
    <tag k="wikidata" v="Q112989964"/>
  </way>
  <way id="63643820" version="7" timestamp="2025-01-16T10:49:44Z" changeset="161413060" uid="18555392" user="Quartanier">
    <nd ref="787363377"/>
    <nd ref="787387155"/>
    <nd ref="1301310394"/>
    <nd ref="787349590"/>
    <nd ref="787362924"/>
    <nd ref="787363377"/>
    <tag k="addr:city" v="Paris"/>
    <tag k="addr:housenumber" v="10"/>
    <tag k="addr:postcode" v="75011"/>
    <tag k="addr:street" v="Bis Bd Richard-Lenoir"/>
    <tag k="building" v="apartments"/>
    <tag k="building:levels" v="3"/>
    <tag k="description" v="New and Vintage motor sports themed clothing store"/>
    <tag k="name" v="Vintage Motors Bastille"/>
    <tag k="opening_hours" v="Mo-Sa 10:30-19:00"/>
    <tag k="roof:levels" v="1"/>
    <tag k="roof:shape" v="gabled"/>
    <tag k="shop" v="yes"/>
    <tag k="source" v="cadastre-dgi-fr source : Direction Générale des Impôts - Cadastre. Mise à jour : 2010"/>
    <tag k="website" v="https://vintage-motors.net/vintage-motors-bastille-8"/>
  </way>
  <way id="63644125" version="5" timestamp="2016-11-12T09:41:07Z" changeset="43577559" uid="566149" user="Zolo">
    <nd ref="787374220"/>
    <nd ref="787319262"/>
    <nd ref="1307270971"/>
    <nd ref="787336706"/>
    <nd ref="787331240"/>
    <nd ref="787389230"/>
    <nd ref="1326762394"/>
    <nd ref="787401712"/>
    <nd ref="787407780"/>
    <nd ref="787382624"/>
    <nd ref="787367756"/>
    <nd ref="787374220"/>
    <tag k="amenity" v="social_facility"/>
    <tag k="building" v="yes"/>
    <tag k="name" v="Résidence Universitaire Bastille"/>
    <tag k="operator" v="CROUS de Paris"/>
    <tag k="social_facility" v="group_home"/>
    <tag k="source" v="cadastre-dgi-fr source : Direction Générale des Impôts - Cadastre. Mise à jour : 2010"/>
    <tag k="wikidata" v="Q18978545"/>
  </way>
  <way id="63644223" version="4" timestamp="2023-08-29T07:35:16Z" changeset="140526572" uid="10224323" user="Roue-doudou">
    <nd ref="787334079"/>
    <nd ref="787382390"/>
    <nd ref="787350382"/>
    <nd ref="787378571"/>
    <nd ref="787334079"/>
    <tag k="building" v="service"/>
    <tag k="location" v="indoor"/>
    <tag k="name" v="OCRS F208 Bd Charonne"/>
    <tag k="operator" v="Enedis"/>
    <tag k="operator:wikidata" v="Q3587594"/>
    <tag k="power" v="substation"/>
    <tag k="source" v="cadastre-dgi-fr source : Direction Générale des Impôts - Cadastre. Mise à jour : 2010"/>
    <tag k="substation" v="distribution"/>
    <tag k="voltage" v="20000"/>
  </way>
  <way id="63644661" version="7" timestamp="2023-10-21T22:06:48Z" changeset="142941926" uid="7550430" user="Britzz">
    <nd ref="787367734"/>
    <nd ref="787334754"/>
    <nd ref="787354981"/>
    <nd ref="787371189"/>
    <nd ref="11280417694"/>
    <nd ref="1327915056"/>
    <nd ref="787347892"/>
    <nd ref="787367734"/>
    <tag k="building" v="hotel"/>
    <tag k="building:levels" v="6"/>
    <tag k="contact:city" v="Paris"/>
    <tag k="contact:housenumber" v="131"/>
    <tag k="contact:postcode" v="75011"/>
    <tag k="contact:street" v="Rue de Charonne"/>
    <tag k="name" v="Classics hôtel Paris Bastille"/>
    <tag k="stars" v="3"/>
    <tag k="tourism" v="hotel"/>
    <tag k="website" v="https://www.classics-hotel-paris-bastille.com/"/>
  </way>
  <way id="63644719" version="8" timestamp="2024-08-09T08:43:54Z" changeset="155011409" uid="1159672" user="merylstreet">
    <nd ref="787370355"/>
    <nd ref="787375795"/>
    <nd ref="787407904"/>
    <nd ref="787367058"/>
    <nd ref="787372583"/>
    <nd ref="787350369"/>
    <nd ref="787330805"/>
    <nd ref="1326762349"/>
    <nd ref="787348050"/>
    <nd ref="787359402"/>
    <nd ref="787392872"/>
    <nd ref="11988992059"/>
    <nd ref="787319708"/>
    <nd ref="787370355"/>
    <tag k="addr:city" v="Paris"/>
    <tag k="addr:housenumber" v="168"/>
    <tag k="addr:postcode" v="75011"/>
    <tag k="addr:street" v="Avenue Ledru-Rollin"/>
    <tag k="brand" v="Monoprix"/>
    <tag k="brand:wikidata" v="Q3321241"/>
    <tag k="brand:wikipedia" v="en:Monoprix"/>
    <tag k="building" v="apartments"/>
    <tag k="name" v="Monoprix"/>
    <tag k="opening_hours" v="Mo-Sa 08:00-21:00; Su 09:00-13:00"/>
    <tag k="operator" v="Groupe Casino"/>
    <tag k="phone" v="+33 1 43 79 66 96"/>
    <tag k="shop" v="supermarket"/>
    <tag k="source" v="cadastre-dgi-fr source : Direction Générale des Impôts - Cadastre. Mise à jour : 2010"/>
    <tag k="website" v="https://www.monoprix.fr/19.html"/>
  </way>
  <way id="63645926" version="5" timestamp="2022-04-19T20:15:47Z" changeset="119924139" uid="1885164" user="Xandrex">
    <nd ref="787337742"/>
    <nd ref="787359741"/>
    <nd ref="787372340"/>
    <nd ref="787351048"/>
    <nd ref="1326728294"/>
    <nd ref="787377839"/>
    <nd ref="787337742"/>
    <tag k="addr:city" v="Paris"/>
    <tag k="addr:housenumber" v="27"/>
    <tag k="addr:postcode" v="75011"/>
    <tag k="addr:street" v="Rue Richard Lenoir"/>
    <tag k="building" v="yes"/>
    <tag k="building:levels" v="6"/>
    <tag k="source" v="cadastre-dgi-fr source : Direction Générale des Impôts - Cadastre. Mise à jour : 2010"/>
  </way>
  <way id="63645938" version="9" timestamp="2025-03-30T16:59:39Z" changeset="164296056" uid="7550430" user="Britzz">
    <nd ref="787387720"/>
    <nd ref="787403486"/>
    <nd ref="12714110310"/>
    <nd ref="1327901848"/>
    <nd ref="12714110311"/>
    <nd ref="787340575"/>
    <nd ref="787349268"/>
    <nd ref="787377033"/>
    <nd ref="787318084"/>
    <nd ref="787366590"/>
    <nd ref="787383558"/>
    <nd ref="787351336"/>
    <nd ref="787321938"/>
    <nd ref="787324805"/>
    <nd ref="787399671"/>
    <nd ref="787342573"/>
    <nd ref="787390430"/>
    <nd ref="12714110313"/>
    <nd ref="787387720"/>
    <tag k="addr:city" v="Paris"/>
    <tag k="addr:country" v="FR"/>
    <tag k="addr:housenumber" v="2 bis"/>
    <tag k="addr:postcode" v="75011"/>
    <tag k="addr:street" v="Rue Mercoeur"/>
    <tag k="building" v="office"/>
    <tag k="building:levels" v="5"/>
    <tag k="name" v="Institut de Relations Internationales et Stratégiques (IRIS)"/>
    <tag k="roof:levels" v="1"/>
    <tag k="short_name" v="IRIS"/>
    <tag k="source" v="cadastre-dgi-fr source : Direction Générale des Impôts - Cadastre. Mise à jour : 2010"/>
    <tag k="website" v="https://www.iris-france.org/"/>
  </way>
  <way id="63646922" version="12" timestamp="2024-03-07T20:28:14Z" changeset="148358937" uid="1842888" user="nihombashi19">
    <nd ref="787375933"/>
    <nd ref="787366331"/>
    <nd ref="1313543648"/>
    <nd ref="1313543619"/>
    <nd ref="787347094"/>
    <nd ref="11702001618"/>
    <nd ref="787388874"/>
    <nd ref="787357411"/>
    <nd ref="787355949"/>
    <nd ref="787406578"/>
    <nd ref="9920144777"/>
    <nd ref="787326164"/>
    <nd ref="9920144775"/>
    <nd ref="787375933"/>
    <tag k="amenity" v="place_of_worship"/>
    <tag k="architect" v="Bruno Legrand"/>
    <tag k="building" v="church"/>
    <tag k="denomination" v="catholic"/>
    <tag k="name" v="Église Notre-Dame d'Espérance"/>
    <tag k="ref:FR:CEF" v="75111_01"/>
    <tag k="religion" v="christian"/>
    <tag k="source" v="cadastre-dgi-fr source : Direction Générale des Impôts - Cadastre. Mise à jour : 2010"/>
    <tag k="source:architect" v="survey"/>
    <tag k="start_date" v="1997"/>
    <tag k="wheelchair" v="yes"/>
    <tag k="wikidata" v="Q3580192"/>
    <tag k="wikipedia" v="fr:Église Notre-Dame-d'Espérance de Paris"/>
  </way>
  <way id="63648233" version="5" timestamp="2023-11-03T19:21:25Z" changeset="143588297" uid="9451067" user="b-jazz-bot">
    <nd ref="787321592"/>
    <nd ref="1327901483"/>
    <nd ref="787319397"/>
    <nd ref="787318169"/>
    <nd ref="787358642"/>
    <nd ref="787321592"/>
    <tag k="amenity" v="college"/>
    <tag k="building" v="yes"/>
    <tag k="name" v="Cours Simon"/>
    <tag k="source" v="cadastre-dgi-fr source : Direction Générale des Impôts - Cadastre. Mise à jour : 2010"/>
    <tag k="source:name" v="survey"/>
    <tag k="website" v="https://www.cours-simon.com/"/>
    <tag k="wikidata" v="Q1137719"/>
  </way>
  <way id="63648393" version="9" timestamp="2023-11-03T19:16:47Z" changeset="143588161" uid="9451067" user="b-jazz-bot">
    <nd ref="787352724"/>
    <nd ref="787349931"/>
    <nd ref="1301125206"/>
    <nd ref="787324525"/>
    <nd ref="10119031930"/>
    <nd ref="787376652"/>
    <nd ref="787375643"/>
    <nd ref="787352724"/>
    <tag k="amenity" v="place_of_worship"/>
    <tag k="building" v="yes"/>
    <tag k="denomination" v="protestant"/>
    <tag k="email" v="contact@foyerdelame.fr"/>
    <tag k="name" v="Temple protestant du Foyer de l'Âme"/>
    <tag k="phone" v="+33147004733"/>
    <tag k="religion" v="christian"/>
    <tag k="source" v="cadastre-dgi-fr source : Direction Générale des Impôts - Cadastre. Mise à jour : 2010"/>
    <tag k="website" v="https://www.foyerdelame.fr/"/>
    <tag k="wikidata" v="Q3517708"/>
    <tag k="wikipedia" v="fr:Temple protestant du Foyer de l'Âme"/>
  </way>
  <way id="63648689" version="5" timestamp="2023-01-14T19:27:32Z" changeset="131277057" uid="7550430" user="Britzz">
    <nd ref="787387130"/>
    <nd ref="787324668"/>
    <nd ref="787380789"/>
    <nd ref="1301074189"/>
    <nd ref="787334301"/>
    <nd ref="10555183615"/>
    <nd ref="787387130"/>
    <tag k="addr:city" v="Paris"/>
    <tag k="addr:housenumber" v="37"/>
    <tag k="addr:postcode" v="75011"/>
    <tag k="addr:street" v="Boulevard de Ménilmontant"/>
    <tag k="building" v="yes"/>
    <tag k="building:levels" v="2"/>
    <tag k="description" v="Permanence téléphonique 24h/24 et 7j/7."/>
    <tag k="name" v="Lecreux Frères"/>
    <tag k="opening_hours" v="Mo-Fr 9:00-13:00,14:00-17:30"/>
    <tag k="phone" v="+33 1 43 79 62 79"/>
    <tag k="shop" v="funeral_directors"/>
    <tag k="source:name" v="survey"/>
    <tag k="website" v="https://www.lecreuxfreresparis.fr/"/>
  </way>
  <way id="63648782" version="4" timestamp="2020-03-28T21:38:09Z" changeset="82764887" uid="1598001" user="OsmIdf">
    <nd ref="787361637"/>
    <nd ref="787331844"/>
    <nd ref="787372430"/>
    <nd ref="787362938"/>
    <nd ref="787328646"/>
    <nd ref="787359082"/>
    <nd ref="787333831"/>
    <nd ref="787321730"/>
    <nd ref="787388382"/>
    <nd ref="787350387"/>
    <nd ref="787336189"/>
    <nd ref="787381625"/>
    <nd ref="787348466"/>
    <nd ref="787392151"/>
    <nd ref="787321042"/>
    <nd ref="787358144"/>
    <nd ref="787352344"/>
    <nd ref="787334610"/>
    <nd ref="787394301"/>
    <nd ref="787383037"/>
    <nd ref="787377708"/>
    <nd ref="787350706"/>
    <nd ref="787334270"/>
    <nd ref="787371138"/>
    <nd ref="787395831"/>
    <nd ref="787317601"/>
    <nd ref="787358109"/>
    <nd ref="787398366"/>
    <nd ref="787360878"/>
    <nd ref="787389719"/>
    <nd ref="787324859"/>
    <nd ref="787354181"/>
    <nd ref="787369754"/>
    <nd ref="787369134"/>
    <nd ref="787397108"/>
    <nd ref="787361637"/>
    <tag k="building" v="yes"/>
    <tag k="building:levels" v="2"/>
    <tag k="heritage" v="3"/>
    <tag k="heritage:operator" v="mhs"/>
    <tag k="mhs:inscription_date" v="1972-06-14"/>
    <tag k="name" v="Club Colbert"/>
    <tag k="old_name" v="Maison de santé du Docteur Belhomme"/>
    <tag k="ref:mhs" v="PA00086544"/>
    <tag k="source" v="cadastre-dgi-fr source : Direction Générale des Impôts - Cadastre. Mise à jour : 2010"/>
    <tag k="source:heritage" v="data.gouv.fr:Ministère de la culture - 03/2018"/>
    <tag k="wikidata" v="Q3374828"/>
    <tag k="wikipedia" v="fr:Pension Belhomme"/>
  </way>
  <way id="63648910" version="3" timestamp="2024-07-14T11:52:53Z" changeset="153927054" uid="1842888" user="nihombashi19">
    <nd ref="787357642"/>
    <nd ref="1327901938"/>
    <nd ref="787352174"/>
    <nd ref="787359816"/>
    <nd ref="787375985"/>
    <nd ref="787362467"/>
    <nd ref="787350889"/>
    <nd ref="787321566"/>
    <nd ref="787349255"/>
    <nd ref="787320620"/>
    <nd ref="787357642"/>
    <tag k="building" v="yes"/>
    <tag k="name" v="Résidence Philippe Auguste"/>
    <tag k="source" v="cadastre-dgi-fr source : Direction Générale des Impôts - Cadastre. Mise à jour : 2010"/>
    <tag k="tourism" v="hotel"/>
  </way>
  <way id="63648918" version="5" timestamp="2024-08-08T20:26:15Z" changeset="154995472" uid="5670825" user="Christophe Raverdy">
    <nd ref="787323654"/>
    <nd ref="787367299"/>
    <nd ref="787359515"/>
    <nd ref="787355025"/>
    <nd ref="787323752"/>
    <nd ref="787319550"/>
    <nd ref="787323220"/>
    <nd ref="787323676"/>
    <nd ref="787332230"/>
    <nd ref="787391425"/>
    <nd ref="1307180587"/>
    <nd ref="787325863"/>
    <nd ref="787323654"/>
    <tag k="building" v="fire_station"/>
    <tag k="name" v="Maison des Sapeurs-Pompiers de France"/>
    <tag k="source" v="cadastre-dgi-fr source : Direction Générale des Impôts - Cadastre. Mise à jour : 2010"/>
  </way>
  <way id="63649335" version="4" timestamp="2025-03-30T16:59:39Z" changeset="164296056" uid="7550430" user="Britzz">
    <nd ref="787386107"/>
    <nd ref="787322503"/>
    <nd ref="787347208"/>
    <nd ref="787365439"/>
    <nd ref="787403091"/>
    <nd ref="787352338"/>
    <nd ref="787370545"/>
    <nd ref="1327901910"/>
    <nd ref="1327901783"/>
    <nd ref="12714110305"/>
    <nd ref="787386107"/>
    <tag k="building" v="apartments"/>
    <tag k="building:levels" v="7"/>
    <tag k="name" v="Résidence Voltaire"/>
    <tag k="source" v="cadastre-dgi-fr source : Direction Générale des Impôts - Cadastre. Mise à jour : 2010"/>
  </way>
  <way id="72076530" version="14" timestamp="2024-01-03T21:14:03Z" changeset="145855202" uid="53964" user="_Mathieu_">
    <nd ref="248492214"/>
    <nd ref="11053170500"/>
    <nd ref="1312774947"/>
    <tag k="alt_name" v="Passage Louis Philippe"/>
    <tag k="highway" v="residential"/>
    <tag k="lit" v="yes"/>
    <tag k="maxheight" v="2.6"/>
    <tag k="maxspeed" v="30"/>
    <tag k="name" v="Passage Louis-Philippe"/>
    <tag k="oneway" v="no"/>
    <tag k="priority" v="forward"/>
    <tag k="sidewalk" v="both"/>
    <tag k="smoothness" v="good"/>
    <tag k="source" v="BMO 080606"/>
    <tag k="surface" v="sett"/>
  </way>
  <way id="83554449" version="28" timestamp="2024-08-15T17:26:47Z" changeset="155294126" uid="11963177" user="JeroenvanderGun">
    <nd ref="6554662994"/>
    <nd ref="6554662995"/>
    <nd ref="6554662996"/>
    <nd ref="151353976"/>
    <tag k="busway:left" v="lane"/>
    <tag k="cycleway:left" v="separate"/>
    <tag k="cycleway:right" v="lane"/>
    <tag k="cycleway:right:lane" v="exclusive"/>
    <tag k="enforcement:operator" v="Police nationale"/>
    <tag k="foot" v="no"/>
    <tag k="highway" v="primary"/>
    <tag k="lanes" v="5"/>
    <tag k="lanes:backward" v="2"/>
    <tag k="lanes:forward" v="3"/>
    <tag k="lit" v="yes"/>
    <tag k="maxspeed" v="30"/>
    <tag k="name" v="Place de la Bastille"/>
    <tag k="name:da" v="Bastillepladsen"/>
    <tag k="name:etymology:wikidata" v="Q1865480"/>
    <tag k="name:fr" v="Place de la Bastille"/>
    <tag k="name:zh" v="巴士底广场"/>
    <tag k="operator" v="Ville de Paris"/>
    <tag k="operator:authority" v="Maire de Paris après avis du préfet de police"/>
    <tag k="operator:authority:related_law" v="IV de l'article L. 2512-14 du code général des collectivités territoriales"/>
    <tag k="operator:url" v="https://cdn.paris.fr/paris/2020/02/26/5bf469a311d0beb9911e92d113781550.ai"/>
    <tag k="sidewalk:both" v="separate"/>
    <tag k="smoothness" v="good"/>
    <tag k="surface" v="asphalt"/>
    <tag k="turn:lanes:backward" v="left|"/>
    <tag k="turn:lanes:forward" v="through|through|through;right"/>
  </way>
  <way id="101087115" version="14" timestamp="2024-05-28T15:51:38Z" changeset="151951881" uid="311391" user="patman37">
    <nd ref="152738277"/>
    <nd ref="619136296"/>
    <nd ref="7995581384"/>
    <nd ref="6752007794"/>
    <nd ref="774793082"/>
    <nd ref="152738831"/>
    <nd ref="6335361965"/>
    <nd ref="5528037434"/>
    <nd ref="17809169"/>
    <nd ref="152739326"/>
    <tag k="dual_carriageway" v="yes"/>
    <tag k="highway" v="tertiary"/>
    <tag k="lane_markings" v="no"/>
    <tag k="lit" v="yes"/>
    <tag k="maxspeed" v="30"/>
    <tag k="name" v="Boulevard Richard-Lenoir"/>
    <tag k="name:etymology:wikidata" v="Q3085685"/>
    <tag k="oneway" v="yes"/>
    <tag k="sidewalk" v="separate"/>
    <tag k="source" v="cadastre-dgi-fr source : Direction Générale des Impôts - Cadastre. Mise à jour : 2011"/>
    <tag k="surface" v="asphalt"/>
  </way>
  <way id="112444535" version="9" timestamp="2024-04-13T19:15:12Z" changeset="149966043" uid="6290466" user="benjamintchik">
    <nd ref="153512281"/>
    <nd ref="5528037295"/>
    <nd ref="207263532"/>
    <nd ref="5528037291"/>
    <nd ref="25009246"/>
    <tag k="cycleway:both" v="no"/>
    <tag k="highway" v="tertiary"/>
    <tag k="lane_markings" v="no"/>
    <tag k="lit" v="yes"/>
    <tag k="maxspeed" v="30"/>
    <tag k="name" v="Rue de Charonne"/>
    <tag k="name:etymology:wikidata" v="Q18199435"/>
    <tag k="sidewalk:both" v="separate"/>
    <tag k="surface" v="asphalt"/>
  </way>
  <way id="112941022" version="10" timestamp="2022-08-25T15:44:08Z" changeset="125367832" uid="12287265" user="bilbosquet">
    <nd ref="1282484162"/>
    <nd ref="1282484165"/>
    <tag k="alt_name" v="Passage Louis Philippe"/>
    <tag k="cycleway" v="opposite"/>
    <tag k="highway" v="residential"/>
    <tag k="lit" v="yes"/>
    <tag k="maxheight" v="2.6"/>
    <tag k="maxspeed" v="30"/>
    <tag k="name" v="Passage Louis-Philippe"/>
    <tag k="oneway" v="yes"/>
    <tag k="oneway:bicycle" v="no"/>
    <tag k="sidewalk" v="no"/>
    <tag k="smoothness" v="good"/>
    <tag k="source" v="BMO 080606"/>
    <tag k="surface" v="sett"/>
    <tag k="tunnel" v="building_passage"/>
  </way>
  <way id="112941027" version="10" timestamp="2023-09-30T18:53:55Z" changeset="141964264" uid="318821" user="Yod4z">
    <nd ref="1282484165"/>
    <nd ref="11229781915"/>
    <nd ref="332476884"/>
    <tag k="alt_name" v="Passage Louis Philippe"/>
    <tag k="cycleway" v="opposite"/>
    <tag k="highway" v="residential"/>
    <tag k="lit" v="yes"/>
    <tag k="maxspeed" v="30"/>
    <tag k="name" v="Passage Louis-Philippe"/>
    <tag k="oneway" v="yes"/>
    <tag k="oneway:bicycle" v="no"/>
    <tag k="sidewalk" v="no"/>
    <tag k="smoothness" v="good"/>
    <tag k="source" v="BMO 080606"/>
    <tag k="surface" v="sett"/>
  </way>
  <way id="114730070" version="12" timestamp="2024-02-22T09:08:52Z" changeset="147760119" uid="12287265" user="bilbosquet">
    <nd ref="1298884223"/>
    <nd ref="2385215088"/>
    <nd ref="258676368"/>
    <tag k="cycleway" v="no"/>
    <tag k="highway" v="primary"/>
    <tag k="lanes" v="2"/>
    <tag k="lit" v="yes"/>
    <tag k="maxspeed" v="30"/>
    <tag k="name" v="Boulevard de Ménilmontant"/>
    <tag k="name:etymology:wikidata" v="Q2701404"/>
    <tag k="sidewalk" v="both"/>
    <tag k="smoothness" v="good"/>
    <tag k="source" v="cadastre-dgi-fr source : Direction Générale des Impôts - Cadastre. Mise à jour : 2010"/>
    <tag k="surface" v="asphalt"/>
  </way>
  <way id="114871494" version="16" timestamp="2024-02-22T07:21:57Z" changeset="147760119" uid="12287265" user="bilbosquet">
    <nd ref="123479648"/>
    <nd ref="10089762252"/>
    <tag k="cycleway:left" v="no"/>
    <tag k="cycleway:right" v="separate"/>
    <tag k="dual_carriageway" v="yes"/>
    <tag k="highway" v="primary"/>
    <tag k="lanes" v="3"/>
    <tag k="lit" v="yes"/>
    <tag k="maxspeed" v="30"/>
    <tag k="name" v="Boulevard de Ménilmontant"/>
    <tag k="name:etymology:wikidata" v="Q2701404"/>
    <tag k="oneway" v="yes"/>
    <tag k="sidewalk" v="separate"/>
    <tag k="smoothness" v="good"/>
    <tag k="source" v="cadastre-dgi-fr source : Direction Générale des Impôts - Cadastre. Mise à jour : 2011"/>
    <tag k="source:maxspeed" v="FR:urban"/>
    <tag k="surface" v="asphalt"/>
    <tag k="was:cycleway:right:lane" v="pictogram"/>
  </way>
  <way id="114992310" version="7" timestamp="2024-04-27T05:38:07Z" changeset="150564672" uid="6290466" user="benjamintchik">
    <nd ref="1300983661"/>
    <nd ref="8199026436"/>
    <nd ref="1300983780"/>
    <tag k="highway" v="residential"/>
    <tag k="maxspeed" v="30"/>
    <tag k="name" v="Rue Henri Ranvier"/>
    <tag k="name:etymology:wikidata" v="Q110797780"/>
    <tag k="source" v="cadastre-dgi-fr source : Direction Générale des Impôts - Cadastre. Mise à jour : 2011"/>
    <tag k="surface" v="asphalt"/>
  </way>
  <way id="114992315" version="7" timestamp="2024-04-27T05:38:07Z" changeset="150564672" uid="6290466" user="benjamintchik">
    <nd ref="1300983814"/>
    <nd ref="11065166036"/>
    <nd ref="1300983785"/>
    <tag k="highway" v="residential"/>
    <tag k="maxspeed" v="30"/>
    <tag k="name" v="Rue Henri Ranvier"/>
    <tag k="name:etymology:wikidata" v="Q110797780"/>
    <tag k="source" v="cadastre-dgi-fr source : Direction Générale des Impôts - Cadastre. Mise à jour : 2011"/>
    <tag k="surface" v="asphalt"/>
  </way>
  <way id="114995223" version="3" timestamp="2023-10-22T21:35:12Z" changeset="142988501" uid="7550430" user="Britzz">
    <nd ref="787324498"/>
    <nd ref="787325803"/>
    <nd ref="1301041464"/>
    <nd ref="787323301"/>
    <nd ref="787360294"/>
    <nd ref="787355306"/>
    <nd ref="787352523"/>
    <nd ref="787332988"/>
    <nd ref="787385941"/>
    <nd ref="787363065"/>
    <nd ref="787369529"/>
    <nd ref="787320797"/>
    <nd ref="787327370"/>
    <nd ref="787324498"/>
    <tag k="brand" v="Ibis"/>
    <tag k="brand:wikidata" v="Q920166"/>
    <tag k="brand:wikipedia" v="en:Ibis (hotel)"/>
    <tag k="building" v="yes"/>
    <tag k="building:levels" v="6"/>
    <tag k="name" v="ibis Paris Père-Lachaise"/>
    <tag k="source" v="cadastre-dgi-fr source : Direction Générale des Impôts - Cadastre. Mise à jour : 2010"/>
    <tag k="toilets:wheelchair" v="yes"/>
    <tag k="tourism" v="hotel"/>
    <tag k="website" v="https://all.accor.com/hotel/2076/index.fr.shtml"/>
    <tag k="wheelchair" v="yes"/>
  </way>
  <way id="114995231" version="18" timestamp="2024-10-08T09:39:43Z" changeset="157617253" uid="3834000" user="cartoleo">
    <nd ref="148944519"/>
    <nd ref="2385215164"/>
    <nd ref="148944520"/>
    <nd ref="6848267944"/>
    <nd ref="6848267942"/>
    <nd ref="6848267945"/>
    <nd ref="6848267943"/>
    <nd ref="1301073706"/>
    <nd ref="2880591791"/>
    <nd ref="11295891913"/>
    <nd ref="1789061717"/>
    <nd ref="34632752"/>
    <tag k="cycleway:both" v="no"/>
    <tag k="highway" v="residential"/>
    <tag k="lit" v="yes"/>
    <tag k="maxspeed" v="30"/>
    <tag k="name" v="Rue René Villermé"/>
    <tag k="name:etymology:wikidata" v="Q367749"/>
    <tag k="oneway" v="yes"/>
    <tag k="oneway:bicycle" v="no"/>
    <tag k="sidewalk" v="separate"/>
    <tag k="smoothness" v="good"/>
    <tag k="source" v="cadastre-dgi-fr source : Direction Générale des Impôts - Cadastre. Mise à jour : 2011"/>
    <tag k="surface" v="asphalt"/>
    <tag k="zone:maxspeed" v="FR:30"/>
  </way>
  <way id="123486075" version="28" timestamp="2024-08-15T17:26:47Z" changeset="155294126" uid="11963177" user="JeroenvanderGun">
    <nd ref="11253108232"/>
    <nd ref="1498968381"/>
    <nd ref="8809461"/>
    <nd ref="2481605886"/>
    <nd ref="6434308312"/>
    <nd ref="2641063806"/>
    <nd ref="2641022389"/>
    <nd ref="573458028"/>
    <nd ref="2284436604"/>
    <nd ref="2481605887"/>
    <nd ref="11069305486"/>
    <nd ref="178888368"/>
    <nd ref="697813609"/>
    <tag k="busway" v="lane"/>
    <tag k="cycleway" v="share_busway"/>
    <tag k="enforcement:operator" v="Police nationale"/>
    <tag k="highway" v="primary"/>
    <tag k="lanes" v="5"/>
    <tag k="lanes:backward" v="3"/>
    <tag k="lanes:forward" v="2"/>
    <tag k="lit" v="yes"/>
    <tag k="maxspeed" v="30"/>
    <tag k="name" v="Boulevard Beaumarchais"/>
    <tag k="name:etymology:wikidata" v="Q70326"/>
    <tag k="operator" v="Ville de Paris"/>
    <tag k="operator:authority" v="Maire de Paris après avis du préfet de police"/>
    <tag k="operator:authority:related_law" v="IV de l'article L. 2512-14 du code général des collectivités territoriales"/>
    <tag k="operator:url" v="https://cdn.paris.fr/paris/2020/02/26/5bf469a311d0beb9911e92d113781550.ai"/>
    <tag k="sidewalk:both" v="separate"/>
    <tag k="smoothness" v="good"/>
    <tag k="source" v="cadastre-dgi-fr source : Direction Générale des Impôts - Cadastre. Mise à jour : 2011"/>
    <tag k="surface" v="asphalt"/>
  </way>
  <way id="138265439" version="15" timestamp="2024-03-30T00:20:36Z" changeset="149332975" uid="2678738" user="fgouget">
    <nd ref="1789062132"/>
    <nd ref="2880591792"/>
    <nd ref="2385215172"/>
    <nd ref="258676368"/>
    <nd ref="1298883436"/>
    <nd ref="2385215258"/>
    <nd ref="6193036296"/>
    <nd ref="123488806"/>
    <nd ref="2385215348"/>
    <nd ref="2385215212"/>
    <nd ref="9804908309"/>
    <nd ref="123488801"/>
    <tag k="cycleway:left" v="no"/>
    <tag k="cycleway:right" v="separate"/>
    <tag k="dual_carriageway" v="yes"/>
    <tag k="highway" v="primary"/>
    <tag k="lanes" v="1"/>
    <tag k="lit" v="yes"/>
    <tag k="maxspeed" v="30"/>
    <tag k="name" v="Boulevard de Ménilmontant"/>
    <tag k="name:etymology:wikidata" v="Q2701404"/>
    <tag k="oneway" v="yes"/>
    <tag k="sidewalk:right" v="separate"/>
    <tag k="smoothness" v="good"/>
    <tag k="source" v="cadastre-dgi-fr source : Direction Générale des Impôts - Cadastre. Mise à jour : 2010"/>
    <tag k="surface" v="asphalt"/>
  </way>
  <way id="145441948" version="18" timestamp="2024-02-17T11:27:05Z" changeset="147566293" uid="6290466" user="benjamintchik">
    <nd ref="8809451"/>
    <nd ref="5528037515"/>
    <nd ref="5582836815"/>
    <nd ref="5812360704"/>
    <nd ref="5528037511"/>
    <nd ref="1588595442"/>
    <tag k="cycleway:left" v="lane"/>
    <tag k="cycleway:left:lane" v="exclusive"/>
    <tag k="cycleway:left:oneway" v="-1"/>
    <tag k="cycleway:right" v="no"/>
    <tag k="highway" v="residential"/>
    <tag k="lit" v="yes"/>
    <tag k="maxspeed" v="30"/>
    <tag k="name" v="Rue Amelot"/>
    <tag k="name:etymology:wikidata" v="Q674816"/>
    <tag k="oneway" v="yes"/>
    <tag k="oneway:bicycle" v="no"/>
    <tag k="sidewalk:both" v="separate"/>
    <tag k="smoothness" v="good"/>
    <tag k="surface" v="asphalt"/>
    <tag k="zone:maxspeed" v="FR:30"/>
  </way>
  <way id="145591022" version="7" timestamp="2023-06-14T07:54:28Z" changeset="137315326" uid="1205555" user="benoitdd">
    <nd ref="787361609"/>
    <nd ref="1589796651"/>
    <nd ref="787349894"/>
    <nd ref="10976173535"/>
    <nd ref="787370908"/>
    <nd ref="787317825"/>
    <nd ref="787344088"/>
    <nd ref="787361609"/>
    <tag k="amenity" v="place_of_worship"/>
    <tag k="building" v="church"/>
    <tag k="building:levels" v="1"/>
    <tag k="denomination" v="catholic"/>
    <tag k="name" v="Église du Bon Pasteur"/>
    <tag k="ref:FR:CEF" v="75111_07"/>
    <tag k="religion" v="christian"/>
    <tag k="source" v="cadastre-dgi-fr source : Direction Générale des Impôts - Cadastre. Mise à jour : 2010"/>
    <tag k="wikidata" v="Q3585947"/>
  </way>
  <way id="156382090" version="21" timestamp="2024-02-20T18:18:47Z" changeset="147702158" uid="6290466" user="benjamintchik">
    <nd ref="148944692"/>
    <nd ref="2385215319"/>
    <nd ref="148944645"/>
    <nd ref="2385215070"/>
    <nd ref="148944876"/>
    <nd ref="2385215363"/>
    <nd ref="148944914"/>
    <nd ref="2385215180"/>
    <nd ref="4939675720"/>
    <nd ref="4939675719"/>
    <nd ref="2385215197"/>
    <nd ref="148944950"/>
    <nd ref="2385215368"/>
    <nd ref="52842220"/>
    <nd ref="2385215214"/>
    <nd ref="30183253"/>
    <nd ref="2385215204"/>
    <nd ref="6190639418"/>
    <nd ref="6190639073"/>
    <nd ref="6190625873"/>
    <nd ref="6190639417"/>
    <nd ref="5528037308"/>
    <nd ref="199183487"/>
    <nd ref="332951210"/>
    <nd ref="1789061896"/>
    <nd ref="1111763203"/>
    <nd ref="4963153273"/>
    <nd ref="4939675718"/>
    <nd ref="7171435907"/>
    <nd ref="8895505765"/>
    <nd ref="621328137"/>
    <nd ref="367917176"/>
    <tag k="highway" v="tertiary"/>
    <tag k="lanes" v="2"/>
    <tag k="lit" v="yes"/>
    <tag k="maxspeed" v="30"/>
    <tag k="name" v="Rue de la Roquette"/>
    <tag k="name:etymology:wikidata" v="Q3413209"/>
    <tag k="sidewalk:both" v="separate"/>
    <tag k="smoothness" v="good"/>
    <tag k="surface" v="asphalt"/>
    <tag k="zone:maxspeed" v="FR:30"/>
  </way>
  <way id="165517644" version="20" timestamp="2024-12-02T12:29:41Z" changeset="159841008" uid="7512839" user="Benoît C MdP">
    <nd ref="430795"/>
    <nd ref="207278117"/>
    <nd ref="5528037276"/>
    <nd ref="207278840"/>
    <nd ref="1312774932"/>
    <nd ref="8809441"/>
    <nd ref="5528037278"/>
    <nd ref="1307271025"/>
    <nd ref="1307319126"/>
    <nd ref="1759389837"/>
    <nd ref="6808438864"/>
    <nd ref="430796"/>
    <nd ref="6873473300"/>
    <nd ref="1824729332"/>
    <nd ref="6873479396"/>
    <nd ref="206155083"/>
    <nd ref="6873472632"/>
    <nd ref="1313543678"/>
    <nd ref="1313543677"/>
    <nd ref="6089999883"/>
    <tag k="highway" v="residential"/>
    <tag k="lit" v="yes"/>
    <tag k="maxspeed" v="30"/>
    <tag k="name" v="Rue de Charonne"/>
    <tag k="name:etymology:wikidata" v="Q18199435"/>
    <tag k="oneway" v="yes"/>
    <tag k="sidewalk" v="separate"/>
    <tag k="smoothness" v="good"/>
    <tag k="surface" v="asphalt"/>
  </way>
  <way id="191714998" version="24" timestamp="2024-08-15T17:26:47Z" changeset="155294126" uid="11963177" user="JeroenvanderGun">
    <nd ref="691304751"/>
    <nd ref="1927863503"/>
    <nd ref="1806069305"/>
    <nd ref="1806069303"/>
    <nd ref="1806069301"/>
    <nd ref="1806069298"/>
    <nd ref="1806069297"/>
    <nd ref="1806069296"/>
    <nd ref="1806069294"/>
    <nd ref="367917324"/>
    <tag k="cycleway:left" v="no"/>
    <tag k="cycleway:right" v="separate"/>
    <tag k="enforcement:operator" v="Police nationale"/>
    <tag k="highway" v="secondary"/>
    <tag k="junction" v="circular"/>
    <tag k="lanes" v="4"/>
    <tag k="lit" v="yes"/>
    <tag k="maxspeed" v="30"/>
    <tag k="name" v="Place Léon Blum"/>
    <tag k="name:etymology:wikidata" v="Q18434"/>
    <tag k="note" v="not a roundabout, entering traffic has priority; pas un giratoire"/>
    <tag k="oneway" v="yes"/>
    <tag k="operator" v="Ville de Paris"/>
    <tag k="operator:authority" v="Maire de Paris après avis du préfet de police"/>
    <tag k="operator:authority:related_law" v="IV de l'article L. 2512-14 du code général des collectivités territoriales"/>
    <tag k="operator:url" v="https://cdn.paris.fr/paris/2020/02/26/5bf469a311d0beb9911e92d113781550.ai"/>
    <tag k="sidewalk:left" v="no"/>
    <tag k="sidewalk:right" v="separate"/>
    <tag k="smoothness" v="good"/>
    <tag k="source:maxspeed" v="FR:urban"/>
    <tag k="surface" v="asphalt"/>
  </way>
  <way id="192915541" version="15" timestamp="2024-04-13T19:12:09Z" changeset="149966043" uid="6290466" user="benjamintchik">
    <nd ref="151362824"/>
    <nd ref="5528037422"/>
    <nd ref="5528037320"/>
    <nd ref="1266527223"/>
    <nd ref="1266559594"/>
    <nd ref="11066991997"/>
    <nd ref="151362738"/>
    <nd ref="11066991995"/>
    <nd ref="11295465644"/>
    <nd ref="1685928296"/>
    <nd ref="1323653826"/>
    <nd ref="6838443738"/>
    <nd ref="151363007"/>
    <tag k="cycleway" v="opposite"/>
    <tag k="highway" v="residential"/>
    <tag k="lit" v="yes"/>
    <tag k="maxspeed" v="30"/>
    <tag k="name" v="Rue Popincourt"/>
    <tag k="name:etymology:wikidata" v="Q28495615"/>
    <tag k="oneway" v="yes"/>
    <tag k="oneway:bicycle" v="no"/>
    <tag k="sidewalk" v="separate"/>
    <tag k="surface" v="asphalt"/>
    <tag k="zone:maxspeed" v="FR:30"/>
  </way>
  <way id="219260326" version="11" timestamp="2023-12-31T12:56:19Z" changeset="145731562" uid="53964" user="_Mathieu_">
    <nd ref="8809442"/>
    <nd ref="2284436595"/>
    <nd ref="8809437"/>
    <tag k="access" v="yes"/>
    <tag k="bicycle" v="yes"/>
    <tag k="highway" v="residential"/>
    <tag k="lit" v="yes"/>
    <tag k="maxspeed" v="30"/>
    <tag k="name" v="Rue Daval"/>
    <tag k="psv" v="yes"/>
    <tag k="sidewalk:both" v="separate"/>
    <tag k="sidewalk:both:surface" v="paving_stones"/>
    <tag k="smoothness" v="good"/>
    <tag k="surface" v="paving_stones"/>
  </way>
  <way id="227757683" version="10" timestamp="2025-05-04T18:27:41Z" changeset="165813744" uid="22579215" user="fhqi819hds91">
    <nd ref="2364200669"/>
    <nd ref="2364200673"/>
    <nd ref="2364200674"/>
    <nd ref="2364200678"/>
    <nd ref="2364200680"/>
    <nd ref="2364200682"/>
    <nd ref="2364200683"/>
    <nd ref="2364200681"/>
    <nd ref="2364200679"/>
    <nd ref="2364200675"/>
    <nd ref="2364200672"/>
    <nd ref="2364200668"/>
    <nd ref="2364200666"/>
    <nd ref="2364200642"/>
    <nd ref="2364200554"/>
    <nd ref="2364200505"/>
    <nd ref="2364200499"/>
    <nd ref="2364200497"/>
    <nd ref="2364200494"/>
    <nd ref="2364200492"/>
    <nd ref="2364200489"/>
    <nd ref="2364200485"/>
    <nd ref="2364200483"/>
    <nd ref="2364200486"/>
    <nd ref="2364200490"/>
    <nd ref="2364200491"/>
    <nd ref="2364200493"/>
    <nd ref="2364200498"/>
    <nd ref="2364200500"/>
    <nd ref="2364200506"/>
    <nd ref="2364200564"/>
    <nd ref="2364200640"/>
    <nd ref="2364200665"/>
    <nd ref="2364200669"/>
    <tag k="building" v="yes"/>
    <tag k="height" v="46.3"/>
    <tag k="historic" v="monument"/>
    <tag k="name" v="Colonne de Juillet"/>
    <tag k="name:de" v="Julisäule"/>
    <tag k="name:en" v="July Column"/>
    <tag k="name:es" v="Columna de Julio"/>
    <tag k="name:fr" v="Colonne de Juillet"/>
    <tag k="name:it" v="Colonna di luglio"/>
    <tag k="name:ko" v="바스티유 광장"/>
    <tag k="name:zh" v="七月柱"/>
    <tag k="name:zh-Hans" v="七月柱"/>
    <tag k="name:zh-Hant" v="七月柱"/>
    <tag k="source" v="cadastre-dgi-fr source : Direction Générale des Impôts - Cadastre. Mise à jour : 2013"/>
    <tag k="start_date" v="1840"/>
    <tag k="website" v="https://www.colonne-de-juillet.fr/"/>
    <tag k="wheelchair" v="no"/>
    <tag k="wikidata" v="Q269641"/>
    <tag k="wikipedia" v="fr:Colonne de Juillet"/>
  </way>
  <way id="252086452" version="10" timestamp="2024-02-11T11:50:40Z" changeset="147323884" uid="6290466" user="benjamintchik">
    <nd ref="123498923"/>
    <nd ref="9904558902"/>
    <nd ref="123497816"/>
    <tag k="highway" v="primary"/>
    <tag k="lanes" v="2"/>
    <tag k="lit" v="yes"/>
    <tag k="maxspeed" v="30"/>
    <tag k="name" v="Boulevard de Charonne"/>
    <tag k="name:etymology:wikidata" v="Q728591"/>
    <tag k="parking:both" v="no"/>
    <tag k="sidewalk:both" v="separate"/>
    <tag k="source" v="cadastre-dgi-fr source : Direction Générale des Impôts - Cadastre. Mise à jour : 2010"/>
    <tag k="surface" v="asphalt"/>
  </way>
  <way id="255109299" version="16" timestamp="2025-03-12T13:56:08Z" changeset="163529232" uid="703542" user="nuitsfauves">
    <nd ref="130099806"/>
    <nd ref="5528037267"/>
    <nd ref="4962470529"/>
    <nd ref="5528037270"/>
    <nd ref="5528037265"/>
    <nd ref="252682718"/>
    <nd ref="130099800"/>
    <nd ref="5528037263"/>
    <nd ref="4939731972"/>
    <nd ref="12656248192"/>
    <nd ref="5528037274"/>
    <nd ref="244455587"/>
    <tag k="highway" v="secondary"/>
    <tag k="lane_markings" v="no"/>
    <tag k="lit" v="yes"/>
    <tag k="maxspeed" v="30"/>
    <tag k="name" v="Avenue Ledru-Rollin"/>
    <tag k="name:etymology:wikidata" v="Q1382222"/>
    <tag k="sidewalk" v="separate"/>
    <tag k="source:maxspeed" v="FR:urban"/>
    <tag k="surface" v="asphalt"/>
    <tag k="traffic:hourly" v="600"/>
    <tag k="traffic:hourly:source" v="Open Data Paris 2019 : Comptage routier - Données trafic issues des capteurs permanents"/>
  </way>
  <way id="255109300" version="14" timestamp="2024-08-10T06:04:25Z" changeset="155048101" uid="17330386" user="FloBob">
    <nd ref="151362735"/>
    <nd ref="5528037502"/>
    <nd ref="6335361964"/>
    <nd ref="5528037493"/>
    <nd ref="431394661"/>
    <tag k="cycleway:left" v="no"/>
    <tag k="cycleway:right" v="separate"/>
    <tag k="dual_carriageway" v="yes"/>
    <tag k="highway" v="tertiary"/>
    <tag k="lane_markings" v="no"/>
    <tag k="lit" v="yes"/>
    <tag k="maxspeed" v="30"/>
    <tag k="name" v="Boulevard Richard-Lenoir"/>
    <tag k="name:etymology:wikidata" v="Q3085685"/>
    <tag k="oneway" v="yes"/>
    <tag k="sidewalk:both" v="separate"/>
    <tag k="smoothness" v="good"/>
    <tag k="surface" v="asphalt"/>
  </way>
  <way id="255109301" version="14" timestamp="2024-08-10T06:04:25Z" changeset="155048101" uid="17330386" user="FloBob">
    <nd ref="8809447"/>
    <nd ref="5528037500"/>
    <nd ref="151362735"/>
    <tag k="bicycle" v="yes"/>
    <tag k="cycleway:left" v="no"/>
    <tag k="cycleway:right" v="separate"/>
    <tag k="dual_carriageway" v="yes"/>
    <tag k="highway" v="tertiary"/>
    <tag k="lane_markings" v="no"/>
    <tag k="lit" v="yes"/>
    <tag k="maxspeed" v="30"/>
    <tag k="name" v="Boulevard Richard-Lenoir"/>
    <tag k="name:etymology:wikidata" v="Q3085685"/>
    <tag k="oneway" v="yes"/>
    <tag k="sidewalk:right" v="separate"/>
    <tag k="smoothness" v="good"/>
    <tag k="surface" v="asphalt"/>
  </way>
  <way id="255109304" version="15" timestamp="2024-04-13T19:15:12Z" changeset="149966043" uid="6290466" user="benjamintchik">
    <nd ref="430794"/>
    <nd ref="6808441926"/>
    <nd ref="1759389841"/>
    <tag k="cycleway" v="no"/>
    <tag k="highway" v="tertiary"/>
    <tag k="lanes" v="2"/>
    <tag k="lit" v="yes"/>
    <tag k="maxspeed" v="30"/>
    <tag k="name" v="Rue de Charonne"/>
    <tag k="name:etymology:wikidata" v="Q18199435"/>
    <tag k="oneway" v="yes"/>
    <tag k="oneway:bicycle" v="no"/>
    <tag k="oneway:psv" v="no"/>
    <tag k="sidewalk:both" v="separate"/>
    <tag k="surface" v="asphalt"/>
  </way>
  <way id="312337582" version="13" timestamp="2024-04-13T19:10:26Z" changeset="149966043" uid="6290466" user="benjamintchik">
    <nd ref="17809169"/>
    <nd ref="5528037436"/>
    <nd ref="4432212267"/>
    <nd ref="152739328"/>
    <nd ref="4432212265"/>
    <nd ref="5528037510"/>
    <nd ref="1588595442"/>
    <tag k="cycleway:right" v="no"/>
    <tag k="highway" v="tertiary"/>
    <tag k="lane_markings" v="no"/>
    <tag k="lit" v="yes"/>
    <tag k="maxspeed" v="30"/>
    <tag k="name" v="Rue du Chemin Vert"/>
    <tag k="name:etymology:wikidata" v="Q143970"/>
    <tag k="oneway" v="yes"/>
    <tag k="oneway:bicycle" v="yes"/>
    <tag k="sidewalk:both" v="separate"/>
    <tag k="smoothness" v="good"/>
    <tag k="surface" v="asphalt"/>
  </way>
  <way id="339503312" version="14" timestamp="2024-04-13T19:10:26Z" changeset="149966043" uid="6290466" user="benjamintchik">
    <nd ref="256423560"/>
    <nd ref="5528037428"/>
    <nd ref="5286587720"/>
    <nd ref="5528037433"/>
    <nd ref="431394917"/>
    <nd ref="17809169"/>
    <tag k="cycleway:right" v="no"/>
    <tag k="highway" v="tertiary"/>
    <tag k="lane_markings" v="no"/>
    <tag k="lit" v="yes"/>
    <tag k="maxspeed" v="30"/>
    <tag k="name" v="Rue du Chemin Vert"/>
    <tag k="name:etymology:wikidata" v="Q143970"/>
    <tag k="oneway" v="yes"/>
    <tag k="sidewalk" v="both"/>
    <tag k="sidewalk:both:surface" v="asphalt"/>
    <tag k="surface" v="asphalt"/>
  </way>
  <way id="435298569" version="1" timestamp="2016-08-02T12:21:44Z" changeset="41190840" uid="1598001" user="OsmIdf">
    <nd ref="787361112"/>
    <nd ref="4332294348"/>
    <nd ref="4332294347"/>
    <nd ref="4332294349"/>
    <nd ref="4332294346"/>
    <nd ref="4332294345"/>
    <nd ref="4332294344"/>
    <nd ref="4332294350"/>
    <nd ref="4332294351"/>
    <nd ref="787399287"/>
    <nd ref="787346013"/>
    <nd ref="787361112"/>
    <tag k="alt_name" v="Fontaine de Charonne"/>
    <tag k="amenity" v="fountain"/>
    <tag k="architect" v="Jean Beausire"/>
    <tag k="building" v="yes"/>
    <tag k="heritage" v="2"/>
    <tag k="heritage:operator" v="mhs"/>
    <tag k="mhs:inscription_date" v="1995-09-29"/>
    <tag k="name" v="Fontaine Trogneux"/>
    <tag k="ref:mhs" v="PA00086558"/>
    <tag k="source" v="cadastre-dgi-fr source : Direction Générale des Impôts - Cadastre. Mise à jour : 2015;survey"/>
    <tag k="source:heritage" v="data.gouv.fr:Ministère de la culture et de la communication - 05/2016"/>
    <tag k="start_date" v="1719"/>
    <tag k="wikidata" v="Q3076130"/>
    <tag k="wikipedia" v="fr:Fontaine de Charonne"/>
  </way>
  <way id="437536463" version="15" timestamp="2024-09-08T15:42:40Z" changeset="156357857" uid="53964" user="_Mathieu_">
    <nd ref="34097214"/>
    <nd ref="6848220592"/>
    <nd ref="6848261939"/>
    <nd ref="148944517"/>
    <tag k="cycleway:both" v="no"/>
    <tag k="highway" v="residential"/>
    <tag k="lit" v="yes"/>
    <tag k="maxspeed" v="30"/>
    <tag k="name" v="Rue Duranti"/>
    <tag k="name:etymology:wikidata" v="Q3170255"/>
    <tag k="oneway" v="yes"/>
    <tag k="oneway:bicycle" v="no"/>
    <tag k="sidewalk" v="separate"/>
    <tag k="smoothness" v="good"/>
    <tag k="surface" v="asphalt"/>
    <tag k="zone:maxspeed" v="FR:30"/>
  </way>
  <way id="437536464" version="13" timestamp="2024-09-08T15:42:16Z" changeset="156357857" uid="53964" user="_Mathieu_">
    <nd ref="148944517"/>
    <nd ref="2250942937"/>
    <nd ref="3923272262"/>
    <nd ref="3923272054"/>
    <nd ref="8409395800"/>
    <nd ref="3923272011"/>
    <nd ref="3622388822"/>
    <nd ref="2250942924"/>
    <nd ref="52842220"/>
    <tag k="cycleway:both" v="no"/>
    <tag k="highway" v="residential"/>
    <tag k="lit" v="yes"/>
    <tag k="maxspeed" v="30"/>
    <tag k="name" v="Rue Servan"/>
    <tag k="name:etymology:wikidata" v="Q2684623"/>
    <tag k="oneway" v="yes"/>
    <tag k="oneway:bicycle" v="no"/>
    <tag k="sidewalk:both" v="separate"/>
    <tag k="source:width" v="ARCore"/>
    <tag k="surface" v="asphalt"/>
    <tag k="width" v="7.7"/>
    <tag k="zone:maxspeed" v="FR:30"/>
  </way>
  <way id="526124472" version="10" timestamp="2024-09-08T15:42:13Z" changeset="156357857" uid="53964" user="_Mathieu_">
    <nd ref="5116972778"/>
    <nd ref="2385215110"/>
    <nd ref="30183253"/>
    <tag k="cycleway:both" v="no"/>
    <tag k="highway" v="residential"/>
    <tag k="lit" v="yes"/>
    <tag k="maxspeed" v="30"/>
    <tag k="name" v="Rue Léon Frot"/>
    <tag k="name:etymology:wikidata" v="Q3270971"/>
    <tag k="oneway" v="yes"/>
    <tag k="oneway:bicycle" v="no"/>
    <tag k="sidewalk:both" v="separate"/>
    <tag k="smoothness" v="good"/>
    <tag k="surface" v="asphalt"/>
    <tag k="zone:maxspeed" v="FR:30"/>
  </way>
  <way id="584379676" version="11" timestamp="2024-02-22T09:09:21Z" changeset="147760119" uid="12287265" user="bilbosquet">
    <nd ref="123488806"/>
    <nd ref="6838618124"/>
    <nd ref="195399361"/>
    <tag k="bicycle" v="yes"/>
    <tag k="foot" v="yes"/>
    <tag k="highway" v="tertiary"/>
    <tag k="lanes" v="2"/>
    <tag k="lit" v="yes"/>
    <tag k="maxspeed" v="30"/>
    <tag k="name" v="Rue de la Roquette"/>
    <tag k="name:etymology:wikidata" v="Q3413209"/>
    <tag k="psv" v="yes"/>
    <tag k="sidewalk" v="separate"/>
    <tag k="smoothness" v="good"/>
    <tag k="surface" v="asphalt"/>
    <tag k="zone:maxspeed" v="FR:30"/>
  </way>
  <way id="596046282" version="16" timestamp="2024-09-10T12:31:12Z" changeset="156438202" uid="7512839" user="Benoît C MdP">
    <nd ref="12168025945"/>
    <nd ref="11065114205"/>
    <nd ref="1759389853"/>
    <nd ref="11065114208"/>
    <nd ref="560860385"/>
    <tag k="cycleway:both" v="no"/>
    <tag k="highway" v="secondary"/>
    <tag k="lanes" v="1"/>
    <tag k="lit" v="yes"/>
    <tag k="maxspeed" v="30"/>
    <tag k="name" v="Avenue Philippe Auguste"/>
    <tag k="name:etymology:wikidata" v="Q34428"/>
    <tag k="sidewalk:both" v="separate"/>
    <tag k="smoothness" v="good"/>
    <tag k="surface" v="asphalt"/>
    <tag k="traffic:hourly" v="540"/>
    <tag k="traffic:hourly:source" v="Open Data Paris 2019 : Comptage routier - Données trafic issues des capteurs permanents"/>
    <tag k="zone:maxspeed" v="FR:30"/>
  </way>
  <way id="624810213" version="8" timestamp="2024-08-10T06:04:25Z" changeset="155048101" uid="17330386" user="FloBob">
    <nd ref="151362735"/>
    <nd ref="431394191"/>
    <tag k="cycleway:both" v="no"/>
    <tag k="highway" v="residential"/>
    <tag k="lit" v="yes"/>
    <tag k="maxspeed" v="30"/>
    <tag k="noname" v="yes"/>
    <tag k="oneway" v="yes"/>
    <tag k="sidewalk" v="separate"/>
    <tag k="surface" v="asphalt"/>
  </way>
  <way id="661244070" version="7" timestamp="2024-09-08T15:44:45Z" changeset="156357857" uid="53964" user="_Mathieu_">
    <nd ref="6190639073"/>
    <nd ref="6190639074"/>
    <nd ref="6190639075"/>
    <tag k="cycleway:both" v="no"/>
    <tag k="highway" v="residential"/>
    <tag k="lit" v="yes"/>
    <tag k="maxspeed" v="30"/>
    <tag k="name" v="Rue Pache"/>
    <tag k="name:etymology:wikidata" v="Q1685102"/>
    <tag k="oneway" v="yes"/>
    <tag k="sidewalk" v="both"/>
    <tag k="surface" v="asphalt"/>
    <tag k="zone:maxspeed" v="FR:30"/>
  </way>
  <way id="662350056" version="10" timestamp="2024-08-10T06:04:26Z" changeset="155048101" uid="17330386" user="FloBob">
    <nd ref="178888599"/>
    <nd ref="8809450"/>
    <nd ref="2284436607"/>
    <nd ref="8809449"/>
    <nd ref="431395231"/>
    <tag k="cycleway:left" v="no"/>
    <tag k="cycleway:right" v="separate"/>
    <tag k="dual_carriageway" v="yes"/>
    <tag k="highway" v="tertiary"/>
    <tag k="lanes" v="2"/>
    <tag k="lit" v="yes"/>
    <tag k="maxspeed" v="30"/>
    <tag k="name" v="Boulevard Richard-Lenoir"/>
    <tag k="name:etymology:wikidata" v="Q3085685"/>
    <tag k="oneway" v="yes"/>
    <tag k="sidewalk" v="separate"/>
    <tag k="surface" v="asphalt"/>
  </way>
  <way id="665638027" version="9" timestamp="2024-11-19T08:46:53Z" changeset="159314208" uid="1842888" user="nihombashi19">
    <nd ref="252682723"/>
    <nd ref="252682721"/>
    <nd ref="11066991991"/>
    <nd ref="12353636528"/>
    <nd ref="7618092804"/>
    <nd ref="12353636532"/>
    <nd ref="7618092800"/>
    <nd ref="7618092799"/>
    <nd ref="5528037261"/>
    <nd ref="252682717"/>
    <tag k="cycleway" v="opposite"/>
    <tag k="highway" v="residential"/>
    <tag k="maxspeed" v="30"/>
    <tag k="maxspeed:type" v="FR:zone30"/>
    <tag k="name" v="Passage Charles Dallery"/>
    <tag k="name:etymology:wikidata" v="Q965957"/>
    <tag k="oneway" v="yes"/>
    <tag k="oneway:bicycle" v="no"/>
    <tag k="sidewalk" v="separate"/>
    <tag k="surface" v="sett"/>
  </way>
  <way id="688709933" version="6" timestamp="2023-07-29T04:49:07Z" changeset="139158892" uid="10211698" user="Rauchschwalbe">
    <nd ref="123488801"/>
    <nd ref="9804908308"/>
    <nd ref="560860390"/>
    <tag k="dual_carriageway" v="yes"/>
    <tag k="highway" v="primary"/>
    <tag k="lanes" v="3"/>
    <tag k="lit" v="yes"/>
    <tag k="maxspeed" v="30"/>
    <tag k="name" v="Boulevard de Charonne"/>
    <tag k="oneway" v="yes"/>
    <tag k="parking:both" v="no"/>
    <tag k="source" v="cadastre-dgi-fr source : Direction Générale des Impôts - Cadastre. Mise à jour : 2010"/>
    <tag k="surface" v="asphalt"/>
  </way>
  <way id="697946271" version="16" timestamp="2025-01-22T10:33:11Z" changeset="161632163" uid="7512839" user="Benoît C MdP">
    <nd ref="6554662989"/>
    <nd ref="8907127497"/>
    <nd ref="6554663000"/>
    <nd ref="8907127500"/>
    <nd ref="6554663001"/>
    <nd ref="8907127498"/>
    <nd ref="8907127499"/>
    <nd ref="6554663002"/>
    <nd ref="8907143471"/>
    <nd ref="6405905300"/>
    <tag k="busway:left" v="lane"/>
    <tag k="cycleway:left" v="separate"/>
    <tag k="enforcement:operator" v="Police nationale"/>
    <tag k="foot" v="no"/>
    <tag k="highway" v="primary"/>
    <tag k="lanes" v="6"/>
    <tag k="lanes:backward" v="3"/>
    <tag k="lanes:forward" v="3"/>
    <tag k="lit" v="yes"/>
    <tag k="maxspeed" v="30"/>
    <tag k="name" v="Place de la Bastille"/>
    <tag k="name:da" v="Bastillepladsen"/>
    <tag k="name:etymology:wikidata" v="Q1865480"/>
    <tag k="name:fr" v="Place de la Bastille"/>
    <tag k="name:zh" v="巴士底广场"/>
    <tag k="operator" v="Ville de Paris"/>
    <tag k="operator:authority" v="Maire de Paris après avis du préfet de police"/>
    <tag k="operator:authority:related_law" v="IV de l'article L. 2512-14 du code général des collectivités territoriales"/>
    <tag k="operator:url" v="https://cdn.paris.fr/paris/2020/02/26/5bf469a311d0beb9911e92d113781550.ai"/>
    <tag k="sidewalk:both" v="separate"/>
    <tag k="smoothness" v="good"/>
    <tag k="surface" v="asphalt"/>
    <tag k="turn:lanes:backward" v="left|through|"/>
    <tag k="turn:lanes:forward" v="through|through|right"/>
  </way>
  <way id="697976383" version="17" timestamp="2024-08-15T17:26:47Z" changeset="155294126" uid="11963177" user="JeroenvanderGun">
    <nd ref="151353976"/>
    <nd ref="6554662997"/>
    <nd ref="6554662998"/>
    <nd ref="6708017583"/>
    <nd ref="6665117720"/>
    <nd ref="6665117709"/>
    <tag k="cycleway:left" v="separate"/>
    <tag k="cycleway:right" v="no"/>
    <tag k="enforcement:operator" v="Police nationale"/>
    <tag k="foot" v="no"/>
    <tag k="highway" v="primary"/>
    <tag k="lanes" v="5"/>
    <tag k="lanes:backward" v="2"/>
    <tag k="lanes:forward" v="3"/>
    <tag k="lit" v="yes"/>
    <tag k="maxspeed" v="30"/>
    <tag k="name" v="Place de la Bastille"/>
    <tag k="name:da" v="Bastillepladsen"/>
    <tag k="name:etymology:wikidata" v="Q1865480"/>
    <tag k="name:fr" v="Place de la Bastille"/>
    <tag k="name:zh" v="巴士底广场"/>
    <tag k="operator" v="Ville de Paris"/>
    <tag k="operator:authority" v="Maire de Paris après avis du préfet de police"/>
    <tag k="operator:authority:related_law" v="IV de l'article L. 2512-14 du code général des collectivités territoriales"/>
    <tag k="operator:url" v="https://cdn.paris.fr/paris/2020/02/26/5bf469a311d0beb9911e92d113781550.ai"/>
    <tag k="sidewalk:both" v="separate"/>
    <tag k="smoothness" v="good"/>
    <tag k="surface" v="asphalt"/>
    <tag k="turn:lanes:backward" v="left|"/>
    <tag k="turn:lanes:forward" v="through|right|right"/>
  </way>
  <way id="706340633" version="6" timestamp="2022-08-25T15:44:06Z" changeset="125367832" uid="12287265" user="bilbosquet">
    <nd ref="1312774947"/>
    <nd ref="1312774945"/>
    <nd ref="1282484162"/>
    <tag k="alt_name" v="Passage Louis Philippe"/>
    <tag k="cycleway" v="opposite"/>
    <tag k="highway" v="residential"/>
    <tag k="lit" v="yes"/>
    <tag k="maxheight" v="2.6"/>
    <tag k="maxspeed" v="30"/>
    <tag k="name" v="Passage Louis-Philippe"/>
    <tag k="oneway" v="yes"/>
    <tag k="oneway:bicycle" v="no"/>
    <tag k="sidewalk" v="left"/>
    <tag k="smoothness" v="good"/>
    <tag k="source" v="BMO 080606"/>
    <tag k="surface" v="sett"/>
  </way>
  <way id="803355554" version="8" timestamp="2024-04-13T19:16:05Z" changeset="149966043" uid="6290466" user="benjamintchik">
    <nd ref="7514802591"/>
    <nd ref="7514802593"/>
    <tag k="cycleway:left" v="opposite"/>
    <tag k="highway" v="residential"/>
    <tag k="lit" v="yes"/>
    <tag k="maxspeed" v="30"/>
    <tag k="name" v="Rue des Taillandiers"/>
    <tag k="name:etymology:wikidata" v="Q17305604"/>
    <tag k="oneway" v="yes"/>
    <tag k="oneway:bicycle" v="no"/>
    <tag k="sidewalk" v="separate"/>
    <tag k="smoothness" v="good"/>
    <tag k="surface" v="asphalt"/>
  </way>
  <way id="803355555" version="8" timestamp="2024-04-13T19:16:05Z" changeset="149966043" uid="6290466" user="benjamintchik">
    <nd ref="7514802592"/>
    <nd ref="1306180665"/>
    <nd ref="5528037473"/>
    <nd ref="152740785"/>
    <tag k="cycleway:left" v="opposite"/>
    <tag k="highway" v="residential"/>
    <tag k="lit" v="yes"/>
    <tag k="maxspeed" v="30"/>
    <tag k="name" v="Rue des Taillandiers"/>
    <tag k="name:etymology:wikidata" v="Q17305604"/>
    <tag k="oneway" v="yes"/>
    <tag k="oneway:bicycle" v="no"/>
    <tag k="sidewalk" v="separate"/>
    <tag k="smoothness" v="good"/>
    <tag k="surface" v="asphalt"/>
  </way>
  <way id="803355556" version="5" timestamp="2024-04-13T19:16:05Z" changeset="149966043" uid="6290466" user="benjamintchik">
    <nd ref="7514802593"/>
    <nd ref="5528037280"/>
    <nd ref="248492126"/>
    <nd ref="7514802592"/>
    <tag k="cycleway:left" v="opposite_lane"/>
    <tag k="highway" v="residential"/>
    <tag k="maxspeed" v="30"/>
    <tag k="name" v="Rue des Taillandiers"/>
    <tag k="name:etymology:wikidata" v="Q17305604"/>
    <tag k="oneway" v="yes"/>
    <tag k="oneway:bicycle" v="no"/>
    <tag k="sidewalk" v="separate"/>
    <tag k="surface" v="asphalt"/>
  </way>
  <way id="874888553" version="7" timestamp="2024-04-13T19:12:34Z" changeset="149966043" uid="6290466" user="benjamintchik">
    <nd ref="25009246"/>
    <nd ref="5528037292"/>
    <nd ref="252682762"/>
    <tag k="cycleway" v="opposite"/>
    <tag k="highway" v="residential"/>
    <tag k="lane_markings" v="no"/>
    <tag k="lit" v="yes"/>
    <tag k="maxspeed" v="30"/>
    <tag k="name" v="Rue Basfroi"/>
    <tag k="name:etymology" v="lieu-dit"/>
    <tag k="oneway" v="yes"/>
    <tag k="oneway:bicycle" v="no"/>
    <tag k="sidewalk" v="separate"/>
    <tag k="surface" v="asphalt"/>
    <tag k="zone:maxspeed" v="FR:30"/>
  </way>
  <way id="879265866" version="6" timestamp="2024-04-13T19:14:42Z" changeset="149966043" uid="6290466" user="benjamintchik">
    <nd ref="367918448"/>
    <nd ref="4939675717"/>
    <nd ref="5528037266"/>
    <nd ref="130099806"/>
    <tag k="highway" v="secondary"/>
    <tag k="lanes" v="2"/>
    <tag k="lit" v="yes"/>
    <tag k="maxspeed" v="30"/>
    <tag k="name" v="Avenue Ledru-Rollin"/>
    <tag k="name:etymology:wikidata" v="Q1382222"/>
    <tag k="sidewalk" v="separate"/>
    <tag k="source:maxspeed" v="FR:urban"/>
    <tag k="surface" v="asphalt"/>
    <tag k="traffic:hourly" v="600"/>
    <tag k="traffic:hourly:source" v="Open Data Paris 2019 : Comptage routier - Données trafic issues des capteurs permanents"/>
  </way>
  <way id="962243685" version="6" timestamp="2024-05-28T15:51:38Z" changeset="151951881" uid="311391" user="patman37">
    <nd ref="431394661"/>
    <nd ref="5528037494"/>
    <tag k="dual_carriageway" v="yes"/>
    <tag k="highway" v="tertiary"/>
    <tag k="lane_markings" v="no"/>
    <tag k="maxspeed" v="30"/>
    <tag k="name" v="Boulevard Richard-Lenoir"/>
    <tag k="name:etymology:wikidata" v="Q3085685"/>
    <tag k="oneway" v="yes"/>
    <tag k="sidewalk:both" v="separate"/>
    <tag k="smoothness" v="good"/>
    <tag k="surface" v="asphalt"/>
  </way>
  <way id="962243688" version="5" timestamp="2024-04-13T19:11:28Z" changeset="149966043" uid="6290466" user="benjamintchik">
    <nd ref="5528037495"/>
    <nd ref="8906420682"/>
    <nd ref="8900878794"/>
    <nd ref="8906420683"/>
    <nd ref="8900878792"/>
    <nd ref="8900878790"/>
    <tag k="cycleway" v="opposite"/>
    <tag k="highway" v="residential"/>
    <tag k="maxspeed" v="30"/>
    <tag k="name" v="Rue Saint-Sabin"/>
    <tag k="name:etymology" v="Charles Pierre Angelenne de Saint-Sabin était échevin de la Ville de Paris lorsque le tracé de cette voie fut rectifié en 1777."/>
    <tag k="name:fr" v="Rue Saint-Sabin"/>
    <tag k="oneway" v="yes"/>
    <tag k="oneway:bicycle" v="no"/>
    <tag k="sidewalk:left" v="no"/>
    <tag k="sidewalk:right" v="separate"/>
    <tag k="surface" v="asphalt"/>
  </way>
  <way id="962900769" version="13" timestamp="2024-12-02T12:29:41Z" changeset="159841008" uid="7512839" user="Benoît C MdP">
    <nd ref="420673782"/>
    <nd ref="6549456219"/>
    <nd ref="5686909798"/>
    <nd ref="2284436562"/>
    <nd ref="5695925107"/>
    <nd ref="1313548435"/>
    <nd ref="130099876"/>
    <nd ref="1301125719"/>
    <nd ref="2284436548"/>
    <nd ref="1313548430"/>
    <nd ref="1313548429"/>
    <nd ref="1334906511"/>
    <nd ref="1370205607"/>
    <nd ref="5686909799"/>
    <nd ref="5695925106"/>
    <nd ref="1313548428"/>
    <nd ref="2284436540"/>
    <nd ref="367993"/>
    <nd ref="2284436536"/>
    <nd ref="5142543605"/>
    <nd ref="12039306596"/>
    <nd ref="1316570892"/>
    <nd ref="1316570885"/>
    <nd ref="207281261"/>
    <nd ref="2284436525"/>
    <nd ref="1316570883"/>
    <nd ref="5695925105"/>
    <nd ref="1316570873"/>
    <nd ref="12086028349"/>
    <nd ref="2284436522"/>
    <nd ref="367986"/>
    <tag k="bicycle:lanes:backward" v="designated"/>
    <tag k="busway:left" v="opposite_lane"/>
    <tag k="cycleway:left" v="share_busway"/>
    <tag k="cycleway:left:oneway" v="-1"/>
    <tag k="cycleway:right" v="separate"/>
    <tag k="highway" v="primary"/>
    <tag k="lanes" v="2"/>
    <tag k="lanes:backward" v="1"/>
    <tag k="lanes:forward" v="1"/>
    <tag k="lit" v="yes"/>
    <tag k="maxspeed" v="30"/>
    <tag k="name" v="Rue du Faubourg Saint-Antoine"/>
    <tag k="name:etymology:wikidata" v="Q1500914"/>
    <tag k="oneway" v="yes"/>
    <tag k="oneway:bicycle" v="no"/>
    <tag k="oneway:psv" v="no"/>
    <tag k="psv:lanes:backward" v="designated"/>
    <tag k="sidewalk:both" v="separate"/>
    <tag k="smoothness" v="excellent"/>
    <tag k="source" v="cadastre-dgi-fr source : Direction Générale des Impôts - Cadastre. Mise à jour : 2010;cadastre-dgi-fr source : Direction Générale des Impôts - Cadastre. Mise à jour : 2012"/>
    <tag k="surface" v="asphalt"/>
  </way>
  <way id="963932924" version="10" timestamp="2025-01-23T09:20:32Z" changeset="161665932" uid="7512839" user="Benoît C MdP">
    <nd ref="6806291142"/>
    <nd ref="6554662989"/>
    <tag k="busway:right" v="lane"/>
    <tag k="cycleway:left" v="separate"/>
    <tag k="cycleway:right" v="no"/>
    <tag k="enforcement:operator" v="Police nationale"/>
    <tag k="foot" v="no"/>
    <tag k="highway" v="primary"/>
    <tag k="lanes" v="5"/>
    <tag k="lanes:backward" v="2"/>
    <tag k="lanes:forward" v="3"/>
    <tag k="lit" v="yes"/>
    <tag k="maxspeed" v="30"/>
    <tag k="name" v="Boulevard Beaumarchais"/>
    <tag k="name:etymology:wikidata" v="Q70326"/>
    <tag k="operator" v="Ville de Paris"/>
    <tag k="operator:authority" v="Maire de Paris après avis du préfet de police"/>
    <tag k="operator:authority:related_law" v="IV de l'article L. 2512-14 du code général des collectivités territoriales"/>
    <tag k="operator:url" v="https://cdn.paris.fr/paris/2020/02/26/5bf469a311d0beb9911e92d113781550.ai"/>
    <tag k="psv:lanes:forward" v="designated||"/>
    <tag k="sidewalk:both" v="separate"/>
    <tag k="smoothness" v="good"/>
    <tag k="source" v="cadastre-dgi-fr source : Direction Générale des Impôts - Cadastre. Mise à jour : 2011"/>
    <tag k="surface" v="asphalt"/>
  </way>
  <way id="963932926" version="7" timestamp="2024-05-28T15:51:38Z" changeset="151951881" uid="311391" user="patman37">
    <nd ref="151353976"/>
    <nd ref="6365069736"/>
    <nd ref="1498968365"/>
    <nd ref="560855525"/>
    <tag k="cycleway:right" v="no"/>
    <tag k="dual_carriageway" v="yes"/>
    <tag k="foot" v="no"/>
    <tag k="highway" v="tertiary"/>
    <tag k="lanes" v="2"/>
    <tag k="lit" v="yes"/>
    <tag k="maxspeed" v="30"/>
    <tag k="name" v="Boulevard Richard-Lenoir"/>
    <tag k="name:etymology:wikidata" v="Q3085685"/>
    <tag k="oneway" v="yes"/>
    <tag k="smoothness" v="good"/>
    <tag k="surface" v="asphalt"/>
  </way>
  <way id="964602674" version="5" timestamp="2024-05-28T15:51:38Z" changeset="151951881" uid="311391" user="patman37">
    <nd ref="152739326"/>
    <nd ref="2490369942"/>
    <tag k="dual_carriageway" v="yes"/>
    <tag k="highway" v="tertiary"/>
    <tag k="lane_markings" v="no"/>
    <tag k="lit" v="yes"/>
    <tag k="maxspeed" v="30"/>
    <tag k="maxspeed:type" v="sign"/>
    <tag k="name" v="Boulevard Richard-Lenoir"/>
    <tag k="name:etymology:wikidata" v="Q3085685"/>
    <tag k="oneway" v="yes"/>
    <tag k="sidewalk:both" v="separate"/>
    <tag k="surface" v="asphalt"/>
    <tag k="traffic_sign" v="FR:A13a"/>
  </way>
  <way id="979310110" version="3" timestamp="2023-10-02T18:11:45Z" changeset="142050833" uid="9396646" user="lecolibri258">
    <nd ref="9060121359"/>
    <nd ref="9060121360"/>
    <nd ref="9060121361"/>
    <nd ref="9060121362"/>
    <nd ref="9060121359"/>
    <tag k="building" v="shed"/>
    <tag k="name" v="Accueil"/>
  </way>
  <way id="979310111" version="1" timestamp="2021-09-03T12:11:55Z" changeset="110675868" uid="9396646" user="lecolibri258">
    <nd ref="9060121363"/>
    <nd ref="9060121364"/>
    <nd ref="9060121365"/>
    <nd ref="9060121366"/>
    <nd ref="9060121363"/>
    <tag k="building" v="farm_auxiliary"/>
    <tag k="building:levels" v="1"/>
    <tag k="name" v="Poulailler de la TEP"/>
  </way>
  <way id="1068271777" version="8" timestamp="2025-01-21T15:12:42Z" changeset="161604326" uid="7512839" user="Benoît C MdP">
    <nd ref="621326844"/>
    <nd ref="12520804465"/>
    <nd ref="1806069286"/>
    <nd ref="1806069287"/>
    <nd ref="1806069288"/>
    <nd ref="1806069290"/>
    <nd ref="367917176"/>
    <tag k="cycleway:left" v="no"/>
    <tag k="cycleway:right" v="separate"/>
    <tag k="enforcement:operator" v="Police nationale"/>
    <tag k="highway" v="secondary"/>
    <tag k="junction" v="circular"/>
    <tag k="lanes" v="4"/>
    <tag k="lit" v="yes"/>
    <tag k="maxspeed" v="30"/>
    <tag k="name" v="Place Léon Blum"/>
    <tag k="name:etymology:wikidata" v="Q18434"/>
    <tag k="note" v="not a roundabout, entering traffic has priority; pas un giratoire"/>
    <tag k="oneway" v="yes"/>
    <tag k="operator" v="Ville de Paris"/>
    <tag k="operator:authority" v="Maire de Paris après avis du préfet de police"/>
    <tag k="operator:authority:related_law" v="IV de l'article L. 2512-14 du code général des collectivités territoriales"/>
    <tag k="operator:url" v="https://cdn.paris.fr/paris/2020/02/26/5bf469a311d0beb9911e92d113781550.ai"/>
    <tag k="sidewalk:left" v="no"/>
    <tag k="sidewalk:right" v="separate"/>
    <tag k="smoothness" v="good"/>
    <tag k="source:maxspeed" v="FR:urban"/>
    <tag k="surface" v="asphalt"/>
  </way>
  <way id="1068271778" version="9" timestamp="2025-01-21T15:12:42Z" changeset="161604326" uid="7512839" user="Benoît C MdP">
    <nd ref="367917324"/>
    <nd ref="1806069292"/>
    <nd ref="1806069291"/>
    <nd ref="12520804461"/>
    <nd ref="1806069289"/>
    <nd ref="9875456256"/>
    <nd ref="9875456255"/>
    <nd ref="9875456254"/>
    <nd ref="367918343"/>
    <tag k="cycleway:left" v="no"/>
    <tag k="cycleway:right" v="separate"/>
    <tag k="enforcement:operator" v="Police nationale"/>
    <tag k="highway" v="secondary"/>
    <tag k="junction" v="circular"/>
    <tag k="lanes" v="4"/>
    <tag k="lit" v="yes"/>
    <tag k="maxspeed" v="30"/>
    <tag k="name" v="Place Léon Blum"/>
    <tag k="name:etymology:wikidata" v="Q18434"/>
    <tag k="note" v="not a roundabout, entering traffic has priority; pas un giratoire"/>
    <tag k="oneway" v="yes"/>
    <tag k="operator" v="Ville de Paris"/>
    <tag k="operator:authority" v="Maire de Paris après avis du préfet de police"/>
    <tag k="operator:authority:related_law" v="IV de l'article L. 2512-14 du code général des collectivités territoriales"/>
    <tag k="operator:url" v="https://cdn.paris.fr/paris/2020/02/26/5bf469a311d0beb9911e92d113781550.ai"/>
    <tag k="sidewalk:left" v="no"/>
    <tag k="sidewalk:right" v="separate"/>
    <tag k="smoothness" v="good"/>
    <tag k="source:maxspeed" v="FR:urban"/>
    <tag k="surface" v="asphalt"/>
  </way>
  <way id="1068271779" version="7" timestamp="2024-08-15T17:26:47Z" changeset="155294126" uid="11963177" user="JeroenvanderGun">
    <nd ref="367917176"/>
    <nd ref="1927863500"/>
    <nd ref="1806069293"/>
    <nd ref="1806069295"/>
    <nd ref="367917318"/>
    <nd ref="1806069299"/>
    <nd ref="1806069300"/>
    <nd ref="1806069302"/>
    <nd ref="1806069304"/>
    <nd ref="691304751"/>
    <tag k="cycleway:left" v="no"/>
    <tag k="cycleway:right" v="separate"/>
    <tag k="enforcement:operator" v="Police nationale"/>
    <tag k="highway" v="secondary"/>
    <tag k="junction" v="circular"/>
    <tag k="lanes" v="4"/>
    <tag k="lit" v="yes"/>
    <tag k="maxspeed" v="30"/>
    <tag k="name" v="Place Léon Blum"/>
    <tag k="name:etymology:wikidata" v="Q18434"/>
    <tag k="note" v="not a roundabout, entering traffic has priority; pas un giratoire"/>
    <tag k="oneway" v="yes"/>
    <tag k="operator" v="Ville de Paris"/>
    <tag k="operator:authority" v="Maire de Paris après avis du préfet de police"/>
    <tag k="operator:authority:related_law" v="IV de l'article L. 2512-14 du code général des collectivités territoriales"/>
    <tag k="operator:url" v="https://cdn.paris.fr/paris/2020/02/26/5bf469a311d0beb9911e92d113781550.ai"/>
    <tag k="sidewalk:left" v="no"/>
    <tag k="sidewalk:right" v="separate"/>
    <tag k="smoothness" v="good"/>
    <tag k="source:maxspeed" v="FR:urban"/>
    <tag k="surface" v="asphalt"/>
  </way>
  <way id="1068271780" version="8" timestamp="2025-01-21T15:12:42Z" changeset="161604326" uid="7512839" user="Benoît C MdP">
    <nd ref="367918343"/>
    <nd ref="1806069285"/>
    <nd ref="1806069284"/>
    <nd ref="691304784"/>
    <nd ref="12520804464"/>
    <nd ref="1927877867"/>
    <nd ref="1806069282"/>
    <nd ref="1806069283"/>
    <nd ref="621326844"/>
    <tag k="cycleway:left" v="no"/>
    <tag k="cycleway:right" v="separate"/>
    <tag k="enforcement:operator" v="Police nationale"/>
    <tag k="highway" v="secondary"/>
    <tag k="junction" v="circular"/>
    <tag k="lanes" v="4"/>
    <tag k="lit" v="yes"/>
    <tag k="maxspeed" v="30"/>
    <tag k="name" v="Place Léon Blum"/>
    <tag k="name:etymology:wikidata" v="Q18434"/>
    <tag k="note" v="not a roundabout, entering traffic has priority; pas un giratoire"/>
    <tag k="oneway" v="yes"/>
    <tag k="operator" v="Ville de Paris"/>
    <tag k="operator:authority" v="Maire de Paris après avis du préfet de police"/>
    <tag k="operator:authority:related_law" v="IV de l'article L. 2512-14 du code général des collectivités territoriales"/>
    <tag k="operator:url" v="https://cdn.paris.fr/paris/2020/02/26/5bf469a311d0beb9911e92d113781550.ai"/>
    <tag k="sidewalk:left" v="no"/>
    <tag k="sidewalk:right" v="separate"/>
    <tag k="smoothness" v="good"/>
    <tag k="source:maxspeed" v="FR:urban"/>
    <tag k="surface" v="asphalt"/>
  </way>
  <way id="1080599168" version="13" timestamp="2024-10-20T20:30:20Z" changeset="158144952" uid="7550430" user="Britzz">
    <nd ref="123497817"/>
    <nd ref="12164926923"/>
    <nd ref="12164926922"/>
    <nd ref="10596546023"/>
    <nd ref="11486190886"/>
    <tag k="bicycle" v="yes"/>
    <tag k="bus" v="yes"/>
    <tag k="enforcement:operator" v="Police nationale"/>
    <tag k="highway" v="residential"/>
    <tag k="junction" v="circular"/>
    <tag k="lane_markings" v="no"/>
    <tag k="lit" v="yes"/>
    <tag k="maxspeed" v="30"/>
    <tag k="motor_vehicle" v="no"/>
    <tag k="name" v="Rue de Charonne"/>
    <tag k="name:etymology:wikidata" v="Q728591"/>
    <tag k="oneway" v="yes"/>
    <tag k="operator" v="Ville de Paris"/>
    <tag k="operator:authority" v="Maire de Paris après avis du préfet de police"/>
    <tag k="operator:authority:related_law" v="IV de l'article L. 2512-14 du code général des collectivités territoriales"/>
    <tag k="operator:url" v="https://cdn.paris.fr/paris/2020/02/26/5bf469a311d0beb9911e92d113781550.ai"/>
    <tag k="sidewalk" v="both"/>
    <tag k="surface" v="asphalt"/>
  </way>
  <way id="1097377542" version="3" timestamp="2024-04-13T19:15:19Z" changeset="149966043" uid="6290466" user="benjamintchik">
    <nd ref="10048157406"/>
    <nd ref="5528037264"/>
    <nd ref="130099800"/>
    <tag k="cycleway" v="opposite"/>
    <tag k="highway" v="residential"/>
    <tag k="maxspeed" v="30"/>
    <tag k="name" v="Passage Charles Dallery"/>
    <tag k="name:etymology:wikidata" v="Q965957"/>
    <tag k="oneway" v="yes"/>
    <tag k="oneway:bicycle" v="no"/>
    <tag k="sidewalk:both" v="separate"/>
    <tag k="surface" v="asphalt"/>
    <tag k="zone:maxspeed" v="FR:30"/>
  </way>
  <way id="1097377543" version="4" timestamp="2024-04-13T19:15:19Z" changeset="149966043" uid="6290466" user="benjamintchik">
    <nd ref="10048157407"/>
    <nd ref="5528037286"/>
    <nd ref="5528037287"/>
    <nd ref="10048157406"/>
    <tag k="bicycle" v="no"/>
    <tag k="foot" v="yes"/>
    <tag k="highway" v="residential"/>
    <tag k="horse" v="no"/>
    <tag k="lit" v="yes"/>
    <tag k="maxspeed" v="30"/>
    <tag k="motor_vehicle" v="no"/>
    <tag k="name" v="Passage Charles Dallery"/>
    <tag k="name:etymology:wikidata" v="Q965957"/>
    <tag k="oneway" v="yes"/>
    <tag k="sidewalk" v="separate"/>
    <tag k="surface" v="asphalt"/>
    <tag k="zone:maxspeed" v="FR:30"/>
  </way>
  <way id="1102621240" version="5" timestamp="2024-03-30T00:20:52Z" changeset="149332975" uid="2678738" user="fgouget">
    <nd ref="10089762253"/>
    <nd ref="10089762252"/>
    <tag k="cycleway" v="separate"/>
    <tag k="highway" v="primary"/>
    <tag k="lanes" v="2"/>
    <tag k="lit" v="yes"/>
    <tag k="maxspeed" v="30"/>
    <tag k="name" v="Avenue de la République"/>
    <tag k="oneway" v="yes"/>
    <tag k="sidewalk:right" v="separate"/>
    <tag k="smoothness" v="good"/>
    <tag k="source" v="cadastre-dgi-fr source : Direction Générale des Impôts - Cadastre. Mise à jour : 2012"/>
    <tag k="surface" v="asphalt"/>
  </way>
  <way id="1136742630" version="9" timestamp="2024-10-20T20:30:20Z" changeset="158144952" uid="7550430" user="Britzz">
    <nd ref="11486190886"/>
    <nd ref="11486190887"/>
    <nd ref="12164926924"/>
    <nd ref="12164926925"/>
    <nd ref="12164926926"/>
    <nd ref="123497817"/>
    <tag k="enforcement:operator" v="Police nationale"/>
    <tag k="highway" v="residential"/>
    <tag k="junction" v="circular"/>
    <tag k="lane_markings" v="no"/>
    <tag k="lit" v="yes"/>
    <tag k="maxspeed" v="30"/>
    <tag k="maxspeed:type" v="FR:zone30"/>
    <tag k="name" v="Rue de Charonne"/>
    <tag k="name:etymology:wikidata" v="Q728591"/>
    <tag k="oneway" v="yes"/>
    <tag k="operator" v="Ville de Paris"/>
    <tag k="operator:authority" v="Maire de Paris après avis du préfet de police"/>
    <tag k="operator:authority:related_law" v="IV de l'article L. 2512-14 du code général des collectivités territoriales"/>
    <tag k="operator:url" v="https://cdn.paris.fr/paris/2020/02/26/5bf469a311d0beb9911e92d113781550.ai"/>
    <tag k="sidewalk" v="both"/>
    <tag k="surface" v="asphalt"/>
    <tag k="zone:maxspeed" v="FR:30"/>
  </way>
  <way id="1172685468" version="3" timestamp="2023-07-24T15:16:23Z" changeset="138945831" uid="19622282" user="Etiennemapper5362">
    <nd ref="123495722"/>
    <nd ref="11065166059"/>
    <nd ref="123488801"/>
    <tag k="alt_name" v="Rue de Montlouis"/>
    <tag k="cycleway" v="opposite"/>
    <tag k="highway" v="residential"/>
    <tag k="lit" v="yes"/>
    <tag k="maxspeed" v="30"/>
    <tag k="name" v="Rue de Mont-Louis"/>
    <tag k="old_name" v="Rue Mont-Louis"/>
    <tag k="oneway" v="yes"/>
    <tag k="oneway:bicycle" v="no"/>
    <tag k="parking:both" v="no"/>
    <tag k="sidewalk" v="separate"/>
    <tag k="surface" v="sett"/>
    <tag k="zone:maxspeed" v="FR:30"/>
  </way>
  <way id="1197828188" version="5" timestamp="2024-08-10T06:04:25Z" changeset="155048101" uid="17330386" user="FloBob">
    <nd ref="5528037476"/>
    <nd ref="5528037481"/>
    <nd ref="151362736"/>
    <tag k="cycleway:both" v="no"/>
    <tag k="highway" v="residential"/>
    <tag k="lit" v="yes"/>
    <tag k="maxspeed" v="30"/>
    <tag k="name" v="Rue Froment"/>
    <tag k="name:etymology:wikidata" v="Q1419387"/>
    <tag k="oneway" v="yes"/>
    <tag k="oneway:bicycle" v="no"/>
    <tag k="sidewalk" v="separate"/>
    <tag k="sidewalk:both:surface" v="asphalt"/>
    <tag k="smoothness" v="good"/>
    <tag k="surface" v="asphalt"/>
    <tag k="traffic_calming" v="table"/>
  </way>
  <way id="1197828189" version="5" timestamp="2024-08-10T06:04:24Z" changeset="155048101" uid="17330386" user="FloBob">
    <nd ref="5528037477"/>
    <nd ref="5528037478"/>
    <nd ref="151362736"/>
    <tag k="cycleway:both" v="no"/>
    <tag k="highway" v="residential"/>
    <tag k="lit" v="yes"/>
    <tag k="maxspeed" v="30"/>
    <tag k="name" v="Rue du Commandant Lamy"/>
    <tag k="name:etymology:wikidata" v="Q353572"/>
    <tag k="oneway" v="yes"/>
    <tag k="oneway:bicycle" v="no"/>
    <tag k="sidewalk:both" v="separate"/>
    <tag k="sidewalk:both:surface" v="asphalt"/>
    <tag k="smoothness" v="good"/>
    <tag k="surface" v="asphalt"/>
    <tag k="traffic_calming" v="table"/>
  </way>
  <way id="1199768948" version="8" timestamp="2025-01-23T09:20:32Z" changeset="161665932" uid="7512839" user="Benoît C MdP">
    <nd ref="6806291142"/>
    <nd ref="11253108232"/>
    <tag k="busway:right" v="lane"/>
    <tag k="cycleway:left" v="separate"/>
    <tag k="cycleway:right" v="no"/>
    <tag k="enforcement:operator" v="Police nationale"/>
    <tag k="highway" v="primary"/>
    <tag k="lanes" v="5"/>
    <tag k="lanes:backward" v="3"/>
    <tag k="lanes:forward" v="2"/>
    <tag k="lit" v="yes"/>
    <tag k="maxspeed" v="30"/>
    <tag k="name" v="Boulevard Beaumarchais"/>
    <tag k="name:etymology:wikidata" v="Q70326"/>
    <tag k="operator" v="Ville de Paris"/>
    <tag k="operator:authority" v="Maire de Paris après avis du préfet de police"/>
    <tag k="operator:authority:related_law" v="IV de l'article L. 2512-14 du code général des collectivités territoriales"/>
    <tag k="operator:url" v="https://cdn.paris.fr/paris/2020/02/26/5bf469a311d0beb9911e92d113781550.ai"/>
    <tag k="psv:lanes:backward" v="designated||"/>
    <tag k="sidewalk:both" v="separate"/>
    <tag k="smoothness" v="good"/>
    <tag k="surface" v="asphalt"/>
  </way>
  <way id="1214885548" version="4" timestamp="2024-04-13T19:11:28Z" changeset="149966043" uid="6290466" user="benjamintchik">
    <nd ref="5528037495"/>
    <nd ref="431394661"/>
    <tag k="cycleway" v="opposite"/>
    <tag k="highway" v="residential"/>
    <tag k="lit" v="yes"/>
    <tag k="maxspeed" v="30"/>
    <tag k="name" v="Rue Saint-Sabin"/>
    <tag k="name:etymology" v="Charles Pierre Angelenne de Saint-Sabin était échevin de la Ville de Paris lorsque le tracé de cette voie fut rectifié en 1777."/>
    <tag k="oneway" v="yes"/>
    <tag k="oneway:bicycle" v="no"/>
    <tag k="sidewalk:left" v="separate"/>
    <tag k="sidewalk:right" v="no"/>
    <tag k="smoothness" v="good"/>
    <tag k="surface" v="asphalt"/>
  </way>
  <way id="1214885549" version="6" timestamp="2024-04-13T19:13:13Z" changeset="149966043" uid="6290466" user="benjamintchik">
    <nd ref="151362822"/>
    <nd ref="5528037489"/>
    <nd ref="152739591"/>
    <nd ref="5528037488"/>
    <nd ref="5528037486"/>
    <nd ref="151362823"/>
    <nd ref="1307127453"/>
    <nd ref="11114591406"/>
    <nd ref="5324631711"/>
    <nd ref="11056219138"/>
    <nd ref="7995599849"/>
    <nd ref="5717695499"/>
    <nd ref="11328096078"/>
    <nd ref="11056219137"/>
    <nd ref="619140581"/>
    <nd ref="9992202214"/>
    <nd ref="9992202212"/>
    <nd ref="11497076163"/>
    <nd ref="5528037421"/>
    <nd ref="151362824"/>
    <tag k="cycleway" v="opposite"/>
    <tag k="highway" v="residential"/>
    <tag k="lit" v="yes"/>
    <tag k="maxspeed" v="30"/>
    <tag k="name" v="Rue Bréguet"/>
    <tag k="name:etymology:wikidata" v="Q123679"/>
    <tag k="name:fr" v="Rue Bréguet"/>
    <tag k="oneway" v="yes"/>
    <tag k="oneway:bicycle" v="no"/>
    <tag k="sidewalk:both" v="separate"/>
    <tag k="sidewalk:both:surface" v="asphalt"/>
    <tag k="surface" v="asphalt"/>
  </way>
  <way id="1239610199" version="2" timestamp="2024-04-13T19:14:30Z" changeset="149966043" uid="6290466" user="benjamintchik">
    <nd ref="6549456217"/>
    <nd ref="1307259219"/>
    <nd ref="3424757329"/>
    <nd ref="2284436588"/>
    <nd ref="5582836805"/>
    <nd ref="2284436590"/>
    <nd ref="5582836808"/>
    <nd ref="8809437"/>
    <nd ref="2284436594"/>
    <nd ref="5308046667"/>
    <nd ref="8596036822"/>
    <nd ref="5528037469"/>
    <nd ref="8809438"/>
    <nd ref="1301155822"/>
    <nd ref="6496145378"/>
    <nd ref="5528037471"/>
    <nd ref="1306180526"/>
    <nd ref="619140892"/>
    <nd ref="5528037474"/>
    <nd ref="8809439"/>
    <nd ref="5528037472"/>
    <nd ref="152740785"/>
    <nd ref="11056219167"/>
    <nd ref="8809440"/>
    <nd ref="11056219166"/>
    <nd ref="5308046666"/>
    <nd ref="1307259140"/>
    <nd ref="252682717"/>
    <nd ref="5528037262"/>
    <nd ref="7618092802"/>
    <nd ref="1323653853"/>
    <nd ref="6838438759"/>
    <nd ref="151363007"/>
    <nd ref="11066991994"/>
    <nd ref="5308046665"/>
    <nd ref="10186914881"/>
    <nd ref="621328978"/>
    <nd ref="367916799"/>
    <nd ref="1789061900"/>
    <nd ref="153512631"/>
    <tag k="highway" v="residential"/>
    <tag k="lanes" v="1"/>
    <tag k="lit" v="yes"/>
    <tag k="maxspeed" v="30"/>
    <tag k="name" v="Rue de la Roquette"/>
    <tag k="name:etymology:wikidata" v="Q3413209"/>
    <tag k="oneway" v="yes"/>
    <tag k="sidewalk:both" v="separate"/>
    <tag k="sidewalk:both:surface" v="asphalt"/>
    <tag k="smoothness" v="good"/>
    <tag k="source" v="cadastre-dgi-fr source : Direction Générale des Impôts - Cadastre. Mise à jour : 2010"/>
    <tag k="surface" v="asphalt"/>
    <tag k="width" v="3"/>
  </way>
  <way id="1251223794" version="2" timestamp="2024-09-09T07:01:50Z" changeset="156380027" uid="7512839" user="Benoît C MdP">
    <nd ref="6808875103"/>
    <nd ref="12164926920"/>
    <nd ref="123497817"/>
    <tag k="dual_carriageway" v="yes"/>
    <tag k="highway" v="primary"/>
    <tag k="lane_markings" v="no"/>
    <tag k="lit" v="yes"/>
    <tag k="maxspeed" v="30"/>
    <tag k="name" v="Boulevard de Charonne"/>
    <tag k="name:etymology:wikidata" v="Q728591"/>
    <tag k="oneway" v="yes"/>
    <tag k="parking:left" v="lane"/>
    <tag k="parking:left:orientation" v="parallel"/>
    <tag k="parking:right" v="no"/>
    <tag k="sidewalk:both" v="separate"/>
    <tag k="source" v="cadastre-dgi-fr source : Direction Générale des Impôts - Cadastre. Mise à jour : 2010"/>
    <tag k="surface" v="asphalt"/>
  </way>
  <way id="1251223796" version="2" timestamp="2024-05-24T13:28:50Z" changeset="151770131" uid="21159449" user="elisabeth_geovelo">
    <nd ref="560860390"/>
    <nd ref="123496677"/>
    <nd ref="11068720774"/>
    <tag k="dual_carriageway" v="yes"/>
    <tag k="highway" v="primary"/>
    <tag k="lane_markings" v="no"/>
    <tag k="lit" v="yes"/>
    <tag k="maxspeed" v="30"/>
    <tag k="name" v="Boulevard de Charonne"/>
    <tag k="name:etymology:wikidata" v="Q728591"/>
    <tag k="oneway" v="yes"/>
    <tag k="parking:left" v="lane"/>
    <tag k="parking:left:orientation" v="parallel"/>
    <tag k="parking:right" v="no"/>
    <tag k="sidewalk:both" v="separate"/>
    <tag k="source" v="cadastre-dgi-fr source : Direction Générale des Impôts - Cadastre. Mise à jour : 2010"/>
    <tag k="surface" v="asphalt"/>
  </way>
  <way id="1273950119" version="1" timestamp="2024-04-18T22:27:56Z" changeset="150196538" uid="7550430" user="Britzz">
    <nd ref="787351210"/>
    <nd ref="11829357325"/>
    <nd ref="787348076"/>
    <nd ref="787346995"/>
    <nd ref="787355940"/>
    <nd ref="787393947"/>
    <nd ref="787379691"/>
    <nd ref="1301125030"/>
    <nd ref="11829357326"/>
    <nd ref="787401642"/>
    <nd ref="787351210"/>
    <tag k="addr:housenumber" v="8"/>
    <tag k="addr:street" v="Boulevard Beaumarchais"/>
    <tag k="building" v="apartments"/>
    <tag k="building:levels" v="6"/>
    <tag k="name" v="Le Petit Beaumarchais"/>
    <tag k="roof:levels" v="1"/>
    <tag k="source" v="cadastre-dgi-fr source : Direction Générale des Impôts - Cadastre. Mise à jour : 2010"/>
    <tag k="tourism" v="hotel"/>
    <tag k="website" v="https://hotelpetitbeaumarchaisparis.com/"/>
  </way>
  <way id="1303714896" version="2" timestamp="2024-08-15T17:26:47Z" changeset="155294126" uid="11963177" user="JeroenvanderGun">
    <nd ref="6665117709"/>
    <nd ref="6554662999"/>
    <nd ref="6554662989"/>
    <tag k="cycleway:left" v="separate"/>
    <tag k="cycleway:right" v="no"/>
    <tag k="enforcement:operator" v="Police nationale"/>
    <tag k="foot" v="no"/>
    <tag k="highway" v="primary"/>
    <tag k="lanes" v="5"/>
    <tag k="lanes:backward" v="2"/>
    <tag k="lanes:forward" v="3"/>
    <tag k="lit" v="yes"/>
    <tag k="maxspeed" v="30"/>
    <tag k="name" v="Place de la Bastille"/>
    <tag k="name:da" v="Bastillepladsen"/>
    <tag k="name:etymology:wikidata" v="Q1865480"/>
    <tag k="name:fr" v="Place de la Bastille"/>
    <tag k="name:zh" v="巴士底广场"/>
    <tag k="operator" v="Ville de Paris"/>
    <tag k="operator:authority" v="Maire de Paris après avis du préfet de police"/>
    <tag k="operator:authority:related_law" v="IV de l'article L. 2512-14 du code général des collectivités territoriales"/>
    <tag k="operator:url" v="https://cdn.paris.fr/paris/2020/02/26/5bf469a311d0beb9911e92d113781550.ai"/>
    <tag k="sidewalk:both" v="separate"/>
    <tag k="smoothness" v="good"/>
    <tag k="surface" v="asphalt"/>
    <tag k="turn:lanes:backward" v="left|"/>
    <tag k="turn:lanes:forward" v="through|right|right"/>
  </way>
  <way id="1381200990" version="1" timestamp="2025-04-25T16:38:03Z" changeset="165433399" uid="703542" user="nuitsfauves">
    <nd ref="148944518"/>
    <nd ref="2385215260"/>
    <nd ref="2385215153"/>
    <nd ref="148944519"/>
    <tag k="cycleway:both" v="no"/>
    <tag k="highway" v="residential"/>
    <tag k="lit" v="yes"/>
    <tag k="maxspeed" v="30"/>
    <tag k="name" v="Rue Duranti"/>
    <tag k="name:etymology:wikidata" v="Q3170255"/>
    <tag k="oneway" v="yes"/>
    <tag k="oneway:bicycle" v="no"/>
    <tag k="sidewalk:both" v="separate"/>
    <tag k="smoothness" v="intermediate"/>
    <tag k="surface" v="asphalt"/>
    <tag k="zone:maxspeed" v="FR:30"/>
  </way>
  <relation id="1002474" version="8" timestamp="2025-03-23T07:49:16Z" changeset="163974851" uid="974272" user="baprischka">
    <member type="way" ref="63646240" role="outer"/>
    <member type="way" ref="63639472" role="inner"/>
    <tag k="alt_name" v="Mairie du XIème; Mairie du 11ème"/>
    <tag k="amenity" v="townhall"/>
    <tag k="building" v="civic"/>
    <tag k="building:levels" v="2"/>
    <tag k="check_date" v="2025-03-23"/>
    <tag k="contact:phone" v="+33 1 53 27 11 11"/>
    <tag k="contact:website" v="https://mairie11.paris.fr/"/>
    <tag k="name" v="Mairie du 11e arrondissement"/>
    <tag k="opening_hours" v="Mo-We 08:30-17:00; Th 08:30-19:30; Fr 08:30-17:00; Sa 09:00-12:30"/>
    <tag k="ref:FR:SIRET" v="21750001608632"/>
    <tag k="roof:levels" v="1"/>
    <tag k="townhall:type" v="Mairie d'arrondissement"/>
    <tag k="type" v="multipolygon"/>
    <tag k="wheelchair" v="yes"/>
    <tag k="wikidata" v="Q3278482"/>
    <tag k="wikipedia" v="fr:Mairie du 11e arrondissement de Paris"/>
  </relation>
  <relation id="1002504" version="4" timestamp="2022-08-18T20:49:53Z" changeset="125080620" uid="502891" user="chabe01">
    <member type="way" ref="63640018" role="outer"/>
    <member type="way" ref="63642669" role="inner"/>
    <tag k="amenity" v="social_facility"/>
    <tag k="building" v="yes"/>
    <tag k="name" v="Logements Philippe Auguste"/>
    <tag k="ref:FR:FINESS" v="750801136"/>
    <tag k="social_facility" v="group_home"/>
    <tag k="social_facility:for" v="senior"/>
    <tag k="source:ref:FR:FINESS" v="data.gouv.fr:Ministère des Affaires sociales et de la Santé - 2014-05-05"/>
    <tag k="type" v="multipolygon"/>
    <tag k="type:FR:FINESS" v="202"/>
    <tag k="wikidata" v="Q112924159"/>
  </relation>
  <relation id="1002516" version="7" timestamp="2024-12-20T11:37:20Z" changeset="160429263" uid="974272" user="baprischka">
    <member type="way" ref="63646394" role="outer"/>
    <member type="way" ref="63649305" role="inner"/>
    <tag k="addr:city" v="Paris"/>
    <tag k="addr:housenumber" v="35"/>
    <tag k="addr:postcode" v="75011"/>
    <tag k="addr:street" v="Rue Richard Lenoir"/>
    <tag k="building" v="yes"/>
    <tag k="building:levels" v="5"/>
    <tag k="check_date" v="2024-12-20"/>
    <tag k="internet_access" v="yes"/>
    <tag k="internet_access:fee" v="no"/>
    <tag k="name" v="Richard"/>
    <tag k="roof:levels" v="1"/>
    <tag k="rooms" v="40"/>
    <tag k="stars" v="1"/>
    <tag k="tourism" v="hotel"/>
    <tag k="type" v="multipolygon"/>
    <tag k="website" v="https://hotel-richard-paris-bastille.com"/>
  </relation>
  <relation id="1002539" version="5" timestamp="2023-05-02T16:52:50Z" changeset="135625193" uid="703542" user="nuitsfauves">
    <member type="way" ref="63649453" role="outer"/>
    <member type="way" ref="63639053" role="inner"/>
    <tag k="addr:city" v="Paris"/>
    <tag k="addr:housenumber" v="18"/>
    <tag k="addr:postcode" v="75011"/>
    <tag k="addr:street" v="Rue de Belfort"/>
    <tag k="building" v="apartments"/>
    <tag k="building:levels" v="6"/>
    <tag k="type" v="multipolygon"/>
  </relation>
  <relation id="1002550" version="3" timestamp="2021-04-21T18:27:58Z" changeset="103359261" uid="2517256" user="spipau">
    <member type="way" ref="63645401" role="outer"/>
    <member type="way" ref="63648944" role="inner"/>
    <tag k="building" v="public"/>
    <tag k="building:levels" v="6"/>
    <tag k="name" v="Centre des Finances Publiques"/>
    <tag k="roof:levels" v="1"/>
    <tag k="type" v="multipolygon"/>
  </relation>
  <relation id="1002636" version="3" timestamp="2025-04-30T20:27:57Z" changeset="165651064" uid="21907103" user="UrbanRoaming">
    <member type="way" ref="63640242" role="outer"/>
    <member type="way" ref="63643442" role="inner"/>
    <tag k="building" v="yes"/>
    <tag k="building:levels" v="4"/>
    <tag k="check_date" v="2025-04-30"/>
    <tag k="contact:website" v="http://www.standard-design-hotel-paris.com"/>
    <tag k="name" v="Hotel Standard Design"/>
    <tag k="stars" v="3"/>
    <tag k="tourism" v="hotel"/>
    <tag k="type" v="multipolygon"/>
  </relation>
  <relation id="1002725" version="7" timestamp="2024-08-08T20:32:51Z" changeset="154995472" uid="5670825" user="Christophe Raverdy">
    <member type="way" ref="63641578" role="outer"/>
    <member type="way" ref="63645831" role="inner"/>
    <member type="way" ref="63649098" role="inner"/>
    <tag k="addr:city" v="Paris"/>
    <tag k="addr:housenumber" v="226"/>
    <tag k="addr:postcode" v="75011"/>
    <tag k="addr:street" v="Boulevard Voltaire"/>
    <tag k="building" v="apartments"/>
    <tag k="type" v="multipolygon"/>
  </relation>
  <relation id="1002786" version="6" timestamp="2022-08-18T20:49:53Z" changeset="125080620" uid="502891" user="chabe01">
    <member type="way" ref="63638605" role="outer"/>
    <member type="way" ref="63640021" role="inner"/>
    <tag k="amenity" v="social_facility"/>
    <tag k="building" v="apartments"/>
    <tag k="building:levels" v="8"/>
    <tag k="name" v="Résidence Omer Talon"/>
    <tag k="operator" v="Mairie de Paris"/>
    <tag k="ref:FR:FINESS" v="750800831"/>
    <tag k="social_facility" v="assisted_living"/>
    <tag k="social_facility:for" v="senior"/>
    <tag k="source:ref:FR:FINESS" v="data.gouv.fr:Ministère des Solidarités et de la Santé - 2021-03"/>
    <tag k="type" v="multipolygon"/>
    <tag k="type:FR:FINESS" v="202"/>
    <tag k="wikidata" v="Q112924124"/>
  </relation>
  <relation id="1627893" version="4" timestamp="2024-07-02T08:17:19Z" changeset="153443406" uid="2179792" user="votre_solution_de_visibilite_digitale_locale">
    <member type="way" ref="117971293" role="inner"/>
    <member type="way" ref="117971287" role="outer"/>
    <tag k="amenity" v="restaurant"/>
    <tag k="building" v="yes"/>
    <tag k="building:levels" v="2"/>
    <tag k="contact:phone" v="+33 1 40 09 70 30"/>
    <tag k="name" v="Yard"/>
    <tag k="type" v="multipolygon"/>
  </relation>
  <relation id="1634274" version="4" timestamp="2023-02-12T16:07:27Z" changeset="132452491" uid="11291363" user="u4Dy46Xe">
    <member type="way" ref="118642315" role="inner"/>
    <member type="way" ref="118642314" role="inner"/>
    <member type="way" ref="118642308" role="inner"/>
    <member type="way" ref="118642312" role="outer"/>
    <tag k="addr:city" v="Paris"/>
    <tag k="addr:housename" v="Telehouse 2"/>
    <tag k="addr:housenumber" v="137"/>
    <tag k="addr:postcode" v="75011"/>
    <tag k="addr:street" v="Boulevard Voltaire"/>
    <tag k="building" v="apartments"/>
    <tag k="building:levels" v="6"/>
    <tag k="name" v="Telehouse 2"/>
    <tag k="type" v="multipolygon"/>
  </relation>
  <relation id="14527684" version="1" timestamp="2022-09-01T08:29:55Z" changeset="125643925" uid="1205555" user="benoitdd">
    <member type="way" ref="63644005" role="outer"/>
    <member type="way" ref="1090935352" role="outer"/>
    <tag k="building" v="office"/>
    <tag k="building:levels" v="6"/>
    <tag k="name" v="EPSILON France"/>
    <tag k="roof:levels" v="1"/>
    <tag k="source" v="cadastre-dgi-fr source : Direction Générale des Impôts - Cadastre. Mise à jour : 2010"/>
    <tag k="type" v="multipolygon"/>
  </relation>

</osm>
