<?xml version="1.0" encoding="UTF-8"?>
<osm version="0.6" generator="Overpass API 0.7.62.5 1bd436f1">
<note>The data included in this document is from www.openstreetmap.org. The data is made available under ODbL.</note>
<meta osm_base="2025-05-17T22:15:11Z" areas="2024-12-31T00:49:33Z"/>

  <node id="361074" lat="48.8612278" lon="2.3534869" version="12" timestamp="2022-10-19T08:35:31Z" changeset="127766292" uid="138059" user="Truchin">
    <tag k="highway" v="traffic_signals"/>
    <tag k="source" v="local Knowledge"/>
  </node>
  <node id="15644057" lat="48.8585119" lon="2.3482157" version="17" timestamp="2024-10-16T13:52:18Z" changeset="157965764" uid="17310249" user="VLD275">
    <tag k="highway" v="crossing"/>
  </node>
  <node id="25554694" lat="48.8571857" lon="2.3472935" version="10" timestamp="2020-05-26T12:26:03Z" changeset="85770437" uid="311391" user="patman37"/>
  <node id="25554711" lat="48.8558191" lon="2.3508126" version="7" timestamp="2023-01-13T20:08:44Z" changeset="131243738" uid="7550430" user="Britzz"/>
  <node id="411256174" lat="48.8615144" lon="2.3479749" version="2" timestamp="2015-05-11T21:56:54Z" changeset="31020150" uid="656876" user="Fabus1393"/>
  <node id="676821350" lat="48.8572394" lon="2.3471199" version="7" timestamp="2023-09-21T18:15:48Z" changeset="141572412" uid="9588949" user="cavejlam">
    <tag k="bicycle" v="yes"/>
    <tag k="comment" v="test fonction étapes véloroute"/>
    <tag k="highway" v="traffic_signals"/>
    <tag k="name" v="Paris"/>
    <tag k="route_bicycle" v="stage"/>
    <tag k="source" v="paneuropa-radweg.de"/>
    <tag k="traffic_signals" v="signal"/>
  </node>
  <node id="1513497237" lat="48.8566330" lon="2.3488863" version="11" timestamp="2025-01-02T11:08:45Z" changeset="160901910" uid="15118949" user="Nzau">
    <tag k="button_operated" v="no"/>
    <tag k="check_date:traffic_signals:sound" v="2022-04-15"/>
    <tag k="crossing" v="traffic_signals"/>
    <tag k="crossing:markings" v="zebra"/>
    <tag k="highway" v="crossing"/>
    <tag k="source" v="Bing"/>
    <tag k="tactile_paving" v="yes"/>
    <tag k="traffic_signals:sound" v="no"/>
    <tag k="traffic_signals:vibration" v="no"/>
  </node>
  <node id="1513501834" lat="48.8559121" lon="2.3507746" version="11" timestamp="2025-01-02T11:08:45Z" changeset="160901910" uid="15118949" user="Nzau">
    <tag k="crossing" v="traffic_signals"/>
    <tag k="crossing:markings" v="zebra"/>
    <tag k="highway" v="crossing"/>
    <tag k="kerb" v="lowered"/>
    <tag k="tactile_paving" v="yes"/>
    <tag k="traffic_signals:sound" v="no"/>
  </node>
  <node id="1841311669" lat="48.8585429" lon="2.3482333" version="3" timestamp="2019-05-06T20:19:00Z" changeset="69950576" uid="311391" user="patman37"/>
  <node id="2200326715" lat="48.8619498" lon="2.3501549" version="23" timestamp="2025-01-02T11:08:55Z" changeset="160901920" uid="15118949" user="Nzau">
    <tag k="button_operated" v="yes"/>
    <tag k="crossing" v="traffic_signals"/>
    <tag k="crossing:island" v="no"/>
    <tag k="crossing:markings" v="zebra"/>
    <tag k="highway" v="crossing"/>
    <tag k="kerb" v="lowered"/>
    <tag k="tactile_paving" v="yes"/>
    <tag k="traffic_signals:sound" v="yes"/>
    <tag k="traffic_signals:vibration" v="yes"/>
  </node>
  <node id="2883229672" lat="48.8576537" lon="2.3480340" version="4" timestamp="2020-10-24T15:16:33Z" changeset="92991413" uid="1424448" user="nlehuby">
    <tag k="bus" v="yes"/>
    <tag k="name" v="Châtelet"/>
    <tag k="public_transport" v="stop_position"/>
    <tag k="source" v="survey"/>
  </node>
  <node id="3657885239" lat="48.8556124" lon="2.3530317" version="5" timestamp="2019-04-07T20:28:33Z" changeset="68986385" uid="311391" user="patman37"/>
  <node id="4616996334" lat="48.8580983" lon="2.3479898" version="6" timestamp="2020-10-24T15:16:33Z" changeset="92991413" uid="1424448" user="nlehuby">
    <tag k="bus" v="yes"/>
    <tag k="name" v="Châtelet"/>
    <tag k="public_transport" v="stop_position"/>
    <tag k="source" v="survey"/>
  </node>
  <node id="5041260572" lat="48.8552984" lon="2.3528558" version="1" timestamp="2017-08-17T14:39:09Z" changeset="51207571" uid="208829" user="Géovélo"/>
  <node id="5041260574" lat="48.8552916" lon="2.3525744" version="4" timestamp="2019-04-07T20:28:59Z" changeset="68986393" uid="311391" user="patman37"/>
  <node id="5919299085" lat="48.8569101" lon="2.3538101" version="7" timestamp="2025-01-30T10:50:02Z" changeset="161932292" uid="7512839" user="Benoît C MdP"/>
  <node id="6282960235" lat="48.8584753" lon="2.3481964" version="2" timestamp="2024-10-16T13:49:52Z" changeset="157965661" uid="17310249" user="VLD275">
    <tag k="highway" v="crossing"/>
  </node>
  <node id="7047107741" lat="48.8554190" lon="2.3529265" version="3" timestamp="2024-10-25T21:20:19Z" changeset="158355491" uid="19867806" user="VLD314">
    <tag k="bicycle" v="designated"/>
    <tag k="crossing" v="marked"/>
    <tag k="crossing:markings" v="pictogram"/>
    <tag k="highway" v="crossing"/>
  </node>
  <node id="8578385103" lat="48.8569325" lon="2.3538382" version="3" timestamp="2025-01-30T10:50:02Z" changeset="161932292" uid="7512839" user="Benoît C MdP"/>
  <node id="11033269490" lat="48.8562416" lon="2.3465959" version="1" timestamp="2023-07-07T20:33:43Z" changeset="138243759" uid="6400591" user="waterced"/>
  <way id="4039350" version="37" timestamp="2024-08-15T17:22:30Z" changeset="155293930" uid="11963177" user="JeroenvanderGun">
    <nd ref="361068"/>
    <nd ref="2165221537"/>
    <nd ref="4503161883"/>
    <nd ref="25554712"/>
    <tag k="cycleway:both" v="no"/>
    <tag k="enforcement:operator" v="Police nationale"/>
    <tag k="highway" v="primary"/>
    <tag k="lanes" v="5"/>
    <tag k="lanes:backward" v="2"/>
    <tag k="lanes:forward" v="3"/>
    <tag k="lit" v="yes"/>
    <tag k="maxspeed" v="30"/>
    <tag k="name" v="Quai de l'Hôtel de Ville"/>
    <tag k="name:etymology:wikidata" v="Q640968"/>
    <tag k="operator" v="Ville de Paris"/>
    <tag k="operator:authority" v="Maire de Paris dans le respect des prescriptions prises par le préfet de police"/>
    <tag k="operator:authority:related_law" v="III de l'article L. 2512-14 du code général des collectivités territoriales"/>
    <tag k="sidewalk:left" v="separate"/>
    <tag k="sidewalk:right" v="yes"/>
    <tag k="smoothness" v="good"/>
    <tag k="source" v="Bing"/>
    <tag k="source:maxspeed" v="FR:urban"/>
    <tag k="source:operator:authority" v="https://www.legifrance.gouv.fr/loda/id/LEGIARTI000035244298/#LEGIARTI000035244298"/>
    <tag k="surface" v="asphalt"/>
    <tag k="turn:lanes:backward" v="right|right"/>
    <tag k="zone:traffic" v="FR:urban"/>
  </way>
  <way id="4039366" version="49" timestamp="2025-01-16T09:28:00Z" changeset="161409963" uid="7512839" user="Benoît C MdP">
    <nd ref="25554694"/>
    <nd ref="7559552839"/>
    <nd ref="7559552840"/>
    <nd ref="676890492"/>
    <nd ref="1924241863"/>
    <nd ref="557366294"/>
    <nd ref="676860056"/>
    <nd ref="4619165930"/>
    <tag k="busway:right" v="lane"/>
    <tag k="cycleway:left" v="separate"/>
    <tag k="cycleway:right" v="share_busway"/>
    <tag k="enforcement:operator" v="Police nationale"/>
    <tag k="highway" v="primary"/>
    <tag k="lanes" v="5"/>
    <tag k="lit" v="yes"/>
    <tag k="maxspeed" v="30"/>
    <tag k="name" v="Place du Châtelet"/>
    <tag k="oneway" v="yes"/>
    <tag k="operator" v="Ville de Paris"/>
    <tag k="operator:authority" v="Maire de Paris dans le respect des prescriptions prises par le préfet de police"/>
    <tag k="operator:authority:related_law" v="III de l'article L. 2512-14 du code général des collectivités territoriales"/>
    <tag k="parking:lane:both" v="no"/>
    <tag k="sidewalk" v="separate"/>
    <tag k="sidewalk:both:surface" v="asphalt"/>
    <tag k="smoothness" v="excellent"/>
    <tag k="source" v="Bing"/>
    <tag k="source:operator:authority" v="https://www.legifrance.gouv.fr/loda/id/LEGIARTI000035244298/#LEGIARTI000035244298"/>
    <tag k="surface" v="asphalt"/>
    <tag k="zone:traffic" v="FR:urban"/>
  </way>
  <way id="4039626" version="27" timestamp="2024-08-15T17:22:30Z" changeset="155293930" uid="11963177" user="JeroenvanderGun">
    <nd ref="676821350"/>
    <nd ref="25554694"/>
    <tag k="bicycle" v="yes"/>
    <tag k="busway:right" v="track"/>
    <tag k="cycleway:right" v="share_busway"/>
    <tag k="enforcement:operator" v="Police nationale"/>
    <tag k="highway" v="primary"/>
    <tag k="lanes" v="5"/>
    <tag k="lit" v="yes"/>
    <tag k="maxspeed" v="30"/>
    <tag k="name" v="Quai de Gesvres"/>
    <tag k="name:etymology:wikidata" v="Q3426770"/>
    <tag k="oneway" v="yes"/>
    <tag k="operator" v="Ville de Paris"/>
    <tag k="operator:authority" v="Maire de Paris dans le respect des prescriptions prises par le préfet de police"/>
    <tag k="operator:authority:related_law" v="III de l'article L. 2512-14 du code général des collectivités territoriales"/>
    <tag k="sidewalk" v="separate"/>
    <tag k="sidewalk:left:surface" v="asphalt"/>
    <tag k="sidewalk:right:surface" v="paving_stones"/>
    <tag k="smoothness" v="good"/>
    <tag k="source" v="Bing"/>
    <tag k="source:operator:authority" v="https://www.legifrance.gouv.fr/loda/id/LEGIARTI000035244298/#LEGIARTI000035244298"/>
    <tag k="surface" v="asphalt"/>
    <tag k="zone:traffic" v="FR:urban"/>
  </way>
  <way id="4039655" version="29" timestamp="2024-08-15T17:22:30Z" changeset="155293930" uid="11963177" user="JeroenvanderGun">
    <nd ref="644160"/>
    <nd ref="1513497237"/>
    <tag k="bicycle" v="yes"/>
    <tag k="cycleway:left" v="no"/>
    <tag k="cycleway:right" v="track"/>
    <tag k="enforcement:operator" v="Police nationale"/>
    <tag k="highway" v="secondary"/>
    <tag k="lanes" v="2"/>
    <tag k="lit" v="yes"/>
    <tag k="maxspeed" v="30"/>
    <tag k="name" v="Pont Notre-Dame"/>
    <tag k="name:etymology:wikidata" v="Q2981"/>
    <tag k="oneway" v="yes"/>
    <tag k="operator" v="Ville de Paris"/>
    <tag k="operator:authority" v="Maire de Paris dans le respect des prescriptions prises par le préfet de police"/>
    <tag k="operator:authority:related_law" v="III de l'article L. 2512-14 du code général des collectivités territoriales"/>
    <tag k="sidewalk" v="separate"/>
    <tag k="smoothness" v="good"/>
    <tag k="source:maxspeed" v="FR:urban"/>
    <tag k="source:operator:authority" v="https://www.legifrance.gouv.fr/loda/id/LEGIARTI000035244298/#LEGIARTI000035244298"/>
    <tag k="surface" v="asphalt"/>
    <tag k="wikidata" v="Q1061959"/>
    <tag k="wikipedia" v="fr:Pont Notre-Dame"/>
    <tag k="zone:traffic" v="FR:urban"/>
  </way>
  <way id="4040099" version="30" timestamp="2024-10-18T20:10:29Z" changeset="158066386" uid="7512839" user="Benoît C MdP">
    <nd ref="368133"/>
    <nd ref="9601909078"/>
    <nd ref="6335319278"/>
    <nd ref="4503171489"/>
    <nd ref="2165221545"/>
    <nd ref="644160"/>
    <tag k="cycleway:left" v="no"/>
    <tag k="cycleway:right" v="separate"/>
    <tag k="cycleway:right:width" v="3"/>
    <tag k="highway" v="secondary"/>
    <tag k="lanes" v="2"/>
    <tag k="lit" v="yes"/>
    <tag k="maxspeed" v="30"/>
    <tag k="name" v="Rue Saint-Martin"/>
    <tag k="name:etymology:wikidata" v="Q656302"/>
    <tag k="oneway" v="yes"/>
    <tag k="sidewalk:both" v="separate"/>
    <tag k="sidewalk:both:surface" v="asphalt"/>
    <tag k="smoothness" v="good"/>
    <tag k="source" v="Bing"/>
    <tag k="source:maxspeed" v="FR:urban"/>
    <tag k="surface" v="asphalt"/>
    <tag k="was:lanes" v="3"/>
  </way>
  <way id="4261422" version="21" timestamp="2024-07-30T08:22:40Z" changeset="154594220" uid="2678738" user="fgouget">
    <nd ref="1513501834"/>
    <nd ref="4503161884"/>
    <nd ref="25554711"/>
    <tag k="bridge" v="yes"/>
    <tag k="highway" v="residential"/>
    <tag k="layer" v="1"/>
    <tag k="lit" v="yes"/>
    <tag k="maxspeed" v="30"/>
    <tag k="maxweight:signed" v="no"/>
    <tag k="name" v="Pont d'Arcole"/>
    <tag k="name:etymology" v="un jeune apprenti serrurier, fils d'un ancien sergent, tué au cours des Trois Glorieuses, le 28 juillet 1830, lors d'une contre-attaque des insurgés contre l'Hôtel de ville"/>
    <tag k="oneway" v="yes"/>
    <tag k="sidewalk:left" v="no"/>
    <tag k="sidewalk:right" v="separate"/>
    <tag k="smoothness" v="good"/>
    <tag k="surface" v="asphalt"/>
  </way>
  <way id="4261423" version="19" timestamp="2024-07-30T08:22:49Z" changeset="154594220" uid="2678738" user="fgouget">
    <nd ref="25554711"/>
    <nd ref="3382949002"/>
    <nd ref="1513501833"/>
    <tag k="bridge" v="yes"/>
    <tag k="cycleway:right" v="no"/>
    <tag k="highway" v="residential"/>
    <tag k="layer" v="1"/>
    <tag k="lit" v="yes"/>
    <tag k="maxspeed" v="30"/>
    <tag k="maxweight:signed" v="no"/>
    <tag k="name" v="Pont d'Arcole"/>
    <tag k="name:etymology" v="un jeune apprenti serrurier, fils d'un ancien sergent, tué au cours des Trois Glorieuses, le 28 juillet 1830, lors d'une contre-attaque des insurgés contre l'Hôtel de ville"/>
    <tag k="oneway" v="yes"/>
    <tag k="sidewalk:left" v="no"/>
    <tag k="sidewalk:right" v="separate"/>
    <tag k="smoothness" v="good"/>
    <tag k="surface" v="asphalt"/>
  </way>
  <way id="4261465" version="27" timestamp="2024-02-15T21:51:06Z" changeset="147508720" uid="6290466" user="benjamintchik">
    <nd ref="4842846123"/>
    <nd ref="25554716"/>
    <nd ref="4505164273"/>
    <nd ref="2165221554"/>
    <nd ref="25554696"/>
    <tag k="bicycle" v="yes"/>
    <tag k="bicycle:lanes" v="yes|yes|designated"/>
    <tag k="busway:right" v="lane"/>
    <tag k="cycleway:right" v="share_busway"/>
    <tag k="highway" v="secondary"/>
    <tag k="lanes" v="3"/>
    <tag k="lanes:psv" v="1"/>
    <tag k="lit" v="yes"/>
    <tag k="maxspeed" v="30"/>
    <tag k="name" v="Rue de la Coutellerie"/>
    <tag k="name:etymology:wikidata" v="Q1436188"/>
    <tag k="oneway" v="yes"/>
    <tag k="psv:lanes" v="yes|yes|designated"/>
    <tag k="sidewalk:both" v="separate"/>
    <tag k="smoothness" v="excellent"/>
    <tag k="source" v="Bing"/>
    <tag k="source:maxspeed" v="FR:urban"/>
    <tag k="surface" v="asphalt"/>
  </way>
  <way id="4261466" version="19" timestamp="2024-02-22T08:08:41Z" changeset="147760119" uid="12287265" user="bilbosquet">
    <nd ref="25554716"/>
    <nd ref="7049745230"/>
    <nd ref="2165221565"/>
    <nd ref="7049745231"/>
    <nd ref="2165221591"/>
    <nd ref="5763283952"/>
    <tag k="highway" v="residential"/>
    <tag k="horse" v="no"/>
    <tag k="lit" v="yes"/>
    <tag k="maxspeed" v="30"/>
    <tag k="motor_vehicle" v="delivery"/>
    <tag k="name" v="Rue de la Tacherie"/>
    <tag k="oneway" v="yes"/>
    <tag k="sidewalk:both" v="separate"/>
    <tag k="smoothness" v="good"/>
    <tag k="surface" v="asphalt"/>
  </way>
  <way id="4476805" version="28" timestamp="2024-08-15T17:26:47Z" changeset="155294126" uid="11963177" user="JeroenvanderGun">
    <nd ref="361068"/>
    <nd ref="11036512459"/>
    <nd ref="4503161881"/>
    <nd ref="3657885240"/>
    <nd ref="10290370149"/>
    <nd ref="10290370148"/>
    <nd ref="361069"/>
    <tag k="bicycle" v="yes"/>
    <tag k="cycleway:right" v="lane"/>
    <tag k="cycleway:right:lane" v="advisory"/>
    <tag k="enforcement:operator" v="Police nationale"/>
    <tag k="highway" v="secondary"/>
    <tag k="lanes" v="2"/>
    <tag k="lit" v="yes"/>
    <tag k="maxspeed" v="30"/>
    <tag k="name" v="Place de l'Hôtel de Ville"/>
    <tag k="oneway" v="yes"/>
    <tag k="operator" v="Ville de Paris"/>
    <tag k="operator:authority" v="Maire de Paris après avis du préfet de police"/>
    <tag k="operator:authority:related_law" v="IV de l'article L. 2512-14 du code général des collectivités territoriales"/>
    <tag k="operator:url" v="https://cdn.paris.fr/paris/2020/02/26/5bf469a311d0beb9911e92d113781550.ai"/>
    <tag k="sidewalk:both" v="separate"/>
    <tag k="sidewalk:left:surface" v="asphalt"/>
    <tag k="sidewalk:right:surface" v="paving_stones"/>
    <tag k="smoothness" v="excellent"/>
    <tag k="source" v="Bing"/>
    <tag k="source:maxspeed" v="FR:urban"/>
    <tag k="surface" v="asphalt"/>
  </way>
  <way id="14155058" version="31" timestamp="2024-08-15T17:26:47Z" changeset="155294126" uid="11963177" user="JeroenvanderGun">
    <nd ref="2880767496"/>
    <nd ref="626937838"/>
    <nd ref="2165221552"/>
    <nd ref="25554697"/>
    <nd ref="25554696"/>
    <tag k="bicycle" v="yes"/>
    <tag k="bicycle:lanes" v="yes|yes|yes|designated"/>
    <tag k="busway:right" v="lane"/>
    <tag k="cycleway:left" v="no"/>
    <tag k="cycleway:right" v="share_busway"/>
    <tag k="enforcement:operator" v="Police nationale"/>
    <tag k="highway" v="secondary"/>
    <tag k="lanes" v="4"/>
    <tag k="lanes:psv" v="1"/>
    <tag k="lit" v="yes"/>
    <tag k="maxspeed" v="30"/>
    <tag k="name" v="Avenue Victoria"/>
    <tag k="name:etymology:wikidata" v="Q9439"/>
    <tag k="oneway" v="yes"/>
    <tag k="operator" v="Ville de Paris"/>
    <tag k="operator:authority" v="Maire de Paris après avis du préfet de police"/>
    <tag k="operator:authority:related_law" v="IV de l'article L. 2512-14 du code général des collectivités territoriales"/>
    <tag k="operator:url" v="https://cdn.paris.fr/paris/2020/02/26/5bf469a311d0beb9911e92d113781550.ai"/>
    <tag k="psv:lanes" v="yes|yes|yes|designated"/>
    <tag k="sidewalk:both" v="separate"/>
    <tag k="smoothness" v="excellent"/>
    <tag k="source" v="Bing"/>
    <tag k="source:maxspeed" v="FR:urban"/>
    <tag k="surface" v="asphalt"/>
  </way>
  <way id="20326709" version="56" timestamp="2024-02-15T21:07:49Z" changeset="147508308" uid="8772934" user="mapperich">
    <nd ref="215836783"/>
    <nd ref="215836784"/>
    <nd ref="625836561"/>
    <nd ref="625836560"/>
    <nd ref="625836558"/>
    <nd ref="215836786"/>
    <nd ref="625836557"/>
    <nd ref="11019625881"/>
    <nd ref="215836787"/>
    <nd ref="625836566"/>
    <nd ref="625836564"/>
    <nd ref="625836562"/>
    <nd ref="625836563"/>
    <nd ref="215836783"/>
    <tag k="building" v="public"/>
    <tag k="building:colour" v="#cac6ba"/>
    <tag k="building:levels" v="13"/>
    <tag k="building:material" v="stone"/>
    <tag k="height" v="52"/>
    <tag k="heritage" v="1"/>
    <tag k="heritage:operator" v="whc;mhs"/>
    <tag k="image" v="https://photos.app.goo.gl/V26GuK1RVJ5MBwEq8"/>
    <tag k="man_made" v="tower"/>
    <tag k="mhs:inscription_date" v="1862"/>
    <tag k="min_age" v="10"/>
    <tag k="name" v="Tour Saint-Jacques"/>
    <tag k="name:be" v="Вежа Сен-Жак"/>
    <tag k="name:en" v="Saint-Jacques Tower"/>
    <tag k="name:fr" v="Tour Saint-Jacques"/>
    <tag k="name:ru" v="Башня Сен-Жак"/>
    <tag k="old_name" v="Église Saint-Jacques-la-boucherie"/>
    <tag k="old_wikipedia" v="fr:Église_Saint-Jacques-la-Boucherie"/>
    <tag k="opening_hours" v="Fr-Su 10:00-18:00"/>
    <tag k="ref:mhs" v="PA00086479"/>
    <tag k="ref:whc" v="868-031"/>
    <tag k="source" v="data.gouv.fr:Ministère de la Culture - 08/2011"/>
    <tag k="start_date" v="C16"/>
    <tag k="tourism" v="attraction"/>
    <tag k="tower:type" v="bell_tower"/>
    <tag k="website" v="https://www.paris.fr/equipements/tour-saint-jacques-5045"/>
    <tag k="whc:inscription_date" v="1998"/>
    <tag k="wheelchair" v="no"/>
    <tag k="wikidata" v="Q1431547"/>
    <tag k="wikimedia_commons" v="Category:Tour Saint-Jacques"/>
    <tag k="wikipedia" v="fr:Tour Saint-Jacques"/>
  </way>
  <way id="20859602" version="42" timestamp="2024-02-16T14:58:44Z" changeset="147535874" uid="6290466" user="benjamintchik">
    <nd ref="26401482"/>
    <nd ref="2885012533"/>
    <nd ref="224146062"/>
    <nd ref="2124630215"/>
    <nd ref="25554704"/>
    <nd ref="411256178"/>
    <nd ref="25207381"/>
    <nd ref="2165221612"/>
    <nd ref="25554703"/>
    <nd ref="2165221607"/>
    <nd ref="2165221574"/>
    <nd ref="693476667"/>
    <tag k="bicycle:backward" v="use_sidepath"/>
    <tag k="busway:right" v="lane"/>
    <tag k="cycleway" v="separate"/>
    <tag k="highway" v="secondary"/>
    <tag k="lanes" v="1"/>
    <tag k="lit" v="yes"/>
    <tag k="maxspeed" v="30"/>
    <tag k="name" v="Rue du Renard"/>
    <tag k="name:etymology" v="une enseigne"/>
    <tag k="oneway" v="yes"/>
    <tag k="sidewalk" v="separate"/>
    <tag k="smoothness" v="good"/>
    <tag k="source" v="cadastre-dgi-fr source : Direction Générale des Impôts - Cadastre;mise à jour : 2010"/>
    <tag k="source:maxspeed" v="FR:urban"/>
    <tag k="surface" v="asphalt"/>
  </way>
  <way id="22674359" version="19" timestamp="2024-01-23T19:47:33Z" changeset="146604568" uid="14373797" user="PiGi75002">
    <nd ref="26400877"/>
    <nd ref="2165221596"/>
    <nd ref="693492407"/>
    <tag k="highway" v="residential"/>
    <tag k="lit" v="yes"/>
    <tag k="maxspeed" v="30"/>
    <tag k="name" v="Rue Saint-Bon"/>
    <tag k="oneway" v="yes"/>
    <tag k="sidewalk:both" v="separate"/>
    <tag k="smoothness" v="excellent"/>
    <tag k="surface" v="asphalt"/>
  </way>
  <way id="22715945" version="42" timestamp="2024-08-15T17:22:30Z" changeset="155293930" uid="11963177" user="JeroenvanderGun">
    <nd ref="25554524"/>
    <nd ref="2168591590"/>
    <nd ref="25554525"/>
    <nd ref="2168591594"/>
    <nd ref="25207379"/>
    <nd ref="8981647402"/>
    <nd ref="8981647403"/>
    <nd ref="8981647407"/>
    <nd ref="8981647404"/>
    <nd ref="680443050"/>
    <nd ref="2878817127"/>
    <nd ref="25554675"/>
    <nd ref="11070301701"/>
    <nd ref="25554674"/>
    <nd ref="2200326715"/>
    <tag k="bicycle:backward" v="use_sidepath"/>
    <tag k="bicycle:lanes" v="yes|yes|designated"/>
    <tag k="busway:right" v="lane"/>
    <tag k="cycleway:left" v="separate"/>
    <tag k="cycleway:right" v="share_busway"/>
    <tag k="enforcement:operator" v="Police nationale"/>
    <tag k="highway" v="primary"/>
    <tag k="lanes" v="3"/>
    <tag k="lanes:psv" v="1"/>
    <tag k="lit" v="yes"/>
    <tag k="maxspeed" v="30"/>
    <tag k="name" v="Boulevard de Sébastopol"/>
    <tag k="name:etymology:wikidata" v="Q815216"/>
    <tag k="oneway" v="yes"/>
    <tag k="operator" v="Ville de Paris"/>
    <tag k="operator:authority" v="Maire de Paris dans le respect des prescriptions prises par le préfet de police"/>
    <tag k="operator:authority:related_law" v="III de l'article L. 2512-14 du code général des collectivités territoriales"/>
    <tag k="psv:lanes" v="yes|yes|designated"/>
    <tag k="sidewalk" v="separate"/>
    <tag k="smoothness" v="excellent"/>
    <tag k="source:maxspeed" v="FR:urban"/>
    <tag k="source:operator:authority" v="https://www.legifrance.gouv.fr/loda/id/LEGIARTI000035244298/#LEGIARTI000035244298"/>
    <tag k="surface" v="asphalt"/>
    <tag k="zone:traffic" v="FR:urban"/>
  </way>
  <way id="29168869" version="34" timestamp="2025-05-17T19:26:04Z" changeset="166406120" uid="7550430" user="Britzz">
    <nd ref="320799693"/>
    <nd ref="693542167"/>
    <nd ref="693542168"/>
    <nd ref="693542176"/>
    <nd ref="693542182"/>
    <nd ref="693542173"/>
    <nd ref="693542177"/>
    <nd ref="693542174"/>
    <nd ref="693542181"/>
    <nd ref="693542180"/>
    <nd ref="693542178"/>
    <nd ref="658959185"/>
    <nd ref="11850965589"/>
    <nd ref="693542184"/>
    <nd ref="693542188"/>
    <nd ref="693542187"/>
    <nd ref="693542189"/>
    <nd ref="693542192"/>
    <nd ref="11850965585"/>
    <nd ref="693542193"/>
    <nd ref="693542195"/>
    <nd ref="693542197"/>
    <nd ref="700449077"/>
    <nd ref="700449268"/>
    <nd ref="700448964"/>
    <nd ref="700449182"/>
    <nd ref="700449488"/>
    <nd ref="700449056"/>
    <nd ref="700449282"/>
    <nd ref="2595414642"/>
    <nd ref="700449451"/>
    <nd ref="700449186"/>
    <nd ref="700449362"/>
    <nd ref="700449069"/>
    <nd ref="700449377"/>
    <nd ref="9602961115"/>
    <nd ref="693542206"/>
    <nd ref="693542208"/>
    <nd ref="693542209"/>
    <nd ref="693542211"/>
    <nd ref="320799695"/>
    <nd ref="693542204"/>
    <nd ref="693542201"/>
    <nd ref="693542200"/>
    <nd ref="12844783511"/>
    <nd ref="700449351"/>
    <nd ref="693542199"/>
    <nd ref="10920092324"/>
    <nd ref="320799696"/>
    <nd ref="693542172"/>
    <nd ref="693542162"/>
    <nd ref="693542164"/>
    <nd ref="693542165"/>
    <nd ref="693542170"/>
    <nd ref="320799693"/>
    <tag k="alt_name" v="Bazar de l'Hôtel de Ville"/>
    <tag k="building" v="yes"/>
    <tag k="building:levels" v="9"/>
    <tag k="contact:city" v="Paris"/>
    <tag k="contact:housenumber" v="52"/>
    <tag k="contact:postcode" v="75004"/>
    <tag k="contact:street" v="Rue de Rivoli"/>
    <tag k="contact:website" v="https://www.bhv.fr/"/>
    <tag k="name" v="Le BHV Marais"/>
    <tag k="opening_hours" v="Mo-Sa 10:00-20:00; Su 11:00-19:00"/>
    <tag k="shop" v="department_store"/>
    <tag k="toilets" v="yes"/>
    <tag k="toilets:wheelchair" v="yes"/>
    <tag k="wheelchair" v="yes"/>
    <tag k="wikidata" v="Q2892394"/>
    <tag k="wikipedia" v="fr:Bazar de l'Hôtel de Ville"/>
  </way>
  <way id="35081974" version="23" timestamp="2024-01-16T18:09:45Z" changeset="146333643" uid="14373797" user="PiGi75002">
    <nd ref="411256174"/>
    <nd ref="3511186479"/>
    <nd ref="531688332"/>
    <nd ref="3511186480"/>
    <nd ref="411258116"/>
    <nd ref="411256179"/>
    <nd ref="1712034560"/>
    <nd ref="11086016964"/>
    <nd ref="11086016970"/>
    <nd ref="9383736456"/>
    <nd ref="9383736457"/>
    <nd ref="411256183"/>
    <nd ref="411256184"/>
    <nd ref="411256185"/>
    <nd ref="693465889"/>
    <nd ref="693465893"/>
    <nd ref="1470041404"/>
    <tag k="bicycle" v="no"/>
    <tag k="foot" v="no"/>
    <tag k="highway" v="unclassified"/>
    <tag k="lane_markings" v="no"/>
    <tag k="layer" v="-2"/>
    <tag k="lit" v="yes"/>
    <tag k="maxheight" v="3.5"/>
    <tag k="maxspeed" v="30"/>
    <tag k="name" v="Souterrain Sortie Hôtel de Ville (Voie S2)"/>
    <tag k="oneway" v="yes"/>
    <tag k="smoothness" v="intermediate"/>
    <tag k="source" v="cadastre-dgi-fr source : Direction Générale des Impôts - Cadastre. Mise à jour : 2010"/>
    <tag k="surface" v="asphalt"/>
    <tag k="tunnel" v="yes"/>
  </way>
  <way id="39371291" version="40" timestamp="2024-08-15T17:22:30Z" changeset="155293930" uid="11963177" user="JeroenvanderGun">
    <nd ref="4616996334"/>
    <nd ref="7508676445"/>
    <nd ref="697183823"/>
    <nd ref="3376283552"/>
    <nd ref="6282960235"/>
    <tag k="bicycle:lanes" v="yes|yes|designated"/>
    <tag k="busway:right" v="lane"/>
    <tag k="cycleway:left" v="separate"/>
    <tag k="cycleway:right" v="share_busway"/>
    <tag k="enforcement:operator" v="Police nationale"/>
    <tag k="highway" v="primary"/>
    <tag k="lanes" v="3"/>
    <tag k="lanes:psv" v="1"/>
    <tag k="lit" v="yes"/>
    <tag k="maxspeed" v="30"/>
    <tag k="name" v="Boulevard de Sébastopol"/>
    <tag k="name:etymology:wikidata" v="Q815216"/>
    <tag k="oneway" v="yes"/>
    <tag k="operator" v="Ville de Paris"/>
    <tag k="operator:authority" v="Maire de Paris dans le respect des prescriptions prises par le préfet de police"/>
    <tag k="operator:authority:related_law" v="III de l'article L. 2512-14 du code général des collectivités territoriales"/>
    <tag k="psv:lanes" v="yes|yes|designated"/>
    <tag k="sidewalk" v="separate"/>
    <tag k="smoothness" v="good"/>
    <tag k="source:maxspeed" v="FR:urban"/>
    <tag k="source:operator:authority" v="https://www.legifrance.gouv.fr/loda/id/LEGIARTI000035244298/#LEGIARTI000035244298"/>
    <tag k="surface" v="asphalt"/>
    <tag k="zone:traffic" v="FR:urban"/>
  </way>
  <way id="41739090" version="15" timestamp="2024-08-15T17:26:47Z" changeset="155294126" uid="11963177" user="JeroenvanderGun">
    <nd ref="25554696"/>
    <nd ref="368133"/>
    <tag k="bicycle" v="yes"/>
    <tag k="cycleway:both" v="no"/>
    <tag k="enforcement:operator" v="Police nationale"/>
    <tag k="highway" v="secondary"/>
    <tag k="lanes" v="4"/>
    <tag k="lit" v="yes"/>
    <tag k="maxspeed" v="30"/>
    <tag k="name" v="Avenue Victoria"/>
    <tag k="name:etymology:wikidata" v="Q9439"/>
    <tag k="oneway" v="yes"/>
    <tag k="operator" v="Ville de Paris"/>
    <tag k="operator:authority" v="Maire de Paris après avis du préfet de police"/>
    <tag k="operator:authority:related_law" v="IV de l'article L. 2512-14 du code général des collectivités territoriales"/>
    <tag k="operator:url" v="https://cdn.paris.fr/paris/2020/02/26/5bf469a311d0beb9911e92d113781550.ai"/>
    <tag k="sidewalk:both" v="separate"/>
    <tag k="smoothness" v="good"/>
    <tag k="source" v="Bing"/>
    <tag k="source:maxspeed" v="FR:urban"/>
    <tag k="surface" v="asphalt"/>
  </way>
  <way id="41739091" version="19" timestamp="2024-08-15T17:26:47Z" changeset="155294126" uid="11963177" user="JeroenvanderGun">
    <nd ref="368133"/>
    <nd ref="1055820698"/>
    <nd ref="2165221563"/>
    <nd ref="2875175580"/>
    <nd ref="676872598"/>
    <tag k="cycleway:both" v="no"/>
    <tag k="enforcement:operator" v="Police nationale"/>
    <tag k="highway" v="secondary"/>
    <tag k="lanes" v="4"/>
    <tag k="lit" v="yes"/>
    <tag k="maxspeed" v="30"/>
    <tag k="name" v="Avenue Victoria"/>
    <tag k="name:etymology:wikidata" v="Q9439"/>
    <tag k="oneway" v="yes"/>
    <tag k="operator" v="Ville de Paris"/>
    <tag k="operator:authority" v="Maire de Paris après avis du préfet de police"/>
    <tag k="operator:authority:related_law" v="IV de l'article L. 2512-14 du code général des collectivités territoriales"/>
    <tag k="operator:url" v="https://cdn.paris.fr/paris/2020/02/26/5bf469a311d0beb9911e92d113781550.ai"/>
    <tag k="sidewalk:both" v="separate"/>
    <tag k="smoothness" v="good"/>
    <tag k="source" v="Bing"/>
    <tag k="source:maxspeed" v="FR:urban"/>
    <tag k="surface" v="asphalt"/>
  </way>
  <way id="49272455" version="11" timestamp="2023-10-18T10:06:48Z" changeset="142754900" uid="392288" user="Kalepom">
    <nd ref="625836543"/>
    <nd ref="625836544"/>
    <nd ref="8542875184"/>
    <nd ref="698084310"/>
    <nd ref="698084306"/>
    <nd ref="625836529"/>
    <nd ref="8542875175"/>
    <nd ref="8542875176"/>
    <nd ref="11271425743"/>
    <nd ref="11271425744"/>
    <nd ref="625836546"/>
    <nd ref="8542875178"/>
    <nd ref="8542875180"/>
    <nd ref="2211556516"/>
    <nd ref="8542875179"/>
    <nd ref="625836547"/>
    <nd ref="10737947365"/>
    <nd ref="698084305"/>
    <nd ref="625836549"/>
    <nd ref="625836550"/>
    <nd ref="8542875181"/>
    <nd ref="698084307"/>
    <nd ref="8542875182"/>
    <nd ref="698084309"/>
    <nd ref="698084303"/>
    <nd ref="11254922609"/>
    <nd ref="8542875183"/>
    <nd ref="625836543"/>
    <tag k="addr:city" v="Paris"/>
    <tag k="addr:housenumber" v="12"/>
    <tag k="addr:postcode" v="75004"/>
    <tag k="addr:street" v="Quai de Gesvres"/>
    <tag k="building" v="civic"/>
    <tag k="building:levels" v="7"/>
    <tag k="name" v="Préfecture de Police"/>
    <tag k="name:fr" v="Préfecture de Police"/>
    <tag k="name:lt" v="Policijos komisariatas"/>
    <tag k="source" v="cadastre-dgi-fr source : Direction Générale des Impôts - Cadastre;mise à jour : 2010"/>
  </way>
  <way id="49371026" version="21" timestamp="2024-02-16T14:45:12Z" changeset="147535455" uid="7512839" user="Benoît C MdP">
    <nd ref="26400868"/>
    <nd ref="11126357259"/>
    <nd ref="11126357256"/>
    <nd ref="26400869"/>
    <nd ref="11630558046"/>
    <nd ref="693492411"/>
    <nd ref="26400877"/>
    <tag k="cycleway:both" v="no"/>
    <tag k="highway" v="residential"/>
    <tag k="lit" v="yes"/>
    <tag k="maxspeed" v="30"/>
    <tag k="name" v="Rue Pernelle"/>
    <tag k="name:etymology:wikidata" v="Q1323349"/>
    <tag k="oneway" v="yes"/>
    <tag k="sidewalk:both" v="separate"/>
    <tag k="smoothness" v="good"/>
    <tag k="surface" v="asphalt"/>
  </way>
  <way id="53582122" version="12" timestamp="2023-11-07T22:38:53Z" changeset="143757039" uid="3834000" user="cartoleo">
    <nd ref="676860066"/>
    <nd ref="676860067"/>
    <nd ref="676860071"/>
    <nd ref="676860068"/>
    <nd ref="676860069"/>
    <nd ref="676860070"/>
    <nd ref="676860073"/>
    <nd ref="676860074"/>
    <nd ref="676860075"/>
    <nd ref="676860076"/>
    <nd ref="676860077"/>
    <nd ref="676860078"/>
    <nd ref="10023017332"/>
    <nd ref="676860079"/>
    <nd ref="676860080"/>
    <nd ref="676860081"/>
    <nd ref="676860082"/>
    <nd ref="676860155"/>
    <nd ref="676860156"/>
    <nd ref="676860157"/>
    <nd ref="2555407179"/>
    <nd ref="676860153"/>
    <nd ref="2555407137"/>
    <nd ref="676860072"/>
    <nd ref="676860066"/>
    <tag k="alt_name" v="Théâtre de la Ville – Sarah-Bernhardt"/>
    <tag k="amenity" v="theatre"/>
    <tag k="architect" v="Gabriel Davioud"/>
    <tag k="building" v="yes"/>
    <tag k="height" v="25"/>
    <tag k="heritage" v="3"/>
    <tag k="heritage:operator" v="mhs"/>
    <tag k="mhs:inscription_date" v="1990-12-06"/>
    <tag k="name" v="Théâtre de la Ville"/>
    <tag k="name:fr" v="Théâtre de la Ville"/>
    <tag k="name:lt" v="Miesto teatras"/>
    <tag k="name:uk" v="Театр де ля Віль"/>
    <tag k="ref:mhs" v="PA00086480"/>
    <tag k="source" v="cadastre-dgi-fr source : Direction Générale des Impôts - Cadastre. Mise à jour : 2010"/>
    <tag k="source:architect" v="data.gouv.fr:Ministère de la culture - 08/2017"/>
    <tag k="source:heritage" v="data.gouv.fr:Ministère de la culture - 08/2017"/>
    <tag k="website" v="https://theatredelaville-paris.com/"/>
    <tag k="wheelchair" v="yes"/>
    <tag k="wikidata" v="Q2352779"/>
    <tag k="wikipedia" v="fr:Théâtre de la Ville"/>
  </way>
  <way id="53583655" version="25" timestamp="2024-08-15T17:26:47Z" changeset="155294126" uid="11963177" user="JeroenvanderGun">
    <nd ref="2883229672"/>
    <nd ref="2211556527"/>
    <nd ref="676890545"/>
    <tag k="cycleway:both" v="no"/>
    <tag k="enforcement:operator" v="Police nationale"/>
    <tag k="highway" v="secondary"/>
    <tag k="lanes" v="4"/>
    <tag k="lit" v="yes"/>
    <tag k="maxspeed" v="30"/>
    <tag k="name" v="Avenue Victoria"/>
    <tag k="name:etymology:wikidata" v="Q9439"/>
    <tag k="oneway" v="yes"/>
    <tag k="operator" v="Ville de Paris"/>
    <tag k="operator:authority" v="Maire de Paris après avis du préfet de police"/>
    <tag k="operator:authority:related_law" v="IV de l'article L. 2512-14 du code général des collectivités territoriales"/>
    <tag k="operator:url" v="https://cdn.paris.fr/paris/2020/02/26/5bf469a311d0beb9911e92d113781550.ai"/>
    <tag k="sidewalk:both" v="separate"/>
    <tag k="sidewalk:left:surface" v="asphalt"/>
    <tag k="smoothness" v="good"/>
    <tag k="surface" v="asphalt"/>
  </way>
  <way id="53585863" version="18" timestamp="2024-11-12T08:26:26Z" changeset="159039895" uid="16577323" user="007Transformer">
    <nd ref="676872598"/>
    <nd ref="2211556520"/>
    <nd ref="12334115919"/>
    <nd ref="12334115918"/>
    <nd ref="2165221546"/>
    <nd ref="676872460"/>
    <tag k="highway" v="residential"/>
    <tag k="lane_markings" v="no"/>
    <tag k="lit" v="yes"/>
    <tag k="name" v="Rue Adolphe Adam"/>
    <tag k="name:etymology:wikidata" v="Q189544"/>
    <tag k="oneway" v="yes"/>
    <tag k="sidewalk:both" v="separate"/>
    <tag k="source" v="cadastre-dgi-fr source : Direction Générale des Impôts - Cadastre. Mise à jour : 2010"/>
    <tag k="surface" v="asphalt"/>
  </way>
  <way id="54848441" version="20" timestamp="2024-02-22T07:45:46Z" changeset="147760119" uid="12287265" user="bilbosquet">
    <nd ref="25554524"/>
    <nd ref="2168591567"/>
    <nd ref="11126357262"/>
    <nd ref="26400868"/>
    <tag k="cycleway:both" v="no"/>
    <tag k="highway" v="residential"/>
    <tag k="lit" v="yes"/>
    <tag k="maxspeed" v="30"/>
    <tag k="name" v="Rue Pernelle"/>
    <tag k="name:etymology:wikidata" v="Q1323349"/>
    <tag k="oneway" v="yes"/>
    <tag k="sidewalk:both" v="separate"/>
    <tag k="smoothness" v="good"/>
    <tag k="surface" v="asphalt"/>
  </way>
  <way id="55181001" version="40" timestamp="2024-08-15T17:26:47Z" changeset="155294126" uid="11963177" user="JeroenvanderGun">
    <nd ref="361070"/>
    <nd ref="25554702"/>
    <tag k="bicycle" v="yes"/>
    <tag k="bicycle:backward" v="use_sidepath"/>
    <tag k="enforcement:operator" v="Police nationale"/>
    <tag k="highway" v="secondary"/>
    <tag k="lanes" v="2"/>
    <tag k="lit" v="yes"/>
    <tag k="maxspeed" v="30"/>
    <tag k="name" v="Rue de Rivoli"/>
    <tag k="name:de" v="Rue de Rivoli"/>
    <tag k="name:es" v="Rue de Rivoli"/>
    <tag k="name:etymology:wikidata" v="Q1069936"/>
    <tag k="name:fr" v="Rue de Rivoli"/>
    <tag k="name:ru" v="Улица Риволи"/>
    <tag k="oneway" v="yes"/>
    <tag k="operator" v="Ville de Paris"/>
    <tag k="operator:authority" v="Maire de Paris après avis du préfet de police"/>
    <tag k="operator:authority:related_law" v="IV de l'article L. 2512-14 du code général des collectivités territoriales"/>
    <tag k="operator:url" v="https://cdn.paris.fr/paris/2020/02/26/5bf469a311d0beb9911e92d113781550.ai"/>
    <tag k="sidewalk:both" v="separate"/>
    <tag k="smoothness" v="good"/>
    <tag k="source" v="cadastre-dgi-fr source : Direction Générale des Impôts - Cadastre. Mise à jour : 2010"/>
    <tag k="source:maxspeed" v="FR:urban"/>
    <tag k="surface" v="asphalt"/>
    <tag k="was:highway" v="primary"/>
  </way>
  <way id="55503397" version="71" timestamp="2024-07-25T06:38:19Z" changeset="154377518" uid="12495047" user="Yan Bakhmat">
    <nd ref="697454576"/>
    <nd ref="697454629"/>
    <nd ref="2021541993"/>
    <nd ref="26400864"/>
    <nd ref="2021541994"/>
    <nd ref="2168591596"/>
    <nd ref="2146085912"/>
    <nd ref="2146085914"/>
    <nd ref="697454536"/>
    <nd ref="697454546"/>
    <nd ref="243202970"/>
    <nd ref="11177101423"/>
    <nd ref="697454579"/>
    <nd ref="697454593"/>
    <nd ref="697454603"/>
    <nd ref="3699515119"/>
    <nd ref="697454558"/>
    <nd ref="8626717414"/>
    <nd ref="697454613"/>
    <nd ref="2882562511"/>
    <nd ref="9488141295"/>
    <nd ref="697454576"/>
    <tag k="addr:city" v="Paris"/>
    <tag k="addr:housenumber" v="19"/>
    <tag k="addr:postcode" v="75004"/>
    <tag k="addr:street" v="Rue Beaubourg"/>
    <tag k="alt_name:en" v="Pompidou Centre"/>
    <tag k="amenity" v="arts_centre"/>
    <tag k="architect" v="Renzo Piano;Richard Rogers;Gianfranco Franchini;Vincent Alain"/>
    <tag k="building" v="yes"/>
    <tag k="building:architecture" v="postmodern"/>
    <tag k="building:levelPlan" v="0: Accueil, Information, Billets, Librairie;2-3: Bibliothèque publique d'information;4-5: Musée National d'Art Moderne"/>
    <tag k="building:material" v="glass"/>
    <tag k="contact:website" v="https://www.centrepompidou.fr"/>
    <tag k="height" v="45"/>
    <tag k="importance" v="international"/>
    <tag k="loc_name" v="Beaubourg;Centre Beaubourg"/>
    <tag k="max_level" v="6"/>
    <tag k="min_level" v="-1"/>
    <tag k="name" v="Centre Georges Pompidou"/>
    <tag k="name:en" v="Centre Pompidou"/>
    <tag k="name:es" v="Centro Pompidou"/>
    <tag k="name:fr" v="Centre Georges Pompidou"/>
    <tag k="name:it" v="Centro Georges Pompidou"/>
    <tag k="name:ja" v="ポンピドゥー・センター"/>
    <tag k="name:ko" v="조르주_퐁피두_센터"/>
    <tag k="name:no" v="Pompidou-senteret"/>
    <tag k="name:pl" v="Centrum Pompidou"/>
    <tag k="name:ru" v="Центр Жоржа Помпиду"/>
    <tag k="name:uk" v="Центр Жоржа Помпіду"/>
    <tag k="name:zh" v="龐畢度中心"/>
    <tag k="official_name" v="Centre National d'Art et de Culture Georges-Pompidou"/>
    <tag k="opening_hours" v="We 11:00-21:00; Th 11:00-23:00; Fr-Mo 11:00-21:00"/>
    <tag k="phone" v="+33144781233"/>
    <tag k="roof:material" v="gravel"/>
    <tag k="short_name" v="Centre Pompidou"/>
    <tag k="short_name:fr" v="CNAC"/>
    <tag k="source" v="Cadastre. Mise à jour : 2010;survey"/>
    <tag k="source:architect" v="data.culture.gouv.fr:Ministère de la Culture - Direction générale du Patrimoine et de l’Architecture - 2021-05"/>
    <tag k="start_date" v="1977"/>
    <tag k="tourism" v="attraction"/>
    <tag k="tourism:visitors" v="5300000"/>
    <tag k="website" v="https://www.centrepompidou.fr"/>
    <tag k="wheelchair" v="yes"/>
    <tag k="wikidata" v="Q178065"/>
    <tag k="wikipedia" v="fr:Centre national d'art et de culture Georges-Pompidou"/>
  </way>
  <way id="55503399" version="15" timestamp="2025-04-12T16:25:53Z" changeset="164863328" uid="7550430" user="Britzz">
    <nd ref="697454622"/>
    <nd ref="9537398663"/>
    <nd ref="697454548"/>
    <nd ref="8554958495"/>
    <nd ref="697454606"/>
    <nd ref="8554958494"/>
    <nd ref="697454619"/>
    <nd ref="1381936927"/>
    <nd ref="697454622"/>
    <tag k="building" v="yes"/>
    <tag k="building:colour" v="beige"/>
    <tag k="building:levels" v="1"/>
    <tag k="check_date:opening_hours" v="2023-04-22"/>
    <tag k="fee" v="yes"/>
    <tag k="name" v="Atelier Brancusi"/>
    <tag k="name:en" v="Brancusi's Studio"/>
    <tag k="opening_hours" v="Mo,We,Th,Fr,Sa,Su 14:00-18:00"/>
    <tag k="roof:shape" v="gabled"/>
    <tag k="source" v="Cadastre. Mise à jour : 2010;survey"/>
    <tag k="tourism" v="museum"/>
    <tag k="wheelchair" v="limited"/>
    <tag k="wikidata" v="Q60058273"/>
    <tag k="wikipedia" v="fr:Atelier Brancusi"/>
  </way>
  <way id="55697132" version="22" timestamp="2024-03-30T00:14:04Z" changeset="149332975" uid="2678738" user="fgouget">
    <nd ref="699897363"/>
    <nd ref="2650495584"/>
    <nd ref="10290370159"/>
    <nd ref="25207381"/>
    <tag k="cycleway:both" v="no"/>
    <tag k="highway" v="residential"/>
    <tag k="lane_markings" v="no"/>
    <tag k="lit" v="yes"/>
    <tag k="maxspeed" v="30"/>
    <tag k="name" v="Rue du Cloître Saint-Merri"/>
    <tag k="name:etymology:wikidata" v="Q525891"/>
    <tag k="sidewalk:both" v="separate"/>
    <tag k="sidewalk:both:surface" v="asphalt"/>
    <tag k="smoothness" v="excellent"/>
    <tag k="source" v="cadastre-dgi-fr source : Direction Générale des Impôts - Cadastre. Mise à jour : 2010"/>
    <tag k="surface" v="asphalt"/>
  </way>
  <way id="55742120" version="39" timestamp="2024-02-09T17:38:44Z" changeset="147264260" uid="14373797" user="PiGi75002">
    <nd ref="700326599"/>
    <nd ref="700326460"/>
    <nd ref="700326644"/>
    <nd ref="700326526"/>
    <nd ref="700326516"/>
    <nd ref="700326494"/>
    <nd ref="700326502"/>
    <nd ref="700326487"/>
    <nd ref="700326543"/>
    <nd ref="700326570"/>
    <nd ref="700326468"/>
    <nd ref="700326604"/>
    <nd ref="700326522"/>
    <nd ref="700326488"/>
    <nd ref="700326548"/>
    <nd ref="700326451"/>
    <nd ref="700326492"/>
    <nd ref="700326671"/>
    <nd ref="700326657"/>
    <nd ref="700326643"/>
    <nd ref="700326477"/>
    <nd ref="700326646"/>
    <nd ref="700346536"/>
    <nd ref="700326432"/>
    <nd ref="700326463"/>
    <nd ref="700326602"/>
    <nd ref="700326571"/>
    <nd ref="700326461"/>
    <nd ref="700326637"/>
    <nd ref="700326587"/>
    <nd ref="700326578"/>
    <nd ref="700326437"/>
    <nd ref="700326554"/>
    <nd ref="700345682"/>
    <nd ref="700346191"/>
    <nd ref="700326575"/>
    <nd ref="700326653"/>
    <nd ref="700326532"/>
    <nd ref="700326515"/>
    <nd ref="700326558"/>
    <nd ref="700326474"/>
    <nd ref="700326629"/>
    <nd ref="700326615"/>
    <nd ref="700326669"/>
    <nd ref="700326569"/>
    <nd ref="700326506"/>
    <nd ref="700326650"/>
    <nd ref="700326455"/>
    <nd ref="700326469"/>
    <nd ref="700326549"/>
    <nd ref="700326580"/>
    <nd ref="700326529"/>
    <nd ref="700326512"/>
    <nd ref="700326457"/>
    <nd ref="700326524"/>
    <nd ref="700326612"/>
    <nd ref="700326427"/>
    <nd ref="700326498"/>
    <nd ref="700326648"/>
    <nd ref="700326513"/>
    <nd ref="700326483"/>
    <nd ref="700326465"/>
    <nd ref="700326610"/>
    <nd ref="700326561"/>
    <nd ref="700326586"/>
    <nd ref="700326647"/>
    <nd ref="700326447"/>
    <nd ref="700326664"/>
    <nd ref="700326545"/>
    <nd ref="700326557"/>
    <nd ref="700326573"/>
    <nd ref="700326520"/>
    <nd ref="700326662"/>
    <nd ref="700326534"/>
    <nd ref="700326592"/>
    <nd ref="700326530"/>
    <nd ref="700326634"/>
    <nd ref="700326606"/>
    <nd ref="700326517"/>
    <nd ref="700326597"/>
    <nd ref="700326489"/>
    <nd ref="700326472"/>
    <nd ref="700326666"/>
    <nd ref="700326622"/>
    <nd ref="700326500"/>
    <nd ref="700326448"/>
    <nd ref="700326452"/>
    <nd ref="700326556"/>
    <nd ref="700326655"/>
    <nd ref="700346555"/>
    <nd ref="700326541"/>
    <nd ref="700326651"/>
    <nd ref="700326537"/>
    <nd ref="700326496"/>
    <nd ref="700326528"/>
    <nd ref="700326479"/>
    <nd ref="700326659"/>
    <nd ref="700326550"/>
    <nd ref="700326566"/>
    <nd ref="700326540"/>
    <nd ref="700326499"/>
    <nd ref="700326627"/>
    <nd ref="700326533"/>
    <nd ref="700326631"/>
    <nd ref="700326476"/>
    <nd ref="700326620"/>
    <nd ref="700326595"/>
    <nd ref="11169883411"/>
    <nd ref="700326565"/>
    <nd ref="700326456"/>
    <nd ref="700326459"/>
    <nd ref="700326444"/>
    <nd ref="11169883424"/>
    <nd ref="700326503"/>
    <nd ref="700326434"/>
    <nd ref="700326504"/>
    <nd ref="11169883412"/>
    <nd ref="700326446"/>
    <nd ref="700326639"/>
    <nd ref="11169883415"/>
    <nd ref="700326642"/>
    <nd ref="700326591"/>
    <nd ref="700326552"/>
    <nd ref="700326484"/>
    <nd ref="11169883413"/>
    <nd ref="700326562"/>
    <nd ref="700326425"/>
    <nd ref="11169883426"/>
    <nd ref="11169883425"/>
    <nd ref="700326491"/>
    <nd ref="700326576"/>
    <nd ref="11169883416"/>
    <nd ref="700326466"/>
    <nd ref="700326560"/>
    <nd ref="700326544"/>
    <nd ref="700326567"/>
    <nd ref="700326473"/>
    <nd ref="11169883418"/>
    <nd ref="700326617"/>
    <nd ref="700326521"/>
    <nd ref="700326624"/>
    <nd ref="700326450"/>
    <nd ref="700326519"/>
    <nd ref="700326495"/>
    <nd ref="11169883423"/>
    <nd ref="700326589"/>
    <nd ref="700326470"/>
    <nd ref="700326431"/>
    <nd ref="700326507"/>
    <nd ref="700326525"/>
    <nd ref="700326536"/>
    <nd ref="700326480"/>
    <nd ref="700326436"/>
    <nd ref="700345967"/>
    <nd ref="700326599"/>
    <tag k="alt_name" v="Église Saint-Merry"/>
    <tag k="amenity" v="place_of_worship"/>
    <tag k="building" v="church"/>
    <tag k="contact:city" v="Paris"/>
    <tag k="contact:housenumber" v="76"/>
    <tag k="contact:postcode" v="75004"/>
    <tag k="contact:street" v="Rue de la Verrerie"/>
    <tag k="contact:website" v="http://www.saintmerry.org/"/>
    <tag k="denomination" v="catholic"/>
    <tag k="heritage" v="2"/>
    <tag k="heritage:operator" v="mhs"/>
    <tag k="mhs:inscription_date" v="1862"/>
    <tag k="name" v="Église Saint-Merri"/>
    <tag k="name:en" v="Saint-Merri"/>
    <tag k="name:it" v="Chiesa di Saint-Merri"/>
    <tag k="name:pl" v="Kościół i klasztor Saint Merri"/>
    <tag k="name:ru" v="Сен-Мерри"/>
    <tag k="opening_hours" v="09:00-18:00"/>
    <tag k="ref:FR:CEF" v="75104_05"/>
    <tag k="ref:mhs" v="PA00086259"/>
    <tag k="religion" v="christian"/>
    <tag k="source" v="cadastre-dgi-fr source : Direction Générale des Impôts - Cadastre. Mise à jour : 2010"/>
    <tag k="source:heritage" v="data.gouv.fr, Ministère de la Culture - 2016"/>
    <tag k="wheelchair" v="limited"/>
    <tag k="wikidata" v="Q525891"/>
    <tag k="wikipedia" v="fr:Église Saint-Merri"/>
  </way>
  <way id="55742124" version="7" timestamp="2023-09-05T15:34:43Z" changeset="140856589" uid="318821" user="Yod4z">
    <nd ref="700326550"/>
    <nd ref="700326659"/>
    <nd ref="700326479"/>
    <nd ref="700326528"/>
    <nd ref="700346342"/>
    <nd ref="11169883378"/>
    <nd ref="11169883377"/>
    <nd ref="700326485"/>
    <nd ref="700326481"/>
    <nd ref="11169883380"/>
    <nd ref="700326566"/>
    <nd ref="700326550"/>
    <tag k="building" v="yes"/>
    <tag k="building:levels" v="4"/>
    <tag k="building:material" v="stone"/>
    <tag k="contact:city" v="Paris"/>
    <tag k="contact:housenumber" v="78"/>
    <tag k="contact:postcode" v="75004"/>
    <tag k="contact:street" v="Rue de la Verrerie"/>
    <tag k="contact:website" v="https://www.hotel-le-presbytere.com"/>
    <tag k="name" v="Le Presbytère"/>
    <tag k="roof:levels" v="1"/>
    <tag k="tourism" v="hotel"/>
    <tag k="wheelchair" v="no"/>
    <tag k="wikidata" v="Q22921578"/>
  </way>
  <way id="55751632" version="8" timestamp="2024-02-25T14:37:21Z" changeset="147893574" uid="14373797" user="PiGi75002">
    <nd ref="700358224"/>
    <nd ref="700358423"/>
    <nd ref="700358318"/>
    <nd ref="9869127880"/>
    <nd ref="700358203"/>
    <nd ref="700358390"/>
    <nd ref="700358306"/>
    <nd ref="8675613817"/>
    <nd ref="700358235"/>
    <nd ref="700358420"/>
    <nd ref="700358365"/>
    <nd ref="11172111875"/>
    <nd ref="700358281"/>
    <nd ref="700358204"/>
    <nd ref="700358400"/>
    <nd ref="700358342"/>
    <nd ref="700358248"/>
    <nd ref="700358177"/>
    <nd ref="700358445"/>
    <nd ref="700358239"/>
    <nd ref="700358224"/>
    <tag k="amenity" v="arts_centre"/>
    <tag k="building" v="yes"/>
    <tag k="contact:city" v="Paris"/>
    <tag k="contact:housenumber" v="123"/>
    <tag k="contact:phone" v="+33 1 42 72 50 50"/>
    <tag k="contact:postcode" v="75004"/>
    <tag k="contact:street" v="Rue Saint-Martin"/>
    <tag k="contact:website" v="http://www.ccserbie.com/"/>
    <tag k="name" v="Centre culturel de Serbie"/>
    <tag k="source" v="cadastre-dgi-fr source : Direction Générale des Impôts - Cadastre. Mise à jour : 2010"/>
    <tag k="wheelchair" v="yes"/>
  </way>
  <way id="55751636" version="11" timestamp="2024-07-29T06:36:56Z" changeset="154547305" uid="270456" user="pyrog">
    <nd ref="700358182"/>
    <nd ref="700358427"/>
    <nd ref="700358229"/>
    <nd ref="700358418"/>
    <nd ref="700358359"/>
    <nd ref="700358430"/>
    <nd ref="700358275"/>
    <nd ref="700358200"/>
    <nd ref="700358394"/>
    <nd ref="700358337"/>
    <nd ref="700358239"/>
    <nd ref="700358445"/>
    <nd ref="700358368"/>
    <nd ref="700358309"/>
    <nd ref="700358207"/>
    <nd ref="700358422"/>
    <nd ref="700358182"/>
    <tag k="amenity" v="arts_centre"/>
    <tag k="building" v="yes"/>
    <tag k="check_date" v="2024-07-25"/>
    <tag k="contact:city" v="Paris"/>
    <tag k="contact:email" v="info@cwb.fr"/>
    <tag k="contact:fax" v="+33 1 48 04 90 85"/>
    <tag k="contact:housenumber" v="127/129"/>
    <tag k="contact:phone" v="+33 1 53 01 96 96"/>
    <tag k="contact:street" v="Rue Saint-Martin"/>
    <tag k="contact:website" v="https://www.cwb.fr/"/>
    <tag k="name" v="Centre Wallonie-Bruxelles"/>
    <tag k="opening_hours" v="Mo-We,Fr-Sa 11:00-19:00; Th 14:00-21:00; Su,PH off"/>
    <tag k="short_name" v="CWBP"/>
    <tag k="source" v="survey"/>
    <tag k="tourism" v="attraction"/>
    <tag k="wheelchair" v="yes"/>
    <tag k="wikidata" v="Q28040651"/>
  </way>
  <way id="55758001" version="4" timestamp="2024-01-02T13:04:24Z" changeset="145797182" uid="1198089" user="GeorgeKaplan">
    <nd ref="700405798"/>
    <nd ref="700405785"/>
    <nd ref="700405944"/>
    <nd ref="700404791"/>
    <nd ref="700404927"/>
    <nd ref="700405649"/>
    <nd ref="700405822"/>
    <nd ref="700404539"/>
    <nd ref="700405307"/>
    <nd ref="700404435"/>
    <nd ref="700404786"/>
    <nd ref="700405105"/>
    <nd ref="700404930"/>
    <nd ref="700405668"/>
    <nd ref="700404641"/>
    <nd ref="700405783"/>
    <nd ref="700404559"/>
    <nd ref="700404535"/>
    <nd ref="700405832"/>
    <nd ref="700405881"/>
    <nd ref="700404817"/>
    <nd ref="700404902"/>
    <nd ref="700405798"/>
    <tag k="addr:housenumber" v="11"/>
    <tag k="addr:postcode" v="75004"/>
    <tag k="addr:street" v="Rue Simon Le Franc"/>
    <tag k="building" v="yes"/>
    <tag k="internet_access" v="yes"/>
    <tag k="internet_access:fee" v="customers"/>
    <tag k="name" v="Hôtel Beaubourg"/>
    <tag k="rooms" v="28"/>
    <tag k="source" v="cadastre-dgi-fr source : Direction Générale des Impôts - Cadastre. Mise à jour : 2010"/>
    <tag k="stars" v="3"/>
    <tag k="tourism" v="hotel"/>
  </way>
  <way id="55760877" version="5" timestamp="2023-12-21T09:19:09Z" changeset="145362465" uid="290680" user="wheelmap_visitor">
    <nd ref="700449345"/>
    <nd ref="700449273"/>
    <nd ref="700449343"/>
    <nd ref="700449026"/>
    <nd ref="700449398"/>
    <nd ref="700449040"/>
    <nd ref="700449410"/>
    <nd ref="700449192"/>
    <nd ref="700448928"/>
    <nd ref="700449328"/>
    <nd ref="700449345"/>
    <tag k="addr:city" v="Paris"/>
    <tag k="addr:housenumber" v="11"/>
    <tag k="addr:postcode" v="75004"/>
    <tag k="addr:street" v="Rue du Temple"/>
    <tag k="building" v="apartments"/>
    <tag k="building:levels" v="6"/>
    <tag k="internet_access" v="wlan"/>
    <tag k="internet_access:fee" v="no"/>
    <tag k="name" v="duO"/>
    <tag k="phone" v="+33 1 42 72 72 22"/>
    <tag k="roof:levels" v="1"/>
    <tag k="source" v="survey"/>
    <tag k="stars" v="4"/>
    <tag k="tourism" v="hotel"/>
    <tag k="website" v="https://www.duo-paris.com/"/>
    <tag k="wheelchair" v="no"/>
  </way>
  <way id="55760903" version="7" timestamp="2024-04-02T20:58:21Z" changeset="149498934" uid="7550430" user="Britzz">
    <nd ref="700449353"/>
    <nd ref="700449466"/>
    <nd ref="700449107"/>
    <nd ref="700449473"/>
    <nd ref="700449249"/>
    <nd ref="700448998"/>
    <nd ref="700449378"/>
    <nd ref="700449150"/>
    <nd ref="700449520"/>
    <nd ref="700449290"/>
    <nd ref="700449535"/>
    <nd ref="700449307"/>
    <nd ref="700449055"/>
    <nd ref="700449420"/>
    <nd ref="700449207"/>
    <nd ref="700449227"/>
    <nd ref="11781433972"/>
    <nd ref="700449338"/>
    <nd ref="700448954"/>
    <nd ref="700449102"/>
    <nd ref="700448972"/>
    <nd ref="700449363"/>
    <nd ref="700449121"/>
    <nd ref="700449496"/>
    <nd ref="700449265"/>
    <nd ref="700449013"/>
    <nd ref="700449393"/>
    <nd ref="700449180"/>
    <nd ref="700449406"/>
    <nd ref="700449191"/>
    <nd ref="700448923"/>
    <nd ref="700449321"/>
    <nd ref="700449083"/>
    <nd ref="700449448"/>
    <nd ref="700449184"/>
    <nd ref="700449353"/>
    <tag k="architect" v="H. Guilmoto"/>
    <tag k="building" v="office"/>
    <tag k="building:levels" v="9"/>
    <tag k="company" v="media"/>
    <tag k="name" v="Mikros Image"/>
    <tag k="office" v="company"/>
    <tag k="source" v="cadastre-dgi-fr source : Direction Générale des Impôts - Cadastre. Mise à jour : 2010"/>
    <tag k="website" v="https://www.mikrosanimation.com/"/>
  </way>
  <way id="55940138" version="3" timestamp="2024-08-17T15:27:31Z" changeset="155376632" uid="15094172" user="chl-osm">
    <nd ref="702269214"/>
    <nd ref="9910423505"/>
    <nd ref="702269461"/>
    <nd ref="702268990"/>
    <nd ref="702269068"/>
    <nd ref="702269370"/>
    <nd ref="702269078"/>
    <nd ref="702269434"/>
    <nd ref="702269131"/>
    <nd ref="702269495"/>
    <nd ref="702269198"/>
    <nd ref="702269573"/>
    <nd ref="702269228"/>
    <nd ref="702269591"/>
    <nd ref="702269582"/>
    <nd ref="702269214"/>
    <tag k="building" v="yes"/>
    <tag k="building:levels" v="3"/>
    <tag k="name" v="D'win"/>
    <tag k="phone" v="+33 1 44 54 05 05"/>
    <tag k="source" v="cadastre-dgi-fr source : Direction Générale des Impôts - Cadastre. Mise à jour : 2010"/>
    <tag k="stars" v="2"/>
    <tag k="tourism" v="hotel"/>
    <tag k="website" v="https://www.dwinhotel.com"/>
  </way>
  <way id="55940166" version="4" timestamp="2022-11-16T13:02:43Z" changeset="128990888" uid="10731965" user="Hydrel">
    <nd ref="702269162"/>
    <nd ref="9906576379"/>
    <nd ref="702268973"/>
    <nd ref="702269390"/>
    <nd ref="702269459"/>
    <nd ref="702269125"/>
    <nd ref="702269093"/>
    <nd ref="702269447"/>
    <nd ref="702269156"/>
    <nd ref="702269530"/>
    <nd ref="702269222"/>
    <nd ref="702269584"/>
    <nd ref="702269285"/>
    <nd ref="702269410"/>
    <nd ref="702269120"/>
    <nd ref="702269474"/>
    <nd ref="702269177"/>
    <nd ref="702269553"/>
    <nd ref="702269592"/>
    <nd ref="702269230"/>
    <nd ref="702269537"/>
    <nd ref="702269162"/>
    <tag k="addr:city" v="Paris"/>
    <tag k="addr:housenumber" v="16"/>
    <tag k="addr:postcode" v="75004"/>
    <tag k="addr:street" v="Rue du Temple"/>
    <tag k="building" v="yes"/>
    <tag k="building:levels" v="7"/>
    <tag k="source" v="cadastre-dgi-fr source : Direction Générale des Impôts - Cadastre. Mise à jour : 2010"/>
  </way>
  <way id="60184375" version="27" timestamp="2024-08-15T17:22:30Z" changeset="155293930" uid="11963177" user="JeroenvanderGun">
    <nd ref="2211556499"/>
    <nd ref="5601413781"/>
    <nd ref="676872460"/>
    <nd ref="2880573970"/>
    <nd ref="3980067636"/>
    <nd ref="2165221543"/>
    <nd ref="644160"/>
    <tag k="bicycle" v="yes"/>
    <tag k="bicycle:lanes" v="yes|yes|yes|designated"/>
    <tag k="busway:right" v="lane"/>
    <tag k="cycleway:right" v="share_busway"/>
    <tag k="enforcement:operator" v="Police nationale"/>
    <tag k="highway" v="primary"/>
    <tag k="lanes" v="4"/>
    <tag k="lanes:psv" v="1"/>
    <tag k="lit" v="yes"/>
    <tag k="maxspeed" v="30"/>
    <tag k="name" v="Quai de Gesvres"/>
    <tag k="name:etymology:wikidata" v="Q3426770"/>
    <tag k="oneway" v="yes"/>
    <tag k="operator" v="Ville de Paris"/>
    <tag k="operator:authority" v="Maire de Paris dans le respect des prescriptions prises par le préfet de police"/>
    <tag k="operator:authority:related_law" v="III de l'article L. 2512-14 du code général des collectivités territoriales"/>
    <tag k="psv:lanes" v="yes|yes|yes|designated"/>
    <tag k="sidewalk:both:surface" v="asphalt"/>
    <tag k="sidewalk:left" v="separate"/>
    <tag k="sidewalk:right" v="yes"/>
    <tag k="smoothness" v="good"/>
    <tag k="source" v="Bing"/>
    <tag k="source:operator:authority" v="https://www.legifrance.gouv.fr/loda/id/LEGIARTI000035244298/#LEGIARTI000035244298"/>
    <tag k="surface" v="asphalt"/>
    <tag k="turn:lanes" v="left;through|through|through;right|none"/>
    <tag k="zone:traffic" v="FR:urban"/>
  </way>
  <way id="83268801" version="26" timestamp="2025-01-28T23:01:38Z" changeset="161876796" uid="2678738" user="fgouget">
    <nd ref="5919299085"/>
    <nd ref="2162871416"/>
    <nd ref="6390736503"/>
    <nd ref="247640815"/>
    <nd ref="8592903098"/>
    <nd ref="12540102533"/>
    <nd ref="6852399301"/>
    <nd ref="12540102535"/>
    <nd ref="12540102534"/>
    <nd ref="5059824696"/>
    <nd ref="247641149"/>
    <nd ref="178801329"/>
    <tag k="cycleway:left" v="lane"/>
    <tag k="cycleway:left:lane" v="exclusive"/>
    <tag k="highway" v="tertiary"/>
    <tag k="lanes" v="3"/>
    <tag k="lanes:backward" v="2"/>
    <tag k="lanes:forward" v="1"/>
    <tag k="maxspeed" v="30"/>
    <tag k="maxspeed:type" v="FR:zone30"/>
    <tag k="name" v="Rue de Lobau"/>
    <tag k="name:etymology:wikidata" v="Q1509041"/>
    <tag k="sidewalk:both" v="separate"/>
    <tag k="surface" v="asphalt"/>
    <tag k="zone:maxspeed" v="FR:30"/>
  </way>
  <way id="123324289" version="16" timestamp="2024-10-10T18:15:10Z" changeset="157728072" uid="1885164" user="Xandrex">
    <nd ref="15644057"/>
    <nd ref="1841311669"/>
    <tag k="bicycle:backward" v="use_sidepath"/>
    <tag k="busway:right" v="lane"/>
    <tag k="cycleway:left" v="separate"/>
    <tag k="cycleway:right" v="share_busway"/>
    <tag k="enforcement:operator" v="Police nationale"/>
    <tag k="highway" v="primary"/>
    <tag k="lanes" v="4"/>
    <tag k="lanes:psv" v="1"/>
    <tag k="lit" v="yes"/>
    <tag k="maxspeed" v="30"/>
    <tag k="name" v="Boulevard de Sébastopol"/>
    <tag k="name:etymology:wikidata" v="Q815216"/>
    <tag k="oneway" v="yes"/>
    <tag k="operator" v="Ville de Paris"/>
    <tag k="operator:authority" v="Maire de Paris dans le respect des prescriptions prises par le préfet de police"/>
    <tag k="operator:authority:related_law" v="III de l'article L. 2512-14 du code général des collectivités territoriales"/>
    <tag k="sidewalk" v="separate"/>
    <tag k="smoothness" v="good"/>
    <tag k="source:maxspeed" v="FR:urban"/>
    <tag k="source:operator:authority" v="https://www.legifrance.gouv.fr/loda/id/LEGIARTI000035244298/#LEGIARTI000035244298"/>
    <tag k="surface" v="asphalt"/>
    <tag k="zone:traffic" v="FR:urban"/>
  </way>
  <way id="133562191" version="10" timestamp="2025-01-10T15:14:25Z" changeset="161209449" uid="7512839" user="Benoît C MdP">
    <nd ref="1470041404"/>
    <nd ref="10290370144"/>
    <nd ref="12488529051"/>
    <nd ref="411256178"/>
    <tag k="bicycle" v="no"/>
    <tag k="foot" v="no"/>
    <tag k="highway" v="unclassified"/>
    <tag k="lit" v="yes"/>
    <tag k="maxspeed" v="30"/>
    <tag k="name" v="Souterrain Berger Est"/>
    <tag k="oneway" v="yes"/>
    <tag k="smoothness" v="good"/>
    <tag k="source" v="cadastre-dgi-fr source : Direction Générale des Impôts - Cadastre. Mise à jour : 2010"/>
    <tag k="surface" v="asphalt"/>
  </way>
  <way id="138031419" version="26" timestamp="2024-10-18T20:10:29Z" changeset="158066386" uid="7512839" user="Benoît C MdP">
    <nd ref="1513497237"/>
    <nd ref="368120"/>
    <tag k="bridge" v="yes"/>
    <tag k="cycleway:left" v="no"/>
    <tag k="cycleway:right" v="track"/>
    <tag k="cycleway:right:width" v="4"/>
    <tag k="enforcement:operator" v="Police nationale"/>
    <tag k="highway" v="secondary"/>
    <tag k="lanes" v="2"/>
    <tag k="layer" v="1"/>
    <tag k="lit" v="yes"/>
    <tag k="maxspeed" v="30"/>
    <tag k="maxweight:signed" v="no"/>
    <tag k="name" v="Pont Notre-Dame"/>
    <tag k="name:etymology:wikidata" v="Q2981"/>
    <tag k="oneway" v="yes"/>
    <tag k="operator" v="Ville de Paris"/>
    <tag k="operator:authority" v="Maire de Paris dans le respect des prescriptions prises par le préfet de police"/>
    <tag k="operator:authority:related_law" v="III de l'article L. 2512-14 du code général des collectivités territoriales"/>
    <tag k="parking:both" v="no"/>
    <tag k="sidewalk" v="separate"/>
    <tag k="smoothness" v="excellent"/>
    <tag k="source:maxspeed" v="FR:urban"/>
    <tag k="source:operator:authority" v="https://www.legifrance.gouv.fr/loda/id/LEGIARTI000035244298/#LEGIARTI000035244298"/>
    <tag k="surface" v="asphalt"/>
    <tag k="was:cycleway:right" v="lane"/>
    <tag k="wikidata" v="Q1061959"/>
    <tag k="wikipedia" v="fr:Pont Notre-Dame"/>
    <tag k="zone:traffic" v="FR:urban"/>
  </way>
  <way id="138032009" version="13" timestamp="2024-07-30T08:22:35Z" changeset="154594220" uid="2678738" user="fgouget">
    <nd ref="361068"/>
    <nd ref="1513501834"/>
    <tag k="cycleway:right" v="no"/>
    <tag k="highway" v="residential"/>
    <tag k="lit" v="yes"/>
    <tag k="maxspeed" v="30"/>
    <tag k="name" v="Pont d'Arcole"/>
    <tag k="name:etymology" v="un jeune apprenti serrurier, fils d'un ancien sergent, tué au cours des Trois Glorieuses, le 28 juillet 1830, lors d'une contre-attaque des insurgés contre l'Hôtel de ville"/>
    <tag k="oneway" v="yes"/>
    <tag k="sidewalk:left" v="no"/>
    <tag k="sidewalk:right" v="separate"/>
    <tag k="smoothness" v="good"/>
    <tag k="surface" v="asphalt"/>
  </way>
  <way id="138032010" version="13" timestamp="2024-07-30T08:22:45Z" changeset="154594220" uid="2678738" user="fgouget">
    <nd ref="1513501833"/>
    <nd ref="25554712"/>
    <tag k="cycleway:right" v="no"/>
    <tag k="highway" v="residential"/>
    <tag k="lit" v="yes"/>
    <tag k="maxspeed" v="30"/>
    <tag k="name" v="Pont d'Arcole"/>
    <tag k="name:etymology" v="un jeune apprenti serrurier, fils d'un ancien sergent, tué au cours des Trois Glorieuses, le 28 juillet 1830, lors d'une contre-attaque des insurgés contre l'Hôtel de ville"/>
    <tag k="oneway" v="yes"/>
    <tag k="sidewalk:left" v="yes"/>
    <tag k="sidewalk:right" v="separate"/>
    <tag k="smoothness" v="good"/>
    <tag k="surface" v="asphalt"/>
  </way>
  <way id="193100625" version="16" timestamp="2024-02-15T21:40:16Z" changeset="147508720" uid="6290466" user="benjamintchik">
    <nd ref="693550585"/>
    <nd ref="693550591"/>
    <tag k="cycleway" v="opposite"/>
    <tag k="foot" v="yes"/>
    <tag k="highway" v="residential"/>
    <tag k="lit" v="yes"/>
    <tag k="maxspeed" v="30"/>
    <tag k="name" v="Rue Saint-Martin"/>
    <tag k="name:etymology:wikidata" v="Q656302"/>
    <tag k="oneway" v="yes"/>
    <tag k="oneway:bicycle" v="no"/>
    <tag k="psv" v="yes"/>
    <tag k="sidewalk" v="no"/>
    <tag k="smoothness" v="good"/>
    <tag k="surface" v="asphalt"/>
  </way>
  <way id="193751718" version="19" timestamp="2024-08-15T17:22:30Z" changeset="155293930" uid="11963177" user="JeroenvanderGun">
    <nd ref="1841311669"/>
    <nd ref="2168591558"/>
    <nd ref="25554524"/>
    <tag k="bicycle:backward" v="use_sidepath"/>
    <tag k="bicycle:lanes" v="yes|yes|designated"/>
    <tag k="busway:right" v="lane"/>
    <tag k="cycleway:left" v="separate"/>
    <tag k="cycleway:right" v="share_busway"/>
    <tag k="enforcement:operator" v="Police nationale"/>
    <tag k="highway" v="primary"/>
    <tag k="lanes" v="3"/>
    <tag k="lanes:psv" v="1"/>
    <tag k="lit" v="yes"/>
    <tag k="maxspeed" v="30"/>
    <tag k="name" v="Boulevard de Sébastopol"/>
    <tag k="name:etymology:wikidata" v="Q815216"/>
    <tag k="oneway" v="yes"/>
    <tag k="operator" v="Ville de Paris"/>
    <tag k="operator:authority" v="Maire de Paris dans le respect des prescriptions prises par le préfet de police"/>
    <tag k="operator:authority:related_law" v="III de l'article L. 2512-14 du code général des collectivités territoriales"/>
    <tag k="psv:lanes" v="yes|yes|designated"/>
    <tag k="sidewalk" v="separate"/>
    <tag k="smoothness" v="good"/>
    <tag k="source:maxspeed" v="FR:urban"/>
    <tag k="source:operator:authority" v="https://www.legifrance.gouv.fr/loda/id/LEGIARTI000035244298/#LEGIARTI000035244298"/>
    <tag k="surface" v="asphalt"/>
    <tag k="zone:traffic" v="FR:urban"/>
  </way>
  <way id="284302748" version="23" timestamp="2025-04-11T11:33:09Z" changeset="164811481" uid="7550430" user="Britzz">
    <nd ref="644160"/>
    <nd ref="4503161885"/>
    <nd ref="4503161886"/>
    <nd ref="697177871"/>
    <nd ref="4877380021"/>
    <nd ref="247642735"/>
    <nd ref="12747638323"/>
    <nd ref="3657895198"/>
    <nd ref="361068"/>
    <tag k="bicycle" v="yes"/>
    <tag k="bicycle:lanes" v="yes|yes|yes|designated"/>
    <tag k="busway:right" v="lane"/>
    <tag k="cycleway:right" v="share_busway"/>
    <tag k="enforcement:operator" v="Police nationale"/>
    <tag k="highway" v="primary"/>
    <tag k="lanes" v="4"/>
    <tag k="lanes:psv" v="1"/>
    <tag k="lit" v="yes"/>
    <tag k="maxspeed" v="30"/>
    <tag k="name" v="Quai de Gesvres"/>
    <tag k="name:etymology:wikidata" v="Q3426770"/>
    <tag k="oneway" v="yes"/>
    <tag k="operator" v="Ville de Paris"/>
    <tag k="operator:authority" v="Maire de Paris dans le respect des prescriptions prises par le préfet de police"/>
    <tag k="operator:authority:related_law" v="III de l'article L. 2512-14 du code général des collectivités territoriales"/>
    <tag k="psv:lanes" v="yes|yes|yes|designated"/>
    <tag k="sidewalk:both" v="separate"/>
    <tag k="smoothness" v="good"/>
    <tag k="source:operator:authority" v="https://www.legifrance.gouv.fr/loda/id/LEGIARTI000035244298/#LEGIARTI000035244298"/>
    <tag k="surface" v="asphalt"/>
    <tag k="zone:traffic" v="FR:urban"/>
  </way>
  <way id="361292433" version="15" timestamp="2024-06-04T22:25:01Z" changeset="152263644" uid="2678738" user="fgouget">
    <nd ref="7047107741"/>
    <nd ref="4129972721"/>
    <nd ref="3657885239"/>
    <tag k="cycleway:right" v="lane"/>
    <tag k="highway" v="tertiary"/>
    <tag k="maxspeed" v="30"/>
    <tag k="name" v="Rue de Lobau"/>
    <tag k="name:etymology:wikidata" v="Q1509041"/>
    <tag k="oneway" v="yes"/>
    <tag k="sidewalk:right" v="separate"/>
    <tag k="surface" v="asphalt"/>
    <tag k="zone:maxspeed" v="FR:30"/>
  </way>
  <way id="361292434" version="16" timestamp="2024-08-15T17:22:30Z" changeset="155293930" uid="11963177" user="JeroenvanderGun">
    <nd ref="1985704464"/>
    <nd ref="5041260574"/>
    <tag k="cycleway:right" v="lane"/>
    <tag k="cycleway:right:lane" v="advisory"/>
    <tag k="dual_carriageway" v="yes"/>
    <tag k="enforcement:operator" v="Police nationale"/>
    <tag k="highway" v="primary"/>
    <tag k="lanes" v="2"/>
    <tag k="lit" v="yes"/>
    <tag k="maxspeed" v="30"/>
    <tag k="name" v="Quai de l'Hôtel de Ville"/>
    <tag k="name:etymology:wikidata" v="Q640968"/>
    <tag k="oneway" v="yes"/>
    <tag k="operator" v="Ville de Paris"/>
    <tag k="operator:authority" v="Maire de Paris dans le respect des prescriptions prises par le préfet de police"/>
    <tag k="operator:authority:related_law" v="III de l'article L. 2512-14 du code général des collectivités territoriales"/>
    <tag k="sidewalk" v="right"/>
    <tag k="smoothness" v="good"/>
    <tag k="source:operator:authority" v="https://www.legifrance.gouv.fr/loda/id/LEGIARTI000035244298/#LEGIARTI000035244298"/>
    <tag k="surface" v="asphalt"/>
    <tag k="zone:traffic" v="FR:urban"/>
  </way>
  <way id="361292435" version="15" timestamp="2025-01-28T23:01:38Z" changeset="161876796" uid="2678738" user="fgouget">
    <nd ref="3657885239"/>
    <nd ref="12540102543"/>
    <nd ref="12540102544"/>
    <nd ref="3657878904"/>
    <nd ref="7047107742"/>
    <nd ref="6271386604"/>
    <nd ref="3657885245"/>
    <nd ref="5041260577"/>
    <tag k="highway" v="tertiary"/>
    <tag k="maxspeed" v="30"/>
    <tag k="name" v="Rue de Lobau"/>
    <tag k="name:etymology:wikidata" v="Q1509041"/>
    <tag k="oneway" v="yes"/>
    <tag k="sidewalk:right" v="separate"/>
    <tag k="surface" v="asphalt"/>
    <tag k="zone:maxspeed" v="FR:30"/>
  </way>
  <way id="467280505" version="14" timestamp="2024-08-15T17:26:47Z" changeset="155294126" uid="11963177" user="JeroenvanderGun">
    <nd ref="676872598"/>
    <nd ref="2887958202"/>
    <tag k="cycleway:right" v="no"/>
    <tag k="enforcement:operator" v="Police nationale"/>
    <tag k="highway" v="secondary"/>
    <tag k="lanes" v="4"/>
    <tag k="lit" v="yes"/>
    <tag k="maxspeed" v="30"/>
    <tag k="name" v="Avenue Victoria"/>
    <tag k="name:etymology:wikidata" v="Q9439"/>
    <tag k="oneway" v="yes"/>
    <tag k="operator" v="Ville de Paris"/>
    <tag k="operator:authority" v="Maire de Paris après avis du préfet de police"/>
    <tag k="operator:authority:related_law" v="IV de l'article L. 2512-14 du code général des collectivités territoriales"/>
    <tag k="operator:url" v="https://cdn.paris.fr/paris/2020/02/26/5bf469a311d0beb9911e92d113781550.ai"/>
    <tag k="sidewalk:both" v="separate"/>
    <tag k="smoothness" v="good"/>
    <tag k="source" v="cadastre-dgi-fr source : Direction Générale des Impôts - Cadastre. Mise à jour : 2017"/>
    <tag k="source:maxspeed" v="FR:urban"/>
    <tag k="surface" v="asphalt"/>
  </way>
  <way id="516413082" version="13" timestamp="2024-08-15T17:22:30Z" changeset="155293930" uid="11963177" user="JeroenvanderGun">
    <nd ref="5041260581"/>
    <nd ref="6335319280"/>
    <nd ref="1985704464"/>
    <tag k="cycleway:right" v="lane"/>
    <tag k="cycleway:right:lane" v="advisory"/>
    <tag k="dual_carriageway" v="yes"/>
    <tag k="enforcement:operator" v="Police nationale"/>
    <tag k="highway" v="primary"/>
    <tag k="lanes" v="2"/>
    <tag k="lit" v="yes"/>
    <tag k="maxspeed" v="30"/>
    <tag k="name" v="Quai de l'Hôtel de Ville"/>
    <tag k="name:etymology:wikidata" v="Q640968"/>
    <tag k="oneway" v="yes"/>
    <tag k="operator" v="Ville de Paris"/>
    <tag k="operator:authority" v="Maire de Paris dans le respect des prescriptions prises par le préfet de police"/>
    <tag k="operator:authority:related_law" v="III de l'article L. 2512-14 du code général des collectivités territoriales"/>
    <tag k="sidewalk:right" v="separate"/>
    <tag k="source" v="Bing"/>
    <tag k="source:operator:authority" v="https://www.legifrance.gouv.fr/loda/id/LEGIARTI000035244298/#LEGIARTI000035244298"/>
    <tag k="surface" v="asphalt"/>
    <tag k="zone:traffic" v="FR:urban"/>
  </way>
  <way id="516413083" version="18" timestamp="2025-01-28T23:01:38Z" changeset="161876796" uid="2678738" user="fgouget">
    <nd ref="5041260572"/>
    <nd ref="5041260577"/>
    <nd ref="12540102545"/>
    <nd ref="6335319281"/>
    <nd ref="6335319385"/>
    <tag k="dual_carriageway" v="yes"/>
    <tag k="enforcement:operator" v="Police nationale"/>
    <tag k="highway" v="primary"/>
    <tag k="lanes" v="2"/>
    <tag k="lit" v="yes"/>
    <tag k="maxspeed" v="30"/>
    <tag k="name" v="Quai de l'Hôtel de Ville"/>
    <tag k="name:etymology:wikidata" v="Q640968"/>
    <tag k="oneway" v="yes"/>
    <tag k="operator" v="Ville de Paris"/>
    <tag k="operator:authority" v="Maire de Paris dans le respect des prescriptions prises par le préfet de police"/>
    <tag k="operator:authority:related_law" v="III de l'article L. 2512-14 du code général des collectivités territoriales"/>
    <tag k="source:operator:authority" v="https://www.legifrance.gouv.fr/loda/id/LEGIARTI000035244298/#LEGIARTI000035244298"/>
    <tag k="surface" v="asphalt"/>
    <tag k="zone:traffic" v="FR:urban"/>
  </way>
  <way id="516413084" version="10" timestamp="2024-02-15T21:54:55Z" changeset="147508720" uid="6290466" user="benjamintchik">
    <nd ref="5041260574"/>
    <nd ref="5041260572"/>
    <tag k="cycleway:right" v="no"/>
    <tag k="highway" v="tertiary"/>
    <tag k="lanes" v="2"/>
    <tag k="maxspeed" v="30"/>
    <tag k="name" v="Rue de Lobau"/>
    <tag k="name:etymology:wikidata" v="Q1509041"/>
    <tag k="oneway" v="yes"/>
    <tag k="surface" v="asphalt"/>
  </way>
  <way id="516413416" version="8" timestamp="2024-08-15T17:22:30Z" changeset="155293930" uid="11963177" user="JeroenvanderGun">
    <nd ref="5041260574"/>
    <nd ref="368144"/>
    <tag k="dual_carriageway" v="yes"/>
    <tag k="enforcement:operator" v="Police nationale"/>
    <tag k="highway" v="primary"/>
    <tag k="lanes" v="2"/>
    <tag k="lit" v="yes"/>
    <tag k="maxspeed" v="30"/>
    <tag k="name" v="Quai de l'Hôtel de Ville"/>
    <tag k="name:etymology:wikidata" v="Q640968"/>
    <tag k="oneway" v="yes"/>
    <tag k="operator" v="Ville de Paris"/>
    <tag k="operator:authority" v="Maire de Paris dans le respect des prescriptions prises par le préfet de police"/>
    <tag k="operator:authority:related_law" v="III de l'article L. 2512-14 du code général des collectivités territoriales"/>
    <tag k="source:operator:authority" v="https://www.legifrance.gouv.fr/loda/id/LEGIARTI000035244298/#LEGIARTI000035244298"/>
    <tag k="surface" v="asphalt"/>
    <tag k="zone:traffic" v="FR:urban"/>
  </way>
  <way id="517156353" version="19" timestamp="2024-08-15T17:26:47Z" changeset="155294126" uid="11963177" user="JeroenvanderGun">
    <nd ref="361069"/>
    <nd ref="3657878906"/>
    <nd ref="4503161880"/>
    <tag k="bicycle" v="yes"/>
    <tag k="bicycle:lanes" v="yes|yes|yes|designated"/>
    <tag k="busway:right" v="lane"/>
    <tag k="cycleway:left" v="no"/>
    <tag k="cycleway:right" v="share_busway"/>
    <tag k="enforcement:operator" v="Police nationale"/>
    <tag k="highway" v="secondary"/>
    <tag k="lanes" v="3"/>
    <tag k="lanes:psv" v="1"/>
    <tag k="lit" v="yes"/>
    <tag k="maxspeed" v="30"/>
    <tag k="name" v="Avenue Victoria"/>
    <tag k="name:etymology:wikidata" v="Q9439"/>
    <tag k="oneway" v="yes"/>
    <tag k="operator" v="Ville de Paris"/>
    <tag k="operator:authority" v="Maire de Paris après avis du préfet de police"/>
    <tag k="operator:authority:related_law" v="IV de l'article L. 2512-14 du code général des collectivités territoriales"/>
    <tag k="operator:url" v="https://cdn.paris.fr/paris/2020/02/26/5bf469a311d0beb9911e92d113781550.ai"/>
    <tag k="psv:lanes" v="yes|yes|yes|designated"/>
    <tag k="shoulder" v="no"/>
    <tag k="sidewalk:both" v="separate"/>
    <tag k="smoothness" v="excellent"/>
    <tag k="source" v="Bing"/>
    <tag k="source:maxspeed" v="FR:urban"/>
    <tag k="surface" v="asphalt"/>
  </way>
  <way id="517156355" version="13" timestamp="2024-08-15T17:22:30Z" changeset="155293930" uid="11963177" user="JeroenvanderGun">
    <nd ref="25554694"/>
    <nd ref="25670856"/>
    <nd ref="2165221547"/>
    <nd ref="2211556499"/>
    <tag k="bicycle:lanes" v="yes|yes|yes|designated"/>
    <tag k="busway:right" v="lane"/>
    <tag k="cycleway:right" v="share_busway"/>
    <tag k="enforcement:operator" v="Police nationale"/>
    <tag k="highway" v="primary"/>
    <tag k="lanes" v="4"/>
    <tag k="lanes:psv" v="1"/>
    <tag k="lit" v="yes"/>
    <tag k="maxspeed" v="30"/>
    <tag k="name" v="Quai de Gesvres"/>
    <tag k="name:etymology:wikidata" v="Q3426770"/>
    <tag k="oneway" v="yes"/>
    <tag k="operator" v="Ville de Paris"/>
    <tag k="operator:authority" v="Maire de Paris dans le respect des prescriptions prises par le préfet de police"/>
    <tag k="operator:authority:related_law" v="III de l'article L. 2512-14 du code général des collectivités territoriales"/>
    <tag k="psv:lanes" v="yes|yes|yes|designated"/>
    <tag k="sidewalk:both:surface" v="asphalt"/>
    <tag k="sidewalk:left" v="separate"/>
    <tag k="sidewalk:right" v="yes"/>
    <tag k="smoothness" v="excellent"/>
    <tag k="source" v="Bing"/>
    <tag k="source:operator:authority" v="https://www.legifrance.gouv.fr/loda/id/LEGIARTI000035244298/#LEGIARTI000035244298"/>
    <tag k="surface" v="asphalt"/>
    <tag k="zone:traffic" v="FR:urban"/>
  </way>
  <way id="551416291" version="16" timestamp="2024-08-06T18:02:19Z" changeset="154904152" uid="7550430" user="Britzz">
    <nd ref="2165221570"/>
    <nd ref="1055820771"/>
    <nd ref="11071272605"/>
    <tag k="cycleway:left" v="lane"/>
    <tag k="cycleway:left:lane" v="exclusive"/>
    <tag k="cycleway:left:oneway" v="-1"/>
    <tag k="cycleway:right" v="no"/>
    <tag k="delivery" v="yes"/>
    <tag k="disabled" v="yes"/>
    <tag k="foot" v="yes"/>
    <tag k="highway" v="residential"/>
    <tag k="lanes" v="1"/>
    <tag k="lit" v="yes"/>
    <tag k="maxspeed" v="30"/>
    <tag k="motor_vehicle" v="destination"/>
    <tag k="name" v="Rue Saint-Martin"/>
    <tag k="name:etymology:wikidata" v="Q656302"/>
    <tag k="note:fr" v="lanes=1 pendant des travaux"/>
    <tag k="oneway" v="yes"/>
    <tag k="oneway:bicycle" v="no"/>
    <tag k="psv" v="yes"/>
    <tag k="sidewalk:both" v="separate"/>
    <tag k="smoothness" v="excellent"/>
    <tag k="surface" v="asphalt"/>
  </way>
  <way id="553339897" version="17" timestamp="2024-08-15T17:26:47Z" changeset="155294126" uid="11963177" user="JeroenvanderGun">
    <nd ref="4503161880"/>
    <nd ref="6345068526"/>
    <tag k="bicycle" v="yes"/>
    <tag k="bicycle:lanes" v="yes|yes|yes|designated"/>
    <tag k="busway:right" v="lane"/>
    <tag k="cycleway:left" v="no"/>
    <tag k="cycleway:right" v="share_busway"/>
    <tag k="enforcement:operator" v="Police nationale"/>
    <tag k="highway" v="secondary"/>
    <tag k="lanes" v="3"/>
    <tag k="lanes:psv" v="1"/>
    <tag k="lit" v="yes"/>
    <tag k="maxspeed" v="30"/>
    <tag k="name" v="Avenue Victoria"/>
    <tag k="name:etymology:wikidata" v="Q9439"/>
    <tag k="oneway" v="yes"/>
    <tag k="operator" v="Ville de Paris"/>
    <tag k="operator:authority" v="Maire de Paris après avis du préfet de police"/>
    <tag k="operator:authority:related_law" v="IV de l'article L. 2512-14 du code général des collectivités territoriales"/>
    <tag k="operator:url" v="https://cdn.paris.fr/paris/2020/02/26/5bf469a311d0beb9911e92d113781550.ai"/>
    <tag k="psv:lanes" v="yes|yes|yes|designated"/>
    <tag k="sidewalk:both" v="separate"/>
    <tag k="sidewalk:both:surface" v="asphalt"/>
    <tag k="smoothness" v="excellent"/>
    <tag k="source" v="Bing"/>
    <tag k="source:maxspeed" v="FR:urban"/>
    <tag k="surface" v="asphalt"/>
  </way>
  <way id="569948205" version="36" timestamp="2024-08-15T17:26:47Z" changeset="155294126" uid="11963177" user="JeroenvanderGun">
    <nd ref="8578385103"/>
    <nd ref="2162802121"/>
    <nd ref="2162802124"/>
    <nd ref="25554705"/>
    <nd ref="2162802126"/>
    <nd ref="10300221681"/>
    <nd ref="361070"/>
    <tag k="bicycle:backward" v="use_sidepath"/>
    <tag k="cycleway:left" v="separate"/>
    <tag k="cycleway:right" v="no"/>
    <tag k="enforcement:operator" v="Police nationale"/>
    <tag k="highway" v="tertiary"/>
    <tag k="lanes" v="2"/>
    <tag k="lit" v="yes"/>
    <tag k="maxspeed" v="30"/>
    <tag k="name" v="Rue de Rivoli"/>
    <tag k="name:de" v="Rue de Rivoli"/>
    <tag k="name:es" v="Rue de Rivoli"/>
    <tag k="name:etymology:wikidata" v="Q1069936"/>
    <tag k="name:fr" v="Rue de Rivoli"/>
    <tag k="name:ru" v="Улица Риволи"/>
    <tag k="oneway" v="yes"/>
    <tag k="operator" v="Ville de Paris"/>
    <tag k="operator:authority" v="Maire de Paris après avis du préfet de police"/>
    <tag k="operator:authority:related_law" v="IV de l'article L. 2512-14 du code général des collectivités territoriales"/>
    <tag k="operator:url" v="https://cdn.paris.fr/paris/2020/02/26/5bf469a311d0beb9911e92d113781550.ai"/>
    <tag k="sidewalk:both" v="separate"/>
    <tag k="smoothness" v="excellent"/>
    <tag k="source" v="cadastre-dgi-fr source : Direction Générale des Impôts - Cadastre. Mise à jour : 2010"/>
    <tag k="source:maxspeed" v="FR:urban"/>
    <tag k="surface" v="asphalt"/>
    <tag k="was:highway" v="primary"/>
  </way>
  <way id="627023260" version="9" timestamp="2024-02-15T21:40:16Z" changeset="147508720" uid="6290466" user="benjamintchik">
    <nd ref="5763285653"/>
    <nd ref="693550585"/>
    <tag k="cycleway" v="opposite"/>
    <tag k="foot" v="yes"/>
    <tag k="highway" v="residential"/>
    <tag k="lit" v="yes"/>
    <tag k="maxspeed" v="30"/>
    <tag k="name" v="Rue Saint-Martin"/>
    <tag k="name:etymology:wikidata" v="Q656302"/>
    <tag k="oneway" v="yes"/>
    <tag k="oneway:bicycle" v="no"/>
    <tag k="psv" v="yes"/>
    <tag k="sidewalk" v="no"/>
    <tag k="smoothness" v="excellent"/>
    <tag k="surface" v="asphalt"/>
  </way>
  <way id="627023264" version="10" timestamp="2024-12-09T13:06:15Z" changeset="160091487" uid="6383530" user="frosm">
    <nd ref="25554701"/>
    <nd ref="693492407"/>
    <tag k="cycleway" v="no"/>
    <tag k="highway" v="residential"/>
    <tag k="lit" v="yes"/>
    <tag k="maxspeed" v="30"/>
    <tag k="name" v="Rue Saint-Bon"/>
    <tag k="oneway" v="yes"/>
    <tag k="oneway:bicycle" v="no"/>
    <tag k="sidewalk" v="no"/>
    <tag k="smoothness" v="excellent"/>
    <tag k="surface" v="asphalt"/>
  </way>
  <way id="627023269" version="9" timestamp="2024-09-22T10:57:26Z" changeset="156945644" uid="6383530" user="frosm">
    <nd ref="5763283952"/>
    <nd ref="25554701"/>
    <tag k="cycleway" v="no"/>
    <tag k="highway" v="residential"/>
    <tag k="lit" v="yes"/>
    <tag k="maxspeed" v="30"/>
    <tag k="name" v="Rue de la Tacherie"/>
    <tag k="oneway" v="yes"/>
    <tag k="oneway:bicycle" v="no"/>
    <tag k="sidewalk" v="no"/>
    <tag k="surface" v="asphalt"/>
  </way>
  <way id="677653612" version="15" timestamp="2024-08-15T17:26:47Z" changeset="155294126" uid="11963177" user="JeroenvanderGun">
    <nd ref="6345068526"/>
    <nd ref="2880767496"/>
    <tag k="bicycle" v="yes"/>
    <tag k="bicycle:lanes" v="yes|yes|yes|designated"/>
    <tag k="busway:right" v="lane"/>
    <tag k="cycleway:left" v="no"/>
    <tag k="cycleway:right" v="share_busway"/>
    <tag k="enforcement:operator" v="Police nationale"/>
    <tag k="highway" v="secondary"/>
    <tag k="lanes" v="3"/>
    <tag k="lanes:psv" v="1"/>
    <tag k="lit" v="yes"/>
    <tag k="maxspeed" v="30"/>
    <tag k="name" v="Avenue Victoria"/>
    <tag k="name:etymology:wikidata" v="Q9439"/>
    <tag k="oneway" v="yes"/>
    <tag k="operator" v="Ville de Paris"/>
    <tag k="operator:authority" v="Maire de Paris après avis du préfet de police"/>
    <tag k="operator:authority:related_law" v="IV de l'article L. 2512-14 du code général des collectivités territoriales"/>
    <tag k="operator:url" v="https://cdn.paris.fr/paris/2020/02/26/5bf469a311d0beb9911e92d113781550.ai"/>
    <tag k="psv:lanes" v="yes|yes|yes|designated"/>
    <tag k="sidewalk:both" v="separate"/>
    <tag k="smoothness" v="good"/>
    <tag k="source" v="Bing"/>
    <tag k="source:maxspeed" v="FR:urban"/>
    <tag k="surface" v="asphalt"/>
  </way>
  <way id="678522920" version="14" timestamp="2024-08-15T17:22:30Z" changeset="155293930" uid="11963177" user="JeroenvanderGun">
    <nd ref="5041260581"/>
    <nd ref="2641063809"/>
    <nd ref="1599712849"/>
    <tag k="cycleway:left" v="lane"/>
    <tag k="cycleway:left:lane" v="exclusive"/>
    <tag k="cycleway:right" v="no"/>
    <tag k="enforcement:operator" v="Police nationale"/>
    <tag k="highway" v="primary"/>
    <tag k="lanes" v="4"/>
    <tag k="lanes:backward" v="2"/>
    <tag k="lanes:forward" v="2"/>
    <tag k="lit" v="yes"/>
    <tag k="maxspeed" v="30"/>
    <tag k="name" v="Quai de l'Hôtel de Ville"/>
    <tag k="name:etymology:wikidata" v="Q640968"/>
    <tag k="operator" v="Ville de Paris"/>
    <tag k="operator:authority" v="Maire de Paris dans le respect des prescriptions prises par le préfet de police"/>
    <tag k="operator:authority:related_law" v="III de l'article L. 2512-14 du code général des collectivités territoriales"/>
    <tag k="sidewalk:both" v="separate"/>
    <tag k="smoothness" v="good"/>
    <tag k="source" v="Bing"/>
    <tag k="source:maxspeed" v="FR:urban"/>
    <tag k="source:operator:authority" v="https://www.legifrance.gouv.fr/loda/id/LEGIARTI000035244298/#LEGIARTI000035244298"/>
    <tag k="surface" v="asphalt"/>
    <tag k="turn:lanes:backward" v="left|through|through"/>
    <tag k="zone:traffic" v="FR:urban"/>
  </way>
  <way id="681709632" version="13" timestamp="2025-01-30T10:50:02Z" changeset="161932292" uid="7512839" user="Benoît C MdP">
    <nd ref="5763283950"/>
    <nd ref="6086116538"/>
    <nd ref="4842846123"/>
    <tag k="bicycle" v="yes"/>
    <tag k="bicycle:lanes" v="yes|yes|designated"/>
    <tag k="busway:right" v="lane"/>
    <tag k="cycleway:left" v="no"/>
    <tag k="cycleway:right" v="share_busway"/>
    <tag k="highway" v="secondary"/>
    <tag k="lanes" v="3"/>
    <tag k="lanes:psv" v="1"/>
    <tag k="lit" v="yes"/>
    <tag k="maxspeed" v="30"/>
    <tag k="name" v="Rue de la Coutellerie"/>
    <tag k="name:etymology:wikidata" v="Q1436188"/>
    <tag k="oneway" v="yes"/>
    <tag k="psv:lanes" v="yes|yes|designated"/>
    <tag k="sidewalk:both" v="separate"/>
    <tag k="smoothness" v="excellent"/>
    <tag k="source" v="Bing"/>
    <tag k="source:maxspeed" v="FR:urban"/>
    <tag k="surface" v="asphalt"/>
  </way>
  <way id="682714785" version="13" timestamp="2024-08-15T17:26:47Z" changeset="155294126" uid="11963177" user="JeroenvanderGun">
    <nd ref="2887958202"/>
    <nd ref="2883229672"/>
    <tag k="cycleway:both" v="no"/>
    <tag k="enforcement:operator" v="Police nationale"/>
    <tag k="highway" v="secondary"/>
    <tag k="lanes" v="4"/>
    <tag k="lit" v="yes"/>
    <tag k="maxspeed" v="30"/>
    <tag k="name" v="Avenue Victoria"/>
    <tag k="name:etymology:wikidata" v="Q9439"/>
    <tag k="oneway" v="yes"/>
    <tag k="operator" v="Ville de Paris"/>
    <tag k="operator:authority" v="Maire de Paris après avis du préfet de police"/>
    <tag k="operator:authority:related_law" v="IV de l'article L. 2512-14 du code général des collectivités territoriales"/>
    <tag k="operator:url" v="https://cdn.paris.fr/paris/2020/02/26/5bf469a311d0beb9911e92d113781550.ai"/>
    <tag k="sidewalk:both" v="separate"/>
    <tag k="smoothness" v="good"/>
    <tag k="surface" v="asphalt"/>
  </way>
  <way id="689385093" version="20" timestamp="2024-08-15T17:22:30Z" changeset="155293930" uid="11963177" user="JeroenvanderGun">
    <nd ref="2200326715"/>
    <nd ref="11070301702"/>
    <nd ref="7003016250"/>
    <nd ref="25207375"/>
    <nd ref="11910678636"/>
    <nd ref="25581535"/>
    <nd ref="9431369514"/>
    <nd ref="2200326730"/>
    <nd ref="9431369513"/>
    <nd ref="11222078097"/>
    <nd ref="11222078096"/>
    <nd ref="2878817148"/>
    <nd ref="3462104306"/>
    <nd ref="2392409669"/>
    <nd ref="1832256506"/>
    <nd ref="398708"/>
    <nd ref="2200326743"/>
    <nd ref="5951390678"/>
    <tag k="bicycle:backward" v="use_sidepath"/>
    <tag k="bicycle:lanes" v="yes|yes|designated"/>
    <tag k="busway:right" v="lane"/>
    <tag k="cycleway:left" v="no"/>
    <tag k="cycleway:right" v="share_busway"/>
    <tag k="enforcement:operator" v="Police nationale"/>
    <tag k="highway" v="primary"/>
    <tag k="lanes" v="3"/>
    <tag k="lanes:psv" v="1"/>
    <tag k="lit" v="yes"/>
    <tag k="maxspeed" v="30"/>
    <tag k="name" v="Boulevard de Sébastopol"/>
    <tag k="name:etymology:wikidata" v="Q815216"/>
    <tag k="oneway" v="yes"/>
    <tag k="operator" v="Ville de Paris"/>
    <tag k="operator:authority" v="Maire de Paris dans le respect des prescriptions prises par le préfet de police"/>
    <tag k="operator:authority:related_law" v="III de l'article L. 2512-14 du code général des collectivités territoriales"/>
    <tag k="psv:lanes" v="yes|yes|designated"/>
    <tag k="sidewalk" v="separate"/>
    <tag k="smoothness" v="excellent"/>
    <tag k="source:maxspeed" v="FR:urban"/>
    <tag k="source:operator:authority" v="https://www.legifrance.gouv.fr/loda/id/LEGIARTI000035244298/#LEGIARTI000035244298"/>
    <tag k="surface" v="asphalt"/>
    <tag k="zone:traffic" v="FR:urban"/>
  </way>
  <way id="754883372" version="10" timestamp="2024-08-15T17:22:30Z" changeset="155293930" uid="11963177" user="JeroenvanderGun">
    <nd ref="6282960235"/>
    <nd ref="15644057"/>
    <tag k="bicycle:backward" v="use_sidepath"/>
    <tag k="busway:right" v="lane"/>
    <tag k="cycleway:left" v="separate"/>
    <tag k="cycleway:right" v="share_busway"/>
    <tag k="enforcement:operator" v="Police nationale"/>
    <tag k="highway" v="primary"/>
    <tag k="lanes" v="4"/>
    <tag k="lanes:psv" v="1"/>
    <tag k="lit" v="yes"/>
    <tag k="maxspeed" v="30"/>
    <tag k="name" v="Boulevard de Sébastopol"/>
    <tag k="name:etymology:wikidata" v="Q815216"/>
    <tag k="oneway" v="yes"/>
    <tag k="operator" v="Ville de Paris"/>
    <tag k="operator:authority" v="Maire de Paris dans le respect des prescriptions prises par le préfet de police"/>
    <tag k="operator:authority:related_law" v="III de l'article L. 2512-14 du code général des collectivités territoriales"/>
    <tag k="sidewalk" v="separate"/>
    <tag k="smoothness" v="good"/>
    <tag k="source:maxspeed" v="FR:urban"/>
    <tag k="source:operator:authority" v="https://www.legifrance.gouv.fr/loda/id/LEGIARTI000035244298/#LEGIARTI000035244298"/>
    <tag k="surface" v="asphalt"/>
    <tag k="zone:traffic" v="FR:urban"/>
  </way>
  <way id="796250050" version="7" timestamp="2024-08-15T17:22:30Z" changeset="155293930" uid="11963177" user="JeroenvanderGun">
    <nd ref="6335319385"/>
    <nd ref="5548048426"/>
    <nd ref="5041260581"/>
    <tag k="dual_carriageway" v="yes"/>
    <tag k="enforcement:operator" v="Police nationale"/>
    <tag k="highway" v="primary"/>
    <tag k="lanes" v="2"/>
    <tag k="lit" v="yes"/>
    <tag k="maxspeed" v="30"/>
    <tag k="name" v="Quai de l'Hôtel de Ville"/>
    <tag k="name:etymology:wikidata" v="Q640968"/>
    <tag k="oneway" v="yes"/>
    <tag k="operator" v="Ville de Paris"/>
    <tag k="operator:authority" v="Maire de Paris dans le respect des prescriptions prises par le préfet de police"/>
    <tag k="operator:authority:related_law" v="III de l'article L. 2512-14 du code général des collectivités territoriales"/>
    <tag k="sidewalk:right" v="separate"/>
    <tag k="source:operator:authority" v="https://www.legifrance.gouv.fr/loda/id/LEGIARTI000035244298/#LEGIARTI000035244298"/>
    <tag k="surface" v="asphalt"/>
    <tag k="zone:traffic" v="FR:urban"/>
  </way>
  <way id="808505041" version="12" timestamp="2024-08-15T17:22:30Z" changeset="155293930" uid="11963177" user="JeroenvanderGun">
    <nd ref="1599712849"/>
    <nd ref="25554712"/>
    <tag k="cycleway:left" v="lane"/>
    <tag k="enforcement:operator" v="Police nationale"/>
    <tag k="highway" v="primary"/>
    <tag k="lanes" v="5"/>
    <tag k="lanes:backward" v="3"/>
    <tag k="lanes:forward" v="2"/>
    <tag k="lit" v="yes"/>
    <tag k="maxspeed" v="30"/>
    <tag k="name" v="Quai de l'Hôtel de Ville"/>
    <tag k="name:etymology:wikidata" v="Q640968"/>
    <tag k="operator" v="Ville de Paris"/>
    <tag k="operator:authority" v="Maire de Paris dans le respect des prescriptions prises par le préfet de police"/>
    <tag k="operator:authority:related_law" v="III de l'article L. 2512-14 du code général des collectivités territoriales"/>
    <tag k="sidewalk:both" v="separate"/>
    <tag k="smoothness" v="good"/>
    <tag k="source" v="Bing"/>
    <tag k="source:maxspeed" v="FR:urban"/>
    <tag k="source:operator:authority" v="https://www.legifrance.gouv.fr/loda/id/LEGIARTI000035244298/#LEGIARTI000035244298"/>
    <tag k="surface" v="asphalt"/>
    <tag k="turn:lanes:forward" v="right|right"/>
    <tag k="zone:traffic" v="FR:urban"/>
  </way>
  <way id="1105156308" version="5" timestamp="2024-02-16T14:58:44Z" changeset="147535874" uid="6290466" user="benjamintchik">
    <nd ref="693476667"/>
    <nd ref="361070"/>
    <tag k="bicycle:backward" v="use_sidepath"/>
    <tag k="highway" v="secondary"/>
    <tag k="lanes" v="2"/>
    <tag k="lit" v="yes"/>
    <tag k="maxspeed" v="30"/>
    <tag k="name" v="Rue du Renard"/>
    <tag k="name:etymology" v="une enseigne"/>
    <tag k="oneway" v="yes"/>
    <tag k="sidewalk" v="both"/>
    <tag k="smoothness" v="good"/>
    <tag k="source" v="cadastre-dgi-fr source : Direction Générale des Impôts - Cadastre;mise à jour : 2010"/>
    <tag k="source:maxspeed" v="FR:urban"/>
    <tag k="surface" v="asphalt"/>
  </way>
  <way id="1105156310" version="14" timestamp="2025-01-10T15:14:25Z" changeset="161209449" uid="7512839" user="Benoît C MdP">
    <nd ref="361074"/>
    <nd ref="5359080905"/>
    <nd ref="11069412243"/>
    <nd ref="26401478"/>
    <nd ref="12488529057"/>
    <nd ref="12488529056"/>
    <nd ref="12488529054"/>
    <nd ref="26401482"/>
    <tag k="bicycle:backward" v="use_sidepath"/>
    <tag k="busway:right" v="lane"/>
    <tag k="cycleway:both" v="separate"/>
    <tag k="highway" v="secondary"/>
    <tag k="lanes" v="2"/>
    <tag k="lit" v="yes"/>
    <tag k="maxspeed" v="30"/>
    <tag k="name" v="Rue Beaubourg"/>
    <tag k="oneway" v="yes"/>
    <tag k="psv:lanes" v="yes|designated"/>
    <tag k="sidewalk" v="separate"/>
    <tag k="smoothness" v="excellent"/>
    <tag k="source" v="cadastre-dgi-fr source : Direction Générale des Impôts - Cadastre;mise à jour : 2010"/>
    <tag k="surface" v="asphalt"/>
  </way>
  <way id="1188170506" version="5" timestamp="2025-03-24T09:06:28Z" changeset="164020655" uid="19679725" user="Planespotter1">
    <nd ref="11033269489"/>
    <nd ref="11033266868"/>
    <nd ref="25554694"/>
    <tag k="busway:right" v="lane"/>
    <tag k="cycleway" v="separate"/>
    <tag k="enforcement:operator" v="Police nationale"/>
    <tag k="highway" v="primary"/>
    <tag k="lanes" v="1"/>
    <tag k="lit" v="yes"/>
    <tag k="maxspeed" v="30"/>
    <tag k="maxweight:signed" v="no"/>
    <tag k="name" v="Pont au Change"/>
    <tag k="oneway" v="yes"/>
    <tag k="operator" v="Ville de Paris"/>
    <tag k="operator:authority" v="Maire de Paris dans le respect des prescriptions prises par le préfet de police"/>
    <tag k="operator:authority:related_law" v="III de l'article L. 2512-14 du code général des collectivités territoriales"/>
    <tag k="parking:lane:both" v="no"/>
    <tag k="shoulder" v="no"/>
    <tag k="sidewalk" v="separate"/>
    <tag k="smoothness" v="intermediate"/>
    <tag k="source" v="cadastre-dgi-fr source : Direction Générale des Impôts - Cadastre. Mise à jour : 2010"/>
    <tag k="source:maxspeed" v="FR:urban"/>
    <tag k="source:operator:authority" v="https://www.legifrance.gouv.fr/loda/id/LEGIARTI000035244298/#LEGIARTI000035244298"/>
    <tag k="surface" v="sett"/>
    <tag k="width" v="5"/>
    <tag k="zone:traffic" v="FR:urban"/>
  </way>
  <way id="1188170507" version="8" timestamp="2024-08-15T17:22:30Z" changeset="155293930" uid="11963177" user="JeroenvanderGun">
    <nd ref="11033269490"/>
    <nd ref="11033308487"/>
    <nd ref="11033269489"/>
    <tag k="bridge" v="yes"/>
    <tag k="busway:right" v="lane"/>
    <tag k="cycleway:left" v="separate"/>
    <tag k="cycleway:right" v="share_busway"/>
    <tag k="enforcement:operator" v="Police nationale"/>
    <tag k="highway" v="primary"/>
    <tag k="lanes" v="1"/>
    <tag k="layer" v="1"/>
    <tag k="lit" v="yes"/>
    <tag k="maxspeed" v="30"/>
    <tag k="maxweight:signed" v="no"/>
    <tag k="name" v="Pont au Change"/>
    <tag k="oneway" v="yes"/>
    <tag k="operator" v="Ville de Paris"/>
    <tag k="operator:authority" v="Maire de Paris dans le respect des prescriptions prises par le préfet de police"/>
    <tag k="operator:authority:related_law" v="III de l'article L. 2512-14 du code général des collectivités territoriales"/>
    <tag k="parking:lane:both" v="no"/>
    <tag k="shoulder" v="no"/>
    <tag k="sidewalk" v="separate"/>
    <tag k="smoothness" v="intermediate"/>
    <tag k="source" v="cadastre-dgi-fr source : Direction Générale des Impôts - Cadastre. Mise à jour : 2010"/>
    <tag k="source:maxspeed" v="FR:urban"/>
    <tag k="source:operator:authority" v="https://www.legifrance.gouv.fr/loda/id/LEGIARTI000035244298/#LEGIARTI000035244298"/>
    <tag k="surface" v="sett"/>
    <tag k="zone:traffic" v="FR:urban"/>
  </way>
  <way id="1223902594" version="3" timestamp="2024-03-13T15:57:08Z" changeset="148600980" uid="3834000" user="cartoleo">
    <nd ref="11071272605"/>
    <nd ref="5763285653"/>
    <tag k="cycleway:left" v="lane"/>
    <tag k="cycleway:left:lane" v="advisory"/>
    <tag k="cycleway:left:oneway" v="-1"/>
    <tag k="cycleway:right" v="no"/>
    <tag k="foot" v="yes"/>
    <tag k="highway" v="residential"/>
    <tag k="lit" v="yes"/>
    <tag k="maxspeed" v="30"/>
    <tag k="motor_vehicle" v="destination"/>
    <tag k="name" v="Rue Saint-Martin"/>
    <tag k="name:etymology:wikidata" v="Q656302"/>
    <tag k="note:fr" v="lanes=1 pendant des travaux"/>
    <tag k="oneway" v="yes"/>
    <tag k="oneway:bicycle" v="no"/>
    <tag k="psv" v="yes"/>
    <tag k="sidewalk:left" v="separate"/>
    <tag k="sidewalk:right" v="yes"/>
    <tag k="sidewalk:right:surface" v="asphalt"/>
    <tag k="smoothness" v="excellent"/>
    <tag k="surface" v="asphalt"/>
  </way>
  <way id="1306002917" version="1" timestamp="2024-08-06T18:02:19Z" changeset="154904152" uid="7550430" user="Britzz">
    <nd ref="368133"/>
    <nd ref="2165221570"/>
    <tag k="cycleway:both" v="no"/>
    <tag k="delivery" v="yes"/>
    <tag k="disabled" v="yes"/>
    <tag k="foot" v="yes"/>
    <tag k="highway" v="residential"/>
    <tag k="lanes" v="1"/>
    <tag k="lit" v="yes"/>
    <tag k="maxspeed" v="30"/>
    <tag k="motor_vehicle" v="destination"/>
    <tag k="name" v="Rue Saint-Martin"/>
    <tag k="name:etymology:wikidata" v="Q656302"/>
    <tag k="note:fr" v="lanes=1 pendant des travaux"/>
    <tag k="oneway" v="yes"/>
    <tag k="psv" v="yes"/>
    <tag k="sidewalk:both" v="separate"/>
    <tag k="smoothness" v="excellent"/>
    <tag k="surface" v="asphalt"/>
  </way>
  <way id="1355349305" version="1" timestamp="2025-01-30T10:50:02Z" changeset="161932292" uid="7512839" user="Benoît C MdP">
    <nd ref="25554702"/>
    <nd ref="5763283950"/>
    <tag k="bicycle" v="yes"/>
    <tag k="bicycle:lanes" v="yes|yes|designated"/>
    <tag k="busway:right" v="lane"/>
    <tag k="cycleway:left" v="no"/>
    <tag k="cycleway:right" v="share_busway"/>
    <tag k="highway" v="secondary"/>
    <tag k="lanes" v="3"/>
    <tag k="lanes:psv" v="1"/>
    <tag k="lit" v="yes"/>
    <tag k="maxspeed" v="30"/>
    <tag k="name" v="Rue de la Coutellerie"/>
    <tag k="name:etymology:wikidata" v="Q1436188"/>
    <tag k="oneway" v="yes"/>
    <tag k="psv:lanes" v="yes|yes|designated"/>
    <tag k="sidewalk:both" v="separate"/>
    <tag k="smoothness" v="excellent"/>
    <tag k="source" v="Bing"/>
    <tag k="source:maxspeed" v="FR:urban"/>
    <tag k="surface" v="asphalt"/>
  </way>
  <relation id="284089" version="42" timestamp="2024-09-21T16:51:45Z" changeset="156920802" uid="27454" user="Popolon">
    <member type="way" ref="55448726" role="outer"/>
    <member type="way" ref="55469425" role="inner"/>
    <member type="way" ref="55469426" role="inner"/>
    <member type="way" ref="55469423" role="inner"/>
    <tag k="addr:postcode" v="75004"/>
    <tag k="addr:street" v="Place de l’Hotel de Ville"/>
    <tag k="alt_name" v="Hôtel de ville de Paris"/>
    <tag k="amenity" v="townhall"/>
    <tag k="building" v="civic"/>
    <tag k="building:levels" v="4"/>
    <tag k="contact:phone" v="+33 1 42 76 40 40"/>
    <tag k="contact:website" v="https://www.paris.fr/"/>
    <tag k="height" v="40"/>
    <tag k="internet_access" v="wlan"/>
    <tag k="internet_access:fee" v="no"/>
    <tag k="internet_access:operator" v="Mairie de Paris"/>
    <tag k="leisure" v="public"/>
    <tag k="name" v="Hôtel de Ville"/>
    <tag k="name:br" v="Ti-kêr"/>
    <tag k="name:de" v="Hôtel de Ville"/>
    <tag k="name:en" v="Hôtel de Ville"/>
    <tag k="name:es" v="Ayuntamiento de París"/>
    <tag k="name:fr" v="Hôtel de ville"/>
    <tag k="name:ja" v="パリ市庁舎"/>
    <tag k="name:ru" v="Отель-де-Виль"/>
    <tag k="name:zh-Hans" v="巴黎市政府"/>
    <tag k="name:zh-Hant" v="巴黎市政廳"/>
    <tag k="opening_hours" v="Mo-Sa 10:00-19:00"/>
    <tag k="ref:FR:SIRET" v="21750001600019"/>
    <tag k="roof:levels" v="2"/>
    <tag k="source" v="cadastre-dgi-fr source : Direction Générale des Impôts - Cadastre;mise à jour : 2010"/>
    <tag k="source:internet_access" v="Paris Open Data"/>
    <tag k="tourism" v="attraction"/>
    <tag k="type" v="multipolygon"/>
    <tag k="wheelchair" v="limited"/>
    <tag k="wikidata" v="Q640968"/>
    <tag k="wikipedia" v="fr:Hôtel de ville de Paris"/>
  </relation>
  <relation id="399435" version="4" timestamp="2023-03-06T13:35:31Z" changeset="133363901" uid="5758494" user="BrieucP">
    <member type="way" ref="49272458" role="inner"/>
    <member type="way" ref="49272457" role="outer"/>
    <tag k="building" v="apartments"/>
    <tag k="building:levels" v="7"/>
    <tag k="name" v="Annexe du siège de l'AP-HP"/>
    <tag k="type" v="multipolygon"/>
  </relation>
  <relation id="556016" version="7" timestamp="2023-07-10T02:27:10Z" changeset="138317083" uid="10731965" user="Hydrel">
    <member type="way" ref="55477087" role="inner"/>
    <member type="way" ref="1188552780" role="inner"/>
    <member type="way" ref="55477086" role="inner"/>
    <member type="way" ref="55477085" role="outer"/>
    <member type="way" ref="1188552777" role="outer"/>
    <tag k="building" v="public"/>
    <tag k="building:levels" v="6"/>
    <tag k="description" v="Siège de l'Assistance Publique - Hôpitaux de Paris"/>
    <tag k="name" v="Administration Générale de l'Assistance Publique"/>
    <tag k="roof:levels" v="1"/>
    <tag k="short_name" v="AP-HP"/>
    <tag k="type" v="multipolygon"/>
  </relation>

</osm>
