<?xml version="1.0" encoding="UTF-8"?>
<osm version="0.6" generator="Overpass API 0.7.62.5 1bd436f1">
<note>The data included in this document is from www.openstreetmap.org. The data is made available under ODbL.</note>
<meta osm_base="2025-04-26T22:32:59Z" areas="2025-02-06T02:17:44Z"/>

  <node id="27227032" lat="51.2367004" lon="1.2094253" version="5" timestamp="2012-05-06T18:58:02Z" changeset="11522102" uid="7037" user="Gregory Williams"/>
  <node id="27227088" lat="51.2404727" lon="1.2012978" version="2" timestamp="2012-02-03T16:56:35Z" changeset="10577129" uid="7037" user="Gregory Williams"/>
  <node id="27227092" lat="51.2413798" lon="1.2020598" version="5" timestamp="2024-07-04T09:41:43Z" changeset="153536496" uid="11471297" user="Palgrave Peter"/>
  <node id="28257654" lat="51.2179118" lon="1.1855954" version="3" timestamp="2024-11-08T12:24:17Z" changeset="158893585" uid="5229644" user="Nathan_A_RF"/>
  <node id="31398830" lat="51.2331650" lon="1.2220802" version="2" timestamp="2008-02-24T19:05:03Z" changeset="192519" uid="7037" user="Gregory Williams">
    <tag k="created_by" v="JOSM"/>
  </node>
  <node id="31399195" lat="51.2178839" lon="1.1857345" version="3" timestamp="2024-11-08T12:24:17Z" changeset="158893585" uid="5229644" user="Nathan_A_RF"/>
  <node id="35721977" lat="51.2430544" lon="1.2182148" version="5" timestamp="2021-09-23T09:54:54Z" changeset="111583179" uid="6094765" user="KentCyclist"/>
  <node id="554251391" lat="51.2252710" lon="1.1904057" version="1" timestamp="2009-11-04T13:01:15Z" changeset="3032625" uid="7037" user="Gregory Williams"/>
  <node id="671057418" lat="51.2396419" lon="1.2007013" version="11" timestamp="2024-07-16T10:34:40Z" changeset="154008566" uid="11471297" user="Palgrave Peter"/>
  <node id="671057427" lat="51.2464701" lon="1.2063920" version="3" timestamp="2012-02-03T09:17:21Z" changeset="10574391" uid="7037" user="Gregory Williams"/>
  <node id="1438310740" lat="51.2223212" lon="1.2193496" version="3" timestamp="2021-04-28T21:27:05Z" changeset="103802188" uid="7511" user="retselkim"/>
  <node id="1616833245" lat="51.2382027" lon="1.2281107" version="1" timestamp="2012-02-03T16:55:31Z" changeset="10577129" uid="7037" user="Gregory Williams"/>
  <node id="1736523713" lat="51.2152794" lon="1.2130059" version="1" timestamp="2012-04-30T17:52:12Z" changeset="11462661" uid="7037" user="Gregory Williams"/>
  <node id="1900712127" lat="51.2180165" lon="1.2208431" version="2" timestamp="2025-04-20T12:39:18Z" changeset="165192025" uid="7037" user="Gregory Williams"/>
  <node id="1927656979" lat="51.2266248" lon="1.2244549" version="1" timestamp="2012-09-22T17:37:42Z" changeset="13210317" uid="7037" user="Gregory Williams"/>
  <node id="12770300624" lat="51.2131604" lon="1.2084164" version="1" timestamp="2025-04-20T12:46:59Z" changeset="165192336" uid="7037" user="Gregory Williams"/>
  <way id="4435480" version="14" timestamp="2024-07-16T10:34:40Z" changeset="154008566" uid="11471297" user="Palgrave Peter">
    <nd ref="27227088"/>
    <nd ref="448458590"/>
    <nd ref="671785027"/>
    <tag k="highway" v="secondary"/>
    <tag k="lit" v="no"/>
    <tag k="maxspeed" v="60 mph"/>
    <tag k="maxspeed:type" v="GB:nsl_single"/>
    <tag k="ref" v="B2046"/>
  </way>
  <way id="4435851" version="10" timestamp="2021-08-27T11:52:01Z" changeset="110338149" uid="242345" user="confusedbuffalo">
    <nd ref="27226899"/>
    <nd ref="27226904"/>
    <nd ref="6538869533"/>
    <nd ref="27226907"/>
    <nd ref="27226912"/>
    <nd ref="27226917"/>
    <nd ref="27226922"/>
    <nd ref="27226927"/>
    <nd ref="27226932"/>
    <tag k="highway" v="tertiary"/>
    <tag k="lit" v="yes"/>
    <tag k="maxspeed" v="60 mph"/>
    <tag k="maxspeed:type" v="GB:nsl_single"/>
    <tag k="name" v="Ratling Road"/>
    <tag k="source" v="survey"/>
    <tag k="surface" v="asphalt"/>
  </way>
  <way id="4435852" version="10" timestamp="2021-08-27T11:52:01Z" changeset="110338149" uid="242345" user="confusedbuffalo">
    <nd ref="27227088"/>
    <nd ref="27227092"/>
    <tag k="highway" v="secondary"/>
    <tag k="lit" v="no"/>
    <tag k="maxspeed" v="60 mph"/>
    <tag k="maxspeed:type" v="GB:nsl_single"/>
    <tag k="name" v="Adisham Road"/>
    <tag k="ref" v="B2046"/>
    <tag k="surface" v="asphalt"/>
  </way>
  <way id="4541317" version="14" timestamp="2024-11-08T12:24:17Z" changeset="158893585" uid="5229644" user="Nathan_A_RF">
    <nd ref="28257654"/>
    <nd ref="31399195"/>
    <nd ref="12323567019"/>
    <nd ref="28257659"/>
    <nd ref="28257664"/>
    <nd ref="671057390"/>
    <nd ref="31399194"/>
    <nd ref="671057388"/>
    <nd ref="28257669"/>
    <nd ref="28257672"/>
    <nd ref="671057386"/>
    <nd ref="671057385"/>
    <nd ref="28257678"/>
    <nd ref="554251388"/>
    <tag k="highway" v="tertiary"/>
    <tag k="lanes" v="2"/>
    <tag k="maxspeed" v="60 mph"/>
    <tag k="maxspeed:type" v="GB:nsl_single"/>
    <tag k="maxwidth" v="2"/>
    <tag k="name" v="Spinney Lane"/>
    <tag k="surface" v="asphalt"/>
  </way>
  <way id="4541319" version="12" timestamp="2023-09-22T15:21:39Z" changeset="141610066" uid="20252098" user="DoubleCart">
    <nd ref="31398960"/>
    <nd ref="31398962"/>
    <nd ref="28257700"/>
    <nd ref="28257702"/>
    <nd ref="11210414587"/>
    <nd ref="1736539445"/>
    <nd ref="28257706"/>
    <nd ref="1736539442"/>
    <nd ref="1736539438"/>
    <nd ref="1736539433"/>
    <nd ref="28257710"/>
    <nd ref="1736539427"/>
    <nd ref="28257713"/>
    <nd ref="703197793"/>
    <nd ref="331095464"/>
    <tag k="highway" v="tertiary"/>
    <tag k="maxspeed" v="60 mph"/>
    <tag k="maxspeed:type" v="GB:nsl_single"/>
    <tag k="name" v="Aylesham Road"/>
    <tag k="surface" v="asphalt"/>
  </way>
  <way id="4865122" version="10" timestamp="2024-07-16T10:34:40Z" changeset="154008566" uid="11471297" user="Palgrave Peter">
    <nd ref="1616833245"/>
    <nd ref="1603685485"/>
    <nd ref="31398811"/>
    <nd ref="31398812"/>
    <nd ref="31398813"/>
    <nd ref="31398814"/>
    <nd ref="31398815"/>
    <nd ref="31398821"/>
    <nd ref="31398828"/>
    <nd ref="31398829"/>
    <nd ref="31398830"/>
    <nd ref="31398831"/>
    <nd ref="31398832"/>
    <nd ref="31398833"/>
    <nd ref="31398834"/>
    <nd ref="31398835"/>
    <nd ref="1927657025"/>
    <nd ref="31398836"/>
    <nd ref="1927657024"/>
    <nd ref="1927657023"/>
    <nd ref="1927657021"/>
    <nd ref="554251416"/>
    <nd ref="31398837"/>
    <nd ref="31398838"/>
    <nd ref="12056991537"/>
    <nd ref="31398839"/>
    <nd ref="31398840"/>
    <nd ref="31398841"/>
    <nd ref="31398842"/>
    <nd ref="31398843"/>
    <nd ref="27226899"/>
    <tag k="highway" v="unclassified"/>
    <tag k="maxspeed" v="60 mph"/>
    <tag k="maxspeed:type" v="GB:nsl_single"/>
    <tag k="source" v="survey"/>
  </way>
  <way id="4865164" version="7" timestamp="2021-08-27T11:52:01Z" changeset="110338149" uid="242345" user="confusedbuffalo">
    <nd ref="27226899"/>
    <nd ref="31398943"/>
    <nd ref="31398944"/>
    <nd ref="2194049165"/>
    <tag k="highway" v="tertiary"/>
    <tag k="highway_authority_ref" v="C225"/>
    <tag k="maxspeed" v="60 mph"/>
    <tag k="maxspeed:type" v="GB:nsl_single"/>
    <tag k="name" v="Ackholt Road"/>
  </way>
  <way id="4865187" version="11" timestamp="2024-11-08T12:24:17Z" changeset="158893585" uid="5229644" user="Nathan_A_RF">
    <nd ref="31399195"/>
    <nd ref="12323567018"/>
    <nd ref="31399282"/>
    <nd ref="31399283"/>
    <nd ref="31399284"/>
    <nd ref="31399285"/>
    <nd ref="31399286"/>
    <nd ref="31399287"/>
    <nd ref="31399288"/>
    <nd ref="31399290"/>
    <nd ref="31399291"/>
    <nd ref="31399292"/>
    <nd ref="31399293"/>
    <tag k="highway" v="unclassified"/>
    <tag k="maxspeed" v="60 mph"/>
    <tag k="maxspeed:type" v="GB:nsl_single"/>
    <tag k="maxwidth" v="2"/>
    <tag k="motor_vehicle" v="discouraged"/>
    <tag k="name" v="Pond Lane"/>
    <tag k="surface" v="asphalt"/>
  </way>
  <way id="23082632" version="8" timestamp="2021-08-27T11:52:01Z" changeset="110338149" uid="242345" user="confusedbuffalo">
    <nd ref="27227032"/>
    <nd ref="249147246"/>
    <nd ref="249147249"/>
    <nd ref="249147251"/>
    <nd ref="249147254"/>
    <nd ref="249147257"/>
    <nd ref="249147259"/>
    <nd ref="8610585474"/>
    <nd ref="249147262"/>
    <nd ref="8610585483"/>
    <nd ref="249147266"/>
    <nd ref="249147268"/>
    <nd ref="249147271"/>
    <nd ref="249147274"/>
    <nd ref="249147277"/>
    <nd ref="249147279"/>
    <nd ref="249147282"/>
    <nd ref="249147286"/>
    <nd ref="249147289"/>
    <nd ref="249147291"/>
    <nd ref="249147294"/>
    <nd ref="249147297"/>
    <nd ref="249147299"/>
    <nd ref="249147301"/>
    <nd ref="249147303"/>
    <nd ref="1616498508"/>
    <nd ref="35721977"/>
    <tag k="highway" v="unclassified"/>
    <tag k="lcn" v="proposed"/>
    <tag k="lit" v="no"/>
    <tag k="maxspeed" v="60 mph"/>
    <tag k="maxspeed:type" v="GB:nsl_single"/>
    <tag k="source" v="survey"/>
  </way>
  <way id="23082721" version="3" timestamp="2021-08-27T11:52:01Z" changeset="110338149" uid="242345" user="confusedbuffalo">
    <nd ref="31398830"/>
    <nd ref="249148159"/>
    <nd ref="249148160"/>
    <nd ref="249148161"/>
    <nd ref="249148162"/>
    <nd ref="249148163"/>
    <nd ref="249148164"/>
    <nd ref="249148165"/>
    <nd ref="249148167"/>
    <nd ref="249148168"/>
    <nd ref="249148169"/>
    <tag k="highway" v="unclassified"/>
    <tag k="maxspeed" v="60 mph"/>
    <tag k="maxspeed:type" v="GB:nsl_single"/>
    <tag k="name" v="Pinners Hill"/>
    <tag k="source" v="survey"/>
    <tag k="surface" v="asphalt"/>
  </way>
  <way id="30059467" version="16" timestamp="2024-07-19T11:13:14Z" changeset="154138644" uid="11471297" user="Palgrave Peter">
    <nd ref="1438310740"/>
    <nd ref="1927656972"/>
    <nd ref="27226391"/>
    <nd ref="1927656974"/>
    <nd ref="12062999207"/>
    <nd ref="27226394"/>
    <nd ref="1927656976"/>
    <nd ref="27226397"/>
    <nd ref="27226400"/>
    <nd ref="8677679146"/>
    <nd ref="27226403"/>
    <nd ref="27226405"/>
    <nd ref="27226408"/>
    <nd ref="8677679145"/>
    <nd ref="27226411"/>
    <nd ref="27226414"/>
    <nd ref="1927656978"/>
    <nd ref="27226417"/>
    <nd ref="27226420"/>
    <nd ref="27226422"/>
    <nd ref="27226424"/>
    <nd ref="27226426"/>
    <nd ref="8677679144"/>
    <nd ref="27226883"/>
    <nd ref="1927656991"/>
    <nd ref="27226889"/>
    <nd ref="1927656998"/>
    <nd ref="27226894"/>
    <nd ref="8677679143"/>
    <nd ref="27226899"/>
    <tag k="highway" v="tertiary"/>
    <tag k="highway_authority_ref" v="C226"/>
    <tag k="lit" v="no"/>
    <tag k="maxspeed" v="60 mph"/>
    <tag k="maxspeed:type" v="GB:nsl_single"/>
    <tag k="name" v="Chapmans Hill"/>
    <tag k="surface" v="asphalt"/>
  </way>
  <way id="30059983" version="5" timestamp="2012-08-30T15:05:22Z" changeset="12919146" uid="7037" user="Gregory Williams">
    <nd ref="27226937"/>
    <nd ref="1640746814"/>
    <nd ref="1640746830"/>
    <nd ref="331098980"/>
    <tag k="bridge" v="yes"/>
    <tag k="highway" v="tertiary"/>
    <tag k="layer" v="1"/>
    <tag k="lit" v="yes"/>
    <tag k="maxspeed" v="30 mph"/>
    <tag k="name" v="Ratling Road"/>
    <tag k="source" v="survey"/>
    <tag k="surface" v="asphalt"/>
  </way>
  <way id="30059984" version="11" timestamp="2020-10-23T21:33:25Z" changeset="92972412" uid="4450375" user="expobrain">
    <nd ref="331098980"/>
    <nd ref="331098979"/>
    <nd ref="8040927471"/>
    <nd ref="1640746821"/>
    <nd ref="1640746813"/>
    <nd ref="769830549"/>
    <tag k="highway" v="tertiary"/>
    <tag k="lit" v="yes"/>
    <tag k="maxspeed" v="30 mph"/>
    <tag k="name" v="Ratling Road"/>
    <tag k="source" v="survey"/>
    <tag k="surface" v="asphalt"/>
  </way>
  <way id="30059985" version="4" timestamp="2012-08-30T15:05:21Z" changeset="12919146" uid="7037" user="Gregory Williams">
    <nd ref="27226932"/>
    <nd ref="27226937"/>
    <tag k="highway" v="tertiary"/>
    <tag k="lit" v="yes"/>
    <tag k="maxspeed" v="30 mph"/>
    <tag k="name" v="Ratling Road"/>
    <tag k="source" v="survey"/>
    <tag k="surface" v="asphalt"/>
  </way>
  <way id="30059986" version="10" timestamp="2021-08-27T11:52:01Z" changeset="110338149" uid="242345" user="confusedbuffalo">
    <nd ref="331098982"/>
    <nd ref="27226984"/>
    <nd ref="1743401345"/>
    <nd ref="3269208697"/>
    <nd ref="1743401347"/>
    <nd ref="27226987"/>
    <nd ref="705138902"/>
    <nd ref="27226991"/>
    <tag k="highway" v="tertiary"/>
    <tag k="lit" v="no"/>
    <tag k="maxspeed" v="60 mph"/>
    <tag k="maxspeed:type" v="GB:nsl_single"/>
    <tag k="name" v="Ratling Road"/>
    <tag k="source" v="survey"/>
    <tag k="surface" v="asphalt"/>
  </way>
  <way id="30059987" version="8" timestamp="2021-08-27T11:52:01Z" changeset="110338149" uid="242345" user="confusedbuffalo">
    <nd ref="27226991"/>
    <nd ref="331098983"/>
    <tag k="bridge" v="yes"/>
    <tag k="highway" v="tertiary"/>
    <tag k="layer" v="1"/>
    <tag k="lit" v="no"/>
    <tag k="maxspeed" v="60 mph"/>
    <tag k="maxspeed:type" v="GB:nsl_single"/>
    <tag k="name" v="Ratling Road"/>
    <tag k="source" v="survey"/>
    <tag k="surface" v="asphalt"/>
  </way>
  <way id="30059988" version="11" timestamp="2024-07-16T10:34:40Z" changeset="154008566" uid="11471297" user="Palgrave Peter">
    <nd ref="331098983"/>
    <nd ref="8205596666"/>
    <nd ref="27226995"/>
    <nd ref="8205596687"/>
    <nd ref="27226997"/>
    <nd ref="27227001"/>
    <nd ref="8730508828"/>
    <nd ref="331098984"/>
    <nd ref="12056991451"/>
    <nd ref="27227005"/>
    <nd ref="27227009"/>
    <nd ref="27227013"/>
    <nd ref="1743401357"/>
    <nd ref="27227016"/>
    <nd ref="1743401358"/>
    <nd ref="27227020"/>
    <nd ref="27227024"/>
    <nd ref="27227028"/>
    <nd ref="331098993"/>
    <nd ref="27227032"/>
    <tag k="highway" v="tertiary"/>
    <tag k="lit" v="no"/>
    <tag k="maxspeed" v="60 mph"/>
    <tag k="maxspeed:type" v="GB:nsl_single"/>
    <tag k="name" v="Ratling Road"/>
    <tag k="source" v="survey"/>
    <tag k="surface" v="asphalt"/>
  </way>
  <way id="32824202" version="5" timestamp="2021-09-01T20:44:27Z" changeset="110584771" uid="13416516" user="Mikey Co">
    <nd ref="369832701"/>
    <nd ref="369832704"/>
    <nd ref="369832706"/>
    <nd ref="1081828589"/>
    <nd ref="1081828624"/>
    <nd ref="1081828512"/>
    <tag k="highway" v="residential"/>
    <tag k="lit" v="yes"/>
    <tag k="maxspeed" v="30 mph"/>
    <tag k="name" v="Kings Road"/>
    <tag k="source" v="survey"/>
  </way>
  <way id="32824203" version="6" timestamp="2020-10-23T22:43:03Z" changeset="92974023" uid="4450375" user="expobrain">
    <nd ref="369832732"/>
    <nd ref="6975858667"/>
    <nd ref="8041087419"/>
    <nd ref="7941013539"/>
    <nd ref="369832735"/>
    <tag k="highway" v="residential"/>
    <tag k="lit" v="yes"/>
    <tag k="maxspeed" v="30 mph"/>
    <tag k="name" v="Market Place"/>
    <tag k="oneway" v="yes"/>
    <tag k="source" v="survey"/>
  </way>
  <way id="32824204" version="7" timestamp="2023-09-15T00:51:26Z" changeset="141280548" uid="20252098" user="DoubleCart">
    <nd ref="369832735"/>
    <nd ref="369832738"/>
    <nd ref="369832740"/>
    <nd ref="369832743"/>
    <nd ref="369832745"/>
    <nd ref="8204744340"/>
    <nd ref="11191880962"/>
    <nd ref="11191880971"/>
    <nd ref="11191880966"/>
    <nd ref="11191884180"/>
    <nd ref="369832747"/>
    <nd ref="11191884185"/>
    <nd ref="369832750"/>
    <nd ref="11191884184"/>
    <nd ref="2607215729"/>
    <nd ref="31398955"/>
    <tag k="highway" v="residential"/>
    <tag k="lane_markings" v="no"/>
    <tag k="lit" v="yes"/>
    <tag k="maxspeed" v="30 mph"/>
    <tag k="name" v="Queens Road"/>
    <tag k="oneway" v="no"/>
    <tag k="source" v="survey"/>
    <tag k="surface" v="asphalt"/>
  </way>
  <way id="32824205" version="6" timestamp="2024-02-08T17:15:16Z" changeset="147226490" uid="20252098" user="DoubleCart">
    <nd ref="369832735"/>
    <nd ref="369832752"/>
    <nd ref="369832755"/>
    <nd ref="369832757"/>
    <nd ref="369832761"/>
    <nd ref="369832766"/>
    <nd ref="369832770"/>
    <nd ref="1736532965"/>
    <nd ref="369832773"/>
    <nd ref="369832778"/>
    <nd ref="11598914933"/>
    <nd ref="369832781"/>
    <nd ref="369832732"/>
    <tag k="highway" v="residential"/>
    <tag k="lane_markings" v="no"/>
    <tag k="lit" v="yes"/>
    <tag k="maxspeed" v="30 mph"/>
    <tag k="name" v="Market Place"/>
    <tag k="oneway" v="yes"/>
    <tag k="source" v="survey"/>
    <tag k="surface" v="asphalt"/>
  </way>
  <way id="32824206" version="8" timestamp="2022-12-17T19:33:29Z" changeset="130194845" uid="86644" user="theneilkirk">
    <nd ref="369832752"/>
    <nd ref="7941013541"/>
    <nd ref="769830653"/>
    <tag k="highway" v="residential"/>
    <tag k="lit" v="yes"/>
    <tag k="maxspeed" v="30 mph"/>
    <tag k="name" v="Market View"/>
    <tag k="source" v="survey"/>
    <tag k="surface" v="asphalt"/>
  </way>
  <way id="32824209" version="7" timestamp="2023-10-13T15:46:11Z" changeset="142530223" uid="20252098" user="DoubleCart">
    <nd ref="369832766"/>
    <nd ref="11260312280"/>
    <nd ref="1736532946"/>
    <nd ref="1736532940"/>
    <nd ref="369832792"/>
    <nd ref="9053118505"/>
    <nd ref="1081828638"/>
    <nd ref="9053118493"/>
    <nd ref="1081828538"/>
    <nd ref="9053118490"/>
    <nd ref="559997927"/>
    <nd ref="1081828577"/>
    <nd ref="369832795"/>
    <nd ref="369832797"/>
    <tag k="highway" v="residential"/>
    <tag k="lit" v="yes"/>
    <tag k="maxspeed" v="30 mph"/>
    <tag k="name" v="Boulevard Courrieres"/>
    <tag k="source" v="survey"/>
  </way>
  <way id="32824210" version="8" timestamp="2024-07-17T10:16:06Z" changeset="154051168" uid="11471297" user="Palgrave Peter">
    <nd ref="369832797"/>
    <nd ref="369832800"/>
    <nd ref="559997920"/>
    <nd ref="769830560"/>
    <nd ref="369832802"/>
    <nd ref="12058957173"/>
    <nd ref="6564212174"/>
    <nd ref="769830699"/>
    <nd ref="12058957171"/>
    <nd ref="769830587"/>
    <nd ref="369832805"/>
    <nd ref="12058957168"/>
    <nd ref="369832807"/>
    <tag k="highway" v="residential"/>
    <tag k="lit" v="yes"/>
    <tag k="maxspeed" v="30 mph"/>
    <tag k="name" v="Hill Crescent"/>
    <tag k="source" v="survey"/>
  </way>
  <way id="32824211" version="4" timestamp="2023-09-15T00:46:00Z" changeset="141280502" uid="20252098" user="DoubleCart">
    <nd ref="31398958"/>
    <nd ref="369832812"/>
    <nd ref="11191884183"/>
    <nd ref="11191880972"/>
    <nd ref="369832814"/>
    <nd ref="369832816"/>
    <nd ref="369832819"/>
    <nd ref="369832821"/>
    <nd ref="11191880965"/>
    <nd ref="369832824"/>
    <tag k="highway" v="residential"/>
    <tag k="lit" v="yes"/>
    <tag k="maxspeed" v="30 mph"/>
    <tag k="name" v="Hyde Place"/>
    <tag k="source" v="survey"/>
  </way>
  <way id="32824212" version="4" timestamp="2013-04-01T05:54:26Z" changeset="15562715" uid="7037" user="Gregory Williams">
    <nd ref="369832824"/>
    <nd ref="369832826"/>
    <nd ref="369832828"/>
    <nd ref="369832834"/>
    <nd ref="369832837"/>
    <nd ref="369832839"/>
    <nd ref="369832842"/>
    <nd ref="369832844"/>
    <nd ref="1081828524"/>
    <nd ref="369832792"/>
    <tag k="highway" v="residential"/>
    <tag k="lit" v="yes"/>
    <tag k="maxspeed" v="30 mph"/>
    <tag k="name" v="Milner Crescent"/>
    <tag k="oneway" v="yes"/>
    <tag k="source" v="survey"/>
  </way>
  <way id="32824213" version="5" timestamp="2021-06-15T09:16:40Z" changeset="106387545" uid="10455633" user="tnayini">
    <nd ref="369832802"/>
    <nd ref="8835174794"/>
    <nd ref="369832848"/>
    <nd ref="8301149874"/>
    <nd ref="369832850"/>
    <nd ref="369832854"/>
    <tag k="highway" v="residential"/>
    <tag k="lit" v="yes"/>
    <tag k="maxspeed" v="30 mph"/>
    <tag k="name" v="Oakside Road"/>
    <tag k="source" v="survey"/>
  </way>
  <way id="32824214" version="7" timestamp="2021-06-15T09:16:40Z" changeset="106387545" uid="10455633" user="tnayini">
    <nd ref="559997927"/>
    <nd ref="1081828561"/>
    <nd ref="559997925"/>
    <nd ref="559997924"/>
    <nd ref="369832854"/>
    <nd ref="369832857"/>
    <nd ref="369832859"/>
    <nd ref="7371382906"/>
    <nd ref="8835174782"/>
    <nd ref="369832862"/>
    <nd ref="369832864"/>
    <nd ref="369832867"/>
    <tag k="highway" v="residential"/>
    <tag k="lit" v="yes"/>
    <tag k="maxspeed" v="30 mph"/>
    <tag k="name" v="Vale View Road"/>
    <tag k="source" v="survey / extrapolation"/>
  </way>
  <way id="32824215" version="6" timestamp="2021-06-15T09:16:40Z" changeset="106387545" uid="10455633" user="tnayini">
    <nd ref="369832867"/>
    <nd ref="369832869"/>
    <nd ref="369832872"/>
    <nd ref="369832874"/>
    <nd ref="369832877"/>
    <nd ref="369832879"/>
    <nd ref="8301149871"/>
    <nd ref="369832883"/>
    <nd ref="8595322543"/>
    <nd ref="369832886"/>
    <nd ref="8301149873"/>
    <nd ref="369832888"/>
    <nd ref="8301149872"/>
    <nd ref="8835174786"/>
    <nd ref="369832893"/>
    <nd ref="369832898"/>
    <nd ref="369832900"/>
    <nd ref="369832859"/>
    <tag k="highway" v="residential"/>
    <tag k="lit" v="yes"/>
    <tag k="maxspeed" v="30 mph"/>
    <tag k="name" v="Newman Road"/>
    <tag k="source" v="survey"/>
  </way>
  <way id="32824216" version="4" timestamp="2021-01-07T21:17:44Z" changeset="97130843" uid="7511" user="retselkim">
    <nd ref="369832903"/>
    <nd ref="369832907"/>
    <nd ref="369832912"/>
    <nd ref="369832916"/>
    <nd ref="369832920"/>
    <nd ref="369832924"/>
    <nd ref="369832928"/>
    <nd ref="8301149875"/>
    <nd ref="369832857"/>
    <tag k="highway" v="residential"/>
    <tag k="lit" v="yes"/>
    <tag k="maxspeed" v="30 mph"/>
    <tag k="name" v="Woodland Avenue"/>
    <tag k="source" v="survey"/>
  </way>
  <way id="32824217" version="7" timestamp="2019-09-30T14:32:17Z" changeset="75105624" uid="705850" user="Cebderby">
    <nd ref="369832790"/>
    <nd ref="369832956"/>
    <nd ref="1621447931"/>
    <nd ref="369832948"/>
    <nd ref="369832944"/>
    <nd ref="369832940"/>
    <nd ref="369832937"/>
    <nd ref="369832932"/>
    <nd ref="369832903"/>
    <tag k="highway" v="residential"/>
    <tag k="lit" v="yes"/>
    <tag k="maxspeed" v="30 mph"/>
    <tag k="name" v="Attlee Avenue"/>
    <tag k="source" v="survey"/>
  </way>
  <way id="38117008" version="14" timestamp="2021-08-27T11:52:01Z" changeset="110338149" uid="242345" user="confusedbuffalo">
    <nd ref="671785027"/>
    <nd ref="671057418"/>
    <tag k="bridge" v="yes"/>
    <tag k="highway" v="secondary"/>
    <tag k="layer" v="1"/>
    <tag k="lit" v="no"/>
    <tag k="maxspeed" v="60 mph"/>
    <tag k="maxspeed:type" v="GB:nsl_single"/>
    <tag k="ref" v="B2046"/>
  </way>
  <way id="38117009" version="25" timestamp="2024-11-08T12:24:17Z" changeset="158893585" uid="5229644" user="Nathan_A_RF">
    <nd ref="671057418"/>
    <nd ref="705138907"/>
    <nd ref="671057416"/>
    <nd ref="33452399"/>
    <nd ref="1735567842"/>
    <nd ref="671057415"/>
    <nd ref="671057414"/>
    <nd ref="671057413"/>
    <nd ref="33452396"/>
    <nd ref="33452395"/>
    <nd ref="671057412"/>
    <nd ref="33452394"/>
    <nd ref="3269208702"/>
    <nd ref="1706030923"/>
    <nd ref="671057409"/>
    <nd ref="33452393"/>
    <nd ref="671057408"/>
    <nd ref="3269208691"/>
    <nd ref="33452392"/>
    <nd ref="671057407"/>
    <nd ref="448458607"/>
    <nd ref="671788300"/>
    <nd ref="671057405"/>
    <nd ref="671788525"/>
    <nd ref="671057403"/>
    <nd ref="33452389"/>
    <nd ref="671788628"/>
    <nd ref="671057402"/>
    <nd ref="33452388"/>
    <nd ref="11194481489"/>
    <nd ref="671057401"/>
    <nd ref="33452387"/>
    <nd ref="33452386"/>
    <nd ref="671057399"/>
    <nd ref="554251391"/>
    <nd ref="33452385"/>
    <nd ref="11194059272"/>
    <nd ref="33452384"/>
    <nd ref="671057398"/>
    <nd ref="671057397"/>
    <nd ref="33452383"/>
    <nd ref="33452382"/>
    <nd ref="671057396"/>
    <nd ref="33452381"/>
    <nd ref="671057395"/>
    <nd ref="33452380"/>
    <nd ref="28257654"/>
    <tag k="highway" v="secondary"/>
    <tag k="lit" v="no"/>
    <tag k="maxspeed" v="60 mph"/>
    <tag k="maxspeed:type" v="GB:nsl_single"/>
    <tag k="ref" v="B2046"/>
  </way>
  <way id="43765759" version="10" timestamp="2023-09-16T13:44:28Z" changeset="141343542" uid="20252098" user="DoubleCart">
    <nd ref="554251391"/>
    <nd ref="554251392"/>
    <nd ref="769830710"/>
    <nd ref="769830669"/>
    <nd ref="554251389"/>
    <nd ref="11193728007"/>
    <nd ref="6321295950"/>
    <nd ref="554251390"/>
    <nd ref="6321295952"/>
    <nd ref="769830532"/>
    <nd ref="6321295971"/>
    <nd ref="6321295975"/>
    <nd ref="11194059261"/>
    <nd ref="554251388"/>
    <tag k="highway" v="tertiary"/>
    <tag k="lane_markings" v="no"/>
    <tag k="maxspeed" v="60 mph"/>
    <tag k="maxspeed:type" v="GB:nsl_single"/>
    <tag k="name" v="Cooting Road"/>
    <tag k="source" v="survey"/>
    <tag k="surface" v="asphalt"/>
  </way>
  <way id="44051349" version="4" timestamp="2012-10-06T17:48:29Z" changeset="13388373" uid="7037" user="Gregory Williams">
    <nd ref="559997920"/>
    <nd ref="559997926"/>
    <nd ref="1081828525"/>
    <nd ref="559997925"/>
    <tag k="highway" v="residential"/>
    <tag k="lit" v="yes"/>
    <tag k="maxspeed" v="30 mph"/>
    <tag k="name" v="Bevan Way"/>
    <tag k="source" v="survey"/>
  </way>
  <way id="44051350" version="3" timestamp="2012-10-06T17:48:29Z" changeset="13388373" uid="7037" user="Gregory Williams">
    <nd ref="559997924"/>
    <nd ref="559997923"/>
    <nd ref="559997922"/>
    <nd ref="559997932"/>
    <nd ref="559997931"/>
    <nd ref="559997930"/>
    <nd ref="559997929"/>
    <nd ref="369832903"/>
    <tag k="highway" v="residential"/>
    <tag k="lit" v="yes"/>
    <tag k="maxspeed" v="30 mph"/>
    <tag k="name" v="Attlee Avenue"/>
    <tag k="source" v="survey"/>
  </way>
  <way id="44051352" version="4" timestamp="2023-09-15T00:46:00Z" changeset="141280502" uid="20252098" user="DoubleCart">
    <nd ref="559997935"/>
    <nd ref="559997949"/>
    <nd ref="559997950"/>
    <nd ref="559997953"/>
    <nd ref="559997954"/>
    <nd ref="11191880975"/>
    <nd ref="559997955"/>
    <nd ref="559997956"/>
    <nd ref="559997961"/>
    <nd ref="559997962"/>
    <tag k="highway" v="residential"/>
    <tag k="lit" v="yes"/>
    <tag k="maxspeed" v="30 mph"/>
    <tag k="name" v="Clarendon Road"/>
    <tag k="source" v="survey"/>
  </way>
  <way id="44051353" version="4" timestamp="2023-09-15T00:46:00Z" changeset="141280502" uid="20252098" user="DoubleCart">
    <nd ref="559997963"/>
    <nd ref="559997962"/>
    <nd ref="559997964"/>
    <nd ref="559997958"/>
    <nd ref="559997959"/>
    <nd ref="11191884188"/>
    <nd ref="559997960"/>
    <nd ref="559997936"/>
    <nd ref="559997937"/>
    <nd ref="559997939"/>
    <nd ref="559997940"/>
    <nd ref="559997941"/>
    <tag k="highway" v="residential"/>
    <tag k="lit" v="yes"/>
    <tag k="maxspeed" v="30 mph"/>
    <tag k="name" v="Spinney Lane"/>
    <tag k="source" v="survey"/>
  </way>
  <way id="44051354" version="3" timestamp="2013-04-01T05:54:27Z" changeset="15562715" uid="7037" user="Gregory Williams">
    <nd ref="559997965"/>
    <nd ref="559997962"/>
    <tag k="highway" v="residential"/>
    <tag k="lit" v="yes"/>
    <tag k="maxspeed" v="30 mph"/>
    <tag k="name" v="Spinney Lane"/>
    <tag k="source" v="survey"/>
  </way>
  <way id="49978523" version="9" timestamp="2024-07-16T10:34:40Z" changeset="154008566" uid="11471297" user="Palgrave Peter">
    <nd ref="35721977"/>
    <nd ref="1616833247"/>
    <nd ref="35721981"/>
    <nd ref="1063860217"/>
    <nd ref="35721982"/>
    <nd ref="1753954649"/>
    <nd ref="8599375617"/>
    <nd ref="35721983"/>
    <nd ref="8599375618"/>
    <nd ref="1616833245"/>
    <tag k="highway" v="unclassified"/>
    <tag k="lcn" v="proposed"/>
    <tag k="maxspeed" v="60 mph"/>
    <tag k="maxspeed:type" v="GB:nsl_single"/>
    <tag k="source" v="survey"/>
  </way>
  <way id="51191258" version="4" timestamp="2018-08-03T00:54:32Z" changeset="61313145" uid="115894" user="DaveF">
    <nd ref="31398947"/>
    <nd ref="653129510"/>
    <tag k="bridge" v="yes"/>
    <tag k="highway" v="tertiary"/>
    <tag k="highway_authority_ref" v="C225"/>
    <tag k="layer" v="1"/>
    <tag k="maxspeed" v="30 mph"/>
    <tag k="name" v="Ackholt Road"/>
  </way>
  <way id="51191259" version="8" timestamp="2021-09-01T20:44:27Z" changeset="110584771" uid="13416516" user="Mikey Co">
    <nd ref="653129510"/>
    <nd ref="31398948"/>
    <nd ref="31398949"/>
    <nd ref="2607215743"/>
    <nd ref="31398950"/>
    <nd ref="31398951"/>
    <nd ref="31398952"/>
    <nd ref="31398953"/>
    <nd ref="2607215732"/>
    <nd ref="31398954"/>
    <nd ref="31398955"/>
    <tag k="highway" v="tertiary"/>
    <tag k="highway_authority_ref" v="C225"/>
    <tag k="lit" v="yes"/>
    <tag k="maxspeed" v="30 mph"/>
    <tag k="name" v="Ackholt Road"/>
  </way>
  <way id="56021659" version="6" timestamp="2025-04-20T12:46:59Z" changeset="165192336" uid="7037" user="Gregory Williams">
    <nd ref="35975104"/>
    <nd ref="703197772"/>
    <tag k="bridge" v="yes"/>
    <tag k="highway" v="tertiary"/>
    <tag k="highway_authority_ref" v="C195"/>
    <tag k="layer" v="1"/>
    <tag k="maxspeed" v="40 mph"/>
    <tag k="name" v="Sandwich Road"/>
    <tag k="surface" v="asphalt"/>
  </way>
  <way id="56021660" version="8" timestamp="2025-04-20T12:46:59Z" changeset="165192336" uid="7037" user="Gregory Williams">
    <nd ref="703197772"/>
    <nd ref="1616833230"/>
    <nd ref="28257734"/>
    <nd ref="11196449510"/>
    <nd ref="1736523713"/>
    <tag k="highway" v="tertiary"/>
    <tag k="highway_authority_ref" v="C195"/>
    <tag k="maxspeed" v="40 mph"/>
    <tag k="name" v="Sandwich Road"/>
    <tag k="surface" v="asphalt"/>
  </way>
  <way id="56021662" version="2" timestamp="2012-04-29T21:18:09Z" changeset="11454598" uid="7037" user="Gregory Williams">
    <nd ref="703197786"/>
    <nd ref="703197777"/>
    <nd ref="703197773"/>
    <tag k="highway" v="residential"/>
    <tag k="maxspeed" v="30 mph"/>
    <tag k="name" v="South Avenue"/>
    <tag k="source" v="survey"/>
  </way>
  <way id="56021663" version="2" timestamp="2012-04-29T21:18:11Z" changeset="11454598" uid="7037" user="Gregory Williams">
    <nd ref="703197777"/>
    <nd ref="703197775"/>
    <nd ref="703197776"/>
    <nd ref="703197781"/>
    <nd ref="703197782"/>
    <nd ref="703197784"/>
    <nd ref="703197783"/>
    <nd ref="28257727"/>
    <tag k="highway" v="residential"/>
    <tag k="maxspeed" v="30 mph"/>
    <tag k="name" v="The Crescent"/>
    <tag k="source" v="survey"/>
  </way>
  <way id="61778359" version="4" timestamp="2013-04-01T05:54:25Z" changeset="15562715" uid="7037" user="Gregory Williams">
    <nd ref="769830585"/>
    <nd ref="769830635"/>
    <tag k="highway" v="residential"/>
    <tag k="lit" v="yes"/>
    <tag k="maxspeed" v="30 mph"/>
    <tag k="name" v="Grasmere Way"/>
    <tag k="source" v="OS_OpenData_StreetView"/>
  </way>
  <way id="61778360" version="8" timestamp="2020-10-23T21:33:25Z" changeset="92972412" uid="4450375" user="expobrain">
    <nd ref="769830549"/>
    <nd ref="769830594"/>
    <nd ref="1640746797"/>
    <nd ref="1640746800"/>
    <nd ref="27226941"/>
    <nd ref="769830644"/>
    <nd ref="1081828666"/>
    <nd ref="769830681"/>
    <nd ref="769830530"/>
    <nd ref="769830571"/>
    <nd ref="1081828514"/>
    <tag k="highway" v="residential"/>
    <tag k="lit" v="yes"/>
    <tag k="maxspeed" v="30 mph"/>
    <tag k="name" v="Burgess Road"/>
    <tag k="source" v="OS_OpenData_StreetView"/>
  </way>
  <way id="61778361" version="4" timestamp="2021-04-02T12:14:37Z" changeset="102192486" uid="10205154" user="mundlk">
    <nd ref="769830676"/>
    <nd ref="8586327641"/>
    <nd ref="8586327640"/>
    <nd ref="769830653"/>
    <tag k="highway" v="residential"/>
    <tag k="maxspeed" v="30 mph"/>
    <tag k="name" v="Briar Close"/>
    <tag k="source" v="OS_OpenData_StreetView"/>
  </way>
  <way id="61778362" version="5" timestamp="2013-04-01T05:54:27Z" changeset="15562715" uid="7037" user="Gregory Williams">
    <nd ref="769830679"/>
    <nd ref="1081828603"/>
    <nd ref="769830655"/>
    <nd ref="1081828597"/>
    <nd ref="769830694"/>
    <nd ref="769830704"/>
    <tag k="highway" v="residential"/>
    <tag k="lit" v="yes"/>
    <tag k="maxspeed" v="30 mph"/>
    <tag k="name" v="Wordsworth Gardens"/>
    <tag k="source" v="OS_OpenData_StreetView"/>
  </way>
  <way id="61778364" version="4" timestamp="2013-04-01T05:54:26Z" changeset="15562715" uid="7037" user="Gregory Williams">
    <nd ref="769830636"/>
    <nd ref="769830599"/>
    <tag k="highway" v="residential"/>
    <tag k="lit" v="yes"/>
    <tag k="maxspeed" v="30 mph"/>
    <tag k="name" v="Sheldon Close"/>
    <tag k="source" v="OS_OpenData_StreetView"/>
  </way>
  <way id="61778366" version="7" timestamp="2021-04-06T04:45:10Z" changeset="102367991" uid="10252557" user="anuvashi">
    <nd ref="6522652248"/>
    <nd ref="7941013544"/>
    <nd ref="6522652249"/>
    <nd ref="6522652250"/>
    <nd ref="6522652247"/>
    <nd ref="769830648"/>
    <nd ref="769830613"/>
    <nd ref="769830524"/>
    <nd ref="2607221039"/>
    <nd ref="8597404385"/>
    <nd ref="769830564"/>
    <nd ref="769830604"/>
    <tag k="highway" v="unclassified"/>
    <tag k="maxspeed" v="30 mph"/>
    <tag k="name" v="Miners Way"/>
    <tag k="source" v="OS_OpenData_StreetView"/>
  </way>
  <way id="61778369" version="5" timestamp="2021-08-27T11:52:01Z" changeset="110338149" uid="242345" user="confusedbuffalo">
    <nd ref="769830558"/>
    <nd ref="6916238209"/>
    <nd ref="6916238210"/>
    <nd ref="769830532"/>
    <tag k="highway" v="unclassified"/>
    <tag k="maxspeed" v="60 mph"/>
    <tag k="maxspeed:type" v="GB:nsl_single"/>
    <tag k="name" v="Covert Road"/>
    <tag k="source" v="survey"/>
    <tag k="source:name" v="survey"/>
  </way>
  <way id="61778370" version="4" timestamp="2013-04-01T05:54:27Z" changeset="15562715" uid="7037" user="Gregory Williams">
    <nd ref="769830544"/>
    <nd ref="769830712"/>
    <tag k="highway" v="residential"/>
    <tag k="lit" v="yes"/>
    <tag k="maxspeed" v="30 mph"/>
    <tag k="name" v="Tennyson Gardens"/>
    <tag k="source" v="OS_OpenData_StreetView"/>
  </way>
  <way id="61778371" version="4" timestamp="2013-04-01T05:54:27Z" changeset="15562715" uid="7037" user="Gregory Williams">
    <nd ref="769830707"/>
    <nd ref="769830674"/>
    <tag k="highway" v="residential"/>
    <tag k="lit" v="yes"/>
    <tag k="maxspeed" v="30 mph"/>
    <tag k="name" v="Thirlmere Gardens"/>
    <tag k="source" v="OS_OpenData_StreetView"/>
  </way>
  <way id="61778373" version="7" timestamp="2023-11-11T09:18:24Z" changeset="143891460" uid="7037" user="Gregory Williams">
    <nd ref="769830553"/>
    <nd ref="11340955555"/>
    <nd ref="8041087435"/>
    <nd ref="769830597"/>
    <nd ref="1736532980"/>
    <nd ref="11191880969"/>
    <nd ref="769830650"/>
    <nd ref="1736533005"/>
    <nd ref="1736533008"/>
    <nd ref="769830630"/>
    <nd ref="769830582"/>
    <nd ref="1736533006"/>
    <nd ref="1736532985"/>
    <nd ref="1736532982"/>
    <nd ref="769830633"/>
    <nd ref="31398951"/>
    <tag k="highway" v="residential"/>
    <tag k="lit" v="yes"/>
    <tag k="maxspeed" v="30 mph"/>
    <tag k="name" v="Bell Grove"/>
    <tag k="source" v="OS_OpenData_StreetView"/>
  </way>
  <way id="61778374" version="4" timestamp="2013-04-01T05:54:25Z" changeset="15562715" uid="7037" user="Gregory Williams">
    <nd ref="769830615"/>
    <nd ref="769830692"/>
    <nd ref="769830538"/>
    <tag k="highway" v="residential"/>
    <tag k="lit" v="yes"/>
    <tag k="maxspeed" v="30 mph"/>
    <tag k="name" v="Ennerdale Gardens"/>
    <tag k="source" v="OS_OpenData_StreetView"/>
  </way>
  <way id="61778380" version="5" timestamp="2019-09-30T14:32:17Z" changeset="75105624" uid="705850" user="Cebderby">
    <nd ref="769830612"/>
    <nd ref="1621447931"/>
    <tag k="highway" v="residential"/>
    <tag k="lit" v="yes"/>
    <tag k="maxspeed" v="30 mph"/>
    <tag k="name" v="Cripps Close"/>
    <tag k="source" v="OS_OpenData_StreetView"/>
  </way>
  <way id="61778381" version="4" timestamp="2013-04-01T05:54:27Z" changeset="15562715" uid="7037" user="Gregory Williams">
    <nd ref="769830675"/>
    <nd ref="769830652"/>
    <tag k="highway" v="residential"/>
    <tag k="lit" v="yes"/>
    <tag k="maxspeed" v="30 mph"/>
    <tag k="name" v="Ullswater Gardens"/>
    <tag k="source" v="OS_OpenData_StreetView"/>
  </way>
  <way id="61778382" version="4" timestamp="2012-10-06T17:48:31Z" changeset="13388373" uid="7037" user="Gregory Williams">
    <nd ref="769830683"/>
    <nd ref="769830659"/>
    <nd ref="769830699"/>
    <tag k="highway" v="residential"/>
    <tag k="lit" v="yes"/>
    <tag k="maxspeed" v="30 mph"/>
    <tag k="name" v="Sycamore Avenue"/>
    <tag k="source" v="OS_OpenData_StreetView"/>
  </way>
  <way id="61778384" version="3" timestamp="2012-09-22T16:21:23Z" changeset="13209354" uid="7037" user="Gregory Williams">
    <nd ref="769830608"/>
    <nd ref="369832698"/>
    <tag k="highway" v="residential"/>
    <tag k="maxspeed" v="30 mph"/>
    <tag k="name" v="Cornwallis Avenue"/>
    <tag k="source" v="OS_OpenData_StreetView"/>
  </way>
  <way id="61778385" version="4" timestamp="2012-10-06T17:48:30Z" changeset="13388373" uid="7037" user="Gregory Williams">
    <nd ref="769830551"/>
    <nd ref="769830715"/>
    <nd ref="769830560"/>
    <tag k="highway" v="residential"/>
    <tag k="lit" v="yes"/>
    <tag k="maxspeed" v="30 mph"/>
    <tag k="name" v="Elm Road"/>
    <tag k="source" v="OS_OpenData_StreetView"/>
  </way>
  <way id="61778387" version="9" timestamp="2023-05-14T13:25:26Z" changeset="136085209" uid="7538925" user="Tanedra">
    <nd ref="769830577"/>
    <nd ref="1621447977"/>
    <nd ref="769830628"/>
    <nd ref="1081828664"/>
    <nd ref="5831981746"/>
    <nd ref="769830668"/>
    <nd ref="1081828592"/>
    <nd ref="10896016620"/>
    <nd ref="769830714"/>
    <nd ref="769830556"/>
    <nd ref="769830538"/>
    <nd ref="769830603"/>
    <tag k="highway" v="residential"/>
    <tag k="lit" v="yes"/>
    <tag k="maxspeed" v="30 mph"/>
    <tag k="name" v="Derwent Way"/>
    <tag k="source" v="OS_OpenData_StreetView"/>
  </way>
  <way id="61778388" version="7" timestamp="2025-04-04T20:52:56Z" changeset="164528375" uid="20252098" user="DoubleCart">
    <nd ref="769830657"/>
    <nd ref="12729766113"/>
    <nd ref="769830620"/>
    <nd ref="769830666"/>
    <nd ref="6321295930"/>
    <nd ref="769830710"/>
    <tag k="highway" v="unclassified"/>
    <tag k="maxspeed" v="60 mph"/>
    <tag k="maxspeed:type" v="GB:nsl_single"/>
    <tag k="name" v="Wilcox Close"/>
    <tag k="source" v="survey"/>
    <tag k="surface" v="concrete:plates"/>
  </way>
  <way id="61778389" version="6" timestamp="2024-02-08T17:35:52Z" changeset="147227223" uid="20252098" user="DoubleCart">
    <nd ref="769830601"/>
    <nd ref="11598964184"/>
    <nd ref="769830610"/>
    <nd ref="769830706"/>
    <nd ref="769830585"/>
    <nd ref="769830540"/>
    <nd ref="11598917654"/>
    <nd ref="369832701"/>
    <nd ref="369832698"/>
    <tag k="highway" v="residential"/>
    <tag k="lit" v="yes"/>
    <tag k="maxspeed" v="30 mph"/>
    <tag k="name" v="Cornwallis Avenue"/>
    <tag k="source" v="OS_OpenData_StreetView;survey"/>
  </way>
  <way id="61778390" version="4" timestamp="2013-04-01T05:54:24Z" changeset="15562715" uid="7037" user="Gregory Williams">
    <nd ref="769830617"/>
    <nd ref="769830583"/>
    <nd ref="769830547"/>
    <tag k="highway" v="residential"/>
    <tag k="lit" v="yes"/>
    <tag k="maxspeed" v="30 mph"/>
    <tag k="name" v="Coleridge Gardens"/>
    <tag k="source" v="OS_OpenData_StreetView"/>
  </way>
  <way id="61778392" version="5" timestamp="2024-07-17T10:16:06Z" changeset="154051168" uid="11471297" user="Palgrave Peter">
    <nd ref="769830627"/>
    <nd ref="769830700"/>
    <nd ref="769830590"/>
    <nd ref="769830640"/>
    <nd ref="2607221036"/>
    <nd ref="769830678"/>
    <nd ref="769830613"/>
    <tag k="highway" v="unclassified"/>
    <tag k="maxspeed" v="30 mph"/>
    <tag k="name" v="Miners Way"/>
    <tag k="source" v="OS_OpenData_StreetView"/>
  </way>
  <way id="61778393" version="6" timestamp="2018-10-16T08:29:07Z" changeset="63567757" uid="8959083" user="Helmclever">
    <nd ref="769830601"/>
    <nd ref="769830662"/>
    <nd ref="769830555"/>
    <nd ref="1736532978"/>
    <nd ref="769830589"/>
    <nd ref="1736532971"/>
    <nd ref="769830623"/>
    <nd ref="1736532950"/>
    <nd ref="769830639"/>
    <nd ref="1736532943"/>
    <nd ref="1081828643"/>
    <nd ref="369832792"/>
    <tag k="highway" v="residential"/>
    <tag k="lit" v="yes"/>
    <tag k="maxspeed" v="30 mph"/>
    <tag k="name" v="Milner Crescent"/>
    <tag k="oneway" v="yes"/>
    <tag k="source" v="OS_OpenData_StreetView"/>
  </way>
  <way id="61778395" version="4" timestamp="2013-04-01T05:54:23Z" changeset="15562715" uid="7037" user="Gregory Williams">
    <nd ref="769830595"/>
    <nd ref="769830566"/>
    <tag k="highway" v="residential"/>
    <tag k="lit" v="yes"/>
    <tag k="maxspeed" v="30 mph"/>
    <tag k="name" v="Buttermere Gardens"/>
    <tag k="source" v="OS_OpenData_StreetView"/>
  </way>
  <way id="61778398" version="6" timestamp="2024-07-17T10:16:06Z" changeset="154051168" uid="11471297" user="Palgrave Peter">
    <nd ref="769830621"/>
    <nd ref="12058957166"/>
    <nd ref="769830587"/>
    <tag k="highway" v="residential"/>
    <tag k="lit" v="yes"/>
    <tag k="maxspeed" v="30 mph"/>
    <tag k="name" v="Ash Road"/>
    <tag k="source" v="OS_OpenData_StreetView"/>
  </way>
  <way id="77464243" version="9" timestamp="2021-08-27T11:52:01Z" changeset="110338149" uid="242345" user="confusedbuffalo">
    <nd ref="671057427"/>
    <nd ref="1616498985"/>
    <nd ref="671057426"/>
    <nd ref="671057425"/>
    <nd ref="671057424"/>
    <nd ref="1616833280"/>
    <nd ref="1616833273"/>
    <nd ref="1616833269"/>
    <nd ref="671057423"/>
    <nd ref="28484994"/>
    <nd ref="1616833249"/>
    <nd ref="27227092"/>
    <tag k="highway" v="secondary"/>
    <tag k="lit" v="no"/>
    <tag k="maxspeed" v="60 mph"/>
    <tag k="maxspeed:type" v="GB:nsl_single"/>
    <tag k="ref" v="B2046"/>
  </way>
  <way id="79686187" version="18" timestamp="2024-02-08T17:35:52Z" changeset="147227223" uid="20252098" user="DoubleCart">
    <nd ref="369832781"/>
    <nd ref="8208464084"/>
    <nd ref="7941013535"/>
    <nd ref="7941013537"/>
    <nd ref="11598964211"/>
    <nd ref="769830601"/>
    <nd ref="1081828639"/>
    <nd ref="369832790"/>
    <nd ref="1081828576"/>
    <nd ref="559997946"/>
    <nd ref="1081828501"/>
    <nd ref="559997947"/>
    <nd ref="769830577"/>
    <nd ref="1621447973"/>
    <nd ref="6837901954"/>
    <nd ref="6837918344"/>
    <nd ref="6837933296"/>
    <nd ref="5368044232"/>
    <nd ref="5147898179"/>
    <nd ref="7919771852"/>
    <nd ref="5147898167"/>
    <nd ref="5368211704"/>
    <nd ref="8585093259"/>
    <nd ref="6837933305"/>
    <nd ref="33452388"/>
    <tag k="highway" v="residential"/>
    <tag k="lit" v="yes"/>
    <tag k="maxspeed" v="30 mph"/>
    <tag k="name" v="Dorman Avenue North"/>
    <tag k="source" v="survey"/>
  </way>
  <way id="93306288" version="2" timestamp="2012-10-20T08:11:32Z" changeset="13564795" uid="7037" user="Gregory Williams">
    <nd ref="1081828627"/>
    <nd ref="1081828545"/>
    <nd ref="1081828538"/>
    <tag k="access" v="private"/>
    <tag k="highway" v="residential"/>
    <tag k="lit" v="no"/>
    <tag k="maxspeed" v="30 mph"/>
    <tag k="name" v="Abercrombie Court"/>
  </way>
  <way id="102688711" version="5" timestamp="2023-09-15T00:46:00Z" changeset="141280502" uid="20252098" user="DoubleCart">
    <nd ref="769830653"/>
    <nd ref="11191884140"/>
    <nd ref="369832824"/>
    <nd ref="559997935"/>
    <nd ref="3233253376"/>
    <nd ref="559997941"/>
    <nd ref="369832785"/>
    <tag k="highway" v="residential"/>
    <tag k="lit" v="yes"/>
    <tag k="maxspeed" v="30 mph"/>
    <tag k="name" v="Dorman Avenue South"/>
    <tag k="source" v="survey"/>
  </way>
  <way id="148564597" version="5" timestamp="2021-08-27T11:52:01Z" changeset="110338149" uid="242345" user="confusedbuffalo">
    <nd ref="671057427"/>
    <nd ref="1616499003"/>
    <nd ref="1616498999"/>
    <nd ref="1616498976"/>
    <nd ref="1616498969"/>
    <nd ref="1616498957"/>
    <nd ref="1616498933"/>
    <nd ref="1616498924"/>
    <nd ref="1616498872"/>
    <nd ref="1616498827"/>
    <nd ref="1616498817"/>
    <nd ref="1616498815"/>
    <nd ref="1616498800"/>
    <nd ref="1616498782"/>
    <nd ref="1616498727"/>
    <nd ref="1616498633"/>
    <nd ref="1616498597"/>
    <nd ref="1616498576"/>
    <nd ref="1616498542"/>
    <nd ref="1616498531"/>
    <nd ref="1616498513"/>
    <nd ref="331045035"/>
    <nd ref="35721977"/>
    <tag k="highway" v="unclassified"/>
    <tag k="lit" v="no"/>
    <tag k="maxspeed" v="60 mph"/>
    <tag k="maxspeed:type" v="GB:nsl_single"/>
    <tag k="source" v="survey"/>
  </way>
  <way id="148602790" version="6" timestamp="2021-08-27T11:52:01Z" changeset="110338149" uid="242345" user="confusedbuffalo">
    <nd ref="27227092"/>
    <nd ref="1616833246"/>
    <nd ref="1616833248"/>
    <nd ref="1616833250"/>
    <nd ref="331098960"/>
    <tag k="highway" v="tertiary"/>
    <tag k="lit" v="no"/>
    <tag k="maxspeed" v="60 mph"/>
    <tag k="maxspeed:type" v="GB:nsl_single"/>
    <tag k="name" v="Station Road"/>
    <tag k="surface" v="asphalt"/>
  </way>
  <way id="161602666" version="3" timestamp="2020-10-09T07:27:00Z" changeset="92216951" uid="10192121" user="jamenimm">
    <nd ref="1735754586"/>
    <nd ref="703197792"/>
    <nd ref="28257727"/>
    <nd ref="703197786"/>
    <nd ref="28257731"/>
    <nd ref="7991061819"/>
    <nd ref="1735754585"/>
    <nd ref="28257734"/>
    <tag k="highway" v="tertiary"/>
    <tag k="maxspeed" v="30 mph"/>
    <tag k="name" v="Aylesham Road"/>
    <tag k="surface" v="asphalt"/>
  </way>
  <way id="168171589" version="4" timestamp="2023-09-15T18:10:19Z" changeset="141314581" uid="20252098" user="DoubleCart">
    <nd ref="369832698"/>
    <nd ref="27226960"/>
    <nd ref="3269208686"/>
    <nd ref="27226964"/>
    <nd ref="1743401337"/>
    <nd ref="11194400050"/>
    <nd ref="27226968"/>
    <nd ref="331098981"/>
    <nd ref="1743401338"/>
    <nd ref="27226972"/>
    <nd ref="27226976"/>
    <nd ref="27226980"/>
    <nd ref="331098982"/>
    <tag k="highway" v="tertiary"/>
    <tag k="lit" v="no"/>
    <tag k="maxspeed" v="30 mph"/>
    <tag k="name" v="Ratling Road"/>
    <tag k="source" v="survey"/>
    <tag k="surface" v="asphalt"/>
  </way>
  <way id="179652074" version="6" timestamp="2025-04-20T12:46:59Z" changeset="165192336" uid="7037" user="Gregory Williams">
    <nd ref="1900712127"/>
    <nd ref="12066452038"/>
    <nd ref="1616833240"/>
    <nd ref="1616833239"/>
    <nd ref="1616833238"/>
    <nd ref="1616833237"/>
    <nd ref="1616833236"/>
    <nd ref="1616833235"/>
    <nd ref="8383281958"/>
    <nd ref="1616833233"/>
    <nd ref="35975104"/>
    <tag k="highway" v="tertiary"/>
    <tag k="highway_authority_ref" v="C195"/>
    <tag k="maxspeed" v="40 mph"/>
    <tag k="name" v="Sandwich Road"/>
    <tag k="surface" v="asphalt"/>
  </way>
  <way id="182417125" version="6" timestamp="2024-07-16T10:34:40Z" changeset="154008566" uid="11471297" user="Palgrave Peter">
    <nd ref="1927656979"/>
    <nd ref="1729368086"/>
    <nd ref="1927656980"/>
    <nd ref="554251398"/>
    <nd ref="11196449854"/>
    <nd ref="554251399"/>
    <nd ref="1927656985"/>
    <nd ref="554251400"/>
    <nd ref="1927656989"/>
    <nd ref="1927656994"/>
    <nd ref="554251401"/>
    <nd ref="554251402"/>
    <nd ref="1927657010"/>
    <nd ref="554251404"/>
    <nd ref="554251405"/>
    <nd ref="554251406"/>
    <nd ref="554251417"/>
    <nd ref="5419914220"/>
    <nd ref="5419914215"/>
    <nd ref="554251414"/>
    <nd ref="1927657011"/>
    <nd ref="554251415"/>
    <nd ref="1927657014"/>
    <nd ref="554251416"/>
    <tag k="highway" v="unclassified"/>
    <tag k="maxspeed" v="60 mph"/>
    <tag k="maxspeed:type" v="GB:nsl_single"/>
    <tag k="name" v="Old Court Hill"/>
    <tag k="source" v="survey"/>
    <tag k="source:name" v="OS_OpenData_Locator"/>
  </way>
  <way id="186917655" version="6" timestamp="2024-07-15T22:33:09Z" changeset="153991674" uid="21425661" user="CjMalone">
    <nd ref="1976668289"/>
    <nd ref="1976668302"/>
    <nd ref="1976668316"/>
    <nd ref="1976668291"/>
    <nd ref="1976668286"/>
    <nd ref="1976668298"/>
    <nd ref="1976668299"/>
    <nd ref="1976668282"/>
    <nd ref="1976668297"/>
    <nd ref="1976668317"/>
    <nd ref="1976668289"/>
    <tag k="addr:city" v="Aylesham"/>
    <tag k="addr:postcode" v="CT3 3DY"/>
    <tag k="addr:street" v="Market Place"/>
    <tag k="brand" v="Co-op Food"/>
    <tag k="brand:wikidata" v="Q3277439"/>
    <tag k="building" v="yes"/>
    <tag k="check_date" v="2024-07-15"/>
    <tag k="check_date:opening_hours" v="2024-07-15"/>
    <tag k="fhrs:id" v="619441"/>
    <tag k="name" v="Co-op Food"/>
    <tag k="opening_hours" v="Mo-Sa 06:00-22:00; Su 10:00-16:00"/>
    <tag k="operator" v="The Co-operative Group"/>
    <tag k="operator:wikidata" v="Q117202"/>
    <tag k="shop" v="supermarket"/>
    <tag k="source:addr" v="FHRS Open Data"/>
    <tag k="website" v="https://www.coop.co.uk/store-finder/CT3-3DY/market-place"/>
  </way>
  <way id="209172534" version="3" timestamp="2018-08-03T00:55:21Z" changeset="61313145" uid="115894" user="DaveF">
    <nd ref="2194049165"/>
    <nd ref="31398945"/>
    <nd ref="2194049164"/>
    <nd ref="31398946"/>
    <nd ref="31398947"/>
    <tag k="highway" v="tertiary"/>
    <tag k="highway_authority_ref" v="C225"/>
    <tag k="maxspeed" v="30 mph"/>
    <tag k="name" v="Ackholt Road"/>
  </way>
  <way id="254949295" version="2" timestamp="2024-01-08T13:49:16Z" changeset="146029809" uid="84263" user="Robert Whittaker">
    <nd ref="2607219213"/>
    <nd ref="2607219212"/>
    <nd ref="2607219210"/>
    <nd ref="2607219211"/>
    <nd ref="2607219209"/>
    <nd ref="2607219208"/>
    <nd ref="2607219201"/>
    <nd ref="2607219203"/>
    <nd ref="2607219202"/>
    <nd ref="2607219200"/>
    <nd ref="2607219197"/>
    <nd ref="2607219198"/>
    <nd ref="2607219199"/>
    <nd ref="2607219205"/>
    <nd ref="2607219204"/>
    <nd ref="2607219206"/>
    <nd ref="2607219207"/>
    <nd ref="2607219216"/>
    <nd ref="2607219214"/>
    <nd ref="2607219218"/>
    <nd ref="2607219219"/>
    <nd ref="2607219221"/>
    <nd ref="2607219220"/>
    <nd ref="2607219215"/>
    <nd ref="2607219217"/>
    <nd ref="2607219213"/>
    <tag k="addr:city" v="Canterbury"/>
    <tag k="addr:postcode" v="CT3 3AJ"/>
    <tag k="addr:street" v="Ackholt Road"/>
    <tag k="addr:village" v="Aylesham"/>
    <tag k="amenity" v="community_centre"/>
    <tag k="building" v="yes"/>
    <tag k="name" v="Aylesham Community Centre"/>
    <tag k="operator" v="Aylesham Community Trust"/>
    <tag k="website" v="http://www.awt.org.uk/"/>
  </way>
  <way id="317100889" version="6" timestamp="2025-04-20T16:50:00Z" changeset="165203652" uid="7037" user="Gregory Williams">
    <nd ref="3233253375"/>
    <nd ref="11191884190"/>
    <nd ref="12770632246"/>
    <nd ref="3233253376"/>
    <tag k="highway" v="residential"/>
    <tag k="maxspeed" v="30 mph"/>
    <tag k="name" v="Snowdown Close"/>
    <tag k="source:name" v="survey"/>
    <tag k="surface" v="asphalt"/>
  </way>
  <way id="376993817" version="6" timestamp="2023-10-13T15:46:11Z" changeset="142530223" uid="20252098" user="DoubleCart">
    <nd ref="554251388"/>
    <nd ref="28257682"/>
    <nd ref="11260312493"/>
    <nd ref="31399193"/>
    <nd ref="5922252346"/>
    <nd ref="28257686"/>
    <nd ref="6684819235"/>
    <nd ref="31399192"/>
    <nd ref="28257689"/>
    <nd ref="369832785"/>
    <nd ref="31399191"/>
    <nd ref="31399190"/>
    <nd ref="31399189"/>
    <nd ref="31399188"/>
    <nd ref="31399187"/>
    <nd ref="31399186"/>
    <nd ref="31399185"/>
    <nd ref="31399184"/>
    <nd ref="31399183"/>
    <nd ref="559997965"/>
    <nd ref="31398960"/>
    <tag k="highway" v="tertiary"/>
    <tag k="lanes" v="2"/>
    <tag k="maxspeed" v="60 mph"/>
    <tag k="maxspeed:type" v="GB:nsl_single"/>
    <tag k="name" v="Spinney Lane"/>
    <tag k="surface" v="asphalt"/>
  </way>
  <way id="452152385" version="2" timestamp="2024-07-16T10:34:40Z" changeset="154008566" uid="11471297" user="Palgrave Peter">
    <nd ref="4489541606"/>
    <nd ref="4489541603"/>
    <nd ref="4489541607"/>
    <nd ref="4489541608"/>
    <nd ref="4489541609"/>
    <nd ref="4489541605"/>
    <nd ref="4489541601"/>
    <nd ref="4489541604"/>
    <nd ref="4489541600"/>
    <nd ref="4489541599"/>
    <nd ref="4489541598"/>
    <nd ref="4489541602"/>
    <nd ref="4489541606"/>
    <tag k="building" v="yes"/>
    <tag k="name" v="Sprockets Ltd"/>
  </way>
  <way id="452156613" version="1" timestamp="2016-11-09T00:10:25Z" changeset="43501278" uid="7660" user="DonaldT">
    <nd ref="4489594227"/>
    <nd ref="4489594230"/>
    <nd ref="4489594231"/>
    <nd ref="4489594229"/>
    <nd ref="4489594227"/>
    <tag k="addr:housenumber" v="Unit 4"/>
    <tag k="addr:postcode" v="CT3 3EQ"/>
    <tag k="addr:street" v="Covert Road"/>
    <tag k="building" v="commercial"/>
    <tag k="name" v="Salvatori and Son"/>
  </way>
  <way id="452156614" version="1" timestamp="2016-11-09T00:10:25Z" changeset="43501278" uid="7660" user="DonaldT">
    <nd ref="4489594215"/>
    <nd ref="4489594218"/>
    <nd ref="4489594222"/>
    <nd ref="4489594221"/>
    <nd ref="4489594223"/>
    <nd ref="4489594224"/>
    <nd ref="4489594226"/>
    <nd ref="4489594219"/>
    <nd ref="4489594217"/>
    <nd ref="4489594214"/>
    <nd ref="4489594212"/>
    <nd ref="4489594211"/>
    <nd ref="4489594213"/>
    <nd ref="4489594215"/>
    <tag k="addr:postcode" v="CT3 3EF"/>
    <tag k="addr:street" v="Covert Road"/>
    <tag k="building" v="commercial"/>
    <tag k="name" v="Sharpak Aylesham Ltd"/>
  </way>
  <way id="452156615" version="3" timestamp="2023-09-15T16:47:45Z" changeset="141311587" uid="20252098" user="DoubleCart">
    <nd ref="4489594228"/>
    <nd ref="4489594220"/>
    <nd ref="4489594216"/>
    <nd ref="4489594225"/>
    <nd ref="4489594228"/>
    <tag k="building" v="warehouse"/>
    <tag k="name" v="Sharpak Aylesham Ltd"/>
  </way>
  <way id="452156955" version="4" timestamp="2023-10-22T09:07:53Z" changeset="142958420" uid="6816132" user="CjMalone">
    <nd ref="4489578925"/>
    <nd ref="4489578926"/>
    <nd ref="4489578924"/>
    <nd ref="4489578923"/>
    <nd ref="4489578925"/>
    <tag k="addr:city" v="Aylesham"/>
    <tag k="addr:postcode" v="CT3 3DZ"/>
    <tag k="addr:street" v="Market Place"/>
    <tag k="amenity" v="post_office"/>
    <tag k="brand" v="Post Office"/>
    <tag k="brand:wikidata" v="Q1783168"/>
    <tag k="building" v="public"/>
    <tag k="fhrs:id" v="429937"/>
    <tag k="name" v="Aylesham Post Office"/>
    <tag k="ref:pol_id" v="131"/>
    <tag k="source:addr" v="FHRS Open Data"/>
    <tag k="website" v="https://www.postoffice.co.uk/branch-finder/0539090/aylesham"/>
  </way>
  <way id="498271629" version="2" timestamp="2024-02-08T18:30:18Z" changeset="147228929" uid="20252098" user="DoubleCart">
    <nd ref="769830549"/>
    <nd ref="27226945"/>
    <nd ref="11599089080"/>
    <nd ref="27226950"/>
    <nd ref="769830599"/>
    <nd ref="27226955"/>
    <nd ref="369832698"/>
    <tag k="highway" v="tertiary"/>
    <tag k="lit" v="yes"/>
    <tag k="maxspeed" v="30 mph"/>
    <tag k="name" v="Ratling Road"/>
    <tag k="source" v="survey"/>
    <tag k="surface" v="asphalt"/>
  </way>
  <way id="498271631" version="3" timestamp="2020-10-23T22:43:03Z" changeset="92974023" uid="4450375" user="expobrain">
    <nd ref="1081828514"/>
    <nd ref="769830618"/>
    <nd ref="6975858681"/>
    <nd ref="8041087418"/>
    <nd ref="769830553"/>
    <tag k="highway" v="residential"/>
    <tag k="lit" v="yes"/>
    <tag k="maxspeed" v="30 mph"/>
    <tag k="name" v="Burgess Road"/>
    <tag k="source" v="OS_OpenData_StreetView"/>
  </way>
  <way id="498271632" version="5" timestamp="2021-08-27T11:52:01Z" changeset="110338149" uid="242345" user="confusedbuffalo">
    <nd ref="27227032"/>
    <nd ref="331098995"/>
    <nd ref="1743401359"/>
    <nd ref="27227036"/>
    <nd ref="1743401360"/>
    <nd ref="27227039"/>
    <nd ref="8704871980"/>
    <nd ref="8704871981"/>
    <nd ref="331098997"/>
    <nd ref="8704871969"/>
    <nd ref="1743401363"/>
    <nd ref="27227043"/>
    <nd ref="1743401362"/>
    <nd ref="331098999"/>
    <nd ref="8704871972"/>
    <nd ref="27227047"/>
    <nd ref="8704871971"/>
    <nd ref="1743401361"/>
    <nd ref="8704871970"/>
    <nd ref="27227051"/>
    <nd ref="1743401364"/>
    <nd ref="27227055"/>
    <nd ref="27227059"/>
    <nd ref="6461163622"/>
    <nd ref="27227063"/>
    <nd ref="27227066"/>
    <nd ref="27227073"/>
    <nd ref="6710010138"/>
    <nd ref="27227077"/>
    <nd ref="6710010130"/>
    <nd ref="27227080"/>
    <nd ref="27227084"/>
    <nd ref="27227088"/>
    <tag k="highway" v="tertiary"/>
    <tag k="lit" v="no"/>
    <tag k="maxspeed" v="60 mph"/>
    <tag k="maxspeed:type" v="GB:nsl_single"/>
    <tag k="name" v="Ratling Road"/>
    <tag k="source" v="survey"/>
    <tag k="surface" v="asphalt"/>
  </way>
  <way id="498271634" version="2" timestamp="2021-08-27T11:52:01Z" changeset="110338149" uid="242345" user="confusedbuffalo">
    <nd ref="331095462"/>
    <nd ref="28257717"/>
    <nd ref="1735756884"/>
    <nd ref="28257721"/>
    <nd ref="703197787"/>
    <nd ref="28257724"/>
    <nd ref="703197789"/>
    <nd ref="1735754587"/>
    <nd ref="703197790"/>
    <nd ref="1735754586"/>
    <tag k="highway" v="tertiary"/>
    <tag k="maxspeed" v="60 mph"/>
    <tag k="maxspeed:type" v="GB:nsl_single"/>
    <tag k="name" v="Aylesham Road"/>
    <tag k="surface" v="asphalt"/>
  </way>
  <way id="530030212" version="7" timestamp="2023-11-11T09:43:06Z" changeset="143892086" uid="7037" user="Gregory Williams">
    <nd ref="5147898207"/>
    <nd ref="6837933302"/>
    <nd ref="5368044235"/>
    <nd ref="5147898184"/>
    <nd ref="8300831166"/>
    <nd ref="5147898212"/>
    <nd ref="8300831167"/>
    <nd ref="8300831168"/>
    <nd ref="6837918374"/>
    <nd ref="5147898220"/>
    <nd ref="6837918366"/>
    <nd ref="7744067707"/>
    <nd ref="5367888497"/>
    <tag k="highway" v="residential"/>
    <tag k="maxspeed" v="30 mph"/>
    <tag k="name" v="Beresford Grove"/>
  </way>
  <way id="530030213" version="4" timestamp="2023-11-11T09:43:06Z" changeset="143892086" uid="7037" user="Gregory Williams">
    <nd ref="5147898184"/>
    <nd ref="5831981741"/>
    <nd ref="5147898183"/>
    <tag k="highway" v="residential"/>
    <tag k="maxspeed" v="30 mph"/>
    <tag k="name" v="Harrison Road"/>
  </way>
  <way id="530030215" version="7" timestamp="2023-11-11T09:33:47Z" changeset="143891844" uid="7037" user="Gregory Williams">
    <nd ref="5147898162"/>
    <nd ref="5367888504"/>
    <nd ref="7744067701"/>
    <nd ref="5147898169"/>
    <nd ref="7744067700"/>
    <nd ref="5368211708"/>
    <tag k="highway" v="residential"/>
    <tag k="maxspeed" v="30 mph"/>
    <tag k="name" v="Cordale Road"/>
  </way>
  <way id="530030219" version="5" timestamp="2023-11-11T09:43:06Z" changeset="143892086" uid="7037" user="Gregory Williams">
    <nd ref="5368044234"/>
    <nd ref="7744067706"/>
    <nd ref="5368044233"/>
    <nd ref="5147898163"/>
    <nd ref="5367892383"/>
    <nd ref="5147898175"/>
    <nd ref="5147898176"/>
    <nd ref="5147898216"/>
    <tag k="highway" v="residential"/>
    <tag k="maxspeed" v="30 mph"/>
    <tag k="name" v="Garner Drive"/>
  </way>
  <way id="530030221" version="14" timestamp="2025-04-20T16:33:02Z" changeset="165202884" uid="7037" user="Gregory Williams">
    <nd ref="5147898202"/>
    <nd ref="12770609781"/>
    <nd ref="5147898213"/>
    <nd ref="12770609777"/>
    <nd ref="6837918338"/>
    <nd ref="5147898211"/>
    <nd ref="5147898183"/>
    <nd ref="5368211711"/>
    <nd ref="5147898186"/>
    <nd ref="6837918339"/>
    <nd ref="5367888511"/>
    <nd ref="5147898188"/>
    <nd ref="5147898203"/>
    <nd ref="5147898169"/>
    <nd ref="5147898204"/>
    <nd ref="8384258675"/>
    <nd ref="5147898198"/>
    <nd ref="8300836842"/>
    <nd ref="7744067702"/>
    <nd ref="5147898167"/>
    <tag k="highway" v="residential"/>
    <tag k="maxspeed" v="30 mph"/>
    <tag k="name" v="Central Boulevard"/>
  </way>
  <way id="556456567" version="6" timestamp="2023-11-11T09:43:06Z" changeset="143892086" uid="7037" user="Gregory Williams">
    <nd ref="5147898216"/>
    <nd ref="5367888495"/>
    <nd ref="8585093276"/>
    <nd ref="5367888496"/>
    <nd ref="5368044228"/>
    <nd ref="5147898162"/>
    <nd ref="5368044227"/>
    <nd ref="7744067703"/>
    <nd ref="5147898179"/>
    <tag k="highway" v="residential"/>
    <tag k="maxspeed" v="30 mph"/>
    <tag k="name" v="Garner Drive"/>
  </way>
  <way id="556456571" version="5" timestamp="2023-11-11T09:33:47Z" changeset="143891844" uid="7037" user="Gregory Williams">
    <nd ref="5367888504"/>
    <nd ref="5367888505"/>
    <nd ref="8301149910"/>
    <nd ref="8300836769"/>
    <nd ref="5367888506"/>
    <tag k="highway" v="residential"/>
    <tag k="maxspeed" v="30 mph"/>
    <tag k="name" v="Beresford Grove"/>
  </way>
  <way id="556457113" version="6" timestamp="2023-11-11T09:43:06Z" changeset="143892086" uid="7037" user="Gregory Williams">
    <nd ref="5367892383"/>
    <nd ref="5367892384"/>
    <nd ref="5367892385"/>
    <nd ref="8585093267"/>
    <nd ref="8300831197"/>
    <nd ref="8300831198"/>
    <nd ref="5367892386"/>
    <nd ref="5367892387"/>
    <nd ref="8300831199"/>
    <nd ref="5367892388"/>
    <nd ref="5367892389"/>
    <nd ref="7744067705"/>
    <nd ref="5367892390"/>
    <tag k="highway" v="residential"/>
    <tag k="maxspeed" v="30 mph"/>
    <tag k="name" v="Harrison Road"/>
  </way>
  <way id="556472517" version="4" timestamp="2025-04-20T16:11:01Z" changeset="165201926" uid="7037" user="Gregory Williams">
    <nd ref="5147898207"/>
    <nd ref="8300836702"/>
    <nd ref="5368044225"/>
    <nd ref="12770571429"/>
    <tag k="highway" v="residential"/>
    <tag k="maxspeed" v="30 mph"/>
    <tag k="name" v="Beresford Grove"/>
  </way>
  <way id="556472518" version="2" timestamp="2023-11-11T09:33:47Z" changeset="143891844" uid="7037" user="Gregory Williams">
    <nd ref="5367888504"/>
    <nd ref="5368044226"/>
    <tag k="highway" v="residential"/>
    <tag k="maxspeed" v="30 mph"/>
    <tag k="name" v="Beresford Grove"/>
  </way>
  <way id="556472519" version="5" timestamp="2023-11-11T09:43:06Z" changeset="143892086" uid="7037" user="Gregory Williams">
    <nd ref="5368044228"/>
    <nd ref="5368044229"/>
    <nd ref="8301155628"/>
    <nd ref="5368044230"/>
    <nd ref="8301155627"/>
    <nd ref="5368044231"/>
    <nd ref="10575513517"/>
    <nd ref="7744067704"/>
    <nd ref="5368044232"/>
    <tag k="highway" v="residential"/>
    <tag k="maxspeed" v="30 mph"/>
    <tag k="name" v="Cordale Road"/>
  </way>
  <way id="556472520" version="4" timestamp="2023-11-11T09:43:06Z" changeset="143892086" uid="7037" user="Gregory Williams">
    <nd ref="5368044235"/>
    <nd ref="6837918350"/>
    <nd ref="5147898163"/>
    <tag k="highway" v="residential"/>
    <tag k="maxspeed" v="30 mph"/>
    <tag k="name" v="Harrison Road"/>
  </way>
  <way id="556489214" version="5" timestamp="2023-11-11T09:33:47Z" changeset="143891844" uid="7037" user="Gregory Williams">
    <nd ref="5368211704"/>
    <nd ref="11340973708"/>
    <nd ref="8384258673"/>
    <nd ref="5368211706"/>
    <nd ref="11096639763"/>
    <nd ref="11096639762"/>
    <nd ref="11096639761"/>
    <nd ref="6837918371"/>
    <nd ref="5368211708"/>
    <nd ref="5368211707"/>
    <tag k="highway" v="residential"/>
    <tag k="maxspeed" v="30 mph"/>
    <tag k="name" v="Millyard Road"/>
  </way>
  <way id="556489215" version="2" timestamp="2025-04-20T16:37:17Z" changeset="165203099" uid="7037" user="Gregory Williams">
    <nd ref="5368211706"/>
    <nd ref="5368211709"/>
    <tag k="highway" v="residential"/>
    <tag k="maxspeed" v="30 mph"/>
    <tag k="name" v="Granville Close"/>
  </way>
  <way id="556489216" version="5" timestamp="2023-11-11T09:43:06Z" changeset="143892086" uid="7037" user="Gregory Williams">
    <nd ref="5368211711"/>
    <nd ref="5831981755"/>
    <nd ref="6772045296"/>
    <nd ref="6772045312"/>
    <nd ref="6837901963"/>
    <tag k="highway" v="residential"/>
    <tag k="maxspeed" v="30 mph"/>
    <tag k="name" v="Lamplight Gardens"/>
  </way>
  <way id="674981686" version="8" timestamp="2025-04-20T16:03:35Z" changeset="165201591" uid="7037" user="Gregory Williams">
    <nd ref="6321295950"/>
    <nd ref="12246076180"/>
    <nd ref="6321295951"/>
    <nd ref="7744067697"/>
    <nd ref="369832797"/>
    <tag k="check_date" v="2025-04-20"/>
    <tag k="highway" v="unclassified"/>
    <tag k="lanes" v="2"/>
    <tag k="maxspeed" v="30 mph"/>
    <tag k="maxweight" v="7.5"/>
    <tag k="surface" v="asphalt"/>
  </way>
  <way id="699291545" version="1" timestamp="2019-06-23T22:08:00Z" changeset="71542361" uid="10097480" user="Hawaiianblue">
    <nd ref="6566645202"/>
    <nd ref="6566645203"/>
    <nd ref="6566645204"/>
    <nd ref="6566645205"/>
    <nd ref="6566645206"/>
    <nd ref="6566645207"/>
    <nd ref="6566645208"/>
    <nd ref="6566645209"/>
    <nd ref="6566645210"/>
    <nd ref="6566645202"/>
    <tag k="building" v="industrial"/>
    <tag k="name" v="Spinney House"/>
    <tag k="note" v="This building is not square, it was built with one corner missing to follow the boundary."/>
  </way>
  <way id="711704655" version="10" timestamp="2025-04-20T16:33:02Z" changeset="165202884" uid="7037" user="Gregory Williams">
    <nd ref="5147898202"/>
    <nd ref="6691205905"/>
    <nd ref="12770609780"/>
    <nd ref="12770609779"/>
    <nd ref="6691205906"/>
    <nd ref="12770609778"/>
    <nd ref="6691205907"/>
    <nd ref="5368211713"/>
    <nd ref="6691205908"/>
    <nd ref="12058937931"/>
    <nd ref="6691205909"/>
    <nd ref="12770609795"/>
    <nd ref="6691205910"/>
    <nd ref="8704555737"/>
    <nd ref="6691205911"/>
    <nd ref="6691205920"/>
    <tag k="highway" v="residential"/>
    <tag k="maxspeed" v="30 mph"/>
    <tag k="name" v="Central Boulevard"/>
  </way>
  <way id="721923305" version="7" timestamp="2025-04-20T16:35:46Z" changeset="165203009" uid="7037" user="Gregory Williams">
    <nd ref="5368211707"/>
    <nd ref="6837933290"/>
    <nd ref="6772045288"/>
    <nd ref="6772045294"/>
    <nd ref="8704563092"/>
    <nd ref="12770529778"/>
    <nd ref="6772045289"/>
    <nd ref="6772045315"/>
    <nd ref="6837901973"/>
    <nd ref="6837901963"/>
    <tag k="highway" v="residential"/>
    <tag k="maxspeed" v="30 mph"/>
    <tag k="name" v="Millyard Road"/>
  </way>
  <way id="721923306" version="2" timestamp="2023-11-11T09:33:47Z" changeset="143891844" uid="7037" user="Gregory Williams">
    <nd ref="6772045290"/>
    <nd ref="6772045291"/>
    <nd ref="5368211707"/>
    <tag k="highway" v="residential"/>
    <tag k="maxspeed" v="30 mph"/>
  </way>
  <way id="721923307" version="3" timestamp="2023-11-11T09:33:47Z" changeset="143891844" uid="7037" user="Gregory Williams">
    <nd ref="6772045292"/>
    <nd ref="6772045288"/>
    <tag k="highway" v="residential"/>
    <tag k="maxspeed" v="30 mph"/>
    <tag k="name" v="Rogers Close"/>
  </way>
  <way id="721923308" version="4" timestamp="2025-04-20T16:35:46Z" changeset="165203009" uid="7037" user="Gregory Williams">
    <nd ref="6772045293"/>
    <nd ref="6772045294"/>
    <nd ref="7132832637"/>
    <nd ref="5147898188"/>
    <tag k="highway" v="residential"/>
    <tag k="maxspeed" v="30 mph"/>
    <tag k="name" v="Sunshine Corner Avenue"/>
  </way>
  <way id="721923309" version="5" timestamp="2023-11-11T09:43:06Z" changeset="143892086" uid="7037" user="Gregory Williams">
    <nd ref="8704563098"/>
    <nd ref="6837933285"/>
    <nd ref="6772045315"/>
    <tag k="highway" v="residential"/>
    <tag k="maxspeed" v="30 mph"/>
    <tag k="name" v="Davy Street"/>
  </way>
  <way id="721923311" version="6" timestamp="2025-04-20T16:33:02Z" changeset="165202884" uid="7037" user="Gregory Williams">
    <nd ref="6772045302"/>
    <nd ref="6772045303"/>
    <nd ref="6691205928"/>
    <tag k="highway" v="residential"/>
    <tag k="maxspeed" v="30 mph"/>
    <tag k="name" v="Flatsheet Road"/>
  </way>
  <way id="721923314" version="4" timestamp="2025-04-20T16:46:58Z" changeset="165203528" uid="7037" user="Gregory Williams">
    <nd ref="6837918377"/>
    <nd ref="6772045309"/>
    <nd ref="9928880844"/>
    <nd ref="6837918364"/>
    <tag k="highway" v="residential"/>
    <tag k="maxspeed" v="30 mph"/>
    <tag k="name" v="Drift Road"/>
  </way>
  <way id="721923315" version="3" timestamp="2025-04-20T16:33:02Z" changeset="165202884" uid="7037" user="Gregory Williams">
    <nd ref="6772045301"/>
    <nd ref="6772045314"/>
    <nd ref="6772045311"/>
    <tag k="highway" v="residential"/>
    <tag k="maxspeed" v="30 mph"/>
    <tag k="name" v="Lamplight Gardens"/>
  </way>
  <way id="721923316" version="3" timestamp="2025-04-20T16:33:02Z" changeset="165202884" uid="7037" user="Gregory Williams">
    <nd ref="6772045312"/>
    <nd ref="6772045313"/>
    <nd ref="6772045314"/>
    <tag k="highway" v="residential"/>
    <tag k="maxspeed" v="30 mph"/>
    <tag k="name" v="Lamplight Gardens"/>
  </way>
  <way id="725799079" version="5" timestamp="2023-08-04T10:26:10Z" changeset="139434572" uid="8774347" user="Misa_zumba">
    <nd ref="769830691"/>
    <nd ref="769830568"/>
    <nd ref="769830606"/>
    <nd ref="769830661"/>
    <nd ref="6837918372"/>
    <nd ref="769830603"/>
    <nd ref="769830652"/>
    <nd ref="769830566"/>
    <nd ref="769830635"/>
    <nd ref="769830674"/>
    <nd ref="769830704"/>
    <nd ref="1081828510"/>
    <nd ref="769830547"/>
    <nd ref="769830592"/>
    <nd ref="769830712"/>
    <nd ref="769830642"/>
    <nd ref="8704555722"/>
    <nd ref="8704555723"/>
    <nd ref="8704555724"/>
    <nd ref="6805128786"/>
    <tag k="highway" v="residential"/>
    <tag k="lit" v="yes"/>
    <tag k="maxspeed" v="30 mph"/>
    <tag k="name" v="Coniston Drive"/>
    <tag k="source" v="OS_OpenData_StreetView"/>
  </way>
  <way id="725799080" version="3" timestamp="2023-11-11T09:43:06Z" changeset="143892086" uid="7037" user="Gregory Williams">
    <nd ref="6691205915"/>
    <nd ref="6805128797"/>
    <nd ref="6805128798"/>
    <nd ref="6805128799"/>
    <nd ref="6805128800"/>
    <nd ref="6805128801"/>
    <tag k="highway" v="residential"/>
    <tag k="maxspeed" v="30 mph"/>
    <tag k="name" v="Primrose Gardens"/>
  </way>
  <way id="729941646" version="2" timestamp="2023-09-15T00:46:00Z" changeset="141280502" uid="20252098" user="DoubleCart">
    <nd ref="6837918362"/>
    <nd ref="6837933294"/>
    <nd ref="6837918380"/>
    <nd ref="6837918379"/>
    <nd ref="6837918362"/>
    <tag k="building" v="school"/>
    <tag k="name" v="Aylesham Primary School"/>
  </way>
  <way id="729941647" version="2" timestamp="2025-04-20T16:33:02Z" changeset="165202884" uid="7037" user="Gregory Williams">
    <nd ref="6772045310"/>
    <nd ref="6691205925"/>
    <nd ref="12770609774"/>
    <nd ref="6691205924"/>
    <nd ref="6691205923"/>
    <nd ref="8704555739"/>
    <nd ref="6691205922"/>
    <nd ref="8704555738"/>
    <nd ref="12770612726"/>
    <nd ref="12770612728"/>
    <nd ref="6691205921"/>
    <nd ref="6691205920"/>
    <tag k="highway" v="residential"/>
    <tag k="maxspeed" v="30 mph"/>
    <tag k="name" v="Drift Road"/>
  </way>
  <way id="729941649" version="4" timestamp="2025-04-20T16:33:02Z" changeset="165202884" uid="7037" user="Gregory Williams">
    <nd ref="8704563069"/>
    <nd ref="8704563072"/>
    <nd ref="8704563068"/>
    <nd ref="8704563067"/>
    <nd ref="6837918347"/>
    <nd ref="6837918353"/>
    <nd ref="6837918349"/>
    <nd ref="6772045302"/>
    <tag k="highway" v="residential"/>
    <tag k="maxspeed" v="30 mph"/>
    <tag k="name" v="Coalfield Grove"/>
  </way>
  <way id="729941651" version="4" timestamp="2025-04-20T16:33:02Z" changeset="165202884" uid="7037" user="Gregory Williams">
    <nd ref="6772045309"/>
    <nd ref="12770609772"/>
    <nd ref="6772045308"/>
    <nd ref="6837933303"/>
    <nd ref="6772045310"/>
    <tag k="highway" v="residential"/>
    <tag k="maxspeed" v="30 mph"/>
    <tag k="name" v="Drift Road"/>
  </way>
  <way id="729941655" version="4" timestamp="2023-11-11T09:43:06Z" changeset="143892086" uid="7037" user="Gregory Williams">
    <nd ref="6837918369"/>
    <nd ref="6837918351"/>
    <nd ref="6837918359"/>
    <tag k="highway" v="residential"/>
    <tag k="maxspeed" v="30 mph"/>
    <tag k="name" v="Bluebell Drive"/>
  </way>
  <way id="729941656" version="3" timestamp="2023-11-11T09:33:47Z" changeset="143891844" uid="7037" user="Gregory Williams">
    <nd ref="6837918371"/>
    <nd ref="6837918352"/>
    <nd ref="8585093258"/>
    <nd ref="5368211710"/>
    <tag k="highway" v="residential"/>
    <tag k="maxspeed" v="30 mph"/>
    <tag k="name" v="Cordale Road"/>
  </way>
  <way id="729941657" version="5" timestamp="2023-11-11T09:43:06Z" changeset="143892086" uid="7037" user="Gregory Williams">
    <nd ref="6837918348"/>
    <nd ref="8704563085"/>
    <nd ref="6837918361"/>
    <nd ref="6837933292"/>
    <nd ref="6837918373"/>
    <nd ref="6837918384"/>
    <nd ref="6837901963"/>
    <tag k="highway" v="residential"/>
    <tag k="maxspeed" v="30 mph"/>
    <tag k="name" v="Ropeway Drive"/>
  </way>
  <way id="729941658" version="5" timestamp="2025-04-20T16:33:02Z" changeset="165202884" uid="7037" user="Gregory Williams">
    <nd ref="6837918383"/>
    <nd ref="6837918359"/>
    <nd ref="6837933286"/>
    <nd ref="12770609768"/>
    <nd ref="12770609767"/>
    <nd ref="6837933289"/>
    <nd ref="6837918356"/>
    <nd ref="12770609766"/>
    <nd ref="12770609765"/>
    <nd ref="6837918363"/>
    <nd ref="12770609764"/>
    <nd ref="6837918382"/>
    <nd ref="6691205914"/>
    <tag k="highway" v="residential"/>
    <tag k="maxspeed" v="30 mph"/>
    <tag k="name" v="Bluebell Drive"/>
  </way>
  <way id="729941659" version="5" timestamp="2023-11-11T09:43:06Z" changeset="143892086" uid="7037" user="Gregory Williams">
    <nd ref="6772045302"/>
    <nd ref="6837918343"/>
    <nd ref="8704563065"/>
    <nd ref="8704563066"/>
    <nd ref="6837918368"/>
    <nd ref="6837918357"/>
    <nd ref="8704563064"/>
    <nd ref="6837933300"/>
    <nd ref="6837933295"/>
    <nd ref="6772045306"/>
    <nd ref="10575403852"/>
    <nd ref="6837933303"/>
    <tag k="highway" v="residential"/>
    <tag k="maxspeed" v="30 mph"/>
    <tag k="name" v="Millyard Road"/>
  </way>
  <way id="729944320" version="6" timestamp="2023-11-11T09:33:47Z" changeset="143891844" uid="7037" user="Gregory Williams">
    <nd ref="369832807"/>
    <nd ref="9703240262"/>
    <nd ref="9097482927"/>
    <nd ref="9097482938"/>
    <nd ref="9097482937"/>
    <nd ref="9097482926"/>
    <nd ref="11066269892"/>
    <nd ref="9097482935"/>
    <nd ref="9097482932"/>
    <nd ref="9097482925"/>
    <nd ref="11066271982"/>
    <nd ref="6837941719"/>
    <nd ref="5147898167"/>
    <tag k="highway" v="residential"/>
    <tag k="maxspeed" v="30 mph"/>
    <tag k="name" v="Winder Place"/>
  </way>
  <way id="729947439" version="2" timestamp="2023-09-15T16:47:45Z" changeset="141311587" uid="20252098" user="DoubleCart">
    <nd ref="6837993033"/>
    <nd ref="6837993022"/>
    <nd ref="6837993055"/>
    <nd ref="6837993039"/>
    <nd ref="6837993033"/>
    <tag k="building" v="industrial"/>
    <tag k="name" v="Sharpak Aylesham Ltd"/>
  </way>
  <way id="862933082" version="4" timestamp="2023-11-11T09:43:06Z" changeset="143892086" uid="7037" user="Gregory Williams">
    <nd ref="8038942831"/>
    <nd ref="8038942832"/>
    <tag k="highway" v="residential"/>
    <tag k="maxspeed" v="30 mph"/>
    <tag k="name" v="Buckle Drive"/>
  </way>
  <way id="862933083" version="4" timestamp="2023-11-11T09:43:06Z" changeset="143892086" uid="7037" user="Gregory Williams">
    <nd ref="8038942832"/>
    <nd ref="8038942844"/>
    <nd ref="8038942845"/>
    <nd ref="8038942846"/>
    <nd ref="8038942847"/>
    <nd ref="8038942848"/>
    <tag k="highway" v="residential"/>
    <tag k="maxspeed" v="30 mph"/>
    <tag k="name" v="Buckle Drive"/>
  </way>
  <way id="870883618" version="2" timestamp="2021-02-03T15:47:48Z" changeset="98653967" uid="281267" user="smb1001">
    <nd ref="769830575"/>
    <nd ref="8112461542"/>
    <nd ref="8112461541"/>
    <nd ref="8112461540"/>
    <nd ref="769830575"/>
    <tag k="amenity" v="place_of_worship"/>
    <tag k="building" v="church"/>
    <tag k="denomination" v="anglican"/>
    <tag k="name" v="St Peter"/>
    <tag k="religion" v="christian"/>
    <tag k="source" v="OS_OpenData_StreetView"/>
    <tag k="wikidata" v="Q105092443"/>
  </way>
  <way id="902493128" version="4" timestamp="2024-11-15T19:42:14Z" changeset="159184797" uid="20895406" user="HB16">
    <nd ref="8382390769"/>
    <nd ref="8382390766"/>
    <nd ref="12344596967"/>
    <nd ref="11363674566"/>
    <nd ref="8382390767"/>
    <nd ref="8040927457"/>
    <nd ref="8382390768"/>
    <nd ref="8382390769"/>
    <tag k="addr:street" v="Bell Grove"/>
    <tag k="building" v="yes"/>
    <tag k="name" v="Ticket Office"/>
    <tag k="operator" v="National Rail"/>
    <tag k="shop" v="ticket"/>
  </way>
  <way id="939727509" version="2" timestamp="2023-08-04T10:26:10Z" changeset="139434572" uid="8774347" user="Misa_zumba">
    <nd ref="6805128786"/>
    <nd ref="8704555725"/>
    <nd ref="11088866395"/>
    <nd ref="11088866394"/>
    <nd ref="8704555726"/>
    <nd ref="11088866393"/>
    <nd ref="11088866392"/>
    <nd ref="11088866391"/>
    <tag k="highway" v="residential"/>
    <tag k="name" v="Cherry Blossom Way"/>
  </way>
  <way id="939727514" version="2" timestamp="2023-11-11T09:43:06Z" changeset="143892086" uid="7037" user="Gregory Williams">
    <nd ref="6805128797"/>
    <nd ref="8704555734"/>
    <nd ref="8704555735"/>
    <tag k="highway" v="residential"/>
    <tag k="maxspeed" v="30 mph"/>
    <tag k="name" v="Primrose Gardens"/>
  </way>
  <way id="939727515" version="2" timestamp="2023-11-11T09:43:06Z" changeset="143892086" uid="7037" user="Gregory Williams">
    <nd ref="8704555734"/>
    <nd ref="8704555736"/>
    <tag k="highway" v="residential"/>
    <tag k="maxspeed" v="30 mph"/>
    <tag k="name" v="Primrose Gardens"/>
  </way>
  <way id="939727516" version="3" timestamp="2023-11-11T09:43:06Z" changeset="143892086" uid="7037" user="Gregory Williams">
    <nd ref="6691205916"/>
    <nd ref="8704555740"/>
    <nd ref="8704555741"/>
    <nd ref="8704555742"/>
    <nd ref="8704555743"/>
    <nd ref="8704555745"/>
    <nd ref="6837918369"/>
    <tag k="highway" v="residential"/>
    <tag k="maxspeed" v="30 mph"/>
    <tag k="name" v="Mexborough Square"/>
  </way>
  <way id="939727517" version="3" timestamp="2023-11-11T09:43:06Z" changeset="143892086" uid="7037" user="Gregory Williams">
    <nd ref="8704555741"/>
    <nd ref="8704555746"/>
    <nd ref="11066283819"/>
    <nd ref="11066283818"/>
    <nd ref="11066283817"/>
    <nd ref="11066283816"/>
    <nd ref="11066283815"/>
    <nd ref="11066283814"/>
    <nd ref="11066283813"/>
    <nd ref="11066283812"/>
    <nd ref="11066283811"/>
    <nd ref="11066283808"/>
    <nd ref="11066283810"/>
    <nd ref="11066283807"/>
    <nd ref="11066283806"/>
    <nd ref="11066283809"/>
    <nd ref="11066283805"/>
    <nd ref="11066212602"/>
    <nd ref="11066212604"/>
    <nd ref="11066212601"/>
    <nd ref="11066212600"/>
    <nd ref="11066212603"/>
    <nd ref="11066212599"/>
    <nd ref="11066212598"/>
    <nd ref="11066212596"/>
    <nd ref="11066212597"/>
    <nd ref="11066212595"/>
    <nd ref="11066212592"/>
    <nd ref="11066212594"/>
    <nd ref="11066212591"/>
    <nd ref="11066212590"/>
    <nd ref="11066212593"/>
    <nd ref="11066212589"/>
    <nd ref="11066212588"/>
    <nd ref="11066212587"/>
    <nd ref="6837918369"/>
    <tag k="highway" v="residential"/>
    <tag k="maxspeed" v="30 mph"/>
    <tag k="name" v="Mexborough Square"/>
  </way>
  <way id="939730211" version="3" timestamp="2025-04-20T16:33:02Z" changeset="165202884" uid="7037" user="Gregory Williams">
    <nd ref="8704563062"/>
    <nd ref="8704563063"/>
    <tag k="highway" v="residential"/>
    <tag k="maxspeed" v="30 mph"/>
    <tag k="name" v="Canary Grove"/>
  </way>
  <way id="939730213" version="3" timestamp="2025-04-20T16:33:02Z" changeset="165202884" uid="7037" user="Gregory Williams">
    <nd ref="8704563071"/>
    <nd ref="8704563072"/>
    <tag k="highway" v="residential"/>
    <tag k="maxspeed" v="30 mph"/>
    <tag k="name" v="Coalfield Grove"/>
  </way>
  <way id="939730214" version="2" timestamp="2025-04-20T16:35:46Z" changeset="165203009" uid="7037" user="Gregory Williams">
    <nd ref="8704563074"/>
    <nd ref="8704563073"/>
    <nd ref="8704563075"/>
    <tag k="highway" v="residential"/>
    <tag k="maxspeed" v="30 mph"/>
    <tag k="name" v="Canary Grove"/>
  </way>
  <way id="939730215" version="3" timestamp="2025-04-20T16:33:02Z" changeset="165202884" uid="7037" user="Gregory Williams">
    <nd ref="8704563079"/>
    <nd ref="8704563078"/>
    <nd ref="8704563077"/>
    <nd ref="8704563076"/>
    <nd ref="6772045304"/>
    <nd ref="6772045305"/>
    <nd ref="8704563080"/>
    <tag k="highway" v="residential"/>
    <tag k="maxspeed" v="30 mph"/>
    <tag k="name" v="Blue Flame Road"/>
  </way>
  <way id="939730216" version="3" timestamp="2025-04-20T16:33:02Z" changeset="165202884" uid="7037" user="Gregory Williams">
    <nd ref="8704563084"/>
    <nd ref="8704563085"/>
    <tag k="highway" v="residential"/>
    <tag k="maxspeed" v="30 mph"/>
    <tag k="name" v="Ropeway Drive"/>
  </way>
  <way id="939730217" version="3" timestamp="2025-04-20T16:35:46Z" changeset="165203009" uid="7037" user="Gregory Williams">
    <nd ref="8704563092"/>
    <nd ref="8704563093"/>
    <nd ref="8704563094"/>
    <nd ref="8704563095"/>
    <nd ref="8704563096"/>
    <nd ref="6772045293"/>
    <tag k="highway" v="residential"/>
    <tag k="maxspeed" v="30 mph"/>
    <tag k="name" v="Sunshine Corner Avenue"/>
  </way>
  <way id="939730218" version="2" timestamp="2023-11-11T09:33:47Z" changeset="143891844" uid="7037" user="Gregory Williams">
    <nd ref="8704563095"/>
    <nd ref="8704563097"/>
    <tag k="highway" v="residential"/>
    <tag k="maxspeed" v="30 mph"/>
  </way>
  <way id="939730219" version="3" timestamp="2025-04-20T16:33:02Z" changeset="165202884" uid="7037" user="Gregory Williams">
    <nd ref="6837933285"/>
    <nd ref="8704563099"/>
    <tag k="highway" v="residential"/>
    <tag k="maxspeed" v="30 mph"/>
    <tag k="name" v="Davy Street"/>
  </way>
  <way id="978543420" version="1" timestamp="2021-09-01T20:44:27Z" changeset="110584771" uid="13416516" user="Mikey Co">
    <nd ref="31398955"/>
    <nd ref="31398956"/>
    <nd ref="31398957"/>
    <nd ref="2607215727"/>
    <nd ref="31398958"/>
    <nd ref="31398959"/>
    <nd ref="769830604"/>
    <nd ref="559997963"/>
    <nd ref="31398960"/>
    <tag k="highway" v="tertiary"/>
    <tag k="highway_authority_ref" v="C225"/>
    <tag k="lit" v="yes"/>
    <tag k="maxspeed" v="30 mph"/>
    <tag k="name" v="Ackholt Road"/>
  </way>
  <way id="978543421" version="2" timestamp="2024-02-08T17:35:52Z" changeset="147227223" uid="20252098" user="DoubleCart">
    <nd ref="1081828512"/>
    <nd ref="1081828635"/>
    <nd ref="369832710"/>
    <nd ref="369832718"/>
    <nd ref="369832722"/>
    <nd ref="11598964202"/>
    <nd ref="369832726"/>
    <nd ref="369832730"/>
    <nd ref="369832732"/>
    <tag k="highway" v="residential"/>
    <tag k="lit" v="yes"/>
    <tag k="maxspeed" v="30 mph"/>
    <tag k="name" v="Kings Road"/>
    <tag k="source" v="survey"/>
  </way>
  <way id="983867504" version="4" timestamp="2023-11-11T09:43:06Z" changeset="143892086" uid="7037" user="Gregory Williams">
    <nd ref="9097482933"/>
    <nd ref="9097482934"/>
    <nd ref="9097482935"/>
    <tag k="highway" v="residential"/>
    <tag k="maxspeed" v="30 mph"/>
    <tag k="name" v="Fife Way"/>
  </way>
  <way id="983867505" version="2" timestamp="2023-11-11T09:43:06Z" changeset="143892086" uid="7037" user="Gregory Williams">
    <nd ref="9097482932"/>
    <nd ref="9097482936"/>
    <nd ref="9097482937"/>
    <tag k="highway" v="residential"/>
    <tag k="maxspeed" v="30 mph"/>
    <tag k="name" v="Goldthorpe Drive"/>
  </way>
  <way id="983867506" version="2" timestamp="2023-11-11T09:43:06Z" changeset="143892086" uid="7037" user="Gregory Williams">
    <nd ref="9097482938"/>
    <nd ref="9097482939"/>
    <nd ref="9097482942"/>
    <nd ref="9097482940"/>
    <nd ref="9097482941"/>
    <tag k="highway" v="residential"/>
    <tag k="maxspeed" v="30 mph"/>
    <tag k="name" v="Rhondda Vale"/>
  </way>
  <way id="983867507" version="2" timestamp="2023-11-11T09:43:06Z" changeset="143892086" uid="7037" user="Gregory Williams">
    <nd ref="9097482942"/>
    <nd ref="9097482943"/>
    <nd ref="9097482936"/>
    <tag k="highway" v="residential"/>
    <tag k="maxspeed" v="30 mph"/>
    <tag k="name" v="Rhondda Vale"/>
  </way>
  <way id="1025278135" version="1" timestamp="2022-01-27T17:09:52Z" changeset="116675212" uid="8808716" user="20180911">
    <nd ref="331095464"/>
    <nd ref="331095462"/>
    <tag k="highway" v="tertiary"/>
    <tag k="maxspeed" v="60 mph"/>
    <tag k="maxspeed:type" v="GB:nsl_single"/>
    <tag k="name" v="Aylesham Road"/>
    <tag k="surface" v="asphalt"/>
  </way>
  <way id="1033718140" version="3" timestamp="2025-04-20T16:33:02Z" changeset="165202884" uid="7037" user="Gregory Williams">
    <nd ref="6772045315"/>
    <nd ref="6772045297"/>
    <nd ref="6772045295"/>
    <nd ref="6772045296"/>
    <tag k="highway" v="residential"/>
    <tag k="maxspeed" v="30 mph"/>
    <tag k="name" v="Lamplight Gardens"/>
  </way>
  <way id="1056007829" version="3" timestamp="2023-11-11T09:43:06Z" changeset="143892086" uid="7037" user="Gregory Williams">
    <nd ref="9097482932"/>
    <nd ref="9097482933"/>
    <nd ref="9703240264"/>
    <nd ref="9703240265"/>
    <nd ref="11066269893"/>
    <tag k="highway" v="residential"/>
    <tag k="maxspeed" v="30 mph"/>
    <tag k="name" v="Matlock Close"/>
  </way>
  <way id="1056007830" version="3" timestamp="2025-04-04T02:08:58Z" changeset="164487832" uid="20252098" user="DoubleCart">
    <nd ref="5368211704"/>
    <nd ref="12727139547"/>
    <nd ref="11340973707"/>
    <nd ref="11340973705"/>
    <nd ref="11340973706"/>
    <nd ref="9703240268"/>
    <nd ref="9703240270"/>
    <nd ref="9703240269"/>
    <tag k="highway" v="residential"/>
    <tag k="maxspeed" v="30 mph"/>
    <tag k="name" v="Oakdale Way"/>
  </way>
  <way id="1191979869" version="1" timestamp="2023-07-25T06:14:32Z" changeset="138969980" uid="8775772" user="LakatosVL">
    <nd ref="11066271982"/>
    <nd ref="11066271981"/>
    <nd ref="11066271980"/>
    <nd ref="11066271979"/>
    <nd ref="11066271978"/>
    <nd ref="11066271977"/>
    <tag k="highway" v="residential"/>
  </way>
  <way id="1191981234" version="2" timestamp="2023-11-11T09:43:06Z" changeset="143892086" uid="7037" user="Gregory Williams">
    <nd ref="11066283812"/>
    <nd ref="11066247553"/>
    <nd ref="11066247552"/>
    <nd ref="11066247551"/>
    <nd ref="11066247550"/>
    <nd ref="11066247549"/>
    <nd ref="11066247548"/>
    <nd ref="11066247547"/>
    <nd ref="11066247546"/>
    <nd ref="11066247545"/>
    <tag k="highway" v="residential"/>
    <tag k="maxspeed" v="30 mph"/>
    <tag k="name" v="Roe Lane"/>
  </way>
  <way id="1194704797" version="2" timestamp="2025-04-20T16:46:58Z" changeset="165203528" uid="7037" user="Gregory Williams">
    <nd ref="6805128786"/>
    <nd ref="6805128787"/>
    <nd ref="6805128788"/>
    <nd ref="10896016629"/>
    <nd ref="6805128789"/>
    <nd ref="6805128790"/>
    <nd ref="8704555721"/>
    <nd ref="12770632632"/>
    <nd ref="6805128801"/>
    <nd ref="8704555728"/>
    <nd ref="8038942843"/>
    <nd ref="6805128793"/>
    <nd ref="6805128794"/>
    <nd ref="6805128795"/>
    <nd ref="8704555720"/>
    <tag k="highway" v="residential"/>
    <tag k="lit" v="yes"/>
    <tag k="maxspeed" v="30 mph"/>
    <tag k="name" v="Cherry Blossom Way"/>
    <tag k="source" v="OS_OpenData_StreetView"/>
  </way>
  <way id="1195550803" version="3" timestamp="2025-04-20T16:46:58Z" changeset="165203528" uid="7037" user="Gregory Williams">
    <nd ref="8038942832"/>
    <nd ref="8038942833"/>
    <nd ref="8038942834"/>
    <nd ref="8038942835"/>
    <nd ref="8704555733"/>
    <nd ref="8038942836"/>
    <nd ref="8038942837"/>
    <nd ref="8038942840"/>
    <nd ref="8038942841"/>
    <nd ref="12770632639"/>
    <nd ref="8704555730"/>
    <nd ref="8038942842"/>
    <nd ref="8038942843"/>
    <tag k="highway" v="residential"/>
    <tag k="maxspeed" v="30 mph"/>
    <tag k="name" v="Cherry Blossom Way"/>
  </way>
  <way id="1195550804" version="2" timestamp="2023-11-11T09:43:06Z" changeset="143892086" uid="7037" user="Gregory Williams">
    <nd ref="8704563073"/>
    <nd ref="6837901960"/>
    <nd ref="8704563063"/>
    <nd ref="6837955488"/>
    <nd ref="6837918357"/>
    <tag k="highway" v="residential"/>
    <tag k="maxspeed" v="30 mph"/>
    <tag k="name" v="Canary Grove"/>
  </way>
  <way id="1195550805" version="2" timestamp="2023-11-11T09:43:06Z" changeset="143892086" uid="7037" user="Gregory Williams">
    <nd ref="6837901963"/>
    <nd ref="6772045300"/>
    <nd ref="6772045301"/>
    <nd ref="6837918378"/>
    <nd ref="6772045302"/>
    <tag k="highway" v="residential"/>
    <tag k="maxspeed" v="30 mph"/>
    <tag k="name" v="Millyard Road"/>
  </way>
  <way id="1195550807" version="2" timestamp="2023-11-11T09:43:06Z" changeset="143892086" uid="7037" user="Gregory Williams">
    <nd ref="11096639765"/>
    <nd ref="6772045307"/>
    <nd ref="6772045306"/>
    <tag k="highway" v="residential"/>
    <tag k="maxspeed" v="30 mph"/>
    <tag k="name" v="Blue Flame Road"/>
  </way>
  <way id="1195550808" version="2" timestamp="2023-11-11T09:43:06Z" changeset="143892086" uid="7037" user="Gregory Williams">
    <nd ref="6691205920"/>
    <nd ref="6691205912"/>
    <nd ref="6691205913"/>
    <nd ref="6691205914"/>
    <nd ref="6691205915"/>
    <nd ref="6691205916"/>
    <nd ref="6805128785"/>
    <nd ref="6691205917"/>
    <nd ref="6691205918"/>
    <nd ref="11096639766"/>
    <nd ref="11096639767"/>
    <tag k="highway" v="residential"/>
    <tag k="maxspeed" v="30 mph"/>
    <tag k="name" v="Central Boulevard"/>
  </way>
  <way id="1207905148" version="3" timestamp="2023-11-01T18:09:50Z" changeset="143489395" uid="9451067" user="b-jazz-bot">
    <nd ref="11191880995"/>
    <nd ref="11191880996"/>
    <nd ref="11191880997"/>
    <nd ref="11191880998"/>
    <nd ref="11191880999"/>
    <nd ref="11191881000"/>
    <nd ref="11191880995"/>
    <tag k="addr:city" v="Aylesham"/>
    <tag k="addr:postcode" v="CT3 3BE"/>
    <tag k="addr:street" v="Spinney Lane"/>
    <tag k="building" v="yes"/>
    <tag k="leisure" v="fitness_centre"/>
    <tag k="name" v="Aylesham Welfare Leisure Centre"/>
    <tag k="opening_hours" v="Mo-Su 07:00-22:00"/>
    <tag k="phone" v="+441304840661"/>
    <tag k="website" v="https://www.ayleshamwlc.org/"/>
  </way>
  <way id="1207905150" version="2" timestamp="2023-09-16T19:10:36Z" changeset="141355881" uid="20252098" user="DoubleCart">
    <nd ref="11191881005"/>
    <nd ref="11191881006"/>
    <nd ref="11191881007"/>
    <nd ref="11191881017"/>
    <nd ref="11191881015"/>
    <nd ref="11191881016"/>
    <nd ref="11191881008"/>
    <nd ref="11191881009"/>
    <nd ref="11191881010"/>
    <nd ref="11191881011"/>
    <nd ref="11191881012"/>
    <nd ref="11191881013"/>
    <nd ref="11191881014"/>
    <nd ref="11191881005"/>
    <tag k="amenity" v="doctors"/>
    <tag k="building" v="yes"/>
    <tag k="healthcare" v="doctor"/>
    <tag k="healthcare:speciality" v="general"/>
    <tag k="name" v="Aylesham Health Centre"/>
  </way>
  <way id="1207905152" version="1" timestamp="2023-09-15T00:46:00Z" changeset="141280502" uid="20252098" user="DoubleCart">
    <nd ref="11191884141"/>
    <nd ref="11191884139"/>
    <nd ref="11191884140"/>
    <tag k="highway" v="residential"/>
    <tag k="name" v="Greyhound Gardens"/>
    <tag k="oneway" v="no"/>
  </way>
  <way id="1207905170" version="1" timestamp="2023-09-15T00:46:00Z" changeset="141280502" uid="20252098" user="DoubleCart">
    <nd ref="11191884212"/>
    <nd ref="11191884213"/>
    <nd ref="11191884214"/>
    <nd ref="11191884215"/>
    <nd ref="11191884212"/>
    <tag k="addr:city" v="Aylesham"/>
    <tag k="addr:postcode" v="CT3 3EQ"/>
    <tag k="addr:street" v="Covert Road"/>
    <tag k="building" v="commercial"/>
    <tag k="name" v="Woods commercial Services"/>
    <tag k="phone" v="+441304841920"/>
  </way>
  <way id="1207905171" version="1" timestamp="2023-09-15T00:46:00Z" changeset="141280502" uid="20252098" user="DoubleCart">
    <nd ref="11191884216"/>
    <nd ref="11191884217"/>
    <nd ref="11191884218"/>
    <nd ref="11191884219"/>
    <nd ref="11191884216"/>
    <tag k="addr:city" v="Aylesham"/>
    <tag k="addr:postcode" v="CT3 3EP"/>
    <tag k="addr:street" v="Covert Road"/>
    <tag k="building" v="commercial"/>
    <tag k="name" v="YMS Travel"/>
  </way>
  <way id="1208114347" version="1" timestamp="2023-09-15T18:10:19Z" changeset="141314581" uid="20252098" user="DoubleCart">
    <nd ref="11194386606"/>
    <nd ref="11194386607"/>
    <nd ref="11194386608"/>
    <nd ref="11194386609"/>
    <nd ref="11194386606"/>
    <tag k="addr:city" v="Aylesham"/>
    <tag k="addr:housename" v="Central Rescue Station"/>
    <tag k="addr:postcode" v="CT3 3AE"/>
    <tag k="addr:street" v="Dorman Avenue South"/>
    <tag k="building" v="fire_station"/>
    <tag k="name" v="Fire Security Services"/>
  </way>
  <way id="1208988359" version="2" timestamp="2023-11-11T09:43:06Z" changeset="143892086" uid="7037" user="Gregory Williams">
    <nd ref="769830668"/>
    <nd ref="5147898196"/>
    <nd ref="5367892390"/>
    <nd ref="8204104172"/>
    <nd ref="8038942831"/>
    <nd ref="5368044234"/>
    <nd ref="5367888497"/>
    <nd ref="5147898202"/>
    <tag k="highway" v="residential"/>
    <tag k="maxspeed" v="30 mph"/>
    <tag k="name" v="Corminster Avenue"/>
  </way>
  <way id="1290048362" version="1" timestamp="2024-06-06T15:51:35Z" changeset="152338911" uid="21627899" user="skciws">
    <nd ref="11961107581"/>
    <nd ref="11961107582"/>
    <nd ref="11961107583"/>
    <nd ref="11961107584"/>
    <nd ref="11961107585"/>
    <nd ref="11961107586"/>
    <nd ref="11961107587"/>
    <nd ref="11961107588"/>
    <nd ref="11961107581"/>
    <tag k="addr:city" v="Aylesham"/>
    <tag k="addr:housename" v="Unit 4, CT3 Business Park"/>
    <tag k="addr:postcode" v="CT3 3EP"/>
    <tag k="addr:street" v="Cooting Road"/>
    <tag k="building" v="commercial"/>
    <tag k="name" v="Skelton Plant Hire"/>
  </way>
  <way id="1323398321" version="1" timestamp="2024-10-12T11:42:54Z" changeset="157791734" uid="20252098" user="DoubleCart">
    <nd ref="12246076180"/>
    <nd ref="12246076181"/>
    <tag k="highway" v="residential"/>
    <tag k="name" v="Aegle Close"/>
    <tag k="postal_code" v="CT3 3NY"/>
    <tag k="surface" v="asphalt"/>
  </way>
  <way id="1379107837" version="1" timestamp="2025-04-20T12:46:59Z" changeset="165192336" uid="7037" user="Gregory Williams">
    <nd ref="1736523713"/>
    <nd ref="1616808952"/>
    <nd ref="1616808951"/>
    <nd ref="3454686501"/>
    <nd ref="3454686499"/>
    <nd ref="1616808950"/>
    <nd ref="1616808949"/>
    <nd ref="12770300624"/>
    <tag k="highway" v="tertiary"/>
    <tag k="highway_authority_ref" v="C195"/>
    <tag k="lit" v="no"/>
    <tag k="maxspeed" v="60 mph"/>
    <tag k="maxspeed:type" v="GB:nsl_single"/>
    <tag k="name" v="Sandwich Road"/>
    <tag k="surface" v="asphalt"/>
  </way>
  <way id="1379142171" version="1" timestamp="2025-04-20T16:33:02Z" changeset="165202884" uid="7037" user="Gregory Williams">
    <nd ref="6837918355"/>
    <nd ref="12770612711"/>
    <nd ref="6691205928"/>
    <nd ref="12770612729"/>
    <nd ref="6691205927"/>
    <nd ref="8704563083"/>
    <nd ref="6691205926"/>
    <nd ref="6772045310"/>
    <tag k="highway" v="residential"/>
    <tag k="maxspeed" v="30 mph"/>
    <tag k="name" v="Hobnail Path"/>
  </way>
  <way id="1379142181" version="1" timestamp="2025-04-20T16:33:02Z" changeset="165202884" uid="7037" user="Gregory Williams">
    <nd ref="6772045305"/>
    <nd ref="11096639765"/>
    <tag k="highway" v="residential"/>
    <tag k="maxspeed" v="30 mph"/>
    <tag k="name" v="Blue Flame Road"/>
  </way>
  <way id="1379145564" version="1" timestamp="2025-04-20T16:50:00Z" changeset="165203652" uid="7037" user="Gregory Williams">
    <nd ref="12770632247"/>
    <nd ref="12770632246"/>
    <tag k="highway" v="residential"/>
    <tag k="maxspeed" v="30 mph"/>
    <tag k="name" v="Snowdown Close"/>
    <tag k="source:name" v="survey"/>
    <tag k="surface" v="asphalt"/>
  </way>

</osm>
