<?xml version="1.0" encoding="UTF-8"?>
<osm version="0.6" generator="Overpass API 0.7.62.5 1bd436f1">
<note>The data included in this document is from www.openstreetmap.org. The data is made available under ODbL.</note>
<meta osm_base="2025-05-17T22:19:14Z" areas="2024-12-31T00:49:33Z"/>

  <node id="367513" lat="48.8437403" lon="2.3242703" version="18" timestamp="2024-05-15T07:45:25Z" changeset="151345082" uid="311391" user="patman37"/>
  <node id="470150" lat="48.8518682" lon="2.3286248" version="7" timestamp="2018-12-31T17:23:47Z" changeset="65918103" uid="311391" user="patman37">
    <tag k="highway" v="traffic_signals"/>
  </node>
  <node id="470154" lat="48.8482314" lon="2.3201774" version="4" timestamp="2010-06-26T22:24:24Z" changeset="5085109" uid="17286" user="Pieren"/>
  <node id="16820925" lat="48.8450851" lon="2.3201830" version="9" timestamp="2025-03-10T13:38:29Z" changeset="163443193" uid="7512839" user="Benoît C MdP">
    <tag k="highway" v="traffic_signals"/>
  </node>
  <node id="21292425" lat="48.8489858" lon="2.3254183" version="5" timestamp="2010-06-26T21:26:49Z" changeset="5084589" uid="17286" user="Pieren">
    <tag k="highway" v="traffic_signals"/>
  </node>
  <node id="21292426" lat="48.8464930" lon="2.3207293" version="4" timestamp="2010-06-26T21:47:42Z" changeset="5084759" uid="17286" user="Pieren"/>
  <node id="24958702" lat="48.8513677" lon="2.3320553" version="8" timestamp="2019-02-15T17:42:00Z" changeset="67233875" uid="311391" user="patman37"/>
  <node id="24958711" lat="48.8524605" lon="2.3319308" version="9" timestamp="2019-02-15T17:42:00Z" changeset="67233875" uid="311391" user="patman37">
    <tag k="highway" v="traffic_signals"/>
  </node>
  <node id="24958724" lat="48.8512897" lon="2.3329009" version="13" timestamp="2019-09-20T14:47:47Z" changeset="74722009" uid="149398" user="civitano">
    <tag k="highway" v="traffic_signals"/>
  </node>
  <node id="24959042" lat="48.8502604" lon="2.3327209" version="5" timestamp="2019-09-20T14:47:47Z" changeset="74722009" uid="149398" user="civitano">
    <tag k="highway" v="traffic_signals"/>
    <tag k="source" v="BMO 090208"/>
  </node>
  <node id="24959084" lat="48.8484227" lon="2.3316521" version="5" timestamp="2018-12-12T13:58:12Z" changeset="65409675" uid="570635" user="_phiphou_">
    <tag k="highway" v="traffic_signals"/>
  </node>
  <node id="24959152" lat="48.8493544" lon="2.3317322" version="5" timestamp="2019-01-14T13:47:29Z" changeset="66302682" uid="311391" user="patman37"/>
  <node id="24959175" lat="48.8462747" lon="2.3310366" version="2" timestamp="2010-06-24T18:46:20Z" changeset="5068281" uid="17286" user="Pieren"/>
  <node id="24959177" lat="48.8470549" lon="2.3315743" version="5" timestamp="2019-01-26T09:20:18Z" changeset="66651019" uid="311391" user="patman37"/>
  <node id="24965976" lat="48.8413081" lon="2.3330503" version="4" timestamp="2019-01-14T13:17:05Z" changeset="66301860" uid="311391" user="patman37"/>
  <node id="24965978" lat="48.8425856" lon="2.3346225" version="9" timestamp="2023-10-19T19:32:29Z" changeset="142832994" uid="7550430" user="Britzz">
    <tag k="highway" v="traffic_signals"/>
  </node>
  <node id="24966011" lat="48.8402520" lon="2.3361651" version="6" timestamp="2012-09-18T08:49:56Z" changeset="13153061" uid="456113" user="eric_G"/>
  <node id="24966021" lat="48.8410355" lon="2.3361133" version="7" timestamp="2023-03-02T21:23:20Z" changeset="133228513" uid="7550430" user="Britzz"/>
  <node id="24984661" lat="48.8409126" lon="2.3372492" version="12" timestamp="2023-10-12T10:34:43Z" changeset="142472723" uid="7512839" user="Benoît C MdP"/>
  <node id="24984664" lat="48.8403403" lon="2.3369666" version="13" timestamp="2023-10-12T10:34:43Z" changeset="142472723" uid="7512839" user="Benoît C MdP">
    <tag k="highway" v="traffic_signals"/>
  </node>
  <node id="24984818" lat="48.8401372" lon="2.3365935" version="8" timestamp="2020-05-28T08:48:45Z" changeset="85877049" uid="311391" user="patman37">
    <tag k="highway" v="traffic_signals"/>
  </node>
  <node id="25255322" lat="48.8507419" lon="2.3271311" version="6" timestamp="2018-12-31T17:19:38Z" changeset="65918011" uid="311391" user="patman37">
    <tag k="highway" v="traffic_signals"/>
  </node>
  <node id="25255856" lat="48.8492250" lon="2.3258510" version="6" timestamp="2010-06-26T21:26:47Z" changeset="5084589" uid="17286" user="Pieren"/>
  <node id="25255888" lat="48.8473943" lon="2.3181919" version="9" timestamp="2010-07-04T20:52:07Z" changeset="5137197" uid="17286" user="Pieren"/>
  <node id="25255897" lat="48.8468810" lon="2.3214715" version="6" timestamp="2010-06-26T21:47:43Z" changeset="5084759" uid="17286" user="Pieren"/>
  <node id="25256083" lat="48.8468104" lon="2.3261393" version="8" timestamp="2025-03-10T13:38:29Z" changeset="163443193" uid="7512839" user="Benoît C MdP"/>
  <node id="27018634" lat="48.8431125" lon="2.3264298" version="10" timestamp="2010-10-25T12:52:58Z" changeset="6172071" uid="33634" user="lapinos03">
    <tag k="highway" v="traffic_signals"/>
  </node>
  <node id="36593698" lat="48.8421147" lon="2.3294369" version="12" timestamp="2019-01-25T17:04:13Z" changeset="66637743" uid="311391" user="patman37">
    <tag k="highway" v="traffic_signals"/>
  </node>
  <node id="244495387" lat="48.8514115" lon="2.3267964" version="10" timestamp="2024-01-04T23:06:26Z" changeset="145900534" uid="7550430" user="Britzz">
    <tag k="highway" v="traffic_signals"/>
    <tag k="traffic_signals" v="signal"/>
  </node>
  <node id="260568408" lat="48.8440984" lon="2.3237658" version="22" timestamp="2025-01-02T11:08:29Z" changeset="160901899" uid="15118949" user="Nzau">
    <tag k="button_operated" v="no"/>
    <tag k="crossing" v="traffic_signals"/>
    <tag k="crossing:island" v="no"/>
    <tag k="crossing:markings" v="zebra"/>
    <tag k="highway" v="crossing"/>
    <tag k="kerb" v="lowered"/>
    <tag k="source" v="survey"/>
    <tag k="tactile_paving" v="yes"/>
    <tag k="traffic_signals:sound" v="no"/>
  </node>
  <node id="317716023" lat="48.8443847" lon="2.3328866" version="6" timestamp="2019-01-02T08:50:00Z" changeset="65952011" uid="311391" user="patman37"/>
  <node id="471617402" lat="48.8418681" lon="2.3297256" version="10" timestamp="2019-01-25T17:04:13Z" changeset="66637743" uid="311391" user="patman37">
    <tag k="highway" v="traffic_signals"/>
  </node>
  <node id="786142279" lat="48.8520856" lon="2.3298830" version="7" timestamp="2024-01-03T17:25:10Z" changeset="145848702" uid="1205555" user="benoitdd">
    <tag k="highway" v="traffic_signals"/>
    <tag k="junction" v="yes"/>
    <tag k="name" v="Place Michel Debré"/>
    <tag k="old_name" v="Carrefour de la Croix Rouge"/>
    <tag k="source" v="cadastre-dgi-fr source : Direction Générale des Impôts - Cadastre. Mise à jour : 2010"/>
    <tag k="wikidata" v="Q3389993"/>
  </node>
  <node id="788760763" lat="48.8397473" lon="2.3365696" version="6" timestamp="2024-05-25T17:50:02Z" changeset="151822240" uid="311391" user="patman37">
    <tag k="source" v="cadastre-dgi-fr source : Direction Générale des Impôts - Cadastre. Mise à jour : 2010"/>
  </node>
  <node id="788761952" lat="48.8396844" lon="2.3367556" version="12" timestamp="2024-05-25T17:50:02Z" changeset="151822240" uid="311391" user="patman37">
    <tag k="source" v="cadastre-dgi-fr source : Direction Générale des Impôts - Cadastre. Mise à jour : 2010"/>
  </node>
  <node id="790499032" lat="48.8419560" lon="2.3296979" version="6" timestamp="2019-01-25T17:04:13Z" changeset="66637743" uid="311391" user="patman37"/>
  <node id="1294327278" lat="48.8465170" lon="2.3172163" version="3" timestamp="2019-03-20T11:50:26Z" changeset="68332717" uid="412560" user="Meersbrook"/>
  <node id="6349517772" lat="48.8467767" lon="2.3165944" version="1" timestamp="2019-03-20T11:50:24Z" changeset="68332717" uid="412560" user="Meersbrook"/>
  <node id="6349517795" lat="48.8468618" lon="2.3169029" version="2" timestamp="2019-12-07T09:01:18Z" changeset="78081645" uid="311391" user="patman37"/>
  <node id="6639716455" lat="48.8500364" lon="2.3317804" version="1" timestamp="2019-07-23T07:41:09Z" changeset="72543134" uid="4346095" user="jerome92370"/>
  <way id="4039233" version="28" timestamp="2023-12-31T20:14:05Z" changeset="145745342" uid="53964" user="_Mathieu_">
    <nd ref="16820924"/>
    <nd ref="4090974138"/>
    <nd ref="6291069658"/>
    <nd ref="4090974130"/>
    <nd ref="11042019371"/>
    <nd ref="24959161"/>
    <nd ref="11042019365"/>
    <nd ref="6291704576"/>
    <nd ref="6291704564"/>
    <nd ref="24959172"/>
    <nd ref="4090974107"/>
    <nd ref="6291071076"/>
    <nd ref="4090974093"/>
    <nd ref="27018633"/>
    <nd ref="11042019361"/>
    <nd ref="4090974090"/>
    <nd ref="25256318"/>
    <tag k="bicycle:lanes" v="yes|designated"/>
    <tag k="busway:right" v="lane"/>
    <tag k="cycleway:left" v="no"/>
    <tag k="cycleway:right" v="share_busway"/>
    <tag k="dual_carriageway" v="yes"/>
    <tag k="highway" v="secondary"/>
    <tag k="lanes" v="2"/>
    <tag k="lit" v="yes"/>
    <tag k="maxspeed" v="30"/>
    <tag k="name" v="Boulevard Raspail"/>
    <tag k="name:etymology:wikidata" v="Q682230"/>
    <tag k="oneway" v="yes"/>
    <tag k="psv:lanes" v="yes|designated"/>
    <tag k="sidewalk:left" v="no"/>
    <tag k="sidewalk:right" v="separate"/>
    <tag k="source:maxspeed" v="FR:urban"/>
    <tag k="surface" v="asphalt"/>
  </way>
  <way id="4039380" version="35" timestamp="2023-04-26T09:15:48Z" changeset="135376069" uid="311391" user="patman37">
    <nd ref="36593698"/>
    <nd ref="254129778"/>
    <tag k="busway:right" v="lane"/>
    <tag k="cycleway:right" v="share_busway"/>
    <tag k="dual_carriageway" v="yes"/>
    <tag k="foot" v="no"/>
    <tag k="highway" v="primary"/>
    <tag k="lanes" v="2"/>
    <tag k="lit" v="yes"/>
    <tag k="maxspeed" v="30"/>
    <tag k="name" v="Boulevard Raspail"/>
    <tag k="oneway" v="yes"/>
    <tag k="shoulder" v="no"/>
    <tag k="sidewalk" v="no"/>
    <tag k="smoothness" v="good"/>
    <tag k="source:maxspeed" v="sign"/>
    <tag k="surface" v="asphalt"/>
  </way>
  <way id="4039815" version="29" timestamp="2024-04-16T01:31:53Z" changeset="150062528" uid="2678738" user="fgouget">
    <nd ref="367521"/>
    <nd ref="4942457174"/>
    <nd ref="4865355946"/>
    <nd ref="4942457165"/>
    <nd ref="25254130"/>
    <nd ref="786142279"/>
    <tag k="cycleway:left" v="lane"/>
    <tag k="cycleway:left:lane" v="exclusive"/>
    <tag k="cycleway:left:oneway" v="-1"/>
    <tag k="highway" v="tertiary"/>
    <tag k="lanes" v="2"/>
    <tag k="lit" v="yes"/>
    <tag k="maxspeed" v="30"/>
    <tag k="name" v="Rue du Vieux Colombier"/>
    <tag k="oneway" v="yes"/>
    <tag k="oneway:bicycle" v="no"/>
    <tag k="sidewalk:both" v="separate"/>
    <tag k="surface" v="asphalt"/>
  </way>
  <way id="4212165" version="23" timestamp="2024-03-27T15:32:45Z" changeset="149231251" uid="2678738" user="fgouget">
    <nd ref="24959042"/>
    <nd ref="6176953951"/>
    <nd ref="5513296056"/>
    <nd ref="24959061"/>
    <tag k="cycleway:both" v="no"/>
    <tag k="highway" v="residential"/>
    <tag k="lanes" v="2"/>
    <tag k="maxspeed" v="30"/>
    <tag k="name" v="Rue de Mézières"/>
    <tag k="service" v="alley"/>
    <tag k="sidewalk:both" v="separate"/>
    <tag k="surface" v="asphalt"/>
  </way>
  <way id="4212166" version="19" timestamp="2024-06-06T01:03:50Z" changeset="152308811" uid="2678738" user="fgouget">
    <nd ref="24959085"/>
    <nd ref="2789010253"/>
    <nd ref="6639856524"/>
    <tag k="cycleway:left" v="opposite"/>
    <tag k="highway" v="residential"/>
    <tag k="lanes" v="1"/>
    <tag k="lit" v="yes"/>
    <tag k="maxspeed" v="30"/>
    <tag k="name" v="Rue Cassette"/>
    <tag k="oneway" v="yes"/>
    <tag k="oneway:bicycle" v="no"/>
    <tag k="service" v="alley"/>
    <tag k="sidewalk:both" v="separate"/>
    <tag k="source:maxspeed" v="FR:urban"/>
    <tag k="surface" v="asphalt"/>
  </way>
  <way id="4212167" version="22" timestamp="2024-04-16T01:32:25Z" changeset="150062528" uid="2678738" user="fgouget">
    <nd ref="24959056"/>
    <nd ref="8119107006"/>
    <nd ref="785544206"/>
    <nd ref="785542539"/>
    <nd ref="11366807859"/>
    <nd ref="8119107008"/>
    <nd ref="24959058"/>
    <tag k="cycleway:left" v="opposite"/>
    <tag k="cycleway:right" v="no"/>
    <tag k="highway" v="residential"/>
    <tag k="lanes" v="1"/>
    <tag k="lit" v="yes"/>
    <tag k="maxspeed" v="30"/>
    <tag k="name" v="Rue Marie Pape-Carpantier"/>
    <tag k="oneway" v="yes"/>
    <tag k="oneway:bicycle" v="no"/>
    <tag k="service" v="alley"/>
    <tag k="sidewalk:both" v="separate"/>
    <tag k="surface" v="asphalt"/>
  </way>
  <way id="4212168" version="34" timestamp="2023-12-31T20:14:29Z" changeset="145745342" uid="53964" user="_Mathieu_">
    <nd ref="27018632"/>
    <nd ref="4260205643"/>
    <nd ref="24966000"/>
    <nd ref="11042185483"/>
    <nd ref="11042032151"/>
    <nd ref="24965947"/>
    <nd ref="11042032153"/>
    <nd ref="24959190"/>
    <nd ref="6291704569"/>
    <nd ref="11042019343"/>
    <nd ref="24959189"/>
    <nd ref="4692661265"/>
    <nd ref="6291704540"/>
    <nd ref="11042019350"/>
    <nd ref="24959181"/>
    <tag k="bicycle:lanes" v="yes|designated"/>
    <tag k="busway:right" v="lane"/>
    <tag k="cycleway:left" v="no"/>
    <tag k="cycleway:right" v="share_busway"/>
    <tag k="dual_carriageway" v="yes"/>
    <tag k="highway" v="secondary"/>
    <tag k="lanes" v="2"/>
    <tag k="lit" v="yes"/>
    <tag k="maxspeed" v="30"/>
    <tag k="name" v="Boulevard Raspail"/>
    <tag k="name:etymology:wikidata" v="Q682230"/>
    <tag k="oneway" v="yes"/>
    <tag k="psv:lanes" v="yes|designated"/>
    <tag k="sidewalk:left" v="no"/>
    <tag k="sidewalk:right" v="separate"/>
    <tag k="surface" v="asphalt"/>
  </way>
  <way id="4212170" version="22" timestamp="2024-02-15T09:59:41Z" changeset="147483293" uid="8874984" user="anyroka">
    <nd ref="24959174"/>
    <nd ref="4090974094"/>
    <nd ref="8119081361"/>
    <nd ref="24959168"/>
    <tag k="cycleway:left" v="lane"/>
    <tag k="cycleway:left:lane" v="exclusive"/>
    <tag k="cycleway:left:oneway" v="-1"/>
    <tag k="cycleway:right" v="no"/>
    <tag k="highway" v="residential"/>
    <tag k="lit" v="yes"/>
    <tag k="maxspeed" v="30"/>
    <tag k="name" v="Rue Huysmans"/>
    <tag k="oneway" v="yes"/>
    <tag k="oneway:bicycle" v="no"/>
    <tag k="sidewalk:both" v="separate"/>
    <tag k="sidewalk:both:surface" v="asphalt"/>
    <tag k="smoothness" v="excellent"/>
    <tag k="source:maxspeed" v="survey"/>
    <tag k="surface" v="asphalt"/>
    <tag k="zone:maxspeed" v="FR:30"/>
  </way>
  <way id="4212176" version="22" timestamp="2024-09-04T15:13:00Z" changeset="156192095" uid="660521" user="konfiot">
    <nd ref="24959169"/>
    <nd ref="6190127280"/>
    <nd ref="2789010236"/>
    <nd ref="24959085"/>
    <tag k="cycleway:both" v="no"/>
    <tag k="highway" v="residential"/>
    <tag k="lanes" v="1"/>
    <tag k="lit" v="yes"/>
    <tag k="maxspeed" v="30"/>
    <tag k="name" v="Rue Jean Bart"/>
    <tag k="name:etymology:wikidata" v="Q333388"/>
    <tag k="oneway" v="yes"/>
    <tag k="sidewalk:both" v="separate"/>
    <tag k="smoothness" v="good"/>
    <tag k="surface" v="asphalt"/>
  </way>
  <way id="4212177" version="18" timestamp="2023-12-31T20:15:11Z" changeset="145745342" uid="53964" user="_Mathieu_">
    <nd ref="25256297"/>
    <nd ref="4090974105"/>
    <nd ref="6291704575"/>
    <nd ref="4090974108"/>
    <nd ref="24959172"/>
    <nd ref="24959163"/>
    <tag k="cycleway:both" v="no"/>
    <tag k="highway" v="residential"/>
    <tag k="lanes" v="1"/>
    <tag k="lit" v="yes"/>
    <tag k="maxspeed" v="30"/>
    <tag k="name" v="Rue de Fleurus"/>
    <tag k="oneway" v="yes"/>
    <tag k="oneway:bicycle" v="no"/>
    <tag k="sidewalk:both" v="separate"/>
    <tag k="source:maxspeed" v="FR:urban"/>
    <tag k="surface" v="asphalt"/>
  </way>
  <way id="4212181" version="15" timestamp="2023-12-31T20:14:51Z" changeset="145745342" uid="53964" user="_Mathieu_">
    <nd ref="24959190"/>
    <nd ref="6327396023"/>
    <nd ref="8119081358"/>
    <nd ref="24959184"/>
    <tag k="cycleway" v="opposite"/>
    <tag k="highway" v="residential"/>
    <tag k="lit" v="yes"/>
    <tag k="maxspeed" v="30"/>
    <tag k="name" v="Rue Sainte-Beuve"/>
    <tag k="name:etymology:wikidata" v="Q1063392"/>
    <tag k="oneway" v="yes"/>
    <tag k="oneway:bicycle" v="no"/>
    <tag k="sidewalk:both" v="separate"/>
    <tag k="surface" v="asphalt"/>
    <tag k="zone:maxspeed" v="FR:30"/>
  </way>
  <way id="4216668" version="18" timestamp="2024-03-27T13:47:14Z" changeset="149226150" uid="2678738" user="fgouget">
    <nd ref="24966000"/>
    <nd ref="6327402976"/>
    <nd ref="666317850"/>
    <nd ref="24965951"/>
    <nd ref="1968201934"/>
    <nd ref="6178062120"/>
    <nd ref="6178062122"/>
    <nd ref="24959185"/>
    <tag k="cycleway" v="opposite"/>
    <tag k="highway" v="residential"/>
    <tag k="lit" v="yes"/>
    <tag k="maxspeed" v="30"/>
    <tag k="name" v="Rue Bréa"/>
    <tag k="oneway" v="yes"/>
    <tag k="oneway:bicycle" v="no"/>
    <tag k="sidewalk:both" v="separate"/>
    <tag k="surface" v="asphalt"/>
    <tag k="zone:maxspeed" v="FR:30"/>
  </way>
  <way id="4216669" version="14" timestamp="2024-03-27T13:46:47Z" changeset="149226150" uid="2678738" user="fgouget">
    <nd ref="24965951"/>
    <nd ref="6178062138"/>
    <nd ref="24965954"/>
    <nd ref="6799913879"/>
    <nd ref="24965958"/>
    <tag k="cycleway" v="opposite"/>
    <tag k="highway" v="residential"/>
    <tag k="maxspeed" v="30"/>
    <tag k="name" v="Rue Jules Chaplain"/>
    <tag k="oneway" v="yes"/>
    <tag k="oneway:bicycle" v="no"/>
    <tag k="sidewalk:both" v="separate"/>
    <tag k="surface" v="asphalt"/>
    <tag k="zone:maxspeed" v="FR:30"/>
  </way>
  <way id="4216679" version="17" timestamp="2024-05-09T16:41:26Z" changeset="151109487" uid="6290466" user="benjamintchik">
    <nd ref="24966011"/>
    <nd ref="6207730285"/>
    <nd ref="6233795338"/>
    <nd ref="24966021"/>
    <tag k="cycleway" v="opposite"/>
    <tag k="highway" v="residential"/>
    <tag k="lit" v="yes"/>
    <tag k="maxspeed" v="30"/>
    <tag k="name" v="Avenue de l'Observatoire"/>
    <tag k="name:etymology:wikidata" v="Q461340"/>
    <tag k="oneway" v="yes"/>
    <tag k="oneway:bicycle" v="no"/>
    <tag k="sidewalk:left" v="separate"/>
    <tag k="sidewalk:right" v="yes"/>
    <tag k="source:maxspeed" v="opendata.paris.fr"/>
    <tag k="surface" v="asphalt"/>
    <tag k="zone:maxspeed" v="FR:30"/>
  </way>
  <way id="4216680" version="14" timestamp="2023-04-13T15:45:14Z" changeset="134868476" uid="657596" user="taxi301">
    <nd ref="24984664"/>
    <nd ref="24984820"/>
    <tag k="cycleway:both" v="no"/>
    <tag k="highway" v="residential"/>
    <tag k="lane_markings" v="no"/>
    <tag k="lit" v="yes"/>
    <tag k="maxspeed" v="30"/>
    <tag k="name" v="Rue d'Assas"/>
    <tag k="oneway" v="yes"/>
    <tag k="sidewalk" v="separate"/>
    <tag k="surface" v="asphalt"/>
  </way>
  <way id="4216682" version="18" timestamp="2024-03-27T15:29:02Z" changeset="149231251" uid="2678738" user="fgouget">
    <nd ref="24965978"/>
    <nd ref="2140279513"/>
    <nd ref="2140279512"/>
    <nd ref="24965974"/>
    <tag k="cycleway" v="opposite"/>
    <tag k="highway" v="residential"/>
    <tag k="lit" v="yes"/>
    <tag k="maxspeed" v="30"/>
    <tag k="name" v="Rue Joseph Bara"/>
    <tag k="oneway" v="yes"/>
    <tag k="oneway:bicycle" v="no"/>
    <tag k="sidewalk:both" v="separate"/>
    <tag k="surface" v="asphalt"/>
    <tag k="zone:maxspeed" v="FR:30"/>
  </way>
  <way id="4216683" version="22" timestamp="2024-09-04T15:13:32Z" changeset="156192095" uid="660521" user="konfiot">
    <nd ref="24965976"/>
    <nd ref="6207729382"/>
    <nd ref="243463969"/>
    <nd ref="11042019404"/>
    <nd ref="24965981"/>
    <tag k="cycleway" v="opposite"/>
    <tag k="highway" v="residential"/>
    <tag k="lit" v="yes"/>
    <tag k="maxspeed" v="30"/>
    <tag k="name" v="Rue Le Verrier"/>
    <tag k="name:etymology:wikidata" v="Q104154"/>
    <tag k="oneway" v="yes"/>
    <tag k="oneway:bicycle" v="no"/>
    <tag k="sidewalk:both" v="separate"/>
    <tag k="surface" v="asphalt"/>
    <tag k="zone:maxspeed" v="FR:30"/>
  </way>
  <way id="4216686" version="29" timestamp="2024-08-15T17:22:30Z" changeset="155293930" uid="11963177" user="JeroenvanderGun">
    <nd ref="24984661"/>
    <nd ref="5337753751"/>
    <nd ref="2636440916"/>
    <nd ref="11257263672"/>
    <nd ref="24984820"/>
    <tag k="busway:right" v="lane"/>
    <tag k="cycleway:left" v="no"/>
    <tag k="cycleway:right" v="share_busway"/>
    <tag k="dual_carriageway" v="yes"/>
    <tag k="enforcement:operator" v="Police nationale"/>
    <tag k="highway" v="primary"/>
    <tag k="lanes" v="2"/>
    <tag k="lit" v="yes"/>
    <tag k="maxspeed" v="30"/>
    <tag k="name" v="Avenue de l'Observatoire"/>
    <tag k="name:etymology:wikidata" v="Q461340"/>
    <tag k="oneway" v="yes"/>
    <tag k="operator" v="Ville de Paris"/>
    <tag k="operator:authority" v="Maire de Paris dans le respect des prescriptions prises par le préfet de police"/>
    <tag k="operator:authority:related_law" v="III de l'article L. 2512-14 du code général des collectivités territoriales"/>
    <tag k="sidewalk" v="separate"/>
    <tag k="source:maxspeed" v="FR:urban"/>
    <tag k="source:operator:authority" v="https://www.legifrance.gouv.fr/loda/id/LEGIARTI000035244298/#LEGIARTI000035244298"/>
    <tag k="surface" v="asphalt"/>
    <tag k="zone:traffic" v="FR:urban"/>
  </way>
  <way id="4216687" version="15" timestamp="2023-04-13T15:45:08Z" changeset="134868476" uid="657596" user="taxi301">
    <nd ref="24984818"/>
    <nd ref="24984668"/>
    <tag k="cycleway:both" v="no"/>
    <tag k="highway" v="residential"/>
    <tag k="lane_markings" v="no"/>
    <tag k="lit" v="yes"/>
    <tag k="maxspeed" v="30"/>
    <tag k="name" v="Rue Notre-Dame-des-Champs"/>
    <tag k="oneway" v="yes"/>
    <tag k="sidewalk" v="separate"/>
    <tag k="surface" v="asphalt"/>
  </way>
  <way id="4251151" version="26" timestamp="2024-02-06T18:35:24Z" changeset="147146774" uid="3834000" user="cartoleo">
    <nd ref="24959160"/>
    <nd ref="2631247514"/>
    <nd ref="4692661264"/>
    <nd ref="4692661263"/>
    <nd ref="11022864789"/>
    <nd ref="25255325"/>
    <tag k="bicycle:lanes" v="yes|designated"/>
    <tag k="busway:right" v="lane"/>
    <tag k="cycleway:right" v="share_busway"/>
    <tag k="dual_carriageway" v="yes"/>
    <tag k="highway" v="secondary"/>
    <tag k="lanes" v="2"/>
    <tag k="lit" v="yes"/>
    <tag k="maxspeed" v="30"/>
    <tag k="name" v="Boulevard Raspail"/>
    <tag k="name:etymology:wikidata" v="Q682230"/>
    <tag k="oneway" v="yes"/>
    <tag k="psv:lanes" v="yes|designated"/>
    <tag k="sidewalk:both" v="separate"/>
    <tag k="smoothness" v="good"/>
    <tag k="surface" v="asphalt"/>
  </way>
  <way id="4251160" version="12" timestamp="2024-04-01T14:11:58Z" changeset="149436432" uid="6290466" user="benjamintchik">
    <nd ref="25255449"/>
    <nd ref="1757017556"/>
    <nd ref="25255322"/>
    <tag k="cycleway:both" v="no"/>
    <tag k="highway" v="secondary"/>
    <tag k="lane_markings" v="no"/>
    <tag k="maxspeed" v="30"/>
    <tag k="name" v="Boulevard Raspail"/>
    <tag k="name:etymology:wikidata" v="Q682230"/>
    <tag k="sidewalk" v="no"/>
    <tag k="source:maxspeed" v="FR:urban"/>
    <tag k="surface" v="asphalt"/>
  </way>
  <way id="4262857" version="16" timestamp="2023-12-31T20:09:58Z" changeset="145745342" uid="53964" user="_Mathieu_">
    <nd ref="25255328"/>
    <nd ref="4090974161"/>
    <nd ref="8129809896"/>
    <nd ref="24959082"/>
    <tag k="cycleway:left" v="opposite"/>
    <tag k="cycleway:right" v="no"/>
    <tag k="highway" v="residential"/>
    <tag k="maxspeed" v="30"/>
    <tag k="name" v="Rue Coëtlogon"/>
    <tag k="name:br" v="Straed Koedlogon"/>
    <tag k="oneway" v="yes"/>
    <tag k="oneway:bicycle" v="no"/>
    <tag k="sidewalk:both" v="separate"/>
    <tag k="source:maxspeed" v="FR:urban"/>
    <tag k="surface" v="asphalt"/>
  </way>
  <way id="4262858" version="20" timestamp="2023-12-31T20:18:04Z" changeset="145745342" uid="53964" user="_Mathieu_">
    <nd ref="25256377"/>
    <nd ref="4090973866"/>
    <nd ref="4090973863"/>
    <nd ref="25256381"/>
    <tag k="cycleway:left" v="opposite"/>
    <tag k="cycleway:right" v="no"/>
    <tag k="highway" v="residential"/>
    <tag k="lit" v="yes"/>
    <tag k="maxspeed" v="30"/>
    <tag k="name" v="Rue de Cicé"/>
    <tag k="oneway" v="yes"/>
    <tag k="oneway:bicycle" v="no"/>
    <tag k="sidewalk:both" v="separate"/>
    <tag k="surface" v="asphalt"/>
  </way>
  <way id="4262859" version="37" timestamp="2023-12-19T16:47:31Z" changeset="145299514" uid="1424448" user="nlehuby">
    <nd ref="7366949983"/>
    <nd ref="11042032504"/>
    <nd ref="6132756146"/>
    <nd ref="6795782404"/>
    <nd ref="25256297"/>
    <nd ref="4090974103"/>
    <nd ref="6795786285"/>
    <nd ref="249880361"/>
    <nd ref="25256332"/>
    <nd ref="6797497788"/>
    <nd ref="6327340276"/>
    <nd ref="25256363"/>
    <tag k="cycleway:left" v="lane"/>
    <tag k="cycleway:left:lane" v="advisory"/>
    <tag k="cycleway:left:oneway" v="-1"/>
    <tag k="cycleway:right" v="no"/>
    <tag k="highway" v="residential"/>
    <tag k="lanes" v="1"/>
    <tag k="lit" v="yes"/>
    <tag k="maxspeed" v="30"/>
    <tag k="name" v="Rue Notre-Dame-des-Champs"/>
    <tag k="oneway" v="yes"/>
    <tag k="oneway:bicycle" v="no"/>
    <tag k="sidewalk" v="separate"/>
    <tag k="source:maxspeed" v="FR:urban"/>
    <tag k="surface" v="asphalt"/>
  </way>
  <way id="4262863" version="15" timestamp="2025-02-28T15:07:49Z" changeset="163056542" uid="2678738" user="fgouget">
    <nd ref="25255888"/>
    <nd ref="4090974129"/>
    <nd ref="4090974096"/>
    <nd ref="25255896"/>
    <tag k="cycleway" v="opposite"/>
    <tag k="highway" v="residential"/>
    <tag k="lit" v="yes"/>
    <tag k="maxspeed" v="30"/>
    <tag k="name" v="Rue Mayet"/>
    <tag k="oneway" v="yes"/>
    <tag k="oneway:bicycle" v="no"/>
    <tag k="sidewalk:both" v="separate"/>
    <tag k="source:maxspeed" v="BMO arrêté n°2010-151"/>
    <tag k="surface" v="asphalt"/>
    <tag k="zone:maxspeed" v="FR:30"/>
  </way>
  <way id="4262864" version="21" timestamp="2025-02-28T15:07:54Z" changeset="163056542" uid="2678738" user="fgouget">
    <nd ref="21292426"/>
    <nd ref="4090974106"/>
    <nd ref="11042060258"/>
    <nd ref="25255890"/>
    <tag k="cycleway" v="opposite"/>
    <tag k="highway" v="residential"/>
    <tag k="lit" v="yes"/>
    <tag k="maxspeed" v="30"/>
    <tag k="name" v="Rue Saint-Jean-Baptiste de la Salle"/>
    <tag k="name:etymology:wikidata" v="Q312758"/>
    <tag k="oneway" v="yes"/>
    <tag k="oneway:bicycle" v="no"/>
    <tag k="ref:FR:FANTOIR" v="751068653T"/>
    <tag k="sidewalk:both" v="separate"/>
    <tag k="source:maxspeed" v="BMO arrêté n°2010-151"/>
    <tag k="surface" v="asphalt"/>
    <tag k="wikidata" v="Q3449899"/>
    <tag k="zone:maxspeed" v="FR:30"/>
  </way>
  <way id="4262865" version="19" timestamp="2025-02-28T15:07:58Z" changeset="163056549" uid="2678738" user="fgouget">
    <nd ref="470154"/>
    <nd ref="2734029739"/>
    <nd ref="792041053"/>
    <nd ref="6823183062"/>
    <nd ref="25255897"/>
    <tag k="cycleway:both" v="no"/>
    <tag k="highway" v="residential"/>
    <tag k="lit" v="yes"/>
    <tag k="maxspeed" v="30"/>
    <tag k="name" v="Rue Saint-Romain"/>
    <tag k="oneway" v="yes"/>
    <tag k="oneway:bicycle" v="no"/>
    <tag k="sidewalk:both" v="separate"/>
    <tag k="source:maxspeed" v="BMO arrêté n°2010-151"/>
    <tag k="surface" v="asphalt"/>
    <tag k="zone:maxspeed" v="FR:30"/>
  </way>
  <way id="4262868" version="13" timestamp="2023-12-31T20:11:44Z" changeset="145745342" uid="53964" user="_Mathieu_">
    <nd ref="25255856"/>
    <nd ref="2734029749"/>
    <nd ref="2734029785"/>
    <nd ref="25255855"/>
    <tag k="cycleway" v="opposite"/>
    <tag k="highway" v="residential"/>
    <tag k="lit" v="yes"/>
    <tag k="maxspeed" v="30"/>
    <tag k="name" v="Rue Dupin"/>
    <tag k="oneway" v="yes"/>
    <tag k="oneway:bicycle" v="no"/>
    <tag k="sidewalk:both" v="separate"/>
    <tag k="surface" v="asphalt"/>
    <tag k="zone:maxspeed" v="FR:30"/>
  </way>
  <way id="4262869" version="30" timestamp="2024-10-19T12:41:33Z" changeset="158088457" uid="15118949" user="Nzau">
    <nd ref="25256077"/>
    <nd ref="3880895421"/>
    <nd ref="6132777194"/>
    <nd ref="25256078"/>
    <nd ref="6410198440"/>
    <tag k="bicycle:backward" v="use_sidepath"/>
    <tag k="highway" v="secondary"/>
    <tag k="lanes" v="1"/>
    <tag k="lit" v="yes"/>
    <tag k="maxspeed" v="30"/>
    <tag k="name" v="Rue de Vaugirard"/>
    <tag k="oneway" v="yes"/>
    <tag k="sidewalk:both" v="separate"/>
    <tag k="smoothness" v="excellent"/>
    <tag k="source:maxspeed" v="FR:urban"/>
    <tag k="surface" v="asphalt"/>
  </way>
  <way id="4262871" version="17" timestamp="2023-12-31T20:13:46Z" changeset="145745342" uid="53964" user="_Mathieu_">
    <nd ref="21292425"/>
    <nd ref="11022864764"/>
    <nd ref="791813862"/>
    <nd ref="791813997"/>
    <nd ref="4090974121"/>
    <nd ref="25256276"/>
    <tag k="cycleway" v="opposite"/>
    <tag k="highway" v="residential"/>
    <tag k="lit" v="yes"/>
    <tag k="maxspeed" v="30"/>
    <tag k="name" v="Rue Saint-Placide"/>
    <tag k="oneway" v="yes"/>
    <tag k="oneway:bicycle" v="no"/>
    <tag k="sidewalk:both" v="separate"/>
    <tag k="source:maxspeed" v="BMO arrêté n°2010-151"/>
    <tag k="surface" v="asphalt"/>
    <tag k="zone:maxspeed" v="FR:30"/>
  </way>
  <way id="4262872" version="19" timestamp="2023-12-31T20:11:13Z" changeset="145745342" uid="53964" user="_Mathieu_">
    <nd ref="25255898"/>
    <nd ref="4090974134"/>
    <nd ref="6132776671"/>
    <nd ref="7968886075"/>
    <nd ref="25256078"/>
    <tag k="cycleway" v="opposite"/>
    <tag k="highway" v="residential"/>
    <tag k="lit" v="yes"/>
    <tag k="maxspeed" v="30"/>
    <tag k="name" v="Rue Jean Ferrandi"/>
    <tag k="oneway" v="yes"/>
    <tag k="oneway:bicycle" v="no"/>
    <tag k="sidewalk:both" v="separate"/>
    <tag k="source:maxspeed" v="BMO arrêté n°2010-151"/>
    <tag k="surface" v="asphalt"/>
    <tag k="zone:maxspeed" v="FR:30"/>
  </way>
  <way id="4262874" version="25" timestamp="2023-12-31T20:10:58Z" changeset="145745342" uid="53964" user="_Mathieu_">
    <nd ref="6410198440"/>
    <nd ref="4090974099"/>
    <nd ref="6323949822"/>
    <nd ref="6323949824"/>
    <nd ref="25256081"/>
    <nd ref="6323949825"/>
    <nd ref="6323949823"/>
    <nd ref="6288229374"/>
    <nd ref="1765177776"/>
    <nd ref="25256262"/>
    <tag k="cycleway:left" v="opposite"/>
    <tag k="cycleway:right" v="no"/>
    <tag k="highway" v="residential"/>
    <tag k="lanes" v="1"/>
    <tag k="maxspeed" v="30"/>
    <tag k="name" v="Rue Blaise Desgoffe"/>
    <tag k="oneway" v="yes"/>
    <tag k="oneway:bicycle" v="no"/>
    <tag k="sidewalk:both" v="separate"/>
    <tag k="source:maxspeed" v="FR:urban"/>
    <tag k="surface" v="asphalt"/>
  </way>
  <way id="4262875" version="23" timestamp="2023-12-31T20:11:25Z" changeset="145745342" uid="53964" user="_Mathieu_">
    <nd ref="25256083"/>
    <nd ref="7968886074"/>
    <nd ref="4090974116"/>
    <nd ref="791813204"/>
    <nd ref="25256089"/>
    <nd ref="4090974150"/>
    <nd ref="25256087"/>
    <nd ref="791813091"/>
    <nd ref="25255900"/>
    <nd ref="4090974156"/>
    <nd ref="2734029758"/>
    <nd ref="25255893"/>
    <tag k="cycleway:left" v="opposite"/>
    <tag k="highway" v="residential"/>
    <tag k="lit" v="yes"/>
    <tag k="maxspeed" v="30"/>
    <tag k="name" v="Rue de l'Abbé Grégoire"/>
    <tag k="oneway" v="yes"/>
    <tag k="oneway:bicycle" v="no"/>
    <tag k="sidewalk:both" v="separate"/>
    <tag k="surface" v="asphalt"/>
    <tag k="zone:maxspeed" v="FR:30"/>
  </way>
  <way id="4262876" version="18" timestamp="2023-12-31T20:11:21Z" changeset="145745342" uid="53964" user="_Mathieu_">
    <nd ref="25255899"/>
    <nd ref="4090974148"/>
    <nd ref="25256086"/>
    <nd ref="25256085"/>
    <tag k="cycleway:left" v="opposite"/>
    <tag k="highway" v="residential"/>
    <tag k="maxspeed" v="30"/>
    <tag k="name" v="Rue de Bérite"/>
    <tag k="oneway" v="yes"/>
    <tag k="oneway:bicycle" v="no"/>
    <tag k="sidewalk:both" v="separate"/>
    <tag k="zone:maxspeed" v="FR:30"/>
  </way>
  <way id="4262877" version="16" timestamp="2023-12-31T20:11:29Z" changeset="145745342" uid="53964" user="_Mathieu_">
    <nd ref="25256086"/>
    <nd ref="4090974139"/>
    <nd ref="4090974151"/>
    <nd ref="25256087"/>
    <tag k="cycleway:left" v="opposite"/>
    <tag k="highway" v="residential"/>
    <tag k="maxspeed" v="30"/>
    <tag k="name" v="Rue Régis"/>
    <tag k="oneway" v="yes"/>
    <tag k="oneway:bicycle" v="no"/>
    <tag k="sidewalk:both" v="separate"/>
    <tag k="surface" v="asphalt"/>
    <tag k="zone:maxspeed" v="FR:30"/>
  </way>
  <way id="4414205" version="29" timestamp="2024-02-15T09:56:14Z" changeset="147483324" uid="8874984" user="anyroka">
    <nd ref="25256363"/>
    <nd ref="4090974089"/>
    <nd ref="6797497789"/>
    <nd ref="4090973867"/>
    <nd ref="25256377"/>
    <tag k="cycleway" v="opposite"/>
    <tag k="highway" v="residential"/>
    <tag k="lit" v="yes"/>
    <tag k="maxspeed" v="30"/>
    <tag k="name" v="Rue du Montparnasse"/>
    <tag k="name:br" v="Straed ar Menez Parnassos"/>
    <tag k="oneway" v="yes"/>
    <tag k="oneway:bicycle" v="no"/>
    <tag k="sidewalk:both" v="separate"/>
    <tag k="smoothness" v="good"/>
    <tag k="source:maxspeed" v="survey"/>
    <tag k="surface" v="asphalt"/>
    <tag k="zone:maxspeed" v="FR:30"/>
  </way>
  <way id="5213155" version="18" timestamp="2024-03-27T13:46:58Z" changeset="149226150" uid="2678738" user="fgouget">
    <nd ref="36594295"/>
    <nd ref="11042032144"/>
    <nd ref="6799874242"/>
    <nd ref="36594332"/>
    <tag k="cycleway:both" v="no"/>
    <tag k="highway" v="residential"/>
    <tag k="lit" v="yes"/>
    <tag k="maxspeed" v="30"/>
    <tag k="name" v="Rue de la Grande Chaumière"/>
    <tag k="oneway" v="yes"/>
    <tag k="oneway:bicycle" v="yes"/>
    <tag k="sidewalk:both" v="separate"/>
    <tag k="sidewalk:both:surface" v="asphalt"/>
    <tag k="smoothness" v="good"/>
    <tag k="surface" v="asphalt"/>
    <tag k="zone:maxspeed" v="FR:30"/>
  </way>
  <way id="5213157" version="15" timestamp="2024-03-27T15:29:13Z" changeset="149231251" uid="2678738" user="fgouget">
    <nd ref="24965971"/>
    <nd ref="6207729377"/>
    <nd ref="6325387814"/>
    <nd ref="36594365"/>
    <tag k="cycleway" v="opposite"/>
    <tag k="highway" v="residential"/>
    <tag k="lit" v="yes"/>
    <tag k="maxspeed" v="30"/>
    <tag k="name" v="Rue Paul Séjourné"/>
    <tag k="oneway" v="yes"/>
    <tag k="oneway:bicycle" v="no"/>
    <tag k="sidewalk:both" v="separate"/>
    <tag k="smoothness" v="good"/>
    <tag k="surface" v="asphalt"/>
  </way>
  <way id="6511301" version="22" timestamp="2024-04-16T01:34:28Z" changeset="150062528" uid="2678738" user="fgouget">
    <nd ref="24958711"/>
    <nd ref="53248489"/>
    <nd ref="5961992393"/>
    <nd ref="250524313"/>
    <tag k="check_date:cycleway" v="2021-05-29"/>
    <tag k="cycleway" v="no"/>
    <tag k="highway" v="residential"/>
    <tag k="lit" v="yes"/>
    <tag k="maxspeed" v="30"/>
    <tag k="name" v="Rue Madame"/>
    <tag k="note" v="ParisJecourte : &quot;Le double-sens cyclable n’a pas été réalisé en raison du refus de la RATP, jugeant le conflit vélo/bus dangereux, les bus étant en plus à cet endroit en plein mouvement tournant.&quot;"/>
    <tag k="oneway" v="yes"/>
    <tag k="sidewalk:both" v="separate"/>
    <tag k="source:maxspeed" v="sign"/>
    <tag k="surface" v="asphalt"/>
  </way>
  <way id="16189206" version="35" timestamp="2024-10-12T03:10:44Z" changeset="157777982" uid="2678738" user="fgouget">
    <nd ref="786142279"/>
    <nd ref="6157227793"/>
    <nd ref="25253964"/>
    <tag k="highway" v="residential"/>
    <tag k="lane_markings" v="no"/>
    <tag k="lit" v="yes"/>
    <tag k="maxspeed" v="30"/>
    <tag k="name" v="Rue du Dragon"/>
    <tag k="oneway" v="yes"/>
    <tag k="oneway:bicycle" v="no"/>
    <tag k="sidewalk:left" v="separate"/>
    <tag k="source:maxspeed" v="FR:urban"/>
    <tag k="surface" v="asphalt"/>
  </way>
  <way id="16189489" version="36" timestamp="2023-12-31T20:10:05Z" changeset="145745342" uid="53964" user="_Mathieu_">
    <nd ref="786142279"/>
    <nd ref="6237631057"/>
    <nd ref="6157227791"/>
    <nd ref="6823239365"/>
    <nd ref="25253911"/>
    <nd ref="10822886651"/>
    <nd ref="2631247530"/>
    <nd ref="25253920"/>
    <nd ref="2631247529"/>
    <nd ref="11022864791"/>
    <nd ref="25255325"/>
    <nd ref="21292424"/>
    <tag k="cycleway" v="opposite"/>
    <tag k="highway" v="residential"/>
    <tag k="lanes" v="1"/>
    <tag k="lit" v="yes"/>
    <tag k="maxspeed" v="30"/>
    <tag k="name" v="Rue du Cherche-Midi"/>
    <tag k="oneway" v="yes"/>
    <tag k="oneway:bicycle" v="no"/>
    <tag k="sidewalk:both" v="separate"/>
    <tag k="surface" v="asphalt"/>
  </way>
  <way id="16406722" version="27" timestamp="2024-07-22T13:33:23Z" changeset="154263708" uid="2252690" user="gourlaysama">
    <nd ref="169336088"/>
    <nd ref="4680947605"/>
    <nd ref="4680947614"/>
    <nd ref="169336089"/>
    <nd ref="4680947601"/>
    <nd ref="25256381"/>
    <nd ref="6287132656"/>
    <nd ref="4090973869"/>
    <nd ref="25256319"/>
    <tag k="cycleway:both" v="no"/>
    <tag k="highway" v="residential"/>
    <tag k="lanes" v="1"/>
    <tag k="lit" v="yes"/>
    <tag k="maxspeed" v="30"/>
    <tag k="name" v="Rue Stanislas"/>
    <tag k="oneway" v="yes"/>
    <tag k="oneway:bicycle" v="no"/>
    <tag k="parking:lane:both" v="parallel"/>
    <tag k="parking:lane:both:parallel" v="painted_area_only"/>
    <tag k="sidewalk:both" v="separate"/>
    <tag k="surface" v="asphalt"/>
  </way>
  <way id="16406778" version="21" timestamp="2024-07-22T13:33:23Z" changeset="154263708" uid="2252690" user="gourlaysama">
    <nd ref="169336089"/>
    <nd ref="4680947610"/>
    <nd ref="640241577"/>
    <nd ref="169336596"/>
    <nd ref="4680947607"/>
    <nd ref="4680947606"/>
    <nd ref="169336597"/>
    <tag k="cycleway:both" v="no"/>
    <tag k="highway" v="residential"/>
    <tag k="lit" v="yes"/>
    <tag k="maxspeed" v="30"/>
    <tag k="name" v="Rue Péguy"/>
    <tag k="oneway" v="yes"/>
    <tag k="oneway:bicycle" v="no"/>
    <tag k="sidewalk:both" v="separate"/>
    <tag k="surface" v="asphalt"/>
  </way>
  <way id="17178092" version="29" timestamp="2024-04-16T01:34:20Z" changeset="150062528" uid="2678738" user="fgouget">
    <nd ref="250524313"/>
    <nd ref="5961992394"/>
    <nd ref="4942457172"/>
    <nd ref="367521"/>
    <tag k="cycleway" v="no"/>
    <tag k="highway" v="tertiary"/>
    <tag k="lanes" v="3"/>
    <tag k="lanes:backward" v="1"/>
    <tag k="lanes:forward" v="2"/>
    <tag k="lit" v="yes"/>
    <tag k="maxspeed" v="30"/>
    <tag k="name" v="Rue du Vieux Colombier"/>
    <tag k="sidewalk:both" v="separate"/>
    <tag k="surface" v="asphalt"/>
  </way>
  <way id="19390178" version="34" timestamp="2024-08-15T17:26:47Z" changeset="155294126" uid="11963177" user="JeroenvanderGun">
    <nd ref="788761952"/>
    <nd ref="11933514161"/>
    <nd ref="788760763"/>
    <tag k="cycleway:right" v="no"/>
    <tag k="enforcement:operator" v="Police nationale"/>
    <tag k="highway" v="primary"/>
    <tag k="lanes" v="2"/>
    <tag k="lit" v="yes"/>
    <tag k="maxspeed" v="30"/>
    <tag k="name" v="Boulevard du Montparnasse"/>
    <tag k="oneway" v="yes"/>
    <tag k="operator" v="Ville de Paris"/>
    <tag k="operator:authority" v="Maire de Paris après avis du préfet de police"/>
    <tag k="operator:authority:related_law" v="IV de l'article L. 2512-14 du code général des collectivités territoriales"/>
    <tag k="operator:url" v="https://cdn.paris.fr/paris/2020/02/26/5bf469a311d0beb9911e92d113781550.ai"/>
    <tag k="sidewalk" v="separate"/>
    <tag k="smoothness" v="good"/>
    <tag k="source" v="cadastre-dgi-fr source : Direction Générale des Impôts - Cadastre. Mise à jour : 2010"/>
    <tag k="surface" v="asphalt"/>
  </way>
  <way id="19515945" version="17" timestamp="2023-12-31T20:11:33Z" changeset="145745342" uid="53964" user="_Mathieu_">
    <nd ref="25256085"/>
    <nd ref="4090974141"/>
    <nd ref="25256089"/>
    <tag k="cycleway:left" v="opposite"/>
    <tag k="highway" v="residential"/>
    <tag k="maxspeed" v="30"/>
    <tag k="name" v="Rue Jean-François Gerbillon"/>
    <tag k="oneway" v="yes"/>
    <tag k="oneway:bicycle" v="no"/>
    <tag k="sidewalk:both" v="separate"/>
    <tag k="surface" v="asphalt"/>
    <tag k="zone:maxspeed" v="FR:30"/>
  </way>
  <way id="19516506" version="18" timestamp="2023-12-31T20:11:38Z" changeset="145745342" uid="53964" user="_Mathieu_">
    <nd ref="21292425"/>
    <nd ref="11022864762"/>
    <nd ref="2734029779"/>
    <nd ref="470153"/>
    <tag k="highway" v="residential"/>
    <tag k="lit" v="yes"/>
    <tag k="maxspeed" v="30"/>
    <tag k="name" v="Rue Saint-Placide"/>
    <tag k="sidewalk:both" v="separate"/>
    <tag k="sidewalk:both:surface" v="asphalt"/>
    <tag k="smoothness" v="excellent"/>
    <tag k="source:maxspeed" v="BMO arrêté n°2010-151"/>
    <tag k="surface" v="asphalt"/>
    <tag k="zone:maxspeed" v="FR:30"/>
  </way>
  <way id="19518124" version="12" timestamp="2023-03-11T08:03:31Z" changeset="133543022" uid="1687196" user="fench_hobbit">
    <nd ref="27018633"/>
    <nd ref="24959174"/>
    <tag k="cycleway:both" v="no"/>
    <tag k="highway" v="residential"/>
    <tag k="lit" v="yes"/>
    <tag k="maxspeed" v="30"/>
    <tag k="noname" v="yes"/>
    <tag k="sidewalk" v="both"/>
    <tag k="sidewalk:both:surface" v="asphalt"/>
    <tag k="surface" v="asphalt"/>
  </way>
  <way id="20107742" version="32" timestamp="2023-12-31T20:11:18Z" changeset="145745342" uid="53964" user="_Mathieu_">
    <nd ref="21292425"/>
    <nd ref="11022864766"/>
    <nd ref="4090974155"/>
    <nd ref="25255900"/>
    <nd ref="4090974154"/>
    <nd ref="25255899"/>
    <nd ref="4090974149"/>
    <nd ref="25255898"/>
    <nd ref="4090974135"/>
    <nd ref="7894612050"/>
    <nd ref="6823155548"/>
    <nd ref="25255897"/>
    <tag k="cycleway" v="opposite"/>
    <tag k="highway" v="residential"/>
    <tag k="lit" v="yes"/>
    <tag k="maxspeed" v="30"/>
    <tag k="name" v="Rue du Cherche-Midi"/>
    <tag k="oneway" v="yes"/>
    <tag k="oneway:bicycle" v="no"/>
    <tag k="sidewalk:both" v="separate"/>
    <tag k="surface" v="asphalt"/>
    <tag k="zone:maxspeed" v="FR:30"/>
  </way>
  <way id="22732230" version="16" timestamp="2023-10-03T19:20:18Z" changeset="142114665" uid="7550430" user="Britzz">
    <nd ref="24966021"/>
    <nd ref="1756761471"/>
    <nd ref="5704074324"/>
    <nd ref="2636440915"/>
    <nd ref="11236893833"/>
    <nd ref="24984820"/>
    <tag k="cycleway:both" v="no"/>
    <tag k="highway" v="tertiary"/>
    <tag k="lanes" v="2"/>
    <tag k="lit" v="yes"/>
    <tag k="maxspeed" v="30"/>
    <tag k="maxspeed:type" v="sign"/>
    <tag k="name" v="Rue d'Assas"/>
    <tag k="sidewalk" v="both"/>
    <tag k="surface" v="asphalt"/>
  </way>
  <way id="22774495" version="27" timestamp="2024-04-01T14:11:58Z" changeset="149436432" uid="6290466" user="benjamintchik">
    <nd ref="244495387"/>
    <nd ref="11042032469"/>
    <nd ref="4745777216"/>
    <nd ref="25255449"/>
    <tag k="bicycle:lanes" v="yes|designated"/>
    <tag k="busway:right" v="lane"/>
    <tag k="cycleway:right" v="share_busway"/>
    <tag k="dual_carriageway" v="yes"/>
    <tag k="highway" v="secondary"/>
    <tag k="lanes" v="2"/>
    <tag k="lit" v="yes"/>
    <tag k="maxspeed" v="30"/>
    <tag k="name" v="Boulevard Raspail"/>
    <tag k="name:etymology:wikidata" v="Q682230"/>
    <tag k="oneway" v="yes"/>
    <tag k="psv:lanes" v="yes|designated"/>
    <tag k="sidewalk:left" v="no"/>
    <tag k="sidewalk:right" v="separate"/>
    <tag k="smoothness" v="good"/>
    <tag k="surface" v="asphalt"/>
  </way>
  <way id="23170621" version="27" timestamp="2024-04-16T01:33:50Z" changeset="150062528" uid="2678738" user="fgouget">
    <nd ref="24958702"/>
    <nd ref="5961992395"/>
    <nd ref="8119107010"/>
    <nd ref="24959058"/>
    <nd ref="8119107009"/>
    <nd ref="5513296055"/>
    <nd ref="24959061"/>
    <nd ref="5513296054"/>
    <nd ref="6639716455"/>
    <tag k="cycleway:left" v="opposite"/>
    <tag k="cycleway:right" v="no"/>
    <tag k="highway" v="residential"/>
    <tag k="lanes" v="1"/>
    <tag k="lit" v="yes"/>
    <tag k="maxspeed" v="30"/>
    <tag k="name" v="Rue Madame"/>
    <tag k="oneway" v="yes"/>
    <tag k="oneway:bicycle" v="no"/>
    <tag k="sidewalk:both" v="separate"/>
    <tag k="source" v="cadastre-dgi-fr source : Direction Générale des Impôts - Cadastre. Mise à jour : 2014"/>
    <tag k="source:maxspeed" v="FR:urban"/>
    <tag k="surface" v="asphalt"/>
  </way>
  <way id="24027249" version="26" timestamp="2024-07-22T13:33:26Z" changeset="154263708" uid="2252690" user="gourlaysama">
    <nd ref="260568406"/>
    <nd ref="6291704547"/>
    <nd ref="260568408"/>
    <tag k="cycleway:left" v="no"/>
    <tag k="cycleway:right" v="lane"/>
    <tag k="cycleway:right:lane" v="advisory"/>
    <tag k="dual_carriageway" v="yes"/>
    <tag k="highway" v="secondary"/>
    <tag k="lanes" v="2"/>
    <tag k="lit" v="yes"/>
    <tag k="maxspeed" v="30"/>
    <tag k="name" v="Place du 18 Juin 1940"/>
    <tag k="name:br" v="Plasenn an Driwec'h a viz Even 1940"/>
    <tag k="oneway" v="yes"/>
    <tag k="ref:FR:FANTOIR" v="751062807N"/>
    <tag k="sidewalk:both" v="separate"/>
    <tag k="smoothness" v="excellent"/>
    <tag k="source:maxspeed" v="sign"/>
    <tag k="surface" v="asphalt"/>
  </way>
  <way id="24027251" version="27" timestamp="2024-07-22T13:33:26Z" changeset="154263708" uid="2252690" user="gourlaysama">
    <nd ref="367513"/>
    <nd ref="260568416"/>
    <tag k="cycleway:both" v="no"/>
    <tag k="dual_carriageway" v="yes"/>
    <tag k="highway" v="secondary"/>
    <tag k="lanes" v="2"/>
    <tag k="lit" v="yes"/>
    <tag k="maxspeed" v="30"/>
    <tag k="name" v="Place du 18 Juin 1940"/>
    <tag k="oneway" v="yes"/>
    <tag k="sidewalk:left" v="yes"/>
    <tag k="sidewalk:right" v="separate"/>
    <tag k="smoothness" v="good"/>
    <tag k="surface" v="asphalt"/>
  </way>
  <way id="24310193" version="9" timestamp="2024-02-19T07:58:56Z" changeset="147637890" uid="15406028" user="Mobinaute">
    <nd ref="263479277"/>
    <nd ref="263479278"/>
    <nd ref="1276399570"/>
    <nd ref="263479279"/>
    <nd ref="263479280"/>
    <nd ref="263479281"/>
    <nd ref="263479282"/>
    <nd ref="1276399569"/>
    <nd ref="263479284"/>
    <nd ref="1276399564"/>
    <nd ref="1276399571"/>
    <nd ref="263479277"/>
    <tag k="amenity" v="place_of_worship"/>
    <tag k="building" v="church"/>
    <tag k="building:levels" v="1"/>
    <tag k="check_date" v="2024-02-19"/>
    <tag k="denomination" v="catholic"/>
    <tag k="name" v="Église Saint-Ignace"/>
    <tag k="ref:FR:CEF" v="75106_04"/>
    <tag k="religion" v="christian"/>
    <tag k="wikidata" v="Q3581820"/>
  </way>
  <way id="24687190" version="22" timestamp="2024-07-12T10:21:33Z" changeset="153847922" uid="392288" user="Kalepom">
    <nd ref="24959160"/>
    <nd ref="16820924"/>
    <tag k="cycleway" v="lane"/>
    <tag k="cycleway:lane" v="advisory"/>
    <tag k="highway" v="secondary"/>
    <tag k="lanes" v="3"/>
    <tag k="lanes:backward" v="2"/>
    <tag k="lanes:forward" v="1"/>
    <tag k="lit" v="yes"/>
    <tag k="maxspeed" v="30"/>
    <tag k="name" v="Rue de Rennes"/>
    <tag k="name:br" v="Straed Roazhon"/>
    <tag k="name:etymology:wikidata" v="Q647"/>
    <tag k="sidewalk:both" v="separate"/>
    <tag k="surface" v="asphalt"/>
  </way>
  <way id="34375603" version="23" timestamp="2024-02-06T18:35:17Z" changeset="147146774" uid="3834000" user="cartoleo">
    <nd ref="24959181"/>
    <nd ref="11042019353"/>
    <nd ref="4090973887"/>
    <nd ref="6291704534"/>
    <nd ref="6291704533"/>
    <nd ref="24959174"/>
    <tag k="bicycle:lanes" v="yes|designated"/>
    <tag k="busway:right" v="lane"/>
    <tag k="cycleway:left" v="no"/>
    <tag k="cycleway:right" v="share_busway"/>
    <tag k="dual_carriageway" v="yes"/>
    <tag k="highway" v="secondary"/>
    <tag k="lanes" v="2"/>
    <tag k="lit" v="yes"/>
    <tag k="maxspeed" v="30"/>
    <tag k="name" v="Boulevard Raspail"/>
    <tag k="name:etymology:wikidata" v="Q682230"/>
    <tag k="oneway" v="yes"/>
    <tag k="psv:lanes" v="yes|designated"/>
    <tag k="sidewalk:left" v="yes"/>
    <tag k="sidewalk:right" v="separate"/>
    <tag k="smoothness" v="excellent"/>
    <tag k="surface" v="asphalt"/>
  </way>
  <way id="34779025" version="24" timestamp="2024-03-27T13:46:39Z" changeset="149226150" uid="2678738" user="fgouget">
    <nd ref="24959185"/>
    <nd ref="6178062126"/>
    <nd ref="24965960"/>
    <nd ref="6799919729"/>
    <nd ref="24965958"/>
    <nd ref="24965963"/>
    <nd ref="249877289"/>
    <nd ref="6799901884"/>
    <nd ref="36594332"/>
    <nd ref="6799912285"/>
    <nd ref="6207729380"/>
    <nd ref="36594394"/>
    <nd ref="6207729378"/>
    <nd ref="24965971"/>
    <nd ref="788546471"/>
    <nd ref="24965974"/>
    <nd ref="6207729381"/>
    <nd ref="24965976"/>
    <nd ref="6207729383"/>
    <nd ref="24966010"/>
    <nd ref="24966013"/>
    <nd ref="9462884741"/>
    <nd ref="6207729384"/>
    <nd ref="24966011"/>
    <nd ref="6207730286"/>
    <nd ref="11236893831"/>
    <nd ref="24984818"/>
    <tag k="cycleway" v="opposite"/>
    <tag k="highway" v="residential"/>
    <tag k="lit" v="yes"/>
    <tag k="maxspeed" v="30"/>
    <tag k="name" v="Rue Notre-Dame-des-Champs"/>
    <tag k="oneway" v="yes"/>
    <tag k="oneway:bicycle" v="no"/>
    <tag k="sidewalk:both" v="separate"/>
    <tag k="surface" v="asphalt"/>
    <tag k="zone:maxspeed" v="FR:30"/>
  </way>
  <way id="34779026" version="15" timestamp="2023-12-31T20:18:16Z" changeset="145745342" uid="53964" user="_Mathieu_">
    <nd ref="25256319"/>
    <nd ref="11042019341"/>
    <nd ref="24959189"/>
    <tag k="cycleway:both" v="no"/>
    <tag k="highway" v="residential"/>
    <tag k="maxspeed" v="30"/>
    <tag k="name" v="Rue Stanislas"/>
    <tag k="oneway" v="yes"/>
    <tag k="oneway:bicycle" v="no"/>
    <tag k="sidewalk:both" v="separate"/>
    <tag k="sidewalk:both:surface" v="asphalt"/>
    <tag k="surface" v="asphalt"/>
  </way>
  <way id="34856443" version="21" timestamp="2024-09-24T07:54:52Z" changeset="157026355" uid="7512839" user="Benoît C MdP">
    <nd ref="24959185"/>
    <nd ref="6178062123"/>
    <nd ref="6178062121"/>
    <nd ref="4920983801"/>
    <nd ref="1968201936"/>
    <nd ref="11042032145"/>
    <nd ref="24965947"/>
    <tag k="cycleway:both" v="no"/>
    <tag k="highway" v="residential"/>
    <tag k="lit" v="yes"/>
    <tag k="maxspeed" v="30"/>
    <tag k="name" v="Rue Vavin"/>
    <tag k="oneway" v="yes"/>
    <tag k="oneway:bicycle" v="yes"/>
    <tag k="parking:lane:both" v="parallel"/>
    <tag k="parking:lane:left:parallel" v="street_side"/>
    <tag k="parking:lane:right:parallel" v="painted_area_only"/>
    <tag k="sidewalk:both" v="separate"/>
    <tag k="surface" v="asphalt"/>
    <tag k="zone:maxspeed" v="FR:30"/>
  </way>
  <way id="34856551" version="21" timestamp="2024-11-25T06:24:56Z" changeset="159558677" uid="158826" user="cquest">
    <nd ref="24958711"/>
    <nd ref="5961993653"/>
    <nd ref="12373037867"/>
    <nd ref="4942457173"/>
    <nd ref="367521"/>
    <tag k="busway:left" v="lane"/>
    <tag k="cycleway:left" v="share_busway"/>
    <tag k="highway" v="secondary"/>
    <tag k="lanes" v="2"/>
    <tag k="lit" v="yes"/>
    <tag k="maxspeed" v="30"/>
    <tag k="name" v="Rue de Rennes"/>
    <tag k="name:br" v="Straed Roazhon"/>
    <tag k="name:etymology:wikidata" v="Q647"/>
    <tag k="sidewalk:both" v="separate"/>
    <tag k="sidewalk:both:surface" v="asphalt"/>
    <tag k="smoothness" v="excellent"/>
    <tag k="source:maxspeed" v="FR:urban"/>
    <tag k="surface" v="asphalt"/>
  </way>
  <way id="39370830" version="32" timestamp="2023-12-31T20:10:01Z" changeset="145745342" uid="53964" user="_Mathieu_">
    <nd ref="25253920"/>
    <nd ref="2631247528"/>
    <nd ref="6325488734"/>
    <nd ref="25255328"/>
    <nd ref="5704074326"/>
    <nd ref="4904750229"/>
    <nd ref="6291069682"/>
    <nd ref="4090974159"/>
    <nd ref="24959159"/>
    <nd ref="11042019389"/>
    <nd ref="6291704544"/>
    <nd ref="11042019386"/>
    <nd ref="21292423"/>
    <nd ref="11042019388"/>
    <nd ref="4904750234"/>
    <nd ref="11042032159"/>
    <nd ref="5340576186"/>
    <nd ref="24959165"/>
    <nd ref="11042032156"/>
    <nd ref="4904750235"/>
    <nd ref="6233607925"/>
    <nd ref="24959175"/>
    <tag k="cycleway:both" v="no"/>
    <tag k="highway" v="tertiary"/>
    <tag k="lanes" v="2"/>
    <tag k="lit" v="yes"/>
    <tag k="maxspeed" v="30"/>
    <tag k="name" v="Rue d'Assas"/>
    <tag k="sidewalk:both" v="separate"/>
    <tag k="sidewalk:both:surface" v="asphalt"/>
    <tag k="source:maxspeed" v="FR:urban"/>
    <tag k="surface" v="asphalt"/>
  </way>
  <way id="39376126" version="23" timestamp="2024-07-22T13:33:27Z" changeset="154263708" uid="2252690" user="gourlaysama">
    <nd ref="260568408"/>
    <nd ref="16820933"/>
    <tag k="cycleway:left" v="no"/>
    <tag k="cycleway:right" v="lane"/>
    <tag k="cycleway:right:lane" v="advisory"/>
    <tag k="dual_carriageway" v="yes"/>
    <tag k="highway" v="secondary"/>
    <tag k="lanes" v="2"/>
    <tag k="lit" v="yes"/>
    <tag k="maxspeed" v="30"/>
    <tag k="name" v="Place du 18 Juin 1940"/>
    <tag k="oneway" v="yes"/>
    <tag k="sidewalk" v="both"/>
    <tag k="smoothness" v="good"/>
    <tag k="source:maxspeed" v="sign"/>
    <tag k="surface" v="asphalt"/>
  </way>
  <way id="41455853" version="14" timestamp="2024-01-05T00:20:30Z" changeset="145901649" uid="7550430" user="Britzz">
    <nd ref="507047963"/>
    <nd ref="11489384132"/>
    <nd ref="4090974124"/>
    <nd ref="507047961"/>
    <tag k="cycleway:right" v="no"/>
    <tag k="highway" v="secondary"/>
    <tag k="lanes" v="1"/>
    <tag k="lit" v="yes"/>
    <tag k="maxspeed" v="30"/>
    <tag k="name" v="Rue de Vaugirard"/>
    <tag k="oneway" v="yes"/>
    <tag k="sidewalk:left" v="no"/>
    <tag k="sidewalk:right" v="separate"/>
    <tag k="source:maxspeed" v="FR:urban"/>
    <tag k="surface" v="asphalt"/>
  </way>
  <way id="41455854" version="16" timestamp="2023-12-31T20:10:44Z" changeset="145745342" uid="53964" user="_Mathieu_">
    <nd ref="24959162"/>
    <nd ref="24959161"/>
    <nd ref="11042019366"/>
    <nd ref="4090974126"/>
    <nd ref="6291069657"/>
    <nd ref="507047963"/>
    <tag k="cycleway:both" v="no"/>
    <tag k="highway" v="secondary"/>
    <tag k="lanes" v="2"/>
    <tag k="lit" v="yes"/>
    <tag k="maxspeed" v="30"/>
    <tag k="name" v="Rue de Vaugirard"/>
    <tag k="sidewalk:both" v="separate"/>
    <tag k="sidewalk:both:surface" v="asphalt"/>
    <tag k="source:maxspeed" v="FR:urban"/>
    <tag k="surface" v="asphalt"/>
  </way>
  <way id="41455855" version="17" timestamp="2024-06-06T14:00:23Z" changeset="152333604" uid="311391" user="patman37">
    <nd ref="7366949982"/>
    <nd ref="4090974123"/>
    <nd ref="11489384133"/>
    <nd ref="507047963"/>
    <tag k="cycleway:right" v="no"/>
    <tag k="highway" v="secondary"/>
    <tag k="lanes" v="1"/>
    <tag k="lit" v="yes"/>
    <tag k="maxspeed" v="30"/>
    <tag k="name" v="Rue de Vaugirard"/>
    <tag k="oneway" v="yes"/>
    <tag k="sidewalk:left" v="no"/>
    <tag k="sidewalk:right" v="separate"/>
    <tag k="source:maxspeed" v="FR:urban"/>
    <tag k="surface" v="asphalt"/>
  </way>
  <way id="41455856" version="21" timestamp="2023-10-06T16:28:44Z" changeset="142240606" uid="7550430" user="Britzz">
    <nd ref="507047961"/>
    <nd ref="11022864785"/>
    <nd ref="6132755571"/>
    <nd ref="6795775648"/>
    <nd ref="6132755572"/>
    <nd ref="10294659448"/>
    <nd ref="10343543463"/>
    <nd ref="10294659423"/>
    <nd ref="6795791801"/>
    <nd ref="791812842"/>
    <nd ref="2631247518"/>
    <nd ref="25255857"/>
    <tag k="cycleway:left" v="opposite"/>
    <tag k="highway" v="residential"/>
    <tag k="lit" v="yes"/>
    <tag k="maxspeed" v="30"/>
    <tag k="name" v="Rue du Regard"/>
    <tag k="oneway" v="yes"/>
    <tag k="oneway:bicycle" v="no"/>
    <tag k="sidewalk" v="separate"/>
    <tag k="surface" v="asphalt"/>
  </way>
  <way id="41739437" version="14" timestamp="2024-11-25T06:24:56Z" changeset="159558677" uid="158826" user="cquest">
    <nd ref="202800570"/>
    <nd ref="11042032146"/>
    <nd ref="12373039914"/>
    <nd ref="4680947602"/>
    <nd ref="202800560"/>
    <tag k="bicycle" v="yes"/>
    <tag k="cycleway:both" v="no"/>
    <tag k="highway" v="residential"/>
    <tag k="lit" v="yes"/>
    <tag k="maxspeed" v="30"/>
    <tag k="name" v="Rue Vavin"/>
    <tag k="note" v="[lapinos03] Piste cyclable d'après plan officiel 2008/02 - Itinéraire coseillé"/>
    <tag k="oneway" v="yes"/>
    <tag k="oneway:bicycle" v="no"/>
    <tag k="parking:lane:both" v="parallel"/>
    <tag k="parking:lane:left:parallel" v="street_side"/>
    <tag k="parking:lane:right:parallel" v="painted_area_only"/>
    <tag k="sidewalk:both" v="separate"/>
    <tag k="surface" v="asphalt"/>
  </way>
  <way id="41739438" version="20" timestamp="2024-03-23T11:00:46Z" changeset="149045499" uid="2678738" user="fgouget">
    <nd ref="202800570"/>
    <nd ref="11042032148"/>
    <nd ref="11042185484"/>
    <nd ref="787964883"/>
    <nd ref="6291704554"/>
    <nd ref="4260205642"/>
    <nd ref="36593698"/>
    <tag k="bicycle:lanes" v="yes|designated"/>
    <tag k="busway:right" v="lane"/>
    <tag k="cycleway:right" v="share_busway"/>
    <tag k="dual_carriageway" v="yes"/>
    <tag k="highway" v="secondary"/>
    <tag k="lanes" v="2"/>
    <tag k="lit" v="yes"/>
    <tag k="maxspeed" v="30"/>
    <tag k="name" v="Boulevard Raspail"/>
    <tag k="oneway" v="yes"/>
    <tag k="psv:lanes" v="yes|designated"/>
    <tag k="sidewalk:left" v="no"/>
    <tag k="sidewalk:right" v="separate"/>
    <tag k="smoothness" v="good"/>
    <tag k="source:maxspeed" v="sign"/>
    <tag k="surface" v="asphalt"/>
  </way>
  <way id="50376087" version="10" timestamp="2023-11-03T19:16:00Z" changeset="143588130" uid="9451067" user="b-jazz-bot">
    <nd ref="640105919"/>
    <nd ref="640105933"/>
    <nd ref="640105921"/>
    <nd ref="5266935880"/>
    <nd ref="640105923"/>
    <nd ref="805759043"/>
    <nd ref="640105924"/>
    <nd ref="805760267"/>
    <nd ref="805759788"/>
    <nd ref="640105873"/>
    <nd ref="6797497790"/>
    <nd ref="640105869"/>
    <nd ref="640105926"/>
    <nd ref="640105929"/>
    <nd ref="640105931"/>
    <nd ref="640105919"/>
    <tag k="addr:city" v="Paris"/>
    <tag k="addr:housenumber" v="28"/>
    <tag k="addr:postcode" v="75006"/>
    <tag k="addr:street" v="Rue Notre-Dame des Champs"/>
    <tag k="amenity" v="university"/>
    <tag k="building" v="yes"/>
    <tag k="building:levels" v="6"/>
    <tag k="internet_access" v="wlan"/>
    <tag k="internet_access:fee" v="no"/>
    <tag k="name" v="ISEP"/>
    <tag k="operator" v="ISEP"/>
    <tag k="operator:type" v="private"/>
    <tag k="short_name" v="ISEP"/>
    <tag k="source" v="cadastre-dgi-fr source : Direction Générale des Impôts - Cadastre. Mise à jour : 2010"/>
    <tag k="website" v="https://isep.fr/"/>
    <tag k="wikidata" v="Q3152556"/>
    <tag k="wikipedia" v="fr:Institut supérieur d'électronique de Paris"/>
  </way>
  <way id="50376088" version="3" timestamp="2015-05-11T11:25:57Z" changeset="31003457" uid="456113" user="eric_G">
    <nd ref="640105742"/>
    <nd ref="640105740"/>
    <nd ref="640105728"/>
    <nd ref="640105732"/>
    <nd ref="640105735"/>
    <nd ref="640105738"/>
    <nd ref="640105731"/>
    <nd ref="640105636"/>
    <nd ref="640105643"/>
    <nd ref="640105641"/>
    <nd ref="640105645"/>
    <nd ref="640105646"/>
    <nd ref="3510060461"/>
    <nd ref="3510060459"/>
    <nd ref="3510060462"/>
    <nd ref="3510060460"/>
    <nd ref="3510060463"/>
    <nd ref="640105742"/>
    <tag k="building" v="yes"/>
    <tag k="name" v="Maternelle"/>
    <tag k="source" v="cadastre-dgi-fr source : Direction Générale des Impôts - Cadastre. Mise à jour : 2010"/>
  </way>
  <way id="50376089" version="5" timestamp="2024-09-27T17:22:00Z" changeset="157181726" uid="1205555" user="benoitdd">
    <nd ref="3510060462"/>
    <nd ref="3510060459"/>
    <nd ref="3510060461"/>
    <nd ref="640105646"/>
    <nd ref="640105649"/>
    <nd ref="640105652"/>
    <nd ref="640105653"/>
    <nd ref="640105712"/>
    <nd ref="640105705"/>
    <nd ref="640105708"/>
    <nd ref="640105699"/>
    <nd ref="640105722"/>
    <nd ref="640105701"/>
    <nd ref="640105725"/>
    <nd ref="640105710"/>
    <nd ref="640105777"/>
    <nd ref="640105779"/>
    <nd ref="640105782"/>
    <nd ref="640105783"/>
    <nd ref="640105785"/>
    <nd ref="640105787"/>
    <nd ref="11758860832"/>
    <nd ref="640105761"/>
    <nd ref="640105765"/>
    <nd ref="640105767"/>
    <nd ref="640105769"/>
    <nd ref="640105745"/>
    <nd ref="3510060464"/>
    <nd ref="640105742"/>
    <nd ref="3510060463"/>
    <nd ref="3510060465"/>
    <nd ref="3510060462"/>
    <tag k="building" v="school"/>
    <tag k="building:levels" v="8"/>
    <tag k="name" v="Ninféi"/>
    <tag k="source" v="cadastre-dgi-fr source : Direction Générale des Impôts - Cadastre. Mise à jour : 2010"/>
  </way>
  <way id="50376093" version="6" timestamp="2023-05-23T21:33:52Z" changeset="136473668" uid="7550430" user="Britzz">
    <nd ref="640105693"/>
    <nd ref="3294523130"/>
    <nd ref="640105675"/>
    <nd ref="640105677"/>
    <nd ref="791750161"/>
    <nd ref="249880038"/>
    <nd ref="791750001"/>
    <nd ref="10922726017"/>
    <nd ref="804285757"/>
    <nd ref="249880037"/>
    <nd ref="640105693"/>
    <tag k="building" v="residential"/>
    <tag k="building:levels" v="7"/>
    <tag k="name" v="Internat"/>
    <tag k="source" v="cadastre-dgi-fr source : Direction Générale des Impôts - Cadastre. Mise à jour : 2010"/>
  </way>
  <way id="50376094" version="3" timestamp="2024-09-27T17:22:00Z" changeset="157181726" uid="1205555" user="benoitdd">
    <nd ref="640105632"/>
    <nd ref="791750307"/>
    <nd ref="791750668"/>
    <nd ref="791750597"/>
    <nd ref="791750361"/>
    <nd ref="640105683"/>
    <nd ref="640105673"/>
    <nd ref="640105637"/>
    <nd ref="640105634"/>
    <nd ref="640105623"/>
    <nd ref="640105629"/>
    <nd ref="640105632"/>
    <tag k="building" v="dormitory"/>
    <tag k="name" v="Guynemer (Internat)"/>
    <tag k="source" v="cadastre-dgi-fr source : Direction Générale des Impôts - Cadastre. Mise à jour : 2010"/>
  </way>
  <way id="50376095" version="6" timestamp="2020-08-07T12:31:20Z" changeset="89092573" uid="2797881" user="bagage">
    <nd ref="640105772"/>
    <nd ref="3294520936"/>
    <nd ref="3510060469"/>
    <nd ref="3510060467"/>
    <nd ref="640105801"/>
    <nd ref="640105748"/>
    <nd ref="640105772"/>
    <tag k="building" v="residential"/>
    <tag k="building:levels" v="3"/>
    <tag k="name" v="Pavillon du Directeur"/>
    <tag k="source" v="cadastre-dgi-fr source : Direction Générale des Impôts - Cadastre. Mise à jour : 2010"/>
  </way>
  <way id="50376097" version="3" timestamp="2015-05-11T11:25:57Z" changeset="31003457" uid="456113" user="eric_G">
    <nd ref="640105757"/>
    <nd ref="805759215"/>
    <nd ref="640105827"/>
    <nd ref="640105808"/>
    <nd ref="640105818"/>
    <nd ref="640105820"/>
    <nd ref="3510060476"/>
    <nd ref="3510060477"/>
    <nd ref="3510060471"/>
    <nd ref="3510060470"/>
    <nd ref="3510060469"/>
    <nd ref="3510060467"/>
    <nd ref="640105810"/>
    <nd ref="640105825"/>
    <nd ref="640105798"/>
    <nd ref="640105757"/>
    <tag k="building" v="yes"/>
    <tag k="building:levels" v="5"/>
    <tag k="name" v="Nazareth"/>
    <tag k="source" v="cadastre-dgi-fr source : Direction Générale des Impôts - Cadastre. Mise à jour : 2010"/>
  </way>
  <way id="50376099" version="5" timestamp="2019-09-15T20:53:51Z" changeset="74506411" uid="9197403" user="Valred7">
    <nd ref="640105818"/>
    <nd ref="640105820"/>
    <nd ref="3510060476"/>
    <nd ref="640105859"/>
    <nd ref="640105854"/>
    <nd ref="640105843"/>
    <nd ref="640105845"/>
    <nd ref="640105847"/>
    <nd ref="640105849"/>
    <nd ref="640105862"/>
    <nd ref="640105864"/>
    <nd ref="640105866"/>
    <nd ref="640105869"/>
    <nd ref="6797497790"/>
    <nd ref="640105872"/>
    <nd ref="6797497791"/>
    <nd ref="6797497792"/>
    <nd ref="6797497793"/>
    <nd ref="6797497794"/>
    <nd ref="805760173"/>
    <nd ref="6797497795"/>
    <nd ref="6797497796"/>
    <nd ref="805758869"/>
    <nd ref="6797497797"/>
    <nd ref="805759360"/>
    <nd ref="6797497798"/>
    <nd ref="6797497799"/>
    <nd ref="805759586"/>
    <nd ref="6797497800"/>
    <nd ref="805760056"/>
    <nd ref="6797497801"/>
    <nd ref="6797497802"/>
    <nd ref="6797497803"/>
    <nd ref="805758734"/>
    <nd ref="6797497804"/>
    <nd ref="6797497805"/>
    <nd ref="6797497806"/>
    <nd ref="6797497807"/>
    <nd ref="6797497808"/>
    <nd ref="640105827"/>
    <nd ref="640105808"/>
    <nd ref="640105818"/>
    <tag k="building" v="yes"/>
    <tag k="name" v="Beaussart (Classes Préparatoires)"/>
    <tag k="source" v="cadastre-dgi-fr source : Direction Générale des Impôts - Cadastre. Mise à jour : 2010"/>
  </way>
  <way id="50376101" version="1" timestamp="2010-02-15T18:22:15Z" changeset="3884358" uid="230751" user="Priso19">
    <nd ref="640105915"/>
    <nd ref="640105917"/>
    <nd ref="640105890"/>
    <nd ref="640105893"/>
    <nd ref="640105895"/>
    <nd ref="640105897"/>
    <nd ref="640105900"/>
    <nd ref="640105904"/>
    <nd ref="640105906"/>
    <nd ref="640105915"/>
    <tag k="building" v="yes"/>
    <tag k="name" v="Pastorale"/>
    <tag k="source" v="cadastre-dgi-fr source : Direction Générale des Impôts - Cadastre. Mise à jour : 2010"/>
  </way>
  <way id="50376102" version="5" timestamp="2024-09-27T17:22:00Z" changeset="157181726" uid="1205555" user="benoitdd">
    <nd ref="640105886"/>
    <nd ref="249880035"/>
    <nd ref="249880034"/>
    <nd ref="805759208"/>
    <nd ref="805759726"/>
    <nd ref="805760153"/>
    <nd ref="805760324"/>
    <nd ref="249880046"/>
    <nd ref="640105921"/>
    <nd ref="640105933"/>
    <nd ref="640105936"/>
    <nd ref="640105906"/>
    <nd ref="640105915"/>
    <nd ref="640105913"/>
    <nd ref="640105908"/>
    <nd ref="640105911"/>
    <nd ref="640105878"/>
    <nd ref="640105888"/>
    <nd ref="640105880"/>
    <nd ref="640105883"/>
    <nd ref="640105886"/>
    <tag k="building" v="residential"/>
    <tag k="name" v="Primaires et Internat du Lycée"/>
    <tag k="source" v="cadastre-dgi-fr source : Direction Générale des Impôts - Cadastre. Mise à jour : 2010"/>
  </way>
  <way id="50381753" version="2" timestamp="2015-05-11T11:25:57Z" changeset="31003457" uid="456113" user="eric_G">
    <nd ref="640105886"/>
    <nd ref="249880036"/>
    <nd ref="640180930"/>
    <nd ref="640180948"/>
    <nd ref="640180951"/>
    <nd ref="640180953"/>
    <nd ref="3510060484"/>
    <nd ref="640180956"/>
    <nd ref="3510060483"/>
    <nd ref="640180958"/>
    <nd ref="3510060485"/>
    <nd ref="640180962"/>
    <nd ref="3510060486"/>
    <nd ref="640181051"/>
    <nd ref="3510060487"/>
    <nd ref="640181057"/>
    <nd ref="3510060488"/>
    <nd ref="640181063"/>
    <nd ref="640181066"/>
    <nd ref="640181053"/>
    <nd ref="640181060"/>
    <nd ref="640181078"/>
    <nd ref="640181035"/>
    <nd ref="3510060490"/>
    <nd ref="640181044"/>
    <nd ref="640181032"/>
    <nd ref="640181029"/>
    <nd ref="640181026"/>
    <nd ref="640181021"/>
    <nd ref="640181017"/>
    <nd ref="640105883"/>
    <nd ref="640105886"/>
    <tag k="building" v="yes"/>
    <tag k="name" v="Mejecaze"/>
    <tag k="source" v="cadastre-dgi-fr source : Direction Générale des Impôts - Cadastre. Mise à jour : 2010"/>
  </way>
  <way id="59850459" version="16" timestamp="2023-12-31T20:14:49Z" changeset="145745342" uid="53964" user="_Mathieu_">
    <nd ref="24959181"/>
    <nd ref="11042019347"/>
    <nd ref="24959182"/>
    <nd ref="8119081359"/>
    <nd ref="24959184"/>
    <nd ref="666317852"/>
    <nd ref="6178062124"/>
    <nd ref="24959185"/>
    <tag k="cycleway" v="opposite"/>
    <tag k="highway" v="residential"/>
    <tag k="lit" v="yes"/>
    <tag k="maxspeed" v="30"/>
    <tag k="name" v="Rue Notre-Dame-des-Champs"/>
    <tag k="oneway" v="yes"/>
    <tag k="oneway:bicycle" v="no"/>
    <tag k="sidewalk:both" v="separate"/>
    <tag k="sidewalk:both:surface" v="asphalt"/>
    <tag k="surface" v="asphalt"/>
    <tag k="zone:maxspeed" v="FR:30"/>
  </way>
  <way id="62314198" version="11" timestamp="2024-10-12T03:10:51Z" changeset="157777982" uid="2678738" user="fgouget">
    <nd ref="25253928"/>
    <nd ref="786142279"/>
    <tag k="highway" v="tertiary"/>
    <tag k="lane_markings" v="no"/>
    <tag k="lit" v="yes"/>
    <tag k="maxspeed" v="30"/>
    <tag k="name" v="Place Michel Debré"/>
    <tag k="sidewalk:left" v="separate"/>
    <tag k="surface" v="asphalt"/>
  </way>
  <way id="63354407" version="21" timestamp="2024-03-27T15:32:54Z" changeset="149231251" uid="2678738" user="fgouget">
    <nd ref="24959061"/>
    <nd ref="11030326742"/>
    <nd ref="8119107003"/>
    <nd ref="24959062"/>
    <nd ref="8119107002"/>
    <nd ref="8129809897"/>
    <nd ref="24959041"/>
    <tag k="cycleway:left" v="opposite"/>
    <tag k="cycleway:right" v="no"/>
    <tag k="highway" v="residential"/>
    <tag k="lanes" v="1"/>
    <tag k="maxspeed" v="30"/>
    <tag k="name" v="Rue de Mézières"/>
    <tag k="oneway" v="yes"/>
    <tag k="oneway:bicycle" v="no"/>
    <tag k="service" v="alley"/>
    <tag k="sidewalk:both" v="separate"/>
    <tag k="source" v="cadastre-dgi-fr source : Direction Générale des Impôts - Cadastre. Mise à jour : 2010"/>
    <tag k="surface" v="asphalt"/>
  </way>
  <way id="63370983" version="9" timestamp="2017-02-11T13:18:23Z" changeset="45997494" uid="50179" user="Aroche">
    <nd ref="785654515"/>
    <nd ref="785653582"/>
    <nd ref="785655464"/>
    <nd ref="785654773"/>
    <nd ref="785653823"/>
    <nd ref="785655657"/>
    <nd ref="785654989"/>
    <nd ref="785654049"/>
    <nd ref="785655910"/>
    <nd ref="785655160"/>
    <nd ref="785654301"/>
    <nd ref="785653420"/>
    <nd ref="785655290"/>
    <nd ref="785654576"/>
    <nd ref="785653640"/>
    <nd ref="785655500"/>
    <nd ref="785654821"/>
    <nd ref="785653865"/>
    <nd ref="785655022"/>
    <nd ref="785654103"/>
    <nd ref="785653269"/>
    <nd ref="785655191"/>
    <nd ref="785654342"/>
    <nd ref="785653462"/>
    <nd ref="785655345"/>
    <nd ref="785654638"/>
    <nd ref="785653693"/>
    <nd ref="785655542"/>
    <nd ref="785654874"/>
    <nd ref="785655534"/>
    <nd ref="785654856"/>
    <nd ref="785653895"/>
    <nd ref="785655748"/>
    <nd ref="785655060"/>
    <nd ref="785654146"/>
    <nd ref="785653293"/>
    <nd ref="785654386"/>
    <nd ref="785653485"/>
    <nd ref="785655372"/>
    <nd ref="785654674"/>
    <nd ref="785653729"/>
    <nd ref="785655567"/>
    <nd ref="785653444"/>
    <nd ref="785653941"/>
    <nd ref="785655797"/>
    <nd ref="785655093"/>
    <nd ref="785654196"/>
    <nd ref="785655234"/>
    <nd ref="785655410"/>
    <nd ref="785654714"/>
    <nd ref="785655614"/>
    <nd ref="785654949"/>
    <nd ref="785653989"/>
    <nd ref="785655861"/>
    <nd ref="785655107"/>
    <nd ref="785655248"/>
    <nd ref="785654472"/>
    <nd ref="785654515"/>
    <tag k="amenity" v="place_of_worship"/>
    <tag k="building" v="church"/>
    <tag k="building:levels" v="1"/>
    <tag k="denomination" v="catholic"/>
    <tag k="name" v="Église Saint-Joseph des Carmes"/>
    <tag k="ref:FR:CEF" v="75106_05"/>
    <tag k="religion" v="christian"/>
    <tag k="source" v="cadastre-dgi-fr source : Direction Générale des Impôts - Cadastre. Mise à jour : 2010"/>
    <tag k="wheelchair" v="no"/>
    <tag k="wikidata" v="Q1153474"/>
    <tag k="wikipedia" v="fr:Église Saint-Joseph-des-Carmes"/>
  </way>
  <way id="63382014" version="15" timestamp="2024-07-12T10:21:55Z" changeset="153847922" uid="392288" user="Kalepom">
    <nd ref="25255322"/>
    <nd ref="6237646802"/>
    <nd ref="11030262698"/>
    <nd ref="6639686657"/>
    <nd ref="25253920"/>
    <tag k="cycleway:both" v="no"/>
    <tag k="highway" v="tertiary"/>
    <tag k="lanes" v="2"/>
    <tag k="maxspeed" v="30"/>
    <tag k="name" v="Place Alphonse Deville"/>
    <tag k="name:etymology:wikidata" v="Q15969764"/>
    <tag k="sidewalk:both" v="separate"/>
    <tag k="source" v="cadastre-dgi-fr source : Direction Générale des Impôts - Cadastre. Mise à jour : 2010"/>
    <tag k="source:maxspeed" v="FR:urban"/>
    <tag k="surface" v="asphalt"/>
  </way>
  <way id="63382022" version="9" timestamp="2022-08-01T21:24:12Z" changeset="124365402" uid="12424494" user="lovelyfurball88">
    <nd ref="785723871"/>
    <nd ref="785723239"/>
    <nd ref="785722586"/>
    <nd ref="785722829"/>
    <nd ref="785721934"/>
    <nd ref="785724164"/>
    <nd ref="785723065"/>
    <nd ref="785722157"/>
    <nd ref="785721224"/>
    <nd ref="785723490"/>
    <nd ref="785721370"/>
    <nd ref="785722611"/>
    <nd ref="785723526"/>
    <nd ref="805759738"/>
    <nd ref="785723871"/>
    <tag k="addr:city" v="Paris"/>
    <tag k="addr:housenumber" v="21"/>
    <tag k="addr:postcode" v="75006"/>
    <tag k="addr:street" v="Rue du Vieux Colombier"/>
    <tag k="amenity" v="theatre"/>
    <tag k="building" v="yes"/>
    <tag k="building:levels" v="7"/>
    <tag k="email" v="location@th-vieux-colombier.fr"/>
    <tag k="heritage" v="3"/>
    <tag k="heritage:operator" v="mhs"/>
    <tag k="image" v="https://upload.wikimedia.org/wikipedia/commons/8/8b/P1130332_Paris_VI_rue_du_Vieux-Colombier_n°21_Théâtre_du_Vieux-Colombier_rwk.JPG"/>
    <tag k="mhs:inscription_date" v="1978-01-04"/>
    <tag k="name" v="Théâtre du Vieux-Colombier"/>
    <tag k="operator" v="Comédie française"/>
    <tag k="phone" v="+33 144581515"/>
    <tag k="ref:mhs" v="PA00088665"/>
    <tag k="source:building" v="cadastre-dgi-fr source : Direction Générale des Impôts - Cadastre. Mise à jour : 2010"/>
    <tag k="source:heritage" v="Ministère de la Culture - 07/2018"/>
    <tag k="website" v="https://www.comedie-francaise.fr/la-comedie-francaise-aujourdhui.php?id=547"/>
    <tag k="wikidata" v="Q2711343"/>
    <tag k="wikipedia" v="fr:Théâtre du Vieux-Colombier"/>
  </way>
  <way id="63453942" version="9" timestamp="2022-07-09T16:11:35Z" changeset="123405722" uid="13081159" user="Geopod">
    <nd ref="786144800"/>
    <nd ref="786146137"/>
    <nd ref="786143013"/>
    <nd ref="786144420"/>
    <nd ref="786145795"/>
    <nd ref="786145385"/>
    <nd ref="786142231"/>
    <nd ref="786143671"/>
    <nd ref="786145053"/>
    <nd ref="786146421"/>
    <nd ref="786143262"/>
    <nd ref="786144698"/>
    <nd ref="786146034"/>
    <nd ref="786142892"/>
    <nd ref="786144301"/>
    <nd ref="786145669"/>
    <nd ref="786142504"/>
    <nd ref="786143955"/>
    <nd ref="786142137"/>
    <nd ref="786143558"/>
    <nd ref="786146330"/>
    <nd ref="786143180"/>
    <nd ref="786144625"/>
    <nd ref="786145946"/>
    <nd ref="786142808"/>
    <nd ref="786144194"/>
    <nd ref="786144534"/>
    <nd ref="786143065"/>
    <nd ref="805876522"/>
    <nd ref="805880183"/>
    <nd ref="786144800"/>
    <tag k="building" v="apartments"/>
    <tag k="community" v="SJ"/>
    <tag k="community:fr" v="Jésuites"/>
    <tag k="community:gender" v="male"/>
    <tag k="name" v="Communauté Saint-Jean-de-Brébeuf"/>
    <tag k="phone" v="+33 1 44 39 48 72"/>
    <tag k="source" v="cadastre-dgi-fr source : Direction Générale des Impôts - Cadastre. Mise à jour : 2010"/>
  </way>
  <way id="63454000" version="19" timestamp="2025-01-06T09:33:30Z" changeset="161049590" uid="1842888" user="nihombashi19">
    <nd ref="786145911"/>
    <nd ref="786142770"/>
    <nd ref="786144181"/>
    <nd ref="6103223141"/>
    <nd ref="6103223142"/>
    <nd ref="786143824"/>
    <nd ref="805758695"/>
    <nd ref="786143869"/>
    <nd ref="786145217"/>
    <nd ref="786146639"/>
    <nd ref="786143465"/>
    <nd ref="786144875"/>
    <nd ref="786146224"/>
    <nd ref="786143087"/>
    <nd ref="786145849"/>
    <nd ref="805759819"/>
    <nd ref="805759497"/>
    <nd ref="805758908"/>
    <nd ref="9497380830"/>
    <nd ref="805760183"/>
    <nd ref="786142740"/>
    <nd ref="786145722"/>
    <nd ref="786144351"/>
    <nd ref="786145990"/>
    <nd ref="786146266"/>
    <nd ref="786144130"/>
    <nd ref="786145013"/>
    <nd ref="786143618"/>
    <nd ref="786142162"/>
    <nd ref="786145500"/>
    <nd ref="786142356"/>
    <nd ref="786143789"/>
    <nd ref="786145146"/>
    <nd ref="786146555"/>
    <nd ref="786143383"/>
    <nd ref="786145911"/>
    <tag k="architect" v="Louis-Claude Boileau;Henri Tauzin"/>
    <tag k="building" v="yes"/>
    <tag k="building:levels" v="7"/>
    <tag k="contact:city" v="Paris"/>
    <tag k="contact:housenumber" v="45"/>
    <tag k="contact:postcode" v="75006"/>
    <tag k="contact:street" v="Boulevard Raspail"/>
    <tag k="heritage" v="3"/>
    <tag k="heritage:operator" v="mhs"/>
    <tag k="internet_access" v="wlan"/>
    <tag k="internet_access:fee" v="no"/>
    <tag k="mhs:inscription_date" v="2007-10-16"/>
    <tag k="name" v="Hôtel Lutétia"/>
    <tag k="ref:mhs" v="PA75060007"/>
    <tag k="rooms" v="231"/>
    <tag k="source" v="data.gouv.fr:Ministère de la Culture - 08/2011"/>
    <tag k="source:architect" v="data.gouv.fr:Ministère de la culture - 08/2017"/>
    <tag k="source:heritage" v="data.gouv.fr:Ministère de la Culture - 08/2011"/>
    <tag k="stars" v="5"/>
    <tag k="start_date" v="1910"/>
    <tag k="tourism" v="hotel"/>
    <tag k="website" v="https://www.hotellutetia.com"/>
    <tag k="wheelchair" v="no"/>
    <tag k="wikidata" v="Q1515595"/>
    <tag k="wikipedia" v="fr:Hôtel Lutetia"/>
  </way>
  <way id="63681841" version="8" timestamp="2024-05-10T07:56:37Z" changeset="151131815" uid="4346095" user="jerome92370">
    <nd ref="787704860"/>
    <nd ref="787706069"/>
    <nd ref="787703821"/>
    <nd ref="787705363"/>
    <nd ref="787706559"/>
    <nd ref="787704318"/>
    <nd ref="787705261"/>
    <nd ref="787706462"/>
    <nd ref="787704212"/>
    <nd ref="787705797"/>
    <nd ref="787705983"/>
    <nd ref="787703337"/>
    <nd ref="787703537"/>
    <nd ref="11893047126"/>
    <nd ref="805879634"/>
    <nd ref="787704860"/>
    <tag k="amenity" v="place_of_worship"/>
    <tag k="building" v="yes"/>
    <tag k="building:levels" v="2"/>
    <tag k="denomination" v="protestant"/>
    <tag k="name" v="Église Réformée du Luxembourg"/>
    <tag k="religion" v="christian"/>
    <tag k="service_times" v="Su 18:30"/>
    <tag k="source" v="cadastre-dgi-fr source : Direction Générale des Impôts - Cadastre. Mise à jour : 2010"/>
    <tag k="wheelchair" v="no"/>
  </way>
  <way id="63681878" version="9" timestamp="2024-05-04T09:10:56Z" changeset="150870053" uid="4346095" user="jerome92370">
    <nd ref="787704377"/>
    <nd ref="787704309"/>
    <nd ref="787705894"/>
    <nd ref="787703651"/>
    <nd ref="787705158"/>
    <nd ref="787706358"/>
    <nd ref="787704082"/>
    <nd ref="787705688"/>
    <nd ref="787703435"/>
    <nd ref="787704001"/>
    <nd ref="787705573"/>
    <nd ref="787703326"/>
    <nd ref="787703400"/>
    <nd ref="787703181"/>
    <nd ref="805876098"/>
    <nd ref="11878443245"/>
    <nd ref="805879399"/>
    <nd ref="805872304"/>
    <nd ref="787704848"/>
    <nd ref="805875480"/>
    <nd ref="787704377"/>
    <tag k="amenity" v="clinic"/>
    <tag k="building" v="hospital"/>
    <tag k="building:levels" v="7"/>
    <tag k="fax" v="+33 142220546"/>
    <tag k="healthcare" v="clinic"/>
    <tag k="name" v="Institut Arthur Vernes"/>
    <tag k="phone" v="+33 144395300"/>
    <tag k="ref:FR:FINESS" v="750300097"/>
    <tag k="ref:FR:SIRET" v="77566388300012"/>
    <tag k="source" v="cadastre-dgi-fr source : Direction Générale des Impôts - Cadastre. Mise à jour : 2010"/>
    <tag k="type:FR:FINESS" v="128"/>
    <tag k="website" v="https://www.institut-vernes.fr/"/>
    <tag k="wheelchair" v="yes"/>
  </way>
  <way id="63711036" version="10" timestamp="2025-01-06T17:11:39Z" changeset="161067207" uid="4346095" user="jerome92370">
    <nd ref="787963676"/>
    <nd ref="787965381"/>
    <nd ref="787965847"/>
    <nd ref="787965013"/>
    <nd ref="787963901"/>
    <nd ref="805759384"/>
    <nd ref="12478899039"/>
    <nd ref="787966051"/>
    <nd ref="787965221"/>
    <nd ref="787964208"/>
    <nd ref="787965413"/>
    <nd ref="787964097"/>
    <nd ref="787963243"/>
    <nd ref="787965196"/>
    <nd ref="787964833"/>
    <nd ref="787963676"/>
    <tag k="addr:housenumber" v="101"/>
    <tag k="addr:postcode" v="75270"/>
    <tag k="addr:street" v="Boulevard Raspail"/>
    <tag k="amenity" v="language_school"/>
    <tag k="building" v="yes"/>
    <tag k="name" v="Alliance française"/>
    <tag k="source" v="cadastre-dgi-fr source : Direction Générale des Impôts - Cadastre. Mise à jour : 2010"/>
    <tag k="wikidata" v="Q655810"/>
  </way>
  <way id="63711049" version="12" timestamp="2025-04-29T23:50:19Z" changeset="165612278" uid="11111142" user="GarlanTyrell">
    <nd ref="787964183"/>
    <nd ref="787963263"/>
    <nd ref="787965391"/>
    <nd ref="787964430"/>
    <nd ref="787963398"/>
    <nd ref="787965649"/>
    <nd ref="787965622"/>
    <nd ref="787964667"/>
    <nd ref="787963632"/>
    <nd ref="787965811"/>
    <nd ref="805759899"/>
    <nd ref="787965006"/>
    <nd ref="787963597"/>
    <nd ref="787966048"/>
    <nd ref="787965215"/>
    <nd ref="787963843"/>
    <nd ref="787965972"/>
    <nd ref="787965173"/>
    <nd ref="787964091"/>
    <nd ref="787963235"/>
    <nd ref="787965361"/>
    <nd ref="787964183"/>
    <tag k="addr:housenumber" v="26"/>
    <tag k="addr:postcode" v="75006"/>
    <tag k="addr:street" v="Rue Vavin"/>
    <tag k="architect" v="Henri Sauvage;Sarazin"/>
    <tag k="architect:wikipedia" v="fr:Henri Sauvage"/>
    <tag k="building" v="yes"/>
    <tag k="building:levels" v="9"/>
    <tag k="heritage" v="3"/>
    <tag k="heritage:operator" v="mhs"/>
    <tag k="mhs:inscription_date" v="1975"/>
    <tag k="name" v="Immeuble Henri Sauvage"/>
    <tag k="ref:mhs" v="PA00088645"/>
    <tag k="source" v="cadastre-dgi-fr source : Direction Générale des Impôts - Cadastre. Mise à jour : 2010"/>
    <tag k="source:heritage" v="data.gouv.fr:Ministère de la Culture - 08/2011"/>
    <tag k="tourism" v="attraction"/>
    <tag k="wikidata" v="Q21088680"/>
  </way>
  <way id="63848400" version="8" timestamp="2024-10-11T16:37:34Z" changeset="157765162" uid="7550430" user="Britzz">
    <nd ref="788825988"/>
    <nd ref="788826439"/>
    <nd ref="788827381"/>
    <nd ref="788826359"/>
    <nd ref="788826195"/>
    <nd ref="788826247"/>
    <nd ref="788826448"/>
    <nd ref="788827351"/>
    <nd ref="788827095"/>
    <nd ref="788826838"/>
    <nd ref="788826565"/>
    <nd ref="788826329"/>
    <nd ref="788826822"/>
    <nd ref="788826538"/>
    <nd ref="788826315"/>
    <nd ref="788826082"/>
    <nd ref="788827475"/>
    <nd ref="788827210"/>
    <nd ref="788826963"/>
    <nd ref="788826679"/>
    <nd ref="788825988"/>
    <tag k="addr:city" v="Paris"/>
    <tag k="addr:housenumber" v="57"/>
    <tag k="addr:postcode" v="75006"/>
    <tag k="addr:street" v="Rue notre dame des champs"/>
    <tag k="building" v="school"/>
    <tag k="building:levels" v="2"/>
    <tag k="height" v="8"/>
    <tag k="name" v="Centre de documentation et d'information"/>
    <tag k="source" v="cadastre-dgi-fr source : Direction Générale des Impôts - Cadastre. Mise à jour : 2010"/>
  </way>
  <way id="63848421" version="2" timestamp="2024-10-11T16:37:34Z" changeset="157765162" uid="7550430" user="Britzz">
    <nd ref="788826474"/>
    <nd ref="788826253"/>
    <nd ref="788826030"/>
    <nd ref="788827421"/>
    <nd ref="788826541"/>
    <nd ref="788826453"/>
    <nd ref="788826001"/>
    <nd ref="788826317"/>
    <nd ref="788826474"/>
    <tag k="building" v="yes"/>
    <tag k="name" v="Bâtiment 37"/>
    <tag k="source" v="cadastre-dgi-fr source : Direction Générale des Impôts - Cadastre. Mise à jour : 2010"/>
  </way>
  <way id="63848435" version="8" timestamp="2024-10-18T08:33:32Z" changeset="158039814" uid="11186869" user="Jeremyeny">
    <nd ref="788827013"/>
    <nd ref="788827278"/>
    <nd ref="788827513"/>
    <nd ref="805871921"/>
    <nd ref="788826216"/>
    <nd ref="788827013"/>
    <tag k="addr:city" v="Paris"/>
    <tag k="addr:housenumber" v="110"/>
    <tag k="addr:postcode" v="75006"/>
    <tag k="addr:street" v="Rue d'Assas"/>
    <tag k="amenity" v="bar"/>
    <tag k="brewery" v="yes;bière_pression_amstel_50cl"/>
    <tag k="building" v="apartments"/>
    <tag k="building:levels" v="4"/>
    <tag k="cuisine" v="Brasserie, Brunch, Café"/>
    <tag k="name" v="Les Facultés"/>
    <tag k="opening_hours" v="Mo-Fr 07:30-21:00; Sa 09:00-19:00"/>
    <tag k="opening_hours:happy_hour" v="Mo-Sa 15:00-20:00"/>
    <tag k="payment:cash" v="yes"/>
    <tag k="payment:mastercard" v="yes"/>
    <tag k="payment:visa" v="yes"/>
    <tag k="phone" v="+33 1 42264616"/>
    <tag k="source" v="cadastre-dgi-fr source : Direction Générale des Impôts - Cadastre. Mise à jour : 2010;https://lesfacultes.com/a-propos/;https://fr.mappy.com/poi/4d6c769dfc692507880710d7"/>
  </way>
  <way id="63848469" version="16" timestamp="2024-10-11T16:37:34Z" changeset="157765162" uid="7550430" user="Britzz">
    <nd ref="788826016"/>
    <nd ref="788826124"/>
    <nd ref="8825968620"/>
    <nd ref="788827406"/>
    <nd ref="788827142"/>
    <nd ref="788826886"/>
    <nd ref="788827386"/>
    <nd ref="11671993033"/>
    <nd ref="788827125"/>
    <nd ref="788826871"/>
    <nd ref="788826594"/>
    <nd ref="8825968618"/>
    <nd ref="788826109"/>
    <nd ref="788827495"/>
    <nd ref="788827255"/>
    <nd ref="788826253"/>
    <nd ref="788826474"/>
    <nd ref="788826228"/>
    <nd ref="788826001"/>
    <nd ref="788826453"/>
    <nd ref="788826204"/>
    <nd ref="788825992"/>
    <nd ref="788827371"/>
    <nd ref="788827115"/>
    <nd ref="788826858"/>
    <nd ref="788826191"/>
    <nd ref="788826433"/>
    <nd ref="788826582"/>
    <nd ref="788826925"/>
    <nd ref="788826407"/>
    <nd ref="788825919"/>
    <nd ref="788827300"/>
    <nd ref="788827044"/>
    <nd ref="788826775"/>
    <nd ref="788826503"/>
    <nd ref="788826266"/>
    <nd ref="788826016"/>
    <tag k="addr:postcode" v="75006"/>
    <tag k="building" v="school"/>
    <tag k="building:levels" v="3"/>
    <tag k="height" v="14"/>
    <tag k="name" v="Bâtiments 6 et 7"/>
    <tag k="source" v="cadastre-dgi-fr source : Direction Générale des Impôts - Cadastre. Mise à jour : 2010"/>
  </way>
  <way id="63848485" version="5" timestamp="2024-10-02T09:28:35Z" changeset="157370668" uid="22021080" user="AlFlo27">
    <nd ref="788827470"/>
    <nd ref="788826478"/>
    <nd ref="788826613"/>
    <nd ref="788826890"/>
    <nd ref="805876139"/>
    <nd ref="788826354"/>
    <nd ref="788827414"/>
    <nd ref="788826893"/>
    <nd ref="788827470"/>
    <tag k="addr:city" v="Paris"/>
    <tag k="addr:housenumber" v="109"/>
    <tag k="addr:postcode" v="75006"/>
    <tag k="addr:street" v="Rue Notre-Dame-des-Champs"/>
    <tag k="building" v="yes"/>
    <tag k="building:levels" v="2"/>
    <tag k="height" v="15"/>
    <tag k="name" v="Bâtiment 2 (collège)"/>
    <tag k="source" v="cadastre-dgi-fr source : Direction Générale des Impôts - Cadastre. Mise à jour : 2010"/>
  </way>
  <way id="63848487" version="7" timestamp="2024-12-31T16:40:45Z" changeset="160840832" uid="1598001" user="OsmIdf">
    <nd ref="788827414"/>
    <nd ref="788826354"/>
    <nd ref="805873344"/>
    <nd ref="788826123"/>
    <nd ref="788827506"/>
    <nd ref="788826166"/>
    <nd ref="788827022"/>
    <nd ref="788826754"/>
    <nd ref="788827470"/>
    <nd ref="788826893"/>
    <nd ref="788827414"/>
    <tag k="architect" v="F. Boizot"/>
    <tag k="building" v="school"/>
    <tag k="building:levels" v="2"/>
    <tag k="name" v="Entrée 109"/>
    <tag k="roof:levels" v="1"/>
    <tag k="source" v="cadastre-dgi-fr source : Direction Générale des Impôts - Cadastre. Mise à jour : 2010"/>
    <tag k="start_date" v="1883"/>
  </way>
  <way id="63848526" version="5" timestamp="2024-10-11T16:37:34Z" changeset="157765162" uid="7550430" user="Britzz">
    <nd ref="788827412"/>
    <nd ref="788827147"/>
    <nd ref="788826036"/>
    <nd ref="788826259"/>
    <nd ref="805879452"/>
    <nd ref="788826890"/>
    <nd ref="788826613"/>
    <nd ref="788826372"/>
    <nd ref="788826150"/>
    <nd ref="788827520"/>
    <nd ref="788827412"/>
    <tag k="building" v="yes"/>
    <tag k="building:levels" v="6"/>
    <tag k="name" v="Bâtiment 3"/>
    <tag k="source" v="cadastre-dgi-fr source : Direction Générale des Impôts - Cadastre. Mise à jour : 2010"/>
  </way>
  <way id="63848548" version="5" timestamp="2024-10-11T16:37:34Z" changeset="157765162" uid="7550430" user="Britzz">
    <nd ref="788827422"/>
    <nd ref="805874514"/>
    <nd ref="788827163"/>
    <nd ref="788826909"/>
    <nd ref="788826620"/>
    <nd ref="788826392"/>
    <nd ref="788826159"/>
    <nd ref="788826609"/>
    <nd ref="788827459"/>
    <nd ref="788827130"/>
    <nd ref="788827422"/>
    <tag k="addr:housenumber" v="111"/>
    <tag k="addr:street" v="Rue Notre-Dame des Champs"/>
    <tag k="building" v="yes"/>
    <tag k="building:levels" v="6"/>
    <tag k="source" v="cadastre-dgi-fr source : Direction Générale des Impôts - Cadastre. Mise à jour : 2010"/>
  </way>
  <way id="63848609" version="11" timestamp="2024-10-11T16:37:34Z" changeset="157765162" uid="7550430" user="Britzz">
    <nd ref="788826754"/>
    <nd ref="788826614"/>
    <nd ref="788826006"/>
    <nd ref="788827391"/>
    <nd ref="788827130"/>
    <nd ref="788827459"/>
    <nd ref="788826944"/>
    <nd ref="788826660"/>
    <nd ref="788826424"/>
    <nd ref="788826182"/>
    <nd ref="788825943"/>
    <nd ref="788827321"/>
    <nd ref="788826174"/>
    <nd ref="788826754"/>
    <tag k="building" v="yes"/>
    <tag k="building:levels" v="5"/>
    <tag k="height" v="4"/>
    <tag k="layer" v="-1"/>
    <tag k="name" v="Bâtiment 1"/>
    <tag k="roof:levels" v="1"/>
    <tag k="source" v="cadastre-dgi-fr source : Direction Générale des Impôts - Cadastre. Mise à jour : 2010"/>
  </way>
  <way id="63848625" version="12" timestamp="2024-10-11T16:37:34Z" changeset="157765162" uid="7550430" user="Britzz">
    <nd ref="788826528"/>
    <nd ref="788826805"/>
    <nd ref="788826794"/>
    <nd ref="788826519"/>
    <nd ref="788827458"/>
    <nd ref="788827179"/>
    <nd ref="788826930"/>
    <nd ref="788825931"/>
    <nd ref="788827304"/>
    <nd ref="788826779"/>
    <nd ref="788826844"/>
    <nd ref="788827231"/>
    <nd ref="788826689"/>
    <nd ref="788825967"/>
    <nd ref="788827341"/>
    <nd ref="788826828"/>
    <nd ref="788826557"/>
    <nd ref="788826321"/>
    <nd ref="788826297"/>
    <nd ref="788826076"/>
    <nd ref="788827466"/>
    <nd ref="788827202"/>
    <nd ref="788826956"/>
    <nd ref="788826670"/>
    <nd ref="788826433"/>
    <nd ref="788826191"/>
    <nd ref="788827015"/>
    <nd ref="788826240"/>
    <nd ref="805874866"/>
    <nd ref="788826528"/>
    <tag k="addr:city" v="Paris"/>
    <tag k="addr:housenumber" v="128"/>
    <tag k="addr:postcode" v="75006"/>
    <tag k="addr:street" v="Rue d'Assas"/>
    <tag k="architect" v="Ph. Bosseau"/>
    <tag k="building" v="school"/>
    <tag k="building:levels" v="6"/>
    <tag k="name" v="Bâtiment 8, section élémentaire"/>
    <tag k="operator" v="Ecole Alsacienne"/>
    <tag k="operator:type" v="private"/>
    <tag k="religion" v="none"/>
    <tag k="source" v="cadastre-dgi-fr source : Direction Générale des Impôts - Cadastre. Mise à jour : 2010"/>
    <tag k="source:architect" v="survey"/>
    <tag k="start_date" v="1987"/>
  </way>
  <way id="63863016" version="5" timestamp="2025-01-06T10:10:47Z" changeset="161050760" uid="4346095" user="jerome92370">
    <nd ref="788908513"/>
    <nd ref="788908694"/>
    <nd ref="788908509"/>
    <nd ref="788908351"/>
    <nd ref="788908216"/>
    <nd ref="788909095"/>
    <nd ref="788908680"/>
    <nd ref="788908593"/>
    <nd ref="788908291"/>
    <nd ref="788908435"/>
    <nd ref="788908328"/>
    <nd ref="788908482"/>
    <nd ref="12478166548"/>
    <nd ref="805871511"/>
    <nd ref="788908902"/>
    <nd ref="788909090"/>
    <nd ref="788908896"/>
    <nd ref="788908755"/>
    <nd ref="788908585"/>
    <nd ref="788908416"/>
    <nd ref="788908278"/>
    <nd ref="788909169"/>
    <nd ref="788908973"/>
    <nd ref="788908451"/>
    <nd ref="788908300"/>
    <nd ref="788909205"/>
    <nd ref="788909049"/>
    <nd ref="788908847"/>
    <nd ref="788908722"/>
    <nd ref="788908544"/>
    <nd ref="788908380"/>
    <nd ref="788908533"/>
    <nd ref="788908369"/>
    <nd ref="788908232"/>
    <nd ref="788909115"/>
    <nd ref="788908925"/>
    <nd ref="788908778"/>
    <nd ref="788908652"/>
    <nd ref="788908917"/>
    <nd ref="788908777"/>
    <nd ref="788908513"/>
    <tag k="building" v="yes"/>
    <tag k="name" v="Reid Hall"/>
    <tag k="source" v="cadastre-dgi-fr source : Direction Générale des Impôts - Cadastre. Mise à jour : 2010"/>
  </way>
  <way id="63863043" version="5" timestamp="2023-02-18T23:51:53Z" changeset="132732428" uid="1842888" user="nihombashi19">
    <nd ref="788909059"/>
    <nd ref="788908947"/>
    <nd ref="788908858"/>
    <nd ref="788908190"/>
    <nd ref="805880415"/>
    <nd ref="788908734"/>
    <nd ref="788908295"/>
    <nd ref="788908670"/>
    <nd ref="788908728"/>
    <nd ref="788909059"/>
    <tag k="building" v="yes"/>
    <tag k="name" v="Villa Luxembourg"/>
    <tag k="source" v="cadastre-dgi-fr source : Direction Générale des Impôts - Cadastre. Mise à jour : 2010"/>
    <tag k="tourism" v="hotel"/>
  </way>
  <way id="64103858" version="6" timestamp="2022-12-28T16:16:20Z" changeset="130609320" uid="709325" user="Anne-Laure-F">
    <nd ref="790434806"/>
    <nd ref="790433672"/>
    <nd ref="790435551"/>
    <nd ref="790434718"/>
    <nd ref="790433609"/>
    <nd ref="790435798"/>
    <nd ref="790434987"/>
    <nd ref="790433893"/>
    <nd ref="790433012"/>
    <nd ref="790435178"/>
    <nd ref="790435189"/>
    <nd ref="790434186"/>
    <nd ref="790433271"/>
    <nd ref="790435377"/>
    <nd ref="790434505"/>
    <nd ref="790433470"/>
    <nd ref="790435633"/>
    <nd ref="790434926"/>
    <nd ref="790435764"/>
    <nd ref="790433920"/>
    <nd ref="790434822"/>
    <nd ref="790435020"/>
    <nd ref="790433425"/>
    <nd ref="790435569"/>
    <nd ref="790434742"/>
    <nd ref="790433627"/>
    <nd ref="790435817"/>
    <nd ref="790435002"/>
    <nd ref="790433026"/>
    <nd ref="805881436"/>
    <nd ref="3208636882"/>
    <nd ref="3208636883"/>
    <nd ref="805874236"/>
    <nd ref="805876558"/>
    <nd ref="790434806"/>
    <tag k="addr:housenumber" v="92"/>
    <tag k="addr:street" v="Rue d'Assas"/>
    <tag k="building" v="university"/>
    <tag k="source" v="cadastre-dgi-fr source : Direction Générale des Impôts - Cadastre. Mise à jour : 2010"/>
  </way>
  <way id="64103942" version="5" timestamp="2024-11-03T10:03:04Z" changeset="158691210" uid="2588427" user="RT59RC">
    <nd ref="790433778"/>
    <nd ref="790434952"/>
    <nd ref="805954879"/>
    <nd ref="805954724"/>
    <nd ref="805955318"/>
    <nd ref="790432963"/>
    <nd ref="790435199"/>
    <nd ref="790433041"/>
    <nd ref="790434122"/>
    <nd ref="790433227"/>
    <nd ref="790433403"/>
    <nd ref="790434026"/>
    <nd ref="790433778"/>
    <tag k="building" v="university"/>
    <tag k="building:levels" v="9"/>
    <tag k="name" v="Université Paris-Panthéon-Assas - Centre Vavin"/>
    <tag k="name:en" v="Panthéon-Assas University Paris, Vavin Campus"/>
    <tag k="source" v="cadastre-dgi-fr source : Direction Générale des Impôts - Cadastre. Mise à jour : 2010"/>
  </way>
  <way id="64103955" version="5" timestamp="2022-12-28T16:17:29Z" changeset="130609320" uid="709325" user="Anne-Laure-F">
    <nd ref="790435661"/>
    <nd ref="790433480"/>
    <nd ref="805871285"/>
    <nd ref="790432886"/>
    <nd ref="790435107"/>
    <nd ref="790435661"/>
    <tag k="addr:housenumber" v="83 bis"/>
    <tag k="addr:street" v="Rue Notre-Dame-des-Champs"/>
    <tag k="building" v="university"/>
    <tag k="building:levels" v="6"/>
    <tag k="source" v="cadastre-dgi-fr source : Direction Générale des Impôts - Cadastre. Mise à jour : 2010"/>
  </way>
  <way id="64113855" version="16" timestamp="2024-08-15T17:26:47Z" changeset="155294126" uid="11963177" user="JeroenvanderGun">
    <nd ref="27018634"/>
    <nd ref="790499128"/>
    <nd ref="36592487"/>
    <tag k="cycleway:both" v="no"/>
    <tag k="enforcement:operator" v="Police nationale"/>
    <tag k="foot" v="no"/>
    <tag k="highway" v="primary"/>
    <tag k="lane_markings" v="no"/>
    <tag k="lit" v="yes"/>
    <tag k="maxspeed" v="30"/>
    <tag k="name" v="Boulevard du Montparnasse"/>
    <tag k="operator" v="Ville de Paris"/>
    <tag k="operator:authority" v="Maire de Paris après avis du préfet de police"/>
    <tag k="operator:authority:related_law" v="IV de l'article L. 2512-14 du code général des collectivités territoriales"/>
    <tag k="operator:url" v="https://cdn.paris.fr/paris/2020/02/26/5bf469a311d0beb9911e92d113781550.ai"/>
    <tag k="sidewalk" v="no"/>
    <tag k="smoothness" v="good"/>
    <tag k="surface" v="asphalt"/>
  </way>
  <way id="64113887" version="7" timestamp="2022-01-05T18:46:43Z" changeset="115808930" uid="2009801" user="luyoup">
    <nd ref="790499131"/>
    <nd ref="805759418"/>
    <nd ref="805759124"/>
    <nd ref="805760327"/>
    <nd ref="790499177"/>
    <nd ref="790498349"/>
    <nd ref="790498734"/>
    <nd ref="790498968"/>
    <nd ref="790498482"/>
    <nd ref="790498843"/>
    <nd ref="790499068"/>
    <nd ref="790498740"/>
    <nd ref="790498356"/>
    <nd ref="790499182"/>
    <nd ref="790498812"/>
    <nd ref="790499131"/>
    <tag k="addr:city" v="Paris"/>
    <tag k="addr:housenumber" v="30"/>
    <tag k="addr:postcode" v="75006"/>
    <tag k="addr:street" v="Rue du Montparnasse"/>
    <tag k="architect" v="Peigniet;Marnez"/>
    <tag k="building" v="apartments"/>
    <tag k="building:levels" v="7"/>
    <tag k="name" v="maison paris 6e"/>
    <tag k="source" v="cadastre-dgi-fr source : Direction Générale des Impôts - Cadastre. Mise à jour : 2010"/>
  </way>
  <way id="64121803" version="12" timestamp="2024-02-15T09:55:48Z" changeset="147483304" uid="8874984" user="anyroka">
    <nd ref="790502916"/>
    <nd ref="790502961"/>
    <nd ref="790503014"/>
    <nd ref="790502949"/>
    <nd ref="790502994"/>
    <nd ref="790502922"/>
    <nd ref="790502968"/>
    <nd ref="790503003"/>
    <nd ref="790502965"/>
    <nd ref="790502975"/>
    <nd ref="790502937"/>
    <nd ref="790502902"/>
    <nd ref="790502984"/>
    <nd ref="805760146"/>
    <nd ref="805758795"/>
    <nd ref="790502923"/>
    <nd ref="790503009"/>
    <nd ref="805760059"/>
    <nd ref="790502969"/>
    <nd ref="790502919"/>
    <nd ref="790503005"/>
    <nd ref="790502930"/>
    <nd ref="790502938"/>
    <nd ref="790502903"/>
    <nd ref="790502958"/>
    <nd ref="790502924"/>
    <nd ref="790502933"/>
    <nd ref="790502978"/>
    <nd ref="790503020"/>
    <nd ref="790502940"/>
    <nd ref="790502905"/>
    <nd ref="790502914"/>
    <nd ref="790503013"/>
    <nd ref="790502972"/>
    <nd ref="790502935"/>
    <nd ref="790502898"/>
    <nd ref="790502980"/>
    <nd ref="804285982"/>
    <nd ref="790502944"/>
    <nd ref="790502907"/>
    <nd ref="790502988"/>
    <nd ref="790502942"/>
    <nd ref="790502951"/>
    <nd ref="790502998"/>
    <nd ref="790502960"/>
    <nd ref="790502926"/>
    <nd ref="790502900"/>
    <nd ref="790502983"/>
    <nd ref="790502947"/>
    <nd ref="790502909"/>
    <nd ref="790502992"/>
    <nd ref="790502955"/>
    <nd ref="790502921"/>
    <nd ref="790502953"/>
    <nd ref="790503001"/>
    <nd ref="790502963"/>
    <nd ref="790503016"/>
    <nd ref="790502936"/>
    <nd ref="790502901"/>
    <nd ref="790502948"/>
    <nd ref="790502993"/>
    <nd ref="790502956"/>
    <nd ref="790502989"/>
    <nd ref="790502954"/>
    <nd ref="790502918"/>
    <nd ref="790503002"/>
    <nd ref="790502964"/>
    <nd ref="790502929"/>
    <nd ref="790503017"/>
    <nd ref="790502974"/>
    <nd ref="790502913"/>
    <nd ref="790502996"/>
    <nd ref="790503011"/>
    <nd ref="790502970"/>
    <nd ref="790502932"/>
    <nd ref="790503008"/>
    <nd ref="790502967"/>
    <nd ref="790502931"/>
    <nd ref="790503019"/>
    <nd ref="790502976"/>
    <nd ref="790502939"/>
    <nd ref="790502904"/>
    <nd ref="790502985"/>
    <nd ref="790502959"/>
    <nd ref="790502925"/>
    <nd ref="790503012"/>
    <nd ref="790502934"/>
    <nd ref="790502979"/>
    <nd ref="790502943"/>
    <nd ref="790502977"/>
    <nd ref="790502941"/>
    <nd ref="790502987"/>
    <nd ref="790502997"/>
    <nd ref="790502973"/>
    <nd ref="790502899"/>
    <nd ref="790502981"/>
    <nd ref="790502990"/>
    <nd ref="790502906"/>
    <nd ref="790502952"/>
    <nd ref="790503000"/>
    <nd ref="790502927"/>
    <nd ref="790503015"/>
    <nd ref="790502946"/>
    <nd ref="790502991"/>
    <nd ref="790502920"/>
    <nd ref="790502966"/>
    <nd ref="790502917"/>
    <nd ref="790502928"/>
    <nd ref="790502916"/>
    <tag k="amenity" v="place_of_worship"/>
    <tag k="building" v="church"/>
    <tag k="building:levels" v="7"/>
    <tag k="check_date" v="2024-02-15"/>
    <tag k="denomination" v="catholic"/>
    <tag k="name" v="Église Notre-Dame des Champs"/>
    <tag k="ref:FR:CEF" v="75106_02"/>
    <tag k="religion" v="christian"/>
    <tag k="source" v="cadastre-dgi-fr source : Direction Générale des Impôts - Cadastre. Mise à jour : 2010"/>
    <tag k="wheelchair" v="yes"/>
    <tag k="wikidata" v="Q3492201"/>
  </way>
  <way id="64301484" version="4" timestamp="2022-10-29T02:14:55Z" changeset="128195704" uid="15094172" user="chl-osm">
    <nd ref="791726565"/>
    <nd ref="791726586"/>
    <nd ref="791726657"/>
    <nd ref="791726545"/>
    <nd ref="791726599"/>
    <nd ref="791726565"/>
    <tag k="building" v="retail"/>
    <tag k="building:levels" v="1"/>
    <tag k="contact:mobile" v="+33 6 07 58 23 23"/>
    <tag k="contact:phone" v="+33 1 45 44 29 33"/>
    <tag k="name" v="Maison Philippe T."/>
    <tag k="opening_hours" v="Th-Sa 10:30-19:00"/>
    <tag k="operator" v="René Tamburrini"/>
    <tag k="shop" v="antiques"/>
    <tag k="source" v="cadastre-dgi-fr source : Direction Générale des Impôts - Cadastre. Mise à jour : 2010"/>
  </way>
  <way id="64302310" version="5" timestamp="2024-09-27T17:22:00Z" changeset="157181726" uid="1205555" user="benoitdd">
    <nd ref="791750872"/>
    <nd ref="791750783"/>
    <nd ref="791750249"/>
    <nd ref="791750533"/>
    <nd ref="791750828"/>
    <nd ref="791750472"/>
    <nd ref="791750756"/>
    <nd ref="791750841"/>
    <nd ref="791750686"/>
    <nd ref="791750042"/>
    <nd ref="791750403"/>
    <nd ref="791750056"/>
    <nd ref="791750339"/>
    <nd ref="791750418"/>
    <nd ref="791750699"/>
    <nd ref="791750268"/>
    <nd ref="791750547"/>
    <nd ref="791750629"/>
    <nd ref="791750918"/>
    <nd ref="791750560"/>
    <nd ref="791750855"/>
    <nd ref="791750933"/>
    <nd ref="791750283"/>
    <nd ref="791750773"/>
    <nd ref="791750131"/>
    <nd ref="791750435"/>
    <nd ref="791750353"/>
    <nd ref="791750070"/>
    <nd ref="791750288"/>
    <nd ref="791750569"/>
    <nd ref="791750426"/>
    <nd ref="791750494"/>
    <nd ref="791750442"/>
    <nd ref="791750807"/>
    <nd ref="791750639"/>
    <nd ref="791750075"/>
    <nd ref="791750301"/>
    <nd ref="791750872"/>
    <tag k="amenity" v="place_of_worship"/>
    <tag k="building" v="chapel"/>
    <tag k="building:levels" v="1"/>
    <tag k="name" v="Chapelle de la Congrégation Notre-Dame de Fidélité"/>
    <tag k="religion" v="christian"/>
    <tag k="source" v="cadastre-dgi-fr source : Direction Générale des Impôts - Cadastre. Mise à jour : 2010"/>
    <tag k="source:name" v="BD Topo"/>
  </way>
  <way id="64302314" version="4" timestamp="2024-12-31T16:40:45Z" changeset="160840832" uid="1598001" user="OsmIdf">
    <nd ref="791750360"/>
    <nd ref="249880043"/>
    <nd ref="791750725"/>
    <nd ref="791750386"/>
    <nd ref="791750666"/>
    <nd ref="791750360"/>
    <tag k="building" v="service"/>
    <tag k="building:levels" v="1"/>
    <tag k="name" v="PC Col Stanislas 28 R Montparnasse"/>
    <tag k="operator" v="Enedis"/>
    <tag k="operator:wikidata" v="Q3587594"/>
    <tag k="power" v="substation"/>
    <tag k="service" v="utility"/>
    <tag k="source" v="cadastre-dgi-fr source : Direction Générale des Impôts - Cadastre. Mise à jour : 2010"/>
    <tag k="substation" v="minor_distribution"/>
  </way>
  <way id="64302349" version="7" timestamp="2023-06-09T15:24:06Z" changeset="137142309" uid="15094172" user="chl-osm">
    <nd ref="791750813"/>
    <nd ref="791750161"/>
    <nd ref="249880038"/>
    <nd ref="791750001"/>
    <nd ref="804285854"/>
    <nd ref="791750813"/>
    <tag k="addr:housenumber" v="159"/>
    <tag k="addr:street" v="Rue de Rennes"/>
    <tag k="building" v="hotel"/>
    <tag k="building:levels" v="7"/>
    <tag k="contact:email" v="resa@hotelroyalsaintgermain.com"/>
    <tag k="name" v="Hôtel Royal Saint-Germain"/>
    <tag k="phone" v="+33 1 44 39 26 26"/>
    <tag k="source" v="cadastre-dgi-fr source : Direction Générale des Impôts - Cadastre. Mise à jour : 2010"/>
    <tag k="stars" v="3"/>
    <tag k="tourism" v="hotel"/>
    <tag k="website" v="https://hotelroyalsaintgermain.com/"/>
  </way>
  <way id="64302354" version="5" timestamp="2015-06-21T12:33:21Z" changeset="32116046" uid="92075" user="Art Penteur">
    <nd ref="791750652"/>
    <nd ref="791750728"/>
    <nd ref="791750451"/>
    <nd ref="791750280"/>
    <nd ref="791750930"/>
    <nd ref="791750237"/>
    <nd ref="791750522"/>
    <nd ref="791750600"/>
    <nd ref="791750889"/>
    <nd ref="791750732"/>
    <nd ref="791750089"/>
    <nd ref="791750167"/>
    <nd ref="791750454"/>
    <nd ref="791750010"/>
    <nd ref="791750298"/>
    <nd ref="791750367"/>
    <nd ref="791750655"/>
    <nd ref="791750312"/>
    <nd ref="791750603"/>
    <nd ref="791750674"/>
    <nd ref="791750029"/>
    <nd ref="791750524"/>
    <nd ref="791750819"/>
    <nd ref="791750892"/>
    <nd ref="791750240"/>
    <nd ref="791750832"/>
    <nd ref="791750187"/>
    <nd ref="791750257"/>
    <nd ref="791750537"/>
    <nd ref="791750105"/>
    <nd ref="791750394"/>
    <nd ref="791750466"/>
    <nd ref="791750746"/>
    <nd ref="791750407"/>
    <nd ref="791750693"/>
    <nd ref="791750761"/>
    <nd ref="791750124"/>
    <nd ref="791750619"/>
    <nd ref="791750909"/>
    <nd ref="791750047"/>
    <nd ref="791750329"/>
    <nd ref="791750923"/>
    <nd ref="249880035"/>
    <nd ref="249880034"/>
    <nd ref="805760219"/>
    <nd ref="805758943"/>
    <nd ref="805759546"/>
    <nd ref="805760112"/>
    <nd ref="791750310"/>
    <nd ref="791750652"/>
    <tag k="amenity" v="monastery"/>
    <tag k="building" v="house"/>
    <tag k="denomination" v="catholic"/>
    <tag k="name" v="Sœurs du Bon Secours"/>
    <tag k="religion" v="christian"/>
    <tag k="source" v="cadastre-dgi-fr source : Direction Générale des Impôts - Cadastre. Mise à jour : 2010"/>
  </way>
  <way id="64306083" version="5" timestamp="2025-04-24T23:07:28Z" changeset="165400617" uid="15094172" user="chl-osm">
    <nd ref="791780514"/>
    <nd ref="791780910"/>
    <nd ref="791779900"/>
    <nd ref="791779984"/>
    <nd ref="791780386"/>
    <nd ref="791780031"/>
    <nd ref="791780734"/>
    <nd ref="791779805"/>
    <nd ref="791780160"/>
    <nd ref="804245655"/>
    <nd ref="791780514"/>
    <tag k="alt_name" v="Centre de Formation Permanente"/>
    <tag k="amenity" v="college"/>
    <tag k="building" v="college"/>
    <tag k="building:levels" v="8"/>
    <tag k="name" v="Centre de Formation des Apprentis"/>
    <tag k="operator" v="Université Paris-Panthéon-Assas"/>
    <tag k="operator:type" v="public"/>
    <tag k="ref:UAI" v="0753136B"/>
    <tag k="source" v="cadastre-dgi-fr source : Direction Générale des Impôts - Cadastre. Mise à jour : 2010"/>
  </way>
  <way id="64306102" version="7" timestamp="2023-06-09T15:24:06Z" changeset="137142309" uid="15094172" user="chl-osm">
    <nd ref="791779955"/>
    <nd ref="791779868"/>
    <nd ref="791780126"/>
    <nd ref="791779779"/>
    <nd ref="4896667996"/>
    <nd ref="804245537"/>
    <nd ref="791779892"/>
    <nd ref="791780246"/>
    <nd ref="791780378"/>
    <nd ref="791780729"/>
    <nd ref="791780142"/>
    <nd ref="791780539"/>
    <nd ref="791780638"/>
    <nd ref="791779796"/>
    <nd ref="804245467"/>
    <nd ref="791779955"/>
    <tag k="brand" v="Best Western"/>
    <tag k="brand:wikidata" v="Q830334"/>
    <tag k="brand:wikipedia" v="fr:Best Western"/>
    <tag k="building" v="yes"/>
    <tag k="building:levels" v="6"/>
    <tag k="contact:website" v="http://www.hotel-aramis.com/"/>
    <tag k="name" v="Aramis Saint-Germain"/>
    <tag k="phone" v="+33 1 45 48 03 75"/>
    <tag k="ref:FR:SIREN" v="332226240"/>
    <tag k="ref:FR:SIRET" v="33222624000031"/>
    <tag k="source" v="cadastre-dgi-fr source : Direction Générale des Impôts - Cadastre. Mise à jour : 2010"/>
    <tag k="stars" v="3"/>
    <tag k="tourism" v="hotel"/>
  </way>
  <way id="64308587" version="10" timestamp="2023-08-23T15:05:28Z" changeset="140280944" uid="15175787" user="uMatt-5">
    <nd ref="791794060"/>
    <nd ref="791793428"/>
    <nd ref="791793530"/>
    <nd ref="791793812"/>
    <nd ref="791794047"/>
    <nd ref="791793069"/>
    <nd ref="791793505"/>
    <nd ref="791793621"/>
    <nd ref="791793872"/>
    <nd ref="791793935"/>
    <nd ref="791793192"/>
    <nd ref="791793750"/>
    <nd ref="791793166"/>
    <nd ref="791793593"/>
    <nd ref="791793681"/>
    <nd ref="791793289"/>
    <nd ref="791793984"/>
    <nd ref="804285880"/>
    <nd ref="791793353"/>
    <nd ref="791793818"/>
    <nd ref="791794060"/>
    <tag k="addr:city" v="Paris"/>
    <tag k="addr:housenumber" v="47"/>
    <tag k="addr:postcode" v="75006"/>
    <tag k="addr:street" v="Boulevard du Montparnasse"/>
    <tag k="amenity" v="restaurant"/>
    <tag k="building" v="yes"/>
    <tag k="cuisine" v="chinese"/>
    <tag k="name" v="Trantranzai"/>
    <tag k="opening_hours" v="Mo-Th 12:00-22:30, Fr-Sa 12:00-23:00, Su 12:00-22:30"/>
    <tag k="phone" v="+33 9 52 04 41 22"/>
    <tag k="source" v="cadastre-dgi-fr source : Direction Générale des Impôts - Cadastre. Mise à jour : 2010"/>
    <tag k="website" v="https://trantranzai.fr/"/>
  </way>
  <way id="64308687" version="6" timestamp="2024-07-28T15:08:26Z" changeset="154525607" uid="15094172" user="chl-osm">
    <nd ref="791793968"/>
    <nd ref="791793734"/>
    <nd ref="791793989"/>
    <nd ref="791793704"/>
    <nd ref="791793938"/>
    <nd ref="791794004"/>
    <nd ref="791793322"/>
    <nd ref="791793999"/>
    <nd ref="791793753"/>
    <nd ref="791793074"/>
    <nd ref="804245725"/>
    <nd ref="791793197"/>
    <nd ref="791793968"/>
    <tag k="building" v="yes"/>
    <tag k="check_date" v="2024-05-25"/>
    <tag k="contact:phone" v="+33 1 53 63 25 50"/>
    <tag k="contact:website" v="http://www.louison-hotel.com/"/>
    <tag k="name" v="Louison"/>
    <tag k="source" v="cadastre-dgi-fr source : Direction Générale des Impôts - Cadastre. Mise à jour : 2010"/>
    <tag k="stars" v="4"/>
    <tag k="tourism" v="hotel"/>
  </way>
  <way id="64308718" version="7" timestamp="2024-04-27T11:58:10Z" changeset="150576413" uid="2252690" user="gourlaysama">
    <nd ref="791793877"/>
    <nd ref="791793630"/>
    <nd ref="791794006"/>
    <nd ref="791794019"/>
    <nd ref="804285849"/>
    <nd ref="791793953"/>
    <nd ref="804423829"/>
    <nd ref="791793985"/>
    <nd ref="791793751"/>
    <nd ref="791793877"/>
    <tag k="building" v="yes"/>
    <tag k="building:levels" v="7"/>
    <tag k="check_date" v="2024-04-26"/>
    <tag k="created_by" v="iLOE 1.9"/>
    <tag k="name" v="Hôtel Edouard VI"/>
    <tag k="source" v="survey"/>
    <tag k="tourism" v="hotel"/>
  </way>
  <way id="64308728" version="8" timestamp="2024-07-28T15:08:26Z" changeset="154525607" uid="15094172" user="chl-osm">
    <nd ref="791793083"/>
    <nd ref="804285885"/>
    <nd ref="791793270"/>
    <nd ref="791793665"/>
    <nd ref="791793312"/>
    <nd ref="791793542"/>
    <nd ref="791793109"/>
    <nd ref="791793000"/>
    <nd ref="791793905"/>
    <nd ref="791793993"/>
    <nd ref="791793083"/>
    <tag k="building" v="hotel"/>
    <tag k="building:levels" v="6"/>
    <tag k="contact:phone" v="+33 1 45 48 75 64"/>
    <tag k="name" v="La Parizienne"/>
    <tag k="roof:levels" v="1"/>
    <tag k="source" v="cadastre-dgi-fr source : Direction Générale des Impôts - Cadastre. Mise à jour : 2010"/>
    <tag k="stars" v="3"/>
    <tag k="tourism" v="hotel"/>
    <tag k="website" v="https://hotel-laparizienne.com"/>
  </way>
  <way id="64311936" version="5" timestamp="2023-10-29T17:58:38Z" changeset="143324542" uid="15094172" user="chl-osm">
    <nd ref="791813028"/>
    <nd ref="791814190"/>
    <nd ref="791813327"/>
    <nd ref="791813737"/>
    <nd ref="791813183"/>
    <nd ref="791813513"/>
    <nd ref="804285928"/>
    <nd ref="791813003"/>
    <nd ref="791812815"/>
    <nd ref="791813567"/>
    <nd ref="791813853"/>
    <nd ref="791812832"/>
    <nd ref="791813195"/>
    <nd ref="791812626"/>
    <nd ref="791813028"/>
    <tag k="building" v="yes"/>
    <tag k="contact:email" v="bonjour@saintgregoire.com"/>
    <tag k="name" v="Le Saint-Grégoire"/>
    <tag k="phone" v="+33 1 45 48 23 23"/>
    <tag k="rooms" v="20"/>
    <tag k="source" v="cadastre-dgi-fr source : Direction Générale des Impôts - Cadastre. Mise à jour : 2010"/>
    <tag k="stars" v="4"/>
    <tag k="tourism" v="hotel"/>
    <tag k="website" v="https://saintgregoire.com"/>
  </way>
  <way id="64311943" version="6" timestamp="2022-12-30T07:12:26Z" changeset="130673670" uid="1842888" user="nihombashi19">
    <nd ref="791813838"/>
    <nd ref="791813503"/>
    <nd ref="10294659443"/>
    <nd ref="804285606"/>
    <nd ref="791813732"/>
    <nd ref="791813957"/>
    <nd ref="791813020"/>
    <nd ref="791813323"/>
    <nd ref="791813969"/>
    <nd ref="791814197"/>
    <nd ref="791813338"/>
    <nd ref="791813743"/>
    <nd ref="791813554"/>
    <nd ref="791812824"/>
    <nd ref="791813860"/>
    <nd ref="791812848"/>
    <nd ref="791814089"/>
    <nd ref="791813362"/>
    <nd ref="791814354"/>
    <nd ref="791814210"/>
    <nd ref="791812525"/>
    <nd ref="791813981"/>
    <nd ref="791813866"/>
    <nd ref="791814093"/>
    <nd ref="791813210"/>
    <nd ref="791813838"/>
    <tag k="building" v="yes"/>
    <tag k="building:levels" v="3"/>
    <tag k="heritage" v="3"/>
    <tag k="heritage:operator" v="mhs"/>
    <tag k="mhs:inscription_date" v="1926-03-16"/>
    <tag k="name" v="Hôtel de Beaune"/>
    <tag k="ref:mhs" v="PA00088524"/>
    <tag k="source" v="cadastre-dgi-fr source : Direction Générale des Impôts - Cadastre. Mise à jour : 2010"/>
    <tag k="source:heritage" v="data.gouv.fr:Ministère de la culture et de la communication - 05/2016"/>
    <tag k="start_date" v="C18"/>
    <tag k="wikidata" v="Q15950560"/>
    <tag k="wikipedia" v="fr:Hôtel de Beaune"/>
  </way>
  <way id="64311945" version="9" timestamp="2024-05-01T13:02:05Z" changeset="150749553" uid="4346095" user="jerome92370">
    <nd ref="791813966"/>
    <nd ref="791813037"/>
    <nd ref="791813333"/>
    <nd ref="791812819"/>
    <nd ref="791813188"/>
    <nd ref="791814194"/>
    <nd ref="791812508"/>
    <nd ref="791813200"/>
    <nd ref="791813579"/>
    <nd ref="791812523"/>
    <nd ref="791812840"/>
    <nd ref="791814339"/>
    <nd ref="791812630"/>
    <nd ref="791813857"/>
    <nd ref="791814086"/>
    <nd ref="791812643"/>
    <nd ref="791813090"/>
    <nd ref="791814098"/>
    <nd ref="791814351"/>
    <nd ref="791813978"/>
    <nd ref="791814206"/>
    <nd ref="791813356"/>
    <nd ref="791813752"/>
    <nd ref="791814220"/>
    <nd ref="791812538"/>
    <nd ref="791813767"/>
    <nd ref="791813664"/>
    <nd ref="791813993"/>
    <nd ref="805758784"/>
    <nd ref="11871758778"/>
    <nd ref="805760287"/>
    <nd ref="791813606"/>
    <nd ref="791813871"/>
    <nd ref="10825350788"/>
    <nd ref="10825350791"/>
    <nd ref="791812870"/>
    <nd ref="791813215"/>
    <nd ref="791813885"/>
    <nd ref="791814114"/>
    <nd ref="10825350790"/>
    <nd ref="791813229"/>
    <nd ref="791813633"/>
    <nd ref="11278422387"/>
    <nd ref="791813383"/>
    <nd ref="791813966"/>
    <tag k="building" v="service"/>
    <tag k="man_made" v="telephone_office"/>
    <tag k="name" v="Central téléphonique"/>
    <tag k="operator" v="Orange"/>
    <tag k="owner" v="Orange"/>
    <tag k="ref:FR:PTT" v="75106LIT"/>
    <tag k="source" v="cadastre-dgi-fr source : Direction Générale des Impôts - Cadastre. Mise à jour : 2010"/>
    <tag k="telecom" v="exchange"/>
    <tag k="telecom:medium" v="copper"/>
    <tag k="utility" v="telecom"/>
  </way>
  <way id="64314845" version="4" timestamp="2016-02-13T22:56:12Z" changeset="37195924" uid="3625170" user="Lulu LaCrevasse">
    <nd ref="791853501"/>
    <nd ref="791851959"/>
    <nd ref="791851493"/>
    <nd ref="791851136"/>
    <nd ref="791853525"/>
    <nd ref="791852639"/>
    <nd ref="791853032"/>
    <nd ref="791851160"/>
    <nd ref="791851591"/>
    <nd ref="791852029"/>
    <nd ref="791852239"/>
    <nd ref="791851288"/>
    <nd ref="791850895"/>
    <nd ref="791853356"/>
    <nd ref="791850935"/>
    <nd ref="791852456"/>
    <nd ref="791852876"/>
    <nd ref="791852431"/>
    <nd ref="791853066"/>
    <nd ref="791853550"/>
    <nd ref="791853321"/>
    <nd ref="804221214"/>
    <nd ref="791853501"/>
    <tag k="addr:city" v="Paris"/>
    <tag k="addr:housenumber" v="12"/>
    <tag k="addr:postcode" v="75006"/>
    <tag k="addr:street" v="Rue Jean Ferrandi"/>
    <tag k="building" v="residential"/>
    <tag k="name" v="Atelier Ferrandie"/>
  </way>
  <way id="64314850" version="6" timestamp="2023-10-20T15:27:57Z" changeset="142875445" uid="14854203" user="clajersanlau">
    <nd ref="5347712957"/>
    <nd ref="791852220"/>
    <nd ref="791852640"/>
    <nd ref="791852411"/>
    <nd ref="791851138"/>
    <nd ref="791851280"/>
    <nd ref="791851782"/>
    <nd ref="791850876"/>
    <nd ref="791853512"/>
    <nd ref="791852624"/>
    <nd ref="791853532"/>
    <nd ref="791852648"/>
    <nd ref="791853042"/>
    <nd ref="791852839"/>
    <nd ref="791852004"/>
    <nd ref="791853334"/>
    <nd ref="791852036"/>
    <nd ref="791852441"/>
    <nd ref="791851104"/>
    <nd ref="791853508"/>
    <nd ref="791851811"/>
    <nd ref="791852227"/>
    <nd ref="791850909"/>
    <nd ref="791851293"/>
    <nd ref="5347712957"/>
    <tag k="building" v="apartments"/>
    <tag k="image" v="https://upload.wikimedia.org/wikipedia/commons/8/84/P1120059_Paris_VI_rue_du_Cherche-Midi_n%C2%B095_rwk.JPG"/>
    <tag k="name" v="Hôtel de Chambon"/>
    <tag k="official_name" v="hôtel de Chambon"/>
    <tag k="source" v="cadastre-dgi-fr source : Direction Générale des Impôts - Cadastre. Mise à jour : 2010"/>
    <tag k="wikidata" v="Q3145793"/>
    <tag k="wikipedia" v="fr:Hôtel de Chambon"/>
  </way>
  <way id="64315024" version="4" timestamp="2022-03-23T22:33:18Z" changeset="118840744" uid="1205555" user="benoitdd">
    <nd ref="791852008"/>
    <nd ref="791852419"/>
    <nd ref="791851147"/>
    <nd ref="791851576"/>
    <nd ref="791850879"/>
    <nd ref="791851281"/>
    <nd ref="791852841"/>
    <nd ref="791853303"/>
    <nd ref="791851298"/>
    <nd ref="791852818"/>
    <nd ref="791852396"/>
    <nd ref="791851980"/>
    <nd ref="791851544"/>
    <nd ref="804285595"/>
    <nd ref="791852008"/>
    <tag k="building" v="yes"/>
    <tag k="building:levels" v="7"/>
    <tag k="name" v="Hôtel de Sèvres"/>
    <tag k="source" v="cadastre-dgi-fr source : Direction Générale des Impôts - Cadastre. Mise à jour : 2010"/>
    <tag k="stars" v="3"/>
    <tag k="tourism" v="hotel"/>
  </way>
  <way id="64315031" version="4" timestamp="2023-11-03T19:15:06Z" changeset="143588100" uid="9451067" user="b-jazz-bot">
    <nd ref="791851805"/>
    <nd ref="791851999"/>
    <nd ref="791851139"/>
    <nd ref="791852032"/>
    <nd ref="791852435"/>
    <nd ref="791851172"/>
    <nd ref="791852221"/>
    <nd ref="791851805"/>
    <tag k="amenity" v="place_of_worship"/>
    <tag k="building" v="yes"/>
    <tag k="denomination" v="quaker"/>
    <tag k="email" v="quaker.paris@gmail.com"/>
    <tag k="name" v="Centre Quaker International"/>
    <tag k="phone" v="+33 1 45 48 74 23"/>
    <tag k="religion" v="christian"/>
    <tag k="source" v="cadastre-dgi-fr source : Direction Générale des Impôts - Cadastre. Mise à jour : 2010"/>
    <tag k="website" v="https://www.quakers-paris.fr/"/>
  </way>
  <way id="64326159" version="5" timestamp="2024-10-04T12:21:53Z" changeset="157458611" uid="22029441" user="zachariemtl">
    <nd ref="792007058"/>
    <nd ref="792004558"/>
    <nd ref="792006823"/>
    <nd ref="801262839"/>
    <nd ref="792004289"/>
    <nd ref="792005860"/>
    <nd ref="792007040"/>
    <nd ref="792004724"/>
    <nd ref="792006314"/>
    <nd ref="792004311"/>
    <nd ref="792004770"/>
    <nd ref="792006339"/>
    <nd ref="792006850"/>
    <nd ref="792006083"/>
    <nd ref="792006595"/>
    <nd ref="792005249"/>
    <nd ref="792005631"/>
    <nd ref="792006626"/>
    <nd ref="792007079"/>
    <nd ref="792005653"/>
    <nd ref="792006108"/>
    <nd ref="792007058"/>
    <tag k="building" v="yes"/>
    <tag k="building:levels" v="7"/>
    <tag k="height" v="36"/>
    <tag k="name" v="17 rue saint-romain"/>
    <tag k="source" v="cadastre-dgi-fr source : Direction Générale des Impôts - Cadastre. Mise à jour : 2010"/>
  </way>
  <way id="64326166" version="4" timestamp="2023-12-09T18:11:50Z" changeset="144944121" uid="692215" user="benouville">
    <nd ref="792005511"/>
    <nd ref="792005050"/>
    <nd ref="801265009"/>
    <nd ref="792006185"/>
    <nd ref="792004872"/>
    <nd ref="792005351"/>
    <nd ref="792004636"/>
    <nd ref="792005072"/>
    <nd ref="792006712"/>
    <nd ref="792005511"/>
    <tag k="building" v="yes"/>
    <tag k="building:levels" v="5"/>
    <tag k="name" v="Maison du Tambour"/>
    <tag k="source" v="cadastre-dgi-fr source : Direction Générale des Impôts - Cadastre. Mise à jour : 2010"/>
  </way>
  <way id="64326169" version="5" timestamp="2023-11-28T08:29:31Z" changeset="144537308" uid="1205555" user="benoitdd">
    <nd ref="792005726"/>
    <nd ref="792004474"/>
    <nd ref="792005752"/>
    <nd ref="792006243"/>
    <nd ref="792004917"/>
    <nd ref="792006432"/>
    <nd ref="792005971"/>
    <nd ref="792006981"/>
    <nd ref="792006457"/>
    <nd ref="792005588"/>
    <nd ref="792004253"/>
    <nd ref="801264128"/>
    <nd ref="792004707"/>
    <nd ref="792007001"/>
    <nd ref="801265173"/>
    <nd ref="801261842"/>
    <nd ref="792005726"/>
    <tag k="addr:city" v="Paris"/>
    <tag k="addr:housenumber" v="103"/>
    <tag k="addr:postcode" v="75006"/>
    <tag k="addr:street" v="Rue de Sèvres"/>
    <tag k="building" v="yes"/>
    <tag k="source" v="cadastre-dgi-fr source : Direction Générale des Impôts - Cadastre. Mise à jour : 2010"/>
  </way>
  <way id="65752482" version="3" timestamp="2015-04-22T04:38:56Z" changeset="30394915" uid="2814778" user="VinceBot">
    <nd ref="801145139"/>
    <nd ref="801144052"/>
    <nd ref="801144373"/>
    <nd ref="801145580"/>
    <nd ref="801145139"/>
    <tag k="building" v="yes"/>
    <tag k="building:levels" v="1"/>
    <tag k="name" v="Loge"/>
    <tag k="source" v="cadastre-dgi-fr source : Direction Générale des Impôts - Cadastre. Mise à jour : 2010"/>
  </way>
  <way id="65752505" version="6" timestamp="2022-12-30T07:12:26Z" changeset="130673670" uid="1842888" user="nihombashi19">
    <nd ref="801145755"/>
    <nd ref="801144540"/>
    <nd ref="10294659435"/>
    <nd ref="801265148"/>
    <nd ref="10294659426"/>
    <nd ref="801144757"/>
    <nd ref="801146304"/>
    <nd ref="801144922"/>
    <nd ref="801146503"/>
    <nd ref="801144318"/>
    <nd ref="801145488"/>
    <nd ref="801143806"/>
    <nd ref="801145366"/>
    <nd ref="801146911"/>
    <nd ref="801144666"/>
    <nd ref="801145015"/>
    <nd ref="801145985"/>
    <nd ref="801145755"/>
    <tag k="building" v="yes"/>
    <tag k="building:levels" v="4"/>
    <tag k="name" v="Hôtel de Rochambeau"/>
    <tag k="source" v="cadastre-dgi-fr source : Direction Générale des Impôts - Cadastre. Mise à jour : 2010"/>
    <tag k="wikidata" v="Q3145946"/>
  </way>
  <way id="65752513" version="5" timestamp="2019-06-09T18:06:45Z" changeset="71077718" uid="107257" user="FrViPofm">
    <nd ref="801146351"/>
    <nd ref="801144251"/>
    <nd ref="801145390"/>
    <nd ref="801144186"/>
    <nd ref="801145303"/>
    <nd ref="801146834"/>
    <nd ref="801144585"/>
    <nd ref="801145924"/>
    <nd ref="801144009"/>
    <nd ref="801145067"/>
    <nd ref="801145721"/>
    <nd ref="801144514"/>
    <nd ref="801144602"/>
    <nd ref="801146875"/>
    <nd ref="801143948"/>
    <nd ref="801144971"/>
    <nd ref="801144212"/>
    <nd ref="801146351"/>
    <tag k="building" v="yes"/>
    <tag k="community" v="CSJ"/>
    <tag k="community:fr" v="Carmel Saint-Joseph"/>
    <tag k="community:gender" v="female"/>
    <tag k="name" v="Carmel Saint-Joseph"/>
    <tag k="source" v="cadastre-dgi-fr source : Direction Générale des Impôts - Cadastre. Mise à jour : 2010"/>
  </way>
  <way id="65756922" version="8" timestamp="2021-08-02T21:44:22Z" changeset="109052859" uid="13847237" user="hr4231">
    <nd ref="801197985"/>
    <nd ref="801194742"/>
    <nd ref="801199698"/>
    <nd ref="801195789"/>
    <nd ref="801195041"/>
    <nd ref="801196904"/>
    <nd ref="801198444"/>
    <nd ref="801194862"/>
    <nd ref="801197985"/>
    <tag k="building" v="yes"/>
    <tag k="building:levels" v="3"/>
    <tag k="heritage:operator" v="mhs"/>
    <tag k="historic" v="yes"/>
    <tag k="mhs:inscription_date" v="1926, 2006"/>
    <tag k="name" v="Hôtel de Choiseul-Praslin"/>
    <tag k="ref:mhs" v="PA00088627"/>
    <tag k="roof:shape" v="gambrel"/>
    <tag k="source" v="cadastre-dgi-fr source : Direction Générale des Impôts - Cadastre. Mise à jour : 2010"/>
    <tag k="start_date" v="1722"/>
    <tag k="wikidata" v="Q3145803"/>
    <tag k="wikipedia" v="fr:Hôtel de Choiseul-Praslin"/>
  </way>
  <way id="66171617" version="29" timestamp="2024-08-15T17:22:30Z" changeset="155293930" uid="11963177" user="JeroenvanderGun">
    <nd ref="1294327278"/>
    <nd ref="6646072495"/>
    <nd ref="1294327255"/>
    <nd ref="202775314"/>
    <nd ref="4090974098"/>
    <nd ref="1294348042"/>
    <nd ref="4635761851"/>
    <nd ref="6291071066"/>
    <nd ref="4059443054"/>
    <nd ref="21292427"/>
    <tag k="bicycle:lanes:backward" v="yes|yes|designated"/>
    <tag k="bicycle:lanes:forward" v="yes|yes|designated"/>
    <tag k="busway" v="lane"/>
    <tag k="cycleway" v="share_busway"/>
    <tag k="enforcement:operator" v="Police nationale"/>
    <tag k="highway" v="primary"/>
    <tag k="lanes" v="6"/>
    <tag k="lit" v="yes"/>
    <tag k="maxspeed" v="30"/>
    <tag k="name" v="Boulevard du Montparnasse"/>
    <tag k="operator" v="Ville de Paris"/>
    <tag k="operator:authority" v="Maire de Paris dans le respect des prescriptions prises par le préfet de police"/>
    <tag k="operator:authority:related_law" v="III de l'article L. 2512-14 du code général des collectivités territoriales"/>
    <tag k="psv:lanes:backward" v="yes|yes|designated"/>
    <tag k="psv:lanes:forward" v="yes|yes|designated"/>
    <tag k="sidewalk:both" v="separate"/>
    <tag k="smoothness" v="good"/>
    <tag k="source" v="cadastre-dgi-fr source : Direction Générale des Impôts - Cadastre. Mise à jour : 2010"/>
    <tag k="source:maxspeed" v="FR:urban"/>
    <tag k="source:operator:authority" v="https://www.legifrance.gouv.fr/loda/id/LEGIARTI000035244298/#LEGIARTI000035244298"/>
    <tag k="surface" v="asphalt"/>
    <tag k="zone:traffic" v="FR:urban"/>
  </way>
  <way id="66171623" version="20" timestamp="2024-08-15T17:22:30Z" changeset="155293930" uid="11963177" user="JeroenvanderGun">
    <nd ref="1294327278"/>
    <nd ref="6349517797"/>
    <nd ref="6349517796"/>
    <nd ref="6349517795"/>
    <tag k="cycleway:right" v="no"/>
    <tag k="enforcement:operator" v="Police nationale"/>
    <tag k="highway" v="primary"/>
    <tag k="lanes" v="3"/>
    <tag k="lit" v="yes"/>
    <tag k="maxspeed" v="30"/>
    <tag k="name" v="Boulevard du Montparnasse"/>
    <tag k="oneway" v="yes"/>
    <tag k="operator" v="Ville de Paris"/>
    <tag k="operator:authority" v="Maire de Paris dans le respect des prescriptions prises par le préfet de police"/>
    <tag k="operator:authority:related_law" v="III de l'article L. 2512-14 du code général des collectivités territoriales"/>
    <tag k="sidewalk:left" v="no"/>
    <tag k="sidewalk:right" v="separate"/>
    <tag k="smoothness" v="good"/>
    <tag k="source" v="cadastre-dgi-fr source : Direction Générale des Impôts - Cadastre. Mise à jour : 2010"/>
    <tag k="source:maxspeed" v="FR:urban"/>
    <tag k="source:operator:authority" v="https://www.legifrance.gouv.fr/loda/id/LEGIARTI000035244298/#LEGIARTI000035244298"/>
    <tag k="surface" v="asphalt"/>
    <tag k="zone:traffic" v="FR:urban"/>
  </way>
  <way id="67509820" version="18" timestamp="2024-07-12T10:21:33Z" changeset="153847922" uid="392288" user="Kalepom">
    <nd ref="24959041"/>
    <nd ref="24959082"/>
    <nd ref="7508676447"/>
    <nd ref="2878370337"/>
    <nd ref="6291069683"/>
    <nd ref="4090974160"/>
    <nd ref="24959159"/>
    <tag k="cycleway" v="no"/>
    <tag k="highway" v="secondary"/>
    <tag k="lanes" v="2"/>
    <tag k="lit" v="yes"/>
    <tag k="maxspeed" v="30"/>
    <tag k="name" v="Rue de Rennes"/>
    <tag k="name:br" v="Straed Roazhon"/>
    <tag k="name:etymology:wikidata" v="Q647"/>
    <tag k="sidewalk:both" v="separate"/>
    <tag k="sidewalk:both:surface" v="asphalt"/>
    <tag k="smoothness" v="excellent"/>
    <tag k="source:maxspeed" v="FR:urban"/>
    <tag k="surface" v="asphalt"/>
  </way>
  <way id="67509821" version="16" timestamp="2023-12-31T20:11:55Z" changeset="145745342" uid="53964" user="_Mathieu_">
    <nd ref="25255325"/>
    <nd ref="11042032464"/>
    <nd ref="25255322"/>
    <tag k="cycleway:right" v="no"/>
    <tag k="dual_carriageway" v="yes"/>
    <tag k="highway" v="secondary"/>
    <tag k="lanes" v="2"/>
    <tag k="maxspeed" v="30"/>
    <tag k="name" v="Boulevard Raspail"/>
    <tag k="name:etymology:wikidata" v="Q682230"/>
    <tag k="oneway" v="yes"/>
    <tag k="sidewalk:left" v="no"/>
    <tag k="sidewalk:right" v="separate"/>
    <tag k="surface" v="asphalt"/>
  </way>
  <way id="67509823" version="23" timestamp="2024-07-12T10:21:33Z" changeset="153847922" uid="392288" user="Kalepom">
    <nd ref="24959159"/>
    <nd ref="4090974157"/>
    <nd ref="2876905479"/>
    <nd ref="4090974153"/>
    <nd ref="6230743715"/>
    <nd ref="24959160"/>
    <tag k="busway:right" v="lane"/>
    <tag k="cycleway:left" v="no"/>
    <tag k="cycleway:right" v="share_busway"/>
    <tag k="highway" v="secondary"/>
    <tag k="lanes" v="2"/>
    <tag k="lit" v="yes"/>
    <tag k="maxspeed" v="30"/>
    <tag k="name" v="Rue de Rennes"/>
    <tag k="name:br" v="Straed Roazhon"/>
    <tag k="name:etymology:wikidata" v="Q647"/>
    <tag k="sidewalk:both" v="separate"/>
    <tag k="smoothness" v="excellent"/>
    <tag k="source:maxspeed" v="FR:urban"/>
    <tag k="surface" v="asphalt"/>
  </way>
  <way id="68881723" version="28" timestamp="2024-08-15T17:26:47Z" changeset="155294126" uid="11963177" user="JeroenvanderGun">
    <nd ref="788760763"/>
    <nd ref="11992148041"/>
    <nd ref="4260205663"/>
    <nd ref="11073404982"/>
    <nd ref="4260205661"/>
    <nd ref="4260205658"/>
    <nd ref="4260205655"/>
    <nd ref="666317845"/>
    <nd ref="4260205650"/>
    <nd ref="36594365"/>
    <nd ref="666317839"/>
    <nd ref="4260205647"/>
    <nd ref="36594364"/>
    <nd ref="4260205644"/>
    <nd ref="36594295"/>
    <nd ref="27018632"/>
    <nd ref="36593698"/>
    <nd ref="4260205641"/>
    <nd ref="202800560"/>
    <nd ref="5057094074"/>
    <nd ref="4260205636"/>
    <nd ref="169336597"/>
    <nd ref="4260205633"/>
    <nd ref="169336088"/>
    <nd ref="4680947611"/>
    <nd ref="27018634"/>
    <nd ref="6323950740"/>
    <nd ref="249878479"/>
    <nd ref="249878563"/>
    <nd ref="4090973865"/>
    <nd ref="7894612068"/>
    <nd ref="7894612070"/>
    <nd ref="1795370989"/>
    <nd ref="244269988"/>
    <nd ref="367513"/>
    <tag k="cycleway:both" v="no"/>
    <tag k="dual_carriageway" v="yes"/>
    <tag k="enforcement:operator" v="Police nationale"/>
    <tag k="highway" v="primary"/>
    <tag k="lanes" v="2"/>
    <tag k="lit" v="yes"/>
    <tag k="maxspeed" v="30"/>
    <tag k="name" v="Boulevard du Montparnasse"/>
    <tag k="name:br" v="Boulouard ar Montparnasse"/>
    <tag k="oneway" v="yes"/>
    <tag k="operator" v="Ville de Paris"/>
    <tag k="operator:authority" v="Maire de Paris après avis du préfet de police"/>
    <tag k="operator:authority:related_law" v="IV de l'article L. 2512-14 du code général des collectivités territoriales"/>
    <tag k="operator:url" v="https://cdn.paris.fr/paris/2020/02/26/5bf469a311d0beb9911e92d113781550.ai"/>
    <tag k="parking:lane:both" v="no"/>
    <tag k="sidewalk:left" v="no"/>
    <tag k="sidewalk:right" v="separate"/>
    <tag k="smoothness" v="good"/>
    <tag k="source" v="cadastre-dgi-fr source : Direction Générale des Impôts - Cadastre. Mise à jour : 2010"/>
    <tag k="source:maxspeed" v="FR:urban"/>
    <tag k="surface" v="asphalt"/>
  </way>
  <way id="68881725" version="18" timestamp="2024-08-15T17:22:30Z" changeset="155293930" uid="11963177" user="JeroenvanderGun">
    <nd ref="788760763"/>
    <nd ref="788761735"/>
    <tag k="cycleway:right" v="no"/>
    <tag k="dual_carriageway" v="yes"/>
    <tag k="enforcement:operator" v="Police nationale"/>
    <tag k="foot" v="no"/>
    <tag k="highway" v="primary"/>
    <tag k="lane_markings" v="no"/>
    <tag k="lit" v="yes"/>
    <tag k="maxspeed" v="30"/>
    <tag k="name" v="Avenue de l'Observatoire"/>
    <tag k="name:etymology:wikidata" v="Q461340"/>
    <tag k="oneway" v="yes"/>
    <tag k="operator" v="Ville de Paris"/>
    <tag k="operator:authority" v="Maire de Paris dans le respect des prescriptions prises par le préfet de police"/>
    <tag k="operator:authority:related_law" v="III de l'article L. 2512-14 du code général des collectivités territoriales"/>
    <tag k="sidewalk" v="no"/>
    <tag k="smoothness" v="good"/>
    <tag k="source:maxspeed" v="FR:urban"/>
    <tag k="source:operator:authority" v="https://www.legifrance.gouv.fr/loda/id/LEGIARTI000035244298/#LEGIARTI000035244298"/>
    <tag k="surface" v="asphalt"/>
    <tag k="zone:traffic" v="FR:urban"/>
  </way>
  <way id="68904224" version="27" timestamp="2024-07-22T13:33:25Z" changeset="154263708" uid="2252690" user="gourlaysama">
    <nd ref="260568416"/>
    <nd ref="11073333541"/>
    <nd ref="260568406"/>
    <tag k="cycleway:left" v="no"/>
    <tag k="cycleway:right" v="lane"/>
    <tag k="cycleway:right:lane" v="advisory"/>
    <tag k="dual_carriageway" v="yes"/>
    <tag k="highway" v="secondary"/>
    <tag k="lanes" v="2"/>
    <tag k="lit" v="yes"/>
    <tag k="maxspeed" v="30"/>
    <tag k="name" v="Place du 18 Juin 1940"/>
    <tag k="oneway" v="yes"/>
    <tag k="ref:FR:FANTOIR" v="751062807N"/>
    <tag k="sidewalk:both" v="separate"/>
    <tag k="smoothness" v="good"/>
    <tag k="surface" v="asphalt"/>
  </way>
  <way id="83268804" version="18" timestamp="2024-11-25T06:24:56Z" changeset="159558677" uid="158826" user="cquest">
    <nd ref="367521"/>
    <nd ref="4942457171"/>
    <nd ref="12373037868"/>
    <nd ref="2876905476"/>
    <nd ref="9634500498"/>
    <nd ref="24959040"/>
    <nd ref="5608762539"/>
    <nd ref="5057143556"/>
    <nd ref="4942457170"/>
    <nd ref="7508676448"/>
    <nd ref="24959041"/>
    <tag k="busway:left" v="lane"/>
    <tag k="cycleway:left" v="share_busway"/>
    <tag k="highway" v="secondary"/>
    <tag k="lanes" v="2"/>
    <tag k="lit" v="yes"/>
    <tag k="maxspeed" v="30"/>
    <tag k="name" v="Rue de Rennes"/>
    <tag k="name:br" v="Straed Roazhon"/>
    <tag k="name:etymology:wikidata" v="Q647"/>
    <tag k="sidewalk:both" v="separate"/>
    <tag k="source:maxspeed" v="FR:urban"/>
    <tag k="surface" v="asphalt"/>
  </way>
  <way id="83279328" version="21" timestamp="2024-07-12T10:21:33Z" changeset="153847922" uid="392288" user="Kalepom">
    <nd ref="507047961"/>
    <nd ref="6288229369"/>
    <nd ref="7366949982"/>
    <tag k="cycleway:both" v="lane"/>
    <tag k="cycleway:both:lane" v="exclusive"/>
    <tag k="highway" v="secondary"/>
    <tag k="lanes" v="3"/>
    <tag k="lanes:backward" v="2"/>
    <tag k="lanes:forward" v="1"/>
    <tag k="lit" v="yes"/>
    <tag k="maxspeed" v="30"/>
    <tag k="name" v="Rue de Rennes"/>
    <tag k="name:br" v="Straed Roazhon"/>
    <tag k="name:etymology:wikidata" v="Q647"/>
    <tag k="sidewalk:both" v="separate"/>
    <tag k="surface" v="asphalt"/>
  </way>
  <way id="83279330" version="30" timestamp="2024-04-20T20:49:38Z" changeset="150280182" uid="6072716" user="ztoclo">
    <nd ref="25256262"/>
    <nd ref="1765177774"/>
    <nd ref="6288229376"/>
    <nd ref="10922726018"/>
    <nd ref="2876905480"/>
    <nd ref="6153413203"/>
    <nd ref="25256261"/>
    <tag k="cycleway:both" v="lane"/>
    <tag k="cycleway:both:lane" v="exclusive"/>
    <tag k="highway" v="secondary"/>
    <tag k="lanes" v="2"/>
    <tag k="lanes:backward" v="1"/>
    <tag k="lanes:forward" v="1"/>
    <tag k="lit" v="yes"/>
    <tag k="maxspeed" v="30"/>
    <tag k="name" v="Rue de Rennes"/>
    <tag k="name:br" v="Straed Roazhon"/>
    <tag k="sidewalk:both" v="separate"/>
    <tag k="smoothness" v="good"/>
    <tag k="surface" v="asphalt"/>
  </way>
  <way id="83547404" version="21" timestamp="2024-07-12T10:21:33Z" changeset="153847922" uid="392288" user="Kalepom">
    <nd ref="16820924"/>
    <nd ref="6230713891"/>
    <nd ref="4090974137"/>
    <nd ref="6291704568"/>
    <nd ref="4090974127"/>
    <nd ref="507047961"/>
    <tag k="cycleway:both" v="lane"/>
    <tag k="cycleway:both:lane" v="exclusive"/>
    <tag k="highway" v="secondary"/>
    <tag k="lanes" v="3"/>
    <tag k="lanes:backward" v="2"/>
    <tag k="lanes:forward" v="1"/>
    <tag k="lit" v="yes"/>
    <tag k="maxspeed" v="30"/>
    <tag k="name" v="Rue de Rennes"/>
    <tag k="name:br" v="Straed Roazhon"/>
    <tag k="name:etymology:wikidata" v="Q647"/>
    <tag k="sidewalk:both" v="separate"/>
    <tag k="surface" v="asphalt"/>
  </way>
  <way id="83590777" version="14" timestamp="2024-10-12T03:10:25Z" changeset="157777982" uid="2678738" user="fgouget">
    <nd ref="786142279"/>
    <nd ref="127877668"/>
    <tag k="highway" v="tertiary"/>
    <tag k="lanes" v="1"/>
    <tag k="lit" v="yes"/>
    <tag k="maxspeed" v="30"/>
    <tag k="name" v="Place Michel Debré"/>
    <tag k="oneway" v="yes"/>
    <tag k="oneway:bicycle" v="no"/>
    <tag k="sidewalk:right" v="separate"/>
    <tag k="surface" v="asphalt"/>
    <tag k="wikidata" v="Q3389993"/>
  </way>
  <way id="84796888" version="14" timestamp="2023-04-26T09:15:48Z" changeset="135376069" uid="311391" user="patman37">
    <nd ref="790499032"/>
    <nd ref="27018632"/>
    <tag k="busway:right" v="lane"/>
    <tag k="cycleway:right" v="share_busway"/>
    <tag k="dual_carriageway" v="yes"/>
    <tag k="foot" v="no"/>
    <tag k="highway" v="primary"/>
    <tag k="lanes" v="2"/>
    <tag k="lit" v="yes"/>
    <tag k="maxspeed" v="30"/>
    <tag k="name" v="Boulevard Raspail"/>
    <tag k="oneway" v="yes"/>
    <tag k="shoulder" v="no"/>
    <tag k="sidewalk" v="no"/>
    <tag k="smoothness" v="good"/>
    <tag k="source:maxspeed" v="sign"/>
    <tag k="surface" v="asphalt"/>
  </way>
  <way id="84796894" version="21" timestamp="2023-12-31T20:15:07Z" changeset="145745342" uid="53964" user="_Mathieu_">
    <nd ref="24959163"/>
    <nd ref="6327226292"/>
    <nd ref="4909549490"/>
    <nd ref="24959164"/>
    <nd ref="11042032158"/>
    <nd ref="5340576187"/>
    <tag k="cycleway:both" v="no"/>
    <tag k="highway" v="residential"/>
    <tag k="lit" v="yes"/>
    <tag k="maxspeed" v="30"/>
    <tag k="name" v="Rue de Fleurus"/>
    <tag k="oneway" v="yes"/>
    <tag k="oneway:bicycle" v="no"/>
    <tag k="sidewalk:both" v="separate"/>
    <tag k="source:maxspeed" v="opendata.paris.fr"/>
    <tag k="surface" v="asphalt"/>
    <tag k="zone:maxspeed" v="FR:30"/>
  </way>
  <way id="84796923" version="23" timestamp="2024-02-06T18:35:21Z" changeset="147146774" uid="3834000" user="cartoleo">
    <nd ref="24959163"/>
    <nd ref="4090974114"/>
    <nd ref="6291704553"/>
    <nd ref="4090974128"/>
    <nd ref="11042019367"/>
    <nd ref="24959162"/>
    <nd ref="11042019369"/>
    <nd ref="6291069661"/>
    <nd ref="4090974145"/>
    <nd ref="6230720347"/>
    <nd ref="24959160"/>
    <tag k="bicycle:lanes" v="yes|designated"/>
    <tag k="busway:right" v="lane"/>
    <tag k="cycleway:left" v="no"/>
    <tag k="cycleway:right" v="share_busway"/>
    <tag k="dual_carriageway" v="yes"/>
    <tag k="highway" v="secondary"/>
    <tag k="lanes" v="2"/>
    <tag k="lit" v="yes"/>
    <tag k="maxspeed" v="30"/>
    <tag k="name" v="Boulevard Raspail"/>
    <tag k="name:etymology:wikidata" v="Q682230"/>
    <tag k="oneway" v="yes"/>
    <tag k="psv:lanes" v="yes|designated"/>
    <tag k="sidewalk:both:surface" v="asphalt"/>
    <tag k="sidewalk:left" v="no"/>
    <tag k="sidewalk:right" v="separate"/>
    <tag k="smoothness" v="good"/>
    <tag k="surface" v="asphalt"/>
  </way>
  <way id="84867910" version="20" timestamp="2024-03-27T13:50:41Z" changeset="149226150" uid="2678738" user="fgouget">
    <nd ref="317716023"/>
    <nd ref="24965988"/>
    <nd ref="1923662818"/>
    <nd ref="249877446"/>
    <nd ref="5691473730"/>
    <nd ref="6233754077"/>
    <nd ref="24965978"/>
    <tag k="cycleway:both" v="no"/>
    <tag k="highway" v="tertiary"/>
    <tag k="lanes" v="2"/>
    <tag k="lit" v="yes"/>
    <tag k="maxspeed" v="30"/>
    <tag k="maxspeed:type" v="sign"/>
    <tag k="name" v="Rue d'Assas"/>
    <tag k="sidewalk:both" v="separate"/>
    <tag k="smoothness" v="good"/>
    <tag k="surface" v="asphalt"/>
  </way>
  <way id="84867913" version="20" timestamp="2024-02-06T18:35:18Z" changeset="147146774" uid="3834000" user="cartoleo">
    <nd ref="24959174"/>
    <nd ref="4090974095"/>
    <nd ref="6291704574"/>
    <nd ref="4090974109"/>
    <nd ref="24959163"/>
    <tag k="bicycle:lanes" v="yes|designated"/>
    <tag k="busway:right" v="lane"/>
    <tag k="cycleway:left" v="no"/>
    <tag k="cycleway:right" v="share_busway"/>
    <tag k="dual_carriageway" v="yes"/>
    <tag k="highway" v="secondary"/>
    <tag k="lanes" v="2"/>
    <tag k="lit" v="yes"/>
    <tag k="maxspeed" v="30"/>
    <tag k="name" v="Boulevard Raspail"/>
    <tag k="name:etymology:wikidata" v="Q682230"/>
    <tag k="oneway" v="yes"/>
    <tag k="psv:lanes" v="yes|designated"/>
    <tag k="sidewalk:both:surface" v="asphalt"/>
    <tag k="sidewalk:left" v="no"/>
    <tag k="sidewalk:right" v="separate"/>
    <tag k="smoothness" v="good"/>
    <tag k="surface" v="asphalt"/>
  </way>
  <way id="84867918" version="14" timestamp="2024-03-27T15:31:42Z" changeset="149231251" uid="2678738" user="fgouget">
    <nd ref="24959175"/>
    <nd ref="6233702250"/>
    <nd ref="6190129559"/>
    <nd ref="24959176"/>
    <nd ref="1664310651"/>
    <nd ref="6190129560"/>
    <nd ref="1664299112"/>
    <nd ref="4865355940"/>
    <nd ref="11042019402"/>
    <nd ref="24959180"/>
    <tag k="cycleway:both" v="no"/>
    <tag k="highway" v="tertiary"/>
    <tag k="lanes" v="2"/>
    <tag k="lit" v="yes"/>
    <tag k="maxspeed" v="30"/>
    <tag k="maxspeed:type" v="sign"/>
    <tag k="name" v="Rue d'Assas"/>
    <tag k="sidewalk:both" v="separate"/>
    <tag k="surface" v="asphalt"/>
  </way>
  <way id="84867929" version="15" timestamp="2024-03-27T15:31:52Z" changeset="149231251" uid="2678738" user="fgouget">
    <nd ref="24959168"/>
    <nd ref="5667564687"/>
    <nd ref="6233704443"/>
    <nd ref="24959175"/>
    <tag k="cycleway:left" v="lane"/>
    <tag k="cycleway:left:lane" v="advisory"/>
    <tag k="cycleway:left:oneway" v="-1"/>
    <tag k="cycleway:right" v="no"/>
    <tag k="highway" v="residential"/>
    <tag k="lit" v="yes"/>
    <tag k="maxspeed" v="30"/>
    <tag k="name" v="Rue Duguay-Trouin"/>
    <tag k="oneway" v="yes"/>
    <tag k="oneway:bicycle" v="no"/>
    <tag k="sidewalk:both" v="separate"/>
    <tag k="source" v="cadastre-dgi-fr source : Direction Générale des Impôts - Cadastre. Mise à jour : 2010"/>
    <tag k="source:maxspeed" v="opendata.paris.fr"/>
    <tag k="surface" v="asphalt"/>
    <tag k="zone:maxspeed" v="FR:30"/>
  </way>
  <way id="85320917" version="22" timestamp="2023-12-31T20:10:20Z" changeset="145745342" uid="53964" user="_Mathieu_">
    <nd ref="25255449"/>
    <nd ref="11042032463"/>
    <nd ref="21292424"/>
    <nd ref="11022864787"/>
    <nd ref="4742405126"/>
    <nd ref="2631247513"/>
    <nd ref="6230718794"/>
    <nd ref="16820924"/>
    <tag k="bicycle:lanes" v="yes|designated"/>
    <tag k="busway:right" v="lane"/>
    <tag k="cycleway:right" v="share_busway"/>
    <tag k="dual_carriageway" v="yes"/>
    <tag k="highway" v="secondary"/>
    <tag k="lanes" v="2"/>
    <tag k="lit" v="yes"/>
    <tag k="maxspeed" v="30"/>
    <tag k="name" v="Boulevard Raspail"/>
    <tag k="name:etymology:wikidata" v="Q682230"/>
    <tag k="oneway" v="yes"/>
    <tag k="psv:lanes" v="yes|designated"/>
    <tag k="sidewalk:left" v="no"/>
    <tag k="sidewalk:right" v="separate"/>
    <tag k="surface" v="asphalt"/>
  </way>
  <way id="85320923" version="28" timestamp="2024-08-15T17:22:30Z" changeset="155293930" uid="11963177" user="JeroenvanderGun">
    <nd ref="24984818"/>
    <nd ref="5410566938"/>
    <nd ref="10788594186"/>
    <nd ref="6291704558"/>
    <nd ref="6233813933"/>
    <nd ref="788760763"/>
    <tag k="busway:right" v="lane"/>
    <tag k="cycleway:left" v="no"/>
    <tag k="cycleway:right" v="share_busway"/>
    <tag k="dual_carriageway" v="yes"/>
    <tag k="enforcement:operator" v="Police nationale"/>
    <tag k="highway" v="primary"/>
    <tag k="lanes" v="2"/>
    <tag k="lit" v="yes"/>
    <tag k="maxspeed" v="30"/>
    <tag k="name" v="Avenue de l'Observatoire"/>
    <tag k="name:etymology:wikidata" v="Q461340"/>
    <tag k="oneway" v="yes"/>
    <tag k="operator" v="Ville de Paris"/>
    <tag k="operator:authority" v="Maire de Paris dans le respect des prescriptions prises par le préfet de police"/>
    <tag k="operator:authority:related_law" v="III de l'article L. 2512-14 du code général des collectivités territoriales"/>
    <tag k="sidewalk" v="both"/>
    <tag k="smoothness" v="good"/>
    <tag k="source:maxspeed" v="FR:urban"/>
    <tag k="source:operator:authority" v="https://www.legifrance.gouv.fr/loda/id/LEGIARTI000035244298/#LEGIARTI000035244298"/>
    <tag k="surface" v="asphalt"/>
    <tag k="zone:traffic" v="FR:urban"/>
  </way>
  <way id="85320926" version="20" timestamp="2024-04-22T16:03:40Z" changeset="150354818" uid="311391" user="patman37">
    <nd ref="25255322"/>
    <nd ref="11042032470"/>
    <nd ref="7594346938"/>
    <tag k="cycleway:right" v="no"/>
    <tag k="dual_carriageway" v="yes"/>
    <tag k="highway" v="secondary"/>
    <tag k="lanes" v="2"/>
    <tag k="lit" v="yes"/>
    <tag k="maxspeed" v="30"/>
    <tag k="name" v="Boulevard Raspail"/>
    <tag k="name:etymology:wikidata" v="Q682230"/>
    <tag k="oneway" v="yes"/>
    <tag k="sidewalk:left" v="no"/>
    <tag k="sidewalk:right" v="separate"/>
    <tag k="smoothness" v="excellent"/>
    <tag k="surface" v="asphalt"/>
  </way>
  <way id="197340114" version="16" timestamp="2024-04-16T01:34:16Z" changeset="150062528" uid="2678738" user="fgouget">
    <nd ref="24958724"/>
    <nd ref="5961992391"/>
    <nd ref="5961992392"/>
    <nd ref="24958702"/>
    <nd ref="250524313"/>
    <tag k="cycleway" v="no"/>
    <tag k="highway" v="tertiary"/>
    <tag k="lanes" v="2"/>
    <tag k="lit" v="yes"/>
    <tag k="maxspeed" v="30"/>
    <tag k="name" v="Rue du Vieux Colombier"/>
    <tag k="sidewalk:both" v="separate"/>
    <tag k="surface" v="asphalt"/>
  </way>
  <way id="219378497" version="7" timestamp="2024-10-28T22:17:24Z" changeset="158476134" uid="7550430" user="Britzz">
    <nd ref="791851200"/>
    <nd ref="2285378513"/>
    <nd ref="2285378511"/>
    <nd ref="2285378512"/>
    <nd ref="2285378510"/>
    <nd ref="12294824791"/>
    <nd ref="791852745"/>
    <nd ref="791852320"/>
    <nd ref="2285378509"/>
    <nd ref="791851200"/>
    <tag k="amenity" v="place_of_worship"/>
    <tag k="building" v="chapel"/>
    <tag k="building:levels" v="4"/>
    <tag k="denomination" v="catholic"/>
    <tag k="heritage" v="3"/>
    <tag k="heritage:operator" v="mhs"/>
    <tag k="historic" v="yes"/>
    <tag k="mhs:inscription_date" v="1984-04-27"/>
    <tag k="name" v="Chapelle Notre-Dame-des-Anges"/>
    <tag k="ref:mhs" v="PA00088498"/>
    <tag k="religion" v="christian"/>
    <tag k="service_times" v="Tu 12:30; Th,Su 18:30; Su 10:30"/>
    <tag k="source" v="cadastre-dgi-fr source : Direction Générale des Impôts - Cadastre. Mise à jour : 2010"/>
    <tag k="source:heritage" v="data.gouv.fr, Ministère de la Culture - 2016"/>
    <tag k="start_date" v="C19"/>
    <tag k="wikidata" v="Q22924483"/>
  </way>
  <way id="231157311" version="5" timestamp="2023-03-30T20:19:58Z" changeset="134319341" uid="506275" user="Bkissin">
    <nd ref="785724011"/>
    <nd ref="785721792"/>
    <nd ref="785722734"/>
    <nd ref="785723718"/>
    <nd ref="785721571"/>
    <nd ref="785722515"/>
    <nd ref="785723411"/>
    <nd ref="785721299"/>
    <nd ref="785722218"/>
    <nd ref="785723166"/>
    <nd ref="785721071"/>
    <nd ref="785722008"/>
    <nd ref="785722885"/>
    <nd ref="785723968"/>
    <nd ref="785721743"/>
    <nd ref="785722670"/>
    <nd ref="785723642"/>
    <nd ref="785721528"/>
    <nd ref="785722465"/>
    <nd ref="785723353"/>
    <nd ref="785721243"/>
    <nd ref="785722176"/>
    <nd ref="785723086"/>
    <nd ref="785721124"/>
    <nd ref="785722048"/>
    <nd ref="785722939"/>
    <nd ref="785724011"/>
    <tag k="building" v="yes"/>
    <tag k="location" v="indoor"/>
    <tag k="name" v="Poste électrique de Sèvres"/>
    <tag k="operator" v="Enedis"/>
    <tag k="operator:wikidata" v="Q3587594"/>
    <tag k="power" v="substation"/>
    <tag k="ref:FR:RTE" v="SEVRE"/>
    <tag k="source" v="cadastre-dgi-fr source : Direction Générale des Impôts - Cadastre. Mise à jour : 2010"/>
    <tag k="substation" v="distribution"/>
    <tag k="voltage" v="225000;20000"/>
  </way>
  <way id="257636666" version="5" timestamp="2019-06-14T16:20:43Z" changeset="71259206" uid="10076574" user="Léni">
    <nd ref="801264084"/>
    <nd ref="801145272"/>
    <nd ref="805760352"/>
    <nd ref="2631247524"/>
    <nd ref="805759142"/>
    <nd ref="805759447"/>
    <nd ref="801146827"/>
    <nd ref="801144573"/>
    <nd ref="801145879"/>
    <nd ref="2631247522"/>
    <nd ref="5978053560"/>
    <nd ref="801264084"/>
    <tag k="addr:city" v="Paris"/>
    <tag k="addr:housenumber" v="54"/>
    <tag k="addr:postcode" v="75006"/>
    <tag k="addr:street" v="Boulevard Raspail"/>
    <tag k="building" v="yes"/>
    <tag k="building:levels" v="10"/>
    <tag k="name" v="Maison des Sciences de l'Homme - MSH - EHESS"/>
    <tag k="source" v="Cadastre. Mise à jour : 2010;bing"/>
    <tag k="wikidata" v="Q3075494"/>
    <tag k="wikipedia" v="fr:Fondation Maison des Sciences de l'homme"/>
  </way>
  <way id="306425208" version="20" timestamp="2024-03-27T13:47:43Z" changeset="149226150" uid="2678738" user="fgouget">
    <nd ref="24959165"/>
    <nd ref="11042032157"/>
    <nd ref="2630401831"/>
    <nd ref="6190127279"/>
    <nd ref="24959169"/>
    <nd ref="2789010220"/>
    <nd ref="24959177"/>
    <tag k="cycleway:both" v="no"/>
    <tag k="highway" v="residential"/>
    <tag k="lanes" v="1"/>
    <tag k="lit" v="yes"/>
    <tag k="maxspeed" v="30"/>
    <tag k="name" v="Rue de Fleurus"/>
    <tag k="oneway" v="yes"/>
    <tag k="oneway:bicycle" v="no"/>
    <tag k="sidewalk:both" v="separate"/>
    <tag k="sidewalk:both:surface" v="asphalt"/>
    <tag k="smoothness" v="good"/>
    <tag k="surface" v="asphalt"/>
  </way>
  <way id="344267736" version="2" timestamp="2024-09-27T17:22:00Z" changeset="157181726" uid="1205555" user="benoitdd">
    <nd ref="640105798"/>
    <nd ref="640105757"/>
    <nd ref="805759697"/>
    <nd ref="805759017"/>
    <nd ref="805759526"/>
    <nd ref="640105756"/>
    <nd ref="640105754"/>
    <nd ref="640105798"/>
    <tag k="building" v="dormitory"/>
    <tag k="name" v="Bâtiment Montparnasse (internat)"/>
    <tag k="operator" v="Collège Stanislas"/>
    <tag k="source" v="cadastre-dgi-fr source : Direction Générale des Impôts - Cadastre. Mise à jour : 2010"/>
  </way>
  <way id="553236110" version="10" timestamp="2024-02-15T10:01:12Z" changeset="147483515" uid="8874984" user="anyroka">
    <nd ref="5340576187"/>
    <nd ref="787703786"/>
    <nd ref="8119081360"/>
    <nd ref="24959168"/>
    <tag k="cycleway:both" v="no"/>
    <tag k="highway" v="residential"/>
    <tag k="lit" v="yes"/>
    <tag k="maxspeed" v="30"/>
    <tag k="name" v="Rue Duguay-Trouin"/>
    <tag k="oneway" v="yes"/>
    <tag k="oneway:bicycle" v="yes"/>
    <tag k="sidewalk:both" v="separate"/>
    <tag k="smoothness" v="good"/>
    <tag k="source" v="cadastre-dgi-fr source : Direction Générale des Impôts - Cadastre. Mise à jour : 2010"/>
    <tag k="source:maxspeed" v="opendata.paris.fr"/>
    <tag k="surface" v="asphalt"/>
    <tag k="zone:maxspeed" v="FR:30"/>
  </way>
  <way id="563307031" version="7" timestamp="2023-12-31T19:59:05Z" changeset="145745342" uid="53964" user="_Mathieu_">
    <nd ref="470150"/>
    <nd ref="11030262635"/>
    <nd ref="6175221292"/>
    <nd ref="25253928"/>
    <tag k="busway:right" v="lane"/>
    <tag k="cycleway:right" v="share_busway"/>
    <tag k="highway" v="tertiary"/>
    <tag k="lit" v="yes"/>
    <tag k="maxspeed" v="30"/>
    <tag k="name" v="Rue de Sèvres"/>
    <tag k="sidewalk:both" v="separate"/>
    <tag k="surface" v="asphalt"/>
  </way>
  <way id="584376875" version="15" timestamp="2025-03-10T13:38:29Z" changeset="163443193" uid="7512839" user="Benoît C MdP">
    <nd ref="5586042526"/>
    <nd ref="12649899620"/>
    <nd ref="8228830513"/>
    <nd ref="16820925"/>
    <tag k="bicycle:lanes:backward" v="yes|yes|designated"/>
    <tag k="busway:left" v="lane"/>
    <tag k="cycleway:left" v="share_busway"/>
    <tag k="enforcement:operator" v="Police nationale"/>
    <tag k="highway" v="primary"/>
    <tag k="lanes" v="6"/>
    <tag k="lit" v="yes"/>
    <tag k="maxspeed" v="30"/>
    <tag k="name" v="Boulevard du Montparnasse"/>
    <tag k="operator" v="Ville de Paris"/>
    <tag k="operator:authority" v="Maire de Paris après avis du préfet de police"/>
    <tag k="operator:authority:related_law" v="IV de l'article L. 2512-14 du code général des collectivités territoriales"/>
    <tag k="operator:url" v="https://cdn.paris.fr/paris/2020/02/26/5bf469a311d0beb9911e92d113781550.ai"/>
    <tag k="psv:lanes:backward" v="yes|yes|designated"/>
    <tag k="sidewalk:left" v="separate"/>
    <tag k="sidewalk:right" v="no"/>
    <tag k="smoothness" v="good"/>
    <tag k="source" v="cadastre-dgi-fr source : Direction Générale des Impôts - Cadastre. Mise à jour : 2010"/>
    <tag k="source:maxspeed" v="FR:urban"/>
    <tag k="surface" v="asphalt"/>
  </way>
  <way id="584430768" version="11" timestamp="2023-03-28T23:44:16Z" changeset="134239730" uid="6383530" user="frosm">
    <nd ref="471617402"/>
    <nd ref="6174729320"/>
    <nd ref="36594295"/>
    <tag k="cycleway:both" v="no"/>
    <tag k="highway" v="residential"/>
    <tag k="lane_markings" v="no"/>
    <tag k="lit" v="yes"/>
    <tag k="maxspeed" v="30"/>
    <tag k="name" v="Boulevard Raspail"/>
    <tag k="oneway" v="yes"/>
    <tag k="sidewalk" v="no"/>
    <tag k="smoothness" v="good"/>
    <tag k="source:maxspeed" v="sign"/>
    <tag k="surface" v="asphalt"/>
  </way>
  <way id="662370777" version="11" timestamp="2024-04-17T07:45:13Z" changeset="150114513" uid="7550430" user="Britzz">
    <nd ref="24959151"/>
    <nd ref="11030326737"/>
    <nd ref="8119107000"/>
    <nd ref="8119107001"/>
    <nd ref="24959062"/>
    <nd ref="8119107004"/>
    <nd ref="8119107005"/>
    <nd ref="24959056"/>
    <tag k="cycleway:left" v="opposite"/>
    <tag k="highway" v="residential"/>
    <tag k="maxspeed" v="30"/>
    <tag k="name" v="Rue Cassette"/>
    <tag k="oneway" v="yes"/>
    <tag k="oneway:bicycle" v="no"/>
    <tag k="service" v="alley"/>
    <tag k="sidewalk:both" v="separate"/>
    <tag k="source:maxspeed" v="FR:urban"/>
    <tag k="surface" v="asphalt"/>
  </way>
  <way id="673142310" version="11" timestamp="2024-10-28T12:48:52Z" changeset="158454459" uid="7550430" user="Britzz">
    <nd ref="16820925"/>
    <nd ref="260017563"/>
    <nd ref="12293810156"/>
    <nd ref="2377957457"/>
    <nd ref="12293810160"/>
    <nd ref="11022873243"/>
    <nd ref="25256077"/>
    <tag k="bicycle:backward" v="use_sidepath"/>
    <tag k="highway" v="secondary"/>
    <tag k="lanes" v="1"/>
    <tag k="lit" v="yes"/>
    <tag k="maxspeed" v="30"/>
    <tag k="name" v="Rue de Vaugirard"/>
    <tag k="name:br" v="Straed Vaugirard"/>
    <tag k="name:etymology:wikidata" v="Q3555080"/>
    <tag k="oneway" v="yes"/>
    <tag k="sidewalk:both" v="separate"/>
    <tag k="smoothness" v="excellent"/>
    <tag k="source:maxspeed" v="FR:urban"/>
    <tag k="surface" v="asphalt"/>
  </way>
  <way id="673142311" version="15" timestamp="2024-07-12T10:21:33Z" changeset="153847922" uid="392288" user="Kalepom">
    <nd ref="7366949983"/>
    <nd ref="4090974115"/>
    <nd ref="6288229370"/>
    <nd ref="4624214409"/>
    <nd ref="2878370339"/>
    <nd ref="6153413204"/>
    <nd ref="6288229375"/>
    <nd ref="1765177777"/>
    <nd ref="25256262"/>
    <tag k="cycleway:both" v="lane"/>
    <tag k="cycleway:both:lane" v="exclusive"/>
    <tag k="highway" v="secondary"/>
    <tag k="lanes" v="2"/>
    <tag k="lanes:backward" v="1"/>
    <tag k="lanes:forward" v="1"/>
    <tag k="lit" v="yes"/>
    <tag k="maxspeed" v="30"/>
    <tag k="name" v="Rue de Rennes"/>
    <tag k="name:br" v="Straed Roazhon"/>
    <tag k="name:etymology:wikidata" v="Q647"/>
    <tag k="sidewalk:both" v="separate"/>
    <tag k="smoothness" v="good"/>
    <tag k="surface" v="asphalt"/>
  </way>
  <way id="673142312" version="9" timestamp="2023-12-31T20:11:41Z" changeset="145745342" uid="53964" user="_Mathieu_">
    <nd ref="25255857"/>
    <nd ref="6795794770"/>
    <nd ref="2097309569"/>
    <nd ref="2631247517"/>
    <nd ref="25255856"/>
    <nd ref="11022864763"/>
    <nd ref="21292425"/>
    <tag k="cycleway" v="opposite"/>
    <tag k="highway" v="residential"/>
    <tag k="lit" v="yes"/>
    <tag k="maxspeed" v="30"/>
    <tag k="name" v="Rue du Cherche-Midi"/>
    <tag k="oneway" v="yes"/>
    <tag k="oneway:bicycle" v="no"/>
    <tag k="sidewalk:both" v="separate"/>
    <tag k="surface" v="asphalt"/>
    <tag k="zone:maxspeed" v="FR:30"/>
  </way>
  <way id="673467324" version="13" timestamp="2024-08-15T17:22:30Z" changeset="155293930" uid="11963177" user="JeroenvanderGun">
    <nd ref="24984820"/>
    <nd ref="7565367679"/>
    <nd ref="24984818"/>
    <tag k="busway:right" v="lane"/>
    <tag k="cycleway:left" v="no"/>
    <tag k="cycleway:right" v="share_busway"/>
    <tag k="dual_carriageway" v="yes"/>
    <tag k="enforcement:operator" v="Police nationale"/>
    <tag k="highway" v="primary"/>
    <tag k="lanes" v="2"/>
    <tag k="lit" v="yes"/>
    <tag k="maxspeed" v="30"/>
    <tag k="name" v="Avenue de l'Observatoire"/>
    <tag k="name:etymology:wikidata" v="Q461340"/>
    <tag k="oneway" v="yes"/>
    <tag k="operator" v="Ville de Paris"/>
    <tag k="operator:authority" v="Maire de Paris dans le respect des prescriptions prises par le préfet de police"/>
    <tag k="operator:authority:related_law" v="III de l'article L. 2512-14 du code général des collectivités territoriales"/>
    <tag k="sidewalk" v="separate"/>
    <tag k="source:maxspeed" v="FR:urban"/>
    <tag k="source:operator:authority" v="https://www.legifrance.gouv.fr/loda/id/LEGIARTI000035244298/#LEGIARTI000035244298"/>
    <tag k="surface" v="asphalt"/>
    <tag k="zone:traffic" v="FR:urban"/>
  </way>
  <way id="673559990" version="10" timestamp="2023-12-31T20:17:43Z" changeset="145745342" uid="53964" user="_Mathieu_">
    <nd ref="2574759531"/>
    <nd ref="6230645993"/>
    <nd ref="260568406"/>
    <tag k="cycleway:left" v="shared_lane"/>
    <tag k="cycleway:left:lane" v="pictogram"/>
    <tag k="cycleway:right" v="lane"/>
    <tag k="cycleway:right:lane" v="advisory"/>
    <tag k="highway" v="secondary"/>
    <tag k="lanes" v="2"/>
    <tag k="lit" v="yes"/>
    <tag k="maxspeed" v="30"/>
    <tag k="name" v="Rue de Rennes"/>
    <tag k="name:br" v="Straed Roazhon"/>
    <tag k="sidewalk:both" v="separate"/>
    <tag k="surface" v="asphalt"/>
  </way>
  <way id="673559991" version="14" timestamp="2024-04-20T20:49:31Z" changeset="150280182" uid="6072716" user="ztoclo">
    <nd ref="25256261"/>
    <nd ref="2878370338"/>
    <nd ref="2574759531"/>
    <tag k="cycleway:both" v="lane"/>
    <tag k="cycleway:both:lane" v="exclusive"/>
    <tag k="highway" v="secondary"/>
    <tag k="lanes" v="2"/>
    <tag k="lanes:backward" v="1"/>
    <tag k="lanes:forward" v="1"/>
    <tag k="level" v="0"/>
    <tag k="lit" v="yes"/>
    <tag k="maxspeed" v="30"/>
    <tag k="name" v="Rue de Rennes"/>
    <tag k="name:br" v="Straed Roazhon"/>
    <tag k="sidewalk:both" v="separate"/>
    <tag k="smoothness" v="good"/>
    <tag k="surface" v="asphalt"/>
  </way>
  <way id="678136621" version="10" timestamp="2024-08-15T17:22:30Z" changeset="155293930" uid="11963177" user="JeroenvanderGun">
    <nd ref="6349517772"/>
    <nd ref="6349517768"/>
    <nd ref="6349517795"/>
    <tag k="enforcement:operator" v="Police nationale"/>
    <tag k="highway" v="secondary"/>
    <tag k="lanes" v="2"/>
    <tag k="lit" v="yes"/>
    <tag k="maxspeed" v="30"/>
    <tag k="name" v="Place Léon-Paul Fargue"/>
    <tag k="oneway" v="yes"/>
    <tag k="operator" v="Ville de Paris"/>
    <tag k="operator:authority" v="Maire de Paris dans le respect des prescriptions prises par le préfet de police"/>
    <tag k="operator:authority:related_law" v="III de l'article L. 2512-14 du code général des collectivités territoriales"/>
    <tag k="smoothness" v="good"/>
    <tag k="source:maxspeed" v="FR:urban"/>
    <tag k="source:operator:authority" v="https://www.legifrance.gouv.fr/loda/id/LEGIARTI000035244298/#LEGIARTI000035244298"/>
    <tag k="surface" v="asphalt"/>
    <tag k="zone:traffic" v="FR:urban"/>
  </way>
  <way id="678136625" version="10" timestamp="2023-12-31T20:16:38Z" changeset="145745342" uid="53964" user="_Mathieu_">
    <nd ref="6349517795"/>
    <nd ref="6349517766"/>
    <nd ref="6349517794"/>
    <tag k="cycleway:right" v="no"/>
    <tag k="highway" v="secondary"/>
    <tag k="lanes" v="1"/>
    <tag k="lit" v="yes"/>
    <tag k="maxspeed" v="30"/>
    <tag k="name" v="Rue de Sèvres"/>
    <tag k="name:etymology:wikidata" v="Q206493"/>
    <tag k="oneway" v="yes"/>
    <tag k="sidewalk:left" v="no"/>
    <tag k="sidewalk:right" v="separate"/>
    <tag k="smoothness" v="good"/>
    <tag k="source:maxspeed" v="FR:urban"/>
    <tag k="surface" v="asphalt"/>
  </way>
  <way id="706580237" version="13" timestamp="2024-03-27T13:48:58Z" changeset="149226150" uid="2678738" user="fgouget">
    <nd ref="24959152"/>
    <nd ref="5513296051"/>
    <nd ref="6207773513"/>
    <nd ref="24959151"/>
    <tag k="cycleway:left" v="opposite"/>
    <tag k="cycleway:right" v="no"/>
    <tag k="highway" v="residential"/>
    <tag k="lanes" v="1"/>
    <tag k="lit" v="yes"/>
    <tag k="maxspeed" v="30"/>
    <tag k="name" v="Rue Honoré Chevalier"/>
    <tag k="oneway" v="yes"/>
    <tag k="oneway:bicycle" v="no"/>
    <tag k="service" v="alley"/>
    <tag k="sidewalk:both" v="separate"/>
    <tag k="surface" v="asphalt"/>
  </way>
  <way id="706580238" version="7" timestamp="2024-03-27T13:48:47Z" changeset="149226150" uid="2678738" user="fgouget">
    <nd ref="6639716455"/>
    <nd ref="6639716456"/>
    <nd ref="5513296049"/>
    <nd ref="24959152"/>
    <tag k="cycleway:left" v="opposite"/>
    <tag k="cycleway:right" v="no"/>
    <tag k="highway" v="residential"/>
    <tag k="lit" v="yes"/>
    <tag k="maxspeed" v="30"/>
    <tag k="name" v="Rue Madame"/>
    <tag k="oneway" v="yes"/>
    <tag k="oneway:bicycle" v="no"/>
    <tag k="sidewalk:both" v="separate"/>
    <tag k="source" v="cadastre-dgi-fr source : Direction Générale des Impôts - Cadastre. Mise à jour : 2014"/>
    <tag k="source:maxspeed" v="sign"/>
    <tag k="surface" v="asphalt"/>
  </way>
  <way id="706580240" version="12" timestamp="2024-10-19T12:52:14Z" changeset="158088457" uid="15118949" user="Nzau">
    <nd ref="24959084"/>
    <nd ref="2789010264"/>
    <nd ref="2789010250"/>
    <nd ref="24959085"/>
    <nd ref="11030326744"/>
    <nd ref="11042019387"/>
    <nd ref="21292423"/>
    <nd ref="11042019385"/>
    <nd ref="6132736596"/>
    <nd ref="4624214408"/>
    <nd ref="4633346804"/>
    <nd ref="6291704551"/>
    <nd ref="4090974132"/>
    <nd ref="11042019368"/>
    <nd ref="24959162"/>
    <tag k="cycleway:both" v="no"/>
    <tag k="highway" v="tertiary"/>
    <tag k="lanes" v="2"/>
    <tag k="lit" v="yes"/>
    <tag k="maxspeed" v="30"/>
    <tag k="name" v="Rue de Vaugirard"/>
    <tag k="sidewalk:both" v="separate"/>
    <tag k="smoothness" v="excellent"/>
    <tag k="surface" v="asphalt"/>
  </way>
  <way id="706580241" version="9" timestamp="2024-03-27T13:47:59Z" changeset="149226150" uid="2678738" user="fgouget">
    <nd ref="24959084"/>
    <nd ref="11042019397"/>
    <nd ref="2789010224"/>
    <nd ref="24959177"/>
    <tag k="cycleway:left" v="opposite"/>
    <tag k="cycleway:right" v="no"/>
    <tag k="highway" v="residential"/>
    <tag k="lit" v="yes"/>
    <tag k="maxspeed" v="30"/>
    <tag k="name" v="Rue Madame"/>
    <tag k="oneway" v="yes"/>
    <tag k="oneway:bicycle" v="no"/>
    <tag k="sidewalk:both" v="separate"/>
    <tag k="source" v="cadastre-dgi-fr source : Direction Générale des Impôts - Cadastre. Mise à jour : 2014"/>
    <tag k="source:maxspeed" v="sign"/>
    <tag k="surface" v="asphalt"/>
  </way>
  <way id="706584279" version="14" timestamp="2024-03-27T13:47:36Z" changeset="149226150" uid="2678738" user="fgouget">
    <nd ref="24959177"/>
    <nd ref="2789010217"/>
    <nd ref="2789010212"/>
    <nd ref="24959179"/>
    <tag k="cycleway:both" v="no"/>
    <tag k="highway" v="residential"/>
    <tag k="lanes" v="1"/>
    <tag k="lit" v="yes"/>
    <tag k="maxspeed" v="30"/>
    <tag k="name" v="Rue de Fleurus"/>
    <tag k="oneway" v="yes"/>
    <tag k="oneway:bicycle" v="no"/>
    <tag k="sidewalk:both" v="separate"/>
    <tag k="sidewalk:both:surface" v="asphalt"/>
    <tag k="smoothness" v="good"/>
    <tag k="surface" v="asphalt"/>
  </way>
  <way id="706584280" version="11" timestamp="2024-03-27T13:47:52Z" changeset="149226150" uid="2678738" user="fgouget">
    <nd ref="24959177"/>
    <nd ref="2789010206"/>
    <nd ref="788000291"/>
    <nd ref="6190129558"/>
    <nd ref="24959176"/>
    <tag k="cycleway:left" v="opposite"/>
    <tag k="cycleway:right" v="no"/>
    <tag k="highway" v="residential"/>
    <tag k="lanes" v="1"/>
    <tag k="lit" v="yes"/>
    <tag k="maxspeed" v="30"/>
    <tag k="name" v="Rue Madame"/>
    <tag k="oneway" v="yes"/>
    <tag k="oneway:bicycle" v="no"/>
    <tag k="sidewalk:both" v="separate"/>
    <tag k="source" v="cadastre-dgi-fr source : Direction Générale des Impôts - Cadastre. Mise à jour : 2014"/>
    <tag k="source:maxspeed" v="FR:urban"/>
    <tag k="surface" v="asphalt"/>
  </way>
  <way id="706593315" version="9" timestamp="2024-03-28T10:30:39Z" changeset="149261012" uid="2678738" user="fgouget">
    <nd ref="5340576187"/>
    <nd ref="6407268656"/>
    <nd ref="24959165"/>
    <tag k="cycleway:left" v="shared_lane"/>
    <tag k="cycleway:left:lane" v="pictogram"/>
    <tag k="cycleway:right" v="no"/>
    <tag k="highway" v="residential"/>
    <tag k="lane_markings" v="no"/>
    <tag k="lit" v="yes"/>
    <tag k="maxspeed" v="30"/>
    <tag k="name" v="Rue de Fleurus"/>
    <tag k="sidewalk:both" v="separate"/>
    <tag k="sidewalk:both:surface" v="asphalt"/>
    <tag k="source:maxspeed" v="opendata.paris.fr"/>
    <tag k="surface" v="asphalt"/>
  </way>
  <way id="706593770" version="10" timestamp="2023-12-19T21:45:47Z" changeset="145308121" uid="7550430" user="Britzz">
    <nd ref="6639856524"/>
    <nd ref="11030326738"/>
    <nd ref="24959151"/>
    <tag k="cycleway:left" v="opposite"/>
    <tag k="highway" v="residential"/>
    <tag k="lit" v="yes"/>
    <tag k="maxspeed" v="30"/>
    <tag k="name" v="Rue Cassette"/>
    <tag k="oneway" v="yes"/>
    <tag k="oneway:bicycle" v="no"/>
    <tag k="service" v="alley"/>
    <tag k="sidewalk" v="separate"/>
    <tag k="source:maxspeed" v="sign"/>
    <tag k="surface" v="asphalt"/>
    <tag k="width" v="4"/>
  </way>
  <way id="707734487" version="9" timestamp="2025-03-10T13:38:29Z" changeset="163443193" uid="7512839" user="Benoît C MdP">
    <nd ref="6410198440"/>
    <nd ref="4090974101"/>
    <nd ref="4090974113"/>
    <nd ref="25256083"/>
    <nd ref="12649899619"/>
    <nd ref="6132761852"/>
    <nd ref="25256276"/>
    <tag k="bicycle:backward" v="use_sidepath"/>
    <tag k="highway" v="secondary"/>
    <tag k="lanes" v="1"/>
    <tag k="lit" v="yes"/>
    <tag k="maxspeed" v="30"/>
    <tag k="name" v="Rue de Vaugirard"/>
    <tag k="oneway" v="yes"/>
    <tag k="sidewalk" v="separate"/>
    <tag k="smoothness" v="excellent"/>
    <tag k="source:maxspeed" v="sign"/>
    <tag k="surface" v="asphalt"/>
  </way>
  <way id="723531478" version="13" timestamp="2023-12-31T20:14:33Z" changeset="145745342" uid="53964" user="_Mathieu_">
    <nd ref="25256318"/>
    <nd ref="11042019355"/>
    <nd ref="5057094073"/>
    <nd ref="4742405125"/>
    <nd ref="6291704541"/>
    <nd ref="11042019349"/>
    <nd ref="6291704563"/>
    <nd ref="11042019339"/>
    <nd ref="25256319"/>
    <nd ref="11042019337"/>
    <nd ref="8578620146"/>
    <nd ref="11042032149"/>
    <nd ref="202800570"/>
    <tag k="bicycle:lanes" v="yes|designated"/>
    <tag k="busway:right" v="lane"/>
    <tag k="cycleway:left" v="no"/>
    <tag k="cycleway:right" v="share_busway"/>
    <tag k="dual_carriageway" v="yes"/>
    <tag k="highway" v="secondary"/>
    <tag k="lanes" v="2"/>
    <tag k="lit" v="yes"/>
    <tag k="maxspeed" v="30"/>
    <tag k="name" v="Boulevard Raspail"/>
    <tag k="name:etymology:wikidata" v="Q682230"/>
    <tag k="oneway" v="yes"/>
    <tag k="psv:lanes" v="yes|designated"/>
    <tag k="sidewalk:left" v="no"/>
    <tag k="sidewalk:right" v="separate"/>
    <tag k="source:maxspeed" v="FR:urban"/>
    <tag k="surface" v="asphalt"/>
  </way>
  <way id="723531479" version="12" timestamp="2024-02-06T18:35:17Z" changeset="147146774" uid="3834000" user="cartoleo">
    <nd ref="25256318"/>
    <nd ref="11042019354"/>
    <nd ref="24959181"/>
    <tag k="bicycle" v="yes"/>
    <tag k="cycleway:left" v="opposite"/>
    <tag k="cycleway:right" v="no"/>
    <tag k="highway" v="residential"/>
    <tag k="lane_markings" v="no"/>
    <tag k="lit" v="yes"/>
    <tag k="maxspeed" v="30"/>
    <tag k="name" v="Rue Notre-Dame-des-Champs"/>
    <tag k="oneway" v="yes"/>
    <tag k="oneway:bicycle" v="no"/>
    <tag k="sidewalk" v="both"/>
    <tag k="smoothness" v="good"/>
    <tag k="source:maxspeed" v="FR:urban"/>
    <tag k="surface" v="asphalt"/>
  </way>
  <way id="787975644" version="9" timestamp="2024-07-12T10:21:33Z" changeset="153847922" uid="392288" user="Kalepom">
    <nd ref="7366949982"/>
    <nd ref="6288229368"/>
    <nd ref="7366949983"/>
    <tag k="cycleway:left" v="shared_lane"/>
    <tag k="cycleway:left:lane" v="pictogram"/>
    <tag k="cycleway:right" v="lane"/>
    <tag k="cycleway:right:lane" v="advisory"/>
    <tag k="highway" v="secondary"/>
    <tag k="lane_markings" v="no"/>
    <tag k="lit" v="yes"/>
    <tag k="maxspeed" v="30"/>
    <tag k="name" v="Rue de Rennes"/>
    <tag k="name:br" v="Straed Roazhon"/>
    <tag k="name:etymology:wikidata" v="Q647"/>
    <tag k="sidewalk:both" v="separate"/>
    <tag k="surface" v="asphalt"/>
  </way>
  <way id="807243857" version="8" timestamp="2023-12-31T20:13:54Z" changeset="145745342" uid="53964" user="_Mathieu_">
    <nd ref="25256276"/>
    <nd ref="6132756145"/>
    <nd ref="7366949983"/>
    <tag k="cycleway:left" v="lane"/>
    <tag k="cycleway:left:lane" v="advisory"/>
    <tag k="cycleway:left:oneway" v="-1"/>
    <tag k="cycleway:right" v="shared_lane"/>
    <tag k="cycleway:right:lane" v="pictogram"/>
    <tag k="highway" v="secondary"/>
    <tag k="lanes" v="1"/>
    <tag k="lit" v="yes"/>
    <tag k="maxspeed" v="30"/>
    <tag k="name" v="Rue de Vaugirard"/>
    <tag k="oneway" v="yes"/>
    <tag k="oneway:bicycle" v="no"/>
    <tag k="sidewalk:both" v="separate"/>
    <tag k="source:maxspeed" v="sign"/>
    <tag k="surface" v="asphalt"/>
  </way>
  <way id="859049006" version="9" timestamp="2024-02-15T09:55:25Z" changeset="147483293" uid="8874984" user="anyroka">
    <nd ref="25256377"/>
    <nd ref="4680947612"/>
    <nd ref="27018634"/>
    <tag k="cycleway:left" v="lane"/>
    <tag k="cycleway:left:lane" v="exclusive"/>
    <tag k="cycleway:left:oneway" v="-1"/>
    <tag k="cycleway:right" v="no"/>
    <tag k="highway" v="residential"/>
    <tag k="lit" v="yes"/>
    <tag k="maxspeed" v="30"/>
    <tag k="name" v="Rue du Montparnasse"/>
    <tag k="name:br" v="Straed ar Menez Parnassos"/>
    <tag k="oneway" v="yes"/>
    <tag k="oneway:bicycle" v="no"/>
    <tag k="parking:lane:both" v="parallel"/>
    <tag k="parking:lane:both:parallel" v="painted_area_only"/>
    <tag k="sidewalk:both" v="separate"/>
    <tag k="sidewalk:both:surface" v="asphalt"/>
    <tag k="smoothness" v="good"/>
    <tag k="source:maxspeed" v="FR:zone30"/>
    <tag k="surface" v="asphalt"/>
  </way>
  <way id="865782398" version="9" timestamp="2024-01-01T20:49:03Z" changeset="145775471" uid="53964" user="_Mathieu_">
    <nd ref="25256363"/>
    <nd ref="4090973888"/>
    <nd ref="25256318"/>
    <tag k="cycleway:both" v="no"/>
    <tag k="highway" v="residential"/>
    <tag k="lanes" v="1"/>
    <tag k="lit" v="yes"/>
    <tag k="maxspeed" v="30"/>
    <tag k="name" v="Rue Notre-Dame-des-Champs"/>
    <tag k="oneway" v="yes"/>
    <tag k="sidewalk:both" v="separate"/>
    <tag k="source:maxspeed" v="FR:urban"/>
    <tag k="surface" v="asphalt"/>
  </way>
  <way id="865782399" version="2" timestamp="2021-05-03T15:15:23Z" changeset="104065757" uid="10246445" user="871694e9-20e8-4037-b035-e4c8607650cf">
    <nd ref="27018633"/>
    <nd ref="4090974092"/>
    <nd ref="7868755474"/>
    <nd ref="4090974091"/>
    <nd ref="25256363"/>
    <tag k="cycleway" v="opposite"/>
    <tag k="highway" v="residential"/>
    <tag k="lit" v="yes"/>
    <tag k="maxspeed" v="30"/>
    <tag k="name" v="Rue du Montparnasse"/>
    <tag k="name:br" v="Straed ar Menez Parnassos"/>
    <tag k="oneway" v="yes"/>
    <tag k="oneway:bicycle" v="no"/>
    <tag k="sidewalk" v="both"/>
    <tag k="source:maxspeed" v="survey"/>
    <tag k="surface" v="asphalt"/>
    <tag k="zone:maxspeed" v="FR:30"/>
  </way>
  <way id="910537002" version="9" timestamp="2024-04-16T01:32:16Z" changeset="150062528" uid="2678738" user="fgouget">
    <nd ref="24959056"/>
    <nd ref="8119107007"/>
    <nd ref="24959040"/>
    <tag k="cycleway:left" v="lane"/>
    <tag k="cycleway:left:lane" v="exclusive"/>
    <tag k="cycleway:left:oneway" v="-1"/>
    <tag k="cycleway:right" v="no"/>
    <tag k="highway" v="residential"/>
    <tag k="lanes" v="1"/>
    <tag k="lit" v="yes"/>
    <tag k="maxspeed" v="30"/>
    <tag k="name" v="Rue Cassette"/>
    <tag k="oneway" v="yes"/>
    <tag k="oneway:bicycle" v="no"/>
    <tag k="service" v="alley"/>
    <tag k="sidewalk:both" v="separate"/>
    <tag k="smoothness" v="excellent"/>
    <tag k="source:maxspeed" v="FR:urban"/>
    <tag k="surface" v="asphalt"/>
  </way>
  <way id="1015202274" version="3" timestamp="2023-12-31T20:11:47Z" changeset="145745342" uid="53964" user="_Mathieu_">
    <nd ref="21292424"/>
    <nd ref="11022864786"/>
    <nd ref="2631247519"/>
    <nd ref="6795791803"/>
    <nd ref="25255857"/>
    <tag k="cycleway" v="opposite"/>
    <tag k="highway" v="residential"/>
    <tag k="lit" v="yes"/>
    <tag k="maxspeed" v="30"/>
    <tag k="name" v="Rue du Cherche-Midi"/>
    <tag k="oneway" v="yes"/>
    <tag k="oneway:bicycle" v="no"/>
    <tag k="sidewalk:both" v="separate"/>
    <tag k="surface" v="asphalt"/>
    <tag k="zone:maxspeed" v="FR:30"/>
  </way>
  <way id="1015202275" version="4" timestamp="2023-12-31T20:17:09Z" changeset="145745342" uid="53964" user="_Mathieu_">
    <nd ref="25255897"/>
    <nd ref="21292426"/>
    <nd ref="4090974104"/>
    <nd ref="4090974097"/>
    <nd ref="25255896"/>
    <nd ref="6291704539"/>
    <nd ref="4059443061"/>
    <nd ref="21292427"/>
    <tag k="cycleway" v="opposite"/>
    <tag k="highway" v="residential"/>
    <tag k="lit" v="yes"/>
    <tag k="maxspeed" v="30"/>
    <tag k="name" v="Rue du Cherche-Midi"/>
    <tag k="oneway" v="yes"/>
    <tag k="oneway:bicycle" v="no"/>
    <tag k="sidewalk:both" v="separate"/>
    <tag k="smoothness" v="good"/>
    <tag k="surface" v="asphalt"/>
    <tag k="zone:maxspeed" v="FR:30"/>
  </way>
  <way id="1023806118" version="5" timestamp="2024-08-15T17:22:30Z" changeset="155293930" uid="11963177" user="JeroenvanderGun">
    <nd ref="6349517795"/>
    <nd ref="6349517790"/>
    <tag k="cycleway:right" v="no"/>
    <tag k="enforcement:operator" v="Police nationale"/>
    <tag k="highway" v="primary"/>
    <tag k="lanes" v="3"/>
    <tag k="lit" v="yes"/>
    <tag k="maxspeed" v="30"/>
    <tag k="name" v="Place Léon-Paul Fargue"/>
    <tag k="oneway" v="yes"/>
    <tag k="operator" v="Ville de Paris"/>
    <tag k="operator:authority" v="Maire de Paris dans le respect des prescriptions prises par le préfet de police"/>
    <tag k="operator:authority:related_law" v="III de l'article L. 2512-14 du code général des collectivités territoriales"/>
    <tag k="sidewalk:left" v="no"/>
    <tag k="sidewalk:right" v="separate"/>
    <tag k="smoothness" v="good"/>
    <tag k="source" v="cadastre-dgi-fr source : Direction Générale des Impôts - Cadastre. Mise à jour : 2010"/>
    <tag k="source:maxspeed" v="FR:urban"/>
    <tag k="source:operator:authority" v="https://www.legifrance.gouv.fr/loda/id/LEGIARTI000035244298/#LEGIARTI000035244298"/>
    <tag k="surface" v="asphalt"/>
    <tag k="zone:traffic" v="FR:urban"/>
  </way>
  <way id="1042621963" version="2" timestamp="2024-10-28T22:17:24Z" changeset="158476134" uid="7550430" user="Britzz">
    <nd ref="9597259837"/>
    <nd ref="12294837914"/>
    <nd ref="791853604"/>
    <nd ref="791851210"/>
    <nd ref="791853051"/>
    <nd ref="791851581"/>
    <nd ref="791851150"/>
    <nd ref="791852091"/>
    <nd ref="791852513"/>
    <nd ref="791851869"/>
    <nd ref="791852294"/>
    <nd ref="791850980"/>
    <nd ref="791851379"/>
    <nd ref="791853146"/>
    <nd ref="791852477"/>
    <nd ref="9597259837"/>
    <tag k="addr:city" v="Paris"/>
    <tag k="addr:housenumber" v="92"/>
    <tag k="addr:postcode" v="75006"/>
    <tag k="addr:street" v="Rue de Vaugirard"/>
    <tag k="brand" v="Symphonie Hotels"/>
    <tag k="building" v="yes"/>
    <tag k="name" v="Hôtel des Grands Voyageurs"/>
    <tag k="phone" v="+33 1 49 54 87 00"/>
    <tag k="source" v="cadastre-dgi-fr source : Direction Générale des Impôts - Cadastre. Mise à jour : 2010"/>
    <tag k="tourism" v="hotel"/>
    <tag k="website" v="https://www.hoteldesgrandsvoyageurs.com/"/>
  </way>
  <way id="1134013366" version="3" timestamp="2024-05-05T08:43:35Z" changeset="150909796" uid="10833953" user="Colbertson">
    <nd ref="791726595"/>
    <nd ref="791726640"/>
    <nd ref="791726522"/>
    <nd ref="805760207"/>
    <nd ref="791726608"/>
    <nd ref="791726517"/>
    <nd ref="791726429"/>
    <nd ref="791726615"/>
    <nd ref="791726595"/>
    <tag k="architect" v="Aristomenis Proveleggios"/>
    <tag k="building" v="yes"/>
    <tag k="building:architecture" v="brutalist"/>
    <tag k="name" v="Centre d'accueil des étudiant étrangers"/>
    <tag k="source" v="cadastre-dgi-fr source : Direction Générale des Impôts - Cadastre. Mise à jour : 2010"/>
    <tag k="start_date" v="1952"/>
    <tag k="year_of_construction" v="1952"/>
  </way>
  <way id="1317818460" version="1" timestamp="2024-09-24T07:54:52Z" changeset="157026355" uid="7512839" user="Benoît C MdP">
    <nd ref="24965947"/>
    <nd ref="202800570"/>
    <tag k="cycleway:both" v="no"/>
    <tag k="highway" v="residential"/>
    <tag k="lit" v="yes"/>
    <tag k="maxspeed" v="30"/>
    <tag k="name" v="Rue Vavin"/>
    <tag k="oneway" v="yes"/>
    <tag k="oneway:bicycle" v="no"/>
    <tag k="parking:lane:both" v="no"/>
    <tag k="sidewalk:both" v="separate"/>
    <tag k="surface" v="asphalt"/>
    <tag k="zone:maxspeed" v="FR:30"/>
  </way>
  <relation id="1000995" version="3" timestamp="2021-03-31T09:34:43Z" changeset="102043591" uid="12966694" user="vbidault">
    <member type="way" ref="63382101" role="inner"/>
    <member type="way" ref="63382121" role="outer"/>
    <tag k="addr:city" v="Paris"/>
    <tag k="addr:housenumber" v="11"/>
    <tag k="addr:postcode" v="75006"/>
    <tag k="addr:street" v="Rue du Cherche-Midi"/>
    <tag k="building" v="yes"/>
    <tag k="building:levels" v="4"/>
    <tag k="type" v="multipolygon"/>
  </relation>
  <relation id="1015634" version="2" timestamp="2017-04-15T14:25:18Z" changeset="47815344" uid="996303" user="ImreSamu">
    <member type="way" ref="64314916" role="inner"/>
    <member type="way" ref="64314830" role="outer"/>
    <tag k="building" v="yes"/>
    <tag k="community" v="OCD"/>
    <tag k="community:fr" v="Carmes"/>
    <tag k="community:gender" v="male"/>
    <tag k="denomination" v="catholic"/>
    <tag k="name" v="Communauté des Carmes de Paris"/>
    <tag k="religion" v="christian"/>
    <tag k="type" v="multipolygon"/>
  </relation>
  <relation id="1015675" version="3" timestamp="2017-09-14T12:53:40Z" changeset="52036500" uid="2853561" user="Владимир К">
    <member type="way" ref="64326101" role="inner"/>
    <member type="way" ref="64326117" role="inner"/>
    <member type="way" ref="64326209" role="inner"/>
    <member type="way" ref="64326135" role="inner"/>
    <member type="way" ref="64326103" role="inner"/>
    <member type="way" ref="64326170" role="outer"/>
    <tag k="building" v="yes"/>
    <tag k="name" v="Congrégation de la Mission"/>
    <tag k="type" v="multipolygon"/>
    <tag k="wikidata" v="Q849726"/>
    <tag k="wikipedia" v="fr:Congrégation de la Mission"/>
  </relation>
  <relation id="1024194" version="6" timestamp="2021-11-14T17:07:53Z" changeset="113771421" uid="14280296" user="aadvan">
    <member type="way" ref="65752493" role="inner"/>
    <member type="way" ref="65752533" role="outer"/>
    <member type="way" ref="24310193" role="inner"/>
    <tag k="building" v="apartments"/>
    <tag k="name" v="Centre Sèvres"/>
    <tag k="type" v="multipolygon"/>
    <tag k="website" v="https://centresevres.com/"/>
    <tag k="wikidata" v="Q788592"/>
  </relation>

</osm>
