<?xml version="1.0" encoding="UTF-8"?>
<osm version="0.6" generator="Overpass API 0.7.62.5 1bd436f1">
<note>The data included in this document is from www.openstreetmap.org. The data is made available under ODbL.</note>
<meta osm_base="2025-05-17T22:12:02Z" areas="2024-12-31T00:49:33Z"/>

  <node id="15643088" lat="48.8553326" lon="2.3458912" version="15" timestamp="2023-07-27T09:59:36Z" changeset="139077944" uid="7512839" user="Benoît C MdP"/>
  <node id="25554711" lat="48.8558191" lon="2.3508126" version="7" timestamp="2023-01-13T20:08:44Z" changeset="131243738" uid="7550430" user="Britzz"/>
  <node id="212531357" lat="48.8534759" lon="2.3470489" version="22" timestamp="2025-01-02T11:08:25Z" changeset="160901899" uid="15118949" user="Nzau">
    <tag k="button_operated" v="no"/>
    <tag k="crossing" v="uncontrolled"/>
    <tag k="crossing:island" v="no"/>
    <tag k="crossing:markings" v="zebra"/>
    <tag k="highway" v="crossing"/>
    <tag k="source" v="Bing"/>
    <tag k="tactile_paving" v="yes"/>
    <tag k="traffic_signals:sound" v="no"/>
    <tag k="traffic_signals:vibration" v="yes"/>
  </node>
  <node id="218250236" lat="48.8512286" lon="2.3513636" version="7" timestamp="2019-02-14T17:49:25Z" changeset="67202314" uid="570635" user="_phiphou_"/>
  <node id="218267571" lat="48.8504233" lon="2.3601009" version="10" timestamp="2025-01-10T08:59:22Z" changeset="161196700" uid="7512839" user="Benoît C MdP"/>
  <node id="247596080" lat="48.8534679" lon="2.3540590" version="5" timestamp="2021-06-16T22:16:17Z" changeset="106492152" uid="7550430" user="Britzz"/>
  <node id="247631372" lat="48.8501579" lon="2.3550416" version="10" timestamp="2018-05-04T09:56:01Z" changeset="58674048" uid="1198089" user="GeorgeKaplan"/>
  <node id="276194265" lat="48.8538458" lon="2.3444300" version="11" timestamp="2023-07-27T09:59:36Z" changeset="139077944" uid="7512839" user="Benoît C MdP"/>
  <node id="676758863" lat="48.8543358" lon="2.3449201" version="8" timestamp="2023-07-27T09:59:36Z" changeset="139077944" uid="7512839" user="Benoît C MdP">
    <tag k="cyclestreets_id" v="70800"/>
    <tag k="highway" v="traffic_signals"/>
    <tag k="source" v="BD Ortho 2018"/>
    <tag k="tactile_paving" v="yes"/>
  </node>
  <node id="1513497237" lat="48.8566330" lon="2.3488863" version="11" timestamp="2025-01-02T11:08:45Z" changeset="160901910" uid="15118949" user="Nzau">
    <tag k="button_operated" v="no"/>
    <tag k="check_date:traffic_signals:sound" v="2022-04-15"/>
    <tag k="crossing" v="traffic_signals"/>
    <tag k="crossing:markings" v="zebra"/>
    <tag k="highway" v="crossing"/>
    <tag k="source" v="Bing"/>
    <tag k="tactile_paving" v="yes"/>
    <tag k="traffic_signals:sound" v="no"/>
    <tag k="traffic_signals:vibration" v="no"/>
  </node>
  <node id="1513501834" lat="48.8559121" lon="2.3507746" version="11" timestamp="2025-01-02T11:08:45Z" changeset="160901910" uid="15118949" user="Nzau">
    <tag k="crossing" v="traffic_signals"/>
    <tag k="crossing:markings" v="zebra"/>
    <tag k="highway" v="crossing"/>
    <tag k="kerb" v="lowered"/>
    <tag k="tactile_paving" v="yes"/>
    <tag k="traffic_signals:sound" v="no"/>
  </node>
  <node id="5061770266" lat="48.8542522" lon="2.3448326" version="4" timestamp="2023-07-27T09:59:36Z" changeset="139077944" uid="7512839" user="Benoît C MdP"/>
  <node id="6959718360" lat="48.8494749" lon="2.3569707" version="3" timestamp="2025-01-10T08:59:22Z" changeset="161196700" uid="7512839" user="Benoît C MdP"/>
  <node id="8615812356" lat="48.8561977" lon="2.3464808" version="1" timestamp="2021-04-10T19:56:18Z" changeset="102713694" uid="10731965" user="Hydrel"/>
  <node id="10832534950" lat="48.8525022" lon="2.3571090" version="6" timestamp="2024-06-21T16:25:30Z" changeset="153000043" uid="11291363" user="u4Dy46Xe">
    <tag k="crossing:island" v="no"/>
    <tag k="crossing:markings" v="yes"/>
    <tag k="crossing:signals" v="no"/>
    <tag k="highway" v="crossing"/>
    <tag k="tactile_paving" v="incorrect"/>
  </node>
  <node id="11033269490" lat="48.8562416" lon="2.3465959" version="1" timestamp="2023-07-07T20:33:43Z" changeset="138243759" uid="6400591" user="waterced"/>
  <way id="286314" version="19" timestamp="2025-04-08T06:48:13Z" changeset="164663043" uid="2678738" user="fgouget">
    <nd ref="218267571"/>
    <nd ref="4958110958"/>
    <tag k="cycleway:both" v="no"/>
    <tag k="highway" v="residential"/>
    <tag k="lanes" v="2"/>
    <tag k="lit" v="yes"/>
    <tag k="maxspeed" v="30"/>
    <tag k="name" v="Rue Saint-Louis en l'Île"/>
    <tag k="name:etymology:wikidata" v="Q1709616"/>
    <tag k="sidewalk:both" v="separate"/>
    <tag k="source:maxspeed" v="sign"/>
    <tag k="surface" v="asphalt"/>
  </way>
  <way id="286549" version="27" timestamp="2025-02-12T21:49:32Z" changeset="162446393" uid="18531595" user="esmenard">
    <nd ref="382062"/>
    <nd ref="2734148961"/>
    <nd ref="2734148951"/>
    <nd ref="382077"/>
    <tag k="cycleway:left" v="lane"/>
    <tag k="cycleway:left:lane" v="exclusive"/>
    <tag k="cycleway:left:oneway" v="-1"/>
    <tag k="cycleway:right" v="no"/>
    <tag k="highway" v="tertiary"/>
    <tag k="lanes" v="1"/>
    <tag k="lit" v="yes"/>
    <tag k="maxspeed" v="30"/>
    <tag k="name" v="Rue des Deux Ponts"/>
    <tag k="name:etymology:wikidata" v="Q12280"/>
    <tag k="oneway" v="yes"/>
    <tag k="oneway:bicycle" v="no"/>
    <tag k="parking:left" v="yes"/>
    <tag k="parking:left:orientation" v="parallel"/>
    <tag k="sidewalk:both" v="separate"/>
    <tag k="smoothness" v="excellent"/>
    <tag k="source" v="BMO Arrêté n o 2018 P 12837"/>
    <tag k="surface" v="asphalt"/>
    <tag k="zone:maxspeed" v="FR:30"/>
  </way>
  <way id="286551" version="22" timestamp="2024-09-08T14:09:35Z" changeset="156353751" uid="2019721" user="osmvince">
    <nd ref="10832534950"/>
    <nd ref="11585153007"/>
    <nd ref="2294033343"/>
    <nd ref="382062"/>
    <tag k="highway" v="tertiary"/>
    <tag k="lane_markings" v="no"/>
    <tag k="layer" v="1"/>
    <tag k="lit" v="yes"/>
    <tag k="maxspeed" v="30"/>
    <tag k="name" v="Pont Marie"/>
    <tag k="name:etymology:wikidata" v="Q48758693"/>
    <tag k="oneway" v="no"/>
    <tag k="oneway:bicycle" v="no"/>
    <tag k="sidewalk:both" v="separate"/>
    <tag k="source:maxspeed" v="BMO Arrêté n o 2018 P 12837"/>
    <tag k="surface" v="sett"/>
    <tag k="zone:maxspeed" v="FR:30"/>
  </way>
  <way id="286555" version="28" timestamp="2025-01-10T08:59:22Z" changeset="161196700" uid="7512839" user="Benoît C MdP">
    <nd ref="247431296"/>
    <nd ref="382074"/>
    <tag k="bicycle:backward" v="use_sidepath"/>
    <tag k="busway:left" v="lane"/>
    <tag k="busway:left:oneway" v="-1"/>
    <tag k="cycleway:left" v="share_busway"/>
    <tag k="cycleway:left:oneway" v="-1"/>
    <tag k="cycleway:right" v="lane"/>
    <tag k="cycleway:right:lane" v="exclusive"/>
    <tag k="highway" v="primary"/>
    <tag k="lanes" v="3"/>
    <tag k="lanes:backward" v="1"/>
    <tag k="lanes:forward" v="2"/>
    <tag k="lit" v="yes"/>
    <tag k="maxspeed" v="30"/>
    <tag k="name" v="Boulevard Henri IV"/>
    <tag k="name:etymology:wikidata" v="Q161866"/>
    <tag k="oneway" v="yes"/>
    <tag k="oneway:bicycle" v="no"/>
    <tag k="oneway:psv" v="no"/>
    <tag k="sidewalk:both" v="separate"/>
    <tag k="smoothness" v="excellent"/>
    <tag k="source:maxspeed" v="BMO Arrêté n o 2018 P 12837"/>
    <tag k="surface" v="asphalt"/>
    <tag k="zone:maxspeed" v="FR:30"/>
  </way>
  <way id="4039284" version="37" timestamp="2025-01-24T17:12:16Z" changeset="161721178" uid="425846" user="WhiskyMacK">
    <nd ref="21305940"/>
    <nd ref="12529733570"/>
    <nd ref="317714752"/>
    <nd ref="12529733571"/>
    <nd ref="6178786866"/>
    <nd ref="235196233"/>
    <tag k="cycleway" v="opposite"/>
    <tag k="highway" v="residential"/>
    <tag k="lit" v="yes"/>
    <tag k="maxspeed" v="30"/>
    <tag k="name" v="Quai de l'Archevêché"/>
    <tag k="name:etymology:wikidata" v="Q1242250"/>
    <tag k="oneway" v="yes"/>
    <tag k="oneway:bicycle" v="no"/>
    <tag k="sidewalk" v="separate"/>
    <tag k="surface" v="asphalt"/>
    <tag k="wikidata" v="Q3412695"/>
    <tag k="wikipedia" v="fr:Quai de l'Archevêché"/>
  </way>
  <way id="4039550" version="55" timestamp="2024-10-28T01:55:57Z" changeset="158436896" uid="19623620" user="Melrok">
    <nd ref="368120"/>
    <nd ref="677104497"/>
    <tag k="cycleway:left" v="no"/>
    <tag k="cycleway:right" v="lane"/>
    <tag k="cycleway:right:lane" v="exclusive"/>
    <tag k="enforcement:operator" v="Police nationale"/>
    <tag k="highway" v="secondary"/>
    <tag k="lane_markings" v="no"/>
    <tag k="lit" v="yes"/>
    <tag k="maxspeed" v="30"/>
    <tag k="name" v="Rue de la Cité"/>
    <tag k="name:etymology:wikidata" v="Q190063"/>
    <tag k="name:fr" v="Rue de la Cité"/>
    <tag k="name:ru" v="улица Сите"/>
    <tag k="oneway" v="yes"/>
    <tag k="operator" v="Ville de Paris"/>
    <tag k="operator:authority" v="Maire de Paris dans le respect des prescriptions prises par le préfet de police"/>
    <tag k="operator:authority:related_law" v="III de l'article L. 2512-14 du code général des collectivités territoriales"/>
    <tag k="sidewalk" v="separate"/>
    <tag k="smoothness" v="good"/>
    <tag k="source:operator:authority" v="https://www.legifrance.gouv.fr/loda/id/LEGIARTI000035244298/#LEGIARTI000035244298"/>
    <tag k="surface" v="asphalt"/>
    <tag k="zone:traffic" v="FR:urban"/>
  </way>
  <way id="4039813" version="22" timestamp="2024-08-15T17:22:30Z" changeset="155293930" uid="11963177" user="JeroenvanderGun">
    <nd ref="677151951"/>
    <nd ref="212531357"/>
    <tag k="cycleway:right" v="shared_lane"/>
    <tag k="cycleway:right:lane" v="pictogram"/>
    <tag k="enforcement:operator" v="Police nationale"/>
    <tag k="highway" v="secondary"/>
    <tag k="lane_markings" v="no"/>
    <tag k="lit" v="yes"/>
    <tag k="maxspeed" v="30"/>
    <tag k="name" v="Rue de la Cité"/>
    <tag k="name:etymology:wikidata" v="Q190063"/>
    <tag k="oneway" v="yes"/>
    <tag k="operator" v="Ville de Paris"/>
    <tag k="operator:authority" v="Maire de Paris dans le respect des prescriptions prises par le préfet de police"/>
    <tag k="operator:authority:related_law" v="III de l'article L. 2512-14 du code général des collectivités territoriales"/>
    <tag k="sidewalk" v="both"/>
    <tag k="smoothness" v="excellent"/>
    <tag k="source:operator:authority" v="https://www.legifrance.gouv.fr/loda/id/LEGIARTI000035244298/#LEGIARTI000035244298"/>
    <tag k="surface" v="asphalt"/>
    <tag k="zone:traffic" v="FR:urban"/>
  </way>
  <way id="4261422" version="21" timestamp="2024-07-30T08:22:40Z" changeset="154594220" uid="2678738" user="fgouget">
    <nd ref="1513501834"/>
    <nd ref="4503161884"/>
    <nd ref="25554711"/>
    <tag k="bridge" v="yes"/>
    <tag k="highway" v="residential"/>
    <tag k="layer" v="1"/>
    <tag k="lit" v="yes"/>
    <tag k="maxspeed" v="30"/>
    <tag k="maxweight:signed" v="no"/>
    <tag k="name" v="Pont d'Arcole"/>
    <tag k="name:etymology" v="un jeune apprenti serrurier, fils d'un ancien sergent, tué au cours des Trois Glorieuses, le 28 juillet 1830, lors d'une contre-attaque des insurgés contre l'Hôtel de ville"/>
    <tag k="oneway" v="yes"/>
    <tag k="sidewalk:left" v="no"/>
    <tag k="sidewalk:right" v="separate"/>
    <tag k="smoothness" v="good"/>
    <tag k="surface" v="asphalt"/>
  </way>
  <way id="4261423" version="19" timestamp="2024-07-30T08:22:49Z" changeset="154594220" uid="2678738" user="fgouget">
    <nd ref="25554711"/>
    <nd ref="3382949002"/>
    <nd ref="1513501833"/>
    <tag k="bridge" v="yes"/>
    <tag k="cycleway:right" v="no"/>
    <tag k="highway" v="residential"/>
    <tag k="layer" v="1"/>
    <tag k="lit" v="yes"/>
    <tag k="maxspeed" v="30"/>
    <tag k="maxweight:signed" v="no"/>
    <tag k="name" v="Pont d'Arcole"/>
    <tag k="name:etymology" v="un jeune apprenti serrurier, fils d'un ancien sergent, tué au cours des Trois Glorieuses, le 28 juillet 1830, lors d'une contre-attaque des insurgés contre l'Hôtel de ville"/>
    <tag k="oneway" v="yes"/>
    <tag k="sidewalk:left" v="no"/>
    <tag k="sidewalk:right" v="separate"/>
    <tag k="smoothness" v="good"/>
    <tag k="surface" v="asphalt"/>
  </way>
  <way id="17249305" version="29" timestamp="2024-11-25T06:24:56Z" changeset="159558677" uid="158826" user="cquest">
    <nd ref="10832534950"/>
    <nd ref="12373039938"/>
    <nd ref="178803742"/>
    <tag k="bridge" v="yes"/>
    <tag k="bus" v="yes"/>
    <tag k="cycleway:both" v="lane"/>
    <tag k="cycleway:both:lane" v="exclusive"/>
    <tag k="hgv" v="no"/>
    <tag k="highway" v="tertiary"/>
    <tag k="lanes" v="3"/>
    <tag k="lanes:backward" v="2"/>
    <tag k="lanes:forward" v="1"/>
    <tag k="layer" v="1"/>
    <tag k="lit" v="yes"/>
    <tag k="maxspeed" v="30"/>
    <tag k="name" v="Pont Marie"/>
    <tag k="name:etymology:wikidata" v="Q48758693"/>
    <tag k="note:access" v="bus RATP autorisés"/>
    <tag k="parking:both" v="no"/>
    <tag k="sidewalk" v="separate"/>
    <tag k="smoothness" v="intermediate"/>
    <tag k="source" v="BMO Arrêté n o 2018 P 12837"/>
    <tag k="surface" v="sett"/>
    <tag k="zone:maxspeed" v="FR:30"/>
  </way>
  <way id="20444537" version="25" timestamp="2024-02-17T17:38:02Z" changeset="147580915" uid="6290466" user="benjamintchik">
    <nd ref="218250236"/>
    <nd ref="21305940"/>
    <tag k="bridge" v="yes"/>
    <tag k="cycleway:left" v="lane"/>
    <tag k="cycleway:left:lane" v="exclusive"/>
    <tag k="cycleway:left:oneway" v="-1"/>
    <tag k="cycleway:right" v="no"/>
    <tag k="highway" v="residential"/>
    <tag k="layer" v="1"/>
    <tag k="lit" v="yes"/>
    <tag k="maxspeed" v="30"/>
    <tag k="maxspeed:type" v="sign"/>
    <tag k="maxweight:signed" v="no"/>
    <tag k="name" v="Pont de l'Archevêché"/>
    <tag k="name:es" v="Puente del Arzobispado"/>
    <tag k="name:etymology:wikidata" v="Q1242250"/>
    <tag k="oneway" v="yes"/>
    <tag k="oneway:bicycle" v="no"/>
    <tag k="parking:both" v="no"/>
    <tag k="sidewalk" v="separate"/>
    <tag k="surface" v="asphalt"/>
  </way>
  <way id="20445190" version="37" timestamp="2025-01-10T08:59:22Z" changeset="161196700" uid="7512839" user="Benoît C MdP">
    <nd ref="218267571"/>
    <nd ref="2734148906"/>
    <nd ref="6335319284"/>
    <tag k="alt_name" v="Pont Sully"/>
    <tag k="bicycle:backward" v="use_sidepath"/>
    <tag k="bridge" v="yes"/>
    <tag k="busway:left" v="lane"/>
    <tag k="busway:left:oneway" v="-1"/>
    <tag k="cycleway:left" v="share_busway"/>
    <tag k="cycleway:left:oneway" v="-1"/>
    <tag k="cycleway:right" v="lane"/>
    <tag k="cycleway:right:lane" v="exclusive"/>
    <tag k="highway" v="primary"/>
    <tag k="lanes" v="3"/>
    <tag k="lanes:backward" v="1"/>
    <tag k="lanes:forward" v="2"/>
    <tag k="layer" v="1"/>
    <tag k="lit" v="yes"/>
    <tag k="maxspeed" v="30"/>
    <tag k="maxweight:signed" v="no"/>
    <tag k="name" v="Pont de Sully"/>
    <tag k="name:etymology:wikidata" v="Q379953"/>
    <tag k="oneway" v="yes"/>
    <tag k="oneway:bicycle" v="no"/>
    <tag k="oneway:psv" v="no"/>
    <tag k="parking:both" v="no"/>
    <tag k="sidewalk:both" v="separate"/>
    <tag k="smoothness" v="good"/>
    <tag k="source:maxspeed" v="BMO Arrêté n o 2018 P 12837"/>
    <tag k="surface" v="asphalt"/>
    <tag k="wikidata" v="Q1196688"/>
    <tag k="wikipedia" v="fr:Pont de Sully"/>
    <tag k="zone:maxspeed" v="FR:30"/>
  </way>
  <way id="21816598" version="59" timestamp="2025-04-07T19:41:45Z" changeset="164650434" uid="7550430" user="Britzz">
    <nd ref="368125"/>
    <nd ref="2734064426"/>
    <nd ref="235195895"/>
    <nd ref="11066465216"/>
    <nd ref="24923330"/>
    <nd ref="11066465217"/>
    <nd ref="677672404"/>
    <nd ref="235194412"/>
    <nd ref="11066465218"/>
    <nd ref="368122"/>
    <nd ref="11066465219"/>
    <nd ref="6385676579"/>
    <nd ref="11072603538"/>
    <nd ref="677610927"/>
    <tag k="cycleway:both" v="no"/>
    <tag k="highway" v="residential"/>
    <tag k="lanes" v="2"/>
    <tag k="lit" v="yes"/>
    <tag k="maxspeed" v="30"/>
    <tag k="name" v="Quai aux Fleurs"/>
    <tag k="name:etymology:wikidata" v="Q3289836"/>
    <tag k="old_name" v="Quai Napoléon"/>
    <tag k="oneway" v="yes"/>
    <tag k="oneway:bicycle" v="no"/>
    <tag k="sidewalk" v="separate"/>
    <tag k="smoothness" v="good"/>
    <tag k="surface" v="asphalt"/>
  </way>
  <way id="22964641" version="42" timestamp="2025-01-10T08:59:22Z" changeset="161196700" uid="7512839" user="Benoît C MdP">
    <nd ref="6959718360"/>
    <nd ref="11069305447"/>
    <nd ref="247431296"/>
    <tag k="alt_name" v="Pont Sully"/>
    <tag k="bicycle:backward" v="use_sidepath"/>
    <tag k="bridge" v="yes"/>
    <tag k="busway:left" v="lane"/>
    <tag k="busway:left:oneway" v="-1"/>
    <tag k="cycleway:left" v="share_busway"/>
    <tag k="cycleway:left:oneway" v="-1"/>
    <tag k="cycleway:right" v="lane"/>
    <tag k="cycleway:right:lane" v="exclusive"/>
    <tag k="highspeed" v="primary"/>
    <tag k="highway" v="primary"/>
    <tag k="lanes" v="3"/>
    <tag k="lanes:backward" v="1"/>
    <tag k="lanes:forward" v="2"/>
    <tag k="layer" v="1"/>
    <tag k="lit" v="yes"/>
    <tag k="maxspeed" v="30"/>
    <tag k="maxweight:signed" v="no"/>
    <tag k="name" v="Pont de Sully"/>
    <tag k="name:etymology:wikidata" v="Q379953"/>
    <tag k="oneway" v="yes"/>
    <tag k="oneway:bicycle" v="no"/>
    <tag k="oneway:psv" v="no"/>
    <tag k="sidewalk:both" v="separate"/>
    <tag k="smoothness" v="excellent"/>
    <tag k="source:maxspeed" v="BMO Arrêté n o 2018 P 12837"/>
    <tag k="surface" v="asphalt"/>
    <tag k="zone:maxspeed" v="FR:30"/>
  </way>
  <way id="22972090" version="31" timestamp="2024-11-25T06:24:56Z" changeset="159558677" uid="158826" user="cquest">
    <nd ref="247596080"/>
    <nd ref="12373039935"/>
    <nd ref="247596077"/>
    <tag k="bridge" v="yes"/>
    <tag k="cycleway:left" v="lane"/>
    <tag k="cycleway:left:lane" v="exclusive"/>
    <tag k="cycleway:left:oneway" v="-1"/>
    <tag k="cycleway:right" v="lane"/>
    <tag k="cycleway:right:lane" v="exclusive"/>
    <tag k="highway" v="residential"/>
    <tag k="lane_markings" v="no"/>
    <tag k="lanes" v="2"/>
    <tag k="layer" v="1"/>
    <tag k="lit" v="yes"/>
    <tag k="maxspeed" v="30"/>
    <tag k="maxweight:signed" v="no"/>
    <tag k="name" v="Pont Louis-Philippe"/>
    <tag k="name:etymology:wikidata" v="Q7771"/>
    <tag k="oneway" v="yes"/>
    <tag k="oneway:bicycle" v="no"/>
    <tag k="parking:both" v="no"/>
    <tag k="ref:FR:FANTOIR" v="75104P238W;75104P237V"/>
    <tag k="sidewalk" v="separate"/>
    <tag k="source:maxspeed" v="BMO Arrêté n o 2018 P 12837"/>
    <tag k="surface" v="sett"/>
    <tag k="wikidata" v="Q1196667"/>
    <tag k="wikipedia" v="fr:Pont Louis-Philippe"/>
    <tag k="zone:maxspeed" v="FR:30"/>
  </way>
  <way id="22972850" version="13" timestamp="2024-05-30T09:57:19Z" changeset="152025706" uid="7512839" user="Benoît C MdP">
    <nd ref="5596102049"/>
    <nd ref="382071"/>
    <tag k="highway" v="tertiary"/>
    <tag k="maxspeed" v="30"/>
    <tag k="name" v="Pont de la Tournelle"/>
    <tag k="name:etymology:wikidata" v="Q3053741"/>
    <tag k="sidewalk:both" v="separate"/>
    <tag k="source:maxspeed" v="BMO Arrêté n o 2018 P 12837"/>
    <tag k="surface" v="asphalt"/>
    <tag k="zone:maxspeed" v="FR:30"/>
  </way>
  <way id="22972851" version="29" timestamp="2024-07-03T10:42:08Z" changeset="153495901" uid="17401973" user="silvired">
    <nd ref="247631372"/>
    <nd ref="12030955501"/>
    <nd ref="5596102049"/>
    <tag k="bridge" v="yes"/>
    <tag k="cycleway:both" v="no"/>
    <tag k="highway" v="tertiary"/>
    <tag k="lanes" v="4"/>
    <tag k="layer" v="1"/>
    <tag k="lit" v="yes"/>
    <tag k="maxspeed" v="30"/>
    <tag k="maxweight:signed" v="no"/>
    <tag k="name" v="Pont de la Tournelle"/>
    <tag k="name:etymology:wikidata" v="Q3053741"/>
    <tag k="oneway" v="no"/>
    <tag k="parking:both" v="no"/>
    <tag k="sidewalk:both" v="separate"/>
    <tag k="smoothness" v="excellent"/>
    <tag k="source:maxspeed" v="BMO Arrêté n o 2018 P 12837"/>
    <tag k="surface" v="asphalt"/>
    <tag k="zone:maxspeed" v="FR:30"/>
  </way>
  <way id="22973459" version="24" timestamp="2024-03-28T10:33:10Z" changeset="149261012" uid="2678738" user="fgouget">
    <nd ref="677185710"/>
    <nd ref="5536184136"/>
    <nd ref="4680873253"/>
    <tag k="cycleway:both" v="no"/>
    <tag k="highway" v="residential"/>
    <tag k="lanes" v="2"/>
    <tag k="lit" v="yes"/>
    <tag k="maxspeed" v="30"/>
    <tag k="name" v="Pont d'Arcole"/>
    <tag k="name:etymology" v="un jeune apprenti serrurier, fils d'un ancien sergent, tué au cours des Trois Glorieuses, le 28 juillet 1830, lors d'une contre-attaque des insurgés contre l'Hôtel de ville"/>
    <tag k="oneway" v="no"/>
    <tag k="ref:FR:FANTOIR" v="75104P226H;75104P225G"/>
    <tag k="sidewalk:both" v="separate"/>
    <tag k="sidewalk:both:surface" v="asphalt"/>
    <tag k="smoothness" v="good"/>
    <tag k="surface" v="asphalt"/>
    <tag k="wikidata" v="Q1418458"/>
    <tag k="wikipedia" v="fr:Pont d'Arcole"/>
  </way>
  <way id="25344944" version="47" timestamp="2024-11-25T06:24:56Z" changeset="159558677" uid="158826" user="cquest">
    <nd ref="276194265"/>
    <nd ref="3761982460"/>
    <nd ref="12373040016"/>
    <nd ref="5061770266"/>
    <tag k="bridge" v="yes"/>
    <tag k="busway:left" v="opposite_lane"/>
    <tag k="busway:right" v="lane"/>
    <tag k="cycleway:both" v="share_busway"/>
    <tag k="cycleway:left:oneway" v="-1"/>
    <tag k="enforcement:operator" v="Police nationale"/>
    <tag k="highway" v="primary"/>
    <tag k="lane_markings" v="no"/>
    <tag k="lanes" v="2"/>
    <tag k="layer" v="1"/>
    <tag k="lit" v="yes"/>
    <tag k="maxspeed" v="30"/>
    <tag k="maxweight:signed" v="no"/>
    <tag k="name" v="Pont Saint-Michel"/>
    <tag k="name:etymology:wikidata" v="Q26269675"/>
    <tag k="oneway" v="yes"/>
    <tag k="oneway:bicycle" v="no"/>
    <tag k="oneway:psv" v="no"/>
    <tag k="operator" v="Ville de Paris"/>
    <tag k="operator:authority" v="Maire de Paris dans le respect des prescriptions prises par le préfet de police"/>
    <tag k="operator:authority:related_law" v="III de l'article L. 2512-14 du code général des collectivités territoriales"/>
    <tag k="parking:lane:both" v="no"/>
    <tag k="sidewalk" v="separate"/>
    <tag k="smoothness" v="excellent"/>
    <tag k="source:maxspeed" v="FR:zone30"/>
    <tag k="source:operator:authority" v="https://www.legifrance.gouv.fr/loda/id/LEGIARTI000035244298/#LEGIARTI000035244298"/>
    <tag k="surface" v="asphalt"/>
    <tag k="was:cycleway:right" v="share_busway"/>
    <tag k="zone:traffic" v="FR:urban"/>
  </way>
  <way id="41466668" version="24" timestamp="2025-01-10T08:59:22Z" changeset="161196700" uid="7512839" user="Benoît C MdP">
    <nd ref="382074"/>
    <nd ref="11069305445"/>
    <nd ref="5688693956"/>
    <nd ref="5076348869"/>
    <nd ref="2734148900"/>
    <nd ref="218267571"/>
    <tag k="bicycle:backward" v="use_sidepath"/>
    <tag k="busway:left" v="lane"/>
    <tag k="busway:left:oneway" v="-1"/>
    <tag k="cycleway:left" v="share_busway"/>
    <tag k="cycleway:left:oneway" v="-1"/>
    <tag k="cycleway:right" v="lane"/>
    <tag k="cycleway:right:lane" v="exclusive"/>
    <tag k="highway" v="primary"/>
    <tag k="lanes" v="3"/>
    <tag k="lanes:backward" v="1"/>
    <tag k="lanes:forward" v="2"/>
    <tag k="lit" v="yes"/>
    <tag k="maxspeed" v="30"/>
    <tag k="name" v="Boulevard Henri IV"/>
    <tag k="name:etymology:wikidata" v="Q161866"/>
    <tag k="oneway" v="yes"/>
    <tag k="oneway:bicycle" v="no"/>
    <tag k="oneway:psv" v="no"/>
    <tag k="sidewalk:both" v="separate"/>
    <tag k="smoothness" v="good"/>
    <tag k="source:maxspeed" v="BMO Arrêté n o 2018 P 12837"/>
    <tag k="surface" v="asphalt"/>
    <tag k="zone:maxspeed" v="FR:30"/>
  </way>
  <way id="45518911" version="51" timestamp="2025-04-13T09:07:47Z" changeset="164885016" uid="60509" user="schuellerf">
    <nd ref="2734089678"/>
    <nd ref="2165221527"/>
    <nd ref="677182858"/>
    <tag k="check_date:sidewalk:surface" v="2023-02-24"/>
    <tag k="cycleway:both" v="no"/>
    <tag k="highway" v="residential"/>
    <tag k="lanes" v="1"/>
    <tag k="lit" v="yes"/>
    <tag k="maxspeed" v="30"/>
    <tag k="name" v="Rue d'Arcole"/>
    <tag k="name:etymology" v="un jeune apprenti serrurier, fils d'un ancien sergent, tué au cours des Trois Glorieuses, le 28 juillet 1830, lors d'une contre-attaque des insurgés contre l'Hôtel de ville"/>
    <tag k="name:ru" v="улица Арколь"/>
    <tag k="oneway" v="no"/>
    <tag k="sidewalk" v="separate"/>
    <tag k="sidewalk:both:surface" v="asphalt"/>
    <tag k="smoothness" v="good"/>
    <tag k="source:width" v="ARCore"/>
    <tag k="surface" v="asphalt"/>
    <tag k="width" v="5.8"/>
  </way>
  <way id="53570786" version="27" timestamp="2024-02-17T17:45:33Z" changeset="147580915" uid="6290466" user="benjamintchik">
    <nd ref="676758863"/>
    <nd ref="677151934"/>
    <nd ref="2734089654"/>
    <nd ref="2303421402"/>
    <nd ref="677151951"/>
    <tag k="cycleway:left" v="no"/>
    <tag k="cycleway:right" v="shared_lane"/>
    <tag k="cycleway:right:lane" v="pictogram"/>
    <tag k="highway" v="residential"/>
    <tag k="lanes" v="2"/>
    <tag k="lit" v="yes"/>
    <tag k="maxspeed" v="30"/>
    <tag k="name" v="Quai du Marché Neuf - Maurice Grimaud"/>
    <tag k="name:etymology:wikidata" v="Q3300877"/>
    <tag k="sidewalk" v="both"/>
    <tag k="smoothness" v="good"/>
    <tag k="source" v="cadastre-dgi-fr source : Direction Générale des Impôts - Cadastre. Mise à jour : 2010"/>
    <tag k="surface" v="asphalt"/>
  </way>
  <way id="53601032" version="25" timestamp="2024-09-04T18:54:39Z" changeset="156200723" uid="7550430" user="Britzz">
    <nd ref="677072839"/>
    <nd ref="6434730082"/>
    <nd ref="677072840"/>
    <nd ref="677072842"/>
    <nd ref="677072843"/>
    <nd ref="677072706"/>
    <nd ref="677072707"/>
    <nd ref="677072709"/>
    <nd ref="677072717"/>
    <nd ref="677072721"/>
    <nd ref="677072723"/>
    <nd ref="677072718"/>
    <nd ref="677072720"/>
    <nd ref="677072727"/>
    <nd ref="677072729"/>
    <nd ref="677072725"/>
    <nd ref="677072726"/>
    <nd ref="677072733"/>
    <nd ref="677072734"/>
    <nd ref="677072730"/>
    <nd ref="677072732"/>
    <nd ref="677072714"/>
    <nd ref="677072712"/>
    <nd ref="677072715"/>
    <nd ref="7923005424"/>
    <nd ref="677072747"/>
    <nd ref="677072742"/>
    <nd ref="677072740"/>
    <nd ref="677072745"/>
    <nd ref="677072743"/>
    <nd ref="677072756"/>
    <nd ref="677072755"/>
    <nd ref="677072760"/>
    <nd ref="677072758"/>
    <nd ref="677072750"/>
    <nd ref="677072749"/>
    <nd ref="677072753"/>
    <nd ref="677072752"/>
    <nd ref="677072736"/>
    <nd ref="677072737"/>
    <nd ref="677072739"/>
    <nd ref="677072768"/>
    <nd ref="677072762"/>
    <nd ref="677072763"/>
    <nd ref="677072765"/>
    <nd ref="677072766"/>
    <nd ref="677072771"/>
    <nd ref="677072774"/>
    <nd ref="677072775"/>
    <nd ref="677072777"/>
    <nd ref="677072770"/>
    <nd ref="677072778"/>
    <nd ref="677072780"/>
    <nd ref="677072781"/>
    <nd ref="677072791"/>
    <nd ref="677072788"/>
    <nd ref="677072787"/>
    <nd ref="677072785"/>
    <nd ref="677072784"/>
    <nd ref="677072822"/>
    <nd ref="677072821"/>
    <nd ref="677072819"/>
    <nd ref="677072818"/>
    <nd ref="677072825"/>
    <nd ref="677072824"/>
    <nd ref="677072816"/>
    <nd ref="7922829502"/>
    <nd ref="677072815"/>
    <nd ref="677072814"/>
    <nd ref="677072812"/>
    <nd ref="677072810"/>
    <nd ref="7922829503"/>
    <nd ref="677072803"/>
    <nd ref="677072805"/>
    <nd ref="677072799"/>
    <nd ref="677072802"/>
    <nd ref="7922829504"/>
    <nd ref="677072796"/>
    <nd ref="677072798"/>
    <nd ref="677072792"/>
    <nd ref="677072795"/>
    <nd ref="677072806"/>
    <nd ref="677072808"/>
    <nd ref="12156155171"/>
    <nd ref="12156155172"/>
    <nd ref="677072894"/>
    <nd ref="677072895"/>
    <nd ref="677072896"/>
    <nd ref="10901637769"/>
    <nd ref="677072897"/>
    <nd ref="677072898"/>
    <nd ref="677072890"/>
    <nd ref="677072891"/>
    <nd ref="677072892"/>
    <nd ref="677072893"/>
    <nd ref="677072873"/>
    <nd ref="677072887"/>
    <nd ref="677072888"/>
    <nd ref="677072889"/>
    <nd ref="677072860"/>
    <nd ref="677072862"/>
    <nd ref="677072864"/>
    <nd ref="677072866"/>
    <nd ref="7923005423"/>
    <nd ref="677072867"/>
    <nd ref="677072869"/>
    <nd ref="677072870"/>
    <nd ref="677072871"/>
    <nd ref="677072849"/>
    <nd ref="677072850"/>
    <nd ref="677072851"/>
    <nd ref="677072853"/>
    <nd ref="677072854"/>
    <nd ref="677072856"/>
    <nd ref="677072857"/>
    <nd ref="677072859"/>
    <nd ref="677072845"/>
    <nd ref="677072846"/>
    <nd ref="677072839"/>
    <tag k="amenity" v="courthouse"/>
    <tag k="building" v="government"/>
    <tag k="building:levels" v="4"/>
    <tag k="check_date:opening_hours" v="2022-08-23"/>
    <tag k="height" v="25"/>
    <tag k="name" v="Tribunal de commerce de Paris"/>
    <tag k="opening_hours:signed" v="no"/>
    <tag k="roof:colour" v="#2A2E52"/>
    <tag k="roof:height" v="8"/>
    <tag k="roof:levels" v="1"/>
    <tag k="roof:shape" v="mansard"/>
    <tag k="source" v="layer cadastre 2013;cadastre-dgi-fr source : Direction Générale des Impôts - Cadastre. Mise à jour : 2010"/>
    <tag k="start_date" v="1865"/>
    <tag k="type" v="building"/>
    <tag k="website" v="https://www.tribunal-de-commerce-de-paris.fr/"/>
    <tag k="wikidata" v="Q3538874"/>
    <tag k="wikipedia" v="fr:Tribunal de commerce de Paris"/>
  </way>
  <way id="53604499" version="23" timestamp="2024-08-08T19:16:03Z" changeset="154993584" uid="15968482" user="PtitLouis_">
    <nd ref="677185710"/>
    <nd ref="2165221533"/>
    <nd ref="677185709"/>
    <nd ref="2165221535"/>
    <nd ref="677104497"/>
    <tag k="cycleway:both" v="no"/>
    <tag k="highway" v="residential"/>
    <tag k="lit" v="yes"/>
    <tag k="maxspeed" v="30"/>
    <tag k="name" v="Quai de la Corse"/>
    <tag k="name:etymology:wikidata" v="Q14112"/>
    <tag k="official_name" v="Quai de la Corse - Pasquale Paoli"/>
    <tag k="oneway" v="yes"/>
    <tag k="sidewalk" v="separate"/>
    <tag k="smoothness" v="good"/>
    <tag k="source:name" v="plaques apposées"/>
    <tag k="source:official_name" v="dénomination prévue mais non encore édictée : https://www.corsematin.com/articles/le-quai-de-la-corse-a-paris-prend-le-nom-de-pasquale-paoli-95553"/>
    <tag k="surface" v="asphalt"/>
  </way>
  <way id="53613248" version="43" timestamp="2025-04-16T21:05:56Z" changeset="165046549" uid="7550430" user="Britzz">
    <nd ref="677598386"/>
    <nd ref="677182869"/>
    <nd ref="677182866"/>
    <nd ref="677182865"/>
    <nd ref="11066465232"/>
    <nd ref="11066465231"/>
    <nd ref="11066465230"/>
    <nd ref="677182863"/>
    <nd ref="677182862"/>
    <nd ref="677182861"/>
    <tag k="highway" v="residential"/>
    <tag k="lanes" v="1"/>
    <tag k="lit" v="yes"/>
    <tag k="maxspeed" v="30"/>
    <tag k="name" v="Rue Chanoinesse"/>
    <tag k="name:etymology:wikidata" v="Q1104153"/>
    <tag k="name:ru" v="улица Шануанс"/>
    <tag k="oneway" v="yes"/>
    <tag k="sidewalk" v="separate"/>
    <tag k="sidewalk:both:surface" v="asphalt"/>
    <tag k="smoothness" v="excellent"/>
    <tag k="source" v="cadastre-dgi-fr source : Direction Générale des Impôts - Cadastre. Mise à jour : 2010"/>
    <tag k="surface" v="asphalt"/>
  </way>
  <way id="53613250" version="38" timestamp="2024-03-28T10:26:00Z" changeset="149261012" uid="2678738" user="fgouget">
    <nd ref="677182851"/>
    <nd ref="6543494393"/>
    <nd ref="2734064434"/>
    <nd ref="2734089672"/>
    <nd ref="677182855"/>
    <tag k="highway" v="residential"/>
    <tag k="lanes" v="1"/>
    <tag k="lit" v="yes"/>
    <tag k="maxspeed" v="30"/>
    <tag k="name" v="Rue Massillon"/>
    <tag k="name:etymology:wikidata" v="Q1381729"/>
    <tag k="name:ru" v="улица Массийон"/>
    <tag k="sidewalk:left" v="separate"/>
    <tag k="sidewalk:right" v="yes"/>
    <tag k="source" v="cadastre-dgi-fr source : Direction Générale des Impôts - Cadastre. Mise à jour : 2010"/>
    <tag k="surface" v="asphalt"/>
  </way>
  <way id="53613253" version="45" timestamp="2024-02-17T17:41:51Z" changeset="147580915" uid="6290466" user="benjamintchik">
    <nd ref="677610912"/>
    <nd ref="2165221525"/>
    <nd ref="677182860"/>
    <nd ref="11071500481"/>
    <nd ref="677182853"/>
    <nd ref="11071500480"/>
    <nd ref="11071500479"/>
    <nd ref="677182855"/>
    <tag k="highway" v="residential"/>
    <tag k="lanes" v="1"/>
    <tag k="lit" v="yes"/>
    <tag k="maxspeed" v="30"/>
    <tag k="maxspeed:type" v="sign"/>
    <tag k="name" v="Rue Chanoinesse"/>
    <tag k="name:etymology:wikidata" v="Q1104153"/>
    <tag k="name:fr" v="Rue Chanoinesse"/>
    <tag k="name:ru" v="улица Шануанс"/>
    <tag k="oneway" v="yes"/>
    <tag k="sidewalk" v="separate"/>
    <tag k="smoothness" v="excellent"/>
    <tag k="source" v="cadastre-dgi-fr source : Direction Générale des Impôts - Cadastre. Mise à jour : 2010"/>
    <tag k="surface" v="asphalt"/>
  </way>
  <way id="53657331" version="39" timestamp="2025-04-16T21:05:56Z" changeset="165046549" uid="7550430" user="Britzz">
    <nd ref="677598268"/>
    <nd ref="2734089683"/>
    <nd ref="11066465220"/>
    <nd ref="677598248"/>
    <nd ref="677598496"/>
    <nd ref="677598481"/>
    <nd ref="11066465221"/>
    <nd ref="11066465222"/>
    <nd ref="11066465224"/>
    <nd ref="677598482"/>
    <nd ref="11066465225"/>
    <nd ref="677598478"/>
    <nd ref="677598474"/>
    <nd ref="11066465226"/>
    <nd ref="11066465227"/>
    <nd ref="11066465228"/>
    <nd ref="677598475"/>
    <tag k="foot" v="yes"/>
    <tag k="highway" v="residential"/>
    <tag k="lanes" v="1"/>
    <tag k="maxspeed" v="30"/>
    <tag k="name" v="Rue des Ursins"/>
    <tag k="name:etymology:wikidata" v="Q1685601"/>
    <tag k="name:ru" v="улица Урсен"/>
    <tag k="oneway" v="yes"/>
    <tag k="service" v="alley"/>
    <tag k="sidewalk" v="separate"/>
    <tag k="source" v="cadastre-dgi-fr source : Direction Générale des Impôts - Cadastre. Mise à jour : 2010"/>
    <tag k="surface" v="asphalt"/>
  </way>
  <way id="53657334" version="18" timestamp="2025-04-28T20:58:14Z" changeset="165565967" uid="7550430" user="Britzz">
    <nd ref="677598163"/>
    <nd ref="677610908"/>
    <nd ref="5075024476"/>
    <nd ref="12796144161"/>
    <nd ref="10904516225"/>
    <nd ref="12796144162"/>
    <nd ref="677610907"/>
    <nd ref="12796144160"/>
    <nd ref="12796144158"/>
    <nd ref="12796144159"/>
    <nd ref="677598152"/>
    <nd ref="677598153"/>
    <nd ref="677598154"/>
    <nd ref="677598157"/>
    <nd ref="677598210"/>
    <nd ref="677598209"/>
    <nd ref="677598213"/>
    <nd ref="677598241"/>
    <nd ref="677598242"/>
    <nd ref="677598244"/>
    <nd ref="677598243"/>
    <nd ref="677598249"/>
    <nd ref="677598245"/>
    <nd ref="677598250"/>
    <nd ref="677672424"/>
    <nd ref="12760603920"/>
    <nd ref="677598456"/>
    <nd ref="677598164"/>
    <nd ref="677598163"/>
    <tag k="addr:city" v="Paris"/>
    <tag k="addr:housenumber" v="18"/>
    <tag k="addr:postcode" v="75004"/>
    <tag k="addr:street" v="Rue Chanoinesse"/>
    <tag k="amenity" v="police"/>
    <tag k="building" v="yes"/>
    <tag k="building:levels" v="5"/>
    <tag k="name" v="Compagnies Motocyclistes de la Préfecture de Police de Paris"/>
    <tag k="operator" v="Police nationale"/>
    <tag k="operator:wikidata" v="Q121484"/>
    <tag k="operator:wikipedia" v="en:National Police (France)"/>
    <tag k="short_name" v="Police nationale"/>
    <tag k="source" v="cadastre-dgi-fr source : Direction Générale des Impôts - Cadastre. Mise à jour : 2010"/>
  </way>
  <way id="53657335" version="4" timestamp="2025-04-28T20:58:14Z" changeset="165565967" uid="7550430" user="Britzz">
    <nd ref="677597925"/>
    <nd ref="677597931"/>
    <nd ref="677597932"/>
    <nd ref="677597933"/>
    <nd ref="677597934"/>
    <nd ref="677598108"/>
    <nd ref="677598109"/>
    <nd ref="677598110"/>
    <nd ref="677598111"/>
    <nd ref="677597937"/>
    <nd ref="12796144174"/>
    <nd ref="677597936"/>
    <nd ref="677597925"/>
    <tag k="building" v="apartments"/>
    <tag k="building:levels" v="4"/>
    <tag k="name" v="Hôtel Roger de Gaillon"/>
    <tag k="source" v="cadastre-dgi-fr source : Direction Générale des Impôts - Cadastre. Mise à jour : 2010"/>
  </way>
  <way id="53657338" version="6" timestamp="2025-04-28T20:58:14Z" changeset="165565967" uid="7550430" user="Britzz">
    <nd ref="677598013"/>
    <nd ref="677598014"/>
    <nd ref="677597904"/>
    <nd ref="677597905"/>
    <nd ref="677598010"/>
    <nd ref="677598011"/>
    <nd ref="677598015"/>
    <nd ref="677598016"/>
    <nd ref="677598017"/>
    <nd ref="677597988"/>
    <nd ref="677598018"/>
    <nd ref="677598019"/>
    <nd ref="677597895"/>
    <nd ref="8694433770"/>
    <nd ref="12726980984"/>
    <nd ref="677597907"/>
    <nd ref="677597908"/>
    <nd ref="677597909"/>
    <nd ref="677597914"/>
    <nd ref="677597910"/>
    <nd ref="677597911"/>
    <nd ref="677597912"/>
    <nd ref="12726980985"/>
    <nd ref="12726980983"/>
    <nd ref="677597913"/>
    <nd ref="677597899"/>
    <nd ref="677597900"/>
    <nd ref="12796144169"/>
    <nd ref="677597902"/>
    <nd ref="677598013"/>
    <tag k="building" v="yes"/>
    <tag k="denomination" v="catholic"/>
    <tag k="name" v="Archevêché de Paris"/>
    <tag k="office" v="religion"/>
    <tag k="religion" v="christian"/>
    <tag k="source" v="cadastre-dgi-fr source : Direction Générale des Impôts - Cadastre. Mise à jour : 2010"/>
  </way>
  <way id="53657388" version="43" timestamp="2025-04-11T15:50:04Z" changeset="164822588" uid="7550430" user="Britzz">
    <nd ref="677598475"/>
    <nd ref="11066465229"/>
    <nd ref="677598476"/>
    <nd ref="8145405837"/>
    <nd ref="677598386"/>
    <tag k="foot" v="yes"/>
    <tag k="highway" v="residential"/>
    <tag k="lanes" v="1"/>
    <tag k="lit" v="yes"/>
    <tag k="maxspeed" v="30"/>
    <tag k="name" v="Rue des Chantres"/>
    <tag k="name:etymology:wikidata" v="Q1031332"/>
    <tag k="name:ru" v="улица Шантр"/>
    <tag k="oneway" v="yes"/>
    <tag k="service" v="alley"/>
    <tag k="sidewalk" v="separate"/>
    <tag k="smoothness" v="excellent"/>
    <tag k="source" v="cadastre-dgi-fr source : Direction Générale des Impôts - Cadastre. Mise à jour : 2010"/>
    <tag k="surface" v="asphalt"/>
  </way>
  <way id="53657931" version="40" timestamp="2024-03-28T10:32:48Z" changeset="149261012" uid="2678738" user="fgouget">
    <nd ref="677598268"/>
    <nd ref="677610925"/>
    <nd ref="11071468616"/>
    <nd ref="11071468617"/>
    <nd ref="2165221526"/>
    <nd ref="677610912"/>
    <tag k="highway" v="residential"/>
    <tag k="lanes" v="1"/>
    <tag k="maxspeed" v="30"/>
    <tag k="name" v="Rue de la Colombe"/>
    <tag k="name:ru" v="улица Коломб"/>
    <tag k="oneway" v="yes"/>
    <tag k="service" v="alley"/>
    <tag k="sidewalk:both" v="separate"/>
    <tag k="sidewalk:both:surface" v="asphalt"/>
    <tag k="source" v="cadastre-dgi-fr source : Direction Générale des Impôts - Cadastre. Mise à jour : 2010"/>
    <tag k="surface" v="asphalt"/>
  </way>
  <way id="55290346" version="5" timestamp="2024-07-07T16:24:17Z" changeset="153669308" uid="2367488" user="VitalieS">
    <nd ref="694652343"/>
    <nd ref="694652186"/>
    <nd ref="694644598"/>
    <nd ref="694652096"/>
    <nd ref="694652296"/>
    <nd ref="694644442"/>
    <nd ref="694652350"/>
    <nd ref="694644699"/>
    <nd ref="694652336"/>
    <nd ref="694652099"/>
    <nd ref="694652206"/>
    <nd ref="694652413"/>
    <nd ref="694644718"/>
    <nd ref="694651973"/>
    <nd ref="694652027"/>
    <nd ref="694652224"/>
    <nd ref="694652074"/>
    <nd ref="694644751"/>
    <nd ref="694652199"/>
    <nd ref="694652459"/>
    <nd ref="694652084"/>
    <nd ref="694652234"/>
    <nd ref="694652438"/>
    <nd ref="694652177"/>
    <nd ref="694651977"/>
    <nd ref="694652208"/>
    <nd ref="694652057"/>
    <nd ref="694652254"/>
    <nd ref="694652371"/>
    <nd ref="694644852"/>
    <nd ref="694652102"/>
    <nd ref="694652343"/>
    <tag k="addr:city" v="Paris"/>
    <tag k="addr:housenumber" v="7"/>
    <tag k="addr:postcode" v="75004"/>
    <tag k="addr:street" v="Rue Poulletier"/>
    <tag k="building" v="residential"/>
    <tag k="contact:linkedin" v="https://www.linkedin.com/company/cljt-association"/>
    <tag k="description" v="International residence for young women"/>
    <tag k="email" v="lavigie@cljt.com"/>
    <tag k="name" v="La Vigie"/>
    <tag k="operator" v="Centre du Logement des Jeunes Travailleurs (CLJT)"/>
    <tag k="phone" v="+33 1 46 33 33 98"/>
    <tag k="source" v="cadastre-dgi-fr source : Direction Générale des Impôts - Cadastre. Mise à jour : 2010"/>
    <tag k="website" v="https://www.cljt.com/nos-logements/cljt-la-vigie"/>
  </way>
  <way id="55292123" version="4" timestamp="2023-05-21T15:19:24Z" changeset="136374608" uid="16363684" user="Vardyger">
    <nd ref="694681824"/>
    <nd ref="694681767"/>
    <nd ref="5075112466"/>
    <nd ref="694681954"/>
    <nd ref="694681541"/>
    <nd ref="694682054"/>
    <nd ref="694681619"/>
    <nd ref="694681958"/>
    <nd ref="694681557"/>
    <nd ref="694682062"/>
    <nd ref="694681991"/>
    <nd ref="694681789"/>
    <nd ref="694681466"/>
    <nd ref="694681585"/>
    <nd ref="694682090"/>
    <nd ref="694681664"/>
    <nd ref="694681688"/>
    <nd ref="694681857"/>
    <nd ref="694681824"/>
    <tag k="building" v="apartments"/>
    <tag k="name" v="Petit Hôtel de Marigny"/>
    <tag k="source" v="cadastre-dgi-fr source : Direction Générale des Impôts - Cadastre. Mise à jour : 2010"/>
    <tag k="start_date" v="1640"/>
  </way>
  <way id="55292127" version="8" timestamp="2023-05-21T15:13:01Z" changeset="136374608" uid="16363684" user="Vardyger">
    <nd ref="694681866"/>
    <nd ref="694681889"/>
    <nd ref="694681839"/>
    <nd ref="694682044"/>
    <nd ref="694681636"/>
    <nd ref="10183022812"/>
    <nd ref="10183022813"/>
    <nd ref="694681594"/>
    <nd ref="694681916"/>
    <nd ref="694681746"/>
    <nd ref="694681520"/>
    <nd ref="694681988"/>
    <nd ref="694682174"/>
    <nd ref="694681876"/>
    <nd ref="694681482"/>
    <nd ref="694681681"/>
    <nd ref="694682009"/>
    <nd ref="694681737"/>
    <nd ref="694682104"/>
    <nd ref="694681785"/>
    <nd ref="694682145"/>
    <nd ref="1597811595"/>
    <nd ref="694681866"/>
    <tag k="building" v="school"/>
    <tag k="heritage" v="3"/>
    <tag k="heritage:operator" v="mhs"/>
    <tag k="mhs:inscription_date" v="1988-07-04"/>
    <tag k="name" v="Hôtel Meiland"/>
    <tag k="ref:mhs" v="PA00086306"/>
    <tag k="source" v="cadastre-dgi-fr source : Direction Générale des Impôts - Cadastre. Mise à jour : 2010"/>
    <tag k="source:heritage" v="Ministère de la Culture - 06/2019"/>
    <tag k="wikidata" v="Q3145592"/>
    <tag k="wikipedia" v="fr:Hôtel Meiland"/>
  </way>
  <way id="55292128" version="8" timestamp="2022-02-22T10:17:59Z" changeset="117719727" uid="195017" user="Julien39">
    <nd ref="694681520"/>
    <nd ref="694681973"/>
    <nd ref="694681590"/>
    <nd ref="694681910"/>
    <nd ref="694682126"/>
    <nd ref="694681698"/>
    <nd ref="694681440"/>
    <nd ref="694681773"/>
    <nd ref="694682160"/>
    <nd ref="694682137"/>
    <nd ref="694681710"/>
    <nd ref="694681453"/>
    <nd ref="694681779"/>
    <nd ref="694681988"/>
    <nd ref="694681520"/>
    <tag k="alt_name" v="Hôtel Pimodan"/>
    <tag k="architect" v="Louis Le Vau"/>
    <tag k="building" v="yes"/>
    <tag k="historic" v="manor"/>
    <tag k="name" v="Hôtel de Lauzun"/>
    <tag k="ref:mhs" v="PA00086297"/>
    <tag k="source" v="cadastre-dgi-fr source : Direction Générale des Impôts - Cadastre. Mise à jour : 2010"/>
    <tag k="start_date" v="1657"/>
    <tag k="tourism" v="attraction"/>
    <tag k="wikidata" v="Q534938"/>
    <tag k="wikipedia" v="fr:Hôtel de Lauzun"/>
  </way>
  <way id="55302112" version="8" timestamp="2023-02-25T12:57:20Z" changeset="133003998" uid="11291363" user="u4Dy46Xe">
    <nd ref="694740278"/>
    <nd ref="694739527"/>
    <nd ref="694739676"/>
    <nd ref="694739511"/>
    <nd ref="694740273"/>
    <nd ref="694739800"/>
    <nd ref="694740058"/>
    <nd ref="694740181"/>
    <nd ref="694739475"/>
    <nd ref="1597828635"/>
    <nd ref="1597826734"/>
    <nd ref="694740278"/>
    <tag k="building" v="apartments"/>
    <tag k="building:levels" v="6"/>
    <tag k="heritage" v="3"/>
    <tag k="heritage:operator" v="mhs"/>
    <tag k="mhs:inscription_date" v="1926-02-04"/>
    <tag k="name" v="Hôtel de Comans d'Astry"/>
    <tag k="ref:mhs" v="PA00086332"/>
    <tag k="source" v="cadastre-dgi-fr source : Direction Générale des Impôts - Cadastre. Mise à jour : 2010"/>
    <tag k="source:heritage" v="Ministère de la Culture - 06/2019"/>
    <tag k="wikidata" v="Q3145817"/>
    <tag k="wikipedia" v="fr:Hôtel de Comans d'Astry"/>
  </way>
  <way id="55302127" version="7" timestamp="2023-02-25T12:57:20Z" changeset="133003999" uid="11291363" user="u4Dy46Xe">
    <nd ref="694739494"/>
    <nd ref="694740273"/>
    <nd ref="694739511"/>
    <nd ref="694739580"/>
    <nd ref="694740096"/>
    <nd ref="694739505"/>
    <nd ref="694740216"/>
    <nd ref="694740289"/>
    <nd ref="694740322"/>
    <nd ref="694739625"/>
    <nd ref="694739835"/>
    <nd ref="694739964"/>
    <nd ref="694740221"/>
    <nd ref="694739575"/>
    <nd ref="694739726"/>
    <nd ref="694740304"/>
    <nd ref="694739553"/>
    <nd ref="694739811"/>
    <nd ref="694739650"/>
    <nd ref="694739494"/>
    <tag k="building" v="apartments"/>
    <tag k="building:levels" v="5"/>
    <tag k="heritage" v="2"/>
    <tag k="heritage:operator" v="mhs"/>
    <tag k="mhs:inscription_date" v="1926-02-04"/>
    <tag k="name" v="Hôtel Lefebure de la Malmaison"/>
    <tag k="ref:mhs" v="PA00086299"/>
    <tag k="roof:levels" v="1"/>
    <tag k="source" v="cadastre-dgi-fr source : Direction Générale des Impôts - Cadastre. Mise à jour : 2010"/>
    <tag k="source:heritage" v="Ministère de la Culture - 06/2019"/>
    <tag k="wikidata" v="Q3145565"/>
    <tag k="wikipedia" v="fr:Hôtel Lefebure de la Malmaison"/>
  </way>
  <way id="55302135" version="14" timestamp="2025-04-11T15:45:42Z" changeset="164822370" uid="7550430" user="Britzz">
    <nd ref="694740055"/>
    <nd ref="12748126896"/>
    <nd ref="1597826738"/>
    <nd ref="12748126897"/>
    <nd ref="694740238"/>
    <nd ref="694739469"/>
    <nd ref="694739559"/>
    <nd ref="694739708"/>
    <nd ref="694739776"/>
    <nd ref="694740092"/>
    <nd ref="694740107"/>
    <nd ref="694740316"/>
    <nd ref="694740033"/>
    <nd ref="694740275"/>
    <nd ref="694739652"/>
    <nd ref="10182227094"/>
    <nd ref="12748126895"/>
    <nd ref="12050374524"/>
    <nd ref="12748126894"/>
    <nd ref="694740286"/>
    <nd ref="694740055"/>
    <tag k="building" v="apartments"/>
    <tag k="building:levels" v="4"/>
    <tag k="heritage" v="2"/>
    <tag k="heritage:operator" v="mhs"/>
    <tag k="mhs:inscription_date" v="1986-04-01"/>
    <tag k="name" v="Hôtel de Bretonvilliers"/>
    <tag k="ref:mhs" v="PA00086322"/>
    <tag k="source" v="cadastre-dgi-fr source : Direction Générale des Impôts - Cadastre. Mise à jour : 2010"/>
    <tag k="source:heritage" v="Ministère de la Culture - 06/2019"/>
    <tag k="wikidata" v="Q3145767"/>
    <tag k="wikipedia" v="fr:Hôtel de Bretonvilliers"/>
  </way>
  <way id="55314295" version="14" timestamp="2024-07-07T16:24:17Z" changeset="153669308" uid="2367488" user="VitalieS">
    <nd ref="694837332"/>
    <nd ref="11948133100"/>
    <nd ref="3374830547"/>
    <nd ref="694837097"/>
    <nd ref="694837149"/>
    <nd ref="694837035"/>
    <nd ref="694837228"/>
    <nd ref="694837357"/>
    <nd ref="694837056"/>
    <nd ref="694837261"/>
    <nd ref="694837346"/>
    <nd ref="694837088"/>
    <nd ref="694837171"/>
    <nd ref="694837215"/>
    <nd ref="694837309"/>
    <nd ref="694837034"/>
    <nd ref="694837134"/>
    <nd ref="694837252"/>
    <nd ref="694837338"/>
    <nd ref="694837081"/>
    <nd ref="694837163"/>
    <nd ref="694837209"/>
    <nd ref="694837299"/>
    <nd ref="694837027"/>
    <nd ref="3374830530"/>
    <nd ref="694837123"/>
    <nd ref="3374830499"/>
    <nd ref="694837326"/>
    <nd ref="694837401"/>
    <nd ref="694837420"/>
    <nd ref="694837154"/>
    <nd ref="694837185"/>
    <nd ref="3374830500"/>
    <nd ref="694837245"/>
    <nd ref="694837238"/>
    <nd ref="694837291"/>
    <nd ref="694837380"/>
    <nd ref="694837213"/>
    <nd ref="694837118"/>
    <nd ref="3374830531"/>
    <nd ref="3374830534"/>
    <nd ref="694837241"/>
    <nd ref="3374830539"/>
    <nd ref="3374830545"/>
    <nd ref="694837332"/>
    <tag k="addr:city" v="Paris"/>
    <tag k="addr:housenumber" v="19 bis"/>
    <tag k="addr:postcode" v="75004"/>
    <tag k="addr:street" v="Rue Saint-Louis en l'Île"/>
    <tag k="amenity" v="place_of_worship"/>
    <tag k="building" v="church"/>
    <tag k="building:levels" v="1"/>
    <tag k="check_date" v="2023-09-03"/>
    <tag k="denomination" v="catholic"/>
    <tag k="heritage" v="2"/>
    <tag k="heritage:operator" v="mhs"/>
    <tag k="mhs:inscription_date" v="1915-05-20"/>
    <tag k="name" v="Église Saint-Louis-en-l'Île"/>
    <tag k="name:ko" v="생 루이 앙릴교회"/>
    <tag k="ref:FR:CEF" v="75104_04"/>
    <tag k="ref:mhs" v="PA00086258"/>
    <tag k="religion" v="christian"/>
    <tag k="source" v="cadastre-dgi-fr source : Direction Générale des Impôts - Cadastre;mise à jour : 2008"/>
    <tag k="source:heritage" v="data.gouv.fr:Ministère de la culture et de la communication - 05/2016"/>
    <tag k="wikidata" v="Q1709616"/>
    <tag k="wikipedia" v="fr:Église Saint-Louis-en-l'Île"/>
  </way>
  <way id="55314306" version="4" timestamp="2024-07-07T16:24:17Z" changeset="153669308" uid="2367488" user="VitalieS">
    <nd ref="694837268"/>
    <nd ref="694837220"/>
    <nd ref="1381757005"/>
    <nd ref="694837349"/>
    <nd ref="694837040"/>
    <nd ref="694837251"/>
    <nd ref="694837339"/>
    <nd ref="694837079"/>
    <nd ref="694837161"/>
    <nd ref="694837164"/>
    <nd ref="694837282"/>
    <nd ref="694837370"/>
    <nd ref="694837319"/>
    <nd ref="694837166"/>
    <nd ref="694837352"/>
    <nd ref="694837046"/>
    <nd ref="694837396"/>
    <nd ref="694837192"/>
    <nd ref="694837124"/>
    <nd ref="694837084"/>
    <nd ref="694837382"/>
    <nd ref="694837256"/>
    <nd ref="694837388"/>
    <nd ref="694837268"/>
    <tag k="addr:city" v="Paris"/>
    <tag k="addr:housenumber" v="8"/>
    <tag k="addr:postcode" v="75004"/>
    <tag k="addr:street" v="Rue des Deux Ponts"/>
    <tag k="amenity" v="public_bath"/>
    <tag k="building" v="yes"/>
    <tag k="name" v="Bains-douches des Deux-Ponts"/>
    <tag k="source" v="cadastre-dgi-fr source : Direction Générale des Impôts - Cadastre. Mise à jour : 2010"/>
  </way>
  <way id="55407685" version="5" timestamp="2025-05-13T14:37:29Z" changeset="166206782" uid="15094172" user="chl-osm">
    <nd ref="696050752"/>
    <nd ref="696050762"/>
    <nd ref="696050638"/>
    <nd ref="696051718"/>
    <nd ref="696051038"/>
    <nd ref="696051051"/>
    <nd ref="696051487"/>
    <nd ref="696050752"/>
    <tag k="building" v="apartments"/>
    <tag k="building:levels" v="5"/>
    <tag k="check_date" v="2022-09-30"/>
    <tag k="contact:phone" v="+33 1 43 26 13 35"/>
    <tag k="name" v="Les Deux Îles"/>
    <tag k="ref:FR:SIREN" v="642053607"/>
    <tag k="ref:FR:SIRET" v="64205360700015"/>
    <tag k="ref:vatin" v="FR17642053607"/>
    <tag k="source" v="cadastre-dgi-fr source : Direction Générale des Impôts - Cadastre. Mise à jour : 2010"/>
    <tag k="stars" v="3"/>
    <tag k="tourism" v="hotel"/>
    <tag k="website" v="https://www.deuxiles-paris-hotel.com"/>
    <tag k="wheelchair" v="limited"/>
  </way>
  <way id="55407736" version="5" timestamp="2025-05-13T14:37:29Z" changeset="166206782" uid="15094172" user="chl-osm">
    <nd ref="696050924"/>
    <nd ref="696050533"/>
    <nd ref="696050745"/>
    <nd ref="696050671"/>
    <nd ref="696051412"/>
    <nd ref="696051630"/>
    <nd ref="696050924"/>
    <tag k="building" v="apartments"/>
    <tag k="building:levels" v="5"/>
    <tag k="contact:phone" v="+33 1 43 26 23 52"/>
    <tag k="name" v="Hôtel de Lutèce"/>
    <tag k="ref:FR:SIREN" v="572107449"/>
    <tag k="ref:FR:SIRET" v="57210744900017"/>
    <tag k="ref:vatin" v="FR91572107449"/>
    <tag k="roof:levels" v="1"/>
    <tag k="source" v="cadastre-dgi-fr source : Direction Générale des Impôts - Cadastre. Mise à jour : 2010"/>
    <tag k="stars" v="4"/>
    <tag k="tourism" v="hotel"/>
    <tag k="website" v="https://www.paris-hotel-lutece.com"/>
  </way>
  <way id="55407742" version="4" timestamp="2023-04-21T19:03:17Z" changeset="135206628" uid="7550430" user="Britzz">
    <nd ref="696051334"/>
    <nd ref="696051128"/>
    <nd ref="696051650"/>
    <nd ref="696050524"/>
    <nd ref="696051260"/>
    <nd ref="696050641"/>
    <nd ref="696050571"/>
    <nd ref="696051334"/>
    <tag k="building" v="apartments"/>
    <tag k="building:levels" v="6"/>
    <tag k="name" v="Hôtel Saint-Louis en l'Isle"/>
    <tag k="phone" v="+33 1 46 34 04 80"/>
    <tag k="source" v="cadastre-dgi-fr source : Direction Générale des Impôts - Cadastre. Mise à jour : 2010"/>
    <tag k="tourism" v="hotel"/>
    <tag k="website" v="https://www.saintlouisenlisle.com"/>
    <tag k="wheelchair" v="yes"/>
  </way>
  <way id="55462901" version="5" timestamp="2024-12-18T10:46:55Z" changeset="160344586" uid="4184846" user="daniel2311">
    <nd ref="697036780"/>
    <nd ref="697036649"/>
    <nd ref="697036515"/>
    <nd ref="697036530"/>
    <nd ref="697036753"/>
    <nd ref="697036636"/>
    <nd ref="697036780"/>
    <tag k="addr:city" v="Paris"/>
    <tag k="addr:housenumber" v="21"/>
    <tag k="addr:postcode" v="75004"/>
    <tag k="addr:street" v="Rue le Regrattier"/>
    <tag k="building" v="apartments"/>
    <tag k="building:levels" v="6"/>
    <tag k="source" v="cadastre-dgi-fr source : Direction Générale des Impôts - Cadastre. Mise à jour : 2010"/>
  </way>
  <way id="55462929" version="5" timestamp="2022-07-24T14:38:43Z" changeset="124012198" uid="13081159" user="Geopod">
    <nd ref="697036748"/>
    <nd ref="697036684"/>
    <nd ref="697036612"/>
    <nd ref="9241683301"/>
    <nd ref="697036525"/>
    <nd ref="9241683302"/>
    <nd ref="697036789"/>
    <nd ref="697036711"/>
    <nd ref="697036484"/>
    <nd ref="697036761"/>
    <nd ref="697036691"/>
    <nd ref="697036626"/>
    <nd ref="697036535"/>
    <nd ref="697036697"/>
    <nd ref="697036795"/>
    <nd ref="3374833404"/>
    <nd ref="697036683"/>
    <nd ref="697036748"/>
    <tag k="building" v="apartments"/>
    <tag k="building:levels" v="6"/>
    <tag k="name" v="Maison du Centaure"/>
    <tag k="source" v="cadastre-dgi-fr source : Direction Générale des Impôts - Cadastre. Mise à jour : 2010"/>
  </way>
  <way id="64609507" version="22" timestamp="2024-05-03T17:38:29Z" changeset="150849458" uid="6466263" user="zorglubu">
    <nd ref="677104497"/>
    <nd ref="2165221536"/>
    <nd ref="677104496"/>
    <nd ref="677104494"/>
    <nd ref="677151963"/>
    <nd ref="8615812358"/>
    <nd ref="2165221538"/>
    <nd ref="8615812356"/>
    <tag k="bicycle" v="yes"/>
    <tag k="cycleway:left" v="no"/>
    <tag k="cycleway:right" v="lane"/>
    <tag k="cycleway:right:lane" v="exclusive"/>
    <tag k="highway" v="residential"/>
    <tag k="lit" v="yes"/>
    <tag k="maxspeed" v="30"/>
    <tag k="maxspeed:type" v="sign"/>
    <tag k="name" v="Quai de la Corse"/>
    <tag k="name:etymology:wikidata" v="Q14112"/>
    <tag k="official_name" v="Quai de la Corse - Pasquale Paoli"/>
    <tag k="oneway" v="yes"/>
    <tag k="sidewalk:both" v="separate"/>
    <tag k="smoothness" v="excellent"/>
    <tag k="source" v="cadastre-dgi-fr source : Direction Générale des Impôts - Cadastre. Mise à jour : 2010"/>
    <tag k="source:name" v="plaques apposées"/>
    <tag k="source:official_name" v="dénomination prévue mais non encore édictée : https://www.corsematin.com/articles/le-quai-de-la-corse-a-paris-prend-le-nom-de-pasquale-paoli-95553"/>
    <tag k="surface" v="asphalt"/>
  </way>
  <way id="92316091" version="5" timestamp="2017-02-11T09:31:25Z" changeset="45993148" uid="50179" user="Aroche">
    <nd ref="1071424776"/>
    <nd ref="1071425524"/>
    <nd ref="1071425628"/>
    <nd ref="1071424675"/>
    <nd ref="1071425357"/>
    <nd ref="1071426224"/>
    <nd ref="1071425138"/>
    <nd ref="1071425857"/>
    <nd ref="1071424858"/>
    <nd ref="1071424711"/>
    <nd ref="1071424937"/>
    <nd ref="1071425672"/>
    <nd ref="1071424718"/>
    <nd ref="1071425392"/>
    <nd ref="1071424776"/>
    <tag k="building" v="yes"/>
    <tag k="historic" v="monument"/>
    <tag k="name" v="Monument à Barye"/>
    <tag k="source" v="bing"/>
    <tag k="wikidata" v="Q18168658"/>
  </way>
  <way id="138031419" version="26" timestamp="2024-10-18T20:10:29Z" changeset="158066386" uid="7512839" user="Benoît C MdP">
    <nd ref="1513497237"/>
    <nd ref="368120"/>
    <tag k="bridge" v="yes"/>
    <tag k="cycleway:left" v="no"/>
    <tag k="cycleway:right" v="track"/>
    <tag k="cycleway:right:width" v="4"/>
    <tag k="enforcement:operator" v="Police nationale"/>
    <tag k="highway" v="secondary"/>
    <tag k="lanes" v="2"/>
    <tag k="layer" v="1"/>
    <tag k="lit" v="yes"/>
    <tag k="maxspeed" v="30"/>
    <tag k="maxweight:signed" v="no"/>
    <tag k="name" v="Pont Notre-Dame"/>
    <tag k="name:etymology:wikidata" v="Q2981"/>
    <tag k="oneway" v="yes"/>
    <tag k="operator" v="Ville de Paris"/>
    <tag k="operator:authority" v="Maire de Paris dans le respect des prescriptions prises par le préfet de police"/>
    <tag k="operator:authority:related_law" v="III de l'article L. 2512-14 du code général des collectivités territoriales"/>
    <tag k="parking:both" v="no"/>
    <tag k="sidewalk" v="separate"/>
    <tag k="smoothness" v="excellent"/>
    <tag k="source:maxspeed" v="FR:urban"/>
    <tag k="source:operator:authority" v="https://www.legifrance.gouv.fr/loda/id/LEGIARTI000035244298/#LEGIARTI000035244298"/>
    <tag k="surface" v="asphalt"/>
    <tag k="was:cycleway:right" v="lane"/>
    <tag k="wikidata" v="Q1061959"/>
    <tag k="wikipedia" v="fr:Pont Notre-Dame"/>
    <tag k="zone:traffic" v="FR:urban"/>
  </way>
  <way id="201611261" version="86" timestamp="2025-05-04T18:27:41Z" changeset="165813744" uid="22579215" user="fhqi819hds91">
    <nd ref="2117881277"/>
    <nd ref="626890422"/>
    <nd ref="626890405"/>
    <nd ref="626890404"/>
    <nd ref="626890407"/>
    <nd ref="626890409"/>
    <nd ref="626890410"/>
    <nd ref="626890412"/>
    <nd ref="626890414"/>
    <nd ref="626890382"/>
    <nd ref="626890384"/>
    <nd ref="626890386"/>
    <nd ref="626890387"/>
    <nd ref="626890389"/>
    <nd ref="626890390"/>
    <nd ref="626890394"/>
    <nd ref="626890392"/>
    <nd ref="5652214587"/>
    <nd ref="626890492"/>
    <nd ref="626890494"/>
    <nd ref="626890495"/>
    <nd ref="626890497"/>
    <nd ref="6417251770"/>
    <nd ref="626890499"/>
    <nd ref="626890500"/>
    <nd ref="626890502"/>
    <nd ref="626890504"/>
    <nd ref="6417251769"/>
    <nd ref="626890512"/>
    <nd ref="626890514"/>
    <nd ref="626890505"/>
    <nd ref="626890507"/>
    <nd ref="626890509"/>
    <nd ref="626890511"/>
    <nd ref="626890517"/>
    <nd ref="626890519"/>
    <nd ref="626890521"/>
    <nd ref="626890516"/>
    <nd ref="2117740997"/>
    <nd ref="2117740998"/>
    <nd ref="2117741007"/>
    <nd ref="2117740999"/>
    <nd ref="2117740996"/>
    <nd ref="2117740995"/>
    <nd ref="626890539"/>
    <nd ref="626890540"/>
    <nd ref="626890542"/>
    <nd ref="626890543"/>
    <nd ref="626890545"/>
    <nd ref="626890528"/>
    <nd ref="626890529"/>
    <nd ref="2116400196"/>
    <nd ref="626890531"/>
    <nd ref="2117881289"/>
    <nd ref="626890533"/>
    <nd ref="626890546"/>
    <nd ref="2116468357"/>
    <nd ref="2116468356"/>
    <nd ref="2116468354"/>
    <nd ref="2116468352"/>
    <nd ref="2116468350"/>
    <nd ref="2116468348"/>
    <nd ref="2116468346"/>
    <nd ref="2116468344"/>
    <nd ref="2116468342"/>
    <nd ref="2116468340"/>
    <nd ref="2116468337"/>
    <nd ref="2116468336"/>
    <nd ref="2116468333"/>
    <nd ref="2116468332"/>
    <nd ref="626890911"/>
    <nd ref="626890914"/>
    <nd ref="626890915"/>
    <nd ref="626890923"/>
    <nd ref="626890924"/>
    <nd ref="626890927"/>
    <nd ref="626890929"/>
    <nd ref="626890930"/>
    <nd ref="2116468329"/>
    <nd ref="2116468328"/>
    <nd ref="2116468324"/>
    <nd ref="2116468323"/>
    <nd ref="2117881285"/>
    <nd ref="2117881288"/>
    <nd ref="2117881287"/>
    <nd ref="2117881286"/>
    <nd ref="2117881284"/>
    <nd ref="2117881281"/>
    <nd ref="2117881283"/>
    <nd ref="2117881280"/>
    <nd ref="2117881282"/>
    <nd ref="2117881278"/>
    <nd ref="626890941"/>
    <nd ref="2116468320"/>
    <nd ref="2116468317"/>
    <nd ref="2116468314"/>
    <nd ref="2116468311"/>
    <nd ref="626890942"/>
    <nd ref="626890943"/>
    <nd ref="626890944"/>
    <nd ref="626890945"/>
    <nd ref="626890947"/>
    <nd ref="2117798283"/>
    <nd ref="626890949"/>
    <nd ref="626890951"/>
    <nd ref="2116400153"/>
    <nd ref="2116400151"/>
    <nd ref="2116400148"/>
    <nd ref="2116400149"/>
    <nd ref="2116400147"/>
    <nd ref="2116400146"/>
    <nd ref="2116400144"/>
    <nd ref="2116400143"/>
    <nd ref="2116400141"/>
    <nd ref="2116400137"/>
    <nd ref="2116400138"/>
    <nd ref="2116400131"/>
    <nd ref="2116400130"/>
    <nd ref="2116400126"/>
    <nd ref="2116400124"/>
    <nd ref="2116400121"/>
    <nd ref="2116400119"/>
    <nd ref="2116400118"/>
    <nd ref="2116400114"/>
    <nd ref="2116400111"/>
    <nd ref="2116400106"/>
    <nd ref="2116400108"/>
    <nd ref="2116400105"/>
    <nd ref="2116400104"/>
    <nd ref="2116400103"/>
    <nd ref="2116400102"/>
    <nd ref="2116400101"/>
    <nd ref="2116400099"/>
    <nd ref="2116400100"/>
    <nd ref="2116400098"/>
    <nd ref="2116400097"/>
    <nd ref="2116400096"/>
    <nd ref="2116400093"/>
    <nd ref="2116400091"/>
    <nd ref="2116400089"/>
    <nd ref="2116400086"/>
    <nd ref="2116400080"/>
    <nd ref="2116400075"/>
    <nd ref="2116400083"/>
    <nd ref="2116400077"/>
    <nd ref="2116400072"/>
    <nd ref="2116400068"/>
    <nd ref="2116400061"/>
    <nd ref="2116400056"/>
    <nd ref="2116400066"/>
    <nd ref="2116400063"/>
    <nd ref="2116400059"/>
    <nd ref="2116400058"/>
    <nd ref="2116400060"/>
    <nd ref="2116400064"/>
    <nd ref="2116400051"/>
    <nd ref="2116400054"/>
    <nd ref="2116400065"/>
    <nd ref="2116400071"/>
    <nd ref="2116400079"/>
    <nd ref="2116400088"/>
    <nd ref="2116400090"/>
    <nd ref="2116400092"/>
    <nd ref="2116400087"/>
    <nd ref="2116400082"/>
    <nd ref="2116400085"/>
    <nd ref="2116400084"/>
    <nd ref="2116400078"/>
    <nd ref="2116400076"/>
    <nd ref="2116400073"/>
    <nd ref="2116400074"/>
    <nd ref="2116400062"/>
    <nd ref="2116400057"/>
    <nd ref="2116400052"/>
    <nd ref="2116400053"/>
    <nd ref="2116400050"/>
    <nd ref="2116400049"/>
    <nd ref="2116400046"/>
    <nd ref="2116400048"/>
    <nd ref="2116400044"/>
    <nd ref="2116400038"/>
    <nd ref="2116400043"/>
    <nd ref="2116400041"/>
    <nd ref="2116400037"/>
    <nd ref="2116400033"/>
    <nd ref="2116400029"/>
    <nd ref="2116400031"/>
    <nd ref="2116400013"/>
    <nd ref="2116400012"/>
    <nd ref="2116400008"/>
    <nd ref="2116400010"/>
    <nd ref="2116400005"/>
    <nd ref="2116400003"/>
    <nd ref="2116399998"/>
    <nd ref="2116399999"/>
    <nd ref="2116399995"/>
    <nd ref="2116399997"/>
    <nd ref="2116400002"/>
    <nd ref="2116400007"/>
    <nd ref="2116399991"/>
    <nd ref="2116399988"/>
    <nd ref="2116399985"/>
    <nd ref="2116399986"/>
    <nd ref="2116399983"/>
    <nd ref="2116399984"/>
    <nd ref="2116399990"/>
    <nd ref="2116399994"/>
    <nd ref="2116399992"/>
    <nd ref="2116399993"/>
    <nd ref="2116399996"/>
    <nd ref="2116400001"/>
    <nd ref="2116400006"/>
    <nd ref="2116400004"/>
    <nd ref="2116400020"/>
    <nd ref="2116400028"/>
    <nd ref="2116400024"/>
    <nd ref="2116400026"/>
    <nd ref="2116400019"/>
    <nd ref="2116400016"/>
    <nd ref="2116400014"/>
    <nd ref="2116400015"/>
    <nd ref="2116400018"/>
    <nd ref="2116400021"/>
    <nd ref="2116400023"/>
    <nd ref="2116400022"/>
    <nd ref="2116400025"/>
    <nd ref="2116400030"/>
    <nd ref="2116400034"/>
    <nd ref="2116400035"/>
    <nd ref="2116400040"/>
    <nd ref="626890552"/>
    <nd ref="626890554"/>
    <nd ref="626890555"/>
    <nd ref="626890557"/>
    <nd ref="626890559"/>
    <nd ref="626890561"/>
    <nd ref="626890564"/>
    <nd ref="626890647"/>
    <nd ref="626890649"/>
    <nd ref="626890651"/>
    <nd ref="626890654"/>
    <nd ref="626890660"/>
    <nd ref="626890656"/>
    <nd ref="626890657"/>
    <nd ref="626890662"/>
    <nd ref="626890663"/>
    <nd ref="626890665"/>
    <nd ref="626890667"/>
    <nd ref="626890669"/>
    <nd ref="626890671"/>
    <nd ref="626890673"/>
    <nd ref="626890674"/>
    <nd ref="626890683"/>
    <nd ref="626890686"/>
    <nd ref="626890688"/>
    <nd ref="626890689"/>
    <nd ref="626890691"/>
    <nd ref="626890693"/>
    <nd ref="2116468309"/>
    <nd ref="2116468310"/>
    <nd ref="2117663310"/>
    <nd ref="626890677"/>
    <nd ref="626890678"/>
    <nd ref="626890680"/>
    <nd ref="626890682"/>
    <nd ref="626890870"/>
    <nd ref="626890859"/>
    <nd ref="626890860"/>
    <nd ref="626890862"/>
    <nd ref="626890864"/>
    <nd ref="626890865"/>
    <nd ref="626890867"/>
    <nd ref="626890869"/>
    <nd ref="626890475"/>
    <nd ref="626890477"/>
    <nd ref="626890479"/>
    <nd ref="626890480"/>
    <nd ref="2117881273"/>
    <nd ref="2117881269"/>
    <nd ref="2117881271"/>
    <nd ref="2117881275"/>
    <nd ref="626890489"/>
    <nd ref="626890490"/>
    <nd ref="2116400132"/>
    <nd ref="2116400129"/>
    <nd ref="2116400133"/>
    <nd ref="2116400136"/>
    <nd ref="626890460"/>
    <nd ref="626890463"/>
    <nd ref="626890466"/>
    <nd ref="626890468"/>
    <nd ref="626890471"/>
    <nd ref="626890474"/>
    <nd ref="626890395"/>
    <nd ref="626890397"/>
    <nd ref="626890424"/>
    <nd ref="626890425"/>
    <nd ref="626890427"/>
    <nd ref="626890429"/>
    <nd ref="626890430"/>
    <nd ref="626890432"/>
    <nd ref="626890434"/>
    <nd ref="626890435"/>
    <nd ref="626890443"/>
    <nd ref="626890447"/>
    <nd ref="2117663364"/>
    <nd ref="626890415"/>
    <nd ref="626890399"/>
    <nd ref="626890417"/>
    <nd ref="626890400"/>
    <nd ref="5836025385"/>
    <nd ref="626890402"/>
    <nd ref="626890419"/>
    <nd ref="2117881277"/>
    <tag k="addr:city" v="Paris"/>
    <tag k="addr:housenumber" v="6"/>
    <tag k="addr:postcode" v="75004"/>
    <tag k="addr:street" v="Parvis Notre-Dame - Place Jean-Paul II"/>
    <tag k="alt_name" v="Notre-Dame de Paris"/>
    <tag k="alt_name:fr" v="Notre-Dame de Paris"/>
    <tag k="alt_name:ru" v="Нотр-Дам-де-Пари"/>
    <tag k="amenity" v="place_of_worship"/>
    <tag k="basilica" v="minor"/>
    <tag k="building" v="cathedral"/>
    <tag k="building:architecture" v="gothic"/>
    <tag k="check_date" v="2024-02-15"/>
    <tag k="denomination" v="catholic"/>
    <tag k="height" v="10.5"/>
    <tag k="heritage" v="2"/>
    <tag k="heritage:operator" v="mhs"/>
    <tag k="historic" v="church"/>
    <tag k="importance" v="international"/>
    <tag k="mhs:inscription_date" v="1862"/>
    <tag k="name" v="Cathédrale Notre-Dame de Paris"/>
    <tag k="name:ar" v="كاتدرائية نوتردام"/>
    <tag k="name:de" v="Kathedrale Notre-Dame"/>
    <tag k="name:en" v="Cathedral of Notre Dame"/>
    <tag k="name:es" v="Catedral de Notre Dame"/>
    <tag k="name:fr" v="Cathédrale Notre-Dame de Paris"/>
    <tag k="name:it" v="Cattedrale di Notre-Dame"/>
    <tag k="name:ja" v="ノートルダム寺院"/>
    <tag k="name:ko" v="노트르담 대성당"/>
    <tag k="name:pt" v="Catedral de Notre Dame"/>
    <tag k="name:ru" v="Собор Парижской Богоматери"/>
    <tag k="name:sr" v="Нотр дам"/>
    <tag k="name:tr" v="Notre Dame Katedrali"/>
    <tag k="name:zh" v="巴黎聖母院"/>
    <tag k="name:zh-Hans" v="巴黎圣母院"/>
    <tag k="name:zh-Hant" v="巴黎聖母院"/>
    <tag k="opening_hours" v="Mo,Tu,We,Fr 07:50-19:00; Th 07:50-22:00; Sa,Su 08:15-19:30"/>
    <tag k="organ:listed_status" v="yes"/>
    <tag k="phone" v="+33 1 42 34 56 10"/>
    <tag k="ref:FR:CEF" v="75104_01"/>
    <tag k="ref:mhs" v="PA00086250"/>
    <tag k="ref:structurae" v="20000272"/>
    <tag k="religion" v="christian"/>
    <tag k="roof:colour" v="#d0d0d0"/>
    <tag k="short_name" v="Notre-Dame"/>
    <tag k="start_date" v="1345"/>
    <tag k="start_date:construction" v="1163"/>
    <tag k="tourism" v="attraction"/>
    <tag k="tourism:visitors" v="14000000"/>
    <tag k="website" v="https://www.notredamedeparis.fr/"/>
    <tag k="website:en" v="http://www.notredamedeparis.fr/en/"/>
    <tag k="wheelchair" v="yes"/>
    <tag k="wikidata" v="Q2981"/>
    <tag k="wikimedia_commons" v="Category:Cathédrale Notre-Dame de Paris"/>
    <tag k="wikipedia" v="fr:Cathédrale Notre-Dame de Paris"/>
  </way>
  <way id="290820396" version="58" timestamp="2025-04-08T06:52:21Z" changeset="164663043" uid="2678738" user="fgouget">
    <nd ref="27308711"/>
    <nd ref="2519852970"/>
    <nd ref="6828320899"/>
    <tag k="cycleway:left" v="no"/>
    <tag k="cycleway:right" v="track"/>
    <tag k="enforcement:operator" v="Police nationale"/>
    <tag k="highway" v="secondary"/>
    <tag k="lane_markings" v="no"/>
    <tag k="lit" v="yes"/>
    <tag k="maxspeed" v="30"/>
    <tag k="name" v="Rue de la Cité"/>
    <tag k="name:etymology:wikidata" v="Q190063"/>
    <tag k="name:ru" v="улица Сите"/>
    <tag k="oneway" v="yes"/>
    <tag k="operator" v="Ville de Paris"/>
    <tag k="operator:authority" v="Maire de Paris dans le respect des prescriptions prises par le préfet de police"/>
    <tag k="operator:authority:related_law" v="III de l'article L. 2512-14 du code général des collectivités territoriales"/>
    <tag k="sidewalk:left" v="separate"/>
    <tag k="sidewalk:left:surface" v="asphalt"/>
    <tag k="sidewalk:right" v="yes"/>
    <tag k="sidewalk:right:surface" v="paving_stones"/>
    <tag k="smoothness" v="excellent"/>
    <tag k="source:maxspeed" v="FR:urban"/>
    <tag k="source:operator:authority" v="https://www.legifrance.gouv.fr/loda/id/LEGIARTI000035244298/#LEGIARTI000035244298"/>
    <tag k="surface" v="asphalt"/>
    <tag k="was:cycleway:right" v="lane"/>
    <tag k="zone:traffic" v="FR:urban"/>
  </way>
  <way id="390298292" version="20" timestamp="2025-02-12T21:49:32Z" changeset="162446393" uid="18531595" user="esmenard">
    <nd ref="382077"/>
    <nd ref="2734148944"/>
    <nd ref="4877380023"/>
    <nd ref="2235441098"/>
    <nd ref="382071"/>
    <tag k="cycleway:left" v="lane"/>
    <tag k="cycleway:left:lane" v="exclusive"/>
    <tag k="cycleway:left:oneway" v="-1"/>
    <tag k="cycleway:right" v="shared_lane"/>
    <tag k="cycleway:right:lane" v="pictogram"/>
    <tag k="highway" v="tertiary"/>
    <tag k="lane_markings" v="no"/>
    <tag k="maxspeed" v="30"/>
    <tag k="name" v="Rue des Deux Ponts"/>
    <tag k="name:etymology:wikidata" v="Q12280"/>
    <tag k="oneway" v="yes"/>
    <tag k="oneway:bicycle" v="no"/>
    <tag k="parking:left" v="yes"/>
    <tag k="parking:left:orientation" v="parallel"/>
    <tag k="sidewalk:both" v="separate"/>
    <tag k="smoothness" v="excellent"/>
    <tag k="source:maxspeed" v="BMO Arrêté n o 2018 P 12837"/>
    <tag k="surface" v="asphalt"/>
    <tag k="zone:maxspeed" v="FR:30"/>
  </way>
  <way id="474063681" version="22" timestamp="2024-11-25T06:24:57Z" changeset="159558677" uid="158826" user="cquest">
    <nd ref="4680873253"/>
    <nd ref="12373037889"/>
    <nd ref="25554711"/>
    <tag k="bridge" v="yes"/>
    <tag k="cycleway:both" v="no"/>
    <tag k="highway" v="residential"/>
    <tag k="lanes" v="2"/>
    <tag k="layer" v="1"/>
    <tag k="lit" v="yes"/>
    <tag k="maxspeed" v="30"/>
    <tag k="maxweight:signed" v="no"/>
    <tag k="name" v="Pont d'Arcole"/>
    <tag k="name:etymology" v="un jeune apprenti serrurier, fils d'un ancien sergent, tué au cours des Trois Glorieuses, le 28 juillet 1830, lors d'une contre-attaque des insurgés contre l'Hôtel de ville"/>
    <tag k="oneway" v="no"/>
    <tag k="parking:both" v="no"/>
    <tag k="ref:FR:FANTOIR" v="75104P226H;75104P225G"/>
    <tag k="sidewalk:both" v="separate"/>
    <tag k="smoothness" v="excellent"/>
    <tag k="surface" v="asphalt"/>
    <tag k="turn:lanes" v="left|right"/>
    <tag k="wikidata" v="Q1418458"/>
    <tag k="wikipedia" v="fr:Pont d'Arcole"/>
  </way>
  <way id="519023655" version="45" timestamp="2025-03-24T09:09:18Z" changeset="164020655" uid="19679725" user="Planespotter1">
    <nd ref="8615812356"/>
    <nd ref="2165221540"/>
    <nd ref="676789104"/>
    <nd ref="676789103"/>
    <nd ref="676789098"/>
    <nd ref="676789097"/>
    <nd ref="676789064"/>
    <nd ref="676789076"/>
    <nd ref="676728070"/>
    <nd ref="1978097469"/>
    <nd ref="1978097467"/>
    <nd ref="2734089732"/>
    <nd ref="6400526956"/>
    <nd ref="11066482364"/>
    <nd ref="11066482363"/>
    <nd ref="11066482362"/>
    <nd ref="676788922"/>
    <tag k="cycleway:left" v="opposite_lane"/>
    <tag k="cycleway:left:lane" v="exclusive"/>
    <tag k="cycleway:right" v="no"/>
    <tag k="highway" v="residential"/>
    <tag k="lit" v="yes"/>
    <tag k="maxspeed" v="30"/>
    <tag k="name" v="Quai de l'Horloge"/>
    <tag k="name:etymology:wikidata" v="Q3533566"/>
    <tag k="name:ru" v="набережная Орлож"/>
    <tag k="oneway" v="yes"/>
    <tag k="oneway:bicycle" v="no"/>
    <tag k="sidewalk" v="separate"/>
    <tag k="smoothness" v="excellent"/>
    <tag k="source" v="cadastre-dgi-fr source : Direction Générale des Impôts - Cadastre. Mise à jour : 2010"/>
    <tag k="surface" v="asphalt"/>
    <tag k="width" v="6"/>
    <tag k="zone:maxspeed" v="FR:30"/>
  </way>
  <way id="668879534" version="36" timestamp="2024-02-17T17:38:31Z" changeset="147580915" uid="6290466" user="benjamintchik">
    <nd ref="677182861"/>
    <nd ref="2734064429"/>
    <nd ref="2734064422"/>
    <nd ref="368125"/>
    <tag k="cycleway" v="lane"/>
    <tag k="highway" v="residential"/>
    <tag k="lanes" v="1"/>
    <tag k="lit" v="yes"/>
    <tag k="maxspeed" v="30"/>
    <tag k="name" v="Rue du Cloître Notre-Dame"/>
    <tag k="name:etymology:wikidata" v="Q20723084"/>
    <tag k="name:fr" v="Rue du Cloître Notre-Dame"/>
    <tag k="name:ru" v="улица Клуатр-Нотр-Дам"/>
    <tag k="oneway" v="yes"/>
    <tag k="sidewalk" v="separate"/>
    <tag k="sidewalk:both:surface" v="paving_stones"/>
    <tag k="smoothness" v="excellent"/>
    <tag k="surface" v="asphalt"/>
  </way>
  <way id="691905065" version="33" timestamp="2025-04-07T19:26:18Z" changeset="164649946" uid="7550430" user="Britzz">
    <nd ref="24923329"/>
    <nd ref="2734089678"/>
    <tag k="access" v="no"/>
    <tag k="foot" v="yes"/>
    <tag k="highway" v="residential"/>
    <tag k="lanes" v="2"/>
    <tag k="lit" v="yes"/>
    <tag k="maxspeed" v="30"/>
    <tag k="name" v="Rue d'Arcole"/>
    <tag k="name:etymology" v="un jeune apprenti serrurier, fils d'un ancien sergent, tué au cours des Trois Glorieuses, le 28 juillet 1830, lors d'une contre-attaque des insurgés contre l'Hôtel de ville"/>
    <tag k="name:ru" v="улица Арколь"/>
    <tag k="oneway" v="no"/>
    <tag k="sidewalk" v="both"/>
    <tag k="sidewalk:both:surface" v="asphalt"/>
    <tag k="smoothness" v="good"/>
    <tag k="surface" v="asphalt"/>
  </way>
  <way id="744835294" version="39" timestamp="2024-10-18T21:28:12Z" changeset="158068563" uid="19867806" user="VLD314">
    <nd ref="212531357"/>
    <nd ref="7494611887"/>
    <nd ref="12264617053"/>
    <nd ref="212531359"/>
    <tag k="bridge" v="yes"/>
    <tag k="cycleway:right" v="track"/>
    <tag k="cycleway:right:width" v="3"/>
    <tag k="enforcement:operator" v="Police nationale"/>
    <tag k="highway" v="secondary"/>
    <tag k="lane_markings" v="no"/>
    <tag k="layer" v="2"/>
    <tag k="lit" v="yes"/>
    <tag k="maxspeed" v="30"/>
    <tag k="maxweight:signed" v="no"/>
    <tag k="name" v="Petit-Pont - Cardinal Lustiger"/>
    <tag k="name:etymology:wikidata" v="Q168509"/>
    <tag k="name:ru" v="Пети Пон"/>
    <tag k="oneway" v="yes"/>
    <tag k="operator" v="Ville de Paris"/>
    <tag k="operator:authority" v="Maire de Paris dans le respect des prescriptions prises par le préfet de police"/>
    <tag k="operator:authority:related_law" v="III de l'article L. 2512-14 du code général des collectivités territoriales"/>
    <tag k="parking:both" v="no"/>
    <tag k="ref:FR:FANTOIR" v="751057347C;751047347Y"/>
    <tag k="sidewalk:both" v="separate"/>
    <tag k="smoothness" v="excellent"/>
    <tag k="source" v="survey 2015"/>
    <tag k="source:maxspeed" v="FR:urban"/>
    <tag k="source:operator:authority" v="https://www.legifrance.gouv.fr/loda/id/LEGIARTI000035244298/#LEGIARTI000035244298"/>
    <tag k="surface" v="asphalt"/>
    <tag k="was:cycleway:right" v="lane"/>
    <tag k="wikidata" v="Q1323635"/>
    <tag k="wikipedia" v="fr:Petit-Pont-Cardinal-Lustiger"/>
    <tag k="zone:traffic" v="FR:urban"/>
  </way>
  <way id="754298045" version="33" timestamp="2024-10-08T13:38:36Z" changeset="157626729" uid="8353937" user="Helge Kreutzmannn">
    <nd ref="7046960610"/>
    <nd ref="2303421398"/>
    <nd ref="677151951"/>
    <tag k="cycleway" v="no"/>
    <tag k="enforcement:operator" v="Police nationale"/>
    <tag k="highway" v="secondary"/>
    <tag k="lane_markings" v="no"/>
    <tag k="lit" v="yes"/>
    <tag k="maxspeed" v="30"/>
    <tag k="name" v="Rue de la Cité"/>
    <tag k="name:etymology:wikidata" v="Q190063"/>
    <tag k="name:ru" v="улица Сите"/>
    <tag k="oneway" v="yes"/>
    <tag k="operator" v="Ville de Paris"/>
    <tag k="operator:authority" v="Maire de Paris dans le respect des prescriptions prises par le préfet de police"/>
    <tag k="operator:authority:related_law" v="III de l'article L. 2512-14 du code général des collectivités territoriales"/>
    <tag k="sidewalk" v="both"/>
    <tag k="sidewalk:left:surface" v="asphalt"/>
    <tag k="sidewalk:right:surface" v="paving_stones"/>
    <tag k="smoothness" v="excellent"/>
    <tag k="source:maxspeed" v="FR:urban"/>
    <tag k="source:operator:authority" v="https://www.legifrance.gouv.fr/loda/id/LEGIARTI000035244298/#LEGIARTI000035244298"/>
    <tag k="surface" v="asphalt"/>
    <tag k="zone:traffic" v="FR:urban"/>
  </way>
  <way id="803340504" version="42" timestamp="2025-04-08T06:52:35Z" changeset="164663043" uid="2678738" user="fgouget">
    <nd ref="677104497"/>
    <nd ref="2165221534"/>
    <nd ref="8747889792"/>
    <nd ref="27308711"/>
    <tag k="cycleway:left" v="no"/>
    <tag k="cycleway:right" v="lane"/>
    <tag k="cycleway:right:lane" v="exclusive"/>
    <tag k="enforcement:operator" v="Police nationale"/>
    <tag k="highway" v="secondary"/>
    <tag k="lane_markings" v="no"/>
    <tag k="lit" v="yes"/>
    <tag k="maxspeed" v="30"/>
    <tag k="name" v="Rue de la Cité"/>
    <tag k="name:etymology:wikidata" v="Q190063"/>
    <tag k="name:ru" v="улица Сите"/>
    <tag k="oneway" v="yes"/>
    <tag k="operator" v="Ville de Paris"/>
    <tag k="operator:authority" v="Maire de Paris dans le respect des prescriptions prises par le préfet de police"/>
    <tag k="operator:authority:related_law" v="III de l'article L. 2512-14 du code général des collectivités territoriales"/>
    <tag k="sidewalk:both:surface" v="asphalt"/>
    <tag k="sidewalk:left" v="separate"/>
    <tag k="sidewalk:right" v="yes"/>
    <tag k="smoothness" v="good"/>
    <tag k="source:maxspeed" v="FR:urban"/>
    <tag k="source:operator:authority" v="https://www.legifrance.gouv.fr/loda/id/LEGIARTI000035244298/#LEGIARTI000035244298"/>
    <tag k="surface" v="asphalt"/>
    <tag k="zone:traffic" v="FR:urban"/>
  </way>
  <way id="837342549" version="11" timestamp="2024-08-27T09:01:52Z" changeset="155819380" uid="7512839" user="Benoît C MdP">
    <nd ref="5061770266"/>
    <nd ref="338664822"/>
    <tag k="busway:left" v="opposite_lane"/>
    <tag k="busway:right" v="lane"/>
    <tag k="cycleway:both" v="share_busway"/>
    <tag k="cycleway:left:lane" v="exclusive"/>
    <tag k="cycleway:left:oneway" v="-1"/>
    <tag k="enforcement:operator" v="Police nationale"/>
    <tag k="highway" v="primary"/>
    <tag k="lane_markings" v="no"/>
    <tag k="lit" v="yes"/>
    <tag k="maxspeed" v="30"/>
    <tag k="maxweight:signed" v="no"/>
    <tag k="name" v="Pont Saint-Michel"/>
    <tag k="name:etymology:wikidata" v="Q26269675"/>
    <tag k="oneway" v="yes"/>
    <tag k="oneway:bicycle" v="no"/>
    <tag k="oneway:psv" v="no"/>
    <tag k="operator" v="Ville de Paris"/>
    <tag k="operator:authority" v="Maire de Paris dans le respect des prescriptions prises par le préfet de police"/>
    <tag k="operator:authority:related_law" v="III de l'article L. 2512-14 du code général des collectivités territoriales"/>
    <tag k="ref:FR:FANTOIR" v="751018709S"/>
    <tag k="sidewalk" v="separate"/>
    <tag k="smoothness" v="good"/>
    <tag k="source:maxspeed" v="FR:zone30"/>
    <tag k="source:operator:authority" v="https://www.legifrance.gouv.fr/loda/id/LEGIARTI000035244298/#LEGIARTI000035244298"/>
    <tag k="surface" v="asphalt"/>
    <tag k="was:cycleway:right" v="share_busway"/>
    <tag k="wikidata" v="Q1329076"/>
    <tag k="wikipedia" v="fr:Pont Saint-Michel"/>
    <tag k="zone:traffic" v="FR:urban"/>
  </way>
  <way id="845612897" version="32" timestamp="2024-02-17T17:43:48Z" changeset="147580915" uid="6290466" user="benjamintchik">
    <nd ref="677182858"/>
    <nd ref="2165221531"/>
    <nd ref="677185710"/>
    <tag k="cycleway:both" v="no"/>
    <tag k="highway" v="residential"/>
    <tag k="lanes" v="2"/>
    <tag k="lit" v="yes"/>
    <tag k="maxspeed" v="30"/>
    <tag k="name" v="Rue d'Arcole"/>
    <tag k="name:etymology" v="un jeune apprenti serrurier, fils d'un ancien sergent, tué au cours des Trois Glorieuses, le 28 juillet 1830, lors d'une contre-attaque des insurgés contre l'Hôtel de ville"/>
    <tag k="name:ru" v="улица Арколь"/>
    <tag k="oneway" v="no"/>
    <tag k="sidewalk" v="separate"/>
    <tag k="sidewalk:both:surface" v="asphalt"/>
    <tag k="smoothness" v="excellent"/>
    <tag k="surface" v="asphalt"/>
  </way>
  <way id="865084962" version="36" timestamp="2024-08-27T08:52:49Z" changeset="155818919" uid="7512839" user="Benoît C MdP">
    <nd ref="15643088"/>
    <nd ref="677151953"/>
    <nd ref="677151955"/>
    <nd ref="1978091880"/>
    <nd ref="6413849014"/>
    <nd ref="2875175581"/>
    <nd ref="8615812357"/>
    <nd ref="4704242138"/>
    <nd ref="8615812356"/>
    <tag k="busway:left" v="opposite_lane"/>
    <tag k="busway:right" v="lane"/>
    <tag k="cycleway:both" v="share_busway"/>
    <tag k="cycleway:left:oneway" v="-1"/>
    <tag k="enforcement:operator" v="Police nationale"/>
    <tag k="highway" v="primary"/>
    <tag k="lanes" v="2"/>
    <tag k="lit" v="yes"/>
    <tag k="maxspeed" v="30"/>
    <tag k="motor_vehicle:conditional" v="no @ (Sep 08-May 25 Tu-Fr 08:00-19:00)"/>
    <tag k="name" v="Boulevard du Palais"/>
    <tag k="name:etymology:wikidata" v="Q143080"/>
    <tag k="name:ru" v="бульвар Пале"/>
    <tag k="oneway" v="yes"/>
    <tag k="oneway:bicycle" v="no"/>
    <tag k="oneway:psv" v="no"/>
    <tag k="operator" v="Ville de Paris"/>
    <tag k="operator:authority" v="Maire de Paris dans le respect des prescriptions prises par le préfet de police"/>
    <tag k="operator:authority:related_law" v="III de l'article L. 2512-14 du code général des collectivités territoriales"/>
    <tag k="parking:lane:both" v="no"/>
    <tag k="sidewalk" v="separate"/>
    <tag k="smoothness" v="good"/>
    <tag k="source:maxspeed" v="FR:zone30"/>
    <tag k="source:operator:authority" v="https://www.legifrance.gouv.fr/loda/id/LEGIARTI000035244298/#LEGIARTI000035244298"/>
    <tag k="surface" v="asphalt"/>
    <tag k="zone:traffic" v="FR:urban"/>
  </way>
  <way id="910134917" version="1" timestamp="2021-02-23T20:07:39Z" changeset="99852514" uid="7550430" user="Britzz">
    <nd ref="8450546391"/>
    <nd ref="8450546390"/>
    <nd ref="8450546389"/>
    <nd ref="8450546388"/>
    <nd ref="8450546387"/>
    <nd ref="8450546386"/>
    <nd ref="8450546385"/>
    <nd ref="8450546384"/>
    <nd ref="8450546391"/>
    <tag k="addr:city" v="Paris"/>
    <tag k="addr:housenumber" v="14"/>
    <tag k="addr:postcode" v="75004"/>
    <tag k="addr:street" v="Quai de l'Hôtel de Ville"/>
    <tag k="amenity" v="bar"/>
    <tag k="building" v="houseboat"/>
    <tag k="name" v="Les Maquereaux"/>
    <tag k="opening_hours" v="Tu-Sa 12:30-01:30, Su 12:30-21:00"/>
    <tag k="website" v="https://www.lesmaquereaux.com/"/>
  </way>
  <way id="910134918" version="1" timestamp="2021-02-23T20:07:39Z" changeset="99852514" uid="7550430" user="Britzz">
    <nd ref="8450546404"/>
    <nd ref="8450546403"/>
    <nd ref="8450546402"/>
    <nd ref="8450546401"/>
    <nd ref="8450546400"/>
    <nd ref="8450546399"/>
    <nd ref="8450546398"/>
    <nd ref="8450546397"/>
    <nd ref="8450546396"/>
    <nd ref="8450546395"/>
    <nd ref="8450546394"/>
    <nd ref="8450546393"/>
    <nd ref="8450546392"/>
    <nd ref="8450546404"/>
    <tag k="amenity" v="restaurant"/>
    <tag k="building" v="houseboat"/>
    <tag k="name" v="Péniche Marcounet"/>
    <tag k="website" v="https://www.peniche-marcounet.fr/"/>
  </way>
  <way id="910134919" version="3" timestamp="2021-11-24T22:57:58Z" changeset="114199968" uid="2622321" user="sk4nd">
    <nd ref="8450546416"/>
    <nd ref="8450546415"/>
    <nd ref="8450546414"/>
    <nd ref="8450546413"/>
    <nd ref="8450546412"/>
    <nd ref="8450546411"/>
    <nd ref="8450546410"/>
    <nd ref="8450546409"/>
    <nd ref="8450546408"/>
    <nd ref="8450546407"/>
    <nd ref="8450546406"/>
    <nd ref="8450546405"/>
    <nd ref="8450546416"/>
    <tag k="addr:city" v="Paris"/>
    <tag k="addr:postcode" v="75004"/>
    <tag k="addr:street" v="Quai de l'Hôtel de Ville"/>
    <tag k="amenity" v="bar"/>
    <tag k="building" v="houseboat"/>
    <tag k="email" v="contact@monsieurpelican.fr"/>
    <tag k="facebook" v="https://www.facebook.com/monsieurpelicanofficiel/"/>
    <tag k="instagram" v="https://www.instagram.com/monsieur.pelican/"/>
    <tag k="name" v="Mr Pélican"/>
    <tag k="opening_hours" v="Mo-Su 12:00-02:00"/>
    <tag k="phone" v="+33 1 48 42 23 63"/>
    <tag k="website" v="https://www.mr-pelican.fr"/>
  </way>
  <way id="1015493288" version="28" timestamp="2024-02-17T17:41:51Z" changeset="147580915" uid="6290466" user="benjamintchik">
    <nd ref="677182855"/>
    <nd ref="677182854"/>
    <nd ref="677598386"/>
    <tag k="highway" v="residential"/>
    <tag k="lanes" v="1"/>
    <tag k="lit" v="yes"/>
    <tag k="maxspeed" v="30"/>
    <tag k="name" v="Rue Chanoinesse"/>
    <tag k="name:etymology:wikidata" v="Q1104153"/>
    <tag k="name:ru" v="улица Шануанс"/>
    <tag k="oneway" v="yes"/>
    <tag k="sidewalk" v="separate"/>
    <tag k="sidewalk:both:surface" v="asphalt"/>
    <tag k="smoothness" v="excellent"/>
    <tag k="source" v="cadastre-dgi-fr source : Direction Générale des Impôts - Cadastre. Mise à jour : 2010"/>
    <tag k="surface" v="asphalt"/>
  </way>
  <way id="1015493289" version="28" timestamp="2024-03-28T10:32:59Z" changeset="149261012" uid="2678738" user="fgouget">
    <nd ref="677610927"/>
    <nd ref="2734089693"/>
    <nd ref="677598268"/>
    <tag k="highway" v="residential"/>
    <tag k="lanes" v="1"/>
    <tag k="maxspeed" v="30"/>
    <tag k="name" v="Rue de la Colombe"/>
    <tag k="name:ru" v="улица Коломб"/>
    <tag k="oneway" v="yes"/>
    <tag k="service" v="alley"/>
    <tag k="sidewalk:both" v="separate"/>
    <tag k="sidewalk:both:surface" v="asphalt"/>
    <tag k="source" v="cadastre-dgi-fr source : Direction Générale des Impôts - Cadastre. Mise à jour : 2010"/>
    <tag k="surface" v="asphalt"/>
  </way>
  <way id="1015493290" version="27" timestamp="2024-02-17T17:41:51Z" changeset="147580915" uid="6290466" user="benjamintchik">
    <nd ref="677182858"/>
    <nd ref="2165221528"/>
    <nd ref="677610912"/>
    <tag k="highway" v="residential"/>
    <tag k="lanes" v="1"/>
    <tag k="lit" v="yes"/>
    <tag k="maxspeed" v="30"/>
    <tag k="maxspeed:type" v="sign"/>
    <tag k="name" v="Rue Chanoinesse"/>
    <tag k="name:etymology:wikidata" v="Q1104153"/>
    <tag k="name:fr" v="Rue Chanoinesse"/>
    <tag k="name:ru" v="улица Шануанс"/>
    <tag k="oneway" v="yes"/>
    <tag k="sidewalk" v="separate"/>
    <tag k="sidewalk:both:surface" v="asphalt"/>
    <tag k="smoothness" v="excellent"/>
    <tag k="source" v="cadastre-dgi-fr source : Direction Générale des Impôts - Cadastre. Mise à jour : 2010"/>
    <tag k="surface" v="asphalt"/>
  </way>
  <way id="1115002322" version="30" timestamp="2024-10-18T20:10:29Z" changeset="158066386" uid="7512839" user="Benoît C MdP">
    <nd ref="2066708518"/>
    <nd ref="677174965"/>
    <nd ref="4843132801"/>
    <nd ref="7046960610"/>
    <tag k="cycleway:left" v="no"/>
    <tag k="cycleway:right" v="track"/>
    <tag k="enforcement:operator" v="Police nationale"/>
    <tag k="highway" v="secondary"/>
    <tag k="lane_markings" v="no"/>
    <tag k="lit" v="yes"/>
    <tag k="maxspeed" v="30"/>
    <tag k="name" v="Rue de la Cité"/>
    <tag k="name:etymology:wikidata" v="Q190063"/>
    <tag k="name:ru" v="улица Сите"/>
    <tag k="oneway" v="yes"/>
    <tag k="operator" v="Ville de Paris"/>
    <tag k="operator:authority" v="Maire de Paris dans le respect des prescriptions prises par le préfet de police"/>
    <tag k="operator:authority:related_law" v="III de l'article L. 2512-14 du code général des collectivités territoriales"/>
    <tag k="sidewalk" v="both"/>
    <tag k="sidewalk:left:surface" v="asphalt"/>
    <tag k="sidewalk:right:surface" v="paving_stones"/>
    <tag k="smoothness" v="excellent"/>
    <tag k="source:maxspeed" v="FR:urban"/>
    <tag k="source:operator:authority" v="https://www.legifrance.gouv.fr/loda/id/LEGIARTI000035244298/#LEGIARTI000035244298"/>
    <tag k="surface" v="asphalt"/>
    <tag k="was:cycleway:right" v="lane"/>
    <tag k="zone:traffic" v="FR:urban"/>
  </way>
  <way id="1188170507" version="8" timestamp="2024-08-15T17:22:30Z" changeset="155293930" uid="11963177" user="JeroenvanderGun">
    <nd ref="11033269490"/>
    <nd ref="11033308487"/>
    <nd ref="11033269489"/>
    <tag k="bridge" v="yes"/>
    <tag k="busway:right" v="lane"/>
    <tag k="cycleway:left" v="separate"/>
    <tag k="cycleway:right" v="share_busway"/>
    <tag k="enforcement:operator" v="Police nationale"/>
    <tag k="highway" v="primary"/>
    <tag k="lanes" v="1"/>
    <tag k="layer" v="1"/>
    <tag k="lit" v="yes"/>
    <tag k="maxspeed" v="30"/>
    <tag k="maxweight:signed" v="no"/>
    <tag k="name" v="Pont au Change"/>
    <tag k="oneway" v="yes"/>
    <tag k="operator" v="Ville de Paris"/>
    <tag k="operator:authority" v="Maire de Paris dans le respect des prescriptions prises par le préfet de police"/>
    <tag k="operator:authority:related_law" v="III de l'article L. 2512-14 du code général des collectivités territoriales"/>
    <tag k="parking:lane:both" v="no"/>
    <tag k="shoulder" v="no"/>
    <tag k="sidewalk" v="separate"/>
    <tag k="smoothness" v="intermediate"/>
    <tag k="source" v="cadastre-dgi-fr source : Direction Générale des Impôts - Cadastre. Mise à jour : 2010"/>
    <tag k="source:maxspeed" v="FR:urban"/>
    <tag k="source:operator:authority" v="https://www.legifrance.gouv.fr/loda/id/LEGIARTI000035244298/#LEGIARTI000035244298"/>
    <tag k="surface" v="sett"/>
    <tag k="zone:traffic" v="FR:urban"/>
  </way>
  <way id="1188170511" version="6" timestamp="2025-03-24T09:07:47Z" changeset="164020655" uid="19679725" user="Planespotter1">
    <nd ref="8615812356"/>
    <nd ref="11066794443"/>
    <nd ref="11033269490"/>
    <tag k="busway:right" v="lane"/>
    <tag k="cycleway" v="separate"/>
    <tag k="cycleway:right" v="share_busway"/>
    <tag k="enforcement:operator" v="Police nationale"/>
    <tag k="highway" v="primary"/>
    <tag k="lanes" v="1"/>
    <tag k="lit" v="yes"/>
    <tag k="maxspeed" v="30"/>
    <tag k="maxweight:signed" v="no"/>
    <tag k="name" v="Pont au Change"/>
    <tag k="oneway" v="yes"/>
    <tag k="operator" v="Ville de Paris"/>
    <tag k="operator:authority" v="Maire de Paris dans le respect des prescriptions prises par le préfet de police"/>
    <tag k="operator:authority:related_law" v="III de l'article L. 2512-14 du code général des collectivités territoriales"/>
    <tag k="parking:lane:both" v="no"/>
    <tag k="shoulder" v="no"/>
    <tag k="sidewalk" v="separate"/>
    <tag k="smoothness" v="intermediate"/>
    <tag k="source" v="cadastre-dgi-fr source : Direction Générale des Impôts - Cadastre. Mise à jour : 2010"/>
    <tag k="source:maxspeed" v="FR:urban"/>
    <tag k="source:operator:authority" v="https://www.legifrance.gouv.fr/loda/id/LEGIARTI000035244298/#LEGIARTI000035244298"/>
    <tag k="surface" v="sett"/>
    <tag k="width" v="5"/>
    <tag k="zone:traffic" v="FR:urban"/>
  </way>
  <way id="1207244645" version="3" timestamp="2024-10-08T13:02:18Z" changeset="157623684" uid="8353937" user="Helge Kreutzmannn">
    <nd ref="235196233"/>
    <nd ref="368125"/>
    <tag k="cycleway:left" v="shared_lane"/>
    <tag k="cycleway:left:lane" v="pictogram"/>
    <tag k="cycleway:left:oneway" v="-1"/>
    <tag k="cycleway:right" v="no"/>
    <tag k="highway" v="residential"/>
    <tag k="lit" v="yes"/>
    <tag k="maxspeed" v="30"/>
    <tag k="name" v="Quai de l'Archevêché"/>
    <tag k="name:etymology:wikidata" v="Q1242250"/>
    <tag k="oneway" v="yes"/>
    <tag k="oneway:bicycle" v="no"/>
    <tag k="sidewalk" v="separate"/>
    <tag k="surface" v="asphalt"/>
    <tag k="wikidata" v="Q3412695"/>
    <tag k="wikipedia" v="fr:Quai de l'Archevêché"/>
  </way>
  <way id="1211589013" version="5" timestamp="2024-10-18T20:10:29Z" changeset="158066386" uid="7512839" user="Benoît C MdP">
    <nd ref="6828320899"/>
    <nd ref="4458138098"/>
    <nd ref="5921503332"/>
    <nd ref="2066708518"/>
    <tag k="cycleway:left" v="no"/>
    <tag k="cycleway:right" v="track"/>
    <tag k="enforcement:operator" v="Police nationale"/>
    <tag k="highway" v="secondary"/>
    <tag k="lane_markings" v="no"/>
    <tag k="lit" v="yes"/>
    <tag k="maxspeed" v="30"/>
    <tag k="name" v="Rue de la Cité"/>
    <tag k="name:etymology:wikidata" v="Q190063"/>
    <tag k="name:ru" v="улица Сите"/>
    <tag k="oneway" v="yes"/>
    <tag k="operator" v="Ville de Paris"/>
    <tag k="operator:authority" v="Maire de Paris dans le respect des prescriptions prises par le préfet de police"/>
    <tag k="operator:authority:related_law" v="III de l'article L. 2512-14 du code général des collectivités territoriales"/>
    <tag k="sidewalk" v="both"/>
    <tag k="smoothness" v="excellent"/>
    <tag k="source:maxspeed" v="FR:urban"/>
    <tag k="source:operator:authority" v="https://www.legifrance.gouv.fr/loda/id/LEGIARTI000035244298/#LEGIARTI000035244298"/>
    <tag k="surface" v="asphalt"/>
    <tag k="was:cycleway:right" v="lane"/>
    <tag k="zone:traffic" v="FR:urban"/>
  </way>
  <way id="1373641710" version="1" timestamp="2025-04-01T09:47:08Z" changeset="164366336" uid="12133211" user="FlorentParisCentre">
    <nd ref="677610927"/>
    <nd ref="11072603537"/>
    <nd ref="2165221532"/>
    <nd ref="677185710"/>
    <tag k="cycleway:both" v="no"/>
    <tag k="highway" v="residential"/>
    <tag k="lanes" v="2"/>
    <tag k="lit" v="yes"/>
    <tag k="maxspeed" v="30"/>
    <tag k="name" v="Quai aux Fleurs"/>
    <tag k="name:etymology:wikidata" v="Q3289836"/>
    <tag k="old_name" v="Quai Napoléon"/>
    <tag k="oneway" v="yes"/>
    <tag k="oneway:bicycle" v="no"/>
    <tag k="sidewalk" v="separate"/>
    <tag k="smoothness" v="good"/>
    <tag k="surface" v="asphalt"/>
  </way>
  <relation id="537263" version="35" timestamp="2025-05-04T18:27:41Z" changeset="165813744" uid="22579215" user="fhqi819hds91">
    <member type="way" ref="53601020" role="inner"/>
    <member type="way" ref="53601014" role="outer"/>
    <tag k="amenity" v="police"/>
    <tag k="building" v="office"/>
    <tag k="building:levels" v="5"/>
    <tag k="name" v="Préfecture de police"/>
    <tag k="name:de" v="Polizeipräfektur"/>
    <tag k="name:en" v="Police Prefecture"/>
    <tag k="name:ru" v="Префектура полиции"/>
    <tag k="name:zh" v="巴黎警察局"/>
    <tag k="name:zh-Hans" v="巴黎警察局"/>
    <tag k="name:zh-Hant" v="巴黎警察局"/>
    <tag k="opening_hours:covid19" v="off"/>
    <tag k="roof:levels" v="1"/>
    <tag k="roof:shape" v="many"/>
    <tag k="source" v="cadastre-dgi-fr source : Direction Générale des Impôts - Cadastre. Mise à jour : 2010"/>
    <tag k="type" v="multipolygon"/>
    <tag k="wikidata" v="Q163265"/>
    <tag k="wikipedia" v="fr:Préfecture de police (Paris)"/>
  </relation>
  <relation id="554046" version="3" timestamp="2022-02-22T10:16:41Z" changeset="117719683" uid="195017" user="Julien39">
    <member type="way" ref="55290327" role="inner"/>
    <member type="way" ref="55290339" role="outer"/>
    <tag k="alt_name" v="Hôtel de Melchior de Gillier"/>
    <tag k="architect" v="Louis Le Vau"/>
    <tag k="building" v="yes"/>
    <tag k="historic" v="manor"/>
    <tag k="name" v="Hôtel de Gillier"/>
    <tag k="type" v="multipolygon"/>
    <tag k="wikidata" v="Q76668276"/>
  </relation>
  <relation id="554059" version="5" timestamp="2022-02-22T10:16:41Z" changeset="117719683" uid="195017" user="Julien39">
    <member type="way" ref="55292121" role="inner"/>
    <member type="way" ref="55292109" role="outer"/>
    <tag k="architect" v="Louis Le Vau"/>
    <tag k="building" v="yes"/>
    <tag k="building:levels" v="4"/>
    <tag k="heritage" v="3"/>
    <tag k="heritage:operator" v="mhs"/>
    <tag k="historic" v="manor"/>
    <tag k="mhs:inscription_date" v="1988-06-04"/>
    <tag k="name" v="Hôtel Le Vau"/>
    <tag k="ref:mhs" v="PA00086328"/>
    <tag k="source:heritage" v="Ministère de la Culture - 06/2019"/>
    <tag k="type" v="multipolygon"/>
    <tag k="wikidata" v="Q22921439"/>
  </relation>
  <relation id="554060" version="6" timestamp="2023-02-25T12:57:15Z" changeset="133003999" uid="11291363" user="u4Dy46Xe">
    <member type="way" ref="55292117" role="inner"/>
    <member type="way" ref="55292124" role="outer"/>
    <tag k="access" v="private"/>
    <tag k="architect" v="Louis Le Vau"/>
    <tag k="building" v="residential"/>
    <tag k="building:levels" v="4"/>
    <tag k="heritage" v="2"/>
    <tag k="heritage:operator" v="mhs"/>
    <tag k="heritage:ref" v="PA00086295"/>
    <tag k="heritage:website" v="https://www.pop.culture.gouv.fr/notice/merimee/PA00086295"/>
    <tag k="historic" v="manor"/>
    <tag k="name" v="Hôtel Lambert"/>
    <tag k="owner" v="Xavier Niel"/>
    <tag k="type" v="multipolygon"/>
    <tag k="wikidata" v="Q1643082"/>
    <tag k="wikipedia" v="fr:Hôtel Lambert"/>
  </relation>
  <relation id="555252" version="4" timestamp="2024-12-18T10:46:55Z" changeset="160344586" uid="4184846" user="daniel2311">
    <member type="way" ref="55407698" role="inner"/>
    <member type="way" ref="55407762" role="outer"/>
    <tag k="addr:housenumber" v="10"/>
    <tag k="addr:street" v="Rue le Regrattier"/>
    <tag k="building" v="apartments"/>
    <tag k="type" v="multipolygon"/>
  </relation>
  <relation id="555259" version="4" timestamp="2023-02-25T12:57:00Z" changeset="133003999" uid="11291363" user="u4Dy46Xe">
    <member type="way" ref="55407659" role="inner"/>
    <member type="way" ref="55407722" role="inner"/>
    <member type="way" ref="55407719" role="outer"/>
    <tag k="building" v="apartments"/>
    <tag k="building:levels" v="4"/>
    <tag k="name" v="Hôtel de Chenizot"/>
    <tag k="roof:levels" v="1"/>
    <tag k="type" v="multipolygon"/>
    <tag k="wikidata" v="Q3145799"/>
  </relation>
  <relation id="555834" version="5" timestamp="2022-07-24T14:34:41Z" changeset="124012204" uid="13081159" user="Geopod">
    <member type="way" ref="55462013" role="inner"/>
    <member type="way" ref="55462019" role="outer"/>
    <tag k="building" v="apartments"/>
    <tag k="building:levels" v="4"/>
    <tag k="heritage" v="2"/>
    <tag k="heritage:operator" v="mhs"/>
    <tag k="mhs:inscription_date" v="1988-07-04"/>
    <tag k="name" v="Hôtel de Jassaud"/>
    <tag k="ref:mhs" v="PA00086291"/>
    <tag k="source:heritage" v="Ministère de la Culture - 06/2019"/>
    <tag k="type" v="multipolygon"/>
    <tag k="wikidata" v="Q3145863"/>
    <tag k="wikipedia" v="fr:Hôtel de Jassaud"/>
  </relation>
  <relation id="555837" version="3" timestamp="2020-05-09T12:00:03Z" changeset="84935397" uid="57126" user="yxoc">
    <member type="way" ref="55462024" role="inner"/>
    <member type="way" ref="55462011" role="outer"/>
    <tag k="building" v="yes"/>
    <tag k="building:levels" v="2"/>
    <tag k="heritage" v="3"/>
    <tag k="heritage:operator" v="mhs"/>
    <tag k="mhs:inscription_date" v="1987-04-23"/>
    <tag k="name" v="Jeu de Paume"/>
    <tag k="ref:mhs" v="PA00086467"/>
    <tag k="source:heritage" v="Ministère de la Culture - 06/2019"/>
    <tag k="type" v="multipolygon"/>
    <tag k="wikidata" v="Q22921944"/>
  </relation>
  <relation id="555839" version="5" timestamp="2022-07-24T14:34:04Z" changeset="124012204" uid="13081159" user="Geopod">
    <member type="way" ref="55462000" role="inner"/>
    <member type="way" ref="55462021" role="inner"/>
    <member type="way" ref="55462030" role="outer"/>
    <tag k="building" v="apartments"/>
    <tag k="building:levels" v="4"/>
    <tag k="heritage" v="3"/>
    <tag k="heritage:operator" v="mhs"/>
    <tag k="mhs:inscription_date" v="1988-07-04"/>
    <tag k="name" v="Hôtel Le Charron"/>
    <tag k="ref:mhs" v="PA00086298"/>
    <tag k="source:heritage" v="Ministère de la Culture - 06/2019"/>
    <tag k="type" v="multipolygon"/>
    <tag k="wikidata" v="Q3145550"/>
    <tag k="wikipedia" v="fr:Hôtel Le Charron"/>
  </relation>
  <relation id="9396191" version="8" timestamp="2025-01-24T16:07:31Z" changeset="161718771" uid="425846" user="WhiskyMacK">
    <member type="way" ref="28904023" role="outer"/>
    <member type="way" ref="676767711" role="inner"/>
    <tag k="addr:street" v="Allee des Justes de France"/>
    <tag k="architect" v="Georges-Henri Pingusson"/>
    <tag k="building" v="yes"/>
    <tag k="fee" v="no"/>
    <tag k="heritage" v="2"/>
    <tag k="heritage:operator" v="mhs"/>
    <tag k="historic" v="memorial"/>
    <tag k="inscription" v="Mémorial des Martyrs de la Déportation"/>
    <tag k="layer" v="1"/>
    <tag k="material" v="concrete"/>
    <tag k="memorial" v="memorial"/>
    <tag k="mhs:inscription_date" v="2007"/>
    <tag k="name" v="Mémorial des Martyrs de la Déportation"/>
    <tag k="name:de" v="Denkmal für die Märtyrer der Deportation"/>
    <tag k="name:en" v="Memorial to the Martyrs of the Deportation"/>
    <tag k="name:fr" v="Mémorial des Martyrs de la Déportation"/>
    <tag k="name:he" v="אנדרטה לזכר חללי הגירוש"/>
    <tag k="name:yi" v="דענקמאל ט פא ר ד י מארטי ר פו ן דעפארטאציע"/>
    <tag k="name:zh" v="驱逐纪念馆"/>
    <tag k="note" v="1er octobre au 31 mars : 10:00 à 17:00&#x0a;1er avril au 30 septembre : 10:00 à 19:00&#x0a;&#x0a;1 October - 31 March: 10:00 - 17:00&#x0a;1 April - 30 September: 10:00 to 19:00&#x0a;&#x0a;1 Oktober bis 31 März: 10:00 - 17:00 Uhr&#x0a;1 April bis 30 September: 10:00 bis 19:00 Uhr"/>
    <tag k="opening_hours" v="Oct - Mar, Mar-Dim 10:00-17:00; Avr - Sep, Mar-Dim 10:00-19:00"/>
    <tag k="ref:mhs" v="PA00125453"/>
    <tag k="source:heritage" v="data.gouv.fr:Ministère de la Culture - 08/2011"/>
    <tag k="start_date" v="1962-04-12"/>
    <tag k="toilets" v="no"/>
    <tag k="tourism" v="attraction"/>
    <tag k="type" v="multipolygon"/>
    <tag k="wheelchair" v="no"/>
    <tag k="wikidata" v="Q3333162"/>
    <tag k="wikipedia" v="fr:Mémorial des Martyrs de la Déportation"/>
  </relation>

</osm>
