<?xml version="1.0" encoding="UTF-8"?>
<osm version="0.6" generator="Overpass API 0.7.62.5 1bd436f1">
<note>The data included in this document is from www.openstreetmap.org. The data is made available under ODbL.</note>
<meta osm_base="2025-03-24T16:05:43Z" areas="2025-02-06T02:17:44Z"/>

  <node id="349152191" lat="51.1530445" lon="1.3218965" version="3" timestamp="2022-01-08T17:06:03Z" changeset="115917402" uid="242345" user="confusedbuffalo">
    <tag k="addr:city" v="Dover"/>
    <tag k="addr:county" v="Kent"/>
    <tag k="addr:postcode" v="CT15 5EW"/>
    <tag k="addr:street" v="Dover Road"/>
    <tag k="addr:village" v="Guston"/>
    <tag k="amenity" v="pub"/>
    <tag k="fhrs:id" v="254785"/>
    <tag k="name" v="The Chance Inn"/>
    <tag k="source:addr" v="FHRS Open Data"/>
  </node>
  <way id="4434932" version="16" timestamp="2024-12-23T15:41:37Z" changeset="160543078" uid="7037" user="Gregory Williams">
    <nd ref="27220283"/>
    <nd ref="819908189"/>
    <nd ref="819908043"/>
    <nd ref="27220284"/>
    <nd ref="1297879177"/>
    <nd ref="27220285"/>
    <nd ref="27220286"/>
    <nd ref="9812289541"/>
    <nd ref="27220287"/>
    <nd ref="8703130068"/>
    <nd ref="27220289"/>
    <nd ref="8703130067"/>
    <nd ref="27220290"/>
    <tag k="cycleway:both" v="no"/>
    <tag k="highway" v="unclassified"/>
    <tag k="lit" v="yes"/>
    <tag k="maxspeed" v="30 mph"/>
    <tag k="name" v="Dover Road"/>
    <tag k="surface" v="asphalt"/>
  </way>
  <way id="4434933" version="10" timestamp="2024-09-04T14:13:27Z" changeset="156189382" uid="11471297" user="Palgrave Peter">
    <nd ref="27220329"/>
    <nd ref="349152196"/>
    <nd ref="27220330"/>
    <nd ref="1186007322"/>
    <nd ref="27220331"/>
    <nd ref="27220332"/>
    <nd ref="12155533809"/>
    <nd ref="27220333"/>
    <nd ref="4610597075"/>
    <nd ref="27220334"/>
    <tag k="highway" v="residential"/>
    <tag k="lit" v="yes"/>
    <tag k="maxspeed" v="30 mph"/>
    <tag k="name" v="The Street"/>
    <tag k="surface" v="asphalt"/>
  </way>
  <way id="4435228" version="11" timestamp="2024-09-04T14:13:27Z" changeset="156189382" uid="11471297" user="Palgrave Peter">
    <nd ref="27220334"/>
    <nd ref="27222253"/>
    <nd ref="349152230"/>
    <nd ref="27222254"/>
    <nd ref="1925687285"/>
    <nd ref="27222255"/>
    <nd ref="27222256"/>
    <nd ref="1925687287"/>
    <nd ref="12155533831"/>
    <nd ref="27222257"/>
    <nd ref="1925687291"/>
    <nd ref="1925687294"/>
    <nd ref="27222258"/>
    <nd ref="1925687305"/>
    <nd ref="1925687308"/>
    <nd ref="27222259"/>
    <nd ref="1925687309"/>
    <nd ref="1925687310"/>
    <nd ref="27222260"/>
    <nd ref="1925687312"/>
    <nd ref="27222261"/>
    <nd ref="27222262"/>
    <nd ref="27222263"/>
    <nd ref="27222265"/>
    <nd ref="27222266"/>
    <nd ref="27222267"/>
    <nd ref="27222268"/>
    <nd ref="27222269"/>
    <nd ref="27222270"/>
    <nd ref="351857198"/>
    <nd ref="27222271"/>
    <nd ref="27222272"/>
    <nd ref="810012105"/>
    <nd ref="349152371"/>
    <tag k="highway" v="unclassified"/>
    <tag k="lit" v="no"/>
    <tag k="maxspeed" v="60 mph"/>
    <tag k="maxspeed:type" v="GB:nsl_single"/>
    <tag k="name" v="Pineham Road"/>
    <tag k="surface" v="asphalt"/>
  </way>
  <way id="4452586" version="9" timestamp="2021-08-27T11:52:01Z" changeset="110338149" uid="242345" user="confusedbuffalo">
    <nd ref="27220325"/>
    <nd ref="349152250"/>
    <tag k="highway" v="unclassified"/>
    <tag k="lit" v="no"/>
    <tag k="maxspeed" v="60 mph"/>
    <tag k="maxspeed:type" v="GB:nsl_single"/>
    <tag k="name" v="Dover Road"/>
    <tag k="rcn_ref" v="16"/>
    <tag k="surface" v="asphalt"/>
  </way>
  <way id="4452587" version="8" timestamp="2021-08-27T11:52:01Z" changeset="110338149" uid="242345" user="confusedbuffalo">
    <nd ref="27220324"/>
    <nd ref="27220325"/>
    <tag k="bridge" v="yes"/>
    <tag k="highway" v="unclassified"/>
    <tag k="layer" v="1"/>
    <tag k="lit" v="no"/>
    <tag k="maxspeed" v="60 mph"/>
    <tag k="maxspeed:type" v="GB:nsl_single"/>
    <tag k="name" v="Dover Road"/>
    <tag k="surface" v="asphalt"/>
  </way>
  <way id="4471960" version="16" timestamp="2024-07-22T22:16:22Z" changeset="154282582" uid="5008136" user="JayTurnr">
    <nd ref="11459788628"/>
    <nd ref="1281854723"/>
    <nd ref="27413652"/>
    <nd ref="27413653"/>
    <nd ref="7425044429"/>
    <nd ref="27413654"/>
    <nd ref="12068877752"/>
    <nd ref="866615956"/>
    <nd ref="33452974"/>
    <nd ref="10124231438"/>
    <nd ref="6441316323"/>
    <nd ref="33452975"/>
    <nd ref="27413656"/>
    <tag k="cycleway:both" v="no"/>
    <tag k="highway" v="primary"/>
    <tag k="lanes" v="2"/>
    <tag k="maxspeed" v="50 mph"/>
    <tag k="maxspeed:type" v="sign"/>
    <tag k="name" v="Deal Road"/>
    <tag k="ref" v="A258"/>
    <tag k="shoulder" v="no"/>
    <tag k="surface" v="asphalt"/>
  </way>
  <way id="4471961" version="8" timestamp="2024-06-24T09:22:44Z" changeset="153102111" uid="5229644" user="Nathan_A_RF">
    <nd ref="4064777"/>
    <nd ref="866619534"/>
    <nd ref="866616667"/>
    <nd ref="27413656"/>
    <tag k="highway" v="primary"/>
    <tag k="lanes" v="1"/>
    <tag k="maxspeed" v="60 mph"/>
    <tag k="maxspeed:type" v="GB:nsl_single"/>
    <tag k="name" v="Deal Road"/>
    <tag k="oneway" v="yes"/>
    <tag k="ref" v="A258"/>
    <tag k="surface" v="asphalt"/>
  </way>
  <way id="4471962" version="9" timestamp="2024-06-24T09:22:44Z" changeset="153102111" uid="5229644" user="Nathan_A_RF">
    <nd ref="27413656"/>
    <nd ref="12006057056"/>
    <nd ref="866619000"/>
    <nd ref="4064779"/>
    <tag k="highway" v="primary"/>
    <tag k="lanes" v="2"/>
    <tag k="maxspeed" v="60 mph"/>
    <tag k="maxspeed:type" v="GB:nsl_single"/>
    <tag k="name" v="Deal Road"/>
    <tag k="oneway" v="yes"/>
    <tag k="ref" v="A258"/>
    <tag k="surface" v="asphalt"/>
  </way>
  <way id="4471964" version="16" timestamp="2024-06-24T09:22:44Z" changeset="153102111" uid="5229644" user="Nathan_A_RF">
    <nd ref="4064771"/>
    <nd ref="1826254328"/>
    <nd ref="1826254324"/>
    <nd ref="12006057054"/>
    <nd ref="1826254322"/>
    <tag k="highway" v="trunk"/>
    <tag k="lanes" v="1"/>
    <tag k="lit" v="yes"/>
    <tag k="maxspeed" v="60 mph"/>
    <tag k="maxspeed:type" v="GB:nsl_single"/>
    <tag k="name" v="Jubilee Way"/>
    <tag k="national_highways:area" v="4"/>
    <tag k="oneway" v="yes"/>
    <tag k="operator" v="National Highways"/>
    <tag k="operator:wikidata" v="Q5760006"/>
    <tag k="ref" v="A2"/>
    <tag k="source" v="GPS"/>
  </way>
  <way id="4472002" version="13" timestamp="2023-12-27T15:38:43Z" changeset="145581578" uid="5229644" user="Nathan_A_RF">
    <nd ref="11459788629"/>
    <nd ref="866619449"/>
    <nd ref="27413889"/>
    <nd ref="1925678217"/>
    <nd ref="8204960864"/>
    <nd ref="1925678218"/>
    <nd ref="27413890"/>
    <nd ref="6912123536"/>
    <nd ref="1925678219"/>
    <nd ref="27413891"/>
    <nd ref="8204960875"/>
    <nd ref="27413892"/>
    <nd ref="27413893"/>
    <nd ref="27413894"/>
    <nd ref="27413895"/>
    <nd ref="877206495"/>
    <nd ref="866915047"/>
    <nd ref="6452041679"/>
    <nd ref="866619167"/>
    <nd ref="27413896"/>
    <tag k="highway" v="unclassified"/>
    <tag k="maxspeed" v="60 mph"/>
    <tag k="maxspeed:type" v="GB:nsl_single"/>
    <tag k="name" v="The Lane"/>
  </way>
  <way id="4627875" version="20" timestamp="2023-02-07T17:04:49Z" changeset="132216255" uid="177389" user="Garmin-User">
    <nd ref="29391649"/>
    <nd ref="8475825573"/>
    <nd ref="1801818397"/>
    <nd ref="1801818395"/>
    <nd ref="29392323"/>
    <nd ref="626917215"/>
    <nd ref="8475825569"/>
    <nd ref="29392322"/>
    <nd ref="8475825574"/>
    <nd ref="29392321"/>
    <nd ref="29392320"/>
    <nd ref="29392319"/>
    <nd ref="29392318"/>
    <nd ref="29392317"/>
    <tag k="boundary" v="political"/>
    <tag k="cycleway:both" v="no"/>
    <tag k="highway" v="tertiary"/>
    <tag k="lit" v="no"/>
    <tag k="maxspeed" v="60 mph"/>
    <tag k="maxspeed:type" v="GB:nsl_single"/>
    <tag k="name" v="Upper Road"/>
    <tag k="sidewalk" v="no"/>
    <tag k="surface" v="asphalt"/>
  </way>
  <way id="9503928" version="9" timestamp="2021-08-27T11:52:01Z" changeset="110338149" uid="242345" user="confusedbuffalo">
    <nd ref="29391505"/>
    <nd ref="819907955"/>
    <nd ref="29391513"/>
    <nd ref="29391514"/>
    <nd ref="1183103317"/>
    <nd ref="819908105"/>
    <nd ref="29391515"/>
    <nd ref="819908001"/>
    <nd ref="29391516"/>
    <nd ref="29391517"/>
    <nd ref="819908178"/>
    <nd ref="819908225"/>
    <nd ref="29391518"/>
    <nd ref="819908224"/>
    <nd ref="29391519"/>
    <nd ref="29391520"/>
    <nd ref="819907954"/>
    <nd ref="29391521"/>
    <nd ref="1906475043"/>
    <nd ref="819908127"/>
    <nd ref="29391522"/>
    <nd ref="1906475045"/>
    <nd ref="1906475046"/>
    <nd ref="29391523"/>
    <tag k="cycleway:both" v="no"/>
    <tag k="highway" v="tertiary"/>
    <tag k="incline" v="up"/>
    <tag k="lanes" v="2"/>
    <tag k="maxspeed" v="60 mph"/>
    <tag k="maxspeed:type" v="GB:nsl_single"/>
    <tag k="name" v="Upper Road"/>
    <tag k="sidewalk" v="no"/>
    <tag k="surface" v="asphalt"/>
  </way>
  <way id="9503929" version="21" timestamp="2024-02-22T10:16:24Z" changeset="147766146" uid="18439230" user="NTWhiteCliffs">
    <nd ref="29391541"/>
    <nd ref="29391542"/>
    <nd ref="29391544"/>
    <nd ref="29391545"/>
    <nd ref="29391546"/>
    <nd ref="789640178"/>
    <nd ref="29391547"/>
    <nd ref="29391548"/>
    <nd ref="29391552"/>
    <nd ref="789640197"/>
    <nd ref="29391556"/>
    <nd ref="29391557"/>
    <nd ref="29391558"/>
    <nd ref="627891567"/>
    <nd ref="29391562"/>
    <nd ref="6441313968"/>
    <nd ref="29391563"/>
    <nd ref="6441313970"/>
    <nd ref="29391564"/>
    <nd ref="8390232213"/>
    <nd ref="29391565"/>
    <nd ref="7976755885"/>
    <nd ref="29391566"/>
    <nd ref="29391567"/>
    <nd ref="769220891"/>
    <nd ref="29391568"/>
    <nd ref="29391569"/>
    <nd ref="29391570"/>
    <nd ref="29391571"/>
    <nd ref="29391572"/>
    <nd ref="29391580"/>
    <nd ref="29391582"/>
    <nd ref="29391584"/>
    <nd ref="1200058037"/>
    <tag k="bicycle" v="designated"/>
    <tag k="cycleway:both" v="no"/>
    <tag k="highway" v="tertiary"/>
    <tag k="lanes" v="2"/>
    <tag k="lit" v="no"/>
    <tag k="maxspeed" v="60 mph"/>
    <tag k="maxspeed:type" v="GB:nsl_single"/>
    <tag k="motor_vehicle" v="yes"/>
    <tag k="name" v="Upper Road"/>
    <tag k="sidewalk" v="no"/>
    <tag k="surface" v="asphalt"/>
  </way>
  <way id="9504321" version="11" timestamp="2021-08-27T11:52:01Z" changeset="110338149" uid="242345" user="confusedbuffalo">
    <nd ref="29392308"/>
    <nd ref="7608246618"/>
    <nd ref="29391488"/>
    <tag k="bridge" v="yes"/>
    <tag k="cycleway:both" v="no"/>
    <tag k="highway" v="tertiary"/>
    <tag k="lanes" v="2"/>
    <tag k="layer" v="1"/>
    <tag k="lit" v="no"/>
    <tag k="maxspeed" v="60 mph"/>
    <tag k="maxspeed:type" v="GB:nsl_single"/>
    <tag k="name" v="Upper Road"/>
    <tag k="sidewalk" v="both"/>
    <tag k="surface" v="asphalt"/>
  </way>
  <way id="9504323" version="12" timestamp="2021-12-05T04:49:58Z" changeset="114571835" uid="322039" user="MacLondon">
    <nd ref="29391488"/>
    <nd ref="29391489"/>
    <nd ref="819908103"/>
    <nd ref="29391490"/>
    <nd ref="819908149"/>
    <nd ref="29391491"/>
    <nd ref="29391492"/>
    <nd ref="819908100"/>
    <nd ref="819908048"/>
    <nd ref="29391493"/>
    <nd ref="819907951"/>
    <nd ref="29391494"/>
    <nd ref="819907995"/>
    <nd ref="29391495"/>
    <nd ref="819908174"/>
    <nd ref="29391496"/>
    <nd ref="789595020"/>
    <nd ref="29391497"/>
    <nd ref="29391498"/>
    <nd ref="29391499"/>
    <nd ref="29391500"/>
    <nd ref="29391501"/>
    <nd ref="1183101614"/>
    <nd ref="29391502"/>
    <nd ref="1183104526"/>
    <nd ref="819908125"/>
    <nd ref="9311642840"/>
    <tag k="cycleway:both" v="no"/>
    <tag k="highway" v="tertiary"/>
    <tag k="incline" v="up"/>
    <tag k="lanes" v="2"/>
    <tag k="lit" v="no"/>
    <tag k="maxspeed" v="60 mph"/>
    <tag k="maxspeed:type" v="GB:nsl_single"/>
    <tag k="name" v="Upper Road"/>
    <tag k="sidewalk" v="no"/>
    <tag k="surface" v="asphalt"/>
  </way>
  <way id="25016924" version="10" timestamp="2022-10-28T19:14:06Z" changeset="128188142" uid="13666626" user="RedAuburn">
    <nd ref="271957333"/>
    <nd ref="29028226"/>
    <nd ref="29028227"/>
    <nd ref="1615500511"/>
    <nd ref="271957356"/>
    <nd ref="271957342"/>
    <tag k="highway" v="trunk_link"/>
    <tag k="lit" v="yes"/>
    <tag k="maxspeed" v="70 mph"/>
    <tag k="maxspeed:type" v="GB:nsl_dual"/>
    <tag k="national_highways:area" v="4"/>
    <tag k="oneway" v="yes"/>
    <tag k="operator" v="National Highways"/>
    <tag k="operator:wikidata" v="Q5760006"/>
    <tag k="ref" v="A256"/>
  </way>
  <way id="25016926" version="15" timestamp="2024-06-24T09:22:44Z" changeset="153102111" uid="5229644" user="Nathan_A_RF">
    <nd ref="4066011"/>
    <nd ref="12006057051"/>
    <nd ref="1615500310"/>
    <nd ref="1615500392"/>
    <nd ref="298205749"/>
    <tag k="highway" v="trunk"/>
    <tag k="lanes" v="2"/>
    <tag k="lit" v="yes"/>
    <tag k="maxspeed" v="70 mph"/>
    <tag k="maxspeed:type" v="GB:nsl_dual"/>
    <tag k="national_highways:area" v="4"/>
    <tag k="oneway" v="yes"/>
    <tag k="operator" v="National Highways"/>
    <tag k="operator:wikidata" v="Q5760006"/>
    <tag k="ref" v="A2"/>
    <tag k="surface" v="asphalt"/>
  </way>
  <way id="27178374" version="12" timestamp="2022-10-28T19:14:11Z" changeset="128188142" uid="13666626" user="RedAuburn">
    <nd ref="298205749"/>
    <nd ref="1615500462"/>
    <nd ref="1615500471"/>
    <nd ref="298205750"/>
    <nd ref="1615500476"/>
    <nd ref="1615500481"/>
    <nd ref="298205751"/>
    <nd ref="1615500483"/>
    <nd ref="298205752"/>
    <nd ref="1615500478"/>
    <nd ref="271957348"/>
    <tag k="destination" v="Ramsgate; Sandwich"/>
    <tag k="highway" v="trunk_link"/>
    <tag k="lit" v="yes"/>
    <tag k="maxspeed" v="70 mph"/>
    <tag k="maxspeed:type" v="GB:nsl_dual"/>
    <tag k="national_highways:area" v="4"/>
    <tag k="oneway" v="yes"/>
    <tag k="operator" v="National Highways"/>
    <tag k="operator:wikidata" v="Q5760006"/>
    <tag k="ref" v="A256"/>
    <tag k="source:destination" v="http://www.autobahn-bilder.de"/>
  </way>
  <way id="30671833" version="7" timestamp="2023-05-01T11:29:16Z" changeset="135569569" uid="7037" user="Gregory Williams">
    <nd ref="29391649"/>
    <nd ref="29768824"/>
    <nd ref="1801818401"/>
    <nd ref="29768825"/>
    <nd ref="1801818400"/>
    <tag k="cycleway:both" v="no"/>
    <tag k="highway" v="primary"/>
    <tag k="lanes" v="2"/>
    <tag k="lit" v="no"/>
    <tag k="maxspeed" v="30 mph"/>
    <tag k="ref" v="A258"/>
    <tag k="surface" v="asphalt"/>
  </way>
  <way id="31479671" version="3" timestamp="2012-09-21T17:39:56Z" changeset="13198629" uid="7037" user="Gregory Williams">
    <nd ref="27413903"/>
    <nd ref="351855784"/>
    <tag k="highway" v="residential"/>
    <tag k="maxspeed" v="30 mph"/>
    <tag k="name" v="Chance Meadow"/>
  </way>
  <way id="31479672" version="3" timestamp="2012-09-21T17:39:57Z" changeset="13198629" uid="7037" user="Gregory Williams">
    <nd ref="351855804"/>
    <nd ref="351855825"/>
    <nd ref="351855831"/>
    <tag k="highway" v="residential"/>
    <tag k="maxspeed" v="30 mph"/>
    <tag k="name" v="Prescott Close"/>
  </way>
  <way id="31479673" version="4" timestamp="2012-09-21T17:39:57Z" changeset="13198629" uid="7037" user="Gregory Williams">
    <nd ref="351855784"/>
    <nd ref="1801854129"/>
    <nd ref="351855837"/>
    <nd ref="351855846"/>
    <nd ref="351855853"/>
    <tag k="highway" v="residential"/>
    <tag k="maxspeed" v="30 mph"/>
    <tag k="name" v="Chance Meadow"/>
  </way>
  <way id="55385556" version="5" timestamp="2022-06-21T16:07:21Z" changeset="122675618" uid="8971394" user="vojtechzaboril">
    <nd ref="5751453623"/>
    <nd ref="9836489840"/>
    <nd ref="9836489841"/>
    <nd ref="9836489842"/>
    <nd ref="9836489843"/>
    <nd ref="9836489844"/>
    <nd ref="9836489845"/>
    <nd ref="9836489846"/>
    <nd ref="695824040"/>
    <nd ref="9836489847"/>
    <nd ref="9836489848"/>
    <nd ref="9836489849"/>
    <nd ref="9836489850"/>
    <nd ref="695824042"/>
    <nd ref="9836489851"/>
    <nd ref="9836489852"/>
    <nd ref="9836489853"/>
    <nd ref="9836489854"/>
    <nd ref="5751453623"/>
    <tag k="highway" v="residential"/>
    <tag k="maxspeed" v="30 mph"/>
    <tag k="name" v="Kohima Place"/>
  </way>
  <way id="55385557" version="7" timestamp="2023-01-23T16:58:17Z" changeset="131616242" uid="6816132" user="CjMalone">
    <nd ref="695823761"/>
    <nd ref="1801839366"/>
    <nd ref="10577024240"/>
    <nd ref="695823762"/>
    <nd ref="9836528654"/>
    <nd ref="9836489838"/>
    <nd ref="695823744"/>
    <tag k="highway" v="residential"/>
    <tag k="maxspeed" v="30 mph"/>
    <tag k="name" v="Anzio Crescent"/>
  </way>
  <way id="55385558" version="6" timestamp="2023-01-22T13:53:15Z" changeset="131567542" uid="12363857" user="ntzm">
    <nd ref="695823762"/>
    <nd ref="9836528638"/>
    <nd ref="10574342459"/>
    <nd ref="695823722"/>
    <nd ref="695823723"/>
    <tag k="highway" v="residential"/>
    <tag k="maxspeed" v="30 mph"/>
    <tag k="name" v="Cassino Square"/>
  </way>
  <way id="55385570" version="9" timestamp="2024-04-30T17:38:05Z" changeset="150719970" uid="19880472" user="aknight22">
    <nd ref="27220298"/>
    <nd ref="10574342473"/>
    <nd ref="4072304394"/>
    <nd ref="695823760"/>
    <nd ref="9836489837"/>
    <nd ref="1801839369"/>
    <nd ref="695823761"/>
    <nd ref="9836489836"/>
    <nd ref="1801839374"/>
    <nd ref="10577050241"/>
    <nd ref="695823792"/>
    <nd ref="695823840"/>
    <nd ref="1801839387"/>
    <nd ref="695823841"/>
    <nd ref="1801839392"/>
    <nd ref="695823842"/>
    <nd ref="695823860"/>
    <nd ref="8096910276"/>
    <tag k="highway" v="residential"/>
    <tag k="maxspeed" v="30 mph"/>
    <tag k="name" v="Burgoyne Heights"/>
  </way>
  <way id="55385571" version="6" timestamp="2022-06-21T16:07:21Z" changeset="122675618" uid="8971394" user="vojtechzaboril">
    <nd ref="5751454230"/>
    <nd ref="9836528655"/>
    <nd ref="9836528656"/>
    <nd ref="9836528657"/>
    <nd ref="9836528658"/>
    <nd ref="9836528659"/>
    <nd ref="695823744"/>
    <nd ref="9836528660"/>
    <nd ref="9836528661"/>
    <nd ref="9836528662"/>
    <nd ref="9836528663"/>
    <nd ref="9836528664"/>
    <nd ref="695823740"/>
    <nd ref="9836528665"/>
    <nd ref="9836528666"/>
    <nd ref="9836528667"/>
    <nd ref="9836528668"/>
    <nd ref="9836528669"/>
    <nd ref="5751454230"/>
    <tag k="highway" v="residential"/>
    <tag k="maxspeed" v="30 mph"/>
    <tag k="name" v="Anzio Crescent"/>
  </way>
  <way id="55385572" version="6" timestamp="2022-06-21T16:07:21Z" changeset="122675618" uid="8971394" user="vojtechzaboril">
    <nd ref="5751453720"/>
    <nd ref="9836528639"/>
    <nd ref="9836528640"/>
    <nd ref="9836528641"/>
    <nd ref="9836528642"/>
    <nd ref="9836528643"/>
    <nd ref="695823723"/>
    <nd ref="9836528644"/>
    <nd ref="9836528645"/>
    <nd ref="9836528646"/>
    <nd ref="9836528647"/>
    <nd ref="9836528648"/>
    <nd ref="9836528649"/>
    <nd ref="695823726"/>
    <nd ref="9836528650"/>
    <nd ref="9836528651"/>
    <nd ref="9836528652"/>
    <nd ref="9836528653"/>
    <nd ref="5751453720"/>
    <tag k="highway" v="residential"/>
    <tag k="maxspeed" v="30 mph"/>
    <tag k="name" v="Cassino Square"/>
  </way>
  <way id="55385578" version="4" timestamp="2022-06-21T16:07:21Z" changeset="122675618" uid="8971394" user="vojtechzaboril">
    <nd ref="695823860"/>
    <nd ref="695823921"/>
    <nd ref="9836489870"/>
    <nd ref="9836489871"/>
    <nd ref="695823922"/>
    <tag k="highway" v="residential"/>
    <tag k="maxspeed" v="30 mph"/>
    <tag k="name" v="Dunkirk Square"/>
  </way>
  <way id="55385579" version="5" timestamp="2023-01-23T16:58:17Z" changeset="131616242" uid="6816132" user="CjMalone">
    <nd ref="695823841"/>
    <nd ref="9836489887"/>
    <nd ref="695823876"/>
    <nd ref="10577024200"/>
    <nd ref="10577024199"/>
    <nd ref="9836489906"/>
    <nd ref="9836489888"/>
    <nd ref="695823881"/>
    <tag k="highway" v="residential"/>
    <tag k="maxspeed" v="30 mph"/>
    <tag k="name" v="Tangier Close"/>
  </way>
  <way id="55385580" version="5" timestamp="2022-06-21T16:07:21Z" changeset="122675618" uid="8971394" user="vojtechzaboril">
    <nd ref="5751453699"/>
    <nd ref="9836528621"/>
    <nd ref="9836528620"/>
    <nd ref="9836528619"/>
    <nd ref="9836528618"/>
    <nd ref="695823881"/>
    <nd ref="9836528617"/>
    <nd ref="9836489916"/>
    <nd ref="9836489915"/>
    <nd ref="9836489914"/>
    <nd ref="9836489913"/>
    <nd ref="9836489912"/>
    <nd ref="5751453698"/>
    <nd ref="9836489911"/>
    <nd ref="9836489910"/>
    <nd ref="9836489909"/>
    <nd ref="9836489908"/>
    <nd ref="9836489907"/>
    <nd ref="5751453699"/>
    <tag k="highway" v="residential"/>
    <tag k="maxspeed" v="30 mph"/>
    <tag k="name" v="Tangier Close"/>
  </way>
  <way id="55385591" version="4" timestamp="2022-06-21T16:07:21Z" changeset="122675618" uid="8971394" user="vojtechzaboril">
    <nd ref="695823792"/>
    <nd ref="695823793"/>
    <nd ref="9836528622"/>
    <nd ref="695823802"/>
    <tag k="highway" v="residential"/>
    <tag k="maxspeed" v="30 mph"/>
    <tag k="name" v="Corunna Place"/>
  </way>
  <way id="55385593" version="5" timestamp="2022-06-21T16:07:21Z" changeset="122675618" uid="8971394" user="vojtechzaboril">
    <nd ref="695823794"/>
    <nd ref="9836528623"/>
    <nd ref="9836528624"/>
    <nd ref="9836528625"/>
    <nd ref="9836528626"/>
    <nd ref="9836528627"/>
    <nd ref="9836528628"/>
    <nd ref="5751453710"/>
    <nd ref="9836528629"/>
    <nd ref="9836528630"/>
    <nd ref="9836528631"/>
    <nd ref="9836528632"/>
    <nd ref="9836528633"/>
    <nd ref="695823802"/>
    <nd ref="9836528634"/>
    <nd ref="9836528635"/>
    <nd ref="9836528636"/>
    <nd ref="9836528637"/>
    <nd ref="695823794"/>
    <tag k="highway" v="residential"/>
    <tag k="maxspeed" v="30 mph"/>
    <tag k="name" v="Corunna Place"/>
  </way>
  <way id="55385605" version="5" timestamp="2022-06-21T16:07:21Z" changeset="122675618" uid="8971394" user="vojtechzaboril">
    <nd ref="695823922"/>
    <nd ref="9836489872"/>
    <nd ref="9836489873"/>
    <nd ref="9836489874"/>
    <nd ref="695823924"/>
    <nd ref="9836489875"/>
    <nd ref="9836489876"/>
    <nd ref="9836489877"/>
    <nd ref="5751453658"/>
    <nd ref="9836489878"/>
    <nd ref="9836489879"/>
    <nd ref="9836489880"/>
    <nd ref="9836489881"/>
    <nd ref="9836489882"/>
    <nd ref="9836489883"/>
    <nd ref="9836489884"/>
    <nd ref="9836489885"/>
    <nd ref="9836489886"/>
    <nd ref="695823922"/>
    <tag k="highway" v="residential"/>
    <tag k="maxspeed" v="30 mph"/>
    <tag k="name" v="Dunkirk Square"/>
  </way>
  <way id="55385606" version="5" timestamp="2022-06-21T16:07:21Z" changeset="122675618" uid="8971394" user="vojtechzaboril">
    <nd ref="695823876"/>
    <nd ref="9836489890"/>
    <nd ref="9836489889"/>
    <nd ref="695823899"/>
    <tag k="highway" v="residential"/>
    <tag k="maxspeed" v="30 mph"/>
    <tag k="name" v="Gibraltar Square"/>
  </way>
  <way id="55385607" version="6" timestamp="2022-06-21T16:07:21Z" changeset="122675618" uid="8971394" user="vojtechzaboril">
    <nd ref="695823899"/>
    <nd ref="9836489891"/>
    <nd ref="9836489892"/>
    <nd ref="9836489893"/>
    <nd ref="9836489894"/>
    <nd ref="9836489895"/>
    <nd ref="9836489896"/>
    <nd ref="5751453683"/>
    <nd ref="9836489897"/>
    <nd ref="9836489898"/>
    <nd ref="9836489899"/>
    <nd ref="9836489900"/>
    <nd ref="695823890"/>
    <nd ref="9836489901"/>
    <nd ref="9836489902"/>
    <nd ref="9836489903"/>
    <nd ref="9836489904"/>
    <nd ref="9836489905"/>
    <nd ref="695823899"/>
    <tag k="highway" v="residential"/>
    <tag k="maxspeed" v="30 mph"/>
    <tag k="name" v="Gibraltar Square"/>
  </way>
  <way id="55385622" version="4" timestamp="2023-01-23T16:58:17Z" changeset="131616242" uid="6816132" user="CjMalone">
    <nd ref="695823992"/>
    <nd ref="10577024226"/>
    <nd ref="695824051"/>
    <tag k="highway" v="residential"/>
    <tag k="maxspeed" v="30 mph"/>
    <tag k="name" v="Namur Place"/>
  </way>
  <way id="55385626" version="4" timestamp="2022-06-21T16:07:21Z" changeset="122675618" uid="8971394" user="vojtechzaboril">
    <nd ref="695823992"/>
    <nd ref="9836489839"/>
    <nd ref="695824040"/>
    <tag k="highway" v="residential"/>
    <tag k="maxspeed" v="30 mph"/>
    <tag k="name" v="Kohima Place"/>
  </way>
  <way id="55385627" version="4" timestamp="2016-04-03T17:18:57Z" changeset="38271396" uid="42123" user="Ropino">
    <nd ref="695824002"/>
    <nd ref="695823986"/>
    <tag k="highway" v="residential"/>
    <tag k="maxspeed" v="30 mph"/>
    <tag k="name" v="Alamein Close"/>
  </way>
  <way id="55385628" version="6" timestamp="2022-06-21T16:07:21Z" changeset="122675618" uid="8971394" user="vojtechzaboril">
    <nd ref="5751453642"/>
    <nd ref="9836528692"/>
    <nd ref="9836528693"/>
    <nd ref="9836528694"/>
    <nd ref="9836528695"/>
    <nd ref="9836528696"/>
    <nd ref="9836528697"/>
    <nd ref="9836528698"/>
    <nd ref="695823986"/>
    <nd ref="9836528699"/>
    <nd ref="9836528700"/>
    <nd ref="9836528701"/>
    <nd ref="695823979"/>
    <nd ref="9836528702"/>
    <nd ref="9836528703"/>
    <nd ref="9836528704"/>
    <nd ref="9836528705"/>
    <nd ref="9836528706"/>
    <nd ref="5751453642"/>
    <tag k="highway" v="residential"/>
    <tag k="maxspeed" v="30 mph"/>
    <tag k="name" v="Alamein Close"/>
  </way>
  <way id="55385632" version="5" timestamp="2022-06-21T16:07:21Z" changeset="122675618" uid="8971394" user="vojtechzaboril">
    <nd ref="695824019"/>
    <nd ref="9836528676"/>
    <nd ref="9836528677"/>
    <nd ref="9836528678"/>
    <nd ref="5751453650"/>
    <nd ref="9836528679"/>
    <nd ref="9836528680"/>
    <nd ref="9836528681"/>
    <nd ref="9836528682"/>
    <nd ref="9836528683"/>
    <nd ref="9836528684"/>
    <nd ref="5751453651"/>
    <nd ref="9836528685"/>
    <nd ref="9836528686"/>
    <nd ref="9836528687"/>
    <nd ref="9836528688"/>
    <nd ref="9836528689"/>
    <nd ref="9836528690"/>
    <nd ref="695824019"/>
    <tag k="highway" v="residential"/>
    <tag k="maxspeed" v="30 mph"/>
    <tag k="name" v="Lucknow Close"/>
  </way>
  <way id="55385633" version="4" timestamp="2022-06-21T16:07:21Z" changeset="122675618" uid="8971394" user="vojtechzaboril">
    <nd ref="695824008"/>
    <nd ref="695824020"/>
    <nd ref="9836528670"/>
    <nd ref="9836528671"/>
    <nd ref="695824019"/>
    <tag k="highway" v="residential"/>
    <tag k="maxspeed" v="30 mph"/>
    <tag k="name" v="Lucknow Close"/>
  </way>
  <way id="55385637" version="5" timestamp="2022-06-21T16:07:21Z" changeset="122675618" uid="8971394" user="vojtechzaboril">
    <nd ref="695824051"/>
    <nd ref="9836489855"/>
    <nd ref="9836489856"/>
    <nd ref="9836489857"/>
    <nd ref="9836489858"/>
    <nd ref="9836489859"/>
    <nd ref="695824055"/>
    <nd ref="9836489860"/>
    <nd ref="9836489861"/>
    <nd ref="9836489862"/>
    <nd ref="9836489863"/>
    <nd ref="9836489864"/>
    <nd ref="9836489865"/>
    <nd ref="695824048"/>
    <nd ref="9836489866"/>
    <nd ref="9836489867"/>
    <nd ref="9836489868"/>
    <nd ref="9836489869"/>
    <nd ref="695824051"/>
    <tag k="highway" v="residential"/>
    <tag k="maxspeed" v="30 mph"/>
    <tag k="name" v="Namur Place"/>
  </way>
  <way id="55385670" version="5" timestamp="2024-05-16T11:07:16Z" changeset="151402402" uid="21425661" user="CjMalone">
    <nd ref="695824335"/>
    <nd ref="695824341"/>
    <nd ref="695824339"/>
    <nd ref="695824337"/>
    <nd ref="695824335"/>
    <tag k="addr:city" v="Guston Wood, Dover"/>
    <tag k="addr:housename" v="Premier Inn Dover East"/>
    <tag k="addr:postcode" v="CT15 5FD"/>
    <tag k="addr:street" v="Jubilee Way"/>
    <tag k="brand" v="Premier Inn"/>
    <tag k="brand:wikidata" v="Q2108626"/>
    <tag k="building" v="yes"/>
    <tag k="internet_access" v="wlan"/>
    <tag k="internet_access:fee" v="customers"/>
    <tag k="internet_access:operator" v="Virgin Media"/>
    <tag k="internet_access:ssid" v="Premier Inn Free Wi-Fi"/>
    <tag k="name" v="Premier Inn"/>
    <tag k="tourism" v="hotel"/>
    <tag k="website" v="https://www.premierinn.com/gb/en/hotels/england/kent/dover/dover-east.html"/>
  </way>
  <way id="73018398" version="6" timestamp="2024-09-04T14:13:27Z" changeset="156189382" uid="11471297" user="Palgrave Peter">
    <nd ref="866618859"/>
    <nd ref="27413897"/>
    <nd ref="27413898"/>
    <nd ref="12155533949"/>
    <nd ref="1925678220"/>
    <tag k="highway" v="unclassified"/>
    <tag k="maxspeed" v="60 mph"/>
    <tag k="maxspeed:type" v="GB:nsl_single"/>
    <tag k="name" v="The Lane"/>
  </way>
  <way id="73018525" version="18" timestamp="2024-06-24T09:22:44Z" changeset="153102111" uid="5229644" user="Nathan_A_RF">
    <nd ref="866620012"/>
    <nd ref="4066012"/>
    <nd ref="4657068816"/>
    <nd ref="1945626940"/>
    <nd ref="1615500167"/>
    <nd ref="1615500168"/>
    <nd ref="1945626936"/>
    <nd ref="1945626901"/>
    <nd ref="1615500170"/>
    <nd ref="1615500171"/>
    <nd ref="1615500173"/>
    <nd ref="12006057053"/>
    <nd ref="4066011"/>
    <tag k="cycleway" v="no"/>
    <tag k="highway" v="trunk"/>
    <tag k="lanes" v="2"/>
    <tag k="lit" v="yes"/>
    <tag k="maxheight" v="default"/>
    <tag k="maxspeed" v="60 mph"/>
    <tag k="maxspeed:type" v="GB:nsl_single"/>
    <tag k="national_highways:area" v="4"/>
    <tag k="operator" v="National Highways"/>
    <tag k="operator:wikidata" v="Q5760006"/>
    <tag k="ref" v="A2"/>
    <tag k="surface" v="asphalt"/>
  </way>
  <way id="73018533" version="4" timestamp="2021-08-27T11:52:01Z" changeset="110338149" uid="242345" user="confusedbuffalo">
    <nd ref="27413896"/>
    <nd ref="866618859"/>
    <tag k="bridge" v="yes"/>
    <tag k="highway" v="unclassified"/>
    <tag k="layer" v="1"/>
    <tag k="maxspeed" v="60 mph"/>
    <tag k="maxspeed:type" v="GB:nsl_single"/>
    <tag k="name" v="The Lane"/>
  </way>
  <way id="73018546" version="14" timestamp="2024-07-31T11:40:52Z" changeset="154645067" uid="5008136" user="JayTurnr">
    <nd ref="442552852"/>
    <nd ref="866618516"/>
    <nd ref="866619114"/>
    <nd ref="1281854804"/>
    <nd ref="695824384"/>
    <nd ref="1281854750"/>
    <nd ref="12085007371"/>
    <nd ref="1281854736"/>
    <nd ref="1281854803"/>
    <nd ref="866620012"/>
    <tag k="cycleway" v="no"/>
    <tag k="highway" v="trunk"/>
    <tag k="lanes" v="2"/>
    <tag k="lit" v="yes"/>
    <tag k="maxspeed" v="70 mph"/>
    <tag k="maxspeed:type" v="GB:nsl_dual"/>
    <tag k="national_highways:area" v="4"/>
    <tag k="oneway" v="yes"/>
    <tag k="operator" v="National Highways"/>
    <tag k="operator:wikidata" v="Q5760006"/>
    <tag k="ref" v="A2"/>
    <tag k="surface" v="asphalt"/>
  </way>
  <way id="73018548" version="13" timestamp="2023-07-17T16:16:00Z" changeset="138629413" uid="6397757" user="TomJeffs">
    <nd ref="866620012"/>
    <nd ref="1281854768"/>
    <nd ref="1281854757"/>
    <nd ref="1281854728"/>
    <nd ref="866616285"/>
    <nd ref="866618542"/>
    <nd ref="4064774"/>
    <tag k="cycleway" v="no"/>
    <tag k="highway" v="trunk"/>
    <tag k="lanes" v="2"/>
    <tag k="lit" v="yes"/>
    <tag k="maxspeed" v="70 mph"/>
    <tag k="maxspeed:type" v="GB:nsl_dual"/>
    <tag k="national_highways:area" v="4"/>
    <tag k="oneway" v="yes"/>
    <tag k="operator" v="National Highways"/>
    <tag k="operator:wikidata" v="Q5760006"/>
    <tag k="ref" v="A2"/>
    <tag k="surface" v="asphalt"/>
  </way>
  <way id="74159912" version="2" timestamp="2024-09-18T16:06:02Z" changeset="156781244" uid="11471297" user="Palgrave Peter">
    <nd ref="877220267"/>
    <nd ref="877220274"/>
    <nd ref="877220289"/>
    <nd ref="27220321"/>
    <tag k="highway" v="residential"/>
    <tag k="name" v="St Martin's Road"/>
    <tag k="surface" v="gravel"/>
  </way>
  <way id="91937162" version="8" timestamp="2024-09-18T16:06:02Z" changeset="156781244" uid="11471297" user="Palgrave Peter">
    <nd ref="349152250"/>
    <nd ref="27220326"/>
    <nd ref="877206468"/>
    <nd ref="12184407737"/>
    <nd ref="27220327"/>
    <nd ref="1801854126"/>
    <tag k="highway" v="unclassified"/>
    <tag k="lit" v="no"/>
    <tag k="maxspeed" v="60 mph"/>
    <tag k="maxspeed:type" v="GB:nsl_single"/>
    <tag k="name" v="Dover Road"/>
    <tag k="surface" v="asphalt"/>
  </way>
  <way id="96788878" version="4" timestamp="2024-09-18T12:34:02Z" changeset="156771267" uid="11471297" user="Palgrave Peter">
    <nd ref="1121292779"/>
    <nd ref="1121292783"/>
    <nd ref="8703147733"/>
    <nd ref="8703147735"/>
    <nd ref="8703147734"/>
    <nd ref="1121292776"/>
    <tag k="highway" v="unclassified"/>
    <tag k="name" v="Fort Burgoyne Road"/>
    <tag k="source:name" v="OS_OpenData_Locator"/>
  </way>
  <way id="96788880" version="1" timestamp="2011-01-26T08:41:52Z" changeset="7091251" uid="7037" user="Gregory Williams">
    <nd ref="27220286"/>
    <nd ref="1121292779"/>
    <tag k="highway" v="unclassified"/>
    <tag k="name" v="Fort Burgoyne Road"/>
    <tag k="source:name" v="OS_OpenData_Locator"/>
  </way>
  <way id="102690058" version="10" timestamp="2024-09-04T14:13:27Z" changeset="156189382" uid="11471297" user="Palgrave Peter">
    <nd ref="866615988"/>
    <nd ref="260030341"/>
    <nd ref="866617467"/>
    <nd ref="260030342"/>
    <nd ref="12155533943"/>
    <nd ref="260030343"/>
    <nd ref="260030344"/>
    <nd ref="260030345"/>
    <nd ref="260030346"/>
    <nd ref="260030348"/>
    <nd ref="260030349"/>
    <nd ref="8205749062"/>
    <nd ref="8595474621"/>
    <nd ref="260030351"/>
    <nd ref="8595474618"/>
    <nd ref="260030352"/>
    <nd ref="4611566175"/>
    <nd ref="8205749078"/>
    <nd ref="12155533894"/>
    <nd ref="27220334"/>
    <tag k="highway" v="unclassified"/>
    <tag k="maxspeed" v="60 mph"/>
    <tag k="maxspeed:type" v="GB:nsl_single"/>
    <tag k="name" v="East Langdon Road"/>
  </way>
  <way id="102690060" version="4" timestamp="2024-09-04T14:13:27Z" changeset="156189382" uid="11471297" user="Palgrave Peter">
    <nd ref="351855784"/>
    <nd ref="12155533868"/>
    <nd ref="351855793"/>
    <nd ref="351855804"/>
    <nd ref="351855807"/>
    <nd ref="351855812"/>
    <nd ref="1801854127"/>
    <nd ref="351855818"/>
    <tag k="highway" v="residential"/>
    <tag k="maxspeed" v="30 mph"/>
    <tag k="name" v="Prescott Close"/>
  </way>
  <way id="102690061" version="2" timestamp="2012-09-21T17:48:37Z" changeset="13198721" uid="7037" user="Gregory Williams">
    <nd ref="1186007321"/>
    <nd ref="1186007318"/>
    <nd ref="1186007320"/>
    <tag k="highway" v="residential"/>
    <tag k="maxspeed" v="30 mph"/>
    <tag k="name" v="Barntye Close"/>
  </way>
  <way id="102690062" version="2" timestamp="2012-09-21T17:48:37Z" changeset="13198721" uid="7037" user="Gregory Williams">
    <nd ref="1186007318"/>
    <nd ref="1186007322"/>
    <tag k="highway" v="residential"/>
    <tag k="maxspeed" v="30 mph"/>
    <tag k="name" v="Barntye Close"/>
  </way>
  <way id="114618428" version="10" timestamp="2021-08-27T11:52:01Z" changeset="110338149" uid="242345" user="confusedbuffalo">
    <nd ref="29392317"/>
    <nd ref="7608246622"/>
    <nd ref="29392315"/>
    <nd ref="3052378162"/>
    <nd ref="3052378163"/>
    <nd ref="29392314"/>
    <nd ref="789595127"/>
    <nd ref="626917250"/>
    <nd ref="29392313"/>
    <nd ref="29392312"/>
    <nd ref="3052378164"/>
    <nd ref="29392311"/>
    <nd ref="819908051"/>
    <nd ref="29392310"/>
    <nd ref="819907999"/>
    <nd ref="29392309"/>
    <nd ref="1200057975"/>
    <nd ref="29392308"/>
    <tag k="cycleway:both" v="no"/>
    <tag k="highway" v="tertiary"/>
    <tag k="lanes" v="2"/>
    <tag k="lit" v="no"/>
    <tag k="maxspeed" v="60 mph"/>
    <tag k="maxspeed:type" v="GB:nsl_single"/>
    <tag k="name" v="Upper Road"/>
    <tag k="sidewalk" v="no"/>
    <tag k="surface" v="asphalt"/>
  </way>
  <way id="114618482" version="4" timestamp="2024-09-18T12:34:02Z" changeset="156771267" uid="11471297" user="Palgrave Peter">
    <nd ref="697159093"/>
    <nd ref="12184004342"/>
    <nd ref="12184004457"/>
    <nd ref="243502135"/>
    <nd ref="243502136"/>
    <tag k="highway" v="unclassified"/>
    <tag k="lit" v="no"/>
    <tag k="maxspeed" v="30 mph"/>
    <tag k="name" v="Old Charlton Road"/>
    <tag k="surface" v="asphalt"/>
  </way>
  <way id="148449314" version="14" timestamp="2024-04-22T08:21:54Z" changeset="150333715" uid="25867" user="adamos">
    <nd ref="442552852"/>
    <nd ref="1615500139"/>
    <nd ref="1615500143"/>
    <nd ref="4064774"/>
    <tag k="highway" v="trunk"/>
    <tag k="junction" v="roundabout"/>
    <tag k="lane_markings" v="no"/>
    <tag k="lit" v="yes"/>
    <tag k="maxspeed" v="60 mph"/>
    <tag k="maxspeed:type" v="GB:nsl_single"/>
    <tag k="national_highways:area" v="4"/>
    <tag k="operator" v="National Highways"/>
    <tag k="operator:wikidata" v="Q5760006"/>
    <tag k="surface" v="asphalt"/>
  </way>
  <way id="148449318" version="11" timestamp="2022-10-28T19:15:02Z" changeset="128188196" uid="13666626" user="RedAuburn">
    <nd ref="298205749"/>
    <nd ref="1615500461"/>
    <nd ref="1615500477"/>
    <nd ref="1615500490"/>
    <tag k="bicycle" v="yes"/>
    <tag k="highway" v="trunk"/>
    <tag k="lanes" v="2"/>
    <tag k="lit" v="yes"/>
    <tag k="maxspeed" v="70 mph"/>
    <tag k="maxspeed:type" v="GB:nsl_dual"/>
    <tag k="national_highways:area" v="4"/>
    <tag k="oneway" v="yes"/>
    <tag k="operator" v="National Highways"/>
    <tag k="operator:wikidata" v="Q5760006"/>
    <tag k="ref" v="A2"/>
    <tag k="surface" v="asphalt"/>
  </way>
  <way id="148449320" version="11" timestamp="2022-10-28T19:15:02Z" changeset="128188196" uid="13666626" user="RedAuburn">
    <nd ref="1615500504"/>
    <nd ref="1615500499"/>
    <nd ref="1615500492"/>
    <nd ref="271957342"/>
    <tag k="bicycle" v="yes"/>
    <tag k="highway" v="trunk"/>
    <tag k="lanes" v="2"/>
    <tag k="lit" v="yes"/>
    <tag k="maxspeed" v="70 mph"/>
    <tag k="maxspeed:type" v="GB:nsl_dual"/>
    <tag k="national_highways:area" v="4"/>
    <tag k="oneway" v="yes"/>
    <tag k="operator" v="National Highways"/>
    <tag k="operator:wikidata" v="Q5760006"/>
    <tag k="ref" v="A2"/>
    <tag k="surface" v="asphalt"/>
  </way>
  <way id="148449321" version="11" timestamp="2024-06-24T09:22:44Z" changeset="153102111" uid="5229644" user="Nathan_A_RF">
    <nd ref="271957342"/>
    <nd ref="1615500448"/>
    <nd ref="1615500426"/>
    <nd ref="1615500378"/>
    <nd ref="271957343"/>
    <nd ref="12006057052"/>
    <nd ref="4066011"/>
    <tag k="highway" v="trunk"/>
    <tag k="lanes" v="2"/>
    <tag k="lit" v="yes"/>
    <tag k="maxspeed" v="70 mph"/>
    <tag k="maxspeed:type" v="GB:nsl_dual"/>
    <tag k="national_highways:area" v="4"/>
    <tag k="oneway" v="yes"/>
    <tag k="operator" v="National Highways"/>
    <tag k="operator:wikidata" v="Q5760006"/>
    <tag k="ref" v="A2"/>
    <tag k="surface" v="asphalt"/>
  </way>
  <way id="148449324" version="8" timestamp="2023-05-01T09:45:39Z" changeset="135565236" uid="7037" user="Gregory Williams">
    <nd ref="1615500120"/>
    <nd ref="1615500119"/>
    <nd ref="1615500118"/>
    <nd ref="29391598"/>
    <tag k="highway" v="primary"/>
    <tag k="lane_markings" v="no"/>
    <tag k="maxspeed" v="60 mph"/>
    <tag k="maxspeed:type" v="GB:nsl_single"/>
    <tag k="oneway" v="yes"/>
    <tag k="ref" v="A258"/>
    <tag k="surface" v="asphalt"/>
  </way>
  <way id="169008591" version="13" timestamp="2024-05-30T14:10:32Z" changeset="152038097" uid="8558206" user="UtterClutter">
    <nd ref="27220298"/>
    <nd ref="1801839093"/>
    <nd ref="8508192565"/>
    <nd ref="27220299"/>
    <nd ref="1801839095"/>
    <nd ref="27220300"/>
    <nd ref="27220301"/>
    <nd ref="27220302"/>
    <nd ref="11945136116"/>
    <nd ref="27220303"/>
    <nd ref="27220304"/>
    <nd ref="243502171"/>
    <tag k="highway" v="unclassified"/>
    <tag k="lit" v="no"/>
    <tag k="maxspeed" v="60 mph"/>
    <tag k="maxspeed:type" v="GB:nsl_single"/>
    <tag k="name" v="Dover Road"/>
    <tag k="surface" v="asphalt"/>
  </way>
  <way id="169009937" version="7" timestamp="2021-08-27T11:52:01Z" changeset="110338149" uid="242345" user="confusedbuffalo">
    <nd ref="877220220"/>
    <nd ref="27220322"/>
    <nd ref="8226335996"/>
    <nd ref="27220323"/>
    <nd ref="8226335982"/>
    <nd ref="3528349994"/>
    <nd ref="27220324"/>
    <tag k="highway" v="unclassified"/>
    <tag k="lit" v="no"/>
    <tag k="maxspeed" v="60 mph"/>
    <tag k="maxspeed:type" v="GB:nsl_single"/>
    <tag k="name" v="Dover Road"/>
    <tag k="surface" v="asphalt"/>
  </way>
  <way id="169009938" version="6" timestamp="2021-08-27T11:52:01Z" changeset="110338149" uid="242345" user="confusedbuffalo">
    <nd ref="243502171"/>
    <nd ref="27220307"/>
    <nd ref="8710137356"/>
    <nd ref="27220309"/>
    <nd ref="8710137355"/>
    <nd ref="27220310"/>
    <nd ref="1801849786"/>
    <tag k="highway" v="unclassified"/>
    <tag k="lit" v="yes"/>
    <tag k="maxspeed" v="60 mph"/>
    <tag k="maxspeed:type" v="GB:nsl_single"/>
    <tag k="name" v="Dover Road"/>
    <tag k="surface" v="asphalt"/>
  </way>
  <way id="169009939" version="8" timestamp="2024-09-18T16:06:02Z" changeset="156781244" uid="11471297" user="Palgrave Peter">
    <nd ref="12184406069"/>
    <nd ref="27220318"/>
    <nd ref="6451968511"/>
    <nd ref="877220269"/>
    <nd ref="27220320"/>
    <nd ref="27220321"/>
    <nd ref="6568286463"/>
    <nd ref="877220220"/>
    <tag k="highway" v="unclassified"/>
    <tag k="lit" v="yes"/>
    <tag k="maxspeed" v="60 mph"/>
    <tag k="maxspeed:type" v="GB:nsl_single"/>
    <tag k="name" v="Dover Road"/>
    <tag k="surface" v="asphalt"/>
  </way>
  <way id="169009940" version="10" timestamp="2024-12-12T16:52:46Z" changeset="160215895" uid="7037" user="Gregory Williams">
    <nd ref="1801849786"/>
    <nd ref="12078087305"/>
    <nd ref="27220312"/>
    <nd ref="27220314"/>
    <nd ref="8712189347"/>
    <nd ref="695824099"/>
    <nd ref="12184406070"/>
    <nd ref="27220316"/>
    <nd ref="12416560202"/>
    <nd ref="12184406069"/>
    <tag k="highway" v="unclassified"/>
    <tag k="lit" v="no"/>
    <tag k="maxspeed" v="60 mph"/>
    <tag k="maxspeed:type" v="GB:nsl_single"/>
    <tag k="name" v="Dover Road"/>
    <tag k="surface" v="asphalt"/>
  </way>
  <way id="169010368" version="5" timestamp="2024-09-04T14:13:27Z" changeset="156189382" uid="11471297" user="Palgrave Peter">
    <nd ref="1801854126"/>
    <nd ref="12155533840"/>
    <nd ref="12155533839"/>
    <nd ref="27220328"/>
    <nd ref="349152215"/>
    <nd ref="27220329"/>
    <tag k="highway" v="unclassified"/>
    <tag k="lit" v="yes"/>
    <tag k="maxspeed" v="30 mph"/>
    <tag k="name" v="Dover Road"/>
    <tag k="surface" v="asphalt"/>
  </way>
  <way id="171620358" version="12" timestamp="2022-10-28T19:15:06Z" changeset="128188196" uid="13666626" user="RedAuburn">
    <nd ref="4335923419"/>
    <nd ref="4064750"/>
    <nd ref="1290252322"/>
    <nd ref="1559907547"/>
    <nd ref="1826254246"/>
    <nd ref="1826254250"/>
    <nd ref="1290252323"/>
    <nd ref="1826254257"/>
    <nd ref="4064753"/>
    <nd ref="6533954114"/>
    <nd ref="1290252298"/>
    <nd ref="1826254273"/>
    <tag k="highway" v="trunk"/>
    <tag k="incline" v="up"/>
    <tag k="lanes" v="2"/>
    <tag k="lit" v="yes"/>
    <tag k="maxspeed" v="70 mph"/>
    <tag k="maxspeed:type" v="GB:nsl_dual"/>
    <tag k="name" v="Jubilee Way"/>
    <tag k="national_highways:area" v="4"/>
    <tag k="oneway" v="yes"/>
    <tag k="operator" v="National Highways"/>
    <tag k="operator:wikidata" v="Q5760006"/>
    <tag k="ref" v="A2"/>
    <tag k="source" v="GPS"/>
  </way>
  <way id="171620359" version="15" timestamp="2023-12-25T14:28:47Z" changeset="145499803" uid="5229644" user="Nathan_A_RF">
    <nd ref="1826254292"/>
    <nd ref="1826254289"/>
    <nd ref="1826254287"/>
    <nd ref="1826254286"/>
    <nd ref="1826254285"/>
    <nd ref="1826254282"/>
    <nd ref="1826254281"/>
    <nd ref="1826254278"/>
    <tag k="highway" v="trunk"/>
    <tag k="incline" v="down"/>
    <tag k="lanes" v="3"/>
    <tag k="lanes:backward" v="2"/>
    <tag k="lanes:forward" v="1"/>
    <tag k="lit" v="yes"/>
    <tag k="maxspeed" v="60 mph"/>
    <tag k="maxspeed:type" v="GB:nsl_single"/>
    <tag k="name" v="Jubilee Way"/>
    <tag k="national_highways:area" v="4"/>
    <tag k="oneway" v="no"/>
    <tag k="operator" v="National Highways"/>
    <tag k="operator:wikidata" v="Q5760006"/>
    <tag k="ref" v="A2"/>
    <tag k="source" v="GPS"/>
  </way>
  <way id="171620360" version="10" timestamp="2023-05-01T09:46:19Z" changeset="135565236" uid="7037" user="Gregory Williams">
    <nd ref="29391598"/>
    <nd ref="1615500117"/>
    <nd ref="29391600"/>
    <nd ref="1615500112"/>
    <nd ref="29391602"/>
    <nd ref="1615500105"/>
    <nd ref="1615500104"/>
    <nd ref="29391604"/>
    <nd ref="1615500099"/>
    <nd ref="866618212"/>
    <nd ref="695824186"/>
    <nd ref="29391606"/>
    <nd ref="695824090"/>
    <nd ref="29391608"/>
    <nd ref="8712138488"/>
    <nd ref="29391610"/>
    <nd ref="7406534777"/>
    <nd ref="29391612"/>
    <nd ref="8712138477"/>
    <nd ref="29391614"/>
    <nd ref="8712138478"/>
    <nd ref="29391616"/>
    <nd ref="29391618"/>
    <nd ref="8712138479"/>
    <nd ref="29391620"/>
    <nd ref="29391622"/>
    <nd ref="8712138482"/>
    <nd ref="10575408423"/>
    <nd ref="29391634"/>
    <nd ref="29391636"/>
    <nd ref="29391638"/>
    <nd ref="29391640"/>
    <nd ref="1801818421"/>
    <nd ref="29391642"/>
    <nd ref="1801818407"/>
    <nd ref="1801818405"/>
    <nd ref="29391644"/>
    <nd ref="29391647"/>
    <nd ref="1801818403"/>
    <nd ref="1801818402"/>
    <nd ref="8712165036"/>
    <nd ref="1906475042"/>
    <tag k="highway" v="primary"/>
    <tag k="lanes" v="2"/>
    <tag k="maxspeed" v="60 mph"/>
    <tag k="maxspeed:type" v="GB:nsl_single"/>
    <tag k="ref" v="A258"/>
    <tag k="surface" v="asphalt"/>
  </way>
  <way id="171620361" version="7" timestamp="2023-05-01T09:45:45Z" changeset="135565236" uid="7037" user="Gregory Williams">
    <nd ref="29391598"/>
    <nd ref="6562949110"/>
    <nd ref="1826254327"/>
    <nd ref="1826254330"/>
    <nd ref="1615500124"/>
    <tag k="highway" v="primary"/>
    <tag k="lanes" v="2"/>
    <tag k="maxspeed" v="60 mph"/>
    <tag k="maxspeed:type" v="GB:nsl_single"/>
    <tag k="oneway" v="yes"/>
    <tag k="ref" v="A258"/>
    <tag k="surface" v="asphalt"/>
  </way>
  <way id="171620365" version="12" timestamp="2023-12-25T14:28:47Z" changeset="145499803" uid="5229644" user="Nathan_A_RF">
    <nd ref="1826254293"/>
    <nd ref="1826254292"/>
    <tag k="bridge" v="yes"/>
    <tag k="highway" v="trunk"/>
    <tag k="lanes" v="3"/>
    <tag k="lanes:backward" v="2"/>
    <tag k="lanes:forward" v="1"/>
    <tag k="layer" v="1"/>
    <tag k="lit" v="yes"/>
    <tag k="maxspeed" v="60 mph"/>
    <tag k="maxspeed:type" v="GB:nsl_single"/>
    <tag k="name" v="Jubilee Way"/>
    <tag k="national_highways:area" v="4"/>
    <tag k="operator" v="National Highways"/>
    <tag k="operator:wikidata" v="Q5760006"/>
    <tag k="ref" v="A2"/>
    <tag k="source" v="GPS"/>
  </way>
  <way id="180202889" version="4" timestamp="2023-05-01T11:29:17Z" changeset="135569569" uid="7037" user="Gregory Williams">
    <nd ref="1906475042"/>
    <nd ref="29391649"/>
    <tag k="cycleway:both" v="no"/>
    <tag k="highway" v="primary"/>
    <tag k="lanes" v="2"/>
    <tag k="maxspeed" v="30 mph"/>
    <tag k="ref" v="A258"/>
    <tag k="surface" v="asphalt"/>
  </way>
  <way id="180205207" version="5" timestamp="2024-09-18T12:34:02Z" changeset="156771267" uid="11471297" user="Palgrave Peter">
    <nd ref="243502136"/>
    <nd ref="243502137"/>
    <nd ref="8508192559"/>
    <nd ref="12184004338"/>
    <nd ref="243502138"/>
    <nd ref="243502139"/>
    <nd ref="243502140"/>
    <nd ref="243502162"/>
    <nd ref="243502171"/>
    <tag k="highway" v="unclassified"/>
    <tag k="lit" v="no"/>
    <tag k="maxspeed" v="60 mph"/>
    <tag k="maxspeed:type" v="GB:nsl_single"/>
    <tag k="name" v="Old Charlton Road"/>
    <tag k="surface" v="asphalt"/>
  </way>
  <way id="182220437" version="3" timestamp="2024-09-04T14:13:27Z" changeset="156189382" uid="11471297" user="Palgrave Peter">
    <nd ref="1925678220"/>
    <nd ref="12155533841"/>
    <nd ref="27413899"/>
    <nd ref="12155533842"/>
    <nd ref="12155533843"/>
    <nd ref="27413902"/>
    <nd ref="12155533850"/>
    <nd ref="4611566176"/>
    <nd ref="27413903"/>
    <nd ref="12155533870"/>
    <nd ref="27220329"/>
    <tag k="highway" v="unclassified"/>
    <tag k="maxspeed" v="30 mph"/>
    <tag k="name" v="The Lane"/>
  </way>
  <way id="404998641" version="7" timestamp="2024-09-18T12:34:02Z" changeset="156771267" uid="11471297" user="Palgrave Peter">
    <nd ref="4072304411"/>
    <nd ref="4072304409"/>
    <nd ref="4072304405"/>
    <nd ref="4072304401"/>
    <nd ref="4072304400"/>
    <nd ref="33200134"/>
    <nd ref="4072304403"/>
    <nd ref="4072304407"/>
    <nd ref="4072304408"/>
    <nd ref="4072304410"/>
    <nd ref="4072304411"/>
    <tag k="addr:city" v="Dover"/>
    <tag k="addr:country" v="GB"/>
    <tag k="addr:county" v="Kent"/>
    <tag k="addr:postcode" v="CT15 5LR"/>
    <tag k="addr:street" v="Burgoyne Heights"/>
    <tag k="addr:village" v="Guston"/>
    <tag k="amenity" v="school"/>
    <tag k="capacity" v="180"/>
    <tag k="contact:phone" v="+44 1304 206847"/>
    <tag k="contact:website" v="http://guston.kent.sch.uk/"/>
    <tag k="denomination" v="anglican"/>
    <tag k="diocese" v="Diocese of Canterbury"/>
    <tag k="fhrs:id" v="1197704"/>
    <tag k="isced:level" v="1"/>
    <tag k="max_age" v="11"/>
    <tag k="min_age" v="4"/>
    <tag k="name" v="Guston Church of England Primary School"/>
    <tag k="ref:GB:uprn" v="100062620447"/>
    <tag k="ref:edubase" v="118687"/>
    <tag k="religion" v="christian"/>
    <tag k="school:trust" v="no"/>
    <tag k="school:type" v="voluntary_controlled"/>
    <tag k="source:addr" v="FHRS Open Data"/>
    <tag k="wikidata" v="Q66226477"/>
  </way>
  <way id="695828476" version="5" timestamp="2022-10-28T19:15:52Z" changeset="128188221" uid="13666626" user="RedAuburn">
    <nd ref="1826254273"/>
    <nd ref="1826254271"/>
    <nd ref="1826254270"/>
    <nd ref="1826254266"/>
    <tag k="highway" v="trunk"/>
    <tag k="incline" v="down"/>
    <tag k="lanes" v="1"/>
    <tag k="lit" v="yes"/>
    <tag k="maxspeed" v="70 mph"/>
    <tag k="maxspeed:type" v="GB:nsl_dual"/>
    <tag k="name" v="Jubilee Way"/>
    <tag k="national_highways:area" v="4"/>
    <tag k="oneway" v="yes"/>
    <tag k="operator" v="National Highways"/>
    <tag k="operator:wikidata" v="Q5760006"/>
    <tag k="ref" v="A2"/>
    <tag k="source" v="GPS"/>
  </way>
  <way id="695828477" version="6" timestamp="2024-06-24T09:22:44Z" changeset="153102111" uid="5229644" user="Nathan_A_RF">
    <nd ref="1826254322"/>
    <nd ref="12006057055"/>
    <nd ref="866619703"/>
    <nd ref="1826254323"/>
    <nd ref="866617615"/>
    <nd ref="4064770"/>
    <tag k="highway" v="trunk"/>
    <tag k="lanes" v="2"/>
    <tag k="lit" v="yes"/>
    <tag k="maxspeed" v="60 mph"/>
    <tag k="maxspeed:type" v="GB:nsl_single"/>
    <tag k="name" v="Jubilee Way"/>
    <tag k="national_highways:area" v="4"/>
    <tag k="oneway" v="yes"/>
    <tag k="operator" v="National Highways"/>
    <tag k="operator:wikidata" v="Q5760006"/>
    <tag k="ref" v="A2"/>
    <tag k="source" v="GPS"/>
  </way>
  <way id="695828478" version="8" timestamp="2023-12-25T14:28:47Z" changeset="145499803" uid="5229644" user="Nathan_A_RF">
    <nd ref="1826254322"/>
    <nd ref="1826254320"/>
    <nd ref="1826254319"/>
    <nd ref="1826254318"/>
    <nd ref="1826254315"/>
    <nd ref="1826254314"/>
    <nd ref="1826254311"/>
    <nd ref="1826254308"/>
    <nd ref="1826254307"/>
    <nd ref="1826254305"/>
    <nd ref="1826254303"/>
    <nd ref="1826254301"/>
    <nd ref="1826254300"/>
    <nd ref="1826254299"/>
    <nd ref="1826254293"/>
    <tag k="highway" v="trunk"/>
    <tag k="lanes" v="3"/>
    <tag k="lanes:backward" v="2"/>
    <tag k="lanes:forward" v="1"/>
    <tag k="lit" v="yes"/>
    <tag k="maxspeed" v="60 mph"/>
    <tag k="maxspeed:type" v="GB:nsl_single"/>
    <tag k="name" v="Jubilee Way"/>
    <tag k="national_highways:area" v="4"/>
    <tag k="oneway" v="no"/>
    <tag k="operator" v="National Highways"/>
    <tag k="operator:wikidata" v="Q5760006"/>
    <tag k="ref" v="A2"/>
    <tag k="shoulder" v="no"/>
    <tag k="sidewalk" v="no"/>
    <tag k="source" v="GPS"/>
  </way>
  <way id="849348319" version="2" timestamp="2021-05-05T21:48:00Z" changeset="104209114" uid="7511" user="retselkim">
    <nd ref="1121292776"/>
    <nd ref="7924298813"/>
    <nd ref="8698043050"/>
    <tag k="bridge" v="yes"/>
    <tag k="highway" v="unclassified"/>
    <tag k="layer" v="1"/>
  </way>
  <way id="849348320" version="4" timestamp="2024-09-18T12:34:02Z" changeset="156771267" uid="11471297" user="Palgrave Peter">
    <nd ref="8698043050"/>
    <nd ref="7924298814"/>
    <nd ref="8698043070"/>
    <nd ref="8697837498"/>
    <tag k="highway" v="unclassified"/>
    <tag k="layer" v="1"/>
  </way>
  <way id="891444518" version="6" timestamp="2023-12-25T14:28:47Z" changeset="145499803" uid="5229644" user="Nathan_A_RF">
    <nd ref="1826254266"/>
    <nd ref="1826254262"/>
    <nd ref="1826254255"/>
    <nd ref="1826254252"/>
    <tag k="highway" v="trunk"/>
    <tag k="incline" v="down"/>
    <tag k="lanes" v="1"/>
    <tag k="lit" v="yes"/>
    <tag k="maxspeed" v="30 mph"/>
    <tag k="maxspeed:type" v="GB:nsl_restricted"/>
    <tag k="name" v="Jubilee Way"/>
    <tag k="national_highways:area" v="4"/>
    <tag k="oneway" v="yes"/>
    <tag k="operator" v="National Highways"/>
    <tag k="operator:wikidata" v="Q5760006"/>
    <tag k="ref" v="A2"/>
    <tag k="source" v="GPS"/>
  </way>
  <way id="891444520" version="6" timestamp="2023-12-25T14:28:47Z" changeset="145499803" uid="5229644" user="Nathan_A_RF">
    <nd ref="1826254275"/>
    <nd ref="1826254273"/>
    <tag k="highway" v="trunk"/>
    <tag k="incline" v="down"/>
    <tag k="lanes" v="3"/>
    <tag k="lanes:backward" v="2"/>
    <tag k="lanes:forward" v="1"/>
    <tag k="lit" v="yes"/>
    <tag k="maxspeed" v="60 mph"/>
    <tag k="maxspeed:type" v="GB:nsl_single"/>
    <tag k="name" v="Jubilee Way"/>
    <tag k="national_highways:area" v="4"/>
    <tag k="oneway" v="no"/>
    <tag k="operator" v="National Highways"/>
    <tag k="operator:wikidata" v="Q5760006"/>
    <tag k="ref" v="A2"/>
    <tag k="source" v="GPS"/>
  </way>
  <way id="891444521" version="6" timestamp="2023-12-25T14:28:47Z" changeset="145499803" uid="5229644" user="Nathan_A_RF">
    <nd ref="1826254278"/>
    <nd ref="1826254275"/>
    <tag k="access:lanes:forward" v="escape|yes"/>
    <tag k="highway" v="trunk"/>
    <tag k="incline" v="down"/>
    <tag k="lanes" v="4"/>
    <tag k="lanes:backward" v="2"/>
    <tag k="lanes:forward" v="2"/>
    <tag k="lit" v="yes"/>
    <tag k="maxspeed" v="60 mph"/>
    <tag k="maxspeed:type" v="GB:nsl_single"/>
    <tag k="name" v="Jubilee Way"/>
    <tag k="national_highways:area" v="4"/>
    <tag k="oneway" v="no"/>
    <tag k="operator" v="National Highways"/>
    <tag k="operator:wikidata" v="Q5760006"/>
    <tag k="ref" v="A2"/>
    <tag k="source" v="GPS"/>
  </way>
  <way id="912399249" version="2" timestamp="2021-08-27T11:52:01Z" changeset="110338149" uid="242345" user="confusedbuffalo">
    <nd ref="29391523"/>
    <nd ref="29391524"/>
    <nd ref="1906475044"/>
    <nd ref="29391525"/>
    <nd ref="29391526"/>
    <nd ref="29391527"/>
    <nd ref="1906475047"/>
    <nd ref="29391528"/>
    <nd ref="29391529"/>
    <nd ref="1906475048"/>
    <nd ref="1906475049"/>
    <nd ref="29391530"/>
    <nd ref="1906475050"/>
    <nd ref="29391541"/>
    <tag k="cycleway:both" v="no"/>
    <tag k="highway" v="tertiary"/>
    <tag k="incline" v="up"/>
    <tag k="lanes" v="2"/>
    <tag k="maxspeed" v="60 mph"/>
    <tag k="maxspeed:type" v="GB:nsl_single"/>
    <tag k="name" v="Upper Road"/>
    <tag k="sidewalk" v="no"/>
    <tag k="surface" v="asphalt"/>
  </way>
  <way id="1009212303" version="1" timestamp="2021-12-05T04:49:58Z" changeset="114571835" uid="322039" user="MacLondon">
    <nd ref="9311642840"/>
    <nd ref="29391503"/>
    <nd ref="8490608952"/>
    <nd ref="29391504"/>
    <nd ref="29391505"/>
    <tag k="cycleway:both" v="no"/>
    <tag k="highway" v="tertiary"/>
    <tag k="incline" v="up"/>
    <tag k="lanes" v="2"/>
    <tag k="lit" v="no"/>
    <tag k="maxspeed" v="60 mph"/>
    <tag k="maxspeed:type" v="GB:nsl_single"/>
    <tag k="name" v="Upper Road"/>
    <tag k="sidewalk" v="no"/>
    <tag k="surface" v="asphalt"/>
  </way>
  <way id="1068963145" version="2" timestamp="2024-12-23T15:23:41Z" changeset="160542450" uid="7037" user="Gregory Williams">
    <nd ref="9812289541"/>
    <nd ref="12444472825"/>
    <nd ref="12444472824"/>
    <nd ref="9812289528"/>
    <nd ref="12444472815"/>
    <nd ref="12444472816"/>
    <nd ref="12444472817"/>
    <nd ref="12444472818"/>
    <nd ref="12444472813"/>
    <nd ref="9812289539"/>
    <tag k="highway" v="residential"/>
  </way>
  <way id="1134553077" version="2" timestamp="2024-12-23T15:23:41Z" changeset="160542450" uid="7037" user="Gregory Williams">
    <nd ref="9812289528"/>
    <nd ref="10577049344"/>
    <nd ref="10577049343"/>
    <tag k="highway" v="residential"/>
  </way>
  <way id="1274661034" version="2" timestamp="2024-04-22T08:21:54Z" changeset="150333715" uid="25867" user="adamos">
    <nd ref="4064771"/>
    <nd ref="1615500123"/>
    <nd ref="1615500121"/>
    <nd ref="4064770"/>
    <tag k="highway" v="trunk"/>
    <tag k="junction" v="roundabout"/>
    <tag k="lane_markings" v="no"/>
    <tag k="lit" v="yes"/>
    <tag k="maxspeed" v="60 mph"/>
    <tag k="maxspeed:type" v="GB:nsl_single"/>
    <tag k="national_highways:area" v="4"/>
    <tag k="operator" v="National Highways"/>
    <tag k="operator:wikidata" v="Q5760006"/>
    <tag k="surface" v="asphalt"/>
  </way>
  <way id="1274661035" version="1" timestamp="2024-04-21T17:08:03Z" changeset="150311435" uid="19880472" user="aknight22">
    <nd ref="4064777"/>
    <nd ref="1615500145"/>
    <nd ref="1615500144"/>
    <nd ref="1615500140"/>
    <nd ref="1615500137"/>
    <nd ref="4064779"/>
    <tag k="highway" v="trunk"/>
    <tag k="junction" v="roundabout"/>
    <tag k="lane_markings" v="no"/>
    <tag k="lit" v="yes"/>
    <tag k="maxspeed" v="60 mph"/>
    <tag k="maxspeed:type" v="GB:nsl_single"/>
    <tag k="national_highways:area" v="4"/>
    <tag k="operator" v="National Highways"/>
    <tag k="operator:wikidata" v="Q5760006"/>
    <tag k="surface" v="asphalt"/>
  </way>
  <way id="1274661036" version="1" timestamp="2024-04-21T17:08:03Z" changeset="150311435" uid="19880472" user="aknight22">
    <nd ref="1615500120"/>
    <nd ref="1615500122"/>
    <nd ref="4064776"/>
    <nd ref="1615500124"/>
    <tag k="highway" v="trunk"/>
    <tag k="junction" v="roundabout"/>
    <tag k="lane_markings" v="no"/>
    <tag k="lit" v="yes"/>
    <tag k="maxspeed" v="60 mph"/>
    <tag k="maxspeed:type" v="GB:nsl_single"/>
    <tag k="national_highways:area" v="4"/>
    <tag k="operator" v="National Highways"/>
    <tag k="operator:wikidata" v="Q5760006"/>
    <tag k="surface" v="asphalt"/>
  </way>
  <way id="1274808677" version="1" timestamp="2024-04-22T08:21:54Z" changeset="150333715" uid="25867" user="adamos">
    <nd ref="4064770"/>
    <nd ref="1615500120"/>
    <tag k="highway" v="trunk"/>
    <tag k="junction" v="roundabout"/>
    <tag k="lane_markings" v="no"/>
    <tag k="lit" v="yes"/>
    <tag k="maxspeed" v="60 mph"/>
    <tag k="maxspeed:type" v="GB:nsl_single"/>
    <tag k="national_highways:area" v="4"/>
    <tag k="operator" v="National Highways"/>
    <tag k="operator:wikidata" v="Q5760006"/>
    <tag k="surface" v="asphalt"/>
  </way>
  <way id="1274808678" version="1" timestamp="2024-04-22T08:21:54Z" changeset="150333715" uid="25867" user="adamos">
    <nd ref="4064779"/>
    <nd ref="4064771"/>
    <tag k="highway" v="trunk"/>
    <tag k="junction" v="roundabout"/>
    <tag k="lane_markings" v="no"/>
    <tag k="lit" v="yes"/>
    <tag k="maxspeed" v="60 mph"/>
    <tag k="maxspeed:type" v="GB:nsl_single"/>
    <tag k="national_highways:area" v="4"/>
    <tag k="operator" v="National Highways"/>
    <tag k="operator:wikidata" v="Q5760006"/>
    <tag k="surface" v="asphalt"/>
  </way>
  <way id="1274808679" version="1" timestamp="2024-04-22T08:21:54Z" changeset="150333715" uid="25867" user="adamos">
    <nd ref="4064774"/>
    <nd ref="4064777"/>
    <tag k="highway" v="trunk"/>
    <tag k="junction" v="roundabout"/>
    <tag k="lane_markings" v="no"/>
    <tag k="lit" v="yes"/>
    <tag k="maxspeed" v="60 mph"/>
    <tag k="maxspeed:type" v="GB:nsl_single"/>
    <tag k="national_highways:area" v="4"/>
    <tag k="operator" v="National Highways"/>
    <tag k="operator:wikidata" v="Q5760006"/>
    <tag k="surface" v="asphalt"/>
  </way>
  <way id="1274808680" version="1" timestamp="2024-04-22T08:21:54Z" changeset="150333715" uid="25867" user="adamos">
    <nd ref="1615500124"/>
    <nd ref="1615500130"/>
    <nd ref="442552852"/>
    <tag k="highway" v="trunk"/>
    <tag k="junction" v="roundabout"/>
    <tag k="lane_markings" v="no"/>
    <tag k="lit" v="yes"/>
    <tag k="maxspeed" v="60 mph"/>
    <tag k="maxspeed:type" v="GB:nsl_single"/>
    <tag k="national_highways:area" v="4"/>
    <tag k="operator" v="National Highways"/>
    <tag k="operator:wikidata" v="Q5760006"/>
    <tag k="surface" v="asphalt"/>
  </way>
  <way id="1278571454" version="1" timestamp="2024-04-30T17:38:05Z" changeset="150719970" uid="19880472" user="aknight22">
    <nd ref="27220290"/>
    <nd ref="8703130073"/>
    <nd ref="27220291"/>
    <nd ref="8499062931"/>
    <nd ref="8499062930"/>
    <nd ref="8508192562"/>
    <nd ref="27220292"/>
    <nd ref="8508192563"/>
    <nd ref="1801837804"/>
    <nd ref="27220293"/>
    <nd ref="27220295"/>
    <nd ref="1801839091"/>
    <nd ref="27220294"/>
    <nd ref="27220296"/>
    <nd ref="27220297"/>
    <nd ref="27220298"/>
    <tag k="highway" v="unclassified"/>
    <tag k="lit" v="no"/>
    <tag k="maxspeed" v="60 mph"/>
    <tag k="maxspeed:type" v="GB:nsl_single"/>
    <tag k="name" v="Dover Road"/>
    <tag k="surface" v="asphalt"/>
  </way>
  <way id="1278571455" version="1" timestamp="2024-04-30T17:38:05Z" changeset="150719970" uid="19880472" user="aknight22">
    <nd ref="8096910276"/>
    <nd ref="695824008"/>
    <nd ref="8096910277"/>
    <nd ref="695824007"/>
    <nd ref="9836528691"/>
    <nd ref="695824002"/>
    <nd ref="695824001"/>
    <nd ref="695823992"/>
    <tag k="highway" v="residential"/>
    <tag k="maxspeed" v="30 mph"/>
    <tag k="name" v="Burgoyne Heights"/>
  </way>
  <way id="1345151982" version="1" timestamp="2024-12-23T15:23:41Z" changeset="160542450" uid="7037" user="Gregory Williams">
    <nd ref="12444472818"/>
    <nd ref="12444472819"/>
    <nd ref="12444472820"/>
    <nd ref="12444472821"/>
    <nd ref="12444472822"/>
    <nd ref="10577049343"/>
    <nd ref="12444472823"/>
    <nd ref="12444472814"/>
    <tag k="highway" v="residential"/>
  </way>

</osm>
