<?xml version="1.0" encoding="UTF-8"?>
<osm version="0.6" generator="Overpass API 0.7.62.5 1bd436f1">
<note>The data included in this document is from www.openstreetmap.org. The data is made available under ODbL.</note>
<meta osm_base="2025-05-17T22:27:09Z" areas="2024-12-31T00:49:33Z"/>

  <node id="361104" lat="48.8719982" lon="2.3400527" version="24" timestamp="2024-11-11T17:24:11Z" changeset="159018616" uid="311391" user="patman37">
    <tag k="highway" v="traffic_signals"/>
    <tag k="traffic_signals" v="signal"/>
  </node>
  <node id="398772" lat="48.8716742" lon="2.3382629" version="9" timestamp="2017-02-25T17:20:01Z" changeset="46398415" uid="53773" user="Hopla57"/>
  <node id="25207313" lat="48.8714816" lon="2.3430679" version="15" timestamp="2019-10-27T14:05:11Z" changeset="76266904" uid="570635" user="_phiphou_">
    <tag k="highway" v="traffic_signals"/>
  </node>
  <node id="25207331" lat="48.8676855" lon="2.3379035" version="10" timestamp="2019-01-22T12:01:49Z" changeset="66535287" uid="311391" user="patman37"/>
  <node id="25207334" lat="48.8695252" lon="2.3367803" version="9" timestamp="2025-01-24T13:51:11Z" changeset="161713301" uid="7512839" user="Benoît C MdP">
    <tag k="highway" v="traffic_signals"/>
  </node>
  <node id="25272939" lat="48.8669887" lon="2.3358764" version="8" timestamp="2018-12-02T17:15:21Z" changeset="65100619" uid="570635" user="_phiphou_"/>
  <node id="25272944" lat="48.8688872" lon="2.3366967" version="7" timestamp="2010-04-05T18:01:09Z" changeset="4336568" uid="17286" user="Pieren"/>
  <node id="25272948" lat="48.8688922" lon="2.3341961" version="8" timestamp="2019-01-11T11:17:07Z" changeset="66223059" uid="311391" user="patman37"/>
  <node id="25273868" lat="48.8703360" lon="2.3372448" version="5" timestamp="2010-04-06T22:57:08Z" changeset="4350133" uid="17286" user="Pieren"/>
  <node id="25273885" lat="48.8686500" lon="2.3413350" version="10" timestamp="2025-01-24T13:51:11Z" changeset="161713301" uid="7512839" user="Benoît C MdP"/>
  <node id="25581141" lat="48.8663367" lon="2.3386677" version="9" timestamp="2025-01-07T23:08:26Z" changeset="161114375" uid="2678738" user="fgouget"/>
  <node id="25581143" lat="48.8660492" lon="2.3398964" version="8" timestamp="2025-01-07T23:08:26Z" changeset="161114375" uid="2678738" user="fgouget"/>
  <node id="25581144" lat="48.8661692" lon="2.3399833" version="5" timestamp="2010-04-06T21:47:12Z" changeset="4349592" uid="17286" user="Pieren"/>
  <node id="25581145" lat="48.8663003" lon="2.3412665" version="5" timestamp="2010-04-06T21:47:12Z" changeset="4349592" uid="17286" user="Pieren"/>
  <node id="25581148" lat="48.8658230" lon="2.3408664" version="9" timestamp="2012-06-29T12:26:37Z" changeset="12056054" uid="456113" user="eric_G"/>
  <node id="25581150" lat="48.8659072" lon="2.3413762" version="10" timestamp="2023-07-27T09:11:28Z" changeset="139075746" uid="19752758" user="Max_C"/>
  <node id="25581660" lat="48.8679059" lon="2.3395349" version="5" timestamp="2010-04-06T21:14:52Z" changeset="4349269" uid="17286" user="Pieren"/>
  <node id="25581699" lat="48.8677839" lon="2.3437648" version="7" timestamp="2019-01-22T12:43:51Z" changeset="66536518" uid="311391" user="patman37"/>
  <node id="26039856" lat="48.8702310" lon="2.3426988" version="8" timestamp="2019-06-17T18:02:56Z" changeset="71339081" uid="7336068" user="Florimondable"/>
  <node id="250217154" lat="48.8694683" lon="2.3423046" version="6" timestamp="2015-06-22T22:33:51Z" changeset="32149961" uid="644547" user="jeremius"/>
  <node id="268456615" lat="48.8697588" lon="2.3428783" version="8" timestamp="2025-01-16T22:42:38Z" changeset="161436448" uid="2678738" user="fgouget"/>
  <node id="688074848" lat="48.8702509" lon="2.3328380" version="18" timestamp="2025-01-24T14:11:07Z" changeset="161714072" uid="7512839" user="Benoît C MdP">
    <tag k="button_operated" v="no"/>
    <tag k="crossing" v="traffic_signals"/>
    <tag k="crossing:island" v="no"/>
    <tag k="crossing:markings" v="zebra"/>
    <tag k="crossing:signals" v="yes"/>
    <tag k="highway" v="crossing"/>
    <tag k="kerb" v="lowered"/>
    <tag k="tactile_paving" v="yes"/>
    <tag k="traffic_signals:sound" v="no"/>
    <tag k="traffic_signals:vibration" v="no"/>
  </node>
  <node id="2180084675" lat="48.8702098" lon="2.3425162" version="15" timestamp="2025-01-16T22:42:38Z" changeset="161436448" uid="2678738" user="fgouget">
    <tag k="crossing" v="uncontrolled"/>
    <tag k="crossing:island" v="no"/>
    <tag k="crossing:markings" v="zebra"/>
    <tag k="highway" v="crossing"/>
    <tag k="kerb" v="lowered"/>
    <tag k="tactile_paving" v="yes"/>
    <tag k="traffic_calming" v="table"/>
    <tag k="traffic_signals:sound" v="no"/>
  </node>
  <node id="6102497607" lat="48.8701509" lon="2.3427202" version="5" timestamp="2022-04-06T21:26:23Z" changeset="119404070" uid="184969" user="EvanE"/>
  <node id="7572331127" lat="48.8718601" lon="2.3394545" version="3" timestamp="2024-11-11T17:24:11Z" changeset="159018616" uid="311391" user="patman37"/>
  <node id="7572331128" lat="48.8718305" lon="2.3391706" version="4" timestamp="2024-12-13T16:23:18Z" changeset="160253044" uid="7512839" user="Benoît C MdP"/>
  <node id="8107850868" lat="48.8719069" lon="2.3404076" version="2" timestamp="2023-07-13T14:54:55Z" changeset="138467975" uid="19752758" user="Max_C"/>
  <node id="11030696419" lat="48.8685370" lon="2.3419040" version="2" timestamp="2025-01-24T13:51:11Z" changeset="161713301" uid="7512839" user="Benoît C MdP"/>
  <way id="4251071" version="26" timestamp="2024-07-22T18:22:15Z" changeset="154275756" uid="2252690" user="gourlaysama">
    <nd ref="25272939"/>
    <nd ref="6111105704"/>
    <nd ref="25272941"/>
    <nd ref="253963388"/>
    <nd ref="25272942"/>
    <nd ref="25272943"/>
    <nd ref="11028038023"/>
    <nd ref="685287620"/>
    <nd ref="1757512035"/>
    <nd ref="25272944"/>
    <tag k="cycleway:both" v="no"/>
    <tag k="highway" v="residential"/>
    <tag k="lit" v="yes"/>
    <tag k="maxspeed" v="30"/>
    <tag k="maxspeed:type" v="FR:zone30"/>
    <tag k="name" v="Rue Sainte-Anne"/>
    <tag k="name:etymology:wikidata" v="Q151209"/>
    <tag k="oneway" v="yes"/>
    <tag k="oneway:bicycle" v="yes"/>
    <tag k="sidewalk:both" v="separate"/>
    <tag k="smoothness" v="good"/>
    <tag k="source:maxspeed" v="FR:zone30"/>
    <tag k="surface" v="asphalt"/>
    <tag k="zone:maxspeed" v="FR:30"/>
  </way>
  <way id="4251081" version="19" timestamp="2024-11-14T23:16:33Z" changeset="159149842" uid="21820390" user="VLD288">
    <nd ref="25273869"/>
    <nd ref="25273868"/>
    <tag k="cycleway" v="opposite"/>
    <tag k="highway" v="residential"/>
    <tag k="lit" v="yes"/>
    <tag k="maxspeed" v="30"/>
    <tag k="name" v="Rue Grétry"/>
    <tag k="name:etymology:wikidata" v="Q210962"/>
    <tag k="oneway" v="yes"/>
    <tag k="oneway:bicycle" v="no"/>
    <tag k="sidewalk:both" v="separate"/>
    <tag k="smoothness" v="good"/>
    <tag k="surface" v="asphalt"/>
  </way>
  <way id="4251082" version="24" timestamp="2024-02-25T10:51:40Z" changeset="147884396" uid="6290466" user="benjamintchik">
    <nd ref="25273868"/>
    <nd ref="6373921999"/>
    <nd ref="430576176"/>
    <nd ref="273727646"/>
    <nd ref="11027969444"/>
    <nd ref="602551166"/>
    <nd ref="1548644144"/>
    <nd ref="25273877"/>
    <tag k="cycleway" v="opposite"/>
    <tag k="highway" v="residential"/>
    <tag k="lit" v="yes"/>
    <tag k="maxspeed" v="30"/>
    <tag k="name" v="Rue de Marivaux"/>
    <tag k="name:etymology:wikidata" v="Q49478"/>
    <tag k="oneway" v="yes"/>
    <tag k="oneway:bicycle" v="no"/>
    <tag k="sidewalk:both" v="separate"/>
    <tag k="smoothness" v="good"/>
    <tag k="surface" v="asphalt"/>
  </way>
  <way id="4251086" version="14" timestamp="2024-02-25T17:25:10Z" changeset="147900866" uid="6290466" user="benjamintchik">
    <nd ref="25273880"/>
    <nd ref="2200327282"/>
    <nd ref="2200327206"/>
    <nd ref="25275079"/>
    <nd ref="2200327173"/>
    <nd ref="2200327102"/>
    <nd ref="25275080"/>
    <tag k="cycleway:left" v="opposite"/>
    <tag k="highway" v="residential"/>
    <tag k="lanes" v="3"/>
    <tag k="lit" v="yes"/>
    <tag k="maxspeed" v="30"/>
    <tag k="name" v="Rue de la Bourse"/>
    <tag k="name:etymology:wikidata" v="Q178513"/>
    <tag k="oneway" v="yes"/>
    <tag k="oneway:bicycle" v="no"/>
    <tag k="sidewalk:both" v="separate"/>
    <tag k="surface" v="asphalt"/>
    <tag k="wikidata" v="Q30742301"/>
    <tag k="wikipedia" v="fr:Rue de la Bourse (Paris)"/>
  </way>
  <way id="4263207" version="37" timestamp="2024-11-14T21:33:29Z" changeset="159147361" uid="21820374" user="VLD287">
    <nd ref="25581143"/>
    <nd ref="25581142"/>
    <nd ref="2200326786"/>
    <nd ref="253963373"/>
    <nd ref="681555465"/>
    <nd ref="253963379"/>
    <nd ref="2200326798"/>
    <nd ref="25581141"/>
    <tag k="cycleway:both" v="no"/>
    <tag k="highway" v="unclassified"/>
    <tag k="lane_markings" v="no"/>
    <tag k="lit" v="yes"/>
    <tag k="maxspeed" v="30"/>
    <tag k="maxspeed:type" v="sign"/>
    <tag k="motor_vehicle" v="destination"/>
    <tag k="name" v="Rue des Petits Champs"/>
    <tag k="name:etymology:wikidata" v="Q188869"/>
    <tag k="oneway" v="yes"/>
    <tag k="oneway:bicycle" v="no"/>
    <tag k="psv" v="yes"/>
    <tag k="sidewalk:both" v="separate"/>
    <tag k="smoothness" v="good"/>
    <tag k="surface" v="asphalt"/>
  </way>
  <way id="4263225" version="19" timestamp="2023-10-11T21:53:13Z" changeset="142454035" uid="10731965" user="Hydrel">
    <nd ref="11256203248"/>
    <nd ref="2200327037"/>
    <nd ref="11028109441"/>
    <nd ref="6957475957"/>
    <tag k="cycleway" v="opposite"/>
    <tag k="highway" v="residential"/>
    <tag k="lit" v="yes"/>
    <tag k="maxspeed" v="30"/>
    <tag k="maxspeed:type" v="FR:zone30"/>
    <tag k="name" v="Rue des Filles Saint-Thomas"/>
    <tag k="oneway" v="yes"/>
    <tag k="oneway:bicycle" v="no"/>
    <tag k="sidewalk" v="separate"/>
    <tag k="smoothness" v="good"/>
    <tag k="surface" v="asphalt"/>
  </way>
  <way id="4263229" version="42" timestamp="2024-07-22T18:22:17Z" changeset="154275756" uid="2252690" user="gourlaysama">
    <nd ref="25273885"/>
    <nd ref="2200327008"/>
    <nd ref="11468980920"/>
    <nd ref="25581667"/>
    <nd ref="11468980914"/>
    <nd ref="2200326875"/>
    <nd ref="10270431520"/>
    <nd ref="2200326810"/>
    <nd ref="25581209"/>
    <nd ref="2200326792"/>
    <nd ref="25581144"/>
    <tag k="cycleway:both" v="no"/>
    <tag k="highway" v="residential"/>
    <tag k="lit" v="yes"/>
    <tag k="maxspeed" v="30"/>
    <tag k="maxspeed:type" v="FR:zone30"/>
    <tag k="name" v="Rue de la Banque"/>
    <tag k="name:etymology:wikidata" v="Q806950"/>
    <tag k="name:ru" v="улица Банк"/>
    <tag k="oneway" v="yes"/>
    <tag k="oneway:bicycle" v="yes"/>
    <tag k="sidewalk:both" v="separate"/>
    <tag k="smoothness" v="good"/>
    <tag k="surface" v="asphalt"/>
  </way>
  <way id="4263230" version="35" timestamp="2025-05-15T16:12:17Z" changeset="166312785" uid="21293345" user="Léo_VdP">
    <nd ref="6102497607"/>
    <nd ref="6464566638"/>
    <nd ref="6150074440"/>
    <nd ref="6102497609"/>
    <nd ref="6102497605"/>
    <nd ref="268456606"/>
    <nd ref="2200327148"/>
    <nd ref="250217154"/>
    <nd ref="2200327105"/>
    <nd ref="602545917"/>
    <nd ref="12529386664"/>
    <nd ref="11030696419"/>
    <tag k="cycleway:both" v="no"/>
    <tag k="highway" v="residential"/>
    <tag k="lit" v="yes"/>
    <tag k="maxspeed" v="30"/>
    <tag k="name" v="Rue Notre-Dame-des-Victoires"/>
    <tag k="name:etymology:wikidata" v="Q782969"/>
    <tag k="oneway" v="yes"/>
    <tag k="oneway:bicycle" v="no"/>
    <tag k="sidewalk" v="separate"/>
    <tag k="smoothness" v="good"/>
    <tag k="surface" v="asphalt"/>
  </way>
  <way id="4574509" version="20" timestamp="2024-02-25T17:24:55Z" changeset="147900866" uid="6290466" user="benjamintchik">
    <nd ref="25273888"/>
    <nd ref="2200327358"/>
    <nd ref="25275078"/>
    <nd ref="2200327354"/>
    <nd ref="602545915"/>
    <nd ref="2200327361"/>
    <nd ref="25275077"/>
    <tag k="cycleway:left" v="opposite"/>
    <tag k="highway" v="residential"/>
    <tag k="lit" v="yes"/>
    <tag k="maxspeed" v="30"/>
    <tag k="name" v="Rue Feydeau"/>
    <tag k="name:etymology:wikidata" v="Q49465"/>
    <tag k="oneway" v="yes"/>
    <tag k="oneway:bicycle" v="no"/>
    <tag k="service" v="alley"/>
    <tag k="sidewalk:both" v="separate"/>
    <tag k="smoothness" v="good"/>
    <tag k="surface" v="asphalt"/>
  </way>
  <way id="13470545" version="38" timestamp="2025-05-15T16:12:17Z" changeset="166312785" uid="21293345" user="Léo_VdP">
    <nd ref="688074848"/>
    <nd ref="4976677470"/>
    <nd ref="2200327378"/>
    <nd ref="25273781"/>
    <nd ref="2200327376"/>
    <nd ref="25273782"/>
    <nd ref="25273784"/>
    <nd ref="12840324094"/>
    <nd ref="2200327362"/>
    <nd ref="470197"/>
    <nd ref="2200327360"/>
    <nd ref="2200327339"/>
    <nd ref="25207337"/>
    <nd ref="25273866"/>
    <nd ref="2200327314"/>
    <nd ref="11027928487"/>
    <nd ref="25207334"/>
    <tag k="alt_name" v="Rue du 4 Septembre"/>
    <tag k="bicycle:lanes" v="yes|yes|designated"/>
    <tag k="busway:right" v="lane"/>
    <tag k="cycleway:left" v="no"/>
    <tag k="cycleway:right" v="share_busway"/>
    <tag k="enforcement:operator" v="Police nationale"/>
    <tag k="highway" v="secondary"/>
    <tag k="lanes" v="3"/>
    <tag k="lit" v="yes"/>
    <tag k="maxspeed" v="30"/>
    <tag k="name" v="Rue du Quatre Septembre"/>
    <tag k="name:etymology:wikidata" v="Q3406432"/>
    <tag k="oneway" v="yes"/>
    <tag k="operator" v="Ville de Paris"/>
    <tag k="operator:authority" v="Maire de Paris après avis du préfet de police"/>
    <tag k="operator:authority:related_law" v="IV de l'article L. 2512-14 du code général des collectivités territoriales"/>
    <tag k="operator:url" v="https://cdn.paris.fr/paris/2020/02/26/5bf469a311d0beb9911e92d113781550.ai"/>
    <tag k="parking:lane:left:parallel" v="painted_area_only"/>
    <tag k="parking:left" v="yes"/>
    <tag k="parking:left:orientation" v="parallel"/>
    <tag k="parking:right" v="no"/>
    <tag k="psv:lanes" v="yes|yes|designated"/>
    <tag k="sidewalk:both" v="separate"/>
    <tag k="smoothness" v="good"/>
    <tag k="surface" v="asphalt"/>
  </way>
  <way id="18229335" version="29" timestamp="2025-04-05T17:39:27Z" changeset="164561925" uid="57126" user="yxoc">
    <nd ref="25581148"/>
    <nd ref="11070833901"/>
    <nd ref="11070833900"/>
    <nd ref="12731655818"/>
    <nd ref="2200326784"/>
    <nd ref="25581143"/>
    <tag k="cycleway:both" v="no"/>
    <tag k="highway" v="residential"/>
    <tag k="lit" v="yes"/>
    <tag k="maxspeed" v="30"/>
    <tag k="name" v="Rue la Feuillade"/>
    <tag k="name:etymology:wikidata" v="Q3084897"/>
    <tag k="oneway" v="no"/>
    <tag k="sidewalk:both" v="separate"/>
    <tag k="sidewalk:both:surface" v="asphalt"/>
    <tag k="smoothness" v="good"/>
    <tag k="surface" v="asphalt"/>
  </way>
  <way id="18229612" version="39" timestamp="2025-01-30T10:16:16Z" changeset="161931029" uid="7512839" user="Benoît C MdP">
    <nd ref="25207313"/>
    <nd ref="1821304282"/>
    <nd ref="11563663281"/>
    <nd ref="11066733180"/>
    <nd ref="11563663280"/>
    <nd ref="8107850868"/>
    <tag k="busway:right" v="lane"/>
    <tag k="cycleway:both" v="separate"/>
    <tag k="enforcement:operator" v="Police nationale"/>
    <tag k="highway" v="primary"/>
    <tag k="lanes" v="3"/>
    <tag k="lanes:backward" v="1"/>
    <tag k="lanes:forward" v="2"/>
    <tag k="lit" v="yes"/>
    <tag k="maxspeed" v="30"/>
    <tag k="name" v="Boulevard Montmartre"/>
    <tag k="name:etymology:wikidata" v="Q3398926"/>
    <tag k="oneway" v="no"/>
    <tag k="operator" v="Ville de Paris"/>
    <tag k="operator:authority" v="Maire de Paris après avis du préfet de police"/>
    <tag k="operator:authority:related_law" v="IV de l'article L. 2512-14 du code général des collectivités territoriales"/>
    <tag k="operator:url" v="https://cdn.paris.fr/paris/2020/02/26/5bf469a311d0beb9911e92d113781550.ai"/>
    <tag k="psv:lanes:forward" v="yes|designated"/>
    <tag k="sidewalk:both" v="separate"/>
    <tag k="smoothness" v="good"/>
    <tag k="surface" v="asphalt"/>
  </way>
  <way id="22926328" version="29" timestamp="2024-10-06T22:15:00Z" changeset="157559282" uid="2678738" user="fgouget">
    <nd ref="398772"/>
    <nd ref="11030150829"/>
    <nd ref="2180084696"/>
    <nd ref="15643084"/>
    <nd ref="2180084691"/>
    <nd ref="687096818"/>
    <tag k="cycleway" v="opposite"/>
    <tag k="highway" v="residential"/>
    <tag k="lit" v="yes"/>
    <tag k="maxspeed" v="30"/>
    <tag k="motor_vehicle" v="destination"/>
    <tag k="name" v="Rue Favart"/>
    <tag k="name:etymology:wikidata" v="Q981902"/>
    <tag k="oneway" v="yes"/>
    <tag k="oneway:bicycle" v="no"/>
    <tag k="sidewalk:both" v="separate"/>
    <tag k="smoothness" v="good"/>
    <tag k="surface" v="asphalt"/>
  </way>
  <way id="23157614" version="19" timestamp="2024-02-14T21:39:59Z" changeset="147467347" uid="6290466" user="benjamintchik">
    <nd ref="250217154"/>
    <nd ref="2200327131"/>
    <nd ref="329118671"/>
    <tag k="cycleway:left" v="opposite_lane"/>
    <tag k="highway" v="residential"/>
    <tag k="lit" v="yes"/>
    <tag k="maxspeed" v="30"/>
    <tag k="maxspeed:type" v="FR:zone30"/>
    <tag k="name" v="Place de la Bourse"/>
    <tag k="name:etymology:wikidata" v="Q179076"/>
    <tag k="oneway" v="yes"/>
    <tag k="oneway:bicycle" v="no"/>
    <tag k="sidewalk:both" v="separate"/>
    <tag k="smoothness" v="good"/>
    <tag k="surface" v="asphalt"/>
  </way>
  <way id="24697899" version="19" timestamp="2025-04-08T09:50:57Z" changeset="164670333" uid="2678738" user="fgouget">
    <nd ref="268456615"/>
    <nd ref="6464566636"/>
    <nd ref="2200327349"/>
    <nd ref="2200327306"/>
    <nd ref="268456606"/>
    <tag k="cycleway" v="opposite"/>
    <tag k="highway" v="unclassified"/>
    <tag k="lane_markings" v="no"/>
    <tag k="lit" v="yes"/>
    <tag k="maxspeed" v="30"/>
    <tag k="maxspeed:type" v="FR:zone30"/>
    <tag k="name" v="Rue Brongniart"/>
    <tag k="oneway" v="yes"/>
    <tag k="oneway:bicycle" v="no"/>
    <tag k="sidewalk:both" v="separate"/>
    <tag k="smoothness" v="good"/>
    <tag k="surface" v="asphalt"/>
  </way>
  <way id="29873359" version="15" timestamp="2024-02-25T17:25:36Z" changeset="147900866" uid="6290466" user="benjamintchik">
    <nd ref="25275078"/>
    <nd ref="2200327350"/>
    <nd ref="2200327236"/>
    <nd ref="25275079"/>
    <tag k="cycleway:left" v="opposite"/>
    <tag k="highway" v="residential"/>
    <tag k="lit" v="yes"/>
    <tag k="maxspeed" v="30"/>
    <tag k="name" v="Rue des Colonnes"/>
    <tag k="name:etymology:wikidata" v="Q4817"/>
    <tag k="oneway" v="yes"/>
    <tag k="oneway:bicycle" v="no"/>
    <tag k="sidewalk" v="separate"/>
    <tag k="smoothness" v="good"/>
    <tag k="surface" v="asphalt"/>
    <tag k="wikidata" v="Q3451756"/>
    <tag k="wikipedia" v="fr:Rue des Colonnes"/>
  </way>
  <way id="34230332" version="25" timestamp="2024-02-24T11:25:08Z" changeset="147850441" uid="6290466" user="benjamintchik">
    <nd ref="25581699"/>
    <nd ref="1542715941"/>
    <nd ref="687065765"/>
    <nd ref="25581668"/>
    <nd ref="2200326870"/>
    <nd ref="2200326877"/>
    <nd ref="25581667"/>
    <tag k="cycleway" v="opposite"/>
    <tag k="highway" v="residential"/>
    <tag k="lit" v="yes"/>
    <tag k="maxspeed" v="30"/>
    <tag k="maxspeed:type" v="FR:zone30"/>
    <tag k="name" v="Rue Paul Lelong"/>
    <tag k="name:etymology:wikidata" v="Q3371673"/>
    <tag k="oneway" v="yes"/>
    <tag k="oneway:bicycle" v="no"/>
    <tag k="service" v="alley"/>
    <tag k="sidewalk:both" v="separate"/>
    <tag k="surface" v="asphalt"/>
  </way>
  <way id="34230336" version="22" timestamp="2025-01-16T22:42:38Z" changeset="161436448" uid="2678738" user="fgouget">
    <nd ref="25275077"/>
    <nd ref="2180084673"/>
    <nd ref="2180084679"/>
    <nd ref="25275074"/>
    <nd ref="2180084684"/>
    <nd ref="2180084693"/>
    <nd ref="8107900891"/>
    <nd ref="6126771593"/>
    <nd ref="2180084700"/>
    <nd ref="11042342819"/>
    <nd ref="11563663280"/>
    <tag k="cycleway:left" v="no"/>
    <tag k="cycleway:right" v="shared_lane"/>
    <tag k="cycleway:right:lane" v="pictogram"/>
    <tag k="highway" v="residential"/>
    <tag k="lit" v="yes"/>
    <tag k="maxspeed" v="30"/>
    <tag k="maxspeed:type" v="FR:zone30"/>
    <tag k="name" v="Rue Vivienne"/>
    <tag k="oneway" v="yes"/>
    <tag k="sidewalk:both" v="separate"/>
    <tag k="smoothness" v="good"/>
    <tag k="surface" v="asphalt"/>
  </way>
  <way id="45785298" version="51" timestamp="2024-02-25T17:24:47Z" changeset="147900866" uid="6290466" user="benjamintchik">
    <nd ref="361104"/>
    <nd ref="4720234396"/>
    <tag k="cycleway:right" v="no"/>
    <tag k="foot" v="no"/>
    <tag k="highway" v="tertiary"/>
    <tag k="lane_markings" v="no"/>
    <tag k="lit" v="yes"/>
    <tag k="maxspeed" v="30"/>
    <tag k="name" v="Rue de Richelieu"/>
    <tag k="name:etymology:wikidata" v="Q26702"/>
    <tag k="name:ru" v="улица Ришелье"/>
    <tag k="oneway" v="yes"/>
    <tag k="sidewalk" v="no"/>
    <tag k="smoothness" v="good"/>
    <tag k="surface" v="asphalt"/>
  </way>
  <way id="54381007" version="20" timestamp="2024-04-06T08:21:52Z" changeset="149643533" uid="6290466" user="benjamintchik">
    <nd ref="25272944"/>
    <nd ref="685287623"/>
    <nd ref="11027928485"/>
    <nd ref="685907720"/>
    <nd ref="25207334"/>
    <tag k="cycleway:left" v="opposite"/>
    <tag k="highway" v="residential"/>
    <tag k="lit" v="yes"/>
    <tag k="maxspeed" v="30"/>
    <tag k="maxspeed:type" v="FR:zone30"/>
    <tag k="name" v="Rue de Gramont"/>
    <tag k="name:etymology:wikidata" v="Q12141867"/>
    <tag k="oneway" v="yes"/>
    <tag k="oneway:bicycle" v="no"/>
    <tag k="sidewalk:both" v="separate"/>
    <tag k="smoothness" v="excellent"/>
    <tag k="source" v="cadastre-dgi-fr source : Direction Générale des Impôts - Cadastre. Mise à jour : 2010"/>
    <tag k="surface" v="asphalt"/>
    <tag k="zone:maxspeed" v="FR:30"/>
  </way>
  <way id="54566955" version="4" timestamp="2021-01-31T14:10:14Z" changeset="98450101" uid="142688" user="Khomille">
    <nd ref="687044717"/>
    <nd ref="687044718"/>
    <nd ref="687044629"/>
    <nd ref="687044623"/>
    <nd ref="687044626"/>
    <nd ref="687044612"/>
    <nd ref="687044656"/>
    <nd ref="687044657"/>
    <nd ref="687044613"/>
    <nd ref="687044614"/>
    <nd ref="687044615"/>
    <nd ref="687044658"/>
    <nd ref="687044659"/>
    <nd ref="687044660"/>
    <nd ref="687044661"/>
    <nd ref="687044662"/>
    <nd ref="687044663"/>
    <nd ref="687044664"/>
    <nd ref="687044665"/>
    <nd ref="687044652"/>
    <nd ref="687044651"/>
    <nd ref="687044655"/>
    <nd ref="687044717"/>
    <tag k="building" v="yes"/>
    <tag k="building:levels" v="5"/>
    <tag k="name" v="Grand Hôtel de Malte Opéra - Astotel"/>
    <tag k="source" v="cadastre-dgi-fr source : Direction Générale des Impôts - Cadastre. Mise à jour : 2010"/>
    <tag k="tourism" v="hotel"/>
  </way>
  <way id="54566973" version="4" timestamp="2023-11-03T03:39:51Z" changeset="143556107" uid="9451067" user="b-jazz-bot">
    <nd ref="687044716"/>
    <nd ref="687044719"/>
    <nd ref="687044717"/>
    <nd ref="687044655"/>
    <nd ref="687044670"/>
    <nd ref="687044672"/>
    <nd ref="687044716"/>
    <tag k="amenity" v="college"/>
    <tag k="building" v="college"/>
    <tag k="name" v="École Nationale des Chartes"/>
    <tag k="ref:UAI" v="0753478Y"/>
    <tag k="short_name" v="ENC"/>
    <tag k="source" v="cadastre-dgi-fr source : Direction Générale des Impôts - Cadastre. Mise à jour : 2010;Etablissements d'enseignement supérieur - 09/2017"/>
    <tag k="website" v="https://www.chartes.psl.eu/"/>
    <tag k="wikidata" v="Q273570"/>
    <tag k="wikipedia" v="en:École Nationale des Chartes"/>
  </way>
  <way id="54572719" version="9" timestamp="2018-09-21T22:10:45Z" changeset="62811811" uid="224440" user="Syl">
    <nd ref="687096813"/>
    <nd ref="687096815"/>
    <nd ref="687096817"/>
    <nd ref="687096765"/>
    <nd ref="687096787"/>
    <nd ref="687096790"/>
    <nd ref="687096793"/>
    <nd ref="687096795"/>
    <nd ref="687096797"/>
    <nd ref="687096800"/>
    <nd ref="687096801"/>
    <nd ref="687096811"/>
    <nd ref="687096803"/>
    <nd ref="687096805"/>
    <nd ref="687096807"/>
    <nd ref="687096809"/>
    <nd ref="687096749"/>
    <nd ref="687096751"/>
    <nd ref="687096753"/>
    <nd ref="687096754"/>
    <nd ref="687096756"/>
    <nd ref="687096758"/>
    <nd ref="687096760"/>
    <nd ref="687096835"/>
    <nd ref="687096910"/>
    <nd ref="687096952"/>
    <nd ref="687096947"/>
    <nd ref="687096851"/>
    <nd ref="687096820"/>
    <nd ref="687096819"/>
    <nd ref="687096813"/>
    <tag k="alt_name" v="Salle Favart"/>
    <tag k="amenity" v="theatre"/>
    <tag k="building" v="yes"/>
    <tag k="building:levels" v="7"/>
    <tag k="heritage" v="2"/>
    <tag k="heritage:operator" v="mhs"/>
    <tag k="mhs:inscription_date" v="1977-12-26"/>
    <tag k="name" v="Théâtre National de l'Opéra Comique"/>
    <tag k="phone" v="+33142444540"/>
    <tag k="ref:mhs" v="PA00086093"/>
    <tag k="source" v="cadastre-dgi-fr source : Direction Générale des Impôts - Cadastre. Mise à jour : 2010"/>
    <tag k="source:heritage" v="Ministère de la Culture - 07/2018"/>
    <tag k="theatre:genre" v="opera"/>
    <tag k="website" v="https://www.opera-comique.com/"/>
    <tag k="wheelchair" v="yes"/>
    <tag k="wikidata" v="Q872222"/>
    <tag k="wikipedia" v="fr:Théâtre national de l'Opéra-Comique"/>
  </way>
  <way id="54572723" version="5" timestamp="2021-03-25T22:27:07Z" changeset="101746091" uid="145231" user="woodpeck_repair">
    <nd ref="687096470"/>
    <nd ref="687096471"/>
    <nd ref="687096514"/>
    <nd ref="687096536"/>
    <nd ref="687096511"/>
    <nd ref="687096510"/>
    <nd ref="687096494"/>
    <nd ref="687096492"/>
    <nd ref="687096470"/>
    <tag k="building" v="yes"/>
    <tag k="building:levels" v="7"/>
    <tag k="name" v="Gramont"/>
    <tag k="source" v="cadastre-dgi-fr source : Direction Générale des Impôts - Cadastre. Mise à jour : 2010"/>
    <tag k="stars" v="4"/>
    <tag k="tourism" v="hotel"/>
    <tag k="website" v="https://www.hotelgramontparis.com/"/>
  </way>
  <way id="54572725" version="14" timestamp="2024-02-25T10:51:52Z" changeset="147884396" uid="6290466" user="benjamintchik">
    <nd ref="25273868"/>
    <nd ref="6373911673"/>
    <nd ref="25273867"/>
    <tag k="highway" v="residential"/>
    <tag k="lit" v="yes"/>
    <tag k="maxspeed" v="30"/>
    <tag k="name" v="Rue Grétry"/>
    <tag k="name:etymology:wikidata" v="Q210962"/>
    <tag k="oneway" v="no"/>
    <tag k="sidewalk:both" v="separate"/>
    <tag k="smoothness" v="good"/>
    <tag k="source" v="cadastre-dgi-fr source : Direction Générale des Impôts - Cadastre. Mise à jour : 2010"/>
    <tag k="surface" v="asphalt"/>
  </way>
  <way id="54572735" version="4" timestamp="2022-10-28T20:02:20Z" changeset="128189757" uid="172867" user="AmiFritz">
    <nd ref="687096733"/>
    <nd ref="687096735"/>
    <nd ref="687096882"/>
    <nd ref="687096892"/>
    <nd ref="687096890"/>
    <nd ref="687096887"/>
    <nd ref="687096883"/>
    <nd ref="687096877"/>
    <nd ref="687096854"/>
    <nd ref="687096885"/>
    <nd ref="687096856"/>
    <nd ref="687096858"/>
    <nd ref="687096872"/>
    <nd ref="687096869"/>
    <nd ref="687096860"/>
    <nd ref="687096862"/>
    <nd ref="687096863"/>
    <nd ref="687096865"/>
    <nd ref="687096717"/>
    <nd ref="687096719"/>
    <nd ref="687096720"/>
    <nd ref="687096710"/>
    <nd ref="687096708"/>
    <nd ref="687096706"/>
    <nd ref="687096726"/>
    <nd ref="687096724"/>
    <nd ref="687096733"/>
    <tag k="building" v="office"/>
    <tag k="building:levels" v="7"/>
    <tag k="contact:city" v="Paris"/>
    <tag k="contact:housenumber" v="87"/>
    <tag k="contact:postcode" v="75002"/>
    <tag k="contact:street" v="Rue de Richelieu"/>
    <tag k="name" v="ALTAREA"/>
    <tag k="source" v="cadastre-dgi-fr source : Direction Générale des Impôts - Cadastre. Mise à jour : 2010"/>
  </way>
  <way id="54630946" version="5" timestamp="2023-01-30T15:35:07Z" changeset="131886235" uid="209796" user="LudovicG">
    <nd ref="687721152"/>
    <nd ref="687721255"/>
    <nd ref="687721092"/>
    <nd ref="687720995"/>
    <nd ref="687721183"/>
    <nd ref="687720992"/>
    <nd ref="687721347"/>
    <nd ref="687721030"/>
    <nd ref="687720934"/>
    <nd ref="687721352"/>
    <nd ref="687720979"/>
    <nd ref="687721064"/>
    <nd ref="687720855"/>
    <nd ref="687720937"/>
    <nd ref="687721369"/>
    <nd ref="687721054"/>
    <nd ref="687720960"/>
    <nd ref="687721152"/>
    <tag k="amenity" v="restaurant"/>
    <tag k="building" v="yes"/>
    <tag k="contact:city" v="Paris"/>
    <tag k="contact:housenumber" v="19"/>
    <tag k="contact:postcode" v="75002"/>
    <tag k="contact:street" v="Rue Vivienne"/>
    <tag k="cuisine" v="regional;basque;spanish"/>
    <tag k="name" v="Select Bourse (Casa Andrès)"/>
    <tag k="outdoor_seating" v="no"/>
    <tag k="smoking" v="no"/>
    <tag k="source" v="cadastre-dgi-fr source : Direction Générale des Impôts - Cadastre. Mise à jour : 2010"/>
  </way>
  <way id="54653642" version="3" timestamp="2015-04-22T02:24:34Z" changeset="30394109" uid="2814778" user="VinceBot">
    <nd ref="687929457"/>
    <nd ref="687929505"/>
    <nd ref="687929444"/>
    <nd ref="687929595"/>
    <nd ref="687929543"/>
    <nd ref="687929678"/>
    <nd ref="687929691"/>
    <nd ref="687929498"/>
    <nd ref="687929457"/>
    <tag k="amenity" v="bar"/>
    <tag k="building" v="yes"/>
    <tag k="building:levels" v="6"/>
    <tag k="name" v="Le Truskel"/>
    <tag k="source" v="cadastre-dgi-fr source : Direction Générale des Impôts - Cadastre. Mise à jour : 2010"/>
  </way>
  <way id="54653652" version="9" timestamp="2022-10-29T07:31:13Z" changeset="128199965" uid="172867" user="AmiFritz">
    <nd ref="687929481"/>
    <nd ref="10137291012"/>
    <nd ref="687929570"/>
    <nd ref="687929713"/>
    <nd ref="687929448"/>
    <nd ref="687929601"/>
    <nd ref="687929544"/>
    <nd ref="687929680"/>
    <nd ref="687929609"/>
    <nd ref="687929676"/>
    <nd ref="687929540"/>
    <nd ref="687929592"/>
    <nd ref="687929475"/>
    <nd ref="687929621"/>
    <nd ref="687929481"/>
    <tag k="building" v="yes"/>
    <tag k="building:levels" v="3"/>
    <tag k="description" v="Ancien siège de la Chambre de Commerce de Paris"/>
    <tag k="heritage" v="3"/>
    <tag k="heritage:operator" v="mhs"/>
    <tag k="landuse" v="commercial"/>
    <tag k="mhs:inscription_date" v="1994"/>
    <tag k="name" v="Chambre de Commerce"/>
    <tag k="office" v="government"/>
    <tag k="ref:mhs" v="PA00133008"/>
    <tag k="source" v="cadastre-dgi-fr source : Direction Générale des Impôts - Cadastre. Mise à jour : 2010"/>
    <tag k="wikidata" v="Q21122638"/>
    <tag k="wikipedia" v="fr:Le Travail, par l'Industrie et le Commerce, enrichit l'Humanité"/>
  </way>
  <way id="54657155" version="16" timestamp="2020-01-07T22:42:28Z" changeset="79313462" uid="1598001" user="OsmIdf">
    <nd ref="687956613"/>
    <nd ref="687956530"/>
    <nd ref="687956605"/>
    <nd ref="687956626"/>
    <nd ref="687956582"/>
    <nd ref="687956570"/>
    <nd ref="687956653"/>
    <nd ref="687956546"/>
    <nd ref="687956620"/>
    <nd ref="687956640"/>
    <nd ref="687956591"/>
    <nd ref="687956611"/>
    <nd ref="687956613"/>
    <tag k="architect" v="Alexandre-Théodore Brongniart"/>
    <tag k="architect:wikidata" v="Q1342645"/>
    <tag k="architect:wikipedia" v="fr:Alexandre-Théodore Brongniart"/>
    <tag k="building" v="yes"/>
    <tag k="heritage" v="3"/>
    <tag k="heritage:operator" v="mhs"/>
    <tag k="historic" v="monument"/>
    <tag k="mhs:inscription_date" v="1987-10-27"/>
    <tag k="name" v="Palais Brongniart"/>
    <tag k="name:de" v="Pariser Börse"/>
    <tag k="name:uk" v="Паризька біржа"/>
    <tag k="old_name" v="Palais de la Bourse"/>
    <tag k="ref:mhs" v="PA00086010"/>
    <tag k="source" v="cadastre-dgi-fr source : Direction Générale des Impôts - Cadastre. Mise à jour : 2010"/>
    <tag k="source:heritage" v="data.gouv.fr:Ministère de la Culture - 04/2015"/>
    <tag k="start_date" v="1825"/>
    <tag k="website" v="https://www.palaisbrongniart.com/"/>
    <tag k="wikidata" v="Q1854102"/>
    <tag k="wikipedia" v="fr:Palais Brongniart"/>
  </way>
  <way id="54661710" version="20" timestamp="2024-08-15T17:26:47Z" changeset="155294126" uid="11963177" user="JeroenvanderGun">
    <nd ref="25207301"/>
    <nd ref="2200327049"/>
    <nd ref="4976677468"/>
    <nd ref="25273885"/>
    <tag k="bicycle:lanes" v="yes|yes|designated"/>
    <tag k="busway:right" v="lane"/>
    <tag k="cycleway:right" v="share_busway"/>
    <tag k="enforcement:operator" v="Police nationale"/>
    <tag k="highway" v="secondary"/>
    <tag k="lanes" v="3"/>
    <tag k="lit" v="yes"/>
    <tag k="maxspeed" v="30"/>
    <tag k="name" v="Place de la Bourse"/>
    <tag k="name:etymology:wikidata" v="Q179076"/>
    <tag k="oneway" v="yes"/>
    <tag k="operator" v="Ville de Paris"/>
    <tag k="operator:authority" v="Maire de Paris après avis du préfet de police"/>
    <tag k="operator:authority:related_law" v="IV de l'article L. 2512-14 du code général des collectivités territoriales"/>
    <tag k="operator:url" v="https://cdn.paris.fr/paris/2020/02/26/5bf469a311d0beb9911e92d113781550.ai"/>
    <tag k="psv:lanes" v="yes|yes|designated"/>
    <tag k="sidewalk:both" v="separate"/>
    <tag k="smoothness" v="good"/>
    <tag k="source" v="cadastre-dgi-fr source : Direction Générale des Impôts - Cadastre. Mise à jour : 2010"/>
    <tag k="surface" v="asphalt"/>
  </way>
  <way id="54661728" version="7" timestamp="2023-03-19T17:14:17Z" changeset="133866347" uid="974272" user="baprischka">
    <nd ref="687993885"/>
    <nd ref="688007027"/>
    <nd ref="688006949"/>
    <nd ref="687994267"/>
    <nd ref="688007030"/>
    <nd ref="687994361"/>
    <nd ref="687994130"/>
    <nd ref="688007025"/>
    <nd ref="687993930"/>
    <nd ref="688006994"/>
    <nd ref="687994220"/>
    <nd ref="687993997"/>
    <nd ref="687993977"/>
    <nd ref="687994344"/>
    <nd ref="687993826"/>
    <nd ref="687994088"/>
    <nd ref="687993885"/>
    <tag k="building" v="commercial"/>
    <tag k="building:levels" v="8"/>
    <tag k="check_date" v="2023-03-19"/>
    <tag k="name" v="Agence France Presse"/>
    <tag k="office" v="press_agency"/>
    <tag k="roof:levels" v="0"/>
    <tag k="short_name" v="AFP"/>
    <tag k="source" v="cadastre-dgi-fr source : Direction Générale des Impôts - Cadastre. Mise à jour : 2010"/>
    <tag k="wikidata" v="Q21122664"/>
  </way>
  <way id="54661742" version="16" timestamp="2025-05-05T08:31:44Z" changeset="165833268" uid="10731965" user="Hydrel">
    <nd ref="687994378"/>
    <nd ref="687994297"/>
    <nd ref="687994063"/>
    <nd ref="687994044"/>
    <nd ref="687993796"/>
    <nd ref="687993895"/>
    <nd ref="687994277"/>
    <nd ref="687994369"/>
    <nd ref="687994139"/>
    <nd ref="687994230"/>
    <nd ref="687994006"/>
    <nd ref="687993986"/>
    <nd ref="687994352"/>
    <nd ref="687993831"/>
    <nd ref="687994377"/>
    <nd ref="687994209"/>
    <nd ref="687994311"/>
    <nd ref="687994078"/>
    <nd ref="687994178"/>
    <nd ref="687993939"/>
    <nd ref="687993911"/>
    <nd ref="687994294"/>
    <nd ref="687993776"/>
    <nd ref="687994155"/>
    <nd ref="687994252"/>
    <nd ref="687994021"/>
    <nd ref="687994117"/>
    <nd ref="687993870"/>
    <nd ref="687993851"/>
    <nd ref="687994223"/>
    <nd ref="687994329"/>
    <nd ref="687994092"/>
    <nd ref="687994190"/>
    <nd ref="687993959"/>
    <nd ref="687994060"/>
    <nd ref="687993815"/>
    <nd ref="687993791"/>
    <nd ref="687994171"/>
    <nd ref="687993946"/>
    <nd ref="687994270"/>
    <nd ref="687994040"/>
    <nd ref="687994134"/>
    <nd ref="687993889"/>
    <nd ref="687994000"/>
    <nd ref="687994363"/>
    <nd ref="687994347"/>
    <nd ref="687994112"/>
    <nd ref="687994206"/>
    <nd ref="687993980"/>
    <nd ref="687994074"/>
    <nd ref="687993829"/>
    <nd ref="687993932"/>
    <nd ref="687994306"/>
    <nd ref="687994290"/>
    <nd ref="687994055"/>
    <nd ref="687994150"/>
    <nd ref="687993905"/>
    <nd ref="687994016"/>
    <nd ref="687993773"/>
    <nd ref="687993866"/>
    <nd ref="687994247"/>
    <nd ref="687993972"/>
    <nd ref="687994339"/>
    <nd ref="687994342"/>
    <nd ref="687993823"/>
    <nd ref="687994200"/>
    <nd ref="687994302"/>
    <nd ref="687994069"/>
    <nd ref="687994163"/>
    <nd ref="687993923"/>
    <nd ref="687993902"/>
    <nd ref="687994284"/>
    <nd ref="687994375"/>
    <nd ref="687994145"/>
    <nd ref="687994237"/>
    <nd ref="687994012"/>
    <nd ref="687994105"/>
    <nd ref="687993859"/>
    <nd ref="687993842"/>
    <nd ref="687994216"/>
    <nd ref="687994317"/>
    <nd ref="687994083"/>
    <nd ref="687994184"/>
    <nd ref="687993948"/>
    <nd ref="687994052"/>
    <nd ref="687994027"/>
    <nd ref="687994123"/>
    <nd ref="687993876"/>
    <nd ref="687994373"/>
    <nd ref="687994378"/>
    <tag k="amenity" v="place_of_worship"/>
    <tag k="basilica" v="minor"/>
    <tag k="building" v="church"/>
    <tag k="building:levels" v="5"/>
    <tag k="check_date" v="2025-05-05"/>
    <tag k="denomination" v="catholic"/>
    <tag k="fax" v="+33149270320"/>
    <tag k="heritage" v="2"/>
    <tag k="heritage:operator" v="mhs"/>
    <tag k="mhs:inscription_date" v="1972/05/12"/>
    <tag k="name" v="Basilique Notre-Dame-des-Victoires"/>
    <tag k="organ:builder:tribune" v="Lesclop; Louis-Alexandre Régnier"/>
    <tag k="organ:capacity" v="1"/>
    <tag k="organ:listed_status" v="yes"/>
    <tag k="organ:type:FR" v="tribune"/>
    <tag k="phone" v="+33142609047"/>
    <tag k="ref:FR:CEF" v="75102_01"/>
    <tag k="ref:mhs" v="PA00086017"/>
    <tag k="religion" v="christian"/>
    <tag k="service_times" v="Su 11:00, 18:00; Sa 11:00, 18:00; Mo-Fr 12:15, 19:00, Th 14:45"/>
    <tag k="source" v="cadastre-dgi-fr source : Direction Générale des Impôts - Cadastre. Mise à jour : 2010"/>
    <tag k="website" v="https://www.notredamedesvictoires.com/"/>
    <tag k="wheelchair" v="no"/>
    <tag k="wikidata" v="Q782969"/>
    <tag k="wikipedia" v="fr:Basilique Notre-Dame-des-Victoires de Paris"/>
  </way>
  <way id="54661744" version="8" timestamp="2025-05-17T18:04:38Z" changeset="166403432" uid="10731965" user="Hydrel">
    <nd ref="687994326"/>
    <nd ref="688006988"/>
    <nd ref="687994318"/>
    <nd ref="687993949"/>
    <nd ref="687993813"/>
    <nd ref="687994326"/>
    <tag k="building" v="yes"/>
    <tag k="check_date" v="2025-05-17"/>
    <tag k="contact:city" v="Paris"/>
    <tag k="contact:fax" v="+33 1 42 60 05 39"/>
    <tag k="contact:housenumber" v="3"/>
    <tag k="contact:phone" v="+33 1 42 61 53 90"/>
    <tag k="contact:postcode" v="75002"/>
    <tag k="contact:street" v="Rue de la Banque"/>
    <tag k="contact:website" v="https://www.timhotel.com/"/>
    <tag k="description" v="3 Stars hotel"/>
    <tag k="name" v="Timhotel Palais Royal"/>
    <tag k="operator" v="Timhotel"/>
    <tag k="source" v="cadastre-dgi-fr source : Direction Générale des Impôts - Cadastre. Mise à jour : 2010"/>
    <tag k="stars" v="3"/>
    <tag k="toilets:wheelchair" v="no"/>
    <tag k="tourism" v="hotel"/>
    <tag k="wheelchair" v="no"/>
  </way>
  <way id="54734674" version="7" timestamp="2024-08-30T23:14:43Z" changeset="155994879" uid="18933775" user="TOSMgo">
    <nd ref="689212231"/>
    <nd ref="689212262"/>
    <nd ref="689212458"/>
    <nd ref="689212616"/>
    <nd ref="689212326"/>
    <nd ref="689212526"/>
    <nd ref="689212239"/>
    <nd ref="689346280"/>
    <nd ref="689212424"/>
    <nd ref="689346190"/>
    <nd ref="689212231"/>
    <tag k="building" v="apartments"/>
    <tag k="building:levels" v="6"/>
    <tag k="heritage" v="2"/>
    <tag k="heritage:operator" v="mhs"/>
    <tag k="mhs:inscription_date" v="1962"/>
    <tag k="name" v="Hôtel Cornette"/>
    <tag k="ref:mhs" v="PA00086025"/>
    <tag k="source" v="cadastre-dgi-fr source : Direction Générale des Impôts - Cadastre. Mise à jour : 2010"/>
    <tag k="source:heritage" v="data.gouv.fr:Ministère de la Culture - 04/2015"/>
    <tag k="wikidata" v="Q2366134"/>
    <tag k="wikipedia" v="fr:Hôtel Cornette"/>
  </way>
  <way id="54734684" version="6" timestamp="2024-08-30T23:14:44Z" changeset="155994879" uid="18933775" user="TOSMgo">
    <nd ref="689212526"/>
    <nd ref="689212271"/>
    <nd ref="689212468"/>
    <nd ref="689212625"/>
    <nd ref="689212337"/>
    <nd ref="689212534"/>
    <nd ref="689346827"/>
    <nd ref="689212239"/>
    <nd ref="689212526"/>
    <tag k="building" v="apartments"/>
    <tag k="building:levels" v="5"/>
    <tag k="heritage" v="2"/>
    <tag k="heritage:operator" v="mhs"/>
    <tag k="name" v="Hôtel Gigault de La Salle"/>
    <tag k="ref:mhs" v="PA00086027"/>
    <tag k="source" v="cadastre-dgi-fr source : Direction Générale des Impôts - Cadastre. Mise à jour : 2010"/>
    <tag k="wikidata" v="Q3145506"/>
    <tag k="wikipedia" v="fr:Hôtel Gigault de La Salle"/>
  </way>
  <way id="54734689" version="7" timestamp="2024-08-30T23:14:43Z" changeset="155994879" uid="18933775" user="TOSMgo">
    <nd ref="689212337"/>
    <nd ref="689212430"/>
    <nd ref="689212589"/>
    <nd ref="689212294"/>
    <nd ref="689212510"/>
    <nd ref="689346476"/>
    <nd ref="689212534"/>
    <nd ref="689212337"/>
    <tag k="building" v="apartments"/>
    <tag k="building:levels" v="5"/>
    <tag k="heritage" v="3"/>
    <tag k="heritage:operator" v="mhs"/>
    <tag k="mhs:inscription_date" v="1926"/>
    <tag k="name" v="Hôtel Pellé de Montaleau"/>
    <tag k="ref:mhs" v="PA00086033"/>
    <tag k="source" v="cadastre-dgi-fr source : Direction Générale des Impôts - Cadastre. Mise à jour : 2010"/>
    <tag k="source:heritage" v="data.gouv.fr:Ministère de la Culture - 04/2015"/>
    <tag k="wikidata" v="Q3145623"/>
    <tag k="wikipedia" v="fr:Hôtel Pellé de Montaleau"/>
  </way>
  <way id="54734692" version="7" timestamp="2023-07-27T09:11:28Z" changeset="139075746" uid="19752758" user="Max_C">
    <nd ref="689212573"/>
    <nd ref="689212446"/>
    <nd ref="689212606"/>
    <nd ref="11070833903"/>
    <nd ref="689212524"/>
    <nd ref="689212235"/>
    <nd ref="689346091"/>
    <nd ref="689346713"/>
    <nd ref="689212422"/>
    <nd ref="689212581"/>
    <nd ref="689212286"/>
    <nd ref="689212497"/>
    <nd ref="689212487"/>
    <nd ref="689212280"/>
    <nd ref="689212573"/>
    <tag k="building" v="yes"/>
    <tag k="building:levels" v="5"/>
    <tag k="heritage" v="2"/>
    <tag k="heritage:operator" v="mhs"/>
    <tag k="name" v="Hôtel de Metz de Rosnay"/>
    <tag k="ref:mhs" v="PA00086029"/>
    <tag k="source" v="cadastre-dgi-fr source : Direction Générale des Impôts - Cadastre. Mise à jour : 2010"/>
    <tag k="wikidata" v="Q3145900"/>
    <tag k="wikipedia" v="fr:Hôtel de Metz de Rosnay"/>
  </way>
  <way id="54734696" version="6" timestamp="2023-02-04T17:13:46Z" changeset="132083529" uid="5670825" user="Christophe Raverdy">
    <nd ref="689212294"/>
    <nd ref="689212411"/>
    <nd ref="689212573"/>
    <nd ref="689212280"/>
    <nd ref="689212487"/>
    <nd ref="689212643"/>
    <nd ref="689212354"/>
    <nd ref="689212547"/>
    <nd ref="689347016"/>
    <nd ref="689212510"/>
    <nd ref="689212294"/>
    <tag k="building" v="apartments"/>
    <tag k="heritage" v="2"/>
    <tag k="heritage:operator" v="mhs"/>
    <tag k="mhs:inscription_date" v="1962"/>
    <tag k="name" v="Hôtel de Prévenchères"/>
    <tag k="ref:mhs" v="PA00086034"/>
    <tag k="source" v="cadastre-dgi-fr source : Direction Générale des Impôts - Cadastre. Mise à jour : 2010"/>
    <tag k="source:heritage" v="data.gouv.fr:Ministère de la Culture - 04/2015"/>
    <tag k="wikidata" v="Q3145935"/>
    <tag k="wikipedia" v="fr:Hôtel de Prévenchères"/>
  </way>
  <way id="71122990" version="25" timestamp="2024-09-06T15:31:32Z" changeset="156281094" uid="7512839" user="Benoît C MdP">
    <nd ref="25581141"/>
    <nd ref="2200326801"/>
    <nd ref="6111080510"/>
    <nd ref="15643098"/>
    <tag k="cycleway:left" v="opposite"/>
    <tag k="cycleway:right" v="no"/>
    <tag k="highway" v="residential"/>
    <tag k="lit" v="yes"/>
    <tag k="maxspeed" v="30"/>
    <tag k="maxspeed:type" v="sign"/>
    <tag k="name" v="Rue des Petits Champs"/>
    <tag k="name:etymology:wikidata" v="Q188869"/>
    <tag k="oneway" v="yes"/>
    <tag k="oneway:bicycle" v="no"/>
    <tag k="parking:both" v="no"/>
    <tag k="sidewalk:both" v="separate"/>
    <tag k="smoothness" v="good"/>
    <tag k="surface" v="asphalt"/>
  </way>
  <way id="71122992" version="39" timestamp="2024-03-27T10:18:38Z" changeset="149216608" uid="2678738" user="fgouget">
    <nd ref="25273882"/>
    <nd ref="687044752"/>
    <nd ref="5084495749"/>
    <nd ref="25207331"/>
    <tag k="cycleway:right" v="no"/>
    <tag k="highway" v="tertiary"/>
    <tag k="lanes" v="2"/>
    <tag k="lanes:bus" v="1"/>
    <tag k="lit" v="yes"/>
    <tag k="maxspeed" v="30"/>
    <tag k="maxspeed:type" v="FR:zone30"/>
    <tag k="name" v="Rue de Richelieu"/>
    <tag k="name:etymology:wikidata" v="Q26702"/>
    <tag k="name:ru" v="улица Ришелье"/>
    <tag k="oneway" v="yes"/>
    <tag k="sidewalk:left" v="separate"/>
    <tag k="sidewalk:right" v="yes"/>
    <tag k="smoothness" v="good"/>
    <tag k="source:maxspeed" v="FR:zone30"/>
    <tag k="surface" v="asphalt"/>
    <tag k="zone:maxspeed" v="FR:30"/>
  </way>
  <way id="71122993" version="14" timestamp="2025-01-24T14:11:07Z" changeset="161714072" uid="7512839" user="Benoît C MdP">
    <nd ref="25273884"/>
    <nd ref="12529386660"/>
    <nd ref="2200327083"/>
    <nd ref="2200327117"/>
    <nd ref="25275079"/>
    <tag k="cycleway:left" v="opposite"/>
    <tag k="highway" v="residential"/>
    <tag k="lit" v="yes"/>
    <tag k="maxspeed" v="30"/>
    <tag k="maxspeed:type" v="FR:zone30"/>
    <tag k="name" v="Rue des Colonnes"/>
    <tag k="name:etymology:wikidata" v="Q4817"/>
    <tag k="oneway" v="yes"/>
    <tag k="oneway:bicycle" v="no"/>
    <tag k="sidewalk:both" v="separate"/>
    <tag k="smoothness" v="good"/>
    <tag k="surface" v="asphalt"/>
  </way>
  <way id="112885547" version="10" timestamp="2024-02-14T21:39:59Z" changeset="147467347" uid="6290466" user="benjamintchik">
    <nd ref="329118671"/>
    <nd ref="2200327353"/>
    <nd ref="250217117"/>
    <tag k="highway" v="residential"/>
    <tag k="lit" v="yes"/>
    <tag k="maxspeed" v="30"/>
    <tag k="maxspeed:type" v="FR:zone30"/>
    <tag k="name" v="Place de la Bourse"/>
    <tag k="name:etymology:wikidata" v="Q179076"/>
    <tag k="oneway" v="no"/>
    <tag k="sidewalk:both" v="separate"/>
    <tag k="smoothness" v="good"/>
    <tag k="surface" v="asphalt"/>
  </way>
  <way id="123487826" version="19" timestamp="2024-08-15T17:26:47Z" changeset="155294126" uid="11963177" user="JeroenvanderGun">
    <nd ref="25273885"/>
    <nd ref="6336003527"/>
    <nd ref="25207303"/>
    <nd ref="2200326996"/>
    <nd ref="11030696419"/>
    <tag k="bicycle:lanes" v="yes|yes|designated"/>
    <tag k="busway:right" v="lane"/>
    <tag k="cycleway:right" v="share_busway"/>
    <tag k="enforcement:operator" v="Police nationale"/>
    <tag k="highway" v="secondary"/>
    <tag k="lanes" v="3"/>
    <tag k="lit" v="yes"/>
    <tag k="maxspeed" v="30"/>
    <tag k="name" v="Place de la Bourse"/>
    <tag k="name:etymology:wikidata" v="Q179076"/>
    <tag k="oneway" v="yes"/>
    <tag k="operator" v="Ville de Paris"/>
    <tag k="operator:authority" v="Maire de Paris après avis du préfet de police"/>
    <tag k="operator:authority:related_law" v="IV de l'article L. 2512-14 du code général des collectivités territoriales"/>
    <tag k="operator:url" v="https://cdn.paris.fr/paris/2020/02/26/5bf469a311d0beb9911e92d113781550.ai"/>
    <tag k="psv:lanes" v="yes|yes|designated"/>
    <tag k="sidewalk:both" v="separate"/>
    <tag k="smoothness" v="good"/>
    <tag k="source" v="cadastre-dgi-fr source : Direction Générale des Impôts - Cadastre. Mise à jour : 2010"/>
    <tag k="surface" v="asphalt"/>
  </way>
  <way id="123487843" version="44" timestamp="2024-11-14T21:33:29Z" changeset="159147361" uid="21820374" user="VLD287">
    <nd ref="25581144"/>
    <nd ref="12341402135"/>
    <nd ref="25581143"/>
    <tag k="cycleway:both" v="no"/>
    <tag k="highway" v="residential"/>
    <tag k="lit" v="yes"/>
    <tag k="maxspeed" v="30"/>
    <tag k="name" v="Rue des Petits Pères"/>
    <tag k="name:etymology:wikidata" v="Q60965652"/>
    <tag k="name:ru" v="улица Пети Пэр"/>
    <tag k="oneway" v="yes"/>
    <tag k="oneway:bicycle" v="no"/>
    <tag k="sidewalk:both" v="separate"/>
    <tag k="sidewalk:both:surface" v="paving_stones"/>
    <tag k="smoothness" v="good"/>
    <tag k="source" v="cadastre-dgi-fr source : Direction Générale des Impôts - Cadastre. Mise à jour : 2010"/>
    <tag k="surface" v="asphalt"/>
  </way>
  <way id="164425293" version="24" timestamp="2024-07-22T18:22:17Z" changeset="154275756" uid="2252690" user="gourlaysama">
    <nd ref="25581660"/>
    <nd ref="2200326894"/>
    <nd ref="253963376"/>
    <nd ref="5501950634"/>
    <nd ref="2200326802"/>
    <nd ref="25581141"/>
    <tag k="cycleway:both" v="no"/>
    <tag k="highway" v="residential"/>
    <tag k="lit" v="yes"/>
    <tag k="maxspeed" v="30"/>
    <tag k="name" v="Rue Vivienne"/>
    <tag k="name:etymology" v="Louis Vivien, seigneur de Saint-Marc (ou Saint-Mard, commune de Seine-et-Marne) échevin de Paris (1599)."/>
    <tag k="oneway" v="yes"/>
    <tag k="oneway:bicycle" v="no"/>
    <tag k="parking:lane:left" v="no"/>
    <tag k="parking:lane:right" v="parallel"/>
    <tag k="parking:lane:right:parallel" v="painted_area_only"/>
    <tag k="sidewalk:both" v="separate"/>
    <tag k="smoothness" v="good"/>
    <tag k="source:maxspeed" v="FR:zone30"/>
    <tag k="surface" v="asphalt"/>
    <tag k="zone:maxspeed" v="FR:30"/>
  </way>
  <way id="173324822" version="39" timestamp="2024-07-20T18:18:49Z" changeset="154190854" uid="2252690" user="gourlaysama">
    <nd ref="687994166"/>
    <nd ref="2468325463"/>
    <nd ref="687993927"/>
    <nd ref="1841668616"/>
    <nd ref="2200326790"/>
    <nd ref="25581144"/>
    <tag k="cycleway:both" v="no"/>
    <tag k="highway" v="residential"/>
    <tag k="lit" v="yes"/>
    <tag k="maxspeed" v="30"/>
    <tag k="maxspeed:type" v="FR:zone30"/>
    <tag k="name" v="Rue des Petits Pères"/>
    <tag k="name:etymology:wikidata" v="Q60965652"/>
    <tag k="name:ru" v="улица Пети Пэр"/>
    <tag k="oneway" v="yes"/>
    <tag k="oneway:bicycle" v="no"/>
    <tag k="service" v="alley"/>
    <tag k="sidewalk:left" v="separate"/>
    <tag k="sidewalk:right" v="yes"/>
    <tag k="source" v="cadastre-dgi-fr source : Direction Générale des Impôts - Cadastre. Mise à jour : 2010"/>
    <tag k="surface" v="paving_stones"/>
  </way>
  <way id="187019915" version="17" timestamp="2025-01-24T14:11:07Z" changeset="161714072" uid="7512839" user="Benoît C MdP">
    <nd ref="25207334"/>
    <nd ref="12529386654"/>
    <nd ref="2200327274"/>
    <nd ref="11027969447"/>
    <nd ref="6373911674"/>
    <nd ref="25273867"/>
    <nd ref="687096618"/>
    <nd ref="6206597879"/>
    <tag k="cycleway:left" v="opposite"/>
    <tag k="highway" v="residential"/>
    <tag k="lit" v="yes"/>
    <tag k="maxspeed" v="30"/>
    <tag k="maxspeed:type" v="FR:zone30"/>
    <tag k="name" v="Rue de Gramont"/>
    <tag k="name:etymology:wikidata" v="Q12141867"/>
    <tag k="oneway" v="yes"/>
    <tag k="oneway:bicycle" v="no"/>
    <tag k="sidewalk:both" v="separate"/>
    <tag k="smoothness" v="good"/>
    <tag k="source" v="cadastre-dgi-fr source : Direction Générale des Impôts - Cadastre. Mise à jour : 2010"/>
    <tag k="surface" v="asphalt"/>
  </way>
  <way id="187019916" version="27" timestamp="2024-08-15T17:26:47Z" changeset="155294126" uid="11963177" user="JeroenvanderGun">
    <nd ref="25207334"/>
    <nd ref="2200327156"/>
    <nd ref="6637870685"/>
    <nd ref="4434323408"/>
    <nd ref="4976677469"/>
    <nd ref="9127269533"/>
    <nd ref="2200327086"/>
    <nd ref="470198"/>
    <tag k="alt_name" v="Rue du 4 Septembre"/>
    <tag k="bicycle:lanes" v="yes|yes|designated"/>
    <tag k="busway:right" v="lane"/>
    <tag k="cycleway:left" v="no"/>
    <tag k="cycleway:right" v="share_busway"/>
    <tag k="enforcement:operator" v="Police nationale"/>
    <tag k="highway" v="secondary"/>
    <tag k="lanes" v="3"/>
    <tag k="lit" v="yes"/>
    <tag k="maxspeed" v="30"/>
    <tag k="name" v="Rue du Quatre Septembre"/>
    <tag k="name:etymology:wikidata" v="Q3406432"/>
    <tag k="oneway" v="yes"/>
    <tag k="operator" v="Ville de Paris"/>
    <tag k="operator:authority" v="Maire de Paris après avis du préfet de police"/>
    <tag k="operator:authority:related_law" v="IV de l'article L. 2512-14 du code général des collectivités territoriales"/>
    <tag k="operator:url" v="https://cdn.paris.fr/paris/2020/02/26/5bf469a311d0beb9911e92d113781550.ai"/>
    <tag k="psv:lanes" v="yes|yes|designated"/>
    <tag k="sidewalk:both" v="separate"/>
    <tag k="smoothness" v="good"/>
    <tag k="surface" v="asphalt"/>
  </way>
  <way id="194608795" version="22" timestamp="2025-05-15T16:12:17Z" changeset="166312785" uid="21293345" user="Léo_VdP">
    <nd ref="470198"/>
    <nd ref="12840324096"/>
    <nd ref="25273884"/>
    <nd ref="6957475955"/>
    <nd ref="2200327070"/>
    <nd ref="25207301"/>
    <tag k="alt_name" v="Rue du 4 Septembre"/>
    <tag k="bicycle:lanes" v="yes|yes|designated"/>
    <tag k="busway:right" v="lane"/>
    <tag k="cycleway:right" v="share_busway"/>
    <tag k="enforcement:operator" v="Police nationale"/>
    <tag k="highway" v="secondary"/>
    <tag k="lanes" v="3"/>
    <tag k="lit" v="yes"/>
    <tag k="maxspeed" v="30"/>
    <tag k="name" v="Rue du Quatre Septembre"/>
    <tag k="oneway" v="yes"/>
    <tag k="operator" v="Ville de Paris"/>
    <tag k="operator:authority" v="Maire de Paris après avis du préfet de police"/>
    <tag k="operator:authority:related_law" v="IV de l'article L. 2512-14 du code général des collectivités territoriales"/>
    <tag k="operator:url" v="https://cdn.paris.fr/paris/2020/02/26/5bf469a311d0beb9911e92d113781550.ai"/>
    <tag k="psv:lanes" v="yes|yes|designated"/>
    <tag k="sidewalk:both" v="separate"/>
    <tag k="smoothness" v="good"/>
    <tag k="surface" v="asphalt"/>
  </way>
  <way id="194608796" version="44" timestamp="2024-11-14T21:53:38Z" changeset="159147937" uid="21820374" user="VLD287">
    <nd ref="470198"/>
    <nd ref="6208261661"/>
    <nd ref="11256203251"/>
    <nd ref="11256203249"/>
    <nd ref="2200327069"/>
    <nd ref="11256203248"/>
    <nd ref="2200327025"/>
    <nd ref="11028038040"/>
    <nd ref="25273883"/>
    <tag k="busway:right" v="lane"/>
    <tag k="cycleway:right" v="share_busway"/>
    <tag k="highway" v="tertiary"/>
    <tag k="lanes" v="2"/>
    <tag k="lanes:bus" v="1"/>
    <tag k="lit" v="yes"/>
    <tag k="maxspeed" v="30"/>
    <tag k="maxspeed:type" v="FR:zone30"/>
    <tag k="name" v="Rue de Richelieu"/>
    <tag k="name:etymology:wikidata" v="Q26702"/>
    <tag k="name:ru" v="улица Ришелье"/>
    <tag k="oneway" v="yes"/>
    <tag k="sidewalk" v="separate"/>
    <tag k="smoothness" v="good"/>
    <tag k="source:maxspeed" v="FR:zone30"/>
    <tag k="surface" v="asphalt"/>
    <tag k="zone:maxspeed" v="FR:30"/>
  </way>
  <way id="321632661" version="17" timestamp="2025-01-24T14:11:07Z" changeset="161714072" uid="7512839" user="Benoît C MdP">
    <nd ref="25207301"/>
    <nd ref="12529386662"/>
    <nd ref="687720866"/>
    <nd ref="2200327093"/>
    <nd ref="25275080"/>
    <nd ref="6208215917"/>
    <nd ref="6208216448"/>
    <nd ref="250217117"/>
    <nd ref="2200327357"/>
    <nd ref="25275077"/>
    <tag k="cycleway:left" v="lane"/>
    <tag k="cycleway:left:lane" v="exclusive"/>
    <tag k="cycleway:left:oneway" v="-1"/>
    <tag k="cycleway:right" v="no"/>
    <tag k="highway" v="residential"/>
    <tag k="lit" v="yes"/>
    <tag k="maxspeed" v="30"/>
    <tag k="maxspeed:type" v="FR:zone30"/>
    <tag k="name" v="Rue Vivienne"/>
    <tag k="name:etymology" v="Louis Vivien, seigneur de Saint-Marc (ou Saint-Mard, commune de Seine-et-Marne) échevin de Paris (1599)."/>
    <tag k="oneway" v="yes"/>
    <tag k="oneway:bicycle" v="no"/>
    <tag k="sidewalk:both" v="separate"/>
    <tag k="smoothness" v="good"/>
    <tag k="surface" v="asphalt"/>
  </way>
  <way id="321632865" version="15" timestamp="2024-02-25T17:24:55Z" changeset="147900866" uid="6290466" user="benjamintchik">
    <nd ref="25275077"/>
    <nd ref="2200327364"/>
    <nd ref="25275076"/>
    <nd ref="6373934277"/>
    <nd ref="2180084675"/>
    <tag k="cycleway:left" v="opposite"/>
    <tag k="highway" v="residential"/>
    <tag k="lit" v="yes"/>
    <tag k="maxspeed" v="30"/>
    <tag k="maxspeed:type" v="FR:zone30"/>
    <tag k="name" v="Rue Feydeau"/>
    <tag k="name:etymology:wikidata" v="Q49465"/>
    <tag k="oneway" v="yes"/>
    <tag k="oneway:bicycle" v="no"/>
    <tag k="service" v="alley"/>
    <tag k="sidewalk:both" v="separate"/>
    <tag k="surface" v="asphalt"/>
  </way>
  <way id="362033163" version="14" timestamp="2025-03-31T10:22:05Z" changeset="164322988" uid="6999839" user="millerstephen">
    <nd ref="26039856"/>
    <nd ref="2180084677"/>
    <nd ref="253966973"/>
    <nd ref="5078322425"/>
    <nd ref="2180084689"/>
    <nd ref="26039986"/>
    <nd ref="6553629977"/>
    <nd ref="1821304263"/>
    <nd ref="11042342816"/>
    <nd ref="25207313"/>
    <tag k="bicycle:backward" v="use_sidepath"/>
    <tag k="busway:right" v="lane"/>
    <tag k="cycleway:right" v="share_busway"/>
    <tag k="highway" v="secondary"/>
    <tag k="lanes" v="2"/>
    <tag k="lit" v="yes"/>
    <tag k="maxspeed" v="30"/>
    <tag k="name" v="Rue Montmartre"/>
    <tag k="name:etymology:wikidata" v="Q186115"/>
    <tag k="oneway" v="yes"/>
    <tag k="sidewalk:both" v="separate"/>
    <tag k="smoothness" v="good"/>
    <tag k="surface" v="asphalt"/>
  </way>
  <way id="478835107" version="20" timestamp="2024-08-15T17:26:47Z" changeset="155294126" uid="11963177" user="JeroenvanderGun">
    <nd ref="7572331127"/>
    <nd ref="8515081859"/>
    <nd ref="8515081858"/>
    <nd ref="4720234393"/>
    <nd ref="6633889529"/>
    <nd ref="8107850870"/>
    <nd ref="4720234394"/>
    <tag k="cycleway:right" v="no"/>
    <tag k="enforcement:operator" v="Police nationale"/>
    <tag k="highway" v="primary_link"/>
    <tag k="lit" v="yes"/>
    <tag k="maxspeed" v="30"/>
    <tag k="name" v="Boulevard des Italiens"/>
    <tag k="name:etymology:wikidata" v="Q1581237"/>
    <tag k="oneway" v="yes"/>
    <tag k="operator" v="Ville de Paris"/>
    <tag k="operator:authority" v="Maire de Paris après avis du préfet de police"/>
    <tag k="operator:authority:related_law" v="IV de l'article L. 2512-14 du code général des collectivités territoriales"/>
    <tag k="operator:url" v="https://cdn.paris.fr/paris/2020/02/26/5bf469a311d0beb9911e92d113781550.ai"/>
    <tag k="smoothness" v="good"/>
    <tag k="surface" v="asphalt"/>
  </way>
  <way id="478835109" version="23" timestamp="2025-01-30T10:16:16Z" changeset="161931029" uid="7512839" user="Benoît C MdP">
    <nd ref="11768662212"/>
    <nd ref="7572331127"/>
    <nd ref="8107850869"/>
    <nd ref="11044296773"/>
    <nd ref="4720234396"/>
    <tag k="cycleway:right" v="no"/>
    <tag k="enforcement:operator" v="Police nationale"/>
    <tag k="highway" v="primary"/>
    <tag k="lanes" v="2"/>
    <tag k="lit" v="yes"/>
    <tag k="maxspeed" v="30"/>
    <tag k="name" v="Boulevard des Italiens"/>
    <tag k="name:etymology:wikidata" v="Q1581237"/>
    <tag k="oneway" v="yes"/>
    <tag k="operator" v="Ville de Paris"/>
    <tag k="operator:authority" v="Maire de Paris après avis du préfet de police"/>
    <tag k="operator:authority:related_law" v="IV de l'article L. 2512-14 du code général des collectivités territoriales"/>
    <tag k="operator:url" v="https://cdn.paris.fr/paris/2020/02/26/5bf469a311d0beb9911e92d113781550.ai"/>
    <tag k="sidewalk:right" v="separate"/>
    <tag k="smoothness" v="good"/>
    <tag k="surface" v="asphalt"/>
  </way>
  <way id="478835110" version="41" timestamp="2025-01-24T14:11:07Z" changeset="161714072" uid="7512839" user="Benoît C MdP">
    <nd ref="4720234396"/>
    <nd ref="12420690646"/>
    <nd ref="9549134622"/>
    <nd ref="1548644145"/>
    <nd ref="7184871425"/>
    <nd ref="4705447674"/>
    <nd ref="253966981"/>
    <nd ref="2180084694"/>
    <nd ref="15643085"/>
    <nd ref="2180084686"/>
    <nd ref="25273879"/>
    <nd ref="2180084685"/>
    <nd ref="5084495750"/>
    <nd ref="2200327363"/>
    <nd ref="25273888"/>
    <nd ref="25273880"/>
    <nd ref="6208258814"/>
    <nd ref="25273881"/>
    <nd ref="9127269534"/>
    <nd ref="2200327090"/>
    <nd ref="12529386659"/>
    <nd ref="470198"/>
    <tag k="busway:right" v="lane"/>
    <tag k="cycleway:right" v="share_busway"/>
    <tag k="highway" v="tertiary"/>
    <tag k="lanes" v="2"/>
    <tag k="lanes:bus" v="1"/>
    <tag k="lit" v="yes"/>
    <tag k="maxspeed" v="30"/>
    <tag k="name" v="Rue de Richelieu"/>
    <tag k="name:etymology:wikidata" v="Q26702"/>
    <tag k="name:ru" v="улица Ришелье"/>
    <tag k="oneway" v="yes"/>
    <tag k="sidewalk:both" v="separate"/>
    <tag k="smoothness" v="good"/>
    <tag k="source:maxspeed" v="FR:zone30"/>
    <tag k="surface" v="asphalt"/>
  </way>
  <way id="478835111" version="19" timestamp="2025-04-08T10:00:05Z" changeset="164670333" uid="2678738" user="fgouget">
    <nd ref="8107850868"/>
    <nd ref="11044296778"/>
    <nd ref="361104"/>
    <tag k="busway:right" v="lane"/>
    <tag k="cycleway:right" v="separate"/>
    <tag k="dual_carriageway" v="yes"/>
    <tag k="enforcement:operator" v="Police nationale"/>
    <tag k="highway" v="primary"/>
    <tag k="lanes" v="2"/>
    <tag k="lit" v="yes"/>
    <tag k="maxspeed" v="30"/>
    <tag k="name" v="Boulevard Montmartre"/>
    <tag k="name:etymology:wikidata" v="Q3398926"/>
    <tag k="oneway" v="yes"/>
    <tag k="operator" v="Ville de Paris"/>
    <tag k="operator:authority" v="Maire de Paris après avis du préfet de police"/>
    <tag k="operator:authority:related_law" v="IV de l'article L. 2512-14 du code général des collectivités territoriales"/>
    <tag k="operator:url" v="https://cdn.paris.fr/paris/2020/02/26/5bf469a311d0beb9911e92d113781550.ai"/>
    <tag k="psv:lanes" v="yes|designated"/>
    <tag k="sidewalk:right" v="separate"/>
    <tag k="smoothness" v="good"/>
    <tag k="surface" v="asphalt"/>
  </way>
  <way id="478835112" version="21" timestamp="2025-04-08T09:59:48Z" changeset="164670333" uid="2678738" user="fgouget">
    <nd ref="4720234396"/>
    <nd ref="8515081857"/>
    <nd ref="8107850867"/>
    <nd ref="8107850868"/>
    <tag k="cycleway:right" v="separate"/>
    <tag k="dual_carriageway" v="yes"/>
    <tag k="enforcement:operator" v="Police nationale"/>
    <tag k="highway" v="primary"/>
    <tag k="lanes" v="1"/>
    <tag k="lit" v="yes"/>
    <tag k="maxspeed" v="30"/>
    <tag k="name" v="Boulevard Montmartre"/>
    <tag k="name:etymology:wikidata" v="Q3398926"/>
    <tag k="oneway" v="yes"/>
    <tag k="operator" v="Ville de Paris"/>
    <tag k="operator:authority" v="Maire de Paris après avis du préfet de police"/>
    <tag k="operator:authority:related_law" v="IV de l'article L. 2512-14 du code général des collectivités territoriales"/>
    <tag k="operator:url" v="https://cdn.paris.fr/paris/2020/02/26/5bf469a311d0beb9911e92d113781550.ai"/>
    <tag k="sidewalk:right" v="separate"/>
    <tag k="smoothness" v="good"/>
    <tag k="surface" v="asphalt"/>
  </way>
  <way id="653539560" version="10" timestamp="2024-04-18T07:05:41Z" changeset="150158997" uid="12133211" user="FlorentParisCentre">
    <nd ref="687096818"/>
    <nd ref="25273870"/>
    <nd ref="2180084687"/>
    <nd ref="430576300"/>
    <nd ref="11028038036"/>
    <nd ref="25273869"/>
    <tag k="cycleway" v="opposite"/>
    <tag k="highway" v="residential"/>
    <tag k="lit" v="yes"/>
    <tag k="maxspeed" v="30"/>
    <tag k="motor_vehicle" v="destination"/>
    <tag k="name" v="Rue Favart"/>
    <tag k="name:etymology:wikidata" v="Q981902"/>
    <tag k="oneway" v="yes"/>
    <tag k="sidewalk:both" v="separate"/>
    <tag k="smoothness" v="good"/>
    <tag k="surface" v="asphalt"/>
  </way>
  <way id="660547650" version="12" timestamp="2024-02-25T17:21:29Z" changeset="147900866" uid="6290466" user="benjamintchik">
    <nd ref="25273879"/>
    <nd ref="1548644140"/>
    <nd ref="6924130726"/>
    <tag k="cycleway" v="opposite"/>
    <tag k="highway" v="residential"/>
    <tag k="lit" v="yes"/>
    <tag k="maxspeed" v="30"/>
    <tag k="maxspeed:type" v="FR:zone30"/>
    <tag k="name" v="Rue Saint-Marc"/>
    <tag k="name:etymology" v="une enseigne"/>
    <tag k="oneway" v="yes"/>
    <tag k="oneway:bicycle" v="no"/>
    <tag k="service" v="alley"/>
    <tag k="sidewalk:both" v="separate"/>
    <tag k="smoothness" v="excellent"/>
    <tag k="surface" v="asphalt"/>
  </way>
  <way id="664867408" version="10" timestamp="2024-02-25T17:21:29Z" changeset="147900866" uid="6290466" user="benjamintchik">
    <nd ref="25275074"/>
    <nd ref="2180084682"/>
    <nd ref="602549548"/>
    <nd ref="25273879"/>
    <tag k="highway" v="residential"/>
    <tag k="lit" v="yes"/>
    <tag k="maxspeed" v="30"/>
    <tag k="maxspeed:type" v="FR:zone30"/>
    <tag k="name" v="Rue Saint-Marc"/>
    <tag k="name:etymology" v="une enseigne"/>
    <tag k="oneway" v="yes"/>
    <tag k="service" v="alley"/>
    <tag k="sidewalk:both" v="separate"/>
    <tag k="smoothness" v="good"/>
    <tag k="surface" v="asphalt"/>
  </way>
  <way id="675036502" version="11" timestamp="2024-04-06T08:21:26Z" changeset="149643533" uid="6290466" user="benjamintchik">
    <nd ref="25272948"/>
    <nd ref="25272947"/>
    <nd ref="2200327030"/>
    <nd ref="2200327029"/>
    <nd ref="25272946"/>
    <nd ref="2200327028"/>
    <nd ref="2200327027"/>
    <nd ref="25272945"/>
    <nd ref="685604436"/>
    <nd ref="25272944"/>
    <tag k="cycleway:left" v="opposite_lane"/>
    <tag k="highway" v="residential"/>
    <tag k="lit" v="yes"/>
    <tag k="maxspeed" v="30"/>
    <tag k="maxspeed:type" v="FR:zone30"/>
    <tag k="name" v="Rue Saint-Augustin"/>
    <tag k="name:etymology:wikidata" v="Q60965652"/>
    <tag k="oneway" v="yes"/>
    <tag k="oneway:bicycle" v="no"/>
    <tag k="sidewalk:both" v="separate"/>
    <tag k="smoothness" v="good"/>
    <tag k="surface" v="asphalt"/>
    <tag k="width" v="5"/>
    <tag k="zone:maxspeed" v="FR:30"/>
  </way>
  <way id="726892931" version="9" timestamp="2024-02-25T17:24:55Z" changeset="147900866" uid="6290466" user="benjamintchik">
    <nd ref="2180084675"/>
    <nd ref="6464566640"/>
    <nd ref="26039856"/>
    <tag k="cycleway" v="opposite"/>
    <tag k="highway" v="residential"/>
    <tag k="lit" v="yes"/>
    <tag k="maxspeed" v="30"/>
    <tag k="name" v="Rue Feydeau"/>
    <tag k="name:etymology:wikidata" v="Q49465"/>
    <tag k="oneway" v="yes"/>
    <tag k="oneway:bicycle" v="no"/>
    <tag k="sidewalk:both" v="separate"/>
    <tag k="smoothness" v="good"/>
    <tag k="surface" v="asphalt"/>
  </way>
  <way id="739505213" version="10" timestamp="2024-02-25T17:21:29Z" changeset="147900866" uid="6290466" user="benjamintchik">
    <nd ref="6924130726"/>
    <nd ref="2180084688"/>
    <nd ref="687096818"/>
    <tag k="cycleway:left" v="lane"/>
    <tag k="cycleway:left:lane" v="exclusive"/>
    <tag k="cycleway:left:oneway" v="-1"/>
    <tag k="cycleway:right" v="no"/>
    <tag k="highway" v="residential"/>
    <tag k="lit" v="yes"/>
    <tag k="maxspeed" v="30"/>
    <tag k="maxspeed:type" v="FR:zone30"/>
    <tag k="name" v="Rue Saint-Marc"/>
    <tag k="name:etymology" v="une enseigne"/>
    <tag k="oneway" v="yes"/>
    <tag k="oneway:bicycle" v="no"/>
    <tag k="service" v="alley"/>
    <tag k="sidewalk:both" v="separate"/>
    <tag k="smoothness" v="excellent"/>
    <tag k="surface" v="asphalt"/>
  </way>
  <way id="743291613" version="7" timestamp="2024-01-03T00:37:15Z" changeset="145818902" uid="53964" user="_Mathieu_">
    <nd ref="6957475957"/>
    <nd ref="2200327065"/>
    <nd ref="25207301"/>
    <tag k="highway" v="residential"/>
    <tag k="lit" v="yes"/>
    <tag k="maxspeed" v="30"/>
    <tag k="maxspeed:type" v="FR:zone30"/>
    <tag k="name" v="Rue des Filles Saint-Thomas"/>
    <tag k="oneway" v="yes"/>
    <tag k="sidewalk:both" v="separate"/>
    <tag k="smoothness" v="good"/>
    <tag k="surface" v="asphalt"/>
  </way>
  <way id="1012555087" version="28" timestamp="2024-07-20T18:18:50Z" changeset="154190854" uid="2252690" user="gourlaysama">
    <nd ref="25581150"/>
    <nd ref="6223648410"/>
    <nd ref="1806081229"/>
    <nd ref="25581152"/>
    <nd ref="1806081230"/>
    <nd ref="338647500"/>
    <nd ref="1806081228"/>
    <nd ref="25581153"/>
    <nd ref="1806081226"/>
    <nd ref="25581148"/>
    <tag k="cycleway:both" v="no"/>
    <tag k="highway" v="tertiary"/>
    <tag k="junction" v="circular"/>
    <tag k="lane_markings" v="no"/>
    <tag k="lit" v="yes"/>
    <tag k="maxspeed" v="30"/>
    <tag k="name" v="Place des Victoires"/>
    <tag k="name:etymology:wikidata" v="Q3119163"/>
    <tag k="name:ru" v="площадь Побед"/>
    <tag k="note" v="not a roundabout; pas un giratoire"/>
    <tag k="oneway" v="yes"/>
    <tag k="sidewalk" v="left"/>
    <tag k="sidewalk:left:surface" v="paving_stones"/>
    <tag k="smoothness" v="good"/>
    <tag k="source" v="cadastre-dgi-fr source : Direction Générale des Impôts - Cadastre. Mise à jour : 2011"/>
    <tag k="surface" v="asphalt"/>
  </way>
  <way id="1087259055" version="5" timestamp="2024-08-28T17:37:54Z" changeset="155892081" uid="19003715" user="Gil ANDRE">
    <nd ref="9961898494"/>
    <nd ref="9038590587"/>
    <nd ref="6208264027"/>
    <nd ref="25273883"/>
    <tag k="cycleway:left" v="opposite"/>
    <tag k="highway" v="residential"/>
    <tag k="lane_markings" v="no"/>
    <tag k="lit" v="yes"/>
    <tag k="motor_vehicle" v="destination"/>
    <tag k="name" v="Rue Colbert"/>
    <tag k="sidewalk:both" v="separate"/>
    <tag k="smoothness" v="good"/>
    <tag k="surface" v="asphalt"/>
    <tag k="width" v="4"/>
  </way>
  <way id="1274939133" version="1" timestamp="2024-04-22T15:05:18Z" changeset="150351868" uid="311391" user="patman37">
    <nd ref="25581145"/>
    <nd ref="687994166"/>
    <tag k="cycleway" v="opposite"/>
    <tag k="highway" v="residential"/>
    <tag k="lit" v="yes"/>
    <tag k="maxspeed" v="30"/>
    <tag k="maxspeed:type" v="FR:zone30"/>
    <tag k="name" v="Rue des Petits Pères"/>
    <tag k="name:etymology:wikidata" v="Q60965652"/>
    <tag k="name:ru" v="улица Пети Пэр"/>
    <tag k="oneway" v="yes"/>
    <tag k="oneway:bicycle" v="no"/>
    <tag k="service" v="alley"/>
    <tag k="sidewalk:left" v="separate"/>
    <tag k="sidewalk:right" v="yes"/>
    <tag k="source" v="cadastre-dgi-fr source : Direction Générale des Impôts - Cadastre. Mise à jour : 2010"/>
    <tag k="surface" v="paving_stones"/>
  </way>
  <way id="1274939134" version="1" timestamp="2024-04-22T15:05:18Z" changeset="150351868" uid="311391" user="patman37">
    <nd ref="11030696419"/>
    <nd ref="687994232"/>
    <nd ref="2200326874"/>
    <nd ref="25581668"/>
    <nd ref="2200326863"/>
    <nd ref="687993810"/>
    <nd ref="2468325464"/>
    <nd ref="1757520388"/>
    <nd ref="687994166"/>
    <tag k="cycleway" v="opposite"/>
    <tag k="highway" v="residential"/>
    <tag k="lit" v="yes"/>
    <tag k="maxspeed" v="30"/>
    <tag k="name" v="Rue Notre-Dame-des-Victoires"/>
    <tag k="name:etymology:wikidata" v="Q782969"/>
    <tag k="oneway" v="yes"/>
    <tag k="oneway:bicycle" v="no"/>
    <tag k="sidewalk" v="separate"/>
    <tag k="smoothness" v="good"/>
    <tag k="surface" v="asphalt"/>
  </way>
  <way id="1274939135" version="1" timestamp="2024-04-22T15:05:18Z" changeset="150351868" uid="311391" user="patman37">
    <nd ref="25207301"/>
    <nd ref="687720946"/>
    <nd ref="10727783013"/>
    <nd ref="25581660"/>
    <tag k="cycleway" v="opposite"/>
    <tag k="highway" v="residential"/>
    <tag k="lit" v="yes"/>
    <tag k="maxspeed" v="30"/>
    <tag k="name" v="Rue Vivienne"/>
    <tag k="name:etymology" v="Louis Vivien, seigneur de Saint-Marc (ou Saint-Mard, commune de Seine-et-Marne) échevin de Paris (1599)."/>
    <tag k="oneway" v="yes"/>
    <tag k="oneway:bicycle" v="no"/>
    <tag k="parking:lane:left" v="no"/>
    <tag k="parking:lane:right" v="parallel"/>
    <tag k="parking:lane:right:parallel" v="painted_area_only"/>
    <tag k="sidewalk:both" v="separate"/>
    <tag k="smoothness" v="good"/>
    <tag k="source:maxspeed" v="FR:zone30"/>
    <tag k="surface" v="asphalt"/>
    <tag k="zone:maxspeed" v="FR:30"/>
  </way>
  <way id="1274939136" version="1" timestamp="2024-04-22T15:05:18Z" changeset="150351868" uid="311391" user="patman37">
    <nd ref="25273883"/>
    <nd ref="6208267934"/>
    <nd ref="25273882"/>
    <tag k="busway:right" v="lane"/>
    <tag k="cycleway:right" v="share_busway"/>
    <tag k="highway" v="tertiary"/>
    <tag k="lanes" v="2"/>
    <tag k="lanes:bus" v="1"/>
    <tag k="lit" v="yes"/>
    <tag k="maxspeed" v="30"/>
    <tag k="maxspeed:type" v="FR:zone30"/>
    <tag k="name" v="Rue de Richelieu"/>
    <tag k="name:etymology:wikidata" v="Q26702"/>
    <tag k="name:ru" v="улица Ришелье"/>
    <tag k="oneway" v="yes"/>
    <tag k="sidewalk" v="separate"/>
    <tag k="smoothness" v="good"/>
    <tag k="source:maxspeed" v="FR:zone30"/>
    <tag k="surface" v="asphalt"/>
    <tag k="zone:maxspeed" v="FR:30"/>
  </way>
  <way id="1274939137" version="1" timestamp="2024-04-22T15:05:18Z" changeset="150351868" uid="311391" user="patman37">
    <nd ref="25207331"/>
    <nd ref="6208286486"/>
    <nd ref="6208286485"/>
    <nd ref="6111087116"/>
    <nd ref="15643098"/>
    <tag k="busway:right" v="lane"/>
    <tag k="cycleway:left" v="no"/>
    <tag k="cycleway:right" v="share_busway"/>
    <tag k="highway" v="tertiary"/>
    <tag k="lanes" v="2"/>
    <tag k="lanes:bus" v="1"/>
    <tag k="lit" v="yes"/>
    <tag k="maxspeed" v="30"/>
    <tag k="name" v="Rue de Richelieu"/>
    <tag k="name:etymology:wikidata" v="Q26702"/>
    <tag k="name:ru" v="улица Ришельё"/>
    <tag k="oneway" v="yes"/>
    <tag k="sidewalk:both" v="separate"/>
    <tag k="smoothness" v="good"/>
    <tag k="source:maxspeed" v="FR:zone30"/>
    <tag k="surface" v="asphalt"/>
    <tag k="zone:maxspeed" v="FR:30"/>
  </way>
  <way id="1355343471" version="1" timestamp="2025-01-30T10:16:16Z" changeset="161931029" uid="7512839" user="Benoît C MdP">
    <nd ref="7572331128"/>
    <nd ref="11768662212"/>
    <tag k="cycleway:right" v="no"/>
    <tag k="enforcement:operator" v="Police nationale"/>
    <tag k="highway" v="primary"/>
    <tag k="lanes" v="2"/>
    <tag k="lit" v="yes"/>
    <tag k="maxspeed" v="30"/>
    <tag k="name" v="Boulevard des Italiens"/>
    <tag k="name:etymology:wikidata" v="Q1581237"/>
    <tag k="oneway" v="yes"/>
    <tag k="operator" v="Ville de Paris"/>
    <tag k="operator:authority" v="Maire de Paris après avis du préfet de police"/>
    <tag k="operator:authority:related_law" v="IV de l'article L. 2512-14 du code général des collectivités territoriales"/>
    <tag k="operator:url" v="https://cdn.paris.fr/paris/2020/02/26/5bf469a311d0beb9911e92d113781550.ai"/>
    <tag k="sidewalk:right" v="separate"/>
    <tag k="smoothness" v="good"/>
    <tag k="surface" v="asphalt"/>
  </way>
  <relation id="545655" version="7" timestamp="2023-02-11T10:43:24Z" changeset="132398244" uid="10217685" user="akrs">
    <member type="way" ref="54567996" role="inner"/>
    <member type="way" ref="54567995" role="inner"/>
    <member type="way" ref="54567992" role="outer"/>
    <tag k="addr:city" v="Paris"/>
    <tag k="addr:housenumber" v="58"/>
    <tag k="addr:postcode" v="75002"/>
    <tag k="addr:street" v="Rue de Richelieu"/>
    <tag k="amenity" v="library"/>
    <tag k="building" v="yes"/>
    <tag k="heritage" v="2"/>
    <tag k="heritage:operator" v="mhs"/>
    <tag k="mhs:inscription_date" v="1983"/>
    <tag k="name" v="Bibliothèque nationale de France, Richelieu"/>
    <tag k="opening_hours" v="Mo 14:00-19:30; Tu 9:00-20:00; We-Fr 9:00-19:30; Sa 9:00-18:30; Su 10:00-18:00"/>
    <tag k="ref:mhs" v="PA00086009"/>
    <tag k="short_name" v="BnF, Richelieu"/>
    <tag k="source" v="cadastre-dgi-fr source : Direction Générale des Impôts - Cadastre. Mise à jour : 2010"/>
    <tag k="source:heritage" v="data.gouv.fr:Ministère de la Culture - 08/2011"/>
    <tag k="type" v="multipolygon"/>
    <tag k="wikidata" v="Q3145692"/>
    <tag k="wikipedia" v="fr:Bibliothèque nationale de France#Site Richelieu / Louvois"/>
  </relation>
  <relation id="545855" version="2" timestamp="2017-04-16T11:35:51Z" changeset="47836157" uid="996303" user="ImreSamu">
    <member type="way" ref="54572714" role="inner"/>
    <member type="way" ref="54572710" role="outer"/>
    <tag k="amenity" v="school"/>
    <tag k="building" v="school"/>
    <tag k="building:levels" v="6"/>
    <tag k="name" v="Itecom Art Design"/>
    <tag k="operator:type" v="private"/>
    <tag k="ref:UAI" v="0755057P"/>
    <tag k="school:FR" v="lycée"/>
    <tag k="type" v="multipolygon"/>
  </relation>
  <relation id="546790" version="8" timestamp="2023-12-12T18:18:13Z" changeset="145048685" uid="1424448" user="nlehuby">
    <member type="way" ref="54661737" role="inner"/>
    <member type="way" ref="54661725" role="outer"/>
    <tag k="alt_name" v="Mairie du IIème;Mairie du 2ème"/>
    <tag k="amenity" v="townhall"/>
    <tag k="architect" v="Alphonse Girard"/>
    <tag k="building" v="civic"/>
    <tag k="contact:city" v="Paris"/>
    <tag k="contact:housenumber" v="8"/>
    <tag k="contact:postcode" v="75002"/>
    <tag k="contact:street" v="Rue de la Banque"/>
    <tag k="heritage" v="3"/>
    <tag k="heritage:operator" v="mhs"/>
    <tag k="internet_access" v="wlan"/>
    <tag k="internet_access:fee" v="no"/>
    <tag k="internet_access:operator" v="Mairie de Paris"/>
    <tag k="mhs:inscription_date" v="1993-06-24"/>
    <tag k="name" v="Mairie du 2e Arrondissement"/>
    <tag k="ref:mhs" v="PA00086083"/>
    <tag k="source:internet_access" v="Paris Open Data"/>
    <tag k="townhall:type" v="Mairie d'arrondissement"/>
    <tag k="type" v="multipolygon"/>
    <tag k="wikidata" v="Q3278497"/>
  </relation>
  <relation id="546793" version="3" timestamp="2022-10-21T19:17:29Z" changeset="127898996" uid="16363684" user="Vardyger">
    <member type="way" ref="54661721" role="inner"/>
    <member type="way" ref="54661727" role="outer"/>
    <tag k="building" v="apartments"/>
    <tag k="heritage" v="3"/>
    <tag k="heritage:operator" v="mhs"/>
    <tag k="name" v="Hôtel Desmarets"/>
    <tag k="ref:mhs" v="PA00086081"/>
    <tag k="type" v="multipolygon"/>
    <tag k="wikidata" v="Q13400493"/>
  </relation>
  <relation id="546795" version="2" timestamp="2017-04-16T11:35:53Z" changeset="47836157" uid="996303" user="ImreSamu">
    <member type="way" ref="54661705" role="inner"/>
    <member type="way" ref="54661746" role="inner"/>
    <member type="way" ref="54661738" role="outer"/>
    <tag k="building" v="yes"/>
    <tag k="heritage" v="2"/>
    <tag k="heritage:operator" v="mhs"/>
    <tag k="name" v="Hôtel Colbert de Torcy"/>
    <tag k="ref:mhs" v="PA00086038"/>
    <tag k="type" v="multipolygon"/>
    <tag k="wikidata" v="Q3145457"/>
    <tag k="wikipedia" v="fr:Hôtel Colbert de Torcy"/>
  </relation>

</osm>
