<?xml version="1.0" encoding="UTF-8"?>
<osm version="0.6" generator="Overpass API 0.7.62.5 1bd436f1">
<note>The data included in this document is from www.openstreetmap.org. The data is made available under ODbL.</note>
<meta osm_base="2025-05-18T03:34:11Z" areas="2024-12-31T00:49:33Z"/>

  <node id="26261624" lat="53.9049942" lon="-1.4363995" version="5" timestamp="2015-02-24T20:15:42Z" changeset="29077302" uid="84263" user="Robert Whittaker"/>
  <node id="765232205" lat="53.8999112" lon="-1.5012139" version="1" timestamp="2010-06-05T17:14:04Z" changeset="4910497" uid="308" user="MichaelCollinson"/>
  <node id="907813326" lat="53.9083809" lon="-1.4355562" version="1" timestamp="2010-09-12T06:43:55Z" changeset="5756069" uid="135339" user="mplusplus"/>
  <node id="907813435" lat="53.9050424" lon="-1.4351872" version="2" timestamp="2015-02-24T20:15:45Z" changeset="29077302" uid="84263" user="Robert Whittaker"/>
  <node id="907813477" lat="53.9086552" lon="-1.4354010" version="1" timestamp="2010-09-12T06:44:03Z" changeset="5756069" uid="135339" user="mplusplus"/>
  <node id="907813515" lat="53.9050587" lon="-1.4334932" version="1" timestamp="2010-09-12T06:44:04Z" changeset="5756069" uid="135339" user="mplusplus"/>
  <node id="1860862608" lat="53.8912750" lon="-1.4515922" version="2" timestamp="2019-11-17T12:37:05Z" changeset="77187447" uid="3316592" user="Arthtoach"/>
  <way id="23301962" version="32" timestamp="2024-06-17T20:17:25Z" changeset="152818627" uid="20112387" user="Anton Khorev (repair)">
    <nd ref="1652885241"/>
    <nd ref="1860647636"/>
    <nd ref="8336124020"/>
    <tag k="bicycle" v="yes"/>
    <tag k="foot" v="yes"/>
    <tag k="highway" v="tertiary"/>
    <tag k="lanes" v="2"/>
    <tag k="lit" v="no"/>
    <tag k="maxspeed" v="60 mph"/>
    <tag k="name" v="Crabtree Lane"/>
    <tag k="oneway" v="no"/>
    <tag k="sidewalk" v="left"/>
    <tag k="source" v="survey and npe"/>
    <tag k="source:name" v="Sign"/>
    <tag k="surface" v="asphalt"/>
  </way>
  <way id="32661411" version="20" timestamp="2024-01-29T17:29:57Z" changeset="146831425" uid="84681" user="SK53">
    <nd ref="252247332"/>
    <nd ref="6761816632"/>
    <nd ref="935666115"/>
    <nd ref="6761816633"/>
    <nd ref="6761816634"/>
    <nd ref="935666430"/>
    <nd ref="935665654"/>
    <nd ref="6761877941"/>
    <nd ref="6550796092"/>
    <nd ref="11564979996"/>
    <nd ref="1858388508"/>
    <nd ref="1859172348"/>
    <nd ref="6761953338"/>
    <nd ref="6761816635"/>
    <nd ref="6761816636"/>
    <nd ref="935666044"/>
    <nd ref="6761816637"/>
    <nd ref="936541984"/>
    <nd ref="935665672"/>
    <nd ref="6761816638"/>
    <nd ref="367293060"/>
    <nd ref="6761816639"/>
    <nd ref="6761816640"/>
    <nd ref="936542144"/>
    <nd ref="6761816641"/>
    <nd ref="367293062"/>
    <nd ref="6761816642"/>
    <nd ref="6761816643"/>
    <nd ref="6761816644"/>
    <nd ref="6761816645"/>
    <nd ref="798093579"/>
    <nd ref="367293064"/>
    <nd ref="798094645"/>
    <nd ref="6761816646"/>
    <nd ref="6761816647"/>
    <nd ref="6551246557"/>
    <nd ref="798093588"/>
    <nd ref="798093594"/>
    <nd ref="367293069"/>
    <nd ref="936542486"/>
    <nd ref="8280239463"/>
    <nd ref="936542210"/>
    <nd ref="367293075"/>
    <nd ref="1863471204"/>
    <nd ref="367293081"/>
    <nd ref="6907776464"/>
    <nd ref="3694673007"/>
    <nd ref="367293086"/>
    <nd ref="3694673008"/>
    <nd ref="6555075596"/>
    <nd ref="367293090"/>
    <tag k="bicycle" v="yes"/>
    <tag k="foot" v="yes"/>
    <tag k="highway" v="unclassified"/>
    <tag k="name" v="Moor Lane"/>
    <tag k="oneway" v="no"/>
    <tag k="surface" v="asphalt"/>
  </way>
  <way id="53015430" version="11" timestamp="2021-09-03T15:04:16Z" changeset="110682035" uid="1376064" user="jdconey">
    <nd ref="1652885241"/>
    <nd ref="389904497"/>
    <tag k="bicycle" v="yes"/>
    <tag k="cycleway:both" v="no"/>
    <tag k="foot" v="yes"/>
    <tag k="highway" v="primary"/>
    <tag k="lanes" v="2"/>
    <tag k="maxspeed" v="50 mph"/>
    <tag k="name" v="Harewood Road"/>
    <tag k="oneway" v="no"/>
    <tag k="ref" v="A659"/>
    <tag k="source" v="survey"/>
    <tag k="surface" v="asphalt"/>
  </way>
  <way id="65280666" version="9" timestamp="2019-08-31T12:53:22Z" changeset="73949184" uid="3316592" user="Arthtoach">
    <nd ref="798056700"/>
    <nd ref="6761538469"/>
    <nd ref="6761538468"/>
    <nd ref="798058694"/>
    <nd ref="798056711"/>
    <nd ref="798060476"/>
    <nd ref="798056718"/>
    <nd ref="798056725"/>
    <nd ref="798060636"/>
    <nd ref="798056730"/>
    <nd ref="6594300601"/>
    <nd ref="6761499344"/>
    <nd ref="6761499345"/>
    <nd ref="6761499346"/>
    <nd ref="798056737"/>
    <nd ref="798056773"/>
    <tag k="bicycle" v="yes"/>
    <tag k="foot" v="yes"/>
    <tag k="highway" v="residential"/>
    <tag k="name" v="Cleavesty Lane"/>
    <tag k="oneway" v="no"/>
    <tag k="source" v="OS OpenData StreetView"/>
    <tag k="surface" v="asphalt"/>
  </way>
  <way id="65280668" version="4" timestamp="2019-08-31T15:30:16Z" changeset="73952027" uid="3316592" user="Arthtoach">
    <nd ref="798057684"/>
    <nd ref="798057686"/>
    <nd ref="1860713377"/>
    <tag k="highway" v="residential"/>
    <tag k="name" v="The Grove"/>
    <tag k="source" v="OS OpenData StreetView"/>
    <tag k="surface" v="asphalt"/>
  </way>
  <way id="65280769" version="4" timestamp="2019-08-31T15:30:16Z" changeset="73952027" uid="3316592" user="Arthtoach">
    <nd ref="798059072"/>
    <nd ref="798059076"/>
    <tag k="highway" v="residential"/>
    <tag k="name" v="Whitegate"/>
    <tag k="source" v="OS OpenData StreetView"/>
    <tag k="surface" v="asphalt"/>
  </way>
  <way id="65281150" version="6" timestamp="2019-11-17T12:37:05Z" changeset="77187447" uid="3316592" user="Arthtoach">
    <nd ref="798061014"/>
    <nd ref="798061031"/>
    <nd ref="6969986972"/>
    <nd ref="6969986973"/>
    <nd ref="798061036"/>
    <tag k="highway" v="residential"/>
    <tag k="name" v="Rose Croft"/>
    <tag k="source" v="OS OpenData StreetView"/>
    <tag k="surface" v="asphalt"/>
  </way>
  <way id="65281153" version="5" timestamp="2019-11-17T12:37:05Z" changeset="77187447" uid="3316592" user="Arthtoach">
    <nd ref="798061670"/>
    <nd ref="798061673"/>
    <nd ref="6969986974"/>
    <nd ref="6969986975"/>
    <nd ref="798061036"/>
    <nd ref="6969986971"/>
    <nd ref="3607853285"/>
    <nd ref="6969986970"/>
    <nd ref="798061680"/>
    <nd ref="798061681"/>
    <nd ref="3607853279"/>
    <nd ref="798061682"/>
    <tag k="highway" v="residential"/>
    <tag k="name" v="Rose Croft"/>
    <tag k="source" v="OS OpenData StreetView"/>
    <tag k="surface" v="asphalt"/>
  </way>
  <way id="65281155" version="4" timestamp="2019-11-17T12:37:05Z" changeset="77187447" uid="3316592" user="Arthtoach">
    <nd ref="798062052"/>
    <nd ref="798062054"/>
    <nd ref="798071427"/>
    <nd ref="798062056"/>
    <nd ref="798062058"/>
    <tag k="highway" v="residential"/>
    <tag k="name" v="Allerton Drive"/>
    <tag k="source" v="OS OpenData StreetView"/>
    <tag k="surface" v="asphalt"/>
  </way>
  <way id="65281159" version="36" timestamp="2024-06-17T20:17:28Z" changeset="152818627" uid="20112387" user="Anton Khorev (repair)">
    <nd ref="1581058353"/>
    <nd ref="6761816631"/>
    <nd ref="252247330"/>
    <nd ref="6761816630"/>
    <nd ref="5119488238"/>
    <nd ref="252247331"/>
    <nd ref="6761816629"/>
    <nd ref="252247332"/>
    <nd ref="6761816628"/>
    <nd ref="3607853288"/>
    <nd ref="252247333"/>
    <nd ref="3607853274"/>
    <nd ref="252247334"/>
    <nd ref="935665944"/>
    <nd ref="935665891"/>
    <nd ref="5119488236"/>
    <nd ref="936542021"/>
    <nd ref="3607853292"/>
    <nd ref="8276842370"/>
    <nd ref="252247336"/>
    <nd ref="1993530716"/>
    <nd ref="1862812759"/>
    <nd ref="1581058079"/>
    <nd ref="3607853291"/>
    <nd ref="6984627273"/>
    <nd ref="935666493"/>
    <nd ref="3607858756"/>
    <nd ref="1506501536"/>
    <nd ref="1859999250"/>
    <nd ref="1506501699"/>
    <nd ref="1887506626"/>
    <nd ref="6984660288"/>
    <nd ref="1506501629"/>
    <nd ref="1506501650"/>
    <tag k="alt_name" v="Main Street"/>
    <tag k="highway" v="tertiary"/>
    <tag k="lit" v="yes"/>
    <tag k="maxspeed" v="30 mph"/>
    <tag k="name" v="Main Street"/>
    <tag k="sidewalk" v="both"/>
    <tag k="source" v="survey and npe"/>
    <tag k="surface" v="asphalt"/>
  </way>
  <way id="65281479" version="11" timestamp="2025-04-11T22:45:12Z" changeset="164835722" uid="8857" user="philipcullen">
    <nd ref="798075772"/>
    <nd ref="798075791"/>
    <nd ref="6550796090"/>
    <nd ref="6550796098"/>
    <nd ref="6550796102"/>
    <nd ref="6550796103"/>
    <nd ref="6550796089"/>
    <nd ref="6550796101"/>
    <nd ref="798075806"/>
    <nd ref="6550796099"/>
    <nd ref="6550796104"/>
    <nd ref="798075823"/>
    <nd ref="6550796093"/>
    <nd ref="6550796110"/>
    <nd ref="6550796095"/>
    <nd ref="6550796094"/>
    <nd ref="798075772"/>
    <tag k="amenity" v="place_of_worship"/>
    <tag k="building" v="church"/>
    <tag k="denomination" v="methodist"/>
    <tag k="name" v="East Keswick Methodist Church"/>
    <tag k="ref:GB:uprn" v="72389381"/>
    <tag k="religion" v="christian"/>
  </way>
  <way id="77091277" version="4" timestamp="2020-05-25T09:45:47Z" changeset="85711839" uid="9902286" user="di5order">
    <nd ref="907813477"/>
    <nd ref="907813326"/>
    <nd ref="907813557"/>
    <nd ref="907813354"/>
    <nd ref="907813310"/>
    <nd ref="907813407"/>
    <nd ref="7555780136"/>
    <nd ref="907813500"/>
    <tag k="highway" v="residential"/>
    <tag k="name" v="Wharfe Bank"/>
    <tag k="source" v="OS OpenData StreetView"/>
    <tag k="surface" v="asphalt"/>
  </way>
  <way id="77091285" version="3" timestamp="2020-02-23T09:26:00Z" changeset="81361954" uid="3316592" user="Arthtoach">
    <nd ref="26261624"/>
    <nd ref="907813556"/>
    <nd ref="907813404"/>
    <tag k="highway" v="residential"/>
    <tag k="name" v="Wharfe Rein"/>
    <tag k="source" v="OS OpenData StreetView"/>
    <tag k="surface" v="asphalt"/>
  </way>
  <way id="77091293" version="5" timestamp="2020-05-25T09:45:47Z" changeset="85711839" uid="9902286" user="di5order">
    <nd ref="907813435"/>
    <nd ref="907813481"/>
    <nd ref="7555780135"/>
    <nd ref="1997885982"/>
    <nd ref="907813500"/>
    <nd ref="907813582"/>
    <nd ref="907813540"/>
    <nd ref="907813333"/>
    <nd ref="907813431"/>
    <tag k="highway" v="residential"/>
    <tag k="name" v="Hillcrest"/>
    <tag k="source" v="OS OpenData StreetView"/>
    <tag k="surface" v="asphalt"/>
  </way>
  <way id="77091329" version="3" timestamp="2020-02-23T09:26:00Z" changeset="81361954" uid="3316592" user="Arthtoach">
    <nd ref="907813326"/>
    <nd ref="907813579"/>
    <nd ref="907813431"/>
    <nd ref="907813380"/>
    <tag k="highway" v="residential"/>
    <tag k="name" v="Langwith Valley Road"/>
    <tag k="source" v="OS OpenData StreetView"/>
    <tag k="surface" v="asphalt"/>
  </way>
  <way id="77091336" version="4" timestamp="2020-02-23T09:26:00Z" changeset="81361954" uid="3316592" user="Arthtoach">
    <nd ref="907813515"/>
    <nd ref="907813305"/>
    <nd ref="2167635154"/>
    <nd ref="2167634687"/>
    <nd ref="907813399"/>
    <nd ref="907813353"/>
    <tag k="highway" v="residential"/>
    <tag k="name" v="Langwith Drive"/>
    <tag k="source" v="OS OpenData StreetView"/>
    <tag k="surface" v="asphalt"/>
  </way>
  <way id="80197429" version="5" timestamp="2019-11-16T10:23:31Z" changeset="77160531" uid="3316592" user="Arthtoach">
    <nd ref="935665944"/>
    <nd ref="6982344486"/>
    <nd ref="6982344485"/>
    <nd ref="6982343984"/>
    <nd ref="935665607"/>
    <nd ref="6982343983"/>
    <nd ref="935666398"/>
    <nd ref="6982343982"/>
    <nd ref="6982343981"/>
    <tag k="highway" v="residential"/>
    <tag k="name" v="Meadow Croft"/>
    <tag k="source" v="OS OpenData StreetView"/>
    <tag k="source:name" v="survey"/>
    <tag k="surface" v="asphalt"/>
  </way>
  <way id="80197437" version="4" timestamp="2019-08-31T15:30:16Z" changeset="73952027" uid="3316592" user="Arthtoach">
    <nd ref="935666405"/>
    <nd ref="1859136418"/>
    <nd ref="1859136423"/>
    <nd ref="935666438"/>
    <nd ref="935666048"/>
    <nd ref="935665707"/>
    <nd ref="935666432"/>
    <tag k="highway" v="residential"/>
    <tag k="name" v="St Marys Garth"/>
    <tag k="source" v="OS OpenData StreetView"/>
    <tag k="surface" v="asphalt"/>
  </way>
  <way id="80197446" version="2" timestamp="2010-10-03T13:59:03Z" changeset="5944378" uid="135339" user="mplusplus">
    <nd ref="935665765"/>
    <nd ref="935666268"/>
    <tag k="highway" v="residential"/>
    <tag k="name" v="Argyle Mews"/>
    <tag k="source" v="OS OpenData StreetView"/>
  </way>
  <way id="80197466" version="5" timestamp="2019-11-16T10:23:31Z" changeset="77160531" uid="3316592" user="Arthtoach">
    <nd ref="935666334"/>
    <nd ref="6982344538"/>
    <nd ref="935666122"/>
    <nd ref="935665769"/>
    <nd ref="6982344536"/>
    <nd ref="6982344537"/>
    <nd ref="3607853282"/>
    <nd ref="6982344535"/>
    <nd ref="3607853275"/>
    <nd ref="6982344534"/>
    <nd ref="6982344533"/>
    <nd ref="935666462"/>
    <nd ref="6982344532"/>
    <nd ref="935666217"/>
    <nd ref="935665958"/>
    <tag k="highway" v="residential"/>
    <tag k="name" v="Church Drive"/>
    <tag k="source" v="OS OpenData StreetView"/>
    <tag k="surface" v="asphalt"/>
  </way>
  <way id="80197470" version="6" timestamp="2019-08-31T15:30:16Z" changeset="73952027" uid="3316592" user="Arthtoach">
    <nd ref="935665539"/>
    <nd ref="935666345"/>
    <nd ref="935665986"/>
    <nd ref="935665517"/>
    <nd ref="935666325"/>
    <nd ref="935665951"/>
    <nd ref="935665613"/>
    <nd ref="1859172307"/>
    <nd ref="935666401"/>
    <nd ref="1858388517"/>
    <nd ref="935666070"/>
    <tag k="highway" v="residential"/>
    <tag k="name" v="Church Drive"/>
    <tag k="source" v="OS OpenData StreetView"/>
    <tag k="surface" v="asphalt"/>
  </way>
  <way id="80197494" version="6" timestamp="2019-11-17T12:37:05Z" changeset="77187447" uid="3316592" user="Arthtoach">
    <nd ref="1859172350"/>
    <nd ref="6984627261"/>
    <nd ref="6984627262"/>
    <nd ref="6551383404"/>
    <nd ref="6984627263"/>
    <nd ref="6984627267"/>
    <nd ref="6984627266"/>
    <nd ref="935665705"/>
    <nd ref="6984627265"/>
    <nd ref="6984627264"/>
    <nd ref="6984627270"/>
    <nd ref="6984627269"/>
    <nd ref="6984627271"/>
    <nd ref="6984627268"/>
    <nd ref="935665823"/>
    <nd ref="6984627272"/>
    <nd ref="6984627273"/>
    <tag k="highway" v="residential"/>
    <tag k="name" v="Keswick Grange"/>
    <tag k="source" v="OS OpenData StreetView"/>
    <tag k="surface" v="asphalt"/>
  </way>
  <way id="80197503" version="6" timestamp="2019-11-19T19:00:06Z" changeset="77287939" uid="3316592" user="Arthtoach">
    <nd ref="252247336"/>
    <nd ref="6990654495"/>
    <nd ref="935666300"/>
    <nd ref="935665930"/>
    <nd ref="935665575"/>
    <nd ref="935666390"/>
    <tag k="highway" v="residential"/>
    <tag k="lit" v="no"/>
    <tag k="maxspeed" v="30 mph"/>
    <tag k="name" v="School Lane"/>
    <tag k="sidewalk" v="left"/>
    <tag k="source" v="survey"/>
    <tag k="source:geometry" v="OS OpenData StreetView"/>
    <tag k="source:name" v="survey"/>
    <tag k="surface" v="asphalt"/>
  </way>
  <way id="80197516" version="4" timestamp="2019-11-16T10:23:31Z" changeset="77160531" uid="3316592" user="Arthtoach">
    <nd ref="935665607"/>
    <nd ref="935666061"/>
    <nd ref="6982343980"/>
    <tag k="highway" v="residential"/>
    <tag k="name" v="Meadow Croft"/>
    <tag k="source" v="OS OpenData StreetView"/>
    <tag k="surface" v="asphalt"/>
  </way>
  <way id="80197529" version="2" timestamp="2010-10-03T13:58:55Z" changeset="5944378" uid="135339" user="mplusplus">
    <nd ref="935665888"/>
    <nd ref="935665557"/>
    <nd ref="935666364"/>
    <tag k="highway" v="residential"/>
    <tag k="name" v="South Bank"/>
    <tag k="source" v="OS OpenData StreetView"/>
  </way>
  <way id="80197532" version="4" timestamp="2019-11-17T12:37:05Z" changeset="77187447" uid="3316592" user="Arthtoach">
    <nd ref="935665891"/>
    <nd ref="935665565"/>
    <nd ref="935666416"/>
    <nd ref="935665752"/>
    <nd ref="935666111"/>
    <nd ref="935666428"/>
    <nd ref="935665666"/>
    <nd ref="935666038"/>
    <nd ref="2001182900"/>
    <nd ref="935665744"/>
    <nd ref="935666375"/>
    <tag k="highway" v="residential"/>
    <tag k="name" v="The Paddock"/>
    <tag k="source" v="OS OpenData StreetView"/>
    <tag k="surface" v="asphalt"/>
  </way>
  <way id="80197540" version="6" timestamp="2019-11-17T12:37:05Z" changeset="77187447" uid="3316592" user="Arthtoach">
    <nd ref="252247333"/>
    <nd ref="6761816627"/>
    <nd ref="3607853283"/>
    <nd ref="935665765"/>
    <nd ref="935666457"/>
    <nd ref="935666206"/>
    <nd ref="935665744"/>
    <tag k="highway" v="residential"/>
    <tag k="name" v="The Close"/>
    <tag k="source" v="OS OpenData StreetView"/>
    <tag k="source:name" v="survey"/>
    <tag k="surface" v="asphalt"/>
  </way>
  <way id="80197556" version="7" timestamp="2019-11-17T12:37:05Z" changeset="77187447" uid="3316592" user="Arthtoach">
    <nd ref="1581058079"/>
    <nd ref="935665814"/>
    <nd ref="6551383395"/>
    <nd ref="3607858755"/>
    <nd ref="1861285039"/>
    <tag k="highway" v="residential"/>
    <tag k="name" v="Laurel Close"/>
    <tag k="source" v="OS OpenData StreetView"/>
    <tag k="surface" v="asphalt"/>
  </way>
  <way id="80197560" version="6" timestamp="2024-01-29T17:29:57Z" changeset="146831425" uid="84681" user="SK53">
    <nd ref="935665654"/>
    <nd ref="935666334"/>
    <nd ref="935665958"/>
    <nd ref="935665615"/>
    <nd ref="935666405"/>
    <nd ref="11564974064"/>
    <nd ref="1859172338"/>
    <nd ref="935665539"/>
    <nd ref="935666073"/>
    <tag k="highway" v="residential"/>
    <tag k="name" v="Church Drive"/>
    <tag k="source" v="OS OpenData StreetView"/>
    <tag k="surface" v="asphalt"/>
  </way>
  <way id="80249916" version="2" timestamp="2019-11-17T12:37:05Z" changeset="77187447" uid="3316592" user="Arthtoach">
    <nd ref="935666416"/>
    <nd ref="935666159"/>
    <nd ref="935665808"/>
    <nd ref="935666480"/>
    <nd ref="935666286"/>
    <nd ref="935665789"/>
    <nd ref="935666476"/>
    <tag k="highway" v="residential"/>
    <tag k="name" v="Paddock Green"/>
    <tag k="source" v="OS OpenData StreetView"/>
    <tag k="surface" v="asphalt"/>
  </way>
  <way id="80249920" version="16" timestamp="2024-06-17T20:17:36Z" changeset="152818627" uid="20112387" user="Anton Khorev (repair)">
    <nd ref="798061682"/>
    <nd ref="6969986969"/>
    <nd ref="6590388575"/>
    <nd ref="252247326"/>
    <nd ref="7562543214"/>
    <nd ref="798059076"/>
    <nd ref="935665888"/>
    <nd ref="6590388583"/>
    <nd ref="6590388578"/>
    <nd ref="1581058353"/>
    <tag k="highway" v="tertiary"/>
    <tag k="lanes" v="2"/>
    <tag k="maxspeed" v="30 mph"/>
    <tag k="name" v="Whitegate"/>
    <tag k="source" v="survey and npe"/>
    <tag k="surface" v="asphalt"/>
  </way>
  <way id="144558189" version="9" timestamp="2019-08-31T12:43:43Z" changeset="73949043" uid="3316592" user="Arthtoach">
    <nd ref="1581058352"/>
    <nd ref="1581057542"/>
    <nd ref="1581058244"/>
    <nd ref="6595371029"/>
    <nd ref="6761499351"/>
    <nd ref="6761499350"/>
    <nd ref="1581057618"/>
    <nd ref="798056773"/>
    <nd ref="2176475044"/>
    <tag k="bicycle" v="yes"/>
    <tag k="foot" v="yes"/>
    <tag k="highway" v="primary"/>
    <tag k="lanes" v="2"/>
    <tag k="maxspeed" v="60 mph"/>
    <tag k="name" v="Harewood Road"/>
    <tag k="oneway" v="no"/>
    <tag k="ref" v="A659"/>
    <tag k="source" v="survey"/>
    <tag k="surface" v="asphalt"/>
  </way>
  <way id="144558198" version="7" timestamp="2019-08-31T15:28:31Z" changeset="73951980" uid="3316592" user="Arthtoach">
    <nd ref="1581058353"/>
    <nd ref="1860713291"/>
    <nd ref="1860713471"/>
    <nd ref="1860714037"/>
    <nd ref="1860713712"/>
    <nd ref="1581057961"/>
    <nd ref="6761816607"/>
    <nd ref="935665709"/>
    <nd ref="6761816608"/>
    <nd ref="798056700"/>
    <nd ref="1860713377"/>
    <nd ref="1859172311"/>
    <nd ref="1581057299"/>
    <nd ref="1581057232"/>
    <nd ref="1581057324"/>
    <nd ref="1581057404"/>
    <nd ref="1867643499"/>
    <nd ref="1581058218"/>
    <nd ref="1867643501"/>
    <nd ref="1581058252"/>
    <nd ref="1867643503"/>
    <nd ref="1581057597"/>
    <nd ref="1867643505"/>
    <nd ref="1581057640"/>
    <nd ref="1867643507"/>
    <nd ref="1581058279"/>
    <nd ref="3370797592"/>
    <nd ref="3370797590"/>
    <nd ref="3370797536"/>
    <nd ref="1581058352"/>
    <tag k="bicycle" v="yes"/>
    <tag k="foot" v="yes"/>
    <tag k="highway" v="unclassified"/>
    <tag k="name" v="Lumby Lane"/>
    <tag k="oneway" v="no"/>
    <tag k="source" v="GPS"/>
    <tag k="surface" v="asphalt"/>
  </way>
  <way id="175492262" version="4" timestamp="2025-04-11T22:45:12Z" changeset="164835722" uid="8857" user="philipcullen">
    <nd ref="1860713507"/>
    <nd ref="1860713518"/>
    <nd ref="6990618632"/>
    <nd ref="6990618630"/>
    <nd ref="1860714006"/>
    <nd ref="6990618631"/>
    <nd ref="6990618635"/>
    <nd ref="6990618634"/>
    <nd ref="6990618633"/>
    <nd ref="6553400802"/>
    <nd ref="1860713507"/>
    <tag k="addr:city" v="Leeds"/>
    <tag k="addr:housenumber" v="23"/>
    <tag k="addr:postcode" v="LS17 9EN"/>
    <tag k="addr:street" v="The Paddock"/>
    <tag k="addr:suburb" v="East Keswick"/>
    <tag k="building" v="house"/>
    <tag k="ref:GB:uprn" v="72389480"/>
  </way>
  <way id="175492265" version="4" timestamp="2025-04-11T22:45:12Z" changeset="164835722" uid="8857" user="philipcullen">
    <nd ref="1860713778"/>
    <nd ref="1860713521"/>
    <nd ref="6553400811"/>
    <nd ref="6990618640"/>
    <nd ref="6990618641"/>
    <nd ref="1860713358"/>
    <nd ref="1860713778"/>
    <tag k="addr:city" v="Leeds"/>
    <tag k="addr:housenumber" v="21"/>
    <tag k="addr:postcode" v="LS17 9EN"/>
    <tag k="addr:street" v="The Paddock"/>
    <tag k="addr:suburb" v="East Keswick"/>
    <tag k="building" v="house"/>
    <tag k="ref:GB:uprn" v="72389478"/>
  </way>
  <way id="175492308" version="4" timestamp="2025-04-11T22:45:12Z" changeset="164835722" uid="8857" user="philipcullen">
    <nd ref="6553400793"/>
    <nd ref="6990618643"/>
    <nd ref="6990618642"/>
    <nd ref="1860713783"/>
    <nd ref="6553400793"/>
    <tag k="addr:city" v="Leeds"/>
    <tag k="addr:housenumber" v="19"/>
    <tag k="addr:postcode" v="LS17 9EN"/>
    <tag k="addr:street" v="The Paddock"/>
    <tag k="addr:suburb" v="East Keswick"/>
    <tag k="building" v="house"/>
    <tag k="ref:GB:uprn" v="72389476"/>
  </way>
  <way id="175492328" version="4" timestamp="2025-04-11T22:45:12Z" changeset="164835722" uid="8857" user="philipcullen">
    <nd ref="6553400800"/>
    <nd ref="6990618653"/>
    <nd ref="6990618652"/>
    <nd ref="1860714033"/>
    <nd ref="6553400800"/>
    <tag k="addr:city" v="Leeds"/>
    <tag k="addr:housenumber" v="15"/>
    <tag k="addr:postcode" v="LS17 9EN"/>
    <tag k="addr:street" v="The Paddock"/>
    <tag k="addr:suburb" v="East Keswick"/>
    <tag k="building" v="house"/>
    <tag k="ref:GB:uprn" v="72389472"/>
  </way>
  <way id="175492356" version="4" timestamp="2025-04-11T22:45:12Z" changeset="164835722" uid="8857" user="philipcullen">
    <nd ref="6553400788"/>
    <nd ref="6990618621"/>
    <nd ref="6990618620"/>
    <nd ref="1860714048"/>
    <nd ref="6553400788"/>
    <tag k="addr:city" v="Leeds"/>
    <tag k="addr:housenumber" v="27"/>
    <tag k="addr:postcode" v="LS17 9EN"/>
    <tag k="addr:street" v="The Paddock"/>
    <tag k="addr:suburb" v="East Keswick"/>
    <tag k="building" v="house"/>
    <tag k="ref:GB:uprn" v="72389486"/>
  </way>
  <way id="175506661" version="14" timestamp="2025-04-11T22:45:12Z" changeset="164835722" uid="8857" user="philipcullen">
    <nd ref="1860823852"/>
    <nd ref="1860823859"/>
    <nd ref="1860823858"/>
    <nd ref="1860823854"/>
    <nd ref="1860823866"/>
    <nd ref="1860823849"/>
    <nd ref="1860823860"/>
    <nd ref="1860823864"/>
    <nd ref="1860823865"/>
    <nd ref="1860823852"/>
    <tag k="amenity" v="place_of_worship"/>
    <tag k="building" v="church"/>
    <tag k="denomination" v="anglican"/>
    <tag k="name" v="The Parish Church of St Mary Magdalene"/>
    <tag k="ref:GB:uprn" v="72388147"/>
    <tag k="religion" v="christian"/>
    <tag k="wheelchair" v="yes"/>
    <tag k="wikidata" v="Q105079131"/>
  </way>
  <way id="175510367" version="13" timestamp="2024-06-17T14:09:02Z" changeset="152805446" uid="145231" user="woodpeck_repair">
    <nd ref="1860862608"/>
    <nd ref="1860862615"/>
    <tag k="access" v="yes"/>
    <tag k="bicycle" v="yes"/>
    <tag k="bridge" v="yes"/>
    <tag k="foot" v="yes"/>
    <tag k="highway" v="tertiary"/>
    <tag k="maxspeed" v="30 mph"/>
    <tag k="motor_vehicle" v="yes"/>
    <tag k="name" v="Wike Lane"/>
    <tag k="source" v="survey and npe"/>
  </way>
  <way id="175548876" version="4" timestamp="2025-04-11T22:45:12Z" changeset="164835722" uid="8857" user="philipcullen">
    <nd ref="6553400794"/>
    <nd ref="6987999387"/>
    <nd ref="6987999386"/>
    <nd ref="1861245119"/>
    <nd ref="1861245097"/>
    <nd ref="6553400794"/>
    <tag k="addr:city" v="Leeds"/>
    <tag k="addr:housenumber" v="12"/>
    <tag k="addr:postcode" v="LS17 9EN"/>
    <tag k="addr:street" v="The Paddock"/>
    <tag k="addr:suburb" v="East Keswick"/>
    <tag k="building" v="house"/>
    <tag k="ref:GB:uprn" v="72389469"/>
    <tag k="source:addr" v="interpolation"/>
    <tag k="source:postcode" v="extrapolation"/>
  </way>
  <way id="175548878" version="4" timestamp="2025-04-11T22:45:12Z" changeset="164835722" uid="8857" user="philipcullen">
    <nd ref="1861245186"/>
    <nd ref="1861245192"/>
    <nd ref="1861245035"/>
    <nd ref="6987981977"/>
    <nd ref="6553400797"/>
    <nd ref="1861245183"/>
    <nd ref="1861245127"/>
    <nd ref="1861245188"/>
    <nd ref="1861245186"/>
    <tag k="addr:city" v="Leeds"/>
    <tag k="addr:housenumber" v="16"/>
    <tag k="addr:postcode" v="LS17 9EN"/>
    <tag k="addr:street" v="The Paddock"/>
    <tag k="addr:suburb" v="East Keswick"/>
    <tag k="building" v="house"/>
    <tag k="ref:GB:uprn" v="72389473"/>
    <tag k="source:addr" v="interpolation"/>
    <tag k="source:postcode" v="extrapolation"/>
  </way>
  <way id="175548885" version="4" timestamp="2025-04-11T22:45:12Z" changeset="164835722" uid="8857" user="philipcullen">
    <nd ref="6987981972"/>
    <nd ref="6987981971"/>
    <nd ref="6987981970"/>
    <nd ref="6553400807"/>
    <nd ref="1861245105"/>
    <nd ref="1861245102"/>
    <nd ref="1861245222"/>
    <nd ref="1861245064"/>
    <nd ref="6987981972"/>
    <tag k="addr:city" v="Leeds"/>
    <tag k="addr:housenumber" v="18"/>
    <tag k="addr:postcode" v="LS17 9EN"/>
    <tag k="addr:street" v="The Paddock"/>
    <tag k="addr:suburb" v="East Keswick"/>
    <tag k="building" v="house"/>
    <tag k="ref:GB:uprn" v="72389475"/>
    <tag k="source:addr" v="interpolation"/>
    <tag k="source:postcode" v="extrapolation"/>
  </way>
  <way id="175548887" version="4" timestamp="2025-04-11T22:45:12Z" changeset="164835722" uid="8857" user="philipcullen">
    <nd ref="1861245080"/>
    <nd ref="1861244993"/>
    <nd ref="6553354480"/>
    <nd ref="1861244997"/>
    <nd ref="1861245096"/>
    <nd ref="6990618608"/>
    <nd ref="1861245098"/>
    <nd ref="6990618607"/>
    <nd ref="6990618609"/>
    <nd ref="1861245078"/>
    <nd ref="6990618605"/>
    <nd ref="6990618606"/>
    <nd ref="1861245080"/>
    <tag k="addr:city" v="Leeds"/>
    <tag k="addr:housenumber" v="31"/>
    <tag k="addr:postcode" v="LS17 9EN"/>
    <tag k="addr:street" v="The Paddock"/>
    <tag k="addr:suburb" v="East Keswick"/>
    <tag k="building" v="house"/>
    <tag k="ref:GB:uprn" v="72389489"/>
  </way>
  <way id="175548888" version="4" timestamp="2025-04-11T22:45:12Z" changeset="164835722" uid="8857" user="philipcullen">
    <nd ref="1861245043"/>
    <nd ref="1861245093"/>
    <nd ref="6990618611"/>
    <nd ref="6990618610"/>
    <nd ref="1861245235"/>
    <nd ref="6553400799"/>
    <nd ref="1861245043"/>
    <tag k="addr:city" v="Leeds"/>
    <tag k="addr:housenumber" v="29"/>
    <tag k="addr:postcode" v="LS17 9EN"/>
    <tag k="addr:street" v="The Paddock"/>
    <tag k="addr:suburb" v="East Keswick"/>
    <tag k="building" v="house"/>
    <tag k="ref:GB:uprn" v="72389487"/>
  </way>
  <way id="175548890" version="4" timestamp="2025-04-11T22:45:12Z" changeset="164835722" uid="8857" user="philipcullen">
    <nd ref="1861244999"/>
    <nd ref="6553354478"/>
    <nd ref="1861245003"/>
    <nd ref="1861245118"/>
    <nd ref="6987991729"/>
    <nd ref="6987991730"/>
    <nd ref="1861245150"/>
    <nd ref="1861245148"/>
    <nd ref="1861245077"/>
    <nd ref="6987991725"/>
    <nd ref="1861245000"/>
    <nd ref="6987991726"/>
    <nd ref="6987991727"/>
    <nd ref="6987991728"/>
    <nd ref="1861244999"/>
    <tag k="addr:city" v="Leeds"/>
    <tag k="addr:housenumber" v="26"/>
    <tag k="addr:postcode" v="LS17 9EN"/>
    <tag k="addr:street" v="The Paddock"/>
    <tag k="addr:suburb" v="East Keswick"/>
    <tag k="building" v="house"/>
    <tag k="ref:GB:uprn" v="72389484"/>
    <tag k="source" v="survey"/>
    <tag k="source:postcode" v="Companies House Open Data"/>
  </way>
  <way id="175548893" version="4" timestamp="2025-04-11T22:45:12Z" changeset="164835722" uid="8857" user="philipcullen">
    <nd ref="1861245231"/>
    <nd ref="1861244980"/>
    <nd ref="6990641626"/>
    <nd ref="6553354474"/>
    <nd ref="1861244987"/>
    <nd ref="1861245233"/>
    <nd ref="1861245231"/>
    <tag k="addr:city" v="Leeds"/>
    <tag k="addr:housenumber" v="12"/>
    <tag k="addr:postcode" v="LS17 9BS"/>
    <tag k="addr:street" v="Paddock Green"/>
    <tag k="addr:suburb" v="East Keswick"/>
    <tag k="building" v="house"/>
    <tag k="ref:GB:uprn" v="72400691"/>
  </way>
  <way id="175548895" version="4" timestamp="2025-04-11T22:45:12Z" changeset="164835722" uid="8857" user="philipcullen">
    <nd ref="6990641623"/>
    <nd ref="1861245202"/>
    <nd ref="6990641617"/>
    <nd ref="1861245144"/>
    <nd ref="6990641618"/>
    <nd ref="6990641622"/>
    <nd ref="6990641619"/>
    <nd ref="6990641620"/>
    <nd ref="6990641621"/>
    <nd ref="1861245084"/>
    <nd ref="1861245079"/>
    <nd ref="1861245243"/>
    <nd ref="1861245211"/>
    <nd ref="1861244992"/>
    <nd ref="6990641616"/>
    <nd ref="6990641615"/>
    <nd ref="1861245171"/>
    <nd ref="1861245174"/>
    <nd ref="1861245189"/>
    <nd ref="1861245185"/>
    <nd ref="1861245181"/>
    <nd ref="6990641624"/>
    <nd ref="6553400809"/>
    <nd ref="1861245146"/>
    <nd ref="6990641623"/>
    <tag k="addr:city" v="Leeds"/>
    <tag k="addr:housenumber" v="8"/>
    <tag k="addr:postcode" v="LS17 9BS"/>
    <tag k="addr:street" v="Paddock Green"/>
    <tag k="addr:suburb" v="East Keswick"/>
    <tag k="building" v="house"/>
    <tag k="ref:GB:uprn" v="72400689"/>
  </way>
  <way id="175548897" version="3" timestamp="2025-04-11T22:45:12Z" changeset="164835722" uid="8857" user="philipcullen">
    <nd ref="6990641610"/>
    <nd ref="1861244984"/>
    <nd ref="1861245240"/>
    <nd ref="1861245012"/>
    <nd ref="1861245218"/>
    <nd ref="1861245015"/>
    <nd ref="1861244955"/>
    <nd ref="1861245090"/>
    <nd ref="1861245088"/>
    <nd ref="6553400787"/>
    <nd ref="1861245187"/>
    <nd ref="1861245177"/>
    <nd ref="1861245176"/>
    <nd ref="1861245167"/>
    <nd ref="6990641610"/>
    <tag k="addr:housenumber" v="41"/>
    <tag k="addr:street" v="The Paddock"/>
    <tag k="building" v="house"/>
    <tag k="ref:GB:uprn" v="72389494"/>
  </way>
  <way id="175548898" version="4" timestamp="2025-04-11T22:45:12Z" changeset="164835722" uid="8857" user="philipcullen">
    <nd ref="1861245217"/>
    <nd ref="1861245241"/>
    <nd ref="1861245237"/>
    <nd ref="1861245236"/>
    <nd ref="1861245226"/>
    <nd ref="6553354484"/>
    <nd ref="1861245057"/>
    <nd ref="1861245046"/>
    <nd ref="1861245047"/>
    <nd ref="1861245001"/>
    <nd ref="1861245217"/>
    <tag k="addr:city" v="Leeds"/>
    <tag k="addr:housenumber" v="2"/>
    <tag k="addr:postcode" v="LS17 9BS"/>
    <tag k="addr:street" v="Paddock Green"/>
    <tag k="addr:suburb" v="East Keswick"/>
    <tag k="building" v="house"/>
    <tag k="ref:GB:uprn" v="72400683"/>
  </way>
  <way id="175548903" version="4" timestamp="2025-04-11T22:45:12Z" changeset="164835722" uid="8857" user="philipcullen">
    <nd ref="6990641613"/>
    <nd ref="6990641612"/>
    <nd ref="6990641615"/>
    <nd ref="6990641616"/>
    <nd ref="6990641614"/>
    <nd ref="6990641611"/>
    <nd ref="1861245173"/>
    <nd ref="1861245073"/>
    <nd ref="1861245068"/>
    <nd ref="6553354483"/>
    <nd ref="1861245101"/>
    <nd ref="1861245103"/>
    <nd ref="1861245132"/>
    <nd ref="6990641613"/>
    <tag k="addr:city" v="Leeds"/>
    <tag k="addr:housenumber" v="6"/>
    <tag k="addr:postcode" v="LS17 9BS"/>
    <tag k="addr:street" v="Paddock Green"/>
    <tag k="addr:suburb" v="East Keswick"/>
    <tag k="building" v="house"/>
    <tag k="ref:GB:uprn" v="72400687"/>
  </way>
  <way id="175548905" version="5" timestamp="2025-04-11T22:45:12Z" changeset="164835722" uid="8857" user="philipcullen">
    <nd ref="1861245108"/>
    <nd ref="1861245005"/>
    <nd ref="1861245006"/>
    <nd ref="6553354481"/>
    <nd ref="6990618603"/>
    <nd ref="1861245008"/>
    <nd ref="1861245247"/>
    <nd ref="1861245110"/>
    <nd ref="1861245108"/>
    <tag k="addr:city" v="Leeds"/>
    <tag k="addr:housenumber" v="37"/>
    <tag k="addr:postcode" v="LS17 9EN"/>
    <tag k="addr:street" v="The Paddock"/>
    <tag k="addr:suburb" v="East Keswick"/>
    <tag k="building" v="house"/>
    <tag k="ref:GB:uprn" v="72389492"/>
  </way>
  <way id="175548907" version="4" timestamp="2025-04-11T22:45:12Z" changeset="164835722" uid="8857" user="philipcullen">
    <nd ref="1861244962"/>
    <nd ref="1861245137"/>
    <nd ref="6553400806"/>
    <nd ref="1861244957"/>
    <nd ref="1861245029"/>
    <nd ref="1861245026"/>
    <nd ref="1861245030"/>
    <nd ref="1861244968"/>
    <nd ref="1861244963"/>
    <nd ref="1861245168"/>
    <nd ref="1861244962"/>
    <tag k="addr:city" v="Leeds"/>
    <tag k="addr:housenumber" v="4"/>
    <tag k="addr:postcode" v="LS17 9BS"/>
    <tag k="addr:street" v="Paddock Green"/>
    <tag k="addr:suburb" v="East Keswick"/>
    <tag k="building" v="house"/>
    <tag k="ref:GB:uprn" v="72400685"/>
  </way>
  <way id="175548908" version="4" timestamp="2025-04-11T22:45:12Z" changeset="164835722" uid="8857" user="philipcullen">
    <nd ref="6553354473"/>
    <nd ref="1861245011"/>
    <nd ref="1861245238"/>
    <nd ref="1861245040"/>
    <nd ref="1861245013"/>
    <nd ref="1861245061"/>
    <nd ref="6553354473"/>
    <tag k="addr:city" v="Leeds"/>
    <tag k="addr:housenumber" v="10"/>
    <tag k="addr:postcode" v="LS17 9EN"/>
    <tag k="addr:street" v="The Paddock"/>
    <tag k="addr:suburb" v="East Keswick"/>
    <tag k="building" v="house"/>
    <tag k="ref:GB:uprn" v="72389467"/>
    <tag k="source:addr" v="interpolation"/>
    <tag k="source:postcode" v="extrapolation"/>
  </way>
  <way id="175548910" version="4" timestamp="2025-04-11T22:45:12Z" changeset="164835722" uid="8857" user="philipcullen">
    <nd ref="1861245069"/>
    <nd ref="1861244954"/>
    <nd ref="6553400795"/>
    <nd ref="6990618604"/>
    <nd ref="1861245179"/>
    <nd ref="1861245025"/>
    <nd ref="1861245155"/>
    <nd ref="1861244960"/>
    <nd ref="1861245152"/>
    <nd ref="1861245195"/>
    <nd ref="1861245069"/>
    <tag k="addr:city" v="Leeds"/>
    <tag k="addr:housenumber" v="33"/>
    <tag k="addr:postcode" v="LS17 9EN"/>
    <tag k="addr:street" v="The Paddock"/>
    <tag k="addr:suburb" v="East Keswick"/>
    <tag k="building" v="house"/>
    <tag k="ref:GB:uprn" v="72389490"/>
  </way>
  <way id="175548911" version="4" timestamp="2025-04-11T22:45:12Z" changeset="164835722" uid="8857" user="philipcullen">
    <nd ref="1861245076"/>
    <nd ref="1861245221"/>
    <nd ref="1861245225"/>
    <nd ref="6553400810"/>
    <nd ref="1861245050"/>
    <nd ref="1861245111"/>
    <nd ref="1861245076"/>
    <tag k="addr:city" v="Leeds"/>
    <tag k="addr:housenumber" v="22"/>
    <tag k="addr:postcode" v="LS17 9EN"/>
    <tag k="addr:street" v="The Paddock"/>
    <tag k="addr:suburb" v="East Keswick"/>
    <tag k="building" v="house"/>
    <tag k="ref:GB:uprn" v="72389479"/>
    <tag k="source:addr" v="interpolation"/>
    <tag k="source:postcode" v="extrapolation"/>
  </way>
  <way id="175548912" version="4" timestamp="2025-04-11T22:45:12Z" changeset="164835722" uid="8857" user="philipcullen">
    <nd ref="6987991739"/>
    <nd ref="6987991735"/>
    <nd ref="6987991738"/>
    <nd ref="1861245215"/>
    <nd ref="1861245018"/>
    <nd ref="1861245020"/>
    <nd ref="6987991740"/>
    <nd ref="6553400796"/>
    <nd ref="1861245228"/>
    <nd ref="6987991737"/>
    <nd ref="6987991736"/>
    <nd ref="6987991739"/>
    <tag k="addr:city" v="Leeds"/>
    <tag k="addr:housenumber" v="20"/>
    <tag k="addr:postcode" v="LS17 9EN"/>
    <tag k="addr:street" v="The Paddock"/>
    <tag k="addr:suburb" v="East Keswick"/>
    <tag k="building" v="house"/>
    <tag k="ref:GB:uprn" v="72389477"/>
    <tag k="source:addr" v="interpolation"/>
    <tag k="source:postcode" v="extrapolation"/>
  </way>
  <way id="175548916" version="5" timestamp="2025-04-11T22:45:12Z" changeset="164835722" uid="8857" user="philipcullen">
    <nd ref="1861245157"/>
    <nd ref="6553400805"/>
    <nd ref="1861245210"/>
    <nd ref="1861244995"/>
    <nd ref="1861245014"/>
    <nd ref="1861245246"/>
    <nd ref="1861245138"/>
    <nd ref="1861245157"/>
    <tag k="addr:city" v="Leeds"/>
    <tag k="addr:housenumber" v="39"/>
    <tag k="addr:postcode" v="LS17 9EN"/>
    <tag k="addr:street" v="The Paddock"/>
    <tag k="addr:suburb" v="East Keswick"/>
    <tag k="building" v="house"/>
    <tag k="ref:GB:uprn" v="72389493"/>
  </way>
  <way id="175548918" version="9" timestamp="2025-04-11T22:45:12Z" changeset="164835722" uid="8857" user="philipcullen">
    <nd ref="6990641596"/>
    <nd ref="6990641598"/>
    <nd ref="1861245199"/>
    <nd ref="1861245027"/>
    <nd ref="6990641597"/>
    <nd ref="1861245024"/>
    <nd ref="1905355899"/>
    <nd ref="6990641595"/>
    <nd ref="6990641596"/>
    <tag k="addr:city" v="Leeds"/>
    <tag k="addr:postcode" v="LS17 9EJ"/>
    <tag k="addr:street" v="Main Street"/>
    <tag k="building" v="retail"/>
    <tag k="fhrs:id" v="455713"/>
    <tag k="name" v="R P Setchfield"/>
    <tag k="ref:GB:uprn" v="72565386"/>
    <tag k="shop" v="butcher"/>
  </way>
  <way id="175548920" version="5" timestamp="2025-04-11T22:45:12Z" changeset="164835722" uid="8857" user="philipcullen">
    <nd ref="1861245203"/>
    <nd ref="1861245156"/>
    <nd ref="6553400808"/>
    <nd ref="1861245162"/>
    <nd ref="1861245203"/>
    <tag k="addr:city" v="Leeds"/>
    <tag k="addr:housename" v="Laburnum House"/>
    <tag k="addr:housenumber" v="1"/>
    <tag k="addr:postcode" v="LS17 9BS"/>
    <tag k="addr:street" v="Paddock Green"/>
    <tag k="addr:suburb" v="East Keswick"/>
    <tag k="building" v="house"/>
    <tag k="ref:GB:uprn" v="72400682"/>
    <tag k="source:addr" v="survey"/>
    <tag k="source:postcode" v="extrapolation"/>
  </way>
  <way id="175548921" version="4" timestamp="2025-04-11T22:45:12Z" changeset="164835722" uid="8857" user="philipcullen">
    <nd ref="1861245075"/>
    <nd ref="6553400791"/>
    <nd ref="1861245094"/>
    <nd ref="1861245002"/>
    <nd ref="1861245075"/>
    <tag k="addr:city" v="Leeds"/>
    <tag k="addr:housenumber" v="24"/>
    <tag k="addr:postcode" v="LS17 9EN"/>
    <tag k="addr:street" v="The Paddock"/>
    <tag k="addr:suburb" v="East Keswick"/>
    <tag k="building" v="house"/>
    <tag k="ref:GB:uprn" v="72389482"/>
    <tag k="source:addr" v="interpolation"/>
    <tag k="source:postcode" v="extrapolation"/>
  </way>
  <way id="175548922" version="4" timestamp="2025-04-11T22:45:12Z" changeset="164835722" uid="8857" user="philipcullen">
    <nd ref="6553400804"/>
    <nd ref="1861244966"/>
    <nd ref="1861245244"/>
    <nd ref="1861245194"/>
    <nd ref="6553400804"/>
    <tag k="addr:city" v="Leeds"/>
    <tag k="addr:housenumber" v="35"/>
    <tag k="addr:postcode" v="LS17 9EN"/>
    <tag k="addr:street" v="The Paddock"/>
    <tag k="addr:suburb" v="East Keswick"/>
    <tag k="building" v="house"/>
    <tag k="ref:GB:uprn" v="72389491"/>
  </way>
  <way id="175548923" version="4" timestamp="2025-04-11T22:45:12Z" changeset="164835722" uid="8857" user="philipcullen">
    <nd ref="1861245224"/>
    <nd ref="1861245065"/>
    <nd ref="1861245066"/>
    <nd ref="1861245123"/>
    <nd ref="1861245120"/>
    <nd ref="1861245121"/>
    <nd ref="1861245159"/>
    <nd ref="6553354477"/>
    <nd ref="6990641625"/>
    <nd ref="1861244948"/>
    <nd ref="1861245224"/>
    <tag k="addr:city" v="Leeds"/>
    <tag k="addr:housenumber" v="10"/>
    <tag k="addr:postcode" v="LS17 9BS"/>
    <tag k="addr:street" v="Paddock Green"/>
    <tag k="addr:suburb" v="East Keswick"/>
    <tag k="building" v="house"/>
    <tag k="ref:GB:uprn" v="72400690"/>
  </way>
  <way id="175552157" version="4" timestamp="2025-04-11T22:45:12Z" changeset="164835722" uid="8857" user="philipcullen">
    <nd ref="1861284291"/>
    <nd ref="1861285210"/>
    <nd ref="1861285229"/>
    <nd ref="1861284254"/>
    <nd ref="1861284291"/>
    <tag k="addr:city" v="Leeds"/>
    <tag k="addr:housenumber" v="14"/>
    <tag k="addr:postcode" v="LS17 9EP"/>
    <tag k="addr:street" v="Church Drive"/>
    <tag k="building" v="yes"/>
    <tag k="ref:GB:uprn" v="72388414"/>
    <tag k="source:postcode" v="extrapolation from Companies House Open Data"/>
  </way>
  <way id="175552159" version="4" timestamp="2025-04-11T22:45:12Z" changeset="164835722" uid="8857" user="philipcullen">
    <nd ref="1861284279"/>
    <nd ref="1861284286"/>
    <nd ref="1861285286"/>
    <nd ref="1861285285"/>
    <nd ref="1861285082"/>
    <nd ref="1861284920"/>
    <nd ref="1861284925"/>
    <nd ref="1861284460"/>
    <nd ref="1861284279"/>
    <tag k="addr:city" v="Leeds"/>
    <tag k="addr:housenumber" v="8"/>
    <tag k="addr:postcode" v="LS17 9ER"/>
    <tag k="addr:street" v="St Marys Garth"/>
    <tag k="addr:suburb" v="East Keswick"/>
    <tag k="building" v="house"/>
    <tag k="ref:GB:uprn" v="72388392"/>
    <tag k="source:postcode" v="extrapolation from Companies House Open Data"/>
  </way>
  <way id="175552161" version="3" timestamp="2025-04-11T22:45:12Z" changeset="164835722" uid="8857" user="philipcullen">
    <nd ref="1861284474"/>
    <nd ref="1861285165"/>
    <nd ref="1861284527"/>
    <nd ref="1861284764"/>
    <nd ref="1861285330"/>
    <nd ref="1861285045"/>
    <nd ref="1861285032"/>
    <nd ref="1861284530"/>
    <nd ref="1861285335"/>
    <nd ref="1861285333"/>
    <nd ref="1861284874"/>
    <nd ref="1861284336"/>
    <nd ref="1861284474"/>
    <tag k="addr:city" v="Leeds"/>
    <tag k="addr:housenumber" v="51"/>
    <tag k="addr:postcode" v="LS17 9EP"/>
    <tag k="addr:street" v="Church Drive"/>
    <tag k="building" v="house"/>
    <tag k="ref:GB:uprn" v="72388449"/>
    <tag k="source:addr" v="interpolation"/>
    <tag k="source:postcode" v="extrapolation from Companies House Open Data"/>
  </way>
  <way id="175552162" version="5" timestamp="2025-04-11T22:45:12Z" changeset="164835722" uid="8857" user="philipcullen">
    <nd ref="1861284516"/>
    <nd ref="1861285037"/>
    <nd ref="1861284343"/>
    <nd ref="1861285237"/>
    <nd ref="1861284516"/>
    <tag k="addr:city" v="Leeds"/>
    <tag k="addr:housenumber" v="7"/>
    <tag k="addr:postcode" v="LS17 9ER"/>
    <tag k="addr:street" v="St Marys Garth"/>
    <tag k="addr:suburb" v="East Keswick"/>
    <tag k="building" v="house"/>
    <tag k="ref:GB:uprn" v="72388391"/>
    <tag k="source:addr" v="interpolation"/>
    <tag k="source:postcode" v="extrapolation from Companies House Open Data"/>
  </way>
  <way id="175552164" version="3" timestamp="2025-04-11T22:45:12Z" changeset="164835722" uid="8857" user="philipcullen">
    <nd ref="1861285462"/>
    <nd ref="1861284494"/>
    <nd ref="1861284561"/>
    <nd ref="1861284395"/>
    <nd ref="1861285462"/>
    <tag k="addr:city" v="Leeds"/>
    <tag k="addr:housenumber" v="10"/>
    <tag k="addr:postcode" v="LS17 9EJ"/>
    <tag k="addr:street" v="Church Drive"/>
    <tag k="building" v="yes"/>
    <tag k="ref:GB:uprn" v="72388412"/>
  </way>
  <way id="175552171" version="3" timestamp="2025-04-11T22:45:12Z" changeset="164835722" uid="8857" user="philipcullen">
    <nd ref="1861284596"/>
    <nd ref="1861284829"/>
    <nd ref="1861285291"/>
    <nd ref="1861285453"/>
    <nd ref="1861284253"/>
    <nd ref="1861285000"/>
    <nd ref="1861284599"/>
    <nd ref="1861284263"/>
    <nd ref="1861284596"/>
    <tag k="addr:city" v="Leeds"/>
    <tag k="addr:housenumber" v="36"/>
    <tag k="addr:postcode" v="LS17 9EP"/>
    <tag k="addr:street" v="Church Drive"/>
    <tag k="building" v="house"/>
    <tag k="ref:GB:uprn" v="72388429"/>
    <tag k="source:addr" v="interpolation"/>
    <tag k="source:postcode" v="extrapolation from Companies House Open Data"/>
  </way>
  <way id="175552172" version="3" timestamp="2025-04-11T22:45:12Z" changeset="164835722" uid="8857" user="philipcullen">
    <nd ref="1861284556"/>
    <nd ref="1861285093"/>
    <nd ref="1861285376"/>
    <nd ref="1861284624"/>
    <nd ref="1861284556"/>
    <tag k="addr:city" v="Leeds"/>
    <tag k="addr:housenumber" v="12"/>
    <tag k="addr:postcode" v="LS17 9EJ"/>
    <tag k="addr:street" v="Church Drive"/>
    <tag k="building" v="yes"/>
    <tag k="ref:GB:uprn" v="72388413"/>
  </way>
  <way id="175552174" version="4" timestamp="2025-04-11T22:45:12Z" changeset="164835722" uid="8857" user="philipcullen">
    <nd ref="1861284229"/>
    <nd ref="1861284898"/>
    <nd ref="1861284267"/>
    <nd ref="1861284266"/>
    <nd ref="1861284393"/>
    <nd ref="1861284721"/>
    <nd ref="1861284229"/>
    <tag k="addr:city" v="Leeds"/>
    <tag k="addr:housenumber" v="15"/>
    <tag k="addr:postcode" v="LS17 9ER"/>
    <tag k="addr:street" v="St Marys Garth"/>
    <tag k="addr:suburb" v="East Keswick"/>
    <tag k="building" v="house"/>
    <tag k="ref:GB:uprn" v="72388399"/>
    <tag k="source:postcode" v="Companies House Open Data"/>
  </way>
  <way id="175552175" version="3" timestamp="2025-04-11T22:45:12Z" changeset="164835722" uid="8857" user="philipcullen">
    <nd ref="1861284842"/>
    <nd ref="1861284682"/>
    <nd ref="1861285345"/>
    <nd ref="1861284583"/>
    <nd ref="1861284760"/>
    <nd ref="1861285311"/>
    <nd ref="1861284842"/>
    <tag k="addr:city" v="Leeds"/>
    <tag k="addr:housenumber" v="45"/>
    <tag k="addr:postcode" v="LS17 9EP"/>
    <tag k="addr:street" v="Church Drive"/>
    <tag k="building" v="house"/>
    <tag k="ref:GB:uprn" v="72388446"/>
    <tag k="source:addr" v="interpolation"/>
    <tag k="source:postcode" v="extrapolation from Companies House Open Data"/>
  </way>
  <way id="175552185" version="6" timestamp="2025-04-11T22:45:12Z" changeset="164835722" uid="8857" user="philipcullen">
    <nd ref="1861284242"/>
    <nd ref="1861284860"/>
    <nd ref="11564974063"/>
    <nd ref="11564974062"/>
    <nd ref="1861284785"/>
    <nd ref="11564974061"/>
    <nd ref="11564974060"/>
    <nd ref="1861284982"/>
    <nd ref="11564974059"/>
    <nd ref="11564974058"/>
    <nd ref="1861284242"/>
    <tag k="addr:city" v="Leeds"/>
    <tag k="addr:housenumber" v="25"/>
    <tag k="addr:postcode" v="LS17 9EP"/>
    <tag k="addr:street" v="Church Drive"/>
    <tag k="addr:suburb" v="East Keswick"/>
    <tag k="building" v="detached"/>
    <tag k="ref:GB:uprn" v="72388420"/>
    <tag k="source:postcode" v="extrapolation from Companies House Open Data"/>
  </way>
  <way id="175552186" version="6" timestamp="2025-04-11T22:45:12Z" changeset="164835722" uid="8857" user="philipcullen">
    <nd ref="1861284840"/>
    <nd ref="1861284589"/>
    <nd ref="1861284434"/>
    <nd ref="1861285342"/>
    <nd ref="11564974065"/>
    <nd ref="11564974066"/>
    <nd ref="11564974067"/>
    <nd ref="11564974068"/>
    <nd ref="1861284840"/>
    <tag k="addr:city" v="Leeds"/>
    <tag k="addr:housenumber" v="29"/>
    <tag k="addr:postcode" v="LS17 9EP"/>
    <tag k="addr:street" v="Church Drive"/>
    <tag k="addr:suburb" v="East Keswick"/>
    <tag k="building" v="detached"/>
    <tag k="ref:GB:uprn" v="72388424"/>
    <tag k="source:postcode" v="extrapolation from Companies House Open Data"/>
  </way>
  <way id="175552191" version="6" timestamp="2025-04-11T22:45:12Z" changeset="164835722" uid="8857" user="philipcullen">
    <nd ref="1861285253"/>
    <nd ref="1861284908"/>
    <nd ref="1861284495"/>
    <nd ref="1861284906"/>
    <nd ref="1861284980"/>
    <nd ref="1861284345"/>
    <nd ref="1861285357"/>
    <nd ref="1861285259"/>
    <nd ref="1861285253"/>
    <tag k="addr:city" v="Leeds"/>
    <tag k="addr:housenumber" v="1"/>
    <tag k="addr:postcode" v="LS17 9ER"/>
    <tag k="addr:street" v="St Marys Garth"/>
    <tag k="addr:suburb" v="East Keswick"/>
    <tag k="building" v="detached"/>
    <tag k="ref:GB:uprn" v="72388385"/>
    <tag k="source:postcode" v="extrapolation from Companies House Open Data"/>
  </way>
  <way id="175552192" version="4" timestamp="2025-04-11T22:45:12Z" changeset="164835722" uid="8857" user="philipcullen">
    <nd ref="1861285257"/>
    <nd ref="1861285354"/>
    <nd ref="1861284990"/>
    <nd ref="1861284998"/>
    <nd ref="1861285257"/>
    <tag k="addr:city" v="Leeds"/>
    <tag k="addr:housenumber" v="10"/>
    <tag k="addr:postcode" v="LS17 9ER"/>
    <tag k="addr:street" v="St Marys Garth"/>
    <tag k="addr:suburb" v="East Keswick"/>
    <tag k="building" v="house"/>
    <tag k="ref:GB:uprn" v="72388394"/>
    <tag k="source:postcode" v="extrapolation from Companies House Open Data"/>
  </way>
  <way id="175552197" version="6" timestamp="2025-04-11T22:45:12Z" changeset="164835722" uid="8857" user="philipcullen">
    <nd ref="1861285355"/>
    <nd ref="1861284205"/>
    <nd ref="1861285157"/>
    <nd ref="1861285184"/>
    <nd ref="1861284420"/>
    <nd ref="1861285411"/>
    <nd ref="1861285355"/>
    <tag k="addr:city" v="Leeds"/>
    <tag k="addr:housenumber" v="27"/>
    <tag k="addr:postcode" v="LS17 9EP"/>
    <tag k="addr:street" v="Church Drive"/>
    <tag k="addr:suburb" v="East Keswick"/>
    <tag k="building" v="detached"/>
    <tag k="ref:GB:uprn" v="72388422"/>
    <tag k="source:postcode" v="extrapolation from Companies House Open Data"/>
  </way>
  <way id="175552198" version="5" timestamp="2025-04-11T22:45:12Z" changeset="164835722" uid="8857" user="philipcullen">
    <nd ref="1861285309"/>
    <nd ref="1861284789"/>
    <nd ref="1861284777"/>
    <nd ref="1861285353"/>
    <nd ref="11564979983"/>
    <nd ref="11564979984"/>
    <nd ref="1861285461"/>
    <nd ref="11564979979"/>
    <nd ref="11564979980"/>
    <nd ref="1861284490"/>
    <nd ref="11564979981"/>
    <nd ref="11564979982"/>
    <nd ref="1861285309"/>
    <tag k="addr:city" v="Leeds"/>
    <tag k="addr:housenumber" v="16"/>
    <tag k="addr:postcode" v="LS17 9EP"/>
    <tag k="addr:street" v="Church Drive"/>
    <tag k="addr:suburb" v="East Keswick"/>
    <tag k="building" v="detached"/>
    <tag k="ref:GB:uprn" v="72388415"/>
    <tag k="source:addr" v="survey"/>
    <tag k="source:postcode" v="extrapolation from Companies House Open Data"/>
  </way>
  <way id="175552201" version="3" timestamp="2025-04-11T22:45:12Z" changeset="164835722" uid="8857" user="philipcullen">
    <nd ref="1861285321"/>
    <nd ref="1861284712"/>
    <nd ref="1861285053"/>
    <nd ref="1861285366"/>
    <nd ref="1861284228"/>
    <nd ref="1861284939"/>
    <nd ref="1861285302"/>
    <nd ref="1861284799"/>
    <nd ref="1861285321"/>
    <tag k="addr:city" v="Leeds"/>
    <tag k="addr:housenumber" v="24"/>
    <tag k="addr:postcode" v="LS17 9EP"/>
    <tag k="addr:street" v="Church Drive"/>
    <tag k="building" v="house"/>
    <tag k="ref:GB:uprn" v="72388419"/>
    <tag k="source:addr" v="interpolation"/>
    <tag k="source:postcode" v="extrapolation from Companies House Open Data"/>
  </way>
  <way id="175552204" version="4" timestamp="2025-04-11T22:45:12Z" changeset="164835722" uid="8857" user="philipcullen">
    <nd ref="1861285310"/>
    <nd ref="1861284415"/>
    <nd ref="1861284790"/>
    <nd ref="1861284822"/>
    <nd ref="1861284818"/>
    <nd ref="1861285351"/>
    <nd ref="1861285310"/>
    <tag k="addr:city" v="Leeds"/>
    <tag k="addr:housenumber" v="14"/>
    <tag k="addr:postcode" v="LS17 9ER"/>
    <tag k="addr:street" v="St Marys Garth"/>
    <tag k="addr:suburb" v="East Keswick"/>
    <tag k="building" v="house"/>
    <tag k="ref:GB:uprn" v="72388398"/>
    <tag k="source:postcode" v="extrapolation from Companies House Open Data"/>
  </way>
  <way id="175552206" version="5" timestamp="2025-04-11T22:45:12Z" changeset="164835722" uid="8857" user="philipcullen">
    <nd ref="1861285096"/>
    <nd ref="1861284277"/>
    <nd ref="1861284272"/>
    <nd ref="1861285326"/>
    <nd ref="1861285069"/>
    <nd ref="1861284298"/>
    <nd ref="11564979969"/>
    <nd ref="11564979970"/>
    <nd ref="1861284961"/>
    <nd ref="1861285196"/>
    <nd ref="1861285096"/>
    <tag k="addr:city" v="Leeds"/>
    <tag k="addr:housenumber" v="18"/>
    <tag k="addr:postcode" v="LS17 9EP"/>
    <tag k="addr:street" v="Church Drive"/>
    <tag k="addr:suburb" v="East Keswick"/>
    <tag k="building" v="detached"/>
    <tag k="ref:GB:uprn" v="72388416"/>
    <tag k="source:postcode" v="extrapolation from Companies House Open Data"/>
  </way>
  <way id="175552207" version="3" timestamp="2025-04-11T22:45:12Z" changeset="164835722" uid="8857" user="philipcullen">
    <nd ref="1861285145"/>
    <nd ref="1861285270"/>
    <nd ref="1861285358"/>
    <nd ref="1861284236"/>
    <nd ref="1861284235"/>
    <nd ref="6551246570"/>
    <nd ref="1861284918"/>
    <nd ref="6551246551"/>
    <nd ref="1861285145"/>
    <tag k="addr:city" v="Leeds"/>
    <tag k="addr:housenumber" v="6"/>
    <tag k="addr:postcode" v="LS17 9EJ"/>
    <tag k="addr:street" v="Church Drive"/>
    <tag k="building" v="yes"/>
    <tag k="ref:GB:uprn" v="72388403"/>
  </way>
  <way id="175552208" version="4" timestamp="2025-04-11T22:45:12Z" changeset="164835722" uid="8857" user="philipcullen">
    <nd ref="1861284385"/>
    <nd ref="1861284213"/>
    <nd ref="11564979989"/>
    <nd ref="11564979990"/>
    <nd ref="1861284282"/>
    <nd ref="1861285108"/>
    <nd ref="1861284385"/>
    <tag k="addr:city" v="Leeds"/>
    <tag k="addr:housenumber" v="6"/>
    <tag k="addr:postcode" v="LS17 9ER"/>
    <tag k="addr:street" v="St Marys Garth"/>
    <tag k="addr:suburb" v="East Keswick"/>
    <tag k="building" v="house"/>
    <tag k="ref:GB:uprn" v="72388390"/>
    <tag k="source:postcode" v="extrapolation from Companies House Open Data"/>
  </way>
  <way id="175552210" version="5" timestamp="2025-04-11T22:45:12Z" changeset="164835722" uid="8857" user="philipcullen">
    <nd ref="1861285384"/>
    <nd ref="1861285308"/>
    <nd ref="1861284234"/>
    <nd ref="6761816594"/>
    <nd ref="6761816593"/>
    <nd ref="1861285393"/>
    <nd ref="1861285384"/>
    <tag k="addr:city" v="Leeds"/>
    <tag k="addr:housenumber" v="11"/>
    <tag k="addr:postcode" v="LS17 9ER"/>
    <tag k="addr:street" v="St Marys Garth"/>
    <tag k="addr:suburb" v="East Keswick"/>
    <tag k="building" v="house"/>
    <tag k="ref:GB:uprn" v="72388396"/>
    <tag k="source:addr" v="interpolation"/>
    <tag k="source:postcode" v="extrapolation from Companies House Open Data"/>
  </way>
  <way id="175552213" version="6" timestamp="2025-04-11T22:45:12Z" changeset="164835722" uid="8857" user="philipcullen">
    <nd ref="1861284314"/>
    <nd ref="1861285015"/>
    <nd ref="1861284671"/>
    <nd ref="1861284743"/>
    <nd ref="1861284753"/>
    <nd ref="1861284796"/>
    <nd ref="1861285382"/>
    <nd ref="1861284374"/>
    <nd ref="1861284314"/>
    <tag k="addr:city" v="Leeds"/>
    <tag k="addr:housenumber" v="3"/>
    <tag k="addr:postcode" v="LS17 9ER"/>
    <tag k="addr:street" v="St Marys Garth"/>
    <tag k="addr:suburb" v="East Keswick"/>
    <tag k="building" v="house"/>
    <tag k="ref:GB:uprn" v="72388387"/>
    <tag k="source:postcode" v="extrapolation from Companies House Open Data"/>
  </way>
  <way id="175552215" version="5" timestamp="2025-04-11T22:45:12Z" changeset="164835722" uid="8857" user="philipcullen">
    <nd ref="1861284505"/>
    <nd ref="11564979985"/>
    <nd ref="11564979987"/>
    <nd ref="11564979986"/>
    <nd ref="1861284319"/>
    <nd ref="1861284259"/>
    <nd ref="11564979988"/>
    <nd ref="1861285423"/>
    <nd ref="1861284316"/>
    <nd ref="1861284506"/>
    <nd ref="1861284505"/>
    <tag k="addr:city" v="Leeds"/>
    <tag k="addr:housenumber" v="5"/>
    <tag k="addr:postcode" v="LS17 9ER"/>
    <tag k="addr:street" v="St Marys Garth"/>
    <tag k="addr:suburb" v="East Keswick"/>
    <tag k="building" v="detached"/>
    <tag k="ref:GB:uprn" v="72388389"/>
    <tag k="source:postcode" v="extrapolation from Companies House Open Data"/>
  </way>
  <way id="175552216" version="3" timestamp="2025-04-11T22:45:12Z" changeset="164835722" uid="8857" user="philipcullen">
    <nd ref="1861285236"/>
    <nd ref="1861285225"/>
    <nd ref="1861285218"/>
    <nd ref="1861285078"/>
    <nd ref="1861284488"/>
    <nd ref="1861285252"/>
    <nd ref="1861284212"/>
    <nd ref="1861285095"/>
    <nd ref="1861285236"/>
    <tag k="addr:city" v="Leeds"/>
    <tag k="addr:housenumber" v="49"/>
    <tag k="addr:postcode" v="LS17 9EP"/>
    <tag k="addr:street" v="Church Drive"/>
    <tag k="building" v="house"/>
    <tag k="ref:GB:uprn" v="72388448"/>
    <tag k="source:addr" v="interpolation"/>
    <tag k="source:postcode" v="extrapolation from Companies House Open Data"/>
  </way>
  <way id="175552218" version="3" timestamp="2025-04-11T22:45:12Z" changeset="164835722" uid="8857" user="philipcullen">
    <nd ref="1861284347"/>
    <nd ref="1861284409"/>
    <nd ref="1861284196"/>
    <nd ref="1861285153"/>
    <nd ref="1861285186"/>
    <nd ref="1861284423"/>
    <nd ref="1861284237"/>
    <nd ref="1861284230"/>
    <nd ref="1861284347"/>
    <tag k="addr:city" v="Leeds"/>
    <tag k="addr:housenumber" v="47"/>
    <tag k="addr:postcode" v="LS17 9EP"/>
    <tag k="addr:street" v="Church Drive"/>
    <tag k="building" v="house"/>
    <tag k="ref:GB:uprn" v="72388447"/>
    <tag k="source:addr" v="interpolation"/>
    <tag k="source:postcode" v="extrapolation from Companies House Open Data"/>
  </way>
  <way id="175552227" version="4" timestamp="2025-04-11T22:45:12Z" changeset="164835722" uid="8857" user="philipcullen">
    <nd ref="1861284352"/>
    <nd ref="1861284408"/>
    <nd ref="11564974051"/>
    <nd ref="11564974052"/>
    <nd ref="1861284201"/>
    <nd ref="1861284203"/>
    <nd ref="1861284709"/>
    <nd ref="1861284699"/>
    <nd ref="1861284352"/>
    <tag k="addr:city" v="Leeds"/>
    <tag k="addr:housenumber" v="4"/>
    <tag k="addr:postcode" v="LS17 9ER"/>
    <tag k="addr:street" v="St Marys Garth"/>
    <tag k="addr:suburb" v="East Keswick"/>
    <tag k="building" v="house"/>
    <tag k="ref:GB:uprn" v="72388388"/>
    <tag k="source:postcode" v="extrapolation from Companies House Open Data"/>
  </way>
  <way id="175552231" version="3" timestamp="2025-04-11T22:45:12Z" changeset="164835722" uid="8857" user="philipcullen">
    <nd ref="1861284500"/>
    <nd ref="1861285036"/>
    <nd ref="1861284675"/>
    <nd ref="1861285419"/>
    <nd ref="1861284501"/>
    <nd ref="1861284745"/>
    <nd ref="1861284668"/>
    <nd ref="1861284662"/>
    <nd ref="1861284500"/>
    <tag k="addr:city" v="Leeds"/>
    <tag k="addr:housenumber" v="53"/>
    <tag k="addr:postcode" v="LS17 9EP"/>
    <tag k="addr:street" v="Church Drive"/>
    <tag k="building" v="house"/>
    <tag k="ref:GB:uprn" v="72388450"/>
    <tag k="source:addr" v="interpolation"/>
    <tag k="source:postcode" v="extrapolation from Companies House Open Data"/>
  </way>
  <way id="175552235" version="3" timestamp="2025-04-11T22:45:12Z" changeset="164835722" uid="8857" user="philipcullen">
    <nd ref="1861285316"/>
    <nd ref="1861284246"/>
    <nd ref="1861284438"/>
    <nd ref="1861284493"/>
    <nd ref="1861284268"/>
    <nd ref="1861284602"/>
    <nd ref="1861285324"/>
    <nd ref="1861284715"/>
    <nd ref="1861284524"/>
    <nd ref="1861284941"/>
    <nd ref="1861285316"/>
    <tag k="addr:city" v="Leeds"/>
    <tag k="addr:housenumber" v="39"/>
    <tag k="addr:postcode" v="LS17 9EP"/>
    <tag k="addr:street" v="Church Drive"/>
    <tag k="building" v="house"/>
    <tag k="ref:GB:uprn" v="72388443"/>
    <tag k="source:addr" v="interpolation"/>
    <tag k="source:postcode" v="extrapolation from Companies House Open Data"/>
  </way>
  <way id="175552243" version="3" timestamp="2025-04-11T22:45:12Z" changeset="164835722" uid="8857" user="philipcullen">
    <nd ref="1861284637"/>
    <nd ref="1861284714"/>
    <nd ref="1861284439"/>
    <nd ref="1861284519"/>
    <nd ref="1861285057"/>
    <nd ref="1861285178"/>
    <nd ref="1861284637"/>
    <tag k="addr:city" v="Leeds"/>
    <tag k="addr:housenumber" v="8"/>
    <tag k="addr:postcode" v="LS17 9EJ"/>
    <tag k="addr:street" v="Church Drive"/>
    <tag k="building" v="yes"/>
    <tag k="ref:GB:uprn" v="72388411"/>
  </way>
  <way id="175552244" version="4" timestamp="2025-04-11T22:45:12Z" changeset="164835722" uid="8857" user="philipcullen">
    <nd ref="1861285043"/>
    <nd ref="1861284341"/>
    <nd ref="1861284338"/>
    <nd ref="1861285242"/>
    <nd ref="1861285235"/>
    <nd ref="1861285222"/>
    <nd ref="1861284705"/>
    <nd ref="1861285043"/>
    <tag k="addr:city" v="Leeds"/>
    <tag k="addr:housenumber" v="37"/>
    <tag k="addr:postcode" v="LS17 9EP"/>
    <tag k="addr:street" v="Church Drive"/>
    <tag k="building" v="house"/>
    <tag k="ref:GB:uprn" v="72388442"/>
    <tag k="source:postcode" v="extrapolation from Companies House Open Data"/>
  </way>
  <way id="175552246" version="5" timestamp="2025-04-11T22:45:12Z" changeset="164835722" uid="8857" user="philipcullen">
    <nd ref="1861285122"/>
    <nd ref="1861284622"/>
    <nd ref="1861284448"/>
    <nd ref="1861284957"/>
    <nd ref="1861285284"/>
    <nd ref="1861284565"/>
    <nd ref="1861285122"/>
    <tag k="addr:city" v="Leeds"/>
    <tag k="addr:housenumber" v="20"/>
    <tag k="addr:postcode" v="LS17 9EP"/>
    <tag k="addr:street" v="Church Drive"/>
    <tag k="addr:suburb" v="East Keswick"/>
    <tag k="building" v="house"/>
    <tag k="ref:GB:uprn" v="72388417"/>
    <tag k="source:addr" v="interpolation"/>
    <tag k="source:postcode" v="extrapolation from Companies House Open Data"/>
  </way>
  <way id="175552249" version="3" timestamp="2025-04-11T22:45:12Z" changeset="164835722" uid="8857" user="philipcullen">
    <nd ref="1861284412"/>
    <nd ref="1861284520"/>
    <nd ref="1861285332"/>
    <nd ref="1861284878"/>
    <nd ref="1861284333"/>
    <nd ref="1861284544"/>
    <nd ref="1861284521"/>
    <nd ref="1861285250"/>
    <nd ref="1861284412"/>
    <tag k="addr:city" v="Leeds"/>
    <tag k="addr:housenumber" v="30"/>
    <tag k="addr:postcode" v="LS17 9EP"/>
    <tag k="addr:street" v="Church Drive"/>
    <tag k="building" v="house"/>
    <tag k="ref:GB:uprn" v="72388426"/>
    <tag k="source:addr" v="interpolation"/>
    <tag k="source:postcode" v="extrapolation from Companies House Open Data"/>
  </way>
  <way id="175552252" version="5" timestamp="2025-04-11T22:45:12Z" changeset="164835722" uid="8857" user="philipcullen">
    <nd ref="1861285343"/>
    <nd ref="1861284880"/>
    <nd ref="1861284280"/>
    <nd ref="1861285459"/>
    <nd ref="1861285455"/>
    <nd ref="1861285449"/>
    <nd ref="1861285343"/>
    <tag k="addr:city" v="Leeds"/>
    <tag k="addr:housenumber" v="12"/>
    <tag k="addr:postcode" v="LS17 9ER"/>
    <tag k="addr:street" v="St Marys Garth"/>
    <tag k="addr:suburb" v="East Keswick"/>
    <tag k="building" v="house"/>
    <tag k="ref:GB:uprn" v="72388397"/>
    <tag k="source:postcode" v="extrapolation from Companies House Open Data"/>
  </way>
  <way id="175552257" version="15" timestamp="2025-04-11T22:45:12Z" changeset="164835722" uid="8857" user="philipcullen">
    <nd ref="1861285339"/>
    <nd ref="1861285216"/>
    <nd ref="1861284329"/>
    <nd ref="1861284868"/>
    <nd ref="1861284967"/>
    <nd ref="1861285422"/>
    <nd ref="1861285418"/>
    <nd ref="1861285205"/>
    <nd ref="1861285339"/>
    <tag k="addr:city" v="Leeds"/>
    <tag k="addr:postcode" v="LS17 9DB"/>
    <tag k="addr:street" v="Main Street"/>
    <tag k="addr:suburb" v="East Keswick"/>
    <tag k="amenity" v="pub"/>
    <tag k="building" v="yes"/>
    <tag k="fhrs:id" v="1379792"/>
    <tag k="name" v="The Duke of Wellington"/>
    <tag k="ref:GB:uprn" v="72720949;72389346"/>
    <tag k="wikidata" v="Q61923978"/>
  </way>
  <way id="175552260" version="3" timestamp="2025-04-11T22:45:12Z" changeset="164835722" uid="8857" user="philipcullen">
    <nd ref="1861284798"/>
    <nd ref="1861285409"/>
    <nd ref="1861284360"/>
    <nd ref="1861284677"/>
    <nd ref="1861285024"/>
    <nd ref="1861285102"/>
    <nd ref="1861284798"/>
    <tag k="addr:city" v="Leeds"/>
    <tag k="addr:housenumber" v="4"/>
    <tag k="addr:postcode" v="LS17 9EJ"/>
    <tag k="addr:street" v="Church Drive"/>
    <tag k="building" v="yes"/>
    <tag k="ref:GB:uprn" v="72388401"/>
  </way>
  <way id="175552262" version="3" timestamp="2025-04-11T22:45:12Z" changeset="164835722" uid="8857" user="philipcullen">
    <nd ref="1861285086"/>
    <nd ref="1861284904"/>
    <nd ref="1861285106"/>
    <nd ref="1861284348"/>
    <nd ref="1861284335"/>
    <nd ref="1861284404"/>
    <nd ref="1861284194"/>
    <nd ref="1861284711"/>
    <nd ref="1861285086"/>
    <tag k="addr:city" v="Leeds"/>
    <tag k="addr:housenumber" v="32"/>
    <tag k="addr:postcode" v="LS17 9EP"/>
    <tag k="addr:street" v="Church Drive"/>
    <tag k="building" v="house"/>
    <tag k="ref:GB:uprn" v="72388427"/>
    <tag k="source:addr" v="interpolation"/>
    <tag k="source:postcode" v="extrapolation from Companies House Open Data"/>
  </way>
  <way id="175552263" version="3" timestamp="2025-04-11T22:45:12Z" changeset="164835722" uid="8857" user="philipcullen">
    <nd ref="1861284257"/>
    <nd ref="1861284326"/>
    <nd ref="1861284741"/>
    <nd ref="1861284746"/>
    <nd ref="1861284750"/>
    <nd ref="1861284324"/>
    <nd ref="1861284257"/>
    <tag k="addr:city" v="Leeds"/>
    <tag k="addr:housenumber" v="2"/>
    <tag k="addr:postcode" v="LS17 9EJ"/>
    <tag k="addr:street" v="Church Drive"/>
    <tag k="building" v="yes"/>
    <tag k="ref:GB:uprn" v="72388400"/>
  </way>
  <way id="175552264" version="11" timestamp="2025-04-11T22:45:12Z" changeset="164835722" uid="8857" user="philipcullen">
    <nd ref="1861284243"/>
    <nd ref="1861284725"/>
    <nd ref="1861284406"/>
    <nd ref="1861284221"/>
    <nd ref="1861284642"/>
    <nd ref="1861284288"/>
    <nd ref="1861284243"/>
    <tag k="addr:city" v="Leeds"/>
    <tag k="addr:postcode" v="LS17 9EJ"/>
    <tag k="addr:street" v="Main Street"/>
    <tag k="addr:suburb" v="East Keswick"/>
    <tag k="amenity" v="pub"/>
    <tag k="building" v="yes"/>
    <tag k="fhrs:id" v="486686"/>
    <tag k="name" v="The Old Star"/>
    <tag k="ref:GB:uprn" v="72721545;72389360"/>
    <tag k="wikidata" v="Q26519968"/>
  </way>
  <way id="175552265" version="3" timestamp="2025-04-11T22:45:12Z" changeset="164835722" uid="8857" user="philipcullen">
    <nd ref="1861285281"/>
    <nd ref="1861284568"/>
    <nd ref="1861285114"/>
    <nd ref="1861284276"/>
    <nd ref="1861285314"/>
    <nd ref="1861284337"/>
    <nd ref="1861284942"/>
    <nd ref="1861285092"/>
    <nd ref="1861285281"/>
    <tag k="addr:city" v="Leeds"/>
    <tag k="addr:housenumber" v="41"/>
    <tag k="addr:postcode" v="LS17 9EP"/>
    <tag k="addr:street" v="Church Drive"/>
    <tag k="building" v="house"/>
    <tag k="ref:GB:uprn" v="72388444"/>
    <tag k="source:addr" v="interpolation"/>
    <tag k="source:postcode" v="extrapolation from Companies House Open Data"/>
  </way>
  <way id="175552269" version="3" timestamp="2025-04-11T22:45:12Z" changeset="164835722" uid="8857" user="philipcullen">
    <nd ref="1861285337"/>
    <nd ref="1861285338"/>
    <nd ref="1861284546"/>
    <nd ref="1861284680"/>
    <nd ref="1861285337"/>
    <tag k="addr:city" v="Leeds"/>
    <tag k="addr:housenumber" v="43"/>
    <tag k="addr:postcode" v="LS17 9EP"/>
    <tag k="addr:street" v="Church Drive"/>
    <tag k="building" v="house"/>
    <tag k="ref:GB:uprn" v="72388445"/>
    <tag k="source:addr" v="interpolation"/>
    <tag k="source:postcode" v="extrapolation from Companies House Open Data"/>
  </way>
  <way id="175552276" version="5" timestamp="2025-04-11T22:45:12Z" changeset="164835722" uid="8857" user="philipcullen">
    <nd ref="1861284455"/>
    <nd ref="1861284992"/>
    <nd ref="1861285212"/>
    <nd ref="1861284779"/>
    <nd ref="1861284628"/>
    <nd ref="1861284262"/>
    <nd ref="1861284260"/>
    <nd ref="1861285041"/>
    <nd ref="1861284455"/>
    <tag k="addr:city" v="Leeds"/>
    <tag k="addr:housenumber" v="31"/>
    <tag k="addr:postcode" v="LS17 9EP"/>
    <tag k="addr:street" v="Church Drive"/>
    <tag k="building" v="house"/>
    <tag k="ref:GB:uprn" v="72388439"/>
    <tag k="source:postcode" v="extrapolation from Companies House Open Data"/>
  </way>
  <way id="175552278" version="5" timestamp="2025-04-11T22:45:12Z" changeset="164835722" uid="8857" user="philipcullen">
    <nd ref="1861284639"/>
    <nd ref="1861284482"/>
    <nd ref="1861284475"/>
    <nd ref="1861284447"/>
    <nd ref="1861285022"/>
    <nd ref="1861285063"/>
    <nd ref="1861284639"/>
    <tag k="addr:city" v="Leeds"/>
    <tag k="addr:housenumber" v="35"/>
    <tag k="addr:postcode" v="LS17 9EP"/>
    <tag k="addr:street" v="Church Drive"/>
    <tag k="building" v="house"/>
    <tag k="ref:GB:uprn" v="72388441"/>
    <tag k="source:postcode" v="extrapolation from Companies House Open Data"/>
  </way>
  <way id="175552279" version="3" timestamp="2025-04-11T22:45:12Z" changeset="164835722" uid="8857" user="philipcullen">
    <nd ref="1861284255"/>
    <nd ref="1861284306"/>
    <nd ref="1861285016"/>
    <nd ref="1861285071"/>
    <nd ref="1861284255"/>
    <tag k="addr:city" v="Leeds"/>
    <tag k="addr:housenumber" v="22"/>
    <tag k="addr:postcode" v="LS17 9EP"/>
    <tag k="addr:street" v="Church Drive"/>
    <tag k="building" v="house"/>
    <tag k="ref:GB:uprn" v="72388418"/>
    <tag k="source:addr" v="interpolation"/>
    <tag k="source:postcode" v="extrapolation from Companies House Open Data"/>
  </way>
  <way id="175552282" version="5" timestamp="2025-04-11T22:45:12Z" changeset="164835722" uid="8857" user="philipcullen">
    <nd ref="1861285278"/>
    <nd ref="1861284479"/>
    <nd ref="1861284477"/>
    <nd ref="1861284472"/>
    <nd ref="1861284442"/>
    <nd ref="1861284281"/>
    <nd ref="1861285004"/>
    <nd ref="1861285067"/>
    <nd ref="1861285061"/>
    <nd ref="1861285334"/>
    <nd ref="1861285278"/>
    <tag k="addr:city" v="Leeds"/>
    <tag k="addr:housenumber" v="9"/>
    <tag k="addr:postcode" v="LS17 9ER"/>
    <tag k="addr:street" v="St Marys Garth"/>
    <tag k="addr:suburb" v="East Keswick"/>
    <tag k="building" v="house"/>
    <tag k="ref:GB:uprn" v="72388393"/>
    <tag k="source:addr" v="interpolation"/>
    <tag k="source:postcode" v="extrapolation from Companies House Open Data"/>
  </way>
  <way id="175552285" version="3" timestamp="2025-04-11T22:45:12Z" changeset="164835722" uid="8857" user="philipcullen">
    <nd ref="1861285219"/>
    <nd ref="1861284640"/>
    <nd ref="1861284457"/>
    <nd ref="1861285246"/>
    <nd ref="1861285219"/>
    <tag k="addr:city" v="Leeds"/>
    <tag k="addr:housenumber" v="26"/>
    <tag k="addr:postcode" v="LS17 9EP"/>
    <tag k="addr:street" v="Church Drive"/>
    <tag k="building" v="house"/>
    <tag k="ref:GB:uprn" v="72388421"/>
    <tag k="source:addr" v="interpolation"/>
    <tag k="source:postcode" v="extrapolation from Companies House Open Data"/>
  </way>
  <way id="175552288" version="4" timestamp="2025-04-11T22:45:12Z" changeset="164835722" uid="8857" user="philipcullen">
    <nd ref="1861285143"/>
    <nd ref="1861285155"/>
    <nd ref="11564979991"/>
    <nd ref="11564979992"/>
    <nd ref="1861284508"/>
    <nd ref="11564974056"/>
    <nd ref="11564974055"/>
    <nd ref="11564974054"/>
    <nd ref="11564974053"/>
    <nd ref="1861284859"/>
    <nd ref="1861284831"/>
    <nd ref="1861284783"/>
    <nd ref="1861285143"/>
    <tag k="addr:city" v="Leeds"/>
    <tag k="addr:housenumber" v="2"/>
    <tag k="addr:postcode" v="LS17 9ER"/>
    <tag k="addr:street" v="St Marys Garth"/>
    <tag k="addr:suburb" v="East Keswick"/>
    <tag k="building" v="house"/>
    <tag k="ref:GB:uprn" v="72388386"/>
    <tag k="source:postcode" v="extrapolation from Companies House Open Data"/>
  </way>
  <way id="175552290" version="3" timestamp="2025-04-11T22:45:12Z" changeset="164835722" uid="8857" user="philipcullen">
    <nd ref="1861285231"/>
    <nd ref="1861284422"/>
    <nd ref="1861284510"/>
    <nd ref="1861284863"/>
    <nd ref="1861284791"/>
    <nd ref="1861284758"/>
    <nd ref="1861285231"/>
    <tag k="addr:city" v="Leeds"/>
    <tag k="addr:housenumber" v="34"/>
    <tag k="addr:postcode" v="LS17 9EP"/>
    <tag k="addr:street" v="Church Drive"/>
    <tag k="building" v="house"/>
    <tag k="ref:GB:uprn" v="72388428"/>
    <tag k="source:addr" v="interpolation"/>
    <tag k="source:postcode" v="extrapolation from Companies House Open Data"/>
  </way>
  <way id="175552291" version="3" timestamp="2025-04-11T22:45:12Z" changeset="164835722" uid="8857" user="philipcullen">
    <nd ref="1861284638"/>
    <nd ref="1861284332"/>
    <nd ref="1861284304"/>
    <nd ref="1861284502"/>
    <nd ref="1861285182"/>
    <nd ref="1861284747"/>
    <nd ref="1861284638"/>
    <tag k="addr:city" v="Leeds"/>
    <tag k="addr:housenumber" v="28"/>
    <tag k="addr:postcode" v="LS17 9EP"/>
    <tag k="addr:street" v="Church Drive"/>
    <tag k="building" v="house"/>
    <tag k="ref:GB:uprn" v="72388423"/>
    <tag k="source:addr" v="interpolation"/>
    <tag k="source:postcode" v="extrapolation from Companies House Open Data"/>
  </way>
  <way id="175552292" version="5" timestamp="2025-04-11T22:45:12Z" changeset="164835722" uid="8857" user="philipcullen">
    <nd ref="1861284328"/>
    <nd ref="1861284323"/>
    <nd ref="1861284503"/>
    <nd ref="1861284723"/>
    <nd ref="1861284664"/>
    <nd ref="1861284660"/>
    <nd ref="1861285161"/>
    <nd ref="1861284532"/>
    <nd ref="1861284328"/>
    <tag k="addr:city" v="Leeds"/>
    <tag k="addr:housenumber" v="33"/>
    <tag k="addr:postcode" v="LS17 9EP"/>
    <tag k="addr:street" v="Church Drive"/>
    <tag k="building" v="house"/>
    <tag k="ref:GB:uprn" v="72388440"/>
    <tag k="source:postcode" v="extrapolation from Companies House Open Data"/>
  </way>
  <way id="175792954" version="3" timestamp="2025-04-06T22:01:19Z" changeset="164610411" uid="8857" user="philipcullen">
    <nd ref="1863471216"/>
    <nd ref="1863470950"/>
    <nd ref="1863471322"/>
    <nd ref="1863471265"/>
    <nd ref="1863471241"/>
    <nd ref="1863471303"/>
    <nd ref="1863470926"/>
    <nd ref="1863471121"/>
    <nd ref="1863471150"/>
    <nd ref="1863471037"/>
    <nd ref="1863471219"/>
    <nd ref="1863471271"/>
    <nd ref="1863471216"/>
    <tag k="building" v="yes"/>
    <tag k="name" v="Farfield House"/>
    <tag k="ref:GB:uprn" v="72388581"/>
  </way>
  <way id="180050846" version="9" timestamp="2025-04-11T22:45:12Z" changeset="164835722" uid="8857" user="philipcullen">
    <nd ref="1904817167"/>
    <nd ref="1904817168"/>
    <nd ref="6030216662"/>
    <nd ref="6030216661"/>
    <nd ref="1904817116"/>
    <nd ref="1904817114"/>
    <nd ref="1904817133"/>
    <nd ref="6030216660"/>
    <nd ref="6030216663"/>
    <nd ref="1904817130"/>
    <nd ref="1904817167"/>
    <tag k="addr:city" v="Leeds"/>
    <tag k="addr:housename" v="Craven Bank"/>
    <tag k="addr:postcode" v="LS17 9HL"/>
    <tag k="addr:street" v="Harewood Road"/>
    <tag k="addr:suburb" v="East Keswick"/>
    <tag k="amenity" v="kindergarten"/>
    <tag k="building" v="yes"/>
    <tag k="fhrs:id" v="1170311"/>
    <tag k="name" v="Busy Bees"/>
    <tag k="old_name" v="Kindercare Childrens Day Nursery"/>
    <tag k="ref:GB:uprn" v="72388586;72721549"/>
  </way>
  <way id="183088661" version="12" timestamp="2024-06-17T14:09:03Z" changeset="152805446" uid="145231" user="woodpeck_repair">
    <nd ref="1934462116"/>
    <nd ref="1861539573"/>
    <nd ref="1860647333"/>
    <nd ref="6969914056"/>
    <nd ref="1860647612"/>
    <nd ref="1866522628"/>
    <nd ref="6969914057"/>
    <nd ref="798062058"/>
    <nd ref="1969700874"/>
    <nd ref="1866513213"/>
    <nd ref="1861539546"/>
    <nd ref="798061682"/>
    <tag k="highway" v="tertiary"/>
    <tag k="lanes" v="2"/>
    <tag k="maxspeed" v="30 mph"/>
    <tag k="name" v="Crabtree Lane"/>
    <tag k="source" v="survey and npe"/>
    <tag k="surface" v="asphalt"/>
  </way>
  <way id="186282351" version="12" timestamp="2021-02-10T14:34:36Z" changeset="99048513" uid="10252543" user="srikmar">
    <nd ref="26261624"/>
    <nd ref="907813435"/>
    <nd ref="2176412863"/>
    <nd ref="907813515"/>
    <nd ref="3370797569"/>
    <nd ref="26261626"/>
    <nd ref="3370797565"/>
    <nd ref="248091811"/>
    <nd ref="26261625"/>
    <nd ref="3370797588"/>
    <nd ref="6590454145"/>
    <nd ref="27481319"/>
    <nd ref="4508710796"/>
    <nd ref="3370797586"/>
    <nd ref="248091812"/>
    <nd ref="2167634807"/>
    <nd ref="907813493"/>
    <nd ref="26261627"/>
    <nd ref="907813314"/>
    <nd ref="2167634999"/>
    <nd ref="7288062015"/>
    <nd ref="7288062010"/>
    <nd ref="2167634993"/>
    <nd ref="7288062018"/>
    <nd ref="389906705"/>
    <nd ref="907813348"/>
    <nd ref="8412023388"/>
    <nd ref="8412023387"/>
    <nd ref="389906702"/>
    <nd ref="6885923721"/>
    <nd ref="3370797567"/>
    <nd ref="907813331"/>
    <nd ref="26261628"/>
    <nd ref="907813436"/>
    <nd ref="2167634658"/>
    <nd ref="3933318447"/>
    <nd ref="26261629"/>
    <tag k="bicycle" v="yes"/>
    <tag k="foot" v="yes"/>
    <tag k="highway" v="primary"/>
    <tag k="lanes" v="2"/>
    <tag k="maxspeed" v="30 mph"/>
    <tag k="name" v="Harewood Road"/>
    <tag k="oneway" v="no"/>
    <tag k="ref" v="A659"/>
    <tag k="sidewalk" v="left"/>
    <tag k="source" v="survey"/>
    <tag k="surface" v="asphalt"/>
  </way>
  <way id="189827751" version="11" timestamp="2024-06-17T14:09:03Z" changeset="152805446" uid="145231" user="woodpeck_repair">
    <nd ref="1506501650"/>
    <nd ref="1506501640"/>
    <nd ref="6984660287"/>
    <nd ref="6984660286"/>
    <nd ref="1860862608"/>
    <tag k="alt_name" v="Main Street"/>
    <tag k="highway" v="tertiary"/>
    <tag k="maxspeed" v="30 mph"/>
    <tag k="name" v="Main Street"/>
    <tag k="source" v="survey and npe"/>
    <tag k="surface" v="asphalt"/>
  </way>
  <way id="207400580" version="6" timestamp="2021-09-03T15:04:17Z" changeset="110682035" uid="1376064" user="jdconey">
    <nd ref="2176475044"/>
    <nd ref="3370797587"/>
    <nd ref="1581057648"/>
    <nd ref="3370797585"/>
    <nd ref="1581057860"/>
    <nd ref="3370797555"/>
    <nd ref="7037711572"/>
    <nd ref="1581057761"/>
    <nd ref="3370797566"/>
    <nd ref="1581058114"/>
    <nd ref="3370797584"/>
    <nd ref="1652885241"/>
    <tag k="bicycle" v="yes"/>
    <tag k="cycleway:both" v="no"/>
    <tag k="foot" v="yes"/>
    <tag k="highway" v="primary"/>
    <tag k="lanes" v="2"/>
    <tag k="maxspeed" v="60 mph"/>
    <tag k="name" v="Harewood Road"/>
    <tag k="oneway" v="no"/>
    <tag k="ref" v="A659"/>
    <tag k="source" v="survey"/>
    <tag k="surface" v="asphalt"/>
  </way>
  <way id="207400581" version="7" timestamp="2025-05-08T23:11:00Z" changeset="166005795" uid="3199858" user="Mateusz Konieczny - bot account">
    <nd ref="389904497"/>
    <nd ref="6593522759"/>
    <nd ref="26261623"/>
    <nd ref="1861539541"/>
    <nd ref="1866571789"/>
    <nd ref="1861539575"/>
    <tag k="bicycle" v="yes"/>
    <tag k="cycleway:both" v="no"/>
    <tag k="foot" v="yes"/>
    <tag k="highway" v="primary"/>
    <tag k="lanes" v="2"/>
    <tag k="lit" v="no"/>
    <tag k="maxspeed" v="50 mph"/>
    <tag k="name" v="Harewood Road"/>
    <tag k="oneway" v="no"/>
    <tag k="ref" v="A659"/>
    <tag k="sidewalk" v="no"/>
    <tag k="source" v="survey"/>
    <tag k="surface" v="asphalt"/>
    <tag k="verge" v="both"/>
  </way>
  <way id="355180536" version="3" timestamp="2019-08-31T15:30:16Z" changeset="73952027" uid="3316592" user="Arthtoach">
    <nd ref="813720261"/>
    <nd ref="6761538470"/>
    <nd ref="3607853284"/>
    <nd ref="936541902"/>
    <nd ref="3607853286"/>
    <nd ref="6761538471"/>
    <nd ref="798058691"/>
    <nd ref="3607853290"/>
    <nd ref="798058687"/>
    <nd ref="6761538472"/>
    <nd ref="936542154"/>
    <nd ref="3607853278"/>
    <nd ref="798058682"/>
    <nd ref="3607853277"/>
    <nd ref="798058674"/>
    <nd ref="6761538473"/>
    <nd ref="936542497"/>
    <nd ref="798058668"/>
    <nd ref="6761538474"/>
    <nd ref="798058660"/>
    <nd ref="6761538475"/>
    <nd ref="3607853281"/>
    <nd ref="936542335"/>
    <nd ref="3607853289"/>
    <nd ref="813720261"/>
    <nd ref="798058694"/>
    <tag k="highway" v="residential"/>
    <tag k="name" v="South Mount"/>
    <tag k="source" v="OS OpenData StreetView"/>
    <tag k="surface" v="asphalt"/>
  </way>
  <way id="355180537" version="2" timestamp="2019-11-17T12:37:05Z" changeset="77187447" uid="3316592" user="Arthtoach">
    <nd ref="935665666"/>
    <nd ref="3607853280"/>
    <tag k="highway" v="residential"/>
    <tag k="name" v="The Paddock"/>
    <tag k="source" v="OS OpenData StreetView"/>
    <tag k="surface" v="asphalt"/>
  </way>
  <way id="697608918" version="1" timestamp="2019-06-16T17:22:18Z" changeset="71305971" uid="84681" user="SK53">
    <nd ref="6551383440"/>
    <nd ref="935665707"/>
    <tag k="highway" v="residential"/>
    <tag k="name" v="St Marys Garth"/>
    <tag k="source" v="OS OpenData StreetView"/>
  </way>
  <way id="697608919" version="3" timestamp="2025-05-08T23:11:03Z" changeset="166005795" uid="3199858" user="Mateusz Konieczny - bot account">
    <nd ref="765232205"/>
    <nd ref="248091714"/>
    <nd ref="6551383445"/>
    <nd ref="765231433"/>
    <nd ref="1581090601"/>
    <nd ref="7810591087"/>
    <nd ref="7810591093"/>
    <nd ref="1976374619"/>
    <nd ref="26261617"/>
    <nd ref="1887506346"/>
    <nd ref="1581090418"/>
    <nd ref="1581090804"/>
    <nd ref="26261618"/>
    <nd ref="1887586019"/>
    <nd ref="367293090"/>
    <nd ref="1887586033"/>
    <nd ref="1581057339"/>
    <nd ref="3370797539"/>
    <nd ref="1581058352"/>
    <tag k="alt_name" v="The Avenue"/>
    <tag k="bicycle" v="yes"/>
    <tag k="cycleway" v="no"/>
    <tag k="foot" v="yes"/>
    <tag k="highway" v="primary"/>
    <tag k="lanes" v="2"/>
    <tag k="lit" v="no"/>
    <tag k="maxspeed" v="60 mph"/>
    <tag k="name" v="Harewood Avenue"/>
    <tag k="oneway" v="no"/>
    <tag k="ref" v="A659"/>
    <tag k="sidewalk" v="no"/>
    <tag k="source" v="survey"/>
    <tag k="surface" v="asphalt"/>
    <tag k="verge" v="both"/>
  </way>
  <way id="697608924" version="2" timestamp="2019-11-17T12:37:05Z" changeset="77187447" uid="3316592" user="Arthtoach">
    <nd ref="6551383422"/>
    <nd ref="6551383395"/>
    <tag k="highway" v="residential"/>
    <tag k="name" v="Laurel Close"/>
    <tag k="source" v="OS OpenData StreetView"/>
    <tag k="surface" v="asphalt"/>
  </way>
  <way id="697608927" version="3" timestamp="2019-11-17T12:37:05Z" changeset="77187447" uid="3316592" user="Arthtoach">
    <nd ref="935665820"/>
    <nd ref="6984627260"/>
    <nd ref="1859172350"/>
    <nd ref="6984627259"/>
    <nd ref="6551383451"/>
    <tag k="highway" v="residential"/>
    <tag k="name" v="Keswick Grange"/>
    <tag k="source" v="OS OpenData StreetView"/>
    <tag k="surface" v="asphalt"/>
  </way>
  <way id="697608928" version="2" timestamp="2019-08-31T15:30:16Z" changeset="73952027" uid="3316592" user="Arthtoach">
    <nd ref="6551383449"/>
    <nd ref="935666070"/>
    <nd ref="935665713"/>
    <tag k="highway" v="residential"/>
    <tag k="name" v="Church Drive"/>
    <tag k="source" v="OS OpenData StreetView"/>
    <tag k="surface" v="asphalt"/>
  </way>
  <way id="746097019" version="5" timestamp="2025-04-11T22:45:12Z" changeset="164835722" uid="8857" user="philipcullen">
    <nd ref="6982344548"/>
    <nd ref="6982344546"/>
    <nd ref="6982344554"/>
    <nd ref="6982344547"/>
    <nd ref="6982344548"/>
    <tag k="addr:city" v="Leeds"/>
    <tag k="addr:postcode" v="LS17 9EW"/>
    <tag k="addr:street" v="Moor Lane"/>
    <tag k="addr:suburb" v="East Keswick"/>
    <tag k="building" v="house"/>
    <tag k="name" v="West End Salon"/>
    <tag k="old_name" v="West End Stores"/>
    <tag k="old_shop" v="convenience"/>
    <tag k="ref:GB:uprn" v="72536917"/>
    <tag k="shop" v="hairdresser"/>
    <tag k="source" v="survey"/>
  </way>
  <way id="746097020" version="2" timestamp="2025-04-11T22:45:12Z" changeset="164835722" uid="8857" user="philipcullen">
    <nd ref="6982344550"/>
    <nd ref="6551246554"/>
    <nd ref="6982344553"/>
    <nd ref="6982344552"/>
    <nd ref="6982344549"/>
    <nd ref="6982344550"/>
    <tag k="addr:city" v="Leeds"/>
    <tag k="addr:housenumber" v="3"/>
    <tag k="addr:postcode" v="LS17 9EW"/>
    <tag k="addr:street" v="Moor Lane"/>
    <tag k="addr:suburb" v="East Keswick"/>
    <tag k="building" v="yes"/>
    <tag k="ref:GB:uprn" v="72388078"/>
  </way>
  <way id="746097021" version="2" timestamp="2025-04-11T22:45:12Z" changeset="164835722" uid="8857" user="philipcullen">
    <nd ref="6982344551"/>
    <nd ref="6982344550"/>
    <nd ref="6982344549"/>
    <nd ref="6551246572"/>
    <nd ref="6982344551"/>
    <tag k="addr:city" v="Leeds"/>
    <tag k="addr:housenumber" v="1"/>
    <tag k="addr:postcode" v="LS17 9EW"/>
    <tag k="addr:street" v="Moor Lane"/>
    <tag k="addr:suburb" v="East Keswick"/>
    <tag k="building" v="yes"/>
    <tag k="ref:GB:uprn" v="72388075"/>
  </way>
  <way id="746742731" version="3" timestamp="2025-04-11T22:45:12Z" changeset="164835722" uid="8857" user="philipcullen">
    <nd ref="6987999387"/>
    <nd ref="6987999388"/>
    <nd ref="6553354476"/>
    <nd ref="6987999386"/>
    <nd ref="6987999387"/>
    <tag k="addr:city" v="Leeds"/>
    <tag k="addr:housenumber" v="14"/>
    <tag k="addr:postcode" v="LS17 9EN"/>
    <tag k="addr:street" v="The Paddock"/>
    <tag k="addr:suburb" v="East Keswick"/>
    <tag k="building" v="house"/>
    <tag k="ref:GB:uprn" v="72389471"/>
    <tag k="source:addr" v="interpolation"/>
    <tag k="source:postcode" v="extrapolation"/>
  </way>
  <way id="747094530" version="3" timestamp="2025-04-11T22:45:12Z" changeset="164835722" uid="8857" user="philipcullen">
    <nd ref="6990618621"/>
    <nd ref="1860713366"/>
    <nd ref="6553400801"/>
    <nd ref="6990618620"/>
    <nd ref="6990618621"/>
    <tag k="addr:city" v="Leeds"/>
    <tag k="addr:housenumber" v="25"/>
    <tag k="addr:postcode" v="LS17 9EN"/>
    <tag k="addr:street" v="The Paddock"/>
    <tag k="addr:suburb" v="East Keswick"/>
    <tag k="building" v="house"/>
    <tag k="ref:GB:uprn" v="72389483"/>
  </way>
  <way id="747094534" version="3" timestamp="2025-04-11T22:45:12Z" changeset="164835722" uid="8857" user="philipcullen">
    <nd ref="6990618643"/>
    <nd ref="6553400786"/>
    <nd ref="1860713308"/>
    <nd ref="6990618642"/>
    <nd ref="6990618643"/>
    <tag k="addr:city" v="Leeds"/>
    <tag k="addr:housenumber" v="17"/>
    <tag k="addr:postcode" v="LS17 9EN"/>
    <tag k="addr:street" v="The Paddock"/>
    <tag k="addr:suburb" v="East Keswick"/>
    <tag k="building" v="house"/>
    <tag k="ref:GB:uprn" v="72389474"/>
  </way>
  <way id="896801024" version="3" timestamp="2024-06-15T21:34:14Z" changeset="152739266" uid="20112387" user="Anton Khorev (repair)">
    <nd ref="8336124020"/>
    <nd ref="1860647299"/>
    <nd ref="1866522578"/>
    <nd ref="1860647363"/>
    <nd ref="1860647436"/>
    <nd ref="1860647367"/>
    <nd ref="1860647489"/>
    <nd ref="1860647347"/>
    <nd ref="8273593775"/>
    <nd ref="1860647449"/>
    <nd ref="1934462116"/>
    <tag k="bicycle" v="yes"/>
    <tag k="foot" v="yes"/>
    <tag k="highway" v="tertiary"/>
    <tag k="lanes" v="2"/>
    <tag k="maxspeed" v="60 mph"/>
    <tag k="name" v="Crabtree Lane"/>
    <tag k="oneway" v="no"/>
    <tag k="source" v="survey and npe"/>
    <tag k="surface" v="asphalt"/>
  </way>
  <way id="896801025" version="3" timestamp="2022-06-01T06:12:25Z" changeset="121794473" uid="7345137" user="magrej">
    <nd ref="1861539575"/>
    <nd ref="389906708"/>
    <nd ref="3370797570"/>
    <nd ref="3370797549"/>
    <nd ref="1887576069"/>
    <nd ref="248091724"/>
    <nd ref="3370797564"/>
    <nd ref="3370797582"/>
    <nd ref="26261624"/>
    <tag k="bicycle" v="yes"/>
    <tag k="cycleway:both" v="no"/>
    <tag k="foot" v="yes"/>
    <tag k="highway" v="primary"/>
    <tag k="lanes" v="2"/>
    <tag k="maxspeed" v="50 mph"/>
    <tag k="name" v="Harewood Road"/>
    <tag k="oneway" v="no"/>
    <tag k="ref" v="A659"/>
    <tag k="source" v="survey"/>
    <tag k="surface" v="asphalt"/>
  </way>

</osm>
