<?xml version="1.0" encoding="UTF-8"?>
<osm version="0.6" generator="Overpass API 0.7.62.5 1bd436f1">
<note>The data included in this document is from www.openstreetmap.org. The data is made available under ODbL.</note>
<meta osm_base="2025-05-17T22:31:13Z" areas="2024-12-31T00:49:33Z"/>

  <node id="361091" lat="48.8748138" lon="2.3573832" version="14" timestamp="2023-01-20T17:23:59Z" changeset="131516682" uid="53964" user="_Mathieu_"/>
  <node id="361100" lat="48.8763653" lon="2.3560333" version="29" timestamp="2023-12-22T19:12:07Z" changeset="145417617" uid="7550430" user="Britzz">
    <tag k="highway" v="traffic_signals"/>
  </node>
  <node id="26039522" lat="48.8709596" lon="2.3532949" version="16" timestamp="2022-10-12T18:34:30Z" changeset="127431256" uid="53964" user="_Mathieu_"/>
  <node id="94157219" lat="48.8753256" lon="2.3509072" version="13" timestamp="2023-01-20T17:23:59Z" changeset="131516682" uid="53964" user="_Mathieu_"/>
  <node id="94157762" lat="48.8757969" lon="2.3436988" version="28" timestamp="2025-02-19T09:15:11Z" changeset="162692094" uid="7512839" user="Benoît C MdP">
    <tag k="highway" v="traffic_signals"/>
    <tag k="traffic_signals" v="signal"/>
  </node>
  <node id="94158188" lat="48.8740226" lon="2.3479115" version="10" timestamp="2021-12-27T20:07:38Z" changeset="115442116" uid="53964" user="_Mathieu_"/>
  <node id="94158189" lat="48.8724568" lon="2.3479039" version="9" timestamp="2011-05-03T20:34:08Z" changeset="8043583" uid="17286" user="Pieren"/>
  <node id="94164241" lat="48.8721309" lon="2.3500470" version="11" timestamp="2019-09-08T21:12:10Z" changeset="74236972" uid="7336068" user="Florimondable"/>
  <node id="94164243" lat="48.8703465" lon="2.3495659" version="20" timestamp="2018-12-10T16:44:51Z" changeset="65350060" uid="570635" user="_phiphou_"/>
  <node id="94165420" lat="48.8774234" lon="2.3491000" version="13" timestamp="2019-01-11T08:48:13Z" changeset="66219423" uid="311391" user="patman37">
    <tag k="highway" v="traffic_signals"/>
    <tag k="traffic_signals" v="signal"/>
  </node>
  <node id="94168165" lat="48.8773522" lon="2.3496559" version="22" timestamp="2025-02-19T09:15:11Z" changeset="162692094" uid="7512839" user="Benoît C MdP"/>
  <node id="94201158" lat="48.8754848" lon="2.3578012" version="11" timestamp="2025-02-05T15:58:50Z" changeset="162171451" uid="7512839" user="Benoît C MdP"/>
  <node id="175019359" lat="48.8697507" lon="2.3522815" version="39" timestamp="2024-10-15T20:06:23Z" changeset="157937221" uid="17310249" user="VLD275">
    <tag k="crossing" v="marked"/>
    <tag k="crossing:markings" v="yes"/>
    <tag k="highway" v="traffic_signals;crossing"/>
  </node>
  <node id="202815391" lat="48.8760934" lon="2.3511154" version="10" timestamp="2010-04-06T22:02:38Z" changeset="4349675" uid="3085" user="mat"/>
  <node id="202816303" lat="48.8711580" lon="2.3522913" version="4" timestamp="2011-05-03T20:34:08Z" changeset="8043583" uid="17286" user="Pieren"/>
  <node id="583023060" lat="48.8761806" lon="2.3578416" version="6" timestamp="2025-01-22T12:31:26Z" changeset="161636364" uid="7512839" user="Benoît C MdP"/>
  <node id="652026059" lat="48.8765094" lon="2.3556780" version="12" timestamp="2024-10-17T17:26:14Z" changeset="158019235" uid="16226557" user="VLD302">
    <tag k="bicycle" v="yes"/>
    <tag k="button_operated" v="no"/>
    <tag k="crossing" v="marked"/>
    <tag k="crossing:markings" v="pictograms"/>
    <tag k="highway" v="crossing"/>
    <tag k="tactile_paving" v="yes"/>
    <tag k="traffic_signals:sound" v="yes"/>
    <tag k="traffic_signals:vibration" v="no"/>
  </node>
  <node id="663044417" lat="48.8744909" lon="2.3571741" version="17" timestamp="2025-01-02T11:08:37Z" changeset="160901899" uid="15118949" user="Nzau">
    <tag k="button_operated" v="no"/>
    <tag k="crossing" v="traffic_signals"/>
    <tag k="crossing:markings" v="zebra"/>
    <tag k="crossing:signals" v="yes"/>
    <tag k="highway" v="crossing"/>
    <tag k="kerb" v="lowered"/>
    <tag k="tactile_paving" v="yes"/>
    <tag k="traffic_signals:sound" v="yes"/>
    <tag k="traffic_signals:vibration" v="no"/>
  </node>
  <node id="663047671" lat="48.8762665" lon="2.3578924" version="4" timestamp="2013-10-24T01:16:36Z" changeset="18512586" uid="1256648" user="Zigeuner"/>
  <node id="692364452" lat="48.8693188" lon="2.3542978" version="10" timestamp="2025-01-30T10:01:10Z" changeset="161930506" uid="7512839" user="Benoît C MdP">
    <tag k="highway" v="traffic_signals"/>
    <tag k="source" v="cadastre-dgi-fr source : Direction Générale des Impôts - Cadastre. Mise à jour : 2010"/>
  </node>
  <node id="830054231" lat="48.8734392" lon="2.3479936" version="2" timestamp="2011-05-03T21:21:00Z" changeset="8044017" uid="17286" user="Pieren"/>
  <node id="2549984392" lat="48.8762362" lon="2.3575921" version="3" timestamp="2023-08-20T22:15:34Z" changeset="140153764" uid="7550430" user="Britzz">
    <tag k="bus" v="yes"/>
    <tag k="name" v="Gare de l'Est"/>
    <tag k="operator" v="RATP"/>
    <tag k="public_transport" v="stop_position"/>
  </node>
  <node id="10860429628" lat="48.8698692" lon="2.3517563" version="3" timestamp="2025-01-30T10:01:10Z" changeset="161930506" uid="7512839" user="Benoît C MdP"/>
  <node id="11444712461" lat="48.8765182" lon="2.3557555" version="1" timestamp="2023-12-22T19:12:07Z" changeset="145417617" uid="7550430" user="Britzz"/>
  <node id="11444712462" lat="48.8765628" lon="2.3557297" version="2" timestamp="2024-10-17T18:04:21Z" changeset="158020646" uid="16226557" user="VLD302">
    <tag k="crossing" v="marked"/>
    <tag k="crossing:markings" v="pictograms"/>
    <tag k="highway" v="crossing"/>
  </node>
  <way id="4039715" version="30" timestamp="2024-06-04T21:59:33Z" changeset="152263644" uid="2678738" user="fgouget">
    <nd ref="2549984392"/>
    <nd ref="11132965409"/>
    <nd ref="1522361503"/>
    <nd ref="583023060"/>
    <tag k="highway" v="tertiary"/>
    <tag k="lane_markings" v="no"/>
    <tag k="lit" v="yes"/>
    <tag k="maxspeed" v="30"/>
    <tag k="name" v="Rue du 8 Mai 1945"/>
    <tag k="name:etymology:wikidata" v="Q622365"/>
    <tag k="oneway" v="yes"/>
    <tag k="sidewalk:right" v="separate"/>
    <tag k="smoothness" v="good"/>
    <tag k="surface" v="asphalt"/>
  </way>
  <way id="8058930" version="24" timestamp="2024-01-02T15:38:54Z" changeset="145803635" uid="53964" user="_Mathieu_">
    <nd ref="26039522"/>
    <nd ref="2194257012"/>
    <nd ref="10096027246"/>
    <nd ref="202816303"/>
    <nd ref="4642649892"/>
    <nd ref="4397696310"/>
    <nd ref="2194257023"/>
    <nd ref="94164242"/>
    <nd ref="2194257024"/>
    <nd ref="2194257032"/>
    <nd ref="94158190"/>
    <tag k="cycleway" v="opposite"/>
    <tag k="highway" v="residential"/>
    <tag k="lit" v="yes"/>
    <tag k="maxspeed" v="30"/>
    <tag k="name" v="Rue de l'Échiquier"/>
    <tag k="oneway" v="yes"/>
    <tag k="oneway:bicycle" v="no"/>
    <tag k="sidewalk:both" v="separate"/>
    <tag k="source:maxspeed" v="FR:zone30"/>
    <tag k="surface" v="asphalt"/>
    <tag k="zone:maxspeed" v="FR:30"/>
  </way>
  <way id="10660294" version="29" timestamp="2024-09-25T09:20:41Z" changeset="157072166" uid="195017" user="Julien39">
    <nd ref="652026039"/>
    <nd ref="2194257132"/>
    <nd ref="1271556300"/>
    <nd ref="94156726"/>
    <nd ref="663044406"/>
    <tag k="cycleway:right" v="no"/>
    <tag k="highway" v="residential"/>
    <tag k="lane_markings" v="no"/>
    <tag k="lit" v="yes"/>
    <tag k="maxspeed" v="30"/>
    <tag k="name" v="Rue de la Fidélité"/>
    <tag k="name:etymology:wikidata" v="Q1629067"/>
    <tag k="oneway" v="yes"/>
    <tag k="sidewalk" v="separate"/>
    <tag k="smoothness" v="good"/>
    <tag k="source:maxspeed" v="FR:zone30"/>
    <tag k="surface" v="asphalt"/>
    <tag k="zone:maxspeed" v="FR:30"/>
  </way>
  <way id="10660312" version="46" timestamp="2025-04-02T13:01:42Z" changeset="164420486" uid="7512839" user="Benoît C MdP">
    <nd ref="12723277929"/>
    <nd ref="1271556442"/>
    <nd ref="10570963814"/>
    <nd ref="6853512351"/>
    <nd ref="94157219"/>
    <tag k="bus:lanes" v="yes|designated"/>
    <tag k="busway:right" v="lane"/>
    <tag k="cycleway:right" v="share_busway"/>
    <tag k="highway" v="residential"/>
    <tag k="lanes" v="2"/>
    <tag k="lit" v="yes"/>
    <tag k="maxspeed" v="30"/>
    <tag k="name" v="Rue de Paradis"/>
    <tag k="name:etymology" v="unknown"/>
    <tag k="oneway" v="yes"/>
    <tag k="parking:both" v="no"/>
    <tag k="sidewalk:both" v="separate"/>
    <tag k="traffic:hourly" v="196"/>
    <tag k="traffic:hourly:source" v="survey, comptage n°60, angle Poissonière 10/03/2020 18:11 6min 26 compté et normalisé"/>
    <tag k="zone:maxspeed" v="FR:30"/>
  </way>
  <way id="10660573" version="50" timestamp="2025-03-24T14:19:59Z" changeset="164035185" uid="195017" user="Julien39">
    <nd ref="94164241"/>
    <nd ref="2194257043"/>
    <nd ref="11067035873"/>
    <nd ref="613742310"/>
    <nd ref="9370945414"/>
    <nd ref="11066986449"/>
    <nd ref="94161169"/>
    <nd ref="11066986447"/>
    <nd ref="11066986451"/>
    <nd ref="202815928"/>
    <nd ref="10570963815"/>
    <nd ref="2194257134"/>
    <nd ref="94157219"/>
    <nd ref="2194257137"/>
    <nd ref="6855302040"/>
    <nd ref="202815391"/>
    <nd ref="1786279607"/>
    <nd ref="326967463"/>
    <nd ref="11066767363"/>
    <nd ref="94164238"/>
    <tag k="cycleway:both" v="no"/>
    <tag k="highway" v="residential"/>
    <tag k="lane_markings" v="no"/>
    <tag k="lit" v="yes"/>
    <tag k="maxspeed" v="30"/>
    <tag k="name" v="Rue d'Hauteville"/>
    <tag k="name:etymology:wikidata" v="Q17276569"/>
    <tag k="oneway" v="yes"/>
    <tag k="oneway:bicycle" v="no"/>
    <tag k="sidewalk:both" v="separate"/>
    <tag k="smoothness" v="good"/>
    <tag k="source:maxspeed" v="FR:zone30"/>
    <tag k="surface" v="asphalt"/>
    <tag k="traffic:hourly" v="248"/>
    <tag k="traffic:hourly:source" v="survey, comptage 89, avant la place 13/03/2020 12:24 6min 30 compté et normalisé"/>
    <tag k="zone:maxspeed" v="FR:30"/>
  </way>
  <way id="10660589" version="22" timestamp="2024-02-15T21:24:41Z" changeset="147508720" uid="6290466" user="benjamintchik">
    <nd ref="94158189"/>
    <nd ref="2194257050"/>
    <nd ref="2194257039"/>
    <nd ref="94164241"/>
    <tag k="cycleway" v="opposite"/>
    <tag k="highway" v="residential"/>
    <tag k="lit" v="yes"/>
    <tag k="maxspeed" v="30"/>
    <tag k="name" v="Rue d'Enghien"/>
    <tag k="name:etymology:wikidata" v="Q222606"/>
    <tag k="oneway" v="yes"/>
    <tag k="oneway:bicycle" v="no"/>
    <tag k="sidewalk:both" v="separate"/>
    <tag k="smoothness" v="good"/>
    <tag k="surface" v="asphalt"/>
    <tag k="zone:maxspeed" v="FR:30"/>
  </way>
  <way id="18033159" version="28" timestamp="2024-02-16T15:34:19Z" changeset="147535874" uid="6290466" user="benjamintchik">
    <nd ref="94168165"/>
    <nd ref="11066767367"/>
    <nd ref="11066767364"/>
    <nd ref="94164238"/>
    <tag k="cycleway:left" v="lane"/>
    <tag k="cycleway:left:oneway" v="-1"/>
    <tag k="cycleway:right:lane" v="exclusive"/>
    <tag k="highway" v="residential"/>
    <tag k="lit" v="yes"/>
    <tag k="maxspeed" v="30"/>
    <tag k="name" v="Rue de Chabrol"/>
    <tag k="name:etymology:wikidata" v="Q353045"/>
    <tag k="oneway" v="yes"/>
    <tag k="oneway:bicycle" v="no"/>
    <tag k="sidewalk:both" v="separate"/>
    <tag k="smoothness" v="good"/>
    <tag k="surface" v="asphalt"/>
  </way>
  <way id="19520528" version="20" timestamp="2024-01-02T18:57:48Z" changeset="145810636" uid="53964" user="_Mathieu_">
    <nd ref="202815391"/>
    <nd ref="6855297968"/>
    <nd ref="1786279650"/>
    <nd ref="202815231"/>
    <tag k="cycleway" v="opposite"/>
    <tag k="highway" v="residential"/>
    <tag k="lit" v="yes"/>
    <tag k="maxspeed" v="30"/>
    <tag k="name" v="Rue des Messageries"/>
    <tag k="oneway" v="yes"/>
    <tag k="oneway:bicycle" v="no"/>
    <tag k="sidewalk:both" v="separate"/>
    <tag k="smoothness" v="good"/>
    <tag k="surface" v="asphalt"/>
    <tag k="zone:maxspeed" v="FR:30"/>
  </way>
  <way id="19520686" version="21" timestamp="2024-01-02T15:39:04Z" changeset="145803635" uid="53964" user="_Mathieu_">
    <nd ref="202816303"/>
    <nd ref="2194257015"/>
    <nd ref="6128752707"/>
    <nd ref="2160594550"/>
    <nd ref="11042342804"/>
    <nd ref="123766566"/>
    <tag k="cycleway" v="opposite"/>
    <tag k="highway" v="residential"/>
    <tag k="lit" v="yes"/>
    <tag k="maxspeed" v="30"/>
    <tag k="name" v="Rue de Mazagran"/>
    <tag k="oneway" v="yes"/>
    <tag k="oneway:bicycle" v="no"/>
    <tag k="sidewalk:both" v="separate"/>
    <tag k="source:maxspeed" v="FR:zone30"/>
    <tag k="surface" v="asphalt"/>
    <tag k="zone:maxspeed" v="FR:30"/>
  </way>
  <way id="22940762" version="27" timestamp="2024-02-16T15:33:35Z" changeset="147535874" uid="6290466" user="benjamintchik">
    <nd ref="94165420"/>
    <nd ref="7166954569"/>
    <nd ref="11066767368"/>
    <nd ref="1342011464"/>
    <nd ref="94168165"/>
    <tag k="cycleway:left" v="lane"/>
    <tag k="cycleway:left:oneway" v="-1"/>
    <tag k="highway" v="residential"/>
    <tag k="lanes" v="1"/>
    <tag k="lit" v="yes"/>
    <tag k="maxspeed" v="30"/>
    <tag k="name" v="Place du 8 Novembre 1942"/>
    <tag k="name:etymology:wikidata" v="Q194132"/>
    <tag k="oneway" v="yes"/>
    <tag k="sidewalk" v="both"/>
    <tag k="smoothness" v="good"/>
    <tag k="source:maxspeed" v="FR:urban"/>
    <tag k="surface" v="asphalt"/>
  </way>
  <way id="25469115" version="22" timestamp="2024-02-15T21:37:31Z" changeset="147508720" uid="6290466" user="benjamintchik">
    <nd ref="94158188"/>
    <nd ref="4045853195"/>
    <nd ref="9370958538"/>
    <nd ref="9370945412"/>
    <nd ref="11066986446"/>
    <nd ref="94161169"/>
    <tag k="cycleway" v="opposite"/>
    <tag k="highway" v="residential"/>
    <tag k="lit" v="yes"/>
    <tag k="maxspeed" v="30"/>
    <tag k="name" v="Rue des Petites-Écuries"/>
    <tag k="name:etymology:wikidata" v="Q214252"/>
    <tag k="oneway" v="yes"/>
    <tag k="oneway:bicycle" v="no"/>
    <tag k="sidewalk:both" v="separate"/>
    <tag k="smoothness" v="good"/>
    <tag k="surface" v="asphalt"/>
    <tag k="zone:maxspeed" v="FR:30"/>
  </way>
  <way id="29696264" version="21" timestamp="2025-03-09T16:23:00Z" changeset="163407861" uid="332493" user="bazgal">
    <nd ref="326967463"/>
    <nd ref="1786279646"/>
    <nd ref="326967813"/>
    <tag k="cycleway:both" v="no"/>
    <tag k="highway" v="residential"/>
    <tag k="lit" v="yes"/>
    <tag k="maxspeed" v="30"/>
    <tag k="name" v="Cité d'Hauteville"/>
    <tag k="name:etymology:wikidata" v="Q17276569"/>
    <tag k="oneway" v="yes"/>
    <tag k="oneway:bicycle" v="no"/>
    <tag k="sidewalk:both" v="separate"/>
    <tag k="smoothness" v="good"/>
    <tag k="surface" v="asphalt"/>
  </way>
  <way id="29696273" version="27" timestamp="2025-03-09T16:23:02Z" changeset="163407861" uid="332493" user="bazgal">
    <nd ref="326967813"/>
    <nd ref="11066767372"/>
    <nd ref="1271556289"/>
    <nd ref="1271556630"/>
    <nd ref="6855323459"/>
    <nd ref="326968117"/>
    <tag k="cycleway:both" v="no"/>
    <tag k="highway" v="residential"/>
    <tag k="lit" v="yes"/>
    <tag k="maxspeed" v="30"/>
    <tag k="name" v="Cité d'Hauteville"/>
    <tag k="name:etymology:wikidata" v="Q17276569"/>
    <tag k="oneway" v="yes"/>
    <tag k="oneway:bicycle" v="no"/>
    <tag k="service" v="alley"/>
    <tag k="sidewalk:both" v="separate"/>
    <tag k="smoothness" v="good"/>
    <tag k="surface" v="asphalt"/>
  </way>
  <way id="29699758" version="23" timestamp="2024-02-16T15:32:52Z" changeset="147535874" uid="6290466" user="benjamintchik">
    <nd ref="326996572"/>
    <nd ref="2194257136"/>
    <nd ref="8780635314"/>
    <nd ref="1272517145"/>
    <nd ref="2194257138"/>
    <nd ref="326997613"/>
    <nd ref="6855310973"/>
    <nd ref="2194257135"/>
    <nd ref="906068109"/>
    <tag k="cycleway:both" v="no"/>
    <tag k="highway" v="residential"/>
    <tag k="lit" v="yes"/>
    <tag k="maxspeed" v="30"/>
    <tag k="name" v="Square Alban Satragne"/>
    <tag k="name:etymology:wikidata" v="Q110797787"/>
    <tag k="parking:both" v="no"/>
    <tag k="sidewalk:both" v="separate"/>
    <tag k="smoothness" v="good"/>
    <tag k="source:maxspeed" v="FR:zone30"/>
    <tag k="surface" v="asphalt"/>
    <tag k="zone:maxspeed" v="FR:30"/>
  </way>
  <way id="29699791" version="31" timestamp="2024-02-19T14:21:53Z" changeset="147652049" uid="6290466" user="benjamintchik">
    <nd ref="327043783"/>
    <nd ref="1272453632"/>
    <nd ref="327043670"/>
    <nd ref="2194257160"/>
    <nd ref="327043132"/>
    <nd ref="5915269338"/>
    <nd ref="327043190"/>
    <nd ref="1272453719"/>
    <nd ref="327043131"/>
    <nd ref="11066767333"/>
    <nd ref="1804446166"/>
    <nd ref="11444712464"/>
    <tag k="cycleway:both" v="no"/>
    <tag k="highway" v="residential"/>
    <tag k="lit" v="yes"/>
    <tag k="maxspeed" v="15"/>
    <tag k="name" v="Cour de la Ferme Saint-Lazare"/>
    <tag k="name:etymology:wikidata" v="Q3053797"/>
    <tag k="parking:both" v="no"/>
    <tag k="service" v="alley"/>
    <tag k="sidewalk" v="separate"/>
    <tag k="smoothness" v="good"/>
    <tag k="source:maxspeed" v="sign"/>
    <tag k="surface" v="asphalt"/>
  </way>
  <way id="29701657" version="32" timestamp="2024-06-05T08:52:10Z" changeset="152277044" uid="7512839" user="Benoît C MdP">
    <nd ref="361100"/>
    <nd ref="8615582800"/>
    <nd ref="652028925"/>
    <nd ref="583023059"/>
    <tag k="cycleway:both" v="no"/>
    <tag k="highway" v="tertiary"/>
    <tag k="lane_markings" v="no"/>
    <tag k="lit" v="yes"/>
    <tag k="maxspeed" v="30"/>
    <tag k="name" v="Rue du 8 Mai 1945"/>
    <tag k="name:etymology:wikidata" v="Q622365"/>
    <tag k="oneway" v="yes"/>
    <tag k="parking:both" v="no"/>
    <tag k="sidewalk:both:surface" v="asphalt"/>
    <tag k="sidewalk:left" v="yes"/>
    <tag k="sidewalk:right" v="separate"/>
    <tag k="smoothness" v="good"/>
    <tag k="source:maxspeed" v="FR:urban"/>
    <tag k="surface" v="asphalt"/>
  </way>
  <way id="34856164" version="18" timestamp="2024-03-29T13:11:59Z" changeset="149311351" uid="2678738" user="fgouget">
    <nd ref="583023037"/>
    <nd ref="2194257139"/>
    <nd ref="11066767327"/>
    <nd ref="652028889"/>
    <nd ref="94200928"/>
    <tag k="cycleway" v="opposite"/>
    <tag k="highway" v="residential"/>
    <tag k="lit" v="yes"/>
    <tag k="maxspeed" v="30"/>
    <tag k="name" v="Rue Saint-Laurent"/>
    <tag k="name:etymology:wikidata" v="Q1629067"/>
    <tag k="oneway" v="yes"/>
    <tag k="oneway:bicycle" v="no"/>
    <tag k="sidewalk:both" v="separate"/>
    <tag k="smoothness" v="good"/>
    <tag k="surface" v="asphalt"/>
  </way>
  <way id="37065339" version="22" timestamp="2024-02-16T15:35:50Z" changeset="147535874" uid="6290466" user="benjamintchik">
    <nd ref="94158188"/>
    <nd ref="4045853193"/>
    <nd ref="1203631142"/>
    <nd ref="2194257070"/>
    <nd ref="94159199"/>
    <nd ref="2194257051"/>
    <nd ref="94158189"/>
    <nd ref="2194257034"/>
    <nd ref="94158190"/>
    <nd ref="8858575554"/>
    <nd ref="8107900890"/>
    <nd ref="1822082742"/>
    <nd ref="11042342811"/>
    <nd ref="361098"/>
    <tag k="cycleway:right" v="no"/>
    <tag k="highway" v="tertiary"/>
    <tag k="lane_markings" v="no"/>
    <tag k="lit" v="yes"/>
    <tag k="maxspeed" v="30"/>
    <tag k="name" v="Rue du Faubourg Poissonnière"/>
    <tag k="name:etymology:wikidata" v="Q3067304"/>
    <tag k="oneway" v="yes"/>
    <tag k="sidewalk:both" v="separate"/>
    <tag k="smoothness" v="good"/>
    <tag k="source:maxspeed" v="FR:zone30"/>
    <tag k="surface" v="asphalt"/>
    <tag k="traffic:hourly" v="200"/>
    <tag k="traffic:hourly:source" v="survey, comptage n°85, angle Montholon 10/03/2020 18:00 7min 31 compté et normalisé"/>
    <tag k="wikidata" v="Q3452298"/>
    <tag k="zone:maxspeed" v="FR:30"/>
  </way>
  <way id="45387953" version="15" timestamp="2024-02-15T21:24:41Z" changeset="147508720" uid="6290466" user="benjamintchik">
    <nd ref="94164241"/>
    <nd ref="2194257037"/>
    <nd ref="213169528"/>
    <nd ref="11066986435"/>
    <nd ref="2194257021"/>
    <nd ref="94164591"/>
    <tag k="cycleway" v="opposite"/>
    <tag k="highway" v="residential"/>
    <tag k="lit" v="yes"/>
    <tag k="maxspeed" v="30"/>
    <tag k="name" v="Rue d'Enghien"/>
    <tag k="name:etymology:wikidata" v="Q222606"/>
    <tag k="oneway" v="yes"/>
    <tag k="oneway:bicycle" v="no"/>
    <tag k="sidewalk:both" v="separate"/>
    <tag k="smoothness" v="good"/>
    <tag k="surface" v="asphalt"/>
    <tag k="zone:maxspeed" v="FR:30"/>
  </way>
  <way id="45786403" version="16" timestamp="2025-01-22T12:31:26Z" changeset="161636364" uid="7512839" user="Benoît C MdP">
    <nd ref="663047671"/>
    <nd ref="583023060"/>
    <tag k="highway" v="unclassified"/>
    <tag k="lane_markings" v="no"/>
    <tag k="lit" v="yes"/>
    <tag k="maxspeed" v="30"/>
    <tag k="name" v="Rue du 8 Mai 1945"/>
    <tag k="name:etymology:wikidata" v="Q622365"/>
    <tag k="smoothness" v="good"/>
    <tag k="surface" v="asphalt"/>
  </way>
  <way id="48305960" version="17" timestamp="2024-02-25T10:42:24Z" changeset="147884396" uid="6290466" user="benjamintchik">
    <nd ref="613742310"/>
    <nd ref="2194257082"/>
    <nd ref="830054227"/>
    <tag k="cycleway" v="opposite"/>
    <tag k="highway" v="residential"/>
    <tag k="lit" v="yes"/>
    <tag k="maxspeed" v="30"/>
    <tag k="name" v="Rue Gabriel Laumain"/>
    <tag k="name:etymology:wikidata" v="Q3093817"/>
    <tag k="oneway" v="yes"/>
    <tag k="oneway:bicycle" v="no"/>
    <tag k="sidewalk:both" v="separate"/>
    <tag k="sidewalk:both:surface" v="asphalt"/>
    <tag k="smoothness" v="intermediate"/>
    <tag k="surface" v="sett"/>
    <tag k="zone:maxspeed" v="FR:30"/>
  </way>
  <way id="48997107" version="27" timestamp="2024-02-15T21:38:15Z" changeset="147508720" uid="6290466" user="benjamintchik">
    <nd ref="94156557"/>
    <nd ref="11444712457"/>
    <nd ref="652026102"/>
    <nd ref="2194257142"/>
    <nd ref="6200419347"/>
    <nd ref="326993028"/>
    <nd ref="5915269343"/>
    <nd ref="326996572"/>
    <nd ref="5835145740"/>
    <nd ref="10570963818"/>
    <nd ref="11066767318"/>
    <nd ref="94156677"/>
    <tag k="cycleway:left" v="shared_lane"/>
    <tag k="cycleway:left:lane" v="pictogram"/>
    <tag k="cycleway:left:oneway" v="-1"/>
    <tag k="cycleway:right" v="no"/>
    <tag k="highway" v="residential"/>
    <tag k="lit" v="yes"/>
    <tag k="maxspeed" v="30"/>
    <tag k="name" v="Rue du Faubourg Saint-Denis"/>
    <tag k="name:etymology:wikidata" v="Q3603203"/>
    <tag k="oneway" v="yes"/>
    <tag k="oneway:bicycle" v="no"/>
    <tag k="parking:both" v="street_side"/>
    <tag k="parking:both:orientation" v="parallel"/>
    <tag k="sidewalk" v="separate"/>
    <tag k="smoothness" v="good"/>
    <tag k="source:maxspeed" v="FR:zone30"/>
    <tag k="surface" v="asphalt"/>
    <tag k="traffic_calming" v="yes"/>
    <tag k="zone:maxspeed" v="FR:30"/>
  </way>
  <way id="53344426" version="14" timestamp="2025-03-24T14:19:59Z" changeset="164035185" uid="195017" user="Julien39">
    <nd ref="663044417"/>
    <nd ref="663044420"/>
    <nd ref="6083209775"/>
    <nd ref="663044421"/>
    <nd ref="663044406"/>
    <tag k="cycleway:both" v="no"/>
    <tag k="highway" v="residential"/>
    <tag k="lit" v="yes"/>
    <tag k="maxspeed" v="30"/>
    <tag k="name" v="Rue de la Fidélité"/>
    <tag k="name:etymology:wikidata" v="Q1629067"/>
    <tag k="oneway" v="yes"/>
    <tag k="oneway:bicycle" v="no"/>
    <tag k="sidewalk:left" v="separate"/>
    <tag k="sidewalk:right" v="yes"/>
    <tag k="smoothness" v="good"/>
    <tag k="surface" v="asphalt"/>
  </way>
  <way id="58454495" version="15" timestamp="2025-03-09T16:23:02Z" changeset="163407861" uid="332493" user="bazgal">
    <nd ref="326967742"/>
    <nd ref="326967813"/>
    <tag k="cycleway:both" v="no"/>
    <tag k="highway" v="residential"/>
    <tag k="lit" v="yes"/>
    <tag k="maxspeed" v="30"/>
    <tag k="name" v="Cité d'Hauteville"/>
    <tag k="name:etymology:wikidata" v="Q17276569"/>
    <tag k="oneway" v="no"/>
    <tag k="sidewalk:both" v="separate"/>
    <tag k="smoothness" v="good"/>
    <tag k="surface" v="asphalt"/>
  </way>
  <way id="63195400" version="9" timestamp="2022-11-27T07:37:18Z" changeset="129424566" uid="1842888" user="nihombashi19">
    <nd ref="784434868"/>
    <nd ref="784400606"/>
    <nd ref="784346594"/>
    <nd ref="784408100"/>
    <nd ref="784389018"/>
    <nd ref="784460151"/>
    <nd ref="784463545"/>
    <nd ref="784471164"/>
    <nd ref="784339994"/>
    <nd ref="784443317"/>
    <nd ref="784352005"/>
    <nd ref="784466716"/>
    <nd ref="784469583"/>
    <nd ref="784361179"/>
    <nd ref="7527003435"/>
    <nd ref="784439120"/>
    <nd ref="1209893692"/>
    <nd ref="784321142"/>
    <nd ref="7527003436"/>
    <nd ref="784348979"/>
    <nd ref="784388776"/>
    <nd ref="784448766"/>
    <nd ref="784454379"/>
    <nd ref="784510352"/>
    <nd ref="784463972"/>
    <nd ref="784458322"/>
    <nd ref="784434868"/>
    <tag k="amenity" v="theatre"/>
    <tag k="architect" v="Louis Régnier;Auguste Rougevin"/>
    <tag k="building" v="yes"/>
    <tag k="building:levels" v="4"/>
    <tag k="changing_table" v="no"/>
    <tag k="heritage" v="3"/>
    <tag k="heritage:operator" v="mhs"/>
    <tag k="mhs:inscription_date" v="1994-02-01"/>
    <tag k="name" v="Théâtre du Gymnase Marie Bell"/>
    <tag k="ref:mhs" v="PA00133010"/>
    <tag k="source" v="cadastre-dgi-fr source : Direction Générale des Impôts - Cadastre. Mise à jour : 2010"/>
    <tag k="source:architect" v="data.gouv.fr:Ministère de la culture et de la communication - 05/2016"/>
    <tag k="source:heritage" v="data.gouv.fr:Ministère de la culture et de la communication - 05/2016"/>
    <tag k="theatre:genre" v="boulevard"/>
    <tag k="toilets" v="yes"/>
    <tag k="toilets:access" v="customers"/>
    <tag k="toilets:disposal" v="flush"/>
    <tag k="toilets:position" v="seated"/>
    <tag k="toilets:wheelchair" v="no"/>
    <tag k="website" v="http://theatredugymnase.paris/"/>
    <tag k="wikidata" v="Q121635"/>
    <tag k="wikipedia" v="fr:Théâtre du Gymnase Marie-Bell"/>
  </way>
  <way id="63195522" version="6" timestamp="2025-02-05T08:18:36Z" changeset="162154971" uid="13079289" user="SorryImAnOctopus">
    <nd ref="784431758"/>
    <nd ref="784485624"/>
    <nd ref="1272516684"/>
    <nd ref="784451381"/>
    <nd ref="784397826"/>
    <nd ref="784495481"/>
    <nd ref="784431758"/>
    <tag k="building" v="hotel"/>
    <tag k="building:levels" v="6"/>
    <tag k="contact:email" v="info@hotellemilierose.com"/>
    <tag k="contact:phone" v="+33 1 84 25 72 32"/>
    <tag k="contact:website" v="https://hotellemilierose.com/"/>
    <tag k="name" v="Le Milie Rose"/>
    <tag k="operator" v="Megdoud Ali"/>
    <tag k="roof:levels" v="1"/>
    <tag k="rooms" v="38"/>
    <tag k="smoking" v="outside"/>
    <tag k="source" v="cadastre-dgi-fr source : Direction Générale des Impôts - Cadastre. Mise à jour : 2010/survey:16-01-28"/>
    <tag k="stars" v="4"/>
    <tag k="tourism" v="hotel"/>
  </way>
  <way id="63195525" version="5" timestamp="2024-10-01T07:57:23Z" changeset="157325967" uid="12253972" user="Agile Solutions">
    <nd ref="784460286"/>
    <nd ref="784452087"/>
    <nd ref="784496977"/>
    <nd ref="784424057"/>
    <nd ref="784499782"/>
    <nd ref="784338733"/>
    <nd ref="784483175"/>
    <nd ref="1271556464"/>
    <nd ref="784486908"/>
    <nd ref="784353093"/>
    <nd ref="784358101"/>
    <nd ref="784297581"/>
    <nd ref="784460286"/>
    <tag k="addr:city" v="Paris"/>
    <tag k="addr:housenumber" v="9"/>
    <tag k="addr:postcode" v="75010"/>
    <tag k="addr:street" v="Cour des Petites Écuries"/>
    <tag k="building" v="office"/>
    <tag k="building:levels" v="6"/>
    <tag k="source" v="cadastre-dgi-fr source : Direction Générale des Impôts - Cadastre. Mise à jour : 2010"/>
  </way>
  <way id="63195921" version="7" timestamp="2024-09-17T21:20:04Z" changeset="156747869" uid="19671819" user="Turb">
    <nd ref="784507675"/>
    <nd ref="784463721"/>
    <nd ref="1271556301"/>
    <nd ref="1271556337"/>
    <nd ref="784401623"/>
    <nd ref="784509620"/>
    <nd ref="784349964"/>
    <nd ref="1271556552"/>
    <nd ref="784507675"/>
    <tag k="building" v="yes"/>
    <tag k="check_date" v="2024-09-17"/>
    <tag k="name" v="L'équiquier"/>
    <tag k="phone" v="+33 1 42 46 92 75"/>
    <tag k="smoking" v="outside"/>
    <tag k="source" v="cadastre-dgi-fr source : Direction Générale des Impôts - Cadastre. Mise à jour : 2010/local_knowledge"/>
    <tag k="stars" v="4"/>
    <tag k="toilets:wheelchair" v="yes"/>
    <tag k="tourism" v="hotel"/>
    <tag k="website" v="https://www.facebook.com/pages/H%C3%B4tel-Pavillon-Op%C3%A9ra/196645590444280"/>
    <tag k="wheelchair" v="yes"/>
  </way>
  <way id="63196044" version="7" timestamp="2023-12-03T22:19:18Z" changeset="144734311" uid="332493" user="bazgal">
    <nd ref="784392999"/>
    <nd ref="784486264"/>
    <nd ref="784373578"/>
    <nd ref="784336237"/>
    <nd ref="784362545"/>
    <nd ref="784348119"/>
    <nd ref="784451672"/>
    <nd ref="784346508"/>
    <nd ref="1272517055"/>
    <nd ref="10698188124"/>
    <nd ref="784325776"/>
    <nd ref="784352559"/>
    <nd ref="784392999"/>
    <tag k="building" v="hotel"/>
    <tag k="building:levels" v="7"/>
    <tag k="contact:email" v="hoteldalsace75@gmail.com"/>
    <tag k="contact:phone" v="+33 1 40 37 75 41"/>
    <tag k="contact:website" v="https://www.hotel-alsace-paris.com/"/>
    <tag k="internet_access" v="wlan"/>
    <tag k="internet_access:fee" v="no"/>
    <tag k="name" v="Hôtel d'Alsace"/>
    <tag k="roof:levels" v="1"/>
    <tag k="source" v="survey 11/2017"/>
    <tag k="stars" v="3"/>
    <tag k="tourism" v="hotel"/>
  </way>
  <way id="63196122" version="5" timestamp="2019-03-07T10:04:59Z" changeset="67876392" uid="9451067" user="b-jazz-bot">
    <nd ref="784460267"/>
    <nd ref="1271556370"/>
    <nd ref="784361037"/>
    <nd ref="784458732"/>
    <nd ref="784511971"/>
    <nd ref="784338014"/>
    <nd ref="784376085"/>
    <nd ref="784460267"/>
    <tag k="building" v="commercial"/>
    <tag k="name" v="Mutulelle Familiale"/>
    <tag k="office" v="insurance"/>
    <tag k="source" v="cadastre-dgi-fr source : Direction Générale des Impôts - Cadastre. Mise à jour : 2010/local_knowledge"/>
    <tag k="website" v="https://www.mutuelle-familiale-paris.fr/"/>
  </way>
  <way id="63196349" version="10" timestamp="2024-08-25T18:05:00Z" changeset="155749903" uid="974272" user="baprischka">
    <nd ref="784372734"/>
    <nd ref="784451787"/>
    <nd ref="784489454"/>
    <nd ref="784339355"/>
    <nd ref="784475879"/>
    <nd ref="784315127"/>
    <nd ref="4701887067"/>
    <nd ref="1280690325"/>
    <nd ref="784372734"/>
    <tag k="building" v="yes"/>
    <tag k="building:levels" v="7"/>
    <tag k="check_date" v="2024-08-25"/>
    <tag k="name" v="Grand Hôtel des Voyageurs"/>
    <tag k="source" v="cadastre-dgi-fr source : Direction Générale des Impôts - Cadastre;mise à jour : 2010"/>
    <tag k="tourism" v="hotel"/>
  </way>
  <way id="63196464" version="8" timestamp="2023-10-16T07:26:01Z" changeset="142649452" uid="332493" user="bazgal">
    <nd ref="784331102"/>
    <nd ref="784392831"/>
    <nd ref="784496101"/>
    <nd ref="1272516727"/>
    <nd ref="784362511"/>
    <nd ref="784331102"/>
    <tag k="amenity" v="kindergarten"/>
    <tag k="building" v="yes"/>
    <tag k="building:levels" v="1"/>
    <tag k="check_date" v="2023-10-15"/>
    <tag k="email" v="contact@lamaisonkangourou.com"/>
    <tag k="kindergarten:FR" v="crèche_collective"/>
    <tag k="name" v="La Maison Kangourou"/>
    <tag k="operator:type" v="community"/>
    <tag k="phone" v="+33 1 53 34 11 61"/>
    <tag k="source" v="cadastre-dgi-fr source : Direction Générale des Impôts - Cadastre. Mise à jour : 2010"/>
    <tag k="website" v="https://www.lamaisonkangourou.com/"/>
  </way>
  <way id="63197019" version="5" timestamp="2015-09-14T02:23:15Z" changeset="34011756" uid="1279506" user="thibdrev">
    <nd ref="784371994"/>
    <nd ref="784459535"/>
    <nd ref="784363829"/>
    <nd ref="784324936"/>
    <nd ref="784385966"/>
    <nd ref="784394229"/>
    <nd ref="784441619"/>
    <nd ref="784322208"/>
    <nd ref="784392225"/>
    <nd ref="784303164"/>
    <nd ref="3536840667"/>
    <nd ref="784413663"/>
    <nd ref="784357981"/>
    <nd ref="784480298"/>
    <nd ref="784429317"/>
    <nd ref="784484814"/>
    <nd ref="784503105"/>
    <nd ref="784371994"/>
    <tag k="amenity" v="kindergarten"/>
    <tag k="building" v="yes"/>
    <tag k="contact:phone" v="+33 1 40 22 02 62"/>
    <tag k="kindergarten:FR" v="crèche_collective"/>
    <tag k="name" v="Crèche Municipale Hauteville"/>
    <tag k="operator:type" v="public"/>
    <tag k="source" v="cadastre-dgi-fr source : Direction Générale des Impôts - Cadastre. Mise à jour : 2010"/>
  </way>
  <way id="63197085" version="7" timestamp="2022-11-04T12:14:18Z" changeset="128481030" uid="172867" user="AmiFritz">
    <nd ref="784447754"/>
    <nd ref="784362425"/>
    <nd ref="784376759"/>
    <nd ref="784491196"/>
    <nd ref="784495437"/>
    <nd ref="1272453524"/>
    <nd ref="784321277"/>
    <nd ref="784436386"/>
    <nd ref="784466119"/>
    <nd ref="784429491"/>
    <nd ref="784304548"/>
    <nd ref="784396528"/>
    <nd ref="784452738"/>
    <nd ref="784385331"/>
    <nd ref="784447754"/>
    <tag k="building" v="yes"/>
    <tag k="building:levels" v="7"/>
    <tag k="contact:city" v="Paris"/>
    <tag k="contact:housenumber" v="11 bis"/>
    <tag k="contact:phone" v="+33 1 47 70 93 05"/>
    <tag k="contact:postcode" v="75010"/>
    <tag k="contact:street" v="Rue Mazagran"/>
    <tag k="contact:website" v="https://www.reginaopera.com/"/>
    <tag k="name" v="Regina"/>
    <tag k="source:contact" v="https://www.reginaopera.com"/>
    <tag k="tourism" v="hotel"/>
  </way>
  <way id="63197918" version="11" timestamp="2024-08-25T18:05:00Z" changeset="155749903" uid="974272" user="baprischka">
    <nd ref="784389066"/>
    <nd ref="784349536"/>
    <nd ref="784307480"/>
    <nd ref="784336624"/>
    <nd ref="1280690413"/>
    <nd ref="784389066"/>
    <tag k="addr:city" v="Paris"/>
    <tag k="addr:housenumber" v="13"/>
    <tag k="addr:postcode" v="75010"/>
    <tag k="addr:street" v="Rue du 8 Mai 1945"/>
    <tag k="architect" v="Louis Heuzé"/>
    <tag k="building" v="yes"/>
    <tag k="building:levels" v="6"/>
    <tag k="check_date" v="2024-08-25"/>
    <tag k="contact:city" v="Paris"/>
    <tag k="contact:email" v="gde@hlparis.com"/>
    <tag k="contact:housenumber" v="13"/>
    <tag k="contact:phone" v="+33 1 40 35 94 14"/>
    <tag k="contact:postcode" v="75010"/>
    <tag k="contact:street" v="Rue du 8 Mai 1945"/>
    <tag k="contact:website" v="https://www.libertel-gare-de-lest-francais.com/"/>
    <tag k="internet_access" v="wlan"/>
    <tag k="internet_access:fee" v="no"/>
    <tag k="name" v="Libertel Gare de l'Est Français"/>
    <tag k="operator" v="Libertel"/>
    <tag k="roof:levels" v="1"/>
    <tag k="rooms" v="70"/>
    <tag k="source" v="cadastre-dgi-fr source : Direction Générale des Impôts - Cadastre. Mise à jour : 2010"/>
    <tag k="source:architect" v="survey"/>
    <tag k="stars" v="3"/>
    <tag k="start_date" v="1882"/>
    <tag k="tourism" v="hotel"/>
  </way>
  <way id="63198089" version="6" timestamp="2024-12-04T18:59:22Z" changeset="159930471" uid="16630545" user="Vivien GUEANT">
    <nd ref="784385293"/>
    <nd ref="784348666"/>
    <nd ref="784338169"/>
    <nd ref="784506864"/>
    <nd ref="795606518"/>
    <nd ref="795606623"/>
    <nd ref="784510490"/>
    <nd ref="784403247"/>
    <nd ref="1272516798"/>
    <nd ref="784317253"/>
    <nd ref="784317530"/>
    <nd ref="784466936"/>
    <nd ref="784314262"/>
    <nd ref="784364136"/>
    <nd ref="784306417"/>
    <nd ref="784311602"/>
    <nd ref="784385293"/>
    <tag k="building" v="yes"/>
    <tag k="check_date" v="2024-12-04"/>
    <tag k="fax" v="+33 1 40 22 09 64"/>
    <tag k="internet_access" v="wlan"/>
    <tag k="name" v="Hôtel Central"/>
    <tag k="operator" v="Attia Suzanne"/>
    <tag k="phone" v="+33 1 47 70 12 12"/>
    <tag k="smoking" v="outside"/>
    <tag k="source" v="cadastre-dgi-fr source : Direction Générale des Impôts - Cadastre. Mise à jour : 2010/survey:16-01-28"/>
    <tag k="stars" v="2"/>
    <tag k="tourism" v="hotel"/>
    <tag k="website" v="https://www.facebook.com/pages/central-hotel/"/>
  </way>
  <way id="63198495" version="8" timestamp="2025-03-09T16:23:14Z" changeset="163407853" uid="332493" user="bazgal">
    <nd ref="784349599"/>
    <nd ref="784331295"/>
    <nd ref="784345206"/>
    <nd ref="784323198"/>
    <nd ref="784423519"/>
    <nd ref="784389462"/>
    <nd ref="784463529"/>
    <nd ref="784312916"/>
    <nd ref="1272516944"/>
    <nd ref="784485262"/>
    <nd ref="1271556477"/>
    <nd ref="784349599"/>
    <tag k="building" v="yes"/>
    <tag k="building:levels" v="7"/>
    <tag k="name" v="Hôtel Ernest"/>
    <tag k="source" v="cadastre-dgi-fr source : Direction Générale des Impôts - Cadastre. Mise à jour : 2010"/>
    <tag k="tourism" v="hotel"/>
  </way>
  <way id="63199034" version="4" timestamp="2024-09-17T21:20:26Z" changeset="156747869" uid="19671819" user="Turb">
    <nd ref="784509620"/>
    <nd ref="784401623"/>
    <nd ref="1271556471"/>
    <nd ref="784297701"/>
    <nd ref="784345976"/>
    <nd ref="1271556440"/>
    <nd ref="1271556404"/>
    <nd ref="784397577"/>
    <nd ref="784422314"/>
    <nd ref="784314982"/>
    <nd ref="784368326"/>
    <nd ref="784351390"/>
    <nd ref="784483296"/>
    <nd ref="784509620"/>
    <tag k="building" v="yes"/>
    <tag k="check_date" v="2024-09-17"/>
    <tag k="name" v="Hôtel Provinces Opéra"/>
    <tag k="phone" v="+33 1 45 23 24 01"/>
    <tag k="smoking" v="outside"/>
    <tag k="source" v="cadastre-dgi-fr source : Direction Générale des Impôts - Cadastre. Mise à jour : 2010/local_knowledge"/>
    <tag k="stars" v="3"/>
    <tag k="tourism" v="hotel"/>
    <tag k="website" v="http://www.hotel-provinces-opera.com/fr/hotel-provinces-opera-paris/index/index"/>
  </way>
  <way id="63199173" version="5" timestamp="2024-10-06T09:07:43Z" changeset="157529892" uid="332493" user="bazgal">
    <nd ref="784451787"/>
    <nd ref="784348001"/>
    <nd ref="784396706"/>
    <nd ref="784410734"/>
    <nd ref="784496665"/>
    <nd ref="784435457"/>
    <nd ref="784361794"/>
    <nd ref="1272516985"/>
    <nd ref="784489454"/>
    <nd ref="784451787"/>
    <tag k="addr:city" v="Paris"/>
    <tag k="addr:country" v="FR"/>
    <tag k="addr:housenumber" v="91"/>
    <tag k="addr:postcode" v="75010"/>
    <tag k="addr:street" v="Boulevard de Strasbourg"/>
    <tag k="building" v="yes"/>
    <tag k="building:levels" v="6"/>
    <tag k="check_date" v="2024-10-05"/>
    <tag k="contact:phone" v="+33 1 40 37 77 20"/>
    <tag k="contact:website" v="http://www.hotel-modernest-paris.com"/>
    <tag k="internet_access" v="wlan"/>
    <tag k="internet_access:fee" v="no"/>
    <tag k="internet_access:ssid" v="HOTEL MODERN EST"/>
    <tag k="name" v="Modern' Est"/>
    <tag k="payment:cash" v="yes"/>
    <tag k="payment:mastercard" v="yes"/>
    <tag k="payment:visa" v="yes"/>
    <tag k="rooms" v="30"/>
    <tag k="source" v="cadastre-dgi-fr source : Direction Générale des Impôts - Cadastre. Mise à jour : 2010"/>
    <tag k="stars" v="2"/>
    <tag k="tourism" v="hotel"/>
  </way>
  <way id="63199847" version="4" timestamp="2020-06-25T09:14:47Z" changeset="87128962" uid="7465917" user="jclevenne">
    <nd ref="784454810"/>
    <nd ref="784308242"/>
    <nd ref="784338902"/>
    <nd ref="1272453928"/>
    <nd ref="784401047"/>
    <nd ref="784458864"/>
    <nd ref="784461026"/>
    <nd ref="784345845"/>
    <nd ref="784452861"/>
    <nd ref="784297148"/>
    <nd ref="784296860"/>
    <nd ref="784313588"/>
    <nd ref="784308355"/>
    <nd ref="784340893"/>
    <nd ref="784460948"/>
    <nd ref="784473216"/>
    <nd ref="784464143"/>
    <nd ref="784493170"/>
    <nd ref="784485552"/>
    <nd ref="784497788"/>
    <nd ref="784454810"/>
    <tag k="building" v="yes"/>
    <tag k="building:levels" v="6"/>
    <tag k="name" v="Union Islamique de France"/>
    <tag k="source" v="cadastre-dgi-fr source : Direction Générale des Impôts - Cadastre. Mise à jour : 2010"/>
  </way>
  <way id="63199867" version="16" timestamp="2023-10-17T06:05:58Z" changeset="142695125" uid="332493" user="bazgal">
    <nd ref="784385843"/>
    <nd ref="8931169048"/>
    <nd ref="8931169049"/>
    <nd ref="784454110"/>
    <nd ref="784361631"/>
    <nd ref="912309484"/>
    <nd ref="784465614"/>
    <nd ref="784511333"/>
    <nd ref="8931169050"/>
    <nd ref="784450931"/>
    <nd ref="784329371"/>
    <nd ref="784451149"/>
    <nd ref="784361559"/>
    <nd ref="784357067"/>
    <nd ref="8931169051"/>
    <nd ref="784361393"/>
    <nd ref="784364700"/>
    <nd ref="8931169052"/>
    <nd ref="784385843"/>
    <tag k="architect" v="Jacotin;Brunnarius"/>
    <tag k="architect:wikidata" v="Q50127534"/>
    <tag k="architect:wikipedia" v="fr:Ernest Brunnarius"/>
    <tag k="building" v="apartments"/>
    <tag k="building:levels" v="5"/>
    <tag k="heritage" v="3"/>
    <tag k="heritage:operator" v="mhs"/>
    <tag k="mhs:inscription_date" v="1981-10-06"/>
    <tag k="name" v="Anciens magasins Boulenger"/>
    <tag k="ref:mhs" v="PA00086504"/>
    <tag k="roof:levels" v="1"/>
    <tag k="source" v="cadastre-dgi-fr source : Direction Générale des Impôts - Cadastre ; mise à jour : 2010"/>
    <tag k="source:architect" v="data.gouv.fr:Ministère de la culture et de la communication - 05/2016"/>
    <tag k="wikidata" v="Q2845947"/>
    <tag k="wikipedia" v="fr:Anciens magasins de vente des faïenceries de Choisy-le-Roi"/>
  </way>
  <way id="63200381" version="6" timestamp="2025-03-14T22:19:19Z" changeset="163629307" uid="5670825" user="Christophe Raverdy">
    <nd ref="784328063"/>
    <nd ref="784461245"/>
    <nd ref="795606473"/>
    <nd ref="784508536"/>
    <nd ref="784375322"/>
    <nd ref="784422300"/>
    <nd ref="784443328"/>
    <nd ref="784413869"/>
    <nd ref="784372611"/>
    <nd ref="784328063"/>
    <tag k="building" v="yes"/>
    <tag k="building:levels" v="7"/>
    <tag k="check_date" v="2025-03-14"/>
    <tag k="internet_access" v="wlan"/>
    <tag k="name" v="Hôtel Pacific"/>
    <tag k="operator" v="Gabouze Adlane"/>
    <tag k="phone" v="+33 1 47 70 07 91"/>
    <tag k="source" v="cadastre-dgi-fr source : Direction Générale des Impôts - Cadastre. Mise à jour : 2010/survey:16-01-28"/>
    <tag k="stars" v="1"/>
    <tag k="tourism" v="hotel"/>
  </way>
  <way id="63200622" version="4" timestamp="2019-06-27T11:11:05Z" changeset="71668698" uid="2054610" user="BtKent">
    <nd ref="784300175"/>
    <nd ref="784439228"/>
    <nd ref="784339623"/>
    <nd ref="1271556574"/>
    <nd ref="784471051"/>
    <nd ref="784467131"/>
    <nd ref="784503544"/>
    <nd ref="6574479780"/>
    <nd ref="784398052"/>
    <nd ref="784300175"/>
    <tag k="addr:city" v="Paris"/>
    <tag k="addr:housenumber" v="2"/>
    <tag k="addr:postcode" v="75010"/>
    <tag k="addr:street" v="Cité Paradis"/>
    <tag k="building" v="commercial"/>
    <tag k="building:levels" v="6"/>
    <tag k="name" v="Sewan"/>
    <tag k="source" v="cadastre-dgi-fr source : Direction Générale des Impôts - Cadastre. Mise à jour : 2010"/>
  </way>
  <way id="63201292" version="7" timestamp="2023-12-11T20:30:52Z" changeset="145013759" uid="332493" user="bazgal">
    <nd ref="784453771"/>
    <nd ref="784366556"/>
    <nd ref="784339898"/>
    <nd ref="784354326"/>
    <nd ref="1272516969"/>
    <nd ref="784462302"/>
    <nd ref="1271556296"/>
    <nd ref="784453771"/>
    <tag k="building" v="hotel"/>
    <tag k="building:levels" v="6"/>
    <tag k="contact:email" v="hautevilleopera@gmail.com"/>
    <tag k="contact:phone" v="+33 9 54 85 84 52"/>
    <tag k="contact:website" v="https://hauteville-opera.com/"/>
    <tag k="internet_access" v="wlan"/>
    <tag k="internet_access:fee" v="no"/>
    <tag k="name" v="Hôtel Hauteville Opéra"/>
    <tag k="operator" v="Bessa Hider"/>
    <tag k="roof:levels" v="1"/>
    <tag k="rooms" v="26"/>
    <tag k="smoking" v="outside"/>
    <tag k="source" v="cadastre-dgi-fr source : Direction Générale des Impôts - Cadastre. Mise à jour : 2010/local_knowledge"/>
    <tag k="stars" v="3"/>
    <tag k="tourism" v="hotel"/>
  </way>
  <way id="63201404" version="5" timestamp="2021-05-26T16:21:34Z" changeset="105369814" uid="13325388" user="Ibolya_M">
    <nd ref="784309460"/>
    <nd ref="784419851"/>
    <nd ref="784342062"/>
    <nd ref="784403243"/>
    <nd ref="784472884"/>
    <nd ref="784430645"/>
    <nd ref="784502489"/>
    <nd ref="784509978"/>
    <nd ref="784443366"/>
    <nd ref="784432422"/>
    <nd ref="784379878"/>
    <nd ref="807886096"/>
    <nd ref="784309460"/>
    <tag k="building" v="apartments"/>
    <tag k="building:levels" v="6"/>
    <tag k="name" v="Résidence Lorraine"/>
    <tag k="source" v="cadastre-dgi-fr source : Direction Générale des Impôts - Cadastre. Mise à jour : 2010"/>
    <tag k="source:name" v="survey"/>
  </way>
  <way id="63201411" version="7" timestamp="2024-08-25T18:05:00Z" changeset="155749903" uid="974272" user="baprischka">
    <nd ref="784336624"/>
    <nd ref="784307480"/>
    <nd ref="784451787"/>
    <nd ref="784372734"/>
    <nd ref="784339245"/>
    <nd ref="784336624"/>
    <tag k="building" v="yes"/>
    <tag k="building:levels" v="7"/>
    <tag k="check_date" v="2024-08-25"/>
    <tag k="contact:email" v="contact@lemarcelhotel.com"/>
    <tag k="contact:phone" v="+33 1 73 03 22 22"/>
    <tag k="contact:website" v="https://www.lemarcelhotel.com/"/>
    <tag k="internet_access" v="wlan"/>
    <tag k="internet_access:fee" v="no"/>
    <tag k="name" v="Le Marcel"/>
    <tag k="rooms" v="28"/>
    <tag k="source" v="cadastre-dgi-fr source : Direction Générale des Impôts - Cadastre. Mise à jour : 2010"/>
    <tag k="stars" v="4"/>
    <tag k="tourism" v="hotel"/>
  </way>
  <way id="63201418" version="10" timestamp="2024-08-25T18:02:34Z" changeset="155749810" uid="974272" user="baprischka">
    <nd ref="784438408"/>
    <nd ref="784332213"/>
    <nd ref="784360650"/>
    <nd ref="784317764"/>
    <nd ref="784374768"/>
    <nd ref="784459941"/>
    <nd ref="784350593"/>
    <nd ref="784485764"/>
    <nd ref="912270814"/>
    <nd ref="784438408"/>
    <tag k="building" v="hotel"/>
    <tag k="building:levels" v="6"/>
    <tag k="check_date" v="2024-08-25"/>
    <tag k="name" v="Kabanel Hotel"/>
    <tag k="source" v="cadastre-dgi-fr source : Direction Générale des Impôts - Cadastre. Mise à jour : 2010"/>
    <tag k="tourism" v="hotel"/>
  </way>
  <way id="63201652" version="5" timestamp="2016-11-20T18:08:56Z" changeset="43828477" uid="50179" user="Aroche">
    <nd ref="784391439"/>
    <nd ref="784381296"/>
    <nd ref="784382655"/>
    <nd ref="784486073"/>
    <nd ref="784365615"/>
    <nd ref="784425354"/>
    <nd ref="784462035"/>
    <nd ref="784427892"/>
    <nd ref="784340523"/>
    <nd ref="784387769"/>
    <nd ref="784302785"/>
    <nd ref="784444638"/>
    <nd ref="784396450"/>
    <nd ref="784460733"/>
    <nd ref="784401370"/>
    <nd ref="784466017"/>
    <nd ref="784391439"/>
    <tag k="building" v="yes"/>
    <tag k="heritage" v="3"/>
    <tag k="heritage:operator" v="mhs"/>
    <tag k="mhs:inscription_date" v="2001"/>
    <tag k="name" v="Hôtel Bertin"/>
    <tag k="ref:mhs" v="PA00086501"/>
    <tag k="source" v="cadastre-dgi-fr source : Direction Générale des Impôts - Cadastre. Mise à jour : 2010"/>
    <tag k="source:heritage" v="data.gouv.fr:Ministère de la Culture - 04/2015"/>
    <tag k="wikidata" v="Q22922024"/>
  </way>
  <way id="63201742" version="5" timestamp="2016-11-20T18:08:56Z" changeset="43828477" uid="50179" user="Aroche">
    <nd ref="784427197"/>
    <nd ref="784400596"/>
    <nd ref="784349640"/>
    <nd ref="784369590"/>
    <nd ref="784385540"/>
    <nd ref="784312376"/>
    <nd ref="784408372"/>
    <nd ref="784384187"/>
    <nd ref="784461895"/>
    <nd ref="784389764"/>
    <nd ref="784427197"/>
    <tag k="building" v="yes"/>
    <tag k="heritage" v="3"/>
    <tag k="heritage:operator" v="mhs"/>
    <tag k="mhs:inscription_date" v="1993"/>
    <tag k="name" v="Hôtel Botterel de Quintin"/>
    <tag k="ref:mhs" v="PA00086502"/>
    <tag k="source" v="cadastre-dgi-fr source : Direction Générale des Impôts - Cadastre. Mise à jour : 2010"/>
    <tag k="source:heritage" v="data.gouv.fr:Ministère de la Culture - 04/2015"/>
    <tag k="wikidata" v="Q3145431"/>
    <tag k="wikipedia" v="fr:Hôtel Botterel de Quintin"/>
  </way>
  <way id="63202079" version="7" timestamp="2023-09-18T16:19:41Z" changeset="141429802" uid="1439676" user="abitmol">
    <nd ref="784507424"/>
    <nd ref="784485608"/>
    <nd ref="784355988"/>
    <nd ref="784386037"/>
    <nd ref="784468688"/>
    <nd ref="784325963"/>
    <nd ref="784403516"/>
    <nd ref="784386638"/>
    <nd ref="784448818"/>
    <nd ref="784452706"/>
    <nd ref="784322094"/>
    <nd ref="784310986"/>
    <nd ref="784495577"/>
    <nd ref="784430440"/>
    <nd ref="784442453"/>
    <nd ref="784404332"/>
    <nd ref="784481125"/>
    <nd ref="784462668"/>
    <nd ref="784388353"/>
    <nd ref="784477107"/>
    <nd ref="784315734"/>
    <nd ref="784486803"/>
    <nd ref="784484265"/>
    <nd ref="912309543"/>
    <nd ref="784400390"/>
    <nd ref="784482228"/>
    <nd ref="784365530"/>
    <nd ref="784360929"/>
    <nd ref="784316641"/>
    <nd ref="784434979"/>
    <nd ref="784503732"/>
    <nd ref="784507424"/>
    <tag k="architect" v="Jules Savary"/>
    <tag k="building" v="office"/>
    <tag k="building:levels" v="0"/>
    <tag k="name" v="KissKissBankBank"/>
    <tag k="source" v="https://www.kisskissbankbank.com/fr/pages/terms"/>
    <tag k="source:architect" v="survey"/>
    <tag k="start_date" v="1912"/>
  </way>
  <way id="63202648" version="5" timestamp="2024-03-17T20:50:57Z" changeset="148789803" uid="974272" user="baprischka">
    <nd ref="784505605"/>
    <nd ref="784437422"/>
    <nd ref="784360081"/>
    <nd ref="784462099"/>
    <nd ref="807887040"/>
    <nd ref="784437996"/>
    <nd ref="10600456403"/>
    <nd ref="784485196"/>
    <nd ref="784502558"/>
    <nd ref="784505605"/>
    <tag k="addr:city" v="Paris"/>
    <tag k="addr:housenumber" v="18"/>
    <tag k="addr:postcode" v="75010"/>
    <tag k="addr:street" v="Rue de la Fidélité"/>
    <tag k="building" v="yes"/>
    <tag k="check_date" v="2024-03-17"/>
    <tag k="name" v="Hôtel Grand Amour"/>
    <tag k="name:en" v="Grand Amour Hotel"/>
    <tag k="name:fr" v="Hôtel Grand Amour"/>
    <tag k="phone" v="+33 144160330"/>
    <tag k="source" v="cadastre-dgi-fr source : Direction Générale des Impôts - Cadastre. Mise à jour : 2010"/>
    <tag k="tourism" v="hotel"/>
    <tag k="website" v="https://grandamour.hotelamourparis.fr/en/"/>
  </way>
  <way id="63203093" version="10" timestamp="2023-11-10T12:10:32Z" changeset="143860536" uid="332493" user="bazgal">
    <nd ref="784408372"/>
    <nd ref="784312376"/>
    <nd ref="784324182"/>
    <nd ref="784353426"/>
    <nd ref="784503169"/>
    <nd ref="784505754"/>
    <nd ref="1272516645"/>
    <nd ref="784392168"/>
    <nd ref="784321732"/>
    <nd ref="784343265"/>
    <nd ref="784386472"/>
    <nd ref="784408372"/>
    <tag k="air_conditioning" v="yes"/>
    <tag k="bar" v="yes"/>
    <tag k="brand" v="Mercure"/>
    <tag k="brand:wikidata" v="Q1709809"/>
    <tag k="brand:wikipedia" v="fr:Mercure (hôtels)"/>
    <tag k="building" v="yes"/>
    <tag k="contact:city" v="Paris"/>
    <tag k="contact:email" v="h9688@accor.com"/>
    <tag k="contact:housenumber" v="42"/>
    <tag k="contact:phone" v="+33 1 42 46 91 86"/>
    <tag k="contact:postcode" v="75010"/>
    <tag k="contact:street" v="Rue des Petites Écuries"/>
    <tag k="contact:website" v="https://all.accor.com/hotel/9688/index.fr.shtml"/>
    <tag k="internet_access" v="wlan"/>
    <tag k="name" v="Mercure Paris Opera Grands Boulevards"/>
    <tag k="operator" v="Roblin Fançoise Annie"/>
    <tag k="smoking" v="outside"/>
    <tag k="source" v="cadastre-dgi-fr source : Direction Générale des Impôts - Cadastre. Mise à jour : 2010"/>
    <tag k="stars" v="3"/>
    <tag k="tourism" v="hotel"/>
    <tag k="wheelchair" v="yes"/>
  </way>
  <way id="63203239" version="6" timestamp="2023-11-03T03:41:55Z" changeset="143556141" uid="9451067" user="b-jazz-bot">
    <nd ref="784391752"/>
    <nd ref="784345658"/>
    <nd ref="784474637"/>
    <nd ref="784317644"/>
    <nd ref="1272453434"/>
    <nd ref="784485514"/>
    <nd ref="784391752"/>
    <tag k="building" v="yes"/>
    <tag k="building:levels" v="5"/>
    <tag k="fax" v="+33 1 48 24 00 36"/>
    <tag k="internet_access" v="wlan"/>
    <tag k="name" v="Belfort Hôtel"/>
    <tag k="operator" v="Ali Ayad"/>
    <tag k="phone" v="+33 1 48 24 72 69"/>
    <tag k="smoking" v="outside"/>
    <tag k="source" v="cadastre-dgi-fr source : Direction Générale des Impôts - Cadastre. Mise à jour : 2010/survey:16-01-26"/>
    <tag k="tourism" v="hotel"/>
    <tag k="website" v="https://www.hoteldebelfort.com/"/>
  </way>
  <way id="63203318" version="6" timestamp="2023-10-02T06:29:40Z" changeset="142022815" uid="332493" user="bazgal">
    <nd ref="784318309"/>
    <nd ref="784473280"/>
    <nd ref="784332591"/>
    <nd ref="1271556338"/>
    <nd ref="784393702"/>
    <nd ref="784397013"/>
    <nd ref="784486368"/>
    <nd ref="784318309"/>
    <tag k="building" v="hotel"/>
    <tag k="building:levels" v="5"/>
    <tag k="name" v="Hôtel des comédies"/>
    <tag k="operator" v="Nebout Bruno"/>
    <tag k="phone" v="+33 1 47 70 19 49"/>
    <tag k="roof:levels" v="1"/>
    <tag k="smoking" v="outside"/>
    <tag k="source" v="cadastre-dgi-fr source : Direction Générale des Impôts - Cadastre. Mise à jour : 2010"/>
    <tag k="stars" v="3"/>
    <tag k="tourism" v="hotel"/>
    <tag k="website" v="https://www.hoteldescomedies.com/"/>
  </way>
  <way id="63203368" version="5" timestamp="2023-11-10T14:45:05Z" changeset="143866993" uid="332493" user="bazgal">
    <nd ref="784499599"/>
    <nd ref="784388476"/>
    <nd ref="784472188"/>
    <nd ref="1272453678"/>
    <nd ref="784363867"/>
    <nd ref="784358766"/>
    <nd ref="784444257"/>
    <nd ref="784499599"/>
    <tag k="building" v="yes"/>
    <tag k="building:levels" v="6"/>
    <tag k="contact:phone" v="+33 1 45 23 32 36"/>
    <tag k="internet_access" v="wlan"/>
    <tag k="name" v="Hôtel de Bordeaux"/>
    <tag k="source" v="cadastre-dgi-fr source : Direction Générale des Impôts - Cadastre. Mise à jour : 2010"/>
    <tag k="stars" v="2"/>
    <tag k="tourism" v="hotel"/>
  </way>
  <way id="63203415" version="7" timestamp="2024-09-08T17:56:10Z" changeset="156363485" uid="5724253" user="John Lines">
    <nd ref="784443408"/>
    <nd ref="784394855"/>
    <nd ref="784369898"/>
    <nd ref="784498947"/>
    <nd ref="1272516736"/>
    <nd ref="784340781"/>
    <nd ref="784337253"/>
    <nd ref="807886762"/>
    <nd ref="784443408"/>
    <tag k="building" v="hotel"/>
    <tag k="building:levels" v="7"/>
    <tag k="name" v="Hôtel Liège Strasbourg"/>
    <tag k="roof:shape" v="gabled"/>
    <tag k="source" v="cadastre-dgi-fr source : Direction Générale des Impôts - Cadastre. Mise à jour : 2010;local knowledge"/>
    <tag k="stars" v="2"/>
    <tag k="tourism" v="hotel"/>
    <tag k="website" v="https://www.paris-hotel-liegestrasbourg.com/"/>
  </way>
  <way id="63203417" version="4" timestamp="2023-05-15T11:26:22Z" changeset="136121976" uid="242257" user="Emmanuel Dewaele">
    <nd ref="784468864"/>
    <nd ref="784352190"/>
    <nd ref="784384206"/>
    <nd ref="784447955"/>
    <nd ref="784320784"/>
    <nd ref="784365084"/>
    <nd ref="784488507"/>
    <nd ref="784497110"/>
    <nd ref="784362624"/>
    <nd ref="912309100"/>
    <nd ref="912309060"/>
    <nd ref="912308751"/>
    <nd ref="912309300"/>
    <nd ref="784468864"/>
    <tag k="building" v="commercial"/>
    <tag k="building:levels" v="3"/>
    <tag k="name" v="AG2R La Mondiale"/>
    <tag k="roof:levels" v="1"/>
    <tag k="source" v="cadastre-dgi-fr source : Direction Générale des Impôts - Cadastre. Mise à jour : 2010"/>
    <tag k="source:name" v="survey"/>
  </way>
  <way id="63203459" version="5" timestamp="2023-11-03T03:41:10Z" changeset="143556127" uid="9451067" user="b-jazz-bot">
    <nd ref="784361794"/>
    <nd ref="784435457"/>
    <nd ref="784311319"/>
    <nd ref="784308229"/>
    <nd ref="784464899"/>
    <nd ref="784352266"/>
    <nd ref="784412589"/>
    <nd ref="784443624"/>
    <nd ref="784311026"/>
    <nd ref="10698188129"/>
    <nd ref="784300441"/>
    <nd ref="784361794"/>
    <tag k="addr:city" v="Paris"/>
    <tag k="addr:street" v="Boulevard de Strasbourg"/>
    <tag k="building" v="hotel"/>
    <tag k="building:levels" v="7"/>
    <tag k="internet_access:fee" v="no"/>
    <tag k="name" v="Little Regina"/>
    <tag k="smoking" v="yes"/>
    <tag k="source" v="cadastre-dgi-fr source : Direction Générale des Impôts - Cadastre. Mise à jour : 2010"/>
    <tag k="stars" v="2"/>
    <tag k="tourism" v="hotel"/>
    <tag k="website" v="https://www.parishotellittleregina.com/"/>
    <tag k="wheelchair" v="no"/>
  </way>
  <way id="67307210" version="21" timestamp="2025-01-15T15:17:59Z" changeset="161384779" uid="7512839" user="Benoît C MdP">
    <nd ref="361100"/>
    <nd ref="11444712454"/>
    <nd ref="583023082"/>
    <nd ref="5297593441"/>
    <nd ref="1840030258"/>
    <tag k="busway:right" v="lane"/>
    <tag k="cycleway:both" v="separate"/>
    <tag k="dual_carriageway" v="yes"/>
    <tag k="enforcement:operator" v="Police nationale"/>
    <tag k="highway" v="primary"/>
    <tag k="lanes" v="2"/>
    <tag k="lit" v="yes"/>
    <tag k="maxspeed" v="30"/>
    <tag k="name" v="Boulevard de Magenta"/>
    <tag k="name:etymology:wikidata" v="Q681430"/>
    <tag k="oneway" v="yes"/>
    <tag k="operator" v="Ville de Paris"/>
    <tag k="operator:authority" v="Maire de Paris après avis du préfet de police"/>
    <tag k="operator:authority:related_law" v="IV de l'article L. 2512-14 du code général des collectivités territoriales"/>
    <tag k="operator:url" v="https://cdn.paris.fr/paris/2020/02/26/5bf469a311d0beb9911e92d113781550.ai"/>
    <tag k="parking:both" v="no"/>
    <tag k="psv:lanes" v="yes|designated"/>
    <tag k="sidewalk" v="separate"/>
    <tag k="smoothness" v="good"/>
    <tag k="surface" v="asphalt"/>
  </way>
  <way id="69236724" version="14" timestamp="2024-02-25T10:42:24Z" changeset="147884396" uid="6290466" user="benjamintchik">
    <nd ref="830054231"/>
    <nd ref="11067035874"/>
    <nd ref="1203631142"/>
    <tag k="cycleway" v="opposite"/>
    <tag k="highway" v="residential"/>
    <tag k="lit" v="yes"/>
    <tag k="maxspeed" v="30"/>
    <tag k="name" v="Rue Gabriel Laumain"/>
    <tag k="name:etymology:wikidata" v="Q3093817"/>
    <tag k="oneway" v="yes"/>
    <tag k="oneway:bicycle" v="no"/>
    <tag k="sidewalk" v="both"/>
    <tag k="sidewalk:both:surface" v="asphalt"/>
    <tag k="smoothness" v="good"/>
    <tag k="source" v="cadastre-dgi-fr source : Direction Générale des Impôts - Cadastre. Mise à jour : 2010"/>
    <tag k="surface" v="asphalt"/>
    <tag k="zone:maxspeed" v="FR:30"/>
  </way>
  <way id="69236725" version="11" timestamp="2024-02-25T10:42:24Z" changeset="147884396" uid="6290466" user="benjamintchik">
    <nd ref="830054227"/>
    <nd ref="830054231"/>
    <tag k="cycleway" v="opposite"/>
    <tag k="highway" v="residential"/>
    <tag k="lit" v="yes"/>
    <tag k="maxheight" v="default"/>
    <tag k="maxspeed" v="30"/>
    <tag k="name" v="Rue Gabriel Laumain"/>
    <tag k="name:etymology:wikidata" v="Q3093817"/>
    <tag k="oneway" v="yes"/>
    <tag k="oneway:bicycle" v="no"/>
    <tag k="sidewalk" v="both"/>
    <tag k="smoothness" v="good"/>
    <tag k="source" v="cadastre-dgi-fr source : Direction Générale des Impôts - Cadastre. Mise à jour : 2010"/>
    <tag k="surface" v="asphalt"/>
    <tag k="tunnel" v="yes"/>
    <tag k="zone:maxspeed" v="FR:30"/>
  </way>
  <way id="76928239" version="21" timestamp="2025-04-17T18:49:24Z" changeset="165085446" uid="9392516" user="carstenhag">
    <nd ref="906068171"/>
    <nd ref="906068122"/>
    <nd ref="906068138"/>
    <nd ref="906068159"/>
    <nd ref="906068111"/>
    <nd ref="906068127"/>
    <nd ref="906068146"/>
    <nd ref="906068162"/>
    <nd ref="906068166"/>
    <nd ref="906068104"/>
    <nd ref="906068123"/>
    <nd ref="906068139"/>
    <nd ref="906068097"/>
    <nd ref="906068142"/>
    <nd ref="906068113"/>
    <nd ref="906068128"/>
    <nd ref="906068165"/>
    <nd ref="5592139716"/>
    <nd ref="4947693487"/>
    <nd ref="5592140138"/>
    <nd ref="906068116"/>
    <nd ref="906068148"/>
    <nd ref="906068153"/>
    <nd ref="906068156"/>
    <nd ref="906068170"/>
    <nd ref="906068106"/>
    <nd ref="906068125"/>
    <nd ref="906068171"/>
    <tag k="addr:housenumber" v="8"/>
    <tag k="addr:postcode" v="75010"/>
    <tag k="addr:street" v="Rue Léon Schwartzenberg"/>
    <tag k="amenity" v="library"/>
    <tag k="building" v="civic"/>
    <tag k="building:levels" v="4"/>
    <tag k="check_date" v="2024-09-15"/>
    <tag k="email" v="mediatheque.francoise-sagan@paris.fr"/>
    <tag k="heritage" v="3"/>
    <tag k="heritage:operator" v="mhs"/>
    <tag k="internet_access" v="wlan"/>
    <tag k="mhs:inscription_date" v="2005-11-28"/>
    <tag k="name" v="Médiathèque Françoise-Sagan"/>
    <tag k="note" v="architecte : Louis-Pierre Baltard"/>
    <tag k="old_name" v="ex-Hôpital Saint-Lazare"/>
    <tag k="opening_hours" v="Tu,Th,Fr 13:00-19:00; We 10:00-19:00; Sa 10:00-18:00; Su 13:00-18:00"/>
    <tag k="phone" v="+33 1 53 24 69 70"/>
    <tag k="ref:mhs" v="PA75100008"/>
    <tag k="source" v="cadastre-dgi-fr source : Direction Générale des Impôts - Cadastre. Mise à jour : 2010"/>
    <tag k="start_date" v="1834"/>
    <tag k="wheelchair" v="yes"/>
    <tag k="wikidata" v="Q75829198"/>
    <tag k="wikipedia" v="fr:Médiathèque Françoise-Sagan"/>
  </way>
  <way id="76928245" version="6" timestamp="2024-09-21T22:57:17Z" changeset="156931193" uid="27454" user="Popolon">
    <nd ref="906068158"/>
    <nd ref="906068119"/>
    <nd ref="906068117"/>
    <nd ref="906068121"/>
    <nd ref="906068147"/>
    <nd ref="906068164"/>
    <nd ref="906068103"/>
    <nd ref="906068105"/>
    <nd ref="906068124"/>
    <nd ref="906068141"/>
    <nd ref="906068161"/>
    <nd ref="906068114"/>
    <nd ref="906068130"/>
    <nd ref="906068150"/>
    <nd ref="906068173"/>
    <nd ref="906068100"/>
    <nd ref="906068168"/>
    <nd ref="906068136"/>
    <nd ref="906068129"/>
    <nd ref="906068149"/>
    <nd ref="906068167"/>
    <nd ref="906068172"/>
    <nd ref="906068107"/>
    <nd ref="906068126"/>
    <nd ref="906068143"/>
    <nd ref="906068118"/>
    <nd ref="906068134"/>
    <nd ref="906068154"/>
    <nd ref="906068157"/>
    <nd ref="906068175"/>
    <nd ref="906068110"/>
    <nd ref="906068158"/>
    <tag k="building" v="yes"/>
    <tag k="heritage" v="3"/>
    <tag k="heritage:operator" v="mhs"/>
    <tag k="mhs:inscription_date" v="2005-11-28"/>
    <tag k="name" v="Chapelle Saint-Lazare"/>
    <tag k="note" v="architecte : Louis-Pierre Baltard"/>
    <tag k="ref:mhs" v="PA75100008"/>
    <tag k="source" v="cadastre-dgi-fr source : Direction Générale des Impôts - Cadastre. Mise à jour : 2010"/>
    <tag k="start_date" v="1834"/>
    <tag k="wikidata" v="Q60338554"/>
  </way>
  <way id="76928248" version="11" timestamp="2024-09-16T06:14:17Z" changeset="156672660" uid="332493" user="bazgal">
    <nd ref="906068100"/>
    <nd ref="906068115"/>
    <nd ref="906068131"/>
    <nd ref="906068133"/>
    <nd ref="906068151"/>
    <nd ref="8780635255"/>
    <nd ref="8780635254"/>
    <nd ref="906068155"/>
    <nd ref="906068173"/>
    <nd ref="906068100"/>
    <tag k="addr:housenumber" v="12"/>
    <tag k="addr:postcode" v="75010"/>
    <tag k="amenity" v="social_facility"/>
    <tag k="architect" v="Gaston Lefol"/>
    <tag k="building" v="public"/>
    <tag k="building:levels" v="4"/>
    <tag k="check_date" v="2024-09-15"/>
    <tag k="name" v="Centre Social Pari's des Faubourgs"/>
    <tag k="source" v="cadastre-dgi-fr source : Direction Générale des Impôts - Cadastre. Mise à jour : 2010"/>
    <tag k="start_date" v="1931"/>
    <tag k="toilets:wheelchair" v="yes"/>
    <tag k="wheelchair" v="limited"/>
  </way>
  <way id="76928253" version="20" timestamp="2024-02-19T14:21:53Z" changeset="147652049" uid="6290466" user="benjamintchik">
    <nd ref="327043132"/>
    <nd ref="11044409421"/>
    <nd ref="5915269337"/>
    <nd ref="906068099"/>
    <tag k="cycleway:both" v="no"/>
    <tag k="highway" v="residential"/>
    <tag k="lit" v="yes"/>
    <tag k="maxspeed" v="15"/>
    <tag k="maxspeed:type" v="sign"/>
    <tag k="name" v="Cour de la Ferme Saint-Lazare"/>
    <tag k="name:etymology:wikidata" v="Q3053797"/>
    <tag k="parking:left" v="no"/>
    <tag k="parking:right" v="on_kerb"/>
    <tag k="parking:right:orientation" v="perpendicular"/>
    <tag k="service" v="alley"/>
    <tag k="sidewalk" v="both"/>
    <tag k="smoothness" v="good"/>
    <tag k="source" v="cadastre-dgi-fr source : Direction Générale des Impôts - Cadastre. Mise à jour : 2010"/>
    <tag k="surface" v="asphalt"/>
  </way>
  <way id="96099511" version="3" timestamp="2023-02-27T22:20:42Z" changeset="133106003" uid="7550430" user="Britzz">
    <nd ref="1113455050"/>
    <nd ref="1113455658"/>
    <nd ref="1113455677"/>
    <nd ref="1113454961"/>
    <nd ref="1113455050"/>
    <tag k="addr:city" v="Paris"/>
    <tag k="addr:housenumber" v="71"/>
    <tag k="addr:postcode" v="75010"/>
    <tag k="addr:street" v="Boulevard de Strasbourg"/>
    <tag k="amenity" v="restaurant"/>
    <tag k="building" v="yes"/>
    <tag k="cuisine" v="french;kebab;dessert;sandwich"/>
    <tag k="diet:vegan" v="yes"/>
    <tag k="diet:vegetarian" v="yes"/>
    <tag k="name" v="A la gare"/>
    <tag k="opening_hours" v="07:00-22:00"/>
    <tag k="payment:cash" v="yes"/>
    <tag k="payment:cheque" v="yes"/>
    <tag k="payment:visa" v="yes"/>
    <tag k="stroller" v="yes"/>
    <tag k="wheelchair" v="yes"/>
  </way>
  <way id="111652421" version="10" timestamp="2023-07-13T14:21:34Z" changeset="138466722" uid="19622282" user="Etiennemapper5362">
    <nd ref="1271509562"/>
    <nd ref="11044252059"/>
    <nd ref="213169528"/>
    <tag k="cycleway" v="opposite"/>
    <tag k="highway" v="residential"/>
    <tag k="lit" v="yes"/>
    <tag k="maxspeed" v="30"/>
    <tag k="name" v="Cour des Petites Écuries"/>
    <tag k="oneway" v="yes"/>
    <tag k="oneway:bicycle" v="no"/>
    <tag k="sidewalk" v="both"/>
    <tag k="smoothness" v="good"/>
    <tag k="source" v="cadastre-dgi-fr source : Direction Générale des Impôts - Cadastre. Mise à jour : 2011"/>
    <tag k="surface" v="asphalt"/>
    <tag k="zone:maxspeed" v="FR:30"/>
  </way>
  <way id="131751248" version="24" timestamp="2024-02-16T15:34:19Z" changeset="147535874" uid="6290466" user="benjamintchik">
    <nd ref="652026059"/>
    <nd ref="11066767337"/>
    <nd ref="327043136"/>
    <nd ref="5434163336"/>
    <nd ref="6855328717"/>
    <nd ref="326989896"/>
    <nd ref="2194257165"/>
    <nd ref="326968117"/>
    <nd ref="11066767366"/>
    <nd ref="94164238"/>
    <tag k="cycleway:left" v="lane"/>
    <tag k="cycleway:left:lane" v="exclusive"/>
    <tag k="cycleway:left:oneway" v="-1"/>
    <tag k="cycleway:right" v="no"/>
    <tag k="highway" v="residential"/>
    <tag k="lit" v="yes"/>
    <tag k="maxspeed" v="30"/>
    <tag k="name" v="Rue de Chabrol"/>
    <tag k="name:etymology:wikidata" v="Q353045"/>
    <tag k="oneway" v="yes"/>
    <tag k="oneway:bicycle" v="no"/>
    <tag k="sidewalk:both" v="separate"/>
    <tag k="smoothness" v="good"/>
    <tag k="source:maxspeed" v="FR:zone30"/>
    <tag k="surface" v="asphalt"/>
    <tag k="zone:maxspeed" v="FR:30"/>
  </way>
  <way id="157706428" version="4" timestamp="2021-02-16T23:15:05Z" changeset="99409464" uid="2678738" user="fgouget">
    <nd ref="784355967"/>
    <nd ref="784470571"/>
    <nd ref="784447506"/>
    <nd ref="784335214"/>
    <nd ref="784481285"/>
    <nd ref="784433457"/>
    <nd ref="784372530"/>
    <nd ref="784442270"/>
    <nd ref="784358296"/>
    <nd ref="784385429"/>
    <nd ref="784398221"/>
    <nd ref="784499595"/>
    <nd ref="784350797"/>
    <nd ref="784409514"/>
    <nd ref="784365225"/>
    <nd ref="784319659"/>
    <nd ref="784465048"/>
    <nd ref="784394764"/>
    <nd ref="784409224"/>
    <nd ref="784484763"/>
    <nd ref="784325810"/>
    <nd ref="784425135"/>
    <nd ref="784384890"/>
    <nd ref="784442930"/>
    <nd ref="1699613677"/>
    <nd ref="784337054"/>
    <nd ref="784416162"/>
    <nd ref="784504412"/>
    <nd ref="784355967"/>
    <tag k="building" v="yes"/>
    <tag k="building:levels" v="6"/>
    <tag k="name" v="Hôtel Benoît de Sainte-Paulle"/>
    <tag k="official_name" v="Hôtel Benoît de Sainte-Paulle"/>
    <tag k="source" v="cadastre-dgi-fr source : Direction Générale des Impôts - Cadastre. Mise à jour : 2010"/>
    <tag k="start_date" v="1773..1776"/>
  </way>
  <way id="157706429" version="5" timestamp="2020-03-11T08:02:07Z" changeset="82044009" uid="332493" user="bazgal">
    <nd ref="784390254"/>
    <nd ref="1699613675"/>
    <nd ref="784469743"/>
    <nd ref="784385695"/>
    <nd ref="784393134"/>
    <nd ref="784363685"/>
    <nd ref="784466458"/>
    <nd ref="784460531"/>
    <nd ref="784385820"/>
    <nd ref="784390553"/>
    <nd ref="784422956"/>
    <nd ref="784433993"/>
    <nd ref="784316463"/>
    <nd ref="784400191"/>
    <nd ref="784381218"/>
    <nd ref="784314251"/>
    <nd ref="784421392"/>
    <nd ref="784371905"/>
    <nd ref="784455445"/>
    <nd ref="784414518"/>
    <nd ref="784506692"/>
    <nd ref="784430885"/>
    <nd ref="784398618"/>
    <nd ref="784462626"/>
    <nd ref="784297192"/>
    <nd ref="784447427"/>
    <nd ref="784333752"/>
    <nd ref="784429086"/>
    <nd ref="784496414"/>
    <nd ref="784484109"/>
    <nd ref="784316493"/>
    <nd ref="784339825"/>
    <nd ref="784390254"/>
    <tag k="building" v="yes"/>
    <tag k="building:levels" v="3"/>
    <tag k="heritage" v="2"/>
    <tag k="heritage:operator" v="mhs"/>
    <tag k="mhs:inscription_date" v="1927-06-20"/>
    <tag k="name" v="Hôtel Bourrienne"/>
    <tag k="ref:mhs" v="PA00086495"/>
    <tag k="source" v="cadastre-dgi-fr source : Direction Générale des Impôts - Cadastre. Mise à jour : 2010"/>
    <tag k="source:heritage" v="Ministère de la Culture - 06/2019"/>
    <tag k="wikidata" v="Q3145435"/>
    <tag k="wikipedia" v="fr:Hôtel Bourrienne"/>
  </way>
  <way id="172310226" version="15" timestamp="2024-02-15T21:38:15Z" changeset="147508720" uid="6290466" user="benjamintchik">
    <nd ref="795606558"/>
    <nd ref="94143078"/>
    <tag k="cycleway:left" v="opposite"/>
    <tag k="cycleway:right" v="no"/>
    <tag k="highway" v="residential"/>
    <tag k="lit" v="yes"/>
    <tag k="maxspeed" v="30"/>
    <tag k="name" v="Rue du Faubourg Saint-Denis"/>
    <tag k="name:etymology:wikidata" v="Q3603203"/>
    <tag k="oneway" v="yes"/>
    <tag k="oneway:bicycle" v="no"/>
    <tag k="sidewalk:both" v="separate"/>
    <tag k="smoothness" v="good"/>
    <tag k="source:maxspeed" v="FR:zone30"/>
    <tag k="surface" v="asphalt"/>
    <tag k="traffic_calming" v="yes"/>
    <tag k="zone:maxspeed" v="FR:30"/>
  </way>
  <way id="187452531" version="17" timestamp="2023-02-27T22:20:42Z" changeset="133106003" uid="7550430" user="Britzz">
    <nd ref="583023060"/>
    <nd ref="1522361487"/>
    <nd ref="2549984386"/>
    <tag k="highway" v="unclassified"/>
    <tag k="lane_markings" v="no"/>
    <tag k="lit" v="yes"/>
    <tag k="maxspeed" v="30"/>
    <tag k="name" v="Boulevard de Strasbourg"/>
    <tag k="oneway" v="yes"/>
    <tag k="sidewalk" v="separate"/>
    <tag k="smoothness" v="good"/>
    <tag k="surface" v="asphalt"/>
  </way>
  <way id="187452533" version="17" timestamp="2024-06-04T21:59:28Z" changeset="152263644" uid="2678738" user="fgouget">
    <nd ref="583023060"/>
    <nd ref="2549984390"/>
    <nd ref="9514228994"/>
    <nd ref="15644058"/>
    <tag k="cycleway:right" v="lane"/>
    <tag k="highway" v="tertiary"/>
    <tag k="lane_markings" v="no"/>
    <tag k="lit" v="yes"/>
    <tag k="maxspeed" v="30"/>
    <tag k="name" v="Rue du 8 Mai 1945"/>
    <tag k="name:etymology:wikidata" v="Q622365"/>
    <tag k="oneway" v="yes"/>
    <tag k="sidewalk:right" v="separate"/>
    <tag k="smoothness" v="good"/>
    <tag k="surface" v="asphalt"/>
  </way>
  <way id="192067421" version="12" timestamp="2025-01-15T15:17:59Z" changeset="161384779" uid="7512839" user="Benoît C MdP">
    <nd ref="361091"/>
    <nd ref="1812196178"/>
    <tag k="cycleway:both" v="separate"/>
    <tag k="enforcement:operator" v="Police nationale"/>
    <tag k="highway" v="primary"/>
    <tag k="lanes" v="4"/>
    <tag k="lanes:backward" v="2"/>
    <tag k="lanes:forward" v="2"/>
    <tag k="lit" v="yes"/>
    <tag k="maxspeed" v="30"/>
    <tag k="name" v="Boulevard de Magenta"/>
    <tag k="name:etymology:wikidata" v="Q681430"/>
    <tag k="operator" v="Ville de Paris"/>
    <tag k="operator:authority" v="Maire de Paris dans le respect des prescriptions prises par le préfet de police"/>
    <tag k="operator:authority:related_law" v="III de l'article L. 2512-14 du code général des collectivités territoriales"/>
    <tag k="sidewalk" v="both"/>
    <tag k="smoothness" v="good"/>
    <tag k="source:operator:authority" v="https://www.legifrance.gouv.fr/loda/id/LEGIARTI000035244298/#LEGIARTI000035244298"/>
    <tag k="surface" v="asphalt"/>
    <tag k="zone:traffic" v="FR:urban"/>
  </way>
  <way id="197635876" version="29" timestamp="2025-02-19T09:15:11Z" changeset="162692094" uid="7512839" user="Benoît C MdP">
    <nd ref="94157762"/>
    <nd ref="4045862066"/>
    <nd ref="94160057"/>
    <nd ref="2180084844"/>
    <nd ref="2180084849"/>
    <nd ref="94159491"/>
    <nd ref="6335922738"/>
    <nd ref="11066767375"/>
    <nd ref="186658078"/>
    <nd ref="94169547"/>
    <nd ref="2160594562"/>
    <nd ref="6070713596"/>
    <nd ref="94170757"/>
    <nd ref="2180084869"/>
    <nd ref="6202073362"/>
    <nd ref="2160594567"/>
    <nd ref="94165147"/>
    <nd ref="2160594568"/>
    <nd ref="94168165"/>
    <nd ref="6070773780"/>
    <nd ref="9599363064"/>
    <nd ref="1568090343"/>
    <nd ref="1786279615"/>
    <nd ref="327046138"/>
    <tag k="bicycle:backward" v="use_sidepath"/>
    <tag k="busway:right" v="lane"/>
    <tag k="cycleway:right" v="share_busway"/>
    <tag k="highway" v="secondary"/>
    <tag k="lanes" v="3"/>
    <tag k="lit" v="yes"/>
    <tag k="maxspeed" v="30"/>
    <tag k="name" v="Rue La Fayette"/>
    <tag k="name:etymology:wikidata" v="Q186652"/>
    <tag k="oneway" v="yes"/>
    <tag k="psv:lanes" v="yes|yes|designated"/>
    <tag k="sidewalk:both" v="separate"/>
    <tag k="smoothness" v="good"/>
    <tag k="source:maxspeed" v="FR:urban"/>
    <tag k="surface" v="asphalt"/>
  </way>
  <way id="231157303" version="6" timestamp="2021-05-10T19:56:09Z" changeset="104472253" uid="1598001" user="OsmIdf">
    <nd ref="784414634"/>
    <nd ref="1272517114"/>
    <nd ref="2395655314"/>
    <nd ref="2395655313"/>
    <nd ref="784392073"/>
    <nd ref="784414634"/>
    <tag k="building" v="industrial"/>
    <tag k="building:levels" v="5"/>
    <tag k="disused" v="yes"/>
    <tag k="location" v="indoor"/>
    <tag k="name" v="Poste électrique CPDE de Magenta"/>
    <tag k="operator" v="CPDE"/>
    <tag k="power" v="substation"/>
    <tag k="source" v="cadastre-dgi-fr source : Direction Générale des Impôts - Cadastre. Mise à jour : 2017"/>
    <tag k="voltage" v="12000"/>
  </way>
  <way id="231157308" version="9" timestamp="2024-08-25T13:50:51Z" changeset="155738304" uid="5589" user="user_5589">
    <nd ref="784392052"/>
    <nd ref="784357476"/>
    <nd ref="784312384"/>
    <nd ref="8719596647"/>
    <nd ref="8719596646"/>
    <nd ref="8719596645"/>
    <nd ref="784448278"/>
    <nd ref="2395655313"/>
    <nd ref="2395655314"/>
    <nd ref="1272516837"/>
    <nd ref="8719596643"/>
    <nd ref="8719596644"/>
    <nd ref="784392052"/>
    <tag k="building" v="industrial"/>
    <tag k="building:levels" v="5"/>
    <tag k="location" v="indoor"/>
    <tag k="name" v="Poste électrique de Magenta"/>
    <tag k="old_name" v="Compagnie Parisienne de Distribution d'Électricité"/>
    <tag k="operator" v="Enedis"/>
    <tag k="operator:wikidata" v="Q3587594"/>
    <tag k="power" v="substation"/>
    <tag k="ref:FR:RTE" v="MAGEN"/>
    <tag k="ref:FR:RTE_nom" v="MAGENTA"/>
    <tag k="source" v="cadastre-dgi-fr source : Direction Générale des Impôts - Cadastre. Mise à jour : 2017"/>
    <tag k="substation" v="distribution"/>
    <tag k="voltage" v="225000;20000"/>
  </way>
  <way id="248153233" version="13" timestamp="2024-09-25T09:20:41Z" changeset="157072166" uid="195017" user="Julien39">
    <nd ref="1812196178"/>
    <nd ref="652026039"/>
    <tag k="cycleway:right" v="no"/>
    <tag k="highway" v="residential"/>
    <tag k="lane_markings" v="no"/>
    <tag k="lit" v="yes"/>
    <tag k="maxspeed" v="30"/>
    <tag k="name" v="Rue de la Fidélité"/>
    <tag k="name:etymology:wikidata" v="Q1629067"/>
    <tag k="oneway" v="yes"/>
    <tag k="psv" v="yes"/>
    <tag k="sidewalk" v="separate"/>
    <tag k="smoothness" v="good"/>
    <tag k="surface" v="asphalt"/>
  </way>
  <way id="298362206" version="15" timestamp="2024-02-11T15:18:09Z" changeset="147329785" uid="6290466" user="benjamintchik">
    <nd ref="2549984381"/>
    <nd ref="2549984378"/>
    <tag k="cycleway:right" v="no"/>
    <tag k="highway" v="unclassified"/>
    <tag k="lane_markings" v="no"/>
    <tag k="lit" v="yes"/>
    <tag k="maxspeed" v="30"/>
    <tag k="name" v="Boulevard de Strasbourg"/>
    <tag k="name:etymology:wikidata" v="Q6602"/>
    <tag k="oneway" v="yes"/>
    <tag k="sidewalk" v="separate"/>
    <tag k="smoothness" v="good"/>
    <tag k="surface" v="asphalt"/>
  </way>
  <way id="335581893" version="4" timestamp="2018-07-17T16:33:56Z" changeset="60807168" uid="1598001" user="OsmIdf">
    <nd ref="3426786187"/>
    <nd ref="784509595"/>
    <nd ref="5766290447"/>
    <nd ref="5766290448"/>
    <nd ref="5766290449"/>
    <nd ref="784387266"/>
    <nd ref="784316480"/>
    <nd ref="3426786189"/>
    <nd ref="3426786188"/>
    <nd ref="5766290446"/>
    <nd ref="5766290445"/>
    <nd ref="3426786187"/>
    <tag k="addr:city" v="Paris"/>
    <tag k="addr:housenumber" v="5"/>
    <tag k="addr:postcode" v="75010"/>
    <tag k="addr:street" v="Rue Léon Schwartzenberg"/>
    <tag k="building" v="yes"/>
    <tag k="leisure" v="sports_centre"/>
    <tag k="name" v="Centre sportif Marie-Paradis"/>
    <tag k="source" v="cadastre-dgi-fr source : Direction Générale des Impôts - Cadastre. Mise à jour : 2017"/>
    <tag k="sport" v="climbing"/>
    <tag k="website" v="http://equipement.paris.fr/centre-sportif-marieparadis-ex-saint-lazare-16438"/>
  </way>
  <way id="492197955" version="10" timestamp="2023-02-27T22:20:42Z" changeset="133106003" uid="7550430" user="Britzz">
    <nd ref="2549984386"/>
    <nd ref="2549984384"/>
    <tag k="highway" v="unclassified"/>
    <tag k="lane_markings" v="no"/>
    <tag k="lit" v="yes"/>
    <tag k="maxspeed" v="30"/>
    <tag k="name" v="Boulevard de Strasbourg"/>
    <tag k="oneway" v="yes"/>
    <tag k="sidewalk" v="separate"/>
    <tag k="smoothness" v="good"/>
    <tag k="surface" v="asphalt"/>
  </way>
  <way id="501471897" version="13" timestamp="2024-02-11T15:18:09Z" changeset="147329785" uid="6290466" user="benjamintchik">
    <nd ref="2549984378"/>
    <nd ref="11132965405"/>
    <nd ref="583023037"/>
    <tag k="cycleway:right" v="no"/>
    <tag k="highway" v="unclassified"/>
    <tag k="lane_markings" v="no"/>
    <tag k="lit" v="yes"/>
    <tag k="maxspeed" v="30"/>
    <tag k="name" v="Boulevard de Strasbourg"/>
    <tag k="name:etymology:wikidata" v="Q6602"/>
    <tag k="oneway" v="yes"/>
    <tag k="sidewalk" v="separate"/>
    <tag k="smoothness" v="good"/>
    <tag k="surface" v="asphalt"/>
  </way>
  <way id="503255133" version="13" timestamp="2024-02-11T15:18:09Z" changeset="147329785" uid="6290466" user="benjamintchik">
    <nd ref="2549984384"/>
    <nd ref="2549984381"/>
    <tag k="cycleway:right" v="no"/>
    <tag k="highway" v="unclassified"/>
    <tag k="lane_markings" v="no"/>
    <tag k="lit" v="yes"/>
    <tag k="maxspeed" v="30"/>
    <tag k="name" v="Boulevard de Strasbourg"/>
    <tag k="name:etymology:wikidata" v="Q6602"/>
    <tag k="oneway" v="yes"/>
    <tag k="oneway:bus" v="no"/>
    <tag k="sidewalk" v="both"/>
    <tag k="smoothness" v="good"/>
    <tag k="surface" v="asphalt"/>
  </way>
  <way id="504072505" version="11" timestamp="2024-02-19T14:21:15Z" changeset="147652049" uid="6290466" user="benjamintchik">
    <nd ref="94201158"/>
    <nd ref="583023037"/>
    <tag k="highway" v="residential"/>
    <tag k="lit" v="yes"/>
    <tag k="maxspeed" v="30"/>
    <tag k="name" v="Rue Saint-Laurent"/>
    <tag k="name:etymology:wikidata" v="Q1629067"/>
    <tag k="oneway" v="yes"/>
    <tag k="sidewalk" v="no"/>
    <tag k="smoothness" v="good"/>
    <tag k="surface" v="asphalt"/>
  </way>
  <way id="538550997" version="18" timestamp="2025-04-26T08:43:02Z" changeset="165454072" uid="270456" user="pyrog">
    <nd ref="94164243"/>
    <nd ref="202818444"/>
    <nd ref="1822082725"/>
    <nd ref="202818262"/>
    <nd ref="202818006"/>
    <nd ref="1822082740"/>
    <nd ref="361098"/>
    <tag k="busway:right" v="lane"/>
    <tag k="cycleway:both" v="separate"/>
    <tag k="enforcement:operator" v="Police nationale"/>
    <tag k="highway" v="primary"/>
    <tag k="lanes" v="3"/>
    <tag k="lanes:backward" v="1"/>
    <tag k="lanes:forward" v="2"/>
    <tag k="lit" v="yes"/>
    <tag k="maxspeed" v="30"/>
    <tag k="name" v="Boulevard de Bonne Nouvelle"/>
    <tag k="name:etymology:wikidata" v="Q279151"/>
    <tag k="oneway" v="no"/>
    <tag k="operator" v="Ville de Paris"/>
    <tag k="operator:authority" v="Maire de Paris après avis du préfet de police"/>
    <tag k="operator:authority:related_law" v="IV de l'article L. 2512-14 du code général des collectivités territoriales"/>
    <tag k="operator:url" v="https://cdn.paris.fr/paris/2020/02/26/5bf469a311d0beb9911e92d113781550.ai"/>
    <tag k="psv:lanes:forward" v="yes|designated"/>
    <tag k="sidewalk:both" v="separate"/>
    <tag k="smoothness" v="good"/>
    <tag k="surface" v="asphalt"/>
  </way>
  <way id="560073590" version="18" timestamp="2024-09-25T09:20:41Z" changeset="157072166" uid="195017" user="Julien39">
    <nd ref="663044406"/>
    <nd ref="6083211070"/>
    <nd ref="10570963817"/>
    <nd ref="11066767319"/>
    <nd ref="94156677"/>
    <tag k="busway:right" v="lane"/>
    <tag k="cycleway:left" v="opposite"/>
    <tag k="cycleway:right" v="share_busway"/>
    <tag k="highway" v="residential"/>
    <tag k="lane_markings" v="no"/>
    <tag k="lit" v="yes"/>
    <tag k="maxspeed" v="30"/>
    <tag k="name" v="Rue de la Fidélité"/>
    <tag k="name:etymology:wikidata" v="Q1629067"/>
    <tag k="oneway" v="yes"/>
    <tag k="oneway:bicycle" v="no"/>
    <tag k="sidewalk" v="separate"/>
    <tag k="smoothness" v="good"/>
    <tag k="source:maxspeed" v="FR:zone30"/>
    <tag k="surface" v="asphalt"/>
    <tag k="traffic:hourly" v="196"/>
    <tag k="traffic:hourly:source" v="survey, comptage n°60, angle Poissonière 10/03/2020 18:11 6min 26 compté et normalisé"/>
    <tag k="zone:maxspeed" v="FR:30"/>
  </way>
  <way id="672627341" version="19" timestamp="2025-01-15T15:17:59Z" changeset="161384779" uid="7512839" user="Benoît C MdP">
    <nd ref="94200928"/>
    <nd ref="1840005823"/>
    <nd ref="94156557"/>
    <nd ref="1829469414"/>
    <nd ref="1840030256"/>
    <nd ref="361100"/>
    <tag k="busway:right" v="lane"/>
    <tag k="cycleway:both" v="separate"/>
    <tag k="dual_carriageway" v="yes"/>
    <tag k="enforcement:operator" v="Police nationale"/>
    <tag k="highway" v="primary"/>
    <tag k="lanes" v="3"/>
    <tag k="lit" v="yes"/>
    <tag k="maxspeed" v="30"/>
    <tag k="name" v="Boulevard de Magenta"/>
    <tag k="name:etymology:wikidata" v="Q681430"/>
    <tag k="oneway" v="yes"/>
    <tag k="operator" v="Ville de Paris"/>
    <tag k="operator:authority" v="Maire de Paris dans le respect des prescriptions prises par le préfet de police"/>
    <tag k="operator:authority:related_law" v="III de l'article L. 2512-14 du code général des collectivités territoriales"/>
    <tag k="parking:both" v="no"/>
    <tag k="sidewalk" v="separate"/>
    <tag k="smoothness" v="good"/>
    <tag k="source:operator:authority" v="https://www.legifrance.gouv.fr/loda/id/LEGIARTI000035244298/#LEGIARTI000035244298"/>
    <tag k="surface" v="asphalt"/>
    <tag k="zone:traffic" v="FR:urban"/>
  </way>
  <way id="678987698" version="3" timestamp="2024-01-05T17:25:31Z" changeset="145931099" uid="1443767" user="Olyon">
    <nd ref="6357604341"/>
    <nd ref="6357604339"/>
    <nd ref="6357604338"/>
    <nd ref="784387286"/>
    <nd ref="6357604340"/>
    <nd ref="6357604341"/>
    <tag k="amenity" v="place_of_worship"/>
    <tag k="building" v="church"/>
    <tag k="check_date" v="2023-11-22"/>
    <tag k="denomination" v="mariavite"/>
    <tag k="name" v="Église Mariavite Sainte-Marie"/>
    <tag k="religion" v="christian"/>
    <tag k="wikidata" v="Q60386320"/>
  </way>
  <way id="680050130" version="15" timestamp="2025-01-15T15:17:59Z" changeset="161384779" uid="7512839" user="Benoît C MdP">
    <nd ref="1812196178"/>
    <nd ref="10570963821"/>
    <nd ref="12259241503"/>
    <nd ref="1840030237"/>
    <nd ref="94200928"/>
    <tag k="cycleway:both" v="separate"/>
    <tag k="enforcement:operator" v="Police nationale"/>
    <tag k="highway" v="primary"/>
    <tag k="lanes" v="2"/>
    <tag k="lit" v="yes"/>
    <tag k="maxspeed" v="30"/>
    <tag k="name" v="Boulevard de Magenta"/>
    <tag k="name:etymology:wikidata" v="Q681430"/>
    <tag k="operator" v="Ville de Paris"/>
    <tag k="operator:authority" v="Maire de Paris dans le respect des prescriptions prises par le préfet de police"/>
    <tag k="operator:authority:related_law" v="III de l'article L. 2512-14 du code général des collectivités territoriales"/>
    <tag k="sidewalk:both" v="separate"/>
    <tag k="smoothness" v="good"/>
    <tag k="source:maxspeed" v="FR:urban"/>
    <tag k="source:operator:authority" v="https://www.legifrance.gouv.fr/loda/id/LEGIARTI000035244298/#LEGIARTI000035244298"/>
    <tag k="surface" v="asphalt"/>
    <tag k="zone:traffic" v="FR:urban"/>
  </way>
  <way id="938050899" version="5" timestamp="2024-02-19T14:23:48Z" changeset="147652049" uid="6290466" user="benjamintchik">
    <nd ref="94164243"/>
    <nd ref="11042342809"/>
    <nd ref="1822082728"/>
    <nd ref="6227560955"/>
    <nd ref="2194257022"/>
    <nd ref="94164242"/>
    <nd ref="2194257026"/>
    <nd ref="2194257035"/>
    <nd ref="94164241"/>
    <tag k="cycleway" v="opposite"/>
    <tag k="highway" v="unclassified"/>
    <tag k="lane_markings" v="no"/>
    <tag k="lit" v="yes"/>
    <tag k="maxspeed" v="30"/>
    <tag k="name" v="Rue d'Hauteville"/>
    <tag k="name:etymology:wikidata" v="Q17276569"/>
    <tag k="oneway" v="yes"/>
    <tag k="sidewalk" v="separate"/>
    <tag k="source:maxspeed" v="FR:zone30"/>
    <tag k="surface" v="asphalt"/>
    <tag k="traffic:hourly" v="248"/>
    <tag k="traffic:hourly:source" v="survey, comptage 89, avant la place 13/03/2020 12:24 6min 30 compté et normalisé"/>
    <tag k="zone:maxspeed" v="FR:30"/>
  </way>
  <way id="1167755142" version="7" timestamp="2025-01-30T10:01:10Z" changeset="161930506" uid="7512839" user="Benoît C MdP">
    <nd ref="175019359"/>
    <nd ref="10860429628"/>
    <tag k="busway:right" v="lane"/>
    <tag k="cycleway:both" v="separate"/>
    <tag k="enforcement:operator" v="Police nationale"/>
    <tag k="highway" v="primary"/>
    <tag k="lanes" v="3"/>
    <tag k="lanes:backward" v="1"/>
    <tag k="lanes:forward" v="2"/>
    <tag k="lit" v="yes"/>
    <tag k="maxspeed" v="30"/>
    <tag k="name" v="Boulevard de Bonne Nouvelle"/>
    <tag k="name:etymology:wikidata" v="Q279151"/>
    <tag k="oneway" v="no"/>
    <tag k="operator" v="Ville de Paris"/>
    <tag k="operator:authority" v="Maire de Paris après avis du préfet de police"/>
    <tag k="operator:authority:related_law" v="IV de l'article L. 2512-14 du code général des collectivités territoriales"/>
    <tag k="operator:url" v="https://cdn.paris.fr/paris/2020/02/26/5bf469a311d0beb9911e92d113781550.ai"/>
    <tag k="psv:lanes:forward" v="yes|designated"/>
    <tag k="smoothness" v="good"/>
    <tag k="surface" v="asphalt"/>
  </way>
  <way id="1168126453" version="7" timestamp="2024-09-10T13:35:45Z" changeset="156441069" uid="7512839" user="Benoît C MdP">
    <nd ref="10860429628"/>
    <nd ref="4953492873"/>
    <nd ref="123766566"/>
    <tag k="busway:right" v="lane"/>
    <tag k="cycleway:left" v="separate"/>
    <tag k="cycleway:right" v="share_busway"/>
    <tag k="enforcement:operator" v="Police nationale"/>
    <tag k="highway" v="primary"/>
    <tag k="lanes" v="3"/>
    <tag k="lanes:backward" v="1"/>
    <tag k="lanes:forward" v="2"/>
    <tag k="lit" v="yes"/>
    <tag k="maxspeed" v="30"/>
    <tag k="name" v="Boulevard de Bonne Nouvelle"/>
    <tag k="name:etymology:wikidata" v="Q279151"/>
    <tag k="oneway" v="no"/>
    <tag k="operator" v="Ville de Paris"/>
    <tag k="operator:authority" v="Maire de Paris après avis du préfet de police"/>
    <tag k="operator:authority:related_law" v="IV de l'article L. 2512-14 du code général des collectivités territoriales"/>
    <tag k="operator:url" v="https://cdn.paris.fr/paris/2020/02/26/5bf469a311d0beb9911e92d113781550.ai"/>
    <tag k="psv:lanes:forward" v="yes|designated"/>
    <tag k="sidewalk:both" v="separate"/>
    <tag k="smoothness" v="good"/>
    <tag k="surface" v="asphalt"/>
  </way>
  <way id="1233389796" version="6" timestamp="2024-08-15T17:26:47Z" changeset="155294126" uid="11963177" user="JeroenvanderGun">
    <nd ref="11444712462"/>
    <nd ref="11444712455"/>
    <nd ref="361100"/>
    <tag k="cycleway:both" v="no"/>
    <tag k="enforcement:operator" v="Police nationale"/>
    <tag k="highway" v="tertiary"/>
    <tag k="lane_markings" v="no"/>
    <tag k="lanes" v="2"/>
    <tag k="lit" v="yes"/>
    <tag k="maxspeed" v="30"/>
    <tag k="name" v="Boulevard de Magenta"/>
    <tag k="name:etymology:wikidata" v="Q681430"/>
    <tag k="oneway" v="yes"/>
    <tag k="operator" v="Ville de Paris"/>
    <tag k="operator:authority" v="Maire de Paris après avis du préfet de police"/>
    <tag k="operator:authority:related_law" v="IV de l'article L. 2512-14 du code général des collectivités territoriales"/>
    <tag k="operator:url" v="https://cdn.paris.fr/paris/2020/02/26/5bf469a311d0beb9911e92d113781550.ai"/>
    <tag k="parking:both" v="no"/>
    <tag k="sidewalk" v="separate"/>
    <tag k="smoothness" v="good"/>
    <tag k="surface" v="asphalt"/>
    <tag k="turn:lanes" v="left|left"/>
  </way>
  <way id="1233389797" version="3" timestamp="2024-09-12T08:54:04Z" changeset="156517760" uid="21777282" user="aka252">
    <nd ref="11444712461"/>
    <nd ref="652026059"/>
    <tag k="highway" v="residential"/>
    <tag k="lit" v="yes"/>
    <tag k="maxspeed" v="30"/>
    <tag k="name" v="Rue de Chabrol"/>
    <tag k="name:etymology:wikidata" v="Q353045"/>
    <tag k="oneway" v="yes"/>
    <tag k="parking:both" v="no"/>
    <tag k="sidewalk:both" v="separate"/>
    <tag k="smoothness" v="good"/>
    <tag k="source:maxspeed" v="FR:zone30"/>
    <tag k="surface" v="asphalt"/>
    <tag k="zone:maxspeed" v="FR:30"/>
  </way>
  <way id="1233389798" version="6" timestamp="2025-01-15T15:17:59Z" changeset="161384779" uid="7512839" user="Benoît C MdP">
    <nd ref="11444712462"/>
    <nd ref="11444712461"/>
    <nd ref="11444712460"/>
    <nd ref="11444712459"/>
    <nd ref="11444712464"/>
    <nd ref="11444712458"/>
    <nd ref="11444712457"/>
    <nd ref="11444712456"/>
    <nd ref="94200928"/>
    <tag k="cycleway:both" v="separate"/>
    <tag k="dual_carriageway" v="yes"/>
    <tag k="enforcement:operator" v="Police nationale"/>
    <tag k="highway" v="primary"/>
    <tag k="lanes" v="1"/>
    <tag k="lit" v="yes"/>
    <tag k="maxspeed" v="30"/>
    <tag k="name" v="Boulevard de Magenta"/>
    <tag k="name:etymology:wikidata" v="Q681430"/>
    <tag k="oneway" v="yes"/>
    <tag k="operator" v="Ville de Paris"/>
    <tag k="operator:authority" v="Maire de Paris dans le respect des prescriptions prises par le préfet de police"/>
    <tag k="operator:authority:related_law" v="III de l'article L. 2512-14 du code général des collectivités territoriales"/>
    <tag k="parking:left" v="no"/>
    <tag k="parking:right" v="no"/>
    <tag k="sidewalk" v="separate"/>
    <tag k="smoothness" v="good"/>
    <tag k="source:maxspeed" v="FR:urban"/>
    <tag k="source:operator:authority" v="https://www.legifrance.gouv.fr/loda/id/LEGIARTI000035244298/#LEGIARTI000035244298"/>
    <tag k="surface" v="asphalt"/>
    <tag k="zone:traffic" v="FR:urban"/>
  </way>
  <way id="1275533903" version="4" timestamp="2025-01-30T10:01:10Z" changeset="161930506" uid="7512839" user="Benoît C MdP">
    <nd ref="692364452"/>
    <nd ref="11843458193"/>
    <nd ref="11843458186"/>
    <nd ref="11843458185"/>
    <nd ref="213201643"/>
    <tag k="busway:right" v="lane"/>
    <tag k="cycleway:both" v="separate"/>
    <tag k="enforcement:operator" v="Police nationale"/>
    <tag k="highway" v="primary"/>
    <tag k="lanes" v="3"/>
    <tag k="lanes:backward" v="1"/>
    <tag k="lanes:forward" v="2"/>
    <tag k="lit" v="yes"/>
    <tag k="maxspeed" v="30"/>
    <tag k="name" v="Boulevard Saint-Denis"/>
    <tag k="name:etymology:wikidata" v="Q2174628"/>
    <tag k="name:ja" v="サン・ドニ通り"/>
    <tag k="oneway" v="no"/>
    <tag k="operator" v="Ville de Paris"/>
    <tag k="operator:authority" v="Maire de Paris après avis du préfet de police"/>
    <tag k="operator:authority:related_law" v="IV de l'article L. 2512-14 du code général des collectivités territoriales"/>
    <tag k="operator:url" v="https://cdn.paris.fr/paris/2020/02/26/5bf469a311d0beb9911e92d113781550.ai"/>
    <tag k="psv:lanes:forward" v="yes|designated"/>
    <tag k="sidewalk:both" v="separate"/>
    <tag k="smoothness" v="good"/>
    <tag k="surface" v="asphalt"/>
  </way>
  <way id="1276714188" version="2" timestamp="2025-03-24T14:19:59Z" changeset="164035185" uid="195017" user="Julien39">
    <nd ref="94157219"/>
    <nd ref="6853507235"/>
    <nd ref="9632584300"/>
    <nd ref="94157221"/>
    <nd ref="11066767313"/>
    <nd ref="5077513433"/>
    <tag k="busway:right" v="lane"/>
    <tag k="cycleway:left" v="no"/>
    <tag k="cycleway:right" v="share_busway"/>
    <tag k="highway" v="residential"/>
    <tag k="lane_markings" v="no"/>
    <tag k="lit" v="yes"/>
    <tag k="maxspeed" v="30"/>
    <tag k="name" v="Rue de Paradis"/>
    <tag k="name:etymology" v="unknown"/>
    <tag k="oneway" v="yes"/>
    <tag k="parking:both" v="no"/>
    <tag k="sidewalk:both" v="separate"/>
    <tag k="smoothness" v="good"/>
    <tag k="source:maxspeed" v="FR:zone30"/>
    <tag k="surface" v="asphalt"/>
    <tag k="traffic:hourly" v="196"/>
    <tag k="traffic:hourly:source" v="survey, comptage n°60, angle Poissonière 10/03/2020 18:11 6min 26 compté et normalisé"/>
    <tag k="zone:maxspeed" v="FR:30"/>
  </way>
  <way id="1302747172" version="2" timestamp="2025-03-29T17:41:27Z" changeset="164259517" uid="933359" user="yerffff">
    <nd ref="94156677"/>
    <nd ref="11066767317"/>
    <nd ref="9632584301"/>
    <nd ref="2194257131"/>
    <nd ref="94157217"/>
    <tag k="cycleway:left" v="shared_lane"/>
    <tag k="cycleway:left:shared_lane" v="pictogram"/>
    <tag k="highway" v="residential"/>
    <tag k="lane_markings" v="no"/>
    <tag k="lit" v="yes"/>
    <tag k="maxspeed" v="30"/>
    <tag k="name" v="Rue de Paradis"/>
    <tag k="name:etymology" v="unknown"/>
    <tag k="oneway:bicycle" v="no"/>
    <tag k="parking:both" v="no"/>
    <tag k="sidewalk:both" v="separate"/>
    <tag k="source:maxspeed" v="FR:zone30"/>
    <tag k="surface" v="asphalt"/>
    <tag k="traffic:hourly" v="196"/>
    <tag k="traffic:hourly:source" v="survey, comptage n°60, angle Poissonière 10/03/2020 18:11 6min 26 compté et normalisé"/>
    <tag k="zone:maxspeed" v="FR:30"/>
  </way>
  <way id="1374154609" version="1" timestamp="2025-04-02T13:01:42Z" changeset="164420486" uid="7512839" user="Benoît C MdP">
    <nd ref="94157217"/>
    <nd ref="2194257133"/>
    <nd ref="12723277929"/>
    <tag k="highway" v="residential"/>
    <tag k="lanes" v="1"/>
    <tag k="lit" v="yes"/>
    <tag k="maxspeed" v="30"/>
    <tag k="name" v="Rue de Paradis"/>
    <tag k="name:etymology" v="unknown"/>
    <tag k="oneway" v="yes"/>
    <tag k="parking:both" v="no"/>
    <tag k="sidewalk:both" v="separate"/>
    <tag k="source:maxspeed" v="FR:zone30"/>
    <tag k="traffic:hourly" v="196"/>
    <tag k="traffic:hourly:source" v="survey, comptage n°60, angle Poissonière 10/03/2020 18:11 6min 26 compté et normalisé"/>
    <tag k="zone:maxspeed" v="FR:30"/>
  </way>
  <relation id="983065" version="2" timestamp="2017-04-16T03:52:54Z" changeset="47829172" uid="996303" user="ImreSamu">
    <member type="way" ref="63199697" role="outer"/>
    <member type="way" ref="63200269" role="inner"/>
    <tag k="amenity" v="place_of_worship"/>
    <tag k="building" v="yes"/>
    <tag k="denomination" v="sunni"/>
    <tag k="name" v="Association Culturelle Islamique Kurdes"/>
    <tag k="religion" v="muslim"/>
    <tag k="type" v="multipolygon"/>
  </relation>
  <relation id="983153" version="2" timestamp="2017-04-07T22:54:00Z" changeset="47554677" uid="996303" user="ImreSamu">
    <member type="way" ref="63199343" role="outer"/>
    <member type="way" ref="63202846" role="inner"/>
    <member type="way" ref="63196577" role="inner"/>
    <tag k="amenity" v="place_of_worship"/>
    <tag k="building" v="yes"/>
    <tag k="denomination" v="sunni"/>
    <tag k="name" v="Centre Culturel Islamique"/>
    <tag k="religion" v="muslim"/>
    <tag k="type" v="multipolygon"/>
  </relation>
  <relation id="983189" version="4" timestamp="2022-02-20T19:28:41Z" changeset="117651834" uid="7465917" user="jclevenne">
    <member type="way" ref="63199001" role="outer"/>
    <member type="way" ref="63202699" role="inner"/>
    <tag k="building" v="yes"/>
    <tag k="building:levels" v="7"/>
    <tag k="name" v="Orange Bonne Nouvelle"/>
    <tag k="type" v="multipolygon"/>
  </relation>
  <relation id="983299" version="5" timestamp="2025-03-24T14:19:59Z" changeset="164035185" uid="195017" user="Julien39">
    <member type="way" ref="63197762" role="outer"/>
    <member type="way" ref="63202012" role="inner"/>
    <tag k="building" v="office"/>
    <tag k="heritage" v="3"/>
    <tag k="heritage:operator" v="mhs"/>
    <tag k="historic" v="manor"/>
    <tag k="mhs:inscription_date" v="2007-10-25"/>
    <tag k="name" v="Hôtel Titon"/>
    <tag k="ref:mhs" v="PA00086505"/>
    <tag k="source:heritage" v="Ministère de la Culture - 06/2019"/>
    <tag k="type" v="multipolygon"/>
    <tag k="wikidata" v="Q3145688"/>
    <tag k="wikipedia" v="fr:Hôtel Titon"/>
  </relation>
  <relation id="983321" version="7" timestamp="2023-05-22T15:39:39Z" changeset="136420263" uid="242257" user="Emmanuel Dewaele">
    <member type="way" ref="63201729" role="outer"/>
    <member type="way" ref="63195612" role="inner"/>
    <tag k="addr:city" v="Paris"/>
    <tag k="addr:housenumber" v="8"/>
    <tag k="addr:postcode" v="75010"/>
    <tag k="addr:street" v="Cité Paradis"/>
    <tag k="building" v="office"/>
    <tag k="building:levels" v="5"/>
    <tag k="name" v="GROUPE FRANCE AGRICOLE"/>
    <tag k="office" v="yes"/>
    <tag k="type" v="multipolygon"/>
  </relation>
  <relation id="983690" version="2" timestamp="2017-04-16T03:55:04Z" changeset="47829188" uid="996303" user="ImreSamu">
    <member type="way" ref="63199260" role="outer"/>
    <member type="way" ref="63202819" role="inner"/>
    <tag k="building" v="yes"/>
    <tag k="building:levels" v="4"/>
    <tag k="email" v="aulivia@book-inn-france.com"/>
    <tag k="internet_access" v="wlan"/>
    <tag k="internet_access:fee" v="no"/>
    <tag k="name" v="Hôtel Aulivia Opéra"/>
    <tag k="phone" v="+33 1 45 23 88 88"/>
    <tag k="rooms" v="24"/>
    <tag k="smoking" v="outside"/>
    <tag k="stars" v="4"/>
    <tag k="tourism" v="hotel"/>
    <tag k="type" v="multipolygon"/>
    <tag k="website" v="http://www.bookinnfrance.com/hotel-aulivia-opera-paris.html"/>
  </relation>
  <relation id="983743" version="4" timestamp="2025-03-24T14:19:59Z" changeset="164035185" uid="195017" user="Julien39">
    <member type="way" ref="63201100" role="outer"/>
    <member type="way" ref="63203515" role="inner"/>
    <tag k="building" v="yes"/>
    <tag k="heritage" v="3"/>
    <tag k="heritage:operator" v="mhs"/>
    <tag k="historic" v="manor"/>
    <tag k="mhs:inscription_date" v="1927"/>
    <tag k="name" v="Hôtel de Raguse"/>
    <tag k="ref:mhs" v="PA00086507"/>
    <tag k="source:heritage" v="data.gouv.fr:Ministère de la Culture - 04/2015"/>
    <tag k="type" v="multipolygon"/>
    <tag k="wikidata" v="Q22922059"/>
    <tag k="wikipedia" v="fr:Hôtel de Raguse"/>
  </relation>
  <relation id="983994" version="4" timestamp="2023-02-27T22:20:42Z" changeset="133106003" uid="7550430" user="Britzz">
    <member type="way" ref="63201577" role="outer"/>
    <member type="way" ref="63195453" role="inner"/>
    <tag k="brand" v="Ibis Styles"/>
    <tag k="brand:wikidata" v="Q3147425"/>
    <tag k="brand:wikipedia" v="fr:Ibis Styles"/>
    <tag k="building" v="hotel"/>
    <tag k="building:levels" v="6"/>
    <tag k="name" v="Ibis Styles - Paris Gare de l'Est TGV"/>
    <tag k="operator" v="Accord"/>
    <tag k="roof:levels" v="1"/>
    <tag k="source" v="survey 11/2017"/>
    <tag k="toilets:wheelchair" v="no"/>
    <tag k="tourism" v="hotel"/>
    <tag k="type" v="multipolygon"/>
    <tag k="website" v="https://all.accor.com/hotel/2753/index.fr.shtml"/>
    <tag k="wheelchair" v="no"/>
  </relation>
  <relation id="1148269" version="2" timestamp="2017-04-16T03:55:05Z" changeset="47829188" uid="996303" user="ImreSamu">
    <member type="way" ref="74556705" role="outer"/>
    <member type="way" ref="74556704" role="inner"/>
    <tag k="building" v="yes"/>
    <tag k="name" v="Association Foi et Pratique"/>
    <tag k="type" v="multipolygon"/>
  </relation>
  <relation id="3170072" version="28" timestamp="2023-08-21T19:33:36Z" changeset="140197976" uid="19233464" user="secondaryhighway">
    <member type="way" ref="235485376" role="outer"/>
    <member type="way" ref="235485374" role="outer"/>
    <member type="way" ref="235485375" role="outer"/>
    <member type="way" ref="235485373" role="outer"/>
    <tag k="addr:street" v="Boulevard Saint-Denis"/>
    <tag k="architect" v="François Blondel"/>
    <tag k="barrier" v="city_wall"/>
    <tag k="building" v="city_gate"/>
    <tag k="height" v="25"/>
    <tag k="heritage" v="2"/>
    <tag k="heritage:operator" v="mhs"/>
    <tag k="historic" v="city_gate"/>
    <tag k="mhs:inscription_date" v="1862"/>
    <tag k="name" v="Porte Saint-Denis"/>
    <tag k="name:pl" v="Brama św. Dionizego w Paryżu"/>
    <tag k="name:ru" v="Ворота Сен-Дени"/>
    <tag k="ref:mhs" v="PA00086512"/>
    <tag k="source:architect" v="data.gouv.fr:Ministère de la culture - 08/2017"/>
    <tag k="start_date" v="1672"/>
    <tag k="tourism" v="yes"/>
    <tag k="type" v="multipolygon"/>
    <tag k="wikidata" v="Q684594"/>
    <tag k="wikipedia" v="fr:Porte Saint-Denis"/>
  </relation>
  <relation id="10663354" version="1" timestamp="2020-02-02T13:59:12Z" changeset="80436477" uid="93222" user="InfosReseaux">
    <member type="way" ref="63202883" role="inner"/>
    <member type="way" ref="769055820" role="outer"/>
    <tag k="building" v="yes"/>
    <tag k="name" v="Orange Echiquier"/>
    <tag k="type" v="multipolygon"/>
  </relation>

</osm>
