<?xml version="1.0" encoding="UTF-8"?>
<osm version="0.6" generator="Overpass API 0.7.62.5 1bd436f1">
<note>The data included in this document is from www.openstreetmap.org. The data is made available under ODbL.</note>
<meta osm_base="2025-05-17T22:18:13Z" areas="2024-12-31T00:49:33Z"/>

  <node id="470133" lat="48.8495998" lon="2.3448304" version="9" timestamp="2024-12-03T18:20:19Z" changeset="159892135" uid="7512839" user="Benoît C MdP">
    <tag k="highway" v="traffic_signals"/>
    <tag k="source" v="local Knowledge"/>
  </node>
  <node id="470137" lat="48.8499851" lon="2.3490085" version="8" timestamp="2020-08-26T16:58:52Z" changeset="89983313" uid="311391" user="patman37">
    <tag k="highway" v="traffic_signals"/>
    <tag k="source" v="BDOrtho IGN 2018"/>
  </node>
  <node id="25033084" lat="48.8451021" lon="2.3498409" version="8" timestamp="2023-01-10T16:52:24Z" changeset="131114710" uid="311391" user="patman37"/>
  <node id="25033092" lat="48.8461621" lon="2.3490961" version="9" timestamp="2023-01-10T16:52:24Z" changeset="131114710" uid="311391" user="patman37">
    <tag k="highway" v="traffic_signals"/>
  </node>
  <node id="25034323" lat="48.8437934" lon="2.3523169" version="6" timestamp="2019-03-17T13:47:08Z" changeset="68228811" uid="570635" user="_phiphou_">
    <tag k="highway" v="traffic_signals"/>
  </node>
  <node id="25034333" lat="48.8443883" lon="2.3535751" version="6" timestamp="2019-10-03T15:10:01Z" changeset="75240962" uid="311391" user="patman37"/>
  <node id="25096382" lat="48.8514072" lon="2.3493417" version="4" timestamp="2022-03-01T22:35:53Z" changeset="117997143" uid="7550430" user="Britzz"/>
  <node id="25096399" lat="48.8512205" lon="2.3502323" version="5" timestamp="2022-02-21T20:58:05Z" changeset="117700752" uid="7550430" user="Britzz"/>
  <node id="25103029" lat="48.8455188" lon="2.3559702" version="6" timestamp="2020-11-11T16:38:56Z" changeset="93940563" uid="311391" user="patman37"/>
  <node id="212523881" lat="48.8514343" lon="2.3504210" version="11" timestamp="2010-04-15T13:50:16Z" changeset="4431054" uid="150619" user="Mawie"/>
  <node id="218250236" lat="48.8512286" lon="2.3513636" version="7" timestamp="2019-02-14T17:49:25Z" changeset="67202314" uid="570635" user="_phiphou_"/>
  <node id="247631372" lat="48.8501579" lon="2.3550416" version="10" timestamp="2018-05-04T09:56:01Z" changeset="58674048" uid="1198089" user="GeorgeKaplan"/>
  <node id="1756717208" lat="48.8437912" lon="2.3549397" version="4" timestamp="2022-07-07T17:30:03Z" changeset="123329839" uid="16312925" user="Leoriem-code">
    <tag k="highway" v="traffic_signals"/>
  </node>
  <node id="4525367231" lat="48.8445441" lon="2.3495580" version="6" timestamp="2020-05-29T12:25:36Z" changeset="85946632" uid="311391" user="patman37"/>
  <node id="4525367243" lat="48.8444046" lon="2.3492712" version="6" timestamp="2020-05-29T12:25:36Z" changeset="85946632" uid="311391" user="patman37"/>
  <node id="5526475269" lat="48.8497702" lon="2.3491801" version="14" timestamp="2023-07-31T08:19:15Z" changeset="139241271" uid="19967164" user="guiguimapper2002"/>
  <node id="6959718360" lat="48.8494749" lon="2.3569707" version="3" timestamp="2025-01-10T08:59:22Z" changeset="161196700" uid="7512839" user="Benoît C MdP"/>
  <node id="10599340895" lat="48.8449220" lon="2.3637791" version="1" timestamp="2023-02-01T16:16:07Z" changeset="131969690" uid="138059" user="Truchin"/>
  <way id="286550" version="25" timestamp="2025-02-05T11:21:09Z" changeset="162161053" uid="13350444" user="Fairspatz">
    <nd ref="368145"/>
    <nd ref="6220939814"/>
    <nd ref="2235441094"/>
    <nd ref="12373040018"/>
    <nd ref="247631372"/>
    <tag k="cycleway:left" v="no"/>
    <tag k="cycleway:right" v="shared_lane"/>
    <tag k="cycleway:right:lane" v="pictogram"/>
    <tag k="highway" v="tertiary"/>
    <tag k="lanes" v="3"/>
    <tag k="lanes:backward" v="2"/>
    <tag k="lanes:forward" v="1"/>
    <tag k="lit" v="yes"/>
    <tag k="maxspeed" v="30"/>
    <tag k="name" v="Pont de la Tournelle"/>
    <tag k="name:etymology:wikidata" v="Q3053741"/>
    <tag k="oneway" v="no"/>
    <tag k="sidewalk:both" v="separate"/>
    <tag k="smoothness" v="excellent"/>
    <tag k="source:maxspeed" v="BMO Arrêté n o 2018 P 12837"/>
    <tag k="surface" v="asphalt"/>
    <tag k="zone:maxspeed" v="FR:30"/>
  </way>
  <way id="286554" version="31" timestamp="2025-01-10T08:59:22Z" changeset="161196700" uid="7512839" user="Benoît C MdP">
    <nd ref="368146"/>
    <nd ref="7019643770"/>
    <nd ref="25101546"/>
    <nd ref="6959718360"/>
    <tag k="alt_name" v="Pont Sully"/>
    <tag k="bicycle:backward" v="use_sidepath"/>
    <tag k="busway:left" v="lane"/>
    <tag k="busway:left:oneway" v="-1"/>
    <tag k="cycleway:left" v="share_busway"/>
    <tag k="cycleway:left:oneway" v="-1"/>
    <tag k="cycleway:right" v="lane"/>
    <tag k="cycleway:right:lane" v="exclusive"/>
    <tag k="highway" v="primary"/>
    <tag k="lanes" v="3"/>
    <tag k="lanes:backward" v="1"/>
    <tag k="lanes:forward" v="2"/>
    <tag k="lit" v="yes"/>
    <tag k="maxspeed" v="30"/>
    <tag k="name" v="Pont de Sully"/>
    <tag k="name:etymology:wikidata" v="Q379953"/>
    <tag k="oneway" v="yes"/>
    <tag k="oneway:bicycle" v="no"/>
    <tag k="oneway:psv" v="no"/>
    <tag k="sidewalk:both" v="separate"/>
    <tag k="smoothness" v="excellent"/>
    <tag k="source:maxspeed" v="sign"/>
    <tag k="surface" v="asphalt"/>
    <tag k="zone:maxspeed" v="FR:30"/>
  </way>
  <way id="2114251" version="34" timestamp="2025-04-08T05:07:57Z" changeset="164659963" uid="2678738" user="fgouget">
    <nd ref="25101543"/>
    <nd ref="6178786852"/>
    <nd ref="664256922"/>
    <tag k="cycleway:right" v="no"/>
    <tag k="dual_carriageway" v="yes"/>
    <tag k="highway" v="tertiary"/>
    <tag k="lanes" v="2"/>
    <tag k="lit" v="yes"/>
    <tag k="maxspeed" v="30"/>
    <tag k="name" v="Rue des Fossés Saint-Bernard"/>
    <tag k="name:etymology:wikidata" v="Q3398944"/>
    <tag k="oneway" v="yes"/>
    <tag k="sidewalk:both:surface" v="asphalt"/>
    <tag k="sidewalk:left" v="yes"/>
    <tag k="sidewalk:right" v="separate"/>
    <tag k="smoothness" v="excellent"/>
    <tag k="surface" v="asphalt"/>
  </way>
  <way id="2114252" version="19" timestamp="2024-10-27T19:42:39Z" changeset="158428384" uid="53964" user="_Mathieu_">
    <nd ref="361059"/>
    <nd ref="2458000967"/>
    <nd ref="5526475243"/>
    <nd ref="25034403"/>
    <tag k="cycleway:both" v="no"/>
    <tag k="highway" v="residential"/>
    <tag k="lit" v="yes"/>
    <tag k="maxspeed" v="30"/>
    <tag k="name" v="Rue d'Arras"/>
    <tag k="oneway" v="yes"/>
    <tag k="oneway:bicycle" v="no"/>
    <tag k="sidewalk:both" v="separate"/>
    <tag k="smoothness" v="good"/>
    <tag k="source:maxspeed" v="BMO arrêté n°2010-088"/>
    <tag k="surface" v="asphalt"/>
    <tag k="zone:maxspeed" v="FR:30"/>
  </way>
  <way id="4039875" version="55" timestamp="2024-10-27T19:40:41Z" changeset="158428384" uid="53964" user="_Mathieu_">
    <nd ref="212523881"/>
    <nd ref="3671214959"/>
    <nd ref="3671214960"/>
    <nd ref="25095800"/>
    <nd ref="3671214961"/>
    <nd ref="25095799"/>
    <nd ref="1109828929"/>
    <nd ref="6288229328"/>
    <nd ref="3671214963"/>
    <nd ref="7274644380"/>
    <nd ref="361062"/>
    <tag k="bicycle:backward" v="use_sidepath"/>
    <tag k="cycleway:left" v="no"/>
    <tag k="cycleway:right" v="separate"/>
    <tag k="enforcement:operator" v="Police nationale"/>
    <tag k="highway" v="primary"/>
    <tag k="lanes" v="2"/>
    <tag k="lit" v="yes"/>
    <tag k="maxspeed" v="30"/>
    <tag k="name" v="Quai de Montebello"/>
    <tag k="name:etymology:wikidata" v="Q273032"/>
    <tag k="name:ru" v="набережная Монтбело"/>
    <tag k="oneway" v="yes"/>
    <tag k="operator" v="Ville de Paris"/>
    <tag k="operator:authority" v="Maire de Paris dans le respect des prescriptions prises par le préfet de police"/>
    <tag k="operator:authority:related_law" v="III de l'article L. 2512-14 du code général des collectivités territoriales"/>
    <tag k="sidewalk:both" v="separate"/>
    <tag k="smoothness" v="excellent"/>
    <tag k="source:operator:authority" v="https://www.legifrance.gouv.fr/loda/id/LEGIARTI000035244298/#LEGIARTI000035244298"/>
    <tag k="surface" v="asphalt"/>
    <tag k="zone:traffic" v="FR:urban"/>
  </way>
  <way id="4041064" version="19" timestamp="2024-10-12T08:10:02Z" changeset="157783567" uid="2678738" user="fgouget">
    <nd ref="6220939821"/>
    <nd ref="6279090327"/>
    <nd ref="218250236"/>
    <tag k="cycleway:left" v="lane"/>
    <tag k="cycleway:left:lane" v="exclusive"/>
    <tag k="cycleway:left:oneway" v="-1"/>
    <tag k="cycleway:right" v="no"/>
    <tag k="highway" v="residential"/>
    <tag k="lit" v="yes"/>
    <tag k="maxspeed" v="30"/>
    <tag k="name" v="Pont de l'Archevêché"/>
    <tag k="name:etymology:wikidata" v="Q1242250"/>
    <tag k="oneway" v="yes"/>
    <tag k="oneway:bicycle" v="no"/>
    <tag k="sidewalk:both" v="separate"/>
    <tag k="sidewalk:both:surface" v="asphalt"/>
    <tag k="surface" v="asphalt"/>
  </way>
  <way id="4217158" version="22" timestamp="2024-03-03T20:59:19Z" changeset="148181185" uid="6290466" user="benjamintchik">
    <nd ref="25031493"/>
    <nd ref="5526475260"/>
    <nd ref="2458000963"/>
    <nd ref="25032939"/>
    <tag k="cycleway:both" v="no"/>
    <tag k="highway" v="residential"/>
    <tag k="lanes" v="1"/>
    <tag k="lit" v="yes"/>
    <tag k="maxspeed" v="30"/>
    <tag k="maxspeed:type" v="sign"/>
    <tag k="name" v="Rue des Bernardins"/>
    <tag k="name:etymology:wikidata" v="Q960165"/>
    <tag k="oneway" v="yes"/>
    <tag k="oneway:bicycle" v="no"/>
    <tag k="sidewalk" v="separate"/>
    <tag k="sidewalk:both:surface" v="asphalt"/>
    <tag k="smoothness" v="good"/>
    <tag k="surface" v="asphalt"/>
    <tag k="width" v="6"/>
  </way>
  <way id="4217160" version="24" timestamp="2024-05-24T16:48:55Z" changeset="151779911" uid="311391" user="patman37">
    <nd ref="25101538"/>
    <nd ref="2344165369"/>
    <nd ref="7049374628"/>
    <tag k="dual_carriageway" v="yes"/>
    <tag k="highway" v="tertiary"/>
    <tag k="lit" v="yes"/>
    <tag k="maxspeed" v="30"/>
    <tag k="maxspeed:type" v="sign"/>
    <tag k="name" v="Rue du Cardinal Lemoine"/>
    <tag k="name:etymology:wikidata" v="Q721081"/>
    <tag k="oneway" v="yes"/>
    <tag k="sidewalk:left" v="no"/>
    <tag k="sidewalk:right" v="separate"/>
    <tag k="surface" v="asphalt"/>
  </way>
  <way id="4217164" version="25" timestamp="2024-06-09T08:13:20Z" changeset="152443114" uid="270456" user="pyrog">
    <nd ref="25034326"/>
    <nd ref="2458000972"/>
    <tag k="cycleway:both" v="no"/>
    <tag k="highway" v="residential"/>
    <tag k="lit" v="yes"/>
    <tag k="maxspeed" v="30"/>
    <tag k="name" v="Rue de Navarre"/>
    <tag k="name:etymology:wikidata" v="Q1110010"/>
    <tag k="oneway" v="yes"/>
    <tag k="oneway:bicycle" v="no"/>
    <tag k="sidewalk" v="both"/>
    <tag k="sidewalk:both:surface" v="paving_stones"/>
    <tag k="smoothness" v="good"/>
    <tag k="source:maxspeed" v="BMO arrêté n°2010-085"/>
    <tag k="surface" v="asphalt"/>
    <tag k="zone:maxspeed" v="FR:30"/>
  </way>
  <way id="4217165" version="20" timestamp="2024-10-27T16:46:09Z" changeset="158421826" uid="53964" user="_Mathieu_">
    <nd ref="25034334"/>
    <nd ref="10229395575"/>
    <nd ref="2458001002"/>
    <nd ref="25034341"/>
    <nd ref="3085743197"/>
    <nd ref="3085743198"/>
    <nd ref="25034342"/>
    <nd ref="3032445484"/>
    <nd ref="2344165356"/>
    <nd ref="25034434"/>
    <tag k="cycleway:both" v="no"/>
    <tag k="highway" v="residential"/>
    <tag k="maxspeed" v="30"/>
    <tag k="name" v="Rue des Arènes"/>
    <tag k="name:etymology:wikidata" v="Q641548"/>
    <tag k="oneway" v="yes"/>
    <tag k="oneway:bicycle" v="no"/>
    <tag k="sidewalk:both" v="separate"/>
    <tag k="sidewalk:both:surface" v="asphalt"/>
    <tag k="source:maxspeed" v="BMO arrêté n°2010-085"/>
    <tag k="surface" v="asphalt"/>
    <tag k="zone:maxspeed" v="FR:30"/>
  </way>
  <way id="4217171" version="27" timestamp="2024-10-27T19:38:23Z" changeset="158428384" uid="53964" user="_Mathieu_">
    <nd ref="25033086"/>
    <nd ref="2927812422"/>
    <nd ref="10537365150"/>
    <nd ref="3161155021"/>
    <nd ref="25033084"/>
    <nd ref="6207193962"/>
    <nd ref="2400214768"/>
    <nd ref="1134402760"/>
    <nd ref="3161155026"/>
    <tag k="cycleway:both" v="no"/>
    <tag k="highway" v="residential"/>
    <tag k="lit" v="yes"/>
    <tag k="maxspeed" v="30"/>
    <tag k="name" v="Rue du Cardinal Lemoine"/>
    <tag k="name:etymology:wikidata" v="Q721081"/>
    <tag k="oneway" v="yes"/>
    <tag k="oneway:bicycle" v="no"/>
    <tag k="sidewalk:both" v="separate"/>
    <tag k="sidewalk:both:surface" v="asphalt"/>
    <tag k="smoothness" v="good"/>
    <tag k="source:maxspeed" v="BMO arrêté n°2015P0159"/>
    <tag k="surface" v="asphalt"/>
    <tag k="zone:maxspeed" v="FR:30"/>
  </way>
  <way id="4217173" version="22" timestamp="2024-03-03T20:57:48Z" changeset="148181185" uid="6290466" user="benjamintchik">
    <nd ref="3161155026"/>
    <nd ref="7049850623"/>
    <nd ref="6207193964"/>
    <nd ref="4626661829"/>
    <nd ref="25033096"/>
    <tag k="cycleway:both" v="no"/>
    <tag k="highway" v="tertiary"/>
    <tag k="lane_markings" v="no"/>
    <tag k="lit" v="yes"/>
    <tag k="maxspeed" v="30"/>
    <tag k="name" v="Rue du Cardinal Lemoine"/>
    <tag k="name:etymology:wikidata" v="Q721081"/>
    <tag k="sidewalk:both" v="separate"/>
    <tag k="smoothness" v="good"/>
    <tag k="source:maxspeed" v="BMO arrêté n°2015P0159"/>
    <tag k="surface" v="asphalt"/>
    <tag k="zone:maxspeed" v="FR:30"/>
  </way>
  <way id="4217174" version="23" timestamp="2024-07-21T11:18:06Z" changeset="154214370" uid="2252690" user="gourlaysama">
    <nd ref="25033084"/>
    <nd ref="2927812426"/>
    <nd ref="3161155023"/>
    <nd ref="3161155022"/>
    <nd ref="2927812425"/>
    <nd ref="25033083"/>
    <nd ref="2927812424"/>
    <nd ref="25033082"/>
    <nd ref="8112115422"/>
    <nd ref="25033081"/>
    <tag k="cycleway:both" v="no"/>
    <tag k="highway" v="residential"/>
    <tag k="lit" v="yes"/>
    <tag k="maxspeed" v="30"/>
    <tag k="name" v="Rue Thouin"/>
    <tag k="oneway" v="yes"/>
    <tag k="oneway:bicycle" v="no"/>
    <tag k="sidewalk:both" v="separate"/>
    <tag k="smoothness" v="good"/>
    <tag k="source:maxspeed" v="BMO arrêté n°2015P0159"/>
    <tag k="surface" v="asphalt"/>
    <tag k="zone:maxspeed" v="FR:30"/>
  </way>
  <way id="4221372" version="14" timestamp="2024-10-27T16:46:36Z" changeset="158421826" uid="53964" user="_Mathieu_">
    <nd ref="489837571"/>
    <nd ref="8108803684"/>
    <nd ref="2344165358"/>
    <nd ref="25034433"/>
    <tag k="cycleway:both" v="no"/>
    <tag k="highway" v="residential"/>
    <tag k="lit" v="yes"/>
    <tag k="maxspeed" v="30"/>
    <tag k="name" v="Place Jussieu"/>
    <tag k="oneway" v="yes"/>
    <tag k="oneway:bicycle" v="no"/>
    <tag k="sidewalk:left" v="separate"/>
    <tag k="sidewalk:right" v="yes"/>
    <tag k="source:maxspeed" v="BMO arrêté n°2014P0459"/>
    <tag k="surface" v="asphalt"/>
    <tag k="zone:maxspeed" v="FR:30"/>
  </way>
  <way id="4221374" version="19" timestamp="2024-10-27T16:46:13Z" changeset="158421826" uid="53964" user="_Mathieu_">
    <nd ref="25034435"/>
    <nd ref="5707891471"/>
    <nd ref="5922655473"/>
    <nd ref="25103029"/>
    <tag k="cycleway:both" v="no"/>
    <tag k="highway" v="residential"/>
    <tag k="lit" v="yes"/>
    <tag k="maxspeed" v="30"/>
    <tag k="name" v="Rue Guy de la Brosse"/>
    <tag k="name:etymology:wikidata" v="Q726257"/>
    <tag k="oneway" v="yes"/>
    <tag k="oneway:bicycle" v="no"/>
    <tag k="sidewalk:both" v="separate"/>
    <tag k="sidewalk:right:surface" v="asphalt"/>
    <tag k="source:maxspeed" v="BMO arrêté n°2014P0459"/>
    <tag k="surface" v="asphalt"/>
    <tag k="zone:maxspeed" v="FR:30"/>
  </way>
  <way id="4221402" version="41" timestamp="2024-10-27T19:41:00Z" changeset="158428384" uid="53964" user="_Mathieu_">
    <nd ref="25096382"/>
    <nd ref="5536184129"/>
    <nd ref="6288552363"/>
    <nd ref="9525513791"/>
    <nd ref="25096399"/>
    <tag k="cycleway:both" v="no"/>
    <tag k="highway" v="residential"/>
    <tag k="lit" v="yes"/>
    <tag k="maxspeed" v="30"/>
    <tag k="name" v="Rue des Grands Degrés"/>
    <tag k="name:etymology:wikidata" v="Q12511"/>
    <tag k="name:ru" v="улица Гран Дегре"/>
    <tag k="oneway" v="yes"/>
    <tag k="oneway:bicycle" v="no"/>
    <tag k="sidewalk" v="separate"/>
    <tag k="smoothness" v="excellent"/>
    <tag k="source:maxspeed" v="BMO arrêté n°2010-088"/>
    <tag k="surface" v="asphalt"/>
    <tag k="zone:maxspeed" v="FR:30"/>
  </way>
  <way id="4221403" version="47" timestamp="2024-10-27T19:41:14Z" changeset="158428384" uid="53964" user="_Mathieu_">
    <nd ref="25096399"/>
    <nd ref="10230712777"/>
    <nd ref="544522119"/>
    <nd ref="2490914654"/>
    <nd ref="9525513790"/>
    <nd ref="544522069"/>
    <nd ref="9525513788"/>
    <nd ref="9525513789"/>
    <nd ref="3797266700"/>
    <nd ref="25096518"/>
    <tag k="cycleway:both" v="no"/>
    <tag k="highway" v="residential"/>
    <tag k="lit" v="yes"/>
    <tag k="maxspeed" v="30"/>
    <tag k="name" v="Rue Maître Albert"/>
    <tag k="name:etymology:wikidata" v="Q60059"/>
    <tag k="name:ru" v="улица Мэтр Альбер"/>
    <tag k="old_name" v="Rue Perdue"/>
    <tag k="oneway" v="yes"/>
    <tag k="oneway:bicycle" v="no"/>
    <tag k="sidewalk" v="separate"/>
    <tag k="source:maxspeed" v="BMO arrêté n°2010-088"/>
    <tag k="surface" v="asphalt"/>
    <tag k="zone:maxspeed" v="FR:30"/>
  </way>
  <way id="4221408" version="17" timestamp="2024-10-27T19:42:30Z" changeset="158428384" uid="53964" user="_Mathieu_">
    <nd ref="25101533"/>
    <nd ref="2458000976"/>
    <nd ref="25102172"/>
    <tag k="cycleway:both" v="no"/>
    <tag k="highway" v="residential"/>
    <tag k="lit" v="yes"/>
    <tag k="maxspeed" v="30"/>
    <tag k="maxspeed:type" v="sign"/>
    <tag k="noname" v="yes"/>
    <tag k="oneway" v="yes"/>
    <tag k="oneway:bicycle" v="no"/>
    <tag k="sidewalk" v="both"/>
    <tag k="sidewalk:both:surface" v="paving_stones"/>
    <tag k="smoothness" v="good"/>
    <tag k="source:maxspeed" v="BMO arrêté n°2010-088"/>
    <tag k="surface" v="asphalt"/>
    <tag k="zone:maxspeed" v="FR:30"/>
  </way>
  <way id="4221411" version="42" timestamp="2024-10-27T19:41:55Z" changeset="158428384" uid="53964" user="_Mathieu_">
    <nd ref="25096403"/>
    <nd ref="6279063962"/>
    <nd ref="6118433350"/>
    <nd ref="25102203"/>
    <nd ref="5526475251"/>
    <nd ref="25034466"/>
    <tag k="cycleway:both" v="no"/>
    <tag k="highway" v="residential"/>
    <tag k="lit" v="yes"/>
    <tag k="maxspeed" v="30"/>
    <tag k="name" v="Rue de Pontoise"/>
    <tag k="name:etymology:wikidata" v="Q201352"/>
    <tag k="name:ru" v="улица Понтуаз"/>
    <tag k="oneway" v="yes"/>
    <tag k="oneway:bicycle" v="no"/>
    <tag k="sidewalk:both" v="separate"/>
    <tag k="smoothness" v="good"/>
    <tag k="source:maxspeed" v="BMO arrêté n°2010-088"/>
    <tag k="surface" v="asphalt"/>
    <tag k="width" v="6"/>
    <tag k="zone:maxspeed" v="FR:30"/>
  </way>
  <way id="4221413" version="22" timestamp="2024-10-27T19:41:47Z" changeset="158428384" uid="53964" user="_Mathieu_">
    <nd ref="470138"/>
    <nd ref="11992745229"/>
    <nd ref="5526475248"/>
    <nd ref="25102197"/>
    <nd ref="6178786860"/>
    <nd ref="6337189330"/>
    <nd ref="25096406"/>
    <tag k="cycleway:both" v="no"/>
    <tag k="highway" v="residential"/>
    <tag k="lit" v="yes"/>
    <tag k="maxspeed" v="30"/>
    <tag k="name" v="Rue de Poissy"/>
    <tag k="name:etymology:wikidata" v="Q457"/>
    <tag k="oneway" v="yes"/>
    <tag k="oneway:bicycle" v="no"/>
    <tag k="sidewalk:both" v="separate"/>
    <tag k="sidewalk:both:surface" v="concrete"/>
    <tag k="smoothness" v="good"/>
    <tag k="source:maxspeed" v="BMO arrêté n°2010-088"/>
    <tag k="surface" v="asphalt"/>
    <tag k="width" v="6"/>
    <tag k="zone:maxspeed" v="FR:30"/>
  </way>
  <way id="4221414" version="22" timestamp="2024-03-03T20:57:48Z" changeset="148181185" uid="6290466" user="benjamintchik">
    <nd ref="368145"/>
    <nd ref="6279073011"/>
    <nd ref="6178786857"/>
    <nd ref="25034462"/>
    <tag k="cycleway:left" v="no"/>
    <tag k="cycleway:right" v="no"/>
    <tag k="highway" v="residential"/>
    <tag k="lit" v="yes"/>
    <tag k="maxspeed" v="30"/>
    <tag k="name" v="Rue du Cardinal Lemoine"/>
    <tag k="name:etymology:wikidata" v="Q721081"/>
    <tag k="oneway" v="yes"/>
    <tag k="oneway:bicycle" v="yes"/>
    <tag k="sidewalk:both" v="separate"/>
    <tag k="sidewalk:both:surface" v="asphalt"/>
    <tag k="smoothness" v="intermediate"/>
    <tag k="source:maxspeed" v="BMO arrêté n°2010-088"/>
    <tag k="surface" v="asphalt"/>
    <tag k="width" v="3"/>
    <tag k="zone:maxspeed" v="FR:30"/>
  </way>
  <way id="4221415" version="18" timestamp="2024-10-27T19:43:35Z" changeset="158428384" uid="53964" user="_Mathieu_">
    <nd ref="25102265"/>
    <nd ref="6335611486"/>
    <nd ref="6504334813"/>
    <nd ref="25101541"/>
    <tag k="cycleway:both" v="no"/>
    <tag k="highway" v="residential"/>
    <tag k="lit" v="yes"/>
    <tag k="maxspeed" v="30"/>
    <tag k="name" v="Rue des Chantiers"/>
    <tag k="name:etymology:wikidata" v="Q2956376"/>
    <tag k="oneway" v="yes"/>
    <tag k="oneway:bicycle" v="no"/>
    <tag k="sidewalk:both" v="separate"/>
    <tag k="smoothness" v="good"/>
    <tag k="source:maxspeed" v="BMO arrêté n°2010-088"/>
    <tag k="surface" v="asphalt"/>
    <tag k="zone:maxspeed" v="FR:30"/>
  </way>
  <way id="4414201" version="24" timestamp="2024-07-30T20:35:32Z" changeset="154622921" uid="18570611" user="Juan MAS">
    <nd ref="368147"/>
    <nd ref="9831316303"/>
    <nd ref="27018629"/>
    <nd ref="12083926257"/>
    <nd ref="664256921"/>
    <tag k="cycleway:right" v="lane"/>
    <tag k="cycleway:right:lane" v="exclusive"/>
    <tag k="dual_carriageway" v="yes"/>
    <tag k="highway" v="tertiary"/>
    <tag k="lanes" v="2"/>
    <tag k="lit" v="yes"/>
    <tag k="maxspeed" v="30"/>
    <tag k="name" v="Rue des Fossés Saint-Bernard"/>
    <tag k="name:etymology:wikidata" v="Q3398944"/>
    <tag k="oneway" v="yes"/>
    <tag k="smoothness" v="excellent"/>
    <tag k="surface" v="asphalt"/>
  </way>
  <way id="4499646" version="17" timestamp="2024-03-03T20:59:19Z" changeset="148181185" uid="6290466" user="benjamintchik">
    <nd ref="25032939"/>
    <nd ref="2458001000"/>
    <nd ref="27308705"/>
    <tag k="cycleway:both" v="no"/>
    <tag k="highway" v="residential"/>
    <tag k="lit" v="yes"/>
    <tag k="maxspeed" v="30"/>
    <tag k="maxspeed:type" v="sign"/>
    <tag k="name" v="Rue des Bernardins"/>
    <tag k="name:etymology:wikidata" v="Q960165"/>
    <tag k="sidewalk" v="separate"/>
    <tag k="smoothness" v="excellent"/>
    <tag k="surface" v="asphalt"/>
    <tag k="width" v="4"/>
  </way>
  <way id="4499647" version="21" timestamp="2024-03-16T09:21:18Z" changeset="148722122" uid="6290466" user="benjamintchik">
    <nd ref="25102172"/>
    <nd ref="7049374654"/>
    <nd ref="5526475259"/>
    <nd ref="25031493"/>
    <tag k="highway" v="residential"/>
    <tag k="lit" v="yes"/>
    <tag k="maxspeed" v="30"/>
    <tag k="maxspeed:type" v="FR:zone30"/>
    <tag k="name" v="Rue Saint-Victor"/>
    <tag k="name:etymology:wikidata" v="Q1748506"/>
    <tag k="oneway" v="yes"/>
    <tag k="sidewalk:left" v="no"/>
    <tag k="sidewalk:right" v="separate"/>
    <tag k="smoothness" v="good"/>
    <tag k="source:maxspeed" v="BMO arrêté n°2010-088"/>
    <tag k="surface" v="asphalt"/>
    <tag k="zone:maxspeed" v="FR:30"/>
  </way>
  <way id="4570145" version="17" timestamp="2024-10-27T16:46:07Z" changeset="158421826" uid="53964" user="_Mathieu_">
    <nd ref="25034333"/>
    <nd ref="25034334"/>
    <tag k="cycleway:both" v="no"/>
    <tag k="highway" v="residential"/>
    <tag k="lit" v="yes"/>
    <tag k="maxspeed" v="30"/>
    <tag k="name" v="Place Émile Mâle"/>
    <tag k="name:etymology:wikidata" v="Q286253"/>
    <tag k="oneway" v="yes"/>
    <tag k="oneway:bicycle" v="no"/>
    <tag k="sidewalk:both" v="separate"/>
    <tag k="sidewalk:both:surface" v="asphalt"/>
    <tag k="source:maxspeed" v="BMO arrêté n°2010-085"/>
    <tag k="surface" v="asphalt"/>
    <tag k="zone:maxspeed" v="FR:30"/>
  </way>
  <way id="16924888" version="15" timestamp="2025-03-14T19:31:08Z" changeset="163624279" uid="18531595" user="esmenard">
    <nd ref="175507306"/>
    <nd ref="489837531"/>
    <nd ref="489837537"/>
    <nd ref="175507311"/>
    <nd ref="489837539"/>
    <nd ref="175507309"/>
    <nd ref="12663334764"/>
    <nd ref="489837542"/>
    <nd ref="175507308"/>
    <nd ref="3094898262"/>
    <nd ref="175507306"/>
    <tag k="alt_name" v="Tour de Jussieu"/>
    <tag k="building" v="office"/>
    <tag k="building:colour" v="#000000"/>
    <tag k="building:levels" v="29"/>
    <tag k="building:material" v="glass"/>
    <tag k="height" v="90"/>
    <tag k="name" v="Tour Zamansky"/>
    <tag k="office" v="educational_institution"/>
    <tag k="source" v="cadastre-dgi-fr source : Direction Générale des Impôts - Cadastre"/>
    <tag k="start_date" v="1970"/>
    <tag k="wikidata" v="Q3498678"/>
    <tag k="wikipedia" v="fr:Tour Zamansky"/>
  </way>
  <way id="20444537" version="25" timestamp="2024-02-17T17:38:02Z" changeset="147580915" uid="6290466" user="benjamintchik">
    <nd ref="218250236"/>
    <nd ref="21305940"/>
    <tag k="bridge" v="yes"/>
    <tag k="cycleway:left" v="lane"/>
    <tag k="cycleway:left:lane" v="exclusive"/>
    <tag k="cycleway:left:oneway" v="-1"/>
    <tag k="cycleway:right" v="no"/>
    <tag k="highway" v="residential"/>
    <tag k="layer" v="1"/>
    <tag k="lit" v="yes"/>
    <tag k="maxspeed" v="30"/>
    <tag k="maxspeed:type" v="sign"/>
    <tag k="maxweight:signed" v="no"/>
    <tag k="name" v="Pont de l'Archevêché"/>
    <tag k="name:es" v="Puente del Arzobispado"/>
    <tag k="name:etymology:wikidata" v="Q1242250"/>
    <tag k="oneway" v="yes"/>
    <tag k="oneway:bicycle" v="no"/>
    <tag k="parking:both" v="no"/>
    <tag k="sidewalk" v="separate"/>
    <tag k="surface" v="asphalt"/>
  </way>
  <way id="21885520" version="24" timestamp="2024-10-27T19:42:33Z" changeset="158428384" uid="53964" user="_Mathieu_">
    <nd ref="25031493"/>
    <nd ref="5526475261"/>
    <nd ref="5526475263"/>
    <nd ref="5526475265"/>
    <nd ref="25034464"/>
    <tag k="cycleway:both" v="no"/>
    <tag k="highway" v="residential"/>
    <tag k="lit" v="yes"/>
    <tag k="maxspeed" v="30"/>
    <tag k="name" v="Rue des Bernardins"/>
    <tag k="name:etymology:wikidata" v="Q960165"/>
    <tag k="oneway" v="yes"/>
    <tag k="oneway:bicycle" v="no"/>
    <tag k="sidewalk" v="separate"/>
    <tag k="sidewalk:both:surface" v="asphalt"/>
    <tag k="smoothness" v="good"/>
    <tag k="source:maxspeed" v="BMO arrêté n°2010-088"/>
    <tag k="surface" v="asphalt"/>
    <tag k="width" v="6"/>
    <tag k="zone:maxspeed" v="FR:30"/>
  </way>
  <way id="22820207" version="35" timestamp="2024-11-18T15:06:08Z" changeset="159287325" uid="17639512" user="la-monf">
    <nd ref="25101543"/>
    <nd ref="4615745082"/>
    <nd ref="4619069108"/>
    <nd ref="1813629257"/>
    <nd ref="4983236079"/>
    <nd ref="5688693955"/>
    <nd ref="25101541"/>
    <nd ref="6796777543"/>
    <nd ref="6477065199"/>
    <tag k="cycleway" v="no"/>
    <tag k="highway" v="tertiary"/>
    <tag k="lanes" v="2"/>
    <tag k="lit" v="yes"/>
    <tag k="maxspeed" v="30"/>
    <tag k="name" v="Rue des Fossés Saint-Bernard"/>
    <tag k="name:etymology:wikidata" v="Q3398944"/>
    <tag k="sidewalk:both:surface" v="asphalt"/>
    <tag k="sidewalk:left" v="yes"/>
    <tag k="sidewalk:right" v="separate"/>
    <tag k="smoothness" v="intermediate"/>
    <tag k="surface" v="asphalt"/>
  </way>
  <way id="22820300" version="22" timestamp="2024-03-16T09:24:49Z" changeset="148722122" uid="6290466" user="benjamintchik">
    <nd ref="17809591"/>
    <nd ref="9429648010"/>
    <nd ref="2344165364"/>
    <nd ref="245535448"/>
    <tag k="cycleway:both" v="no"/>
    <tag k="highway" v="tertiary"/>
    <tag k="lanes" v="3"/>
    <tag k="lanes:backward" v="1"/>
    <tag k="lanes:forward" v="2"/>
    <tag k="lit" v="yes"/>
    <tag k="maxspeed" v="30"/>
    <tag k="name" v="Rue Jussieu"/>
    <tag k="name:etymology:wikidata" v="Q223963"/>
    <tag k="sidewalk:left" v="separate"/>
    <tag k="sidewalk:right" v="yes"/>
    <tag k="surface" v="asphalt"/>
  </way>
  <way id="22870791" version="29" timestamp="2025-04-03T17:44:21Z" changeset="164476867" uid="18531595" user="esmenard">
    <nd ref="12083926191"/>
    <nd ref="12083926209"/>
    <nd ref="7133475321"/>
    <nd ref="12083926197"/>
    <nd ref="261577998"/>
    <nd ref="12726418809"/>
    <nd ref="245805297"/>
    <nd ref="1129978487"/>
    <nd ref="528462288"/>
    <nd ref="245805298"/>
    <nd ref="528462294"/>
    <nd ref="528462297"/>
    <nd ref="528462291"/>
    <nd ref="245805299"/>
    <nd ref="528462282"/>
    <nd ref="1129978485"/>
    <nd ref="528462280"/>
    <nd ref="245805300"/>
    <nd ref="261576901"/>
    <nd ref="12083926192"/>
    <nd ref="12083926193"/>
    <nd ref="12083926194"/>
    <nd ref="12083926195"/>
    <nd ref="261576902"/>
    <nd ref="12083926198"/>
    <nd ref="261576903"/>
    <nd ref="245805296"/>
    <nd ref="12083926191"/>
    <tag k="building" v="yes"/>
    <tag k="building:facade:material" v="glass"/>
    <tag k="building:levels" v="12"/>
    <tag k="check_date" v="2023-01-05"/>
    <tag k="contact:city" v="Paris"/>
    <tag k="contact:housenumber" v="1"/>
    <tag k="contact:phone" v="+33 1 40 51 38 38"/>
    <tag k="contact:postcode" v="75005"/>
    <tag k="contact:street" v="Rue des Fossés Saint-Bernard"/>
    <tag k="contact:website" v="https://www.imarabe.org/"/>
    <tag k="fee" v="yes"/>
    <tag k="height" v="32"/>
    <tag k="name" v="Institut du Monde Arabe"/>
    <tag k="opening_hours" v="Mo off; Tu-Fr 10:00-18:00; Sa-Su,PH 10:00-19:00"/>
    <tag k="payment:mastercard" v="yes"/>
    <tag k="payment:visa" v="yes"/>
    <tag k="short_name" v="IMA"/>
    <tag k="source" v="Cadastre. Mise à jour : 2010;knowledge;survey"/>
    <tag k="tourism" v="museum"/>
    <tag k="wheelchair" v="yes"/>
    <tag k="wikidata" v="Q860166"/>
  </way>
  <way id="22945486" version="25" timestamp="2024-10-27T19:43:25Z" changeset="158428384" uid="53964" user="_Mathieu_">
    <nd ref="25034462"/>
    <nd ref="12083926245"/>
    <nd ref="4886258757"/>
    <nd ref="6178786854"/>
    <nd ref="664256921"/>
    <tag k="cycleway:both" v="no"/>
    <tag k="highway" v="primary"/>
    <tag k="lanes" v="2"/>
    <tag k="lit" v="yes"/>
    <tag k="maxspeed" v="30"/>
    <tag k="name" v="Boulevard Saint-Germain"/>
    <tag k="name:etymology:wikidata" v="Q255910"/>
    <tag k="oneway" v="yes"/>
    <tag k="sidewalk:left" v="no"/>
    <tag k="sidewalk:right" v="separate"/>
    <tag k="sidewalk:right:surface" v="asphalt"/>
    <tag k="smoothness" v="excellent"/>
    <tag k="surface" v="asphalt"/>
  </way>
  <way id="22945555" version="9" timestamp="2024-05-21T12:30:25Z" changeset="151625889" uid="2678738" user="fgouget">
    <nd ref="247188062"/>
    <nd ref="6335613209"/>
    <nd ref="247188122"/>
    <tag k="highway" v="residential"/>
    <tag k="maxspeed" v="30"/>
    <tag k="name" v="Cité du Cardinal Lemoine"/>
    <tag k="sidewalk:both" v="separate"/>
    <tag k="source:maxspeed" v="BMO arrêté n°2010-088"/>
    <tag k="surface" v="asphalt"/>
    <tag k="zone:maxspeed" v="FR:30"/>
  </way>
  <way id="22964641" version="42" timestamp="2025-01-10T08:59:22Z" changeset="161196700" uid="7512839" user="Benoît C MdP">
    <nd ref="6959718360"/>
    <nd ref="11069305447"/>
    <nd ref="247431296"/>
    <tag k="alt_name" v="Pont Sully"/>
    <tag k="bicycle:backward" v="use_sidepath"/>
    <tag k="bridge" v="yes"/>
    <tag k="busway:left" v="lane"/>
    <tag k="busway:left:oneway" v="-1"/>
    <tag k="cycleway:left" v="share_busway"/>
    <tag k="cycleway:left:oneway" v="-1"/>
    <tag k="cycleway:right" v="lane"/>
    <tag k="cycleway:right:lane" v="exclusive"/>
    <tag k="highspeed" v="primary"/>
    <tag k="highway" v="primary"/>
    <tag k="lanes" v="3"/>
    <tag k="lanes:backward" v="1"/>
    <tag k="lanes:forward" v="2"/>
    <tag k="layer" v="1"/>
    <tag k="lit" v="yes"/>
    <tag k="maxspeed" v="30"/>
    <tag k="maxweight:signed" v="no"/>
    <tag k="name" v="Pont de Sully"/>
    <tag k="name:etymology:wikidata" v="Q379953"/>
    <tag k="oneway" v="yes"/>
    <tag k="oneway:bicycle" v="no"/>
    <tag k="oneway:psv" v="no"/>
    <tag k="sidewalk:both" v="separate"/>
    <tag k="smoothness" v="excellent"/>
    <tag k="source:maxspeed" v="BMO Arrêté n o 2018 P 12837"/>
    <tag k="surface" v="asphalt"/>
    <tag k="zone:maxspeed" v="FR:30"/>
  </way>
  <way id="22972851" version="29" timestamp="2024-07-03T10:42:08Z" changeset="153495901" uid="17401973" user="silvired">
    <nd ref="247631372"/>
    <nd ref="12030955501"/>
    <nd ref="5596102049"/>
    <tag k="bridge" v="yes"/>
    <tag k="cycleway:both" v="no"/>
    <tag k="highway" v="tertiary"/>
    <tag k="lanes" v="4"/>
    <tag k="layer" v="1"/>
    <tag k="lit" v="yes"/>
    <tag k="maxspeed" v="30"/>
    <tag k="maxweight:signed" v="no"/>
    <tag k="name" v="Pont de la Tournelle"/>
    <tag k="name:etymology:wikidata" v="Q3053741"/>
    <tag k="oneway" v="no"/>
    <tag k="parking:both" v="no"/>
    <tag k="sidewalk:both" v="separate"/>
    <tag k="smoothness" v="excellent"/>
    <tag k="source:maxspeed" v="BMO Arrêté n o 2018 P 12837"/>
    <tag k="surface" v="asphalt"/>
    <tag k="zone:maxspeed" v="FR:30"/>
  </way>
  <way id="23757632" version="11" timestamp="2021-11-08T15:16:46Z" changeset="113526822" uid="12433139" user="Bluetako42">
    <nd ref="698454647"/>
    <nd ref="698454642"/>
    <nd ref="698454668"/>
    <nd ref="698454654"/>
    <nd ref="698454652"/>
    <nd ref="698454650"/>
    <nd ref="698454626"/>
    <nd ref="698454630"/>
    <nd ref="698454647"/>
    <tag k="building" v="university"/>
    <tag k="building:levels" v="5"/>
    <tag k="height" v="21"/>
    <tag k="min_height" v="6"/>
    <tag k="name" v="Institut de Mathématiques de Jussieu - Paris Rive Gauche"/>
    <tag k="roof:shape" v="flat"/>
  </way>
  <way id="23757719" version="10" timestamp="2025-03-29T10:48:34Z" changeset="164243769" uid="18531595" user="esmenard">
    <nd ref="257402242"/>
    <nd ref="6364587242"/>
    <nd ref="6364587230"/>
    <nd ref="6364587243"/>
    <nd ref="12709611804"/>
    <nd ref="6364587257"/>
    <nd ref="257402243"/>
    <nd ref="257402244"/>
    <nd ref="977194287"/>
    <nd ref="257402245"/>
    <nd ref="6364587207"/>
    <nd ref="6364587202"/>
    <nd ref="257402246"/>
    <nd ref="257402247"/>
    <nd ref="528461120"/>
    <nd ref="528461130"/>
    <nd ref="528461126"/>
    <nd ref="528461123"/>
    <nd ref="257402242"/>
    <tag k="building" v="yes"/>
    <tag k="building:levels" v="9"/>
    <tag k="name" v="Barre Cassan F"/>
    <tag k="ref" v="F"/>
  </way>
  <way id="24147086" version="24" timestamp="2025-04-03T17:44:21Z" changeset="164476867" uid="18531595" user="esmenard">
    <nd ref="528462276"/>
    <nd ref="12726418807"/>
    <nd ref="528462285"/>
    <nd ref="528462300"/>
    <nd ref="528462332"/>
    <nd ref="528462306"/>
    <nd ref="528462303"/>
    <nd ref="528461512"/>
    <nd ref="135181510"/>
    <nd ref="5866497214"/>
    <nd ref="261578699"/>
    <nd ref="7984598040"/>
    <nd ref="528462238"/>
    <nd ref="6918794206"/>
    <nd ref="6364587216"/>
    <nd ref="9702613304"/>
    <nd ref="528462236"/>
    <nd ref="261578078"/>
    <nd ref="12690678520"/>
    <nd ref="9702613303"/>
    <nd ref="12657465136"/>
    <nd ref="6888718337"/>
    <nd ref="12623556325"/>
    <nd ref="6888718334"/>
    <nd ref="6918794207"/>
    <nd ref="5866497215"/>
    <nd ref="12690631600"/>
    <nd ref="6349477261"/>
    <nd ref="1813629168"/>
    <nd ref="528462276"/>
    <tag k="building" v="university"/>
    <tag k="building:levels" v="8"/>
    <tag k="name" v="Barre Cassan A, B et C"/>
    <tag k="roof:shape" v="flat"/>
  </way>
  <way id="24147102" version="13" timestamp="2025-03-14T19:31:08Z" changeset="163624279" uid="18531595" user="esmenard">
    <nd ref="257402243"/>
    <nd ref="3094898263"/>
    <nd ref="261578078"/>
    <nd ref="528462236"/>
    <nd ref="528462233"/>
    <nd ref="528462229"/>
    <nd ref="9702613310"/>
    <nd ref="528462231"/>
    <nd ref="528462212"/>
    <nd ref="12657465143"/>
    <nd ref="12657465142"/>
    <nd ref="528461984"/>
    <nd ref="257402244"/>
    <nd ref="257402243"/>
    <tag k="amenity" v="restaurant"/>
    <tag k="building" v="yes"/>
    <tag k="name" v="Restaurant Universitaire Cuvier"/>
    <tag k="opening_hours" v="Mo-Sa 10:00-18:00"/>
    <tag k="operator" v="CROUS"/>
    <tag k="website" v="https://www.crous-paris.fr/restaurant/ru-cuvier-3/"/>
  </way>
  <way id="24147164" version="11" timestamp="2025-03-26T22:08:12Z" changeset="164140651" uid="18531595" user="esmenard">
    <nd ref="528460869"/>
    <nd ref="261581452"/>
    <nd ref="528460114"/>
    <nd ref="528460116"/>
    <nd ref="528460113"/>
    <nd ref="528460111"/>
    <nd ref="528460163"/>
    <nd ref="528460948"/>
    <nd ref="261581588"/>
    <nd ref="528460951"/>
    <nd ref="528460883"/>
    <nd ref="528460121"/>
    <nd ref="261581589"/>
    <nd ref="3086029495"/>
    <nd ref="528460118"/>
    <nd ref="528460881"/>
    <nd ref="261581590"/>
    <nd ref="3094897193"/>
    <nd ref="528460869"/>
    <tag k="building" v="yes"/>
    <tag k="building:levels" v="4"/>
    <tag k="name" v="Esclangon"/>
    <tag k="wheelchair" v="yes"/>
  </way>
  <way id="26584053" version="13" timestamp="2023-09-11T13:04:19Z" changeset="141112284" uid="172867" user="AmiFritz">
    <nd ref="291534579"/>
    <nd ref="602294374"/>
    <nd ref="602294368"/>
    <nd ref="291534580"/>
    <nd ref="549792437"/>
    <nd ref="291534581"/>
    <nd ref="549792436"/>
    <nd ref="549792431"/>
    <nd ref="549792435"/>
    <nd ref="549792433"/>
    <nd ref="291534588"/>
    <nd ref="4394766893"/>
    <nd ref="549792432"/>
    <nd ref="549792429"/>
    <nd ref="549792428"/>
    <nd ref="549792426"/>
    <nd ref="549792427"/>
    <nd ref="549792413"/>
    <nd ref="291534590"/>
    <nd ref="291534591"/>
    <nd ref="549792414"/>
    <nd ref="549792430"/>
    <nd ref="602294310"/>
    <nd ref="602294324"/>
    <nd ref="291534623"/>
    <nd ref="291534689"/>
    <nd ref="291534690"/>
    <nd ref="291534692"/>
    <nd ref="291534693"/>
    <nd ref="291534579"/>
    <tag k="addr:city" v="Paris"/>
    <tag k="addr:housenumber" v="20"/>
    <tag k="addr:postcode" v="75005"/>
    <tag k="addr:street" v="Rue de Poissy"/>
    <tag k="amenity" v="arts_centre"/>
    <tag k="building" v="yes"/>
    <tag k="email" v="accueil@collegedesbernardins.fr"/>
    <tag k="historic" v="building"/>
    <tag k="name" v="Collège des Bernardins"/>
    <tag k="opening_hours" v="Mo-sa 10:00-18:00; Su 14:00-18:00"/>
    <tag k="phone" v="+33 1 53 10 74 44"/>
    <tag k="tourism" v="attraction"/>
    <tag k="website" v="https://www.collegedesbernardins.fr/"/>
    <tag k="wikidata" v="Q960165"/>
  </way>
  <way id="28208667" version="41" timestamp="2025-03-22T11:22:52Z" changeset="163942580" uid="18531595" user="esmenard">
    <nd ref="10599340895"/>
    <nd ref="6773693245"/>
    <nd ref="2399833073"/>
    <nd ref="2399833079"/>
    <nd ref="977194441"/>
    <nd ref="977193733"/>
    <nd ref="382057"/>
    <nd ref="2378562434"/>
    <nd ref="4886258755"/>
    <nd ref="9702613307"/>
    <nd ref="4615745080"/>
    <nd ref="6773693246"/>
    <nd ref="6364587212"/>
    <nd ref="1813629245"/>
    <nd ref="25102148"/>
    <nd ref="5664635279"/>
    <nd ref="4615745081"/>
    <nd ref="6769273875"/>
    <nd ref="25101544"/>
    <tag k="bus:lanes:forward" v="yes|yes|designated"/>
    <tag k="busway:right" v="lane"/>
    <tag k="cycleway:left" v="no"/>
    <tag k="cycleway:right" v="share_busway"/>
    <tag k="enforcement:operator" v="Police nationale"/>
    <tag k="highway" v="primary"/>
    <tag k="lanes" v="4"/>
    <tag k="lanes:backward" v="1"/>
    <tag k="lanes:forward" v="3"/>
    <tag k="lit" v="yes"/>
    <tag k="maxspeed" v="30"/>
    <tag k="name" v="Quai Saint-Bernard"/>
    <tag k="name:etymology:wikidata" v="Q188411"/>
    <tag k="operator" v="Ville de Paris"/>
    <tag k="operator:authority" v="Maire de Paris dans le respect des prescriptions prises par le préfet de police"/>
    <tag k="operator:authority:related_law" v="III de l'article L. 2512-14 du code général des collectivités territoriales"/>
    <tag k="psv:lanes:forward" v="yes|yes|designated"/>
    <tag k="sidewalk" v="both"/>
    <tag k="sidewalk:both:surface" v="concrete"/>
    <tag k="smoothness" v="excellent"/>
    <tag k="source:maxspeed" v="sign"/>
    <tag k="source:operator:authority" v="https://www.legifrance.gouv.fr/loda/id/LEGIARTI000035244298/#LEGIARTI000035244298"/>
    <tag k="surface" v="asphalt"/>
    <tag k="taxi:lanes:forward" v="yes|yes|designated"/>
    <tag k="zone:traffic" v="FR:urban"/>
  </way>
  <way id="29657596" version="14" timestamp="2023-09-11T13:04:19Z" changeset="141112284" uid="172867" user="AmiFritz">
    <nd ref="326376440"/>
    <nd ref="602294075"/>
    <nd ref="715356405"/>
    <nd ref="602294078"/>
    <nd ref="602294081"/>
    <nd ref="602294080"/>
    <nd ref="602294079"/>
    <nd ref="602294114"/>
    <nd ref="697405428"/>
    <nd ref="602294111"/>
    <nd ref="697405429"/>
    <nd ref="602294113"/>
    <nd ref="697405430"/>
    <nd ref="326376441"/>
    <nd ref="602294116"/>
    <nd ref="602294115"/>
    <nd ref="602294118"/>
    <nd ref="602294117"/>
    <nd ref="4842286236"/>
    <nd ref="602294109"/>
    <nd ref="4842286237"/>
    <nd ref="4842286238"/>
    <nd ref="602294110"/>
    <nd ref="602294120"/>
    <nd ref="602294121"/>
    <nd ref="602294119"/>
    <nd ref="602294129"/>
    <nd ref="602294130"/>
    <nd ref="602294132"/>
    <nd ref="602294133"/>
    <nd ref="697405439"/>
    <nd ref="697405440"/>
    <nd ref="326376444"/>
    <nd ref="602294315"/>
    <nd ref="602294316"/>
    <nd ref="715386242"/>
    <nd ref="715386187"/>
    <nd ref="602294077"/>
    <nd ref="602294076"/>
    <nd ref="715386184"/>
    <nd ref="715386182"/>
    <nd ref="326376440"/>
    <tag k="addr:city" v="Paris"/>
    <tag k="addr:housenumber" v="24"/>
    <tag k="addr:postcode" v="75005"/>
    <tag k="addr:street" v="Rue Saint-Victor"/>
    <tag k="amenity" v="community_centre"/>
    <tag k="architect" v="V. Lesage;Ch. Miltgen"/>
    <tag k="building" v="yes"/>
    <tag k="check_date" v="2023-06-16"/>
    <tag k="name" v="Maison de la Mutualité"/>
    <tag k="old_name" v="Palais de la Mutualité"/>
    <tag k="start_date" v="1930"/>
    <tag k="website" v="http://www.maisondelamutualite.com"/>
    <tag k="wikidata" v="Q3279717"/>
    <tag k="wikipedia" v="fr:Maison de la Mutualité"/>
  </way>
  <way id="32484551" version="52" timestamp="2024-10-27T19:42:49Z" changeset="158428384" uid="53964" user="_Mathieu_">
    <nd ref="368147"/>
    <nd ref="6178786851"/>
    <nd ref="4886258758"/>
    <nd ref="6291069644"/>
    <nd ref="6279072934"/>
    <nd ref="368145"/>
    <tag k="bicycle:backward" v="use_sidepath"/>
    <tag k="cycleway:left" v="no"/>
    <tag k="cycleway:right" v="separate"/>
    <tag k="enforcement:operator" v="Police nationale"/>
    <tag k="highway" v="primary"/>
    <tag k="lanes" v="2"/>
    <tag k="lit" v="yes"/>
    <tag k="maxspeed" v="30"/>
    <tag k="name" v="Quai de la Tournelle"/>
    <tag k="name:etymology:wikidata" v="Q3053741"/>
    <tag k="name:ru" v="набережная Турнель"/>
    <tag k="oneway" v="yes"/>
    <tag k="operator" v="Ville de Paris"/>
    <tag k="operator:authority" v="Maire de Paris dans le respect des prescriptions prises par le préfet de police"/>
    <tag k="operator:authority:related_law" v="III de l'article L. 2512-14 du code général des collectivités territoriales"/>
    <tag k="sidewalk:left" v="separate"/>
    <tag k="smoothness" v="excellent"/>
    <tag k="source:operator:authority" v="https://www.legifrance.gouv.fr/loda/id/LEGIARTI000035244298/#LEGIARTI000035244298"/>
    <tag k="surface" v="asphalt"/>
    <tag k="zone:traffic" v="FR:urban"/>
  </way>
  <way id="34322393" version="27" timestamp="2024-03-03T20:57:48Z" changeset="148181185" uid="6290466" user="benjamintchik">
    <nd ref="25102265"/>
    <nd ref="6335614053"/>
    <nd ref="247188062"/>
    <nd ref="6335614261"/>
    <nd ref="2344165371"/>
    <nd ref="25101538"/>
    <tag k="highway" v="residential"/>
    <tag k="lit" v="yes"/>
    <tag k="maxspeed" v="30"/>
    <tag k="name" v="Rue du Cardinal Lemoine"/>
    <tag k="name:etymology:wikidata" v="Q721081"/>
    <tag k="oneway" v="yes"/>
    <tag k="oneway:bicycle" v="yes"/>
    <tag k="sidewalk:both" v="separate"/>
    <tag k="source:maxspeed" v="BMO arrêté n°2010-088"/>
    <tag k="source:width" v="ARCore"/>
    <tag k="surface" v="asphalt"/>
    <tag k="width" v="7.1"/>
    <tag k="wikidata" v="Q3452159"/>
    <tag k="wikipedia" v="fr:Rue du Cardinal-Lemoine"/>
    <tag k="zone:maxspeed" v="FR:30"/>
  </way>
  <way id="34322419" version="45" timestamp="2023-11-19T21:08:46Z" changeset="144223289" uid="311391" user="patman37">
    <nd ref="470133"/>
    <nd ref="10918255358"/>
    <nd ref="2988000135"/>
    <nd ref="6287132622"/>
    <nd ref="695200433"/>
    <nd ref="2458001016"/>
    <nd ref="4983572414"/>
    <nd ref="9334087816"/>
    <nd ref="2458001029"/>
    <nd ref="25031228"/>
    <nd ref="2458000987"/>
    <nd ref="2458000916"/>
    <nd ref="25031246"/>
    <nd ref="6150083414"/>
    <nd ref="2458001035"/>
    <nd ref="25031252"/>
    <nd ref="2458000978"/>
    <nd ref="6291071011"/>
    <nd ref="25032939"/>
    <nd ref="2458000938"/>
    <nd ref="4983572415"/>
    <nd ref="11037655816"/>
    <nd ref="361060"/>
    <tag k="busway:left" v="lane"/>
    <tag k="cycleway:left" v="share_busway"/>
    <tag k="cycleway:right" v="no"/>
    <tag k="highway" v="tertiary"/>
    <tag k="lanes" v="3"/>
    <tag k="lanes:backward" v="2"/>
    <tag k="lanes:forward" v="1"/>
    <tag k="lit" v="yes"/>
    <tag k="maxspeed" v="30"/>
    <tag k="maxspeed:type" v="sign"/>
    <tag k="name" v="Rue des Écoles"/>
    <tag k="sidewalk" v="separate"/>
    <tag k="smoothness" v="excellent"/>
    <tag k="surface" v="asphalt"/>
  </way>
  <way id="41466669" version="19" timestamp="2025-01-10T08:59:22Z" changeset="161196700" uid="7512839" user="Benoît C MdP">
    <nd ref="368146"/>
    <nd ref="376059076"/>
    <nd ref="256332841"/>
    <nd ref="9831316302"/>
    <nd ref="507255428"/>
    <tag k="bicycle:backward" v="use_sidepath"/>
    <tag k="cycleway:left" v="no"/>
    <tag k="cycleway:right" v="separate"/>
    <tag k="enforcement:operator" v="Police nationale"/>
    <tag k="highway" v="primary"/>
    <tag k="lanes" v="2"/>
    <tag k="lit" v="yes"/>
    <tag k="maxspeed" v="30"/>
    <tag k="name" v="Quai de la Tournelle"/>
    <tag k="name:etymology:wikidata" v="Q3053741"/>
    <tag k="oneway" v="yes"/>
    <tag k="operator" v="Ville de Paris"/>
    <tag k="operator:authority" v="Maire de Paris dans le respect des prescriptions prises par le préfet de police"/>
    <tag k="operator:authority:related_law" v="III de l'article L. 2512-14 du code général des collectivités territoriales"/>
    <tag k="smoothness" v="excellent"/>
    <tag k="source:operator:authority" v="https://www.legifrance.gouv.fr/loda/id/LEGIARTI000035244298/#LEGIARTI000035244298"/>
    <tag k="surface" v="asphalt"/>
    <tag k="zone:traffic" v="FR:urban"/>
  </way>
  <way id="41467248" version="15" timestamp="2024-05-13T01:43:40Z" changeset="151245656" uid="2678738" user="fgouget">
    <nd ref="245535448"/>
    <nd ref="9939718711"/>
    <nd ref="25101538"/>
    <tag k="cycleway:both" v="no"/>
    <tag k="highway" v="tertiary"/>
    <tag k="lanes" v="4"/>
    <tag k="lanes:backward" v="1"/>
    <tag k="lanes:forward" v="3"/>
    <tag k="lit" v="yes"/>
    <tag k="maxspeed" v="30"/>
    <tag k="maxspeed:type" v="sign"/>
    <tag k="name" v="Rue Jussieu"/>
    <tag k="name:etymology:wikidata" v="Q223963"/>
    <tag k="sidewalk:left" v="no"/>
    <tag k="sidewalk:right" v="separate"/>
    <tag k="surface" v="asphalt"/>
    <tag k="turn:lanes:forward" v="left|through|through"/>
  </way>
  <way id="42315847" version="4" timestamp="2024-05-25T14:34:57Z" changeset="151814596" uid="5670825" user="Christophe Raverdy">
    <nd ref="528073022"/>
    <nd ref="528073039"/>
    <nd ref="528073030"/>
    <nd ref="528073028"/>
    <nd ref="528073024"/>
    <nd ref="528073026"/>
    <nd ref="528073037"/>
    <nd ref="528073034"/>
    <nd ref="528073047"/>
    <nd ref="528073061"/>
    <nd ref="528073059"/>
    <nd ref="528073057"/>
    <nd ref="528073051"/>
    <nd ref="528073054"/>
    <nd ref="528073008"/>
    <nd ref="707655984"/>
    <nd ref="528073001"/>
    <nd ref="528073007"/>
    <nd ref="528073003"/>
    <nd ref="528073049"/>
    <nd ref="528073017"/>
    <nd ref="528073022"/>
    <tag k="building" v="apartments"/>
    <tag k="name" v="Salle Jussieu"/>
    <tag k="source" v="cadastre-dgi-fr source : Direction Générale des Impôts - Cadastre ; mise à jour : 2009"/>
    <tag k="source:name" v="survey"/>
  </way>
  <way id="42315864" version="4" timestamp="2024-05-25T14:38:08Z" changeset="151814596" uid="5670825" user="Christophe Raverdy">
    <nd ref="528073135"/>
    <nd ref="528073171"/>
    <nd ref="528073168"/>
    <nd ref="528073165"/>
    <nd ref="528073143"/>
    <nd ref="528073145"/>
    <nd ref="528073141"/>
    <nd ref="528073135"/>
    <tag k="addr:housenumber" v="5"/>
    <tag k="addr:street" v="Place Jussieu"/>
    <tag k="building" v="apartments"/>
    <tag k="building:levels" v="7"/>
    <tag k="source" v="cadastre-dgi-fr source : Direction Générale des Impôts - Cadastre ; mise à jour : 2009"/>
  </way>
  <way id="42315865" version="4" timestamp="2024-05-25T14:37:58Z" changeset="151814596" uid="5670825" user="Christophe Raverdy">
    <nd ref="528073165"/>
    <nd ref="707655899"/>
    <nd ref="528073161"/>
    <nd ref="528073352"/>
    <nd ref="528073321"/>
    <nd ref="528073324"/>
    <nd ref="528073318"/>
    <nd ref="528073326"/>
    <nd ref="528073149"/>
    <nd ref="528073151"/>
    <nd ref="528073328"/>
    <nd ref="528073330"/>
    <nd ref="528073174"/>
    <nd ref="528073153"/>
    <nd ref="528073155"/>
    <nd ref="528073157"/>
    <nd ref="528073143"/>
    <nd ref="528073165"/>
    <tag k="addr:housenumber" v="3"/>
    <tag k="addr:street" v="Place Jussieu"/>
    <tag k="building" v="apartments"/>
    <tag k="source" v="cadastre-dgi-fr source : Direction Générale des Impôts - Cadastre ; mise à jour : 2009"/>
  </way>
  <way id="42332550" version="4" timestamp="2022-05-13T08:47:47Z" changeset="120923420" uid="536563" user="BARO">
    <nd ref="528460989"/>
    <nd ref="528460993"/>
    <nd ref="528460995"/>
    <nd ref="528460997"/>
    <nd ref="528460989"/>
    <tag k="building" v="yes"/>
    <tag k="building:levels" v="1"/>
    <tag k="name" v="Sous-Station RATP (Métro ligne 10)"/>
    <tag k="source" v="cadastre-dgi-fr source : Direction Générale des Impôts - Cadastre;mise à jour : 2009"/>
  </way>
  <way id="42332552" version="6" timestamp="2024-05-25T14:34:26Z" changeset="151814626" uid="5670825" user="Christophe Raverdy">
    <nd ref="528460812"/>
    <nd ref="977194775"/>
    <nd ref="528460814"/>
    <nd ref="528460816"/>
    <nd ref="528460819"/>
    <nd ref="528459646"/>
    <nd ref="707655737"/>
    <nd ref="528460822"/>
    <nd ref="528460825"/>
    <nd ref="707655891"/>
    <nd ref="707655846"/>
    <nd ref="528460812"/>
    <tag k="amenity" v="college"/>
    <tag k="building" v="yes"/>
    <tag k="building:levels" v="5"/>
    <tag k="check_date" v="2024-05-25"/>
    <tag k="name" v="Maison des Sciences de Gestion"/>
    <tag k="source" v="cadastre-dgi-fr source : Direction Générale des Impôts - Cadastre ; mise à jour : 2009"/>
    <tag k="source:name" v="survey"/>
  </way>
  <way id="42332556" version="7" timestamp="2025-03-22T11:22:52Z" changeset="163942580" uid="18531595" user="esmenard">
    <nd ref="528461409"/>
    <nd ref="528461453"/>
    <nd ref="528461457"/>
    <nd ref="528461412"/>
    <nd ref="528461409"/>
    <tag k="building" v="yes"/>
    <tag k="building:levels" v="1"/>
    <tag k="leisure" v="sports_centre"/>
    <tag k="name" v="Gymnase"/>
    <tag k="roof:shape" v="flat"/>
    <tag k="source" v="cadastre-dgi-fr source : Direction Générale des Impôts - Cadastre. Mise à jour : 2009"/>
  </way>
  <way id="42741410" version="6" timestamp="2015-01-12T23:15:50Z" changeset="28100197" uid="194751" user="Goffredo">
    <nd ref="528460933"/>
    <nd ref="528460970"/>
    <nd ref="528460930"/>
    <nd ref="528460922"/>
    <nd ref="528460898"/>
    <nd ref="528460986"/>
    <nd ref="528460980"/>
    <nd ref="257400918"/>
    <nd ref="528460933"/>
    <tag k="building" v="yes"/>
    <tag k="building:levels" v="5"/>
    <tag k="height" v="21"/>
    <tag k="min_height" v="6"/>
    <tag k="name" v="Institut Jean le Rond d'Alembert"/>
    <tag k="roof:shape" v="flat"/>
    <tag k="source" v="cadastre-dgi-fr source : Direction Générale des Impôts - Cadastre. Mise à jour : 2009"/>
  </way>
  <way id="42741419" version="9" timestamp="2021-11-08T15:16:40Z" changeset="113526822" uid="12433139" user="Bluetako42">
    <nd ref="534455822"/>
    <nd ref="698454674"/>
    <nd ref="8482173666"/>
    <nd ref="8482173665"/>
    <nd ref="698454676"/>
    <nd ref="257400912"/>
    <nd ref="698454858"/>
    <nd ref="698454854"/>
    <nd ref="698454585"/>
    <nd ref="698454587"/>
    <nd ref="534455822"/>
    <tag k="building" v="university"/>
    <tag k="building:levels" v="5"/>
    <tag k="height" v="21"/>
    <tag k="min_height" v="6"/>
    <tag k="name" v="iEES Paris"/>
    <tag k="roof:shape" v="flat"/>
    <tag k="source" v="cadastre-dgi-fr source : Direction Générale des Impôts - Cadastre. Mise à jour : 2009"/>
  </way>
  <way id="42741427" version="11" timestamp="2021-11-08T07:16:48Z" changeset="113507943" uid="12433139" user="Bluetako42">
    <nd ref="257400922"/>
    <nd ref="528461006"/>
    <nd ref="698454851"/>
    <nd ref="257400920"/>
    <nd ref="528461013"/>
    <nd ref="698454849"/>
    <nd ref="528461009"/>
    <nd ref="257400919"/>
    <nd ref="528461001"/>
    <nd ref="6918809654"/>
    <nd ref="6918809653"/>
    <nd ref="534741555"/>
    <nd ref="9209622539"/>
    <nd ref="534741559"/>
    <nd ref="534741558"/>
    <nd ref="6917923776"/>
    <nd ref="534741556"/>
    <nd ref="534455825"/>
    <nd ref="257400924"/>
    <nd ref="6917923777"/>
    <nd ref="528461365"/>
    <nd ref="6918809624"/>
    <nd ref="257400923"/>
    <nd ref="528461351"/>
    <nd ref="528461362"/>
    <nd ref="528461358"/>
    <nd ref="528461355"/>
    <nd ref="257400922"/>
    <tag k="building" v="university"/>
    <tag k="building:levels" v="8"/>
    <tag k="name" v="Batiment Atrium - CFA"/>
    <tag k="roof:shape" v="flat"/>
    <tag k="source" v="cadastre-dgi-fr source : Direction Générale des Impôts - Cadastre. Mise à jour : 2009"/>
  </way>
  <way id="42741440" version="12" timestamp="2021-03-25T22:26:38Z" changeset="101746091" uid="145231" user="woodpeck_repair">
    <nd ref="257400907"/>
    <nd ref="698454590"/>
    <nd ref="534455845"/>
    <nd ref="257400909"/>
    <nd ref="698454614"/>
    <nd ref="3285011691"/>
    <nd ref="257400908"/>
    <nd ref="698454605"/>
    <nd ref="698454537"/>
    <nd ref="257400907"/>
    <tag k="building" v="university"/>
    <tag k="building:levels" v="5"/>
    <tag k="height" v="21"/>
    <tag k="min_height" v="6"/>
    <tag k="name" v="LIP6"/>
    <tag k="roof:shape" v="flat"/>
    <tag k="source" v="cadastre-dgi-fr source : Direction Générale des Impôts - Cadastre. Mise à jour : 2009"/>
  </way>
  <way id="42741458" version="11" timestamp="2021-01-18T13:47:13Z" changeset="97702594" uid="11631382" user="André Nasturas">
    <nd ref="698454601"/>
    <nd ref="534455848"/>
    <nd ref="698454595"/>
    <nd ref="698454532"/>
    <nd ref="534455850"/>
    <nd ref="257401136"/>
    <nd ref="698454621"/>
    <nd ref="698454599"/>
    <nd ref="698454601"/>
    <tag k="building" v="university"/>
    <tag k="building:levels" v="5"/>
    <tag k="height" v="21"/>
    <tag k="min_height" v="6"/>
    <tag k="name" v="Laboratoire de Probabilités, Statistique et Modélisation"/>
    <tag k="roof:shape" v="flat"/>
    <tag k="short_name" v="LPSM"/>
    <tag k="website" v="https://www.lpsm.paris/"/>
  </way>
  <way id="43020657" version="14" timestamp="2023-07-10T16:06:49Z" changeset="138344449" uid="19622282" user="Etiennemapper5362">
    <nd ref="25033096"/>
    <nd ref="3664329529"/>
    <nd ref="11037655780"/>
    <nd ref="538919293"/>
    <tag k="highway" v="residential"/>
    <tag k="maxspeed" v="30"/>
    <tag k="name" v="Rue Jacques-Henri Lartigue"/>
    <tag k="note" v="erreur sur le cadastre, il n'y a pas de S à Lartigue"/>
    <tag k="old_name" v="Rue Alfred Cornu"/>
    <tag k="source" v="cadastre-dgi-fr source : Direction Générale des Impôts - Cadastre. Mise à jour : 2009"/>
    <tag k="source:maxspeed" v="BMO arrêté n°2015P0159"/>
    <tag k="source:name" v="wikipedia"/>
    <tag k="surface" v="sett"/>
    <tag k="zone:maxspeed" v="FR:30"/>
  </way>
  <way id="43020660" version="16" timestamp="2025-01-12T22:32:55Z" changeset="161289938" uid="4346095" user="jerome92370">
    <nd ref="538919379"/>
    <nd ref="12496971595"/>
    <nd ref="715339237"/>
    <nd ref="715339234"/>
    <nd ref="538919381"/>
    <nd ref="715339240"/>
    <nd ref="538919285"/>
    <nd ref="538919287"/>
    <nd ref="538919289"/>
    <nd ref="715339196"/>
    <nd ref="11030381706"/>
    <nd ref="538919281"/>
    <nd ref="538919299"/>
    <nd ref="538919377"/>
    <nd ref="538919723"/>
    <nd ref="538919724"/>
    <nd ref="538919727"/>
    <nd ref="538919379"/>
    <tag k="addr:city" v="Paris"/>
    <tag k="addr:country" v="FR"/>
    <tag k="addr:full" v="48-50 rue Cardinal Lemoine 75005 Paris"/>
    <tag k="addr:housenumber" v="48-50"/>
    <tag k="addr:postcode" v="75005"/>
    <tag k="addr:street" v="Rue du Cardinal Lemoine"/>
    <tag k="amenity" v="fire_station"/>
    <tag k="building" v="yes"/>
    <tag k="building:levels" v="7"/>
    <tag k="emergency:phone" v="+33 1 43 54 41 64"/>
    <tag k="name" v="Centre de secours Poissy"/>
    <tag k="official_name" v="POISSY"/>
    <tag k="operator" v="BSPP"/>
    <tag k="operator:en" v="Paris Fire Brigade"/>
    <tag k="operator:fr" v="BSPP"/>
    <tag k="operator:wikidata" v="Q583422"/>
    <tag k="operator:wikipedia" v="fr:Brigade de sapeurs-pompiers de Paris"/>
    <tag k="phone" v="+33 1 43 54 26 15"/>
    <tag k="ref" v="POIS"/>
    <tag k="ref:FR:BSPP:CIE" v="2"/>
    <tag k="ref:FR:BSPP:EM_GRPT" v="0"/>
    <tag k="ref:FR:BSPP:GRPT" v="2"/>
    <tag k="ref:FR:BSPP:PC_CIE" v="0"/>
    <tag k="source" v="cadastre-dgi-fr source : Direction Générale des Impôts - Cadastre;mise à jour : 2009"/>
    <tag k="source:BSPP" v="data.gouv.fr"/>
    <tag k="wikidata" v="Q28445249"/>
  </way>
  <way id="43020667" version="8" timestamp="2019-03-08T07:48:00Z" changeset="67912580" uid="57126" user="yxoc">
    <nd ref="538920338"/>
    <nd ref="538920341"/>
    <nd ref="538920344"/>
    <nd ref="538920346"/>
    <nd ref="538920348"/>
    <nd ref="538920468"/>
    <nd ref="538920384"/>
    <nd ref="538920351"/>
    <nd ref="538920353"/>
    <nd ref="538920332"/>
    <nd ref="538920356"/>
    <nd ref="538920335"/>
    <nd ref="538920338"/>
    <tag k="building" v="yes"/>
    <tag k="building:levels" v="3"/>
    <tag k="heritage" v="3"/>
    <tag k="heritage:operator" v="mhs"/>
    <tag k="mhs:inscription_date" v="1955-02-01"/>
    <tag k="name" v="Hôtel Lebrun"/>
    <tag k="ref:mhs" v="PA00088432"/>
    <tag k="source" v="cadastre-dgi-fr source : Direction Générale des Impôts - Cadastre ; mise à jour : 2009"/>
    <tag k="source:heritage" v="Ministère de la Culture - 07/2018"/>
    <tag k="tourism" v="attraction"/>
    <tag k="wikidata" v="Q22924419"/>
    <tag k="wikipedia" v="fr:Hôtel Le Brun"/>
  </way>
  <way id="43020742" version="18" timestamp="2023-08-09T07:32:42Z" changeset="139643366" uid="3199858" user="Mateusz Konieczny - bot account">
    <nd ref="538919384"/>
    <nd ref="538919399"/>
    <nd ref="538919401"/>
    <nd ref="538919403"/>
    <nd ref="538919425"/>
    <nd ref="538919427"/>
    <nd ref="538919420"/>
    <nd ref="538919383"/>
    <nd ref="708414542"/>
    <nd ref="538919384"/>
    <tag k="alt_name" v="Bières Cultes Cardinal"/>
    <tag k="brewery" v="brewdog"/>
    <tag k="building" v="retail"/>
    <tag k="building:levels" v="7"/>
    <tag k="name" v="Bières Cultes"/>
    <tag k="opening_hours" v="Tu-Th 15:00-20:30; Fr,Sa 11:00-14:00,15:30-21:30"/>
    <tag k="shop" v="beverages"/>
    <tag k="source" v="cadastre-dgi-fr source : Direction Générale des Impôts - Cadastre ; mise à jour : 2009"/>
  </way>
  <way id="43877261" version="23" timestamp="2024-09-02T16:02:59Z" changeset="156105810" uid="5670825" user="Christophe Raverdy">
    <nd ref="602294094"/>
    <nd ref="602294091"/>
    <nd ref="602294092"/>
    <nd ref="540666833"/>
    <nd ref="602294090"/>
    <nd ref="602294100"/>
    <nd ref="602294101"/>
    <nd ref="540666834"/>
    <nd ref="602294099"/>
    <nd ref="9675535347"/>
    <nd ref="9675535349"/>
    <nd ref="9675535348"/>
    <nd ref="602294096"/>
    <nd ref="602294097"/>
    <nd ref="9675535345"/>
    <nd ref="9675535346"/>
    <nd ref="602294095"/>
    <nd ref="540666835"/>
    <nd ref="9675535343"/>
    <nd ref="9675535344"/>
    <nd ref="540666836"/>
    <nd ref="540666837"/>
    <nd ref="540666838"/>
    <nd ref="9675535342"/>
    <nd ref="602294089"/>
    <nd ref="247712696"/>
    <nd ref="9675535341"/>
    <nd ref="602294085"/>
    <nd ref="602294083"/>
    <nd ref="540666839"/>
    <nd ref="9675535338"/>
    <nd ref="9675535340"/>
    <nd ref="9675535339"/>
    <nd ref="602294086"/>
    <nd ref="540666840"/>
    <nd ref="602294088"/>
    <nd ref="9675535337"/>
    <nd ref="602294087"/>
    <nd ref="540666832"/>
    <nd ref="602294106"/>
    <nd ref="602294105"/>
    <nd ref="602294104"/>
    <nd ref="602294103"/>
    <nd ref="602294102"/>
    <nd ref="602294108"/>
    <nd ref="557386707"/>
    <nd ref="697405423"/>
    <nd ref="697405424"/>
    <nd ref="697405425"/>
    <nd ref="697405422"/>
    <nd ref="9685319978"/>
    <nd ref="540666865"/>
    <nd ref="602294155"/>
    <nd ref="715475467"/>
    <nd ref="602294154"/>
    <nd ref="602294157"/>
    <nd ref="540666867"/>
    <nd ref="540666868"/>
    <nd ref="540666869"/>
    <nd ref="602294164"/>
    <nd ref="602294165"/>
    <nd ref="602294166"/>
    <nd ref="540666870"/>
    <nd ref="602294163"/>
    <nd ref="602294168"/>
    <nd ref="602294167"/>
    <nd ref="540666872"/>
    <nd ref="602294169"/>
    <nd ref="602294186"/>
    <nd ref="540666873"/>
    <nd ref="602294184"/>
    <nd ref="602294183"/>
    <nd ref="602294182"/>
    <nd ref="540666874"/>
    <nd ref="602294171"/>
    <nd ref="602294176"/>
    <nd ref="602294172"/>
    <nd ref="602294174"/>
    <nd ref="602294173"/>
    <nd ref="540666875"/>
    <nd ref="602294178"/>
    <nd ref="602294179"/>
    <nd ref="602294180"/>
    <nd ref="540666876"/>
    <nd ref="602294128"/>
    <nd ref="602294127"/>
    <nd ref="602294122"/>
    <nd ref="602294125"/>
    <nd ref="9675535350"/>
    <nd ref="540666845"/>
    <nd ref="602294094"/>
    <tag k="addr:city" v="Paris"/>
    <tag k="addr:housenumber" v="23"/>
    <tag k="addr:postcode" v="75005"/>
    <tag k="addr:street" v="Rue des Bernardins"/>
    <tag k="alt_name" v="Saint-Nicoas-du-Chardonnet"/>
    <tag k="amenity" v="place_of_worship"/>
    <tag k="building" v="church"/>
    <tag k="building:levels" v="4"/>
    <tag k="check_date" v="2024-09-02"/>
    <tag k="denomination" v="roman_catholic"/>
    <tag k="email" v="stnicolasduchardon@free.fr;75p.parisstnicolas@fsspx.fr"/>
    <tag k="fax" v="+33 9 56 05 57 64"/>
    <tag k="heritage" v="2"/>
    <tag k="heritage:operator" v="mhs"/>
    <tag k="mhs:inscription_date" v="1887-02-10"/>
    <tag k="name" v="Église Saint-Nicolas du Chardonnet"/>
    <tag k="operator" v="FSSPX"/>
    <tag k="phone" v="+33144270790"/>
    <tag k="ref:mhs" v="PA00088418"/>
    <tag k="religion" v="christian"/>
    <tag k="service_times" v="07:45,12:15,18:30; Su,PH 08:00,09:00,10:30,12:15,18:30"/>
    <tag k="source" v="cadastre-dgi-fr source : Direction Générale des Impôts - Cadastre. Mise à jour : 2009"/>
    <tag k="source:heritage" v="data.gouv.fr:Ministère de la culture et de la communication - 05/2016"/>
    <tag k="website" v="https://www.saintnicolasduchardonnet.org/"/>
    <tag k="wheelchair" v="yes"/>
    <tag k="wikidata" v="Q1577630"/>
    <tag k="wikipedia" v="fr:Église Saint-Nicolas-du-Chardonnet"/>
  </way>
  <way id="47273118" version="12" timestamp="2022-11-24T13:11:10Z" changeset="129325177" uid="4346095" user="jerome92370">
    <nd ref="602294786"/>
    <nd ref="602294785"/>
    <nd ref="602294784"/>
    <nd ref="602294479"/>
    <nd ref="602294771"/>
    <nd ref="602294770"/>
    <nd ref="602294769"/>
    <nd ref="602294774"/>
    <nd ref="602294773"/>
    <nd ref="602294775"/>
    <nd ref="715454736"/>
    <nd ref="10214581499"/>
    <nd ref="602294772"/>
    <nd ref="715475679"/>
    <nd ref="602294227"/>
    <nd ref="10214581498"/>
    <nd ref="701822798"/>
    <nd ref="602294501"/>
    <nd ref="602294503"/>
    <nd ref="602294490"/>
    <nd ref="602294485"/>
    <nd ref="602294481"/>
    <nd ref="602294483"/>
    <nd ref="701822804"/>
    <nd ref="602294787"/>
    <nd ref="602294786"/>
    <tag k="addr:housenumber" v="55-57"/>
    <tag k="addr:street" v="Quai de la Tournelle"/>
    <tag k="building" v="yes"/>
    <tag k="heritage" v="3"/>
    <tag k="heritage:operator" v="mhs"/>
    <tag k="mhs:inscription_date" v="1962-10-23"/>
    <tag k="name" v="Hôtel de Nesmond"/>
    <tag k="ref:mhs" v="PA00088435"/>
    <tag k="source" v="cadastre-dgi-fr source : Direction Générale des Impôts - Cadastre. Mise à jour : 2009"/>
    <tag k="source:heritage" v="Ministère de la Culture - 06/2019"/>
    <tag k="wikidata" v="Q3145921"/>
    <tag k="wikipedia" v="fr:Hôtel de Nesmond"/>
  </way>
  <way id="47273133" version="11" timestamp="2024-11-03T22:07:26Z" changeset="158719380" uid="7550430" user="Britzz">
    <nd ref="602294325"/>
    <nd ref="602294331"/>
    <nd ref="602294332"/>
    <nd ref="12310478147"/>
    <nd ref="602294321"/>
    <nd ref="602294322"/>
    <nd ref="602294320"/>
    <nd ref="715454673"/>
    <nd ref="602294335"/>
    <nd ref="602294336"/>
    <nd ref="602294364"/>
    <nd ref="602294365"/>
    <nd ref="602294366"/>
    <nd ref="602294367"/>
    <nd ref="602294343"/>
    <nd ref="602294344"/>
    <nd ref="602294345"/>
    <nd ref="602294346"/>
    <nd ref="602294347"/>
    <nd ref="602294348"/>
    <nd ref="602294349"/>
    <nd ref="602294350"/>
    <nd ref="602294340"/>
    <nd ref="602294342"/>
    <nd ref="602294325"/>
    <tag k="architect" v="Lucien Pollet"/>
    <tag k="building" v="yes"/>
    <tag k="heritage" v="3"/>
    <tag k="heritage:operator" v="mhs"/>
    <tag k="leisure" v="sports_centre"/>
    <tag k="mhs:inscription_date" v="1998-06-19"/>
    <tag k="name" v="Piscine Pontoise"/>
    <tag k="ref:mhs" v="PA75050001"/>
    <tag k="source" v="cadastre-dgi-fr source : Direction Générale des Impôts - Cadastre. Mise à jour : 2009"/>
    <tag k="source:architect" v="survey;data.gouv.fr:Ministère de la culture et de la communication - 05/2016"/>
    <tag k="source:heritage" v="data.gouv.fr:Ministère de la culture et de la communication - 05/2016"/>
    <tag k="sport" v="swimming"/>
    <tag k="start_date" v="1933"/>
    <tag k="wheelchair" v="no"/>
    <tag k="wikidata" v="Q3389221"/>
    <tag k="wikipedia" v="fr:Piscine Pontoise"/>
  </way>
  <way id="55346563" version="6" timestamp="2023-11-03T19:14:55Z" changeset="143588100" uid="9451067" user="b-jazz-bot">
    <nd ref="695200140"/>
    <nd ref="695200181"/>
    <nd ref="695200200"/>
    <nd ref="695200201"/>
    <nd ref="695200190"/>
    <nd ref="695200192"/>
    <nd ref="695200382"/>
    <nd ref="695200383"/>
    <nd ref="695200384"/>
    <nd ref="695200385"/>
    <nd ref="695200386"/>
    <nd ref="695200387"/>
    <nd ref="695200388"/>
    <nd ref="695200390"/>
    <nd ref="695200391"/>
    <nd ref="695200194"/>
    <nd ref="695200195"/>
    <nd ref="695200197"/>
    <nd ref="695200198"/>
    <nd ref="695200187"/>
    <nd ref="695200189"/>
    <nd ref="695200140"/>
    <tag k="building" v="office"/>
    <tag k="building:levels" v="4"/>
    <tag k="name" v="Ministère de l'Enseignement supérieur et de la Recherche"/>
    <tag k="name:de" v="Ministerium für Hochschulwesen und Forschung"/>
    <tag k="office" v="government"/>
    <tag k="old_name" v="École polytechnique"/>
    <tag k="phone" v="+33 1 55 55 90 90"/>
    <tag k="source" v="cadastre-dgi-fr source : Direction Générale des Impôts - Cadastre;mise à jour : 2010"/>
    <tag k="website" v="https://www.enseignementsup-recherche.gouv.fr/"/>
  </way>
  <way id="55350041" version="14" timestamp="2025-05-08T21:44:37Z" changeset="166004276" uid="7550430" user="Britzz">
    <nd ref="695223570"/>
    <nd ref="695223571"/>
    <nd ref="12821214396"/>
    <nd ref="12821214395"/>
    <nd ref="695223580"/>
    <nd ref="695223581"/>
    <nd ref="695223353"/>
    <nd ref="695223647"/>
    <nd ref="695223664"/>
    <nd ref="28109694"/>
    <nd ref="695223660"/>
    <nd ref="695223662"/>
    <nd ref="695223575"/>
    <nd ref="695223576"/>
    <nd ref="1134653623"/>
    <nd ref="1134653579"/>
    <nd ref="695223568"/>
    <nd ref="695223569"/>
    <nd ref="12821214392"/>
    <nd ref="12821214393"/>
    <nd ref="12821214391"/>
    <nd ref="695223570"/>
    <tag k="building" v="college"/>
    <tag k="name" v="Monge"/>
    <tag k="source" v="cadastre-dgi-fr source : Direction Générale des Impôts - Cadastre. Mise à jour : 2010"/>
  </way>
  <way id="55350044" version="4" timestamp="2025-05-08T21:44:37Z" changeset="166004276" uid="7550430" user="Britzz">
    <nd ref="695223574"/>
    <nd ref="12821214391"/>
    <nd ref="12821214393"/>
    <nd ref="12821214392"/>
    <nd ref="1134653517"/>
    <nd ref="1134653571"/>
    <nd ref="28109695"/>
    <nd ref="703619174"/>
    <nd ref="695223681"/>
    <nd ref="695223679"/>
    <nd ref="12821214389"/>
    <nd ref="12821214388"/>
    <nd ref="12821214387"/>
    <nd ref="12821214386"/>
    <nd ref="12821214385"/>
    <nd ref="12821214384"/>
    <nd ref="695223431"/>
    <nd ref="695223470"/>
    <nd ref="695223433"/>
    <nd ref="695223435"/>
    <nd ref="695223436"/>
    <nd ref="695223439"/>
    <nd ref="695223441"/>
    <nd ref="695223443"/>
    <nd ref="695223473"/>
    <nd ref="695223475"/>
    <nd ref="695223477"/>
    <nd ref="695223478"/>
    <nd ref="695223447"/>
    <nd ref="695223448"/>
    <nd ref="695223450"/>
    <nd ref="695223455"/>
    <nd ref="695223460"/>
    <nd ref="695223461"/>
    <nd ref="695223463"/>
    <nd ref="695223467"/>
    <nd ref="695223496"/>
    <nd ref="695223498"/>
    <nd ref="695223483"/>
    <nd ref="695223500"/>
    <nd ref="695223486"/>
    <nd ref="695223489"/>
    <nd ref="695223493"/>
    <nd ref="695223495"/>
    <nd ref="695223504"/>
    <nd ref="695223506"/>
    <nd ref="695223508"/>
    <nd ref="695223510"/>
    <nd ref="695223514"/>
    <nd ref="695223515"/>
    <nd ref="695223519"/>
    <nd ref="695223522"/>
    <nd ref="695223524"/>
    <nd ref="695223534"/>
    <nd ref="695223538"/>
    <nd ref="695223528"/>
    <nd ref="695223530"/>
    <nd ref="695223542"/>
    <nd ref="695223545"/>
    <nd ref="695223548"/>
    <nd ref="695223549"/>
    <nd ref="695223552"/>
    <nd ref="695223554"/>
    <nd ref="695223556"/>
    <nd ref="695223558"/>
    <nd ref="695223560"/>
    <nd ref="695223562"/>
    <nd ref="695223563"/>
    <nd ref="695223573"/>
    <nd ref="695223574"/>
    <tag k="building" v="college"/>
    <tag k="name" v="Langevin"/>
    <tag k="source" v="cadastre-dgi-fr source : Direction Générale des Impôts - Cadastre. Mise à jour : 2010"/>
  </way>
  <way id="55350049" version="7" timestamp="2024-12-04T13:00:55Z" changeset="159918092" uid="20204470" user="Edison lu">
    <nd ref="695223592"/>
    <nd ref="695223593"/>
    <nd ref="695223594"/>
    <nd ref="695223595"/>
    <nd ref="695223596"/>
    <nd ref="695223601"/>
    <nd ref="695223603"/>
    <nd ref="695223654"/>
    <nd ref="695223656"/>
    <nd ref="715356309"/>
    <nd ref="695223644"/>
    <nd ref="695223592"/>
    <tag k="building" v="hotel"/>
    <tag k="building:levels" v="7"/>
    <tag k="check_date" v="2024-11-23"/>
    <tag k="name" v="Henri IV"/>
    <tag k="source" v="cadastre-dgi-fr source : Direction Générale des Impôts - Cadastre. Mise à jour : 2010"/>
    <tag k="stars" v="4"/>
    <tag k="tourism" v="hotel"/>
    <tag k="website" v="https://www.residencehenri4.com"/>
  </way>
  <way id="55356971" version="7" timestamp="2023-03-03T14:10:34Z" changeset="133255938" uid="5758494" user="BrieucP">
    <nd ref="695453331"/>
    <nd ref="695453344"/>
    <nd ref="695453336"/>
    <nd ref="695453348"/>
    <nd ref="695453335"/>
    <nd ref="715356330"/>
    <nd ref="695453332"/>
    <nd ref="695453331"/>
    <tag k="building" v="hotel"/>
    <tag k="building:levels" v="6"/>
    <tag k="name" v="Oratio"/>
    <tag k="noaddress" v="yes"/>
    <tag k="source" v="cadastre-dgi-fr source : Direction Générale des Impôts - Cadastre. Mise à jour : 2010"/>
    <tag k="tourism" v="hotel"/>
    <tag k="website" v="https://www.hoteloratio.com/fr/"/>
  </way>
  <way id="55597738" version="7" timestamp="2024-09-13T07:25:48Z" changeset="156557938" uid="5670825" user="Christophe Raverdy">
    <nd ref="698785027"/>
    <nd ref="698785029"/>
    <nd ref="698785030"/>
    <nd ref="698784952"/>
    <nd ref="698784949"/>
    <nd ref="698784948"/>
    <nd ref="698784953"/>
    <nd ref="698784955"/>
    <nd ref="10152630606"/>
    <nd ref="698784911"/>
    <nd ref="698784912"/>
    <nd ref="715339166"/>
    <nd ref="698784914"/>
    <nd ref="698784915"/>
    <nd ref="698784909"/>
    <nd ref="698784893"/>
    <nd ref="698784892"/>
    <nd ref="698784891"/>
    <nd ref="698784902"/>
    <nd ref="698784903"/>
    <nd ref="698784889"/>
    <nd ref="698784939"/>
    <nd ref="698784987"/>
    <nd ref="698784988"/>
    <nd ref="698785021"/>
    <nd ref="698785023"/>
    <nd ref="698785024"/>
    <nd ref="698784932"/>
    <nd ref="698784933"/>
    <nd ref="698784935"/>
    <nd ref="698784936"/>
    <nd ref="698784938"/>
    <nd ref="698784916"/>
    <nd ref="698784905"/>
    <nd ref="698784918"/>
    <nd ref="698784940"/>
    <nd ref="698784942"/>
    <nd ref="698784943"/>
    <nd ref="698784944"/>
    <nd ref="698784945"/>
    <nd ref="698785027"/>
    <tag k="building" v="school"/>
    <tag k="name" v="Collège des Écossais"/>
    <tag k="source" v="cadastre-dgi-fr source : Direction Générale des Impôts - Cadastre ; mise à jour : 2010"/>
    <tag k="start_date" v="1665"/>
    <tag k="wikidata" v="Q2983836"/>
    <tag k="wikipedia" v="fr:Collège des Écossais"/>
  </way>
  <way id="55894038" version="6" timestamp="2022-11-24T13:11:10Z" changeset="129325177" uid="4346095" user="jerome92370">
    <nd ref="602294508"/>
    <nd ref="701840057"/>
    <nd ref="701840056"/>
    <nd ref="10214581497"/>
    <nd ref="602294226"/>
    <nd ref="715475646"/>
    <nd ref="602294227"/>
    <nd ref="10214581498"/>
    <nd ref="701822798"/>
    <nd ref="602294499"/>
    <nd ref="602294497"/>
    <nd ref="602294494"/>
    <nd ref="602294505"/>
    <nd ref="602294506"/>
    <nd ref="701840164"/>
    <nd ref="602294508"/>
    <tag k="amenity" v="social_facility"/>
    <tag k="building" v="yes"/>
    <tag k="building:levels" v="5"/>
    <tag k="name" v="Résidence des Bernardins"/>
    <tag k="ref:FR:FINESS" v="750801037"/>
    <tag k="social_facility" v="group_home"/>
    <tag k="social_facility:for" v="senior"/>
    <tag k="source" v="cadastre-dgi-fr source : Direction Générale des Impôts - Cadastre. Mise à jour : 2009"/>
    <tag k="source:ref:FR:FINESS" v="data.gouv.fr:Ministère des Affaires sociales et de la Santé - 2014-05-05"/>
    <tag k="type:FR:FINESS" v="202"/>
    <tag k="wikidata" v="Q112924148"/>
  </way>
  <way id="55894044" version="6" timestamp="2024-12-04T05:00:39Z" changeset="159904199" uid="20204470" user="Edison lu">
    <nd ref="701840025"/>
    <nd ref="701840073"/>
    <nd ref="701840081"/>
    <nd ref="701840002"/>
    <nd ref="701840003"/>
    <nd ref="701840011"/>
    <nd ref="701840012"/>
    <nd ref="701840024"/>
    <nd ref="701840023"/>
    <nd ref="701840021"/>
    <nd ref="701840020"/>
    <nd ref="701840016"/>
    <nd ref="701840017"/>
    <nd ref="701840018"/>
    <nd ref="701839992"/>
    <nd ref="701839993"/>
    <nd ref="715475588"/>
    <nd ref="701840025"/>
    <tag k="addr:city" v="Paris"/>
    <tag k="addr:housenumber" v="9"/>
    <tag k="addr:postcode" v="75005"/>
    <tag k="addr:street" v="Rue des Bernardins"/>
    <tag k="amenity" v="college"/>
    <tag k="building" v="college"/>
    <tag k="fax" v="+33 1 44 32 05 73"/>
    <tag k="internet_access" v="wlan"/>
    <tag k="internet_access:ssid" v="eduroam"/>
    <tag k="name" v="Institut de Linguistique et Phonétique Générales et Appliquées"/>
    <tag k="operator" v="Université Paris 3 Sorbonne Nouvelle"/>
    <tag k="phone" v="+33 1 44 32 05 70"/>
    <tag k="short_name" v="ILPGA"/>
    <tag k="source" v="cadastre-dgi-fr source : Direction Générale des Impôts - Cadastre. Mise à jour : 2009"/>
    <tag k="website" v="http://www.ilpga.univ-paris3.fr/"/>
    <tag k="wheelchair" v="limited"/>
    <tag k="wikidata" v="Q3152041"/>
    <tag k="wikipedia" v="fr:Institut de linguistique et phonétique générales et appliquées"/>
  </way>
  <way id="55931903" version="9" timestamp="2022-07-06T09:13:39Z" changeset="123268039" uid="16312925" user="Leoriem-code">
    <nd ref="702194787"/>
    <nd ref="715386295"/>
    <nd ref="602294415"/>
    <nd ref="702194759"/>
    <nd ref="702194758"/>
    <nd ref="702194757"/>
    <nd ref="702194767"/>
    <nd ref="702194821"/>
    <nd ref="702194819"/>
    <nd ref="702194817"/>
    <nd ref="702194823"/>
    <nd ref="702194825"/>
    <nd ref="702194787"/>
    <tag k="building" v="service"/>
    <tag k="location" v="indoor"/>
    <tag k="name" v="Poste électrique de Cardinal Lemoine"/>
    <tag k="operator" v="Enedis"/>
    <tag k="operator:wikidata" v="Q3587594"/>
    <tag k="power" v="substation"/>
    <tag k="ref:FR:RTE" v="C.LEM"/>
    <tag k="ref:FR:RTE_nom" v="CARDINAL-LEMOINE"/>
    <tag k="ref:RTE:codnat" v="C.LEM"/>
    <tag k="source" v="cadastre-dgi-fr source : Direction Générale des Impôts - Cadastre. Mise à jour : 2009"/>
    <tag k="substation" v="distribution"/>
    <tag k="voltage" v="225000;20000"/>
  </way>
  <way id="55968122" version="16" timestamp="2024-08-24T14:39:47Z" changeset="155700000" uid="974272" user="baprischka">
    <nd ref="538920787"/>
    <nd ref="538920565"/>
    <nd ref="538920567"/>
    <nd ref="538920569"/>
    <nd ref="702496958"/>
    <nd ref="702496950"/>
    <nd ref="702496951"/>
    <nd ref="702496952"/>
    <nd ref="702496953"/>
    <nd ref="702496954"/>
    <nd ref="702496955"/>
    <nd ref="702496959"/>
    <nd ref="702496960"/>
    <nd ref="702496961"/>
    <nd ref="702496962"/>
    <nd ref="702496963"/>
    <nd ref="702496964"/>
    <nd ref="702496965"/>
    <nd ref="702496966"/>
    <nd ref="702496967"/>
    <nd ref="538920787"/>
    <tag k="addr:housenumber" v="45"/>
    <tag k="addr:street" v="Rue Jussieu"/>
    <tag k="building" v="retail"/>
    <tag k="building:levels" v="7"/>
    <tag k="check_date" v="2024-08-24"/>
    <tag k="check_date:opening_hours" v="2023-04-29"/>
    <tag k="name" v="Bü"/>
    <tag k="opening_hours" v="Mo-Sa 10:30-19:30"/>
    <tag k="shop" v="stationery"/>
    <tag k="source" v="cadastre-dgi-fr source : Direction Générale des Impôts - Cadastre. Mise à jour : 2010"/>
    <tag k="wheelchair" v="yes"/>
  </way>
  <way id="66098063" version="31" timestamp="2024-03-16T09:20:32Z" changeset="148722122" uid="6290466" user="benjamintchik">
    <nd ref="361060"/>
    <nd ref="2458000982"/>
    <nd ref="6288229329"/>
    <nd ref="25101533"/>
    <nd ref="5526475257"/>
    <nd ref="25031493"/>
    <tag k="cycleway:left" v="shared_lane"/>
    <tag k="cycleway:left:lane" v="pictogram"/>
    <tag k="cycleway:right" v="lane"/>
    <tag k="cycleway:right:lane" v="exclusive"/>
    <tag k="highway" v="secondary"/>
    <tag k="lanes" v="2"/>
    <tag k="lanes:backward" v="1"/>
    <tag k="lanes:forward" v="1"/>
    <tag k="lit" v="yes"/>
    <tag k="maxspeed" v="30"/>
    <tag k="name" v="Rue Monge"/>
    <tag k="name:etymology:wikidata" v="Q206832"/>
    <tag k="oneway" v="no"/>
    <tag k="sidewalk:both" v="separate"/>
    <tag k="sidewalk:both:surface" v="asphalt"/>
    <tag k="smoothness" v="good"/>
    <tag k="source:maxspeed" v="FR:zone30"/>
    <tag k="surface" v="asphalt"/>
    <tag k="zone:maxspeed" v="FR:30"/>
  </way>
  <way id="72224020" version="16" timestamp="2024-10-27T19:41:58Z" changeset="158428384" uid="53964" user="_Mathieu_">
    <nd ref="25102197"/>
    <nd ref="5526475249"/>
    <nd ref="5526475250"/>
    <nd ref="25102203"/>
    <tag k="cycleway:both" v="no"/>
    <tag k="highway" v="residential"/>
    <tag k="lit" v="yes"/>
    <tag k="maxspeed" v="30"/>
    <tag k="name" v="Rue Cochin"/>
    <tag k="name:etymology:wikidata" v="Q647718"/>
    <tag k="oneway" v="yes"/>
    <tag k="oneway:bicycle" v="no"/>
    <tag k="sidewalk:both" v="separate"/>
    <tag k="sidewalk:both:surface" v="concrete"/>
    <tag k="smoothness" v="good"/>
    <tag k="source:maxspeed" v="BMO arrêté n°2010-088"/>
    <tag k="surface" v="asphalt"/>
    <tag k="width" v="6"/>
    <tag k="zone:maxspeed" v="FR:30"/>
  </way>
  <way id="72240223" version="37" timestamp="2024-10-27T19:41:25Z" changeset="158428384" uid="53964" user="_Mathieu_">
    <nd ref="25034464"/>
    <nd ref="5526475266"/>
    <nd ref="9685319940"/>
    <nd ref="6279088269"/>
    <nd ref="368126"/>
    <tag k="cycleway:both" v="no"/>
    <tag k="highway" v="residential"/>
    <tag k="lit" v="yes"/>
    <tag k="maxspeed" v="30"/>
    <tag k="name" v="Rue des Bernardins"/>
    <tag k="name:etymology:wikidata" v="Q960165"/>
    <tag k="name:ru" v="улица Бернадэн"/>
    <tag k="oneway" v="yes"/>
    <tag k="oneway:bicycle" v="no"/>
    <tag k="sidewalk" v="separate"/>
    <tag k="smoothness" v="good"/>
    <tag k="source:maxspeed" v="BMO arrêté n°2010-088"/>
    <tag k="surface" v="asphalt"/>
    <tag k="zone:maxspeed" v="FR:30"/>
  </way>
  <way id="80284524" version="15" timestamp="2024-10-27T16:45:59Z" changeset="158421826" uid="53964" user="_Mathieu_">
    <nd ref="25034333"/>
    <nd ref="4470669828"/>
    <nd ref="6343071285"/>
    <nd ref="25034330"/>
    <tag k="cycleway:both" v="no"/>
    <tag k="highway" v="residential"/>
    <tag k="lit" v="yes"/>
    <tag k="maxspeed" v="30"/>
    <tag k="name" v="Rue de Navarre"/>
    <tag k="name:etymology:wikidata" v="Q1110010"/>
    <tag k="oneway" v="yes"/>
    <tag k="oneway:bicycle" v="no"/>
    <tag k="sidewalk:both" v="separate"/>
    <tag k="sidewalk:both:surface" v="asphalt"/>
    <tag k="smoothness" v="excellent"/>
    <tag k="source:maxspeed" v="BMO arrêté n°2010-085"/>
    <tag k="surface" v="asphalt"/>
    <tag k="zone:maxspeed" v="FR:30"/>
  </way>
  <way id="83976060" version="5" timestamp="2022-02-25T12:21:28Z" changeset="117847323" uid="703542" user="nuitsfauves">
    <nd ref="977194973"/>
    <nd ref="977194704"/>
    <nd ref="977195068"/>
    <nd ref="977194874"/>
    <nd ref="977193637"/>
    <nd ref="977194973"/>
    <tag k="building" v="yes"/>
    <tag k="building:levels" v="1"/>
    <tag k="historic" v="monument"/>
    <tag k="name" v="Laboratoire de Marie Curie"/>
    <tag k="source" v="cadastre-dgi-fr source : Direction Générale des Impôts - Cadastre. Mise à jour : 2010"/>
  </way>
  <way id="85076169" version="21" timestamp="2024-10-27T19:43:40Z" changeset="158428384" uid="53964" user="_Mathieu_">
    <nd ref="507256883"/>
    <nd ref="6291069643"/>
    <nd ref="5926858064"/>
    <nd ref="12083926259"/>
    <nd ref="368146"/>
    <tag k="bicycle:backward" v="use_sidepath"/>
    <tag k="bus:lanes" v="yes|yes|designated"/>
    <tag k="busway:right" v="lane"/>
    <tag k="cycleway:left" v="no"/>
    <tag k="cycleway:right" v="share_busway"/>
    <tag k="enforcement:operator" v="Police nationale"/>
    <tag k="highway" v="primary"/>
    <tag k="lanes" v="3"/>
    <tag k="lit" v="yes"/>
    <tag k="maxspeed" v="30"/>
    <tag k="name" v="Quai Saint-Bernard"/>
    <tag k="name:etymology:wikidata" v="Q188411"/>
    <tag k="oneway" v="yes"/>
    <tag k="operator" v="Ville de Paris"/>
    <tag k="operator:authority" v="Maire de Paris dans le respect des prescriptions prises par le préfet de police"/>
    <tag k="operator:authority:related_law" v="III de l'article L. 2512-14 du code général des collectivités territoriales"/>
    <tag k="psv:lanes" v="yes|yes|designated"/>
    <tag k="smoothness" v="good"/>
    <tag k="source:operator:authority" v="https://www.legifrance.gouv.fr/loda/id/LEGIARTI000035244298/#LEGIARTI000035244298"/>
    <tag k="surface" v="asphalt"/>
    <tag k="taxi:lanes" v="yes|yes|designated"/>
    <tag k="turn:lanes" v="through|through;slight_right|none"/>
    <tag k="zone:traffic" v="FR:urban"/>
  </way>
  <way id="85076173" version="20" timestamp="2024-10-27T19:43:28Z" changeset="158428384" uid="53964" user="_Mathieu_">
    <nd ref="664256922"/>
    <nd ref="5905015281"/>
    <nd ref="6873913666"/>
    <tag k="cycleway:left" v="no"/>
    <tag k="cycleway:right" v="track"/>
    <tag k="highway" v="primary"/>
    <tag k="lanes" v="2"/>
    <tag k="lit" v="yes"/>
    <tag k="maxspeed" v="30"/>
    <tag k="maxspeed:type" v="sign"/>
    <tag k="name" v="Boulevard Saint-Germain"/>
    <tag k="name:etymology:wikidata" v="Q255910"/>
    <tag k="oneway" v="yes"/>
    <tag k="sidewalk:left" v="no"/>
    <tag k="sidewalk:right" v="separate"/>
    <tag k="sidewalk:right:surface" v="concrete"/>
    <tag k="smoothness" v="excellent"/>
    <tag k="surface" v="asphalt"/>
  </way>
  <way id="85076176" version="12" timestamp="2024-07-30T20:35:32Z" changeset="154622921" uid="18570611" user="Juan MAS">
    <nd ref="664256922"/>
    <nd ref="12083926258"/>
    <nd ref="229577582"/>
    <tag k="cycleway:right" v="no"/>
    <tag k="dual_carriageway" v="yes"/>
    <tag k="highway" v="tertiary"/>
    <tag k="lanes" v="2"/>
    <tag k="lit" v="yes"/>
    <tag k="maxspeed" v="30"/>
    <tag k="name" v="Rue des Fossés Saint-Bernard"/>
    <tag k="name:etymology:wikidata" v="Q3398944"/>
    <tag k="oneway" v="yes"/>
    <tag k="smoothness" v="excellent"/>
    <tag k="surface" v="asphalt"/>
  </way>
  <way id="98035808" version="15" timestamp="2024-06-20T19:20:11Z" changeset="152962813" uid="7550430" user="Britzz">
    <nd ref="1134402753"/>
    <nd ref="11997591972"/>
    <nd ref="6601918976"/>
    <tag k="alt_name" v="Rue d'Arras"/>
    <tag k="cycleway:both" v="no"/>
    <tag k="highway" v="residential"/>
    <tag k="lit" v="yes"/>
    <tag k="maxspeed" v="30"/>
    <tag k="name" v="Rue Jacques-Henri Lartigue"/>
    <tag k="note" v="erreur sur le cadastre, il n'y a pas de S à Lartigue"/>
    <tag k="sidewalk:left" v="separate"/>
    <tag k="smoothness" v="good"/>
    <tag k="source" v="cadastre-dgi-fr source : Direction Générale des Impôts - Cadastre. Mise à jour : 2009"/>
    <tag k="source:name" v="wikipedia"/>
    <tag k="surface" v="asphalt"/>
  </way>
  <way id="123332687" version="21" timestamp="2024-10-27T19:43:12Z" changeset="158428384" uid="53964" user="_Mathieu_">
    <nd ref="12100405292"/>
    <nd ref="664256924"/>
    <nd ref="6178786855"/>
    <nd ref="27018629"/>
    <nd ref="229577582"/>
    <tag k="cycleway:left" v="no"/>
    <tag k="cycleway:right" v="lane"/>
    <tag k="cycleway:right:lane" v="exclusive"/>
    <tag k="highway" v="primary"/>
    <tag k="lanes" v="2"/>
    <tag k="lit" v="yes"/>
    <tag k="maxspeed" v="30"/>
    <tag k="name" v="Boulevard Saint-Germain"/>
    <tag k="name:etymology:wikidata" v="Q255910"/>
    <tag k="oneway" v="yes"/>
    <tag k="sidewalk:left" v="separate"/>
    <tag k="sidewalk:left:surface" v="asphalt"/>
    <tag k="sidewalk:right" v="no"/>
    <tag k="smoothness" v="excellent"/>
    <tag k="surface" v="asphalt"/>
  </way>
  <way id="170206131" version="7" timestamp="2023-04-03T17:01:28Z" changeset="134463626" uid="536563" user="BARO">
    <nd ref="1813629171"/>
    <nd ref="3094898286"/>
    <nd ref="1813629189"/>
    <nd ref="1813629193"/>
    <nd ref="1813629201"/>
    <nd ref="3094898284"/>
    <nd ref="1813629239"/>
    <nd ref="1813629204"/>
    <nd ref="10782281546"/>
    <nd ref="1813629206"/>
    <nd ref="3094898283"/>
    <nd ref="1813629194"/>
    <nd ref="1813629183"/>
    <nd ref="1813629234"/>
    <nd ref="1813629276"/>
    <nd ref="1813629205"/>
    <nd ref="1813629287"/>
    <nd ref="3094898285"/>
    <nd ref="1813629213"/>
    <nd ref="1813629269"/>
    <nd ref="1813629250"/>
    <nd ref="1813629272"/>
    <nd ref="1813629171"/>
    <tag k="building" v="yes"/>
    <tag k="building:levels" v="1"/>
    <tag k="height" v="20"/>
    <tag k="name" v="Le Tipi (Espace culturel)"/>
    <tag k="roof:height" v="20"/>
    <tag k="roof:shape" v="pyramidal"/>
  </way>
  <way id="192217200" version="14" timestamp="2024-06-06T14:58:32Z" changeset="152336602" uid="311391" user="patman37">
    <nd ref="664256921"/>
    <nd ref="6178786853"/>
    <nd ref="25101543"/>
    <tag k="cycleway:right" v="no"/>
    <tag k="dual_carriageway" v="yes"/>
    <tag k="highway" v="tertiary"/>
    <tag k="lanes" v="2"/>
    <tag k="lit" v="yes"/>
    <tag k="maxspeed" v="30"/>
    <tag k="name" v="Rue des Fossés Saint-Bernard"/>
    <tag k="name:etymology:wikidata" v="Q3398944"/>
    <tag k="oneway" v="yes"/>
    <tag k="sidewalk:both:surface" v="asphalt"/>
    <tag k="sidewalk:left" v="yes"/>
    <tag k="sidewalk:right" v="separate"/>
    <tag k="smoothness" v="excellent"/>
    <tag k="surface" v="asphalt"/>
  </way>
  <way id="192217201" version="16" timestamp="2024-10-27T19:43:30Z" changeset="158428384" uid="53964" user="_Mathieu_">
    <nd ref="664256921"/>
    <nd ref="664256922"/>
    <tag k="cycleway:both" v="no"/>
    <tag k="foot" v="no"/>
    <tag k="highway" v="primary"/>
    <tag k="lanes" v="2"/>
    <tag k="lit" v="yes"/>
    <tag k="maxspeed" v="30"/>
    <tag k="name" v="Boulevard Saint-Germain"/>
    <tag k="name:etymology:wikidata" v="Q255910"/>
    <tag k="oneway" v="yes"/>
    <tag k="shoulder" v="no"/>
    <tag k="sidewalk" v="no"/>
    <tag k="smoothness" v="excellent"/>
    <tag k="surface" v="asphalt"/>
  </way>
  <way id="192222126" version="18" timestamp="2024-10-27T19:43:09Z" changeset="158428384" uid="53964" user="_Mathieu_">
    <nd ref="229577582"/>
    <nd ref="5088842627"/>
    <nd ref="368146"/>
    <tag k="cycleway:left" v="no"/>
    <tag k="cycleway:right" v="lane"/>
    <tag k="cycleway:right:lane" v="exclusive"/>
    <tag k="foot" v="no"/>
    <tag k="highway" v="primary"/>
    <tag k="lanes" v="2"/>
    <tag k="lit" v="yes"/>
    <tag k="maxspeed" v="30"/>
    <tag k="name" v="Boulevard Saint-Germain"/>
    <tag k="name:etymology:wikidata" v="Q255910"/>
    <tag k="oneway" v="yes"/>
    <tag k="sidewalk" v="no"/>
    <tag k="smoothness" v="excellent"/>
    <tag k="surface" v="asphalt"/>
  </way>
  <way id="192222134" version="12" timestamp="2024-06-06T14:58:32Z" changeset="152336602" uid="311391" user="patman37">
    <nd ref="229577582"/>
    <nd ref="507255428"/>
    <tag k="cycleway:right" v="lane"/>
    <tag k="cycleway:right:lane" v="exclusive"/>
    <tag k="dual_carriageway" v="yes"/>
    <tag k="foot" v="yes"/>
    <tag k="highway" v="tertiary"/>
    <tag k="lanes" v="2"/>
    <tag k="lit" v="yes"/>
    <tag k="maxspeed" v="30"/>
    <tag k="name" v="Rue des Fossés Saint-Bernard"/>
    <tag k="name:etymology:wikidata" v="Q3398944"/>
    <tag k="oneway" v="yes"/>
    <tag k="sidewalk" v="no"/>
    <tag k="smoothness" v="good"/>
    <tag k="surface" v="asphalt"/>
  </way>
  <way id="196524388" version="50" timestamp="2024-10-27T19:41:36Z" changeset="158428384" uid="53964" user="_Mathieu_">
    <nd ref="256168041"/>
    <nd ref="25096403"/>
    <nd ref="6291069645"/>
    <nd ref="4886258759"/>
    <nd ref="6279087951"/>
    <nd ref="368126"/>
    <tag k="bicycle:backward" v="use_sidepath"/>
    <tag k="cycleway:left" v="no"/>
    <tag k="cycleway:right" v="separate"/>
    <tag k="enforcement:operator" v="Police nationale"/>
    <tag k="highway" v="primary"/>
    <tag k="lanes" v="2"/>
    <tag k="lit" v="yes"/>
    <tag k="maxspeed" v="30"/>
    <tag k="name" v="Quai de la Tournelle"/>
    <tag k="name:etymology:wikidata" v="Q3053741"/>
    <tag k="name:ru" v="набережная Турнель"/>
    <tag k="oneway" v="yes"/>
    <tag k="operator" v="Ville de Paris"/>
    <tag k="operator:authority" v="Maire de Paris dans le respect des prescriptions prises par le préfet de police"/>
    <tag k="operator:authority:related_law" v="III de l'article L. 2512-14 du code général des collectivités territoriales"/>
    <tag k="sidewalk:both" v="separate"/>
    <tag k="smoothness" v="excellent"/>
    <tag k="source:operator:authority" v="https://www.legifrance.gouv.fr/loda/id/LEGIARTI000035244298/#LEGIARTI000035244298"/>
    <tag k="surface" v="asphalt"/>
    <tag k="zone:traffic" v="FR:urban"/>
  </way>
  <way id="204056332" version="48" timestamp="2024-05-13T01:34:55Z" changeset="151245656" uid="2678738" user="fgouget">
    <nd ref="25034463"/>
    <nd ref="6287132632"/>
    <nd ref="5526475267"/>
    <nd ref="25034464"/>
    <nd ref="5526475264"/>
    <nd ref="247712555"/>
    <nd ref="5526475254"/>
    <nd ref="25034466"/>
    <nd ref="5526475252"/>
    <nd ref="1129921206"/>
    <nd ref="5526475246"/>
    <nd ref="470138"/>
    <nd ref="5526475247"/>
    <nd ref="6291069633"/>
    <nd ref="6178786858"/>
    <nd ref="25034462"/>
    <tag k="cycleway:left" v="no"/>
    <tag k="cycleway:right" v="separate"/>
    <tag k="highway" v="primary"/>
    <tag k="lanes" v="2"/>
    <tag k="lit" v="yes"/>
    <tag k="maxspeed" v="30"/>
    <tag k="maxspeed:type" v="sign"/>
    <tag k="name" v="Boulevard Saint-Germain"/>
    <tag k="name:etymology:wikidata" v="Q255910"/>
    <tag k="name:ru" v="бульвар Сен-Жермен"/>
    <tag k="oneway" v="yes"/>
    <tag k="sidewalk:both:surface" v="concrete"/>
    <tag k="sidewalk:left" v="separate"/>
    <tag k="sidewalk:right" v="yes"/>
    <tag k="smoothness" v="excellent"/>
    <tag k="source" v="cadastre-dgi-fr source : Direction Générale des Impôts - Cadastre. Mise à jour : 2010"/>
    <tag k="surface" v="asphalt"/>
  </way>
  <way id="299269005" version="13" timestamp="2024-10-27T16:46:20Z" changeset="158421826" uid="53964" user="_Mathieu_">
    <nd ref="25103029"/>
    <nd ref="5922655472"/>
    <nd ref="25103068"/>
    <tag k="cycleway:both" v="no"/>
    <tag k="highway" v="residential"/>
    <tag k="lit" v="yes"/>
    <tag k="maxspeed" v="30"/>
    <tag k="name" v="Rue Jussieu"/>
    <tag k="name:etymology:wikidata" v="Q223963"/>
    <tag k="oneway" v="yes"/>
    <tag k="oneway:bicycle" v="no"/>
    <tag k="sidewalk:left" v="yes"/>
    <tag k="sidewalk:right" v="separate"/>
    <tag k="source:maxspeed" v="BMO arrêté n°2014P0459"/>
    <tag k="surface" v="asphalt"/>
    <tag k="zone:maxspeed" v="FR:30"/>
  </way>
  <way id="299269006" version="13" timestamp="2024-10-27T16:46:27Z" changeset="158421826" uid="53964" user="_Mathieu_">
    <nd ref="25103029"/>
    <nd ref="5922655474"/>
    <nd ref="530556934"/>
    <nd ref="3032450961"/>
    <nd ref="3095457409"/>
    <nd ref="3095457408"/>
    <nd ref="489837571"/>
    <tag k="cycleway:both" v="no"/>
    <tag k="highway" v="residential"/>
    <tag k="lit" v="yes"/>
    <tag k="maxspeed" v="30"/>
    <tag k="name" v="Rue Jussieu"/>
    <tag k="name:etymology:wikidata" v="Q223963"/>
    <tag k="oneway" v="yes"/>
    <tag k="oneway:bicycle" v="no"/>
    <tag k="sidewalk" v="separate"/>
    <tag k="source:maxspeed" v="BMO arrêté n°2014P0459"/>
    <tag k="surface" v="asphalt"/>
    <tag k="zone:maxspeed" v="FR:30"/>
  </way>
  <way id="313697138" version="16" timestamp="2024-10-27T16:46:02Z" changeset="158421826" uid="53964" user="_Mathieu_">
    <nd ref="489837551"/>
    <nd ref="489837555"/>
    <nd ref="3032445454"/>
    <tag k="cycleway:both" v="no"/>
    <tag k="highway" v="residential"/>
    <tag k="lit" v="yes"/>
    <tag k="maxspeed" v="30"/>
    <tag k="name" v="Rue de Navarre"/>
    <tag k="name:etymology:wikidata" v="Q1110010"/>
    <tag k="oneway" v="yes"/>
    <tag k="oneway:bicycle" v="no"/>
    <tag k="sidewalk:left" v="yes"/>
    <tag k="sidewalk:right" v="separate"/>
    <tag k="smoothness" v="good"/>
    <tag k="source:maxspeed" v="BMO arrêté n°2010-085"/>
    <tag k="surface" v="asphalt"/>
    <tag k="zone:maxspeed" v="FR:30"/>
  </way>
  <way id="321737314" version="2" timestamp="2019-11-04T20:30:03Z" changeset="76612598" uid="10437021" user="slcdgd">
    <nd ref="3285011707"/>
    <nd ref="3285011709"/>
    <nd ref="3285011712"/>
    <nd ref="3091659587"/>
    <nd ref="3285011707"/>
    <tag k="amenity" v="cafe"/>
    <tag k="building" v="yes"/>
    <tag k="building:levels" v="1"/>
    <tag k="height" v="3"/>
    <tag k="name" v="CROUS - Cafétéria Ouest"/>
  </way>
  <way id="362880601" version="40" timestamp="2024-10-27T19:41:09Z" changeset="158428384" uid="53964" user="_Mathieu_">
    <nd ref="368126"/>
    <nd ref="3671214958"/>
    <nd ref="25095803"/>
    <nd ref="212523881"/>
    <tag k="bicycle:backward" v="use_sidepath"/>
    <tag k="cycleway:left" v="no"/>
    <tag k="cycleway:right" v="separate"/>
    <tag k="enforcement:operator" v="Police nationale"/>
    <tag k="highway" v="primary"/>
    <tag k="lanes" v="2"/>
    <tag k="lit" v="yes"/>
    <tag k="maxspeed" v="30"/>
    <tag k="name" v="Quai de la Tournelle"/>
    <tag k="name:etymology:wikidata" v="Q3053741"/>
    <tag k="name:ru" v="набережная Турнель"/>
    <tag k="oneway" v="yes"/>
    <tag k="operator" v="Ville de Paris"/>
    <tag k="operator:authority" v="Maire de Paris dans le respect des prescriptions prises par le préfet de police"/>
    <tag k="operator:authority:related_law" v="III de l'article L. 2512-14 du code général des collectivités territoriales"/>
    <tag k="sidewalk:both" v="separate"/>
    <tag k="smoothness" v="excellent"/>
    <tag k="source:operator:authority" v="https://www.legifrance.gouv.fr/loda/id/LEGIARTI000035244298/#LEGIARTI000035244298"/>
    <tag k="surface" v="asphalt"/>
    <tag k="zone:traffic" v="FR:urban"/>
  </way>
  <way id="426888479" version="8" timestamp="2022-11-23T14:06:16Z" changeset="129284138" uid="172867" user="AmiFritz">
    <nd ref="4261434136"/>
    <nd ref="4261434137"/>
    <nd ref="7984377862"/>
    <nd ref="4261434138"/>
    <nd ref="4261434139"/>
    <nd ref="4261434136"/>
    <tag k="amenity" v="library"/>
    <tag k="building" v="yes"/>
    <tag k="building:levels" v="1"/>
    <tag k="contact:city" v="Paris"/>
    <tag k="contact:housenumber" v="4"/>
    <tag k="contact:phone" v="+33 1 44 27 38 38"/>
    <tag k="contact:postcode" v="75005"/>
    <tag k="contact:street" v="Place Jussieu"/>
    <tag k="contact:website" v="https://www.sorbonne-universite.fr/offre-de-formation/la-bibliotheque-de-sorbonne-universite/decouvrir-nos-bibliotheques/la-15"/>
    <tag k="covered" v="yes"/>
    <tag k="description" v="Bibliothèque universitaire scientifique pluridisciplinaire. Patios 33/54, RDC 4 place Jussieu, 75005 Paris"/>
    <tag k="level" v="-2"/>
    <tag k="location" v="surface"/>
    <tag k="name" v="Bibliothèque des licences"/>
  </way>
  <way id="455759573" version="22" timestamp="2024-11-25T06:36:11Z" changeset="159558890" uid="158826" user="cquest">
    <nd ref="1756717208"/>
    <nd ref="4521175367"/>
    <nd ref="6149991565"/>
    <nd ref="4521175375"/>
    <nd ref="4521175362"/>
    <nd ref="12373016393"/>
    <nd ref="5707891470"/>
    <nd ref="25034435"/>
    <tag k="cycleway:both" v="no"/>
    <tag k="highway" v="tertiary"/>
    <tag k="lanes" v="2"/>
    <tag k="lit" v="yes"/>
    <tag k="maxspeed" v="30"/>
    <tag k="name" v="Rue Linné"/>
    <tag k="name:etymology:wikidata" v="Q1043"/>
    <tag k="oneway" v="no"/>
    <tag k="sidewalk:both" v="separate"/>
    <tag k="surface" v="asphalt"/>
  </way>
  <way id="456259120" version="22" timestamp="2025-02-09T16:45:01Z" changeset="162321532" uid="292353" user="Obny">
    <nd ref="4525367243"/>
    <nd ref="6207199976"/>
    <nd ref="6171195285"/>
    <nd ref="6207199975"/>
    <nd ref="4525367234"/>
    <nd ref="6207199974"/>
    <nd ref="4525367233"/>
    <nd ref="6207199973"/>
    <nd ref="4525367232"/>
    <nd ref="4525367238"/>
    <nd ref="4525367237"/>
    <nd ref="4525367236"/>
    <nd ref="4525367235"/>
    <nd ref="6207204235"/>
    <nd ref="4525367231"/>
    <tag k="bicycle" v="yes"/>
    <tag k="cycleway:both" v="no"/>
    <tag k="highway" v="residential"/>
    <tag k="junction" v="circular"/>
    <tag k="lit" v="yes"/>
    <tag k="maxspeed" v="30"/>
    <tag k="name" v="Place de la Contrescarpe"/>
    <tag k="oneway" v="yes"/>
    <tag k="sidewalk:left" v="yes"/>
    <tag k="sidewalk:left:surface" v="paving_stones"/>
    <tag k="sidewalk:right" v="separate"/>
    <tag k="sidewalk:right:surface" v="asphalt"/>
    <tag k="smoothness" v="bad"/>
    <tag k="source:maxspeed" v="BMO arrêté n°2015P0159"/>
    <tag k="surface" v="sett"/>
    <tag k="width" v="3.5"/>
    <tag k="zone:maxspeed" v="FR:30"/>
  </way>
  <way id="506445446" version="18" timestamp="2024-03-16T09:23:39Z" changeset="148722122" uid="6290466" user="benjamintchik">
    <nd ref="25034323"/>
    <nd ref="11037655767"/>
    <nd ref="6291069637"/>
    <nd ref="3161155001"/>
    <nd ref="25034326"/>
    <nd ref="11037655768"/>
    <nd ref="6140333697"/>
    <nd ref="4844462921"/>
    <nd ref="5681009143"/>
    <nd ref="2344165375"/>
    <nd ref="6288229314"/>
    <nd ref="25034407"/>
    <tag k="cycleway:left" v="lane"/>
    <tag k="cycleway:left:lane" v="exclusive"/>
    <tag k="cycleway:right" v="shared_lane"/>
    <tag k="cycleway:right:lane" v="pictogram"/>
    <tag k="highway" v="secondary"/>
    <tag k="lanes" v="2"/>
    <tag k="lanes:backward" v="1"/>
    <tag k="lanes:forward" v="1"/>
    <tag k="lit" v="yes"/>
    <tag k="maxspeed" v="30"/>
    <tag k="name" v="Rue Monge"/>
    <tag k="name:etymology:wikidata" v="Q206832"/>
    <tag k="sidewalk:both" v="separate"/>
    <tag k="sidewalk:both:surface" v="paving_stones"/>
    <tag k="smoothness" v="excellent"/>
    <tag k="source:maxspeed" v="BMO arrêté n°2015P0159"/>
    <tag k="surface" v="asphalt"/>
    <tag k="zone:maxspeed" v="FR:30"/>
  </way>
  <way id="618750324" version="3" timestamp="2022-12-10T17:50:52Z" changeset="129940923" uid="332493" user="bazgal">
    <nd ref="5848144187"/>
    <nd ref="5848144186"/>
    <nd ref="5848143970"/>
    <nd ref="5848144185"/>
    <nd ref="5848143984"/>
    <nd ref="5848143983"/>
    <nd ref="5848143982"/>
    <nd ref="5848143981"/>
    <nd ref="5848143980"/>
    <nd ref="5848143979"/>
    <nd ref="5848143968"/>
    <nd ref="2809192394"/>
    <nd ref="5848143978"/>
    <nd ref="5848143971"/>
    <nd ref="5848143977"/>
    <nd ref="5848143976"/>
    <nd ref="5848143975"/>
    <nd ref="5848143974"/>
    <nd ref="5848143973"/>
    <nd ref="5848143972"/>
    <nd ref="5848144187"/>
    <tag k="addr:city" v="Paris"/>
    <tag k="addr:housenumber" v="3"/>
    <tag k="addr:postcode" v="75005"/>
    <tag k="addr:street" v="Quai de Montebello"/>
    <tag k="amenity" v="restaurant"/>
    <tag k="building" v="boat"/>
    <tag k="email" v="info@lanouvelleseine.com"/>
    <tag k="name" v="La Nouvelle Seine"/>
    <tag k="opening_hours" v="Tu-Su 12:00-14:15,19:00-23:00"/>
    <tag k="phone" v="+33 1 43 54 08 08"/>
    <tag k="website" v="https://lanouvelleseine.com/"/>
  </way>
  <way id="625397236" version="35" timestamp="2024-05-13T01:35:00Z" changeset="151245656" uid="2678738" user="fgouget">
    <nd ref="470137"/>
    <nd ref="6178786864"/>
    <nd ref="25034463"/>
    <tag k="bicycle" v="yes"/>
    <tag k="busway:right" v="lane"/>
    <tag k="cycleway:left" v="no"/>
    <tag k="cycleway:right" v="share_busway"/>
    <tag k="highway" v="primary"/>
    <tag k="lanes" v="3"/>
    <tag k="lit" v="yes"/>
    <tag k="maxspeed" v="30"/>
    <tag k="maxspeed:type" v="sign"/>
    <tag k="name" v="Boulevard Saint-Germain"/>
    <tag k="name:etymology:wikidata" v="Q255910"/>
    <tag k="name:ru" v="бульвар Сен-Жермен"/>
    <tag k="oneway" v="yes"/>
    <tag k="parking:both" v="no"/>
    <tag k="shoulder" v="no"/>
    <tag k="sidewalk:both:surface" v="asphalt"/>
    <tag k="sidewalk:left" v="separate"/>
    <tag k="sidewalk:right" v="yes"/>
    <tag k="smoothness" v="excellent"/>
    <tag k="source" v="cadastre-dgi-fr source : Direction Générale des Impôts - Cadastre. Mise à jour : 2010"/>
    <tag k="surface" v="asphalt"/>
  </way>
  <way id="671540713" version="33" timestamp="2024-10-27T19:41:17Z" changeset="158428384" uid="53964" user="_Mathieu_">
    <nd ref="212523881"/>
    <nd ref="6150047193"/>
    <nd ref="11780070999"/>
    <nd ref="25096399"/>
    <tag k="cycleway:both" v="no"/>
    <tag k="highway" v="residential"/>
    <tag k="lit" v="yes"/>
    <tag k="maxspeed" v="30"/>
    <tag k="name" v="Rue Maître Albert"/>
    <tag k="name:etymology:wikidata" v="Q60059"/>
    <tag k="name:ru" v="улица Мэтр Альбер"/>
    <tag k="oneway" v="yes"/>
    <tag k="oneway:bicycle" v="no"/>
    <tag k="sidewalk" v="separate"/>
    <tag k="smoothness" v="intermediate"/>
    <tag k="source:maxspeed" v="BMO arrêté n°2010-088"/>
    <tag k="surface" v="paving_stones"/>
    <tag k="zone:maxspeed" v="FR:30"/>
  </way>
  <way id="676755444" version="36" timestamp="2024-10-27T19:41:42Z" changeset="158428384" uid="53964" user="_Mathieu_">
    <nd ref="368145"/>
    <nd ref="659768017"/>
    <nd ref="25096406"/>
    <nd ref="6337189333"/>
    <nd ref="6178786861"/>
    <nd ref="256168041"/>
    <tag k="bicycle:backward" v="use_sidepath"/>
    <tag k="cycleway:left" v="no"/>
    <tag k="cycleway:right" v="separate"/>
    <tag k="enforcement:operator" v="Police nationale"/>
    <tag k="highway" v="primary"/>
    <tag k="lanes" v="2"/>
    <tag k="lit" v="yes"/>
    <tag k="maxspeed" v="30"/>
    <tag k="name" v="Quai de la Tournelle"/>
    <tag k="name:etymology:wikidata" v="Q3053741"/>
    <tag k="name:ru" v="набережная Турнель"/>
    <tag k="oneway" v="yes"/>
    <tag k="operator" v="Ville de Paris"/>
    <tag k="operator:authority" v="Maire de Paris dans le respect des prescriptions prises par le préfet de police"/>
    <tag k="operator:authority:related_law" v="III de l'article L. 2512-14 du code général des collectivités territoriales"/>
    <tag k="sidewalk:both" v="separate"/>
    <tag k="smoothness" v="excellent"/>
    <tag k="source:operator:authority" v="https://www.legifrance.gouv.fr/loda/id/LEGIARTI000035244298/#LEGIARTI000035244298"/>
    <tag k="surface" v="asphalt"/>
    <tag k="zone:traffic" v="FR:urban"/>
  </way>
  <way id="678131748" version="4" timestamp="2025-03-24T22:44:26Z" changeset="164054430" uid="18531595" user="esmenard">
    <nd ref="6349477256"/>
    <nd ref="6349477257"/>
    <nd ref="11254708874"/>
    <nd ref="6349477258"/>
    <nd ref="6349477259"/>
    <nd ref="12697568167"/>
    <nd ref="6349477260"/>
    <nd ref="6349477256"/>
    <tag k="building" v="yes"/>
    <tag k="name" v="Centre d'exploration fonctionnelle"/>
  </way>
  <way id="678136660" version="4" timestamp="2021-03-03T08:54:46Z" changeset="100333410" uid="8577239" user="lunaticstraydog">
    <nd ref="698454859"/>
    <nd ref="698454858"/>
    <nd ref="698454854"/>
    <nd ref="698454585"/>
    <nd ref="698454587"/>
    <nd ref="257402120"/>
    <nd ref="698454588"/>
    <nd ref="698454829"/>
    <nd ref="698454831"/>
    <nd ref="534455823"/>
    <nd ref="698454833"/>
    <nd ref="698454837"/>
    <nd ref="257402122"/>
    <nd ref="698454841"/>
    <nd ref="698454839"/>
    <nd ref="698454856"/>
    <nd ref="698454859"/>
    <tag k="amenity" v="events_venue"/>
    <tag k="building" v="roof"/>
    <tag k="name" v="Centre International de Conférences Sorbonne Université"/>
    <tag k="short_name" v="CICSU"/>
    <tag k="source" v="website"/>
    <tag k="website" v="https://convention.parisinfo.com/professionnel-paris/165947/Centre-International-de-Conferences-Sorbonne-Universites-CICSU"/>
  </way>
  <way id="678151248" version="4" timestamp="2023-10-02T16:35:24Z" changeset="142047778" uid="18335498" user="Boubou0909">
    <nd ref="6349665112"/>
    <nd ref="6349665113"/>
    <nd ref="6349665114"/>
    <nd ref="6349665115"/>
    <nd ref="6367530202"/>
    <nd ref="6349665112"/>
    <tag k="building" v="university"/>
    <tag k="name" v="Bâtiment des basses températures"/>
  </way>
  <way id="678151249" version="2" timestamp="2021-03-18T09:18:12Z" changeset="101244237" uid="8577239" user="lunaticstraydog">
    <nd ref="6349665117"/>
    <nd ref="6349665118"/>
    <nd ref="6349665119"/>
    <nd ref="6349665120"/>
    <nd ref="6349665117"/>
    <tag k="addr:city" v="Paris"/>
    <tag k="addr:housenumber" v="4"/>
    <tag k="addr:postcode" v="75005"/>
    <tag k="addr:street" v="Place Jussieu"/>
    <tag k="amenity" v="library"/>
    <tag k="building" v="yes"/>
    <tag k="covered" v="yes"/>
    <tag k="internet_access" v="wlan"/>
    <tag k="name" v="Bibliothèque Biologie-Chimie-Physique recherche"/>
    <tag k="opening_hours" v="Mo-Fr 09:00-18:00"/>
    <tag k="phone" v="+33144275576"/>
    <tag k="short_name" v="bibliothèque BCPR"/>
    <tag k="website" v="https://www.sorbonne-universite.fr/offre-de-formation/la-bibliotheque-de-sorbonne-universite/decouvrir-nos-bibliotheques/la-8"/>
  </way>
  <way id="678151250" version="2" timestamp="2023-10-02T16:35:39Z" changeset="142047778" uid="18335498" user="Boubou0909">
    <nd ref="6349665121"/>
    <nd ref="6349665122"/>
    <nd ref="6349665123"/>
    <nd ref="6349665124"/>
    <nd ref="6349665125"/>
    <nd ref="6349665126"/>
    <nd ref="6349665127"/>
    <nd ref="6349665128"/>
    <nd ref="6349665121"/>
    <tag k="building" v="university"/>
    <tag k="name" v="Scolarité Sorbonne Université"/>
  </way>
  <way id="678151251" version="3" timestamp="2023-10-02T16:35:41Z" changeset="142047778" uid="18335498" user="Boubou0909">
    <nd ref="6349665129"/>
    <nd ref="6349665130"/>
    <nd ref="6349665131"/>
    <nd ref="6349665132"/>
    <nd ref="6349665133"/>
    <nd ref="6349665134"/>
    <nd ref="6349665135"/>
    <nd ref="6349665136"/>
    <nd ref="6918794203"/>
    <nd ref="6349665129"/>
    <tag k="building" v="university"/>
    <tag k="name" v="Maison de la vie étudiante"/>
  </way>
  <way id="679726040" version="2" timestamp="2023-10-11T09:07:50Z" changeset="142427063" uid="536563" user="BARO">
    <nd ref="6364587189"/>
    <nd ref="6364587190"/>
    <nd ref="6364587191"/>
    <nd ref="6364587192"/>
    <nd ref="6364587193"/>
    <nd ref="6364587194"/>
    <nd ref="6364587195"/>
    <nd ref="6364587196"/>
    <nd ref="6364587189"/>
    <tag k="building" v="yes"/>
    <tag k="name" v="Chaufferie"/>
  </way>
  <way id="685035410" version="9" timestamp="2024-10-27T19:43:00Z" changeset="158428384" uid="53964" user="_Mathieu_">
    <nd ref="507255428"/>
    <nd ref="368147"/>
    <tag k="bicycle:backward" v="use_sidepath"/>
    <tag k="cycleway:left" v="no"/>
    <tag k="cycleway:right" v="separate"/>
    <tag k="enforcement:operator" v="Police nationale"/>
    <tag k="highway" v="primary"/>
    <tag k="lanes" v="2"/>
    <tag k="lit" v="yes"/>
    <tag k="maxspeed" v="30"/>
    <tag k="name" v="Quai de la Tournelle"/>
    <tag k="name:etymology:wikidata" v="Q3053741"/>
    <tag k="oneway" v="yes"/>
    <tag k="operator" v="Ville de Paris"/>
    <tag k="operator:authority" v="Maire de Paris dans le respect des prescriptions prises par le préfet de police"/>
    <tag k="operator:authority:related_law" v="III de l'article L. 2512-14 du code général des collectivités territoriales"/>
    <tag k="smoothness" v="excellent"/>
    <tag k="source:operator:authority" v="https://www.legifrance.gouv.fr/loda/id/LEGIARTI000035244298/#LEGIARTI000035244298"/>
    <tag k="surface" v="asphalt"/>
    <tag k="zone:traffic" v="FR:urban"/>
  </way>
  <way id="690374689" version="16" timestamp="2024-05-13T01:43:43Z" changeset="151245656" uid="2678738" user="fgouget">
    <nd ref="9429648011"/>
    <nd ref="2344165366"/>
    <nd ref="245535448"/>
    <tag k="check_date:smoothness" v="2023-05-21"/>
    <tag k="cycleway:both" v="no"/>
    <tag k="highway" v="tertiary"/>
    <tag k="lanes" v="3"/>
    <tag k="lanes:backward" v="1"/>
    <tag k="lit" v="yes"/>
    <tag k="maxspeed" v="30"/>
    <tag k="name" v="Rue des Fossés Saint-Bernard"/>
    <tag k="name:etymology:wikidata" v="Q3398944"/>
    <tag k="sidewalk:both:surface" v="asphalt"/>
    <tag k="sidewalk:left" v="yes"/>
    <tag k="sidewalk:right" v="separate"/>
    <tag k="smoothness" v="good"/>
    <tag k="surface" v="asphalt"/>
  </way>
  <way id="699904544" version="12" timestamp="2024-08-15T17:22:30Z" changeset="155293930" uid="11963177" user="JeroenvanderGun">
    <nd ref="25101544"/>
    <nd ref="2378562436"/>
    <nd ref="4619069107"/>
    <nd ref="507256883"/>
    <tag k="bus:lanes:forward" v="yes|yes|designated"/>
    <tag k="busway:right" v="lane"/>
    <tag k="cycleway:right" v="share_busway"/>
    <tag k="enforcement:operator" v="Police nationale"/>
    <tag k="highway" v="primary"/>
    <tag k="lanes" v="4"/>
    <tag k="lanes:backward" v="1"/>
    <tag k="lanes:forward" v="3"/>
    <tag k="lit" v="yes"/>
    <tag k="maxspeed" v="30"/>
    <tag k="name" v="Quai Saint-Bernard"/>
    <tag k="name:etymology:wikidata" v="Q188411"/>
    <tag k="operator" v="Ville de Paris"/>
    <tag k="operator:authority" v="Maire de Paris dans le respect des prescriptions prises par le préfet de police"/>
    <tag k="operator:authority:related_law" v="III de l'article L. 2512-14 du code général des collectivités territoriales"/>
    <tag k="psv:lanes:forward" v="yes|yes|designated"/>
    <tag k="sidewalk" v="both"/>
    <tag k="sidewalk:both:surface" v="concrete"/>
    <tag k="smoothness" v="excellent"/>
    <tag k="source:maxspeed" v="sign"/>
    <tag k="source:operator:authority" v="https://www.legifrance.gouv.fr/loda/id/LEGIARTI000035244298/#LEGIARTI000035244298"/>
    <tag k="surface" v="asphalt"/>
    <tag k="taxi:lanes:forward" v="yes|yes|designated"/>
    <tag k="zone:traffic" v="FR:urban"/>
  </way>
  <way id="733960546" version="11" timestamp="2024-10-27T19:43:42Z" changeset="158428384" uid="53964" user="_Mathieu_">
    <nd ref="6873913666"/>
    <nd ref="3809893084"/>
    <nd ref="507256883"/>
    <tag k="cycleway:left" v="no"/>
    <tag k="cycleway:right" v="lane"/>
    <tag k="cycleway:right:lane" v="exclusive"/>
    <tag k="highway" v="primary"/>
    <tag k="lanes" v="1"/>
    <tag k="lit" v="yes"/>
    <tag k="maxspeed" v="30"/>
    <tag k="maxspeed:type" v="sign"/>
    <tag k="name" v="Boulevard Saint-Germain"/>
    <tag k="name:etymology:wikidata" v="Q255910"/>
    <tag k="oneway" v="yes"/>
    <tag k="sidewalk" v="right"/>
    <tag k="sidewalk:right:surface" v="asphalt"/>
    <tag k="smoothness" v="good"/>
    <tag k="surface" v="asphalt"/>
    <tag k="width" v="8"/>
  </way>
  <way id="738375864" version="1" timestamp="2019-10-24T23:36:37Z" changeset="76176970" uid="10409925" user="maperil">
    <nd ref="528460895"/>
    <nd ref="528460889"/>
    <nd ref="257402144"/>
    <nd ref="528460925"/>
    <nd ref="528460953"/>
    <nd ref="528460908"/>
    <nd ref="528460905"/>
    <nd ref="528460911"/>
    <nd ref="528460895"/>
    <tag k="building" v="office"/>
    <tag k="level" v="5"/>
    <tag k="name" v="Maison des Syndicats"/>
    <tag k="office" v="association"/>
    <tag k="opening_hours" v="Mo-Sa 08:00-20:00"/>
    <tag k="short_name" v="MDS"/>
  </way>
  <way id="751317794" version="15" timestamp="2024-11-25T06:24:57Z" changeset="159558677" uid="158826" user="cquest">
    <nd ref="361050"/>
    <nd ref="11037655770"/>
    <nd ref="12373039944"/>
    <nd ref="4827798347"/>
    <nd ref="361059"/>
    <tag k="cycleway:left" v="lane"/>
    <tag k="cycleway:left:lane" v="exclusive"/>
    <tag k="cycleway:right" v="no"/>
    <tag k="highway" v="secondary"/>
    <tag k="lanes" v="2"/>
    <tag k="lanes:backward" v="1"/>
    <tag k="lanes:forward" v="1"/>
    <tag k="lit" v="yes"/>
    <tag k="maxspeed" v="30"/>
    <tag k="name" v="Rue Monge"/>
    <tag k="name:etymology:wikidata" v="Q206832"/>
    <tag k="sidewalk:both" v="separate"/>
    <tag k="sidewalk:both:surface" v="asphalt"/>
    <tag k="smoothness" v="good"/>
    <tag k="surface" v="asphalt"/>
  </way>
  <way id="751317795" version="10" timestamp="2024-03-16T09:20:32Z" changeset="148722122" uid="6290466" user="benjamintchik">
    <nd ref="5526475269"/>
    <nd ref="7847045368"/>
    <tag k="cycleway:both" v="no"/>
    <tag k="highway" v="secondary"/>
    <tag k="lanes" v="2"/>
    <tag k="lanes:backward" v="1"/>
    <tag k="lanes:forward" v="1"/>
    <tag k="lit" v="yes"/>
    <tag k="maxspeed" v="30"/>
    <tag k="name" v="Rue Monge"/>
    <tag k="name:etymology:wikidata" v="Q206832"/>
    <tag k="sidewalk" v="both"/>
    <tag k="smoothness" v="good"/>
    <tag k="surface" v="asphalt"/>
  </way>
  <way id="754579329" version="12" timestamp="2024-11-25T06:24:57Z" changeset="159558677" uid="158826" user="cquest">
    <nd ref="361050"/>
    <nd ref="11037655773"/>
    <nd ref="12373039945"/>
    <nd ref="4621680240"/>
    <nd ref="7049374628"/>
    <tag k="cycleway:both" v="no"/>
    <tag k="highway" v="tertiary"/>
    <tag k="lanes" v="2"/>
    <tag k="lit" v="yes"/>
    <tag k="maxspeed" v="30"/>
    <tag k="maxspeed:type" v="sign"/>
    <tag k="name" v="Rue du Cardinal Lemoine"/>
    <tag k="name:etymology:wikidata" v="Q721081"/>
    <tag k="sidewalk:both" v="separate"/>
    <tag k="sidewalk:both:surface" v="asphalt"/>
    <tag k="smoothness" v="intermediate"/>
    <tag k="surface" v="asphalt"/>
  </way>
  <way id="754579330" version="12" timestamp="2024-08-18T17:29:16Z" changeset="155426601" uid="311391" user="patman37">
    <nd ref="7049374628"/>
    <nd ref="7049374626"/>
    <nd ref="245535448"/>
    <tag k="cycleway:right" v="no"/>
    <tag k="dual_carriageway" v="yes"/>
    <tag k="highway" v="tertiary"/>
    <tag k="lane_markings" v="no"/>
    <tag k="lit" v="yes"/>
    <tag k="maxspeed" v="30"/>
    <tag k="maxspeed:type" v="sign"/>
    <tag k="name" v="Rue du Cardinal Lemoine"/>
    <tag k="name:etymology:wikidata" v="Q721081"/>
    <tag k="oneway" v="yes"/>
    <tag k="sidewalk:left" v="no"/>
    <tag k="sidewalk:right" v="separate"/>
    <tag k="surface" v="asphalt"/>
  </way>
  <way id="791076373" version="9" timestamp="2024-10-12T08:10:08Z" changeset="157783567" uid="2678738" user="fgouget">
    <nd ref="368126"/>
    <nd ref="6220939821"/>
    <tag k="cycleway:left" v="no"/>
    <tag k="cycleway:right" v="no"/>
    <tag k="highway" v="residential"/>
    <tag k="lit" v="yes"/>
    <tag k="maxspeed" v="30"/>
    <tag k="name" v="Pont de l'Archevêché"/>
    <tag k="name:etymology:wikidata" v="Q1242250"/>
    <tag k="oneway" v="yes"/>
    <tag k="oneway:bicycle" v="no"/>
    <tag k="sidewalk:both" v="separate"/>
    <tag k="sidewalk:both:surface" v="asphalt"/>
    <tag k="surface" v="asphalt"/>
  </way>
  <way id="847108038" version="7" timestamp="2024-03-03T20:57:48Z" changeset="148181185" uid="6290466" user="benjamintchik">
    <nd ref="25034462"/>
    <nd ref="6178786859"/>
    <nd ref="25102265"/>
    <tag k="highway" v="residential"/>
    <tag k="lit" v="yes"/>
    <tag k="maxspeed" v="30"/>
    <tag k="name" v="Rue du Cardinal Lemoine"/>
    <tag k="name:etymology:wikidata" v="Q721081"/>
    <tag k="oneway" v="yes"/>
    <tag k="oneway:bicycle" v="yes"/>
    <tag k="sidewalk:both" v="separate"/>
    <tag k="smoothness" v="excellent"/>
    <tag k="source:maxspeed" v="BMO arrêté n°2010-088"/>
    <tag k="surface" v="asphalt"/>
    <tag k="zone:maxspeed" v="FR:30"/>
  </way>
  <way id="913102975" version="3" timestamp="2021-12-15T15:48:31Z" changeset="114969923" uid="8577239" user="lunaticstraydog">
    <nd ref="8482173658"/>
    <nd ref="8482173657"/>
    <nd ref="8482173656"/>
    <nd ref="8482173655"/>
    <nd ref="8482173658"/>
    <tag k="addr:city" v="Paris"/>
    <tag k="addr:housenumber" v="4"/>
    <tag k="addr:postcode" v="75005"/>
    <tag k="addr:street" v="Place Jussieu"/>
    <tag k="amenity" v="library"/>
    <tag k="building" v="yes"/>
    <tag k="building:levels" v="1"/>
    <tag k="covered" v="yes"/>
    <tag k="description" v="Bibliothèque universitaire scientifique pluridisciplinaire. Atrium , RDC 4 place Jussieu, 75005 Paris"/>
    <tag k="level" v="-1"/>
    <tag k="location" v="surface"/>
    <tag k="name" v="Bibliothèque de l'atrium"/>
    <tag k="opening_hours" v="Mo-Fr 09:00-18:00"/>
    <tag k="phone" v="+33144275755"/>
    <tag k="website" v="https://www.sorbonne-universite.fr/offre-de-formation/la-bibliotheque-de-sorbonne-universite/decouvrir-nos-bibliotheques/la-6"/>
    <tag k="wheelchair" v="yes"/>
  </way>
  <way id="913102977" version="4" timestamp="2021-12-15T15:48:31Z" changeset="114969923" uid="8577239" user="lunaticstraydog">
    <nd ref="8482173664"/>
    <nd ref="8485049426"/>
    <nd ref="8485049425"/>
    <nd ref="8482173662"/>
    <nd ref="534455818"/>
    <nd ref="8482173663"/>
    <nd ref="8482173664"/>
    <tag k="addr:city" v="Paris"/>
    <tag k="addr:housenumber" v="4"/>
    <tag k="addr:postcode" v="75005"/>
    <tag k="addr:street" v="Place Jussieu"/>
    <tag k="amenity" v="library"/>
    <tag k="building" v="yes"/>
    <tag k="building:levels" v="1"/>
    <tag k="covered" v="yes"/>
    <tag k="description" v="Bibliothèque universitaire scientifique pluridisciplinaire. Patios 45/46, RDC 4 place Jussieu, 75005 Paris"/>
    <tag k="level" v="-1"/>
    <tag k="location" v="surface"/>
    <tag k="name" v="Bibliothèque des licences 1"/>
    <tag k="opening_hours" v="Mo-Fr 09:00-21:00"/>
    <tag k="phone" v="+33 1 44 27 38 38"/>
    <tag k="website" v="https://www.sorbonne-universite.fr/offre-de-formation/la-bibliotheque-de-sorbonne-universite/decouvrir-nos-bibliotheques/la-5"/>
    <tag k="wheelchair" v="yes"/>
  </way>
  <way id="1015052146" version="6" timestamp="2024-10-27T19:38:21Z" changeset="158428384" uid="53964" user="_Mathieu_">
    <nd ref="4525367231"/>
    <nd ref="3161155020"/>
    <nd ref="25033086"/>
    <tag k="cycleway:both" v="no"/>
    <tag k="highway" v="residential"/>
    <tag k="lit" v="yes"/>
    <tag k="maxspeed" v="30"/>
    <tag k="name" v="Rue du Cardinal Lemoine"/>
    <tag k="name:etymology:wikidata" v="Q721081"/>
    <tag k="oneway" v="yes"/>
    <tag k="oneway:bicycle" v="no"/>
    <tag k="sidewalk:both" v="separate"/>
    <tag k="source:maxspeed" v="BMO arrêté n°2015P0159"/>
    <tag k="surface" v="asphalt"/>
    <tag k="zone:maxspeed" v="FR:30"/>
  </way>
  <way id="1015052147" version="8" timestamp="2025-02-09T16:44:57Z" changeset="162321532" uid="292353" user="Obny">
    <nd ref="4525367231"/>
    <nd ref="4525367242"/>
    <nd ref="6207199980"/>
    <nd ref="4525367241"/>
    <nd ref="6207199979"/>
    <nd ref="4525367240"/>
    <nd ref="6207199978"/>
    <nd ref="6171195286"/>
    <nd ref="6207199977"/>
    <nd ref="6189996274"/>
    <nd ref="6207199981"/>
    <nd ref="245978167"/>
    <tag k="bicycle" v="yes"/>
    <tag k="cycleway:both" v="no"/>
    <tag k="highway" v="residential"/>
    <tag k="junction" v="circular"/>
    <tag k="lit" v="yes"/>
    <tag k="maxspeed" v="30"/>
    <tag k="name" v="Place de la Contrescarpe"/>
    <tag k="oneway" v="yes"/>
    <tag k="sidewalk:left" v="yes"/>
    <tag k="sidewalk:left:surface" v="paving_stones"/>
    <tag k="sidewalk:right" v="separate"/>
    <tag k="sidewalk:right:surface" v="asphalt"/>
    <tag k="smoothness" v="bad"/>
    <tag k="source:maxspeed" v="BMO arrêté n°2015P0159"/>
    <tag k="source:width" v="ARCore"/>
    <tag k="surface" v="sett"/>
    <tag k="width" v="3.5"/>
    <tag k="zone:maxspeed" v="FR:30"/>
  </way>
  <way id="1015556776" version="6" timestamp="2024-01-01T06:13:02Z" changeset="145752475" uid="53964" user="_Mathieu_">
    <nd ref="25033092"/>
    <nd ref="11037634351"/>
    <nd ref="3161155025"/>
    <nd ref="3161155026"/>
    <tag k="cycleway:both" v="no"/>
    <tag k="highway" v="tertiary"/>
    <tag k="lanes" v="2"/>
    <tag k="lit" v="yes"/>
    <tag k="maxspeed" v="30"/>
    <tag k="name" v="Rue Clovis"/>
    <tag k="sidewalk:both" v="separate"/>
    <tag k="smoothness" v="good"/>
    <tag k="source:maxspeed" v="BMO arrêté n°2015P0159"/>
    <tag k="surface" v="asphalt"/>
    <tag k="zone:maxspeed" v="FR:30"/>
  </way>
  <way id="1022424043" version="9" timestamp="2024-03-03T20:57:07Z" changeset="148181185" uid="6290466" user="benjamintchik">
    <nd ref="9429648010"/>
    <nd ref="9429648014"/>
    <nd ref="9429648012"/>
    <nd ref="9429648011"/>
    <tag k="cycleway:both" v="no"/>
    <tag k="highway" v="tertiary_link"/>
    <tag k="lane_markings" v="no"/>
    <tag k="name" v="Rue des Fossés Saint-Bernard"/>
    <tag k="name:etymology:wikidata" v="Q3398944"/>
    <tag k="oneway" v="yes"/>
    <tag k="sidewalk" v="both"/>
    <tag k="smoothness" v="good"/>
    <tag k="surface" v="asphalt"/>
  </way>
  <way id="1076642608" version="5" timestamp="2024-11-25T06:24:57Z" changeset="159558677" uid="158826" user="cquest">
    <nd ref="25031493"/>
    <nd ref="5526475262"/>
    <nd ref="4844462923"/>
    <nd ref="4827798345"/>
    <nd ref="12373037848"/>
    <nd ref="10869042812"/>
    <nd ref="6291071031"/>
    <nd ref="5526475269"/>
    <tag k="cycleway:left" v="shared_lane"/>
    <tag k="cycleway:left:lane" v="pictogram"/>
    <tag k="cycleway:right" v="lane"/>
    <tag k="cycleway:right:lane" v="exclusive"/>
    <tag k="highway" v="secondary"/>
    <tag k="lanes" v="2"/>
    <tag k="lanes:backward" v="1"/>
    <tag k="lanes:forward" v="1"/>
    <tag k="lit" v="yes"/>
    <tag k="maxspeed" v="30"/>
    <tag k="name" v="Rue Monge"/>
    <tag k="name:etymology:wikidata" v="Q206832"/>
    <tag k="oneway" v="no"/>
    <tag k="sidewalk:both" v="separate"/>
    <tag k="sidewalk:both:surface" v="asphalt"/>
    <tag k="smoothness" v="good"/>
    <tag k="source:maxspeed" v="FR:zone30"/>
    <tag k="surface" v="asphalt"/>
    <tag k="zone:maxspeed" v="FR:30"/>
  </way>
  <way id="1076642609" version="4" timestamp="2023-04-24T05:01:50Z" changeset="135284245" uid="704733" user="ori-and">
    <nd ref="361060"/>
    <nd ref="2458000915"/>
    <nd ref="6288229330"/>
    <nd ref="5526475244"/>
    <nd ref="25034403"/>
    <tag k="busway:left" v="lane"/>
    <tag k="cycleway:left" v="share_busway"/>
    <tag k="cycleway:right" v="no"/>
    <tag k="highway" v="tertiary"/>
    <tag k="lanes" v="3"/>
    <tag k="lanes:backward" v="2"/>
    <tag k="lanes:forward" v="1"/>
    <tag k="lit" v="yes"/>
    <tag k="maxspeed" v="30"/>
    <tag k="maxspeed:type" v="sign"/>
    <tag k="name" v="Rue des Écoles"/>
    <tag k="sidewalk" v="both"/>
    <tag k="smoothness" v="good"/>
    <tag k="surface" v="asphalt"/>
  </way>
  <way id="1076642610" version="4" timestamp="2024-01-01T06:13:54Z" changeset="145752475" uid="53964" user="_Mathieu_">
    <nd ref="25034403"/>
    <nd ref="2344165374"/>
    <nd ref="9939718710"/>
    <nd ref="25101538"/>
    <tag k="busway:left" v="lane"/>
    <tag k="cycleway:left" v="share_busway"/>
    <tag k="highway" v="tertiary"/>
    <tag k="lanes" v="3"/>
    <tag k="lanes:backward" v="2"/>
    <tag k="lanes:forward" v="1"/>
    <tag k="lit" v="yes"/>
    <tag k="maxspeed" v="30"/>
    <tag k="maxspeed:type" v="sign"/>
    <tag k="name" v="Rue des Écoles"/>
    <tag k="sidewalk:both" v="separate"/>
    <tag k="surface" v="asphalt"/>
  </way>
  <way id="1076642611" version="4" timestamp="2024-05-13T01:37:17Z" changeset="151245656" uid="2678738" user="fgouget">
    <nd ref="361059"/>
    <nd ref="6288229331"/>
    <nd ref="2458001027"/>
    <nd ref="361060"/>
    <tag k="cycleway:left" v="lane"/>
    <tag k="cycleway:left:lane" v="exclusive"/>
    <tag k="cycleway:right" v="no"/>
    <tag k="highway" v="secondary"/>
    <tag k="lanes" v="2"/>
    <tag k="lanes:backward" v="1"/>
    <tag k="lanes:forward" v="1"/>
    <tag k="lit" v="yes"/>
    <tag k="maxspeed" v="30"/>
    <tag k="name" v="Rue Monge"/>
    <tag k="name:etymology:wikidata" v="Q206832"/>
    <tag k="sidewalk:both:surface" v="paving_stones"/>
    <tag k="sidewalk:left" v="separate"/>
    <tag k="sidewalk:right" v="yes"/>
    <tag k="smoothness" v="good"/>
    <tag k="surface" v="asphalt"/>
  </way>
  <way id="1076642612" version="8" timestamp="2024-05-13T01:37:42Z" changeset="151245656" uid="2678738" user="fgouget">
    <nd ref="6601918974"/>
    <nd ref="361059"/>
    <tag k="alt_name" v="Rue d'Arras"/>
    <tag k="cycleway:both" v="no"/>
    <tag k="highway" v="residential"/>
    <tag k="lit" v="yes"/>
    <tag k="maxspeed" v="30"/>
    <tag k="name" v="Rue Jacques-Henri Lartigue"/>
    <tag k="note" v="erreur sur le cadastre, il n'y a pas de S à Lartigue"/>
    <tag k="sidewalk:both:surface" v="paving_stones"/>
    <tag k="sidewalk:left" v="separate"/>
    <tag k="sidewalk:right" v="yes"/>
    <tag k="smoothness" v="good"/>
    <tag k="source" v="cadastre-dgi-fr source : Direction Générale des Impôts - Cadastre. Mise à jour : 2009"/>
    <tag k="source:name" v="wikipedia"/>
    <tag k="surface" v="asphalt"/>
  </way>
  <way id="1076642613" version="8" timestamp="2024-06-17T10:41:52Z" changeset="152795301" uid="2678738" user="fgouget">
    <nd ref="6601918976"/>
    <nd ref="6601918974"/>
    <tag k="alt_name" v="Rue d'Arras"/>
    <tag k="cycleway:both" v="no"/>
    <tag k="highway" v="residential"/>
    <tag k="lit" v="yes"/>
    <tag k="maxspeed" v="30"/>
    <tag k="name" v="Rue Jacques-Henri Lartigue"/>
    <tag k="note" v="erreur sur le cadastre, il n'y a pas de S à Lartigue"/>
    <tag k="sidewalk:left" v="separate"/>
    <tag k="smoothness" v="intermediate"/>
    <tag k="source" v="cadastre-dgi-fr source : Direction Générale des Impôts - Cadastre. Mise à jour : 2009"/>
    <tag k="source:name" v="wikipedia"/>
    <tag k="surface" v="sett"/>
  </way>
  <way id="1076642614" version="6" timestamp="2024-03-16T09:20:32Z" changeset="148722122" uid="6290466" user="benjamintchik">
    <nd ref="25034407"/>
    <nd ref="361050"/>
    <tag k="cycleway:left" v="lane"/>
    <tag k="cycleway:left:lane" v="exclusive"/>
    <tag k="cycleway:right" v="shared_lane"/>
    <tag k="cycleway:right:lane" v="pictogram"/>
    <tag k="highway" v="secondary"/>
    <tag k="lanes" v="2"/>
    <tag k="lanes:backward" v="1"/>
    <tag k="lanes:forward" v="1"/>
    <tag k="lit" v="yes"/>
    <tag k="maxspeed" v="30"/>
    <tag k="name" v="Rue Monge"/>
    <tag k="name:etymology:wikidata" v="Q206832"/>
    <tag k="sidewalk:both" v="separate"/>
    <tag k="sidewalk:left:surface" v="paving_stones"/>
    <tag k="sidewalk:right:surface" v="asphalt"/>
    <tag k="smoothness" v="good"/>
    <tag k="source:maxspeed" v="BMO arrêté n°2015P0159"/>
    <tag k="surface" v="asphalt"/>
    <tag k="zone:maxspeed" v="FR:30"/>
  </way>
  <way id="1076642615" version="6" timestamp="2024-03-03T20:57:48Z" changeset="148181185" uid="6290466" user="benjamintchik">
    <nd ref="25033096"/>
    <nd ref="2344165376"/>
    <nd ref="361050"/>
    <tag k="cycleway:both" v="no"/>
    <tag k="highway" v="tertiary"/>
    <tag k="lanes" v="2"/>
    <tag k="lit" v="yes"/>
    <tag k="maxspeed" v="30"/>
    <tag k="name" v="Rue du Cardinal Lemoine"/>
    <tag k="name:etymology:wikidata" v="Q721081"/>
    <tag k="sidewalk:both" v="separate"/>
    <tag k="smoothness" v="good"/>
    <tag k="source:maxspeed" v="BMO arrêté n°2015P0159"/>
    <tag k="surface" v="asphalt"/>
    <tag k="zone:maxspeed" v="FR:30"/>
  </way>
  <way id="1076642617" version="8" timestamp="2024-05-19T16:34:34Z" changeset="151542316" uid="15094172" user="chl-osm">
    <nd ref="25034405"/>
    <nd ref="4624828776"/>
    <nd ref="4760803661"/>
    <nd ref="3091654959"/>
    <nd ref="3094898247"/>
    <nd ref="3091654962"/>
    <nd ref="17809591"/>
    <tag k="cycleway:both" v="no"/>
    <tag k="highway" v="tertiary"/>
    <tag k="lanes" v="2"/>
    <tag k="lit" v="yes"/>
    <tag k="maxspeed" v="30"/>
    <tag k="name" v="Rue Linné"/>
    <tag k="name:etymology:wikidata" v="Q1043"/>
    <tag k="oneway" v="no"/>
    <tag k="sidewalk:both" v="separate"/>
    <tag k="smoothness" v="good"/>
    <tag k="surface" v="asphalt"/>
  </way>
  <way id="1076642618" version="4" timestamp="2024-05-04T10:56:31Z" changeset="150874041" uid="11291363" user="u4Dy46Xe">
    <nd ref="2344165346"/>
    <nd ref="25034405"/>
    <tag k="highway" v="tertiary"/>
    <tag k="lanes" v="2"/>
    <tag k="lit" v="yes"/>
    <tag k="maxspeed" v="30"/>
    <tag k="name" v="Rue Linné"/>
    <tag k="name:etymology:wikidata" v="Q1043"/>
    <tag k="oneway" v="no"/>
    <tag k="sidewalk" v="separate"/>
    <tag k="smoothness" v="good"/>
    <tag k="surface" v="asphalt"/>
  </way>
  <way id="1076642619" version="3" timestamp="2024-03-16T09:24:07Z" changeset="148722122" uid="6290466" user="benjamintchik">
    <nd ref="25034433"/>
    <nd ref="2344165346"/>
    <tag k="highway" v="tertiary"/>
    <tag k="lanes" v="2"/>
    <tag k="lit" v="yes"/>
    <tag k="maxspeed" v="30"/>
    <tag k="name" v="Rue Linné"/>
    <tag k="name:etymology:wikidata" v="Q1043"/>
    <tag k="oneway" v="no"/>
    <tag k="sidewalk" v="separate"/>
    <tag k="surface" v="asphalt"/>
  </way>
  <way id="1076642620" version="3" timestamp="2024-03-16T09:24:07Z" changeset="148722122" uid="6290466" user="benjamintchik">
    <nd ref="25034434"/>
    <nd ref="2344165352"/>
    <nd ref="25034433"/>
    <tag k="highway" v="tertiary"/>
    <tag k="lanes" v="2"/>
    <tag k="lit" v="yes"/>
    <tag k="maxspeed" v="30"/>
    <tag k="name" v="Rue Linné"/>
    <tag k="name:etymology:wikidata" v="Q1043"/>
    <tag k="oneway" v="no"/>
    <tag k="sidewalk" v="separate"/>
    <tag k="surface" v="asphalt"/>
  </way>
  <way id="1076642621" version="4" timestamp="2024-03-16T09:24:07Z" changeset="148722122" uid="6290466" user="benjamintchik">
    <nd ref="25034435"/>
    <nd ref="25034434"/>
    <tag k="cycleway:both" v="no"/>
    <tag k="highway" v="tertiary"/>
    <tag k="lanes" v="2"/>
    <tag k="lit" v="yes"/>
    <tag k="maxspeed" v="30"/>
    <tag k="name" v="Rue Linné"/>
    <tag k="name:etymology:wikidata" v="Q1043"/>
    <tag k="oneway" v="no"/>
    <tag k="sidewalk:both" v="separate"/>
    <tag k="surface" v="asphalt"/>
  </way>
  <way id="1202608666" version="3" timestamp="2024-03-03T20:57:07Z" changeset="148181185" uid="6290466" user="benjamintchik">
    <nd ref="6477065199"/>
    <nd ref="9429648011"/>
    <tag k="check_date:smoothness" v="2023-05-21"/>
    <tag k="cycleway:both" v="no"/>
    <tag k="highway" v="tertiary"/>
    <tag k="lanes" v="2"/>
    <tag k="lit" v="yes"/>
    <tag k="maxspeed" v="30"/>
    <tag k="name" v="Rue des Fossés Saint-Bernard"/>
    <tag k="name:etymology:wikidata" v="Q3398944"/>
    <tag k="sidewalk:both:surface" v="asphalt"/>
    <tag k="sidewalk:left" v="yes"/>
    <tag k="sidewalk:right" v="separate"/>
    <tag k="smoothness" v="good"/>
    <tag k="surface" v="asphalt"/>
  </way>
  <way id="1224959993" version="5" timestamp="2024-03-16T09:26:44Z" changeset="148722122" uid="6290466" user="benjamintchik">
    <nd ref="11359754319"/>
    <nd ref="489837551"/>
    <tag k="cycleway:left" v="lane"/>
    <tag k="cycleway:left:lane" v="exclusive"/>
    <tag k="cycleway:left:oneway" v="-1"/>
    <tag k="cycleway:right" v="no"/>
    <tag k="highway" v="residential"/>
    <tag k="lit" v="yes"/>
    <tag k="maxspeed" v="30"/>
    <tag k="name" v="Rue de Navarre"/>
    <tag k="name:etymology:wikidata" v="Q1110010"/>
    <tag k="oneway" v="yes"/>
    <tag k="oneway:bicycle" v="no"/>
    <tag k="sidewalk:both:surface" v="asphalt"/>
    <tag k="sidewalk:left" v="yes"/>
    <tag k="sidewalk:right" v="separate"/>
    <tag k="smoothness" v="good"/>
    <tag k="source:maxspeed" v="BMO arrêté n°2010-085"/>
    <tag k="surface" v="asphalt"/>
    <tag k="zone:maxspeed" v="FR:30"/>
  </way>
  <way id="1290605655" version="1" timestamp="2024-06-09T08:13:20Z" changeset="152443114" uid="270456" user="pyrog">
    <nd ref="2458000972"/>
    <nd ref="11359754319"/>
    <tag k="cycleway:both" v="no"/>
    <tag k="highway" v="residential"/>
    <tag k="lit" v="yes"/>
    <tag k="maxspeed" v="30"/>
    <tag k="name" v="Rue de Navarre"/>
    <tag k="name:etymology:wikidata" v="Q1110010"/>
    <tag k="oneway" v="yes"/>
    <tag k="oneway:bicycle" v="no"/>
    <tag k="sidewalk" v="both"/>
    <tag k="sidewalk:both:surface" v="paving_stones"/>
    <tag k="smoothness" v="good"/>
    <tag k="source:maxspeed" v="BMO arrêté n°2010-085"/>
    <tag k="surface" v="asphalt"/>
    <tag k="zone:maxspeed" v="FR:30"/>
  </way>
  <way id="1290605659" version="2" timestamp="2024-10-27T16:46:04Z" changeset="158421826" uid="53964" user="_Mathieu_">
    <nd ref="3032445454"/>
    <nd ref="4470669829"/>
    <nd ref="25034333"/>
    <tag k="cycleway:both" v="no"/>
    <tag k="highway" v="residential"/>
    <tag k="lit" v="yes"/>
    <tag k="maxspeed" v="30"/>
    <tag k="name" v="Rue de Navarre"/>
    <tag k="name:etymology:wikidata" v="Q1110010"/>
    <tag k="oneway" v="yes"/>
    <tag k="oneway:bicycle" v="no"/>
    <tag k="sidewalk:left" v="yes"/>
    <tag k="sidewalk:right" v="separate"/>
    <tag k="smoothness" v="good"/>
    <tag k="source:maxspeed" v="BMO arrêté n°2010-085"/>
    <tag k="surface" v="asphalt"/>
    <tag k="zone:maxspeed" v="FR:30"/>
  </way>
  <way id="1306546897" version="2" timestamp="2024-10-27T19:43:16Z" changeset="158428384" uid="53964" user="_Mathieu_">
    <nd ref="25034462"/>
    <nd ref="12083926246"/>
    <nd ref="12100405292"/>
    <tag k="cycleway:left" v="no"/>
    <tag k="cycleway:right" v="shared_lane"/>
    <tag k="cycleway:right:lane" v="exclusive"/>
    <tag k="highway" v="primary"/>
    <tag k="lanes" v="2"/>
    <tag k="lit" v="yes"/>
    <tag k="maxspeed" v="30"/>
    <tag k="name" v="Boulevard Saint-Germain"/>
    <tag k="name:etymology:wikidata" v="Q255910"/>
    <tag k="oneway" v="yes"/>
    <tag k="sidewalk:left" v="separate"/>
    <tag k="sidewalk:left:surface" v="asphalt"/>
    <tag k="sidewalk:right" v="no"/>
    <tag k="smoothness" v="excellent"/>
    <tag k="surface" v="asphalt"/>
  </way>
  <way id="1308809986" version="3" timestamp="2025-03-22T11:22:52Z" changeset="163942580" uid="18531595" user="esmenard">
    <nd ref="12120201955"/>
    <nd ref="528461409"/>
    <nd ref="528461453"/>
    <nd ref="12120201956"/>
    <nd ref="12120201957"/>
    <nd ref="12120201958"/>
    <nd ref="12120201959"/>
    <nd ref="12120201960"/>
    <nd ref="12120201961"/>
    <nd ref="12120201962"/>
    <nd ref="12120201955"/>
    <tag k="building" v="office"/>
    <tag k="description" v="2024 under construction"/>
    <tag k="name" v="Paris Parc"/>
  </way>
  <way id="1312436612" version="5" timestamp="2024-08-31T14:11:27Z" changeset="156017049" uid="4774522" user="Cyril5C">
    <nd ref="12147805278"/>
    <nd ref="12147805282"/>
    <nd ref="12147805283"/>
    <nd ref="12147805270"/>
    <nd ref="12147805289"/>
    <nd ref="12147805271"/>
    <nd ref="12147805284"/>
    <nd ref="12147805279"/>
    <nd ref="12147805285"/>
    <nd ref="12147805277"/>
    <nd ref="12147805272"/>
    <nd ref="12147805280"/>
    <nd ref="12147805281"/>
    <nd ref="12147805286"/>
    <nd ref="12147805276"/>
    <nd ref="12147805287"/>
    <nd ref="12147805275"/>
    <nd ref="12147805288"/>
    <nd ref="12147805274"/>
    <nd ref="12147805273"/>
    <nd ref="12147805278"/>
    <tag k="addr:city" v="Paris"/>
    <tag k="addr:housenumber" v="7"/>
    <tag k="addr:postcode" v="75005"/>
    <tag k="addr:street" v="Quai de Montebello"/>
    <tag k="amenity" v="bar"/>
    <tag k="building" v="boat"/>
    <tag k="check_date" v="2024-08-31"/>
    <tag k="email" v="hello@sondelaterre.fr"/>
    <tag k="name" v="Le Son De La Terre"/>
    <tag k="opening_hours" v="Tu-Sa 18:00-24:00; Su 12:00-22:30"/>
    <tag k="outdoor_seating" v="yes"/>
    <tag k="payment:cash" v="yes"/>
    <tag k="payment:credit_cards" v="yes"/>
    <tag k="payment:debit_cards" v="yes"/>
    <tag k="phone" v="+33 6 60 47 38 52"/>
    <tag k="website" v="https://www.sondelaterre.fr/"/>
    <tag k="wheelchair" v="yes"/>
  </way>
  <way id="1384795821" version="1" timestamp="2025-05-08T21:44:37Z" changeset="166004276" uid="7550430" user="Britzz">
    <nd ref="12821214394"/>
    <nd ref="695223404"/>
    <nd ref="695223406"/>
    <nd ref="695223408"/>
    <nd ref="695223422"/>
    <nd ref="695223423"/>
    <nd ref="695223425"/>
    <nd ref="12821214390"/>
    <nd ref="715339206"/>
    <nd ref="10152630604"/>
    <nd ref="695223419"/>
    <nd ref="695223420"/>
    <nd ref="695223421"/>
    <nd ref="695223395"/>
    <nd ref="695223397"/>
    <nd ref="12821214394"/>
    <tag k="building" v="college"/>
    <tag k="name" v="Chopin"/>
    <tag k="source" v="cadastre-dgi-fr source : Direction Générale des Impôts - Cadastre. Mise à jour : 2010"/>
  </way>
  <way id="1384795822" version="1" timestamp="2025-05-08T21:44:37Z" changeset="166004276" uid="7550430" user="Britzz">
    <nd ref="12821214391"/>
    <nd ref="695223574"/>
    <nd ref="695223415"/>
    <nd ref="695223416"/>
    <nd ref="695223417"/>
    <nd ref="695223418"/>
    <nd ref="695223404"/>
    <nd ref="12821214394"/>
    <nd ref="695223399"/>
    <nd ref="695223402"/>
    <nd ref="695223387"/>
    <nd ref="695223390"/>
    <nd ref="695223393"/>
    <nd ref="4679889203"/>
    <nd ref="695223410"/>
    <nd ref="695223412"/>
    <nd ref="11145681411"/>
    <nd ref="695223413"/>
    <nd ref="695223414"/>
    <nd ref="695223570"/>
    <nd ref="12821214391"/>
    <tag k="building" v="college"/>
    <tag k="name" v="Joffre"/>
    <tag k="source" v="cadastre-dgi-fr source : Direction Générale des Impôts - Cadastre. Mise à jour : 2010"/>
  </way>
  <way id="1384795823" version="1" timestamp="2025-05-08T21:44:37Z" changeset="166004276" uid="7550430" user="Britzz">
    <nd ref="12821214390"/>
    <nd ref="695223425"/>
    <nd ref="695223426"/>
    <nd ref="695223427"/>
    <nd ref="695223428"/>
    <nd ref="695223429"/>
    <nd ref="695223430"/>
    <nd ref="695223431"/>
    <nd ref="12821214384"/>
    <nd ref="12821214385"/>
    <nd ref="12821214386"/>
    <nd ref="12821214387"/>
    <nd ref="12821214388"/>
    <nd ref="12821214389"/>
    <nd ref="10200105706"/>
    <nd ref="6601918973"/>
    <nd ref="6601918975"/>
    <nd ref="10200105707"/>
    <nd ref="715339222"/>
    <nd ref="10200105709"/>
    <nd ref="715339209"/>
    <nd ref="10200105710"/>
    <nd ref="12821214390"/>
    <tag k="building" v="college"/>
    <tag k="name" v="Arras"/>
    <tag k="source" v="cadastre-dgi-fr source : Direction Générale des Impôts - Cadastre. Mise à jour : 2010"/>
  </way>
  <way id="1384795824" version="1" timestamp="2025-05-08T21:44:37Z" changeset="166004276" uid="7550430" user="Britzz">
    <nd ref="695223353"/>
    <nd ref="695223581"/>
    <nd ref="695223578"/>
    <nd ref="695223579"/>
    <nd ref="12821214395"/>
    <nd ref="12821214396"/>
    <nd ref="695223571"/>
    <nd ref="695223572"/>
    <nd ref="1385929230"/>
    <nd ref="695223343"/>
    <nd ref="695223345"/>
    <nd ref="695223347"/>
    <nd ref="695223339"/>
    <nd ref="695223363"/>
    <nd ref="695223365"/>
    <nd ref="695223367"/>
    <nd ref="695223369"/>
    <nd ref="695223371"/>
    <nd ref="695223382"/>
    <nd ref="695223384"/>
    <nd ref="695223353"/>
    <tag k="building" v="college"/>
    <tag k="name" v="Foch"/>
    <tag k="source" v="cadastre-dgi-fr source : Direction Générale des Impôts - Cadastre. Mise à jour : 2010"/>
  </way>
  <relation id="285715" version="4" timestamp="2022-12-01T18:30:36Z" changeset="129615407" uid="8256664" user="wkerl">
    <member type="way" ref="42315868" role="outer"/>
    <member type="way" ref="42315867" role="inner"/>
    <tag k="addr:housenumber" v="1"/>
    <tag k="addr:street" v="Place Jussieu"/>
    <tag k="building" v="apartments"/>
    <tag k="building:levels" v="6"/>
    <tag k="type" v="multipolygon"/>
  </relation>
  <relation id="554689" version="5" timestamp="2023-11-03T19:04:49Z" changeset="143587775" uid="9451067" user="b-jazz-bot">
    <member type="way" ref="55346589" role="inner"/>
    <member type="way" ref="55346588" role="outer"/>
    <tag k="addr:city" v="Paris"/>
    <tag k="addr:housenumber" v="1"/>
    <tag k="addr:postcode" v="75005"/>
    <tag k="addr:street" v="Rue Descartes"/>
    <tag k="building" v="office"/>
    <tag k="building:levels" v="2"/>
    <tag k="government" v="education"/>
    <tag k="name" v="Ministère de l'Enseignement supérieur, de la Recherche et de l'Innovation"/>
    <tag k="office" v="government"/>
    <tag k="old_name" v="École polytechnique"/>
    <tag k="phone" v="+33 1 55 55 90 90"/>
    <tag k="short_name" v="MESRI"/>
    <tag k="type" v="multipolygon"/>
    <tag k="website" v="https://www.enseignementsup-recherche.gouv.fr/"/>
    <tag k="wikidata" v="Q29968038"/>
    <tag k="wikipedia" v="fr:Ministre chargé de l'Enseignement supérieur (France)"/>
  </relation>
  <relation id="568709" version="7" timestamp="2022-07-05T19:22:17Z" changeset="123248323" uid="16312925" user="Leoriem-code">
    <member type="way" ref="55888856" role="outer"/>
    <member type="way" ref="55888869" role="inner"/>
    <tag k="alt_name" v="Ancien hôtel de Clermont-Tonnerre"/>
    <tag k="building" v="apartments"/>
    <tag k="building:levels" v="5"/>
    <tag k="heritage" v="3"/>
    <tag k="heritage:operator" v="mhs"/>
    <tag k="mhs:inscription_date" v="1992-04-15"/>
    <tag k="name" v="Hôtel Montmien"/>
    <tag k="ref:mhs" v="PA00088488"/>
    <tag k="roof:levels" v="1"/>
    <tag k="roof:shape" v="gambrel"/>
    <tag k="source:heritage" v="Ministère de la Culture - 06/2019"/>
    <tag k="type" v="multipolygon"/>
    <tag k="wikidata" v="Q22924477"/>
  </relation>
  <relation id="568776" version="3" timestamp="2020-05-10T09:04:09Z" changeset="84963892" uid="57126" user="yxoc">
    <member type="way" ref="55892737" role="outer"/>
    <member type="way" ref="55892736" role="inner"/>
    <tag k="building" v="yes"/>
    <tag k="heritage" v="3"/>
    <tag k="heritage:operator" v="mhs"/>
    <tag k="mhs:inscription_date" v="1926-02-22"/>
    <tag k="name" v="Hôtel de Miramion"/>
    <tag k="ref:mhs" v="PA00088434"/>
    <tag k="source:heritage" v="Ministère de la Culture - 06/2019"/>
    <tag k="type" v="multipolygon"/>
    <tag k="wikidata" v="Q3145903"/>
    <tag k="wikipedia" v="fr:Hôtel de Miramion"/>
  </relation>
  <relation id="4482537" version="4" timestamp="2023-11-03T19:24:26Z" changeset="143588393" uid="9451067" user="b-jazz-bot">
    <member type="way" ref="321722608" role="outer"/>
    <member type="way" ref="321722604" role="outer"/>
    <member type="way" ref="170206133" role="outer"/>
    <member type="way" ref="321722603" role="outer"/>
    <tag k="building" v="yes"/>
    <tag k="building:material" v="glass"/>
    <tag k="description" v="Ce bâtiment abritait à l'origine la scolarité de l'Université Denis Diderot (Paris VII, aujourd'hui installée dans le quartier de Tolbiac, 13ème arrondissement)"/>
    <tag k="email" v="contact@isir.upmc.fr"/>
    <tag k="fax" v="+33 1 44 27 51 45"/>
    <tag k="hazard" v="robot"/>
    <tag k="height" v="5"/>
    <tag k="name" v="Institut des Systèmes Intelligents et de Robotique"/>
    <tag k="phone" v="+33 1 44 27 51 41"/>
    <tag k="roof:height" v="5"/>
    <tag k="roof:orientation" v="along"/>
    <tag k="roof:shape" v="mansard"/>
    <tag k="short_name" v="ISIR"/>
    <tag k="type" v="multipolygon"/>
    <tag k="website" v="https://www.isir.upmc.fr/"/>
  </relation>
  <relation id="14460664" version="1" timestamp="2022-08-15T06:59:56Z" changeset="124913318" uid="16837791" user="Guillaume-Dojo5">
    <member type="way" ref="55501036" role="outer"/>
    <member type="way" ref="1086351299" role="outer"/>
    <tag k="addr:city" v="Paris"/>
    <tag k="addr:housenumber" v="26"/>
    <tag k="addr:postcode" v="75005"/>
    <tag k="addr:street" v="Rue de Pontoise"/>
    <tag k="amenity" v="dojo"/>
    <tag k="building" v="yes"/>
    <tag k="name" v="DOJO 5"/>
    <tag k="source" v="cadastre-dgi-fr source : Direction Générale des Impôts - Cadastre. Mise à jour : 2010"/>
    <tag k="sport" v="martial_arts"/>
    <tag k="type" v="multipolygon"/>
  </relation>

</osm>
