<?xml version="1.0" encoding="UTF-8"?>
<osm version="0.6" generator="Overpass API 0.7.62.5 1bd436f1">
<note>The data included in this document is from www.openstreetmap.org. The data is made available under ODbL.</note>
<meta osm_base="2025-03-24T16:03:37Z" areas="2025-02-06T02:17:44Z"/>

  <node id="6169238248" lat="51.2706868" lon="1.2073782" version="4" timestamp="2024-07-04T12:59:47Z" changeset="153546468" uid="11471297" user="Palgrave Peter">
    <tag k="addr:city" v="Canterbury"/>
    <tag k="addr:housename" v="The Old Railway Station"/>
    <tag k="addr:postcode" v="CT3 1NH"/>
    <tag k="addr:street" v="Canterbury Road"/>
    <tag k="addr:village" v="Wingham"/>
    <tag k="amenity" v="cafe"/>
    <tag k="fhrs:id" v="1083368"/>
    <tag k="fixme" v="Approximate position"/>
    <tag k="name" v="The Railway Station Cafe"/>
    <tag k="opening_hours" v="Mo-Su 09:00-14:00"/>
    <tag k="source" v="survey"/>
    <tag k="source:addr" v="FHRS Open Data"/>
  </node>
  <node id="6169424606" lat="51.2686079" lon="1.1993551" version="7" timestamp="2024-07-08T19:07:02Z" changeset="153717356" uid="5008136" user="JayTurnr">
    <tag k="addr:city" v="Canterbury"/>
    <tag k="addr:postcode" v="CT3 1NL"/>
    <tag k="addr:street" v="Canterbury Road"/>
    <tag k="addr:village" v="Wingham"/>
    <tag k="amenity" v="fuel"/>
    <tag k="brand" v="Shell"/>
    <tag k="brand:wikidata" v="Q110716465"/>
    <tag k="compressed_air" v="yes"/>
    <tag k="fhrs:id" v="926434"/>
    <tag k="name" v="Shell"/>
    <tag k="source" v="survey"/>
    <tag k="source:addr" v="FHRS Open Data"/>
    <tag k="source:name" v="FHRS Open Data"/>
    <tag k="website" v="https://find.shell.com/gb/fuel/12821133-casino-filling-station"/>
  </node>
  <node id="7330162565" lat="51.2700956" lon="1.2132387" version="5" timestamp="2025-03-07T07:00:25Z" changeset="163312467" uid="7037" user="Gregory Williams">
    <tag k="addr:city" v="Canterbury"/>
    <tag k="addr:country" v="GB"/>
    <tag k="addr:county" v="Kent"/>
    <tag k="addr:housename" v="Village Hall"/>
    <tag k="addr:postcode" v="CT3 1BD"/>
    <tag k="addr:street" v="School Lane"/>
    <tag k="addr:village" v="Wingham"/>
    <tag k="amenity" v="post_office"/>
    <tag k="brand" v="Post Office"/>
    <tag k="brand:wikidata" v="Q1783168"/>
    <tag k="check_date" v="2023-09-27"/>
    <tag k="name" v="Wingham Post Office"/>
    <tag k="opening_hours" v="Tu,Th 09:00-11:00"/>
    <tag k="ref:pol_id" v="168105"/>
    <tag k="source" v="Post Office Consultation https://www.postofficeviews.co.uk/national-consultation-team/wingham-ct3-1aa-118909/supporting_documents/Wingham%20%20CT3%201AA%20%20Information%20Letter.pdf-1"/>
    <tag k="website" v="https://www.postoffice.co.uk/branch-finder/0424714/wingham"/>
  </node>
  <way id="4321006" version="9" timestamp="2023-07-22T15:12:56Z" changeset="138858576" uid="7037" user="Gregory Williams">
    <nd ref="26237215"/>
    <nd ref="1617804452"/>
    <nd ref="975668265"/>
    <nd ref="26237216"/>
    <nd ref="1617804425"/>
    <nd ref="28150304"/>
    <tag k="highway" v="primary"/>
    <tag k="lanes" v="2"/>
    <tag k="lit" v="no"/>
    <tag k="maxspeed" v="30 mph"/>
    <tag k="name" v="Gobery Hill"/>
    <tag k="ref" v="A257"/>
    <tag k="surface" v="asphalt"/>
  </way>
  <way id="4534419" version="6" timestamp="2016-03-30T10:41:29Z" changeset="38163626" uid="42123" user="Ropino">
    <nd ref="28150304"/>
    <nd ref="1617804436"/>
    <nd ref="1617804445"/>
    <nd ref="28150305"/>
    <nd ref="769202058"/>
    <tag k="highway" v="tertiary"/>
    <tag k="lit" v="yes"/>
    <tag k="maxspeed" v="30 mph"/>
    <tag k="name" v="Preston Hill"/>
  </way>
  <way id="4534445" version="10" timestamp="2024-06-21T14:08:08Z" changeset="152995045" uid="11471297" user="Palgrave Peter">
    <nd ref="29949143"/>
    <nd ref="28150317"/>
    <nd ref="29949145"/>
    <nd ref="1927700052"/>
    <nd ref="28150418"/>
    <nd ref="1934999136"/>
    <nd ref="1934999137"/>
    <nd ref="28150419"/>
    <nd ref="1934999141"/>
    <nd ref="28150420"/>
    <nd ref="1934999147"/>
    <nd ref="28150421"/>
    <nd ref="11999040279"/>
    <nd ref="1934999151"/>
    <nd ref="28150422"/>
    <nd ref="1934999154"/>
    <nd ref="28150423"/>
    <nd ref="1934999156"/>
    <nd ref="1934999157"/>
    <nd ref="28150424"/>
    <nd ref="1934999158"/>
    <nd ref="6715090485"/>
    <nd ref="28150425"/>
    <tag k="highway" v="tertiary"/>
    <tag k="lit" v="no"/>
    <tag k="maxspeed" v="60 mph"/>
    <tag k="maxspeed:type" v="GB:nsl_single"/>
    <tag k="name" v="Preston Road"/>
  </way>
  <way id="4534641" version="9" timestamp="2024-06-20T17:14:37Z" changeset="152957355" uid="11471297" user="Palgrave Peter">
    <nd ref="28150317"/>
    <nd ref="29949144"/>
    <nd ref="29948872"/>
    <nd ref="28152700"/>
    <nd ref="28152701"/>
    <nd ref="1927700050"/>
    <nd ref="1927700049"/>
    <nd ref="28152702"/>
    <nd ref="1927700048"/>
    <nd ref="28152705"/>
    <nd ref="1927700047"/>
    <nd ref="1927700046"/>
    <nd ref="8778699844"/>
    <nd ref="28152706"/>
    <nd ref="1927700045"/>
    <nd ref="1927700044"/>
    <nd ref="28152708"/>
    <nd ref="1927700043"/>
    <nd ref="1927700042"/>
    <nd ref="1927700041"/>
    <nd ref="28152709"/>
    <nd ref="8778699843"/>
    <nd ref="1927700040"/>
    <nd ref="1927700039"/>
    <nd ref="28152711"/>
    <nd ref="1927700038"/>
    <nd ref="1927700037"/>
    <nd ref="28152712"/>
    <nd ref="1927700036"/>
    <nd ref="1927700035"/>
    <nd ref="1927700034"/>
    <nd ref="1934999129"/>
    <nd ref="28152714"/>
    <nd ref="1616615970"/>
    <nd ref="1616615963"/>
    <nd ref="1616615962"/>
    <nd ref="1616615965"/>
    <nd ref="1616615966"/>
    <nd ref="1616615983"/>
    <nd ref="1616615987"/>
    <nd ref="1616615984"/>
    <nd ref="1616615972"/>
    <nd ref="11994930323"/>
    <nd ref="28371827"/>
    <nd ref="1616615961"/>
    <nd ref="1616615954"/>
    <nd ref="1616615953"/>
    <nd ref="1616615947"/>
    <nd ref="1616615946"/>
    <nd ref="1616615940"/>
    <nd ref="1616615937"/>
    <nd ref="1616615931"/>
    <nd ref="1616615927"/>
    <nd ref="1616615922"/>
    <nd ref="1616615917"/>
    <nd ref="1616615916"/>
    <nd ref="1616615915"/>
    <nd ref="1616615918"/>
    <nd ref="1616615921"/>
    <nd ref="1616615924"/>
    <nd ref="1616615926"/>
    <nd ref="1616615929"/>
    <nd ref="1616615932"/>
    <nd ref="1616615935"/>
    <nd ref="1616615936"/>
    <nd ref="29941092"/>
    <nd ref="1616615933"/>
    <nd ref="1616615928"/>
    <nd ref="1616615925"/>
    <nd ref="1616615923"/>
    <nd ref="1616615913"/>
    <nd ref="1616615898"/>
    <nd ref="1616615893"/>
    <nd ref="1616615887"/>
    <nd ref="1616615884"/>
    <nd ref="1616615880"/>
    <nd ref="11343513244"/>
    <nd ref="1616615871"/>
    <nd ref="1616615861"/>
    <nd ref="1616615844"/>
    <nd ref="1616615835"/>
    <nd ref="1616615818"/>
    <nd ref="1616615787"/>
    <nd ref="1616615748"/>
    <nd ref="1616615703"/>
    <nd ref="28371808"/>
    <tag k="highway" v="unclassified"/>
    <tag k="maxspeed" v="60 mph"/>
    <tag k="maxspeed:type" v="GB:nsl_single"/>
    <tag k="name" v="Nash Road"/>
    <tag k="source" v="survey"/>
  </way>
  <way id="4547889" version="10" timestamp="2024-07-23T16:58:37Z" changeset="154316380" uid="5008136" user="JayTurnr">
    <nd ref="26237254"/>
    <nd ref="28371568"/>
    <nd ref="28371569"/>
    <nd ref="28371570"/>
    <nd ref="331043142"/>
    <nd ref="28371571"/>
    <nd ref="28371572"/>
    <nd ref="671057457"/>
    <nd ref="28371573"/>
    <nd ref="331043137"/>
    <nd ref="28371574"/>
    <nd ref="331043133"/>
    <nd ref="28371576"/>
    <nd ref="29862057"/>
    <nd ref="29862058"/>
    <nd ref="29862060"/>
    <nd ref="29862062"/>
    <nd ref="29862064"/>
    <nd ref="29862066"/>
    <nd ref="29862068"/>
    <nd ref="12033419545"/>
    <nd ref="29862070"/>
    <tag k="highway" v="unclassified"/>
    <tag k="lit" v="no"/>
    <tag k="maxspeed" v="60 mph"/>
    <tag k="maxspeed:type" v="GB:nsl_single"/>
    <tag k="name" v="Wingham Well Lane"/>
  </way>
  <way id="4547890" version="7" timestamp="2021-08-27T11:52:01Z" changeset="110338149" uid="242345" user="confusedbuffalo">
    <nd ref="28371576"/>
    <nd ref="28371577"/>
    <nd ref="28371578"/>
    <nd ref="28371579"/>
    <nd ref="28371580"/>
    <nd ref="28371581"/>
    <nd ref="28371582"/>
    <nd ref="28371583"/>
    <nd ref="28371585"/>
    <nd ref="29862153"/>
    <nd ref="28371584"/>
    <nd ref="28371586"/>
    <nd ref="28371587"/>
    <nd ref="1753951978"/>
    <nd ref="28371588"/>
    <nd ref="28371589"/>
    <nd ref="1753951979"/>
    <nd ref="28371590"/>
    <nd ref="1753951991"/>
    <tag k="hgv" v="no"/>
    <tag k="highway" v="residential"/>
    <tag k="lit" v="no"/>
    <tag k="maxspeed" v="60 mph"/>
    <tag k="maxspeed:type" v="GB:nsl_single"/>
    <tag k="name" v="Mill Road"/>
  </way>
  <way id="4547895" version="11" timestamp="2023-09-18T07:14:07Z" changeset="141409481" uid="7037" user="Gregory Williams">
    <nd ref="26237230"/>
    <nd ref="1617804065"/>
    <nd ref="8886691137"/>
    <nd ref="1617804045"/>
    <nd ref="28371723"/>
    <nd ref="2019643241"/>
    <nd ref="769202064"/>
    <nd ref="28371724"/>
    <nd ref="28371725"/>
    <tag k="highway" v="secondary"/>
    <tag k="lit" v="yes"/>
    <tag k="maxspeed" v="20 mph"/>
    <tag k="name" v="High Street"/>
    <tag k="ref" v="B2046"/>
  </way>
  <way id="4696433" version="7" timestamp="2021-08-27T11:52:01Z" changeset="110338149" uid="242345" user="confusedbuffalo">
    <nd ref="29862084"/>
    <nd ref="3190307573"/>
    <nd ref="29862096"/>
    <nd ref="29862098"/>
    <nd ref="29862100"/>
    <nd ref="29862102"/>
    <nd ref="1601536991"/>
    <nd ref="28485028"/>
    <tag k="highway" v="unclassified"/>
    <tag k="lit" v="no"/>
    <tag k="maxspeed" v="60 mph"/>
    <tag k="maxspeed:type" v="GB:nsl_single"/>
    <tag k="name" v="Snakes Hill"/>
  </way>
  <way id="4696434" version="5" timestamp="2024-07-04T09:41:43Z" changeset="153536496" uid="11471297" user="Palgrave Peter">
    <nd ref="29862094"/>
    <nd ref="29862092"/>
    <nd ref="29862155"/>
    <nd ref="29862157"/>
    <nd ref="29862159"/>
    <nd ref="29862160"/>
    <nd ref="29862162"/>
    <nd ref="29862164"/>
    <nd ref="1616499654"/>
    <nd ref="12033001032"/>
    <nd ref="1616499648"/>
    <nd ref="1616499642"/>
    <nd ref="1616499638"/>
    <nd ref="1616499634"/>
    <nd ref="1616499630"/>
    <nd ref="1616499629"/>
    <nd ref="1616499625"/>
    <tag k="highway" v="unclassified"/>
    <tag k="lit" v="no"/>
    <tag k="name" v="Dene Farm Lane"/>
  </way>
  <way id="4696435" version="8" timestamp="2021-09-01T20:50:31Z" changeset="110584942" uid="13416516" user="Mikey Co">
    <nd ref="29862166"/>
    <nd ref="8038820709"/>
    <nd ref="29862133"/>
    <nd ref="29862131"/>
    <nd ref="29862129"/>
    <nd ref="29862127"/>
    <tag k="highway" v="unclassified"/>
    <tag k="lit" v="no"/>
    <tag k="maxspeed" v="60 mph"/>
    <tag k="maxspeed:type" v="GB:nsl_single"/>
    <tag k="name" v="Watercress Lane"/>
  </way>
  <way id="4696436" version="2" timestamp="2013-04-01T06:20:03Z" changeset="15562897" uid="7037" user="Gregory Williams">
    <nd ref="29862153"/>
    <nd ref="29862151"/>
    <nd ref="29862166"/>
    <tag k="highway" v="residential"/>
    <tag k="lit" v="no"/>
    <tag k="name" v="Watercress Lane"/>
  </way>
  <way id="4706499" version="8" timestamp="2023-11-12T14:44:25Z" changeset="143936255" uid="7037" user="Gregory Williams">
    <nd ref="29948854"/>
    <nd ref="8594976993"/>
    <nd ref="29948855"/>
    <nd ref="29948856"/>
    <nd ref="29948857"/>
    <nd ref="29948858"/>
    <nd ref="29948859"/>
    <nd ref="29948860"/>
    <nd ref="29948861"/>
    <nd ref="29948862"/>
    <nd ref="29948863"/>
    <nd ref="29948864"/>
    <nd ref="8206012693"/>
    <nd ref="11343497011"/>
    <nd ref="29948871"/>
    <nd ref="6805475619"/>
    <nd ref="1934999134"/>
    <nd ref="1934999132"/>
    <nd ref="29948865"/>
    <nd ref="29948867"/>
    <nd ref="29948868"/>
    <nd ref="1934999130"/>
    <nd ref="29948869"/>
    <nd ref="29948870"/>
    <nd ref="28152706"/>
    <tag k="highway" v="unclassified"/>
    <tag k="maxspeed" v="60 mph"/>
    <tag k="maxspeed:type" v="GB:nsl_single"/>
    <tag k="name" v="Walmestone Road"/>
  </way>
  <way id="4706500" version="6" timestamp="2024-06-21T14:08:08Z" changeset="152995045" uid="11471297" user="Palgrave Peter">
    <nd ref="29948872"/>
    <nd ref="1934999131"/>
    <nd ref="29948875"/>
    <nd ref="29948876"/>
    <nd ref="29948877"/>
    <nd ref="1934999149"/>
    <nd ref="29948878"/>
    <nd ref="1934999146"/>
    <nd ref="1934999145"/>
    <nd ref="7897293637"/>
    <nd ref="29948879"/>
    <nd ref="1934999144"/>
    <nd ref="29948880"/>
    <nd ref="1934999140"/>
    <nd ref="29948881"/>
    <nd ref="1934999138"/>
    <nd ref="29948882"/>
    <nd ref="29948883"/>
    <nd ref="29948884"/>
    <nd ref="29948885"/>
    <tag k="highway" v="unclassified"/>
    <tag k="maxspeed" v="60 mph"/>
    <tag k="maxspeed:type" v="GB:nsl_single"/>
    <tag k="name" v="Perry Lane"/>
  </way>
  <way id="4706501" version="4" timestamp="2021-08-27T11:52:01Z" changeset="110338149" uid="242345" user="confusedbuffalo">
    <nd ref="29948867"/>
    <nd ref="29948885"/>
    <tag k="highway" v="unclassified"/>
    <tag k="maxspeed" v="60 mph"/>
    <tag k="maxspeed:type" v="GB:nsl_single"/>
    <tag k="name" v="Perry Lane"/>
  </way>
  <way id="4706553" version="4" timestamp="2021-08-27T11:52:01Z" changeset="110338149" uid="242345" user="confusedbuffalo">
    <nd ref="29949144"/>
    <nd ref="29949143"/>
    <tag k="highway" v="unclassified"/>
    <tag k="lit" v="no"/>
    <tag k="maxspeed" v="60 mph"/>
    <tag k="maxspeed:type" v="GB:nsl_single"/>
    <tag k="name" v="Nash Road"/>
  </way>
  <way id="4706555" version="6" timestamp="2021-08-27T11:52:01Z" changeset="110338149" uid="242345" user="confusedbuffalo">
    <nd ref="29949145"/>
    <nd ref="29949147"/>
    <nd ref="29949148"/>
    <nd ref="29949149"/>
    <nd ref="29949150"/>
    <nd ref="29949151"/>
    <tag k="highway" v="unclassified"/>
    <tag k="lit" v="no"/>
    <tag k="maxspeed" v="60 mph"/>
    <tag k="maxspeed:type" v="GB:nsl_single"/>
    <tag k="name" v="Hearts Delight Lane"/>
  </way>
  <way id="4706556" version="8" timestamp="2024-06-21T14:08:08Z" changeset="152995045" uid="11471297" user="Palgrave Peter">
    <nd ref="29949151"/>
    <nd ref="29949168"/>
    <nd ref="29949169"/>
    <nd ref="29949170"/>
    <nd ref="29949171"/>
    <nd ref="29949172"/>
    <nd ref="29949173"/>
    <nd ref="29949174"/>
    <nd ref="29949175"/>
    <nd ref="29949176"/>
    <nd ref="29949177"/>
    <nd ref="29949178"/>
    <nd ref="29949179"/>
    <nd ref="6912286450"/>
    <nd ref="29949180"/>
    <nd ref="29949181"/>
    <nd ref="29949182"/>
    <nd ref="29949184"/>
    <nd ref="29949183"/>
    <nd ref="29949185"/>
    <nd ref="1927700033"/>
    <nd ref="29949186"/>
    <nd ref="29949187"/>
    <nd ref="1927700032"/>
    <nd ref="29949188"/>
    <nd ref="1927700031"/>
    <nd ref="29949189"/>
    <nd ref="29949190"/>
    <nd ref="1927700030"/>
    <nd ref="29949191"/>
    <nd ref="29949192"/>
    <nd ref="29949193"/>
    <nd ref="1927700029"/>
    <nd ref="29949194"/>
    <nd ref="1927700028"/>
    <nd ref="29949195"/>
    <nd ref="29949196"/>
    <nd ref="29949197"/>
    <nd ref="1927700027"/>
    <nd ref="29949198"/>
    <nd ref="1927700026"/>
    <nd ref="29949199"/>
    <nd ref="29949139"/>
    <tag k="highway" v="unclassified"/>
    <tag k="lit" v="no"/>
    <tag k="maxspeed" v="60 mph"/>
    <tag k="maxspeed:type" v="GB:nsl_single"/>
    <tag k="name" v="Wenderton Lane"/>
  </way>
  <way id="4706557" version="5" timestamp="2021-08-27T11:52:01Z" changeset="110338149" uid="242345" user="confusedbuffalo">
    <nd ref="29949168"/>
    <nd ref="29949150"/>
    <tag k="highway" v="unclassified"/>
    <tag k="lit" v="no"/>
    <tag k="maxspeed" v="60 mph"/>
    <tag k="maxspeed:type" v="GB:nsl_single"/>
    <tag k="name" v="Wenderton Lane"/>
  </way>
  <way id="4865017" version="10" timestamp="2023-01-12T10:43:58Z" changeset="131181610" uid="47487" user="IJMacD">
    <nd ref="31397957"/>
    <nd ref="31397859"/>
    <nd ref="1616833387"/>
    <nd ref="1616833386"/>
    <nd ref="31397862"/>
    <nd ref="31397863"/>
    <nd ref="31397864"/>
    <nd ref="31397865"/>
    <nd ref="31397866"/>
    <nd ref="1603691360"/>
    <nd ref="31397867"/>
    <nd ref="31397868"/>
    <nd ref="31397869"/>
    <nd ref="1603691356"/>
    <nd ref="1603691350"/>
    <tag k="highway" v="unclassified"/>
    <tag k="maxspeed" v="60 mph"/>
    <tag k="maxspeed:type" v="GB:nsl_single"/>
    <tag k="name" v="Goodnestone Road"/>
    <tag k="official_ref" v="C230"/>
    <tag k="source" v="survey"/>
    <tag k="surface" v="asphalt"/>
  </way>
  <way id="4865018" version="6" timestamp="2023-11-11T09:54:08Z" changeset="143892398" uid="7037" user="Gregory Williams">
    <nd ref="31397869"/>
    <nd ref="331047421"/>
    <nd ref="31397886"/>
    <nd ref="31397888"/>
    <nd ref="331047420"/>
    <nd ref="31397889"/>
    <nd ref="31397890"/>
    <nd ref="31397891"/>
    <nd ref="1900712147"/>
    <nd ref="31397892"/>
    <nd ref="31397893"/>
    <nd ref="31397895"/>
    <nd ref="1900712145"/>
    <nd ref="1900712140"/>
    <nd ref="31397901"/>
    <nd ref="1900712139"/>
    <nd ref="31397902"/>
    <nd ref="11340913705"/>
    <tag k="highway" v="unclassified"/>
    <tag k="maxspeed" v="60 mph"/>
    <tag k="maxspeed:type" v="GB:nsl_single"/>
    <tag k="name" v="Goodnestone Hill"/>
    <tag k="surface" v="asphalt"/>
  </way>
  <way id="4865023" version="9" timestamp="2021-08-27T11:52:01Z" changeset="110338149" uid="242345" user="confusedbuffalo">
    <nd ref="31397840"/>
    <nd ref="31397841"/>
    <nd ref="6715122416"/>
    <nd ref="31397848"/>
    <nd ref="31397849"/>
    <nd ref="6510995045"/>
    <nd ref="31397850"/>
    <nd ref="31397851"/>
    <nd ref="31397852"/>
    <nd ref="6510995039"/>
    <nd ref="31397853"/>
    <nd ref="1323307390"/>
    <tag k="highway" v="unclassified"/>
    <tag k="maxspeed" v="60 mph"/>
    <tag k="maxspeed:type" v="GB:nsl_single"/>
    <tag k="name" v="Crockshard Lane"/>
  </way>
  <way id="30490142" version="5" timestamp="2023-09-18T07:14:07Z" changeset="141409481" uid="7037" user="Gregory Williams">
    <nd ref="336462529"/>
    <nd ref="336462535"/>
    <tag k="highway" v="residential"/>
    <tag k="lit" v="yes"/>
    <tag k="maxspeed" v="20 mph"/>
    <tag k="name" v="St. Marys Meadow"/>
    <tag k="not:name" v="St Mary's Meadow"/>
    <tag k="source" v="survey"/>
  </way>
  <way id="30490144" version="5" timestamp="2023-09-18T07:14:07Z" changeset="141409481" uid="7037" user="Gregory Williams">
    <nd ref="336462504"/>
    <nd ref="336462510"/>
    <nd ref="336462516"/>
    <nd ref="336462529"/>
    <nd ref="336462523"/>
    <tag k="highway" v="residential"/>
    <tag k="lit" v="yes"/>
    <tag k="maxspeed" v="20 mph"/>
    <tag k="name" v="St. Marys Meadow"/>
    <tag k="not:name" v="St Mary's Meadow"/>
    <tag k="source" v="survey"/>
  </way>
  <way id="61731276" version="6" timestamp="2023-09-18T07:14:07Z" changeset="141409481" uid="7037" user="Gregory Williams">
    <nd ref="769202039"/>
    <nd ref="1617804156"/>
    <nd ref="769202071"/>
    <tag k="highway" v="residential"/>
    <tag k="lit" v="yes"/>
    <tag k="maxspeed" v="20 mph"/>
    <tag k="name" v="Edmund Street"/>
    <tag k="source" v="OS_OpenData_StreetView"/>
  </way>
  <way id="61731277" version="5" timestamp="2023-09-18T07:14:07Z" changeset="141409481" uid="7037" user="Gregory Williams">
    <nd ref="769202091"/>
    <nd ref="769202036"/>
    <tag k="highway" v="residential"/>
    <tag k="lit" v="yes"/>
    <tag k="maxspeed" v="20 mph"/>
    <tag k="name" v="College Way"/>
    <tag k="source" v="OS_OpenData_StreetView"/>
    <tag k="source:name" v="OS_OpenData_Locator"/>
  </way>
  <way id="61731279" version="6" timestamp="2023-09-18T07:14:07Z" changeset="141409481" uid="7037" user="Gregory Williams">
    <nd ref="769202042"/>
    <nd ref="1617804222"/>
    <nd ref="769202017"/>
    <nd ref="1617804243"/>
    <nd ref="769202066"/>
    <nd ref="1617804250"/>
    <nd ref="769202105"/>
    <nd ref="769202055"/>
    <nd ref="1617804255"/>
    <nd ref="769202041"/>
    <tag k="highway" v="residential"/>
    <tag k="lit" v="yes"/>
    <tag k="maxspeed" v="20 mph"/>
    <tag k="name" v="North Court Road"/>
    <tag k="source" v="OS_OpenData_StreetView"/>
  </way>
  <way id="61731280" version="5" timestamp="2023-09-18T07:14:07Z" changeset="141409481" uid="7037" user="Gregory Williams">
    <nd ref="769202065"/>
    <nd ref="26237225"/>
    <tag k="highway" v="residential"/>
    <tag k="lit" v="yes"/>
    <tag k="maxspeed" v="20 mph"/>
    <tag k="name" v="Sweetlove Place"/>
    <tag k="source" v="OS_OpenData_StreetView"/>
  </way>
  <way id="61731281" version="9" timestamp="2023-09-18T07:14:07Z" changeset="141409481" uid="7037" user="Gregory Williams">
    <nd ref="769202020"/>
    <nd ref="3190307581"/>
    <tag k="highway" v="residential"/>
    <tag k="lit" v="yes"/>
    <tag k="maxspeed" v="20 mph"/>
    <tag k="name" v="South Court Drive"/>
    <tag k="source" v="OS_OpenData_StreetView;survey"/>
    <tag k="source:name" v="survey"/>
  </way>
  <way id="61731284" version="6" timestamp="2023-09-18T07:14:07Z" changeset="141409481" uid="7037" user="Gregory Williams">
    <nd ref="769202050"/>
    <nd ref="1617804277"/>
    <nd ref="1617804267"/>
    <nd ref="1617804263"/>
    <nd ref="769202034"/>
    <nd ref="769202055"/>
    <tag k="highway" v="residential"/>
    <tag k="lit" v="yes"/>
    <tag k="maxspeed" v="20 mph"/>
    <tag k="name" v="North Court Close"/>
    <tag k="source" v="OS_OpenData_StreetView"/>
  </way>
  <way id="61731285" version="6" timestamp="2023-09-18T07:14:07Z" changeset="141409481" uid="7037" user="Gregory Williams">
    <nd ref="769202047"/>
    <nd ref="1617804049"/>
    <nd ref="1617804063"/>
    <nd ref="769202003"/>
    <nd ref="1617804066"/>
    <nd ref="1617804067"/>
    <nd ref="769202095"/>
    <nd ref="1617804079"/>
    <nd ref="1617804082"/>
    <nd ref="1617804085"/>
    <nd ref="336462504"/>
    <nd ref="1617804109"/>
    <nd ref="336462499"/>
    <nd ref="336462494"/>
    <nd ref="1617804114"/>
    <nd ref="1617804117"/>
    <nd ref="336462487"/>
    <nd ref="1617804125"/>
    <nd ref="336462481"/>
    <nd ref="1617804130"/>
    <nd ref="1617804133"/>
    <nd ref="336462478"/>
    <nd ref="336462472"/>
    <nd ref="1617804174"/>
    <nd ref="769202082"/>
    <nd ref="1617804177"/>
    <nd ref="1617804179"/>
    <tag k="highway" v="residential"/>
    <tag k="lit" v="yes"/>
    <tag k="maxspeed" v="20 mph"/>
    <tag k="name" v="St. Marys Meadow"/>
    <tag k="not:name" v="St Mary's Meadow"/>
    <tag k="source" v="survey;OS_OpenData_StreetView"/>
  </way>
  <way id="61731289" version="6" timestamp="2023-09-18T07:14:07Z" changeset="141409481" uid="7037" user="Gregory Williams">
    <nd ref="769202033"/>
    <nd ref="769202089"/>
    <nd ref="1617804064"/>
    <nd ref="769202076"/>
    <nd ref="769202025"/>
    <tag k="highway" v="unclassified"/>
    <tag k="lit" v="yes"/>
    <tag k="maxspeed" v="20 mph"/>
    <tag k="name" v="Harris's Alley"/>
    <tag k="source" v="OS_OpenData_StreetView"/>
  </way>
  <way id="61731290" version="5" timestamp="2023-09-18T07:14:07Z" changeset="141409481" uid="7037" user="Gregory Williams">
    <nd ref="769202087"/>
    <nd ref="769202069"/>
    <tag k="highway" v="residential"/>
    <tag k="lit" v="yes"/>
    <tag k="maxspeed" v="20 mph"/>
    <tag k="name" v="Orchard Close"/>
    <tag k="source" v="OS_OpenData_StreetView"/>
  </way>
  <way id="61731292" version="6" timestamp="2023-09-18T07:14:07Z" changeset="141409481" uid="7037" user="Gregory Williams">
    <nd ref="769202060"/>
    <nd ref="1617804205"/>
    <nd ref="769202040"/>
    <nd ref="769202082"/>
    <tag k="highway" v="residential"/>
    <tag k="lit" v="yes"/>
    <tag k="maxspeed" v="20 mph"/>
    <tag k="name" v="Miles Court"/>
    <tag k="source" v="OS_OpenData_StreetView"/>
  </way>
  <way id="61731293" version="8" timestamp="2024-07-04T12:59:47Z" changeset="153546468" uid="11471297" user="Palgrave Peter">
    <nd ref="769202022"/>
    <nd ref="1601537160"/>
    <nd ref="769202098"/>
    <tag k="highway" v="residential"/>
    <tag k="lit" v="yes"/>
    <tag k="maxspeed" v="20 mph"/>
    <tag k="name" v="Court Cottages"/>
    <tag k="source" v="OS_OpenData_StreetView"/>
  </way>
  <way id="61731294" version="5" timestamp="2023-09-18T07:14:07Z" changeset="141409481" uid="7037" user="Gregory Williams">
    <nd ref="769202046"/>
    <nd ref="769202023"/>
    <tag k="highway" v="residential"/>
    <tag k="lit" v="yes"/>
    <tag k="maxspeed" v="20 mph"/>
    <tag k="name" v="Palmer Road"/>
    <tag k="source" v="OS_OpenData_StreetView"/>
  </way>
  <way id="61731296" version="6" timestamp="2023-09-18T07:14:07Z" changeset="141409481" uid="7037" user="Gregory Williams">
    <nd ref="769202080"/>
    <nd ref="1617804240"/>
    <nd ref="769202042"/>
    <nd ref="769202031"/>
    <nd ref="1617804184"/>
    <nd ref="1617804182"/>
    <nd ref="769202071"/>
    <nd ref="1617804137"/>
    <nd ref="1617804135"/>
    <nd ref="769202015"/>
    <nd ref="769202023"/>
    <nd ref="769202099"/>
    <tag k="highway" v="residential"/>
    <tag k="lit" v="yes"/>
    <tag k="maxspeed" v="20 mph"/>
    <tag k="name" v="Oxenden Crescent"/>
    <tag k="source" v="OS_OpenData_StreetView"/>
  </way>
  <way id="61731298" version="6" timestamp="2023-09-18T07:14:07Z" changeset="141409481" uid="7037" user="Gregory Williams">
    <nd ref="769202059"/>
    <nd ref="6536838586"/>
    <nd ref="2019643395"/>
    <nd ref="769202038"/>
    <nd ref="769202079"/>
    <tag k="highway" v="residential"/>
    <tag k="lit" v="yes"/>
    <tag k="maxspeed" v="20 mph"/>
    <tag k="name" v="School Lane"/>
    <tag k="source" v="OS_OpenData_StreetView"/>
  </way>
  <way id="61731354" version="4" timestamp="2023-09-18T07:14:07Z" changeset="141409481" uid="7037" user="Gregory Williams">
    <nd ref="769202535"/>
    <nd ref="769202528"/>
    <nd ref="769202544"/>
    <tag k="highway" v="residential"/>
    <tag k="lit" v="yes"/>
    <tag k="maxspeed" v="20 mph"/>
    <tag k="name" v="Miller Close"/>
    <tag k="source" v="OS_OpenData_StreetView"/>
  </way>
  <way id="61731441" version="4" timestamp="2023-09-18T07:14:07Z" changeset="141409481" uid="7037" user="Gregory Williams">
    <nd ref="769202552"/>
    <nd ref="769202550"/>
    <tag k="highway" v="residential"/>
    <tag k="lit" v="yes"/>
    <tag k="maxspeed" v="20 mph"/>
    <tag k="name" v="Miller Close"/>
    <tag k="source" v="OS_OpenData_StreetView"/>
  </way>
  <way id="61731442" version="5" timestamp="2023-09-18T07:14:07Z" changeset="141409481" uid="7037" user="Gregory Williams">
    <nd ref="769202528"/>
    <nd ref="769202526"/>
    <nd ref="1601537201"/>
    <nd ref="769202539"/>
    <nd ref="1601537197"/>
    <nd ref="769202533"/>
    <nd ref="769202551"/>
    <nd ref="769202550"/>
    <nd ref="769202530"/>
    <nd ref="769202549"/>
    <nd ref="769202542"/>
    <nd ref="769202422"/>
    <nd ref="769202537"/>
    <tag k="highway" v="residential"/>
    <tag k="lit" v="yes"/>
    <tag k="maxspeed" v="20 mph"/>
    <tag k="name" v="Miller Close"/>
    <tag k="source" v="OS_OpenData_StreetView"/>
  </way>
  <way id="70000402" version="12" timestamp="2023-09-18T07:14:07Z" changeset="141409481" uid="7037" user="Gregory Williams">
    <nd ref="29949142"/>
    <nd ref="8624561406"/>
    <nd ref="28150312"/>
    <nd ref="28150313"/>
    <nd ref="29949141"/>
    <nd ref="28150314"/>
    <nd ref="3546568383"/>
    <nd ref="28150315"/>
    <nd ref="28150316"/>
    <nd ref="1927700051"/>
    <nd ref="29949143"/>
    <tag k="highway" v="tertiary"/>
    <tag k="lit" v="no"/>
    <tag k="maxspeed" v="60 mph"/>
    <tag k="maxspeed:type" v="GB:nsl_single"/>
    <tag k="name" v="Preston Hill"/>
  </way>
  <way id="79686186" version="13" timestamp="2023-09-18T07:14:07Z" changeset="141409481" uid="7037" user="Gregory Williams">
    <nd ref="1601537132"/>
    <nd ref="1601537127"/>
    <nd ref="28485034"/>
    <nd ref="1601537096"/>
    <nd ref="1601537080"/>
    <nd ref="28485030"/>
    <nd ref="1601537068"/>
    <nd ref="1601537056"/>
    <nd ref="1601537020"/>
    <nd ref="1601537009"/>
    <nd ref="1601536998"/>
    <nd ref="1601536997"/>
    <nd ref="28485028"/>
    <nd ref="1601536974"/>
    <nd ref="1601536964"/>
    <nd ref="1601536961"/>
    <nd ref="1601536959"/>
    <nd ref="28485027"/>
    <nd ref="1601536954"/>
    <nd ref="1601536939"/>
    <nd ref="28485025"/>
    <nd ref="29862094"/>
    <nd ref="28485024"/>
    <nd ref="1616499688"/>
    <nd ref="28485023"/>
    <nd ref="1616499672"/>
    <nd ref="1616499670"/>
    <nd ref="31397840"/>
    <nd ref="28485020"/>
    <nd ref="1616499652"/>
    <nd ref="1616499644"/>
    <nd ref="28485019"/>
    <nd ref="1616499626"/>
    <nd ref="1616499604"/>
    <nd ref="28485017"/>
    <nd ref="1616499585"/>
    <nd ref="1616499582"/>
    <nd ref="1616499578"/>
    <nd ref="671057438"/>
    <nd ref="1616499554"/>
    <nd ref="1243303435"/>
    <nd ref="1616499548"/>
    <nd ref="1616499539"/>
    <nd ref="1243303800"/>
    <nd ref="6911464766"/>
    <nd ref="1616499517"/>
    <nd ref="671057437"/>
    <nd ref="7271695737"/>
    <nd ref="1243303283"/>
    <nd ref="1243303356"/>
    <nd ref="28485009"/>
    <nd ref="671057436"/>
    <nd ref="671057435"/>
    <nd ref="671057434"/>
    <nd ref="1616499276"/>
    <nd ref="671057432"/>
    <nd ref="1145517610"/>
    <nd ref="1145517606"/>
    <nd ref="1145517609"/>
    <nd ref="671057431"/>
    <nd ref="1145517605"/>
    <nd ref="1145517619"/>
    <nd ref="1145517601"/>
    <nd ref="671057430"/>
    <nd ref="1145517603"/>
    <nd ref="671057429"/>
    <nd ref="1616499042"/>
    <nd ref="1616833334"/>
    <nd ref="1616833333"/>
    <nd ref="671057427"/>
    <tag k="highway" v="secondary"/>
    <tag k="lit" v="no"/>
    <tag k="maxspeed" v="60 mph"/>
    <tag k="maxspeed:type" v="GB:nsl_single"/>
    <tag k="name" v="Adisham Road"/>
    <tag k="ref" v="B2046"/>
    <tag k="source:name" v="OS_OpenData_Locator"/>
  </way>
  <way id="80499092" version="12" timestamp="2023-10-01T17:03:47Z" changeset="141997451" uid="7037" user="Gregory Williams">
    <nd ref="318444938"/>
    <nd ref="11232185994"/>
    <nd ref="26237248"/>
    <nd ref="26237249"/>
    <nd ref="26237250"/>
    <nd ref="1601537213"/>
    <nd ref="29038870"/>
    <nd ref="28371591"/>
    <nd ref="29862168"/>
    <nd ref="2240993088"/>
    <nd ref="8718029634"/>
    <nd ref="8718029622"/>
    <nd ref="8718029633"/>
    <nd ref="7616147784"/>
    <nd ref="939085006"/>
    <tag k="highway" v="primary"/>
    <tag k="lanes" v="2"/>
    <tag k="lit" v="no"/>
    <tag k="maxspeed" v="40 mph"/>
    <tag k="ref" v="A257"/>
    <tag k="surface" v="asphalt"/>
  </way>
  <way id="83801790" version="11" timestamp="2023-12-29T14:52:49Z" changeset="145664926" uid="5229644" user="Nathan_A_RF">
    <nd ref="26237213"/>
    <nd ref="11465846094"/>
    <nd ref="11465846093"/>
    <nd ref="975668278"/>
    <nd ref="26237214"/>
    <nd ref="1617804455"/>
    <nd ref="26237215"/>
    <tag k="highway" v="primary"/>
    <tag k="lanes" v="2"/>
    <tag k="lit" v="no"/>
    <tag k="maxspeed" v="50 mph"/>
    <tag k="maxspeed:type" v="sign"/>
    <tag k="name" v="Gobery Hill"/>
    <tag k="ref" v="A257"/>
    <tag k="surface" v="asphalt"/>
  </way>
  <way id="83801792" version="8" timestamp="2023-09-18T07:14:07Z" changeset="141409481" uid="7037" user="Gregory Williams">
    <nd ref="26237230"/>
    <nd ref="26237231"/>
    <nd ref="26237232"/>
    <nd ref="8655353587"/>
    <nd ref="26237233"/>
    <nd ref="769202079"/>
    <nd ref="26237234"/>
    <nd ref="26237235"/>
    <nd ref="1617804072"/>
    <nd ref="26237236"/>
    <nd ref="26237237"/>
    <nd ref="26237238"/>
    <nd ref="26237239"/>
    <nd ref="26237240"/>
    <nd ref="26237241"/>
    <nd ref="26237242"/>
    <nd ref="769202030"/>
    <tag k="highway" v="primary"/>
    <tag k="lanes" v="2"/>
    <tag k="lit" v="yes"/>
    <tag k="maxspeed" v="20 mph"/>
    <tag k="name" v="Canterbury Road"/>
    <tag k="ref" v="A257"/>
    <tag k="surface" v="asphalt"/>
  </way>
  <way id="86984951" version="7" timestamp="2021-08-27T11:52:01Z" changeset="110338149" uid="242345" user="confusedbuffalo">
    <nd ref="29949151"/>
    <nd ref="29949202"/>
    <nd ref="29949152"/>
    <nd ref="29949153"/>
    <nd ref="29949154"/>
    <nd ref="29949155"/>
    <nd ref="29949156"/>
    <nd ref="29949157"/>
    <nd ref="6643651640"/>
    <nd ref="29949158"/>
    <nd ref="29949159"/>
    <nd ref="29949160"/>
    <nd ref="29949161"/>
    <nd ref="29949162"/>
    <nd ref="29949163"/>
    <nd ref="29949164"/>
    <nd ref="29949165"/>
    <nd ref="29949166"/>
    <nd ref="29949167"/>
    <tag k="highway" v="unclassified"/>
    <tag k="lit" v="no"/>
    <tag k="maxspeed" v="60 mph"/>
    <tag k="maxspeed:type" v="GB:nsl_single"/>
    <tag k="name" v="Wenderton Lane"/>
    <tag k="source:name" v="OS_OpenData_Locator"/>
  </way>
  <way id="111808104" version="8" timestamp="2024-06-21T14:08:08Z" changeset="152995045" uid="11471297" user="Palgrave Peter">
    <nd ref="1272999808"/>
    <nd ref="1272999509"/>
    <nd ref="1272999862"/>
    <nd ref="1272999562"/>
    <nd ref="1272999605"/>
    <nd ref="1272999654"/>
    <nd ref="1272999692"/>
    <nd ref="6557036665"/>
    <nd ref="11994930317"/>
    <nd ref="26237208"/>
    <nd ref="1272999526"/>
    <nd ref="1272999475"/>
    <nd ref="1272999733"/>
    <nd ref="1272999576"/>
    <nd ref="7114079778"/>
    <nd ref="26237209"/>
    <nd ref="1272999791"/>
    <nd ref="1272999695"/>
    <nd ref="26237210"/>
    <nd ref="1272999682"/>
    <nd ref="7639777842"/>
    <nd ref="7639777835"/>
    <nd ref="7639777847"/>
    <nd ref="26237211"/>
    <nd ref="11999040323"/>
    <nd ref="1272999764"/>
    <nd ref="26237212"/>
    <nd ref="975668273"/>
    <nd ref="1272999656"/>
    <nd ref="26237213"/>
    <tag k="highway" v="primary"/>
    <tag k="lanes" v="2"/>
    <tag k="maxspeed" v="50 mph"/>
    <tag k="maxspeed:type" v="sign"/>
    <tag k="ref" v="A257"/>
    <tag k="surface" v="asphalt"/>
  </way>
  <way id="117459164" version="7" timestamp="2024-07-04T12:59:47Z" changeset="153546468" uid="11471297" user="Palgrave Peter">
    <nd ref="1158950089"/>
    <nd ref="31397855"/>
    <nd ref="31397857"/>
    <nd ref="31397957"/>
    <tag k="highway" v="unclassified"/>
    <tag k="maxspeed" v="60 mph"/>
    <tag k="maxspeed:type" v="GB:nsl_single"/>
    <tag k="name" v="Crockshard Hill"/>
  </way>
  <way id="146946998" version="5" timestamp="2023-10-01T17:49:33Z" changeset="141999008" uid="7037" user="Gregory Williams">
    <nd ref="28371725"/>
    <nd ref="1601537193"/>
    <tag k="highway" v="secondary"/>
    <tag k="lit" v="yes"/>
    <tag k="maxspeed" v="20 mph"/>
    <tag k="name" v="High Street"/>
    <tag k="ref" v="B2046"/>
    <tag k="source:name" v="OS_OpenData_Locator"/>
  </way>
  <way id="146947017" version="8" timestamp="2024-06-21T14:08:08Z" changeset="152995045" uid="11471297" user="Palgrave Peter">
    <nd ref="1601537563"/>
    <nd ref="1601537541"/>
    <nd ref="1601537539"/>
    <nd ref="1601537533"/>
    <nd ref="8011641657"/>
    <nd ref="1601537525"/>
    <nd ref="1601537506"/>
    <nd ref="1601537498"/>
    <nd ref="1601537485"/>
    <nd ref="1601537471"/>
    <nd ref="1601537466"/>
    <nd ref="11999040322"/>
    <nd ref="1601537461"/>
    <nd ref="1601537458"/>
    <nd ref="1601537463"/>
    <nd ref="1601537477"/>
    <nd ref="1601537482"/>
    <nd ref="1601537487"/>
    <nd ref="1601537495"/>
    <nd ref="1601537492"/>
    <nd ref="3199638877"/>
    <nd ref="9956318508"/>
    <nd ref="1601537459"/>
    <nd ref="1601537446"/>
    <nd ref="1601537443"/>
    <nd ref="1601537434"/>
    <nd ref="1601537419"/>
    <nd ref="1601537410"/>
    <nd ref="1601537392"/>
    <nd ref="11465846092"/>
    <nd ref="26237213"/>
    <tag k="highway" v="unclassified"/>
    <tag k="maxspeed" v="60 mph"/>
    <tag k="maxspeed:type" v="GB:nsl_single"/>
    <tag k="name" v="Rusham Road"/>
    <tag k="source" v="survey"/>
  </way>
  <way id="146947028" version="6" timestamp="2023-12-29T14:52:49Z" changeset="145664926" uid="5229644" user="Nathan_A_RF">
    <nd ref="28371725"/>
    <nd ref="28371726"/>
    <nd ref="769202098"/>
    <nd ref="769202069"/>
    <nd ref="28371728"/>
    <nd ref="28371727"/>
    <nd ref="769202537"/>
    <nd ref="2240993086"/>
    <tag k="alt_name" v="Seaths Corner"/>
    <tag k="highway" v="tertiary"/>
    <tag k="lcn" v="proposed"/>
    <tag k="lit" v="yes"/>
    <tag k="maxspeed" v="20 mph"/>
    <tag k="name" v="Staple Road"/>
    <tag k="source:alt_name" v="OS_OpenData_Locator"/>
  </way>
  <way id="146947050" version="5" timestamp="2023-09-16T19:10:36Z" changeset="141355881" uid="20252098" user="DoubleCart">
    <nd ref="28371728"/>
    <nd ref="1925483754"/>
    <nd ref="1925483748"/>
    <nd ref="1601537145"/>
    <nd ref="11196449476"/>
    <nd ref="1925483745"/>
    <tag k="highway" v="unclassified"/>
    <tag k="lit" v="yes"/>
    <tag k="maxspeed" v="30 mph"/>
    <tag k="name" v="Goodnestone Road"/>
    <tag k="source" v="survey"/>
  </way>
  <way id="148704562" version="4" timestamp="2023-09-18T07:14:07Z" changeset="141409481" uid="7037" user="Gregory Williams">
    <nd ref="1617804167"/>
    <nd ref="1617804156"/>
    <tag k="highway" v="residential"/>
    <tag k="lit" v="yes"/>
    <tag k="maxspeed" v="20 mph"/>
    <tag k="name" v="Edmund Street"/>
    <tag k="source" v="OS_OpenData_StreetView"/>
  </way>
  <way id="148704564" version="11" timestamp="2023-09-18T07:14:07Z" changeset="141409481" uid="7037" user="Gregory Williams">
    <nd ref="1617804362"/>
    <nd ref="769202043"/>
    <nd ref="1617804324"/>
    <nd ref="1617804308"/>
    <nd ref="1617804283"/>
    <nd ref="1617804270"/>
    <nd ref="1617804259"/>
    <nd ref="769202041"/>
    <nd ref="1617804210"/>
    <nd ref="1617804199"/>
    <nd ref="1617804179"/>
    <nd ref="26237225"/>
    <nd ref="769202062"/>
    <nd ref="1617804127"/>
    <nd ref="8042520500"/>
    <nd ref="1617804121"/>
    <nd ref="1617804119"/>
    <nd ref="1617804112"/>
    <nd ref="1617804089"/>
    <nd ref="1617804075"/>
    <nd ref="1617804070"/>
    <nd ref="769202025"/>
    <tag k="highway" v="primary"/>
    <tag k="lanes" v="2"/>
    <tag k="lit" v="yes"/>
    <tag k="maxspeed" v="20 mph"/>
    <tag k="name" v="High Street"/>
    <tag k="ref" v="A257"/>
    <tag k="surface" v="asphalt"/>
  </way>
  <way id="148704567" version="4" timestamp="2023-09-18T07:14:07Z" changeset="141409481" uid="7037" user="Gregory Williams">
    <nd ref="1617804205"/>
    <nd ref="1617804208"/>
    <tag k="highway" v="residential"/>
    <tag k="lit" v="yes"/>
    <tag k="maxspeed" v="20 mph"/>
    <tag k="name" v="Miles Court"/>
    <tag k="source" v="OS_OpenData_StreetView"/>
  </way>
  <way id="148704569" version="4" timestamp="2023-09-18T07:14:07Z" changeset="141409481" uid="7037" user="Gregory Williams">
    <nd ref="1617804280"/>
    <nd ref="1617804277"/>
    <tag k="highway" v="residential"/>
    <tag k="lit" v="yes"/>
    <tag k="maxspeed" v="20 mph"/>
    <tag k="name" v="North Court Close"/>
    <tag k="source" v="OS_OpenData_StreetView"/>
  </way>
  <way id="148704570" version="4" timestamp="2023-09-18T07:14:07Z" changeset="141409481" uid="7037" user="Gregory Williams">
    <nd ref="1617804227"/>
    <nd ref="1617804240"/>
    <tag k="highway" v="residential"/>
    <tag k="lit" v="yes"/>
    <tag k="maxspeed" v="20 mph"/>
    <tag k="name" v="Oxenden Crescent"/>
    <tag k="source" v="OS_OpenData_StreetView"/>
  </way>
  <way id="148704572" version="4" timestamp="2023-09-18T07:14:07Z" changeset="141409481" uid="7037" user="Gregory Williams">
    <nd ref="1617804049"/>
    <nd ref="1617804042"/>
    <tag k="highway" v="residential"/>
    <tag k="lit" v="yes"/>
    <tag k="maxspeed" v="20 mph"/>
    <tag k="name" v="St. Marys Meadow"/>
    <tag k="not:name" v="St Mary's Meadow"/>
    <tag k="source" v="survey;OS_OpenData_StreetView"/>
  </way>
  <way id="163716815" version="3" timestamp="2018-12-31T20:36:31Z" changeset="65921327" uid="608760" user="gregrs">
    <nd ref="1753951991"/>
    <nd ref="1753951995"/>
    <nd ref="1753951998"/>
    <nd ref="28371591"/>
    <tag k="hgv" v="no"/>
    <tag k="highway" v="residential"/>
    <tag k="lit" v="no"/>
    <tag k="maxspeed" v="40 mph"/>
    <tag k="name" v="Mill Road"/>
  </way>
  <way id="163716817" version="3" timestamp="2023-10-01T17:03:47Z" changeset="141997451" uid="7037" user="Gregory Williams">
    <nd ref="29038756"/>
    <nd ref="1601537365"/>
    <nd ref="1601537357"/>
    <nd ref="1601537356"/>
    <nd ref="1601537352"/>
    <nd ref="1601537349"/>
    <nd ref="1601537346"/>
    <nd ref="1601537343"/>
    <nd ref="1601537314"/>
    <nd ref="1601537312"/>
    <nd ref="1601537307"/>
    <nd ref="1601537305"/>
    <nd ref="1601537302"/>
    <nd ref="1601537300"/>
    <nd ref="1601537294"/>
    <nd ref="1601537280"/>
    <nd ref="1601537265"/>
    <nd ref="1601537263"/>
    <nd ref="1601537255"/>
    <nd ref="1601537244"/>
    <nd ref="11232185982"/>
    <nd ref="1601537241"/>
    <nd ref="1601537238"/>
    <nd ref="1601537229"/>
    <nd ref="1601537216"/>
    <nd ref="1601537210"/>
    <nd ref="29038870"/>
    <tag k="highway" v="unclassified"/>
    <tag k="lit" v="no"/>
    <tag k="maxspeed" v="60 mph"/>
    <tag k="maxspeed:type" v="GB:nsl_single"/>
    <tag k="name" v="Wingham Lane"/>
    <tag k="not:name" v="Wingham Road"/>
    <tag k="source" v="survey"/>
    <tag k="source:name" v="survey"/>
  </way>
  <way id="182205083" version="4" timestamp="2021-08-27T11:52:01Z" changeset="110338149" uid="242345" user="confusedbuffalo">
    <nd ref="1925483745"/>
    <nd ref="1925483744"/>
    <nd ref="1925483743"/>
    <tag k="highway" v="unclassified"/>
    <tag k="lit" v="yes"/>
    <tag k="maxspeed" v="60 mph"/>
    <tag k="maxspeed:type" v="GB:nsl_single"/>
    <tag k="name" v="Goodnestone Road"/>
    <tag k="source" v="survey"/>
  </way>
  <way id="186909817" version="6" timestamp="2024-07-04T12:59:47Z" changeset="153546468" uid="11471297" user="Palgrave Peter">
    <nd ref="250384412"/>
    <nd ref="1976600877"/>
    <nd ref="1976600851"/>
    <nd ref="1976600814"/>
    <nd ref="1976600853"/>
    <nd ref="1976600838"/>
    <nd ref="1976600861"/>
    <nd ref="1976600819"/>
    <nd ref="1976600867"/>
    <nd ref="250384412"/>
    <tag k="addr:city" v="Canterbury"/>
    <tag k="addr:postcode" v="CT3 1BD"/>
    <tag k="addr:street" v="School Lane"/>
    <tag k="addr:village" v="Wingham"/>
    <tag k="amenity" v="school"/>
    <tag k="capacity" v="210"/>
    <tag k="isced:level" v="1"/>
    <tag k="max_age" v="11"/>
    <tag k="min_age" v="4"/>
    <tag k="name" v="Wingham Primary School"/>
    <tag k="phone" v="+44 1227 720277"/>
    <tag k="ref:GB:uprn" v="100062298256"/>
    <tag k="ref:edubase" v="118403"/>
    <tag k="ref:edubase:group" v="1627"/>
    <tag k="school:federation:name" v="The Federation of Preston and Wingham"/>
    <tag k="school:trust" v="no"/>
    <tag k="school:type" v="community"/>
    <tag k="wikidata" v="Q66226252"/>
  </way>
  <way id="186911097" version="3" timestamp="2018-04-29T14:44:31Z" changeset="58529435" uid="7037" user="Gregory Williams">
    <nd ref="1976625497"/>
    <nd ref="1976625469"/>
    <nd ref="1976625487"/>
    <nd ref="1976625454"/>
    <nd ref="1976625497"/>
    <tag k="addr:city" v="Canterbury"/>
    <tag k="addr:housenumber" v="68"/>
    <tag k="addr:postcode" v="CT3 1AA"/>
    <tag k="addr:street" v="High Street"/>
    <tag k="addr:village" v="Wingham"/>
    <tag k="building" v="yes"/>
    <tag k="fhrs:id" v="619448"/>
    <tag k="name" v="Wingham Central Stores"/>
    <tag k="shop" v="convenience"/>
    <tag k="source:addr" v="FHRS Open Data"/>
  </way>
  <way id="186911099" version="4" timestamp="2021-01-29T00:33:15Z" changeset="98325438" uid="5008136" user="JayTurnr">
    <nd ref="1976625494"/>
    <nd ref="1976625488"/>
    <nd ref="1976625520"/>
    <nd ref="1976625522"/>
    <nd ref="1976625492"/>
    <nd ref="1976625515"/>
    <nd ref="1976625494"/>
    <tag k="addr:city" v="Canterbury"/>
    <tag k="addr:housenumber" v="71"/>
    <tag k="addr:postcode" v="CT3 1AA"/>
    <tag k="addr:street" v="High Street"/>
    <tag k="addr:village" v="Wingham"/>
    <tag k="building" v="yes"/>
    <tag k="disused:amenity" v="post_office"/>
    <tag k="fixme" v="Survey required to confirm new usage"/>
    <tag k="note" v="Former Post Office, closed November 2019."/>
    <tag k="ref:pol_id" v="1899"/>
  </way>
  <way id="186911100" version="5" timestamp="2024-07-23T16:57:29Z" changeset="154316338" uid="5008136" user="JayTurnr">
    <nd ref="1976625513"/>
    <nd ref="1976625495"/>
    <nd ref="1976625453"/>
    <nd ref="1976625485"/>
    <nd ref="1976625471"/>
    <nd ref="1976625456"/>
    <nd ref="1976625478"/>
    <nd ref="1976625518"/>
    <nd ref="1976625491"/>
    <nd ref="1976625480"/>
    <nd ref="1976625473"/>
    <nd ref="1976625513"/>
    <tag k="addr:city" v="Canterbury"/>
    <tag k="addr:postcode" v="CT3 1AB"/>
    <tag k="addr:street" v="High Street"/>
    <tag k="addr:village" v="Wingham"/>
    <tag k="building" v="yes"/>
    <tag k="disused:amenity" v="bank"/>
    <tag k="name" v="Lloyds Bank"/>
  </way>
  <way id="186911438" version="3" timestamp="2021-01-29T00:33:15Z" changeset="98325438" uid="5008136" user="JayTurnr">
    <nd ref="1976631598"/>
    <nd ref="1976631592"/>
    <nd ref="1976631602"/>
    <nd ref="1976631601"/>
    <nd ref="1976631600"/>
    <nd ref="1976631597"/>
    <nd ref="1976631594"/>
    <nd ref="1976631596"/>
    <nd ref="1976631595"/>
    <nd ref="1976631599"/>
    <nd ref="1976631593"/>
    <nd ref="1976631598"/>
    <tag k="addr:city" v="Canterbury"/>
    <tag k="addr:housenumber" v="66"/>
    <tag k="addr:postcode" v="CT3 1AA"/>
    <tag k="addr:street" v="High Street"/>
    <tag k="addr:village" v="Wingham"/>
    <tag k="amenity" v="dentist"/>
    <tag k="building" v="yes"/>
    <tag k="healthcare" v="dentist"/>
    <tag k="name" v="Dental Practice"/>
  </way>
  <way id="186911513" version="3" timestamp="2025-03-07T07:00:25Z" changeset="163312467" uid="7037" user="Gregory Williams">
    <nd ref="1976634282"/>
    <nd ref="1976634280"/>
    <nd ref="1976634276"/>
    <nd ref="1976634273"/>
    <nd ref="1976634282"/>
    <tag k="addr:city" v="Canterbury"/>
    <tag k="addr:country" v="GB"/>
    <tag k="addr:county" v="Kent"/>
    <tag k="addr:housenumber" v="2"/>
    <tag k="addr:postcode" v="CT3 1BN"/>
    <tag k="addr:street" v="North Court Road"/>
    <tag k="addr:village" v="Wingham"/>
    <tag k="building" v="yes"/>
    <tag k="name" v="Surgery"/>
  </way>
  <way id="186911992" version="4" timestamp="2018-05-26T06:43:45Z" changeset="59287920" uid="364" user="Edward">
    <nd ref="1976643403"/>
    <nd ref="1976643405"/>
    <nd ref="1976643433"/>
    <nd ref="1976643427"/>
    <nd ref="1976643430"/>
    <nd ref="1976643436"/>
    <nd ref="1976643439"/>
    <nd ref="1976643421"/>
    <nd ref="1976643424"/>
    <nd ref="1976643443"/>
    <nd ref="1976643403"/>
    <tag k="addr:city" v="Canterbury"/>
    <tag k="addr:postcode" v="CT3 1BB"/>
    <tag k="addr:street" v="Canterbury Road"/>
    <tag k="addr:village" v="Wingham"/>
    <tag k="amenity" v="pub"/>
    <tag k="building" v="pub"/>
    <tag k="name" v="The Red Lion Inn"/>
    <tag k="website" v="http://www.redlionwingham.co.uk/"/>
    <tag k="wikidata" v="Q17557898"/>
  </way>
  <way id="186912494" version="5" timestamp="2020-06-09T08:32:47Z" changeset="86394631" uid="364" user="Edward">
    <nd ref="1976654248"/>
    <nd ref="1976654229"/>
    <nd ref="1976654243"/>
    <nd ref="1976654283"/>
    <nd ref="1976654245"/>
    <nd ref="1976654264"/>
    <nd ref="1976654286"/>
    <nd ref="1976654287"/>
    <nd ref="1976654258"/>
    <nd ref="1976654266"/>
    <nd ref="1976654280"/>
    <nd ref="1976654247"/>
    <nd ref="1976654268"/>
    <nd ref="1976654231"/>
    <nd ref="1976654241"/>
    <nd ref="1976654253"/>
    <nd ref="1976654249"/>
    <nd ref="1976654285"/>
    <nd ref="1976654248"/>
    <tag k="addr:city" v="Canterbury"/>
    <tag k="addr:postcode" v="CT3 1BJ"/>
    <tag k="addr:street" v="High Street"/>
    <tag k="addr:village" v="Wingham"/>
    <tag k="amenity" v="pub"/>
    <tag k="building" v="pub"/>
    <tag k="contact:website" v="http://www.staple-online.co.uk/anchor/"/>
    <tag k="fhrs:id" v="466217"/>
    <tag k="name" v="The Anchor"/>
    <tag k="source:addr" v="FHRS Open Data"/>
    <tag k="wikidata" v="Q26323721"/>
  </way>
  <way id="186912495" version="7" timestamp="2018-12-28T20:35:12Z" changeset="65852162" uid="608760" user="gregrs">
    <nd ref="1976654246"/>
    <nd ref="1976654284"/>
    <nd ref="1976654242"/>
    <nd ref="1976654256"/>
    <nd ref="1976654254"/>
    <nd ref="1976654278"/>
    <nd ref="1976654262"/>
    <nd ref="1976654251"/>
    <nd ref="1976654244"/>
    <nd ref="1976654282"/>
    <nd ref="1976654260"/>
    <nd ref="1976654233"/>
    <nd ref="1976654246"/>
    <tag k="addr:postcode" v="CT3 1BB"/>
    <tag k="addr:street" v="Canterbury Road"/>
    <tag k="addr:village" v="Wingham"/>
    <tag k="amenity" v="pub"/>
    <tag k="building" v="yes"/>
    <tag k="fhrs:id" v="915502"/>
    <tag k="name" v="The Dog Inn"/>
    <tag k="toilets:wheelchair" v="no"/>
    <tag k="website" v="http://www.thedoginn.co.uk/"/>
    <tag k="wheelchair" v="no"/>
    <tag k="wheelchair:description" v="Lovely place if youâ€™re on sticks but with no wheelchair toilet and lots of steps all around the place!"/>
    <tag k="wikidata" v="Q17557663"/>
  </way>
  <way id="186913202" version="3" timestamp="2022-01-19T10:08:02Z" changeset="116334376" uid="7037" user="Gregory Williams">
    <nd ref="1976657781"/>
    <nd ref="1976657779"/>
    <nd ref="1976657778"/>
    <nd ref="1976657780"/>
    <nd ref="1976657781"/>
    <tag k="addr:city" v="Canterbury"/>
    <tag k="addr:housenumber" v="93"/>
    <tag k="addr:postcode" v="CT3 1DE"/>
    <tag k="addr:street" v="High Street"/>
    <tag k="addr:village" v="Wingham"/>
    <tag k="building" v="yes"/>
    <tag k="fhrs:id" v="459932"/>
    <tag k="name" v="ET Wilmshurst &amp; Sons"/>
    <tag k="shop" v="bakery"/>
  </way>
  <way id="212660842" version="2" timestamp="2021-08-27T11:52:01Z" changeset="110338149" uid="242345" user="confusedbuffalo">
    <nd ref="769202107"/>
    <nd ref="1925483738"/>
    <nd ref="769202088"/>
    <nd ref="31397959"/>
    <tag k="highway" v="unclassified"/>
    <tag k="maxspeed" v="60 mph"/>
    <tag k="maxspeed:type" v="GB:nsl_single"/>
    <tag k="name" v="Popsal Lane"/>
    <tag k="source" v="OS_OpenData_StreetView"/>
  </way>
  <way id="214585874" version="4" timestamp="2023-10-01T17:49:33Z" changeset="141999008" uid="7037" user="Gregory Williams">
    <nd ref="1601537193"/>
    <nd ref="929949681"/>
    <tag k="highway" v="secondary"/>
    <tag k="lit" v="no"/>
    <tag k="maxspeed" v="20 mph"/>
    <tag k="name" v="High Street"/>
    <tag k="ref" v="B2046"/>
    <tag k="source:name" v="OS_OpenData_Locator"/>
  </way>
  <way id="214585876" version="5" timestamp="2023-09-18T07:14:07Z" changeset="141409481" uid="7037" user="Gregory Williams">
    <nd ref="769202030"/>
    <nd ref="26237243"/>
    <nd ref="26237244"/>
    <tag k="highway" v="primary"/>
    <tag k="lanes" v="2"/>
    <tag k="lit" v="no"/>
    <tag k="maxspeed" v="20 mph"/>
    <tag k="name" v="Canterbury Road"/>
    <tag k="ref" v="A257"/>
    <tag k="surface" v="asphalt"/>
  </way>
  <way id="214585878" version="5" timestamp="2023-01-12T10:43:58Z" changeset="131181610" uid="47487" user="IJMacD">
    <nd ref="1925483743"/>
    <nd ref="1925483740"/>
    <nd ref="6524016466"/>
    <nd ref="1601537130"/>
    <nd ref="1601537085"/>
    <nd ref="1925483739"/>
    <nd ref="1601537077"/>
    <nd ref="1601537022"/>
    <nd ref="31397959"/>
    <nd ref="1601536948"/>
    <nd ref="1925483737"/>
    <nd ref="1601536908"/>
    <nd ref="1601536890"/>
    <nd ref="1601536887"/>
    <nd ref="1616833388"/>
    <nd ref="31397957"/>
    <tag k="highway" v="unclassified"/>
    <tag k="lit" v="no"/>
    <tag k="maxspeed" v="60 mph"/>
    <tag k="maxspeed:type" v="GB:nsl_single"/>
    <tag k="name" v="Goodnestone Road"/>
    <tag k="official_ref" v="C230"/>
    <tag k="source" v="survey"/>
  </way>
  <way id="214585881" version="3" timestamp="2024-06-21T14:08:08Z" changeset="152995045" uid="11471297" user="Palgrave Peter">
    <nd ref="769202058"/>
    <nd ref="28150306"/>
    <nd ref="28150307"/>
    <nd ref="769202016"/>
    <nd ref="29949139"/>
    <tag k="highway" v="tertiary"/>
    <tag k="lit" v="no"/>
    <tag k="maxspeed" v="30 mph"/>
    <tag k="name" v="Preston Hill"/>
  </way>
  <way id="214585884" version="4" timestamp="2023-09-18T07:14:07Z" changeset="141409481" uid="7037" user="Gregory Williams">
    <nd ref="2240993086"/>
    <nd ref="28371729"/>
    <nd ref="1925483752"/>
    <nd ref="1601537150"/>
    <tag k="alt_name" v="Seaths Corner"/>
    <tag k="highway" v="tertiary"/>
    <tag k="lcn" v="proposed"/>
    <tag k="lit" v="no"/>
    <tag k="maxspeed" v="30 mph"/>
    <tag k="name" v="Staple Road"/>
    <tag k="source:alt_name" v="OS_OpenData_Locator"/>
  </way>
  <way id="313920643" version="11" timestamp="2024-06-21T14:08:08Z" changeset="152995045" uid="11471297" user="Palgrave Peter">
    <nd ref="3199638871"/>
    <nd ref="3199638870"/>
    <nd ref="3199638869"/>
    <nd ref="11081342283"/>
    <nd ref="3199638878"/>
    <nd ref="3199638879"/>
    <nd ref="11081342282"/>
    <nd ref="11081342281"/>
    <nd ref="11081342280"/>
    <nd ref="6831750674"/>
    <nd ref="3199640164"/>
    <nd ref="11207765832"/>
    <nd ref="11207765835"/>
    <nd ref="11207765834"/>
    <nd ref="11207765828"/>
    <nd ref="11207765841"/>
    <nd ref="11207765844"/>
    <nd ref="6831750675"/>
    <nd ref="3199640219"/>
    <nd ref="11207765845"/>
    <nd ref="11207765851"/>
    <nd ref="3199640238"/>
    <nd ref="11207765798"/>
    <nd ref="11207765793"/>
    <nd ref="11207765792"/>
    <nd ref="11207765790"/>
    <nd ref="3199640237"/>
    <nd ref="11207765779"/>
    <nd ref="11207765783"/>
    <nd ref="11207765781"/>
    <nd ref="11207758763"/>
    <nd ref="11081342290"/>
    <nd ref="11081342289"/>
    <nd ref="11207758753"/>
    <nd ref="11081342288"/>
    <nd ref="11207758752"/>
    <nd ref="11138967424"/>
    <nd ref="11138967419"/>
    <nd ref="11138967418"/>
    <nd ref="11999040295"/>
    <nd ref="11081342287"/>
    <nd ref="3199638898"/>
    <nd ref="11081342286"/>
    <nd ref="11081342285"/>
    <nd ref="11081342284"/>
    <nd ref="3199638875"/>
    <nd ref="11138967453"/>
    <nd ref="3199638871"/>
    <tag k="addr:hamlet" v="Shatterling"/>
    <tag k="addr:postcode" v="CT3 1JL"/>
    <tag k="addr:street" v="Rusham Road"/>
    <tag k="fhrs:id" v="254664"/>
    <tag k="name" v="Wingham Wildlife Park"/>
    <tag k="phone" v="+44 1227 720836"/>
    <tag k="tourism" v="zoo"/>
    <tag k="website" v="https://winghamwildlifepark.co.uk/"/>
    <tag k="wikidata" v="Q8025221"/>
  </way>
  <way id="316307864" version="2" timestamp="2021-08-24T18:38:10Z" changeset="110188921" uid="242345" user="confusedbuffalo">
    <nd ref="3224168675"/>
    <nd ref="3224168676"/>
    <nd ref="3224168677"/>
    <nd ref="3224168678"/>
    <nd ref="3224168675"/>
    <tag k="addr:housenumber" v="117"/>
    <tag k="addr:street" v="High Street"/>
    <tag k="building" v="house"/>
  </way>
  <way id="316308084" version="3" timestamp="2021-08-24T18:38:10Z" changeset="110188921" uid="242345" user="confusedbuffalo">
    <nd ref="3224171082"/>
    <nd ref="3224171083"/>
    <nd ref="3224171084"/>
    <nd ref="3224171085"/>
    <nd ref="3224171082"/>
    <tag k="addr:housename" v="The Old Dairy"/>
    <tag k="addr:housenumber" v="115"/>
    <tag k="addr:street" v="High Street"/>
    <tag k="building" v="house"/>
  </way>
  <way id="316308284" version="3" timestamp="2021-08-24T18:38:10Z" changeset="110188921" uid="242345" user="confusedbuffalo">
    <nd ref="3224165819"/>
    <nd ref="3224165820"/>
    <nd ref="3224165821"/>
    <nd ref="3224165822"/>
    <nd ref="3224165823"/>
    <nd ref="3224165824"/>
    <nd ref="3224165819"/>
    <tag k="addr:housenumber" v="106"/>
    <tag k="addr:street" v="High Street"/>
    <tag k="building" v="house"/>
  </way>
  <way id="498271623" version="2" timestamp="2023-09-18T07:14:07Z" changeset="141409481" uid="7037" user="Gregory Williams">
    <nd ref="3190307582"/>
    <nd ref="577319965"/>
    <nd ref="577319964"/>
    <nd ref="577319963"/>
    <nd ref="28371723"/>
    <tag k="highway" v="residential"/>
    <tag k="lit" v="yes"/>
    <tag k="maxspeed" v="20 mph"/>
    <tag k="name" v="South Court Drive"/>
    <tag k="source" v="OS_OpenData_StreetView;survey"/>
    <tag k="source:name" v="survey"/>
  </way>
  <way id="498271624" version="4" timestamp="2023-09-18T07:14:07Z" changeset="141409481" uid="7037" user="Gregory Williams">
    <nd ref="1925483751"/>
    <nd ref="8046406357"/>
    <nd ref="1925483749"/>
    <nd ref="28371730"/>
    <nd ref="1601537148"/>
    <nd ref="1925483750"/>
    <nd ref="28371731"/>
    <nd ref="769202061"/>
    <tag k="alt_name" v="Seaths Corner"/>
    <tag k="highway" v="tertiary"/>
    <tag k="lcn" v="proposed"/>
    <tag k="lit" v="no"/>
    <tag k="maxspeed" v="60 mph"/>
    <tag k="maxspeed:type" v="GB:nsl_single"/>
    <tag k="name" v="Staple Road"/>
    <tag k="source:alt_name" v="OS_OpenData_Locator"/>
  </way>
  <way id="498271626" version="3" timestamp="2021-08-27T11:52:01Z" changeset="110338149" uid="242345" user="confusedbuffalo">
    <nd ref="29862070"/>
    <nd ref="29862072"/>
    <nd ref="29862074"/>
    <nd ref="29862076"/>
    <nd ref="29862078"/>
    <nd ref="5368487654"/>
    <nd ref="29862080"/>
    <nd ref="29862082"/>
    <nd ref="29862084"/>
    <tag k="highway" v="unclassified"/>
    <tag k="lit" v="no"/>
    <tag k="maxspeed" v="60 mph"/>
    <tag k="maxspeed:type" v="GB:nsl_single"/>
    <tag k="name" v="Wingham Well Lane"/>
  </way>
  <way id="498271627" version="2" timestamp="2023-09-18T07:14:07Z" changeset="141409481" uid="7037" user="Gregory Williams">
    <nd ref="3190307581"/>
    <nd ref="769202086"/>
    <nd ref="769202036"/>
    <nd ref="3190307582"/>
    <tag k="highway" v="residential"/>
    <tag k="lit" v="yes"/>
    <tag k="maxspeed" v="20 mph"/>
    <tag k="name" v="South Court Drive"/>
    <tag k="source" v="OS_OpenData_StreetView;survey"/>
    <tag k="source:name" v="survey"/>
  </way>
  <way id="498271630" version="6" timestamp="2024-07-05T07:42:47Z" changeset="153575712" uid="11471297" user="Palgrave Peter">
    <nd ref="769202061"/>
    <nd ref="1601537143"/>
    <nd ref="28371732"/>
    <nd ref="1158954067"/>
    <nd ref="1601537141"/>
    <nd ref="1601537139"/>
    <nd ref="28371733"/>
    <nd ref="1601537136"/>
    <nd ref="28371734"/>
    <nd ref="1617804029"/>
    <nd ref="28371735"/>
    <nd ref="1617804004"/>
    <nd ref="1617804001"/>
    <nd ref="1617803998"/>
    <nd ref="1617803971"/>
    <nd ref="1617803962"/>
    <nd ref="1617803934"/>
    <nd ref="1617803913"/>
    <nd ref="1617803908"/>
    <nd ref="28371738"/>
    <nd ref="28371739"/>
    <nd ref="1601537031"/>
    <nd ref="28371740"/>
    <nd ref="1601537017"/>
    <nd ref="28371741"/>
    <nd ref="1601537028"/>
    <nd ref="28371742"/>
    <nd ref="28371743"/>
    <nd ref="1601537062"/>
    <nd ref="1601537035"/>
    <nd ref="1601537053"/>
    <nd ref="28371744"/>
    <nd ref="1601537065"/>
    <nd ref="1601537032"/>
    <nd ref="6774379877"/>
    <nd ref="28371745"/>
    <nd ref="8204914686"/>
    <nd ref="28371746"/>
    <nd ref="1601537015"/>
    <nd ref="1601537006"/>
    <nd ref="1601537003"/>
    <nd ref="28371747"/>
    <nd ref="1145519378"/>
    <nd ref="28371748"/>
    <nd ref="1145521631"/>
    <tag k="alt_name" v="Seaths Corner"/>
    <tag k="highway" v="tertiary"/>
    <tag k="lcn" v="proposed"/>
    <tag k="lit" v="no"/>
    <tag k="maxspeed" v="60 mph"/>
    <tag k="maxspeed:type" v="GB:nsl_single"/>
    <tag k="name" v="Staple Road"/>
    <tag k="source:alt_name" v="OS_OpenData_Locator"/>
  </way>
  <way id="498271635" version="5" timestamp="2024-07-04T12:59:47Z" changeset="153546468" uid="11471297" user="Palgrave Peter">
    <nd ref="29862121"/>
    <nd ref="29862119"/>
    <nd ref="29862117"/>
    <nd ref="29862115"/>
    <nd ref="29862113"/>
    <nd ref="29862111"/>
    <nd ref="29862109"/>
    <nd ref="29862108"/>
    <nd ref="29862106"/>
    <nd ref="8599726304"/>
    <nd ref="29862104"/>
    <nd ref="29862070"/>
    <tag k="highway" v="unclassified"/>
    <tag k="lit" v="no"/>
    <tag k="maxspeed" v="60 mph"/>
    <tag k="maxspeed:type" v="GB:nsl_single"/>
    <tag k="name" v="Watercress Lane"/>
  </way>
  <way id="498271637" version="2" timestamp="2021-08-27T11:52:01Z" changeset="110338149" uid="242345" user="confusedbuffalo">
    <nd ref="29862084"/>
    <nd ref="29862086"/>
    <nd ref="29862087"/>
    <nd ref="29862088"/>
    <nd ref="29862090"/>
    <nd ref="29862092"/>
    <nd ref="28485024"/>
    <tag k="highway" v="unclassified"/>
    <tag k="lit" v="no"/>
    <tag k="maxspeed" v="60 mph"/>
    <tag k="maxspeed:type" v="GB:nsl_single"/>
    <tag k="name" v="Wingham Well Lane"/>
  </way>
  <way id="659577706" version="5" timestamp="2023-12-29T14:52:49Z" changeset="145664926" uid="5229644" user="Nathan_A_RF">
    <nd ref="26237244"/>
    <nd ref="1752413525"/>
    <nd ref="1752413526"/>
    <nd ref="26237245"/>
    <nd ref="11465846096"/>
    <nd ref="26237246"/>
    <nd ref="26237247"/>
    <nd ref="8038753012"/>
    <nd ref="318444938"/>
    <tag k="highway" v="primary"/>
    <tag k="lanes" v="2"/>
    <tag k="lit" v="no"/>
    <tag k="maxspeed" v="30 mph"/>
    <tag k="ref" v="A257"/>
    <tag k="surface" v="asphalt"/>
  </way>
  <way id="886421645" version="5" timestamp="2025-03-07T07:00:25Z" changeset="163312467" uid="7037" user="Gregory Williams">
    <nd ref="8242507848"/>
    <nd ref="8242533092"/>
    <nd ref="8242507850"/>
    <nd ref="8242507851"/>
    <nd ref="8242507848"/>
    <tag k="addr:city" v="Canterbury"/>
    <tag k="addr:country" v="GB"/>
    <tag k="addr:county" v="Kent"/>
    <tag k="addr:housenumber" v="11"/>
    <tag k="addr:postcode" v="CT3 1BN"/>
    <tag k="addr:street" v="North Court Road"/>
    <tag k="addr:village" v="Wingham"/>
    <tag k="building" v="house"/>
    <tag k="house" v="semi-detached"/>
  </way>
  <way id="886424425" version="5" timestamp="2025-03-07T07:00:25Z" changeset="163312467" uid="7037" user="Gregory Williams">
    <nd ref="8242533090"/>
    <nd ref="8242533091"/>
    <nd ref="8242533092"/>
    <nd ref="8242507850"/>
    <nd ref="8242533093"/>
    <nd ref="8242533090"/>
    <tag k="addr:city" v="Canterbury"/>
    <tag k="addr:country" v="GB"/>
    <tag k="addr:county" v="Kent"/>
    <tag k="addr:housenumber" v="12"/>
    <tag k="addr:postcode" v="CT3 1BN"/>
    <tag k="addr:street" v="North Court Road"/>
    <tag k="addr:village" v="Wingham"/>
    <tag k="building" v="house"/>
    <tag k="house" v="semi-detached"/>
  </way>
  <way id="886425012" version="4" timestamp="2025-03-07T07:00:25Z" changeset="163312467" uid="7037" user="Gregory Williams">
    <nd ref="8242500568"/>
    <nd ref="8242500569"/>
    <nd ref="8242500570"/>
    <nd ref="8242500571"/>
    <nd ref="8242500568"/>
    <tag k="addr:city" v="Canterbury"/>
    <tag k="addr:country" v="GB"/>
    <tag k="addr:county" v="Kent"/>
    <tag k="addr:housenumber" v="10"/>
    <tag k="addr:postcode" v="CT3 1BN"/>
    <tag k="addr:street" v="North Court Road"/>
    <tag k="addr:village" v="Wingham"/>
    <tag k="building" v="house"/>
    <tag k="house" v="semi-detached"/>
  </way>
  <way id="886425211" version="4" timestamp="2025-03-07T07:00:25Z" changeset="163312467" uid="7037" user="Gregory Williams">
    <nd ref="8242470979"/>
    <nd ref="8242470980"/>
    <nd ref="8242470981"/>
    <nd ref="8242500571"/>
    <nd ref="8242500570"/>
    <nd ref="8242470979"/>
    <tag k="addr:city" v="Canterbury"/>
    <tag k="addr:country" v="GB"/>
    <tag k="addr:county" v="Kent"/>
    <tag k="addr:housenumber" v="9"/>
    <tag k="addr:postcode" v="CT3 1BN"/>
    <tag k="addr:street" v="North Court Road"/>
    <tag k="addr:village" v="Wingham"/>
    <tag k="building" v="house"/>
    <tag k="house" v="semi-detached"/>
  </way>
  <way id="886425743" version="4" timestamp="2025-03-07T07:00:25Z" changeset="163312467" uid="7037" user="Gregory Williams">
    <nd ref="8242529221"/>
    <nd ref="8242529222"/>
    <nd ref="8242529223"/>
    <nd ref="8242529224"/>
    <nd ref="8242529225"/>
    <nd ref="8242529226"/>
    <nd ref="8242529221"/>
    <tag k="addr:city" v="Canterbury"/>
    <tag k="addr:country" v="GB"/>
    <tag k="addr:county" v="Kent"/>
    <tag k="addr:housenumber" v="4"/>
    <tag k="addr:postcode" v="CT3 1BN"/>
    <tag k="addr:street" v="North Court Road"/>
    <tag k="addr:village" v="Wingham"/>
    <tag k="building" v="house"/>
    <tag k="house" v="semi-detached"/>
  </way>
  <way id="978547559" version="2" timestamp="2024-07-04T12:59:47Z" changeset="153546468" uid="11471297" user="Palgrave Peter">
    <nd ref="1323307390"/>
    <nd ref="31397854"/>
    <nd ref="1158950089"/>
    <tag k="highway" v="unclassified"/>
    <tag k="maxspeed" v="60 mph"/>
    <tag k="maxspeed:type" v="GB:nsl_single"/>
    <tag k="name" v="Crockshard Hill"/>
  </way>
  <way id="978547561" version="1" timestamp="2021-09-01T20:50:31Z" changeset="110584942" uid="13416516" user="Mikey Co">
    <nd ref="29862127"/>
    <nd ref="29862125"/>
    <nd ref="29862123"/>
    <nd ref="29862121"/>
    <tag k="highway" v="unclassified"/>
    <tag k="lit" v="no"/>
    <tag k="maxspeed" v="60 mph"/>
    <tag k="maxspeed:type" v="GB:nsl_single"/>
    <tag k="name" v="Watercress Lane"/>
  </way>
  <way id="978547562" version="4" timestamp="2023-09-18T07:14:07Z" changeset="141409481" uid="7037" user="Gregory Williams">
    <nd ref="769202025"/>
    <nd ref="26237230"/>
    <tag k="highway" v="primary"/>
    <tag k="lanes" v="2"/>
    <tag k="lit" v="yes"/>
    <tag k="maxspeed" v="20 mph"/>
    <tag k="name" v="High Street"/>
    <tag k="ref" v="A257"/>
    <tag k="surface" v="asphalt"/>
  </way>
  <way id="978553388" version="2" timestamp="2023-09-18T07:14:07Z" changeset="141409481" uid="7037" user="Gregory Williams">
    <nd ref="11199229767"/>
    <nd ref="1617804392"/>
    <nd ref="1617804371"/>
    <nd ref="975668261"/>
    <nd ref="1617804367"/>
    <nd ref="1617804365"/>
    <nd ref="9054573421"/>
    <tag k="highway" v="primary"/>
    <tag k="lit" v="yes"/>
    <tag k="maxspeed" v="20 mph"/>
    <tag k="name" v="High Street"/>
    <tag k="ref" v="A257"/>
  </way>
  <way id="978553389" version="5" timestamp="2023-09-18T07:14:07Z" changeset="141409481" uid="7037" user="Gregory Williams">
    <nd ref="9054573421"/>
    <nd ref="1617804362"/>
    <tag k="bridge" v="yes"/>
    <tag k="highway" v="primary"/>
    <tag k="lanes" v="2"/>
    <tag k="layer" v="1"/>
    <tag k="lit" v="yes"/>
    <tag k="maxspeed" v="20 mph"/>
    <tag k="maxweightrating" v="7.5"/>
    <tag k="name" v="High Street"/>
    <tag k="ref" v="A257"/>
    <tag k="surface" v="asphalt"/>
  </way>
  <way id="1208702801" version="2" timestamp="2024-06-21T14:08:08Z" changeset="152995045" uid="11471297" user="Palgrave Peter">
    <nd ref="29949139"/>
    <nd ref="28150309"/>
    <nd ref="7217963833"/>
    <nd ref="8205035816"/>
    <nd ref="11999040349"/>
    <nd ref="28150310"/>
    <nd ref="28150311"/>
    <nd ref="29949142"/>
    <tag k="highway" v="tertiary"/>
    <tag k="lit" v="no"/>
    <tag k="maxspeed" v="40 mph"/>
    <tag k="name" v="Preston Hill"/>
  </way>
  <way id="1208702802" version="1" timestamp="2023-09-18T07:14:07Z" changeset="141409481" uid="7037" user="Gregory Williams">
    <nd ref="28150304"/>
    <nd ref="1617804417"/>
    <nd ref="1617804409"/>
    <nd ref="11199229767"/>
    <tag k="highway" v="primary"/>
    <tag k="lit" v="yes"/>
    <tag k="maxspeed" v="30 mph"/>
    <tag k="name" v="High Street"/>
    <tag k="ref" v="A257"/>
  </way>
  <way id="1208702803" version="1" timestamp="2023-09-18T07:14:07Z" changeset="141409481" uid="7037" user="Gregory Williams">
    <nd ref="929949681"/>
    <nd ref="318444935"/>
    <nd ref="28485033"/>
    <nd ref="1601537132"/>
    <tag k="highway" v="secondary"/>
    <tag k="lit" v="no"/>
    <tag k="maxspeed" v="30 mph"/>
    <tag k="name" v="Adisham Road"/>
    <tag k="ref" v="B2046"/>
    <tag k="source:name" v="OS_OpenData_Locator"/>
  </way>
  <way id="1208702804" version="1" timestamp="2023-09-18T07:14:07Z" changeset="141409481" uid="7037" user="Gregory Williams">
    <nd ref="1601537150"/>
    <nd ref="1925483751"/>
    <tag k="alt_name" v="Seaths Corner"/>
    <tag k="highway" v="tertiary"/>
    <tag k="lcn" v="proposed"/>
    <tag k="lit" v="no"/>
    <tag k="maxspeed" v="30 mph"/>
    <tag k="name" v="Staple Road"/>
    <tag k="source:alt_name" v="OS_OpenData_Locator"/>
  </way>

</osm>
