<?xml version="1.0" encoding="UTF-8"?>
<osm version="0.6" generator="Overpass API 0.7.62.5 1bd436f1">
<note>The data included in this document is from www.openstreetmap.org. The data is made available under ODbL.</note>
<meta osm_base="2025-05-17T22:35:14Z" areas="2024-12-31T00:49:33Z"/>

  <node id="398745" lat="48.8638647" lon="2.3490334" version="22" timestamp="2019-03-11T10:11:15Z" changeset="68016258" uid="138059" user="Truchin">
    <tag k="highway" v="traffic_signals"/>
  </node>
  <node id="26401984" lat="48.8618987" lon="2.3569151" version="6" timestamp="2023-03-19T00:19:38Z" changeset="133842316" uid="7550430" user="Britzz">
    <tag k="highway" v="traffic_signals"/>
  </node>
  <node id="26402086" lat="48.8628660" lon="2.3578642" version="3" timestamp="2010-01-01T11:57:58Z" changeset="3506588" uid="33634" user="lapinos03"/>
  <node id="268408320" lat="48.8626483" lon="2.3542369" version="12" timestamp="2022-12-20T09:21:50Z" changeset="130281030" uid="7512839" user="Benoît C MdP">
    <tag k="highway" v="traffic_signals"/>
  </node>
  <node id="327419531" lat="48.8616925" lon="2.3520972" version="22" timestamp="2024-02-25T14:32:09Z" changeset="147893568" uid="14373797" user="PiGi75002">
    <tag k="branch" v="Paris Beaubourg"/>
    <tag k="brand" v="Leroy Merlin"/>
    <tag k="brand:website" v="https://www.leroymerlin.com/"/>
    <tag k="brand:wikidata" v="Q889624"/>
    <tag k="brand:wikipedia" v="en:Leroy Merlin"/>
    <tag k="building" v="retail"/>
    <tag k="check_date" v="2023-04-10"/>
    <tag k="contact:city" v="Paris"/>
    <tag k="contact:housenumber" v="52"/>
    <tag k="contact:phone" v="+33 1 44 54 66 66"/>
    <tag k="contact:postcode" v="75004"/>
    <tag k="contact:street" v="Rue Rambuteau"/>
    <tag k="contact:website" v="https://www.leroymerlin.fr/paris-beaubourg"/>
    <tag k="dog" v="no"/>
    <tag k="name" v="Leroy Merlin"/>
    <tag k="opening_hours" v="Mo-Sa 09:00-20:00; Su 10:00-19:00"/>
    <tag k="operator" v="Leroy Merlin"/>
    <tag k="ref:FR:SIREN" v="384 560 942 00052"/>
    <tag k="shop" v="doityourself"/>
    <tag k="source" v="survey"/>
    <tag k="wheelchair" v="yes"/>
  </node>
  <node id="690459476" lat="48.8619752" lon="2.3502173" version="5" timestamp="2019-01-11T10:34:50Z" changeset="66221995" uid="311391" user="patman37">
    <tag k="highway" v="traffic_signals"/>
  </node>
  <node id="778289757" lat="48.8652237" lon="2.3556592" version="6" timestamp="2022-12-26T01:05:54Z" changeset="130497714" uid="7550430" user="Britzz"/>
  <node id="2200326715" lat="48.8619498" lon="2.3501549" version="23" timestamp="2025-01-02T11:08:55Z" changeset="160901920" uid="15118949" user="Nzau">
    <tag k="button_operated" v="yes"/>
    <tag k="crossing" v="traffic_signals"/>
    <tag k="crossing:island" v="no"/>
    <tag k="crossing:markings" v="zebra"/>
    <tag k="highway" v="crossing"/>
    <tag k="kerb" v="lowered"/>
    <tag k="tactile_paving" v="yes"/>
    <tag k="traffic_signals:sound" v="yes"/>
    <tag k="traffic_signals:vibration" v="yes"/>
  </node>
  <node id="5951390678" lat="48.8643816" lon="2.3515061" version="5" timestamp="2024-10-17T20:06:12Z" changeset="158024595" uid="20828150" user="VLD316">
    <tag k="crossing" v="marked"/>
    <tag k="crossing:markings" v="pictograms"/>
    <tag k="highway" v="crossing"/>
  </node>
  <way id="4039898" version="29" timestamp="2024-04-07T18:04:57Z" changeset="149704321" uid="6290466" user="benjamintchik">
    <nd ref="9431369515"/>
    <nd ref="11178085081"/>
    <nd ref="25581540"/>
    <nd ref="26040013"/>
    <nd ref="3790468360"/>
    <tag k="cycleway:both" v="lane"/>
    <tag k="cycleway:both:lane" v="exclusive"/>
    <tag k="highway" v="tertiary"/>
    <tag k="lanes" v="2"/>
    <tag k="lit" v="yes"/>
    <tag k="maxspeed" v="30"/>
    <tag k="maxspeed:type" v="FR:zone30"/>
    <tag k="name" v="Rue aux Ours"/>
    <tag k="name:etymology:wikidata" v="Q22847"/>
    <tag k="sidewalk:both" v="separate"/>
    <tag k="sidewalk:both:surface" v="asphalt"/>
    <tag k="smoothness" v="excellent"/>
    <tag k="surface" v="asphalt"/>
  </way>
  <way id="4574298" version="30" timestamp="2024-02-16T15:08:32Z" changeset="147535874" uid="6290466" user="benjamintchik">
    <nd ref="9586883638"/>
    <nd ref="3790468359"/>
    <nd ref="9586883640"/>
    <nd ref="11178085080"/>
    <nd ref="338495972"/>
    <nd ref="5526534486"/>
    <nd ref="3383366734"/>
    <nd ref="3384220444"/>
    <nd ref="8002734864"/>
    <nd ref="5526534489"/>
    <nd ref="268408320"/>
    <tag k="cycleway:both" v="no"/>
    <tag k="highway" v="tertiary"/>
    <tag k="lanes" v="2"/>
    <tag k="lit" v="yes"/>
    <tag k="maxspeed" v="30"/>
    <tag k="maxspeed:type" v="FR:zone30"/>
    <tag k="name" v="Rue du Grenier Saint-Lazare"/>
    <tag k="name:etymology" v="corruption du nom de « Garnier », qui était celui d'une famille qui y habitait, à la fin du XIIe siècle"/>
    <tag k="sidewalk" v="separate"/>
    <tag k="smoothness" v="excellent"/>
    <tag k="surface" v="asphalt"/>
  </way>
  <way id="4574368" version="23" timestamp="2025-04-25T21:11:02Z" changeset="165442544" uid="1842888" user="nihombashi19">
    <nd ref="26401984"/>
    <nd ref="2650495666"/>
    <nd ref="12787050310"/>
    <nd ref="26402091"/>
    <nd ref="5526534488"/>
    <nd ref="10290370129"/>
    <nd ref="361075"/>
    <tag k="cycleway:both" v="no"/>
    <tag k="highway" v="residential"/>
    <tag k="lit" v="yes"/>
    <tag k="maxspeed" v="30"/>
    <tag k="motor_vehicle:conditional" v="no @ (Apr-Sep Su 10:00-19:30; Oct-Mar Su 10:00-18:00)"/>
    <tag k="name" v="Rue Michel le Comte"/>
    <tag k="name:etymology" v="unknown"/>
    <tag k="oneway" v="yes"/>
    <tag k="sidewalk:both" v="separate"/>
    <tag k="smoothness" v="good"/>
    <tag k="surface" v="asphalt"/>
  </way>
  <way id="4574421" version="23" timestamp="2024-02-16T15:10:51Z" changeset="147535874" uid="6290466" user="benjamintchik">
    <nd ref="26402086"/>
    <nd ref="5526534283"/>
    <nd ref="602488254"/>
    <nd ref="3920543073"/>
    <nd ref="5526534426"/>
    <nd ref="10290370123"/>
    <nd ref="26402096"/>
    <tag k="cycleway" v="opposite"/>
    <tag k="highway" v="residential"/>
    <tag k="lit" v="yes"/>
    <tag k="maxspeed" v="15"/>
    <tag k="motor_vehicle:conditional" v="no @ (Apr-Sep Su 10:00-19:30; Oct-Mar Su 10:00-18:00)"/>
    <tag k="name" v="Rue Chapon"/>
    <tag k="name:etymology" v="nom d'un de ses habitants, Robert Begon dit Capon"/>
    <tag k="oneway" v="yes"/>
    <tag k="oneway:bicycle" v="no"/>
    <tag k="sidewalk:both" v="separate"/>
    <tag k="surface" v="asphalt"/>
  </way>
  <way id="4574430" version="44" timestamp="2024-07-20T18:18:56Z" changeset="154190854" uid="2252690" user="gourlaysama">
    <nd ref="26401984"/>
    <nd ref="2650495675"/>
    <nd ref="5526534279"/>
    <nd ref="26402085"/>
    <nd ref="5526534280"/>
    <nd ref="338489773"/>
    <nd ref="26402086"/>
    <nd ref="5526534282"/>
    <nd ref="7499641543"/>
    <nd ref="5526534436"/>
    <nd ref="26402088"/>
    <nd ref="5526534437"/>
    <nd ref="338489780"/>
    <nd ref="175044295"/>
    <nd ref="5526534284"/>
    <nd ref="2641022382"/>
    <nd ref="338489784"/>
    <nd ref="6350170402"/>
    <nd ref="94137863"/>
    <tag k="cycleway:both" v="no"/>
    <tag k="highway" v="residential"/>
    <tag k="lit" v="yes"/>
    <tag k="maxspeed" v="30"/>
    <tag k="name" v="Rue du Temple"/>
    <tag k="name:etymology:wikidata" v="Q3280072"/>
    <tag k="oneway" v="yes"/>
    <tag k="oneway:bicycle" v="no"/>
    <tag k="sidewalk:both" v="separate"/>
    <tag k="smoothness" v="good"/>
    <tag k="source" v="cadastre-dgi-fr source : Direction Générale des Impôts - Cadastre. Mise à jour : 2010"/>
    <tag k="source:maxspeed" v="FR:zone30"/>
    <tag k="surface" v="asphalt"/>
  </way>
  <way id="55129128" version="29" timestamp="2024-12-06T13:22:45Z" changeset="159994313" uid="7512839" user="Benoît C MdP">
    <nd ref="778289757"/>
    <nd ref="2364610565"/>
    <nd ref="6349965269"/>
    <nd ref="2841226108"/>
    <nd ref="26402098"/>
    <nd ref="2841226106"/>
    <nd ref="5526534433"/>
    <nd ref="26402097"/>
    <nd ref="5526534432"/>
    <nd ref="5526534428"/>
    <nd ref="26402096"/>
    <nd ref="5526534424"/>
    <nd ref="706350841"/>
    <nd ref="26402095"/>
    <nd ref="706350383"/>
    <nd ref="2885012534"/>
    <nd ref="706127981"/>
    <nd ref="361075"/>
    <tag k="bicycle:backward" v="use_sidepath"/>
    <tag k="busway:right" v="lane"/>
    <tag k="cycleway:left" v="separate"/>
    <tag k="cycleway:right" v="share_busway"/>
    <tag k="cycleway:right:oneway" v="yes"/>
    <tag k="highway" v="secondary"/>
    <tag k="lanes" v="1"/>
    <tag k="lit" v="yes"/>
    <tag k="maxspeed" v="30"/>
    <tag k="name" v="Rue Beaubourg"/>
    <tag k="oneway" v="yes"/>
    <tag k="sidewalk" v="separate"/>
    <tag k="smoothness" v="excellent"/>
    <tag k="source" v="cadastre-dgi-fr source : Direction Générale des Impôts - Cadastre;mise à jour : 2010"/>
    <tag k="source:maxspeed" v="FR:urban"/>
    <tag k="surface" v="asphalt"/>
  </way>
  <way id="56257425" version="26" timestamp="2024-02-22T08:09:47Z" changeset="147760119" uid="12287265" user="bilbosquet">
    <nd ref="268408320"/>
    <nd ref="338495966"/>
    <nd ref="264592424"/>
    <nd ref="10275184607"/>
    <nd ref="706128016"/>
    <nd ref="338495959"/>
    <nd ref="796920910"/>
    <nd ref="361074"/>
    <tag k="bicycle:backward" v="use_sidepath"/>
    <tag k="busway:right" v="lane"/>
    <tag k="cycleway" v="separate"/>
    <tag k="highway" v="secondary"/>
    <tag k="lanes" v="2"/>
    <tag k="lit" v="yes"/>
    <tag k="maxspeed" v="30"/>
    <tag k="name" v="Rue Beaubourg"/>
    <tag k="oneway" v="yes"/>
    <tag k="psv:lanes" v="yes|designated"/>
    <tag k="sidewalk" v="separate"/>
    <tag k="smoothness" v="good"/>
    <tag k="surface" v="asphalt"/>
  </way>
  <way id="56302670" version="5" timestamp="2023-11-06T21:41:39Z" changeset="143711313" uid="332493" user="bazgal">
    <nd ref="706350716"/>
    <nd ref="706350751"/>
    <nd ref="706350647"/>
    <nd ref="706350504"/>
    <nd ref="706350611"/>
    <nd ref="706350353"/>
    <nd ref="706350825"/>
    <nd ref="706350761"/>
    <nd ref="706350363"/>
    <nd ref="706350716"/>
    <tag k="building" v="yes"/>
    <tag k="building:levels" v="6"/>
    <tag k="name" v="Hôtel Georgette"/>
    <tag k="rooms" v="19"/>
    <tag k="tourism" v="hotel"/>
    <tag k="website" v="https://www.hotelgeorgette.com/"/>
    <tag k="wheelchair" v="yes"/>
  </way>
  <way id="56670231" version="11" timestamp="2016-08-23T19:52:29Z" changeset="41646613" uid="62548" user="Coucouf">
    <nd ref="708681789"/>
    <nd ref="1380928200"/>
    <nd ref="708681801"/>
    <nd ref="708681747"/>
    <nd ref="708681918"/>
    <nd ref="708681873"/>
    <nd ref="708681938"/>
    <nd ref="708681822"/>
    <nd ref="708681766"/>
    <nd ref="708681853"/>
    <nd ref="708681908"/>
    <nd ref="708681737"/>
    <nd ref="708681789"/>
    <tag k="building" v="yes"/>
    <tag k="building:levels" v="3"/>
    <tag k="contact:housename" v="Hapax/C14"/>
    <tag k="contact:housenumber" v="14"/>
    <tag k="contact:postcode" v="75003"/>
    <tag k="contact:street" v="Rue Chapon"/>
    <tag k="description" v="hackerspace, squat, gallery"/>
    <tag k="int_name" v="C14"/>
    <tag k="internet_access" v="wlan"/>
    <tag k="name" v="Hapax/C14"/>
    <tag k="source" v="cadastre-dgi-fr source : Direction Générale des Impôts - Cadastre. Mise à jour : 2010"/>
  </way>
  <way id="56670247" version="5" timestamp="2022-11-29T22:38:45Z" changeset="129538314" uid="7550430" user="Britzz">
    <nd ref="10171428185"/>
    <nd ref="708681937"/>
    <nd ref="708685079"/>
    <nd ref="708681798"/>
    <nd ref="10226587361"/>
    <nd ref="10226587360"/>
    <nd ref="10226587359"/>
    <nd ref="10226587358"/>
    <nd ref="708681744"/>
    <nd ref="10226587362"/>
    <nd ref="10226587363"/>
    <nd ref="708681915"/>
    <nd ref="708681871"/>
    <nd ref="10171428184"/>
    <nd ref="10171428185"/>
    <tag k="building" v="hotel"/>
    <tag k="building:levels" v="8"/>
    <tag k="contact:city" v="Paris"/>
    <tag k="contact:housenumber" v="11"/>
    <tag k="contact:postcode" v="75003"/>
    <tag k="contact:street" v="Rue des Gravilliers"/>
    <tag k="contact:website" v="https://www.hoteljulesetjim.com/"/>
    <tag k="name" v="Jules et Jim"/>
    <tag k="source" v="cadastre-dgi-fr source : Direction Générale des Impôts - Cadastre. Mise à jour : 2010"/>
    <tag k="tourism" v="hotel"/>
    <tag k="wheelchair" v="limited"/>
  </way>
  <way id="56671695" version="7" timestamp="2021-02-21T18:19:35Z" changeset="99692986" uid="1722488" user="Mateusz Konieczny">
    <nd ref="708692616"/>
    <nd ref="708692701"/>
    <nd ref="708692635"/>
    <nd ref="708692587"/>
    <nd ref="708692735"/>
    <nd ref="708692706"/>
    <nd ref="708692753"/>
    <nd ref="708692585"/>
    <nd ref="708692632"/>
    <nd ref="708692680"/>
    <nd ref="708692648"/>
    <nd ref="708692611"/>
    <nd ref="708692763"/>
    <nd ref="708692596"/>
    <nd ref="708692642"/>
    <nd ref="708692785"/>
    <nd ref="708692616"/>
    <tag k="addr:city" v="Paris"/>
    <tag k="addr:housenumber" v="8"/>
    <tag k="addr:postcode" v="75003"/>
    <tag k="addr:street" v="Rue de Montmorency"/>
    <tag k="amenity" v="childcare"/>
    <tag k="building" v="yes"/>
    <tag k="name" v="Crèche Le Temps des Ours"/>
    <tag k="operator" v="ABC Puériculture"/>
    <tag k="website" v="https://www.abcpuericulture.com/fr/creche-collective-paris/le-tempsdes-ours/24/"/>
  </way>
  <way id="56684534" version="6" timestamp="2017-02-27T07:04:57Z" changeset="46433909" uid="187177" user="JeaRRo">
    <nd ref="708945747"/>
    <nd ref="1847177899"/>
    <nd ref="1847177912"/>
    <nd ref="1847177915"/>
    <nd ref="1847177909"/>
    <nd ref="1847177902"/>
    <nd ref="1847177894"/>
    <nd ref="1847177906"/>
    <nd ref="708945805"/>
    <nd ref="708945709"/>
    <nd ref="708945645"/>
    <nd ref="708945860"/>
    <nd ref="708945794"/>
    <nd ref="708945734"/>
    <nd ref="708945828"/>
    <nd ref="708945673"/>
    <nd ref="708945606"/>
    <nd ref="708945820"/>
    <nd ref="708945593"/>
    <nd ref="708945808"/>
    <nd ref="708945747"/>
    <tag k="barrier" v="wall"/>
    <tag k="building" v="yes"/>
    <tag k="heritage" v="3"/>
    <tag k="heritage:operator" v="mhs"/>
    <tag k="mhs:inscription_date" v="1925"/>
    <tag k="name" v="façade de l'Hôtel de Montmorency"/>
    <tag k="ref:mhs" v="PA00086151"/>
    <tag k="source" v="cadastre-dgi-fr source : Direction Générale des Impôts - Cadastre. Mise à jour : 2010"/>
    <tag k="source:heritage" v="data.gouv.fr:Ministère de la Culture - 04/2015"/>
    <tag k="wikidata" v="Q3145684"/>
    <tag k="wikipedia" v="fr:Hôtel de Montmorency"/>
  </way>
  <way id="56687769" version="8" timestamp="2023-09-08T21:20:20Z" changeset="141003113" uid="318821" user="Yod4z">
    <nd ref="708980873"/>
    <nd ref="708981018"/>
    <nd ref="708981076"/>
    <nd ref="708981326"/>
    <nd ref="708980933"/>
    <nd ref="708981176"/>
    <nd ref="708980786"/>
    <nd ref="708981036"/>
    <nd ref="708980766"/>
    <nd ref="708981013"/>
    <nd ref="708981261"/>
    <nd ref="708980867"/>
    <nd ref="708981109"/>
    <nd ref="708980727"/>
    <nd ref="708980976"/>
    <nd ref="11177706185"/>
    <nd ref="708981217"/>
    <nd ref="708981343"/>
    <nd ref="708980951"/>
    <nd ref="708981194"/>
    <nd ref="708980805"/>
    <nd ref="708981055"/>
    <nd ref="708981303"/>
    <nd ref="708980912"/>
    <nd ref="708981152"/>
    <nd ref="708980892"/>
    <nd ref="708981132"/>
    <nd ref="708980749"/>
    <nd ref="708980999"/>
    <nd ref="708981243"/>
    <nd ref="708980848"/>
    <nd ref="708981095"/>
    <nd ref="708981348"/>
    <nd ref="708980830"/>
    <nd ref="708981081"/>
    <nd ref="708981331"/>
    <nd ref="708980936"/>
    <nd ref="708981180"/>
    <nd ref="708980792"/>
    <nd ref="708981040"/>
    <nd ref="708981285"/>
    <nd ref="708980746"/>
    <nd ref="708980993"/>
    <nd ref="708981240"/>
    <nd ref="708980846"/>
    <nd ref="708981092"/>
    <nd ref="708981345"/>
    <nd ref="708980952"/>
    <nd ref="708981195"/>
    <nd ref="708981327"/>
    <nd ref="708980934"/>
    <nd ref="708981177"/>
    <nd ref="708980787"/>
    <nd ref="708981037"/>
    <nd ref="708981281"/>
    <nd ref="708980888"/>
    <nd ref="708981128"/>
    <nd ref="708980868"/>
    <nd ref="11177706177"/>
    <nd ref="708981110"/>
    <nd ref="708980729"/>
    <nd ref="708980977"/>
    <nd ref="708981218"/>
    <nd ref="11177706178"/>
    <nd ref="708981332"/>
    <nd ref="708980806"/>
    <nd ref="708981056"/>
    <nd ref="708981304"/>
    <nd ref="11177706191"/>
    <nd ref="708980913"/>
    <nd ref="708981153"/>
    <nd ref="708980767"/>
    <nd ref="708981015"/>
    <nd ref="11177706179"/>
    <nd ref="708981262"/>
    <nd ref="708981001"/>
    <nd ref="708981245"/>
    <nd ref="708980850"/>
    <nd ref="11177706180"/>
    <nd ref="708981097"/>
    <nd ref="708981350"/>
    <nd ref="708980956"/>
    <nd ref="708981200"/>
    <nd ref="708980809"/>
    <nd ref="708980793"/>
    <nd ref="708981041"/>
    <nd ref="708981305"/>
    <nd ref="708981329"/>
    <nd ref="708981286"/>
    <nd ref="708980893"/>
    <nd ref="708981133"/>
    <nd ref="708980750"/>
    <nd ref="708981113"/>
    <nd ref="708980733"/>
    <nd ref="708980981"/>
    <nd ref="708981222"/>
    <nd ref="708980832"/>
    <nd ref="708981083"/>
    <nd ref="708981334"/>
    <nd ref="708980940"/>
    <nd ref="708981060"/>
    <nd ref="708981308"/>
    <nd ref="708980918"/>
    <nd ref="708980816"/>
    <nd ref="708981159"/>
    <nd ref="708980773"/>
    <nd ref="708981021"/>
    <nd ref="708981267"/>
    <nd ref="708980871"/>
    <nd ref="708980879"/>
    <nd ref="708981119"/>
    <nd ref="10744389494"/>
    <nd ref="10744389489"/>
    <nd ref="708981117"/>
    <nd ref="708980873"/>
    <tag k="alt_name" v="Hôtel d'Avaux, de Rochechouart, d'Asnières"/>
    <tag k="building" v="yes"/>
    <tag k="building:levels" v="2"/>
    <tag k="heritage" v="2"/>
    <tag k="heritage:operator" v="mhs"/>
    <tag k="layer" v="1"/>
    <tag k="mhs:inscription_date" v="1988"/>
    <tag k="name" v="Hôtel de Saint-Aignan"/>
    <tag k="opening_hours" v="Tu-Fr 11:00-18:00; Sa-Su 10:00-18:00"/>
    <tag k="ref:mhs" v="PA00086156"/>
    <tag k="roof:levels" v="1"/>
    <tag k="source" v="cadastre-dgi-fr source : Direction Générale des Impôts - Cadastre. Mise à jour : 2010"/>
    <tag k="source:heritage" v="data.gouv.fr:Ministère de la Culture - 04/2015"/>
    <tag k="website" v="https://www.mahj.org/"/>
    <tag k="wikidata" v="Q977732"/>
    <tag k="wikipedia" v="fr:Musée d'art et d'histoire du judaïsme"/>
  </way>
  <way id="66767132" version="25" timestamp="2025-04-05T17:39:27Z" changeset="164561925" uid="57126" user="yxoc">
    <nd ref="398745"/>
    <nd ref="25581394"/>
    <nd ref="5951390668"/>
    <nd ref="5942818149"/>
    <nd ref="25581534"/>
    <nd ref="2200326736"/>
    <nd ref="9431369509"/>
    <nd ref="2200326735"/>
    <nd ref="9431369510"/>
    <nd ref="12731655822"/>
    <nd ref="690459465"/>
    <nd ref="2200326734"/>
    <nd ref="6369010750"/>
    <nd ref="692364465"/>
    <nd ref="9431369513"/>
    <tag k="bicycle:lanes:backward" v="designated"/>
    <tag k="bicycle:lanes:forward" v="yes|yes|designated"/>
    <tag k="bus:lanes:backward" v="designated"/>
    <tag k="busway:left" v="opposite_lane"/>
    <tag k="busway:right" v="lane"/>
    <tag k="cycleway:left" v="opposite_share_busway"/>
    <tag k="cycleway:right" v="share_busway"/>
    <tag k="highway" v="tertiary"/>
    <tag k="lanes" v="4"/>
    <tag k="lanes:backward" v="1"/>
    <tag k="lanes:forward" v="3"/>
    <tag k="lit" v="yes"/>
    <tag k="maxspeed" v="30"/>
    <tag k="name" v="Rue Étienne Marcel"/>
    <tag k="name:etymology:wikidata" v="Q143046"/>
    <tag k="oneway" v="yes"/>
    <tag k="oneway:bicycle" v="no"/>
    <tag k="psv:lanes:backward" v="designated"/>
    <tag k="psv:lanes:forward" v="yes|yes|designated"/>
    <tag k="sidewalk:both" v="separate"/>
    <tag k="smoothness" v="good"/>
    <tag k="surface" v="asphalt"/>
  </way>
  <way id="101533439" version="15" timestamp="2024-02-15T21:41:56Z" changeset="147508720" uid="6290466" user="benjamintchik">
    <nd ref="690459476"/>
    <nd ref="11070301702"/>
    <tag k="highway" v="residential"/>
    <tag k="lit" v="yes"/>
    <tag k="maxspeed" v="30"/>
    <tag k="name" v="Rue Rambuteau"/>
    <tag k="name:etymology:wikidata" v="Q717289"/>
    <tag k="oneway" v="yes"/>
    <tag k="sidewalk" v="no"/>
    <tag k="smoothness" v="excellent"/>
    <tag k="surface" v="asphalt"/>
  </way>
  <way id="123974810" version="16" timestamp="2024-03-28T20:43:12Z" changeset="149286920" uid="3834000" user="cartoleo">
    <nd ref="26402095"/>
    <nd ref="10290370126"/>
    <nd ref="1380981630"/>
    <nd ref="602488247"/>
    <nd ref="1380981621"/>
    <nd ref="5526534281"/>
    <nd ref="26402085"/>
    <tag k="cycleway" v="opposite"/>
    <tag k="highway" v="residential"/>
    <tag k="lit" v="yes"/>
    <tag k="maxspeed" v="15"/>
    <tag k="motor_vehicle:conditional" v="no @ (Apr-Sep Su 10:00-19:30; Oct-Mar Su 10:00-18:00)"/>
    <tag k="name" v="Rue de Montmorency"/>
    <tag k="name:etymology:wikidata" v="Q663367"/>
    <tag k="oneway" v="yes"/>
    <tag k="oneway:bicycle" v="no"/>
    <tag k="sidewalk:both" v="separate"/>
    <tag k="smoothness" v="good"/>
    <tag k="source" v="cadastre-dgi-fr source : Direction Générale des Impôts - Cadastre. Mise à jour : 2010"/>
    <tag k="surface" v="asphalt"/>
  </way>
  <way id="689385093" version="20" timestamp="2024-08-15T17:22:30Z" changeset="155293930" uid="11963177" user="JeroenvanderGun">
    <nd ref="2200326715"/>
    <nd ref="11070301702"/>
    <nd ref="7003016250"/>
    <nd ref="25207375"/>
    <nd ref="11910678636"/>
    <nd ref="25581535"/>
    <nd ref="9431369514"/>
    <nd ref="2200326730"/>
    <nd ref="9431369513"/>
    <nd ref="11222078097"/>
    <nd ref="11222078096"/>
    <nd ref="2878817148"/>
    <nd ref="3462104306"/>
    <nd ref="2392409669"/>
    <nd ref="1832256506"/>
    <nd ref="398708"/>
    <nd ref="2200326743"/>
    <nd ref="5951390678"/>
    <tag k="bicycle:backward" v="use_sidepath"/>
    <tag k="bicycle:lanes" v="yes|yes|designated"/>
    <tag k="busway:right" v="lane"/>
    <tag k="cycleway:left" v="no"/>
    <tag k="cycleway:right" v="share_busway"/>
    <tag k="enforcement:operator" v="Police nationale"/>
    <tag k="highway" v="primary"/>
    <tag k="lanes" v="3"/>
    <tag k="lanes:psv" v="1"/>
    <tag k="lit" v="yes"/>
    <tag k="maxspeed" v="30"/>
    <tag k="name" v="Boulevard de Sébastopol"/>
    <tag k="name:etymology:wikidata" v="Q815216"/>
    <tag k="oneway" v="yes"/>
    <tag k="operator" v="Ville de Paris"/>
    <tag k="operator:authority" v="Maire de Paris dans le respect des prescriptions prises par le préfet de police"/>
    <tag k="operator:authority:related_law" v="III de l'article L. 2512-14 du code général des collectivités territoriales"/>
    <tag k="psv:lanes" v="yes|yes|designated"/>
    <tag k="sidewalk" v="separate"/>
    <tag k="smoothness" v="excellent"/>
    <tag k="source:maxspeed" v="FR:urban"/>
    <tag k="source:operator:authority" v="https://www.legifrance.gouv.fr/loda/id/LEGIARTI000035244298/#LEGIARTI000035244298"/>
    <tag k="surface" v="asphalt"/>
    <tag k="zone:traffic" v="FR:urban"/>
  </way>
  <way id="720576102" version="13" timestamp="2024-08-15T17:22:30Z" changeset="155293930" uid="11963177" user="JeroenvanderGun">
    <nd ref="5951390678"/>
    <nd ref="8714149232"/>
    <tag k="bicycle:lanes" v="yes|yes|designated"/>
    <tag k="busway:right" v="lane"/>
    <tag k="cycleway:right" v="share_busway"/>
    <tag k="enforcement:operator" v="Police nationale"/>
    <tag k="highway" v="primary"/>
    <tag k="lanes" v="3"/>
    <tag k="lit" v="yes"/>
    <tag k="maxspeed" v="30"/>
    <tag k="name" v="Boulevard de Sébastopol"/>
    <tag k="name:etymology:wikidata" v="Q815216"/>
    <tag k="oneway" v="yes"/>
    <tag k="operator" v="Ville de Paris"/>
    <tag k="operator:authority" v="Maire de Paris dans le respect des prescriptions prises par le préfet de police"/>
    <tag k="operator:authority:related_law" v="III de l'article L. 2512-14 du code général des collectivités territoriales"/>
    <tag k="parking:lane:both" v="no_stopping"/>
    <tag k="psv:lanes" v="yes|yes|designated"/>
    <tag k="sidewalk" v="both"/>
    <tag k="sidewalk:both:surface" v="asphalt"/>
    <tag k="smoothness" v="good"/>
    <tag k="source:operator:authority" v="https://www.legifrance.gouv.fr/loda/id/LEGIARTI000035244298/#LEGIARTI000035244298"/>
    <tag k="surface" v="asphalt"/>
    <tag k="zone:traffic" v="FR:urban"/>
  </way>
  <way id="1105156311" version="7" timestamp="2024-02-05T17:59:43Z" changeset="147102388" uid="14373797" user="PiGi75002">
    <nd ref="361075"/>
    <nd ref="268408320"/>
    <tag k="bicycle:backward" v="use_sidepath"/>
    <tag k="busway:right" v="lane"/>
    <tag k="cycleway:right" v="share_busway"/>
    <tag k="cycleway:right:oneway" v="yes"/>
    <tag k="highway" v="secondary"/>
    <tag k="lanes" v="2"/>
    <tag k="lit" v="yes"/>
    <tag k="maxspeed" v="30"/>
    <tag k="name" v="Rue Beaubourg"/>
    <tag k="oneway" v="yes"/>
    <tag k="psv:lanes" v="yes|yes|designated"/>
    <tag k="sidewalk" v="separate"/>
    <tag k="smoothness" v="excellent"/>
    <tag k="source" v="cadastre-dgi-fr source : Direction Générale des Impôts - Cadastre;mise à jour : 2010"/>
    <tag k="surface" v="asphalt"/>
  </way>
  <way id="1211203382" version="6" timestamp="2024-04-07T18:04:57Z" changeset="149704321" uid="6290466" user="benjamintchik">
    <nd ref="3790468360"/>
    <nd ref="9586883638"/>
    <tag k="cycleway:both" v="no"/>
    <tag k="highway" v="tertiary"/>
    <tag k="lanes" v="2"/>
    <tag k="lit" v="yes"/>
    <tag k="maxspeed" v="30"/>
    <tag k="maxspeed:type" v="FR:zone30"/>
    <tag k="name" v="Rue aux Ours"/>
    <tag k="name:etymology:wikidata" v="Q22847"/>
    <tag k="sidewalk:both" v="separate"/>
    <tag k="sidewalk:both:surface" v="asphalt"/>
    <tag k="smoothness" v="excellent"/>
    <tag k="surface" v="asphalt"/>
  </way>
  <way id="1211203383" version="6" timestamp="2024-04-07T18:04:57Z" changeset="149704321" uid="6290466" user="benjamintchik">
    <nd ref="9431369513"/>
    <nd ref="2200326732"/>
    <nd ref="9431369515"/>
    <tag k="cycleway:left" v="shared_lane"/>
    <tag k="cycleway:left:lane" v="pictogram"/>
    <tag k="cycleway:right" v="lane"/>
    <tag k="cycleway:right:lane" v="exclusive"/>
    <tag k="highway" v="tertiary"/>
    <tag k="lanes" v="2"/>
    <tag k="lit" v="yes"/>
    <tag k="maxspeed" v="30"/>
    <tag k="maxspeed:type" v="FR:zone30"/>
    <tag k="name" v="Rue aux Ours"/>
    <tag k="name:etymology:wikidata" v="Q22847"/>
    <tag k="sidewalk:both" v="separate"/>
    <tag k="sidewalk:both:surface" v="asphalt"/>
    <tag k="smoothness" v="excellent"/>
    <tag k="surface" v="asphalt"/>
  </way>
  <relation id="550881" version="5" timestamp="2022-12-11T23:05:28Z" changeset="129978899" uid="7550430" user="Britzz">
    <member type="way" ref="54983374" role="inner"/>
    <member type="way" ref="56302673" role="outer"/>
    <tag k="building" v="yes"/>
    <tag k="building:levels" v="5"/>
    <tag k="description" v="plus vieille maison de Paris"/>
    <tag k="historic" v="yes"/>
    <tag k="name" v="Maison de Nicolas Flamel"/>
    <tag k="tourism" v="attraction"/>
    <tag k="type" v="multipolygon"/>
    <tag k="wikidata" v="Q3279512"/>
    <tag k="wikipedia" v="fr:Maison de Nicolas Flamel"/>
  </relation>

</osm>
