<?xml version="1.0" encoding="UTF-8"?>
<osm version="0.6" generator="Overpass API 0.7.62.5 1bd436f1">
<note>The data included in this document is from www.openstreetmap.org. The data is made available under ODbL.</note>
<meta osm_base="2025-05-17T22:14:05Z" areas="2024-12-31T00:49:33Z"/>

  <node id="368140" lat="48.8523738" lon="2.3604658" version="9" timestamp="2018-02-24T19:14:38Z" changeset="56643591" uid="158826" user="cquest">
    <tag k="highway" v="traffic_signals"/>
  </node>
  <node id="26401021" lat="48.8600687" lon="2.3568876" version="6" timestamp="2024-04-26T20:44:44Z" changeset="150556827" uid="7550430" user="Britzz">
    <tag k="highway" v="traffic_signals"/>
  </node>
  <node id="26401611" lat="48.8575099" lon="2.3542407" version="9" timestamp="2025-05-17T19:26:04Z" changeset="166406120" uid="7550430" user="Britzz">
    <tag k="junction" v="yes"/>
    <tag k="name" v="Place Harvey Milk"/>
    <tag k="name:etymology:wikidata" v="Q17141"/>
    <tag k="wikidata" v="Q84048032"/>
    <tag k="wikipedia" v="fr:Place Harvey-Milk"/>
  </node>
  <node id="26401644" lat="48.8554507" lon="2.3619471" version="4" timestamp="2010-04-11T19:34:11Z" changeset="4397560" uid="33634" user="lapinos03"/>
  <node id="26401664" lat="48.8540335" lon="2.3611180" version="6" timestamp="2019-12-14T17:48:40Z" changeset="78413653" uid="311391" user="patman37"/>
  <node id="26401687" lat="48.8525851" lon="2.3606854" version="6" timestamp="2019-12-13T11:19:54Z" changeset="78369150" uid="167573" user="CartoCharles"/>
  <node id="26401793" lat="48.8554984" lon="2.3636415" version="4" timestamp="2018-04-04T18:20:35Z" changeset="57811315" uid="210173" user="osmmaker"/>
  <node id="247596080" lat="48.8534679" lon="2.3540590" version="5" timestamp="2021-06-16T22:16:17Z" changeset="106492152" uid="7550430" user="Britzz"/>
  <node id="700460729" lat="48.8581400" lon="2.3549007" version="2" timestamp="2025-05-17T20:41:29Z" changeset="166408171" uid="7550430" user="Britzz"/>
  <node id="5548048418" lat="48.8551520" lon="2.3529549" version="2" timestamp="2019-01-30T11:42:37Z" changeset="66767386" uid="311391" user="patman37"/>
  <node id="5919299085" lat="48.8569101" lon="2.3538101" version="7" timestamp="2025-01-30T10:50:02Z" changeset="161932292" uid="7512839" user="Benoît C MdP"/>
  <node id="7047107739" lat="48.8552641" lon="2.3528761" version="3" timestamp="2024-10-18T18:53:01Z" changeset="158064141" uid="19867806" user="VLD314">
    <tag k="crossing" v="marked"/>
    <tag k="crossing:markings" v="pictograms"/>
    <tag k="highway" v="crossing"/>
  </node>
  <node id="10832534950" lat="48.8525022" lon="2.3571090" version="6" timestamp="2024-06-21T16:25:30Z" changeset="153000043" uid="11291363" user="u4Dy46Xe">
    <tag k="crossing:island" v="no"/>
    <tag k="crossing:markings" v="yes"/>
    <tag k="crossing:signals" v="no"/>
    <tag k="highway" v="crossing"/>
    <tag k="tactile_paving" v="incorrect"/>
  </node>
  <way id="4527562" version="35" timestamp="2024-03-03T18:38:39Z" changeset="148175079" uid="6290466" user="benjamintchik">
    <nd ref="1888274209"/>
    <nd ref="3657885243"/>
    <nd ref="8840327584"/>
    <nd ref="1770572638"/>
    <nd ref="5528716467"/>
    <nd ref="699045729"/>
    <tag k="cycleway:left" v="opposite_lane"/>
    <tag k="cycleway:right" v="no"/>
    <tag k="highway" v="residential"/>
    <tag k="lit" v="yes"/>
    <tag k="maxspeed" v="30"/>
    <tag k="name" v="Rue du Pont Louis-Philippe"/>
    <tag k="name:etymology:wikidata" v="Q1196667"/>
    <tag k="oneway" v="yes"/>
    <tag k="oneway:bicycle" v="no"/>
    <tag k="sidewalk" v="separate"/>
    <tag k="source" v="cadastre-dgi-fr source : Direction Générale des Impôts - Cadastre. Mise à jour : 2010"/>
    <tag k="source:name" v="http://www.v2asp.paris.fr/commun/v2asp/v2/nomenclature_voies/Voieactu/7573.nom.htm"/>
    <tag k="surface" v="asphalt"/>
    <tag k="zone:maxspeed" v="FR:30"/>
  </way>
  <way id="4527563" version="25" timestamp="2024-07-30T08:24:54Z" changeset="154594220" uid="2678738" user="fgouget">
    <nd ref="26401652"/>
    <nd ref="3657878911"/>
    <nd ref="247431480"/>
    <nd ref="8554435059"/>
    <nd ref="4406170826"/>
    <nd ref="1980084610"/>
    <nd ref="26401658"/>
    <tag k="cycleway" v="opposite"/>
    <tag k="highway" v="residential"/>
    <tag k="maxspeed" v="30"/>
    <tag k="name" v="Rue de l'Hôtel de Ville"/>
    <tag k="name:etymology:wikidata" v="Q640968"/>
    <tag k="oneway" v="yes"/>
    <tag k="oneway:bicycle" v="no"/>
    <tag k="sidewalk:left" v="separate"/>
    <tag k="surface" v="asphalt"/>
    <tag k="zone:maxspeed" v="FR:30"/>
  </way>
  <way id="4527567" version="28" timestamp="2024-06-04T22:03:27Z" changeset="152263644" uid="2678738" user="fgouget">
    <nd ref="26401641"/>
    <nd ref="5092153452"/>
    <nd ref="6390732585"/>
    <nd ref="5528716490"/>
    <nd ref="26401659"/>
    <tag k="cycleway:left" v="lane"/>
    <tag k="cycleway:left:lane" v="exclusive"/>
    <tag k="cycleway:left:oneway" v="-1"/>
    <tag k="cycleway:right" v="no"/>
    <tag k="highway" v="tertiary"/>
    <tag k="lit" v="yes"/>
    <tag k="maxspeed" v="30"/>
    <tag k="name" v="Rue de Fourcy"/>
    <tag k="name:etymology:wikidata" v="Q17284982"/>
    <tag k="oneway" v="yes"/>
    <tag k="oneway:bicycle" v="no"/>
    <tag k="sidewalk:left" v="yes"/>
    <tag k="sidewalk:right" v="separate"/>
    <tag k="surface" v="asphalt"/>
    <tag k="zone:maxspeed" v="FR:30"/>
  </way>
  <way id="4527569" version="20" timestamp="2024-05-05T12:56:29Z" changeset="150918861" uid="6290466" user="benjamintchik">
    <nd ref="26401687"/>
    <nd ref="1980084569"/>
    <nd ref="1980084577"/>
    <nd ref="208381994"/>
    <nd ref="1980084580"/>
    <nd ref="1980084595"/>
    <nd ref="26401686"/>
    <tag k="cycleway" v="opposite"/>
    <tag k="highway" v="residential"/>
    <tag k="maxspeed" v="30"/>
    <tag k="name" v="Rue de l'Avé Maria"/>
    <tag k="name:etymology:wikidata" v="Q23055378"/>
    <tag k="oneway" v="yes"/>
    <tag k="oneway:bicycle" v="no"/>
    <tag k="sidewalk:both" v="separate"/>
    <tag k="surface" v="asphalt"/>
    <tag k="width" v="5"/>
    <tag k="zone:maxspeed" v="FR:30"/>
  </way>
  <way id="4574308" version="20" timestamp="2024-03-30T00:15:13Z" changeset="149332975" uid="2678738" user="fgouget">
    <nd ref="26401793"/>
    <nd ref="5528716170"/>
    <nd ref="214885576"/>
    <nd ref="251047675"/>
    <nd ref="5528716133"/>
    <nd ref="5528716138"/>
    <nd ref="26401095"/>
    <tag k="cycleway" v="opposite"/>
    <tag k="highway" v="residential"/>
    <tag k="lit" v="yes"/>
    <tag k="maxspeed" v="30"/>
    <tag k="motor_vehicle:conditional" v="no @ (Apr-Sep Su 10:00-19:30; Oct-Mar Su 10:00-18:00)"/>
    <tag k="name" v="Rue de Jarente"/>
    <tag k="name:etymology:wikidata" v="Q3263484"/>
    <tag k="oneway" v="yes"/>
    <tag k="oneway:bicycle" v="no"/>
    <tag k="sidewalk:both" v="separate"/>
    <tag k="surface" v="asphalt"/>
  </way>
  <way id="4574348" version="29" timestamp="2024-09-13T09:44:17Z" changeset="156563656" uid="12133211" user="FlorentParisCentre">
    <nd ref="26401696"/>
    <nd ref="2388255517"/>
    <nd ref="6390637382"/>
    <nd ref="26401644"/>
    <tag k="cycleway:left" v="opposite"/>
    <tag k="emergency" v="yes"/>
    <tag k="highway" v="residential"/>
    <tag k="lit" v="yes"/>
    <tag k="maxspeed" v="30"/>
    <tag k="motor_vehicle:conditional" v="no @ (Apr-Sep Su 10:00-19:30; Oct-Mar Su 10:00-18:00)"/>
    <tag k="name" v="Rue Madame de Sévigné"/>
    <tag k="name:etymology:wikidata" v="Q237103"/>
    <tag k="note:fr" v="double sens pour pompiers et vélos"/>
    <tag k="oneway" v="yes"/>
    <tag k="oneway:bicycle" v="no"/>
    <tag k="oneway:emergency" v="no"/>
    <tag k="sidewalk:both" v="separate"/>
    <tag k="smoothness" v="good"/>
    <tag k="surface" v="asphalt"/>
    <tag k="width" v="5"/>
  </way>
  <way id="4574429" version="41" timestamp="2025-04-25T21:11:02Z" changeset="165442544" uid="1842888" user="nihombashi19">
    <nd ref="26401021"/>
    <nd ref="4881432626"/>
    <nd ref="3559303079"/>
    <nd ref="701417626"/>
    <nd ref="5528716183"/>
    <nd ref="26400941"/>
    <nd ref="1573141077"/>
    <nd ref="5528716185"/>
    <nd ref="1573141051"/>
    <nd ref="1614407109"/>
    <nd ref="26400956"/>
    <nd ref="5528716186"/>
    <nd ref="12787050322"/>
    <nd ref="5528716433"/>
    <nd ref="26400957"/>
    <nd ref="5528716430"/>
    <nd ref="11377361110"/>
    <nd ref="5528716190"/>
    <nd ref="26401086"/>
    <tag k="cycleway:both" v="no"/>
    <tag k="highway" v="tertiary"/>
    <tag k="lane_markings" v="no"/>
    <tag k="lit" v="yes"/>
    <tag k="maxspeed" v="30"/>
    <tag k="motor_vehicle:conditional" v="no @ (Apr-Sep Su 10:00-19:30; Oct-Mar Su 10:00-18:00)"/>
    <tag k="name" v="Rue des Francs Bourgeois"/>
    <tag k="old_name" v="Rue de Paradis"/>
    <tag k="oneway" v="yes"/>
    <tag k="sidewalk:both" v="separate"/>
    <tag k="sidewalk:both:surface" v="paving_stones"/>
    <tag k="surface" v="asphalt"/>
  </way>
  <way id="15893871" version="18" timestamp="2024-05-05T12:55:33Z" changeset="150918861" uid="6290466" user="benjamintchik">
    <nd ref="26401664"/>
    <nd ref="1980084624"/>
    <nd ref="159688661"/>
    <nd ref="704820670"/>
    <nd ref="1700837111"/>
    <nd ref="693538108"/>
    <nd ref="1700837108"/>
    <nd ref="26401666"/>
    <tag k="cycleway" v="opposite"/>
    <tag k="highway" v="residential"/>
    <tag k="maxspeed" v="30"/>
    <tag k="name" v="Rue Charlemagne"/>
    <tag k="name:etymology:wikidata" v="Q3044"/>
    <tag k="oneway" v="yes"/>
    <tag k="oneway:bicycle" v="no"/>
    <tag k="sidewalk:both" v="separate"/>
  </way>
  <way id="17249298" version="18" timestamp="2024-02-22T08:48:32Z" changeset="147760119" uid="12287265" user="bilbosquet">
    <nd ref="178803742"/>
    <nd ref="368142"/>
    <tag k="cycleway:both" v="no"/>
    <tag k="highway" v="tertiary"/>
    <tag k="lit" v="yes"/>
    <tag k="maxspeed" v="30"/>
    <tag k="name" v="Pont Marie"/>
    <tag k="name:etymology:wikidata" v="Q48758693"/>
    <tag k="sidewalk" v="separate"/>
    <tag k="smoothness" v="good"/>
    <tag k="source:maxspeed" v="BMO Arrêté n o 2018 P 12837"/>
    <tag k="surface" v="asphalt"/>
    <tag k="zone:maxspeed" v="FR:30"/>
  </way>
  <way id="17249305" version="29" timestamp="2024-11-25T06:24:56Z" changeset="159558677" uid="158826" user="cquest">
    <nd ref="10832534950"/>
    <nd ref="12373039938"/>
    <nd ref="178803742"/>
    <tag k="bridge" v="yes"/>
    <tag k="bus" v="yes"/>
    <tag k="cycleway:both" v="lane"/>
    <tag k="cycleway:both:lane" v="exclusive"/>
    <tag k="hgv" v="no"/>
    <tag k="highway" v="tertiary"/>
    <tag k="lanes" v="3"/>
    <tag k="lanes:backward" v="2"/>
    <tag k="lanes:forward" v="1"/>
    <tag k="layer" v="1"/>
    <tag k="lit" v="yes"/>
    <tag k="maxspeed" v="30"/>
    <tag k="name" v="Pont Marie"/>
    <tag k="name:etymology:wikidata" v="Q48758693"/>
    <tag k="note:access" v="bus RATP autorisés"/>
    <tag k="parking:both" v="no"/>
    <tag k="sidewalk" v="separate"/>
    <tag k="smoothness" v="intermediate"/>
    <tag k="source" v="BMO Arrêté n o 2018 P 12837"/>
    <tag k="surface" v="sett"/>
    <tag k="zone:maxspeed" v="FR:30"/>
  </way>
  <way id="19877535" version="14" timestamp="2024-05-05T12:56:51Z" changeset="150918861" uid="6290466" user="benjamintchik">
    <nd ref="208381519"/>
    <nd ref="277500567"/>
    <nd ref="6834529884"/>
    <nd ref="1980084576"/>
    <nd ref="208381994"/>
    <tag k="cycleway" v="opposite"/>
    <tag k="highway" v="residential"/>
    <tag k="maxspeed" v="30"/>
    <tag k="name" v="Rue des Jardins Saint-Paul"/>
    <tag k="name:etymology:wikidata" v="Q1107656"/>
    <tag k="oneway" v="yes"/>
    <tag k="oneway:bicycle" v="no"/>
    <tag k="sidewalk:both" v="separate"/>
    <tag k="surface" v="asphalt"/>
    <tag k="zone:maxspeed" v="FR:30"/>
  </way>
  <way id="19877594" version="17" timestamp="2024-07-30T08:25:26Z" changeset="154594220" uid="2678738" user="fgouget">
    <nd ref="1980084623"/>
    <nd ref="6562921418"/>
    <nd ref="704819728"/>
    <nd ref="1980084622"/>
    <tag k="cycleway:left" v="opposite_lane"/>
    <tag k="highway" v="residential"/>
    <tag k="maxspeed" v="30"/>
    <tag k="name" v="Rue des Jardins Saint-Paul"/>
    <tag k="name:etymology:wikidata" v="Q1107656"/>
    <tag k="oneway" v="yes"/>
    <tag k="oneway:bicycle" v="no"/>
    <tag k="sidewalk:left" v="separate"/>
    <tag k="surface" v="asphalt"/>
    <tag k="zone:maxspeed" v="FR:30"/>
  </way>
  <way id="19877754" version="22" timestamp="2024-05-05T12:56:12Z" changeset="150918861" uid="6290466" user="benjamintchik">
    <nd ref="368141"/>
    <nd ref="5334674566"/>
    <nd ref="11069305463"/>
    <nd ref="1980084591"/>
    <nd ref="178802497"/>
    <tag k="cycleway:left" v="lane"/>
    <tag k="cycleway:left:oneway" v="-1"/>
    <tag k="cycleway:right" v="no"/>
    <tag k="highway" v="residential"/>
    <tag k="maxspeed" v="30"/>
    <tag k="name" v="Rue du Fauconnier"/>
    <tag k="name:etymology" v="unknown"/>
    <tag k="oneway" v="yes"/>
    <tag k="oneway:bicycle" v="no"/>
    <tag k="sidewalk:both" v="separate"/>
    <tag k="surface" v="asphalt"/>
    <tag k="zone:maxspeed" v="FR:30"/>
  </way>
  <way id="19880538" version="23" timestamp="2024-05-05T12:55:53Z" changeset="150918861" uid="6290466" user="benjamintchik">
    <nd ref="26401686"/>
    <nd ref="208495934"/>
    <nd ref="248966924"/>
    <nd ref="704887357"/>
    <nd ref="26401767"/>
    <nd ref="704887316"/>
    <tag k="cycleway:left" v="opposite_lane"/>
    <tag k="cycleway:right" v="no"/>
    <tag k="highway" v="residential"/>
    <tag k="maxspeed" v="30"/>
    <tag k="name" v="Rue du Figuier"/>
    <tag k="name:etymology:wikidata" v="Q59798"/>
    <tag k="oneway" v="yes"/>
    <tag k="oneway:bicycle" v="no"/>
    <tag k="sidewalk:both" v="separate"/>
    <tag k="surface" v="sett"/>
    <tag k="zone:maxspeed" v="FR:30"/>
  </way>
  <way id="20277845" version="17" timestamp="2024-03-30T00:15:23Z" changeset="149332975" uid="2678738" user="fgouget">
    <nd ref="26401644"/>
    <nd ref="5528716134"/>
    <nd ref="703460812"/>
    <nd ref="251047665"/>
    <nd ref="6385989373"/>
    <nd ref="214886662"/>
    <nd ref="251047661"/>
    <nd ref="214885021"/>
    <nd ref="5528716167"/>
    <nd ref="214885022"/>
    <tag k="cycleway" v="opposite"/>
    <tag k="highway" v="residential"/>
    <tag k="lit" v="yes"/>
    <tag k="maxspeed" v="30"/>
    <tag k="motor_vehicle:conditional" v="no @ (Apr-Sep Su 10:00-19:30; Oct-Mar Su 10:00-18:00)"/>
    <tag k="name" v="Rue d'Ormesson"/>
    <tag k="name:etymology:wikidata" v="Q3131449"/>
    <tag k="oneway" v="yes"/>
    <tag k="oneway:bicycle" v="no"/>
    <tag k="sidewalk:both" v="separate"/>
    <tag k="surface" v="asphalt"/>
  </way>
  <way id="20436427" version="29" timestamp="2024-05-05T12:55:20Z" changeset="150918861" uid="6290466" user="benjamintchik">
    <nd ref="698058860"/>
    <nd ref="5528716479"/>
    <nd ref="6370185666"/>
    <nd ref="1381775677"/>
    <nd ref="1980084609"/>
    <nd ref="26401658"/>
    <tag k="cycleway:left" v="lane"/>
    <tag k="cycleway:left:lane" v="exclusive"/>
    <tag k="cycleway:left:oneway" v="-1"/>
    <tag k="cycleway:right" v="no"/>
    <tag k="highway" v="tertiary"/>
    <tag k="lit" v="yes"/>
    <tag k="maxspeed" v="30"/>
    <tag k="name" v="Rue des Nonnains d'Hyères"/>
    <tag k="name:etymology:wikidata" v="Q2820282"/>
    <tag k="oneway" v="yes"/>
    <tag k="oneway:bicycle" v="no"/>
    <tag k="sidewalk:both" v="separate"/>
    <tag k="surface" v="asphalt"/>
    <tag k="zone:maxspeed" v="FR:30"/>
  </way>
  <way id="22972089" version="20" timestamp="2024-09-07T17:06:10Z" changeset="156321737" uid="7550430" user="Britzz">
    <nd ref="247596077"/>
    <nd ref="2734149000"/>
    <nd ref="1945079613"/>
    <tag k="cycleway:both" v="no"/>
    <tag k="cycleway:left" v="opposite"/>
    <tag k="highway" v="residential"/>
    <tag k="lane_markings" v="no"/>
    <tag k="maxspeed" v="30"/>
    <tag k="name" v="Pont Louis-Philippe"/>
    <tag k="name:etymology:wikidata" v="Q7771"/>
    <tag k="oneway" v="yes"/>
    <tag k="oneway:bicycle" v="no"/>
    <tag k="sidewalk" v="separate"/>
    <tag k="source:maxspeed" v="BMO Arrêté n o 2018 P 12837"/>
    <tag k="surface" v="asphalt"/>
    <tag k="zone:maxspeed" v="FR:30"/>
  </way>
  <way id="22972090" version="31" timestamp="2024-11-25T06:24:56Z" changeset="159558677" uid="158826" user="cquest">
    <nd ref="247596080"/>
    <nd ref="12373039935"/>
    <nd ref="247596077"/>
    <tag k="bridge" v="yes"/>
    <tag k="cycleway:left" v="lane"/>
    <tag k="cycleway:left:lane" v="exclusive"/>
    <tag k="cycleway:left:oneway" v="-1"/>
    <tag k="cycleway:right" v="lane"/>
    <tag k="cycleway:right:lane" v="exclusive"/>
    <tag k="highway" v="residential"/>
    <tag k="lane_markings" v="no"/>
    <tag k="lanes" v="2"/>
    <tag k="layer" v="1"/>
    <tag k="lit" v="yes"/>
    <tag k="maxspeed" v="30"/>
    <tag k="maxweight:signed" v="no"/>
    <tag k="name" v="Pont Louis-Philippe"/>
    <tag k="name:etymology:wikidata" v="Q7771"/>
    <tag k="oneway" v="yes"/>
    <tag k="oneway:bicycle" v="no"/>
    <tag k="parking:both" v="no"/>
    <tag k="ref:FR:FANTOIR" v="75104P238W;75104P237V"/>
    <tag k="sidewalk" v="separate"/>
    <tag k="source:maxspeed" v="BMO Arrêté n o 2018 P 12837"/>
    <tag k="surface" v="sett"/>
    <tag k="wikidata" v="Q1196667"/>
    <tag k="wikipedia" v="fr:Pont Louis-Philippe"/>
    <tag k="zone:maxspeed" v="FR:30"/>
  </way>
  <way id="23950624" version="12" timestamp="2022-12-21T21:35:17Z" changeset="130349359" uid="7550430" user="Britzz">
    <nd ref="26401652"/>
    <nd ref="10278939779"/>
    <nd ref="3657885236"/>
    <nd ref="6388181404"/>
    <nd ref="392897848"/>
    <nd ref="259637377"/>
    <tag k="highway" v="residential"/>
    <tag k="lanes" v="2"/>
    <tag k="maxspeed" v="30"/>
    <tag k="name" v="Rue Geoffroy l'Asnier"/>
    <tag k="oneway" v="no"/>
    <tag k="surface" v="sett"/>
    <tag k="zone:maxspeed" v="FR:30"/>
  </way>
  <way id="34322512" version="23" timestamp="2025-03-19T23:03:45Z" changeset="163839538" uid="7550430" user="Britzz">
    <nd ref="699045729"/>
    <nd ref="5528716468"/>
    <nd ref="699045819"/>
    <nd ref="218139842"/>
    <nd ref="26401654"/>
    <nd ref="5528716474"/>
    <nd ref="5528716472"/>
    <nd ref="26401655"/>
    <tag k="highway" v="residential"/>
    <tag k="lit" v="yes"/>
    <tag k="maxspeed" v="30"/>
    <tag k="name" v="Rue François Miron"/>
    <tag k="name:etymology:wikidata" v="Q3085372"/>
    <tag k="oneway" v="yes"/>
    <tag k="oneway:bicycle" v="no"/>
    <tag k="sidewalk:both" v="separate"/>
    <tag k="source" v="cadastre-dgi-fr source : Direction Générale des Impôts - Cadastre. Mise à jour : 2010"/>
    <tag k="surface" v="asphalt"/>
    <tag k="zone:maxspeed" v="FR:30"/>
  </way>
  <way id="55477164" version="18" timestamp="2025-02-05T11:39:24Z" changeset="162161602" uid="13350444" user="Fairspatz">
    <nd ref="697178457"/>
    <nd ref="697178481"/>
    <nd ref="697178531"/>
    <nd ref="697178445"/>
    <nd ref="697178470"/>
    <nd ref="697178497"/>
    <nd ref="697178558"/>
    <nd ref="697178595"/>
    <nd ref="697178459"/>
    <nd ref="697178483"/>
    <nd ref="697178535"/>
    <nd ref="697178577"/>
    <nd ref="697178447"/>
    <nd ref="697178472"/>
    <nd ref="697178517"/>
    <nd ref="697178566"/>
    <nd ref="697178602"/>
    <nd ref="697178463"/>
    <nd ref="697178487"/>
    <nd ref="697178543"/>
    <nd ref="697178581"/>
    <nd ref="697178451"/>
    <nd ref="697178477"/>
    <nd ref="697178455"/>
    <nd ref="697178479"/>
    <nd ref="697178527"/>
    <nd ref="697178573"/>
    <nd ref="697178443"/>
    <nd ref="697178468"/>
    <nd ref="697178494"/>
    <nd ref="697178554"/>
    <nd ref="697178593"/>
    <nd ref="697178458"/>
    <nd ref="697178482"/>
    <nd ref="697178533"/>
    <nd ref="697178576"/>
    <nd ref="697178446"/>
    <nd ref="697178471"/>
    <nd ref="697178513"/>
    <nd ref="697178562"/>
    <nd ref="697178599"/>
    <nd ref="697178461"/>
    <nd ref="697178485"/>
    <nd ref="697178539"/>
    <nd ref="697178579"/>
    <nd ref="697178449"/>
    <nd ref="697178475"/>
    <nd ref="697178521"/>
    <nd ref="697178570"/>
    <nd ref="697178606"/>
    <nd ref="697178465"/>
    <nd ref="697178489"/>
    <nd ref="697178548"/>
    <nd ref="697178585"/>
    <nd ref="2162801969"/>
    <nd ref="697178453"/>
    <nd ref="697178560"/>
    <nd ref="697178597"/>
    <nd ref="697178460"/>
    <nd ref="697178484"/>
    <nd ref="697178537"/>
    <nd ref="697178578"/>
    <nd ref="697178448"/>
    <nd ref="697178473"/>
    <nd ref="697178519"/>
    <nd ref="697178568"/>
    <nd ref="697178604"/>
    <nd ref="697178464"/>
    <nd ref="697178488"/>
    <nd ref="697178546"/>
    <nd ref="697178583"/>
    <nd ref="697178452"/>
    <nd ref="697178478"/>
    <nd ref="697178525"/>
    <nd ref="697178572"/>
    <nd ref="697178442"/>
    <nd ref="697178467"/>
    <nd ref="697178492"/>
    <nd ref="697178552"/>
    <nd ref="697178589"/>
    <nd ref="697178456"/>
    <nd ref="697178480"/>
    <nd ref="697178529"/>
    <nd ref="697178574"/>
    <nd ref="697178444"/>
    <nd ref="697178469"/>
    <nd ref="697178495"/>
    <nd ref="697178556"/>
    <nd ref="697178515"/>
    <nd ref="697178564"/>
    <nd ref="697178601"/>
    <nd ref="697178462"/>
    <nd ref="697178486"/>
    <nd ref="697178541"/>
    <nd ref="697178580"/>
    <nd ref="697178450"/>
    <nd ref="697178476"/>
    <nd ref="698083619"/>
    <nd ref="697178523"/>
    <nd ref="697178571"/>
    <nd ref="697178608"/>
    <nd ref="697178466"/>
    <nd ref="10090513116"/>
    <nd ref="697178491"/>
    <nd ref="697178550"/>
    <nd ref="697178587"/>
    <nd ref="697178454"/>
    <nd ref="698083480"/>
    <nd ref="10090513108"/>
    <nd ref="697178457"/>
    <tag k="alt_name" v="Église Saint-Gervais-Saint-Protais"/>
    <tag k="amenity" v="place_of_worship"/>
    <tag k="building" v="church"/>
    <tag k="building:levels" v="7"/>
    <tag k="check_date" v="2025-02-05"/>
    <tag k="denomination" v="catholic"/>
    <tag k="heritage" v="2"/>
    <tag k="heritage:operator" v="mhs"/>
    <tag k="mhs:inscription_date" v="1862"/>
    <tag k="name" v="Église Saint-Gervais"/>
    <tag k="operator" v="Fraternités Monastiques de Jérusalem"/>
    <tag k="ref:FR:CEF" v="75104_03"/>
    <tag k="ref:mhs" v="PA00086257"/>
    <tag k="religion" v="christian"/>
    <tag k="service_times" v="Su 11:00; Tu-Fr 12:30,18:00; Sa 12:15"/>
    <tag k="source" v="cadastre-dgi-fr source : Direction Générale des Impôts - Cadastre. Mise à jour : 2010"/>
    <tag k="source:heritage" v="data.gouv.fr:Ministère de la Culture - 04/2015"/>
    <tag k="website" v="https://jerusalem.cef.fr/paris-saint-gervais"/>
    <tag k="wheelchair" v="no"/>
    <tag k="wikidata" v="Q427340"/>
    <tag k="wikipedia" v="fr:Église Saint-Gervais-Saint-Protais de Paris"/>
  </way>
  <way id="55541122" version="11" timestamp="2025-01-15T14:19:49Z" changeset="161382885" uid="2820801" user="Reino Baptista">
    <nd ref="698058850"/>
    <nd ref="11114578874"/>
    <nd ref="11114578875"/>
    <nd ref="11114578876"/>
    <nd ref="11114578877"/>
    <nd ref="11114578878"/>
    <nd ref="698058824"/>
    <nd ref="698058965"/>
    <nd ref="698058790"/>
    <nd ref="698058830"/>
    <nd ref="698058902"/>
    <nd ref="698058878"/>
    <nd ref="698058796"/>
    <nd ref="698058834"/>
    <nd ref="698058880"/>
    <nd ref="698058924"/>
    <nd ref="698058837"/>
    <nd ref="698058884"/>
    <nd ref="698058929"/>
    <nd ref="698058970"/>
    <nd ref="698058889"/>
    <nd ref="698058933"/>
    <nd ref="698058975"/>
    <nd ref="698058801"/>
    <nd ref="698058936"/>
    <nd ref="698058979"/>
    <nd ref="698058807"/>
    <nd ref="698058843"/>
    <nd ref="698058813"/>
    <nd ref="698058980"/>
    <nd ref="698058944"/>
    <nd ref="698058810"/>
    <nd ref="698058877"/>
    <nd ref="698058846"/>
    <nd ref="698058872"/>
    <nd ref="698058849"/>
    <nd ref="698058893"/>
    <nd ref="11114578873"/>
    <nd ref="698058850"/>
    <tag k="alt_name" v="Hôtel des archevêques de Sens"/>
    <tag k="building" v="yes"/>
    <tag k="building:levels" v="3"/>
    <tag k="building:wall:material" v="stone"/>
    <tag k="castle_type" v="stately"/>
    <tag k="heritage" v="2"/>
    <tag k="heritage:operator" v="mhs"/>
    <tag k="historic" v="castle"/>
    <tag k="mhs:inscription_date" v="1912-03-20"/>
    <tag k="name" v="Hôtel de Sens"/>
    <tag k="ref:mhs" v="PA00086316"/>
    <tag k="roof:colour" v="darkgrey"/>
    <tag k="roof:levels" v="1"/>
    <tag k="roof:material" v="roof_tiles"/>
    <tag k="roof:shape" v="gabled"/>
    <tag k="source" v="cadastre-dgi-fr source : Direction Générale des Impôts - Cadastre. Mise à jour : 2010"/>
    <tag k="source:heritage" v="data.gouv.fr:Ministère de la Culture - 03/2018"/>
    <tag k="start_date" v="1519"/>
    <tag k="toilets" v="yes"/>
    <tag k="toilets:access" v="public"/>
    <tag k="wikidata" v="Q1374604"/>
    <tag k="wikipedia" v="fr:Hôtel des archevêques de Sens"/>
  </way>
  <way id="55545735" version="7" timestamp="2022-10-11T20:53:44Z" changeset="127380779" uid="7550430" user="Britzz">
    <nd ref="698083542"/>
    <nd ref="698083648"/>
    <nd ref="698083729"/>
    <nd ref="698083561"/>
    <nd ref="698083665"/>
    <nd ref="698083635"/>
    <nd ref="698083530"/>
    <nd ref="698083525"/>
    <nd ref="698083626"/>
    <nd ref="698083735"/>
    <nd ref="698083734"/>
    <nd ref="698083536"/>
    <nd ref="698083641"/>
    <nd ref="3999077560"/>
    <nd ref="698083542"/>
    <tag k="addr:city" v="Paris"/>
    <tag k="addr:housenumber" v="12"/>
    <tag k="addr:postcode" v="75004"/>
    <tag k="addr:street" v="Rue des Barres"/>
    <tag k="building" v="yes"/>
    <tag k="building:levels" v="4"/>
    <tag k="name" v="Auberge Maubuisson"/>
    <tag k="operator" v="MIJE"/>
    <tag k="roof:levels" v="1"/>
    <tag k="source" v="cadastre-dgi-fr source : Direction Générale des Impôts - Cadastre. Mise à jour : 2010"/>
    <tag k="tourism" v="hostel"/>
    <tag k="website" v="https://www.mije.com/auberge-jeunesse-paris/maubuisson"/>
  </way>
  <way id="55620201" version="5" timestamp="2022-12-19T23:11:40Z" changeset="130266595" uid="7550430" user="Britzz">
    <nd ref="699045717"/>
    <nd ref="699046010"/>
    <nd ref="10274392251"/>
    <nd ref="699046042"/>
    <nd ref="699045964"/>
    <nd ref="699046007"/>
    <nd ref="1381744295"/>
    <nd ref="699045876"/>
    <nd ref="699046019"/>
    <nd ref="699045717"/>
    <tag k="alt_name" v="Maison de Marsande"/>
    <tag k="building" v="residential"/>
    <tag k="building:levels" v="3"/>
    <tag k="historic" v="building"/>
    <tag k="name" v="Hôtel d'Ourscamp"/>
    <tag k="roof:levels" v="1"/>
    <tag k="source" v="cadastre-dgi-fr source : Direction Générale des Impôts - Cadastre. Mise à jour : 2010"/>
    <tag k="wikidata" v="Q3279210"/>
    <tag k="wikipedia" v="fr:Hôtel d'Ourscamp"/>
  </way>
  <way id="55942658" version="8" timestamp="2024-08-10T13:39:08Z" changeset="155063079" uid="1809826" user="johnwho">
    <nd ref="4614335940"/>
    <nd ref="702296089"/>
    <nd ref="702296062"/>
    <nd ref="4614335938"/>
    <nd ref="4614335939"/>
    <nd ref="702295886"/>
    <nd ref="702296136"/>
    <nd ref="702295920"/>
    <nd ref="702295785"/>
    <nd ref="702295945"/>
    <nd ref="702295823"/>
    <nd ref="702295974"/>
    <nd ref="702295933"/>
    <nd ref="702296110"/>
    <nd ref="702295961"/>
    <nd ref="702295773"/>
    <nd ref="702295998"/>
    <nd ref="702295810"/>
    <nd ref="702296058"/>
    <nd ref="702296037"/>
    <nd ref="702295848"/>
    <nd ref="702296050"/>
    <nd ref="702295856"/>
    <nd ref="702296099"/>
    <nd ref="4614335942"/>
    <nd ref="4614335941"/>
    <nd ref="4614335940"/>
    <tag k="amenity" v="place_of_worship"/>
    <tag k="building" v="church"/>
    <tag k="check_date" v="2024-08-10"/>
    <tag k="denomination" v="lutheran"/>
    <tag k="name" v="Église Luthérienne des Billettes"/>
    <tag k="religion" v="christian"/>
    <tag k="source" v="cadastre-dgi-fr source : Direction Générale des Impôts - Cadastre. Mise à jour : 2010"/>
    <tag k="wikidata" v="Q2979783"/>
    <tag k="wikipedia" v="fr:Cloître et église des Billettes"/>
  </way>
  <way id="55944197" version="6" timestamp="2024-07-19T10:58:26Z" changeset="154138099" uid="10162567" user="12caracteres">
    <nd ref="702306824"/>
    <nd ref="702306847"/>
    <nd ref="702306773"/>
    <nd ref="702306817"/>
    <nd ref="702306837"/>
    <nd ref="702306784"/>
    <nd ref="702306835"/>
    <nd ref="702306800"/>
    <nd ref="702306855"/>
    <nd ref="702306801"/>
    <nd ref="702306764"/>
    <nd ref="702306766"/>
    <nd ref="702306824"/>
    <tag k="building" v="yes"/>
    <tag k="building:levels" v="7"/>
    <tag k="contact:email" v="reservations@legrandmazarin.com"/>
    <tag k="name" v="Le Grand Mazarin"/>
    <tag k="phone" v="+33 1 83 64 00 65"/>
    <tag k="ref:FR:SIRET" v="82266113800021"/>
    <tag k="ref:vatin" v="FR10822661138"/>
    <tag k="source" v="cadastre-dgi-fr source : Direction Générale des Impôts - Cadastre. Mise à jour : 2010"/>
    <tag k="stars" v="5"/>
    <tag k="tourism" v="hotel"/>
    <tag k="website" v="https://www.legrandmazarin.com"/>
  </way>
  <way id="55980984" version="3" timestamp="2020-10-04T06:59:47Z" changeset="91921937" uid="1842888" user="nihombashi19">
    <nd ref="702718119"/>
    <nd ref="702718285"/>
    <nd ref="7972556759"/>
    <nd ref="702718182"/>
    <nd ref="702718346"/>
    <nd ref="702718142"/>
    <nd ref="7972556775"/>
    <nd ref="702718305"/>
    <nd ref="702718084"/>
    <nd ref="702718280"/>
    <nd ref="702718119"/>
    <tag k="building" v="yes"/>
    <tag k="name" v="Acteurs du Paris durable"/>
    <tag k="source" v="cadastre-dgi-fr source : Direction Générale des Impôts - Cadastre. Mise à jour : 2010"/>
  </way>
  <way id="55984117" version="18" timestamp="2025-01-07T07:48:45Z" changeset="161085426" uid="10731965" user="Hydrel">
    <nd ref="701417737"/>
    <nd ref="11200286182"/>
    <nd ref="11193981954"/>
    <nd ref="702750974"/>
    <nd ref="702750702"/>
    <nd ref="702750864"/>
    <nd ref="702751034"/>
    <nd ref="702750482"/>
    <nd ref="702750628"/>
    <nd ref="702750795"/>
    <nd ref="11200286162"/>
    <nd ref="11200286163"/>
    <nd ref="11200286167"/>
    <nd ref="11200286164"/>
    <nd ref="11200286165"/>
    <nd ref="702750960"/>
    <nd ref="11200318044"/>
    <nd ref="11200318042"/>
    <nd ref="11200318043"/>
    <nd ref="702750395"/>
    <nd ref="702750732"/>
    <nd ref="702750903"/>
    <nd ref="11200318045"/>
    <nd ref="702751077"/>
    <nd ref="702750509"/>
    <nd ref="702750670"/>
    <nd ref="702750828"/>
    <nd ref="702750990"/>
    <nd ref="702750433"/>
    <nd ref="702750635"/>
    <nd ref="702750875"/>
    <nd ref="702751054"/>
    <nd ref="702750492"/>
    <nd ref="702750640"/>
    <nd ref="702750809"/>
    <nd ref="702750967"/>
    <nd ref="11200318046"/>
    <nd ref="702750409"/>
    <nd ref="702750564"/>
    <nd ref="702751027"/>
    <nd ref="702750479"/>
    <nd ref="702750615"/>
    <nd ref="702750787"/>
    <nd ref="702750943"/>
    <nd ref="11200286201"/>
    <nd ref="702750387"/>
    <nd ref="702750543"/>
    <nd ref="702750711"/>
    <nd ref="702750776"/>
    <nd ref="702750456"/>
    <nd ref="702750596"/>
    <nd ref="702750443"/>
    <nd ref="702750775"/>
    <nd ref="12479973172"/>
    <nd ref="701417823"/>
    <nd ref="11200318016"/>
    <nd ref="701417695"/>
    <nd ref="701417855"/>
    <nd ref="11200318009"/>
    <nd ref="701417737"/>
    <tag k="amenity" v="place_of_worship"/>
    <tag k="building" v="church"/>
    <tag k="building:levels" v="1"/>
    <tag k="building:levels:underground" v="1"/>
    <tag k="check_date" v="2024-08-04"/>
    <tag k="denomination" v="catholic"/>
    <tag k="email" v="nd.blancs.manteaux@free.fr"/>
    <tag k="fax" v="+33 1 42 72 01 02"/>
    <tag k="name" v="Église Notre-Dame-des-Blancs-Manteaux"/>
    <tag k="opening_hours" v="Mo 17:00-19:30; Tu-Fr 15:00-19:00; Sa 15:00-19:30; Su 10:00-12:00, 15:00-19:00"/>
    <tag k="phone" v="+33 1 42 72 09 37"/>
    <tag k="ref:FR:CEF" v="75104_02"/>
    <tag k="religion" v="christian"/>
    <tag k="source" v="cadastre-dgi-fr source : Direction Générale des Impôts - Cadastre. Mise à jour : 2010"/>
    <tag k="website" v="https://www.paris.catholique.fr/-Notre-Dame-des-Blancs-Manteaux,1290-.html"/>
    <tag k="wheelchair" v="no"/>
    <tag k="wikidata" v="Q1581988"/>
    <tag k="wikipedia" v="fr:Église Notre-Dame-des-Blancs-Manteaux"/>
  </way>
  <way id="55984130" version="6" timestamp="2023-10-06T17:26:07Z" changeset="142242459" uid="17325314" user="dlzv">
    <nd ref="702750552"/>
    <nd ref="702750837"/>
    <nd ref="702750847"/>
    <nd ref="702751004"/>
    <nd ref="702750728"/>
    <nd ref="702750900"/>
    <nd ref="702751073"/>
    <nd ref="702750505"/>
    <nd ref="702750667"/>
    <nd ref="702750884"/>
    <nd ref="702750826"/>
    <nd ref="702750984"/>
    <nd ref="702750432"/>
    <nd ref="702750872"/>
    <nd ref="702751040"/>
    <nd ref="702750490"/>
    <nd ref="702750637"/>
    <nd ref="702750800"/>
    <nd ref="702750940"/>
    <nd ref="702750782"/>
    <nd ref="702750559"/>
    <nd ref="702750911"/>
    <nd ref="702750604"/>
    <nd ref="7231449492"/>
    <nd ref="702750464"/>
    <nd ref="702750720"/>
    <nd ref="7231449496"/>
    <nd ref="702750552"/>
    <tag k="alt_name" v="Hôtel des Ambassadeurs de Hollande"/>
    <tag k="architect" v="Pierre Cottart"/>
    <tag k="architect:wikidata" v="Q17353170"/>
    <tag k="architect:wikipedia" v="fr:Pierre Cottard"/>
    <tag k="building" v="apartments"/>
    <tag k="heritage" v="2"/>
    <tag k="heritage:operator" v="mhs"/>
    <tag k="mhs:inscription_date" v="1924-05-21"/>
    <tag k="name" v="Hôtel Amelot de Bisseuil"/>
    <tag k="ref:mhs" v="PA00086270"/>
    <tag k="source" v="cadastre-dgi-fr source : Direction Générale des Impôts - Cadastre. Mise à jour : 2010"/>
    <tag k="source:architect" v="survey"/>
    <tag k="source:heritage" v="data.gouv.fr:Ministère de la Culture - 03/2018"/>
    <tag k="start_date" v="1660"/>
    <tag k="wikidata" v="Q1553420"/>
    <tag k="wikipedia" v="fr:Hôtel Amelot de Bisseuil"/>
  </way>
  <way id="55996992" version="8" timestamp="2023-12-21T08:20:31Z" changeset="145359953" uid="290680" user="wheelmap_visitor">
    <nd ref="702915554"/>
    <nd ref="702915686"/>
    <nd ref="702915244"/>
    <nd ref="702916148"/>
    <nd ref="702916213"/>
    <nd ref="702915581"/>
    <nd ref="702915223"/>
    <nd ref="702915329"/>
    <nd ref="702915845"/>
    <nd ref="702915058"/>
    <nd ref="702915554"/>
    <tag k="addr:housenumber" v="42 bis"/>
    <tag k="addr:street" v="Rue de Rivoli"/>
    <tag k="building" v="hotel"/>
    <tag k="building:levels" v="7"/>
    <tag k="name" v="Hôtel de Nice"/>
    <tag k="phone" v="+33 1 42 78 55 29"/>
    <tag k="source" v="cadastre-dgi-fr source : Direction Générale des Impôts - Cadastre. Mise à jour : 2010"/>
    <tag k="stars" v="3"/>
    <tag k="tourism" v="hotel"/>
    <tag k="website" v="https://www.hoteldenice.com"/>
    <tag k="wheelchair" v="yes"/>
  </way>
  <way id="55997006" version="5" timestamp="2025-04-03T19:17:31Z" changeset="164479403" uid="5670825" user="Christophe Raverdy">
    <nd ref="702916125"/>
    <nd ref="10809266716"/>
    <nd ref="702915316"/>
    <nd ref="702915321"/>
    <nd ref="702916184"/>
    <nd ref="702915116"/>
    <nd ref="702916025"/>
    <nd ref="702915431"/>
    <nd ref="702915547"/>
    <nd ref="702916125"/>
    <tag k="building" v="apartments"/>
    <tag k="heritage" v="3"/>
    <tag k="heritage:operator" v="mhs"/>
    <tag k="mhs:inscription_date" v="1965-10-19"/>
    <tag k="name" v="Hôtel Brulart"/>
    <tag k="ref:mhs" v="PA00086279"/>
    <tag k="source" v="cadastre-dgi-fr source : Direction Générale des Impôts - Cadastre. Mise à jour : 2010"/>
    <tag k="source:heritage" v="Ministère de la Culture - 07/2018"/>
    <tag k="wikidata" v="Q22921416"/>
  </way>
  <way id="55997020" version="5" timestamp="2025-03-18T13:42:32Z" changeset="163774783" uid="392288" user="Kalepom">
    <nd ref="702915604"/>
    <nd ref="12676565034"/>
    <nd ref="702915991"/>
    <nd ref="702916208"/>
    <nd ref="702915654"/>
    <nd ref="702915419"/>
    <nd ref="702916254"/>
    <nd ref="702915914"/>
    <nd ref="702915075"/>
    <nd ref="702915604"/>
    <tag k="building" v="yes"/>
    <tag k="building:levels" v="7"/>
    <tag k="check_date" v="2025-01-06"/>
    <tag k="internet_access" v="wlan"/>
    <tag k="name" v="Hôtel Caron de Beaumarchais"/>
    <tag k="source" v="cadastre-dgi-fr source : Direction Générale des Impôts - Cadastre. Mise à jour : 2010"/>
    <tag k="tourism" v="hotel"/>
    <tag k="website" v="https://www.carondebeaumarchais.com/"/>
    <tag k="wheelchair" v="no"/>
  </way>
  <way id="55997028" version="6" timestamp="2023-12-21T08:23:50Z" changeset="145360082" uid="290680" user="wheelmap_visitor">
    <nd ref="702916143"/>
    <nd ref="702915740"/>
    <nd ref="702915217"/>
    <nd ref="702916328"/>
    <nd ref="702916122"/>
    <nd ref="702915801"/>
    <nd ref="702915272"/>
    <nd ref="702916159"/>
    <nd ref="702915577"/>
    <nd ref="702916143"/>
    <tag k="building" v="hotel"/>
    <tag k="building:levels" v="7"/>
    <tag k="email" v="hotel@francelouvre.com"/>
    <tag k="fax" v="+33 1 42 71 04 74"/>
    <tag k="name" v="Hôtel France Louvre"/>
    <tag k="phone" v="+33 1 42 71 29 28"/>
    <tag k="source" v="cadastre-dgi-fr source : Direction Générale des Impôts - Cadastre. Mise à jour : 2010"/>
    <tag k="stars" v="3"/>
    <tag k="tourism" v="hotel"/>
    <tag k="website" v="http://www.francelouvre.com"/>
    <tag k="wheelchair" v="no"/>
  </way>
  <way id="55997043" version="4" timestamp="2025-04-03T19:13:51Z" changeset="164479531" uid="5670825" user="Christophe Raverdy">
    <nd ref="702915978"/>
    <nd ref="702916088"/>
    <nd ref="702916028"/>
    <nd ref="702915438"/>
    <nd ref="702916270"/>
    <nd ref="702915717"/>
    <nd ref="702916104"/>
    <nd ref="702915187"/>
    <nd ref="702915914"/>
    <nd ref="702916254"/>
    <nd ref="702915978"/>
    <tag k="building" v="yes"/>
    <tag k="building:levels" v="8"/>
    <tag k="check_date" v="2025-04-03"/>
    <tag k="name" v="Le Compostelle"/>
    <tag k="source" v="cadastre-dgi-fr source : Direction Générale des Impôts - Cadastre. Mise à jour : 2010"/>
    <tag k="stars" v="3"/>
    <tag k="tourism" v="hotel"/>
  </way>
  <way id="55997064" version="8" timestamp="2024-10-27T13:26:40Z" changeset="158413075" uid="12189491" user="Coooly">
    <nd ref="702915507"/>
    <nd ref="702916205"/>
    <nd ref="702916281"/>
    <nd ref="702916187"/>
    <nd ref="702915731"/>
    <nd ref="702915230"/>
    <nd ref="702915507"/>
    <tag k="addr:city" v="Paris"/>
    <tag k="addr:housenumber" v="37"/>
    <tag k="addr:street" v="Rue du roi de Sicile"/>
    <tag k="amenity" v="restaurant"/>
    <tag k="building" v="yes"/>
    <tag k="building:levels" v="6"/>
    <tag k="check_date" v="2024-10-27"/>
    <tag k="contact:website" v="http://www.commealisbonne.com/"/>
    <tag k="cuisine" v="portuguese"/>
    <tag k="internet_access" v="no"/>
    <tag k="name" v="Comme à Lisbonne"/>
    <tag k="opening_hours" v="Tu-Su 11:00-19:00"/>
    <tag k="payment:cash" v="yes"/>
    <tag k="payment:mastercard" v="yes"/>
    <tag k="payment:visa" v="yes"/>
    <tag k="source" v="cadastre-dgi-fr source : Direction Générale des Impôts - Cadastre. Mise à jour : 2010"/>
    <tag k="toilets" v="yes"/>
    <tag k="toilets:access" v="customers"/>
    <tag k="toilets:disposal" v="flush"/>
    <tag k="toilets:position" v="seated"/>
    <tag k="toilets:wheelchair" v="no"/>
    <tag k="wheelchair" v="no"/>
  </way>
  <way id="55997982" version="7" timestamp="2022-09-15T16:09:23Z" changeset="126231117" uid="1842888" user="nihombashi19">
    <nd ref="702938933"/>
    <nd ref="702938833"/>
    <nd ref="702938782"/>
    <nd ref="702938921"/>
    <nd ref="702938827"/>
    <nd ref="702938938"/>
    <nd ref="702938728"/>
    <nd ref="702938928"/>
    <nd ref="702938832"/>
    <nd ref="10027825203"/>
    <nd ref="702938753"/>
    <nd ref="702938721"/>
    <nd ref="702938749"/>
    <nd ref="702938888"/>
    <nd ref="702938804"/>
    <nd ref="702938846"/>
    <nd ref="702938937"/>
    <nd ref="702938855"/>
    <nd ref="702938933"/>
    <tag k="alt_name" v="Pierre-Charles Krieg"/>
    <tag k="amenity" v="arts_centre"/>
    <tag k="building" v="yes"/>
    <tag k="building:levels" v="2"/>
    <tag k="internet_access" v="wlan"/>
    <tag k="internet_access:fee" v="no"/>
    <tag k="internet_access:operator" v="Mairie de Paris"/>
    <tag k="name" v="Halle des Blancs-Manteaux"/>
    <tag k="source" v="cadastre-dgi-fr source : Direction Générale des Impôts - Cadastre. Mise à jour : 2010"/>
    <tag k="source:internet_access" v="Paris Open Data"/>
  </way>
  <way id="56003306" version="13" timestamp="2023-07-30T20:40:38Z" changeset="139225879" uid="7550430" user="Britzz">
    <nd ref="702977314"/>
    <nd ref="702977029"/>
    <nd ref="702977114"/>
    <nd ref="702976865"/>
    <nd ref="702977166"/>
    <nd ref="702976921"/>
    <nd ref="702977216"/>
    <nd ref="702976981"/>
    <nd ref="702977269"/>
    <nd ref="702977034"/>
    <nd ref="702976899"/>
    <nd ref="702977197"/>
    <nd ref="702976962"/>
    <nd ref="702977252"/>
    <nd ref="702977013"/>
    <nd ref="11071943573"/>
    <nd ref="702977303"/>
    <nd ref="702977065"/>
    <nd ref="702976822"/>
    <nd ref="11075381409"/>
    <nd ref="11077585305"/>
    <nd ref="11077585508"/>
    <nd ref="11077571270"/>
    <nd ref="11077585512"/>
    <nd ref="702977227"/>
    <nd ref="11051208379"/>
    <nd ref="702976993"/>
    <nd ref="11077585509"/>
    <nd ref="11077585506"/>
    <nd ref="702977045"/>
    <nd ref="702977329"/>
    <nd ref="702977093"/>
    <nd ref="702976852"/>
    <nd ref="702977147"/>
    <nd ref="11077585513"/>
    <nd ref="702977022"/>
    <nd ref="702977309"/>
    <nd ref="702977074"/>
    <nd ref="702976831"/>
    <nd ref="702977122"/>
    <nd ref="702976873"/>
    <nd ref="702977174"/>
    <nd ref="702976931"/>
    <nd ref="702976811"/>
    <nd ref="702977101"/>
    <nd ref="702976858"/>
    <nd ref="11077585407"/>
    <nd ref="11077585405"/>
    <nd ref="702977153"/>
    <nd ref="702976908"/>
    <nd ref="702977204"/>
    <nd ref="702976968"/>
    <nd ref="702977257"/>
    <nd ref="702977129"/>
    <nd ref="702976880"/>
    <nd ref="702977182"/>
    <nd ref="702976942"/>
    <nd ref="702977236"/>
    <nd ref="702977004"/>
    <nd ref="702977290"/>
    <nd ref="702977053"/>
    <nd ref="702976915"/>
    <nd ref="702976957"/>
    <nd ref="702977211"/>
    <nd ref="702977314"/>
    <tag k="building" v="yes"/>
    <tag k="heritage" v="3"/>
    <tag k="heritage:operator" v="mhs"/>
    <tag k="name" v="Hôtel de Coulanges"/>
    <tag k="ref:mhs" v="PA00086301"/>
    <tag k="wikidata" v="Q14806211"/>
    <tag k="wikipedia" v="fr:Hôtel de Coulanges"/>
  </way>
  <way id="56003317" version="11" timestamp="2023-07-30T20:23:08Z" changeset="139225203" uid="7550430" user="Britzz">
    <nd ref="702977264"/>
    <nd ref="702977200"/>
    <nd ref="8274234810"/>
    <nd ref="702977314"/>
    <nd ref="702977029"/>
    <nd ref="702977263"/>
    <nd ref="702976977"/>
    <nd ref="702977264"/>
    <tag k="brand" v="Uniqlo"/>
    <tag k="brand:wikidata" v="Q26070"/>
    <tag k="brand:wikipedia" v="en:Uniqlo"/>
    <tag k="building" v="retail"/>
    <tag k="building:levels" v="3"/>
    <tag k="contact:city" v="Paris"/>
    <tag k="contact:housenumber" v="39"/>
    <tag k="contact:phone" v="+33 1 53 01 87 87"/>
    <tag k="contact:postcode" v="75004"/>
    <tag k="contact:street" v="Rue des Francs Bourgeois"/>
    <tag k="contact:website" v="http://www.uniqlo.com/fr/"/>
    <tag k="name" v="Uniqlo"/>
    <tag k="opening_hours" v="Mo-Fr 11:00-20:00; Sa-Su 10:00-20:00"/>
    <tag k="shop" v="clothes"/>
    <tag k="source" v="cadastre-dgi-fr source : Direction Générale des Impôts - Cadastre. Mise à jour : 2010"/>
    <tag k="wikidata" v="Q22980177"/>
  </way>
  <way id="56040595" version="3" timestamp="2023-10-22T17:29:50Z" changeset="142978147" uid="15750595" user="calculpe">
    <nd ref="703432424"/>
    <nd ref="703432312"/>
    <nd ref="703432507"/>
    <nd ref="703432748"/>
    <nd ref="703432932"/>
    <nd ref="703432408"/>
    <nd ref="703432576"/>
    <nd ref="703432832"/>
    <nd ref="703432211"/>
    <nd ref="703432484"/>
    <nd ref="703432656"/>
    <nd ref="703432910"/>
    <nd ref="703432294"/>
    <nd ref="703432387"/>
    <nd ref="703432561"/>
    <nd ref="703432818"/>
    <nd ref="703432200"/>
    <nd ref="703432471"/>
    <nd ref="703432644"/>
    <nd ref="703432885"/>
    <nd ref="703432281"/>
    <nd ref="703432544"/>
    <nd ref="703432722"/>
    <nd ref="703432182"/>
    <nd ref="703432356"/>
    <nd ref="703432615"/>
    <nd ref="703432795"/>
    <nd ref="703432255"/>
    <nd ref="703432447"/>
    <nd ref="703432862"/>
    <nd ref="703432769"/>
    <nd ref="703432247"/>
    <nd ref="703432516"/>
    <nd ref="703432685"/>
    <nd ref="703432938"/>
    <nd ref="703432323"/>
    <nd ref="703432583"/>
    <nd ref="703432728"/>
    <nd ref="703432760"/>
    <nd ref="703432222"/>
    <nd ref="703432414"/>
    <nd ref="703432663"/>
    <nd ref="703432558"/>
    <nd ref="703432299"/>
    <nd ref="703432913"/>
    <nd ref="703432539"/>
    <nd ref="703432348"/>
    <nd ref="703432367"/>
    <nd ref="703432191"/>
    <nd ref="703432732"/>
    <nd ref="703432680"/>
    <nd ref="703432424"/>
    <tag k="addr:housenumber" v="7-9"/>
    <tag k="addr:street" v="Rue de Sévigné"/>
    <tag k="building" v="yes"/>
    <tag k="historic" v="building"/>
    <tag k="name" v="Hôtel de Chavigny"/>
    <tag k="source" v="cadastre-dgi-fr source : Direction Générale des Impôts - Cadastre. Mise à jour : 2010"/>
    <tag k="wikidata" v="Q13426612"/>
    <tag k="wikipedia" v="fr:Hôtel de Chavigny"/>
  </way>
  <way id="56040600" version="15" timestamp="2022-11-28T14:52:12Z" changeset="129480159" uid="172867" user="AmiFritz">
    <nd ref="703432201"/>
    <nd ref="703432819"/>
    <nd ref="703432180"/>
    <nd ref="703432282"/>
    <nd ref="703432473"/>
    <nd ref="703432723"/>
    <nd ref="703432888"/>
    <nd ref="703432807"/>
    <nd ref="703432189"/>
    <nd ref="703432366"/>
    <nd ref="5163764197"/>
    <nd ref="703432625"/>
    <nd ref="703432805"/>
    <nd ref="703432274"/>
    <nd ref="703432457"/>
    <nd ref="703432709"/>
    <nd ref="703432879"/>
    <nd ref="703432345"/>
    <nd ref="703432538"/>
    <nd ref="703432786"/>
    <nd ref="703432171"/>
    <nd ref="703432435"/>
    <nd ref="703432605"/>
    <nd ref="703432860"/>
    <nd ref="703432246"/>
    <nd ref="703432678"/>
    <nd ref="703432851"/>
    <nd ref="703432310"/>
    <nd ref="703432505"/>
    <nd ref="703432747"/>
    <nd ref="703432928"/>
    <nd ref="703432405"/>
    <nd ref="703432574"/>
    <nd ref="703432830"/>
    <nd ref="703432210"/>
    <nd ref="703432482"/>
    <nd ref="703432654"/>
    <nd ref="703432908"/>
    <nd ref="703432292"/>
    <nd ref="703432552"/>
    <nd ref="703432731"/>
    <nd ref="703432587"/>
    <nd ref="703432764"/>
    <nd ref="703432231"/>
    <nd ref="703432419"/>
    <nd ref="703432666"/>
    <nd ref="703432844"/>
    <nd ref="703432303"/>
    <nd ref="703432494"/>
    <nd ref="703432737"/>
    <nd ref="703432922"/>
    <nd ref="703432390"/>
    <nd ref="703432564"/>
    <nd ref="703432822"/>
    <nd ref="703432276"/>
    <nd ref="703432850"/>
    <nd ref="703432474"/>
    <nd ref="703432646"/>
    <nd ref="703432277"/>
    <nd ref="703432464"/>
    <nd ref="703432718"/>
    <nd ref="703432882"/>
    <nd ref="703432351"/>
    <nd ref="703432541"/>
    <nd ref="703432791"/>
    <nd ref="703432177"/>
    <nd ref="703432442"/>
    <nd ref="703432745"/>
    <nd ref="703432611"/>
    <nd ref="703432184"/>
    <nd ref="703432798"/>
    <nd ref="703432389"/>
    <nd ref="703432201"/>
    <tag k="building" v="university"/>
    <tag k="contact:city" v="Paris"/>
    <tag k="contact:housenumber" v="24"/>
    <tag k="contact:postcode" v="75004"/>
    <tag k="contact:street" v="Rue Pavée"/>
    <tag k="height" v="15"/>
    <tag k="heritage" v="2"/>
    <tag k="heritage:operator" v="mhs"/>
    <tag k="mhs:inscription_date" v="1937-02-18"/>
    <tag k="name" v="Hôtel de Lamoignon"/>
    <tag k="ref:mhs" v="PA00086296"/>
    <tag k="roof:shape" v="hipped"/>
    <tag k="source" v="cadastre-dgi-fr source : Direction Générale des Impôts - Cadastre. Mise à jour : 2010"/>
    <tag k="source:heritage" v="Ministère de la Culture - 07/2018"/>
    <tag k="wikidata" v="Q3145712"/>
    <tag k="wikipedia" v="fr:Hôtel d'Angoulême Lamoignon"/>
  </way>
  <way id="56040603" version="12" timestamp="2024-08-09T08:43:54Z" changeset="155011409" uid="1159672" user="merylstreet">
    <nd ref="703432760"/>
    <nd ref="703432675"/>
    <nd ref="703432799"/>
    <nd ref="703432619"/>
    <nd ref="703432360"/>
    <nd ref="703432186"/>
    <nd ref="703432203"/>
    <nd ref="703432825"/>
    <nd ref="703432643"/>
    <nd ref="703432382"/>
    <nd ref="703432420"/>
    <nd ref="703432586"/>
    <nd ref="703432845"/>
    <nd ref="703432232"/>
    <nd ref="703432496"/>
    <nd ref="703432667"/>
    <nd ref="703432199"/>
    <nd ref="703432736"/>
    <nd ref="703432222"/>
    <nd ref="703432760"/>
    <tag k="amenity" v="restaurant"/>
    <tag k="building" v="yes"/>
    <tag k="check_date" v="2022-09-30"/>
    <tag k="cuisine" v="spanish"/>
    <tag k="indoor_seating" v="yes"/>
    <tag k="name" v="Casa San Pablo"/>
    <tag k="opening_hours" v="Mo-Su 12:00-23:00"/>
    <tag k="outdoor_seating" v="no"/>
    <tag k="phone" v="+33 1 42 74 75 90"/>
    <tag k="smoking" v="no"/>
    <tag k="source" v="cadastre-dgi-fr source : Direction Générale des Impôts - Cadastre. Mise à jour : 2010"/>
  </way>
  <way id="56040608" version="9" timestamp="2025-03-06T12:57:33Z" changeset="163284514" uid="5670825" user="Christophe Raverdy">
    <nd ref="703432934"/>
    <nd ref="703432622"/>
    <nd ref="703432873"/>
    <nd ref="703432767"/>
    <nd ref="703432268"/>
    <nd ref="703432159"/>
    <nd ref="703432530"/>
    <nd ref="703432705"/>
    <nd ref="703432163"/>
    <nd ref="703432338"/>
    <nd ref="703432309"/>
    <nd ref="703432504"/>
    <nd ref="703432743"/>
    <nd ref="703432926"/>
    <nd ref="703432934"/>
    <tag k="amenity" v="place_of_worship"/>
    <tag k="architect" v="Hector Guimard"/>
    <tag k="architect:wikipedia" v="fr:Hector Guimard"/>
    <tag k="building" v="church"/>
    <tag k="building:levels" v="5"/>
    <tag k="check_date" v="2025-03-06"/>
    <tag k="heritage" v="3"/>
    <tag k="heritage:operator" v="mhs"/>
    <tag k="mhs:inscription_date" v="1989-07-04"/>
    <tag k="name" v="Synagogue"/>
    <tag k="ref:mhs" v="PA00086477"/>
    <tag k="religion" v="jewish"/>
    <tag k="source" v="cadastre-dgi-fr source : Direction Générale des Impôts - Cadastre. Mise à jour : 2010"/>
    <tag k="source:heritage" v="data.gouv.fr:Ministère de la Culture - 08/2011"/>
    <tag k="start_date" v="1913"/>
    <tag k="wikidata" v="Q1567790"/>
    <tag k="wikipedia" v="fr:Synagogue de la rue Pavée"/>
  </way>
  <way id="56040612" version="5" timestamp="2024-05-11T12:53:00Z" changeset="151184670" uid="21470376" user="Atypha">
    <nd ref="703432175"/>
    <nd ref="703432649"/>
    <nd ref="703432385"/>
    <nd ref="703432559"/>
    <nd ref="703432816"/>
    <nd ref="703432926"/>
    <nd ref="703432743"/>
    <nd ref="703432504"/>
    <nd ref="703432430"/>
    <nd ref="703432241"/>
    <nd ref="703432511"/>
    <nd ref="703432755"/>
    <nd ref="703432936"/>
    <nd ref="703432777"/>
    <nd ref="703432175"/>
    <tag k="alt_name" v="Centre de Recherches Juridiques et Historiques. IMAf"/>
    <tag k="amenity" v="university"/>
    <tag k="building" v="yes"/>
    <tag k="check_date" v="2024-05-11"/>
    <tag k="name" v="Centre Malher"/>
    <tag k="operator" v="Paris 1 Panthéon-Sorbonne"/>
    <tag k="website" v="https://histoire.pantheonsorbonne.fr/lecole/centres-lecole-dhistoire-sorbonne"/>
  </way>
  <way id="56043185" version="7" timestamp="2017-10-21T01:13:40Z" changeset="53117656" uid="1443767" user="Olyon">
    <nd ref="703460832"/>
    <nd ref="703460762"/>
    <nd ref="703460893"/>
    <nd ref="703461090"/>
    <nd ref="703460951"/>
    <nd ref="703461112"/>
    <nd ref="703460832"/>
    <tag k="addr:city" v="Paris"/>
    <tag k="addr:housenumber" v="9"/>
    <tag k="addr:postcode" v="75004"/>
    <tag k="addr:street" v="Rue d'Ormesson"/>
    <tag k="building" v="yes"/>
    <tag k="building:levels" v="7"/>
    <tag k="fax" v="+33 1 48 47 40 04"/>
    <tag k="name" v="Hôtel Pratic"/>
    <tag k="phone" v="+33 1 48 87 80 47"/>
    <tag k="source" v="cadastre-dgi-fr source : Direction Générale des Impôts - Cadastre. Mise à jour : 2010"/>
    <tag k="tourism" v="hotel"/>
    <tag k="website" v="http://www.hotelpratic.com"/>
    <tag k="wheelchair" v="no"/>
  </way>
  <way id="56046646" version="5" timestamp="2024-06-17T23:32:26Z" changeset="152823382" uid="145231" user="woodpeck_repair">
    <nd ref="699193942"/>
    <nd ref="703504365"/>
    <nd ref="703504378"/>
    <nd ref="703504439"/>
    <nd ref="703504464"/>
    <nd ref="703504484"/>
    <nd ref="703504353"/>
    <nd ref="699193839"/>
    <nd ref="699193942"/>
    <tag k="alt_name" v="Roi de Sicile Rivoli"/>
    <tag k="building" v="yes"/>
    <tag k="building:levels" v="7"/>
    <tag k="name" v="Hôtel Paris Rivoli"/>
    <tag k="source" v="cadastre-dgi-fr source : Direction Générale des Impôts - Cadastre. Mise à jour : 2010"/>
    <tag k="stars" v="3"/>
    <tag k="tourism" v="hotel"/>
  </way>
  <way id="56046786" version="15" timestamp="2023-10-24T19:34:16Z" changeset="143080741" uid="7550430" user="Britzz">
    <nd ref="703505469"/>
    <nd ref="11045511495"/>
    <nd ref="703505438"/>
    <nd ref="703505462"/>
    <nd ref="703505484"/>
    <nd ref="703505428"/>
    <nd ref="703505445"/>
    <nd ref="703505492"/>
    <nd ref="703505427"/>
    <nd ref="703505452"/>
    <nd ref="703505472"/>
    <nd ref="703505503"/>
    <nd ref="703505435"/>
    <nd ref="704819356"/>
    <nd ref="703505458"/>
    <nd ref="703505480"/>
    <nd ref="703505424"/>
    <nd ref="703505442"/>
    <nd ref="703505466"/>
    <nd ref="703505489"/>
    <nd ref="703505432"/>
    <nd ref="703505449"/>
    <nd ref="703505478"/>
    <nd ref="703505499"/>
    <nd ref="703505423"/>
    <nd ref="11287043598"/>
    <nd ref="703505441"/>
    <nd ref="703505465"/>
    <nd ref="704820469"/>
    <nd ref="704820185"/>
    <nd ref="703507471"/>
    <nd ref="703507470"/>
    <nd ref="703507469"/>
    <nd ref="703507472"/>
    <nd ref="703505488"/>
    <nd ref="703505431"/>
    <nd ref="703505448"/>
    <nd ref="703505476"/>
    <nd ref="1381764278"/>
    <nd ref="703505498"/>
    <nd ref="703505440"/>
    <nd ref="703505456"/>
    <nd ref="703505486"/>
    <nd ref="703505422"/>
    <nd ref="703505447"/>
    <nd ref="703505464"/>
    <nd ref="703505496"/>
    <nd ref="703505430"/>
    <nd ref="703505473"/>
    <nd ref="703505493"/>
    <nd ref="703505436"/>
    <nd ref="703505453"/>
    <nd ref="703505482"/>
    <nd ref="703505505"/>
    <nd ref="703505444"/>
    <nd ref="703505460"/>
    <nd ref="703505491"/>
    <nd ref="703505426"/>
    <nd ref="703505451"/>
    <nd ref="703505471"/>
    <nd ref="703505502"/>
    <nd ref="703505434"/>
    <nd ref="703505457"/>
    <nd ref="703505479"/>
    <nd ref="703505475"/>
    <nd ref="703505497"/>
    <nd ref="703505439"/>
    <nd ref="703505455"/>
    <nd ref="703505485"/>
    <nd ref="703505396"/>
    <nd ref="703505446"/>
    <nd ref="703505463"/>
    <nd ref="703505495"/>
    <nd ref="704819359"/>
    <nd ref="703505429"/>
    <nd ref="703505454"/>
    <nd ref="703505474"/>
    <nd ref="703505506"/>
    <nd ref="703505437"/>
    <nd ref="703505483"/>
    <nd ref="703505443"/>
    <nd ref="11045511496"/>
    <nd ref="703505459"/>
    <nd ref="703505490"/>
    <nd ref="703505425"/>
    <nd ref="703505450"/>
    <nd ref="11045511497"/>
    <nd ref="703505468"/>
    <nd ref="703505500"/>
    <nd ref="703505433"/>
    <nd ref="703505469"/>
    <tag k="amenity" v="place_of_worship"/>
    <tag k="building" v="church"/>
    <tag k="denomination" v="catholic"/>
    <tag k="heritage" v="2"/>
    <tag k="heritage:operator" v="mhs"/>
    <tag k="mhs:inscription_date" v="1887-02-10"/>
    <tag k="name" v="Église Saint-Paul-Saint-Louis"/>
    <tag k="name:es" v="Iglesia de San Pablo y San Luis"/>
    <tag k="ref:FR:CEF" v="75104_06"/>
    <tag k="ref:mhs" v="PA00086260"/>
    <tag k="religion" v="christian"/>
    <tag k="source" v="cadastre-dgi-fr source : Direction Générale des Impôts - Cadastre. Mise à jour : 2010"/>
    <tag k="source:heritage" v="data.gouv.fr, Ministère de la Culture - 2016"/>
    <tag k="wheelchair" v="no"/>
    <tag k="wikidata" v="Q1247969"/>
    <tag k="wikipedia" v="fr:Église Saint-Paul-Saint-Louis"/>
  </way>
  <way id="56159569" version="7" timestamp="2023-11-17T12:14:57Z" changeset="144136925" uid="4346095" user="jerome92370">
    <nd ref="704820641"/>
    <nd ref="704820634"/>
    <nd ref="704820546"/>
    <nd ref="704820140"/>
    <nd ref="704820556"/>
    <nd ref="11358093457"/>
    <nd ref="704820598"/>
    <nd ref="704819498"/>
    <nd ref="704820229"/>
    <nd ref="704820518"/>
    <nd ref="704819595"/>
    <nd ref="704819933"/>
    <nd ref="704820109"/>
    <nd ref="704820387"/>
    <nd ref="704819455"/>
    <nd ref="704820641"/>
    <tag k="amenity" v="social_facility"/>
    <tag k="building" v="yes"/>
    <tag k="building:levels" v="6"/>
    <tag k="fax" v="+33142721433"/>
    <tag k="name" v="Résidence du Petit Rémouleur"/>
    <tag k="phone" v="+33148875126"/>
    <tag k="ref:FR:FINESS" v="750800765"/>
    <tag k="roof:shape" v="flat"/>
    <tag k="social_facility" v="assisted_living"/>
    <tag k="social_facility:for" v="senior"/>
    <tag k="source" v="cadastre-dgi-fr source : Direction Générale des Impôts - Cadastre. Mise à jour : 2010"/>
    <tag k="type:FR:FINESS" v="202"/>
    <tag k="wikidata" v="Q112924118"/>
  </way>
  <way id="56159605" version="4" timestamp="2024-02-06T15:38:32Z" changeset="147140605" uid="2266595" user="Flyos">
    <nd ref="704820421"/>
    <nd ref="704820266"/>
    <nd ref="704819364"/>
    <nd ref="704820106"/>
    <nd ref="704820386"/>
    <nd ref="704819433"/>
    <nd ref="704819512"/>
    <nd ref="704820579"/>
    <nd ref="703505488"/>
    <nd ref="703507472"/>
    <nd ref="703507469"/>
    <nd ref="703507470"/>
    <nd ref="703507471"/>
    <nd ref="704819840"/>
    <nd ref="704820145"/>
    <nd ref="1587216285"/>
    <nd ref="704820565"/>
    <nd ref="704819963"/>
    <nd ref="704820421"/>
    <tag k="amenity" v="place_of_worship"/>
    <tag k="building" v="church"/>
    <tag k="check_date" v="2024-02-06"/>
    <tag k="name" v="Chapelle"/>
    <tag k="religion" v="christian"/>
    <tag k="source" v="cadastre-dgi-fr source : Direction Générale des Impôts - Cadastre. Mise à jour : 2010"/>
  </way>
  <way id="56159606" version="4" timestamp="2023-07-14T00:31:02Z" changeset="138484064" uid="7550430" user="Britzz">
    <nd ref="704820482"/>
    <nd ref="9602961103"/>
    <nd ref="704820435"/>
    <nd ref="704819357"/>
    <nd ref="704819377"/>
    <nd ref="704819545"/>
    <nd ref="704819898"/>
    <nd ref="704820055"/>
    <nd ref="704819578"/>
    <nd ref="704819598"/>
    <nd ref="704820650"/>
    <nd ref="704820482"/>
    <tag k="building" v="yes"/>
    <tag k="building:levels" v="6"/>
    <tag k="contact:city" v="Paris"/>
    <tag k="contact:housenumber" v="125"/>
    <tag k="contact:postcode" v="75004"/>
    <tag k="contact:street" v="Rue Saint-Antoine"/>
    <tag k="name" v="Le Temple de Jeanne"/>
    <tag k="source" v="cadastre-dgi-fr source : Direction Générale des Impôts - Cadastre. Mise à jour : 2010"/>
    <tag k="tourism" v="hotel"/>
    <tag k="website" v="https://www.letempledejeanne.com/"/>
  </way>
  <way id="56163045" version="6" timestamp="2020-10-20T20:44:45Z" changeset="92790401" uid="7550430" user="Britzz">
    <nd ref="704887414"/>
    <nd ref="704887503"/>
    <nd ref="704887313"/>
    <nd ref="704887391"/>
    <nd ref="704887445"/>
    <nd ref="704887424"/>
    <nd ref="704887538"/>
    <nd ref="704887452"/>
    <nd ref="704887362"/>
    <nd ref="704887414"/>
    <tag k="building" v="retail"/>
    <tag k="building:levels" v="5"/>
    <tag k="description" v="Librairie, images et documents"/>
    <tag k="name" v="L'Ivre d'Antan"/>
    <tag k="shop" v="books"/>
    <tag k="source" v="cadastre-dgi-fr source : Direction Générale des Impôts - Cadastre. Mise à jour : 2010"/>
  </way>
  <way id="56163068" version="8" timestamp="2024-11-26T14:39:12Z" changeset="159619861" uid="5589" user="user_5589">
    <nd ref="704887466"/>
    <nd ref="704887348"/>
    <nd ref="11114591223"/>
    <nd ref="704887458"/>
    <nd ref="704887517"/>
    <nd ref="11114591222"/>
    <nd ref="704887385"/>
    <nd ref="704887524"/>
    <nd ref="704887460"/>
    <nd ref="704887410"/>
    <nd ref="11114591261"/>
    <nd ref="704887326"/>
    <nd ref="704887555"/>
    <nd ref="11114591264"/>
    <nd ref="704887417"/>
    <nd ref="704887360"/>
    <nd ref="11035748503"/>
    <nd ref="11114591283"/>
    <nd ref="11114591278"/>
    <nd ref="11114591284"/>
    <nd ref="704887466"/>
    <tag k="amenity" v="social_facility"/>
    <tag k="building" v="yes"/>
    <tag k="building:levels" v="5"/>
    <tag k="layer" v="1"/>
    <tag k="name" v="Résidence des Célestins"/>
    <tag k="operator" v="Coallia"/>
    <tag k="operator:type" v="ngo"/>
    <tag k="operator:wikidata" v="Q56312228"/>
    <tag k="operator:wikipedia" v="fr:Coallia"/>
    <tag k="ref:FR:FINESS" v="750055808"/>
    <tag k="roof:levels" v="2"/>
    <tag k="roof:shape" v="flat"/>
    <tag k="social_facility" v="assisted_living"/>
    <tag k="social_facility:for" v="senior"/>
    <tag k="source" v="cadastre-dgi-fr source : Direction Générale des Impôts - Cadastre. Mise à jour : 2015"/>
    <tag k="source:name" v="survey"/>
    <tag k="source:ref:FR:FINESS" v="data.gouv.fr:Ministère des Solidarités et de la Santé - 05/2020"/>
    <tag k="type:FR:FINESS" v="202"/>
    <tag k="wikidata" v="Q112924101"/>
  </way>
  <way id="56163091" version="6" timestamp="2024-04-10T11:20:27Z" changeset="149814928" uid="4346095" user="jerome92370">
    <nd ref="704887361"/>
    <nd ref="704887541"/>
    <nd ref="704887375"/>
    <nd ref="704887343"/>
    <nd ref="704887475"/>
    <nd ref="704887471"/>
    <nd ref="704887534"/>
    <nd ref="704887363"/>
    <nd ref="704887420"/>
    <nd ref="704887447"/>
    <nd ref="704887504"/>
    <nd ref="704887338"/>
    <nd ref="704887392"/>
    <nd ref="704887523"/>
    <nd ref="704887329"/>
    <nd ref="704887413"/>
    <nd ref="11806982273"/>
    <nd ref="704887528"/>
    <nd ref="11806982272"/>
    <nd ref="704887361"/>
    <tag k="building" v="yes"/>
    <tag k="building:levels" v="3"/>
    <tag k="healthcare" v="laboratory"/>
    <tag k="healthcare:speciality" v="biology"/>
    <tag k="name" v="Centre de dépistage anonyme et gratuit"/>
    <tag k="source" v="cadastre-dgi-fr source : Direction Générale des Impôts - Cadastre. Mise à jour : 2010"/>
    <tag k="wheelchair" v="yes"/>
  </way>
  <way id="56185426" version="11" timestamp="2025-04-14T14:39:43Z" changeset="164942720" uid="20617622" user="Bastian Greshake Tzovaras">
    <nd ref="705045336"/>
    <nd ref="3594410987"/>
    <nd ref="705045346"/>
    <nd ref="11114591293"/>
    <nd ref="705045339"/>
    <nd ref="705045335"/>
    <nd ref="705045331"/>
    <nd ref="7713660088"/>
    <nd ref="11114591291"/>
    <nd ref="705045349"/>
    <nd ref="11114591290"/>
    <nd ref="11114591295"/>
    <nd ref="705045342"/>
    <nd ref="11114591289"/>
    <nd ref="705045334"/>
    <nd ref="705045329"/>
    <nd ref="11114591288"/>
    <nd ref="705045348"/>
    <nd ref="11114591294"/>
    <nd ref="11114591286"/>
    <nd ref="705045340"/>
    <nd ref="11114591292"/>
    <nd ref="705045336"/>
    <tag k="addr:housename" v="Maison des Célestins"/>
    <tag k="addr:street" v="Parc Rives de Seine - Georges Pompidou"/>
    <tag k="air_conditioning" v="no"/>
    <tag k="amenity" v="bar"/>
    <tag k="building" v="yes"/>
    <tag k="building:levels" v="2"/>
    <tag k="check_date" v="2025-04-14"/>
    <tag k="email" v="contact@lesnautes.com"/>
    <tag k="name" v="Les Nautes"/>
    <tag k="outdoor_seating" v="yes"/>
    <tag k="phone" v="+33142745953"/>
    <tag k="source" v="cadastre-dgi-fr source : Direction Générale des Impôts - Cadastre. Mise à jour : 2010"/>
    <tag k="survey:date" v="2022-12-16"/>
    <tag k="website" v="https://lesnautes-paris.com/"/>
    <tag k="wikidata" v="Q108287019"/>
  </way>
  <way id="56186918" version="14" timestamp="2024-11-26T14:39:12Z" changeset="159619861" uid="5589" user="user_5589">
    <nd ref="705056184"/>
    <nd ref="705056054"/>
    <nd ref="705056367"/>
    <nd ref="11216188182"/>
    <nd ref="705056436"/>
    <nd ref="11216188183"/>
    <nd ref="705056226"/>
    <nd ref="705056416"/>
    <nd ref="705056156"/>
    <nd ref="11368419688"/>
    <nd ref="1980084565"/>
    <nd ref="705056137"/>
    <nd ref="705056093"/>
    <nd ref="705056285"/>
    <nd ref="2708534499"/>
    <nd ref="11368419691"/>
    <nd ref="705056227"/>
    <nd ref="705056399"/>
    <nd ref="705056261"/>
    <nd ref="705056172"/>
    <nd ref="11368419690"/>
    <nd ref="705056175"/>
    <nd ref="705056273"/>
    <nd ref="705056375"/>
    <nd ref="705056301"/>
    <nd ref="705056272"/>
    <nd ref="705056135"/>
    <nd ref="705056146"/>
    <nd ref="1980084581"/>
    <nd ref="2708534498"/>
    <nd ref="1980084575"/>
    <nd ref="705056325"/>
    <nd ref="705056186"/>
    <nd ref="705056104"/>
    <nd ref="705056437"/>
    <nd ref="705056349"/>
    <nd ref="705056214"/>
    <nd ref="705056125"/>
    <nd ref="705056078"/>
    <nd ref="705056387"/>
    <nd ref="705056246"/>
    <nd ref="705056158"/>
    <nd ref="705056366"/>
    <nd ref="705056184"/>
    <tag k="amenity" v="social_facility"/>
    <tag k="building" v="yes"/>
    <tag k="building:levels" v="6"/>
    <tag k="name" v="Résidence de l'Ave Maria"/>
    <tag k="operator" v="Mairie de Paris"/>
    <tag k="operator:type" v="government"/>
    <tag k="operator:wikidata" v="Q3278478"/>
    <tag k="ref:FR:FINESS" v="750713331"/>
    <tag k="roof:levels" v="1"/>
    <tag k="social_facility" v="assisted_living"/>
    <tag k="social_facility:for" v="senior"/>
    <tag k="source" v="Cadastre. Mise à jour : 2010;survey;bing"/>
    <tag k="source:ref:FR:FINESS" v="data.gouv.fr:Ministère des Solidarités et de la Santé - 05/2020"/>
    <tag k="type:FR:FINESS" v="202"/>
    <tag k="wikidata" v="Q112924107"/>
  </way>
  <way id="64972826" version="20" timestamp="2024-09-13T09:44:17Z" changeset="156563656" uid="12133211" user="FlorentParisCentre">
    <nd ref="26401644"/>
    <nd ref="5528716135"/>
    <nd ref="5528716136"/>
    <nd ref="703432866"/>
    <nd ref="703460909"/>
    <nd ref="5528716137"/>
    <nd ref="26401095"/>
    <nd ref="5528716139"/>
    <nd ref="9123101142"/>
    <nd ref="11200318372"/>
    <nd ref="697868076"/>
    <nd ref="26401086"/>
    <tag k="cycleway:left" v="lane"/>
    <tag k="cycleway:left:lane" v="exclusive"/>
    <tag k="cycleway:left:oneway" v="-1"/>
    <tag k="cycleway:right" v="no"/>
    <tag k="highway" v="residential"/>
    <tag k="lit" v="yes"/>
    <tag k="maxspeed" v="30"/>
    <tag k="motor_vehicle:conditional" v="no @ (Apr-Sep Su 10:00-19:30; Oct-Mar Su 10:00-18:00)"/>
    <tag k="name" v="Rue Madame de Sévigné"/>
    <tag k="name:etymology:wikidata" v="Q237103"/>
    <tag k="oneway" v="yes"/>
    <tag k="oneway:bicycle" v="no"/>
    <tag k="parking:lane:both" v="no"/>
    <tag k="sidewalk:both" v="separate"/>
    <tag k="sidewalk:both:surface" v="paving_stones"/>
    <tag k="smoothness" v="good"/>
    <tag k="surface" v="asphalt"/>
    <tag k="width" v="5"/>
  </way>
  <way id="83262392" version="19" timestamp="2024-07-20T15:33:53Z" changeset="154184614" uid="2252690" user="gourlaysama">
    <nd ref="26400980"/>
    <nd ref="5528716501"/>
    <nd ref="11112969107"/>
    <nd ref="11112969108"/>
    <nd ref="2388255536"/>
    <nd ref="693515540"/>
    <tag k="cycleway:left" v="no"/>
    <tag k="highway" v="residential"/>
    <tag k="lit" v="yes"/>
    <tag k="maxspeed" v="30"/>
    <tag k="motor_vehicle" v="destination"/>
    <tag k="name" v="Passage Walter Benjamin"/>
    <tag k="oneway" v="yes"/>
    <tag k="oneway:bicycle" v="no"/>
    <tag k="sidewalk:both" v="separate"/>
    <tag k="sidewalk:both:surface" v="paving_stones"/>
    <tag k="smoothness" v="good"/>
    <tag k="surface" v="asphalt"/>
  </way>
  <way id="83268801" version="26" timestamp="2025-01-28T23:01:38Z" changeset="161876796" uid="2678738" user="fgouget">
    <nd ref="5919299085"/>
    <nd ref="2162871416"/>
    <nd ref="6390736503"/>
    <nd ref="247640815"/>
    <nd ref="8592903098"/>
    <nd ref="12540102533"/>
    <nd ref="6852399301"/>
    <nd ref="12540102535"/>
    <nd ref="12540102534"/>
    <nd ref="5059824696"/>
    <nd ref="247641149"/>
    <nd ref="178801329"/>
    <tag k="cycleway:left" v="lane"/>
    <tag k="cycleway:left:lane" v="exclusive"/>
    <tag k="highway" v="tertiary"/>
    <tag k="lanes" v="3"/>
    <tag k="lanes:backward" v="2"/>
    <tag k="lanes:forward" v="1"/>
    <tag k="maxspeed" v="30"/>
    <tag k="maxspeed:type" v="FR:zone30"/>
    <tag k="name" v="Rue de Lobau"/>
    <tag k="name:etymology:wikidata" v="Q1509041"/>
    <tag k="sidewalk:both" v="separate"/>
    <tag k="surface" v="asphalt"/>
    <tag k="zone:maxspeed" v="FR:30"/>
  </way>
  <way id="130742087" version="7" timestamp="2023-11-20T12:42:09Z" changeset="144245727" uid="4346095" user="jerome92370">
    <nd ref="704820393"/>
    <nd ref="704820640"/>
    <nd ref="1438420278"/>
    <nd ref="11364158811"/>
    <nd ref="1438420283"/>
    <nd ref="704820008"/>
    <nd ref="704820501"/>
    <nd ref="1438420282"/>
    <nd ref="704819460"/>
    <nd ref="1438420285"/>
    <nd ref="704819701"/>
    <nd ref="704820432"/>
    <nd ref="704819542"/>
    <nd ref="1439141383"/>
    <nd ref="1439141381"/>
    <nd ref="1439141386"/>
    <nd ref="1439141367"/>
    <nd ref="1439141364"/>
    <nd ref="1439141368"/>
    <nd ref="1439141372"/>
    <nd ref="1439141362"/>
    <nd ref="1439141385"/>
    <nd ref="1439141377"/>
    <nd ref="1439141365"/>
    <nd ref="6367284809"/>
    <nd ref="6367284811"/>
    <nd ref="6367284810"/>
    <nd ref="6367284812"/>
    <nd ref="6367284813"/>
    <nd ref="1439141379"/>
    <nd ref="704819374"/>
    <nd ref="704819893"/>
    <nd ref="704820314"/>
    <nd ref="1439141374"/>
    <nd ref="704820159"/>
    <nd ref="1438420286"/>
    <nd ref="704820393"/>
    <tag k="alt_name" v="Hotel de Beauvais"/>
    <tag k="amenity" v="courthouse"/>
    <tag k="building" v="yes"/>
    <tag k="contact:city" v="Paris"/>
    <tag k="contact:email" v="greffe.caa-paris@juradm.fr"/>
    <tag k="contact:housenumber" v="68"/>
    <tag k="contact:phone" v="+33 1 58 28 90 00"/>
    <tag k="contact:postcode" v="75004"/>
    <tag k="contact:street" v="Rue François Miron"/>
    <tag k="contact:website" v="http://paris.cour-administrative-appel.fr"/>
    <tag k="heritage" v="2"/>
    <tag k="heritage:operator" v="mhs"/>
    <tag k="name" v="Cour administrative d'appel"/>
    <tag k="old_name" v="Hotel de Beauvais"/>
    <tag k="ref:mhs" v="PA00086277"/>
    <tag k="source" v="cadastre-dgi-fr source : Direction Générale des Impôts - Cadastre. Mise à jour : 2010"/>
    <tag k="wikidata" v="Q1643105"/>
    <tag k="wikipedia" v="fr:Hôtel de Beauvais"/>
  </way>
  <way id="162384238" version="24" timestamp="2024-11-25T06:24:56Z" changeset="159558677" uid="158826" user="cquest">
    <nd ref="259637377"/>
    <nd ref="5934163992"/>
    <nd ref="1160275685"/>
    <nd ref="12373039939"/>
    <nd ref="3657878915"/>
    <nd ref="5334674562"/>
    <nd ref="368142"/>
    <tag k="enforcement:operator" v="Police nationale"/>
    <tag k="highway" v="primary"/>
    <tag k="lanes" v="4"/>
    <tag k="lit" v="yes"/>
    <tag k="maxspeed" v="30"/>
    <tag k="name" v="Quai de l'Hôtel de Ville"/>
    <tag k="oneway" v="no"/>
    <tag k="operator" v="Ville de Paris"/>
    <tag k="operator:authority" v="Maire de Paris dans le respect des prescriptions prises par le préfet de police"/>
    <tag k="operator:authority:related_law" v="III de l'article L. 2512-14 du code général des collectivités territoriales"/>
    <tag k="smoothness" v="good"/>
    <tag k="source:operator:authority" v="https://www.legifrance.gouv.fr/loda/id/LEGIARTI000035244298/#LEGIARTI000035244298"/>
    <tag k="surface" v="asphalt"/>
    <tag k="zone:traffic" v="FR:urban"/>
  </way>
  <way id="162384239" version="17" timestamp="2024-08-15T17:22:30Z" changeset="155293930" uid="11963177" user="JeroenvanderGun">
    <nd ref="208381519"/>
    <nd ref="368141"/>
    <nd ref="3657878910"/>
    <nd ref="6335319283"/>
    <nd ref="3657878922"/>
    <nd ref="368142"/>
    <tag k="enforcement:operator" v="Police nationale"/>
    <tag k="highway" v="primary"/>
    <tag k="lanes" v="4"/>
    <tag k="lanes:backward" v="2"/>
    <tag k="lanes:forward" v="2"/>
    <tag k="lit" v="yes"/>
    <tag k="maxspeed" v="30"/>
    <tag k="name" v="Quai des Célestins"/>
    <tag k="name:etymology:wikidata" v="Q657921"/>
    <tag k="oneway" v="no"/>
    <tag k="operator" v="Ville de Paris"/>
    <tag k="operator:authority" v="Maire de Paris dans le respect des prescriptions prises par le préfet de police"/>
    <tag k="operator:authority:related_law" v="III de l'article L. 2512-14 du code général des collectivités territoriales"/>
    <tag k="sidewalk:both" v="separate"/>
    <tag k="source:operator:authority" v="https://www.legifrance.gouv.fr/loda/id/LEGIARTI000035244298/#LEGIARTI000035244298"/>
    <tag k="surface" v="asphalt"/>
    <tag k="turn:lanes:forward" v="left;through|through"/>
    <tag k="zone:traffic" v="FR:urban"/>
  </way>
  <way id="172312427" version="21" timestamp="2025-05-17T20:41:29Z" changeset="166408171" uid="7550430" user="Britzz">
    <nd ref="26401611"/>
    <nd ref="11086041601"/>
    <nd ref="5404238955"/>
    <nd ref="12844840143"/>
    <nd ref="700460729"/>
    <tag k="highway" v="residential"/>
    <tag k="lit" v="yes"/>
    <tag k="maxspeed" v="30"/>
    <tag k="maxspeed:type" v="FR:zone30"/>
    <tag k="motor_vehicle:conditional" v="no @ (Apr-Sep Su 10:00-19:30; Oct-Mar Su 10:00-18:00)"/>
    <tag k="name" v="Rue des Archives"/>
    <tag k="name:etymology:wikidata" v="Q182542"/>
    <tag k="oneway" v="yes"/>
    <tag k="oneway:bicycle" v="no"/>
    <tag k="sidewalk:both" v="separate"/>
    <tag k="source:width" v="ARCore"/>
    <tag k="surface" v="asphalt"/>
    <tag k="width" v="7.3"/>
  </way>
  <way id="231316793" version="17" timestamp="2024-03-30T00:01:37Z" changeset="149332975" uid="2678738" user="fgouget">
    <nd ref="26400987"/>
    <nd ref="699193845"/>
    <nd ref="6225632170"/>
    <nd ref="1828463899"/>
    <nd ref="6225632169"/>
    <nd ref="702915299"/>
    <nd ref="5528716503"/>
    <nd ref="26400980"/>
    <nd ref="5528716502"/>
    <nd ref="5528716499"/>
    <nd ref="26400977"/>
    <nd ref="5528716497"/>
    <nd ref="5528716496"/>
    <nd ref="26400972"/>
    <nd ref="5528716494"/>
    <nd ref="5528716141"/>
    <nd ref="26401643"/>
    <tag k="cycleway:left" v="opposite"/>
    <tag k="highway" v="residential"/>
    <tag k="lit" v="yes"/>
    <tag k="maxspeed" v="30"/>
    <tag k="motor_vehicle:conditional" v="no @ (Apr-Sep Su 10:00-19:30; Oct-Mar Su 10:00-18:00)"/>
    <tag k="name" v="Rue du Roi de Sicile"/>
    <tag k="name:etymology:wikidata" v="Q203829"/>
    <tag k="oneway" v="yes"/>
    <tag k="oneway:bicycle" v="no"/>
    <tag k="service" v="alley"/>
    <tag k="sidewalk:both" v="separate"/>
    <tag k="source" v="cadastre-dgi-fr source : Direction Générale des Impôts - Cadastre. Mise à jour : 2010"/>
    <tag k="surface" v="asphalt"/>
    <tag k="wikidata" v="Q3452571"/>
    <tag k="wikipedia" v="fr:Rue du Roi-de-Sicile"/>
  </way>
  <way id="390298283" version="13" timestamp="2024-03-03T18:41:51Z" changeset="148175079" uid="6290466" user="benjamintchik">
    <nd ref="693515546"/>
    <nd ref="26401645"/>
    <tag k="cycleway" v="opposite"/>
    <tag k="highway" v="unclassified"/>
    <tag k="lanes" v="1"/>
    <tag k="lit" v="yes"/>
    <tag k="maxspeed" v="30"/>
    <tag k="name" v="Rue Pavée"/>
    <tag k="name:etymology:wikidata" v="Q757022"/>
    <tag k="oneway" v="yes"/>
    <tag k="oneway:bicycle" v="no"/>
    <tag k="service" v="alley"/>
    <tag k="surface" v="asphalt"/>
  </way>
  <way id="390298284" version="9" timestamp="2023-03-17T10:07:55Z" changeset="133781750" uid="7512839" user="Benoît C MdP">
    <nd ref="693515561"/>
    <nd ref="368137"/>
    <tag k="highway" v="residential"/>
    <tag k="lit" v="yes"/>
    <tag k="maxspeed" v="20"/>
    <tag k="name" v="Rue Vieille du Temple"/>
    <tag k="source:maxspeed" v="BMO arrêté n°2013 P 0810"/>
    <tag k="surface" v="asphalt"/>
    <tag k="zone:maxspeed" v="FR:20"/>
  </way>
  <way id="390298285" version="19" timestamp="2024-05-05T12:54:11Z" changeset="150918861" uid="6290466" user="benjamintchik">
    <nd ref="26401659"/>
    <nd ref="5528716488"/>
    <nd ref="7098651316"/>
    <nd ref="5528716477"/>
    <nd ref="698058860"/>
    <tag k="cycleway:left" v="lane"/>
    <tag k="cycleway:left:lane" v="exclusive"/>
    <tag k="cycleway:left:oneway" v="-1"/>
    <tag k="cycleway:right" v="no"/>
    <tag k="highway" v="tertiary"/>
    <tag k="lane_markings" v="no"/>
    <tag k="lit" v="yes"/>
    <tag k="maxspeed" v="30"/>
    <tag k="name" v="Rue de Fourcy"/>
    <tag k="name:etymology:wikidata" v="Q17284982"/>
    <tag k="oneway" v="yes"/>
    <tag k="oneway:bicycle" v="no"/>
    <tag k="sidewalk:both" v="separate"/>
    <tag k="smoothness" v="good"/>
    <tag k="surface" v="asphalt"/>
    <tag k="zone:maxspeed" v="FR:30"/>
  </way>
  <way id="390298295" version="7" timestamp="2025-03-23T12:16:15Z" changeset="163984090" uid="3834000" user="cartoleo">
    <nd ref="693515540"/>
    <nd ref="26401639"/>
    <tag k="cycleway:both" v="no"/>
    <tag k="highway" v="residential"/>
    <tag k="lit" v="yes"/>
    <tag k="maxspeed" v="30"/>
    <tag k="name" v="Rue des Écouffes"/>
    <tag k="oneway" v="yes"/>
    <tag k="oneway:bicycle" v="no"/>
    <tag k="sidewalk:both" v="separate"/>
    <tag k="smoothness" v="intermediate"/>
    <tag k="surface" v="asphalt"/>
  </way>
  <way id="466690491" version="19" timestamp="2024-07-20T15:33:52Z" changeset="154184614" uid="2252690" user="gourlaysama">
    <nd ref="26400972"/>
    <nd ref="5528716493"/>
    <nd ref="2388255532"/>
    <nd ref="693515546"/>
    <tag k="cycleway:left" v="no"/>
    <tag k="highway" v="unclassified"/>
    <tag k="lane_markings" v="no"/>
    <tag k="lit" v="yes"/>
    <tag k="maxspeed" v="30"/>
    <tag k="motor_vehicle:conditional" v="no @ (Apr-Sep Su 10:00-19:30; Oct-Mar Su 10:00-18:00)"/>
    <tag k="name" v="Rue Pavée"/>
    <tag k="name:etymology:wikidata" v="Q757022"/>
    <tag k="oneway" v="yes"/>
    <tag k="oneway:bicycle" v="no"/>
    <tag k="service" v="alley"/>
    <tag k="sidewalk:both" v="separate"/>
    <tag k="sidewalk:both:surface" v="paving_stones"/>
    <tag k="smoothness" v="excellent"/>
    <tag k="surface" v="asphalt"/>
  </way>
  <way id="511451176" version="13" timestamp="2024-03-30T00:02:01Z" changeset="149332975" uid="2678738" user="fgouget">
    <nd ref="26401655"/>
    <nd ref="5528716471"/>
    <nd ref="2880767498"/>
    <nd ref="557418343"/>
    <nd ref="5528716489"/>
    <nd ref="26401659"/>
    <tag k="cycleway:left" v="lane"/>
    <tag k="cycleway:left:lane" v="exclusive"/>
    <tag k="cycleway:left:oneway" v="-1"/>
    <tag k="cycleway:right" v="no"/>
    <tag k="highway" v="residential"/>
    <tag k="lit" v="yes"/>
    <tag k="maxspeed" v="30"/>
    <tag k="name" v="Rue François Miron"/>
    <tag k="name:etymology:wikidata" v="Q3085372"/>
    <tag k="oneway" v="yes"/>
    <tag k="oneway:bicycle" v="no"/>
    <tag k="sidewalk:both" v="separate"/>
    <tag k="source" v="cadastre-dgi-fr source : Direction Générale des Impôts - Cadastre. Mise à jour : 2010"/>
    <tag k="surface" v="asphalt"/>
    <tag k="zone:maxspeed" v="FR:30"/>
  </way>
  <way id="517156285" version="17" timestamp="2025-01-28T23:01:38Z" changeset="161876796" uid="2678738" user="fgouget">
    <nd ref="283555978"/>
    <nd ref="12540102550"/>
    <nd ref="6335319282"/>
    <nd ref="5041260568"/>
    <nd ref="7047107739"/>
    <tag k="dual_carriageway" v="yes"/>
    <tag k="enforcement:operator" v="Police nationale"/>
    <tag k="highway" v="primary"/>
    <tag k="lanes" v="2"/>
    <tag k="lit" v="yes"/>
    <tag k="maxspeed" v="30"/>
    <tag k="name" v="Quai de l'Hôtel de Ville"/>
    <tag k="name:etymology:wikidata" v="Q640968"/>
    <tag k="oneway" v="yes"/>
    <tag k="operator" v="Ville de Paris"/>
    <tag k="operator:authority" v="Maire de Paris dans le respect des prescriptions prises par le préfet de police"/>
    <tag k="operator:authority:related_law" v="III de l'article L. 2512-14 du code général des collectivités territoriales"/>
    <tag k="sidewalk:right" v="separate"/>
    <tag k="source:operator:authority" v="https://www.legifrance.gouv.fr/loda/id/LEGIARTI000035244298/#LEGIARTI000035244298"/>
    <tag k="surface" v="asphalt"/>
    <tag k="zone:traffic" v="FR:urban"/>
  </way>
  <way id="521338709" version="12" timestamp="2024-08-15T17:22:30Z" changeset="155293930" uid="11963177" user="JeroenvanderGun">
    <nd ref="283555978"/>
    <nd ref="25671162"/>
    <nd ref="3657878917"/>
    <nd ref="5334674572"/>
    <nd ref="368143"/>
    <tag k="enforcement:operator" v="Police nationale"/>
    <tag k="highway" v="primary"/>
    <tag k="lanes" v="4"/>
    <tag k="lanes:backward" v="2"/>
    <tag k="lanes:forward" v="2"/>
    <tag k="lit" v="yes"/>
    <tag k="maxspeed" v="30"/>
    <tag k="name" v="Quai de l'Hôtel de Ville"/>
    <tag k="name:etymology:wikidata" v="Q640968"/>
    <tag k="oneway" v="no"/>
    <tag k="operator" v="Ville de Paris"/>
    <tag k="operator:authority" v="Maire de Paris dans le respect des prescriptions prises par le préfet de police"/>
    <tag k="operator:authority:related_law" v="III de l'article L. 2512-14 du code général des collectivités territoriales"/>
    <tag k="sidewalk:both" v="separate"/>
    <tag k="smoothness" v="good"/>
    <tag k="source:operator:authority" v="https://www.legifrance.gouv.fr/loda/id/LEGIARTI000035244298/#LEGIARTI000035244298"/>
    <tag k="surface" v="asphalt"/>
    <tag k="turn:lanes:backward" v="through|through;right"/>
    <tag k="turn:lanes:forward" v="left;through|through;right"/>
    <tag k="zone:traffic" v="FR:urban"/>
  </way>
  <way id="552545358" version="14" timestamp="2024-03-03T18:38:39Z" changeset="148175079" uid="6290466" user="benjamintchik">
    <nd ref="392897790"/>
    <nd ref="3657878918"/>
    <nd ref="6388199998"/>
    <nd ref="1888274209"/>
    <tag k="cycleway:left" v="opposite_lane"/>
    <tag k="cycleway:right" v="no"/>
    <tag k="highway" v="residential"/>
    <tag k="lanes" v="1"/>
    <tag k="lit" v="yes"/>
    <tag k="maxspeed" v="30"/>
    <tag k="name" v="Rue du Pont Louis-Philippe"/>
    <tag k="name:etymology:wikidata" v="Q1196667"/>
    <tag k="oneway" v="yes"/>
    <tag k="sidewalk" v="separate"/>
    <tag k="source" v="cadastre-dgi-fr source : Direction Générale des Impôts - Cadastre. Mise à jour : 2010"/>
    <tag k="source:name" v="http://www.v2asp.paris.fr/commun/v2asp/v2/nomenclature_voies/Voieactu/7573.nom.htm"/>
    <tag k="surface" v="asphalt"/>
    <tag k="zone:maxspeed" v="FR:30"/>
  </way>
  <way id="563926533" version="9" timestamp="2024-08-15T17:22:30Z" changeset="155293930" uid="11963177" user="JeroenvanderGun">
    <nd ref="368140"/>
    <nd ref="1764235781"/>
    <nd ref="208381519"/>
    <tag k="enforcement:operator" v="Police nationale"/>
    <tag k="highway" v="primary"/>
    <tag k="lanes" v="4"/>
    <tag k="lanes:backward" v="2"/>
    <tag k="lanes:forward" v="2"/>
    <tag k="lit" v="yes"/>
    <tag k="maxspeed" v="30"/>
    <tag k="name" v="Quai des Célestins"/>
    <tag k="name:etymology:wikidata" v="Q657921"/>
    <tag k="oneway" v="no"/>
    <tag k="operator" v="Ville de Paris"/>
    <tag k="operator:authority" v="Maire de Paris dans le respect des prescriptions prises par le préfet de police"/>
    <tag k="operator:authority:related_law" v="III de l'article L. 2512-14 du code général des collectivités territoriales"/>
    <tag k="sidewalk:both" v="separate"/>
    <tag k="source:operator:authority" v="https://www.legifrance.gouv.fr/loda/id/LEGIARTI000035244298/#LEGIARTI000035244298"/>
    <tag k="surface" v="asphalt"/>
    <tag k="turn:lanes:backward" v="left;through|through"/>
    <tag k="zone:traffic" v="FR:urban"/>
  </way>
  <way id="563926537" version="10" timestamp="2024-11-25T06:24:57Z" changeset="159558677" uid="158826" user="cquest">
    <nd ref="368143"/>
    <nd ref="3701328132"/>
    <nd ref="12373039934"/>
    <nd ref="4877380022"/>
    <nd ref="259637377"/>
    <tag k="enforcement:operator" v="Police nationale"/>
    <tag k="highway" v="primary"/>
    <tag k="lanes" v="4"/>
    <tag k="lanes:backward" v="2"/>
    <tag k="lanes:forward" v="2"/>
    <tag k="lit" v="yes"/>
    <tag k="maxspeed" v="30"/>
    <tag k="name" v="Quai de l'Hôtel de Ville"/>
    <tag k="name:etymology:wikidata" v="Q640968"/>
    <tag k="oneway" v="no"/>
    <tag k="operator" v="Ville de Paris"/>
    <tag k="operator:authority" v="Maire de Paris dans le respect des prescriptions prises par le préfet de police"/>
    <tag k="operator:authority:related_law" v="III de l'article L. 2512-14 du code général des collectivités territoriales"/>
    <tag k="smoothness" v="good"/>
    <tag k="source:operator:authority" v="https://www.legifrance.gouv.fr/loda/id/LEGIARTI000035244298/#LEGIARTI000035244298"/>
    <tag k="surface" v="asphalt"/>
    <tag k="turn:lanes:backward" v="through|through;right"/>
    <tag k="zone:traffic" v="FR:urban"/>
  </way>
  <way id="569948204" version="41" timestamp="2024-08-15T17:26:47Z" changeset="155294126" uid="11963177" user="JeroenvanderGun">
    <nd ref="26401645"/>
    <nd ref="26401641"/>
    <tag k="bicycle:backward" v="use_sidepath"/>
    <tag k="cycleway:left" v="separate"/>
    <tag k="cycleway:right" v="lane"/>
    <tag k="cycleway:right:lane" v="exclusive"/>
    <tag k="enforcement:operator" v="Police nationale"/>
    <tag k="highway" v="residential"/>
    <tag k="lanes" v="1"/>
    <tag k="lit" v="yes"/>
    <tag k="maxspeed" v="30"/>
    <tag k="name" v="Rue de Rivoli"/>
    <tag k="name:de" v="Rue de Rivoli"/>
    <tag k="name:es" v="Rue de Rivoli"/>
    <tag k="name:etymology:wikidata" v="Q1069936"/>
    <tag k="name:fr" v="Rue de Rivoli"/>
    <tag k="name:ru" v="Улица Риволи"/>
    <tag k="oneway" v="yes"/>
    <tag k="operator" v="Ville de Paris"/>
    <tag k="operator:authority" v="Maire de Paris après avis du préfet de police"/>
    <tag k="operator:authority:related_law" v="IV de l'article L. 2512-14 du code général des collectivités territoriales"/>
    <tag k="operator:url" v="https://cdn.paris.fr/paris/2020/02/26/5bf469a311d0beb9911e92d113781550.ai"/>
    <tag k="source" v="cadastre-dgi-fr source : Direction Générale des Impôts - Cadastre. Mise à jour : 2010"/>
    <tag k="surface" v="asphalt"/>
    <tag k="was:highway" v="primary"/>
  </way>
  <way id="576429475" version="10" timestamp="2024-05-05T12:55:33Z" changeset="150918861" uid="6290466" user="benjamintchik">
    <nd ref="5528716125"/>
    <nd ref="6106764553"/>
    <nd ref="9752109779"/>
    <tag k="cycleway" v="opposite"/>
    <tag k="highway" v="residential"/>
    <tag k="maxspeed" v="30"/>
    <tag k="name" v="Rue Charlemagne"/>
    <tag k="name:etymology:wikidata" v="Q3044"/>
    <tag k="oneway" v="yes"/>
    <tag k="oneway:bicycle" v="no"/>
    <tag k="sidewalk:both" v="separate"/>
    <tag k="surface" v="asphalt"/>
    <tag k="zone:maxspeed" v="FR:30"/>
  </way>
  <way id="576429485" version="8" timestamp="2024-03-30T14:54:45Z" changeset="149350834" uid="2678738" user="fgouget">
    <nd ref="5528716215"/>
    <nd ref="26400966"/>
    <tag k="cycleway" v="opposite"/>
    <tag k="highway" v="residential"/>
    <tag k="lit" v="yes"/>
    <tag k="maxspeed" v="30"/>
    <tag k="motor_vehicle:conditional" v="no @ (Apr-Sep Su 10:00-19:30; Oct-Mar Su 10:00-18:00)"/>
    <tag k="name" v="Rue Pavée"/>
    <tag k="name:etymology:wikidata" v="Q757022"/>
    <tag k="oneway" v="yes"/>
    <tag k="oneway:bicycle" v="no"/>
    <tag k="sidewalk:both" v="separate"/>
    <tag k="source:maxspeed" v="opendata.paris.fr"/>
    <tag k="surface" v="paving_stones"/>
  </way>
  <way id="579271894" version="8" timestamp="2024-08-15T17:22:30Z" changeset="155293930" uid="11963177" user="JeroenvanderGun">
    <nd ref="5548048418"/>
    <nd ref="283555978"/>
    <tag k="dual_carriageway" v="yes"/>
    <tag k="enforcement:operator" v="Police nationale"/>
    <tag k="highway" v="primary"/>
    <tag k="lanes" v="2"/>
    <tag k="lit" v="yes"/>
    <tag k="maxspeed" v="30"/>
    <tag k="name" v="Quai de l'Hôtel de Ville"/>
    <tag k="name:etymology:wikidata" v="Q640968"/>
    <tag k="oneway" v="yes"/>
    <tag k="operator" v="Ville de Paris"/>
    <tag k="operator:authority" v="Maire de Paris dans le respect des prescriptions prises par le préfet de police"/>
    <tag k="operator:authority:related_law" v="III de l'article L. 2512-14 du code général des collectivités territoriales"/>
    <tag k="sidewalk" v="right"/>
    <tag k="source:operator:authority" v="https://www.legifrance.gouv.fr/loda/id/LEGIARTI000035244298/#LEGIARTI000035244298"/>
    <tag k="surface" v="asphalt"/>
    <tag k="zone:traffic" v="FR:urban"/>
  </way>
  <way id="698892812" version="6" timestamp="2024-09-14T17:29:15Z" changeset="156621763" uid="12245326" user="NaiveContact">
    <nd ref="1980084622"/>
    <nd ref="543564841"/>
    <nd ref="1980084579"/>
    <nd ref="208381994"/>
    <tag k="cycleway" v="opposite"/>
    <tag k="highway" v="residential"/>
    <tag k="maxspeed" v="30"/>
    <tag k="name" v="Rue des Jardins Saint-Paul"/>
    <tag k="name:etymology:wikidata" v="Q1107656"/>
    <tag k="oneway" v="yes"/>
    <tag k="oneway:bicycle" v="no"/>
    <tag k="sidewalk:left" v="separate"/>
    <tag k="surface" v="asphalt"/>
    <tag k="zone:maxspeed" v="FR:30"/>
  </way>
  <way id="754316772" version="11" timestamp="2024-11-12T15:37:46Z" changeset="159055656" uid="7512839" user="Benoît C MdP">
    <nd ref="1945079613"/>
    <nd ref="8840326888"/>
    <tag k="cycleway:left" v="opposite"/>
    <tag k="highway" v="residential"/>
    <tag k="lane_markings" v="no"/>
    <tag k="maxspeed" v="30"/>
    <tag k="name" v="Pont Louis-Philippe"/>
    <tag k="name:etymology:wikidata" v="Q7771"/>
    <tag k="oneway" v="yes"/>
    <tag k="oneway:bicycle" v="no"/>
    <tag k="sidewalk" v="separate"/>
    <tag k="smoothness" v="good"/>
    <tag k="source:maxspeed" v="BMO Arrêté n o 2018 P 12837"/>
    <tag k="surface" v="asphalt"/>
    <tag k="zone:maxspeed" v="FR:30"/>
  </way>
  <way id="754316773" version="5" timestamp="2024-09-07T17:06:10Z" changeset="156321737" uid="7550430" user="Britzz">
    <nd ref="368143"/>
    <nd ref="392897790"/>
    <tag k="cycleway" v="no"/>
    <tag k="highway" v="residential"/>
    <tag k="lane_markings" v="no"/>
    <tag k="maxspeed" v="30"/>
    <tag k="name" v="Rue du Pont Louis-Philippe"/>
    <tag k="name:etymology:wikidata" v="Q1196667"/>
    <tag k="oneway" v="yes"/>
    <tag k="source" v="cadastre-dgi-fr source : Direction Générale des Impôts - Cadastre. Mise à jour : 2010"/>
    <tag k="source:name" v="http://www.v2asp.paris.fr/commun/v2asp/v2/nomenclature_voies/Voieactu/7573.nom.htm"/>
    <tag k="surface" v="asphalt"/>
    <tag k="zone:maxspeed" v="FR:30"/>
  </way>
  <way id="754619062" version="7" timestamp="2024-08-15T17:22:30Z" changeset="155293930" uid="11963177" user="JeroenvanderGun">
    <nd ref="7047107739"/>
    <nd ref="5041260572"/>
    <tag k="cycleway:right" v="lane"/>
    <tag k="dual_carriageway" v="yes"/>
    <tag k="enforcement:operator" v="Police nationale"/>
    <tag k="highway" v="primary"/>
    <tag k="lanes" v="2"/>
    <tag k="lit" v="yes"/>
    <tag k="maxspeed" v="30"/>
    <tag k="name" v="Quai de l'Hôtel de Ville"/>
    <tag k="name:etymology:wikidata" v="Q640968"/>
    <tag k="oneway" v="yes"/>
    <tag k="operator" v="Ville de Paris"/>
    <tag k="operator:authority" v="Maire de Paris dans le respect des prescriptions prises par le préfet de police"/>
    <tag k="operator:authority:related_law" v="III de l'article L. 2512-14 du code général des collectivités territoriales"/>
    <tag k="sidewalk:left" v="no"/>
    <tag k="sidewalk:right" v="separate"/>
    <tag k="source:operator:authority" v="https://www.legifrance.gouv.fr/loda/id/LEGIARTI000035244298/#LEGIARTI000035244298"/>
    <tag k="surface" v="asphalt"/>
    <tag k="zone:traffic" v="FR:urban"/>
  </way>
  <way id="847108036" version="6" timestamp="2024-05-05T12:55:33Z" changeset="150918861" uid="6290466" user="benjamintchik">
    <nd ref="26401660"/>
    <nd ref="5528716481"/>
    <nd ref="5528716125"/>
    <tag k="cycleway:left" v="opposite"/>
    <tag k="cycleway:right" v="no"/>
    <tag k="highway" v="residential"/>
    <tag k="lit" v="yes"/>
    <tag k="maxspeed" v="30"/>
    <tag k="name" v="Rue Charlemagne"/>
    <tag k="name:etymology:wikidata" v="Q3044"/>
    <tag k="oneway" v="yes"/>
    <tag k="oneway:bicycle" v="no"/>
    <tag k="sidewalk:both" v="separate"/>
    <tag k="surface" v="paving_stones"/>
    <tag k="zone:maxspeed" v="FR:30"/>
  </way>
  <way id="903438150" version="9" timestamp="2024-05-05T12:56:12Z" changeset="150918861" uid="6290466" user="benjamintchik">
    <nd ref="178802497"/>
    <nd ref="26401686"/>
    <tag k="cycleway" v="no"/>
    <tag k="highway" v="residential"/>
    <tag k="maxspeed" v="30"/>
    <tag k="name" v="Rue du Fauconnier"/>
    <tag k="name:etymology" v="unknown"/>
    <tag k="sidewalk:both" v="separate"/>
    <tag k="surface" v="asphalt"/>
    <tag k="width" v="6"/>
    <tag k="zone:maxspeed" v="FR:30"/>
  </way>
  <way id="941788338" version="6" timestamp="2024-11-06T07:46:11Z" changeset="158806380" uid="7550430" user="Britzz">
    <nd ref="699045729"/>
    <nd ref="5528716470"/>
    <nd ref="5528716466"/>
    <nd ref="5092153455"/>
    <nd ref="368137"/>
    <tag k="access" v="destination"/>
    <tag k="cycleway:left" v="lane"/>
    <tag k="cycleway:left:lane" v="exclusive"/>
    <tag k="cycleway:left:oneway" v="-1"/>
    <tag k="cycleway:right" v="no"/>
    <tag k="highway" v="residential"/>
    <tag k="lanes" v="1"/>
    <tag k="maxspeed" v="30"/>
    <tag k="name" v="Rue du Pont Louis-Philippe"/>
    <tag k="name:etymology:wikidata" v="Q1196667"/>
    <tag k="oneway" v="yes"/>
    <tag k="oneway:bicycle" v="no"/>
    <tag k="sidewalk" v="separate"/>
    <tag k="source" v="cadastre-dgi-fr source : Direction Générale des Impôts - Cadastre. Mise à jour : 2010"/>
    <tag k="source:name" v="http://www.v2asp.paris.fr/commun/v2asp/v2/nomenclature_voies/Voieactu/7573.nom.htm"/>
    <tag k="surface" v="asphalt"/>
    <tag k="zone:maxspeed" v="FR:30"/>
  </way>
  <way id="995864599" version="4" timestamp="2024-05-05T12:55:20Z" changeset="150918861" uid="6290466" user="benjamintchik">
    <nd ref="26401658"/>
    <nd ref="9195695479"/>
    <nd ref="1980084597"/>
    <nd ref="277500569"/>
    <nd ref="368142"/>
    <tag k="cycleway:left" v="opposite_lane"/>
    <tag k="highway" v="tertiary"/>
    <tag k="lit" v="yes"/>
    <tag k="maxspeed" v="30"/>
    <tag k="name" v="Rue des Nonnains d'Hyères"/>
    <tag k="name:etymology:wikidata" v="Q2820282"/>
    <tag k="oneway" v="yes"/>
    <tag k="oneway:bicycle" v="no"/>
    <tag k="sidewalk:both" v="separate"/>
    <tag k="surface" v="asphalt"/>
    <tag k="zone:maxspeed" v="FR:30"/>
  </way>
  <way id="1047088030" version="8" timestamp="2024-11-12T15:37:46Z" changeset="159055656" uid="7512839" user="Benoît C MdP">
    <nd ref="8840326888"/>
    <nd ref="368143"/>
    <tag k="highway" v="residential"/>
    <tag k="lane_markings" v="no"/>
    <tag k="lit" v="yes"/>
    <tag k="maxspeed" v="30"/>
    <tag k="name" v="Pont Louis-Philippe"/>
    <tag k="name:etymology:wikidata" v="Q7771"/>
    <tag k="oneway" v="yes"/>
    <tag k="oneway:bicycle" v="no"/>
    <tag k="sidewalk" v="separate"/>
    <tag k="smoothness" v="good"/>
    <tag k="source:maxspeed" v="BMO Arrêté n o 2018 P 12837"/>
    <tag k="surface" v="asphalt"/>
    <tag k="zone:maxspeed" v="FR:30"/>
  </way>
  <way id="1061436834" version="4" timestamp="2024-05-05T12:55:33Z" changeset="150918861" uid="6290466" user="benjamintchik">
    <nd ref="9752109779"/>
    <nd ref="698058860"/>
    <tag k="cycleway" v="opposite"/>
    <tag k="highway" v="residential"/>
    <tag k="maxspeed" v="30"/>
    <tag k="name" v="Rue Charlemagne"/>
    <tag k="name:etymology:wikidata" v="Q3044"/>
    <tag k="oneway" v="yes"/>
    <tag k="oneway:bicycle" v="no"/>
    <tag k="sidewalk:both" v="separate"/>
    <tag k="surface" v="asphalt"/>
    <tag k="zone:maxspeed" v="FR:30"/>
  </way>
  <way id="1123456865" version="1" timestamp="2022-12-19T22:29:57Z" changeset="130265835" uid="7550430" user="Britzz">
    <nd ref="10258030231"/>
    <nd ref="10258030247"/>
    <nd ref="699193883"/>
    <nd ref="699193807"/>
    <nd ref="699193939"/>
    <nd ref="10274355085"/>
    <nd ref="10258030231"/>
    <tag k="building" v="apartments"/>
    <tag k="building:levels" v="5"/>
    <tag k="contact:housenumber" v="11"/>
    <tag k="contact:street" v="Rue François Miron"/>
    <tag k="description" v="Maison à colombages"/>
    <tag k="name" v="Maison à l'enseigne du Faucheur"/>
    <tag k="roof:levels" v="1"/>
    <tag k="source" v="cadastre-dgi-fr source : Direction Générale des Impôts - Cadastre. Mise à jour : 2010"/>
    <tag k="start_date" v="early C16"/>
    <tag k="tourism" v="attraction"/>
    <tag k="wikidata" v="Q28524614"/>
  </way>
  <way id="1123456866" version="1" timestamp="2022-12-19T22:29:57Z" changeset="130265835" uid="7550430" user="Britzz">
    <nd ref="10274355086"/>
    <nd ref="699193917"/>
    <nd ref="699193853"/>
    <nd ref="10258030247"/>
    <nd ref="10258030231"/>
    <nd ref="10274355081"/>
    <nd ref="10274355086"/>
    <tag k="building" v="apartments"/>
    <tag k="building:levels" v="4"/>
    <tag k="contact:housenumber" v="11"/>
    <tag k="contact:street" v="Rue François Miron"/>
    <tag k="description" v="Maison à colombages"/>
    <tag k="historic" v="building"/>
    <tag k="name" v="Maison à l'enseigne du Mouton"/>
    <tag k="roof:levels" v="1"/>
    <tag k="start_date" v="early C16"/>
    <tag k="tourism" v="attraction"/>
    <tag k="wikidata" v="Q28524644"/>
  </way>
  <way id="1174707038" version="6" timestamp="2024-05-05T12:55:53Z" changeset="150918861" uid="6290466" user="benjamintchik">
    <nd ref="704887316"/>
    <nd ref="6206647863"/>
    <nd ref="5528716480"/>
    <nd ref="26401660"/>
    <tag k="cycleway:left" v="opposite_lane"/>
    <tag k="cycleway:right" v="no"/>
    <tag k="highway" v="residential"/>
    <tag k="maxspeed" v="30"/>
    <tag k="name" v="Rue du Figuier"/>
    <tag k="name:etymology:wikidata" v="Q59798"/>
    <tag k="oneway" v="yes"/>
    <tag k="oneway:bicycle" v="no"/>
    <tag k="sidewalk:both" v="separate"/>
    <tag k="surface" v="sett"/>
    <tag k="zone:maxspeed" v="FR:30"/>
  </way>
  <way id="1286204925" version="3" timestamp="2025-05-17T20:41:29Z" changeset="166408171" uid="7550430" user="Britzz">
    <nd ref="700460729"/>
    <nd ref="2650495571"/>
    <nd ref="26401417"/>
    <tag k="highway" v="residential"/>
    <tag k="lit" v="yes"/>
    <tag k="maxspeed" v="30"/>
    <tag k="maxspeed:type" v="FR:zone30"/>
    <tag k="motor_vehicle:conditional" v="no @ (Apr-Sep Su 10:00-19:30; Oct-Mar Su 10:00-18:00)"/>
    <tag k="name" v="Rue des Archives"/>
    <tag k="name:etymology:wikidata" v="Q182542"/>
    <tag k="oneway" v="yes"/>
    <tag k="oneway:bicycle" v="no"/>
    <tag k="sidewalk:both" v="separate"/>
    <tag k="source:width" v="ARCore"/>
    <tag k="surface" v="asphalt"/>
    <tag k="width" v="7.3"/>
  </way>
  <relation id="557981" version="2" timestamp="2017-04-08T00:19:13Z" changeset="47555624" uid="996303" user="ImreSamu">
    <member type="way" ref="55626677" role="inner"/>
    <member type="way" ref="55626702" role="inner"/>
    <member type="way" ref="55626688" role="outer"/>
    <tag k="amenity" v="courthouse"/>
    <tag k="building" v="yes"/>
    <tag k="name" v="Tribunal administratif de Paris"/>
    <tag k="old_name" v="Hôtel d’Aumont"/>
    <tag k="type" v="multipolygon"/>
    <tag k="wheelchair" v="no"/>
    <tag k="wikidata" v="Q3145716"/>
  </relation>
  <relation id="558038" version="8" timestamp="2024-07-12T21:43:21Z" changeset="153873227" uid="2367488" user="VitalieS">
    <member type="way" ref="55647668" role="inner"/>
    <member type="way" ref="55647667" role="outer"/>
    <tag k="addr:city" v="Paris"/>
    <tag k="addr:housenumber" v="2"/>
    <tag k="addr:postcode" v="75004"/>
    <tag k="addr:street" v="Place Baudoyer"/>
    <tag k="building" v="yes"/>
    <tag k="building:levels" v="5"/>
    <tag k="description" v="L'Académie du Climat est un lieu pour s'informer, échanger et agir ! Des ateliers, des conférences et des débats, des projections, des expositions, des événements, un verger, une buvette, une bibliothèque… gratuits et ouverts à tous !"/>
    <tag k="internet_access" v="wlan"/>
    <tag k="internet_access:fee" v="no"/>
    <tag k="internet_access:operator" v="Mairie de Paris"/>
    <tag k="name" v="Académie du Climat"/>
    <tag k="office" v="educational_institution"/>
    <tag k="ref:structurae" v="20057120"/>
    <tag k="source:internet_access" v="Paris Open Data"/>
    <tag k="type" v="multipolygon"/>
    <tag k="website" v="https://www.academieduclimat.paris/"/>
    <tag k="wheelchair" v="limited"/>
    <tag k="wikidata" v="Q111207085"/>
    <tag k="wikipedia" v="fr:Académie du Climat"/>
  </relation>
  <relation id="570126" version="5" timestamp="2023-09-15T16:07:50Z" changeset="141309941" uid="318821" user="Yod4z">
    <member type="way" ref="55984136" role="inner"/>
    <member type="way" ref="55984124" role="inner"/>
    <member type="way" ref="55984133" role="inner"/>
    <member type="way" ref="55984142" role="outer"/>
    <tag k="amenity" v="bank"/>
    <tag k="building" v="public"/>
    <tag k="building:levels" v="4"/>
    <tag k="building:material" v="stone"/>
    <tag k="name" v="Crédit Municipal de Paris"/>
    <tag k="type" v="multipolygon"/>
    <tag k="website" v="https://www.creditmunicipal.fr/"/>
    <tag k="wikidata" v="Q3006233"/>
  </relation>
  <relation id="570449" version="5" timestamp="2023-09-15T19:02:21Z" changeset="141316337" uid="10731965" user="Hydrel">
    <member type="way" ref="56003298" role="inner"/>
    <member type="way" ref="148332568" role="outer"/>
    <tag k="building" v="office"/>
    <tag k="name" v="Hôtel d’Albret"/>
    <tag k="office" v="government"/>
    <tag k="type" v="multipolygon"/>
    <tag k="wikidata" v="Q1643168"/>
  </relation>
  <relation id="3810040" version="7" timestamp="2024-04-18T07:04:09Z" changeset="150158948" uid="7550430" user="Britzz">
    <member type="way" ref="55426528" role="inner"/>
    <member type="way" ref="55426527" role="outer"/>
    <tag k="alt_name" v="Caserne de la Garde Républicaine - Annexe Napoléon"/>
    <tag k="building" v="yes"/>
    <tag k="building:levels" v="4"/>
    <tag k="name" v="Ancienne caserne Napoléon"/>
    <tag k="roof:shape" v="quadruple_saltbox"/>
    <tag k="type" v="multipolygon"/>
  </relation>

</osm>
