<?xml version="1.0" encoding="UTF-8"?>
<osm version="0.6" generator="Overpass API 0.7.62.5 1bd436f1">
<note>The data included in this document is from www.openstreetmap.org. The data is made available under ODbL.</note>
<meta osm_base="2025-05-18T04:38:43Z" areas="2024-12-31T00:49:33Z"/>

  <node id="20995622" lat="53.4853267" lon="10.0721661" version="9" timestamp="2018-04-24T22:14:42Z" changeset="58390728" uid="617520" user="sundew"/>
  <node id="20995627" lat="53.4771908" lon="10.0777424" version="4" timestamp="2014-07-10T07:54:49Z" changeset="24058637" uid="599999" user="svbr"/>
  <node id="27235367" lat="53.4860503" lon="10.0541662" version="5" timestamp="2021-11-21T11:17:39Z" changeset="114053755" uid="1431737" user="ma-rt-in"/>
  <node id="271931475" lat="53.4739028" lon="10.0647162" version="5" timestamp="2016-06-08T13:39:29Z" changeset="39884793" uid="11238" user="fahrrad"/>
  <node id="287671238" lat="53.4754020" lon="10.0783533" version="2" timestamp="2014-07-10T07:54:49Z" changeset="24058637" uid="599999" user="svbr"/>
  <node id="506898075" lat="53.4897671" lon="10.0667540" version="3" timestamp="2015-06-07T22:42:25Z" changeset="31801674" uid="1913655" user="hotteliene"/>
  <node id="933599012" lat="53.4804801" lon="10.0757547" version="3" timestamp="2014-12-25T22:58:37Z" changeset="27698718" uid="617520" user="sundew"/>
  <node id="2209996678" lat="53.4964117" lon="10.0766008" version="1" timestamp="2013-03-19T15:09:28Z" changeset="15421084" uid="795290" user="simlox"/>
  <way id="4001194" version="24" timestamp="2021-07-03T16:51:47Z" changeset="107362002" uid="1431737" user="ma-rt-in">
    <nd ref="8890644524"/>
    <nd ref="5577341662"/>
    <nd ref="5548313322"/>
    <nd ref="506898075"/>
    <tag k="cycleway" v="no"/>
    <tag k="highway" v="tertiary"/>
    <tag k="lanes" v="2"/>
    <tag k="lit" v="yes"/>
    <tag k="maxspeed" v="50"/>
    <tag k="name" v="Ochsenwerder Landstraße"/>
    <tag k="source:maxspeed" v="DE:urban"/>
    <tag k="surface" v="asphalt"/>
  </way>
  <way id="4437272" version="23" timestamp="2024-12-29T18:17:37Z" changeset="160762809" uid="21948918" user="HansjMr">
    <nd ref="27235367"/>
    <nd ref="4231966725"/>
    <nd ref="4231966722"/>
    <nd ref="27235369"/>
    <nd ref="27235370"/>
    <nd ref="27235371"/>
    <nd ref="322587216"/>
    <nd ref="27235372"/>
    <nd ref="27235373"/>
    <nd ref="27235375"/>
    <nd ref="27235376"/>
    <nd ref="27235377"/>
    <nd ref="27235378"/>
    <nd ref="271931433"/>
    <nd ref="27235379"/>
    <nd ref="271931440"/>
    <nd ref="27235380"/>
    <nd ref="27235381"/>
    <nd ref="27235382"/>
    <nd ref="27235384"/>
    <nd ref="701425911"/>
    <nd ref="27235385"/>
    <nd ref="701425909"/>
    <nd ref="3146149490"/>
    <nd ref="27235386"/>
    <nd ref="3146149496"/>
    <nd ref="3146149501"/>
    <nd ref="27235387"/>
    <nd ref="3146149506"/>
    <nd ref="27235388"/>
    <nd ref="3146149507"/>
    <nd ref="27235389"/>
    <nd ref="27235390"/>
    <nd ref="27235391"/>
    <nd ref="3146149485"/>
    <nd ref="27235392"/>
    <nd ref="27235393"/>
    <nd ref="3146149464"/>
    <nd ref="3146149462"/>
    <nd ref="3146149460"/>
    <nd ref="27235395"/>
    <nd ref="255066668"/>
    <nd ref="27235396"/>
    <nd ref="27235397"/>
    <nd ref="3146163109"/>
    <nd ref="27235398"/>
    <nd ref="27235399"/>
    <nd ref="8889547969"/>
    <nd ref="20995643"/>
    <tag k="highway" v="unclassified"/>
    <tag k="lanes" v="2"/>
    <tag k="maxspeed" v="50"/>
    <tag k="name" v="Ruschorter Hauptdeich"/>
    <tag k="sidewalk" v="left"/>
    <tag k="sidewalk:left:bicycle" v="yes"/>
    <tag k="sidewalk:left:foot" v="designated"/>
    <tag k="sidewalk:left:oneway" v="no"/>
    <tag k="sidewalk:left:surface" v="asphalt"/>
    <tag k="sidewalk:left:traffic_sign" v="DE:239;DE:1022-10"/>
    <tag k="source:maxspeed" v="de:urban"/>
    <tag k="surface" v="asphalt"/>
  </way>
  <way id="4437274" version="25" timestamp="2024-12-29T18:17:37Z" changeset="160762809" uid="21948918" user="HansjMr">
    <nd ref="27235367"/>
    <nd ref="5577341677"/>
    <nd ref="27235368"/>
    <nd ref="322595195"/>
    <nd ref="27235401"/>
    <nd ref="27235402"/>
    <nd ref="27235403"/>
    <nd ref="8717935934"/>
    <nd ref="322595192"/>
    <nd ref="5577341308"/>
    <nd ref="27235404"/>
    <nd ref="5577341307"/>
    <nd ref="4231966728"/>
    <nd ref="271931445"/>
    <nd ref="27235405"/>
    <nd ref="27235406"/>
    <nd ref="4231966720"/>
    <nd ref="4231966723"/>
    <nd ref="27235407"/>
    <nd ref="4231966719"/>
    <nd ref="27235408"/>
    <nd ref="4231966727"/>
    <nd ref="27235409"/>
    <nd ref="271931470"/>
    <nd ref="5577341309"/>
    <nd ref="27235410"/>
    <nd ref="7045782071"/>
    <nd ref="6336551920"/>
    <nd ref="27235412"/>
    <nd ref="271931475"/>
    <nd ref="27235413"/>
    <nd ref="4231959883"/>
    <nd ref="27235414"/>
    <nd ref="4231959873"/>
    <nd ref="255367221"/>
    <nd ref="27235415"/>
    <nd ref="4231959870"/>
    <nd ref="20995633"/>
    <tag k="cycleway:right" v="track"/>
    <tag k="highway" v="tertiary"/>
    <tag k="lanes" v="2"/>
    <tag k="maxspeed" v="50"/>
    <tag k="name" v="Spadenländer Hauptdeich"/>
    <tag k="sidewalk" v="right"/>
    <tag k="sidewalk:right:bicycle" v="yes"/>
    <tag k="sidewalk:right:foot" v="designated"/>
    <tag k="sidewalk:right:oneway" v="no"/>
    <tag k="sidewalk:right:surface" v="asphalt"/>
    <tag k="sidewalk:right:traffic_sign" v="DE:239;DE:1022-10"/>
    <tag k="source:maxspeed" v="de:urban"/>
    <tag k="surface" v="asphalt"/>
  </way>
  <way id="25013936" version="8" timestamp="2021-12-28T10:08:36Z" changeset="115462123" uid="9276741" user="MaX-Lo">
    <nd ref="271931406"/>
    <nd ref="271931410"/>
    <nd ref="271931412"/>
    <nd ref="271931413"/>
    <nd ref="271931414"/>
    <nd ref="2720608433"/>
    <nd ref="2720608454"/>
    <nd ref="271931416"/>
    <nd ref="2720608495"/>
    <nd ref="2720608428"/>
    <nd ref="7241881502"/>
    <nd ref="271931417"/>
    <nd ref="271931419"/>
    <nd ref="271931420"/>
    <nd ref="271931421"/>
    <nd ref="271931423"/>
    <nd ref="271931424"/>
    <nd ref="271931425"/>
    <nd ref="271931427"/>
    <nd ref="2720608513"/>
    <nd ref="1830197220"/>
    <nd ref="271931428"/>
    <nd ref="271931430"/>
    <nd ref="271931431"/>
    <nd ref="271931433"/>
    <tag k="highway" v="residential"/>
    <tag k="name" v="In der Weide"/>
    <tag k="surface" v="asphalt"/>
  </way>
  <way id="25013938" version="6" timestamp="2021-12-28T10:08:36Z" changeset="115462123" uid="9276741" user="MaX-Lo">
    <nd ref="271931431"/>
    <nd ref="271931439"/>
    <nd ref="271931440"/>
    <tag k="highway" v="residential"/>
    <tag k="name" v="In der Weide"/>
    <tag k="surface" v="asphalt"/>
  </way>
  <way id="25013939" version="14" timestamp="2021-03-15T11:05:14Z" changeset="101045778" uid="10455633" user="tnayini">
    <nd ref="271931445"/>
    <nd ref="322595190"/>
    <nd ref="5577341318"/>
    <nd ref="271931447"/>
    <nd ref="271931448"/>
    <nd ref="5577341317"/>
    <nd ref="271931450"/>
    <nd ref="3502033053"/>
    <nd ref="271931451"/>
    <nd ref="5577341315"/>
    <nd ref="8200818468"/>
    <nd ref="5577341316"/>
    <nd ref="271931454"/>
    <nd ref="8520588136"/>
    <nd ref="5577341314"/>
    <nd ref="271931455"/>
    <nd ref="5577341313"/>
    <nd ref="271931456"/>
    <nd ref="5577341312"/>
    <nd ref="271931458"/>
    <nd ref="7181107194"/>
    <nd ref="271931459"/>
    <nd ref="7181024778"/>
    <nd ref="271931461"/>
    <nd ref="5577341311"/>
    <nd ref="271931463"/>
    <nd ref="271931464"/>
    <nd ref="7181024771"/>
    <nd ref="271931465"/>
    <nd ref="271931467"/>
    <nd ref="271931469"/>
    <nd ref="7045782073"/>
    <nd ref="5577341310"/>
    <nd ref="5577341309"/>
    <tag k="highway" v="residential"/>
    <tag k="name" v="Spadenländer Elbdeich"/>
    <tag k="surface" v="asphalt"/>
  </way>
  <way id="25013941" version="16" timestamp="2021-05-06T11:18:38Z" changeset="104247737" uid="10455639" user="srderang">
    <nd ref="271931475"/>
    <nd ref="271931476"/>
    <nd ref="271931478"/>
    <nd ref="271931479"/>
    <nd ref="8705105294"/>
    <nd ref="7092851415"/>
    <nd ref="271931481"/>
    <nd ref="8520240962"/>
    <nd ref="271931482"/>
    <nd ref="271931483"/>
    <nd ref="8186958112"/>
    <nd ref="271931485"/>
    <nd ref="271931486"/>
    <nd ref="271931488"/>
    <nd ref="271931489"/>
    <nd ref="271931490"/>
    <nd ref="271931493"/>
    <nd ref="271931494"/>
    <nd ref="271931496"/>
    <nd ref="271931497"/>
    <nd ref="271931498"/>
    <nd ref="271931500"/>
    <nd ref="8705105308"/>
    <nd ref="271931501"/>
    <nd ref="271931503"/>
    <nd ref="5261661922"/>
    <nd ref="8705105314"/>
    <nd ref="2616543750"/>
    <nd ref="8520051449"/>
    <nd ref="8520051454"/>
    <nd ref="271931504"/>
    <nd ref="8520051456"/>
    <nd ref="271931505"/>
    <nd ref="271931508"/>
    <nd ref="271931510"/>
    <nd ref="3440814919"/>
    <nd ref="3440814918"/>
    <nd ref="3440814917"/>
    <nd ref="3440814915"/>
    <tag k="highway" v="residential"/>
    <tag k="maxspeed" v="30"/>
    <tag k="name" v="Dorferbogen"/>
    <tag k="source:maxspeed" v="DE:zone:30"/>
    <tag k="surface" v="asphalt"/>
  </way>
  <way id="25906460" version="7" timestamp="2024-09-19T16:58:10Z" changeset="156830524" uid="1551542" user="frantzius2177">
    <nd ref="20995622"/>
    <nd ref="282592362"/>
    <tag k="highway" v="residential"/>
    <tag k="lit" v="yes"/>
    <tag k="name" v="Beim Bieberhof"/>
  </way>
  <way id="25906512" version="8" timestamp="2021-07-03T16:38:17Z" changeset="107361464" uid="1431737" user="ma-rt-in">
    <nd ref="20995627"/>
    <nd ref="8890618491"/>
    <nd ref="282593348"/>
    <tag k="highway" v="residential"/>
    <tag k="name" v="Schwersweg"/>
  </way>
  <way id="26264607" version="2" timestamp="2014-07-10T07:54:48Z" changeset="24058637" uid="599999" user="svbr">
    <nd ref="287671238"/>
    <nd ref="287671240"/>
    <nd ref="287671244"/>
    <nd ref="287671245"/>
    <nd ref="287671248"/>
    <nd ref="287671250"/>
    <nd ref="287671253"/>
    <nd ref="287671255"/>
    <nd ref="287671256"/>
    <tag k="highway" v="residential"/>
    <tag k="name" v="Spadenländer Weg"/>
  </way>
  <way id="29321853" version="6" timestamp="2023-06-11T18:02:37Z" changeset="137214505" uid="17921090" user="541074">
    <nd ref="322587216"/>
    <nd ref="322587224"/>
    <nd ref="8708975866"/>
    <nd ref="3915349442"/>
    <nd ref="6224927969"/>
    <nd ref="6224927968"/>
    <nd ref="322587230"/>
    <tag k="highway" v="residential"/>
    <tag k="name" v="Ruschorter Hauptdeich"/>
    <tag k="surface" v="asphalt"/>
  </way>
  <way id="29322724" version="4" timestamp="2021-05-10T09:22:20Z" changeset="104437780" uid="10170573" user="achsaw">
    <nd ref="322595190"/>
    <nd ref="5577341305"/>
    <nd ref="5577341304"/>
    <nd ref="8717935932"/>
    <nd ref="8520340284"/>
    <nd ref="5577341306"/>
    <nd ref="322595191"/>
    <nd ref="322595192"/>
    <tag k="highway" v="residential"/>
  </way>
  <way id="29322725" version="2" timestamp="2019-12-17T05:57:48Z" changeset="78507309" uid="10170573" user="achsaw">
    <nd ref="27235403"/>
    <nd ref="322595193"/>
    <nd ref="7062431639"/>
    <nd ref="322595194"/>
    <nd ref="322595195"/>
    <tag k="highway" v="residential"/>
    <tag k="name" v="Spadenländer Hauptdeich"/>
  </way>
  <way id="130795777" version="10" timestamp="2024-12-29T18:17:37Z" changeset="160762809" uid="21948918" user="HansjMr">
    <nd ref="3915349432"/>
    <nd ref="6224927970"/>
    <nd ref="9271823833"/>
    <nd ref="9271823834"/>
    <nd ref="27235367"/>
    <tag k="highway" v="tertiary"/>
    <tag k="lanes" v="2"/>
    <tag k="lit" v="yes"/>
    <tag k="maxweight" v="7.5"/>
    <tag k="maxweight:conditional" v="none @ (destination)"/>
    <tag k="name" v="Hofschläger Deich"/>
    <tag k="surface" v="asphalt"/>
    <tag k="traffic_sign" v="DE:262[7.5],1020-30"/>
  </way>
  <way id="255950048" version="3" timestamp="2024-12-01T14:42:23Z" changeset="159808791" uid="671198" user="L-Klitschi">
    <nd ref="2616544101"/>
    <nd ref="2616544103"/>
    <nd ref="2616544098"/>
    <nd ref="2616544094"/>
    <nd ref="2616544089"/>
    <nd ref="2616544086"/>
    <nd ref="2616544091"/>
    <nd ref="2616544093"/>
    <nd ref="2616544095"/>
    <nd ref="2616544097"/>
    <nd ref="2616544100"/>
    <nd ref="2616544099"/>
    <nd ref="2616544102"/>
    <nd ref="2616544104"/>
    <nd ref="2616544101"/>
    <tag k="addr:city" v="Hamburg"/>
    <tag k="addr:country" v="DE"/>
    <tag k="addr:housenumber" v="41"/>
    <tag k="addr:postcode" v="21037"/>
    <tag k="addr:street" v="Spadenländer Elbdeich"/>
    <tag k="building" v="yes"/>
  </way>
  <way id="255950058" version="5" timestamp="2021-12-30T18:51:04Z" changeset="115578534" uid="10198996" user="Minderbinder">
    <nd ref="2616544312"/>
    <nd ref="3915349435"/>
    <nd ref="3915349436"/>
    <nd ref="3915349437"/>
    <nd ref="3915349438"/>
    <nd ref="2616544313"/>
    <nd ref="3915349433"/>
    <nd ref="2616544311"/>
    <nd ref="2616544310"/>
    <nd ref="5577341678"/>
    <nd ref="2616544309"/>
    <nd ref="9271823835"/>
    <nd ref="2616544312"/>
    <tag k="addr:city" v="Hamburg"/>
    <tag k="addr:country" v="DE"/>
    <tag k="addr:housenumber" v="1"/>
    <tag k="addr:postcode" v="21037"/>
    <tag k="addr:street" v="Spadenländer Hauptdeich"/>
    <tag k="amenity" v="fire_station"/>
    <tag k="building" v="fire_station"/>
    <tag k="contact:phone" v="+49 40 42851-2966"/>
    <tag k="name" v="Freiwillige Feuerwehr Spadenland"/>
    <tag k="ref" v="F2966"/>
    <tag k="wikidata" v="Q110315824"/>
  </way>
  <way id="255950062" version="2" timestamp="2024-12-01T14:42:23Z" changeset="159808791" uid="671198" user="L-Klitschi">
    <nd ref="2616544198"/>
    <nd ref="2616544200"/>
    <nd ref="2616544197"/>
    <nd ref="2616544196"/>
    <nd ref="2616544198"/>
    <tag k="addr:city" v="Hamburg"/>
    <tag k="addr:country" v="DE"/>
    <tag k="addr:housenumber" v="1"/>
    <tag k="addr:postcode" v="21037"/>
    <tag k="addr:street" v="Spadenländer Elbdeich"/>
    <tag k="building" v="yes"/>
  </way>
  <way id="255950063" version="1" timestamp="2014-01-09T20:12:06Z" changeset="19906836" uid="599999" user="svbr">
    <nd ref="2616544007"/>
    <nd ref="2616544008"/>
    <nd ref="2616544006"/>
    <nd ref="2616544005"/>
    <nd ref="2616544007"/>
    <tag k="addr:city" v="Hamburg"/>
    <tag k="addr:housenumber" v="103"/>
    <tag k="addr:postcode" v="21037"/>
    <tag k="addr:street" v="Spadenländer Hauptdeich"/>
    <tag k="building" v="yes"/>
  </way>
  <way id="255950066" version="2" timestamp="2024-12-01T14:42:23Z" changeset="159808791" uid="671198" user="L-Klitschi">
    <nd ref="2616544179"/>
    <nd ref="2616544183"/>
    <nd ref="2616544180"/>
    <nd ref="2616544178"/>
    <nd ref="2616544179"/>
    <tag k="addr:city" v="Hamburg"/>
    <tag k="addr:country" v="DE"/>
    <tag k="addr:housenumber" v="11"/>
    <tag k="addr:postcode" v="21037"/>
    <tag k="addr:street" v="Spadenländer Elbdeich"/>
    <tag k="building" v="yes"/>
  </way>
  <way id="255950070" version="1" timestamp="2014-01-09T20:12:07Z" changeset="19906836" uid="599999" user="svbr">
    <nd ref="2616543991"/>
    <nd ref="2616544000"/>
    <nd ref="2616543999"/>
    <nd ref="2616543997"/>
    <nd ref="2616543998"/>
    <nd ref="2616543996"/>
    <nd ref="2616543995"/>
    <nd ref="2616543993"/>
    <nd ref="2616543994"/>
    <nd ref="2616543992"/>
    <nd ref="2616543990"/>
    <nd ref="2616543989"/>
    <nd ref="2616543991"/>
    <tag k="addr:city" v="Hamburg"/>
    <tag k="addr:housenumber" v="117"/>
    <tag k="addr:postcode" v="21037"/>
    <tag k="addr:street" v="Spadenländer Hauptdeich"/>
    <tag k="building" v="yes"/>
  </way>
  <way id="255950075" version="1" timestamp="2014-01-09T20:12:07Z" changeset="19906836" uid="599999" user="svbr">
    <nd ref="2616544287"/>
    <nd ref="2616544288"/>
    <nd ref="2616544286"/>
    <nd ref="2616544285"/>
    <nd ref="2616544287"/>
    <tag k="addr:city" v="Hamburg"/>
    <tag k="addr:housenumber" v="13"/>
    <tag k="addr:postcode" v="21037"/>
    <tag k="addr:street" v="Spadenländer Hauptdeich"/>
    <tag k="building" v="yes"/>
  </way>
  <way id="255950077" version="2" timestamp="2021-11-24T10:54:13Z" changeset="114176880" uid="10198996" user="Minderbinder">
    <nd ref="2616544316"/>
    <nd ref="2616544317"/>
    <nd ref="2616544315"/>
    <nd ref="2616544314"/>
    <nd ref="2616544316"/>
    <tag k="addr:city" v="Hamburg"/>
    <tag k="addr:housenumber" v="14"/>
    <tag k="addr:postcode" v="21037"/>
    <tag k="addr:street" v="Ruschorter Hauptdeich"/>
    <tag k="building" v="yes"/>
    <tag k="wikidata" v="Q109707540"/>
  </way>
  <way id="255950079" version="2" timestamp="2024-12-01T14:42:23Z" changeset="159808791" uid="671198" user="L-Klitschi">
    <nd ref="2616544174"/>
    <nd ref="2616544175"/>
    <nd ref="2616544177"/>
    <nd ref="2616544173"/>
    <nd ref="2616544176"/>
    <nd ref="2616544172"/>
    <nd ref="2616544170"/>
    <nd ref="2616544171"/>
    <nd ref="2616544165"/>
    <nd ref="2616544169"/>
    <nd ref="2616544174"/>
    <tag k="addr:city" v="Hamburg"/>
    <tag k="addr:country" v="DE"/>
    <tag k="addr:housenumber" v="15"/>
    <tag k="addr:postcode" v="21037"/>
    <tag k="addr:street" v="Spadenländer Elbdeich"/>
    <tag k="building" v="yes"/>
  </way>
  <way id="255950080" version="1" timestamp="2014-01-09T20:12:08Z" changeset="19906836" uid="599999" user="svbr">
    <nd ref="2616544283"/>
    <nd ref="2616544284"/>
    <nd ref="2616544282"/>
    <nd ref="2616544281"/>
    <nd ref="2616544283"/>
    <tag k="addr:city" v="Hamburg"/>
    <tag k="addr:housenumber" v="15"/>
    <tag k="addr:postcode" v="21037"/>
    <tag k="addr:street" v="Spadenländer Hauptdeich"/>
    <tag k="building" v="yes"/>
  </way>
  <way id="255950082" version="1" timestamp="2014-01-09T20:12:08Z" changeset="19906836" uid="599999" user="svbr">
    <nd ref="2616544324"/>
    <nd ref="2616544325"/>
    <nd ref="2616544322"/>
    <nd ref="2616544323"/>
    <nd ref="2616544321"/>
    <nd ref="2616544320"/>
    <nd ref="2616544319"/>
    <nd ref="2616544318"/>
    <nd ref="2616544324"/>
    <tag k="addr:city" v="Hamburg"/>
    <tag k="addr:housenumber" v="16"/>
    <tag k="addr:postcode" v="21037"/>
    <tag k="addr:street" v="Ruschorter Hauptdeich"/>
    <tag k="building" v="yes"/>
  </way>
  <way id="255950084" version="2" timestamp="2024-12-01T14:42:23Z" changeset="159808791" uid="671198" user="L-Klitschi">
    <nd ref="2616544166"/>
    <nd ref="2616544167"/>
    <nd ref="2616544164"/>
    <nd ref="2616544163"/>
    <nd ref="2616544166"/>
    <tag k="addr:city" v="Hamburg"/>
    <tag k="addr:country" v="DE"/>
    <tag k="addr:housenumber" v="17"/>
    <tag k="addr:postcode" v="21037"/>
    <tag k="addr:street" v="Spadenländer Elbdeich"/>
    <tag k="building" v="yes"/>
  </way>
  <way id="255950086" version="2" timestamp="2024-12-01T14:42:23Z" changeset="159808791" uid="671198" user="L-Klitschi">
    <nd ref="2616544160"/>
    <nd ref="2616544162"/>
    <nd ref="2616544161"/>
    <nd ref="2616544158"/>
    <nd ref="2616544160"/>
    <tag k="addr:city" v="Hamburg"/>
    <tag k="addr:country" v="DE"/>
    <tag k="addr:housenumber" v="19"/>
    <tag k="addr:postcode" v="21037"/>
    <tag k="addr:street" v="Spadenländer Elbdeich"/>
    <tag k="building" v="yes"/>
  </way>
  <way id="255950087" version="2" timestamp="2024-12-01T14:42:23Z" changeset="159808791" uid="671198" user="L-Klitschi">
    <nd ref="2616544274"/>
    <nd ref="2616544280"/>
    <nd ref="2616544279"/>
    <nd ref="2616544277"/>
    <nd ref="2616544278"/>
    <nd ref="2616544276"/>
    <nd ref="2616544275"/>
    <nd ref="2616544273"/>
    <nd ref="2616544274"/>
    <tag k="addr:city" v="Hamburg"/>
    <tag k="addr:country" v="DE"/>
    <tag k="addr:housenumber" v="19"/>
    <tag k="addr:postcode" v="21037"/>
    <tag k="addr:street" v="Spadenländer Hauptdeich"/>
    <tag k="building" v="yes"/>
  </way>
  <way id="255950090" version="2" timestamp="2024-12-01T14:42:23Z" changeset="159808791" uid="671198" user="L-Klitschi">
    <nd ref="2616544155"/>
    <nd ref="2616544159"/>
    <nd ref="2616544157"/>
    <nd ref="2616544153"/>
    <nd ref="2616544155"/>
    <tag k="addr:city" v="Hamburg"/>
    <tag k="addr:country" v="DE"/>
    <tag k="addr:housenumber" v="21"/>
    <tag k="addr:postcode" v="21037"/>
    <tag k="addr:street" v="Spadenländer Elbdeich"/>
    <tag k="building" v="yes"/>
  </way>
  <way id="255950091" version="1" timestamp="2014-01-09T20:12:09Z" changeset="19906836" uid="599999" user="svbr">
    <nd ref="2616544327"/>
    <nd ref="2616544326"/>
    <nd ref="2616544328"/>
    <nd ref="2616544329"/>
    <nd ref="2616544330"/>
    <nd ref="2616544331"/>
    <nd ref="2616544327"/>
    <tag k="addr:city" v="Hamburg"/>
    <tag k="addr:housenumber" v="22"/>
    <tag k="addr:postcode" v="21037"/>
    <tag k="addr:street" v="Ruschorter Hauptdeich"/>
    <tag k="building" v="yes"/>
  </way>
  <way id="255950094" version="2" timestamp="2024-12-01T14:42:23Z" changeset="159808791" uid="671198" user="L-Klitschi">
    <nd ref="2616544149"/>
    <nd ref="2616544144"/>
    <nd ref="2616544147"/>
    <nd ref="2616544150"/>
    <nd ref="2616544152"/>
    <nd ref="2616544151"/>
    <nd ref="2616544154"/>
    <nd ref="2616544156"/>
    <nd ref="2616544149"/>
    <tag k="addr:city" v="Hamburg"/>
    <tag k="addr:country" v="DE"/>
    <tag k="addr:housenumber" v="23"/>
    <tag k="addr:postcode" v="21037"/>
    <tag k="addr:street" v="Spadenländer Elbdeich"/>
    <tag k="building" v="yes"/>
  </way>
  <way id="255950096" version="2" timestamp="2024-12-01T14:42:23Z" changeset="159808791" uid="671198" user="L-Klitschi">
    <nd ref="2616544262"/>
    <nd ref="2616544260"/>
    <nd ref="2616544258"/>
    <nd ref="2616544259"/>
    <nd ref="2616544261"/>
    <nd ref="2616544262"/>
    <tag k="addr:city" v="Hamburg"/>
    <tag k="addr:country" v="DE"/>
    <tag k="addr:housenumber" v="23"/>
    <tag k="addr:postcode" v="21037"/>
    <tag k="addr:street" v="Spadenländer Hauptdeich"/>
    <tag k="building" v="yes"/>
  </way>
  <way id="255950099" version="2" timestamp="2024-12-01T14:42:23Z" changeset="159808791" uid="671198" user="L-Klitschi">
    <nd ref="2616544261"/>
    <nd ref="2616544264"/>
    <nd ref="2616544263"/>
    <nd ref="2616544265"/>
    <nd ref="2616544267"/>
    <nd ref="2616544268"/>
    <nd ref="2616544269"/>
    <nd ref="2616544271"/>
    <nd ref="2616544270"/>
    <nd ref="2616544272"/>
    <nd ref="2616544266"/>
    <nd ref="2616544262"/>
    <nd ref="2616544261"/>
    <tag k="addr:city" v="Hamburg"/>
    <tag k="addr:country" v="DE"/>
    <tag k="addr:housenumber" v="23a"/>
    <tag k="addr:postcode" v="21037"/>
    <tag k="addr:street" v="Spadenländer Hauptdeich"/>
    <tag k="building" v="yes"/>
  </way>
  <way id="255950105" version="2" timestamp="2024-12-01T14:42:23Z" changeset="159808791" uid="671198" user="L-Klitschi">
    <nd ref="2616544146"/>
    <nd ref="2616544148"/>
    <nd ref="2616544145"/>
    <nd ref="2616544143"/>
    <nd ref="2616544146"/>
    <tag k="addr:city" v="Hamburg"/>
    <tag k="addr:country" v="DE"/>
    <tag k="addr:housenumber" v="25"/>
    <tag k="addr:postcode" v="21037"/>
    <tag k="addr:street" v="Spadenländer Elbdeich"/>
    <tag k="building" v="yes"/>
  </way>
  <way id="255950111" version="2" timestamp="2024-12-01T14:42:23Z" changeset="159808791" uid="671198" user="L-Klitschi">
    <nd ref="2616544142"/>
    <nd ref="2616544141"/>
    <nd ref="2616544139"/>
    <nd ref="2616544137"/>
    <nd ref="2616544136"/>
    <nd ref="2616544138"/>
    <nd ref="2616544135"/>
    <nd ref="2616544140"/>
    <nd ref="2616544142"/>
    <tag k="addr:city" v="Hamburg"/>
    <tag k="addr:country" v="DE"/>
    <tag k="addr:housenumber" v="27"/>
    <tag k="addr:postcode" v="21037"/>
    <tag k="addr:street" v="Spadenländer Elbdeich"/>
    <tag k="building" v="yes"/>
  </way>
  <way id="255950115" version="2" timestamp="2024-12-01T14:42:23Z" changeset="159808791" uid="671198" user="L-Klitschi">
    <nd ref="2616544255"/>
    <nd ref="2616544257"/>
    <nd ref="2616544256"/>
    <nd ref="2616544254"/>
    <nd ref="2616544253"/>
    <nd ref="2616544252"/>
    <nd ref="2616544255"/>
    <tag k="addr:city" v="Hamburg"/>
    <tag k="addr:country" v="DE"/>
    <tag k="addr:housenumber" v="27"/>
    <tag k="addr:postcode" v="21037"/>
    <tag k="addr:street" v="Spadenländer Hauptdeich"/>
    <tag k="building" v="yes"/>
  </way>
  <way id="255950122" version="2" timestamp="2024-12-01T14:42:23Z" changeset="159808791" uid="671198" user="L-Klitschi">
    <nd ref="2616544191"/>
    <nd ref="2616544195"/>
    <nd ref="2616544194"/>
    <nd ref="2616544189"/>
    <nd ref="2616544191"/>
    <tag k="addr:city" v="Hamburg"/>
    <tag k="addr:country" v="DE"/>
    <tag k="addr:housenumber" v="3"/>
    <tag k="addr:postcode" v="21037"/>
    <tag k="addr:street" v="Spadenländer Elbdeich"/>
    <tag k="building" v="yes"/>
  </way>
  <way id="255950123" version="1" timestamp="2014-01-09T20:12:12Z" changeset="19906836" uid="599999" user="svbr">
    <nd ref="2616544303"/>
    <nd ref="2616544305"/>
    <nd ref="2616544307"/>
    <nd ref="2616544308"/>
    <nd ref="2616544306"/>
    <nd ref="2616544304"/>
    <nd ref="2616544302"/>
    <nd ref="2616544301"/>
    <nd ref="2616544303"/>
    <tag k="addr:city" v="Hamburg"/>
    <tag k="addr:housenumber" v="3"/>
    <tag k="addr:postcode" v="21037"/>
    <tag k="addr:street" v="Spadenländer Hauptdeich"/>
    <tag k="building" v="yes"/>
  </way>
  <way id="255950124" version="2" timestamp="2024-12-01T14:42:23Z" changeset="159808791" uid="671198" user="L-Klitschi">
    <nd ref="2616544133"/>
    <nd ref="2616544134"/>
    <nd ref="2616544128"/>
    <nd ref="2616544127"/>
    <nd ref="2616544123"/>
    <nd ref="2616544121"/>
    <nd ref="2616544126"/>
    <nd ref="2616544125"/>
    <nd ref="2616544130"/>
    <nd ref="2616544129"/>
    <nd ref="2616544131"/>
    <nd ref="2616544132"/>
    <nd ref="2616544133"/>
    <tag k="addr:city" v="Hamburg"/>
    <tag k="addr:country" v="DE"/>
    <tag k="addr:housenumber" v="30"/>
    <tag k="addr:postcode" v="21037"/>
    <tag k="addr:street" v="Spadenländer Elbdeich"/>
    <tag k="building" v="yes"/>
  </way>
  <way id="255950126" version="2" timestamp="2024-12-01T14:42:23Z" changeset="159808791" uid="671198" user="L-Klitschi">
    <nd ref="2616544120"/>
    <nd ref="2616544122"/>
    <nd ref="2616544124"/>
    <nd ref="2616544115"/>
    <nd ref="2616544116"/>
    <nd ref="2616544113"/>
    <nd ref="2616544112"/>
    <nd ref="2616544117"/>
    <nd ref="2616544118"/>
    <nd ref="2616544119"/>
    <nd ref="2616544120"/>
    <tag k="addr:city" v="Hamburg"/>
    <tag k="addr:country" v="DE"/>
    <tag k="addr:housenumber" v="31"/>
    <tag k="addr:postcode" v="21037"/>
    <tag k="addr:street" v="Spadenländer Elbdeich"/>
    <tag k="building" v="yes"/>
  </way>
  <way id="255950127" version="2" timestamp="2024-12-01T14:42:23Z" changeset="159808791" uid="671198" user="L-Klitschi">
    <nd ref="2616544246"/>
    <nd ref="2616544247"/>
    <nd ref="2616544248"/>
    <nd ref="2616544250"/>
    <nd ref="2616544249"/>
    <nd ref="2616544251"/>
    <nd ref="2616544245"/>
    <nd ref="2616544243"/>
    <nd ref="2616544241"/>
    <nd ref="2616544237"/>
    <nd ref="2616544242"/>
    <nd ref="2616544238"/>
    <nd ref="2616544246"/>
    <tag k="addr:city" v="Hamburg"/>
    <tag k="addr:country" v="DE"/>
    <tag k="addr:housenumber" v="31"/>
    <tag k="addr:postcode" v="21037"/>
    <tag k="addr:street" v="Spadenländer Hauptdeich"/>
    <tag k="building" v="yes"/>
  </way>
  <way id="255950130" version="2" timestamp="2024-12-01T14:42:23Z" changeset="159808791" uid="671198" user="L-Klitschi">
    <nd ref="2616544110"/>
    <nd ref="2616544114"/>
    <nd ref="2616544111"/>
    <nd ref="2616544109"/>
    <nd ref="2616544110"/>
    <tag k="addr:city" v="Hamburg"/>
    <tag k="addr:country" v="DE"/>
    <tag k="addr:housenumber" v="33"/>
    <tag k="addr:postcode" v="21037"/>
    <tag k="addr:street" v="Spadenländer Elbdeich"/>
    <tag k="building" v="yes"/>
  </way>
  <way id="255950131" version="2" timestamp="2024-12-01T14:42:23Z" changeset="159808791" uid="671198" user="L-Klitschi">
    <nd ref="2616544233"/>
    <nd ref="2616544239"/>
    <nd ref="2616544236"/>
    <nd ref="2616544244"/>
    <nd ref="2616544240"/>
    <nd ref="2616544234"/>
    <nd ref="2616544235"/>
    <nd ref="2616544232"/>
    <nd ref="2616544233"/>
    <tag k="addr:city" v="Hamburg"/>
    <tag k="addr:country" v="DE"/>
    <tag k="addr:housenumber" v="33"/>
    <tag k="addr:postcode" v="21037"/>
    <tag k="addr:street" v="Spadenländer Hauptdeich"/>
    <tag k="building" v="yes"/>
  </way>
  <way id="255950133" version="2" timestamp="2024-12-01T14:42:23Z" changeset="159808791" uid="671198" user="L-Klitschi">
    <nd ref="2616544229"/>
    <nd ref="2616544231"/>
    <nd ref="2616544230"/>
    <nd ref="2616544228"/>
    <nd ref="2616544229"/>
    <tag k="addr:city" v="Hamburg"/>
    <tag k="addr:country" v="DE"/>
    <tag k="addr:housenumber" v="35"/>
    <tag k="addr:postcode" v="21037"/>
    <tag k="addr:street" v="Spadenländer Hauptdeich"/>
    <tag k="building" v="yes"/>
  </way>
  <way id="255950136" version="1" timestamp="2014-01-09T20:12:13Z" changeset="19906836" uid="599999" user="svbr">
    <nd ref="2616544225"/>
    <nd ref="2616544222"/>
    <nd ref="2616544224"/>
    <nd ref="2616544227"/>
    <nd ref="2616544225"/>
    <tag k="addr:city" v="Hamburg"/>
    <tag k="addr:housenumber" v="37"/>
    <tag k="addr:postcode" v="21037"/>
    <tag k="addr:street" v="Spadenländer Hauptdeich"/>
    <tag k="building" v="yes"/>
  </way>
  <way id="255950145" version="2" timestamp="2024-12-01T14:42:23Z" changeset="159808791" uid="671198" user="L-Klitschi">
    <nd ref="2616544107"/>
    <nd ref="2616544108"/>
    <nd ref="2616544106"/>
    <nd ref="2616544105"/>
    <nd ref="2616544107"/>
    <tag k="addr:city" v="Hamburg"/>
    <tag k="addr:country" v="DE"/>
    <tag k="addr:housenumber" v="39"/>
    <tag k="addr:postcode" v="21037"/>
    <tag k="addr:street" v="Spadenländer Elbdeich"/>
    <tag k="building" v="yes"/>
  </way>
  <way id="255950148" version="2" timestamp="2024-12-01T14:42:23Z" changeset="159808791" uid="671198" user="L-Klitschi">
    <nd ref="2616544219"/>
    <nd ref="2616544226"/>
    <nd ref="2616544223"/>
    <nd ref="2616544221"/>
    <nd ref="2616544220"/>
    <nd ref="2616544218"/>
    <nd ref="2616544219"/>
    <tag k="addr:city" v="Hamburg"/>
    <tag k="addr:country" v="DE"/>
    <tag k="addr:housenumber" v="39"/>
    <tag k="addr:postcode" v="21037"/>
    <tag k="addr:street" v="Spadenländer Hauptdeich"/>
    <tag k="building" v="yes"/>
  </way>
  <way id="255950154" version="2" timestamp="2024-12-01T14:42:23Z" changeset="159808791" uid="671198" user="L-Klitschi">
    <nd ref="2616544081"/>
    <nd ref="2616544070"/>
    <nd ref="2616544069"/>
    <nd ref="2616544058"/>
    <nd ref="2616544055"/>
    <nd ref="2616544050"/>
    <nd ref="2616544049"/>
    <nd ref="2616544075"/>
    <nd ref="2616544081"/>
    <tag k="addr:city" v="Hamburg"/>
    <tag k="addr:country" v="DE"/>
    <tag k="addr:housenumber" v="40"/>
    <tag k="addr:postcode" v="21037"/>
    <tag k="addr:street" v="Spadenländer Elbdeich"/>
    <tag k="building" v="yes"/>
  </way>
  <way id="255950158" version="1" timestamp="2014-01-09T20:12:15Z" changeset="19906836" uid="599999" user="svbr">
    <nd ref="2616544090"/>
    <nd ref="2616544087"/>
    <nd ref="2616544092"/>
    <nd ref="2616544096"/>
    <nd ref="2616544090"/>
    <tag k="addr:city" v="Hamburg"/>
    <tag k="addr:housenumber" v="41a"/>
    <tag k="addr:postcode" v="21037"/>
    <tag k="addr:street" v="Spadenländer Elbdeich"/>
    <tag k="building" v="yes"/>
  </way>
  <way id="255950161" version="1" timestamp="2014-01-09T20:12:15Z" changeset="19906836" uid="599999" user="svbr">
    <nd ref="2616544082"/>
    <nd ref="2616544080"/>
    <nd ref="2616544076"/>
    <nd ref="2616544084"/>
    <nd ref="2616544088"/>
    <nd ref="2616544082"/>
    <tag k="addr:city" v="Hamburg"/>
    <tag k="addr:housenumber" v="41b"/>
    <tag k="addr:postcode" v="21037"/>
    <tag k="addr:street" v="Spadenländer Elbdeich"/>
    <tag k="building" v="yes"/>
  </way>
  <way id="255950170" version="2" timestamp="2024-12-01T14:42:23Z" changeset="159808791" uid="671198" user="L-Klitschi">
    <nd ref="2616544065"/>
    <nd ref="2616544068"/>
    <nd ref="2616544071"/>
    <nd ref="2616544072"/>
    <nd ref="2616544067"/>
    <nd ref="2616544066"/>
    <nd ref="2616544064"/>
    <nd ref="2616544063"/>
    <nd ref="2616544061"/>
    <nd ref="2616544062"/>
    <nd ref="2616544059"/>
    <nd ref="2616544060"/>
    <nd ref="2616544057"/>
    <nd ref="2616544056"/>
    <nd ref="2616544052"/>
    <nd ref="2616544051"/>
    <nd ref="2616544054"/>
    <nd ref="2616544053"/>
    <nd ref="2616544065"/>
    <tag k="addr:city" v="Hamburg"/>
    <tag k="addr:country" v="DE"/>
    <tag k="addr:housenumber" v="43"/>
    <tag k="addr:postcode" v="21037"/>
    <tag k="addr:street" v="Spadenländer Elbdeich"/>
    <tag k="building" v="yes"/>
  </way>
  <way id="255950173" version="2" timestamp="2024-12-01T14:42:23Z" changeset="159808791" uid="671198" user="L-Klitschi">
    <nd ref="2616544209"/>
    <nd ref="2616544210"/>
    <nd ref="2616544212"/>
    <nd ref="2616544217"/>
    <nd ref="2616544215"/>
    <nd ref="2616544211"/>
    <nd ref="2616544216"/>
    <nd ref="2616544214"/>
    <nd ref="2616544213"/>
    <nd ref="2616544208"/>
    <nd ref="2616544209"/>
    <tag k="addr:city" v="Hamburg"/>
    <tag k="addr:country" v="DE"/>
    <tag k="addr:housenumber" v="43"/>
    <tag k="addr:postcode" v="21037"/>
    <tag k="addr:street" v="Spadenländer Hauptdeich"/>
    <tag k="building" v="yes"/>
  </way>
  <way id="255950181" version="2" timestamp="2024-12-01T14:42:23Z" changeset="159808791" uid="671198" user="L-Klitschi">
    <nd ref="2616544044"/>
    <nd ref="2616544048"/>
    <nd ref="2616544045"/>
    <nd ref="2616544047"/>
    <nd ref="2616544046"/>
    <nd ref="2616544043"/>
    <nd ref="2616544044"/>
    <tag k="addr:city" v="Hamburg"/>
    <tag k="addr:country" v="DE"/>
    <tag k="addr:housenumber" v="47"/>
    <tag k="addr:postcode" v="21037"/>
    <tag k="addr:street" v="Spadenländer Elbdeich"/>
    <tag k="building" v="yes"/>
  </way>
  <way id="255950182" version="1" timestamp="2014-01-09T20:12:16Z" changeset="19906836" uid="599999" user="svbr">
    <nd ref="2616543914"/>
    <nd ref="2616543909"/>
    <nd ref="2616543903"/>
    <nd ref="2616543904"/>
    <nd ref="2616543906"/>
    <nd ref="2616543905"/>
    <nd ref="2616543907"/>
    <nd ref="2616543911"/>
    <nd ref="2616543914"/>
    <tag k="addr:city" v="Hamburg"/>
    <tag k="addr:housenumber" v="49"/>
    <tag k="addr:postcode" v="21037"/>
    <tag k="addr:street" v="Dorferbogen"/>
    <tag k="building" v="yes"/>
  </way>
  <way id="255950183" version="2" timestamp="2024-12-01T14:42:23Z" changeset="159808791" uid="671198" user="L-Klitschi">
    <nd ref="2616544038"/>
    <nd ref="2616544041"/>
    <nd ref="2616544040"/>
    <nd ref="2616544042"/>
    <nd ref="2616544039"/>
    <nd ref="2616544037"/>
    <nd ref="2616544036"/>
    <nd ref="2616544035"/>
    <nd ref="2616544038"/>
    <tag k="addr:city" v="Hamburg"/>
    <tag k="addr:country" v="DE"/>
    <tag k="addr:housenumber" v="49"/>
    <tag k="addr:postcode" v="21037"/>
    <tag k="addr:street" v="Spadenländer Elbdeich"/>
    <tag k="building" v="yes"/>
  </way>
  <way id="255950184" version="2" timestamp="2024-12-01T14:42:23Z" changeset="159808791" uid="671198" user="L-Klitschi">
    <nd ref="2616544202"/>
    <nd ref="2616544199"/>
    <nd ref="2616544201"/>
    <nd ref="2616544203"/>
    <nd ref="2616544204"/>
    <nd ref="2616544207"/>
    <nd ref="2616544206"/>
    <nd ref="2616544205"/>
    <nd ref="2616544202"/>
    <tag k="addr:city" v="Hamburg"/>
    <tag k="addr:country" v="DE"/>
    <tag k="addr:housenumber" v="49"/>
    <tag k="addr:postcode" v="21037"/>
    <tag k="addr:street" v="Spadenländer Hauptdeich"/>
    <tag k="building" v="yes"/>
  </way>
  <way id="255950187" version="2" timestamp="2024-12-01T14:42:23Z" changeset="159808791" uid="671198" user="L-Klitschi">
    <nd ref="2616544190"/>
    <nd ref="2616544186"/>
    <nd ref="2616544192"/>
    <nd ref="2616544193"/>
    <nd ref="2616544190"/>
    <tag k="addr:city" v="Hamburg"/>
    <tag k="addr:country" v="DE"/>
    <tag k="addr:housenumber" v="5"/>
    <tag k="addr:postcode" v="21037"/>
    <tag k="addr:street" v="Spadenländer Elbdeich"/>
    <tag k="building" v="yes"/>
  </way>
  <way id="255950188" version="1" timestamp="2014-01-09T20:12:17Z" changeset="19906836" uid="599999" user="svbr">
    <nd ref="2616544299"/>
    <nd ref="2616544300"/>
    <nd ref="2616544298"/>
    <nd ref="2616544297"/>
    <nd ref="2616544299"/>
    <tag k="addr:city" v="Hamburg"/>
    <tag k="addr:housenumber" v="5"/>
    <tag k="addr:postcode" v="21037"/>
    <tag k="addr:street" v="Spadenländer Hauptdeich"/>
    <tag k="building" v="yes"/>
  </way>
  <way id="255950189" version="1" timestamp="2014-01-09T20:12:17Z" changeset="19906836" uid="599999" user="svbr">
    <nd ref="2616543918"/>
    <nd ref="2616543915"/>
    <nd ref="2616543912"/>
    <nd ref="2616543913"/>
    <nd ref="2616543908"/>
    <nd ref="2616543910"/>
    <nd ref="2616543916"/>
    <nd ref="2616543917"/>
    <nd ref="2616543918"/>
    <tag k="addr:city" v="Hamburg"/>
    <tag k="addr:housenumber" v="51"/>
    <tag k="addr:postcode" v="21037"/>
    <tag k="addr:street" v="Dorferbogen"/>
    <tag k="building" v="yes"/>
  </way>
  <way id="255950190" version="1" timestamp="2014-01-09T20:12:17Z" changeset="19906836" uid="599999" user="svbr">
    <nd ref="2616544033"/>
    <nd ref="2616544034"/>
    <nd ref="2616544031"/>
    <nd ref="2616544032"/>
    <nd ref="2616544029"/>
    <nd ref="2616544030"/>
    <nd ref="2616544027"/>
    <nd ref="2616544028"/>
    <nd ref="2616544033"/>
    <tag k="addr:city" v="Hamburg"/>
    <tag k="addr:housenumber" v="51"/>
    <tag k="addr:postcode" v="21037"/>
    <tag k="addr:street" v="Spadenländer Elbdeich"/>
    <tag k="building" v="yes"/>
  </way>
  <way id="255950191" version="1" timestamp="2014-01-09T20:12:17Z" changeset="19906836" uid="599999" user="svbr">
    <nd ref="2616544011"/>
    <nd ref="2616544013"/>
    <nd ref="2616544010"/>
    <nd ref="2616544009"/>
    <nd ref="2616544011"/>
    <tag k="addr:city" v="Hamburg"/>
    <tag k="addr:housenumber" v="53"/>
    <tag k="addr:postcode" v="21037"/>
    <tag k="addr:street" v="Spadenländer Elbdeich"/>
    <tag k="building" v="yes"/>
  </way>
  <way id="255950192" version="1" timestamp="2014-01-09T20:12:17Z" changeset="19906836" uid="599999" user="svbr">
    <nd ref="2616544023"/>
    <nd ref="2616544026"/>
    <nd ref="2616544024"/>
    <nd ref="2616544019"/>
    <nd ref="2616544023"/>
    <tag k="addr:city" v="Hamburg"/>
    <tag k="addr:housenumber" v="53a"/>
    <tag k="addr:postcode" v="21037"/>
    <tag k="addr:street" v="Spadenländer Elbdeich"/>
    <tag k="building" v="yes"/>
  </way>
  <way id="255950193" version="1" timestamp="2014-01-09T20:12:17Z" changeset="19906836" uid="599999" user="svbr">
    <nd ref="2616544015"/>
    <nd ref="2616544017"/>
    <nd ref="2616544014"/>
    <nd ref="2616544012"/>
    <nd ref="2616544015"/>
    <tag k="addr:city" v="Hamburg"/>
    <tag k="addr:housenumber" v="53b"/>
    <tag k="addr:postcode" v="21037"/>
    <tag k="addr:street" v="Spadenländer Elbdeich"/>
    <tag k="building" v="yes"/>
  </way>
  <way id="255950194" version="1" timestamp="2014-01-09T20:12:17Z" changeset="19906836" uid="599999" user="svbr">
    <nd ref="2616544018"/>
    <nd ref="2616544022"/>
    <nd ref="2616544021"/>
    <nd ref="2616544025"/>
    <nd ref="2616544020"/>
    <nd ref="2616544016"/>
    <nd ref="2616544018"/>
    <tag k="addr:city" v="Hamburg"/>
    <tag k="addr:housenumber" v="53c"/>
    <tag k="addr:postcode" v="21037"/>
    <tag k="addr:street" v="Spadenländer Elbdeich"/>
    <tag k="building" v="yes"/>
  </way>
  <way id="255950195" version="1" timestamp="2014-01-09T20:12:18Z" changeset="19906836" uid="599999" user="svbr">
    <nd ref="2616543922"/>
    <nd ref="2616543920"/>
    <nd ref="2616543919"/>
    <nd ref="2616543921"/>
    <nd ref="2616543924"/>
    <nd ref="2616543922"/>
    <tag k="addr:city" v="Hamburg"/>
    <tag k="addr:housenumber" v="54"/>
    <tag k="addr:postcode" v="21037"/>
    <tag k="addr:street" v="Dorferbogen"/>
    <tag k="building" v="yes"/>
  </way>
  <way id="255950196" version="1" timestamp="2014-01-09T20:12:18Z" changeset="19906836" uid="599999" user="svbr">
    <nd ref="2616543929"/>
    <nd ref="2616543932"/>
    <nd ref="2616543931"/>
    <nd ref="2616543928"/>
    <nd ref="2616543925"/>
    <nd ref="2616543923"/>
    <nd ref="2616543929"/>
    <tag k="addr:city" v="Hamburg"/>
    <tag k="addr:housenumber" v="56"/>
    <tag k="addr:postcode" v="21037"/>
    <tag k="addr:street" v="Dorferbogen"/>
    <tag k="building" v="yes"/>
  </way>
  <way id="255950197" version="1" timestamp="2014-01-09T20:12:18Z" changeset="19906836" uid="599999" user="svbr">
    <nd ref="2616543935"/>
    <nd ref="2616543936"/>
    <nd ref="2616543934"/>
    <nd ref="2616543933"/>
    <nd ref="2616543935"/>
    <tag k="addr:city" v="Hamburg"/>
    <tag k="addr:housenumber" v="60"/>
    <tag k="addr:postcode" v="21037"/>
    <tag k="addr:street" v="Dorferbogen"/>
    <tag k="building" v="yes"/>
  </way>
  <way id="255950198" version="1" timestamp="2014-01-09T20:12:18Z" changeset="19906836" uid="599999" user="svbr">
    <nd ref="2616543938"/>
    <nd ref="2616543940"/>
    <nd ref="2616543939"/>
    <nd ref="2616543937"/>
    <nd ref="2616543938"/>
    <tag k="addr:city" v="Hamburg"/>
    <tag k="addr:housenumber" v="62"/>
    <tag k="addr:postcode" v="21037"/>
    <tag k="addr:street" v="Dorferbogen"/>
    <tag k="building" v="yes"/>
  </way>
  <way id="255950199" version="1" timestamp="2014-01-09T20:12:18Z" changeset="19906836" uid="599999" user="svbr">
    <nd ref="2616543941"/>
    <nd ref="2616543943"/>
    <nd ref="2616543944"/>
    <nd ref="2616543942"/>
    <nd ref="2616543941"/>
    <tag k="addr:city" v="Hamburg"/>
    <tag k="addr:housenumber" v="68"/>
    <tag k="addr:postcode" v="21037"/>
    <tag k="addr:street" v="Dorferbogen"/>
    <tag k="building" v="yes"/>
  </way>
  <way id="255950202" version="1" timestamp="2014-01-09T20:12:18Z" changeset="19906836" uid="599999" user="svbr">
    <nd ref="2616544295"/>
    <nd ref="2616544296"/>
    <nd ref="2616544292"/>
    <nd ref="2616544294"/>
    <nd ref="2616544290"/>
    <nd ref="2616544289"/>
    <nd ref="2616544293"/>
    <nd ref="2616544291"/>
    <nd ref="2616544295"/>
    <tag k="addr:city" v="Hamburg"/>
    <tag k="addr:housenumber" v="7"/>
    <tag k="addr:postcode" v="21037"/>
    <tag k="addr:street" v="Spadenländer Hauptdeich"/>
    <tag k="building" v="yes"/>
  </way>
  <way id="255950203" version="1" timestamp="2014-01-09T20:12:18Z" changeset="19906836" uid="599999" user="svbr">
    <nd ref="2616543946"/>
    <nd ref="2616543945"/>
    <nd ref="2616543947"/>
    <nd ref="2616543951"/>
    <nd ref="2616543946"/>
    <tag k="addr:city" v="Hamburg"/>
    <tag k="addr:housenumber" v="70"/>
    <tag k="addr:postcode" v="21037"/>
    <tag k="addr:street" v="Dorferbogen"/>
    <tag k="building" v="yes"/>
  </way>
  <way id="255950204" version="1" timestamp="2014-01-09T20:12:18Z" changeset="19906836" uid="599999" user="svbr">
    <nd ref="2616543957"/>
    <nd ref="2616543963"/>
    <nd ref="2616543961"/>
    <nd ref="2616543960"/>
    <nd ref="2616543962"/>
    <nd ref="2616543958"/>
    <nd ref="2616543956"/>
    <nd ref="2616543954"/>
    <nd ref="2616543950"/>
    <nd ref="2616543957"/>
    <tag k="addr:city" v="Hamburg"/>
    <tag k="addr:housenumber" v="72"/>
    <tag k="addr:postcode" v="21037"/>
    <tag k="addr:street" v="Dorferbogen"/>
    <tag k="building" v="yes"/>
  </way>
  <way id="255950205" version="1" timestamp="2014-01-09T20:12:19Z" changeset="19906836" uid="599999" user="svbr">
    <nd ref="2616543972"/>
    <nd ref="2616543976"/>
    <nd ref="2616543973"/>
    <nd ref="2616543968"/>
    <nd ref="2616543967"/>
    <nd ref="2616543965"/>
    <nd ref="2616543969"/>
    <nd ref="2616543971"/>
    <nd ref="2616543972"/>
    <tag k="addr:city" v="Hamburg"/>
    <tag k="addr:housenumber" v="74"/>
    <tag k="addr:postcode" v="21037"/>
    <tag k="addr:street" v="Dorferbogen"/>
    <tag k="building" v="yes"/>
  </way>
  <way id="255950206" version="1" timestamp="2014-01-09T20:12:19Z" changeset="19906836" uid="599999" user="svbr">
    <nd ref="2616543983"/>
    <nd ref="2616543988"/>
    <nd ref="2616543985"/>
    <nd ref="2616543978"/>
    <nd ref="2616543983"/>
    <tag k="addr:city" v="Hamburg"/>
    <tag k="addr:housenumber" v="76"/>
    <tag k="addr:postcode" v="21037"/>
    <tag k="addr:street" v="Dorferbogen"/>
    <tag k="building" v="yes"/>
  </way>
  <way id="255950207" version="2" timestamp="2023-04-25T05:42:16Z" changeset="135326839" uid="66391" user="geozeisig">
    <nd ref="2616543982"/>
    <nd ref="2616543984"/>
    <nd ref="2616543986"/>
    <nd ref="2616543987"/>
    <nd ref="2616543981"/>
    <nd ref="2616543980"/>
    <nd ref="2616543979"/>
    <nd ref="2616543977"/>
    <nd ref="2616543982"/>
    <tag k="addr:city" v="Hamburg"/>
    <tag k="addr:housenumber" v="78"/>
    <tag k="addr:postcode" v="21037"/>
    <tag k="addr:street" v="Dorferbogen"/>
    <tag k="building" v="yes"/>
    <tag k="dsa:criteria" v="Baudenkmal"/>
    <tag k="heritage" v="4"/>
    <tag k="heritage:operator" v="dsa"/>
    <tag k="ref:dsa" v="26229"/>
    <tag k="start_date" v="C19"/>
  </way>
  <way id="266522089" version="2" timestamp="2014-11-07T07:23:31Z" changeset="26608763" uid="599999" user="svbr">
    <nd ref="2720608492"/>
    <nd ref="2720608515"/>
    <nd ref="2720608449"/>
    <nd ref="2720608487"/>
    <nd ref="3171784413"/>
    <nd ref="2720608492"/>
    <tag k="addr:housenumber" v="31"/>
    <tag k="addr:street" v="In der Weide"/>
    <tag k="building" v="yes"/>
  </way>
  <way id="266522090" version="2" timestamp="2014-11-07T07:23:31Z" changeset="26608763" uid="599999" user="svbr">
    <nd ref="2720608509"/>
    <nd ref="2720608491"/>
    <nd ref="2720608525"/>
    <nd ref="2720608529"/>
    <nd ref="2720608509"/>
    <tag k="addr:housenumber" v="21"/>
    <tag k="addr:street" v="In der Weide"/>
    <tag k="building" v="yes"/>
  </way>
  <way id="266522091" version="4" timestamp="2021-11-21T11:27:07Z" changeset="114054037" uid="1431737" user="ma-rt-in">
    <nd ref="2720608485"/>
    <nd ref="2720608518"/>
    <nd ref="2720608440"/>
    <nd ref="2720608517"/>
    <nd ref="2720608485"/>
    <tag k="addr:city" v="Hamburg"/>
    <tag k="addr:housenumber" v="56"/>
    <tag k="addr:postcode" v="21037"/>
    <tag k="addr:street" v="In der Weide"/>
    <tag k="building" v="yes"/>
    <tag k="email" v="mail@ackerperlen.de"/>
    <tag k="name" v="Ackerperlen"/>
    <tag k="phone" v="+49 40 317 040 50"/>
    <tag k="shop" v="farm"/>
    <tag k="source" v="https://www.ackerperlen.de/"/>
    <tag k="website" v="https://www.ackerperlen.de/"/>
  </way>
  <way id="266522093" version="2" timestamp="2014-11-07T07:23:31Z" changeset="26608763" uid="599999" user="svbr">
    <nd ref="2720608458"/>
    <nd ref="2720608436"/>
    <nd ref="2720608551"/>
    <nd ref="2720608466"/>
    <nd ref="2720608458"/>
    <tag k="addr:housenumber" v="20"/>
    <tag k="addr:street" v="In der Weide"/>
    <tag k="building" v="yes"/>
  </way>
  <way id="266522094" version="2" timestamp="2014-11-07T07:23:31Z" changeset="26608763" uid="599999" user="svbr">
    <nd ref="2720608453"/>
    <nd ref="2720608421"/>
    <nd ref="2720608452"/>
    <nd ref="2720608467"/>
    <nd ref="2720608453"/>
    <tag k="addr:housenumber" v="52"/>
    <tag k="addr:street" v="In der Weide"/>
    <tag k="building" v="yes"/>
  </way>
  <way id="266522095" version="2" timestamp="2014-11-07T07:23:31Z" changeset="26608763" uid="599999" user="svbr">
    <nd ref="2720608470"/>
    <nd ref="2720608465"/>
    <nd ref="2720608462"/>
    <nd ref="2720608532"/>
    <nd ref="2720608439"/>
    <nd ref="2720608521"/>
    <nd ref="2720608470"/>
    <tag k="addr:housenumber" v="18"/>
    <tag k="addr:street" v="In der Weide"/>
    <tag k="building" v="yes"/>
  </way>
  <way id="266522101" version="2" timestamp="2014-11-07T07:23:31Z" changeset="26608763" uid="599999" user="svbr">
    <nd ref="2720608435"/>
    <nd ref="2720608535"/>
    <nd ref="2720608476"/>
    <nd ref="2720608552"/>
    <nd ref="2720608464"/>
    <nd ref="2720608455"/>
    <nd ref="2720608502"/>
    <nd ref="2720608500"/>
    <nd ref="2720608435"/>
    <tag k="addr:housenumber" v="19"/>
    <tag k="addr:street" v="In der Weide"/>
    <tag k="building" v="yes"/>
  </way>
  <way id="266522105" version="2" timestamp="2014-11-07T07:23:31Z" changeset="26608763" uid="599999" user="svbr">
    <nd ref="2720608471"/>
    <nd ref="2720608507"/>
    <nd ref="2720608479"/>
    <nd ref="2720608423"/>
    <nd ref="2720608424"/>
    <nd ref="2720608541"/>
    <nd ref="2720608488"/>
    <nd ref="2720608519"/>
    <nd ref="2720608547"/>
    <nd ref="2720608482"/>
    <nd ref="3171784405"/>
    <nd ref="3171784403"/>
    <nd ref="2720608471"/>
    <tag k="addr:housenumber" v="22"/>
    <tag k="addr:street" v="In der Weide"/>
    <tag k="building" v="yes"/>
  </way>
  <way id="266522111" version="2" timestamp="2014-11-07T07:23:32Z" changeset="26608763" uid="599999" user="svbr">
    <nd ref="2720608489"/>
    <nd ref="2720608534"/>
    <nd ref="2720608430"/>
    <nd ref="2720608530"/>
    <nd ref="2720608489"/>
    <tag k="addr:housenumber" v="72"/>
    <tag k="addr:street" v="In der Weide"/>
    <tag k="building" v="yes"/>
  </way>
  <way id="292149064" version="3" timestamp="2024-09-19T16:56:45Z" changeset="156830515" uid="1551542" user="frantzius2177">
    <nd ref="2956904557"/>
    <nd ref="2956904549"/>
    <nd ref="2956904545"/>
    <nd ref="2956904551"/>
    <nd ref="2956904557"/>
    <tag k="addr:housenumber" v="73"/>
    <tag k="addr:street" v="Ochsenwerder Landstraße"/>
    <tag k="building" v="detached"/>
  </way>
  <way id="292149070" version="3" timestamp="2024-09-19T16:56:50Z" changeset="156830515" uid="1551542" user="frantzius2177">
    <nd ref="2956904528"/>
    <nd ref="2956904519"/>
    <nd ref="2956904515"/>
    <nd ref="2956904524"/>
    <nd ref="2956904528"/>
    <tag k="addr:housenumber" v="71"/>
    <tag k="addr:street" v="Ochsenwerder Landstraße"/>
    <tag k="building" v="detached"/>
  </way>
  <way id="292149073" version="3" timestamp="2024-09-19T16:56:24Z" changeset="156830515" uid="1551542" user="frantzius2177">
    <nd ref="2956904474"/>
    <nd ref="2956904475"/>
    <nd ref="2956904469"/>
    <nd ref="2956904468"/>
    <nd ref="2956904474"/>
    <tag k="addr:housenumber" v="59a"/>
    <tag k="addr:street" v="Ochsenwerder Landstraße"/>
    <tag k="building" v="detached"/>
  </way>
  <way id="292149077" version="3" timestamp="2024-09-19T16:56:22Z" changeset="156830515" uid="1551542" user="frantzius2177">
    <nd ref="2956904454"/>
    <nd ref="2956904448"/>
    <nd ref="2956904445"/>
    <nd ref="2956904442"/>
    <nd ref="2956904437"/>
    <nd ref="2956904441"/>
    <nd ref="2956904443"/>
    <nd ref="2956904450"/>
    <nd ref="2956904454"/>
    <tag k="addr:housenumber" v="59"/>
    <tag k="addr:street" v="Ochsenwerder Landstraße"/>
    <tag k="building" v="detached"/>
  </way>
  <way id="292149102" version="1" timestamp="2014-07-10T07:54:41Z" changeset="24058637" uid="599999" user="svbr">
    <nd ref="2956904751"/>
    <nd ref="2956904748"/>
    <nd ref="2956904746"/>
    <nd ref="2956904747"/>
    <nd ref="2956904745"/>
    <nd ref="2956904744"/>
    <nd ref="2956904741"/>
    <nd ref="2956904743"/>
    <nd ref="2956904750"/>
    <nd ref="2956904749"/>
    <nd ref="2956904751"/>
    <tag k="addr:housenumber" v="153"/>
    <tag k="addr:street" v="Ochsenwerder Landstraße"/>
    <tag k="building" v="yes"/>
  </way>
  <way id="292149103" version="1" timestamp="2014-07-10T07:54:41Z" changeset="24058637" uid="599999" user="svbr">
    <nd ref="2956904759"/>
    <nd ref="2956904758"/>
    <nd ref="2956904760"/>
    <nd ref="2956904757"/>
    <nd ref="2956904753"/>
    <nd ref="2956904755"/>
    <nd ref="2956904754"/>
    <nd ref="2956904756"/>
    <nd ref="2956904759"/>
    <tag k="addr:housenumber" v="155"/>
    <tag k="addr:street" v="Ochsenwerder Landstraße"/>
    <tag k="building" v="yes"/>
  </way>
  <way id="292149104" version="1" timestamp="2014-07-10T07:54:41Z" changeset="24058637" uid="599999" user="svbr">
    <nd ref="2956904772"/>
    <nd ref="2956904766"/>
    <nd ref="2956904762"/>
    <nd ref="2956904765"/>
    <nd ref="2956904761"/>
    <nd ref="2956904764"/>
    <nd ref="2956904767"/>
    <nd ref="2956904769"/>
    <nd ref="2956904771"/>
    <nd ref="2956904770"/>
    <nd ref="2956904772"/>
    <tag k="addr:housenumber" v="159"/>
    <tag k="addr:street" v="Ochsenwerder Landstraße"/>
    <tag k="building" v="yes"/>
  </way>
  <way id="292149105" version="1" timestamp="2014-07-10T07:54:41Z" changeset="24058637" uid="599999" user="svbr">
    <nd ref="2956904780"/>
    <nd ref="2956904773"/>
    <nd ref="2956904763"/>
    <nd ref="2956904768"/>
    <nd ref="2956904780"/>
    <tag k="addr:housenumber" v="161"/>
    <tag k="addr:street" v="Ochsenwerder Landstraße"/>
    <tag k="building" v="yes"/>
  </way>
  <way id="292149107" version="1" timestamp="2014-07-10T07:54:41Z" changeset="24058637" uid="599999" user="svbr">
    <nd ref="2956904786"/>
    <nd ref="2956904785"/>
    <nd ref="2956904781"/>
    <nd ref="2956904782"/>
    <nd ref="2956904778"/>
    <nd ref="2956904779"/>
    <nd ref="2956904775"/>
    <nd ref="2956904776"/>
    <nd ref="2956904774"/>
    <nd ref="2956904777"/>
    <nd ref="2956904784"/>
    <nd ref="2956904783"/>
    <nd ref="2956904786"/>
    <tag k="addr:housenumber" v="163"/>
    <tag k="addr:street" v="Ochsenwerder Landstraße"/>
    <tag k="building" v="yes"/>
  </way>
  <way id="292149108" version="1" timestamp="2014-07-10T07:54:41Z" changeset="24058637" uid="599999" user="svbr">
    <nd ref="2956904801"/>
    <nd ref="2956904797"/>
    <nd ref="2956904799"/>
    <nd ref="2956904795"/>
    <nd ref="2956904794"/>
    <nd ref="2956904791"/>
    <nd ref="2956904787"/>
    <nd ref="2956904790"/>
    <nd ref="2956904788"/>
    <nd ref="2956904793"/>
    <nd ref="2956904796"/>
    <nd ref="2956904800"/>
    <nd ref="2956904801"/>
    <tag k="addr:housenumber" v="169"/>
    <tag k="addr:street" v="Ochsenwerder Landstraße"/>
    <tag k="building" v="yes"/>
  </way>
  <way id="292149110" version="1" timestamp="2014-07-10T07:54:41Z" changeset="24058637" uid="599999" user="svbr">
    <nd ref="2956904806"/>
    <nd ref="2956904805"/>
    <nd ref="2956904803"/>
    <nd ref="2956904804"/>
    <nd ref="2956904792"/>
    <nd ref="2956904798"/>
    <nd ref="2956904806"/>
    <tag k="addr:housenumber" v="177"/>
    <tag k="addr:street" v="Ochsenwerder Landstraße"/>
    <tag k="building" v="yes"/>
  </way>
  <way id="292149111" version="1" timestamp="2014-07-10T07:54:41Z" changeset="24058637" uid="599999" user="svbr">
    <nd ref="2956904810"/>
    <nd ref="2956904808"/>
    <nd ref="2956904807"/>
    <nd ref="2956904809"/>
    <nd ref="2956904810"/>
    <tag k="addr:housenumber" v="179"/>
    <tag k="addr:street" v="Ochsenwerder Landstraße"/>
    <tag k="building" v="yes"/>
  </way>
  <way id="292149119" version="1" timestamp="2014-07-10T07:54:42Z" changeset="24058637" uid="599999" user="svbr">
    <nd ref="2956904311"/>
    <nd ref="2956904315"/>
    <nd ref="2956904316"/>
    <nd ref="2956904312"/>
    <nd ref="2956904309"/>
    <nd ref="2956904313"/>
    <nd ref="2956904307"/>
    <nd ref="2956904311"/>
    <tag k="addr:housenumber" v="33"/>
    <tag k="addr:street" v="Ochsenwerder Landstraße"/>
    <tag k="building" v="yes"/>
  </way>
  <way id="292149120" version="1" timestamp="2014-07-10T07:54:42Z" changeset="24058637" uid="599999" user="svbr">
    <nd ref="2956904314"/>
    <nd ref="2956904308"/>
    <nd ref="2956904303"/>
    <nd ref="2956904306"/>
    <nd ref="2956904300"/>
    <nd ref="2956904297"/>
    <nd ref="2956904298"/>
    <nd ref="2956904299"/>
    <nd ref="2956904302"/>
    <nd ref="2956904301"/>
    <nd ref="2956904305"/>
    <nd ref="2956904304"/>
    <nd ref="2956904310"/>
    <nd ref="2956904317"/>
    <nd ref="2956904314"/>
    <tag k="addr:housenumber" v="33c"/>
    <tag k="addr:street" v="Ochsenwerder Landstraße"/>
    <tag k="building" v="yes"/>
  </way>
  <way id="292149122" version="1" timestamp="2014-07-10T07:54:42Z" changeset="24058637" uid="599999" user="svbr">
    <nd ref="2956904321"/>
    <nd ref="2956904319"/>
    <nd ref="2956904318"/>
    <nd ref="2956904320"/>
    <nd ref="2956904321"/>
    <tag k="addr:housenumber" v="35"/>
    <tag k="addr:street" v="Ochsenwerder Landstraße"/>
    <tag k="building" v="yes"/>
  </way>
  <way id="292149136" version="1" timestamp="2014-07-10T07:54:43Z" changeset="24058637" uid="599999" user="svbr">
    <nd ref="2956904384"/>
    <nd ref="2956904377"/>
    <nd ref="2956904367"/>
    <nd ref="2956904371"/>
    <nd ref="2956904368"/>
    <nd ref="2956904360"/>
    <nd ref="2956904358"/>
    <nd ref="2956904364"/>
    <nd ref="2956904362"/>
    <nd ref="2956904365"/>
    <nd ref="2956904366"/>
    <nd ref="2956904370"/>
    <nd ref="2956904372"/>
    <nd ref="2956904376"/>
    <nd ref="2956904384"/>
    <tag k="addr:housenumber" v="53"/>
    <tag k="addr:street" v="Ochsenwerder Landstraße"/>
    <tag k="building" v="yes"/>
  </way>
  <way id="292149137" version="1" timestamp="2014-07-10T07:54:43Z" changeset="24058637" uid="599999" user="svbr">
    <nd ref="2956904410"/>
    <nd ref="2956904404"/>
    <nd ref="2956904390"/>
    <nd ref="2956904400"/>
    <nd ref="2956904410"/>
    <tag k="addr:housenumber" v="53a"/>
    <tag k="addr:street" v="Ochsenwerder Landstraße"/>
    <tag k="building" v="yes"/>
  </way>
  <way id="292149140" version="1" timestamp="2014-07-10T07:54:43Z" changeset="24058637" uid="599999" user="svbr">
    <nd ref="2956904425"/>
    <nd ref="2956904419"/>
    <nd ref="2956904412"/>
    <nd ref="2956904417"/>
    <nd ref="2956904413"/>
    <nd ref="2956904418"/>
    <nd ref="2956904423"/>
    <nd ref="2956904420"/>
    <nd ref="2956904425"/>
    <tag k="addr:housenumber" v="55"/>
    <tag k="addr:street" v="Ochsenwerder Landstraße"/>
    <tag k="building" v="yes"/>
  </way>
  <way id="292149142" version="1" timestamp="2014-07-10T07:54:44Z" changeset="24058637" uid="599999" user="svbr">
    <nd ref="2956904447"/>
    <nd ref="2956904439"/>
    <nd ref="2956904436"/>
    <nd ref="2956904444"/>
    <nd ref="2956904447"/>
    <tag k="addr:housenumber" v="57"/>
    <tag k="addr:street" v="Ochsenwerder Landstraße"/>
    <tag k="building" v="yes"/>
  </way>
  <way id="292149143" version="1" timestamp="2014-07-10T07:54:44Z" changeset="24058637" uid="599999" user="svbr">
    <nd ref="2956904461"/>
    <nd ref="2956904463"/>
    <nd ref="2956904460"/>
    <nd ref="2956904458"/>
    <nd ref="2956904455"/>
    <nd ref="2956904453"/>
    <nd ref="2956904461"/>
    <tag k="addr:housenumber" v="57a"/>
    <tag k="addr:street" v="Ochsenwerder Landstraße"/>
    <tag k="building" v="yes"/>
  </way>
  <way id="292149148" version="2" timestamp="2024-09-19T16:56:38Z" changeset="156830515" uid="1551542" user="frantzius2177">
    <nd ref="2956904503"/>
    <nd ref="2956904492"/>
    <nd ref="2956904488"/>
    <nd ref="2956904497"/>
    <nd ref="2956904503"/>
    <tag k="addr:housenumber" v="61"/>
    <tag k="addr:street" v="Ochsenwerder Landstraße"/>
    <tag k="building" v="detached"/>
  </way>
  <way id="292149150" version="2" timestamp="2024-09-19T16:56:39Z" changeset="156830515" uid="1551542" user="frantzius2177">
    <nd ref="2956904512"/>
    <nd ref="2956904507"/>
    <nd ref="2956904505"/>
    <nd ref="2956904506"/>
    <nd ref="2956904508"/>
    <nd ref="2956904509"/>
    <nd ref="2956904513"/>
    <nd ref="2956904511"/>
    <nd ref="2956904512"/>
    <tag k="addr:housenumber" v="63"/>
    <tag k="addr:street" v="Ochsenwerder Landstraße"/>
    <tag k="building" v="detached"/>
  </way>
  <way id="292149151" version="1" timestamp="2014-07-10T07:54:45Z" changeset="24058637" uid="599999" user="svbr">
    <nd ref="2956904521"/>
    <nd ref="2956904523"/>
    <nd ref="2956904518"/>
    <nd ref="2956904520"/>
    <nd ref="2956904516"/>
    <nd ref="2956904510"/>
    <nd ref="2956904517"/>
    <nd ref="2956904521"/>
    <tag k="addr:housenumber" v="65"/>
    <tag k="addr:street" v="Ochsenwerder Landstraße"/>
    <tag k="building" v="yes"/>
  </way>
  <way id="292149153" version="1" timestamp="2014-07-10T07:54:45Z" changeset="24058637" uid="599999" user="svbr">
    <nd ref="2956904529"/>
    <nd ref="2956904530"/>
    <nd ref="2956904521"/>
    <nd ref="2956904517"/>
    <nd ref="2956904514"/>
    <nd ref="2956904525"/>
    <nd ref="2956904529"/>
    <tag k="addr:housenumber" v="67"/>
    <tag k="addr:street" v="Ochsenwerder Landstraße"/>
    <tag k="building" v="yes"/>
  </way>
  <way id="292149158" version="1" timestamp="2014-07-10T07:54:45Z" changeset="24058637" uid="599999" user="svbr">
    <nd ref="2956904525"/>
    <nd ref="2956904522"/>
    <nd ref="2956904531"/>
    <nd ref="2956904540"/>
    <nd ref="2956904529"/>
    <nd ref="2956904525"/>
    <tag k="addr:housenumber" v="69"/>
    <tag k="addr:street" v="Ochsenwerder Landstraße"/>
    <tag k="building" v="yes"/>
  </way>
  <way id="292149171" version="1" timestamp="2014-07-10T07:54:46Z" changeset="24058637" uid="599999" user="svbr">
    <nd ref="2956904839"/>
    <nd ref="2956904835"/>
    <nd ref="2956904825"/>
    <nd ref="2956904824"/>
    <nd ref="2956904821"/>
    <nd ref="2956904822"/>
    <nd ref="2956904827"/>
    <nd ref="2956904826"/>
    <nd ref="2956904830"/>
    <nd ref="2956904833"/>
    <nd ref="2956904839"/>
    <tag k="addr:housenumber" v="82"/>
    <tag k="addr:street" v="Hofschläger Deich"/>
    <tag k="building" v="yes"/>
  </way>
  <way id="292149181" version="1" timestamp="2014-07-10T07:54:46Z" changeset="24058637" uid="599999" user="svbr">
    <nd ref="2956904667"/>
    <nd ref="2956904663"/>
    <nd ref="2956904661"/>
    <nd ref="2956904662"/>
    <nd ref="2956904667"/>
    <tag k="addr:housenumber" v="99"/>
    <tag k="addr:street" v="Ochsenwerder Landstraße"/>
    <tag k="building" v="yes"/>
  </way>
  <way id="292258765" version="1" timestamp="2014-07-11T05:26:29Z" changeset="24075458" uid="599999" user="svbr">
    <nd ref="2958121203"/>
    <nd ref="2958121205"/>
    <nd ref="2958121202"/>
    <nd ref="2958121204"/>
    <nd ref="2958121197"/>
    <nd ref="2958121195"/>
    <nd ref="2958121193"/>
    <nd ref="2958121191"/>
    <nd ref="2958121200"/>
    <nd ref="2958121199"/>
    <nd ref="2958121203"/>
    <tag k="addr:housenumber" v="10"/>
    <tag k="addr:street" v="Spadenländer Weg"/>
    <tag k="building" v="yes"/>
  </way>
  <way id="292258767" version="1" timestamp="2014-07-11T05:26:29Z" changeset="24075458" uid="599999" user="svbr">
    <nd ref="2958121189"/>
    <nd ref="2958121183"/>
    <nd ref="2958121185"/>
    <nd ref="2958121187"/>
    <nd ref="2958121194"/>
    <nd ref="2958121196"/>
    <nd ref="2958121198"/>
    <nd ref="2958121201"/>
    <nd ref="2958121189"/>
    <tag k="addr:housenumber" v="11"/>
    <tag k="addr:street" v="Spadenländer Weg"/>
    <tag k="building" v="yes"/>
  </way>
  <way id="292258768" version="2" timestamp="2024-09-19T16:56:17Z" changeset="156830515" uid="1551542" user="frantzius2177">
    <nd ref="2958121260"/>
    <nd ref="2958121258"/>
    <nd ref="2958121255"/>
    <nd ref="2958121257"/>
    <nd ref="2958121254"/>
    <nd ref="2958121259"/>
    <nd ref="2958121260"/>
    <tag k="addr:housenumber" v="12"/>
    <tag k="addr:street" v="Fasanengrund"/>
    <tag k="building" v="detached"/>
  </way>
  <way id="292258772" version="2" timestamp="2024-09-19T16:56:15Z" changeset="156830515" uid="1551542" user="frantzius2177">
    <nd ref="2958121244"/>
    <nd ref="2958121245"/>
    <nd ref="2958121253"/>
    <nd ref="2958121256"/>
    <nd ref="2958121251"/>
    <nd ref="2958121252"/>
    <nd ref="2958121247"/>
    <nd ref="2958121244"/>
    <tag k="addr:housenumber" v="14"/>
    <tag k="addr:street" v="Fasanengrund"/>
    <tag k="building" v="detached"/>
  </way>
  <way id="292258776" version="2" timestamp="2024-09-19T16:56:12Z" changeset="156830515" uid="1551542" user="frantzius2177">
    <nd ref="2958121250"/>
    <nd ref="2958121248"/>
    <nd ref="2958121249"/>
    <nd ref="2958121243"/>
    <nd ref="2958121239"/>
    <nd ref="2958121241"/>
    <nd ref="2958121242"/>
    <nd ref="2958121246"/>
    <nd ref="2958121250"/>
    <tag k="addr:housenumber" v="16"/>
    <tag k="addr:street" v="Fasanengrund"/>
    <tag k="building" v="detached"/>
  </way>
  <way id="292258779" version="2" timestamp="2024-09-19T16:56:10Z" changeset="156830515" uid="1551542" user="frantzius2177">
    <nd ref="2958121240"/>
    <nd ref="2958121237"/>
    <nd ref="2958121231"/>
    <nd ref="2958121234"/>
    <nd ref="2958121235"/>
    <nd ref="2958121238"/>
    <nd ref="2958121240"/>
    <tag k="addr:housenumber" v="18"/>
    <tag k="addr:street" v="Fasanengrund"/>
    <tag k="building" v="detached"/>
  </way>
  <way id="292258782" version="2" timestamp="2024-09-19T16:56:08Z" changeset="156830515" uid="1551542" user="frantzius2177">
    <nd ref="2958121232"/>
    <nd ref="2958121226"/>
    <nd ref="2958121223"/>
    <nd ref="2958121227"/>
    <nd ref="2958121232"/>
    <tag k="addr:housenumber" v="20"/>
    <tag k="addr:street" v="Fasanengrund"/>
    <tag k="building" v="detached"/>
  </way>
  <way id="292258785" version="2" timestamp="2024-09-19T16:56:20Z" changeset="156830515" uid="1551542" user="frantzius2177">
    <nd ref="2958121229"/>
    <nd ref="2958121236"/>
    <nd ref="2958121233"/>
    <nd ref="2958121230"/>
    <nd ref="2958121228"/>
    <nd ref="2958121224"/>
    <nd ref="2958121229"/>
    <tag k="addr:housenumber" v="22"/>
    <tag k="addr:street" v="Fasanengrund"/>
    <tag k="building" v="detached"/>
  </way>
  <way id="292258787" version="2" timestamp="2024-09-19T16:56:02Z" changeset="156830515" uid="1551542" user="frantzius2177">
    <nd ref="2958121220"/>
    <nd ref="2958121217"/>
    <nd ref="2958121216"/>
    <nd ref="2958121218"/>
    <nd ref="2958121220"/>
    <tag k="addr:housenumber" v="22b"/>
    <tag k="addr:street" v="Fasanengrund"/>
    <tag k="building" v="detached"/>
  </way>
  <way id="292258788" version="2" timestamp="2024-09-19T16:56:06Z" changeset="156830515" uid="1551542" user="frantzius2177">
    <nd ref="2958121225"/>
    <nd ref="2958121222"/>
    <nd ref="2958121219"/>
    <nd ref="2958121221"/>
    <nd ref="2958121225"/>
    <tag k="addr:housenumber" v="22c"/>
    <tag k="addr:street" v="Fasanengrund"/>
    <tag k="building" v="detached"/>
  </way>
  <way id="292258809" version="1" timestamp="2014-07-11T05:26:32Z" changeset="24075458" uid="599999" user="svbr">
    <nd ref="2958121192"/>
    <nd ref="2958121190"/>
    <nd ref="2958121188"/>
    <nd ref="2958121184"/>
    <nd ref="2958121182"/>
    <nd ref="2958121186"/>
    <nd ref="2958121192"/>
    <tag k="addr:housenumber" v="8"/>
    <tag k="addr:street" v="Spadenländer Weg"/>
    <tag k="building" v="yes"/>
  </way>
  <way id="311507746" version="2" timestamp="2017-03-26T15:15:39Z" changeset="47177601" uid="5324364" user="HartmutHeufelder">
    <nd ref="3171784354"/>
    <nd ref="3171784370"/>
    <nd ref="3171784362"/>
    <nd ref="3171784358"/>
    <nd ref="3171784355"/>
    <nd ref="3171784345"/>
    <nd ref="3171784354"/>
    <tag k="addr:housenumber" v="44"/>
    <tag k="addr:street" v="Hofschläger Deich"/>
    <tag k="building" v="yes"/>
  </way>
  <way id="311507757" version="1" timestamp="2014-11-07T07:23:30Z" changeset="26608763" uid="599999" user="svbr">
    <nd ref="3171784037"/>
    <nd ref="3171784041"/>
    <nd ref="3171784038"/>
    <nd ref="3171784035"/>
    <nd ref="3171784037"/>
    <tag k="addr:housenumber" v="1"/>
    <tag k="addr:street" v="Hofschläger Deich"/>
    <tag k="building" v="yes"/>
  </way>
  <way id="311507758" version="1" timestamp="2014-11-07T07:23:30Z" changeset="26608763" uid="599999" user="svbr">
    <nd ref="3171784293"/>
    <nd ref="3171784295"/>
    <nd ref="3171784299"/>
    <nd ref="3171784300"/>
    <nd ref="3171784284"/>
    <nd ref="3171784279"/>
    <nd ref="3171784293"/>
    <tag k="addr:housenumber" v="15"/>
    <tag k="addr:street" v="Hofschläger Deich"/>
    <tag k="building" v="yes"/>
  </way>
  <way id="311507759" version="1" timestamp="2014-11-07T07:23:30Z" changeset="26608763" uid="599999" user="svbr">
    <nd ref="3171784272"/>
    <nd ref="3171784271"/>
    <nd ref="3171784265"/>
    <nd ref="3171784266"/>
    <nd ref="3171784272"/>
    <tag k="addr:housenumber" v="21"/>
    <tag k="addr:street" v="Hofschläger Deich"/>
    <tag k="building" v="yes"/>
  </way>
  <way id="311507761" version="1" timestamp="2014-11-07T07:23:30Z" changeset="26608763" uid="599999" user="svbr">
    <nd ref="3171784287"/>
    <nd ref="3171784292"/>
    <nd ref="3171784297"/>
    <nd ref="3171784301"/>
    <nd ref="3171784294"/>
    <nd ref="3171784296"/>
    <nd ref="3171784288"/>
    <nd ref="3171784281"/>
    <nd ref="3171784275"/>
    <nd ref="3171784270"/>
    <nd ref="3171784287"/>
    <tag k="addr:housenumber" v="23"/>
    <tag k="addr:street" v="Hofschläger Deich"/>
    <tag k="building" v="yes"/>
  </way>
  <way id="311507763" version="1" timestamp="2014-11-07T07:23:30Z" changeset="26608763" uid="599999" user="svbr">
    <nd ref="3171784291"/>
    <nd ref="3171784285"/>
    <nd ref="3171784274"/>
    <nd ref="3171784280"/>
    <nd ref="3171784291"/>
    <tag k="addr:housenumber" v="26"/>
    <tag k="addr:street" v="Hofschläger Deich"/>
    <tag k="building" v="yes"/>
  </way>
  <way id="311507766" version="1" timestamp="2014-11-07T07:23:30Z" changeset="26608763" uid="599999" user="svbr">
    <nd ref="3171784331"/>
    <nd ref="3171784343"/>
    <nd ref="3171784327"/>
    <nd ref="3171784323"/>
    <nd ref="3171784331"/>
    <tag k="addr:housenumber" v="40"/>
    <tag k="addr:street" v="Hofschläger Deich"/>
    <tag k="building" v="yes"/>
  </way>
  <way id="311507768" version="1" timestamp="2014-11-07T07:23:30Z" changeset="26608763" uid="599999" user="svbr">
    <nd ref="3171784350"/>
    <nd ref="3171784365"/>
    <nd ref="3171784348"/>
    <nd ref="3171784329"/>
    <nd ref="3171784350"/>
    <tag k="addr:housenumber" v="41"/>
    <tag k="addr:street" v="Hofschläger Deich"/>
    <tag k="building" v="yes"/>
  </way>
  <way id="311507769" version="1" timestamp="2014-11-07T07:23:30Z" changeset="26608763" uid="599999" user="svbr">
    <nd ref="3171784033"/>
    <nd ref="3171784031"/>
    <nd ref="3171784032"/>
    <nd ref="3171784034"/>
    <nd ref="3171784033"/>
    <tag k="addr:housenumber" v="51"/>
    <tag k="addr:street" v="Ochsenwerder Landstraße"/>
    <tag k="building" v="yes"/>
  </way>
  <way id="311507770" version="1" timestamp="2014-11-07T07:23:30Z" changeset="26608763" uid="599999" user="svbr">
    <nd ref="3171784388"/>
    <nd ref="3171784391"/>
    <nd ref="3171784390"/>
    <nd ref="3171784394"/>
    <nd ref="3171784392"/>
    <nd ref="3171784386"/>
    <nd ref="3171784388"/>
    <tag k="addr:housenumber" v="52"/>
    <tag k="addr:street" v="Hofschläger Deich"/>
    <tag k="building" v="yes"/>
  </way>
  <way id="311507773" version="1" timestamp="2014-11-07T07:23:30Z" changeset="26608763" uid="599999" user="svbr">
    <nd ref="3171784057"/>
    <nd ref="3171784051"/>
    <nd ref="3171784054"/>
    <nd ref="3171784059"/>
    <nd ref="3171784057"/>
    <tag k="addr:housenumber" v="8"/>
    <tag k="addr:street" v="Hofschläger Deich"/>
    <tag k="building" v="yes"/>
  </way>
  <way id="311507774" version="1" timestamp="2014-11-07T07:23:30Z" changeset="26608763" uid="599999" user="svbr">
    <nd ref="3171784336"/>
    <nd ref="3171784330"/>
    <nd ref="3171784333"/>
    <nd ref="3171784320"/>
    <nd ref="3171784316"/>
    <nd ref="3171784324"/>
    <nd ref="3171784326"/>
    <nd ref="3171784332"/>
    <nd ref="3171784336"/>
    <tag k="addr:housenumber" v="8"/>
    <tag k="addr:street" v="In der Weide"/>
    <tag k="building" v="yes"/>
  </way>
  <way id="311507775" version="1" timestamp="2014-11-07T07:23:30Z" changeset="26608763" uid="599999" user="svbr">
    <nd ref="3171784262"/>
    <nd ref="3171784268"/>
    <nd ref="3171784267"/>
    <nd ref="3171784264"/>
    <nd ref="3171784263"/>
    <nd ref="3171784261"/>
    <nd ref="3171784262"/>
    <tag k="addr:housenumber" v="9"/>
    <tag k="addr:street" v="Hofschläger Deich"/>
    <tag k="building" v="yes"/>
  </way>
  <way id="352171830" version="6" timestamp="2021-07-08T14:37:31Z" changeset="107643721" uid="9563645" user="CamelCaseNick">
    <nd ref="2209996678"/>
    <nd ref="3579368717"/>
    <nd ref="3579368716"/>
    <nd ref="5548312720"/>
    <nd ref="271931398"/>
    <nd ref="506898042"/>
    <nd ref="5548312719"/>
    <nd ref="5548313323"/>
    <nd ref="8890644524"/>
    <tag k="cycleway" v="no"/>
    <tag k="highway" v="tertiary"/>
    <tag k="lanes" v="2"/>
    <tag k="lit" v="yes"/>
    <tag k="maxspeed" v="50"/>
    <tag k="name" v="Hofschläger Weg"/>
    <tag k="sidewalk" v="right"/>
    <tag k="sidewalk:right:bicycle" v="yes"/>
    <tag k="sidewalk:right:foot" v="designated"/>
    <tag k="sidewalk:right:oneway" v="no"/>
    <tag k="sidewalk:right:traffic_sign" v="DE:239,1022-10"/>
    <tag k="source:maxspeed" v="DE:urban"/>
    <tag k="surface" v="asphalt"/>
    <tag k="wikidata" v="Q107387349"/>
  </way>
  <way id="388322775" version="3" timestamp="2023-06-11T18:02:37Z" changeset="137214505" uid="17921090" user="541074">
    <nd ref="322587224"/>
    <nd ref="3915349446"/>
    <nd ref="3915349447"/>
    <nd ref="3915349448"/>
    <nd ref="9271823832"/>
    <nd ref="9271823831"/>
    <nd ref="9271823830"/>
    <nd ref="9271823829"/>
    <nd ref="9271823828"/>
    <tag k="highway" v="residential"/>
    <tag k="name" v="Ruschorter Hauptdeich"/>
    <tag k="surface" v="asphalt"/>
  </way>
  <way id="507914207" version="20" timestamp="2024-03-29T11:50:10Z" changeset="149308549" uid="12091530" user="G4rden3r">
    <nd ref="506898075"/>
    <nd ref="506898076"/>
    <nd ref="7205640885"/>
    <nd ref="20995621"/>
    <nd ref="933516996"/>
    <nd ref="8246167866"/>
    <nd ref="933517003"/>
    <nd ref="7475877185"/>
    <nd ref="933516992"/>
    <nd ref="933517016"/>
    <nd ref="20995620"/>
    <nd ref="8725013911"/>
    <nd ref="5548313324"/>
    <nd ref="20995622"/>
    <nd ref="5548313326"/>
    <nd ref="5548313325"/>
    <nd ref="3502032996"/>
    <nd ref="3502032994"/>
    <nd ref="282593752"/>
    <nd ref="3502032092"/>
    <nd ref="7062477154"/>
    <nd ref="6010944115"/>
    <nd ref="3502032088"/>
    <nd ref="3502032090"/>
    <nd ref="20995624"/>
    <nd ref="3502032073"/>
    <nd ref="6010883990"/>
    <nd ref="6010817184"/>
    <nd ref="6010869765"/>
    <nd ref="6010869749"/>
    <nd ref="6603557016"/>
    <nd ref="6010869738"/>
    <nd ref="933599012"/>
    <nd ref="20995625"/>
    <nd ref="7025415603"/>
    <nd ref="5548313327"/>
    <nd ref="281429260"/>
    <nd ref="3502032071"/>
    <nd ref="8236704306"/>
    <nd ref="7181093531"/>
    <nd ref="7432062167"/>
    <nd ref="7432062161"/>
    <nd ref="20995626"/>
    <nd ref="3502032068"/>
    <nd ref="5548313329"/>
    <nd ref="5548313328"/>
    <nd ref="8236704299"/>
    <nd ref="20995627"/>
    <nd ref="8509349979"/>
    <nd ref="8509349973"/>
    <nd ref="20995628"/>
    <nd ref="11771176630"/>
    <nd ref="287671238"/>
    <nd ref="20995629"/>
    <nd ref="20995630"/>
    <nd ref="299648758"/>
    <tag k="cycleway" v="no"/>
    <tag k="highway" v="tertiary"/>
    <tag k="lanes" v="2"/>
    <tag k="lit" v="yes"/>
    <tag k="maxspeed" v="50"/>
    <tag k="name" v="Ochsenwerder Landstraße"/>
    <tag k="source:maxspeed" v="DE:urban"/>
    <tag k="surface" v="asphalt"/>
  </way>
  <way id="637608101" version="2" timestamp="2025-03-31T21:07:46Z" changeset="164349300" uid="75623" user="KTim">
    <nd ref="933599012"/>
    <nd ref="933598908"/>
    <nd ref="933598954"/>
    <tag k="highway" v="residential"/>
  </way>
  <way id="894176891" version="4" timestamp="2024-12-29T18:17:37Z" changeset="160762809" uid="21948918" user="HansjMr">
    <nd ref="8890644520"/>
    <nd ref="5548313321"/>
    <nd ref="3502033015"/>
    <nd ref="3171784416"/>
    <nd ref="27235355"/>
    <nd ref="27235356"/>
    <nd ref="5577341663"/>
    <nd ref="5577341664"/>
    <nd ref="3171784325"/>
    <nd ref="5577341665"/>
    <nd ref="27235357"/>
    <nd ref="271931406"/>
    <nd ref="27235358"/>
    <nd ref="5577341666"/>
    <nd ref="27235359"/>
    <nd ref="5577341667"/>
    <nd ref="27235360"/>
    <nd ref="5577341668"/>
    <nd ref="5577341669"/>
    <nd ref="27235361"/>
    <nd ref="5577341670"/>
    <nd ref="27235362"/>
    <nd ref="5577341673"/>
    <nd ref="5577341672"/>
    <nd ref="27235363"/>
    <nd ref="27235364"/>
    <nd ref="5577341671"/>
    <nd ref="5577341674"/>
    <nd ref="8708975871"/>
    <nd ref="27235365"/>
    <nd ref="5577341675"/>
    <nd ref="27235366"/>
    <nd ref="5577341676"/>
    <nd ref="322587230"/>
    <nd ref="3915349432"/>
    <tag k="highway" v="tertiary"/>
    <tag k="lane_markings" v="no"/>
    <tag k="lit" v="yes"/>
    <tag k="maxweight" v="7.5"/>
    <tag k="maxweight:conditional" v="none @ (destination)"/>
    <tag k="name" v="Hofschläger Deich"/>
    <tag k="surface" v="asphalt"/>
    <tag k="traffic_sign" v="DE:262[7.5],1020-30"/>
    <tag k="width" v="5"/>
  </way>
  <way id="961085258" version="4" timestamp="2024-12-30T09:32:24Z" changeset="160781864" uid="21948918" user="HansjMr">
    <nd ref="5577341660"/>
    <nd ref="8890644520"/>
    <tag k="bridge" v="yes"/>
    <tag k="highway" v="tertiary"/>
    <tag k="lane_markings" v="no"/>
    <tag k="layer" v="1"/>
    <tag k="maxweight" v="7.5"/>
    <tag k="maxweight:conditional" v="none @ (destination)"/>
    <tag k="name" v="Hofschläger Deich"/>
    <tag k="surface" v="asphalt"/>
    <tag k="traffic_sign" v="DE:262[7.5],1020-30"/>
    <tag k="width" v="5"/>
  </way>
  <way id="961085259" version="3" timestamp="2024-12-30T09:32:24Z" changeset="160781864" uid="21948918" user="HansjMr">
    <nd ref="8890644524"/>
    <nd ref="8890644518"/>
    <nd ref="5577341660"/>
    <tag k="highway" v="tertiary"/>
    <tag k="lane_markings" v="no"/>
    <tag k="maxweight" v="7.5"/>
    <tag k="maxweight:conditional" v="none @ (destination)"/>
    <tag k="name" v="Hofschläger Deich"/>
    <tag k="surface" v="asphalt"/>
    <tag k="traffic_sign" v="DE:262[7.5],1020-30"/>
  </way>

</osm>
