<?xml version="1.0" encoding="UTF-8"?>
<osm version="0.6" generator="Overpass API 0.7.62.5 1bd436f1">
<note>The data included in this document is from www.openstreetmap.org. The data is made available under ODbL.</note>
<meta osm_base="2025-05-18T05:17:31Z" areas="2024-12-31T00:49:33Z"/>

  <node id="11621589" lat="53.8893159" lon="-1.6440188" version="5" timestamp="2016-08-15T18:32:25Z" changeset="41473649" uid="3316592" user="Arthtoach"/>
  <node id="20939910" lat="53.9098213" lon="-1.6692726" version="3" timestamp="2019-01-15T16:07:17Z" changeset="66336058" uid="3114" user="chippy"/>
  <node id="27348281" lat="53.8994824" lon="-1.6153770" version="3" timestamp="2015-02-24T20:15:42Z" changeset="29077302" uid="84263" user="Robert Whittaker"/>
  <node id="29059170" lat="53.8908761" lon="-1.6667767" version="3" timestamp="2021-10-27T23:45:04Z" changeset="113058891" uid="10364561" user="TrekClimbing"/>
  <node id="411719324" lat="53.8995389" lon="-1.6506543" version="1" timestamp="2009-05-27T10:14:11Z" changeset="1331975" uid="308" user="MichaelCollinson">
    <tag k="building" v="yes"/>
    <tag k="is_in" v="UK, England, West Yorkshire, Wharfedale"/>
    <tag k="is_in:county" v="West Yorkshire"/>
    <tag k="is_in:municipality" v="Leeds"/>
    <tag k="name" v="Caley Farm"/>
    <tag k="postal_code" v="LS21"/>
  </node>
  <node id="534438096" lat="53.8924514" lon="-1.6383603" version="5" timestamp="2016-10-29T15:34:35Z" changeset="43267912" uid="3316592" user="Arthtoach"/>
  <node id="558332662" lat="53.9048926" lon="-1.6306213" version="6" timestamp="2025-01-21T20:19:03Z" changeset="161614265" uid="11606276" user="matty817"/>
  <node id="1542506546" lat="53.8949976" lon="-1.6258600" version="1" timestamp="2011-12-12T14:19:07Z" changeset="10099231" uid="308" user="MichaelCollinson"/>
  <node id="1542506743" lat="53.8985011" lon="-1.6669977" version="2" timestamp="2017-09-21T14:12:53Z" changeset="52245076" uid="3114" user="chippy"/>
  <way id="4045460" version="33" timestamp="2024-01-14T21:28:10Z" changeset="146259623" uid="7666952" user="phodgkin">
    <nd ref="2161729180"/>
    <nd ref="899279667"/>
    <nd ref="4168203550"/>
    <nd ref="4168203560"/>
    <nd ref="27338418"/>
    <nd ref="1335394718"/>
    <nd ref="9259314370"/>
    <nd ref="558343359"/>
    <nd ref="1335385748"/>
    <nd ref="27348219"/>
    <nd ref="4168203552"/>
    <nd ref="21436328"/>
    <nd ref="1335385751"/>
    <nd ref="4168203559"/>
    <nd ref="6588371126"/>
    <nd ref="1335385732"/>
    <nd ref="6588371127"/>
    <nd ref="27348213"/>
    <nd ref="21436330"/>
    <nd ref="6576714236"/>
    <nd ref="558348884"/>
    <nd ref="7933803886"/>
    <nd ref="27348212"/>
    <nd ref="21436331"/>
    <nd ref="7933803891"/>
    <nd ref="3370797577"/>
    <nd ref="558348892"/>
    <nd ref="27348214"/>
    <nd ref="21436332"/>
    <nd ref="21436334"/>
    <nd ref="718505494"/>
    <nd ref="3370797574"/>
    <nd ref="8459452711"/>
    <nd ref="27348281"/>
    <tag k="destination:forward" v="Arthington;Harewood;Tadcaster;Wetherby"/>
    <tag k="highway" v="primary"/>
    <tag k="maxspeed" v="30 mph"/>
    <tag k="name" v="Arthington Lane"/>
    <tag k="ref" v="A659"/>
    <tag k="source" v="GPS"/>
  </way>
  <way id="4452039" version="7" timestamp="2024-06-14T22:35:34Z" changeset="152700850" uid="1778799" user="SomeoneElse_Revert">
    <nd ref="27338265"/>
    <nd ref="8316126286"/>
    <nd ref="27338270"/>
    <nd ref="9121962925"/>
    <nd ref="27338273"/>
    <nd ref="27338274"/>
    <nd ref="27338277"/>
    <nd ref="27338279"/>
    <nd ref="27338281"/>
    <nd ref="27338283"/>
    <nd ref="27338286"/>
    <nd ref="27338288"/>
    <nd ref="27338290"/>
    <nd ref="27338292"/>
    <nd ref="2119541183"/>
    <nd ref="27338301"/>
    <nd ref="27338304"/>
    <nd ref="27338307"/>
    <nd ref="27338310"/>
    <nd ref="27338313"/>
    <nd ref="27338316"/>
    <nd ref="27338318"/>
    <nd ref="27338321"/>
    <nd ref="9121942513"/>
    <nd ref="27338324"/>
    <nd ref="27338327"/>
    <nd ref="27338270"/>
    <tag k="abutters" v="residential"/>
    <tag k="highway" v="residential"/>
    <tag k="is_in" v="Pool In Wharfedale, UK"/>
    <tag k="name" v="Church Close"/>
  </way>
  <way id="4452041" version="5" timestamp="2024-06-14T22:35:41Z" changeset="152700850" uid="1778799" user="SomeoneElse_Revert">
    <nd ref="27338268"/>
    <nd ref="27338351"/>
    <nd ref="27338353"/>
    <nd ref="27338355"/>
    <nd ref="27338357"/>
    <nd ref="8804320807"/>
    <nd ref="8804320808"/>
    <nd ref="27338359"/>
    <nd ref="8804320798"/>
    <nd ref="8316126284"/>
    <nd ref="8316126285"/>
    <tag k="abutters" v="residential"/>
    <tag k="highway" v="residential"/>
    <tag k="is_in" v="Pool In Wharfedale, UK"/>
    <tag k="name" v="Church Garth"/>
  </way>
  <way id="4452042" version="4" timestamp="2012-10-28T13:24:06Z" changeset="13661114" uid="106831" user="sc71">
    <nd ref="27338248"/>
    <nd ref="27338250"/>
    <nd ref="27338252"/>
    <nd ref="27338254"/>
    <nd ref="27338255"/>
    <nd ref="27338257"/>
    <nd ref="27338259"/>
    <nd ref="27338260"/>
    <nd ref="27338263"/>
    <nd ref="27338265"/>
    <tag k="abutters" v="residential"/>
    <tag k="highway" v="unclassified"/>
    <tag k="is_in" v="Pool In Wharfedale, UK"/>
    <tag k="name" v="Church Close"/>
  </way>
  <way id="4452043" version="4" timestamp="2024-06-14T22:35:45Z" changeset="152700850" uid="1778799" user="SomeoneElse_Revert">
    <nd ref="1542532842"/>
    <nd ref="27338375"/>
    <tag k="abutters" v="residential"/>
    <tag k="highway" v="residential"/>
    <tag k="name" v="Chapel Row"/>
  </way>
  <way id="4452044" version="4" timestamp="2024-06-14T22:35:34Z" changeset="152700850" uid="1778799" user="SomeoneElse_Revert">
    <nd ref="27338347"/>
    <nd ref="1335394312"/>
    <nd ref="27338349"/>
    <nd ref="1335394248"/>
    <nd ref="1335394240"/>
    <tag k="abutters" v="residential"/>
    <tag k="highway" v="residential"/>
    <tag k="is_in" v="Pool In Wharfedale"/>
    <tag k="name" v="The Old Orchard"/>
  </way>
  <way id="4452045" version="4" timestamp="2024-06-14T22:35:22Z" changeset="152700850" uid="1778799" user="SomeoneElse_Revert">
    <nd ref="27338341"/>
    <nd ref="27338345"/>
    <nd ref="27338347"/>
    <nd ref="8316126248"/>
    <nd ref="27338377"/>
    <tag k="abutters" v="residential"/>
    <tag k="highway" v="residential"/>
    <tag k="is_in" v="Pool In Wharfedale"/>
    <tag k="name" v="Manor Gardens"/>
  </way>
  <way id="4452046" version="3" timestamp="2024-06-14T22:35:18Z" changeset="152700850" uid="1778799" user="SomeoneElse_Revert">
    <nd ref="27338331"/>
    <nd ref="27338333"/>
    <nd ref="27338335"/>
    <nd ref="27338337"/>
    <nd ref="27338339"/>
    <nd ref="27338341"/>
    <nd ref="27338343"/>
    <tag k="abutters" v="residential"/>
    <tag k="created_by" v="JOSM"/>
    <tag k="highway" v="residential"/>
    <tag k="is_in" v="Pool In Wharfedale"/>
    <tag k="name" v="Manor Crescent"/>
    <tag k="postal_code" v="LS21"/>
  </way>
  <way id="4452048" version="4" timestamp="2024-06-14T22:35:39Z" changeset="152700850" uid="1778799" user="SomeoneElse_Revert">
    <nd ref="27338393"/>
    <nd ref="27338392"/>
    <nd ref="27338391"/>
    <nd ref="27338390"/>
    <tag k="abutters" v="residential"/>
    <tag k="highway" v="residential"/>
    <tag k="is_in" v="Pool In Wharfedale"/>
    <tag k="name" v="Wharfe Crescent"/>
    <tag k="postal_code" v="LS21"/>
  </way>
  <way id="4452049" version="6" timestamp="2024-06-14T22:35:34Z" changeset="152700850" uid="1778799" user="SomeoneElse_Revert">
    <nd ref="27338389"/>
    <nd ref="1335385770"/>
    <nd ref="1335385733"/>
    <nd ref="27338388"/>
    <nd ref="27338387"/>
    <nd ref="27338386"/>
    <nd ref="27338385"/>
    <nd ref="27338384"/>
    <nd ref="27338383"/>
    <tag k="abutters" v="residential"/>
    <tag k="highway" v="residential"/>
    <tag k="is_in" v="Pool In Wharfedale, UK"/>
    <tag k="name" v="Churchill Flats"/>
  </way>
  <way id="4452052" version="4" timestamp="2024-06-14T22:35:41Z" changeset="152700850" uid="1778799" user="SomeoneElse_Revert">
    <nd ref="27348213"/>
    <nd ref="4168203541"/>
    <nd ref="4168203556"/>
    <nd ref="27348202"/>
    <tag k="abutters" v="residential"/>
    <tag k="highway" v="residential"/>
    <tag k="is_in" v="Pool In Wharfedale, UK"/>
    <tag k="name" v="Oakdale Drive"/>
    <tag k="surface" v="unpaved"/>
  </way>
  <way id="4452053" version="5" timestamp="2024-06-14T22:35:36Z" changeset="152700850" uid="1778799" user="SomeoneElse_Revert">
    <nd ref="4471624544"/>
    <nd ref="4471624549"/>
    <nd ref="4471624554"/>
    <nd ref="8272628520"/>
    <nd ref="4471624559"/>
    <nd ref="4471624564"/>
    <nd ref="27348216"/>
    <nd ref="27348214"/>
    <tag k="abutters" v="residential"/>
    <tag k="highway" v="residential"/>
    <tag k="is_in" v="Pool In Wharfedale, UK"/>
    <tag k="name" v="White Holme Drive"/>
  </way>
  <way id="4452054" version="4" timestamp="2024-06-14T22:35:31Z" changeset="152700850" uid="1778799" user="SomeoneElse_Revert">
    <nd ref="27348189"/>
    <nd ref="11631458383"/>
    <nd ref="11631458385"/>
    <nd ref="27348215"/>
    <nd ref="11631458377"/>
    <nd ref="27348192"/>
    <nd ref="11631458380"/>
    <nd ref="11631458379"/>
    <nd ref="27348200"/>
    <tag k="abutters" v="residential"/>
    <tag k="highway" v="residential"/>
    <tag k="is_in" v="Pool In Wharfedale, UK"/>
    <tag k="name" v="Park Way"/>
  </way>
  <way id="4452055" version="5" timestamp="2024-06-14T22:35:24Z" changeset="152700850" uid="1778799" user="SomeoneElse_Revert">
    <nd ref="27348189"/>
    <nd ref="4168203555"/>
    <nd ref="11631458392"/>
    <nd ref="27348190"/>
    <nd ref="11631458393"/>
    <nd ref="11631458394"/>
    <nd ref="27348191"/>
    <nd ref="11631458395"/>
    <nd ref="11631458397"/>
    <nd ref="4168203554"/>
    <nd ref="11631458396"/>
    <nd ref="4168203555"/>
    <tag k="abutters" v="residential"/>
    <tag k="highway" v="residential"/>
    <tag k="is_in" v="Pool In Wharfedale, UK"/>
    <tag k="name" v="Park Mews"/>
  </way>
  <way id="4452056" version="5" timestamp="2024-06-14T22:35:13Z" changeset="152700850" uid="1778799" user="SomeoneElse_Revert">
    <nd ref="27338368"/>
    <nd ref="11460554533"/>
    <nd ref="1335385725"/>
    <nd ref="27338383"/>
    <nd ref="27338390"/>
    <nd ref="27338394"/>
    <nd ref="27338395"/>
    <nd ref="1335385714"/>
    <nd ref="27338396"/>
    <nd ref="1335385763"/>
    <nd ref="27338397"/>
    <nd ref="27338398"/>
    <nd ref="27338399"/>
    <nd ref="27338400"/>
    <nd ref="27338401"/>
    <nd ref="27338402"/>
    <tag k="abutters" v="residential"/>
    <tag k="highway" v="residential"/>
    <tag k="is_in" v="Pool In Wharfedale"/>
    <tag k="name" v="Mill Lane"/>
    <tag k="postal_code" v="LS21"/>
  </way>
  <way id="4452057" version="5" timestamp="2024-06-14T22:35:18Z" changeset="152700850" uid="1778799" user="SomeoneElse_Revert">
    <nd ref="27338415"/>
    <nd ref="27338414"/>
    <nd ref="27338416"/>
    <nd ref="27338417"/>
    <nd ref="1335385743"/>
    <nd ref="27338396"/>
    <tag k="abutters" v="residential"/>
    <tag k="highway" v="residential"/>
    <tag k="is_in" v="Pool In Wharfedale, UK"/>
    <tag k="name" v="Millcroft"/>
  </way>
  <way id="4452058" version="6" timestamp="2024-06-14T22:35:43Z" changeset="152700850" uid="1778799" user="SomeoneElse_Revert">
    <nd ref="27338398"/>
    <nd ref="1335385673"/>
    <nd ref="27338403"/>
    <nd ref="27338404"/>
    <nd ref="27338405"/>
    <nd ref="3162859518"/>
    <nd ref="27338406"/>
    <nd ref="27338407"/>
    <tag k="abutters" v="residential"/>
    <tag k="highway" v="residential"/>
    <tag k="is_in" v="Pool In Wharfedale, UK"/>
    <tag k="name" v="Millcroft"/>
  </way>
  <way id="4452059" version="6" timestamp="2025-05-08T23:10:41Z" changeset="166005795" uid="3199858" user="Mateusz Konieczny - bot account">
    <nd ref="27348219"/>
    <nd ref="27348218"/>
    <nd ref="10874898347"/>
    <tag k="abutters" v="residential"/>
    <tag k="highway" v="residential"/>
    <tag k="is_in" v="Pool In Wharfedale, UK"/>
    <tag k="name" v="The Beeches"/>
    <tag k="sidewalk" v="no"/>
  </way>
  <way id="4452060" version="5" timestamp="2024-06-14T22:35:20Z" changeset="152700850" uid="1778799" user="SomeoneElse_Revert">
    <nd ref="27348192"/>
    <nd ref="11631458381"/>
    <nd ref="11631458378"/>
    <nd ref="4168203565"/>
    <nd ref="11631458386"/>
    <nd ref="27348194"/>
    <nd ref="11631458387"/>
    <nd ref="11631458388"/>
    <nd ref="27348196"/>
    <nd ref="11631458389"/>
    <nd ref="11631458391"/>
    <nd ref="4168203534"/>
    <nd ref="11631458390"/>
    <nd ref="4168203565"/>
    <tag k="abutters" v="residential"/>
    <tag k="highway" v="residential"/>
    <tag k="is_in" v="Pool In Wharfedale, UK"/>
    <tag k="name" v="Park Square"/>
  </way>
  <way id="4452070" version="5" timestamp="2024-06-14T22:35:31Z" changeset="152700850" uid="1778799" user="SomeoneElse_Revert">
    <nd ref="27348200"/>
    <nd ref="4168203535"/>
    <nd ref="11631458403"/>
    <nd ref="27348199"/>
    <nd ref="11631458402"/>
    <nd ref="11631458401"/>
    <nd ref="27348197"/>
    <nd ref="11631458400"/>
    <nd ref="11631458399"/>
    <nd ref="4168203551"/>
    <nd ref="11631458398"/>
    <nd ref="4168203535"/>
    <tag k="abutters" v="residential"/>
    <tag k="highway" v="residential"/>
    <tag k="is_in" v="Pool In Wharfedale, UK"/>
    <tag k="name" v="Park Court"/>
  </way>
  <way id="4452081" version="4" timestamp="2024-06-14T22:35:39Z" changeset="152700850" uid="1778799" user="SomeoneElse_Revert">
    <nd ref="27348205"/>
    <nd ref="4471624784"/>
    <nd ref="4471624831"/>
    <nd ref="4471624943"/>
    <nd ref="27348206"/>
    <nd ref="4471624997"/>
    <nd ref="4471625011"/>
    <nd ref="4471625051"/>
    <nd ref="27348208"/>
    <nd ref="4471625081"/>
    <nd ref="4471625102"/>
    <nd ref="4471625248"/>
    <nd ref="27348212"/>
    <tag k="abutters" v="residential"/>
    <tag k="highway" v="residential"/>
    <tag k="is_in" v="Pool In Wharfedale, UK"/>
    <tag k="name" v="Stonedale Close"/>
  </way>
  <way id="4452082" version="4" timestamp="2024-06-14T22:35:39Z" changeset="152700850" uid="1778799" user="SomeoneElse_Revert">
    <nd ref="27348208"/>
    <nd ref="4471625052"/>
    <nd ref="4471625023"/>
    <nd ref="4471624981"/>
    <nd ref="27348209"/>
    <nd ref="4471624948"/>
    <nd ref="4471624756"/>
    <nd ref="4471624705"/>
    <nd ref="27348211"/>
    <tag k="abutters" v="residential"/>
    <tag k="highway" v="residential"/>
    <tag k="is_in" v="Pool In Wharfedale, UK"/>
    <tag k="name" v="Arthington Lawns"/>
  </way>
  <way id="4452083" version="3" timestamp="2024-06-14T22:35:43Z" changeset="152700850" uid="1778799" user="SomeoneElse_Revert">
    <nd ref="27348202"/>
    <nd ref="27348203"/>
    <tag k="abutters" v="residential"/>
    <tag k="created_by" v="JOSM"/>
    <tag k="highway" v="residential"/>
    <tag k="is_in" v="Pool In Wharfedale, UK"/>
    <tag k="name" v="Oakdale Park"/>
    <tag k="surface" v="unpaved"/>
  </way>
  <way id="4452084" version="4" timestamp="2024-06-14T22:35:36Z" changeset="152700850" uid="1778799" user="SomeoneElse_Revert">
    <nd ref="21436328"/>
    <nd ref="11631458382"/>
    <nd ref="11631458384"/>
    <nd ref="27348215"/>
    <tag k="highway" v="residential"/>
  </way>
  <way id="4541129" version="19" timestamp="2021-08-07T10:09:48Z" changeset="109303351" uid="242345" user="confusedbuffalo">
    <nd ref="28256141"/>
    <nd ref="3370797552"/>
    <nd ref="3708748004"/>
    <nd ref="28256136"/>
    <nd ref="28256131"/>
    <nd ref="28256126"/>
    <nd ref="534438818"/>
    <nd ref="534440314"/>
    <nd ref="8107865225"/>
    <nd ref="534437305"/>
    <nd ref="6464948154"/>
    <nd ref="28256115"/>
    <nd ref="28256112"/>
    <nd ref="2119541743"/>
    <nd ref="28256097"/>
    <nd ref="28256091"/>
    <tag k="alt_name" v="Pool Bank Old Road"/>
    <tag k="hgv" v="no"/>
    <tag k="highway" v="unclassified"/>
    <tag k="lit" v="no"/>
    <tag k="maxspeed" v="60 mph"/>
    <tag k="maxspeed:type" v="GB:nsl_single"/>
    <tag k="name" v="Old Pool Bank"/>
    <tag k="source" v="survey"/>
    <tag k="surface" v="asphalt"/>
  </way>
  <way id="4597065" version="12" timestamp="2021-10-23T22:03:36Z" changeset="112888697" uid="10364561" user="TrekClimbing">
    <nd ref="29059170"/>
    <nd ref="9196467962"/>
    <nd ref="9196467951"/>
    <nd ref="9196467959"/>
    <nd ref="2283933283"/>
    <nd ref="1020943571"/>
    <nd ref="29059172"/>
    <nd ref="6464999902"/>
    <nd ref="2283933274"/>
    <nd ref="2283933329"/>
    <nd ref="1016255830"/>
    <nd ref="305465363"/>
    <nd ref="1038623865"/>
    <nd ref="27666090"/>
    <nd ref="7528784503"/>
    <nd ref="7521025926"/>
    <nd ref="29059173"/>
    <nd ref="1016256168"/>
    <nd ref="7521025923"/>
    <nd ref="7521025922"/>
    <nd ref="2283933268"/>
    <nd ref="2283933171"/>
    <nd ref="2283933314"/>
    <nd ref="7974591933"/>
    <nd ref="29059171"/>
    <tag k="highway" v="unclassified"/>
    <tag k="name" v="Old Lane"/>
    <tag k="not:name" v="Bramhope Old Lane"/>
    <tag k="not:name:note" v="The junction at East Chevin Road says &quot;Old Lane&quot; not &quot;Bramhope Old Lane&quot;"/>
    <tag k="source" v="survey"/>
  </way>
  <way id="4597066" version="15" timestamp="2023-06-04T00:43:37Z" changeset="136918913" uid="5589" user="user_5589">
    <nd ref="11621589"/>
    <nd ref="899279688"/>
    <nd ref="2283933239"/>
    <nd ref="7784577768"/>
    <nd ref="6592990418"/>
    <nd ref="4470153027"/>
    <nd ref="305465282"/>
    <nd ref="29059179"/>
    <nd ref="29059181"/>
    <nd ref="29059180"/>
    <nd ref="29064061"/>
    <nd ref="2283267699"/>
    <nd ref="29059184"/>
    <tag k="highway" v="unclassified"/>
    <tag k="lit" v="no"/>
    <tag k="maxspeed" v="30 mph"/>
    <tag k="motor_vehicle" v="destination"/>
    <tag k="name" v="Old Pool Bank"/>
    <tag k="old_name" v="New Road"/>
    <tag k="source" v="survey"/>
    <tag k="surface" v="asphalt"/>
  </way>
  <way id="4597067" version="14" timestamp="2025-01-03T03:11:31Z" changeset="160932819" uid="493595" user="Yorvik Prestigitator">
    <nd ref="29059174"/>
    <nd ref="8307072462"/>
    <nd ref="29059186"/>
    <nd ref="12470393495"/>
    <nd ref="12470393494"/>
    <nd ref="29059175"/>
    <nd ref="29059176"/>
    <nd ref="8307072494"/>
    <nd ref="12470393492"/>
    <nd ref="2283294675"/>
    <nd ref="29059179"/>
    <tag k="abutters" v="residential"/>
    <tag k="highway" v="residential"/>
    <tag k="lane_markings" v="no"/>
    <tag k="lit" v="no"/>
    <tag k="maxspeed" v="30 mph"/>
    <tag k="motor_vehicle" v="destination"/>
    <tag k="name" v="Quarry Farm Road"/>
    <tag k="noexit" v="yes"/>
    <tag k="source" v="survey"/>
    <tag k="surface" v="asphalt"/>
  </way>
  <way id="4597068" version="5" timestamp="2024-06-14T22:35:22Z" changeset="152700850" uid="1778799" user="SomeoneElse_Revert">
    <nd ref="29059175"/>
    <nd ref="2283267754"/>
    <nd ref="29059177"/>
    <tag k="abutters" v="residential"/>
    <tag k="highway" v="residential"/>
    <tag k="motor_vehicle" v="destination"/>
    <tag k="name" v="Park Terrace"/>
    <tag k="source" v="survey"/>
  </way>
  <way id="4597069" version="7" timestamp="2024-06-14T22:35:20Z" changeset="152700850" uid="1778799" user="SomeoneElse_Revert">
    <nd ref="29059176"/>
    <nd ref="1610640490"/>
    <nd ref="29059178"/>
    <tag k="abutters" v="residential"/>
    <tag k="highway" v="residential"/>
    <tag k="motor_vehicle" v="destination"/>
    <tag k="name" v="Park Mount"/>
    <tag k="source" v="survey"/>
  </way>
  <way id="4597497" version="5" timestamp="2024-06-14T22:35:45Z" changeset="152700850" uid="1778799" user="SomeoneElse_Revert">
    <nd ref="29063945"/>
    <nd ref="4470153609"/>
    <nd ref="4470153599"/>
    <nd ref="4470153584"/>
    <nd ref="1038283134"/>
    <nd ref="29063944"/>
    <nd ref="29063943"/>
    <tag k="abutters" v="residential"/>
    <tag k="highway" v="residential"/>
    <tag k="name" v="Leeds Road"/>
    <tag k="noexit" v="yes"/>
    <tag k="source" v="interpolation"/>
  </way>
  <way id="8072964" version="8" timestamp="2023-12-09T20:37:03Z" changeset="144947602" uid="16898063" user="benjo384">
    <nd ref="21264646"/>
    <nd ref="11406227619"/>
    <nd ref="899279749"/>
    <nd ref="1335385741"/>
    <nd ref="11265020851"/>
    <nd ref="1335385762"/>
    <nd ref="21264654"/>
    <tag k="destination:backward" v="Otley;Skipton"/>
    <tag k="destination:forward" v="Harrogate"/>
    <tag k="highway" v="primary"/>
    <tag k="maxspeed" v="30 mph"/>
    <tag k="name" v="Pool Road"/>
    <tag k="ref" v="A659"/>
  </way>
  <way id="8072965" version="7" timestamp="2022-10-20T20:41:27Z" changeset="127854836" uid="7666952" user="phodgkin">
    <nd ref="21264646"/>
    <nd ref="7313163327"/>
    <nd ref="1542564867"/>
    <nd ref="21264652"/>
    <tag k="destination:backward" v="Otley;Skipton"/>
    <tag k="destination:forward" v="Bradford;Wetherby"/>
    <tag k="destination:ref:forward" v="A658"/>
    <tag k="highway" v="primary"/>
    <tag k="maxspeed" v="30 mph"/>
    <tag k="name" v="Wharfe View"/>
    <tag k="ref" v="A659"/>
  </way>
  <way id="24289821" version="7" timestamp="2021-03-07T22:21:55Z" changeset="100594287" uid="2800603" user="skifans">
    <nd ref="29064059"/>
    <nd ref="1038283249"/>
    <nd ref="1542506394"/>
    <nd ref="664129989"/>
    <nd ref="1542506443"/>
    <nd ref="7621866289"/>
    <nd ref="1038283360"/>
    <nd ref="1542506449"/>
    <tag k="abutters" v="residential"/>
    <tag k="designation" v="public_footpath"/>
    <tag k="foot" v="designated"/>
    <tag k="highway" v="residential"/>
    <tag k="name" v="Quarry Road"/>
    <tag k="noexit" v="yes"/>
    <tag k="source" v="interpolation"/>
  </way>
  <way id="27820151" version="4" timestamp="2021-07-26T10:35:50Z" changeset="108615979" uid="2800603" user="skifans">
    <nd ref="305465258"/>
    <nd ref="305465271"/>
    <nd ref="8951046565"/>
    <nd ref="305465273"/>
    <nd ref="305465276"/>
    <nd ref="305465278"/>
    <nd ref="305465280"/>
    <tag k="fixme" v="dont know name, no sign"/>
    <tag k="foot" v="designated"/>
    <tag k="highway" v="residential"/>
    <tag k="surface" v="asphalt"/>
  </way>
  <way id="42739359" version="6" timestamp="2018-02-26T16:32:03Z" changeset="56695704" uid="101150" user="Steeley">
    <nd ref="534440314"/>
    <nd ref="1982011908"/>
    <tag k="designation" v="public_footpath"/>
    <tag k="foot" v="designated"/>
    <tag k="highway" v="residential"/>
    <tag k="name" v="Sandy Lobby"/>
    <tag k="source" v="NPE"/>
    <tag k="source:name" v="OS_OpenData_Locator"/>
  </way>
  <way id="43905236" version="13" timestamp="2025-01-21T20:19:03Z" changeset="161614265" uid="11606276" user="matty817">
    <nd ref="558332662"/>
    <nd ref="12521288169"/>
    <nd ref="558332539"/>
    <tag k="bicycle" v="yes"/>
    <tag k="bridge" v="yes"/>
    <tag k="bridge:name" v="Pool Bridge"/>
    <tag k="highway" v="trunk"/>
    <tag k="lanes" v="2"/>
    <tag k="layer" v="1"/>
    <tag k="lit" v="yes"/>
    <tag k="maxspeed" v="30 mph"/>
    <tag k="maxweight:signed" v="no"/>
    <tag k="name" v="Harrogate Road"/>
    <tag k="ref" v="A658"/>
    <tag k="sidewalk" v="right"/>
    <tag k="source" v="GPS"/>
    <tag k="wikidata" v="Q26532964"/>
  </way>
  <way id="43905278" version="2" timestamp="2021-01-12T17:58:37Z" changeset="97390318" uid="2800603" user="skifans">
    <nd ref="28256075"/>
    <nd ref="558344284"/>
    <nd ref="2119541323"/>
    <nd ref="558344297"/>
    <nd ref="2119541146"/>
    <nd ref="2119541239"/>
    <nd ref="2119541175"/>
    <nd ref="558344310"/>
    <nd ref="558334869"/>
    <nd ref="8316126271"/>
    <tag k="highway" v="residential"/>
    <tag k="name" v="Chapel Hill Road"/>
    <tag k="source" v="GPS"/>
    <tag k="surface" v="paved"/>
  </way>
  <way id="43905821" version="5" timestamp="2016-10-30T17:12:20Z" changeset="43287731" uid="3316592" user="Arthtoach">
    <nd ref="1542532834"/>
    <nd ref="4471625476"/>
    <nd ref="558339755"/>
    <nd ref="558339758"/>
    <nd ref="558339760"/>
    <tag k="abutters" v="residential"/>
    <tag k="highway" v="residential"/>
    <tag k="is_in:village" v="Pool In Wharfedale, UK"/>
    <tag k="name" v="Pool Bank Close"/>
    <tag k="source" v="GPS"/>
  </way>
  <way id="43906508" version="13" timestamp="2023-05-07T02:38:03Z" changeset="135796035" uid="493595" user="Yorvik Prestigitator">
    <nd ref="558348679"/>
    <nd ref="4485583322"/>
    <nd ref="4485583184"/>
    <nd ref="4485583160"/>
    <nd ref="4485583137"/>
    <nd ref="558375715"/>
    <nd ref="4485583122"/>
    <nd ref="558348687"/>
    <nd ref="4485583117"/>
    <nd ref="558348688"/>
    <nd ref="4485583136"/>
    <nd ref="558348699"/>
    <nd ref="4485583188"/>
    <nd ref="759311025"/>
    <nd ref="4485583350"/>
    <nd ref="4485583365"/>
    <nd ref="759311027"/>
    <nd ref="558348704"/>
    <nd ref="4485583510"/>
    <nd ref="558372216"/>
    <nd ref="4485583381"/>
    <nd ref="4485583355"/>
    <nd ref="558382218"/>
    <nd ref="4485583339"/>
    <nd ref="4168203540"/>
    <nd ref="4485583354"/>
    <nd ref="558348715"/>
    <nd ref="10874898351"/>
    <nd ref="759310358"/>
    <nd ref="4485583729"/>
    <nd ref="4168203544"/>
    <nd ref="4485583755"/>
    <nd ref="558348729"/>
    <nd ref="558378917"/>
    <nd ref="558348753"/>
    <nd ref="4485583902"/>
    <nd ref="558348763"/>
    <nd ref="558348775"/>
    <nd ref="558348785"/>
    <nd ref="558371278"/>
    <nd ref="558348788"/>
    <nd ref="558348795"/>
    <tag k="abutters" v="residential"/>
    <tag k="description" v="Modern housing development"/>
    <tag k="highway" v="residential"/>
    <tag k="is_in:village" v="Pool-in-Wharfedale"/>
    <tag k="name" v="Swallow Drive"/>
    <tag k="oneway" v="no"/>
    <tag k="postal_code" v="LS21"/>
    <tag k="source" v="GPS"/>
  </way>
  <way id="43906523" version="3" timestamp="2009-11-06T14:56:41Z" changeset="3048761" uid="308" user="MichaelCollinson">
    <nd ref="558350630"/>
    <nd ref="558350636"/>
    <tag k="abutters" v="residential"/>
    <tag k="highway" v="residential"/>
    <tag k="is_in:village" v="Pool-in-Wharfedale"/>
    <tag k="name" v="Pool Bank Court"/>
    <tag k="noexit" v="yes"/>
    <tag k="postal_code" v="LS21"/>
  </way>
  <way id="43906831" version="4" timestamp="2016-11-06T16:07:58Z" changeset="43444543" uid="3316592" user="Arthtoach">
    <nd ref="558360824"/>
    <nd ref="4485582305"/>
    <nd ref="1542506686"/>
    <nd ref="4485582353"/>
    <nd ref="4485582362"/>
    <nd ref="558361038"/>
    <nd ref="558361050"/>
    <nd ref="4485582347"/>
    <nd ref="1542506684"/>
    <nd ref="558361061"/>
    <nd ref="4485582514"/>
    <nd ref="4485582552"/>
    <nd ref="558361076"/>
    <nd ref="558361092"/>
    <nd ref="4485582777"/>
    <nd ref="4485582893"/>
    <nd ref="4485582900"/>
    <nd ref="4485582937"/>
    <nd ref="4485582951"/>
    <nd ref="558361107"/>
    <tag k="abutters" v="residential"/>
    <tag k="description" v="Modern housing development built on old railway."/>
    <tag k="highway" v="residential"/>
    <tag k="is_in:village" v="Pool-in-Wharfedale"/>
    <tag k="name" v="Willow Court"/>
    <tag k="postal_code" v="LS21"/>
  </way>
  <way id="43906981" version="2" timestamp="2009-11-06T15:10:53Z" changeset="3048761" uid="308" user="MichaelCollinson">
    <nd ref="558371246"/>
    <nd ref="558371256"/>
    <nd ref="558371268"/>
    <nd ref="558371278"/>
    <tag k="abutters" v="residential"/>
    <tag k="description" v="Modern housing development"/>
    <tag k="highway" v="residential"/>
    <tag k="is_in:village" v="Pool-in-Wharfedale"/>
    <tag k="lit" v="yes"/>
    <tag k="name" v="The Hollies"/>
    <tag k="postal_code" v="LS21"/>
  </way>
  <way id="43907413" version="1" timestamp="2009-11-06T15:11:11Z" changeset="3048761" uid="308" user="MichaelCollinson">
    <nd ref="558372196"/>
    <nd ref="558372207"/>
    <nd ref="558372216"/>
    <tag k="abutters" v="residential"/>
    <tag k="description" v="Modern housing development"/>
    <tag k="highway" v="residential"/>
    <tag k="is_in:village" v="Pool-in-Wharfedale"/>
    <tag k="lit" v="yes"/>
    <tag k="name" v="Mulberry Chase"/>
    <tag k="postal_code" v="LS21"/>
  </way>
  <way id="43907765" version="6" timestamp="2016-05-05T21:35:29Z" changeset="39130301" uid="493595" user="Yorvik Prestigitator">
    <nd ref="558348715"/>
    <nd ref="558378877"/>
    <nd ref="558375529"/>
    <nd ref="4168203561"/>
    <nd ref="558375542"/>
    <nd ref="558379321"/>
    <nd ref="558375550"/>
    <nd ref="558375553"/>
    <nd ref="558377234"/>
    <nd ref="558375566"/>
    <nd ref="558375578"/>
    <nd ref="558383559"/>
    <nd ref="558375802"/>
    <tag k="abutters" v="residential"/>
    <tag k="description" v="Modern housing development"/>
    <tag k="highway" v="residential"/>
    <tag k="is_in:village" v="Pool-in-Wharfedale"/>
    <tag k="lit" v="yes"/>
    <tag k="name" v="Acorn Way"/>
    <tag k="oneway" v="no"/>
    <tag k="postal_code" v="LS21"/>
  </way>
  <way id="43907768" version="1" timestamp="2009-11-06T15:14:28Z" changeset="3048761" uid="308" user="MichaelCollinson">
    <nd ref="558375802"/>
    <nd ref="558375819"/>
    <nd ref="558375832"/>
    <nd ref="558373525"/>
    <nd ref="558375848"/>
    <nd ref="558375876"/>
    <nd ref="558375904"/>
    <nd ref="558375715"/>
    <tag k="abutters" v="residential"/>
    <tag k="description" v="Modern housing development"/>
    <tag k="highway" v="residential"/>
    <tag k="is_in:village" v="Pool-in-Wharfedale"/>
    <tag k="lit" v="yes"/>
    <tag k="name" v="Acorn Way"/>
    <tag k="oneway" v="no"/>
    <tag k="postal_code" v="LS21"/>
  </way>
  <way id="43907841" version="1" timestamp="2009-11-06T15:15:28Z" changeset="3048761" uid="308" user="MichaelCollinson">
    <nd ref="558377212"/>
    <nd ref="558377218"/>
    <nd ref="558377234"/>
    <tag k="abutters" v="residential"/>
    <tag k="description" v="Modern housing development"/>
    <tag k="highway" v="residential"/>
    <tag k="is_in:village" v="Pool-in-Wharfedale"/>
    <tag k="name" v="Sycamore Fold"/>
    <tag k="oneway" v="no"/>
    <tag k="postal_code" v="LS21"/>
  </way>
  <way id="43907849" version="3" timestamp="2016-05-05T21:35:30Z" changeset="39130301" uid="493595" user="Yorvik Prestigitator">
    <nd ref="4168203546"/>
    <nd ref="4168203543"/>
    <nd ref="4168203564"/>
    <nd ref="558378066"/>
    <nd ref="558378079"/>
    <nd ref="558375542"/>
    <tag k="abutters" v="residential"/>
    <tag k="description" v="Modern housing development"/>
    <tag k="highway" v="residential"/>
    <tag k="is_in:village" v="Pool-in-Wharfedale"/>
    <tag k="lit" v="yes"/>
    <tag k="name" v="Bramble Grove"/>
    <tag k="noexit" v="yes"/>
    <tag k="oneway" v="no"/>
    <tag k="postal_code" v="LS21"/>
  </way>
  <way id="43907852" version="4" timestamp="2016-11-06T16:07:57Z" changeset="43444543" uid="3316592" user="Arthtoach">
    <nd ref="558378826"/>
    <nd ref="1028078337"/>
    <nd ref="558378839"/>
    <nd ref="558378853"/>
    <nd ref="558378866"/>
    <nd ref="558378883"/>
    <nd ref="558378901"/>
    <nd ref="4485583321"/>
    <nd ref="558378917"/>
    <tag k="abutters" v="residential"/>
    <tag k="description" v="Modern housing development"/>
    <tag k="highway" v="residential"/>
    <tag k="is_in:village" v="Pool-in-Wharfedale"/>
    <tag k="lit" v="yes"/>
    <tag k="name" v="Swallow Close"/>
    <tag k="noexit" v="yes"/>
    <tag k="oneway" v="no"/>
    <tag k="postal_code" v="LS21"/>
  </way>
  <way id="43908226" version="2" timestamp="2009-11-06T15:21:43Z" changeset="3048761" uid="308" user="MichaelCollinson">
    <nd ref="558382218"/>
    <nd ref="558382251"/>
    <tag k="abutters" v="residential"/>
    <tag k="description" v="Modern housing development"/>
    <tag k="highway" v="residential"/>
    <tag k="is_in:village" v="Pool-in-Wharfedale"/>
    <tag k="name" v="Hawthorn Avenue"/>
    <tag k="oneway" v="no"/>
    <tag k="postal_code" v="LS21"/>
    <tag k="surface" v="paved"/>
  </way>
  <way id="43908576" version="1" timestamp="2009-11-06T15:23:13Z" changeset="3048761" uid="308" user="MichaelCollinson">
    <nd ref="558382634"/>
    <nd ref="558348699"/>
    <tag k="abutters" v="residential"/>
    <tag k="description" v="Modern housing development"/>
    <tag k="highway" v="residential"/>
    <tag k="is_in:village" v="Pool-in-Wharfedale"/>
    <tag k="name" v="Rowan Close"/>
    <tag k="oneway" v="no"/>
    <tag k="postal_code" v="LS21"/>
    <tag k="surface" v="paved"/>
  </way>
  <way id="43908580" version="1" timestamp="2009-11-06T15:24:24Z" changeset="3048761" uid="308" user="MichaelCollinson">
    <nd ref="558383525"/>
    <nd ref="558383541"/>
    <nd ref="558383559"/>
    <tag k="abutters" v="residential"/>
    <tag k="description" v="Modern housing development"/>
    <tag k="highway" v="residential"/>
    <tag k="is_in:village" v="Pool-in-Wharfedale"/>
    <tag k="lit" v="yes"/>
    <tag k="name" v="Bramble Court"/>
    <tag k="oneway" v="no"/>
    <tag k="postal_code" v="LS21"/>
    <tag k="surface" v="paved"/>
  </way>
  <way id="43909812" version="3" timestamp="2018-02-17T08:38:49Z" changeset="56434688" uid="3316592" user="Arthtoach">
    <nd ref="558419582"/>
    <nd ref="558419585"/>
    <nd ref="558419588"/>
    <nd ref="558419591"/>
    <nd ref="558419593"/>
    <nd ref="558419595"/>
    <nd ref="558419582"/>
    <tag k="building" v="terrace"/>
    <tag k="name" v="Wharfe View"/>
  </way>
  <way id="52105711" version="6" timestamp="2024-06-14T22:35:28Z" changeset="152700850" uid="1778799" user="SomeoneElse_Revert">
    <nd ref="27325317"/>
    <nd ref="664019302"/>
    <nd ref="664019304"/>
    <nd ref="664019305"/>
    <nd ref="27325317"/>
    <tag k="building" v="retail"/>
    <tag k="description" v="Agricultral and pet feed depot"/>
    <tag k="image" v="https://www.geograph.org.uk/photo/3051456"/>
    <tag k="name" v="The Blue Barn"/>
    <tag k="shop" v="pet"/>
    <tag k="source" v="OS 1:25k;survey;Bing"/>
    <tag k="website" v="https://thebluebarn.co.uk/"/>
  </way>
  <way id="52116089" version="2" timestamp="2010-12-08T09:28:02Z" changeset="6583019" uid="308" user="MichaelCollinson">
    <nd ref="664134066"/>
    <nd ref="664134067"/>
    <nd ref="664134068"/>
    <nd ref="664134069"/>
    <nd ref="664134070"/>
    <nd ref="664134071"/>
    <nd ref="664134066"/>
    <tag k="building" v="yes"/>
    <tag k="name" v="Torracks Hill"/>
    <tag k="source" v="OS 1:25k;Bing"/>
  </way>
  <way id="52116098" version="5" timestamp="2021-09-26T07:29:47Z" changeset="111709876" uid="308" user="MichaelCollinson">
    <nd ref="664134112"/>
    <nd ref="664134109"/>
    <nd ref="664134110"/>
    <nd ref="664134111"/>
    <nd ref="664134112"/>
    <tag k="building" v="yes"/>
    <tag k="name" v="Torracks Hill Cottage"/>
    <tag k="roof:shape" v="gabled"/>
    <tag k="source" v="OS 1:25k;Bing"/>
  </way>
  <way id="52116195" version="2" timestamp="2010-05-30T12:08:27Z" changeset="4850936" uid="308" user="MichaelCollinson">
    <nd ref="664135026"/>
    <nd ref="664135027"/>
    <nd ref="664135028"/>
    <nd ref="664135029"/>
    <nd ref="664135026"/>
    <tag k="building" v="residential"/>
    <tag k="name" v="Caley Lodge"/>
    <tag k="source" v="OS 1:25k"/>
  </way>
  <way id="61007214" version="4" timestamp="2021-08-14T18:19:36Z" changeset="109679323" uid="978739" user="jcowgill">
    <nd ref="763616192"/>
    <nd ref="8307072459"/>
    <nd ref="8307072460"/>
    <nd ref="763616193"/>
    <nd ref="763616194"/>
    <nd ref="2283267862"/>
    <nd ref="2283267665"/>
    <nd ref="763616195"/>
    <nd ref="763616192"/>
    <tag k="building" v="farm_auxiliary"/>
    <tag k="name" v="Ferndale Farm"/>
    <tag k="source" v="OS OpenData StreetView"/>
  </way>
  <way id="76228645" version="13" timestamp="2024-10-04T23:04:17Z" changeset="157480526" uid="111135" user="Pete Owens">
    <nd ref="1542506546"/>
    <nd ref="1542506541"/>
    <nd ref="1542506538"/>
    <nd ref="1542506534"/>
    <nd ref="1542506529"/>
    <nd ref="1542506614"/>
    <nd ref="1542506525"/>
    <nd ref="6210613245"/>
    <nd ref="765551971"/>
    <nd ref="1117307105"/>
    <nd ref="8316126303"/>
    <nd ref="8316126304"/>
    <nd ref="1542506503"/>
    <tag k="bicycle" v="yes"/>
    <tag k="cycleway:left" v="lane"/>
    <tag k="foot" v="yes"/>
    <tag k="highway" v="trunk"/>
    <tag k="incline" v="12%"/>
    <tag k="lanes" v="2"/>
    <tag k="lit" v="yes"/>
    <tag k="maxspeed" v="40 mph"/>
    <tag k="name" v="Pool Bank New Road"/>
    <tag k="ref" v="A658"/>
    <tag k="sidewalk" v="left"/>
    <tag k="source" v="GPS"/>
  </way>
  <way id="76228647" version="12" timestamp="2024-10-04T23:04:17Z" changeset="157480526" uid="111135" user="Pete Owens">
    <nd ref="21264652"/>
    <nd ref="1542532823"/>
    <nd ref="1542532821"/>
    <nd ref="1542532822"/>
    <nd ref="5417947571"/>
    <nd ref="21264654"/>
    <tag k="bicycle" v="yes"/>
    <tag k="highway" v="trunk"/>
    <tag k="lanes" v="2"/>
    <tag k="lit" v="yes"/>
    <tag k="maxspeed" v="30 mph"/>
    <tag k="name" v="Harrogate Road"/>
    <tag k="ref" v="A658"/>
    <tag k="sidewalk" v="both"/>
    <tag k="source" v="GPS"/>
  </way>
  <way id="76228664" version="8" timestamp="2024-10-04T23:04:17Z" changeset="157480526" uid="111135" user="Pete Owens">
    <nd ref="1542506571"/>
    <nd ref="765551968"/>
    <nd ref="1542506568"/>
    <nd ref="1542506565"/>
    <nd ref="1542506563"/>
    <nd ref="1542506560"/>
    <nd ref="1542506550"/>
    <nd ref="1542506546"/>
    <tag k="bicycle" v="yes"/>
    <tag k="cycleway:left" v="lane"/>
    <tag k="foot" v="yes"/>
    <tag k="highway" v="trunk"/>
    <tag k="incline" v="12%"/>
    <tag k="lanes" v="2"/>
    <tag k="lit" v="yes"/>
    <tag k="maxspeed" v="30 mph"/>
    <tag k="name" v="Pool Bank New Road"/>
    <tag k="ref" v="A658"/>
    <tag k="sidewalk" v="left"/>
    <tag k="source" v="GPS"/>
  </way>
  <way id="88517401" version="1" timestamp="2010-12-08T14:43:28Z" changeset="6585854" uid="308" user="MichaelCollinson">
    <nd ref="1028078438"/>
    <nd ref="1028078337"/>
    <tag k="abutters" v="residential"/>
    <tag k="description" v="Modern housing development"/>
    <tag k="highway" v="residential"/>
    <tag k="is_in:village" v="Pool-in-Wharfedale"/>
    <tag k="lit" v="yes"/>
    <tag k="name" v="Bramble Grove"/>
    <tag k="noexit" v="yes"/>
    <tag k="oneway" v="no"/>
    <tag k="postal_code" v="LS21"/>
  </way>
  <way id="88517405" version="5" timestamp="2017-05-03T06:48:13Z" changeset="48354795" uid="1778799" user="SomeoneElse_Revert">
    <nd ref="28256091"/>
    <nd ref="1028078358"/>
    <tag k="alt_name" v="Pool Bank Old Road"/>
    <tag k="bridge" v="yes"/>
    <tag k="highway" v="unclassified"/>
    <tag k="lit" v="no"/>
    <tag k="maxspeed" v="60 mph"/>
    <tag k="maxspeed:type" v="GB:nsl_single"/>
    <tag k="name" v="Old Pool Bank"/>
  </way>
  <way id="88517441" version="5" timestamp="2020-07-27T09:04:17Z" changeset="88553825" uid="308" user="MichaelCollinson">
    <nd ref="1028078358"/>
    <nd ref="558361107"/>
    <nd ref="28256089"/>
    <nd ref="28256084"/>
    <nd ref="28256079"/>
    <nd ref="28256075"/>
    <nd ref="2119541223"/>
    <nd ref="28256146"/>
    <tag k="alt_name" v="Pool Bank Old Road"/>
    <tag k="highway" v="unclassified"/>
    <tag k="lit" v="no"/>
    <tag k="maxspeed" v="60 mph"/>
    <tag k="maxspeed:type" v="GB:nsl_single"/>
    <tag k="name" v="Old Pool Bank"/>
    <tag k="source" v="survey"/>
    <tag k="surface" v="asphalt"/>
  </way>
  <way id="103541727" version="1" timestamp="2011-03-10T16:18:38Z" changeset="7515156" uid="308" user="MichaelCollinson">
    <nd ref="558375802"/>
    <nd ref="558375609"/>
    <tag k="abutters" v="residential"/>
    <tag k="description" v="Modern housing development"/>
    <tag k="highway" v="residential"/>
    <tag k="is_in:village" v="Pool-in-Wharfedale"/>
    <tag k="lit" v="yes"/>
    <tag k="name" v="Acorn Way"/>
    <tag k="oneway" v="no"/>
    <tag k="postal_code" v="LS21"/>
  </way>
  <way id="118791567" version="9" timestamp="2024-06-17T20:17:32Z" changeset="152818627" uid="20112387" user="Anton Khorev (repair)">
    <nd ref="1335385758"/>
    <nd ref="1335385876"/>
    <nd ref="1335385715"/>
    <nd ref="3287973861"/>
    <nd ref="3287973862"/>
    <nd ref="1335385838"/>
    <nd ref="1335385758"/>
    <tag k="amenity" v="place_of_worship"/>
    <tag k="building" v="church"/>
    <tag k="denomination" v="anglican"/>
    <tag k="name" v="St Wilfrid's"/>
    <tag k="religion" v="christian"/>
    <tag k="source" v="Bing;survey"/>
    <tag k="wikidata" v="Q26665526"/>
  </way>
  <way id="118791568" version="8" timestamp="2024-06-14T22:35:13Z" changeset="152700850" uid="1778799" user="SomeoneElse_Revert">
    <nd ref="1335385744"/>
    <nd ref="1335385650"/>
    <nd ref="1335385699"/>
    <nd ref="1335385807"/>
    <nd ref="11460554529"/>
    <nd ref="11460554528"/>
    <nd ref="11460554530"/>
    <nd ref="27348244"/>
    <nd ref="11460554531"/>
    <nd ref="11460554532"/>
    <nd ref="1335385744"/>
    <tag k="addr:city" v="Otley"/>
    <tag k="addr:postcode" v="LS21 1LH"/>
    <tag k="addr:street" v="Main Street"/>
    <tag k="brand" v="Go Local"/>
    <tag k="brand:wikidata" v="Q120634011"/>
    <tag k="building" v="yes"/>
    <tag k="fhrs:id" v="323587"/>
    <tag k="name" v="Go Local"/>
    <tag k="shop" v="convenience"/>
    <tag k="source" v="Bing"/>
  </way>
  <way id="118791574" version="2" timestamp="2021-01-12T17:58:37Z" changeset="97390318" uid="2800603" user="skifans">
    <nd ref="27348241"/>
    <nd ref="1335385649"/>
    <nd ref="1335385811"/>
    <nd ref="1335385782"/>
    <nd ref="1335385745"/>
    <nd ref="1335385753"/>
    <nd ref="27348241"/>
    <tag k="building" v="yes"/>
    <tag k="description" v="Row of terraced houses"/>
    <tag k="name" v="St Wilfreds Terrace"/>
    <tag k="source" v="Bing"/>
  </way>
  <way id="118791579" version="15" timestamp="2025-01-28T21:57:49Z" changeset="161875204" uid="11606276" user="matty817">
    <nd ref="1335385653"/>
    <nd ref="1335385675"/>
    <nd ref="1335385720"/>
    <nd ref="1335385795"/>
    <nd ref="1335385774"/>
    <nd ref="1335385750"/>
    <nd ref="1335385646"/>
    <nd ref="1335385760"/>
    <nd ref="1335385861"/>
    <nd ref="1335385772"/>
    <nd ref="1335385653"/>
    <tag k="addr:city" v="Otley"/>
    <tag k="addr:postcode" v="LS21 1LH"/>
    <tag k="addr:street" v="Main Street"/>
    <tag k="amenity" v="pub"/>
    <tag k="building" v="retail"/>
    <tag k="fhrs:id" v="320690"/>
    <tag k="name" v="The White Hart"/>
    <tag k="source" v="Bing"/>
    <tag k="toilets:wheelchair" v="yes"/>
    <tag k="website" v="https://www.thewhitehartpool.co.uk/home/"/>
    <tag k="wheelchair" v="yes"/>
    <tag k="wikidata" v="Q61924018"/>
    <tag k="wikimedia_commons" v="File:The White Hart Inn - geograph.org.uk - 1050603.jpg"/>
  </way>
  <way id="118792251" version="8" timestamp="2024-06-17T20:17:36Z" changeset="152818627" uid="20112387" user="Anton Khorev (repair)">
    <nd ref="6697250558"/>
    <nd ref="1335394191"/>
    <nd ref="1335394296"/>
    <nd ref="6697250565"/>
    <nd ref="6697250566"/>
    <nd ref="1335394253"/>
    <nd ref="1335394291"/>
    <nd ref="6697250557"/>
    <nd ref="1335394270"/>
    <nd ref="6697250559"/>
    <nd ref="6697250563"/>
    <nd ref="1335394193"/>
    <nd ref="1335394293"/>
    <nd ref="1335394123"/>
    <nd ref="1335394207"/>
    <nd ref="1335394288"/>
    <nd ref="1335394229"/>
    <nd ref="1335394196"/>
    <nd ref="1335394304"/>
    <nd ref="6697250564"/>
    <nd ref="6697250562"/>
    <nd ref="1335394315"/>
    <nd ref="1335394106"/>
    <nd ref="6697250561"/>
    <nd ref="6697250560"/>
    <nd ref="1335394198"/>
    <nd ref="6697250558"/>
    <tag k="addr:city" v="Otley"/>
    <tag k="addr:postcode" v="LS21 1QY"/>
    <tag k="addr:street" v="Main Street"/>
    <tag k="amenity" v="social_facility"/>
    <tag k="building" v="yes"/>
    <tag k="name" v="Wharfedale Court"/>
    <tag k="operator" v="Leeds City Council"/>
    <tag k="social_facility" v="assisted_living"/>
    <tag k="social_facility:for" v="senior"/>
    <tag k="source" v="Bing"/>
  </way>
  <way id="118792262" version="13" timestamp="2024-06-17T20:17:28Z" changeset="152818627" uid="20112387" user="Anton Khorev (repair)">
    <nd ref="1335394160"/>
    <nd ref="1335394115"/>
    <nd ref="1335394316"/>
    <nd ref="1335394132"/>
    <nd ref="1335394160"/>
    <tag k="addr:city" v="Otley"/>
    <tag k="addr:postcode" v="LS21 1EQ"/>
    <tag k="amenity" v="fuel"/>
    <tag k="brand" v="Shell"/>
    <tag k="brand:wikidata" v="Q110716465"/>
    <tag k="brand:wikipedia" v="en:Royal Dutch Shell"/>
    <tag k="building" v="yes"/>
    <tag k="fhrs:id" v="320870"/>
    <tag k="name" v="Shell"/>
    <tag k="opening_hours" v="Mo-Sa 07:00-22:00; Su 08:00-22:00"/>
    <tag k="phone" v="+44 113 202 7910"/>
    <tag k="ref:navads" v="NVDS353_10019338"/>
    <tag k="source" v="Bing"/>
    <tag k="website" v="https://find.shell.com/gb/fuel/10019338-shell-pool-bridge"/>
  </way>
  <way id="118792264" version="2" timestamp="2021-01-12T17:58:37Z" changeset="97390318" uid="2800603" user="skifans">
    <nd ref="27348236"/>
    <nd ref="1335394173"/>
    <nd ref="1335394158"/>
    <nd ref="1335394127"/>
    <nd ref="27348236"/>
    <tag k="building" v="yes"/>
    <tag k="description" v="Row of terraced houses"/>
    <tag k="name" v="Chevin View"/>
    <tag k="source" v="Bing"/>
  </way>
  <way id="123766035" version="8" timestamp="2024-11-02T00:03:30Z" changeset="158641359" uid="5229644" user="Nathan_A_RF">
    <nd ref="1038283235"/>
    <nd ref="7621866307"/>
    <nd ref="1542506449"/>
    <nd ref="1610640467"/>
    <nd ref="1542506452"/>
    <nd ref="8951046567"/>
    <nd ref="1542506455"/>
    <nd ref="8951046568"/>
    <nd ref="534436474"/>
    <nd ref="1542506459"/>
    <nd ref="29063943"/>
    <nd ref="29059184"/>
    <nd ref="28256141"/>
    <nd ref="664021021"/>
    <nd ref="1542506477"/>
    <nd ref="305465264"/>
    <nd ref="305465262"/>
    <nd ref="1542506482"/>
    <nd ref="1542506484"/>
    <nd ref="1542506488"/>
    <nd ref="1542506491"/>
    <nd ref="305465267"/>
    <nd ref="1542506495"/>
    <nd ref="1542506500"/>
    <nd ref="305465268"/>
    <nd ref="305465258"/>
    <nd ref="8951046566"/>
    <nd ref="6766148235"/>
    <nd ref="534438096"/>
    <tag k="highway" v="trunk"/>
    <tag k="lit" v="yes"/>
    <tag k="maxspeed" v="40 mph"/>
    <tag k="name" v="Leeds Road"/>
    <tag k="ref" v="A660"/>
    <tag k="smoothness" v="good"/>
    <tag k="smoothness:date" v="2019-07-01"/>
    <tag k="source" v="GPS"/>
  </way>
  <way id="123766046" version="6" timestamp="2024-01-14T21:28:10Z" changeset="146259623" uid="7666952" user="phodgkin">
    <nd ref="534438096"/>
    <nd ref="1542506508"/>
    <nd ref="1379104208"/>
    <nd ref="8951046561"/>
    <nd ref="8951046560"/>
    <nd ref="11621598"/>
    <tag k="bicycle" v="yes"/>
    <tag k="destination:backward" v="Otley;Skipton"/>
    <tag k="highway" v="trunk"/>
    <tag k="lit" v="yes"/>
    <tag k="maxspeed" v="40 mph"/>
    <tag k="name" v="Leeds Road"/>
    <tag k="ref" v="A660"/>
    <tag k="sidewalk" v="no"/>
    <tag k="smoothness" v="good"/>
    <tag k="smoothness:date" v="2019-07-01"/>
    <tag k="source" v="GPS"/>
    <tag k="surface" v="asphalt"/>
  </way>
  <way id="140878977" version="2" timestamp="2018-02-17T08:54:59Z" changeset="56434957" uid="3316592" user="Arthtoach">
    <nd ref="1542506621"/>
    <nd ref="1542506641"/>
    <nd ref="1542506637"/>
    <nd ref="1542506672"/>
    <nd ref="1542506621"/>
    <tag k="building" v="house"/>
    <tag k="name" v="Firs Hill Court"/>
    <tag k="source" v="Bing;survey"/>
  </way>
  <way id="140878991" version="11" timestamp="2024-10-04T23:04:17Z" changeset="157480526" uid="111135" user="Pete Owens">
    <nd ref="558350636"/>
    <nd ref="8316126296"/>
    <nd ref="1542506700"/>
    <nd ref="8316126295"/>
    <nd ref="558360032"/>
    <nd ref="4471624342"/>
    <nd ref="534437891"/>
    <nd ref="1542506647"/>
    <nd ref="1542506644"/>
    <nd ref="1542506616"/>
    <nd ref="319617428"/>
    <nd ref="6210613244"/>
    <nd ref="1542506586"/>
    <nd ref="1542506601"/>
    <nd ref="1542506582"/>
    <nd ref="1542506574"/>
    <nd ref="1542506571"/>
    <tag k="bicycle" v="yes"/>
    <tag k="cycleway:left" v="lane"/>
    <tag k="foot" v="yes"/>
    <tag k="highway" v="trunk"/>
    <tag k="incline" v="12.5%"/>
    <tag k="lanes" v="2"/>
    <tag k="lit" v="yes"/>
    <tag k="maxspeed" v="30 mph"/>
    <tag k="name" v="Pool Bank New Road"/>
    <tag k="ref" v="A658"/>
    <tag k="sidewalk" v="left"/>
    <tag k="source" v="GPS"/>
  </way>
  <way id="140881112" version="20" timestamp="2024-10-04T23:04:17Z" changeset="157480526" uid="111135" user="Pete Owens">
    <nd ref="21264652"/>
    <nd ref="6541264661"/>
    <nd ref="8316126250"/>
    <nd ref="27338377"/>
    <nd ref="8316126251"/>
    <nd ref="1542532842"/>
    <nd ref="27338368"/>
    <nd ref="4168203562"/>
    <nd ref="27338362"/>
    <nd ref="1542532840"/>
    <nd ref="27338364"/>
    <nd ref="1542532839"/>
    <nd ref="1542532838"/>
    <nd ref="1542532837"/>
    <nd ref="1542532835"/>
    <nd ref="8316126288"/>
    <nd ref="7962658009"/>
    <nd ref="2161729201"/>
    <nd ref="1542532836"/>
    <nd ref="8316126268"/>
    <nd ref="8316126287"/>
    <nd ref="558334973"/>
    <nd ref="7962657999"/>
    <nd ref="2161729180"/>
    <tag k="abutters" v="residential"/>
    <tag k="bicycle" v="yes"/>
    <tag k="destination:backward" v="Otley;Harrogate;Skipton"/>
    <tag k="highway" v="trunk"/>
    <tag k="lanes" v="2"/>
    <tag k="lit" v="yes"/>
    <tag k="maxspeed" v="20 mph"/>
    <tag k="name" v="Main Street"/>
    <tag k="ref" v="A658"/>
    <tag k="sidewalk" v="both"/>
    <tag k="source" v="GPS"/>
  </way>
  <way id="140883782" version="1" timestamp="2011-12-12T14:48:32Z" changeset="10099231" uid="308" user="MichaelCollinson">
    <nd ref="21264640"/>
    <nd ref="1335385660"/>
    <nd ref="1335385711"/>
    <nd ref="21264646"/>
    <tag k="highway" v="primary"/>
    <tag k="is_in:country_code" v="GB"/>
    <tag k="is_in:county" v="West Yorkshire"/>
    <tag k="is_in:town" v="Otley"/>
    <tag k="maxspeed" v="30 mph"/>
    <tag k="name" v="Pool Road"/>
    <tag k="ref" v="A659"/>
  </way>
  <way id="186281390" version="12" timestamp="2021-06-21T14:51:18Z" changeset="106722713" uid="11558580" user="jaabhil">
    <nd ref="27348281"/>
    <nd ref="8232503173"/>
    <nd ref="759309172"/>
    <nd ref="718505498"/>
    <nd ref="21436335"/>
    <nd ref="1126271666"/>
    <nd ref="21436336"/>
    <nd ref="1126271672"/>
    <nd ref="21436337"/>
    <nd ref="534418359"/>
    <nd ref="21436338"/>
    <nd ref="21436339"/>
    <nd ref="765549096"/>
    <nd ref="7626825802"/>
    <nd ref="534420181"/>
    <nd ref="765549190"/>
    <nd ref="765549193"/>
    <nd ref="21436343"/>
    <nd ref="5435765478"/>
    <nd ref="32884034"/>
    <nd ref="21436344"/>
    <nd ref="718544551"/>
    <nd ref="21436345"/>
    <nd ref="765548670"/>
    <nd ref="21436346"/>
    <nd ref="21436347"/>
    <nd ref="3370797550"/>
    <nd ref="21436348"/>
    <nd ref="21436349"/>
    <nd ref="21436350"/>
    <nd ref="5771504166"/>
    <nd ref="534397322"/>
    <nd ref="21436351"/>
    <nd ref="2043539368"/>
    <nd ref="21436352"/>
    <nd ref="8303410149"/>
    <nd ref="8303410148"/>
    <nd ref="5771504176"/>
    <nd ref="2043539142"/>
    <nd ref="2043539202"/>
    <nd ref="5771504160"/>
    <nd ref="21436353"/>
    <nd ref="2043539108"/>
    <nd ref="5771504186"/>
    <nd ref="765548223"/>
    <nd ref="765548230"/>
    <nd ref="21436354"/>
    <nd ref="2043539416"/>
    <nd ref="5771504194"/>
    <nd ref="2043539170"/>
    <nd ref="21436355"/>
    <nd ref="2043539144"/>
    <nd ref="5771504213"/>
    <nd ref="60631224"/>
    <nd ref="21436356"/>
    <nd ref="5771504161"/>
    <nd ref="7941917607"/>
    <nd ref="21436357"/>
    <nd ref="534249288"/>
    <nd ref="21436358"/>
    <nd ref="21436359"/>
    <nd ref="8853174571"/>
    <nd ref="3370797543"/>
    <nd ref="21436360"/>
    <nd ref="3370797551"/>
    <nd ref="1969627916"/>
    <tag k="highway" v="primary"/>
    <tag k="lanes" v="2"/>
    <tag k="maxspeed" v="40 mph"/>
    <tag k="name" v="Arthington Lane"/>
    <tag k="ref" v="A659"/>
    <tag k="source" v="GPS"/>
  </way>
  <way id="186285441" version="5" timestamp="2021-01-12T17:58:37Z" changeset="97390318" uid="2800603" user="skifans">
    <nd ref="20939910"/>
    <nd ref="6210613239"/>
    <nd ref="1022036937"/>
    <nd ref="20939911"/>
    <nd ref="6210613240"/>
    <nd ref="20939912"/>
    <nd ref="6210613241"/>
    <nd ref="8316122000"/>
    <nd ref="8316122001"/>
    <nd ref="20939914"/>
    <nd ref="8316121991"/>
    <nd ref="1542564673"/>
    <nd ref="557973229"/>
    <nd ref="1542564682"/>
    <nd ref="1542564679"/>
    <nd ref="1542564658"/>
    <nd ref="1015824392"/>
    <nd ref="1542564665"/>
    <nd ref="1542564662"/>
    <nd ref="1330980344"/>
    <nd ref="1542564680"/>
    <nd ref="1015824464"/>
    <nd ref="7500785989"/>
    <nd ref="430172585"/>
    <nd ref="20939919"/>
    <nd ref="20939920"/>
    <nd ref="27325314"/>
    <nd ref="1015824312"/>
    <nd ref="1542564669"/>
    <nd ref="1542564635"/>
    <nd ref="1015823899"/>
    <nd ref="1542564634"/>
    <nd ref="1542564859"/>
    <nd ref="20939923"/>
    <nd ref="1542564855"/>
    <nd ref="20939924"/>
    <nd ref="8316122002"/>
    <nd ref="8316122003"/>
    <nd ref="27325315"/>
    <nd ref="6210613242"/>
    <nd ref="1542565083"/>
    <nd ref="1542564684"/>
    <nd ref="1542565041"/>
    <nd ref="1542565035"/>
    <nd ref="21264610"/>
    <nd ref="1542565025"/>
    <nd ref="1027843387"/>
    <nd ref="1542565024"/>
    <nd ref="1027843409"/>
    <nd ref="1542565021"/>
    <nd ref="21264612"/>
    <nd ref="1969677933"/>
    <tag k="highway" v="primary"/>
    <tag k="is_in:country_code" v="GB"/>
    <tag k="is_in:county" v="West Yorkshire"/>
    <tag k="is_in:town" v="Otley"/>
    <tag k="maxspeed" v="60 mph"/>
    <tag k="name" v="Pool Road"/>
    <tag k="ref" v="A659"/>
  </way>
  <way id="186286389" version="4" timestamp="2021-01-17T01:12:17Z" changeset="97623966" uid="2800603" user="skifans">
    <nd ref="1969677933"/>
    <nd ref="21264616"/>
    <nd ref="1027843381"/>
    <nd ref="1542565015"/>
    <nd ref="1542565011"/>
    <nd ref="27325318"/>
    <nd ref="411718883"/>
    <nd ref="1542564982"/>
    <nd ref="1542564987"/>
    <nd ref="8329237644"/>
    <nd ref="8329237627"/>
    <nd ref="8316126227"/>
    <nd ref="8316126228"/>
    <nd ref="1027867938"/>
    <nd ref="8316126224"/>
    <nd ref="6590103088"/>
    <nd ref="759312755"/>
    <nd ref="21264635"/>
    <nd ref="1335385852"/>
    <nd ref="21264638"/>
    <nd ref="1335385974"/>
    <nd ref="664019630"/>
    <nd ref="1335385643"/>
    <nd ref="21264643"/>
    <nd ref="1335385702"/>
    <nd ref="21264640"/>
    <tag k="highway" v="primary"/>
    <tag k="is_in:country_code" v="GB"/>
    <tag k="is_in:county" v="West Yorkshire"/>
    <tag k="is_in:town" v="Otley"/>
    <tag k="maxspeed" v="40 mph"/>
    <tag k="name" v="Pool Road"/>
    <tag k="ref" v="A659"/>
  </way>
  <way id="188066588" version="4" timestamp="2014-08-18T12:45:51Z" changeset="24831561" uid="145231" user="woodpeck_repair">
    <nd ref="27338268"/>
    <nd ref="27338364"/>
    <tag k="abutters" v="residential"/>
    <tag k="highway" v="residential"/>
    <tag k="is_in" v="Pool In Wharfedale, UK"/>
    <tag k="name" v="Church Close"/>
    <tag k="note" v="This stretch of road to Church Garth is signed as Church Close despite it not being connected to the other bits of Church Close"/>
  </way>
  <way id="188066589" version="1" timestamp="2012-10-28T13:24:06Z" changeset="13661114" uid="106831" user="sc71">
    <nd ref="27338265"/>
    <nd ref="27338266"/>
    <nd ref="27338268"/>
    <tag k="abutters" v="residential"/>
    <tag k="highway" v="unclassified"/>
    <tag k="is_in" v="Pool In Wharfedale, UK"/>
    <tag k="name" v="Church Lane"/>
  </way>
  <way id="201954206" version="2" timestamp="2023-01-23T13:46:16Z" changeset="131608750" uid="387349" user="indofraiser">
    <nd ref="430173165"/>
    <nd ref="2119541739"/>
    <nd ref="2119541745"/>
    <tag k="access" v="private"/>
    <tag k="highway" v="residential"/>
    <tag k="name" v="Caley Hall"/>
    <tag k="source" v="Bing;local knowledge"/>
  </way>
  <way id="201954208" version="3" timestamp="2021-01-12T17:58:37Z" changeset="97390318" uid="2800603" user="skifans">
    <nd ref="2119541461"/>
    <nd ref="2119541339"/>
    <nd ref="2119541389"/>
    <nd ref="2119541735"/>
    <nd ref="2119541320"/>
    <nd ref="2119541606"/>
    <nd ref="8316126290"/>
    <nd ref="2119541226"/>
    <nd ref="2119541223"/>
    <tag k="highway" v="residential"/>
    <tag k="source" v="Bing"/>
  </way>
  <way id="201956734" version="4" timestamp="2020-06-15T17:43:50Z" changeset="86681899" uid="308" user="MichaelCollinson">
    <nd ref="2119571779"/>
    <nd ref="2119571898"/>
    <nd ref="2119571772"/>
    <nd ref="2119571923"/>
    <nd ref="2119571779"/>
    <tag k="building" v="terrace"/>
    <tag k="building:levels" v="2"/>
    <tag k="building:material" v="sand_stone"/>
    <tag k="name" v="Cragg View"/>
    <tag k="roof:shape" v="gabled"/>
    <tag k="source" v="Bing;survey"/>
  </way>
  <way id="214795175" version="8" timestamp="2024-11-02T00:03:30Z" changeset="158641359" uid="5229644" user="Nathan_A_RF">
    <nd ref="1542506743"/>
    <nd ref="5119758192"/>
    <nd ref="5119758191"/>
    <nd ref="759296793"/>
    <nd ref="664141001"/>
    <nd ref="1056427940"/>
    <nd ref="1542506349"/>
    <nd ref="1542506354"/>
    <nd ref="1542506358"/>
    <nd ref="1542506361"/>
    <nd ref="1056427943"/>
    <nd ref="1542506364"/>
    <nd ref="1542506366"/>
    <nd ref="1542506370"/>
    <nd ref="2283267648"/>
    <nd ref="763615683"/>
    <nd ref="1542506383"/>
    <nd ref="1542506611"/>
    <nd ref="1056427950"/>
    <nd ref="20993737"/>
    <nd ref="1038283367"/>
    <tag k="highway" v="trunk"/>
    <tag k="lanes" v="3"/>
    <tag k="lanes:forward" v="2"/>
    <tag k="lit" v="yes"/>
    <tag k="maxspeed" v="60 mph"/>
    <tag k="maxspeed:type" v="GB:nsl_single"/>
    <tag k="name" v="Leeds Road"/>
    <tag k="ref" v="A660"/>
    <tag k="sidewalk" v="left"/>
    <tag k="smoothness" v="good"/>
    <tag k="smoothness:date" v="2019-07-01"/>
    <tag k="source" v="GPS"/>
  </way>
  <way id="214795176" version="6" timestamp="2024-11-02T00:03:30Z" changeset="158641359" uid="5229644" user="Nathan_A_RF">
    <nd ref="1038283367"/>
    <nd ref="3370797562"/>
    <nd ref="664131335"/>
    <nd ref="1056427955"/>
    <nd ref="1542506386"/>
    <nd ref="2283267735"/>
    <nd ref="7864342860"/>
    <nd ref="1056427960"/>
    <nd ref="7864342861"/>
    <nd ref="7864342862"/>
    <nd ref="21015467"/>
    <nd ref="1056427978"/>
    <nd ref="1038283235"/>
    <tag k="highway" v="trunk"/>
    <tag k="lit" v="yes"/>
    <tag k="maxspeed" v="60 mph"/>
    <tag k="maxspeed:type" v="GB:nsl_single"/>
    <tag k="name" v="Leeds Road"/>
    <tag k="ref" v="A660"/>
    <tag k="sidewalk" v="left"/>
    <tag k="smoothness" v="good"/>
    <tag k="smoothness:date" v="2019-07-01"/>
    <tag k="source" v="GPS"/>
  </way>
  <way id="219126096" version="2" timestamp="2020-08-04T15:16:49Z" changeset="88936754" uid="308" user="MichaelCollinson">
    <nd ref="2283267739"/>
    <nd ref="2283267800"/>
    <nd ref="2283267778"/>
    <nd ref="2283267686"/>
    <nd ref="2283267739"/>
    <tag k="building" v="house"/>
    <tag k="name" v="Ferndale Farm"/>
    <tag k="source" v="Bing"/>
  </way>
  <way id="322037779" version="8" timestamp="2024-06-16T09:33:44Z" changeset="152752393" uid="10364561" user="TrekClimbing">
    <nd ref="27348279"/>
    <nd ref="3287967996"/>
    <nd ref="3287968002"/>
    <nd ref="3287967984"/>
    <nd ref="3287967994"/>
    <nd ref="3287967999"/>
    <nd ref="11985104324"/>
    <nd ref="3287967976"/>
    <nd ref="3287967972"/>
    <nd ref="27348279"/>
    <tag k="addr:city" v="Otley"/>
    <tag k="addr:housename" v="Memorial Hall"/>
    <tag k="addr:postcode" v="LS21 1LG"/>
    <tag k="addr:street" v="Arthington Lane"/>
    <tag k="amenity" v="community_centre"/>
    <tag k="building" v="public"/>
    <tag k="community_centre" v="village_hall"/>
    <tag k="fhrs:id" v="320692"/>
    <tag k="name" v="Pool Sports and Social Club &amp; Village Hall"/>
  </way>
  <way id="450092763" version="2" timestamp="2025-01-03T03:11:31Z" changeset="160932819" uid="493595" user="Yorvik Prestigitator">
    <nd ref="4470153246"/>
    <nd ref="4470153254"/>
    <nd ref="4470153249"/>
    <nd ref="4470153221"/>
    <nd ref="4470153224"/>
    <nd ref="1038283181"/>
    <nd ref="1038283149"/>
    <nd ref="4470153230"/>
    <nd ref="4470153231"/>
    <nd ref="4470153257"/>
    <nd ref="4470153246"/>
    <tag k="addr:street" v="Quarry Farm Road"/>
    <tag k="amenity" v="community_centre"/>
    <tag k="building" v="public"/>
    <tag k="community_centre" v="village_hall"/>
    <tag k="name" v="Old Pool Bank Village Hall"/>
    <tag k="source" v="Bing"/>
  </way>
  <way id="450092776" version="3" timestamp="2020-08-04T15:16:49Z" changeset="88936754" uid="308" user="MichaelCollinson">
    <nd ref="5417930870"/>
    <nd ref="4470153202"/>
    <nd ref="4470153208"/>
    <nd ref="4470153209"/>
    <nd ref="4470153213"/>
    <nd ref="4470153238"/>
    <nd ref="4470153234"/>
    <nd ref="4470153239"/>
    <nd ref="5417930870"/>
    <tag k="building" v="house"/>
    <tag k="name" v="Quarry Farm House"/>
  </way>
  <way id="450239195" version="1" timestamp="2016-10-30T17:12:06Z" changeset="43287731" uid="3316592" user="Arthtoach">
    <nd ref="4471625542"/>
    <nd ref="4471625546"/>
    <nd ref="4471625535"/>
    <nd ref="4471625537"/>
    <nd ref="4471625504"/>
    <nd ref="4471625503"/>
    <nd ref="4471625521"/>
    <nd ref="4471625516"/>
    <nd ref="4471625542"/>
    <tag k="addr:city" v="Pool-in-Wharfedale"/>
    <tag k="addr:country" v="GB"/>
    <tag k="addr:housenumber" v="1"/>
    <tag k="addr:street" v="Pool Bank Close"/>
    <tag k="building" v="house"/>
  </way>
  <way id="450239196" version="1" timestamp="2016-10-30T17:12:06Z" changeset="43287731" uid="3316592" user="Arthtoach">
    <nd ref="4471625543"/>
    <nd ref="4471625553"/>
    <nd ref="4471625551"/>
    <nd ref="4471625529"/>
    <nd ref="4471625533"/>
    <nd ref="4471625511"/>
    <nd ref="4471625515"/>
    <nd ref="4471625544"/>
    <nd ref="4471625543"/>
    <tag k="addr:city" v="Pool-in-Wharfedale"/>
    <tag k="addr:country" v="GB"/>
    <tag k="addr:housenumber" v="2"/>
    <tag k="addr:street" v="Pool Bank Close"/>
    <tag k="building" v="house"/>
  </way>
  <way id="450239197" version="1" timestamp="2016-10-30T17:12:06Z" changeset="43287731" uid="3316592" user="Arthtoach">
    <nd ref="4471625530"/>
    <nd ref="4471625549"/>
    <nd ref="4471625547"/>
    <nd ref="4471625554"/>
    <nd ref="4471625538"/>
    <nd ref="4471625510"/>
    <nd ref="4471625539"/>
    <nd ref="4471625520"/>
    <nd ref="4471625530"/>
    <tag k="addr:city" v="Pool-in-Wharfedale"/>
    <tag k="addr:country" v="GB"/>
    <tag k="addr:housenumber" v="3"/>
    <tag k="addr:street" v="Pool Bank Close"/>
    <tag k="building" v="house"/>
  </way>
  <way id="450239198" version="2" timestamp="2024-01-14T21:28:10Z" changeset="146259623" uid="7666952" user="phodgkin">
    <nd ref="4471625391"/>
    <nd ref="4471625328"/>
    <nd ref="4471625422"/>
    <nd ref="4471625450"/>
    <nd ref="4471625419"/>
    <nd ref="4471625445"/>
    <nd ref="4471625391"/>
    <tag k="addr:city" v="Pool-in-Wharfedale"/>
    <tag k="addr:country" v="GB"/>
    <tag k="addr:housenumber" v="4"/>
    <tag k="addr:street" v="Pool Bank Close"/>
    <tag k="building" v="house"/>
  </way>
  <way id="450239199" version="2" timestamp="2024-01-14T21:28:10Z" changeset="146259623" uid="7666952" user="phodgkin">
    <nd ref="4471625395"/>
    <nd ref="4471625413"/>
    <nd ref="4471625347"/>
    <nd ref="4471625319"/>
    <nd ref="4471625374"/>
    <nd ref="4471625434"/>
    <nd ref="4471625443"/>
    <nd ref="4471625395"/>
    <tag k="addr:city" v="Pool-in-Wharfedale"/>
    <tag k="addr:country" v="GB"/>
    <tag k="addr:housenumber" v="5"/>
    <tag k="addr:street" v="Pool Bank Close"/>
    <tag k="building" v="house"/>
  </way>
  <way id="450239200" version="1" timestamp="2016-10-30T17:12:06Z" changeset="43287731" uid="3316592" user="Arthtoach">
    <nd ref="4471625390"/>
    <nd ref="4471625444"/>
    <nd ref="4471625448"/>
    <nd ref="4471625399"/>
    <nd ref="4471625402"/>
    <nd ref="4471625329"/>
    <nd ref="4471625308"/>
    <nd ref="4471625377"/>
    <nd ref="4471625390"/>
    <tag k="addr:city" v="Pool-in-Wharfedale"/>
    <tag k="addr:country" v="GB"/>
    <tag k="addr:housenumber" v="6"/>
    <tag k="addr:street" v="Pool Bank Close"/>
    <tag k="building" v="house"/>
  </way>
  <way id="850409862" version="1" timestamp="2020-09-23T08:27:27Z" changeset="91349364" uid="10170571" user="pendotm">
    <nd ref="27348200"/>
    <nd ref="7933802283"/>
    <tag k="highway" v="residential"/>
  </way>
  <way id="850409864" version="1" timestamp="2020-09-23T08:27:27Z" changeset="91349364" uid="10170571" user="pendotm">
    <nd ref="27348209"/>
    <nd ref="7933803887"/>
    <tag k="highway" v="residential"/>
  </way>
  <way id="894654509" version="3" timestamp="2024-10-04T23:04:17Z" changeset="157480526" uid="111135" user="Pete Owens">
    <nd ref="21264654"/>
    <nd ref="11406227614"/>
    <nd ref="2722943176"/>
    <nd ref="558332662"/>
    <tag k="bicycle" v="yes"/>
    <tag k="highway" v="trunk"/>
    <tag k="lanes" v="2"/>
    <tag k="lit" v="yes"/>
    <tag k="maxspeed" v="30 mph"/>
    <tag k="name" v="Harrogate Road"/>
    <tag k="ref" v="A658"/>
    <tag k="sidewalk" v="both"/>
    <tag k="source" v="GPS"/>
  </way>
  <way id="1053653489" version="5" timestamp="2024-10-04T23:04:17Z" changeset="157480526" uid="111135" user="Pete Owens">
    <nd ref="2161729180"/>
    <nd ref="2161729199"/>
    <nd ref="1542506764"/>
    <nd ref="10874898349"/>
    <nd ref="1542506747"/>
    <nd ref="1542506745"/>
    <nd ref="558339760"/>
    <nd ref="1542506716"/>
    <nd ref="28256146"/>
    <nd ref="558348795"/>
    <nd ref="1542506702"/>
    <nd ref="3287967978"/>
    <nd ref="8316126294"/>
    <nd ref="1542506727"/>
    <nd ref="3287967969"/>
    <nd ref="1542506714"/>
    <nd ref="558350636"/>
    <tag k="bicycle" v="yes"/>
    <tag k="destination:forward" v="Yeadon;Bradford;Leeds"/>
    <tag k="foot" v="yes"/>
    <tag k="highway" v="trunk"/>
    <tag k="incline" v="12.5%"/>
    <tag k="lanes" v="2"/>
    <tag k="lit" v="yes"/>
    <tag k="maxspeed" v="30 mph"/>
    <tag k="name" v="Pool Bank New Road"/>
    <tag k="ref" v="A658"/>
    <tag k="sidewalk" v="left"/>
    <tag k="source" v="GPS"/>
  </way>

</osm>
