<?xml version="1.0" encoding="UTF-8"?>
<osm version="0.6" generator="Overpass API 0.7.62.5 1bd436f1">
<note>The data included in this document is from www.openstreetmap.org. The data is made available under ODbL.</note>
<meta osm_base="2025-05-18T05:46:15Z" areas="2024-12-31T00:49:33Z"/>

  <node id="6928239" lat="50.1069104" lon="14.5878994" version="6" timestamp="2019-10-14T04:45:22Z" changeset="75641088" uid="619262" user="Petr Slav칤캜ek"/>
  <node id="112198216" lat="50.1100594" lon="14.5826471" version="8" timestamp="2025-04-07T23:45:42Z" changeset="164656026" uid="4018695" user="游뻟릖 Roman Horn칤k"/>
  <node id="278459482" lat="50.1085844" lon="14.5712520" version="6" timestamp="2025-04-07T23:45:42Z" changeset="164656026" uid="4018695" user="游뻟릖 Roman Horn칤k"/>
  <node id="320982455" lat="50.1060028" lon="14.5568832" version="15" timestamp="2025-05-10T13:46:16Z" changeset="166070402" uid="22579301" user="Fangcz">
    <tag k="bicycle" v="yes"/>
    <tag k="button_operated" v="yes"/>
    <tag k="crossing" v="traffic_signals"/>
    <tag k="crossing:island" v="no"/>
    <tag k="crossing_ref" v="toucan"/>
    <tag k="highway" v="crossing"/>
    <tag k="kerb" v="lowered"/>
    <tag k="segregated" v="yes"/>
    <tag k="tactile_paving" v="yes"/>
    <tag k="traffic_signals:sound" v="no"/>
    <tag k="traffic_signals:vibration" v="no"/>
  </node>
  <node id="470818941" lat="50.1027705" lon="14.5563712" version="6" timestamp="2012-07-27T17:51:25Z" changeset="12514569" uid="527259" user="Vratislav Filler">
    <tag k="crossing" v="traffic_signals"/>
    <tag k="highway" v="crossing"/>
  </node>
  <node id="473497530" lat="50.1081164" lon="14.5745950" version="3" timestamp="2022-09-19T09:47:33Z" changeset="126363299" uid="8971394" user="vojtechzaboril"/>
  <node id="1134883808" lat="50.1005925" lon="14.5879148" version="4" timestamp="2021-02-18T18:58:08Z" changeset="99543874" uid="11276832" user="HaPe-CZ"/>
  <node id="1141156174" lat="50.1100720" lon="14.5847507" version="3" timestamp="2019-12-22T17:27:20Z" changeset="78739901" uid="8971394" user="vojtechzaboril"/>
  <node id="1374570661" lat="50.1065326" lon="14.5574115" version="2" timestamp="2020-07-31T20:12:43Z" changeset="88797332" uid="1189910" user="Milancer"/>
  <node id="1410764406" lat="50.1018584" lon="14.5564988" version="1" timestamp="2011-08-24T06:01:27Z" changeset="9109355" uid="8007" user="vrabcak"/>
  <node id="3373731558" lat="50.1013468" lon="14.5860575" version="5" timestamp="2021-02-15T16:42:25Z" changeset="99322970" uid="11276832" user="HaPe-CZ">
    <tag k="name" v="Praha"/>
    <tag k="side" v="both"/>
    <tag k="traffic_sign" v="city_limit"/>
    <tag k="traffic_sign:forward" v="CZ:IZ1a"/>
  </node>
  <node id="4812323086" lat="50.1004340" lon="14.5880788" version="3" timestamp="2021-02-18T18:58:08Z" changeset="99543874" uid="11276832" user="HaPe-CZ"/>
  <node id="7581334883" lat="50.1039886" lon="14.5569926" version="1" timestamp="2020-06-02T21:40:02Z" changeset="86099351" uid="1833010" user="M a r k u s"/>
  <node id="8410083768" lat="50.1084654" lon="14.5733242" version="1" timestamp="2021-02-09T21:30:36Z" changeset="99000925" uid="11276832" user="HaPe-CZ"/>
  <node id="8418239281" lat="50.1065740" lon="14.5562609" version="3" timestamp="2024-08-31T13:24:16Z" changeset="156015076" uid="8971394" user="vojtechzaboril"/>
  <way id="4052076" version="9" timestamp="2023-07-22T12:29:32Z" changeset="138851977" uid="6588887" user="Martin2035">
    <nd ref="251239"/>
    <nd ref="858360775"/>
    <nd ref="1298231066"/>
    <nd ref="912796014"/>
    <nd ref="912795935"/>
    <nd ref="251240"/>
    <tag k="highway" v="residential"/>
    <tag k="lanes" v="1"/>
    <tag k="maxspeed" v="30"/>
    <tag k="maxspeed:type" v="CZ:zone30"/>
    <tag k="name" v="Rone코ova"/>
    <tag k="oneway" v="yes"/>
    <tag k="source:name" v="nameit/uir-adr"/>
    <tag k="surface" v="asphalt"/>
    <tag k="zone:maxspeed" v="30"/>
  </way>
  <way id="4052342" version="11" timestamp="2024-08-29T15:28:46Z" changeset="155934519" uid="10203836" user="ZajZeb">
    <nd ref="7307351"/>
    <nd ref="746958093"/>
    <nd ref="2093486591"/>
    <nd ref="8048970686"/>
    <nd ref="8048970689"/>
    <nd ref="6677969761"/>
    <nd ref="1397730472"/>
    <nd ref="25610737"/>
    <nd ref="1397730468"/>
    <nd ref="1397730460"/>
    <nd ref="25610768"/>
    <tag k="highway" v="residential"/>
    <tag k="name" v="Bryksova"/>
    <tag k="source:name" v="nameit/uir-adr"/>
    <tag k="surface" v="asphalt"/>
  </way>
  <way id="4084384" version="13" timestamp="2023-07-22T12:29:32Z" changeset="138851977" uid="6588887" user="Martin2035">
    <nd ref="21688009"/>
    <nd ref="1298231187"/>
    <nd ref="49338303"/>
    <nd ref="2205488480"/>
    <tag k="foot" v="yes"/>
    <tag k="highway" v="residential"/>
    <tag k="maxspeed" v="30"/>
    <tag k="maxspeed:type" v="CZ:zone30"/>
    <tag k="name" v="Brat콏칤 Vencl칤k콢"/>
    <tag k="sidewalk" v="both"/>
    <tag k="source:name" v="nameit/uir-adr"/>
    <tag k="zone:maxspeed" v="30"/>
  </way>
  <way id="4084389" version="16" timestamp="2024-08-31T13:24:16Z" changeset="156015076" uid="8971394" user="vojtechzaboril">
    <nd ref="247951245"/>
    <nd ref="8418239299"/>
    <nd ref="8418239298"/>
    <nd ref="1374570659"/>
    <nd ref="8418239300"/>
    <nd ref="8418239301"/>
    <nd ref="247786"/>
    <nd ref="1826150991"/>
    <nd ref="2602793912"/>
    <nd ref="523200194"/>
    <tag k="hgv" v="destination"/>
    <tag k="highway" v="primary_link"/>
    <tag k="lanes" v="2"/>
    <tag k="lit" v="yes"/>
    <tag k="maxspeed" v="50"/>
    <tag k="name" v="Broumarsk치"/>
    <tag k="oneway" v="yes"/>
    <tag k="turn:lanes" v="left;through|through;right"/>
  </way>
  <way id="4084395" version="14" timestamp="2019-07-26T20:42:35Z" changeset="72703165" uid="4054181" user="Richard Janda">
    <nd ref="181676960"/>
    <nd ref="6651885197"/>
    <nd ref="6651885200"/>
    <nd ref="3410110098"/>
    <nd ref="6926067"/>
    <tag k="highway" v="residential"/>
    <tag k="name" v="Vyb칤ralova"/>
  </way>
  <way id="4229474" version="11" timestamp="2012-08-03T14:49:05Z" changeset="12599154" uid="527259" user="Vratislav Filler">
    <nd ref="6925877"/>
    <nd ref="1298230880"/>
    <nd ref="25610865"/>
    <tag k="highway" v="residential"/>
    <tag k="name" v="Va코치tkova"/>
    <tag k="oneway" v="yes"/>
  </way>
  <way id="4229503" version="15" timestamp="2023-03-25T22:16:20Z" changeset="134119955" uid="469828" user="Luk치코 Jel칤nek">
    <nd ref="7307388"/>
    <nd ref="1298231054"/>
    <nd ref="2036033201"/>
    <nd ref="1298231205"/>
    <nd ref="7307391"/>
    <nd ref="427830506"/>
    <nd ref="10123279160"/>
    <nd ref="1298231200"/>
    <nd ref="7307395"/>
    <nd ref="1298230966"/>
    <nd ref="25610848"/>
    <nd ref="2036033092"/>
    <nd ref="7307403"/>
    <nd ref="365600469"/>
    <nd ref="7307404"/>
    <nd ref="2036033098"/>
    <nd ref="2036033042"/>
    <nd ref="7307410"/>
    <nd ref="2036033017"/>
    <nd ref="2036033029"/>
    <nd ref="1571593061"/>
    <nd ref="354728436"/>
    <nd ref="10762125882"/>
    <nd ref="10762125883"/>
    <nd ref="354728437"/>
    <nd ref="10762125884"/>
    <nd ref="2036033007"/>
    <nd ref="2036033032"/>
    <nd ref="7307416"/>
    <tag k="highway" v="residential"/>
    <tag k="name" v="Dygr칳nova"/>
    <tag k="noexit" v="yes"/>
    <tag k="surface" v="asphalt"/>
  </way>
  <way id="4229504" version="12" timestamp="2024-04-16T18:06:33Z" changeset="150097494" uid="2061236" user="Thartek">
    <nd ref="6926067"/>
    <nd ref="6335225715"/>
    <nd ref="6188754323"/>
    <nd ref="1397730415"/>
    <tag k="highway" v="residential"/>
  </way>
  <way id="4230535" version="16" timestamp="2022-03-16T09:28:40Z" changeset="118542817" uid="718054" user="Piskvor">
    <nd ref="1410764406"/>
    <nd ref="110931173"/>
    <nd ref="6657645631"/>
    <nd ref="483410"/>
    <nd ref="110931170"/>
    <nd ref="3199609399"/>
    <tag k="cycleway" v="soft_lane"/>
    <tag k="highway" v="tertiary"/>
    <tag k="maxheight" v="default"/>
    <tag k="name" v="Broumarsk치"/>
  </way>
  <way id="4233634" version="18" timestamp="2024-07-31T08:47:16Z" changeset="154637449" uid="20277966" user="legwarmer">
    <nd ref="483415"/>
    <nd ref="473497530"/>
    <tag k="cycleway" v="soft_lane"/>
    <tag k="highway" v="tertiary"/>
    <tag k="lanes" v="2"/>
    <tag k="lit" v="yes"/>
    <tag k="maxspeed" v="50"/>
    <tag k="name" v="Ocelkova"/>
    <tag k="note" v="bicycle lanes added in 2022"/>
    <tag k="oneway" v="no"/>
    <tag k="smoothness" v="excellent"/>
    <tag k="surface" v="asphalt"/>
  </way>
  <way id="4233635" version="18" timestamp="2024-08-31T13:24:16Z" changeset="156015076" uid="8971394" user="vojtechzaboril">
    <nd ref="483415"/>
    <nd ref="10036071628"/>
    <nd ref="10036071629"/>
    <nd ref="10036071627"/>
    <nd ref="8410083750"/>
    <nd ref="8059824528"/>
    <nd ref="25269089"/>
    <tag k="foot" v="no"/>
    <tag k="highway" v="primary_link"/>
    <tag k="lanes" v="1"/>
    <tag k="lit" v="yes"/>
    <tag k="maxspeed" v="50"/>
    <tag k="oneway" v="yes"/>
    <tag k="ref" v="10"/>
    <tag k="sidewalk" v="no"/>
    <tag k="smoothness" v="excellent"/>
    <tag k="surface" v="asphalt"/>
  </way>
  <way id="4233650" version="5" timestamp="2018-12-10T15:04:49Z" changeset="65347403" uid="100163" user="Hlav">
    <nd ref="583946789"/>
    <nd ref="1539985020"/>
    <nd ref="1539985022"/>
    <nd ref="7307258"/>
    <nd ref="1539985023"/>
    <nd ref="319597166"/>
    <tag k="highway" v="residential"/>
    <tag k="motor_vehicle" v="permissive"/>
    <tag k="name" v="Himrova"/>
  </way>
  <way id="4233651" version="6" timestamp="2017-09-13T16:59:33Z" changeset="52013184" uid="665336" user="Minimalis">
    <nd ref="7307391"/>
    <nd ref="1298230981"/>
    <nd ref="3775374203"/>
    <nd ref="7307392"/>
    <tag k="highway" v="residential"/>
    <tag k="name" v="만belova"/>
  </way>
  <way id="4233652" version="10" timestamp="2020-01-10T18:19:25Z" changeset="79430708" uid="6588887" user="Martin2035">
    <nd ref="7307403"/>
    <nd ref="7122950884"/>
    <nd ref="1667179286"/>
    <nd ref="1667179312"/>
    <nd ref="6238672929"/>
    <nd ref="7307385"/>
    <nd ref="7307381"/>
    <tag k="highway" v="residential"/>
    <tag k="name" v="Breitcetlova"/>
  </way>
  <way id="4266158" version="5" timestamp="2023-03-25T22:16:20Z" changeset="134119955" uid="469828" user="Luk치코 Jel칤nek">
    <nd ref="7307410"/>
    <nd ref="10762125876"/>
    <nd ref="611320461"/>
    <nd ref="10762125878"/>
    <nd ref="30271727"/>
    <nd ref="10762125877"/>
    <nd ref="611320456"/>
    <nd ref="10762125879"/>
    <nd ref="7307413"/>
    <tag k="highway" v="residential"/>
    <tag k="name" v="Dygr칳nova"/>
    <tag k="source:name" v="nameit/uir-adr"/>
  </way>
  <way id="4266162" version="8" timestamp="2021-05-18T07:30:01Z" changeset="104869641" uid="4054181" user="Richard Janda">
    <nd ref="153029686"/>
    <nd ref="6677969760"/>
    <nd ref="1397730475"/>
    <nd ref="25610737"/>
    <nd ref="1397730470"/>
    <nd ref="8741480703"/>
    <nd ref="25610751"/>
    <nd ref="8741480699"/>
    <nd ref="8741480700"/>
    <nd ref="25610755"/>
    <nd ref="8741480694"/>
    <nd ref="25610758"/>
    <tag k="highway" v="residential"/>
    <tag k="name" v="Ma켿치kova"/>
    <tag k="source:name" v="nameit/uir-adr"/>
  </way>
  <way id="4266163" version="8" timestamp="2023-02-23T23:59:32Z" changeset="132947619" uid="469828" user="Luk치코 Jel칤nek">
    <nd ref="153029707"/>
    <nd ref="10689580924"/>
    <nd ref="856559648"/>
    <nd ref="10689580921"/>
    <nd ref="1397730465"/>
    <nd ref="25610768"/>
    <tag k="highway" v="residential"/>
    <tag k="name" v="Bobkova"/>
    <tag k="source:name" v="nameit/uir-adr"/>
  </way>
  <way id="4266166" version="4" timestamp="2012-11-27T09:09:24Z" changeset="14056185" uid="17615" user="Petr Dlouh칳">
    <nd ref="2036033260"/>
    <nd ref="2036033268"/>
    <nd ref="25610829"/>
    <nd ref="2036033249"/>
    <nd ref="2036033240"/>
    <nd ref="25610831"/>
    <nd ref="1410761609"/>
    <nd ref="25610833"/>
    <tag k="highway" v="residential"/>
    <tag k="name" v="Irvingova"/>
  </way>
  <way id="4266167" version="8" timestamp="2022-01-24T14:00:32Z" changeset="116542290" uid="11174973" user="smidra">
    <nd ref="7307404"/>
    <nd ref="2036033119"/>
    <nd ref="7307407"/>
    <tag k="highway" v="residential"/>
    <tag k="name" v="n치m. Plukovn칤ka Vl캜ka"/>
    <tag k="sidewalk" v="no"/>
    <tag k="source:name" v="nameit/uir-adr"/>
  </way>
  <way id="4269235" version="8" timestamp="2023-07-22T12:29:32Z" changeset="138851977" uid="6588887" user="Martin2035">
    <nd ref="25638908"/>
    <nd ref="6512673661"/>
    <nd ref="25638935"/>
    <nd ref="25638936"/>
    <nd ref="429587142"/>
    <nd ref="6512673664"/>
    <nd ref="1298231107"/>
    <nd ref="6512673658"/>
    <nd ref="25638947"/>
    <nd ref="429587140"/>
    <nd ref="1298231249"/>
    <nd ref="6512673665"/>
    <nd ref="25638957"/>
    <nd ref="25638968"/>
    <nd ref="25638970"/>
    <tag k="highway" v="residential"/>
    <tag k="maxspeed" v="30"/>
    <tag k="maxspeed:type" v="CZ:zone30"/>
    <tag k="name" v="Brat콏칤 Vencl칤k콢"/>
    <tag k="source:name" v="nameit/uir-adr"/>
    <tag k="zone:maxspeed" v="30"/>
  </way>
  <way id="4652354" version="4" timestamp="2022-03-01T22:10:44Z" changeset="117996654" uid="6588887" user="Martin2035">
    <nd ref="7307298"/>
    <nd ref="1539985014"/>
    <nd ref="7307324"/>
    <tag k="highway" v="residential"/>
    <tag k="surface" v="asphalt"/>
  </way>
  <way id="4744237" version="20" timestamp="2024-06-09T11:17:12Z" changeset="152449943" uid="12080464" user="Vojt캩ch Kade콏치bek">
    <nd ref="25610767"/>
    <nd ref="8741492363"/>
    <nd ref="856646183"/>
    <nd ref="27084278"/>
    <nd ref="856628066"/>
    <nd ref="6651867513"/>
    <nd ref="856628004"/>
    <nd ref="153029008"/>
    <tag k="cycleway:left" v="lane"/>
    <tag k="cycleway:right" v="no"/>
    <tag k="highway" v="residential"/>
    <tag k="name" v="Bobkova"/>
    <tag k="oneway" v="yes"/>
    <tag k="oneway:bicycle" v="no"/>
    <tag k="source:name" v="nameit/uir-adr"/>
    <tag k="surface" v="asphalt"/>
  </way>
  <way id="4744241" version="6" timestamp="2023-12-22T21:40:20Z" changeset="145421152" uid="18633688" user="Jan Sikora">
    <nd ref="25610771"/>
    <nd ref="1397730437"/>
    <nd ref="11445078769"/>
    <nd ref="856547779"/>
    <tag k="highway" v="residential"/>
    <tag k="name" v="Ku캜erova"/>
    <tag k="source:name" v="nameit/uir-adr"/>
  </way>
  <way id="4744243" version="13" timestamp="2025-05-08T15:20:58Z" changeset="165988861" uid="598980" user="Daniel Bar치nek">
    <nd ref="153028962"/>
    <nd ref="8426668368"/>
    <nd ref="8426668367"/>
    <nd ref="6709985166"/>
    <nd ref="8426668369"/>
    <nd ref="746965779"/>
    <nd ref="8426668371"/>
    <nd ref="8426668372"/>
    <nd ref="8426668370"/>
    <nd ref="6928225"/>
    <nd ref="2385265907"/>
    <tag k="cycleway:both" v="no"/>
    <tag k="highway" v="residential"/>
    <tag k="lanes" v="1"/>
    <tag k="name" v="Bryksova"/>
    <tag k="oneway" v="yes"/>
    <tag k="surface" v="asphalt"/>
  </way>
  <way id="4744254" version="12" timestamp="2021-03-17T15:54:32Z" changeset="101200728" uid="718054" user="Piskvor">
    <nd ref="6928239"/>
    <nd ref="747005601"/>
    <nd ref="2674793788"/>
    <nd ref="170230065"/>
    <tag k="hgv" v="no"/>
    <tag k="highway" v="tertiary"/>
    <tag k="lanes" v="2"/>
    <tag k="lit" v="yes"/>
    <tag k="maxspeed" v="50"/>
    <tag k="name" v="Hartenbersk치"/>
    <tag k="surface" v="asphalt"/>
  </way>
  <way id="4889266" version="21" timestamp="2024-09-01T21:22:06Z" changeset="156072623" uid="4018695" user="游뻟릖 Roman Horn칤k">
    <nd ref="31775242"/>
    <nd ref="12150508152"/>
    <nd ref="8426012968"/>
    <nd ref="12150508153"/>
    <nd ref="112188032"/>
    <nd ref="12150508135"/>
    <nd ref="8426012969"/>
    <nd ref="12150508136"/>
    <nd ref="112188042"/>
    <nd ref="8426012970"/>
    <nd ref="12150508154"/>
    <nd ref="2411202649"/>
    <nd ref="8426012971"/>
    <nd ref="12150508155"/>
    <nd ref="112188051"/>
    <nd ref="8426012972"/>
    <nd ref="12150508137"/>
    <nd ref="2411202654"/>
    <nd ref="12150508138"/>
    <nd ref="8426012973"/>
    <nd ref="12150508139"/>
    <nd ref="112188133"/>
    <nd ref="8426012974"/>
    <nd ref="12150508143"/>
    <nd ref="1134882327"/>
    <nd ref="12150508148"/>
    <nd ref="112188218"/>
    <tag k="bicycle" v="no"/>
    <tag k="cycleway:right" v="no"/>
    <tag k="foot" v="no"/>
    <tag k="highway" v="secondary"/>
    <tag k="junction" v="roundabout"/>
    <tag k="lanes" v="1"/>
    <tag k="lit" v="yes"/>
    <tag k="maxspeed" v="50"/>
    <tag k="surface" v="asphalt"/>
  </way>
  <way id="4947107" version="12" timestamp="2023-01-08T17:17:32Z" changeset="131023749" uid="469828" user="Luk치코 Jel칤nek">
    <nd ref="7307351"/>
    <nd ref="30272029"/>
    <nd ref="3412440603"/>
    <nd ref="112199394"/>
    <nd ref="112199503"/>
    <nd ref="7658970796"/>
    <nd ref="112199506"/>
    <nd ref="112199511"/>
    <nd ref="112199519"/>
    <nd ref="1141156069"/>
    <nd ref="112199753"/>
    <nd ref="10315094567"/>
    <nd ref="112199958"/>
    <nd ref="10315094566"/>
    <nd ref="7307362"/>
    <tag k="highway" v="residential"/>
    <tag k="lit" v="yes"/>
    <tag k="name" v="Bryksova"/>
    <tag k="source:name" v="nameit/uir-adr"/>
    <tag k="surface" v="asphalt"/>
  </way>
  <way id="4947112" version="21" timestamp="2025-05-08T15:20:19Z" changeset="165989309" uid="598980" user="Daniel Bar치nek">
    <nd ref="7773991134"/>
    <nd ref="7773991135"/>
    <nd ref="3917186226"/>
    <nd ref="3917186228"/>
    <nd ref="3917186231"/>
    <nd ref="7773991129"/>
    <nd ref="7773991130"/>
    <nd ref="3917186230"/>
    <nd ref="3917186229"/>
    <nd ref="8426668421"/>
    <nd ref="3917186227"/>
    <nd ref="7773991131"/>
    <nd ref="6928228"/>
    <nd ref="3917186224"/>
    <nd ref="3917186222"/>
    <nd ref="7773991132"/>
    <nd ref="7773991133"/>
    <nd ref="3917186221"/>
    <nd ref="3917186223"/>
    <nd ref="8426668422"/>
    <nd ref="3917186225"/>
    <nd ref="7773991134"/>
    <tag k="highway" v="residential"/>
    <tag k="junction" v="roundabout"/>
    <tag k="lanes" v="1"/>
    <tag k="surface" v="asphalt"/>
  </way>
  <way id="4947114" version="10" timestamp="2023-06-06T08:51:42Z" changeset="137004453" uid="16076489" user="Ekeefoof">
    <nd ref="7307362"/>
    <nd ref="153028597"/>
    <nd ref="746958096"/>
    <nd ref="856628010"/>
    <nd ref="856628042"/>
    <nd ref="856628028"/>
    <nd ref="153028982"/>
    <tag k="highway" v="residential"/>
    <tag k="name" v="Bryksova"/>
    <tag k="source:name" v="nameit/uir-adr"/>
    <tag k="surface" v="asphalt"/>
  </way>
  <way id="8236780" version="11" timestamp="2023-06-06T08:51:42Z" changeset="137004453" uid="16076489" user="Ekeefoof">
    <nd ref="7307357"/>
    <nd ref="856641034"/>
    <nd ref="856637952"/>
    <nd ref="856628052"/>
    <nd ref="856637981"/>
    <nd ref="8048970787"/>
    <nd ref="856628006"/>
    <nd ref="7307362"/>
    <tag k="highway" v="residential"/>
    <tag k="name" v="Ku캜erova"/>
    <tag k="source:name" v="nameit/uir-adr"/>
    <tag k="surface" v="asphalt"/>
  </way>
  <way id="12359694" version="16" timestamp="2024-03-26T20:30:35Z" changeset="149194564" uid="9291527" user="marekhrabe">
    <nd ref="31775616"/>
    <nd ref="8426012994"/>
    <nd ref="8426012993"/>
    <nd ref="8426012992"/>
    <nd ref="8426012991"/>
    <nd ref="1134882289"/>
    <nd ref="9219786218"/>
    <tag k="bicycle" v="no"/>
    <tag k="cycleway:right" v="no"/>
    <tag k="foot" v="no"/>
    <tag k="highway" v="secondary"/>
    <tag k="lanes" v="1"/>
    <tag k="lit" v="yes"/>
    <tag k="maxspeed" v="50"/>
    <tag k="name" v="Chlumeck치"/>
    <tag k="oneway" v="yes"/>
    <tag k="surface" v="asphalt"/>
  </way>
  <way id="12359701" version="18" timestamp="2024-04-17T12:37:16Z" changeset="150127628" uid="9291527" user="marekhrabe">
    <nd ref="112188218"/>
    <nd ref="8426012979"/>
    <nd ref="8426012978"/>
    <nd ref="8426012980"/>
    <nd ref="112198154"/>
    <nd ref="112188408"/>
    <nd ref="3522531943"/>
    <tag k="foot" v="no"/>
    <tag k="highway" v="secondary"/>
    <tag k="lanes" v="1"/>
    <tag k="lit" v="yes"/>
    <tag k="maxspeed" v="50"/>
    <tag k="name" v="Chlumeck치"/>
    <tag k="oneway" v="yes"/>
    <tag k="surface" v="asphalt"/>
  </way>
  <way id="12359712" version="21" timestamp="2021-08-23T18:08:58Z" changeset="110131445" uid="469828" user="Luk치코 Jel칤nek">
    <nd ref="112189000"/>
    <nd ref="3411057003"/>
    <tag k="cycleway:right" v="no"/>
    <tag k="highway" v="tertiary"/>
    <tag k="lanes" v="2"/>
    <tag k="lit" v="yes"/>
    <tag k="maxspeed" v="50"/>
    <tag k="name" v="Chlumeck치"/>
    <tag k="oneway" v="yes"/>
    <tag k="surface" v="asphalt"/>
  </way>
  <way id="12359714" version="13" timestamp="2024-08-28T19:58:28Z" changeset="155898721" uid="8189075" user="Badojo">
    <nd ref="112198216"/>
    <nd ref="8410075978"/>
    <nd ref="8410075981"/>
    <nd ref="112198471"/>
    <tag k="destination" v="n치kupn칤 z칩na;Ikea"/>
    <tag k="destination:symbol" v="shopping"/>
    <tag k="highway" v="primary_link"/>
    <tag k="lanes" v="1"/>
    <tag k="lit" v="yes"/>
    <tag k="maxspeed" v="80"/>
    <tag k="oneway" v="yes"/>
    <tag k="surface" v="asphalt"/>
  </way>
  <way id="12359725" version="13" timestamp="2024-08-20T14:34:31Z" changeset="155512757" uid="8971394" user="vojtechzaboril">
    <nd ref="8418239743"/>
    <nd ref="8418314267"/>
    <nd ref="8418314266"/>
    <nd ref="8418314265"/>
    <nd ref="8418314264"/>
    <nd ref="3750776684"/>
    <nd ref="3750776682"/>
    <nd ref="12122288637"/>
    <nd ref="8418314274"/>
    <nd ref="8418314277"/>
    <nd ref="112199190"/>
    <tag k="cycleway:right" v="no"/>
    <tag k="highway" v="primary_link"/>
    <tag k="lanes" v="2"/>
    <tag k="lit" v="yes"/>
    <tag k="maxspeed" v="80"/>
    <tag k="oneway" v="yes"/>
    <tag k="surface" v="asphalt"/>
    <tag k="turn:lanes" v="left|left"/>
  </way>
  <way id="12359758" version="13" timestamp="2024-08-29T15:28:46Z" changeset="155934519" uid="10203836" user="ZajZeb">
    <nd ref="30272029"/>
    <nd ref="1397732080"/>
    <nd ref="10315094587"/>
    <nd ref="8741492386"/>
    <nd ref="10315094597"/>
    <nd ref="30233327"/>
    <nd ref="746958106"/>
    <nd ref="6190352880"/>
    <nd ref="7307357"/>
    <nd ref="856641042"/>
    <nd ref="8048956544"/>
    <nd ref="8048956541"/>
    <nd ref="8048956538"/>
    <nd ref="25610769"/>
    <nd ref="8048956534"/>
    <nd ref="856628083"/>
    <nd ref="27084278"/>
    <tag k="highway" v="residential"/>
    <tag k="name" v="Mansfeldova"/>
    <tag k="source:name" v="nameit/uir-adr"/>
    <tag k="surface" v="asphalt"/>
  </way>
  <way id="15429556" version="7" timestamp="2011-10-08T21:55:19Z" changeset="9507303" uid="527259" user="Vratislav Filler">
    <nd ref="153029008"/>
    <nd ref="746986407"/>
    <tag k="highway" v="residential"/>
    <tag k="name" v="Franti코kova"/>
    <tag k="source:name" v="nameit/uir-adr"/>
  </way>
  <way id="15429615" version="6" timestamp="2022-10-23T08:25:40Z" changeset="127946689" uid="6588887" user="Martin2035">
    <nd ref="153033037"/>
    <nd ref="153033055"/>
    <nd ref="10123279185"/>
    <tag k="highway" v="residential"/>
    <tag k="name" v="Smikova"/>
    <tag k="sidewalk" v="left"/>
    <tag k="source:name" v="nameit/uir-adr"/>
    <tag k="surface" v="asphalt"/>
  </way>
  <way id="15429623" version="11" timestamp="2023-02-28T10:12:09Z" changeset="133121659" uid="15662873" user="maspav">
    <nd ref="153033277"/>
    <nd ref="8238486497"/>
    <nd ref="10699154233"/>
    <nd ref="153033302"/>
    <tag k="highway" v="residential"/>
    <tag k="name" v="J칤chova"/>
    <tag k="sidewalk" v="left"/>
    <tag k="source:name" v="nameit/uir-adr"/>
    <tag k="surface" v="asphalt"/>
  </way>
  <way id="16488701" version="17" timestamp="2023-11-04T01:24:47Z" changeset="143596490" uid="9451067" user="b-jazz-bot">
    <nd ref="2799152297"/>
    <nd ref="2799154509"/>
    <nd ref="2799154386"/>
    <nd ref="8431584073"/>
    <nd ref="2799154400"/>
    <nd ref="8431584074"/>
    <nd ref="2799154712"/>
    <nd ref="8431584075"/>
    <nd ref="2799154709"/>
    <nd ref="8431584076"/>
    <nd ref="2799154398"/>
    <nd ref="2799154720"/>
    <nd ref="2799152479"/>
    <nd ref="2799152457"/>
    <nd ref="2799152462"/>
    <nd ref="2799152297"/>
    <tag k="addr:city" v="Praha"/>
    <tag k="addr:housenumber" v="8"/>
    <tag k="addr:postcode" v="19800"/>
    <tag k="addr:street" v="Chlumeck치"/>
    <tag k="brand" v="XXXLutz"/>
    <tag k="brand:wikidata" v="Q70339467"/>
    <tag k="brand:wikipedia" v="de:XXXLutz"/>
    <tag k="building" v="retail"/>
    <tag k="building:flats" v="15"/>
    <tag k="building:levels" v="6"/>
    <tag k="check_date" v="2023-06-06"/>
    <tag k="disused:shop" v="mall"/>
    <tag k="name" v="XXXLutz"/>
    <tag k="opening_hours" v="10:00-20:00"/>
    <tag k="operator" v="XXXLutz"/>
    <tag k="payment:cash" v="yes"/>
    <tag k="payment:contactless" v="yes"/>
    <tag k="phone" v="+420 225 286 000"/>
    <tag k="ref:ruian:building" v="24918156"/>
    <tag k="shop" v="furniture"/>
    <tag k="source" v="cuzk:ruian"/>
    <tag k="start_date" v="2001-05-03"/>
    <tag k="website" v="https://www.xxxlutz.cz/"/>
    <tag k="wheelchair" v="yes"/>
  </way>
  <way id="16489259" version="16" timestamp="2024-04-16T18:06:33Z" changeset="150097494" uid="2061236" user="Thartek">
    <nd ref="6926067"/>
    <nd ref="1397730419"/>
    <nd ref="6219644809"/>
    <nd ref="6166781112"/>
    <nd ref="6214438477"/>
    <nd ref="6214438885"/>
    <nd ref="1124763361"/>
    <nd ref="6214438888"/>
    <nd ref="11822714656"/>
    <nd ref="6199017128"/>
    <nd ref="181676914"/>
    <tag k="highway" v="residential"/>
    <tag k="name" v="Bryksova"/>
    <tag k="source:name" v="nameit/uir-adr"/>
  </way>
  <way id="16608252" version="20" timestamp="2024-10-22T15:55:32Z" changeset="158218456" uid="100163" user="Hlav">
    <nd ref="1141156174"/>
    <nd ref="171508208"/>
    <nd ref="171508250"/>
    <nd ref="1141156114"/>
    <nd ref="11422539417"/>
    <nd ref="11422539406"/>
    <nd ref="8602016991"/>
    <nd ref="523200200"/>
    <nd ref="11422539408"/>
    <nd ref="8602016990"/>
    <nd ref="359274603"/>
    <nd ref="11422539409"/>
    <nd ref="8602016989"/>
    <nd ref="11422539412"/>
    <nd ref="171508278"/>
    <nd ref="171507152"/>
    <tag k="cycleway:right" v="lane"/>
    <tag k="hgv" v="no"/>
    <tag k="highway" v="tertiary"/>
    <tag k="lanes" v="2"/>
    <tag k="lit" v="yes"/>
    <tag k="maxheight" v="default"/>
    <tag k="maxspeed" v="50"/>
    <tag k="name" v="Chlumeck치"/>
    <tag k="sidewalk:left" v="no"/>
    <tag k="sidewalk:right" v="separate"/>
    <tag k="surface" v="asphalt"/>
  </way>
  <way id="17542786" version="9" timestamp="2019-07-26T20:42:35Z" changeset="72703165" uid="4054181" user="Richard Janda">
    <nd ref="112199305"/>
    <nd ref="6651885194"/>
    <nd ref="6238672932"/>
    <nd ref="181676827"/>
    <nd ref="6651867528"/>
    <nd ref="746958102"/>
    <nd ref="746986439"/>
    <nd ref="746958107"/>
    <nd ref="6190450285"/>
    <nd ref="746986408"/>
    <nd ref="1110087033"/>
    <nd ref="181676861"/>
    <tag k="highway" v="residential"/>
    <tag k="name" v="Kuttelwascherova"/>
    <tag k="source:name" v="nameit/uir-adr"/>
  </way>
  <way id="17542789" version="9" timestamp="2019-07-26T20:42:35Z" changeset="72703165" uid="4054181" user="Richard Janda">
    <nd ref="7307373"/>
    <nd ref="6594977573"/>
    <nd ref="5017093657"/>
    <nd ref="6651867508"/>
    <nd ref="746958075"/>
    <nd ref="746958088"/>
    <nd ref="746986448"/>
    <nd ref="6190450370"/>
    <nd ref="746986418"/>
    <nd ref="181676875"/>
    <tag k="highway" v="residential"/>
    <tag k="name" v="Fejfarova"/>
    <tag k="source:name" v="nameit/uir-adr"/>
  </way>
  <way id="17542792" version="7" timestamp="2019-11-07T18:03:29Z" changeset="76771721" uid="665336" user="Minimalis">
    <nd ref="181676896"/>
    <nd ref="170236728"/>
    <tag k="highway" v="residential"/>
    <tag k="name" v="Kpt. Str치nsk칠ho"/>
    <tag k="oneway" v="yes"/>
    <tag k="ref:ruian:street" v="503223"/>
    <tag k="short_name" v="Kpt. Str치nsk칠ho"/>
    <tag k="source:name" v="nameit/uir-adr"/>
  </way>
  <way id="17542797" version="13" timestamp="2022-10-11T21:15:42Z" changeset="127381799" uid="6588887" user="Martin2035">
    <nd ref="6926060"/>
    <nd ref="6651885202"/>
    <nd ref="1110087054"/>
    <nd ref="6238741374"/>
    <nd ref="181676973"/>
    <nd ref="1110087063"/>
    <nd ref="2036036086"/>
    <nd ref="5017094029"/>
    <nd ref="6651885196"/>
    <nd ref="181676960"/>
    <tag k="highway" v="residential"/>
    <tag k="lanes" v="1"/>
    <tag k="name" v="Kpt. Str치nsk칠ho"/>
    <tag k="oneway" v="yes"/>
    <tag k="ref:ruian:street" v="503223"/>
    <tag k="short_name" v="Kpt. Str치nsk칠ho"/>
    <tag k="surface" v="asphalt"/>
  </way>
  <way id="17542802" version="8" timestamp="2019-01-07T16:55:48Z" changeset="66102562" uid="4054181" user="Richard Janda">
    <nd ref="181676989"/>
    <nd ref="746986411"/>
    <nd ref="3777278661"/>
    <nd ref="746986447"/>
    <nd ref="181677002"/>
    <nd ref="5017094019"/>
    <nd ref="746965830"/>
    <nd ref="181677018"/>
    <nd ref="6190353032"/>
    <nd ref="181677039"/>
    <tag k="highway" v="residential"/>
    <tag k="name" v="Bryksova"/>
    <tag k="source:name" v="nameit/uir-adr"/>
  </way>
  <way id="22999656" version="16" timestamp="2024-10-11T08:11:54Z" changeset="157745650" uid="5748" user="pschonmann">
    <nd ref="251237"/>
    <nd ref="7581334858"/>
    <tag k="cycleway:right" v="shared_lane"/>
    <tag k="highway" v="tertiary"/>
    <tag k="lanes" v="2"/>
    <tag k="maxspeed" v="50"/>
    <tag k="maxspeed:source" v="cz:city_limit"/>
    <tag k="name" v="Broumarsk치"/>
    <tag k="oneway" v="yes"/>
    <tag k="surface" v="asphalt"/>
  </way>
  <way id="22999657" version="9" timestamp="2024-08-31T13:24:16Z" changeset="156015076" uid="8971394" user="vojtechzaboril">
    <nd ref="25240103"/>
    <nd ref="8119356700"/>
    <nd ref="523200197"/>
    <tag k="cycleway:right" v="soft_lane"/>
    <tag k="highway" v="primary_link"/>
    <tag k="lanes" v="1"/>
    <tag k="lit" v="yes"/>
    <tag k="maxspeed" v="50"/>
    <tag k="name" v="Broumarsk치"/>
    <tag k="oneway" v="yes"/>
    <tag k="surface" v="asphalt"/>
  </way>
  <way id="25024130" version="5" timestamp="2022-01-26T11:37:37Z" changeset="116619143" uid="11174973" user="smidra">
    <nd ref="181676896"/>
    <nd ref="181676914"/>
    <tag k="highway" v="residential"/>
    <tag k="name" v="Kpt. Str치nsk칠ho"/>
    <tag k="ref:ruian:street" v="503223"/>
    <tag k="short_name" v="Kpt. Str치nsk칠ho"/>
    <tag k="sidewalk" v="right"/>
  </way>
  <way id="25548781" version="14" timestamp="2024-08-31T13:24:16Z" changeset="156015076" uid="8971394" user="vojtechzaboril">
    <nd ref="278459482"/>
    <nd ref="8410083740"/>
    <nd ref="12147778485"/>
    <nd ref="278459483"/>
    <nd ref="8410083746"/>
    <nd ref="473497522"/>
    <nd ref="8410083747"/>
    <nd ref="7122939750"/>
    <nd ref="278459484"/>
    <nd ref="8410083748"/>
    <nd ref="7122939749"/>
    <nd ref="12147778484"/>
    <nd ref="278459485"/>
    <nd ref="473497518"/>
    <tag k="cycleway:right" v="lane"/>
    <tag k="highway" v="primary_link"/>
    <tag k="lanes" v="1"/>
    <tag k="lit" v="yes"/>
    <tag k="maxheight" v="default"/>
    <tag k="maxspeed" v="50"/>
    <tag k="oneway" v="yes"/>
    <tag k="surface" v="asphalt"/>
  </way>
  <way id="28884814" version="6" timestamp="2024-09-12T15:55:21Z" changeset="156535675" uid="4887311" user="mapperue">
    <nd ref="2799150539"/>
    <nd ref="2799150587"/>
    <nd ref="3521076506"/>
    <nd ref="3521076504"/>
    <nd ref="2799150509"/>
    <nd ref="2799150187"/>
    <nd ref="3521076501"/>
    <nd ref="3521076503"/>
    <nd ref="2799150539"/>
    <tag k="amenity" v="car_wash"/>
    <tag k="brand" v="Globus"/>
    <tag k="brand:wikidata" v="Q457503"/>
    <tag k="building" v="commercial"/>
    <tag k="building:ruian:type" v="16"/>
    <tag k="name" v="Globus"/>
    <tag k="opening_hours" v="06:30-21:00"/>
    <tag k="operator" v="Globus 캛R, v.o.s."/>
    <tag k="ref:ruian:building" v="43189440"/>
    <tag k="source" v="cuzk:ruian"/>
    <tag k="website" v="https://www.globus.cz/cerny-most/cerpaci-stanice-a-myci-linka.html"/>
  </way>
  <way id="29056614" version="11" timestamp="2023-11-04T01:24:14Z" changeset="143596480" uid="9451067" user="b-jazz-bot">
    <nd ref="2799155578"/>
    <nd ref="2799153896"/>
    <nd ref="2799155197"/>
    <nd ref="2799155163"/>
    <nd ref="2799154941"/>
    <nd ref="6128549721"/>
    <nd ref="2799155578"/>
    <tag k="amenity" v="clinic"/>
    <tag k="building" v="residential"/>
    <tag k="building:flats" v="1"/>
    <tag k="building:levels" v="6"/>
    <tag k="healthcare" v="clinic"/>
    <tag k="internet_access" v="wlan"/>
    <tag k="internet_access:fee" v="no"/>
    <tag k="name" v="Poliklinika Parnik"/>
    <tag k="opening_hours" v="Mo-Su 06:30-19:30"/>
    <tag k="ref:ruian:building" v="22265911"/>
    <tag k="source" v="cuzk:ruian"/>
    <tag k="website" v="https://poliklinikaparnik.cz/"/>
    <tag k="wheelchair" v="yes"/>
    <tag k="wikidata" v="Q62129786"/>
  </way>
  <way id="31699500" version="23" timestamp="2023-01-07T23:43:05Z" changeset="130999353" uid="469828" user="Luk치코 Jel칤nek">
    <nd ref="354727029"/>
    <nd ref="901522187"/>
    <nd ref="3753452649"/>
    <nd ref="3753452650"/>
    <nd ref="354718833"/>
    <nd ref="366085009"/>
    <nd ref="10313823056"/>
    <nd ref="10313823057"/>
    <nd ref="10123249408"/>
    <nd ref="10313823059"/>
    <nd ref="354718836"/>
    <nd ref="354718837"/>
    <nd ref="2036063834"/>
    <nd ref="354718839"/>
    <nd ref="354718841"/>
    <nd ref="2036032916"/>
    <nd ref="354847809"/>
    <nd ref="2036032929"/>
    <nd ref="6335225738"/>
    <nd ref="6926054"/>
    <tag k="highway" v="residential"/>
    <tag k="name" v="Arno코ta Valenty"/>
    <tag k="surface" v="asphalt"/>
  </way>
  <way id="31699937" version="4" timestamp="2012-11-27T09:46:49Z" changeset="14056595" uid="17615" user="Petr Dlouh칳">
    <nd ref="354719612"/>
    <nd ref="1571592627"/>
    <nd ref="366085003"/>
    <nd ref="2036063828"/>
    <nd ref="354718836"/>
    <tag k="highway" v="residential"/>
    <tag k="name" v="만dova"/>
  </way>
  <way id="31705556" version="12" timestamp="2023-10-11T20:22:51Z" changeset="142451827" uid="25561" user="Gobik">
    <nd ref="354725052"/>
    <nd ref="354725127"/>
    <nd ref="1298230993"/>
    <nd ref="1298230901"/>
    <nd ref="354725128"/>
    <nd ref="470829652"/>
    <nd ref="354725129"/>
    <tag k="highway" v="residential"/>
    <tag k="name" v="Va코치tkova"/>
    <tag k="noexit" v="yes"/>
    <tag k="surface" v="asphalt"/>
  </way>
  <way id="31705568" version="4" timestamp="2009-03-02T01:27:24Z" changeset="721096" uid="101738" user="Kuki">
    <nd ref="354725589"/>
    <nd ref="354725683"/>
    <nd ref="354725684"/>
    <tag k="created_by" v="Potlatch 0.10f"/>
    <tag k="highway" v="residential"/>
  </way>
  <way id="32205371" version="6" timestamp="2023-07-22T12:29:32Z" changeset="138851977" uid="6588887" user="Martin2035">
    <nd ref="25638908"/>
    <nd ref="1576210161"/>
    <tag k="foot" v="yes"/>
    <tag k="highway" v="residential"/>
    <tag k="maxspeed" v="30"/>
    <tag k="maxspeed:type" v="CZ:zone30"/>
    <tag k="name" v="Brat콏칤 Vencl칤k콢"/>
    <tag k="oneway" v="yes"/>
    <tag k="sidewalk" v="both"/>
    <tag k="source:name" v="nameit/uir-adr"/>
    <tag k="zone:maxspeed" v="30"/>
  </way>
  <way id="32516456" version="4" timestamp="2021-12-22T11:46:31Z" changeset="115251856" uid="100163" user="Hlav">
    <nd ref="2799152667"/>
    <nd ref="2799152423"/>
    <nd ref="2799152405"/>
    <nd ref="2799149835"/>
    <nd ref="2799152158"/>
    <nd ref="2799152139"/>
    <nd ref="2799151989"/>
    <nd ref="2799152110"/>
    <nd ref="2799151955"/>
    <nd ref="2799149861"/>
    <nd ref="2799152498"/>
    <nd ref="2799152667"/>
    <tag k="building" v="commercial"/>
    <tag k="building:levels" v="3"/>
    <tag k="name" v="Hasso"/>
    <tag k="ref:ruian:building" v="22264779"/>
    <tag k="source" v="cuzk:ruian"/>
  </way>
  <way id="32551806" version="8" timestamp="2025-04-29T16:54:22Z" changeset="165599816" uid="469828" user="Luk치코 Jel칤nek">
    <nd ref="365599697"/>
    <nd ref="1263518141"/>
    <nd ref="365599717"/>
    <nd ref="1124860982"/>
    <nd ref="2036063819"/>
    <nd ref="354718833"/>
    <tag k="highway" v="residential"/>
    <tag k="lane_markings" v="no"/>
    <tag k="name" v="Mare코ova"/>
    <tag k="sidewalk" v="no"/>
    <tag k="surface" v="asphalt"/>
  </way>
  <way id="33784447" version="11" timestamp="2021-02-17T10:56:14Z" changeset="99445546" uid="11276832" user="HaPe-CZ">
    <nd ref="30233346"/>
    <nd ref="6219644676"/>
    <nd ref="6219644641"/>
    <nd ref="6219644631"/>
    <nd ref="746958090"/>
    <nd ref="8431584151"/>
    <nd ref="8431584152"/>
    <nd ref="8431584156"/>
    <nd ref="8431584150"/>
    <nd ref="8431584153"/>
    <nd ref="30233345"/>
    <nd ref="746958073"/>
    <nd ref="30233344"/>
    <nd ref="153028962"/>
    <tag k="highway" v="residential"/>
    <tag k="lanes" v="1"/>
    <tag k="name" v="Bryksova"/>
    <tag k="oneway" v="yes"/>
  </way>
  <way id="33784450" version="10" timestamp="2024-04-04T18:17:05Z" changeset="149582426" uid="12080464" user="Vojt캩ch Kade콏치bek">
    <nd ref="1397730457"/>
    <nd ref="8429555363"/>
    <nd ref="8429555362"/>
    <nd ref="319597177"/>
    <nd ref="8429555364"/>
    <nd ref="8429555365"/>
    <nd ref="8429555366"/>
    <nd ref="8429555367"/>
    <nd ref="8429555368"/>
    <nd ref="8429555369"/>
    <nd ref="319597188"/>
    <nd ref="8429555370"/>
    <nd ref="8429555371"/>
    <nd ref="8429555373"/>
    <nd ref="8429555372"/>
    <nd ref="483414"/>
    <tag k="cycleway:right" v="shared_lane"/>
    <tag k="highway" v="tertiary"/>
    <tag k="lanes" v="2"/>
    <tag k="maxspeed" v="50"/>
    <tag k="name" v="Ocelkova"/>
    <tag k="oneway" v="yes"/>
    <tag k="surface" v="asphalt"/>
    <tag k="turn:lanes" v="left;through|through"/>
  </way>
  <way id="33784451" version="8" timestamp="2024-06-09T11:17:12Z" changeset="152449943" uid="12080464" user="Vojt캩ch Kade콏치bek">
    <nd ref="25610768"/>
    <nd ref="1397730458"/>
    <nd ref="8741492406"/>
    <nd ref="3967775531"/>
    <nd ref="8741492403"/>
    <nd ref="8741492400"/>
    <nd ref="8741492397"/>
    <nd ref="3967775528"/>
    <tag k="cycleway:left" v="lane"/>
    <tag k="cycleway:right" v="no"/>
    <tag k="highway" v="residential"/>
    <tag k="name" v="Bobkova"/>
    <tag k="oneway" v="yes"/>
    <tag k="source:name" v="nameit/uir-adr"/>
  </way>
  <way id="33784452" version="5" timestamp="2016-01-26T09:34:09Z" changeset="36812577" uid="1874065" user="zvolsky">
    <nd ref="25610768"/>
    <nd ref="1397730459"/>
    <tag k="highway" v="residential"/>
    <tag k="name" v="Bryksova"/>
    <tag k="source:name" v="nameit/uir-adr"/>
  </way>
  <way id="33784453" version="6" timestamp="2019-08-14T13:16:42Z" changeset="73348989" uid="25867" user="adamos">
    <nd ref="153029707"/>
    <nd ref="6190352854"/>
    <nd ref="6710047795"/>
    <nd ref="153029686"/>
    <nd ref="1511387798"/>
    <nd ref="386852126"/>
    <tag k="highway" v="residential"/>
    <tag k="name" v="Bobkova"/>
    <tag k="source" v="cuzk:km;uhul:ortofoto"/>
  </way>
  <way id="35458162" version="10" timestamp="2025-03-27T20:52:58Z" changeset="164182901" uid="10135165" user="tocra">
    <nd ref="320982455"/>
    <nd ref="251237"/>
    <tag k="highway" v="tertiary"/>
    <tag k="lanes" v="2"/>
    <tag k="maxspeed" v="50"/>
    <tag k="maxspeed:source" v="cz:city_limit"/>
    <tag k="name" v="C칤glerova"/>
    <tag k="surface" v="asphalt"/>
  </way>
  <way id="35458163" version="6" timestamp="2021-04-21T09:31:34Z" changeset="103327352" uid="6588887" user="Martin2035">
    <nd ref="8650781124"/>
    <nd ref="5802074162"/>
    <tag k="cycleway:right" v="soft_lane"/>
    <tag k="highway" v="tertiary"/>
    <tag k="lanes" v="1"/>
    <tag k="name" v="Broumarsk치"/>
    <tag k="oneway" v="yes"/>
    <tag k="surface" v="asphalt"/>
  </way>
  <way id="35458170" version="15" timestamp="2023-08-10T08:28:24Z" changeset="139694432" uid="5748" user="pschonmann">
    <nd ref="1410764429"/>
    <nd ref="1410764427"/>
    <tag k="highway" v="tertiary"/>
    <tag k="name" v="Ocelkova"/>
    <tag k="oneway" v="yes"/>
    <tag k="surface" v="asphalt"/>
  </way>
  <way id="39524017" version="9" timestamp="2022-11-05T17:54:00Z" changeset="128530888" uid="6588887" user="Martin2035">
    <nd ref="473497528"/>
    <nd ref="473497527"/>
    <nd ref="473497526"/>
    <nd ref="473497525"/>
    <nd ref="8429555418"/>
    <nd ref="8429555417"/>
    <nd ref="473497524"/>
    <tag k="cycleway:right" v="soft_lane"/>
    <tag k="highway" v="tertiary"/>
    <tag k="lanes" v="1"/>
    <tag k="lit" v="yes"/>
    <tag k="name" v="Ocelkova"/>
    <tag k="note" v="bicycle lanes added in 2022"/>
    <tag k="oneway" v="yes"/>
    <tag k="surface" v="asphalt"/>
  </way>
  <way id="39524018" version="10" timestamp="2024-07-31T08:47:06Z" changeset="154637449" uid="20277966" user="legwarmer">
    <nd ref="473497518"/>
    <nd ref="8059824526"/>
    <nd ref="8429555280"/>
    <nd ref="473497529"/>
    <nd ref="8429555281"/>
    <nd ref="8429555282"/>
    <nd ref="8429555283"/>
    <nd ref="8429555284"/>
    <nd ref="473497528"/>
    <tag k="cycleway:right" v="lane"/>
    <tag k="highway" v="primary_link"/>
    <tag k="lanes" v="1"/>
    <tag k="lit" v="yes"/>
    <tag k="maxspeed" v="50"/>
    <tag k="oneway" v="yes"/>
    <tag k="smoothness" v="excellent"/>
    <tag k="surface" v="asphalt"/>
  </way>
  <way id="39524019" version="14" timestamp="2024-08-31T13:24:16Z" changeset="156015076" uid="8971394" user="vojtechzaboril">
    <nd ref="473497530"/>
    <nd ref="8410083756"/>
    <nd ref="473497532"/>
    <nd ref="8410083757"/>
    <nd ref="8059824529"/>
    <nd ref="473497533"/>
    <nd ref="8410083759"/>
    <nd ref="8410083760"/>
    <nd ref="25269089"/>
    <tag k="foot" v="no"/>
    <tag k="highway" v="primary_link"/>
    <tag k="lanes" v="1"/>
    <tag k="lit" v="yes"/>
    <tag k="maxspeed" v="50"/>
    <tag k="oneway" v="yes"/>
    <tag k="ref" v="10"/>
    <tag k="sidewalk" v="no"/>
    <tag k="smoothness" v="excellent"/>
    <tag k="surface" v="asphalt"/>
  </way>
  <way id="60120760" version="10" timestamp="2024-02-10T15:22:14Z" changeset="147296994" uid="558173" user="pr칩fa">
    <nd ref="6219644805"/>
    <nd ref="8431584302"/>
    <nd ref="8431584303"/>
    <nd ref="8431584304"/>
    <nd ref="112199313"/>
    <nd ref="8431584305"/>
    <nd ref="7307373"/>
    <nd ref="6190450328"/>
    <nd ref="112199305"/>
    <nd ref="8431584306"/>
    <nd ref="386852108"/>
    <nd ref="746958072"/>
    <nd ref="8431584325"/>
    <nd ref="5017093656"/>
    <nd ref="7307374"/>
    <tag k="highway" v="residential"/>
    <tag k="lane_markings" v="no"/>
    <tag k="name" v="Bryksova"/>
    <tag k="source:name" v="nameit/uir-adr"/>
    <tag k="surface" v="asphalt"/>
  </way>
  <way id="60120914" version="2" timestamp="2020-10-27T01:28:51Z" changeset="93085901" uid="4054181" user="Richard Janda">
    <nd ref="25610763"/>
    <nd ref="8048970784"/>
    <nd ref="8048970782"/>
    <nd ref="8048970780"/>
    <nd ref="25610765"/>
    <nd ref="25610767"/>
    <tag k="highway" v="residential"/>
    <tag k="name" v="Ma켿치kova"/>
    <tag k="source:name" v="nameit/uir-adr"/>
  </way>
  <way id="60120917" version="3" timestamp="2021-02-17T10:56:14Z" changeset="99445546" uid="11276832" user="HaPe-CZ">
    <nd ref="746958105"/>
    <nd ref="8431584321"/>
    <nd ref="8431584323"/>
    <nd ref="8431584322"/>
    <nd ref="5017093655"/>
    <nd ref="8431584320"/>
    <nd ref="8431584319"/>
    <nd ref="746958072"/>
    <tag k="highway" v="residential"/>
    <tag k="oneway" v="yes"/>
  </way>
  <way id="72049489" version="1" timestamp="2010-08-12T11:11:22Z" changeset="5471695" uid="3516" user="BiIbo">
    <nd ref="856547783"/>
    <nd ref="856547785"/>
    <nd ref="856547775"/>
    <nd ref="7307357"/>
    <tag k="highway" v="residential"/>
    <tag k="name" v="Ku캜erova"/>
  </way>
  <way id="72055134" version="2" timestamp="2019-07-07T19:26:53Z" changeset="71989901" uid="4054181" user="Richard Janda">
    <nd ref="153029008"/>
    <nd ref="856628089"/>
    <nd ref="856628044"/>
    <tag k="highway" v="residential"/>
    <tag k="name" v="Bobkova"/>
    <tag k="source:name" v="nameit/uir-adr"/>
  </way>
  <way id="72056460" version="8" timestamp="2024-04-23T17:11:42Z" changeset="150406964" uid="10932047" user="AF HAF KARTOGRAF">
    <nd ref="296737094"/>
    <nd ref="6190450388"/>
    <nd ref="5017091499"/>
    <nd ref="2799149919"/>
    <nd ref="2799150005"/>
    <nd ref="6174658488"/>
    <nd ref="2799150168"/>
    <nd ref="3737100133"/>
    <nd ref="296737094"/>
    <tag k="addr:city" v="Praha"/>
    <tag k="addr:conscriptionnumber" v="993"/>
    <tag k="addr:housenumber" v="993/8"/>
    <tag k="addr:postcode" v="19800"/>
    <tag k="addr:street" v="Kpt. Str치nsk칠ho"/>
    <tag k="addr:streetnumber" v="8"/>
    <tag k="building" v="civic"/>
    <tag k="building:flats" v="38"/>
    <tag k="building:levels" v="9"/>
    <tag k="ref:ruian:addr" v="22693351"/>
    <tag k="ref:ruian:building" v="22266828"/>
    <tag k="source" v="cuzk:ruian"/>
  </way>
  <way id="72056462" version="8" timestamp="2024-04-23T17:11:42Z" changeset="150406964" uid="10932047" user="AF HAF KARTOGRAF">
    <nd ref="296761567"/>
    <nd ref="5017091514"/>
    <nd ref="3737100133"/>
    <nd ref="2799150168"/>
    <nd ref="6174658487"/>
    <nd ref="856667602"/>
    <nd ref="296761567"/>
    <tag k="addr:city" v="Praha"/>
    <tag k="addr:conscriptionnumber" v="994"/>
    <tag k="addr:housenumber" v="994/6"/>
    <tag k="addr:postcode" v="19800"/>
    <tag k="addr:street" v="Kpt. Str치nsk칠ho"/>
    <tag k="addr:streetnumber" v="6"/>
    <tag k="building" v="civic"/>
    <tag k="building:flats" v="38"/>
    <tag k="building:levels" v="9"/>
    <tag k="ref:ruian:addr" v="22693360"/>
    <tag k="ref:ruian:building" v="22266828"/>
    <tag k="source" v="cuzk:ruian"/>
  </way>
  <way id="72056744" version="7" timestamp="2022-01-26T11:45:07Z" changeset="116619394" uid="11174973" user="smidra">
    <nd ref="2799149388"/>
    <nd ref="2799149524"/>
    <nd ref="2799149514"/>
    <nd ref="2799149382"/>
    <nd ref="2799149388"/>
    <tag k="amenity" v="community_centre"/>
    <tag k="building" v="industrial"/>
    <tag k="building:levels" v="1"/>
    <tag k="building:ruian:type" v="16"/>
    <tag k="name" v="Plech치rna"/>
    <tag k="opening_hours" v="Mo-Su 13:00-21:00"/>
    <tag k="ref:ruian:building" v="22266917"/>
    <tag k="source" v="cuzk:ruian"/>
    <tag k="wheelchair" v="yes"/>
    <tag k="wikidata" v="Q93113472"/>
  </way>
  <way id="72056921" version="8" timestamp="2019-11-28T21:30:04Z" changeset="77699281" uid="9562851" user="pasukanoren">
    <nd ref="2799152771"/>
    <nd ref="2799152773"/>
    <nd ref="2799152772"/>
    <nd ref="2799152774"/>
    <nd ref="2799152775"/>
    <nd ref="2799152776"/>
    <nd ref="2799152777"/>
    <nd ref="2799152767"/>
    <nd ref="2799152766"/>
    <nd ref="2799152764"/>
    <nd ref="2799152763"/>
    <nd ref="2799152765"/>
    <nd ref="2799152762"/>
    <nd ref="2799152769"/>
    <nd ref="2799152768"/>
    <nd ref="2799152770"/>
    <nd ref="2799152771"/>
    <tag k="amenity" v="fast_food"/>
    <tag k="brand" v="McDonald's"/>
    <tag k="brand:wikidata" v="Q38076"/>
    <tag k="brand:wikipedia" v="en:McDonald's"/>
    <tag k="building" v="civic"/>
    <tag k="building:levels" v="1"/>
    <tag k="building:ruian:type" v="5"/>
    <tag k="cuisine" v="burger"/>
    <tag k="email" v="info@mcdonalds.cz"/>
    <tag k="name" v="McDonald's"/>
    <tag k="opening_hours" v="Mo-Su 07:00-24:00"/>
    <tag k="operator" v="McDonald`s 캛R, spol. s r.o."/>
    <tag k="phone" v="+420 724 104 314"/>
    <tag k="ref:ruian:building" v="22264710"/>
    <tag k="source" v="cuzk:ruian"/>
    <tag k="takeaway" v="yes"/>
    <tag k="website" v="https://www.mcdonalds.cz/"/>
  </way>
  <way id="72095742" version="6" timestamp="2024-03-30T20:01:14Z" changeset="149365661" uid="10932047" user="AF HAF KARTOGRAF">
    <nd ref="2799149290"/>
    <nd ref="2799149291"/>
    <nd ref="2799150163"/>
    <nd ref="2799150119"/>
    <nd ref="2799147986"/>
    <nd ref="2799147967"/>
    <nd ref="2799147964"/>
    <nd ref="5658771083"/>
    <nd ref="2799149246"/>
    <nd ref="5658771082"/>
    <nd ref="2799149244"/>
    <nd ref="2799147975"/>
    <nd ref="2799150031"/>
    <nd ref="2799150034"/>
    <nd ref="2799150137"/>
    <nd ref="2799150134"/>
    <nd ref="2799149290"/>
    <tag k="addr:conscriptionnumber" v="638"/>
    <tag k="addr:housenumber" v="638/2"/>
    <tag k="addr:postcode" v="19800"/>
    <tag k="addr:street" v="Truhl치콏ova"/>
    <tag k="addr:streetnumber" v="2"/>
    <tag k="building" v="residential"/>
    <tag k="building:flats" v="1"/>
    <tag k="building:ruian:type" v="6"/>
    <tag k="ref:ruian:addr" v="28309472"/>
    <tag k="ref:ruian:building" v="27768635"/>
    <tag k="source" v="cuzk:ruian"/>
    <tag k="start_date" v="2011-01-03"/>
  </way>
  <way id="72096068" version="7" timestamp="2022-05-05T06:24:17Z" changeset="120571061" uid="4155693" user="V치clav Nov치k">
    <nd ref="3966071640"/>
    <nd ref="2799150823"/>
    <nd ref="2799150818"/>
    <nd ref="2799150728"/>
    <nd ref="2799150773"/>
    <nd ref="2799150841"/>
    <nd ref="2799150859"/>
    <nd ref="2799150848"/>
    <nd ref="2799150864"/>
    <nd ref="2799150867"/>
    <nd ref="3966071763"/>
    <nd ref="3966071645"/>
    <nd ref="3966071639"/>
    <nd ref="3966071619"/>
    <nd ref="3966071631"/>
    <nd ref="3966071599"/>
    <nd ref="2799150695"/>
    <nd ref="2799150706"/>
    <nd ref="2799150669"/>
    <nd ref="2799150682"/>
    <nd ref="2799150671"/>
    <nd ref="2799150656"/>
    <nd ref="2799150612"/>
    <nd ref="2799150601"/>
    <nd ref="2799150543"/>
    <nd ref="2799150600"/>
    <nd ref="2799150626"/>
    <nd ref="2799150675"/>
    <nd ref="2799150658"/>
    <nd ref="2799150698"/>
    <nd ref="2799150716"/>
    <nd ref="2799150697"/>
    <nd ref="2799150711"/>
    <nd ref="2799150723"/>
    <nd ref="2799150742"/>
    <nd ref="2799150661"/>
    <nd ref="2799150685"/>
    <nd ref="3966071628"/>
    <nd ref="3966071647"/>
    <nd ref="3966071638"/>
    <nd ref="3966071640"/>
    <tag k="addr:housenumber" v="1060/2"/>
    <tag k="addr:street" v="Gener치la Janou코ka"/>
    <tag k="amenity" v="library"/>
    <tag k="building" v="civic"/>
    <tag k="building:levels" v="1"/>
    <tag k="building:ruian:type" v="5"/>
    <tag k="name" v="M캩stsk치 knihovna - pobo캜ka Rajsk치 zahrada"/>
    <tag k="ref:ruian:building" v="22267476"/>
    <tag k="source" v="cuzk:ruian"/>
  </way>
  <way id="72224718" version="8" timestamp="2022-10-28T06:15:52Z" changeset="128156128" uid="16497330" user="Lopatalopez">
    <nd ref="858333080"/>
    <nd ref="858333096"/>
    <nd ref="858333115"/>
    <nd ref="858333121"/>
    <nd ref="858333071"/>
    <nd ref="858333079"/>
    <nd ref="858333093"/>
    <nd ref="858333113"/>
    <nd ref="858333099"/>
    <nd ref="858333118"/>
    <nd ref="2799152418"/>
    <nd ref="858333048"/>
    <nd ref="2799152456"/>
    <nd ref="858333037"/>
    <nd ref="858333055"/>
    <nd ref="858333080"/>
    <tag k="addr:city" v="Praha"/>
    <tag k="addr:housenumber" v="1139"/>
    <tag k="addr:postcode" v="19800"/>
    <tag k="addr:street" v="C칤glerova"/>
    <tag k="brand" v="Albert"/>
    <tag k="brand:wikidata" v="Q9144241"/>
    <tag k="brand:wikipedia" v="cs:Albert (obchodn칤 콏et캩zec)"/>
    <tag k="building" v="supermarket"/>
    <tag k="building:levels" v="2"/>
    <tag k="email" v="info@ahold.cz"/>
    <tag k="name" v="Albert"/>
    <tag k="opening_hours" v="Mo-Su 06:00-21:00"/>
    <tag k="phone" v="+420 800 402 402"/>
    <tag k="shop" v="supermarket"/>
    <tag k="source" v="cuzk:km"/>
    <tag k="website" v="https://www.albert.cz/"/>
  </way>
  <way id="72226194" version="6" timestamp="2023-07-22T12:29:32Z" changeset="138851977" uid="6588887" user="Martin2035">
    <nd ref="251240"/>
    <nd ref="251243"/>
    <nd ref="10760202661"/>
    <nd ref="1298231103"/>
    <nd ref="10760202662"/>
    <nd ref="1298230909"/>
    <nd ref="1576210172"/>
    <tag k="highway" v="residential"/>
    <tag k="lanes" v="1"/>
    <tag k="maxspeed" v="30"/>
    <tag k="maxspeed:type" v="CZ:zone30"/>
    <tag k="name" v="Volkova"/>
    <tag k="oneway" v="yes"/>
    <tag k="surface" v="asphalt"/>
    <tag k="zone:maxspeed" v="30"/>
  </way>
  <way id="76465908" version="4" timestamp="2022-10-23T08:25:40Z" changeset="127946689" uid="6588887" user="Martin2035">
    <nd ref="901522186"/>
    <nd ref="3055004562"/>
    <nd ref="2036063815"/>
    <nd ref="901522187"/>
    <tag k="highway" v="residential"/>
    <tag k="name" v="Kostrbova"/>
    <tag k="surface" v="asphalt"/>
  </way>
  <way id="81797167" version="10" timestamp="2022-10-23T08:25:40Z" changeset="127946689" uid="6588887" user="Martin2035">
    <nd ref="354728893"/>
    <nd ref="10123249359"/>
    <nd ref="1124860942"/>
    <nd ref="1110087000"/>
    <nd ref="6651885203"/>
    <nd ref="6926054"/>
    <nd ref="1110087023"/>
    <nd ref="6926059"/>
    <nd ref="611320454"/>
    <tag k="cycleway:left" v="soft_lane"/>
    <tag k="highway" v="residential"/>
    <tag k="lanes" v="2"/>
    <tag k="maxspeed" v="50"/>
    <tag k="name" v="Bryksova"/>
    <tag k="surface" v="asphalt"/>
  </way>
  <way id="81797226" version="3" timestamp="2020-10-27T01:28:51Z" changeset="93085901" uid="4054181" user="Richard Janda">
    <nd ref="386852126"/>
    <nd ref="746958104"/>
    <nd ref="746958112"/>
    <nd ref="746958076"/>
    <nd ref="1397732081"/>
    <nd ref="1397732082"/>
    <nd ref="8048956528"/>
    <nd ref="1397732084"/>
    <tag k="highway" v="residential"/>
    <tag k="source" v="cuzk:km;uhul:ortofoto"/>
  </way>
  <way id="81797319" version="6" timestamp="2024-06-09T11:17:12Z" changeset="152449943" uid="12080464" user="Vojt캩ch Kade콏치bek">
    <nd ref="3967775528"/>
    <nd ref="3967775527"/>
    <nd ref="25610771"/>
    <tag k="cycleway:left" v="lane"/>
    <tag k="cycleway:right" v="no"/>
    <tag k="highway" v="residential"/>
    <tag k="name" v="Bobkova"/>
    <tag k="oneway" v="yes"/>
    <tag k="oneway:bicycle" v="no"/>
    <tag k="source:name" v="nameit/uir-adr"/>
  </way>
  <way id="114412584" version="12" timestamp="2024-08-20T14:34:31Z" changeset="155512757" uid="8971394" user="vojtechzaboril">
    <nd ref="3411057021"/>
    <nd ref="3411057025"/>
    <tag k="cycleway:right" v="shared_lane"/>
    <tag k="hgv" v="no"/>
    <tag k="highway" v="tertiary"/>
    <tag k="lane_markings" v="no"/>
    <tag k="maxspeed" v="50"/>
    <tag k="name" v="Chlumeck치"/>
    <tag k="oneway" v="yes"/>
    <tag k="surface" v="asphalt"/>
  </way>
  <way id="116661383" version="12" timestamp="2025-05-08T19:21:36Z" changeset="165999865" uid="3199858" user="Mateusz Konieczny - bot account">
    <nd ref="112189208"/>
    <nd ref="112189106"/>
    <tag k="cycleway:right" v="no"/>
    <tag k="foot" v="yes"/>
    <tag k="highway" v="secondary"/>
    <tag k="lanes" v="3"/>
    <tag k="lit" v="yes"/>
    <tag k="maxspeed" v="50"/>
    <tag k="name" v="Chlumeck치"/>
    <tag k="oneway" v="yes"/>
    <tag k="placement" v="right_of:2"/>
    <tag k="sidewalk" v="no"/>
    <tag k="surface" v="asphalt"/>
    <tag k="turn:lanes" v="left|right|right"/>
  </way>
  <way id="121902916" version="4" timestamp="2021-11-02T17:14:14Z" changeset="113294595" uid="1641564" user="Jakuje">
    <nd ref="6935892493"/>
    <nd ref="1363481431"/>
    <nd ref="9219174897"/>
    <nd ref="9219174895"/>
    <nd ref="858387091"/>
    <nd ref="252012710"/>
    <tag k="highway" v="residential"/>
    <tag k="name" v="Rudolfa Holeky"/>
  </way>
  <way id="125973654" version="13" timestamp="2024-06-09T11:17:12Z" changeset="152449943" uid="12080464" user="Vojt캩ch Kade콏치bek">
    <nd ref="25610771"/>
    <nd ref="25610772"/>
    <nd ref="25610773"/>
    <nd ref="25610777"/>
    <nd ref="25610786"/>
    <nd ref="25610792"/>
    <nd ref="1397732070"/>
    <nd ref="1397732079"/>
    <nd ref="25610767"/>
    <tag k="cycleway:left" v="lane"/>
    <tag k="cycleway:right" v="no"/>
    <tag k="highway" v="residential"/>
    <tag k="name" v="Bobkova"/>
    <tag k="oneway" v="yes"/>
    <tag k="oneway:bicycle" v="no"/>
    <tag k="source:name" v="nameit/uir-adr"/>
  </way>
  <way id="126778772" version="10" timestamp="2024-05-27T06:56:55Z" changeset="151882216" uid="21522924" user="jakub_benes">
    <nd ref="1404503026"/>
    <nd ref="1404503071"/>
    <nd ref="3419424964"/>
    <nd ref="8431584077"/>
    <nd ref="1404503045"/>
    <nd ref="8431584097"/>
    <nd ref="11281742648"/>
    <nd ref="1404503054"/>
    <nd ref="11281742642"/>
    <nd ref="1134896766"/>
    <nd ref="10741115175"/>
    <nd ref="1134896836"/>
    <nd ref="1404503026"/>
    <tag k="access" v="yes"/>
    <tag k="amenity" v="parking"/>
    <tag k="building" v="garage"/>
    <tag k="building:ruian:type" v="18"/>
    <tag k="capacity" v="300"/>
    <tag k="fee" v="no"/>
    <tag k="layer" v="1"/>
    <tag k="name" v="Parkovac칤 d콢m 캛ern칳 Most"/>
    <tag k="operator" v="Centrum 캛ern칳 Most a.s."/>
    <tag k="operator:type" v="private"/>
    <tag k="parking" v="multi-storey"/>
    <tag k="ref:ruian:building" v="49572687"/>
    <tag k="source" v="cuzk:ruian"/>
    <tag k="surface" v="concrete"/>
    <tag k="wheelchair" v="yes"/>
  </way>
  <way id="127471354" version="4" timestamp="2022-10-23T08:25:40Z" changeset="127946689" uid="6588887" user="Martin2035">
    <nd ref="354728893"/>
    <nd ref="1410761583"/>
    <tag k="cycleway:right" v="soft_lane"/>
    <tag k="highway" v="residential"/>
    <tag k="lanes" v="2"/>
    <tag k="name" v="Bryksova"/>
    <tag k="sidewalk" v="no"/>
    <tag k="surface" v="asphalt"/>
  </way>
  <way id="127471355" version="8" timestamp="2021-04-07T09:34:52Z" changeset="102468679" uid="6588887" user="Martin2035">
    <nd ref="1410761621"/>
    <nd ref="1410761620"/>
    <nd ref="1410761618"/>
    <nd ref="8429555286"/>
    <nd ref="1410761616"/>
    <tag k="highway" v="tertiary"/>
    <tag k="lanes" v="1"/>
    <tag k="lit" v="yes"/>
    <tag k="name" v="Ocelkova"/>
    <tag k="oneway" v="yes"/>
    <tag k="surface" v="asphalt"/>
  </way>
  <way id="127471356" version="2" timestamp="2023-10-11T20:23:00Z" changeset="142451827" uid="25561" user="Gobik">
    <nd ref="6925873"/>
    <nd ref="354725052"/>
    <nd ref="354725589"/>
    <tag k="highway" v="residential"/>
    <tag k="name" v="Va코치tkova"/>
    <tag k="surface" v="asphalt"/>
  </way>
  <way id="127471357" version="3" timestamp="2023-08-10T08:25:47Z" changeset="139694432" uid="5748" user="pschonmann">
    <nd ref="1410761560"/>
    <nd ref="1410761568"/>
    <nd ref="1298231003"/>
    <nd ref="6925877"/>
    <tag k="hgv" v="destination"/>
    <tag k="highway" v="residential"/>
    <tag k="name" v="Va코치tkova"/>
    <tag k="surface" v="asphalt"/>
  </way>
  <way id="127471358" version="2" timestamp="2012-11-27T09:09:26Z" changeset="14056185" uid="17615" user="Petr Dlouh칳">
    <nd ref="1410761609"/>
    <nd ref="2036033232"/>
    <nd ref="1410761611"/>
    <tag k="highway" v="residential"/>
  </way>
  <way id="127471359" version="3" timestamp="2023-10-11T20:23:18Z" changeset="142451836" uid="25561" user="Gobik">
    <nd ref="1410761560"/>
    <nd ref="354735567"/>
    <tag k="highway" v="tertiary"/>
    <tag k="lane_markings" v="no"/>
    <tag k="surface" v="asphalt"/>
  </way>
  <way id="127471734" version="12" timestamp="2023-08-10T08:27:56Z" changeset="139694432" uid="5748" user="pschonmann">
    <nd ref="1571592831"/>
    <nd ref="7581334856"/>
    <tag k="cycleway:right" v="soft_lane"/>
    <tag k="highway" v="tertiary"/>
    <tag k="lanes" v="2"/>
    <tag k="maxspeed" v="50"/>
    <tag k="maxspeed:source" v="cz:city_limit"/>
    <tag k="name" v="Broumarsk치"/>
    <tag k="oneway" v="yes"/>
    <tag k="surface" v="asphalt"/>
  </way>
  <way id="127471735" version="7" timestamp="2021-04-21T09:31:34Z" changeset="103327352" uid="6588887" user="Martin2035">
    <nd ref="1410764413"/>
    <nd ref="1410764419"/>
    <nd ref="8650781139"/>
    <nd ref="1410764423"/>
    <nd ref="1410764427"/>
    <tag k="cycleway:right" v="soft_lane"/>
    <tag k="highway" v="tertiary"/>
    <tag k="lanes" v="2"/>
    <tag k="name" v="Broumarsk치"/>
    <tag k="oneway" v="yes"/>
    <tag k="surface" v="asphalt"/>
    <tag k="turn:lanes" v="left;through|through;right"/>
  </way>
  <way id="127471737" version="4" timestamp="2018-11-01T20:25:42Z" changeset="64092642" uid="558173" user="pr칩fa">
    <nd ref="470818941"/>
    <nd ref="1410764429"/>
    <tag k="highway" v="residential"/>
    <tag k="name" v="Sklensk치"/>
    <tag k="surface" v="asphalt"/>
  </way>
  <way id="128565334" version="10" timestamp="2024-08-31T13:24:16Z" changeset="156015076" uid="8971394" user="vojtechzaboril">
    <nd ref="1374570655"/>
    <nd ref="8119356705"/>
    <nd ref="1826150987"/>
    <nd ref="858343642"/>
    <nd ref="3764487826"/>
    <nd ref="1298230948"/>
    <tag k="foot" v="yes"/>
    <tag k="highway" v="tertiary"/>
    <tag k="lanes" v="3"/>
    <tag k="lanes:backward" v="2"/>
    <tag k="lanes:forward" v="1"/>
    <tag k="maxspeed" v="50"/>
    <tag k="maxspeed:source" v="cz:city_limit"/>
    <tag k="name" v="C칤glerova"/>
    <tag k="placement:forward" v="left_of:1"/>
    <tag k="sidewalk" v="both"/>
    <tag k="surface" v="asphalt"/>
    <tag k="turn:lanes:backward" v="left|through;right"/>
  </way>
  <way id="128565335" version="12" timestamp="2023-02-23T23:59:32Z" changeset="132947619" uid="469828" user="Luk치코 Jel칤nek">
    <nd ref="1576210176"/>
    <nd ref="1298231080"/>
    <nd ref="1298230904"/>
    <nd ref="9548334026"/>
    <nd ref="1576210177"/>
    <nd ref="1298231132"/>
    <nd ref="1298230933"/>
    <nd ref="251239"/>
    <nd ref="25269125"/>
    <nd ref="1298231096"/>
    <nd ref="9681399287"/>
    <nd ref="25450813"/>
    <nd ref="1298230996"/>
    <nd ref="25450812"/>
    <nd ref="25314808"/>
    <nd ref="1571593336"/>
    <nd ref="10689580918"/>
    <nd ref="10689580917"/>
    <nd ref="251918"/>
    <nd ref="697029378"/>
    <nd ref="697029383"/>
    <nd ref="251922"/>
    <nd ref="6778249389"/>
    <nd ref="319597168"/>
    <nd ref="6778249388"/>
    <nd ref="25314809"/>
    <nd ref="697029385"/>
    <nd ref="319597169"/>
    <nd ref="25450811"/>
    <nd ref="25610883"/>
    <nd ref="1410761621"/>
    <tag k="highway" v="tertiary"/>
    <tag k="lanes" v="2"/>
    <tag k="maxspeed" v="50"/>
    <tag k="maxspeed:source" v="cz:city_limit"/>
    <tag k="name" v="C칤glerova"/>
    <tag k="surface" v="asphalt"/>
  </way>
  <way id="131769865" version="5" timestamp="2024-05-20T16:54:22Z" changeset="151590581" uid="469828" user="Luk치코 Jel칤nek">
    <nd ref="112189451"/>
    <nd ref="6928239"/>
    <tag k="check_date:surface" v="2021-07-21"/>
    <tag k="cycleway:both" v="no"/>
    <tag k="highway" v="tertiary"/>
    <tag k="lanes" v="2"/>
    <tag k="lanes:both_ways" v="1"/>
    <tag k="lit" v="yes"/>
    <tag k="maxspeed" v="50"/>
    <tag k="name" v="Chlumeck치"/>
    <tag k="smoothness" v="good"/>
    <tag k="source:name" v="nameit/uir-adr"/>
    <tag k="surface" v="asphalt"/>
  </way>
  <way id="132674718" version="6" timestamp="2023-08-10T08:05:51Z" changeset="139693627" uid="5748" user="pschonmann">
    <nd ref="1410761615"/>
    <nd ref="483391"/>
    <tag k="highway" v="residential"/>
    <tag k="lane_markings" v="no"/>
    <tag k="maxspeed" v="50"/>
    <tag k="name" v="Breitcetlova"/>
    <tag k="oneway" v="no"/>
    <tag k="sidewalk" v="no"/>
    <tag k="surface" v="asphalt"/>
  </way>
  <way id="132674719" version="6" timestamp="2024-05-20T17:03:44Z" changeset="151590581" uid="469828" user="Luk치코 Jel칤nek">
    <nd ref="171489364"/>
    <nd ref="170236734"/>
    <nd ref="170236733"/>
    <nd ref="170236731"/>
    <nd ref="249431738"/>
    <nd ref="249431744"/>
    <nd ref="170236728"/>
    <nd ref="170236727"/>
    <nd ref="170236725"/>
    <nd ref="170236724"/>
    <nd ref="7062844622"/>
    <nd ref="170236721"/>
    <tag k="highway" v="residential"/>
    <tag k="lane_markings" v="no"/>
    <tag k="name" v="Bryksova"/>
    <tag k="oneway" v="yes"/>
    <tag k="smoothness" v="good"/>
    <tag k="source:name" v="nameit/uir-adr"/>
    <tag k="surface" v="asphalt"/>
  </way>
  <way id="132674721" version="3" timestamp="2024-02-10T15:31:40Z" changeset="147296994" uid="558173" user="pr칩fa">
    <nd ref="7307374"/>
    <nd ref="170236738"/>
    <nd ref="170236737"/>
    <nd ref="170236736"/>
    <nd ref="170236735"/>
    <nd ref="171489364"/>
    <tag k="highway" v="residential"/>
    <tag k="lane_markings" v="no"/>
    <tag k="name" v="Bryksova"/>
    <tag k="oneway" v="yes"/>
    <tag k="source:name" v="nameit/uir-adr"/>
    <tag k="surface" v="asphalt"/>
  </way>
  <way id="132674722" version="4" timestamp="2021-04-07T09:34:52Z" changeset="102468679" uid="6588887" user="Martin2035">
    <nd ref="1410761621"/>
    <nd ref="8429555415"/>
    <nd ref="473497534"/>
    <nd ref="8429555416"/>
    <nd ref="8429555414"/>
    <nd ref="473497524"/>
    <tag k="highway" v="tertiary"/>
    <tag k="lanes" v="1"/>
    <tag k="maxspeed" v="50"/>
    <tag k="name" v="C칤glerova"/>
    <tag k="surface" v="asphalt"/>
  </way>
  <way id="132674723" version="2" timestamp="2019-07-26T20:42:35Z" changeset="72703165" uid="4054181" user="Richard Janda">
    <nd ref="746986407"/>
    <nd ref="153029035"/>
    <nd ref="858482297"/>
    <nd ref="6651867509"/>
    <nd ref="153029055"/>
    <nd ref="746958098"/>
    <nd ref="746958079"/>
    <nd ref="746986403"/>
    <nd ref="153029064"/>
    <tag k="highway" v="residential"/>
    <tag k="name" v="Franti코kova"/>
    <tag k="source:name" v="nameit/uir-adr"/>
  </way>
  <way id="132674724" version="4" timestamp="2024-04-04T18:17:05Z" changeset="149582426" uid="12080464" user="Vojt캩ch Kade콏치bek">
    <nd ref="1397730444"/>
    <nd ref="483391"/>
    <tag k="cycleway:right" v="shared_lane"/>
    <tag k="highway" v="tertiary"/>
    <tag k="lanes" v="2"/>
    <tag k="maxspeed" v="50"/>
    <tag k="name" v="Ocelkova"/>
    <tag k="oneway" v="yes"/>
    <tag k="surface" v="asphalt"/>
  </way>
  <way id="132674725" version="7" timestamp="2024-07-31T16:51:04Z" changeset="154659626" uid="20277966" user="legwarmer">
    <nd ref="483414"/>
    <nd ref="8429555374"/>
    <nd ref="30271721"/>
    <nd ref="8429555375"/>
    <nd ref="8429555376"/>
    <nd ref="30271722"/>
    <nd ref="30271723"/>
    <nd ref="25450823"/>
    <nd ref="483415"/>
    <tag k="cycleway:right" v="soft_lane"/>
    <tag k="highway" v="tertiary"/>
    <tag k="lanes" v="2"/>
    <tag k="lit" v="yes"/>
    <tag k="name" v="Ocelkova"/>
    <tag k="note" v="bicycle lanes added in 2022"/>
    <tag k="oneway" v="yes"/>
    <tag k="surface" v="asphalt"/>
    <tag k="turn:lanes" v="left|through"/>
  </way>
  <way id="132674726" version="13" timestamp="2022-01-29T12:38:12Z" changeset="116742310" uid="8971394" user="vojtechzaboril">
    <nd ref="1410761588"/>
    <nd ref="1410761587"/>
    <tag k="cycleway:right" v="soft_lane"/>
    <tag k="highway" v="tertiary"/>
    <tag k="lanes" v="1"/>
    <tag k="lit" v="yes"/>
    <tag k="maxheight" v="default"/>
    <tag k="maxspeed" v="50"/>
    <tag k="name" v="Ocelkova"/>
    <tag k="oneway" v="yes"/>
    <tag k="sidewalk" v="separate"/>
    <tag k="surface" v="asphalt"/>
  </way>
  <way id="137822024" version="2" timestamp="2012-07-27T17:51:24Z" changeset="12514569" uid="527259" user="Vratislav Filler">
    <nd ref="359272739"/>
    <nd ref="1840155766"/>
    <tag k="highway" v="residential"/>
    <tag k="name" v="Gener치la Janou코ka"/>
  </way>
  <way id="137822025" version="10" timestamp="2020-01-10T18:19:25Z" changeset="79430708" uid="6588887" user="Martin2035">
    <nd ref="1410761572"/>
    <nd ref="1410761575"/>
    <nd ref="6778222856"/>
    <tag k="cycleway:right" v="soft_lane"/>
    <tag k="highway" v="tertiary"/>
    <tag k="lanes" v="2"/>
    <tag k="lit" v="yes"/>
    <tag k="name" v="Ocelkova"/>
    <tag k="oneway" v="yes"/>
    <tag k="surface" v="asphalt"/>
  </way>
  <way id="137822026" version="10" timestamp="2021-04-07T09:34:52Z" changeset="102468679" uid="6588887" user="Martin2035">
    <nd ref="1298230989"/>
    <nd ref="7122950787"/>
    <tag k="cycleway:right" v="shared_lane"/>
    <tag k="highway" v="tertiary"/>
    <tag k="lanes" v="1"/>
    <tag k="maxheight" v="default"/>
    <tag k="name" v="Ocelkova"/>
    <tag k="oneway" v="yes"/>
    <tag k="surface" v="asphalt"/>
  </way>
  <way id="143605285" version="1" timestamp="2011-12-31T16:56:09Z" changeset="10256664" uid="527259" user="Vratislav Filler">
    <nd ref="354719333"/>
    <nd ref="366085008"/>
    <nd ref="354718839"/>
    <tag k="highway" v="residential"/>
    <tag k="name" v="Hla캞ova"/>
  </way>
  <way id="143605311" version="6" timestamp="2021-04-07T09:34:52Z" changeset="102468679" uid="6588887" user="Martin2035">
    <nd ref="1571592697"/>
    <nd ref="8119356708"/>
    <nd ref="1826150960"/>
    <nd ref="1571592728"/>
    <nd ref="1571592759"/>
    <nd ref="1571592831"/>
    <tag k="highway" v="tertiary_link"/>
    <tag k="lanes" v="1"/>
    <tag k="oneway" v="yes"/>
    <tag k="surface" v="asphalt"/>
    <tag k="turn:lanes" v="right"/>
  </way>
  <way id="143952419" version="7" timestamp="2024-04-04T18:17:05Z" changeset="149582426" uid="12080464" user="Vojt캩ch Kade콏치bek">
    <nd ref="473497524"/>
    <nd ref="8429555292"/>
    <nd ref="8429555291"/>
    <nd ref="8429555290"/>
    <nd ref="8429555289"/>
    <nd ref="473497523"/>
    <nd ref="8429555288"/>
    <tag k="cycleway:right" v="soft_lane"/>
    <tag k="highway" v="tertiary"/>
    <tag k="lanes" v="1"/>
    <tag k="name" v="Ocelkova"/>
    <tag k="oneway" v="yes"/>
    <tag k="surface" v="asphalt"/>
  </way>
  <way id="144034648" version="5" timestamp="2022-01-31T09:40:33Z" changeset="116814356" uid="8971394" user="vojtechzaboril">
    <nd ref="1576210158"/>
    <nd ref="1298231176"/>
    <nd ref="6512687744"/>
    <nd ref="7307704"/>
    <tag k="highway" v="residential"/>
    <tag k="name" v="Anderleho"/>
    <tag k="source:name" v="nameit/uir-adr"/>
  </way>
  <way id="144034649" version="3" timestamp="2023-07-22T12:29:32Z" changeset="138851977" uid="6588887" user="Martin2035">
    <nd ref="251855"/>
    <nd ref="251813"/>
    <tag k="highway" v="residential"/>
    <tag k="maxspeed" v="30"/>
    <tag k="maxspeed:type" v="CZ:zone30"/>
    <tag k="name" v="Boj캜enkova"/>
    <tag k="source:name" v="nameit/uir-adr"/>
    <tag k="surface" v="asphalt"/>
    <tag k="zone:maxspeed" v="30"/>
  </way>
  <way id="144034650" version="3" timestamp="2023-07-22T12:29:32Z" changeset="138851977" uid="6588887" user="Martin2035">
    <nd ref="251813"/>
    <nd ref="251849"/>
    <nd ref="1298231163"/>
    <nd ref="858351679"/>
    <nd ref="25638931"/>
    <nd ref="251242"/>
    <tag k="highway" v="residential"/>
    <tag k="lanes" v="1"/>
    <tag k="maxspeed" v="30"/>
    <tag k="maxspeed:type" v="CZ:zone30"/>
    <tag k="name" v="Boj캜enkova"/>
    <tag k="oneway" v="yes"/>
    <tag k="source:name" v="nameit/uir-adr"/>
    <tag k="surface" v="asphalt"/>
    <tag k="zone:maxspeed" v="30"/>
  </way>
  <way id="144034652" version="5" timestamp="2023-07-22T12:29:32Z" changeset="138851977" uid="6588887" user="Martin2035">
    <nd ref="1576210175"/>
    <nd ref="1298231168"/>
    <nd ref="355996160"/>
    <nd ref="912796055"/>
    <nd ref="355996339"/>
    <nd ref="251813"/>
    <tag k="foot" v="yes"/>
    <tag k="highway" v="residential"/>
    <tag k="lanes" v="1"/>
    <tag k="maxspeed" v="30"/>
    <tag k="maxspeed:type" v="CZ:zone30"/>
    <tag k="name" v="Bou콏ilova"/>
    <tag k="oneway" v="yes"/>
    <tag k="sidewalk" v="both"/>
    <tag k="source:name" v="nameit/uir-adr"/>
    <tag k="surface" v="asphalt"/>
    <tag k="zone:maxspeed" v="30"/>
  </way>
  <way id="144034653" version="13" timestamp="2025-04-29T16:40:47Z" changeset="165599819" uid="469828" user="Luk치코 Jel칤nek">
    <nd ref="8119356690"/>
    <nd ref="414223977"/>
    <nd ref="11787434652"/>
    <nd ref="3138426022"/>
    <nd ref="252012715"/>
    <nd ref="9219174892"/>
    <nd ref="8119356694"/>
    <nd ref="252012714"/>
    <nd ref="11799295136"/>
    <nd ref="252012712"/>
    <nd ref="252012710"/>
    <nd ref="6935892494"/>
    <nd ref="3142706963"/>
    <nd ref="6935892502"/>
    <nd ref="1571592611"/>
    <nd ref="252012702"/>
    <nd ref="7122927881"/>
    <nd ref="6935873357"/>
    <nd ref="359272739"/>
    <tag k="highway" v="residential"/>
    <tag k="lane_markings" v="no"/>
    <tag k="lit" v="yes"/>
    <tag k="name" v="Dobrovoln칠ho"/>
    <tag k="smoothness" v="excellent"/>
    <tag k="surface" v="asphalt"/>
  </way>
  <way id="144034657" version="6" timestamp="2023-11-19T11:14:52Z" changeset="144203830" uid="254133" user="wizz">
    <nd ref="6925867"/>
    <nd ref="7122950829"/>
    <nd ref="427828001"/>
    <nd ref="25610867"/>
    <nd ref="6925864"/>
    <nd ref="857129700"/>
    <nd ref="6925861"/>
    <nd ref="1298231233"/>
    <nd ref="414223842"/>
    <nd ref="3298490564"/>
    <nd ref="181676783"/>
    <nd ref="11361586662"/>
    <nd ref="6925858"/>
    <nd ref="857129769"/>
    <nd ref="857129743"/>
    <nd ref="6925854"/>
    <nd ref="7307708"/>
    <tag k="highway" v="residential"/>
    <tag k="name" v="Dole쬬lova"/>
    <tag k="oneway" v="yes"/>
    <tag k="surface" v="asphalt"/>
  </way>
  <way id="144034659" version="2" timestamp="2020-03-26T18:05:44Z" changeset="82676614" uid="4054181" user="Richard Janda">
    <nd ref="7307708"/>
    <nd ref="7332733233"/>
    <nd ref="1576210153"/>
    <tag k="highway" v="residential"/>
    <tag k="name" v="Gener치la Janou코ka"/>
  </way>
  <way id="144034661" version="4" timestamp="2023-07-22T12:29:32Z" changeset="138851977" uid="6588887" user="Martin2035">
    <nd ref="1576210173"/>
    <nd ref="6709985171"/>
    <nd ref="1576210170"/>
    <nd ref="1576210169"/>
    <nd ref="1576210168"/>
    <nd ref="1576210164"/>
    <nd ref="1576210162"/>
    <tag k="highway" v="residential"/>
    <tag k="lanes" v="1"/>
    <tag k="maxspeed" v="30"/>
    <tag k="maxspeed:type" v="CZ:zone30"/>
    <tag k="name" v="Paculova"/>
    <tag k="oneway" v="yes"/>
    <tag k="surface" v="asphalt"/>
    <tag k="zone:maxspeed" v="30"/>
  </way>
  <way id="144034662" version="7" timestamp="2023-07-22T12:29:32Z" changeset="138851977" uid="6588887" user="Martin2035">
    <nd ref="251918"/>
    <nd ref="1571593341"/>
    <nd ref="7122950900"/>
    <nd ref="1576210181"/>
    <nd ref="1576210179"/>
    <nd ref="856965572"/>
    <nd ref="123851004"/>
    <nd ref="856965608"/>
    <nd ref="251920"/>
    <nd ref="10760202639"/>
    <nd ref="25610986"/>
    <nd ref="1576210174"/>
    <nd ref="29782401"/>
    <nd ref="1576210172"/>
    <nd ref="10760202663"/>
    <nd ref="1576210162"/>
    <nd ref="1576210160"/>
    <nd ref="181666494"/>
    <nd ref="251242"/>
    <nd ref="1576210159"/>
    <nd ref="10760202664"/>
    <nd ref="858351676"/>
    <nd ref="1576210156"/>
    <nd ref="10760202665"/>
    <nd ref="1576210154"/>
    <nd ref="10760202666"/>
    <nd ref="30271798"/>
    <nd ref="10760243731"/>
    <nd ref="1562984020"/>
    <nd ref="1562983940"/>
    <nd ref="1571592992"/>
    <nd ref="1410761581"/>
    <nd ref="1576210144"/>
    <tag k="highway" v="residential"/>
    <tag k="lanes" v="2"/>
    <tag k="maxspeed" v="50"/>
    <tag k="maxspeed:source" v="cz:city_limit"/>
    <tag k="name" v="Posp칤chalova"/>
    <tag k="surface" v="asphalt"/>
  </way>
  <way id="144034664" version="5" timestamp="2023-07-22T12:29:32Z" changeset="138851977" uid="6588887" user="Martin2035">
    <nd ref="1576210177"/>
    <nd ref="1298230974"/>
    <nd ref="1298231030"/>
    <nd ref="912796056"/>
    <nd ref="912796012"/>
    <nd ref="912796003"/>
    <nd ref="1576210173"/>
    <tag k="highway" v="residential"/>
    <tag k="lanes" v="1"/>
    <tag k="maxspeed" v="30"/>
    <tag k="maxspeed:type" v="CZ:zone30"/>
    <tag k="name" v="Trytova"/>
    <tag k="oneway" v="yes"/>
    <tag k="surface" v="asphalt"/>
    <tag k="zone:maxspeed" v="30"/>
  </way>
  <way id="144034666" version="5" timestamp="2024-03-16T21:03:27Z" changeset="148749999" uid="18720857" user="Michal_Bukovcan">
    <nd ref="1576210166"/>
    <nd ref="11737640994"/>
    <nd ref="11737640995"/>
    <nd ref="1576210161"/>
    <tag k="foot" v="yes"/>
    <tag k="highway" v="residential"/>
    <tag k="maxspeed" v="30"/>
    <tag k="maxspeed:type" v="CZ:zone30"/>
    <tag k="name" v="Vl캜kova"/>
    <tag k="sidewalk" v="both"/>
    <tag k="source:name" v="nameit/uir-adr"/>
    <tag k="zone:maxspeed" v="30"/>
  </way>
  <way id="144034667" version="4" timestamp="2023-07-22T12:29:32Z" changeset="138851977" uid="6588887" user="Martin2035">
    <nd ref="1576210161"/>
    <nd ref="251826"/>
    <nd ref="1298231012"/>
    <nd ref="1298231239"/>
    <nd ref="1576210156"/>
    <tag k="foot" v="yes"/>
    <tag k="highway" v="residential"/>
    <tag k="maxspeed" v="30"/>
    <tag k="maxspeed:type" v="CZ:zone30"/>
    <tag k="name" v="Vl캜kova"/>
    <tag k="oneway" v="yes"/>
    <tag k="sidewalk" v="both"/>
    <tag k="source:name" v="nameit/uir-adr"/>
    <tag k="zone:maxspeed" v="30"/>
  </way>
  <way id="163205869" version="14" timestamp="2024-10-22T15:55:32Z" changeset="158218456" uid="100163" user="Hlav">
    <nd ref="8410083768"/>
    <nd ref="8410083767"/>
    <nd ref="30271726"/>
    <nd ref="8410083766"/>
    <nd ref="30271724"/>
    <nd ref="8410083769"/>
    <nd ref="1259514706"/>
    <nd ref="30271725"/>
    <nd ref="8410083770"/>
    <nd ref="25269092"/>
    <tag k="access:lanes" v="yes|no"/>
    <tag k="bus:lanes" v="|yes"/>
    <tag k="cycleway:right" v="no"/>
    <tag k="foot" v="no"/>
    <tag k="highway" v="primary_link"/>
    <tag k="lanes" v="2"/>
    <tag k="lit" v="yes"/>
    <tag k="maxheight" v="default"/>
    <tag k="maxspeed" v="50"/>
    <tag k="oneway" v="yes"/>
    <tag k="overtaking" v="no"/>
    <tag k="placement" v="middle_of:1"/>
    <tag k="psv:lanes" v="|yes"/>
    <tag k="ref" v="10"/>
    <tag k="sidewalk" v="no"/>
    <tag k="smoothness" v="excellent"/>
    <tag k="surface" v="asphalt"/>
  </way>
  <way id="171052477" version="2" timestamp="2023-10-11T16:19:46Z" changeset="142443924" uid="25561" user="Gobik">
    <nd ref="6925877"/>
    <nd ref="857315491"/>
    <nd ref="1298230907"/>
    <nd ref="6925867"/>
    <nd ref="427828000"/>
    <nd ref="6925873"/>
    <tag k="highway" v="residential"/>
    <tag k="name" v="Va코치tkova"/>
    <tag k="surface" v="asphalt"/>
  </way>
  <way id="171587087" version="6" timestamp="2025-03-27T20:52:55Z" changeset="164182901" uid="10135165" user="tocra">
    <nd ref="523200194"/>
    <nd ref="8119356701"/>
    <nd ref="251237"/>
    <tag k="cycleway:right" v="shared_lane"/>
    <tag k="highway" v="primary_link"/>
    <tag k="lanes" v="2"/>
    <tag k="maxspeed" v="50"/>
    <tag k="name" v="Broumarsk치"/>
    <tag k="oneway" v="yes"/>
    <tag k="surface" v="asphalt"/>
  </way>
  <way id="171587088" version="6" timestamp="2024-08-31T13:24:16Z" changeset="156015076" uid="8971394" user="vojtechzaboril">
    <nd ref="523200197"/>
    <nd ref="8418239302"/>
    <nd ref="25240105"/>
    <nd ref="8418239303"/>
    <nd ref="8418239304"/>
    <nd ref="3750119366"/>
    <nd ref="1374570661"/>
    <tag k="cycleway:right" v="soft_lane"/>
    <tag k="highway" v="primary_link"/>
    <tag k="lanes" v="1"/>
    <tag k="lit" v="yes"/>
    <tag k="maxspeed" v="50"/>
    <tag k="name" v="Broumarsk치"/>
    <tag k="note" v="cycleway=soft_lane added in 2021"/>
    <tag k="oneway" v="yes"/>
    <tag k="smoothness" v="good"/>
    <tag k="surface" v="asphalt"/>
  </way>
  <way id="173184397" version="1" timestamp="2012-07-27T17:51:22Z" changeset="12514569" uid="527259" user="Vratislav Filler">
    <nd ref="1840155766"/>
    <nd ref="1410761572"/>
    <tag k="highway" v="residential"/>
    <tag k="name" v="Gener치la Janou코ka"/>
  </way>
  <way id="173184398" version="7" timestamp="2024-02-10T15:38:20Z" changeset="147296994" uid="558173" user="pr칩fa">
    <nd ref="1410761572"/>
    <nd ref="1298230905"/>
    <nd ref="1298231032"/>
    <nd ref="6925837"/>
    <nd ref="7332733241"/>
    <nd ref="25610868"/>
    <nd ref="7332733282"/>
    <nd ref="6925834"/>
    <nd ref="857315484"/>
    <nd ref="1298230945"/>
    <nd ref="6925831"/>
    <nd ref="153033037"/>
    <nd ref="153033277"/>
    <nd ref="7307388"/>
    <nd ref="1298231252"/>
    <nd ref="7307300"/>
    <nd ref="7307340"/>
    <nd ref="30233331"/>
    <nd ref="319597210"/>
    <nd ref="7307347"/>
    <nd ref="319597170"/>
    <nd ref="857588392"/>
    <nd ref="857588400"/>
    <nd ref="1397730434"/>
    <nd ref="7307350"/>
    <tag k="hgv" v="destination"/>
    <tag k="highway" v="residential"/>
    <tag k="lane_markings" v="no"/>
    <tag k="name" v="Gener치la Janou코ka"/>
    <tag k="surface" v="asphalt"/>
  </way>
  <way id="173184399" version="3" timestamp="2020-01-10T18:19:25Z" changeset="79430708" uid="6588887" user="Martin2035">
    <nd ref="1840155766"/>
    <nd ref="1298230989"/>
    <tag k="cycleway:right" v="soft_lane"/>
    <tag k="highway" v="tertiary"/>
    <tag k="lanes" v="1"/>
    <tag k="name" v="Ocelkova"/>
    <tag k="oneway" v="yes"/>
    <tag k="surface" v="asphalt"/>
  </way>
  <way id="174303354" version="9" timestamp="2024-07-31T08:46:45Z" changeset="154637449" uid="20277966" user="legwarmer">
    <nd ref="473497530"/>
    <nd ref="10036071633"/>
    <nd ref="514904"/>
    <nd ref="10036071624"/>
    <nd ref="473497517"/>
    <tag k="cycleway" v="soft_lane"/>
    <tag k="highway" v="tertiary"/>
    <tag k="lanes" v="3"/>
    <tag k="lanes:forward" v="1"/>
    <tag k="lit" v="yes"/>
    <tag k="maxspeed" v="50"/>
    <tag k="name" v="Ocelkova"/>
    <tag k="note" v="bicycle lanes added in 2022"/>
    <tag k="oneway" v="no"/>
    <tag k="placement:backward" v="left_of:1"/>
    <tag k="sidewalk" v="no"/>
    <tag k="smoothness" v="excellent"/>
    <tag k="surface" v="asphalt"/>
    <tag k="turn:lanes:backward" v="through|right"/>
  </way>
  <way id="174312636" version="1" timestamp="2012-08-03T14:49:05Z" changeset="12599154" uid="527259" user="Vratislav Filler">
    <nd ref="25610865"/>
    <nd ref="857588396"/>
    <nd ref="7307613"/>
    <nd ref="7307395"/>
    <tag k="highway" v="residential"/>
    <tag k="name" v="Va코치tkova"/>
  </way>
  <way id="193056795" version="3" timestamp="2023-10-11T16:20:52Z" changeset="142443924" uid="25561" user="Gobik">
    <nd ref="1410761583"/>
    <nd ref="9457856881"/>
    <nd ref="9457856880"/>
    <nd ref="9457856879"/>
    <nd ref="9457856882"/>
    <nd ref="9457856878"/>
    <nd ref="9457856877"/>
    <nd ref="1410761588"/>
    <tag k="highway" v="residential"/>
    <tag k="lanes" v="1"/>
    <tag k="maxspeed" v="50"/>
    <tag k="name" v="Bryksova"/>
    <tag k="oneway" v="yes"/>
    <tag k="surface" v="asphalt"/>
  </way>
  <way id="193056796" version="6" timestamp="2022-01-29T12:38:12Z" changeset="116742310" uid="8971394" user="vojtechzaboril">
    <nd ref="1410761583"/>
    <nd ref="6778222883"/>
    <nd ref="30294787"/>
    <nd ref="856561575"/>
    <nd ref="7122950863"/>
    <nd ref="483396"/>
    <nd ref="7122950862"/>
    <nd ref="856561586"/>
    <nd ref="7122950861"/>
    <nd ref="9457856889"/>
    <nd ref="9457856888"/>
    <nd ref="9457856887"/>
    <nd ref="6778222882"/>
    <nd ref="9457856886"/>
    <nd ref="9457856885"/>
    <nd ref="9457856884"/>
    <nd ref="9457856883"/>
    <nd ref="7122950864"/>
    <tag k="cycleway:right" v="lane"/>
    <tag k="highway" v="tertiary"/>
    <tag k="lanes" v="1"/>
    <tag k="maxspeed" v="50"/>
    <tag k="name" v="Ocelkova"/>
    <tag k="oneway" v="yes"/>
    <tag k="surface" v="asphalt"/>
  </way>
  <way id="193072324" version="3" timestamp="2019-11-07T18:03:29Z" changeset="76771721" uid="665336" user="Minimalis">
    <nd ref="2036036086"/>
    <nd ref="6651885199"/>
    <nd ref="2036036088"/>
    <tag k="highway" v="residential"/>
    <tag k="name" v="Kpt. Str치nsk칠ho"/>
    <tag k="ref:ruian:street" v="503223"/>
  </way>
  <way id="229210342" version="2" timestamp="2023-10-11T16:21:44Z" changeset="142443924" uid="25561" user="Gobik">
    <nd ref="473497524"/>
    <nd ref="483414"/>
    <tag k="highway" v="tertiary"/>
    <tag k="name" v="C칤glerova"/>
    <tag k="surface" v="asphalt"/>
  </way>
  <way id="229210348" version="3" timestamp="2023-08-10T08:28:27Z" changeset="139694432" uid="5748" user="pschonmann">
    <nd ref="1410761570"/>
    <nd ref="1410764430"/>
    <nd ref="1410764429"/>
    <tag k="highway" v="tertiary"/>
    <tag k="lit" v="yes"/>
    <tag k="name" v="Ocelkova"/>
    <tag k="oneway" v="yes"/>
    <tag k="surface" v="asphalt"/>
  </way>
  <way id="229990942" version="8" timestamp="2025-05-08T15:20:38Z" changeset="165988861" uid="598980" user="Daniel Bar치nek">
    <nd ref="2385265907"/>
    <nd ref="8426668373"/>
    <nd ref="3917186220"/>
    <nd ref="8426668374"/>
    <nd ref="8426668375"/>
    <nd ref="2569917430"/>
    <nd ref="8426668376"/>
    <nd ref="8426668424"/>
    <nd ref="2569917432"/>
    <nd ref="8426668423"/>
    <nd ref="3917186222"/>
    <tag k="cycleway:both" v="no"/>
    <tag k="highway" v="residential"/>
    <tag k="lanes" v="1"/>
    <tag k="lit" v="yes"/>
    <tag k="name" v="Bryksova"/>
    <tag k="oneway" v="yes"/>
    <tag k="sidewalk" v="right"/>
    <tag k="surface" v="asphalt"/>
  </way>
  <way id="250416859" version="23" timestamp="2024-02-03T16:50:05Z" changeset="147027122" uid="2061236" user="Thartek">
    <nd ref="2799155119"/>
    <nd ref="2799156463"/>
    <nd ref="2799156461"/>
    <nd ref="1404503004"/>
    <nd ref="2799156242"/>
    <nd ref="2799156243"/>
    <nd ref="2799156918"/>
    <nd ref="2799156917"/>
    <nd ref="2799156927"/>
    <nd ref="2799156930"/>
    <nd ref="2799156929"/>
    <nd ref="2799156932"/>
    <nd ref="2568653434"/>
    <nd ref="2799156938"/>
    <nd ref="2799152750"/>
    <nd ref="2799156936"/>
    <nd ref="2799156935"/>
    <nd ref="2799156934"/>
    <nd ref="2799152754"/>
    <nd ref="2799152755"/>
    <nd ref="2799152761"/>
    <nd ref="2799152760"/>
    <nd ref="2799152759"/>
    <nd ref="2799152758"/>
    <nd ref="8418332738"/>
    <nd ref="2568657237"/>
    <nd ref="2799152756"/>
    <nd ref="2799152752"/>
    <nd ref="2799156931"/>
    <nd ref="8099256377"/>
    <nd ref="2799156933"/>
    <nd ref="2799156928"/>
    <nd ref="8099256375"/>
    <nd ref="2799156920"/>
    <nd ref="2799156921"/>
    <nd ref="2568657227"/>
    <nd ref="2799156914"/>
    <nd ref="2799156909"/>
    <nd ref="11582198457"/>
    <nd ref="2799156907"/>
    <nd ref="2799156911"/>
    <nd ref="2799156906"/>
    <nd ref="2799156260"/>
    <nd ref="1404503052"/>
    <nd ref="2799156256"/>
    <nd ref="2799156253"/>
    <nd ref="3247009898"/>
    <nd ref="2799154992"/>
    <nd ref="2799153781"/>
    <nd ref="2799156040"/>
    <nd ref="317494632"/>
    <nd ref="8426706686"/>
    <nd ref="2799153865"/>
    <nd ref="2799156024"/>
    <nd ref="2799153868"/>
    <nd ref="2799155839"/>
    <nd ref="2799155825"/>
    <nd ref="2799153852"/>
    <nd ref="2799155560"/>
    <nd ref="2799155541"/>
    <nd ref="8426706762"/>
    <nd ref="8099256353"/>
    <nd ref="8099256350"/>
    <nd ref="8426706760"/>
    <nd ref="2569917433"/>
    <nd ref="2799155119"/>
    <tag k="addr:street" v="Chlumeck치"/>
    <tag k="building" v="commercial"/>
    <tag k="building:use" v="shop"/>
    <tag k="changing_table" v="yes"/>
    <tag k="check_date" v="2023-06-06"/>
    <tag k="internet_access" v="wlan"/>
    <tag k="internet_access:fee" v="customers"/>
    <tag k="max_level" v="3"/>
    <tag k="min_level" v="-2"/>
    <tag k="name" v="Centrum 캛ern칳 Most"/>
    <tag k="name:he" v="덍뉑뮁: 쀙돵놩: Chlumecka 765-766, 뤵뤵돵 놩쀙먱 덍뤵떙뻉 CERNYMOST  뷍덍돵"/>
    <tag k="opening_hours" v="Mo-Su 08:00-22:00"/>
    <tag k="payment:credit_cards" v="yes"/>
    <tag k="payment:debit_cards" v="yes"/>
    <tag k="ref:ruian:building" v="22264728"/>
    <tag k="shop" v="mall"/>
    <tag k="source" v="cuzk:ruian"/>
    <tag k="start_date" v="2013-03-14"/>
    <tag k="toilets" v="yes"/>
    <tag k="website" v="https://www.centrumcernymost.cz/"/>
    <tag k="wheelchair" v="yes"/>
    <tag k="wikidata" v="Q15734984"/>
    <tag k="wikipedia" v="cs:Centrum 캛ern칳 Most"/>
  </way>
  <way id="250419549" version="7" timestamp="2021-02-12T13:41:55Z" changeset="99179555" uid="11276832" user="HaPe-CZ">
    <nd ref="112199190"/>
    <nd ref="2568671511"/>
    <tag k="highway" v="unclassified"/>
    <tag k="lanes" v="2"/>
    <tag k="oneway" v="yes"/>
  </way>
  <way id="250423685" version="6" timestamp="2024-08-20T14:34:31Z" changeset="155512757" uid="8971394" user="vojtechzaboril">
    <nd ref="8418239743"/>
    <nd ref="8418314268"/>
    <nd ref="8418314269"/>
    <nd ref="8418314270"/>
    <nd ref="8418314271"/>
    <nd ref="8418314263"/>
    <nd ref="8418314262"/>
    <nd ref="3750776681"/>
    <nd ref="12122288636"/>
    <nd ref="8418314275"/>
    <nd ref="2568671513"/>
    <nd ref="8418332908"/>
    <nd ref="8418332909"/>
    <nd ref="8418332910"/>
    <nd ref="2568671511"/>
    <tag k="highway" v="primary_link"/>
    <tag k="lanes" v="1"/>
    <tag k="lit" v="yes"/>
    <tag k="maxspeed" v="80"/>
    <tag k="oneway" v="yes"/>
    <tag k="surface" v="asphalt"/>
    <tag k="turn:lanes" v="right"/>
  </way>
  <way id="261725367" version="8" timestamp="2023-12-18T17:00:03Z" changeset="145259404" uid="873469" user="R3gi">
    <nd ref="8418314302"/>
    <nd ref="7077983631"/>
    <nd ref="7077983633"/>
    <nd ref="3411057022"/>
    <nd ref="3411057024"/>
    <nd ref="3411057020"/>
    <nd ref="3411057016"/>
    <nd ref="112189000"/>
    <tag k="highway" v="tertiary"/>
    <tag k="lanes" v="2"/>
    <tag k="maxspeed" v="50"/>
    <tag k="name" v="Chlumeck치"/>
    <tag k="oneway" v="yes"/>
    <tag k="surface" v="asphalt"/>
    <tag k="turn:lanes" v="through|through"/>
  </way>
  <way id="292180410" version="7" timestamp="2024-04-04T18:17:05Z" changeset="149582426" uid="12080464" user="Vojt캩ch Kade콏치bek">
    <nd ref="1410761616"/>
    <nd ref="1826150990"/>
    <nd ref="1397730448"/>
    <nd ref="10123279193"/>
    <nd ref="1410761615"/>
    <tag k="cycleway:right" v="shared_lane"/>
    <tag k="highway" v="tertiary"/>
    <tag k="lanes" v="3"/>
    <tag k="lit" v="yes"/>
    <tag k="maxspeed" v="50"/>
    <tag k="name" v="Ocelkova"/>
    <tag k="oneway" v="yes"/>
    <tag k="placement" v="right_of:2"/>
    <tag k="surface" v="asphalt"/>
    <tag k="turn:lanes" v="left|through|through;right"/>
  </way>
  <way id="298001743" version="2" timestamp="2023-07-22T12:29:32Z" changeset="138851977" uid="6588887" user="Martin2035">
    <nd ref="1576210173"/>
    <nd ref="251854"/>
    <tag k="highway" v="residential"/>
    <tag k="maxspeed" v="30"/>
    <tag k="maxspeed:type" v="CZ:zone30"/>
    <tag k="name" v="Paculova"/>
    <tag k="zone:maxspeed" v="30"/>
  </way>
  <way id="308579188" version="3" timestamp="2022-01-31T09:40:33Z" changeset="116814356" uid="8971394" user="vojtechzaboril">
    <nd ref="7307708"/>
    <nd ref="1298231156"/>
    <nd ref="6925837"/>
    <tag k="highway" v="residential"/>
    <tag k="name" v="Dole쬬lova"/>
  </way>
  <way id="324019898" version="8" timestamp="2021-11-02T17:14:14Z" changeset="113294595" uid="1641564" user="Jakuje">
    <nd ref="252012710"/>
    <nd ref="8119356697"/>
    <nd ref="9219174855"/>
    <nd ref="3307773772"/>
    <nd ref="9219174858"/>
    <nd ref="3307773770"/>
    <nd ref="9219174860"/>
    <nd ref="3307773768"/>
    <nd ref="3307773767"/>
    <nd ref="3307773766"/>
    <nd ref="3119298562"/>
    <tag k="highway" v="residential"/>
    <tag k="lit" v="yes"/>
    <tag k="name" v="Mr치zkova"/>
  </way>
  <way id="330412636" version="9" timestamp="2024-03-26T20:30:35Z" changeset="149194564" uid="9291527" user="marekhrabe">
    <nd ref="3373731565"/>
    <nd ref="3373731564"/>
    <tag k="bicycle" v="no"/>
    <tag k="cycleway:right" v="no"/>
    <tag k="foot" v="no"/>
    <tag k="highway" v="secondary"/>
    <tag k="lanes" v="2"/>
    <tag k="lit" v="yes"/>
    <tag k="maxspeed" v="50"/>
    <tag k="name" v="Chlumeck치"/>
    <tag k="oneway" v="yes"/>
    <tag k="surface" v="asphalt"/>
  </way>
  <way id="330412638" version="13" timestamp="2024-10-19T20:53:49Z" changeset="158107133" uid="4018695" user="游뻟릖 Roman Horn칤k">
    <nd ref="3373731563"/>
    <nd ref="11961586937"/>
    <tag k="bicycle" v="no"/>
    <tag k="cycleway:right" v="no"/>
    <tag k="foot" v="no"/>
    <tag k="highway" v="secondary"/>
    <tag k="lanes" v="2"/>
    <tag k="lit" v="yes"/>
    <tag k="maxspeed" v="50"/>
    <tag k="name" v="Chlumeck치"/>
    <tag k="oneway" v="yes"/>
    <tag k="sidewalk" v="no"/>
    <tag k="source:maxspeed" v="sign"/>
    <tag k="surface" v="asphalt"/>
  </way>
  <way id="330412639" version="9" timestamp="2022-02-18T17:35:28Z" changeset="117575225" uid="718054" user="Piskvor">
    <nd ref="3373731558"/>
    <nd ref="31775621"/>
    <nd ref="7997020421"/>
    <nd ref="539237016"/>
    <nd ref="7124986472"/>
    <nd ref="31775622"/>
    <nd ref="31775382"/>
    <tag k="highway" v="motorway"/>
    <tag k="lanes" v="2"/>
    <tag k="lit" v="yes"/>
    <tag k="maxspeed" v="130"/>
    <tag k="name" v="Chlumeck치"/>
    <tag k="oneway" v="yes"/>
    <tag k="ref" v="D11"/>
    <tag k="source:maxspeed" v="CZ:motorway"/>
    <tag k="surface" v="asphalt"/>
    <tag k="toll" v="no"/>
    <tag k="turn:lanes" v="slight_left|slight_right"/>
  </way>
  <way id="330412640" version="18" timestamp="2024-10-19T20:53:49Z" changeset="158107133" uid="4018695" user="游뻟릖 Roman Horn칤k">
    <nd ref="9219786219"/>
    <nd ref="8437389536"/>
    <nd ref="3373731560"/>
    <nd ref="31775239"/>
    <nd ref="8425988585"/>
    <nd ref="539237017"/>
    <nd ref="8425988584"/>
    <nd ref="7549635496"/>
    <nd ref="8425988583"/>
    <tag k="bicycle" v="no"/>
    <tag k="cycleway:right" v="no"/>
    <tag k="foot" v="no"/>
    <tag k="highway" v="secondary"/>
    <tag k="lanes" v="2"/>
    <tag k="lit" v="yes"/>
    <tag k="maxspeed" v="30"/>
    <tag k="name" v="Chlumeck치"/>
    <tag k="oneway" v="yes"/>
    <tag k="sidewalk" v="no"/>
    <tag k="source:maxspeed" v="sign"/>
    <tag k="surface" v="asphalt"/>
  </way>
  <way id="330412642" version="15" timestamp="2024-10-19T20:53:49Z" changeset="158107133" uid="4018695" user="游뻟릖 Roman Horn칤k">
    <nd ref="31775618"/>
    <nd ref="7549635494"/>
    <nd ref="8425988589"/>
    <nd ref="3373731561"/>
    <nd ref="31775619"/>
    <nd ref="8425988588"/>
    <nd ref="8425988587"/>
    <nd ref="31775620"/>
    <nd ref="8425988586"/>
    <nd ref="3373731558"/>
    <tag k="bicycle" v="no"/>
    <tag k="cycleway:right" v="no"/>
    <tag k="foot" v="no"/>
    <tag k="highway" v="secondary"/>
    <tag k="lanes" v="2"/>
    <tag k="lit" v="yes"/>
    <tag k="maxspeed" v="30"/>
    <tag k="name" v="Chlumeck치"/>
    <tag k="oneway" v="yes"/>
    <tag k="sidewalk" v="no"/>
    <tag k="source:maxspeed" v="sign"/>
    <tag k="surface" v="asphalt"/>
  </way>
  <way id="333950269" version="6" timestamp="2022-02-17T11:02:04Z" changeset="117515004" uid="6588887" user="Martin2035">
    <nd ref="181676960"/>
    <nd ref="9513485213"/>
    <nd ref="6651885195"/>
    <nd ref="746986431"/>
    <nd ref="181676806"/>
    <nd ref="746986459"/>
    <nd ref="8051935539"/>
    <nd ref="611320462"/>
    <nd ref="2036036089"/>
    <nd ref="7307377"/>
    <nd ref="2036036091"/>
    <nd ref="181676989"/>
    <nd ref="6651867529"/>
    <nd ref="5017094122"/>
    <nd ref="746958105"/>
    <tag k="highway" v="residential"/>
    <tag k="name" v="Vyb칤ralova"/>
    <tag k="oneway" v="yes"/>
  </way>
  <way id="334024515" version="4" timestamp="2021-04-07T09:34:52Z" changeset="102468679" uid="6588887" user="Martin2035">
    <nd ref="7077983606"/>
    <nd ref="1141156174"/>
    <tag k="cycleway:right" v="shared_lane"/>
    <tag k="highway" v="tertiary"/>
    <tag k="lanes" v="2"/>
    <tag k="maxspeed" v="50"/>
    <tag k="name" v="Chlumeck치"/>
    <tag k="surface" v="asphalt"/>
  </way>
  <way id="334024516" version="5" timestamp="2021-02-12T13:41:55Z" changeset="99179555" uid="11276832" user="HaPe-CZ">
    <nd ref="112189106"/>
    <nd ref="3750783163"/>
    <nd ref="3411057007"/>
    <nd ref="3750783164"/>
    <nd ref="8418314310"/>
    <nd ref="7077983641"/>
    <nd ref="8418314311"/>
    <nd ref="7077983640"/>
    <nd ref="8418314312"/>
    <nd ref="7077983639"/>
    <nd ref="3411057003"/>
    <tag k="highway" v="secondary"/>
    <tag k="lanes" v="2"/>
    <tag k="lit" v="yes"/>
    <tag k="maxspeed" v="50"/>
    <tag k="name" v="Chlumeck치"/>
    <tag k="oneway" v="yes"/>
    <tag k="surface" v="asphalt"/>
    <tag k="turn:lanes" v="right|right"/>
  </way>
  <way id="334024517" version="7" timestamp="2021-08-18T17:08:46Z" changeset="109887327" uid="469828" user="Luk치코 Jel칤nek">
    <nd ref="3411057021"/>
    <nd ref="8418314308"/>
    <nd ref="8418314306"/>
    <nd ref="8418314304"/>
    <nd ref="3411057016"/>
    <nd ref="8418314290"/>
    <nd ref="8418314289"/>
    <nd ref="8418314288"/>
    <nd ref="3411057013"/>
    <nd ref="3411057010"/>
    <nd ref="8418314287"/>
    <nd ref="7077983645"/>
    <nd ref="2673224283"/>
    <tag k="highway" v="secondary"/>
    <tag k="lanes" v="1"/>
    <tag k="lit" v="yes"/>
    <tag k="maxspeed" v="50"/>
    <tag k="name" v="Chlumeck치"/>
    <tag k="oneway" v="yes"/>
    <tag k="surface" v="asphalt"/>
  </way>
  <way id="334024518" version="9" timestamp="2024-08-20T14:34:31Z" changeset="155512757" uid="8971394" user="vojtechzaboril">
    <nd ref="7077983634"/>
    <nd ref="3411057018"/>
    <nd ref="7077983646"/>
    <nd ref="3411057023"/>
    <nd ref="8418332578"/>
    <nd ref="8418314299"/>
    <nd ref="8418314292"/>
    <nd ref="8418314298"/>
    <nd ref="2673224286"/>
    <nd ref="8418332579"/>
    <nd ref="7077983642"/>
    <nd ref="8418332580"/>
    <nd ref="7077983643"/>
    <tag k="highway" v="tertiary_link"/>
    <tag k="lanes" v="1"/>
    <tag k="maxspeed" v="50"/>
    <tag k="name" v="Chlumeck치"/>
    <tag k="oneway" v="yes"/>
    <tag k="surface" v="asphalt"/>
    <tag k="turn:lanes" v="right"/>
  </way>
  <way id="334025930" version="6" timestamp="2024-08-20T14:34:31Z" changeset="155512757" uid="8971394" user="vojtechzaboril">
    <nd ref="3411057025"/>
    <nd ref="359274608"/>
    <nd ref="7077983628"/>
    <nd ref="8418332586"/>
    <nd ref="7077983630"/>
    <nd ref="7077983629"/>
    <nd ref="7077983635"/>
    <nd ref="7077983606"/>
    <tag k="cycleway:right" v="shared_lane"/>
    <tag k="hgv" v="no"/>
    <tag k="highway" v="tertiary"/>
    <tag k="lanes" v="1"/>
    <tag k="maxspeed" v="50"/>
    <tag k="name" v="Chlumeck치"/>
    <tag k="oneway" v="yes"/>
    <tag k="surface" v="asphalt"/>
  </way>
  <way id="345427941" version="5" timestamp="2024-03-26T20:30:35Z" changeset="149194564" uid="9291527" user="marekhrabe">
    <nd ref="3521098276"/>
    <nd ref="1134882298"/>
    <tag k="bicycle" v="no"/>
    <tag k="foot" v="no"/>
    <tag k="highway" v="secondary"/>
    <tag k="lanes" v="1"/>
    <tag k="lit" v="yes"/>
    <tag k="maxspeed" v="50"/>
    <tag k="name" v="Chlumeck치"/>
    <tag k="oneway" v="yes"/>
    <tag k="source:maxspeed" v="sign"/>
    <tag k="surface" v="asphalt"/>
  </way>
  <way id="345427942" version="5" timestamp="2024-03-26T20:30:35Z" changeset="149194564" uid="9291527" user="marekhrabe">
    <nd ref="1134882298"/>
    <nd ref="8426012961"/>
    <nd ref="1134882312"/>
    <nd ref="8426012967"/>
    <nd ref="8426012966"/>
    <nd ref="5022614281"/>
    <nd ref="8426012965"/>
    <nd ref="31775242"/>
    <tag k="bicycle" v="no"/>
    <tag k="cycleway:right" v="no"/>
    <tag k="foot" v="no"/>
    <tag k="highway" v="secondary"/>
    <tag k="lanes" v="1"/>
    <tag k="lit" v="yes"/>
    <tag k="maxspeed" v="50"/>
    <tag k="name" v="Chlumeck치"/>
    <tag k="oneway" v="yes"/>
    <tag k="source:maxspeed" v="sign"/>
    <tag k="surface" v="asphalt"/>
  </way>
  <way id="345427971" version="7" timestamp="2024-03-26T20:30:35Z" changeset="149194564" uid="9291527" user="marekhrabe">
    <nd ref="317494606"/>
    <nd ref="3373731565"/>
    <tag k="bicycle" v="no"/>
    <tag k="foot" v="no"/>
    <tag k="highway" v="secondary"/>
    <tag k="lanes" v="1"/>
    <tag k="lit" v="yes"/>
    <tag k="maxspeed" v="50"/>
    <tag k="name" v="Chlumeck치"/>
    <tag k="oneway" v="yes"/>
    <tag k="surface" v="asphalt"/>
  </way>
  <way id="345427972" version="6" timestamp="2024-03-26T20:30:35Z" changeset="149194564" uid="9291527" user="marekhrabe">
    <nd ref="1134882301"/>
    <nd ref="317494606"/>
    <tag k="bicycle" v="no"/>
    <tag k="cycleway:right" v="no"/>
    <tag k="foot" v="no"/>
    <tag k="highway" v="secondary"/>
    <tag k="lanes" v="1"/>
    <tag k="lit" v="yes"/>
    <tag k="maxspeed" v="50"/>
    <tag k="name" v="Chlumeck치"/>
    <tag k="oneway" v="yes"/>
    <tag k="surface" v="asphalt"/>
  </way>
  <way id="345611405" version="5" timestamp="2025-05-08T15:09:54Z" changeset="165988861" uid="598980" user="Daniel Bar치nek">
    <nd ref="6928239"/>
    <nd ref="1459343898"/>
    <nd ref="6876937142"/>
    <tag k="cycleway:right" v="no"/>
    <tag k="hgv" v="delivery"/>
    <tag k="highway" v="secondary"/>
    <tag k="lanes" v="2"/>
    <tag k="lit" v="yes"/>
    <tag k="maxspeed" v="50"/>
    <tag k="name" v="Chlumeck치"/>
    <tag k="oneway" v="yes"/>
    <tag k="surface" v="asphalt"/>
  </way>
  <way id="345611409" version="3" timestamp="2021-08-18T17:11:14Z" changeset="109887612" uid="469828" user="Luk치코 Jel칤nek">
    <nd ref="3522531944"/>
    <nd ref="112189683"/>
    <tag k="check_date:surface" v="2021-08-18"/>
    <tag k="cycleway:right" v="no"/>
    <tag k="highway" v="secondary"/>
    <tag k="lanes" v="2"/>
    <tag k="lit" v="yes"/>
    <tag k="maxspeed" v="50"/>
    <tag k="name" v="Chlumeck치"/>
    <tag k="oneway" v="yes"/>
    <tag k="surface" v="asphalt"/>
    <tag k="turn:lanes" v="through|right"/>
  </way>
  <way id="345611410" version="7" timestamp="2024-04-17T12:37:16Z" changeset="150127628" uid="9291527" user="marekhrabe">
    <nd ref="112189683"/>
    <nd ref="8425831828"/>
    <nd ref="8425831830"/>
    <nd ref="8425831831"/>
    <nd ref="8425831832"/>
    <nd ref="112198212"/>
    <nd ref="8425831834"/>
    <nd ref="8425831833"/>
    <nd ref="8426012983"/>
    <nd ref="5022614282"/>
    <nd ref="8426012982"/>
    <nd ref="2197936273"/>
    <tag k="cycleway:right" v="no"/>
    <tag k="foot" v="no"/>
    <tag k="highway" v="secondary"/>
    <tag k="lanes" v="1"/>
    <tag k="lit" v="yes"/>
    <tag k="maxspeed" v="50"/>
    <tag k="name" v="Chlumeck치"/>
    <tag k="oneway" v="yes"/>
    <tag k="surface" v="asphalt"/>
  </way>
  <way id="345611411" version="5" timestamp="2021-08-18T17:10:50Z" changeset="109887612" uid="469828" user="Luk치코 Jel칤nek">
    <nd ref="3522531945"/>
    <nd ref="8425816505"/>
    <nd ref="8425816503"/>
    <nd ref="747005599"/>
    <nd ref="2674793786"/>
    <nd ref="6928239"/>
    <tag k="cycleway:right" v="no"/>
    <tag k="highway" v="secondary"/>
    <tag k="lanes" v="2"/>
    <tag k="lit" v="yes"/>
    <tag k="maxspeed" v="50"/>
    <tag k="name" v="Chlumeck치"/>
    <tag k="oneway" v="yes"/>
    <tag k="surface" v="asphalt"/>
    <tag k="turn:lanes" v="left|through;right"/>
  </way>
  <way id="345611412" version="8" timestamp="2025-05-08T19:21:41Z" changeset="165999865" uid="3199858" user="Mateusz Konieczny - bot account">
    <nd ref="3522531943"/>
    <nd ref="8425831827"/>
    <nd ref="112198147"/>
    <nd ref="8425831820"/>
    <nd ref="8425831818"/>
    <nd ref="8425816516"/>
    <nd ref="8425816514"/>
    <tag k="cycleway:right" v="no"/>
    <tag k="foot" v="no"/>
    <tag k="highway" v="secondary"/>
    <tag k="lanes" v="2"/>
    <tag k="lit" v="yes"/>
    <tag k="maxspeed" v="50"/>
    <tag k="name" v="Chlumeck치"/>
    <tag k="oneway" v="yes"/>
    <tag k="sidewalk" v="no"/>
    <tag k="surface" v="asphalt"/>
  </way>
  <way id="357977681" version="6" timestamp="2025-05-08T15:09:51Z" changeset="165988861" uid="598980" user="Daniel Bar치nek">
    <nd ref="6876937141"/>
    <nd ref="8425816500"/>
    <nd ref="2674793789"/>
    <nd ref="1826151004"/>
    <nd ref="747005600"/>
    <nd ref="112189451"/>
    <tag k="cycleway:right" v="no"/>
    <tag k="highway" v="secondary"/>
    <tag k="lanes" v="3"/>
    <tag k="lit" v="yes"/>
    <tag k="maxspeed" v="50"/>
    <tag k="name" v="Chlumeck치"/>
    <tag k="oneway" v="yes"/>
    <tag k="smoothness" v="good"/>
    <tag k="surface" v="asphalt"/>
    <tag k="turn:lanes" v="left|through|through;right"/>
  </way>
  <way id="357977682" version="5" timestamp="2023-12-18T17:01:47Z" changeset="145259452" uid="873469" user="R3gi">
    <nd ref="2569928858"/>
    <nd ref="8418332695"/>
    <nd ref="8418332694"/>
    <nd ref="6876937147"/>
    <nd ref="2569928860"/>
    <nd ref="8418332693"/>
    <nd ref="8418332692"/>
    <nd ref="6876937156"/>
    <nd ref="8418332691"/>
    <nd ref="2569928862"/>
    <nd ref="8418332690"/>
    <tag k="highway" v="secondary"/>
    <tag k="lanes" v="2"/>
    <tag k="lit" v="yes"/>
    <tag k="maxspeed" v="50"/>
    <tag k="name" v="Chlumeck치"/>
    <tag k="oneway" v="yes"/>
    <tag k="surface" v="asphalt"/>
  </way>
  <way id="357989464" version="6" timestamp="2021-11-02T20:50:23Z" changeset="113302171" uid="8971394" user="vojtechzaboril">
    <nd ref="112189106"/>
    <nd ref="9219786222"/>
    <nd ref="3411057008"/>
    <nd ref="3750783165"/>
    <nd ref="1141156095"/>
    <nd ref="8418314303"/>
    <nd ref="112189000"/>
    <nd ref="8418314305"/>
    <nd ref="8418314307"/>
    <nd ref="8418314309"/>
    <nd ref="3411057021"/>
    <tag k="cycleway:right" v="no"/>
    <tag k="highway" v="tertiary"/>
    <tag k="lanes" v="1"/>
    <tag k="lit" v="yes"/>
    <tag k="maxspeed" v="50"/>
    <tag k="name" v="Chlumeck치"/>
    <tag k="oneway" v="yes"/>
    <tag k="surface" v="asphalt"/>
    <tag k="turn:lanes" v="left"/>
  </way>
  <way id="357989470" version="6" timestamp="2021-11-02T20:50:23Z" changeset="113302171" uid="8971394" user="vojtechzaboril">
    <nd ref="1141156153"/>
    <nd ref="8418332683"/>
    <nd ref="8418332684"/>
    <nd ref="8418332685"/>
    <nd ref="8418332686"/>
    <nd ref="8418332687"/>
    <nd ref="6876937145"/>
    <nd ref="6876937155"/>
    <nd ref="6876937148"/>
    <tag k="cycleway:right" v="no"/>
    <tag k="highway" v="secondary"/>
    <tag k="lanes" v="1"/>
    <tag k="lit" v="yes"/>
    <tag k="maxspeed" v="50"/>
    <tag k="name" v="Chlumeck치"/>
    <tag k="oneway" v="yes"/>
    <tag k="placement" v="right_of:1"/>
    <tag k="surface" v="asphalt"/>
    <tag k="turn:lanes" v="through|through|slight_right"/>
  </way>
  <way id="371451695" version="5" timestamp="2024-04-03T17:07:50Z" changeset="149533996" uid="469828" user="Luk치코 Jel칤nek">
    <nd ref="1374570661"/>
    <nd ref="11766224399"/>
    <nd ref="247951246"/>
    <nd ref="8418239305"/>
    <nd ref="8418239306"/>
    <nd ref="8418239307"/>
    <nd ref="8418239308"/>
    <nd ref="25240102"/>
    <tag k="highway" v="primary_link"/>
    <tag k="lanes" v="1"/>
    <tag k="lit" v="yes"/>
    <tag k="maxspeed" v="50"/>
    <tag k="name" v="Broumarsk치"/>
    <tag k="oneway" v="yes"/>
    <tag k="smoothness" v="good"/>
    <tag k="surface" v="asphalt"/>
  </way>
  <way id="371510876" version="6" timestamp="2024-08-20T14:34:31Z" changeset="155512757" uid="8971394" user="vojtechzaboril">
    <nd ref="112198471"/>
    <nd ref="8418239741"/>
    <nd ref="8418239742"/>
    <nd ref="308078808"/>
    <nd ref="8418239744"/>
    <nd ref="8418239743"/>
    <tag k="highway" v="primary_link"/>
    <tag k="lanes" v="2"/>
    <tag k="lit" v="yes"/>
    <tag k="maxspeed" v="80"/>
    <tag k="oneway" v="yes"/>
    <tag k="surface" v="asphalt"/>
    <tag k="turn:lanes" v="left|right"/>
  </way>
  <way id="371609179" version="4" timestamp="2022-10-23T08:25:40Z" changeset="127946689" uid="6588887" user="Martin2035">
    <nd ref="7307300"/>
    <nd ref="7307298"/>
    <nd ref="2036033316"/>
    <nd ref="857315486"/>
    <nd ref="10123279188"/>
    <nd ref="365599673"/>
    <nd ref="2036033314"/>
    <nd ref="365599656"/>
    <nd ref="7307284"/>
    <nd ref="25610977"/>
    <nd ref="1298231076"/>
    <nd ref="857315489"/>
    <nd ref="6925827"/>
    <nd ref="857315482"/>
    <nd ref="2036033236"/>
    <nd ref="4346241008"/>
    <nd ref="2307702343"/>
    <nd ref="6925831"/>
    <tag k="highway" v="residential"/>
    <tag k="name" v="romova"/>
    <tag k="surface" v="asphalt"/>
  </way>
  <way id="372334073" version="3" timestamp="2025-03-27T20:52:52Z" changeset="164182901" uid="10135165" user="tocra">
    <nd ref="251237"/>
    <nd ref="25240103"/>
    <tag k="highway" v="tertiary"/>
    <tag k="lanes" v="2"/>
    <tag k="maxspeed" v="50"/>
    <tag k="maxspeed:source" v="cz:city_limit"/>
    <tag k="name" v="C칤glerova"/>
    <tag k="surface" v="asphalt"/>
  </way>
  <way id="372334074" version="3" timestamp="2022-03-02T16:07:24Z" changeset="118025382" uid="6588887" user="Martin2035">
    <nd ref="25240103"/>
    <nd ref="1374570655"/>
    <tag k="highway" v="tertiary"/>
    <tag k="lanes" v="3"/>
    <tag k="maxspeed" v="50"/>
    <tag k="maxspeed:source" v="cz:city_limit"/>
    <tag k="name" v="C칤glerova"/>
    <tag k="surface" v="asphalt"/>
  </way>
  <way id="373069376" version="4" timestamp="2021-03-25T21:13:50Z" changeset="101745633" uid="873469" user="R3gi">
    <nd ref="112189451"/>
    <nd ref="8425816501"/>
    <nd ref="8425816502"/>
    <nd ref="8425816504"/>
    <nd ref="8425816506"/>
    <nd ref="8425816508"/>
    <nd ref="8425816509"/>
    <nd ref="272088131"/>
    <nd ref="8425816512"/>
    <nd ref="112189457"/>
    <nd ref="8561884629"/>
    <nd ref="8425816515"/>
    <nd ref="8425831817"/>
    <nd ref="8425831819"/>
    <nd ref="112189676"/>
    <nd ref="3522531944"/>
    <tag k="highway" v="secondary"/>
    <tag k="lanes" v="2"/>
    <tag k="lit" v="yes"/>
    <tag k="maxspeed" v="50"/>
    <tag k="name" v="Chlumeck치"/>
    <tag k="oneway" v="yes"/>
    <tag k="surface" v="asphalt"/>
  </way>
  <way id="373199298" version="6" timestamp="2022-02-23T13:22:34Z" changeset="117770102" uid="14898133" user="Jenda2">
    <nd ref="1298230948"/>
    <nd ref="21688009"/>
    <nd ref="267818205"/>
    <nd ref="3764487827"/>
    <nd ref="1298230972"/>
    <tag k="foot" v="yes"/>
    <tag k="highway" v="tertiary"/>
    <tag k="lanes" v="2"/>
    <tag k="lit" v="yes"/>
    <tag k="maxspeed" v="30"/>
    <tag k="maxspeed:source" v="cz:city_limit"/>
    <tag k="name" v="C칤glerova"/>
    <tag k="sidewalk" v="both"/>
    <tag k="surface" v="asphalt"/>
  </way>
  <way id="373199299" version="5" timestamp="2021-04-07T09:34:52Z" changeset="102468679" uid="6588887" user="Martin2035">
    <nd ref="1410764428"/>
    <nd ref="6778222848"/>
    <tag k="cycleway:right" v="soft_lane"/>
    <tag k="highway" v="tertiary"/>
    <tag k="lanes" v="1"/>
    <tag k="name" v="Ocelkova"/>
    <tag k="oneway" v="yes"/>
    <tag k="surface" v="asphalt"/>
  </way>
  <way id="388529935" version="6" timestamp="2022-01-23T14:51:22Z" changeset="116502335" uid="11174973" user="smidra">
    <nd ref="6928233"/>
    <nd ref="8426668449"/>
    <nd ref="8426668415"/>
    <nd ref="8426668431"/>
    <nd ref="8426668430"/>
    <nd ref="3917186231"/>
    <tag k="highway" v="residential"/>
    <tag k="lanes" v="1"/>
    <tag k="name" v="Chlumeck치"/>
    <tag k="oneway" v="yes"/>
    <tag k="overtaking" v="no"/>
    <tag k="sidewalk" v="no"/>
    <tag k="source:name" v="nameit/uir-adr"/>
  </way>
  <way id="388532119" version="7" timestamp="2025-05-08T15:10:19Z" changeset="165988861" uid="598980" user="Daniel Bar치nek">
    <nd ref="3917228903"/>
    <nd ref="1826151003"/>
    <nd ref="2674793787"/>
    <nd ref="747005597"/>
    <nd ref="112189451"/>
    <tag k="cycleway:both" v="no"/>
    <tag k="highway" v="residential"/>
    <tag k="lanes" v="3"/>
    <tag k="lanes:backward" v="1"/>
    <tag k="lanes:forward" v="2"/>
    <tag k="lit" v="yes"/>
    <tag k="name" v="Chlumeck치"/>
    <tag k="smoothness" v="good"/>
    <tag k="source:name" v="nameit/uir-adr"/>
    <tag k="surface" v="asphalt"/>
  </way>
  <way id="388532120" version="6" timestamp="2021-02-15T19:27:09Z" changeset="99329561" uid="11276832" user="HaPe-CZ">
    <nd ref="1134896802"/>
    <nd ref="6219644666"/>
    <nd ref="3917228894"/>
    <nd ref="8426668441"/>
    <nd ref="8426668440"/>
    <nd ref="1141156093"/>
    <nd ref="8426668444"/>
    <nd ref="8426668445"/>
    <nd ref="624112367"/>
    <nd ref="1634673511"/>
    <tag k="highway" v="residential"/>
    <tag k="lanes" v="1"/>
    <tag k="name" v="Chlumeck치"/>
    <tag k="oneway" v="yes"/>
    <tag k="source:name" v="nameit/uir-adr"/>
    <tag k="surface" v="asphalt"/>
  </way>
  <way id="388532121" version="5" timestamp="2022-01-23T14:51:53Z" changeset="116502335" uid="11174973" user="smidra">
    <nd ref="3917228903"/>
    <nd ref="3917228904"/>
    <nd ref="3917228901"/>
    <nd ref="8426668473"/>
    <nd ref="3917228898"/>
    <nd ref="8426668443"/>
    <nd ref="3917228896"/>
    <nd ref="3917228899"/>
    <nd ref="1134896802"/>
    <tag k="highway" v="residential"/>
    <tag k="lanes" v="1"/>
    <tag k="name" v="Chlumeck치"/>
    <tag k="oneway" v="yes"/>
    <tag k="sidewalk" v="no"/>
    <tag k="source:name" v="nameit/uir-adr"/>
    <tag k="surface" v="asphalt"/>
  </way>
  <way id="392688951" version="2" timestamp="2023-07-22T12:29:32Z" changeset="138851977" uid="6588887" user="Martin2035">
    <nd ref="2205488480"/>
    <nd ref="355996169"/>
    <nd ref="25638908"/>
    <tag k="foot" v="yes"/>
    <tag k="highway" v="residential"/>
    <tag k="maxspeed" v="30"/>
    <tag k="maxspeed:type" v="CZ:zone30"/>
    <tag k="name" v="Brat콏칤 Vencl칤k콢"/>
    <tag k="oneway" v="yes"/>
    <tag k="sidewalk" v="both"/>
    <tag k="source:name" v="nameit/uir-adr"/>
    <tag k="zone:maxspeed" v="30"/>
  </way>
  <way id="393572086" version="2" timestamp="2022-03-01T22:10:44Z" changeset="117996654" uid="6588887" user="Martin2035">
    <nd ref="1826150993"/>
    <nd ref="3967775535"/>
    <nd ref="3967775537"/>
    <nd ref="3967775536"/>
    <nd ref="1397730459"/>
    <tag k="highway" v="residential"/>
    <tag k="lanes" v="1"/>
    <tag k="name" v="Bryksova"/>
    <tag k="oneway" v="yes"/>
    <tag k="surface" v="asphalt"/>
  </way>
  <way id="393572087" version="4" timestamp="2022-05-08T10:50:01Z" changeset="120697447" uid="718054" user="Piskvor">
    <nd ref="1397730459"/>
    <nd ref="3967775534"/>
    <nd ref="1571593260"/>
    <nd ref="3967775533"/>
    <nd ref="1826150993"/>
    <tag k="highway" v="residential"/>
    <tag k="lanes" v="1"/>
    <tag k="name" v="Bryksova"/>
    <tag k="oneway" v="yes"/>
    <tag k="source:name" v="nameit/uir-adr"/>
    <tag k="surface" v="asphalt"/>
  </way>
  <way id="416332201" version="2" timestamp="2023-10-11T16:20:07Z" changeset="142443924" uid="25561" user="Gobik">
    <nd ref="354735567"/>
    <nd ref="359272708"/>
    <tag k="highway" v="residential"/>
    <tag k="name" v="Arno코ta Valenty"/>
    <tag k="surface" v="asphalt"/>
  </way>
  <way id="416332202" version="2" timestamp="2021-08-18T06:36:56Z" changeset="109850019" uid="5748" user="pschonmann">
    <nd ref="359272708"/>
    <nd ref="354718829"/>
    <nd ref="354727029"/>
    <tag k="highway" v="residential"/>
    <tag k="name" v="Arno코ta Valenty"/>
    <tag k="surface" v="asphalt"/>
  </way>
  <way id="416337079" version="2" timestamp="2023-08-10T08:09:46Z" changeset="139693504" uid="5748" user="pschonmann">
    <nd ref="1826150993"/>
    <nd ref="1397730450"/>
    <nd ref="483391"/>
    <tag k="highway" v="residential"/>
    <tag k="name" v="Bryksova"/>
    <tag k="source:name" v="nameit/uir-adr"/>
    <tag k="surface" v="asphalt"/>
  </way>
  <way id="436750770" version="3" timestamp="2022-10-23T08:25:40Z" changeset="127946689" uid="6588887" user="Martin2035">
    <nd ref="30233335"/>
    <nd ref="7307350"/>
    <nd ref="10123279191"/>
    <nd ref="1826150985"/>
    <nd ref="1397730442"/>
    <nd ref="1410761615"/>
    <tag k="highway" v="residential"/>
    <tag k="lanes" v="2"/>
    <tag k="name" v="Breitcetlova"/>
    <tag k="surface" v="asphalt"/>
  </way>
  <way id="436750771" version="2" timestamp="2022-10-23T08:25:40Z" changeset="127946689" uid="6588887" user="Martin2035">
    <nd ref="7307381"/>
    <nd ref="10123279192"/>
    <nd ref="30233335"/>
    <tag k="highway" v="residential"/>
    <tag k="name" v="Breitcetlova"/>
    <tag k="surface" v="asphalt"/>
  </way>
  <way id="436751579" version="2" timestamp="2022-01-31T09:40:33Z" changeset="116814356" uid="8971394" user="vojtechzaboril">
    <nd ref="7307704"/>
    <nd ref="9462624818"/>
    <nd ref="9462624819"/>
    <nd ref="857140896"/>
    <nd ref="6925837"/>
    <tag k="highway" v="residential"/>
    <tag k="name" v="Anderleho"/>
    <tag k="source:name" v="nameit/uir-adr"/>
  </way>
  <way id="488946730" version="16" timestamp="2023-10-02T09:43:15Z" changeset="142030223" uid="718054" user="Piskvor">
    <nd ref="4812323086"/>
    <nd ref="31775608"/>
    <nd ref="7124986473"/>
    <nd ref="5022600954"/>
    <nd ref="7997020415"/>
    <nd ref="8435715632"/>
    <nd ref="8435715631"/>
    <nd ref="31775237"/>
    <tag k="highway" v="secondary"/>
    <tag k="lanes" v="1"/>
    <tag k="lit" v="yes"/>
    <tag k="maxspeed" v="90"/>
    <tag k="motorway" v="no"/>
    <tag k="noname" v="yes"/>
    <tag k="oneway" v="yes"/>
    <tag k="sidewalk" v="no"/>
    <tag k="source:maxspeed" v="CZ:rural"/>
    <tag k="surface" v="asphalt"/>
    <tag k="toll" v="no"/>
  </way>
  <way id="488946732" version="17" timestamp="2024-09-16T10:43:06Z" changeset="156682137" uid="8971394" user="vojtechzaboril">
    <nd ref="1134883808"/>
    <nd ref="8435715636"/>
    <nd ref="7997050796"/>
    <nd ref="539237019"/>
    <nd ref="8435715635"/>
    <nd ref="5022600955"/>
    <nd ref="8435715634"/>
    <nd ref="5022600953"/>
    <nd ref="8435715633"/>
    <nd ref="7997020416"/>
    <nd ref="7997020417"/>
    <nd ref="31775237"/>
    <tag k="bicycle" v="no"/>
    <tag k="highway" v="motorway_link"/>
    <tag k="lanes" v="1"/>
    <tag k="lit" v="yes"/>
    <tag k="maxspeed" v="70"/>
    <tag k="motorway" v="no"/>
    <tag k="oneway" v="yes"/>
    <tag k="sidewalk" v="no"/>
    <tag k="source:maxspeed" v="sign"/>
    <tag k="surface" v="asphalt"/>
    <tag k="toll" v="no"/>
  </way>
  <way id="496918061" version="4" timestamp="2021-11-02T20:50:23Z" changeset="113302171" uid="8971394" user="vojtechzaboril">
    <nd ref="8418239281"/>
    <nd ref="8418239295"/>
    <nd ref="8418239296"/>
    <nd ref="8418239297"/>
    <nd ref="247951245"/>
    <tag k="hgv" v="destination"/>
    <tag k="highway" v="primary_link"/>
    <tag k="lanes" v="1"/>
    <tag k="lit" v="yes"/>
    <tag k="name" v="Broumarsk치"/>
    <tag k="oneway" v="yes"/>
  </way>
  <way id="496918062" version="3" timestamp="2020-01-10T18:19:25Z" changeset="79430708" uid="6588887" user="Martin2035">
    <nd ref="1576210145"/>
    <nd ref="1576210143"/>
    <nd ref="1840155766"/>
    <tag k="cycleway:right" v="soft_lane"/>
    <tag k="highway" v="tertiary"/>
    <tag k="lanes" v="2"/>
    <tag k="name" v="Ocelkova"/>
    <tag k="oneway" v="yes"/>
    <tag k="surface" v="asphalt"/>
    <tag k="turn:lanes" v="left|through;right"/>
  </way>
  <way id="497203711" version="2" timestamp="2021-09-04T17:19:21Z" changeset="110725337" uid="13972611" user="ppazdpa">
    <nd ref="1298230972"/>
    <nd ref="75732817"/>
    <nd ref="1576210175"/>
    <nd ref="1576210176"/>
    <tag k="foot" v="yes"/>
    <tag k="highway" v="tertiary"/>
    <tag k="lanes" v="2"/>
    <tag k="maxspeed" v="50"/>
    <tag k="maxspeed:source" v="cz:city_limit"/>
    <tag k="name" v="C칤glerova"/>
    <tag k="surface" v="asphalt"/>
  </way>
  <way id="513175796" version="2" timestamp="2021-02-17T10:56:14Z" changeset="99445546" uid="11276832" user="HaPe-CZ">
    <nd ref="746958105"/>
    <nd ref="5017094124"/>
    <nd ref="8431584324"/>
    <nd ref="5017093656"/>
    <tag k="highway" v="residential"/>
    <tag k="oneway" v="yes"/>
  </way>
  <way id="593075545" version="4" timestamp="2020-01-31T16:00:49Z" changeset="80382927" uid="4054181" user="Richard Janda">
    <nd ref="5658771114"/>
    <nd ref="5658771113"/>
    <nd ref="5658771112"/>
    <nd ref="7175430926"/>
    <nd ref="5658771111"/>
    <nd ref="5658771114"/>
    <tag k="addr:city" v="Praha"/>
    <tag k="addr:postcode" v="19800"/>
    <tag k="addr:street" v="Vyb칤ralova"/>
    <tag k="building" v="commercial"/>
    <tag k="building:levels" v="1"/>
    <tag k="building:ruian:type" v="10"/>
    <tag k="name" v="T&amp;H Potraviny"/>
    <tag k="ref:ruian:building" v="89543785"/>
    <tag k="source" v="cuzk:ruian"/>
    <tag k="start_date" v="2017-02-20"/>
    <tag k="wheelchair" v="yes"/>
  </way>
  <way id="593467415" version="4" timestamp="2024-09-01T21:22:06Z" changeset="156072623" uid="4018695" user="游뻟릖 Roman Horn칤k">
    <nd ref="31775616"/>
    <nd ref="12150508151"/>
    <nd ref="8426012989"/>
    <nd ref="12150508141"/>
    <nd ref="8426012990"/>
    <nd ref="2197936270"/>
    <nd ref="12150508134"/>
    <nd ref="8426012964"/>
    <nd ref="12150508140"/>
    <nd ref="8426012963"/>
    <nd ref="31775242"/>
    <tag k="bicycle" v="no"/>
    <tag k="foot" v="no"/>
    <tag k="highway" v="secondary"/>
    <tag k="junction" v="roundabout"/>
    <tag k="lanes" v="1"/>
    <tag k="lit" v="yes"/>
    <tag k="maxspeed" v="50"/>
    <tag k="surface" v="asphalt"/>
  </way>
  <way id="593467416" version="4" timestamp="2024-09-01T21:22:06Z" changeset="156072623" uid="4018695" user="游뻟릖 Roman Horn칤k">
    <nd ref="2197936273"/>
    <nd ref="12150508149"/>
    <nd ref="889937569"/>
    <nd ref="12150508130"/>
    <nd ref="8426012984"/>
    <nd ref="12150508131"/>
    <nd ref="8426012985"/>
    <nd ref="12150508142"/>
    <nd ref="2197936272"/>
    <nd ref="8426012998"/>
    <nd ref="12150508132"/>
    <nd ref="8426012997"/>
    <nd ref="12150508150"/>
    <nd ref="2197936271"/>
    <nd ref="12150508133"/>
    <nd ref="31775616"/>
    <tag k="bicycle" v="no"/>
    <tag k="foot" v="no"/>
    <tag k="highway" v="secondary"/>
    <tag k="junction" v="roundabout"/>
    <tag k="lanes" v="1"/>
    <tag k="lit" v="yes"/>
    <tag k="maxspeed" v="50"/>
    <tag k="surface" v="asphalt"/>
  </way>
  <way id="593467417" version="5" timestamp="2024-09-01T21:22:06Z" changeset="156072623" uid="4018695" user="游뻟릖 Roman Horn칤k">
    <nd ref="112188218"/>
    <nd ref="12150508147"/>
    <nd ref="8426012975"/>
    <nd ref="12150508145"/>
    <nd ref="8426012976"/>
    <nd ref="12150508128"/>
    <nd ref="2197936275"/>
    <nd ref="12150508144"/>
    <nd ref="8426012977"/>
    <nd ref="12150508146"/>
    <nd ref="8426012981"/>
    <nd ref="12150508129"/>
    <nd ref="2197936273"/>
    <tag k="bicycle" v="no"/>
    <tag k="cycleway:right" v="no"/>
    <tag k="foot" v="no"/>
    <tag k="highway" v="secondary"/>
    <tag k="junction" v="roundabout"/>
    <tag k="lanes" v="1"/>
    <tag k="lit" v="yes"/>
    <tag k="maxspeed" v="50"/>
    <tag k="surface" v="asphalt"/>
  </way>
  <way id="593495482" version="2" timestamp="2021-04-07T09:34:52Z" changeset="102468679" uid="6588887" user="Martin2035">
    <nd ref="1410764430"/>
    <nd ref="1562983092"/>
    <nd ref="1571592831"/>
    <tag k="cycleway:right" v="soft_lane"/>
    <tag k="highway" v="tertiary"/>
    <tag k="lanes" v="2"/>
    <tag k="maxspeed" v="50"/>
    <tag k="maxspeed:source" v="cz:city_limit"/>
    <tag k="name" v="Broumarsk치"/>
    <tag k="oneway" v="yes"/>
  </way>
  <way id="593495483" version="5" timestamp="2021-04-07T09:34:52Z" changeset="102468679" uid="6588887" user="Martin2035">
    <nd ref="1571592697"/>
    <nd ref="8119356707"/>
    <nd ref="1826150959"/>
    <nd ref="1410761570"/>
    <tag k="cycleway:right" v="shared_lane"/>
    <tag k="highway" v="tertiary"/>
    <tag k="lanes" v="2"/>
    <tag k="lit" v="yes"/>
    <tag k="name" v="Ocelkova"/>
    <tag k="oneway" v="yes"/>
    <tag k="surface" v="asphalt"/>
    <tag k="turn:lanes" v="left|through"/>
  </way>
  <way id="593495484" version="3" timestamp="2023-08-10T08:28:21Z" changeset="139694432" uid="5748" user="pschonmann">
    <nd ref="1410764427"/>
    <nd ref="1410764430"/>
    <tag k="cycleway:right" v="soft_lane"/>
    <tag k="highway" v="tertiary"/>
    <tag k="lanes" v="2"/>
    <tag k="name" v="Broumarsk치"/>
    <tag k="oneway" v="yes"/>
    <tag k="surface" v="asphalt"/>
  </way>
  <way id="593495485" version="2" timestamp="2023-08-10T08:28:17Z" changeset="139694432" uid="5748" user="pschonmann">
    <nd ref="1410764427"/>
    <nd ref="1410764428"/>
    <tag k="highway" v="tertiary"/>
    <tag k="name" v="Ocelkova"/>
    <tag k="oneway" v="yes"/>
    <tag k="surface" v="asphalt"/>
  </way>
  <way id="593498918" version="5" timestamp="2024-04-04T18:17:05Z" changeset="149582426" uid="12080464" user="Vojt캩ch Kade콏치bek">
    <nd ref="1410761615"/>
    <nd ref="1397730440"/>
    <tag k="cycleway:right" v="shared_lane"/>
    <tag k="highway" v="tertiary"/>
    <tag k="lanes" v="2"/>
    <tag k="lit" v="yes"/>
    <tag k="maxheight" v="default"/>
    <tag k="maxspeed" v="50"/>
    <tag k="name" v="Ocelkova"/>
    <tag k="oneway" v="yes"/>
    <tag k="surface" v="asphalt"/>
  </way>
  <way id="593498919" version="5" timestamp="2022-02-17T11:02:04Z" changeset="117515004" uid="6588887" user="Martin2035">
    <nd ref="181676960"/>
    <nd ref="6651885198"/>
    <nd ref="5017093975"/>
    <nd ref="5017094022"/>
    <nd ref="181676945"/>
    <nd ref="181676932"/>
    <nd ref="746958108"/>
    <nd ref="6174658500"/>
    <nd ref="181676896"/>
    <tag k="highway" v="residential"/>
    <tag k="lanes" v="1"/>
    <tag k="name" v="Kpt. Str치nsk칠ho"/>
    <tag k="oneway" v="yes"/>
    <tag k="ref:ruian:street" v="503223"/>
    <tag k="short_name" v="Kpt. Str치nsk칠ho"/>
    <tag k="surface" v="asphalt"/>
  </way>
  <way id="593498920" version="7" timestamp="2023-03-04T10:41:11Z" changeset="133284218" uid="6588887" user="Martin2035">
    <nd ref="6926060"/>
    <nd ref="1397730418"/>
    <nd ref="7858512747"/>
    <nd ref="3766045675"/>
    <nd ref="6174657473"/>
    <nd ref="6173224915"/>
    <nd ref="6219644806"/>
    <nd ref="6926067"/>
    <tag k="highway" v="residential"/>
    <tag k="lanes" v="2"/>
    <tag k="name" v="Bryksova"/>
    <tag k="surface" v="asphalt"/>
  </way>
  <way id="613100968" version="2" timestamp="2019-07-29T13:14:00Z" changeset="72770242" uid="8971394" user="vojtechzaboril">
    <nd ref="5802074162"/>
    <nd ref="1410764406"/>
    <tag k="cycleway:right" v="soft_lane"/>
    <tag k="highway" v="tertiary"/>
    <tag k="lanes" v="1"/>
    <tag k="name" v="Broumarsk치"/>
    <tag k="oneway" v="yes"/>
  </way>
  <way id="613100969" version="2" timestamp="2019-07-29T13:14:00Z" changeset="72770242" uid="8971394" user="vojtechzaboril">
    <nd ref="1410764406"/>
    <nd ref="1410764408"/>
    <nd ref="1410764413"/>
    <tag k="cycleway:right" v="soft_lane"/>
    <tag k="highway" v="tertiary"/>
    <tag k="lanes" v="1"/>
    <tag k="name" v="Broumarsk치"/>
    <tag k="oneway" v="yes"/>
  </way>
  <way id="653983026" version="1" timestamp="2018-12-10T15:04:49Z" changeset="65347403" uid="100163" user="Hlav">
    <nd ref="319597166"/>
    <nd ref="7307255"/>
    <nd ref="1539985016"/>
    <nd ref="7307324"/>
    <nd ref="7307340"/>
    <tag k="highway" v="residential"/>
    <tag k="name" v="Himrova"/>
  </way>
  <way id="666368096" version="3" timestamp="2019-11-21T10:59:06Z" changeset="77370764" uid="4054181" user="Richard Janda">
    <nd ref="6238741942"/>
    <nd ref="6238741943"/>
    <nd ref="6238741944"/>
    <nd ref="6238741945"/>
    <nd ref="6238741946"/>
    <nd ref="6238741947"/>
    <nd ref="6238741948"/>
    <nd ref="6238741949"/>
    <nd ref="6238741942"/>
    <tag k="addr:city" v="Praha"/>
    <tag k="addr:housenumber" v="995/4"/>
    <tag k="addr:postcode" v="19800"/>
    <tag k="addr:street" v="Kpt. Str치nsk칠ho"/>
    <tag k="building" v="yes"/>
    <tag k="name" v="Ovoce - zelenina"/>
    <tag k="opening_hours" v="Mo-Su 08:00-21:00"/>
    <tag k="payment:cash" v="yes"/>
    <tag k="payment:coins" v="yes"/>
    <tag k="payment:credit_cards" v="yes"/>
    <tag k="payment:debit_cards" v="yes"/>
    <tag k="payment:mastercard" v="yes"/>
    <tag k="payment:visa" v="yes"/>
    <tag k="shop" v="convenience"/>
    <tag k="wheelchair" v="no"/>
  </way>
  <way id="676395440" version="5" timestamp="2024-07-31T08:47:08Z" changeset="154637449" uid="20277966" user="legwarmer">
    <nd ref="483415"/>
    <nd ref="10025316101"/>
    <nd ref="473497528"/>
    <tag k="cycleway:right" v="soft_lane"/>
    <tag k="highway" v="tertiary"/>
    <tag k="lanes" v="1"/>
    <tag k="lit" v="yes"/>
    <tag k="name" v="Ocelkova"/>
    <tag k="note" v="bicycle lanes added in 2022"/>
    <tag k="oneway" v="yes"/>
    <tag k="smoothness" v="excellent"/>
    <tag k="surface" v="asphalt"/>
  </way>
  <way id="676395441" version="8" timestamp="2024-08-31T13:24:16Z" changeset="156015076" uid="8971394" user="vojtechzaboril">
    <nd ref="473497518"/>
    <nd ref="8059824527"/>
    <nd ref="8410083749"/>
    <nd ref="10036071631"/>
    <nd ref="10036071632"/>
    <nd ref="10036071630"/>
    <nd ref="483415"/>
    <tag k="cycleway:right" v="lane"/>
    <tag k="highway" v="primary_link"/>
    <tag k="lanes" v="1"/>
    <tag k="lit" v="yes"/>
    <tag k="maxspeed" v="50"/>
    <tag k="oneway" v="yes"/>
    <tag k="smoothness" v="excellent"/>
    <tag k="surface" v="asphalt"/>
  </way>
  <way id="693683398" version="2" timestamp="2023-07-22T12:29:32Z" changeset="138851977" uid="6588887" user="Martin2035">
    <nd ref="6512673665"/>
    <nd ref="6512673666"/>
    <nd ref="25638970"/>
    <tag k="highway" v="residential"/>
    <tag k="maxspeed" v="30"/>
    <tag k="maxspeed:type" v="CZ:zone30"/>
    <tag k="name" v="Brat콏칤 Vencl칤k콢"/>
    <tag k="surface" v="asphalt"/>
    <tag k="zone:maxspeed" v="30"/>
  </way>
  <way id="702296239" version="1" timestamp="2019-07-07T19:26:53Z" changeset="71989901" uid="4054181" user="Richard Janda">
    <nd ref="856628044"/>
    <nd ref="153028982"/>
    <tag k="highway" v="residential"/>
    <tag k="name" v="Bobkova"/>
    <tag k="source:name" v="nameit/uir-adr"/>
  </way>
  <way id="708498695" version="5" timestamp="2024-04-04T18:17:05Z" changeset="149582426" uid="12080464" user="Vojt캩ch Kade콏치bek">
    <nd ref="6657645652"/>
    <nd ref="11787434654"/>
    <nd ref="1826150963"/>
    <nd ref="1562983133"/>
    <nd ref="1410764429"/>
    <tag k="cycleway:right" v="soft_lane"/>
    <tag k="highway" v="tertiary"/>
    <tag k="lanes" v="2"/>
    <tag k="maxspeed" v="50"/>
    <tag k="maxspeed:source" v="cz:city_limit"/>
    <tag k="name" v="Broumarsk치"/>
    <tag k="oneway" v="yes"/>
    <tag k="surface" v="asphalt"/>
    <tag k="turn:lanes" v="through;right|left"/>
  </way>
  <way id="708498696" version="3" timestamp="2020-09-12T07:01:00Z" changeset="90785318" uid="527259" user="Vratislav Filler">
    <nd ref="1410761576"/>
    <nd ref="1410761573"/>
    <nd ref="1410761571"/>
    <nd ref="1571592697"/>
    <tag k="cycleway:right" v="shared_lane"/>
    <tag k="highway" v="tertiary"/>
    <tag k="lanes" v="3"/>
    <tag k="lit" v="yes"/>
    <tag k="name" v="Ocelkova"/>
    <tag k="oneway" v="yes"/>
    <tag k="surface" v="asphalt"/>
    <tag k="turn:lanes" v="left|through|right"/>
  </way>
  <way id="713792284" version="4" timestamp="2024-08-20T14:45:07Z" changeset="155513313" uid="8971394" user="vojtechzaboril">
    <nd ref="153028982"/>
    <nd ref="6219644805"/>
    <tag k="highway" v="residential"/>
    <tag k="name" v="Bryksova"/>
    <tag k="sidewalk" v="separate"/>
    <tag k="source:name" v="nameit/uir-adr"/>
    <tag k="surface" v="asphalt"/>
  </way>
  <way id="722609460" version="2" timestamp="2021-04-07T09:34:52Z" changeset="102468679" uid="6588887" user="Martin2035">
    <nd ref="6778222848"/>
    <nd ref="1410761569"/>
    <nd ref="1576210141"/>
    <nd ref="1576210142"/>
    <nd ref="1576210144"/>
    <nd ref="1576210147"/>
    <nd ref="6778222855"/>
    <nd ref="1576210149"/>
    <nd ref="6778222850"/>
    <nd ref="1576210151"/>
    <nd ref="6778222849"/>
    <nd ref="1576210152"/>
    <nd ref="6778222851"/>
    <tag k="cycleway:right" v="soft_lane"/>
    <tag k="highway" v="tertiary"/>
    <tag k="lanes" v="1"/>
    <tag k="name" v="Ocelkova"/>
    <tag k="oneway" v="yes"/>
    <tag k="surface" v="asphalt"/>
  </way>
  <way id="722609461" version="2" timestamp="2020-01-10T18:19:25Z" changeset="79430708" uid="6588887" user="Martin2035">
    <nd ref="6778222851"/>
    <nd ref="1576210150"/>
    <nd ref="6778222852"/>
    <tag k="cycleway:right" v="soft_lane"/>
    <tag k="highway" v="tertiary"/>
    <tag k="lanes" v="1"/>
    <tag k="name" v="Ocelkova"/>
    <tag k="oneway" v="yes"/>
    <tag k="surface" v="asphalt"/>
  </way>
  <way id="722609462" version="3" timestamp="2021-04-07T09:34:52Z" changeset="102468679" uid="6588887" user="Martin2035">
    <nd ref="6778222852"/>
    <nd ref="1576210148"/>
    <nd ref="1576210146"/>
    <nd ref="1576210145"/>
    <tag k="cycleway:right" v="soft_lane"/>
    <tag k="highway" v="tertiary"/>
    <tag k="lanes" v="1"/>
    <tag k="name" v="Ocelkova"/>
    <tag k="oneway" v="yes"/>
    <tag k="surface" v="asphalt"/>
  </way>
  <way id="722609463" version="2" timestamp="2021-04-07T09:34:52Z" changeset="102468679" uid="6588887" user="Martin2035">
    <nd ref="6778222856"/>
    <nd ref="1410761578"/>
    <nd ref="6778222857"/>
    <nd ref="1410761584"/>
    <nd ref="1410761586"/>
    <nd ref="1298230973"/>
    <nd ref="6778222859"/>
    <tag k="cycleway:right" v="soft_lane"/>
    <tag k="highway" v="tertiary"/>
    <tag k="lanes" v="1"/>
    <tag k="lit" v="yes"/>
    <tag k="name" v="Ocelkova"/>
    <tag k="oneway" v="yes"/>
    <tag k="surface" v="asphalt"/>
  </way>
  <way id="722609464" version="2" timestamp="2020-01-10T18:19:25Z" changeset="79430708" uid="6588887" user="Martin2035">
    <nd ref="6778222859"/>
    <nd ref="1410761591"/>
    <nd ref="1410761592"/>
    <nd ref="6778222860"/>
    <tag k="cycleway:right" v="soft_lane"/>
    <tag k="highway" v="tertiary"/>
    <tag k="lanes" v="1"/>
    <tag k="lit" v="yes"/>
    <tag k="name" v="Ocelkova"/>
    <tag k="oneway" v="yes"/>
    <tag k="surface" v="asphalt"/>
  </way>
  <way id="722609465" version="2" timestamp="2020-01-10T18:19:25Z" changeset="79430708" uid="6588887" user="Martin2035">
    <nd ref="6778222860"/>
    <nd ref="1410761595"/>
    <nd ref="6778222864"/>
    <tag k="cycleway:right" v="soft_lane"/>
    <tag k="highway" v="tertiary"/>
    <tag k="lanes" v="1"/>
    <tag k="lit" v="yes"/>
    <tag k="name" v="Ocelkova"/>
    <tag k="oneway" v="yes"/>
    <tag k="surface" v="asphalt"/>
  </way>
  <way id="722609470" version="1" timestamp="2019-09-06T20:47:10Z" changeset="74192955" uid="6588887" user="Martin2035">
    <nd ref="6778222864"/>
    <nd ref="1410761594"/>
    <nd ref="6778222865"/>
    <nd ref="1410761589"/>
    <nd ref="6778222867"/>
    <tag k="cycleway:right" v="soft_lane"/>
    <tag k="highway" v="tertiary"/>
    <tag k="lanes" v="1"/>
    <tag k="lit" v="yes"/>
    <tag k="name" v="Ocelkova"/>
    <tag k="oneway" v="yes"/>
    <tag k="surface" v="asphalt"/>
  </way>
  <way id="722609471" version="3" timestamp="2021-04-07T09:34:52Z" changeset="102468679" uid="6588887" user="Martin2035">
    <nd ref="6778222867"/>
    <nd ref="6778222866"/>
    <nd ref="1410761585"/>
    <nd ref="1410761582"/>
    <nd ref="1410761581"/>
    <nd ref="1410761576"/>
    <tag k="cycleway:right" v="soft_lane"/>
    <tag k="highway" v="tertiary"/>
    <tag k="lanes" v="1"/>
    <tag k="lit" v="yes"/>
    <tag k="name" v="Ocelkova"/>
    <tag k="oneway" v="yes"/>
    <tag k="surface" v="asphalt"/>
  </way>
  <way id="722609472" version="3" timestamp="2021-04-07T09:34:52Z" changeset="102468679" uid="6588887" user="Martin2035">
    <nd ref="6778222868"/>
    <nd ref="1410761555"/>
    <nd ref="7122950793"/>
    <nd ref="1410761553"/>
    <nd ref="1410761552"/>
    <nd ref="1410761550"/>
    <nd ref="7122950791"/>
    <nd ref="1410761551"/>
    <nd ref="7122950790"/>
    <nd ref="1410761554"/>
    <nd ref="1410761557"/>
    <nd ref="7122950789"/>
    <nd ref="1410761561"/>
    <nd ref="7122950788"/>
    <nd ref="1410761567"/>
    <nd ref="1298230902"/>
    <nd ref="6778222870"/>
    <tag k="cycleway:right" v="soft_lane"/>
    <tag k="highway" v="tertiary"/>
    <tag k="lanes" v="1"/>
    <tag k="lit" v="yes"/>
    <tag k="maxheight" v="default"/>
    <tag k="name" v="Ocelkova"/>
    <tag k="oneway" v="yes"/>
    <tag k="surface" v="asphalt"/>
  </way>
  <way id="722609473" version="3" timestamp="2021-04-07T09:34:52Z" changeset="102468679" uid="6588887" user="Martin2035">
    <nd ref="6778222869"/>
    <nd ref="1410761566"/>
    <tag k="cycleway:right" v="soft_lane"/>
    <tag k="highway" v="tertiary"/>
    <tag k="lanes" v="1"/>
    <tag k="lit" v="yes"/>
    <tag k="maxheight" v="default"/>
    <tag k="name" v="Ocelkova"/>
    <tag k="oneway" v="yes"/>
    <tag k="surface" v="asphalt"/>
  </way>
  <way id="722609474" version="3" timestamp="2020-04-04T12:29:19Z" changeset="83069447" uid="665336" user="Minimalis">
    <nd ref="6778222870"/>
    <nd ref="1410764420"/>
    <nd ref="1298231250"/>
    <nd ref="1410761572"/>
    <tag k="cycleway:right" v="soft_lane"/>
    <tag k="highway" v="tertiary"/>
    <tag k="lanes" v="1"/>
    <tag k="lit" v="yes"/>
    <tag k="maxheight" v="default"/>
    <tag k="name" v="Ocelkova"/>
    <tag k="oneway" v="yes"/>
    <tag k="surface" v="asphalt"/>
  </way>
  <way id="722609475" version="4" timestamp="2022-01-24T10:58:15Z" changeset="116535824" uid="11174973" user="smidra">
    <nd ref="6778222871"/>
    <nd ref="6778222869"/>
    <tag k="cycleway:right" v="soft_lane"/>
    <tag k="highway" v="tertiary"/>
    <tag k="lanes" v="1"/>
    <tag k="lit" v="yes"/>
    <tag k="maxheight" v="default"/>
    <tag k="name" v="Ocelkova"/>
    <tag k="oneway" v="yes"/>
    <tag k="sidewalk" v="separate"/>
    <tag k="surface" v="asphalt"/>
  </way>
  <way id="722609476" version="5" timestamp="2022-01-24T10:56:05Z" changeset="116535824" uid="11174973" user="smidra">
    <nd ref="6778222872"/>
    <nd ref="8602016977"/>
    <nd ref="6778222871"/>
    <tag k="cycleway:right" v="soft_lane"/>
    <tag k="highway" v="tertiary"/>
    <tag k="lanes" v="1"/>
    <tag k="lit" v="yes"/>
    <tag k="maxheight" v="default"/>
    <tag k="maxspeed" v="50"/>
    <tag k="name" v="Ocelkova"/>
    <tag k="oneway" v="yes"/>
    <tag k="sidewalk" v="separate"/>
    <tag k="surface" v="asphalt"/>
  </way>
  <way id="722609477" version="4" timestamp="2022-01-29T12:38:12Z" changeset="116742310" uid="8971394" user="vojtechzaboril">
    <nd ref="6778222873"/>
    <nd ref="1571592985"/>
    <nd ref="1410761580"/>
    <nd ref="9457856864"/>
    <nd ref="1410761579"/>
    <nd ref="1410761577"/>
    <nd ref="1410761574"/>
    <nd ref="6778222872"/>
    <tag k="cycleway:right" v="soft_lane"/>
    <tag k="highway" v="tertiary"/>
    <tag k="lanes" v="1"/>
    <tag k="lit" v="yes"/>
    <tag k="maxheight" v="default"/>
    <tag k="maxspeed" v="50"/>
    <tag k="name" v="Ocelkova"/>
    <tag k="oneway" v="yes"/>
    <tag k="sidewalk" v="left"/>
    <tag k="surface" v="asphalt"/>
  </way>
  <way id="722609478" version="8" timestamp="2023-06-24T16:24:50Z" changeset="137727598" uid="3781248" user="matheusgomesms">
    <nd ref="1410761593"/>
    <nd ref="9457856869"/>
    <nd ref="9457856870"/>
    <nd ref="1410761590"/>
    <nd ref="7122950854"/>
    <tag k="cycleway:left" v="shared_lane"/>
    <tag k="cycleway:right" v="soft_lane"/>
    <tag k="foot" v="no"/>
    <tag k="highway" v="tertiary"/>
    <tag k="lanes" v="2"/>
    <tag k="lit" v="yes"/>
    <tag k="maxheight" v="default"/>
    <tag k="maxspeed" v="50"/>
    <tag k="name" v="Ocelkova"/>
    <tag k="oneway" v="yes"/>
    <tag k="placement" v="middle_of:2"/>
    <tag k="shoulder" v="no"/>
    <tag k="sidewalk" v="no"/>
    <tag k="surface" v="asphalt"/>
    <tag k="turn:lanes" v="left|through"/>
  </way>
  <way id="722609479" version="7" timestamp="2022-01-29T12:38:12Z" changeset="116742310" uid="8971394" user="vojtechzaboril">
    <nd ref="6778222874"/>
    <nd ref="1410761608"/>
    <nd ref="1410761607"/>
    <nd ref="7122950867"/>
    <nd ref="9457856862"/>
    <nd ref="9457856861"/>
    <nd ref="9457856860"/>
    <nd ref="1410761604"/>
    <nd ref="9457856859"/>
    <nd ref="9457856858"/>
    <nd ref="9457856857"/>
    <nd ref="2036033168"/>
    <nd ref="1410761601"/>
    <nd ref="1410761600"/>
    <nd ref="9457856856"/>
    <nd ref="1410761599"/>
    <nd ref="7122950860"/>
    <nd ref="1410761598"/>
    <nd ref="1410761597"/>
    <nd ref="7122950859"/>
    <nd ref="1410761596"/>
    <nd ref="1410761593"/>
    <tag k="cycleway:right" v="soft_lane"/>
    <tag k="highway" v="tertiary"/>
    <tag k="lanes" v="1"/>
    <tag k="lit" v="yes"/>
    <tag k="maxheight" v="default"/>
    <tag k="maxspeed" v="50"/>
    <tag k="name" v="Ocelkova"/>
    <tag k="oneway" v="yes"/>
    <tag k="shoulder" v="no"/>
    <tag k="sidewalk" v="no"/>
    <tag k="surface" v="asphalt"/>
  </way>
  <way id="722609481" version="3" timestamp="2022-01-29T12:38:12Z" changeset="116742310" uid="8971394" user="vojtechzaboril">
    <nd ref="1410761614"/>
    <nd ref="6778222876"/>
    <nd ref="1410761613"/>
    <nd ref="9457856854"/>
    <nd ref="1410761612"/>
    <nd ref="6778222875"/>
    <nd ref="1410761611"/>
    <nd ref="6778222874"/>
    <tag k="cycleway:right" v="soft_lane"/>
    <tag k="highway" v="tertiary"/>
    <tag k="lanes" v="1"/>
    <tag k="lit" v="yes"/>
    <tag k="maxheight" v="default"/>
    <tag k="maxspeed" v="50"/>
    <tag k="name" v="Ocelkova"/>
    <tag k="oneway" v="yes"/>
    <tag k="surface" v="asphalt"/>
  </way>
  <way id="722609484" version="5" timestamp="2022-01-29T12:38:12Z" changeset="116742310" uid="8971394" user="vojtechzaboril">
    <nd ref="6778222877"/>
    <nd ref="1826150988"/>
    <nd ref="8119356698"/>
    <nd ref="1397730444"/>
    <tag k="cycleway:right" v="soft_lane"/>
    <tag k="highway" v="tertiary"/>
    <tag k="lanes" v="2"/>
    <tag k="maxspeed" v="50"/>
    <tag k="name" v="Ocelkova"/>
    <tag k="oneway" v="yes"/>
    <tag k="surface" v="asphalt"/>
  </way>
  <way id="722609485" version="5" timestamp="2022-03-16T09:28:40Z" changeset="118542817" uid="718054" user="Piskvor">
    <nd ref="7122950864"/>
    <nd ref="9457856895"/>
    <nd ref="9457856894"/>
    <nd ref="9457856893"/>
    <nd ref="483395"/>
    <nd ref="9457856892"/>
    <nd ref="9457856891"/>
    <nd ref="9457856890"/>
    <nd ref="856561592"/>
    <nd ref="9457856855"/>
    <nd ref="483398"/>
    <nd ref="6778222878"/>
    <nd ref="7122950868"/>
    <nd ref="483393"/>
    <nd ref="9457856851"/>
    <nd ref="7122950869"/>
    <nd ref="7122950870"/>
    <nd ref="483392"/>
    <nd ref="6778222877"/>
    <tag k="cycleway:right" v="soft_lane"/>
    <tag k="highway" v="tertiary"/>
    <tag k="lanes" v="1"/>
    <tag k="maxheight" v="default"/>
    <tag k="maxspeed" v="50"/>
    <tag k="name" v="Ocelkova"/>
    <tag k="oneway" v="yes"/>
    <tag k="surface" v="asphalt"/>
  </way>
  <way id="734347641" version="5" timestamp="2025-05-08T15:10:02Z" changeset="165988861" uid="598980" user="Daniel Bar치nek">
    <nd ref="6876937142"/>
    <nd ref="8425816499"/>
    <nd ref="8425816497"/>
    <nd ref="8425816495"/>
    <nd ref="8425816494"/>
    <nd ref="8425816493"/>
    <nd ref="6876937154"/>
    <nd ref="6876937146"/>
    <nd ref="1141156099"/>
    <nd ref="2569928858"/>
    <tag k="cycleway:right" v="no"/>
    <tag k="highway" v="secondary"/>
    <tag k="lanes" v="2"/>
    <tag k="lit" v="yes"/>
    <tag k="maxspeed" v="50"/>
    <tag k="name" v="Chlumeck치"/>
    <tag k="oneway" v="yes"/>
    <tag k="smoothness" v="good"/>
    <tag k="surface" v="asphalt"/>
    <tag k="turn:lanes" v="left|through"/>
  </way>
  <way id="734347642" version="4" timestamp="2021-08-18T17:09:04Z" changeset="109887612" uid="469828" user="Luk치코 Jel칤nek">
    <nd ref="3411057003"/>
    <nd ref="8418332681"/>
    <nd ref="2569928863"/>
    <nd ref="8418332680"/>
    <nd ref="8418332679"/>
    <nd ref="8418332678"/>
    <nd ref="1141156153"/>
    <tag k="cycleway:right" v="no"/>
    <tag k="highway" v="secondary"/>
    <tag k="lanes" v="2"/>
    <tag k="lit" v="yes"/>
    <tag k="maxspeed" v="50"/>
    <tag k="name" v="Chlumeck치"/>
    <tag k="oneway" v="yes"/>
    <tag k="surface" v="asphalt"/>
  </way>
  <way id="734347643" version="5" timestamp="2025-05-08T15:09:58Z" changeset="165988861" uid="598980" user="Daniel Bar치nek">
    <nd ref="1141156122"/>
    <nd ref="8425816492"/>
    <nd ref="6876937140"/>
    <nd ref="8425816496"/>
    <nd ref="8425816498"/>
    <nd ref="6876937141"/>
    <tag k="cycleway:right" v="no"/>
    <tag k="highway" v="secondary"/>
    <tag k="lanes" v="2"/>
    <tag k="lit" v="yes"/>
    <tag k="maxspeed" v="50"/>
    <tag k="name" v="Chlumeck치"/>
    <tag k="oneway" v="yes"/>
    <tag k="smoothness" v="good"/>
    <tag k="surface" v="asphalt"/>
  </way>
  <way id="734347644" version="3" timestamp="2021-08-31T17:37:19Z" changeset="110525887" uid="469828" user="Luk치코 Jel칤nek">
    <nd ref="2568657232"/>
    <nd ref="1141156122"/>
    <tag k="cycleway:right" v="no"/>
    <tag k="highway" v="secondary"/>
    <tag k="lanes" v="2"/>
    <tag k="lit" v="yes"/>
    <tag k="maxspeed" v="50"/>
    <tag k="name" v="Chlumeck치"/>
    <tag k="oneway" v="yes"/>
    <tag k="sidewalk" v="right"/>
    <tag k="surface" v="asphalt"/>
  </way>
  <way id="734347646" version="3" timestamp="2021-08-31T17:37:33Z" changeset="110525887" uid="469828" user="Luk치코 Jel칤nek">
    <nd ref="6876937148"/>
    <nd ref="2568657232"/>
    <tag k="cycleway:right" v="no"/>
    <tag k="highway" v="secondary"/>
    <tag k="lanes" v="2"/>
    <tag k="lit" v="yes"/>
    <tag k="maxspeed" v="50"/>
    <tag k="name" v="Chlumeck치"/>
    <tag k="oneway" v="yes"/>
    <tag k="sidewalk" v="right"/>
    <tag k="surface" v="asphalt"/>
  </way>
  <way id="740829575" version="1" timestamp="2019-10-31T21:12:56Z" changeset="76467845" uid="3003739" user="r00tcz">
    <nd ref="6935892502"/>
    <nd ref="6935892501"/>
    <nd ref="6935892500"/>
    <nd ref="6935892499"/>
    <nd ref="6935892498"/>
    <nd ref="6935892497"/>
    <tag k="highway" v="residential"/>
    <tag k="name" v="Cukrova"/>
  </way>
  <way id="762313236" version="2" timestamp="2021-04-07T09:34:52Z" changeset="102468679" uid="6588887" user="Martin2035">
    <nd ref="7122950787"/>
    <nd ref="1298231024"/>
    <nd ref="30294862"/>
    <nd ref="30294931"/>
    <nd ref="483418"/>
    <nd ref="30294914"/>
    <nd ref="1298231221"/>
    <nd ref="30294863"/>
    <nd ref="30294887"/>
    <nd ref="483419"/>
    <nd ref="1298230943"/>
    <nd ref="7122950792"/>
    <nd ref="30294851"/>
    <tag k="cycleway:right" v="soft_lane"/>
    <tag k="highway" v="tertiary"/>
    <tag k="lanes" v="1"/>
    <tag k="maxheight" v="default"/>
    <tag k="name" v="Ocelkova"/>
    <tag k="oneway" v="yes"/>
    <tag k="surface" v="asphalt"/>
  </way>
  <way id="762313237" version="2" timestamp="2021-04-07T09:34:52Z" changeset="102468679" uid="6588887" user="Martin2035">
    <nd ref="354722418"/>
    <nd ref="1410761560"/>
    <nd ref="6778222868"/>
    <tag k="cycleway:right" v="soft_lane"/>
    <tag k="highway" v="tertiary"/>
    <tag k="lanes" v="1"/>
    <tag k="lit" v="yes"/>
    <tag k="maxheight" v="default"/>
    <tag k="name" v="Ocelkova"/>
    <tag k="oneway" v="yes"/>
    <tag k="surface" v="asphalt"/>
  </way>
  <way id="762313238" version="4" timestamp="2022-10-23T08:25:40Z" changeset="127946689" uid="6588887" user="Martin2035">
    <nd ref="1410761566"/>
    <nd ref="354722418"/>
    <tag k="cycleway:right" v="shared_lane"/>
    <tag k="highway" v="tertiary"/>
    <tag k="lanes" v="1"/>
    <tag k="lit" v="yes"/>
    <tag k="maxheight" v="default"/>
    <tag k="name" v="Ocelkova"/>
    <tag k="oneway" v="yes"/>
    <tag k="surface" v="asphalt"/>
  </way>
  <way id="762313241" version="7" timestamp="2025-04-29T16:55:10Z" changeset="165599819" uid="469828" user="Luk치코 Jel칤nek">
    <nd ref="11003299660"/>
    <nd ref="7122950796"/>
    <nd ref="8602016978"/>
    <nd ref="365599697"/>
    <nd ref="6929704"/>
    <nd ref="9457856863"/>
    <nd ref="30294811"/>
    <nd ref="7122950850"/>
    <nd ref="9457856867"/>
    <nd ref="6929706"/>
    <nd ref="9457856866"/>
    <nd ref="9457856865"/>
    <nd ref="856561588"/>
    <nd ref="1571592924"/>
    <nd ref="9457856868"/>
    <nd ref="1571592972"/>
    <nd ref="1410761583"/>
    <tag k="cycleway:right" v="soft_lane"/>
    <tag k="highway" v="tertiary"/>
    <tag k="lanes" v="1"/>
    <tag k="maxheight" v="default"/>
    <tag k="maxspeed" v="50"/>
    <tag k="name" v="Ocelkova"/>
    <tag k="oneway" v="yes"/>
    <tag k="smoothness" v="excellent"/>
    <tag k="surface" v="asphalt"/>
  </way>
  <way id="762313249" version="4" timestamp="2022-01-29T12:38:12Z" changeset="116742310" uid="8971394" user="vojtechzaboril">
    <nd ref="1410761587"/>
    <nd ref="6778222873"/>
    <tag k="cycleway:right" v="shared_lane"/>
    <tag k="highway" v="tertiary"/>
    <tag k="lanes" v="1"/>
    <tag k="lit" v="yes"/>
    <tag k="maxheight" v="default"/>
    <tag k="maxspeed" v="50"/>
    <tag k="name" v="Ocelkova"/>
    <tag k="oneway" v="yes"/>
    <tag k="surface" v="asphalt"/>
  </way>
  <way id="762313253" version="7" timestamp="2023-06-24T16:03:22Z" changeset="137726876" uid="3781248" user="matheusgomesms">
    <nd ref="1397730440"/>
    <nd ref="10699154239"/>
    <nd ref="11003300352"/>
    <nd ref="1410761614"/>
    <tag k="cycleway:right" v="shared_lane"/>
    <tag k="highway" v="tertiary"/>
    <tag k="lanes" v="2"/>
    <tag k="lit" v="yes"/>
    <tag k="maxheight" v="default"/>
    <tag k="maxspeed" v="50"/>
    <tag k="name" v="Ocelkova"/>
    <tag k="oneway" v="yes"/>
    <tag k="surface" v="asphalt"/>
    <tag k="turn:lanes" v="|merge_to_left"/>
  </way>
  <way id="803768099" version="2" timestamp="2021-02-15T19:27:09Z" changeset="99329561" uid="11276832" user="HaPe-CZ">
    <nd ref="1634673511"/>
    <nd ref="3917228903"/>
    <tag k="highway" v="residential"/>
    <tag k="lanes" v="2"/>
    <tag k="name" v="Chlumeck치"/>
    <tag k="oneway" v="yes"/>
    <tag k="source:name" v="nameit/uir-adr"/>
    <tag k="surface" v="asphalt"/>
  </way>
  <way id="803768101" version="3" timestamp="2024-08-20T14:34:31Z" changeset="155512757" uid="8971394" user="vojtechzaboril">
    <nd ref="3411057000"/>
    <nd ref="3750776740"/>
    <nd ref="112189208"/>
    <tag k="highway" v="unclassified"/>
    <tag k="lanes" v="3"/>
    <tag k="oneway" v="yes"/>
    <tag k="turn:lanes" v="through|through|through"/>
  </way>
  <way id="810876552" version="2" timestamp="2021-04-21T09:31:34Z" changeset="103327352" uid="6588887" user="Martin2035">
    <nd ref="7581334883"/>
    <nd ref="7581334855"/>
    <tag k="cycleway:right" v="soft_lane"/>
    <tag k="highway" v="tertiary"/>
    <tag k="lanes" v="2"/>
    <tag k="maxspeed" v="50"/>
    <tag k="maxspeed:source" v="cz:city_limit"/>
    <tag k="name" v="Broumarsk치"/>
    <tag k="oneway" v="yes"/>
  </way>
  <way id="810876553" version="2" timestamp="2021-04-21T09:31:34Z" changeset="103327352" uid="6588887" user="Martin2035">
    <nd ref="7581334856"/>
    <nd ref="7581334883"/>
    <tag k="cycleway:right" v="soft_lane"/>
    <tag k="highway" v="tertiary"/>
    <tag k="lanes" v="3"/>
    <tag k="maxspeed" v="50"/>
    <tag k="maxspeed:source" v="cz:city_limit"/>
    <tag k="name" v="Broumarsk치"/>
    <tag k="oneway" v="yes"/>
    <tag k="surface" v="asphalt"/>
    <tag k="turn:lanes" v="slight_right|through|through"/>
  </way>
  <way id="810876554" version="4" timestamp="2024-08-31T13:24:16Z" changeset="156015076" uid="8971394" user="vojtechzaboril">
    <nd ref="7581334855"/>
    <nd ref="7581334854"/>
    <nd ref="8119356704"/>
    <nd ref="25240103"/>
    <tag k="cycleway:right" v="soft_lane"/>
    <tag k="highway" v="tertiary"/>
    <tag k="lanes" v="3"/>
    <tag k="lanes:psv" v="1"/>
    <tag k="maxspeed" v="50"/>
    <tag k="maxspeed:source" v="cz:city_limit"/>
    <tag k="name" v="Broumarsk치"/>
    <tag k="oneway" v="yes"/>
    <tag k="turn:lanes" v="left|through|right"/>
  </way>
  <way id="810876555" version="3" timestamp="2024-04-04T18:29:45Z" changeset="149582927" uid="12080464" user="Vojt캩ch Kade콏치bek">
    <nd ref="7581334858"/>
    <nd ref="8650781140"/>
    <tag k="cycleway:right" v="soft_lane"/>
    <tag k="highway" v="tertiary"/>
    <tag k="lanes" v="2"/>
    <tag k="lanes:psv" v="1"/>
    <tag k="maxspeed" v="50"/>
    <tag k="maxspeed:source" v="cz:city_limit"/>
    <tag k="name" v="Broumarsk치"/>
    <tag k="oneway" v="yes"/>
    <tag k="surface" v="asphalt"/>
  </way>
  <way id="810876556" version="3" timestamp="2024-11-02T19:04:51Z" changeset="158672922" uid="10743925" user="BartekChom">
    <nd ref="7581334857"/>
    <nd ref="6657645632"/>
    <nd ref="7581334881"/>
    <nd ref="6657645652"/>
    <tag k="access:lanes" v="yes|no"/>
    <tag k="bus:lanes" v="yes|designated"/>
    <tag k="busway:right" v="lane"/>
    <tag k="cycleway:right" v="share_busway"/>
    <tag k="highway" v="tertiary"/>
    <tag k="lanes" v="2"/>
    <tag k="lanes:psv" v="1"/>
    <tag k="lanes:psv:conditional" v="(Po-Pa 06:00-10:00)"/>
    <tag k="maxspeed" v="50"/>
    <tag k="maxspeed:source" v="cz:city_limit"/>
    <tag k="name" v="Broumarsk치"/>
    <tag k="oneway" v="yes"/>
    <tag k="psv:lanes" v="yes|designated"/>
  </way>
  <way id="810876561" version="1" timestamp="2020-06-02T21:40:02Z" changeset="86099351" uid="1833010" user="M a r k u s">
    <nd ref="7581334883"/>
    <nd ref="7581334882"/>
    <nd ref="7581334881"/>
    <nd ref="7581334880"/>
    <tag k="highway" v="tertiary"/>
    <tag k="lanes" v="1"/>
    <tag k="maxspeed" v="50"/>
    <tag k="maxspeed:source" v="cz:city_limit"/>
    <tag k="name" v="Broumarsk치"/>
    <tag k="oneway" v="yes"/>
  </way>
  <way id="877935076" version="3" timestamp="2024-04-16T18:06:33Z" changeset="150097494" uid="2061236" user="Thartek">
    <nd ref="1397730415"/>
    <nd ref="8168329525"/>
    <nd ref="8168329526"/>
    <nd ref="8168329527"/>
    <nd ref="8168329530"/>
    <nd ref="10251007488"/>
    <nd ref="10251007499"/>
    <nd ref="10251007491"/>
    <nd ref="8168329528"/>
    <tag k="highway" v="residential"/>
  </way>
  <way id="903866965" version="3" timestamp="2024-08-20T14:34:31Z" changeset="155512757" uid="8971394" user="vojtechzaboril">
    <nd ref="2673224283"/>
    <nd ref="3750776741"/>
    <nd ref="12122288638"/>
    <nd ref="112199190"/>
    <tag k="highway" v="secondary"/>
    <tag k="lanes" v="2"/>
    <tag k="lit" v="yes"/>
    <tag k="maxspeed" v="50"/>
    <tag k="name" v="Chlumeck치"/>
    <tag k="oneway" v="yes"/>
    <tag k="surface" v="asphalt"/>
  </way>
  <way id="906567502" version="2" timestamp="2024-08-20T14:34:31Z" changeset="155512757" uid="8971394" user="vojtechzaboril">
    <nd ref="2568671511"/>
    <nd ref="317495521"/>
    <tag k="highway" v="unclassified"/>
    <tag k="lanes" v="2"/>
    <tag k="oneway" v="yes"/>
    <tag k="turn:lanes" v="through|through;right"/>
  </way>
  <way id="907502700" version="1" timestamp="2021-02-15T19:27:09Z" changeset="99329561" uid="11276832" user="HaPe-CZ">
    <nd ref="6709985165"/>
    <nd ref="6219644675"/>
    <nd ref="30233346"/>
    <tag k="highway" v="residential"/>
    <tag k="lanes" v="1"/>
    <tag k="name" v="Bryksova"/>
  </way>
  <way id="907502701" version="2" timestamp="2022-01-23T14:50:44Z" changeset="116502335" uid="11174973" user="smidra">
    <nd ref="7773991132"/>
    <nd ref="8426668416"/>
    <nd ref="8426668419"/>
    <nd ref="8426668418"/>
    <nd ref="8426668420"/>
    <nd ref="8426668417"/>
    <nd ref="6709985165"/>
    <tag k="highway" v="residential"/>
    <tag k="lanes" v="1"/>
    <tag k="name" v="Bryksova"/>
    <tag k="oneway" v="yes"/>
    <tag k="sidewalk" v="right"/>
  </way>
  <way id="907502702" version="2" timestamp="2021-03-17T15:54:32Z" changeset="101200728" uid="718054" user="Piskvor">
    <nd ref="6709985165"/>
    <nd ref="8426668425"/>
    <nd ref="8426668426"/>
    <nd ref="8426668427"/>
    <nd ref="8426668428"/>
    <nd ref="8426668429"/>
    <nd ref="8426668422"/>
    <tag k="highway" v="residential"/>
    <tag k="lanes" v="1"/>
    <tag k="oneway" v="yes"/>
  </way>
  <way id="907502703" version="2" timestamp="2025-05-08T15:19:25Z" changeset="165989309" uid="598980" user="Daniel Bar치nek">
    <nd ref="6928233"/>
    <nd ref="1134896802"/>
    <tag k="highway" v="residential"/>
    <tag k="lanes" v="2"/>
    <tag k="name" v="Chlumeck치"/>
    <tag k="overtaking" v="no"/>
    <tag k="source:name" v="nameit/uir-adr"/>
    <tag k="surface" v="asphalt"/>
  </way>
  <way id="907502704" version="2" timestamp="2021-03-17T15:54:32Z" changeset="101200728" uid="718054" user="Piskvor">
    <nd ref="3917186225"/>
    <nd ref="8426668432"/>
    <nd ref="8426668433"/>
    <nd ref="8426668434"/>
    <nd ref="8426668435"/>
    <nd ref="8426668436"/>
    <nd ref="6928233"/>
    <tag k="highway" v="residential"/>
    <tag k="lanes" v="1"/>
    <tag k="oneway" v="yes"/>
  </way>
  <way id="917491019" version="4" timestamp="2022-05-08T10:50:01Z" changeset="120697447" uid="718054" user="Piskvor">
    <nd ref="8521488000"/>
    <nd ref="8521487999"/>
    <nd ref="8521487998"/>
    <nd ref="8521487997"/>
    <nd ref="8521488000"/>
    <tag k="building" v="shed"/>
    <tag k="name" v="Bo쬽k칳 trdeln칤k/zmrzlina"/>
    <tag k="shop" v="kiosk"/>
  </way>
  <way id="918336667" version="4" timestamp="2024-08-20T14:34:31Z" changeset="155512757" uid="8971394" user="vojtechzaboril">
    <nd ref="7077983606"/>
    <nd ref="8418314301"/>
    <nd ref="8418314300"/>
    <nd ref="7077983634"/>
    <tag k="highway" v="tertiary"/>
    <tag k="lanes" v="1"/>
    <tag k="maxspeed" v="50"/>
    <tag k="name" v="Chlumeck치"/>
    <tag k="oneway" v="yes"/>
    <tag k="surface" v="asphalt"/>
    <tag k="turn:lanes" v="through;right"/>
  </way>
  <way id="918400187" version="2" timestamp="2024-08-28T19:58:28Z" changeset="155898721" uid="8189075" user="Badojo">
    <nd ref="112199190"/>
    <nd ref="8418314278"/>
    <nd ref="1141156150"/>
    <nd ref="8418314282"/>
    <nd ref="8418314283"/>
    <nd ref="8418314284"/>
    <nd ref="112189208"/>
    <tag k="highway" v="primary_link"/>
    <tag k="lanes" v="2"/>
    <tag k="lit" v="yes"/>
    <tag k="maxspeed" v="80"/>
    <tag k="oneway" v="yes"/>
    <tag k="surface" v="asphalt"/>
    <tag k="turn:lanes" v="left|left"/>
  </way>
  <way id="927098707" version="1" timestamp="2021-04-07T09:34:52Z" changeset="102468679" uid="6588887" user="Martin2035">
    <nd ref="30294851"/>
    <nd ref="30294852"/>
    <nd ref="354735567"/>
    <tag k="cycleway:right" v="soft_lane"/>
    <tag k="highway" v="tertiary"/>
    <tag k="lanes" v="2"/>
    <tag k="maxheight" v="default"/>
    <tag k="name" v="Ocelkova"/>
    <tag k="oneway" v="yes"/>
    <tag k="surface" v="asphalt"/>
  </way>
  <way id="927098708" version="1" timestamp="2021-04-07T09:34:52Z" changeset="102468679" uid="6588887" user="Martin2035">
    <nd ref="354735567"/>
    <nd ref="1571592481"/>
    <tag k="cycleway:right" v="soft_lane"/>
    <tag k="highway" v="tertiary"/>
    <tag k="lanes" v="1"/>
    <tag k="maxheight" v="default"/>
    <tag k="name" v="Ocelkova"/>
    <tag k="oneway" v="yes"/>
    <tag k="surface" v="asphalt"/>
  </way>
  <way id="933260618" version="2" timestamp="2024-04-04T18:17:05Z" changeset="149582426" uid="12080464" user="Vojt캩ch Kade콏치bek">
    <nd ref="1410764429"/>
    <nd ref="8650781124"/>
    <tag k="cycleway:right" v="soft_lane"/>
    <tag k="highway" v="tertiary"/>
    <tag k="lanes" v="1"/>
    <tag k="name" v="Broumarsk치"/>
    <tag k="oneway" v="yes"/>
    <tag k="surface" v="asphalt"/>
  </way>
  <way id="933260621" version="2" timestamp="2024-11-02T19:04:51Z" changeset="158672922" uid="10743925" user="BartekChom">
    <nd ref="8650781140"/>
    <nd ref="7581334857"/>
    <tag k="access:lanes" v="yes|no"/>
    <tag k="bus:lanes" v="yes|designated"/>
    <tag k="busway:right" v="lane"/>
    <tag k="cycleway:right" v="share_busway"/>
    <tag k="highway" v="tertiary"/>
    <tag k="lanes" v="3"/>
    <tag k="maxspeed" v="50"/>
    <tag k="maxspeed:source" v="cz:city_limit"/>
    <tag k="name" v="Broumarsk치"/>
    <tag k="oneway" v="yes"/>
    <tag k="psv:lanes" v="yes|designated"/>
    <tag k="surface" v="asphalt"/>
  </way>
  <way id="998566214" version="2" timestamp="2024-03-26T20:30:35Z" changeset="149194564" uid="9291527" user="marekhrabe">
    <nd ref="9219786218"/>
    <nd ref="1134882301"/>
    <tag k="bicycle" v="no"/>
    <tag k="cycleway:right" v="no"/>
    <tag k="foot" v="no"/>
    <tag k="highway" v="secondary"/>
    <tag k="lanes" v="2"/>
    <tag k="lit" v="yes"/>
    <tag k="maxspeed" v="50"/>
    <tag k="name" v="Chlumeck치"/>
    <tag k="oneway" v="yes"/>
    <tag k="placement" v="middle_of:1"/>
    <tag k="surface" v="asphalt"/>
    <tag k="turn:lanes" v="through|right"/>
  </way>
  <way id="998566215" version="4" timestamp="2024-10-19T20:53:49Z" changeset="158107133" uid="4018695" user="游뻟릖 Roman Horn칤k">
    <nd ref="31775237"/>
    <nd ref="9219786219"/>
    <tag k="bicycle" v="no"/>
    <tag k="cycleway:right" v="no"/>
    <tag k="foot" v="no"/>
    <tag k="highway" v="secondary"/>
    <tag k="lanes" v="2"/>
    <tag k="lit" v="yes"/>
    <tag k="maxspeed" v="90"/>
    <tag k="name" v="Chlumeck치"/>
    <tag k="oneway" v="yes"/>
    <tag k="sidewalk" v="no"/>
    <tag k="source:maxspeed" v="CZ:rural"/>
    <tag k="surface" v="asphalt"/>
  </way>
  <way id="1025808013" version="1" timestamp="2022-01-29T12:38:12Z" changeset="116742310" uid="8971394" user="vojtechzaboril">
    <nd ref="7122950854"/>
    <nd ref="1410761588"/>
    <tag k="cycleway:right" v="soft_lane"/>
    <tag k="foot" v="no"/>
    <tag k="highway" v="tertiary"/>
    <tag k="lanes" v="1"/>
    <tag k="lit" v="yes"/>
    <tag k="maxheight" v="default"/>
    <tag k="maxspeed" v="50"/>
    <tag k="name" v="Ocelkova"/>
    <tag k="oneway" v="yes"/>
    <tag k="shoulder" v="no"/>
    <tag k="sidewalk" v="no"/>
    <tag k="surface" v="asphalt"/>
  </way>
  <way id="1025808014" version="2" timestamp="2023-10-11T16:20:55Z" changeset="142443972" uid="25561" user="Gobik">
    <nd ref="7122950854"/>
    <nd ref="9457856875"/>
    <nd ref="9457856876"/>
    <nd ref="9457856874"/>
    <nd ref="7122950855"/>
    <nd ref="9457856873"/>
    <nd ref="7122950856"/>
    <nd ref="9457856872"/>
    <nd ref="9457856871"/>
    <nd ref="1410761583"/>
    <tag k="cycleway:right" v="shared_lane"/>
    <tag k="highway" v="residential"/>
    <tag k="lane_markings" v="no"/>
    <tag k="maxspeed" v="50"/>
    <tag k="oneway" v="yes"/>
    <tag k="sidewalk" v="no"/>
    <tag k="surface" v="asphalt"/>
  </way>
  <way id="1026198080" version="3" timestamp="2022-05-08T10:50:01Z" changeset="120697447" uid="718054" user="Piskvor">
    <nd ref="9461391775"/>
    <nd ref="9461391772"/>
    <nd ref="9461391773"/>
    <nd ref="9461391774"/>
    <nd ref="9461391775"/>
    <tag k="building" v="shed"/>
    <tag k="name" v="J칤delna U Dvou Bratr콢"/>
    <tag k="name:en" v="Canteen at the two Brothers"/>
    <tag k="opening_hours" v="Mo-Su 12:00-20:00"/>
    <tag k="shop" v="kiosk"/>
  </way>
  <way id="1094596517" version="2" timestamp="2024-04-04T18:17:05Z" changeset="149582426" uid="12080464" user="Vojt캩ch Kade콏치bek">
    <nd ref="483391"/>
    <nd ref="1397730457"/>
    <tag k="cycleway:right" v="shared_lane"/>
    <tag k="highway" v="tertiary"/>
    <tag k="lanes" v="2"/>
    <tag k="maxspeed" v="50"/>
    <tag k="name" v="Ocelkova"/>
    <tag k="oneway" v="yes"/>
    <tag k="surface" v="asphalt"/>
    <tag k="turn:lanes" v="left;through|through"/>
  </way>
  <way id="1097802213" version="5" timestamp="2024-10-19T20:53:49Z" changeset="158107133" uid="4018695" user="游뻟릖 Roman Horn칤k">
    <nd ref="8425988583"/>
    <nd ref="31775240"/>
    <nd ref="8425988582"/>
    <nd ref="8425988581"/>
    <nd ref="7549635495"/>
    <nd ref="31775241"/>
    <nd ref="8425988580"/>
    <nd ref="3373731563"/>
    <tag k="bicycle" v="no"/>
    <tag k="cycleway:right" v="no"/>
    <tag k="foot" v="no"/>
    <tag k="highway" v="secondary"/>
    <tag k="lanes" v="2"/>
    <tag k="lit" v="yes"/>
    <tag k="maxspeed" v="30"/>
    <tag k="name" v="Chlumeck치"/>
    <tag k="oneway" v="yes"/>
    <tag k="sidewalk" v="no"/>
    <tag k="source:maxspeed" v="sign"/>
    <tag k="surface" v="asphalt"/>
    <tag k="turn:lanes" v="through|through"/>
  </way>
  <way id="1097802537" version="4" timestamp="2024-10-19T20:53:49Z" changeset="158107133" uid="4018695" user="游뻟릖 Roman Horn칤k">
    <nd ref="3373731564"/>
    <nd ref="8425988593"/>
    <nd ref="31775617"/>
    <nd ref="8425988592"/>
    <nd ref="7549635493"/>
    <nd ref="8425988591"/>
    <nd ref="3373731562"/>
    <nd ref="8425988590"/>
    <nd ref="31775618"/>
    <tag k="bicycle" v="no"/>
    <tag k="cycleway:right" v="no"/>
    <tag k="foot" v="no"/>
    <tag k="highway" v="secondary"/>
    <tag k="lanes" v="2"/>
    <tag k="lit" v="yes"/>
    <tag k="maxspeed" v="30"/>
    <tag k="name" v="Chlumeck치"/>
    <tag k="oneway" v="yes"/>
    <tag k="sidewalk" v="no"/>
    <tag k="source:maxspeed" v="sign"/>
    <tag k="surface" v="asphalt"/>
  </way>
  <way id="1103007050" version="2" timestamp="2023-03-04T10:41:11Z" changeset="133284218" uid="6588887" user="Martin2035">
    <nd ref="611320454"/>
    <nd ref="1397730417"/>
    <nd ref="611320451"/>
    <nd ref="6926060"/>
    <tag k="cycleway:left" v="soft_lane"/>
    <tag k="highway" v="residential"/>
    <tag k="lanes" v="2"/>
    <tag k="name" v="Bryksova"/>
    <tag k="surface" v="asphalt"/>
  </way>
  <way id="1120791904" version="1" timestamp="2022-12-10T16:49:44Z" changeset="129939638" uid="17156674" user="mic8per">
    <nd ref="170236721"/>
    <nd ref="9440396055"/>
    <nd ref="181676914"/>
    <tag k="highway" v="residential"/>
    <tag k="name" v="Bryksova"/>
    <tag k="oneway" v="no"/>
    <tag k="source:name" v="nameit/uir-adr"/>
  </way>
  <way id="1184662763" version="1" timestamp="2023-06-24T16:24:50Z" changeset="137727598" uid="3781248" user="matheusgomesms">
    <nd ref="1571592481"/>
    <nd ref="11003299660"/>
    <tag k="cycleway:right" v="shared_lane"/>
    <tag k="highway" v="tertiary"/>
    <tag k="lanes" v="1"/>
    <tag k="maxheight" v="default"/>
    <tag k="maxspeed" v="50"/>
    <tag k="name" v="Ocelkova"/>
    <tag k="oneway" v="yes"/>
    <tag k="surface" v="asphalt"/>
  </way>
  <way id="1217423389" version="2" timestamp="2025-05-08T19:21:52Z" changeset="165999865" uid="3199858" user="Mateusz Konieczny - bot account">
    <nd ref="8521488001"/>
    <nd ref="8425816510"/>
    <nd ref="8425816507"/>
    <nd ref="3522531945"/>
    <tag k="cycleway:right" v="no"/>
    <tag k="foot" v="no"/>
    <tag k="highway" v="secondary"/>
    <tag k="lanes" v="2"/>
    <tag k="lit" v="yes"/>
    <tag k="maxspeed" v="50"/>
    <tag k="name" v="Chlumeck치"/>
    <tag k="oneway" v="yes"/>
    <tag k="sidewalk" v="no"/>
    <tag k="surface" v="asphalt"/>
  </way>
  <way id="1217423390" version="2" timestamp="2025-05-08T19:21:53Z" changeset="165999865" uid="3199858" user="Mateusz Konieczny - bot account">
    <nd ref="8425816514"/>
    <nd ref="112189793"/>
    <nd ref="8425816513"/>
    <nd ref="8425816511"/>
    <nd ref="1134896725"/>
    <nd ref="8521488001"/>
    <tag k="cycleway:right" v="no"/>
    <tag k="foot" v="no"/>
    <tag k="highway" v="secondary"/>
    <tag k="lanes" v="2"/>
    <tag k="lit" v="yes"/>
    <tag k="maxspeed" v="50"/>
    <tag k="name" v="Chlumeck치"/>
    <tag k="oneway" v="yes"/>
    <tag k="sidewalk" v="no"/>
    <tag k="surface" v="asphalt"/>
    <tag k="turn:lanes" v="left|through"/>
  </way>
  <way id="1232215876" version="2" timestamp="2024-08-20T14:34:31Z" changeset="155512757" uid="8971394" user="vojtechzaboril">
    <nd ref="7077983634"/>
    <nd ref="8418314302"/>
    <tag k="highway" v="tertiary"/>
    <tag k="lanes" v="1"/>
    <tag k="maxspeed" v="50"/>
    <tag k="name" v="Chlumeck치"/>
    <tag k="oneway" v="yes"/>
    <tag k="surface" v="asphalt"/>
    <tag k="turn:lanes" v="through"/>
  </way>
  <way id="1232215877" version="1" timestamp="2023-12-18T17:00:03Z" changeset="145259404" uid="873469" user="R3gi">
    <nd ref="7077983643"/>
    <nd ref="8418332581"/>
    <nd ref="7077983644"/>
    <nd ref="2673224283"/>
    <tag k="highway" v="tertiary_link"/>
    <tag k="lanes" v="1"/>
    <tag k="maxspeed" v="50"/>
    <tag k="name" v="Chlumeck치"/>
    <tag k="oneway" v="yes"/>
    <tag k="surface" v="asphalt"/>
  </way>
  <way id="1232216157" version="2" timestamp="2024-08-20T14:34:31Z" changeset="155512757" uid="8971394" user="vojtechzaboril">
    <nd ref="8418332690"/>
    <nd ref="8418332689"/>
    <nd ref="2569928864"/>
    <nd ref="8418332688"/>
    <nd ref="2569928866"/>
    <nd ref="3411057019"/>
    <nd ref="2569928867"/>
    <nd ref="3411057021"/>
    <tag k="highway" v="secondary"/>
    <tag k="lanes" v="2"/>
    <tag k="lit" v="yes"/>
    <tag k="maxspeed" v="50"/>
    <tag k="name" v="Chlumeck치"/>
    <tag k="oneway" v="yes"/>
    <tag k="surface" v="asphalt"/>
    <tag k="turn:lanes" v="left|through"/>
  </way>
  <way id="1233420072" version="3" timestamp="2024-04-25T18:55:22Z" changeset="150510265" uid="231749" user="Eino81">
    <nd ref="11445078769"/>
    <nd ref="11582189183"/>
    <nd ref="11848052357"/>
    <nd ref="11445078773"/>
    <nd ref="11445078770"/>
    <nd ref="11445078771"/>
    <nd ref="11445078772"/>
    <nd ref="11445078773"/>
    <tag k="access" v="private"/>
    <tag k="highway" v="residential"/>
  </way>
  <way id="1269120780" version="1" timestamp="2024-04-04T18:17:05Z" changeset="149582426" uid="12080464" user="Vojt캩ch Kade콏치bek">
    <nd ref="8429555288"/>
    <nd ref="1410761617"/>
    <nd ref="1410761616"/>
    <tag k="cycleway:right" v="shared_lane"/>
    <tag k="highway" v="tertiary"/>
    <tag k="lanes" v="1"/>
    <tag k="name" v="Ocelkova"/>
    <tag k="oneway" v="yes"/>
    <tag k="surface" v="asphalt"/>
  </way>
  <way id="1290106860" version="2" timestamp="2024-10-19T20:53:49Z" changeset="158107133" uid="4018695" user="游뻟릖 Roman Horn칤k">
    <nd ref="11961586937"/>
    <nd ref="3521098276"/>
    <tag k="bicycle" v="no"/>
    <tag k="cycleway:right" v="no"/>
    <tag k="foot" v="no"/>
    <tag k="highway" v="secondary"/>
    <tag k="lanes" v="2"/>
    <tag k="lit" v="yes"/>
    <tag k="maxspeed" v="50"/>
    <tag k="name" v="Chlumeck치"/>
    <tag k="oneway" v="yes"/>
    <tag k="sidewalk" v="no"/>
    <tag k="source:maxspeed" v="sign"/>
    <tag k="surface" v="asphalt"/>
    <tag k="turn:lanes" v="left|through"/>
  </way>
  <way id="1312430661" version="2" timestamp="2024-10-22T15:55:32Z" changeset="158218456" uid="100163" user="Hlav">
    <nd ref="25269089"/>
    <nd ref="8410083764"/>
    <nd ref="473497520"/>
    <nd ref="8410083765"/>
    <nd ref="25269090"/>
    <nd ref="8410083768"/>
    <tag k="cycleway:right" v="no"/>
    <tag k="foot" v="no"/>
    <tag k="highway" v="primary_link"/>
    <tag k="lanes" v="2"/>
    <tag k="lit" v="yes"/>
    <tag k="maxheight" v="default"/>
    <tag k="maxspeed" v="50"/>
    <tag k="oneway" v="yes"/>
    <tag k="overtaking" v="no"/>
    <tag k="placement" v="middle_of:1"/>
    <tag k="ref" v="10"/>
    <tag k="sidewalk" v="no"/>
    <tag k="smoothness" v="excellent"/>
    <tag k="surface" v="asphalt"/>
    <tag k="turn:lanes" v="|merge_to_left"/>
  </way>
  <way id="1315139092" version="1" timestamp="2024-09-12T17:54:23Z" changeset="156540310" uid="18720857" user="Michal_Bukovcan">
    <nd ref="1397732082"/>
    <nd ref="12173303109"/>
    <nd ref="12173303110"/>
    <tag k="highway" v="residential"/>
  </way>
  <relation id="1123460" version="4" timestamp="2024-04-23T16:45:17Z" changeset="150405612" uid="10932047" user="AF HAF KARTOGRAF">
    <member type="way" ref="72144694" role="outer"/>
    <member type="way" ref="72144693" role="inner"/>
    <tag k="addr:city" v="Praha 9"/>
    <tag k="addr:housenumber" v="1006"/>
    <tag k="addr:postcode" v="19800"/>
    <tag k="addr:street" v="Gener치la Janou코ka"/>
    <tag k="building" v="school"/>
    <tag k="name" v="Z치kladn칤 코kola, Praha 9 - 캛ern칳 Most, Gen. Janou코ka 1006"/>
    <tag k="operator" v="M캩stsk치 캜치st Praha 14"/>
    <tag k="type" v="multipolygon"/>
    <tag k="wikidata" v="Q57494648"/>
  </relation>
  <relation id="5146250" version="10" timestamp="2024-03-28T12:16:57Z" changeset="149265827" uid="718054" user="Piskvor">
    <member type="way" ref="345540924" role="outer"/>
    <member type="way" ref="907398168" role="outer"/>
    <member type="way" ref="16488525" role="outer"/>
    <member type="way" ref="907398164" role="outer"/>
    <member type="way" ref="907398163" role="outer"/>
    <member type="way" ref="907398161" role="outer"/>
    <member type="way" ref="345540921" role="outer"/>
    <member type="way" ref="345540935" role="inner"/>
    <tag k="addr:city" v="Praha"/>
    <tag k="addr:conscriptionnumber" v="664"/>
    <tag k="addr:housename" v="IKEA"/>
    <tag k="addr:housenumber" v="664/10"/>
    <tag k="addr:place" v="캛ern칳 Most"/>
    <tag k="addr:postcode" v="19800"/>
    <tag k="addr:street" v="Chlumeck치"/>
    <tag k="addr:streetnumber" v="10"/>
    <tag k="brand" v="IKEA"/>
    <tag k="brand:wikidata" v="Q54078"/>
    <tag k="brand:wikipedia" v="en:IKEA"/>
    <tag k="building" v="commercial"/>
    <tag k="building:levels" v="1"/>
    <tag k="building:ruian:type" v="10"/>
    <tag k="building:use" v="shop"/>
    <tag k="check_date" v="2023-06-06"/>
    <tag k="email" v="ikea.info@ikea.com"/>
    <tag k="layer" v="1"/>
    <tag k="name" v="IKEA"/>
    <tag k="opening_hours" v="Mo-Su 09:00-21:00 open || Mo-Su 08:30-21:00 open &quot;restaurant&quot;"/>
    <tag k="operator" v="IKEA"/>
    <tag k="payment:cards" v="yes"/>
    <tag k="payment:contactless" v="yes"/>
    <tag k="payment:credit_cards" v="yes"/>
    <tag k="payment:debit_cards" v="yes"/>
    <tag k="payment:mastercard" v="yes"/>
    <tag k="payment:visa" v="yes"/>
    <tag k="phone" v="+420 251 610 110"/>
    <tag k="ref:ruian:building" v="25613804"/>
    <tag k="roof:shape" v="flat"/>
    <tag k="shop" v="furniture"/>
    <tag k="source" v="cuzk:ruian"/>
    <tag k="start_date" v="2005-02-01"/>
    <tag k="type" v="multipolygon"/>
    <tag k="website" v="https://www.ikea.com/cz/cs/"/>
    <tag k="wheelchair" v="yes"/>
  </relation>

</osm>
