<?xml version="1.0" encoding="UTF-8"?>
<osm version="0.6" generator="Overpass API 0.7.62.5 1bd436f1">
<note>The data included in this document is from www.openstreetmap.org. The data is made available under ODbL.</note>
<meta osm_base="2025-05-18T03:37:02Z" areas="2024-12-31T00:49:33Z"/>

  <node id="1552924" lat="53.8100896" lon="-1.3416732" version="2" timestamp="2014-10-31T02:18:02Z" changeset="26452902" uid="493595" user="Yorvik Prestigitator"/>
  <node id="25431965" lat="53.8223556" lon="-1.3219126" version="3" timestamp="2015-10-27T16:55:25Z" changeset="34907641" uid="2020484" user="Nigel Greens"/>
  <node id="25431992" lat="53.8129171" lon="-1.3464836" version="1" timestamp="2007-01-28T13:08:54Z" changeset="203754" uid="592" user="JonS">
    <tag k="created_by" v="JOSM"/>
  </node>
  <node id="472353464" lat="53.8279758" lon="-1.3236524" version="3" timestamp="2023-06-22T16:18:08Z" changeset="137654380" uid="705850" user="Cebderby"/>
  <node id="1329952839" lat="53.8120706" lon="-1.3395289" version="2" timestamp="2014-10-31T02:18:03Z" changeset="26452902" uid="493595" user="Yorvik Prestigitator"/>
  <node id="1330805223" lat="53.8302530" lon="-1.3428906" version="2" timestamp="2012-10-13T13:58:02Z" changeset="13479310" uid="106831" user="sc71"/>
  <node id="1574636445" lat="53.8444108" lon="-1.3425022" version="2" timestamp="2013-04-09T11:00:48Z" changeset="15664733" uid="893729" user="hook2k"/>
  <node id="1574689328" lat="53.8110627" lon="-1.3403566" version="2" timestamp="2017-05-17T21:25:19Z" changeset="48773568" uid="2773866" user="kreuzschnabel"/>
  <node id="1578588640" lat="53.8297712" lon="-1.3382727" version="2" timestamp="2014-10-31T02:18:04Z" changeset="26452902" uid="493595" user="Yorvik Prestigitator"/>
  <node id="1611971793" lat="53.8261859" lon="-1.3431108" version="3" timestamp="2023-01-15T09:37:27Z" changeset="131290857" uid="3316592" user="Arthtoach"/>
  <node id="1611971813" lat="53.8138707" lon="-1.3434015" version="3" timestamp="2017-08-17T16:48:47Z" changeset="51210719" uid="6202436" user="Gabriel Reynolds">
    <tag k="junction" v="yes"/>
    <tag k="name" v="Hook Moor"/>
  </node>
  <node id="1611971832" lat="53.8275782" lon="-1.3431239" version="3" timestamp="2023-01-15T09:37:27Z" changeset="131290857" uid="3316592" user="Arthtoach"/>
  <node id="1617944925" lat="53.8226556" lon="-1.3198725" version="1" timestamp="2012-02-04T17:15:40Z" changeset="10586486" uid="308" user="MichaelCollinson"/>
  <node id="1962591835" lat="53.8347038" lon="-1.3378359" version="1" timestamp="2012-10-13T13:57:31Z" changeset="13479310" uid="106831" user="sc71"/>
  <node id="1967487378" lat="53.8267060" lon="-1.3432476" version="2" timestamp="2023-01-15T09:37:27Z" changeset="131290857" uid="3316592" user="Arthtoach"/>
  <node id="3158784502" lat="53.8126518" lon="-1.3390616" version="1" timestamp="2014-10-31T02:18:01Z" changeset="26452902" uid="493595" user="Yorvik Prestigitator"/>
  <way id="6272397" version="18" timestamp="2024-01-22T18:56:44Z" changeset="146565751" uid="16951803" user="Vas111">
    <nd ref="319599"/>
    <nd ref="1329952869"/>
    <nd ref="1329952839"/>
    <tag k="carriageway_ref" v="B"/>
    <tag k="destination:lanes" v="London Leeds (M1) Manchester (M62)|London Leeds (M1) Manchester (M62)|London Leeds (M1) Manchester (M62)"/>
    <tag k="highway" v="motorway"/>
    <tag k="lanes" v="3"/>
    <tag k="lit" v="yes"/>
    <tag k="maxspeed" v="70 mph"/>
    <tag k="maxspeed:type" v="GB:motorway"/>
    <tag k="national_highways:area" v="DBFO33"/>
    <tag k="oneway" v="yes"/>
    <tag k="operator" v="National Highways"/>
    <tag k="operator:wikidata" v="Q5760006"/>
    <tag k="ref" v="M1"/>
    <tag k="surface" v="asphalt"/>
    <tag k="turn:lanes" v="slight_right|slight_right|slight_right"/>
  </way>
  <way id="6313059" version="14" timestamp="2024-01-22T18:56:44Z" changeset="146565751" uid="16951803" user="Vas111">
    <nd ref="1590900169"/>
    <nd ref="1590900283"/>
    <tag k="bridge" v="yes"/>
    <tag k="carriageway_ref" v="A"/>
    <tag k="highway" v="motorway"/>
    <tag k="lanes" v="3"/>
    <tag k="layer" v="1"/>
    <tag k="lit" v="yes"/>
    <tag k="maxspeed" v="70 mph"/>
    <tag k="maxspeed:type" v="GB:motorway"/>
    <tag k="national_highways:area" v="DBFO33"/>
    <tag k="oneway" v="yes"/>
    <tag k="operator" v="National Highways"/>
    <tag k="operator:wikidata" v="Q5760006"/>
    <tag k="ref" v="M1"/>
    <tag k="surface" v="asphalt"/>
  </way>
  <way id="6962316" version="11" timestamp="2023-04-01T09:45:54Z" changeset="134373784" uid="81653" user="pmyteh">
    <nd ref="1617944925"/>
    <nd ref="6785926718"/>
    <nd ref="1617944690"/>
    <nd ref="1617944873"/>
    <nd ref="1617944578"/>
    <nd ref="8073234333"/>
    <nd ref="1617944792"/>
    <nd ref="1617944564"/>
    <nd ref="8073234334"/>
    <nd ref="8073234335"/>
    <nd ref="8073234336"/>
    <nd ref="8073234338"/>
    <nd ref="1617944536"/>
    <nd ref="8073234337"/>
    <nd ref="8073234339"/>
    <nd ref="8073234340"/>
    <nd ref="1617944899"/>
    <nd ref="8073234331"/>
    <nd ref="8434653091"/>
    <nd ref="1617944595"/>
    <nd ref="8073234332"/>
    <nd ref="1617944808"/>
    <nd ref="1617944504"/>
    <nd ref="1617944648"/>
    <nd ref="1617944510"/>
    <nd ref="1617944507"/>
    <nd ref="1617944861"/>
    <nd ref="1617944569"/>
    <nd ref="1617944506"/>
    <nd ref="1617944929"/>
    <nd ref="1617944721"/>
    <nd ref="1617944738"/>
    <nd ref="1617944816"/>
    <nd ref="1617944784"/>
    <nd ref="1617944636"/>
    <nd ref="1617944832"/>
    <nd ref="1617944892"/>
    <nd ref="1617944727"/>
    <nd ref="1617944811"/>
    <nd ref="1617944927"/>
    <nd ref="1617944643"/>
    <tag k="highway" v="unclassified"/>
    <tag k="name" v="Copley Lane"/>
    <tag k="sidewalk" v="no"/>
    <tag k="source" v="GPS"/>
  </way>
  <way id="22780813" version="17" timestamp="2023-03-18T19:26:52Z" changeset="133835624" uid="3316592" user="Arthtoach">
    <nd ref="1552924"/>
    <nd ref="1552928"/>
    <nd ref="4860706368"/>
    <nd ref="1552931"/>
    <nd ref="1553028"/>
    <nd ref="1578587498"/>
    <nd ref="1578587474"/>
    <tag k="carriageway_ref" v="A"/>
    <tag k="highway" v="motorway"/>
    <tag k="int_ref" v="E 15"/>
    <tag k="lanes" v="3"/>
    <tag k="lit" v="yes"/>
    <tag k="maxspeed" v="70 mph"/>
    <tag k="maxspeed:type" v="GB:motorway"/>
    <tag k="national_highways:area" v="DBFO33"/>
    <tag k="oneway" v="yes"/>
    <tag k="operator" v="National Highways"/>
    <tag k="operator:wikidata" v="Q5760006"/>
    <tag k="ref" v="A1(M)"/>
    <tag k="shoulder" v="left"/>
    <tag k="surface" v="asphalt"/>
  </way>
  <way id="31450090" version="6" timestamp="2023-01-15T09:37:27Z" changeset="131290857" uid="3316592" user="Arthtoach">
    <nd ref="1611971793"/>
    <nd ref="1617944773"/>
    <nd ref="10556403322"/>
    <nd ref="1617944778"/>
    <nd ref="10556403321"/>
    <nd ref="1967487375"/>
    <nd ref="1617944871"/>
    <nd ref="10556403320"/>
    <nd ref="1967487373"/>
    <nd ref="1617944744"/>
    <nd ref="10556403319"/>
    <nd ref="1617944812"/>
    <nd ref="10556403318"/>
    <nd ref="10556403317"/>
    <nd ref="1617944626"/>
    <nd ref="10556403316"/>
    <nd ref="1617944698"/>
    <nd ref="10556403315"/>
    <nd ref="1617944491"/>
    <nd ref="1617944842"/>
    <nd ref="52963160"/>
    <nd ref="1617944530"/>
    <nd ref="2092748556"/>
    <tag k="highway" v="unclassified"/>
    <tag k="lanes" v="2"/>
    <tag k="lit" v="yes"/>
    <tag k="name" v="Lotherton Lane"/>
    <tag k="source" v="survey"/>
    <tag k="source_ref" v="GPS"/>
    <tag k="surface" v="asphalt"/>
  </way>
  <way id="32451692" version="9" timestamp="2025-02-28T22:17:25Z" changeset="163071286" uid="12858708" user="imfelixyeung">
    <nd ref="25431992"/>
    <nd ref="2092745660"/>
    <nd ref="25431991"/>
    <nd ref="472322135"/>
    <nd ref="10759254857"/>
    <tag k="highway" v="secondary"/>
    <tag k="lanes" v="2"/>
    <tag k="lit" v="yes"/>
    <tag k="maxspeed" v="40 mph"/>
    <tag k="maxspeed:type" v="GB:nsl_single"/>
    <tag k="name" v="Aberford Road"/>
    <tag k="ref" v="B1217"/>
    <tag k="source" v="survey"/>
    <tag k="source:name" v="OS_OpenData_Locator"/>
    <tag k="source_ref" v="GPS"/>
    <tag k="surface" v="asphalt"/>
  </way>
  <way id="32451695" version="14" timestamp="2023-04-01T11:45:10Z" changeset="134377787" uid="81653" user="pmyteh">
    <nd ref="25431982"/>
    <nd ref="25431981"/>
    <nd ref="25431980"/>
    <nd ref="25431979"/>
    <nd ref="25431978"/>
    <nd ref="25431977"/>
    <nd ref="25497812"/>
    <nd ref="3805452495"/>
    <nd ref="25431976"/>
    <nd ref="25431975"/>
    <nd ref="25431974"/>
    <nd ref="25431973"/>
    <nd ref="25431972"/>
    <nd ref="3805452494"/>
    <nd ref="25431971"/>
    <nd ref="3805452493"/>
    <nd ref="25431970"/>
    <nd ref="3805452492"/>
    <nd ref="4344605198"/>
    <nd ref="25431969"/>
    <nd ref="25431968"/>
    <nd ref="25431967"/>
    <nd ref="25431966"/>
    <nd ref="52952490"/>
    <nd ref="7133968672"/>
    <nd ref="25431965"/>
    <tag k="highway" v="secondary"/>
    <tag k="lanes" v="2"/>
    <tag k="name" v="Collier Lane"/>
    <tag k="ref" v="B1217"/>
    <tag k="sidewalk" v="no"/>
    <tag k="source" v="survey"/>
    <tag k="source:name" v="OS_OpenData_Locator"/>
    <tag k="source_ref" v="GPS"/>
    <tag k="surface" v="asphalt"/>
  </way>
  <way id="39432839" version="7" timestamp="2023-06-22T16:18:08Z" changeset="137654380" uid="705850" user="Cebderby">
    <nd ref="472353464"/>
    <nd ref="472353467"/>
    <nd ref="472353468"/>
    <nd ref="10759205764"/>
    <nd ref="472353470"/>
    <nd ref="472353472"/>
    <nd ref="10759205765"/>
    <nd ref="472353473"/>
    <nd ref="2098975903"/>
    <nd ref="472353475"/>
    <nd ref="472353478"/>
    <nd ref="10759205766"/>
    <nd ref="2098976039"/>
    <nd ref="10759205767"/>
    <tag k="highway" v="unclassified"/>
    <tag k="name" v="Stocking Lane"/>
    <tag k="surface" v="asphalt"/>
  </way>
  <way id="118317911" version="9" timestamp="2024-06-17T14:09:00Z" changeset="152805446" uid="145231" user="woodpeck_repair">
    <nd ref="1330805223"/>
    <nd ref="1330805191"/>
    <tag k="bridge" v="yes"/>
    <tag k="highway" v="tertiary"/>
    <tag k="lanes" v="2"/>
    <tag k="layer" v="1"/>
    <tag k="name" v="Main Street"/>
    <tag k="old_ref" v="A1"/>
    <tag k="surface" v="asphalt"/>
  </way>
  <way id="118317916" version="6" timestamp="2023-03-24T14:24:34Z" changeset="134070731" uid="3316592" user="Arthtoach">
    <nd ref="1962591835"/>
    <nd ref="1330805212"/>
    <nd ref="1962591832"/>
    <nd ref="1330805224"/>
    <nd ref="1330805217"/>
    <nd ref="1330805214"/>
    <nd ref="1330805189"/>
    <nd ref="1330805202"/>
    <nd ref="1330805203"/>
    <nd ref="1330805198"/>
    <nd ref="1330805192"/>
    <nd ref="1962591807"/>
    <nd ref="1330805194"/>
    <nd ref="1330805197"/>
    <nd ref="1962591660"/>
    <nd ref="1330805211"/>
    <nd ref="2098975833"/>
    <nd ref="1330805213"/>
    <nd ref="8291663237"/>
    <nd ref="8291663245"/>
    <nd ref="1330805210"/>
    <nd ref="1330805204"/>
    <nd ref="8291663234"/>
    <nd ref="1330805190"/>
    <nd ref="1330805201"/>
    <nd ref="1330805206"/>
    <nd ref="1330805219"/>
    <nd ref="1330805215"/>
    <nd ref="8291663232"/>
    <nd ref="8291663233"/>
    <nd ref="1330805218"/>
    <tag k="highway" v="unclassified"/>
    <tag k="lanes" v="2"/>
    <tag k="name" v="Kingfisher Lane"/>
    <tag k="source:name" v="OS_OpenData_Locator"/>
    <tag k="surface" v="asphalt"/>
  </way>
  <way id="134862842" version="17" timestamp="2022-10-30T20:17:25Z" changeset="128262053" uid="3560" user="Firefishy">
    <nd ref="1329942035"/>
    <nd ref="1329942049"/>
    <nd ref="154955"/>
    <nd ref="1329942034"/>
    <nd ref="1578589512"/>
    <nd ref="1329942033"/>
    <nd ref="1578589511"/>
    <nd ref="1578589509"/>
    <tag k="carriageway_ref" v="B"/>
    <tag k="destination:lanes" v="The South;Hull|The South;Hull|London;Leeds;Manchester|London;Leeds;Manchester|London;Leeds;Manchester"/>
    <tag k="destination:ref" v="A1;(M62)|A1;(M62)|(M1);(M62)|(M1);(M62)|(M1);(M62)"/>
    <tag k="highway" v="motorway"/>
    <tag k="int_ref" v="E 15"/>
    <tag k="lanes" v="5"/>
    <tag k="lit" v="yes"/>
    <tag k="maxspeed" v="70 mph"/>
    <tag k="maxspeed:type" v="GB:motorway"/>
    <tag k="name" v="Aberford By-Pass"/>
    <tag k="name:signed" v="no"/>
    <tag k="national_highways:area" v="DBFO33"/>
    <tag k="oneway" v="yes"/>
    <tag k="operator" v="National Highways"/>
    <tag k="operator:wikidata" v="Q5760006"/>
    <tag k="ref" v="A1(M)"/>
    <tag k="source:name" v="OS_OpenData_Locator"/>
    <tag k="surface" v="asphalt"/>
    <tag k="turn:lanes" v="slight_left|slight_left|through|through|through"/>
  </way>
  <way id="134862844" version="13" timestamp="2022-10-30T20:17:25Z" changeset="128262053" uid="3560" user="Firefishy">
    <nd ref="319599"/>
    <nd ref="3158784502"/>
    <tag k="carriageway_ref" v="B"/>
    <tag k="destination:lanes" v="A1 The South Hull (M62)|A1 The South Hull (M62)|A1 The South Hull (M62)"/>
    <tag k="highway" v="motorway"/>
    <tag k="int_ref" v="E 15"/>
    <tag k="lanes" v="3"/>
    <tag k="lit" v="yes"/>
    <tag k="maxspeed" v="70 mph"/>
    <tag k="maxspeed:type" v="GB:motorway"/>
    <tag k="national_highways:area" v="DBFO33"/>
    <tag k="oneway" v="yes"/>
    <tag k="operator" v="National Highways"/>
    <tag k="operator:wikidata" v="Q5760006"/>
    <tag k="ref" v="A1(M)"/>
    <tag k="surface" v="asphalt"/>
    <tag k="turn:lanes" v="slight_left|slight_left|slight_left"/>
  </way>
  <way id="143901621" version="18" timestamp="2022-10-30T20:17:25Z" changeset="128262053" uid="3560" user="Firefishy">
    <nd ref="1574636445"/>
    <nd ref="1574636457"/>
    <nd ref="21614583"/>
    <nd ref="2193136895"/>
    <nd ref="20964942"/>
    <nd ref="1574636450"/>
    <nd ref="1553509"/>
    <nd ref="2092748562"/>
    <nd ref="1553401"/>
    <nd ref="1553398"/>
    <nd ref="1330805207"/>
    <tag k="carriageway_ref" v="B"/>
    <tag k="highway" v="motorway"/>
    <tag k="int_ref" v="E 15"/>
    <tag k="lanes" v="4"/>
    <tag k="lit" v="yes"/>
    <tag k="maxheight" v="default"/>
    <tag k="maxspeed" v="70 mph"/>
    <tag k="maxspeed:type" v="GB:motorway"/>
    <tag k="name" v="Aberford By-Pass"/>
    <tag k="name:signed" v="no"/>
    <tag k="national_highways:area" v="DBFO33"/>
    <tag k="oneway" v="yes"/>
    <tag k="operator" v="National Highways"/>
    <tag k="operator:wikidata" v="Q5760006"/>
    <tag k="ref" v="A1(M)"/>
    <tag k="source:name" v="OS_OpenData_Locator"/>
    <tag k="surface" v="asphalt"/>
  </way>
  <way id="143901624" version="16" timestamp="2022-10-30T20:17:25Z" changeset="128262053" uid="3560" user="Firefishy">
    <nd ref="1578588640"/>
    <nd ref="1574636449"/>
    <nd ref="1553341"/>
    <nd ref="1330805208"/>
    <nd ref="1553396"/>
    <nd ref="1330805205"/>
    <nd ref="1553399"/>
    <tag k="carriageway_ref" v="A"/>
    <tag k="destination:lanes" v="A64 Leeds York|A1 The North Wetherby|A1 The North Wetherby|A1 The North Wetherby"/>
    <tag k="highway" v="motorway"/>
    <tag k="int_ref" v="E 15"/>
    <tag k="lanes" v="4"/>
    <tag k="lit" v="yes"/>
    <tag k="maxspeed" v="70 mph"/>
    <tag k="maxspeed:type" v="GB:motorway"/>
    <tag k="name" v="Aberford By-Pass"/>
    <tag k="name:signed" v="no"/>
    <tag k="national_highways:area" v="DBFO33"/>
    <tag k="oneway" v="yes"/>
    <tag k="operator" v="National Highways"/>
    <tag k="operator:wikidata" v="Q5760006"/>
    <tag k="ref" v="A1(M)"/>
    <tag k="source:name" v="OS_OpenData_Locator"/>
    <tag k="surface" v="asphalt"/>
  </way>
  <way id="143904952" version="12" timestamp="2024-01-22T18:56:44Z" changeset="146565751" uid="16951803" user="Vas111">
    <nd ref="1574689328"/>
    <nd ref="1329952843"/>
    <nd ref="4860706365"/>
    <nd ref="319598"/>
    <nd ref="1329952841"/>
    <tag k="carriageway_ref" v="A"/>
    <tag k="highway" v="motorway"/>
    <tag k="lanes" v="3"/>
    <tag k="lit" v="yes"/>
    <tag k="maxspeed" v="70 mph"/>
    <tag k="maxspeed:type" v="GB:motorway"/>
    <tag k="national_highways:area" v="DBFO33"/>
    <tag k="oneway" v="yes"/>
    <tag k="operator" v="National Highways"/>
    <tag k="operator:wikidata" v="Q5760006"/>
    <tag k="ref" v="M1"/>
    <tag k="surface" v="asphalt"/>
  </way>
  <way id="144312530" version="11" timestamp="2023-03-18T19:26:52Z" changeset="133835624" uid="3316592" user="Arthtoach">
    <nd ref="1578587474"/>
    <nd ref="1578587481"/>
    <tag k="bridge" v="yes"/>
    <tag k="carriageway_ref" v="A"/>
    <tag k="highway" v="motorway"/>
    <tag k="int_ref" v="E 15"/>
    <tag k="lanes" v="3"/>
    <tag k="layer" v="1"/>
    <tag k="lit" v="yes"/>
    <tag k="maxspeed" v="70 mph"/>
    <tag k="maxspeed:type" v="GB:motorway"/>
    <tag k="national_highways:area" v="DBFO33"/>
    <tag k="oneway" v="yes"/>
    <tag k="operator" v="National Highways"/>
    <tag k="operator:wikidata" v="Q5760006"/>
    <tag k="ref" v="A1(M)"/>
    <tag k="shoulder" v="left"/>
    <tag k="surface" v="asphalt"/>
  </way>
  <way id="144312532" version="13" timestamp="2023-03-18T19:26:52Z" changeset="133835624" uid="3316592" user="Arthtoach">
    <nd ref="1578587481"/>
    <nd ref="1578587472"/>
    <nd ref="1578587501"/>
    <nd ref="1578587499"/>
    <nd ref="1578587471"/>
    <nd ref="1578587497"/>
    <nd ref="1578587477"/>
    <nd ref="1578587500"/>
    <nd ref="4860706367"/>
    <nd ref="1578587483"/>
    <nd ref="1578587473"/>
    <nd ref="1578587495"/>
    <nd ref="1578587475"/>
    <nd ref="319602"/>
    <nd ref="1578588639"/>
    <tag k="carriageway_ref" v="A"/>
    <tag k="highway" v="motorway"/>
    <tag k="int_ref" v="E 15"/>
    <tag k="lanes" v="3"/>
    <tag k="lit" v="yes"/>
    <tag k="maxspeed" v="70 mph"/>
    <tag k="maxspeed:type" v="GB:motorway"/>
    <tag k="national_highways:area" v="DBFO33"/>
    <tag k="oneway" v="yes"/>
    <tag k="operator" v="National Highways"/>
    <tag k="operator:wikidata" v="Q5760006"/>
    <tag k="ref" v="A1(M)"/>
    <tag k="shoulder" v="left"/>
    <tag k="surface" v="asphalt"/>
  </way>
  <way id="144312639" version="11" timestamp="2022-10-30T20:17:25Z" changeset="128262053" uid="3560" user="Firefishy">
    <nd ref="1578588638"/>
    <nd ref="1578588630"/>
    <tag k="bridge" v="yes"/>
    <tag k="carriageway_ref" v="A"/>
    <tag k="highway" v="motorway"/>
    <tag k="int_ref" v="E 15"/>
    <tag k="lanes" v="5"/>
    <tag k="layer" v="1"/>
    <tag k="lit" v="yes"/>
    <tag k="maxspeed" v="70 mph"/>
    <tag k="maxspeed:type" v="GB:motorway"/>
    <tag k="name" v="Aberford By-Pass"/>
    <tag k="national_highways:area" v="DBFO33"/>
    <tag k="oneway" v="yes"/>
    <tag k="operator" v="National Highways"/>
    <tag k="operator:wikidata" v="Q5760006"/>
    <tag k="ref" v="A1(M)"/>
    <tag k="source:name" v="OS_OpenData_Locator"/>
    <tag k="surface" v="asphalt"/>
  </way>
  <way id="144312640" version="12" timestamp="2022-10-30T20:17:25Z" changeset="128262053" uid="3560" user="Firefishy">
    <nd ref="1578588630"/>
    <nd ref="1578588636"/>
    <nd ref="1578588625"/>
    <nd ref="1578588631"/>
    <nd ref="1578588640"/>
    <tag k="carriageway_ref" v="A"/>
    <tag k="highway" v="motorway"/>
    <tag k="int_ref" v="E 15"/>
    <tag k="lanes" v="5"/>
    <tag k="lit" v="yes"/>
    <tag k="maxspeed" v="70 mph"/>
    <tag k="maxspeed:type" v="GB:motorway"/>
    <tag k="name" v="Aberford By-Pass"/>
    <tag k="name:signed" v="no"/>
    <tag k="national_highways:area" v="DBFO33"/>
    <tag k="oneway" v="yes"/>
    <tag k="operator" v="National Highways"/>
    <tag k="operator:wikidata" v="Q5760006"/>
    <tag k="ref" v="A1(M)"/>
    <tag k="source:name" v="OS_OpenData_Locator"/>
    <tag k="surface" v="asphalt"/>
  </way>
  <way id="144312641" version="12" timestamp="2022-10-30T20:17:25Z" changeset="128262053" uid="3560" user="Firefishy">
    <nd ref="1578588639"/>
    <nd ref="1578588634"/>
    <nd ref="1578588628"/>
    <nd ref="1578588638"/>
    <tag k="carriageway_ref" v="A"/>
    <tag k="highway" v="motorway"/>
    <tag k="int_ref" v="E 15"/>
    <tag k="lanes" v="5"/>
    <tag k="lit" v="yes"/>
    <tag k="maxspeed" v="70 mph"/>
    <tag k="maxspeed:type" v="GB:motorway"/>
    <tag k="name" v="Aberford By-Pass"/>
    <tag k="name:signed" v="no"/>
    <tag k="national_highways:area" v="DBFO33"/>
    <tag k="oneway" v="yes"/>
    <tag k="operator" v="National Highways"/>
    <tag k="operator:wikidata" v="Q5760006"/>
    <tag k="ref" v="A1(M)"/>
    <tag k="source:name" v="OS_OpenData_Locator"/>
    <tag k="surface" v="asphalt"/>
  </way>
  <way id="144312642" version="13" timestamp="2022-10-30T20:17:25Z" changeset="128262053" uid="3560" user="Firefishy">
    <nd ref="52963114"/>
    <nd ref="1578589016"/>
    <tag k="bridge" v="yes"/>
    <tag k="carriageway_ref" v="B"/>
    <tag k="destination:lanes" v="The South;Hull|London;Leeds;Manchester|London;Leeds:Manchester|London;Leeds;Manchester"/>
    <tag k="destination:ref" v="A1;(M62)|(M1);(M62)|(M1);(M62)|(M1);(M62)|(M1);(M62)"/>
    <tag k="highway" v="motorway"/>
    <tag k="int_ref" v="E 15"/>
    <tag k="lanes" v="4"/>
    <tag k="layer" v="1"/>
    <tag k="lit" v="yes"/>
    <tag k="maxspeed" v="70 mph"/>
    <tag k="maxspeed:type" v="GB:motorway"/>
    <tag k="name" v="Aberford By-Pass"/>
    <tag k="national_highways:area" v="DBFO33"/>
    <tag k="oneway" v="yes"/>
    <tag k="operator" v="National Highways"/>
    <tag k="operator:wikidata" v="Q5760006"/>
    <tag k="ref" v="A1(M)"/>
    <tag k="source:name" v="OS_OpenData_Locator"/>
    <tag k="surface" v="asphalt"/>
    <tag k="turn:lanes" v="slight_left|through|through|through"/>
  </way>
  <way id="144312643" version="16" timestamp="2024-01-22T18:56:44Z" changeset="146565751" uid="16951803" user="Vas111">
    <nd ref="1590900283"/>
    <nd ref="1578588633"/>
    <nd ref="1578588627"/>
    <nd ref="2098976041"/>
    <nd ref="1578588629"/>
    <nd ref="2098982284"/>
    <nd ref="1578588635"/>
    <nd ref="1578588632"/>
    <nd ref="1578588626"/>
    <tag k="carriageway_ref" v="A"/>
    <tag k="highway" v="motorway"/>
    <tag k="lanes" v="3"/>
    <tag k="lit" v="yes"/>
    <tag k="maxspeed" v="70 mph"/>
    <tag k="maxspeed:type" v="GB:motorway"/>
    <tag k="name" v="Aberford By-Pass"/>
    <tag k="name:signed" v="no"/>
    <tag k="national_highways:area" v="DBFO33"/>
    <tag k="oneway" v="yes"/>
    <tag k="operator" v="National Highways"/>
    <tag k="operator:wikidata" v="Q5760006"/>
    <tag k="ref" v="M1"/>
    <tag k="source:name" v="OS_OpenData_Locator"/>
    <tag k="surface" v="asphalt"/>
  </way>
  <way id="144312667" version="14" timestamp="2022-10-30T20:17:25Z" changeset="128262053" uid="3560" user="Firefishy">
    <nd ref="1578589016"/>
    <nd ref="1578589015"/>
    <nd ref="1578589022"/>
    <nd ref="1329942035"/>
    <tag k="carriageway_ref" v="B"/>
    <tag k="destination:lanes" v="The South;Hull|London;Leeds;Manchester|London;Leeds:Manchester|London;Leeds;Manchester"/>
    <tag k="destination:ref" v="A1;(M62)|(M1);(M62)|(M1);(M62)|(M1);(M62)|(M1);(M62)"/>
    <tag k="highway" v="motorway"/>
    <tag k="int_ref" v="E 15"/>
    <tag k="lanes" v="4"/>
    <tag k="lit" v="yes"/>
    <tag k="maxspeed" v="70 mph"/>
    <tag k="maxspeed:type" v="GB:motorway"/>
    <tag k="name" v="Aberford By-Pass"/>
    <tag k="name:signed" v="no"/>
    <tag k="national_highways:area" v="DBFO33"/>
    <tag k="oneway" v="yes"/>
    <tag k="operator" v="National Highways"/>
    <tag k="operator:wikidata" v="Q5760006"/>
    <tag k="ref" v="A1(M)"/>
    <tag k="source:name" v="OS_OpenData_Locator"/>
    <tag k="surface" v="asphalt"/>
    <tag k="turn:lanes" v="slight_left|through|through|through"/>
  </way>
  <way id="144312786" version="11" timestamp="2022-10-30T20:17:25Z" changeset="128262053" uid="3560" user="Firefishy">
    <nd ref="1578589510"/>
    <nd ref="319599"/>
    <tag k="carriageway_ref" v="B"/>
    <tag k="destination:lanes" v="The South;Hull|The South;Hull|London;Leeds;Manchester|London;Leeds;Manchester|London;Leeds;Manchester"/>
    <tag k="destination:ref" v="A1;(M62)|A1;(M62)|(M1);(M62)|(M1);M62)|(M1);(M62)"/>
    <tag k="highway" v="motorway"/>
    <tag k="int_ref" v="E 15"/>
    <tag k="lanes" v="6"/>
    <tag k="lit" v="yes"/>
    <tag k="maxspeed" v="70 mph"/>
    <tag k="maxspeed:type" v="GB:motorway"/>
    <tag k="national_highways:area" v="DBFO33"/>
    <tag k="oneway" v="yes"/>
    <tag k="operator" v="National Highways"/>
    <tag k="operator:wikidata" v="Q5760006"/>
    <tag k="ref" v="A1(M)"/>
    <tag k="surface" v="asphalt"/>
    <tag k="turn:lanes" v="slight_left|slight_left|through|through|through"/>
  </way>
  <way id="144312787" version="11" timestamp="2022-10-30T20:17:25Z" changeset="128262053" uid="3560" user="Firefishy">
    <nd ref="1578589509"/>
    <nd ref="1578589510"/>
    <tag k="bridge" v="yes"/>
    <tag k="carriageway_ref" v="B"/>
    <tag k="destination:lanes" v="The South;Hull|The South;Hull|London;Leeds;Manchester|London;Leeds;Manchester|London;Leeds;Manchester"/>
    <tag k="destination:ref" v="A1;(M62)|A1;(M62)|(M1);(M62)|(M1);M62)|(M1);(M62)"/>
    <tag k="highway" v="motorway"/>
    <tag k="int_ref" v="E 15"/>
    <tag k="lanes" v="6"/>
    <tag k="layer" v="1"/>
    <tag k="lit" v="yes"/>
    <tag k="maxspeed" v="70 mph"/>
    <tag k="maxspeed:type" v="GB:motorway"/>
    <tag k="national_highways:area" v="DBFO33"/>
    <tag k="oneway" v="yes"/>
    <tag k="operator" v="National Highways"/>
    <tag k="operator:wikidata" v="Q5760006"/>
    <tag k="ref" v="A1(M)"/>
    <tag k="surface" v="asphalt"/>
    <tag k="turn:lanes" v="slight_left|slight_left|through|through|through"/>
  </way>
  <way id="148091789" version="16" timestamp="2024-06-17T14:09:00Z" changeset="152805446" uid="145231" user="woodpeck_repair">
    <nd ref="1611971793"/>
    <nd ref="1611971811"/>
    <nd ref="10556403336"/>
    <nd ref="1967487378"/>
    <nd ref="1962591367"/>
    <nd ref="11139855289"/>
    <nd ref="8291663080"/>
    <nd ref="8291663101"/>
    <nd ref="1611971832"/>
    <nd ref="7719229963"/>
    <nd ref="10289735116"/>
    <nd ref="11139855288"/>
    <nd ref="11139855287"/>
    <nd ref="1962591460"/>
    <nd ref="8291663113"/>
    <nd ref="8291663114"/>
    <nd ref="1962591491"/>
    <nd ref="1611971795"/>
    <nd ref="30810978"/>
    <nd ref="30804310"/>
    <tag k="highway" v="tertiary"/>
    <tag k="lanes" v="2"/>
    <tag k="name" v="Main Street"/>
    <tag k="old_ref" v="A1"/>
    <tag k="surface" v="asphalt"/>
  </way>
  <way id="148091790" version="15" timestamp="2024-06-17T14:09:02Z" changeset="152805446" uid="145231" user="woodpeck_repair">
    <nd ref="1611971793"/>
    <nd ref="10556403337"/>
    <nd ref="1611971781"/>
    <nd ref="1962591333"/>
    <nd ref="1611971756"/>
    <nd ref="1962591327"/>
    <nd ref="9036993237"/>
    <nd ref="10556403338"/>
    <nd ref="1611971824"/>
    <nd ref="10556403339"/>
    <nd ref="6591095839"/>
    <nd ref="2092745959"/>
    <nd ref="2092745679"/>
    <nd ref="2092746010"/>
    <nd ref="2092745662"/>
    <nd ref="6560396305"/>
    <nd ref="2092745633"/>
    <nd ref="2092745962"/>
    <nd ref="10743981343"/>
    <nd ref="1611971800"/>
    <tag k="highway" v="tertiary"/>
    <tag k="lanes" v="2"/>
    <tag k="name" v="Bunkers Hill"/>
    <tag k="old_ref" v="A1"/>
    <tag k="source" v="OS_OpenData_StreetView"/>
    <tag k="source:name" v="OS_OpenData_StreetView"/>
    <tag k="surface" v="asphalt"/>
  </way>
  <way id="148091791" version="12" timestamp="2025-02-28T22:28:34Z" changeset="163071502" uid="12858708" user="imfelixyeung">
    <nd ref="1611971813"/>
    <nd ref="10743981331"/>
    <nd ref="10743981332"/>
    <nd ref="1611971751"/>
    <nd ref="10743981333"/>
    <nd ref="1611971765"/>
    <nd ref="10743981334"/>
    <nd ref="10743981335"/>
    <nd ref="1611971761"/>
    <nd ref="10743981336"/>
    <nd ref="1611971745"/>
    <nd ref="2092745992"/>
    <nd ref="1611971808"/>
    <nd ref="10743981340"/>
    <nd ref="1611971760"/>
    <nd ref="1611971747"/>
    <nd ref="73762150"/>
    <tag k="highway" v="tertiary"/>
    <tag k="lanes" v="2"/>
    <tag k="maxspeed" v="60 mph"/>
    <tag k="name" v="Great North Road"/>
    <tag k="source" v="OS_OpenData_StreetView"/>
    <tag k="source:name" v="OS_OpenData_Locator"/>
    <tag k="surface" v="asphalt"/>
  </way>
  <way id="185334055" version="15" timestamp="2023-06-22T16:18:08Z" changeset="137654380" uid="705850" user="Cebderby">
    <nd ref="25431965"/>
    <nd ref="25431964"/>
    <nd ref="25431963"/>
    <nd ref="25431962"/>
    <nd ref="1617944925"/>
    <nd ref="25431961"/>
    <nd ref="25431960"/>
    <nd ref="25431959"/>
    <nd ref="25431958"/>
    <nd ref="25431957"/>
    <nd ref="25431956"/>
    <nd ref="25431955"/>
    <nd ref="25431954"/>
    <nd ref="472352931"/>
    <nd ref="6535244693"/>
    <nd ref="25431952"/>
    <nd ref="25431951"/>
    <nd ref="10997747089"/>
    <nd ref="3805517429"/>
    <nd ref="25431950"/>
    <nd ref="25431949"/>
    <nd ref="25431948"/>
    <nd ref="10997747090"/>
    <nd ref="25431947"/>
    <nd ref="10997747091"/>
    <nd ref="25431946"/>
    <nd ref="25431945"/>
    <nd ref="25431944"/>
    <nd ref="10997747092"/>
    <nd ref="25431943"/>
    <nd ref="10997747093"/>
    <nd ref="10997747094"/>
    <nd ref="25431942"/>
    <nd ref="25431941"/>
    <nd ref="25431940"/>
    <nd ref="25431939"/>
    <nd ref="10997747095"/>
    <nd ref="10997747096"/>
    <nd ref="25431938"/>
    <nd ref="25431937"/>
    <nd ref="10997747097"/>
    <nd ref="25431936"/>
    <nd ref="25431935"/>
    <nd ref="10997747098"/>
    <nd ref="318587654"/>
    <nd ref="25431934"/>
    <nd ref="25431933"/>
    <nd ref="10997752975"/>
    <nd ref="25431932"/>
    <nd ref="25431931"/>
    <nd ref="25431930"/>
    <nd ref="25431929"/>
    <nd ref="25431928"/>
    <nd ref="1617944725"/>
    <nd ref="25431926"/>
    <nd ref="25431925"/>
    <nd ref="25431924"/>
    <nd ref="25431923"/>
    <nd ref="8277752324"/>
    <nd ref="472354139"/>
    <tag k="highway" v="secondary"/>
    <tag k="lanes" v="2"/>
    <tag k="lit" v="no"/>
    <tag k="ref" v="B1217"/>
    <tag k="sidewalk" v="no"/>
    <tag k="source" v="survey"/>
    <tag k="source_ref" v="GPS"/>
    <tag k="surface" v="asphalt"/>
    <tag k="verge" v="both"/>
  </way>
  <way id="185334056" version="7" timestamp="2024-01-19T19:32:09Z" changeset="146455440" uid="242345" user="confusedbuffalo">
    <nd ref="10759254856"/>
    <nd ref="25431990"/>
    <nd ref="2098975925"/>
    <nd ref="2092745780"/>
    <nd ref="25431989"/>
    <nd ref="2092745622"/>
    <nd ref="25431988"/>
    <nd ref="25431987"/>
    <nd ref="351104144"/>
    <nd ref="25431986"/>
    <nd ref="25431985"/>
    <nd ref="3805452496"/>
    <nd ref="25431984"/>
    <nd ref="25431983"/>
    <nd ref="25431982"/>
    <tag k="highway" v="secondary"/>
    <tag k="lanes" v="2"/>
    <tag k="lit" v="yes"/>
    <tag k="maxspeed" v="60 mph"/>
    <tag k="maxspeed:type" v="GB:nsl_single"/>
    <tag k="name" v="Collier Lane"/>
    <tag k="ref" v="B1217"/>
    <tag k="source" v="survey"/>
    <tag k="source:name" v="OS_OpenData_Locator"/>
    <tag k="source_ref" v="GPS"/>
    <tag k="surface" v="asphalt"/>
  </way>
  <way id="185611724" version="2" timestamp="2022-12-27T15:23:21Z" changeset="130562241" uid="3316592" user="Arthtoach">
    <nd ref="1611971832"/>
    <nd ref="1962591406"/>
    <nd ref="1962591409"/>
    <nd ref="1962591424"/>
    <tag k="highway" v="residential"/>
    <tag k="name" v="Manor Court"/>
    <tag k="source:name" v="OS_OpenData_Locator"/>
    <tag k="surface" v="asphalt"/>
  </way>
  <way id="185611737" version="2" timestamp="2023-01-15T09:37:27Z" changeset="131290857" uid="3316592" user="Arthtoach">
    <nd ref="1962591333"/>
    <nd ref="1962591335"/>
    <nd ref="1962591337"/>
    <nd ref="1962591336"/>
    <tag k="highway" v="residential"/>
    <tag k="name" v="Youngs Court"/>
    <tag k="not:name" v="Young's Court"/>
    <tag k="not:name:note" v="Road sign has no apostrophe"/>
    <tag k="source" v="bing"/>
    <tag k="surface" v="asphalt"/>
  </way>
  <way id="186051675" version="2" timestamp="2023-01-15T09:37:27Z" changeset="131290857" uid="3316592" user="Arthtoach">
    <nd ref="1967487379"/>
    <nd ref="1967487381"/>
    <tag k="highway" v="residential"/>
    <tag k="name" v="Windmill Rise"/>
    <tag k="source:name" v="OS_OpenData_Locator"/>
    <tag k="surface" v="asphalt"/>
  </way>
  <way id="186051676" version="2" timestamp="2023-01-15T09:37:27Z" changeset="131290857" uid="3316592" user="Arthtoach">
    <nd ref="1967487378"/>
    <nd ref="1967487379"/>
    <nd ref="1967487380"/>
    <tag k="highway" v="residential"/>
    <tag k="name" v="Windmill Rise"/>
    <tag k="source:name" v="OS_OpenData_Locator"/>
    <tag k="surface" v="asphalt"/>
  </way>
  <way id="199260280" version="6" timestamp="2023-12-03T12:23:54Z" changeset="144719590" uid="81653" user="pmyteh">
    <nd ref="2092748556"/>
    <nd ref="1617944667"/>
    <nd ref="3805436585"/>
    <nd ref="1617944910"/>
    <nd ref="1617944478"/>
    <nd ref="1617944661"/>
    <nd ref="1617944746"/>
    <nd ref="3805436584"/>
    <nd ref="1617944764"/>
    <nd ref="1617944770"/>
    <nd ref="1617944845"/>
    <nd ref="1617944674"/>
    <nd ref="3805436583"/>
    <nd ref="1617944893"/>
    <nd ref="1617944837"/>
    <nd ref="1617944669"/>
    <nd ref="3805436582"/>
    <nd ref="1617944790"/>
    <nd ref="3805436581"/>
    <nd ref="1617944742"/>
    <nd ref="3805436580"/>
    <nd ref="1617944869"/>
    <nd ref="1617944806"/>
    <nd ref="1617944901"/>
    <nd ref="25431965"/>
    <tag k="highway" v="unclassified"/>
    <tag k="lanes" v="2"/>
    <tag k="lit" v="no"/>
    <tag k="name" v="Lotherton Lane"/>
    <tag k="sidewalk" v="no"/>
    <tag k="source" v="survey"/>
    <tag k="source_ref" v="GPS"/>
    <tag k="surface" v="asphalt"/>
  </way>
  <way id="360025143" version="7" timestamp="2024-01-22T18:56:44Z" changeset="146565751" uid="16951803" user="Vas111">
    <nd ref="1329952839"/>
    <nd ref="4860706366"/>
    <nd ref="319597"/>
    <nd ref="1574689330"/>
    <tag k="carriageway_ref" v="B"/>
    <tag k="highway" v="motorway"/>
    <tag k="lanes" v="3"/>
    <tag k="lit" v="yes"/>
    <tag k="maxspeed" v="70 mph"/>
    <tag k="maxspeed:type" v="GB:motorway"/>
    <tag k="national_highways:area" v="DBFO33"/>
    <tag k="oneway" v="yes"/>
    <tag k="operator" v="National Highways"/>
    <tag k="operator:wikidata" v="Q5760006"/>
    <tag k="ref" v="M1"/>
    <tag k="surface" v="asphalt"/>
  </way>
  <way id="360025144" version="6" timestamp="2022-10-30T20:17:25Z" changeset="128262053" uid="3560" user="Firefishy">
    <nd ref="3158784502"/>
    <nd ref="3158784518"/>
    <nd ref="1552945"/>
    <nd ref="1552943"/>
    <nd ref="1552939"/>
    <nd ref="1552936"/>
    <nd ref="1552812"/>
    <nd ref="1552816"/>
    <nd ref="1574625720"/>
    <nd ref="1552819"/>
    <nd ref="1552825"/>
    <nd ref="1552830"/>
    <nd ref="1574625719"/>
    <nd ref="1552834"/>
    <tag k="carriageway_ref" v="B"/>
    <tag k="highway" v="motorway"/>
    <tag k="int_ref" v="E 15"/>
    <tag k="lanes" v="3"/>
    <tag k="lit" v="yes"/>
    <tag k="maxspeed" v="70 mph"/>
    <tag k="maxspeed:type" v="GB:motorway"/>
    <tag k="national_highways:area" v="DBFO33"/>
    <tag k="oneway" v="yes"/>
    <tag k="operator" v="National Highways"/>
    <tag k="operator:wikidata" v="Q5760006"/>
    <tag k="ref" v="A1(M)"/>
    <tag k="surface" v="asphalt"/>
  </way>
  <way id="463048748" version="6" timestamp="2022-10-30T20:17:25Z" changeset="128262053" uid="3560" user="Firefishy">
    <nd ref="1330805207"/>
    <nd ref="1574665173"/>
    <nd ref="154958"/>
    <nd ref="1330805216"/>
    <nd ref="1330805221"/>
    <nd ref="154957"/>
    <nd ref="1329942047"/>
    <nd ref="52963114"/>
    <tag k="carriageway_ref" v="B"/>
    <tag k="destination:lanes" v="The South;Hull|London;Leeds;Manchester|London;Leeds:Manchester|London;Leeds;Manchester"/>
    <tag k="destination:ref" v="A1;(M62)|(M1);(M62)|(M1);(M62)|(M1);(M62)|(M1);(M62)"/>
    <tag k="highway" v="motorway"/>
    <tag k="int_ref" v="E 15"/>
    <tag k="lanes" v="4"/>
    <tag k="lit" v="yes"/>
    <tag k="maxspeed" v="70 mph"/>
    <tag k="maxspeed:type" v="GB:motorway"/>
    <tag k="name" v="Aberford By-Pass"/>
    <tag k="name:signed" v="no"/>
    <tag k="national_highways:area" v="DBFO33"/>
    <tag k="oneway" v="yes"/>
    <tag k="operator" v="National Highways"/>
    <tag k="operator:wikidata" v="Q5760006"/>
    <tag k="ref" v="A1(M)"/>
    <tag k="source:name" v="OS_OpenData_Locator"/>
    <tag k="surface" v="asphalt"/>
    <tag k="turn:lanes" v="slight_left|through|through|through"/>
  </way>
  <way id="531271066" version="10" timestamp="2024-06-17T14:09:02Z" changeset="152805446" uid="145231" user="woodpeck_repair">
    <nd ref="1611971800"/>
    <nd ref="10743981344"/>
    <nd ref="10743981346"/>
    <nd ref="10743981345"/>
    <nd ref="2092745907"/>
    <nd ref="1611971805"/>
    <nd ref="9188638248"/>
    <nd ref="1611971813"/>
    <tag k="highway" v="tertiary"/>
    <tag k="lanes" v="2"/>
    <tag k="name" v="Bunkers Hill"/>
    <tag k="old_ref" v="A1"/>
    <tag k="source" v="OS_OpenData_StreetView"/>
    <tag k="source:name" v="OS_OpenData_StreetView"/>
    <tag k="surface" v="asphalt"/>
  </way>
  <way id="698880341" version="3" timestamp="2024-06-02T01:49:05Z" changeset="152142805" uid="493595" user="Yorvik Prestigitator">
    <nd ref="6562820052"/>
    <nd ref="6562820051"/>
    <nd ref="6562820050"/>
    <nd ref="6562820049"/>
    <nd ref="6562820048"/>
    <nd ref="11951045958"/>
    <nd ref="11951045959"/>
    <nd ref="6562820047"/>
    <nd ref="6562820046"/>
    <nd ref="6562820045"/>
    <nd ref="6562820044"/>
    <nd ref="6562820043"/>
    <nd ref="6562820052"/>
    <tag k="addr:city" v="Leeds"/>
    <tag k="addr:postcode" v="LS25 3DA"/>
    <tag k="addr:street" v="Main Street"/>
    <tag k="addr:suburb" v="Aberford"/>
    <tag k="amenity" v="community_centre"/>
    <tag k="building" v="public"/>
    <tag k="community_centre" v="village_hall"/>
    <tag k="name" v="Aberford Village Hall"/>
  </way>
  <way id="851866779" version="3" timestamp="2023-10-11T21:53:28Z" changeset="142454040" uid="16586381" user="KasperSFranz">
    <nd ref="7945601400"/>
    <nd ref="3395969499"/>
    <nd ref="3395968899"/>
    <nd ref="7945601399"/>
    <nd ref="7945601400"/>
    <tag k="amenity" v="place_of_worship"/>
    <tag k="building" v="church"/>
    <tag k="denomination" v="anglican"/>
    <tag k="name" v="St James"/>
    <tag k="religion" v="christian"/>
    <tag k="wikidata" v="Q17533317"/>
  </way>
  <way id="1108369206" version="2" timestamp="2024-01-22T18:56:44Z" changeset="146565751" uid="16951803" user="Vas111">
    <nd ref="1578588626"/>
    <nd ref="1578588637"/>
    <nd ref="1578588639"/>
    <tag k="carriageway_ref" v="A"/>
    <tag k="highway" v="motorway"/>
    <tag k="lanes" v="3"/>
    <tag k="lit" v="yes"/>
    <tag k="maxspeed" v="70 mph"/>
    <tag k="maxspeed:type" v="GB:motorway"/>
    <tag k="name" v="Aberford By-Pass"/>
    <tag k="name:signed" v="no"/>
    <tag k="national_highways:area" v="DBFO33"/>
    <tag k="oneway" v="yes"/>
    <tag k="operator" v="National Highways"/>
    <tag k="operator:wikidata" v="Q5760006"/>
    <tag k="ref" v="M1"/>
    <tag k="source:name" v="OS_OpenData_Locator"/>
    <tag k="surface" v="asphalt"/>
  </way>
  <way id="1108369207" version="4" timestamp="2024-01-22T18:56:44Z" changeset="146565751" uid="16951803" user="Vas111">
    <nd ref="1329952841"/>
    <nd ref="1578590001"/>
    <nd ref="1578589999"/>
    <nd ref="1590900169"/>
    <tag k="carriageway_ref" v="A"/>
    <tag k="highway" v="motorway"/>
    <tag k="lanes" v="3"/>
    <tag k="lit" v="yes"/>
    <tag k="maxspeed" v="70 mph"/>
    <tag k="maxspeed:type" v="GB:motorway"/>
    <tag k="national_highways:area" v="DBFO33"/>
    <tag k="oneway" v="yes"/>
    <tag k="operator" v="National Highways"/>
    <tag k="operator:wikidata" v="Q5760006"/>
    <tag k="ref" v="M1"/>
    <tag k="surface" v="asphalt"/>
  </way>
  <way id="1156975994" version="1" timestamp="2023-03-24T14:24:34Z" changeset="134070731" uid="3316592" user="Arthtoach">
    <nd ref="10759205767"/>
    <nd ref="472353480"/>
    <nd ref="1330805218"/>
    <nd ref="10759205768"/>
    <nd ref="472353482"/>
    <nd ref="10759205769"/>
    <nd ref="10759205770"/>
    <nd ref="472353483"/>
    <nd ref="472353485"/>
    <nd ref="52963160"/>
    <tag k="highway" v="unclassified"/>
    <tag k="lanes" v="2"/>
    <tag k="name" v="Stocking Lane"/>
    <tag k="surface" v="asphalt"/>
  </way>
  <way id="1156978125" version="2" timestamp="2024-01-19T19:32:09Z" changeset="146455440" uid="242345" user="confusedbuffalo">
    <nd ref="1611971813"/>
    <nd ref="10759254856"/>
    <tag k="highway" v="secondary"/>
    <tag k="lanes" v="3"/>
    <tag k="lanes:backward" v="2"/>
    <tag k="lanes:forward" v="1"/>
    <tag k="lit" v="yes"/>
    <tag k="maxspeed" v="60 mph"/>
    <tag k="maxspeed:type" v="GB:nsl_single"/>
    <tag k="name" v="Collier Lane"/>
    <tag k="ref" v="B1217"/>
    <tag k="source" v="survey"/>
    <tag k="source:name" v="OS_OpenData_Locator"/>
    <tag k="source_ref" v="GPS"/>
    <tag k="surface" v="asphalt"/>
    <tag k="turn:lanes:backward" v="left;through|right"/>
  </way>
  <way id="1156978126" version="3" timestamp="2025-02-28T22:17:25Z" changeset="163071286" uid="12858708" user="imfelixyeung">
    <nd ref="10759254857"/>
    <nd ref="1611971813"/>
    <tag k="highway" v="secondary"/>
    <tag k="lanes" v="3"/>
    <tag k="lanes:backward" v="1"/>
    <tag k="lanes:forward" v="2"/>
    <tag k="lit" v="yes"/>
    <tag k="maxspeed" v="40 mph"/>
    <tag k="maxspeed:type" v="GB:nsl_single"/>
    <tag k="name" v="Aberford Road"/>
    <tag k="ref" v="B1217"/>
    <tag k="source" v="survey"/>
    <tag k="source:name" v="OS_OpenData_Locator"/>
    <tag k="source_ref" v="GPS"/>
    <tag k="surface" v="asphalt"/>
    <tag k="turn:lanes:forward" v="left;through|right"/>
  </way>

</osm>
