<?xml version="1.0" encoding="UTF-8"?>
<osm version="0.6" generator="Overpass API 0.7.62.5 1bd436f1">
<note>The data included in this document is from www.openstreetmap.org. The data is made available under ODbL.</note>
<meta osm_base="2025-05-18T02:52:20Z" areas="2024-12-31T00:49:33Z"/>

  <node id="26230962" lat="50.0661108" lon="14.4219792" version="2" timestamp="2021-03-03T13:56:28Z" changeset="100356220" uid="873469" user="R3gi"/>
  <node id="31792879" lat="50.0625827" lon="14.4166708" version="2" timestamp="2011-02-21T22:03:08Z" changeset="7357800" uid="3516" user="BiIbo"/>
  <node id="264494820" lat="50.0615751" lon="14.4184874" version="3" timestamp="2011-02-21T22:04:16Z" changeset="7357800" uid="3516" user="BiIbo"/>
  <node id="390376245" lat="50.0675028" lon="14.4171912" version="3" timestamp="2025-04-13T16:41:28Z" changeset="164903671" uid="4018695" user="ðŸ‡¨ðŸ‡¿ Roman HornÃ­k"/>
  <node id="1308345034" lat="50.0680428" lon="14.4209713" version="11" timestamp="2023-08-01T22:00:44Z" changeset="139320142" uid="469828" user="LukÃ¡Å¡ JelÃ­nek">
    <tag k="crossing" v="marked"/>
    <tag k="crossing:markings" v="yes"/>
    <tag k="highway" v="crossing"/>
    <tag k="source" v="Bing"/>
    <tag k="tactile_paving" v="yes"/>
  </node>
  <node id="1420894702" lat="50.0665468" lon="14.4221436" version="8" timestamp="2023-05-12T19:43:02Z" changeset="136032806" uid="469828" user="LukÃ¡Å¡ JelÃ­nek">
    <tag k="crossing" v="marked"/>
    <tag k="crossing:island" v="no"/>
    <tag k="crossing:markings" v="yes"/>
    <tag k="highway" v="crossing"/>
    <tag k="kerb" v="lowered"/>
    <tag k="source" v="Bing;cuzk"/>
    <tag k="tactile_paving" v="yes"/>
  </node>
  <node id="2644777954" lat="50.0654459" lon="14.4224808" version="1" timestamp="2014-01-30T23:31:15Z" changeset="20292530" uid="527259" user="Vratislav Filler"/>
  <node id="3676872938" lat="50.0670923" lon="14.4152084" version="2" timestamp="2025-04-13T16:41:28Z" changeset="164903671" uid="4018695" user="ðŸ‡¨ðŸ‡¿ Roman HornÃ­k"/>
  <node id="3676872943" lat="50.0672795" lon="14.4151828" version="2" timestamp="2025-04-13T16:41:28Z" changeset="164903671" uid="4018695" user="ðŸ‡¨ðŸ‡¿ Roman HornÃ­k"/>
  <node id="3676872945" lat="50.0673137" lon="14.4150244" version="1" timestamp="2015-08-01T21:53:47Z" changeset="33038416" uid="507276" user="jkjkjk"/>
  <node id="3676872959" lat="50.0674721" lon="14.4158724" version="2" timestamp="2025-04-20T13:02:57Z" changeset="165193012" uid="4018695" user="ðŸ‡¨ðŸ‡¿ Roman HornÃ­k"/>
  <node id="8520784638" lat="50.0674057" lon="14.4214452" version="1" timestamp="2021-03-15T12:05:38Z" changeset="101050166" uid="11276832" user="HaPe-CZ"/>
  <node id="8520784651" lat="50.0665804" lon="14.4220973" version="1" timestamp="2021-03-15T12:05:38Z" changeset="101050166" uid="11276832" user="HaPe-CZ"/>
  <node id="8520784652" lat="50.0667626" lon="14.4219628" version="1" timestamp="2021-03-15T12:05:38Z" changeset="101050166" uid="11276832" user="HaPe-CZ"/>
  <node id="9349741981" lat="50.0678328" lon="14.4178492" version="1" timestamp="2021-12-18T23:25:44Z" changeset="115112121" uid="6588887" user="Martin2035"/>
  <node id="12204894544" lat="50.0684471" lon="14.4205390" version="1" timestamp="2024-09-27T12:11:55Z" changeset="157168083" uid="17385839" user="Augustlej"/>
  <way id="4640156" version="12" timestamp="2024-09-27T13:06:15Z" changeset="157166996" uid="17385839" user="Augustlej">
    <nd ref="8810822"/>
    <nd ref="4701097738"/>
    <nd ref="1308345265"/>
    <tag k="cycleway:both" v="no"/>
    <tag k="highway" v="residential"/>
    <tag k="lit" v="yes"/>
    <tag k="name" v="VinaÅ™ickÃ©ho"/>
    <tag k="oneway" v="yes"/>
    <tag k="surface" v="asphalt"/>
  </way>
  <way id="4646306" version="25" timestamp="2025-01-29T16:10:56Z" changeset="161903817" uid="6695514" user="arik123max">
    <nd ref="293012305"/>
    <nd ref="12376566724"/>
    <nd ref="9595872921"/>
    <nd ref="26230947"/>
    <nd ref="1030989601"/>
    <tag k="highway" v="tertiary"/>
    <tag k="lanes" v="1"/>
    <tag k="lit" v="yes"/>
    <tag k="maxheight" v="3.1"/>
    <tag k="name" v="Vnislavova"/>
    <tag k="oneway" v="yes"/>
    <tag k="oneway:bicycle" v="yes"/>
    <tag k="sidewalk:both" v="separate"/>
    <tag k="smoothness" v="bad"/>
    <tag k="surface" v="sett"/>
    <tag k="width" v="12"/>
  </way>
  <way id="4646713" version="12" timestamp="2025-03-24T19:52:48Z" changeset="164049526" uid="1221650" user="slukes">
    <nd ref="26230949"/>
    <nd ref="1033838000"/>
    <nd ref="26231042"/>
    <nd ref="26231041"/>
    <tag k="cycleway:both" v="no"/>
    <tag k="highway" v="residential"/>
    <tag k="lanes" v="1"/>
    <tag k="lit" v="yes"/>
    <tag k="name" v="Neklanova"/>
    <tag k="oneway" v="yes"/>
    <tag k="parking:both" v="lane"/>
    <tag k="parking:both:orientation" v="parallel"/>
    <tag k="sidewalk" v="both"/>
    <tag k="smoothness" v="good"/>
    <tag k="surface" v="asphalt"/>
  </way>
  <way id="4646717" version="5" timestamp="2020-03-25T14:27:37Z" changeset="82615677" uid="718054" user="Piskvor">
    <nd ref="26231035"/>
    <nd ref="4907435737"/>
    <nd ref="26231042"/>
    <tag k="highway" v="residential"/>
    <tag k="lanes" v="1"/>
    <tag k="name" v="HostivÃ­tova"/>
    <tag k="oneway" v="yes"/>
    <tag k="surface" v="sett"/>
  </way>
  <way id="4646721" version="13" timestamp="2025-04-13T16:41:28Z" changeset="164903671" uid="4018695" user="ðŸ‡¨ðŸ‡¿ Roman HornÃ­k">
    <nd ref="26230944"/>
    <nd ref="390376244"/>
    <nd ref="1033837953"/>
    <nd ref="1825431309"/>
    <nd ref="8488554290"/>
    <nd ref="12752658462"/>
    <nd ref="26230940"/>
    <tag k="highway" v="tertiary"/>
    <tag k="lanes:backward" v="1"/>
    <tag k="lanes:forward" v="1"/>
    <tag k="name" v="Vratislavova"/>
    <tag k="sidewalk:both" v="separate"/>
    <tag k="source:name" v="nameit/uir-adr"/>
    <tag k="surface" v="sett"/>
    <tag k="turn:lanes:backward" v="through;right"/>
  </way>
  <way id="4890563" version="18" timestamp="2025-05-14T19:02:37Z" changeset="166272746" uid="10224968" user="comfyquiettree">
    <nd ref="31792934"/>
    <nd ref="8458585396"/>
    <nd ref="31792957"/>
    <nd ref="8458585401"/>
    <nd ref="8458585399"/>
    <nd ref="8458585398"/>
    <nd ref="31792935"/>
    <tag k="cycleway:both" v="shared_lane"/>
    <tag k="cycleway:both:lane" v="pictogram"/>
    <tag k="embedded_rails" v="tram"/>
    <tag k="highway" v="secondary"/>
    <tag k="lanes" v="2"/>
    <tag k="layer" v="-1"/>
    <tag k="lit" v="yes"/>
    <tag k="maxheight" v="3.3"/>
    <tag k="maxspeed" v="30"/>
    <tag k="name" v="VyÅ¡ehradskÃ½ tunel"/>
    <tag k="name:de" v="Wyschehrader Tunnel"/>
    <tag k="overtaking" v="no"/>
    <tag k="sidewalk" v="separate"/>
    <tag k="smoothness" v="excellent"/>
    <tag k="source:maxspeed" v="sign"/>
    <tag k="surface" v="asphalt"/>
    <tag k="tunnel" v="yes"/>
    <tag k="wikidata" v="Q11949409"/>
    <tag k="wikipedia" v="cs:VyÅ¡ehradskÃ½ tunel"/>
  </way>
  <way id="8102328" version="9" timestamp="2024-09-27T12:45:41Z" changeset="157167788" uid="17385839" user="Augustlej">
    <nd ref="26230944"/>
    <nd ref="390376245"/>
    <tag k="highway" v="tertiary"/>
    <tag k="lanes" v="2"/>
    <tag k="sidewalk:both" v="separate"/>
    <tag k="surface" v="sett"/>
    <tag k="turn:lanes:backward" v="left;through;right"/>
  </way>
  <way id="8885568" version="24" timestamp="2024-11-01T21:46:08Z" changeset="158638103" uid="29717" user="eumiro">
    <nd ref="4793862679"/>
    <nd ref="64861018"/>
    <nd ref="4793862678"/>
    <nd ref="64861024"/>
    <nd ref="4793862677"/>
    <nd ref="4793862676"/>
    <nd ref="64861033"/>
    <nd ref="4793862675"/>
    <nd ref="64861109"/>
    <nd ref="6681537755"/>
    <nd ref="6681537756"/>
    <nd ref="64861115"/>
    <nd ref="5609794382"/>
    <nd ref="64861121"/>
    <nd ref="5609794381"/>
    <nd ref="64861126"/>
    <nd ref="676786955"/>
    <tag k="bicycle" v="no"/>
    <tag k="foot" v="yes"/>
    <tag k="highway" v="residential"/>
    <tag k="lanes" v="2"/>
    <tag k="lit" v="yes"/>
    <tag k="name" v="Vratislavova"/>
    <tag k="psv" v="no"/>
    <tag k="sidewalk:left" v="no"/>
    <tag k="sidewalk:right" v="separate"/>
    <tag k="smoothness" v="bad"/>
    <tag k="surface" v="sett"/>
    <tag k="vehicle" v="destination"/>
  </way>
  <way id="9580183" version="15" timestamp="2025-05-14T19:02:36Z" changeset="166272745" uid="10224968" user="comfyquiettree">
    <nd ref="775319"/>
    <nd ref="1896752078"/>
    <tag k="cycleway:both" v="shared_lane"/>
    <tag k="cycleway:both:lane" v="pictogram"/>
    <tag k="embedded_rails" v="tram"/>
    <tag k="highway" v="secondary"/>
    <tag k="lanes" v="2"/>
    <tag k="lit" v="yes"/>
    <tag k="maxspeed" v="30"/>
    <tag k="name" v="PodolskÃ© nÃ¡bÅ™eÅ¾Ã­"/>
    <tag k="overtaking" v="no"/>
    <tag k="sidewalk" v="separate"/>
    <tag k="smoothness" v="excellent"/>
    <tag k="source" v="Bing"/>
    <tag k="surface" v="asphalt"/>
  </way>
  <way id="10157972" version="25" timestamp="2024-09-27T12:44:38Z" changeset="157167788" uid="17385839" user="Augustlej">
    <nd ref="703217"/>
    <nd ref="4701335520"/>
    <nd ref="8520470152"/>
    <nd ref="4701097450"/>
    <nd ref="8520784640"/>
    <tag k="embedded_rails" v="tram"/>
    <tag k="highway" v="secondary"/>
    <tag k="lanes" v="2"/>
    <tag k="lit" v="yes"/>
    <tag k="name" v="Na Slupi"/>
    <tag k="oneway" v="no"/>
    <tag k="sidewalk:right" v="separate"/>
    <tag k="source" v="Bing"/>
    <tag k="surface" v="asphalt"/>
  </way>
  <way id="24376643" version="51" timestamp="2025-03-28T11:34:20Z" changeset="164203468" uid="55818" user="Theologe">
    <nd ref="659671769"/>
    <nd ref="659671768"/>
    <nd ref="6799350614"/>
    <nd ref="337306081"/>
    <nd ref="264494760"/>
    <nd ref="264494761"/>
    <nd ref="264494762"/>
    <nd ref="337306073"/>
    <nd ref="337306079"/>
    <nd ref="337306080"/>
    <nd ref="4999951808"/>
    <nd ref="337306075"/>
    <nd ref="4999930558"/>
    <nd ref="659671792"/>
    <nd ref="659671773"/>
    <nd ref="659671772"/>
    <nd ref="659671790"/>
    <nd ref="659671793"/>
    <nd ref="659671794"/>
    <nd ref="659671791"/>
    <nd ref="659671783"/>
    <nd ref="659671785"/>
    <nd ref="659671784"/>
    <nd ref="659671780"/>
    <nd ref="659671781"/>
    <nd ref="659671786"/>
    <nd ref="659671787"/>
    <nd ref="659671788"/>
    <nd ref="659671789"/>
    <nd ref="659671777"/>
    <nd ref="659671778"/>
    <nd ref="659671782"/>
    <nd ref="659671774"/>
    <nd ref="659671763"/>
    <nd ref="659671764"/>
    <nd ref="659671775"/>
    <nd ref="659671776"/>
    <nd ref="659671765"/>
    <nd ref="659671766"/>
    <nd ref="659671767"/>
    <nd ref="264494756"/>
    <nd ref="337306086"/>
    <nd ref="337306140"/>
    <nd ref="337306145"/>
    <nd ref="337306087"/>
    <nd ref="4553656920"/>
    <nd ref="337306088"/>
    <nd ref="337306125"/>
    <nd ref="337306136"/>
    <nd ref="337306092"/>
    <nd ref="4553656921"/>
    <nd ref="337306094"/>
    <nd ref="337306119"/>
    <nd ref="337306123"/>
    <nd ref="337306098"/>
    <nd ref="4553656922"/>
    <nd ref="337306103"/>
    <nd ref="337306109"/>
    <nd ref="337306114"/>
    <nd ref="337306106"/>
    <nd ref="6799350613"/>
    <nd ref="264494757"/>
    <nd ref="659671769"/>
    <tag k="access" v="yes"/>
    <tag k="addr:city" v="Praha"/>
    <tag k="amenity" v="place_of_worship"/>
    <tag k="basilica" v="minor"/>
    <tag k="building" v="church"/>
    <tag k="building:architecture" v="neo-gothic"/>
    <tag k="building:colour" v="#52514f"/>
    <tag k="building:material" v="stone"/>
    <tag k="building:ruian:type" v="5"/>
    <tag k="deanery" v="TÅ™etÃ­ praÅ¾skÃ½ vikariÃ¡t"/>
    <tag k="denomination" v="roman_catholic"/>
    <tag k="diocese" v="ArcidiecÃ©ze praÅ¾skÃ¡"/>
    <tag k="fee" v="yes"/>
    <tag k="height" v="11"/>
    <tag k="heritage" v="2"/>
    <tag k="heritage:operator" v="npu"/>
    <tag k="heritage:ref" v="11740/1-1273"/>
    <tag k="heritage:website" v="https://pamatkovykatalog.cz/kostel-sv-petra-a-pavla-13034409"/>
    <tag k="layer" v="1"/>
    <tag k="name" v="svatÃ½ Petr a Pavel"/>
    <tag k="name:cs" v="svatÃ½ Petr a Pavel"/>
    <tag k="name:de" v="Sankt Peter und Paul"/>
    <tag k="name:en" v="Saint Peter and Saint Paul"/>
    <tag k="name:ru" v="ÑÐ²ÑÑ‚Ð¾Ð¹ ÐŸÐµÑ‚Ñ€ Ð¸ ÐŸÐ°Ð²ÐµÐ»"/>
    <tag k="name:zh" v="åœ£å½¼å¾—å’Œåœ£ä¿ç½—æ•™å ‚"/>
    <tag k="official_name" v="Bazilika svatÃ©ho Petra a Pavla"/>
    <tag k="organ" v="yes"/>
    <tag k="ref:ruian:building" v="40355187"/>
    <tag k="religion" v="christian"/>
    <tag k="roof:material" v="slate"/>
    <tag k="service_times" v="Thu 18:00, Su 09:00"/>
    <tag k="source" v="cuzk:ruian"/>
    <tag k="wheelchair" v="no"/>
    <tag k="wikidata" v="Q2916171"/>
    <tag k="wikimedia_commons" v="Category:Church of Saints Peter and Paul (VyÅ¡ehrad)"/>
    <tag k="wikipedia" v="cs:Bazilika svatÃ©ho Petra a Pavla"/>
  </way>
  <way id="24457664" version="18" timestamp="2024-09-27T12:11:59Z" changeset="157168083" uid="17385839" user="Augustlej">
    <nd ref="12204894544"/>
    <nd ref="390376242"/>
    <nd ref="4701097415"/>
    <nd ref="25936260"/>
    <tag k="cycleway:both" v="no"/>
    <tag k="highway" v="residential"/>
    <tag k="lane_markings" v="no"/>
    <tag k="lit" v="yes"/>
    <tag k="name" v="BotiÄskÃ¡"/>
    <tag k="oneway" v="yes"/>
    <tag k="parking:both" v="no"/>
    <tag k="sidewalk:left" v="yes"/>
    <tag k="sidewalk:left:surface" v="sett"/>
    <tag k="sidewalk:right" v="separate"/>
    <tag k="smoothness" v="bad"/>
    <tag k="surface" v="sett"/>
  </way>
  <way id="24719311" version="13" timestamp="2024-09-27T12:45:30Z" changeset="157167788" uid="17385839" user="Augustlej">
    <nd ref="26230940"/>
    <nd ref="1033838007"/>
    <nd ref="26231028"/>
    <nd ref="8488554285"/>
    <nd ref="1293795014"/>
    <nd ref="1293795048"/>
    <nd ref="26231032"/>
    <nd ref="1293795101"/>
    <nd ref="390376247"/>
    <nd ref="26231035"/>
    <tag k="highway" v="residential"/>
    <tag k="lanes" v="2"/>
    <tag k="name" v="Vratislavova"/>
    <tag k="psv" v="no"/>
    <tag k="sidewalk:both" v="separate"/>
    <tag k="surface" v="sett"/>
  </way>
  <way id="25320858" version="34" timestamp="2025-05-14T19:02:37Z" changeset="166272745" uid="10224968" user="comfyquiettree">
    <nd ref="31792935"/>
    <nd ref="2038446691"/>
    <tag k="cycleway" v="shared_lane"/>
    <tag k="embedded_rails" v="tram"/>
    <tag k="highway" v="secondary"/>
    <tag k="lanes" v="2"/>
    <tag k="lit" v="yes"/>
    <tag k="maxspeed" v="30"/>
    <tag k="name" v="RaÅ¡Ã­novo nÃ¡bÅ™eÅ¾Ã­"/>
    <tag k="name:de" v="RaÅ¡Ã­n-Ufer"/>
    <tag k="name:ru" v="Ð½Ð°Ð±ÐµÑ€ÐµÐ¶Ð½Ð°Ñ Ð Ð°ÑˆÐ¸Ð½Ð¾Ð²Ð°"/>
    <tag k="overtaking" v="no"/>
    <tag k="sidewalk" v="separate"/>
    <tag k="smoothness" v="excellent"/>
    <tag k="surface" v="asphalt"/>
  </way>
  <way id="26658247" version="29" timestamp="2024-04-09T12:05:49Z" changeset="149774471" uid="1778799" user="SomeoneElse_Revert">
    <nd ref="3676872699"/>
    <nd ref="3676872700"/>
    <nd ref="292393084"/>
    <nd ref="3676872702"/>
    <tag k="highway" v="residential"/>
    <tag k="lanes" v="1"/>
    <tag k="lit" v="yes"/>
    <tag k="maxspeed" v="50"/>
    <tag k="name" v="RaÅ¡Ã­novo nÃ¡bÅ™eÅ¾Ã­"/>
    <tag k="name:cs" v="RaÅ¡Ã­novo nÃ¡bÅ™eÅ¾Ã­"/>
    <tag k="name:de" v="RaÅ¡Ã­n-Ufer"/>
    <tag k="name:ru" v="Ð½Ð°Ð±ÐµÑ€ÐµÐ¶Ð½Ð°Ñ Ð Ð°ÑˆÐ¸Ð½Ð¾Ð²Ð°"/>
    <tag k="source" v="uhul:ortofoto"/>
    <tag k="source:maxspeed" v="CZ:urban"/>
    <tag k="surface" v="asphalt"/>
  </way>
  <way id="31527175" version="8" timestamp="2024-11-01T21:46:05Z" changeset="158638205" uid="29717" user="eumiro">
    <nd ref="26231041"/>
    <nd ref="26231038"/>
    <tag k="cycleway:both" v="no"/>
    <tag k="highway" v="residential"/>
    <tag k="lanes" v="1"/>
    <tag k="lit" v="yes"/>
    <tag k="name" v="PÅ™emyslova"/>
    <tag k="oneway" v="yes"/>
    <tag k="sidewalk" v="both"/>
    <tag k="sidewalk:both:surface" v="asphalt"/>
    <tag k="smoothness" v="bad"/>
    <tag k="surface" v="sett"/>
  </way>
  <way id="32859696" version="13" timestamp="2025-04-23T17:57:17Z" changeset="165346118" uid="1221650" user="slukes">
    <nd ref="26230958"/>
    <nd ref="9349753873"/>
    <nd ref="12623272122"/>
    <nd ref="26230956"/>
    <nd ref="12198928497"/>
    <nd ref="12198928498"/>
    <nd ref="26230954"/>
    <nd ref="352824651"/>
    <nd ref="26230953"/>
    <nd ref="352824650"/>
    <nd ref="26230951"/>
    <tag k="cycleway:left" v="no"/>
    <tag k="cycleway:right" v="lane"/>
    <tag k="cycleway:right:lane" v="exclusive"/>
    <tag k="foot" v="no"/>
    <tag k="highway" v="tertiary"/>
    <tag k="lane_markings" v="yes"/>
    <tag k="lanes" v="2"/>
    <tag k="lit" v="yes"/>
    <tag k="name" v="Vnislavova"/>
    <tag k="oneway" v="no"/>
    <tag k="sidewalk" v="no"/>
    <tag k="surface" v="asphalt"/>
  </way>
  <way id="33281723" version="16" timestamp="2024-09-27T12:50:53Z" changeset="157167788" uid="17385839" user="Augustlej">
    <nd ref="1420894702"/>
    <nd ref="390517887"/>
    <tag k="cycleway:left" v="no"/>
    <tag k="cycleway:right" v="separate"/>
    <tag k="embedded_rails" v="tram"/>
    <tag k="highway" v="secondary"/>
    <tag k="lanes" v="2"/>
    <tag k="lit" v="yes"/>
    <tag k="name" v="Na Slupi"/>
    <tag k="sidewalk:both" v="separate"/>
    <tag k="source" v="Bing;cuzk"/>
    <tag k="surface" v="concrete"/>
  </way>
  <way id="34067460" version="13" timestamp="2024-11-04T12:44:48Z" changeset="158738229" uid="718054" user="Piskvor">
    <nd ref="390376222"/>
    <nd ref="390376221"/>
    <nd ref="3685146453"/>
    <nd ref="3685146449"/>
    <nd ref="4939978839"/>
    <nd ref="4939978841"/>
    <nd ref="390376232"/>
    <nd ref="4939978838"/>
    <nd ref="390376231"/>
    <nd ref="390376230"/>
    <nd ref="390376229"/>
    <nd ref="4939978834"/>
    <nd ref="4940057670"/>
    <nd ref="4939978833"/>
    <nd ref="390376228"/>
    <nd ref="390376227"/>
    <nd ref="390376226"/>
    <nd ref="4939978837"/>
    <nd ref="390376225"/>
    <nd ref="3685146437"/>
    <nd ref="4939978842"/>
    <nd ref="3685146433"/>
    <nd ref="3685146434"/>
    <nd ref="390376224"/>
    <nd ref="390376223"/>
    <nd ref="4939978830"/>
    <nd ref="4939978843"/>
    <nd ref="3406896779"/>
    <nd ref="4939978831"/>
    <nd ref="4939978832"/>
    <nd ref="4939978840"/>
    <nd ref="4939978844"/>
    <nd ref="4939978829"/>
    <nd ref="390376222"/>
    <tag k="abandoned" v="yes"/>
    <tag k="abandoned:building" v="transportation"/>
    <tag k="building" v="ruins"/>
    <tag k="building:flats" v="4"/>
    <tag k="building:levels" v="2"/>
    <tag k="building:ruian:type" v="17"/>
    <tag k="name" v="bÃ½valÃ© nÃ¡draÅ¾Ã­ Praha-VyÅ¡ehrad"/>
    <tag k="note" v="not in use, do not retag as building=transportation"/>
    <tag k="ref:ruian:building" v="21538921"/>
    <tag k="source" v="cuzk:ruian"/>
    <tag k="wikidata" v="Q12041536"/>
    <tag k="wikimedia_commons" v="Category:Praha-VyÅ¡ehrad (train station)"/>
    <tag k="wikipedia" v="cs:Praha-VyÅ¡ehrad (vÃ½hybna)"/>
  </way>
  <way id="49810437" version="7" timestamp="2017-06-21T12:42:44Z" changeset="49719715" uid="2169558" user="JandaM">
    <nd ref="632970735"/>
    <nd ref="632970740"/>
    <nd ref="632970747"/>
    <nd ref="4928780448"/>
    <nd ref="3392056388"/>
    <nd ref="632970716"/>
    <nd ref="632970721"/>
    <nd ref="4928780451"/>
    <nd ref="632970727"/>
    <nd ref="632970732"/>
    <nd ref="3392056246"/>
    <nd ref="4928780452"/>
    <nd ref="632970735"/>
    <tag k="building" v="civic"/>
    <tag k="building:flats" v="3"/>
    <tag k="building:levels" v="3"/>
    <tag k="building:ruian:type" v="5"/>
    <tag k="name" v="NovÃ© dÄ›kanstvÃ­"/>
    <tag k="name:en" v="The New Deanery"/>
    <tag k="ref:ruian:building" v="21539057"/>
    <tag k="source" v="cuzk:ruian"/>
  </way>
  <way id="49810585" version="11" timestamp="2023-08-09T17:10:29Z" changeset="139670383" uid="12500589" user="tg4567">
    <nd ref="632976275"/>
    <nd ref="632976281"/>
    <nd ref="632976316"/>
    <nd ref="632976313"/>
    <nd ref="632976275"/>
    <tag k="alt_name" v="Citadela"/>
    <tag k="building" v="civic"/>
    <tag k="building:levels" v="2"/>
    <tag k="building:ruian:type" v="15"/>
    <tag k="name" v="StarÃ© purkrabstvÃ­"/>
    <tag k="name:en" v="The Old Burgrave's Residence"/>
    <tag k="ref:ruian:building" v="25984519"/>
    <tag k="roof:material" v="roof_tiles"/>
    <tag k="roof:shape" v="gabled"/>
    <tag k="source" v="cuzk:ruian"/>
    <tag k="start_date" v="2006-05-18"/>
    <tag k="wikidata" v="Q96357469"/>
    <tag k="wikimedia_commons" v="Category:StarÃ© purkrabstvÃ­ (VyÅ¡ehrad)"/>
    <tag k="wikipedia" v="cs:StarÃ© purkrabstvÃ­ (VyÅ¡ehrad)"/>
  </way>
  <way id="49810587" version="5" timestamp="2016-10-03T19:51:09Z" changeset="42614037" uid="366321" user="Peter Bremer">
    <nd ref="632976426"/>
    <nd ref="632976389"/>
    <nd ref="3392056275"/>
    <nd ref="632976392"/>
    <nd ref="632976396"/>
    <nd ref="632976398"/>
    <nd ref="632976401"/>
    <nd ref="632976404"/>
    <nd ref="3916798022"/>
    <nd ref="3916798021"/>
    <nd ref="632976407"/>
    <nd ref="3916798020"/>
    <nd ref="3916798019"/>
    <nd ref="3916798018"/>
    <nd ref="632976410"/>
    <nd ref="3916798017"/>
    <nd ref="3916798016"/>
    <nd ref="632976412"/>
    <nd ref="632976424"/>
    <nd ref="3685145496"/>
    <nd ref="632976428"/>
    <nd ref="632976426"/>
    <tag k="building" v="civic"/>
    <tag k="building:levels" v="3"/>
    <tag k="building:ruian:type" v="5"/>
    <tag k="name" v="StarÃ© dÄ›kanstvÃ­"/>
    <tag k="name:en" v="The Old Deanery"/>
    <tag k="ref:ruian:building" v="21538409"/>
    <tag k="roof:shape" v="hipped"/>
    <tag k="source" v="cuzk:ruian"/>
  </way>
  <way id="49810588" version="23" timestamp="2023-08-21T19:40:27Z" changeset="140198197" uid="19233464" user="secondaryhighway">
    <nd ref="632976384"/>
    <nd ref="293509700"/>
    <nd ref="3685145496"/>
    <nd ref="632976424"/>
    <nd ref="632976431"/>
    <nd ref="632976384"/>
    <tag k="addr:housenumber" v="1"/>
    <tag k="alt_name" v="Bazilika svatÃ©ho VavÅ™ince"/>
    <tag k="amenity" v="place_of_worship"/>
    <tag k="building" v="civic"/>
    <tag k="building:levels" v="2"/>
    <tag k="building:ruian:type" v="5"/>
    <tag k="denomination" v="roman_catholic"/>
    <tag k="historic" v="ruins"/>
    <tag k="name" v="svatÃ½ VavÅ™inec"/>
    <tag k="name:en" v="Saint Lawrence"/>
    <tag k="name:ru" v="ÑÐ²ÑÑ‚Ð¾Ð¹ Ð›Ð°Ð²Ñ€ÐµÐ½Ñ‚Ð¸Ð¹"/>
    <tag k="official_name" v="Kostel svatÃ©ho VavÅ™ince"/>
    <tag k="ref:ruian:building" v="42671388"/>
    <tag k="religion" v="christian"/>
    <tag k="roof:levels" v="1"/>
    <tag k="source" v="cuzk:ruian"/>
  </way>
  <way id="49810592" version="5" timestamp="2025-04-07T07:10:55Z" changeset="164619370" uid="153719" user="mcepl">
    <nd ref="632976452"/>
    <nd ref="632976455"/>
    <nd ref="3475173909"/>
    <nd ref="632976459"/>
    <nd ref="632976461"/>
    <nd ref="632976477"/>
    <nd ref="4961327773"/>
    <nd ref="4961327775"/>
    <nd ref="4961327774"/>
    <nd ref="632976452"/>
    <tag k="addr:city" v="Praha"/>
    <tag k="addr:country" v="CZ"/>
    <tag k="addr:housenumber" v="3"/>
    <tag k="addr:place" v="VyÅ¡ehrad"/>
    <tag k="addr:postcode" v="12800"/>
    <tag k="addr:street" v="KÂ RotundÄ›"/>
    <tag k="addr:suburb" v="Praha 2"/>
    <tag k="amenity" v="restaurant"/>
    <tag k="building" v="yes"/>
    <tag k="cuisine" v="coffee_shop"/>
    <tag k="indoor_seating" v="yes"/>
    <tag k="internet_access" v="wlan"/>
    <tag k="internet_access:fee" v="no"/>
    <tag k="name" v="BystroÂ CafÃ©"/>
    <tag k="opening_hours" v="Mo-Su 10:00-20:00"/>
    <tag k="outdoor_seating" v="yes"/>
    <tag k="phone" v="+420 724870080"/>
    <tag k="smoking" v="separated"/>
    <tag k="source" v="cuzk:km;pr"/>
    <tag k="website" v="https://www.bystrocafe.cz"/>
    <tag k="wheelchair" v="no"/>
  </way>
  <way id="49810594" version="9" timestamp="2017-07-04T07:38:58Z" changeset="50026771" uid="2169558" user="JandaM">
    <nd ref="632976484"/>
    <nd ref="3809564005"/>
    <nd ref="632976486"/>
    <nd ref="4553658306"/>
    <nd ref="4950373284"/>
    <nd ref="4553658305"/>
    <nd ref="632976492"/>
    <nd ref="632976488"/>
    <nd ref="632976489"/>
    <nd ref="632976491"/>
    <nd ref="4553665256"/>
    <nd ref="632976480"/>
    <nd ref="632976482"/>
    <nd ref="632976484"/>
    <tag k="building" v="residential"/>
    <tag k="building:levels" v="2"/>
    <tag k="building:ruian:type" v="3"/>
    <tag k="name" v="StarÃ© proboÅ¡tstvÃ­"/>
    <tag k="name:en" v="The Old Provost's Residence"/>
    <tag k="ref:ruian:building" v="21538816"/>
    <tag k="source" v="cuzk:ruian"/>
  </way>
  <way id="49810596" version="8" timestamp="2024-03-14T11:50:31Z" changeset="148637675" uid="4118865" user="Radfahrer_64832Kernstadt">
    <nd ref="659676040"/>
    <nd ref="659676041"/>
    <nd ref="659676042"/>
    <nd ref="659676043"/>
    <nd ref="659676044"/>
    <nd ref="632976497"/>
    <nd ref="659676035"/>
    <nd ref="659676045"/>
    <nd ref="632976498"/>
    <nd ref="632976501"/>
    <nd ref="659676036"/>
    <nd ref="632976502"/>
    <nd ref="632976504"/>
    <nd ref="632976507"/>
    <nd ref="632976519"/>
    <nd ref="632976521"/>
    <nd ref="4543191733"/>
    <nd ref="632976564"/>
    <nd ref="632976567"/>
    <nd ref="632976570"/>
    <nd ref="659676074"/>
    <nd ref="659676075"/>
    <nd ref="632976550"/>
    <nd ref="632976558"/>
    <nd ref="632976560"/>
    <nd ref="632976561"/>
    <nd ref="659676077"/>
    <nd ref="659676076"/>
    <nd ref="632976572"/>
    <nd ref="632976574"/>
    <nd ref="632976576"/>
    <nd ref="659676071"/>
    <nd ref="659676073"/>
    <nd ref="632976537"/>
    <nd ref="632976538"/>
    <nd ref="632976540"/>
    <nd ref="4543191762"/>
    <nd ref="632976530"/>
    <nd ref="632976529"/>
    <nd ref="632976494"/>
    <nd ref="659676048"/>
    <nd ref="659676047"/>
    <nd ref="659676049"/>
    <nd ref="659676050"/>
    <nd ref="632976524"/>
    <nd ref="632976525"/>
    <nd ref="659676046"/>
    <nd ref="632976527"/>
    <nd ref="659676037"/>
    <nd ref="659676038"/>
    <nd ref="632976495"/>
    <nd ref="659676039"/>
    <nd ref="659676040"/>
    <tag k="building" v="civic"/>
    <tag k="building:levels" v="3"/>
    <tag k="building:ruian:type" v="5"/>
    <tag k="name" v="NovÃ© proboÅ¡tstvÃ­"/>
    <tag k="name:en" v="The New Provost's Residence"/>
    <tag k="ref:ruian:building" v="21538948"/>
    <tag k="roof:levels" v="1"/>
    <tag k="roof:shape" v="hipped"/>
    <tag k="source" v="cuzk:ruian"/>
  </way>
  <way id="49810652" version="9" timestamp="2024-11-04T22:29:33Z" changeset="158759062" uid="8420724" user="VojtaFilip">
    <nd ref="632982092"/>
    <nd ref="632981938"/>
    <nd ref="632981941"/>
    <nd ref="632981973"/>
    <nd ref="632981971"/>
    <nd ref="3615466845"/>
    <nd ref="632982211"/>
    <nd ref="632982212"/>
    <nd ref="4940404171"/>
    <nd ref="4940404175"/>
    <nd ref="4940404169"/>
    <nd ref="632982227"/>
    <nd ref="4016973330"/>
    <nd ref="632982215"/>
    <nd ref="632982216"/>
    <nd ref="3685146097"/>
    <nd ref="632982219"/>
    <nd ref="3685146099"/>
    <nd ref="4940329078"/>
    <nd ref="632982223"/>
    <nd ref="3685146098"/>
    <nd ref="632982224"/>
    <nd ref="4940329077"/>
    <nd ref="4940329084"/>
    <nd ref="4940329076"/>
    <nd ref="632982253"/>
    <nd ref="3685146082"/>
    <nd ref="632982255"/>
    <nd ref="3685146081"/>
    <nd ref="632982229"/>
    <nd ref="3685146080"/>
    <nd ref="3685146079"/>
    <nd ref="632982232"/>
    <nd ref="632982233"/>
    <nd ref="632982239"/>
    <nd ref="4940404174"/>
    <nd ref="3685145924"/>
    <nd ref="3685145923"/>
    <nd ref="4940329067"/>
    <nd ref="632982247"/>
    <nd ref="632982093"/>
    <nd ref="632982251"/>
    <nd ref="632982249"/>
    <nd ref="632982237"/>
    <nd ref="4940329083"/>
    <nd ref="632982206"/>
    <nd ref="4940329085"/>
    <nd ref="632982092"/>
    <tag k="addr:city" v="Praha"/>
    <tag k="addr:housenumber" v="6"/>
    <tag k="addr:postcode" v="12800"/>
    <tag k="addr:street" v="Vratislavova"/>
    <tag k="amenity" v="school"/>
    <tag k="building" v="civic"/>
    <tag k="building:flats" v="1"/>
    <tag k="building:levels" v="4"/>
    <tag k="building:ruian:type" v="5"/>
    <tag k="check_date" v="2024-11-04"/>
    <tag k="name" v="OdbornÃ© uÄiliÅ¡tÄ› VyÅ¡ehrad"/>
    <tag k="ref:ruian:building" v="21538557"/>
    <tag k="source" v="cuzk:ruian"/>
    <tag k="wikidata" v="Q15715652"/>
  </way>
  <way id="49810659" version="7" timestamp="2024-11-26T16:08:00Z" changeset="159623747" uid="100163" user="Hlav">
    <nd ref="632982078"/>
    <nd ref="632982080"/>
    <nd ref="3685145904"/>
    <nd ref="3685145905"/>
    <nd ref="632982083"/>
    <nd ref="632982251"/>
    <nd ref="632982093"/>
    <nd ref="632982247"/>
    <nd ref="4940329067"/>
    <nd ref="3685145923"/>
    <nd ref="3685145924"/>
    <nd ref="4940404174"/>
    <nd ref="632982239"/>
    <nd ref="3685146044"/>
    <nd ref="3685146045"/>
    <nd ref="632982256"/>
    <nd ref="3685146028"/>
    <nd ref="632982258"/>
    <nd ref="632982089"/>
    <nd ref="632982078"/>
    <tag k="amenity" v="office"/>
    <tag k="building" v="civic"/>
    <tag k="building:flats" v="6"/>
    <tag k="building:levels" v="4"/>
    <tag k="building:ruian:type" v="5"/>
    <tag k="denomination" v="czech_hussite"/>
    <tag k="name" v="FarnÃ­ ÃºÅ™ad CÃ­rkve ÄeskoslovenskÃ© husitskÃ©"/>
    <tag k="ref:ruian:building" v="21538549"/>
    <tag k="religion" v="christian"/>
    <tag k="source" v="cuzk:ruian"/>
  </way>
  <way id="49810675" version="8" timestamp="2023-08-09T17:10:29Z" changeset="139670383" uid="12500589" user="tg4567">
    <nd ref="632983276"/>
    <nd ref="632983278"/>
    <nd ref="632983280"/>
    <nd ref="632983281"/>
    <nd ref="632983306"/>
    <nd ref="632983271"/>
    <nd ref="632983273"/>
    <nd ref="632983260"/>
    <nd ref="3392059157"/>
    <nd ref="632983262"/>
    <nd ref="4940329056"/>
    <nd ref="632983275"/>
    <nd ref="632983276"/>
    <tag k="building" v="civic"/>
    <tag k="building:flats" v="2"/>
    <tag k="building:levels" v="3"/>
    <tag k="building:ruian:type" v="5"/>
    <tag k="leisure" v="sports_centre"/>
    <tag k="name" v="Sokol VyÅ¡ehrad"/>
    <tag k="ref:ruian:building" v="21538778"/>
    <tag k="source" v="cuzk:ruian"/>
    <tag k="wikidata" v="Q64986315"/>
    <tag k="wikimedia_commons" v="Category:Sokol house in VyÅ¡ehrad"/>
  </way>
  <way id="49810678" version="11" timestamp="2023-08-09T17:10:29Z" changeset="139670383" uid="12500589" user="tg4567">
    <nd ref="3685146040"/>
    <nd ref="3685146043"/>
    <nd ref="3685146041"/>
    <nd ref="3685146039"/>
    <nd ref="632983324"/>
    <nd ref="632983325"/>
    <nd ref="3685146053"/>
    <nd ref="632983327"/>
    <nd ref="3392061227"/>
    <nd ref="3392061168"/>
    <nd ref="632983355"/>
    <nd ref="632983292"/>
    <nd ref="632983294"/>
    <nd ref="632983299"/>
    <nd ref="632983301"/>
    <nd ref="632983304"/>
    <nd ref="632983291"/>
    <nd ref="3685145908"/>
    <nd ref="3685145910"/>
    <nd ref="632983317"/>
    <nd ref="3685145919"/>
    <nd ref="3685145920"/>
    <nd ref="3685145921"/>
    <nd ref="632983319"/>
    <nd ref="3685145922"/>
    <nd ref="3685146026"/>
    <nd ref="3685146027"/>
    <nd ref="632983321"/>
    <nd ref="4940329063"/>
    <nd ref="3685146033"/>
    <nd ref="632983322"/>
    <nd ref="3685146034"/>
    <nd ref="3685146040"/>
    <tag k="architect" v="BedÅ™ich KovaÅ™ovic"/>
    <tag k="building" v="civic"/>
    <tag k="building:architecture" v="cubism"/>
    <tag k="building:colour" v="white"/>
    <tag k="building:levels" v="3"/>
    <tag k="building:ruian:type" v="5"/>
    <tag k="name" v="KovaÅ™ovicova vila"/>
    <tag k="name:es" v="Casas cubistas"/>
    <tag k="ref:ruian:building" v="21538671"/>
    <tag k="roof:material" v="roof_tiles"/>
    <tag k="roof:shape" v="pyramidal"/>
    <tag k="source" v="cuzk:ruian"/>
    <tag k="start_date" v="1913"/>
    <tag k="wikidata" v="Q23210476"/>
    <tag k="wikimedia_commons" v="Category:KovaÅ™ovicova vila"/>
    <tag k="wikipedia" v="cs:KovaÅ™ovicova vila"/>
  </way>
  <way id="49810695" version="5" timestamp="2023-03-11T21:40:35Z" changeset="133568341" uid="25867" user="adamos">
    <nd ref="10728477907"/>
    <nd ref="10728477906"/>
    <nd ref="10728477905"/>
    <nd ref="632985651"/>
    <nd ref="632985652"/>
    <nd ref="632985655"/>
    <nd ref="4939978854"/>
    <nd ref="4939978859"/>
    <nd ref="632985644"/>
    <nd ref="632985627"/>
    <nd ref="632985630"/>
    <nd ref="632985632"/>
    <nd ref="632985634"/>
    <nd ref="632985517"/>
    <nd ref="4939978860"/>
    <nd ref="632985800"/>
    <nd ref="3693562146"/>
    <nd ref="3693562145"/>
    <nd ref="632985793"/>
    <nd ref="632985794"/>
    <nd ref="3615466846"/>
    <nd ref="632985790"/>
    <nd ref="3693562151"/>
    <nd ref="3693562152"/>
    <nd ref="632985816"/>
    <nd ref="10728477907"/>
    <tag k="addr:city" v="Praha"/>
    <tag k="addr:housenumber" v="13"/>
    <tag k="addr:postcode" v="12800"/>
    <tag k="addr:street" v="Vratislavova"/>
    <tag k="amenity" v="school"/>
    <tag k="building" v="civic"/>
    <tag k="building:flats" v="1"/>
    <tag k="building:levels" v="4"/>
    <tag k="building:ruian:type" v="5"/>
    <tag k="name" v="ZÅ  Vratislavova"/>
    <tag k="ref:ruian:building" v="21538760"/>
    <tag k="source" v="cuzk:ruian"/>
  </way>
  <way id="49811189" version="33" timestamp="2024-04-10T10:27:48Z" changeset="149810078" uid="10932047" user="AF HAF KARTOGRAF">
    <nd ref="4532490476"/>
    <nd ref="1715904592"/>
    <nd ref="633000797"/>
    <nd ref="1715904591"/>
    <nd ref="633000799"/>
    <nd ref="633000801"/>
    <nd ref="3392054677"/>
    <nd ref="633000803"/>
    <nd ref="4532490471"/>
    <nd ref="1084343498"/>
    <nd ref="4532490478"/>
    <nd ref="3392054821"/>
    <nd ref="1715904593"/>
    <nd ref="4532490476"/>
    <tag k="addr:conscriptionnumber" v="35"/>
    <tag k="addr:housenumber" v="35/11"/>
    <tag k="addr:postcode" v="12800"/>
    <tag k="addr:street" v="VÂ Pevnosti"/>
    <tag k="addr:streetnumber" v="11"/>
    <tag k="building" v="yes"/>
    <tag k="height" v="9"/>
    <tag k="historic" v="city_gate"/>
    <tag k="layer" v="1"/>
    <tag k="min_height" v="3"/>
    <tag k="name" v="TÃ¡borskÃ¡ brÃ¡na"/>
    <tag k="name:cs" v="TÃ¡borskÃ¡ brÃ¡na"/>
    <tag k="name:ru" v="Ñ‚Ð°Ð±Ð¾Ñ€ÑÐºÐ¸Ðµ Ð²Ð¾Ñ€Ð¾Ñ‚Ð°"/>
    <tag k="roof:colour" v="red"/>
    <tag k="roof:height" v="3"/>
    <tag k="roof:shape" v="hipped"/>
    <tag k="source" v="cuzk:km"/>
    <tag k="source:addr" v="cuzk:ruian"/>
    <tag k="wikidata" v="Q65007000"/>
    <tag k="wikimedia_commons" v="Category:TÃ¡borskÃ¡ brÃ¡na"/>
    <tag k="wikipedia" v="cs:TÃ¡borskÃ¡ brÃ¡na"/>
  </way>
  <way id="49811192" version="12" timestamp="2024-04-10T10:27:48Z" changeset="149810078" uid="10932047" user="AF HAF KARTOGRAF">
    <nd ref="633000850"/>
    <nd ref="4930755215"/>
    <nd ref="4930755218"/>
    <nd ref="3406896773"/>
    <nd ref="3406896771"/>
    <nd ref="693177438"/>
    <nd ref="4930755213"/>
    <nd ref="3406896772"/>
    <nd ref="2532482770"/>
    <nd ref="3406896765"/>
    <nd ref="3406896764"/>
    <nd ref="3406896762"/>
    <nd ref="3406896763"/>
    <nd ref="693177440"/>
    <nd ref="633000827"/>
    <nd ref="4930758132"/>
    <nd ref="4930758133"/>
    <nd ref="633000847"/>
    <nd ref="633000853"/>
    <nd ref="3406896770"/>
    <nd ref="3406896767"/>
    <nd ref="3406896766"/>
    <nd ref="633000813"/>
    <nd ref="4930755212"/>
    <nd ref="4930755210"/>
    <nd ref="633000818"/>
    <nd ref="633000880"/>
    <nd ref="2395877153"/>
    <nd ref="633000850"/>
    <tag k="addr:conscriptionnumber" v="13"/>
    <tag k="addr:housenumber" v="13/4"/>
    <tag k="addr:place" v="VyÅ¡ehrad"/>
    <tag k="addr:postcode" v="12800"/>
    <tag k="addr:street" v="VÂ Pevnosti"/>
    <tag k="addr:streetnumber" v="4"/>
    <tag k="addr:suburb" v="Praha 2"/>
    <tag k="amenity" v="school"/>
    <tag k="building" v="yes"/>
    <tag k="building:levels" v="3"/>
    <tag k="name" v="JedliÄkÅ¯v Ãºstav a Å¡koly"/>
    <tag k="name:en" v="JedliÄka Institute and Schools"/>
    <tag k="source" v="cuzk:km"/>
    <tag k="wheelchair" v="yes"/>
    <tag k="wikidata" v="Q12024373"/>
    <tag k="wikimedia_commons" v="Category:JedliÄkÅ¯v Ãºstav"/>
    <tag k="wikipedia" v="cs:JedliÄkÅ¯v Ãºstav"/>
  </way>
  <way id="49811193" version="7" timestamp="2017-06-22T12:26:08Z" changeset="49745528" uid="2169558" user="JandaM">
    <nd ref="633000892"/>
    <nd ref="633000886"/>
    <nd ref="633000888"/>
    <nd ref="633000890"/>
    <nd ref="4543191795"/>
    <nd ref="633000876"/>
    <nd ref="633000857"/>
    <nd ref="633000878"/>
    <nd ref="633000858"/>
    <nd ref="4883335616"/>
    <nd ref="4930758121"/>
    <nd ref="633000892"/>
    <tag k="building" v="yes"/>
    <tag k="building:flats" v="2"/>
    <tag k="building:levels" v="1"/>
    <tag k="building:ruian:type" v="19"/>
    <tag k="name" v="dÅ¯m Popelky BiliÃ¡novÃ©"/>
    <tag k="name:en" v="The House of Popelka BiliÃ¡novÃ¡"/>
    <tag k="ref:ruian:building" v="21538387"/>
    <tag k="source" v="cuzk:ruian"/>
  </way>
  <way id="49811195" version="11" timestamp="2023-08-09T17:10:29Z" changeset="139670383" uid="12500589" user="tg4567">
    <nd ref="3392055215"/>
    <nd ref="3392055166"/>
    <nd ref="633000862"/>
    <nd ref="3406793311"/>
    <nd ref="3406793310"/>
    <nd ref="3406793312"/>
    <nd ref="3406793314"/>
    <nd ref="3406793315"/>
    <nd ref="3406793313"/>
    <nd ref="3406793316"/>
    <nd ref="3406793317"/>
    <nd ref="3406793319"/>
    <nd ref="3406793318"/>
    <nd ref="3406793321"/>
    <nd ref="3406793320"/>
    <nd ref="3406793322"/>
    <nd ref="3406793323"/>
    <nd ref="633000864"/>
    <nd ref="4543191798"/>
    <nd ref="3406793324"/>
    <nd ref="3392055215"/>
    <tag k="building" v="yes"/>
    <tag k="description" v="zbytky gotickÃ© brÃ¡ny Å piÄka"/>
    <tag k="historic" v="city_gate"/>
    <tag k="name" v="Å piÄka"/>
    <tag k="name:en" v="The Remains of the Gothic &quot;Å piÄka&quot; (Peak) Gate"/>
    <tag k="roof:material" v="metal"/>
    <tag k="roof:shape" v="flat"/>
    <tag k="source" v="cuzk:km"/>
    <tag k="wikidata" v="Q21711934"/>
    <tag k="wikimedia_commons" v="Category:Å piÄka (gate remains)"/>
    <tag k="wikipedia" v="cs:Å piÄka (brÃ¡na)"/>
  </way>
  <way id="51700613" version="20" timestamp="2024-11-01T21:46:09Z" changeset="158638197" uid="29717" user="eumiro">
    <nd ref="659943653"/>
    <nd ref="659943651"/>
    <nd ref="659943652"/>
    <nd ref="3392057859"/>
    <nd ref="8821051313"/>
    <nd ref="676786955"/>
    <nd ref="4867002114"/>
    <nd ref="659943649"/>
    <nd ref="659943647"/>
    <nd ref="659943646"/>
    <nd ref="659943648"/>
    <nd ref="659943645"/>
    <nd ref="4867002115"/>
    <nd ref="676786956"/>
    <nd ref="8821051312"/>
    <nd ref="659943644"/>
    <nd ref="659943653"/>
    <tag k="building" v="civic"/>
    <tag k="building:levels" v="2"/>
    <tag k="building:ruian:type" v="5"/>
    <tag k="height" v="12"/>
    <tag k="historic" v="city_gate"/>
    <tag k="layer" v="1"/>
    <tag k="material" v="brick"/>
    <tag k="name" v="CihelnÃ¡ brÃ¡na"/>
    <tag k="name:en" v="Brick Gate"/>
    <tag k="ref:ruian:building" v="21538646"/>
    <tag k="roof:levels" v="0"/>
    <tag k="roof:material" v="grass"/>
    <tag k="source" v="cuzk:ruian"/>
    <tag k="wikidata" v="Q65006969"/>
    <tag k="wikimedia_commons" v="Category:CihelnÃ¡ brÃ¡na"/>
    <tag k="wikipedia" v="cs:CihelnÃ¡ brÃ¡na"/>
  </way>
  <way id="51718887" version="11" timestamp="2023-08-09T17:10:29Z" changeset="139670383" uid="12500589" user="tg4567">
    <nd ref="660103130"/>
    <nd ref="4543191778"/>
    <nd ref="4867002876"/>
    <nd ref="4867002872"/>
    <nd ref="4867002885"/>
    <nd ref="660103126"/>
    <nd ref="1715904659"/>
    <nd ref="1715904658"/>
    <nd ref="660103122"/>
    <nd ref="660103123"/>
    <nd ref="1715904677"/>
    <nd ref="660103124"/>
    <nd ref="1715904660"/>
    <nd ref="660103125"/>
    <nd ref="4867002884"/>
    <nd ref="4867002871"/>
    <nd ref="4867002875"/>
    <nd ref="660103128"/>
    <nd ref="660103129"/>
    <nd ref="660103127"/>
    <nd ref="1715904679"/>
    <nd ref="1715904675"/>
    <nd ref="1715904672"/>
    <nd ref="1715904673"/>
    <nd ref="1715904661"/>
    <nd ref="660103130"/>
    <tag k="building" v="yes"/>
    <tag k="historic" v="city_gate"/>
    <tag k="layer" v="1"/>
    <tag k="name" v="Leopoldova brÃ¡na"/>
    <tag k="name:en" v="The Leopold Gate"/>
    <tag k="source" v="cuzk:km"/>
    <tag k="wikidata" v="Q65006977"/>
    <tag k="wikimedia_commons" v="Category:Leopoldova brÃ¡na"/>
    <tag k="wikipedia" v="cs:Leopoldova brÃ¡na"/>
  </way>
  <way id="83145746" version="37" timestamp="2024-04-09T12:05:03Z" changeset="149774429" uid="1778799" user="SomeoneElse_Revert">
    <nd ref="9349741981"/>
    <nd ref="25936432"/>
    <nd ref="8520435987"/>
    <nd ref="8520435988"/>
    <nd ref="1330852193"/>
    <nd ref="5279180943"/>
    <nd ref="8520435999"/>
    <nd ref="360349495"/>
    <nd ref="8520435986"/>
    <nd ref="8520435993"/>
    <nd ref="8810822"/>
    <tag k="embedded_rails" v="tram"/>
    <tag k="highway" v="secondary"/>
    <tag k="lanes" v="2"/>
    <tag k="name" v="Svobodova"/>
    <tag k="name:ru" v="ÑƒÐ»Ð¸Ñ†Ð° Ð¡Ð²Ð¾Ð±Ð¾Ð´Ð¾Ð²Ð°"/>
    <tag k="oneway" v="no"/>
    <tag k="sidewalk" v="separate"/>
    <tag k="surface" v="asphalt"/>
  </way>
  <way id="89123948" version="4" timestamp="2025-03-24T19:53:06Z" changeset="164049526" uid="1221650" user="slukes">
    <nd ref="26231041"/>
    <nd ref="1033838017"/>
    <tag k="cycleway:both" v="no"/>
    <tag k="highway" v="residential"/>
    <tag k="lanes" v="1"/>
    <tag k="lit" v="yes"/>
    <tag k="name" v="Neklanova"/>
    <tag k="oneway" v="yes"/>
    <tag k="surface" v="asphalt"/>
  </way>
  <way id="89123953" version="8" timestamp="2025-03-24T19:55:53Z" changeset="164049490" uid="1221650" user="slukes">
    <nd ref="1033838017"/>
    <nd ref="270565463"/>
    <nd ref="8483013474"/>
    <nd ref="8483013480"/>
    <nd ref="270565462"/>
    <nd ref="2644777954"/>
    <tag k="cycleway:both" v="no"/>
    <tag k="highway" v="residential"/>
    <tag k="lanes" v="1"/>
    <tag k="lit" v="yes"/>
    <tag k="name" v="Neklanova"/>
    <tag k="oneway" v="yes"/>
    <tag k="parking:left" v="half_on_kerb"/>
    <tag k="parking:left:orientation" v="diagonal"/>
    <tag k="parking:right" v="lane"/>
    <tag k="parking:right:orientation" v="parallel"/>
    <tag k="sidewalk:left" v="no"/>
    <tag k="sidewalk:right" v="separate"/>
  </way>
  <way id="100906495" version="10" timestamp="2025-02-27T13:22:16Z" changeset="163012335" uid="718054" user="Piskvor">
    <nd ref="293012305"/>
    <nd ref="26230945"/>
    <nd ref="12623288259"/>
    <nd ref="9349741970"/>
    <nd ref="1033837975"/>
    <nd ref="26230944"/>
    <tag k="highway" v="tertiary"/>
    <tag k="lanes" v="2"/>
    <tag k="name" v="Vnislavova"/>
    <tag k="sidewalk:both" v="separate"/>
    <tag k="surface" v="sett"/>
  </way>
  <way id="118322527" version="17" timestamp="2024-09-27T12:44:45Z" changeset="157167788" uid="17385839" user="Augustlej">
    <nd ref="1308345034"/>
    <nd ref="8279333916"/>
    <nd ref="8279333908"/>
    <nd ref="8520784640"/>
    <tag k="embedded_rails" v="tram"/>
    <tag k="highway" v="tertiary"/>
    <tag k="lanes" v="2"/>
    <tag k="lit" v="yes"/>
    <tag k="name" v="Na Slupi"/>
    <tag k="oneway" v="no"/>
    <tag k="sidewalk:both" v="separate"/>
    <tag k="smoothness" v="good"/>
    <tag k="source" v="Bing"/>
    <tag k="surface" v="asphalt"/>
  </way>
  <way id="118322536" version="8" timestamp="2025-01-29T16:10:56Z" changeset="161903817" uid="6695514" user="arik123max">
    <nd ref="1030989601"/>
    <nd ref="3676872938"/>
    <tag k="highway" v="tertiary"/>
    <tag k="lanes" v="1"/>
    <tag k="lit" v="yes"/>
    <tag k="name" v="Vnislavova"/>
    <tag k="oneway" v="yes"/>
    <tag k="oneway:bicycle" v="yes"/>
    <tag k="smoothness" v="excellent"/>
    <tag k="surface" v="asphalt"/>
    <tag k="turn:lanes" v="right"/>
  </way>
  <way id="118322543" version="7" timestamp="2025-01-09T19:52:27Z" changeset="161182528" uid="284094" user="woy_cb">
    <nd ref="390376245"/>
    <nd ref="4701097717"/>
    <nd ref="25936512"/>
    <tag k="highway" v="tertiary"/>
    <tag k="lanes" v="2"/>
    <tag k="maxheight" v="4.0"/>
    <tag k="sidewalk" v="separate"/>
    <tag k="surface" v="asphalt"/>
    <tag k="turn:lanes:forward" v="through;right"/>
  </way>
  <way id="128619067" version="12" timestamp="2024-11-06T11:31:04Z" changeset="158814095" uid="8971394" user="vojtechzaboril">
    <nd ref="293525133"/>
    <nd ref="8520783415"/>
    <nd ref="8520784651"/>
    <tag k="cycleway:right" v="no"/>
    <tag k="embedded_rails" v="tram"/>
    <tag k="highway" v="secondary"/>
    <tag k="lanes" v="1"/>
    <tag k="lit" v="yes"/>
    <tag k="name" v="Na Slupi"/>
    <tag k="oneway" v="yes"/>
    <tag k="surface" v="concrete"/>
  </way>
  <way id="131487674" version="8" timestamp="2025-04-23T17:58:31Z" changeset="165346170" uid="1221650" user="slukes">
    <nd ref="26230962"/>
    <nd ref="12623272123"/>
    <nd ref="9349753874"/>
    <nd ref="26230958"/>
    <tag k="cycleway:left" v="no"/>
    <tag k="cycleway:right" v="lane"/>
    <tag k="cycleway:right:lane" v="exclusive"/>
    <tag k="foot" v="no"/>
    <tag k="highway" v="tertiary"/>
    <tag k="lanes" v="2"/>
    <tag k="lanes:backward" v="1"/>
    <tag k="lanes:forward" v="1"/>
    <tag k="lit" v="yes"/>
    <tag k="name" v="Vnislavova"/>
    <tag k="oneway" v="no"/>
    <tag k="sidewalk" v="no"/>
    <tag k="surface" v="asphalt"/>
  </way>
  <way id="141514475" version="8" timestamp="2025-03-24T19:47:04Z" changeset="164049282" uid="1221650" user="slukes">
    <nd ref="26230944"/>
    <nd ref="390376246"/>
    <nd ref="1825431311"/>
    <nd ref="26230949"/>
    <tag k="foot" v="yes"/>
    <tag k="highway" v="tertiary"/>
    <tag k="lanes:backward" v="2"/>
    <tag k="lanes:forward" v="1"/>
    <tag k="lit" v="yes"/>
    <tag k="name" v="Vnislavova"/>
    <tag k="sidewalk:both" v="separate"/>
    <tag k="smoothness" v="bad"/>
    <tag k="surface" v="sett"/>
    <tag k="turn:lanes:backward" v="through|right"/>
  </way>
  <way id="167980630" version="6" timestamp="2025-04-23T17:59:54Z" changeset="165346170" uid="1221650" user="slukes">
    <nd ref="26230962"/>
    <nd ref="8483013439"/>
    <nd ref="8483013426"/>
    <nd ref="8483013432"/>
    <nd ref="26230965"/>
    <nd ref="348096290"/>
    <nd ref="26230966"/>
    <nd ref="8483013460"/>
    <nd ref="8483013453"/>
    <nd ref="8483013446"/>
    <nd ref="26230969"/>
    <nd ref="348096294"/>
    <tag k="cycleway:both" v="no"/>
    <tag k="foot" v="no"/>
    <tag k="highway" v="tertiary"/>
    <tag k="lanes" v="2"/>
    <tag k="lit" v="yes"/>
    <tag k="maxspeed" v="50"/>
    <tag k="name" v="Vnislavova"/>
    <tag k="oneway" v="no"/>
    <tag k="sidewalk" v="no"/>
    <tag k="surface" v="asphalt"/>
  </way>
  <way id="180964438" version="11" timestamp="2024-09-27T12:44:26Z" changeset="157167788" uid="17385839" user="Augustlej">
    <nd ref="1308345034"/>
    <nd ref="8521978651"/>
    <nd ref="5279211340"/>
    <nd ref="8521978652"/>
    <nd ref="8520470160"/>
    <nd ref="8520470159"/>
    <nd ref="1914106490"/>
    <tag k="cycleway:right" v="no"/>
    <tag k="highway" v="tertiary"/>
    <tag k="lane_markings" v="no"/>
    <tag k="name" v="Na Slupi"/>
    <tag k="oneway" v="yes"/>
    <tag k="sidewalk:right" v="separate"/>
    <tag k="source" v="Bing"/>
    <tag k="surface" v="asphalt"/>
  </way>
  <way id="180964439" version="14" timestamp="2024-09-01T06:05:48Z" changeset="156039838" uid="6739817" user="rayleigh1">
    <nd ref="8520784640"/>
    <nd ref="8520784639"/>
    <nd ref="9349753872"/>
    <nd ref="3199377585"/>
    <tag k="embedded_rails" v="tram"/>
    <tag k="highway" v="secondary"/>
    <tag k="lit" v="yes"/>
    <tag k="name" v="Na Slupi"/>
    <tag k="oneway" v="no"/>
    <tag k="sidewalk:both" v="separate"/>
    <tag k="surface" v="concrete"/>
  </way>
  <way id="180964446" version="10" timestamp="2024-09-27T12:44:23Z" changeset="157167788" uid="17385839" user="Augustlej">
    <nd ref="1914106490"/>
    <nd ref="8520470158"/>
    <nd ref="8520470157"/>
    <nd ref="8520470156"/>
    <nd ref="8520470155"/>
    <nd ref="1914106485"/>
    <nd ref="8520470140"/>
    <nd ref="8279333913"/>
    <nd ref="8520470141"/>
    <nd ref="8520470142"/>
    <nd ref="1330852233"/>
    <tag k="embedded_rails" v="tram"/>
    <tag k="highway" v="tertiary"/>
    <tag k="name" v="Svobodova"/>
    <tag k="oneway" v="yes"/>
    <tag k="sidewalk:right" v="separate"/>
    <tag k="source" v="Bing"/>
    <tag k="surface" v="asphalt"/>
  </way>
  <way id="180964448" version="29" timestamp="2024-09-27T12:44:35Z" changeset="157167788" uid="17385839" user="Augustlej">
    <nd ref="249290404"/>
    <nd ref="8520470148"/>
    <nd ref="8520470149"/>
    <nd ref="4701097449"/>
    <nd ref="8520470150"/>
    <nd ref="8520470151"/>
    <nd ref="703217"/>
    <tag k="embedded_rails" v="tram"/>
    <tag k="highway" v="secondary"/>
    <tag k="lane_markings" v="no"/>
    <tag k="lit" v="yes"/>
    <tag k="name" v="Svobodova"/>
    <tag k="name:ru" v="ÑƒÐ»Ð¸Ñ†Ð° Ð¡Ð²Ð¾Ð±Ð¾Ð´Ð¾Ð²Ð°"/>
    <tag k="oneway" v="no"/>
    <tag k="sidewalk:right" v="separate"/>
    <tag k="smoothness" v="excellent"/>
    <tag k="source" v="Bing"/>
    <tag k="surface" v="asphalt"/>
  </way>
  <way id="183414343" version="2" timestamp="2015-06-04T00:36:16Z" changeset="31705859" uid="718054" user="Piskvor">
    <nd ref="1937841274"/>
    <nd ref="1937841273"/>
    <tag k="highway" v="tertiary"/>
    <tag k="lanes" v="2"/>
    <tag k="layer" v="-1"/>
    <tag k="maxheight" v="3.8"/>
    <tag k="surface" v="asphalt"/>
  </way>
  <way id="183414350" version="3" timestamp="2023-02-09T15:11:32Z" changeset="132312621" uid="6588887" user="Martin2035">
    <nd ref="1033838068"/>
    <nd ref="293012305"/>
    <tag k="highway" v="tertiary"/>
    <tag k="lanes" v="2"/>
    <tag k="maxheight" v="3.8"/>
    <tag k="surface" v="asphalt"/>
  </way>
  <way id="193336657" version="12" timestamp="2025-05-14T19:02:37Z" changeset="166272746" uid="10224968" user="comfyquiettree">
    <nd ref="1896752078"/>
    <nd ref="8458552726"/>
    <nd ref="2038446684"/>
    <nd ref="8458552725"/>
    <nd ref="31792934"/>
    <tag k="cycleway:both" v="shared_lane"/>
    <tag k="cycleway:both:lane" v="pictogram"/>
    <tag k="embedded_rails" v="tram"/>
    <tag k="highway" v="secondary"/>
    <tag k="lanes" v="2"/>
    <tag k="lit" v="yes"/>
    <tag k="maxspeed" v="30"/>
    <tag k="name" v="PodolskÃ© nÃ¡bÅ™eÅ¾Ã­"/>
    <tag k="overtaking" v="no"/>
    <tag k="sidewalk" v="separate"/>
    <tag k="smoothness" v="excellent"/>
    <tag k="source" v="Bing"/>
    <tag k="surface" v="asphalt"/>
  </way>
  <way id="259136056" version="7" timestamp="2025-03-24T19:59:57Z" changeset="164049526" uid="1221650" user="slukes">
    <nd ref="2644777954"/>
    <nd ref="348096291"/>
    <nd ref="8483013464"/>
    <nd ref="8483013470"/>
    <nd ref="348096292"/>
    <nd ref="8483013476"/>
    <nd ref="8483013482"/>
    <nd ref="348096293"/>
    <nd ref="348096294"/>
    <tag k="cycleway:both" v="no"/>
    <tag k="highway" v="residential"/>
    <tag k="lanes" v="1"/>
    <tag k="lit" v="yes"/>
    <tag k="name" v="Neklanova"/>
    <tag k="oneway" v="yes"/>
    <tag k="sidewalk:left" v="no"/>
    <tag k="sidewalk:right" v="separate"/>
    <tag k="surface" v="asphalt"/>
  </way>
  <way id="261936331" version="3" timestamp="2024-11-26T16:08:00Z" changeset="159623747" uid="100163" user="Hlav">
    <nd ref="26230951"/>
    <nd ref="2675643530"/>
    <nd ref="26230949"/>
    <tag k="foot" v="no"/>
    <tag k="highway" v="tertiary"/>
    <tag k="lanes" v="2"/>
    <tag k="lit" v="yes"/>
    <tag k="name" v="Vnislavova"/>
    <tag k="oneway" v="no"/>
    <tag k="sidewalk" v="no"/>
    <tag k="surface" v="asphalt"/>
  </way>
  <way id="308039145" version="27" timestamp="2025-05-14T19:02:35Z" changeset="166272746" uid="10224968" user="comfyquiettree">
    <nd ref="264494820"/>
    <nd ref="775317"/>
    <nd ref="8458552753"/>
    <nd ref="31792797"/>
    <nd ref="8458552754"/>
    <nd ref="1165832627"/>
    <nd ref="8458552752"/>
    <nd ref="1030820197"/>
    <nd ref="8458552751"/>
    <nd ref="8458552750"/>
    <nd ref="1165832600"/>
    <nd ref="8458552746"/>
    <nd ref="31792798"/>
    <tag k="cycleway:left" v="no"/>
    <tag k="cycleway:right" v="lane"/>
    <tag k="cycleway:right:lane" v="advisory"/>
    <tag k="embedded_rails" v="tram"/>
    <tag k="highway" v="secondary"/>
    <tag k="lanes" v="1"/>
    <tag k="lit" v="yes"/>
    <tag k="maxspeed" v="50"/>
    <tag k="name" v="PodolskÃ© nÃ¡bÅ™eÅ¾Ã­"/>
    <tag k="name:ru" v="ÐŸÐ¾Ð´Ð¾Ð»ÑŒÑÐºÐ°Ñ Ð½Ð°Ð±ÐµÑ€ÐµÐ¶Ð½Ð°Ñ"/>
    <tag k="oneway" v="yes"/>
    <tag k="sidewalk" v="no"/>
    <tag k="surface" v="asphalt"/>
  </way>
  <way id="351280734" version="6" timestamp="2022-10-25T12:02:04Z" changeset="128036273" uid="8940770" user="pet2001">
    <nd ref="26230933"/>
    <nd ref="8458596244"/>
    <nd ref="8778901940"/>
    <nd ref="8458596255"/>
    <tag k="highway" v="tertiary"/>
    <tag k="lanes" v="2"/>
    <tag k="lit" v="yes"/>
    <tag k="name" v="LibuÅ¡ina"/>
    <tag k="oneway" v="yes"/>
    <tag k="surface" v="asphalt"/>
  </way>
  <way id="351280744" version="7" timestamp="2025-01-29T16:10:53Z" changeset="161903817" uid="6695514" user="arik123max">
    <nd ref="8458596255"/>
    <nd ref="3570518510"/>
    <nd ref="8458596254"/>
    <nd ref="8458596253"/>
    <nd ref="8458596252"/>
    <nd ref="3676872721"/>
    <tag k="highway" v="tertiary_link"/>
    <tag k="lanes" v="1"/>
    <tag k="lit" v="yes"/>
    <tag k="oneway" v="yes"/>
    <tag k="smoothness" v="good"/>
    <tag k="surface" v="asphalt"/>
    <tag k="turn:lanes" v="right"/>
  </way>
  <way id="363523244" version="25" timestamp="2025-05-14T19:02:36Z" changeset="166272746" uid="10224968" user="comfyquiettree">
    <nd ref="31792879"/>
    <nd ref="8458552745"/>
    <nd ref="1165832968"/>
    <nd ref="8458552744"/>
    <nd ref="1030821099"/>
    <nd ref="8458552757"/>
    <nd ref="1165833485"/>
    <nd ref="31792880"/>
    <nd ref="31792881"/>
    <nd ref="11818542886"/>
    <nd ref="2888768211"/>
    <tag k="cycleway:left" v="no"/>
    <tag k="cycleway:right" v="lane"/>
    <tag k="cycleway:right:lane" v="advisory"/>
    <tag k="highway" v="secondary"/>
    <tag k="lanes" v="1"/>
    <tag k="lit" v="yes"/>
    <tag k="maxspeed" v="50"/>
    <tag k="name" v="PodolskÃ© nÃ¡bÅ™eÅ¾Ã­"/>
    <tag k="name:ru" v="ÐŸÐ¾Ð´Ð¾Ð»ÑŒÑÐºÐ°Ñ Ð½Ð°Ð±ÐµÑ€ÐµÐ¶Ð½Ð°Ñ"/>
    <tag k="oneway" v="yes"/>
    <tag k="sidewalk" v="separate"/>
    <tag k="surface" v="asphalt"/>
  </way>
  <way id="363523246" version="26" timestamp="2024-04-09T12:03:43Z" changeset="149774401" uid="1778799" user="SomeoneElse_Revert">
    <nd ref="2038446691"/>
    <nd ref="3676872668"/>
    <nd ref="3676872670"/>
    <nd ref="8458585406"/>
    <nd ref="3676872675"/>
    <nd ref="8458585414"/>
    <nd ref="3676872679"/>
    <nd ref="3676872684"/>
    <nd ref="3676872688"/>
    <tag k="cycleway:both" v="no"/>
    <tag k="highway" v="secondary"/>
    <tag k="lanes" v="1"/>
    <tag k="lit" v="yes"/>
    <tag k="maxspeed" v="50"/>
    <tag k="name" v="RaÅ¡Ã­novo nÃ¡bÅ™eÅ¾Ã­"/>
    <tag k="name:de" v="RaÅ¡Ã­n-Ufer"/>
    <tag k="name:ru" v="Ð½Ð°Ð±ÐµÑ€ÐµÐ¶Ð½Ð°Ñ Ð Ð°ÑˆÐ¸Ð½Ð¾Ð²Ð°"/>
    <tag k="oneway" v="yes"/>
    <tag k="source:maxspeed" v="CZ:urban"/>
    <tag k="surface" v="asphalt"/>
  </way>
  <way id="363523252" version="32" timestamp="2025-04-13T16:41:28Z" changeset="164903671" uid="4018695" user="ðŸ‡¨ðŸ‡¿ Roman HornÃ­k">
    <nd ref="3676872943"/>
    <nd ref="12752658457"/>
    <nd ref="3676872947"/>
    <nd ref="4973668255"/>
    <nd ref="4973668256"/>
    <nd ref="12752658458"/>
    <nd ref="3676872951"/>
    <tag k="cycleway:right" v="no"/>
    <tag k="foot" v="no"/>
    <tag k="highway" v="secondary"/>
    <tag k="lanes" v="1"/>
    <tag k="lit" v="yes"/>
    <tag k="name" v="Svobodova"/>
    <tag k="name:ru" v="ÑƒÐ»Ð¸Ñ†Ð° Ð¡Ð²Ð¾Ð±Ð¾Ð´Ð¾Ð²Ð°"/>
    <tag k="oneway" v="yes"/>
    <tag k="parking:both" v="no"/>
    <tag k="sidewalk" v="no"/>
    <tag k="smoothness" v="good"/>
    <tag k="source" v="Bing;cuzk"/>
    <tag k="surface" v="asphalt"/>
  </way>
  <way id="363523265" version="7" timestamp="2022-10-25T12:03:33Z" changeset="128036273" uid="8940770" user="pet2001">
    <nd ref="8458596235"/>
    <nd ref="3676872716"/>
    <nd ref="8458596236"/>
    <nd ref="8458596237"/>
    <nd ref="8458596239"/>
    <nd ref="3676872718"/>
    <tag k="highway" v="tertiary"/>
    <tag k="lanes" v="1"/>
    <tag k="lit" v="yes"/>
    <tag k="name" v="LibuÅ¡ina"/>
    <tag k="oneway" v="yes"/>
    <tag k="surface" v="asphalt"/>
  </way>
  <way id="363523267" version="5" timestamp="2022-10-25T12:02:20Z" changeset="128036273" uid="8940770" user="pet2001">
    <nd ref="8458596255"/>
    <nd ref="3676872720"/>
    <nd ref="3676872719"/>
    <tag k="highway" v="tertiary"/>
    <tag k="lanes" v="1"/>
    <tag k="lit" v="yes"/>
    <tag k="oneway" v="yes"/>
    <tag k="surface" v="asphalt"/>
  </way>
  <way id="483508430" version="5" timestamp="2022-10-25T12:00:42Z" changeset="128036273" uid="8940770" user="pet2001">
    <nd ref="3676872719"/>
    <nd ref="8458596231"/>
    <nd ref="8786843701"/>
    <nd ref="8778889313"/>
    <tag k="highway" v="tertiary"/>
    <tag k="lanes" v="1"/>
    <tag k="lit" v="yes"/>
    <tag k="oneway" v="yes"/>
    <tag k="surface" v="asphalt"/>
  </way>
  <way id="483508431" version="28" timestamp="2025-04-13T16:41:28Z" changeset="164903671" uid="4018695" user="ðŸ‡¨ðŸ‡¿ Roman HornÃ­k">
    <nd ref="3676872719"/>
    <nd ref="8778901919"/>
    <nd ref="3676872721"/>
    <nd ref="3676872925"/>
    <nd ref="9595872923"/>
    <nd ref="9595872922"/>
    <nd ref="3676872937"/>
    <nd ref="3676872938"/>
    <tag k="cycleway:both" v="no"/>
    <tag k="highway" v="secondary"/>
    <tag k="lanes" v="1"/>
    <tag k="lit" v="yes"/>
    <tag k="maxspeed" v="50"/>
    <tag k="name" v="RaÅ¡Ã­novo nÃ¡bÅ™eÅ¾Ã­"/>
    <tag k="name:de" v="RaÅ¡Ã­n-Ufer"/>
    <tag k="name:ru" v="Ð½Ð°Ð±ÐµÑ€ÐµÐ¶Ð½Ð°Ñ Ð Ð°ÑˆÐ¸Ð½Ð¾Ð²Ð°"/>
    <tag k="oneway" v="yes"/>
    <tag k="sidewalk:right" v="separate"/>
    <tag k="smoothness" v="good"/>
    <tag k="surface" v="asphalt"/>
  </way>
  <way id="483508432" version="8" timestamp="2025-04-13T16:41:28Z" changeset="164903671" uid="4018695" user="ðŸ‡¨ðŸ‡¿ Roman HornÃ­k">
    <nd ref="26230933"/>
    <nd ref="26230934"/>
    <nd ref="1033837973"/>
    <nd ref="8488554287"/>
    <nd ref="26230935"/>
    <nd ref="8488554289"/>
    <nd ref="390376243"/>
    <nd ref="8488554288"/>
    <nd ref="26230937"/>
    <nd ref="12752658461"/>
    <nd ref="1033838044"/>
    <nd ref="8488554291"/>
    <nd ref="26230940"/>
    <tag k="highway" v="tertiary"/>
    <tag k="lanes" v="2"/>
    <tag k="lit" v="yes"/>
    <tag k="name" v="LibuÅ¡ina"/>
    <tag k="sidewalk:both" v="separate"/>
    <tag k="surface" v="asphalt"/>
  </way>
  <way id="483508433" version="7" timestamp="2024-09-08T15:02:57Z" changeset="156355882" uid="469828" user="LukÃ¡Å¡ JelÃ­nek">
    <nd ref="3676872702"/>
    <nd ref="316775717"/>
    <nd ref="292393089"/>
    <nd ref="292393092"/>
    <tag k="check_date:surface" v="2024-09-08"/>
    <tag k="highway" v="residential"/>
    <tag k="lanes" v="1"/>
    <tag k="lit" v="yes"/>
    <tag k="maxspeed" v="50"/>
    <tag k="name" v="Na LibuÅ¡ince"/>
    <tag k="smoothness" v="bad"/>
    <tag k="source" v="uhul:ortofoto"/>
    <tag k="source:maxspeed" v="CZ:urban"/>
    <tag k="surface" v="sett"/>
  </way>
  <way id="502391574" version="4" timestamp="2023-02-25T01:18:29Z" changeset="132990153" uid="11220113" user="ivanbranco">
    <nd ref="632970735"/>
    <nd ref="4928780452"/>
    <nd ref="3392056246"/>
    <nd ref="632970732"/>
    <nd ref="632970727"/>
    <nd ref="4928780451"/>
    <nd ref="632970721"/>
    <nd ref="632970716"/>
    <nd ref="632970740"/>
    <nd ref="632970735"/>
    <tag k="addr:city" v="Praha"/>
    <tag k="addr:postcode" v="12800"/>
    <tag k="building" v="yes"/>
    <tag k="historic" v="building"/>
    <tag k="name" v="NovÃ© dÄ›kanstvÃ­"/>
    <tag k="roof:material" v="roof_tiles"/>
    <tag k="roof:shape" v="hipped"/>
    <tag k="wikimedia_commons" v="File:New deanery Vysehrad Prague CZ 819.jpg"/>
  </way>
  <way id="515345438" version="3" timestamp="2024-11-04T22:29:32Z" changeset="158759057" uid="8420724" user="VojtaFilip">
    <nd ref="1751607355"/>
    <nd ref="1293795047"/>
    <nd ref="1293795011"/>
    <nd ref="1293795101"/>
    <tag k="highway" v="residential"/>
    <tag k="lane_markings" v="no"/>
    <tag k="name" v="Vratislavova"/>
    <tag k="source" v="bing:ortofoto"/>
    <tag k="surface" v="sett"/>
  </way>
  <way id="515345442" version="4" timestamp="2025-03-28T10:46:56Z" changeset="164201495" uid="55818" user="Theologe">
    <nd ref="5033068503"/>
    <nd ref="1751607355"/>
    <tag k="highway" v="residential"/>
    <tag k="lane_markings" v="no"/>
    <tag k="maxheight:signed" v="no"/>
    <tag k="name" v="Vratislavova"/>
    <tag k="source" v="bing:ortofoto"/>
    <tag k="surface" v="sett"/>
    <tag k="tunnel" v="building_passage"/>
  </way>
  <way id="525247500" version="24" timestamp="2025-05-14T19:02:36Z" changeset="166272746" uid="10224968" user="comfyquiettree">
    <nd ref="775319"/>
    <nd ref="3676872654"/>
    <nd ref="3676872653"/>
    <nd ref="8458552735"/>
    <nd ref="31792878"/>
    <nd ref="8458552734"/>
    <nd ref="8458552733"/>
    <nd ref="1165832666"/>
    <nd ref="8458552738"/>
    <nd ref="8458552739"/>
    <nd ref="31792879"/>
    <tag k="cycleway:left" v="no"/>
    <tag k="cycleway:right" v="lane"/>
    <tag k="cycleway:right:lane" v="advisory"/>
    <tag k="embedded_rails" v="tram"/>
    <tag k="highway" v="secondary"/>
    <tag k="lanes" v="1"/>
    <tag k="lit" v="yes"/>
    <tag k="maxspeed" v="30"/>
    <tag k="name" v="PodolskÃ© nÃ¡bÅ™eÅ¾Ã­"/>
    <tag k="name:ru" v="ÐŸÐ¾Ð´Ð¾Ð»ÑŒÑÐºÐ°Ñ Ð½Ð°Ð±ÐµÑ€ÐµÐ¶Ð½Ð°Ñ"/>
    <tag k="oneway" v="yes"/>
    <tag k="sidewalk" v="separate"/>
    <tag k="surface" v="asphalt"/>
  </way>
  <way id="525247501" version="25" timestamp="2025-05-14T19:02:36Z" changeset="166272746" uid="10224968" user="comfyquiettree">
    <nd ref="1165832818"/>
    <nd ref="8458552749"/>
    <nd ref="31792799"/>
    <nd ref="3676872652"/>
    <nd ref="3676872655"/>
    <nd ref="775319"/>
    <tag k="cycleway:left" v="no"/>
    <tag k="cycleway:right" v="lane"/>
    <tag k="cycleway:right:lane" v="advisory"/>
    <tag k="embedded_rails" v="tram"/>
    <tag k="highway" v="secondary"/>
    <tag k="lanes" v="1"/>
    <tag k="lit" v="yes"/>
    <tag k="maxspeed" v="30"/>
    <tag k="name" v="PodolskÃ© nÃ¡bÅ™eÅ¾Ã­"/>
    <tag k="name:ru" v="ÐŸÐ¾Ð´Ð¾Ð»ÑŒÑÐºÐ°Ñ Ð½Ð°Ð±ÐµÑ€ÐµÐ¶Ð½Ð°Ñ"/>
    <tag k="oneway" v="yes"/>
    <tag k="sidewalk" v="no"/>
    <tag k="surface" v="asphalt"/>
  </way>
  <way id="525247502" version="24" timestamp="2024-04-09T12:06:15Z" changeset="149774504" uid="1778799" user="SomeoneElse_Revert">
    <nd ref="3676872713"/>
    <nd ref="8458596233"/>
    <nd ref="3676872714"/>
    <nd ref="8778901924"/>
    <nd ref="31793050"/>
    <nd ref="8778903010"/>
    <nd ref="3676872719"/>
    <tag k="cycleway:both" v="no"/>
    <tag k="highway" v="secondary"/>
    <tag k="lanes" v="1"/>
    <tag k="lit" v="yes"/>
    <tag k="name" v="RaÅ¡Ã­novo nÃ¡bÅ™eÅ¾Ã­"/>
    <tag k="name:de" v="RaÅ¡Ã­n-Ufer"/>
    <tag k="name:ru" v="Ð½Ð°Ð±ÐµÑ€ÐµÐ¶Ð½Ð°Ñ Ð Ð°ÑˆÐ¸Ð½Ð¾Ð²Ð°"/>
    <tag k="oneway" v="yes"/>
    <tag k="surface" v="asphalt"/>
  </way>
  <way id="525247503" version="22" timestamp="2024-04-09T12:06:23Z" changeset="149774504" uid="1778799" user="SomeoneElse_Revert">
    <nd ref="3676872688"/>
    <nd ref="3676872694"/>
    <nd ref="8458596230"/>
    <nd ref="3676872702"/>
    <nd ref="3676872710"/>
    <nd ref="3676872713"/>
    <tag k="cycleway:both" v="no"/>
    <tag k="highway" v="secondary"/>
    <tag k="lanes" v="2"/>
    <tag k="lit" v="yes"/>
    <tag k="name" v="RaÅ¡Ã­novo nÃ¡bÅ™eÅ¾Ã­"/>
    <tag k="name:de" v="RaÅ¡Ã­n-Ufer"/>
    <tag k="name:ru" v="Ð½Ð°Ð±ÐµÑ€ÐµÐ¶Ð½Ð°Ñ Ð Ð°ÑˆÐ¸Ð½Ð¾Ð²Ð°"/>
    <tag k="oneway" v="yes"/>
    <tag k="surface" v="asphalt"/>
    <tag k="turn:lanes" v="through|right"/>
  </way>
  <way id="525247504" version="24" timestamp="2025-05-14T19:02:37Z" changeset="166272715" uid="10224968" user="comfyquiettree">
    <nd ref="3676872671"/>
    <nd ref="3676872669"/>
    <nd ref="2038446691"/>
    <tag k="cycleway" v="shared_lane"/>
    <tag k="cycleway:both" v="no"/>
    <tag k="embedded_rails" v="tram"/>
    <tag k="highway" v="secondary"/>
    <tag k="his:1951-1990:name" v="nÃ¡bÅ™eÅ¾Ã­ BedÅ™icha Engelse"/>
    <tag k="his:1990-:name" v="RaÅ¡Ã­novo nÃ¡bÅ™eÅ¾Ã­"/>
    <tag k="lanes" v="1"/>
    <tag k="lit" v="yes"/>
    <tag k="name" v="RaÅ¡Ã­novo nÃ¡bÅ™eÅ¾Ã­"/>
    <tag k="name:de" v="RaÅ¡Ã­n-Ufer"/>
    <tag k="name:ru" v="Ð½Ð°Ð±ÐµÑ€ÐµÐ¶Ð½Ð°Ñ Ð Ð°ÑˆÐ¸Ð½Ð¾Ð²Ð°"/>
    <tag k="oneway" v="yes"/>
    <tag k="sidewalk:left" v="no"/>
    <tag k="sidewalk:right" v="separate"/>
    <tag k="surface" v="asphalt"/>
  </way>
  <way id="537748125" version="25" timestamp="2025-01-29T16:14:57Z" changeset="161904013" uid="21331132" user="Poi-poi">
    <nd ref="3676872938"/>
    <nd ref="3676872943"/>
    <nd ref="3676872946"/>
    <nd ref="3676872950"/>
    <nd ref="3676872957"/>
    <tag k="cycleway:both" v="no"/>
    <tag k="foot" v="no"/>
    <tag k="highway" v="secondary"/>
    <tag k="lanes" v="1"/>
    <tag k="lit" v="yes"/>
    <tag k="maxheight" v="3.1"/>
    <tag k="maxspeed:type" v="CZ:urban"/>
    <tag k="name" v="RaÅ¡Ã­novo nÃ¡bÅ™eÅ¾Ã­"/>
    <tag k="name:de" v="RaÅ¡Ã­n-Ufer"/>
    <tag k="name:ru" v="Ð½Ð°Ð±ÐµÑ€ÐµÐ¶Ð½Ð°Ñ Ð Ð°ÑˆÐ¸Ð½Ð¾Ð²Ð°"/>
    <tag k="oneway" v="yes"/>
    <tag k="parking:both" v="no"/>
    <tag k="sidewalk" v="no"/>
    <tag k="surface" v="asphalt"/>
  </way>
  <way id="537748126" version="23" timestamp="2024-09-27T13:07:26Z" changeset="157168083" uid="17385839" user="Augustlej">
    <nd ref="3676872945"/>
    <nd ref="3676872939"/>
    <tag k="cycleway:both" v="no"/>
    <tag k="highway" v="secondary"/>
    <tag k="his:1951-1990:name" v="nÃ¡bÅ™eÅ¾Ã­ BedÅ™icha Engelse"/>
    <tag k="his:1990-:name" v="RaÅ¡Ã­novo nÃ¡bÅ™eÅ¾Ã­"/>
    <tag k="lanes" v="1"/>
    <tag k="lit" v="yes"/>
    <tag k="maxheight" v="3.1"/>
    <tag k="maxspeed:type" v="CZ:urban"/>
    <tag k="name" v="RaÅ¡Ã­novo nÃ¡bÅ™eÅ¾Ã­"/>
    <tag k="name:de" v="RaÅ¡Ã­n-Ufer"/>
    <tag k="name:ru" v="Ð½Ð°Ð±ÐµÑ€ÐµÐ¶Ð½Ð°Ñ Ð Ð°ÑˆÐ¸Ð½Ð¾Ð²Ð°"/>
    <tag k="oneway" v="yes"/>
    <tag k="parking:both" v="no"/>
    <tag k="surface" v="asphalt"/>
  </way>
  <way id="537748127" version="27" timestamp="2025-05-14T19:02:40Z" changeset="166272715" uid="10224968" user="comfyquiettree">
    <nd ref="3676872939"/>
    <nd ref="9595872925"/>
    <nd ref="9595872924"/>
    <nd ref="3676872936"/>
    <nd ref="3676872932"/>
    <nd ref="8778901925"/>
    <nd ref="3676872723"/>
    <nd ref="8778901922"/>
    <nd ref="8778889313"/>
    <nd ref="3676872711"/>
    <nd ref="3676872704"/>
    <nd ref="3676872699"/>
    <nd ref="8458596228"/>
    <nd ref="3676872692"/>
    <nd ref="8458596229"/>
    <nd ref="3676872686"/>
    <nd ref="3676872683"/>
    <nd ref="8458585416"/>
    <nd ref="8458585415"/>
    <nd ref="3676872678"/>
    <nd ref="8458585413"/>
    <nd ref="8458585412"/>
    <nd ref="3676872671"/>
    <tag k="cycleway:both" v="no"/>
    <tag k="highway" v="secondary"/>
    <tag k="his:1951-1990:name" v="nÃ¡bÅ™eÅ¾Ã­ BedÅ™icha Engelse"/>
    <tag k="his:1990-:name" v="RaÅ¡Ã­novo nÃ¡bÅ™eÅ¾Ã­"/>
    <tag k="lanes" v="1"/>
    <tag k="lit" v="yes"/>
    <tag k="maxspeed" v="50"/>
    <tag k="name" v="RaÅ¡Ã­novo nÃ¡bÅ™eÅ¾Ã­"/>
    <tag k="name:de" v="RaÅ¡Ã­n-Ufer"/>
    <tag k="name:ru" v="Ð½Ð°Ð±ÐµÑ€ÐµÐ¶Ð½Ð°Ñ Ð Ð°ÑˆÐ¸Ð½Ð¾Ð²Ð°"/>
    <tag k="oneway" v="yes"/>
    <tag k="sidewalk:left" v="no"/>
    <tag k="sidewalk:right" v="separate"/>
    <tag k="smoothness" v="good"/>
    <tag k="surface" v="asphalt"/>
  </way>
  <way id="546278740" version="6" timestamp="2024-11-06T11:31:04Z" changeset="158814095" uid="8971394" user="vojtechzaboril">
    <nd ref="3199377585"/>
    <nd ref="4701335521"/>
    <nd ref="8520784635"/>
    <nd ref="4701097413"/>
    <nd ref="352822020"/>
    <tag k="highway" v="secondary"/>
    <tag k="lanes" v="1"/>
    <tag k="lit" v="yes"/>
    <tag k="name" v="Na Slupi"/>
    <tag k="oneway" v="yes"/>
    <tag k="surface" v="concrete"/>
  </way>
  <way id="546278743" version="21" timestamp="2024-06-28T13:47:13Z" changeset="153294420" uid="718054" user="Piskvor">
    <nd ref="249290404"/>
    <nd ref="4701097451"/>
    <nd ref="1330852233"/>
    <tag k="cycleway:right" v="no"/>
    <tag k="embedded_rails" v="tram"/>
    <tag k="highway" v="secondary"/>
    <tag k="name" v="Svobodova"/>
    <tag k="name:ru" v="ÑƒÐ»Ð¸Ñ†Ð° Ð¡Ð²Ð¾Ð±Ð¾Ð´Ð¾Ð²Ð°"/>
    <tag k="oneway" v="yes"/>
    <tag k="surface" v="asphalt"/>
  </way>
  <way id="546278746" version="25" timestamp="2025-01-09T19:51:17Z" changeset="161182528" uid="284094" user="woy_cb">
    <nd ref="1330852233"/>
    <nd ref="8520470121"/>
    <nd ref="8520470120"/>
    <nd ref="8520470119"/>
    <nd ref="249290402"/>
    <nd ref="12017412415"/>
    <nd ref="8520436009"/>
    <nd ref="8520436008"/>
    <nd ref="1308345263"/>
    <nd ref="8520436014"/>
    <nd ref="8810822"/>
    <tag k="embedded_rails" v="tram"/>
    <tag k="highway" v="secondary"/>
    <tag k="lanes" v="2"/>
    <tag k="name" v="Svobodova"/>
    <tag k="name:ru" v="ÑƒÐ»Ð¸Ñ†Ð° Ð¡Ð²Ð¾Ð±Ð¾Ð´Ð¾Ð²Ð°"/>
    <tag k="oneway" v="no"/>
    <tag k="sidewalk:right" v="separate"/>
    <tag k="surface" v="asphalt"/>
  </way>
  <way id="546278751" version="9" timestamp="2024-11-06T11:31:04Z" changeset="158814095" uid="8971394" user="vojtechzaboril">
    <nd ref="8520784651"/>
    <nd ref="9233510747"/>
    <nd ref="8520784652"/>
    <nd ref="5279180949"/>
    <nd ref="5279180948"/>
    <nd ref="5279180939"/>
    <nd ref="8520784638"/>
    <tag k="highway" v="secondary"/>
    <tag k="lanes" v="1"/>
    <tag k="lit" v="yes"/>
    <tag k="name" v="Na Slupi"/>
    <tag k="oneway" v="yes"/>
    <tag k="sidewalk:right" v="separate"/>
    <tag k="surface" v="asphalt"/>
  </way>
  <way id="560209917" version="25" timestamp="2024-04-09T12:03:59Z" changeset="149774401" uid="1778799" user="SomeoneElse_Revert">
    <nd ref="4532490449"/>
    <nd ref="2736158305"/>
    <nd ref="4532490439"/>
    <nd ref="4532490440"/>
    <nd ref="2736158303"/>
    <nd ref="4532490441"/>
    <nd ref="2736158301"/>
    <nd ref="4532490442"/>
    <nd ref="2736158297"/>
    <nd ref="2736158295"/>
    <nd ref="4532490443"/>
    <nd ref="4532490438"/>
    <nd ref="2736158292"/>
    <nd ref="4532490448"/>
    <nd ref="2736158290"/>
    <nd ref="2736158288"/>
    <nd ref="2736158287"/>
    <nd ref="2736158285"/>
    <nd ref="4532490470"/>
    <nd ref="1529280608"/>
    <nd ref="4532490469"/>
    <nd ref="2736158279"/>
    <nd ref="2736158281"/>
    <nd ref="2736158282"/>
    <nd ref="2736158284"/>
    <nd ref="2736158286"/>
    <nd ref="2736158289"/>
    <nd ref="2736158291"/>
    <nd ref="2736158294"/>
    <nd ref="2736158296"/>
    <nd ref="2736158299"/>
    <nd ref="2736158302"/>
    <nd ref="2736158306"/>
    <nd ref="2736158309"/>
    <nd ref="2736158311"/>
    <nd ref="2736158310"/>
    <nd ref="2736158308"/>
    <nd ref="2736158307"/>
    <nd ref="4532490449"/>
    <tag k="amenity" v="place_of_worship"/>
    <tag k="building" v="church"/>
    <tag k="building:levels" v="2"/>
    <tag k="building:ruian:type" v="5"/>
    <tag k="denomination" v="roman_catholic"/>
    <tag k="name" v="svatÃ½ Martin"/>
    <tag k="name:de" v="Martinsrotunde"/>
    <tag k="name:en" v="Saint Martin"/>
    <tag k="name:ru" v="ÑÐ²ÑÑ‚Ð¾Ð¹ ÐœÐ°Ñ€Ñ‚Ð¸Ð½"/>
    <tag k="official_name" v="Rotunda svatÃ©ho Martina"/>
    <tag k="ref:ruian:building" v="46661921"/>
    <tag k="religion" v="christian"/>
    <tag k="roof:levels" v="1"/>
    <tag k="source" v="cuzk:ruian"/>
    <tag k="wheelchair" v="no"/>
    <tag k="wikidata" v="Q12049842"/>
    <tag k="wikimedia_commons" v="Category:Rotunda of Saint Martin (VyÅ¡ehrad)"/>
    <tag k="wikipedia" v="cs:Rotunda svatÃ©ho Martina (VyÅ¡ehrad)"/>
  </way>
  <way id="635423527" version="2" timestamp="2024-09-27T13:07:44Z" changeset="157168083" uid="17385839" user="Augustlej">
    <nd ref="3676872959"/>
    <nd ref="1033837972"/>
    <nd ref="1937841274"/>
    <tag k="highway" v="tertiary"/>
    <tag k="lanes" v="2"/>
    <tag k="maxheight" v="3.8"/>
    <tag k="parking:both" v="no"/>
    <tag k="surface" v="asphalt"/>
  </way>
  <way id="638592431" version="7" timestamp="2024-11-06T11:31:04Z" changeset="158814095" uid="8971394" user="vojtechzaboril">
    <nd ref="6018344324"/>
    <nd ref="4701335522"/>
    <nd ref="8520784620"/>
    <nd ref="5279180934"/>
    <nd ref="8520784618"/>
    <nd ref="293525133"/>
    <tag k="embedded_rails" v="tram"/>
    <tag k="highway" v="secondary"/>
    <tag k="lanes" v="1"/>
    <tag k="lit" v="yes"/>
    <tag k="name" v="Na Slupi"/>
    <tag k="oneway" v="yes"/>
    <tag k="surface" v="concrete"/>
  </way>
  <way id="638592433" version="3" timestamp="2022-10-25T10:27:00Z" changeset="128031987" uid="8940770" user="pet2001">
    <nd ref="352822020"/>
    <nd ref="6018344324"/>
    <tag k="cycleway:right" v="shared_lane"/>
    <tag k="embedded_rails" v="tram"/>
    <tag k="highway" v="secondary"/>
    <tag k="lit" v="yes"/>
    <tag k="name" v="Na Slupi"/>
    <tag k="oneway" v="yes"/>
    <tag k="surface" v="concrete"/>
  </way>
  <way id="888364640" version="3" timestamp="2024-11-04T22:29:31Z" changeset="158759057" uid="8420724" user="VojtaFilip">
    <nd ref="1751607346"/>
    <nd ref="11522930488"/>
    <tag k="highway" v="residential"/>
    <tag k="lane_markings" v="no"/>
    <tag k="name" v="Vratislavova"/>
    <tag k="source" v="bing:ortofoto"/>
    <tag k="surface" v="sett"/>
  </way>
  <way id="917404435" version="5" timestamp="2024-09-27T12:44:10Z" changeset="157167788" uid="17385839" user="Augustlej">
    <nd ref="8520784638"/>
    <nd ref="4701097480"/>
    <nd ref="8521978647"/>
    <nd ref="3199377585"/>
    <tag k="highway" v="secondary_link"/>
    <tag k="lane_markings" v="no"/>
    <tag k="lit" v="yes"/>
    <tag k="name" v="Na Slupi"/>
    <tag k="oneway" v="yes"/>
    <tag k="sidewalk:right" v="separate"/>
    <tag k="surface" v="asphalt"/>
  </way>
  <way id="917404436" version="3" timestamp="2024-04-27T10:30:40Z" changeset="150573425" uid="8826694" user="TiciRTIC">
    <nd ref="8520784652"/>
    <nd ref="4701097477"/>
    <nd ref="293525133"/>
    <tag k="highway" v="residential"/>
    <tag k="lane_markings" v="no"/>
    <tag k="lit" v="yes"/>
    <tag k="name" v="HorskÃ¡"/>
    <tag k="name:de" v="Berggasse"/>
    <tag k="oneway" v="yes"/>
    <tag k="surface" v="asphalt"/>
  </way>
  <way id="917404437" version="4" timestamp="2022-10-25T10:29:13Z" changeset="128032090" uid="8940770" user="pet2001">
    <nd ref="8520784651"/>
    <nd ref="1420894702"/>
    <tag k="cycleway:both" v="no"/>
    <tag k="embedded_rails" v="tram"/>
    <tag k="highway" v="secondary"/>
    <tag k="lanes" v="2"/>
    <tag k="lit" v="yes"/>
    <tag k="name" v="Na Slupi"/>
    <tag k="surface" v="concrete"/>
  </way>
  <way id="948419434" version="2" timestamp="2022-10-25T12:03:21Z" changeset="128036273" uid="8940770" user="pet2001">
    <nd ref="8778901926"/>
    <nd ref="8458596242"/>
    <nd ref="8458596243"/>
    <nd ref="26230933"/>
    <tag k="highway" v="tertiary"/>
    <tag k="lanes" v="1"/>
    <tag k="lit" v="yes"/>
    <tag k="oneway" v="yes"/>
    <tag k="surface" v="asphalt"/>
  </way>
  <way id="948419435" version="2" timestamp="2025-04-27T20:52:59Z" changeset="165523511" uid="10224968" user="comfyquiettree">
    <nd ref="8778901927"/>
    <nd ref="8458596238"/>
    <nd ref="8778901926"/>
    <tag k="cycleway:right" v="shared_lane"/>
    <tag k="highway" v="tertiary"/>
    <tag k="lanes" v="1"/>
    <tag k="lit" v="yes"/>
    <tag k="oneway" v="yes"/>
    <tag k="surface" v="asphalt"/>
  </way>
  <way id="948419436" version="1" timestamp="2021-05-29T13:07:04Z" changeset="105533706" uid="6588887" user="Martin2035">
    <nd ref="3676872718"/>
    <nd ref="8778901927"/>
    <tag k="highway" v="tertiary"/>
    <tag k="lanes" v="1"/>
    <tag k="oneway" v="yes"/>
    <tag k="surface" v="asphalt"/>
  </way>
  <way id="968876527" version="22" timestamp="2025-05-14T19:02:36Z" changeset="166272746" uid="10224968" user="comfyquiettree">
    <nd ref="31792798"/>
    <nd ref="8458552747"/>
    <nd ref="8458552748"/>
    <nd ref="1165832818"/>
    <tag k="cycleway:left" v="no"/>
    <tag k="cycleway:right" v="lane"/>
    <tag k="cycleway:right:lane" v="advisory"/>
    <tag k="embedded_rails" v="tram"/>
    <tag k="highway" v="secondary"/>
    <tag k="lanes" v="1"/>
    <tag k="lit" v="yes"/>
    <tag k="maxspeed" v="30"/>
    <tag k="name" v="PodolskÃ© nÃ¡bÅ™eÅ¾Ã­"/>
    <tag k="name:ru" v="ÐŸÐ¾Ð´Ð¾Ð»ÑŒÑÐºÐ°Ñ Ð½Ð°Ð±ÐµÑ€ÐµÐ¶Ð½Ð°Ñ"/>
    <tag k="oneway" v="yes"/>
    <tag k="sidewalk" v="no"/>
    <tag k="surface" v="asphalt"/>
  </way>
  <way id="1013258417" version="22" timestamp="2024-04-09T12:03:56Z" changeset="149774401" uid="1778799" user="SomeoneElse_Revert">
    <nd ref="3676872713"/>
    <nd ref="8458596234"/>
    <nd ref="8458596235"/>
    <tag k="cycleway:right" v="no"/>
    <tag k="highway" v="tertiary"/>
    <tag k="lanes" v="1"/>
    <tag k="lit" v="yes"/>
    <tag k="name" v="RaÅ¡Ã­novo nÃ¡bÅ™eÅ¾Ã­"/>
    <tag k="name:cs" v="RaÅ¡Ã­novo nÃ¡bÅ™eÅ¾Ã­"/>
    <tag k="name:de" v="RaÅ¡Ã­n-Ufer"/>
    <tag k="name:ru" v="Ð½Ð°Ð±ÐµÑ€ÐµÐ¶Ð½Ð°Ñ Ð Ð°ÑˆÐ¸Ð½Ð¾Ð²Ð°"/>
    <tag k="oneway" v="yes"/>
    <tag k="surface" v="asphalt"/>
  </way>
  <way id="1141355381" version="1" timestamp="2023-02-09T15:11:32Z" changeset="132312621" uid="6588887" user="Martin2035">
    <nd ref="1937841273"/>
    <nd ref="1033838068"/>
    <tag k="highway" v="tertiary"/>
    <tag k="lanes" v="2"/>
    <tag k="maxheight" v="3.8"/>
    <tag k="surface" v="asphalt"/>
  </way>
  <way id="1240254890" version="2" timestamp="2025-03-28T10:46:53Z" changeset="164201495" uid="55818" user="Theologe">
    <nd ref="5033068501"/>
    <nd ref="5033068503"/>
    <tag k="highway" v="residential"/>
    <tag k="lane_markings" v="no"/>
    <tag k="name" v="Vratislavova"/>
    <tag k="source" v="bing:ortofoto"/>
    <tag k="surface" v="sett"/>
  </way>
  <way id="1240254891" version="3" timestamp="2025-03-28T10:46:59Z" changeset="164201495" uid="55818" user="Theologe">
    <nd ref="11522930488"/>
    <nd ref="5033068501"/>
    <tag k="highway" v="residential"/>
    <tag k="lane_markings" v="no"/>
    <tag k="maxheight:signed" v="no"/>
    <tag k="name" v="Vratislavova"/>
    <tag k="source" v="bing:ortofoto"/>
    <tag k="surface" v="sett"/>
    <tag k="tunnel" v="building_passage"/>
  </way>
  <way id="1296975263" version="2" timestamp="2024-09-27T12:45:10Z" changeset="157167788" uid="17385839" user="Augustlej">
    <nd ref="12017412415"/>
    <nd ref="4701097725"/>
    <nd ref="12017412416"/>
    <nd ref="8520470124"/>
    <nd ref="8520470123"/>
    <nd ref="8520470122"/>
    <nd ref="9349753871"/>
    <nd ref="5279211351"/>
    <nd ref="8520470161"/>
    <nd ref="4701097728"/>
    <nd ref="8520470162"/>
    <nd ref="249290404"/>
    <tag k="highway" v="secondary"/>
    <tag k="lanes" v="1"/>
    <tag k="name" v="Svobodova"/>
    <tag k="note" v="uzavÅ™enÃ­ pÅ™ed nÃ¡draÅ¾Ã­m VyÅ¡ehrad"/>
    <tag k="oneway" v="yes"/>
    <tag k="sidewalk:right" v="separate"/>
  </way>
  <way id="1318776497" version="4" timestamp="2024-09-27T13:06:10Z" changeset="157166996" uid="17385839" user="Augustlej">
    <nd ref="1308345265"/>
    <nd ref="12204779992"/>
    <tag k="cycleway:both" v="no"/>
    <tag k="highway" v="residential"/>
    <tag k="lit" v="yes"/>
    <tag k="name" v="VinaÅ™ickÃ©ho"/>
    <tag k="oneway" v="yes"/>
    <tag k="sidewalk:both" v="separate"/>
    <tag k="surface" v="asphalt"/>
  </way>
  <way id="1318777276" version="2" timestamp="2024-09-27T12:12:25Z" changeset="157168083" uid="17385839" user="Augustlej">
    <nd ref="25936433"/>
    <nd ref="5279180935"/>
    <nd ref="12204894544"/>
    <tag k="cycleway:both" v="no"/>
    <tag k="highway" v="residential"/>
    <tag k="lane_markings" v="no"/>
    <tag k="lit" v="yes"/>
    <tag k="name" v="BotiÄskÃ¡"/>
    <tag k="oneway" v="yes"/>
    <tag k="parking:left" v="no"/>
    <tag k="parking:right" v="lane"/>
    <tag k="parking:right:orientation" v="diagonal"/>
    <tag k="sidewalk:left" v="yes"/>
    <tag k="sidewalk:left:surface" v="sett"/>
    <tag k="sidewalk:right" v="separate"/>
    <tag k="smoothness" v="bad"/>
    <tag k="surface" v="sett"/>
  </way>
  <way id="1318777552" version="5" timestamp="2024-09-27T13:06:12Z" changeset="157166996" uid="17385839" user="Augustlej">
    <nd ref="12204779992"/>
    <nd ref="25936433"/>
    <tag k="cycleway:both" v="no"/>
    <tag k="highway" v="residential"/>
    <tag k="lane_markings" v="no"/>
    <tag k="lit" v="yes"/>
    <tag k="name" v="VinaÅ™ickÃ©ho"/>
    <tag k="oneway" v="yes"/>
    <tag k="sidewalk:both" v="separate"/>
    <tag k="smoothness" v="bad"/>
    <tag k="surface" v="sett"/>
  </way>
  <way id="1330013323" version="2" timestamp="2024-11-01T21:46:07Z" changeset="158638205" uid="29717" user="eumiro">
    <nd ref="26231035"/>
    <nd ref="26231038"/>
    <nd ref="4793862681"/>
    <nd ref="64861010"/>
    <nd ref="4793862680"/>
    <nd ref="4793862679"/>
    <tag k="bicycle" v="no"/>
    <tag k="foot" v="yes"/>
    <tag k="highway" v="residential"/>
    <tag k="lanes" v="2"/>
    <tag k="lit" v="yes"/>
    <tag k="name" v="Vratislavova"/>
    <tag k="psv" v="no"/>
    <tag k="sidewalk:left" v="yes"/>
    <tag k="sidewalk:left:surface" v="sett"/>
    <tag k="sidewalk:right" v="separate"/>
    <tag k="smoothness" v="bad"/>
    <tag k="surface" v="sett"/>
    <tag k="vehicle" v="destination"/>
  </way>
  <relation id="422680" version="4" timestamp="2018-02-08T15:09:34Z" changeset="56185992" uid="255936" user="NyanSten">
    <member type="way" ref="51689842" role="outer"/>
    <member type="way" ref="49810597" role="outer"/>
    <member type="way" ref="51701782" role="outer"/>
    <member type="way" ref="51689846" role="outer"/>
    <tag k="amenity" v="place_of_worship"/>
    <tag k="building" v="chapel"/>
    <tag k="name" v="hÅ™bitovnÃ­ kaple a kapitulnÃ­ hrobka"/>
    <tag k="religion" v="christian"/>
    <tag k="source" v="cuzk:km"/>
    <tag k="type" v="multipolygon"/>
  </relation>
  <relation id="8954511" version="3" timestamp="2024-09-10T11:53:10Z" changeset="156436669" uid="100163" user="Hlav">
    <member type="way" ref="49810434" role="outer"/>
    <member type="way" ref="644962723" role="outer"/>
    <tag k="alt_name" v="Panna Marie vÂ hradbÃ¡ch"/>
    <tag k="amenity" v="place_of_worship"/>
    <tag k="building" v="chapel"/>
    <tag k="building:ruian:type" v="5"/>
    <tag k="denomination" v="roman_catholic"/>
    <tag k="heritage" v="3"/>
    <tag k="heritage:operator" v="npu"/>
    <tag k="name" v="Panna Marie Å ancovskÃ¡"/>
    <tag k="name:en" v="Our Lady of the Ramparts"/>
    <tag k="official_name" v="Kostel Panny Marie Å ancovskÃ©"/>
    <tag k="ref:ruian:building" v="40356345"/>
    <tag k="religion" v="christian"/>
    <tag k="source" v="cuzk:ruian"/>
    <tag k="type" v="multipolygon"/>
    <tag k="wikidata" v="Q64815856"/>
    <tag k="wikimedia_commons" v="Category:Kaple Panny Marie Å ancovskÃ© (VyÅ¡ehrad)"/>
  </relation>

</osm>
