<?xml version="1.0" encoding="UTF-8"?>
<osm version="0.6" generator="Overpass API 0.7.62.5 1bd436f1">
<note>The data included in this document is from www.openstreetmap.org. The data is made available under ODbL.</note>
<meta osm_base="2025-05-18T05:33:47Z" areas="2024-12-31T00:49:33Z"/>

  <node id="7783979" lat="50.0469241" lon="14.6151963" version="3" timestamp="2012-02-15T21:34:00Z" changeset="10696780" uid="8007" user="vrabcak"/>
  <node id="8811311" lat="50.0331089" lon="14.5774958" version="3" timestamp="2020-06-25T16:50:38Z" changeset="87151331" uid="665336" user="Minimalis"/>
  <node id="8811393" lat="50.0366387" lon="14.5722717" version="7" timestamp="2020-02-13T09:08:21Z" changeset="80947432" uid="3145424" user="vidmann"/>
  <node id="8811548" lat="50.0188567" lon="14.6165069" version="3" timestamp="2018-07-14T13:14:58Z" changeset="60711981" uid="1858155" user="Chenn Zenn"/>
  <node id="29447149" lat="50.0504130" lon="14.6222919" version="3" timestamp="2017-09-13T17:57:57Z" changeset="52011158" uid="3516" user="BiIbo"/>
  <node id="29448040" lat="50.0261802" lon="14.5928684" version="4" timestamp="2009-05-28T20:23:21Z" changeset="1345901" uid="126741" user="LStealth"/>
  <node id="34595037" lat="50.0379604" lon="14.6185681" version="2" timestamp="2017-01-20T16:08:07Z" changeset="45330301" uid="1189910" user="Milancer"/>
  <node id="34595885" lat="50.0346276" lon="14.6286626" version="4" timestamp="2017-09-14T00:50:06Z" changeset="52023514" uid="3516" user="BiIbo"/>
  <node id="55505347" lat="50.0497623" lon="14.5818411" version="3" timestamp="2024-06-28T13:38:57Z" changeset="153294075" uid="469828" user="Luk치코 Jel칤nek"/>
  <node id="246533848" lat="50.0222246" lon="14.6041943" version="1" timestamp="2008-02-07T19:57:08Z" changeset="68060" uid="18003" user="Jozef Hovan"/>
  <node id="297040330" lat="50.0271012" lon="14.6171813" version="2" timestamp="2009-03-03T21:09:37Z" changeset="729965" uid="1066" user="pavel"/>
  <node id="322961682" lat="50.0492724" lon="14.5943007" version="3" timestamp="2022-02-23T15:53:31Z" changeset="117776787" uid="11545091" user="VladaC"/>
  <node id="344242697" lat="50.0328954" lon="14.5781782" version="1" timestamp="2009-02-10T19:11:24Z" changeset="325867" uid="8007" user="vrabcak"/>
  <node id="411613743" lat="50.0218608" lon="14.5877961" version="4" timestamp="2012-11-03T16:22:25Z" changeset="13736120" uid="25867" user="adamos"/>
  <node id="1035662559" lat="50.0365946" lon="14.5717097" version="3" timestamp="2020-02-13T09:08:21Z" changeset="80947432" uid="3145424" user="vidmann"/>
  <node id="1634551084" lat="50.0574369" lon="14.5994046" version="1" timestamp="2012-02-15T21:24:30Z" changeset="10696688" uid="8007" user="vrabcak"/>
  <node id="1634563545" lat="50.0457633" lon="14.6184377" version="1" timestamp="2012-02-15T21:33:47Z" changeset="10696780" uid="8007" user="vrabcak"/>
  <node id="3492707005" lat="50.0461831" lon="14.5768424" version="4" timestamp="2025-03-16T01:40:34Z" changeset="163672699" uid="4018695" user="游뻟릖 Roman Horn칤k"/>
  <node id="3638076714" lat="50.0246854" lon="14.5908335" version="1" timestamp="2015-07-07T00:18:22Z" changeset="32461477" uid="29818" user="zub">
    <tag k="crossing" v="uncontrolled"/>
    <tag k="highway" v="crossing"/>
  </node>
  <way id="4052015" version="19" timestamp="2020-02-16T17:13:39Z" changeset="81076692" uid="665336" user="Minimalis">
    <nd ref="8811404"/>
    <nd ref="7216862903"/>
    <nd ref="60734509"/>
    <nd ref="1145861621"/>
    <nd ref="1145861644"/>
    <nd ref="29447678"/>
    <tag k="highway" v="secondary"/>
    <tag k="lanes" v="2"/>
    <tag k="lit" v="yes"/>
    <tag k="maxspeed" v="50"/>
    <tag k="name" v="Podlesk치"/>
    <tag k="source:maxspeed" v="CZ:urban"/>
    <tag k="surface" v="asphalt"/>
  </way>
  <way id="4052339" version="6" timestamp="2019-12-26T21:32:33Z" changeset="78898433" uid="6588887" user="Martin2035">
    <nd ref="21263163"/>
    <nd ref="4896985812"/>
    <nd ref="1459107083"/>
    <nd ref="4896985818"/>
    <nd ref="21263164"/>
    <tag k="highway" v="residential"/>
    <tag k="name" v="Husovo n치m캩st칤"/>
    <tag k="oneway" v="yes"/>
    <tag k="surface" v="asphalt"/>
  </way>
  <way id="4053129" version="2" timestamp="2008-09-16T06:16:20Z" changeset="646046" uid="3516" user="BiIbo">
    <nd ref="21263165"/>
    <nd ref="21263164"/>
    <tag k="created_by" v="JOSM"/>
    <tag k="highway" v="residential"/>
    <tag k="name" v="Koz치kovsk치"/>
  </way>
  <way id="4053305" version="17" timestamp="2020-09-22T17:02:43Z" changeset="91310954" uid="718054" user="Piskvor">
    <nd ref="7080847"/>
    <nd ref="1424387418"/>
    <nd ref="27109624"/>
    <tag k="highway" v="tertiary"/>
    <tag k="lanes" v="2"/>
    <tag k="maxspeed" v="50"/>
    <tag k="name" v="n치m캩st칤 Protifa코istick칳ch bojovn칤k콢"/>
  </way>
  <way id="4634979" version="11" timestamp="2018-08-22T19:28:48Z" changeset="61899683" uid="665336" user="Minimalis">
    <nd ref="29447338"/>
    <nd ref="1729116256"/>
    <nd ref="1729116381"/>
    <nd ref="672850161"/>
    <tag k="highway" v="residential"/>
    <tag k="lanes" v="1"/>
    <tag k="name" v="Netluky"/>
    <tag k="smoothness" v="good"/>
    <tag k="surface" v="asphalt"/>
  </way>
  <way id="4634992" version="5" timestamp="2019-12-26T21:32:33Z" changeset="78898433" uid="6588887" user="Martin2035">
    <nd ref="65354320"/>
    <nd ref="6703154995"/>
    <nd ref="29447699"/>
    <nd ref="7086944921"/>
    <nd ref="29447707"/>
    <tag k="highway" v="residential"/>
    <tag k="name" v="K podchodu"/>
  </way>
  <way id="4634993" version="8" timestamp="2020-06-25T16:50:38Z" changeset="87151331" uid="665336" user="Minimalis">
    <nd ref="29447729"/>
    <nd ref="29447730"/>
    <tag k="highway" v="residential"/>
    <tag k="name" v="Bl코aneck치"/>
    <tag k="source" v="cuzk:km"/>
  </way>
  <way id="4634995" version="8" timestamp="2025-02-23T10:47:48Z" changeset="162846005" uid="8468948" user="Feli Weigi">
    <nd ref="1838489827"/>
    <nd ref="1424387388"/>
    <nd ref="130440561"/>
    <nd ref="12612547119"/>
    <nd ref="311116433"/>
    <nd ref="130440579"/>
    <tag k="highway" v="residential"/>
    <tag k="name" v="Ln치콏sk치"/>
  </way>
  <way id="5084303" version="9" timestamp="2025-04-16T09:46:47Z" changeset="165019915" uid="718054" user="Piskvor">
    <nd ref="29447289"/>
    <nd ref="1729116558"/>
    <nd ref="34595066"/>
    <nd ref="29447312"/>
    <tag k="highway" v="unclassified"/>
    <tag k="name" v="Netluky"/>
    <tag k="oneway" v="no"/>
  </way>
  <way id="5084307" version="26" timestamp="2025-03-15T22:29:55Z" changeset="163669756" uid="4018695" user="游뻟릖 Roman Horn칤k">
    <nd ref="5104338647"/>
    <nd ref="12669074160"/>
    <nd ref="5104338646"/>
    <nd ref="252022"/>
    <nd ref="7081037"/>
    <nd ref="34595875"/>
    <nd ref="34595877"/>
    <nd ref="6393590048"/>
    <nd ref="34595879"/>
    <nd ref="6393590047"/>
    <nd ref="5104347956"/>
    <nd ref="34595881"/>
    <nd ref="34595883"/>
    <nd ref="5104347958"/>
    <nd ref="34595885"/>
    <tag k="highway" v="tertiary"/>
    <tag k="lanes" v="2"/>
    <tag k="maxspeed" v="70"/>
    <tag k="name" v="K Uh콏칤n캩vsi"/>
  </way>
  <way id="5084388" version="17" timestamp="2025-04-16T09:46:47Z" changeset="165019915" uid="718054" user="Piskvor">
    <nd ref="34595027"/>
    <nd ref="6936007667"/>
    <nd ref="1726227476"/>
    <nd ref="34595029"/>
    <nd ref="34595031"/>
    <nd ref="34595033"/>
    <nd ref="34595035"/>
    <nd ref="34595037"/>
    <tag k="highway" v="unclassified"/>
    <tag k="lanes" v="1"/>
    <tag k="lit" v="no"/>
    <tag k="motor_vehicle" v="private"/>
    <tag k="smoothness" v="good"/>
    <tag k="surface" v="asphalt"/>
  </way>
  <way id="5084471" version="10" timestamp="2025-03-06T14:49:34Z" changeset="163288634" uid="718054" user="Piskvor">
    <nd ref="34595885"/>
    <nd ref="5104347959"/>
    <nd ref="5104347957"/>
    <nd ref="34595897"/>
    <nd ref="34595899"/>
    <nd ref="34595901"/>
    <nd ref="34595907"/>
    <nd ref="34595909"/>
    <nd ref="34595911"/>
    <nd ref="12640975113"/>
    <tag k="hgv" v="no"/>
    <tag k="highway" v="tertiary"/>
    <tag k="maxwidth" v="2.2"/>
  </way>
  <way id="7659122" version="29" timestamp="2025-03-16T00:21:43Z" changeset="163671705" uid="4018695" user="游뻟릖 Roman Horn칤k">
    <nd ref="55505405"/>
    <nd ref="7415595551"/>
    <nd ref="7415595554"/>
    <nd ref="55505410"/>
    <nd ref="861669440"/>
    <nd ref="889521499"/>
    <tag k="highway" v="tertiary"/>
    <tag k="lanes" v="2"/>
    <tag k="maxspeed" v="30"/>
    <tag k="maxspeed:type" v="sign"/>
    <tag k="name" v="Be캜ovsk치"/>
    <tag k="surface" v="asphalt"/>
  </way>
  <way id="7659126" version="36" timestamp="2025-03-15T23:36:01Z" changeset="163671013" uid="4018695" user="游뻟릖 Roman Horn칤k">
    <nd ref="29166269"/>
    <nd ref="1169894059"/>
    <nd ref="1459107058"/>
    <nd ref="7081082"/>
    <nd ref="7080856"/>
    <tag k="highway" v="secondary"/>
    <tag k="lanes" v="2"/>
    <tag k="lit" v="yes"/>
    <tag k="maxspeed" v="50"/>
    <tag k="name" v="P콏치telstv칤"/>
    <tag k="official_ref" v="333"/>
    <tag k="ref" v="333"/>
    <tag k="source:maxspeed" v="CZ:urban"/>
    <tag k="source:ref" v="survey"/>
    <tag k="surface" v="asphalt"/>
  </way>
  <way id="7659128" version="22" timestamp="2025-01-01T18:58:13Z" changeset="160881237" uid="1160334" user="honzaa">
    <nd ref="65354096"/>
    <nd ref="7653291225"/>
    <nd ref="7653291224"/>
    <nd ref="7653291223"/>
    <nd ref="7653291222"/>
    <nd ref="7653291221"/>
    <nd ref="7653291220"/>
    <nd ref="7653291219"/>
    <nd ref="7653291218"/>
    <nd ref="8811405"/>
    <tag k="highway" v="secondary"/>
    <tag k="junction" v="roundabout"/>
    <tag k="lanes" v="1"/>
    <tag k="lit" v="yes"/>
    <tag k="maxspeed" v="50"/>
    <tag k="name" v="P콏치telstv칤"/>
    <tag k="official_ref" v="333"/>
    <tag k="ref" v="333"/>
    <tag k="ref:ruian:street" v="497134"/>
    <tag k="sidewalk" v="no"/>
    <tag k="source:maxspeed" v="CZ:urban"/>
    <tag k="source:ref" v="survey"/>
    <tag k="surface" v="asphalt"/>
  </way>
  <way id="8104433" version="36" timestamp="2025-03-15T23:36:01Z" changeset="163671013" uid="4018695" user="游뻟릖 Roman Horn칤k">
    <nd ref="409801399"/>
    <nd ref="1169894072"/>
    <nd ref="7081079"/>
    <nd ref="1169894030"/>
    <nd ref="10705081495"/>
    <nd ref="30024848"/>
    <nd ref="12669129194"/>
    <nd ref="4460961478"/>
    <tag k="highway" v="secondary"/>
    <tag k="lanes" v="2"/>
    <tag k="maxspeed" v="50"/>
    <tag k="name" v="P콏치telstv칤"/>
    <tag k="official_ref" v="333"/>
    <tag k="ref" v="333"/>
    <tag k="source:maxspeed" v="CZ:urban"/>
    <tag k="surface" v="asphalt"/>
  </way>
  <way id="8104434" version="25" timestamp="2025-01-01T18:58:13Z" changeset="160881237" uid="1160334" user="honzaa">
    <nd ref="30024845"/>
    <nd ref="1169894051"/>
    <nd ref="370183317"/>
    <nd ref="370183319"/>
    <nd ref="1169894112"/>
    <nd ref="1169894107"/>
    <nd ref="29166269"/>
    <tag k="highway" v="secondary"/>
    <tag k="junction" v="roundabout"/>
    <tag k="lanes" v="1"/>
    <tag k="maxspeed" v="50"/>
    <tag k="name" v="P콏치telstv칤"/>
    <tag k="official_ref" v="333"/>
    <tag k="ref" v="333"/>
    <tag k="source:maxspeed" v="CZ:urban"/>
    <tag k="surface" v="asphalt"/>
  </way>
  <way id="8105899" version="7" timestamp="2024-02-01T20:47:09Z" changeset="146961671" uid="9291527" user="marekhrabe">
    <nd ref="60734510"/>
    <nd ref="861658357"/>
    <nd ref="60734514"/>
    <nd ref="4112791283"/>
    <nd ref="344241796"/>
    <nd ref="4112791282"/>
    <nd ref="861266475"/>
    <nd ref="861266486"/>
    <nd ref="344241797"/>
    <nd ref="1314675298"/>
    <nd ref="1314675300"/>
    <nd ref="11577600205"/>
    <nd ref="11577600204"/>
    <tag k="highway" v="residential"/>
    <tag k="name" v="St콏edohorsk치"/>
  </way>
  <way id="8105900" version="4" timestamp="2019-11-07T19:04:10Z" changeset="76773594" uid="665336" user="Minimalis">
    <nd ref="60734510"/>
    <nd ref="60734511"/>
    <tag k="highway" v="residential"/>
    <tag k="name" v="Na vrch치ch"/>
    <tag k="ref:ruian:street" v="496804"/>
  </way>
  <way id="8105901" version="7" timestamp="2019-12-26T21:32:33Z" changeset="78898433" uid="6588887" user="Martin2035">
    <nd ref="29447678"/>
    <nd ref="7086944938"/>
    <tag k="highway" v="residential"/>
    <tag k="lanes" v="1"/>
    <tag k="lit" v="yes"/>
    <tag k="maxspeed" v="50"/>
    <tag k="name" v="Na vrch치ch"/>
    <tag k="ref:ruian:street" v="496804"/>
    <tag k="surface" v="asphalt"/>
  </way>
  <way id="8105902" version="7" timestamp="2019-12-30T12:27:10Z" changeset="79013078" uid="6588887" user="Martin2035">
    <nd ref="21263164"/>
    <nd ref="7095499470"/>
    <nd ref="1459107105"/>
    <nd ref="60734509"/>
    <tag k="highway" v="residential"/>
    <tag k="lanes" v="1"/>
    <tag k="lit" v="yes"/>
    <tag k="maxspeed" v="50"/>
    <tag k="name" v="Husovo n치m캩st칤"/>
    <tag k="oneway" v="yes"/>
    <tag k="source:maxspeed" v="CZ:urban"/>
    <tag k="surface" v="asphalt"/>
  </way>
  <way id="8105903" version="7" timestamp="2019-11-07T19:04:10Z" changeset="76773594" uid="665336" user="Minimalis">
    <nd ref="60734514"/>
    <nd ref="6955703313"/>
    <nd ref="6955703312"/>
    <nd ref="60734513"/>
    <tag k="highway" v="residential"/>
    <tag k="name" v="Tatransk치"/>
    <tag k="oneway" v="yes"/>
  </way>
  <way id="8105904" version="7" timestamp="2019-11-07T19:04:10Z" changeset="76773594" uid="665336" user="Minimalis">
    <nd ref="60734511"/>
    <nd ref="1729116044"/>
    <nd ref="861266510"/>
    <nd ref="861658263"/>
    <tag k="highway" v="residential"/>
    <tag k="name" v="Na vrch치ch"/>
    <tag k="ref:ruian:street" v="496804"/>
  </way>
  <way id="8105939" version="8" timestamp="2024-03-30T20:01:11Z" changeset="149365661" uid="10932047" user="AF HAF KARTOGRAF">
    <nd ref="1018095078"/>
    <nd ref="1018095100"/>
    <nd ref="3493656466"/>
    <nd ref="1018095085"/>
    <nd ref="1018095077"/>
    <nd ref="1018095111"/>
    <nd ref="3493656467"/>
    <nd ref="3493656468"/>
    <nd ref="355740894"/>
    <nd ref="355740891"/>
    <nd ref="60734938"/>
    <nd ref="7653291270"/>
    <nd ref="7653291269"/>
    <nd ref="7653291268"/>
    <nd ref="7653291267"/>
    <nd ref="7653291266"/>
    <nd ref="7653291265"/>
    <nd ref="7653291264"/>
    <nd ref="7653291263"/>
    <nd ref="7653291262"/>
    <nd ref="7653291261"/>
    <nd ref="7653291260"/>
    <nd ref="7653291259"/>
    <nd ref="7653291258"/>
    <nd ref="7653291257"/>
    <nd ref="7653291256"/>
    <nd ref="60734939"/>
    <nd ref="60734941"/>
    <nd ref="355740895"/>
    <nd ref="355740897"/>
    <nd ref="3493656464"/>
    <nd ref="355740896"/>
    <nd ref="60734942"/>
    <nd ref="60734943"/>
    <nd ref="355740902"/>
    <nd ref="355740898"/>
    <nd ref="355740899"/>
    <nd ref="355740901"/>
    <nd ref="60734945"/>
    <nd ref="60734946"/>
    <nd ref="1018095086"/>
    <nd ref="1018095078"/>
    <tag k="addr:conscriptionnumber" v="926"/>
    <tag k="addr:country" v="CZ"/>
    <tag k="addr:housenumber" v="926/5"/>
    <tag k="addr:postcode" v="10400"/>
    <tag k="addr:street" v="Podlesk치"/>
    <tag k="addr:streetnumber" v="5"/>
    <tag k="building" v="commercial"/>
    <tag k="building:flats" v="2"/>
    <tag k="building:levels" v="4"/>
    <tag k="building:ruian:type" v="14"/>
    <tag k="ref:ruian:addr" v="22649646"/>
    <tag k="ref:ruian:building" v="21596557"/>
    <tag k="source" v="cuzk:ruian"/>
    <tag k="start_date" v="2018-10-31"/>
  </way>
  <way id="8150036" version="22" timestamp="2023-10-27T08:06:36Z" changeset="143197765" uid="13864" user="Martin Poljak">
    <nd ref="30024845"/>
    <nd ref="5528050702"/>
    <nd ref="1459107065"/>
    <nd ref="355309275"/>
    <tag k="highway" v="tertiary"/>
    <tag k="lane_markings" v="no"/>
    <tag k="name" v="KNetluk치m"/>
    <tag k="surface" v="asphalt"/>
  </way>
  <way id="8159748" version="13" timestamp="2025-04-16T09:46:47Z" changeset="165019915" uid="718054" user="Piskvor">
    <nd ref="11828925340"/>
    <nd ref="34595052"/>
    <nd ref="34595054"/>
    <nd ref="525543165"/>
    <tag k="highway" v="unclassified"/>
    <tag k="name" v="Netluky"/>
    <tag k="surface" v="asphalt"/>
  </way>
  <way id="8407738" version="15" timestamp="2025-03-16T00:21:43Z" changeset="163671705" uid="4018695" user="游뻟릖 Roman Horn칤k">
    <nd ref="27109624"/>
    <nd ref="12669183237"/>
    <nd ref="12669183236"/>
    <nd ref="130440377"/>
    <tag k="highway" v="tertiary"/>
    <tag k="lanes" v="2"/>
    <tag k="maxspeed" v="50"/>
    <tag k="name" v="n치m캩st칤 Protifa코istick칳ch bojovn칤k콢"/>
  </way>
  <way id="8438614" version="8" timestamp="2024-10-17T14:48:13Z" changeset="158012038" uid="1516345" user="theDagger">
    <nd ref="29447713"/>
    <nd ref="1540576408"/>
    <nd ref="7086944918"/>
    <nd ref="29447725"/>
    <tag k="highway" v="residential"/>
    <tag k="lane_markings" v="no"/>
    <tag k="maxspeed" v="40"/>
    <tag k="maxspeed:type" v="sign"/>
    <tag k="name" v="Franti코ka Divi코e"/>
    <tag k="surface" v="asphalt"/>
  </way>
  <way id="8920325" version="8" timestamp="2011-10-08T18:32:14Z" changeset="9505419" uid="527259" user="Vratislav Filler">
    <nd ref="65396090"/>
    <nd ref="355740192"/>
    <nd ref="1458467451"/>
    <nd ref="1458467447"/>
    <tag k="highway" v="residential"/>
    <tag k="name" v="Franti코ka Divi코e"/>
  </way>
  <way id="8920326" version="8" timestamp="2024-11-12T15:35:00Z" changeset="159055523" uid="718054" user="Piskvor">
    <nd ref="29447725"/>
    <nd ref="7086944928"/>
    <nd ref="12334851128"/>
    <nd ref="7653291252"/>
    <nd ref="65354253"/>
    <nd ref="29447699"/>
    <tag k="highway" v="residential"/>
    <tag k="name" v="Dunajsk치"/>
  </way>
  <way id="8920339" version="3" timestamp="2019-12-26T21:32:33Z" changeset="78898433" uid="6588887" user="Martin2035">
    <nd ref="65354320"/>
    <nd ref="7086944937"/>
    <nd ref="65354322"/>
    <tag k="highway" v="residential"/>
    <tag k="name" v="Vodick치"/>
  </way>
  <way id="8920341" version="4" timestamp="2016-01-21T20:56:02Z" changeset="36728736" uid="3451611" user="Anoldfossil">
    <nd ref="65354249"/>
    <nd ref="344242174"/>
    <nd ref="2791666732"/>
    <nd ref="344242173"/>
    <tag k="highway" v="residential"/>
    <tag k="name" v="Berounsk치"/>
    <tag k="oneway" v="yes"/>
  </way>
  <way id="13880327" version="13" timestamp="2025-03-16T00:21:43Z" changeset="163671705" uid="4018695" user="游뻟릖 Roman Horn칤k">
    <nd ref="130440377"/>
    <nd ref="12669183240"/>
    <nd ref="5022317735"/>
    <nd ref="12669183239"/>
    <nd ref="1424387407"/>
    <nd ref="130440393"/>
    <nd ref="130440408"/>
    <tag k="highway" v="residential"/>
    <tag k="name" v="Sala캜ova"/>
  </way>
  <way id="13880329" version="3" timestamp="2008-11-10T18:26:59Z" changeset="728860" uid="8007" user="vrabcak">
    <nd ref="130440561"/>
    <nd ref="130440595"/>
    <nd ref="130440617"/>
    <nd ref="244009319"/>
    <tag k="created_by" v="JOSM"/>
    <tag k="highway" v="residential"/>
    <tag k="name" v="Le코ovsk치"/>
  </way>
  <way id="13880330" version="4" timestamp="2025-02-23T10:47:48Z" changeset="162846005" uid="8468948" user="Feli Weigi">
    <nd ref="130440595"/>
    <nd ref="130440636"/>
    <nd ref="130440653"/>
    <nd ref="12612559626"/>
    <tag k="highway" v="residential"/>
    <tag k="name" v="Pardubick치"/>
  </way>
  <way id="14372249" version="15" timestamp="2025-03-16T01:40:34Z" changeset="163672699" uid="4018695" user="游뻟릖 Roman Horn칤k">
    <nd ref="12334851134"/>
    <nd ref="11834952092"/>
    <nd ref="313879361"/>
    <tag k="highway" v="residential"/>
    <tag k="name" v="Franti코ka Divi코e"/>
  </way>
  <way id="14372250" version="12" timestamp="2024-12-29T14:25:31Z" changeset="160749695" uid="469828" user="Luk치코 Jel칤nek">
    <nd ref="21263168"/>
    <nd ref="7086936521"/>
    <nd ref="7086936520"/>
    <nd ref="7086936522"/>
    <nd ref="3120640923"/>
    <nd ref="7086936530"/>
    <nd ref="7086936531"/>
    <nd ref="21263169"/>
    <tag k="highway" v="residential"/>
    <tag k="lane_markings" v="no"/>
    <tag k="lit" v="yes"/>
    <tag k="maxspeed" v="50"/>
    <tag k="maxspeed:type" v="sign"/>
    <tag k="name" v="U Star칠ho n치dra쮂"/>
    <tag k="smoothness" v="good"/>
    <tag k="surface" v="asphalt"/>
  </way>
  <way id="14372252" version="11" timestamp="2024-12-29T14:29:01Z" changeset="160749695" uid="469828" user="Luk치코 Jel칤nek">
    <nd ref="21263162"/>
    <nd ref="1459107079"/>
    <nd ref="21263163"/>
    <nd ref="140052273"/>
    <nd ref="21263167"/>
    <tag k="highway" v="residential"/>
    <tag k="lane_markings" v="no"/>
    <tag k="lit" v="yes"/>
    <tag k="maxspeed" v="50"/>
    <tag k="maxspeed:type" v="sign"/>
    <tag k="name" v="Dopravn칤"/>
    <tag k="smoothness" v="good"/>
    <tag k="surface" v="asphalt"/>
  </way>
  <way id="14372253" version="14" timestamp="2024-09-12T13:19:12Z" changeset="156528430" uid="469828" user="Luk치코 Jel칤nek">
    <nd ref="140052223"/>
    <nd ref="12172501901"/>
    <nd ref="7086936563"/>
    <nd ref="140052327"/>
    <nd ref="7086936557"/>
    <nd ref="1459107072"/>
    <nd ref="7080835"/>
    <tag k="highway" v="residential"/>
    <tag k="lane_markings" v="no"/>
    <tag k="lit" v="yes"/>
    <tag k="maxspeed" v="50"/>
    <tag k="maxspeed:type" v="sign"/>
    <tag k="name" v="Lidick칠ho"/>
    <tag k="smoothness" v="good"/>
    <tag k="surface" v="asphalt"/>
  </way>
  <way id="14372254" version="16" timestamp="2024-12-29T14:23:14Z" changeset="160749695" uid="469828" user="Luk치코 Jel칤nek">
    <nd ref="140052247"/>
    <nd ref="7086944905"/>
    <nd ref="140052299"/>
    <tag k="highway" v="residential"/>
    <tag k="lane_markings" v="no"/>
    <tag k="lit" v="yes"/>
    <tag k="name" v="Picassova"/>
    <tag k="oneway" v="yes"/>
    <tag k="smoothness" v="good"/>
    <tag k="surface" v="asphalt"/>
  </way>
  <way id="14372255" version="8" timestamp="2024-12-29T14:19:39Z" changeset="160749695" uid="469828" user="Luk치코 Jel칤nek">
    <nd ref="140052299"/>
    <nd ref="7086936554"/>
    <nd ref="7086936561"/>
    <nd ref="140052327"/>
    <tag k="highway" v="residential"/>
    <tag k="lane_markings" v="no"/>
    <tag k="lit" v="yes"/>
    <tag k="name" v="Va캜k치콏ova"/>
    <tag k="oneway" v="yes"/>
    <tag k="smoothness" v="good"/>
    <tag k="surface" v="asphalt"/>
  </way>
  <way id="17114929" version="15" timestamp="2025-01-01T22:44:03Z" changeset="160887842" uid="469828" user="Luk치코 Jel칤nek">
    <nd ref="29447678"/>
    <nd ref="12467696076"/>
    <nd ref="8811402"/>
    <nd ref="861266480"/>
    <nd ref="12467696077"/>
    <nd ref="344245191"/>
    <nd ref="7207871555"/>
    <nd ref="344245195"/>
    <nd ref="7207871554"/>
    <nd ref="861530046"/>
    <nd ref="7207871553"/>
    <nd ref="7653291239"/>
    <nd ref="344245210"/>
    <nd ref="8811401"/>
    <nd ref="7653291238"/>
    <nd ref="7207871552"/>
    <nd ref="7653291237"/>
    <nd ref="861529985"/>
    <nd ref="7653291236"/>
    <nd ref="344241798"/>
    <nd ref="3493656471"/>
    <tag k="highway" v="secondary"/>
    <tag k="lanes" v="2"/>
    <tag k="lit" v="yes"/>
    <tag k="maxspeed" v="50"/>
    <tag k="name" v="Podlesk치"/>
    <tag k="source:maxspeed" v="CZ:urban"/>
    <tag k="surface" v="asphalt"/>
  </way>
  <way id="17114933" version="29" timestamp="2023-10-13T13:00:53Z" changeset="142523050" uid="20160194" user="Milan Tom치nek">
    <nd ref="8811393"/>
    <nd ref="7207871547"/>
    <nd ref="7207871548"/>
    <nd ref="7207871546"/>
    <nd ref="8811392"/>
    <nd ref="1995553613"/>
    <nd ref="7207871545"/>
    <nd ref="1995553610"/>
    <nd ref="1995553609"/>
    <nd ref="8811312"/>
    <nd ref="7653291251"/>
    <nd ref="1995553589"/>
    <nd ref="7653291245"/>
    <nd ref="7653291246"/>
    <nd ref="8811311"/>
    <nd ref="7653291247"/>
    <nd ref="7653291248"/>
    <nd ref="7653291249"/>
    <nd ref="297406819"/>
    <nd ref="7653291244"/>
    <nd ref="297406817"/>
    <nd ref="7653291240"/>
    <nd ref="7653291241"/>
    <nd ref="1728959450"/>
    <nd ref="7653291242"/>
    <nd ref="8811310"/>
    <nd ref="1995553572"/>
    <nd ref="7653291243"/>
    <nd ref="1728959420"/>
    <nd ref="297406821"/>
    <nd ref="8811309"/>
    <nd ref="1995553475"/>
    <nd ref="4490460016"/>
    <nd ref="8811308"/>
    <nd ref="1728959119"/>
    <tag k="hgv" v="no"/>
    <tag k="highway" v="tertiary"/>
    <tag k="lit" v="no"/>
    <tag k="maxweight" v="3.5"/>
  </way>
  <way id="17114935" version="17" timestamp="2025-01-01T18:58:13Z" changeset="160881237" uid="1160334" user="honzaa">
    <nd ref="177742910"/>
    <nd ref="889516532"/>
    <nd ref="861530095"/>
    <nd ref="3492707004"/>
    <tag k="highway" v="secondary"/>
    <tag k="lanes" v="2"/>
    <tag k="lanes:backward" v="1"/>
    <tag k="lanes:forward" v="1"/>
    <tag k="lit" v="no"/>
    <tag k="maxspeed" v="70"/>
    <tag k="name" v="P콏치telstv칤"/>
    <tag k="official_ref" v="333"/>
    <tag k="ref" v="333"/>
    <tag k="source:ref" v="survey"/>
    <tag k="surface" v="asphalt"/>
  </way>
  <way id="18372648" version="15" timestamp="2023-03-31T16:58:42Z" changeset="134353768" uid="284094" user="woy_cb">
    <nd ref="27108864"/>
    <nd ref="5104344439"/>
    <nd ref="244009336"/>
    <tag k="highway" v="tertiary"/>
    <tag k="lanes" v="2"/>
    <tag k="maxspeed" v="50"/>
    <tag k="ref" v="3339"/>
    <tag k="source:ref" v="rsd_cr"/>
    <tag k="surface" v="asphalt"/>
  </way>
  <way id="22702190" version="8" timestamp="2024-04-25T18:16:05Z" changeset="150509025" uid="9291527" user="marekhrabe">
    <nd ref="7080854"/>
    <nd ref="4946235798"/>
    <nd ref="3638085684"/>
    <nd ref="3638085683"/>
    <tag k="highway" v="residential"/>
    <tag k="name" v="N치m캩st칤 Smi콏ick칳ch"/>
  </way>
  <way id="22702192" version="10" timestamp="2025-03-15T22:29:55Z" changeset="163669756" uid="4018695" user="游뻟릖 Roman Horn칤k">
    <nd ref="409801382"/>
    <nd ref="344252219"/>
    <nd ref="344252217"/>
    <nd ref="1458467370"/>
    <nd ref="30024851"/>
    <tag k="highway" v="residential"/>
    <tag k="name" v="V Potok치ch"/>
  </way>
  <way id="22743400" version="4" timestamp="2024-11-12T15:35:00Z" changeset="159055523" uid="718054" user="Piskvor">
    <nd ref="243518612"/>
    <nd ref="12334851161"/>
    <nd ref="244009318"/>
    <tag k="highway" v="residential"/>
    <tag k="name" v="Pet콏칤kovsk치"/>
    <tag k="surface" v="paving_stones"/>
  </way>
  <way id="22743402" version="3" timestamp="2025-02-23T10:47:48Z" changeset="162846005" uid="8468948" user="Feli Weigi">
    <nd ref="244009320"/>
    <nd ref="130440687"/>
    <nd ref="130440636"/>
    <nd ref="130440579"/>
    <nd ref="12612547164"/>
    <nd ref="244009322"/>
    <tag k="highway" v="residential"/>
    <tag k="name" v="Ka코ovick치"/>
  </way>
  <way id="22743403" version="2" timestamp="2008-11-10T18:27:00Z" changeset="728860" uid="8007" user="vrabcak">
    <nd ref="130440617"/>
    <nd ref="130440687"/>
    <tag k="created_by" v="JOSM"/>
    <tag k="highway" v="residential"/>
    <tag k="name" v="Zlenick치"/>
  </way>
  <way id="22743405" version="12" timestamp="2025-02-23T10:47:48Z" changeset="162846005" uid="8468948" user="Feli Weigi">
    <nd ref="244009336"/>
    <nd ref="1285871499"/>
    <nd ref="1285871497"/>
    <nd ref="244009328"/>
    <nd ref="5104343045"/>
    <nd ref="244009326"/>
    <nd ref="244009324"/>
    <nd ref="12612547160"/>
    <nd ref="12612547162"/>
    <nd ref="12612547161"/>
    <nd ref="244009322"/>
    <nd ref="311116434"/>
    <tag k="hgv" v="destination"/>
    <tag k="highway" v="tertiary"/>
    <tag k="lanes" v="2"/>
    <tag k="name" v="Ln치콏sk치"/>
    <tag k="surface" v="asphalt"/>
  </way>
  <way id="22743408" version="8" timestamp="2025-02-23T10:47:48Z" changeset="162846005" uid="8468948" user="Feli Weigi">
    <nd ref="244009324"/>
    <nd ref="12612547163"/>
    <nd ref="130440653"/>
    <tag k="highway" v="residential"/>
    <tag k="name" v="R치jeck치"/>
    <tag k="oneway" v="yes"/>
  </way>
  <way id="22744881" version="2" timestamp="2010-03-23T18:50:30Z" changeset="4214859" uid="84326" user="Mike Crash">
    <nd ref="244023062"/>
    <nd ref="55505401"/>
    <tag k="highway" v="unclassified"/>
  </way>
  <way id="25150133" version="7" timestamp="2024-06-05T19:36:28Z" changeset="152302619" uid="12080464" user="Vojt캩ch Kade콏치bek">
    <nd ref="274093061"/>
    <nd ref="274093029"/>
    <nd ref="274093027"/>
    <nd ref="9530280160"/>
    <nd ref="274093025"/>
    <nd ref="9530280161"/>
    <nd ref="274093023"/>
    <nd ref="3730442652"/>
    <tag k="highway" v="unclassified"/>
    <tag k="motor_vehicle" v="destination"/>
  </way>
  <way id="25150138" version="13" timestamp="2024-12-29T13:35:53Z" changeset="160749695" uid="469828" user="Luk치코 Jel칤nek">
    <nd ref="322961682"/>
    <nd ref="4620890567"/>
    <nd ref="9530285374"/>
    <nd ref="1270192542"/>
    <nd ref="4620890568"/>
    <nd ref="1270192539"/>
    <nd ref="1270192546"/>
    <nd ref="4620890569"/>
    <nd ref="9530285362"/>
    <nd ref="1270192550"/>
    <nd ref="9530285363"/>
    <nd ref="9530285361"/>
    <nd ref="9530285364"/>
    <nd ref="9530285360"/>
    <nd ref="274093078"/>
    <tag k="highway" v="unclassified"/>
    <tag k="lane_markings" v="no"/>
    <tag k="lit" v="no"/>
    <tag k="motor_vehicle" v="destination"/>
    <tag k="name" v="Podlesek"/>
    <tag k="smoothness" v="intermediate"/>
    <tag k="source:geometry" v="CZ:IPRPraha:ortofoto;Strava Global Heatmap"/>
    <tag k="surface" v="asphalt"/>
  </way>
  <way id="25206089" version="7" timestamp="2025-04-16T09:46:47Z" changeset="165019915" uid="718054" user="Piskvor">
    <nd ref="29447338"/>
    <nd ref="244023091"/>
    <nd ref="658673342"/>
    <nd ref="244023093"/>
    <nd ref="365604145"/>
    <nd ref="409147944"/>
    <tag k="highway" v="unclassified"/>
    <tag k="name" v="Netluky"/>
    <tag k="oneway" v="no"/>
  </way>
  <way id="27074122" version="30" timestamp="2025-03-15T23:36:01Z" changeset="163671013" uid="4018695" user="游뻟릖 Roman Horn칤k">
    <nd ref="7080738"/>
    <nd ref="10705062884"/>
    <nd ref="471640258"/>
    <nd ref="861202121"/>
    <nd ref="10705100246"/>
    <nd ref="2339105648"/>
    <nd ref="861658313"/>
    <nd ref="861658405"/>
    <nd ref="1145861652"/>
    <nd ref="483388"/>
    <nd ref="11917669074"/>
    <nd ref="10555430437"/>
    <tag k="highway" v="secondary"/>
    <tag k="lanes" v="2"/>
    <tag k="lit" v="no"/>
    <tag k="maxspeed" v="50"/>
    <tag k="name" v="P콏치telstv칤"/>
    <tag k="official_ref" v="333"/>
    <tag k="ref" v="333"/>
    <tag k="source:maxspeed" v="CZ:urban"/>
    <tag k="source:ref" v="survey"/>
    <tag k="surface" v="asphalt"/>
  </way>
  <way id="27074770" version="20" timestamp="2025-03-15T22:29:55Z" changeset="163669756" uid="4018695" user="游뻟릖 Roman Horn칤k">
    <nd ref="297040330"/>
    <nd ref="6419096917"/>
    <nd ref="297041163"/>
    <tag k="cycleway:both" v="no"/>
    <tag k="highway" v="secondary"/>
    <tag k="lanes" v="2"/>
    <tag k="maxspeed" v="80"/>
    <tag k="official_ref" v="333"/>
    <tag k="ref" v="333"/>
    <tag k="smoothness" v="excellent"/>
    <tag k="surface" v="asphalt"/>
  </way>
  <way id="27106573" version="6" timestamp="2020-12-30T21:49:03Z" changeset="96692362" uid="1189910" user="Milancer">
    <nd ref="29447725"/>
    <nd ref="3296238387"/>
    <nd ref="29447727"/>
    <nd ref="1540575802"/>
    <nd ref="29447729"/>
    <nd ref="1540575700"/>
    <nd ref="7653291254"/>
    <nd ref="7653291253"/>
    <tag k="highway" v="residential"/>
    <tag k="name" v="Byst콏i캜n치"/>
    <tag k="ref:ruian:street" v="497088"/>
  </way>
  <way id="27106614" version="9" timestamp="2025-03-16T00:21:43Z" changeset="163671705" uid="4018695" user="游뻟릖 Roman Horn칤k">
    <nd ref="55505389"/>
    <nd ref="55505392"/>
    <nd ref="10555430426"/>
    <nd ref="55505395"/>
    <nd ref="10555430427"/>
    <nd ref="55505398"/>
    <nd ref="55505401"/>
    <tag k="hgv" v="destination"/>
    <tag k="highway" v="tertiary"/>
    <tag k="lanes" v="2"/>
    <tag k="maxweight" v="3.5"/>
    <tag k="surface" v="asphalt"/>
  </way>
  <way id="28330354" version="5" timestamp="2024-11-12T15:35:00Z" changeset="159055523" uid="718054" user="Piskvor">
    <nd ref="130440357"/>
    <nd ref="12334851148"/>
    <nd ref="243518598"/>
    <nd ref="12334851163"/>
    <nd ref="243518612"/>
    <nd ref="12334851162"/>
    <nd ref="243518613"/>
    <nd ref="12334851157"/>
    <tag k="highway" v="residential"/>
    <tag k="name" v="U Nad칳ma캜e"/>
    <tag k="surface" v="paving_stones"/>
  </way>
  <way id="28330355" version="1" timestamp="2008-11-10T18:33:11Z" changeset="728860" uid="8007" user="vrabcak">
    <nd ref="311118229"/>
    <nd ref="311118230"/>
    <tag k="highway" v="residential"/>
    <tag k="name" v="Peceradsk치"/>
  </way>
  <way id="28561203" version="4" timestamp="2024-12-29T14:22:01Z" changeset="160749679" uid="469828" user="Luk치코 Jel칤nek">
    <nd ref="140052299"/>
    <nd ref="7086936511"/>
    <nd ref="140052273"/>
    <tag k="highway" v="residential"/>
    <tag k="lit" v="yes"/>
    <tag k="name" v="Va캜k치콏ova"/>
    <tag k="oneway" v="yes"/>
  </way>
  <way id="28561204" version="14" timestamp="2024-09-03T16:47:19Z" changeset="156150291" uid="469828" user="Luk치코 Jel칤nek">
    <nd ref="410556213"/>
    <nd ref="1459107076"/>
    <nd ref="7080821"/>
    <tag k="highway" v="residential"/>
    <tag k="lanes" v="1"/>
    <tag k="maxspeed" v="30"/>
    <tag k="maxspeed:type" v="CZ:zone30"/>
    <tag k="name" v="Vachkova"/>
    <tag k="oneway" v="yes"/>
    <tag k="oneway:bicycle" v="no"/>
    <tag k="smoothness" v="good"/>
    <tag k="surface" v="paving_stones"/>
    <tag k="zone:maxspeed" v="30"/>
  </way>
  <way id="28574865" version="4" timestamp="2024-06-05T19:36:28Z" changeset="152302619" uid="12080464" user="Vojt캩ch Kade콏치bek">
    <nd ref="274093061"/>
    <nd ref="274093031"/>
    <nd ref="274093033"/>
    <nd ref="322963410"/>
    <nd ref="244023075"/>
    <tag k="highway" v="unclassified"/>
    <tag k="motor_vehicle" v="destination"/>
  </way>
  <way id="28574866" version="7" timestamp="2015-09-05T11:20:09Z" changeset="33812871" uid="29818" user="zub">
    <nd ref="29447358"/>
    <nd ref="3730442636"/>
    <tag k="highway" v="unclassified"/>
    <tag k="motorcar" v="no"/>
    <tag k="tracktype" v="grade1"/>
  </way>
  <way id="28575079" version="7" timestamp="2021-04-15T07:43:47Z" changeset="102974849" uid="6588887" user="Martin2035">
    <nd ref="55505425"/>
    <nd ref="7095592990"/>
    <nd ref="7095592991"/>
    <nd ref="7095592992"/>
    <nd ref="313879957"/>
    <nd ref="313879964"/>
    <nd ref="8631299519"/>
    <nd ref="313879986"/>
    <nd ref="313880009"/>
    <nd ref="2611215759"/>
    <nd ref="2969978239"/>
    <nd ref="2611215768"/>
    <nd ref="313880027"/>
    <nd ref="313880046"/>
    <tag k="highway" v="residential"/>
    <tag k="maxspeed" v="30"/>
    <tag k="maxspeed:zone" v="30"/>
    <tag k="name" v="V Bytovk치ch"/>
    <tag k="surface" v="asphalt"/>
  </way>
  <way id="30958693" version="3" timestamp="2016-01-21T20:55:28Z" changeset="36728721" uid="3451611" user="Anoldfossil">
    <nd ref="65354243"/>
    <nd ref="344242178"/>
    <nd ref="2791666242"/>
    <nd ref="344242174"/>
    <tag k="highway" v="residential"/>
    <tag k="name" v="Na Ne쮂rce"/>
    <tag k="oneway" v="yes"/>
  </way>
  <way id="30958694" version="3" timestamp="2019-08-12T13:28:00Z" changeset="73269130" uid="25867" user="adamos">
    <nd ref="65354248"/>
    <nd ref="3296231766"/>
    <nd ref="344242179"/>
    <nd ref="6703154993"/>
    <tag k="highway" v="residential"/>
    <tag k="name" v="Jezersk치"/>
  </way>
  <way id="30958696" version="2" timestamp="2019-08-12T13:28:00Z" changeset="73269130" uid="25867" user="adamos">
    <nd ref="344242182"/>
    <nd ref="6703154996"/>
    <nd ref="344242184"/>
    <tag k="highway" v="residential"/>
    <tag k="name" v="K콏emeln치"/>
  </way>
  <way id="30958697" version="2" timestamp="2009-02-10T19:11:25Z" changeset="325867" uid="8007" user="vrabcak">
    <nd ref="344242183"/>
    <nd ref="344242699"/>
    <nd ref="344242185"/>
    <tag k="highway" v="residential"/>
    <tag k="name" v="K콏elovick치"/>
  </way>
  <way id="30958793" version="6" timestamp="2020-06-25T16:50:38Z" changeset="87151331" uid="665336" user="Minimalis">
    <nd ref="8811311"/>
    <nd ref="7653291250"/>
    <nd ref="344242697"/>
    <nd ref="1995553577"/>
    <tag k="highway" v="residential"/>
    <tag k="name" v="Vydersk치"/>
  </way>
  <way id="30958794" version="5" timestamp="2014-04-14T21:44:54Z" changeset="21698083" uid="25867" user="adamos">
    <nd ref="344242697"/>
    <nd ref="2791663492"/>
    <nd ref="344242699"/>
    <tag k="highway" v="residential"/>
    <tag k="name" v="칔psk치"/>
  </way>
  <way id="30958796" version="7" timestamp="2014-04-14T21:44:50Z" changeset="21698083" uid="25867" user="adamos">
    <nd ref="1995553577"/>
    <nd ref="344242185"/>
    <nd ref="344242184"/>
    <tag k="highway" v="residential"/>
    <tag k="name" v="Soumarsk치"/>
  </way>
  <way id="30959112" version="7" timestamp="2019-04-24T11:31:06Z" changeset="69522246" uid="1189910" user="Milancer">
    <nd ref="29447713"/>
    <nd ref="3296231761"/>
    <nd ref="1838498975"/>
    <nd ref="29447727"/>
    <tag k="highway" v="residential"/>
    <tag k="name" v="Pstru쬹치"/>
  </way>
  <way id="30959180" version="6" timestamp="2024-09-11T12:09:59Z" changeset="156480228" uid="469828" user="Luk치코 Jel칤nek">
    <nd ref="344247186"/>
    <nd ref="1458467438"/>
    <tag k="highway" v="residential"/>
    <tag k="lane_markings" v="no"/>
    <tag k="name" v="K콏e코칤nsk치"/>
    <tag k="smoothness" v="good"/>
    <tag k="surface" v="paving_stones"/>
  </way>
  <way id="30959298" version="6" timestamp="2020-11-26T09:34:08Z" changeset="94827686" uid="6588887" user="Martin2035">
    <nd ref="344251647"/>
    <nd ref="2388675959"/>
    <nd ref="344251649"/>
    <nd ref="344251651"/>
    <nd ref="6955703314"/>
    <nd ref="8167232939"/>
    <nd ref="344251652"/>
    <tag k="highway" v="residential"/>
    <tag k="name" v="Na pot콢캜ku"/>
  </way>
  <way id="30959321" version="7" timestamp="2021-12-08T16:58:31Z" changeset="114710715" uid="469828" user="Luk치코 Jel칤nek">
    <nd ref="409198480"/>
    <nd ref="1171888872"/>
    <nd ref="1459107027"/>
    <nd ref="243518643"/>
    <tag k="highway" v="residential"/>
    <tag k="lit" v="yes"/>
    <tag k="maxspeed" v="30"/>
    <tag k="name" v="n치m캩st칤 Brat콏칤 Jandus콢"/>
    <tag k="surface" v="asphalt"/>
  </way>
  <way id="30959551" version="5" timestamp="2020-11-26T09:34:08Z" changeset="94827686" uid="6588887" user="Martin2035">
    <nd ref="27108899"/>
    <nd ref="8167232931"/>
    <nd ref="344256302"/>
    <nd ref="344256304"/>
    <nd ref="344256307"/>
    <nd ref="8167232945"/>
    <nd ref="344256309"/>
    <nd ref="344256312"/>
    <nd ref="4946235786"/>
    <nd ref="344256314"/>
    <tag k="highway" v="residential"/>
    <tag k="maxspeed" v="30"/>
    <tag k="name" v="Za Nad칳ma캜em"/>
    <tag k="surface" v="paving_stones"/>
  </way>
  <way id="30959568" version="9" timestamp="2023-08-11T20:05:31Z" changeset="139765064" uid="1160334" user="honzaa">
    <nd ref="410556165"/>
    <nd ref="1273036049"/>
    <tag k="highway" v="tertiary"/>
    <tag k="name" v="Rozd캩len치"/>
    <tag k="oneway" v="yes"/>
  </way>
  <way id="30959570" version="8" timestamp="2024-11-12T15:35:00Z" changeset="159055523" uid="718054" user="Piskvor">
    <nd ref="311118230"/>
    <nd ref="12334851141"/>
    <nd ref="344249005"/>
    <nd ref="8167232925"/>
    <nd ref="8811411"/>
    <tag k="highway" v="residential"/>
    <tag k="name" v="Semansk칠ho"/>
    <tag k="oneway" v="yes"/>
  </way>
  <way id="30960064" version="14" timestamp="2025-03-15T22:29:55Z" changeset="163669756" uid="4018695" user="游뻟릖 Roman Horn칤k">
    <nd ref="8811545"/>
    <nd ref="2407767557"/>
    <nd ref="12669074169"/>
    <nd ref="12669074170"/>
    <nd ref="12334851160"/>
    <nd ref="12613228453"/>
    <nd ref="8811544"/>
    <nd ref="1270094932"/>
    <tag k="highway" v="tertiary"/>
    <tag k="maxspeed" v="70"/>
    <tag k="name" v="V Ku콘atech"/>
  </way>
  <way id="31558069" version="16" timestamp="2019-08-12T13:28:00Z" changeset="73269130" uid="25867" user="adamos">
    <nd ref="1018078402"/>
    <nd ref="355740189"/>
    <nd ref="4112791718"/>
    <nd ref="355740191"/>
    <nd ref="1018078223"/>
    <nd ref="353123148"/>
    <nd ref="4112791717"/>
    <nd ref="355740185"/>
    <nd ref="4112791714"/>
    <nd ref="355740186"/>
    <nd ref="4112791715"/>
    <nd ref="355740187"/>
    <nd ref="4112791711"/>
    <nd ref="355740188"/>
    <nd ref="4112791708"/>
    <nd ref="353123149"/>
    <nd ref="353123150"/>
    <nd ref="4112791710"/>
    <nd ref="353123147"/>
    <nd ref="1018078402"/>
    <tag k="addr:conscriptionnumber" v="984"/>
    <tag k="addr:country" v="CZ"/>
    <tag k="addr:housenumber" v="984"/>
    <tag k="addr:place" v="Uh콏칤n캩ves"/>
    <tag k="addr:postcode" v="10400"/>
    <tag k="addr:street" v="Franti코ka Divi코e"/>
    <tag k="building" v="yes"/>
    <tag k="building:levels" v="1"/>
    <tag k="building:ruian:type" v="19"/>
    <tag k="email" v="info@asko-as.cz"/>
    <tag k="internet_access" v="wlan"/>
    <tag k="name" v="Asko a.s."/>
    <tag k="opening_hours" v="Mo-Fr 07:00-17:30; Sa 08:00-13:00"/>
    <tag k="phone" v="+420271017111"/>
    <tag k="ref:ruian:addr" v="22727710"/>
    <tag k="ref:ruian:building" v="21597090"/>
    <tag k="shop" v="doityourself"/>
    <tag k="source" v="cuzk:ruian"/>
    <tag k="source:addr" v="mvcr:adresa"/>
    <tag k="trade" v="wood"/>
    <tag k="website" v="https://www.asko-as.cz/"/>
  </way>
  <way id="31749681" version="9" timestamp="2020-12-30T21:49:03Z" changeset="96692362" uid="1189910" user="Milancer">
    <nd ref="1995553577"/>
    <nd ref="355308963"/>
    <nd ref="8275498777"/>
    <nd ref="1838498960"/>
    <nd ref="355308971"/>
    <nd ref="355308978"/>
    <nd ref="355308986"/>
    <nd ref="1733567608"/>
    <nd ref="355308990"/>
    <tag k="highway" v="residential"/>
  </way>
  <way id="31789923" version="15" timestamp="2025-03-16T00:21:43Z" changeset="163671705" uid="4018695" user="游뻟릖 Roman Horn칤k">
    <nd ref="355906067"/>
    <nd ref="1838489802"/>
    <nd ref="12669183255"/>
    <tag k="highway" v="tertiary"/>
    <tag k="lanes" v="2"/>
    <tag k="name" v="Ke K콏칤쬴"/>
    <tag k="ref" v="00310"/>
    <tag k="source" v="openstreetbugs, km"/>
    <tag k="surface" v="asphalt"/>
  </way>
  <way id="32846505" version="8" timestamp="2024-12-29T14:27:02Z" changeset="160749695" uid="469828" user="Luk치코 Jel칤nek">
    <nd ref="21263167"/>
    <nd ref="21263168"/>
    <tag k="highway" v="residential"/>
    <tag k="lane_markings" v="no"/>
    <tag k="lit" v="yes"/>
    <tag k="maxspeed" v="50"/>
    <tag k="maxspeed:type" v="sign"/>
    <tag k="name" v="Dopravn칤"/>
    <tag k="smoothness" v="good"/>
    <tag k="surface" v="asphalt"/>
  </way>
  <way id="32863034" version="7" timestamp="2017-07-15T21:38:09Z" changeset="50314478" uid="665336" user="Minimalis">
    <nd ref="27109624"/>
    <nd ref="1424387416"/>
    <nd ref="8811410"/>
    <nd ref="311118230"/>
    <tag k="highway" v="residential"/>
    <tag k="name" v="n치m캩st칤 Protifa코istick칳ch bojovn칤k콢"/>
  </way>
  <way id="32863035" version="24" timestamp="2025-03-15T23:36:01Z" changeset="163671013" uid="4018695" user="游뻟릖 Roman Horn칤k">
    <nd ref="7080847"/>
    <nd ref="1169894068"/>
    <nd ref="344249018"/>
    <tag k="highway" v="secondary"/>
    <tag k="lanes" v="2"/>
    <tag k="maxspeed" v="50"/>
    <tag k="name" v="P콏치telstv칤"/>
    <tag k="official_ref" v="333"/>
    <tag k="ref" v="333"/>
    <tag k="smoothness" v="good"/>
    <tag k="source:maxspeed" v="CZ:urban"/>
    <tag k="source:ref" v="survey"/>
    <tag k="surface" v="asphalt"/>
  </way>
  <way id="32863036" version="11" timestamp="2024-06-29T23:30:25Z" changeset="153350787" uid="469828" user="Luk치코 Jel칤nek">
    <nd ref="8811541"/>
    <nd ref="12021379131"/>
    <nd ref="12021379132"/>
    <nd ref="12021379133"/>
    <nd ref="409801394"/>
    <nd ref="12021379135"/>
    <nd ref="12021379134"/>
    <nd ref="12021379136"/>
    <nd ref="5528050693"/>
    <nd ref="12021379137"/>
    <nd ref="8811540"/>
    <nd ref="12021379139"/>
    <nd ref="1459107048"/>
    <tag k="highway" v="tertiary"/>
    <tag k="name" v="V Ku콘atech"/>
    <tag k="oneway" v="yes"/>
  </way>
  <way id="33476600" version="9" timestamp="2025-03-15T23:36:01Z" changeset="163671013" uid="4018695" user="游뻟릖 Roman Horn칤k">
    <nd ref="65354096"/>
    <nd ref="381058295"/>
    <nd ref="4112791727"/>
    <nd ref="381058299"/>
    <nd ref="381058304"/>
    <tag k="highway" v="tertiary"/>
    <tag k="lanes" v="2"/>
    <tag k="maxspeed" v="50"/>
    <tag k="maxspeed:type" v="sign"/>
    <tag k="name" v="Podlesk치"/>
    <tag k="surface" v="asphalt"/>
  </way>
  <way id="34888550" version="9" timestamp="2017-10-16T19:23:36Z" changeset="52992693" uid="371203" user="Perea">
    <nd ref="29447463"/>
    <nd ref="1729116764"/>
    <nd ref="409159536"/>
    <nd ref="1729116714"/>
    <nd ref="1729116700"/>
    <nd ref="1729116671"/>
    <nd ref="409159540"/>
    <nd ref="1729116620"/>
    <nd ref="409159543"/>
    <nd ref="1729116203"/>
    <nd ref="2611215796"/>
    <tag k="highway" v="unclassified"/>
    <tag k="lanes" v="1"/>
    <tag k="motor_vehicle" v="no"/>
    <tag k="smoothness" v="good"/>
    <tag k="surface" v="asphalt"/>
    <tag k="tracktype" v="grade1"/>
  </way>
  <way id="34892590" version="18" timestamp="2025-01-01T18:58:13Z" changeset="160881237" uid="1160334" user="honzaa">
    <nd ref="409198481"/>
    <nd ref="5122082248"/>
    <tag k="bridge" v="yes"/>
    <tag k="bridge:structure" v="beam"/>
    <tag k="highway" v="secondary"/>
    <tag k="lanes" v="2"/>
    <tag k="layer" v="1"/>
    <tag k="maxspeed" v="40"/>
    <tag k="maxweight:signed" v="no"/>
    <tag k="name" v="P콏치telstv칤"/>
    <tag k="official_ref" v="333"/>
    <tag k="ref" v="333"/>
    <tag k="smoothness" v="excellent"/>
    <tag k="source:maxspeed" v="sign"/>
    <tag k="source:ref" v="survey"/>
    <tag k="surface" v="asphalt"/>
  </way>
  <way id="34892591" version="22" timestamp="2025-03-15T23:36:01Z" changeset="163671013" uid="4018695" user="游뻟릖 Roman Horn칤k">
    <nd ref="30024851"/>
    <nd ref="344251647"/>
    <nd ref="1290030153"/>
    <tag k="highway" v="secondary"/>
    <tag k="lanes" v="2"/>
    <tag k="maxspeed" v="40"/>
    <tag k="name" v="P콏치telstv칤"/>
    <tag k="official_ref" v="333"/>
    <tag k="ref" v="333"/>
    <tag k="source:maxspeed" v="sign"/>
    <tag k="source:ref" v="survey"/>
    <tag k="surface" v="asphalt"/>
  </way>
  <way id="34918613" version="4" timestamp="2016-11-22T08:24:41Z" changeset="43864835" uid="2169558" user="JandaM">
    <nd ref="409706950"/>
    <nd ref="409706982"/>
    <nd ref="409706984"/>
    <nd ref="409706948"/>
    <nd ref="409706950"/>
    <tag k="addr:city" v="Praha"/>
    <tag k="addr:conscriptionnumber" v="1334"/>
    <tag k="addr:country" v="CZ"/>
    <tag k="addr:housenumber" v="1334/31"/>
    <tag k="addr:place" v="Uh콏칤n캩ves"/>
    <tag k="addr:postcode" v="10400"/>
    <tag k="addr:street" v="Saturnova"/>
    <tag k="addr:streetnumber" v="31"/>
    <tag k="building" v="residential"/>
    <tag k="building:flats" v="41"/>
    <tag k="building:ruian:type" v="6"/>
    <tag k="ref:ruian:addr" v="27140997"/>
    <tag k="ref:ruian:building" v="26625881"/>
    <tag k="source" v="cuzk:ruian"/>
    <tag k="start_date" v="2007-09-14"/>
  </way>
  <way id="34918614" version="4" timestamp="2016-11-22T08:24:41Z" changeset="43864835" uid="2169558" user="JandaM">
    <nd ref="409706997"/>
    <nd ref="409707001"/>
    <nd ref="409707018"/>
    <nd ref="409707004"/>
    <nd ref="409706998"/>
    <nd ref="409706997"/>
    <tag k="addr:city" v="Praha"/>
    <tag k="addr:conscriptionnumber" v="1331"/>
    <tag k="addr:country" v="CZ"/>
    <tag k="addr:housenumber" v="1331/48"/>
    <tag k="addr:place" v="Uh콏칤n캩ves"/>
    <tag k="addr:postcode" v="10400"/>
    <tag k="addr:street" v="Saturnova"/>
    <tag k="addr:streetnumber" v="48"/>
    <tag k="building" v="residential"/>
    <tag k="building:flats" v="65"/>
    <tag k="building:ruian:type" v="6"/>
    <tag k="ref:ruian:addr" v="27140946"/>
    <tag k="ref:ruian:building" v="26625857"/>
    <tag k="source" v="cuzk:ruian"/>
    <tag k="start_date" v="2007-09-14"/>
  </way>
  <way id="34918615" version="4" timestamp="2016-11-22T08:24:41Z" changeset="43864835" uid="2169558" user="JandaM">
    <nd ref="409706952"/>
    <nd ref="409706954"/>
    <nd ref="409706956"/>
    <nd ref="409706958"/>
    <nd ref="409706952"/>
    <tag k="addr:city" v="Praha"/>
    <tag k="addr:conscriptionnumber" v="1332"/>
    <tag k="addr:country" v="CZ"/>
    <tag k="addr:housenumber" v="1332/52"/>
    <tag k="addr:place" v="Uh콏칤n캩ves"/>
    <tag k="addr:postcode" v="10400"/>
    <tag k="addr:street" v="Saturnova"/>
    <tag k="addr:streetnumber" v="52"/>
    <tag k="building" v="residential"/>
    <tag k="building:flats" v="46"/>
    <tag k="building:ruian:type" v="6"/>
    <tag k="ref:ruian:addr" v="27140962"/>
    <tag k="ref:ruian:building" v="26625865"/>
    <tag k="source" v="cuzk:ruian"/>
    <tag k="start_date" v="2007-09-14"/>
  </way>
  <way id="34918616" version="4" timestamp="2016-11-22T08:24:41Z" changeset="43864835" uid="2169558" user="JandaM">
    <nd ref="409706968"/>
    <nd ref="409706970"/>
    <nd ref="409706972"/>
    <nd ref="409706976"/>
    <nd ref="409706968"/>
    <tag k="addr:city" v="Praha"/>
    <tag k="addr:conscriptionnumber" v="1331"/>
    <tag k="addr:country" v="CZ"/>
    <tag k="addr:housenumber" v="1331/44"/>
    <tag k="addr:place" v="Uh콏칤n캩ves"/>
    <tag k="addr:postcode" v="10400"/>
    <tag k="addr:street" v="Saturnova"/>
    <tag k="addr:streetnumber" v="44"/>
    <tag k="building" v="residential"/>
    <tag k="building:flats" v="65"/>
    <tag k="building:ruian:type" v="6"/>
    <tag k="ref:ruian:addr" v="27140920"/>
    <tag k="ref:ruian:building" v="26625857"/>
    <tag k="source" v="cuzk:ruian"/>
    <tag k="start_date" v="2007-09-14"/>
  </way>
  <way id="34918617" version="4" timestamp="2016-11-22T08:24:42Z" changeset="43864835" uid="2169558" user="JandaM">
    <nd ref="409706943"/>
    <nd ref="409706979"/>
    <nd ref="409706975"/>
    <nd ref="409706941"/>
    <nd ref="409706943"/>
    <tag k="addr:city" v="Praha"/>
    <tag k="addr:conscriptionnumber" v="1335"/>
    <tag k="addr:country" v="CZ"/>
    <tag k="addr:housenumber" v="1335/30"/>
    <tag k="addr:place" v="Uh콏칤n캩ves"/>
    <tag k="addr:postcode" v="10400"/>
    <tag k="addr:street" v="Venu코ina"/>
    <tag k="addr:streetnumber" v="30"/>
    <tag k="building" v="residential"/>
    <tag k="building:flats" v="42"/>
    <tag k="building:ruian:type" v="6"/>
    <tag k="ref:ruian:addr" v="27141021"/>
    <tag k="ref:ruian:building" v="26625890"/>
    <tag k="source" v="cuzk:ruian"/>
    <tag k="start_date" v="2007-09-14"/>
  </way>
  <way id="34918619" version="4" timestamp="2016-11-22T08:24:42Z" changeset="43864835" uid="2169558" user="JandaM">
    <nd ref="409706958"/>
    <nd ref="409706986"/>
    <nd ref="409707016"/>
    <nd ref="409706989"/>
    <nd ref="409706956"/>
    <nd ref="409706958"/>
    <tag k="addr:city" v="Praha"/>
    <tag k="addr:conscriptionnumber" v="1332"/>
    <tag k="addr:country" v="CZ"/>
    <tag k="addr:housenumber" v="1332/50"/>
    <tag k="addr:place" v="Uh콏칤n캩ves"/>
    <tag k="addr:postcode" v="10400"/>
    <tag k="addr:street" v="Saturnova"/>
    <tag k="addr:streetnumber" v="50"/>
    <tag k="building" v="residential"/>
    <tag k="building:flats" v="46"/>
    <tag k="building:ruian:type" v="6"/>
    <tag k="ref:ruian:addr" v="27140954"/>
    <tag k="ref:ruian:building" v="26625865"/>
    <tag k="source" v="cuzk:ruian"/>
    <tag k="start_date" v="2007-09-14"/>
  </way>
  <way id="34918620" version="4" timestamp="2016-11-22T08:24:42Z" changeset="43864835" uid="2169558" user="JandaM">
    <nd ref="409706960"/>
    <nd ref="409706991"/>
    <nd ref="409706994"/>
    <nd ref="409706961"/>
    <nd ref="409706960"/>
    <tag k="addr:city" v="Praha"/>
    <tag k="addr:conscriptionnumber" v="1333"/>
    <tag k="addr:country" v="CZ"/>
    <tag k="addr:housenumber" v="1333/29"/>
    <tag k="addr:place" v="Uh콏칤n캩ves"/>
    <tag k="addr:postcode" v="10400"/>
    <tag k="addr:street" v="Saturnova"/>
    <tag k="addr:streetnumber" v="29"/>
    <tag k="building" v="residential"/>
    <tag k="building:flats" v="42"/>
    <tag k="building:ruian:type" v="6"/>
    <tag k="ref:ruian:addr" v="27140989"/>
    <tag k="ref:ruian:building" v="26625873"/>
    <tag k="source" v="cuzk:ruian"/>
    <tag k="start_date" v="2007-09-14"/>
  </way>
  <way id="34918621" version="4" timestamp="2016-11-22T08:24:42Z" changeset="43864835" uid="2169558" user="JandaM">
    <nd ref="409706968"/>
    <nd ref="409706997"/>
    <nd ref="409706998"/>
    <nd ref="409706970"/>
    <nd ref="409706968"/>
    <tag k="addr:city" v="Praha"/>
    <tag k="addr:conscriptionnumber" v="1331"/>
    <tag k="addr:country" v="CZ"/>
    <tag k="addr:housenumber" v="1331/46"/>
    <tag k="addr:place" v="Uh콏칤n캩ves"/>
    <tag k="addr:postcode" v="10400"/>
    <tag k="addr:street" v="Saturnova"/>
    <tag k="addr:streetnumber" v="46"/>
    <tag k="building" v="residential"/>
    <tag k="building:flats" v="65"/>
    <tag k="building:ruian:type" v="6"/>
    <tag k="ref:ruian:addr" v="27140938"/>
    <tag k="ref:ruian:building" v="26625857"/>
    <tag k="source" v="cuzk:ruian"/>
    <tag k="start_date" v="2007-09-14"/>
  </way>
  <way id="34918627" version="4" timestamp="2016-11-22T08:24:42Z" changeset="43864835" uid="2169558" user="JandaM">
    <nd ref="409706938"/>
    <nd ref="409707006"/>
    <nd ref="409706939"/>
    <nd ref="409706941"/>
    <nd ref="409706943"/>
    <nd ref="409706938"/>
    <tag k="addr:city" v="Praha"/>
    <tag k="addr:conscriptionnumber" v="1335"/>
    <tag k="addr:country" v="CZ"/>
    <tag k="addr:housenumber" v="1335/28"/>
    <tag k="addr:place" v="Uh콏칤n캩ves"/>
    <tag k="addr:postcode" v="10400"/>
    <tag k="addr:street" v="Venu코ina"/>
    <tag k="addr:streetnumber" v="28"/>
    <tag k="building" v="residential"/>
    <tag k="building:flats" v="42"/>
    <tag k="building:ruian:type" v="6"/>
    <tag k="ref:ruian:addr" v="27141012"/>
    <tag k="ref:ruian:building" v="26625890"/>
    <tag k="source" v="cuzk:ruian"/>
    <tag k="start_date" v="2007-09-14"/>
  </way>
  <way id="34918632" version="4" timestamp="2016-11-22T08:24:43Z" changeset="43864835" uid="2169558" user="JandaM">
    <nd ref="409706960"/>
    <nd ref="409706961"/>
    <nd ref="409706963"/>
    <nd ref="409706965"/>
    <nd ref="409706960"/>
    <tag k="addr:city" v="Praha"/>
    <tag k="addr:conscriptionnumber" v="1333"/>
    <tag k="addr:country" v="CZ"/>
    <tag k="addr:housenumber" v="1333/27"/>
    <tag k="addr:place" v="Uh콏칤n캩ves"/>
    <tag k="addr:postcode" v="10400"/>
    <tag k="addr:street" v="Saturnova"/>
    <tag k="addr:streetnumber" v="27"/>
    <tag k="building" v="residential"/>
    <tag k="building:flats" v="42"/>
    <tag k="building:ruian:type" v="6"/>
    <tag k="ref:ruian:addr" v="27140971"/>
    <tag k="ref:ruian:building" v="26625873"/>
    <tag k="source" v="cuzk:ruian"/>
    <tag k="start_date" v="2007-09-14"/>
  </way>
  <way id="34918633" version="4" timestamp="2016-11-22T08:24:43Z" changeset="43864835" uid="2169558" user="JandaM">
    <nd ref="409706945"/>
    <nd ref="409706947"/>
    <nd ref="409706948"/>
    <nd ref="409706950"/>
    <nd ref="409706945"/>
    <tag k="addr:city" v="Praha"/>
    <tag k="addr:conscriptionnumber" v="1334"/>
    <tag k="addr:country" v="CZ"/>
    <tag k="addr:housenumber" v="1334/33"/>
    <tag k="addr:place" v="Uh콏칤n캩ves"/>
    <tag k="addr:postcode" v="10400"/>
    <tag k="addr:street" v="Saturnova"/>
    <tag k="addr:streetnumber" v="33"/>
    <tag k="building" v="residential"/>
    <tag k="building:flats" v="41"/>
    <tag k="building:ruian:type" v="6"/>
    <tag k="ref:ruian:addr" v="27141004"/>
    <tag k="ref:ruian:building" v="26625881"/>
    <tag k="source" v="cuzk:ruian"/>
    <tag k="start_date" v="2007-09-14"/>
  </way>
  <way id="35002971" version="6" timestamp="2024-12-29T14:15:23Z" changeset="160749679" uid="469828" user="Luk치코 Jel칤nek">
    <nd ref="344247180"/>
    <nd ref="7086936505"/>
    <nd ref="410556213"/>
    <tag k="highway" v="residential"/>
    <tag k="lit" v="yes"/>
    <tag k="maxspeed" v="30"/>
    <tag k="maxspeed:type" v="CZ:zone30"/>
    <tag k="name" v="Mor치vkova"/>
    <tag k="oneway" v="yes"/>
    <tag k="oneway:bicycle" v="no"/>
    <tag k="surface" v="asphalt"/>
    <tag k="zone:maxspeed" v="30"/>
  </way>
  <way id="35036719" version="3" timestamp="2020-11-26T09:34:08Z" changeset="94827686" uid="6588887" user="Martin2035">
    <nd ref="344256342"/>
    <nd ref="344256346"/>
    <nd ref="4946235787"/>
    <nd ref="4946235789"/>
    <tag k="highway" v="residential"/>
    <tag k="motor_vehicle" v="destination"/>
    <tag k="name" v="Za Pivovarem"/>
    <tag k="surface" v="asphalt"/>
  </way>
  <way id="35036722" version="9" timestamp="2017-10-16T19:23:36Z" changeset="52992693" uid="371203" user="Perea">
    <nd ref="410927596"/>
    <nd ref="29447463"/>
    <tag k="highway" v="unclassified"/>
    <tag k="lanes" v="1"/>
    <tag k="motor_vehicle" v="no"/>
    <tag k="smoothness" v="good"/>
    <tag k="surface" v="asphalt"/>
  </way>
  <way id="35084294" version="21" timestamp="2023-01-08T11:49:34Z" changeset="131011016" uid="1189910" user="Milancer">
    <nd ref="411613743"/>
    <nd ref="1169911872"/>
    <nd ref="1838489757"/>
    <nd ref="3812333469"/>
    <nd ref="1838489763"/>
    <nd ref="244017980"/>
    <nd ref="1169911856"/>
    <nd ref="1169911861"/>
    <nd ref="244017981"/>
    <nd ref="1838489773"/>
    <nd ref="29448064"/>
    <nd ref="3638076714"/>
    <tag k="highway" v="tertiary"/>
    <tag k="lanes" v="2"/>
    <tag k="lit" v="yes"/>
    <tag k="maxspeed" v="50"/>
    <tag k="name" v="K D치lnici"/>
    <tag k="ref" v="00310"/>
    <tag k="source:ref" v="rsd_cr"/>
    <tag k="surface" v="asphalt"/>
  </way>
  <way id="35154097" version="8" timestamp="2024-09-03T16:36:59Z" changeset="156150287" uid="469828" user="Luk치코 Jel칤nek">
    <nd ref="412271508"/>
    <nd ref="8167233015"/>
    <nd ref="412271507"/>
    <nd ref="1282975876"/>
    <nd ref="12061087773"/>
    <nd ref="412344505"/>
    <nd ref="8167232977"/>
    <nd ref="412271506"/>
    <nd ref="1459107053"/>
    <nd ref="412271504"/>
    <tag k="highway" v="residential"/>
    <tag k="lane_markings" v="no"/>
    <tag k="name" v="Nov칠 n치m캩st칤"/>
    <tag k="surface" v="asphalt"/>
  </way>
  <way id="39365889" version="15" timestamp="2024-09-12T13:19:12Z" changeset="156528430" uid="469828" user="Luk치코 Jel칤nek">
    <nd ref="140052247"/>
    <nd ref="3638087396"/>
    <nd ref="3638087395"/>
    <nd ref="7086936545"/>
    <nd ref="3468963479"/>
    <nd ref="12172500699"/>
    <nd ref="12172500700"/>
    <nd ref="140052223"/>
    <tag k="highway" v="residential"/>
    <tag k="lane_markings" v="no"/>
    <tag k="lit" v="yes"/>
    <tag k="maxspeed" v="50"/>
    <tag k="maxspeed:type" v="sign"/>
    <tag k="name" v="U Star칠ho n치dra쮂"/>
    <tag k="smoothness" v="intermediate"/>
    <tag k="surface" v="asphalt"/>
  </way>
  <way id="39941669" version="9" timestamp="2025-03-16T00:21:43Z" changeset="163671705" uid="4018695" user="游뻟릖 Roman Horn칤k">
    <nd ref="311116434"/>
    <nd ref="1171888877"/>
    <nd ref="12669183242"/>
    <nd ref="1171888875"/>
    <nd ref="1171888870"/>
    <tag k="hgv" v="no"/>
    <tag k="highway" v="tertiary"/>
    <tag k="name" v="Ln치콏sk치"/>
  </way>
  <way id="39941673" version="24" timestamp="2025-01-01T18:58:13Z" changeset="160881237" uid="1160334" user="honzaa">
    <nd ref="344247186"/>
    <nd ref="1290030138"/>
    <nd ref="29447592"/>
    <nd ref="29447602"/>
    <nd ref="7080835"/>
    <tag k="highway" v="secondary"/>
    <tag k="lanes" v="2"/>
    <tag k="lit" v="yes"/>
    <tag k="maxspeed" v="50"/>
    <tag k="name" v="P콏치telstv칤"/>
    <tag k="official_ref" v="333"/>
    <tag k="ref" v="333"/>
    <tag k="smoothness" v="good"/>
    <tag k="source:maxspeed" v="CZ:urban"/>
    <tag k="surface" v="asphalt"/>
  </way>
  <way id="39943971" version="13" timestamp="2024-11-12T09:28:37Z" changeset="159041835" uid="718054" user="Piskvor">
    <nd ref="34595037"/>
    <nd ref="34595041"/>
    <nd ref="34595043"/>
    <nd ref="34595048"/>
    <nd ref="34595050"/>
    <nd ref="6393580560"/>
    <nd ref="6393580559"/>
    <nd ref="1289207413"/>
    <nd ref="34595948"/>
    <nd ref="34595949"/>
    <nd ref="7784042"/>
    <tag k="highway" v="unclassified"/>
    <tag k="lanes" v="1"/>
    <tag k="motor_vehicle" v="private"/>
    <tag k="smoothness" v="good"/>
    <tag k="surface" v="asphalt"/>
    <tag k="tracktype" v="grade1"/>
  </way>
  <way id="53172016" version="7" timestamp="2025-04-05T20:00:07Z" changeset="164566557" uid="1189910" user="Milancer">
    <nd ref="525543165"/>
    <nd ref="34595056"/>
    <nd ref="34595058"/>
    <nd ref="12731831675"/>
    <nd ref="34595060"/>
    <nd ref="34595062"/>
    <nd ref="5103766823"/>
    <nd ref="34595064"/>
    <tag k="highway" v="unclassified"/>
    <tag k="name" v="Netluky"/>
    <tag k="surface" v="paved"/>
  </way>
  <way id="53172024" version="9" timestamp="2025-03-15T22:29:55Z" changeset="163669756" uid="4018695" user="游뻟릖 Roman Horn칤k">
    <nd ref="672850161"/>
    <nd ref="1729116510"/>
    <nd ref="12669074174"/>
    <nd ref="471640267"/>
    <nd ref="471640268"/>
    <nd ref="29447358"/>
    <tag k="highway" v="unclassified"/>
    <tag k="lanes" v="1"/>
    <tag k="lit" v="no"/>
    <tag k="motor_vehicle" v="no"/>
    <tag k="smoothness" v="good"/>
    <tag k="surface" v="asphalt"/>
  </way>
  <way id="53172026" version="8" timestamp="2025-04-16T09:46:47Z" changeset="165019915" uid="718054" user="Piskvor">
    <nd ref="2611215792"/>
    <nd ref="672850181"/>
    <nd ref="672850178"/>
    <nd ref="9530280197"/>
    <nd ref="409159545"/>
    <nd ref="12759347404"/>
    <nd ref="313880046"/>
    <tag k="highway" v="unclassified"/>
    <tag k="tracktype" v="grade1"/>
  </way>
  <way id="53172027" version="2" timestamp="2018-12-27T15:38:01Z" changeset="65816314" uid="3003739" user="r00tcz">
    <nd ref="29447468"/>
    <nd ref="6166389913"/>
    <nd ref="29447474"/>
    <nd ref="274094178"/>
    <nd ref="244023055"/>
    <nd ref="274094179"/>
    <nd ref="244023056"/>
    <nd ref="244023059"/>
    <nd ref="244023062"/>
    <tag k="highway" v="unclassified"/>
  </way>
  <way id="53178797" version="9" timestamp="2020-06-20T14:11:09Z" changeset="86912246" uid="4581594" user="Petr_Mlcoch">
    <nd ref="1634551084"/>
    <nd ref="1634551081"/>
    <nd ref="1634551067"/>
    <nd ref="1634551066"/>
    <nd ref="1634551065"/>
    <nd ref="5103766825"/>
    <nd ref="1634551039"/>
    <nd ref="1634551029"/>
    <nd ref="1634551026"/>
    <nd ref="1634551020"/>
    <nd ref="1634551018"/>
    <nd ref="1634551016"/>
    <nd ref="7783979"/>
    <tag k="highway" v="unclassified"/>
    <tag k="lanes" v="1"/>
    <tag k="motor_vehicle" v="no"/>
    <tag k="smoothness" v="good"/>
    <tag k="surface" v="asphalt"/>
  </way>
  <way id="59260865" version="7" timestamp="2024-03-06T06:55:31Z" changeset="148278160" uid="15107215" user="B치ra Soukupov치">
    <nd ref="140051918"/>
    <nd ref="3335616474"/>
    <nd ref="8275498728"/>
    <nd ref="1733567778"/>
    <nd ref="11696482299"/>
    <nd ref="11696482302"/>
    <nd ref="1733567685"/>
    <nd ref="1733567676"/>
    <nd ref="11696482303"/>
    <nd ref="11696482305"/>
    <nd ref="8275498754"/>
    <nd ref="734865562"/>
    <tag k="highway" v="residential"/>
    <tag k="name" v="Su코ilova"/>
  </way>
  <way id="67790656" version="11" timestamp="2024-07-17T14:44:49Z" changeset="154061985" uid="469828" user="Luk치코 Jel칤nek">
    <nd ref="2552701232"/>
    <nd ref="7095592987"/>
    <nd ref="7095592986"/>
    <nd ref="55505428"/>
    <nd ref="861266484"/>
    <nd ref="2195573282"/>
    <nd ref="55505425"/>
    <tag k="highway" v="residential"/>
    <tag k="lanes" v="2"/>
    <tag k="name" v="Be캜ovsk치"/>
    <tag k="surface" v="asphalt"/>
  </way>
  <way id="67790695" version="9" timestamp="2025-03-16T00:21:43Z" changeset="163671705" uid="4018695" user="游뻟릖 Roman Horn칤k">
    <nd ref="355906067"/>
    <nd ref="1838489800"/>
    <nd ref="12669183252"/>
    <nd ref="1838489803"/>
    <nd ref="29448070"/>
    <nd ref="7503774584"/>
    <nd ref="12669183251"/>
    <nd ref="130440455"/>
    <nd ref="12669183250"/>
    <nd ref="12669183249"/>
    <nd ref="130440478"/>
    <nd ref="12669183248"/>
    <nd ref="12669183243"/>
    <nd ref="130440496"/>
    <nd ref="12669183244"/>
    <tag k="hgv" v="no"/>
    <tag k="highway" v="tertiary"/>
    <tag k="lanes" v="2"/>
    <tag k="name" v="K D치lnici"/>
  </way>
  <way id="72548870" version="5" timestamp="2024-04-26T12:37:30Z" changeset="150537142" uid="231749" user="Eino81">
    <nd ref="861202252"/>
    <nd ref="861202132"/>
    <nd ref="861189975"/>
    <tag k="access" v="private"/>
    <tag k="highway" v="residential"/>
  </way>
  <way id="72565254" version="3" timestamp="2019-09-12T06:46:54Z" changeset="74379284" uid="10293562" user="Pixxlic">
    <nd ref="861291691"/>
    <nd ref="861291738"/>
    <nd ref="861291668"/>
    <nd ref="861291705"/>
    <nd ref="861291682"/>
    <nd ref="861291722"/>
    <nd ref="861291692"/>
    <nd ref="861291674"/>
    <nd ref="861291686"/>
    <nd ref="861291735"/>
    <nd ref="861291641"/>
    <nd ref="861291718"/>
    <nd ref="861291691"/>
    <tag k="addr:city" v="Praha 10 - Uh콏칤n캩ves"/>
    <tag k="addr:housenumber" v="1398/11"/>
    <tag k="addr:postcode" v="104 00"/>
    <tag k="addr:street" v="Be캜ovsk치"/>
    <tag k="building" v="industrial"/>
    <tag k="building:levels" v="2"/>
    <tag k="building:ruian:type" v="12"/>
    <tag k="name" v="Nord-Poh치n캩c칤 technika s. r. o."/>
    <tag k="ref:ruian:building" v="26891166"/>
    <tag k="source" v="cuzk:ruian"/>
    <tag k="start_date" v="2008-02-13"/>
  </way>
  <way id="72579697" version="3" timestamp="2024-11-17T13:57:27Z" changeset="159243943" uid="4018695" user="游뻟릖 Roman Horn칤k">
    <nd ref="861482502"/>
    <nd ref="861482575"/>
    <nd ref="861482413"/>
    <nd ref="861482599"/>
    <nd ref="861482466"/>
    <nd ref="861482431"/>
    <nd ref="861482445"/>
    <nd ref="861482564"/>
    <nd ref="861482375"/>
    <nd ref="861482500"/>
    <nd ref="861482364"/>
    <nd ref="861482411"/>
    <nd ref="861482531"/>
    <nd ref="861482449"/>
    <nd ref="3441620296"/>
    <nd ref="3441620297"/>
    <nd ref="3441620295"/>
    <nd ref="3441620294"/>
    <nd ref="861482582"/>
    <nd ref="861482419"/>
    <nd ref="861482605"/>
    <nd ref="861482526"/>
    <nd ref="861482554"/>
    <nd ref="861482390"/>
    <nd ref="861482377"/>
    <nd ref="861482502"/>
    <tag k="addr:city" v="Praha 10 - Uh콏칤n캩ves"/>
    <tag k="addr:housenumber" v="1015"/>
    <tag k="addr:postcode" v="10400"/>
    <tag k="addr:street" v="Be캜ovsk치"/>
    <tag k="building" v="industrial"/>
    <tag k="building:levels" v="1"/>
    <tag k="building:ruian:type" v="1"/>
    <tag k="name" v="TITBIT"/>
    <tag k="ref:ruian:building" v="24563013"/>
    <tag k="source" v="cuzk:ruian"/>
  </way>
  <way id="72604771" version="5" timestamp="2024-03-30T20:01:14Z" changeset="149365661" uid="10932047" user="AF HAF KARTOGRAF">
    <nd ref="861698962"/>
    <nd ref="861699186"/>
    <nd ref="861698675"/>
    <nd ref="861698939"/>
    <nd ref="861698962"/>
    <tag k="addr:conscriptionnumber" v="940"/>
    <tag k="addr:country" v="CZ"/>
    <tag k="addr:housenumber" v="940/8"/>
    <tag k="addr:postcode" v="10400"/>
    <tag k="addr:street" v="Podlesk치"/>
    <tag k="addr:streetnumber" v="8"/>
    <tag k="building" v="civic"/>
    <tag k="building:levels" v="1"/>
    <tag k="building:ruian:type" v="5"/>
    <tag k="ref:ruian:addr" v="22649786"/>
    <tag k="ref:ruian:building" v="21596697"/>
    <tag k="source" v="cuzk:ruian"/>
  </way>
  <way id="72605827" version="4" timestamp="2019-03-12T04:20:19Z" changeset="68047074" uid="9451067" user="b-jazz-bot">
    <nd ref="861708752"/>
    <nd ref="861708507"/>
    <nd ref="861708236"/>
    <nd ref="861708615"/>
    <nd ref="861707826"/>
    <nd ref="3452330820"/>
    <nd ref="3452330822"/>
    <nd ref="3452330821"/>
    <nd ref="3452330823"/>
    <nd ref="3452330824"/>
    <nd ref="861708174"/>
    <nd ref="861708070"/>
    <nd ref="861708752"/>
    <tag k="building" v="civic"/>
    <tag k="building:ruian:type" v="5"/>
    <tag k="email" v="odbyt@pragochema.cz"/>
    <tag k="fax" v="+420 271 082 362"/>
    <tag k="man_made" v="works"/>
    <tag k="name" v="Pragochema spol. s r.o."/>
    <tag k="phone" v="+420 271 082 363"/>
    <tag k="product" v="Chemaicals"/>
    <tag k="ref:ruian:building" v="21592829"/>
    <tag k="source" v="cuzk:ruian"/>
    <tag k="website" v="https://www.pragochema.cz/"/>
  </way>
  <way id="74169815" version="13" timestamp="2025-03-15T22:29:55Z" changeset="163669756" uid="4018695" user="游뻟릖 Roman Horn칤k">
    <nd ref="877262576"/>
    <nd ref="5528050713"/>
    <nd ref="4460961452"/>
    <nd ref="877262740"/>
    <nd ref="9674082051"/>
    <nd ref="877262578"/>
    <nd ref="12669074161"/>
    <nd ref="2757024464"/>
    <nd ref="5528050711"/>
    <nd ref="877262579"/>
    <nd ref="12669074162"/>
    <nd ref="3638085686"/>
    <nd ref="12669074163"/>
    <nd ref="12669074164"/>
    <nd ref="1241155392"/>
    <nd ref="4460961463"/>
    <nd ref="9674082050"/>
    <nd ref="9674082048"/>
    <nd ref="4460961472"/>
    <nd ref="4460961469"/>
    <nd ref="3638085690"/>
    <nd ref="3638087394"/>
    <nd ref="877262575"/>
    <tag k="highway" v="residential"/>
    <tag k="maxspeed" v="30"/>
    <tag k="name" v="V치clava Trojana"/>
  </way>
  <way id="74169823" version="5" timestamp="2017-01-05T19:20:25Z" changeset="44933397" uid="474183" user="ratrun">
    <nd ref="877262741"/>
    <nd ref="4460961450"/>
    <nd ref="4460961454"/>
    <nd ref="4591271816"/>
    <nd ref="877262740"/>
    <tag k="highway" v="residential"/>
    <tag k="name" v="Firku코n칠ho"/>
  </way>
  <way id="75348024" version="3" timestamp="2024-07-14T18:13:55Z" changeset="153942221" uid="231749" user="Eino81">
    <nd ref="889521499"/>
    <nd ref="12053519790"/>
    <tag k="highway" v="residential"/>
    <tag k="name" v="Be캜ovsk치"/>
  </way>
  <way id="75720138" version="8" timestamp="2024-11-12T11:23:44Z" changeset="159045807" uid="718054" user="Piskvor">
    <nd ref="29447149"/>
    <nd ref="5103778729"/>
    <nd ref="1169868550"/>
    <nd ref="5103778727"/>
    <nd ref="29447172"/>
    <nd ref="12334391482"/>
    <nd ref="11631658821"/>
    <nd ref="1634563573"/>
    <nd ref="1169868561"/>
    <nd ref="1634563568"/>
    <nd ref="1634563560"/>
    <nd ref="1634563558"/>
    <nd ref="6393563605"/>
    <nd ref="1634563556"/>
    <nd ref="1634563555"/>
    <nd ref="1634563553"/>
    <nd ref="1634563551"/>
    <nd ref="29447252"/>
    <nd ref="1169868577"/>
    <nd ref="7783979"/>
    <tag k="highway" v="tertiary"/>
    <tag k="maxspeed" v="50"/>
    <tag k="source:maxspeed" v="CZ:urban"/>
    <tag k="surface" v="asphalt"/>
  </way>
  <way id="87513832" version="8" timestamp="2020-05-13T06:58:37Z" changeset="85124930" uid="665336" user="Minimalis">
    <nd ref="1018078103"/>
    <nd ref="1018078434"/>
    <nd ref="1018078264"/>
    <nd ref="1018078078"/>
    <nd ref="1018078417"/>
    <nd ref="1018078251"/>
    <nd ref="1018078215"/>
    <nd ref="1018078454"/>
    <nd ref="1018078103"/>
    <tag k="addr:conscriptionnumber" v="1545"/>
    <tag k="addr:country" v="CZ"/>
    <tag k="addr:housenumber" v="1545/1"/>
    <tag k="addr:place" v="Uh콏칤n캩ves"/>
    <tag k="addr:postcode" v="10400"/>
    <tag k="addr:street" v="Podlesk치"/>
    <tag k="addr:streetnumber" v="1"/>
    <tag k="building" v="yes"/>
    <tag k="building:levels" v="1"/>
    <tag k="building:ruian:type" v="15"/>
    <tag k="ref:ruian:addr" v="41886496"/>
    <tag k="ref:ruian:building" v="53299272"/>
    <tag k="source" v="cuzk:ruian"/>
    <tag k="start_date" v="2004-03-08"/>
  </way>
  <way id="87513834" version="3" timestamp="2017-07-16T13:41:18Z" changeset="50326318" uid="102554" user="Jezevec">
    <nd ref="1018078205"/>
    <nd ref="1018078381"/>
    <nd ref="1018078212"/>
    <nd ref="1018078343"/>
    <nd ref="1018078164"/>
    <nd ref="1018078292"/>
    <nd ref="1018078089"/>
    <nd ref="1018078371"/>
    <nd ref="1018078123"/>
    <nd ref="1018078414"/>
    <nd ref="1018078248"/>
    <nd ref="1018078480"/>
    <nd ref="1018078176"/>
    <nd ref="1018078133"/>
    <nd ref="1018078205"/>
    <tag k="addr:conscriptionnumber" v="1065"/>
    <tag k="addr:housenumber" v="1065"/>
    <tag k="addr:place" v="Uh콏칤n캩ves"/>
    <tag k="addr:postcode" v="10400"/>
    <tag k="addr:street" v="Podlesk치"/>
    <tag k="building" v="yes"/>
    <tag k="building:ruian:type" v="19"/>
    <tag k="ref:ruian:addr" v="25017730"/>
    <tag k="ref:ruian:building" v="24563447"/>
    <tag k="source" v="cuzk:ruian"/>
  </way>
  <way id="87513842" version="5" timestamp="2024-03-30T20:01:14Z" changeset="149365661" uid="10932047" user="AF HAF KARTOGRAF">
    <nd ref="1018078297"/>
    <nd ref="1018078378"/>
    <nd ref="1018078203"/>
    <nd ref="1018078249"/>
    <nd ref="1018078047"/>
    <nd ref="1018078331"/>
    <nd ref="1018078140"/>
    <nd ref="1018078472"/>
    <nd ref="1018078302"/>
    <nd ref="1018078129"/>
    <nd ref="1018078407"/>
    <nd ref="1018078167"/>
    <nd ref="1018078297"/>
    <tag k="addr:conscriptionnumber" v="585"/>
    <tag k="addr:country" v="CZ"/>
    <tag k="addr:housenumber" v="585/3"/>
    <tag k="addr:postcode" v="10400"/>
    <tag k="addr:street" v="Franti코ka Divi코e"/>
    <tag k="addr:streetnumber" v="3"/>
    <tag k="building" v="industrial"/>
    <tag k="building:flats" v="1"/>
    <tag k="building:levels" v="3"/>
    <tag k="building:ruian:type" v="1"/>
    <tag k="ref:ruian:addr" v="22645969"/>
    <tag k="ref:ruian:building" v="21593175"/>
    <tag k="source" v="cuzk:ruian"/>
  </way>
  <way id="105364633" version="10" timestamp="2024-12-27T22:13:19Z" changeset="160694795" uid="469828" user="Luk치코 Jel칤nek">
    <nd ref="355309275"/>
    <nd ref="12457170949"/>
    <nd ref="3979574254"/>
    <nd ref="3638085692"/>
    <nd ref="877262575"/>
    <nd ref="12457170956"/>
    <nd ref="34595027"/>
    <tag k="highway" v="tertiary"/>
    <tag k="lane_markings" v="no"/>
    <tag k="maxspeed" v="30"/>
    <tag k="name" v="KNetluk치m"/>
    <tag k="source:maxspeed" v="sign"/>
    <tag k="surface" v="asphalt"/>
  </way>
  <way id="105364643" version="8" timestamp="2025-03-15T22:29:55Z" changeset="163669756" uid="4018695" user="游뻟릖 Roman Horn칤k">
    <nd ref="12669074171"/>
    <nd ref="365604006"/>
    <nd ref="12669074172"/>
    <nd ref="12669074173"/>
    <nd ref="29447265"/>
    <nd ref="5103770034"/>
    <nd ref="5103770041"/>
    <nd ref="34593623"/>
    <nd ref="7787726"/>
    <nd ref="4089594185"/>
    <nd ref="5103770045"/>
    <nd ref="5103770047"/>
    <nd ref="1169870334"/>
    <nd ref="7783979"/>
    <tag k="highway" v="tertiary"/>
    <tag k="maxspeed" v="70"/>
    <tag k="maxspeed:type" v="sign"/>
    <tag k="name" v="KNetluk치m"/>
    <tag k="surface" v="asphalt"/>
  </way>
  <way id="105364670" version="7" timestamp="2023-10-27T08:04:36Z" changeset="143197765" uid="13864" user="Martin Poljak">
    <nd ref="244023096"/>
    <nd ref="34595064"/>
    <tag k="cycleway:both" v="no"/>
    <tag k="highway" v="tertiary"/>
    <tag k="lane_markings" v="no"/>
    <tag k="maxspeed" v="70"/>
    <tag k="name" v="KNetluk치m"/>
    <tag k="source:maxspeed" v="sign"/>
    <tag k="surface" v="asphalt"/>
  </way>
  <way id="105364673" version="6" timestamp="2024-04-18T17:55:43Z" changeset="150188153" uid="9291527" user="marekhrabe">
    <nd ref="34595064"/>
    <nd ref="365604007"/>
    <nd ref="1729116607"/>
    <nd ref="29447312"/>
    <nd ref="29447342"/>
    <tag k="highway" v="unclassified"/>
    <tag k="line" v="1"/>
    <tag k="name" v="Netluky"/>
    <tag k="surface" v="sett"/>
  </way>
  <way id="105364687" version="4" timestamp="2024-04-18T17:55:43Z" changeset="150188153" uid="9291527" user="marekhrabe">
    <nd ref="409147944"/>
    <nd ref="244023096"/>
    <tag k="highway" v="unclassified"/>
    <tag k="lane_markings" v="no"/>
    <tag k="name" v="Netluky"/>
    <tag k="oneway" v="yes"/>
    <tag k="surface" v="asphalt"/>
  </way>
  <way id="108141085" version="3" timestamp="2019-08-12T13:28:00Z" changeset="73269130" uid="25867" user="adamos">
    <nd ref="1241155394"/>
    <nd ref="4460961456"/>
    <nd ref="4460797489"/>
    <nd ref="1241155392"/>
    <tag k="highway" v="residential"/>
    <tag k="name" v="V치clava Trojana"/>
  </way>
  <way id="111488644" version="14" timestamp="2025-03-15T22:29:55Z" changeset="163669756" uid="4018695" user="游뻟릖 Roman Horn칤k">
    <nd ref="1270094963"/>
    <nd ref="320778013"/>
    <nd ref="8112293766"/>
    <nd ref="412425956"/>
    <nd ref="8811543"/>
    <nd ref="409707036"/>
    <nd ref="5528050691"/>
    <nd ref="11716360115"/>
    <nd ref="344256370"/>
    <nd ref="2407769945"/>
    <nd ref="8811542"/>
    <nd ref="12613228409"/>
    <nd ref="2407769923"/>
    <nd ref="344256367"/>
    <nd ref="5528050692"/>
    <nd ref="410556304"/>
    <nd ref="8811541"/>
    <tag k="highway" v="tertiary"/>
    <tag k="name" v="V Ku콘atech"/>
  </way>
  <way id="111488653" version="5" timestamp="2019-08-12T11:00:17Z" changeset="73263929" uid="25867" user="adamos">
    <nd ref="1270094932"/>
    <nd ref="1270094927"/>
    <tag k="bridge" v="yes"/>
    <tag k="highway" v="tertiary"/>
    <tag k="layer" v="1"/>
    <tag k="name" v="V Ku콘atech"/>
  </way>
  <way id="111737395" version="9" timestamp="2023-06-20T07:06:26Z" changeset="137547649" uid="25867" user="adamos">
    <nd ref="4514980690"/>
    <nd ref="1272295552"/>
    <nd ref="4514980757"/>
    <nd ref="4514980758"/>
    <nd ref="4514980755"/>
    <nd ref="4514980756"/>
    <nd ref="1272295187"/>
    <nd ref="1272295421"/>
    <nd ref="2757023884"/>
    <nd ref="4514980754"/>
    <nd ref="2757023887"/>
    <nd ref="4514980753"/>
    <nd ref="2757023890"/>
    <nd ref="4514980752"/>
    <nd ref="4514980750"/>
    <nd ref="4514980751"/>
    <nd ref="4514980748"/>
    <nd ref="4514980749"/>
    <nd ref="4514980746"/>
    <nd ref="4514980747"/>
    <nd ref="1272295598"/>
    <nd ref="1272295221"/>
    <nd ref="2757023908"/>
    <nd ref="4514980744"/>
    <nd ref="4514980745"/>
    <nd ref="1272295540"/>
    <nd ref="4514980743"/>
    <nd ref="4514980741"/>
    <nd ref="4514980742"/>
    <nd ref="4514980740"/>
    <nd ref="4514980739"/>
    <nd ref="2757023913"/>
    <nd ref="2757023914"/>
    <nd ref="4514980738"/>
    <nd ref="4514980736"/>
    <nd ref="4514980737"/>
    <nd ref="4514980734"/>
    <nd ref="4514980735"/>
    <nd ref="2757023916"/>
    <nd ref="1272295408"/>
    <nd ref="1272295177"/>
    <nd ref="4514980732"/>
    <nd ref="4514980733"/>
    <nd ref="4514980730"/>
    <nd ref="4514980731"/>
    <nd ref="1272295448"/>
    <nd ref="4514980729"/>
    <nd ref="4514980728"/>
    <nd ref="2757023909"/>
    <nd ref="4514980727"/>
    <nd ref="2757023907"/>
    <nd ref="4514980726"/>
    <nd ref="4514980724"/>
    <nd ref="4514980725"/>
    <nd ref="4514980722"/>
    <nd ref="4514980723"/>
    <nd ref="1272295383"/>
    <nd ref="1272295622"/>
    <nd ref="1272295245"/>
    <nd ref="1272295666"/>
    <nd ref="4514980720"/>
    <nd ref="4514980721"/>
    <nd ref="4514980718"/>
    <nd ref="4514980719"/>
    <nd ref="4514980717"/>
    <nd ref="2757023898"/>
    <nd ref="4514980716"/>
    <nd ref="4514980715"/>
    <nd ref="4514980714"/>
    <nd ref="2757023896"/>
    <nd ref="4514980712"/>
    <nd ref="4514980713"/>
    <nd ref="4514980710"/>
    <nd ref="4514980711"/>
    <nd ref="4514980708"/>
    <nd ref="4514980709"/>
    <nd ref="2757023886"/>
    <nd ref="4514980707"/>
    <nd ref="2757023883"/>
    <nd ref="1272295510"/>
    <nd ref="4514980706"/>
    <nd ref="4514980705"/>
    <nd ref="4514980704"/>
    <nd ref="1272295146"/>
    <nd ref="4514980703"/>
    <nd ref="4514980701"/>
    <nd ref="4514980702"/>
    <nd ref="4514980699"/>
    <nd ref="4514980700"/>
    <nd ref="2757023857"/>
    <nd ref="1272295441"/>
    <nd ref="2757023858"/>
    <nd ref="4514980697"/>
    <nd ref="4514980698"/>
    <nd ref="1272295696"/>
    <nd ref="1272295491"/>
    <nd ref="4514980695"/>
    <nd ref="4514980696"/>
    <nd ref="1272295760"/>
    <nd ref="4514980694"/>
    <nd ref="4514980693"/>
    <nd ref="2757023862"/>
    <nd ref="2757023866"/>
    <nd ref="2757023871"/>
    <nd ref="2757023872"/>
    <nd ref="4514980692"/>
    <nd ref="4514980691"/>
    <nd ref="2757023874"/>
    <nd ref="4514980759"/>
    <nd ref="4514980690"/>
    <tag k="amenity" v="place_of_worship"/>
    <tag k="building" v="church"/>
    <tag k="building:ruian:type" v="5"/>
    <tag k="name" v="V코ech svat칳ch"/>
    <tag k="name:de" v="Allerheiligenkapelle"/>
    <tag k="ref:ruian:building" v="42988080"/>
    <tag k="religion" v="christian"/>
    <tag k="source" v="cuzk:ruian"/>
    <tag k="wikidata" v="Q17317303"/>
    <tag k="wikipedia" v="cs:Kostel V코ech svat칳ch (Uh콏칤n캩ves)"/>
  </way>
  <way id="111800968" version="2" timestamp="2015-11-06T12:36:01Z" changeset="35125123" uid="2169558" user="JandaM">
    <nd ref="3820674651"/>
    <nd ref="3820674654"/>
    <nd ref="3820674649"/>
    <nd ref="3820674665"/>
    <nd ref="3820674672"/>
    <nd ref="1272942848"/>
    <nd ref="3820674717"/>
    <nd ref="3820674693"/>
    <nd ref="3820674691"/>
    <nd ref="1272942810"/>
    <nd ref="1272942787"/>
    <nd ref="1272942933"/>
    <nd ref="1272942868"/>
    <nd ref="3820674595"/>
    <nd ref="1272942799"/>
    <nd ref="1272942745"/>
    <nd ref="1272942815"/>
    <nd ref="3820674628"/>
    <nd ref="1272943017"/>
    <nd ref="1272942698"/>
    <nd ref="3820674618"/>
    <nd ref="3820674620"/>
    <nd ref="3820674617"/>
    <nd ref="3820674622"/>
    <nd ref="3820674651"/>
    <tag k="building" v="barn"/>
    <tag k="building:ruian:type" v="13"/>
    <tag k="name" v="Jatky V칔콯V"/>
    <tag k="ref:ruian:building" v="21590753"/>
    <tag k="shop" v="butcher"/>
    <tag k="source" v="cuzk:ruian"/>
  </way>
  <way id="111801017" version="4" timestamp="2024-01-01T21:08:29Z" changeset="145776019" uid="8772934" user="mapperich">
    <nd ref="1272942822"/>
    <nd ref="4514980766"/>
    <nd ref="4514980765"/>
    <nd ref="4514980764"/>
    <nd ref="1272943011"/>
    <nd ref="1272942788"/>
    <nd ref="1272942985"/>
    <nd ref="4514980767"/>
    <nd ref="4514980768"/>
    <nd ref="1272942822"/>
    <tag k="building" v="yes"/>
    <tag k="building:levels" v="1"/>
    <tag k="building:ruian:type" v="19"/>
    <tag k="historic" v="castle"/>
    <tag k="name" v="Uh콏칤n캩ves"/>
    <tag k="ref:ruian:building" v="21594171"/>
    <tag k="source" v="cuzk:ruian"/>
    <tag k="wikidata" v="Q11877733"/>
    <tag k="wikimedia_commons" v="Category:Uh콏칤n캩ves Castle"/>
    <tag k="wikipedia" v="cs:Uh콏칤n캩ves (z치mek)"/>
  </way>
  <way id="111833647" version="5" timestamp="2021-03-09T17:16:21Z" changeset="100724642" uid="718054" user="Piskvor">
    <nd ref="1273242576"/>
    <nd ref="1273242511"/>
    <nd ref="1273243572"/>
    <nd ref="3238632488"/>
    <nd ref="1273242648"/>
    <nd ref="1273242324"/>
    <nd ref="1273242240"/>
    <nd ref="1273243054"/>
    <nd ref="1273242439"/>
    <nd ref="3238632482"/>
    <nd ref="3238632483"/>
    <nd ref="1273243373"/>
    <nd ref="1273243215"/>
    <nd ref="1273242730"/>
    <nd ref="3238632485"/>
    <nd ref="3238632486"/>
    <nd ref="1273243144"/>
    <nd ref="3238632487"/>
    <nd ref="3238632489"/>
    <nd ref="1273242696"/>
    <nd ref="1273242576"/>
    <tag k="amenity" v="place_of_worship"/>
    <tag k="building" v="yes"/>
    <tag k="denomination" v="roman_catholic"/>
    <tag k="name" v="D캩kanstv칤 c칤rkve 콏칤mskokatolick칠"/>
    <tag k="religion" v="christian"/>
    <tag k="source" v="cuzk:km"/>
  </way>
  <way id="113009490" version="5" timestamp="2024-10-03T07:05:15Z" changeset="157405108" uid="1189910" user="Milancer">
    <nd ref="412271508"/>
    <nd ref="1283752302"/>
    <nd ref="3302070313"/>
    <nd ref="1283752452"/>
    <nd ref="11711010048"/>
    <nd ref="11711010044"/>
    <nd ref="1283001594"/>
    <tag k="highway" v="residential"/>
    <tag k="name" v="Nov칠 n치m캩st칤"/>
  </way>
  <way id="113128474" version="5" timestamp="2019-08-12T13:28:00Z" changeset="73269130" uid="25867" user="adamos">
    <nd ref="1283837435"/>
    <nd ref="1283836576"/>
    <nd ref="1283836273"/>
    <nd ref="1283837768"/>
    <nd ref="1283837565"/>
    <nd ref="1283837659"/>
    <nd ref="1283837435"/>
    <tag k="addr:conscriptionnumber" v="1489"/>
    <tag k="addr:country" v="CZ"/>
    <tag k="addr:housenumber" v="1489/10"/>
    <tag k="addr:place" v="Uh콏칤n캩ves"/>
    <tag k="addr:postcode" v="10400"/>
    <tag k="addr:street" v="Soumarsk치"/>
    <tag k="addr:streetnumber" v="10"/>
    <tag k="building" v="house"/>
    <tag k="building:flats" v="1"/>
    <tag k="building:levels" v="2"/>
    <tag k="building:ruian:type" v="7"/>
    <tag k="ref:ruian:addr" v="27892531"/>
    <tag k="ref:ruian:building" v="27361969"/>
    <tag k="source" v="cuzk:ruian"/>
    <tag k="start_date" v="2009-09-02"/>
  </way>
  <way id="113151031" version="5" timestamp="2024-12-23T08:41:27Z" changeset="160528173" uid="18633688" user="Jan Sikora">
    <nd ref="4946235795"/>
    <nd ref="12443404972"/>
    <nd ref="243518636"/>
    <nd ref="243518637"/>
    <nd ref="243518638"/>
    <nd ref="410927603"/>
    <tag k="highway" v="residential"/>
    <tag k="maxspeed" v="20"/>
    <tag k="name" v="K Sokolovn캩"/>
  </way>
  <way id="114471996" version="6" timestamp="2024-12-29T13:38:11Z" changeset="160749695" uid="469828" user="Luk치코 Jel칤nek">
    <nd ref="274093078"/>
    <nd ref="9530285359"/>
    <nd ref="274093080"/>
    <nd ref="274093081"/>
    <nd ref="9530285358"/>
    <nd ref="274093083"/>
    <nd ref="274093090"/>
    <nd ref="9530285357"/>
    <nd ref="274093098"/>
    <nd ref="9530285356"/>
    <nd ref="274093104"/>
    <nd ref="274093113"/>
    <nd ref="274093059"/>
    <tag k="highway" v="unclassified"/>
    <tag k="lane_markings" v="no"/>
    <tag k="lit" v="no"/>
    <tag k="motor_vehicle" v="destination"/>
    <tag k="smoothness" v="intermediate"/>
    <tag k="source:geometry" v="CZ:IPRPraha:ortofoto;Strava Global Heatmap"/>
    <tag k="surface" v="asphalt"/>
  </way>
  <way id="118488675" version="5" timestamp="2021-10-10T16:05:07Z" changeset="112339874" uid="3732098" user="ghernx">
    <nd ref="34595885"/>
    <nd ref="34595887"/>
    <nd ref="5104347960"/>
    <nd ref="34595889"/>
    <tag k="highway" v="tertiary"/>
    <tag k="lanes" v="2"/>
    <tag k="maxspeed" v="50"/>
    <tag k="name" v="K Uh콏칤n캩vsi"/>
    <tag k="surface" v="asphalt"/>
  </way>
  <way id="127794201" version="2" timestamp="2012-04-27T22:23:27Z" changeset="11436711" uid="488732" user="montardo">
    <nd ref="355308990"/>
    <nd ref="355308996"/>
    <nd ref="355309001"/>
    <nd ref="355309005"/>
    <nd ref="29447743"/>
    <tag k="highway" v="residential"/>
  </way>
  <way id="129022617" version="10" timestamp="2025-03-16T00:21:43Z" changeset="163671705" uid="4018695" user="游뻟릖 Roman Horn칤k">
    <nd ref="355906067"/>
    <nd ref="12669183253"/>
    <nd ref="1838489797"/>
    <nd ref="12669183254"/>
    <nd ref="1838489796"/>
    <nd ref="412271577"/>
    <nd ref="29448040"/>
    <tag k="highway" v="tertiary"/>
    <tag k="lanes" v="2"/>
    <tag k="maxspeed" v="50"/>
    <tag k="name" v="K D치lnici"/>
    <tag k="ref" v="00310"/>
    <tag k="source:maxspeed" v="CZ:urban"/>
    <tag k="source:ref" v="rsd_cr"/>
    <tag k="surface" v="asphalt"/>
  </way>
  <way id="132605546" version="4" timestamp="2024-12-29T14:27:07Z" changeset="160749679" uid="469828" user="Luk치코 Jel칤nek">
    <nd ref="1458467577"/>
    <nd ref="21263165"/>
    <nd ref="12443525311"/>
    <nd ref="21263167"/>
    <tag k="highway" v="residential"/>
    <tag k="lit" v="yes"/>
    <tag k="name" v="Ka코persk치"/>
  </way>
  <way id="132655608" version="4" timestamp="2015-01-02T17:54:03Z" changeset="27869084" uid="1708065" user="Salamandr">
    <nd ref="3265671216"/>
    <nd ref="8811398"/>
    <nd ref="355740374"/>
    <nd ref="65344726"/>
    <nd ref="1458467468"/>
    <nd ref="65396090"/>
    <tag k="highway" v="secondary"/>
    <tag k="lanes" v="3"/>
    <tag k="lanes:backward" v="1"/>
    <tag k="lanes:forward" v="2"/>
    <tag k="lit" v="yes"/>
    <tag k="maxspeed" v="50"/>
    <tag k="name" v="Podlesk치"/>
    <tag k="source:maxspeed" v="CZ:urban"/>
    <tag k="surface" v="asphalt"/>
    <tag k="turn:lanes:forward" v="left|through;right"/>
  </way>
  <way id="132655610" version="6" timestamp="2024-10-17T14:48:15Z" changeset="158012038" uid="1516345" user="theDagger">
    <nd ref="65354248"/>
    <nd ref="7653291255"/>
    <nd ref="65354249"/>
    <nd ref="1458467443"/>
    <nd ref="29447713"/>
    <tag k="highway" v="residential"/>
    <tag k="lane_markings" v="no"/>
    <tag k="maxspeed" v="40"/>
    <tag k="maxspeed:type" v="sign"/>
    <tag k="name" v="Franti코ka Divi코e"/>
    <tag k="surface" v="asphalt"/>
  </way>
  <way id="132655612" version="5" timestamp="2024-09-11T12:24:37Z" changeset="156480228" uid="469828" user="Luk치코 Jel칤nek">
    <nd ref="1458467438"/>
    <nd ref="412426346"/>
    <tag k="highway" v="residential"/>
    <tag k="lane_markings" v="no"/>
    <tag k="name" v="K콏e코칤nsk치"/>
    <tag k="smoothness" v="good"/>
    <tag k="surface" v="paving_stones"/>
  </way>
  <way id="132655615" version="12" timestamp="2025-02-23T11:59:41Z" changeset="162848600" uid="8468948" user="Feli Weigi">
    <nd ref="27108899"/>
    <nd ref="8167232941"/>
    <nd ref="8167232927"/>
    <nd ref="8167232944"/>
    <nd ref="8167232943"/>
    <nd ref="27108889"/>
    <nd ref="8167232942"/>
    <nd ref="12612628197"/>
    <nd ref="4504127523"/>
    <nd ref="130440357"/>
    <nd ref="1995553437"/>
    <nd ref="130440336"/>
    <nd ref="27108880"/>
    <nd ref="244009318"/>
    <nd ref="12334851151"/>
    <nd ref="27108871"/>
    <nd ref="410927568"/>
    <nd ref="6801250354"/>
    <tag k="highway" v="tertiary"/>
    <tag k="lanes" v="2"/>
    <tag k="maxspeed" v="50"/>
    <tag k="name" v="U star칠ho ml칳na"/>
    <tag k="surface" v="asphalt"/>
  </way>
  <way id="132655617" version="8" timestamp="2024-12-29T14:30:40Z" changeset="160749695" uid="469828" user="Luk치코 Jel칤nek">
    <nd ref="21263169"/>
    <nd ref="7086936519"/>
    <nd ref="140052247"/>
    <tag k="highway" v="residential"/>
    <tag k="lane_markings" v="no"/>
    <tag k="lit" v="yes"/>
    <tag k="maxspeed" v="50"/>
    <tag k="maxspeed:type" v="sign"/>
    <tag k="name" v="U Star칠ho n치dra쮂"/>
    <tag k="smoothness" v="intermediate"/>
    <tag k="surface" v="asphalt"/>
  </way>
  <way id="140990846" version="4" timestamp="2024-12-29T14:15:53Z" changeset="160749695" uid="469828" user="Luk치코 Jel칤nek">
    <nd ref="10240087974"/>
    <nd ref="344247180"/>
    <tag k="highway" v="residential"/>
    <tag k="lanes" v="1"/>
    <tag k="lit" v="yes"/>
    <tag k="maxspeed" v="30"/>
    <tag k="maxspeed:type" v="CZ:zone30"/>
    <tag k="name" v="Lidick칠ho"/>
    <tag k="oneway" v="yes"/>
    <tag k="oneway:bicycle" v="no"/>
    <tag k="smoothness" v="good"/>
    <tag k="surface" v="asphalt"/>
    <tag k="zone:maxspeed" v="30"/>
  </way>
  <way id="140990857" version="17" timestamp="2025-01-01T18:58:13Z" changeset="160881237" uid="1160334" user="honzaa">
    <nd ref="355906082"/>
    <nd ref="1458467432"/>
    <nd ref="412344499"/>
    <nd ref="344247186"/>
    <tag k="cycleway:both" v="no"/>
    <tag k="highway" v="secondary"/>
    <tag k="lanes" v="2"/>
    <tag k="lit" v="yes"/>
    <tag k="maxspeed" v="50"/>
    <tag k="name" v="P콏치telstv칤"/>
    <tag k="official_ref" v="333"/>
    <tag k="ref" v="333"/>
    <tag k="sidewalk:both" v="separate"/>
    <tag k="smoothness" v="good"/>
    <tag k="source:maxspeed" v="CZ:urban"/>
    <tag k="source:ref" v="survey"/>
    <tag k="surface" v="asphalt"/>
  </way>
  <way id="140990860" version="17" timestamp="2025-01-01T18:58:13Z" changeset="160881237" uid="1160334" user="honzaa">
    <nd ref="1290030143"/>
    <nd ref="4896985817"/>
    <nd ref="55505421"/>
    <tag k="highway" v="secondary"/>
    <tag k="lanes" v="2"/>
    <tag k="maxspeed" v="50"/>
    <tag k="name" v="P콏치telstv칤"/>
    <tag k="note" v="Hlavn칤 cesta Praha - 콎칤캜any"/>
    <tag k="official_ref" v="333"/>
    <tag k="ref" v="333"/>
    <tag k="sidewalk" v="no"/>
    <tag k="source:maxspeed" v="CZ:urban"/>
    <tag k="source:ref" v="survey"/>
    <tag k="surface" v="asphalt"/>
  </way>
  <way id="149818685" version="16" timestamp="2025-01-01T18:58:13Z" changeset="160881237" uid="1160334" user="honzaa">
    <nd ref="5004927898"/>
    <nd ref="30024850"/>
    <nd ref="5004927895"/>
    <nd ref="355309161"/>
    <nd ref="1459107043"/>
    <nd ref="5004927893"/>
    <nd ref="1169894064"/>
    <nd ref="5004927891"/>
    <nd ref="7080854"/>
    <nd ref="5004927892"/>
    <nd ref="243518635"/>
    <tag k="highway" v="secondary"/>
    <tag k="lanes" v="2"/>
    <tag k="maxspeed" v="40"/>
    <tag k="name" v="P콏치telstv칤"/>
    <tag k="official_ref" v="333"/>
    <tag k="ref" v="333"/>
    <tag k="source:maxspeed" v="sign"/>
    <tag k="source:ref" v="survey"/>
    <tag k="surface" v="asphalt"/>
  </way>
  <way id="150556834" version="8" timestamp="2024-12-29T13:40:13Z" changeset="160749679" uid="469828" user="Luk치코 Jel칤nek">
    <nd ref="1634550994"/>
    <nd ref="5103766824"/>
    <nd ref="322962427"/>
    <nd ref="9775262232"/>
    <nd ref="9577915651"/>
    <nd ref="1634551005"/>
    <nd ref="9530285321"/>
    <nd ref="1634551009"/>
    <nd ref="1634551017"/>
    <nd ref="1634551022"/>
    <nd ref="1634551024"/>
    <nd ref="274093059"/>
    <tag k="highway" v="unclassified"/>
    <tag k="lit" v="no"/>
    <tag k="motor_vehicle" v="no"/>
    <tag k="source:geometry" v="CZ:IPRPraha:ortofoto;Strava Global Heatmap"/>
    <tag k="surface" v="paved"/>
  </way>
  <way id="150557706" version="6" timestamp="2025-03-11T19:32:30Z" changeset="163499661" uid="718054" user="Piskvor">
    <nd ref="1634563545"/>
    <nd ref="1634563544"/>
    <nd ref="1634563543"/>
    <nd ref="1634563542"/>
    <nd ref="1634563541"/>
    <nd ref="1634563540"/>
    <nd ref="1634563539"/>
    <nd ref="1634563538"/>
    <nd ref="1634563537"/>
    <nd ref="1634563536"/>
    <nd ref="1634563534"/>
    <nd ref="1634563526"/>
    <nd ref="1634563524"/>
    <nd ref="1634563522"/>
    <nd ref="1634563520"/>
    <nd ref="1634563518"/>
    <nd ref="1634563516"/>
    <nd ref="1634563514"/>
    <nd ref="1289207656"/>
    <nd ref="7784042"/>
    <tag k="highway" v="unclassified"/>
    <tag k="lanes" v="1"/>
    <tag k="motor_vehicle" v="private"/>
    <tag k="smoothness" v="good"/>
    <tag k="surface" v="asphalt"/>
  </way>
  <way id="156614161" version="4" timestamp="2017-07-16T13:41:19Z" changeset="50326318" uid="102554" user="Jezevec">
    <nd ref="2791666632"/>
    <nd ref="2791666630"/>
    <nd ref="1688419847"/>
    <nd ref="1688419850"/>
    <nd ref="1688419852"/>
    <nd ref="1688419857"/>
    <nd ref="1688419844"/>
    <nd ref="1688419849"/>
    <nd ref="1688419865"/>
    <nd ref="1688419863"/>
    <nd ref="1688419869"/>
    <nd ref="1688419870"/>
    <nd ref="1688419877"/>
    <nd ref="1688419874"/>
    <nd ref="1688419872"/>
    <nd ref="1688419866"/>
    <nd ref="1688419858"/>
    <nd ref="2791666652"/>
    <nd ref="2791666632"/>
    <tag k="addr:conscriptionnumber" v="1516"/>
    <tag k="addr:housenumber" v="1516/12"/>
    <tag k="addr:place" v="Uh콏칤n캩ves"/>
    <tag k="addr:postcode" v="10400"/>
    <tag k="addr:street" v="Franti코ka Divi코e"/>
    <tag k="addr:streetnumber" v="12"/>
    <tag k="building" v="yes"/>
    <tag k="building:flats" v="2"/>
    <tag k="building:levels" v="3"/>
    <tag k="building:ruian:type" v="20"/>
    <tag k="ref:ruian:addr" v="28221508"/>
    <tag k="ref:ruian:building" v="27682048"/>
    <tag k="source" v="cuzk:ruian"/>
    <tag k="start_date" v="2010-09-15"/>
  </way>
  <way id="157859401" version="3" timestamp="2017-07-16T13:41:20Z" changeset="50326318" uid="102554" user="Jezevec">
    <nd ref="3265722239"/>
    <nd ref="1701025077"/>
    <nd ref="3265722238"/>
    <nd ref="1701025039"/>
    <nd ref="1701025063"/>
    <nd ref="1701025032"/>
    <nd ref="1701025036"/>
    <nd ref="1701025044"/>
    <nd ref="1701025073"/>
    <nd ref="1701025130"/>
    <nd ref="1701025135"/>
    <nd ref="1701025163"/>
    <nd ref="1701025139"/>
    <nd ref="1701025126"/>
    <nd ref="1701025121"/>
    <nd ref="1701025097"/>
    <nd ref="1701025090"/>
    <nd ref="1701025087"/>
    <nd ref="3265722239"/>
    <tag k="addr:conscriptionnumber" v="988"/>
    <tag k="addr:housenumber" v="988"/>
    <tag k="addr:place" v="Uh콏칤n캩ves"/>
    <tag k="addr:postcode" v="10400"/>
    <tag k="addr:street" v="Franti코ka Divi코e"/>
    <tag k="building" v="yes"/>
    <tag k="building:levels" v="1"/>
    <tag k="building:ruian:type" v="19"/>
    <tag k="ref:ruian:addr" v="25017055"/>
    <tag k="ref:ruian:building" v="24562769"/>
    <tag k="source" v="cuzk:ruian"/>
  </way>
  <way id="157859411" version="3" timestamp="2016-04-10T22:54:33Z" changeset="38462451" uid="102554" user="Jezevec">
    <nd ref="1701024778"/>
    <nd ref="1701024783"/>
    <nd ref="1701024759"/>
    <nd ref="3820662579"/>
    <nd ref="3820662581"/>
    <nd ref="3820662582"/>
    <nd ref="3820662580"/>
    <nd ref="1701024763"/>
    <nd ref="1701024752"/>
    <nd ref="3820662575"/>
    <nd ref="3820662573"/>
    <nd ref="3820662572"/>
    <nd ref="3820662574"/>
    <nd ref="1701024743"/>
    <nd ref="1701024778"/>
    <tag k="addr:conscriptionnumber" v="1275"/>
    <tag k="addr:housenumber" v="1275/1a"/>
    <tag k="addr:place" v="Uh콏칤n캩ves"/>
    <tag k="addr:postcode" v="10400"/>
    <tag k="addr:street" v="Franti코ka Divi코e"/>
    <tag k="addr:streetnumber" v="1a"/>
    <tag k="building" v="commercial"/>
    <tag k="building:ruian:type" v="10"/>
    <tag k="ref:ruian:addr" v="25949063"/>
    <tag k="ref:ruian:building" v="25455915"/>
    <tag k="source" v="cuzk:ruian"/>
    <tag k="start_date" v="2004-03-01"/>
  </way>
  <way id="157859427" version="5" timestamp="2016-10-02T08:54:32Z" changeset="42577296" uid="102554" user="Jezevec">
    <nd ref="60734947"/>
    <nd ref="1018078339"/>
    <nd ref="4112791719"/>
    <nd ref="1018078161"/>
    <nd ref="60734959"/>
    <nd ref="4427424527"/>
    <nd ref="60734947"/>
    <tag k="building" v="warehouse"/>
    <tag k="building:ruian:type" v="12"/>
    <tag k="name" v="Hala 5 - ST"/>
    <tag k="ref:ruian:building" v="48562360"/>
    <tag k="source" v="cuzk:ruian"/>
  </way>
  <way id="157859428" version="3" timestamp="2017-07-16T13:41:20Z" changeset="50326318" uid="102554" user="Jezevec">
    <nd ref="1701024732"/>
    <nd ref="1701024736"/>
    <nd ref="1701024739"/>
    <nd ref="1701024711"/>
    <nd ref="1701024705"/>
    <nd ref="1701024727"/>
    <nd ref="1701024732"/>
    <tag k="addr:conscriptionnumber" v="1513"/>
    <tag k="addr:country" v="CZ"/>
    <tag k="addr:housenumber" v="1513"/>
    <tag k="addr:place" v="Uh콏칤n캩ves"/>
    <tag k="addr:postcode" v="10400"/>
    <tag k="addr:street" v="Franti코ka Divi코e"/>
    <tag k="building" v="warehouse"/>
    <tag k="building:ruian:type" v="12"/>
    <tag k="ref:ruian:addr" v="28172175"/>
    <tag k="ref:ruian:building" v="27633225"/>
    <tag k="source" v="cuzk:ruian"/>
    <tag k="start_date" v="2010-07-09"/>
  </way>
  <way id="161383659" version="3" timestamp="2020-12-30T21:49:03Z" changeset="96692362" uid="1189910" user="Milancer">
    <nd ref="1733567778"/>
    <nd ref="8275498729"/>
    <nd ref="1733567974"/>
    <tag k="highway" v="residential"/>
    <tag k="name" v="Franti코ka Divi코e"/>
  </way>
  <way id="161383679" version="3" timestamp="2020-06-25T16:50:38Z" changeset="87151331" uid="665336" user="Minimalis">
    <nd ref="1733567933"/>
    <nd ref="1733567806"/>
    <nd ref="1733567770"/>
    <nd ref="1733567741"/>
    <nd ref="2791663189"/>
    <nd ref="2791663178"/>
    <nd ref="2791663147"/>
    <nd ref="2791663140"/>
    <nd ref="2791663132"/>
    <nd ref="2791663110"/>
    <nd ref="2791663085"/>
    <nd ref="2791663044"/>
    <nd ref="29447743"/>
    <tag k="highway" v="residential"/>
    <tag k="name" v="Bl코aneck치"/>
    <tag k="source" v="cuzk:km"/>
  </way>
  <way id="161383684" version="5" timestamp="2024-03-30T12:24:23Z" changeset="149349400" uid="18720857" user="Michal_Bukovcan">
    <nd ref="1733567990"/>
    <nd ref="11773470929"/>
    <nd ref="1733567933"/>
    <nd ref="1733567978"/>
    <nd ref="2791663422"/>
    <tag k="highway" v="residential"/>
    <tag k="name" v="Bl코aneck치"/>
    <tag k="source" v="cuzk:km"/>
  </way>
  <way id="161383697" version="2" timestamp="2020-06-25T16:50:38Z" changeset="87151331" uid="665336" user="Minimalis">
    <nd ref="29447730"/>
    <nd ref="1733567810"/>
    <nd ref="1733567990"/>
    <nd ref="1733568111"/>
    <nd ref="1733568122"/>
    <nd ref="1733568125"/>
    <tag k="highway" v="residential"/>
    <tag k="name" v="Bl코aneck치"/>
    <tag k="source" v="cuzk:km"/>
  </way>
  <way id="161634722" version="9" timestamp="2025-03-16T00:21:43Z" changeset="163671705" uid="4018695" user="游뻟릖 Roman Horn칤k">
    <nd ref="412271495"/>
    <nd ref="3635357224"/>
    <nd ref="7649158865"/>
    <tag k="highway" v="tertiary"/>
    <tag k="lanes" v="2"/>
    <tag k="maxheight" v="default"/>
    <tag k="maxspeed" v="50"/>
    <tag k="name" v="Ke K콏칤쬴"/>
    <tag k="ref" v="00310"/>
    <tag k="smoothness" v="excellent"/>
    <tag k="source" v="openstreetbugs, km"/>
    <tag k="surface" v="asphalt"/>
  </way>
  <way id="161634806" version="5" timestamp="2025-03-16T00:21:43Z" changeset="163671705" uid="4018695" user="游뻟릖 Roman Horn칤k">
    <nd ref="246533848"/>
    <nd ref="189383745"/>
    <nd ref="246533849"/>
    <nd ref="12669183258"/>
    <nd ref="189383746"/>
    <nd ref="189383750"/>
    <nd ref="189383758"/>
    <nd ref="246533851"/>
    <nd ref="189383775"/>
    <nd ref="189383782"/>
    <nd ref="246533852"/>
    <nd ref="189383795"/>
    <nd ref="189383805"/>
    <nd ref="235535895"/>
    <nd ref="3657996623"/>
    <nd ref="235535932"/>
    <tag k="highway" v="tertiary"/>
    <tag k="ref" v="3339"/>
    <tag k="source:ref" v="rsd_cr"/>
  </way>
  <way id="163080759" version="5" timestamp="2023-04-05T21:42:06Z" changeset="134554808" uid="10932047" user="AF HAF KARTOGRAF">
    <nd ref="1748545809"/>
    <nd ref="1748545802"/>
    <nd ref="1748545796"/>
    <nd ref="3493670716"/>
    <nd ref="3493670717"/>
    <nd ref="3493670719"/>
    <nd ref="3493670718"/>
    <nd ref="4112791246"/>
    <nd ref="1748545805"/>
    <nd ref="1748545809"/>
    <tag k="addr:city" v="Praha"/>
    <tag k="addr:conscriptionnumber" v="1534"/>
    <tag k="addr:country" v="CZ"/>
    <tag k="addr:housenumber" v="1534/5"/>
    <tag k="addr:place" v="Uh콏칤n캩ves"/>
    <tag k="addr:postcode" v="10400"/>
    <tag k="addr:street" v="Franti코ka Divi코e"/>
    <tag k="addr:streetnumber" v="5"/>
    <tag k="addr:suburb" v="Praha 22"/>
    <tag k="building" v="commercial"/>
    <tag k="building:ruian:type" v="14"/>
    <tag k="ref:ruian:addr" v="40704548"/>
    <tag k="ref:ruian:building" v="51019434"/>
    <tag k="source" v="cuzk:ruian"/>
  </way>
  <way id="169736212" version="3" timestamp="2024-11-12T15:35:00Z" changeset="159055523" uid="718054" user="Piskvor">
    <nd ref="344242173"/>
    <nd ref="12334851125"/>
    <nd ref="6703154997"/>
    <nd ref="29447707"/>
    <nd ref="29447713"/>
    <tag k="highway" v="residential"/>
    <tag k="name" v="Na Blanici"/>
  </way>
  <way id="172992796" version="4" timestamp="2024-09-11T12:19:44Z" changeset="156480228" uid="469828" user="Luk치코 Jel칤nek">
    <nd ref="1838244836"/>
    <nd ref="1838244838"/>
    <nd ref="1838244840"/>
    <nd ref="1838244842"/>
    <nd ref="1838244845"/>
    <nd ref="1290020527"/>
    <nd ref="1838244848"/>
    <nd ref="1838244851"/>
    <nd ref="1459107070"/>
    <nd ref="29447602"/>
    <tag k="highway" v="residential"/>
    <tag k="lane_markings" v="no"/>
    <tag k="name" v="P콏치telstv칤"/>
    <tag k="smoothness" v="good"/>
    <tag k="surface" v="asphalt"/>
  </way>
  <way id="173019839" version="10" timestamp="2022-08-01T15:18:52Z" changeset="124351154" uid="3516" user="BiIbo">
    <nd ref="29448040"/>
    <nd ref="1838489790"/>
    <tag k="highway" v="tertiary"/>
    <tag k="lanes" v="2"/>
    <tag k="maxspeed" v="50"/>
    <tag k="name" v="K D치lnici"/>
    <tag k="ref" v="00310"/>
    <tag k="source:ref" v="rsd_cr"/>
    <tag k="surface" v="asphalt"/>
  </way>
  <way id="173020713" version="3" timestamp="2014-04-14T21:44:50Z" changeset="21698083" uid="25867" user="adamos">
    <nd ref="1838498975"/>
    <nd ref="1838498973"/>
    <nd ref="1838498971"/>
    <nd ref="1838498969"/>
    <nd ref="2791663831"/>
    <nd ref="2791663422"/>
    <nd ref="1838498966"/>
    <nd ref="1838498965"/>
    <nd ref="1838498964"/>
    <nd ref="1838498960"/>
    <tag k="highway" v="residential"/>
    <tag k="name" v="Vl치rsk치"/>
  </way>
  <way id="173453837" version="7" timestamp="2025-03-16T00:21:43Z" changeset="163671705" uid="4018695" user="游뻟릖 Roman Horn칤k">
    <nd ref="1424387413"/>
    <nd ref="5022317736"/>
    <nd ref="12669183238"/>
    <nd ref="130440377"/>
    <tag k="highway" v="tertiary"/>
    <tag k="lanes" v="2"/>
    <tag k="name" v="U star칠ho ml칳na"/>
  </way>
  <way id="199365765" version="5" timestamp="2023-08-11T20:05:31Z" changeset="139765064" uid="1160334" user="honzaa">
    <nd ref="1273036049"/>
    <nd ref="344256376"/>
    <nd ref="409801395"/>
    <nd ref="10107221924"/>
    <nd ref="5528050696"/>
    <nd ref="344256373"/>
    <nd ref="5528050694"/>
    <nd ref="5528050695"/>
    <nd ref="8811541"/>
    <tag k="highway" v="tertiary"/>
    <tag k="name" v="Rozd캩len치"/>
    <tag k="oneway" v="yes"/>
  </way>
  <way id="199365766" version="5" timestamp="2023-10-27T08:08:47Z" changeset="143197759" uid="13864" user="Martin Poljak">
    <nd ref="1459107048"/>
    <nd ref="7080856"/>
    <tag k="highway" v="tertiary"/>
    <tag k="name" v="V Ku콘atech"/>
    <tag k="oneway" v="yes"/>
    <tag k="surface" v="asphalt"/>
  </way>
  <way id="248483708" version="3" timestamp="2023-01-14T22:21:47Z" changeset="131281302" uid="469828" user="Luk치코 Jel칤nek">
    <nd ref="2552701232"/>
    <nd ref="7095593016"/>
    <nd ref="10555451783"/>
    <nd ref="10555451781"/>
    <nd ref="2552701237"/>
    <tag k="highway" v="residential"/>
    <tag k="maxspeed" v="50"/>
    <tag k="name" v="U Uh콏칤n캩vesk칠 obory"/>
    <tag k="oneway" v="no"/>
    <tag k="surface" v="asphalt"/>
  </way>
  <way id="261659287" version="1" timestamp="2014-02-15T09:42:37Z" changeset="20572280" uid="8007" user="vrabcak">
    <nd ref="8811411"/>
    <nd ref="479596300"/>
    <tag k="highway" v="residential"/>
    <tag k="name" v="Semansk칠ho"/>
  </way>
  <way id="274450407" version="6" timestamp="2024-03-30T20:10:37Z" changeset="149365661" uid="10932047" user="AF HAF KARTOGRAF">
    <nd ref="2791664696"/>
    <nd ref="2791664663"/>
    <nd ref="2791664703"/>
    <nd ref="4678642844"/>
    <nd ref="2791664695"/>
    <nd ref="3443478233"/>
    <nd ref="2791664730"/>
    <nd ref="2791664733"/>
    <nd ref="2791664696"/>
    <tag k="addr:conscriptionnumber" v="817"/>
    <tag k="addr:country" v="CZ"/>
    <tag k="addr:housenumber" v="817/19"/>
    <tag k="addr:postcode" v="10400"/>
    <tag k="addr:street" v="Nad Voly켿kou"/>
    <tag k="addr:streetnumber" v="19"/>
    <tag k="building" v="house"/>
    <tag k="building:flats" v="1"/>
    <tag k="building:levels" v="2"/>
    <tag k="building:ruian:type" v="7"/>
    <tag k="ref:ruian:addr" v="22648500"/>
    <tag k="ref:ruian:building" v="21595461"/>
    <tag k="source" v="cuzk:ruian"/>
    <tag k="start_date" v="1991-03-06"/>
  </way>
  <way id="293404568" version="3" timestamp="2024-12-29T14:15:28Z" changeset="160749679" uid="469828" user="Luk치코 Jel칤nek">
    <nd ref="344247180"/>
    <nd ref="410556223"/>
    <nd ref="410556214"/>
    <nd ref="10240087975"/>
    <tag k="highway" v="residential"/>
    <tag k="lanes" v="1"/>
    <tag k="lit" v="yes"/>
    <tag k="maxspeed" v="30"/>
    <tag k="maxspeed:type" v="CZ:zone30"/>
    <tag k="name" v="Mor치vkova"/>
    <tag k="oneway" v="yes"/>
    <tag k="oneway:bicycle" v="no"/>
    <tag k="surface" v="asphalt"/>
    <tag k="zone:maxspeed" v="30"/>
  </way>
  <way id="298203533" version="3" timestamp="2025-03-16T00:21:43Z" changeset="163671705" uid="4018695" user="游뻟릖 Roman Horn칤k">
    <nd ref="8811548"/>
    <nd ref="842487004"/>
    <nd ref="8811547"/>
    <nd ref="842487083"/>
    <nd ref="410927578"/>
    <nd ref="8811545"/>
    <tag k="highway" v="tertiary"/>
    <tag k="maxspeed" v="70"/>
    <tag k="name" v="Za Podjezdem"/>
  </way>
  <way id="302131187" version="2" timestamp="2022-02-23T15:53:31Z" changeset="117776787" uid="11545091" user="VladaC">
    <nd ref="2611215796"/>
    <nd ref="9530280201"/>
    <nd ref="9530280202"/>
    <nd ref="672850178"/>
    <tag k="highway" v="unclassified"/>
    <tag k="motorcar" v="no"/>
    <tag k="motorcycle" v="no"/>
    <tag k="tracktype" v="grade1"/>
  </way>
  <way id="302131189" version="3" timestamp="2022-02-23T15:53:31Z" changeset="117776787" uid="11545091" user="VladaC">
    <nd ref="2611215792"/>
    <nd ref="9530280199"/>
    <nd ref="9530280200"/>
    <nd ref="2611215796"/>
    <tag k="highway" v="unclassified"/>
  </way>
  <way id="302131192" version="5" timestamp="2024-04-18T17:55:43Z" changeset="150188153" uid="9291527" user="marekhrabe">
    <nd ref="1634551029"/>
    <nd ref="1634551002"/>
    <nd ref="1634550999"/>
    <nd ref="1634550996"/>
    <nd ref="1634550994"/>
    <nd ref="1634550988"/>
    <nd ref="1634550986"/>
    <nd ref="1634550984"/>
    <nd ref="1634550975"/>
    <nd ref="1634550972"/>
    <nd ref="4089594184"/>
    <tag k="highway" v="unclassified"/>
    <tag k="lanes" v="1"/>
    <tag k="motor_vehicle" v="no"/>
    <tag k="smoothness" v="good"/>
    <tag k="surface" v="asphalt"/>
  </way>
  <way id="302131193" version="2" timestamp="2015-09-05T11:20:09Z" changeset="33812871" uid="29818" user="zub">
    <nd ref="29447463"/>
    <nd ref="1729116993"/>
    <nd ref="29447467"/>
    <tag k="highway" v="unclassified"/>
    <tag k="motor_vehicle" v="no"/>
    <tag k="motorcar" v="no"/>
    <tag k="motorcycle" v="no"/>
  </way>
  <way id="320067944" version="5" timestamp="2021-07-30T09:34:12Z" changeset="108877681" uid="718054" user="Piskvor">
    <nd ref="3265671214"/>
    <nd ref="1701117495"/>
    <nd ref="1701117497"/>
    <nd ref="7207871549"/>
    <nd ref="8811395"/>
    <nd ref="355740194"/>
    <nd ref="65344731"/>
    <nd ref="1701117499"/>
    <nd ref="65344730"/>
    <tag k="highway" v="secondary"/>
    <tag k="lanes" v="2"/>
    <tag k="lit" v="yes"/>
    <tag k="maxspeed" v="50"/>
    <tag k="name" v="Franti코ka Divi코e"/>
    <tag k="source:maxspeed" v="CZ:urban"/>
    <tag k="surface" v="asphalt"/>
  </way>
  <way id="320067945" version="2" timestamp="2024-10-25T10:34:45Z" changeset="158331035" uid="1516345" user="theDagger">
    <nd ref="65396090"/>
    <nd ref="8811396"/>
    <nd ref="1314675274"/>
    <nd ref="355740193"/>
    <nd ref="3265671214"/>
    <tag k="check_date:surface" v="2024-10-24"/>
    <tag k="highway" v="secondary"/>
    <tag k="lanes" v="3"/>
    <tag k="lanes:backward" v="2"/>
    <tag k="lanes:forward" v="1"/>
    <tag k="lit" v="yes"/>
    <tag k="maxspeed" v="50"/>
    <tag k="name" v="Franti코ka Divi코e"/>
    <tag k="surface" v="asphalt"/>
    <tag k="turn:lanes:backward" v="left|through;right"/>
  </way>
  <way id="320067947" version="5" timestamp="2020-05-13T06:58:37Z" changeset="85124930" uid="665336" user="Minimalis">
    <nd ref="3265671231"/>
    <nd ref="3265671232"/>
    <nd ref="3265671230"/>
    <nd ref="3265671225"/>
    <nd ref="3265671231"/>
    <tag k="addr:conscriptionnumber" v="1546"/>
    <tag k="addr:country" v="CZ"/>
    <tag k="addr:housenumber" v="1546/1a"/>
    <tag k="addr:place" v="Uh콏칤n캩ves"/>
    <tag k="addr:postcode" v="10400"/>
    <tag k="addr:street" v="Podlesk치"/>
    <tag k="addr:streetnumber" v="1a"/>
    <tag k="building" v="civic"/>
    <tag k="building:levels" v="1"/>
    <tag k="building:ruian:type" v="15"/>
    <tag k="ref:ruian:addr" v="41887565"/>
    <tag k="ref:ruian:building" v="53599560"/>
    <tag k="source" v="cuzk:ruian"/>
    <tag k="start_date" v="2004-09-15"/>
  </way>
  <way id="320077012" version="4" timestamp="2023-04-05T21:42:06Z" changeset="134554808" uid="10932047" user="AF HAF KARTOGRAF">
    <nd ref="1409826344"/>
    <nd ref="3265748515"/>
    <nd ref="3265748520"/>
    <nd ref="3265748518"/>
    <nd ref="3265748519"/>
    <nd ref="3265748517"/>
    <nd ref="3265748516"/>
    <nd ref="3265748513"/>
    <nd ref="3265748514"/>
    <nd ref="3265748512"/>
    <nd ref="3265748511"/>
    <nd ref="3265748509"/>
    <nd ref="3265748506"/>
    <nd ref="3265748505"/>
    <nd ref="3265748502"/>
    <nd ref="3265748503"/>
    <nd ref="1409826342"/>
    <nd ref="3265748500"/>
    <nd ref="3265748501"/>
    <nd ref="3265748510"/>
    <nd ref="3265748507"/>
    <nd ref="3265748508"/>
    <nd ref="1409826344"/>
    <tag k="addr:city" v="Praha"/>
    <tag k="addr:conscriptionnumber" v="944"/>
    <tag k="addr:country" v="CZ"/>
    <tag k="addr:housenumber" v="944"/>
    <tag k="addr:place" v="Uh콏칤n캩ves"/>
    <tag k="addr:postcode" v="10400"/>
    <tag k="addr:street" v="Franti코ka Divi코e"/>
    <tag k="addr:suburb" v="Praha 22"/>
    <tag k="building" v="civic"/>
    <tag k="building:ruian:type" v="5"/>
    <tag k="ref:ruian:addr" v="22649824"/>
    <tag k="ref:ruian:building" v="21596735"/>
    <tag k="source" v="cuzk:ruian"/>
  </way>
  <way id="320092426" version="3" timestamp="2020-02-07T08:58:28Z" changeset="80681451" uid="10293562" user="Pixxlic">
    <nd ref="65344730"/>
    <nd ref="8811394"/>
    <nd ref="3265900561"/>
    <tag k="highway" v="secondary"/>
    <tag k="lanes" v="3"/>
    <tag k="lanes:backward" v="2"/>
    <tag k="lanes:forward" v="1"/>
    <tag k="lit" v="yes"/>
    <tag k="maxspeed" v="50"/>
    <tag k="name" v="Franti코ka Divi코e"/>
    <tag k="surface" v="asphalt"/>
    <tag k="turn:lanes:backward" v="left|through"/>
  </way>
  <way id="320092427" version="7" timestamp="2020-02-07T08:58:28Z" changeset="80681451" uid="10293562" user="Pixxlic">
    <nd ref="8811393"/>
    <nd ref="1458467515"/>
    <nd ref="3265900561"/>
    <tag k="highway" v="secondary"/>
    <tag k="lanes:backward" v="1"/>
    <tag k="lanes:forward" v="1"/>
    <tag k="maxspeed" v="50"/>
    <tag k="name" v="Franti코ka Divi코e"/>
    <tag k="surface" v="asphalt"/>
  </way>
  <way id="322826743" version="10" timestamp="2025-04-16T09:46:47Z" changeset="165019915" uid="718054" user="Piskvor">
    <nd ref="313879361"/>
    <nd ref="12759312896"/>
    <nd ref="1334652126"/>
    <nd ref="140051939"/>
    <nd ref="11850583687"/>
    <nd ref="140051964"/>
    <nd ref="8791806113"/>
    <nd ref="140052009"/>
    <nd ref="8791806112"/>
    <nd ref="8791806111"/>
    <nd ref="8791806110"/>
    <nd ref="140052034"/>
    <nd ref="8791806091"/>
    <nd ref="1387196361"/>
    <tag k="highway" v="residential"/>
    <tag k="maxspeed" v="30"/>
    <tag k="name" v="Franti코ka Divi코e"/>
  </way>
  <way id="322854436" version="10" timestamp="2022-12-16T14:08:20Z" changeset="130158048" uid="15662873" user="maspav">
    <nd ref="1387196361"/>
    <nd ref="8791806092"/>
    <nd ref="1387196365"/>
    <nd ref="10267734045"/>
    <nd ref="1387196368"/>
    <nd ref="4972774951"/>
    <nd ref="7095491893"/>
    <nd ref="1387196355"/>
    <nd ref="1387196357"/>
    <nd ref="5304699206"/>
    <nd ref="3296472445"/>
    <nd ref="7706811904"/>
    <nd ref="5051971585"/>
    <nd ref="7095491891"/>
    <tag k="highway" v="residential"/>
    <tag k="maxspeed" v="30"/>
    <tag k="name" v="Jind콏icha Buben칤캜ka"/>
    <tag k="surface" v="asphalt"/>
  </way>
  <way id="330716803" version="1" timestamp="2015-02-28T21:50:37Z" changeset="29166054" uid="1858155" user="Chenn Zenn">
    <nd ref="409801396"/>
    <nd ref="3377084805"/>
    <nd ref="409801395"/>
    <tag k="highway" v="residential"/>
    <tag k="name" v="Rozd캩len치"/>
  </way>
  <way id="337064338" version="2" timestamp="2022-10-06T06:32:07Z" changeset="127082946" uid="8908721" user="Ivan Late캜ka">
    <nd ref="3441620293"/>
    <nd ref="3441620291"/>
    <nd ref="3441620290"/>
    <nd ref="3441620292"/>
    <nd ref="3441620293"/>
    <tag k="addr:city" v="Praha 10 - Uh콏칤n캩ves"/>
    <tag k="addr:housenumber" v="1547/13"/>
    <tag k="addr:postcode" v="10400"/>
    <tag k="addr:street" v="Be캜ovsk치"/>
    <tag k="building" v="warehouse"/>
    <tag k="building:levels" v="2"/>
    <tag k="building:ruian:type" v="12"/>
    <tag k="name" v="KRAUPNER s.r.o."/>
    <tag k="phone" v="+420 602 219 976"/>
    <tag k="ref:ruian:building" v="53120281"/>
    <tag k="source" v="cuzk:ruian"/>
    <tag k="start_date" v="2012-12-19"/>
  </way>
  <way id="342239889" version="10" timestamp="2025-01-01T18:58:13Z" changeset="160881237" uid="1160334" user="honzaa">
    <nd ref="3492707005"/>
    <nd ref="10716069161"/>
    <nd ref="471640238"/>
    <nd ref="177742910"/>
    <tag k="highway" v="secondary"/>
    <tag k="lanes" v="2"/>
    <tag k="maxspeed" v="70"/>
    <tag k="name" v="Kutnohorsk치"/>
    <tag k="official_ref" v="333"/>
    <tag k="ref" v="333"/>
    <tag k="source:ref" v="survey"/>
    <tag k="surface" v="asphalt"/>
  </way>
  <way id="342239890" version="12" timestamp="2025-01-01T18:58:13Z" changeset="160881237" uid="1160334" user="honzaa">
    <nd ref="3492707004"/>
    <nd ref="8173385812"/>
    <tag k="highway" v="secondary"/>
    <tag k="lanes" v="2"/>
    <tag k="lit" v="no"/>
    <tag k="maxspeed" v="50"/>
    <tag k="name" v="P콏치telstv칤"/>
    <tag k="official_ref" v="333"/>
    <tag k="ref" v="333"/>
    <tag k="source:maxspeed" v="CZ:urban"/>
    <tag k="source:ref" v="survey"/>
    <tag k="surface" v="asphalt"/>
  </way>
  <way id="342243679" version="11" timestamp="2025-01-01T18:58:13Z" changeset="160881237" uid="1160334" user="honzaa">
    <nd ref="861266463"/>
    <nd ref="4112791725"/>
    <nd ref="65354241"/>
    <nd ref="8811405"/>
    <tag k="highway" v="secondary"/>
    <tag k="lanes" v="2"/>
    <tag k="lit" v="yes"/>
    <tag k="maxspeed" v="50"/>
    <tag k="name" v="P콏치telstv칤"/>
    <tag k="official_ref" v="333"/>
    <tag k="ref" v="333"/>
    <tag k="source:maxspeed" v="CZ:urban"/>
    <tag k="source:ref" v="survey"/>
    <tag k="surface" v="asphalt"/>
  </way>
  <way id="342359674" version="4" timestamp="2024-10-25T10:34:44Z" changeset="158331034" uid="1516345" user="theDagger">
    <nd ref="3493656471"/>
    <nd ref="3493656465"/>
    <tag k="highway" v="secondary"/>
    <tag k="lanes" v="2"/>
    <tag k="lit" v="yes"/>
    <tag k="maxheight" v="default"/>
    <tag k="maxheight:signed" v="no"/>
    <tag k="maxspeed" v="50"/>
    <tag k="name" v="Podlesk치"/>
    <tag k="source:maxspeed" v="CZ:urban"/>
    <tag k="surface" v="asphalt"/>
  </way>
  <way id="342359675" version="4" timestamp="2021-07-30T09:34:12Z" changeset="108877681" uid="718054" user="Piskvor">
    <nd ref="3493656465"/>
    <nd ref="8811400"/>
    <nd ref="65354255"/>
    <nd ref="3493656463"/>
    <nd ref="1459107093"/>
    <nd ref="7207871557"/>
    <nd ref="7207871560"/>
    <nd ref="3265671216"/>
    <tag k="highway" v="secondary"/>
    <tag k="lanes" v="2"/>
    <tag k="lit" v="yes"/>
    <tag k="maxspeed" v="50"/>
    <tag k="name" v="Podlesk치"/>
    <tag k="source:maxspeed" v="CZ:urban"/>
    <tag k="surface" v="asphalt"/>
  </way>
  <way id="358986649" version="7" timestamp="2025-03-15T22:29:55Z" changeset="163669756" uid="4018695" user="游뻟릖 Roman Horn칤k">
    <nd ref="409147947"/>
    <nd ref="244023096"/>
    <tag k="highway" v="tertiary"/>
    <tag k="lane_markings" v="no"/>
    <tag k="maxspeed" v="70"/>
    <tag k="name" v="KNetluk치m"/>
    <tag k="source:maxspeed" v="sign"/>
    <tag k="surface" v="asphalt"/>
  </way>
  <way id="359224300" version="10" timestamp="2025-03-16T00:21:43Z" changeset="163671705" uid="4018695" user="游뻟릖 Roman Horn칤k">
    <nd ref="1838489807"/>
    <nd ref="1169911884"/>
    <tag k="highway" v="tertiary"/>
    <tag k="lanes" v="2"/>
    <tag k="maxspeed" v="50"/>
    <tag k="name" v="Ke K콏칤쬴"/>
    <tag k="overtaking" v="no"/>
    <tag k="ref" v="00310"/>
    <tag k="source:maxspeed" v="CZ:urban"/>
    <tag k="surface" v="asphalt"/>
  </way>
  <way id="369236999" version="1" timestamp="2015-09-05T11:19:57Z" changeset="33812871" uid="29818" user="zub">
    <nd ref="29447467"/>
    <nd ref="29447468"/>
    <tag k="highway" v="unclassified"/>
    <tag k="motor_vehicle" v="no"/>
    <tag k="motorcar" v="no"/>
    <tag k="motorcycle" v="no"/>
  </way>
  <way id="369237005" version="2" timestamp="2025-04-16T09:46:47Z" changeset="165019915" uid="718054" user="Piskvor">
    <nd ref="3730442636"/>
    <nd ref="3730442637"/>
    <nd ref="410927596"/>
    <tag k="bridge" v="yes"/>
    <tag k="bridge:structure" v="beam"/>
    <tag k="highway" v="unclassified"/>
    <tag k="layer" v="1"/>
    <tag k="motorcar" v="no"/>
    <tag k="tracktype" v="grade1"/>
  </way>
  <way id="369237006" version="3" timestamp="2024-06-05T19:36:28Z" changeset="152302619" uid="12080464" user="Vojt캩ch Kade콏치bek">
    <nd ref="3730442652"/>
    <nd ref="9384207707"/>
    <nd ref="274093021"/>
    <nd ref="3730442651"/>
    <tag k="highway" v="unclassified"/>
    <tag k="motor_vehicle" v="destination"/>
  </way>
  <way id="369237009" version="3" timestamp="2024-06-05T19:36:28Z" changeset="152302619" uid="12080464" user="Vojt캩ch Kade콏치bek">
    <nd ref="3730442651"/>
    <nd ref="274093017"/>
    <nd ref="274093016"/>
    <nd ref="9384207704"/>
    <nd ref="29447468"/>
    <tag k="highway" v="unclassified"/>
    <tag k="motor_vehicle" v="destination"/>
  </way>
  <way id="416434871" version="1" timestamp="2016-05-07T14:18:20Z" changeset="39164897" uid="527259" user="Vratislav Filler">
    <nd ref="3238632471"/>
    <nd ref="4171765533"/>
    <nd ref="4171765534"/>
    <nd ref="4171765531"/>
    <nd ref="4171765529"/>
    <tag k="highway" v="residential"/>
    <tag k="name" v="n치m캩st칤 Brat콏칤 Jandus콢"/>
  </way>
  <way id="449129988" version="4" timestamp="2023-03-02T19:18:44Z" changeset="133225171" uid="2061236" user="Thartek">
    <nd ref="877262576"/>
    <nd ref="10705103443"/>
    <nd ref="6703103345"/>
    <nd ref="10705103444"/>
    <nd ref="6703103346"/>
    <nd ref="4460961475"/>
    <nd ref="6703103347"/>
    <nd ref="4460961478"/>
    <tag k="highway" v="residential"/>
    <tag k="maxspeed" v="30"/>
    <tag k="name" v="Zuzany Navarov칠"/>
  </way>
  <way id="488867222" version="2" timestamp="2020-11-26T09:34:08Z" changeset="94827686" uid="6588887" user="Martin2035">
    <nd ref="412271509"/>
    <nd ref="412271505"/>
    <nd ref="8167232924"/>
    <nd ref="8811411"/>
    <tag k="highway" v="residential"/>
    <tag k="name" v="Nov칠 n치m캩st칤"/>
    <tag k="surface" v="asphalt"/>
  </way>
  <way id="488867223" version="2" timestamp="2020-09-22T17:02:43Z" changeset="91310954" uid="718054" user="Piskvor">
    <nd ref="1424387413"/>
    <nd ref="344251652"/>
    <nd ref="27109613"/>
    <nd ref="27108899"/>
    <tag k="highway" v="tertiary"/>
    <tag k="lanes" v="2"/>
    <tag k="maxspeed" v="50"/>
    <tag k="name" v="U star칠ho ml칳na"/>
  </way>
  <way id="504462468" version="2" timestamp="2020-11-26T09:34:08Z" changeset="94827686" uid="6588887" user="Martin2035">
    <nd ref="344256314"/>
    <nd ref="344256342"/>
    <tag k="highway" v="residential"/>
    <tag k="name" v="Za Pivovarem"/>
    <tag k="surface" v="asphalt"/>
  </way>
  <way id="504462471" version="5" timestamp="2024-09-03T16:28:13Z" changeset="156150291" uid="469828" user="Luk치코 Jel칤nek">
    <nd ref="243518635"/>
    <nd ref="12021379140"/>
    <nd ref="1459107038"/>
    <nd ref="4946235795"/>
    <tag k="highway" v="residential"/>
    <tag k="lane_markings" v="no"/>
    <tag k="name" v="K Sokolovn캩"/>
    <tag k="smoothness" v="good"/>
    <tag k="surface" v="asphalt"/>
  </way>
  <way id="504462473" version="5" timestamp="2023-10-27T08:05:25Z" changeset="143197765" uid="13864" user="Martin Poljak">
    <nd ref="34595027"/>
    <nd ref="409147947"/>
    <tag k="highway" v="tertiary"/>
    <tag k="lane_markings" v="no"/>
    <tag k="maxspeed" v="70"/>
    <tag k="name" v="KNetluk치m"/>
    <tag k="source:maxspeed" v="sign"/>
    <tag k="surface" v="asphalt"/>
  </way>
  <way id="504462474" version="1" timestamp="2017-07-01T21:17:53Z" changeset="49973328" uid="527259" user="Vratislav Filler">
    <nd ref="344252224"/>
    <nd ref="409801382"/>
    <tag k="highway" v="residential"/>
    <tag k="name" v="V Potok치ch"/>
  </way>
  <way id="504462475" version="13" timestamp="2025-03-15T22:29:55Z" changeset="163669756" uid="4018695" user="游뻟릖 Roman Horn칤k">
    <nd ref="5122082248"/>
    <nd ref="409198480"/>
    <nd ref="243518640"/>
    <nd ref="30024851"/>
    <tag k="highway" v="secondary"/>
    <tag k="lanes" v="2"/>
    <tag k="maxspeed" v="40"/>
    <tag k="name" v="P콏치telstv칤"/>
    <tag k="official_ref" v="333"/>
    <tag k="ref" v="333"/>
    <tag k="source:maxspeed" v="sign"/>
    <tag k="source:ref" v="survey"/>
    <tag k="surface" v="asphalt"/>
  </way>
  <way id="504462476" version="13" timestamp="2025-01-01T18:58:13Z" changeset="160881237" uid="1160334" user="honzaa">
    <nd ref="243518635"/>
    <nd ref="1284006139"/>
    <nd ref="8167233029"/>
    <nd ref="7080850"/>
    <nd ref="8167233028"/>
    <nd ref="409198481"/>
    <tag k="highway" v="secondary"/>
    <tag k="lanes" v="2"/>
    <tag k="maxspeed" v="40"/>
    <tag k="name" v="P콏치telstv칤"/>
    <tag k="official_ref" v="333"/>
    <tag k="ref" v="333"/>
    <tag k="source:maxspeed" v="sign"/>
    <tag k="source:ref" v="survey"/>
    <tag k="surface" v="asphalt"/>
  </way>
  <way id="504462477" version="1" timestamp="2017-07-01T21:17:53Z" changeset="49973328" uid="527259" user="Vratislav Filler">
    <nd ref="410927603"/>
    <nd ref="243518639"/>
    <tag k="highway" v="residential"/>
    <tag k="maxspeed" v="20"/>
    <tag k="name" v="K Sokolovn캩"/>
  </way>
  <way id="505669941" version="1" timestamp="2017-07-06T20:30:03Z" changeset="50093864" uid="665336" user="Minimalis">
    <nd ref="4955537600"/>
    <nd ref="4955537599"/>
    <nd ref="4955537596"/>
    <nd ref="4955537597"/>
    <nd ref="4955537598"/>
    <tag k="highway" v="residential"/>
    <tag k="name" v="Losenick치"/>
  </way>
  <way id="509595250" version="2" timestamp="2024-04-18T17:55:43Z" changeset="150188153" uid="9291527" user="marekhrabe">
    <nd ref="1729117316"/>
    <nd ref="1729117245"/>
    <nd ref="1634550963"/>
    <nd ref="1634550961"/>
    <nd ref="1634550959"/>
    <nd ref="34593624"/>
    <nd ref="29447342"/>
    <nd ref="1284090963"/>
    <nd ref="29447327"/>
    <nd ref="29447338"/>
    <tag k="highway" v="unclassified"/>
    <tag k="lanes" v="1"/>
    <tag k="name" v="Netluky"/>
    <tag k="smoothness" v="intermediate"/>
    <tag k="surface" v="sett"/>
  </way>
  <way id="509595251" version="2" timestamp="2025-04-16T09:46:47Z" changeset="165019915" uid="718054" user="Piskvor">
    <nd ref="29447312"/>
    <nd ref="29447327"/>
    <tag k="highway" v="unclassified"/>
    <tag k="lanes" v="1"/>
    <tag k="name" v="Netluky"/>
    <tag k="oneway" v="no"/>
    <tag k="surface" v="sett"/>
  </way>
  <way id="511727280" version="12" timestamp="2025-01-01T18:58:13Z" changeset="160881237" uid="1160334" user="honzaa">
    <nd ref="7080856"/>
    <nd ref="30024849"/>
    <nd ref="5004927897"/>
    <nd ref="5004927898"/>
    <tag k="highway" v="secondary"/>
    <tag k="lanes" v="2"/>
    <tag k="lit" v="yes"/>
    <tag k="maxspeed" v="50"/>
    <tag k="name" v="P콏치telstv칤"/>
    <tag k="official_ref" v="333"/>
    <tag k="ref" v="333"/>
    <tag k="source:maxspeed" v="CZ:urban"/>
    <tag k="source:ref" v="survey"/>
    <tag k="surface" v="asphalt"/>
  </way>
  <way id="517756411" version="6" timestamp="2025-03-16T00:21:43Z" changeset="163671705" uid="4018695" user="游뻟릖 Roman Horn칤k">
    <nd ref="355906077"/>
    <nd ref="12669183257"/>
    <nd ref="5051971615"/>
    <nd ref="412271499"/>
    <tag k="highway" v="tertiary"/>
    <tag k="lanes" v="2"/>
    <tag k="name" v="Ke K콏칤쬴"/>
    <tag k="ref" v="00310"/>
    <tag k="source" v="openstreetbugs, km"/>
    <tag k="surface" v="asphalt"/>
  </way>
  <way id="549146833" version="4" timestamp="2024-02-01T21:40:55Z" changeset="146963132" uid="9291527" user="marekhrabe">
    <nd ref="5304699206"/>
    <nd ref="5304699207"/>
    <nd ref="7706811899"/>
    <nd ref="7706811898"/>
    <nd ref="7706811913"/>
    <nd ref="5304699208"/>
    <nd ref="11577661145"/>
    <nd ref="11577661146"/>
    <tag k="highway" v="residential"/>
    <tag k="maxspeed" v="30"/>
    <tag k="name" v="Karla Guta"/>
    <tag k="surface" v="asphalt"/>
  </way>
  <way id="550732532" version="3" timestamp="2019-12-30T12:10:53Z" changeset="79012491" uid="6588887" user="Martin2035">
    <nd ref="5319167294"/>
    <nd ref="6399533139"/>
    <nd ref="6399533153"/>
    <nd ref="6399533098"/>
    <nd ref="5319167293"/>
    <tag k="highway" v="residential"/>
    <tag k="maxspeed" v="30"/>
    <tag k="name" v="Oty Buben칤캜ka"/>
    <tag k="surface" v="paving_stones"/>
  </way>
  <way id="550732534" version="2" timestamp="2019-12-30T12:10:53Z" changeset="79012491" uid="6588887" user="Martin2035">
    <nd ref="5319167296"/>
    <nd ref="5319167295"/>
    <tag k="highway" v="residential"/>
    <tag k="maxspeed" v="30"/>
    <tag k="name" v="Oty Buben칤캜ka"/>
    <tag k="surface" v="paving_stones"/>
  </way>
  <way id="550732535" version="5" timestamp="2024-12-17T20:34:38Z" changeset="160320649" uid="22239736" user="Ketiv">
    <nd ref="5319167298"/>
    <nd ref="6399533154"/>
    <nd ref="5319167296"/>
    <nd ref="12427045536"/>
    <nd ref="12417511608"/>
    <nd ref="5319167297"/>
    <tag k="highway" v="residential"/>
    <tag k="maxspeed" v="30"/>
    <tag k="name" v="Oty Buben칤캜ka"/>
    <tag k="surface" v="paving_stones"/>
  </way>
  <way id="550732537" version="3" timestamp="2019-12-30T12:10:53Z" changeset="79012491" uid="6588887" user="Martin2035">
    <nd ref="5319167304"/>
    <nd ref="5319167298"/>
    <nd ref="5319167294"/>
    <nd ref="5319167303"/>
    <nd ref="7095482264"/>
    <nd ref="5319167302"/>
    <nd ref="7095491886"/>
    <nd ref="5319167301"/>
    <nd ref="7095491885"/>
    <nd ref="5319167300"/>
    <nd ref="7095482249"/>
    <tag k="highway" v="residential"/>
    <tag k="maxspeed" v="30"/>
    <tag k="name" v="Oty Buben칤캜ka"/>
    <tag k="surface" v="asphalt"/>
  </way>
  <way id="592408125" version="10" timestamp="2025-01-01T18:58:13Z" changeset="160881237" uid="1160334" user="honzaa">
    <nd ref="30024844"/>
    <nd ref="1169894013"/>
    <nd ref="409801397"/>
    <nd ref="1169894108"/>
    <nd ref="30024845"/>
    <tag k="highway" v="secondary"/>
    <tag k="junction" v="roundabout"/>
    <tag k="lanes" v="1"/>
    <tag k="maxspeed" v="50"/>
    <tag k="name" v="P콏치telstv칤"/>
    <tag k="official_ref" v="333"/>
    <tag k="ref" v="333"/>
    <tag k="source:maxspeed" v="CZ:urban"/>
    <tag k="surface" v="asphalt"/>
  </way>
  <way id="592408129" version="10" timestamp="2025-01-01T18:58:13Z" changeset="160881237" uid="1160334" user="honzaa">
    <nd ref="409801399"/>
    <nd ref="1169894016"/>
    <nd ref="409801398"/>
    <nd ref="1169894055"/>
    <nd ref="30024844"/>
    <tag k="highway" v="secondary"/>
    <tag k="junction" v="roundabout"/>
    <tag k="lanes" v="1"/>
    <tag k="maxspeed" v="50"/>
    <tag k="name" v="P콏치telstv칤"/>
    <tag k="official_ref" v="333"/>
    <tag k="ref" v="333"/>
    <tag k="source:maxspeed" v="CZ:urban"/>
    <tag k="surface" v="asphalt"/>
  </way>
  <way id="592408133" version="10" timestamp="2025-01-01T18:58:13Z" changeset="160881237" uid="1160334" user="honzaa">
    <nd ref="410556165"/>
    <nd ref="1169894076"/>
    <nd ref="409801399"/>
    <tag k="highway" v="secondary"/>
    <tag k="junction" v="roundabout"/>
    <tag k="lanes" v="1"/>
    <tag k="maxspeed" v="50"/>
    <tag k="name" v="P콏치telstv칤"/>
    <tag k="official_ref" v="333"/>
    <tag k="ref" v="333"/>
    <tag k="source:maxspeed" v="CZ:urban"/>
    <tag k="surface" v="asphalt"/>
  </way>
  <way id="592408135" version="10" timestamp="2025-01-01T18:58:13Z" changeset="160881237" uid="1160334" user="honzaa">
    <nd ref="29166269"/>
    <nd ref="30024846"/>
    <nd ref="1169894025"/>
    <nd ref="29166275"/>
    <nd ref="1169894058"/>
    <nd ref="410556165"/>
    <tag k="highway" v="secondary"/>
    <tag k="junction" v="roundabout"/>
    <tag k="lanes" v="1"/>
    <tag k="maxspeed" v="50"/>
    <tag k="name" v="P콏치telstv칤"/>
    <tag k="official_ref" v="333"/>
    <tag k="ref" v="333"/>
    <tag k="source:maxspeed" v="CZ:urban"/>
    <tag k="surface" v="asphalt"/>
  </way>
  <way id="592408136" version="10" timestamp="2025-01-01T18:58:13Z" changeset="160881237" uid="1160334" user="honzaa">
    <nd ref="7080835"/>
    <nd ref="1284107435"/>
    <nd ref="7080821"/>
    <nd ref="1290030141"/>
    <nd ref="21263162"/>
    <tag k="highway" v="secondary"/>
    <tag k="lanes" v="2"/>
    <tag k="lit" v="yes"/>
    <tag k="maxspeed" v="50"/>
    <tag k="name" v="P콏치telstv칤"/>
    <tag k="official_ref" v="333"/>
    <tag k="ref" v="333"/>
    <tag k="smoothness" v="good"/>
    <tag k="source:maxspeed" v="CZ:urban"/>
    <tag k="surface" v="asphalt"/>
  </way>
  <way id="592408138" version="10" timestamp="2025-01-01T18:58:13Z" changeset="160881237" uid="1160334" user="honzaa">
    <nd ref="8811408"/>
    <nd ref="7653291228"/>
    <nd ref="7653291227"/>
    <nd ref="7653291235"/>
    <nd ref="7653291226"/>
    <nd ref="65354096"/>
    <tag k="highway" v="secondary"/>
    <tag k="junction" v="roundabout"/>
    <tag k="lanes" v="1"/>
    <tag k="lit" v="yes"/>
    <tag k="maxspeed" v="50"/>
    <tag k="name" v="P콏치telstv칤"/>
    <tag k="official_ref" v="333"/>
    <tag k="ref" v="333"/>
    <tag k="ref:ruian:street" v="497134"/>
    <tag k="sidewalk" v="no"/>
    <tag k="source:maxspeed" v="CZ:urban"/>
    <tag k="source:ref" v="survey"/>
    <tag k="surface" v="asphalt"/>
  </way>
  <way id="592408139" version="10" timestamp="2025-01-01T18:58:13Z" changeset="160881237" uid="1160334" user="honzaa">
    <nd ref="8811405"/>
    <nd ref="7653291217"/>
    <nd ref="7653291216"/>
    <nd ref="7653291215"/>
    <nd ref="7653291214"/>
    <nd ref="8811404"/>
    <tag k="highway" v="secondary"/>
    <tag k="junction" v="roundabout"/>
    <tag k="lanes" v="1"/>
    <tag k="lit" v="yes"/>
    <tag k="maxspeed" v="50"/>
    <tag k="name" v="P콏치telstv칤"/>
    <tag k="official_ref" v="333"/>
    <tag k="ref" v="333"/>
    <tag k="ref:ruian:street" v="497134"/>
    <tag k="sidewalk" v="no"/>
    <tag k="source:maxspeed" v="CZ:urban"/>
    <tag k="source:ref" v="survey"/>
    <tag k="surface" v="asphalt"/>
  </way>
  <way id="592408140" version="10" timestamp="2025-01-01T18:58:13Z" changeset="160881237" uid="1160334" user="honzaa">
    <nd ref="8811404"/>
    <nd ref="7653291234"/>
    <nd ref="7653291233"/>
    <nd ref="7653291232"/>
    <nd ref="7653291231"/>
    <nd ref="7653291230"/>
    <nd ref="7653291229"/>
    <nd ref="8811408"/>
    <tag k="highway" v="secondary"/>
    <tag k="junction" v="roundabout"/>
    <tag k="lanes" v="1"/>
    <tag k="lit" v="yes"/>
    <tag k="maxspeed" v="50"/>
    <tag k="name" v="P콏치telstv칤"/>
    <tag k="official_ref" v="333"/>
    <tag k="ref" v="333"/>
    <tag k="ref:ruian:street" v="497134"/>
    <tag k="sidewalk" v="no"/>
    <tag k="source:maxspeed" v="CZ:urban"/>
    <tag k="source:ref" v="survey"/>
    <tag k="surface" v="asphalt"/>
  </way>
  <way id="592415862" version="3" timestamp="2024-11-12T15:35:00Z" changeset="159055523" uid="718054" user="Piskvor">
    <nd ref="244009336"/>
    <nd ref="189383744"/>
    <nd ref="246533848"/>
    <tag k="highway" v="tertiary"/>
    <tag k="lanes" v="2"/>
    <tag k="maxspeed" v="50"/>
    <tag k="ref" v="3339"/>
    <tag k="source:ref" v="rsd_cr"/>
    <tag k="surface" v="asphalt"/>
  </way>
  <way id="620196217" version="14" timestamp="2025-03-15T22:29:55Z" changeset="163669756" uid="4018695" user="游뻟릖 Roman Horn칤k">
    <nd ref="12435971918"/>
    <nd ref="12457168576"/>
    <nd ref="1289207710"/>
    <nd ref="297040330"/>
    <tag k="highway" v="secondary"/>
    <tag k="lanes" v="2"/>
    <tag k="maxspeed" v="50"/>
    <tag k="name" v="P콏치telstv칤"/>
    <tag k="official_ref" v="333"/>
    <tag k="ref" v="333"/>
    <tag k="source:maxspeed" v="CZ:urban"/>
    <tag k="surface" v="asphalt"/>
  </way>
  <way id="620366132" version="1" timestamp="2018-08-27T14:45:44Z" changeset="62042710" uid="1719518" user="itamas80">
    <nd ref="1035662559"/>
    <nd ref="8811393"/>
    <tag k="highway" v="secondary"/>
    <tag k="lanes:backward" v="1"/>
    <tag k="lanes:forward" v="1"/>
    <tag k="maxspeed" v="70"/>
    <tag k="name" v="Franti코ka Divi코e"/>
    <tag k="surface" v="asphalt"/>
  </way>
  <way id="669959695" version="3" timestamp="2022-10-06T06:23:13Z" changeset="127082659" uid="8908721" user="Ivan Late캜ka">
    <nd ref="6274248322"/>
    <nd ref="6274248321"/>
    <nd ref="6274248320"/>
    <nd ref="6274248319"/>
    <nd ref="6274248318"/>
    <nd ref="6274248317"/>
    <nd ref="6274248322"/>
    <tag k="addr:city" v="Praha 10 - Uh콏칤n캩ves"/>
    <tag k="addr:housenumber" v="1623/13a"/>
    <tag k="addr:postcode" v="10400"/>
    <tag k="addr:street" v="Be캜ovsk치"/>
    <tag k="building" v="warehouse"/>
    <tag k="building:levels" v="3"/>
    <tag k="building:ruian:type" v="20"/>
    <tag k="name" v="UNCS a.s."/>
    <tag k="ref:ruian:building" v="94942277"/>
    <tag k="source" v="cuzk:ruian"/>
    <tag k="start_date" v="2018-03-31"/>
  </way>
  <way id="713952257" version="4" timestamp="2024-07-17T14:46:14Z" changeset="154061985" uid="469828" user="Luk치코 Jel칤nek">
    <nd ref="381058304"/>
    <nd ref="1013301565"/>
    <nd ref="55505431"/>
    <nd ref="7095593026"/>
    <nd ref="2552701232"/>
    <tag k="highway" v="residential"/>
    <tag k="lanes" v="2"/>
    <tag k="name" v="Be캜ovsk치"/>
    <tag k="surface" v="asphalt"/>
  </way>
  <way id="725255446" version="3" timestamp="2024-11-12T15:35:00Z" changeset="159055523" uid="718054" user="Piskvor">
    <nd ref="6801250354"/>
    <nd ref="60733939"/>
    <nd ref="2685312397"/>
    <nd ref="27108864"/>
    <tag k="highway" v="tertiary"/>
    <tag k="lanes" v="2"/>
    <tag k="maxheight" v="4.8"/>
    <tag k="maxspeed" v="50"/>
    <tag k="name" v="U star칠ho ml칳na"/>
    <tag k="surface" v="plastic"/>
  </way>
  <way id="743097856" version="1" timestamp="2019-11-07T19:04:10Z" changeset="76773594" uid="665336" user="Minimalis">
    <nd ref="861658263"/>
    <nd ref="60734512"/>
    <nd ref="60734513"/>
    <tag k="highway" v="residential"/>
    <tag k="name" v="Na vyso캜in캩"/>
    <tag k="ref:ruian:street" v="496928"/>
  </way>
  <way id="743097857" version="3" timestamp="2025-04-23T10:56:01Z" changeset="165327151" uid="718054" user="Piskvor">
    <nd ref="344256302"/>
    <nd ref="8167232934"/>
    <nd ref="6955703320"/>
    <nd ref="8167232932"/>
    <nd ref="6955703319"/>
    <nd ref="6955703318"/>
    <nd ref="6955703317"/>
    <nd ref="6955703316"/>
    <nd ref="8167232928"/>
    <nd ref="6955703315"/>
    <tag k="highway" v="residential"/>
    <tag k="lit" v="yes"/>
    <tag k="motor_vehicle" v="no"/>
    <tag k="name" v="Za L칤pou"/>
    <tag k="ref:ruian:street" v="2310805"/>
    <tag k="source" v="cuzk:ruian"/>
    <tag k="surface" v="paving_stones"/>
  </way>
  <way id="758801051" version="3" timestamp="2024-12-29T14:21:53Z" changeset="160749679" uid="469828" user="Luk치코 Jel칤nek">
    <nd ref="140052299"/>
    <nd ref="1459107075"/>
    <nd ref="7080821"/>
    <tag k="highway" v="residential"/>
    <tag k="lit" v="yes"/>
    <tag k="name" v="Picassova"/>
    <tag k="surface" v="asphalt"/>
  </way>
  <way id="758801059" version="2" timestamp="2025-01-01T22:51:32Z" changeset="160887989" uid="469828" user="Luk치코 Jel칤nek">
    <nd ref="7086944938"/>
    <nd ref="1459107100"/>
    <nd ref="12467710934"/>
    <nd ref="60734510"/>
    <tag k="highway" v="residential"/>
    <tag k="lanes" v="1"/>
    <tag k="lit" v="yes"/>
    <tag k="maxspeed" v="50"/>
    <tag k="name" v="Na vrch치ch"/>
    <tag k="ref:ruian:street" v="496804"/>
    <tag k="surface" v="paving_stones"/>
  </way>
  <way id="759568758" version="3" timestamp="2020-07-27T18:54:23Z" changeset="88581215" uid="2718770" user="noirre">
    <nd ref="3296474867"/>
    <nd ref="7757445668"/>
    <nd ref="7095482283"/>
    <nd ref="7757445636"/>
    <nd ref="7095482284"/>
    <nd ref="7095482249"/>
    <tag k="highway" v="residential"/>
    <tag k="maxspeed" v="30"/>
    <tag k="name" v="Jind콏icha Buben칤캜ka"/>
    <tag k="surface" v="asphalt"/>
  </way>
  <way id="759568760" version="2" timestamp="2022-08-01T15:21:39Z" changeset="124351154" uid="3516" user="BiIbo">
    <nd ref="7095491889"/>
    <nd ref="140052170"/>
    <nd ref="3296474867"/>
    <tag k="highway" v="residential"/>
    <tag k="name" v="Jind콏icha Buben칤캜ka"/>
    <tag k="surface" v="asphalt"/>
  </way>
  <way id="759568761" version="5" timestamp="2020-08-04T07:38:20Z" changeset="88913147" uid="8976801" user="majkaz_imports">
    <nd ref="7095491891"/>
    <nd ref="7095491890"/>
    <nd ref="5051971568"/>
    <nd ref="7095491892"/>
    <nd ref="3638076738"/>
    <nd ref="7095491889"/>
    <tag k="highway" v="residential"/>
    <tag k="maxspeed" v="30"/>
    <tag k="name" v="Jind콏icha Buben칤캜ka"/>
    <tag k="surface" v="cobblestone"/>
  </way>
  <way id="763381892" version="11" timestamp="2025-03-15T23:36:01Z" changeset="163671013" uid="4018695" user="游뻟릖 Roman Horn칤k">
    <nd ref="55505421"/>
    <nd ref="12669129195"/>
    <nd ref="483390"/>
    <nd ref="483389"/>
    <nd ref="1838244854"/>
    <nd ref="65354242"/>
    <nd ref="1838244857"/>
    <nd ref="8811408"/>
    <tag k="highway" v="secondary"/>
    <tag k="lanes" v="2"/>
    <tag k="maxspeed" v="50"/>
    <tag k="name" v="P콏치telstv칤"/>
    <tag k="note" v="Hlavn칤 cesta Praha - 콎칤캜any"/>
    <tag k="official_ref" v="333"/>
    <tag k="ref" v="333"/>
    <tag k="sidewalk" v="no"/>
    <tag k="source:maxspeed" v="CZ:urban"/>
    <tag k="source:ref" v="survey"/>
    <tag k="surface" v="asphalt"/>
  </way>
  <way id="763381893" version="4" timestamp="2024-07-17T14:44:42Z" changeset="154061985" uid="469828" user="Luk치코 Jel칤nek">
    <nd ref="55505425"/>
    <nd ref="7095592988"/>
    <nd ref="7095592989"/>
    <nd ref="55505421"/>
    <tag k="highway" v="residential"/>
    <tag k="lanes" v="2"/>
    <tag k="name" v="Be캜ovsk치"/>
    <tag k="surface" v="asphalt"/>
  </way>
  <way id="772095622" version="1" timestamp="2020-02-13T09:08:21Z" changeset="80947432" uid="3145424" user="vidmann">
    <nd ref="7207871564"/>
    <nd ref="7207871563"/>
    <nd ref="7207871562"/>
    <nd ref="7207871561"/>
    <nd ref="7207871564"/>
    <tag k="amenity" v="car_wash"/>
    <tag k="building" v="roof"/>
    <tag k="layer" v="1"/>
    <tag k="name" v="Samoobslu쬹치 my캜ka Uh콏칤n캩ves CW-Tech"/>
    <tag k="opening_hours" v="Mo-Fr 06:30-22:00, Sa-Su 08:00-22:00"/>
    <tag k="self_service" v="yes"/>
  </way>
  <way id="819064376" version="5" timestamp="2024-09-11T12:08:52Z" changeset="156480228" uid="469828" user="Luk치코 Jel칤nek">
    <nd ref="7649158865"/>
    <nd ref="1459107063"/>
    <tag k="highway" v="tertiary"/>
    <tag k="lanes" v="3"/>
    <tag k="lanes:backward" v="1"/>
    <tag k="lanes:forward" v="2"/>
    <tag k="maxspeed" v="50"/>
    <tag k="name" v="Ke K콏칤쬴"/>
    <tag k="ref" v="00310"/>
    <tag k="smoothness" v="good"/>
    <tag k="source" v="openstreetbugs, km"/>
    <tag k="surface" v="asphalt"/>
    <tag k="turn:lanes:forward" v="left|right"/>
  </way>
  <way id="847806252" version="5" timestamp="2024-10-25T10:34:43Z" changeset="158331028" uid="1516345" user="theDagger">
    <nd ref="7911231884"/>
    <nd ref="7911265485"/>
    <nd ref="7911265486"/>
    <nd ref="7911265487"/>
    <nd ref="10555430431"/>
    <nd ref="10555430430"/>
    <nd ref="7911231884"/>
    <tag k="brand" v="Lidl"/>
    <tag k="brand:wikidata" v="Q151954"/>
    <tag k="brand:wikipedia" v="en:Lidl"/>
    <tag k="building" v="yes"/>
    <tag k="check_date" v="2024-10-24"/>
    <tag k="name" v="Lidl"/>
    <tag k="shop" v="supermarket"/>
    <tag k="start_date" v="2020"/>
  </way>
  <way id="850208250" version="5" timestamp="2025-03-15T22:29:55Z" changeset="163669756" uid="4018695" user="游뻟릖 Roman Horn칤k">
    <nd ref="30024844"/>
    <nd ref="12669074165"/>
    <nd ref="4460796529"/>
    <nd ref="409707062"/>
    <nd ref="12021379126"/>
    <nd ref="1169894050"/>
    <nd ref="4460796530"/>
    <nd ref="877262326"/>
    <nd ref="34593683"/>
    <nd ref="12021379127"/>
    <nd ref="12021379130"/>
    <nd ref="10705081496"/>
    <nd ref="877262576"/>
    <tag k="highway" v="tertiary"/>
    <tag k="lanes" v="2"/>
    <tag k="maxspeed" v="50"/>
    <tag k="name" v="K Uh콏칤n캩vsi"/>
  </way>
  <way id="850208252" version="12" timestamp="2025-01-01T18:58:13Z" changeset="160881237" uid="1160334" user="honzaa">
    <nd ref="412271504"/>
    <nd ref="1459107060"/>
    <nd ref="355906082"/>
    <tag k="highway" v="secondary"/>
    <tag k="lanes" v="3"/>
    <tag k="lanes:forward" v="2"/>
    <tag k="lit" v="yes"/>
    <tag k="maxspeed" v="50"/>
    <tag k="name" v="P콏치telstv칤"/>
    <tag k="official_ref" v="333"/>
    <tag k="ref" v="333"/>
    <tag k="source:maxspeed" v="CZ:urban"/>
    <tag k="source:ref" v="survey"/>
    <tag k="surface" v="asphalt"/>
  </way>
  <way id="877809001" version="2" timestamp="2024-09-03T16:36:05Z" changeset="156150287" uid="469828" user="Luk치코 Jel칤nek">
    <nd ref="412271504"/>
    <nd ref="1458467409"/>
    <nd ref="412271509"/>
    <tag k="highway" v="residential"/>
    <tag k="lane_markings" v="no"/>
    <tag k="name" v="Nov칠 n치m캩st칤"/>
    <tag k="surface" v="asphalt"/>
  </way>
  <way id="877809002" version="10" timestamp="2025-01-01T18:58:13Z" changeset="160881237" uid="1160334" user="honzaa">
    <nd ref="344249018"/>
    <nd ref="412271504"/>
    <tag k="highway" v="secondary"/>
    <tag k="lanes" v="2"/>
    <tag k="lit" v="yes"/>
    <tag k="maxspeed" v="50"/>
    <tag k="name" v="P콏치telstv칤"/>
    <tag k="official_ref" v="333"/>
    <tag k="ref" v="333"/>
    <tag k="source:maxspeed" v="CZ:urban"/>
    <tag k="source:ref" v="survey"/>
    <tag k="surface" v="asphalt"/>
  </way>
  <way id="877809004" version="3" timestamp="2024-12-08T20:11:37Z" changeset="160068905" uid="22239736" user="Ketiv">
    <nd ref="243518643"/>
    <nd ref="12405488656"/>
    <nd ref="8167233023"/>
    <nd ref="412271510"/>
    <nd ref="8167233024"/>
    <nd ref="8167233025"/>
    <tag k="highway" v="residential"/>
    <tag k="maxspeed" v="30"/>
    <tag k="surface" v="paving_stones"/>
  </way>
  <way id="878590957" version="2" timestamp="2025-02-23T15:01:08Z" changeset="162855922" uid="8468948" user="Feli Weigi">
    <nd ref="877262576"/>
    <nd ref="6936007675"/>
    <nd ref="12612955697"/>
    <nd ref="252021"/>
    <tag k="highway" v="tertiary"/>
    <tag k="lanes" v="2"/>
    <tag k="maxspeed" v="50"/>
    <tag k="name" v="K Uh콏칤n캩vsi"/>
  </way>
  <way id="890345621" version="2" timestamp="2024-03-06T06:55:31Z" changeset="148278160" uid="15107215" user="B치ra Soukupov치">
    <nd ref="8275498739"/>
    <nd ref="8275498740"/>
    <nd ref="8275498742"/>
    <nd ref="11696482310"/>
    <nd ref="8275498744"/>
    <tag k="highway" v="residential"/>
    <tag k="maxspeed" v="30"/>
    <tag k="surface" v="asphalt"/>
  </way>
  <way id="942565742" version="1" timestamp="2021-05-13T12:15:24Z" changeset="104636286" uid="527259" user="Vratislav Filler">
    <nd ref="1387196361"/>
    <nd ref="5370590975"/>
    <nd ref="6399533235"/>
    <nd ref="5370590977"/>
    <nd ref="5051971573"/>
    <nd ref="412271502"/>
    <tag k="highway" v="residential"/>
    <tag k="maxspeed" v="30"/>
    <tag k="name" v="Franti코ka Divi코e"/>
  </way>
  <way id="942565743" version="1" timestamp="2021-05-13T12:15:24Z" changeset="104636286" uid="527259" user="Vratislav Filler">
    <nd ref="1459107063"/>
    <nd ref="355906082"/>
    <tag k="highway" v="tertiary"/>
    <tag k="lanes" v="3"/>
    <tag k="lanes:backward" v="1"/>
    <tag k="lanes:forward" v="2"/>
    <tag k="maxspeed" v="50"/>
    <tag k="name" v="Ke K콏칤쬴"/>
    <tag k="ref" v="00310"/>
    <tag k="source" v="openstreetbugs, km"/>
    <tag k="surface" v="asphalt"/>
    <tag k="turn:lanes:forward" v="left|right"/>
  </way>
  <way id="942565744" version="3" timestamp="2025-03-16T00:21:43Z" changeset="163671705" uid="4018695" user="游뻟릖 Roman Horn칤k">
    <nd ref="7978207481"/>
    <nd ref="3638076729"/>
    <nd ref="1838489834"/>
    <nd ref="12669183256"/>
    <nd ref="355906075"/>
    <nd ref="140052170"/>
    <nd ref="355906077"/>
    <tag k="highway" v="tertiary"/>
    <tag k="lanes" v="2"/>
    <tag k="name" v="Ke K콏칤쬴"/>
    <tag k="ref" v="00310"/>
    <tag k="source" v="openstreetbugs, km"/>
    <tag k="surface" v="asphalt"/>
  </way>
  <way id="1033097257" version="3" timestamp="2025-03-02T14:28:32Z" changeset="163123691" uid="469828" user="Luk치코 Jel칤nek">
    <nd ref="55505347"/>
    <nd ref="55505351"/>
    <nd ref="861317234"/>
    <nd ref="861317206"/>
    <nd ref="55505385"/>
    <nd ref="10555430423"/>
    <nd ref="9518194981"/>
    <tag k="hgv" v="destination"/>
    <tag k="highway" v="tertiary"/>
    <tag k="lanes" v="2"/>
    <tag k="maxweight" v="3.5"/>
    <tag k="smoothness" v="excellent"/>
    <tag k="surface" v="asphalt"/>
  </way>
  <way id="1033097258" version="1" timestamp="2022-02-19T00:24:10Z" changeset="117587234" uid="469828" user="Luk치코 Jel칤nek">
    <nd ref="9518194981"/>
    <nd ref="55505389"/>
    <tag k="bridge" v="yes"/>
    <tag k="hgv" v="destination"/>
    <tag k="highway" v="tertiary"/>
    <tag k="lanes" v="2"/>
    <tag k="layer" v="1"/>
    <tag k="maxweight" v="3.5"/>
    <tag k="surface" v="asphalt"/>
  </way>
  <way id="1043714681" version="2" timestamp="2024-06-29T23:30:25Z" changeset="153350787" uid="469828" user="Luk치코 Jel칤nek">
    <nd ref="3238632471"/>
    <nd ref="412271510"/>
    <tag k="highway" v="residential"/>
  </way>
  <way id="1043714682" version="2" timestamp="2024-12-08T20:11:37Z" changeset="160068905" uid="22239736" user="Ketiv">
    <nd ref="3238632471"/>
    <nd ref="12405488654"/>
    <nd ref="243518643"/>
    <tag k="highway" v="residential"/>
  </way>
  <way id="1084130881" version="10" timestamp="2025-01-01T18:58:13Z" changeset="160881237" uid="1160334" user="honzaa">
    <nd ref="21263162"/>
    <nd ref="1290030143"/>
    <tag k="highway" v="secondary"/>
    <tag k="lanes" v="2"/>
    <tag k="maxspeed" v="50"/>
    <tag k="name" v="P콏치telstv칤"/>
    <tag k="note" v="Hlavn칤 cesta Praha - 콎칤캜any"/>
    <tag k="official_ref" v="333"/>
    <tag k="ref" v="333"/>
    <tag k="sidewalk:left" v="no"/>
    <tag k="sidewalk:right" v="separate"/>
    <tag k="smoothness" v="good"/>
    <tag k="source:maxspeed" v="CZ:urban"/>
    <tag k="source:ref" v="survey"/>
    <tag k="surface" v="asphalt"/>
  </way>
  <way id="1119588109" version="3" timestamp="2024-12-29T14:16:10Z" changeset="160749679" uid="469828" user="Luk치코 Jel칤nek">
    <nd ref="7080835"/>
    <nd ref="1459107073"/>
    <nd ref="1284107448"/>
    <nd ref="10240087974"/>
    <tag k="highway" v="residential"/>
    <tag k="lanes" v="2"/>
    <tag k="lit" v="yes"/>
    <tag k="maxspeed" v="30"/>
    <tag k="maxspeed:type" v="CZ:zone30"/>
    <tag k="name" v="Lidick칠ho"/>
    <tag k="smoothness" v="intermediate"/>
    <tag k="surface" v="asphalt"/>
    <tag k="zone:maxspeed" v="30"/>
  </way>
  <way id="1119588110" version="1" timestamp="2022-12-05T12:45:04Z" changeset="129740545" uid="6588887" user="Martin2035">
    <nd ref="10240087975"/>
    <nd ref="29447581"/>
    <nd ref="1459107069"/>
    <nd ref="29447592"/>
    <tag k="highway" v="residential"/>
    <tag k="maxspeed" v="30"/>
    <tag k="maxspeed:type" v="CZ:zone30"/>
    <tag k="name" v="Mor치vkova"/>
    <tag k="zone:maxspeed" v="30"/>
  </way>
  <way id="1128206177" version="1" timestamp="2023-01-08T11:49:34Z" changeset="131011016" uid="1189910" user="Milancer">
    <nd ref="3638076714"/>
    <nd ref="1838489790"/>
    <tag k="highway" v="tertiary"/>
    <tag k="lanes" v="2"/>
    <tag k="lit" v="yes"/>
    <tag k="maxspeed" v="50"/>
    <tag k="name" v="K D치lnici"/>
    <tag k="ref" v="00310"/>
    <tag k="source:ref" v="rsd_cr"/>
    <tag k="surface" v="asphalt"/>
  </way>
  <way id="1273890677" version="1" timestamp="2024-04-18T17:55:43Z" changeset="150188153" uid="9291527" user="marekhrabe">
    <nd ref="4089594184"/>
    <nd ref="1634550969"/>
    <nd ref="1634550967"/>
    <nd ref="1634550964"/>
    <nd ref="1729117316"/>
    <tag k="highway" v="unclassified"/>
    <tag k="lanes" v="1"/>
    <tag k="motor_vehicle" v="no"/>
    <tag k="name" v="Netluky"/>
    <tag k="smoothness" v="good"/>
    <tag k="surface" v="asphalt"/>
  </way>
  <way id="1273890678" version="2" timestamp="2025-04-16T09:46:47Z" changeset="165019915" uid="718054" user="Piskvor">
    <nd ref="34595037"/>
    <nd ref="11828925340"/>
    <tag k="highway" v="unclassified"/>
    <tag k="smoothness" v="bad"/>
    <tag k="surface" v="asphalt"/>
  </way>
  <way id="1276424889" version="1" timestamp="2024-04-26T12:37:30Z" changeset="150537142" uid="231749" user="Eino81">
    <nd ref="7080744"/>
    <nd ref="471640254"/>
    <nd ref="861202152"/>
    <nd ref="861202252"/>
    <tag k="highway" v="residential"/>
  </way>
  <way id="1276450561" version="1" timestamp="2024-04-26T14:00:03Z" changeset="150540753" uid="231749" user="Eino81">
    <nd ref="2611215798"/>
    <nd ref="2611215794"/>
    <nd ref="672850180"/>
    <nd ref="2611215792"/>
    <tag k="access" v="customers"/>
    <tag k="highway" v="unclassified"/>
    <tag k="tracktype" v="grade1"/>
  </way>
  <way id="1301352051" version="1" timestamp="2024-07-14T18:13:55Z" changeset="153942221" uid="231749" user="Eino81">
    <nd ref="12053519790"/>
    <nd ref="889521501"/>
    <tag k="access" v="customers"/>
    <tag k="highway" v="residential"/>
    <tag k="name" v="Be캜ovsk치"/>
  </way>
  <way id="1324700204" version="1" timestamp="2024-10-17T14:48:14Z" changeset="158012043" uid="1516345" user="theDagger">
    <nd ref="1458467447"/>
    <nd ref="65354243"/>
    <nd ref="65354248"/>
    <tag k="highway" v="residential"/>
    <tag k="name" v="Franti코ka Divi코e"/>
  </way>
  <way id="1366300321" version="1" timestamp="2025-03-11T19:32:30Z" changeset="163499661" uid="718054" user="Piskvor">
    <nd ref="7783979"/>
    <nd ref="1634563550"/>
    <nd ref="1634563548"/>
    <nd ref="1634563547"/>
    <nd ref="1634563546"/>
    <nd ref="1634563545"/>
    <tag k="highway" v="unclassified"/>
    <tag k="lanes" v="1"/>
    <tag k="motor_vehicle" v="private"/>
    <tag k="smoothness" v="good"/>
    <tag k="surface" v="asphalt"/>
  </way>
  <way id="1367991734" version="1" timestamp="2025-03-15T22:29:55Z" changeset="163669756" uid="4018695" user="游뻟릖 Roman Horn칤k">
    <nd ref="252021"/>
    <nd ref="5104338647"/>
    <tag k="highway" v="tertiary"/>
    <tag k="lanes" v="2"/>
    <tag k="maxspeed" v="70"/>
    <tag k="name" v="K Uh콏칤n캩vsi"/>
  </way>
  <way id="1367991736" version="1" timestamp="2025-03-15T22:29:55Z" changeset="163669756" uid="4018695" user="游뻟릖 Roman Horn칤k">
    <nd ref="4460961478"/>
    <nd ref="12435971918"/>
    <tag k="highway" v="secondary"/>
    <tag k="lanes" v="2"/>
    <tag k="maxspeed" v="50"/>
    <tag k="name" v="P콏치telstv칤"/>
    <tag k="official_ref" v="333"/>
    <tag k="ref" v="333"/>
    <tag k="source:maxspeed" v="CZ:urban"/>
    <tag k="surface" v="asphalt"/>
  </way>
  <way id="1367991738" version="1" timestamp="2025-03-15T22:29:55Z" changeset="163669756" uid="4018695" user="游뻟릖 Roman Horn칤k">
    <nd ref="1270094927"/>
    <nd ref="320778042"/>
    <nd ref="320778033"/>
    <nd ref="320778021"/>
    <nd ref="5760154588"/>
    <nd ref="1270094963"/>
    <tag k="highway" v="tertiary"/>
    <tag k="name" v="V Ku콘atech"/>
  </way>
  <way id="1367991740" version="1" timestamp="2025-03-15T22:29:55Z" changeset="163669756" uid="4018695" user="游뻟릖 Roman Horn칤k">
    <nd ref="34595064"/>
    <nd ref="5103767692"/>
    <nd ref="29447289"/>
    <nd ref="12669074171"/>
    <tag k="highway" v="tertiary"/>
    <tag k="maxspeed" v="70"/>
    <tag k="maxspeed:type" v="sign"/>
    <tag k="name" v="KNetluk치m"/>
    <tag k="surface" v="asphalt"/>
  </way>
  <way id="1367998180" version="1" timestamp="2025-03-15T23:36:01Z" changeset="163671013" uid="4018695" user="游뻟릖 Roman Horn칤k">
    <nd ref="1290030153"/>
    <nd ref="1169894104"/>
    <nd ref="12669074168"/>
    <nd ref="7080847"/>
    <tag k="highway" v="secondary"/>
    <tag k="lanes" v="2"/>
    <tag k="maxspeed" v="40"/>
    <tag k="name" v="P콏치telstv칤"/>
    <tag k="official_ref" v="333"/>
    <tag k="ref" v="333"/>
    <tag k="source:maxspeed" v="sign"/>
    <tag k="source:ref" v="survey"/>
    <tag k="surface" v="asphalt"/>
  </way>
  <way id="1367998182" version="1" timestamp="2025-03-15T23:36:01Z" changeset="163671013" uid="4018695" user="游뻟릖 Roman Horn칤k">
    <nd ref="10555430437"/>
    <nd ref="861266463"/>
    <tag k="highway" v="secondary"/>
    <tag k="lanes" v="2"/>
    <tag k="lit" v="no"/>
    <tag k="maxspeed" v="50"/>
    <tag k="name" v="P콏치telstv칤"/>
    <tag k="official_ref" v="333"/>
    <tag k="ref" v="333"/>
    <tag k="source:maxspeed" v="CZ:urban"/>
    <tag k="source:ref" v="survey"/>
    <tag k="surface" v="asphalt"/>
  </way>
  <way id="1367998183" version="1" timestamp="2025-03-15T23:36:01Z" changeset="163671013" uid="4018695" user="游뻟릖 Roman Horn칤k">
    <nd ref="8173385812"/>
    <nd ref="1145859111"/>
    <nd ref="471640250"/>
    <nd ref="471640251"/>
    <nd ref="7080744"/>
    <nd ref="471640257"/>
    <nd ref="10705059849"/>
    <nd ref="7080738"/>
    <tag k="highway" v="secondary"/>
    <tag k="lanes" v="2"/>
    <tag k="lit" v="no"/>
    <tag k="maxspeed" v="50"/>
    <tag k="name" v="P콏치telstv칤"/>
    <tag k="official_ref" v="333"/>
    <tag k="ref" v="333"/>
    <tag k="source:maxspeed" v="CZ:urban"/>
    <tag k="source:ref" v="survey"/>
    <tag k="surface" v="asphalt"/>
  </way>
  <way id="1368003057" version="1" timestamp="2025-03-16T00:21:43Z" changeset="163671705" uid="4018695" user="游뻟릖 Roman Horn칤k">
    <nd ref="130440408"/>
    <nd ref="12669183241"/>
    <nd ref="244009315"/>
    <nd ref="311116428"/>
    <nd ref="12334851164"/>
    <tag k="highway" v="residential"/>
    <tag k="name" v="Sala캜ova"/>
  </way>
  <way id="1368003058" version="1" timestamp="2025-03-16T00:21:43Z" changeset="163671705" uid="4018695" user="游뻟릖 Roman Horn칤k">
    <nd ref="12669183244"/>
    <nd ref="12669183245"/>
    <nd ref="12669183246"/>
    <nd ref="12669183247"/>
    <nd ref="1838489827"/>
    <nd ref="130440537"/>
    <nd ref="1171888870"/>
    <tag k="hgv" v="no"/>
    <tag k="highway" v="tertiary"/>
    <tag k="lanes" v="2"/>
    <tag k="name" v="K D치lnici"/>
  </way>
  <way id="1368003059" version="1" timestamp="2025-03-16T00:21:43Z" changeset="163671705" uid="4018695" user="游뻟릖 Roman Horn칤k">
    <nd ref="12669183255"/>
    <nd ref="1838489807"/>
    <tag k="highway" v="tertiary"/>
    <tag k="lanes" v="2"/>
    <tag k="name" v="Ke K콏칤쬴"/>
    <tag k="ref" v="00310"/>
    <tag k="source" v="openstreetbugs, km"/>
    <tag k="surface" v="asphalt"/>
  </way>
  <way id="1368003060" version="1" timestamp="2025-03-16T00:21:43Z" changeset="163671705" uid="4018695" user="游뻟릖 Roman Horn칤k">
    <nd ref="1169911884"/>
    <nd ref="7978207478"/>
    <nd ref="1838489829"/>
    <nd ref="7978207479"/>
    <nd ref="1169911878"/>
    <nd ref="7978207480"/>
    <nd ref="7978207481"/>
    <tag k="highway" v="tertiary"/>
    <tag k="lanes" v="2"/>
    <tag k="maxspeed" v="50"/>
    <tag k="name" v="Ke K콏칤쬴"/>
    <tag k="overtaking" v="no"/>
    <tag k="ref" v="00310"/>
    <tag k="source:maxspeed" v="CZ:urban"/>
    <tag k="surface" v="asphalt"/>
  </way>
  <way id="1368003062" version="1" timestamp="2025-03-16T00:21:43Z" changeset="163671705" uid="4018695" user="游뻟릖 Roman Horn칤k">
    <nd ref="412271499"/>
    <nd ref="412271495"/>
    <tag k="highway" v="tertiary"/>
    <tag k="lanes" v="2"/>
    <tag k="maxheight" v="default"/>
    <tag k="maxspeed" v="50"/>
    <tag k="name" v="Ke K콏칤쬴"/>
    <tag k="ref" v="00310"/>
    <tag k="smoothness" v="excellent"/>
    <tag k="source" v="openstreetbugs, km"/>
    <tag k="surface" v="asphalt"/>
  </way>
  <way id="1368003063" version="1" timestamp="2025-03-16T00:21:43Z" changeset="163671705" uid="4018695" user="游뻟릖 Roman Horn칤k">
    <nd ref="55505415"/>
    <nd ref="861266503"/>
    <nd ref="7095593025"/>
    <nd ref="8167328723"/>
    <nd ref="4112791728"/>
    <nd ref="381058304"/>
    <tag k="highway" v="tertiary"/>
    <tag k="lanes" v="2"/>
    <tag k="maxspeed" v="30"/>
    <tag k="maxspeed:type" v="sign"/>
    <tag k="name" v="Be캜ovsk치"/>
    <tag k="surface" v="asphalt"/>
  </way>
  <way id="1368003064" version="1" timestamp="2025-03-16T00:21:43Z" changeset="163671705" uid="4018695" user="游뻟릖 Roman Horn칤k">
    <nd ref="55505401"/>
    <nd ref="55505403"/>
    <nd ref="12348288884"/>
    <nd ref="2195573504"/>
    <nd ref="12348288883"/>
    <nd ref="55505405"/>
    <tag k="highway" v="tertiary"/>
    <tag k="lanes" v="2"/>
    <tag k="maxspeed" v="30"/>
    <tag k="maxspeed:type" v="sign"/>
    <tag k="name" v="Be캜ovsk치"/>
    <tag k="surface" v="asphalt"/>
  </way>
  <way id="1368003065" version="1" timestamp="2025-03-16T00:21:43Z" changeset="163671705" uid="4018695" user="游뻟릖 Roman Horn칤k">
    <nd ref="1729116464"/>
    <nd ref="2339105651"/>
    <nd ref="861658317"/>
    <nd ref="55505415"/>
    <tag k="highway" v="tertiary"/>
    <tag k="lanes" v="2"/>
    <tag k="maxspeed" v="30"/>
    <tag k="maxspeed:type" v="sign"/>
    <tag k="name" v="Be캜ovsk치"/>
    <tag k="surface" v="asphalt"/>
  </way>
  <way id="1368003066" version="1" timestamp="2025-03-16T00:21:43Z" changeset="163671705" uid="4018695" user="游뻟릖 Roman Horn칤k">
    <nd ref="889521499"/>
    <nd ref="1729116807"/>
    <nd ref="889521370"/>
    <nd ref="12034883711"/>
    <nd ref="1729116481"/>
    <nd ref="1729116464"/>
    <tag k="highway" v="tertiary"/>
    <tag k="lanes" v="2"/>
    <tag k="maxspeed" v="30"/>
    <tag k="maxspeed:type" v="sign"/>
    <tag k="name" v="Be캜ovsk치"/>
    <tag k="surface" v="asphalt"/>
  </way>
  <way id="1368009346" version="1" timestamp="2025-03-16T01:40:34Z" changeset="163672699" uid="4018695" user="游뻟릖 Roman Horn칤k">
    <nd ref="29447725"/>
    <nd ref="12334851126"/>
    <nd ref="8275498739"/>
    <nd ref="8275498733"/>
    <nd ref="861784064"/>
    <nd ref="8791806109"/>
    <tag k="highway" v="residential"/>
    <tag k="name" v="Franti코ka Divi코e"/>
  </way>
  <way id="1368009348" version="1" timestamp="2025-03-16T01:40:34Z" changeset="163672699" uid="4018695" user="游뻟릖 Roman Horn칤k">
    <nd ref="8791806109"/>
    <nd ref="140051918"/>
    <tag k="highway" v="residential"/>
    <tag k="name" v="Franti코ka Divi코e"/>
  </way>
  <way id="1368009349" version="1" timestamp="2025-03-16T01:40:34Z" changeset="163672699" uid="4018695" user="游뻟릖 Roman Horn칤k">
    <nd ref="140051918"/>
    <nd ref="12334851134"/>
    <tag k="highway" v="residential"/>
    <tag k="name" v="Franti코ka Divi코e"/>
  </way>

</osm>
