<?xml version="1.0" encoding="UTF-8"?>
<osm version="0.6" generator="Overpass API 0.7.62.5 1bd436f1">
<note>The data included in this document is from www.openstreetmap.org. The data is made available under ODbL.</note>
<meta osm_base="2025-05-18T03:35:57Z" areas="2024-12-31T00:49:33Z"/>

  <node id="319564" lat="53.7970355" lon="-1.4210954" version="8" timestamp="2012-03-06T20:32:44Z" changeset="10894242" uid="82820" user="Mark_S"/>
  <node id="3462269" lat="53.7599064" lon="-1.4364815" version="4" timestamp="2014-07-30T22:03:22Z" changeset="24452935" uid="69984" user="richardwest"/>
  <node id="20979482" lat="53.7937874" lon="-1.4308775" version="5" timestamp="2012-02-07T08:23:38Z" changeset="10609783" uid="308" user="MichaelCollinson"/>
  <node id="20979498" lat="53.7942314" lon="-1.4293699" version="6" timestamp="2019-03-26T23:40:39Z" changeset="68567404" uid="1802093" user="Paul Berry"/>
  <node id="20979504" lat="53.7947240" lon="-1.4291440" version="2" timestamp="2009-02-28T16:15:03Z" changeset="701863" uid="45820" user="Paper"/>
  <node id="21458272" lat="53.7697131" lon="-1.4156079" version="2" timestamp="2011-11-24T19:29:40Z" changeset="9935751" uid="120039" user="Spuds"/>
  <node id="26526408" lat="53.7921204" lon="-1.4282422" version="6" timestamp="2019-04-14T10:10:48Z" changeset="69198167" uid="2773866" user="kreuzschnabel"/>
  <node id="386024332" lat="53.7538030" lon="-1.3947985" version="5" timestamp="2020-12-28T16:21:58Z" changeset="96548298" uid="3316592" user="Arthtoach"/>
  <node id="475380910" lat="53.7704795" lon="-1.4444718" version="2" timestamp="2012-03-16T22:08:15Z" changeset="11003036" uid="2330" user="LeedsTracker"/>
  <node id="1489910140" lat="53.7866647" lon="-1.4047086" version="4" timestamp="2018-03-09T20:39:48Z" changeset="57043905" uid="6707957" user="Var-vara"/>
  <node id="1574707777" lat="53.7761406" lon="-1.4710456" version="3" timestamp="2014-10-20T19:10:47Z" changeset="26220710" uid="5926" user="c2r"/>
  <node id="1599846398" lat="53.7928265" lon="-1.4275911" version="4" timestamp="2022-08-26T19:27:35Z" changeset="125420561" uid="4543415" user="The_JF"/>
  <node id="1621254458" lat="53.7764374" lon="-1.4323755" version="2" timestamp="2013-07-08T01:37:40Z" changeset="16867734" uid="329453" user="Biff"/>
  <node id="1621260443" lat="53.7963992" lon="-1.4202051" version="5" timestamp="2022-12-30T14:22:22Z" changeset="130689247" uid="705850" user="Cebderby"/>
  <node id="2264816742" lat="53.7940795" lon="-1.4312692" version="3" timestamp="2020-12-20T09:28:15Z" changeset="96132677" uid="10149683" user="WakefieldMapper">
    <tag k="crossing" v="marked"/>
    <tag k="crossing_ref" v="toucan"/>
    <tag k="highway" v="crossing"/>
  </node>
  <node id="3227424492" lat="53.7762997" lon="-1.4080901" version="1" timestamp="2014-12-09T23:30:28Z" changeset="27368018" uid="2431132" user="Carl Wilson"/>
  <node id="4557569558" lat="53.7864693" lon="-1.4038196" version="2" timestamp="2018-03-09T20:39:49Z" changeset="57043905" uid="6707957" user="Var-vara"/>
  <node id="5041460469" lat="53.7861357" lon="-1.4282323" version="3" timestamp="2021-02-14T22:20:09Z" changeset="99268933" uid="61942" user="SomeoneElse">
    <tag k="highway" v="motorway_junction"/>
    <tag k="name" v="Austhorpe"/>
    <tag k="name:signed" v="no"/>
    <tag k="ref" v="46"/>
  </node>
  <way id="3999971" version="12" timestamp="2022-01-06T21:08:12Z" changeset="115853900" uid="4543415" user="The_JF">
    <nd ref="20979498"/>
    <nd ref="20979517"/>
    <nd ref="2264816681"/>
    <nd ref="20979518"/>
    <nd ref="20979523"/>
    <nd ref="20979519"/>
    <nd ref="20979520"/>
    <tag k="highway" v="unclassified"/>
    <tag k="lanes" v="2"/>
    <tag k="lit" v="yes"/>
    <tag k="maxspeed" v="30 mph"/>
    <tag k="name" v="Century Way"/>
    <tag k="oneway" v="yes"/>
    <tag k="surface" v="asphalt"/>
    <tag k="turn:lanes" v="left;through|right"/>
  </way>
  <way id="4048918" version="16" timestamp="2018-03-09T20:39:50Z" changeset="57043905" uid="6707957" user="Var-vara">
    <nd ref="26526516"/>
    <nd ref="26526511"/>
    <tag k="highway" v="primary"/>
    <tag k="lanes" v="2"/>
    <tag k="maxspeed" v="40 mph"/>
    <tag k="name" v="Wakefield Road"/>
    <tag k="ref" v="A642"/>
    <tag k="source" v="npe &amp; gpx"/>
    <tag k="surface" v="asphalt"/>
  </way>
  <way id="4049006" version="23" timestamp="2024-08-28T07:34:46Z" changeset="155864857" uid="592" user="JonS">
    <nd ref="1621254449"/>
    <nd ref="1621254461"/>
    <nd ref="6617746440"/>
    <nd ref="1621254448"/>
    <nd ref="1621254447"/>
    <nd ref="1621254450"/>
    <nd ref="411250015"/>
    <nd ref="1081065291"/>
    <nd ref="1621254428"/>
    <nd ref="1621254398"/>
    <nd ref="6131287590"/>
    <nd ref="1621254455"/>
    <nd ref="1081064811"/>
    <nd ref="6611582208"/>
    <nd ref="1621254421"/>
    <nd ref="1621254414"/>
    <nd ref="7750286753"/>
    <nd ref="1621254413"/>
    <nd ref="6611582140"/>
    <nd ref="1621254410"/>
    <nd ref="1621254407"/>
    <nd ref="1621254404"/>
    <nd ref="1621254402"/>
    <nd ref="7750310660"/>
    <nd ref="1621254401"/>
    <nd ref="1621254425"/>
    <nd ref="1621254396"/>
    <nd ref="1621254464"/>
    <nd ref="1621254409"/>
    <nd ref="1621254462"/>
    <nd ref="1621254460"/>
    <nd ref="1621254459"/>
    <nd ref="1621254457"/>
    <nd ref="2090406261"/>
    <nd ref="1621254458"/>
    <tag k="highway" v="tertiary"/>
    <tag k="lanes" v="2"/>
    <tag k="lit" v="no"/>
    <tag k="maxspeed" v="50 mph"/>
    <tag k="name" v="Bullerthorpe Lane"/>
    <tag k="surface" v="asphalt"/>
  </way>
  <way id="4354666" version="20" timestamp="2024-04-05T09:32:24Z" changeset="149605558" uid="19172931" user="MNorwood">
    <nd ref="20979482"/>
    <nd ref="20979494"/>
    <nd ref="20979492"/>
    <nd ref="2264816830"/>
    <nd ref="2377536424"/>
    <nd ref="2089142552"/>
    <nd ref="20979495"/>
    <nd ref="11139786829"/>
    <nd ref="6750214541"/>
    <nd ref="6504267963"/>
    <nd ref="2377536441"/>
    <nd ref="2377536426"/>
    <nd ref="26526428"/>
    <nd ref="26526410"/>
    <tag k="highway" v="secondary"/>
    <tag k="lanes" v="3"/>
    <tag k="lit" v="yes"/>
    <tag k="maxspeed" v="40 mph"/>
    <tag k="name" v="Selby Road"/>
    <tag k="old_ref" v="A6120;A63"/>
    <tag k="oneway" v="yes"/>
    <tag k="ref" v="B6902"/>
    <tag k="sidewalk:left" v="separate"/>
    <tag k="sidewalk:right" v="no"/>
    <tag k="surface" v="asphalt"/>
    <tag k="turn:lanes" v="left|left;through|through"/>
  </way>
  <way id="4354667" version="18" timestamp="2023-01-14T18:55:50Z" changeset="131275736" uid="4543415" user="The_JF">
    <nd ref="26526408"/>
    <nd ref="5041460476"/>
    <nd ref="2377536433"/>
    <nd ref="26526429"/>
    <nd ref="6403752138"/>
    <nd ref="6403752137"/>
    <nd ref="2377536431"/>
    <nd ref="6750214539"/>
    <nd ref="26526430"/>
    <nd ref="5193439581"/>
    <tag k="highway" v="secondary"/>
    <tag k="lanes" v="2"/>
    <tag k="lit" v="yes"/>
    <tag k="maxspeed" v="40 mph"/>
    <tag k="name" v="Selby Road"/>
    <tag k="old_ref" v="A6120;A63"/>
    <tag k="oneway" v="yes"/>
    <tag k="ref" v="B6902"/>
    <tag k="shoulder:left" v="hazard"/>
    <tag k="shoulder:right" v="no"/>
    <tag k="surface" v="asphalt"/>
    <tag k="turn:lanes" v="through|through"/>
  </way>
  <way id="4354684" version="18" timestamp="2025-04-15T20:09:37Z" changeset="165001800" uid="7666952" user="phodgkin">
    <nd ref="5041460469"/>
    <nd ref="2377558104"/>
    <nd ref="2377558163"/>
    <nd ref="2377558124"/>
    <nd ref="1590900143"/>
    <nd ref="2377558156"/>
    <nd ref="11622038"/>
    <nd ref="2377558221"/>
    <nd ref="1574707770"/>
    <tag k="carriageway_ref" v="J"/>
    <tag k="destination" v="Leeds (East);Airport;Selby"/>
    <tag k="destination:ref" v="A6120;A6120;A63"/>
    <tag k="highway" v="motorway_link"/>
    <tag k="junction:ref" v="46"/>
    <tag k="lanes" v="2"/>
    <tag k="lit" v="no"/>
    <tag k="maxheight" v="default"/>
    <tag k="maxspeed" v="70 mph"/>
    <tag k="maxspeed:type" v="GB:motorway"/>
    <tag k="national_highways:area" v="DBFO27"/>
    <tag k="oneway" v="yes"/>
    <tag k="operator" v="National Highways"/>
    <tag k="operator:wikidata" v="Q5760006"/>
    <tag k="ref" v="M1"/>
    <tag k="shoulder:left" v="yes"/>
    <tag k="surface" v="asphalt"/>
  </way>
  <way id="4354685" version="17" timestamp="2024-10-07T15:50:40Z" changeset="157588433" uid="5229644" user="Nathan_A_RF">
    <nd ref="26526403"/>
    <nd ref="2377558013"/>
    <nd ref="26526419"/>
    <nd ref="6750214530"/>
    <nd ref="2377558030"/>
    <nd ref="26526420"/>
    <nd ref="1599835037"/>
    <nd ref="2377558087"/>
    <nd ref="2377558266"/>
    <nd ref="2377558035"/>
    <nd ref="2377558033"/>
    <nd ref="2377558052"/>
    <nd ref="2377558061"/>
    <nd ref="2377558080"/>
    <nd ref="2377558138"/>
    <nd ref="2377558008"/>
    <nd ref="2377558210"/>
    <tag k="carriageway_ref" v="M"/>
    <tag k="highway" v="motorway_link"/>
    <tag k="junction:ref" v="46"/>
    <tag k="lanes" v="1"/>
    <tag k="lit" v="yes"/>
    <tag k="maxspeed" v="70 mph"/>
    <tag k="maxspeed:type" v="GB:motorway"/>
    <tag k="national_highways:area" v="DBFO27"/>
    <tag k="oneway" v="yes"/>
    <tag k="operator" v="National Highways"/>
    <tag k="operator:wikidata" v="Q5760006"/>
    <tag k="ref" v="M1"/>
    <tag k="surface" v="asphalt"/>
  </way>
  <way id="4354686" version="19" timestamp="2019-04-11T17:10:06Z" changeset="69124059" uid="4543415" user="The_JF">
    <nd ref="1489910140"/>
    <nd ref="26526502"/>
    <tag k="highway" v="trunk"/>
    <tag k="junction" v="roundabout"/>
    <tag k="lanes" v="2"/>
    <tag k="lit" v="yes"/>
    <tag k="maxspeed" v="40 mph"/>
    <tag k="surface" v="asphalt"/>
  </way>
  <way id="4354687" version="15" timestamp="2020-10-02T12:59:38Z" changeset="91867255" uid="3316592" user="Arthtoach">
    <nd ref="4552371368"/>
    <nd ref="4552371363"/>
    <nd ref="4552371362"/>
    <nd ref="4552371366"/>
    <nd ref="26526509"/>
    <nd ref="2181404661"/>
    <nd ref="2181404689"/>
    <nd ref="2396565061"/>
    <nd ref="6769497955"/>
    <nd ref="26526497"/>
    <nd ref="2256133676"/>
    <tag k="highway" v="trunk"/>
    <tag k="lanes" v="2"/>
    <tag k="lit" v="yes"/>
    <tag k="maxspeed" v="40 mph"/>
    <tag k="name" v="Selby Road"/>
    <tag k="oneway" v="yes"/>
    <tag k="ref" v="A63"/>
    <tag k="surface" v="asphalt"/>
  </way>
  <way id="4354688" version="9" timestamp="2022-03-21T04:56:32Z" changeset="118717926" uid="13341565" user="Falsernet">
    <nd ref="26526516"/>
    <nd ref="26526510"/>
    <nd ref="4552371364"/>
    <nd ref="26526499"/>
    <tag k="highway" v="primary"/>
    <tag k="lanes" v="2"/>
    <tag k="lit" v="yes"/>
    <tag k="maxspeed" v="40 mph"/>
    <tag k="name" v="Wakefield Road"/>
    <tag k="oneway" v="yes"/>
    <tag k="ref" v="A642"/>
    <tag k="source" v="npe &amp; gpx"/>
    <tag k="surface" v="asphalt"/>
    <tag k="turn:lanes" v="through;left|right"/>
  </way>
  <way id="4674761" version="9" timestamp="2022-06-05T06:12:29Z" changeset="121960431" uid="10364561" user="TrekClimbing">
    <nd ref="26526464"/>
    <nd ref="9796111959"/>
    <nd ref="20979504"/>
    <tag k="abutters" v="industrial"/>
    <tag k="highway" v="unclassified"/>
    <tag k="lanes" v="1"/>
    <tag k="lcn" v="yes"/>
    <tag k="name" v="Century Way"/>
    <tag k="oneway" v="yes"/>
    <tag k="sidewalk:left" v="separate"/>
    <tag k="sidewalk:right" v="no"/>
    <tag k="source" v="Bing"/>
    <tag k="surface" v="asphalt"/>
  </way>
  <way id="4801318" version="22" timestamp="2024-06-17T20:17:25Z" changeset="152818627" uid="20112387" user="Anton Khorev (repair)">
    <nd ref="30803671"/>
    <nd ref="7778233966"/>
    <nd ref="288492719"/>
    <nd ref="288492718"/>
    <nd ref="288492716"/>
    <nd ref="7778233967"/>
    <nd ref="30803672"/>
    <nd ref="30803673"/>
    <nd ref="30803679"/>
    <nd ref="30803680"/>
    <nd ref="30803681"/>
    <nd ref="7595213172"/>
    <nd ref="30803682"/>
    <nd ref="3395992355"/>
    <nd ref="30803684"/>
    <nd ref="288491680"/>
    <tag k="highway" v="tertiary"/>
    <tag k="lanes" v="2"/>
    <tag k="surface" v="asphalt"/>
  </way>
  <way id="4801319" version="6" timestamp="2024-06-14T22:35:15Z" changeset="152700850" uid="1778799" user="SomeoneElse_Revert">
    <nd ref="30803693"/>
    <nd ref="7805830626"/>
    <nd ref="30803694"/>
    <nd ref="7805830627"/>
    <nd ref="30803695"/>
    <nd ref="288491950"/>
    <nd ref="288491717"/>
    <nd ref="30803696"/>
    <nd ref="30803697"/>
    <nd ref="7805830633"/>
    <nd ref="30803698"/>
    <nd ref="7805830632"/>
    <nd ref="30803699"/>
    <nd ref="30803700"/>
    <nd ref="30803701"/>
    <nd ref="30803702"/>
    <nd ref="30803703"/>
    <tag k="highway" v="residential"/>
    <tag k="name" v="Neville Grove"/>
    <tag k="surface" v="asphalt"/>
  </way>
  <way id="4801322" version="7" timestamp="2020-12-31T08:24:27Z" changeset="96715425" uid="11734152" user="baggg">
    <nd ref="21458272"/>
    <nd ref="7150599769"/>
    <nd ref="1515809810"/>
    <nd ref="8277311993"/>
    <nd ref="30803705"/>
    <nd ref="7975921153"/>
    <nd ref="30803706"/>
    <nd ref="30803707"/>
    <nd ref="1515809840"/>
    <nd ref="1951476663"/>
    <nd ref="1515809828"/>
    <nd ref="1951476665"/>
    <nd ref="7975921154"/>
    <nd ref="1515809831"/>
    <nd ref="7975921155"/>
    <nd ref="30803708"/>
    <nd ref="1951476669"/>
    <nd ref="1951476671"/>
    <nd ref="1951476673"/>
    <nd ref="30803710"/>
    <nd ref="30803711"/>
    <nd ref="30803712"/>
    <nd ref="30803713"/>
    <nd ref="30803714"/>
    <nd ref="30803715"/>
    <nd ref="30803716"/>
    <nd ref="30803717"/>
    <nd ref="30803718"/>
    <nd ref="30803719"/>
    <nd ref="30803720"/>
    <nd ref="30803721"/>
    <nd ref="30803725"/>
    <tag k="highway" v="unclassified"/>
    <tag k="lanes" v="2"/>
    <tag k="name" v="Goody Cross Lane"/>
    <tag k="surface" v="asphalt"/>
  </way>
  <way id="4801323" version="24" timestamp="2024-06-17T20:17:25Z" changeset="152818627" uid="20112387" user="Anton Khorev (repair)">
    <nd ref="387350840"/>
    <nd ref="387350835"/>
    <nd ref="9896184467"/>
    <nd ref="387350831"/>
    <nd ref="1515809818"/>
    <nd ref="9896184446"/>
    <nd ref="3227491421"/>
    <tag k="highway" v="tertiary"/>
    <tag k="lanes" v="2"/>
    <tag k="name" v="Whitehouse Lane"/>
    <tag k="surface" v="asphalt"/>
  </way>
  <way id="4907588" version="8" timestamp="2018-03-09T20:39:50Z" changeset="57043905" uid="6707957" user="Var-vara">
    <nd ref="26526506"/>
    <nd ref="26526517"/>
    <nd ref="26526516"/>
    <tag k="highway" v="primary"/>
    <tag k="lanes" v="1"/>
    <tag k="lit" v="yes"/>
    <tag k="maxspeed" v="40 mph"/>
    <tag k="name" v="Wakefield Road"/>
    <tag k="oneway" v="yes"/>
    <tag k="ref" v="A642"/>
    <tag k="source" v="npe &amp; gpx"/>
    <tag k="surface" v="asphalt"/>
  </way>
  <way id="5098551" version="7" timestamp="2024-08-28T07:34:30Z" changeset="155864524" uid="592" user="JonS">
    <nd ref="3462269"/>
    <nd ref="34845824"/>
    <tag k="bridge" v="yes"/>
    <tag k="highway" v="primary"/>
    <tag k="lanes" v="2"/>
    <tag k="layer" v="1"/>
    <tag k="lit" v="yes"/>
    <tag k="maxspeed" v="30 mph"/>
    <tag k="maxweight:signed" v="no"/>
    <tag k="name" v="Aberford Road"/>
    <tag k="ref" v="A642"/>
    <tag k="surface" v="asphalt"/>
  </way>
  <way id="5098553" version="8" timestamp="2020-05-16T08:14:14Z" changeset="85294110" uid="3316592" user="Arthtoach">
    <nd ref="34845824"/>
    <nd ref="2988554949"/>
    <nd ref="1621254449"/>
    <tag k="highway" v="primary"/>
    <tag k="lanes" v="2"/>
    <tag k="lit" v="yes"/>
    <tag k="maxspeed" v="30 mph"/>
    <tag k="name" v="Aberford Road"/>
    <tag k="ref" v="A642"/>
    <tag k="surface" v="asphalt"/>
  </way>
  <way id="5098581" version="16" timestamp="2024-08-28T07:36:19Z" changeset="155864524" uid="592" user="JonS">
    <nd ref="1621254458"/>
    <nd ref="1621254445"/>
    <tag k="bridge" v="yes"/>
    <tag k="highway" v="tertiary"/>
    <tag k="lanes" v="2"/>
    <tag k="layer" v="1"/>
    <tag k="maxspeed" v="50 mph"/>
    <tag k="maxweight:signed" v="no"/>
    <tag k="name" v="Bullerthorpe Lane"/>
    <tag k="sidewalk:both" v="yes"/>
    <tag k="surface" v="asphalt"/>
  </way>
  <way id="22754850" version="17" timestamp="2024-10-07T15:50:40Z" changeset="157588433" uid="5229644" user="Nathan_A_RF">
    <nd ref="244199862"/>
    <nd ref="244199864"/>
    <tag k="bridge" v="yes"/>
    <tag k="highway" v="trunk"/>
    <tag k="junction" v="circular"/>
    <tag k="lanes" v="3"/>
    <tag k="layer" v="1"/>
    <tag k="lit" v="yes"/>
    <tag k="maxspeed" v="40 mph"/>
    <tag k="name" v="Austhorpe Interchange"/>
    <tag k="oneway" v="yes"/>
    <tag k="shoulder:left" v="no"/>
    <tag k="shoulder:right" v="no"/>
    <tag k="sidewalk:left" v="separate"/>
    <tag k="sidewalk:right" v="no"/>
    <tag k="surface" v="asphalt"/>
    <tag k="turn:lanes" v="through|through|right"/>
  </way>
  <way id="22754884" version="23" timestamp="2024-10-07T15:50:40Z" changeset="157588433" uid="5229644" user="Nathan_A_RF">
    <nd ref="26526414"/>
    <nd ref="6403752156"/>
    <nd ref="26526415"/>
    <nd ref="6403752155"/>
    <nd ref="26526416"/>
    <nd ref="6403752154"/>
    <nd ref="1599834174"/>
    <tag k="highway" v="trunk"/>
    <tag k="junction" v="circular"/>
    <tag k="lanes" v="3"/>
    <tag k="lit" v="yes"/>
    <tag k="maxspeed" v="40 mph"/>
    <tag k="name" v="Austhorpe Interchange"/>
    <tag k="oneway" v="yes"/>
    <tag k="shoulder:left" v="no"/>
    <tag k="shoulder:right" v="no"/>
    <tag k="sidewalk:left" v="separate"/>
    <tag k="sidewalk:right" v="no"/>
    <tag k="surface" v="asphalt"/>
  </way>
  <way id="26332083" version="13" timestamp="2024-06-17T20:17:32Z" changeset="152818627" uid="20112387" user="Anton Khorev (repair)">
    <nd ref="288491680"/>
    <nd ref="288491681"/>
    <nd ref="288491682"/>
    <nd ref="288491683"/>
    <nd ref="288491684"/>
    <nd ref="288492594"/>
    <nd ref="288491685"/>
    <nd ref="288491686"/>
    <nd ref="288491687"/>
    <nd ref="288491718"/>
    <nd ref="7750251569"/>
    <nd ref="288491709"/>
    <nd ref="288491712"/>
    <nd ref="288491713"/>
    <nd ref="288491714"/>
    <nd ref="288491715"/>
    <nd ref="288491716"/>
    <nd ref="30803703"/>
    <tag k="highway" v="tertiary"/>
    <tag k="lanes" v="2"/>
    <tag k="name" v="Church Lane"/>
    <tag k="sidewalk" v="both"/>
    <tag k="surface" v="asphalt"/>
  </way>
  <way id="26332084" version="2" timestamp="2020-07-26T08:11:51Z" changeset="88513711" uid="3316592" user="Arthtoach">
    <nd ref="288491718"/>
    <nd ref="288491719"/>
    <nd ref="288491720"/>
    <nd ref="288491721"/>
    <nd ref="288491731"/>
    <nd ref="288491732"/>
    <nd ref="288491733"/>
    <nd ref="288491734"/>
    <nd ref="288491735"/>
    <nd ref="288491736"/>
    <nd ref="288491737"/>
    <nd ref="288491738"/>
    <nd ref="288491739"/>
    <nd ref="288491740"/>
    <nd ref="288491741"/>
    <nd ref="288491742"/>
    <nd ref="288491743"/>
    <nd ref="288491744"/>
    <nd ref="288491745"/>
    <nd ref="288491746"/>
    <nd ref="288491747"/>
    <nd ref="288492986"/>
    <nd ref="288491748"/>
    <nd ref="288491749"/>
    <nd ref="288491750"/>
    <nd ref="288491751"/>
    <nd ref="288492984"/>
    <nd ref="288491752"/>
    <tag k="highway" v="residential"/>
    <tag k="name" v="Hill Crest"/>
    <tag k="surface" v="asphalt"/>
  </way>
  <way id="26332085" version="2" timestamp="2020-07-26T08:11:51Z" changeset="88513711" uid="3316592" user="Arthtoach">
    <nd ref="30803691"/>
    <nd ref="7749834004"/>
    <nd ref="288491753"/>
    <nd ref="288491754"/>
    <nd ref="288491801"/>
    <nd ref="288491802"/>
    <nd ref="288491803"/>
    <nd ref="288491804"/>
    <nd ref="288491805"/>
    <nd ref="288491806"/>
    <nd ref="288491807"/>
    <nd ref="288491808"/>
    <nd ref="288491809"/>
    <nd ref="288491709"/>
    <tag k="highway" v="residential"/>
    <tag k="name" v="Church Avenue"/>
    <tag k="surface" v="asphalt"/>
  </way>
  <way id="26332086" version="2" timestamp="2020-07-26T08:11:51Z" changeset="88513711" uid="3316592" user="Arthtoach">
    <nd ref="288491685"/>
    <nd ref="288491812"/>
    <nd ref="288491822"/>
    <nd ref="288491823"/>
    <nd ref="288491824"/>
    <nd ref="288491825"/>
    <nd ref="288491841"/>
    <nd ref="288491893"/>
    <nd ref="288491843"/>
    <nd ref="288491844"/>
    <nd ref="288491846"/>
    <nd ref="288491848"/>
    <nd ref="288491849"/>
    <nd ref="288491881"/>
    <nd ref="288491882"/>
    <nd ref="288491753"/>
    <tag k="highway" v="residential"/>
    <tag k="name" v="Lowther Drive"/>
    <tag k="surface" v="asphalt"/>
  </way>
  <way id="26332087" version="2" timestamp="2020-07-26T08:11:51Z" changeset="88513711" uid="3316592" user="Arthtoach">
    <nd ref="288491882"/>
    <nd ref="288491883"/>
    <nd ref="288491884"/>
    <nd ref="288491885"/>
    <nd ref="288491886"/>
    <nd ref="288491887"/>
    <nd ref="288491888"/>
    <nd ref="288491889"/>
    <nd ref="288491890"/>
    <nd ref="288491891"/>
    <nd ref="288491892"/>
    <nd ref="288491893"/>
    <tag k="highway" v="residential"/>
    <tag k="name" v="Lowther Crescent"/>
    <tag k="surface" v="asphalt"/>
  </way>
  <way id="26332088" version="2" timestamp="2020-07-26T08:11:51Z" changeset="88513711" uid="3316592" user="Arthtoach">
    <nd ref="288491894"/>
    <nd ref="30803694"/>
    <tag k="highway" v="residential"/>
    <tag k="name" v="Whitecliffe Drive"/>
    <tag k="surface" v="asphalt"/>
  </way>
  <way id="26332089" version="3" timestamp="2020-08-12T07:30:10Z" changeset="89286828" uid="3316592" user="Arthtoach">
    <nd ref="288491717"/>
    <nd ref="7805830630"/>
    <nd ref="7805830631"/>
    <nd ref="288493142"/>
    <nd ref="288491895"/>
    <nd ref="288491903"/>
    <nd ref="288491904"/>
    <nd ref="288491905"/>
    <nd ref="288491906"/>
    <nd ref="288491907"/>
    <nd ref="288491937"/>
    <nd ref="288493148"/>
    <nd ref="288491938"/>
    <nd ref="288491939"/>
    <nd ref="288491940"/>
    <nd ref="288491941"/>
    <nd ref="288491942"/>
    <nd ref="288491943"/>
    <nd ref="288491944"/>
    <nd ref="288491945"/>
    <nd ref="288491946"/>
    <nd ref="288491947"/>
    <nd ref="288491948"/>
    <nd ref="7805830629"/>
    <nd ref="7805830628"/>
    <nd ref="30803695"/>
    <tag k="highway" v="residential"/>
    <tag k="name" v="Whitecliffe Crescent"/>
    <tag k="surface" v="asphalt"/>
  </way>
  <way id="26332090" version="2" timestamp="2020-08-12T07:30:10Z" changeset="89286828" uid="3316592" user="Arthtoach">
    <nd ref="288491949"/>
    <nd ref="30803696"/>
    <tag k="highway" v="residential"/>
    <tag k="name" v="Whitecliffe Rise"/>
    <tag k="surface" v="asphalt"/>
  </way>
  <way id="26332091" version="3" timestamp="2020-08-12T16:06:58Z" changeset="89313453" uid="3316592" user="Arthtoach">
    <nd ref="288491716"/>
    <nd ref="7807176244"/>
    <nd ref="288492005"/>
    <nd ref="288492006"/>
    <nd ref="288492007"/>
    <nd ref="288492008"/>
    <nd ref="288492009"/>
    <nd ref="288492012"/>
    <nd ref="288492013"/>
    <nd ref="288492014"/>
    <nd ref="30803701"/>
    <tag k="highway" v="residential"/>
    <tag k="name" v="Smeaton Grove"/>
    <tag k="surface" v="asphalt"/>
  </way>
  <way id="26332092" version="2" timestamp="2020-08-12T07:30:10Z" changeset="89286828" uid="3316592" user="Arthtoach">
    <nd ref="288492022"/>
    <nd ref="288492023"/>
    <nd ref="288492024"/>
    <nd ref="288492025"/>
    <nd ref="288492021"/>
    <tag k="highway" v="residential"/>
    <tag k="name" v="Scott Close"/>
    <tag k="surface" v="asphalt"/>
  </way>
  <way id="26332094" version="1" timestamp="2008-08-16T17:16:20Z" changeset="279023" uid="592" user="JonS">
    <nd ref="288492023"/>
    <nd ref="288492026"/>
    <tag k="created_by" v="JOSM"/>
    <tag k="highway" v="residential"/>
    <tag k="name" v="Scott Close"/>
  </way>
  <way id="26332095" version="3" timestamp="2020-08-12T07:30:10Z" changeset="89286828" uid="3316592" user="Arthtoach">
    <nd ref="288492015"/>
    <nd ref="288492020"/>
    <nd ref="7805830637"/>
    <nd ref="288492021"/>
    <nd ref="6715901706"/>
    <nd ref="21458270"/>
    <tag k="highway" v="residential"/>
    <tag k="name" v="The Drive"/>
    <tag k="surface" v="asphalt"/>
  </way>
  <way id="26332096" version="2" timestamp="2020-07-26T13:20:33Z" changeset="88520822" uid="3316592" user="Arthtoach">
    <nd ref="288492027"/>
    <nd ref="288492319"/>
    <nd ref="288492028"/>
    <nd ref="288492029"/>
    <nd ref="288492030"/>
    <nd ref="288492031"/>
    <nd ref="288492032"/>
    <nd ref="288492033"/>
    <nd ref="288492034"/>
    <nd ref="288492080"/>
    <nd ref="288492173"/>
    <nd ref="288492174"/>
    <nd ref="288492175"/>
    <nd ref="288492308"/>
    <nd ref="288491742"/>
    <tag k="highway" v="residential"/>
    <tag k="name" v="Springwell Avenue"/>
    <tag k="surface" v="asphalt"/>
  </way>
  <way id="26332097" version="2" timestamp="2020-08-12T07:30:10Z" changeset="89286828" uid="3316592" user="Arthtoach">
    <nd ref="288492319"/>
    <nd ref="7805830638"/>
    <nd ref="7805830635"/>
    <nd ref="7805830636"/>
    <nd ref="288492015"/>
    <tag k="highway" v="residential"/>
    <tag k="name" v="Springwell Avenue"/>
    <tag k="surface" v="asphalt"/>
  </way>
  <way id="26332102" version="2" timestamp="2020-07-26T08:11:51Z" changeset="88513711" uid="3316592" user="Arthtoach">
    <nd ref="288492372"/>
    <nd ref="288492380"/>
    <tag k="highway" v="residential"/>
    <tag k="name" v="The Pleasance"/>
    <tag k="surface" v="asphalt"/>
  </way>
  <way id="26332103" version="2" timestamp="2020-07-26T08:11:51Z" changeset="88513711" uid="3316592" user="Arthtoach">
    <nd ref="288492384"/>
    <nd ref="288492395"/>
    <nd ref="288491735"/>
    <tag k="highway" v="residential"/>
    <tag k="name" v="The Crest"/>
    <tag k="surface" v="asphalt"/>
  </way>
  <way id="26332105" version="2" timestamp="2020-07-26T08:11:51Z" changeset="88513711" uid="3316592" user="Arthtoach">
    <nd ref="288492388"/>
    <nd ref="288492395"/>
    <tag k="highway" v="residential"/>
    <tag k="name" v="The Crest"/>
    <tag k="surface" v="asphalt"/>
  </way>
  <way id="26332106" version="2" timestamp="2020-07-26T08:11:51Z" changeset="88513711" uid="3316592" user="Arthtoach">
    <nd ref="288492401"/>
    <nd ref="288492496"/>
    <nd ref="288492499"/>
    <nd ref="288492408"/>
    <tag k="highway" v="residential"/>
    <tag k="name" v="The Link"/>
    <tag k="surface" v="asphalt"/>
  </way>
  <way id="26332108" version="2" timestamp="2020-07-26T08:11:51Z" changeset="88513711" uid="3316592" user="Arthtoach">
    <nd ref="288492496"/>
    <nd ref="288492498"/>
    <nd ref="288491738"/>
    <tag k="highway" v="residential"/>
    <tag k="name" v="The Link"/>
    <tag k="surface" v="asphalt"/>
  </way>
  <way id="26332111" version="2" timestamp="2020-07-26T08:11:51Z" changeset="88513711" uid="3316592" user="Arthtoach">
    <nd ref="288492503"/>
    <nd ref="288492504"/>
    <nd ref="288492505"/>
    <nd ref="288492506"/>
    <tag k="highway" v="residential"/>
    <tag k="name" v="Hill Crest Close"/>
    <tag k="surface" v="asphalt"/>
  </way>
  <way id="26332112" version="2" timestamp="2020-07-26T08:11:51Z" changeset="88513711" uid="3316592" user="Arthtoach">
    <nd ref="288492505"/>
    <nd ref="288492507"/>
    <nd ref="288492508"/>
    <nd ref="288492509"/>
    <nd ref="288492519"/>
    <nd ref="288491736"/>
    <tag k="highway" v="residential"/>
    <tag k="name" v="Hill Crest Close"/>
    <tag k="surface" v="asphalt"/>
  </way>
  <way id="26332117" version="2" timestamp="2020-07-26T08:11:51Z" changeset="88513711" uid="3316592" user="Arthtoach">
    <nd ref="288492364"/>
    <nd ref="288492646"/>
    <nd ref="288492330"/>
    <nd ref="288492380"/>
    <nd ref="288491737"/>
    <tag k="highway" v="residential"/>
    <tag k="name" v="The Pleasance"/>
    <tag k="surface" v="asphalt"/>
  </way>
  <way id="26332136" version="3" timestamp="2020-08-12T17:35:02Z" changeset="89316371" uid="3316592" user="Arthtoach">
    <nd ref="288492719"/>
    <nd ref="288492721"/>
    <nd ref="288492723"/>
    <nd ref="288492724"/>
    <nd ref="288492726"/>
    <nd ref="288491752"/>
    <nd ref="288493051"/>
    <nd ref="7807334051"/>
    <nd ref="7807334049"/>
    <nd ref="288492728"/>
    <tag k="highway" v="residential"/>
    <tag k="name" v="Wakefield Road"/>
    <tag k="surface" v="asphalt"/>
  </way>
  <way id="26332138" version="4" timestamp="2020-08-12T17:35:02Z" changeset="89316371" uid="3316592" user="Arthtoach">
    <nd ref="288492974"/>
    <nd ref="288492728"/>
    <nd ref="7807334048"/>
    <nd ref="7807334050"/>
    <nd ref="5362860672"/>
    <nd ref="21458269"/>
    <tag k="highway" v="residential"/>
    <tag k="name" v="Wakefield Road"/>
    <tag k="surface" v="asphalt"/>
  </way>
  <way id="26332140" version="2" timestamp="2020-07-26T13:20:33Z" changeset="88520822" uid="3316592" user="Arthtoach">
    <nd ref="288492982"/>
    <nd ref="288492984"/>
    <tag k="highway" v="residential"/>
    <tag k="name" v="Woodland Avenue"/>
    <tag k="surface" v="asphalt"/>
  </way>
  <way id="26332141" version="2" timestamp="2020-07-26T13:20:33Z" changeset="88520822" uid="3316592" user="Arthtoach">
    <nd ref="288492986"/>
    <nd ref="288492988"/>
    <nd ref="288493033"/>
    <nd ref="288493034"/>
    <nd ref="288493035"/>
    <nd ref="288493036"/>
    <nd ref="288493037"/>
    <nd ref="288493038"/>
    <nd ref="288493039"/>
    <nd ref="288493040"/>
    <nd ref="288492984"/>
    <tag k="highway" v="residential"/>
    <tag k="name" v="Woodland Crescent"/>
    <tag k="surface" v="asphalt"/>
  </way>
  <way id="26332142" version="2" timestamp="2020-07-26T13:20:33Z" changeset="88520822" uid="3316592" user="Arthtoach">
    <nd ref="288493041"/>
    <nd ref="288493042"/>
    <nd ref="288491748"/>
    <tag k="highway" v="residential"/>
    <tag k="name" v="Woodland Grove"/>
    <tag k="surface" v="asphalt"/>
  </way>
  <way id="26332143" version="2" timestamp="2020-07-26T13:20:33Z" changeset="88520822" uid="3316592" user="Arthtoach">
    <nd ref="30803679"/>
    <nd ref="288493045"/>
    <nd ref="288493046"/>
    <nd ref="288493047"/>
    <nd ref="288491747"/>
    <tag k="highway" v="residential"/>
    <tag k="name" v="Woodland Drive"/>
    <tag k="surface" v="asphalt"/>
  </way>
  <way id="26332145" version="3" timestamp="2015-07-05T18:16:56Z" changeset="32432255" uid="493595" user="Yorvik Prestigitator">
    <nd ref="288493088"/>
    <nd ref="288493110"/>
    <tag k="highway" v="residential"/>
    <tag k="name" v="St Marys Avenue"/>
    <tag k="not:name" v="St Mary's Avenue"/>
    <tag k="not:name:note" v="Road sign doesn't have an apostrophe"/>
  </way>
  <way id="26332160" version="2" timestamp="2020-07-26T08:11:51Z" changeset="88513711" uid="3316592" user="Arthtoach">
    <nd ref="288493149"/>
    <nd ref="288493151"/>
    <nd ref="288493150"/>
    <tag k="highway" v="residential"/>
    <tag k="name" v="Church Close"/>
    <tag k="surface" v="asphalt"/>
  </way>
  <way id="26332161" version="4" timestamp="2020-07-26T08:47:46Z" changeset="88514519" uid="3316592" user="Arthtoach">
    <nd ref="288493151"/>
    <nd ref="288493153"/>
    <nd ref="7749849519"/>
    <nd ref="288493183"/>
    <nd ref="288491712"/>
    <tag k="highway" v="residential"/>
    <tag k="name" v="Church Close"/>
    <tag k="surface" v="asphalt"/>
  </way>
  <way id="27947846" version="23" timestamp="2024-10-07T15:50:40Z" changeset="157588433" uid="5229644" user="Nathan_A_RF">
    <nd ref="26526406"/>
    <nd ref="6403752145"/>
    <nd ref="2377536449"/>
    <nd ref="6403752144"/>
    <nd ref="26526407"/>
    <nd ref="6403752143"/>
    <nd ref="26526408"/>
    <tag k="highway" v="trunk"/>
    <tag k="junction" v="circular"/>
    <tag k="lanes" v="3"/>
    <tag k="lit" v="yes"/>
    <tag k="maxspeed" v="40 mph"/>
    <tag k="name" v="Austhorpe Interchange"/>
    <tag k="oneway" v="yes"/>
    <tag k="shoulder:left" v="no"/>
    <tag k="shoulder:right" v="no"/>
    <tag k="surface" v="asphalt"/>
    <tag k="turn:lanes:forward" v="through|through;right|right"/>
  </way>
  <way id="32478114" version="11" timestamp="2020-09-26T23:43:14Z" changeset="91566116" uid="4543415" user="The_JF">
    <nd ref="7805941927"/>
    <nd ref="21458272"/>
    <tag k="highway" v="primary"/>
    <tag k="lanes" v="2"/>
    <tag k="lit" v="yes"/>
    <tag k="maxspeed" v="30 mph"/>
    <tag k="name" v="Wakefield Road"/>
    <tag k="ref" v="A642"/>
    <tag k="sidewalk" v="both"/>
    <tag k="source" v="npe &amp; gpx"/>
  </way>
  <way id="32478118" version="7" timestamp="2020-07-26T13:20:33Z" changeset="88520822" uid="3316592" user="Arthtoach">
    <nd ref="30803671"/>
    <nd ref="2253137272"/>
    <tag k="highway" v="primary"/>
    <tag k="lanes" v="2"/>
    <tag k="maxspeed" v="30 mph"/>
    <tag k="name" v="Wakefield Road"/>
    <tag k="ref" v="A642"/>
    <tag k="source" v="npe &amp; gpx"/>
    <tag k="surface" v="asphalt"/>
  </way>
  <way id="32478123" version="5" timestamp="2020-05-16T08:14:14Z" changeset="85294110" uid="3316592" user="Arthtoach">
    <nd ref="365162154"/>
    <nd ref="1621254463"/>
    <nd ref="1621254465"/>
    <nd ref="1621254449"/>
    <tag k="highway" v="primary"/>
    <tag k="lanes" v="2"/>
    <tag k="lit" v="yes"/>
    <tag k="maxspeed" v="30 mph"/>
    <tag k="name" v="Wakefield Road"/>
    <tag k="ref" v="A642"/>
    <tag k="source" v="npe &amp; gpx"/>
    <tag k="surface" v="asphalt"/>
  </way>
  <way id="33747512" version="5" timestamp="2022-10-21T17:00:37Z" changeset="127894506" uid="17400648" user="KyeF">
    <nd ref="21458280"/>
    <nd ref="386045566"/>
    <nd ref="386045572"/>
    <nd ref="386045579"/>
    <nd ref="386045580"/>
    <nd ref="3227478748"/>
    <nd ref="386045581"/>
    <nd ref="386045582"/>
    <nd ref="386045583"/>
    <nd ref="386045584"/>
    <nd ref="386045585"/>
    <nd ref="386045586"/>
    <nd ref="386045587"/>
    <nd ref="386045588"/>
    <nd ref="386045589"/>
    <nd ref="386045590"/>
    <nd ref="386045591"/>
    <nd ref="386045592"/>
    <nd ref="386045593"/>
    <nd ref="386045594"/>
    <nd ref="386045595"/>
    <nd ref="386045596"/>
    <nd ref="386045597"/>
    <nd ref="386045598"/>
    <nd ref="386045557"/>
    <tag k="highway" v="unclassified"/>
    <tag k="name" v="Leeds Lane"/>
    <tag k="oneway" v="no"/>
    <tag k="surface" v="asphalt"/>
  </way>
  <way id="36192139" version="16" timestamp="2020-12-28T16:21:58Z" changeset="96548298" uid="3316592" user="Arthtoach">
    <nd ref="386024332"/>
    <nd ref="2389146857"/>
    <nd ref="8267334582"/>
    <nd ref="472277553"/>
    <nd ref="2389146856"/>
    <nd ref="8267334593"/>
    <nd ref="422506185"/>
    <nd ref="8267334592"/>
    <nd ref="1515781458"/>
    <nd ref="2389146855"/>
    <nd ref="422506186"/>
    <nd ref="8267334591"/>
    <nd ref="422506187"/>
    <nd ref="7711195585"/>
    <nd ref="2389146854"/>
    <nd ref="2389146853"/>
    <nd ref="422506188"/>
    <nd ref="422506189"/>
    <nd ref="422506190"/>
    <nd ref="2389146852"/>
    <nd ref="422506191"/>
    <nd ref="7711195498"/>
    <nd ref="2389146851"/>
    <nd ref="422506192"/>
    <nd ref="422506193"/>
    <nd ref="422506194"/>
    <nd ref="2389146850"/>
    <nd ref="7978365068"/>
    <nd ref="422506196"/>
    <nd ref="7978365067"/>
    <nd ref="422506197"/>
    <nd ref="7978365066"/>
    <nd ref="422506198"/>
    <nd ref="7978365065"/>
    <nd ref="422506199"/>
    <nd ref="422506200"/>
    <nd ref="2389146848"/>
    <nd ref="422506201"/>
    <nd ref="7978365064"/>
    <nd ref="7978365063"/>
    <nd ref="422506202"/>
    <nd ref="2389146847"/>
    <nd ref="422506204"/>
    <nd ref="7711195486"/>
    <nd ref="451642712"/>
    <nd ref="7978365062"/>
    <nd ref="7837184135"/>
    <nd ref="422506205"/>
    <tag k="highway" v="unclassified"/>
    <tag k="lanes" v="2"/>
    <tag k="name" v="Astley Lane"/>
    <tag k="surface" v="asphalt"/>
  </way>
  <way id="53474232" version="12" timestamp="2020-08-12T17:35:02Z" changeset="89316371" uid="3316592" user="Arthtoach">
    <nd ref="1951476621"/>
    <nd ref="1515809814"/>
    <nd ref="288493091"/>
    <nd ref="21458270"/>
    <nd ref="7807333919"/>
    <nd ref="288493088"/>
    <nd ref="7807333914"/>
    <nd ref="288493086"/>
    <nd ref="288493101"/>
    <nd ref="7805941897"/>
    <nd ref="288492650"/>
    <nd ref="7807333977"/>
    <nd ref="288493055"/>
    <nd ref="1951476250"/>
    <nd ref="7150443556"/>
    <nd ref="288493054"/>
    <nd ref="288493053"/>
    <nd ref="1951476210"/>
    <nd ref="21458269"/>
    <tag k="highway" v="primary"/>
    <tag k="lanes" v="2"/>
    <tag k="lit" v="yes"/>
    <tag k="maxspeed" v="30 mph"/>
    <tag k="name" v="Wakefield Road"/>
    <tag k="ref" v="A642"/>
    <tag k="sidewalk" v="separate"/>
    <tag k="source" v="npe &amp; gpx"/>
    <tag k="surface" v="asphalt"/>
  </way>
  <way id="53474283" version="15" timestamp="2024-06-17T20:17:36Z" changeset="152818627" uid="20112387" user="Anton Khorev (repair)">
    <nd ref="30803703"/>
    <nd ref="7805941980"/>
    <nd ref="288493120"/>
    <nd ref="6588038603"/>
    <nd ref="7807224422"/>
    <nd ref="7805941981"/>
    <nd ref="1951476629"/>
    <nd ref="1951476626"/>
    <nd ref="1951476623"/>
    <nd ref="7805942008"/>
    <nd ref="1951476621"/>
    <tag k="highway" v="tertiary"/>
    <tag k="lanes" v="2"/>
    <tag k="name" v="Church Lane"/>
    <tag k="sidewalk" v="both"/>
    <tag k="surface" v="asphalt"/>
  </way>
  <way id="53474685" version="29" timestamp="2024-06-17T20:17:25Z" changeset="152818627" uid="20112387" user="Anton Khorev (repair)">
    <nd ref="30803693"/>
    <nd ref="7749834010"/>
    <nd ref="31931941"/>
    <nd ref="1951476763"/>
    <nd ref="3393521838"/>
    <nd ref="31931957"/>
    <nd ref="31931982"/>
    <nd ref="31932000"/>
    <nd ref="31932037"/>
    <nd ref="31932055"/>
    <nd ref="6593167589"/>
    <nd ref="31932068"/>
    <nd ref="31932115"/>
    <nd ref="3227481241"/>
    <nd ref="31932127"/>
    <nd ref="31932140"/>
    <nd ref="31932158"/>
    <nd ref="31932173"/>
    <nd ref="31932193"/>
    <nd ref="31932209"/>
    <nd ref="31932225"/>
    <nd ref="31932237"/>
    <nd ref="31932257"/>
    <nd ref="7065744110"/>
    <nd ref="7065744109"/>
    <nd ref="7746993917"/>
    <nd ref="7746993916"/>
    <nd ref="4620374208"/>
    <nd ref="31932290"/>
    <nd ref="7805808323"/>
    <nd ref="31932305"/>
    <nd ref="31932324"/>
    <nd ref="387189140"/>
    <nd ref="386046200"/>
    <nd ref="2512084997"/>
    <nd ref="31932354"/>
    <nd ref="7805808334"/>
    <nd ref="31932372"/>
    <nd ref="31932402"/>
    <nd ref="7112729668"/>
    <nd ref="2377558206"/>
    <nd ref="31932416"/>
    <nd ref="31932437"/>
    <nd ref="386045557"/>
    <nd ref="31932454"/>
    <nd ref="1965506748"/>
    <nd ref="1965506774"/>
    <nd ref="1965506817"/>
    <nd ref="1965506834"/>
    <nd ref="2091629280"/>
    <nd ref="7804196035"/>
    <nd ref="6750210169"/>
    <nd ref="26526495"/>
    <tag k="highway" v="tertiary"/>
    <tag k="lanes" v="2"/>
    <tag k="name" v="Swillington Lane"/>
    <tag k="surface" v="asphalt"/>
  </way>
  <way id="53475085" version="16" timestamp="2023-09-01T17:53:53Z" changeset="140690731" uid="4543415" user="The_JF">
    <nd ref="31932490"/>
    <nd ref="1965506851"/>
    <nd ref="3394216069"/>
    <nd ref="1965506848"/>
    <nd ref="1724363230"/>
    <nd ref="2089142613"/>
    <nd ref="1965506844"/>
    <nd ref="2089116620"/>
    <nd ref="52628843"/>
    <nd ref="647070215"/>
    <nd ref="11161505824"/>
    <nd ref="647070393"/>
    <nd ref="3394216030"/>
    <nd ref="2256133675"/>
    <tag k="highway" v="trunk"/>
    <tag k="lanes" v="2"/>
    <tag k="lit" v="yes"/>
    <tag k="maxspeed" v="50 mph"/>
    <tag k="name" v="Selby Road"/>
    <tag k="oneway" v="yes"/>
    <tag k="ref" v="A63"/>
    <tag k="sidewalk" v="left"/>
    <tag k="source" v="survey"/>
    <tag k="source_ref" v="GPS"/>
    <tag k="surface" v="asphalt"/>
  </way>
  <way id="53475173" version="13" timestamp="2020-07-25T15:38:33Z" changeset="88499138" uid="3316592" user="Arthtoach">
    <nd ref="2091220771"/>
    <nd ref="6750214499"/>
    <nd ref="6750214485"/>
    <nd ref="1599916554"/>
    <nd ref="1599916550"/>
    <nd ref="26526492"/>
    <nd ref="1056678307"/>
    <tag k="highway" v="trunk"/>
    <tag k="lanes" v="3"/>
    <tag k="maxspeed" v="50 mph"/>
    <tag k="name" v="Selby Road"/>
    <tag k="oneway" v="yes"/>
    <tag k="ref" v="A63"/>
    <tag k="surface" v="asphalt"/>
    <tag k="turn:lanes" v="left|through|through;right"/>
  </way>
  <way id="90994677" version="13" timestamp="2024-10-07T15:50:40Z" changeset="157588433" uid="5229644" user="Nathan_A_RF">
    <nd ref="1056678307"/>
    <nd ref="5041460472"/>
    <nd ref="2377558091"/>
    <nd ref="1056678297"/>
    <nd ref="2377558032"/>
    <nd ref="1056678308"/>
    <nd ref="1056678298"/>
    <nd ref="1056678299"/>
    <nd ref="1056678310"/>
    <nd ref="1056678309"/>
    <nd ref="1056678313"/>
    <nd ref="1056678311"/>
    <nd ref="2377558016"/>
    <nd ref="1056678312"/>
    <nd ref="2377558200"/>
    <nd ref="2377558114"/>
    <nd ref="2377558204"/>
    <nd ref="2377558097"/>
    <nd ref="2377558229"/>
    <nd ref="2377558018"/>
    <nd ref="2377558241"/>
    <nd ref="2377558233"/>
    <nd ref="1056678314"/>
    <nd ref="2377558249"/>
    <nd ref="2377558272"/>
    <nd ref="2377558085"/>
    <nd ref="2377558071"/>
    <nd ref="2377558029"/>
    <tag k="carriageway_ref" v="M"/>
    <tag k="highway" v="motorway_link"/>
    <tag k="junction:ref" v="46"/>
    <tag k="lanes" v="1"/>
    <tag k="lit" v="yes"/>
    <tag k="maxspeed" v="70 mph"/>
    <tag k="maxspeed:type" v="GB:motorway"/>
    <tag k="national_highways:area" v="DBFO27"/>
    <tag k="oneway" v="yes"/>
    <tag k="operator" v="National Highways"/>
    <tag k="operator:wikidata" v="Q5760006"/>
    <tag k="ref" v="M1"/>
    <tag k="surface" v="asphalt"/>
  </way>
  <way id="93263359" version="11" timestamp="2024-06-17T14:08:58Z" changeset="152805446" uid="145231" user="woodpeck_repair">
    <nd ref="1081064811"/>
    <nd ref="6131287589"/>
    <nd ref="6618986867"/>
    <nd ref="1081064814"/>
    <nd ref="1081064817"/>
    <nd ref="1081064819"/>
    <nd ref="1081064821"/>
    <nd ref="6131287588"/>
    <nd ref="1081064826"/>
    <nd ref="1081064830"/>
    <nd ref="411250007"/>
    <tag k="access" v="yes"/>
    <tag k="highway" v="tertiary"/>
    <tag k="lanes" v="2"/>
    <tag k="noname" v="yes"/>
    <tag k="surface" v="asphalt"/>
  </way>
  <way id="93263362" version="10" timestamp="2025-03-25T15:17:45Z" changeset="164080345" uid="592" user="JonS">
    <nd ref="411250007"/>
    <nd ref="6131287585"/>
    <nd ref="6611581967"/>
    <nd ref="6131287586"/>
    <nd ref="6131280784"/>
    <nd ref="6131280783"/>
    <nd ref="9397786830"/>
    <nd ref="7424197976"/>
    <nd ref="411250008"/>
    <nd ref="411250009"/>
    <nd ref="411250010"/>
    <nd ref="411250011"/>
    <nd ref="411250012"/>
    <nd ref="411250013"/>
    <nd ref="411250014"/>
    <tag k="access" v="destination"/>
    <tag k="bicycle" v="yes"/>
    <tag k="foot" v="yes"/>
    <tag k="highway" v="unclassified"/>
    <tag k="horse" v="yes"/>
    <tag k="lane_markings" v="no"/>
    <tag k="lit" v="no"/>
    <tag k="motor_vehicle" v="destination"/>
    <tag k="name" v="Newsam Green Road"/>
    <tag k="source" v="estimate"/>
    <tag k="surface" v="asphalt"/>
  </way>
  <way id="93263391" version="8" timestamp="2025-03-25T15:15:46Z" changeset="164082133" uid="592" user="JonS">
    <nd ref="1081065291"/>
    <nd ref="1081065305"/>
    <nd ref="1081065353"/>
    <nd ref="1081065364"/>
    <nd ref="1081065379"/>
    <nd ref="1621254434"/>
    <nd ref="1081065395"/>
    <nd ref="1081065398"/>
    <nd ref="1081065409"/>
    <nd ref="1081065418"/>
    <nd ref="1081065427"/>
    <nd ref="1081065437"/>
    <nd ref="1081065441"/>
    <nd ref="6617746420"/>
    <tag k="highway" v="residential"/>
    <tag k="lane_markings" v="no"/>
    <tag k="lit" v="no"/>
    <tag k="name" v="Jinny Moor Lane"/>
    <tag k="surface" v="asphalt"/>
  </way>
  <way id="99002226" version="5" timestamp="2020-08-12T08:06:53Z" changeset="89288948" uid="3316592" user="Arthtoach">
    <nd ref="1515809835"/>
    <nd ref="1145390522"/>
    <nd ref="7805941933"/>
    <nd ref="7805941932"/>
    <nd ref="7805941934"/>
    <nd ref="1145390524"/>
    <nd ref="1515809867"/>
    <nd ref="7805941931"/>
    <nd ref="1515809829"/>
    <nd ref="1515809830"/>
    <nd ref="1515809865"/>
    <nd ref="7805941929"/>
    <tag k="highway" v="residential"/>
    <tag k="name" v="Church Crescent"/>
    <tag k="sidewalk" v="left"/>
    <tag k="surface" v="asphalt"/>
  </way>
  <way id="135476293" version="2" timestamp="2019-06-21T05:56:50Z" changeset="71468843" uid="8446889" user="nimmalab">
    <nd ref="1487933143"/>
    <nd ref="1487933140"/>
    <nd ref="1487933142"/>
    <nd ref="1487933137"/>
    <nd ref="6562232441"/>
    <nd ref="1487933139"/>
    <nd ref="26526512"/>
    <tag k="highway" v="unclassified"/>
  </way>
  <way id="143907875" version="22" timestamp="2024-01-22T18:56:44Z" changeset="146565751" uid="16951803" user="Vas111">
    <nd ref="1574707777"/>
    <nd ref="1014904961"/>
    <nd ref="319417"/>
    <nd ref="1014904963"/>
    <nd ref="1014904964"/>
    <nd ref="319418"/>
    <nd ref="1574707775"/>
    <nd ref="319419"/>
    <nd ref="319420"/>
    <nd ref="2377558075"/>
    <nd ref="1014904971"/>
    <nd ref="2377558270"/>
    <nd ref="6990105795"/>
    <nd ref="6990105796"/>
    <nd ref="2377558077"/>
    <nd ref="3351028391"/>
    <nd ref="2377558025"/>
    <nd ref="1574707778"/>
    <nd ref="2377558208"/>
    <nd ref="2377558161"/>
    <nd ref="319516"/>
    <nd ref="1056946880"/>
    <nd ref="2377558194"/>
    <nd ref="1590900184"/>
    <nd ref="2377558042"/>
    <nd ref="2377558198"/>
    <nd ref="1590900284"/>
    <nd ref="1056946882"/>
    <nd ref="2377558158"/>
    <nd ref="1056946866"/>
    <nd ref="2377558063"/>
    <nd ref="319519"/>
    <nd ref="1056946862"/>
    <nd ref="319527"/>
    <nd ref="1056946889"/>
    <nd ref="1056946859"/>
    <nd ref="319528"/>
    <nd ref="1056946851"/>
    <nd ref="319531"/>
    <nd ref="1056946888"/>
    <nd ref="319529"/>
    <nd ref="2377558212"/>
    <nd ref="1056946884"/>
    <nd ref="319530"/>
    <nd ref="1056946899"/>
    <nd ref="1590900228"/>
    <nd ref="2377558116"/>
    <nd ref="1590900133"/>
    <nd ref="2377558261"/>
    <nd ref="1590900135"/>
    <nd ref="2377558020"/>
    <nd ref="1590900249"/>
    <nd ref="1590900256"/>
    <nd ref="2377558122"/>
    <nd ref="1590900077"/>
    <nd ref="2377558192"/>
    <nd ref="2377558036"/>
    <nd ref="1590900170"/>
    <nd ref="2377558243"/>
    <nd ref="1590900102"/>
    <tag k="carriageway_ref" v="A"/>
    <tag k="highway" v="motorway"/>
    <tag k="lanes" v="3"/>
    <tag k="lit" v="no"/>
    <tag k="maxheight" v="default"/>
    <tag k="maxspeed" v="70 mph"/>
    <tag k="maxspeed:type" v="GB:motorway"/>
    <tag k="national_highways:area" v="DBFO27"/>
    <tag k="oneway" v="yes"/>
    <tag k="operator" v="National Highways"/>
    <tag k="operator:wikidata" v="Q5760006"/>
    <tag k="ref" v="M1"/>
    <tag k="surface" v="asphalt"/>
  </way>
  <way id="143907877" version="13" timestamp="2024-06-02T19:34:48Z" changeset="152174385" uid="4543415" user="The_JF">
    <nd ref="1574707770"/>
    <nd ref="2377536439"/>
    <nd ref="2089142518"/>
    <nd ref="6403752146"/>
    <nd ref="11622039"/>
    <nd ref="26526406"/>
    <tag k="carriageway_ref" v="J"/>
    <tag k="destination:ref" v="A6120;A63;B6902"/>
    <tag k="highway" v="motorway_link"/>
    <tag k="junction:ref" v="46"/>
    <tag k="lanes" v="3"/>
    <tag k="lit" v="yes"/>
    <tag k="maxheight" v="default"/>
    <tag k="maxspeed" v="70 mph"/>
    <tag k="maxspeed:type" v="GB:motorway"/>
    <tag k="national_highways:area" v="DBFO27"/>
    <tag k="oneway" v="yes"/>
    <tag k="operator" v="National Highways"/>
    <tag k="operator:wikidata" v="Q5760006"/>
    <tag k="ref" v="M1"/>
    <tag k="shoulder:left" v="yes"/>
    <tag k="surface" v="asphalt"/>
    <tag k="turn:lanes" v="left|left;through|through;right"/>
  </way>
  <way id="145733242" version="21" timestamp="2024-01-22T18:56:44Z" changeset="146565751" uid="16951803" user="Vas111">
    <nd ref="319564"/>
    <nd ref="1590900285"/>
    <nd ref="1623512094"/>
    <nd ref="1590900202"/>
    <nd ref="2193136888"/>
    <nd ref="1590900182"/>
    <nd ref="4860706321"/>
    <nd ref="1590900136"/>
    <nd ref="2377558054"/>
    <nd ref="1590900282"/>
    <nd ref="2377558089"/>
    <nd ref="2377558017"/>
    <nd ref="1590900299"/>
    <nd ref="2377558264"/>
    <nd ref="2377558027"/>
    <nd ref="2377558214"/>
    <nd ref="1590900177"/>
    <nd ref="2377558178"/>
    <nd ref="2377558253"/>
    <nd ref="1590900297"/>
    <nd ref="2377558210"/>
    <nd ref="154981"/>
    <nd ref="2377558029"/>
    <nd ref="1590900118"/>
    <nd ref="2377558160"/>
    <nd ref="2377558103"/>
    <nd ref="1590900209"/>
    <nd ref="2377558187"/>
    <nd ref="2377558007"/>
    <nd ref="1590900290"/>
    <nd ref="2377558009"/>
    <nd ref="2377558167"/>
    <nd ref="1590900106"/>
    <nd ref="1590900281"/>
    <nd ref="2377558037"/>
    <nd ref="1590900172"/>
    <nd ref="1590900198"/>
    <nd ref="2377558119"/>
    <nd ref="1590900227"/>
    <nd ref="2377558028"/>
    <nd ref="1590900141"/>
    <nd ref="2377558121"/>
    <nd ref="1590900101"/>
    <nd ref="2377558006"/>
    <nd ref="2377558014"/>
    <nd ref="2377558046"/>
    <nd ref="1590900155"/>
    <nd ref="1590900129"/>
    <nd ref="1590900265"/>
    <nd ref="2377558257"/>
    <nd ref="1590900264"/>
    <nd ref="1590900226"/>
    <nd ref="2377558196"/>
    <nd ref="1590900206"/>
    <nd ref="1590900231"/>
    <nd ref="2377558069"/>
    <nd ref="1590900258"/>
    <nd ref="2377558154"/>
    <nd ref="1590900251"/>
    <nd ref="1590900255"/>
    <nd ref="2377558245"/>
    <nd ref="2377558263"/>
    <nd ref="2377558083"/>
    <tag k="carriageway_ref" v="B"/>
    <tag k="highway" v="motorway"/>
    <tag k="lanes" v="3"/>
    <tag k="lit" v="no"/>
    <tag k="maxheight" v="default"/>
    <tag k="maxspeed" v="70 mph"/>
    <tag k="maxspeed:type" v="GB:motorway"/>
    <tag k="national_highways:area" v="DBFO27"/>
    <tag k="oneway" v="yes"/>
    <tag k="operator" v="National Highways"/>
    <tag k="operator:wikidata" v="Q5760006"/>
    <tag k="ref" v="M1"/>
    <tag k="source" v="Bing"/>
    <tag k="surface" v="asphalt"/>
  </way>
  <way id="146725521" version="16" timestamp="2024-10-07T15:50:40Z" changeset="157588433" uid="5229644" user="Nathan_A_RF">
    <nd ref="1599832175"/>
    <nd ref="26526413"/>
    <tag k="bridge" v="yes"/>
    <tag k="highway" v="trunk"/>
    <tag k="junction" v="circular"/>
    <tag k="lanes" v="3"/>
    <tag k="layer" v="1"/>
    <tag k="lit" v="yes"/>
    <tag k="maxspeed" v="40 mph"/>
    <tag k="name" v="Austhorpe Interchange"/>
    <tag k="oneway" v="yes"/>
    <tag k="shoulder:left" v="no"/>
    <tag k="shoulder:right" v="no"/>
    <tag k="sidewalk:left" v="separate"/>
    <tag k="sidewalk:right" v="no"/>
    <tag k="surface" v="asphalt"/>
    <tag k="turn:lanes" v="through|through|right"/>
  </way>
  <way id="146725594" version="14" timestamp="2021-11-08T19:13:38Z" changeset="113535341" uid="5926" user="c2r">
    <nd ref="1599834174"/>
    <nd ref="5041460473"/>
    <nd ref="5041460474"/>
    <nd ref="31932574"/>
    <nd ref="6750214532"/>
    <nd ref="31932553"/>
    <nd ref="2181411700"/>
    <nd ref="1621261546"/>
    <nd ref="6750214559"/>
    <nd ref="1621261544"/>
    <nd ref="1965506998"/>
    <nd ref="7565069649"/>
    <nd ref="31932528"/>
    <nd ref="9236160689"/>
    <nd ref="1965506921"/>
    <nd ref="31932509"/>
    <nd ref="1965506909"/>
    <nd ref="6750210125"/>
    <nd ref="1965506899"/>
    <tag k="highway" v="trunk"/>
    <tag k="lanes" v="2"/>
    <tag k="maxspeed" v="50 mph"/>
    <tag k="name" v="Selby Road"/>
    <tag k="oneway" v="yes"/>
    <tag k="ref" v="A63"/>
    <tag k="sidewalk" v="left"/>
    <tag k="source" v="survey"/>
    <tag k="source_ref" v="GPS"/>
    <tag k="surface" v="asphalt"/>
  </way>
  <way id="146725759" version="18" timestamp="2022-12-30T14:22:22Z" changeset="130689247" uid="705850" user="Cebderby">
    <nd ref="1599846398"/>
    <nd ref="9980439938"/>
    <nd ref="9980439937"/>
    <nd ref="2089142733"/>
    <nd ref="1599846497"/>
    <nd ref="1599846425"/>
    <nd ref="1599846396"/>
    <nd ref="1599846368"/>
    <nd ref="52682000"/>
    <nd ref="6403752133"/>
    <nd ref="52682003"/>
    <nd ref="52682006"/>
    <nd ref="52682008"/>
    <nd ref="1599846337"/>
    <nd ref="1599846485"/>
    <nd ref="1599846313"/>
    <nd ref="1623512112"/>
    <nd ref="10295133373"/>
    <nd ref="5434418317"/>
    <tag k="bicycle" v="no"/>
    <tag k="foot" v="no"/>
    <tag k="highway" v="trunk"/>
    <tag k="lanes" v="2"/>
    <tag k="lit" v="yes"/>
    <tag k="maxspeed" v="40 mph"/>
    <tag k="name" v="Thorpe Park Link Road"/>
    <tag k="not:ref" v="A63"/>
    <tag k="oneway" v="yes"/>
    <tag k="ref" v="A6120"/>
    <tag k="source" v="survey"/>
    <tag k="source_ref" v="GPS"/>
    <tag k="surface" v="asphalt"/>
  </way>
  <way id="146725762" version="19" timestamp="2022-12-30T14:22:22Z" changeset="130689247" uid="705850" user="Cebderby">
    <nd ref="1621260443"/>
    <nd ref="10295133383"/>
    <nd ref="1621260487"/>
    <nd ref="1599846423"/>
    <nd ref="1599846460"/>
    <nd ref="1599846454"/>
    <nd ref="1599846421"/>
    <nd ref="1623512105"/>
    <nd ref="1599846311"/>
    <nd ref="1599846404"/>
    <nd ref="1599846456"/>
    <nd ref="1599846317"/>
    <tag k="bicycle" v="no"/>
    <tag k="foot" v="no"/>
    <tag k="highway" v="trunk"/>
    <tag k="lanes" v="2"/>
    <tag k="lit" v="yes"/>
    <tag k="maxspeed" v="40 mph"/>
    <tag k="name" v="Thorpe Park Link Road"/>
    <tag k="not:ref" v="A63"/>
    <tag k="oneway" v="yes"/>
    <tag k="ref" v="A6120"/>
    <tag k="source" v="survey"/>
    <tag k="source_ref" v="GPS"/>
    <tag k="surface" v="asphalt"/>
  </way>
  <way id="149100705" version="5" timestamp="2022-06-05T06:12:29Z" changeset="121960431" uid="10364561" user="TrekClimbing">
    <nd ref="20979504"/>
    <nd ref="1621260439"/>
    <nd ref="20979501"/>
    <tag k="abutters" v="industrial"/>
    <tag k="highway" v="unclassified"/>
    <tag k="lanes" v="1"/>
    <tag k="lcn" v="yes"/>
    <tag k="name" v="Century Way"/>
    <tag k="oneway" v="yes"/>
    <tag k="sidewalk:left" v="separate"/>
    <tag k="sidewalk:right" v="no"/>
    <tag k="source" v="Bing"/>
    <tag k="surface" v="asphalt"/>
  </way>
  <way id="149100716" version="14" timestamp="2023-09-02T21:54:41Z" changeset="140737352" uid="4543415" user="The_JF">
    <nd ref="20979504"/>
    <nd ref="4679035668"/>
    <nd ref="4679035667"/>
    <nd ref="20979505"/>
    <nd ref="1621260398"/>
    <nd ref="2264816685"/>
    <nd ref="20979506"/>
    <nd ref="20979507"/>
    <nd ref="4679035666"/>
    <nd ref="20979508"/>
    <nd ref="2264816751"/>
    <nd ref="11163893579"/>
    <nd ref="11139786828"/>
    <nd ref="20979509"/>
    <nd ref="1621260384"/>
    <nd ref="1621260361"/>
    <nd ref="2089239978"/>
    <nd ref="29688483"/>
    <nd ref="8244325106"/>
    <nd ref="29688506"/>
    <nd ref="1599846366"/>
    <nd ref="29688507"/>
    <nd ref="29688508"/>
    <nd ref="6003267668"/>
    <nd ref="11139786827"/>
    <nd ref="29688509"/>
    <nd ref="6003267669"/>
    <nd ref="1621260350"/>
    <nd ref="11163893580"/>
    <nd ref="29688510"/>
    <nd ref="29688511"/>
    <nd ref="1621260346"/>
    <nd ref="5252384303"/>
    <tag k="abutters" v="industrial"/>
    <tag k="highway" v="unclassified"/>
    <tag k="lanes" v="2"/>
    <tag k="lcn" v="yes"/>
    <tag k="lit" v="yes"/>
    <tag k="maxspeed" v="30 mph"/>
    <tag k="name" v="Century Way"/>
    <tag k="source" v="GPS"/>
    <tag k="surface" v="asphalt"/>
  </way>
  <way id="155347151" version="14" timestamp="2024-06-17T14:09:00Z" changeset="152805446" uid="145231" user="woodpeck_repair">
    <nd ref="475380910"/>
    <nd ref="411249992"/>
    <nd ref="6618990092"/>
    <nd ref="411249993"/>
    <nd ref="411249994"/>
    <nd ref="411249995"/>
    <nd ref="411249996"/>
    <nd ref="411249997"/>
    <nd ref="411249998"/>
    <nd ref="411249999"/>
    <nd ref="7112864441"/>
    <nd ref="411250000"/>
    <nd ref="411250001"/>
    <nd ref="411250002"/>
    <nd ref="411250003"/>
    <nd ref="6611582199"/>
    <nd ref="411250004"/>
    <nd ref="411250005"/>
    <nd ref="411250006"/>
    <nd ref="6611581969"/>
    <nd ref="6131287587"/>
    <nd ref="411250007"/>
    <tag k="bicycle" v="yes"/>
    <tag k="foot" v="yes"/>
    <tag k="highway" v="tertiary"/>
    <tag k="horse" v="yes"/>
    <tag k="lanes" v="2"/>
    <tag k="motor_vehicle" v="destination"/>
    <tag k="name" v="Newsam Green Road"/>
    <tag k="source" v="Bing"/>
    <tag k="surface" v="asphalt"/>
  </way>
  <way id="184648776" version="2" timestamp="2020-08-12T17:26:17Z" changeset="89316122" uid="3316592" user="Arthtoach">
    <nd ref="1951476175"/>
    <nd ref="1951476166"/>
    <tag k="highway" v="residential"/>
    <tag k="name" v="Astley Avenue"/>
    <tag k="surface" v="asphalt"/>
  </way>
  <way id="184648777" version="3" timestamp="2020-08-28T18:40:51Z" changeset="90095601" uid="3316592" user="Arthtoach">
    <nd ref="1951475952"/>
    <nd ref="6593154948"/>
    <nd ref="1951475936"/>
    <tag k="highway" v="unclassified"/>
    <tag k="name" v="Astley Way"/>
    <tag k="surface" v="asphalt"/>
  </way>
  <way id="184648778" version="2" timestamp="2020-08-28T18:40:51Z" changeset="90095601" uid="3316592" user="Arthtoach">
    <nd ref="1951475940"/>
    <nd ref="1951475944"/>
    <nd ref="1951475948"/>
    <nd ref="1951475952"/>
    <nd ref="1951475974"/>
    <nd ref="1951475986"/>
    <nd ref="1951475993"/>
    <nd ref="1951476005"/>
    <tag k="highway" v="unclassified"/>
    <tag k="name" v="Astley Way"/>
    <tag k="surface" v="asphalt"/>
  </way>
  <way id="184648793" version="3" timestamp="2020-08-12T17:26:17Z" changeset="89316122" uid="3316592" user="Arthtoach">
    <nd ref="1951476259"/>
    <nd ref="1951476328"/>
    <nd ref="1951476373"/>
    <tag k="highway" v="residential"/>
    <tag k="name" v="Park Avenue"/>
    <tag k="surface" v="asphalt"/>
  </way>
  <way id="184648794" version="2" timestamp="2020-08-12T17:26:17Z" changeset="89316122" uid="3316592" user="Arthtoach">
    <nd ref="1951476077"/>
    <nd ref="1951476080"/>
    <tag k="highway" v="residential"/>
    <tag k="name" v="Park Grove"/>
    <tag k="surface" v="asphalt"/>
  </way>
  <way id="184648798" version="2" timestamp="2020-08-12T17:26:17Z" changeset="89316122" uid="3316592" user="Arthtoach">
    <nd ref="1951476096"/>
    <nd ref="1951476077"/>
    <nd ref="1951476056"/>
    <tag k="highway" v="residential"/>
    <tag k="name" v="Park Grove"/>
    <tag k="surface" v="asphalt"/>
  </way>
  <way id="184648807" version="2" timestamp="2020-08-12T17:26:17Z" changeset="89316122" uid="3316592" user="Arthtoach">
    <nd ref="1951476133"/>
    <nd ref="1951476166"/>
    <tag k="highway" v="residential"/>
    <tag k="name" v="Park View"/>
    <tag k="surface" v="asphalt"/>
  </way>
  <way id="184648808" version="3" timestamp="2020-08-14T12:21:49Z" changeset="89410527" uid="3316592" user="Arthtoach">
    <nd ref="1951476392"/>
    <nd ref="7812758035"/>
    <nd ref="7812758057"/>
    <nd ref="1951476411"/>
    <nd ref="1951476448"/>
    <nd ref="7812758055"/>
    <nd ref="7812758056"/>
    <nd ref="1951476468"/>
    <nd ref="7812758054"/>
    <nd ref="7812758053"/>
    <nd ref="1951476489"/>
    <nd ref="7812758051"/>
    <nd ref="7812758052"/>
    <nd ref="7812758050"/>
    <nd ref="1951476478"/>
    <nd ref="7812758047"/>
    <nd ref="7812758049"/>
    <nd ref="1951476445"/>
    <nd ref="7812758048"/>
    <nd ref="7812758045"/>
    <nd ref="1951476385"/>
    <nd ref="7812758044"/>
    <nd ref="7812758043"/>
    <nd ref="1951476309"/>
    <nd ref="7812758046"/>
    <nd ref="7812758041"/>
    <nd ref="1951476290"/>
    <nd ref="7812758040"/>
    <nd ref="7812758042"/>
    <nd ref="1951476284"/>
    <nd ref="7812758039"/>
    <nd ref="7812758038"/>
    <nd ref="1951476287"/>
    <nd ref="7812758036"/>
    <nd ref="7812758037"/>
    <nd ref="1951476293"/>
    <nd ref="1951476335"/>
    <nd ref="1951476448"/>
    <tag k="highway" v="residential"/>
    <tag k="name" v="Preston View"/>
    <tag k="surface" v="asphalt"/>
  </way>
  <way id="184648809" version="2" timestamp="2020-08-12T07:30:10Z" changeset="89286828" uid="3316592" user="Arthtoach">
    <nd ref="288493089"/>
    <nd ref="1951476561"/>
    <nd ref="1951476563"/>
    <nd ref="1951476571"/>
    <nd ref="1951476607"/>
    <tag k="highway" v="residential"/>
    <tag k="name" v="Primrose Avenue"/>
    <tag k="surface" v="asphalt"/>
  </way>
  <way id="184648813" version="5" timestamp="2022-07-19T20:36:59Z" changeset="123823746" uid="4543415" user="The_JF">
    <nd ref="1951476126"/>
    <nd ref="1951476141"/>
    <nd ref="7830378830"/>
    <nd ref="1951476149"/>
    <nd ref="1951476153"/>
    <nd ref="7830378835"/>
    <nd ref="1951476169"/>
    <nd ref="1951476176"/>
    <nd ref="1951476183"/>
    <nd ref="1951476197"/>
    <tag k="highway" v="residential"/>
    <tag k="maxspeed" v="20 mph"/>
    <tag k="name" v="Primrose Hill Close"/>
    <tag k="surface" v="asphalt"/>
  </way>
  <way id="184648818" version="5" timestamp="2022-07-19T20:36:59Z" changeset="123823746" uid="4543415" user="The_JF">
    <nd ref="1951476119"/>
    <nd ref="7830378819"/>
    <nd ref="7830378829"/>
    <nd ref="1951476127"/>
    <nd ref="1951476126"/>
    <nd ref="1951476118"/>
    <nd ref="1951476113"/>
    <nd ref="1951476108"/>
    <nd ref="1951476102"/>
    <nd ref="1951476098"/>
    <nd ref="7807320880"/>
    <nd ref="7807320879"/>
    <nd ref="1951476095"/>
    <nd ref="7807320883"/>
    <nd ref="7807320882"/>
    <nd ref="1951476093"/>
    <nd ref="7807320881"/>
    <nd ref="1951476090"/>
    <nd ref="1951476082"/>
    <nd ref="1951476076"/>
    <nd ref="8092940383"/>
    <nd ref="1951476072"/>
    <nd ref="1951476070"/>
    <nd ref="1951476083"/>
    <tag k="highway" v="residential"/>
    <tag k="maxspeed" v="20 mph"/>
    <tag k="name" v="Primrose Hill Drive"/>
    <tag k="surface" v="asphalt"/>
  </way>
  <way id="184648819" version="1" timestamp="2012-10-07T20:38:14Z" changeset="13404515" uid="106831" user="sc71">
    <nd ref="1951476064"/>
    <nd ref="1951476070"/>
    <tag k="highway" v="residential"/>
    <tag k="name" v="Primrose Hill Drive"/>
  </way>
  <way id="184648820" version="1" timestamp="2012-10-07T20:38:14Z" changeset="13404515" uid="106831" user="sc71">
    <nd ref="1951476167"/>
    <nd ref="1951476154"/>
    <tag k="highway" v="residential"/>
    <tag k="name" v="Primrose Hill Gardens"/>
  </way>
  <way id="184648824" version="4" timestamp="2022-07-19T20:36:59Z" changeset="123823746" uid="4543415" user="The_JF">
    <nd ref="1951476153"/>
    <nd ref="1951476157"/>
    <nd ref="1951476162"/>
    <nd ref="1951476165"/>
    <nd ref="1951476164"/>
    <nd ref="1951476167"/>
    <nd ref="7837165463"/>
    <nd ref="1951476189"/>
    <tag k="highway" v="residential"/>
    <tag k="maxspeed" v="20 mph"/>
    <tag k="name" v="Primrose Hill Gardens"/>
    <tag k="surface" v="asphalt"/>
  </way>
  <way id="184648826" version="2" timestamp="2020-08-12T17:26:17Z" changeset="89316122" uid="3316592" user="Arthtoach">
    <nd ref="1951476088"/>
    <nd ref="1951476084"/>
    <tag k="highway" v="residential"/>
    <tag k="name" v="Primrose Hill Garth"/>
    <tag k="surface" v="asphalt"/>
  </way>
  <way id="184648828" version="2" timestamp="2020-08-12T17:26:17Z" changeset="89316122" uid="3316592" user="Arthtoach">
    <nd ref="1951476074"/>
    <nd ref="7807322788"/>
    <nd ref="1951476069"/>
    <tag k="highway" v="residential"/>
    <tag k="name" v="Primrose Hill Green"/>
    <tag k="surface" v="asphalt"/>
  </way>
  <way id="184648829" version="3" timestamp="2022-07-19T20:36:59Z" changeset="123823746" uid="4543415" user="The_JF">
    <nd ref="1951476102"/>
    <nd ref="1951476089"/>
    <nd ref="1951476084"/>
    <nd ref="7807322793"/>
    <nd ref="7807322792"/>
    <nd ref="1951476074"/>
    <nd ref="7807322791"/>
    <nd ref="7807322790"/>
    <nd ref="7807322789"/>
    <nd ref="7807322794"/>
    <nd ref="1951476075"/>
    <tag k="highway" v="residential"/>
    <tag k="maxspeed" v="20 mph"/>
    <tag k="name" v="Primrose Hill Green"/>
    <tag k="surface" v="asphalt"/>
  </way>
  <way id="184648830" version="2" timestamp="2020-08-12T17:26:17Z" changeset="89316122" uid="3316592" user="Arthtoach">
    <nd ref="1951476124"/>
    <nd ref="7807322787"/>
    <nd ref="7807322786"/>
    <nd ref="1951476128"/>
    <nd ref="5686213816"/>
    <nd ref="1951476115"/>
    <nd ref="7807320884"/>
    <nd ref="1951476111"/>
    <nd ref="7807322785"/>
    <nd ref="1951476103"/>
    <nd ref="1951476093"/>
    <tag k="highway" v="residential"/>
    <tag k="name" v="Primrose Hill Grove"/>
    <tag k="surface" v="asphalt"/>
  </way>
  <way id="184648832" version="2" timestamp="2020-08-20T18:22:47Z" changeset="89706806" uid="3316592" user="Arthtoach">
    <nd ref="1951476139"/>
    <nd ref="1951476137"/>
    <nd ref="1951476120"/>
    <tag k="highway" v="residential"/>
    <tag k="name" v="St Johns Walk"/>
  </way>
  <way id="184648869" version="2" timestamp="2020-07-26T13:20:33Z" changeset="88520822" uid="3316592" user="Arthtoach">
    <nd ref="1951476179"/>
    <nd ref="1951476170"/>
    <nd ref="7750304039"/>
    <nd ref="1951476168"/>
    <nd ref="7750304040"/>
    <nd ref="7750304041"/>
    <nd ref="1951476159"/>
    <nd ref="1951476144"/>
    <nd ref="7750304038"/>
    <nd ref="1951476145"/>
    <nd ref="7750304037"/>
    <nd ref="1951476147"/>
    <nd ref="1951476151"/>
    <tag k="highway" v="unclassified"/>
    <tag k="surface" v="asphalt"/>
  </way>
  <way id="185862416" version="3" timestamp="2023-07-11T12:47:32Z" changeset="138379424" uid="1802093" user="Paul Berry">
    <nd ref="1965507005"/>
    <nd ref="1965506993"/>
    <nd ref="7804113209"/>
    <nd ref="1965506941"/>
    <tag k="highway" v="residential"/>
    <tag k="name" v="Providence Place"/>
  </way>
  <way id="185862457" version="4" timestamp="2023-07-11T12:47:32Z" changeset="138379424" uid="1802093" user="Paul Berry">
    <nd ref="1965506921"/>
    <nd ref="3394216049"/>
    <nd ref="1965506971"/>
    <nd ref="7804113210"/>
    <nd ref="7804113208"/>
    <nd ref="1965506993"/>
    <tag k="highway" v="residential"/>
    <tag k="name" v="Providence Place"/>
  </way>
  <way id="185862487" version="3" timestamp="2023-07-11T12:47:32Z" changeset="138379424" uid="1802093" user="Paul Berry">
    <nd ref="1965506983"/>
    <nd ref="1965506971"/>
    <nd ref="1965506941"/>
    <nd ref="1965506932"/>
    <nd ref="3394216006"/>
    <nd ref="1965506909"/>
    <tag k="highway" v="residential"/>
    <tag k="name" v="Providence Place"/>
  </way>
  <way id="198832017" version="3" timestamp="2023-07-11T12:47:32Z" changeset="138379424" uid="1802093" user="Paul Berry">
    <nd ref="2089142698"/>
    <nd ref="3394211008"/>
    <nd ref="3394211011"/>
    <nd ref="2089142582"/>
    <nd ref="2089142698"/>
    <tag k="addr:city" v="Leeds"/>
    <tag k="addr:housenumber" v="2"/>
    <tag k="addr:parentstreet" v="Selby Road"/>
    <tag k="addr:postcode" v="LS15 4LB"/>
    <tag k="addr:street" v="South Row"/>
    <tag k="addr:suburb" v="Swillington Common"/>
    <tag k="building" v="house"/>
    <tag k="house" v="semi-detached"/>
  </way>
  <way id="198832019" version="3" timestamp="2020-08-11T14:08:00Z" changeset="89256303" uid="3316592" user="Arthtoach">
    <nd ref="7804113269"/>
    <nd ref="7804113250"/>
    <nd ref="7804113252"/>
    <nd ref="7804113254"/>
    <nd ref="7804113256"/>
    <nd ref="7804113258"/>
    <nd ref="7804113260"/>
    <nd ref="7804113262"/>
    <nd ref="7804113264"/>
    <nd ref="7804113266"/>
    <nd ref="7804113268"/>
    <nd ref="7804113267"/>
    <nd ref="7804113265"/>
    <nd ref="7804113263"/>
    <nd ref="7804113261"/>
    <nd ref="7804113259"/>
    <nd ref="7804113257"/>
    <nd ref="7804113255"/>
    <nd ref="7804113253"/>
    <nd ref="7804113251"/>
    <nd ref="7804113249"/>
    <nd ref="7804113248"/>
    <nd ref="7804113247"/>
    <nd ref="7804113269"/>
    <tag k="building" v="terrace"/>
    <tag k="name" v="Middle Row"/>
  </way>
  <way id="198832026" version="4" timestamp="2023-07-11T12:47:32Z" changeset="138379424" uid="1802093" user="Paul Berry">
    <nd ref="2089142498"/>
    <nd ref="7804138707"/>
    <nd ref="7804138706"/>
    <nd ref="2089142575"/>
    <nd ref="2089142498"/>
    <tag k="addr:city" v="Leeds"/>
    <tag k="addr:housenumber" v="6"/>
    <tag k="addr:postcode" v="LS15 4LF"/>
    <tag k="addr:street" v="Lowther Terrace"/>
    <tag k="addr:suburb" v="Swillington Common"/>
    <tag k="building" v="house"/>
    <tag k="house" v="terraced"/>
  </way>
  <way id="198832029" version="4" timestamp="2023-07-11T12:47:32Z" changeset="138379424" uid="1802093" user="Paul Berry">
    <nd ref="2089142520"/>
    <nd ref="7804138701"/>
    <nd ref="7804138700"/>
    <nd ref="2089142738"/>
    <nd ref="2089142520"/>
    <tag k="addr:city" v="Leeds"/>
    <tag k="addr:housenumber" v="1"/>
    <tag k="addr:postcode" v="LS15 4LF"/>
    <tag k="addr:street" v="Lowther Terrace"/>
    <tag k="addr:suburb" v="Swillington Common"/>
    <tag k="building" v="house"/>
    <tag k="house" v="terraced"/>
  </way>
  <way id="198832030" version="5" timestamp="2023-07-11T12:47:32Z" changeset="138379424" uid="1802093" user="Paul Berry">
    <nd ref="7804120308"/>
    <nd ref="7804120305"/>
    <nd ref="7804120285"/>
    <nd ref="7804113283"/>
    <nd ref="7804113284"/>
    <nd ref="7804113282"/>
    <nd ref="7804113281"/>
    <nd ref="7804120289"/>
    <nd ref="7804120291"/>
    <nd ref="7804113275"/>
    <nd ref="7804113276"/>
    <nd ref="7804113270"/>
    <nd ref="7804113271"/>
    <nd ref="7804120297"/>
    <nd ref="7804120299"/>
    <nd ref="7804120301"/>
    <nd ref="7804120306"/>
    <nd ref="7804120307"/>
    <nd ref="7804120302"/>
    <nd ref="7804120300"/>
    <nd ref="7804120298"/>
    <nd ref="7804120296"/>
    <nd ref="7804120294"/>
    <nd ref="7804113272"/>
    <nd ref="7804113273"/>
    <nd ref="7804113274"/>
    <nd ref="7804120292"/>
    <nd ref="7804120290"/>
    <nd ref="7804120288"/>
    <nd ref="7804120287"/>
    <nd ref="7804113280"/>
    <nd ref="7804113277"/>
    <nd ref="7804113278"/>
    <nd ref="7804113279"/>
    <nd ref="7804120286"/>
    <nd ref="7804120308"/>
    <tag k="building" v="terrace"/>
    <tag k="name" v="Top Row"/>
  </way>
  <way id="198832053" version="3" timestamp="2020-08-11T14:08:00Z" changeset="89256303" uid="3316592" user="Arthtoach">
    <nd ref="2089142607"/>
    <nd ref="7804113232"/>
    <nd ref="7804113233"/>
    <nd ref="7804113235"/>
    <nd ref="7804113237"/>
    <nd ref="7804113238"/>
    <nd ref="7804113239"/>
    <nd ref="7804113240"/>
    <nd ref="7804113242"/>
    <nd ref="7804113244"/>
    <nd ref="7804113245"/>
    <nd ref="2089142662"/>
    <nd ref="7804113231"/>
    <nd ref="7804113230"/>
    <nd ref="7804113226"/>
    <nd ref="7804113227"/>
    <nd ref="7804113228"/>
    <nd ref="7804113229"/>
    <nd ref="2089142589"/>
    <nd ref="7804113246"/>
    <nd ref="7804113225"/>
    <nd ref="7804113223"/>
    <nd ref="7804113224"/>
    <nd ref="7804113243"/>
    <nd ref="7804113241"/>
    <nd ref="7804113222"/>
    <nd ref="7804113221"/>
    <nd ref="7804113220"/>
    <nd ref="7804113219"/>
    <nd ref="7804113217"/>
    <nd ref="7804113218"/>
    <nd ref="7804113216"/>
    <nd ref="7804113215"/>
    <nd ref="7804113236"/>
    <nd ref="7804113234"/>
    <nd ref="7804113214"/>
    <nd ref="7804113213"/>
    <nd ref="7804113212"/>
    <nd ref="7804113211"/>
    <nd ref="2089142607"/>
    <tag k="building" v="terrace"/>
    <tag k="name" v="Cross Row"/>
  </way>
  <way id="198834185" version="7" timestamp="2025-04-11T22:29:49Z" changeset="164835722" uid="8857" user="philipcullen">
    <nd ref="2089197098"/>
    <nd ref="8244550574"/>
    <nd ref="8244550573"/>
    <nd ref="5742295073"/>
    <nd ref="2089197086"/>
    <nd ref="8244550566"/>
    <nd ref="8244550565"/>
    <nd ref="2089197058"/>
    <nd ref="8244550564"/>
    <nd ref="8244550563"/>
    <nd ref="2089197094"/>
    <nd ref="8244553623"/>
    <nd ref="8244550597"/>
    <nd ref="2089197109"/>
    <nd ref="2089197066"/>
    <nd ref="8244550596"/>
    <nd ref="8244553624"/>
    <nd ref="2089197084"/>
    <nd ref="8244550571"/>
    <nd ref="8244553625"/>
    <nd ref="8244550572"/>
    <nd ref="8244550570"/>
    <nd ref="8244550569"/>
    <nd ref="2089197063"/>
    <nd ref="2089197093"/>
    <nd ref="2089197079"/>
    <nd ref="8244550568"/>
    <nd ref="8244550567"/>
    <nd ref="2089197077"/>
    <nd ref="2089197060"/>
    <nd ref="2089197087"/>
    <nd ref="2089197100"/>
    <nd ref="2089197059"/>
    <nd ref="2089197085"/>
    <nd ref="2089197074"/>
    <nd ref="2089197106"/>
    <nd ref="2089197083"/>
    <nd ref="2089197103"/>
    <nd ref="2089197067"/>
    <nd ref="2089197064"/>
    <nd ref="8244550578"/>
    <nd ref="8244550577"/>
    <nd ref="8244550576"/>
    <nd ref="8244550575"/>
    <nd ref="2089197098"/>
    <tag k="addr:city" v="Leeds"/>
    <tag k="addr:county" v="Yorkshire"/>
    <tag k="addr:housename" v="Component 1150"/>
    <tag k="addr:postcode" v="LS15 8ZB"/>
    <tag k="addr:street" v="Century Way"/>
    <tag k="addr:suburb" v="Thorpe Park"/>
    <tag k="addr:town" v="Leeds"/>
    <tag k="building" v="yes"/>
    <tag k="email" v="thorpepark@shirehotels.com"/>
    <tag k="fax" v="+44 113 264 1010"/>
    <tag k="fhrs:id" v="321980"/>
    <tag k="internet_access" v="wlan"/>
    <tag k="name" v="Thorpe Park Hotel"/>
    <tag k="payment:coins" v="yes"/>
    <tag k="payment:maestro" v="yes"/>
    <tag k="payment:mastercard" v="yes"/>
    <tag k="payment:notes" v="yes"/>
    <tag k="phone" v="+44 113 264 10"/>
    <tag k="ref:GB:uprn" v="72776479;72511404"/>
    <tag k="tourism" v="hotel"/>
    <tag k="website" v="http://www.thorpeparkhotel.com/"/>
    <tag k="wheelchair" v="yes"/>
  </way>
  <way id="198834785" version="6" timestamp="2023-07-03T21:31:36Z" changeset="138081315" uid="1802093" user="Paul Berry">
    <nd ref="2089205576"/>
    <nd ref="2089205587"/>
    <nd ref="2089205545"/>
    <nd ref="2089205478"/>
    <nd ref="2089205661"/>
    <nd ref="2089205595"/>
    <nd ref="2089205586"/>
    <nd ref="2089205626"/>
    <nd ref="2089205576"/>
    <tag k="addr:city" v="Leeds"/>
    <tag k="addr:housenumber" v="1200"/>
    <tag k="addr:postcode" v="LS15 8ZA"/>
    <tag k="addr:street" v="Century Way"/>
    <tag k="building" v="yes"/>
    <tag k="name" v="Regus"/>
  </way>
  <way id="198834788" version="9" timestamp="2025-04-11T22:29:49Z" changeset="164835722" uid="8857" user="philipcullen">
    <nd ref="2089205535"/>
    <nd ref="2090406441"/>
    <nd ref="2089205645"/>
    <nd ref="2089205621"/>
    <nd ref="2089205549"/>
    <nd ref="2089205651"/>
    <nd ref="2089205547"/>
    <nd ref="2089205637"/>
    <nd ref="2089205535"/>
    <tag k="addr:city" v="Leeds"/>
    <tag k="addr:housenumber" v="1100"/>
    <tag k="addr:postcode" v="LS15 8TU"/>
    <tag k="addr:street" v="Century Way"/>
    <tag k="building" v="office"/>
    <tag k="building:levels" v="3"/>
    <tag k="fhrs:id" v="321659"/>
    <tag k="name" v="Northern Gas Networks"/>
    <tag k="ref:GB:uprn" v="72675721;72675720;72675722;72785519;72504698"/>
  </way>
  <way id="198834794" version="3" timestamp="2025-04-11T22:29:49Z" changeset="164835722" uid="8857" user="philipcullen">
    <nd ref="2089205517"/>
    <nd ref="2089205464"/>
    <nd ref="2089205489"/>
    <nd ref="2089205499"/>
    <nd ref="2089205517"/>
    <tag k="building" v="service"/>
    <tag k="building:levels" v="2"/>
    <tag k="name" v="Eville &amp; Jones (UK) Ltd"/>
    <tag k="ref:GB:uprn" v="72669144;72669145;72685839;72685838;72507798"/>
  </way>
  <way id="198834795" version="6" timestamp="2025-04-11T22:29:49Z" changeset="164835722" uid="8857" user="philipcullen">
    <nd ref="2089205568"/>
    <nd ref="2089205551"/>
    <nd ref="2089205495"/>
    <nd ref="2089205505"/>
    <nd ref="2089205467"/>
    <nd ref="2089205606"/>
    <nd ref="2089205566"/>
    <nd ref="2089205473"/>
    <nd ref="2089205636"/>
    <nd ref="2089205660"/>
    <nd ref="2089205568"/>
    <tag k="addr:city" v="Leeds"/>
    <tag k="addr:housenumber" v="1175"/>
    <tag k="addr:postcode" v="LS15 8ZB"/>
    <tag k="addr:street" v="Century Way"/>
    <tag k="building" v="yes"/>
    <tag k="name" v="IBM"/>
    <tag k="ref:GB:uprn" v="72514850;72781990;72722808;72771730;72771731;72766199;72771732;72766198;72766197;72766196;72740446;72771729;72781989;72740445;72722189;72729564;72729565"/>
  </way>
  <way id="199123019" version="3" timestamp="2021-11-10T22:02:57Z" changeset="113627762" uid="5926" user="c2r">
    <nd ref="2091629142"/>
    <nd ref="2091629308"/>
    <nd ref="2091629353"/>
    <nd ref="2091629225"/>
    <nd ref="2091629142"/>
    <tag k="addr:housename" v="Hollybush"/>
    <tag k="addr:housenumber" v="14"/>
    <tag k="addr:street" v="Swillington Lane"/>
    <tag k="building" v="house"/>
  </way>
  <way id="199123483" version="4" timestamp="2023-07-11T12:04:45Z" changeset="138377342" uid="1802093" user="Paul Berry">
    <nd ref="2091633292"/>
    <nd ref="7973615225"/>
    <nd ref="7973615224"/>
    <nd ref="2091633322"/>
    <nd ref="2091633292"/>
    <tag k="addr:city" v="Leeds"/>
    <tag k="addr:housenumber" v="10"/>
    <tag k="addr:parentstreet" v="Selby Road"/>
    <tag k="addr:postcode" v="LS25 1LZ"/>
    <tag k="addr:street" v="Hawthorn Terrace"/>
    <tag k="addr:suburb" v="Garforth"/>
    <tag k="building" v="house"/>
    <tag k="house" v="terraced"/>
  </way>
  <way id="199123489" version="6" timestamp="2024-06-14T22:35:18Z" changeset="152700850" uid="1778799" user="SomeoneElse_Revert">
    <nd ref="2091633323"/>
    <nd ref="2091633366"/>
    <nd ref="2091633363"/>
    <nd ref="2091633433"/>
    <nd ref="2091633369"/>
    <nd ref="2091633360"/>
    <nd ref="2091633323"/>
    <tag k="amenity" v="post_depot"/>
    <tag k="building" v="service"/>
    <tag k="name" v="Garforth Distribution Office"/>
    <tag k="operator" v="Royal Mail"/>
    <tag k="operator:type" v="private"/>
    <tag k="operator:wikidata" v="Q638098"/>
  </way>
  <way id="207897126" version="2" timestamp="2019-09-03T14:01:15Z" changeset="74043343" uid="4543415" user="The_JF">
    <nd ref="6769497950"/>
    <nd ref="6769497949"/>
    <nd ref="6769498009"/>
    <nd ref="6769497948"/>
    <nd ref="6769498031"/>
    <nd ref="2181404661"/>
    <nd ref="2181404684"/>
    <nd ref="2181404693"/>
    <tag k="highway" v="residential"/>
    <tag k="name" v="Hawthorn Terrace"/>
  </way>
  <way id="215893948" version="4" timestamp="2025-03-25T15:10:26Z" changeset="164080345" uid="592" user="JonS">
    <nd ref="2253131555"/>
    <nd ref="365162154"/>
    <tag k="highway" v="primary"/>
    <tag k="lanes" v="2"/>
    <tag k="lit" v="yes"/>
    <tag k="maxspeed" v="30 mph"/>
    <tag k="name" v="Wakefield Road"/>
    <tag k="ref" v="A642"/>
    <tag k="source" v="npe &amp; gpx"/>
    <tag k="surface" v="asphalt"/>
  </way>
  <way id="215895861" version="2" timestamp="2020-08-12T08:06:53Z" changeset="89288948" uid="3316592" user="Arthtoach">
    <nd ref="2253137270"/>
    <nd ref="1951476704"/>
    <nd ref="7805941926"/>
    <nd ref="21458273"/>
    <tag k="highway" v="primary"/>
    <tag k="maxspeed" v="30 mph"/>
    <tag k="name" v="Wakefield Road"/>
    <tag k="ref" v="A642"/>
    <tag k="sidewalk" v="right"/>
    <tag k="source" v="npe &amp; gpx"/>
  </way>
  <way id="215895862" version="6" timestamp="2025-03-25T15:10:30Z" changeset="164080345" uid="592" user="JonS">
    <nd ref="2253137272"/>
    <nd ref="21458268"/>
    <nd ref="6594102523"/>
    <nd ref="10095618683"/>
    <nd ref="21458267"/>
    <nd ref="10095618684"/>
    <nd ref="1081065445"/>
    <nd ref="451642806"/>
    <tag k="highway" v="primary"/>
    <tag k="lanes" v="2"/>
    <tag k="lit" v="yes"/>
    <tag k="maxspeed" v="60 mph"/>
    <tag k="name" v="Wakefield Road"/>
    <tag k="ref" v="A642"/>
    <tag k="source" v="npe &amp; gpx"/>
    <tag k="surface" v="asphalt"/>
  </way>
  <way id="215898248" version="16" timestamp="2021-10-28T14:29:36Z" changeset="113085417" uid="5926" user="c2r">
    <nd ref="26526511"/>
    <nd ref="1965686786"/>
    <nd ref="26526512"/>
    <nd ref="26526513"/>
    <nd ref="6928849341"/>
    <nd ref="2091633367"/>
    <nd ref="9207872257"/>
    <nd ref="1965686776"/>
    <nd ref="2634790444"/>
    <nd ref="26526515"/>
    <nd ref="7975783298"/>
    <nd ref="21458283"/>
    <nd ref="3227463890"/>
    <nd ref="386043940"/>
    <nd ref="7975829295"/>
    <nd ref="21458280"/>
    <nd ref="21458279"/>
    <nd ref="387350840"/>
    <nd ref="21458278"/>
    <nd ref="6593136078"/>
    <nd ref="7975829293"/>
    <nd ref="7975829294"/>
    <nd ref="1515809838"/>
    <nd ref="21458277"/>
    <nd ref="1515809817"/>
    <nd ref="5711066686"/>
    <nd ref="21458276"/>
    <tag k="highway" v="primary"/>
    <tag k="lanes" v="2"/>
    <tag k="maxspeed" v="60 mph"/>
    <tag k="name" v="Wakefield Road"/>
    <tag k="ref" v="A642"/>
    <tag k="source" v="npe &amp; gpx"/>
    <tag k="surface" v="asphalt"/>
  </way>
  <way id="216262587" version="6" timestamp="2023-09-02T21:54:41Z" changeset="140737352" uid="4543415" user="The_JF">
    <nd ref="2256133676"/>
    <nd ref="11163893577"/>
    <nd ref="5864737948"/>
    <nd ref="6769498183"/>
    <nd ref="647069952"/>
    <nd ref="26526496"/>
    <nd ref="1965506841"/>
    <nd ref="1724363231"/>
    <tag k="highway" v="trunk"/>
    <tag k="lanes" v="2"/>
    <tag k="lit" v="yes"/>
    <tag k="maxspeed" v="50 mph"/>
    <tag k="name" v="Selby Road"/>
    <tag k="oneway" v="yes"/>
    <tag k="ref" v="A63"/>
    <tag k="surface" v="asphalt"/>
  </way>
  <way id="216262588" version="7" timestamp="2020-10-02T12:59:38Z" changeset="91867255" uid="3316592" user="Arthtoach">
    <nd ref="2089116578"/>
    <nd ref="2181404693"/>
    <nd ref="1487933141"/>
    <nd ref="2180597885"/>
    <nd ref="52629156"/>
    <nd ref="4557569559"/>
    <nd ref="4557569560"/>
    <nd ref="1489910140"/>
    <tag k="highway" v="trunk"/>
    <tag k="lanes" v="2"/>
    <tag k="lit" v="yes"/>
    <tag k="maxspeed" v="40 mph"/>
    <tag k="name" v="Selby Road"/>
    <tag k="oneway" v="yes"/>
    <tag k="ref" v="A63"/>
    <tag k="sidewalk" v="left"/>
    <tag k="source" v="survey"/>
    <tag k="source_ref" v="GPS"/>
    <tag k="surface" v="asphalt"/>
    <tag k="turn:lanes" v="left;through|right"/>
  </way>
  <way id="217189749" version="14" timestamp="2024-10-07T15:50:40Z" changeset="157588433" uid="5229644" user="Nathan_A_RF">
    <nd ref="1599846398"/>
    <nd ref="9980439939"/>
    <nd ref="2264816833"/>
    <nd ref="26526411"/>
    <nd ref="6403752135"/>
    <nd ref="26526412"/>
    <nd ref="6403752132"/>
    <nd ref="6403752134"/>
    <nd ref="1599832175"/>
    <tag k="highway" v="trunk"/>
    <tag k="junction" v="circular"/>
    <tag k="lanes" v="3"/>
    <tag k="lit" v="yes"/>
    <tag k="maxspeed" v="40 mph"/>
    <tag k="name" v="Austhorpe Interchange"/>
    <tag k="oneway" v="yes"/>
    <tag k="shoulder:left" v="no"/>
    <tag k="shoulder:right" v="no"/>
    <tag k="sidewalk:left" v="separate"/>
    <tag k="sidewalk:right" v="no"/>
    <tag k="surface" v="asphalt"/>
  </way>
  <way id="217189752" version="13" timestamp="2024-10-07T15:50:40Z" changeset="157588433" uid="5229644" user="Nathan_A_RF">
    <nd ref="26526402"/>
    <nd ref="2377558235"/>
    <nd ref="6403752148"/>
    <nd ref="26526403"/>
    <nd ref="1599834179"/>
    <nd ref="6403752147"/>
    <nd ref="1056678295"/>
    <nd ref="244199862"/>
    <tag k="highway" v="trunk"/>
    <tag k="junction" v="circular"/>
    <tag k="lanes" v="3"/>
    <tag k="lit" v="yes"/>
    <tag k="maxspeed" v="40 mph"/>
    <tag k="name" v="Austhorpe Interchange"/>
    <tag k="oneway" v="yes"/>
    <tag k="shoulder:left" v="no"/>
    <tag k="shoulder:right" v="no"/>
    <tag k="sidewalk:left" v="separate"/>
    <tag k="sidewalk:right" v="no"/>
    <tag k="surface" v="asphalt"/>
  </way>
  <way id="217189763" version="13" timestamp="2024-10-07T15:50:40Z" changeset="157588433" uid="5229644" user="Nathan_A_RF">
    <nd ref="26526408"/>
    <nd ref="5041460475"/>
    <nd ref="2377536446"/>
    <nd ref="6403752142"/>
    <nd ref="2377536427"/>
    <nd ref="26526409"/>
    <nd ref="6403752141"/>
    <nd ref="2264816690"/>
    <nd ref="6403752140"/>
    <nd ref="6403752139"/>
    <nd ref="26526410"/>
    <tag k="highway" v="trunk"/>
    <tag k="junction" v="circular"/>
    <tag k="lanes" v="2"/>
    <tag k="lit" v="yes"/>
    <tag k="maxspeed" v="40 mph"/>
    <tag k="name" v="Austhorpe Interchange"/>
    <tag k="oneway" v="yes"/>
    <tag k="surface" v="asphalt"/>
    <tag k="turn:lanes" v="through|through;right"/>
  </way>
  <way id="217189764" version="13" timestamp="2024-10-07T15:50:40Z" changeset="157588433" uid="5229644" user="Nathan_A_RF">
    <nd ref="1599834174"/>
    <nd ref="6403752153"/>
    <nd ref="26526417"/>
    <nd ref="26526418"/>
    <nd ref="6403752152"/>
    <nd ref="2377536437"/>
    <nd ref="2377536425"/>
    <nd ref="6403752151"/>
    <nd ref="26526402"/>
    <tag k="highway" v="trunk"/>
    <tag k="junction" v="circular"/>
    <tag k="lanes" v="2"/>
    <tag k="lit" v="yes"/>
    <tag k="maxspeed" v="40 mph"/>
    <tag k="name" v="Austhorpe Interchange"/>
    <tag k="oneway" v="yes"/>
    <tag k="sidewalk:left" v="separate"/>
    <tag k="sidewalk:right" v="no"/>
    <tag k="surface" v="asphalt"/>
    <tag k="turn:lanes" v="through|right"/>
  </way>
  <way id="229121977" version="7" timestamp="2022-06-05T06:12:29Z" changeset="121960431" uid="10364561" user="TrekClimbing">
    <nd ref="2264816742"/>
    <nd ref="8244461967"/>
    <nd ref="8244461963"/>
    <nd ref="8244461964"/>
    <nd ref="938528668"/>
    <nd ref="8244461962"/>
    <nd ref="1621260356"/>
    <nd ref="8244461989"/>
    <nd ref="1621260355"/>
    <nd ref="1621260437"/>
    <nd ref="1621260436"/>
    <nd ref="2264816660"/>
    <nd ref="1621260435"/>
    <nd ref="20979497"/>
    <tag k="highway" v="unclassified"/>
    <tag k="lanes" v="2"/>
    <tag k="lit" v="yes"/>
    <tag k="maxspeed" v="30 mph"/>
    <tag k="name" v="Century Way"/>
    <tag k="oneway" v="yes"/>
    <tag k="sidewalk:left" v="separate"/>
    <tag k="sidewalk:right" v="no"/>
    <tag k="source" v="Bing"/>
    <tag k="surface" v="asphalt"/>
  </way>
  <way id="316615016" version="4" timestamp="2020-08-12T08:06:53Z" changeset="89288948" uid="3316592" user="Arthtoach">
    <nd ref="3227486603"/>
    <nd ref="1951476730"/>
    <nd ref="2185695077"/>
    <nd ref="21458274"/>
    <nd ref="1951476723"/>
    <nd ref="2253137270"/>
    <tag k="highway" v="primary"/>
    <tag k="lanes" v="2"/>
    <tag k="maxspeed" v="60 mph"/>
    <tag k="name" v="Wakefield Road"/>
    <tag k="ref" v="A642"/>
    <tag k="sidewalk" v="right"/>
    <tag k="source" v="npe &amp; gpx"/>
  </way>
  <way id="352375679" version="3" timestamp="2025-03-25T15:10:22Z" changeset="164080345" uid="592" user="JonS">
    <nd ref="451642806"/>
    <nd ref="2253131555"/>
    <tag k="highway" v="primary"/>
    <tag k="lanes" v="2"/>
    <tag k="lit" v="yes"/>
    <tag k="maxspeed" v="60 mph"/>
    <tag k="name" v="Wakefield Road"/>
    <tag k="ref" v="A642"/>
    <tag k="source" v="npe &amp; gpx"/>
    <tag k="surface" v="asphalt"/>
  </way>
  <way id="352377004" version="2" timestamp="2020-08-12T07:20:00Z" changeset="89286188" uid="3316592" user="Arthtoach">
    <nd ref="3581524043"/>
    <nd ref="3227486576"/>
    <nd ref="21458275"/>
    <nd ref="1951476741"/>
    <nd ref="3227486603"/>
    <tag k="highway" v="primary"/>
    <tag k="lanes" v="2"/>
    <tag k="maxspeed" v="60 mph"/>
    <tag k="name" v="Wakefield Road"/>
    <tag k="ref" v="A642"/>
    <tag k="source" v="npe &amp; gpx"/>
    <tag k="surface" v="asphalt"/>
  </way>
  <way id="352377011" version="3" timestamp="2020-08-12T07:20:00Z" changeset="89286188" uid="3316592" user="Arthtoach">
    <nd ref="21458276"/>
    <nd ref="3227481969"/>
    <tag k="highway" v="primary"/>
    <tag k="lanes" v="2"/>
    <tag k="maxspeed" v="60 mph"/>
    <tag k="name" v="Wakefield Road"/>
    <tag k="ref" v="A642"/>
    <tag k="source" v="npe &amp; gpx"/>
    <tag k="surface" v="asphalt"/>
  </way>
  <way id="352756365" version="8" timestamp="2024-06-17T14:09:00Z" changeset="152805446" uid="145231" user="woodpeck_repair">
    <nd ref="3227491421"/>
    <nd ref="1515809855"/>
    <nd ref="1515809851"/>
    <nd ref="3227424492"/>
    <tag k="highway" v="tertiary"/>
    <tag k="lanes" v="2"/>
    <tag k="name" v="Whitehouse Lane"/>
    <tag k="surface" v="asphalt"/>
  </way>
  <way id="352756370" version="11" timestamp="2024-06-17T14:09:00Z" changeset="152805446" uid="145231" user="woodpeck_repair">
    <nd ref="3227424492"/>
    <nd ref="387350827"/>
    <nd ref="1515809833"/>
    <nd ref="387350821"/>
    <nd ref="1515809809"/>
    <nd ref="387350816"/>
    <nd ref="1515809848"/>
    <nd ref="387350812"/>
    <nd ref="1515809816"/>
    <nd ref="387350807"/>
    <nd ref="1515809859"/>
    <nd ref="1515809811"/>
    <nd ref="387350803"/>
    <nd ref="387350795"/>
    <nd ref="8257519582"/>
    <nd ref="30803725"/>
    <tag k="highway" v="tertiary"/>
    <tag k="lanes" v="2"/>
    <tag k="name" v="Whitehouse Lane"/>
    <tag k="surface" v="asphalt"/>
  </way>
  <way id="358675082" version="2" timestamp="2020-08-12T07:30:10Z" changeset="89286828" uid="3316592" user="Arthtoach">
    <nd ref="1951476533"/>
    <nd ref="1951476553"/>
    <nd ref="288493089"/>
    <tag k="highway" v="residential"/>
    <tag k="name" v="St Marys Avenue"/>
    <tag k="not:name" v="St Mary's Avenue"/>
    <tag k="not:name:note" v="Road sign doesn't have an apostrophe"/>
    <tag k="surface" v="asphalt"/>
  </way>
  <way id="467415709" version="2" timestamp="2020-07-25T16:27:24Z" changeset="88500385" uid="3316592" user="Arthtoach">
    <nd ref="7746993871"/>
    <nd ref="7746993873"/>
    <nd ref="4620374220"/>
    <nd ref="7746993874"/>
    <nd ref="7746993872"/>
    <nd ref="4620374219"/>
    <nd ref="4620374218"/>
    <nd ref="4620374221"/>
    <nd ref="7746993871"/>
    <tag k="addr:city" v="Leeds"/>
    <tag k="addr:postcode" v="LS26 8BZ"/>
    <tag k="addr:street" v="Swillington Lane"/>
    <tag k="building" v="yes"/>
    <tag k="name" v="Hollinthorpe Hall"/>
    <tag k="office" v="company"/>
    <tag k="smoking" v="no"/>
  </way>
  <way id="535997642" version="2" timestamp="2020-08-11T14:51:00Z" changeset="89258019" uid="3316592" user="Arthtoach">
    <nd ref="1965506899"/>
    <nd ref="1965506864"/>
    <nd ref="1599834176"/>
    <nd ref="31932490"/>
    <tag k="highway" v="trunk"/>
    <tag k="lanes" v="3"/>
    <tag k="maxspeed" v="50 mph"/>
    <tag k="name" v="Selby Road"/>
    <tag k="oneway" v="yes"/>
    <tag k="ref" v="A63"/>
    <tag k="sidewalk" v="left"/>
    <tag k="source" v="survey"/>
    <tag k="source_ref" v="GPS"/>
    <tag k="surface" v="asphalt"/>
    <tag k="turn:lanes" v="through|through|right"/>
  </way>
  <way id="535997643" version="4" timestamp="2023-09-02T21:54:41Z" changeset="140737352" uid="4543415" user="The_JF">
    <nd ref="26526495"/>
    <nd ref="6750210176"/>
    <nd ref="1965506856"/>
    <nd ref="11163893578"/>
    <nd ref="6750210124"/>
    <nd ref="26526494"/>
    <nd ref="6750214489"/>
    <nd ref="2091220771"/>
    <tag k="highway" v="trunk"/>
    <tag k="lanes" v="2"/>
    <tag k="maxspeed" v="50 mph"/>
    <tag k="name" v="Selby Road"/>
    <tag k="oneway" v="yes"/>
    <tag k="ref" v="A63"/>
    <tag k="surface" v="asphalt"/>
  </way>
  <way id="535997644" version="3" timestamp="2020-08-11T14:37:21Z" changeset="89257488" uid="3316592" user="Arthtoach">
    <nd ref="1056678307"/>
    <nd ref="5193439580"/>
    <tag k="highway" v="trunk"/>
    <tag k="lanes" v="2"/>
    <tag k="maxspeed" v="50 mph"/>
    <tag k="name" v="Selby Road"/>
    <tag k="oneway" v="yes"/>
    <tag k="ref" v="A63"/>
    <tag k="surface" v="asphalt"/>
    <tag k="turn:lanes" v="through|through;right"/>
  </way>
  <way id="535997645" version="4" timestamp="2022-08-26T19:27:35Z" changeset="125420561" uid="4543415" user="The_JF">
    <nd ref="5193439580"/>
    <nd ref="26526399"/>
    <nd ref="6403752149"/>
    <nd ref="26526400"/>
    <nd ref="2089142570"/>
    <nd ref="6403752150"/>
    <nd ref="26526402"/>
    <tag k="highway" v="trunk"/>
    <tag k="lanes" v="3"/>
    <tag k="maxspeed" v="40 mph"/>
    <tag k="name" v="Selby Road"/>
    <tag k="oneway" v="yes"/>
    <tag k="ref" v="A63"/>
    <tag k="surface" v="asphalt"/>
    <tag k="turn:lanes" v="through|through|right"/>
  </way>
  <way id="535997646" version="8" timestamp="2022-08-24T17:50:12Z" changeset="125326814" uid="4543415" user="The_JF">
    <nd ref="1599846317"/>
    <nd ref="2377536429"/>
    <nd ref="1599846473"/>
    <nd ref="1599846360"/>
    <nd ref="6403752159"/>
    <nd ref="1599846331"/>
    <nd ref="2089142612"/>
    <nd ref="6403752160"/>
    <nd ref="26526414"/>
    <tag k="bicycle" v="no"/>
    <tag k="foot" v="no"/>
    <tag k="highway" v="trunk"/>
    <tag k="lanes" v="2"/>
    <tag k="lit" v="yes"/>
    <tag k="maxspeed" v="40 mph"/>
    <tag k="name" v="Thorpe Park Link Road"/>
    <tag k="not:ref" v="A63"/>
    <tag k="oneway" v="yes"/>
    <tag k="ref" v="A6120"/>
    <tag k="source" v="survey"/>
    <tag k="source_ref" v="GPS"/>
    <tag k="surface" v="asphalt"/>
    <tag k="turn:lanes" v="left|through;right"/>
  </way>
  <way id="535997647" version="8" timestamp="2024-10-07T15:50:40Z" changeset="157588433" uid="5229644" user="Nathan_A_RF">
    <nd ref="244199864"/>
    <nd ref="2377558040"/>
    <nd ref="26526406"/>
    <tag k="highway" v="trunk"/>
    <tag k="junction" v="circular"/>
    <tag k="lanes" v="3"/>
    <tag k="lit" v="yes"/>
    <tag k="maxspeed" v="40 mph"/>
    <tag k="name" v="Austhorpe Interchange"/>
    <tag k="oneway" v="yes"/>
    <tag k="shoulder:left" v="no"/>
    <tag k="shoulder:right" v="no"/>
    <tag k="surface" v="asphalt"/>
    <tag k="turn:lanes" v="through|through|right"/>
  </way>
  <way id="535997648" version="10" timestamp="2024-10-07T15:50:40Z" changeset="157588433" uid="5229644" user="Nathan_A_RF">
    <nd ref="26526413"/>
    <nd ref="6403752158"/>
    <nd ref="2377536436"/>
    <nd ref="6403752157"/>
    <nd ref="26526414"/>
    <tag k="highway" v="trunk"/>
    <tag k="junction" v="circular"/>
    <tag k="lanes" v="3"/>
    <tag k="lit" v="yes"/>
    <tag k="maxspeed" v="40 mph"/>
    <tag k="name" v="Austhorpe Interchange"/>
    <tag k="oneway" v="yes"/>
    <tag k="shoulder:left" v="no"/>
    <tag k="shoulder:right" v="no"/>
    <tag k="sidewalk:left" v="separate"/>
    <tag k="sidewalk:right" v="no"/>
    <tag k="surface" v="asphalt"/>
    <tag k="turn:lanes" v="through|through|right"/>
  </way>
  <way id="535997649" version="10" timestamp="2024-10-07T15:50:40Z" changeset="157588433" uid="5229644" user="Nathan_A_RF">
    <nd ref="26526410"/>
    <nd ref="6403752136"/>
    <nd ref="1599846398"/>
    <tag k="highway" v="trunk"/>
    <tag k="junction" v="circular"/>
    <tag k="lanes" v="3"/>
    <tag k="lit" v="yes"/>
    <tag k="maxspeed" v="40 mph"/>
    <tag k="name" v="Austhorpe Interchange"/>
    <tag k="oneway" v="yes"/>
    <tag k="shoulder:left" v="no"/>
    <tag k="shoulder:right" v="no"/>
    <tag k="sidewalk:left" v="separate"/>
    <tag k="sidewalk:right" v="no"/>
    <tag k="surface" v="asphalt"/>
    <tag k="turn:lanes" v="left|left;through|through"/>
  </way>
  <way id="536001066" version="2" timestamp="2020-10-04T17:04:52Z" changeset="91940279" uid="3316592" user="Arthtoach">
    <nd ref="2256133675"/>
    <nd ref="52629017"/>
    <nd ref="2181404695"/>
    <nd ref="2089116578"/>
    <tag k="highway" v="trunk"/>
    <tag k="lanes" v="2"/>
    <tag k="lit" v="yes"/>
    <tag k="maxspeed" v="40 mph"/>
    <tag k="name" v="Selby Road"/>
    <tag k="oneway" v="yes"/>
    <tag k="ref" v="A63"/>
    <tag k="sidewalk" v="left"/>
    <tag k="source" v="survey"/>
    <tag k="source_ref" v="GPS"/>
    <tag k="surface" v="asphalt"/>
  </way>
  <way id="565864873" version="1" timestamp="2018-03-02T16:57:24Z" changeset="56826060" uid="592" user="JonS">
    <nd ref="5448637052"/>
    <nd ref="5448637045"/>
    <nd ref="5448637046"/>
    <nd ref="5448637047"/>
    <nd ref="5448637048"/>
    <nd ref="5448637049"/>
    <nd ref="5448637050"/>
    <nd ref="5448637051"/>
    <nd ref="5448637052"/>
    <tag k="addr:city" v="Leeds"/>
    <tag k="addr:postcode" v="LS26 8UA"/>
    <tag k="addr:street" v="Wakefield Road"/>
    <tag k="addr:suburb" v="Swillington"/>
    <tag k="building" v="yes"/>
    <tag k="fhrs:id" v="323213"/>
    <tag k="name" v="Northern Power Grid Training Centre"/>
  </way>
  <way id="636650481" version="3" timestamp="2022-06-05T06:12:29Z" changeset="121960431" uid="10364561" user="TrekClimbing">
    <nd ref="20979497"/>
    <nd ref="6363726077"/>
    <nd ref="26526464"/>
    <tag k="highway" v="unclassified"/>
    <tag k="junction" v="roundabout"/>
    <tag k="lanes" v="2"/>
    <tag k="lcn" v="yes"/>
    <tag k="lit" v="yes"/>
    <tag k="name" v="Century Way"/>
    <tag k="sidewalk:left" v="separate"/>
    <tag k="sidewalk:right" v="no"/>
  </way>
  <way id="663343102" version="2" timestamp="2021-03-12T19:52:30Z" changeset="100928747" uid="322039" user="MacLondon">
    <nd ref="4557569558"/>
    <nd ref="1489911157"/>
    <nd ref="26526504"/>
    <nd ref="1489911178"/>
    <nd ref="26526505"/>
    <nd ref="1489911159"/>
    <nd ref="26526506"/>
    <tag k="highway" v="trunk"/>
    <tag k="junction" v="roundabout"/>
    <tag k="lanes" v="2"/>
    <tag k="lit" v="yes"/>
    <tag k="maxspeed" v="40 mph"/>
    <tag k="surface" v="asphalt"/>
  </way>
  <way id="663343105" version="1" timestamp="2019-01-14T23:54:21Z" changeset="66318433" uid="4543415" user="The_JF">
    <nd ref="4552371368"/>
    <nd ref="26526500"/>
    <nd ref="3173657778"/>
    <nd ref="26526501"/>
    <nd ref="1489910140"/>
    <tag k="highway" v="trunk"/>
    <tag k="junction" v="roundabout"/>
    <tag k="lanes" v="2"/>
    <tag k="lit" v="yes"/>
    <tag k="maxspeed" v="40 mph"/>
    <tag k="surface" v="asphalt"/>
  </way>
  <way id="679615248" version="3" timestamp="2022-06-05T06:12:29Z" changeset="121960431" uid="10364561" user="TrekClimbing">
    <nd ref="26526464"/>
    <nd ref="20979500"/>
    <nd ref="26526463"/>
    <nd ref="6363726069"/>
    <nd ref="20979501"/>
    <tag k="highway" v="unclassified"/>
    <tag k="junction" v="roundabout"/>
    <tag k="lanes" v="2"/>
    <tag k="lcn" v="yes"/>
    <tag k="lit" v="yes"/>
    <tag k="name" v="Century Way"/>
    <tag k="sidewalk" v="no"/>
  </way>
  <way id="690329778" version="8" timestamp="2020-10-05T18:24:06Z" changeset="92002110" uid="3316592" user="Arthtoach">
    <nd ref="7837184137"/>
    <nd ref="422506208"/>
    <nd ref="7837184138"/>
    <nd ref="1951475913"/>
    <nd ref="422506209"/>
    <nd ref="451642714"/>
    <nd ref="422506210"/>
    <nd ref="1951475940"/>
    <nd ref="422506211"/>
    <nd ref="422506212"/>
    <nd ref="1951476019"/>
    <nd ref="422506213"/>
    <nd ref="7830378825"/>
    <nd ref="1951476080"/>
    <nd ref="1951476119"/>
    <nd ref="1951476139"/>
    <nd ref="7830378834"/>
    <nd ref="7830378836"/>
    <nd ref="1951476175"/>
    <nd ref="1951476194"/>
    <nd ref="1951476218"/>
    <nd ref="422506215"/>
    <nd ref="1951476373"/>
    <nd ref="1951476392"/>
    <nd ref="288493089"/>
    <nd ref="422506216"/>
    <nd ref="1515809861"/>
    <nd ref="1515809857"/>
    <nd ref="422506217"/>
    <nd ref="7805830620"/>
    <nd ref="1515809814"/>
    <tag k="highway" v="unclassified"/>
    <tag k="lanes" v="2"/>
    <tag k="maxspeed" v="30 mph"/>
    <tag k="name" v="Astley Lane"/>
    <tag k="sidewalk" v="both"/>
    <tag k="surface" v="asphalt"/>
  </way>
  <way id="690329779" version="1" timestamp="2019-05-15T21:05:06Z" changeset="70293969" uid="7666952" user="phodgkin">
    <nd ref="422506205"/>
    <nd ref="3581512804"/>
    <tag k="highway" v="unclassified"/>
    <tag k="name" v="Astley Lane"/>
  </way>
  <way id="690329780" version="2" timestamp="2020-08-12T07:20:00Z" changeset="89286188" uid="3316592" user="Arthtoach">
    <nd ref="3227481969"/>
    <nd ref="3581524043"/>
    <tag k="highway" v="primary"/>
    <tag k="lanes" v="2"/>
    <tag k="maxspeed" v="60 mph"/>
    <tag k="name" v="Wakefield Road"/>
    <tag k="ref" v="A642"/>
    <tag k="source" v="npe &amp; gpx"/>
    <tag k="surface" v="asphalt"/>
  </way>
  <way id="692789598" version="3" timestamp="2022-06-05T06:12:29Z" changeset="121960431" uid="10364561" user="TrekClimbing">
    <nd ref="20979501"/>
    <nd ref="26526462"/>
    <tag k="highway" v="unclassified"/>
    <tag k="junction" v="roundabout"/>
    <tag k="lanes" v="2"/>
    <tag k="lcn" v="yes"/>
    <tag k="lit" v="yes"/>
    <tag k="name" v="Century Way"/>
    <tag k="sidewalk:left" v="separate"/>
    <tag k="sidewalk:right" v="no"/>
    <tag k="surface" v="asphalt"/>
  </way>
  <way id="692789599" version="3" timestamp="2022-06-05T06:12:29Z" changeset="121960431" uid="10364561" user="TrekClimbing">
    <nd ref="20979498"/>
    <nd ref="26526465"/>
    <nd ref="6363726075"/>
    <nd ref="6363726076"/>
    <nd ref="20979497"/>
    <tag k="highway" v="unclassified"/>
    <tag k="junction" v="roundabout"/>
    <tag k="lanes" v="2"/>
    <tag k="lcn" v="yes"/>
    <tag k="lit" v="yes"/>
    <tag k="name" v="Century Way"/>
    <tag k="sidewalk" v="no"/>
    <tag k="surface" v="asphalt"/>
  </way>
  <way id="713010792" version="5" timestamp="2025-03-27T22:51:02Z" changeset="164185828" uid="8857" user="philipcullen">
    <nd ref="7807176226"/>
    <nd ref="7807176230"/>
    <nd ref="7807176229"/>
    <nd ref="7807176228"/>
    <nd ref="7807176225"/>
    <nd ref="7807176231"/>
    <nd ref="7807176233"/>
    <nd ref="7807176232"/>
    <nd ref="6702852845"/>
    <nd ref="7807176234"/>
    <nd ref="7807176235"/>
    <nd ref="7807176236"/>
    <nd ref="288493124"/>
    <nd ref="6702852840"/>
    <nd ref="6702852844"/>
    <nd ref="6702852839"/>
    <nd ref="6702852846"/>
    <nd ref="7807176226"/>
    <tag k="addr:city" v="Leeds"/>
    <tag k="addr:housenumber" v="1"/>
    <tag k="addr:postcode" v="LS26 8QN"/>
    <tag k="addr:street" v="Neville Grove"/>
    <tag k="amenity" v="fast_food"/>
    <tag k="building" v="retail"/>
    <tag k="fhrs:id" v="1384717"/>
    <tag k="name" v="Swillington Fisheries"/>
    <tag k="ref:GB:uprn" v="72721070;72329308"/>
  </way>
  <way id="713019098" version="4" timestamp="2025-03-27T22:51:02Z" changeset="164185828" uid="8857" user="philipcullen">
    <nd ref="6702941363"/>
    <nd ref="7807237890"/>
    <nd ref="7807237889"/>
    <nd ref="6702941364"/>
    <nd ref="6702941366"/>
    <nd ref="6702941365"/>
    <nd ref="30810938"/>
    <nd ref="6702941367"/>
    <nd ref="6702941369"/>
    <nd ref="6702941370"/>
    <nd ref="6702941371"/>
    <nd ref="6702941372"/>
    <nd ref="6702941373"/>
    <nd ref="6702941374"/>
    <nd ref="6702941363"/>
    <tag k="amenity" v="place_of_worship"/>
    <tag k="building" v="church"/>
    <tag k="denomination" v="anglican"/>
    <tag k="name" v="St Mary's Church"/>
    <tag k="ref:GB:uprn" v="72329120"/>
    <tag k="ref:dove" v="15572"/>
    <tag k="religion" v="christian"/>
    <tag k="wikidata" v="Q7590193"/>
  </way>
  <way id="715027899" version="2" timestamp="2025-03-27T22:51:02Z" changeset="164185828" uid="8857" user="philipcullen">
    <nd ref="6720668126"/>
    <nd ref="6720668127"/>
    <nd ref="6720668128"/>
    <nd ref="6720668129"/>
    <nd ref="6720668130"/>
    <nd ref="6720668131"/>
    <nd ref="6720668132"/>
    <nd ref="6720668133"/>
    <nd ref="6720668134"/>
    <nd ref="6720668135"/>
    <nd ref="6720668136"/>
    <nd ref="6720668137"/>
    <nd ref="6720668138"/>
    <nd ref="6720668139"/>
    <nd ref="6720668140"/>
    <nd ref="6720668141"/>
    <nd ref="6720668142"/>
    <nd ref="6720668143"/>
    <nd ref="6720668144"/>
    <nd ref="6720668145"/>
    <nd ref="6720668146"/>
    <nd ref="6720668147"/>
    <nd ref="6720668148"/>
    <nd ref="6720668149"/>
    <nd ref="6720668126"/>
    <tag k="building" v="industrial"/>
    <tag k="name" v="Rocol"/>
    <tag k="ref:GB:uprn" v="72750444"/>
  </way>
  <way id="721632905" version="1" timestamp="2019-09-03T14:01:15Z" changeset="74043343" uid="4543415" user="The_JF">
    <nd ref="2396565061"/>
    <nd ref="6769498012"/>
    <nd ref="6769498011"/>
    <nd ref="6769498013"/>
    <nd ref="6769498014"/>
    <nd ref="6769498015"/>
    <nd ref="6769498016"/>
    <nd ref="6769498030"/>
    <tag k="highway" v="residential"/>
    <tag k="motor_vehicle" v="permissive"/>
    <tag k="name" v="Hawthorn Terrace"/>
  </way>
  <way id="722276233" version="5" timestamp="2024-01-22T18:56:44Z" changeset="146565751" uid="16951803" user="Vas111">
    <nd ref="5041460469"/>
    <nd ref="5041460467"/>
    <nd ref="1590900157"/>
    <nd ref="2377558173"/>
    <nd ref="2377558231"/>
    <nd ref="1590900158"/>
    <nd ref="2377558059"/>
    <nd ref="319549"/>
    <nd ref="2377558136"/>
    <nd ref="1590900229"/>
    <nd ref="4860701220"/>
    <nd ref="2377558150"/>
    <nd ref="319559"/>
    <nd ref="1574696011"/>
    <nd ref="4860706322"/>
    <nd ref="319560"/>
    <nd ref="3140489849"/>
    <nd ref="319561"/>
    <nd ref="1574696004"/>
    <nd ref="319566"/>
    <tag k="carriageway_ref" v="A"/>
    <tag k="highway" v="motorway"/>
    <tag k="lanes" v="3"/>
    <tag k="lit" v="no"/>
    <tag k="maxheight" v="default"/>
    <tag k="maxspeed" v="70 mph"/>
    <tag k="maxspeed:type" v="GB:motorway"/>
    <tag k="national_highways:area" v="DBFO27"/>
    <tag k="oneway" v="yes"/>
    <tag k="operator" v="National Highways"/>
    <tag k="operator:wikidata" v="Q5760006"/>
    <tag k="ref" v="M1"/>
    <tag k="surface" v="asphalt"/>
  </way>
  <way id="722276234" version="4" timestamp="2024-01-22T18:56:44Z" changeset="146565751" uid="16951803" user="Vas111">
    <nd ref="1590900102"/>
    <nd ref="6775083163"/>
    <nd ref="6775083162"/>
    <nd ref="5041460469"/>
    <tag k="carriageway_ref" v="A"/>
    <tag k="highway" v="motorway"/>
    <tag k="lanes" v="5"/>
    <tag k="lit" v="no"/>
    <tag k="maxspeed" v="70 mph"/>
    <tag k="maxspeed:type" v="GB:motorway"/>
    <tag k="national_highways:area" v="DBFO27"/>
    <tag k="oneway" v="yes"/>
    <tag k="operator" v="National Highways"/>
    <tag k="operator:wikidata" v="Q5760006"/>
    <tag k="ref" v="M1"/>
    <tag k="surface" v="asphalt"/>
  </way>
  <way id="836124659" version="4" timestamp="2023-07-11T12:47:32Z" changeset="138379424" uid="1802093" user="Paul Berry">
    <nd ref="2089142607"/>
    <nd ref="7804113232"/>
    <nd ref="7804113213"/>
    <nd ref="7804113212"/>
    <nd ref="7804113211"/>
    <nd ref="2089142607"/>
    <tag k="addr:city" v="Leeds"/>
    <tag k="addr:housenumber" v="1"/>
    <tag k="addr:parentstreet" v="Providence Place"/>
    <tag k="addr:postcode" v="LS15 4LD"/>
    <tag k="addr:street" v="Cross Row"/>
    <tag k="addr:suburb" v="Swillington Common"/>
    <tag k="building" v="house"/>
    <tag k="house" v="terraced"/>
  </way>
  <way id="836124660" version="4" timestamp="2023-07-11T12:47:32Z" changeset="138379424" uid="1802093" user="Paul Berry">
    <nd ref="7804113232"/>
    <nd ref="7804113233"/>
    <nd ref="7804113234"/>
    <nd ref="7804113214"/>
    <nd ref="7804113213"/>
    <nd ref="7804113232"/>
    <tag k="addr:city" v="Leeds"/>
    <tag k="addr:housenumber" v="2"/>
    <tag k="addr:parentstreet" v="Providence Place"/>
    <tag k="addr:postcode" v="LS15 4LD"/>
    <tag k="addr:street" v="Cross Row"/>
    <tag k="addr:suburb" v="Swillington Common"/>
    <tag k="building" v="house"/>
    <tag k="house" v="terraced"/>
  </way>
  <way id="836124661" version="4" timestamp="2023-07-11T12:47:32Z" changeset="138379424" uid="1802093" user="Paul Berry">
    <nd ref="7804113236"/>
    <nd ref="7804113235"/>
    <nd ref="7804113237"/>
    <nd ref="7804113218"/>
    <nd ref="7804113216"/>
    <nd ref="7804113215"/>
    <nd ref="7804113236"/>
    <tag k="addr:city" v="Leeds"/>
    <tag k="addr:housenumber" v="4"/>
    <tag k="addr:parentstreet" v="Providence Place"/>
    <tag k="addr:postcode" v="LS15 4LD"/>
    <tag k="addr:street" v="Cross Row"/>
    <tag k="addr:suburb" v="Swillington Common"/>
    <tag k="building" v="house"/>
    <tag k="house" v="terraced"/>
  </way>
  <way id="836124662" version="4" timestamp="2023-07-11T12:47:32Z" changeset="138379424" uid="1802093" user="Paul Berry">
    <nd ref="7804113237"/>
    <nd ref="7804113238"/>
    <nd ref="7804113219"/>
    <nd ref="7804113217"/>
    <nd ref="7804113218"/>
    <nd ref="7804113237"/>
    <tag k="addr:city" v="Leeds"/>
    <tag k="addr:housenumber" v="5"/>
    <tag k="addr:parentstreet" v="Providence Place"/>
    <tag k="addr:postcode" v="LS15 4LD"/>
    <tag k="addr:street" v="Cross Row"/>
    <tag k="addr:suburb" v="Swillington Common"/>
    <tag k="building" v="house"/>
    <tag k="house" v="terraced"/>
  </way>
  <way id="836124663" version="4" timestamp="2023-07-11T12:47:32Z" changeset="138379424" uid="1802093" user="Paul Berry">
    <nd ref="7804113238"/>
    <nd ref="7804113239"/>
    <nd ref="7804113220"/>
    <nd ref="7804113219"/>
    <nd ref="7804113238"/>
    <tag k="addr:city" v="Leeds"/>
    <tag k="addr:housenumber" v="6"/>
    <tag k="addr:parentstreet" v="Providence Place"/>
    <tag k="addr:postcode" v="LS15 4LD"/>
    <tag k="addr:street" v="Cross Row"/>
    <tag k="addr:suburb" v="Swillington Common"/>
    <tag k="building" v="house"/>
    <tag k="house" v="terraced"/>
  </way>
  <way id="836124664" version="4" timestamp="2023-07-11T12:47:32Z" changeset="138379424" uid="1802093" user="Paul Berry">
    <nd ref="7804113239"/>
    <nd ref="7804113240"/>
    <nd ref="7804113241"/>
    <nd ref="7804113222"/>
    <nd ref="7804113221"/>
    <nd ref="7804113220"/>
    <nd ref="7804113239"/>
    <tag k="addr:city" v="Leeds"/>
    <tag k="addr:housenumber" v="7"/>
    <tag k="addr:parentstreet" v="Providence Place"/>
    <tag k="addr:postcode" v="LS15 4LD"/>
    <tag k="addr:street" v="Cross Row"/>
    <tag k="addr:suburb" v="Swillington Common"/>
    <tag k="building" v="house"/>
    <tag k="house" v="terraced"/>
  </way>
  <way id="836124665" version="4" timestamp="2023-07-11T12:47:32Z" changeset="138379424" uid="1802093" user="Paul Berry">
    <nd ref="7804113244"/>
    <nd ref="7804113245"/>
    <nd ref="7804113246"/>
    <nd ref="7804113225"/>
    <nd ref="7804113223"/>
    <nd ref="7804113244"/>
    <tag k="addr:city" v="Leeds"/>
    <tag k="addr:housenumber" v="10"/>
    <tag k="addr:parentstreet" v="Providence Place"/>
    <tag k="addr:postcode" v="LS15 4LD"/>
    <tag k="addr:street" v="Cross Row"/>
    <tag k="addr:suburb" v="Swillington Common"/>
    <tag k="building" v="house"/>
    <tag k="house" v="terraced"/>
  </way>
  <way id="836124666" version="4" timestamp="2023-07-11T12:47:32Z" changeset="138379424" uid="1802093" user="Paul Berry">
    <nd ref="7804113243"/>
    <nd ref="7804113242"/>
    <nd ref="7804113244"/>
    <nd ref="7804113223"/>
    <nd ref="7804113224"/>
    <nd ref="7804113243"/>
    <tag k="addr:city" v="Leeds"/>
    <tag k="addr:housenumber" v="9"/>
    <tag k="addr:parentstreet" v="Providence Place"/>
    <tag k="addr:postcode" v="LS15 4LD"/>
    <tag k="addr:street" v="Cross Row"/>
    <tag k="addr:suburb" v="Swillington Common"/>
    <tag k="building" v="house"/>
    <tag k="house" v="terraced"/>
  </way>
  <way id="836124667" version="4" timestamp="2023-07-11T12:47:32Z" changeset="138379424" uid="1802093" user="Paul Berry">
    <nd ref="7804113236"/>
    <nd ref="7804113234"/>
    <nd ref="7804113233"/>
    <nd ref="7804113235"/>
    <nd ref="7804113236"/>
    <tag k="addr:city" v="Leeds"/>
    <tag k="addr:housenumber" v="3"/>
    <tag k="addr:parentstreet" v="Providence Place"/>
    <tag k="addr:postcode" v="LS15 4LD"/>
    <tag k="addr:street" v="Cross Row"/>
    <tag k="addr:suburb" v="Swillington Common"/>
    <tag k="building" v="house"/>
    <tag k="house" v="terraced"/>
  </way>
  <way id="836124668" version="4" timestamp="2023-07-11T12:47:32Z" changeset="138379424" uid="1802093" user="Paul Berry">
    <nd ref="7804113243"/>
    <nd ref="7804113241"/>
    <nd ref="7804113240"/>
    <nd ref="7804113242"/>
    <nd ref="7804113243"/>
    <tag k="addr:city" v="Leeds"/>
    <tag k="addr:housenumber" v="8"/>
    <tag k="addr:parentstreet" v="Providence Place"/>
    <tag k="addr:postcode" v="LS15 4LD"/>
    <tag k="addr:street" v="Cross Row"/>
    <tag k="addr:suburb" v="Swillington Common"/>
    <tag k="building" v="house"/>
    <tag k="house" v="terraced"/>
  </way>
  <way id="836124669" version="4" timestamp="2023-07-11T12:47:32Z" changeset="138379424" uid="1802093" user="Paul Berry">
    <nd ref="7804113231"/>
    <nd ref="7804113230"/>
    <nd ref="7804113226"/>
    <nd ref="7804113227"/>
    <nd ref="7804113228"/>
    <nd ref="7804113229"/>
    <nd ref="2089142589"/>
    <nd ref="7804113246"/>
    <nd ref="7804113245"/>
    <nd ref="2089142662"/>
    <nd ref="7804113231"/>
    <tag k="addr:city" v="Leeds"/>
    <tag k="addr:housenumber" v="11"/>
    <tag k="addr:parentstreet" v="Providence Place"/>
    <tag k="addr:postcode" v="LS15 4LD"/>
    <tag k="addr:street" v="Cross Row"/>
    <tag k="addr:suburb" v="Swillington Common"/>
    <tag k="building" v="house"/>
    <tag k="house" v="terraced"/>
  </way>
  <way id="836124670" version="2" timestamp="2023-07-11T12:47:32Z" changeset="138379424" uid="1802093" user="Paul Berry">
    <nd ref="7804113250"/>
    <nd ref="7804113249"/>
    <nd ref="7804113248"/>
    <nd ref="7804113247"/>
    <nd ref="7804113269"/>
    <nd ref="7804113250"/>
    <tag k="addr:city" v="Leeds"/>
    <tag k="addr:housenumber" v="1"/>
    <tag k="addr:parentstreet" v="Providence Place"/>
    <tag k="addr:postcode" v="LS15 4LD"/>
    <tag k="addr:street" v="Middle Row"/>
    <tag k="addr:suburb" v="Swillington Common"/>
    <tag k="building" v="house"/>
    <tag k="house" v="terraced"/>
  </way>
  <way id="836124671" version="2" timestamp="2023-07-11T12:47:32Z" changeset="138379424" uid="1802093" user="Paul Berry">
    <nd ref="7804113252"/>
    <nd ref="7804113250"/>
    <nd ref="7804113249"/>
    <nd ref="7804113251"/>
    <nd ref="7804113252"/>
    <tag k="addr:city" v="Leeds"/>
    <tag k="addr:housenumber" v="2"/>
    <tag k="addr:parentstreet" v="Providence Place"/>
    <tag k="addr:postcode" v="LS15 4LD"/>
    <tag k="addr:street" v="Middle Row"/>
    <tag k="addr:suburb" v="Swillington Common"/>
    <tag k="building" v="house"/>
    <tag k="house" v="terraced"/>
  </way>
  <way id="836124672" version="2" timestamp="2023-07-11T12:47:32Z" changeset="138379424" uid="1802093" user="Paul Berry">
    <nd ref="7804113254"/>
    <nd ref="7804113252"/>
    <nd ref="7804113251"/>
    <nd ref="7804113253"/>
    <nd ref="7804113254"/>
    <tag k="addr:city" v="Leeds"/>
    <tag k="addr:housenumber" v="3"/>
    <tag k="addr:parentstreet" v="Providence Place"/>
    <tag k="addr:postcode" v="LS15 4LD"/>
    <tag k="addr:street" v="Middle Row"/>
    <tag k="addr:suburb" v="Swillington Common"/>
    <tag k="building" v="house"/>
    <tag k="house" v="terraced"/>
  </way>
  <way id="836124673" version="2" timestamp="2023-07-11T12:47:32Z" changeset="138379424" uid="1802093" user="Paul Berry">
    <nd ref="7804113256"/>
    <nd ref="7804113254"/>
    <nd ref="7804113253"/>
    <nd ref="7804113255"/>
    <nd ref="7804113256"/>
    <tag k="addr:city" v="Leeds"/>
    <tag k="addr:housenumber" v="4"/>
    <tag k="addr:parentstreet" v="Providence Place"/>
    <tag k="addr:postcode" v="LS15 4LD"/>
    <tag k="addr:street" v="Middle Row"/>
    <tag k="addr:suburb" v="Swillington Common"/>
    <tag k="building" v="house"/>
    <tag k="house" v="terraced"/>
  </way>
  <way id="836124674" version="2" timestamp="2023-07-11T12:47:32Z" changeset="138379424" uid="1802093" user="Paul Berry">
    <nd ref="7804113258"/>
    <nd ref="7804113256"/>
    <nd ref="7804113255"/>
    <nd ref="7804113257"/>
    <nd ref="7804113258"/>
    <tag k="addr:city" v="Leeds"/>
    <tag k="addr:housenumber" v="5"/>
    <tag k="addr:parentstreet" v="Providence Place"/>
    <tag k="addr:postcode" v="LS15 4LD"/>
    <tag k="addr:street" v="Middle Row"/>
    <tag k="addr:suburb" v="Swillington Common"/>
    <tag k="building" v="house"/>
    <tag k="house" v="terraced"/>
  </way>
  <way id="836124675" version="2" timestamp="2023-07-11T12:47:32Z" changeset="138379424" uid="1802093" user="Paul Berry">
    <nd ref="7804113260"/>
    <nd ref="7804113258"/>
    <nd ref="7804113257"/>
    <nd ref="7804113259"/>
    <nd ref="7804113260"/>
    <tag k="addr:city" v="Leeds"/>
    <tag k="addr:housenumber" v="6"/>
    <tag k="addr:parentstreet" v="Providence Place"/>
    <tag k="addr:postcode" v="LS15 4LD"/>
    <tag k="addr:street" v="Middle Row"/>
    <tag k="addr:suburb" v="Swillington Common"/>
    <tag k="building" v="house"/>
    <tag k="house" v="terraced"/>
  </way>
  <way id="836124676" version="2" timestamp="2023-07-11T12:47:32Z" changeset="138379424" uid="1802093" user="Paul Berry">
    <nd ref="7804113262"/>
    <nd ref="7804113260"/>
    <nd ref="7804113259"/>
    <nd ref="7804113261"/>
    <nd ref="7804113262"/>
    <tag k="addr:city" v="Leeds"/>
    <tag k="addr:housenumber" v="7"/>
    <tag k="addr:parentstreet" v="Providence Place"/>
    <tag k="addr:postcode" v="LS15 4LD"/>
    <tag k="addr:street" v="Middle Row"/>
    <tag k="addr:suburb" v="Swillington Common"/>
    <tag k="building" v="house"/>
    <tag k="house" v="terraced"/>
  </way>
  <way id="836124677" version="2" timestamp="2023-07-11T12:47:32Z" changeset="138379424" uid="1802093" user="Paul Berry">
    <nd ref="7804113264"/>
    <nd ref="7804113262"/>
    <nd ref="7804113261"/>
    <nd ref="7804113263"/>
    <nd ref="7804113264"/>
    <tag k="addr:city" v="Leeds"/>
    <tag k="addr:housenumber" v="8"/>
    <tag k="addr:parentstreet" v="Providence Place"/>
    <tag k="addr:postcode" v="LS15 4LD"/>
    <tag k="addr:street" v="Middle Row"/>
    <tag k="addr:suburb" v="Swillington Common"/>
    <tag k="building" v="house"/>
    <tag k="house" v="terraced"/>
  </way>
  <way id="836124678" version="2" timestamp="2023-07-11T12:47:32Z" changeset="138379424" uid="1802093" user="Paul Berry">
    <nd ref="7804113266"/>
    <nd ref="7804113264"/>
    <nd ref="7804113263"/>
    <nd ref="7804113265"/>
    <nd ref="7804113266"/>
    <tag k="addr:city" v="Leeds"/>
    <tag k="addr:housenumber" v="9"/>
    <tag k="addr:parentstreet" v="Providence Place"/>
    <tag k="addr:postcode" v="LS15 4LD"/>
    <tag k="addr:street" v="Middle Row"/>
    <tag k="addr:suburb" v="Swillington Common"/>
    <tag k="building" v="house"/>
    <tag k="house" v="terraced"/>
  </way>
  <way id="836124679" version="2" timestamp="2023-07-11T12:47:32Z" changeset="138379424" uid="1802093" user="Paul Berry">
    <nd ref="7804113268"/>
    <nd ref="7804113266"/>
    <nd ref="7804113265"/>
    <nd ref="7804113267"/>
    <nd ref="7804113268"/>
    <tag k="addr:city" v="Leeds"/>
    <tag k="addr:housenumber" v="10"/>
    <tag k="addr:parentstreet" v="Providence Place"/>
    <tag k="addr:postcode" v="LS15 4LD"/>
    <tag k="addr:street" v="Middle Row"/>
    <tag k="addr:suburb" v="Swillington Common"/>
    <tag k="building" v="house"/>
    <tag k="house" v="terraced"/>
  </way>
  <way id="836124680" version="2" timestamp="2023-07-11T12:47:32Z" changeset="138379424" uid="1802093" user="Paul Berry">
    <nd ref="7804120298"/>
    <nd ref="7804120296"/>
    <nd ref="7804113270"/>
    <nd ref="7804113271"/>
    <nd ref="7804120297"/>
    <nd ref="7804120298"/>
    <tag k="addr:city" v="Leeds"/>
    <tag k="addr:housenumber" v="4"/>
    <tag k="addr:parentstreet" v="Providence Place"/>
    <tag k="addr:postcode" v="LS15 4LD"/>
    <tag k="addr:street" v="Top Row"/>
    <tag k="addr:suburb" v="Swillington Common"/>
    <tag k="building" v="house"/>
    <tag k="house" v="terraced"/>
  </way>
  <way id="836124681" version="2" timestamp="2023-07-11T12:47:32Z" changeset="138379424" uid="1802093" user="Paul Berry">
    <nd ref="7804113272"/>
    <nd ref="7804113273"/>
    <nd ref="7804113274"/>
    <nd ref="7804120292"/>
    <nd ref="7804120291"/>
    <nd ref="7804113275"/>
    <nd ref="7804113276"/>
    <nd ref="7804120294"/>
    <nd ref="7804113272"/>
    <tag k="addr:city" v="Leeds"/>
    <tag k="addr:housenumber" v="6"/>
    <tag k="addr:parentstreet" v="Providence Place"/>
    <tag k="addr:postcode" v="LS15 4LD"/>
    <tag k="addr:street" v="Top Row"/>
    <tag k="addr:suburb" v="Swillington Common"/>
    <tag k="building" v="house"/>
    <tag k="house" v="terraced"/>
  </way>
  <way id="836124682" version="2" timestamp="2023-07-11T12:47:32Z" changeset="138379424" uid="1802093" user="Paul Berry">
    <nd ref="7804120286"/>
    <nd ref="7804120285"/>
    <nd ref="7804113283"/>
    <nd ref="7804113284"/>
    <nd ref="7804120287"/>
    <nd ref="7804113280"/>
    <nd ref="7804113277"/>
    <nd ref="7804113278"/>
    <nd ref="7804113279"/>
    <nd ref="7804120286"/>
    <tag k="addr:city" v="Leeds"/>
    <tag k="addr:housenumber" v="10"/>
    <tag k="addr:parentstreet" v="Providence Place"/>
    <tag k="addr:postcode" v="LS15 4LD"/>
    <tag k="addr:street" v="Top Row"/>
    <tag k="addr:suburb" v="Swillington Common"/>
    <tag k="building" v="house"/>
    <tag k="house" v="terraced"/>
  </way>
  <way id="836124683" version="2" timestamp="2023-07-11T12:47:32Z" changeset="138379424" uid="1802093" user="Paul Berry">
    <nd ref="7804120289"/>
    <nd ref="7804120290"/>
    <nd ref="7804120288"/>
    <nd ref="7804113282"/>
    <nd ref="7804113281"/>
    <nd ref="7804120289"/>
    <tag k="addr:city" v="Leeds"/>
    <tag k="addr:housenumber" v="8"/>
    <tag k="addr:parentstreet" v="Providence Place"/>
    <tag k="addr:postcode" v="LS15 4LD"/>
    <tag k="addr:street" v="Top Row"/>
    <tag k="addr:suburb" v="Swillington Common"/>
    <tag k="building" v="house"/>
    <tag k="house" v="terraced"/>
  </way>
  <way id="836124684" version="2" timestamp="2023-07-11T12:47:32Z" changeset="138379424" uid="1802093" user="Paul Berry">
    <nd ref="7804120288"/>
    <nd ref="7804120287"/>
    <nd ref="7804113284"/>
    <nd ref="7804113282"/>
    <nd ref="7804120288"/>
    <tag k="addr:city" v="Leeds"/>
    <tag k="addr:housenumber" v="9"/>
    <tag k="addr:parentstreet" v="Providence Place"/>
    <tag k="addr:postcode" v="LS15 4LD"/>
    <tag k="addr:street" v="Top Row"/>
    <tag k="addr:suburb" v="Swillington Common"/>
    <tag k="building" v="house"/>
    <tag k="house" v="terraced"/>
  </way>
  <way id="836124685" version="3" timestamp="2023-07-11T12:47:32Z" changeset="138379424" uid="1802093" user="Paul Berry">
    <nd ref="7804120286"/>
    <nd ref="7804120308"/>
    <nd ref="7804120305"/>
    <nd ref="7804120285"/>
    <nd ref="7804120286"/>
    <tag k="addr:city" v="Leeds"/>
    <tag k="addr:housenumber" v="11"/>
    <tag k="addr:parentstreet" v="Providence Place"/>
    <tag k="addr:postcode" v="LS15 4LD"/>
    <tag k="addr:street" v="Top Row"/>
    <tag k="addr:suburb" v="Swillington Common"/>
    <tag k="building" v="house"/>
    <tag k="house" v="terraced"/>
  </way>
  <way id="836124686" version="2" timestamp="2023-07-11T12:47:32Z" changeset="138379424" uid="1802093" user="Paul Berry">
    <nd ref="7804120292"/>
    <nd ref="7804120290"/>
    <nd ref="7804120289"/>
    <nd ref="7804120291"/>
    <nd ref="7804120292"/>
    <tag k="addr:city" v="Leeds"/>
    <tag k="addr:housenumber" v="7"/>
    <tag k="addr:parentstreet" v="Providence Place"/>
    <tag k="addr:postcode" v="LS15 4LD"/>
    <tag k="addr:street" v="Top Row"/>
    <tag k="addr:suburb" v="Swillington Common"/>
    <tag k="building" v="house"/>
    <tag k="house" v="terraced"/>
  </way>
  <way id="836124687" version="2" timestamp="2023-07-11T12:47:32Z" changeset="138379424" uid="1802093" user="Paul Berry">
    <nd ref="7804120296"/>
    <nd ref="7804120294"/>
    <nd ref="7804113276"/>
    <nd ref="7804113270"/>
    <nd ref="7804120296"/>
    <tag k="addr:city" v="Leeds"/>
    <tag k="addr:housenumber" v="5"/>
    <tag k="addr:parentstreet" v="Providence Place"/>
    <tag k="addr:postcode" v="LS15 4LD"/>
    <tag k="addr:street" v="Top Row"/>
    <tag k="addr:suburb" v="Swillington Common"/>
    <tag k="building" v="house"/>
    <tag k="house" v="terraced"/>
  </way>
  <way id="836124688" version="2" timestamp="2023-07-11T12:47:32Z" changeset="138379424" uid="1802093" user="Paul Berry">
    <nd ref="7804120300"/>
    <nd ref="7804120298"/>
    <nd ref="7804120297"/>
    <nd ref="7804120299"/>
    <nd ref="7804120300"/>
    <tag k="addr:city" v="Leeds"/>
    <tag k="addr:housenumber" v="3"/>
    <tag k="addr:parentstreet" v="Providence Place"/>
    <tag k="addr:postcode" v="LS15 4LD"/>
    <tag k="addr:street" v="Top Row"/>
    <tag k="addr:suburb" v="Swillington Common"/>
    <tag k="building" v="house"/>
    <tag k="house" v="terraced"/>
  </way>
  <way id="836124689" version="2" timestamp="2023-07-11T12:47:32Z" changeset="138379424" uid="1802093" user="Paul Berry">
    <nd ref="7804120302"/>
    <nd ref="7804120300"/>
    <nd ref="7804120299"/>
    <nd ref="7804120301"/>
    <nd ref="7804120302"/>
    <tag k="addr:city" v="Leeds"/>
    <tag k="addr:housenumber" v="2"/>
    <tag k="addr:parentstreet" v="Providence Place"/>
    <tag k="addr:postcode" v="LS15 4LD"/>
    <tag k="addr:street" v="Top Row"/>
    <tag k="addr:suburb" v="Swillington Common"/>
    <tag k="building" v="house"/>
    <tag k="house" v="terraced"/>
  </way>
  <way id="836124691" version="2" timestamp="2023-07-11T12:47:32Z" changeset="138379424" uid="1802093" user="Paul Berry">
    <nd ref="7804120307"/>
    <nd ref="7804120302"/>
    <nd ref="7804120301"/>
    <nd ref="7804120306"/>
    <nd ref="7804120307"/>
    <tag k="addr:city" v="Leeds"/>
    <tag k="addr:housenumber" v="1"/>
    <tag k="addr:parentstreet" v="Providence Place"/>
    <tag k="addr:postcode" v="LS15 4LD"/>
    <tag k="addr:street" v="Top Row"/>
    <tag k="addr:suburb" v="Swillington Common"/>
    <tag k="building" v="house"/>
    <tag k="house" v="terraced"/>
  </way>
  <way id="836127610" version="3" timestamp="2023-07-11T12:47:32Z" changeset="138379424" uid="1802093" user="Paul Berry">
    <nd ref="7804138701"/>
    <nd ref="2089142721"/>
    <nd ref="2089142563"/>
    <nd ref="7804138700"/>
    <nd ref="7804138701"/>
    <tag k="addr:city" v="Leeds"/>
    <tag k="addr:housenumber" v="2"/>
    <tag k="addr:postcode" v="LS15 4LF"/>
    <tag k="addr:street" v="Lowther Terrace"/>
    <tag k="addr:suburb" v="Swillington Common"/>
    <tag k="building" v="house"/>
    <tag k="house" v="terraced"/>
  </way>
  <way id="836127611" version="3" timestamp="2023-07-11T12:47:32Z" changeset="138379424" uid="1802093" user="Paul Berry">
    <nd ref="7804138703"/>
    <nd ref="7804138708"/>
    <nd ref="7804138709"/>
    <nd ref="7804138702"/>
    <nd ref="7804138703"/>
    <tag k="addr:city" v="Leeds"/>
    <tag k="addr:housenumber" v="3"/>
    <tag k="addr:postcode" v="LS15 4LF"/>
    <tag k="addr:street" v="Lowther Terrace"/>
    <tag k="addr:suburb" v="Swillington Common"/>
    <tag k="building" v="house"/>
    <tag k="house" v="terraced"/>
  </way>
  <way id="836127612" version="3" timestamp="2023-07-11T12:47:32Z" changeset="138379424" uid="1802093" user="Paul Berry">
    <nd ref="7804138705"/>
    <nd ref="7804138703"/>
    <nd ref="7804138702"/>
    <nd ref="7804138704"/>
    <nd ref="7804138705"/>
    <tag k="addr:city" v="Leeds"/>
    <tag k="addr:housenumber" v="4"/>
    <tag k="addr:postcode" v="LS15 4LF"/>
    <tag k="addr:street" v="Lowther Terrace"/>
    <tag k="addr:suburb" v="Swillington Common"/>
    <tag k="building" v="house"/>
    <tag k="house" v="terraced"/>
  </way>
  <way id="836127613" version="3" timestamp="2023-07-11T12:47:32Z" changeset="138379424" uid="1802093" user="Paul Berry">
    <nd ref="7804138707"/>
    <nd ref="7804138705"/>
    <nd ref="7804138704"/>
    <nd ref="7804138706"/>
    <nd ref="7804138707"/>
    <tag k="addr:city" v="Leeds"/>
    <tag k="addr:housenumber" v="5"/>
    <tag k="addr:postcode" v="LS15 4LF"/>
    <tag k="addr:street" v="Lowther Terrace"/>
    <tag k="addr:suburb" v="Swillington Common"/>
    <tag k="building" v="house"/>
    <tag k="house" v="terraced"/>
  </way>
  <way id="836137869" version="1" timestamp="2020-08-11T14:51:00Z" changeset="89258019" uid="3316592" user="Arthtoach">
    <nd ref="1724363231"/>
    <nd ref="26526495"/>
    <tag k="highway" v="trunk"/>
    <tag k="lanes" v="3"/>
    <tag k="lit" v="yes"/>
    <tag k="maxspeed" v="50 mph"/>
    <tag k="name" v="Selby Road"/>
    <tag k="oneway" v="yes"/>
    <tag k="ref" v="A63"/>
    <tag k="surface" v="asphalt"/>
    <tag k="turn:lanes" v="left|through|through"/>
  </way>
  <way id="836315621" version="1" timestamp="2020-08-12T07:30:10Z" changeset="89286828" uid="3316592" user="Arthtoach">
    <nd ref="30803703"/>
    <nd ref="7805830634"/>
    <nd ref="288492015"/>
    <tag k="highway" v="residential"/>
    <tag k="name" v="The Drive"/>
    <tag k="surface" v="asphalt"/>
  </way>
  <way id="836325554" version="1" timestamp="2020-08-12T08:06:53Z" changeset="89288948" uid="3316592" user="Arthtoach">
    <nd ref="21458273"/>
    <nd ref="7805941927"/>
    <tag k="highway" v="primary"/>
    <tag k="lanes" v="2"/>
    <tag k="lit" v="yes"/>
    <tag k="maxspeed" v="30 mph"/>
    <tag k="name" v="Wakefield Road"/>
    <tag k="ref" v="A642"/>
    <tag k="sidewalk" v="right"/>
    <tag k="source" v="npe &amp; gpx"/>
  </way>
  <way id="836325555" version="1" timestamp="2020-08-12T08:06:53Z" changeset="89288948" uid="3316592" user="Arthtoach">
    <nd ref="21458269"/>
    <nd ref="7750359639"/>
    <nd ref="1951476179"/>
    <nd ref="7750303990"/>
    <nd ref="288493049"/>
    <nd ref="1951476151"/>
    <nd ref="1951476122"/>
    <nd ref="288492976"/>
    <nd ref="30803671"/>
    <tag k="highway" v="primary"/>
    <tag k="lanes" v="2"/>
    <tag k="lit" v="yes"/>
    <tag k="maxspeed" v="30 mph"/>
    <tag k="name" v="Wakefield Road"/>
    <tag k="ref" v="A642"/>
    <tag k="source" v="npe &amp; gpx"/>
    <tag k="surface" v="asphalt"/>
  </way>
  <way id="836325556" version="1" timestamp="2020-08-12T08:06:53Z" changeset="89288948" uid="3316592" user="Arthtoach">
    <nd ref="7805941929"/>
    <nd ref="1951476617"/>
    <nd ref="1515809815"/>
    <nd ref="7805941930"/>
    <nd ref="1515809857"/>
    <tag k="highway" v="residential"/>
    <tag k="name" v="Church Crescent"/>
    <tag k="sidewalk" v="both"/>
    <tag k="surface" v="asphalt"/>
  </way>
  <way id="836469963" version="3" timestamp="2025-03-27T22:51:02Z" changeset="164185828" uid="8857" user="philipcullen">
    <nd ref="7807224434"/>
    <nd ref="7807224433"/>
    <nd ref="7807224432"/>
    <nd ref="7807224431"/>
    <nd ref="7807224434"/>
    <tag k="amenity" v="community_centre"/>
    <tag k="building" v="public"/>
    <tag k="community_centre" v="village_hall"/>
    <tag k="name" v="Swillington Village Hall"/>
    <tag k="ref:GB:uprn" v="72329134"/>
  </way>
  <way id="851939303" version="1" timestamp="2020-09-26T23:43:14Z" changeset="91566116" uid="4543415" user="The_JF">
    <nd ref="21458272"/>
    <nd ref="2185695083"/>
    <nd ref="1515809835"/>
    <nd ref="5864321964"/>
    <nd ref="1951476621"/>
    <tag k="highway" v="primary"/>
    <tag k="lanes" v="2"/>
    <tag k="lit" v="yes"/>
    <tag k="maxspeed" v="30 mph"/>
    <tag k="name" v="Wakefield Road"/>
    <tag k="ref" v="A642"/>
    <tag k="sidewalk" v="both"/>
    <tag k="source" v="npe &amp; gpx"/>
  </way>
  <way id="851939304" version="5" timestamp="2024-06-15T21:34:22Z" changeset="152739266" uid="20112387" user="Anton Khorev (repair)">
    <nd ref="288491680"/>
    <nd ref="7749833996"/>
    <nd ref="30803685"/>
    <nd ref="7946397500"/>
    <nd ref="7749833997"/>
    <nd ref="30803686"/>
    <nd ref="7749833998"/>
    <nd ref="30803687"/>
    <nd ref="3395992358"/>
    <nd ref="7749842692"/>
    <nd ref="30803688"/>
    <nd ref="7749833999"/>
    <nd ref="7749842697"/>
    <nd ref="30803689"/>
    <nd ref="7749842694"/>
    <nd ref="7749834000"/>
    <nd ref="30803690"/>
    <nd ref="7749842708"/>
    <nd ref="7749842711"/>
    <nd ref="7749842717"/>
    <nd ref="7749842699"/>
    <nd ref="30803691"/>
    <nd ref="288493146"/>
    <nd ref="7749834001"/>
    <nd ref="1833178243"/>
    <nd ref="7749834002"/>
    <nd ref="30803692"/>
    <nd ref="7749834003"/>
    <nd ref="1833178246"/>
    <nd ref="30803693"/>
    <tag k="highway" v="tertiary"/>
    <tag k="lanes" v="2"/>
    <tag k="surface" v="asphalt"/>
  </way>
  <way id="854966240" version="3" timestamp="2025-03-29T12:03:38Z" changeset="164246580" uid="8857" user="philipcullen">
    <nd ref="7973615209"/>
    <nd ref="2091633376"/>
    <nd ref="2091633267"/>
    <nd ref="7973615208"/>
    <nd ref="7973615209"/>
    <tag k="addr:city" v="Leeds"/>
    <tag k="addr:housenumber" v="1"/>
    <tag k="addr:parentstreet" v="Selby Road"/>
    <tag k="addr:postcode" v="LS25 1LZ"/>
    <tag k="addr:street" v="Hawthorn Terrace"/>
    <tag k="addr:suburb" v="Garforth"/>
    <tag k="building" v="house"/>
    <tag k="house" v="terraced"/>
    <tag k="ref:GB:uprn" v="72390145"/>
  </way>
  <way id="854966241" version="3" timestamp="2025-03-29T12:03:38Z" changeset="164246580" uid="8857" user="philipcullen">
    <nd ref="7973615211"/>
    <nd ref="7973615209"/>
    <nd ref="7973615208"/>
    <nd ref="7973615210"/>
    <nd ref="7973615211"/>
    <tag k="addr:city" v="Leeds"/>
    <tag k="addr:housenumber" v="2"/>
    <tag k="addr:parentstreet" v="Selby Road"/>
    <tag k="addr:postcode" v="LS25 1LZ"/>
    <tag k="addr:street" v="Hawthorn Terrace"/>
    <tag k="addr:suburb" v="Garforth"/>
    <tag k="building" v="house"/>
    <tag k="house" v="terraced"/>
    <tag k="ref:GB:uprn" v="72390146"/>
  </way>
  <way id="854966242" version="3" timestamp="2025-03-29T12:03:38Z" changeset="164246580" uid="8857" user="philipcullen">
    <nd ref="7973615213"/>
    <nd ref="7973615211"/>
    <nd ref="7973615210"/>
    <nd ref="7973615212"/>
    <nd ref="7973615213"/>
    <tag k="addr:city" v="Leeds"/>
    <tag k="addr:housenumber" v="3"/>
    <tag k="addr:parentstreet" v="Selby Road"/>
    <tag k="addr:postcode" v="LS25 1LZ"/>
    <tag k="addr:street" v="Hawthorn Terrace"/>
    <tag k="addr:suburb" v="Garforth"/>
    <tag k="building" v="house"/>
    <tag k="house" v="terraced"/>
    <tag k="ref:GB:uprn" v="72390147"/>
  </way>
  <way id="854966243" version="3" timestamp="2025-03-29T12:03:38Z" changeset="164246580" uid="8857" user="philipcullen">
    <nd ref="7973615215"/>
    <nd ref="7973615213"/>
    <nd ref="7973615212"/>
    <nd ref="7973615214"/>
    <nd ref="7973615215"/>
    <tag k="addr:city" v="Leeds"/>
    <tag k="addr:housenumber" v="4"/>
    <tag k="addr:parentstreet" v="Selby Road"/>
    <tag k="addr:postcode" v="LS25 1LZ"/>
    <tag k="addr:street" v="Hawthorn Terrace"/>
    <tag k="addr:suburb" v="Garforth"/>
    <tag k="building" v="house"/>
    <tag k="house" v="terraced"/>
    <tag k="ref:GB:uprn" v="72390148"/>
  </way>
  <way id="854966244" version="3" timestamp="2025-03-29T12:03:38Z" changeset="164246580" uid="8857" user="philipcullen">
    <nd ref="7973615217"/>
    <nd ref="7973615215"/>
    <nd ref="7973615214"/>
    <nd ref="7973615216"/>
    <nd ref="7973615217"/>
    <tag k="addr:city" v="Leeds"/>
    <tag k="addr:housenumber" v="5"/>
    <tag k="addr:parentstreet" v="Selby Road"/>
    <tag k="addr:postcode" v="LS25 1LZ"/>
    <tag k="addr:street" v="Hawthorn Terrace"/>
    <tag k="addr:suburb" v="Garforth"/>
    <tag k="building" v="house"/>
    <tag k="house" v="terraced"/>
    <tag k="ref:GB:uprn" v="72390149"/>
  </way>
  <way id="854966245" version="2" timestamp="2023-07-11T12:04:45Z" changeset="138377342" uid="1802093" user="Paul Berry">
    <nd ref="7973615219"/>
    <nd ref="7973615217"/>
    <nd ref="7973615216"/>
    <nd ref="7973615218"/>
    <nd ref="7973615219"/>
    <tag k="addr:city" v="Leeds"/>
    <tag k="addr:housenumber" v="6"/>
    <tag k="addr:parentstreet" v="Selby Road"/>
    <tag k="addr:postcode" v="LS25 1LZ"/>
    <tag k="addr:street" v="Hawthorn Terrace"/>
    <tag k="addr:suburb" v="Garforth"/>
    <tag k="building" v="house"/>
    <tag k="house" v="terraced"/>
  </way>
  <way id="854966246" version="2" timestamp="2023-07-11T12:04:45Z" changeset="138377342" uid="1802093" user="Paul Berry">
    <nd ref="7973615221"/>
    <nd ref="7973615219"/>
    <nd ref="7973615218"/>
    <nd ref="7973615220"/>
    <nd ref="7973615221"/>
    <tag k="addr:city" v="Leeds"/>
    <tag k="addr:housenumber" v="7"/>
    <tag k="addr:parentstreet" v="Selby Road"/>
    <tag k="addr:postcode" v="LS25 1LZ"/>
    <tag k="addr:street" v="Hawthorn Terrace"/>
    <tag k="addr:suburb" v="Garforth"/>
    <tag k="building" v="house"/>
    <tag k="house" v="terraced"/>
  </way>
  <way id="854966247" version="2" timestamp="2023-07-11T12:04:45Z" changeset="138377342" uid="1802093" user="Paul Berry">
    <nd ref="7973615223"/>
    <nd ref="7973615221"/>
    <nd ref="7973615220"/>
    <nd ref="7973615222"/>
    <nd ref="7973615223"/>
    <tag k="addr:city" v="Leeds"/>
    <tag k="addr:housenumber" v="8"/>
    <tag k="addr:parentstreet" v="Selby Road"/>
    <tag k="addr:postcode" v="LS25 1LZ"/>
    <tag k="addr:street" v="Hawthorn Terrace"/>
    <tag k="addr:suburb" v="Garforth"/>
    <tag k="building" v="house"/>
    <tag k="house" v="terraced"/>
  </way>
  <way id="854966248" version="2" timestamp="2023-07-11T12:04:45Z" changeset="138377342" uid="1802093" user="Paul Berry">
    <nd ref="7973615225"/>
    <nd ref="7973615223"/>
    <nd ref="7973615222"/>
    <nd ref="7973615224"/>
    <nd ref="7973615225"/>
    <tag k="addr:city" v="Leeds"/>
    <tag k="addr:housenumber" v="9"/>
    <tag k="addr:parentstreet" v="Selby Road"/>
    <tag k="addr:postcode" v="LS25 1LZ"/>
    <tag k="addr:street" v="Hawthorn Terrace"/>
    <tag k="addr:suburb" v="Garforth"/>
    <tag k="building" v="house"/>
    <tag k="house" v="terraced"/>
  </way>
  <way id="855577584" version="1" timestamp="2020-10-05T18:24:06Z" changeset="92002110" uid="3316592" user="Arthtoach">
    <nd ref="3581512804"/>
    <nd ref="7837184136"/>
    <nd ref="422506206"/>
    <nd ref="422506207"/>
    <nd ref="7837184137"/>
    <tag k="highway" v="unclassified"/>
    <tag k="lanes" v="2"/>
    <tag k="name" v="Astley Lane"/>
    <tag k="sidewalk" v="both"/>
    <tag k="surface" v="asphalt"/>
  </way>
  <way id="915694295" version="3" timestamp="2024-06-15T21:34:22Z" changeset="152739266" uid="20112387" user="Anton Khorev (repair)">
    <nd ref="26526495"/>
    <nd ref="31932490"/>
    <tag k="highway" v="tertiary"/>
    <tag k="lanes" v="2"/>
    <tag k="name" v="Swillington Lane"/>
    <tag k="surface" v="asphalt"/>
  </way>
  <way id="916419796" version="1" timestamp="2021-03-12T19:52:30Z" changeset="100928747" uid="322039" user="MacLondon">
    <nd ref="26526499"/>
    <nd ref="4552371368"/>
    <tag k="highway" v="trunk"/>
    <tag k="junction" v="roundabout"/>
    <tag k="lanes" v="2"/>
    <tag k="lit" v="yes"/>
    <tag k="maxspeed" v="40 mph"/>
    <tag k="surface" v="asphalt"/>
  </way>
  <way id="916419797" version="1" timestamp="2021-03-12T19:52:30Z" changeset="100928747" uid="322039" user="MacLondon">
    <nd ref="26526506"/>
    <nd ref="26526507"/>
    <nd ref="3173657782"/>
    <nd ref="26526499"/>
    <tag k="highway" v="trunk"/>
    <tag k="junction" v="roundabout"/>
    <tag k="lanes" v="2"/>
    <tag k="lit" v="yes"/>
    <tag k="maxspeed" v="40 mph"/>
    <tag k="surface" v="asphalt"/>
  </way>
  <way id="1066850045" version="1" timestamp="2022-06-05T06:12:29Z" changeset="121960431" uid="10364561" user="TrekClimbing">
    <nd ref="20979503"/>
    <nd ref="26526467"/>
    <nd ref="6363726074"/>
    <nd ref="20979498"/>
    <tag k="highway" v="unclassified"/>
    <tag k="junction" v="roundabout"/>
    <tag k="lanes" v="2"/>
    <tag k="lcn" v="yes"/>
    <tag k="lit" v="yes"/>
    <tag k="name" v="Century Way"/>
    <tag k="sidewalk:left" v="separate"/>
    <tag k="sidewalk:right" v="no"/>
    <tag k="surface" v="asphalt"/>
  </way>
  <way id="1066850046" version="1" timestamp="2022-06-05T06:12:29Z" changeset="121960431" uid="10364561" user="TrekClimbing">
    <nd ref="6363726071"/>
    <nd ref="6363726072"/>
    <nd ref="20979502"/>
    <tag k="highway" v="unclassified"/>
    <tag k="junction" v="roundabout"/>
    <tag k="lanes" v="2"/>
    <tag k="lcn" v="yes"/>
    <tag k="lit" v="yes"/>
    <tag k="name" v="Century Way"/>
    <tag k="sidewalk:left" v="separate"/>
    <tag k="sidewalk:right" v="no"/>
    <tag k="surface" v="asphalt"/>
  </way>
  <way id="1066850047" version="1" timestamp="2022-06-05T06:12:29Z" changeset="121960431" uid="10364561" user="TrekClimbing">
    <nd ref="20979502"/>
    <nd ref="26526466"/>
    <nd ref="6363726073"/>
    <nd ref="20979503"/>
    <tag k="highway" v="unclassified"/>
    <tag k="junction" v="roundabout"/>
    <tag k="lanes" v="2"/>
    <tag k="lcn" v="yes"/>
    <tag k="lit" v="yes"/>
    <tag k="name" v="Century Way"/>
    <tag k="sidewalk" v="no"/>
    <tag k="surface" v="asphalt"/>
  </way>
  <way id="1066850049" version="1" timestamp="2022-06-05T06:12:29Z" changeset="121960431" uid="10364561" user="TrekClimbing">
    <nd ref="26526462"/>
    <nd ref="6363726070"/>
    <nd ref="20979499"/>
    <nd ref="26526468"/>
    <nd ref="6363726071"/>
    <tag k="highway" v="unclassified"/>
    <tag k="junction" v="roundabout"/>
    <tag k="lanes" v="2"/>
    <tag k="lcn" v="yes"/>
    <tag k="lit" v="yes"/>
    <tag k="name" v="Century Way"/>
    <tag k="sidewalk" v="no"/>
    <tag k="surface" v="asphalt"/>
  </way>
  <way id="1089251494" version="1" timestamp="2022-08-25T19:14:43Z" changeset="125375995" uid="4543415" user="The_JF">
    <nd ref="9978144259"/>
    <nd ref="9978144260"/>
    <nd ref="9978144261"/>
    <nd ref="9978144262"/>
    <nd ref="9978144259"/>
    <tag k="amenity" v="car_wash"/>
    <tag k="building" v="roof"/>
    <tag k="layer" v="1"/>
    <tag k="name" v="Colton Hand Car"/>
  </way>
  <way id="1188922351" version="1" timestamp="2023-07-11T12:47:32Z" changeset="138379424" uid="1802093" user="Paul Berry">
    <nd ref="3394211008"/>
    <nd ref="2089142522"/>
    <nd ref="2089142654"/>
    <nd ref="3394211011"/>
    <nd ref="3394211008"/>
    <tag k="addr:city" v="Leeds"/>
    <tag k="addr:housenumber" v="1"/>
    <tag k="addr:parentstreet" v="Selby Road"/>
    <tag k="addr:postcode" v="LS15 4LB"/>
    <tag k="addr:street" v="South Row"/>
    <tag k="addr:suburb" v="Swillington Common"/>
    <tag k="building" v="house"/>
    <tag k="house" v="semi-detached"/>
  </way>
  <relation id="9995949" version="5" timestamp="2024-06-16T17:41:16Z" changeset="152770882" uid="20112387" user="Anton Khorev (repair)">
    <member type="way" ref="218755389" role="outer"/>
    <member type="way" ref="721632917" role="inner"/>
    <tag k="access" v="private"/>
    <tag k="addr:city" v="Leeds"/>
    <tag k="addr:postcode" v="LS25 1NA"/>
    <tag k="addr:street" v="Selby Road"/>
    <tag k="building" v="hospital"/>
    <tag k="emergency" v="no"/>
    <tag k="fhrs:id" v="321230"/>
    <tag k="name" v="Waterloo Manor"/>
    <tag k="type" v="multipolygon"/>
  </relation>

</osm>
