<?xml version="1.0" encoding="UTF-8"?>
<osm version="0.6" generator="Overpass API 0.7.62.5 1bd436f1">
<note>The data included in this document is from www.openstreetmap.org. The data is made available under ODbL.</note>
<meta osm_base="2025-05-18T02:44:59Z" areas="2024-12-31T00:49:33Z"/>

  <node id="21050451" lat="50.1505930" lon="14.5129347" version="9" timestamp="2024-10-07T09:35:55Z" changeset="157573363" uid="101128" user="LuKo"/>
  <node id="28557237" lat="50.1467719" lon="14.5582098" version="6" timestamp="2021-04-05T10:02:37Z" changeset="102322328" uid="1189910" user="Milancer"/>
  <node id="28558104" lat="50.1561640" lon="14.5415471" version="5" timestamp="2024-11-02T20:20:07Z" changeset="158675539" uid="1189910" user="Milancer"/>
  <node id="28586135" lat="50.1482531" lon="14.5138079" version="5" timestamp="2011-04-25T12:20:24Z" changeset="7961486" uid="3516" user="BiIbo"/>
  <node id="156368057" lat="50.1509398" lon="14.5424813" version="5" timestamp="2011-11-24T15:41:37Z" changeset="9934269" uid="102554" user="Jezevec"/>
  <node id="156368062" lat="50.1480080" lon="14.5453989" version="3" timestamp="2011-02-26T22:05:56Z" changeset="7405031" uid="412792" user="Buft"/>
  <node id="158723822" lat="50.1590847" lon="14.5228682" version="8" timestamp="2008-11-16T15:34:33Z" changeset="756854" uid="17606" user="Martin Vidner"/>
  <node id="158734457" lat="50.1623511" lon="14.5258139" version="5" timestamp="2025-01-15T16:23:48Z" changeset="161387495" uid="100163" user="Hlav"/>
  <node id="291997977" lat="50.1622860" lon="14.5234084" version="4" timestamp="2011-04-25T11:35:31Z" changeset="7961486" uid="3516" user="BiIbo"/>
  <node id="312528859" lat="50.1551796" lon="14.5144295" version="2" timestamp="2018-11-28T01:47:35Z" changeset="64955932" uid="3003739" user="r00tcz"/>
  <node id="312528860" lat="50.1541322" lon="14.5126134" version="2" timestamp="2023-02-26T19:30:51Z" changeset="133056685" uid="1189910" user="Milancer"/>
  <node id="925971817" lat="50.1492395" lon="14.5045533" version="5" timestamp="2025-04-10T21:53:01Z" changeset="164789004" uid="4018695" user="游뻟릖 Roman Horn칤k"/>
  <node id="1175743717" lat="50.1508999" lon="14.5377005" version="2" timestamp="2025-04-10T21:53:01Z" changeset="164789004" uid="4018695" user="游뻟릖 Roman Horn칤k"/>
  <node id="1259454154" lat="50.1540501" lon="14.5116822" version="2" timestamp="2023-02-26T19:30:51Z" changeset="133056685" uid="1189910" user="Milancer"/>
  <node id="2117654885" lat="50.1513448" lon="14.5366502" version="2" timestamp="2018-12-02T20:58:18Z" changeset="65105582" uid="3003739" user="r00tcz"/>
  <node id="2124816533" lat="50.1519677" lon="14.5010111" version="2" timestamp="2013-11-29T12:04:09Z" changeset="19177164" uid="100163" user="Hlav"/>
  <node id="5159298899" lat="50.1446981" lon="14.5055073" version="1" timestamp="2017-10-10T16:14:29Z" changeset="52798989" uid="17615" user="Petr Dlouh칳"/>
  <node id="9662903574" lat="50.1500380" lon="14.4994593" version="1" timestamp="2022-04-13T11:18:42Z" changeset="119663167" uid="14728745" user="Sammamish"/>
  <way id="4053787" version="4" timestamp="2010-02-15T01:26:28Z" changeset="3879903" uid="3516" user="BiIbo">
    <nd ref="21050392"/>
    <nd ref="639361674"/>
    <nd ref="21050393"/>
    <nd ref="243951407"/>
    <tag k="highway" v="residential"/>
  </way>
  <way id="4558709" version="42" timestamp="2025-04-04T15:32:24Z" changeset="164512999" uid="21324687" user="mmatous">
    <nd ref="5159298902"/>
    <nd ref="28587947"/>
    <nd ref="281238533"/>
    <tag k="cycleway:both" v="track"/>
    <tag k="highway" v="secondary"/>
    <tag k="lanes" v="4"/>
    <tag k="lit" v="yes"/>
    <tag k="name" v="Tupolevova"/>
    <tag k="sidewalk:left" v="no"/>
    <tag k="sidewalk:right" v="separate"/>
    <tag k="surface" v="asphalt"/>
    <tag k="trolley_wire" v="yes"/>
  </way>
  <way id="4558721" version="18" timestamp="2025-04-04T15:36:50Z" changeset="164515029" uid="21324687" user="mmatous">
    <nd ref="2193318547"/>
    <nd ref="10103652866"/>
    <nd ref="28586325"/>
    <nd ref="10103652867"/>
    <nd ref="2193318551"/>
    <nd ref="28586347"/>
    <tag k="cycleway:right" v="no"/>
    <tag k="highway" v="secondary"/>
    <tag k="junction" v="roundabout"/>
    <tag k="lanes" v="1"/>
    <tag k="maxspeed:type" v="CZ:urban"/>
    <tag k="smoothness" v="excellent"/>
    <tag k="surface" v="asphalt"/>
    <tag k="trolley_wire" v="yes"/>
  </way>
  <way id="4558722" version="28" timestamp="2024-12-03T06:35:16Z" changeset="159867661" uid="16912130" user="Ondra (CZ)">
    <nd ref="925967283"/>
    <nd ref="4998819013"/>
    <nd ref="28586222"/>
    <nd ref="4998818989"/>
    <nd ref="4998818986"/>
    <nd ref="21050451"/>
    <tag k="highway" v="tertiary"/>
    <tag k="lanes" v="2"/>
    <tag k="lit" v="yes"/>
    <tag k="maxspeed" v="50"/>
    <tag k="name" v="Kosteleck치"/>
    <tag k="surface" v="asphalt"/>
    <tag k="trolley_wire" v="no"/>
  </way>
  <way id="4558723" version="8" timestamp="2017-07-28T01:25:33Z" changeset="50635267" uid="3003739" user="r00tcz">
    <nd ref="21050451"/>
    <nd ref="1570914250"/>
    <nd ref="1259454631"/>
    <nd ref="1259454391"/>
    <nd ref="1259454734"/>
    <nd ref="4998818964"/>
    <nd ref="359232359"/>
    <nd ref="28586135"/>
    <tag k="highway" v="residential"/>
    <tag k="name" v="Za Avi칤"/>
  </way>
  <way id="4558724" version="6" timestamp="2018-05-11T10:42:59Z" changeset="58874634" uid="10345" user="Mormegil">
    <nd ref="28586081"/>
    <nd ref="28586106"/>
    <tag k="highway" v="residential"/>
    <tag k="name" v="UN치dra쮂"/>
  </way>
  <way id="4558725" version="5" timestamp="2018-05-11T10:42:59Z" changeset="58874634" uid="10345" user="Mormegil">
    <nd ref="1259454409"/>
    <nd ref="1026423280"/>
    <nd ref="359232355"/>
    <nd ref="28586081"/>
    <nd ref="170345648"/>
    <nd ref="343587026"/>
    <nd ref="21050450"/>
    <tag k="highway" v="residential"/>
    <tag k="name" v="Kㅁvii"/>
    <tag k="oneway" v="yes"/>
  </way>
  <way id="4558727" version="13" timestamp="2025-01-06T16:14:51Z" changeset="161064982" uid="100163" user="Hlav">
    <nd ref="1259454719"/>
    <nd ref="21050398"/>
    <nd ref="1026423601"/>
    <nd ref="1259454640"/>
    <nd ref="2250319157"/>
    <nd ref="21050397"/>
    <nd ref="1259407173"/>
    <nd ref="12478808767"/>
    <nd ref="158714263"/>
    <tag k="highway" v="residential"/>
    <tag k="maxspeed" v="30"/>
    <tag k="maxspeed:type" v="CZ:zone30"/>
    <tag k="name" v="Jizersk치"/>
    <tag k="surface" v="asphalt"/>
  </way>
  <way id="4558728" version="21" timestamp="2024-10-20T22:43:59Z" changeset="158148067" uid="25867" user="adamos">
    <nd ref="1026423596"/>
    <nd ref="1026423241"/>
    <nd ref="2099615633"/>
    <nd ref="12231334684"/>
    <nd ref="158714942"/>
    <nd ref="7948597955"/>
    <nd ref="21050392"/>
    <nd ref="158715954"/>
    <tag k="highway" v="residential"/>
    <tag k="lane_markings" v="no"/>
    <tag k="lit" v="yes"/>
    <tag k="maxspeed:type" v="CZ:urban"/>
    <tag k="name" v="Ke Stadionu"/>
    <tag k="surface" v="asphalt"/>
    <tag k="trolley_wire" v="no"/>
  </way>
  <way id="4558731" version="9" timestamp="2021-11-25T15:38:23Z" changeset="114227882" uid="100163" user="Hlav">
    <nd ref="28585919"/>
    <nd ref="9283487206"/>
    <nd ref="2099623108"/>
    <nd ref="2099623109"/>
    <nd ref="2099623110"/>
    <nd ref="158716964"/>
    <tag k="highway" v="residential"/>
    <tag k="name" v="칔slavsk치"/>
    <tag k="oneway" v="yes"/>
    <tag k="surface" v="paving_stones"/>
  </way>
  <way id="4558734" version="10" timestamp="2023-09-01T06:42:48Z" changeset="140663642" uid="20038671" user="Jan Andrle">
    <nd ref="28585854"/>
    <nd ref="9283487210"/>
    <nd ref="8232580012"/>
    <nd ref="2099623114"/>
    <nd ref="2099623116"/>
    <nd ref="2099623117"/>
    <nd ref="158716647"/>
    <tag k="highway" v="residential"/>
    <tag k="maxspeed" v="30"/>
    <tag k="maxspeed:type" v="CZ:zone30"/>
    <tag k="name" v="N캩vsk치"/>
    <tag k="surface" v="asphalt"/>
    <tag k="width" v="6"/>
  </way>
  <way id="4558735" version="20" timestamp="2025-04-10T22:05:53Z" changeset="164789452" uid="4018695" user="游뻟릖 Roman Horn칤k">
    <nd ref="28585801"/>
    <nd ref="5582124164"/>
    <nd ref="12745561670"/>
    <nd ref="1259407303"/>
    <nd ref="12745561669"/>
    <nd ref="846050992"/>
    <nd ref="158717846"/>
    <tag k="cycleway" v="shared_lane"/>
    <tag k="highway" v="residential"/>
    <tag k="lanes" v="2"/>
    <tag k="lit" v="yes"/>
    <tag k="maxspeed:type" v="CZ:urban"/>
    <tag k="name" v="n치m캩st칤 Ji콏칤ho Berana"/>
    <tag k="sorting_name" v="Ji콏칤ho Berana"/>
    <tag k="surface" v="asphalt"/>
  </way>
  <way id="4558737" version="11" timestamp="2024-11-02T20:20:07Z" changeset="158675539" uid="1189910" user="Milancer">
    <nd ref="2310930467"/>
    <nd ref="158711500"/>
    <nd ref="28588309"/>
    <nd ref="158711712"/>
    <nd ref="12307910629"/>
    <nd ref="28585729"/>
    <nd ref="1026423304"/>
    <nd ref="28588336"/>
    <nd ref="158712058"/>
    <nd ref="156358088"/>
    <tag k="highway" v="residential"/>
    <tag k="name" v="Na Barik치d치ch"/>
    <tag k="surface" v="asphalt"/>
  </way>
  <way id="4558740" version="10" timestamp="2024-11-29T19:10:44Z" changeset="159753622" uid="16912130" user="Ondra (CZ)">
    <nd ref="158711499"/>
    <nd ref="28588379"/>
    <nd ref="158711711"/>
    <nd ref="1026423126"/>
    <nd ref="28585735"/>
    <nd ref="1026423864"/>
    <nd ref="28588408"/>
    <nd ref="158712358"/>
    <tag k="cycleway:both" v="no"/>
    <tag k="highway" v="residential"/>
    <tag k="lane_markings" v="no"/>
    <tag k="lit" v="yes"/>
    <tag k="name" v="Plajnerova"/>
    <tag k="parking:both" v="lane"/>
    <tag k="parking:both:orientation" v="parallel"/>
    <tag k="surface" v="asphalt"/>
  </way>
  <way id="4558745" version="10" timestamp="2024-11-29T19:05:11Z" changeset="159753502" uid="16912130" user="Ondra (CZ)">
    <nd ref="158711410"/>
    <nd ref="1026423240"/>
    <nd ref="1026423303"/>
    <nd ref="9358732293"/>
    <nd ref="158711411"/>
    <nd ref="158710375"/>
    <nd ref="1026423339"/>
    <nd ref="28585742"/>
    <nd ref="158712658"/>
    <nd ref="1259407246"/>
    <nd ref="28588425"/>
    <tag k="highway" v="residential"/>
    <tag k="lane_markings" v="no"/>
    <tag k="name" v="Vyhl칤dkova"/>
    <tag k="surface" v="asphalt"/>
  </way>
  <way id="4558748" version="6" timestamp="2015-05-15T13:59:20Z" changeset="31175902" uid="2818662" user="eclass">
    <nd ref="28588479"/>
    <nd ref="1026423729"/>
    <nd ref="28585751"/>
    <tag k="highway" v="residential"/>
    <tag k="name" v="Ouhrabkova"/>
  </way>
  <way id="4558754" version="6" timestamp="2020-02-13T17:45:07Z" changeset="80969816" uid="100163" user="Hlav">
    <nd ref="28588656"/>
    <nd ref="1259407320"/>
    <nd ref="28585771"/>
    <nd ref="7208996732"/>
    <tag k="highway" v="residential"/>
    <tag k="name" v="Jind콏ichova"/>
  </way>
  <way id="4558756" version="8" timestamp="2025-03-25T17:28:12Z" changeset="164088693" uid="20038671" user="Jan Andrle">
    <nd ref="28588725"/>
    <nd ref="28585778"/>
    <nd ref="1259407231"/>
    <tag k="highway" v="residential"/>
    <tag k="lane_markings" v="no"/>
    <tag k="name" v="Kymrova"/>
    <tag k="surface" v="paving_stones"/>
  </way>
  <way id="8148883" version="9" timestamp="2024-05-08T14:02:02Z" changeset="151057672" uid="20038671" user="Jan Andrle">
    <nd ref="1026423318"/>
    <nd ref="1026423763"/>
    <nd ref="21050388"/>
    <tag k="cycleway:both" v="no"/>
    <tag k="highway" v="residential"/>
    <tag k="lane_markings" v="no"/>
    <tag k="name" v="Voj치캜kova"/>
    <tag k="surface" v="asphalt"/>
  </way>
  <way id="8308676" version="15" timestamp="2024-10-20T22:43:59Z" changeset="158148067" uid="25867" user="adamos">
    <nd ref="21050389"/>
    <nd ref="4935225455"/>
    <nd ref="158713830"/>
    <nd ref="158714507"/>
    <nd ref="21050390"/>
    <nd ref="1288282623"/>
    <nd ref="1288282617"/>
    <nd ref="7948597909"/>
    <nd ref="2099615640"/>
    <nd ref="21050391"/>
    <tag k="highway" v="residential"/>
    <tag k="lane_markings" v="no"/>
    <tag k="maxspeed:type" v="CZ:urban"/>
    <tag k="name" v="Odersk치"/>
    <tag k="surface" v="asphalt"/>
    <tag k="trolley_wire" v="no"/>
  </way>
  <way id="11988393" version="19" timestamp="2021-05-21T09:48:38Z" changeset="105080061" uid="100163" user="Hlav">
    <nd ref="1026423541"/>
    <nd ref="108216416"/>
    <nd ref="925970963"/>
    <nd ref="925971817"/>
    <tag k="highway" v="secondary"/>
    <tag k="lanes" v="2"/>
    <tag k="lit" v="yes"/>
    <tag k="maxspeed" v="50"/>
    <tag k="name" v="Kosteleck치"/>
    <tag k="surface" v="asphalt"/>
  </way>
  <way id="15676601" version="17" timestamp="2025-04-10T21:53:01Z" changeset="164789004" uid="4018695" user="游뻟릖 Roman Horn칤k">
    <nd ref="28585801"/>
    <nd ref="12745546960"/>
    <nd ref="1259407236"/>
    <nd ref="158718229"/>
    <tag k="highway" v="tertiary"/>
    <tag k="lanes" v="2"/>
    <tag k="lit" v="yes"/>
    <tag k="maxspeed:type" v="CZ:urban"/>
    <tag k="name" v="Cukrovarsk치"/>
    <tag k="surface" v="asphalt"/>
  </way>
  <way id="15678196" version="7" timestamp="2017-12-08T16:00:35Z" changeset="54462610" uid="5161217" user="marekcer">
    <nd ref="156399140"/>
    <nd ref="2120540098"/>
    <tag k="bridge" v="yes"/>
    <tag k="highway" v="unclassified"/>
    <tag k="layer" v="1"/>
    <tag k="maxspeed" v="50"/>
    <tag k="maxspeed:type" v="sign"/>
    <tag k="name" v="B캩loml칳nsk치"/>
  </way>
  <way id="15678238" version="8" timestamp="2025-03-25T17:27:48Z" changeset="164088693" uid="20038671" user="Jan Andrle">
    <nd ref="156399834"/>
    <nd ref="8635035129"/>
    <nd ref="28588725"/>
    <nd ref="28588656"/>
    <tag k="highway" v="residential"/>
    <tag k="lane_markings" v="no"/>
    <tag k="name" v="B캩loml칳nsk치"/>
    <tag k="noexit" v="yes"/>
    <tag k="surface" v="asphalt"/>
  </way>
  <way id="15803869" version="10" timestamp="2018-04-27T09:47:01Z" changeset="58470581" uid="255936" user="NyanSten">
    <nd ref="28588479"/>
    <nd ref="156399835"/>
    <nd ref="156399836"/>
    <nd ref="1026423281"/>
    <nd ref="156399837"/>
    <nd ref="2517168953"/>
    <nd ref="156399839"/>
    <nd ref="156399840"/>
    <nd ref="1026423080"/>
    <nd ref="156399842"/>
    <nd ref="156399140"/>
    <tag k="highway" v="residential"/>
    <tag k="lit" v="yes"/>
    <tag k="maxspeed" v="50"/>
    <tag k="maxspeed:type" v="sign"/>
    <tag k="name" v="B캩loml칳nsk치"/>
    <tag k="surface" v="paved"/>
  </way>
  <way id="15803870" version="4" timestamp="2010-12-07T13:03:57Z" changeset="6574434" uid="17615" user="Petr Dlouh칳">
    <nd ref="28588479"/>
    <nd ref="1026423671"/>
    <nd ref="28588610"/>
    <nd ref="28588656"/>
    <tag k="highway" v="residential"/>
    <tag k="name" v="B캩loml칳nsk치"/>
    <tag k="oneway" v="yes"/>
  </way>
  <way id="15803913" version="5" timestamp="2023-09-18T15:42:11Z" changeset="141430797" uid="20038671" user="Jan Andrle">
    <nd ref="28588479"/>
    <nd ref="158709290"/>
    <nd ref="158709292"/>
    <nd ref="158709293"/>
    <nd ref="158709294"/>
    <tag k="created_by" v="Potlatch 0.5d"/>
    <tag k="highway" v="residential"/>
    <tag k="lane_markings" v="no"/>
    <tag k="lit" v="yes"/>
    <tag k="maxspeed" v="50"/>
    <tag k="maxspeed:type" v="sign"/>
    <tag k="name" v="T콏tinov치"/>
    <tag k="surface" v="asphalt"/>
  </way>
  <way id="15803930" version="4" timestamp="2023-12-08T17:13:14Z" changeset="144911478" uid="20038671" user="Jan Andrle">
    <nd ref="28588656"/>
    <nd ref="158709433"/>
    <nd ref="158709434"/>
    <nd ref="1259407249"/>
    <nd ref="158709435"/>
    <tag k="highway" v="residential"/>
    <tag k="lane_markings" v="no"/>
    <tag k="lit" v="yes"/>
    <tag k="name" v="Cukern칤"/>
    <tag k="surface" v="asphalt"/>
  </way>
  <way id="15803941" version="6" timestamp="2023-10-03T15:04:40Z" changeset="142105589" uid="20038671" user="Jan Andrle">
    <nd ref="156399837"/>
    <nd ref="158709525"/>
    <nd ref="158709526"/>
    <nd ref="158709527"/>
    <nd ref="9002366388"/>
    <nd ref="158709528"/>
    <tag k="highway" v="residential"/>
    <tag k="lane_markings" v="no"/>
    <tag k="maxspeed:type" v="CZ:urban"/>
    <tag k="name" v="Krystalov치"/>
    <tag k="surface" v="asphalt"/>
    <tag k="width" v="6.3"/>
  </way>
  <way id="15803949" version="7" timestamp="2021-12-22T16:56:20Z" changeset="115264498" uid="13633789" user="tter">
    <nd ref="156399840"/>
    <nd ref="9358732267"/>
    <nd ref="158709657"/>
    <nd ref="158709658"/>
    <nd ref="158709659"/>
    <tag k="highway" v="residential"/>
    <tag k="lit" v="yes"/>
    <tag k="maxspeed" v="50"/>
    <tag k="maxspeed:type" v="sign"/>
    <tag k="name" v="Na Bahnech"/>
    <tag k="surface" v="asphalt"/>
  </way>
  <way id="15803969" version="7" timestamp="2023-08-31T15:51:00Z" changeset="140641908" uid="20038671" user="Jan Andrle">
    <nd ref="156386537"/>
    <nd ref="1026423132"/>
    <nd ref="158709433"/>
    <nd ref="158709292"/>
    <nd ref="158709526"/>
    <nd ref="9358732277"/>
    <nd ref="158709658"/>
    <nd ref="1026423569"/>
    <tag k="highway" v="residential"/>
    <tag k="lane_markings" v="no"/>
    <tag k="lit" v="yes"/>
    <tag k="maxspeed" v="50"/>
    <tag k="maxspeed:type" v="sign"/>
    <tag k="name" v="콎epov치"/>
    <tag k="surface" v="asphalt"/>
  </way>
  <way id="15803971" version="2" timestamp="2021-12-22T16:56:20Z" changeset="115264498" uid="13633789" user="tter">
    <nd ref="158709290"/>
    <nd ref="158709525"/>
    <nd ref="9358732273"/>
    <nd ref="158709657"/>
    <tag k="highway" v="residential"/>
    <tag k="name" v="Kostkov치"/>
  </way>
  <way id="15804025" version="8" timestamp="2023-12-08T17:10:55Z" changeset="144911409" uid="20038671" user="Jan Andrle">
    <nd ref="158709434"/>
    <nd ref="158709293"/>
    <nd ref="158709527"/>
    <nd ref="9358732283"/>
    <nd ref="158709659"/>
    <tag k="highway" v="residential"/>
    <tag k="lane_markings" v="no"/>
    <tag k="lit" v="yes"/>
    <tag k="maxspeed" v="50"/>
    <tag k="maxspeed:type" v="sign"/>
    <tag k="name" v="Homolov치"/>
    <tag k="surface" v="asphalt"/>
    <tag k="width" v="6.5"/>
  </way>
  <way id="15804033" version="9" timestamp="2024-11-29T19:10:33Z" changeset="159753622" uid="16912130" user="Ondra (CZ)">
    <nd ref="28588479"/>
    <nd ref="158710374"/>
    <nd ref="158710375"/>
    <nd ref="158711711"/>
    <nd ref="158711712"/>
    <tag k="created_by" v="Potlatch 0.5d"/>
    <tag k="cycleway:both" v="no"/>
    <tag k="highway" v="residential"/>
    <tag k="lane_markings" v="no"/>
    <tag k="lit" v="yes"/>
    <tag k="maxspeed:type" v="CZ:urban"/>
    <tag k="name" v="Danielova"/>
    <tag k="parking:both" v="lane"/>
    <tag k="parking:both:orientation" v="parallel"/>
    <tag k="sidewalk" v="both"/>
    <tag k="surface" v="asphalt"/>
  </way>
  <way id="15804101" version="2" timestamp="2009-03-14T15:05:23Z" changeset="807112" uid="3516" user="BiIbo">
    <nd ref="156399842"/>
    <nd ref="158711410"/>
    <nd ref="158711499"/>
    <nd ref="158711500"/>
    <tag k="highway" v="residential"/>
    <tag k="name" v="U B칤l칠ho Ml칳nku"/>
    <tag k="oneway" v="yes"/>
  </way>
  <way id="15804114" version="5" timestamp="2024-05-08T13:54:21Z" changeset="151057672" uid="20038671" user="Jan Andrle">
    <nd ref="156399837"/>
    <nd ref="1026423792"/>
    <nd ref="1026423201"/>
    <nd ref="158711411"/>
    <nd ref="28588379"/>
    <nd ref="28588309"/>
    <tag k="highway" v="residential"/>
    <tag k="lane_markings" v="no"/>
    <tag k="maxspeed:type" v="CZ:urban"/>
    <tag k="name" v="Hrdinova"/>
    <tag k="surface" v="asphalt"/>
  </way>
  <way id="15804162" version="2" timestamp="2011-04-25T11:37:32Z" changeset="7961486" uid="3516" user="BiIbo">
    <nd ref="158712058"/>
    <nd ref="158712358"/>
    <nd ref="1259407338"/>
    <nd ref="156358082"/>
    <tag k="highway" v="residential"/>
    <tag k="name" v="C칤rkova"/>
  </way>
  <way id="15804180" version="2" timestamp="2024-07-17T15:55:04Z" changeset="154064711" uid="20038671" user="Jan Andrle">
    <nd ref="28588336"/>
    <nd ref="28588408"/>
    <nd ref="158712658"/>
    <nd ref="158712659"/>
    <tag k="created_by" v="Potlatch 0.5d"/>
    <tag k="highway" v="residential"/>
    <tag k="maxspeed" v="30"/>
    <tag k="maxspeed:type" v="CZ:zone30"/>
    <tag k="name" v="Z치mi코ova"/>
  </way>
  <way id="15804243" version="4" timestamp="2010-12-07T13:05:11Z" changeset="6574434" uid="17615" user="Petr Dlouh칳">
    <nd ref="156358085"/>
    <nd ref="158713394"/>
    <nd ref="1026423406"/>
    <nd ref="1026423265"/>
    <nd ref="1026423044"/>
    <nd ref="1026423611"/>
    <nd ref="1026423765"/>
    <nd ref="1026423105"/>
    <nd ref="158713395"/>
    <nd ref="156358086"/>
    <tag k="highway" v="residential"/>
    <tag k="name" v="U P치rn칤k콢"/>
    <tag k="oneway" v="yes"/>
  </way>
  <way id="15804289" version="5" timestamp="2023-08-17T06:43:18Z" changeset="139995664" uid="20038671" user="Jan Andrle">
    <nd ref="158713828"/>
    <nd ref="5582124168"/>
    <nd ref="158713829"/>
    <nd ref="158713830"/>
    <tag k="highway" v="residential"/>
    <tag k="maxspeed" v="30"/>
    <tag k="maxspeed:type" v="CZ:zone30"/>
    <tag k="name" v="Ostravick치"/>
    <tag k="surface" v="asphalt"/>
  </way>
  <way id="15804291" version="5" timestamp="2023-08-29T06:36:37Z" changeset="140524189" uid="20038671" user="Jan Andrle">
    <nd ref="158713830"/>
    <nd ref="1026423340"/>
    <nd ref="1026423462"/>
    <nd ref="156358085"/>
    <tag k="highway" v="residential"/>
    <tag k="maxspeed:type" v="CZ:urban"/>
    <tag k="name" v="Ostravick치"/>
    <tag k="oneway" v="yes"/>
  </way>
  <way id="15804326" version="9" timestamp="2024-07-17T15:49:11Z" changeset="154064549" uid="20038671" user="Jan Andrle">
    <nd ref="28585817"/>
    <nd ref="8635035142"/>
    <nd ref="158714392"/>
    <nd ref="8635035144"/>
    <nd ref="158714393"/>
    <nd ref="158714507"/>
    <tag k="highway" v="residential"/>
    <tag k="lit" v="yes"/>
    <tag k="maxspeed" v="30"/>
    <tag k="maxspeed:type" v="CZ:zone30"/>
    <tag k="name" v="Jizersk치"/>
    <tag k="smoothness" v="excellent"/>
    <tag k="surface" v="asphalt"/>
    <tag k="width" v="5.8"/>
  </way>
  <way id="15804335" version="8" timestamp="2023-09-01T06:39:19Z" changeset="140663642" uid="20038671" user="Jan Andrle">
    <nd ref="21050390"/>
    <nd ref="7948597921"/>
    <nd ref="158714573"/>
    <nd ref="158714574"/>
    <nd ref="158714575"/>
    <tag k="highway" v="residential"/>
    <tag k="maxspeed" v="30"/>
    <tag k="maxspeed:type" v="CZ:zone30"/>
    <tag k="name" v="N캩vsk치"/>
    <tag k="surface" v="asphalt"/>
    <tag k="width" v="6"/>
  </way>
  <way id="15804380" version="7" timestamp="2023-09-01T06:35:15Z" changeset="140663642" uid="20038671" user="Jan Andrle">
    <nd ref="158714573"/>
    <nd ref="7948597920"/>
    <nd ref="158714938"/>
    <nd ref="158714939"/>
    <nd ref="158714940"/>
    <nd ref="158714941"/>
    <nd ref="7948597912"/>
    <nd ref="158714942"/>
    <tag k="highway" v="residential"/>
    <tag k="lane_markings" v="no"/>
    <tag k="maxspeed:type" v="CZ:urban"/>
    <tag k="name" v="Kysuck치"/>
    <tag k="surface" v="asphalt"/>
    <tag k="width" v="3.5"/>
  </way>
  <way id="15804392" version="8" timestamp="2023-08-18T06:43:30Z" changeset="140041727" uid="20038671" user="Jan Andrle">
    <nd ref="21050392"/>
    <nd ref="158715539"/>
    <nd ref="158715502"/>
    <nd ref="158715445"/>
    <nd ref="158715397"/>
    <nd ref="158714574"/>
    <nd ref="158714393"/>
    <nd ref="158713829"/>
    <tag k="created_by" v="Potlatch 0.5d"/>
    <tag k="highway" v="residential"/>
    <tag k="maxspeed" v="30"/>
    <tag k="maxspeed:type" v="CZ:zone30"/>
    <tag k="name" v="Svitavsk치"/>
    <tag k="surface" v="asphalt"/>
    <tag k="width" v="5.8"/>
  </way>
  <way id="15804406" version="6" timestamp="2023-08-30T06:37:40Z" changeset="140571356" uid="20038671" user="Jan Andrle">
    <nd ref="158714938"/>
    <nd ref="639361679"/>
    <nd ref="158715397"/>
    <tag k="highway" v="residential"/>
    <tag k="maxspeed" v="30"/>
    <tag k="maxspeed:type" v="CZ:zone30"/>
    <tag k="name" v="Doubravsk치"/>
    <tag k="oneway" v="no"/>
    <tag k="surface" v="asphalt"/>
    <tag k="width" v="3.3"/>
  </way>
  <way id="15804407" version="4" timestamp="2023-09-01T06:37:21Z" changeset="140663642" uid="20038671" user="Jan Andrle">
    <nd ref="158714939"/>
    <nd ref="158715445"/>
    <tag k="created_by" v="Potlatch 0.5d"/>
    <tag k="highway" v="residential"/>
    <tag k="maxspeed" v="30"/>
    <tag k="maxspeed:type" v="CZ:zone30"/>
    <tag k="name" v="Lu쬹ick치"/>
    <tag k="surface" v="asphalt"/>
    <tag k="width" v="3.4"/>
  </way>
  <way id="15804409" version="3" timestamp="2023-08-18T06:43:59Z" changeset="140041524" uid="20038671" user="Jan Andrle">
    <nd ref="158714940"/>
    <nd ref="158715502"/>
    <tag k="created_by" v="Potlatch 0.5d"/>
    <tag k="highway" v="residential"/>
    <tag k="maxspeed" v="30"/>
    <tag k="maxspeed:type" v="CZ:zone30"/>
    <tag k="name" v="Nisk치"/>
    <tag k="surface" v="asphalt"/>
  </way>
  <way id="15804410" version="6" timestamp="2023-08-18T06:40:57Z" changeset="140041573" uid="20038671" user="Jan Andrle">
    <nd ref="158714941"/>
    <nd ref="158715539"/>
    <tag k="created_by" v="Potlatch 0.5d"/>
    <tag k="highway" v="residential"/>
    <tag k="lane_markings" v="no"/>
    <tag k="maxspeed:type" v="CZ:urban"/>
    <tag k="name" v="Svrateck치"/>
    <tag k="surface" v="asphalt"/>
  </way>
  <way id="15804429" version="10" timestamp="2022-08-16T16:26:18Z" changeset="124980090" uid="3003739" user="r00tcz">
    <nd ref="158715954"/>
    <nd ref="158716002"/>
    <nd ref="243951405"/>
    <tag k="cycleway:both" v="no"/>
    <tag k="highway" v="unclassified"/>
    <tag k="lanes" v="2"/>
    <tag k="lit" v="yes"/>
    <tag k="name" v="KSedli코ti"/>
    <tag k="smoothness" v="excellent"/>
    <tag k="surface" v="asphalt"/>
  </way>
  <way id="15804440" version="8" timestamp="2023-08-18T06:46:05Z" changeset="140041524" uid="20038671" user="Jan Andrle">
    <nd ref="158714575"/>
    <nd ref="639361678"/>
    <nd ref="158716125"/>
    <nd ref="639361677"/>
    <nd ref="158715954"/>
    <tag k="highway" v="residential"/>
    <tag k="lit" v="yes"/>
    <tag k="maxspeed" v="30"/>
    <tag k="maxspeed:type" v="CZ:zone30"/>
    <tag k="name" v="Dyjsk치"/>
    <tag k="oneway" v="yes"/>
    <tag k="smoothness" v="excellent"/>
    <tag k="surface" v="asphalt"/>
  </way>
  <way id="15804443" version="5" timestamp="2023-08-17T06:36:24Z" changeset="139995737" uid="20038671" user="Jan Andrle">
    <nd ref="158716125"/>
    <nd ref="639361681"/>
    <nd ref="158715397"/>
    <tag k="highway" v="residential"/>
    <tag k="maxspeed" v="30"/>
    <tag k="maxspeed:type" v="CZ:zone30"/>
    <tag k="name" v="Myjavsk치"/>
    <tag k="surface" v="asphalt"/>
    <tag k="width" v="5.3"/>
  </way>
  <way id="15804508" version="18" timestamp="2023-09-01T06:44:55Z" changeset="140663642" uid="20038671" user="Jan Andrle">
    <nd ref="28588212"/>
    <nd ref="158716700"/>
    <nd ref="158716773"/>
    <nd ref="158716964"/>
    <nd ref="158716647"/>
    <tag k="highway" v="residential"/>
    <tag k="maxspeed" v="30"/>
    <tag k="maxspeed:type" v="CZ:zone30"/>
    <tag k="name" v="Otavsk치"/>
    <tag k="source:name" v="nameit/uir-adr"/>
    <tag k="surface" v="asphalt"/>
    <tag k="width" v="5.2"/>
  </way>
  <way id="15804510" version="5" timestamp="2021-11-25T15:38:23Z" changeset="114227882" uid="100163" user="Hlav">
    <nd ref="158716669"/>
    <nd ref="9283487207"/>
    <nd ref="2099623098"/>
    <nd ref="2099623099"/>
    <nd ref="2099623100"/>
    <nd ref="158716700"/>
    <tag k="highway" v="residential"/>
    <tag k="name" v="Litavsk치"/>
    <tag k="oneway" v="yes"/>
  </way>
  <way id="15804514" version="6" timestamp="2021-11-25T15:38:23Z" changeset="114227882" uid="100163" user="Hlav">
    <nd ref="158716738"/>
    <nd ref="9283487208"/>
    <nd ref="2099623102"/>
    <nd ref="158716773"/>
    <tag k="highway" v="residential"/>
    <tag k="name" v="Radbuzsk치"/>
    <tag k="oneway" v="yes"/>
  </way>
  <way id="15804538" version="9" timestamp="2024-05-24T17:31:44Z" changeset="151781551" uid="101128" user="LuKo">
    <nd ref="158717846"/>
    <nd ref="5582124166"/>
    <nd ref="1420773033"/>
    <nd ref="28585817"/>
    <tag k="cycleway" v="shared_lane"/>
    <tag k="highway" v="residential"/>
    <tag k="lit" v="yes"/>
    <tag k="maxspeed" v="30"/>
    <tag k="maxspeed:type" v="sign"/>
    <tag k="name" v="V치쬽k치"/>
    <tag k="surface" v="asphalt"/>
  </way>
  <way id="15805095" version="14" timestamp="2024-12-17T13:37:12Z" changeset="160298915" uid="16912130" user="Ondra (CZ)">
    <nd ref="158727650"/>
    <nd ref="1259407334"/>
    <nd ref="1259407331"/>
    <nd ref="158727766"/>
    <tag k="cycleway:both" v="no"/>
    <tag k="highway" v="residential"/>
    <tag k="lane_markings" v="no"/>
    <tag k="maxspeed:type" v="CZ:urban"/>
    <tag k="name" v="Marie Podvalov칠"/>
    <tag k="parking:left" v="no"/>
    <tag k="parking:right" v="street_side"/>
    <tag k="parking:right:orientation" v="parallel"/>
    <tag k="sidewalk:left" v="separate"/>
    <tag k="sidewalk:right" v="no"/>
    <tag k="surface" v="asphalt"/>
  </way>
  <way id="15805245" version="3" timestamp="2014-10-14T13:19:56Z" changeset="26071898" uid="17615" user="Petr Dlouh칳">
    <nd ref="158723821"/>
    <nd ref="3129293876"/>
    <nd ref="312525971"/>
    <nd ref="158730615"/>
    <tag k="highway" v="residential"/>
    <tag k="name" v="말rcova"/>
  </way>
  <way id="16497962" version="20" timestamp="2024-10-20T22:43:59Z" changeset="158148067" uid="25867" user="adamos">
    <nd ref="170346150"/>
    <nd ref="6321457311"/>
    <nd ref="1026423083"/>
    <nd ref="7139038754"/>
    <nd ref="7139038759"/>
    <nd ref="1259454550"/>
    <nd ref="21050420"/>
    <tag k="highway" v="tertiary"/>
    <tag k="lanes" v="2"/>
    <tag k="maxspeed:type" v="CZ:urban"/>
    <tag k="name" v="Cukrovarsk치"/>
    <tag k="surface" v="asphalt"/>
    <tag k="trolley_wire" v="no"/>
  </way>
  <way id="17100151" version="22" timestamp="2024-11-09T12:13:32Z" changeset="158930793" uid="16912130" user="Ondra (CZ)">
    <nd ref="2124823284"/>
    <nd ref="2124823279"/>
    <nd ref="928212408"/>
    <nd ref="928212402"/>
    <nd ref="928213006"/>
    <nd ref="928213009"/>
    <nd ref="928213011"/>
    <nd ref="928213012"/>
    <nd ref="177553920"/>
    <nd ref="2124823293"/>
    <nd ref="2124823294"/>
    <nd ref="4048118797"/>
    <nd ref="4048118798"/>
    <nd ref="4048118803"/>
    <nd ref="4048118805"/>
    <nd ref="4048118800"/>
    <nd ref="4048118802"/>
    <nd ref="4048118799"/>
    <nd ref="2124823296"/>
    <nd ref="2124823295"/>
    <nd ref="4048118804"/>
    <nd ref="4048118801"/>
    <nd ref="4048118806"/>
    <nd ref="2124823297"/>
    <nd ref="2124823298"/>
    <nd ref="2124823299"/>
    <nd ref="2124823301"/>
    <nd ref="2124823300"/>
    <nd ref="4048118819"/>
    <nd ref="4048118821"/>
    <nd ref="177553922"/>
    <nd ref="10053310244"/>
    <nd ref="10053310246"/>
    <nd ref="177553923"/>
    <nd ref="177553924"/>
    <nd ref="5762241471"/>
    <nd ref="6274090967"/>
    <nd ref="2124823292"/>
    <nd ref="2124823291"/>
    <nd ref="177553925"/>
    <nd ref="2124823289"/>
    <nd ref="2124823290"/>
    <nd ref="2124823288"/>
    <nd ref="2124823286"/>
    <nd ref="2124823285"/>
    <nd ref="2124823287"/>
    <nd ref="1415200329"/>
    <nd ref="6512695009"/>
    <nd ref="1415200333"/>
    <nd ref="5762241472"/>
    <nd ref="1415200326"/>
    <nd ref="6512695010"/>
    <nd ref="1415200335"/>
    <nd ref="6512695011"/>
    <nd ref="6512695013"/>
    <nd ref="6508995249"/>
    <nd ref="6508995238"/>
    <nd ref="2124823283"/>
    <nd ref="2124823281"/>
    <nd ref="2124823280"/>
    <nd ref="2124823282"/>
    <nd ref="177553926"/>
    <nd ref="6512695012"/>
    <nd ref="2124823284"/>
    <tag k="addr:city" v="Praha 9"/>
    <tag k="addr:housenumber" v="823"/>
    <tag k="addr:postcode" v="19600"/>
    <tag k="addr:street" v="Kosteleck치"/>
    <tag k="air_conditioning" v="yes"/>
    <tag k="brand" v="Globus"/>
    <tag k="brand:wikidata" v="Q457503"/>
    <tag k="brand:wikipedia" v="en:Globus (hypermarket)"/>
    <tag k="building" v="retail"/>
    <tag k="building:levels" v="2"/>
    <tag k="building:ruian:type" v="5"/>
    <tag k="email" v="reditel.cakovice@globus.cz"/>
    <tag k="height" v="9"/>
    <tag k="name" v="Globus"/>
    <tag k="opening_hours" v="Mo-Su 07:00-21:00"/>
    <tag k="operator" v="Globus 캛R, v.o.s."/>
    <tag k="organic" v="yes"/>
    <tag k="phone" v="+420 284 026 198"/>
    <tag k="ref:ruian:building" v="22276238"/>
    <tag k="shop" v="supermarket"/>
    <tag k="source" v="cuzk:ruian"/>
    <tag k="website" v="https://www.globus.cz/praha-cakovice.html"/>
  </way>
  <way id="22393187" version="9" timestamp="2024-01-28T15:37:45Z" changeset="146783477" uid="4997045" user="Tomas_J">
    <nd ref="156368057"/>
    <nd ref="1515492342"/>
    <nd ref="156368059"/>
    <nd ref="156368060"/>
    <nd ref="1260246525"/>
    <nd ref="156368061"/>
    <nd ref="1175743776"/>
    <nd ref="156368062"/>
    <tag k="highway" v="tertiary"/>
    <tag k="lanes" v="2"/>
    <tag k="lit" v="no"/>
    <tag k="maxspeed" v="70"/>
    <tag k="name" v="Semilsk치"/>
    <tag k="smoothness" v="excellent"/>
    <tag k="surface" v="asphalt"/>
  </way>
  <way id="22738776" version="8" timestamp="2023-09-01T06:47:06Z" changeset="140664093" uid="20038671" user="Jan Andrle">
    <nd ref="158714263"/>
    <nd ref="5017025243"/>
    <nd ref="1026423568"/>
    <nd ref="156386534"/>
    <tag k="alt_name" v="Doktora Marodyho"/>
    <tag k="highway" v="residential"/>
    <tag k="maxspeed:type" v="CZ:urban"/>
    <tag k="name" v="Dr. Marodyho"/>
    <tag k="oneway" v="yes"/>
    <tag k="surface" v="asphalt"/>
  </way>
  <way id="22738777" version="9" timestamp="2023-08-16T06:50:24Z" changeset="139946823" uid="20038671" user="Jan Andrle">
    <nd ref="158716647"/>
    <nd ref="243951408"/>
    <nd ref="243951410"/>
    <tag k="highway" v="residential"/>
    <tag k="maxspeed" v="30"/>
    <tag k="maxspeed:type" v="CZ:zone30"/>
    <tag k="name" v="N캩vsk치"/>
    <tag k="source:name" v="nameit/uir-adr"/>
    <tag k="surface" v="asphalt"/>
    <tag k="width" v="5.9"/>
  </way>
  <way id="22738778" version="8" timestamp="2018-12-02T20:58:19Z" changeset="65105582" uid="3003739" user="r00tcz">
    <nd ref="156386534"/>
    <nd ref="1026423047"/>
    <nd ref="2024988530"/>
    <nd ref="158709435"/>
    <nd ref="6111643760"/>
    <nd ref="158709294"/>
    <nd ref="158709528"/>
    <nd ref="158723818"/>
    <tag k="highway" v="tertiary"/>
    <tag k="lit" v="yes"/>
    <tag k="name" v="Schoellerova"/>
    <tag k="surface" v="asphalt"/>
  </way>
  <way id="23230098" version="17" timestamp="2024-10-20T22:43:59Z" changeset="158148067" uid="25867" user="adamos">
    <nd ref="156397355"/>
    <nd ref="4935225457"/>
    <nd ref="2024995258"/>
    <nd ref="1026423871"/>
    <nd ref="21050389"/>
    <tag k="highway" v="tertiary"/>
    <tag k="lanes" v="2"/>
    <tag k="lit" v="yes"/>
    <tag k="maxspeed:type" v="CZ:urban"/>
    <tag k="name" v="Cukrovarsk치"/>
    <tag k="surface" v="asphalt"/>
    <tag k="trolley_wire" v="no"/>
  </way>
  <way id="23230125" version="6" timestamp="2012-06-28T15:31:04Z" changeset="12048025" uid="100163" user="Hlav">
    <nd ref="158723822"/>
    <nd ref="312524677"/>
    <tag k="alt_name" v="Mezi H콏bitovy"/>
    <tag k="highway" v="residential"/>
    <tag k="name" v="U H콏bitov콢"/>
    <tag k="oneway" v="no"/>
  </way>
  <way id="23231264" version="8" timestamp="2024-10-21T09:34:57Z" changeset="158161163" uid="25867" user="adamos">
    <nd ref="156386533"/>
    <nd ref="1026423321"/>
    <nd ref="28588140"/>
    <tag k="highway" v="residential"/>
    <tag k="lane_markings" v="no"/>
    <tag k="lit" v="yes"/>
    <tag k="maxspeed:type" v="CZ:urban"/>
    <tag k="name" v="Ke Stadionu"/>
    <tag k="oneway" v="yes"/>
    <tag k="surface" v="asphalt"/>
    <tag k="trolley_wire" v="no"/>
  </way>
  <way id="26621810" version="5" timestamp="2011-04-25T11:35:33Z" changeset="7961486" uid="3516" user="BiIbo">
    <nd ref="158723822"/>
    <nd ref="291997918"/>
    <nd ref="1259407247"/>
    <nd ref="291997937"/>
    <nd ref="312524449"/>
    <nd ref="291997866"/>
    <nd ref="291997903"/>
    <tag k="highway" v="residential"/>
    <tag k="name" v="Kr치lova"/>
    <tag k="source:name" v="nameit/uir-adr"/>
  </way>
  <way id="28446313" version="4" timestamp="2012-06-28T15:31:03Z" changeset="12048025" uid="100163" user="Hlav">
    <nd ref="156399148"/>
    <nd ref="312524677"/>
    <tag k="alt_name" v="Mezi H콏bitovy"/>
    <tag k="highway" v="residential"/>
    <tag k="name" v="U H콏bitov콢"/>
    <tag k="oneway" v="yes"/>
  </way>
  <way id="28446617" version="9" timestamp="2018-04-27T09:47:01Z" changeset="58470581" uid="255936" user="NyanSten">
    <nd ref="312527398"/>
    <nd ref="1259407202"/>
    <nd ref="312528856"/>
    <tag k="highway" v="residential"/>
    <tag k="name" v="Tryskovick치"/>
  </way>
  <way id="28446659" version="7" timestamp="2023-03-03T11:52:45Z" changeset="133250440" uid="2061236" user="Thartek">
    <nd ref="312529317"/>
    <nd ref="312529504"/>
    <nd ref="312529506"/>
    <nd ref="10706617151"/>
    <nd ref="6274132394"/>
    <nd ref="312529508"/>
    <nd ref="312529510"/>
    <nd ref="312529511"/>
    <nd ref="10706617155"/>
    <nd ref="10706617154"/>
    <nd ref="312529512"/>
    <nd ref="10706617152"/>
    <nd ref="312529513"/>
    <nd ref="10706617153"/>
    <nd ref="312529514"/>
    <nd ref="312529515"/>
    <tag k="highway" v="residential"/>
    <tag k="lit" v="yes"/>
    <tag k="name" v="Za Cukrovarem"/>
    <tag k="oneway" v="no"/>
    <tag k="smoothness" v="excellent"/>
    <tag k="surface" v="asphalt"/>
  </way>
  <way id="79289890" version="7" timestamp="2023-10-18T10:27:27Z" changeset="142755858" uid="100163" user="Hlav">
    <nd ref="925967698"/>
    <nd ref="2124816251"/>
    <nd ref="2124816234"/>
    <nd ref="925967699"/>
    <nd ref="925967700"/>
    <nd ref="925967701"/>
    <nd ref="925967698"/>
    <tag k="addr:housenumber" v="81"/>
    <tag k="addr:street" v="Kosteleck치"/>
    <tag k="building" v="yes"/>
    <tag k="building:levels" v="2"/>
    <tag k="building:ruian:type" v="12"/>
    <tag k="opening_hours" v="Mo-Fr 11:00-19:30; Sa, Su 10:00-18:30"/>
    <tag k="ref:ruian:building" v="27089223"/>
    <tag k="shop" v="sports"/>
    <tag k="source" v="cuzk:ruian"/>
    <tag k="sport" v="ski"/>
    <tag k="start_date" v="2008-09-17"/>
    <tag k="website" v="http://www.happysport.cz"/>
    <tag k="wheelchair" v="yes"/>
  </way>
  <way id="88366578" version="5" timestamp="2023-11-20T17:36:45Z" changeset="144256536" uid="20038671" user="Jan Andrle">
    <nd ref="158710374"/>
    <nd ref="1026423201"/>
    <tag k="highway" v="residential"/>
    <tag k="lane_markings" v="no"/>
    <tag k="maxspeed:type" v="CZ:urban"/>
    <tag k="name" v="Beckovsk치"/>
    <tag k="source" v="bing:ortofoto"/>
    <tag k="surface" v="asphalt"/>
    <tag k="width" v="6.6"/>
  </way>
  <way id="88366586" version="3" timestamp="2023-10-03T15:09:41Z" changeset="142105645" uid="20038671" user="Jan Andrle">
    <nd ref="1026423077"/>
    <nd ref="1026423471"/>
    <nd ref="158710259"/>
    <tag k="highway" v="residential"/>
    <tag k="source" v="bing:ortofoto"/>
    <tag k="surface" v="asphalt"/>
  </way>
  <way id="88366606" version="6" timestamp="2023-08-14T17:03:30Z" changeset="139881089" uid="20038671" user="Jan Andrle">
    <nd ref="28588118"/>
    <nd ref="6485825709"/>
    <nd ref="1026423636"/>
    <nd ref="6485825704"/>
    <nd ref="1026423114"/>
    <nd ref="1026423268"/>
    <nd ref="1026423760"/>
    <tag k="highway" v="residential"/>
    <tag k="lane_markings" v="no"/>
    <tag k="maxspeed:type" v="CZ:urban"/>
    <tag k="name" v="Ke Stadionu"/>
    <tag k="source" v="bing:ortofoto"/>
    <tag k="surface" v="asphalt"/>
  </way>
  <way id="105620858" version="6" timestamp="2024-10-20T22:43:59Z" changeset="158148067" uid="25867" user="adamos">
    <nd ref="21050388"/>
    <nd ref="1026423715"/>
    <nd ref="10695513724"/>
    <tag k="highway" v="residential"/>
    <tag k="lane_markings" v="no"/>
    <tag k="name" v="Voj치캜kova"/>
    <tag k="oneway" v="yes"/>
    <tag k="surface" v="asphalt"/>
    <tag k="trolley_wire" v="no"/>
  </way>
  <way id="110234353" version="2" timestamp="2018-05-11T10:42:59Z" changeset="58874634" uid="10345" user="Mormegil">
    <nd ref="359232359"/>
    <nd ref="1259454409"/>
    <tag k="highway" v="residential"/>
    <tag k="name" v="Kㅁvii"/>
  </way>
  <way id="110234372" version="5" timestamp="2020-09-25T12:50:05Z" changeset="91510958" uid="718054" user="Piskvor">
    <nd ref="1259454623"/>
    <nd ref="158735461"/>
    <nd ref="312528914"/>
    <nd ref="312529317"/>
    <tag k="highway" v="tertiary"/>
    <tag k="lanes" v="2"/>
    <tag k="name" v="Za Trat칤"/>
  </way>
  <way id="110234376" version="2" timestamp="2015-02-21T13:07:06Z" changeset="28998444" uid="2690338" user="pkervin">
    <nd ref="1259454154"/>
    <nd ref="1259454623"/>
    <tag k="bridge" v="yes"/>
    <tag k="highway" v="tertiary"/>
    <tag k="layer" v="1"/>
    <tag k="name" v="Za Trat칤"/>
  </way>
  <way id="110329520" version="6" timestamp="2024-06-18T15:26:52Z" changeset="152854468" uid="21646089" user="M_&amp;_T">
    <nd ref="156368062"/>
    <nd ref="1175743724"/>
    <nd ref="1270656364"/>
    <nd ref="156375304"/>
    <nd ref="1270656334"/>
    <nd ref="156375305"/>
    <nd ref="156375307"/>
    <nd ref="1175743752"/>
    <nd ref="1288282761"/>
    <nd ref="1288282750"/>
    <nd ref="156375308"/>
    <tag k="highway" v="tertiary"/>
    <tag k="lanes" v="2"/>
    <tag k="lit" v="no"/>
    <tag k="maxspeed" v="70"/>
    <tag k="name" v="Semilsk치"/>
    <tag k="smoothness" v="excellent"/>
    <tag k="surface" v="asphalt"/>
  </way>
  <way id="113623046" version="4" timestamp="2023-01-24T13:49:52Z" changeset="131653098" uid="527259" user="Vratislav Filler">
    <nd ref="21050391"/>
    <nd ref="7948597946"/>
    <nd ref="1289452927"/>
    <nd ref="7948597944"/>
    <nd ref="1289452909"/>
    <nd ref="7948597949"/>
    <nd ref="1289452867"/>
    <nd ref="7948597941"/>
    <nd ref="1288282685"/>
    <tag k="highway" v="residential"/>
    <tag k="name" v="R칳nsk치"/>
    <tag k="width" v="5"/>
  </way>
  <way id="113623051" version="3" timestamp="2013-01-07T11:13:37Z" changeset="14560988" uid="17615" user="Petr Dlouh칳">
    <nd ref="1026423241"/>
    <nd ref="2099615632"/>
    <nd ref="1289452853"/>
    <nd ref="2099615631"/>
    <nd ref="1289452918"/>
    <nd ref="1289452812"/>
    <nd ref="1289452877"/>
    <nd ref="1289452975"/>
    <nd ref="1288282662"/>
    <tag k="highway" v="residential"/>
    <tag k="name" v="Ke Stadionu"/>
  </way>
  <way id="118168573" version="5" timestamp="2023-08-18T06:46:19Z" changeset="140041524" uid="20038671" user="Jan Andrle">
    <nd ref="28585854"/>
    <nd ref="158714575"/>
    <tag k="highway" v="residential"/>
    <tag k="lit" v="yes"/>
    <tag k="maxspeed" v="30"/>
    <tag k="maxspeed:type" v="CZ:zone30"/>
    <tag k="name" v="N캩vsk치"/>
    <tag k="oneway" v="yes"/>
    <tag k="smoothness" v="excellent"/>
    <tag k="surface" v="asphalt"/>
  </way>
  <way id="123740118" version="8" timestamp="2024-03-30T20:01:17Z" changeset="149365661" uid="10932047" user="AF HAF KARTOGRAF">
    <nd ref="1378891831"/>
    <nd ref="1528210727"/>
    <nd ref="5422708224"/>
    <nd ref="1528210887"/>
    <nd ref="5422708223"/>
    <nd ref="1378891830"/>
    <nd ref="1378891829"/>
    <nd ref="1378891831"/>
    <tag k="addr:conscriptionnumber" v="78"/>
    <tag k="addr:housenumber" v="78/2"/>
    <tag k="addr:postcode" v="19600"/>
    <tag k="addr:street" v="Jizersk치"/>
    <tag k="addr:streetnumber" v="2"/>
    <tag k="building" v="train_station"/>
    <tag k="building:flats" v="3"/>
    <tag k="building:levels" v="2"/>
    <tag k="building:ruian:type" v="17"/>
    <tag k="ref:ruian:addr" v="22405445"/>
    <tag k="ref:ruian:building" v="22268952"/>
    <tag k="source" v="cuzk:ruian"/>
  </way>
  <way id="128359784" version="7" timestamp="2025-04-10T21:53:01Z" changeset="164789004" uid="4018695" user="游뻟릖 Roman Horn칤k">
    <nd ref="156391591"/>
    <nd ref="156392918"/>
    <nd ref="156397355"/>
    <tag k="highway" v="tertiary"/>
    <tag k="lanes" v="2"/>
    <tag k="lit" v="yes"/>
    <tag k="maxspeed:type" v="CZ:urban"/>
    <tag k="name" v="Cukrovarsk치"/>
    <tag k="smoothness" v="excellent"/>
    <tag k="surface" v="asphalt"/>
  </way>
  <way id="128359787" version="8" timestamp="2024-07-16T15:17:55Z" changeset="154020657" uid="20038671" user="Jan Andrle">
    <nd ref="158713828"/>
    <nd ref="6111643819"/>
    <nd ref="6111643820"/>
    <nd ref="6111643815"/>
    <tag k="highway" v="residential"/>
    <tag k="maxspeed" v="30"/>
    <tag k="maxspeed:type" v="CZ:zone30"/>
    <tag k="name" v="n치m캩st칤 Ji콏칤ho Berana"/>
    <tag k="oneway" v="no"/>
    <tag k="sorting_name" v="Ji콏칤ho Berana"/>
    <tag k="surface" v="asphalt"/>
    <tag k="width" v="2.9"/>
  </way>
  <way id="129091211" version="5" timestamp="2018-12-02T22:46:56Z" changeset="65107684" uid="3003739" user="r00tcz">
    <nd ref="291997977"/>
    <nd ref="5071483618"/>
    <nd ref="6111779461"/>
    <nd ref="5071484657"/>
    <nd ref="1259407174"/>
    <nd ref="158734299"/>
    <nd ref="5071483612"/>
    <nd ref="251323506"/>
    <nd ref="251323367"/>
    <nd ref="158723822"/>
    <tag k="highway" v="tertiary"/>
    <tag k="name" v="Schoellerova"/>
  </way>
  <way id="131769864" version="5" timestamp="2023-01-24T13:28:29Z" changeset="131652154" uid="527259" user="Vratislav Filler">
    <nd ref="158734457"/>
    <nd ref="1259407167"/>
    <nd ref="251323534"/>
    <nd ref="158734458"/>
    <nd ref="251323205"/>
    <nd ref="251323206"/>
    <nd ref="1259407196"/>
    <nd ref="158734459"/>
    <nd ref="6274895620"/>
    <nd ref="156399148"/>
    <tag k="highway" v="residential"/>
    <tag k="name" v="B캩loml칳nsk치"/>
    <tag k="surface" v="asphalt"/>
  </way>
  <way id="152955649" version="4" timestamp="2024-03-30T20:01:17Z" changeset="149365661" uid="10932047" user="AF HAF KARTOGRAF">
    <nd ref="4425019640"/>
    <nd ref="1657203755"/>
    <nd ref="3233663290"/>
    <nd ref="1657203793"/>
    <nd ref="3233663059"/>
    <nd ref="4425019643"/>
    <nd ref="4425019639"/>
    <nd ref="4425019634"/>
    <nd ref="4425019640"/>
    <tag k="addr:conscriptionnumber" v="325"/>
    <tag k="addr:housenumber" v="325/32"/>
    <tag k="addr:postcode" v="19600"/>
    <tag k="addr:street" v="Polabsk치"/>
    <tag k="addr:streetnumber" v="32"/>
    <tag k="building" v="residential"/>
    <tag k="building:flats" v="2"/>
    <tag k="building:levels" v="1"/>
    <tag k="building:ruian:type" v="3"/>
    <tag k="ref:ruian:addr" v="22407774"/>
    <tag k="ref:ruian:building" v="22271295"/>
    <tag k="source" v="cuzk:ruian"/>
  </way>
  <way id="152955652" version="6" timestamp="2024-08-29T03:49:41Z" changeset="155908076" uid="3003739" user="r00tcz">
    <nd ref="1657203414"/>
    <nd ref="1657203430"/>
    <nd ref="4425019582"/>
    <nd ref="4425019580"/>
    <nd ref="1657203449"/>
    <nd ref="1657203422"/>
    <nd ref="1657203393"/>
    <nd ref="4425019569"/>
    <nd ref="4425019558"/>
    <nd ref="4425019559"/>
    <nd ref="4425019573"/>
    <nd ref="1657203416"/>
    <nd ref="4425019570"/>
    <nd ref="4425019574"/>
    <nd ref="1657203414"/>
    <tag k="addr:conscriptionnumber" v="757"/>
    <tag k="addr:housenumber" v="757/24"/>
    <tag k="addr:place" v="캛akovice"/>
    <tag k="addr:postcode" v="19600"/>
    <tag k="addr:street" v="Na barik치d치ch"/>
    <tag k="addr:streetnumber" v="24"/>
    <tag k="building" v="residential"/>
    <tag k="building:flats" v="1"/>
    <tag k="building:levels" v="1"/>
    <tag k="building:ruian:type" v="3"/>
    <tag k="ref:ruian:addr" v="22412077"/>
    <tag k="ref:ruian:building" v="22275584"/>
    <tag k="roof:shape" v="flat"/>
    <tag k="source" v="cuzk:ruian"/>
  </way>
  <way id="152955653" version="6" timestamp="2024-08-29T03:49:41Z" changeset="155908076" uid="3003739" user="r00tcz">
    <nd ref="1657203601"/>
    <nd ref="1657203649"/>
    <nd ref="1657203568"/>
    <nd ref="1657203518"/>
    <nd ref="1657203546"/>
    <nd ref="1657203534"/>
    <nd ref="1657203601"/>
    <tag k="addr:conscriptionnumber" v="756"/>
    <tag k="addr:housenumber" v="756/26"/>
    <tag k="addr:place" v="캛akovice"/>
    <tag k="addr:postcode" v="19600"/>
    <tag k="addr:street" v="Na barik치d치ch"/>
    <tag k="addr:streetnumber" v="26"/>
    <tag k="building" v="residential"/>
    <tag k="building:flats" v="1"/>
    <tag k="building:levels" v="1"/>
    <tag k="building:ruian:type" v="3"/>
    <tag k="ref:ruian:addr" v="22412069"/>
    <tag k="ref:ruian:building" v="22275576"/>
    <tag k="roof:shape" v="half-hipped"/>
    <tag k="source" v="cuzk:ruian"/>
  </way>
  <way id="152955658" version="5" timestamp="2017-07-01T17:49:51Z" changeset="49969783" uid="1942179" user="CzechAddress">
    <nd ref="1657203738"/>
    <nd ref="1657203739"/>
    <nd ref="1657203745"/>
    <nd ref="1657203747"/>
    <nd ref="1657203725"/>
    <nd ref="1657203684"/>
    <nd ref="1657203738"/>
    <tag k="addr:conscriptionnumber" v="755"/>
    <tag k="addr:housenumber" v="755/28"/>
    <tag k="addr:place" v="캛akovice"/>
    <tag k="addr:postcode" v="19600"/>
    <tag k="addr:street" v="Na barik치d치ch"/>
    <tag k="addr:streetnumber" v="28"/>
    <tag k="building" v="residential"/>
    <tag k="building:flats" v="1"/>
    <tag k="building:levels" v="1"/>
    <tag k="building:ruian:type" v="3"/>
    <tag k="ref:ruian:addr" v="22412051"/>
    <tag k="ref:ruian:building" v="22275568"/>
    <tag k="source" v="cuzk:ruian"/>
  </way>
  <way id="152955663" version="6" timestamp="2024-08-29T03:49:42Z" changeset="155908076" uid="3003739" user="r00tcz">
    <nd ref="1657203380"/>
    <nd ref="1657203364"/>
    <nd ref="1657203342"/>
    <nd ref="1657203297"/>
    <nd ref="1657203244"/>
    <nd ref="1657203343"/>
    <nd ref="1657203380"/>
    <tag k="addr:conscriptionnumber" v="758"/>
    <tag k="addr:housenumber" v="758/22"/>
    <tag k="addr:place" v="캛akovice"/>
    <tag k="addr:postcode" v="19600"/>
    <tag k="addr:street" v="Na barik치d치ch"/>
    <tag k="addr:streetnumber" v="22"/>
    <tag k="building" v="residential"/>
    <tag k="building:flats" v="2"/>
    <tag k="building:levels" v="1"/>
    <tag k="building:ruian:type" v="3"/>
    <tag k="ref:ruian:addr" v="22412085"/>
    <tag k="ref:ruian:building" v="22275592"/>
    <tag k="roof:shape" v="gabled"/>
    <tag k="source" v="cuzk:ruian"/>
  </way>
  <way id="152955668" version="5" timestamp="2017-07-01T17:49:52Z" changeset="49969783" uid="1942179" user="CzechAddress">
    <nd ref="1657203603"/>
    <nd ref="1657203589"/>
    <nd ref="1657203640"/>
    <nd ref="1657203549"/>
    <nd ref="1657203515"/>
    <nd ref="1657203531"/>
    <nd ref="1657203528"/>
    <nd ref="1657203553"/>
    <nd ref="1657203551"/>
    <nd ref="3233661951"/>
    <nd ref="1657203603"/>
    <tag k="addr:conscriptionnumber" v="314"/>
    <tag k="addr:housenumber" v="314/15"/>
    <tag k="addr:place" v="캛akovice"/>
    <tag k="addr:postcode" v="19600"/>
    <tag k="addr:street" v="Na barik치d치ch"/>
    <tag k="addr:streetnumber" v="15"/>
    <tag k="building" v="residential"/>
    <tag k="building:flats" v="2"/>
    <tag k="building:levels" v="1"/>
    <tag k="building:ruian:type" v="3"/>
    <tag k="ref:ruian:addr" v="22407669"/>
    <tag k="ref:ruian:building" v="22271180"/>
    <tag k="source" v="cuzk:ruian"/>
  </way>
  <way id="152955669" version="5" timestamp="2017-07-01T17:49:52Z" changeset="49969783" uid="1942179" user="CzechAddress">
    <nd ref="1657203475"/>
    <nd ref="1657203477"/>
    <nd ref="1657203482"/>
    <nd ref="1657203473"/>
    <nd ref="1657203487"/>
    <nd ref="1657203436"/>
    <nd ref="1657203415"/>
    <nd ref="1657203464"/>
    <nd ref="1657203475"/>
    <tag k="addr:conscriptionnumber" v="483"/>
    <tag k="addr:housenumber" v="483/13"/>
    <tag k="addr:place" v="캛akovice"/>
    <tag k="addr:postcode" v="19600"/>
    <tag k="addr:street" v="Na barik치d치ch"/>
    <tag k="addr:streetnumber" v="13"/>
    <tag k="building" v="residential"/>
    <tag k="building:flats" v="1"/>
    <tag k="building:levels" v="1"/>
    <tag k="building:ruian:type" v="3"/>
    <tag k="ref:ruian:addr" v="22409335"/>
    <tag k="ref:ruian:building" v="22272852"/>
    <tag k="source" v="cuzk:ruian"/>
  </way>
  <way id="152955670" version="5" timestamp="2017-07-01T17:49:52Z" changeset="49969783" uid="1942179" user="CzechAddress">
    <nd ref="1657203786"/>
    <nd ref="1657203760"/>
    <nd ref="1657203791"/>
    <nd ref="1657203796"/>
    <nd ref="1657203779"/>
    <nd ref="1657203752"/>
    <nd ref="1657203784"/>
    <nd ref="1657203786"/>
    <tag k="addr:conscriptionnumber" v="754"/>
    <tag k="addr:housenumber" v="754/30"/>
    <tag k="addr:place" v="캛akovice"/>
    <tag k="addr:postcode" v="19600"/>
    <tag k="addr:street" v="Na barik치d치ch"/>
    <tag k="addr:streetnumber" v="30"/>
    <tag k="building" v="residential"/>
    <tag k="building:flats" v="1"/>
    <tag k="building:levels" v="1"/>
    <tag k="building:ruian:type" v="3"/>
    <tag k="ref:ruian:addr" v="22412042"/>
    <tag k="ref:ruian:building" v="22275550"/>
    <tag k="source" v="cuzk:ruian"/>
  </way>
  <way id="152955672" version="5" timestamp="2021-12-23T22:28:10Z" changeset="115314817" uid="1942179" user="CzechAddress">
    <nd ref="1657203727"/>
    <nd ref="1657203700"/>
    <nd ref="1657203695"/>
    <nd ref="1657203658"/>
    <nd ref="1657203677"/>
    <nd ref="1657203640"/>
    <nd ref="1657203589"/>
    <nd ref="1657203682"/>
    <nd ref="1657203727"/>
    <tag k="addr:conscriptionnumber" v="838"/>
    <tag k="addr:housenumber" v="838/17"/>
    <tag k="addr:place" v="캛akovice"/>
    <tag k="addr:postcode" v="19600"/>
    <tag k="addr:street" v="Na barik치d치ch"/>
    <tag k="addr:streetnumber" v="17"/>
    <tag k="building" v="residential"/>
    <tag k="building:flats" v="2"/>
    <tag k="building:levels" v="3"/>
    <tag k="building:ruian:type" v="3"/>
    <tag k="ref:ruian:addr" v="22412867"/>
    <tag k="ref:ruian:building" v="22276378"/>
    <tag k="source" v="cuzk:ruian"/>
  </way>
  <way id="152955673" version="5" timestamp="2024-08-29T03:49:41Z" changeset="155908076" uid="3003739" user="r00tcz">
    <nd ref="1657203318"/>
    <nd ref="1657203329"/>
    <nd ref="1657203346"/>
    <nd ref="1657203367"/>
    <nd ref="1657203379"/>
    <nd ref="1657203383"/>
    <nd ref="1657203288"/>
    <nd ref="1657203237"/>
    <nd ref="1657203332"/>
    <nd ref="1657203318"/>
    <tag k="addr:conscriptionnumber" v="316"/>
    <tag k="addr:housenumber" v="316/21"/>
    <tag k="addr:postcode" v="19600"/>
    <tag k="addr:street" v="Z치mi코ova"/>
    <tag k="addr:streetnumber" v="21"/>
    <tag k="building" v="house"/>
    <tag k="building:flats" v="1"/>
    <tag k="building:levels" v="1"/>
    <tag k="building:ruian:type" v="7"/>
    <tag k="ref:ruian:addr" v="22407685"/>
    <tag k="ref:ruian:building" v="22271201"/>
    <tag k="roof:shape" v="gabled"/>
    <tag k="source" v="cuzk:ruian"/>
  </way>
  <way id="152962414" version="5" timestamp="2017-07-01T17:49:53Z" changeset="49969783" uid="1942179" user="CzechAddress">
    <nd ref="1657266776"/>
    <nd ref="3233659885"/>
    <nd ref="1657266796"/>
    <nd ref="1657266774"/>
    <nd ref="1657266711"/>
    <nd ref="1657266698"/>
    <nd ref="3233659727"/>
    <nd ref="1657266776"/>
    <tag k="addr:conscriptionnumber" v="259"/>
    <tag k="addr:housenumber" v="259/9"/>
    <tag k="addr:place" v="캛akovice"/>
    <tag k="addr:postcode" v="19600"/>
    <tag k="addr:street" v="Na barik치d치ch"/>
    <tag k="addr:streetnumber" v="9"/>
    <tag k="building" v="residential"/>
    <tag k="building:flats" v="1"/>
    <tag k="building:levels" v="1"/>
    <tag k="building:ruian:type" v="3"/>
    <tag k="ref:ruian:addr" v="22407146"/>
    <tag k="ref:ruian:building" v="22270663"/>
    <tag k="source" v="cuzk:ruian"/>
  </way>
  <way id="152962417" version="4" timestamp="2024-08-29T03:49:43Z" changeset="155908076" uid="3003739" user="r00tcz">
    <nd ref="1657266490"/>
    <nd ref="1657266496"/>
    <nd ref="1657266454"/>
    <nd ref="3233658848"/>
    <nd ref="4425018950"/>
    <nd ref="4425018952"/>
    <nd ref="1657266490"/>
    <tag k="addr:conscriptionnumber" v="283"/>
    <tag k="addr:housenumber" v="283/12"/>
    <tag k="addr:postcode" v="19600"/>
    <tag k="addr:street" v="C칤rkova"/>
    <tag k="addr:streetnumber" v="12"/>
    <tag k="building" v="residential"/>
    <tag k="building:flats" v="1"/>
    <tag k="building:levels" v="1"/>
    <tag k="building:ruian:type" v="3"/>
    <tag k="ref:ruian:addr" v="22407367"/>
    <tag k="ref:ruian:building" v="22270884"/>
    <tag k="roof:shape" v="half-hipped"/>
    <tag k="source" v="cuzk:ruian"/>
  </way>
  <way id="152962419" version="8" timestamp="2024-03-22T18:46:36Z" changeset="149027075" uid="10932047" user="AF HAF KARTOGRAF">
    <nd ref="4354512340"/>
    <nd ref="4354512342"/>
    <nd ref="4354512341"/>
    <nd ref="1657266766"/>
    <nd ref="4354512344"/>
    <nd ref="4354512345"/>
    <nd ref="4354512346"/>
    <nd ref="4354512348"/>
    <nd ref="1657266849"/>
    <nd ref="1657266892"/>
    <nd ref="11748973482"/>
    <nd ref="4354512347"/>
    <nd ref="1657266847"/>
    <nd ref="1657266811"/>
    <nd ref="3233659885"/>
    <nd ref="1657266776"/>
    <nd ref="4354512340"/>
    <tag k="addr:conscriptionnumber" v="294"/>
    <tag k="addr:country" v="CZ"/>
    <tag k="addr:housenumber" v="294/11"/>
    <tag k="addr:place" v="캛akovice"/>
    <tag k="addr:postcode" v="19600"/>
    <tag k="addr:street" v="Na barik치d치ch"/>
    <tag k="addr:streetnumber" v="11"/>
    <tag k="building" v="residential"/>
    <tag k="building:flats" v="1"/>
    <tag k="building:levels" v="1"/>
    <tag k="building:ruian:type" v="3"/>
    <tag k="ref:ruian:addr" v="22407464"/>
    <tag k="ref:ruian:building" v="22270981"/>
    <tag k="source" v="cuzk:ruian"/>
  </way>
  <way id="152962426" version="5" timestamp="2018-12-07T07:43:30Z" changeset="65259767" uid="2169558" user="JandaM">
    <nd ref="1657267465"/>
    <nd ref="4425019913"/>
    <nd ref="1657267400"/>
    <nd ref="1657267438"/>
    <nd ref="1657267425"/>
    <nd ref="1657267454"/>
    <nd ref="1657267465"/>
    <tag k="addr:conscriptionnumber" v="346"/>
    <tag k="addr:housenumber" v="346/29"/>
    <tag k="addr:place" v="캛akovice"/>
    <tag k="addr:postcode" v="19600"/>
    <tag k="addr:street" v="Na barik치d치ch"/>
    <tag k="addr:streetnumber" v="29"/>
    <tag k="building" v="residential"/>
    <tag k="building:flats" v="2"/>
    <tag k="building:levels" v="1"/>
    <tag k="building:ruian:type" v="3"/>
    <tag k="ref:ruian:addr" v="22407987"/>
    <tag k="ref:ruian:building" v="22271503"/>
    <tag k="source" v="cuzk:ruian"/>
  </way>
  <way id="152962429" version="5" timestamp="2018-12-07T07:43:30Z" changeset="65259767" uid="2169558" user="JandaM">
    <nd ref="4425019913"/>
    <nd ref="1657267375"/>
    <nd ref="1657267370"/>
    <nd ref="1657267397"/>
    <nd ref="6122916384"/>
    <nd ref="6122916383"/>
    <nd ref="1657267400"/>
    <nd ref="4425019913"/>
    <tag k="addr:conscriptionnumber" v="352"/>
    <tag k="addr:housenumber" v="352/27"/>
    <tag k="addr:place" v="캛akovice"/>
    <tag k="addr:postcode" v="19600"/>
    <tag k="addr:street" v="Na barik치d치ch"/>
    <tag k="addr:streetnumber" v="27"/>
    <tag k="building" v="residential"/>
    <tag k="building:flats" v="1"/>
    <tag k="building:levels" v="1"/>
    <tag k="building:ruian:type" v="3"/>
    <tag k="ref:ruian:addr" v="22408045"/>
    <tag k="ref:ruian:building" v="22271562"/>
    <tag k="source" v="cuzk:ruian"/>
  </way>
  <way id="152962431" version="4" timestamp="2017-07-01T17:49:54Z" changeset="49969783" uid="1942179" user="CzechAddress">
    <nd ref="1657266359"/>
    <nd ref="1657266353"/>
    <nd ref="1657266321"/>
    <nd ref="1657266355"/>
    <nd ref="1657266359"/>
    <tag k="addr:conscriptionnumber" v="358"/>
    <tag k="addr:housenumber" v="358/5"/>
    <tag k="addr:place" v="캛akovice"/>
    <tag k="addr:postcode" v="19600"/>
    <tag k="addr:street" v="Na barik치d치ch"/>
    <tag k="addr:streetnumber" v="5"/>
    <tag k="building" v="residential"/>
    <tag k="building:flats" v="1"/>
    <tag k="building:levels" v="1"/>
    <tag k="building:ruian:type" v="3"/>
    <tag k="ref:ruian:addr" v="22408100"/>
    <tag k="ref:ruian:building" v="22271627"/>
    <tag k="source" v="cuzk:ruian"/>
  </way>
  <way id="152962432" version="5" timestamp="2017-07-01T17:49:54Z" changeset="49969783" uid="1942179" user="CzechAddress">
    <nd ref="4354512324"/>
    <nd ref="1657266321"/>
    <nd ref="1657266353"/>
    <nd ref="1657266318"/>
    <nd ref="4354512323"/>
    <nd ref="4354512322"/>
    <nd ref="1657266304"/>
    <nd ref="4354512321"/>
    <nd ref="4354512320"/>
    <nd ref="4354512324"/>
    <tag k="addr:conscriptionnumber" v="359"/>
    <tag k="addr:housenumber" v="359/3"/>
    <tag k="addr:place" v="캛akovice"/>
    <tag k="addr:postcode" v="19600"/>
    <tag k="addr:street" v="Na barik치d치ch"/>
    <tag k="addr:streetnumber" v="3"/>
    <tag k="building" v="residential"/>
    <tag k="building:flats" v="1"/>
    <tag k="building:levels" v="1"/>
    <tag k="building:ruian:type" v="3"/>
    <tag k="ref:ruian:addr" v="22408118"/>
    <tag k="ref:ruian:building" v="22271635"/>
    <tag k="source" v="cuzk:ruian"/>
  </way>
  <way id="152962433" version="4" timestamp="2017-07-01T17:49:55Z" changeset="49969783" uid="1942179" user="CzechAddress">
    <nd ref="4425020045"/>
    <nd ref="1657267813"/>
    <nd ref="1657267783"/>
    <nd ref="1657267815"/>
    <nd ref="4425020040"/>
    <nd ref="4425020039"/>
    <nd ref="4425020036"/>
    <nd ref="4425020038"/>
    <nd ref="1657267806"/>
    <nd ref="4425020045"/>
    <tag k="addr:conscriptionnumber" v="372"/>
    <tag k="addr:housenumber" v="372/37"/>
    <tag k="addr:place" v="캛akovice"/>
    <tag k="addr:postcode" v="19600"/>
    <tag k="addr:street" v="Na barik치d치ch"/>
    <tag k="addr:streetnumber" v="37"/>
    <tag k="building" v="house"/>
    <tag k="building:flats" v="1"/>
    <tag k="building:levels" v="1"/>
    <tag k="building:ruian:type" v="7"/>
    <tag k="ref:ruian:addr" v="22408240"/>
    <tag k="ref:ruian:building" v="22271767"/>
    <tag k="source" v="cuzk:ruian"/>
  </way>
  <way id="152962434" version="4" timestamp="2024-03-30T20:01:17Z" changeset="149365661" uid="10932047" user="AF HAF KARTOGRAF">
    <nd ref="1657266226"/>
    <nd ref="2117654206"/>
    <nd ref="1657266228"/>
    <nd ref="2117654203"/>
    <nd ref="1657266225"/>
    <nd ref="2117654148"/>
    <nd ref="1657266224"/>
    <nd ref="1657266222"/>
    <nd ref="1657266221"/>
    <nd ref="1657266226"/>
    <tag k="addr:conscriptionnumber" v="378"/>
    <tag k="addr:housenumber" v="378/87"/>
    <tag k="addr:postcode" v="19600"/>
    <tag k="addr:street" v="Cukrovarsk치"/>
    <tag k="addr:streetnumber" v="87"/>
    <tag k="building" v="residential"/>
    <tag k="building:flats" v="1"/>
    <tag k="building:levels" v="1"/>
    <tag k="building:ruian:type" v="3"/>
    <tag k="ref:ruian:addr" v="22408304"/>
    <tag k="ref:ruian:building" v="22271821"/>
    <tag k="source" v="cuzk:ruian"/>
  </way>
  <way id="152962435" version="4" timestamp="2017-07-01T17:49:55Z" changeset="49969783" uid="1942179" user="CzechAddress">
    <nd ref="1657267585"/>
    <nd ref="1657267544"/>
    <nd ref="1657267519"/>
    <nd ref="4425019975"/>
    <nd ref="4425019974"/>
    <nd ref="1657267561"/>
    <nd ref="1657267585"/>
    <tag k="addr:conscriptionnumber" v="404"/>
    <tag k="addr:housenumber" v="404/31"/>
    <tag k="addr:place" v="캛akovice"/>
    <tag k="addr:postcode" v="19600"/>
    <tag k="addr:street" v="Na barik치d치ch"/>
    <tag k="addr:streetnumber" v="31"/>
    <tag k="building" v="residential"/>
    <tag k="building:flats" v="1"/>
    <tag k="building:levels" v="1"/>
    <tag k="building:ruian:type" v="3"/>
    <tag k="ref:ruian:addr" v="22408568"/>
    <tag k="ref:ruian:building" v="22272089"/>
    <tag k="source" v="cuzk:ruian"/>
  </way>
  <way id="152962436" version="3" timestamp="2024-03-30T20:01:17Z" changeset="149365661" uid="10932047" user="AF HAF KARTOGRAF">
    <nd ref="1657267561"/>
    <nd ref="4425019974"/>
    <nd ref="1657267490"/>
    <nd ref="1657267552"/>
    <nd ref="1657267561"/>
    <tag k="addr:conscriptionnumber" v="409"/>
    <tag k="addr:housenumber" v="409/32"/>
    <tag k="addr:postcode" v="19600"/>
    <tag k="addr:street" v="Hrdinova"/>
    <tag k="addr:streetnumber" v="32"/>
    <tag k="building" v="residential"/>
    <tag k="building:flats" v="1"/>
    <tag k="building:levels" v="1"/>
    <tag k="building:ruian:type" v="3"/>
    <tag k="ref:ruian:addr" v="22408614"/>
    <tag k="ref:ruian:building" v="22272135"/>
    <tag k="source" v="cuzk:ruian"/>
  </way>
  <way id="152962437" version="3" timestamp="2024-03-30T20:01:17Z" changeset="149365661" uid="10932047" user="AF HAF KARTOGRAF">
    <nd ref="1657267270"/>
    <nd ref="1657267241"/>
    <nd ref="1657267228"/>
    <nd ref="1657267247"/>
    <nd ref="1657267270"/>
    <tag k="addr:conscriptionnumber" v="418"/>
    <tag k="addr:housenumber" v="418/26"/>
    <tag k="addr:postcode" v="19600"/>
    <tag k="addr:street" v="Danielova"/>
    <tag k="addr:streetnumber" v="26"/>
    <tag k="building" v="house"/>
    <tag k="building:flats" v="2"/>
    <tag k="building:levels" v="1"/>
    <tag k="building:ruian:type" v="7"/>
    <tag k="ref:ruian:addr" v="22408690"/>
    <tag k="ref:ruian:building" v="22272216"/>
    <tag k="source" v="cuzk:ruian"/>
  </way>
  <way id="152962438" version="4" timestamp="2024-03-30T20:01:17Z" changeset="149365661" uid="10932047" user="AF HAF KARTOGRAF">
    <nd ref="1657267283"/>
    <nd ref="6370404884"/>
    <nd ref="1657267277"/>
    <nd ref="1657267287"/>
    <nd ref="4425019865"/>
    <nd ref="1657267310"/>
    <nd ref="1657267305"/>
    <nd ref="4425019872"/>
    <nd ref="1657267283"/>
    <tag k="addr:conscriptionnumber" v="424"/>
    <tag k="addr:housenumber" v="424/33"/>
    <tag k="addr:postcode" v="19600"/>
    <tag k="addr:street" v="Danielova"/>
    <tag k="addr:streetnumber" v="33"/>
    <tag k="building" v="residential"/>
    <tag k="building:flats" v="1"/>
    <tag k="building:levels" v="1"/>
    <tag k="building:ruian:type" v="3"/>
    <tag k="ref:ruian:addr" v="22408754"/>
    <tag k="ref:ruian:building" v="22272275"/>
    <tag k="source" v="cuzk:ruian"/>
  </way>
  <way id="152962439" version="5" timestamp="2017-07-01T17:49:55Z" changeset="49969783" uid="1942179" user="CzechAddress">
    <nd ref="2120540101"/>
    <nd ref="2120540104"/>
    <nd ref="1657267960"/>
    <nd ref="1657267944"/>
    <nd ref="1657267937"/>
    <nd ref="1657267956"/>
    <nd ref="4425020060"/>
    <nd ref="2120540102"/>
    <nd ref="2120540097"/>
    <nd ref="2120540101"/>
    <tag k="addr:conscriptionnumber" v="439"/>
    <tag k="addr:housenumber" v="439/43"/>
    <tag k="addr:place" v="캛akovice"/>
    <tag k="addr:postcode" v="19600"/>
    <tag k="addr:street" v="Na barik치d치ch"/>
    <tag k="addr:streetnumber" v="43"/>
    <tag k="building" v="residential"/>
    <tag k="building:flats" v="1"/>
    <tag k="building:levels" v="1"/>
    <tag k="building:ruian:type" v="3"/>
    <tag k="ref:ruian:addr" v="22408908"/>
    <tag k="ref:ruian:building" v="22272429"/>
    <tag k="source" v="cuzk:ruian"/>
  </way>
  <way id="152962440" version="4" timestamp="2017-07-01T17:49:56Z" changeset="49969783" uid="1942179" user="CzechAddress">
    <nd ref="1657267924"/>
    <nd ref="1657267891"/>
    <nd ref="1657267880"/>
    <nd ref="4425020053"/>
    <nd ref="4425020052"/>
    <nd ref="1657267895"/>
    <nd ref="1657267924"/>
    <tag k="addr:conscriptionnumber" v="440"/>
    <tag k="addr:housenumber" v="440/41"/>
    <tag k="addr:place" v="캛akovice"/>
    <tag k="addr:postcode" v="19600"/>
    <tag k="addr:street" v="Na barik치d치ch"/>
    <tag k="addr:streetnumber" v="41"/>
    <tag k="building" v="residential"/>
    <tag k="building:flats" v="1"/>
    <tag k="building:levels" v="1"/>
    <tag k="building:ruian:type" v="3"/>
    <tag k="ref:ruian:addr" v="22408916"/>
    <tag k="ref:ruian:building" v="22272437"/>
    <tag k="source" v="cuzk:ruian"/>
  </way>
  <way id="152962441" version="4" timestamp="2017-07-01T17:49:56Z" changeset="49969783" uid="1942179" user="CzechAddress">
    <nd ref="1657267774"/>
    <nd ref="1657267780"/>
    <nd ref="1657267772"/>
    <nd ref="1657267754"/>
    <nd ref="1657267774"/>
    <tag k="addr:conscriptionnumber" v="449"/>
    <tag k="addr:housenumber" v="449/35"/>
    <tag k="addr:place" v="캛akovice"/>
    <tag k="addr:postcode" v="19600"/>
    <tag k="addr:street" v="Na barik치d치ch"/>
    <tag k="addr:streetnumber" v="35"/>
    <tag k="building" v="house"/>
    <tag k="building:flats" v="1"/>
    <tag k="building:levels" v="1"/>
    <tag k="building:ruian:type" v="7"/>
    <tag k="ref:ruian:addr" v="22408991"/>
    <tag k="ref:ruian:building" v="22272518"/>
    <tag k="source" v="cuzk:ruian"/>
  </way>
  <way id="152962442" version="3" timestamp="2024-03-30T20:01:17Z" changeset="149365661" uid="10932047" user="AF HAF KARTOGRAF">
    <nd ref="1657267085"/>
    <nd ref="1657267095"/>
    <nd ref="1657267089"/>
    <nd ref="1657267092"/>
    <nd ref="1657267082"/>
    <nd ref="1657267064"/>
    <nd ref="1657267058"/>
    <nd ref="1657267057"/>
    <nd ref="1657267055"/>
    <nd ref="1657267053"/>
    <nd ref="1657267048"/>
    <nd ref="1657267026"/>
    <nd ref="1657267028"/>
    <nd ref="1657267052"/>
    <nd ref="1657267050"/>
    <nd ref="1657267085"/>
    <tag k="addr:conscriptionnumber" v="459"/>
    <tag k="addr:housenumber" v="459/21"/>
    <tag k="addr:postcode" v="19600"/>
    <tag k="addr:street" v="Polabsk치"/>
    <tag k="addr:streetnumber" v="21"/>
    <tag k="building" v="residential"/>
    <tag k="building:flats" v="1"/>
    <tag k="building:levels" v="1"/>
    <tag k="building:ruian:type" v="3"/>
    <tag k="ref:ruian:addr" v="22409092"/>
    <tag k="ref:ruian:building" v="22272615"/>
    <tag k="source" v="cuzk:ruian"/>
  </way>
  <way id="152962443" version="4" timestamp="2017-07-01T17:49:56Z" changeset="49969783" uid="1942179" user="CzechAddress">
    <nd ref="1657267821"/>
    <nd ref="1657267834"/>
    <nd ref="1657267847"/>
    <nd ref="4425020047"/>
    <nd ref="4425020045"/>
    <nd ref="1657267806"/>
    <nd ref="3233665403"/>
    <nd ref="1657267811"/>
    <nd ref="1657267821"/>
    <tag k="addr:conscriptionnumber" v="476"/>
    <tag k="addr:housenumber" v="476/39"/>
    <tag k="addr:place" v="캛akovice"/>
    <tag k="addr:postcode" v="19600"/>
    <tag k="addr:street" v="Na barik치d치ch"/>
    <tag k="addr:streetnumber" v="39"/>
    <tag k="building" v="residential"/>
    <tag k="building:flats" v="1"/>
    <tag k="building:levels" v="1"/>
    <tag k="building:ruian:type" v="3"/>
    <tag k="ref:ruian:addr" v="22409262"/>
    <tag k="ref:ruian:building" v="22272780"/>
    <tag k="source" v="cuzk:ruian"/>
  </way>
  <way id="152962444" version="4" timestamp="2017-07-01T17:49:56Z" changeset="49969783" uid="1942179" user="CzechAddress">
    <nd ref="1657267883"/>
    <nd ref="1657267856"/>
    <nd ref="1657267851"/>
    <nd ref="1657267839"/>
    <nd ref="1657267819"/>
    <nd ref="1657267854"/>
    <nd ref="1657267883"/>
    <tag k="addr:conscriptionnumber" v="666"/>
    <tag k="addr:housenumber" v="666/56"/>
    <tag k="addr:place" v="캛akovice"/>
    <tag k="addr:postcode" v="19600"/>
    <tag k="addr:street" v="Na barik치d치ch"/>
    <tag k="addr:streetnumber" v="56"/>
    <tag k="building" v="residential"/>
    <tag k="building:flats" v="2"/>
    <tag k="building:levels" v="1"/>
    <tag k="building:ruian:type" v="3"/>
    <tag k="ref:ruian:addr" v="22411160"/>
    <tag k="ref:ruian:building" v="22274685"/>
    <tag k="source" v="cuzk:ruian"/>
  </way>
  <way id="152962445" version="5" timestamp="2020-04-20T09:36:55Z" changeset="83811879" uid="2169558" user="JandaM">
    <nd ref="1657267778"/>
    <nd ref="1657267803"/>
    <nd ref="7425214621"/>
    <nd ref="7425214620"/>
    <nd ref="1657267773"/>
    <nd ref="1657267770"/>
    <nd ref="1657267778"/>
    <tag k="addr:conscriptionnumber" v="667"/>
    <tag k="addr:housenumber" v="667/54"/>
    <tag k="addr:place" v="캛akovice"/>
    <tag k="addr:postcode" v="19600"/>
    <tag k="addr:street" v="Na barik치d치ch"/>
    <tag k="addr:streetnumber" v="54"/>
    <tag k="building" v="house"/>
    <tag k="building:flats" v="1"/>
    <tag k="building:levels" v="1"/>
    <tag k="building:ruian:type" v="7"/>
    <tag k="ref:ruian:addr" v="22411178"/>
    <tag k="ref:ruian:building" v="22274693"/>
    <tag k="source" v="cuzk:ruian"/>
  </way>
  <way id="152962446" version="4" timestamp="2017-07-01T17:49:57Z" changeset="49969783" uid="1942179" user="CzechAddress">
    <nd ref="1657267744"/>
    <nd ref="1657267751"/>
    <nd ref="1657267749"/>
    <nd ref="1657267747"/>
    <nd ref="1657267743"/>
    <nd ref="1657267736"/>
    <nd ref="1657267744"/>
    <tag k="addr:conscriptionnumber" v="668"/>
    <tag k="addr:housenumber" v="668/52"/>
    <tag k="addr:place" v="캛akovice"/>
    <tag k="addr:postcode" v="19600"/>
    <tag k="addr:street" v="Na barik치d치ch"/>
    <tag k="addr:streetnumber" v="52"/>
    <tag k="building" v="residential"/>
    <tag k="building:flats" v="1"/>
    <tag k="building:levels" v="1"/>
    <tag k="building:ruian:type" v="3"/>
    <tag k="ref:ruian:addr" v="22411186"/>
    <tag k="ref:ruian:building" v="22274707"/>
    <tag k="source" v="cuzk:ruian"/>
  </way>
  <way id="152962447" version="4" timestamp="2017-07-01T17:49:57Z" changeset="49969783" uid="1942179" user="CzechAddress">
    <nd ref="1657267705"/>
    <nd ref="1657267710"/>
    <nd ref="1657267708"/>
    <nd ref="1657267712"/>
    <nd ref="1657267704"/>
    <nd ref="1657267686"/>
    <nd ref="1657267677"/>
    <nd ref="1657267649"/>
    <nd ref="1657267705"/>
    <tag k="addr:conscriptionnumber" v="669"/>
    <tag k="addr:housenumber" v="669/50"/>
    <tag k="addr:place" v="캛akovice"/>
    <tag k="addr:postcode" v="19600"/>
    <tag k="addr:street" v="Na barik치d치ch"/>
    <tag k="addr:streetnumber" v="50"/>
    <tag k="building" v="residential"/>
    <tag k="building:flats" v="2"/>
    <tag k="building:levels" v="1"/>
    <tag k="building:ruian:type" v="3"/>
    <tag k="ref:ruian:addr" v="22411194"/>
    <tag k="ref:ruian:building" v="22274715"/>
    <tag k="source" v="cuzk:ruian"/>
  </way>
  <way id="152962448" version="4" timestamp="2017-07-01T17:49:57Z" changeset="49969783" uid="1942179" user="CzechAddress">
    <nd ref="1657267602"/>
    <nd ref="1657267605"/>
    <nd ref="1657267624"/>
    <nd ref="1657267591"/>
    <nd ref="1657267586"/>
    <nd ref="1657267557"/>
    <nd ref="1657267550"/>
    <nd ref="1657267588"/>
    <nd ref="1657267602"/>
    <tag k="addr:conscriptionnumber" v="670"/>
    <tag k="addr:housenumber" v="670/48"/>
    <tag k="addr:place" v="캛akovice"/>
    <tag k="addr:postcode" v="19600"/>
    <tag k="addr:street" v="Na barik치d치ch"/>
    <tag k="addr:streetnumber" v="48"/>
    <tag k="building" v="residential"/>
    <tag k="building:flats" v="2"/>
    <tag k="building:levels" v="1"/>
    <tag k="building:ruian:type" v="3"/>
    <tag k="ref:ruian:addr" v="22411208"/>
    <tag k="ref:ruian:building" v="22274723"/>
    <tag k="source" v="cuzk:ruian"/>
  </way>
  <way id="152962449" version="4" timestamp="2017-07-01T17:49:58Z" changeset="49969783" uid="1942179" user="CzechAddress">
    <nd ref="1657267489"/>
    <nd ref="1657267479"/>
    <nd ref="1657267506"/>
    <nd ref="1657267510"/>
    <nd ref="4425019965"/>
    <nd ref="1657267523"/>
    <nd ref="1657267483"/>
    <nd ref="1657267469"/>
    <nd ref="1657267489"/>
    <tag k="addr:conscriptionnumber" v="671"/>
    <tag k="addr:housenumber" v="671/46"/>
    <tag k="addr:place" v="캛akovice"/>
    <tag k="addr:postcode" v="19600"/>
    <tag k="addr:street" v="Na barik치d치ch"/>
    <tag k="addr:streetnumber" v="46"/>
    <tag k="building" v="residential"/>
    <tag k="building:flats" v="2"/>
    <tag k="building:levels" v="1"/>
    <tag k="building:ruian:type" v="3"/>
    <tag k="ref:ruian:addr" v="22411216"/>
    <tag k="ref:ruian:building" v="22274731"/>
    <tag k="source" v="cuzk:ruian"/>
  </way>
  <way id="152962450" version="4" timestamp="2017-07-01T17:49:58Z" changeset="49969783" uid="1942179" user="CzechAddress">
    <nd ref="1657267443"/>
    <nd ref="1657267448"/>
    <nd ref="1657267452"/>
    <nd ref="1657267463"/>
    <nd ref="3233664531"/>
    <nd ref="1657267413"/>
    <nd ref="1657267435"/>
    <nd ref="1657267406"/>
    <nd ref="1657267404"/>
    <nd ref="1657267402"/>
    <nd ref="1657267428"/>
    <nd ref="1657267409"/>
    <nd ref="1657267443"/>
    <tag k="addr:conscriptionnumber" v="672"/>
    <tag k="addr:housenumber" v="672/44"/>
    <tag k="addr:place" v="캛akovice"/>
    <tag k="addr:postcode" v="19600"/>
    <tag k="addr:street" v="Na barik치d치ch"/>
    <tag k="addr:streetnumber" v="44"/>
    <tag k="building" v="house"/>
    <tag k="building:flats" v="1"/>
    <tag k="building:levels" v="3"/>
    <tag k="building:ruian:type" v="7"/>
    <tag k="ref:ruian:addr" v="22411224"/>
    <tag k="ref:ruian:building" v="22274740"/>
    <tag k="source" v="cuzk:ruian"/>
    <tag k="start_date" v="2014-09-26"/>
  </way>
  <way id="152962451" version="4" timestamp="2017-07-01T17:49:58Z" changeset="49969783" uid="1942179" user="CzechAddress">
    <nd ref="1657267365"/>
    <nd ref="1657267395"/>
    <nd ref="1657267373"/>
    <nd ref="1657267361"/>
    <nd ref="1657267356"/>
    <nd ref="1657267352"/>
    <nd ref="1657267365"/>
    <tag k="addr:conscriptionnumber" v="673"/>
    <tag k="addr:housenumber" v="673/42"/>
    <tag k="addr:place" v="캛akovice"/>
    <tag k="addr:postcode" v="19600"/>
    <tag k="addr:street" v="Na barik치d치ch"/>
    <tag k="addr:streetnumber" v="42"/>
    <tag k="building" v="residential"/>
    <tag k="building:flats" v="1"/>
    <tag k="building:levels" v="1"/>
    <tag k="building:ruian:type" v="3"/>
    <tag k="ref:ruian:addr" v="22411232"/>
    <tag k="ref:ruian:building" v="22274758"/>
    <tag k="source" v="cuzk:ruian"/>
  </way>
  <way id="152962452" version="4" timestamp="2017-07-01T17:49:58Z" changeset="49969783" uid="1942179" user="CzechAddress">
    <nd ref="1657267320"/>
    <nd ref="1657267324"/>
    <nd ref="4425019883"/>
    <nd ref="1657267349"/>
    <nd ref="1657267312"/>
    <nd ref="1657267280"/>
    <nd ref="1657267307"/>
    <nd ref="1657267291"/>
    <nd ref="1657267320"/>
    <tag k="addr:conscriptionnumber" v="674"/>
    <tag k="addr:housenumber" v="674/40"/>
    <tag k="addr:place" v="캛akovice"/>
    <tag k="addr:postcode" v="19600"/>
    <tag k="addr:street" v="Na barik치d치ch"/>
    <tag k="addr:streetnumber" v="40"/>
    <tag k="building" v="residential"/>
    <tag k="building:flats" v="1"/>
    <tag k="building:levels" v="1"/>
    <tag k="building:ruian:type" v="3"/>
    <tag k="ref:ruian:addr" v="22411241"/>
    <tag k="ref:ruian:building" v="22274766"/>
    <tag k="source" v="cuzk:ruian"/>
  </way>
  <way id="152962453" version="4" timestamp="2017-07-01T17:49:59Z" changeset="49969783" uid="1942179" user="CzechAddress">
    <nd ref="1657267268"/>
    <nd ref="1657267274"/>
    <nd ref="4425019834"/>
    <nd ref="1657267271"/>
    <nd ref="1657267251"/>
    <nd ref="1657267254"/>
    <nd ref="1657267268"/>
    <tag k="addr:conscriptionnumber" v="675"/>
    <tag k="addr:housenumber" v="675/38"/>
    <tag k="addr:place" v="캛akovice"/>
    <tag k="addr:postcode" v="19600"/>
    <tag k="addr:street" v="Na barik치d치ch"/>
    <tag k="addr:streetnumber" v="38"/>
    <tag k="building" v="residential"/>
    <tag k="building:flats" v="1"/>
    <tag k="building:levels" v="1"/>
    <tag k="building:ruian:type" v="3"/>
    <tag k="ref:ruian:addr" v="22411259"/>
    <tag k="ref:ruian:building" v="22274774"/>
    <tag k="source" v="cuzk:ruian"/>
  </way>
  <way id="152962454" version="5" timestamp="2024-05-02T20:49:14Z" changeset="150811458" uid="3003739" user="r00tcz">
    <nd ref="1657267215"/>
    <nd ref="1657267213"/>
    <nd ref="1657267208"/>
    <nd ref="1657267201"/>
    <nd ref="1657267231"/>
    <nd ref="1657267236"/>
    <nd ref="1657267233"/>
    <nd ref="1657267238"/>
    <nd ref="1657267240"/>
    <nd ref="1657267244"/>
    <nd ref="4425019783"/>
    <nd ref="1657267216"/>
    <nd ref="1657267215"/>
    <tag k="addr:conscriptionnumber" v="676"/>
    <tag k="addr:housenumber" v="676/36"/>
    <tag k="addr:place" v="캛akovice"/>
    <tag k="addr:postcode" v="19600"/>
    <tag k="addr:street" v="Na barik치d치ch"/>
    <tag k="addr:streetnumber" v="36"/>
    <tag k="building" v="residential"/>
    <tag k="building:flats" v="2"/>
    <tag k="building:levels" v="1"/>
    <tag k="building:ruian:type" v="3"/>
    <tag k="ref:ruian:addr" v="22411267"/>
    <tag k="ref:ruian:building" v="22274782"/>
    <tag k="roof:shape" v="gabled"/>
    <tag k="source" v="cuzk:ruian"/>
  </way>
  <way id="152962455" version="5" timestamp="2017-07-01T17:49:59Z" changeset="49969783" uid="1942179" user="CzechAddress">
    <nd ref="1657268079"/>
    <nd ref="1657268087"/>
    <nd ref="1657268085"/>
    <nd ref="3233666147"/>
    <nd ref="4425020070"/>
    <nd ref="1657268077"/>
    <nd ref="1657268072"/>
    <nd ref="1657268038"/>
    <nd ref="1657268079"/>
    <tag k="addr:conscriptionnumber" v="724"/>
    <tag k="addr:country" v="CZ"/>
    <tag k="addr:housenumber" v="724/64"/>
    <tag k="addr:place" v="캛akovice"/>
    <tag k="addr:postcode" v="19600"/>
    <tag k="addr:street" v="Na barik치d치ch"/>
    <tag k="addr:streetnumber" v="64"/>
    <tag k="building" v="residential"/>
    <tag k="building:flats" v="1"/>
    <tag k="building:levels" v="1"/>
    <tag k="building:ruian:type" v="3"/>
    <tag k="ref:ruian:addr" v="22411739"/>
    <tag k="ref:ruian:building" v="22275258"/>
    <tag k="source" v="cuzk:ruian"/>
  </way>
  <way id="152962456" version="4" timestamp="2017-07-01T17:50:00Z" changeset="49969783" uid="1942179" user="CzechAddress">
    <nd ref="1657268026"/>
    <nd ref="1657268027"/>
    <nd ref="1657268029"/>
    <nd ref="1657268032"/>
    <nd ref="1657267999"/>
    <nd ref="1657267993"/>
    <nd ref="1657268026"/>
    <tag k="addr:conscriptionnumber" v="733"/>
    <tag k="addr:housenumber" v="733/45"/>
    <tag k="addr:place" v="캛akovice"/>
    <tag k="addr:postcode" v="19600"/>
    <tag k="addr:street" v="Na barik치d치ch"/>
    <tag k="addr:streetnumber" v="45"/>
    <tag k="building" v="residential"/>
    <tag k="building:flats" v="1"/>
    <tag k="building:levels" v="1"/>
    <tag k="building:ruian:type" v="3"/>
    <tag k="ref:ruian:addr" v="22411828"/>
    <tag k="ref:ruian:building" v="22275347"/>
    <tag k="source" v="cuzk:ruian"/>
  </way>
  <way id="152962457" version="4" timestamp="2017-07-01T17:50:00Z" changeset="49969783" uid="1942179" user="CzechAddress">
    <nd ref="1657267978"/>
    <nd ref="1657267983"/>
    <nd ref="1657267986"/>
    <nd ref="1657267989"/>
    <nd ref="1657267980"/>
    <nd ref="1657267975"/>
    <nd ref="1657267971"/>
    <nd ref="1657267952"/>
    <nd ref="1657267978"/>
    <tag k="addr:conscriptionnumber" v="737"/>
    <tag k="addr:housenumber" v="737/60"/>
    <tag k="addr:place" v="캛akovice"/>
    <tag k="addr:postcode" v="19600"/>
    <tag k="addr:street" v="Na barik치d치ch"/>
    <tag k="addr:streetnumber" v="60"/>
    <tag k="building" v="residential"/>
    <tag k="building:flats" v="1"/>
    <tag k="building:levels" v="1"/>
    <tag k="building:ruian:type" v="3"/>
    <tag k="ref:ruian:addr" v="22411861"/>
    <tag k="ref:ruian:building" v="22275380"/>
    <tag k="source" v="cuzk:ruian"/>
  </way>
  <way id="152962458" version="4" timestamp="2017-07-01T17:50:00Z" changeset="49969783" uid="1942179" user="CzechAddress">
    <nd ref="1657267929"/>
    <nd ref="1657267948"/>
    <nd ref="1657267933"/>
    <nd ref="1657267919"/>
    <nd ref="1657267900"/>
    <nd ref="1657267887"/>
    <nd ref="1657267929"/>
    <tag k="addr:conscriptionnumber" v="738"/>
    <tag k="addr:housenumber" v="738/58"/>
    <tag k="addr:place" v="캛akovice"/>
    <tag k="addr:postcode" v="19600"/>
    <tag k="addr:street" v="Na barik치d치ch"/>
    <tag k="addr:streetnumber" v="58"/>
    <tag k="building" v="house"/>
    <tag k="building:flats" v="2"/>
    <tag k="building:levels" v="1"/>
    <tag k="building:ruian:type" v="7"/>
    <tag k="ref:ruian:addr" v="22411879"/>
    <tag k="ref:ruian:building" v="22275398"/>
    <tag k="source" v="cuzk:ruian"/>
  </way>
  <way id="152962459" version="5" timestamp="2018-05-17T12:59:13Z" changeset="59050256" uid="2169558" user="JandaM">
    <nd ref="1657268031"/>
    <nd ref="1657268034"/>
    <nd ref="1657268024"/>
    <nd ref="5624539186"/>
    <nd ref="5624539185"/>
    <nd ref="1657267996"/>
    <nd ref="1657268031"/>
    <tag k="addr:conscriptionnumber" v="739"/>
    <tag k="addr:housenumber" v="739/62"/>
    <tag k="addr:place" v="캛akovice"/>
    <tag k="addr:postcode" v="19600"/>
    <tag k="addr:street" v="Na barik치d치ch"/>
    <tag k="addr:streetnumber" v="62"/>
    <tag k="building" v="residential"/>
    <tag k="building:flats" v="1"/>
    <tag k="building:levels" v="1"/>
    <tag k="building:ruian:type" v="3"/>
    <tag k="ref:ruian:addr" v="22411887"/>
    <tag k="ref:ruian:building" v="22275401"/>
    <tag k="source" v="cuzk:ruian"/>
  </way>
  <way id="152962460" version="5" timestamp="2017-07-01T17:50:01Z" changeset="49969783" uid="1942179" user="CzechAddress">
    <nd ref="1657268126"/>
    <nd ref="1657268121"/>
    <nd ref="1657268117"/>
    <nd ref="1657268114"/>
    <nd ref="1657268090"/>
    <nd ref="1657268124"/>
    <nd ref="1657268126"/>
    <tag k="addr:conscriptionnumber" v="740"/>
    <tag k="addr:country" v="CZ"/>
    <tag k="addr:housenumber" v="740/66"/>
    <tag k="addr:place" v="캛akovice"/>
    <tag k="addr:postcode" v="19600"/>
    <tag k="addr:street" v="Na barik치d치ch"/>
    <tag k="addr:streetnumber" v="66"/>
    <tag k="building" v="residential"/>
    <tag k="building:flats" v="1"/>
    <tag k="building:levels" v="1"/>
    <tag k="building:ruian:type" v="3"/>
    <tag k="ref:ruian:addr" v="22411895"/>
    <tag k="ref:ruian:building" v="22275410"/>
    <tag k="source" v="cuzk:ruian"/>
  </way>
  <way id="152962461" version="7" timestamp="2024-05-02T20:49:14Z" changeset="150811458" uid="3003739" user="r00tcz">
    <nd ref="1657267180"/>
    <nd ref="1657267177"/>
    <nd ref="1657267182"/>
    <nd ref="1657267192"/>
    <nd ref="1657267174"/>
    <nd ref="7079097540"/>
    <nd ref="7079097539"/>
    <nd ref="7079097538"/>
    <nd ref="7079097537"/>
    <nd ref="1657267171"/>
    <nd ref="1657267180"/>
    <tag k="addr:conscriptionnumber" v="752"/>
    <tag k="addr:housenumber" v="752/34"/>
    <tag k="addr:place" v="캛akovice"/>
    <tag k="addr:postcode" v="19600"/>
    <tag k="addr:street" v="Na barik치d치ch"/>
    <tag k="addr:streetnumber" v="34"/>
    <tag k="building" v="residential"/>
    <tag k="building:flats" v="1"/>
    <tag k="building:levels" v="1"/>
    <tag k="building:ruian:type" v="3"/>
    <tag k="ref:ruian:addr" v="22412026"/>
    <tag k="ref:ruian:building" v="22275533"/>
    <tag k="roof:shape" v="gabled"/>
    <tag k="source" v="cuzk:ruian"/>
  </way>
  <way id="152962462" version="6" timestamp="2024-05-02T20:49:13Z" changeset="150811458" uid="3003739" user="r00tcz">
    <nd ref="1657267142"/>
    <nd ref="1657267139"/>
    <nd ref="1657267129"/>
    <nd ref="1657267099"/>
    <nd ref="1657267131"/>
    <nd ref="4425019736"/>
    <nd ref="4425019741"/>
    <nd ref="1657267135"/>
    <nd ref="1657267142"/>
    <tag k="addr:conscriptionnumber" v="753"/>
    <tag k="addr:housenumber" v="753/32"/>
    <tag k="addr:place" v="캛akovice"/>
    <tag k="addr:postcode" v="19600"/>
    <tag k="addr:street" v="Na barik치d치ch"/>
    <tag k="addr:streetnumber" v="32"/>
    <tag k="building" v="residential"/>
    <tag k="building:flats" v="1"/>
    <tag k="building:levels" v="1"/>
    <tag k="building:ruian:type" v="3"/>
    <tag k="ref:ruian:addr" v="22412034"/>
    <tag k="ref:ruian:building" v="22275541"/>
    <tag k="roof:shape" v="gabled"/>
    <tag k="source" v="cuzk:ruian"/>
  </way>
  <way id="152962463" version="8" timestamp="2024-08-29T03:49:42Z" changeset="155908073" uid="3003739" user="r00tcz">
    <nd ref="1657267013"/>
    <nd ref="7691758608"/>
    <nd ref="7691758607"/>
    <nd ref="7691758606"/>
    <nd ref="7691758605"/>
    <nd ref="7691758604"/>
    <nd ref="1657267011"/>
    <nd ref="1657266988"/>
    <nd ref="1657267013"/>
    <tag k="addr:conscriptionnumber" v="759"/>
    <tag k="addr:housenumber" v="759/20"/>
    <tag k="addr:place" v="캛akovice"/>
    <tag k="addr:postcode" v="19600"/>
    <tag k="addr:street" v="Na barik치d치ch"/>
    <tag k="addr:streetnumber" v="20"/>
    <tag k="building" v="residential"/>
    <tag k="building:flats" v="2"/>
    <tag k="building:levels" v="2"/>
    <tag k="building:ruian:type" v="7"/>
    <tag k="ref:ruian:addr" v="22412093"/>
    <tag k="ref:ruian:building" v="22275606"/>
    <tag k="roof:levels" v="2"/>
    <tag k="roof:shape" v="gabled"/>
    <tag k="source" v="cuzk:ruian"/>
    <tag k="start_date" v="1974-01-04"/>
  </way>
  <way id="152962464" version="6" timestamp="2024-08-29T03:49:42Z" changeset="155908076" uid="3003739" user="r00tcz">
    <nd ref="3233660210"/>
    <nd ref="3233660228"/>
    <nd ref="1657266950"/>
    <nd ref="1657266976"/>
    <nd ref="1657266970"/>
    <nd ref="1657266973"/>
    <nd ref="1657266946"/>
    <nd ref="3233660205"/>
    <nd ref="1657266942"/>
    <nd ref="3233660195"/>
    <nd ref="3233660210"/>
    <tag k="addr:conscriptionnumber" v="760"/>
    <tag k="addr:housenumber" v="760/18"/>
    <tag k="addr:place" v="캛akovice"/>
    <tag k="addr:postcode" v="19600"/>
    <tag k="addr:street" v="Na barik치d치ch"/>
    <tag k="addr:streetnumber" v="18"/>
    <tag k="building" v="residential"/>
    <tag k="building:flats" v="1"/>
    <tag k="building:levels" v="1"/>
    <tag k="building:ruian:type" v="3"/>
    <tag k="ref:ruian:addr" v="22412107"/>
    <tag k="ref:ruian:building" v="22275614"/>
    <tag k="roof:shape" v="pyramidal"/>
    <tag k="source" v="cuzk:ruian"/>
  </way>
  <way id="152962465" version="7" timestamp="2024-08-29T03:49:43Z" changeset="155908073" uid="3003739" user="r00tcz">
    <nd ref="10151858039"/>
    <nd ref="1657266694"/>
    <nd ref="1657266722"/>
    <nd ref="1657266747"/>
    <nd ref="1657266769"/>
    <nd ref="1657266793"/>
    <nd ref="1657266757"/>
    <nd ref="1657266790"/>
    <nd ref="1657266705"/>
    <nd ref="10151858038"/>
    <nd ref="10151858037"/>
    <nd ref="10151858036"/>
    <nd ref="10151858039"/>
    <tag k="addr:conscriptionnumber" v="762"/>
    <tag k="addr:housenumber" v="762/14"/>
    <tag k="addr:place" v="캛akovice"/>
    <tag k="addr:postcode" v="19600"/>
    <tag k="addr:street" v="Na barik치d치ch"/>
    <tag k="addr:streetnumber" v="14"/>
    <tag k="building" v="residential"/>
    <tag k="building:flats" v="1"/>
    <tag k="building:levels" v="2"/>
    <tag k="building:ruian:type" v="7"/>
    <tag k="ref:ruian:addr" v="22412123"/>
    <tag k="ref:ruian:building" v="22275631"/>
    <tag k="roof:levels" v="1"/>
    <tag k="roof:shape" v="pyramidal"/>
    <tag k="source" v="cuzk:ruian"/>
    <tag k="start_date" v="2022-05-05"/>
  </way>
  <way id="152962466" version="4" timestamp="2017-07-01T17:50:02Z" changeset="49969783" uid="1942179" user="CzechAddress">
    <nd ref="1657266688"/>
    <nd ref="1657266664"/>
    <nd ref="1657266643"/>
    <nd ref="1657266683"/>
    <nd ref="1657266688"/>
    <tag k="addr:conscriptionnumber" v="771"/>
    <tag k="addr:housenumber" v="771/12"/>
    <tag k="addr:place" v="캛akovice"/>
    <tag k="addr:postcode" v="19600"/>
    <tag k="addr:street" v="Na barik치d치ch"/>
    <tag k="addr:streetnumber" v="12"/>
    <tag k="building" v="residential"/>
    <tag k="building:flats" v="1"/>
    <tag k="building:levels" v="1"/>
    <tag k="building:ruian:type" v="3"/>
    <tag k="ref:ruian:addr" v="22412212"/>
    <tag k="ref:ruian:building" v="22275720"/>
    <tag k="source" v="cuzk:ruian"/>
  </way>
  <way id="152962467" version="5" timestamp="2024-08-29T03:49:43Z" changeset="155908076" uid="3003739" user="r00tcz">
    <nd ref="1657266611"/>
    <nd ref="1657266638"/>
    <nd ref="1657266600"/>
    <nd ref="1657266567"/>
    <nd ref="1657266595"/>
    <nd ref="1657266592"/>
    <nd ref="1657266611"/>
    <tag k="addr:conscriptionnumber" v="772"/>
    <tag k="addr:housenumber" v="772/10"/>
    <tag k="addr:place" v="캛akovice"/>
    <tag k="addr:postcode" v="19600"/>
    <tag k="addr:street" v="Na barik치d치ch"/>
    <tag k="addr:streetnumber" v="10"/>
    <tag k="building" v="residential"/>
    <tag k="building:flats" v="1"/>
    <tag k="building:levels" v="1"/>
    <tag k="building:ruian:type" v="3"/>
    <tag k="ref:ruian:addr" v="22412221"/>
    <tag k="ref:ruian:building" v="22275738"/>
    <tag k="roof:shape" v="flat"/>
    <tag k="source" v="cuzk:ruian"/>
  </way>
  <way id="152962468" version="6" timestamp="2024-08-29T03:49:43Z" changeset="155908076" uid="3003739" user="r00tcz">
    <nd ref="1657266555"/>
    <nd ref="1657266532"/>
    <nd ref="1657266537"/>
    <nd ref="1657266522"/>
    <nd ref="1657266525"/>
    <nd ref="1657266494"/>
    <nd ref="1657266485"/>
    <nd ref="1657266482"/>
    <nd ref="1657266480"/>
    <nd ref="1657266518"/>
    <nd ref="4354512337"/>
    <nd ref="1657266529"/>
    <nd ref="1657266555"/>
    <tag k="addr:conscriptionnumber" v="773"/>
    <tag k="addr:housenumber" v="773/8"/>
    <tag k="addr:place" v="캛akovice"/>
    <tag k="addr:postcode" v="19600"/>
    <tag k="addr:street" v="Na barik치d치ch"/>
    <tag k="addr:streetnumber" v="8"/>
    <tag k="building" v="residential"/>
    <tag k="building:flats" v="2"/>
    <tag k="building:levels" v="1"/>
    <tag k="building:ruian:type" v="3"/>
    <tag k="ref:ruian:addr" v="22412239"/>
    <tag k="ref:ruian:building" v="22275746"/>
    <tag k="roof:shape" v="flat"/>
    <tag k="source" v="cuzk:ruian"/>
  </way>
  <way id="152962469" version="6" timestamp="2024-08-29T03:49:43Z" changeset="155908076" uid="3003739" user="r00tcz">
    <nd ref="1657266399"/>
    <nd ref="1657266401"/>
    <nd ref="1657266394"/>
    <nd ref="1657266403"/>
    <nd ref="1657266400"/>
    <nd ref="1657266442"/>
    <nd ref="1657266450"/>
    <nd ref="1657266444"/>
    <nd ref="1657266474"/>
    <nd ref="4354512335"/>
    <nd ref="4354512334"/>
    <nd ref="1657266437"/>
    <nd ref="1657266433"/>
    <nd ref="1657266405"/>
    <nd ref="1657266399"/>
    <tag k="addr:conscriptionnumber" v="774"/>
    <tag k="addr:housenumber" v="774/6"/>
    <tag k="addr:place" v="캛akovice"/>
    <tag k="addr:postcode" v="19600"/>
    <tag k="addr:street" v="Na barik치d치ch"/>
    <tag k="addr:streetnumber" v="6"/>
    <tag k="building" v="residential"/>
    <tag k="building:flats" v="1"/>
    <tag k="building:levels" v="1"/>
    <tag k="building:ruian:type" v="3"/>
    <tag k="ref:ruian:addr" v="22412247"/>
    <tag k="ref:ruian:building" v="22275754"/>
    <tag k="roof:shape" v="gabled"/>
    <tag k="source" v="cuzk:ruian"/>
  </way>
  <way id="152962472" version="5" timestamp="2024-08-29T03:49:42Z" changeset="155908076" uid="3003739" user="r00tcz">
    <nd ref="4425019420"/>
    <nd ref="1657266902"/>
    <nd ref="1657266897"/>
    <nd ref="1657266926"/>
    <nd ref="1657266937"/>
    <nd ref="1657266838"/>
    <nd ref="1657266804"/>
    <nd ref="1657266859"/>
    <nd ref="1657266852"/>
    <nd ref="1657266889"/>
    <nd ref="4425019418"/>
    <nd ref="4425019419"/>
    <nd ref="4425019420"/>
    <tag k="addr:conscriptionnumber" v="787"/>
    <tag k="addr:housenumber" v="787/16"/>
    <tag k="addr:place" v="캛akovice"/>
    <tag k="addr:postcode" v="19600"/>
    <tag k="addr:street" v="Na barik치d치ch"/>
    <tag k="addr:streetnumber" v="16"/>
    <tag k="building" v="residential"/>
    <tag k="building:flats" v="1"/>
    <tag k="building:levels" v="1"/>
    <tag k="building:ruian:type" v="3"/>
    <tag k="ref:ruian:addr" v="22412361"/>
    <tag k="ref:ruian:building" v="22275878"/>
    <tag k="roof:shape" v="flat"/>
    <tag k="source" v="cuzk:ruian"/>
  </way>
  <way id="152962473" version="6" timestamp="2019-02-05T14:33:34Z" changeset="66933782" uid="2169558" user="JandaM">
    <nd ref="6260013310"/>
    <nd ref="1657267126"/>
    <nd ref="3233663692"/>
    <nd ref="1657267168"/>
    <nd ref="6260013310"/>
    <tag k="addr:conscriptionnumber" v="844"/>
    <tag k="addr:country" v="CZ"/>
    <tag k="addr:housenumber" v="844/23"/>
    <tag k="addr:place" v="캛akovice"/>
    <tag k="addr:postcode" v="19600"/>
    <tag k="addr:street" v="Na barik치d치ch"/>
    <tag k="addr:streetnumber" v="23"/>
    <tag k="building" v="residential"/>
    <tag k="building:flats" v="1"/>
    <tag k="building:levels" v="1"/>
    <tag k="building:ruian:type" v="3"/>
    <tag k="ref:ruian:addr" v="25065751"/>
    <tag k="ref:ruian:building" v="24609901"/>
    <tag k="source" v="cuzk:ruian"/>
  </way>
  <way id="152962475" version="7" timestamp="2024-08-29T03:49:43Z" changeset="155908076" uid="3003739" user="r00tcz">
    <nd ref="1657266231"/>
    <nd ref="3233658422"/>
    <nd ref="1657266257"/>
    <nd ref="6370404868"/>
    <nd ref="6370404867"/>
    <nd ref="3233658457"/>
    <nd ref="1657266269"/>
    <nd ref="1657266233"/>
    <nd ref="1657266231"/>
    <tag k="addr:conscriptionnumber" v="852"/>
    <tag k="addr:country" v="CZ"/>
    <tag k="addr:housenumber" v="852/1"/>
    <tag k="addr:place" v="캛akovice"/>
    <tag k="addr:postcode" v="19600"/>
    <tag k="addr:street" v="Na barik치d치ch"/>
    <tag k="addr:streetnumber" v="1"/>
    <tag k="building" v="residential"/>
    <tag k="building:flats" v="1"/>
    <tag k="building:levels" v="1"/>
    <tag k="building:ruian:type" v="3"/>
    <tag k="ref:ruian:addr" v="25065823"/>
    <tag k="ref:ruian:building" v="24609978"/>
    <tag k="roof:shape" v="gabled"/>
    <tag k="source" v="cuzk:ruian"/>
  </way>
  <way id="152962476" version="5" timestamp="2017-07-01T17:50:04Z" changeset="49969783" uid="1942179" user="CzechAddress">
    <nd ref="1657266352"/>
    <nd ref="1657266325"/>
    <nd ref="1657266360"/>
    <nd ref="4354512328"/>
    <nd ref="4354512329"/>
    <nd ref="4354512331"/>
    <nd ref="4354512330"/>
    <nd ref="1657266363"/>
    <nd ref="1657266357"/>
    <nd ref="1657266354"/>
    <nd ref="4354512325"/>
    <nd ref="1657266336"/>
    <nd ref="1657266329"/>
    <nd ref="1657266332"/>
    <nd ref="1657266352"/>
    <tag k="addr:conscriptionnumber" v="885"/>
    <tag k="addr:country" v="CZ"/>
    <tag k="addr:housenumber" v="885/4"/>
    <tag k="addr:place" v="캛akovice"/>
    <tag k="addr:postcode" v="19600"/>
    <tag k="addr:street" v="Na barik치d치ch"/>
    <tag k="addr:streetnumber" v="4"/>
    <tag k="building" v="house"/>
    <tag k="building:flats" v="1"/>
    <tag k="building:levels" v="3"/>
    <tag k="building:ruian:type" v="7"/>
    <tag k="ref:ruian:addr" v="25730193"/>
    <tag k="ref:ruian:building" v="25242318"/>
    <tag k="source" v="cuzk:ruian"/>
    <tag k="start_date" v="2003-02-11"/>
  </way>
  <way id="158540352" version="7" timestamp="2021-08-24T10:13:52Z" changeset="110163695" uid="527259" user="Vratislav Filler">
    <nd ref="312528859"/>
    <nd ref="6097192489"/>
    <nd ref="6097192490"/>
    <nd ref="312528860"/>
    <tag k="highway" v="residential"/>
    <tag k="smoothness" v="excellent"/>
    <tag k="surface" v="asphalt"/>
    <tag k="tracktype" v="grade1"/>
  </way>
  <way id="160567763" version="16" timestamp="2024-10-20T22:43:59Z" changeset="158148067" uid="25867" user="adamos">
    <nd ref="21050394"/>
    <nd ref="2099615662"/>
    <nd ref="7075962890"/>
    <nd ref="2099623091"/>
    <nd ref="28588212"/>
    <nd ref="7075909279"/>
    <nd ref="639361673"/>
    <nd ref="12231334685"/>
    <nd ref="12231334686"/>
    <nd ref="21050395"/>
    <nd ref="28586056"/>
    <nd ref="12231334687"/>
    <nd ref="9892144556"/>
    <nd ref="12231334688"/>
    <nd ref="12231334689"/>
    <nd ref="21050396"/>
    <nd ref="243951410"/>
    <nd ref="6298053431"/>
    <nd ref="21050397"/>
    <nd ref="7139038764"/>
    <tag k="cycleway:both" v="no"/>
    <tag k="highway" v="residential"/>
    <tag k="lane_markings" v="no"/>
    <tag k="lit" v="yes"/>
    <tag k="maxspeed:type" v="CZ:urban"/>
    <tag k="name" v="Ke Stadionu"/>
    <tag k="smoothness" v="excellent"/>
    <tag k="surface" v="asphalt"/>
    <tag k="trolley_wire" v="no"/>
  </way>
  <way id="160567764" version="10" timestamp="2024-10-20T22:43:59Z" changeset="158148067" uid="25867" user="adamos">
    <nd ref="158715954"/>
    <nd ref="1999894308"/>
    <nd ref="21050394"/>
    <tag k="cycleway:both" v="shared_lane"/>
    <tag k="cycleway:both:lane" v="pictogram"/>
    <tag k="highway" v="residential"/>
    <tag k="lane_markings" v="no"/>
    <tag k="lit" v="yes"/>
    <tag k="name" v="Ke Stadionu"/>
    <tag k="smoothness" v="good"/>
    <tag k="surface" v="asphalt"/>
    <tag k="trolley_wire" v="no"/>
  </way>
  <way id="160567766" version="6" timestamp="2023-08-17T06:44:18Z" changeset="139995737" uid="20038671" user="Jan Andrle">
    <nd ref="158717846"/>
    <nd ref="1420773035"/>
    <nd ref="158713828"/>
    <tag k="highway" v="residential"/>
    <tag k="maxspeed" v="30"/>
    <tag k="maxspeed:type" v="CZ:zone30"/>
    <tag k="name" v="n치m캩st칤 Ji콏칤ho Berana"/>
    <tag k="oneway" v="yes"/>
    <tag k="sorting_name" v="Ji콏칤ho Berana"/>
    <tag k="surface" v="asphalt"/>
    <tag k="width" v="7.8"/>
  </way>
  <way id="160576510" version="6" timestamp="2023-08-18T06:47:15Z" changeset="140041524" uid="20038671" user="Jan Andrle">
    <nd ref="28585817"/>
    <nd ref="1259407192"/>
    <nd ref="2099615806"/>
    <nd ref="28585854"/>
    <tag k="cycleway" v="shared_lane"/>
    <tag k="highway" v="residential"/>
    <tag k="lit" v="yes"/>
    <tag k="maxspeed:type" v="CZ:urban"/>
    <tag k="name" v="V치쬽k치"/>
    <tag k="surface" v="asphalt"/>
  </way>
  <way id="165488341" version="11" timestamp="2024-10-20T22:43:59Z" changeset="158148067" uid="25867" user="adamos">
    <nd ref="28585729"/>
    <nd ref="1026423688"/>
    <nd ref="28585735"/>
    <nd ref="28585742"/>
    <nd ref="21050388"/>
    <tag k="cycleway:both" v="no"/>
    <tag k="highway" v="tertiary"/>
    <tag k="lanes" v="2"/>
    <tag k="maxspeed" v="50"/>
    <tag k="maxspeed:type" v="sign"/>
    <tag k="name" v="Polabsk치"/>
    <tag k="ref" v="0101"/>
    <tag k="smoothness" v="excellent"/>
    <tag k="surface" v="asphalt"/>
    <tag k="trolley_wire" v="no"/>
  </way>
  <way id="173029848" version="3" timestamp="2024-06-18T15:25:49Z" changeset="152854468" uid="21646089" user="M_&amp;_T">
    <nd ref="28557237"/>
    <nd ref="1838568915"/>
    <nd ref="1838568910"/>
    <nd ref="1838568913"/>
    <nd ref="1838568917"/>
    <nd ref="1838568921"/>
    <nd ref="1838568923"/>
    <nd ref="156368062"/>
    <tag k="hgv" v="destination"/>
    <tag k="highway" v="tertiary"/>
    <tag k="lane_markings" v="no"/>
    <tag k="name" v="Bohdane캜sk치"/>
    <tag k="surface" v="asphalt"/>
  </way>
  <way id="184154249" version="9" timestamp="2025-04-10T21:53:01Z" changeset="164789004" uid="4018695" user="游뻟릖 Roman Horn칤k">
    <nd ref="7139038762"/>
    <nd ref="1026423725"/>
    <nd ref="1570914431"/>
    <nd ref="1570914427"/>
    <nd ref="1026423235"/>
    <tag k="highway" v="tertiary"/>
    <tag k="lanes" v="2"/>
    <tag k="lit" v="yes"/>
    <tag k="maxspeed" v="30"/>
    <tag k="maxspeed:type" v="sign"/>
    <tag k="name" v="Cukrovarsk치"/>
    <tag k="surface" v="asphalt"/>
  </way>
  <way id="199338364" version="4" timestamp="2019-08-21T15:05:47Z" changeset="73585771" uid="309905" user="Petr Pulc">
    <nd ref="2093410807"/>
    <nd ref="3233665833"/>
    <nd ref="3233665854"/>
    <nd ref="2093410810"/>
    <nd ref="2093410808"/>
    <nd ref="2093410815"/>
    <nd ref="3233666090"/>
    <nd ref="3233666088"/>
    <nd ref="2093410798"/>
    <nd ref="2093410799"/>
    <nd ref="2093410804"/>
    <nd ref="2093410805"/>
    <nd ref="2093410806"/>
    <nd ref="2093410807"/>
    <tag k="building" v="residential"/>
    <tag k="building:flats" v="28"/>
    <tag k="building:levels" v="6"/>
    <tag k="building:ruian:type" v="6"/>
    <tag k="name" v="R콢쬰 (J)"/>
    <tag k="ref:ruian:building" v="51884470"/>
    <tag k="source" v="cuzk:ruian"/>
    <tag k="start_date" v="2012-10-02"/>
  </way>
  <way id="199338366" version="3" timestamp="2019-08-21T15:05:47Z" changeset="73585771" uid="309905" user="Petr Pulc">
    <nd ref="2093410797"/>
    <nd ref="2093410796"/>
    <nd ref="2093410803"/>
    <nd ref="3233665803"/>
    <nd ref="3233665802"/>
    <nd ref="2093410802"/>
    <nd ref="2093410788"/>
    <nd ref="2093410789"/>
    <nd ref="2093410790"/>
    <nd ref="2093410791"/>
    <nd ref="2093410792"/>
    <nd ref="2093410793"/>
    <nd ref="3233665582"/>
    <nd ref="3233665608"/>
    <nd ref="2093410797"/>
    <tag k="building" v="residential"/>
    <tag k="building:flats" v="26"/>
    <tag k="building:levels" v="6"/>
    <tag k="building:ruian:type" v="6"/>
    <tag k="name" v="Fialka (K)"/>
    <tag k="ref:ruian:building" v="51884411"/>
    <tag k="source" v="cuzk:ruian"/>
    <tag k="start_date" v="2012-10-02"/>
  </way>
  <way id="199338369" version="3" timestamp="2019-08-21T17:37:28Z" changeset="73591141" uid="10241731" user="TriStone">
    <nd ref="2093410915"/>
    <nd ref="2093410909"/>
    <nd ref="2093410908"/>
    <nd ref="2093410885"/>
    <nd ref="2093410887"/>
    <nd ref="2093410846"/>
    <nd ref="2093410848"/>
    <nd ref="2093410898"/>
    <nd ref="2093410897"/>
    <nd ref="2093410917"/>
    <nd ref="2093410915"/>
    <tag k="building" v="residential"/>
    <tag k="building:flats" v="64"/>
    <tag k="building:levels" v="6"/>
    <tag k="building:ruian:type" v="6"/>
    <tag k="name" v="D6"/>
    <tag k="ref:ruian:building" v="26257823"/>
    <tag k="source" v="cuzk:ruian"/>
    <tag k="start_date" v="2007-06-27"/>
  </way>
  <way id="199338375" version="4" timestamp="2019-08-21T17:37:28Z" changeset="73591141" uid="10241731" user="TriStone">
    <nd ref="2093410943"/>
    <nd ref="2093410939"/>
    <nd ref="2093410941"/>
    <nd ref="2093410945"/>
    <nd ref="2093410948"/>
    <nd ref="2093410931"/>
    <nd ref="2093410932"/>
    <nd ref="2093410953"/>
    <nd ref="2093410954"/>
    <nd ref="2093410973"/>
    <nd ref="2093410971"/>
    <nd ref="2093410989"/>
    <nd ref="2093410984"/>
    <nd ref="2093411002"/>
    <nd ref="2093411001"/>
    <nd ref="2093410994"/>
    <nd ref="2093410992"/>
    <nd ref="2093411000"/>
    <nd ref="2093410999"/>
    <nd ref="2093410924"/>
    <nd ref="2093410925"/>
    <nd ref="2093410976"/>
    <nd ref="2093410977"/>
    <nd ref="2093410974"/>
    <nd ref="2093410975"/>
    <nd ref="2093410965"/>
    <nd ref="2093410966"/>
    <nd ref="2093410969"/>
    <nd ref="2093410972"/>
    <nd ref="2093410968"/>
    <nd ref="2093410970"/>
    <nd ref="2093410980"/>
    <nd ref="2093410982"/>
    <nd ref="2093410947"/>
    <nd ref="2093410949"/>
    <nd ref="2093410942"/>
    <nd ref="2093410943"/>
    <tag k="building" v="residential"/>
    <tag k="building:flats" v="107"/>
    <tag k="building:levels" v="6"/>
    <tag k="building:ruian:type" v="6"/>
    <tag k="name" v="D1"/>
    <tag k="ref:ruian:building" v="26693968"/>
    <tag k="source" v="cuzk:ruian"/>
    <tag k="start_date" v="2007-11-14"/>
  </way>
  <way id="199338378" version="4" timestamp="2019-08-21T17:37:28Z" changeset="73591141" uid="10241731" user="TriStone">
    <nd ref="2093411013"/>
    <nd ref="2093411017"/>
    <nd ref="2093411016"/>
    <nd ref="2093411018"/>
    <nd ref="2093411019"/>
    <nd ref="2093411021"/>
    <nd ref="2093411020"/>
    <nd ref="2093411027"/>
    <nd ref="2093411026"/>
    <nd ref="2093411030"/>
    <nd ref="2093411028"/>
    <nd ref="2093411031"/>
    <nd ref="2093411029"/>
    <nd ref="2093411023"/>
    <nd ref="2093411024"/>
    <nd ref="3233667284"/>
    <nd ref="2093411014"/>
    <nd ref="2093411015"/>
    <nd ref="2093411007"/>
    <nd ref="2093411008"/>
    <nd ref="2093411006"/>
    <nd ref="2093411009"/>
    <nd ref="2093411010"/>
    <nd ref="2093411011"/>
    <nd ref="2093411012"/>
    <nd ref="2093411013"/>
    <tag k="building" v="residential"/>
    <tag k="building:flats" v="36"/>
    <tag k="building:levels" v="7"/>
    <tag k="building:ruian:type" v="6"/>
    <tag k="name" v="캛ty콏l칤stek"/>
    <tag k="ref:ruian:building" v="27007677"/>
    <tag k="source" v="cuzk:ruian"/>
    <tag k="start_date" v="2008-06-27"/>
  </way>
  <way id="199338380" version="4" timestamp="2019-08-21T15:05:47Z" changeset="73585771" uid="309905" user="Petr Pulc">
    <nd ref="2093410842"/>
    <nd ref="2093410843"/>
    <nd ref="3233666486"/>
    <nd ref="2093410833"/>
    <nd ref="2093410832"/>
    <nd ref="3233666264"/>
    <nd ref="3233666157"/>
    <nd ref="2093410825"/>
    <nd ref="2093410826"/>
    <nd ref="2093410818"/>
    <nd ref="3233666138"/>
    <nd ref="3233666134"/>
    <nd ref="3233666135"/>
    <nd ref="3233666137"/>
    <nd ref="2093410819"/>
    <nd ref="2093410834"/>
    <nd ref="2093410835"/>
    <nd ref="2093410837"/>
    <nd ref="2093410836"/>
    <nd ref="2093410857"/>
    <nd ref="2093410858"/>
    <nd ref="2093410863"/>
    <nd ref="2093410862"/>
    <nd ref="2093410873"/>
    <nd ref="2093410872"/>
    <nd ref="2093410870"/>
    <nd ref="2093410868"/>
    <nd ref="2093410855"/>
    <nd ref="2093410854"/>
    <nd ref="2093410850"/>
    <nd ref="2093410849"/>
    <nd ref="3233666513"/>
    <nd ref="2093410842"/>
    <tag k="building" v="residential"/>
    <tag k="building:flats" v="51"/>
    <tag k="building:levels" v="7"/>
    <tag k="building:ruian:type" v="6"/>
    <tag k="name" v="Konvalinka (I)"/>
    <tag k="ref:ruian:building" v="51884127"/>
    <tag k="source" v="cuzk:ruian"/>
    <tag k="start_date" v="2012-10-02"/>
  </way>
  <way id="199338382" version="4" timestamp="2019-08-21T17:37:28Z" changeset="73591141" uid="10241731" user="TriStone">
    <nd ref="2093410996"/>
    <nd ref="2093410988"/>
    <nd ref="2093410986"/>
    <nd ref="2093410995"/>
    <nd ref="2093410993"/>
    <nd ref="2093410981"/>
    <nd ref="2093410979"/>
    <nd ref="2093410991"/>
    <nd ref="2093410990"/>
    <nd ref="2093410913"/>
    <nd ref="2093410914"/>
    <nd ref="2093410958"/>
    <nd ref="4425020108"/>
    <nd ref="4425020107"/>
    <nd ref="2093410960"/>
    <nd ref="2093410950"/>
    <nd ref="2093410951"/>
    <nd ref="2093410956"/>
    <nd ref="2093410957"/>
    <nd ref="2093410952"/>
    <nd ref="2093410955"/>
    <nd ref="2093410962"/>
    <nd ref="4425020109"/>
    <nd ref="4425020110"/>
    <nd ref="2093410963"/>
    <nd ref="2093410916"/>
    <nd ref="2093410919"/>
    <nd ref="2093410997"/>
    <nd ref="2093410996"/>
    <tag k="building" v="residential"/>
    <tag k="building:flats" v="127"/>
    <tag k="building:levels" v="6"/>
    <tag k="building:ruian:type" v="6"/>
    <tag k="name" v="D2"/>
    <tag k="ref:ruian:building" v="26693950"/>
    <tag k="source" v="cuzk:ruian"/>
    <tag k="start_date" v="2007-11-14"/>
  </way>
  <way id="199338383" version="5" timestamp="2021-03-10T14:33:18Z" changeset="100785581" uid="25867" user="adamos">
    <nd ref="8503896057"/>
    <nd ref="8503896056"/>
    <nd ref="2093410933"/>
    <nd ref="2093410928"/>
    <nd ref="2093410930"/>
    <nd ref="2093410944"/>
    <nd ref="8503896055"/>
    <nd ref="8503896054"/>
    <nd ref="2093410946"/>
    <nd ref="2093410901"/>
    <nd ref="2093410903"/>
    <nd ref="2093410987"/>
    <nd ref="2093410985"/>
    <nd ref="2093410967"/>
    <nd ref="2093410964"/>
    <nd ref="2093410983"/>
    <nd ref="2093410978"/>
    <nd ref="2093410961"/>
    <nd ref="2093410959"/>
    <nd ref="2093410935"/>
    <nd ref="2093410934"/>
    <nd ref="6097193250"/>
    <nd ref="6097193251"/>
    <nd ref="2093410938"/>
    <nd ref="8503896053"/>
    <nd ref="8503896052"/>
    <nd ref="2093410937"/>
    <nd ref="2093410926"/>
    <nd ref="8503896057"/>
    <tag k="building" v="residential"/>
    <tag k="building:flats" v="173"/>
    <tag k="building:levels" v="7"/>
    <tag k="building:ruian:type" v="6"/>
    <tag k="name" v="D3"/>
    <tag k="ref:ruian:building" v="26257807"/>
    <tag k="source" v="cuzk:ruian"/>
    <tag k="start_date" v="2007-06-27"/>
  </way>
  <way id="199338386" version="4" timestamp="2019-08-21T17:37:28Z" changeset="73591141" uid="10241731" user="TriStone">
    <nd ref="2093410869"/>
    <nd ref="2093410871"/>
    <nd ref="2093410856"/>
    <nd ref="2093410859"/>
    <nd ref="2093410852"/>
    <nd ref="2093410851"/>
    <nd ref="2093410847"/>
    <nd ref="2093410853"/>
    <nd ref="2093410864"/>
    <nd ref="2093410866"/>
    <nd ref="2093410876"/>
    <nd ref="2093410874"/>
    <nd ref="2093410881"/>
    <nd ref="2093410880"/>
    <nd ref="2093410886"/>
    <nd ref="2093410884"/>
    <nd ref="2093410892"/>
    <nd ref="2093410894"/>
    <nd ref="2093410900"/>
    <nd ref="2093410902"/>
    <nd ref="2093410911"/>
    <nd ref="2093410910"/>
    <nd ref="2093410920"/>
    <nd ref="2093410912"/>
    <nd ref="2093410904"/>
    <nd ref="2093410906"/>
    <nd ref="2093410899"/>
    <nd ref="2093410896"/>
    <nd ref="2093410888"/>
    <nd ref="2093410890"/>
    <nd ref="2093410883"/>
    <nd ref="2093410882"/>
    <nd ref="2093410875"/>
    <nd ref="2093410878"/>
    <nd ref="2093410869"/>
    <tag k="building" v="residential"/>
    <tag k="building:flats" v="30"/>
    <tag k="building:levels" v="6"/>
    <tag k="building:ruian:type" v="6"/>
    <tag k="name" v="Kopretina"/>
    <tag k="ref:ruian:building" v="27125891"/>
    <tag k="source" v="cuzk:ruian"/>
    <tag k="start_date" v="2008-10-29"/>
  </way>
  <way id="199338401" version="4" timestamp="2021-03-10T14:33:18Z" changeset="100785581" uid="25867" user="adamos">
    <nd ref="2093410821"/>
    <nd ref="2093410861"/>
    <nd ref="2093410860"/>
    <nd ref="2093410820"/>
    <nd ref="2093410821"/>
    <tag k="building" v="residential"/>
    <tag k="building:flats" v="36"/>
    <tag k="building:levels" v="6"/>
    <tag k="building:ruian:type" v="6"/>
    <tag k="name" v="D4"/>
    <tag k="ref:ruian:building" v="26257815"/>
    <tag k="source" v="cuzk:ruian"/>
    <tag k="start_date" v="2007-06-27"/>
  </way>
  <way id="199338403" version="4" timestamp="2019-08-21T17:37:28Z" changeset="73591141" uid="10241731" user="TriStone">
    <nd ref="4425020112"/>
    <nd ref="2093411022"/>
    <nd ref="2093411004"/>
    <nd ref="4425020111"/>
    <nd ref="4425020112"/>
    <tag k="building" v="residential"/>
    <tag k="building:flats" v="40"/>
    <tag k="building:levels" v="6"/>
    <tag k="building:ruian:type" v="6"/>
    <tag k="name" v="D9"/>
    <tag k="ref:ruian:building" v="26257840"/>
    <tag k="source" v="cuzk:ruian"/>
    <tag k="start_date" v="2007-06-27"/>
  </way>
  <way id="199338415" version="5" timestamp="2024-03-20T20:49:14Z" changeset="148933525" uid="10932047" user="AF HAF KARTOGRAF">
    <nd ref="2093410817"/>
    <nd ref="2093410824"/>
    <nd ref="2093410822"/>
    <nd ref="2093410831"/>
    <nd ref="2093410828"/>
    <nd ref="2093410794"/>
    <nd ref="2093410795"/>
    <nd ref="11748973476"/>
    <nd ref="11748973475"/>
    <nd ref="2093410816"/>
    <nd ref="2093410817"/>
    <tag k="building" v="residential"/>
    <tag k="building:flats" v="96"/>
    <tag k="building:levels" v="6"/>
    <tag k="building:ruian:type" v="6"/>
    <tag k="name" v="D7"/>
    <tag k="ref:ruian:building" v="26257831"/>
    <tag k="source" v="cuzk:ruian"/>
    <tag k="start_date" v="2007-06-27"/>
  </way>
  <way id="199369910" version="4" timestamp="2024-05-02T18:28:12Z" changeset="150806632" uid="3003739" user="r00tcz">
    <nd ref="2093730884"/>
    <nd ref="2093730883"/>
    <nd ref="2093730879"/>
    <nd ref="2093730874"/>
    <nd ref="2093730873"/>
    <nd ref="2093730869"/>
    <nd ref="3233658494"/>
    <nd ref="2093730868"/>
    <nd ref="2093730876"/>
    <nd ref="2093730875"/>
    <nd ref="2093730885"/>
    <nd ref="895786069"/>
    <nd ref="2093730890"/>
    <nd ref="2093730894"/>
    <nd ref="2093730891"/>
    <nd ref="4048118651"/>
    <nd ref="4048118660"/>
    <nd ref="4048118661"/>
    <nd ref="4048118654"/>
    <nd ref="2093730900"/>
    <nd ref="2093730905"/>
    <nd ref="2093730907"/>
    <nd ref="2093730908"/>
    <nd ref="2093730909"/>
    <nd ref="3233658609"/>
    <nd ref="2093730904"/>
    <nd ref="2093730884"/>
    <tag k="amenity" v="police"/>
    <tag k="building" v="yes"/>
    <tag k="building:levels" v="2"/>
    <tag k="building:ruian:type" v="19"/>
    <tag k="name" v="Policie 캛R"/>
    <tag k="ref:ruian:building" v="22270370"/>
    <tag k="roof:shape" v="hipped"/>
    <tag k="source" v="cuzk:ruian"/>
  </way>
  <way id="199981396" version="5" timestamp="2018-12-02T20:58:20Z" changeset="65105582" uid="3003739" user="r00tcz">
    <nd ref="4425019394"/>
    <nd ref="4425019406"/>
    <nd ref="2099616123"/>
    <nd ref="1570914475"/>
    <nd ref="1570914478"/>
    <nd ref="2099616129"/>
    <nd ref="2099616128"/>
    <nd ref="2099616125"/>
    <nd ref="2099616124"/>
    <nd ref="2099616121"/>
    <nd ref="2099616122"/>
    <nd ref="2099616120"/>
    <nd ref="2099616119"/>
    <nd ref="2099616117"/>
    <nd ref="2099616118"/>
    <nd ref="2099616116"/>
    <nd ref="2099616115"/>
    <nd ref="4425019262"/>
    <nd ref="183188291"/>
    <nd ref="4425019392"/>
    <nd ref="4425019394"/>
    <tag k="amenity" v="school"/>
    <tag k="building" v="yes"/>
    <tag k="building:flats" v="1"/>
    <tag k="building:levels" v="2"/>
    <tag k="building:ruian:type" v="19"/>
    <tag k="name" v="ZU Marie Podvalov칠"/>
    <tag k="ref:ruian:building" v="22268286"/>
    <tag k="roof:shape" v="hipped"/>
    <tag k="source" v="cuzk:ruian"/>
  </way>
  <way id="199981481" version="7" timestamp="2024-01-30T15:10:41Z" changeset="146867937" uid="100163" user="Hlav">
    <nd ref="2099616101"/>
    <nd ref="2099616094"/>
    <nd ref="2099616093"/>
    <nd ref="2099616090"/>
    <nd ref="2099616089"/>
    <nd ref="2099616085"/>
    <nd ref="3218851415"/>
    <nd ref="2099616079"/>
    <nd ref="2099616077"/>
    <nd ref="3218851414"/>
    <nd ref="2099616072"/>
    <nd ref="2099616071"/>
    <nd ref="2099616070"/>
    <nd ref="2099616058"/>
    <nd ref="2099616059"/>
    <nd ref="2099616057"/>
    <nd ref="2099616060"/>
    <nd ref="2099616069"/>
    <nd ref="2099616073"/>
    <nd ref="2099616065"/>
    <nd ref="2099616067"/>
    <nd ref="2099616075"/>
    <nd ref="2099616076"/>
    <nd ref="2099616086"/>
    <nd ref="2099616087"/>
    <nd ref="2099616091"/>
    <nd ref="2099616092"/>
    <nd ref="2099616100"/>
    <nd ref="2099616098"/>
    <nd ref="2099616096"/>
    <nd ref="2099616095"/>
    <nd ref="2099616104"/>
    <nd ref="2099616101"/>
    <tag k="amenity" v="place_of_worship"/>
    <tag k="building" v="church"/>
    <tag k="building:architecture" v="neo-romanesque"/>
    <tag k="check_date" v="2023-08-04"/>
    <tag k="denomination" v="roman_catholic"/>
    <tag k="diocese" v="Arcidiec칠ze pra쬽k치"/>
    <tag k="name" v="svat칳 Remigius"/>
    <tag k="official_name" v="Kostel svat칠ho Remigia"/>
    <tag k="organ" v="yes"/>
    <tag k="organ:manuals" v="2"/>
    <tag k="religion" v="christian"/>
    <tag k="source" v="cuzk:km"/>
    <tag k="start_date" v="1875"/>
    <tag k="wikidata" v="Q12031004"/>
    <tag k="wikimedia_commons" v="Category:Church of Saint Remigius (캛akovice)"/>
    <tag k="wikipedia" v="cs:Kostel svat칠ho Remigia (캛akovice)"/>
  </way>
  <way id="201753146" version="3" timestamp="2021-04-16T11:04:41Z" changeset="103054143" uid="6588887" user="Martin2035">
    <nd ref="2117654885"/>
    <nd ref="6111643707"/>
    <nd ref="6111643708"/>
    <nd ref="2117654864"/>
    <nd ref="2117654852"/>
    <nd ref="2117654823"/>
    <nd ref="2117654775"/>
    <nd ref="6111643709"/>
    <nd ref="2117654225"/>
    <tag k="highway" v="residential"/>
    <tag k="lit" v="yes"/>
    <tag k="name" v="Vr치tensk치"/>
    <tag k="surface" v="asphalt"/>
  </way>
  <way id="201753325" version="5" timestamp="2024-03-30T20:10:37Z" changeset="149365661" uid="10932047" user="AF HAF KARTOGRAF">
    <nd ref="2117654142"/>
    <nd ref="2117654207"/>
    <nd ref="4425018899"/>
    <nd ref="4425018900"/>
    <nd ref="6752754377"/>
    <nd ref="6752754381"/>
    <nd ref="3233658293"/>
    <nd ref="3233658208"/>
    <nd ref="3233658211"/>
    <nd ref="3233658157"/>
    <nd ref="3233658155"/>
    <nd ref="3233658165"/>
    <nd ref="3233658164"/>
    <nd ref="3233658139"/>
    <nd ref="3233658141"/>
    <nd ref="2117654079"/>
    <nd ref="3233658129"/>
    <nd ref="2117654142"/>
    <tag k="addr:conscriptionnumber" v="193"/>
    <tag k="addr:housenumber" v="193/15"/>
    <tag k="addr:postcode" v="19600"/>
    <tag k="addr:street" v="Ostravick치"/>
    <tag k="addr:streetnumber" v="15"/>
    <tag k="building" v="residential"/>
    <tag k="building:flats" v="1"/>
    <tag k="building:levels" v="1"/>
    <tag k="building:ruian:type" v="3"/>
    <tag k="ref:ruian:addr" v="22406492"/>
    <tag k="ref:ruian:building" v="22270019"/>
    <tag k="source" v="cuzk:ruian"/>
  </way>
  <way id="201753344" version="4" timestamp="2024-03-30T20:10:37Z" changeset="149365661" uid="10932047" user="AF HAF KARTOGRAF">
    <nd ref="2117654142"/>
    <nd ref="2117654139"/>
    <nd ref="2117654113"/>
    <nd ref="2117654116"/>
    <nd ref="2117654076"/>
    <nd ref="3233658129"/>
    <nd ref="2117654142"/>
    <tag k="addr:conscriptionnumber" v="194"/>
    <tag k="addr:housenumber" v="194/17"/>
    <tag k="addr:postcode" v="19600"/>
    <tag k="addr:street" v="Ostravick치"/>
    <tag k="addr:streetnumber" v="17"/>
    <tag k="building" v="residential"/>
    <tag k="building:flats" v="1"/>
    <tag k="building:levels" v="1"/>
    <tag k="building:ruian:type" v="3"/>
    <tag k="ref:ruian:addr" v="22406506"/>
    <tag k="ref:ruian:building" v="22270027"/>
    <tag k="source" v="cuzk:ruian"/>
  </way>
  <way id="201753352" version="5" timestamp="2024-04-10T10:27:48Z" changeset="149810078" uid="10932047" user="AF HAF KARTOGRAF">
    <nd ref="2117654731"/>
    <nd ref="4425018936"/>
    <nd ref="2117654721"/>
    <nd ref="2117654517"/>
    <nd ref="2117654471"/>
    <nd ref="2117654311"/>
    <nd ref="2117654325"/>
    <nd ref="2117654439"/>
    <nd ref="2117654597"/>
    <nd ref="2117654731"/>
    <tag k="addr:conscriptionnumber" v="144"/>
    <tag k="addr:housenumber" v="144/60"/>
    <tag k="addr:postcode" v="19600"/>
    <tag k="addr:street" v="Cukrovarsk치"/>
    <tag k="addr:streetnumber" v="60"/>
    <tag k="building" v="residential"/>
    <tag k="building:levels" v="1"/>
    <tag k="building:ruian:type" v="3"/>
    <tag k="name" v="Hotel Klaret Praha"/>
    <tag k="ref:ruian:building" v="22269550"/>
    <tag k="source" v="cuzk:ruian"/>
    <tag k="tourism" v="hotel"/>
    <tag k="website" v="http://www.hotel-klaret.com"/>
  </way>
  <way id="201753356" version="6" timestamp="2024-03-30T20:10:37Z" changeset="149365661" uid="10932047" user="AF HAF KARTOGRAF">
    <nd ref="4425018938"/>
    <nd ref="2117654731"/>
    <nd ref="2117654597"/>
    <nd ref="2117654590"/>
    <nd ref="2117654608"/>
    <nd ref="2117654586"/>
    <nd ref="2117654600"/>
    <nd ref="2117654584"/>
    <nd ref="2117654408"/>
    <nd ref="3233658419"/>
    <nd ref="6752754395"/>
    <nd ref="2117654589"/>
    <nd ref="4425018924"/>
    <nd ref="4425018938"/>
    <tag k="addr:conscriptionnumber" v="154"/>
    <tag k="addr:housenumber" v="154/58"/>
    <tag k="addr:postcode" v="19600"/>
    <tag k="addr:street" v="Cukrovarsk치"/>
    <tag k="addr:streetnumber" v="58"/>
    <tag k="building" v="residential"/>
    <tag k="building:flats" v="1"/>
    <tag k="building:levels" v="1"/>
    <tag k="building:ruian:type" v="3"/>
    <tag k="ref:ruian:addr" v="22406123"/>
    <tag k="ref:ruian:building" v="22269649"/>
    <tag k="roof:shape" v="gabled"/>
    <tag k="source" v="cuzk:ruian"/>
  </way>
  <way id="201753409" version="4" timestamp="2024-03-30T20:10:37Z" changeset="149365661" uid="10932047" user="AF HAF KARTOGRAF">
    <nd ref="2117654093"/>
    <nd ref="4425018788"/>
    <nd ref="4425018889"/>
    <nd ref="4425018891"/>
    <nd ref="4425018890"/>
    <nd ref="2117654152"/>
    <nd ref="2117654160"/>
    <nd ref="2117654150"/>
    <nd ref="2117654147"/>
    <nd ref="2117654154"/>
    <nd ref="2117654146"/>
    <nd ref="2117654084"/>
    <nd ref="2117654093"/>
    <tag k="addr:conscriptionnumber" v="188"/>
    <tag k="addr:housenumber" v="188/13"/>
    <tag k="addr:postcode" v="19600"/>
    <tag k="addr:street" v="Ostravick치"/>
    <tag k="addr:streetnumber" v="13"/>
    <tag k="building" v="residential"/>
    <tag k="building:flats" v="1"/>
    <tag k="building:levels" v="1"/>
    <tag k="building:ruian:type" v="3"/>
    <tag k="ref:ruian:addr" v="22406441"/>
    <tag k="ref:ruian:building" v="22269967"/>
    <tag k="source" v="cuzk:ruian"/>
  </way>
  <way id="202070479" version="3" timestamp="2021-07-03T20:18:14Z" changeset="107368192" uid="1189910" user="Milancer">
    <nd ref="2120540098"/>
    <nd ref="8723346245"/>
    <nd ref="156399142"/>
    <nd ref="156399144"/>
    <nd ref="8890994783"/>
    <nd ref="156399146"/>
    <nd ref="156399147"/>
    <nd ref="156399148"/>
    <tag k="highway" v="unclassified"/>
    <tag k="name" v="B캩loml칳nsk치"/>
  </way>
  <way id="202070498" version="5" timestamp="2024-04-13T18:10:55Z" changeset="149963892" uid="3003739" user="r00tcz">
    <nd ref="4425018974"/>
    <nd ref="4425018970"/>
    <nd ref="4425018968"/>
    <nd ref="4425018967"/>
    <nd ref="4425018969"/>
    <nd ref="4425018966"/>
    <nd ref="4425018964"/>
    <nd ref="4425018963"/>
    <nd ref="4425018965"/>
    <nd ref="4425018960"/>
    <nd ref="4425018958"/>
    <nd ref="4425018957"/>
    <nd ref="4425018959"/>
    <nd ref="4425018954"/>
    <nd ref="4425018953"/>
    <nd ref="2120538957"/>
    <nd ref="2120538966"/>
    <nd ref="2120538952"/>
    <nd ref="2120538959"/>
    <nd ref="4425018955"/>
    <nd ref="2120538962"/>
    <nd ref="2120538986"/>
    <nd ref="2120538998"/>
    <nd ref="2120539003"/>
    <nd ref="4425019192"/>
    <nd ref="4425019190"/>
    <nd ref="2120539023"/>
    <nd ref="2120539069"/>
    <nd ref="2120539044"/>
    <nd ref="2120539040"/>
    <nd ref="2120539013"/>
    <nd ref="4425019193"/>
    <nd ref="2120539011"/>
    <nd ref="4425019189"/>
    <nd ref="4425018988"/>
    <nd ref="2120539009"/>
    <nd ref="4425018983"/>
    <nd ref="4425018984"/>
    <nd ref="4425018982"/>
    <nd ref="2120538997"/>
    <nd ref="4425018981"/>
    <nd ref="4425018980"/>
    <nd ref="4425018977"/>
    <nd ref="4425018976"/>
    <nd ref="4425018979"/>
    <nd ref="4425018975"/>
    <nd ref="4425018973"/>
    <nd ref="4425018972"/>
    <nd ref="4425018974"/>
    <tag k="addr:conscriptionnumber" v="786"/>
    <tag k="addr:housenumber" v="786/69"/>
    <tag k="addr:postcode" v="19600"/>
    <tag k="addr:street" v="Cukrovarsk치"/>
    <tag k="addr:streetnumber" v="69"/>
    <tag k="building" v="retail"/>
    <tag k="building:levels" v="1"/>
    <tag k="building:ruian:type" v="19"/>
    <tag k="ref:ruian:addr" v="22412352"/>
    <tag k="ref:ruian:building" v="22275860"/>
    <tag k="source" v="cuzk:ruian"/>
  </way>
  <way id="215566868" version="8" timestamp="2024-11-08T15:28:53Z" changeset="158900352" uid="16912130" user="Ondra (CZ)">
    <nd ref="2250319167"/>
    <nd ref="2388675984"/>
    <nd ref="2250319190"/>
    <nd ref="2250319142"/>
    <nd ref="2482241434"/>
    <tag k="highway" v="residential"/>
    <tag k="lane_markings" v="no"/>
    <tag k="surface" v="asphalt"/>
  </way>
  <way id="215566869" version="4" timestamp="2023-08-03T16:46:10Z" changeset="139403325" uid="20038671" user="Jan Andrle">
    <nd ref="7139038765"/>
    <nd ref="28588140"/>
    <nd ref="28588118"/>
    <tag k="bus" v="no"/>
    <tag k="hgv" v="no"/>
    <tag k="highway" v="residential"/>
    <tag k="name" v="Ke Stadionu"/>
    <tag k="surface" v="asphalt"/>
  </way>
  <way id="217850404" version="12" timestamp="2025-04-10T21:53:01Z" changeset="164789004" uid="4018695" user="游뻟릖 Roman Horn칤k">
    <nd ref="156386534"/>
    <nd ref="1026423163"/>
    <nd ref="12745546935"/>
    <nd ref="28588186"/>
    <nd ref="5582124171"/>
    <nd ref="156386536"/>
    <nd ref="11480730958"/>
    <nd ref="5582124170"/>
    <nd ref="8635035120"/>
    <nd ref="1259407261"/>
    <nd ref="156388552"/>
    <nd ref="156386537"/>
    <tag k="cycleway:both" v="no"/>
    <tag k="highway" v="tertiary"/>
    <tag k="lanes" v="2"/>
    <tag k="lit" v="yes"/>
    <tag k="maxspeed:forward" v="40"/>
    <tag k="name" v="Cukrovarsk치"/>
    <tag k="sidewalk" v="both"/>
    <tag k="sidewalk:both:surface" v="paving_stones"/>
    <tag k="smoothness" v="excellent"/>
    <tag k="surface" v="asphalt"/>
  </way>
  <way id="217850415" version="9" timestamp="2025-04-04T15:37:53Z" changeset="164510891" uid="21324687" user="mmatous">
    <nd ref="2193318549"/>
    <nd ref="10103652870"/>
    <nd ref="925964392"/>
    <nd ref="2193318550"/>
    <tag k="cycleway:right" v="no"/>
    <tag k="highway" v="secondary"/>
    <tag k="junction" v="roundabout"/>
    <tag k="lanes" v="1"/>
    <tag k="maxspeed:type" v="CZ:urban"/>
    <tag k="sidewalk:left" v="no"/>
    <tag k="sidewalk:right" v="separate"/>
    <tag k="smoothness" v="excellent"/>
    <tag k="surface" v="asphalt"/>
    <tag k="trolley_wire" v="yes"/>
  </way>
  <way id="217850417" version="10" timestamp="2025-04-04T15:37:47Z" changeset="164510891" uid="21324687" user="mmatous">
    <nd ref="2193318550"/>
    <nd ref="8753054895"/>
    <nd ref="8753054894"/>
    <nd ref="28586279"/>
    <nd ref="5762241478"/>
    <nd ref="10103652864"/>
    <nd ref="28586298"/>
    <nd ref="10103652865"/>
    <nd ref="2193318555"/>
    <nd ref="5762241475"/>
    <nd ref="2193318547"/>
    <tag k="cycleway:right" v="no"/>
    <tag k="highway" v="secondary"/>
    <tag k="junction" v="roundabout"/>
    <tag k="lanes" v="1"/>
    <tag k="maxspeed:type" v="CZ:urban"/>
    <tag k="sidewalk:left" v="no"/>
    <tag k="sidewalk:right" v="separate"/>
    <tag k="smoothness" v="excellent"/>
    <tag k="surface" v="asphalt"/>
    <tag k="trolley_wire" v="yes"/>
  </way>
  <way id="217850419" version="8" timestamp="2025-04-04T15:36:42Z" changeset="164515029" uid="21324687" user="mmatous">
    <nd ref="28586347"/>
    <nd ref="10103652868"/>
    <nd ref="2193318553"/>
    <nd ref="10103652869"/>
    <nd ref="28586370"/>
    <nd ref="2193318556"/>
    <nd ref="925964390"/>
    <nd ref="2193318549"/>
    <tag k="cycleway:right" v="no"/>
    <tag k="highway" v="secondary"/>
    <tag k="junction" v="roundabout"/>
    <tag k="lanes" v="1"/>
    <tag k="maxspeed:type" v="CZ:urban"/>
    <tag k="smoothness" v="excellent"/>
    <tag k="surface" v="asphalt"/>
    <tag k="trolley_wire" v="yes"/>
  </way>
  <way id="284701328" version="3" timestamp="2015-06-15T12:43:41Z" changeset="31983069" uid="100163" user="Hlav">
    <nd ref="2884209756"/>
    <nd ref="2884209752"/>
    <nd ref="2884209750"/>
    <nd ref="2884209751"/>
    <nd ref="2884209753"/>
    <nd ref="2884209762"/>
    <nd ref="3129291805"/>
    <nd ref="2884209774"/>
    <nd ref="2884209783"/>
    <nd ref="2884209789"/>
    <nd ref="2884209792"/>
    <tag k="highway" v="residential"/>
    <tag k="name" v="Bermanova"/>
    <tag k="oneway" v="yes"/>
  </way>
  <way id="284701330" version="3" timestamp="2018-11-28T01:47:40Z" changeset="64955932" uid="3003739" user="r00tcz">
    <nd ref="2884209792"/>
    <nd ref="6097193191"/>
    <nd ref="2884209793"/>
    <nd ref="2884209790"/>
    <nd ref="2884209785"/>
    <nd ref="2884209772"/>
    <nd ref="2884209765"/>
    <nd ref="2884209761"/>
    <nd ref="2884209758"/>
    <nd ref="2884209763"/>
    <nd ref="2884209766"/>
    <nd ref="2884209770"/>
    <tag k="highway" v="residential"/>
    <tag k="name" v="Bermanova"/>
    <tag k="oneway" v="yes"/>
  </way>
  <way id="284701332" version="5" timestamp="2021-07-03T20:18:14Z" changeset="107368192" uid="1189910" user="Milancer">
    <nd ref="2884209759"/>
    <nd ref="8890997240"/>
    <nd ref="5320380204"/>
    <nd ref="2884209755"/>
    <nd ref="3136457269"/>
    <nd ref="2884209754"/>
    <nd ref="5320380203"/>
    <nd ref="2884209756"/>
    <nd ref="5320380200"/>
    <nd ref="2884209760"/>
    <nd ref="5320380180"/>
    <nd ref="2884209770"/>
    <nd ref="2884209775"/>
    <nd ref="8890997241"/>
    <nd ref="2884209781"/>
    <nd ref="2884209780"/>
    <nd ref="8890997242"/>
    <nd ref="2884209777"/>
    <nd ref="5320380191"/>
    <nd ref="2884209767"/>
    <nd ref="5320380182"/>
    <nd ref="2884209759"/>
    <tag k="highway" v="residential"/>
    <tag k="junction" v="roundabout"/>
  </way>
  <way id="284701335" version="1" timestamp="2014-05-27T20:49:27Z" changeset="22589687" uid="8007" user="vrabcak">
    <nd ref="312528856"/>
    <nd ref="2884209768"/>
    <tag k="highway" v="residential"/>
  </way>
  <way id="284701339" version="1" timestamp="2014-05-27T20:49:28Z" changeset="22589687" uid="8007" user="vrabcak">
    <nd ref="2884209792"/>
    <nd ref="2884209794"/>
    <tag k="highway" v="residential"/>
  </way>
  <way id="284701341" version="5" timestamp="2021-08-24T10:13:52Z" changeset="110163695" uid="527259" user="Vratislav Filler">
    <nd ref="1259407235"/>
    <nd ref="6097192492"/>
    <nd ref="312528859"/>
    <tag k="highway" v="residential"/>
    <tag k="smoothness" v="excellent"/>
    <tag k="surface" v="asphalt"/>
    <tag k="tracktype" v="grade1"/>
  </way>
  <way id="284701344" version="9" timestamp="2022-08-16T16:24:40Z" changeset="124980126" uid="3003739" user="r00tcz">
    <nd ref="2120539815"/>
    <nd ref="2024988588"/>
    <nd ref="7617753540"/>
    <tag k="highway" v="residential"/>
    <tag k="lit" v="no"/>
    <tag k="smoothness" v="excellent"/>
    <tag k="surface" v="asphalt"/>
    <tag k="tracktype" v="grade1"/>
  </way>
  <way id="284701346" version="2" timestamp="2015-06-15T12:43:41Z" changeset="31983069" uid="100163" user="Hlav">
    <nd ref="2884209781"/>
    <nd ref="2884209791"/>
    <nd ref="2884209795"/>
    <nd ref="2884209797"/>
    <tag k="highway" v="residential"/>
    <tag k="name" v="Theinova"/>
  </way>
  <way id="284701348" version="3" timestamp="2018-11-28T01:47:40Z" changeset="64955932" uid="3003739" user="r00tcz">
    <nd ref="2884209768"/>
    <nd ref="2884209764"/>
    <nd ref="2884209757"/>
    <nd ref="2884209778"/>
    <nd ref="2884209779"/>
    <nd ref="2884209776"/>
    <nd ref="2884209771"/>
    <nd ref="6097192900"/>
    <nd ref="2884209759"/>
    <tag k="highway" v="residential"/>
    <tag k="name" v="Bermanova"/>
    <tag k="oneway" v="yes"/>
  </way>
  <way id="284701350" version="2" timestamp="2015-06-15T12:43:42Z" changeset="31983069" uid="100163" user="Hlav">
    <nd ref="2884209777"/>
    <nd ref="2884209782"/>
    <nd ref="2884209784"/>
    <nd ref="2884209787"/>
    <nd ref="2884209788"/>
    <nd ref="2884209786"/>
    <nd ref="2884209773"/>
    <nd ref="2884209769"/>
    <nd ref="2884209768"/>
    <tag k="highway" v="residential"/>
    <tag k="name" v="Bermanova"/>
    <tag k="oneway" v="yes"/>
  </way>
  <way id="285128430" version="4" timestamp="2023-08-18T06:46:57Z" changeset="140041524" uid="20038671" user="Jan Andrle">
    <nd ref="28585854"/>
    <nd ref="28585919"/>
    <nd ref="158716738"/>
    <nd ref="158716669"/>
    <nd ref="21050394"/>
    <tag k="cycleway" v="shared_lane"/>
    <tag k="highway" v="residential"/>
    <tag k="maxspeed:type" v="CZ:urban"/>
    <tag k="name" v="V치쬽k치"/>
    <tag k="surface" v="asphalt"/>
  </way>
  <way id="307727140" version="3" timestamp="2021-03-10T14:33:18Z" changeset="100785581" uid="25867" user="adamos">
    <nd ref="3129291803"/>
    <nd ref="3129291800"/>
    <nd ref="3129291801"/>
    <nd ref="3129291804"/>
    <nd ref="3129291803"/>
    <tag k="building" v="residential"/>
    <tag k="building:levels" v="6"/>
    <tag k="name" v="D8"/>
    <tag k="source" v="cuzk:km"/>
  </way>
  <way id="308358610" version="5" timestamp="2023-10-03T15:06:44Z" changeset="142105589" uid="20038671" user="Jan Andrle">
    <nd ref="158709659"/>
    <nd ref="158710259"/>
    <tag k="highway" v="residential"/>
    <tag k="lane_markings" v="no"/>
    <tag k="maxspeed" v="50"/>
    <tag k="maxspeed:type" v="sign"/>
    <tag k="name" v="Homolov치"/>
    <tag k="surface" v="asphalt"/>
    <tag k="width" v="6.13"/>
  </way>
  <way id="308358611" version="4" timestamp="2023-10-03T15:05:50Z" changeset="142105645" uid="20038671" user="Jan Andrle">
    <nd ref="158709659"/>
    <nd ref="9002366408"/>
    <nd ref="158709660"/>
    <tag k="highway" v="residential"/>
    <tag k="maxspeed" v="50"/>
    <tag k="maxspeed:type" v="sign"/>
    <tag k="name" v="Na Bahnech"/>
    <tag k="surface" v="asphalt"/>
  </way>
  <way id="308358612" version="3" timestamp="2023-08-31T15:40:44Z" changeset="140641908" uid="20038671" user="Jan Andrle">
    <nd ref="158723818"/>
    <nd ref="3136457124"/>
    <tag k="highway" v="tertiary"/>
    <tag k="lanes" v="2"/>
    <tag k="name" v="Schoellerova"/>
    <tag k="surface" v="asphalt"/>
  </way>
  <way id="308358613" version="6" timestamp="2023-08-31T15:44:03Z" changeset="140641908" uid="20038671" user="Jan Andrle">
    <nd ref="3136457124"/>
    <nd ref="158723819"/>
    <tag k="bridge" v="yes"/>
    <tag k="highway" v="tertiary"/>
    <tag k="lanes" v="2"/>
    <tag k="layer" v="1"/>
    <tag k="maxweight:signed" v="no"/>
    <tag k="name" v="Schoellerova"/>
    <tag k="surface" v="asphalt"/>
  </way>
  <way id="308358614" version="3" timestamp="2020-09-25T12:50:05Z" changeset="91510958" uid="718054" user="Piskvor">
    <nd ref="312529317"/>
    <nd ref="1026423881"/>
    <nd ref="158735462"/>
    <tag k="highway" v="tertiary"/>
    <tag k="lanes" v="2"/>
    <tag k="name" v="Za Trat칤"/>
  </way>
  <way id="308358615" version="7" timestamp="2024-12-03T06:34:28Z" changeset="159867641" uid="16912130" user="Ondra (CZ)">
    <nd ref="158735462"/>
    <nd ref="925976605"/>
    <nd ref="21050451"/>
    <tag k="cycleway:both" v="no"/>
    <tag k="highway" v="tertiary"/>
    <tag k="lanes" v="2"/>
    <tag k="maxspeed:type" v="CZ:urban"/>
    <tag k="name" v="Za Trat칤"/>
    <tag k="smoothness" v="excellent"/>
    <tag k="surface" v="asphalt"/>
  </way>
  <way id="308358620" version="2" timestamp="2021-08-12T21:25:35Z" changeset="109594706" uid="13633789" user="tter">
    <nd ref="158710259"/>
    <nd ref="9002366411"/>
    <nd ref="1026423422"/>
    <nd ref="9002366392"/>
    <nd ref="158723818"/>
    <tag k="highway" v="residential"/>
    <tag k="source" v="bing:ortofoto"/>
  </way>
  <way id="345276761" version="6" timestamp="2025-04-10T21:53:01Z" changeset="164789004" uid="4018695" user="游뻟릖 Roman Horn칤k">
    <nd ref="21050389"/>
    <nd ref="4935225454"/>
    <nd ref="28588425"/>
    <nd ref="8635035131"/>
    <nd ref="1259407175"/>
    <nd ref="8635035132"/>
    <nd ref="12745546936"/>
    <nd ref="156358081"/>
    <nd ref="8635035133"/>
    <nd ref="156358082"/>
    <nd ref="12745546937"/>
    <nd ref="1259407159"/>
    <nd ref="156358083"/>
    <nd ref="12745546940"/>
    <nd ref="156358085"/>
    <nd ref="1026423178"/>
    <nd ref="1026423387"/>
    <nd ref="12745546939"/>
    <nd ref="1026423868"/>
    <nd ref="12745546941"/>
    <nd ref="156358086"/>
    <nd ref="12745546938"/>
    <nd ref="156358088"/>
    <tag k="highway" v="tertiary"/>
    <tag k="lanes" v="2"/>
    <tag k="lit" v="yes"/>
    <tag k="maxspeed" v="50"/>
    <tag k="name" v="Cukrovarsk치"/>
    <tag k="surface" v="asphalt"/>
  </way>
  <way id="345276762" version="3" timestamp="2024-10-20T22:43:59Z" changeset="158148067" uid="25867" user="adamos">
    <nd ref="28585751"/>
    <nd ref="1026423845"/>
    <nd ref="1026423142"/>
    <nd ref="156397355"/>
    <tag k="highway" v="residential"/>
    <tag k="maxspeed:type" v="CZ:urban"/>
    <tag k="name" v="Ouhrabkova"/>
    <tag k="trolley_wire" v="no"/>
  </way>
  <way id="345276763" version="5" timestamp="2024-10-24T21:17:20Z" changeset="158314135" uid="25867" user="adamos">
    <nd ref="28585751"/>
    <nd ref="8635035130"/>
    <nd ref="28585760"/>
    <tag k="highway" v="tertiary"/>
    <tag k="lanes" v="2"/>
    <tag k="lit" v="yes"/>
    <tag k="maxspeed:type" v="CZ:urban"/>
    <tag k="name" v="Polabsk치"/>
    <tag k="ref" v="0101"/>
    <tag k="surface" v="asphalt"/>
  </way>
  <way id="345276764" version="6" timestamp="2024-10-20T22:43:59Z" changeset="158148067" uid="25867" user="adamos">
    <nd ref="21050388"/>
    <nd ref="1026423383"/>
    <nd ref="1026423323"/>
    <nd ref="28585751"/>
    <tag k="cycleway:both" v="no"/>
    <tag k="highway" v="tertiary"/>
    <tag k="lanes" v="2"/>
    <tag k="maxspeed:type" v="CZ:urban"/>
    <tag k="name" v="Polabsk치"/>
    <tag k="ref" v="0101"/>
    <tag k="surface" v="asphalt"/>
    <tag k="trolley_wire" v="no"/>
  </way>
  <way id="345538205" version="6" timestamp="2019-08-21T15:05:47Z" changeset="73585771" uid="309905" user="Petr Pulc">
    <nd ref="3521795932"/>
    <nd ref="3521795931"/>
    <nd ref="3521795930"/>
    <nd ref="3521795927"/>
    <nd ref="3521795926"/>
    <nd ref="3521795912"/>
    <nd ref="3521795913"/>
    <nd ref="3521795914"/>
    <nd ref="3521795915"/>
    <nd ref="3521795910"/>
    <nd ref="3521795911"/>
    <nd ref="3521795922"/>
    <nd ref="3521795923"/>
    <nd ref="3521795918"/>
    <nd ref="3521795919"/>
    <nd ref="3521795916"/>
    <nd ref="3521795917"/>
    <nd ref="3521795920"/>
    <nd ref="3521795921"/>
    <nd ref="3521795925"/>
    <nd ref="3521795924"/>
    <nd ref="3521795929"/>
    <nd ref="3521795928"/>
    <nd ref="3521795935"/>
    <nd ref="3521795934"/>
    <nd ref="3521795932"/>
    <tag k="building" v="residential"/>
    <tag k="building:flats" v="89"/>
    <tag k="building:levels" v="6"/>
    <tag k="building:ruian:type" v="6"/>
    <tag k="name" v="Gladiola"/>
    <tag k="ref:ruian:building" v="79339409"/>
    <tag k="source" v="cuzk:ruian"/>
    <tag k="start_date" v="2015-01-27"/>
  </way>
  <way id="345558719" version="9" timestamp="2024-10-20T22:43:59Z" changeset="158148067" uid="25867" user="adamos">
    <nd ref="28558104"/>
    <nd ref="1515492714"/>
    <nd ref="7181792947"/>
    <nd ref="28585710"/>
    <nd ref="12231334681"/>
    <nd ref="639362390"/>
    <nd ref="12231334682"/>
    <nd ref="21050387"/>
    <nd ref="1515492423"/>
    <nd ref="2117655024"/>
    <nd ref="28585729"/>
    <tag k="cycleway:both" v="no"/>
    <tag k="highway" v="tertiary"/>
    <tag k="lanes" v="2"/>
    <tag k="name" v="Polabsk치"/>
    <tag k="ref" v="0101"/>
    <tag k="smoothness" v="excellent"/>
    <tag k="surface" v="asphalt"/>
    <tag k="trolley_wire" v="no"/>
  </way>
  <way id="376245927" version="2" timestamp="2018-01-09T02:04:49Z" changeset="55280201" uid="507276" user="jkjkjk">
    <nd ref="158727766"/>
    <nd ref="5328335600"/>
    <nd ref="1259407164"/>
    <nd ref="3596551984"/>
    <tag k="highway" v="residential"/>
    <tag k="name" v="Marie Podvalov칠"/>
  </way>
  <way id="376245928" version="4" timestamp="2024-12-17T13:37:07Z" changeset="160298903" uid="16912130" user="Ondra (CZ)">
    <nd ref="158727650"/>
    <nd ref="158723821"/>
    <nd ref="158723822"/>
    <tag k="highway" v="tertiary"/>
    <tag k="name" v="Schoellerova"/>
    <tag k="parking:both" v="no"/>
  </way>
  <way id="403369092" version="5" timestamp="2023-09-01T06:45:57Z" changeset="140663642" uid="20038671" user="Jan Andrle">
    <nd ref="243951408"/>
    <nd ref="158714263"/>
    <tag k="alt_name" v="Doktora Marodyho"/>
    <tag k="highway" v="residential"/>
    <tag k="maxspeed" v="30"/>
    <tag k="maxspeed:type" v="CZ:zone30"/>
    <tag k="name" v="Dr. Marodyho"/>
    <tag k="surface" v="asphalt"/>
    <tag k="width" v="5.8"/>
  </way>
  <way id="412804629" version="8" timestamp="2021-09-13T09:43:05Z" changeset="111134297" uid="100163" user="Hlav">
    <nd ref="5368099480"/>
    <nd ref="5762241507"/>
    <nd ref="5368099479"/>
    <nd ref="5368099478"/>
    <nd ref="5368099477"/>
    <nd ref="4141368264"/>
    <nd ref="5368099476"/>
    <nd ref="5368099475"/>
    <nd ref="5368099474"/>
    <nd ref="5368099473"/>
    <nd ref="5368099472"/>
    <nd ref="5368099471"/>
    <nd ref="5368099470"/>
    <nd ref="5368099469"/>
    <nd ref="4141368263"/>
    <nd ref="5368099468"/>
    <nd ref="5368099467"/>
    <nd ref="5368099466"/>
    <nd ref="4141368267"/>
    <nd ref="4141368262"/>
    <nd ref="5368099465"/>
    <nd ref="5368099464"/>
    <nd ref="5368099463"/>
    <nd ref="5368099462"/>
    <nd ref="4141368265"/>
    <nd ref="5368099461"/>
    <nd ref="5368099460"/>
    <nd ref="5368099459"/>
    <nd ref="5368099458"/>
    <nd ref="5368099457"/>
    <nd ref="5368099456"/>
    <nd ref="5368099455"/>
    <nd ref="5368099454"/>
    <nd ref="4141368266"/>
    <nd ref="5368099453"/>
    <nd ref="5368099452"/>
    <nd ref="5368099480"/>
    <tag k="alt_name" v="Asko n치bytek"/>
    <tag k="brand" v="ASKO N치bytek"/>
    <tag k="brand:wikidata" v="Q58197384"/>
    <tag k="building" v="commercial"/>
    <tag k="building:levels" v="2"/>
    <tag k="building:ruian:type" v="10"/>
    <tag k="name" v="ASKO N치bytek"/>
    <tag k="name:sk" v="ASKO N치bytok"/>
    <tag k="opening_hours" v="Mo-Su 09:00-21:00"/>
    <tag k="ref:ruian:building" v="80585345"/>
    <tag k="shop" v="furniture"/>
    <tag k="source" v="cuzk:ruian"/>
    <tag k="start_date" v="2015-11-19"/>
    <tag k="website" v="https://www.asko-nabytek.cz/"/>
  </way>
  <way id="427067954" version="3" timestamp="2019-08-21T15:05:47Z" changeset="73585771" uid="309905" user="Petr Pulc">
    <nd ref="4263110631"/>
    <nd ref="4263110630"/>
    <nd ref="4263110634"/>
    <nd ref="4263110635"/>
    <nd ref="4263110639"/>
    <nd ref="4263110638"/>
    <nd ref="4263110642"/>
    <nd ref="4263110643"/>
    <nd ref="4263110645"/>
    <nd ref="4263110644"/>
    <nd ref="4263110646"/>
    <nd ref="4263110647"/>
    <nd ref="4263110655"/>
    <nd ref="4263110654"/>
    <nd ref="4263110657"/>
    <nd ref="4263110656"/>
    <nd ref="4263110659"/>
    <nd ref="4263110658"/>
    <nd ref="4263110653"/>
    <nd ref="4263110652"/>
    <nd ref="4263110650"/>
    <nd ref="4263110651"/>
    <nd ref="4263110648"/>
    <nd ref="4263110649"/>
    <nd ref="4263110641"/>
    <nd ref="4263110640"/>
    <nd ref="4263110636"/>
    <nd ref="4263110637"/>
    <nd ref="4263110632"/>
    <nd ref="4263110633"/>
    <nd ref="4263110629"/>
    <nd ref="4263110628"/>
    <nd ref="4263110627"/>
    <nd ref="4263110626"/>
    <nd ref="4263110622"/>
    <nd ref="4263110623"/>
    <nd ref="4263110620"/>
    <nd ref="4263110621"/>
    <nd ref="4263110625"/>
    <nd ref="4263110624"/>
    <nd ref="4263110631"/>
    <tag k="building" v="residential"/>
    <tag k="building:flats" v="84"/>
    <tag k="building:levels" v="6"/>
    <tag k="building:ruian:type" v="6"/>
    <tag k="name" v="Narcis"/>
    <tag k="ref:ruian:building" v="81478631"/>
    <tag k="source" v="cuzk:ruian"/>
    <tag k="start_date" v="2016-02-09"/>
  </way>
  <way id="445049778" version="4" timestamp="2024-04-13T18:12:08Z" changeset="149963909" uid="3003739" user="r00tcz">
    <nd ref="158715881"/>
    <nd ref="158715882"/>
    <nd ref="158715883"/>
    <nd ref="158715876"/>
    <nd ref="158715877"/>
    <nd ref="158715878"/>
    <nd ref="158715879"/>
    <nd ref="158715880"/>
    <nd ref="2099615681"/>
    <nd ref="2099615676"/>
    <nd ref="158715881"/>
    <tag k="building" v="school"/>
    <tag k="building:levels" v="1"/>
    <tag k="building:ruian:type" v="19"/>
    <tag k="name" v="SO a SOU Ke Stadionu"/>
    <tag k="ref:ruian:building" v="22274251"/>
    <tag k="roof:shape" v="gabled"/>
    <tag k="source" v="cuzk:ruian"/>
    <tag k="website" v="https://www.sou-cakovice.cz/"/>
  </way>
  <way id="503831062" version="5" timestamp="2024-12-03T06:48:07Z" changeset="159867803" uid="16912130" user="Ondra (CZ)">
    <nd ref="2124816533"/>
    <nd ref="290635855"/>
    <nd ref="2124816566"/>
    <nd ref="2124816576"/>
    <nd ref="2124816578"/>
    <nd ref="290635856"/>
    <nd ref="255923724"/>
    <tag k="highway" v="residential"/>
    <tag k="lane_markings" v="no"/>
    <tag k="lit" v="yes"/>
    <tag k="name" v="Na Blatech"/>
    <tag k="surface" v="paving_stones"/>
  </way>
  <way id="513165932" version="1" timestamp="2017-08-05T20:51:29Z" changeset="50870882" uid="665336" user="Minimalis">
    <nd ref="5017025243"/>
    <nd ref="5017025242"/>
    <tag k="highway" v="residential"/>
    <tag k="name" v="Na Star칠 n치vsi"/>
  </way>
  <way id="531144434" version="8" timestamp="2022-08-16T16:26:20Z" changeset="124980090" uid="3003739" user="r00tcz">
    <nd ref="243951405"/>
    <nd ref="7588338321"/>
    <nd ref="7075962897"/>
    <nd ref="243951406"/>
    <tag k="cycleway:both" v="no"/>
    <tag k="highway" v="unclassified"/>
    <tag k="lanes" v="2"/>
    <tag k="lit" v="no"/>
    <tag k="name" v="KSedli코ti"/>
    <tag k="smoothness" v="excellent"/>
    <tag k="surface" v="asphalt"/>
  </way>
  <way id="531490202" version="10" timestamp="2025-04-04T15:35:21Z" changeset="164515029" uid="21324687" user="mmatous">
    <nd ref="281238533"/>
    <nd ref="5159298901"/>
    <tag k="cycleway:both" v="track"/>
    <tag k="highway" v="secondary"/>
    <tag k="lanes" v="4"/>
    <tag k="lit" v="yes"/>
    <tag k="maxspeed:type" v="CZ:urban"/>
    <tag k="name" v="Tupolevova"/>
    <tag k="sidewalk:both" v="separate"/>
    <tag k="smoothness" v="good"/>
    <tag k="surface" v="asphalt"/>
    <tag k="trolley_wire" v="yes"/>
  </way>
  <way id="531490203" version="9" timestamp="2025-04-04T15:35:09Z" changeset="164515029" uid="21324687" user="mmatous">
    <nd ref="5159298904"/>
    <nd ref="5159298903"/>
    <tag k="cycleway" v="share_busway"/>
    <tag k="highway" v="secondary"/>
    <tag k="lanes" v="2"/>
    <tag k="lit" v="yes"/>
    <tag k="maxspeed:type" v="CZ:urban"/>
    <tag k="name" v="Tupolevova"/>
    <tag k="sidewalk:left" v="no"/>
    <tag k="sidewalk:right" v="separate"/>
    <tag k="smoothness" v="excellent"/>
    <tag k="surface" v="asphalt"/>
    <tag k="trolley_wire" v="yes"/>
  </way>
  <way id="531490205" version="9" timestamp="2025-04-10T21:53:01Z" changeset="164789004" uid="4018695" user="游뻟릖 Roman Horn칤k">
    <nd ref="5159298905"/>
    <nd ref="5159298904"/>
    <tag k="cycleway:both" v="share_busway"/>
    <tag k="highway" v="secondary"/>
    <tag k="lanes" v="4"/>
    <tag k="lit" v="yes"/>
    <tag k="maxspeed:type" v="CZ:urban"/>
    <tag k="name" v="Tupolevova"/>
    <tag k="sidewalk:left" v="no"/>
    <tag k="sidewalk:right" v="separate"/>
    <tag k="smoothness" v="excellent"/>
    <tag k="surface" v="asphalt"/>
    <tag k="trolley_wire" v="yes"/>
  </way>
  <way id="531490206" version="7" timestamp="2025-04-04T15:35:15Z" changeset="164515029" uid="21324687" user="mmatous">
    <nd ref="5159298903"/>
    <nd ref="5159298902"/>
    <tag k="cycleway:left" v="share_busway"/>
    <tag k="highway" v="secondary"/>
    <tag k="lanes" v="4"/>
    <tag k="lit" v="yes"/>
    <tag k="maxspeed:type" v="CZ:urban"/>
    <tag k="name" v="Tupolevova"/>
    <tag k="sidewalk:left" v="no"/>
    <tag k="sidewalk:right" v="separate"/>
    <tag k="smoothness" v="excellent"/>
    <tag k="surface" v="asphalt"/>
    <tag k="trolley_wire" v="yes"/>
  </way>
  <way id="531490207" version="8" timestamp="2025-04-04T15:24:00Z" changeset="164510891" uid="21324687" user="mmatous">
    <nd ref="5159298899"/>
    <nd ref="108217803"/>
    <nd ref="5159298898"/>
    <tag k="cycleway:both" v="share_busway"/>
    <tag k="highway" v="secondary"/>
    <tag k="lanes" v="3"/>
    <tag k="lit" v="yes"/>
    <tag k="maxspeed:type" v="CZ:urban"/>
    <tag k="name" v="Tupolevova"/>
    <tag k="sidewalk:left" v="separate"/>
    <tag k="sidewalk:right" v="no"/>
    <tag k="smoothness" v="excellent"/>
    <tag k="surface" v="asphalt"/>
    <tag k="trolley_wire" v="yes"/>
  </way>
  <way id="531490208" version="8" timestamp="2025-04-04T15:36:37Z" changeset="164515029" uid="21324687" user="mmatous">
    <nd ref="28586347"/>
    <nd ref="5159298906"/>
    <nd ref="5159298905"/>
    <tag k="cycleway:right" v="share_busway"/>
    <tag k="highway" v="secondary"/>
    <tag k="lanes" v="3"/>
    <tag k="lit" v="yes"/>
    <tag k="maxspeed:type" v="CZ:urban"/>
    <tag k="name" v="Tupolevova"/>
    <tag k="sidewalk:left" v="no"/>
    <tag k="sidewalk:right" v="separate"/>
    <tag k="smoothness" v="excellent"/>
    <tag k="surface" v="asphalt"/>
    <tag k="trolley_wire" v="yes"/>
  </way>
  <way id="531490209" version="7" timestamp="2025-04-10T21:53:01Z" changeset="164789004" uid="4018695" user="游뻟릖 Roman Horn칤k">
    <nd ref="5159298900"/>
    <nd ref="5159298899"/>
    <tag k="cycleway" v="share_busway"/>
    <tag k="highway" v="secondary"/>
    <tag k="lanes" v="4"/>
    <tag k="lit" v="yes"/>
    <tag k="maxspeed:type" v="CZ:urban"/>
    <tag k="name" v="Tupolevova"/>
    <tag k="smoothness" v="excellent"/>
    <tag k="surface" v="asphalt"/>
    <tag k="trolley_wire" v="yes"/>
  </way>
  <way id="531490210" version="10" timestamp="2025-04-10T21:53:01Z" changeset="164789004" uid="4018695" user="游뻟릖 Roman Horn칤k">
    <nd ref="5159298901"/>
    <nd ref="12729201674"/>
    <tag k="cycleway:left" v="shared_lane"/>
    <tag k="highway" v="secondary"/>
    <tag k="lanes" v="4"/>
    <tag k="lit" v="yes"/>
    <tag k="name" v="Tupolevova"/>
    <tag k="sidewalk:both" v="separate"/>
    <tag k="surface" v="asphalt"/>
    <tag k="trolley_wire" v="yes"/>
  </way>
  <way id="550494820" version="3" timestamp="2019-08-21T15:05:47Z" changeset="73585771" uid="309905" user="Petr Pulc">
    <nd ref="5317030868"/>
    <nd ref="5317030867"/>
    <nd ref="5317030866"/>
    <nd ref="5317030865"/>
    <nd ref="5317030864"/>
    <nd ref="5317030863"/>
    <nd ref="5317030862"/>
    <nd ref="5317030861"/>
    <nd ref="5317030860"/>
    <nd ref="5317030881"/>
    <nd ref="5317030880"/>
    <nd ref="5317030879"/>
    <nd ref="5317030878"/>
    <nd ref="5317030877"/>
    <nd ref="5317030876"/>
    <nd ref="5317030875"/>
    <nd ref="5317030874"/>
    <nd ref="5317030873"/>
    <nd ref="5317030872"/>
    <nd ref="5317030871"/>
    <nd ref="5317030870"/>
    <nd ref="5317030869"/>
    <nd ref="5317030868"/>
    <tag k="building" v="residential"/>
    <tag k="building:flats" v="85"/>
    <tag k="building:levels" v="6"/>
    <tag k="building:ruian:type" v="6"/>
    <tag k="name" v="Cedr"/>
    <tag k="ref:ruian:building" v="89390059"/>
    <tag k="source" v="cuzk:ruian"/>
    <tag k="start_date" v="2017-04-06"/>
  </way>
  <way id="550590935" version="3" timestamp="2019-08-21T15:05:47Z" changeset="73585771" uid="309905" user="Petr Pulc">
    <nd ref="6435590911"/>
    <nd ref="6435590910"/>
    <nd ref="6435590909"/>
    <nd ref="6435590908"/>
    <nd ref="5317961465"/>
    <nd ref="5317961464"/>
    <nd ref="5317961463"/>
    <nd ref="6435590907"/>
    <nd ref="6435590906"/>
    <nd ref="5317961462"/>
    <nd ref="5317961461"/>
    <nd ref="6435590905"/>
    <nd ref="6435590904"/>
    <nd ref="5317961460"/>
    <nd ref="5317961459"/>
    <nd ref="5317961458"/>
    <nd ref="5317961457"/>
    <nd ref="6435590903"/>
    <nd ref="6435590902"/>
    <nd ref="5317961466"/>
    <nd ref="6435590901"/>
    <nd ref="6435590900"/>
    <nd ref="6435590911"/>
    <tag k="building" v="residential"/>
    <tag k="building:flats" v="53"/>
    <tag k="building:levels" v="8"/>
    <tag k="building:ruian:type" v="6"/>
    <tag k="name" v="Azalka"/>
    <tag k="ref:ruian:building" v="96458186"/>
    <tag k="source" v="cuzk:ruian"/>
    <tag k="start_date" v="2019-01-09"/>
  </way>
  <way id="550889287" version="7" timestamp="2025-04-10T21:53:01Z" changeset="164789004" uid="4018695" user="游뻟릖 Roman Horn칤k">
    <nd ref="925971817"/>
    <nd ref="8067155552"/>
    <nd ref="12745546934"/>
    <nd ref="108216417"/>
    <nd ref="12745546933"/>
    <nd ref="1026423194"/>
    <nd ref="10706642256"/>
    <nd ref="10706642252"/>
    <nd ref="1570914139"/>
    <nd ref="108216418"/>
    <tag k="highway" v="secondary"/>
    <tag k="lanes" v="2"/>
    <tag k="lit" v="yes"/>
    <tag k="maxspeed" v="40"/>
    <tag k="name" v="Kosteleck치"/>
    <tag k="smoothness" v="good"/>
    <tag k="surface" v="asphalt"/>
  </way>
  <way id="573966850" version="2" timestamp="2025-04-10T21:53:01Z" changeset="164789004" uid="4018695" user="游뻟릖 Roman Horn칤k">
    <nd ref="1175743717"/>
    <nd ref="12745546942"/>
    <nd ref="156368051"/>
    <nd ref="156368052"/>
    <nd ref="1175743635"/>
    <nd ref="156368053"/>
    <nd ref="1175743861"/>
    <nd ref="156368054"/>
    <nd ref="156368055"/>
    <nd ref="1515492343"/>
    <nd ref="156368057"/>
    <tag k="highway" v="tertiary"/>
    <tag k="lit" v="no"/>
    <tag k="maxspeed" v="70"/>
    <tag k="name" v="Cukrovarsk치"/>
    <tag k="smoothness" v="excellent"/>
    <tag k="surface" v="asphalt"/>
  </way>
  <way id="573971673" version="3" timestamp="2025-04-10T21:53:01Z" changeset="164789004" uid="4018695" user="游뻟릖 Roman Horn칤k">
    <nd ref="1026423302"/>
    <nd ref="28585801"/>
    <tag k="highway" v="tertiary"/>
    <tag k="lanes" v="2"/>
    <tag k="lit" v="yes"/>
    <tag k="maxspeed:forward" v="30"/>
    <tag k="name" v="Cukrovarsk치"/>
    <tag k="surface" v="asphalt"/>
  </way>
  <way id="583911643" version="2" timestamp="2021-06-19T23:16:24Z" changeset="106648625" uid="11545091" user="VladaC">
    <nd ref="312528856"/>
    <nd ref="312528857"/>
    <nd ref="1259407259"/>
    <nd ref="312528858"/>
    <nd ref="8849379240"/>
    <nd ref="1259407235"/>
    <tag k="highway" v="residential"/>
    <tag k="name" v="Tryskovick치"/>
  </way>
  <way id="587455512" version="1" timestamp="2018-05-11T10:42:59Z" changeset="58874634" uid="10345" user="Mormegil">
    <nd ref="28586135"/>
    <nd ref="1259454514"/>
    <nd ref="1259454409"/>
    <tag k="highway" v="residential"/>
    <tag k="name" v="Kㅁvii"/>
  </way>
  <way id="593546512" version="4" timestamp="2024-06-17T21:14:19Z" changeset="152820306" uid="309905" user="Petr Pulc">
    <nd ref="312527140"/>
    <nd ref="11988971409"/>
    <nd ref="11988971410"/>
    <nd ref="6097192887"/>
    <nd ref="6097192888"/>
    <nd ref="6097193185"/>
    <nd ref="6097192886"/>
    <nd ref="6097192984"/>
    <nd ref="6097193186"/>
    <nd ref="6097193410"/>
    <tag k="highway" v="residential"/>
    <tag k="name" v="Marie Podvalov칠"/>
  </way>
  <way id="593758916" version="4" timestamp="2024-11-08T15:28:17Z" changeset="158900081" uid="16912130" user="Ondra (CZ)">
    <nd ref="21050451"/>
    <nd ref="1026423418"/>
    <nd ref="1570914296"/>
    <nd ref="21050450"/>
    <nd ref="170346150"/>
    <tag k="highway" v="tertiary"/>
    <tag k="lanes" v="2"/>
    <tag k="maxspeed" v="50"/>
    <tag k="name" v="Kosteleck치"/>
    <tag k="surface" v="asphalt"/>
    <tag k="trolley_wire" v="no"/>
  </way>
  <way id="595866513" version="7" timestamp="2024-12-03T06:35:33Z" changeset="159867661" uid="16912130" user="Ondra (CZ)">
    <nd ref="28586398"/>
    <nd ref="28586246"/>
    <nd ref="925974040"/>
    <nd ref="925967283"/>
    <tag k="highway" v="tertiary"/>
    <tag k="lanes" v="2"/>
    <tag k="lit" v="yes"/>
    <tag k="maxspeed" v="50"/>
    <tag k="name" v="Kosteleck치"/>
    <tag k="surface" v="asphalt"/>
    <tag k="trolley_wire:backward" v="yes"/>
  </way>
  <way id="598209323" version="6" timestamp="2024-10-20T22:43:59Z" changeset="158148067" uid="25867" user="adamos">
    <nd ref="21050420"/>
    <nd ref="28588066"/>
    <nd ref="12231334690"/>
    <nd ref="1026423842"/>
    <nd ref="12231334691"/>
    <nd ref="156386533"/>
    <tag k="highway" v="tertiary"/>
    <tag k="lanes" v="2"/>
    <tag k="name" v="Cukrovarsk치"/>
    <tag k="surface" v="asphalt"/>
    <tag k="trolley_wire" v="no"/>
  </way>
  <way id="598555958" version="7" timestamp="2023-09-01T06:41:19Z" changeset="140663642" uid="20038671" user="Jan Andrle">
    <nd ref="158714392"/>
    <nd ref="8635035145"/>
    <nd ref="158714575"/>
    <tag k="highway" v="residential"/>
    <tag k="lit" v="yes"/>
    <tag k="maxspeed" v="30"/>
    <tag k="maxspeed:type" v="CZ:zone30"/>
    <tag k="name" v="Dyjsk치"/>
    <tag k="oneway" v="yes"/>
    <tag k="smoothness" v="excellent"/>
    <tag k="surface" v="asphalt"/>
    <tag k="width" v="6.5"/>
  </way>
  <way id="598555960" version="6" timestamp="2024-07-16T15:21:07Z" changeset="154020605" uid="20038671" user="Jan Andrle">
    <nd ref="158713828"/>
    <nd ref="5582124167"/>
    <nd ref="8635035143"/>
    <nd ref="158714392"/>
    <tag k="highway" v="residential"/>
    <tag k="lit" v="yes"/>
    <tag k="maxspeed" v="30"/>
    <tag k="maxspeed:type" v="CZ:zone30"/>
    <tag k="name" v="Dyjsk치"/>
    <tag k="oneway" v="yes"/>
    <tag k="surface" v="asphalt"/>
    <tag k="width" v="6.6"/>
  </way>
  <way id="627800391" version="5" timestamp="2021-07-03T20:18:14Z" changeset="107368192" uid="1189910" user="Milancer">
    <nd ref="6731954421"/>
    <nd ref="6731954420"/>
    <nd ref="6731954419"/>
    <nd ref="5926765652"/>
    <nd ref="6731954418"/>
    <nd ref="6731954417"/>
    <nd ref="6731954416"/>
    <nd ref="5926765650"/>
    <nd ref="5926765651"/>
    <nd ref="6731954415"/>
    <nd ref="5926765653"/>
    <nd ref="6731954421"/>
    <tag k="brand" v="Lidl"/>
    <tag k="brand:wikidata" v="Q151954"/>
    <tag k="brand:wikipedia" v="en:Lidl"/>
    <tag k="building" v="yes"/>
    <tag k="building:levels" v="1"/>
    <tag k="building:ruian:type" v="10"/>
    <tag k="name" v="Lidl"/>
    <tag k="ref:ruian:building" v="97527122"/>
    <tag k="shop" v="supermarket"/>
    <tag k="source" v="cuzk:ruian"/>
    <tag k="start_date" v="2019-05-14"/>
  </way>
  <way id="642195678" version="2" timestamp="2019-08-21T15:05:47Z" changeset="73585771" uid="309905" user="Petr Pulc">
    <nd ref="6046449506"/>
    <nd ref="6046449505"/>
    <nd ref="6046449504"/>
    <nd ref="6046449503"/>
    <nd ref="6046449502"/>
    <nd ref="6046449501"/>
    <nd ref="6046449500"/>
    <nd ref="6046449499"/>
    <nd ref="6046449498"/>
    <nd ref="6046449497"/>
    <nd ref="6046449496"/>
    <nd ref="6046449495"/>
    <nd ref="6046449494"/>
    <nd ref="6046449493"/>
    <nd ref="6046449506"/>
    <tag k="building" v="residential"/>
    <tag k="building:flats" v="27"/>
    <tag k="building:levels" v="6"/>
    <tag k="building:ruian:type" v="6"/>
    <tag k="name" v="Bazalka"/>
    <tag k="ref:ruian:building" v="93933967"/>
    <tag k="source" v="cuzk:ruian"/>
    <tag k="start_date" v="2018-04-11"/>
  </way>
  <way id="649771044" version="5" timestamp="2024-03-12T17:34:33Z" changeset="148560278" uid="10932047" user="AF HAF KARTOGRAF">
    <nd ref="5624539188"/>
    <nd ref="6097192509"/>
    <nd ref="6097192508"/>
    <nd ref="6097192507"/>
    <nd ref="6097192506"/>
    <nd ref="6097192505"/>
    <nd ref="6097192504"/>
    <nd ref="6097192503"/>
    <nd ref="6097192502"/>
    <nd ref="6097192501"/>
    <nd ref="6097192500"/>
    <nd ref="6097192499"/>
    <nd ref="6097192498"/>
    <nd ref="6097192497"/>
    <nd ref="6097192496"/>
    <nd ref="6097192495"/>
    <nd ref="6097192494"/>
    <nd ref="6097192493"/>
    <nd ref="5624539194"/>
    <nd ref="5624539187"/>
    <nd ref="5624539188"/>
    <tag k="building" v="residential"/>
    <tag k="name" v="Pomn캩nka"/>
  </way>
  <way id="649771047" version="5" timestamp="2024-03-12T17:34:33Z" changeset="148560278" uid="10932047" user="AF HAF KARTOGRAF">
    <nd ref="6097192521"/>
    <nd ref="6097192520"/>
    <nd ref="6097192519"/>
    <nd ref="6097192518"/>
    <nd ref="6097192517"/>
    <nd ref="6097192516"/>
    <nd ref="6097192515"/>
    <nd ref="6097192514"/>
    <nd ref="6097192513"/>
    <nd ref="6097192512"/>
    <nd ref="5624539189"/>
    <nd ref="5624539190"/>
    <nd ref="5624539191"/>
    <nd ref="5624539192"/>
    <nd ref="6097192511"/>
    <nd ref="6097192510"/>
    <nd ref="6097192521"/>
    <tag k="building" v="residential"/>
    <tag k="building:flats" v="81"/>
    <tag k="building:levels" v="8"/>
    <tag k="building:ruian:type" v="6"/>
    <tag k="name" v="Rakytn칤k"/>
    <tag k="ref:ruian:building" v="92844791"/>
    <tag k="source" v="cuzk:ruian"/>
    <tag k="start_date" v="2017-12-19"/>
  </way>
  <way id="649771102" version="5" timestamp="2021-03-10T14:33:18Z" changeset="100785581" uid="25867" user="adamos">
    <nd ref="6097192945"/>
    <nd ref="6097192947"/>
    <nd ref="6097192949"/>
    <nd ref="6097192950"/>
    <nd ref="6097192954"/>
    <nd ref="8503896078"/>
    <nd ref="6097192945"/>
    <tag k="building" v="residential"/>
    <tag k="name" v="Eukalyptus"/>
    <tag k="source" v="cuzk:km"/>
  </way>
  <way id="649771105" version="3" timestamp="2021-03-10T14:33:18Z" changeset="100785581" uid="25867" user="adamos">
    <nd ref="6097192967"/>
    <nd ref="6097192964"/>
    <nd ref="6097192963"/>
    <nd ref="6097192960"/>
    <nd ref="6097192958"/>
    <nd ref="6097192959"/>
    <nd ref="6097192976"/>
    <nd ref="6097192977"/>
    <nd ref="6097192978"/>
    <nd ref="6097192974"/>
    <nd ref="6097192975"/>
    <nd ref="6097192970"/>
    <nd ref="6097192969"/>
    <nd ref="6097192968"/>
    <nd ref="6097192967"/>
    <tag k="building" v="residential"/>
    <tag k="name" v="Divizna"/>
    <tag k="source" v="cuzk:km"/>
  </way>
  <way id="649771120" version="2" timestamp="2019-08-21T17:37:28Z" changeset="73591141" uid="10241731" user="TriStone">
    <nd ref="6097193248"/>
    <nd ref="2093410823"/>
    <nd ref="2093410827"/>
    <nd ref="6097193249"/>
    <nd ref="6097193248"/>
    <tag k="building" v="residential"/>
    <tag k="building:flats" v="173"/>
    <tag k="building:levels" v="5"/>
    <tag k="building:ruian:type" v="6"/>
    <tag k="name" v="D5"/>
    <tag k="ref:ruian:building" v="26257807"/>
    <tag k="source" v="cuzk:ruian"/>
    <tag k="start_date" v="2007-06-27"/>
  </way>
  <way id="649771123" version="6" timestamp="2024-03-12T17:34:33Z" changeset="148560278" uid="10932047" user="AF HAF KARTOGRAF">
    <nd ref="8503896077"/>
    <nd ref="8503896076"/>
    <nd ref="8503896075"/>
    <nd ref="8503896074"/>
    <nd ref="8503896073"/>
    <nd ref="8503896072"/>
    <nd ref="8503896066"/>
    <nd ref="8503896071"/>
    <nd ref="8503896065"/>
    <nd ref="4711508816"/>
    <nd ref="4711508817"/>
    <nd ref="4711508810"/>
    <nd ref="8503896069"/>
    <nd ref="4711508812"/>
    <nd ref="4711508823"/>
    <nd ref="8503896067"/>
    <nd ref="4711508824"/>
    <nd ref="8503896062"/>
    <nd ref="4711508825"/>
    <nd ref="4711508826"/>
    <nd ref="4711508827"/>
    <nd ref="6097193278"/>
    <nd ref="8503896077"/>
    <tag k="building" v="residential"/>
    <tag k="name" v="Fr칠zie"/>
    <tag k="source" v="cuzk:km"/>
  </way>
  <way id="680782510" version="6" timestamp="2023-08-16T06:49:20Z" changeset="139946791" uid="20038671" user="Jan Andrle">
    <nd ref="158716647"/>
    <nd ref="158714264"/>
    <tag k="highway" v="residential"/>
    <tag k="lane_markings" v="no"/>
    <tag k="maxspeed" v="30"/>
    <tag k="maxspeed:type" v="CZ:zone30"/>
    <tag k="name" v="Otavsk치"/>
    <tag k="source:name" v="nameit/uir-adr"/>
    <tag k="surface" v="asphalt"/>
    <tag k="width" v="8.6"/>
  </way>
  <way id="691228567" version="3" timestamp="2024-04-14T18:59:33Z" changeset="150006240" uid="2061236" user="Thartek">
    <nd ref="28588118"/>
    <nd ref="1026423786"/>
    <nd ref="2250319167"/>
    <nd ref="28588090"/>
    <tag k="highway" v="residential"/>
    <tag k="name" v="Ke Stadionu"/>
    <tag k="surface" v="asphalt"/>
  </way>
  <way id="696203612" version="6" timestamp="2024-12-17T13:37:12Z" changeset="160298915" uid="16912130" user="Ondra (CZ)">
    <nd ref="158727766"/>
    <nd ref="312525833"/>
    <nd ref="158728622"/>
    <tag k="cycleway:both" v="no"/>
    <tag k="highway" v="residential"/>
    <tag k="lane_markings" v="no"/>
    <tag k="name" v="Marie Podvalov칠"/>
    <tag k="sidewalk:left" v="separate"/>
    <tag k="sidewalk:right" v="no"/>
    <tag k="surface" v="asphalt"/>
  </way>
  <way id="696664240" version="3" timestamp="2024-12-17T13:37:12Z" changeset="160298915" uid="16912130" user="Ondra (CZ)">
    <nd ref="158728622"/>
    <nd ref="6097193410"/>
    <tag k="cycleway:both" v="no"/>
    <tag k="highway" v="residential"/>
    <tag k="name" v="Marie Podvalov칠"/>
    <tag k="sidewalk:left" v="no"/>
    <tag k="sidewalk:right" v="separate"/>
  </way>
  <way id="716693746" version="2" timestamp="2019-08-21T15:05:47Z" changeset="73585771" uid="309905" user="Petr Pulc">
    <nd ref="6731850742"/>
    <nd ref="6731850741"/>
    <nd ref="6731850740"/>
    <nd ref="6731850739"/>
    <nd ref="6731850738"/>
    <nd ref="6731850737"/>
    <nd ref="6731850736"/>
    <nd ref="6731850735"/>
    <nd ref="6731850734"/>
    <nd ref="6731850733"/>
    <nd ref="6731850732"/>
    <nd ref="6731850731"/>
    <nd ref="6731850730"/>
    <nd ref="6731850729"/>
    <nd ref="6731850728"/>
    <nd ref="6731850727"/>
    <nd ref="6731850726"/>
    <nd ref="6731850725"/>
    <nd ref="6731850724"/>
    <nd ref="6731850723"/>
    <nd ref="6731850722"/>
    <nd ref="6731850721"/>
    <nd ref="6731850720"/>
    <nd ref="6731850719"/>
    <nd ref="6731850718"/>
    <nd ref="6731850717"/>
    <nd ref="6731850716"/>
    <nd ref="6731850715"/>
    <nd ref="6731850714"/>
    <nd ref="6731850713"/>
    <nd ref="6731850712"/>
    <nd ref="6731850711"/>
    <nd ref="6731850742"/>
    <tag k="building" v="residential"/>
    <tag k="building:flats" v="63"/>
    <tag k="building:levels" v="8"/>
    <tag k="building:ruian:type" v="6"/>
    <tag k="name" v="Slune캜nice"/>
    <tag k="ref:ruian:building" v="97493449"/>
    <tag k="source" v="cuzk:ruian"/>
    <tag k="start_date" v="2019-05-09"/>
  </way>
  <way id="716696042" version="3" timestamp="2020-06-13T12:49:46Z" changeset="86598721" uid="309905" user="Petr Pulc">
    <nd ref="6731908982"/>
    <nd ref="6731908981"/>
    <nd ref="6731908980"/>
    <nd ref="7617798910"/>
    <nd ref="7617798909"/>
    <nd ref="6731908979"/>
    <nd ref="6731908977"/>
    <nd ref="6731908973"/>
    <nd ref="6731908970"/>
    <nd ref="6731908971"/>
    <nd ref="6731908972"/>
    <nd ref="6731908968"/>
    <nd ref="6731908969"/>
    <nd ref="6731908966"/>
    <nd ref="6731908967"/>
    <nd ref="6731908964"/>
    <nd ref="6731908965"/>
    <nd ref="6731908983"/>
    <nd ref="6731908982"/>
    <tag k="building" v="residential"/>
    <tag k="building:flats" v="54"/>
    <tag k="building:levels" v="7"/>
    <tag k="building:ruian:type" v="6"/>
    <tag k="name" v="Tulip치n"/>
    <tag k="ref:ruian:building" v="100245765"/>
    <tag k="source" v="cuzk:ruian"/>
    <tag k="start_date" v="2020-01-12"/>
  </way>
  <way id="716718730" version="5" timestamp="2024-12-17T13:37:07Z" changeset="160298903" uid="16912130" user="Ondra (CZ)">
    <nd ref="158723819"/>
    <nd ref="8723346254"/>
    <nd ref="9002366398"/>
    <nd ref="158731115"/>
    <nd ref="7139038768"/>
    <nd ref="158723820"/>
    <nd ref="2686276207"/>
    <nd ref="158727650"/>
    <tag k="highway" v="tertiary"/>
    <tag k="name" v="Schoellerova"/>
    <tag k="parking:both" v="no"/>
  </way>
  <way id="716718739" version="3" timestamp="2023-02-26T19:30:51Z" changeset="133056685" uid="1189910" user="Milancer">
    <nd ref="312528860"/>
    <nd ref="10695513733"/>
    <nd ref="2884209748"/>
    <tag k="bridge" v="yes"/>
    <tag k="highway" v="residential"/>
    <tag k="layer" v="1"/>
    <tag k="smoothness" v="excellent"/>
    <tag k="surface" v="asphalt"/>
    <tag k="tracktype" v="grade1"/>
  </way>
  <way id="716718740" version="4" timestamp="2023-02-26T19:30:51Z" changeset="133056685" uid="1189910" user="Milancer">
    <nd ref="2884209748"/>
    <nd ref="10695513732"/>
    <nd ref="2884209746"/>
    <nd ref="2884209744"/>
    <nd ref="2884209745"/>
    <nd ref="2884209747"/>
    <nd ref="2884209749"/>
    <nd ref="2120539815"/>
    <tag k="highway" v="residential"/>
    <tag k="lit" v="no"/>
    <tag k="smoothness" v="excellent"/>
    <tag k="surface" v="asphalt"/>
    <tag k="tracktype" v="grade1"/>
  </way>
  <way id="716736905" version="2" timestamp="2019-08-21T15:05:47Z" changeset="73585771" uid="309905" user="Petr Pulc">
    <nd ref="3136457240"/>
    <nd ref="3218851429"/>
    <nd ref="3218851436"/>
    <nd ref="3218851437"/>
    <nd ref="3136457259"/>
    <nd ref="3136457262"/>
    <nd ref="3233665775"/>
    <nd ref="3218851439"/>
    <nd ref="3218851438"/>
    <nd ref="3136457263"/>
    <nd ref="3136457251"/>
    <nd ref="6732202858"/>
    <nd ref="6732202857"/>
    <nd ref="6732202856"/>
    <nd ref="6732202855"/>
    <nd ref="6732202854"/>
    <nd ref="6732202853"/>
    <nd ref="6732202852"/>
    <nd ref="6732202851"/>
    <nd ref="6732202850"/>
    <nd ref="6732202849"/>
    <nd ref="6732202848"/>
    <nd ref="6732202847"/>
    <nd ref="6732202846"/>
    <nd ref="6732202845"/>
    <nd ref="3136457230"/>
    <nd ref="3218851418"/>
    <nd ref="3218851419"/>
    <nd ref="3136457229"/>
    <nd ref="3136457240"/>
    <tag k="building" v="residential"/>
    <tag k="building:flats" v="88"/>
    <tag k="building:levels" v="6"/>
    <tag k="building:ruian:type" v="6"/>
    <tag k="name" v="Lilie"/>
    <tag k="ref:ruian:building" v="77698711"/>
    <tag k="source" v="cuzk:ruian"/>
    <tag k="start_date" v="2014-02-06"/>
  </way>
  <way id="716736906" version="2" timestamp="2019-08-21T15:05:47Z" changeset="73585771" uid="309905" user="Petr Pulc">
    <nd ref="3136457233"/>
    <nd ref="3136457234"/>
    <nd ref="3136457241"/>
    <nd ref="6732202844"/>
    <nd ref="6732202861"/>
    <nd ref="6732202860"/>
    <nd ref="6732202859"/>
    <nd ref="6732202862"/>
    <nd ref="3136457254"/>
    <nd ref="3136457257"/>
    <nd ref="3136457258"/>
    <nd ref="3136457265"/>
    <nd ref="3233665772"/>
    <nd ref="3136457264"/>
    <nd ref="3136457268"/>
    <nd ref="3136457267"/>
    <nd ref="3136457261"/>
    <nd ref="3136457260"/>
    <nd ref="3136457250"/>
    <nd ref="3136457249"/>
    <nd ref="3233665624"/>
    <nd ref="3136457247"/>
    <nd ref="3136457248"/>
    <nd ref="3233665593"/>
    <nd ref="3233665456"/>
    <nd ref="3233665441"/>
    <nd ref="3233665440"/>
    <nd ref="3136457238"/>
    <nd ref="3136457239"/>
    <nd ref="3233665430"/>
    <nd ref="3136457232"/>
    <nd ref="3136457231"/>
    <nd ref="3218851420"/>
    <nd ref="3136457128"/>
    <nd ref="3136457127"/>
    <nd ref="3136457233"/>
    <tag k="building" v="residential"/>
    <tag k="building:flats" v="88"/>
    <tag k="building:levels" v="6"/>
    <tag k="building:ruian:type" v="6"/>
    <tag k="name" v="Mate콏칤dou코ka"/>
    <tag k="ref:ruian:building" v="77698711"/>
    <tag k="source" v="cuzk:ruian"/>
    <tag k="start_date" v="2014-02-06"/>
  </way>
  <way id="716738847" version="2" timestamp="2019-08-21T15:05:47Z" changeset="73585771" uid="309905" user="Petr Pulc">
    <nd ref="6732213707"/>
    <nd ref="3521795941"/>
    <nd ref="3521795942"/>
    <nd ref="3521795943"/>
    <nd ref="3521795944"/>
    <nd ref="3521795946"/>
    <nd ref="3521795945"/>
    <nd ref="3521795947"/>
    <nd ref="3521795948"/>
    <nd ref="3521795950"/>
    <nd ref="3521795949"/>
    <nd ref="3521795954"/>
    <nd ref="3521795953"/>
    <nd ref="3521795956"/>
    <nd ref="3521795955"/>
    <nd ref="3521795952"/>
    <nd ref="3521795951"/>
    <nd ref="3521795940"/>
    <nd ref="6732213707"/>
    <tag k="building" v="residential"/>
    <tag k="building:flats" v="89"/>
    <tag k="building:levels" v="6"/>
    <tag k="building:ruian:type" v="6"/>
    <tag k="name" v="Hortenzie"/>
    <tag k="ref:ruian:building" v="79339409"/>
    <tag k="source" v="cuzk:ruian"/>
    <tag k="start_date" v="2015-01-27"/>
  </way>
  <way id="764152778" version="4" timestamp="2024-10-20T22:43:59Z" changeset="158148067" uid="25867" user="adamos">
    <nd ref="7139038764"/>
    <nd ref="7139038765"/>
    <nd ref="7139038763"/>
    <nd ref="7139038762"/>
    <tag k="highway" v="residential"/>
    <tag k="name" v="Ke Stadionu"/>
    <tag k="oneway" v="yes"/>
    <tag k="surface" v="asphalt"/>
    <tag k="trolley_wire" v="no"/>
  </way>
  <way id="764152779" version="3" timestamp="2024-10-21T21:39:36Z" changeset="158188693" uid="25867" user="adamos">
    <nd ref="28588140"/>
    <nd ref="28588159"/>
    <nd ref="7139038764"/>
    <tag k="highway" v="residential"/>
    <tag k="lit" v="yes"/>
    <tag k="name" v="Ke Stadionu"/>
    <tag k="oneway" v="yes"/>
    <tag k="surface" v="asphalt"/>
    <tag k="trolley_wire" v="no"/>
  </way>
  <way id="815660283" version="2" timestamp="2021-08-24T10:13:52Z" changeset="110163695" uid="527259" user="Vratislav Filler">
    <nd ref="7617753540"/>
    <nd ref="3136457119"/>
    <nd ref="7617753538"/>
    <nd ref="7617753539"/>
    <nd ref="3136457118"/>
    <nd ref="312529515"/>
    <tag k="highway" v="residential"/>
    <tag k="lanes" v="1"/>
    <tag k="priority" v="forward"/>
    <tag k="smoothness" v="excellent"/>
    <tag k="surface" v="asphalt"/>
    <tag k="tracktype" v="grade1"/>
    <tag k="width" v="3"/>
  </way>
  <way id="852739282" version="4" timestamp="2023-02-11T22:19:45Z" changeset="132424582" uid="231749" user="Eino81">
    <nd ref="7954717254"/>
    <nd ref="7954717258"/>
    <nd ref="7954717261"/>
    <tag k="access" v="yes"/>
    <tag k="highway" v="residential"/>
    <tag k="name" v="Schollova"/>
  </way>
  <way id="852739283" version="5" timestamp="2023-02-05T21:54:49Z" changeset="132129757" uid="9291527" user="marekhrabe">
    <nd ref="7954717256"/>
    <nd ref="7954717257"/>
    <nd ref="9559135450"/>
    <nd ref="9319611853"/>
    <nd ref="9319611854"/>
    <nd ref="9559135461"/>
    <nd ref="9319611855"/>
    <nd ref="8752520277"/>
    <nd ref="28587947"/>
    <tag k="highway" v="residential"/>
    <tag k="name" v="Sophie Schollov칠"/>
    <tag k="surface" v="asphalt"/>
  </way>
  <way id="852739284" version="4" timestamp="2023-02-22T17:46:33Z" changeset="132892999" uid="9291527" user="marekhrabe">
    <nd ref="7954717258"/>
    <nd ref="7954717262"/>
    <nd ref="7954717259"/>
    <tag k="access" v="yes"/>
    <tag k="highway" v="residential"/>
    <tag k="name" v="Kurta Hubera"/>
  </way>
  <way id="852739285" version="2" timestamp="2023-02-11T22:19:45Z" changeset="132424582" uid="231749" user="Eino81">
    <nd ref="177545949"/>
    <nd ref="7954717262"/>
    <tag k="access" v="yes"/>
    <tag k="highway" v="residential"/>
  </way>
  <way id="852739286" version="3" timestamp="2023-02-11T22:19:45Z" changeset="132424582" uid="231749" user="Eino81">
    <nd ref="7954717263"/>
    <nd ref="7954717264"/>
    <tag k="access" v="yes"/>
    <tag k="highway" v="residential"/>
    <tag k="name" v="Schollova"/>
  </way>
  <way id="852739287" version="3" timestamp="2023-02-11T22:19:45Z" changeset="132424582" uid="231749" user="Eino81">
    <nd ref="7954717265"/>
    <nd ref="7954717266"/>
    <tag k="access" v="yes"/>
    <tag k="highway" v="residential"/>
    <tag k="name" v="Schollova"/>
  </way>
  <way id="858659286" version="4" timestamp="2024-10-21T09:34:57Z" changeset="158161163" uid="25867" user="adamos">
    <nd ref="156386533"/>
    <nd ref="7139038762"/>
    <tag k="highway" v="tertiary"/>
    <tag k="lanes" v="2"/>
    <tag k="lit" v="yes"/>
    <tag k="maxspeed:type" v="CZ:urban"/>
    <tag k="name" v="Cukrovarsk치"/>
    <tag k="surface" v="asphalt"/>
    <tag k="trolley_wire" v="no"/>
  </way>
  <way id="865501273" version="2" timestamp="2021-03-10T14:33:18Z" changeset="100785581" uid="25867" user="adamos">
    <nd ref="8067155542"/>
    <nd ref="8067155543"/>
    <nd ref="8067155540"/>
    <nd ref="8503896095"/>
    <nd ref="8503896094"/>
    <nd ref="8067155541"/>
    <nd ref="8067155542"/>
    <tag k="alt_name" v="Kentucky Fried Chicken"/>
    <tag k="amenity" v="fast_food"/>
    <tag k="brand" v="KFC"/>
    <tag k="brand:wikidata" v="Q524757"/>
    <tag k="brand:wikipedia" v="en:KFC"/>
    <tag k="building" v="commercial"/>
    <tag k="building:levels" v="1"/>
    <tag k="building:ruian:type" v="10"/>
    <tag k="cuisine" v="chicken"/>
    <tag k="name" v="KFC"/>
    <tag k="ref:ruian:building" v="103621695"/>
    <tag k="source" v="cuzk:ruian"/>
    <tag k="start_date" v="2020-10-31"/>
    <tag k="takeaway" v="yes"/>
  </way>
  <way id="865501274" version="2" timestamp="2021-03-10T14:33:18Z" changeset="100785581" uid="25867" user="adamos">
    <nd ref="8067155546"/>
    <nd ref="8067155547"/>
    <nd ref="8067155544"/>
    <nd ref="8503896102"/>
    <nd ref="8503896101"/>
    <nd ref="8503896100"/>
    <nd ref="8503896099"/>
    <nd ref="8067155545"/>
    <nd ref="8503896098"/>
    <nd ref="8503896097"/>
    <nd ref="8503896096"/>
    <nd ref="8067155546"/>
    <tag k="amenity" v="fast_food"/>
    <tag k="brand" v="Burger King"/>
    <tag k="brand:wikidata" v="Q177054"/>
    <tag k="brand:wikipedia" v="en:Burger King"/>
    <tag k="building" v="commercial"/>
    <tag k="building:levels" v="1"/>
    <tag k="building:ruian:type" v="10"/>
    <tag k="cuisine" v="burger"/>
    <tag k="name" v="Burger King"/>
    <tag k="ref:ruian:building" v="103620923"/>
    <tag k="source" v="cuzk:ruian"/>
    <tag k="start_date" v="2020-10-31"/>
    <tag k="takeaway" v="yes"/>
  </way>
  <way id="929340286" version="1" timestamp="2021-04-11T19:41:50Z" changeset="102754292" uid="6588887" user="Martin2035">
    <nd ref="158714263"/>
    <nd ref="158714264"/>
    <tag k="highway" v="residential"/>
    <tag k="name" v="Jizersk치"/>
    <tag k="surface" v="asphalt"/>
  </way>
  <way id="944005695" version="3" timestamp="2024-06-17T21:14:19Z" changeset="152820306" uid="309905" user="Petr Pulc">
    <nd ref="312527140"/>
    <nd ref="11988971402"/>
    <nd ref="312527398"/>
    <tag k="highway" v="residential"/>
    <tag k="name" v="Tryskovick치"/>
  </way>
  <way id="945418660" version="3" timestamp="2025-04-04T15:38:31Z" changeset="164510891" uid="21324687" user="mmatous">
    <nd ref="2193318547"/>
    <nd ref="9559135465"/>
    <nd ref="1026423541"/>
    <tag k="highway" v="secondary"/>
    <tag k="lanes" v="2"/>
    <tag k="lit" v="yes"/>
    <tag k="maxspeed" v="50"/>
    <tag k="name" v="Kosteleck치"/>
    <tag k="sidewalk:left" v="no"/>
    <tag k="sidewalk:right" v="separate"/>
    <tag k="surface" v="asphalt"/>
  </way>
  <way id="945418667" version="5" timestamp="2024-12-03T06:36:12Z" changeset="159867661" uid="16912130" user="Ondra (CZ)">
    <nd ref="2193318549"/>
    <nd ref="28586398"/>
    <tag k="highway" v="tertiary"/>
    <tag k="lanes" v="2"/>
    <tag k="lit" v="yes"/>
    <tag k="maxspeed" v="50"/>
    <tag k="name" v="Kosteleck치"/>
    <tag k="surface" v="asphalt"/>
    <tag k="trolley_wire:backward" v="yes"/>
  </way>
  <way id="982700625" version="3" timestamp="2025-01-15T15:52:27Z" changeset="161386188" uid="100163" user="Hlav">
    <nd ref="9086698774"/>
    <nd ref="9086698773"/>
    <nd ref="9086698776"/>
    <nd ref="9086698775"/>
    <nd ref="9086698774"/>
    <tag k="amenity" v="car_wash"/>
    <tag k="automated" v="no"/>
    <tag k="brand" v="Globus"/>
    <tag k="brand:wikidata" v="Q457503"/>
    <tag k="building" v="roof"/>
    <tag k="layer" v="1"/>
    <tag k="name" v="Globus"/>
    <tag k="opening_hours" v="24/7"/>
    <tag k="operator" v="Globus"/>
    <tag k="payment:coins" v="yes"/>
    <tag k="payment:contactless" v="yes"/>
    <tag k="payment:maestro" v="yes"/>
    <tag k="payment:visa" v="yes"/>
    <tag k="self_service" v="yes"/>
  </way>
  <way id="1010070586" version="2" timestamp="2022-01-04T08:44:37Z" changeset="115743058" uid="13005563" user="PM248">
    <nd ref="7954717259"/>
    <nd ref="7954717260"/>
    <nd ref="9319611852"/>
    <nd ref="9319611851"/>
    <nd ref="7954717261"/>
    <tag k="highway" v="residential"/>
    <tag k="name" v="Kurta Hubera"/>
  </way>
  <way id="1010070587" version="2" timestamp="2023-02-05T21:54:49Z" changeset="132129757" uid="9291527" user="marekhrabe">
    <nd ref="7954717261"/>
    <nd ref="7954717257"/>
    <tag k="highway" v="residential"/>
    <tag k="name" v="Schollova"/>
  </way>
  <way id="1010070588" version="3" timestamp="2023-02-11T22:19:45Z" changeset="132424582" uid="231749" user="Eino81">
    <nd ref="7954717257"/>
    <nd ref="7954717264"/>
    <nd ref="7954717266"/>
    <nd ref="7954717255"/>
    <tag k="access" v="yes"/>
    <tag k="highway" v="residential"/>
    <tag k="name" v="Schollova"/>
  </way>
  <way id="1051499131" version="4" timestamp="2024-12-03T06:50:52Z" changeset="159867890" uid="16912130" user="Ondra (CZ)">
    <nd ref="9662903574"/>
    <nd ref="9662903573"/>
    <nd ref="9662903572"/>
    <nd ref="9662903571"/>
    <nd ref="9662903570"/>
    <tag k="highway" v="residential"/>
    <tag k="lane_markings" v="no"/>
    <tag k="parking:both" v="lane"/>
    <tag k="parking:both:orientation" v="parallel"/>
    <tag k="surface" v="paving_stones"/>
  </way>
  <way id="1070722718" version="3" timestamp="2022-08-16T16:26:27Z" changeset="124980090" uid="3003739" user="r00tcz">
    <nd ref="243951406"/>
    <nd ref="9892144553"/>
    <nd ref="171243268"/>
    <tag k="cycleway:both" v="no"/>
    <tag k="highway" v="unclassified"/>
    <tag k="lanes" v="1"/>
    <tag k="lit" v="no"/>
    <tag k="motor_vehicle" v="no"/>
    <tag k="name" v="KSedli코ti"/>
    <tag k="smoothness" v="excellent"/>
    <tag k="surface" v="asphalt"/>
  </way>
  <way id="1149727024" version="5" timestamp="2024-10-20T22:43:59Z" changeset="158148067" uid="25867" user="adamos">
    <nd ref="10695513723"/>
    <nd ref="2117654872"/>
    <nd ref="21050389"/>
    <tag k="cycleway:both" v="no"/>
    <tag k="highway" v="residential"/>
    <tag k="lane_markings" v="no"/>
    <tag k="name" v="Voj치캜kova"/>
    <tag k="oneway" v="yes"/>
    <tag k="surface" v="asphalt"/>
    <tag k="trolley_wire" v="no"/>
  </way>
  <way id="1149727025" version="3" timestamp="2024-10-24T21:19:34Z" changeset="158314184" uid="25867" user="adamos">
    <nd ref="10695513724"/>
    <nd ref="158712659"/>
    <tag k="highway" v="residential"/>
    <tag k="maxspeed:type" v="CZ:urban"/>
    <tag k="name" v="Voj치캜kova"/>
    <tag k="oneway" v="yes"/>
    <tag k="trolley_wire" v="forward"/>
  </way>
  <way id="1199356505" version="5" timestamp="2024-10-20T22:43:59Z" changeset="158148067" uid="25867" user="adamos">
    <nd ref="21050391"/>
    <nd ref="158715042"/>
    <nd ref="12231334683"/>
    <nd ref="1026423596"/>
    <tag k="highway" v="residential"/>
    <tag k="lit" v="yes"/>
    <tag k="maxspeed" v="30"/>
    <tag k="maxspeed:type" v="sign"/>
    <tag k="name" v="Ke Stadionu"/>
    <tag k="surface" v="asphalt"/>
    <tag k="trolley_wire" v="no"/>
  </way>
  <way id="1216457984" version="1" timestamp="2023-10-18T10:26:14Z" changeset="142755788" uid="100163" user="Hlav">
    <nd ref="11271472744"/>
    <nd ref="7954717259"/>
    <tag k="highway" v="residential"/>
  </way>
  <way id="1244604044" version="1" timestamp="2024-01-30T15:10:41Z" changeset="146867937" uid="100163" user="Hlav">
    <nd ref="1570914410"/>
    <nd ref="1570914431"/>
    <tag k="highway" v="residential"/>
    <tag k="oneway" v="no"/>
  </way>
  <way id="1244604046" version="1" timestamp="2024-01-30T15:10:41Z" changeset="146867937" uid="100163" user="Hlav">
    <nd ref="1570914427"/>
    <nd ref="1570914416"/>
    <nd ref="11569479600"/>
    <tag k="highway" v="residential"/>
    <tag k="lit" v="yes"/>
    <tag k="name" v="KN치vsi"/>
    <tag k="oneway" v="yes"/>
    <tag k="surface" v="asphalt"/>
  </way>
  <way id="1301781984" version="2" timestamp="2024-07-16T15:18:59Z" changeset="154020657" uid="20038671" user="Jan Andrle">
    <nd ref="6111643815"/>
    <nd ref="6111643768"/>
    <nd ref="5582124169"/>
    <nd ref="158718229"/>
    <tag k="highway" v="residential"/>
    <tag k="maxspeed" v="30"/>
    <tag k="maxspeed:type" v="CZ:zone30"/>
    <tag k="name" v="n치m캩st칤 Ji콏칤ho Berana"/>
    <tag k="oneway" v="no"/>
    <tag k="sorting_name" v="Ji콏칤ho Berana"/>
    <tag k="surface" v="asphalt"/>
    <tag k="width" v="2.9"/>
  </way>
  <way id="1327961873" version="2" timestamp="2025-04-10T22:05:53Z" changeset="164789452" uid="4018695" user="游뻟릖 Roman Horn칤k">
    <nd ref="28585778"/>
    <nd ref="12745561668"/>
    <tag k="highway" v="tertiary"/>
    <tag k="lanes" v="2"/>
    <tag k="lit" v="yes"/>
    <tag k="maxspeed:type" v="CZ:urban"/>
    <tag k="name" v="Polabsk치"/>
    <tag k="ref" v="0101"/>
    <tag k="surface" v="asphalt"/>
  </way>
  <way id="1327961874" version="1" timestamp="2024-10-24T21:17:20Z" changeset="158314135" uid="25867" user="adamos">
    <nd ref="28585771"/>
    <nd ref="28585778"/>
    <tag k="highway" v="tertiary"/>
    <tag k="lanes" v="2"/>
    <tag k="lit" v="yes"/>
    <tag k="maxspeed:type" v="CZ:urban"/>
    <tag k="name" v="Polabsk치"/>
    <tag k="ref" v="0101"/>
    <tag k="surface" v="asphalt"/>
  </way>
  <way id="1327961875" version="1" timestamp="2024-10-24T21:17:20Z" changeset="158314135" uid="25867" user="adamos">
    <nd ref="28585760"/>
    <nd ref="28585771"/>
    <tag k="highway" v="tertiary"/>
    <tag k="lanes" v="2"/>
    <tag k="lit" v="yes"/>
    <tag k="maxspeed:type" v="CZ:urban"/>
    <tag k="name" v="Polabsk치"/>
    <tag k="ref" v="0101"/>
    <tag k="surface" v="asphalt"/>
  </way>
  <way id="1327962187" version="1" timestamp="2024-10-24T21:19:34Z" changeset="158314184" uid="25867" user="adamos">
    <nd ref="158712659"/>
    <nd ref="10695513723"/>
    <tag k="highway" v="residential"/>
    <tag k="maxspeed:type" v="CZ:urban"/>
    <tag k="name" v="Voj치캜kova"/>
    <tag k="oneway" v="yes"/>
    <tag k="trolley_wire" v="forward"/>
  </way>
  <way id="1349025160" version="1" timestamp="2025-01-06T16:14:51Z" changeset="161064982" uid="100163" user="Hlav">
    <nd ref="7139038764"/>
    <nd ref="1259407173"/>
    <tag k="highway" v="residential"/>
    <tag k="name" v="Jizersk치"/>
  </way>
  <way id="1374772160" version="2" timestamp="2025-04-04T15:31:33Z" changeset="164510891" uid="21324687" user="mmatous">
    <nd ref="12729201674"/>
    <nd ref="5159298900"/>
    <tag k="cycleway:left" v="shared_lane"/>
    <tag k="highway" v="secondary"/>
    <tag k="lanes" v="4"/>
    <tag k="lit" v="yes"/>
    <tag k="name" v="Tupolevova"/>
    <tag k="sidewalk:left" v="separate"/>
    <tag k="sidewalk:right" v="no"/>
    <tag k="surface" v="asphalt"/>
    <tag k="trolley_wire" v="yes"/>
  </way>
  <way id="1376573578" version="1" timestamp="2025-04-10T21:53:01Z" changeset="164789004" uid="4018695" user="游뻟릖 Roman Horn칤k">
    <nd ref="1026423235"/>
    <nd ref="156386534"/>
    <tag k="highway" v="tertiary"/>
    <tag k="lanes" v="2"/>
    <tag k="lit" v="yes"/>
    <tag k="maxspeed" v="30"/>
    <tag k="maxspeed:type" v="sign"/>
    <tag k="name" v="Cukrovarsk치"/>
    <tag k="surface" v="asphalt"/>
  </way>
  <way id="1376573581" version="1" timestamp="2025-04-10T21:53:01Z" changeset="164789004" uid="4018695" user="游뻟릖 Roman Horn칤k">
    <nd ref="156358088"/>
    <nd ref="2117654225"/>
    <nd ref="1175743717"/>
    <tag k="highway" v="tertiary"/>
    <tag k="lanes" v="2"/>
    <tag k="lit" v="yes"/>
    <tag k="maxspeed" v="50"/>
    <tag k="name" v="Cukrovarsk치"/>
    <tag k="surface" v="asphalt"/>
  </way>
  <way id="1376573622" version="1" timestamp="2025-04-10T21:53:01Z" changeset="164789004" uid="4018695" user="游뻟릖 Roman Horn칤k">
    <nd ref="158718229"/>
    <nd ref="156390292"/>
    <nd ref="156391591"/>
    <tag k="highway" v="tertiary"/>
    <tag k="lanes" v="2"/>
    <tag k="lit" v="yes"/>
    <tag k="maxspeed:type" v="CZ:urban"/>
    <tag k="name" v="Cukrovarsk치"/>
    <tag k="smoothness" v="excellent"/>
    <tag k="surface" v="asphalt"/>
  </way>
  <way id="1376573623" version="1" timestamp="2025-04-10T21:53:01Z" changeset="164789004" uid="4018695" user="游뻟릖 Roman Horn칤k">
    <nd ref="156386537"/>
    <nd ref="1026423302"/>
    <tag k="highway" v="tertiary"/>
    <tag k="lanes" v="2"/>
    <tag k="lit" v="yes"/>
    <tag k="maxspeed:forward" v="30"/>
    <tag k="name" v="Cukrovarsk치"/>
    <tag k="surface" v="asphalt"/>
  </way>
  <way id="1376578065" version="1" timestamp="2025-04-10T22:05:53Z" changeset="164789452" uid="4018695" user="游뻟릖 Roman Horn칤k">
    <nd ref="12745561668"/>
    <nd ref="1259407158"/>
    <nd ref="28585801"/>
    <tag k="highway" v="tertiary"/>
    <tag k="lanes" v="2"/>
    <tag k="lit" v="yes"/>
    <tag k="maxspeed:type" v="CZ:urban"/>
    <tag k="name" v="Polabsk치"/>
    <tag k="ref" v="0101"/>
    <tag k="surface" v="asphalt"/>
  </way>

</osm>
