<?xml version="1.0" encoding="UTF-8"?>
<osm version="0.6" generator="Overpass API 0.7.62.5 1bd436f1">
<note>The data included in this document is from www.openstreetmap.org. The data is made available under ODbL.</note>
<meta osm_base="2025-05-18T02:41:00Z" areas="2024-12-31T00:49:33Z"/>

  <node id="25986203" lat="50.1346819" lon="14.4300657" version="4" timestamp="2018-01-19T01:34:49Z" changeset="55565983" uid="255936" user="NyanSten"/>
  <node id="30961953" lat="50.1448715" lon="14.4334064" version="5" timestamp="2018-01-19T01:43:36Z" changeset="55566059" uid="255936" user="NyanSten"/>
  <node id="244253170" lat="50.1354806" lon="14.4439247" version="4" timestamp="2021-10-06T08:49:55Z" changeset="112158744" uid="100163" user="Hlav"/>
  <node id="244253172" lat="50.1372805" lon="14.4521450" version="6" timestamp="2022-02-15T16:15:37Z" changeset="117442873" uid="100163" user="Hlav"/>
  <node id="244253176" lat="50.1340170" lon="14.4348514" version="2" timestamp="2025-04-12T09:41:21Z" changeset="164847746" uid="4018695" user="游뻟릖 Roman Horn칤k"/>
  <node id="267409572" lat="50.1506152" lon="14.4284411" version="4" timestamp="2021-09-10T19:31:25Z" changeset="111039153" uid="11545091" user="VladaC"/>
  <node id="1261894700" lat="50.1453749" lon="14.4380938" version="2" timestamp="2022-06-23T22:58:26Z" changeset="122777970" uid="11545091" user="VladaC"/>
  <node id="1297449978" lat="50.1354325" lon="14.4473560" version="4" timestamp="2024-01-18T17:50:47Z" changeset="146415126" uid="100163" user="Hlav"/>
  <node id="5348166122" lat="50.1352404" lon="14.4300633" version="1" timestamp="2018-01-19T01:34:47Z" changeset="55565983" uid="255936" user="NyanSten"/>
  <way id="4818931" version="6" timestamp="2022-11-02T10:55:37Z" changeset="128385225" uid="100163" user="Hlav">
    <nd ref="30961499"/>
    <nd ref="30961565"/>
    <nd ref="30961566"/>
    <nd ref="30961567"/>
    <nd ref="30961442"/>
    <tag k="highway" v="residential"/>
    <tag k="maxweight:hgv" v="3.5"/>
    <tag k="name" v="Brand칳sk치"/>
    <tag k="source:name" v="nameit/uir-adr"/>
  </way>
  <way id="4818932" version="13" timestamp="2025-04-12T09:41:21Z" changeset="164847746" uid="4018695" user="游뻟릖 Roman Horn칤k">
    <nd ref="244253286"/>
    <nd ref="30961446"/>
    <nd ref="30961565"/>
    <nd ref="30961490"/>
    <nd ref="895746012"/>
    <nd ref="1286745517"/>
    <nd ref="30961596"/>
    <tag k="highway" v="residential"/>
    <tag k="lit" v="yes"/>
    <tag k="name" v="Oko콏sk치"/>
    <tag k="source:name" v="nameit/uir-adr"/>
    <tag k="surface" v="asphalt"/>
  </way>
  <way id="4818933" version="7" timestamp="2020-02-06T10:28:53Z" changeset="80635238" uid="100163" user="Hlav">
    <nd ref="244253284"/>
    <nd ref="30961445"/>
    <tag k="highway" v="residential"/>
    <tag k="name" v="Ke H콏i코ti"/>
    <tag k="oneway" v="yes"/>
    <tag k="source:name" v="nameit/uir-adr"/>
  </way>
  <way id="4818934" version="7" timestamp="2011-05-15T19:29:59Z" changeset="8151921" uid="3516" user="BiIbo">
    <nd ref="244253283"/>
    <nd ref="30961444"/>
    <nd ref="30961567"/>
    <nd ref="30961631"/>
    <nd ref="1286814991"/>
    <nd ref="30961439"/>
    <tag k="highway" v="residential"/>
    <tag k="name" v="Do 칔dol칤"/>
    <tag k="source:name" v="nameit/uir-adr"/>
  </way>
  <way id="4818973" version="18" timestamp="2021-01-23T09:00:58Z" changeset="98010630" uid="2087700" user="NESClUS">
    <nd ref="25986208"/>
    <nd ref="1297470754"/>
    <nd ref="1542014032"/>
    <nd ref="30961943"/>
    <tag k="cycleway:both" v="no"/>
    <tag k="highway" v="tertiary"/>
    <tag k="lanes" v="3"/>
    <tag k="lanes:backward" v="2"/>
    <tag k="lanes:forward" v="1"/>
    <tag k="lit" v="yes"/>
    <tag k="maxspeed" v="50"/>
    <tag k="name" v="캛imick치"/>
    <tag k="sidewalk" v="both"/>
    <tag k="source:maxspeed" v="CZ:urban"/>
    <tag k="surface" v="asphalt"/>
  </way>
  <way id="4820044" version="3" timestamp="2018-01-18T23:51:33Z" changeset="55564906" uid="255936" user="NyanSten">
    <nd ref="25986391"/>
    <nd ref="25986387"/>
    <tag k="highway" v="residential"/>
    <tag k="maxspeed" v="30"/>
    <tag k="name" v="Vidovick치"/>
    <tag k="source:maxspeed" v="zone"/>
    <tag k="surface" v="asphalt"/>
  </way>
  <way id="4820045" version="3" timestamp="2018-01-18T23:54:44Z" changeset="55564958" uid="255936" user="NyanSten">
    <nd ref="25986395"/>
    <nd ref="25986384"/>
    <nd ref="25986380"/>
    <tag k="highway" v="residential"/>
    <tag k="maxspeed" v="30"/>
    <tag k="name" v="Zlon캜ick치"/>
    <tag k="source:maxspeed" v="zone"/>
    <tag k="surface" v="asphalt"/>
  </way>
  <way id="4820048" version="5" timestamp="2018-12-07T01:48:08Z" changeset="65255510" uid="3003739" user="r00tcz">
    <nd ref="2097035178"/>
    <nd ref="25986372"/>
    <nd ref="25986378"/>
    <nd ref="25986380"/>
    <nd ref="25986404"/>
    <nd ref="25986401"/>
    <nd ref="25986438"/>
    <nd ref="6122571437"/>
    <nd ref="6122571429"/>
    <nd ref="25986412"/>
    <tag k="highway" v="residential"/>
    <tag k="maxspeed" v="30"/>
    <tag k="name" v="Chlum칤nsk치"/>
    <tag k="source:maxspeed" v="zone"/>
    <tag k="surface" v="asphalt"/>
  </way>
  <way id="4820051" version="5" timestamp="2024-06-19T07:35:28Z" changeset="152880263" uid="100163" user="Hlav">
    <nd ref="25986419"/>
    <nd ref="25986420"/>
    <nd ref="25986421"/>
    <nd ref="25986422"/>
    <tag k="highway" v="residential"/>
    <tag k="lit" v="yes"/>
    <tag k="maxspeed" v="30"/>
    <tag k="name" v="KPol칤m"/>
    <tag k="source:maxspeed" v="zone"/>
    <tag k="surface" v="asphalt"/>
  </way>
  <way id="4820052" version="4" timestamp="2018-01-21T19:24:29Z" changeset="55635965" uid="1189910" user="Milancer">
    <nd ref="5353153994"/>
    <nd ref="25986415"/>
    <nd ref="25986413"/>
    <nd ref="25986412"/>
    <nd ref="25986411"/>
    <nd ref="25986410"/>
    <tag k="highway" v="residential"/>
    <tag k="maxspeed" v="30"/>
    <tag k="name" v="Drahansk치"/>
    <tag k="source:maxspeed" v="zone"/>
    <tag k="surface" v="asphalt"/>
  </way>
  <way id="4820053" version="3" timestamp="2018-01-19T00:13:29Z" changeset="55565221" uid="255936" user="NyanSten">
    <nd ref="25986378"/>
    <nd ref="25986376"/>
    <nd ref="25986374"/>
    <tag k="highway" v="residential"/>
    <tag k="maxspeed" v="30"/>
    <tag k="name" v="Vidimsk치"/>
    <tag k="source:maxspeed" v="zone"/>
    <tag k="surface" v="asphalt"/>
  </way>
  <way id="4820054" version="6" timestamp="2023-08-15T07:21:49Z" changeset="139899884" uid="1400175" user="콗ule">
    <nd ref="25986372"/>
    <nd ref="1000068686"/>
    <nd ref="25986373"/>
    <nd ref="25986374"/>
    <nd ref="25986409"/>
    <nd ref="6122571400"/>
    <nd ref="11115733831"/>
    <nd ref="25986408"/>
    <nd ref="5348047702"/>
    <nd ref="1261894642"/>
    <nd ref="25986407"/>
    <tag k="highway" v="residential"/>
    <tag k="maxspeed" v="30"/>
    <tag k="name" v="Vehlovick치"/>
    <tag k="source:maxspeed" v="zone"/>
    <tag k="surface" v="asphalt"/>
  </way>
  <way id="4820055" version="4" timestamp="2018-01-18T23:51:33Z" changeset="55564906" uid="255936" user="NyanSten">
    <nd ref="2097035759"/>
    <nd ref="25986387"/>
    <nd ref="25986384"/>
    <tag k="highway" v="residential"/>
    <tag k="maxspeed" v="30"/>
    <tag k="name" v="Mikovick치"/>
    <tag k="source:maxspeed" v="zone"/>
    <tag k="surface" v="asphalt"/>
  </way>
  <way id="4820056" version="6" timestamp="2024-10-24T17:26:11Z" changeset="158306805" uid="3003739" user="r00tcz">
    <nd ref="25986404"/>
    <nd ref="2115789816"/>
    <nd ref="25986406"/>
    <nd ref="25986409"/>
    <tag k="check_date:surface" v="2024-10-24"/>
    <tag k="highway" v="residential"/>
    <tag k="maxspeed" v="30"/>
    <tag k="name" v="By코ick치"/>
    <tag k="smoothness" v="good"/>
    <tag k="source:maxspeed" v="zone"/>
    <tag k="surface" v="asphalt"/>
  </way>
  <way id="4820057" version="4" timestamp="2018-01-19T00:02:00Z" changeset="55565060" uid="255936" user="NyanSten">
    <nd ref="25986398"/>
    <nd ref="25986401"/>
    <tag k="highway" v="residential"/>
    <tag k="maxspeed" v="30"/>
    <tag k="name" v="Choru코ick치"/>
    <tag k="source:maxspeed" v="zone"/>
    <tag k="surface" v="asphalt"/>
  </way>
  <way id="4877294" version="5" timestamp="2024-05-05T08:25:17Z" changeset="150909122" uid="6588887" user="Martin2035">
    <nd ref="31505827"/>
    <nd ref="31505893"/>
    <tag k="highway" v="residential"/>
    <tag k="maxspeed" v="30"/>
    <tag k="maxspeed:type" v="CZ:zone30"/>
    <tag k="source:maxspeed" v="zone"/>
    <tag k="surface" v="asphalt"/>
    <tag k="zone:maxspeed" v="30"/>
  </way>
  <way id="4877314" version="13" timestamp="2024-05-05T08:25:17Z" changeset="150909122" uid="6588887" user="Martin2035">
    <nd ref="1297470757"/>
    <nd ref="6123618972"/>
    <nd ref="5348860888"/>
    <nd ref="5348860883"/>
    <nd ref="2744718383"/>
    <tag k="highway" v="residential"/>
    <tag k="lane_markings" v="no"/>
    <tag k="lit" v="yes"/>
    <tag k="maxspeed" v="30"/>
    <tag k="maxspeed:type" v="CZ:zone30"/>
    <tag k="name" v="Mlazick치"/>
    <tag k="source:maxspeed" v="zone"/>
    <tag k="surface" v="asphalt"/>
    <tag k="zone:maxspeed" v="30"/>
  </way>
  <way id="4877321" version="5" timestamp="2018-01-19T00:50:18Z" changeset="55565602" uid="255936" user="NyanSten">
    <nd ref="31505973"/>
    <nd ref="31505990"/>
    <nd ref="31505987"/>
    <nd ref="31505978"/>
    <tag k="highway" v="residential"/>
    <tag k="maxspeed" v="30"/>
    <tag k="name" v="Tursk치"/>
    <tag k="source:maxspeed" v="zone"/>
    <tag k="surface" v="asphalt"/>
  </way>
  <way id="4877325" version="6" timestamp="2018-01-19T00:33:35Z" changeset="55565465" uid="255936" user="NyanSten">
    <nd ref="25986415"/>
    <nd ref="25986420"/>
    <nd ref="31505990"/>
    <nd ref="1261894635"/>
    <nd ref="2115865343"/>
    <nd ref="31505996"/>
    <tag k="highway" v="residential"/>
    <tag k="maxspeed" v="30"/>
    <tag k="name" v="V캩trn치"/>
    <tag k="source:maxspeed" v="zone"/>
    <tag k="surface" v="asphalt"/>
  </way>
  <way id="4877326" version="7" timestamp="2018-01-19T00:40:04Z" changeset="55565509" uid="255936" user="NyanSten">
    <nd ref="25986413"/>
    <nd ref="25986421"/>
    <nd ref="31505987"/>
    <nd ref="5348088712"/>
    <nd ref="2115865177"/>
    <nd ref="31505999"/>
    <tag k="highway" v="residential"/>
    <tag k="maxspeed" v="30"/>
    <tag k="name" v="KV캩trolamu"/>
    <tag k="source:maxspeed" v="zone"/>
    <tag k="surface" v="asphalt"/>
  </way>
  <way id="4877327" version="5" timestamp="2022-08-31T15:34:33Z" changeset="125618001" uid="16391795" user="Ale코 Nov치k">
    <nd ref="31506002"/>
    <nd ref="31506004"/>
    <nd ref="9990932890"/>
    <nd ref="31506005"/>
    <nd ref="5348094140"/>
    <nd ref="31506007"/>
    <nd ref="9990932891"/>
    <nd ref="31506008"/>
    <tag k="highway" v="residential"/>
    <tag k="maxspeed" v="30"/>
    <tag k="name" v="Str치쬹ick치"/>
    <tag k="source:maxspeed" v="zone"/>
    <tag k="surface" v="asphalt"/>
  </way>
  <way id="4877334" version="4" timestamp="2022-01-18T11:26:36Z" changeset="116294206" uid="100163" user="Hlav">
    <nd ref="31506010"/>
    <nd ref="31505941"/>
    <tag k="highway" v="residential"/>
    <tag k="lit" v="yes"/>
    <tag k="maxspeed" v="30"/>
    <tag k="name" v="KRybn칤ku"/>
    <tag k="source:maxspeed" v="zone"/>
    <tag k="surface" v="asphalt"/>
  </way>
  <way id="16785073" version="14" timestamp="2022-06-23T22:58:26Z" changeset="122777970" uid="11545091" user="VladaC">
    <nd ref="30961953"/>
    <nd ref="5348195470"/>
    <nd ref="30961954"/>
    <nd ref="1261894746"/>
    <nd ref="30961955"/>
    <nd ref="30961956"/>
    <nd ref="9842834021"/>
    <nd ref="285559908"/>
    <nd ref="1261894700"/>
    <tag k="highway" v="tertiary"/>
    <tag k="lit" v="yes"/>
    <tag k="maxweight:hgv" v="3.5"/>
    <tag k="name" v="Spo콏ick치"/>
    <tag k="smoothness" v="excellent"/>
    <tag k="surface" v="asphalt"/>
  </way>
  <way id="16785442" version="6" timestamp="2018-01-19T00:50:18Z" changeset="55565602" uid="255936" user="NyanSten">
    <nd ref="25986411"/>
    <nd ref="25986422"/>
    <nd ref="31506010"/>
    <nd ref="31506002"/>
    <nd ref="31505978"/>
    <nd ref="31506008"/>
    <nd ref="5348094141"/>
    <nd ref="1261894581"/>
    <nd ref="31505829"/>
    <tag k="highway" v="residential"/>
    <tag k="maxspeed" v="30"/>
    <tag k="name" v="콯alovsk치"/>
    <tag k="source:maxspeed" v="zone"/>
    <tag k="surface" v="asphalt"/>
  </way>
  <way id="22758783" version="9" timestamp="2020-12-18T11:50:56Z" changeset="96068210" uid="100163" user="Hlav">
    <nd ref="30961440"/>
    <nd ref="1286815328"/>
    <nd ref="30961441"/>
    <nd ref="30961442"/>
    <nd ref="30961443"/>
    <nd ref="244253282"/>
    <tag k="cycleway:both" v="no"/>
    <tag k="highway" v="residential"/>
    <tag k="lit" v="yes"/>
    <tag k="maxspeed" v="50"/>
    <tag k="maxspeed:type" v="sign"/>
    <tag k="name" v="Korycansk치"/>
    <tag k="surface" v="asphalt"/>
  </way>
  <way id="22758784" version="16" timestamp="2025-03-01T13:05:18Z" changeset="163087452" uid="4887311" user="mapperue">
    <nd ref="244253172"/>
    <nd ref="321236099"/>
    <nd ref="1568019539"/>
    <nd ref="895757078"/>
    <nd ref="1297458030"/>
    <nd ref="1297460310"/>
    <nd ref="244253173"/>
    <nd ref="9507956280"/>
    <nd ref="1297458031"/>
    <nd ref="12628233893"/>
    <nd ref="285371020"/>
    <nd ref="1297460306"/>
    <nd ref="244253174"/>
    <tag k="highway" v="residential"/>
    <tag k="lit" v="yes"/>
    <tag k="name" v="Doprav치k콢"/>
    <tag k="source:name" v="nameit/uir-adr"/>
    <tag k="surface" v="asphalt"/>
  </way>
  <way id="22758786" version="8" timestamp="2024-05-05T08:28:56Z" changeset="150909277" uid="6588887" user="Martin2035">
    <nd ref="244253188"/>
    <nd ref="244253190"/>
    <nd ref="1286814957"/>
    <nd ref="244253175"/>
    <tag k="alt_name" v="P캩코inova"/>
    <tag k="highway" v="residential"/>
    <tag k="lit" v="yes"/>
    <tag k="name" v="Pe코inova"/>
    <tag k="source:name" v="nameit/uir-adr"/>
    <tag k="surface" v="asphalt"/>
  </way>
  <way id="22758787" version="16" timestamp="2025-04-12T09:41:21Z" changeset="164847746" uid="4018695" user="游뻟릖 Roman Horn칤k">
    <nd ref="1286726660"/>
    <nd ref="12125360003"/>
    <nd ref="1286726827"/>
    <nd ref="1286726694"/>
    <nd ref="1286847411"/>
    <nd ref="296962703"/>
    <tag k="cycleway:both" v="no"/>
    <tag k="highway" v="residential"/>
    <tag k="lane_markings" v="no"/>
    <tag k="lit" v="yes"/>
    <tag k="maxspeed" v="30"/>
    <tag k="maxspeed:type" v="CZ:zone30"/>
    <tag k="name" v="Na Hranic칤ch"/>
    <tag k="smoothness" v="intermediate"/>
    <tag k="source:name" v="nameit/uir-adr"/>
    <tag k="surface" v="asphalt"/>
  </way>
  <way id="22758788" version="22" timestamp="2025-04-12T09:41:21Z" changeset="164847746" uid="4018695" user="游뻟릖 Roman Horn칤k">
    <nd ref="1286815419"/>
    <nd ref="11866389038"/>
    <nd ref="1286696842"/>
    <nd ref="12180236320"/>
    <nd ref="3343891262"/>
    <nd ref="12180236317"/>
    <nd ref="11846850175"/>
    <nd ref="244253181"/>
    <tag k="highway" v="residential"/>
    <tag k="lit" v="yes"/>
    <tag k="name" v="Peka콏ova"/>
    <tag k="source:name" v="nameit/uir-adr"/>
    <tag k="surface" v="asphalt"/>
  </way>
  <way id="22758789" version="13" timestamp="2025-04-12T09:41:21Z" changeset="164847746" uid="4018695" user="游뻟릖 Roman Horn칤k">
    <nd ref="244253176"/>
    <nd ref="12749573245"/>
    <nd ref="12749573244"/>
    <nd ref="11862884877"/>
    <nd ref="12125360078"/>
    <nd ref="11862884874"/>
    <nd ref="285399370"/>
    <nd ref="9180308251"/>
    <nd ref="11862885658"/>
    <nd ref="5633543765"/>
    <nd ref="12125360074"/>
    <nd ref="11862885655"/>
    <nd ref="12125360039"/>
    <nd ref="244253177"/>
    <tag k="highway" v="residential"/>
    <tag k="lit" v="yes"/>
    <tag k="name" v="Peka콏ova"/>
    <tag k="source:name" v="nameit/uir-adr"/>
    <tag k="surface" v="asphalt"/>
  </way>
  <way id="22758791" version="8" timestamp="2024-05-05T08:28:56Z" changeset="150909277" uid="6588887" user="Martin2035">
    <nd ref="244253179"/>
    <nd ref="1286726834"/>
    <nd ref="244253194"/>
    <nd ref="244253184"/>
    <tag k="highway" v="residential"/>
    <tag k="name" v="Nedomick치"/>
    <tag k="source:name" v="nameit/uir-adr"/>
    <tag k="surface" v="asphalt"/>
  </way>
  <way id="22758792" version="6" timestamp="2024-08-19T21:04:46Z" changeset="155481957" uid="1516345" user="theDagger">
    <nd ref="244253179"/>
    <nd ref="1286955144"/>
    <nd ref="244253193"/>
    <nd ref="1286955146"/>
    <nd ref="244253182"/>
    <nd ref="244253180"/>
    <tag k="highway" v="residential"/>
    <tag k="maxspeed" v="30"/>
    <tag k="maxspeed:type" v="CZ:zone30"/>
    <tag k="name" v="Na Hranic칤ch"/>
    <tag k="source:name" v="nameit/uir-adr"/>
    <tag k="surface" v="asphalt"/>
  </way>
  <way id="22758793" version="8" timestamp="2024-11-19T00:12:05Z" changeset="159305057" uid="1516345" user="theDagger">
    <nd ref="244253185"/>
    <nd ref="244253180"/>
    <nd ref="244253191"/>
    <nd ref="12180236323"/>
    <nd ref="244253181"/>
    <tag k="highway" v="residential"/>
    <tag k="lane_markings" v="no"/>
    <tag k="lit" v="yes"/>
    <tag k="name" v="Ko캜ova"/>
    <tag k="source:name" v="nameit/uir-adr"/>
    <tag k="surface" v="asphalt"/>
  </way>
  <way id="22758794" version="5" timestamp="2024-08-19T21:04:45Z" changeset="155481955" uid="1516345" user="theDagger">
    <nd ref="244253182"/>
    <nd ref="244253183"/>
    <tag k="highway" v="residential"/>
    <tag k="lane_markings" v="no"/>
    <tag k="lit" v="yes"/>
    <tag k="name" v="Jest콏ebick치"/>
    <tag k="source:name" v="nameit/uir-adr"/>
    <tag k="surface" v="asphalt"/>
  </way>
  <way id="22758795" version="6" timestamp="2019-02-19T06:40:57Z" changeset="67341161" uid="2087700" user="NESClUS">
    <nd ref="244253184"/>
    <nd ref="1286726784"/>
    <nd ref="244253192"/>
    <nd ref="244253185"/>
    <tag k="highway" v="residential"/>
    <tag k="name" v="P콏칤vorsk치"/>
    <tag k="source:name" v="nameit/uir-adr"/>
    <tag k="surface" v="asphalt"/>
  </way>
  <way id="22758796" version="5" timestamp="2019-02-19T06:40:51Z" changeset="67341161" uid="2087700" user="NESClUS">
    <nd ref="244253187"/>
    <nd ref="244253189"/>
    <tag k="highway" v="residential"/>
    <tag k="name" v="Hanzl칤kova"/>
    <tag k="oneway" v="yes"/>
    <tag k="source:name" v="nameit/uir-adr"/>
    <tag k="surface" v="asphalt"/>
  </way>
  <way id="22758797" version="6" timestamp="2016-04-13T15:04:02Z" changeset="38527996" uid="718054" user="Piskvor">
    <nd ref="244253189"/>
    <nd ref="1286726792"/>
    <nd ref="244253190"/>
    <tag k="highway" v="residential"/>
    <tag k="lit" v="yes"/>
    <tag k="name" v="Sk치lova"/>
    <tag k="oneway" v="yes"/>
    <tag k="source:name" v="nameit/uir-adr"/>
    <tag k="surface" v="asphalt"/>
  </way>
  <way id="22758798" version="5" timestamp="2019-02-19T06:40:57Z" changeset="67341161" uid="2087700" user="NESClUS">
    <nd ref="244253192"/>
    <nd ref="1286955145"/>
    <tag k="highway" v="residential"/>
    <tag k="name" v="Minick치"/>
    <tag k="source:name" v="nameit/uir-adr"/>
    <tag k="surface" v="asphalt"/>
  </way>
  <way id="22758799" version="10" timestamp="2024-04-28T19:12:38Z" changeset="150633056" uid="18630215" user="Lubo코 Jir치캜ek">
    <nd ref="244253194"/>
    <nd ref="11862979041"/>
    <nd ref="1286696830"/>
    <nd ref="11862979038"/>
    <nd ref="244253195"/>
    <nd ref="1286696853"/>
    <nd ref="1286726643"/>
    <nd ref="244253196"/>
    <nd ref="11862969154"/>
    <nd ref="11862969152"/>
    <nd ref="1286696866"/>
    <nd ref="11862990697"/>
    <nd ref="1286726846"/>
    <nd ref="11862990696"/>
    <nd ref="244253197"/>
    <nd ref="1286696888"/>
    <nd ref="1286726770"/>
    <nd ref="244253198"/>
    <tag k="highway" v="residential"/>
    <tag k="lit" v="yes"/>
    <tag k="name" v="Chvat캩rubsk치"/>
    <tag k="source:name" v="nameit/uir-adr"/>
    <tag k="surface" v="asphalt"/>
  </way>
  <way id="22758828" version="6" timestamp="2020-12-18T11:50:56Z" changeset="96068210" uid="100163" user="Hlav">
    <nd ref="30961443"/>
    <nd ref="30961444"/>
    <nd ref="30961445"/>
    <tag k="highway" v="residential"/>
    <tag k="lit" v="yes"/>
    <tag k="name" v="Fo콏tova"/>
    <tag k="source:name" v="nameit/uir-adr"/>
  </way>
  <way id="22758829" version="9" timestamp="2024-12-19T10:49:15Z" changeset="160387984" uid="100163" user="Hlav">
    <nd ref="30961944"/>
    <nd ref="12433096664"/>
    <nd ref="1261894605"/>
    <nd ref="5348866679"/>
    <nd ref="5348195455"/>
    <nd ref="6123621930"/>
    <nd ref="244253289"/>
    <nd ref="1261894629"/>
    <nd ref="244253290"/>
    <nd ref="6123621927"/>
    <nd ref="5348866683"/>
    <nd ref="1261894722"/>
    <nd ref="244253291"/>
    <tag k="highway" v="residential"/>
    <tag k="maxspeed" v="30"/>
    <tag k="maxspeed:type" v="CZ:zone30"/>
    <tag k="name" v="Ti코ick치"/>
    <tag k="source:maxspeed" v="zone"/>
    <tag k="source:name" v="nameit/uir-adr"/>
    <tag k="surface" v="asphalt"/>
    <tag k="zone:maxspeed" v="30"/>
  </way>
  <way id="22758831" version="7" timestamp="2024-05-05T08:25:17Z" changeset="150909122" uid="6588887" user="Martin2035">
    <nd ref="244253293"/>
    <nd ref="5348880295"/>
    <nd ref="244253294"/>
    <nd ref="244253296"/>
    <nd ref="5348880296"/>
    <nd ref="5348880297"/>
    <nd ref="244253297"/>
    <nd ref="5348880298"/>
    <nd ref="244253298"/>
    <nd ref="5348880299"/>
    <nd ref="5348880300"/>
    <nd ref="244253299"/>
    <nd ref="244253293"/>
    <tag k="highway" v="residential"/>
    <tag k="lit" v="yes"/>
    <tag k="maxspeed" v="30"/>
    <tag k="maxspeed:type" v="CZ:zone30"/>
    <tag k="name" v="Lib캜ick치"/>
    <tag k="oneway" v="yes"/>
    <tag k="source:maxspeed" v="zone"/>
    <tag k="surface" v="asphalt"/>
    <tag k="zone:maxspeed" v="30"/>
  </way>
  <way id="24599286" version="15" timestamp="2023-01-11T09:08:18Z" changeset="131136363" uid="100163" user="Hlav">
    <nd ref="267409572"/>
    <nd ref="3966368871"/>
    <nd ref="9080861854"/>
    <nd ref="1907269508"/>
    <nd ref="267409570"/>
    <nd ref="267409569"/>
    <nd ref="3390693822"/>
    <nd ref="9080865817"/>
    <nd ref="267409568"/>
    <nd ref="267409567"/>
    <nd ref="9202159617"/>
    <nd ref="267409566"/>
    <nd ref="10538831236"/>
    <nd ref="9501583028"/>
    <nd ref="21263106"/>
    <nd ref="21263121"/>
    <tag k="highway" v="residential"/>
    <tag k="lit" v="yes"/>
    <tag k="name" v="K Drahani"/>
  </way>
  <way id="25735902" version="14" timestamp="2025-04-12T09:41:21Z" changeset="164847746" uid="4018695" user="游뻟릖 Roman Horn칤k">
    <nd ref="31505379"/>
    <nd ref="5348195459"/>
    <nd ref="9299779558"/>
    <nd ref="5348195457"/>
    <nd ref="31505730"/>
    <nd ref="6123618967"/>
    <nd ref="31505817"/>
    <nd ref="31505903"/>
    <nd ref="12749573255"/>
    <nd ref="5348847684"/>
    <nd ref="5348104316"/>
    <nd ref="1297470757"/>
    <tag k="highway" v="residential"/>
    <tag k="maxspeed" v="30"/>
    <tag k="maxspeed:type" v="CZ:zone30"/>
    <tag k="name" v="K콏ivenick치"/>
    <tag k="source:maxspeed" v="zone"/>
    <tag k="surface" v="asphalt"/>
    <tag k="zone:maxspeed" v="30"/>
  </way>
  <way id="26083577" version="8" timestamp="2021-11-23T15:21:18Z" changeset="114145094" uid="25867" user="adamos">
    <nd ref="244253170"/>
    <nd ref="8114582786"/>
    <nd ref="3578259406"/>
    <nd ref="5353155182"/>
    <nd ref="3611318399"/>
    <nd ref="285377432"/>
    <nd ref="285377433"/>
    <nd ref="9278095786"/>
    <nd ref="1297460247"/>
    <nd ref="285377435"/>
    <nd ref="9278095787"/>
    <nd ref="1297460265"/>
    <nd ref="285377440"/>
    <nd ref="8882620624"/>
    <nd ref="285377442"/>
    <tag k="highway" v="residential"/>
    <tag k="lanes" v="2"/>
    <tag k="lit" v="yes"/>
    <tag k="maxspeed" v="30"/>
    <tag k="smoothness" v="excellent"/>
    <tag k="surface" v="asphalt"/>
  </way>
  <way id="27066989" version="9" timestamp="2024-09-21T14:19:33Z" changeset="156914249" uid="1516345" user="theDagger">
    <nd ref="296962703"/>
    <nd ref="12125360105"/>
    <nd ref="12125360102"/>
    <nd ref="296962704"/>
    <tag k="cycleway:both" v="no"/>
    <tag k="highway" v="residential"/>
    <tag k="lane_markings" v="no"/>
    <tag k="lit" v="yes"/>
    <tag k="name" v="Rousovick치"/>
    <tag k="sidewalk:both" v="separate"/>
    <tag k="surface" v="asphalt"/>
  </way>
  <way id="32865777" version="19" timestamp="2025-04-12T09:41:21Z" changeset="164847746" uid="4018695" user="游뻟릖 Roman Horn칤k">
    <nd ref="244253165"/>
    <nd ref="471792599"/>
    <nd ref="12749573256"/>
    <nd ref="1286696856"/>
    <nd ref="244253167"/>
    <nd ref="1286696934"/>
    <nd ref="1286696823"/>
    <nd ref="8268141276"/>
    <nd ref="244253168"/>
    <tag k="highway" v="tertiary"/>
    <tag k="maxspeed" v="50"/>
    <tag k="name" v="K L치dv칤"/>
    <tag k="surface" v="asphalt"/>
  </way>
  <way id="34111780" version="7" timestamp="2025-04-12T09:41:21Z" changeset="164847746" uid="4018695" user="游뻟릖 Roman Horn칤k">
    <nd ref="10150942492"/>
    <nd ref="1286726815"/>
    <nd ref="30961490"/>
    <nd ref="30961610"/>
    <nd ref="30961631"/>
    <nd ref="30961441"/>
    <nd ref="1286696807"/>
    <tag k="highway" v="residential"/>
    <tag k="lit" v="yes"/>
    <tag k="name" v="Libe켿sk치"/>
  </way>
  <way id="34111781" version="7" timestamp="2020-12-22T00:25:41Z" changeset="96221794" uid="2087700" user="NESClUS">
    <nd ref="1297470754"/>
    <nd ref="244253287"/>
    <nd ref="244253286"/>
    <tag k="highway" v="residential"/>
    <tag k="lit" v="yes"/>
    <tag k="name" v="Na Pr콢honu"/>
    <tag k="source:name" v="nameit/uir-adr"/>
    <tag k="surface" v="asphalt"/>
  </way>
  <way id="36271654" version="11" timestamp="2024-12-19T10:49:15Z" changeset="160387984" uid="100163" user="Hlav">
    <nd ref="30961943"/>
    <nd ref="30961944"/>
    <tag k="cycleway:both" v="no"/>
    <tag k="highway" v="tertiary"/>
    <tag k="lanes" v="2"/>
    <tag k="lit" v="yes"/>
    <tag k="maxspeed" v="50"/>
    <tag k="name" v="캛imick치"/>
    <tag k="source:maxspeed" v="CZ:urban"/>
    <tag k="surface" v="asphalt"/>
  </way>
  <way id="36271655" version="6" timestamp="2018-01-18T23:49:04Z" changeset="55564870" uid="255936" user="NyanSten">
    <nd ref="31505352"/>
    <nd ref="31505333"/>
    <tag k="highway" v="tertiary"/>
    <tag k="lit" v="yes"/>
    <tag k="maxspeed" v="50"/>
    <tag k="name" v="캛imick치"/>
    <tag k="source:maxspeed" v="CZ:urban"/>
    <tag k="surface" v="asphalt"/>
    <tag k="turn:lanes:forward" v="left|through"/>
  </way>
  <way id="36271680" version="4" timestamp="2018-01-19T01:59:20Z" changeset="55566200" uid="255936" user="NyanSten">
    <nd ref="25986418"/>
    <nd ref="25986419"/>
    <nd ref="31505973"/>
    <nd ref="5348047704"/>
    <nd ref="2115865645"/>
    <tag k="highway" v="residential"/>
    <tag k="maxspeed" v="30"/>
    <tag k="name" v="KMl칳nu"/>
    <tag k="source:maxspeed" v="zone"/>
    <tag k="surface" v="asphalt"/>
  </way>
  <way id="36271682" version="3" timestamp="2018-01-18T23:49:04Z" changeset="55564870" uid="255936" user="NyanSten">
    <nd ref="31505379"/>
    <nd ref="31505352"/>
    <tag k="highway" v="tertiary"/>
    <tag k="maxspeed" v="50"/>
    <tag k="name" v="캛imick치"/>
    <tag k="source:maxspeed" v="CZ:urban"/>
    <tag k="surface" v="asphalt"/>
  </way>
  <way id="40370161" version="7" timestamp="2024-05-05T08:25:17Z" changeset="150909122" uid="6588887" user="Martin2035">
    <nd ref="31505818"/>
    <nd ref="31505826"/>
    <nd ref="2744718376"/>
    <nd ref="9990932869"/>
    <nd ref="11866499385"/>
    <nd ref="1261894695"/>
    <nd ref="11866499383"/>
    <nd ref="31505827"/>
    <nd ref="5348104317"/>
    <nd ref="31505898"/>
    <nd ref="1297470731"/>
    <nd ref="31505829"/>
    <tag k="highway" v="residential"/>
    <tag k="lit" v="yes"/>
    <tag k="maxspeed" v="30"/>
    <tag k="maxspeed:type" v="CZ:zone30"/>
    <tag k="name" v="콯alovsk치"/>
    <tag k="source:maxspeed" v="zone"/>
    <tag k="surface" v="asphalt"/>
    <tag k="zone:maxspeed" v="30"/>
  </way>
  <way id="40370162" version="5" timestamp="2024-05-05T08:25:17Z" changeset="150909122" uid="6588887" user="Martin2035">
    <nd ref="31505817"/>
    <nd ref="31505818"/>
    <tag k="highway" v="residential"/>
    <tag k="lit" v="yes"/>
    <tag k="maxspeed" v="30"/>
    <tag k="maxspeed:type" v="CZ:zone30"/>
    <tag k="source:maxspeed" v="zone"/>
    <tag k="surface" v="asphalt"/>
    <tag k="zone:maxspeed" v="30"/>
  </way>
  <way id="75890920" version="1" timestamp="2010-09-04T15:07:12Z" changeset="5679653" uid="342261" user="mila-p">
    <nd ref="895746013"/>
    <nd ref="895746012"/>
    <tag k="highway" v="residential"/>
    <tag k="name" v="Oko콏sk치"/>
  </way>
  <way id="86163122" version="8" timestamp="2024-10-24T17:26:15Z" changeset="158306805" uid="3003739" user="r00tcz">
    <nd ref="25986406"/>
    <nd ref="25986407"/>
    <nd ref="25986410"/>
    <nd ref="5353155191"/>
    <nd ref="2744710219"/>
    <nd ref="423213503"/>
    <nd ref="31505941"/>
    <nd ref="1261894615"/>
    <nd ref="31505942"/>
    <nd ref="5348075413"/>
    <nd ref="1261894714"/>
    <nd ref="31505922"/>
    <tag k="highway" v="residential"/>
    <tag k="lit" v="yes"/>
    <tag k="maxspeed" v="30"/>
    <tag k="name" v="Na Z치mk치ch"/>
    <tag k="smoothness" v="excellent"/>
    <tag k="source:maxspeed" v="zone"/>
    <tag k="surface" v="asphalt"/>
  </way>
  <way id="110516682" version="4" timestamp="2018-07-09T19:42:24Z" changeset="60550969" uid="2087700" user="NESClUS">
    <nd ref="1261894700"/>
    <nd ref="1261894735"/>
    <nd ref="1261894731"/>
    <nd ref="1261894649"/>
    <nd ref="1261894674"/>
    <nd ref="1261894672"/>
    <nd ref="1261894697"/>
    <nd ref="1261894618"/>
    <nd ref="1261894648"/>
    <nd ref="1261894751"/>
    <nd ref="1261894593"/>
    <nd ref="1261894688"/>
    <tag k="highway" v="residential"/>
    <tag k="maxspeed" v="30"/>
    <tag k="maxspeed:type" v="CZ:zone30"/>
    <tag k="name" v="Zaje캜ick치"/>
    <tag k="source" v="bing:ortofoto"/>
    <tag k="surface" v="asphalt"/>
  </way>
  <way id="110516838" version="7" timestamp="2025-04-12T09:41:21Z" changeset="164847746" uid="4018695" user="游뻟릖 Roman Horn칤k">
    <nd ref="5353153994"/>
    <nd ref="5348080758"/>
    <nd ref="6122571430"/>
    <nd ref="25986398"/>
    <nd ref="25986395"/>
    <nd ref="25986391"/>
    <nd ref="1261896181"/>
    <tag k="highway" v="residential"/>
    <tag k="maxspeed" v="30"/>
    <tag k="name" v="KMl칳nu"/>
    <tag k="source:maxspeed" v="zone"/>
    <tag k="surface" v="asphalt"/>
  </way>
  <way id="113498587" version="4" timestamp="2021-01-10T04:16:56Z" changeset="97235510" uid="2087700" user="NESClUS">
    <nd ref="1286696808"/>
    <nd ref="1286696830"/>
    <tag k="highway" v="residential"/>
    <tag k="lit" v="yes"/>
    <tag k="name" v="Korycansk치"/>
    <tag k="surface" v="asphalt"/>
  </way>
  <way id="114570327" version="5" timestamp="2025-03-01T13:05:18Z" changeset="163087452" uid="4887311" user="mapperue">
    <nd ref="2354686409"/>
    <nd ref="1297462766"/>
    <nd ref="1297462840"/>
    <nd ref="1297462811"/>
    <nd ref="12628363708"/>
    <nd ref="1297462729"/>
    <nd ref="1297462799"/>
    <nd ref="1297462715"/>
    <nd ref="12628363715"/>
    <nd ref="1297462782"/>
    <nd ref="1297462694"/>
    <nd ref="1297462760"/>
    <nd ref="1297462836"/>
    <nd ref="1297462787"/>
    <nd ref="2354686409"/>
    <tag k="addr:conscriptionnumber" v="874"/>
    <tag k="addr:housenumber" v="874/15"/>
    <tag k="addr:place" v="캛imice"/>
    <tag k="addr:postcode" v="18400"/>
    <tag k="addr:street" v="Doprav치k콢"/>
    <tag k="addr:streetnumber" v="15"/>
    <tag k="air_conditioning" v="yes"/>
    <tag k="branch" v="Praha, Doprav치k콢"/>
    <tag k="brand" v="Mototechna"/>
    <tag k="brand:wikidata" v="Q1950023"/>
    <tag k="building" v="retail"/>
    <tag k="building:ruian:type" v="10"/>
    <tag k="contact:facebook" v="https://www.facebook.com/mototechna.cz"/>
    <tag k="contact:instagram" v="https://www.instagram.com/mototechna"/>
    <tag k="internet_access" v="wlan"/>
    <tag k="internet_access:fee" v="customers"/>
    <tag k="level" v="0"/>
    <tag k="name" v="Mototechna"/>
    <tag k="opening_hours" v="Mo-Su 08:00-22:00"/>
    <tag k="ref:ruian:building" v="27007669"/>
    <tag k="second_hand" v="only"/>
    <tag k="service:vehicle:used_car_sales" v="yes"/>
    <tag k="shop" v="car"/>
    <tag k="source" v="cuzk:ruian"/>
    <tag k="start_date" v="2008-06-27"/>
    <tag k="stroller" v="yes"/>
    <tag k="website" v="https://www.mototechna.cz/"/>
    <tag k="wheelchair" v="yes"/>
  </way>
  <way id="114570986" version="6" timestamp="2025-04-12T09:41:21Z" changeset="164847746" uid="4018695" user="游뻟릖 Roman Horn칤k">
    <nd ref="1297470749"/>
    <nd ref="5348866677"/>
    <nd ref="1297470759"/>
    <nd ref="12749573248"/>
    <nd ref="1297470768"/>
    <nd ref="10151611367"/>
    <tag k="cycleway:both" v="no"/>
    <tag k="highway" v="residential"/>
    <tag k="maxspeed" v="50"/>
    <tag k="name" v="캛imick치"/>
    <tag k="oneway" v="yes"/>
    <tag k="source:maxspeed" v="CZ:urban"/>
    <tag k="surface" v="asphalt"/>
  </way>
  <way id="127309972" version="3" timestamp="2021-12-01T09:33:27Z" changeset="114435810" uid="100163" user="Hlav">
    <nd ref="1409549327"/>
    <nd ref="1409549336"/>
    <nd ref="1409549331"/>
    <nd ref="1409549324"/>
    <nd ref="1409549327"/>
    <tag k="amenity" v="fast_food"/>
    <tag k="building" v="yes"/>
    <tag k="name" v="Ob캜erstven칤 na kone캜n칠"/>
    <tag k="outdoor_seating" v="yes"/>
  </way>
  <way id="128607198" version="12" timestamp="2024-12-23T16:41:12Z" changeset="160545704" uid="16912130" user="Ondra (CZ)">
    <nd ref="1297449978"/>
    <nd ref="1989560444"/>
    <nd ref="1297458064"/>
    <nd ref="1297458060"/>
    <nd ref="244253171"/>
    <nd ref="1420751186"/>
    <nd ref="1297451913"/>
    <nd ref="1420751185"/>
    <nd ref="1297451930"/>
    <tag k="cycleway:both" v="no"/>
    <tag k="highway" v="tertiary"/>
    <tag k="incline" v="2%"/>
    <tag k="lit" v="yes"/>
    <tag k="maxspeed" v="50"/>
    <tag k="name" v="K L치dv칤"/>
    <tag k="sidewalk:left" v="separate"/>
    <tag k="sidewalk:right" v="no"/>
    <tag k="surface" v="asphalt"/>
  </way>
  <way id="128607199" version="4" timestamp="2021-09-22T12:40:49Z" changeset="111542130" uid="100163" user="Hlav">
    <nd ref="244253170"/>
    <nd ref="9113706819"/>
    <nd ref="1297458035"/>
    <nd ref="1297449978"/>
    <tag k="highway" v="tertiary"/>
    <tag k="incline" v="2%"/>
    <tag k="maxspeed" v="50"/>
    <tag k="name" v="K L치dv칤"/>
    <tag k="surface" v="asphalt"/>
  </way>
  <way id="131391740" version="6" timestamp="2024-06-17T14:46:37Z" changeset="152806915" uid="100163" user="Hlav">
    <nd ref="1446167131"/>
    <nd ref="244253291"/>
    <nd ref="2096982245"/>
    <tag k="highway" v="residential"/>
    <tag k="lit" v="yes"/>
    <tag k="maxspeed" v="30"/>
    <tag k="maxspeed:type" v="CZ:zone30"/>
    <tag k="name" v="Lib캜ick치"/>
    <tag k="source:maxspeed" v="zone"/>
    <tag k="surface" v="asphalt"/>
    <tag k="zone:maxspeed" v="30"/>
  </way>
  <way id="140822524" version="4" timestamp="2024-03-06T19:26:12Z" changeset="148311777" uid="10932047" user="AF HAF KARTOGRAF">
    <nd ref="895781633"/>
    <nd ref="1542014443"/>
    <nd ref="1542014413"/>
    <nd ref="1542014414"/>
    <nd ref="1542014346"/>
    <nd ref="1542014341"/>
    <nd ref="1542014284"/>
    <nd ref="1542014273"/>
    <nd ref="2096982112"/>
    <nd ref="2096982116"/>
    <nd ref="2096982126"/>
    <nd ref="2096982136"/>
    <nd ref="2096982121"/>
    <nd ref="2096982123"/>
    <nd ref="2096982142"/>
    <nd ref="2096982149"/>
    <nd ref="2096982124"/>
    <nd ref="2096982130"/>
    <nd ref="1542014328"/>
    <nd ref="1542014293"/>
    <nd ref="6123621929"/>
    <nd ref="1542014371"/>
    <nd ref="1542014365"/>
    <nd ref="1542014417"/>
    <nd ref="1542014430"/>
    <nd ref="895781633"/>
    <tag k="amenity" v="clinic"/>
    <tag k="building" v="civic"/>
    <tag k="building:flats" v="1"/>
    <tag k="building:levels" v="1"/>
    <tag k="building:ruian:type" v="5"/>
    <tag k="healthcare" v="clinic"/>
    <tag k="name" v="Achillea"/>
    <tag k="ref:ruian:building" v="22171487"/>
    <tag k="source" v="cuzk:ruian"/>
  </way>
  <way id="140822532" version="3" timestamp="2024-03-06T19:26:12Z" changeset="148311777" uid="10932047" user="AF HAF KARTOGRAF">
    <nd ref="1542014275"/>
    <nd ref="1542014393"/>
    <nd ref="1542014396"/>
    <nd ref="1542014368"/>
    <nd ref="1542014398"/>
    <nd ref="1542014399"/>
    <nd ref="1542014377"/>
    <nd ref="1542014380"/>
    <nd ref="1542014333"/>
    <nd ref="1542014330"/>
    <nd ref="1542014320"/>
    <nd ref="1542014316"/>
    <nd ref="1542014337"/>
    <nd ref="1542014335"/>
    <nd ref="1542014278"/>
    <nd ref="1542014275"/>
    <tag k="amenity" v="clinic"/>
    <tag k="building" v="civic"/>
    <tag k="building:ruian:type" v="5"/>
    <tag k="healthcare" v="clinic"/>
    <tag k="name" v="Preventa"/>
    <tag k="ref:ruian:building" v="22171479"/>
    <tag k="source" v="cuzk:ruian"/>
  </way>
  <way id="160029029" version="4" timestamp="2022-11-02T10:55:37Z" changeset="128385225" uid="100163" user="Hlav">
    <nd ref="25986204"/>
    <nd ref="1286745602"/>
    <nd ref="5348166125"/>
    <nd ref="10150935998"/>
    <nd ref="5348166123"/>
    <tag k="destination:forward" v="Doln칤 Chabry"/>
    <tag k="highway" v="tertiary"/>
    <tag k="maxspeed" v="50"/>
    <tag k="name" v="캛imick치"/>
    <tag k="source:maxspeed" v="CZ:urban"/>
    <tag k="surface" v="asphalt"/>
    <tag k="turn:lanes:backward" v="left|through;right"/>
  </way>
  <way id="164449122" version="3" timestamp="2018-01-18T23:49:04Z" changeset="55564870" uid="255936" user="NyanSten">
    <nd ref="31505333"/>
    <nd ref="2115865688"/>
    <nd ref="30961953"/>
    <tag k="highway" v="tertiary"/>
    <tag k="lit" v="yes"/>
    <tag k="maxspeed" v="50"/>
    <tag k="name" v="캛imick치"/>
    <tag k="source:maxspeed" v="CZ:urban"/>
    <tag k="surface" v="asphalt"/>
  </way>
  <way id="199713134" version="3" timestamp="2023-12-19T18:28:08Z" changeset="145302504" uid="522401" user="corelxt">
    <nd ref="2096981779"/>
    <nd ref="2096981842"/>
    <nd ref="2096981859"/>
    <nd ref="2096981895"/>
    <nd ref="11432726360"/>
    <nd ref="2096981924"/>
    <nd ref="2096981939"/>
    <nd ref="2096981957"/>
    <nd ref="2096981973"/>
    <nd ref="244253282"/>
    <tag k="highway" v="residential"/>
    <tag k="name" v="Na Pr콢honu"/>
    <tag k="source" v="bing:ortofoto"/>
  </way>
  <way id="199713136" version="1" timestamp="2013-01-05T21:09:44Z" changeset="14541929" uid="17615" user="Petr Dlouh칳">
    <nd ref="2096981973"/>
    <nd ref="2096981991"/>
    <nd ref="2096981997"/>
    <nd ref="2096981978"/>
    <tag k="highway" v="residential"/>
    <tag k="name" v="Na Pr콢honu"/>
    <tag k="source" v="bing:ortofoto"/>
  </way>
  <way id="250516686" version="2" timestamp="2019-02-19T06:41:02Z" changeset="67341161" uid="2087700" user="NESClUS">
    <nd ref="244253185"/>
    <nd ref="244253186"/>
    <nd ref="244253187"/>
    <nd ref="244253188"/>
    <tag k="highway" v="residential"/>
    <tag k="name" v="P콏칤vorsk치"/>
    <tag k="oneway" v="yes"/>
    <tag k="source:name" v="nameit/uir-adr"/>
    <tag k="surface" v="asphalt"/>
  </way>
  <way id="250516687" version="2" timestamp="2016-04-13T15:04:02Z" changeset="38527996" uid="718054" user="Piskvor">
    <nd ref="244253189"/>
    <nd ref="1286726802"/>
    <nd ref="244253191"/>
    <tag k="highway" v="residential"/>
    <tag k="lit" v="yes"/>
    <tag k="name" v="Sk치lova"/>
    <tag k="oneway" v="yes"/>
    <tag k="source:name" v="nameit/uir-adr"/>
    <tag k="surface" v="asphalt"/>
  </way>
  <way id="312970666" version="4" timestamp="2021-12-01T09:33:27Z" changeset="114435810" uid="100163" user="Hlav">
    <nd ref="423215942"/>
    <nd ref="3188850039"/>
    <nd ref="9299779614"/>
    <nd ref="3188850022"/>
    <nd ref="3188850021"/>
    <nd ref="9299782519"/>
    <nd ref="423215942"/>
    <tag k="building" v="chapel"/>
    <tag k="building:ruian:type" v="19"/>
    <tag k="denomination" v="roman_catholic"/>
    <tag k="historic" v="wayside_shrine"/>
    <tag k="name" v="svat칳 Jan Nepomuck칳"/>
    <tag k="official_name" v="Kaple svat칠ho Jana Nepomuck칠ho"/>
    <tag k="ref:ruian:building" v="46816283"/>
    <tag k="religion" v="christian"/>
    <tag k="source" v="cuzk:ruian"/>
  </way>
  <way id="379637950" version="4" timestamp="2018-01-19T01:19:08Z" changeset="55565850" uid="255936" user="NyanSten">
    <nd ref="248225794"/>
    <nd ref="285413507"/>
    <nd ref="285413508"/>
    <nd ref="1297470738"/>
    <nd ref="285413509"/>
    <nd ref="1297470747"/>
    <nd ref="285413510"/>
    <tag k="bus" v="no"/>
    <tag k="hgv" v="no"/>
    <tag k="highway" v="residential"/>
    <tag k="maxspeed" v="50"/>
    <tag k="name" v="V치nkov치"/>
    <tag k="oneway" v="yes"/>
    <tag k="source:maxspeed" v="CZ:urban"/>
    <tag k="source:name" v="nameit/uir-adr"/>
    <tag k="surface" v="asphalt"/>
  </way>
  <way id="383026105" version="4" timestamp="2024-05-05T08:25:17Z" changeset="150909122" uid="6588887" user="Martin2035">
    <nd ref="31505922"/>
    <nd ref="30961946"/>
    <nd ref="11880784557"/>
    <nd ref="5348104315"/>
    <nd ref="1261894732"/>
    <tag k="highway" v="tertiary"/>
    <tag k="lanes" v="3"/>
    <tag k="lit" v="yes"/>
    <tag k="maxspeed" v="50"/>
    <tag k="name" v="캛imick치"/>
    <tag k="source:maxspeed" v="CZ:urban"/>
    <tag k="surface" v="asphalt"/>
    <tag k="turn:lanes:backward" v="left;through|right"/>
  </way>
  <way id="392513550" version="4" timestamp="2022-11-02T10:55:37Z" changeset="128385225" uid="100163" user="Hlav">
    <nd ref="25986204"/>
    <nd ref="1286726751"/>
    <nd ref="5348166126"/>
    <nd ref="10150935996"/>
    <nd ref="244253198"/>
    <tag k="destination:forward" v="Kobylisy"/>
    <tag k="highway" v="tertiary"/>
    <tag k="maxspeed" v="50"/>
    <tag k="name" v="K L치dv칤"/>
    <tag k="source:maxspeed" v="CZ:urban"/>
    <tag k="surface" v="asphalt"/>
  </way>
  <way id="392513551" version="2" timestamp="2019-02-19T06:41:03Z" changeset="67341161" uid="2087700" user="NESClUS">
    <nd ref="30961440"/>
    <nd ref="1286815280"/>
    <nd ref="244253164"/>
    <tag k="highway" v="tertiary"/>
    <tag k="maxspeed" v="50"/>
    <tag k="name" v="K L치dv칤"/>
    <tag k="surface" v="asphalt"/>
  </way>
  <way id="392513552" version="8" timestamp="2024-05-05T08:25:17Z" changeset="150909122" uid="6588887" user="Martin2035">
    <nd ref="31505903"/>
    <nd ref="31505912"/>
    <nd ref="31505914"/>
    <nd ref="5348847682"/>
    <nd ref="5348847681"/>
    <nd ref="5348847683"/>
    <nd ref="5348847680"/>
    <nd ref="5348847679"/>
    <nd ref="1297470757"/>
    <nd ref="6123618975"/>
    <nd ref="31505893"/>
    <nd ref="31505894"/>
    <nd ref="5348847676"/>
    <nd ref="5348847675"/>
    <nd ref="31505895"/>
    <nd ref="5348847674"/>
    <nd ref="5348847673"/>
    <nd ref="1297470766"/>
    <nd ref="31505896"/>
    <nd ref="31505897"/>
    <nd ref="5348847677"/>
    <nd ref="5348104320"/>
    <nd ref="31505898"/>
    <tag k="highway" v="residential"/>
    <tag k="lane_markings" v="no"/>
    <tag k="lit" v="yes"/>
    <tag k="maxspeed" v="30"/>
    <tag k="maxspeed:type" v="CZ:zone30"/>
    <tag k="name" v="K콏ivenick치"/>
    <tag k="source:maxspeed" v="zone"/>
    <tag k="surface" v="asphalt"/>
    <tag k="zone:maxspeed" v="30"/>
  </way>
  <way id="392513553" version="5" timestamp="2024-05-05T08:25:17Z" changeset="150909122" uid="6588887" user="Martin2035">
    <nd ref="2096982245"/>
    <nd ref="5348888947"/>
    <nd ref="1297471253"/>
    <tag k="highway" v="residential"/>
    <tag k="lit" v="yes"/>
    <tag k="maxspeed" v="30"/>
    <tag k="maxspeed:type" v="CZ:zone30"/>
    <tag k="name" v="Lib캜ick치"/>
    <tag k="source:maxspeed" v="zone"/>
    <tag k="surface" v="asphalt"/>
    <tag k="zone:maxspeed" v="30"/>
  </way>
  <way id="392513554" version="6" timestamp="2024-05-05T08:25:17Z" changeset="150909122" uid="6588887" user="Martin2035">
    <nd ref="1297471253"/>
    <nd ref="5348888953"/>
    <nd ref="5348880288"/>
    <nd ref="6123621813"/>
    <nd ref="244253293"/>
    <tag k="highway" v="residential"/>
    <tag k="lit" v="yes"/>
    <tag k="maxspeed" v="30"/>
    <tag k="maxspeed:type" v="CZ:zone30"/>
    <tag k="name" v="Lib캜ick치"/>
    <tag k="source:maxspeed" v="zone"/>
    <tag k="surface" v="asphalt"/>
    <tag k="zone:maxspeed" v="30"/>
  </way>
  <way id="392513555" version="4" timestamp="2025-04-12T09:41:21Z" changeset="164847746" uid="4018695" user="游뻟릖 Roman Horn칤k">
    <nd ref="12749573249"/>
    <nd ref="5348860887"/>
    <nd ref="1261894595"/>
    <nd ref="31505922"/>
    <tag k="highway" v="residential"/>
    <tag k="maxspeed" v="30"/>
    <tag k="maxspeed:type" v="CZ:zone30"/>
    <tag k="name" v="Mlazick치"/>
    <tag k="source:maxspeed" v="zone"/>
    <tag k="surface" v="asphalt"/>
    <tag k="zone:maxspeed" v="30"/>
  </way>
  <way id="392513556" version="4" timestamp="2024-08-21T19:45:07Z" changeset="155576252" uid="1516345" user="theDagger">
    <nd ref="296962703"/>
    <nd ref="12125360107"/>
    <nd ref="244253179"/>
    <tag k="highway" v="residential"/>
    <tag k="lit" v="yes"/>
    <tag k="name" v="Na Hranic칤ch"/>
    <tag k="source:name" v="nameit/uir-adr"/>
    <tag k="surface" v="asphalt"/>
  </way>
  <way id="392513557" version="1" timestamp="2016-01-20T21:23:57Z" changeset="36709874" uid="527259" user="Vratislav Filler">
    <nd ref="2096982018"/>
    <nd ref="244253283"/>
    <nd ref="244253288"/>
    <nd ref="244253282"/>
    <tag k="highway" v="residential"/>
    <tag k="name" v="Na Pr콢honu"/>
    <tag k="source:name" v="nameit/uir-adr"/>
  </way>
  <way id="392513558" version="7" timestamp="2025-04-12T09:41:21Z" changeset="164847746" uid="4018695" user="游뻟릖 Roman Horn칤k">
    <nd ref="296962704"/>
    <nd ref="12125360080"/>
    <nd ref="11862904022"/>
    <nd ref="12749573246"/>
    <nd ref="244253176"/>
    <tag k="highway" v="residential"/>
    <tag k="lane_markings" v="no"/>
    <tag k="lit" v="yes"/>
    <tag k="name" v="Peka콏ova"/>
    <tag k="sidewalk:both" v="separate"/>
    <tag k="source:name" v="nameit/uir-adr"/>
    <tag k="surface" v="asphalt"/>
  </way>
  <way id="423559827" version="3" timestamp="2020-12-28T20:46:53Z" changeset="96558461" uid="1189910" user="Milancer">
    <nd ref="244253168"/>
    <nd ref="1286696811"/>
    <nd ref="8268141277"/>
    <nd ref="1286696871"/>
    <nd ref="244253169"/>
    <nd ref="244253170"/>
    <tag k="highway" v="tertiary"/>
    <tag k="incline" v="1%"/>
    <tag k="maxspeed" v="50"/>
    <tag k="name" v="K L치dv칤"/>
    <tag k="surface" v="asphalt"/>
  </way>
  <way id="554134347" version="2" timestamp="2018-01-19T01:59:20Z" changeset="55566200" uid="255936" user="NyanSten">
    <nd ref="1261894732"/>
    <nd ref="30961947"/>
    <tag k="highway" v="tertiary"/>
    <tag k="lit" v="yes"/>
    <tag k="maxspeed" v="50"/>
    <tag k="name" v="캛imick치"/>
    <tag k="source:maxspeed" v="CZ:urban"/>
    <tag k="surface" v="asphalt"/>
  </way>
  <way id="554134348" version="1" timestamp="2018-01-19T01:10:53Z" changeset="55565770" uid="255936" user="NyanSten">
    <nd ref="2744718375"/>
    <nd ref="31505999"/>
    <tag k="highway" v="tertiary"/>
    <tag k="lit" v="yes"/>
    <tag k="maxspeed" v="50"/>
    <tag k="name" v="캛imick치"/>
    <tag k="source:maxspeed" v="CZ:urban"/>
    <tag k="surface" v="asphalt"/>
  </way>
  <way id="554134349" version="1" timestamp="2018-01-19T01:10:53Z" changeset="55565770" uid="255936" user="NyanSten">
    <nd ref="31505829"/>
    <nd ref="30961948"/>
    <nd ref="2744718375"/>
    <tag k="highway" v="tertiary"/>
    <tag k="lit" v="yes"/>
    <tag k="maxspeed" v="50"/>
    <tag k="name" v="캛imick치"/>
    <tag k="source:maxspeed" v="CZ:urban"/>
    <tag k="surface" v="asphalt"/>
    <tag k="turn:lanes:backward" v="left;through|right"/>
  </way>
  <way id="554134352" version="1" timestamp="2018-01-19T01:10:53Z" changeset="55565770" uid="255936" user="NyanSten">
    <nd ref="30961949"/>
    <nd ref="31505996"/>
    <nd ref="30961951"/>
    <nd ref="1297470739"/>
    <nd ref="31505379"/>
    <tag k="highway" v="tertiary"/>
    <tag k="lit" v="yes"/>
    <tag k="maxspeed" v="50"/>
    <tag k="name" v="캛imick치"/>
    <tag k="source:maxspeed" v="CZ:urban"/>
    <tag k="surface" v="asphalt"/>
  </way>
  <way id="554134353" version="2" timestamp="2018-04-29T20:19:14Z" changeset="58536957" uid="255936" user="NyanSten">
    <nd ref="31505999"/>
    <nd ref="5586866372"/>
    <nd ref="30961949"/>
    <tag k="highway" v="tertiary"/>
    <tag k="lit" v="yes"/>
    <tag k="maxspeed" v="50"/>
    <tag k="name" v="캛imick치"/>
    <tag k="source:maxspeed" v="CZ:urban"/>
    <tag k="surface" v="asphalt"/>
    <tag k="turn:lanes:backward" v="through|right"/>
  </way>
  <way id="554134354" version="3" timestamp="2024-05-05T08:25:17Z" changeset="150909122" uid="6588887" user="Martin2035">
    <nd ref="30961945"/>
    <nd ref="5348166133"/>
    <nd ref="244253292"/>
    <nd ref="1261894650"/>
    <nd ref="31505922"/>
    <tag k="highway" v="tertiary"/>
    <tag k="lanes" v="2"/>
    <tag k="lit" v="yes"/>
    <tag k="maxspeed" v="50"/>
    <tag k="maxspeed:conditional" v="30 @ (Mo-Fr 07:00-17:00)"/>
    <tag k="name" v="캛imick치"/>
    <tag k="source:maxspeed" v="CZ:urban"/>
    <tag k="source:maxspeed:conditional" v="sign"/>
    <tag k="surface" v="asphalt"/>
  </way>
  <way id="554134355" version="3" timestamp="2024-12-19T10:49:15Z" changeset="160387984" uid="100163" user="Hlav">
    <nd ref="1297470749"/>
    <nd ref="30961945"/>
    <tag k="cycleway:both" v="no"/>
    <tag k="highway" v="tertiary"/>
    <tag k="lanes" v="3"/>
    <tag k="lit" v="yes"/>
    <tag k="maxspeed" v="50"/>
    <tag k="maxspeed:conditional" v="30 @ (Mo-Fr 07:00-17:00)"/>
    <tag k="name" v="캛imick치"/>
    <tag k="source:maxspeed" v="CZ:urban"/>
    <tag k="source:maxspeed:conditional" v="sign"/>
    <tag k="surface" v="asphalt"/>
    <tag k="turn:lanes:backward" v="left;through|right"/>
  </way>
  <way id="554134356" version="4" timestamp="2024-12-19T10:49:15Z" changeset="160387984" uid="100163" user="Hlav">
    <nd ref="30961944"/>
    <nd ref="5348866676"/>
    <nd ref="1297470749"/>
    <tag k="cycleway:both" v="no"/>
    <tag k="highway" v="tertiary"/>
    <tag k="lanes" v="2"/>
    <tag k="lit" v="yes"/>
    <tag k="maxspeed" v="50"/>
    <tag k="name" v="캛imick치"/>
    <tag k="source:maxspeed" v="CZ:urban"/>
    <tag k="surface" v="asphalt"/>
    <tag k="turn:lanes:backward" v="left;through"/>
  </way>
  <way id="554134357" version="3" timestamp="2020-11-27T11:59:31Z" changeset="94895134" uid="2087700" user="NESClUS">
    <nd ref="5348105423"/>
    <nd ref="391019284"/>
    <tag k="cycleway:both" v="no"/>
    <tag k="highway" v="residential"/>
    <tag k="maxspeed" v="50"/>
    <tag k="name" v="캛imick치"/>
    <tag k="source:maxspeed" v="CZ:urban"/>
    <tag k="surface" v="asphalt"/>
  </way>
  <way id="554134358" version="4" timestamp="2024-12-19T10:49:15Z" changeset="160387984" uid="100163" user="Hlav">
    <nd ref="25986206"/>
    <nd ref="9428012232"/>
    <nd ref="248225806"/>
    <tag k="highway" v="residential"/>
    <tag k="lit" v="yes"/>
    <tag k="maxspeed" v="50"/>
    <tag k="name" v="V치nkov치"/>
    <tag k="oneway" v="yes"/>
    <tag k="source:maxspeed" v="CZ:urban"/>
    <tag k="source:name" v="nameit/uir-adr"/>
    <tag k="surface" v="asphalt"/>
  </way>
  <way id="554134359" version="7" timestamp="2022-08-15T10:10:15Z" changeset="124920498" uid="100163" user="Hlav">
    <nd ref="5348105427"/>
    <nd ref="5348109444"/>
    <nd ref="8042388293"/>
    <nd ref="8042388292"/>
    <nd ref="3829674481"/>
    <nd ref="8042388288"/>
    <nd ref="8042388287"/>
    <nd ref="8042388290"/>
    <nd ref="8042388286"/>
    <nd ref="8042388285"/>
    <nd ref="8042388289"/>
    <nd ref="8042358384"/>
    <nd ref="8042358383"/>
    <nd ref="8042358382"/>
    <nd ref="8042358381"/>
    <tag k="highway" v="residential"/>
    <tag k="name" v="Hra코eho"/>
    <tag k="surface" v="asphalt"/>
  </way>
  <way id="554134688" version="4" timestamp="2025-04-12T09:41:21Z" changeset="164847746" uid="4018695" user="游뻟릖 Roman Horn칤k">
    <nd ref="5348105427"/>
    <nd ref="8042388295"/>
    <nd ref="1542013277"/>
    <tag k="highway" v="residential"/>
    <tag k="lit" v="yes"/>
    <tag k="surface" v="asphalt"/>
  </way>
  <way id="554134689" version="8" timestamp="2025-04-12T09:41:21Z" changeset="164847746" uid="4018695" user="游뻟릖 Roman Horn칤k">
    <nd ref="285413510"/>
    <nd ref="285413511"/>
    <nd ref="285413516"/>
    <nd ref="248225794"/>
    <nd ref="248225797"/>
    <nd ref="248225801"/>
    <nd ref="1297470727"/>
    <nd ref="1297470751"/>
    <nd ref="248225804"/>
    <nd ref="5348105431"/>
    <tag k="bus" v="no"/>
    <tag k="hgv" v="no"/>
    <tag k="highway" v="residential"/>
    <tag k="lit" v="yes"/>
    <tag k="maxspeed" v="50"/>
    <tag k="name" v="V치nkov치"/>
    <tag k="source:maxspeed" v="CZ:urban"/>
    <tag k="source:name" v="nameit/uir-adr"/>
    <tag k="surface" v="asphalt"/>
  </way>
  <way id="554135568" version="2" timestamp="2020-09-29T14:32:15Z" changeset="91714232" uid="665336" user="Minimalis">
    <nd ref="244253198"/>
    <nd ref="30961596"/>
    <nd ref="1286745340"/>
    <nd ref="1286815143"/>
    <nd ref="30961438"/>
    <nd ref="1286815373"/>
    <nd ref="1286726772"/>
    <nd ref="30961439"/>
    <nd ref="30961440"/>
    <tag k="highway" v="tertiary"/>
    <tag k="maxspeed" v="50"/>
    <tag k="name" v="K L치dv칤"/>
    <tag k="source:maxspeed" v="CZ:urban"/>
    <tag k="surface" v="asphalt"/>
  </way>
  <way id="554135569" version="4" timestamp="2025-04-12T09:41:21Z" changeset="164847746" uid="4018695" user="游뻟릖 Roman Horn칤k">
    <nd ref="30961499"/>
    <nd ref="25986206"/>
    <nd ref="5348166130"/>
    <nd ref="12749573247"/>
    <nd ref="30961447"/>
    <nd ref="25986207"/>
    <nd ref="12433096663"/>
    <nd ref="25986208"/>
    <tag k="cycleway:both" v="no"/>
    <tag k="highway" v="tertiary"/>
    <tag k="lanes" v="3"/>
    <tag k="maxspeed" v="50"/>
    <tag k="name" v="캛imick치"/>
    <tag k="source:maxspeed" v="CZ:urban"/>
    <tag k="surface" v="asphalt"/>
  </way>
  <way id="554135570" version="4" timestamp="2022-11-02T10:55:37Z" changeset="128385225" uid="100163" user="Hlav">
    <nd ref="5348166122"/>
    <nd ref="10150935997"/>
    <nd ref="5348166127"/>
    <nd ref="1286745343"/>
    <nd ref="25986204"/>
    <tag k="destination:backward" v="Bohnice"/>
    <tag k="highway" v="tertiary"/>
    <tag k="lanes" v="3"/>
    <tag k="lanes:forward" v="2"/>
    <tag k="lit" v="yes"/>
    <tag k="maxspeed" v="50"/>
    <tag k="name" v="캛imick치"/>
    <tag k="source:maxspeed" v="CZ:urban"/>
    <tag k="surface" v="asphalt"/>
    <tag k="turn:lanes:forward" v="left;through|right"/>
  </way>
  <way id="554135571" version="5" timestamp="2024-10-24T17:26:35Z" changeset="158306805" uid="3003739" user="r00tcz">
    <nd ref="5348166123"/>
    <nd ref="30961449"/>
    <nd ref="25986205"/>
    <nd ref="1542013260"/>
    <nd ref="30961499"/>
    <tag k="cycleway:both" v="no"/>
    <tag k="highway" v="tertiary"/>
    <tag k="lanes" v="3"/>
    <tag k="lanes:backward" v="2"/>
    <tag k="lanes:forward" v="1"/>
    <tag k="lit" v="yes"/>
    <tag k="maxspeed" v="50"/>
    <tag k="name" v="캛imick치"/>
    <tag k="smoothness" v="excellent"/>
    <tag k="source:maxspeed" v="CZ:urban"/>
    <tag k="surface" v="asphalt"/>
  </way>
  <way id="554137129" version="1" timestamp="2018-01-19T01:59:20Z" changeset="55566200" uid="255936" user="NyanSten">
    <nd ref="2115865645"/>
    <nd ref="31505379"/>
    <tag k="highway" v="residential"/>
    <tag k="maxspeed" v="30"/>
    <tag k="name" v="KMl칳nu"/>
    <tag k="source:maxspeed" v="zone"/>
    <tag k="surface" v="asphalt"/>
  </way>
  <way id="554137130" version="1" timestamp="2018-01-19T01:59:20Z" changeset="55566200" uid="255936" user="NyanSten">
    <nd ref="30961947"/>
    <nd ref="31505829"/>
    <tag k="highway" v="tertiary"/>
    <tag k="lit" v="yes"/>
    <tag k="maxspeed" v="50"/>
    <tag k="name" v="캛imick치"/>
    <tag k="source:maxspeed" v="CZ:urban"/>
    <tag k="surface" v="asphalt"/>
  </way>
  <way id="554137220" version="1" timestamp="2018-01-19T02:00:29Z" changeset="55566208" uid="255936" user="NyanSten">
    <nd ref="391019284"/>
    <nd ref="5348105424"/>
    <nd ref="30961943"/>
    <tag k="highway" v="residential"/>
    <tag k="maxspeed" v="50"/>
    <tag k="name" v="캛imick치"/>
    <tag k="source:maxspeed" v="CZ:urban"/>
    <tag k="surface" v="asphalt"/>
  </way>
  <way id="554225761" version="3" timestamp="2024-05-05T08:25:17Z" changeset="150909122" uid="6588887" user="Martin2035">
    <nd ref="31505818"/>
    <nd ref="31505819"/>
    <nd ref="5348853812"/>
    <nd ref="31505820"/>
    <nd ref="31505821"/>
    <nd ref="31505822"/>
    <nd ref="31505823"/>
    <nd ref="31505824"/>
    <nd ref="10287722508"/>
    <nd ref="10287752528"/>
    <nd ref="31505818"/>
    <tag k="highway" v="residential"/>
    <tag k="lit" v="yes"/>
    <tag k="maxspeed" v="30"/>
    <tag k="maxspeed:type" v="CZ:zone30"/>
    <tag k="name" v="Ouholick치"/>
    <tag k="source:maxspeed" v="zone"/>
    <tag k="surface" v="asphalt"/>
    <tag k="zone:maxspeed" v="30"/>
  </way>
  <way id="610444351" version="3" timestamp="2020-12-22T00:26:06Z" changeset="96221794" uid="2087700" user="NESClUS">
    <nd ref="244253284"/>
    <nd ref="2096982018"/>
    <tag k="highway" v="residential"/>
    <tag k="lit" v="yes"/>
    <tag k="name" v="Na Pr콢honu"/>
    <tag k="source:name" v="nameit/uir-adr"/>
    <tag k="surface" v="asphalt"/>
  </way>
  <way id="610444352" version="5" timestamp="2020-12-22T00:26:07Z" changeset="96221794" uid="2087700" user="NESClUS">
    <nd ref="244253284"/>
    <nd ref="244253286"/>
    <tag k="highway" v="residential"/>
    <tag k="lit" v="yes"/>
    <tag k="name" v="Na Pr콢honu"/>
    <tag k="oneway" v="yes"/>
    <tag k="source:name" v="nameit/uir-adr"/>
    <tag k="surface" v="asphalt"/>
  </way>
  <way id="730101461" version="3" timestamp="2024-08-21T19:45:07Z" changeset="155576252" uid="1516345" user="theDagger">
    <nd ref="244253183"/>
    <nd ref="11862904025"/>
    <nd ref="12125360082"/>
    <nd ref="296962704"/>
    <tag k="highway" v="residential"/>
    <tag k="lit" v="yes"/>
    <tag k="name" v="Peka콏ova"/>
    <tag k="source:name" v="nameit/uir-adr"/>
    <tag k="surface" v="asphalt"/>
  </way>
  <way id="730101462" version="2" timestamp="2020-08-04T07:38:20Z" changeset="88913147" uid="8976801" user="majkaz_imports">
    <nd ref="244253181"/>
    <nd ref="244253183"/>
    <tag k="highway" v="residential"/>
    <tag k="lit" v="yes"/>
    <tag k="name" v="Peka콏ova"/>
    <tag k="source:name" v="nameit/uir-adr"/>
    <tag k="surface" v="asphalt"/>
  </way>
  <way id="770274976" version="1" timestamp="2020-02-06T10:28:53Z" changeset="80635238" uid="100163" user="Hlav">
    <nd ref="30961445"/>
    <nd ref="30961566"/>
    <nd ref="30961610"/>
    <nd ref="1286815323"/>
    <nd ref="30961438"/>
    <tag k="highway" v="residential"/>
    <tag k="name" v="Ke H콏i코ti"/>
    <tag k="source:name" v="nameit/uir-adr"/>
  </way>
  <way id="770274977" version="2" timestamp="2025-04-12T09:41:21Z" changeset="164847746" uid="4018695" user="游뻟릖 Roman Horn칤k">
    <nd ref="30961445"/>
    <nd ref="30961446"/>
    <tag k="highway" v="residential"/>
    <tag k="name" v="Fo콏tova"/>
    <tag k="source:name" v="nameit/uir-adr"/>
  </way>
  <way id="863324820" version="7" timestamp="2023-09-08T08:36:16Z" changeset="140975657" uid="231749" user="Eino81">
    <nd ref="8042358369"/>
    <nd ref="8042358352"/>
    <nd ref="8042358351"/>
    <nd ref="8042358348"/>
    <nd ref="8042358347"/>
    <nd ref="8042358350"/>
    <nd ref="8042358346"/>
    <nd ref="8042358349"/>
    <nd ref="11114440191"/>
    <nd ref="3829674478"/>
    <nd ref="9954330438"/>
    <nd ref="10889466424"/>
    <nd ref="11121631591"/>
    <tag k="highway" v="residential"/>
    <tag k="name" v="Hra코eho"/>
    <tag k="surface" v="asphalt"/>
  </way>
  <way id="863324821" version="2" timestamp="2022-08-15T10:10:15Z" changeset="124920498" uid="100163" user="Hlav">
    <nd ref="8042358369"/>
    <nd ref="8042358364"/>
    <nd ref="8042358363"/>
    <nd ref="8042358366"/>
    <nd ref="8042358362"/>
    <nd ref="8042358365"/>
    <nd ref="8042358359"/>
    <nd ref="8042358358"/>
    <nd ref="8042358361"/>
    <nd ref="8042358357"/>
    <nd ref="8042358356"/>
    <nd ref="8042358360"/>
    <nd ref="8042358354"/>
    <nd ref="8042358355"/>
    <nd ref="8042358353"/>
    <nd ref="8042358381"/>
    <tag k="highway" v="residential"/>
    <tag k="name" v="Hra코eho"/>
    <tag k="oneway" v="yes"/>
    <tag k="surface" v="asphalt"/>
  </way>
  <way id="863324822" version="2" timestamp="2022-08-15T10:10:15Z" changeset="124920498" uid="100163" user="Hlav">
    <nd ref="8042358381"/>
    <nd ref="8042358378"/>
    <nd ref="8042358380"/>
    <nd ref="8042358377"/>
    <nd ref="8042358379"/>
    <nd ref="8042358374"/>
    <nd ref="8042358373"/>
    <nd ref="8042358376"/>
    <nd ref="8042358372"/>
    <nd ref="8042358371"/>
    <nd ref="8042358375"/>
    <nd ref="8042358368"/>
    <nd ref="8042358370"/>
    <nd ref="8042358367"/>
    <nd ref="8042358369"/>
    <tag k="highway" v="residential"/>
    <tag k="name" v="Hra코eho"/>
    <tag k="oneway" v="yes"/>
    <tag k="surface" v="asphalt"/>
  </way>
  <way id="1109645802" version="1" timestamp="2022-11-02T14:58:57Z" changeset="128397037" uid="100163" user="Hlav">
    <nd ref="10151611367"/>
    <nd ref="5348866678"/>
    <nd ref="1297470733"/>
    <nd ref="391019284"/>
    <tag k="cycleway:both" v="no"/>
    <tag k="highway" v="residential"/>
    <tag k="maxspeed" v="50"/>
    <tag k="name" v="캛imick치"/>
    <tag k="oneway" v="yes"/>
    <tag k="source:maxspeed" v="CZ:urban"/>
    <tag k="surface" v="asphalt"/>
  </way>
  <way id="1206066240" version="1" timestamp="2023-09-08T08:36:16Z" changeset="140975657" uid="231749" user="Eino81">
    <nd ref="11121631591"/>
    <nd ref="9954330439"/>
    <tag k="access" v="private"/>
    <tag k="highway" v="residential"/>
    <tag k="name" v="Hra코eho"/>
    <tag k="surface" v="asphalt"/>
  </way>
  <way id="1240805600" version="1" timestamp="2024-01-18T17:50:47Z" changeset="146415126" uid="100163" user="Hlav">
    <nd ref="1297458035"/>
    <nd ref="2618945962"/>
    <nd ref="1297458080"/>
    <nd ref="1297458053"/>
    <tag k="highway" v="residential"/>
    <tag k="name" v="Sp치dn치"/>
  </way>
  <way id="1279846864" version="2" timestamp="2024-09-03T13:35:31Z" changeset="156143199" uid="1516345" user="theDagger">
    <nd ref="244253184"/>
    <nd ref="11880800810"/>
    <nd ref="1286815161"/>
    <nd ref="244253164"/>
    <tag k="bicycle" v="yes"/>
    <tag k="foot" v="yes"/>
    <tag k="highway" v="residential"/>
    <tag k="lanes" v="2"/>
    <tag k="maxspeed" v="50"/>
    <tag k="motor_vehicle" v="destination"/>
    <tag k="name" v="Nedomick치"/>
    <tag k="sidewalk:both" v="separate"/>
    <tag k="source:name" v="nameit/uir-adr"/>
    <tag k="surface" v="asphalt"/>
  </way>
  <way id="1279846865" version="1" timestamp="2024-05-05T08:28:56Z" changeset="150909277" uid="6588887" user="Martin2035">
    <nd ref="244253165"/>
    <nd ref="1286815057"/>
    <nd ref="244253185"/>
    <tag k="bicycle" v="yes"/>
    <tag k="foot" v="yes"/>
    <tag k="highway" v="residential"/>
    <tag k="lanes" v="2"/>
    <tag k="lit" v="yes"/>
    <tag k="maxspeed" v="50"/>
    <tag k="motor_vehicle" v="destination"/>
    <tag k="name" v="Ko캜ova"/>
    <tag k="source:name" v="nameit/uir-adr"/>
    <tag k="surface" v="asphalt"/>
  </way>
  <way id="1279846866" version="1" timestamp="2024-05-05T08:28:56Z" changeset="150909277" uid="6588887" user="Martin2035">
    <nd ref="244253168"/>
    <nd ref="1286815212"/>
    <nd ref="4022694614"/>
    <nd ref="244253188"/>
    <tag k="alt_name" v="P캩코inova"/>
    <tag k="bicycle" v="yes"/>
    <tag k="foot" v="yes"/>
    <tag k="highway" v="residential"/>
    <tag k="lit" v="yes"/>
    <tag k="maxspeed" v="50"/>
    <tag k="motor_vehicle" v="destination"/>
    <tag k="name" v="Pe코inova"/>
    <tag k="source:name" v="nameit/uir-adr"/>
    <tag k="surface" v="asphalt"/>
  </way>
  <way id="1376956165" version="1" timestamp="2025-04-12T09:41:21Z" changeset="164847746" uid="4018695" user="游뻟릖 Roman Horn칤k">
    <nd ref="244253175"/>
    <nd ref="1286815419"/>
    <tag k="highway" v="residential"/>
    <tag k="lit" v="yes"/>
    <tag k="name" v="Peka콏ova"/>
    <tag k="source:name" v="nameit/uir-adr"/>
    <tag k="surface" v="asphalt"/>
  </way>
  <way id="1376956166" version="1" timestamp="2025-04-12T09:41:21Z" changeset="164847746" uid="4018695" user="游뻟릖 Roman Horn칤k">
    <nd ref="25986203"/>
    <nd ref="1286726641"/>
    <nd ref="9303624013"/>
    <nd ref="1286726660"/>
    <tag k="cycleway:both" v="no"/>
    <tag k="highway" v="residential"/>
    <tag k="lane_markings" v="no"/>
    <tag k="lit" v="yes"/>
    <tag k="maxspeed" v="30"/>
    <tag k="maxspeed:type" v="CZ:zone30"/>
    <tag k="name" v="Na Hranic칤ch"/>
    <tag k="smoothness" v="intermediate"/>
    <tag k="source:name" v="nameit/uir-adr"/>
    <tag k="surface" v="asphalt"/>
  </way>
  <way id="1376956167" version="1" timestamp="2025-04-12T09:41:21Z" changeset="164847746" uid="4018695" user="游뻟릖 Roman Horn칤k">
    <nd ref="5348105431"/>
    <nd ref="1297470742"/>
    <nd ref="6122571803"/>
    <nd ref="248225806"/>
    <nd ref="1542013277"/>
    <nd ref="11289494071"/>
    <nd ref="9428012235"/>
    <nd ref="5348166129"/>
    <nd ref="30961499"/>
    <tag k="bus" v="no"/>
    <tag k="hgv" v="no"/>
    <tag k="highway" v="residential"/>
    <tag k="lit" v="yes"/>
    <tag k="maxspeed" v="50"/>
    <tag k="name" v="V치nkov치"/>
    <tag k="source:maxspeed" v="CZ:urban"/>
    <tag k="source:name" v="nameit/uir-adr"/>
    <tag k="surface" v="asphalt"/>
  </way>
  <way id="1376956168" version="1" timestamp="2025-04-12T09:41:21Z" changeset="164847746" uid="4018695" user="游뻟릖 Roman Horn칤k">
    <nd ref="12749573250"/>
    <nd ref="12749573252"/>
    <nd ref="12749573254"/>
    <nd ref="31505921"/>
    <nd ref="12749573253"/>
    <nd ref="12749573251"/>
    <nd ref="12749573249"/>
    <tag k="highway" v="residential"/>
    <tag k="maxspeed" v="30"/>
    <tag k="maxspeed:type" v="CZ:zone30"/>
    <tag k="name" v="Mlazick치"/>
    <tag k="source:maxspeed" v="zone"/>
    <tag k="surface" v="asphalt"/>
    <tag k="zone:maxspeed" v="30"/>
  </way>
  <way id="1376956169" version="1" timestamp="2025-04-12T09:41:21Z" changeset="164847746" uid="4018695" user="游뻟릖 Roman Horn칤k">
    <nd ref="2744718383"/>
    <nd ref="12749573250"/>
    <tag k="highway" v="residential"/>
    <tag k="maxspeed" v="30"/>
    <tag k="maxspeed:type" v="CZ:zone30"/>
    <tag k="name" v="Mlazick치"/>
    <tag k="source:maxspeed" v="zone"/>
    <tag k="surface" v="asphalt"/>
    <tag k="zone:maxspeed" v="30"/>
  </way>
  <way id="1376956170" version="1" timestamp="2025-04-12T09:41:21Z" changeset="164847746" uid="4018695" user="游뻟릖 Roman Horn칤k">
    <nd ref="25986418"/>
    <nd ref="5353153994"/>
    <tag k="highway" v="residential"/>
    <tag k="maxspeed" v="30"/>
    <tag k="name" v="KMl칳nu"/>
    <tag k="source:maxspeed" v="zone"/>
    <tag k="surface" v="asphalt"/>
  </way>
  <way id="1376956171" version="1" timestamp="2025-04-12T09:41:21Z" changeset="164847746" uid="4018695" user="游뻟릖 Roman Horn칤k">
    <nd ref="30961446"/>
    <nd ref="30961447"/>
    <tag k="highway" v="residential"/>
    <tag k="name" v="Fo콏tova"/>
    <tag k="source:name" v="nameit/uir-adr"/>
  </way>
  <way id="1376956172" version="1" timestamp="2025-04-12T09:41:21Z" changeset="164847746" uid="4018695" user="游뻟릖 Roman Horn칤k">
    <nd ref="244253164"/>
    <nd ref="1286726849"/>
    <nd ref="1286815416"/>
    <nd ref="244253165"/>
    <tag k="highway" v="tertiary"/>
    <tag k="maxspeed" v="50"/>
    <tag k="name" v="K L치dv칤"/>
    <tag k="surface" v="asphalt"/>
  </way>

</osm>
