<?xml version="1.0" encoding="UTF-8"?>
<osm version="0.6" generator="Overpass API 0.7.62.5 1bd436f1">
<note>The data included in this document is from www.openstreetmap.org. The data is made available under ODbL.</note>
<meta osm_base="2025-05-18T05:41:01Z" areas="2024-12-31T00:49:33Z"/>

  <node id="29448040" lat="50.0261802" lon="14.5928684" version="4" timestamp="2009-05-28T20:23:21Z" changeset="1345901" uid="126741" user="LStealth"/>
  <node id="235536303" lat="50.0103945" lon="14.6138726" version="8" timestamp="2023-03-31T19:09:35Z" changeset="134358643" uid="1189910" user="Milancer"/>
  <node id="246533720" lat="50.0093723" lon="14.6021792" version="2" timestamp="2019-08-12T12:03:33Z" changeset="73266154" uid="25867" user="adamos"/>
  <node id="246533848" lat="50.0222246" lon="14.6041943" version="1" timestamp="2008-02-07T19:57:08Z" changeset="68060" uid="18003" user="Jozef Hovan"/>
  <node id="3638076714" lat="50.0246854" lon="14.5908335" version="1" timestamp="2015-07-07T00:18:22Z" changeset="32461477" uid="29818" user="zub">
    <tag k="crossing" v="uncontrolled"/>
    <tag k="highway" v="crossing"/>
  </node>
  <way id="31748915" version="12" timestamp="2024-10-28T23:38:48Z" changeset="158477663" uid="217057" user="Karry">
    <nd ref="246533728"/>
    <nd ref="12281446480"/>
    <nd ref="3667740233"/>
    <tag k="highway" v="residential"/>
    <tag k="name" v="Na Luka"/>
    <tag k="sidewalk" v="both"/>
    <tag k="surface" v="asphalt"/>
  </way>
  <way id="31748917" version="4" timestamp="2023-07-09T09:05:02Z" changeset="138288700" uid="231749" user="Eino81">
    <nd ref="355299792"/>
    <nd ref="988698620"/>
    <nd ref="355299797"/>
    <nd ref="355299808"/>
    <nd ref="355299815"/>
    <nd ref="355299821"/>
    <nd ref="355299832"/>
    <nd ref="355299836"/>
    <tag k="highway" v="residential"/>
    <tag k="name" v="Na KoupaliÅ¡tÄ›"/>
  </way>
  <way id="31825789" version="6" timestamp="2023-03-31T19:09:35Z" changeset="134358643" uid="1189910" user="Milancer">
    <nd ref="235536216"/>
    <nd ref="235536240"/>
    <nd ref="10776382662"/>
    <nd ref="235536263"/>
    <nd ref="10776382663"/>
    <nd ref="235536288"/>
    <nd ref="10776382664"/>
    <nd ref="235536303"/>
    <tag k="highway" v="tertiary"/>
    <tag k="ref" v="3339"/>
    <tag k="source:ref" v="rsd_cr"/>
  </way>
  <way id="31825790" version="4" timestamp="2024-10-23T09:33:51Z" changeset="158244179" uid="718054" user="Piskvor">
    <nd ref="235535932"/>
    <nd ref="235535983"/>
    <nd ref="235536037"/>
    <nd ref="235536055"/>
    <nd ref="235536078"/>
    <tag k="highway" v="tertiary"/>
    <tag k="lit" v="yes"/>
    <tag k="name" v="K LipanÅ¯m"/>
    <tag k="ref" v="3339"/>
    <tag k="source:ref" v="rsd_cr"/>
  </way>
  <way id="31825791" version="9" timestamp="2023-03-31T19:09:35Z" changeset="134358643" uid="1189910" user="Milancer">
    <nd ref="246533720"/>
    <nd ref="10776382675"/>
    <nd ref="246533721"/>
    <nd ref="2271205374"/>
    <nd ref="9448601301"/>
    <nd ref="246533722"/>
    <nd ref="246533723"/>
    <nd ref="9448601302"/>
    <nd ref="246533724"/>
    <nd ref="9448601303"/>
    <nd ref="246533725"/>
    <nd ref="6703020919"/>
    <nd ref="9448627519"/>
    <nd ref="246533726"/>
    <nd ref="355299792"/>
    <nd ref="988698616"/>
    <tag k="highway" v="tertiary"/>
    <tag k="maxspeed" v="50"/>
    <tag k="name" v="KvÄ›tnovÃ©ho povstÃ¡nÃ­"/>
    <tag k="ref" v="3338"/>
    <tag k="source:ref" v="rsd_cr"/>
  </way>
  <way id="85264183" version="11" timestamp="2024-10-23T09:33:51Z" changeset="158244179" uid="718054" user="Piskvor">
    <nd ref="988698616"/>
    <nd ref="988698717"/>
    <tag k="bridge" v="yes"/>
    <tag k="bridge:structure" v="beam"/>
    <tag k="highway" v="tertiary"/>
    <tag k="layer" v="1"/>
    <tag k="maxspeed" v="50"/>
    <tag k="name" v="KvÄ›tnovÃ©ho povstÃ¡nÃ­"/>
    <tag k="oneway" v="no"/>
    <tag k="ref" v="3338"/>
    <tag k="source:ref" v="rsd_cr"/>
  </way>
  <way id="85264185" version="10" timestamp="2024-11-11T09:15:35Z" changeset="158999626" uid="217057" user="Karry">
    <nd ref="3812344170"/>
    <nd ref="246533729"/>
    <nd ref="246533730"/>
    <nd ref="12281446484"/>
    <tag k="highway" v="tertiary"/>
    <tag k="lit" v="yes"/>
    <tag k="maxspeed" v="40"/>
    <tag k="name" v="KvÄ›tnovÃ©ho povstÃ¡nÃ­"/>
    <tag k="ref" v="3338"/>
    <tag k="sidewalk" v="separate"/>
    <tag k="source:maxspeed" v="sign"/>
    <tag k="source:ref" v="rsd_cr"/>
  </way>
  <way id="112143820" version="3" timestamp="2023-03-31T19:09:35Z" changeset="134358643" uid="1189910" user="Milancer">
    <nd ref="235536303"/>
    <nd ref="10776382665"/>
    <nd ref="235536313"/>
    <nd ref="10776382666"/>
    <nd ref="235536333"/>
    <nd ref="235536349"/>
    <nd ref="235536369"/>
    <nd ref="235536386"/>
    <nd ref="10776382667"/>
    <nd ref="235536403"/>
    <nd ref="235536429"/>
    <nd ref="235536444"/>
    <nd ref="10776382668"/>
    <nd ref="235536467"/>
    <tag k="highway" v="tertiary"/>
    <tag k="ref" v="3339"/>
    <tag k="source:ref" v="rsd_cr"/>
  </way>
  <way id="112143821" version="3" timestamp="2024-10-23T09:33:51Z" changeset="158244179" uid="718054" user="Piskvor">
    <nd ref="235536078"/>
    <nd ref="12281446432"/>
    <nd ref="865229344"/>
    <nd ref="235536097"/>
    <nd ref="235536119"/>
    <nd ref="235536144"/>
    <nd ref="356322823"/>
    <nd ref="235536172"/>
    <nd ref="235536183"/>
    <nd ref="12140916875"/>
    <nd ref="235536201"/>
    <nd ref="235536216"/>
    <tag k="highway" v="tertiary"/>
    <tag k="name" v="K LipanÅ¯m"/>
    <tag k="ref" v="3339"/>
    <tag k="source:ref" v="rsd_cr"/>
  </way>
  <way id="161634806" version="5" timestamp="2025-03-16T00:21:43Z" changeset="163671705" uid="4018695" user="ðŸ‡¨ðŸ‡¿ Roman HornÃ­k">
    <nd ref="246533848"/>
    <nd ref="189383745"/>
    <nd ref="246533849"/>
    <nd ref="12669183258"/>
    <nd ref="189383746"/>
    <nd ref="189383750"/>
    <nd ref="189383758"/>
    <nd ref="246533851"/>
    <nd ref="189383775"/>
    <nd ref="189383782"/>
    <nd ref="246533852"/>
    <nd ref="189383795"/>
    <nd ref="189383805"/>
    <nd ref="235535895"/>
    <nd ref="3657996623"/>
    <nd ref="235535932"/>
    <tag k="highway" v="tertiary"/>
    <tag k="ref" v="3339"/>
    <tag k="source:ref" v="rsd_cr"/>
  </way>
  <way id="173019839" version="10" timestamp="2022-08-01T15:18:52Z" changeset="124351154" uid="3516" user="BiIbo">
    <nd ref="29448040"/>
    <nd ref="1838489790"/>
    <tag k="highway" v="tertiary"/>
    <tag k="lanes" v="2"/>
    <tag k="maxspeed" v="50"/>
    <tag k="name" v="K DÃ¡lnici"/>
    <tag k="ref" v="00310"/>
    <tag k="source:ref" v="rsd_cr"/>
    <tag k="surface" v="asphalt"/>
  </way>
  <way id="362470458" version="4" timestamp="2024-10-12T15:41:32Z" changeset="157801898" uid="55818" user="Theologe">
    <nd ref="3667740233"/>
    <nd ref="3667740230"/>
    <nd ref="3667740231"/>
    <nd ref="3667740232"/>
    <tag k="highway" v="residential"/>
    <tag k="lane_markings" v="no"/>
    <tag k="name" v="VinnÃ¡"/>
    <tag k="surface" v="paving_stones"/>
  </way>
  <way id="373866324" version="4" timestamp="2024-10-23T09:33:51Z" changeset="158244179" uid="718054" user="Piskvor">
    <nd ref="246533732"/>
    <nd ref="6703020943"/>
    <nd ref="246533733"/>
    <nd ref="6703020944"/>
    <nd ref="246533734"/>
    <nd ref="6703020945"/>
    <nd ref="246533735"/>
    <nd ref="6703020946"/>
    <nd ref="235535932"/>
    <tag k="highway" v="tertiary"/>
    <tag k="lit" v="yes"/>
    <tag k="maxspeed" v="40"/>
    <tag k="name" v="KvÄ›tnovÃ©ho povstÃ¡nÃ­"/>
    <tag k="ref" v="3338"/>
    <tag k="source:maxspeed" v="sign"/>
    <tag k="source:ref" v="rsd_cr"/>
  </way>
  <way id="377830792" version="6" timestamp="2024-10-23T09:33:51Z" changeset="158244179" uid="718054" user="Piskvor">
    <nd ref="3812344170"/>
    <nd ref="3812344171"/>
    <tag k="highway" v="residential"/>
    <tag k="name" v="KvÄ›tnovÃ©ho povstÃ¡nÃ­"/>
    <tag k="oneway" v="yes"/>
    <tag k="sidewalk" v="both"/>
    <tag k="source" v="bing;gps"/>
    <tag k="surface" v="asphalt"/>
  </way>
  <way id="445026352" version="2" timestamp="2024-09-22T21:38:01Z" changeset="156970218" uid="217057" user="Karry">
    <nd ref="4424795945"/>
    <nd ref="4424795974"/>
    <nd ref="4424795968"/>
    <nd ref="4424795934"/>
    <nd ref="1223654301"/>
    <nd ref="4424795945"/>
    <tag k="addr:housenumber" v="194"/>
    <tag k="addr:street" v="KvÄ›tnovÃ©ho povstÃ¡nÃ­"/>
    <tag k="amenity" v="restaurant"/>
    <tag k="building" v="yes"/>
    <tag k="building:ruian:type" v="20"/>
    <tag k="name" v="Tetu Brissy"/>
    <tag k="opening_hours" v="Mo-Su 12:00-23:00"/>
    <tag k="ref:ruian:building" v="47746505"/>
    <tag k="source" v="cuzk:ruian"/>
    <tag k="website" v="https://www.tetubrissy.cz"/>
  </way>
  <way id="491733176" version="8" timestamp="2024-09-01T22:44:16Z" changeset="156074119" uid="217057" user="Karry">
    <nd ref="1223650766"/>
    <nd ref="6980073607"/>
    <nd ref="4838200151"/>
    <nd ref="6980073606"/>
    <nd ref="6980073605"/>
    <nd ref="6980073604"/>
    <nd ref="6980073603"/>
    <nd ref="6980073602"/>
    <nd ref="6980073601"/>
    <nd ref="6980073600"/>
    <nd ref="6980073599"/>
    <nd ref="6980073598"/>
    <nd ref="4838200152"/>
    <nd ref="6980073597"/>
    <nd ref="6980073596"/>
    <nd ref="6980073595"/>
    <nd ref="1223652104"/>
    <nd ref="1223650003"/>
    <nd ref="1223652592"/>
    <nd ref="1223655574"/>
    <nd ref="4838200153"/>
    <nd ref="6980073594"/>
    <nd ref="6980073593"/>
    <nd ref="6980073592"/>
    <nd ref="1223656807"/>
    <nd ref="1223656168"/>
    <nd ref="1223650766"/>
    <tag k="addr:city" v="Praha - Benice"/>
    <tag k="addr:housenumber" v="21"/>
    <tag k="addr:postcode" v="10300"/>
    <tag k="addr:street" v="KvÄ›tnovÃ©ho povstÃ¡nÃ­"/>
    <tag k="amenity" v="restaurant"/>
    <tag k="building" v="civic"/>
    <tag k="building:flats" v="1"/>
    <tag k="building:levels" v="3"/>
    <tag k="building:ruian:type" v="15"/>
    <tag k="capacity" v="60"/>
    <tag k="contact:phone" v="+420722903577"/>
    <tag k="cuisine" v="regional"/>
    <tag k="delivery" v="no"/>
    <tag k="name" v="Boogie House"/>
    <tag k="opening_hours" v="Mo-Tu off; We-Th 11:00-22:00; Fr 11:00-23:00; Sa 12:00-23:00; Su 12:00-22:00"/>
    <tag k="outdoor_seating" v="yes"/>
    <tag k="ref:ruian:building" v="21452008"/>
    <tag k="roof:shape" v="hipped"/>
    <tag k="smoking" v="outside;separated"/>
    <tag k="source" v="cuzk:ruian"/>
    <tag k="takeaway" v="no"/>
    <tag k="website" v="https://www.boogiehouse.cz/"/>
  </way>
  <way id="592415863" version="8" timestamp="2024-10-23T09:33:51Z" changeset="158244179" uid="718054" user="Piskvor">
    <nd ref="246533728"/>
    <nd ref="12281446481"/>
    <nd ref="11832508342"/>
    <nd ref="3812344170"/>
    <tag k="cycleway:both" v="no"/>
    <tag k="highway" v="tertiary"/>
    <tag k="lanes" v="2"/>
    <tag k="lit" v="yes"/>
    <tag k="maxspeed" v="30"/>
    <tag k="name" v="KvÄ›tnovÃ©ho povstÃ¡nÃ­"/>
    <tag k="ref" v="3338"/>
    <tag k="sidewalk" v="separate"/>
    <tag k="source:maxspeed" v="sign"/>
    <tag k="source:ref" v="rsd_cr"/>
    <tag k="surface" v="asphalt"/>
  </way>
  <way id="592415865" version="7" timestamp="2021-12-05T14:01:54Z" changeset="114582566" uid="469828" user="LukÃ¡Å¡ JelÃ­nek">
    <nd ref="3812344172"/>
    <nd ref="6703020917"/>
    <nd ref="355299761"/>
    <nd ref="355299766"/>
    <tag k="highway" v="residential"/>
    <tag k="lit" v="yes"/>
    <tag k="name" v="Na Luka"/>
    <tag k="sidewalk" v="both"/>
    <tag k="surface" v="asphalt"/>
  </way>
  <way id="592415866" version="3" timestamp="2024-10-12T15:40:46Z" changeset="157801898" uid="55818" user="Theologe">
    <nd ref="988698717"/>
    <nd ref="246533728"/>
    <tag k="highway" v="tertiary"/>
    <tag k="lanes" v="2"/>
    <tag k="maxspeed" v="50"/>
    <tag k="name" v="KvÄ›tnovÃ©ho povstÃ¡nÃ­"/>
    <tag k="ref" v="3338"/>
    <tag k="source:ref" v="rsd_cr"/>
    <tag k="surface" v="asphalt"/>
  </way>
  <way id="592415867" version="2" timestamp="2024-10-23T09:33:51Z" changeset="158244179" uid="718054" user="Piskvor">
    <nd ref="356322825"/>
    <nd ref="246533732"/>
    <tag k="highway" v="tertiary"/>
    <tag k="lit" v="yes"/>
    <tag k="maxspeed" v="40"/>
    <tag k="name" v="KvÄ›tnovÃ©ho povstÃ¡nÃ­"/>
    <tag k="ref" v="3338"/>
    <tag k="source:maxspeed" v="sign"/>
    <tag k="source:ref" v="rsd_cr"/>
  </way>
  <way id="1009303362" version="3" timestamp="2024-10-23T09:33:51Z" changeset="158244179" uid="718054" user="Piskvor">
    <nd ref="3812344171"/>
    <nd ref="6703020918"/>
    <tag k="highway" v="residential"/>
    <tag k="name" v="KvÄ›tnovÃ©ho povstÃ¡nÃ­"/>
    <tag k="oneway" v="yes"/>
    <tag k="sidewalk" v="right"/>
    <tag k="source" v="bing;gps"/>
    <tag k="surface" v="asphalt"/>
  </way>
  <way id="1009303363" version="3" timestamp="2024-10-23T09:33:51Z" changeset="158244179" uid="718054" user="Piskvor">
    <nd ref="6703020918"/>
    <nd ref="3812344172"/>
    <tag k="highway" v="residential"/>
    <tag k="name" v="KvÄ›tnovÃ©ho povstÃ¡nÃ­"/>
    <tag k="oneway" v="yes"/>
    <tag k="sidewalk" v="left"/>
    <tag k="source" v="bing;gps"/>
    <tag k="surface" v="asphalt"/>
  </way>
  <way id="1128206177" version="1" timestamp="2023-01-08T11:49:34Z" changeset="131011016" uid="1189910" user="Milancer">
    <nd ref="3638076714"/>
    <nd ref="1838489790"/>
    <tag k="highway" v="tertiary"/>
    <tag k="lanes" v="2"/>
    <tag k="lit" v="yes"/>
    <tag k="maxspeed" v="50"/>
    <tag k="name" v="K DÃ¡lnici"/>
    <tag k="ref" v="00310"/>
    <tag k="source:ref" v="rsd_cr"/>
    <tag k="surface" v="asphalt"/>
  </way>
  <way id="1258436312" version="1" timestamp="2024-03-06T22:28:03Z" changeset="148317702" uid="9291527" user="marekhrabe">
    <nd ref="246533728"/>
    <nd ref="11698852510"/>
    <nd ref="11698852511"/>
    <nd ref="11698852512"/>
    <nd ref="11698852513"/>
    <tag k="highway" v="residential"/>
    <tag k="name" v="K potoku"/>
  </way>
  <way id="1328919159" version="1" timestamp="2024-10-28T23:38:48Z" changeset="158477663" uid="217057" user="Karry">
    <nd ref="3667740233"/>
    <nd ref="3812344172"/>
    <tag k="highway" v="residential"/>
    <tag k="name" v="Na Luka"/>
    <tag k="sidewalk" v="both"/>
    <tag k="surface" v="asphalt"/>
  </way>
  <way id="1332815178" version="1" timestamp="2024-11-11T09:15:35Z" changeset="158999626" uid="217057" user="Karry">
    <nd ref="12281446484"/>
    <nd ref="246533731"/>
    <nd ref="6703020940"/>
    <nd ref="356322825"/>
    <tag k="highway" v="tertiary"/>
    <tag k="lit" v="yes"/>
    <tag k="maxspeed" v="40"/>
    <tag k="name" v="KvÄ›tnovÃ©ho povstÃ¡nÃ­"/>
    <tag k="ref" v="3338"/>
    <tag k="sidewalk" v="separate"/>
    <tag k="source:maxspeed" v="sign"/>
    <tag k="source:ref" v="rsd_cr"/>
  </way>

</osm>
