<?xml version="1.0" encoding="UTF-8"?>
<osm version="0.6" generator="Overpass API 0.7.62.5 1bd436f1">
<note>The data included in this document is from www.openstreetmap.org. The data is made available under ODbL.</note>
<meta osm_base="2025-05-18T02:46:05Z" areas="2024-12-31T00:49:33Z"/>

  <node id="29447072" lat="50.0570485" lon="14.6252105" version="2" timestamp="2009-03-29T14:42:26Z" changeset="867555" uid="3516" user="BiIbo"/>
  <node id="34663543" lat="50.0700670" lon="14.6502087" version="2" timestamp="2009-03-29T15:30:28Z" changeset="867555" uid="3516" user="BiIbo"/>
  <node id="1626023919" lat="50.0599859" lon="14.6449828" version="3" timestamp="2025-03-15T22:29:55Z" changeset="163669756" uid="4018695" user="游뻟릖 Roman Horn칤k"/>
  <node id="1626024347" lat="50.0628315" lon="14.6198225" version="2" timestamp="2024-06-12T22:34:31Z" changeset="152607376" uid="469828" user="Luk치코 Jel칤nek"/>
  <node id="1626024852" lat="50.0723874" lon="14.6294695" version="1" timestamp="2012-02-09T22:35:27Z" changeset="10639034" uid="8007" user="vrabcak"/>
  <way id="4634977" version="16" timestamp="2023-10-17T17:55:00Z" changeset="142724013" uid="718054" user="Piskvor">
    <nd ref="29447072"/>
    <nd ref="5103783265"/>
    <nd ref="29447089"/>
    <nd ref="366937785"/>
    <nd ref="29447112"/>
    <nd ref="366905620"/>
    <nd ref="29447115"/>
    <nd ref="29447120"/>
    <tag k="highway" v="tertiary"/>
    <tag k="lane_markings" v="no"/>
    <tag k="maxspeed" v="50"/>
    <tag k="name" v="Pod Jankovem"/>
    <tag k="source:maxspeed" v="CZ:urban"/>
    <tag k="surface" v="asphalt"/>
  </way>
  <way id="24353791" version="17" timestamp="2025-04-14T20:44:50Z" changeset="164955459" uid="4887311" user="mapperue">
    <nd ref="34663433"/>
    <nd ref="1626024665"/>
    <nd ref="11808049540"/>
    <tag k="highway" v="tertiary"/>
    <tag k="lanes" v="2"/>
    <tag k="lit" v="yes"/>
    <tag k="maxspeed" v="40"/>
    <tag k="name" v="V lip치ch"/>
    <tag k="smoothness" v="excellent"/>
    <tag k="source:maxspeed" v="zone"/>
    <tag k="surface" v="asphalt"/>
  </way>
  <way id="32032423" version="21" timestamp="2025-03-06T09:45:41Z" changeset="163277744" uid="718054" user="Piskvor">
    <nd ref="34663449"/>
    <nd ref="5605463947"/>
    <nd ref="12301492477"/>
    <nd ref="8525652767"/>
    <nd ref="4956367202"/>
    <nd ref="8525652763"/>
    <tag k="bicycle" v="no"/>
    <tag k="highway" v="tertiary"/>
    <tag k="lanes" v="2"/>
    <tag k="lit" v="yes"/>
    <tag k="maxspeed" v="50"/>
    <tag k="name" v="V lip치ch"/>
    <tag k="note:bicycle" v="vjezd explicitn캩 zak치z치n zna캜kou B8"/>
    <tag k="ref" v="33310"/>
    <tag k="surface" v="asphalt"/>
  </way>
  <way id="32629443" version="12" timestamp="2024-12-17T14:13:02Z" changeset="160301238" uid="469828" user="Luk치코 Jel칤nek">
    <nd ref="366905602"/>
    <nd ref="366905601"/>
    <nd ref="366905600"/>
    <nd ref="366905599"/>
    <nd ref="366905598"/>
    <nd ref="366905596"/>
    <tag k="access" v="destination"/>
    <tag k="bicycle" v="yes"/>
    <tag k="foot" v="yes"/>
    <tag k="highway" v="residential"/>
    <tag k="lane_markings" v="no"/>
    <tag k="name" v="U Kosin콢"/>
    <tag k="oneway" v="yes"/>
    <tag k="smoothness" v="excellent"/>
    <tag k="source" v="cuzk:km"/>
    <tag k="surface" v="asphalt"/>
    <tag k="vehicle" v="destination"/>
  </way>
  <way id="32629447" version="4" timestamp="2021-02-26T15:47:03Z" changeset="100060884" uid="718054" user="Piskvor">
    <nd ref="239777317"/>
    <nd ref="5443292534"/>
    <nd ref="1626024259"/>
    <nd ref="5443292533"/>
    <tag k="highway" v="residential"/>
    <tag k="name" v="Ba캜et칤nsk치"/>
    <tag k="source:name" v="nameit/uir-adr"/>
  </way>
  <way id="32629452" version="12" timestamp="2022-11-15T08:45:02Z" changeset="128926283" uid="718054" user="Piskvor">
    <nd ref="366905614"/>
    <nd ref="1626024497"/>
    <tag k="bridge" v="yes"/>
    <tag k="bridge:structure" v="arch"/>
    <tag k="highway" v="tertiary"/>
    <tag k="lanes" v="1"/>
    <tag k="lanes:both_ways" v="1"/>
    <tag k="layer" v="1"/>
    <tag k="maxspeed" v="30"/>
    <tag k="maxspeed:type" v="sign"/>
    <tag k="maxweight" v="6"/>
    <tag k="maxweight:bus" v="no"/>
    <tag k="name" v="KDub캜i"/>
    <tag k="priority" v="forward"/>
    <tag k="surface" v="asphalt"/>
  </way>
  <way id="32630291" version="5" timestamp="2021-03-06T20:43:30Z" changeset="100553167" uid="25867" user="adamos">
    <nd ref="366907973"/>
    <nd ref="239673164"/>
    <nd ref="239777191"/>
    <tag k="highway" v="residential"/>
    <tag k="lit" v="yes"/>
    <tag k="name" v="Z치hornick치"/>
    <tag k="source:name" v="nameit/uir-adr"/>
    <tag k="surface" v="asphalt"/>
  </way>
  <way id="32630293" version="7" timestamp="2021-08-02T15:25:44Z" changeset="109040590" uid="718054" user="Piskvor">
    <nd ref="366907975"/>
    <nd ref="8974869068"/>
    <nd ref="8461510580"/>
    <nd ref="366907976"/>
    <nd ref="366907977"/>
    <nd ref="366907978"/>
    <nd ref="366907979"/>
    <nd ref="366907980"/>
    <nd ref="366907981"/>
    <nd ref="239673151"/>
    <tag k="highway" v="residential"/>
    <tag k="name" v="Panenky"/>
    <tag k="source" v="cuzk:km"/>
  </way>
  <way id="32630295" version="2" timestamp="2009-06-07T16:58:48Z" changeset="1450012" uid="119317" user="slimejs">
    <nd ref="366907976"/>
    <nd ref="366907982"/>
    <tag k="highway" v="residential"/>
    <tag k="name" v="Za Vinic칤"/>
    <tag k="source" v="cuzk:km"/>
  </way>
  <way id="32634808" version="8" timestamp="2024-11-08T09:27:44Z" changeset="158887611" uid="718054" user="Piskvor">
    <nd ref="34663543"/>
    <nd ref="366920914"/>
    <nd ref="366920915"/>
    <nd ref="5236915571"/>
    <nd ref="8532692082"/>
    <nd ref="8532692083"/>
    <tag k="hgv" v="no"/>
    <tag k="highway" v="residential"/>
    <tag k="lane_markings" v="no"/>
    <tag k="name" v="Je쬺vick치"/>
    <tag k="sidewalk" v="no"/>
    <tag k="smoothness" v="good"/>
    <tag k="source" v="cuzk:km"/>
    <tag k="surface" v="asphalt"/>
  </way>
  <way id="32635967" version="8" timestamp="2024-12-29T00:33:12Z" changeset="160734629" uid="469828" user="Luk치코 Jel칤nek">
    <nd ref="123866038"/>
    <nd ref="12459791551"/>
    <nd ref="366930101"/>
    <nd ref="12459791550"/>
    <nd ref="366930104"/>
    <nd ref="366930109"/>
    <nd ref="2810792295"/>
    <nd ref="366930113"/>
    <tag k="highway" v="residential"/>
    <tag k="lane_markings" v="no"/>
    <tag k="lit" v="yes"/>
    <tag k="name" v="U Flori치na"/>
    <tag k="sidewalk" v="left"/>
    <tag k="source" v="cuzk:km"/>
    <tag k="surface" v="asphalt"/>
  </way>
  <way id="32635968" version="6" timestamp="2022-02-27T06:45:14Z" changeset="117898178" uid="15185278" user="PanSamorost">
    <nd ref="366930163"/>
    <nd ref="366930117"/>
    <nd ref="366930121"/>
    <nd ref="366930125"/>
    <nd ref="366930130"/>
    <nd ref="366930104"/>
    <tag k="highway" v="residential"/>
    <tag k="lit" v="yes"/>
    <tag k="name" v="Pansk치 zahrada"/>
    <tag k="sidewalk" v="no"/>
    <tag k="source" v="cuzk:km"/>
    <tag k="surface" v="asphalt"/>
  </way>
  <way id="32635969" version="1" timestamp="2009-03-29T15:52:31Z" changeset="867555" uid="3516" user="BiIbo">
    <nd ref="366930160"/>
    <nd ref="366930157"/>
    <tag k="highway" v="residential"/>
    <tag k="source" v="cuzk:km"/>
  </way>
  <way id="32635970" version="6" timestamp="2025-04-24T13:07:12Z" changeset="165378726" uid="718054" user="Piskvor">
    <nd ref="366930171"/>
    <nd ref="366930168"/>
    <nd ref="2810792275"/>
    <nd ref="366930161"/>
    <nd ref="2810792276"/>
    <nd ref="366930163"/>
    <tag k="highway" v="residential"/>
    <tag k="lit" v="yes"/>
    <tag k="name" v="Pansk치 zahrada"/>
    <tag k="sidewalk" v="no"/>
    <tag k="source" v="cuzk:km"/>
    <tag k="surface" v="asphalt"/>
  </way>
  <way id="32635971" version="9" timestamp="2025-04-24T13:07:12Z" changeset="165378726" uid="718054" user="Piskvor">
    <nd ref="366930157"/>
    <nd ref="366930179"/>
    <nd ref="12459791545"/>
    <nd ref="366930181"/>
    <nd ref="12459791546"/>
    <nd ref="366930184"/>
    <nd ref="366930186"/>
    <nd ref="12459791547"/>
    <nd ref="366930161"/>
    <tag k="highway" v="residential"/>
    <tag k="lit" v="yes"/>
    <tag k="name" v="Pansk치 zahrada"/>
    <tag k="oneway" v="yes"/>
    <tag k="sidewalk" v="no"/>
    <tag k="source" v="cuzk:km"/>
    <tag k="surface" v="asphalt"/>
  </way>
  <way id="32637255" version="4" timestamp="2024-04-10T19:18:59Z" changeset="149835786" uid="12080464" user="Vojt캩ch Kade콏치bek">
    <nd ref="366940588"/>
    <nd ref="11808049541"/>
    <nd ref="1626024672"/>
    <tag k="access" v="private"/>
    <tag k="highway" v="residential"/>
    <tag k="name" v="Radostavick치"/>
    <tag k="source" v="cuzk:km"/>
  </way>
  <way id="32637256" version="4" timestamp="2018-02-28T18:47:28Z" changeset="56764799" uid="255936" user="NyanSten">
    <nd ref="34663493"/>
    <nd ref="366940589"/>
    <nd ref="366940590"/>
    <nd ref="1627145778"/>
    <nd ref="1627145769"/>
    <tag k="highway" v="residential"/>
    <tag k="name" v="KHo콏avce"/>
    <tag k="source" v="cuzk:km"/>
  </way>
  <way id="36805090" version="12" timestamp="2024-09-26T11:27:04Z" changeset="157123468" uid="718054" user="Piskvor">
    <nd ref="427827367"/>
    <nd ref="427827368"/>
    <nd ref="427827360"/>
    <nd ref="427827361"/>
    <nd ref="4325122844"/>
    <nd ref="4325122845"/>
    <nd ref="10086779591"/>
    <nd ref="4325122839"/>
    <nd ref="4325122838"/>
    <nd ref="427827362"/>
    <nd ref="427827363"/>
    <nd ref="427827364"/>
    <nd ref="427827365"/>
    <nd ref="427827367"/>
    <tag k="amenity" v="place_of_worship"/>
    <tag k="building" v="church"/>
    <tag k="building:architecture" v="classicism"/>
    <tag k="building:ruian:type" v="5"/>
    <tag k="denomination" v="roman_catholic"/>
    <tag k="heritage" v="3"/>
    <tag k="heritage:operator" v="npu"/>
    <tag k="name" v="Pov칳코en칤 svat칠ho K콏칤쬰"/>
    <tag k="official_name" v="Kostel Pov칳코en칤 svat칠ho K콏칤쬰"/>
    <tag k="organ" v="yes"/>
    <tag k="ref:ruian:building" v="49039962"/>
    <tag k="religion" v="christian"/>
    <tag k="service_times" v="Su 09:00; We,Fr 18:00; Th 09:00"/>
    <tag k="source" v="cuzk:ruian"/>
    <tag k="start_date" v="1806"/>
    <tag k="website" v="https://katalog.apha.cz/web/chramy/111"/>
    <tag k="wikidata" v="Q12030516"/>
    <tag k="wikipedia" v="cs:Kostel Pov칳코en칤 svat칠ho K콏칤쬰 (Kolod캩je)"/>
  </way>
  <way id="75720901" version="6" timestamp="2022-03-12T08:58:54Z" changeset="118390122" uid="15185278" user="PanSamorost">
    <nd ref="34663267"/>
    <nd ref="34663382"/>
    <tag k="highway" v="residential"/>
    <tag k="lit" v="yes"/>
    <tag k="name" v="Podz치meck치"/>
    <tag k="sidewalk" v="right"/>
    <tag k="surface" v="asphalt"/>
  </way>
  <way id="75720902" version="11" timestamp="2023-10-19T08:47:35Z" changeset="142801913" uid="718054" user="Piskvor">
    <nd ref="34663382"/>
    <nd ref="1591509538"/>
    <nd ref="11273995703"/>
    <nd ref="5104370353"/>
    <nd ref="34663383"/>
    <tag k="highway" v="residential"/>
    <tag k="lit" v="yes"/>
    <tag k="name" v="Lupenick치"/>
    <tag k="oneway" v="yes"/>
    <tag k="sidewalk" v="right"/>
    <tag k="source:name" v="nameit/uir-adr"/>
    <tag k="surface" v="asphalt"/>
  </way>
  <way id="105364636" version="16" timestamp="2025-03-15T22:29:55Z" changeset="163669756" uid="4018695" user="游뻟릖 Roman Horn칤k">
    <nd ref="34663382"/>
    <nd ref="8426380886"/>
    <nd ref="11479214293"/>
    <nd ref="123866038"/>
    <tag k="highway" v="residential"/>
    <tag k="lane_markings" v="no"/>
    <tag k="lit" v="yes"/>
    <tag k="name" v="Podz치meck치"/>
    <tag k="sidewalk" v="left"/>
    <tag k="smoothness" v="excellent"/>
    <tag k="surface" v="asphalt"/>
  </way>
  <way id="149660577" version="2" timestamp="2023-10-02T10:26:51Z" changeset="142032062" uid="718054" user="Piskvor">
    <nd ref="1626024498"/>
    <nd ref="1626024474"/>
    <nd ref="11233383350"/>
    <nd ref="1626024261"/>
    <nd ref="1626024256"/>
    <tag k="highway" v="residential"/>
    <tag k="name" v="Jana Jind콏icha"/>
  </way>
  <way id="149660579" version="3" timestamp="2022-12-25T01:17:57Z" changeset="130470700" uid="469828" user="Luk치코 Jel칤nek">
    <nd ref="1626024283"/>
    <nd ref="1626024275"/>
    <nd ref="10285356339"/>
    <nd ref="1626024097"/>
    <tag k="highway" v="residential"/>
    <tag k="name" v="J칤lovick치"/>
  </way>
  <way id="149660581" version="22" timestamp="2025-03-15T22:29:55Z" changeset="163669756" uid="4018695" user="游뻟릖 Roman Horn칤k">
    <nd ref="12088840957"/>
    <nd ref="5605440970"/>
    <nd ref="1626024319"/>
    <nd ref="34663491"/>
    <nd ref="34663492"/>
    <nd ref="12669105106"/>
    <nd ref="34663493"/>
    <nd ref="34663494"/>
    <nd ref="1626024571"/>
    <nd ref="1990964848"/>
    <nd ref="1626024621"/>
    <nd ref="1626024663"/>
    <nd ref="10285340056"/>
    <nd ref="291995743"/>
    <tag k="destination:forward" v="B캩chovice;Dube캜"/>
    <tag k="highway" v="tertiary"/>
    <tag k="lane_markings" v="no"/>
    <tag k="lanes" v="2"/>
    <tag k="lit" v="yes"/>
    <tag k="maxspeed" v="40"/>
    <tag k="name" v="KB캩chovic콢m"/>
    <tag k="sidewalk" v="both"/>
    <tag k="source:maxspeed" v="zone"/>
    <tag k="surface" v="asphalt"/>
  </way>
  <way id="149660583" version="7" timestamp="2021-03-02T17:10:36Z" changeset="100295145" uid="718054" user="Piskvor">
    <nd ref="1626024759"/>
    <nd ref="8480042280"/>
    <nd ref="366907975"/>
    <nd ref="1626024749"/>
    <nd ref="1626024747"/>
    <tag k="highway" v="residential"/>
    <tag k="lanes" v="2"/>
    <tag k="maxspeed" v="50"/>
    <tag k="maxweight" v="3.5"/>
    <tag k="name" v="KB캩chovic콢m"/>
  </way>
  <way id="149660586" version="16" timestamp="2025-03-15T22:29:55Z" changeset="163669756" uid="4018695" user="游뻟릖 Roman Horn칤k">
    <nd ref="1626024457"/>
    <nd ref="8473629310"/>
    <nd ref="1626024499"/>
    <nd ref="1990964825"/>
    <nd ref="1990964830"/>
    <nd ref="1626024569"/>
    <nd ref="1626024573"/>
    <nd ref="1626024581"/>
    <nd ref="123865541"/>
    <nd ref="1626024617"/>
    <nd ref="3468140931"/>
    <nd ref="3947362688"/>
    <nd ref="1626024656"/>
    <nd ref="1626024668"/>
    <nd ref="1626024670"/>
    <nd ref="1626024697"/>
    <nd ref="1626024707"/>
    <nd ref="1626024726"/>
    <nd ref="12669105113"/>
    <nd ref="1626024741"/>
    <nd ref="12669105114"/>
    <nd ref="12669105110"/>
    <nd ref="34663501"/>
    <tag k="cycleway:both" v="no"/>
    <tag k="highway" v="tertiary"/>
    <tag k="incline" v="up"/>
    <tag k="lanes" v="2"/>
    <tag k="lit" v="yes"/>
    <tag k="maxspeed" v="40"/>
    <tag k="maxspeed:type" v="sign"/>
    <tag k="name" v="KDub캜i"/>
    <tag k="smoothness" v="good"/>
    <tag k="source:maxspeed" v="zone"/>
    <tag k="surface" v="asphalt"/>
  </way>
  <way id="149660588" version="12" timestamp="2023-10-19T08:47:35Z" changeset="142801913" uid="718054" user="Piskvor">
    <nd ref="1626024497"/>
    <nd ref="7433242541"/>
    <nd ref="8426380914"/>
    <nd ref="11273995688"/>
    <nd ref="11273995690"/>
    <nd ref="8461510593"/>
    <nd ref="1289065504"/>
    <nd ref="8473629305"/>
    <nd ref="8473629306"/>
    <nd ref="123865469"/>
    <tag k="highway" v="tertiary"/>
    <tag k="lanes" v="2"/>
    <tag k="lit" v="yes"/>
    <tag k="maxspeed" v="30"/>
    <tag k="maxspeed:type" v="sign"/>
    <tag k="maxweight" v="6"/>
    <tag k="maxweight:bus" v="no"/>
    <tag k="name" v="KDub캜i"/>
    <tag k="surface" v="asphalt"/>
  </way>
  <way id="149660591" version="11" timestamp="2024-06-12T22:34:31Z" changeset="152607376" uid="469828" user="Luk치코 Jel칤nek">
    <nd ref="29447033"/>
    <nd ref="11976660144"/>
    <nd ref="366938256"/>
    <nd ref="366905621"/>
    <nd ref="123865355"/>
    <tag k="highway" v="tertiary"/>
    <tag k="lanes" v="2"/>
    <tag k="maxspeed" v="50"/>
    <tag k="maxweight" v="6"/>
    <tag k="name" v="KDub캜i"/>
    <tag k="source:maxspeed" v="CZ:urban"/>
    <tag k="surface" v="asphalt"/>
  </way>
  <way id="149660593" version="14" timestamp="2024-10-31T12:05:33Z" changeset="158578478" uid="718054" user="Piskvor">
    <nd ref="1626024212"/>
    <nd ref="12301492480"/>
    <nd ref="10060993078"/>
    <nd ref="1626024200"/>
    <nd ref="1626024188"/>
    <nd ref="1626024216"/>
    <nd ref="1626024222"/>
    <nd ref="1626024219"/>
    <nd ref="11517509734"/>
    <nd ref="1626024177"/>
    <tag k="highway" v="residential"/>
    <tag k="name" v="KJ칤zd치rn캩"/>
  </way>
  <way id="149660599" version="10" timestamp="2024-10-31T12:05:33Z" changeset="158578478" uid="718054" user="Piskvor">
    <nd ref="5319249101"/>
    <nd ref="8492558071"/>
    <nd ref="8492558072"/>
    <nd ref="1626024213"/>
    <tag k="bus" v="no"/>
    <tag k="highway" v="residential"/>
    <tag k="name" v="Kvasinsk치"/>
  </way>
  <way id="149660600" version="6" timestamp="2025-03-15T22:29:55Z" changeset="163669756" uid="4018695" user="游뻟릖 Roman Horn칤k">
    <nd ref="12669105109"/>
    <nd ref="1626024609"/>
    <nd ref="34663433"/>
    <tag k="hgv:6t" v="no"/>
    <tag k="highway" v="residential"/>
    <tag k="lit" v="yes"/>
    <tag k="name" v="Meinlinova"/>
    <tag k="surface" v="asphalt"/>
  </way>
  <way id="149660601" version="2" timestamp="2022-12-25T01:32:34Z" changeset="130470801" uid="469828" user="Luk치코 Jel칤nek">
    <nd ref="1626024181"/>
    <nd ref="10285367648"/>
    <nd ref="1626024234"/>
    <nd ref="1626024256"/>
    <nd ref="1626024364"/>
    <nd ref="1626024500"/>
    <nd ref="1626024502"/>
    <tag k="highway" v="residential"/>
    <tag k="name" v="Meinlinova"/>
  </way>
  <way id="149660602" version="8" timestamp="2025-03-15T22:29:55Z" changeset="163669756" uid="4018695" user="游뻟릖 Roman Horn칤k">
    <nd ref="1626023923"/>
    <nd ref="8480042313"/>
    <nd ref="7433242547"/>
    <nd ref="1626023932"/>
    <tag k="highway" v="tertiary"/>
    <tag k="lanes" v="2"/>
    <tag k="maxspeed" v="50"/>
    <tag k="name" v="Podz치meck치"/>
    <tag k="source:maxspeed" v="CZ:urban"/>
    <tag k="surface" v="asphalt"/>
  </way>
  <way id="149660604" version="3" timestamp="2025-03-15T22:29:55Z" changeset="163669756" uid="4018695" user="游뻟릖 Roman Horn칤k">
    <nd ref="1626024471"/>
    <nd ref="1626024460"/>
    <nd ref="1626024384"/>
    <nd ref="1626024353"/>
    <nd ref="1626024350"/>
    <nd ref="1626024297"/>
    <nd ref="1626024283"/>
    <nd ref="12669105107"/>
    <tag k="highway" v="residential"/>
    <tag k="maxweight" v="6"/>
    <tag k="name" v="Ro코ovick치"/>
  </way>
  <way id="149660605" version="1" timestamp="2012-02-09T22:35:36Z" changeset="10639034" uid="8007" user="vrabcak">
    <nd ref="1626024562"/>
    <nd ref="1626024545"/>
    <nd ref="1626024400"/>
    <nd ref="1626024364"/>
    <tag k="highway" v="residential"/>
    <tag k="name" v="Savojsk치"/>
  </way>
  <way id="149660606" version="8" timestamp="2025-04-24T13:07:12Z" changeset="165378726" uid="718054" user="Piskvor">
    <nd ref="239777305"/>
    <nd ref="366905602"/>
    <nd ref="239777381"/>
    <nd ref="239777392"/>
    <tag k="access" v="destination"/>
    <tag k="bicycle" v="yes"/>
    <tag k="foot" v="yes"/>
    <tag k="highway" v="residential"/>
    <tag k="incline" v="up"/>
    <tag k="name" v="Sedlo켿ovsk치"/>
    <tag k="source:name" v="nameit/uir-adr"/>
    <tag k="vehicle" v="destination"/>
  </way>
  <way id="149660608" version="6" timestamp="2022-03-11T05:21:20Z" changeset="118347593" uid="15185278" user="PanSamorost">
    <nd ref="366930020"/>
    <nd ref="1626024002"/>
    <nd ref="366930033"/>
    <nd ref="1626023974"/>
    <tag k="highway" v="residential"/>
    <tag k="lit" v="yes"/>
    <tag k="name" v="Sedlo켿ovsk치"/>
    <tag k="sidewalk" v="no"/>
    <tag k="source:name" v="nameit/uir-adr"/>
    <tag k="surface" v="asphalt"/>
  </way>
  <way id="149660609" version="2" timestamp="2022-12-25T01:17:57Z" changeset="130470700" uid="469828" user="Luk치코 Jel칤nek">
    <nd ref="1626024350"/>
    <nd ref="1626024349"/>
    <nd ref="10285356341"/>
    <nd ref="1626024213"/>
    <tag k="highway" v="residential"/>
    <tag k="name" v="Sn캩쬹치"/>
  </way>
  <way id="149660610" version="9" timestamp="2024-12-20T16:09:29Z" changeset="160439951" uid="469828" user="Luk치코 Jel칤nek">
    <nd ref="1626024457"/>
    <nd ref="1626024454"/>
    <tag k="access" v="destination"/>
    <tag k="bicycle" v="yes"/>
    <tag k="foot" v="yes"/>
    <tag k="highway" v="residential"/>
    <tag k="lanes" v="1"/>
    <tag k="name" v="Solnick치"/>
    <tag k="sidewalk" v="no"/>
    <tag k="surface" v="asphalt"/>
  </way>
  <way id="149660612" version="14" timestamp="2025-03-15T22:29:55Z" changeset="163669756" uid="4018695" user="游뻟릖 Roman Horn칤k">
    <nd ref="1626023954"/>
    <nd ref="5104369167"/>
    <nd ref="1626023970"/>
    <tag k="cycleway:both" v="no"/>
    <tag k="highway" v="tertiary"/>
    <tag k="lanes" v="2"/>
    <tag k="lit" v="yes"/>
    <tag k="maxspeed" v="30"/>
    <tag k="name" v="V lip치ch"/>
    <tag k="sidewalk" v="both"/>
    <tag k="source:maxspeed" v="sign"/>
    <tag k="surface" v="asphalt"/>
  </way>
  <way id="149660613" version="15" timestamp="2025-03-15T22:29:55Z" changeset="163669756" uid="4018695" user="游뻟릖 Roman Horn칤k">
    <nd ref="5319249099"/>
    <nd ref="1626024313"/>
    <nd ref="1626024471"/>
    <nd ref="11808049559"/>
    <nd ref="366940588"/>
    <nd ref="34663433"/>
    <tag k="destination:forward" v="칔jezd nad Lesy"/>
    <tag k="highway" v="tertiary"/>
    <tag k="lanes" v="2"/>
    <tag k="lit" v="yes"/>
    <tag k="maxspeed" v="40"/>
    <tag k="name" v="V lip치ch"/>
    <tag k="smoothness" v="good"/>
    <tag k="source:maxspeed" v="zone"/>
    <tag k="surface" v="asphalt"/>
  </way>
  <way id="149660614" version="7" timestamp="2024-12-17T14:13:16Z" changeset="160301254" uid="469828" user="Luk치코 Jel칤nek">
    <nd ref="123865541"/>
    <nd ref="8473636726"/>
    <nd ref="3468140929"/>
    <nd ref="239777203"/>
    <nd ref="366940594"/>
    <nd ref="3468140923"/>
    <tag k="highway" v="residential"/>
    <tag k="lit" v="no"/>
    <tag k="name" v="Na Mezi"/>
    <tag k="surface" v="asphalt"/>
  </way>
  <way id="149660626" version="9" timestamp="2025-02-06T11:12:15Z" changeset="162203757" uid="718054" user="Piskvor">
    <nd ref="1626023932"/>
    <nd ref="5104370356"/>
    <tag k="highway" v="tertiary"/>
    <tag k="lanes" v="2"/>
    <tag k="maxspeed" v="30"/>
    <tag k="name" v="Podz치meck치"/>
    <tag k="source:maxspeed" v="sign"/>
  </way>
  <way id="149660636" version="2" timestamp="2015-05-15T09:48:22Z" changeset="31166920" uid="19173" user="wopixe">
    <nd ref="1626024609"/>
    <nd ref="1626024562"/>
    <nd ref="1626024498"/>
    <nd ref="1626024420"/>
    <nd ref="1626024384"/>
    <tag k="highway" v="residential"/>
    <tag k="name" v="Martinelliho"/>
  </way>
  <way id="149660637" version="4" timestamp="2022-12-25T01:17:57Z" changeset="130470700" uid="469828" user="Luk치코 Jel칤nek">
    <nd ref="1626024181"/>
    <nd ref="1626024170"/>
    <nd ref="10285356384"/>
    <nd ref="10285356385"/>
    <nd ref="10285356386"/>
    <nd ref="10285356383"/>
    <nd ref="1626024141"/>
    <nd ref="10285356387"/>
    <nd ref="1626024151"/>
    <nd ref="10285356388"/>
    <nd ref="366930044"/>
    <tag k="highway" v="residential"/>
    <tag k="maxweight" v="6"/>
    <tag k="name" v="Kvasinsk치"/>
  </way>
  <way id="149660638" version="10" timestamp="2023-10-19T08:47:35Z" changeset="142801913" uid="718054" user="Piskvor">
    <nd ref="123865420"/>
    <nd ref="7433242545"/>
    <nd ref="1626024542"/>
    <nd ref="11273995701"/>
    <nd ref="11273995700"/>
    <nd ref="8672783915"/>
    <nd ref="1626024559"/>
    <nd ref="1626024566"/>
    <nd ref="9533340103"/>
    <nd ref="1626024606"/>
    <tag k="highway" v="residential"/>
    <tag k="motor_vehicle" v="destination"/>
    <tag k="name" v="Na Prost콏edn칤 cest캩"/>
    <tag k="surface" v="asphalt"/>
  </way>
  <way id="149660639" version="6" timestamp="2024-12-17T14:13:16Z" changeset="160301254" uid="469828" user="Luk치코 Jel칤nek">
    <nd ref="239673164"/>
    <nd ref="239673151"/>
    <nd ref="8461510603"/>
    <nd ref="3802091837"/>
    <nd ref="8461510569"/>
    <nd ref="1626024707"/>
    <tag k="highway" v="residential"/>
    <tag k="lit" v="yes"/>
    <tag k="name" v="Z치hornick치"/>
  </way>
  <way id="149660640" version="8" timestamp="2024-06-12T22:34:31Z" changeset="152607376" uid="469828" user="Luk치코 Jel칤nek">
    <nd ref="1626024347"/>
    <nd ref="11976660139"/>
    <nd ref="29447001"/>
    <nd ref="11976660140"/>
    <nd ref="1332601447"/>
    <tag k="highway" v="tertiary"/>
    <tag k="lanes" v="2"/>
    <tag k="lit" v="no"/>
    <tag k="maxspeed" v="70"/>
    <tag k="maxspeed:type" v="sign"/>
    <tag k="name" v="KDub캜i"/>
    <tag k="surface" v="asphalt"/>
  </way>
  <way id="149660648" version="5" timestamp="2023-01-07T19:42:50Z" changeset="130994128" uid="1189910" user="Milancer">
    <nd ref="123865469"/>
    <nd ref="8426380896"/>
    <nd ref="239777305"/>
    <nd ref="239777317"/>
    <nd ref="366905611"/>
    <nd ref="366930015"/>
    <nd ref="1402286247"/>
    <nd ref="366930020"/>
    <tag k="access" v="destination"/>
    <tag k="bicycle" v="yes"/>
    <tag k="foot" v="yes"/>
    <tag k="highway" v="residential"/>
    <tag k="name" v="칔vozov치"/>
    <tag k="source:name" v="cuzk:km"/>
  </way>
  <way id="149660650" version="3" timestamp="2025-03-15T22:29:55Z" changeset="163669756" uid="4018695" user="游뻟릖 Roman Horn칤k">
    <nd ref="1626023970"/>
    <nd ref="12301492484"/>
    <nd ref="12669105104"/>
    <nd ref="1626023984"/>
    <nd ref="12669105105"/>
    <nd ref="1626024004"/>
    <nd ref="1626024010"/>
    <nd ref="1626024044"/>
    <nd ref="1626024050"/>
    <nd ref="1626024047"/>
    <nd ref="1626024014"/>
    <tag k="highway" v="residential"/>
    <tag k="name" v="마chovsk치"/>
  </way>
  <way id="183653332" version="13" timestamp="2022-02-27T06:52:27Z" changeset="117898176" uid="15185278" user="PanSamorost">
    <nd ref="1626023970"/>
    <nd ref="7433242546"/>
    <nd ref="8461510614"/>
    <nd ref="6785028346"/>
    <nd ref="1626024212"/>
    <nd ref="5319249101"/>
    <tag k="highway" v="tertiary"/>
    <tag k="lanes" v="2"/>
    <tag k="maxspeed" v="40"/>
    <tag k="name" v="V lip치ch"/>
    <tag k="sidewalk:left" v="yes"/>
    <tag k="sidewalk:right" v="separate"/>
    <tag k="source:maxspeed" v="zone"/>
    <tag k="surface" v="asphalt"/>
  </way>
  <way id="212113638" version="8" timestamp="2024-12-17T14:13:15Z" changeset="160301242" uid="469828" user="Luk치코 Jel칤nek">
    <nd ref="1626024747"/>
    <nd ref="5104372924"/>
    <nd ref="34663501"/>
    <tag k="highway" v="residential"/>
    <tag k="lanes" v="2"/>
    <tag k="lit" v="no"/>
    <tag k="maxspeed" v="40"/>
    <tag k="maxweight" v="3.5"/>
    <tag k="name" v="KB캩chovic콢m"/>
    <tag k="source:maxspeed" v="zone"/>
    <tag k="surface" v="asphalt"/>
  </way>
  <way id="276484543" version="6" timestamp="2024-12-29T00:33:12Z" changeset="160734629" uid="469828" user="Luk치코 Jel칤nek">
    <nd ref="366930104"/>
    <nd ref="366930136"/>
    <nd ref="2810793205"/>
    <nd ref="2810793204"/>
    <nd ref="366930142"/>
    <nd ref="366930145"/>
    <nd ref="12459791548"/>
    <nd ref="366930148"/>
    <nd ref="12459791549"/>
    <nd ref="366930151"/>
    <nd ref="366930113"/>
    <tag k="highway" v="residential"/>
    <tag k="lit" v="yes"/>
    <tag k="name" v="Pansk칳 dv콢r"/>
    <tag k="sidewalk" v="no"/>
    <tag k="source" v="cuzk:km"/>
    <tag k="surface" v="asphalt"/>
  </way>
  <way id="276484544" version="4" timestamp="2022-02-27T06:44:46Z" changeset="117898178" uid="15185278" user="PanSamorost">
    <nd ref="366930113"/>
    <nd ref="366930154"/>
    <nd ref="366930157"/>
    <tag k="highway" v="residential"/>
    <tag k="lit" v="yes"/>
    <tag k="name" v="U Flori치na"/>
    <tag k="sidewalk" v="both"/>
    <tag k="source" v="cuzk:km"/>
    <tag k="surface" v="asphalt"/>
  </way>
  <way id="276484548" version="6" timestamp="2025-04-24T13:07:12Z" changeset="165378726" uid="718054" user="Piskvor">
    <nd ref="2810793242"/>
    <nd ref="4325122933"/>
    <nd ref="2810793240"/>
    <nd ref="4325122872"/>
    <nd ref="2810793227"/>
    <nd ref="2810793229"/>
    <nd ref="2810793241"/>
    <nd ref="2810793243"/>
    <nd ref="2810793244"/>
    <nd ref="2810793245"/>
    <nd ref="2810793251"/>
    <nd ref="2810793250"/>
    <nd ref="2810793255"/>
    <nd ref="2810793254"/>
    <nd ref="2810793265"/>
    <nd ref="4325123150"/>
    <nd ref="4325123138"/>
    <nd ref="2810793263"/>
    <nd ref="4325123084"/>
    <nd ref="2810793252"/>
    <nd ref="2810793253"/>
    <nd ref="892673068"/>
    <nd ref="8426380864"/>
    <nd ref="2810793242"/>
    <tag k="access" v="private"/>
    <tag k="building" v="residential"/>
    <tag k="building:flats" v="2"/>
    <tag k="building:levels" v="2"/>
    <tag k="building:ruian:type" v="3"/>
    <tag k="castle_type" v="stately"/>
    <tag k="historic" v="castle"/>
    <tag k="name" v="z치mek Kolod캩je"/>
    <tag k="ref:ruian:building" v="21508887"/>
    <tag k="sorting_name" v="Kolod캩je"/>
    <tag k="source" v="cuzk:ruian"/>
    <tag k="wikidata" v="Q12029838"/>
    <tag k="wikimedia_commons" v="Category:Kolod캩je Castle"/>
    <tag k="wikipedia" v="cs:Kolod캩je (z치mek)"/>
  </way>
  <way id="293404567" version="10" timestamp="2024-06-12T22:34:31Z" changeset="152607376" uid="469828" user="Luk치코 Jel칤nek">
    <nd ref="1332601447"/>
    <nd ref="11976660141"/>
    <nd ref="29447017"/>
    <nd ref="11976660142"/>
    <nd ref="10185344553"/>
    <tag k="highway" v="tertiary"/>
    <tag k="lanes" v="2"/>
    <tag k="maxspeed" v="70"/>
    <tag k="maxspeed:type" v="sign"/>
    <tag k="name" v="KDub캜i"/>
    <tag k="surface" v="asphalt"/>
  </way>
  <way id="345213508" version="6" timestamp="2024-12-17T14:13:00Z" changeset="160301238" uid="469828" user="Luk치코 Jel칤nek">
    <nd ref="291995721"/>
    <nd ref="1626024109"/>
    <nd ref="1626024092"/>
    <nd ref="366905610"/>
    <nd ref="291995742"/>
    <nd ref="366930025"/>
    <nd ref="366930028"/>
    <nd ref="366930020"/>
    <tag k="highway" v="residential"/>
    <tag k="lane_markings" v="no"/>
    <tag k="name" v="KJ칤zd치rn캩"/>
    <tag k="smoothness" v="excellent"/>
    <tag k="source:name" v="nameit/uir-adr"/>
    <tag k="surface" v="asphalt"/>
  </way>
  <way id="376826334" version="2" timestamp="2018-02-28T18:47:27Z" changeset="56764799" uid="255936" user="NyanSten">
    <nd ref="239673151"/>
    <nd ref="3802091838"/>
    <nd ref="3802091839"/>
    <tag k="highway" v="residential"/>
    <tag k="name" v="KPanenk치m"/>
    <tag k="source" v="cuzk:km"/>
  </way>
  <way id="377968863" version="7" timestamp="2022-12-25T01:17:57Z" changeset="130470700" uid="469828" user="Luk치코 Jel칤nek">
    <nd ref="1626024213"/>
    <nd ref="1626024148"/>
    <nd ref="10285356340"/>
    <nd ref="8504504538"/>
    <nd ref="1626024133"/>
    <nd ref="1626024103"/>
    <nd ref="1626024097"/>
    <nd ref="10285356338"/>
    <nd ref="1626024095"/>
    <nd ref="8492558073"/>
    <nd ref="8504504537"/>
    <nd ref="2811285701"/>
    <nd ref="10285356337"/>
    <nd ref="1626024144"/>
    <nd ref="1626024174"/>
    <nd ref="1626024181"/>
    <tag k="highway" v="residential"/>
    <tag k="name" v="Kvasinsk치"/>
  </way>
  <way id="550739852" version="11" timestamp="2025-03-15T22:29:55Z" changeset="163669756" uid="4018695" user="游뻟릖 Roman Horn칤k">
    <nd ref="291995743"/>
    <nd ref="366907974"/>
    <nd ref="5104372923"/>
    <nd ref="12669105112"/>
    <nd ref="12669105111"/>
    <nd ref="34663501"/>
    <tag k="highway" v="tertiary"/>
    <tag k="lane_markings" v="no"/>
    <tag k="lanes" v="2"/>
    <tag k="lit" v="yes"/>
    <tag k="maxspeed" v="40"/>
    <tag k="name" v="KB캩chovic콢m"/>
    <tag k="smoothness" v="intermediate"/>
    <tag k="source:maxspeed" v="zone"/>
    <tag k="surface" v="asphalt"/>
  </way>
  <way id="565100894" version="9" timestamp="2025-04-24T13:07:12Z" changeset="165378726" uid="718054" user="Piskvor">
    <nd ref="239777392"/>
    <nd ref="239777403"/>
    <nd ref="1626024227"/>
    <tag k="access" v="destination"/>
    <tag k="bicycle" v="yes"/>
    <tag k="foot" v="yes"/>
    <tag k="highway" v="residential"/>
    <tag k="incline" v="up"/>
    <tag k="lane_markings" v="no"/>
    <tag k="name" v="Sedlo켿ovsk치"/>
    <tag k="oneway" v="no"/>
    <tag k="source:name" v="nameit/uir-adr"/>
    <tag k="surface" v="asphalt"/>
    <tag k="vehicle" v="destination"/>
  </way>
  <way id="586716518" version="12" timestamp="2024-10-31T12:05:33Z" changeset="158578478" uid="718054" user="Piskvor">
    <nd ref="12088840964"/>
    <nd ref="7433242542"/>
    <nd ref="12088840962"/>
    <nd ref="12088840955"/>
    <tag k="highway" v="tertiary"/>
    <tag k="lanes" v="2"/>
    <tag k="maxspeed" v="40"/>
    <tag k="name" v="V lip치ch"/>
    <tag k="oneway" v="yes"/>
    <tag k="sidewalk" v="both"/>
    <tag k="source:maxspeed" v="zone"/>
    <tag k="surface" v="asphalt"/>
  </way>
  <way id="593380079" version="5" timestamp="2025-03-15T22:29:55Z" changeset="163669756" uid="4018695" user="游뻟릖 Roman Horn칤k">
    <nd ref="5104370356"/>
    <nd ref="5104369163"/>
    <nd ref="12669074199"/>
    <nd ref="12669074200"/>
    <nd ref="12669105103"/>
    <nd ref="34663267"/>
    <tag k="highway" v="tertiary"/>
    <tag k="lanes" v="2"/>
    <tag k="maxspeed" v="30"/>
    <tag k="name" v="Podz치meck치"/>
    <tag k="source:maxspeed" v="sign"/>
    <tag k="surface" v="asphalt"/>
  </way>
  <way id="593380080" version="7" timestamp="2025-02-01T22:33:40Z" changeset="162028263" uid="19409497" user="Honzaiky">
    <nd ref="34663383"/>
    <nd ref="12549957017"/>
    <nd ref="1626023915"/>
    <nd ref="1626023904"/>
    <nd ref="7367038131"/>
    <nd ref="10086779612"/>
    <nd ref="1626023900"/>
    <tag k="highway" v="residential"/>
    <tag k="lit" v="yes"/>
    <tag k="name" v="Lupenick치"/>
    <tag k="sidewalk" v="right"/>
    <tag k="source:name" v="nameit/uir-adr"/>
    <tag k="surface" v="asphalt"/>
  </way>
  <way id="719604969" version="3" timestamp="2020-08-04T07:38:16Z" changeset="88913147" uid="8976801" user="majkaz_imports">
    <nd ref="1626024177"/>
    <nd ref="1626024146"/>
    <nd ref="1626024139"/>
    <nd ref="1626024136"/>
    <nd ref="291995721"/>
    <tag k="highway" v="residential"/>
    <tag k="name" v="KJ칤zd치rn캩"/>
  </way>
  <way id="719604970" version="8" timestamp="2024-12-17T14:12:59Z" changeset="160301238" uid="469828" user="Luk치코 Jel칤nek">
    <nd ref="123866038"/>
    <nd ref="1626023974"/>
    <tag k="highway" v="residential"/>
    <tag k="lane_markings" v="no"/>
    <tag k="lit" v="yes"/>
    <tag k="name" v="Podz치meck치"/>
    <tag k="sidewalk" v="no"/>
    <tag k="smoothness" v="bad"/>
    <tag k="surface" v="sett"/>
  </way>
  <way id="805152504" version="2" timestamp="2024-04-10T19:18:59Z" changeset="149835786" uid="12080464" user="Vojt캩ch Kade콏치bek">
    <nd ref="1626024571"/>
    <nd ref="11808049550"/>
    <nd ref="1626024693"/>
    <tag k="highway" v="residential"/>
    <tag k="name" v="De코tn치"/>
  </way>
  <way id="911273374" version="1" timestamp="2021-02-26T15:47:03Z" changeset="100060884" uid="718054" user="Piskvor">
    <nd ref="8461510603"/>
    <nd ref="8461510602"/>
    <tag k="highway" v="residential"/>
    <tag k="name" v="Sitensk칠ho"/>
  </way>
  <way id="912865605" version="3" timestamp="2023-06-26T12:49:25Z" changeset="137791749" uid="718054" user="Piskvor">
    <nd ref="123865355"/>
    <nd ref="7433242543"/>
    <nd ref="8461510597"/>
    <nd ref="8480042315"/>
    <tag k="highway" v="tertiary"/>
    <tag k="lanes" v="2"/>
    <tag k="maxspeed" v="50"/>
    <tag k="maxweight" v="6"/>
    <tag k="name" v="KDub캜i"/>
    <tag k="source:maxspeed" v="CZ:urban"/>
    <tag k="surface" v="asphalt"/>
  </way>
  <way id="912865606" version="1" timestamp="2021-03-02T17:10:36Z" changeset="100295145" uid="718054" user="Piskvor">
    <nd ref="8480042315"/>
    <nd ref="123865377"/>
    <nd ref="123865400"/>
    <nd ref="123865420"/>
    <nd ref="8426380899"/>
    <nd ref="123865431"/>
    <nd ref="366905614"/>
    <tag k="highway" v="tertiary"/>
    <tag k="lanes" v="2"/>
    <tag k="maxspeed" v="40"/>
    <tag k="maxspeed:type" v="sign"/>
    <tag k="maxweight" v="6"/>
    <tag k="name" v="KDub캜i"/>
    <tag k="source:maxspeed" v="zone"/>
    <tag k="surface" v="asphalt"/>
  </way>
  <way id="915550291" version="1" timestamp="2021-03-10T17:40:54Z" changeset="100793540" uid="718054" user="Piskvor">
    <nd ref="1626023919"/>
    <nd ref="1626023923"/>
    <tag k="highway" v="tertiary"/>
    <tag k="lanes" v="2"/>
    <tag k="maxspeed" v="50"/>
    <tag k="name" v="Podz치meck치"/>
    <tag k="source:maxspeed" v="CZ:urban"/>
  </way>
  <way id="965945403" version="1" timestamp="2021-07-20T14:04:16Z" changeset="108323575" uid="527259" user="Vratislav Filler">
    <nd ref="1626024606"/>
    <nd ref="7433242544"/>
    <tag k="highway" v="residential"/>
    <tag k="motor_vehicle" v="destination"/>
    <tag k="name" v="Na Prost콏edn칤 cest캩"/>
    <tag k="surface" v="asphalt"/>
  </way>
  <way id="969838209" version="2" timestamp="2023-03-10T08:51:59Z" changeset="133508914" uid="15107215" user="B치ra Soukupov치">
    <nd ref="1626024852"/>
    <nd ref="7853669103"/>
    <nd ref="1626024810"/>
    <nd ref="4956358515"/>
    <nd ref="10725355273"/>
    <nd ref="1626024804"/>
    <nd ref="1626024799"/>
    <nd ref="1626024781"/>
    <nd ref="7485752906"/>
    <nd ref="1626024766"/>
    <nd ref="1626024759"/>
    <tag k="highway" v="unclassified"/>
    <tag k="lane_markings" v="no"/>
    <tag k="lanes" v="1"/>
    <tag k="maxspeed" v="50"/>
    <tag k="maxweight" v="3.5"/>
  </way>
  <way id="1035566854" version="4" timestamp="2022-02-27T06:42:46Z" changeset="117898178" uid="15185278" user="PanSamorost">
    <nd ref="366930163"/>
    <nd ref="366930157"/>
    <tag k="highway" v="residential"/>
    <tag k="lit" v="yes"/>
    <tag k="name" v="Pansk치 zahrada"/>
    <tag k="sidewalk" v="right"/>
    <tag k="source" v="cuzk:km"/>
    <tag k="surface" v="asphalt"/>
  </way>
  <way id="1084610156" version="2" timestamp="2023-10-02T10:26:51Z" changeset="142032062" uid="718054" user="Piskvor">
    <nd ref="34663543"/>
    <nd ref="263910627"/>
    <tag k="bicycle:backward" v="use_sidepath"/>
    <tag k="bicycle:forward" v="yes"/>
    <tag k="highway" v="tertiary"/>
    <tag k="lanes" v="2"/>
    <tag k="maxspeed" v="30"/>
    <tag k="name" v="V lip치ch"/>
    <tag k="note" v="cyklo z Je쬺vick칠 bez z치kazu"/>
    <tag k="ref" v="33310"/>
    <tag k="surface" v="asphalt"/>
  </way>
  <way id="1113274976" version="2" timestamp="2024-06-12T22:34:31Z" changeset="152607376" uid="469828" user="Luk치코 Jel칤nek">
    <nd ref="10185344553"/>
    <nd ref="11976660143"/>
    <nd ref="5103783268"/>
    <nd ref="8249436486"/>
    <nd ref="29447033"/>
    <tag k="highway" v="tertiary"/>
    <tag k="lanes" v="2"/>
    <tag k="maxspeed" v="50"/>
    <tag k="name" v="KDub캜i"/>
    <tag k="source:maxspeed" v="CZ:urban"/>
    <tag k="surface" v="asphalt"/>
  </way>
  <way id="1113274977" version="3" timestamp="2024-12-17T14:13:17Z" changeset="160301254" uid="469828" user="Luk치코 Jel칤nek">
    <nd ref="123865469"/>
    <nd ref="8473629307"/>
    <nd ref="8473629308"/>
    <nd ref="1626024376"/>
    <nd ref="8480042279"/>
    <nd ref="1626024433"/>
    <nd ref="8473629309"/>
    <nd ref="1626024457"/>
    <tag k="cycleway:both" v="no"/>
    <tag k="highway" v="tertiary"/>
    <tag k="incline" v="up"/>
    <tag k="lanes" v="2"/>
    <tag k="lit" v="yes"/>
    <tag k="maxspeed" v="30"/>
    <tag k="maxspeed:type" v="sign"/>
    <tag k="name" v="KDub캜i"/>
    <tag k="smoothness" v="intermediate"/>
    <tag k="source:maxspeed" v="zone"/>
    <tag k="surface" v="asphalt"/>
  </way>
  <way id="1128063117" version="2" timestamp="2024-12-20T16:09:29Z" changeset="160439951" uid="469828" user="Luk치코 Jel칤nek">
    <nd ref="1626024454"/>
    <nd ref="1626024434"/>
    <nd ref="1626024427"/>
    <nd ref="1626024371"/>
    <nd ref="1626024351"/>
    <nd ref="1626024305"/>
    <nd ref="1626024303"/>
    <nd ref="1626024301"/>
    <nd ref="1289065505"/>
    <nd ref="123866170"/>
    <nd ref="123866180"/>
    <nd ref="123866190"/>
    <nd ref="123866201"/>
    <nd ref="5319249098"/>
    <nd ref="5319249101"/>
    <tag k="access" v="destination"/>
    <tag k="bicycle" v="yes"/>
    <tag k="foot" v="yes"/>
    <tag k="highway" v="residential"/>
    <tag k="lanes" v="1"/>
    <tag k="name" v="Solnick치"/>
    <tag k="sidewalk" v="no"/>
    <tag k="surface" v="asphalt"/>
  </way>
  <way id="1128063118" version="4" timestamp="2024-12-17T14:13:01Z" changeset="160301238" uid="469828" user="Luk치코 Jel칤nek">
    <nd ref="366905596"/>
    <nd ref="366905595"/>
    <nd ref="366905594"/>
    <nd ref="1626024227"/>
    <tag k="access" v="destination"/>
    <tag k="bicycle" v="yes"/>
    <tag k="foot" v="yes"/>
    <tag k="highway" v="residential"/>
    <tag k="lane_markings" v="no"/>
    <tag k="name" v="U Kosin콢"/>
    <tag k="oneway" v="yes"/>
    <tag k="smoothness" v="excellent"/>
    <tag k="source" v="cuzk:km"/>
    <tag k="surface" v="asphalt"/>
    <tag k="vehicle" v="destination"/>
  </way>
  <way id="1128063119" version="4" timestamp="2024-12-17T14:13:00Z" changeset="160301238" uid="469828" user="Luk치코 Jel칤nek">
    <nd ref="1626024227"/>
    <nd ref="1626024185"/>
    <nd ref="291995721"/>
    <tag k="access" v="destination"/>
    <tag k="bicycle" v="yes"/>
    <tag k="foot" v="yes"/>
    <tag k="highway" v="residential"/>
    <tag k="lane_markings" v="no"/>
    <tag k="name" v="Sedlo켿ovsk치"/>
    <tag k="oneway" v="no"/>
    <tag k="smoothness" v="excellent"/>
    <tag k="source:name" v="nameit/uir-adr"/>
    <tag k="surface" v="asphalt"/>
    <tag k="vehicle" v="destination"/>
  </way>
  <way id="1212474804" version="1" timestamp="2023-10-02T10:26:51Z" changeset="142032062" uid="718054" user="Piskvor">
    <nd ref="366930044"/>
    <nd ref="11233383376"/>
    <tag k="highway" v="residential"/>
    <tag k="name" v="Heckelova"/>
    <tag k="source" v="cuzk:km"/>
  </way>
  <way id="1216305147" version="2" timestamp="2025-03-15T22:29:55Z" changeset="163669756" uid="4018695" user="游뻟릖 Roman Horn칤k">
    <nd ref="29447049"/>
    <nd ref="2810792262"/>
    <nd ref="366905617"/>
    <nd ref="29447072"/>
    <tag k="highway" v="tertiary"/>
    <tag k="lane_markings" v="no"/>
    <tag k="maxspeed" v="50"/>
    <tag k="maxspeed:advisory" v="30"/>
    <tag k="name" v="Pod Jankovem"/>
    <tag k="source:maxspeed" v="CZ:urban"/>
    <tag k="surface" v="asphalt"/>
  </way>
  <way id="1216305148" version="3" timestamp="2025-03-15T22:29:55Z" changeset="163669756" uid="4018695" user="游뻟릖 Roman Horn칤k">
    <nd ref="29447033"/>
    <nd ref="366905615"/>
    <nd ref="11976660146"/>
    <nd ref="11976660145"/>
    <nd ref="5103783267"/>
    <nd ref="366905616"/>
    <nd ref="5103783266"/>
    <nd ref="29447049"/>
    <tag k="highway" v="tertiary"/>
    <tag k="lane_markings" v="no"/>
    <tag k="maxspeed" v="50"/>
    <tag k="name" v="Pod Jankovem"/>
    <tag k="source:maxspeed" v="CZ:urban"/>
    <tag k="surface" v="asphalt"/>
  </way>
  <way id="1305240598" version="2" timestamp="2024-10-31T12:05:33Z" changeset="158578478" uid="718054" user="Piskvor">
    <nd ref="12088840968"/>
    <nd ref="12088840961"/>
    <nd ref="12088840964"/>
    <tag k="destination" v="Sib콏ina;Stupice"/>
    <tag k="highway" v="tertiary"/>
    <tag k="name" v="V lip치ch"/>
    <tag k="oneway" v="yes"/>
    <tag k="surface" v="asphalt"/>
  </way>
  <way id="1305240599" version="3" timestamp="2024-10-31T12:05:33Z" changeset="158578478" uid="718054" user="Piskvor">
    <nd ref="12088840955"/>
    <nd ref="12088840966"/>
    <nd ref="12088840965"/>
    <nd ref="12088899081"/>
    <nd ref="12088899080"/>
    <nd ref="12088899079"/>
    <nd ref="12088899078"/>
    <nd ref="5319249099"/>
    <tag k="highway" v="tertiary"/>
    <tag k="junction" v="roundabout"/>
    <tag k="lanes" v="1"/>
    <tag k="oneway" v="yes"/>
    <tag k="surface" v="asphalt"/>
  </way>
  <way id="1329609157" version="1" timestamp="2024-10-31T12:05:33Z" changeset="158578478" uid="718054" user="Piskvor">
    <nd ref="1626112515"/>
    <nd ref="8532692037"/>
    <nd ref="12301492476"/>
    <nd ref="34663543"/>
    <tag k="bicycle" v="no"/>
    <tag k="highway" v="tertiary"/>
    <tag k="lanes" v="2"/>
    <tag k="maxspeed" v="50"/>
    <tag k="name" v="V lip치ch"/>
    <tag k="note:bicycle" v="vjezd explicitn캩 zak치z치n zna캜kou B8"/>
    <tag k="ref" v="33310"/>
    <tag k="surface" v="asphalt"/>
  </way>
  <way id="1329609158" version="1" timestamp="2024-10-31T12:05:33Z" changeset="158578478" uid="718054" user="Piskvor">
    <nd ref="8532692042"/>
    <nd ref="11233383364"/>
    <nd ref="1626112515"/>
    <tag k="bicycle" v="no"/>
    <tag k="highway" v="tertiary"/>
    <tag k="lanes" v="2"/>
    <tag k="maxspeed" v="20"/>
    <tag k="name" v="V lip치ch"/>
    <tag k="ref" v="33310"/>
    <tag k="source:maxspeed" v="sign"/>
    <tag k="surface" v="asphalt"/>
  </way>
  <way id="1329609160" version="1" timestamp="2024-10-31T12:05:33Z" changeset="158578478" uid="718054" user="Piskvor">
    <nd ref="12088840968"/>
    <nd ref="12088840967"/>
    <nd ref="12088840955"/>
    <tag k="highway" v="tertiary"/>
    <tag k="junction" v="roundabout"/>
    <tag k="lanes" v="1"/>
    <tag k="oneway" v="yes"/>
    <tag k="surface" v="asphalt"/>
  </way>
  <way id="1329609161" version="1" timestamp="2024-10-31T12:05:33Z" changeset="158578478" uid="718054" user="Piskvor">
    <nd ref="12088840957"/>
    <nd ref="12088899082"/>
    <nd ref="12088899072"/>
    <nd ref="12088899071"/>
    <nd ref="12088899070"/>
    <nd ref="12088899069"/>
    <nd ref="12088840968"/>
    <tag k="highway" v="tertiary"/>
    <tag k="junction" v="roundabout"/>
    <tag k="lanes" v="1"/>
    <tag k="oneway" v="yes"/>
    <tag k="surface" v="asphalt"/>
  </way>
  <way id="1329609162" version="1" timestamp="2024-10-31T12:05:33Z" changeset="158578478" uid="718054" user="Piskvor">
    <nd ref="5319249099"/>
    <nd ref="12088899077"/>
    <nd ref="12088899076"/>
    <nd ref="12088899075"/>
    <nd ref="12088899074"/>
    <nd ref="12088899073"/>
    <nd ref="12088840957"/>
    <tag k="highway" v="tertiary"/>
    <tag k="junction" v="roundabout"/>
    <tag k="lanes" v="1"/>
    <tag k="oneway" v="yes"/>
    <tag k="surface" v="asphalt"/>
  </way>
  <way id="1329609163" version="1" timestamp="2024-10-31T12:05:33Z" changeset="158578478" uid="718054" user="Piskvor">
    <nd ref="5319249101"/>
    <nd ref="12088840964"/>
    <tag k="destination:backward" v="Sib콏ina;Stupice"/>
    <tag k="highway" v="tertiary"/>
    <tag k="lanes" v="2"/>
    <tag k="maxspeed" v="40"/>
    <tag k="name" v="V lip치ch"/>
    <tag k="sidewalk" v="both"/>
    <tag k="source:maxspeed" v="zone"/>
    <tag k="surface" v="asphalt"/>
  </way>
  <way id="1364963408" version="1" timestamp="2025-03-06T09:45:41Z" changeset="163277744" uid="718054" user="Piskvor">
    <nd ref="4956367194"/>
    <nd ref="11233383366"/>
    <nd ref="8532692042"/>
    <tag k="bicycle" v="no"/>
    <tag k="highway" v="tertiary"/>
    <tag k="lanes" v="2"/>
    <tag k="lit" v="yes"/>
    <tag k="maxspeed" v="50"/>
    <tag k="name" v="V lip치ch"/>
    <tag k="note:bicycle" v="vjezd explicitn캩 zak치z치n zna캜kou B8"/>
    <tag k="ref" v="33310"/>
    <tag k="surface" v="asphalt"/>
  </way>
  <way id="1364963409" version="1" timestamp="2025-03-06T09:45:41Z" changeset="163277744" uid="718054" user="Piskvor">
    <nd ref="8525652763"/>
    <nd ref="12633249411"/>
    <nd ref="4956367194"/>
    <tag k="bicycle" v="no"/>
    <tag k="highway" v="tertiary"/>
    <tag k="lanes" v="2"/>
    <tag k="lit" v="yes"/>
    <tag k="maxspeed" v="50"/>
    <tag k="name" v="V lip치ch"/>
    <tag k="note:bicycle" v="vjezd explicitn캩 zak치z치n zna캜kou B8"/>
    <tag k="proposed:bridge" v="yes"/>
    <tag k="proposed:ref" v="SO 223"/>
    <tag k="ref" v="33310"/>
    <tag k="surface" v="asphalt"/>
  </way>
  <way id="1367991745" version="1" timestamp="2025-03-15T22:29:55Z" changeset="163669756" uid="4018695" user="游뻟릖 Roman Horn칤k">
    <nd ref="34663267"/>
    <nd ref="12669105102"/>
    <nd ref="12669105101"/>
    <nd ref="5104369166"/>
    <nd ref="1626023954"/>
    <tag k="cycleway:both" v="no"/>
    <tag k="highway" v="tertiary"/>
    <tag k="lanes" v="2"/>
    <tag k="lit" v="yes"/>
    <tag k="maxspeed" v="30"/>
    <tag k="name" v="V lip치ch"/>
    <tag k="sidewalk" v="both"/>
    <tag k="source:maxspeed" v="sign"/>
    <tag k="surface" v="asphalt"/>
  </way>
  <way id="1367991746" version="1" timestamp="2025-03-15T22:29:55Z" changeset="163669756" uid="4018695" user="游뻟릖 Roman Horn칤k">
    <nd ref="12669105107"/>
    <nd ref="1626024224"/>
    <nd ref="12669105108"/>
    <nd ref="1626024193"/>
    <nd ref="1626024144"/>
    <tag k="highway" v="residential"/>
    <tag k="maxweight" v="6"/>
    <tag k="name" v="Ro코ovick치"/>
  </way>
  <way id="1367991747" version="1" timestamp="2025-03-15T22:29:55Z" changeset="163669756" uid="4018695" user="游뻟릖 Roman Horn칤k">
    <nd ref="1626024502"/>
    <nd ref="11233383372"/>
    <nd ref="1626024539"/>
    <nd ref="12669105109"/>
    <tag k="hgv:6t" v="no"/>
    <tag k="highway" v="residential"/>
    <tag k="lit" v="yes"/>
    <tag k="name" v="Meinlinova"/>
    <tag k="surface" v="asphalt"/>
  </way>
  <way id="1377599808" version="1" timestamp="2025-04-14T20:44:50Z" changeset="164955459" uid="4887311" user="mapperue">
    <nd ref="11808049540"/>
    <nd ref="12437146534"/>
    <nd ref="34663449"/>
    <tag k="highway" v="tertiary"/>
    <tag k="lanes" v="2"/>
    <tag k="lit" v="yes"/>
    <tag k="maxspeed" v="40"/>
    <tag k="name" v="V lip치ch"/>
    <tag k="smoothness" v="excellent"/>
    <tag k="source:maxspeed" v="zone"/>
    <tag k="surface" v="asphalt"/>
  </way>

</osm>
