<?xml version="1.0" encoding="UTF-8"?>
<osm version="0.6" generator="Overpass API 0.7.62.5 1bd436f1">
<note>The data included in this document is from www.openstreetmap.org. The data is made available under ODbL.</note>
<meta osm_base="2025-05-18T02:51:15Z" areas="2024-12-31T00:49:33Z"/>

  <node id="21456221" lat="50.0782384" lon="14.5642289" version="7" timestamp="2023-04-13T19:36:07Z" changeset="134876671" uid="8971394" user="vojtechzaboril">
    <tag k="highway" v="motorway_junction"/>
    <tag k="name" v="Nov칠 맚캩rboholy"/>
  </node>
  <node id="21456237" lat="50.0945743" lon="14.5943134" version="16" timestamp="2024-08-15T08:42:10Z" changeset="155272380" uid="8971394" user="vojtechzaboril">
    <tag k="highway" v="motorway_junction"/>
    <tag k="name" v="Horn칤 Po캜ernice"/>
    <tag k="name:de" v="Ober Potschernitz"/>
    <tag k="ref" v="60B"/>
  </node>
  <node id="25450836" lat="50.0846981" lon="14.5941803" version="10" timestamp="2024-08-14T22:33:05Z" changeset="155261632" uid="4018695" user="游뻟릖 Roman Horn칤k">
    <tag k="maxspeed" v="80"/>
    <tag k="traffic_sign" v="maxspeed"/>
  </node>
  <node id="30584816" lat="50.0865180" lon="14.6036840" version="4" timestamp="2016-06-23T20:26:33Z" changeset="40244500" uid="1189910" user="Milancer"/>
  <node id="112174212" lat="50.0781263" lon="14.5652270" version="10" timestamp="2023-04-13T19:36:07Z" changeset="134876671" uid="8971394" user="vojtechzaboril"/>
  <node id="303565990" lat="50.0952611" lon="14.5939029" version="5" timestamp="2021-03-17T10:51:03Z" changeset="101181992" uid="11276832" user="HaPe-CZ"/>
  <node id="1342422654" lat="50.0967690" lon="14.5756333" version="1" timestamp="2011-06-28T16:22:54Z" changeset="8573077" uid="8007" user="vrabcak"/>
  <node id="1630397034" lat="50.0885704" lon="14.5692559" version="1" timestamp="2012-02-12T20:34:12Z" changeset="10667867" uid="8007" user="vrabcak"/>
  <node id="1630459277" lat="50.0903745" lon="14.5712060" version="1" timestamp="2012-02-12T21:12:59Z" changeset="10668332" uid="8007" user="vrabcak"/>
  <node id="3658077506" lat="50.0745608" lon="14.5614672" version="2" timestamp="2018-06-03T12:28:29Z" changeset="59507384" uid="1719518" user="itamas80"/>
  <node id="4502997940" lat="50.0908052" lon="14.5856704" version="2" timestamp="2020-04-28T20:58:28Z" changeset="84291327" uid="25867" user="adamos"/>
  <node id="7995015558" lat="50.0893542" lon="14.5697121" version="1" timestamp="2020-10-10T13:30:42Z" changeset="92275806" uid="665336" user="Minimalis"/>
  <node id="8509730677" lat="50.0768557" lon="14.5765483" version="2" timestamp="2025-03-30T12:06:48Z" changeset="164284436" uid="4018695" user="游뻟릖 Roman Horn칤k"/>
  <node id="8510653279" lat="50.0811564" lon="14.5932274" version="2" timestamp="2021-10-05T16:03:42Z" changeset="112130457" uid="8971394" user="vojtechzaboril"/>
  <node id="8510653295" lat="50.0765420" lon="14.5835825" version="1" timestamp="2021-03-12T14:37:35Z" changeset="100915008" uid="11276832" user="HaPe-CZ"/>
  <node id="8510683470" lat="50.0811539" lon="14.5904578" version="2" timestamp="2022-01-26T20:01:35Z" changeset="116636851" uid="8971394" user="vojtechzaboril"/>
  <node id="8510683496" lat="50.0816800" lon="14.5906508" version="2" timestamp="2022-01-26T20:01:35Z" changeset="116636851" uid="8971394" user="vojtechzaboril"/>
  <node id="8510683506" lat="50.0816953" lon="14.5905422" version="2" timestamp="2022-01-26T20:01:35Z" changeset="116636851" uid="8971394" user="vojtechzaboril"/>
  <node id="8510683517" lat="50.0815840" lon="14.5913810" version="2" timestamp="2022-01-26T20:01:35Z" changeset="116636851" uid="8971394" user="vojtechzaboril"/>
  <node id="8510683575" lat="50.0818397" lon="14.5897258" version="2" timestamp="2022-01-26T20:01:35Z" changeset="116636851" uid="8971394" user="vojtechzaboril"/>
  <node id="9451082744" lat="50.0814921" lon="14.5948039" version="1" timestamp="2022-01-26T20:01:35Z" changeset="116636851" uid="8971394" user="vojtechzaboril"/>
  <node id="9585592273" lat="50.0874556" lon="14.5662434" version="1" timestamp="2022-03-17T14:44:32Z" changeset="118597448" uid="718054" user="Piskvor"/>
  <way id="1614262" version="12" timestamp="2023-02-05T10:05:53Z" changeset="132102937" uid="10545359" user="kainloma">
    <nd ref="4934950472"/>
    <nd ref="10607750328"/>
    <nd ref="32606754"/>
    <nd ref="6926427"/>
    <nd ref="6926428"/>
    <nd ref="6936010260"/>
    <nd ref="6936010259"/>
    <nd ref="313218916"/>
    <nd ref="4144781636"/>
    <nd ref="313218885"/>
    <nd ref="6926434"/>
    <tag k="highway" v="residential"/>
    <tag k="name" v="Bakurinova"/>
    <tag k="surface" v="paving_stones"/>
  </way>
  <way id="4048663" version="35" timestamp="2024-08-15T08:42:10Z" changeset="155272380" uid="8971394" user="vojtechzaboril">
    <nd ref="21456234"/>
    <nd ref="8511380794"/>
    <nd ref="9580952256"/>
    <nd ref="8511380795"/>
    <nd ref="8511380796"/>
    <nd ref="8511380797"/>
    <nd ref="1838652846"/>
    <nd ref="8511380798"/>
    <nd ref="8511380799"/>
    <nd ref="8511380800"/>
    <nd ref="8511380801"/>
    <nd ref="1838652852"/>
    <nd ref="8511380802"/>
    <nd ref="8511380803"/>
    <nd ref="5401360475"/>
    <nd ref="8528265247"/>
    <nd ref="8528265246"/>
    <nd ref="1838652853"/>
    <nd ref="8528265245"/>
    <nd ref="8528265244"/>
    <nd ref="7997019671"/>
    <nd ref="8528265243"/>
    <nd ref="8528265242"/>
    <nd ref="1838652855"/>
    <nd ref="8528265241"/>
    <nd ref="8528265240"/>
    <nd ref="8528265239"/>
    <tag k="hgv:lanes" v="no|yes"/>
    <tag k="highway" v="motorway"/>
    <tag k="int_ref" v="E 55;E 65"/>
    <tag k="lanes" v="2"/>
    <tag k="lit" v="yes"/>
    <tag k="maxheight" v="default"/>
    <tag k="maxspeed" v="100"/>
    <tag k="name" v="Pra쬽k칳 okruh"/>
    <tag k="name:de" v="Prager Ring"/>
    <tag k="name:en" v="Prague Ring"/>
    <tag k="note" v="rezerva pro 3. pruh"/>
    <tag k="oneway" v="yes"/>
    <tag k="ref" v="D0"/>
    <tag k="source:maxspeed" v="sign"/>
    <tag k="surface" v="asphalt"/>
    <tag k="toll" v="no"/>
    <tag k="toll:hgv" v="yes"/>
  </way>
  <way id="4052102" version="17" timestamp="2023-02-05T10:05:53Z" changeset="132102937" uid="10545359" user="kainloma">
    <nd ref="9594102154"/>
    <nd ref="357748289"/>
    <nd ref="9139955441"/>
    <nd ref="6926329"/>
    <nd ref="32606716"/>
    <nd ref="10607750314"/>
    <nd ref="9139955455"/>
    <nd ref="10607750313"/>
    <nd ref="6926337"/>
    <nd ref="32606717"/>
    <nd ref="10607750312"/>
    <nd ref="32606744"/>
    <nd ref="10607750311"/>
    <nd ref="32606751"/>
    <nd ref="8786692481"/>
    <tag k="highway" v="unclassified"/>
    <tag k="motor_vehicle" v="no"/>
    <tag k="name" v="Madarova"/>
    <tag k="surface" v="asphalt"/>
  </way>
  <way id="4053015" version="15" timestamp="2024-09-01T19:35:35Z" changeset="156069808" uid="27052" user="onovy">
    <nd ref="6926451"/>
    <nd ref="761438398"/>
    <nd ref="4210290220"/>
    <nd ref="10044016995"/>
    <nd ref="4210290232"/>
    <nd ref="4210290223"/>
    <nd ref="6926467"/>
    <nd ref="343134565"/>
    <nd ref="6936027104"/>
    <nd ref="502521341"/>
    <nd ref="288042512"/>
    <nd ref="502521354"/>
    <tag k="highway" v="residential"/>
    <tag k="lanes" v="2"/>
    <tag k="lit" v="yes"/>
    <tag k="name" v="Nad Rybn칤kem"/>
    <tag k="surface" v="asphalt"/>
  </way>
  <way id="4266019" version="7" timestamp="2025-04-16T09:12:11Z" changeset="165018543" uid="718054" user="Piskvor">
    <nd ref="7296956"/>
    <nd ref="1305130703"/>
    <nd ref="1305098462"/>
    <nd ref="6926434"/>
    <tag k="highway" v="residential"/>
    <tag k="name" v="Nad Rokytkou"/>
    <tag k="surface" v="asphalt"/>
  </way>
  <way id="4600533" version="28" timestamp="2025-03-30T12:06:48Z" changeset="164284436" uid="4018695" user="游뻟릖 Roman Horn칤k">
    <nd ref="25450836"/>
    <nd ref="8511302573"/>
    <nd ref="112162651"/>
    <nd ref="8511302579"/>
    <nd ref="5401360479"/>
    <nd ref="8511302581"/>
    <nd ref="25450837"/>
    <tag k="bridge" v="yes"/>
    <tag k="bridge:structure" v="beam"/>
    <tag k="hgv:lanes" v="no|yes|yes"/>
    <tag k="highway" v="motorway"/>
    <tag k="int_ref" v="E 55;E 65"/>
    <tag k="lanes" v="3"/>
    <tag k="layer" v="1"/>
    <tag k="lit" v="yes"/>
    <tag k="maxspeed" v="80"/>
    <tag k="name" v="Pra쬽k칳 okruh"/>
    <tag k="name:de" v="Prager Ring"/>
    <tag k="name:en" v="Prague Ring"/>
    <tag k="oneway" v="yes"/>
    <tag k="placement" v="right_of:1"/>
    <tag k="ref" v="D0"/>
    <tag k="source:maxspeed" v="sign"/>
    <tag k="surface" v="asphalt"/>
    <tag k="toll" v="no"/>
    <tag k="toll:hgv" v="yes"/>
    <tag k="turn:lanes" v="through|through|slight_right"/>
  </way>
  <way id="4733771" version="18" timestamp="2024-07-29T19:25:46Z" changeset="154577538" uid="10545359" user="kainloma">
    <nd ref="4502997940"/>
    <nd ref="7460710092"/>
    <nd ref="761438397"/>
    <nd ref="9795120703"/>
    <nd ref="7636239843"/>
    <nd ref="7636241866"/>
    <nd ref="1757589936"/>
    <nd ref="6926461"/>
    <nd ref="2998585929"/>
    <nd ref="6926727"/>
    <nd ref="12081597263"/>
    <nd ref="761438401"/>
    <nd ref="6926740"/>
    <nd ref="11998342841"/>
    <nd ref="761438404"/>
    <nd ref="6926745"/>
    <nd ref="761438395"/>
    <nd ref="6926811"/>
    <tag k="highway" v="residential"/>
    <tag k="note" v="silnice podel dalnice"/>
  </way>
  <way id="4733981" version="7" timestamp="2023-08-21T12:09:58Z" changeset="140178282" uid="4054181" user="Richard Janda">
    <nd ref="9513493940"/>
    <nd ref="33125776"/>
    <nd ref="11133963962"/>
    <nd ref="7297015"/>
    <nd ref="11133963973"/>
    <nd ref="3659184464"/>
    <nd ref="6926445"/>
    <tag k="highway" v="residential"/>
    <tag k="lanes" v="2"/>
    <tag k="maxspeed" v="50"/>
    <tag k="name" v="KZ치mku"/>
    <tag k="surface" v="asphalt"/>
  </way>
  <way id="4757883" version="23" timestamp="2024-08-15T08:42:10Z" changeset="155272380" uid="8971394" user="vojtechzaboril">
    <nd ref="21456237"/>
    <nd ref="1355104629"/>
    <tag k="destination" v="Hradec Kr치lov칠"/>
    <tag k="destination:int_ref" v="E 67"/>
    <tag k="destination:ref" v="D11"/>
    <tag k="highway" v="motorway_link"/>
    <tag k="lit" v="yes"/>
    <tag k="maxspeed" v="100"/>
    <tag k="oneway" v="yes"/>
    <tag k="placement" v="transition"/>
    <tag k="surface" v="asphalt"/>
    <tag k="toll" v="no"/>
  </way>
  <way id="4779829" version="4" timestamp="2024-01-28T14:59:28Z" changeset="146780404" uid="469828" user="Luk치코 Jel칤nek">
    <nd ref="30584816"/>
    <nd ref="30584967"/>
    <tag k="highway" v="residential"/>
    <tag k="lane_markings" v="no"/>
    <tag k="lit" v="yes"/>
    <tag k="name" v="P콏칤chovick치"/>
    <tag k="sidewalk" v="both"/>
    <tag k="surface" v="asphalt"/>
  </way>
  <way id="4779869" version="15" timestamp="2024-01-28T14:52:32Z" changeset="146780404" uid="469828" user="Luk치코 Jel칤nek">
    <nd ref="7846793327"/>
    <nd ref="30585078"/>
    <nd ref="10556858762"/>
    <nd ref="60261952"/>
    <nd ref="10556858758"/>
    <nd ref="10556858731"/>
    <nd ref="10556858732"/>
    <nd ref="60261942"/>
    <tag k="highway" v="residential"/>
    <tag k="lane_markings" v="no"/>
    <tag k="lit" v="yes"/>
    <tag k="name" v="V Padolin캩"/>
    <tag k="sidewalk" v="right"/>
    <tag k="sidewalk:right:surface" v="paving_stones"/>
    <tag k="smoothness" v="good"/>
    <tag k="surface" v="paving_stones"/>
  </way>
  <way id="4889346" version="20" timestamp="2024-09-16T10:43:06Z" changeset="156682137" uid="8971394" user="vojtechzaboril">
    <nd ref="8510683575"/>
    <nd ref="31776172"/>
    <nd ref="8510683484"/>
    <nd ref="8510683483"/>
    <nd ref="4976285474"/>
    <nd ref="8510683482"/>
    <nd ref="8510683481"/>
    <nd ref="322947750"/>
    <nd ref="8510683480"/>
    <nd ref="4976285475"/>
    <nd ref="8510683479"/>
    <nd ref="8510683478"/>
    <nd ref="2263005928"/>
    <tag k="bicycle" v="no"/>
    <tag k="destination" v="Brno;Plze켿"/>
    <tag k="destination:int_ref" v="E 55;E 65"/>
    <tag k="destination:symbol" v="motorway;motorroad"/>
    <tag k="foot" v="no"/>
    <tag k="highway" v="trunk_link"/>
    <tag k="horse" v="no"/>
    <tag k="lanes" v="1"/>
    <tag k="maxspeed" v="60"/>
    <tag k="motor_vehicle" v="designated"/>
    <tag k="motorroad" v="no"/>
    <tag k="oneway" v="yes"/>
    <tag k="source:maxspeed" v="CZ:urban"/>
    <tag k="surface" v="asphalt"/>
  </way>
  <way id="4947120" version="8" timestamp="2022-01-22T15:15:06Z" changeset="116469652" uid="11174973" user="smidra">
    <nd ref="32606754"/>
    <nd ref="4934950492"/>
    <nd ref="32606765"/>
    <nd ref="32606766"/>
    <nd ref="32606795"/>
    <nd ref="32606796"/>
    <tag k="highway" v="residential"/>
    <tag k="lit" v="yes"/>
    <tag k="name" v="Bakurinova"/>
    <tag k="sidewalk" v="no"/>
    <tag k="surface" v="asphalt"/>
  </way>
  <way id="4947123" version="7" timestamp="2019-10-31T22:56:38Z" changeset="76470124" uid="3003739" user="r00tcz">
    <nd ref="6926427"/>
    <nd ref="32606820"/>
    <nd ref="32606821"/>
    <nd ref="6936010261"/>
    <nd ref="32606933"/>
    <nd ref="2395934995"/>
    <tag k="highway" v="residential"/>
    <tag k="name" v="U Kon칤"/>
  </way>
  <way id="8071952" version="32" timestamp="2024-08-15T08:42:10Z" changeset="155272380" uid="8971394" user="vojtechzaboril">
    <nd ref="21456237"/>
    <nd ref="8528265229"/>
    <nd ref="8528265228"/>
    <nd ref="303565993"/>
    <tag k="destination" v="Mlad치 Boleslav;Teplice;Praha-캛ern칳 Most"/>
    <tag k="destination:street" v="Pra쬽k칳 okruh"/>
    <tag k="hgv:lanes" v="no|yes"/>
    <tag k="highway" v="motorway"/>
    <tag k="int_ref" v="E 55;E 65"/>
    <tag k="lanes" v="2"/>
    <tag k="lit" v="yes"/>
    <tag k="maxspeed" v="100"/>
    <tag k="name" v="Pra쬽k칳 okruh"/>
    <tag k="name:de" v="Prager Ring"/>
    <tag k="name:en" v="Prague Ring"/>
    <tag k="oneway" v="yes"/>
    <tag k="ref" v="D0"/>
    <tag k="source:maxspeed" v="sign"/>
    <tag k="surface" v="asphalt"/>
    <tag k="toll" v="no"/>
    <tag k="toll:hgv" v="yes"/>
  </way>
  <way id="12357566" version="32" timestamp="2025-03-30T12:06:48Z" changeset="164284436" uid="4018695" user="游뻟릖 Roman Horn칤k">
    <nd ref="8510653279"/>
    <nd ref="8511302564"/>
    <nd ref="5401360480"/>
    <nd ref="8511302566"/>
    <nd ref="8511302568"/>
    <nd ref="8511302569"/>
    <nd ref="112162734"/>
    <nd ref="8511302571"/>
    <nd ref="21456234"/>
    <tag k="bridge" v="yes"/>
    <tag k="bridge:structure" v="beam"/>
    <tag k="hgv:lanes" v="no|yes|yes"/>
    <tag k="highway" v="motorway"/>
    <tag k="int_ref" v="E 55;E 65"/>
    <tag k="lanes" v="3"/>
    <tag k="layer" v="1"/>
    <tag k="lit" v="yes"/>
    <tag k="maxspeed" v="100"/>
    <tag k="name" v="Pra쬽k칳 okruh"/>
    <tag k="name:de" v="Prager Ring"/>
    <tag k="name:en" v="Prague Ring"/>
    <tag k="oneway" v="yes"/>
    <tag k="placement" v="right_of:1"/>
    <tag k="ref" v="D0"/>
    <tag k="source:maxspeed" v="sign"/>
    <tag k="surface" v="asphalt"/>
    <tag k="toll" v="no"/>
    <tag k="toll:hgv" v="yes"/>
    <tag k="turn:lanes" v="||merge_to_left"/>
  </way>
  <way id="12358331" version="15" timestamp="2023-04-13T19:36:07Z" changeset="134876671" uid="8971394" user="vojtechzaboril">
    <nd ref="112173223"/>
    <nd ref="10809114187"/>
    <nd ref="10809114186"/>
    <nd ref="10809114185"/>
    <nd ref="4251224526"/>
    <nd ref="1262195390"/>
    <nd ref="4251224525"/>
    <nd ref="4251224519"/>
    <nd ref="4251224524"/>
    <nd ref="112173227"/>
    <nd ref="4251224523"/>
    <nd ref="4251224521"/>
    <nd ref="4251224522"/>
    <nd ref="1262195153"/>
    <nd ref="4251224527"/>
    <nd ref="8509839228"/>
    <nd ref="112173670"/>
    <nd ref="4251224528"/>
    <nd ref="112173675"/>
    <nd ref="8509839229"/>
    <nd ref="8509839230"/>
    <nd ref="8509839231"/>
    <nd ref="8509839232"/>
    <nd ref="8509839233"/>
    <nd ref="8509839234"/>
    <nd ref="8509839235"/>
    <nd ref="8509839236"/>
    <nd ref="8509839237"/>
    <nd ref="8509839238"/>
    <nd ref="8509839239"/>
    <nd ref="8509839240"/>
    <tag k="destination" v="Doln칤 Po캜ernice;맚캩rboholy"/>
    <tag k="highway" v="trunk_link"/>
    <tag k="lanes" v="1"/>
    <tag k="lit" v="yes"/>
    <tag k="maxheight" v="default"/>
    <tag k="maxweight" v="6"/>
    <tag k="motorroad" v="yes"/>
    <tag k="oneway" v="yes"/>
  </way>
  <way id="12358333" version="11" timestamp="2023-04-13T19:36:07Z" changeset="134876671" uid="8971394" user="vojtechzaboril">
    <nd ref="21456221"/>
    <nd ref="8509730525"/>
    <nd ref="8509730526"/>
    <nd ref="8509730527"/>
    <nd ref="8509730528"/>
    <nd ref="112174125"/>
    <nd ref="8509730529"/>
    <nd ref="8509730530"/>
    <nd ref="8509730531"/>
    <nd ref="1262195247"/>
    <nd ref="8509730532"/>
    <nd ref="8509730533"/>
    <nd ref="112174131"/>
    <nd ref="8509730534"/>
    <nd ref="8509730535"/>
    <nd ref="8509730536"/>
    <nd ref="8509730537"/>
    <nd ref="8509730549"/>
    <nd ref="8509730553"/>
    <nd ref="8509730554"/>
    <nd ref="8509730555"/>
    <nd ref="8509730561"/>
    <nd ref="8509730562"/>
    <nd ref="8509730563"/>
    <nd ref="8509730564"/>
    <nd ref="8509730565"/>
    <nd ref="112173771"/>
    <tag k="bicycle" v="no"/>
    <tag k="destination" v="Doln칤 Po캜ernice;맚캩rboholy"/>
    <tag k="highway" v="trunk_link"/>
    <tag k="horse" v="no"/>
    <tag k="lanes" v="1"/>
    <tag k="lit" v="yes"/>
    <tag k="motorroad" v="yes"/>
    <tag k="oneway" v="yes"/>
  </way>
  <way id="12358334" version="13" timestamp="2023-04-13T19:36:07Z" changeset="134876671" uid="8971394" user="vojtechzaboril">
    <nd ref="8509839261"/>
    <nd ref="8509839287"/>
    <nd ref="8509839286"/>
    <nd ref="8509839285"/>
    <nd ref="8509839284"/>
    <nd ref="8509839283"/>
    <nd ref="8509839282"/>
    <nd ref="8509839281"/>
    <nd ref="8509839280"/>
    <nd ref="112173755"/>
    <nd ref="8509839279"/>
    <nd ref="8509839278"/>
    <nd ref="8509839277"/>
    <nd ref="8509839276"/>
    <nd ref="8509839275"/>
    <nd ref="8509839274"/>
    <nd ref="8509839273"/>
    <nd ref="8509839272"/>
    <nd ref="8509839271"/>
    <nd ref="4251224531"/>
    <nd ref="4251224537"/>
    <nd ref="112174193"/>
    <nd ref="4251224530"/>
    <nd ref="4251224536"/>
    <nd ref="112174198"/>
    <nd ref="4251224529"/>
    <nd ref="4251224534"/>
    <nd ref="112174205"/>
    <nd ref="4251224533"/>
    <nd ref="8190278637"/>
    <nd ref="10809114183"/>
    <nd ref="10809114182"/>
    <nd ref="112174212"/>
    <tag k="highway" v="trunk_link"/>
    <tag k="lanes" v="1"/>
    <tag k="lit" v="yes"/>
    <tag k="motorroad" v="yes"/>
    <tag k="oneway" v="yes"/>
  </way>
  <way id="12358338" version="11" timestamp="2023-04-13T19:36:07Z" changeset="134876671" uid="8971394" user="vojtechzaboril">
    <nd ref="8509730569"/>
    <nd ref="8509730568"/>
    <nd ref="8509730567"/>
    <nd ref="8509730566"/>
    <nd ref="8509730560"/>
    <nd ref="8509730559"/>
    <nd ref="8509730558"/>
    <nd ref="8509730557"/>
    <nd ref="8509730556"/>
    <nd ref="8509730552"/>
    <nd ref="8509730551"/>
    <nd ref="8509730550"/>
    <nd ref="8509730548"/>
    <nd ref="8509730547"/>
    <nd ref="112173872"/>
    <nd ref="8509730546"/>
    <nd ref="112173948"/>
    <nd ref="8509730545"/>
    <nd ref="8509730544"/>
    <nd ref="1262195395"/>
    <nd ref="8509730543"/>
    <nd ref="112174039"/>
    <nd ref="8509730542"/>
    <nd ref="8509730541"/>
    <nd ref="10809114190"/>
    <nd ref="10809114189"/>
    <nd ref="10809114188"/>
    <nd ref="112174105"/>
    <tag k="bicycle" v="no"/>
    <tag k="highway" v="trunk_link"/>
    <tag k="horse" v="no"/>
    <tag k="lanes" v="1"/>
    <tag k="lit" v="yes"/>
    <tag k="maxheight" v="default"/>
    <tag k="motorroad" v="yes"/>
    <tag k="oneway" v="yes"/>
  </way>
  <way id="12358339" version="12" timestamp="2024-07-25T08:38:24Z" changeset="154381917" uid="718054" user="Piskvor">
    <nd ref="30575046"/>
    <nd ref="8509730571"/>
    <tag k="destination:forward" v="Doln칤 Po캜ernice"/>
    <tag k="highway" v="tertiary"/>
    <tag k="lanes" v="2"/>
    <tag k="name" v="칔st콏edn칤"/>
    <tag k="surface" v="asphalt"/>
  </way>
  <way id="12358340" version="10" timestamp="2024-07-25T08:38:24Z" changeset="154381917" uid="718054" user="Piskvor">
    <nd ref="30575047"/>
    <nd ref="8509839263"/>
    <nd ref="8509839264"/>
    <nd ref="1628616263"/>
    <tag k="destination:forward" v="Doln칤 Po캜ernice"/>
    <tag k="highway" v="tertiary"/>
    <tag k="lanes" v="2"/>
    <tag k="lit" v="yes"/>
    <tag k="maxspeed:type" v="CZ:urban"/>
    <tag k="name" v="칔st콏edn칤"/>
    <tag k="surface" v="asphalt"/>
  </way>
  <way id="22744083" version="8" timestamp="2024-01-28T14:21:00Z" changeset="146780410" uid="469828" user="Luk치코 Jel칤nek">
    <nd ref="6926612"/>
    <nd ref="9580952321"/>
    <nd ref="6926609"/>
    <nd ref="9580952296"/>
    <nd ref="6926608"/>
    <tag k="highway" v="residential"/>
    <tag k="lane_markings" v="no"/>
    <tag k="lit" v="yes"/>
    <tag k="name" v="Nad Rybn칤kem"/>
    <tag k="smoothness" v="good"/>
    <tag k="source:name" v="nameit/uir-adr"/>
    <tag k="surface" v="asphalt"/>
  </way>
  <way id="22744084" version="8" timestamp="2024-01-28T14:16:00Z" changeset="146780410" uid="469828" user="Luk치코 Jel칤nek">
    <nd ref="6926594"/>
    <nd ref="9580952326"/>
    <nd ref="9580952327"/>
    <nd ref="9580952309"/>
    <nd ref="244016294"/>
    <tag k="highway" v="residential"/>
    <tag k="lane_markings" v="no"/>
    <tag k="lit" v="yes"/>
    <tag k="name" v="Nad Rybn칤kem"/>
    <tag k="smoothness" v="excellent"/>
    <tag k="source:name" v="nameit/uir-adr"/>
    <tag k="surface" v="asphalt"/>
  </way>
  <way id="22873534" version="4" timestamp="2024-03-31T20:26:01Z" changeset="149407127" uid="469828" user="Luk치코 Jel칤nek">
    <nd ref="1630459277"/>
    <nd ref="7781002"/>
    <nd ref="30573256"/>
    <nd ref="11776282448"/>
    <nd ref="7296948"/>
    <tag k="highway" v="residential"/>
    <tag k="name" v="V R치ji"/>
  </way>
  <way id="23698999" version="4" timestamp="2018-02-19T16:41:24Z" changeset="56496700" uid="718054" user="Piskvor">
    <nd ref="256609637"/>
    <nd ref="256609638"/>
    <tag k="bridge" v="yes"/>
    <tag k="bridge:structure" v="beam"/>
    <tag k="highway" v="tertiary"/>
    <tag k="lanes" v="2"/>
    <tag k="layer" v="1"/>
    <tag k="name" v="칔st콏edn칤"/>
    <tag k="surface" v="asphalt"/>
  </way>
  <way id="23699000" version="7" timestamp="2024-07-25T08:38:24Z" changeset="154381917" uid="718054" user="Piskvor">
    <nd ref="256609638"/>
    <nd ref="8509839256"/>
    <tag k="destination:backward" v="맚캩rboholy"/>
    <tag k="highway" v="tertiary"/>
    <tag k="lanes" v="3"/>
    <tag k="lanes:backward" v="1"/>
    <tag k="lanes:forward" v="2"/>
    <tag k="name" v="칔st콏edn칤"/>
    <tag k="surface" v="asphalt"/>
    <tag k="turn:lanes:forward" v="left|through"/>
  </way>
  <way id="23699128" version="2" timestamp="2009-03-09T03:54:51Z" changeset="766878" uid="3516" user="BiIbo">
    <nd ref="256610509"/>
    <nd ref="256610510"/>
    <nd ref="256610447"/>
    <nd ref="256610512"/>
    <nd ref="256610513"/>
    <tag k="created_by" v="Potlatch 0.8a"/>
    <tag k="highway" v="residential"/>
    <tag k="name" v="Jinolick치"/>
  </way>
  <way id="23699157" version="2" timestamp="2021-03-08T15:20:39Z" changeset="100647201" uid="25867" user="adamos">
    <nd ref="256610512"/>
    <nd ref="256610708"/>
    <nd ref="8497344172"/>
    <nd ref="256610709"/>
    <nd ref="256610710"/>
    <tag k="highway" v="residential"/>
    <tag k="name" v="Dolnobransk치"/>
  </way>
  <way id="24353681" version="8" timestamp="2018-02-19T16:41:24Z" changeset="56496700" uid="718054" user="Piskvor">
    <nd ref="7297083"/>
    <nd ref="2093098099"/>
    <nd ref="761438405"/>
    <nd ref="30573232"/>
    <nd ref="4111466840"/>
    <nd ref="7296950"/>
    <tag k="highway" v="residential"/>
    <tag k="lanes" v="2"/>
    <tag k="lit" v="yes"/>
    <tag k="name" v="N치rodn칤ch hrdin콢"/>
    <tag k="surface" v="asphalt"/>
  </way>
  <way id="24353735" version="7" timestamp="2021-04-10T10:55:05Z" changeset="102692508" uid="6588887" user="Martin2035">
    <nd ref="1630078603"/>
    <nd ref="8614508506"/>
    <nd ref="1630078418"/>
    <tag k="highway" v="residential"/>
    <tag k="name" v="Dubeneck치"/>
    <tag k="note" v="cyklostezka 1"/>
    <tag k="oneway" v="no"/>
  </way>
  <way id="24583800" version="1" timestamp="2008-05-28T20:03:16Z" changeset="540049" uid="8007" user="vrabcak">
    <nd ref="7296948"/>
    <nd ref="32606798"/>
    <nd ref="7296950"/>
    <tag k="created_by" v="Potlatch 0.9b"/>
    <tag k="highway" v="residential"/>
    <tag k="name" v="V R치ji"/>
  </way>
  <way id="24583843" version="6" timestamp="2018-02-19T16:41:24Z" changeset="56496700" uid="718054" user="Piskvor">
    <nd ref="7296950"/>
    <nd ref="30573234"/>
    <nd ref="30573236"/>
    <tag k="highway" v="residential"/>
    <tag k="lanes" v="2"/>
    <tag k="lit" v="yes"/>
    <tag k="name" v="N치rodn칤ch hrdin콢"/>
    <tag k="surface" v="asphalt"/>
  </way>
  <way id="25407271" version="8" timestamp="2025-04-16T09:12:11Z" changeset="165018543" uid="718054" user="Piskvor">
    <nd ref="1305098459"/>
    <nd ref="761438400"/>
    <nd ref="6926434"/>
    <tag k="highway" v="residential"/>
    <tag k="name" v="Bakurinova"/>
    <tag k="oneway" v="yes"/>
    <tag k="surface" v="paving_stones"/>
  </way>
  <way id="25924764" version="9" timestamp="2024-07-04T11:19:22Z" changeset="153541642" uid="10932047" user="AF HAF KARTOGRAF">
    <nd ref="282788925"/>
    <nd ref="12033226755"/>
    <nd ref="310876092"/>
    <tag k="highway" v="residential"/>
    <tag k="lanes" v="2"/>
    <tag k="lit" v="yes"/>
    <tag k="maxheight" v="3.5"/>
    <tag k="name" v="N치rodn칤ch hrdin콢"/>
    <tag k="surface" v="asphalt"/>
  </way>
  <way id="25924765" version="9" timestamp="2021-11-07T13:43:48Z" changeset="113480510" uid="102554" user="Jezevec">
    <nd ref="282788927"/>
    <nd ref="5663901328"/>
    <nd ref="282788925"/>
    <tag k="highway" v="residential"/>
    <tag k="lanes" v="2"/>
    <tag k="lit" v="yes"/>
    <tag k="maxheight" v="3.5"/>
    <tag k="name" v="N치rodn칤ch hrdin콢"/>
    <tag k="surface" v="asphalt"/>
  </way>
  <way id="26295425" version="11" timestamp="2024-01-28T14:55:41Z" changeset="146781959" uid="469828" user="Luk치코 Jel칤nek">
    <nd ref="288042472"/>
    <nd ref="288042474"/>
    <tag k="bridge" v="yes"/>
    <tag k="bridge:structure" v="beam"/>
    <tag k="cycleway:both" v="no"/>
    <tag k="highway" v="unclassified"/>
    <tag k="lane_markings" v="no"/>
    <tag k="layer" v="1"/>
    <tag k="lit" v="no"/>
    <tag k="maxweight:signed" v="no"/>
    <tag k="name" v="V Padolin캩"/>
    <tag k="smoothness" v="good"/>
    <tag k="surface" v="asphalt"/>
  </way>
  <way id="26295427" version="8" timestamp="2024-01-28T14:55:57Z" changeset="146780410" uid="469828" user="Luk치코 Jel칤nek">
    <nd ref="288042474"/>
    <nd ref="288042476"/>
    <tag k="highway" v="unclassified"/>
    <tag k="lane_markings" v="no"/>
    <tag k="lit" v="no"/>
    <tag k="name" v="V Padolin캩"/>
    <tag k="smoothness" v="good"/>
    <tag k="surface" v="asphalt"/>
  </way>
  <way id="26295428" version="7" timestamp="2024-06-02T22:23:54Z" changeset="152178447" uid="4997045" user="Tomas_J">
    <nd ref="288042476"/>
    <nd ref="9574038181"/>
    <nd ref="288042535"/>
    <nd ref="288042538"/>
    <nd ref="9574038180"/>
    <nd ref="288042541"/>
    <nd ref="9574038182"/>
    <nd ref="288042545"/>
    <nd ref="288042549"/>
    <nd ref="9574038183"/>
    <nd ref="288042554"/>
    <tag k="highway" v="unclassified"/>
    <tag k="lane_markings" v="no"/>
    <tag k="lit" v="no"/>
    <tag k="surface" v="asphalt"/>
  </way>
  <way id="26295430" version="6" timestamp="2024-08-14T22:33:05Z" changeset="155261632" uid="4018695" user="游뻟릖 Roman Horn칤k">
    <nd ref="288042477"/>
    <nd ref="288042589"/>
    <nd ref="288042592"/>
    <nd ref="288042595"/>
    <nd ref="12111586198"/>
    <nd ref="288042598"/>
    <nd ref="12111586199"/>
    <nd ref="12111586200"/>
    <nd ref="288042601"/>
    <nd ref="1398502433"/>
    <nd ref="1398502434"/>
    <nd ref="12111588801"/>
    <nd ref="1398502435"/>
    <nd ref="288042604"/>
    <tag k="highway" v="unclassified"/>
    <tag k="lane_markings" v="no"/>
    <tag k="lit" v="no"/>
    <tag k="surface" v="asphalt"/>
  </way>
  <way id="26295432" version="8" timestamp="2024-01-28T14:51:06Z" changeset="146780404" uid="469828" user="Luk치코 Jel칤nek">
    <nd ref="288042612"/>
    <nd ref="60261942"/>
    <tag k="highway" v="residential"/>
    <tag k="lane_markings" v="no"/>
    <tag k="lit" v="yes"/>
    <tag k="name" v="Libotovsk치"/>
    <tag k="sidewalk" v="no"/>
    <tag k="smoothness" v="good"/>
    <tag k="source:name" v="nameit/uir-adr"/>
    <tag k="surface" v="paving_stones"/>
  </way>
  <way id="27639887" version="25" timestamp="2024-08-15T08:21:58Z" changeset="155271468" uid="25867" user="adamos">
    <nd ref="8528035402"/>
    <nd ref="8528035401"/>
    <nd ref="25450831"/>
    <nd ref="8528035400"/>
    <nd ref="8528035399"/>
    <nd ref="8528035398"/>
    <nd ref="8528035397"/>
    <nd ref="8528035396"/>
    <nd ref="7997019669"/>
    <nd ref="8528035395"/>
    <nd ref="8528035394"/>
    <nd ref="8528035393"/>
    <nd ref="8528035392"/>
    <nd ref="8528035391"/>
    <nd ref="4812323083"/>
    <tag k="hgv:lanes" v="no|yes|yes"/>
    <tag k="highway" v="motorway"/>
    <tag k="int_ref" v="E 55;E 65"/>
    <tag k="lanes" v="3"/>
    <tag k="lit" v="yes"/>
    <tag k="maxspeed" v="80"/>
    <tag k="name" v="Pra쬽k칳 okruh"/>
    <tag k="name:de" v="Prager Ring"/>
    <tag k="name:en" v="Prague Ring"/>
    <tag k="oneway" v="yes"/>
    <tag k="placement" v="right_of:1"/>
    <tag k="ref" v="D0"/>
    <tag k="source:maxspeed" v="sign"/>
    <tag k="surface" v="asphalt"/>
    <tag k="toll" v="no"/>
    <tag k="toll:hgv" v="yes"/>
  </way>
  <way id="28514210" version="2" timestamp="2011-05-29T18:18:20Z" changeset="8284117" uid="3516" user="BiIbo">
    <nd ref="313218885"/>
    <nd ref="1305098458"/>
    <nd ref="1305098456"/>
    <nd ref="313218895"/>
    <nd ref="313218927"/>
    <nd ref="313218904"/>
    <nd ref="313218916"/>
    <tag k="highway" v="residential"/>
    <tag k="name" v="H콏ibojedsk치"/>
  </way>
  <way id="28675608" version="5" timestamp="2021-04-10T10:55:05Z" changeset="102692508" uid="6588887" user="Martin2035">
    <nd ref="315124574"/>
    <nd ref="8614558136"/>
    <nd ref="315124575"/>
    <nd ref="1305077730"/>
    <tag k="highway" v="residential"/>
    <tag k="motorcar" v="no"/>
    <tag k="name" v="Rudn칤kovsk치"/>
  </way>
  <way id="30847715" version="3" timestamp="2022-03-18T10:20:17Z" changeset="118626467" uid="718054" user="Piskvor">
    <nd ref="343134565"/>
    <nd ref="9587501729"/>
    <nd ref="343134573"/>
    <nd ref="343134580"/>
    <nd ref="343134588"/>
    <nd ref="343134591"/>
    <nd ref="1424370467"/>
    <nd ref="343134594"/>
    <tag k="highway" v="residential"/>
  </way>
  <way id="30847716" version="4" timestamp="2021-01-30T14:48:28Z" changeset="98415476" uid="469828" user="Luk치코 Jel칤nek">
    <nd ref="343134573"/>
    <nd ref="343134596"/>
    <nd ref="343134598"/>
    <nd ref="343134609"/>
    <nd ref="343134620"/>
    <nd ref="1424370458"/>
    <nd ref="1424370460"/>
    <nd ref="1424370461"/>
    <nd ref="343134623"/>
    <nd ref="343134626"/>
    <nd ref="1424370462"/>
    <nd ref="343134580"/>
    <tag k="highway" v="residential"/>
    <tag k="lit" v="yes"/>
    <tag k="surface" v="paving_stones"/>
  </way>
  <way id="30847837" version="9" timestamp="2024-01-28T14:47:04Z" changeset="146781614" uid="469828" user="Luk치코 Jel칤nek">
    <nd ref="288042476"/>
    <nd ref="10556858756"/>
    <nd ref="288042513"/>
    <nd ref="10556858755"/>
    <nd ref="10556858754"/>
    <nd ref="288042515"/>
    <nd ref="288042516"/>
    <nd ref="10556858753"/>
    <nd ref="288042518"/>
    <nd ref="10556858752"/>
    <nd ref="11559699364"/>
    <tag k="cycleway:both" v="no"/>
    <tag k="highway" v="unclassified"/>
    <tag k="lane_markings" v="no"/>
    <tag k="lit" v="no"/>
    <tag k="name" v="V Padolin캩"/>
    <tag k="smoothness" v="good"/>
    <tag k="surface" v="asphalt"/>
  </way>
  <way id="30847838" version="11" timestamp="2024-01-28T14:57:39Z" changeset="146780410" uid="469828" user="Luk치코 Jel칤nek">
    <nd ref="343135569"/>
    <nd ref="10556858766"/>
    <nd ref="30584980"/>
    <tag k="highway" v="residential"/>
    <tag k="lane_markings" v="no"/>
    <tag k="lit" v="yes"/>
    <tag k="name" v="V Pa콏ezin치ch"/>
    <tag k="sidewalk" v="no"/>
    <tag k="smoothness" v="good"/>
    <tag k="surface" v="paving_stones"/>
  </way>
  <way id="31929712" version="4" timestamp="2018-02-19T16:41:25Z" changeset="56496700" uid="718054" user="Piskvor">
    <nd ref="30573236"/>
    <nd ref="357753111"/>
    <tag k="bridge" v="yes"/>
    <tag k="bridge:structure" v="arch"/>
    <tag k="highway" v="residential"/>
    <tag k="lanes" v="1"/>
    <tag k="layer" v="1"/>
    <tag k="lit" v="yes"/>
    <tag k="name" v="N치rodn칤ch hrdin콢"/>
    <tag k="priority" v="backward"/>
    <tag k="surface" v="asphalt"/>
  </way>
  <way id="31929713" version="5" timestamp="2018-02-19T16:41:25Z" changeset="56496700" uid="718054" user="Piskvor">
    <nd ref="357753111"/>
    <nd ref="7296956"/>
    <tag k="highway" v="residential"/>
    <tag k="lanes" v="2"/>
    <tag k="lit" v="yes"/>
    <tag k="name" v="N치rodn칤ch hrdin콢"/>
    <tag k="surface" v="asphalt"/>
  </way>
  <way id="32516463" version="4" timestamp="2018-02-19T16:41:25Z" changeset="56496700" uid="718054" user="Piskvor">
    <nd ref="310876092"/>
    <nd ref="7297083"/>
    <tag k="highway" v="residential"/>
    <tag k="lanes" v="2"/>
    <tag k="lit" v="yes"/>
    <tag k="name" v="N치rodn칤ch hrdin콢"/>
    <tag k="surface" v="asphalt"/>
  </way>
  <way id="33262485" version="22" timestamp="2025-03-30T12:06:48Z" changeset="164284436" uid="4018695" user="游뻟릖 Roman Horn칤k">
    <nd ref="7296959"/>
    <nd ref="1630078735"/>
    <nd ref="8614508501"/>
    <nd ref="8542128699"/>
    <nd ref="30573247"/>
    <nd ref="315124574"/>
    <nd ref="30573246"/>
    <nd ref="322980870"/>
    <nd ref="252054"/>
    <nd ref="1436640002"/>
    <nd ref="1262254089"/>
    <nd ref="30573241"/>
    <nd ref="6164655062"/>
    <nd ref="32636186"/>
    <nd ref="32636184"/>
    <nd ref="8614558120"/>
    <nd ref="9585592274"/>
    <tag k="highway" v="primary"/>
    <tag k="lanes" v="2"/>
    <tag k="lit" v="yes"/>
    <tag k="maxspeed" v="50"/>
    <tag k="name" v="캛eskobrodsk치"/>
    <tag k="ref" v="12"/>
    <tag k="surface" v="asphalt"/>
  </way>
  <way id="34431461" version="4" timestamp="2018-02-19T16:41:25Z" changeset="56496700" uid="718054" user="Piskvor">
    <nd ref="310875990"/>
    <nd ref="6926451"/>
    <tag k="highway" v="residential"/>
    <tag k="lanes" v="2"/>
    <tag k="lit" v="yes"/>
    <tag k="name" v="N치rodn칤ch hrdin콢"/>
    <tag k="surface" v="asphalt"/>
  </way>
  <way id="34431462" version="5" timestamp="2022-03-18T10:49:43Z" changeset="118627553" uid="718054" user="Piskvor">
    <nd ref="7296941"/>
    <nd ref="3662519651"/>
    <nd ref="30586798"/>
    <nd ref="7426923360"/>
    <tag k="highway" v="residential"/>
    <tag k="maxspeed" v="30"/>
    <tag k="name" v="Novoz치meck치"/>
    <tag k="source:maxspeed" v="sign"/>
    <tag k="surface" v="asphalt"/>
  </way>
  <way id="36346378" version="9" timestamp="2024-03-05T11:56:08Z" changeset="148247071" uid="718054" user="Piskvor">
    <nd ref="288042510"/>
    <nd ref="502521364"/>
    <nd ref="6926473"/>
    <nd ref="6926624"/>
    <nd ref="1285225244"/>
    <nd ref="6926618"/>
    <nd ref="32638684"/>
    <nd ref="6926613"/>
    <nd ref="6926608"/>
    <tag k="highway" v="residential"/>
    <tag k="lanes" v="2"/>
    <tag k="lit" v="yes"/>
    <tag k="name" v="Nad Rybn칤kem"/>
    <tag k="smoothness" v="intermediate"/>
    <tag k="surface" v="asphalt"/>
  </way>
  <way id="36346380" version="5" timestamp="2018-02-19T16:41:25Z" changeset="56496700" uid="718054" user="Piskvor">
    <nd ref="6926451"/>
    <nd ref="1398502430"/>
    <nd ref="2074831089"/>
    <nd ref="1398502431"/>
    <nd ref="6926454"/>
    <tag k="highway" v="residential"/>
    <tag k="lanes" v="2"/>
    <tag k="lit" v="yes"/>
    <tag k="name" v="N치rodn칤ch hrdin콢"/>
    <tag k="surface" v="asphalt"/>
  </way>
  <way id="38730470" version="6" timestamp="2024-01-28T14:56:05Z" changeset="146780410" uid="469828" user="Luk치코 Jel칤nek">
    <nd ref="288042477"/>
    <nd ref="288042472"/>
    <tag k="highway" v="unclassified"/>
    <tag k="lane_markings" v="no"/>
    <tag k="lit" v="no"/>
    <tag k="name" v="V Padolin캩"/>
    <tag k="smoothness" v="good"/>
    <tag k="surface" v="asphalt"/>
  </way>
  <way id="45045271" version="8" timestamp="2024-04-06T20:59:12Z" changeset="149671871" uid="286563" user="Thierry1030">
    <nd ref="30584967"/>
    <nd ref="30584978"/>
    <nd ref="30584979"/>
    <tag k="highway" v="residential"/>
    <tag k="lane_markings" v="no"/>
    <tag k="lit" v="yes"/>
    <tag k="maxspeed" v="30"/>
    <tag k="name" v="V Pa콏ezin치ch"/>
    <tag k="smoothness" v="good"/>
    <tag k="surface" v="paving_stones"/>
  </way>
  <way id="45045272" version="4" timestamp="2021-01-30T14:16:08Z" changeset="98415419" uid="469828" user="Luk치코 Jel칤nek">
    <nd ref="30584816"/>
    <nd ref="288042470"/>
    <nd ref="30023900"/>
    <tag k="highway" v="residential"/>
    <tag k="lanes" v="2"/>
    <tag k="lit" v="yes"/>
    <tag k="name" v="Nad Rybn칤kem"/>
    <tag k="sidewalk" v="left"/>
    <tag k="surface" v="paving_stones"/>
  </way>
  <way id="45045273" version="6" timestamp="2021-01-30T16:40:43Z" changeset="98421265" uid="469828" user="Luk치코 Jel칤nek">
    <nd ref="30023899"/>
    <nd ref="571223327"/>
    <nd ref="4261478942"/>
    <nd ref="30584815"/>
    <nd ref="343135744"/>
    <nd ref="8378638964"/>
    <nd ref="30584816"/>
    <tag k="highway" v="residential"/>
    <tag k="lanes" v="2"/>
    <tag k="lit" v="yes"/>
    <tag k="name" v="Nad Rybn칤kem"/>
    <tag k="sidewalk" v="left"/>
    <tag k="surface" v="asphalt"/>
  </way>
  <way id="81797166" version="10" timestamp="2019-10-31T23:07:33Z" changeset="76470364" uid="3003739" user="r00tcz">
    <nd ref="7296956"/>
    <nd ref="6935990382"/>
    <nd ref="6935990383"/>
    <nd ref="310876331"/>
    <nd ref="1305130704"/>
    <nd ref="6926443"/>
    <tag k="highway" v="residential"/>
    <tag k="lanes" v="2"/>
    <tag k="lit" v="yes"/>
    <tag k="name" v="N치rodn칤ch hrdin콢"/>
    <tag k="surface" v="asphalt"/>
  </way>
  <way id="85327141" version="8" timestamp="2024-01-28T18:07:39Z" changeset="146789863" uid="469828" user="Luk치코 Jel칤nek">
    <nd ref="571223325"/>
    <nd ref="11560247200"/>
    <nd ref="288042487"/>
    <nd ref="288042485"/>
    <nd ref="288042484"/>
    <nd ref="11560247199"/>
    <nd ref="288042482"/>
    <nd ref="11560247198"/>
    <nd ref="288042481"/>
    <nd ref="11560247197"/>
    <nd ref="288042479"/>
    <nd ref="288042477"/>
    <tag k="cycleway:both" v="no"/>
    <tag k="highway" v="unclassified"/>
    <tag k="lane_markings" v="no"/>
    <tag k="lit" v="no"/>
    <tag k="name" v="V Padolin캩"/>
    <tag k="smoothness" v="good"/>
    <tag k="surface" v="asphalt"/>
  </way>
  <way id="89251600" version="16" timestamp="2021-03-17T10:18:25Z" changeset="101179517" uid="11276832" user="HaPe-CZ">
    <nd ref="1035743111"/>
    <nd ref="8509730699"/>
    <nd ref="8509730700"/>
    <nd ref="8509730701"/>
    <nd ref="29094937"/>
    <nd ref="8509730702"/>
    <nd ref="8509730703"/>
    <nd ref="1628616259"/>
    <tag k="hgv:lanes" v="no|yes"/>
    <tag k="highway" v="trunk"/>
    <tag k="int_ref" v="E 55;E 65"/>
    <tag k="lanes" v="2"/>
    <tag k="lit" v="yes"/>
    <tag k="maxheight" v="default"/>
    <tag k="maxspeed" v="80"/>
    <tag k="motorroad" v="yes"/>
    <tag k="name" v="맚캩rboholsk치 spojka"/>
    <tag k="oneway" v="yes"/>
    <tag k="source:maxspeed" v="sign"/>
    <tag k="toll" v="no"/>
  </way>
  <way id="89251641" version="15" timestamp="2023-10-22T15:43:36Z" changeset="142974433" uid="657539" user="MFprg">
    <nd ref="1035742821"/>
    <nd ref="1035743111"/>
    <tag k="bridge" v="yes"/>
    <tag k="bridge:structure" v="beam"/>
    <tag k="hgv:lanes" v="no|yes"/>
    <tag k="highway" v="trunk"/>
    <tag k="int_ref" v="E 55;E 65"/>
    <tag k="lanes" v="2"/>
    <tag k="layer" v="1"/>
    <tag k="lit" v="yes"/>
    <tag k="maxheight" v="default"/>
    <tag k="maxspeed" v="80"/>
    <tag k="maxweight:signed" v="no"/>
    <tag k="motorroad" v="yes"/>
    <tag k="name" v="맚캩rboholsk치 spojka"/>
    <tag k="oneway" v="yes"/>
    <tag k="source:maxspeed" v="CZ:urban_trunk"/>
    <tag k="toll" v="no"/>
  </way>
  <way id="89251659" version="13" timestamp="2023-04-13T19:36:07Z" changeset="134876671" uid="8971394" user="vojtechzaboril">
    <nd ref="1035742507"/>
    <nd ref="1035743193"/>
    <tag k="bridge" v="yes"/>
    <tag k="bridge:structure" v="beam"/>
    <tag k="highway" v="trunk"/>
    <tag k="int_ref" v="E 55;E 65"/>
    <tag k="lanes" v="3"/>
    <tag k="layer" v="1"/>
    <tag k="lit" v="yes"/>
    <tag k="maxheight" v="default"/>
    <tag k="maxspeed" v="80"/>
    <tag k="motorroad" v="yes"/>
    <tag k="name" v="맚캩rboholsk치 spojka"/>
    <tag k="oneway" v="yes"/>
    <tag k="placement" v="right_of:1"/>
    <tag k="source:maxspeed" v="sign"/>
    <tag k="toll" v="no"/>
    <tag k="turn:lanes" v="none|none|merge_to_left"/>
  </way>
  <way id="113515507" version="13" timestamp="2025-04-03T11:42:04Z" changeset="164460628" uid="718054" user="Piskvor">
    <nd ref="12712980348"/>
    <nd ref="12712980349"/>
    <nd ref="32636753"/>
    <nd ref="6616615963"/>
    <nd ref="611343817"/>
    <nd ref="322947762"/>
    <nd ref="12725488490"/>
    <nd ref="30585614"/>
    <nd ref="12712980347"/>
    <nd ref="322947764"/>
    <tag k="highway" v="primary"/>
    <tag k="lanes" v="2"/>
    <tag k="maxspeed" v="80"/>
    <tag k="name" v="캛eskobrodsk치"/>
    <tag k="ref" v="12"/>
    <tag k="source:maxspeed" v="sign"/>
    <tag k="surface" v="asphalt"/>
  </way>
  <way id="113515508" version="8" timestamp="2022-01-26T20:01:35Z" changeset="116636851" uid="8971394" user="vojtechzaboril">
    <nd ref="322947743"/>
    <nd ref="4976270298"/>
    <nd ref="4976270313"/>
    <nd ref="21263171"/>
    <tag k="cycleway:right" v="no"/>
    <tag k="highway" v="primary"/>
    <tag k="lanes" v="2"/>
    <tag k="lit" v="yes"/>
    <tag k="maxspeed" v="50"/>
    <tag k="name" v="캛eskobrodsk치"/>
    <tag k="oneway" v="yes"/>
    <tag k="placement" v="middle_of:2"/>
    <tag k="ref" v="12"/>
    <tag k="source:maxspeed" v="CZ:urban"/>
    <tag k="surface" v="asphalt"/>
    <tag k="turn:lanes" v="left|through;right"/>
  </way>
  <way id="119477848" version="2" timestamp="2012-05-18T20:20:27Z" changeset="11636957" uid="488732" user="montardo">
    <nd ref="1342422654"/>
    <nd ref="1342422656"/>
    <nd ref="1757592258"/>
    <nd ref="1342422658"/>
    <nd ref="1342422652"/>
    <nd ref="1342422660"/>
    <tag k="highway" v="residential"/>
    <tag k="name" v="Hod캩jovsk치"/>
  </way>
  <way id="125973657" version="6" timestamp="2023-03-25T22:36:18Z" changeset="134120428" uid="469828" user="Luk치코 Jel칤nek">
    <nd ref="6926443"/>
    <nd ref="6936027089"/>
    <nd ref="6926445"/>
    <nd ref="953202265"/>
    <nd ref="310876450"/>
    <nd ref="1398502429"/>
    <nd ref="10762193697"/>
    <nd ref="2074831086"/>
    <nd ref="310875990"/>
    <tag k="highway" v="residential"/>
    <tag k="lanes" v="2"/>
    <tag k="lit" v="yes"/>
    <tag k="name" v="N치rodn칤ch hrdin콢"/>
    <tag k="surface" v="asphalt"/>
  </way>
  <way id="126504872" version="4" timestamp="2025-04-16T09:12:11Z" changeset="165018543" uid="718054" user="Piskvor">
    <nd ref="1305098459"/>
    <nd ref="6936027087"/>
    <nd ref="313220130"/>
    <nd ref="6936027088"/>
    <nd ref="1305130702"/>
    <nd ref="6926443"/>
    <tag k="highway" v="residential"/>
    <tag k="name" v="Star치 obec"/>
    <tag k="surface" v="paving_stones"/>
  </way>
  <way id="129021399" version="1" timestamp="2011-09-05T19:27:56Z" changeset="9221133" uid="17615" user="Petr Dlouh칳">
    <nd ref="343134626"/>
    <nd ref="343134598"/>
    <tag k="highway" v="residential"/>
    <tag k="source" v="bing:ortofoto"/>
  </way>
  <way id="129021401" version="1" timestamp="2011-09-05T19:27:56Z" changeset="9221133" uid="17615" user="Petr Dlouh칳">
    <nd ref="343134596"/>
    <nd ref="1424370462"/>
    <tag k="highway" v="residential"/>
    <tag k="source" v="bing:ortofoto"/>
  </way>
  <way id="145924004" version="3" timestamp="2025-03-30T12:06:48Z" changeset="164284436" uid="4018695" user="游뻟릖 Roman Horn칤k">
    <nd ref="1305077730"/>
    <nd ref="1305077434"/>
    <nd ref="1305077650"/>
    <nd ref="1305077521"/>
    <nd ref="8614558139"/>
    <nd ref="30573247"/>
    <tag k="highway" v="residential"/>
    <tag k="name" v="Bohuslavick치"/>
    <tag k="oneway" v="yes"/>
  </way>
  <way id="149935784" version="11" timestamp="2023-04-29T14:39:16Z" changeset="135504733" uid="469828" user="Luk치코 Jel칤nek">
    <nd ref="3662511203"/>
    <nd ref="8542113473"/>
    <nd ref="8542113452"/>
    <nd ref="1141171911"/>
    <nd ref="7296964"/>
    <nd ref="747042475"/>
    <nd ref="747042452"/>
    <nd ref="30586856"/>
    <nd ref="30586835"/>
    <nd ref="3661095137"/>
    <tag k="highway" v="tertiary"/>
    <tag k="lanes" v="2"/>
    <tag k="lit" v="yes"/>
    <tag k="name" v="N치rodn칤ch hrdin콢"/>
    <tag k="smoothness" v="good"/>
    <tag k="surface" v="asphalt"/>
  </way>
  <way id="150078017" version="3" timestamp="2021-04-10T10:55:05Z" changeset="102692508" uid="6588887" user="Martin2035">
    <nd ref="1305077730"/>
    <nd ref="1630078778"/>
    <nd ref="2093098080"/>
    <nd ref="1630078782"/>
    <nd ref="2093098087"/>
    <nd ref="1630078788"/>
    <nd ref="1630078798"/>
    <nd ref="8614558121"/>
    <nd ref="30573673"/>
    <tag k="highway" v="residential"/>
    <tag k="name" v="Bohuslavick치"/>
  </way>
  <way id="150078022" version="3" timestamp="2021-04-10T10:55:05Z" changeset="102692508" uid="6588887" user="Martin2035">
    <nd ref="1630078276"/>
    <nd ref="2093098070"/>
    <nd ref="1630078673"/>
    <nd ref="1630078774"/>
    <nd ref="2093098084"/>
    <nd ref="1630078788"/>
    <nd ref="2093098090"/>
    <nd ref="8614558133"/>
    <nd ref="30573241"/>
    <tag k="highway" v="residential"/>
    <tag k="name" v="Hraba캜ovsk치"/>
  </way>
  <way id="150078026" version="3" timestamp="2023-04-29T13:54:35Z" changeset="135504808" uid="469828" user="Luk치코 Jel칤nek">
    <nd ref="30573674"/>
    <nd ref="1630078640"/>
    <tag k="highway" v="residential"/>
    <tag k="name" v="Kohoutovsk치"/>
    <tag k="smoothness" v="good"/>
    <tag k="surface" v="paving_stones"/>
  </way>
  <way id="150078027" version="3" timestamp="2023-02-03T08:36:21Z" changeset="132031847" uid="4997045" user="Tomas_J">
    <nd ref="32636318"/>
    <nd ref="8614558117"/>
    <nd ref="32636186"/>
    <tag k="highway" v="residential"/>
    <tag k="name" v="Lan쬺vsk치"/>
    <tag k="surface" v="paving_stones"/>
  </way>
  <way id="150078030" version="1" timestamp="2012-02-12T17:15:36Z" changeset="10665363" uid="8007" user="vrabcak">
    <nd ref="1630077408"/>
    <nd ref="1630077498"/>
    <nd ref="1630077839"/>
    <nd ref="1630077943"/>
    <nd ref="1630078019"/>
    <tag k="highway" v="residential"/>
    <tag k="name" v="Listopadov치"/>
  </way>
  <way id="150078033" version="5" timestamp="2021-04-10T10:55:05Z" changeset="102692508" uid="6588887" user="Martin2035">
    <nd ref="1630078603"/>
    <nd ref="8614508500"/>
    <nd ref="1630078716"/>
    <nd ref="8614508503"/>
    <nd ref="7296959"/>
    <tag k="highway" v="tertiary"/>
    <tag k="lanes" v="2"/>
    <tag k="lit" v="yes"/>
    <tag k="maxweight" v="3.5"/>
    <tag k="name" v="N치rodn칤ch hrdin콢"/>
    <tag k="surface" v="asphalt"/>
  </way>
  <way id="150078035" version="7" timestamp="2022-03-18T10:49:43Z" changeset="118627553" uid="718054" user="Piskvor">
    <nd ref="7296959"/>
    <nd ref="1630078770"/>
    <nd ref="8614508502"/>
    <nd ref="8542128717"/>
    <nd ref="282788927"/>
    <tag k="highway" v="residential"/>
    <tag k="lanes" v="3"/>
    <tag k="lanes:backward" v="1"/>
    <tag k="lanes:forward" v="2"/>
    <tag k="lit" v="yes"/>
    <tag k="maxweight" v="3.5"/>
    <tag k="name" v="N치rodn칤ch hrdin콢"/>
    <tag k="surface" v="asphalt"/>
  </way>
  <way id="150078039" version="7" timestamp="2023-04-29T14:36:51Z" changeset="135506379" uid="469828" user="Luk치코 Jel칤nek">
    <nd ref="30586870"/>
    <nd ref="1630077349"/>
    <nd ref="1630077353"/>
    <nd ref="1630077408"/>
    <nd ref="1630077468"/>
    <nd ref="1630077473"/>
    <nd ref="1630077562"/>
    <nd ref="10746967437"/>
    <nd ref="10746967436"/>
    <nd ref="1630077848"/>
    <nd ref="10746967435"/>
    <nd ref="1630077908"/>
    <nd ref="10746967434"/>
    <nd ref="1630077940"/>
    <nd ref="10746967433"/>
    <nd ref="1630078026"/>
    <nd ref="1630078087"/>
    <nd ref="1630078124"/>
    <nd ref="1630078186"/>
    <nd ref="1630078228"/>
    <nd ref="1630078246"/>
    <nd ref="10746967428"/>
    <nd ref="1630078256"/>
    <nd ref="10746967427"/>
    <nd ref="1630078271"/>
    <nd ref="10746967425"/>
    <nd ref="10746967426"/>
    <nd ref="1630078360"/>
    <nd ref="1630078363"/>
    <nd ref="10746967424"/>
    <nd ref="1630078393"/>
    <nd ref="10746967423"/>
    <nd ref="1630078354"/>
    <nd ref="1630078276"/>
    <nd ref="2093098069"/>
    <nd ref="1630078266"/>
    <nd ref="10746967422"/>
    <nd ref="1630078254"/>
    <tag k="highway" v="residential"/>
    <tag k="lane_markings" v="no"/>
    <tag k="maxspeed:type" v="CZ:urban"/>
    <tag k="name" v="Podkrkono코sk치"/>
    <tag k="smoothness" v="good"/>
    <tag k="surface" v="asphalt"/>
  </way>
  <way id="150078044" version="1" timestamp="2012-02-12T17:15:38Z" changeset="10665363" uid="8007" user="vrabcak">
    <nd ref="1630078254"/>
    <nd ref="1630078473"/>
    <nd ref="1630078531"/>
    <tag k="highway" v="residential"/>
    <tag k="name" v="Rudn칤kovsk치"/>
  </way>
  <way id="150078049" version="6" timestamp="2023-04-29T14:46:46Z" changeset="135504808" uid="469828" user="Luk치코 Jel칤nek">
    <nd ref="1630078531"/>
    <nd ref="1630078480"/>
    <nd ref="1630078426"/>
    <nd ref="1630078421"/>
    <nd ref="1630078413"/>
    <nd ref="30573561"/>
    <tag k="highway" v="residential"/>
    <tag k="lanes" v="2"/>
    <tag k="lit" v="yes"/>
    <tag k="maxspeed:type" v="CZ:urban"/>
    <tag k="name" v="Svato켿ovick치"/>
    <tag k="smoothness" v="excellent"/>
    <tag k="surface" v="asphalt"/>
  </way>
  <way id="150078053" version="7" timestamp="2022-10-11T07:25:19Z" changeset="127339052" uid="469828" user="Luk치코 Jel칤nek">
    <nd ref="30586651"/>
    <nd ref="6616615955"/>
    <nd ref="7016547543"/>
    <tag k="highway" v="residential"/>
    <tag k="name" v="U Kone캜n칠"/>
    <tag k="oneway" v="yes"/>
    <tag k="smoothness" v="excellent"/>
    <tag k="surface" v="asphalt"/>
  </way>
  <way id="150078056" version="2" timestamp="2023-04-29T13:55:48Z" changeset="135504733" uid="469828" user="Luk치코 Jel칤nek">
    <nd ref="1630078617"/>
    <nd ref="30573674"/>
    <nd ref="1630078791"/>
    <nd ref="30573673"/>
    <nd ref="32636184"/>
    <tag k="highway" v="residential"/>
    <tag k="lit" v="yes"/>
    <tag k="name" v="V Z치horsk칠m"/>
  </way>
  <way id="150078057" version="2" timestamp="2023-03-19T22:15:11Z" changeset="133876058" uid="469828" user="Luk치코 Jel칤nek">
    <nd ref="1630078228"/>
    <nd ref="10746967429"/>
    <nd ref="1630078264"/>
    <nd ref="1630078357"/>
    <nd ref="1630078452"/>
    <nd ref="1630078553"/>
    <nd ref="1630078617"/>
    <tag k="highway" v="residential"/>
    <tag k="name" v="V Z치horsk칠m"/>
  </way>
  <way id="150078065" version="2" timestamp="2023-03-19T22:15:11Z" changeset="133876058" uid="469828" user="Luk치코 Jel칤nek">
    <nd ref="1630078019"/>
    <nd ref="1630078073"/>
    <nd ref="10746967432"/>
    <nd ref="1630078084"/>
    <nd ref="10746967431"/>
    <nd ref="1630078095"/>
    <nd ref="10746967430"/>
    <nd ref="1630078135"/>
    <nd ref="1630078192"/>
    <nd ref="1630078228"/>
    <tag k="highway" v="residential"/>
    <tag k="name" v="칔pick치"/>
  </way>
  <way id="150078067" version="5" timestamp="2022-08-18T12:01:29Z" changeset="125058982" uid="10630524" user="Fjana">
    <nd ref="30586651"/>
    <nd ref="1630078614"/>
    <tag k="highway" v="primary"/>
    <tag k="lanes" v="2"/>
    <tag k="lit" v="yes"/>
    <tag k="name" v="캛eskobrodsk치"/>
    <tag k="ref" v="12"/>
  </way>
  <way id="150078068" version="8" timestamp="2025-03-30T12:06:48Z" changeset="164284436" uid="4018695" user="游뻟릖 Roman Horn칤k">
    <nd ref="7296959"/>
    <nd ref="1630078725"/>
    <nd ref="8614508499"/>
    <nd ref="6616615970"/>
    <nd ref="30586651"/>
    <tag k="highway" v="primary"/>
    <tag k="lanes" v="2"/>
    <tag k="lit" v="yes"/>
    <tag k="maxspeed:type" v="CZ:urban"/>
    <tag k="name" v="캛eskobrodsk치"/>
    <tag k="ref" v="12"/>
    <tag k="surface" v="asphalt"/>
  </way>
  <way id="164098584" version="10" timestamp="2022-12-21T20:18:11Z" changeset="130347312" uid="10545359" user="kainloma">
    <nd ref="1757591841"/>
    <nd ref="3755588606"/>
    <nd ref="7460856404"/>
    <nd ref="7460856403"/>
    <nd ref="1757592011"/>
    <nd ref="1757591684"/>
    <nd ref="3892206434"/>
    <nd ref="1757591323"/>
    <nd ref="10278810160"/>
    <nd ref="10278810159"/>
    <nd ref="1757590804"/>
    <nd ref="10278810158"/>
    <nd ref="1757590763"/>
    <nd ref="10278810157"/>
    <nd ref="1757590569"/>
    <nd ref="10278810153"/>
    <nd ref="10278810154"/>
    <nd ref="1757590506"/>
    <nd ref="10278810155"/>
    <nd ref="1757590455"/>
    <nd ref="10278810156"/>
    <nd ref="1757590240"/>
    <nd ref="1757590223"/>
    <nd ref="4075622887"/>
    <nd ref="4206657020"/>
    <nd ref="1757590150"/>
    <nd ref="2570057066"/>
    <nd ref="1757590090"/>
    <nd ref="2998585900"/>
    <nd ref="1757589936"/>
    <tag k="bicycle" v="no"/>
    <tag k="highway" v="residential"/>
  </way>
  <way id="164098708" version="3" timestamp="2020-07-19T09:49:17Z" changeset="88195617" uid="4054181" user="Richard Janda">
    <nd ref="1757588750"/>
    <nd ref="7728133871"/>
    <nd ref="1757588746"/>
    <nd ref="1757589068"/>
    <tag k="highway" v="residential"/>
    <tag k="name" v="Staropack치"/>
  </way>
  <way id="195140781" version="5" timestamp="2022-05-05T17:35:44Z" changeset="120599366" uid="25867" user="adamos">
    <nd ref="2056229055"/>
    <nd ref="2056229023"/>
    <nd ref="2056229017"/>
    <nd ref="2056229003"/>
    <nd ref="3662519654"/>
    <nd ref="3662519653"/>
    <nd ref="3662519655"/>
    <nd ref="3662519656"/>
    <nd ref="2056229019"/>
    <nd ref="2056229046"/>
    <nd ref="2056229043"/>
    <nd ref="3452002571"/>
    <nd ref="2056229055"/>
    <tag k="building" v="hotel"/>
    <tag k="building:levels" v="1"/>
    <tag k="building:ruian:type" v="11"/>
    <tag k="name" v="Hotel Svornost"/>
    <tag k="ref:ruian:building" v="21457310"/>
    <tag k="source" v="cuzk:ruian"/>
    <tag k="tourism" v="hotel"/>
    <tag k="wikidata" v="Q64051416"/>
  </way>
  <way id="199558367" version="8" timestamp="2022-12-05T20:49:30Z" changeset="129756722" uid="469828" user="Luk치코 Jel칤nek">
    <nd ref="8497344181"/>
    <nd ref="8497344180"/>
    <nd ref="8497344179"/>
    <nd ref="2095524569"/>
    <nd ref="2095524478"/>
    <nd ref="8497344178"/>
    <nd ref="2095524483"/>
    <nd ref="2095524537"/>
    <nd ref="8497344177"/>
    <nd ref="8497344176"/>
    <nd ref="8497344175"/>
    <nd ref="8497344174"/>
    <nd ref="8497344181"/>
    <tag k="brand" v="Billa"/>
    <tag k="brand:wikidata" v="Q42969493"/>
    <tag k="brand:wikipedia" v="de:Billa"/>
    <tag k="building" v="commercial"/>
    <tag k="building:ruian:type" v="10"/>
    <tag k="name" v="Billa"/>
    <tag k="opening_hours" v="Mo-Sa 7:00 - 21:00, Su 8:00 - 21:00"/>
    <tag k="ref:ruian:building" v="52076806"/>
    <tag k="shop" v="supermarket"/>
    <tag k="source" v="cuzk:ruian"/>
    <tag k="start_date" v="2012-10-01"/>
    <tag k="wheelchair" v="yes"/>
  </way>
  <way id="199562923" version="4" timestamp="2021-02-08T06:40:43Z" changeset="98884811" uid="4997045" user="Tomas_J">
    <nd ref="2095576183"/>
    <nd ref="2095576204"/>
    <nd ref="2095576219"/>
    <nd ref="2095576217"/>
    <nd ref="2095576238"/>
    <nd ref="2095576231"/>
    <nd ref="2095576207"/>
    <nd ref="2095576206"/>
    <nd ref="2095576221"/>
    <nd ref="2095576210"/>
    <nd ref="2095576223"/>
    <nd ref="2095576113"/>
    <nd ref="2095576097"/>
    <nd ref="2095576143"/>
    <nd ref="5658799258"/>
    <nd ref="5658799257"/>
    <nd ref="2095576152"/>
    <nd ref="5658799256"/>
    <nd ref="5658799255"/>
    <nd ref="5658799254"/>
    <nd ref="2095576144"/>
    <nd ref="2095576162"/>
    <nd ref="2095576164"/>
    <nd ref="2095576136"/>
    <nd ref="5658799253"/>
    <nd ref="5658799252"/>
    <nd ref="5658799251"/>
    <nd ref="5658799250"/>
    <nd ref="2095576138"/>
    <nd ref="2095576166"/>
    <nd ref="2095576168"/>
    <nd ref="2095576183"/>
    <tag k="building" v="castle"/>
    <tag k="building:flats" v="5"/>
    <tag k="building:ruian:type" v="5"/>
    <tag k="name" v="Z치mek Doln칤 Po캜ernice"/>
    <tag k="ref:ruian:building" v="21454493"/>
    <tag k="source" v="cuzk:ruian"/>
    <tag k="wikidata" v="Q5289444"/>
    <tag k="wikipedia" v="cs:Doln칤 Po캜ernice (z치mek)"/>
  </way>
  <way id="199563024" version="5" timestamp="2024-10-29T16:41:44Z" changeset="158506917" uid="3755103" user="Ji콏칤 Eischmann">
    <nd ref="2095576101"/>
    <nd ref="2095576086"/>
    <nd ref="2095576072"/>
    <nd ref="2095576093"/>
    <nd ref="2095576101"/>
    <tag k="addr:city" v="Praha 9"/>
    <tag k="addr:housenumber" v="2"/>
    <tag k="addr:postcode" v="19012"/>
    <tag k="addr:street" v="N치rodn칤ch hrdin콢"/>
    <tag k="building" v="retail"/>
    <tag k="building:levels" v="1"/>
    <tag k="man_made" v="watermill"/>
    <tag k="name" v="Dolnopo캜ernick칳 ml칳n"/>
    <tag k="roof:levels" v="2"/>
    <tag k="roof:shape" v="gabled"/>
    <tag k="source" v="cuzk:km"/>
    <tag k="start_date" v="1862"/>
    <tag k="watermill:disused" v="yes"/>
    <tag k="wikidata" v="Q107406362"/>
    <tag k="wikipedia" v="cs:Dolnopo캜ernick칳 ml칳n"/>
  </way>
  <way id="199563176" version="3" timestamp="2017-01-27T13:35:17Z" changeset="45558782" uid="1558400" user="Kudej">
    <nd ref="2095576157"/>
    <nd ref="2095576172"/>
    <nd ref="2095576170"/>
    <nd ref="3452002359"/>
    <nd ref="2095576193"/>
    <nd ref="3452002396"/>
    <nd ref="3452002400"/>
    <nd ref="3452002392"/>
    <nd ref="3452002391"/>
    <nd ref="3452002363"/>
    <nd ref="2095576199"/>
    <nd ref="3452002372"/>
    <nd ref="3452002375"/>
    <nd ref="3452002377"/>
    <nd ref="3452002379"/>
    <nd ref="3452002382"/>
    <nd ref="3452002383"/>
    <nd ref="3452002385"/>
    <nd ref="3452002384"/>
    <nd ref="3452002381"/>
    <nd ref="3452002378"/>
    <nd ref="3452002376"/>
    <nd ref="3452002374"/>
    <nd ref="3452002371"/>
    <nd ref="3452002368"/>
    <nd ref="3452002369"/>
    <nd ref="3452002333"/>
    <nd ref="2095576179"/>
    <nd ref="2095576145"/>
    <nd ref="2095576142"/>
    <nd ref="2095576155"/>
    <nd ref="2095576157"/>
    <tag k="amenity" v="place_of_worship"/>
    <tag k="building" v="church"/>
    <tag k="building:ruian:type" v="5"/>
    <tag k="name" v="Nanebevzet칤 Panny Marie"/>
    <tag k="ref:ruian:building" v="50207822"/>
    <tag k="religion" v="christian"/>
    <tag k="source" v="cuzk:ruian"/>
    <tag k="wikidata" v="Q26252802"/>
    <tag k="wikipedia" v="cs:Kostel Nanebevzet칤 Panny Marie (Doln칤 Po캜ernice)"/>
  </way>
  <way id="250581429" version="2" timestamp="2022-09-29T11:01:02Z" changeset="126774654" uid="231749" user="Eino81">
    <nd ref="1757591684"/>
    <nd ref="2570057419"/>
    <tag k="bicycle" v="no"/>
    <tag k="highway" v="residential"/>
  </way>
  <way id="250581431" version="4" timestamp="2022-09-29T11:01:02Z" changeset="126774654" uid="231749" user="Eino81">
    <nd ref="2570057066"/>
    <nd ref="2570057105"/>
    <nd ref="2570057078"/>
    <nd ref="2570057175"/>
    <tag k="bicycle" v="no"/>
    <tag k="highway" v="residential"/>
    <tag k="source" v="cuzk:km"/>
    <tag k="surface" v="asphalt"/>
  </way>
  <way id="296095907" version="4" timestamp="2022-12-20T14:14:39Z" changeset="130292598" uid="10545359" user="kainloma">
    <nd ref="2570057078"/>
    <nd ref="2998585928"/>
    <nd ref="10275854686"/>
    <nd ref="2998585926"/>
    <nd ref="10275854685"/>
    <nd ref="2998585922"/>
    <nd ref="1757590090"/>
    <tag k="bicycle" v="no"/>
    <tag k="highway" v="residential"/>
    <tag k="source" v="cuzk:km"/>
    <tag k="surface" v="asphalt"/>
  </way>
  <way id="361314638" version="5" timestamp="2021-03-12T17:20:38Z" changeset="100922629" uid="718054" user="Piskvor">
    <nd ref="3658077506"/>
    <nd ref="30575043"/>
    <nd ref="8511216293"/>
    <nd ref="251333584"/>
    <nd ref="30575044"/>
    <nd ref="8511216290"/>
    <nd ref="30575045"/>
    <tag k="highway" v="tertiary"/>
    <tag k="lanes" v="2"/>
    <tag k="name" v="칔st콏edn칤"/>
    <tag k="surface" v="asphalt"/>
  </way>
  <way id="361655072" version="4" timestamp="2018-02-19T16:41:28Z" changeset="56496700" uid="718054" user="Piskvor">
    <nd ref="3661085955"/>
    <nd ref="3077241575"/>
    <nd ref="1628616263"/>
    <tag k="highway" v="tertiary"/>
    <tag k="lanes" v="2"/>
    <tag k="lit" v="no"/>
    <tag k="maxspeed:type" v="CZ:urban"/>
    <tag k="name" v="N치rodn칤ch hrdin콢"/>
    <tag k="surface" v="asphalt"/>
  </way>
  <way id="361655073" version="4" timestamp="2024-04-01T22:53:50Z" changeset="149455809" uid="469828" user="Luk치코 Jel칤nek">
    <nd ref="3661095137"/>
    <nd ref="3661095140"/>
    <nd ref="30586870"/>
    <nd ref="256610402"/>
    <nd ref="1141171942"/>
    <nd ref="11779095556"/>
    <nd ref="11779095557"/>
    <nd ref="1630077268"/>
    <nd ref="11779095558"/>
    <nd ref="3661085955"/>
    <tag k="highway" v="tertiary"/>
    <tag k="lanes" v="2"/>
    <tag k="lit" v="yes"/>
    <tag k="maxspeed" v="30"/>
    <tag k="name" v="N치rodn칤ch hrdin콢"/>
    <tag k="smoothness" v="good"/>
    <tag k="source:maxspeed" v="sign"/>
    <tag k="surface" v="asphalt"/>
  </way>
  <way id="361826475" version="5" timestamp="2023-02-03T14:24:56Z" changeset="132043198" uid="4997045" user="Tomas_J">
    <nd ref="7426923360"/>
    <nd ref="9587550118"/>
    <nd ref="7297083"/>
    <tag k="highway" v="residential"/>
    <tag k="maxspeed" v="30"/>
    <tag k="name" v="Novoz치meck치"/>
    <tag k="source:maxspeed" v="sign"/>
    <tag k="surface" v="asphalt"/>
    <tag k="width" v="6"/>
  </way>
  <way id="361827299" version="4" timestamp="2022-03-18T10:49:43Z" changeset="118627553" uid="718054" user="Piskvor">
    <nd ref="7995015558"/>
    <nd ref="1630397047"/>
    <nd ref="9587544115"/>
    <nd ref="32636314"/>
    <nd ref="30573552"/>
    <nd ref="9587544116"/>
    <nd ref="3662519652"/>
    <nd ref="30573546"/>
    <nd ref="1305098457"/>
    <nd ref="7296941"/>
    <tag k="highway" v="residential"/>
    <tag k="maxspeed" v="30"/>
    <tag k="name" v="Novoz치meck치"/>
    <tag k="source:maxspeed" v="sign"/>
    <tag k="surface" v="asphalt"/>
  </way>
  <way id="425593841" version="12" timestamp="2024-03-05T11:56:08Z" changeset="148247071" uid="718054" user="Piskvor">
    <nd ref="6926594"/>
    <nd ref="4261478938"/>
    <nd ref="4261478939"/>
    <nd ref="30023898"/>
    <nd ref="10556858737"/>
    <nd ref="4261478940"/>
    <nd ref="9580952331"/>
    <nd ref="4261478936"/>
    <tag k="cycleway:both" v="no"/>
    <tag k="highway" v="residential"/>
    <tag k="lanes" v="2"/>
    <tag k="lit" v="yes"/>
    <tag k="name" v="Nad Rybn칤kem"/>
    <tag k="sidewalk" v="left"/>
    <tag k="sidewalk:left:surface" v="paving_stones"/>
    <tag k="smoothness" v="good"/>
    <tag k="surface" v="asphalt"/>
  </way>
  <way id="425593849" version="5" timestamp="2024-03-05T11:56:08Z" changeset="148247071" uid="718054" user="Piskvor">
    <nd ref="4248805083"/>
    <nd ref="4248805082"/>
    <nd ref="4248805084"/>
    <nd ref="4248805081"/>
    <nd ref="4248805085"/>
    <tag k="covered" v="yes"/>
    <tag k="highway" v="residential"/>
    <tag k="lanes" v="2"/>
    <tag k="lit" v="yes"/>
    <tag k="maxheight" v="default"/>
    <tag k="name" v="Nad Rybn칤kem"/>
    <tag k="priority" v="backward"/>
    <tag k="smoothness" v="intermediate"/>
    <tag k="surface" v="asphalt"/>
  </way>
  <way id="453587030" version="7" timestamp="2022-02-17T11:02:04Z" changeset="117515004" uid="6588887" user="Martin2035">
    <nd ref="9513493932"/>
    <nd ref="4502997946"/>
    <nd ref="4502997945"/>
    <nd ref="4502997933"/>
    <nd ref="4502997944"/>
    <nd ref="4502997943"/>
    <nd ref="7460710096"/>
    <nd ref="7460710095"/>
    <tag k="highway" v="residential"/>
    <tag k="lanes" v="2"/>
    <tag k="maxspeed" v="50"/>
    <tag k="name" v="Dercsenyiho"/>
    <tag k="surface" v="asphalt"/>
  </way>
  <way id="488946723" version="10" timestamp="2024-08-14T22:33:05Z" changeset="155261632" uid="4018695" user="游뻟릖 Roman Horn칤k">
    <nd ref="4812323083"/>
    <nd ref="8528035387"/>
    <nd ref="8528035386"/>
    <nd ref="25450832"/>
    <nd ref="8521145256"/>
    <nd ref="25450833"/>
    <tag k="hgv:lanes" v="no|yes|yes"/>
    <tag k="highway" v="motorway"/>
    <tag k="int_ref" v="E 55;E 65"/>
    <tag k="lanes" v="3"/>
    <tag k="lit" v="yes"/>
    <tag k="maxspeed" v="80"/>
    <tag k="name" v="Pra쬽k칳 okruh"/>
    <tag k="name:de" v="Prager Ring"/>
    <tag k="name:en" v="Prague Ring"/>
    <tag k="oneway" v="yes"/>
    <tag k="placement" v="right_of:1"/>
    <tag k="ref" v="D0"/>
    <tag k="source:maxspeed" v="sign"/>
    <tag k="surface" v="asphalt"/>
    <tag k="toll" v="no"/>
    <tag k="toll:hgv" v="yes"/>
    <tag k="turn:lanes" v="||merge_to_left"/>
  </way>
  <way id="488946724" version="12" timestamp="2024-08-14T22:33:05Z" changeset="155261632" uid="4018695" user="游뻟릖 Roman Horn칤k">
    <nd ref="25450833"/>
    <nd ref="8528035373"/>
    <nd ref="8528035375"/>
    <nd ref="7997019670"/>
    <nd ref="25450834"/>
    <nd ref="8521145236"/>
    <nd ref="25450835"/>
    <nd ref="8511380811"/>
    <nd ref="25450836"/>
    <tag k="hgv:lanes" v="no|yes"/>
    <tag k="highway" v="motorway"/>
    <tag k="int_ref" v="E 55;E 65"/>
    <tag k="lanes" v="2"/>
    <tag k="lit" v="yes"/>
    <tag k="maxheight" v="default"/>
    <tag k="maxspeed" v="80"/>
    <tag k="name" v="Pra쬽k칳 okruh"/>
    <tag k="name:de" v="Prager Ring"/>
    <tag k="name:en" v="Prague Ring"/>
    <tag k="note" v="rezerva pro 3. pruh"/>
    <tag k="oneway" v="yes"/>
    <tag k="ref" v="D0"/>
    <tag k="source:maxspeed" v="sign"/>
    <tag k="surface" v="asphalt"/>
    <tag k="toll" v="no"/>
    <tag k="toll:hgv" v="yes"/>
  </way>
  <way id="488946725" version="8" timestamp="2023-01-25T11:03:09Z" changeset="131689900" uid="2061236" user="Thartek">
    <nd ref="303565990"/>
    <nd ref="8528035408"/>
    <nd ref="8528035407"/>
    <nd ref="8528035406"/>
    <nd ref="4812323084"/>
    <tag k="hgv:lanes" v="no|yes|no|yes"/>
    <tag k="highway" v="motorway"/>
    <tag k="int_ref" v="E 55;E 65"/>
    <tag k="lanes" v="4"/>
    <tag k="lit" v="yes"/>
    <tag k="maxspeed" v="80"/>
    <tag k="name" v="Pra쬽k칳 okruh"/>
    <tag k="name:de" v="Prager Ring"/>
    <tag k="name:en" v="Prague Ring"/>
    <tag k="oneway" v="yes"/>
    <tag k="placement" v="right_of:1"/>
    <tag k="ref" v="D0"/>
    <tag k="source:maxspeed" v="sign"/>
    <tag k="surface" v="asphalt"/>
    <tag k="toll" v="no"/>
    <tag k="toll:hgv" v="yes"/>
    <tag k="turn:lanes" v="|||merge_to_left"/>
  </way>
  <way id="508290782" version="10" timestamp="2025-03-30T12:06:48Z" changeset="164284436" uid="4018695" user="游뻟릖 Roman Horn칤k">
    <nd ref="9451082744"/>
    <nd ref="9451082745"/>
    <nd ref="9394320581"/>
    <nd ref="8510876102"/>
    <tag k="cycleway:right" v="no"/>
    <tag k="highway" v="primary"/>
    <tag k="lanes" v="2"/>
    <tag k="lit" v="yes"/>
    <tag k="maxheight" v="default"/>
    <tag k="maxspeed" v="50"/>
    <tag k="name" v="캛eskobrodsk치"/>
    <tag k="oneway" v="yes"/>
    <tag k="placement" v="middle_of:2"/>
    <tag k="ref" v="12"/>
    <tag k="source:maxspeed" v="CZ:urban"/>
    <tag k="surface" v="asphalt"/>
    <tag k="turn:lanes" v="merge_to_right|"/>
  </way>
  <way id="562522866" version="2" timestamp="2023-03-19T22:15:11Z" changeset="133876058" uid="469828" user="Luk치코 Jel칤nek">
    <nd ref="1630078603"/>
    <nd ref="1305077395"/>
    <nd ref="10746967405"/>
    <nd ref="1630078468"/>
    <nd ref="1305077702"/>
    <nd ref="1630078456"/>
    <nd ref="30573561"/>
    <nd ref="3662511203"/>
    <tag k="highway" v="tertiary"/>
    <tag k="lanes" v="2"/>
    <tag k="lit" v="yes"/>
    <tag k="name" v="N치rodn칤ch hrdin콢"/>
    <tag k="surface" v="asphalt"/>
  </way>
  <way id="593395024" version="6" timestamp="2023-01-15T14:44:32Z" changeset="131300939" uid="469828" user="Luk치코 Jel칤nek">
    <nd ref="4261478936"/>
    <nd ref="10556858767"/>
    <nd ref="4261478941"/>
    <nd ref="30023899"/>
    <tag k="highway" v="residential"/>
    <tag k="lanes" v="2"/>
    <tag k="lit" v="yes"/>
    <tag k="name" v="Nad Rybn칤kem"/>
    <tag k="sidewalk" v="left"/>
    <tag k="sidewalk:left:surface" v="paving_stones"/>
    <tag k="smoothness" v="good"/>
    <tag k="surface" v="asphalt"/>
  </way>
  <way id="593403453" version="2" timestamp="2022-08-18T12:01:29Z" changeset="125058982" uid="10630524" user="Fjana">
    <nd ref="1630078614"/>
    <nd ref="315124566"/>
    <tag k="highway" v="primary"/>
    <tag k="lanes" v="2"/>
    <tag k="lit" v="yes"/>
    <tag k="name" v="캛eskobrodsk치"/>
    <tag k="ref" v="12"/>
  </way>
  <way id="596494973" version="5" timestamp="2023-04-13T19:36:07Z" changeset="134876671" uid="8971394" user="vojtechzaboril">
    <nd ref="112174105"/>
    <nd ref="8190277107"/>
    <nd ref="8190277116"/>
    <nd ref="8509730657"/>
    <nd ref="1628616258"/>
    <nd ref="8509730658"/>
    <nd ref="8509730659"/>
    <nd ref="5401360476"/>
    <nd ref="8509730660"/>
    <nd ref="8509730661"/>
    <nd ref="21456223"/>
    <nd ref="8509730662"/>
    <nd ref="8509730663"/>
    <nd ref="8509730664"/>
    <nd ref="1035742507"/>
    <tag k="highway" v="trunk"/>
    <tag k="int_ref" v="E 55;E 65"/>
    <tag k="lanes" v="3"/>
    <tag k="lit" v="yes"/>
    <tag k="maxheight" v="default"/>
    <tag k="maxspeed" v="80"/>
    <tag k="motorroad" v="yes"/>
    <tag k="name" v="맚캩rboholsk치 spojka"/>
    <tag k="oneway" v="yes"/>
    <tag k="placement" v="right_of:1"/>
    <tag k="source:maxspeed" v="CZ:urban_trunk"/>
    <tag k="toll" v="no"/>
    <tag k="turn:lanes" v="none|none|merge_to_left"/>
  </way>
  <way id="602664378" version="5" timestamp="2021-03-20T21:17:54Z" changeset="101418347" uid="4054181" user="Richard Janda">
    <nd ref="1630078091"/>
    <nd ref="1630078181"/>
    <nd ref="8542128623"/>
    <nd ref="1630078236"/>
    <nd ref="5733482006"/>
    <tag k="highway" v="residential"/>
    <tag k="name" v="U Kone캜n칠"/>
    <tag k="tracktype" v="grade1"/>
  </way>
  <way id="604168484" version="3" timestamp="2024-04-01T22:46:51Z" changeset="149455686" uid="469828" user="Luk치코 Jel칤nek">
    <nd ref="5733482017"/>
    <nd ref="5733482018"/>
    <nd ref="8542113494"/>
    <nd ref="5733486521"/>
    <nd ref="8542113504"/>
    <nd ref="5733482019"/>
    <nd ref="11779133870"/>
    <nd ref="11779133871"/>
    <nd ref="1630078091"/>
    <tag k="highway" v="residential"/>
    <tag k="name" v="캛ernodolsk치"/>
  </way>
  <way id="750393546" version="5" timestamp="2022-10-11T07:24:47Z" changeset="127339052" uid="469828" user="Luk치코 Jel칤nek">
    <nd ref="7016547543"/>
    <nd ref="8542128727"/>
    <nd ref="1630078418"/>
    <tag k="highway" v="residential"/>
    <tag k="name" v="U Kone캜n칠"/>
    <tag k="oneway" v="yes"/>
    <tag k="smoothness" v="excellent"/>
    <tag k="surface" v="asphalt"/>
  </way>
  <way id="750393547" version="5" timestamp="2022-10-11T07:24:22Z" changeset="127341293" uid="469828" user="Luk치코 Jel칤nek">
    <nd ref="5733482006"/>
    <nd ref="1630078249"/>
    <nd ref="1630078418"/>
    <tag k="highway" v="residential"/>
    <tag k="maxspeed:type" v="CZ:urban"/>
    <tag k="name" v="U Kone캜n칠"/>
    <tag k="smoothness" v="excellent"/>
    <tag k="surface" v="asphalt"/>
    <tag k="tracktype" v="grade1"/>
  </way>
  <way id="784326550" version="5" timestamp="2023-04-13T19:36:07Z" changeset="134876671" uid="8971394" user="vojtechzaboril">
    <nd ref="1628616259"/>
    <nd ref="8509730704"/>
    <nd ref="8509730705"/>
    <nd ref="8190278625"/>
    <nd ref="8509730706"/>
    <nd ref="7326750654"/>
    <nd ref="112173223"/>
    <tag k="hgv:lanes" v="no|yes|yes"/>
    <tag k="highway" v="trunk"/>
    <tag k="int_ref" v="E 55;E 65"/>
    <tag k="lanes" v="3"/>
    <tag k="lit" v="yes"/>
    <tag k="maxheight" v="default"/>
    <tag k="maxspeed" v="80"/>
    <tag k="motorroad" v="yes"/>
    <tag k="name" v="맚캩rboholsk치 spojka"/>
    <tag k="oneway" v="yes"/>
    <tag k="placement" v="right_of:1"/>
    <tag k="source:maxspeed" v="sign"/>
    <tag k="toll" v="no"/>
    <tag k="turn:lanes" v="none|none|slight_right"/>
  </way>
  <way id="784326551" version="5" timestamp="2025-03-30T12:06:48Z" changeset="164284436" uid="4018695" user="游뻟릖 Roman Horn칤k">
    <nd ref="112173223"/>
    <nd ref="112174212"/>
    <tag k="hgv:lanes" v="no|yes"/>
    <tag k="highway" v="trunk"/>
    <tag k="int_ref" v="E 55;E 65"/>
    <tag k="lanes" v="2"/>
    <tag k="lit" v="yes"/>
    <tag k="maxheight" v="default"/>
    <tag k="maxspeed" v="80"/>
    <tag k="motorroad" v="yes"/>
    <tag k="name" v="맚캩rboholsk치 spojka"/>
    <tag k="oneway" v="yes"/>
    <tag k="source:maxspeed" v="sign"/>
    <tag k="toll" v="no"/>
  </way>
  <way id="784811345" version="4" timestamp="2025-03-30T12:06:48Z" changeset="164284436" uid="4018695" user="游뻟릖 Roman Horn칤k">
    <nd ref="21456221"/>
    <nd ref="112174105"/>
    <tag k="highway" v="trunk"/>
    <tag k="int_ref" v="E 55;E 65"/>
    <tag k="lanes" v="2"/>
    <tag k="lit" v="yes"/>
    <tag k="maxheight" v="default"/>
    <tag k="maxspeed" v="80"/>
    <tag k="motorroad" v="yes"/>
    <tag k="name" v="맚캩rboholsk치 spojka"/>
    <tag k="oneway" v="yes"/>
    <tag k="source:maxspeed" v="CZ:urban_trunk"/>
    <tag k="toll" v="no"/>
  </way>
  <way id="794820330" version="3" timestamp="2024-07-25T08:38:24Z" changeset="154381917" uid="718054" user="Piskvor">
    <nd ref="30575045"/>
    <nd ref="8509730589"/>
    <tag k="destination:backward" v="맚캩rboholy"/>
    <tag k="highway" v="tertiary"/>
    <tag k="lanes" v="3"/>
    <tag k="lanes:backward" v="1"/>
    <tag k="lanes:forward" v="2"/>
    <tag k="name" v="칔st콏edn칤"/>
    <tag k="surface" v="asphalt"/>
    <tag k="turn:lanes:forward" v="left|through"/>
  </way>
  <way id="895158809" version="1" timestamp="2021-01-14T08:43:37Z" changeset="97484239" uid="665336" user="Minimalis">
    <nd ref="6926454"/>
    <nd ref="1398502432"/>
    <nd ref="7460710091"/>
    <nd ref="6926457"/>
    <nd ref="4502997931"/>
    <nd ref="4502997940"/>
    <tag k="highway" v="residential"/>
    <tag k="note" v="silnice podel dalnice"/>
  </way>
  <way id="916171460" version="5" timestamp="2024-09-16T10:43:06Z" changeset="156682137" uid="8971394" user="vojtechzaboril">
    <nd ref="8509730571"/>
    <nd ref="8509730572"/>
    <nd ref="8509730573"/>
    <nd ref="8509730575"/>
    <nd ref="8509730574"/>
    <nd ref="8509730593"/>
    <nd ref="8509730569"/>
    <tag k="bicycle" v="no"/>
    <tag k="destination" v="Mlad치 Boleslav;Hradec Kr치lov칠;Kol칤n;B캩chovice"/>
    <tag k="highway" v="trunk_link"/>
    <tag k="horse" v="no"/>
    <tag k="lanes" v="1"/>
    <tag k="oneway" v="yes"/>
    <tag k="surface" v="asphalt"/>
  </way>
  <way id="916171461" version="5" timestamp="2024-09-16T10:43:06Z" changeset="156682137" uid="8971394" user="vojtechzaboril">
    <nd ref="30575046"/>
    <nd ref="8509730576"/>
    <nd ref="8509730577"/>
    <nd ref="8509730578"/>
    <nd ref="8509730574"/>
    <tag k="bicycle" v="no"/>
    <tag k="destination" v="Mlad치 Boleslav;Hradec Kr치lov칠;Kol칤n;B캩chovice"/>
    <tag k="highway" v="trunk_link"/>
    <tag k="horse" v="no"/>
    <tag k="lanes" v="1"/>
    <tag k="oneway" v="yes"/>
    <tag k="surface" v="asphalt"/>
  </way>
  <way id="916171462" version="5" timestamp="2024-09-16T10:43:06Z" changeset="156682137" uid="8971394" user="vojtechzaboril">
    <nd ref="8509730579"/>
    <nd ref="8509730580"/>
    <nd ref="8509730581"/>
    <nd ref="8509730582"/>
    <nd ref="8509730583"/>
    <nd ref="30575046"/>
    <tag k="bicycle" v="no"/>
    <tag k="destination" v="Doln칤 Po캜ernice"/>
    <tag k="highway" v="trunk_link"/>
    <tag k="horse" v="no"/>
    <tag k="lanes" v="1"/>
    <tag k="oneway" v="yes"/>
    <tag k="surface" v="asphalt"/>
  </way>
  <way id="916171463" version="5" timestamp="2024-09-16T10:43:06Z" changeset="156682137" uid="8971394" user="vojtechzaboril">
    <nd ref="8509730579"/>
    <nd ref="8509730584"/>
    <nd ref="8509730585"/>
    <nd ref="8509730586"/>
    <nd ref="8509730587"/>
    <nd ref="8509730588"/>
    <nd ref="8509730589"/>
    <tag k="bicycle" v="no"/>
    <tag k="destination" v="맚캩rboholy"/>
    <tag k="highway" v="trunk_link"/>
    <tag k="horse" v="no"/>
    <tag k="lanes" v="1"/>
    <tag k="oneway" v="yes"/>
    <tag k="surface" v="asphalt"/>
  </way>
  <way id="916184350" version="6" timestamp="2024-09-16T10:43:06Z" changeset="156682137" uid="8971394" user="vojtechzaboril">
    <nd ref="8509839249"/>
    <nd ref="8509839241"/>
    <nd ref="8509839242"/>
    <nd ref="8509839243"/>
    <nd ref="8509839244"/>
    <nd ref="112173768"/>
    <tag k="bicycle" v="no"/>
    <tag k="destination" v="Doln칤 Po캜ernice"/>
    <tag k="foot" v="no"/>
    <tag k="highway" v="trunk_link"/>
    <tag k="horse" v="no"/>
    <tag k="lanes" v="1"/>
    <tag k="lit" v="yes"/>
    <tag k="maxweight" v="6"/>
    <tag k="motorroad" v="no"/>
    <tag k="oneway" v="yes"/>
    <tag k="surface" v="asphalt"/>
  </way>
  <way id="916184353" version="6" timestamp="2024-09-16T10:43:06Z" changeset="156682137" uid="8971394" user="vojtechzaboril">
    <nd ref="8509839249"/>
    <nd ref="8509839250"/>
    <nd ref="8509839251"/>
    <nd ref="8509839252"/>
    <nd ref="8509839253"/>
    <nd ref="8509839254"/>
    <nd ref="8509839255"/>
    <nd ref="8509839256"/>
    <tag k="bicycle" v="no"/>
    <tag k="destination" v="맚캩rboholy"/>
    <tag k="foot" v="no"/>
    <tag k="highway" v="trunk_link"/>
    <tag k="horse" v="no"/>
    <tag k="lanes" v="1"/>
    <tag k="oneway" v="yes"/>
    <tag k="surface" v="asphalt"/>
  </way>
  <way id="916184354" version="5" timestamp="2024-09-16T10:43:06Z" changeset="156682137" uid="8971394" user="vojtechzaboril">
    <nd ref="112173768"/>
    <nd ref="8509839257"/>
    <nd ref="8509839258"/>
    <nd ref="8509839259"/>
    <nd ref="8509839260"/>
    <nd ref="8509839270"/>
    <nd ref="8509839262"/>
    <nd ref="8509839261"/>
    <tag k="bicycle" v="no"/>
    <tag k="destination" v="centrum"/>
    <tag k="foot" v="no"/>
    <tag k="highway" v="trunk_link"/>
    <tag k="horse" v="no"/>
    <tag k="lanes" v="1"/>
    <tag k="oneway" v="yes"/>
    <tag k="surface" v="asphalt"/>
  </way>
  <way id="916184355" version="5" timestamp="2024-09-16T10:43:06Z" changeset="156682137" uid="8971394" user="vojtechzaboril">
    <nd ref="30575047"/>
    <nd ref="8509839265"/>
    <nd ref="8509839266"/>
    <nd ref="8509839267"/>
    <nd ref="8509839268"/>
    <nd ref="8509839269"/>
    <nd ref="8509839270"/>
    <tag k="bicycle" v="no"/>
    <tag k="foot" v="no"/>
    <tag k="highway" v="trunk_link"/>
    <tag k="horse" v="no"/>
    <tag k="lanes" v="1"/>
    <tag k="oneway" v="yes"/>
    <tag k="surface" v="asphalt"/>
  </way>
  <way id="916300953" version="9" timestamp="2024-09-16T10:43:06Z" changeset="156682137" uid="8971394" user="vojtechzaboril">
    <nd ref="8510683470"/>
    <nd ref="9451082750"/>
    <nd ref="8510683490"/>
    <nd ref="8510683494"/>
    <nd ref="8510683496"/>
    <tag k="bicycle" v="no"/>
    <tag k="foot" v="no"/>
    <tag k="highway" v="motorway_link"/>
    <tag k="horse" v="no"/>
    <tag k="lanes" v="1"/>
    <tag k="lit" v="yes"/>
    <tag k="maxspeed" v="50"/>
    <tag k="motor_vehicle" v="designated"/>
    <tag k="oneway" v="yes"/>
    <tag k="surface" v="asphalt"/>
    <tag k="turn:lanes" v="left;through"/>
  </way>
  <way id="916300956" version="9" timestamp="2022-08-18T12:01:29Z" changeset="125058982" uid="10630524" user="Fjana">
    <nd ref="8510683496"/>
    <nd ref="8510683517"/>
    <tag k="cycleway:right" v="no"/>
    <tag k="highway" v="primary"/>
    <tag k="lanes" v="1"/>
    <tag k="lit" v="yes"/>
    <tag k="maxspeed" v="50"/>
    <tag k="name" v="캛eskobrodsk치"/>
    <tag k="oneway" v="yes"/>
    <tag k="ref" v="12"/>
    <tag k="surface" v="asphalt"/>
  </way>
  <way id="916300957" version="4" timestamp="2022-01-26T20:01:35Z" changeset="116636851" uid="8971394" user="vojtechzaboril">
    <nd ref="21263171"/>
    <nd ref="8510683599"/>
    <tag k="destination" v="centrum;Doln칤 Po캜ernice"/>
    <tag k="highway" v="primary"/>
    <tag k="lanes" v="2"/>
    <tag k="maxspeed" v="50"/>
    <tag k="name" v="캛eskobrodsk치"/>
    <tag k="oneway" v="yes"/>
    <tag k="placement" v="middle_of:2"/>
    <tag k="ref" v="12"/>
    <tag k="surface" v="asphalt"/>
    <tag k="turn:lanes" v="left|through"/>
  </way>
  <way id="916300958" version="4" timestamp="2022-08-18T12:01:29Z" changeset="125058982" uid="10630524" user="Fjana">
    <nd ref="8510683575"/>
    <nd ref="8510683572"/>
    <nd ref="8510683506"/>
    <tag k="highway" v="primary"/>
    <tag k="lanes" v="2"/>
    <tag k="maxspeed" v="60"/>
    <tag k="name" v="캛eskobrodsk치"/>
    <tag k="oneway" v="yes"/>
    <tag k="placement" v="middle_of:2"/>
    <tag k="ref" v="12"/>
    <tag k="source:maxspeed" v="sign"/>
    <tag k="turn:lanes" v="left|through"/>
  </way>
  <way id="916300973" version="8" timestamp="2024-09-16T10:43:06Z" changeset="156682137" uid="8971394" user="vojtechzaboril">
    <nd ref="8510683506"/>
    <nd ref="8510683510"/>
    <nd ref="8510683509"/>
    <nd ref="8510683508"/>
    <nd ref="2263005928"/>
    <tag k="bicycle" v="no"/>
    <tag k="foot" v="no"/>
    <tag k="highway" v="trunk_link"/>
    <tag k="horse" v="no"/>
    <tag k="lanes" v="1"/>
    <tag k="lit" v="yes"/>
    <tag k="maxspeed" v="50"/>
    <tag k="motor_vehicle" v="designated"/>
    <tag k="oneway" v="yes"/>
    <tag k="surface" v="asphalt"/>
  </way>
  <way id="916300974" version="5" timestamp="2022-08-18T12:01:29Z" changeset="125058982" uid="10630524" user="Fjana">
    <nd ref="8510683599"/>
    <nd ref="8510683605"/>
    <nd ref="8510683573"/>
    <nd ref="8510683576"/>
    <nd ref="322947760"/>
    <tag k="destination" v="centrum;Doln칤 Po캜ernice"/>
    <tag k="highway" v="primary"/>
    <tag k="lanes" v="1"/>
    <tag k="maxspeed" v="80"/>
    <tag k="name" v="캛eskobrodsk치"/>
    <tag k="oneway" v="yes"/>
    <tag k="ref" v="12"/>
    <tag k="source:maxspeed" v="sign"/>
    <tag k="surface" v="asphalt"/>
  </way>
  <way id="916300975" version="6" timestamp="2022-08-18T12:01:29Z" changeset="125058982" uid="10630524" user="Fjana">
    <nd ref="8510683506"/>
    <nd ref="8510683496"/>
    <tag k="highway" v="primary"/>
    <tag k="lanes" v="2"/>
    <tag k="maxspeed" v="60"/>
    <tag k="name" v="캛eskobrodsk치"/>
    <tag k="oneway" v="yes"/>
    <tag k="placement" v="middle_of:2"/>
    <tag k="ref" v="12"/>
    <tag k="source:maxspeed" v="sign"/>
    <tag k="turn:lanes" v="left|through"/>
  </way>
  <way id="916328823" version="2" timestamp="2021-08-18T17:14:48Z" changeset="109887612" uid="469828" user="Luk치코 Jel칤nek">
    <nd ref="8510876102"/>
    <nd ref="322947743"/>
    <tag k="cycleway:right" v="no"/>
    <tag k="highway" v="primary"/>
    <tag k="lanes" v="1"/>
    <tag k="lit" v="yes"/>
    <tag k="maxspeed" v="50"/>
    <tag k="name" v="캛eskobrodsk치"/>
    <tag k="oneway" v="yes"/>
    <tag k="ref" v="12"/>
    <tag k="source:maxspeed" v="CZ:urban"/>
    <tag k="surface" v="asphalt"/>
  </way>
  <way id="916328828" version="9" timestamp="2025-01-05T15:35:26Z" changeset="161025278" uid="469828" user="Luk치코 Jel칤nek">
    <nd ref="8510683517"/>
    <nd ref="9451082749"/>
    <nd ref="8510683516"/>
    <nd ref="8510683515"/>
    <nd ref="9451082752"/>
    <tag k="cycleway:right" v="no"/>
    <tag k="highway" v="primary"/>
    <tag k="lanes" v="2"/>
    <tag k="lit" v="yes"/>
    <tag k="maxheight" v="default"/>
    <tag k="maxspeed" v="50"/>
    <tag k="motorroad" v="no"/>
    <tag k="name" v="캛eskobrodsk치"/>
    <tag k="oneway" v="yes"/>
    <tag k="placement" v="middle_of:1"/>
    <tag k="sidewalk" v="no"/>
    <tag k="source:maxspeed" v="CZ:urban"/>
    <tag k="surface" v="asphalt"/>
  </way>
  <way id="918220006" version="3" timestamp="2025-03-30T12:06:48Z" changeset="164284436" uid="4018695" user="游뻟릖 Roman Horn칤k">
    <nd ref="112174212"/>
    <nd ref="29094939"/>
    <nd ref="251333423"/>
    <nd ref="8509730716"/>
    <nd ref="7331955280"/>
    <nd ref="8509730719"/>
    <nd ref="251333429"/>
    <nd ref="7331955269"/>
    <nd ref="8509730722"/>
    <nd ref="29094940"/>
    <nd ref="8509730724"/>
    <tag k="hgv:lanes" v="no|yes|yes"/>
    <tag k="highway" v="trunk"/>
    <tag k="int_ref" v="E 55;E 65"/>
    <tag k="lanes" v="3"/>
    <tag k="lit" v="yes"/>
    <tag k="maxheight" v="default"/>
    <tag k="maxspeed" v="80"/>
    <tag k="motorroad" v="yes"/>
    <tag k="name" v="맚캩rboholsk치 spojka"/>
    <tag k="oneway" v="yes"/>
    <tag k="placement" v="right_of:1"/>
    <tag k="source:maxspeed" v="CZ:urban_trunk"/>
    <tag k="toll" v="no"/>
    <tag k="turn:lanes" v="none|none|merge_to_left"/>
  </way>
  <way id="918220007" version="3" timestamp="2025-03-30T12:06:48Z" changeset="164284436" uid="4018695" user="游뻟릖 Roman Horn칤k">
    <nd ref="8509730692"/>
    <nd ref="8509730696"/>
    <nd ref="29094936"/>
    <nd ref="8509730697"/>
    <nd ref="8509730698"/>
    <nd ref="1035742821"/>
    <tag k="hgv:lanes" v="no|yes"/>
    <tag k="highway" v="trunk"/>
    <tag k="int_ref" v="E 55;E 65"/>
    <tag k="lanes" v="2"/>
    <tag k="lit" v="yes"/>
    <tag k="maxheight" v="default"/>
    <tag k="maxspeed" v="80"/>
    <tag k="motorroad" v="yes"/>
    <tag k="name" v="맚캩rboholsk치 spojka"/>
    <tag k="oneway" v="yes"/>
    <tag k="source:maxspeed" v="sign"/>
    <tag k="surface" v="asphalt"/>
    <tag k="toll" v="no"/>
  </way>
  <way id="918220008" version="4" timestamp="2025-03-30T12:06:48Z" changeset="164284436" uid="4018695" user="游뻟릖 Roman Horn칤k">
    <nd ref="8510653295"/>
    <nd ref="8527961237"/>
    <nd ref="12426322609"/>
    <nd ref="12426322610"/>
    <nd ref="8509952293"/>
    <nd ref="6791193971"/>
    <nd ref="6791193970"/>
    <nd ref="6791193969"/>
    <nd ref="6791193968"/>
    <nd ref="6791193967"/>
    <nd ref="6791193966"/>
    <nd ref="6791193965"/>
    <nd ref="8509839586"/>
    <nd ref="8509839585"/>
    <nd ref="263910609"/>
    <nd ref="8509839584"/>
    <nd ref="8509730692"/>
    <tag k="hgv:lanes" v="no|yes"/>
    <tag k="highway" v="trunk"/>
    <tag k="int_ref" v="E 55;E 65"/>
    <tag k="lanes" v="2"/>
    <tag k="lit" v="yes"/>
    <tag k="maxheight" v="default"/>
    <tag k="maxspeed" v="80"/>
    <tag k="motorroad" v="yes"/>
    <tag k="name" v="맚캩rboholsk치 spojka"/>
    <tag k="oneway" v="yes"/>
    <tag k="source:maxspeed" v="sign"/>
    <tag k="surface" v="asphalt"/>
    <tag k="toll" v="no"/>
  </way>
  <way id="946764543" version="3" timestamp="2022-08-18T12:01:29Z" changeset="125058982" uid="10630524" user="Fjana">
    <nd ref="322947766"/>
    <nd ref="30585615"/>
    <nd ref="1262245665"/>
    <tag k="highway" v="primary"/>
    <tag k="lanes" v="2"/>
    <tag k="maxspeed" v="80"/>
    <tag k="name" v="캛eskobrodsk치"/>
    <tag k="ref" v="12"/>
    <tag k="source:maxspeed" v="sign"/>
    <tag k="surface" v="asphalt"/>
  </way>
  <way id="946764544" version="4" timestamp="2025-03-30T12:06:48Z" changeset="164284436" uid="4018695" user="游뻟릖 Roman Horn칤k">
    <nd ref="322947764"/>
    <nd ref="12712980346"/>
    <nd ref="12712980345"/>
    <nd ref="322947766"/>
    <tag k="highway" v="primary"/>
    <tag k="lanes" v="3"/>
    <tag k="lanes:backward" v="1"/>
    <tag k="lanes:forward" v="2"/>
    <tag k="maxspeed" v="80"/>
    <tag k="name" v="캛eskobrodsk치"/>
    <tag k="ref" v="12"/>
    <tag k="source:maxspeed" v="sign"/>
    <tag k="surface" v="asphalt"/>
    <tag k="turn:lanes:forward" v="left|"/>
  </way>
  <way id="1018513303" version="2" timestamp="2022-08-18T12:01:29Z" changeset="125058982" uid="10630524" user="Fjana">
    <nd ref="1262245665"/>
    <nd ref="322947760"/>
    <tag k="highway" v="primary"/>
    <tag k="lanes" v="2"/>
    <tag k="maxspeed" v="80"/>
    <tag k="name" v="캛eskobrodsk치"/>
    <tag k="ref" v="12"/>
    <tag k="source:maxspeed" v="sign"/>
    <tag k="surface" v="asphalt"/>
  </way>
  <way id="1024989067" version="2" timestamp="2022-08-18T12:01:29Z" changeset="125058982" uid="10630524" user="Fjana">
    <nd ref="322947760"/>
    <nd ref="9451082748"/>
    <nd ref="8510683575"/>
    <tag k="highway" v="primary"/>
    <tag k="lanes" v="3"/>
    <tag k="maxspeed" v="60"/>
    <tag k="name" v="캛eskobrodsk치"/>
    <tag k="oneway" v="yes"/>
    <tag k="ref" v="12"/>
    <tag k="source:maxspeed" v="sign"/>
    <tag k="turn:lanes" v="left|through|right"/>
  </way>
  <way id="1024989068" version="1" timestamp="2022-01-26T20:01:35Z" changeset="116636851" uid="8971394" user="vojtechzaboril">
    <nd ref="8510683599"/>
    <nd ref="8510683506"/>
    <tag k="bicycle" v="no"/>
    <tag k="foot" v="no"/>
    <tag k="highway" v="primary_link"/>
    <tag k="horse" v="no"/>
    <tag k="lanes" v="1"/>
    <tag k="lit" v="yes"/>
    <tag k="maxspeed" v="50"/>
    <tag k="motor_vehicle" v="designated"/>
    <tag k="oneway" v="yes"/>
    <tag k="surface" v="asphalt"/>
  </way>
  <way id="1024989069" version="2" timestamp="2022-08-18T12:01:29Z" changeset="125058982" uid="10630524" user="Fjana">
    <nd ref="8510683496"/>
    <nd ref="21263171"/>
    <tag k="bicycle" v="no"/>
    <tag k="foot" v="no"/>
    <tag k="highway" v="primary_link"/>
    <tag k="horse" v="no"/>
    <tag k="lanes" v="1"/>
    <tag k="lit" v="yes"/>
    <tag k="maxspeed" v="50"/>
    <tag k="motor_vehicle" v="designated"/>
    <tag k="oneway" v="yes"/>
    <tag k="surface" v="asphalt"/>
    <tag k="turn:lanes" v="left;through"/>
  </way>
  <way id="1032525931" version="1" timestamp="2022-02-17T11:02:04Z" changeset="117515004" uid="6588887" user="Martin2035">
    <nd ref="9513493938"/>
    <nd ref="4502997937"/>
    <nd ref="4502997949"/>
    <nd ref="4502997935"/>
    <nd ref="7460710098"/>
    <nd ref="4502997948"/>
    <nd ref="4502997947"/>
    <nd ref="7460710097"/>
    <nd ref="4548310064"/>
    <nd ref="9513493931"/>
    <tag k="highway" v="residential"/>
    <tag k="lanes" v="2"/>
    <tag k="maxspeed" v="50"/>
    <tag k="name" v="Dercsenyiho"/>
    <tag k="surface" v="asphalt"/>
  </way>
  <way id="1032525932" version="2" timestamp="2022-10-04T11:57:46Z" changeset="126991429" uid="10545359" user="kainloma">
    <nd ref="9513493931"/>
    <nd ref="10074940018"/>
    <nd ref="6936010272"/>
    <nd ref="9513493932"/>
    <tag k="highway" v="residential"/>
    <tag k="lanes" v="2"/>
    <tag k="maxspeed" v="50"/>
    <tag k="name" v="Dercsenyiho"/>
    <tag k="surface" v="paving_stones"/>
  </way>
  <way id="1032525934" version="1" timestamp="2022-02-17T11:02:04Z" changeset="117515004" uid="6588887" user="Martin2035">
    <nd ref="9513493936"/>
    <nd ref="7460710094"/>
    <nd ref="9513493942"/>
    <nd ref="4502997941"/>
    <nd ref="7460710093"/>
    <nd ref="4502997940"/>
    <tag k="highway" v="residential"/>
    <tag k="lanes" v="2"/>
    <tag k="maxspeed" v="50"/>
    <tag k="name" v="Dercsenyiho"/>
    <tag k="surface" v="asphalt"/>
  </way>
  <way id="1032525935" version="1" timestamp="2022-02-17T11:02:04Z" changeset="117515004" uid="6588887" user="Martin2035">
    <nd ref="7460710095"/>
    <nd ref="4502997942"/>
    <tag k="highway" v="residential"/>
    <tag k="lanes" v="2"/>
    <tag k="maxspeed" v="50"/>
    <tag k="name" v="Dercsenyiho"/>
    <tag k="surface" v="paving_stones"/>
  </way>
  <way id="1032525938" version="2" timestamp="2022-10-04T11:59:02Z" changeset="126991515" uid="10545359" user="kainloma">
    <nd ref="4502997942"/>
    <nd ref="10074930622"/>
    <nd ref="9513493936"/>
    <tag k="highway" v="residential"/>
    <tag k="lanes" v="2"/>
    <tag k="maxspeed" v="50"/>
    <tag k="name" v="Dercsenyiho"/>
    <tag k="surface" v="paving_stones"/>
  </way>
  <way id="1041159330" version="2" timestamp="2022-08-18T12:01:29Z" changeset="125058982" uid="10630524" user="Fjana">
    <nd ref="9585592273"/>
    <nd ref="32636181"/>
    <nd ref="1288894859"/>
    <nd ref="32636174"/>
    <nd ref="1757589689"/>
    <nd ref="7781120"/>
    <tag k="highway" v="primary"/>
    <tag k="lanes" v="2"/>
    <tag k="lit" v="yes"/>
    <tag k="maxspeed" v="50"/>
    <tag k="name" v="캛eskobrodsk치"/>
    <tag k="ref" v="12"/>
    <tag k="surface" v="asphalt"/>
  </way>
  <way id="1041159331" version="2" timestamp="2022-08-18T12:01:29Z" changeset="125058982" uid="10630524" user="Fjana">
    <nd ref="9585592274"/>
    <nd ref="9585592273"/>
    <tag k="bridge" v="yes"/>
    <tag k="bridge:structure" v="beam"/>
    <tag k="highway" v="primary"/>
    <tag k="lanes" v="2"/>
    <tag k="layer" v="1"/>
    <tag k="lit" v="yes"/>
    <tag k="maxspeed" v="50"/>
    <tag k="name" v="캛eskobrodsk치"/>
    <tag k="ref" v="12"/>
    <tag k="surface" v="asphalt"/>
  </way>
  <way id="1042202770" version="1" timestamp="2022-03-21T10:42:33Z" changeset="118729609" uid="718054" user="Piskvor">
    <nd ref="9594102153"/>
    <nd ref="365599728"/>
    <nd ref="9594102154"/>
    <tag k="bridge" v="yes"/>
    <tag k="bridge:structure" v="beam"/>
    <tag k="highway" v="unclassified"/>
    <tag k="motor_vehicle" v="no"/>
    <tag k="name" v="Madarova"/>
    <tag k="surface" v="asphalt"/>
  </way>
  <way id="1042202771" version="2" timestamp="2023-03-25T22:36:18Z" changeset="134120428" uid="469828" user="Luk치코 Jel칤nek">
    <nd ref="1342422654"/>
    <nd ref="411000731"/>
    <nd ref="1757592167"/>
    <nd ref="7117753163"/>
    <nd ref="3754837032"/>
    <nd ref="7117753161"/>
    <nd ref="411000732"/>
    <nd ref="10762190204"/>
    <nd ref="6926328"/>
    <nd ref="9594102153"/>
    <tag k="highway" v="unclassified"/>
    <tag k="motor_vehicle" v="no"/>
    <tag k="name" v="Madarova"/>
    <tag k="surface" v="asphalt"/>
  </way>
  <way id="1043467154" version="1" timestamp="2022-03-24T14:51:29Z" changeset="118868421" uid="11545091" user="VladaC">
    <nd ref="502521354"/>
    <nd ref="6926470"/>
    <nd ref="288042510"/>
    <tag k="highway" v="residential"/>
    <tag k="lanes" v="2"/>
    <tag k="lit" v="yes"/>
    <tag k="name" v="Nad Rybn칤kem"/>
    <tag k="surface" v="asphalt"/>
  </way>
  <way id="1132169874" version="4" timestamp="2024-01-28T14:56:17Z" changeset="146780404" uid="469828" user="Luk치코 Jel칤nek">
    <nd ref="30584979"/>
    <nd ref="30584980"/>
    <nd ref="30584981"/>
    <tag k="highway" v="residential"/>
    <tag k="lane_markings" v="no"/>
    <tag k="lit" v="yes"/>
    <tag k="name" v="V Pa콏ezin치ch"/>
    <tag k="sidewalk" v="both"/>
    <tag k="sidewalk:both:surface" v="paving_stones"/>
    <tag k="smoothness" v="good"/>
    <tag k="surface" v="paving_stones"/>
  </way>
  <way id="1132170121" version="5" timestamp="2024-01-28T14:54:36Z" changeset="146780404" uid="469828" user="Luk치코 Jel칤nek">
    <nd ref="288042468"/>
    <nd ref="10556858765"/>
    <nd ref="30584981"/>
    <tag k="highway" v="residential"/>
    <tag k="lane_markings" v="no"/>
    <tag k="lit" v="yes"/>
    <tag k="name" v="V Padolin캩"/>
    <tag k="sidewalk" v="no"/>
    <tag k="smoothness" v="good"/>
    <tag k="surface" v="paving_stones"/>
  </way>
  <way id="1132170124" version="6" timestamp="2024-01-28T14:54:06Z" changeset="146781917" uid="469828" user="Luk치코 Jel칤nek">
    <nd ref="30584981"/>
    <nd ref="7846793328"/>
    <nd ref="10556858764"/>
    <nd ref="7846793327"/>
    <tag k="highway" v="residential"/>
    <tag k="lane_markings" v="no"/>
    <tag k="lit" v="yes"/>
    <tag k="name" v="V Padolin캩"/>
    <tag k="sidewalk" v="both"/>
    <tag k="sidewalk:both:surface" v="paving_stones"/>
    <tag k="smoothness" v="good"/>
    <tag k="surface" v="paving_stones"/>
  </way>
  <way id="1132170593" version="4" timestamp="2024-01-28T14:50:20Z" changeset="146780404" uid="469828" user="Luk치코 Jel칤nek">
    <nd ref="60261942"/>
    <nd ref="10556858768"/>
    <nd ref="10556858733"/>
    <nd ref="10556858748"/>
    <nd ref="30585079"/>
    <tag k="highway" v="residential"/>
    <tag k="lane_markings" v="no"/>
    <tag k="lit" v="yes"/>
    <tag k="name" v="V Padolin캩"/>
    <tag k="sidewalk" v="no"/>
    <tag k="sidewalk:right:surface" v="paving_stones"/>
    <tag k="smoothness" v="good"/>
    <tag k="surface" v="paving_stones"/>
  </way>
  <way id="1162256205" version="1" timestamp="2023-04-13T19:36:07Z" changeset="134876671" uid="8971394" user="vojtechzaboril">
    <nd ref="1035743193"/>
    <nd ref="8509730665"/>
    <nd ref="8509730666"/>
    <nd ref="8509730667"/>
    <nd ref="8509730668"/>
    <nd ref="8509730669"/>
    <nd ref="21456224"/>
    <nd ref="8509730670"/>
    <tag k="highway" v="trunk"/>
    <tag k="int_ref" v="E 55;E 65"/>
    <tag k="lanes" v="3"/>
    <tag k="lit" v="yes"/>
    <tag k="maxheight" v="default"/>
    <tag k="maxspeed" v="80"/>
    <tag k="motorroad" v="yes"/>
    <tag k="name" v="맚캩rboholsk치 spojka"/>
    <tag k="oneway" v="yes"/>
    <tag k="placement" v="right_of:1"/>
    <tag k="source:maxspeed" v="sign"/>
    <tag k="surface" v="asphalt"/>
    <tag k="toll" v="no"/>
    <tag k="turn:lanes" v="none|none|merge_to_left"/>
  </way>
  <way id="1243703633" version="3" timestamp="2024-01-28T14:47:18Z" changeset="146780410" uid="469828" user="Luk치코 Jel칤nek">
    <nd ref="11559699364"/>
    <nd ref="288042520"/>
    <nd ref="288042527"/>
    <nd ref="10556858751"/>
    <nd ref="288042530"/>
    <nd ref="10556858750"/>
    <nd ref="10556858749"/>
    <nd ref="30585079"/>
    <tag k="cycleway:both" v="no"/>
    <tag k="highway" v="unclassified"/>
    <tag k="lane_markings" v="no"/>
    <tag k="lit" v="no"/>
    <tag k="name" v="V Padolin캩"/>
    <tag k="smoothness" v="good"/>
    <tag k="surface" v="paving_stones"/>
  </way>
  <way id="1243705796" version="6" timestamp="2024-04-06T20:59:12Z" changeset="149671871" uid="286563" user="Thierry1030">
    <nd ref="30584977"/>
    <nd ref="30584967"/>
    <tag k="highway" v="residential"/>
    <tag k="lane_markings" v="no"/>
    <tag k="lit" v="yes"/>
    <tag k="maxspeed" v="30"/>
    <tag k="name" v="V Pa콏ezin치ch"/>
    <tag k="sidewalk" v="left"/>
    <tag k="sidewalk:left:surface" v="paving_stones"/>
    <tag k="smoothness" v="excellent"/>
    <tag k="surface" v="asphalt"/>
  </way>
  <way id="1257795138" version="1" timestamp="2024-03-05T11:56:08Z" changeset="148247071" uid="718054" user="Piskvor">
    <nd ref="6926608"/>
    <nd ref="9580952293"/>
    <nd ref="6926603"/>
    <nd ref="4248805087"/>
    <nd ref="32638683"/>
    <nd ref="4248805080"/>
    <nd ref="4248805088"/>
    <nd ref="6926598"/>
    <nd ref="4248805083"/>
    <tag k="highway" v="residential"/>
    <tag k="lanes" v="2"/>
    <tag k="lit" v="yes"/>
    <tag k="name" v="Nad Rybn칤kem"/>
    <tag k="priority" v="backward"/>
    <tag k="smoothness" v="intermediate"/>
    <tag k="surface" v="asphalt"/>
  </way>
  <way id="1257795139" version="1" timestamp="2024-03-05T11:56:08Z" changeset="148247071" uid="718054" user="Piskvor">
    <nd ref="4248805085"/>
    <nd ref="6926595"/>
    <nd ref="4248805086"/>
    <nd ref="32638682"/>
    <nd ref="9580952330"/>
    <nd ref="6926594"/>
    <tag k="cycleway:both" v="no"/>
    <tag k="highway" v="residential"/>
    <tag k="lanes" v="2"/>
    <tag k="lit" v="yes"/>
    <tag k="name" v="Nad Rybn칤kem"/>
    <tag k="priority" v="backward"/>
    <tag k="sidewalk" v="left"/>
    <tag k="sidewalk:left:surface" v="paving_stones"/>
    <tag k="smoothness" v="good"/>
    <tag k="surface" v="asphalt"/>
  </way>
  <way id="1303651289" version="2" timestamp="2024-09-16T10:43:06Z" changeset="156682137" uid="8971394" user="vojtechzaboril">
    <nd ref="8509839240"/>
    <nd ref="12073119764"/>
    <nd ref="8509839248"/>
    <nd ref="8509839249"/>
    <tag k="bicycle" v="no"/>
    <tag k="destination" v="Doln칤 Po캜ernice;맚캩rboholy"/>
    <tag k="foot" v="no"/>
    <tag k="highway" v="trunk_link"/>
    <tag k="horse" v="no"/>
    <tag k="lanes" v="1"/>
    <tag k="lit" v="yes"/>
    <tag k="maxweight" v="6"/>
    <tag k="motorroad" v="no"/>
    <tag k="oneway" v="yes"/>
    <tag k="surface" v="asphalt"/>
  </way>
  <way id="1303651290" version="2" timestamp="2024-09-16T10:43:06Z" changeset="156682137" uid="8971394" user="vojtechzaboril">
    <nd ref="112173771"/>
    <nd ref="12073119765"/>
    <nd ref="8509730592"/>
    <nd ref="8509730579"/>
    <tag k="bicycle" v="no"/>
    <tag k="highway" v="trunk_link"/>
    <tag k="horse" v="no"/>
    <tag k="lanes" v="1"/>
    <tag k="oneway" v="yes"/>
    <tag k="surface" v="asphalt"/>
  </way>
  <way id="1303651291" version="1" timestamp="2024-07-25T08:38:24Z" changeset="154381917" uid="718054" user="Piskvor">
    <nd ref="8509730589"/>
    <nd ref="30575046"/>
    <tag k="destination:backward" v="맚캩rboholy"/>
    <tag k="highway" v="tertiary"/>
    <tag k="lanes" v="3"/>
    <tag k="lanes:backward" v="1"/>
    <tag k="lanes:forward" v="2"/>
    <tag k="name" v="칔st콏edn칤"/>
    <tag k="surface" v="asphalt"/>
    <tag k="turn:lanes:forward" v="left|through"/>
  </way>
  <way id="1303651292" version="1" timestamp="2024-07-25T08:38:24Z" changeset="154381917" uid="718054" user="Piskvor">
    <nd ref="8509730571"/>
    <nd ref="256609637"/>
    <tag k="destination:forward" v="Doln칤 Po캜ernice"/>
    <tag k="highway" v="tertiary"/>
    <tag k="lanes" v="2"/>
    <tag k="name" v="칔st콏edn칤"/>
    <tag k="surface" v="asphalt"/>
  </way>
  <way id="1303651293" version="1" timestamp="2024-07-25T08:38:24Z" changeset="154381917" uid="718054" user="Piskvor">
    <nd ref="8509839256"/>
    <nd ref="112173768"/>
    <tag k="destination:backward" v="맚캩rboholy"/>
    <tag k="highway" v="tertiary"/>
    <tag k="lanes" v="3"/>
    <tag k="lanes:backward" v="1"/>
    <tag k="lanes:forward" v="2"/>
    <tag k="name" v="칔st콏edn칤"/>
    <tag k="surface" v="asphalt"/>
    <tag k="turn:lanes:forward" v="left|through"/>
  </way>
  <way id="1303651294" version="1" timestamp="2024-07-25T08:38:24Z" changeset="154381917" uid="718054" user="Piskvor">
    <nd ref="112173768"/>
    <nd ref="30575047"/>
    <tag k="destination:forward" v="Doln칤 Po캜ernice"/>
    <tag k="highway" v="tertiary"/>
    <tag k="lanes" v="2"/>
    <tag k="lit" v="yes"/>
    <tag k="maxspeed:type" v="CZ:urban"/>
    <tag k="name" v="칔st콏edn칤"/>
    <tag k="surface" v="asphalt"/>
  </way>
  <way id="1307912918" version="1" timestamp="2024-08-15T08:21:58Z" changeset="155271468" uid="25867" user="adamos">
    <nd ref="4812323084"/>
    <nd ref="8528035405"/>
    <nd ref="8528035404"/>
    <nd ref="8528035402"/>
    <tag k="hgv:lanes" v="no|yes|yes"/>
    <tag k="highway" v="motorway"/>
    <tag k="int_ref" v="E 55;E 65"/>
    <tag k="lanes" v="3"/>
    <tag k="lit" v="yes"/>
    <tag k="maxspeed" v="80"/>
    <tag k="name" v="Pra쬽k칳 okruh"/>
    <tag k="name:de" v="Prager Ring"/>
    <tag k="name:en" v="Prague Ring"/>
    <tag k="oneway" v="yes"/>
    <tag k="placement" v="right_of:1"/>
    <tag k="ref" v="D0"/>
    <tag k="source:maxspeed" v="sign"/>
    <tag k="surface" v="asphalt"/>
    <tag k="toll" v="no"/>
    <tag k="toll:hgv" v="yes"/>
  </way>
  <way id="1307916604" version="1" timestamp="2024-08-15T08:42:10Z" changeset="155272380" uid="8971394" user="vojtechzaboril">
    <nd ref="8528265239"/>
    <nd ref="12112203921"/>
    <nd ref="12112203920"/>
    <nd ref="12112203919"/>
    <nd ref="21456237"/>
    <tag k="hgv:lanes" v="no|yes|"/>
    <tag k="highway" v="motorway"/>
    <tag k="int_ref" v="E 55;E 65"/>
    <tag k="lanes" v="3"/>
    <tag k="lit" v="yes"/>
    <tag k="maxheight" v="default"/>
    <tag k="maxspeed" v="100"/>
    <tag k="name" v="Pra쬽k칳 okruh"/>
    <tag k="name:de" v="Prager Ring"/>
    <tag k="name:en" v="Prague Ring"/>
    <tag k="note" v="rezerva pro 3. pruh"/>
    <tag k="oneway" v="yes"/>
    <tag k="placement" v="right_of:1"/>
    <tag k="ref" v="D0"/>
    <tag k="source:maxspeed" v="sign"/>
    <tag k="surface" v="asphalt"/>
    <tag k="toll" v="no"/>
    <tag k="toll:hgv" v="yes"/>
    <tag k="turn:lanes" v="||slight_right"/>
  </way>
  <way id="1320684870" version="1" timestamp="2024-10-04T08:32:25Z" changeset="157449726" uid="22024708" user="Gondocz">
    <nd ref="1630397034"/>
    <nd ref="1630397013"/>
    <tag k="highway" v="residential"/>
    <tag k="name" v="Hru코kovsk치"/>
    <tag k="surface" v="paving_stones"/>
  </way>
  <way id="1343029841" version="1" timestamp="2024-12-17T18:14:13Z" changeset="160314507" uid="8971394" user="vojtechzaboril">
    <nd ref="8509730677"/>
    <nd ref="263910597"/>
    <tag k="highway" v="trunk"/>
    <tag k="int_ref" v="E 55;E 65"/>
    <tag k="lanes" v="3"/>
    <tag k="lit" v="yes"/>
    <tag k="maxheight" v="default"/>
    <tag k="maxspeed" v="80"/>
    <tag k="motorroad" v="yes"/>
    <tag k="name" v="맚캩rboholsk치 spojka"/>
    <tag k="oneway" v="yes"/>
    <tag k="placement" v="right_of:1"/>
    <tag k="source:maxspeed" v="sign"/>
    <tag k="surface" v="asphalt"/>
    <tag k="toll" v="no"/>
    <tag k="turn:lanes" v="||slight_right"/>
  </way>
  <way id="1343029842" version="2" timestamp="2025-03-30T12:06:48Z" changeset="164284436" uid="4018695" user="游뻟릖 Roman Horn칤k">
    <nd ref="8509730670"/>
    <nd ref="8509730677"/>
    <tag k="highway" v="trunk"/>
    <tag k="int_ref" v="E 55;E 65"/>
    <tag k="lanes" v="2"/>
    <tag k="lit" v="yes"/>
    <tag k="maxheight" v="default"/>
    <tag k="maxspeed" v="80"/>
    <tag k="motorroad" v="yes"/>
    <tag k="name" v="맚캩rboholsk치 spojka"/>
    <tag k="oneway" v="yes"/>
    <tag k="source:maxspeed" v="sign"/>
    <tag k="surface" v="asphalt"/>
    <tag k="toll" v="no"/>
  </way>
  <way id="1373015589" version="1" timestamp="2025-03-30T12:06:48Z" changeset="164284436" uid="4018695" user="游뻟릖 Roman Horn칤k">
    <nd ref="315124566"/>
    <nd ref="3049396294"/>
    <nd ref="3049396293"/>
    <nd ref="3049396291"/>
    <nd ref="252053"/>
    <nd ref="12712980348"/>
    <tag k="highway" v="primary"/>
    <tag k="lanes" v="2"/>
    <tag k="maxspeed" v="80"/>
    <tag k="name" v="캛eskobrodsk치"/>
    <tag k="ref" v="12"/>
    <tag k="source:maxspeed" v="sign"/>
    <tag k="surface" v="asphalt"/>
  </way>

</osm>
