<?xml version="1.0" encoding="UTF-8"?>
<osm version="0.6" generator="Overpass API 0.7.62.5 1bd436f1">
<note>The data included in this document is from www.openstreetmap.org. The data is made available under ODbL.</note>
<meta osm_base="2025-05-18T05:44:10Z" areas="2024-12-31T00:49:33Z"/>

  <node id="25450836" lat="50.0846981" lon="14.5941803" version="10" timestamp="2024-08-14T22:33:05Z" changeset="155261632" uid="4018695" user="游뻟릖 Roman Horn칤k">
    <tag k="maxspeed" v="80"/>
    <tag k="traffic_sign" v="maxspeed"/>
  </node>
  <node id="30584816" lat="50.0865180" lon="14.6036840" version="4" timestamp="2016-06-23T20:26:33Z" changeset="40244500" uid="1189910" user="Milancer"/>
  <node id="270508733" lat="50.0802154" lon="14.6299078" version="7" timestamp="2018-05-07T05:26:42Z" changeset="58745916" uid="1182568" user="Mari치n Kyral"/>
  <node id="1626024852" lat="50.0723874" lon="14.6294695" version="1" timestamp="2012-02-09T22:35:27Z" changeset="10639034" uid="8007" user="vrabcak"/>
  <node id="5869461407" lat="50.0766009" lon="14.5891544" version="4" timestamp="2021-03-12T18:02:36Z" changeset="100924823" uid="11276832" user="HaPe-CZ"/>
  <node id="5869461410" lat="50.0767533" lon="14.5893255" version="3" timestamp="2021-03-12T14:37:35Z" changeset="100915008" uid="11276832" user="HaPe-CZ"/>
  <node id="6374351060" lat="50.0952053" lon="14.6258672" version="1" timestamp="2019-03-31T17:36:02Z" changeset="68730745" uid="665336" user="Minimalis"/>
  <node id="8510653279" lat="50.0811564" lon="14.5932274" version="2" timestamp="2021-10-05T16:03:42Z" changeset="112130457" uid="8971394" user="vojtechzaboril"/>
  <node id="8510683470" lat="50.0811539" lon="14.5904578" version="2" timestamp="2022-01-26T20:01:35Z" changeset="116636851" uid="8971394" user="vojtechzaboril"/>
  <node id="8510683496" lat="50.0816800" lon="14.5906508" version="2" timestamp="2022-01-26T20:01:35Z" changeset="116636851" uid="8971394" user="vojtechzaboril"/>
  <node id="8510683506" lat="50.0816953" lon="14.5905422" version="2" timestamp="2022-01-26T20:01:35Z" changeset="116636851" uid="8971394" user="vojtechzaboril"/>
  <node id="8510683517" lat="50.0815840" lon="14.5913810" version="2" timestamp="2022-01-26T20:01:35Z" changeset="116636851" uid="8971394" user="vojtechzaboril"/>
  <node id="8510683575" lat="50.0818397" lon="14.5897258" version="2" timestamp="2022-01-26T20:01:35Z" changeset="116636851" uid="8971394" user="vojtechzaboril"/>
  <node id="8974869083" lat="50.0733342" lon="14.6020694" version="3" timestamp="2025-03-30T12:06:48Z" changeset="164284436" uid="4018695" user="游뻟릖 Roman Horn칤k"/>
  <node id="9451082744" lat="50.0814921" lon="14.5948039" version="1" timestamp="2022-01-26T20:01:35Z" changeset="116636851" uid="8971394" user="vojtechzaboril"/>
  <way id="4600533" version="28" timestamp="2025-03-30T12:06:48Z" changeset="164284436" uid="4018695" user="游뻟릖 Roman Horn칤k">
    <nd ref="25450836"/>
    <nd ref="8511302573"/>
    <nd ref="112162651"/>
    <nd ref="8511302579"/>
    <nd ref="5401360479"/>
    <nd ref="8511302581"/>
    <nd ref="25450837"/>
    <tag k="bridge" v="yes"/>
    <tag k="bridge:structure" v="beam"/>
    <tag k="hgv:lanes" v="no|yes|yes"/>
    <tag k="highway" v="motorway"/>
    <tag k="int_ref" v="E 55;E 65"/>
    <tag k="lanes" v="3"/>
    <tag k="layer" v="1"/>
    <tag k="lit" v="yes"/>
    <tag k="maxspeed" v="80"/>
    <tag k="name" v="Pra쬽k칳 okruh"/>
    <tag k="name:de" v="Prager Ring"/>
    <tag k="name:en" v="Prague Ring"/>
    <tag k="oneway" v="yes"/>
    <tag k="placement" v="right_of:1"/>
    <tag k="ref" v="D0"/>
    <tag k="source:maxspeed" v="sign"/>
    <tag k="surface" v="asphalt"/>
    <tag k="toll" v="no"/>
    <tag k="toll:hgv" v="yes"/>
    <tag k="turn:lanes" v="through|through|slight_right"/>
  </way>
  <way id="4889346" version="20" timestamp="2024-09-16T10:43:06Z" changeset="156682137" uid="8971394" user="vojtechzaboril">
    <nd ref="8510683575"/>
    <nd ref="31776172"/>
    <nd ref="8510683484"/>
    <nd ref="8510683483"/>
    <nd ref="4976285474"/>
    <nd ref="8510683482"/>
    <nd ref="8510683481"/>
    <nd ref="322947750"/>
    <nd ref="8510683480"/>
    <nd ref="4976285475"/>
    <nd ref="8510683479"/>
    <nd ref="8510683478"/>
    <nd ref="2263005928"/>
    <tag k="bicycle" v="no"/>
    <tag k="destination" v="Brno;Plze켿"/>
    <tag k="destination:int_ref" v="E 55;E 65"/>
    <tag k="destination:symbol" v="motorway;motorroad"/>
    <tag k="foot" v="no"/>
    <tag k="highway" v="trunk_link"/>
    <tag k="horse" v="no"/>
    <tag k="lanes" v="1"/>
    <tag k="maxspeed" v="60"/>
    <tag k="motor_vehicle" v="designated"/>
    <tag k="motorroad" v="no"/>
    <tag k="oneway" v="yes"/>
    <tag k="source:maxspeed" v="CZ:urban"/>
    <tag k="surface" v="asphalt"/>
  </way>
  <way id="8060024" version="6" timestamp="2011-08-17T12:51:47Z" changeset="9047701" uid="25867" user="adamos">
    <nd ref="60483065"/>
    <nd ref="571223434"/>
    <tag k="highway" v="residential"/>
    <tag k="name" v="V Ok치lech"/>
    <tag k="source:name" v="nameit/uir-adr"/>
  </way>
  <way id="12357566" version="32" timestamp="2025-03-30T12:06:48Z" changeset="164284436" uid="4018695" user="游뻟릖 Roman Horn칤k">
    <nd ref="8510653279"/>
    <nd ref="8511302564"/>
    <nd ref="5401360480"/>
    <nd ref="8511302566"/>
    <nd ref="8511302568"/>
    <nd ref="8511302569"/>
    <nd ref="112162734"/>
    <nd ref="8511302571"/>
    <nd ref="21456234"/>
    <tag k="bridge" v="yes"/>
    <tag k="bridge:structure" v="beam"/>
    <tag k="hgv:lanes" v="no|yes|yes"/>
    <tag k="highway" v="motorway"/>
    <tag k="int_ref" v="E 55;E 65"/>
    <tag k="lanes" v="3"/>
    <tag k="layer" v="1"/>
    <tag k="lit" v="yes"/>
    <tag k="maxspeed" v="100"/>
    <tag k="name" v="Pra쬽k칳 okruh"/>
    <tag k="name:de" v="Prager Ring"/>
    <tag k="name:en" v="Prague Ring"/>
    <tag k="oneway" v="yes"/>
    <tag k="placement" v="right_of:1"/>
    <tag k="ref" v="D0"/>
    <tag k="source:maxspeed" v="sign"/>
    <tag k="surface" v="asphalt"/>
    <tag k="toll" v="no"/>
    <tag k="toll:hgv" v="yes"/>
    <tag k="turn:lanes" v="||merge_to_left"/>
  </way>
  <way id="12357571" version="34" timestamp="2025-03-30T12:06:48Z" changeset="164284436" uid="4018695" user="游뻟릖 Roman Horn칤k">
    <nd ref="8511302585"/>
    <nd ref="25450838"/>
    <tag k="destination" v="ostatn칤 tranzit"/>
    <tag k="hgv:lanes" v="no|yes"/>
    <tag k="highway" v="motorway"/>
    <tag k="int_ref" v="E 55;E 65"/>
    <tag k="lanes" v="2"/>
    <tag k="lit" v="yes"/>
    <tag k="maxspeed" v="80"/>
    <tag k="motorroad" v="yes"/>
    <tag k="name" v="Pra쬽k칳 okruh"/>
    <tag k="name:de" v="Prager Ring"/>
    <tag k="name:en" v="Prague Ring"/>
    <tag k="oneway" v="yes"/>
    <tag k="ref" v="D0"/>
    <tag k="source:maxspeed" v="sign"/>
    <tag k="surface" v="asphalt"/>
    <tag k="toll" v="no"/>
    <tag k="toll:hgv" v="yes"/>
  </way>
  <way id="23103856" version="16" timestamp="2025-03-03T11:36:41Z" changeset="163157384" uid="718054" user="Piskvor">
    <nd ref="249434667"/>
    <nd ref="1424349622"/>
    <nd ref="1424349619"/>
    <nd ref="9531178096"/>
    <nd ref="29442742"/>
    <nd ref="5651505949"/>
    <nd ref="192207287"/>
    <nd ref="9531178111"/>
    <nd ref="4025190211"/>
    <tag k="access:conditional" v="private @ (2025 Mar 17-2025 Apr 20)"/>
    <tag k="highway" v="tertiary"/>
    <tag k="lanes" v="2"/>
    <tag k="maxweight" v="3.5"/>
    <tag k="name" v="Mlad칳ch B캩chovic"/>
    <tag k="surface" v="asphalt"/>
  </way>
  <way id="25924749" version="13" timestamp="2025-03-30T12:06:48Z" changeset="164284436" uid="4018695" user="游뻟릖 Roman Horn칤k">
    <nd ref="192228293"/>
    <nd ref="4986544061"/>
    <tag k="highway" v="tertiary"/>
    <tag k="lanes" v="2"/>
    <tag k="maxheight" v="4.30"/>
    <tag k="name" v="Mlad칳ch B캩chovic"/>
    <tag k="sidewalk:both" v="separate"/>
    <tag k="surface" v="asphalt"/>
  </way>
  <way id="28574856" version="8" timestamp="2024-01-26T23:21:15Z" changeset="146728056" uid="469828" user="Luk치코 Jel칤nek">
    <nd ref="60262761"/>
    <nd ref="8580630194"/>
    <nd ref="60262772"/>
    <tag k="highway" v="residential"/>
    <tag k="lit" v="yes"/>
    <tag k="maxspeed" v="30"/>
    <tag k="name" v="Na Korunce"/>
    <tag k="smoothness" v="good"/>
    <tag k="surface" v="paving_stones"/>
  </way>
  <way id="28574857" version="16" timestamp="2022-04-25T18:29:19Z" changeset="120178515" uid="469828" user="Luk치코 Jel칤nek">
    <nd ref="25450808"/>
    <nd ref="1679161523"/>
    <nd ref="8320713855"/>
    <tag k="hgv" v="destination"/>
    <tag k="highway" v="tertiary"/>
    <tag k="lanes" v="2"/>
    <tag k="lit" v="yes"/>
    <tag k="maxspeed" v="50"/>
    <tag k="name" v="Do 콎칤캜an"/>
    <tag k="smoothness" v="excellent"/>
    <tag k="surface" v="asphalt"/>
  </way>
  <way id="29357022" version="4" timestamp="2015-08-20T07:00:07Z" changeset="33455663" uid="2169558" user="JandaM">
    <nd ref="322914368"/>
    <nd ref="322914367"/>
    <nd ref="322914374"/>
    <nd ref="3706123410"/>
    <nd ref="3706123409"/>
    <nd ref="322914373"/>
    <nd ref="322914372"/>
    <nd ref="322914371"/>
    <nd ref="322914370"/>
    <nd ref="322914369"/>
    <nd ref="322914368"/>
    <tag k="addr:conscriptionnumber" v="211"/>
    <tag k="addr:country" v="CZ"/>
    <tag k="addr:housenumber" v="211"/>
    <tag k="addr:place" v="B캩chovice"/>
    <tag k="addr:postcode" v="19011"/>
    <tag k="addr:street" v="캛eskobrodsk치"/>
    <tag k="building" v="house"/>
    <tag k="building:flats" v="1"/>
    <tag k="building:levels" v="1"/>
    <tag k="building:ruian:type" v="7"/>
    <tag k="ref:ruian:addr" v="22401636"/>
    <tag k="ref:ruian:building" v="21448493"/>
    <tag k="source" v="cuzk:ruian"/>
  </way>
  <way id="29357374" version="5" timestamp="2024-01-26T23:17:48Z" changeset="146727518" uid="469828" user="Luk치코 Jel칤nek">
    <nd ref="60262708"/>
    <nd ref="322917076"/>
    <tag k="highway" v="residential"/>
    <tag k="lit" v="yes"/>
    <tag k="maxspeed" v="30"/>
    <tag k="name" v="Man쬰l콢 Kotrbov칳ch"/>
    <tag k="sidewalk" v="right"/>
    <tag k="source" v="cuzk:km"/>
    <tag k="surface" v="paving_stones"/>
  </way>
  <way id="29360174" version="18" timestamp="2024-09-16T10:43:06Z" changeset="156682137" uid="8971394" user="vojtechzaboril">
    <nd ref="8510683523"/>
    <nd ref="4248967104"/>
    <nd ref="4248967105"/>
    <nd ref="322950171"/>
    <nd ref="4248967102"/>
    <nd ref="4248967106"/>
    <nd ref="322950173"/>
    <nd ref="4248967103"/>
    <nd ref="4248967101"/>
    <nd ref="4976270305"/>
    <nd ref="8510147611"/>
    <nd ref="8510147612"/>
    <nd ref="8510147613"/>
    <nd ref="8510147614"/>
    <nd ref="8510147608"/>
    <tag k="bicycle" v="no"/>
    <tag k="destination" v="Teplice;Mlad치 Boleslav;Hradec Kr치lov칠;캛ern칳 Most"/>
    <tag k="destination:int_ref" v="E 55;E 65"/>
    <tag k="destination:symbol" v="motorway;motorroad"/>
    <tag k="foot" v="no"/>
    <tag k="highway" v="motorway_link"/>
    <tag k="horse" v="no"/>
    <tag k="lanes" v="1"/>
    <tag k="lit" v="yes"/>
    <tag k="maxspeed" v="50"/>
    <tag k="motor_vehicle" v="designated"/>
    <tag k="motorroad" v="no"/>
    <tag k="oneway" v="yes"/>
    <tag k="source:maxspeed" v="CZ:urban"/>
    <tag k="surface" v="asphalt"/>
  </way>
  <way id="32623710" version="4" timestamp="2025-01-05T15:26:50Z" changeset="161024928" uid="469828" user="Luk치코 Jel칤nek">
    <nd ref="366888845"/>
    <nd ref="366888847"/>
    <tag k="bridge" v="yes"/>
    <tag k="bridge:structure" v="beam"/>
    <tag k="highway" v="residential"/>
    <tag k="layer" v="1"/>
    <tag k="lit" v="yes"/>
    <tag k="name" v="Dolnopo캜ernick치"/>
    <tag k="source:name" v="nameit/uir-adr"/>
    <tag k="wikidata" v="Q108453771"/>
    <tag k="wikimedia_commons" v="File:Most Dolnopo캜ernick칠 ulice p콏es B캩chovick칳 potok.jpg"/>
  </way>
  <way id="32623711" version="1" timestamp="2009-03-29T13:50:22Z" changeset="867555" uid="3516" user="BiIbo">
    <nd ref="366888847"/>
    <nd ref="60263346"/>
    <tag k="highway" v="residential"/>
    <tag k="name" v="Dolnopo캜ernick치"/>
    <tag k="source:name" v="nameit/uir-adr"/>
  </way>
  <way id="32624403" version="1" timestamp="2009-03-29T14:09:11Z" changeset="867555" uid="3516" user="BiIbo">
    <nd ref="60263345"/>
    <nd ref="366896477"/>
    <nd ref="366896478"/>
    <tag k="highway" v="residential"/>
    <tag k="name" v="P코eni캜n치"/>
    <tag k="source" v="cuzk:km"/>
  </way>
  <way id="32624415" version="6" timestamp="2023-02-10T17:55:06Z" changeset="132373603" uid="718054" user="Piskvor">
    <nd ref="60263203"/>
    <nd ref="6186088014"/>
    <nd ref="60263202"/>
    <nd ref="60263195"/>
    <tag k="highway" v="residential"/>
    <tag k="lanes" v="1"/>
    <tag k="lit" v="yes"/>
    <tag k="maxspeed" v="30"/>
    <tag k="name" v="M칳tn칤"/>
    <tag k="oneway" v="yes"/>
    <tag k="source:maxspeed" v="zone"/>
    <tag k="source:name" v="uir-adr"/>
    <tag k="surface" v="paving_stones"/>
  </way>
  <way id="32624417" version="4" timestamp="2023-02-10T17:55:06Z" changeset="132373603" uid="718054" user="Piskvor">
    <nd ref="60263207"/>
    <nd ref="366896484"/>
    <nd ref="8521666650"/>
    <nd ref="366896499"/>
    <tag k="highway" v="residential"/>
    <tag k="lit" v="yes"/>
    <tag k="maxspeed" v="30"/>
    <tag k="name" v="K Jelenu"/>
    <tag k="oneway" v="yes"/>
    <tag k="source" v="cuzk:km"/>
    <tag k="source:maxspeed" v="zone"/>
    <tag k="surface" v="paving_stones"/>
  </way>
  <way id="45045272" version="4" timestamp="2021-01-30T14:16:08Z" changeset="98415419" uid="469828" user="Luk치코 Jel칤nek">
    <nd ref="30584816"/>
    <nd ref="288042470"/>
    <nd ref="30023900"/>
    <tag k="highway" v="residential"/>
    <tag k="lanes" v="2"/>
    <tag k="lit" v="yes"/>
    <tag k="name" v="Nad Rybn칤kem"/>
    <tag k="sidewalk" v="left"/>
    <tag k="surface" v="paving_stones"/>
  </way>
  <way id="59760591" version="7" timestamp="2024-04-19T10:47:16Z" changeset="150217475" uid="10932047" user="AF HAF KARTOGRAF">
    <nd ref="741708237"/>
    <nd ref="747812969"/>
    <nd ref="747812973"/>
    <nd ref="741708222"/>
    <nd ref="741708229"/>
    <nd ref="741708221"/>
    <nd ref="741708235"/>
    <nd ref="741708231"/>
    <nd ref="741708233"/>
    <nd ref="747812958"/>
    <nd ref="747812960"/>
    <nd ref="741708223"/>
    <nd ref="741708232"/>
    <nd ref="741708230"/>
    <nd ref="748200745"/>
    <nd ref="741708226"/>
    <nd ref="741708236"/>
    <nd ref="748200766"/>
    <nd ref="741708237"/>
    <tag k="addr:conscriptionnumber" v="2"/>
    <tag k="addr:country" v="CZ"/>
    <tag k="addr:housenumber" v="2"/>
    <tag k="addr:place" v="B캩chovice"/>
    <tag k="addr:postcode" v="19011"/>
    <tag k="addr:street" v="Mlad칳ch B캩chovic"/>
    <tag k="building" v="apartments"/>
    <tag k="building:levels" v="3"/>
    <tag k="ref:ruian:addr" v="22399682"/>
  </way>
  <way id="59760592" version="3" timestamp="2021-03-15T17:41:37Z" changeset="101067035" uid="718054" user="Piskvor">
    <nd ref="741708227"/>
    <nd ref="741708234"/>
    <nd ref="741708220"/>
    <nd ref="741708224"/>
    <nd ref="741708227"/>
    <tag k="building" v="apartments"/>
    <tag k="building:levels" v="3"/>
    <tag k="name" v="Centrum dostupn칠ho bydlen칤 B캩chovice"/>
  </way>
  <way id="60185367" version="5" timestamp="2023-02-10T17:55:06Z" changeset="132373603" uid="718054" user="Piskvor">
    <nd ref="662947527"/>
    <nd ref="366896486"/>
    <nd ref="747789061"/>
    <nd ref="8521666657"/>
    <nd ref="366896488"/>
    <tag k="access" v="destination"/>
    <tag k="foot" v="yes"/>
    <tag k="highway" v="residential"/>
    <tag k="lanes" v="1"/>
    <tag k="lit" v="yes"/>
    <tag k="maxspeed" v="30"/>
    <tag k="name" v="Povoznick치"/>
    <tag k="source" v="cuzk:km"/>
    <tag k="source:maxspeed" v="zone"/>
    <tag k="surface" v="paving_stones"/>
  </way>
  <way id="60202810" version="6" timestamp="2024-01-28T15:34:12Z" changeset="146780298" uid="469828" user="Luk치코 Jel칤nek">
    <nd ref="60263346"/>
    <nd ref="747761559"/>
    <tag k="highway" v="residential"/>
    <tag k="lane_markings" v="no"/>
    <tag k="lit" v="no"/>
    <tag k="name" v="U Vrby"/>
    <tag k="smoothness" v="good"/>
    <tag k="surface" v="paving_stones"/>
  </way>
  <way id="60207838" version="4" timestamp="2015-08-20T07:00:07Z" changeset="33455663" uid="2169558" user="JandaM">
    <nd ref="747819977"/>
    <nd ref="3706123394"/>
    <nd ref="3706123395"/>
    <nd ref="3706123397"/>
    <nd ref="3706123396"/>
    <nd ref="747819905"/>
    <nd ref="747819989"/>
    <nd ref="747819965"/>
    <nd ref="747819977"/>
    <tag k="addr:conscriptionnumber" v="516"/>
    <tag k="addr:country" v="CZ"/>
    <tag k="addr:housenumber" v="516"/>
    <tag k="addr:place" v="B캩chovice"/>
    <tag k="addr:postcode" v="19011"/>
    <tag k="addr:street" v="캛eskobrodsk치"/>
    <tag k="building" v="civic"/>
    <tag k="building:flats" v="3"/>
    <tag k="building:levels" v="3"/>
    <tag k="building:ruian:type" v="15"/>
    <tag k="ref:ruian:addr" v="22404503"/>
    <tag k="ref:ruian:building" v="21451524"/>
    <tag k="source" v="cuzk:ruian"/>
  </way>
  <way id="60238088" version="1" timestamp="2010-05-25T23:21:54Z" changeset="4809096" uid="72932" user="shr3k">
    <nd ref="524640284"/>
    <nd ref="366899994"/>
    <nd ref="29446555"/>
    <tag k="highway" v="unclassified"/>
  </way>
  <way id="60812497" version="4" timestamp="2023-02-10T17:55:06Z" changeset="132373603" uid="718054" user="Piskvor">
    <nd ref="747819972"/>
    <nd ref="8112030186"/>
    <nd ref="1637904905"/>
    <nd ref="1637904901"/>
    <tag k="highway" v="residential"/>
    <tag k="lit" v="yes"/>
    <tag k="name" v="Za Po코tovskou zahradou"/>
    <tag k="source" v="cuzk:km"/>
  </way>
  <way id="60812498" version="1" timestamp="2010-06-01T15:05:29Z" changeset="4875357" uid="17615" user="Petr Dlouh칳">
    <nd ref="366896475"/>
    <nd ref="747819972"/>
    <tag k="highway" v="residential"/>
    <tag k="name" v="Za Po코tovskou zahradou"/>
    <tag k="source" v="cuzk:km"/>
  </way>
  <way id="75519943" version="17" timestamp="2025-03-16T09:53:15Z" changeset="163680618" uid="718054" user="Piskvor">
    <nd ref="270508733"/>
    <nd ref="12669676851"/>
    <nd ref="60482788"/>
    <nd ref="9004746631"/>
    <nd ref="10586307474"/>
    <nd ref="8426383318"/>
    <nd ref="8426380916"/>
    <nd ref="21263180"/>
    <nd ref="8426383319"/>
    <nd ref="8137565191"/>
    <nd ref="21263181"/>
    <tag k="hgv" v="destination"/>
    <tag k="highway" v="primary"/>
    <tag k="lanes" v="2"/>
    <tag k="lit" v="no"/>
    <tag k="maxspeed" v="80"/>
    <tag k="maxweight:hgv" v="6"/>
    <tag k="maxweight:hgv:conditional" v="no @ destination"/>
    <tag k="name" v="캛eskobrodsk치"/>
    <tag k="oneway" v="no"/>
    <tag k="proposed:lanes" v="3"/>
    <tag k="ref" v="12"/>
    <tag k="source:maxspeed" v="sign"/>
    <tag k="surface" v="asphalt"/>
  </way>
  <way id="88375328" version="19" timestamp="2025-03-30T12:06:48Z" changeset="164284436" uid="4018695" user="游뻟릖 Roman Horn칤k">
    <nd ref="5702702159"/>
    <nd ref="322950183"/>
    <tag k="destination" v="Mlad치 Boleslav;Hradec Kr치lov칠"/>
    <tag k="highway" v="trunk"/>
    <tag k="int_ref" v="E 55;E 65"/>
    <tag k="lanes" v="2"/>
    <tag k="lit" v="yes"/>
    <tag k="maxspeed" v="80"/>
    <tag k="motorroad" v="yes"/>
    <tag k="name" v="Pra쬽k칳 okruh"/>
    <tag k="name:de" v="Prager Ring"/>
    <tag k="name:en" v="Prague Ring"/>
    <tag k="oneway" v="yes"/>
    <tag k="ref" v="D0"/>
    <tag k="source:maxspeed" v="sign"/>
    <tag k="toll" v="no"/>
  </way>
  <way id="91786800" version="3" timestamp="2023-03-20T14:17:14Z" changeset="133901341" uid="4997045" user="Tomas_J">
    <nd ref="1066577783"/>
    <nd ref="1066576684"/>
    <nd ref="1066578172"/>
    <nd ref="1066577118"/>
    <nd ref="1066577783"/>
    <tag k="building" v="yes"/>
    <tag k="building:ruian:type" v="19"/>
    <tag k="name" v="D2"/>
    <tag k="ref:ruian:building" v="46683151"/>
    <tag k="source" v="cuzk:ruian"/>
  </way>
  <way id="91786833" version="2" timestamp="2023-03-20T14:17:14Z" changeset="133901341" uid="4997045" user="Tomas_J">
    <nd ref="1066576340"/>
    <nd ref="1066580750"/>
    <nd ref="1066581295"/>
    <nd ref="1066580275"/>
    <nd ref="1066579367"/>
    <nd ref="1066578742"/>
    <nd ref="1066578942"/>
    <nd ref="1066578428"/>
    <nd ref="1066577806"/>
    <nd ref="1066576692"/>
    <nd ref="1066577088"/>
    <nd ref="1066576316"/>
    <nd ref="1066580677"/>
    <nd ref="1066579905"/>
    <nd ref="1066576340"/>
    <tag k="building" v="yes"/>
    <tag k="name" v="D8"/>
    <tag k="source" v="cuzk:km"/>
  </way>
  <way id="91786846" version="3" timestamp="2018-12-25T17:22:04Z" changeset="65764648" uid="3003739" user="r00tcz">
    <nd ref="1066580776"/>
    <nd ref="1066579979"/>
    <nd ref="1066578985"/>
    <nd ref="1066578471"/>
    <nd ref="1066578759"/>
    <nd ref="3706124494"/>
    <nd ref="1066578190"/>
    <nd ref="1066577145"/>
    <nd ref="3706124501"/>
    <nd ref="3706124500"/>
    <nd ref="1066578786"/>
    <nd ref="3706124496"/>
    <nd ref="1066578215"/>
    <nd ref="1066577180"/>
    <nd ref="1066577900"/>
    <nd ref="1066576767"/>
    <nd ref="1066581455"/>
    <nd ref="1066580333"/>
    <nd ref="1066580776"/>
    <tag k="building" v="yes"/>
    <tag k="building:ruian:type" v="19"/>
    <tag k="name" v="Zkratovna"/>
    <tag k="ref:ruian:building" v="50290673"/>
    <tag k="source" v="cuzk:ruian"/>
  </way>
  <way id="91786882" version="3" timestamp="2023-03-20T14:17:14Z" changeset="133901341" uid="4997045" user="Tomas_J">
    <nd ref="1066580302"/>
    <nd ref="8497344195"/>
    <nd ref="8497344194"/>
    <nd ref="1066579425"/>
    <nd ref="1066579944"/>
    <nd ref="1066578961"/>
    <nd ref="1066578459"/>
    <nd ref="1066577861"/>
    <nd ref="1066577935"/>
    <nd ref="1066576788"/>
    <nd ref="1066581489"/>
    <nd ref="1066580350"/>
    <nd ref="1066580807"/>
    <nd ref="1066579994"/>
    <nd ref="1066579007"/>
    <nd ref="1066578485"/>
    <nd ref="1066578771"/>
    <nd ref="1066578202"/>
    <nd ref="1066577158"/>
    <nd ref="1066576366"/>
    <nd ref="1066576741"/>
    <nd ref="1066581400"/>
    <nd ref="1066580302"/>
    <tag k="building" v="yes"/>
    <tag k="building:levels" v="4"/>
    <tag k="building:ruian:type" v="20"/>
    <tag k="name" v="C2"/>
    <tag k="ref:ruian:building" v="24941131"/>
    <tag k="source" v="cuzk:ruian"/>
    <tag k="start_date" v="2001-07-04"/>
  </way>
  <way id="91786920" version="4" timestamp="2015-08-20T07:00:08Z" changeset="33455663" uid="2169558" user="JandaM">
    <nd ref="1066579338"/>
    <nd ref="1066578712"/>
    <nd ref="1066578164"/>
    <nd ref="1066577099"/>
    <nd ref="1066576325"/>
    <nd ref="1066580715"/>
    <nd ref="1066579917"/>
    <nd ref="1066580255"/>
    <nd ref="1066579338"/>
    <tag k="addr:conscriptionnumber" v="559"/>
    <tag k="addr:country" v="CZ"/>
    <tag k="addr:housenumber" v="559"/>
    <tag k="addr:place" v="B캩chovice"/>
    <tag k="addr:postcode" v="19011"/>
    <tag k="addr:street" v="Mlad칳ch B캩chovic"/>
    <tag k="building" v="yes"/>
    <tag k="building:levels" v="1"/>
    <tag k="building:ruian:type" v="19"/>
    <tag k="ref:ruian:addr" v="25543784"/>
    <tag k="ref:ruian:building" v="25067729"/>
    <tag k="source" v="cuzk:ruian"/>
    <tag k="start_date" v="2002-03-04"/>
  </way>
  <way id="91786929" version="3" timestamp="2023-03-20T14:18:04Z" changeset="133901382" uid="4997045" user="Tomas_J">
    <nd ref="1066578937"/>
    <nd ref="1066578423"/>
    <nd ref="1066580663"/>
    <nd ref="1066579892"/>
    <nd ref="1066578937"/>
    <tag k="building" v="yes"/>
    <tag k="building:ruian:type" v="19"/>
    <tag k="name" v="D1"/>
    <tag k="ref:ruian:building" v="43556922"/>
    <tag k="source" v="cuzk:ruian"/>
  </way>
  <way id="91786952" version="3" timestamp="2023-03-20T14:17:14Z" changeset="133901341" uid="4997045" user="Tomas_J">
    <nd ref="1066580133"/>
    <nd ref="1066579218"/>
    <nd ref="1066578588"/>
    <nd ref="1066581044"/>
    <nd ref="1066580133"/>
    <tag k="building" v="warehouse"/>
    <tag k="building:ruian:type" v="12"/>
    <tag k="name" v="D7"/>
    <tag k="ref:ruian:building" v="49988531"/>
    <tag k="source" v="cuzk:ruian"/>
  </way>
  <way id="91786968" version="3" timestamp="2023-03-20T14:17:14Z" changeset="133901341" uid="4997045" user="Tomas_J">
    <nd ref="1066579126"/>
    <nd ref="1066579650"/>
    <nd ref="1066578841"/>
    <nd ref="1066578262"/>
    <nd ref="1066577317"/>
    <nd ref="1066578024"/>
    <nd ref="1066576866"/>
    <nd ref="1066576903"/>
    <nd ref="1066576163"/>
    <nd ref="1066576503"/>
    <nd ref="1066580946"/>
    <nd ref="1066580100"/>
    <nd ref="1066579126"/>
    <tag k="building" v="yes"/>
    <tag k="building:ruian:type" v="19"/>
    <tag k="name" v="D5, D6"/>
    <tag k="ref:ruian:building" v="46683143"/>
    <tag k="source" v="cuzk:ruian"/>
  </way>
  <way id="91787055" version="4" timestamp="2023-04-18T08:19:02Z" changeset="135046956" uid="4997045" user="Tomas_J">
    <nd ref="1066578529"/>
    <nd ref="1066578036"/>
    <nd ref="1066576880"/>
    <nd ref="1066577265"/>
    <nd ref="1066576472"/>
    <nd ref="1066580887"/>
    <nd ref="1066580081"/>
    <nd ref="1066580401"/>
    <nd ref="1066579603"/>
    <nd ref="1066578824"/>
    <nd ref="1066578251"/>
    <nd ref="1066578505"/>
    <nd ref="1066577987"/>
    <nd ref="1066576138"/>
    <nd ref="1066580444"/>
    <nd ref="1066579671"/>
    <nd ref="1066578847"/>
    <nd ref="1066579087"/>
    <nd ref="1066578529"/>
    <tag k="building" v="office"/>
    <tag k="building:ruian:type" v="19"/>
    <tag k="name" v="C1"/>
    <tag k="ref:ruian:building" v="49988557"/>
    <tag k="source" v="cuzk:ruian"/>
  </way>
  <way id="91787236" version="3" timestamp="2023-03-20T14:17:14Z" changeset="133901341" uid="4997045" user="Tomas_J">
    <nd ref="1066579210"/>
    <nd ref="1066578577"/>
    <nd ref="1066579776"/>
    <nd ref="1066578886"/>
    <nd ref="1066579210"/>
    <tag k="building" v="yes"/>
    <tag k="building:ruian:type" v="19"/>
    <tag k="name" v="D3"/>
    <tag k="ref:ruian:building" v="46683135"/>
    <tag k="source" v="cuzk:ruian"/>
  </way>
  <way id="91787248" version="3" timestamp="2023-03-20T14:17:14Z" changeset="133901341" uid="4997045" user="Tomas_J">
    <nd ref="1066576417"/>
    <nd ref="1066580847"/>
    <nd ref="1066580030"/>
    <nd ref="1066579044"/>
    <nd ref="1066579521"/>
    <nd ref="3706124478"/>
    <nd ref="3706124479"/>
    <nd ref="1066578799"/>
    <nd ref="3706124487"/>
    <nd ref="3706124488"/>
    <nd ref="1066576417"/>
    <tag k="building" v="yes"/>
    <tag k="building:ruian:type" v="19"/>
    <tag k="name" v="FT"/>
    <tag k="ref:ruian:building" v="46675736"/>
    <tag k="source" v="cuzk:ruian"/>
  </way>
  <way id="91787275" version="3" timestamp="2023-03-20T14:17:14Z" changeset="133901341" uid="4997045" user="Tomas_J">
    <nd ref="1066579832"/>
    <nd ref="1066577014"/>
    <nd ref="1066576257"/>
    <nd ref="1066580574"/>
    <nd ref="1066579832"/>
    <tag k="building" v="yes"/>
    <tag k="building:ruian:type" v="19"/>
    <tag k="name" v="D4"/>
    <tag k="ref:ruian:building" v="40368521"/>
    <tag k="source" v="cuzk:ruian"/>
  </way>
  <way id="98806946" version="4" timestamp="2023-02-10T17:55:06Z" changeset="132373603" uid="718054" user="Piskvor">
    <nd ref="60263209"/>
    <nd ref="748672388"/>
    <nd ref="60263259"/>
    <tag k="highway" v="residential"/>
    <tag k="lit" v="yes"/>
    <tag k="name" v="V칳jezdov치"/>
  </way>
  <way id="113515505" version="11" timestamp="2022-01-26T20:01:35Z" changeset="116636851" uid="8971394" user="vojtechzaboril">
    <nd ref="24969713"/>
    <nd ref="8510683547"/>
    <tag k="cycleway:right" v="no"/>
    <tag k="destination" v="Doln칤 Po캜ernice"/>
    <tag k="highway" v="primary"/>
    <tag k="lanes" v="1"/>
    <tag k="lit" v="yes"/>
    <tag k="maxspeed" v="50"/>
    <tag k="name" v="캛eskobrodsk치"/>
    <tag k="oneway" v="yes"/>
    <tag k="ref" v="12"/>
    <tag k="source:maxspeed" v="CZ:urban"/>
    <tag k="surface" v="asphalt"/>
  </way>
  <way id="113530696" version="2" timestamp="2021-03-15T17:41:37Z" changeset="101067035" uid="718054" user="Piskvor">
    <nd ref="1287067239"/>
    <nd ref="60263148"/>
    <tag k="highway" v="residential"/>
    <tag k="maxspeed" v="30"/>
    <tag k="name" v="Nad Propust칤"/>
    <tag k="source:maxspeed" v="zone"/>
    <tag k="surface" v="paving_stones"/>
  </way>
  <way id="113530697" version="3" timestamp="2021-03-15T17:41:37Z" changeset="101067035" uid="718054" user="Piskvor">
    <nd ref="1287067295"/>
    <nd ref="1287067241"/>
    <tag k="highway" v="residential"/>
    <tag k="name" v="P콏칤p콏e쬹칤"/>
    <tag k="surface" v="paving_stones"/>
  </way>
  <way id="116662971" version="18" timestamp="2025-04-24T09:50:55Z" changeset="165370029" uid="718054" user="Piskvor">
    <nd ref="29443312"/>
    <nd ref="12782326474"/>
    <nd ref="747812983"/>
    <nd ref="8112009689"/>
    <nd ref="747812967"/>
    <tag k="hgv" v="destination"/>
    <tag k="highway" v="primary"/>
    <tag k="lanes" v="2"/>
    <tag k="lit" v="yes"/>
    <tag k="maxspeed" v="50"/>
    <tag k="name" v="캛eskobrodsk치"/>
    <tag k="oneway" v="no"/>
    <tag k="ref" v="12"/>
    <tag k="surface" v="asphalt"/>
  </way>
  <way id="129019825" version="6" timestamp="2023-02-10T17:55:06Z" changeset="132373603" uid="718054" user="Piskvor">
    <nd ref="60263206"/>
    <nd ref="366896496"/>
    <nd ref="1213987455"/>
    <tag k="highway" v="residential"/>
    <tag k="maxspeed" v="30"/>
    <tag k="name" v="Ke Kolod캩j콢m"/>
    <tag k="oneway" v="no"/>
    <tag k="smoothness" v="good"/>
    <tag k="source:maxspeed" v="zone"/>
    <tag k="source:name" v="nameit/uir-adr"/>
    <tag k="surface" v="asphalt"/>
  </way>
  <way id="129019826" version="9" timestamp="2023-02-06T12:52:22Z" changeset="132156412" uid="718054" user="Piskvor">
    <nd ref="29442748"/>
    <nd ref="192227713"/>
    <nd ref="1424349553"/>
    <nd ref="29443297"/>
    <nd ref="288034600"/>
    <nd ref="10611372403"/>
    <tag k="highway" v="tertiary"/>
    <tag k="lanes" v="2"/>
    <tag k="name" v="Mlad칳ch B캩chovic"/>
    <tag k="surface" v="asphalt"/>
  </way>
  <way id="129019828" version="5" timestamp="2023-02-10T17:55:06Z" changeset="132373603" uid="718054" user="Piskvor">
    <nd ref="747819976"/>
    <nd ref="7230987186"/>
    <nd ref="366896471"/>
    <nd ref="366896473"/>
    <nd ref="8112030164"/>
    <nd ref="571223347"/>
    <nd ref="366896475"/>
    <tag k="highway" v="residential"/>
    <tag k="lit" v="yes"/>
    <tag k="name" v="Za Po코tovskou zahradou"/>
    <tag k="source" v="cuzk:km"/>
    <tag k="surface" v="asphalt"/>
  </way>
  <way id="129096025" version="5" timestamp="2024-01-28T15:33:01Z" changeset="146780410" uid="469828" user="Luk치코 Jel칤nek">
    <nd ref="60263345"/>
    <nd ref="748200724"/>
    <nd ref="366888845"/>
    <tag k="highway" v="residential"/>
    <tag k="lane_markings" v="no"/>
    <tag k="lit" v="yes"/>
    <tag k="name" v="Dolnopo캜ernick치"/>
    <tag k="smoothness" v="good"/>
    <tag k="source:name" v="nameit/uir-adr"/>
    <tag k="surface" v="asphalt"/>
  </way>
  <way id="149660572" version="7" timestamp="2023-02-10T17:55:06Z" changeset="132373603" uid="718054" user="Piskvor">
    <nd ref="60263250"/>
    <nd ref="366896481"/>
    <nd ref="8525653480"/>
    <nd ref="1626025000"/>
    <nd ref="60263270"/>
    <tag k="highway" v="residential"/>
    <tag k="lanes" v="2"/>
    <tag k="lit" v="yes"/>
    <tag k="maxspeed" v="50"/>
    <tag k="name" v="Do Panenek"/>
    <tag k="surface" v="asphalt"/>
  </way>
  <way id="149660623" version="11" timestamp="2025-03-06T09:45:41Z" changeset="163277744" uid="718054" user="Piskvor">
    <nd ref="1626024901"/>
    <nd ref="1626024899"/>
    <nd ref="1626024895"/>
    <nd ref="1626024891"/>
    <nd ref="1626024888"/>
    <nd ref="1626024879"/>
    <nd ref="1626024871"/>
    <nd ref="1626024859"/>
    <nd ref="1626024857"/>
    <nd ref="1626024852"/>
    <tag k="highway" v="unclassified"/>
    <tag k="lane_markings" v="no"/>
    <tag k="maxspeed" v="50"/>
    <tag k="maxweight" v="3.5"/>
    <tag k="proposed:ref" v="SO 164"/>
  </way>
  <way id="150690713" version="9" timestamp="2024-03-16T20:31:58Z" changeset="148748987" uid="469828" user="Luk치코 Jel칤nek">
    <nd ref="1635770084"/>
    <nd ref="322917076"/>
    <nd ref="1635770121"/>
    <nd ref="1635770161"/>
    <nd ref="11737550183"/>
    <nd ref="1635770168"/>
    <nd ref="1635770169"/>
    <nd ref="1635770175"/>
    <nd ref="1635770229"/>
    <tag k="highway" v="residential"/>
    <tag k="lit" v="yes"/>
    <tag k="maxspeed" v="30"/>
    <tag k="name" v="Do Dub캜e"/>
    <tag k="smoothness" v="good"/>
    <tag k="surface" v="paving_stones"/>
  </way>
  <way id="150690715" version="6" timestamp="2022-01-26T14:19:11Z" changeset="116624619" uid="3516" user="BiIbo">
    <nd ref="1635770118"/>
    <nd ref="345440990"/>
    <nd ref="1635770096"/>
    <tag k="highway" v="residential"/>
    <tag k="maxspeed" v="30"/>
    <tag k="name" v="Hasi캜sk치"/>
    <tag k="sidewalk" v="no"/>
    <tag k="surface" v="asphalt"/>
  </way>
  <way id="150690717" version="9" timestamp="2024-01-08T20:17:16Z" changeset="146042433" uid="469828" user="Luk치코 Jel칤nek">
    <nd ref="1635770201"/>
    <nd ref="1635770189"/>
    <nd ref="1635770128"/>
    <nd ref="1635770093"/>
    <nd ref="60262708"/>
    <nd ref="8580638450"/>
    <nd ref="1635770087"/>
    <tag k="cycleway:both" v="no"/>
    <tag k="highway" v="residential"/>
    <tag k="lit" v="yes"/>
    <tag k="maxspeed" v="30"/>
    <tag k="name" v="K먠쪈leznici"/>
    <tag k="smoothness" v="good"/>
    <tag k="surface" v="paving_stones"/>
  </way>
  <way id="150690719" version="8" timestamp="2024-01-08T20:18:44Z" changeset="146042433" uid="469828" user="Luk치코 Jel칤nek">
    <nd ref="1635770121"/>
    <nd ref="1635770128"/>
    <tag k="highway" v="residential"/>
    <tag k="lit" v="yes"/>
    <tag k="maxspeed" v="30"/>
    <tag k="name" v="Lito쬹ick치"/>
    <tag k="sidewalk" v="right"/>
    <tag k="smoothness" v="good"/>
    <tag k="surface" v="asphalt"/>
  </way>
  <way id="150690721" version="4" timestamp="2024-01-26T23:15:58Z" changeset="146727518" uid="469828" user="Luk치코 Jel칤nek">
    <nd ref="1635770132"/>
    <nd ref="1635770128"/>
    <tag k="highway" v="residential"/>
    <tag k="lit" v="yes"/>
    <tag k="maxspeed" v="30"/>
    <tag k="name" v="Lito쬹ick치"/>
    <tag k="surface" v="paving_stones"/>
  </way>
  <way id="150690723" version="12" timestamp="2022-12-21T23:27:22Z" changeset="130351789" uid="469828" user="Luk치코 Jel칤nek">
    <nd ref="1635770157"/>
    <nd ref="1635770164"/>
    <nd ref="345440988"/>
    <tag k="highway" v="residential"/>
    <tag k="lit" v="yes"/>
    <tag k="maxspeed" v="30"/>
    <tag k="name" v="Lito쬹ick치"/>
    <tag k="sidewalk" v="left"/>
    <tag k="sidewalk:left:surface" v="paving_stones"/>
    <tag k="smoothness" v="good"/>
    <tag k="surface" v="paving_stones"/>
  </way>
  <way id="150690727" version="7" timestamp="2022-02-09T14:16:43Z" changeset="117204669" uid="3516" user="BiIbo">
    <nd ref="1635770149"/>
    <nd ref="1635770132"/>
    <nd ref="8580630138"/>
    <nd ref="1635770126"/>
    <nd ref="8580630137"/>
    <nd ref="1635770130"/>
    <nd ref="8580630139"/>
    <nd ref="1635770157"/>
    <nd ref="1635770149"/>
    <tag k="highway" v="residential"/>
    <tag k="maxspeed" v="30"/>
    <tag k="name" v="Lito쬹ick치"/>
    <tag k="sidewalk" v="right"/>
    <tag k="surface" v="paving_stones"/>
  </way>
  <way id="150690730" version="4" timestamp="2024-01-26T23:18:05Z" changeset="146727518" uid="469828" user="Luk치코 Jel칤nek">
    <nd ref="1635770084"/>
    <nd ref="1635770087"/>
    <tag k="highway" v="residential"/>
    <tag k="lit" v="yes"/>
    <tag k="maxspeed" v="30"/>
    <tag k="name" v="Man쬰l콢 Kotrbov칳ch"/>
    <tag k="surface" v="paving_stones"/>
  </way>
  <way id="150690731" version="7" timestamp="2023-09-28T17:32:32Z" changeset="141874683" uid="469828" user="Luk치코 Jel칤nek">
    <nd ref="25450808"/>
    <nd ref="60262753"/>
    <tag k="highway" v="residential"/>
    <tag k="lit" v="yes"/>
    <tag k="maxspeed" v="30"/>
    <tag k="name" v="Na Korunce"/>
    <tag k="smoothness" v="good"/>
    <tag k="source:name" v="nameit/uir-adr"/>
    <tag k="surface" v="paving_stones"/>
  </way>
  <way id="150690733" version="10" timestamp="2023-07-31T18:09:31Z" changeset="139266163" uid="469828" user="Luk치코 Jel칤nek">
    <nd ref="1635770229"/>
    <nd ref="6578689190"/>
    <nd ref="1635770201"/>
    <nd ref="9698633856"/>
    <nd ref="60262821"/>
    <nd ref="322916817"/>
    <tag k="cycleway:both" v="no"/>
    <tag k="highway" v="residential"/>
    <tag k="lit" v="yes"/>
    <tag k="maxspeed" v="30"/>
    <tag k="name" v="Nad N치dra쮂셠"/>
    <tag k="sidewalk" v="no"/>
    <tag k="smoothness" v="good"/>
    <tag k="surface" v="paving_stones"/>
  </way>
  <way id="150690735" version="7" timestamp="2021-03-31T20:24:33Z" changeset="102077799" uid="1833010" user="M a r k u s">
    <nd ref="1635770061"/>
    <nd ref="8580638337"/>
    <nd ref="1635770064"/>
    <nd ref="1635770067"/>
    <nd ref="1635770081"/>
    <nd ref="60262716"/>
    <tag k="highway" v="residential"/>
    <tag k="lit" v="yes"/>
    <tag k="maxspeed" v="30"/>
    <tag k="name" v="Otakara Vrby"/>
    <tag k="surface" v="paving_stones"/>
  </way>
  <way id="150690736" version="9" timestamp="2022-01-26T14:32:37Z" changeset="116624619" uid="3516" user="BiIbo">
    <nd ref="60262708"/>
    <nd ref="1635770089"/>
    <tag k="highway" v="residential"/>
    <tag k="lit" v="yes"/>
    <tag k="maxspeed" v="30"/>
    <tag k="name" v="Pplk. Nov치캜ka"/>
    <tag k="sidewalk" v="both"/>
    <tag k="surface" v="paving_stones"/>
  </way>
  <way id="150690737" version="5" timestamp="2023-09-28T17:33:16Z" changeset="141874710" uid="469828" user="Luk치코 Jel칤nek">
    <nd ref="1635770064"/>
    <nd ref="1635770058"/>
    <nd ref="1635770055"/>
    <nd ref="60262753"/>
    <tag k="highway" v="residential"/>
    <tag k="lit" v="yes"/>
    <tag k="maxspeed" v="30"/>
    <tag k="name" v="Prosn치"/>
  </way>
  <way id="150690739" version="6" timestamp="2022-02-09T14:16:00Z" changeset="117204669" uid="3516" user="BiIbo">
    <nd ref="1635770126"/>
    <nd ref="1635770123"/>
    <nd ref="1635770096"/>
    <tag k="highway" v="residential"/>
    <tag k="maxspeed" v="30"/>
    <tag k="name" v="Setbov치"/>
    <tag k="sidewalk" v="no"/>
    <tag k="surface" v="paving_stones"/>
  </way>
  <way id="150690742" version="6" timestamp="2023-07-31T18:11:31Z" changeset="139266163" uid="469828" user="Luk치코 Jel칤nek">
    <nd ref="1635770175"/>
    <nd ref="1635770172"/>
    <nd ref="1635770189"/>
    <nd ref="1635770193"/>
    <nd ref="1635770196"/>
    <nd ref="1635770197"/>
    <nd ref="1024705907"/>
    <nd ref="1635770199"/>
    <nd ref="1140293088"/>
    <nd ref="322921748"/>
    <nd ref="25450809"/>
    <tag k="cycleway:both" v="no"/>
    <tag k="highway" v="residential"/>
    <tag k="lit" v="yes"/>
    <tag k="maxspeed" v="30"/>
    <tag k="name" v="V치clava Kova콏칤ka"/>
    <tag k="smoothness" v="good"/>
    <tag k="surface" v="paving_stones"/>
  </way>
  <way id="150691243" version="13" timestamp="2025-03-02T12:53:45Z" changeset="163120482" uid="680876" user="Sonja Emilie">
    <nd ref="25450837"/>
    <nd ref="8511302586"/>
    <tag k="bridge" v="yes"/>
    <tag k="destination" v="칔valy;Praha-Doln칤 Po캜ernice;-B캩chovice"/>
    <tag k="destination:ref" v="12"/>
    <tag k="highway" v="motorway_link"/>
    <tag k="lanes" v="1"/>
    <tag k="layer" v="1"/>
    <tag k="lit" v="yes"/>
    <tag k="maxspeed" v="80"/>
    <tag k="motorroad" v="yes"/>
    <tag k="oneway" v="yes"/>
    <tag k="source:maxspeed" v="sign"/>
    <tag k="surface" v="asphalt"/>
    <tag k="toll" v="no"/>
    <tag k="toll:hgv" v="yes"/>
  </way>
  <way id="150691244" version="15" timestamp="2023-03-16T10:48:34Z" changeset="133743542" uid="8971394" user="vojtechzaboril">
    <nd ref="5702702159"/>
    <nd ref="1635774911"/>
    <nd ref="8510143984"/>
    <nd ref="8510143985"/>
    <nd ref="1635774912"/>
    <nd ref="8510143986"/>
    <nd ref="8510143987"/>
    <nd ref="32638667"/>
    <nd ref="8510143988"/>
    <tag k="bicycle" v="no"/>
    <tag k="destination" v="Kol칤n;Praha-Doln칤 Po캜ernice;-B캩chovice"/>
    <tag k="destination:ref" v="12"/>
    <tag k="foot" v="no"/>
    <tag k="highway" v="trunk_link"/>
    <tag k="horse" v="no"/>
    <tag k="lanes" v="1"/>
    <tag k="lit" v="yes"/>
    <tag k="maxspeed" v="80"/>
    <tag k="motorroad" v="yes"/>
    <tag k="oneway" v="yes"/>
    <tag k="source:maxspeed" v="sign"/>
    <tag k="surface" v="asphalt"/>
  </way>
  <way id="150881904" version="13" timestamp="2023-01-17T19:06:53Z" changeset="131392889" uid="469828" user="Luk치코 Jel칤nek">
    <nd ref="30366952"/>
    <nd ref="7757035720"/>
    <tag k="cycleway:both" v="no"/>
    <tag k="highway" v="residential"/>
    <tag k="lanes" v="2"/>
    <tag k="lit" v="yes"/>
    <tag k="maxspeed:type" v="CZ:urban"/>
    <tag k="name" v="Ke T콏em most콢m"/>
    <tag k="parking:lane:both" v="no"/>
    <tag k="sidewalk" v="separate"/>
    <tag k="smoothness" v="intermediate"/>
    <tag k="surface" v="sett"/>
  </way>
  <way id="150881905" version="16" timestamp="2023-01-17T19:06:15Z" changeset="131392889" uid="469828" user="Luk치코 Jel칤nek">
    <nd ref="270508506"/>
    <nd ref="7757035715"/>
    <nd ref="3545507310"/>
    <tag k="cycleway:both" v="no"/>
    <tag k="highway" v="residential"/>
    <tag k="lane_markings" v="no"/>
    <tag k="lit" v="no"/>
    <tag k="maxspeed:type" v="CZ:urban"/>
    <tag k="name" v="Ke T콏em most콢m"/>
    <tag k="parking:lane:left" v="perpendicular"/>
    <tag k="parking:lane:left:perpendicular" v="on_street"/>
    <tag k="parking:lane:right" v="parallel"/>
    <tag k="parking:lane:right:parallel" v="on_street"/>
    <tag k="sidewalk:left" v="no"/>
    <tag k="sidewalk:right" v="separate"/>
    <tag k="smoothness" v="intermediate"/>
    <tag k="surface" v="sett"/>
  </way>
  <way id="150881910" version="11" timestamp="2025-03-30T12:06:48Z" changeset="164284436" uid="4018695" user="游뻟릖 Roman Horn칤k">
    <nd ref="30366952"/>
    <nd ref="8510876103"/>
    <nd ref="1635770233"/>
    <tag k="cycleway:both" v="no"/>
    <tag k="highway" v="primary"/>
    <tag k="lanes" v="2"/>
    <tag k="lit" v="yes"/>
    <tag k="maxspeed" v="50"/>
    <tag k="name" v="캛eskobrodsk치"/>
    <tag k="parking:both" v="no"/>
    <tag k="ref" v="12"/>
    <tag k="sidewalk:left" v="separate"/>
    <tag k="sidewalk:right" v="no"/>
    <tag k="smoothness" v="good"/>
    <tag k="surface" v="asphalt"/>
  </way>
  <way id="150928674" version="2" timestamp="2023-02-10T17:55:06Z" changeset="132373603" uid="718054" user="Piskvor">
    <nd ref="60483166"/>
    <nd ref="748672407"/>
    <nd ref="748672386"/>
    <nd ref="60263327"/>
    <nd ref="60263259"/>
    <tag k="highway" v="residential"/>
    <tag k="lit" v="yes"/>
    <tag k="name" v="Do 칔jezda"/>
  </way>
  <way id="150928676" version="2" timestamp="2024-01-28T15:32:53Z" changeset="146780298" uid="469828" user="Luk치코 Jel칤nek">
    <nd ref="60263338"/>
    <nd ref="366896493"/>
    <nd ref="748200732"/>
    <nd ref="748206761"/>
    <nd ref="748206750"/>
    <nd ref="60263344"/>
    <nd ref="748200739"/>
    <nd ref="60263345"/>
    <tag k="highway" v="residential"/>
    <tag k="lit" v="yes"/>
    <tag k="name" v="Dolnopo캜ernick치"/>
    <tag k="source:name" v="nameit/uir-adr"/>
  </way>
  <way id="150928680" version="2" timestamp="2018-12-28T17:56:07Z" changeset="65848523" uid="325628" user="jirilebl">
    <nd ref="1637904874"/>
    <nd ref="1637904845"/>
    <nd ref="60483166"/>
    <nd ref="748672374"/>
    <nd ref="60483221"/>
    <tag k="highway" v="residential"/>
    <tag k="name" v="Jana Karafi치ta"/>
    <tag k="surface" v="asphalt"/>
  </way>
  <way id="150928682" version="6" timestamp="2023-02-10T17:55:06Z" changeset="132373603" uid="718054" user="Piskvor">
    <nd ref="60263163"/>
    <nd ref="8521666656"/>
    <nd ref="1287067295"/>
    <nd ref="60263179"/>
    <nd ref="8521666655"/>
    <nd ref="748672402"/>
    <nd ref="748672382"/>
    <nd ref="8500422562"/>
    <nd ref="748672428"/>
    <nd ref="60263188"/>
    <nd ref="60263195"/>
    <tag k="highway" v="residential"/>
    <tag k="lanes" v="1"/>
    <tag k="lit" v="yes"/>
    <tag k="maxspeed" v="30"/>
    <tag k="name" v="Josefa N캩mce"/>
    <tag k="oneway" v="yes"/>
    <tag k="source:maxspeed" v="zone"/>
    <tag k="surface" v="paving_stones"/>
  </way>
  <way id="150928683" version="6" timestamp="2025-04-24T09:50:55Z" changeset="165370029" uid="718054" user="Piskvor">
    <nd ref="29443321"/>
    <nd ref="12782326478"/>
    <nd ref="8249176498"/>
    <nd ref="748601638"/>
    <nd ref="29446532"/>
    <nd ref="524640284"/>
    <tag k="highway" v="residential"/>
    <tag k="name" v="K Jalovce"/>
    <tag k="surface" v="asphalt"/>
  </way>
  <way id="150928687" version="4" timestamp="2023-02-10T17:55:06Z" changeset="132373603" uid="718054" user="Piskvor">
    <nd ref="366896479"/>
    <nd ref="60263203"/>
    <tag k="highway" v="residential"/>
    <tag k="lit" v="yes"/>
    <tag k="maxspeed" v="30"/>
    <tag k="name" v="Ke Kolod캩j콢m"/>
    <tag k="source:maxspeed" v="zone"/>
    <tag k="source:name" v="nameit/uir-adr"/>
    <tag k="surface" v="asphalt"/>
  </way>
  <way id="150928688" version="5" timestamp="2023-02-10T17:55:06Z" changeset="132373603" uid="718054" user="Piskvor">
    <nd ref="29443321"/>
    <nd ref="1637904823"/>
    <nd ref="1637904812"/>
    <nd ref="8480042289"/>
    <nd ref="1637904810"/>
    <nd ref="1626024987"/>
    <tag k="hgv" v="destination"/>
    <tag k="highway" v="residential"/>
    <tag k="lanes" v="2"/>
    <tag k="name" v="Ke Kolod캩j콢m"/>
    <tag k="smoothness" v="good"/>
    <tag k="surface" v="asphalt"/>
  </way>
  <way id="150928691" version="3" timestamp="2023-02-10T17:55:06Z" changeset="132373603" uid="718054" user="Piskvor">
    <nd ref="60263148"/>
    <nd ref="1637904826"/>
    <nd ref="366896488"/>
    <tag k="highway" v="residential"/>
    <tag k="lanes" v="1"/>
    <tag k="lit" v="yes"/>
    <tag k="maxspeed" v="30"/>
    <tag k="name" v="Man쬰l콢 Ly캜kov칳ch"/>
    <tag k="source" v="cuzk:km"/>
    <tag k="source:maxspeed" v="zone"/>
    <tag k="surface" v="paving_stones"/>
  </way>
  <way id="150928692" version="9" timestamp="2024-12-27T09:41:27Z" changeset="160667793" uid="18633688" user="Jan Sikora">
    <nd ref="1637904910"/>
    <nd ref="12455580087"/>
    <nd ref="8112009690"/>
    <nd ref="611305865"/>
    <nd ref="29443312"/>
    <tag k="highway" v="tertiary"/>
    <tag k="lanes" v="3"/>
    <tag k="lanes:backward" v="1"/>
    <tag k="lanes:forward" v="2"/>
    <tag k="lit" v="yes"/>
    <tag k="name" v="Mlad칳ch B캩chovic"/>
    <tag k="sidewalk:both" v="separate"/>
    <tag k="smoothness" v="good"/>
    <tag k="surface" v="asphalt"/>
  </way>
  <way id="150928695" version="1" timestamp="2012-02-18T17:04:16Z" changeset="10722190" uid="8007" user="vrabcak">
    <nd ref="1637904878"/>
    <nd ref="1637904830"/>
    <nd ref="748672462"/>
    <nd ref="60483226"/>
    <tag k="highway" v="residential"/>
    <tag k="name" v="Na Va켿hov캩"/>
    <tag k="oneway" v="yes"/>
  </way>
  <way id="150928696" version="4" timestamp="2018-12-28T17:56:32Z" changeset="65848786" uid="325628" user="jirilebl">
    <nd ref="21263179"/>
    <nd ref="748672422"/>
    <nd ref="1637904883"/>
    <tag k="highway" v="residential"/>
    <tag k="lit" v="yes"/>
    <tag k="name" v="Na Vydrholci"/>
    <tag k="oneway" v="yes"/>
    <tag k="surface" v="asphalt"/>
  </way>
  <way id="150928699" version="2" timestamp="2021-03-15T17:41:37Z" changeset="101067035" uid="718054" user="Piskvor">
    <nd ref="1637904823"/>
    <nd ref="366896483"/>
    <nd ref="60263208"/>
    <tag k="highway" v="residential"/>
    <tag k="name" v="Richtrova"/>
    <tag k="surface" v="paving_stones"/>
  </way>
  <way id="150928702" version="5" timestamp="2024-01-28T15:35:48Z" changeset="146780410" uid="469828" user="Luk치코 Jel칤nek">
    <nd ref="60263346"/>
    <nd ref="60263347"/>
    <nd ref="747761554"/>
    <nd ref="747761546"/>
    <nd ref="60263349"/>
    <tag k="highway" v="residential"/>
    <tag k="lane_markings" v="no"/>
    <tag k="lit" v="yes"/>
    <tag k="name" v="V Poto캜in치ch"/>
    <tag k="smoothness" v="good"/>
    <tag k="source:name" v="nameit/uir-adr"/>
    <tag k="surface" v="paving_stones"/>
  </way>
  <way id="150928704" version="1" timestamp="2012-02-18T17:04:18Z" changeset="10722190" uid="8007" user="vrabcak">
    <nd ref="1637904910"/>
    <nd ref="747819976"/>
    <tag k="highway" v="residential"/>
    <tag k="name" v="Za Po코tovskou zahradou"/>
    <tag k="source" v="cuzk:km"/>
  </way>
  <way id="150928708" version="1" timestamp="2012-02-18T17:04:19Z" changeset="10722190" uid="8007" user="vrabcak">
    <nd ref="1637904883"/>
    <nd ref="1637904878"/>
    <tag k="highway" v="residential"/>
    <tag k="oneway" v="yes"/>
  </way>
  <way id="150928728" version="1" timestamp="2012-02-18T17:04:22Z" changeset="10722190" uid="8007" user="vrabcak">
    <nd ref="1637904878"/>
    <nd ref="1637904876"/>
    <nd ref="1637904874"/>
    <tag k="highway" v="residential"/>
  </way>
  <way id="150928736" version="17" timestamp="2024-03-25T15:13:33Z" changeset="149136163" uid="718054" user="Piskvor">
    <nd ref="8364933453"/>
    <nd ref="11761407772"/>
    <nd ref="10223365917"/>
    <nd ref="747764088"/>
    <nd ref="10223352116"/>
    <nd ref="21263176"/>
    <nd ref="10221509296"/>
    <nd ref="8364933451"/>
    <nd ref="747764084"/>
    <nd ref="10223352113"/>
    <nd ref="60263369"/>
    <nd ref="60263352"/>
    <nd ref="10221477226"/>
    <nd ref="5607392297"/>
    <nd ref="5607015824"/>
    <nd ref="747764087"/>
    <nd ref="10223352112"/>
    <nd ref="60263353"/>
    <nd ref="21263177"/>
    <nd ref="747781222"/>
    <nd ref="366888784"/>
    <nd ref="10221509297"/>
    <nd ref="60263338"/>
    <nd ref="5607392295"/>
    <nd ref="5607015823"/>
    <nd ref="10221477225"/>
    <nd ref="8364933449"/>
    <tag k="highway" v="primary"/>
    <tag k="lanes" v="2"/>
    <tag k="lit" v="yes"/>
    <tag k="maxspeed" v="50"/>
    <tag k="name" v="캛eskobrodsk치"/>
    <tag k="ref" v="12"/>
  </way>
  <way id="150928739" version="18" timestamp="2025-03-30T12:06:48Z" changeset="164284436" uid="4018695" user="游뻟릖 Roman Horn칤k">
    <nd ref="1635770233"/>
    <nd ref="8525653479"/>
    <nd ref="9835457106"/>
    <nd ref="10182516760"/>
    <tag k="check_date:smoothness" v="2025-01-02"/>
    <tag k="cycleway:both" v="no"/>
    <tag k="highway" v="primary"/>
    <tag k="lanes" v="2"/>
    <tag k="lit" v="no"/>
    <tag k="maxspeed" v="50"/>
    <tag k="name" v="캛eskobrodsk치"/>
    <tag k="parking:both" v="no"/>
    <tag k="ref" v="12"/>
    <tag k="sidewalk:left" v="no"/>
    <tag k="sidewalk:right" v="separate"/>
    <tag k="smoothness" v="excellent"/>
    <tag k="surface" v="asphalt"/>
  </way>
  <way id="150934357" version="3" timestamp="2025-04-24T09:50:55Z" changeset="165370029" uid="718054" user="Piskvor">
    <nd ref="29446555"/>
    <nd ref="366900020"/>
    <tag k="bridge" v="yes"/>
    <tag k="bridge:structure" v="beam"/>
    <tag k="highway" v="unclassified"/>
    <tag k="layer" v="1"/>
    <tag k="surface" v="concrete:plates"/>
  </way>
  <way id="150934376" version="4" timestamp="2024-12-17T16:04:20Z" changeset="160307567" uid="10545359" user="kainloma">
    <nd ref="366900020"/>
    <nd ref="12425546167"/>
    <nd ref="29446579"/>
    <nd ref="10313542614"/>
    <nd ref="29446593"/>
    <nd ref="1637952182"/>
    <nd ref="60262858"/>
    <nd ref="29446617"/>
    <tag k="highway" v="unclassified"/>
    <tag k="surface" v="asphalt"/>
  </way>
  <way id="183651305" version="8" timestamp="2022-11-28T10:36:23Z" changeset="129470080" uid="718054" user="Piskvor">
    <nd ref="1626024987"/>
    <nd ref="1626024985"/>
    <nd ref="10223352086"/>
    <tag k="highway" v="residential"/>
    <tag k="lanes" v="2"/>
    <tag k="maxspeed" v="50"/>
    <tag k="maxweight" v="3.5"/>
    <tag k="name" v="Do Panenek"/>
  </way>
  <way id="183651307" version="7" timestamp="2023-02-10T17:55:06Z" changeset="132373603" uid="718054" user="Piskvor">
    <nd ref="60263270"/>
    <nd ref="1626024995"/>
    <nd ref="1626024992"/>
    <nd ref="1626024987"/>
    <tag k="highway" v="residential"/>
    <tag k="lanes" v="2"/>
    <tag k="lit" v="yes"/>
    <tag k="maxspeed" v="30"/>
    <tag k="name" v="Do Panenek"/>
  </way>
  <way id="190907698" version="12" timestamp="2022-07-20T20:55:55Z" changeset="123866341" uid="25561" user="Gobik">
    <nd ref="2263005928"/>
    <nd ref="8510683469"/>
    <nd ref="8510683468"/>
    <nd ref="8510683467"/>
    <nd ref="8510683466"/>
    <nd ref="8510683465"/>
    <nd ref="8510683464"/>
    <nd ref="8510683463"/>
    <nd ref="8510683462"/>
    <nd ref="8510683461"/>
    <nd ref="8510683460"/>
    <nd ref="8510683459"/>
    <nd ref="8510683458"/>
    <nd ref="2015046301"/>
    <nd ref="4976270308"/>
    <tag k="bicycle" v="no"/>
    <tag k="foot" v="no"/>
    <tag k="highway" v="trunk_link"/>
    <tag k="horse" v="no"/>
    <tag k="lanes" v="2"/>
    <tag k="lit" v="yes"/>
    <tag k="maxspeed" v="80"/>
    <tag k="motorroad" v="yes"/>
    <tag k="oneway" v="yes"/>
  </way>
  <way id="209335352" version="3" timestamp="2023-02-10T17:55:06Z" changeset="132373603" uid="718054" user="Piskvor">
    <nd ref="60263195"/>
    <nd ref="748672421"/>
    <nd ref="366896495"/>
    <nd ref="60263206"/>
    <tag k="highway" v="residential"/>
    <tag k="lanes" v="1"/>
    <tag k="lit" v="yes"/>
    <tag k="maxspeed" v="30"/>
    <tag k="name" v="Josefa N캩mce"/>
    <tag k="oneway" v="yes"/>
    <tag k="source:maxspeed" v="zone"/>
    <tag k="surface" v="paving_stones"/>
  </way>
  <way id="209335357" version="5" timestamp="2023-02-10T17:55:06Z" changeset="132373603" uid="718054" user="Piskvor">
    <nd ref="60263206"/>
    <nd ref="366896497"/>
    <nd ref="366896499"/>
    <nd ref="8500422563"/>
    <nd ref="366896498"/>
    <tag k="highway" v="residential"/>
    <tag k="maxspeed" v="30"/>
    <tag k="name" v="Ke Kolod캩j콢m"/>
    <tag k="smoothness" v="good"/>
    <tag k="source:maxspeed" v="zone"/>
    <tag k="source:name" v="nameit/uir-adr"/>
    <tag k="surface" v="asphalt"/>
  </way>
  <way id="213888731" version="8" timestamp="2023-03-16T10:48:34Z" changeset="133743542" uid="8971394" user="vojtechzaboril">
    <nd ref="2015046298"/>
    <nd ref="8510653261"/>
    <nd ref="6393496532"/>
    <nd ref="8510653262"/>
    <nd ref="8510653263"/>
    <nd ref="2015046297"/>
    <nd ref="8510653264"/>
    <nd ref="5702702158"/>
    <tag k="highway" v="trunk_link"/>
    <tag k="lanes" v="1"/>
    <tag k="lit" v="yes"/>
    <tag k="maxspeed" v="110"/>
    <tag k="motorroad" v="yes"/>
    <tag k="oneway" v="yes"/>
    <tag k="source:maxspeed" v="CZ:trunk"/>
    <tag k="surface" v="asphalt"/>
  </way>
  <way id="213888732" version="10" timestamp="2022-07-20T20:55:59Z" changeset="123866341" uid="25561" user="Gobik">
    <nd ref="8510147560"/>
    <nd ref="8510653279"/>
    <tag k="bridge" v="yes"/>
    <tag k="highway" v="motorway_link"/>
    <tag k="lanes" v="1"/>
    <tag k="layer" v="1"/>
    <tag k="lit" v="yes"/>
    <tag k="maxspeed" v="100"/>
    <tag k="oneway" v="yes"/>
    <tag k="source:maxspeed" v="sign"/>
    <tag k="surface" v="asphalt"/>
    <tag k="toll" v="no"/>
    <tag k="toll:hgv" v="yes"/>
  </way>
  <way id="216981757" version="9" timestamp="2022-07-20T20:55:58Z" changeset="123866341" uid="25561" user="Gobik">
    <nd ref="8521145235"/>
    <nd ref="8510147574"/>
    <nd ref="8510147573"/>
    <nd ref="8510147545"/>
    <nd ref="8510147544"/>
    <nd ref="4976270310"/>
    <nd ref="8510147543"/>
    <nd ref="1635774914"/>
    <tag k="highway" v="motorway_link"/>
    <tag k="lanes" v="2"/>
    <tag k="lit" v="yes"/>
    <tag k="maxspeed" v="130"/>
    <tag k="motorroad" v="yes"/>
    <tag k="oneway" v="yes"/>
    <tag k="source:maxspeed" v="CZ:motorway"/>
    <tag k="surface" v="asphalt"/>
    <tag k="toll" v="no"/>
    <tag k="toll:hgv" v="yes"/>
  </way>
  <way id="216981761" version="15" timestamp="2024-09-16T10:43:06Z" changeset="156682137" uid="8971394" user="vojtechzaboril">
    <nd ref="8510147606"/>
    <nd ref="8510147618"/>
    <nd ref="8510147617"/>
    <nd ref="4248967100"/>
    <nd ref="8510147616"/>
    <nd ref="8510147615"/>
    <nd ref="4248967098"/>
    <nd ref="4248967099"/>
    <nd ref="322950179"/>
    <nd ref="4248967096"/>
    <nd ref="4248967095"/>
    <nd ref="4248967097"/>
    <tag k="cycleway:right" v="no"/>
    <tag k="destination" v="Kol칤n;B캩chovice"/>
    <tag k="destination:ref" v="12"/>
    <tag k="foot" v="no"/>
    <tag k="highway" v="trunk_link"/>
    <tag k="lanes" v="1"/>
    <tag k="lit" v="yes"/>
    <tag k="maxspeed" v="50"/>
    <tag k="motorroad" v="no"/>
    <tag k="oneway" v="yes"/>
    <tag k="sidewalk" v="no"/>
    <tag k="source:maxspeed" v="CZ:urban"/>
    <tag k="surface" v="asphalt"/>
    <tag k="turn:lanes" v="right"/>
  </way>
  <way id="216981764" version="10" timestamp="2024-09-16T10:43:06Z" changeset="156682137" uid="8971394" user="vojtechzaboril">
    <nd ref="8510683470"/>
    <nd ref="4976270299"/>
    <nd ref="8510683473"/>
    <nd ref="8510683474"/>
    <nd ref="4976285473"/>
    <nd ref="8510683475"/>
    <nd ref="4976285476"/>
    <nd ref="322947754"/>
    <nd ref="8510683476"/>
    <nd ref="8510683477"/>
    <nd ref="322947756"/>
    <tag k="bicycle" v="no"/>
    <tag k="destination" v="Kol칤n;B캩chovice"/>
    <tag k="destination:ref" v="12"/>
    <tag k="foot" v="no"/>
    <tag k="highway" v="motorway_link"/>
    <tag k="horse" v="no"/>
    <tag k="lanes" v="1"/>
    <tag k="lit" v="yes"/>
    <tag k="maxspeed" v="50"/>
    <tag k="motor_vehicle" v="designated"/>
    <tag k="motorroad" v="no"/>
    <tag k="oneway" v="yes"/>
    <tag k="source:maxspeed" v="CZ:urban"/>
    <tag k="surface" v="asphalt"/>
    <tag k="turn:lanes" v="right"/>
  </way>
  <way id="229782804" version="7" timestamp="2022-07-20T20:55:57Z" changeset="123866341" uid="25561" user="Gobik">
    <nd ref="1635774914"/>
    <nd ref="8510147542"/>
    <nd ref="8510147541"/>
    <nd ref="8510147540"/>
    <nd ref="1635774918"/>
    <nd ref="8510147539"/>
    <nd ref="8510147535"/>
    <nd ref="1635774923"/>
    <tag k="highway" v="motorway_link"/>
    <tag k="lanes" v="2"/>
    <tag k="lit" v="yes"/>
    <tag k="maxspeed" v="130"/>
    <tag k="motorroad" v="yes"/>
    <tag k="oneway" v="yes"/>
    <tag k="source:maxspeed" v="CZ:motorway"/>
    <tag k="surface" v="asphalt"/>
    <tag k="toll" v="no"/>
    <tag k="toll:hgv" v="yes"/>
    <tag k="turn:lanes" v="merge_to_right|"/>
  </way>
  <way id="229782805" version="10" timestamp="2024-09-16T10:43:06Z" changeset="156682137" uid="8971394" user="vojtechzaboril">
    <nd ref="8510143988"/>
    <nd ref="8510143989"/>
    <nd ref="32638668"/>
    <nd ref="8510143990"/>
    <nd ref="8510143991"/>
    <nd ref="32638680"/>
    <nd ref="8510143992"/>
    <nd ref="8510143993"/>
    <nd ref="8510143994"/>
    <nd ref="8510143995"/>
    <nd ref="8510147569"/>
    <nd ref="8510147570"/>
    <nd ref="8510147571"/>
    <nd ref="8510147572"/>
    <tag k="bicycle" v="no"/>
    <tag k="highway" v="trunk_link"/>
    <tag k="lanes" v="1"/>
    <tag k="lit" v="yes"/>
    <tag k="maxspeed" v="90"/>
    <tag k="motorroad" v="no"/>
    <tag k="oneway" v="yes"/>
    <tag k="source:maxspeed" v="CZ:rural"/>
    <tag k="surface" v="asphalt"/>
  </way>
  <way id="347073379" version="2" timestamp="2019-04-24T06:48:19Z" changeset="69513702" uid="1189910" user="Milancer">
    <nd ref="60263259"/>
    <nd ref="60263260"/>
    <nd ref="748676022"/>
    <nd ref="1637904903"/>
    <nd ref="60263263"/>
    <tag k="highway" v="residential"/>
    <tag k="name" v="V칳jezdov치"/>
  </way>
  <way id="357882563" version="9" timestamp="2022-12-21T23:24:20Z" changeset="130351763" uid="469828" user="Luk치코 Jel칤nek">
    <nd ref="25450809"/>
    <nd ref="1024705952"/>
    <nd ref="60262172"/>
    <nd ref="1635770225"/>
    <tag k="hgv" v="destination"/>
    <tag k="highway" v="tertiary"/>
    <tag k="lanes" v="2"/>
    <tag k="lit" v="yes"/>
    <tag k="maxspeed" v="50"/>
    <tag k="maxweight" v="3.5"/>
    <tag k="name" v="Do 콎칤캜an"/>
    <tag k="sidewalk:left" v="separate"/>
    <tag k="sidewalk:right" v="no"/>
    <tag k="smoothness" v="excellent"/>
    <tag k="surface" v="asphalt"/>
  </way>
  <way id="357977684" version="10" timestamp="2022-04-25T18:28:02Z" changeset="120178740" uid="469828" user="Luk치코 Jel칤nek">
    <nd ref="8320713855"/>
    <nd ref="60262716"/>
    <nd ref="9451149123"/>
    <nd ref="1635770089"/>
    <nd ref="1635770118"/>
    <nd ref="8320713854"/>
    <tag k="cycleway:both" v="no"/>
    <tag k="hgv" v="destination"/>
    <tag k="highway" v="tertiary"/>
    <tag k="lanes" v="2"/>
    <tag k="lit" v="yes"/>
    <tag k="maxspeed" v="50"/>
    <tag k="name" v="Do 콎칤캜an"/>
    <tag k="sidewalk" v="left"/>
    <tag k="sidewalk:left:surface" v="paving_stones"/>
    <tag k="smoothness" v="excellent"/>
    <tag k="surface" v="asphalt"/>
  </way>
  <way id="413377967" version="3" timestamp="2023-02-10T17:55:06Z" changeset="132373603" uid="718054" user="Piskvor">
    <nd ref="1213987455"/>
    <nd ref="60263203"/>
    <tag k="highway" v="residential"/>
    <tag k="lit" v="yes"/>
    <tag k="maxspeed" v="30"/>
    <tag k="name" v="Ke Kolod캩j콢m"/>
    <tag k="oneway" v="no"/>
    <tag k="source:maxspeed" v="zone"/>
    <tag k="source:name" v="nameit/uir-adr"/>
    <tag k="surface" v="asphalt"/>
  </way>
  <way id="503324149" version="4" timestamp="2023-02-10T17:55:06Z" changeset="132373603" uid="718054" user="Piskvor">
    <nd ref="60263091"/>
    <nd ref="60263134"/>
    <nd ref="60263142"/>
    <nd ref="748672442"/>
    <nd ref="60263148"/>
    <tag k="highway" v="residential"/>
    <tag k="lanes" v="1"/>
    <tag k="lit" v="yes"/>
    <tag k="maxspeed" v="30"/>
    <tag k="name" v="Josefa N캩mce"/>
    <tag k="source:maxspeed" v="zone"/>
    <tag k="surface" v="paving_stones"/>
  </way>
  <way id="503324150" version="4" timestamp="2024-10-23T10:27:25Z" changeset="158246125" uid="148369" user="Martin Chovanec">
    <nd ref="747781198"/>
    <nd ref="60263128"/>
    <nd ref="8521666654"/>
    <nd ref="60263117"/>
    <nd ref="60263109"/>
    <nd ref="60263091"/>
    <tag k="highway" v="residential"/>
    <tag k="lanes" v="1"/>
    <tag k="lit" v="yes"/>
    <tag k="name" v="K T치boru"/>
    <tag k="priority" v="forward"/>
    <tag k="surface" v="paving_stones"/>
  </way>
  <way id="508290782" version="10" timestamp="2025-03-30T12:06:48Z" changeset="164284436" uid="4018695" user="游뻟릖 Roman Horn칤k">
    <nd ref="9451082744"/>
    <nd ref="9451082745"/>
    <nd ref="9394320581"/>
    <nd ref="8510876102"/>
    <tag k="cycleway:right" v="no"/>
    <tag k="highway" v="primary"/>
    <tag k="lanes" v="2"/>
    <tag k="lit" v="yes"/>
    <tag k="maxheight" v="default"/>
    <tag k="maxspeed" v="50"/>
    <tag k="name" v="캛eskobrodsk치"/>
    <tag k="oneway" v="yes"/>
    <tag k="placement" v="middle_of:2"/>
    <tag k="ref" v="12"/>
    <tag k="source:maxspeed" v="CZ:urban"/>
    <tag k="surface" v="asphalt"/>
    <tag k="turn:lanes" v="merge_to_right|"/>
  </way>
  <way id="508290783" version="8" timestamp="2024-09-16T10:43:06Z" changeset="156682137" uid="8971394" user="vojtechzaboril">
    <nd ref="322947756"/>
    <nd ref="8510683517"/>
    <tag k="bicycle" v="no"/>
    <tag k="foot" v="no"/>
    <tag k="highway" v="motorway_link"/>
    <tag k="horse" v="no"/>
    <tag k="lanes" v="1"/>
    <tag k="lit" v="yes"/>
    <tag k="maxspeed" v="50"/>
    <tag k="motor_vehicle" v="designated"/>
    <tag k="motorroad" v="no"/>
    <tag k="oneway" v="yes"/>
    <tag k="source:maxspeed" v="CZ:urban"/>
    <tag k="surface" v="asphalt"/>
  </way>
  <way id="508290784" version="13" timestamp="2025-01-05T15:35:26Z" changeset="161025278" uid="469828" user="Luk치코 Jel칤nek">
    <nd ref="4248967097"/>
    <nd ref="322950181"/>
    <nd ref="8364933442"/>
    <tag k="bicycle" v="no"/>
    <tag k="destination" v="Kol칤n;B캩chovice"/>
    <tag k="destination:ref" v="12"/>
    <tag k="foot" v="yes"/>
    <tag k="highway" v="trunk_link"/>
    <tag k="lanes" v="1"/>
    <tag k="lit" v="yes"/>
    <tag k="maxspeed" v="50"/>
    <tag k="motorroad" v="no"/>
    <tag k="oneway" v="yes"/>
    <tag k="sidewalk" v="no"/>
    <tag k="smoothness" v="good"/>
    <tag k="source:maxspeed" v="CZ:urban"/>
    <tag k="surface" v="asphalt"/>
  </way>
  <way id="508290785" version="8" timestamp="2024-09-16T10:43:06Z" changeset="156682137" uid="8971394" user="vojtechzaboril">
    <nd ref="8510683429"/>
    <nd ref="8510683440"/>
    <nd ref="1635774924"/>
    <nd ref="8510683434"/>
    <nd ref="8510683433"/>
    <nd ref="8510683432"/>
    <tag k="bicycle" v="no"/>
    <tag k="cycleway:right" v="no"/>
    <tag k="highway" v="motorway_link"/>
    <tag k="lanes" v="2"/>
    <tag k="lit" v="yes"/>
    <tag k="maxspeed" v="90"/>
    <tag k="motorroad" v="no"/>
    <tag k="oneway" v="yes"/>
    <tag k="source:maxspeed" v="CZ:rural"/>
    <tag k="surface" v="asphalt"/>
  </way>
  <way id="508290786" version="4" timestamp="2022-07-20T20:55:55Z" changeset="123866341" uid="25561" user="Gobik">
    <nd ref="4976270308"/>
    <nd ref="4976270309"/>
    <nd ref="8510653256"/>
    <nd ref="8510653257"/>
    <nd ref="2015046300"/>
    <tag k="highway" v="trunk_link"/>
    <tag k="lanes" v="2"/>
    <tag k="lit" v="yes"/>
    <tag k="maxspeed" v="110"/>
    <tag k="motorroad" v="yes"/>
    <tag k="oneway" v="yes"/>
    <tag k="source:maxspeed" v="CZ:trunk"/>
    <tag k="surface" v="asphalt"/>
  </way>
  <way id="508290787" version="5" timestamp="2022-07-20T20:55:55Z" changeset="123866341" uid="25561" user="Gobik">
    <nd ref="2015046300"/>
    <nd ref="8510653258"/>
    <nd ref="2015046299"/>
    <nd ref="8510653260"/>
    <nd ref="5395643488"/>
    <nd ref="8510653259"/>
    <nd ref="2015046298"/>
    <tag k="highway" v="trunk_link"/>
    <tag k="lanes" v="2"/>
    <tag k="lit" v="yes"/>
    <tag k="maxspeed" v="110"/>
    <tag k="motorroad" v="yes"/>
    <tag k="oneway" v="yes"/>
    <tag k="source:maxspeed" v="CZ:trunk"/>
    <tag k="surface" v="asphalt"/>
    <tag k="turn:lanes" v="merge_to_right|"/>
  </way>
  <way id="531633401" version="6" timestamp="2025-03-30T12:06:48Z" changeset="164284436" uid="4018695" user="游뻟릖 Roman Horn칤k">
    <nd ref="4986544061"/>
    <nd ref="5160447621"/>
    <nd ref="5160447517"/>
    <nd ref="481251418"/>
    <tag k="highway" v="tertiary"/>
    <tag k="lanes" v="2"/>
    <tag k="lit" v="yes"/>
    <tag k="name" v="Mlad칳ch B캩chovic"/>
    <tag k="smoothness" v="excellent"/>
    <tag k="surface" v="asphalt"/>
  </way>
  <way id="559429580" version="7" timestamp="2025-03-30T12:06:48Z" changeset="164284436" uid="4018695" user="游뻟릖 Roman Horn칤k">
    <nd ref="322950183"/>
    <nd ref="8510147559"/>
    <tag k="highway" v="motorway"/>
    <tag k="int_ref" v="E 55;E 65"/>
    <tag k="lanes" v="2"/>
    <tag k="lit" v="yes"/>
    <tag k="maxspeed" v="100"/>
    <tag k="name" v="Pra쬽k칳 okruh"/>
    <tag k="name:de" v="Prager Ring"/>
    <tag k="name:en" v="Prague Ring"/>
    <tag k="oneway" v="yes"/>
    <tag k="ref" v="D0"/>
    <tag k="source:maxspeed" v="sign"/>
    <tag k="surface" v="asphalt"/>
    <tag k="toll" v="no"/>
  </way>
  <way id="559429583" version="12" timestamp="2023-03-16T10:48:34Z" changeset="133743542" uid="8971394" user="vojtechzaboril">
    <nd ref="322950189"/>
    <nd ref="7112884321"/>
    <nd ref="8510653280"/>
    <nd ref="29094907"/>
    <nd ref="8510653281"/>
    <nd ref="7112884322"/>
    <nd ref="8510653282"/>
    <nd ref="322954006"/>
    <nd ref="8510653271"/>
    <nd ref="8511311646"/>
    <tag k="hgv:lanes" v="no|yes"/>
    <tag k="highway" v="trunk"/>
    <tag k="int_ref" v="E 55;E 65"/>
    <tag k="lanes" v="3"/>
    <tag k="lit" v="yes"/>
    <tag k="maxheight" v="default"/>
    <tag k="maxspeed" v="80"/>
    <tag k="motorroad" v="yes"/>
    <tag k="name" v="맚캩rboholsk치 spojka"/>
    <tag k="oneway" v="yes"/>
    <tag k="placement" v="right_of:1"/>
    <tag k="source:maxspeed" v="sign"/>
    <tag k="surface" v="asphalt"/>
    <tag k="turn:lanes" v="||merge_to_left"/>
  </way>
  <way id="591768445" version="3" timestamp="2022-02-23T23:58:53Z" changeset="117791547" uid="11545091" user="VladaC">
    <nd ref="5649205208"/>
    <nd ref="5651505952"/>
    <nd ref="5649205218"/>
    <nd ref="5649205438"/>
    <nd ref="5649205215"/>
    <nd ref="9531178097"/>
    <nd ref="5649205421"/>
    <nd ref="5651505951"/>
    <nd ref="1424349553"/>
    <tag k="highway" v="residential"/>
    <tag k="oneway" v="yes"/>
  </way>
  <way id="593434862" version="5" timestamp="2025-03-03T11:36:41Z" changeset="163157384" uid="718054" user="Piskvor">
    <nd ref="1424349594"/>
    <nd ref="9531178098"/>
    <nd ref="1424349590"/>
    <nd ref="192227064"/>
    <nd ref="5649205208"/>
    <nd ref="1424349584"/>
    <nd ref="29442748"/>
    <tag k="access:conditional" v="private @ (2025 Mar 17-2025 Apr 20)"/>
    <tag k="highway" v="tertiary"/>
    <tag k="lanes" v="2"/>
    <tag k="name" v="Mlad칳ch B캩chovic"/>
    <tag k="surface" v="asphalt"/>
  </way>
  <way id="593735330" version="5" timestamp="2025-03-03T11:36:41Z" changeset="163157384" uid="718054" user="Piskvor">
    <nd ref="4025190211"/>
    <nd ref="611251605"/>
    <nd ref="5651505945"/>
    <nd ref="5651505943"/>
    <nd ref="1424349616"/>
    <nd ref="5651505933"/>
    <nd ref="9531178104"/>
    <nd ref="5651505931"/>
    <nd ref="1424349615"/>
    <nd ref="1424349613"/>
    <nd ref="5651505942"/>
    <nd ref="29442744"/>
    <nd ref="5651505935"/>
    <nd ref="29442745"/>
    <nd ref="1424349598"/>
    <nd ref="1424349597"/>
    <nd ref="29442746"/>
    <nd ref="1424349594"/>
    <tag k="access:conditional" v="private @ (2025 Mar 17-2025 Apr 20)"/>
    <tag k="highway" v="tertiary"/>
    <tag k="lanes" v="2"/>
    <tag k="name" v="Mlad칳ch B캩chovic"/>
    <tag k="surface" v="asphalt"/>
  </way>
  <way id="621320706" version="4" timestamp="2022-07-20T20:56:15Z" changeset="123866341" uid="25561" user="Gobik">
    <nd ref="5869461407"/>
    <nd ref="5869461408"/>
    <tag k="bridge" v="yes"/>
    <tag k="bridge:structure" v="beam"/>
    <tag k="highway" v="trunk"/>
    <tag k="int_ref" v="E 55;E 65"/>
    <tag k="lanes" v="3"/>
    <tag k="layer" v="1"/>
    <tag k="lit" v="yes"/>
    <tag k="maxheight" v="default"/>
    <tag k="maxspeed" v="80"/>
    <tag k="motorroad" v="yes"/>
    <tag k="name" v="맚캩rboholsk치 spojka"/>
    <tag k="oneway" v="yes"/>
    <tag k="source:maxspeed" v="sign"/>
    <tag k="surface" v="asphalt"/>
    <tag k="toll" v="no"/>
    <tag k="turn:lanes" v="||slight_right"/>
  </way>
  <way id="621320710" version="7" timestamp="2023-03-16T10:48:34Z" changeset="133743542" uid="8971394" user="vojtechzaboril">
    <nd ref="8511311645"/>
    <nd ref="8510143969"/>
    <nd ref="322954008"/>
    <nd ref="8510143970"/>
    <nd ref="7112884323"/>
    <nd ref="8510143971"/>
    <nd ref="21456230"/>
    <nd ref="8510143972"/>
    <nd ref="7112884320"/>
    <nd ref="8510143973"/>
    <nd ref="21456231"/>
    <nd ref="8510143974"/>
    <nd ref="8510143975"/>
    <nd ref="322950187"/>
    <nd ref="8510143976"/>
    <nd ref="8510143977"/>
    <nd ref="4939026957"/>
    <nd ref="8510143978"/>
    <nd ref="8510143979"/>
    <nd ref="5702702159"/>
    <tag k="highway" v="trunk"/>
    <tag k="int_ref" v="E 55;E 65"/>
    <tag k="lanes" v="3"/>
    <tag k="lit" v="yes"/>
    <tag k="maxheight" v="default"/>
    <tag k="maxspeed" v="80"/>
    <tag k="motorroad" v="yes"/>
    <tag k="name" v="맚캩rboholsk치 spojka"/>
    <tag k="oneway" v="yes"/>
    <tag k="placement" v="right_of:1"/>
    <tag k="source:maxspeed" v="sign"/>
    <tag k="surface" v="asphalt"/>
    <tag k="toll" v="no"/>
    <tag k="turn:lanes" v="||slight_right"/>
  </way>
  <way id="621320719" version="8" timestamp="2023-11-29T15:23:57Z" changeset="144592706" uid="6827291" user="thornik">
    <nd ref="5869461410"/>
    <nd ref="5869461409"/>
    <tag k="bridge" v="yes"/>
    <tag k="bridge:structure" v="beam"/>
    <tag k="hgv:lanes" v="no|yes"/>
    <tag k="highway" v="trunk"/>
    <tag k="int_ref" v="E 55;E 65"/>
    <tag k="lanes" v="3"/>
    <tag k="layer" v="1"/>
    <tag k="lit" v="yes"/>
    <tag k="maxheight" v="default"/>
    <tag k="maxspeed" v="80"/>
    <tag k="maxweight:signed" v="no"/>
    <tag k="motorroad" v="yes"/>
    <tag k="name" v="맚캩rboholsk치 spojka"/>
    <tag k="oneway" v="yes"/>
    <tag k="source:maxspeed" v="sign"/>
    <tag k="surface" v="asphalt"/>
    <tag k="turn:lanes" v="||merge_to_left"/>
  </way>
  <way id="636334438" version="3" timestamp="2023-05-31T16:51:24Z" changeset="136797976" uid="4997045" user="Tomas_J">
    <nd ref="3909580362"/>
    <nd ref="192228293"/>
    <tag k="highway" v="tertiary"/>
    <tag k="lanes" v="2"/>
    <tag k="name" v="Mlad칳ch B캩chovic"/>
    <tag k="surface" v="asphalt"/>
  </way>
  <way id="680742568" version="5" timestamp="2025-03-03T11:36:41Z" changeset="163157384" uid="718054" user="Piskvor">
    <nd ref="6374351060"/>
    <nd ref="1424349656"/>
    <nd ref="8267364754"/>
    <nd ref="249434667"/>
    <tag k="access:conditional" v="private @ (2025 Mar 17-2025 Apr 20)"/>
    <tag k="highway" v="tertiary"/>
    <tag k="lanes" v="2"/>
    <tag k="name" v="Mlad칳ch B캩chovic"/>
    <tag k="note" v="spojka Horn칤 - Doln칤 Po캜ernice"/>
    <tag k="surface" v="asphalt"/>
  </way>
  <way id="730782800" version="3" timestamp="2024-01-26T23:16:55Z" changeset="146727518" uid="469828" user="Luk치코 Jel칤nek">
    <nd ref="1635770096"/>
    <nd ref="1635770093"/>
    <tag k="highway" v="residential"/>
    <tag k="lit" v="yes"/>
    <tag k="maxspeed" v="30"/>
    <tag k="name" v="Hasi캜sk치"/>
    <tag k="sidewalk" v="no"/>
    <tag k="surface" v="asphalt"/>
  </way>
  <way id="730782801" version="2" timestamp="2023-09-28T17:33:54Z" changeset="141874683" uid="469828" user="Luk치코 Jel칤nek">
    <nd ref="60262753"/>
    <nd ref="60262761"/>
    <tag k="highway" v="residential"/>
    <tag k="lit" v="yes"/>
    <tag k="maxspeed" v="30"/>
    <tag k="name" v="Na Korunce"/>
    <tag k="smoothness" v="good"/>
    <tag k="source:name" v="nameit/uir-adr"/>
    <tag k="surface" v="paving_stones"/>
  </way>
  <way id="761320183" version="7" timestamp="2023-03-16T10:48:34Z" changeset="133743542" uid="8971394" user="vojtechzaboril">
    <nd ref="5702702158"/>
    <nd ref="10738962283"/>
    <nd ref="10738962284"/>
    <nd ref="10738962285"/>
    <nd ref="10738962286"/>
    <nd ref="5395643487"/>
    <nd ref="8511302627"/>
    <nd ref="8510653275"/>
    <nd ref="322950189"/>
    <tag k="hgv:lanes" v="no|yes"/>
    <tag k="highway" v="trunk"/>
    <tag k="int_ref" v="E 55;E 65"/>
    <tag k="lanes" v="3"/>
    <tag k="lit" v="yes"/>
    <tag k="maxheight" v="default"/>
    <tag k="maxspeed" v="80"/>
    <tag k="motorroad" v="yes"/>
    <tag k="name" v="맚캩rboholsk치 spojka"/>
    <tag k="oneway" v="yes"/>
    <tag k="placement" v="right_of:1"/>
    <tag k="source:maxspeed" v="sign"/>
    <tag k="surface" v="asphalt"/>
    <tag k="turn:lanes" v="||merge_to_left"/>
  </way>
  <way id="874066483" version="1" timestamp="2020-11-18T13:42:43Z" changeset="94367641" uid="718054" user="Piskvor">
    <nd ref="8137565184"/>
    <nd ref="270508728"/>
    <tag k="hgv" v="destination"/>
    <tag k="highway" v="primary"/>
    <tag k="lanes" v="3"/>
    <tag k="lanes:backward" v="1"/>
    <tag k="lanes:forward" v="2"/>
    <tag k="lit" v="yes"/>
    <tag k="maxspeed" v="50"/>
    <tag k="name" v="캛eskobrodsk치"/>
    <tag k="oneway" v="no"/>
    <tag k="ref" v="12"/>
    <tag k="surface" v="asphalt"/>
    <tag k="turn:lanes:forward" v="through|right"/>
  </way>
  <way id="874066484" version="2" timestamp="2021-02-15T17:35:37Z" changeset="99325334" uid="718054" user="Piskvor">
    <nd ref="270508728"/>
    <nd ref="8137565185"/>
    <tag k="hgv" v="destination"/>
    <tag k="highway" v="primary"/>
    <tag k="lanes" v="3"/>
    <tag k="lanes:backward" v="2"/>
    <tag k="lanes:forward" v="1"/>
    <tag k="lit" v="yes"/>
    <tag k="maxspeed" v="50"/>
    <tag k="name" v="캛eskobrodsk치"/>
    <tag k="oneway" v="no"/>
    <tag k="ref" v="12"/>
    <tag k="surface" v="asphalt"/>
    <tag k="turn:lanes:backward" v="left|through"/>
  </way>
  <way id="874066485" version="1" timestamp="2020-11-18T13:42:43Z" changeset="94367641" uid="718054" user="Piskvor">
    <nd ref="8137565185"/>
    <nd ref="8137565186"/>
    <nd ref="270508733"/>
    <tag k="hgv" v="destination"/>
    <tag k="highway" v="primary"/>
    <tag k="lanes" v="2"/>
    <tag k="lit" v="yes"/>
    <tag k="maxspeed" v="50"/>
    <tag k="name" v="캛eskobrodsk치"/>
    <tag k="oneway" v="no"/>
    <tag k="ref" v="12"/>
    <tag k="surface" v="asphalt"/>
  </way>
  <way id="900454166" version="2" timestamp="2021-04-10T10:55:05Z" changeset="102692508" uid="6588887" user="Martin2035">
    <nd ref="8364933449"/>
    <nd ref="662947527"/>
    <nd ref="8112009692"/>
    <nd ref="8112009691"/>
    <nd ref="366896487"/>
    <nd ref="29443312"/>
    <tag k="highway" v="primary"/>
    <tag k="lanes" v="3"/>
    <tag k="lanes:backward" v="1"/>
    <tag k="lanes:forward" v="2"/>
    <tag k="lit" v="yes"/>
    <tag k="maxspeed" v="50"/>
    <tag k="name" v="캛eskobrodsk치"/>
    <tag k="ref" v="12"/>
    <tag k="surface" v="asphalt"/>
    <tag k="turn:lanes:forward" v="left|through"/>
  </way>
  <way id="900454168" version="3" timestamp="2021-08-16T08:45:18Z" changeset="109736278" uid="270456" user="pyrog">
    <nd ref="60263350"/>
    <nd ref="8364933453"/>
    <tag k="bridge" v="yes"/>
    <tag k="bridge:ref" v="R028"/>
    <tag k="bridge:structure" v="beam"/>
    <tag k="highway" v="primary"/>
    <tag k="lanes" v="2"/>
    <tag k="lit" v="yes"/>
    <tag k="maxspeed" v="50"/>
    <tag k="name" v="캛eskobrodsk치"/>
    <tag k="ref" v="12"/>
  </way>
  <way id="900454169" version="4" timestamp="2025-03-30T12:06:48Z" changeset="164284436" uid="4018695" user="游뻟릖 Roman Horn칤k">
    <nd ref="60263455"/>
    <nd ref="1637904871"/>
    <nd ref="747764085"/>
    <nd ref="11761407770"/>
    <nd ref="60263350"/>
    <tag k="highway" v="primary"/>
    <tag k="lanes" v="2"/>
    <tag k="lit" v="yes"/>
    <tag k="maxspeed" v="50"/>
    <tag k="name" v="캛eskobrodsk치"/>
    <tag k="ref" v="12"/>
    <tag k="surface" v="asphalt"/>
  </way>
  <way id="900454170" version="2" timestamp="2021-04-10T10:55:05Z" changeset="102692508" uid="6588887" user="Martin2035">
    <nd ref="8364933455"/>
    <nd ref="60263449"/>
    <nd ref="8364933456"/>
    <tag k="highway" v="primary"/>
    <tag k="lanes" v="2"/>
    <tag k="lit" v="yes"/>
    <tag k="maxspeed" v="50"/>
    <tag k="name" v="캛eskobrodsk치"/>
    <tag k="ref" v="12"/>
    <tag k="surface" v="asphalt"/>
  </way>
  <way id="900454171" version="3" timestamp="2024-07-04T11:19:22Z" changeset="153541642" uid="10932047" user="AF HAF KARTOGRAF">
    <nd ref="8364933454"/>
    <nd ref="8364933455"/>
    <tag k="bridge" v="yes"/>
    <tag k="bridge:structure" v="beam"/>
    <tag k="highway" v="primary"/>
    <tag k="lanes" v="2"/>
    <tag k="layer" v="1"/>
    <tag k="lit" v="yes"/>
    <tag k="maxspeed" v="50"/>
    <tag k="name" v="캛eskobrodsk치"/>
    <tag k="ref" v="12"/>
    <tag k="surface" v="asphalt"/>
  </way>
  <way id="900454172" version="6" timestamp="2024-07-04T11:19:22Z" changeset="153541642" uid="10932047" user="AF HAF KARTOGRAF">
    <nd ref="8364933456"/>
    <nd ref="8364933457"/>
    <tag k="bridge" v="yes"/>
    <tag k="bridge:ref" v="R027"/>
    <tag k="bridge:structure" v="beam"/>
    <tag k="highway" v="primary"/>
    <tag k="lanes" v="2"/>
    <tag k="layer" v="1"/>
    <tag k="lit" v="yes"/>
    <tag k="maxspeed" v="50"/>
    <tag k="name" v="캛eskobrodsk치"/>
    <tag k="ref" v="12"/>
    <tag k="sidewalk" v="no"/>
    <tag k="surface" v="asphalt"/>
  </way>
  <way id="900454173" version="5" timestamp="2025-03-30T12:06:48Z" changeset="164284436" uid="4018695" user="游뻟릖 Roman Horn칤k">
    <nd ref="1635770225"/>
    <nd ref="8426383359"/>
    <nd ref="60263443"/>
    <nd ref="747768269"/>
    <nd ref="12712980344"/>
    <nd ref="21263175"/>
    <nd ref="8364933454"/>
    <tag k="highway" v="primary"/>
    <tag k="lanes" v="2"/>
    <tag k="lit" v="yes"/>
    <tag k="maxspeed" v="50"/>
    <tag k="name" v="캛eskobrodsk치"/>
    <tag k="ref" v="12"/>
    <tag k="smoothness" v="excellent"/>
    <tag k="surface" v="asphalt"/>
  </way>
  <way id="912865594" version="1" timestamp="2021-03-02T17:10:36Z" changeset="100295145" uid="718054" user="Piskvor">
    <nd ref="1626024983"/>
    <nd ref="5527313265"/>
    <nd ref="1626024982"/>
    <nd ref="1626024960"/>
    <nd ref="1626024956"/>
    <nd ref="5527313269"/>
    <nd ref="1626024951"/>
    <nd ref="7853669104"/>
    <nd ref="1626024944"/>
    <nd ref="1626024941"/>
    <nd ref="1626024937"/>
    <nd ref="1626024924"/>
    <nd ref="1626024920"/>
    <nd ref="1626024901"/>
    <tag k="highway" v="unclassified"/>
    <tag k="lanes" v="2"/>
    <tag k="maxspeed" v="50"/>
    <tag k="maxweight" v="3.5"/>
    <tag k="overtaking" v="no"/>
  </way>
  <way id="916229940" version="7" timestamp="2023-01-25T11:01:04Z" changeset="131689819" uid="2061236" user="Thartek">
    <nd ref="8510147559"/>
    <nd ref="8510653279"/>
    <tag k="bridge" v="yes"/>
    <tag k="hgv:lanes" v="no|yes"/>
    <tag k="highway" v="motorway"/>
    <tag k="int_ref" v="E 55;E 65"/>
    <tag k="lanes" v="2"/>
    <tag k="layer" v="1"/>
    <tag k="lit" v="yes"/>
    <tag k="maxspeed" v="100"/>
    <tag k="name" v="Pra쬽k칳 okruh"/>
    <tag k="name:de" v="Prager Ring"/>
    <tag k="name:en" v="Prague Ring"/>
    <tag k="oneway" v="yes"/>
    <tag k="ref" v="D0"/>
    <tag k="source:maxspeed" v="sign"/>
    <tag k="surface" v="asphalt"/>
    <tag k="toll" v="no"/>
    <tag k="toll:hgv" v="yes"/>
  </way>
  <way id="916229941" version="4" timestamp="2022-07-20T20:55:57Z" changeset="123866341" uid="25561" user="Gobik">
    <nd ref="1635774923"/>
    <nd ref="8510147534"/>
    <nd ref="8510147533"/>
    <nd ref="8510147532"/>
    <nd ref="1635774928"/>
    <nd ref="8510147531"/>
    <nd ref="8510147560"/>
    <tag k="highway" v="motorway_link"/>
    <tag k="lanes" v="1"/>
    <tag k="lit" v="yes"/>
    <tag k="maxspeed" v="130"/>
    <tag k="motorroad" v="yes"/>
    <tag k="oneway" v="yes"/>
    <tag k="source:maxspeed" v="CZ:motorway"/>
    <tag k="surface" v="asphalt"/>
    <tag k="toll" v="no"/>
    <tag k="toll:hgv" v="yes"/>
  </way>
  <way id="916229942" version="10" timestamp="2025-03-30T12:06:48Z" changeset="164284436" uid="4018695" user="游뻟릖 Roman Horn칤k">
    <nd ref="9956796088"/>
    <nd ref="12712980341"/>
    <nd ref="8510147609"/>
    <nd ref="8510147608"/>
    <tag k="bicycle" v="no"/>
    <tag k="destination" v="Teplice;Mlad치 Boleslav;Hradec Kr치lov칠;캛ern칳 Most"/>
    <tag k="destination:int_ref" v="E 55;E 65"/>
    <tag k="destination:symbol" v="motorway;motorroad"/>
    <tag k="foot" v="no"/>
    <tag k="highway" v="motorway_link"/>
    <tag k="horse" v="no"/>
    <tag k="lanes" v="1"/>
    <tag k="lit" v="yes"/>
    <tag k="maxspeed" v="50"/>
    <tag k="motor_vehicle" v="designated"/>
    <tag k="oneway" v="yes"/>
    <tag k="surface" v="asphalt"/>
  </way>
  <way id="916229943" version="11" timestamp="2024-09-16T10:43:06Z" changeset="156682137" uid="8971394" user="vojtechzaboril">
    <nd ref="8510147572"/>
    <nd ref="32638652"/>
    <nd ref="8510147590"/>
    <nd ref="8510147591"/>
    <nd ref="8510147592"/>
    <nd ref="8510147593"/>
    <nd ref="8510147594"/>
    <nd ref="8510147595"/>
    <nd ref="8510147596"/>
    <nd ref="8510147597"/>
    <nd ref="8510147598"/>
    <nd ref="8510147599"/>
    <nd ref="8510147600"/>
    <nd ref="8510147601"/>
    <nd ref="8510147602"/>
    <nd ref="8510147603"/>
    <nd ref="8510147604"/>
    <nd ref="8510147605"/>
    <tag k="bicycle" v="no"/>
    <tag k="foot" v="no"/>
    <tag k="highway" v="trunk_link"/>
    <tag k="lanes" v="1"/>
    <tag k="lit" v="yes"/>
    <tag k="maxspeed" v="50"/>
    <tag k="motorroad" v="no"/>
    <tag k="oneway" v="yes"/>
    <tag k="sidewalk" v="no"/>
    <tag k="source:maxspeed" v="CZ:urban"/>
    <tag k="surface" v="asphalt"/>
  </way>
  <way id="916300952" version="7" timestamp="2024-09-16T10:43:06Z" changeset="156682137" uid="8971394" user="vojtechzaboril">
    <nd ref="8510683432"/>
    <nd ref="1635774919"/>
    <nd ref="8510683431"/>
    <nd ref="8510683430"/>
    <nd ref="1635774922"/>
    <nd ref="8510683441"/>
    <nd ref="8510683442"/>
    <nd ref="8510683443"/>
    <nd ref="8510683444"/>
    <nd ref="8510683445"/>
    <nd ref="8510683446"/>
    <nd ref="8510683447"/>
    <nd ref="8510683448"/>
    <nd ref="8510683449"/>
    <nd ref="8510683450"/>
    <nd ref="8510683451"/>
    <nd ref="8510683452"/>
    <nd ref="8510683453"/>
    <nd ref="8510683454"/>
    <nd ref="8510683455"/>
    <nd ref="8510683456"/>
    <nd ref="8510683457"/>
    <nd ref="9451082751"/>
    <nd ref="8510683470"/>
    <tag k="bicycle" v="no"/>
    <tag k="foot" v="no"/>
    <tag k="highway" v="motorway_link"/>
    <tag k="horse" v="no"/>
    <tag k="lanes" v="2"/>
    <tag k="lit" v="yes"/>
    <tag k="maxspeed" v="50"/>
    <tag k="motor_vehicle" v="designated"/>
    <tag k="motorroad" v="no"/>
    <tag k="oneway" v="yes"/>
    <tag k="source:maxspeed" v="CZ:urban"/>
    <tag k="surface" v="asphalt"/>
  </way>
  <way id="916300953" version="9" timestamp="2024-09-16T10:43:06Z" changeset="156682137" uid="8971394" user="vojtechzaboril">
    <nd ref="8510683470"/>
    <nd ref="9451082750"/>
    <nd ref="8510683490"/>
    <nd ref="8510683494"/>
    <nd ref="8510683496"/>
    <tag k="bicycle" v="no"/>
    <tag k="foot" v="no"/>
    <tag k="highway" v="motorway_link"/>
    <tag k="horse" v="no"/>
    <tag k="lanes" v="1"/>
    <tag k="lit" v="yes"/>
    <tag k="maxspeed" v="50"/>
    <tag k="motor_vehicle" v="designated"/>
    <tag k="oneway" v="yes"/>
    <tag k="surface" v="asphalt"/>
    <tag k="turn:lanes" v="left;through"/>
  </way>
  <way id="916300955" version="7" timestamp="2024-01-28T15:51:20Z" changeset="146780410" uid="469828" user="Luk치코 Jel칤nek">
    <nd ref="8510683548"/>
    <nd ref="8510683525"/>
    <nd ref="8364933442"/>
    <tag k="cycleway:right" v="no"/>
    <tag k="highway" v="primary"/>
    <tag k="lanes" v="1"/>
    <tag k="lit" v="yes"/>
    <tag k="maxspeed" v="50"/>
    <tag k="motorroad" v="no"/>
    <tag k="name" v="캛eskobrodsk치"/>
    <tag k="oneway" v="yes"/>
    <tag k="smoothness" v="intermediate"/>
    <tag k="source:maxspeed" v="CZ:urban"/>
    <tag k="surface" v="asphalt"/>
  </way>
  <way id="916300956" version="9" timestamp="2022-08-18T12:01:29Z" changeset="125058982" uid="10630524" user="Fjana">
    <nd ref="8510683496"/>
    <nd ref="8510683517"/>
    <tag k="cycleway:right" v="no"/>
    <tag k="highway" v="primary"/>
    <tag k="lanes" v="1"/>
    <tag k="lit" v="yes"/>
    <tag k="maxspeed" v="50"/>
    <tag k="name" v="캛eskobrodsk치"/>
    <tag k="oneway" v="yes"/>
    <tag k="ref" v="12"/>
    <tag k="surface" v="asphalt"/>
  </way>
  <way id="916300959" version="9" timestamp="2025-03-30T12:06:48Z" changeset="164284436" uid="4018695" user="游뻟릖 Roman Horn칤k">
    <nd ref="30366952"/>
    <nd ref="8510683571"/>
    <nd ref="8510683570"/>
    <nd ref="322926465"/>
    <nd ref="8510697740"/>
    <nd ref="8510683564"/>
    <nd ref="8510683556"/>
    <tag k="cycleway:both" v="no"/>
    <tag k="highway" v="primary"/>
    <tag k="lanes" v="1"/>
    <tag k="lit" v="yes"/>
    <tag k="maxspeed" v="50"/>
    <tag k="name" v="캛eskobrodsk치"/>
    <tag k="oneway" v="yes"/>
    <tag k="parking:both" v="no"/>
    <tag k="ref" v="12"/>
    <tag k="sidewalk:left" v="no"/>
    <tag k="sidewalk:right" v="separate"/>
    <tag k="smoothness" v="good"/>
    <tag k="source:maxspeed" v="CZ:urban"/>
    <tag k="surface" v="asphalt"/>
  </way>
  <way id="916300973" version="8" timestamp="2024-09-16T10:43:06Z" changeset="156682137" uid="8971394" user="vojtechzaboril">
    <nd ref="8510683506"/>
    <nd ref="8510683510"/>
    <nd ref="8510683509"/>
    <nd ref="8510683508"/>
    <nd ref="2263005928"/>
    <tag k="bicycle" v="no"/>
    <tag k="foot" v="no"/>
    <tag k="highway" v="trunk_link"/>
    <tag k="horse" v="no"/>
    <tag k="lanes" v="1"/>
    <tag k="lit" v="yes"/>
    <tag k="maxspeed" v="50"/>
    <tag k="motor_vehicle" v="designated"/>
    <tag k="oneway" v="yes"/>
    <tag k="surface" v="asphalt"/>
  </way>
  <way id="916328824" version="9" timestamp="2025-03-30T12:06:48Z" changeset="164284436" uid="4018695" user="游뻟릖 Roman Horn칤k">
    <nd ref="8510644004"/>
    <nd ref="12712980342"/>
    <nd ref="12712980343"/>
    <nd ref="8510683569"/>
    <tag k="cycleway:both" v="no"/>
    <tag k="foot" v="no"/>
    <tag k="highway" v="primary"/>
    <tag k="lanes" v="2"/>
    <tag k="lit" v="yes"/>
    <tag k="maxspeed" v="50"/>
    <tag k="motorroad" v="no"/>
    <tag k="name" v="캛eskobrodsk치"/>
    <tag k="oneway" v="yes"/>
    <tag k="parking:both" v="no"/>
    <tag k="sidewalk" v="no"/>
    <tag k="smoothness" v="good"/>
    <tag k="source:maxspeed" v="CZ:urban"/>
    <tag k="surface" v="asphalt"/>
    <tag k="turn:lanes" v="left;through|merge_to_left"/>
  </way>
  <way id="916328825" version="10" timestamp="2025-03-30T12:06:48Z" changeset="164284436" uid="4018695" user="游뻟릖 Roman Horn칤k">
    <nd ref="8510683569"/>
    <nd ref="30366952"/>
    <tag k="cycleway:right" v="no"/>
    <tag k="foot" v="yes"/>
    <tag k="highway" v="primary"/>
    <tag k="lanes" v="1"/>
    <tag k="lit" v="yes"/>
    <tag k="maxspeed" v="50"/>
    <tag k="motorroad" v="no"/>
    <tag k="name" v="캛eskobrodsk치"/>
    <tag k="oneway" v="yes"/>
    <tag k="parking:both" v="no"/>
    <tag k="shoulder" v="no"/>
    <tag k="sidewalk" v="no"/>
    <tag k="smoothness" v="good"/>
    <tag k="source:maxspeed" v="CZ:urban"/>
    <tag k="surface" v="asphalt"/>
  </way>
  <way id="916328826" version="6" timestamp="2022-07-20T20:56:17Z" changeset="123866341" uid="25561" user="Gobik">
    <nd ref="8510147608"/>
    <nd ref="8510147589"/>
    <nd ref="8510147588"/>
    <nd ref="8510147587"/>
    <nd ref="8510147586"/>
    <nd ref="8510147585"/>
    <nd ref="8510147584"/>
    <nd ref="8510147583"/>
    <nd ref="8510147582"/>
    <nd ref="8510147581"/>
    <nd ref="8510147580"/>
    <nd ref="8510147579"/>
    <nd ref="8510147578"/>
    <nd ref="24969741"/>
    <nd ref="8510147577"/>
    <nd ref="8510147576"/>
    <nd ref="8510147575"/>
    <nd ref="8521145235"/>
    <tag k="highway" v="motorway_link"/>
    <tag k="lanes" v="2"/>
    <tag k="lit" v="yes"/>
    <tag k="maxspeed" v="80"/>
    <tag k="motorroad" v="yes"/>
    <tag k="oneway" v="yes"/>
    <tag k="surface" v="asphalt"/>
    <tag k="toll" v="no"/>
    <tag k="toll:hgv" v="yes"/>
  </way>
  <way id="916328827" version="5" timestamp="2024-01-28T15:51:47Z" changeset="146780410" uid="469828" user="Luk치코 Jel칤nek">
    <nd ref="8510683559"/>
    <nd ref="8510876101"/>
    <nd ref="8510644004"/>
    <tag k="cycleway:right" v="no"/>
    <tag k="highway" v="primary"/>
    <tag k="lanes" v="2"/>
    <tag k="lit" v="yes"/>
    <tag k="maxspeed" v="50"/>
    <tag k="motorroad" v="no"/>
    <tag k="name" v="캛eskobrodsk치"/>
    <tag k="oneway" v="yes"/>
    <tag k="smoothness" v="good"/>
    <tag k="source:maxspeed" v="CZ:urban"/>
    <tag k="surface" v="asphalt"/>
    <tag k="turn:lanes" v="through|through;right"/>
  </way>
  <way id="916328828" version="9" timestamp="2025-01-05T15:35:26Z" changeset="161025278" uid="469828" user="Luk치코 Jel칤nek">
    <nd ref="8510683517"/>
    <nd ref="9451082749"/>
    <nd ref="8510683516"/>
    <nd ref="8510683515"/>
    <nd ref="9451082752"/>
    <tag k="cycleway:right" v="no"/>
    <tag k="highway" v="primary"/>
    <tag k="lanes" v="2"/>
    <tag k="lit" v="yes"/>
    <tag k="maxheight" v="default"/>
    <tag k="maxspeed" v="50"/>
    <tag k="motorroad" v="no"/>
    <tag k="name" v="캛eskobrodsk치"/>
    <tag k="oneway" v="yes"/>
    <tag k="placement" v="middle_of:1"/>
    <tag k="sidewalk" v="no"/>
    <tag k="source:maxspeed" v="CZ:urban"/>
    <tag k="surface" v="asphalt"/>
  </way>
  <way id="916382604" version="5" timestamp="2022-07-20T20:55:59Z" changeset="123866341" uid="25561" user="Gobik">
    <nd ref="25450837"/>
    <nd ref="8511302585"/>
    <tag k="bridge" v="yes"/>
    <tag k="destination" v="ostatn칤 tranzit"/>
    <tag k="hgv:lanes" v="no|yes"/>
    <tag k="highway" v="motorway"/>
    <tag k="int_ref" v="E 55;E 65"/>
    <tag k="lanes" v="2"/>
    <tag k="layer" v="1"/>
    <tag k="lit" v="yes"/>
    <tag k="maxspeed" v="80"/>
    <tag k="motorroad" v="yes"/>
    <tag k="name" v="Pra쬽k칳 okruh"/>
    <tag k="name:de" v="Prager Ring"/>
    <tag k="name:en" v="Prague Ring"/>
    <tag k="oneway" v="yes"/>
    <tag k="ref" v="D0"/>
    <tag k="source:maxspeed" v="sign"/>
    <tag k="surface" v="asphalt"/>
    <tag k="toll" v="no"/>
    <tag k="toll:hgv" v="yes"/>
  </way>
  <way id="916382605" version="5" timestamp="2024-11-25T08:15:59Z" changeset="159561874" uid="718054" user="Piskvor">
    <nd ref="8511302586"/>
    <nd ref="8510683435"/>
    <nd ref="8510683436"/>
    <nd ref="1635774926"/>
    <nd ref="8510683437"/>
    <nd ref="8510683438"/>
    <nd ref="8510683439"/>
    <nd ref="8510683429"/>
    <tag k="destination" v="칔valy;Praha-Doln칤 Po캜ernice;-B캩chovice"/>
    <tag k="destination:ref" v="12"/>
    <tag k="highway" v="motorway_link"/>
    <tag k="lanes" v="1"/>
    <tag k="lit" v="yes"/>
    <tag k="maxspeed" v="80"/>
    <tag k="motorroad" v="yes"/>
    <tag k="oneway" v="yes"/>
    <tag k="source:maxspeed" v="sign"/>
    <tag k="surface" v="asphalt"/>
    <tag k="toll" v="no"/>
    <tag k="toll:hgv" v="yes"/>
  </way>
  <way id="916389325" version="2" timestamp="2025-03-02T12:53:45Z" changeset="163120482" uid="680876" user="Sonja Emilie">
    <nd ref="5869461408"/>
    <nd ref="8511311645"/>
    <tag k="bridge" v="yes"/>
    <tag k="highway" v="trunk"/>
    <tag k="int_ref" v="E 55;E 65"/>
    <tag k="lanes" v="3"/>
    <tag k="layer" v="1"/>
    <tag k="lit" v="yes"/>
    <tag k="maxheight" v="default"/>
    <tag k="maxspeed" v="80"/>
    <tag k="motorroad" v="yes"/>
    <tag k="name" v="맚캩rboholsk치 spojka"/>
    <tag k="oneway" v="yes"/>
    <tag k="source:maxspeed" v="sign"/>
    <tag k="surface" v="asphalt"/>
    <tag k="toll" v="no"/>
    <tag k="turn:lanes" v="||slight_right"/>
  </way>
  <way id="916389326" version="3" timestamp="2023-11-29T15:23:53Z" changeset="144592706" uid="6827291" user="thornik">
    <nd ref="8511311646"/>
    <nd ref="5869461410"/>
    <tag k="bridge" v="yes"/>
    <tag k="highway" v="trunk"/>
    <tag k="int_ref" v="E 55;E 65"/>
    <tag k="lanes" v="3"/>
    <tag k="layer" v="1"/>
    <tag k="lit" v="yes"/>
    <tag k="maxheight" v="default"/>
    <tag k="maxspeed" v="80"/>
    <tag k="maxweight:signed" v="no"/>
    <tag k="motorroad" v="yes"/>
    <tag k="name" v="맚캩rboholsk치 spojka"/>
    <tag k="oneway" v="yes"/>
    <tag k="source:maxspeed" v="sign"/>
    <tag k="surface" v="asphalt"/>
    <tag k="turn:lanes" v="||merge_to_left"/>
  </way>
  <way id="917449663" version="8" timestamp="2025-03-30T12:06:48Z" changeset="164284436" uid="4018695" user="游뻟릖 Roman Horn칤k">
    <nd ref="8510147606"/>
    <nd ref="8510683531"/>
    <nd ref="8510683548"/>
    <tag k="bicycle" v="no"/>
    <tag k="cycleway:right" v="no"/>
    <tag k="destination" v="Doln칤 Po캜ernice"/>
    <tag k="highway" v="trunk_link"/>
    <tag k="lanes" v="1"/>
    <tag k="lit" v="yes"/>
    <tag k="maxspeed" v="50"/>
    <tag k="motorroad" v="no"/>
    <tag k="oneway" v="yes"/>
    <tag k="source:maxspeed" v="CZ:urban"/>
    <tag k="surface" v="asphalt"/>
  </way>
  <way id="917515970" version="2" timestamp="2023-02-10T17:55:06Z" changeset="132373603" uid="718054" user="Piskvor">
    <nd ref="366896498"/>
    <nd ref="8249176496"/>
    <nd ref="29443321"/>
    <tag k="highway" v="residential"/>
    <tag k="name" v="Ke Kolod캩j콢m"/>
    <tag k="smoothness" v="good"/>
    <tag k="source:name" v="nameit/uir-adr"/>
    <tag k="surface" v="asphalt"/>
  </way>
  <way id="917515971" version="2" timestamp="2023-02-10T17:55:06Z" changeset="132373603" uid="718054" user="Piskvor">
    <nd ref="60263148"/>
    <nd ref="60263163"/>
    <tag k="highway" v="residential"/>
    <tag k="lanes" v="1"/>
    <tag k="lit" v="yes"/>
    <tag k="maxspeed" v="30"/>
    <tag k="name" v="Josefa N캩mce"/>
    <tag k="source:maxspeed" v="zone"/>
    <tag k="surface" v="paving_stones"/>
  </way>
  <way id="924525949" version="6" timestamp="2024-07-08T18:09:47Z" changeset="153715110" uid="469828" user="Luk치코 Jel칤nek">
    <nd ref="60262772"/>
    <nd ref="8580638419"/>
    <nd ref="8580638418"/>
    <nd ref="6051258584"/>
    <nd ref="8580638426"/>
    <nd ref="8580638425"/>
    <nd ref="8580638424"/>
    <nd ref="8580638423"/>
    <nd ref="8580638422"/>
    <nd ref="8580638421"/>
    <tag k="highway" v="residential"/>
    <tag k="lane_markings" v="no"/>
    <tag k="lit" v="no"/>
    <tag k="name" v="Do Dub캜e"/>
    <tag k="smoothness" v="intermediate"/>
    <tag k="surface" v="paving_stones"/>
  </way>
  <way id="969838209" version="2" timestamp="2023-03-10T08:51:59Z" changeset="133508914" uid="15107215" user="B치ra Soukupov치">
    <nd ref="1626024852"/>
    <nd ref="7853669103"/>
    <nd ref="1626024810"/>
    <nd ref="4956358515"/>
    <nd ref="10725355273"/>
    <nd ref="1626024804"/>
    <nd ref="1626024799"/>
    <nd ref="1626024781"/>
    <nd ref="7485752906"/>
    <nd ref="1626024766"/>
    <nd ref="1626024759"/>
    <tag k="highway" v="unclassified"/>
    <tag k="lane_markings" v="no"/>
    <tag k="lanes" v="1"/>
    <tag k="maxspeed" v="50"/>
    <tag k="maxweight" v="3.5"/>
  </way>
  <way id="969838212" version="5" timestamp="2024-02-16T16:06:18Z" changeset="147538647" uid="8971394" user="vojtechzaboril">
    <nd ref="8974869083"/>
    <nd ref="11630809683"/>
    <nd ref="6051203039"/>
    <nd ref="8426383360"/>
    <nd ref="25450808"/>
    <tag k="cycleway:both" v="no"/>
    <tag k="hgv" v="destination"/>
    <tag k="highway" v="tertiary"/>
    <tag k="lanes" v="2"/>
    <tag k="maxspeed" v="70"/>
    <tag k="maxspeed:type" v="sign"/>
    <tag k="name" v="Ke K콏칤쬶치m"/>
    <tag k="shoulder" v="no"/>
    <tag k="smoothness" v="excellent"/>
    <tag k="surface" v="asphalt"/>
  </way>
  <way id="1024989059" version="3" timestamp="2024-12-21T17:53:21Z" changeset="160478430" uid="718054" user="Piskvor">
    <nd ref="8510683523"/>
    <nd ref="9956796088"/>
    <tag k="cycleway:right" v="no"/>
    <tag k="destination" v="칔valy;B캩chovice"/>
    <tag k="destination:ref" v="12"/>
    <tag k="highway" v="primary"/>
    <tag k="lanes" v="1"/>
    <tag k="lit" v="yes"/>
    <tag k="maxspeed" v="50"/>
    <tag k="motorroad" v="no"/>
    <tag k="name" v="캛eskobrodsk치"/>
    <tag k="oneway" v="yes"/>
    <tag k="source:maxspeed" v="CZ:urban"/>
    <tag k="surface" v="asphalt"/>
  </way>
  <way id="1024989060" version="2" timestamp="2025-03-30T12:06:48Z" changeset="164284436" uid="4018695" user="游뻟릖 Roman Horn칤k">
    <nd ref="8510683547"/>
    <nd ref="9451082744"/>
    <tag k="change:lanes" v="no|no"/>
    <tag k="cycleway:right" v="no"/>
    <tag k="highway" v="primary"/>
    <tag k="lanes" v="2"/>
    <tag k="lit" v="yes"/>
    <tag k="maxheight" v="default"/>
    <tag k="maxspeed" v="50"/>
    <tag k="name" v="캛eskobrodsk치"/>
    <tag k="oneway" v="yes"/>
    <tag k="placement" v="middle_of:2"/>
    <tag k="ref" v="12"/>
    <tag k="source:maxspeed" v="CZ:urban"/>
    <tag k="surface" v="asphalt"/>
  </way>
  <way id="1024989061" version="3" timestamp="2023-01-03T15:17:36Z" changeset="130831071" uid="231749" user="Eino81">
    <nd ref="8510683548"/>
    <nd ref="9956796089"/>
    <tag k="bicycle" v="no"/>
    <tag k="cycleway:right" v="no"/>
    <tag k="destination" v="Doln칤 Po캜ernice"/>
    <tag k="highway" v="primary_link"/>
    <tag k="lanes" v="1"/>
    <tag k="lit" v="yes"/>
    <tag k="maxspeed" v="50"/>
    <tag k="motorroad" v="no"/>
    <tag k="oneway" v="yes"/>
    <tag k="source:maxspeed" v="CZ:urban"/>
    <tag k="surface" v="asphalt"/>
  </way>
  <way id="1024989062" version="2" timestamp="2024-01-28T15:51:12Z" changeset="146780410" uid="469828" user="Luk치코 Jel칤nek">
    <nd ref="8510683556"/>
    <nd ref="9451082746"/>
    <tag k="highway" v="primary"/>
    <tag k="lanes" v="2"/>
    <tag k="lit" v="yes"/>
    <tag k="maxspeed" v="50"/>
    <tag k="name" v="캛eskobrodsk치"/>
    <tag k="oneway" v="yes"/>
    <tag k="placement" v="middle_of:2"/>
    <tag k="ref" v="12"/>
    <tag k="smoothness" v="intermediate"/>
    <tag k="source:maxspeed" v="CZ:urban"/>
    <tag k="surface" v="asphalt"/>
    <tag k="turn:lanes" v="left|through"/>
  </way>
  <way id="1024989063" version="2" timestamp="2022-08-16T12:17:58Z" changeset="124969784" uid="13960467" user="Bolt032">
    <nd ref="9451082746"/>
    <nd ref="9956796089"/>
    <tag k="change:lanes" v="no|no"/>
    <tag k="highway" v="primary"/>
    <tag k="lanes" v="2"/>
    <tag k="lit" v="yes"/>
    <tag k="maxspeed" v="50"/>
    <tag k="name" v="캛eskobrodsk치"/>
    <tag k="oneway" v="yes"/>
    <tag k="placement" v="middle_of:2"/>
    <tag k="ref" v="12"/>
    <tag k="source:maxspeed" v="CZ:urban"/>
    <tag k="surface" v="asphalt"/>
    <tag k="turn:lanes" v="left|through"/>
  </way>
  <way id="1024989064" version="5" timestamp="2024-09-16T10:43:06Z" changeset="156682137" uid="8971394" user="vojtechzaboril">
    <nd ref="8510147605"/>
    <nd ref="9451082747"/>
    <nd ref="8510147606"/>
    <tag k="bicycle" v="no"/>
    <tag k="foot" v="no"/>
    <tag k="highway" v="trunk_link"/>
    <tag k="lanes" v="2"/>
    <tag k="lit" v="yes"/>
    <tag k="maxspeed" v="50"/>
    <tag k="motorroad" v="no"/>
    <tag k="oneway" v="yes"/>
    <tag k="placement" v="middle_of:1"/>
    <tag k="sidewalk" v="no"/>
    <tag k="source:maxspeed" v="CZ:urban"/>
    <tag k="surface" v="asphalt"/>
    <tag k="turn:lanes" v="left|right"/>
  </way>
  <way id="1024989065" version="2" timestamp="2022-08-16T12:17:58Z" changeset="124969784" uid="13960467" user="Bolt032">
    <nd ref="24969713"/>
    <nd ref="9956796088"/>
    <tag k="bicycle" v="no"/>
    <tag k="destination" v="Teplice;Mlad치 Boleslav;Hradec Kr치lov칠;캛ern칳 Most"/>
    <tag k="destination:int_ref" v="E 55;E 65"/>
    <tag k="destination:symbol" v="motorway;motorroad"/>
    <tag k="foot" v="no"/>
    <tag k="highway" v="primary_link"/>
    <tag k="horse" v="no"/>
    <tag k="lanes" v="1"/>
    <tag k="lit" v="yes"/>
    <tag k="maxspeed" v="50"/>
    <tag k="motor_vehicle" v="designated"/>
    <tag k="oneway" v="yes"/>
    <tag k="surface" v="asphalt"/>
  </way>
  <way id="1024989066" version="3" timestamp="2024-09-16T10:43:06Z" changeset="156682137" uid="8971394" user="vojtechzaboril">
    <nd ref="8364933442"/>
    <nd ref="12179942847"/>
    <nd ref="8510683559"/>
    <tag k="cycleway:right" v="no"/>
    <tag k="highway" v="primary"/>
    <tag k="lanes" v="3"/>
    <tag k="lit" v="yes"/>
    <tag k="maxspeed" v="50"/>
    <tag k="motorroad" v="no"/>
    <tag k="name" v="캛eskobrodsk치"/>
    <tag k="oneway" v="yes"/>
    <tag k="placement" v="right_of:2"/>
    <tag k="smoothness" v="intermediate"/>
    <tag k="source:maxspeed" v="CZ:urban"/>
    <tag k="surface" v="asphalt"/>
    <tag k="turn:lanes" v="left|through|through;right"/>
  </way>
  <way id="1071639600" version="2" timestamp="2025-01-05T15:35:26Z" changeset="161025278" uid="469828" user="Luk치코 Jel칤nek">
    <nd ref="9451082752"/>
    <nd ref="8510683523"/>
    <tag k="cycleway:right" v="no"/>
    <tag k="highway" v="primary"/>
    <tag k="lanes" v="2"/>
    <tag k="lit" v="yes"/>
    <tag k="maxheight" v="default"/>
    <tag k="maxspeed" v="50"/>
    <tag k="motorroad" v="no"/>
    <tag k="name" v="캛eskobrodsk치"/>
    <tag k="oneway" v="yes"/>
    <tag k="placement" v="middle_of:1"/>
    <tag k="sidewalk" v="no"/>
    <tag k="source:maxspeed" v="CZ:urban"/>
    <tag k="surface" v="asphalt"/>
    <tag k="turn:lanes" v="through|right"/>
  </way>
  <way id="1086676808" version="1" timestamp="2022-08-16T12:17:58Z" changeset="124969784" uid="13960467" user="Bolt032">
    <nd ref="9956796088"/>
    <nd ref="8510683548"/>
    <tag k="cycleway:right" v="no"/>
    <tag k="highway" v="primary"/>
    <tag k="lanes" v="1"/>
    <tag k="lit" v="yes"/>
    <tag k="maxspeed" v="50"/>
    <tag k="motorroad" v="no"/>
    <tag k="name" v="캛eskobrodsk치"/>
    <tag k="oneway" v="yes"/>
    <tag k="source:maxspeed" v="CZ:urban"/>
    <tag k="surface" v="asphalt"/>
  </way>
  <way id="1086676809" version="1" timestamp="2022-08-16T12:17:58Z" changeset="124969784" uid="13960467" user="Bolt032">
    <nd ref="9956796089"/>
    <nd ref="24969713"/>
    <tag k="change:lanes" v="no|no"/>
    <tag k="highway" v="primary"/>
    <tag k="lanes" v="2"/>
    <tag k="lit" v="yes"/>
    <tag k="maxspeed" v="50"/>
    <tag k="name" v="캛eskobrodsk치"/>
    <tag k="oneway" v="yes"/>
    <tag k="placement" v="middle_of:2"/>
    <tag k="ref" v="12"/>
    <tag k="source:maxspeed" v="CZ:urban"/>
    <tag k="surface" v="asphalt"/>
    <tag k="turn:lanes" v="left|through"/>
  </way>
  <way id="1087450246" version="3" timestamp="2024-01-26T23:19:40Z" changeset="146728056" uid="469828" user="Luk치코 Jel칤nek">
    <nd ref="1635770061"/>
    <nd ref="60262761"/>
    <tag k="highway" v="residential"/>
    <tag k="lit" v="yes"/>
    <tag k="maxspeed" v="30"/>
    <tag k="name" v="K먠쪈leznici"/>
    <tag k="smoothness" v="good"/>
    <tag k="surface" v="paving_stones"/>
  </way>
  <way id="1087450247" version="3" timestamp="2024-01-26T23:18:26Z" changeset="146728056" uid="469828" user="Luk치코 Jel칤nek">
    <nd ref="1635770087"/>
    <nd ref="1635770061"/>
    <tag k="bicycle" v="yes"/>
    <tag k="foot" v="yes"/>
    <tag k="highway" v="residential"/>
    <tag k="lit" v="yes"/>
    <tag k="maxspeed" v="30"/>
    <tag k="motor_vehicle" v="destination"/>
    <tag k="name" v="K먠쪈leznici"/>
    <tag k="smoothness" v="good"/>
    <tag k="source" v="UMCP21/17438/2021/OZPD/Sur  OOP vydan칠 M캛 Praha 21  2022"/>
    <tag k="surface" v="paving_stones"/>
  </way>
  <way id="1087450248" version="4" timestamp="2023-09-28T17:36:22Z" changeset="141874710" uid="469828" user="Luk치코 Jel칤nek">
    <nd ref="60262772"/>
    <nd ref="8580638420"/>
    <nd ref="3959111168"/>
    <nd ref="8580638421"/>
    <tag k="highway" v="residential"/>
    <tag k="lit" v="yes"/>
    <tag k="maxspeed" v="30"/>
    <tag k="name" v="Do Dub캜e"/>
    <tag k="smoothness" v="good"/>
    <tag k="surface" v="paving_stones"/>
  </way>
  <way id="1087450249" version="3" timestamp="2024-07-08T18:09:09Z" changeset="153715088" uid="469828" user="Luk치코 Jel칤nek">
    <nd ref="1635770084"/>
    <nd ref="8580638421"/>
    <tag k="highway" v="residential"/>
    <tag k="lanes" v="1"/>
    <tag k="maxspeed" v="30"/>
    <tag k="name" v="Do Dub캜e"/>
    <tag k="note" v="oneway since 2022."/>
    <tag k="oneway" v="yes"/>
    <tag k="oneway:bicycle" v="yes"/>
    <tag k="smoothness" v="good"/>
    <tag k="source" v="UMCP21/17438/2021/OZPD/Sur;OOP vydan칠 M캛 PRAHA 21"/>
    <tag k="surface" v="paving_stones"/>
  </way>
  <way id="1112708718" version="5" timestamp="2023-01-17T19:06:48Z" changeset="131392904" uid="469828" user="Luk치코 Jel칤nek">
    <nd ref="7757035720"/>
    <nd ref="1637469228"/>
    <tag k="cycleway:both" v="no"/>
    <tag k="highway" v="residential"/>
    <tag k="lanes" v="2"/>
    <tag k="lit" v="yes"/>
    <tag k="maxspeed:type" v="CZ:urban"/>
    <tag k="name" v="Ke T콏em most콢m"/>
    <tag k="parking:lane:both" v="no"/>
    <tag k="sidewalk:left" v="separate"/>
    <tag k="sidewalk:right" v="yes"/>
    <tag k="sidewalk:right:surface" v="asphalt"/>
    <tag k="smoothness" v="intermediate"/>
    <tag k="surface" v="sett"/>
  </way>
  <way id="1112708805" version="4" timestamp="2023-01-17T19:06:38Z" changeset="131392889" uid="469828" user="Luk치코 Jel칤nek">
    <nd ref="1637469228"/>
    <nd ref="270508506"/>
    <tag k="cycleway:both" v="no"/>
    <tag k="highway" v="residential"/>
    <tag k="lane_markings" v="no"/>
    <tag k="lit" v="no"/>
    <tag k="maxspeed:type" v="CZ:urban"/>
    <tag k="name" v="Ke T콏em most콢m"/>
    <tag k="parking:lane:both" v="no"/>
    <tag k="sidewalk:left" v="separate"/>
    <tag k="sidewalk:right" v="no"/>
    <tag k="smoothness" v="intermediate"/>
    <tag k="surface" v="sett"/>
  </way>
  <way id="1112709027" version="4" timestamp="2022-11-22T16:15:43Z" changeset="129246416" uid="469828" user="Luk치코 Jel칤nek">
    <nd ref="270508508"/>
    <nd ref="7757035734"/>
    <tag k="cycleway:both" v="no"/>
    <tag k="highway" v="residential"/>
    <tag k="lane_markings" v="no"/>
    <tag k="lit" v="no"/>
    <tag k="maxspeed:type" v="CZ:urban"/>
    <tag k="name" v="Ke T콏em most콢m"/>
    <tag k="parking:lane:both" v="no"/>
    <tag k="sidewalk" v="no"/>
    <tag k="smoothness" v="intermediate"/>
    <tag k="surface" v="sett"/>
  </way>
  <way id="1112709232" version="5" timestamp="2023-01-17T19:06:18Z" changeset="131392889" uid="469828" user="Luk치코 Jel칤nek">
    <nd ref="3545507310"/>
    <nd ref="270508508"/>
    <tag k="cycleway:both" v="no"/>
    <tag k="highway" v="residential"/>
    <tag k="lane_markings" v="no"/>
    <tag k="lit" v="no"/>
    <tag k="maxspeed:type" v="CZ:urban"/>
    <tag k="name" v="Ke T콏em most콢m"/>
    <tag k="parking:lane:left" v="perpendicular"/>
    <tag k="parking:lane:left:perpendicular" v="on_street"/>
    <tag k="parking:lane:right" v="parallel"/>
    <tag k="parking:lane:right:parallel" v="on_street"/>
    <tag k="sidewalk" v="right"/>
    <tag k="sidewalk:right:surface" v="paving_stones"/>
    <tag k="smoothness" v="intermediate"/>
    <tag k="surface" v="sett"/>
  </way>
  <way id="1112905849" version="2" timestamp="2025-03-30T12:06:48Z" changeset="164284436" uid="4018695" user="游뻟릖 Roman Horn칤k">
    <nd ref="10182516759"/>
    <nd ref="10182516761"/>
    <tag k="highway" v="primary"/>
    <tag k="lanes" v="2"/>
    <tag k="lit" v="yes"/>
    <tag k="maxspeed" v="50"/>
    <tag k="name" v="캛eskobrodsk치"/>
    <tag k="parking:both" v="yes"/>
    <tag k="parking:both:orientation" v="parallel"/>
    <tag k="parking:condition:both" v="customers"/>
    <tag k="parking:condition:both:capacity" v="2"/>
    <tag k="parking:lane:both:parallel" v="street_side"/>
    <tag k="ref" v="12"/>
    <tag k="sidewalk:left" v="no"/>
    <tag k="sidewalk:right" v="separate"/>
    <tag k="surface" v="asphalt"/>
  </way>
  <way id="1112905850" version="3" timestamp="2025-03-30T12:06:48Z" changeset="164284436" uid="4018695" user="游뻟릖 Roman Horn칤k">
    <nd ref="10182516760"/>
    <nd ref="11760727854"/>
    <nd ref="747781178"/>
    <nd ref="11760727857"/>
    <nd ref="10182516759"/>
    <tag k="highway" v="primary"/>
    <tag k="lanes" v="2"/>
    <tag k="lit" v="yes"/>
    <tag k="maxspeed" v="50"/>
    <tag k="name" v="캛eskobrodsk치"/>
    <tag k="parking:condition:left" v="no"/>
    <tag k="parking:condition:right" v="customers"/>
    <tag k="parking:condition:right:capacity" v="5"/>
    <tag k="parking:lane:right:parallel" v="street_side"/>
    <tag k="parking:left" v="no"/>
    <tag k="parking:right" v="yes"/>
    <tag k="parking:right:orientation" v="parallel"/>
    <tag k="ref" v="12"/>
    <tag k="sidewalk:left" v="no"/>
    <tag k="sidewalk:right" v="separate"/>
    <tag k="surface" v="asphalt"/>
  </way>
  <way id="1112905851" version="2" timestamp="2025-03-30T12:06:48Z" changeset="164284436" uid="4018695" user="游뻟릖 Roman Horn칤k">
    <nd ref="10182516761"/>
    <nd ref="747781154"/>
    <nd ref="747781189"/>
    <tag k="highway" v="primary"/>
    <tag k="lanes" v="2"/>
    <tag k="lit" v="yes"/>
    <tag k="maxspeed" v="50"/>
    <tag k="name" v="캛eskobrodsk치"/>
    <tag k="parking:both" v="no"/>
    <tag k="ref" v="12"/>
    <tag k="sidewalk:left" v="no"/>
    <tag k="sidewalk:right" v="separate"/>
    <tag k="surface" v="asphalt"/>
  </way>
  <way id="1112905852" version="2" timestamp="2025-03-30T12:06:48Z" changeset="164284436" uid="4018695" user="游뻟릖 Roman Horn칤k">
    <nd ref="747781189"/>
    <nd ref="10182516762"/>
    <tag k="highway" v="primary"/>
    <tag k="lanes" v="2"/>
    <tag k="lit" v="yes"/>
    <tag k="maxspeed" v="50"/>
    <tag k="name" v="캛eskobrodsk치"/>
    <tag k="parking:both" v="no"/>
    <tag k="parking:condition:right" v="no_stopping"/>
    <tag k="ref" v="12"/>
    <tag k="sidewalk:left" v="no"/>
    <tag k="sidewalk:right" v="separate"/>
    <tag k="surface" v="asphalt"/>
  </way>
  <way id="1112905853" version="2" timestamp="2025-03-30T12:06:48Z" changeset="164284436" uid="4018695" user="游뻟릖 Roman Horn칤k">
    <nd ref="10182516762"/>
    <nd ref="8426383358"/>
    <nd ref="1635770225"/>
    <tag k="highway" v="primary"/>
    <tag k="lanes" v="2"/>
    <tag k="lit" v="yes"/>
    <tag k="maxspeed" v="50"/>
    <tag k="name" v="캛eskobrodsk치"/>
    <tag k="parking:both" v="no"/>
    <tag k="ref" v="12"/>
    <tag k="sidewalk:left" v="no"/>
    <tag k="sidewalk:right" v="separate"/>
    <tag k="surface" v="asphalt"/>
  </way>
  <way id="1117789520" version="1" timestamp="2022-11-28T10:36:23Z" changeset="129470080" uid="718054" user="Piskvor">
    <nd ref="10223352087"/>
    <nd ref="1626024983"/>
    <tag k="highway" v="residential"/>
    <tag k="lanes" v="2"/>
    <tag k="maxspeed" v="50"/>
    <tag k="maxweight" v="3.5"/>
    <tag k="name" v="Do Panenek"/>
  </way>
  <way id="1117789521" version="1" timestamp="2022-11-28T10:36:23Z" changeset="129470080" uid="718054" user="Piskvor">
    <nd ref="10223352086"/>
    <nd ref="10223352087"/>
    <tag k="bridge" v="yes"/>
    <tag k="bridge:structure" v="beam"/>
    <tag k="highway" v="residential"/>
    <tag k="lanes" v="2"/>
    <tag k="maxspeed" v="50"/>
    <tag k="maxweight" v="3.5"/>
    <tag k="name" v="Do Panenek"/>
  </way>
  <way id="1124018125" version="3" timestamp="2022-12-21T23:25:21Z" changeset="130351789" uid="469828" user="Luk치코 Jel칤nek">
    <nd ref="8320713854"/>
    <nd ref="1635770134"/>
    <nd ref="25450809"/>
    <tag k="hgv" v="destination"/>
    <tag k="highway" v="tertiary"/>
    <tag k="lanes" v="2"/>
    <tag k="lit" v="yes"/>
    <tag k="maxspeed" v="50"/>
    <tag k="maxweight" v="3.5"/>
    <tag k="name" v="Do 콎칤캜an"/>
    <tag k="sidewalk" v="left"/>
    <tag k="sidewalk:left:surface" v="paving_stones"/>
    <tag k="smoothness" v="excellent"/>
    <tag k="surface" v="asphalt"/>
  </way>
  <way id="1124018270" version="4" timestamp="2022-12-21T23:27:36Z" changeset="130351789" uid="469828" user="Luk치코 Jel칤nek">
    <nd ref="345440988"/>
    <nd ref="1635770134"/>
    <tag k="highway" v="residential"/>
    <tag k="lit" v="yes"/>
    <tag k="maxspeed" v="30"/>
    <tag k="name" v="Lito쬹ick치"/>
    <tag k="sidewalk" v="left"/>
    <tag k="sidewalk:left:surface" v="paving_stones"/>
    <tag k="smoothness" v="excellent"/>
    <tag k="surface" v="asphalt"/>
  </way>
  <way id="1128063102" version="1" timestamp="2023-01-07T19:42:50Z" changeset="130994128" uid="1189910" user="Milancer">
    <nd ref="10223352085"/>
    <nd ref="60263064"/>
    <nd ref="10313541277"/>
    <nd ref="60263091"/>
    <tag k="highway" v="residential"/>
    <tag k="lanes" v="1"/>
    <tag k="name" v="K T치boru"/>
  </way>
  <way id="1138309882" version="2" timestamp="2024-01-28T15:26:14Z" changeset="146780298" uid="469828" user="Luk치코 Jel칤nek">
    <nd ref="10611372403"/>
    <nd ref="8309000768"/>
    <nd ref="3909580362"/>
    <tag k="highway" v="tertiary"/>
    <tag k="lanes" v="2"/>
    <tag k="lit" v="yes"/>
    <tag k="maxspeed" v="30"/>
    <tag k="name" v="Mlad칳ch B캩chovic"/>
    <tag k="source:maxspeed" v="sign"/>
    <tag k="surface" v="asphalt"/>
  </way>
  <way id="1154715602" version="2" timestamp="2025-03-30T12:06:48Z" changeset="164284436" uid="4018695" user="游뻟릖 Roman Horn칤k">
    <nd ref="25450838"/>
    <nd ref="5702702158"/>
    <tag k="destination" v="ostatn칤 tranzit"/>
    <tag k="hgv:lanes" v="no|yes"/>
    <tag k="highway" v="trunk"/>
    <tag k="int_ref" v="E 55;E 65"/>
    <tag k="lanes" v="2"/>
    <tag k="lit" v="yes"/>
    <tag k="maxspeed" v="80"/>
    <tag k="motorroad" v="yes"/>
    <tag k="name" v="Pra쬽k칳 okruh"/>
    <tag k="name:de" v="Prager Ring"/>
    <tag k="name:en" v="Prague Ring"/>
    <tag k="oneway" v="yes"/>
    <tag k="ref" v="D0"/>
    <tag k="source:maxspeed" v="sign"/>
    <tag k="surface" v="asphalt"/>
    <tag k="toll" v="no"/>
  </way>
  <way id="1327488910" version="1" timestamp="2024-10-23T10:27:25Z" changeset="158246125" uid="148369" user="Martin Chovanec">
    <nd ref="21263177"/>
    <nd ref="747781198"/>
    <tag k="highway" v="residential"/>
    <tag k="lanes" v="1"/>
    <tag k="lit" v="yes"/>
    <tag k="name" v="K T치boru"/>
    <tag k="priority" v="forward"/>
    <tag k="surface" v="paving_stones"/>
  </way>
  <way id="1361666447" version="1" timestamp="2025-02-21T10:34:49Z" changeset="162774010" uid="25867" user="adamos">
    <nd ref="747812967"/>
    <nd ref="21263178"/>
    <nd ref="8112030188"/>
    <nd ref="60263207"/>
    <tag k="hgv" v="destination"/>
    <tag k="highway" v="primary"/>
    <tag k="lanes" v="2"/>
    <tag k="lit" v="yes"/>
    <tag k="maxspeed" v="50"/>
    <tag k="name" v="캛eskobrodsk치"/>
    <tag k="oneway" v="no"/>
    <tag k="ref" v="12"/>
    <tag k="surface" v="asphalt"/>
  </way>
  <way id="1361666448" version="1" timestamp="2025-02-21T10:34:49Z" changeset="162774010" uid="25867" user="adamos">
    <nd ref="60263207"/>
    <nd ref="60263208"/>
    <tag k="hgv" v="destination"/>
    <tag k="highway" v="primary"/>
    <tag k="lanes" v="2"/>
    <tag k="lit" v="yes"/>
    <tag k="maxspeed" v="50"/>
    <tag k="name" v="캛eskobrodsk치"/>
    <tag k="oneway" v="no"/>
    <tag k="ref" v="12"/>
    <tag k="surface" v="asphalt"/>
  </way>
  <way id="1361666449" version="1" timestamp="2025-02-21T10:34:49Z" changeset="162774010" uid="25867" user="adamos">
    <nd ref="60263208"/>
    <nd ref="748672454"/>
    <nd ref="5604835422"/>
    <nd ref="60263209"/>
    <tag k="hgv" v="destination"/>
    <tag k="highway" v="primary"/>
    <tag k="lanes" v="2"/>
    <tag k="lit" v="yes"/>
    <tag k="maxspeed" v="50"/>
    <tag k="name" v="캛eskobrodsk치"/>
    <tag k="oneway" v="no"/>
    <tag k="ref" v="12"/>
    <tag k="surface" v="asphalt"/>
  </way>
  <way id="1361666450" version="1" timestamp="2025-02-21T10:34:49Z" changeset="162774010" uid="25867" user="adamos">
    <nd ref="60263209"/>
    <nd ref="60263250"/>
    <tag k="hgv" v="destination"/>
    <tag k="highway" v="primary"/>
    <tag k="lanes" v="2"/>
    <tag k="lit" v="yes"/>
    <tag k="maxspeed" v="50"/>
    <tag k="name" v="캛eskobrodsk치"/>
    <tag k="oneway" v="no"/>
    <tag k="ref" v="12"/>
    <tag k="surface" v="asphalt"/>
  </way>
  <way id="1361666451" version="1" timestamp="2025-02-21T10:34:49Z" changeset="162774010" uid="25867" user="adamos">
    <nd ref="60263250"/>
    <nd ref="748672465"/>
    <nd ref="748672425"/>
    <nd ref="748672448"/>
    <nd ref="10221531674"/>
    <nd ref="60483221"/>
    <tag k="hgv" v="destination"/>
    <tag k="highway" v="primary"/>
    <tag k="lanes" v="2"/>
    <tag k="lit" v="yes"/>
    <tag k="maxspeed" v="50"/>
    <tag k="name" v="캛eskobrodsk치"/>
    <tag k="oneway" v="no"/>
    <tag k="ref" v="12"/>
    <tag k="surface" v="asphalt"/>
  </way>
  <way id="1361666452" version="1" timestamp="2025-02-21T10:34:49Z" changeset="162774010" uid="25867" user="adamos">
    <nd ref="60483221"/>
    <nd ref="8525653492"/>
    <nd ref="60483226"/>
    <tag k="hgv" v="destination"/>
    <tag k="highway" v="primary"/>
    <tag k="lanes" v="2"/>
    <tag k="lit" v="yes"/>
    <tag k="maxspeed" v="50"/>
    <tag k="name" v="캛eskobrodsk치"/>
    <tag k="oneway" v="no"/>
    <tag k="ref" v="12"/>
    <tag k="surface" v="asphalt"/>
  </way>
  <way id="1361666453" version="1" timestamp="2025-02-21T10:34:49Z" changeset="162774010" uid="25867" user="adamos">
    <nd ref="60483226"/>
    <nd ref="21263179"/>
    <tag k="hgv" v="destination"/>
    <tag k="highway" v="primary"/>
    <tag k="lanes" v="2"/>
    <tag k="lit" v="yes"/>
    <tag k="maxspeed" v="50"/>
    <tag k="name" v="캛eskobrodsk치"/>
    <tag k="oneway" v="no"/>
    <tag k="ref" v="12"/>
    <tag k="surface" v="asphalt"/>
  </way>
  <way id="1361666454" version="1" timestamp="2025-02-21T10:34:49Z" changeset="162774010" uid="25867" user="adamos">
    <nd ref="21263179"/>
    <nd ref="10221531673"/>
    <nd ref="5604841922"/>
    <nd ref="10586307473"/>
    <nd ref="10108243900"/>
    <nd ref="8137565184"/>
    <tag k="hgv" v="destination"/>
    <tag k="highway" v="primary"/>
    <tag k="lanes" v="2"/>
    <tag k="lit" v="yes"/>
    <tag k="maxspeed" v="50"/>
    <tag k="name" v="캛eskobrodsk치"/>
    <tag k="oneway" v="no"/>
    <tag k="ref" v="12"/>
    <tag k="surface" v="asphalt"/>
  </way>
  <way id="1373015585" version="1" timestamp="2025-03-30T12:06:48Z" changeset="164284436" uid="4018695" user="游뻟릖 Roman Horn칤k">
    <nd ref="903444096"/>
    <nd ref="1637904910"/>
    <tag k="highway" v="tertiary"/>
    <tag k="lanes" v="2"/>
    <tag k="lit" v="yes"/>
    <tag k="name" v="Mlad칳ch B캩chovic"/>
    <tag k="smoothness" v="excellent"/>
    <tag k="surface" v="asphalt"/>
  </way>
  <way id="1373015587" version="1" timestamp="2025-03-30T12:06:48Z" changeset="164284436" uid="4018695" user="游뻟릖 Roman Horn칤k">
    <nd ref="481251418"/>
    <nd ref="741708225"/>
    <nd ref="903444096"/>
    <tag k="highway" v="tertiary"/>
    <tag k="lanes" v="2"/>
    <tag k="lit" v="yes"/>
    <tag k="name" v="Mlad칳ch B캩chovic"/>
    <tag k="smoothness" v="excellent"/>
    <tag k="surface" v="asphalt"/>
  </way>
  <way id="1373015588" version="1" timestamp="2025-03-30T12:06:48Z" changeset="164284436" uid="4018695" user="游뻟릖 Roman Horn칤k">
    <nd ref="8364933457"/>
    <nd ref="60263455"/>
    <tag k="highway" v="primary"/>
    <tag k="lanes" v="2"/>
    <tag k="lit" v="yes"/>
    <tag k="maxspeed" v="50"/>
    <tag k="name" v="캛eskobrodsk치"/>
    <tag k="ref" v="12"/>
    <tag k="surface" v="asphalt"/>
  </way>

</osm>
