<?xml version="1.0" encoding="UTF-8"?>
<osm version="0.6" generator="Overpass API 0.7.62.5 1bd436f1">
<note>The data included in this document is from www.openstreetmap.org. The data is made available under ODbL.</note>
<meta osm_base="2025-05-18T05:36:53Z" areas="2024-12-31T00:49:33Z"/>

  <node id="248763242" lat="49.9842920" lon="14.3989748" version="12" timestamp="2021-10-16T19:39:31Z" changeset="112591006" uid="8971394" user="vojtechzaboril">
    <tag k="highway" v="motorway_junction"/>
    <tag k="name" v="Zbraslav"/>
    <tag k="name:de" v="Königsaal"/>
    <tag k="ref" v="10"/>
  </node>
  <node id="256094887" lat="49.9902741" lon="14.4097395" version="6" timestamp="2020-03-06T18:03:52Z" changeset="81879997" uid="1189910" user="Milancer"/>
  <node id="256094971" lat="49.9891191" lon="14.4121112" version="5" timestamp="2023-09-19T17:47:36Z" changeset="141479802" uid="1189910" user="Milancer"/>
  <node id="267839237" lat="49.9939596" lon="14.4045894" version="2" timestamp="2011-02-07T02:47:57Z" changeset="7204886" uid="3516" user="BiIbo"/>
  <node id="267841635" lat="49.9905090" lon="14.4085734" version="3" timestamp="2019-08-20T09:01:59Z" changeset="73528628" uid="25867" user="adamos"/>
  <node id="267841636" lat="49.9909804" lon="14.4079405" version="2" timestamp="2009-10-23T19:16:39Z" changeset="2932155" uid="17615" user="Petr Dlouhý"/>
  <node id="277483567" lat="49.9923933" lon="14.4052760" version="1" timestamp="2008-07-10T02:07:47Z" changeset="448894" uid="3516" user="BiIbo"/>
  <node id="277483572" lat="49.9918108" lon="14.4062272" version="1" timestamp="2008-07-10T02:07:47Z" changeset="448894" uid="3516" user="BiIbo"/>
  <node id="455995715" lat="49.9801636" lon="14.4041460" version="3" timestamp="2011-05-17T01:27:38Z" changeset="8167689" uid="3516" user="BiIbo"/>
  <node id="500367979" lat="49.9821559" lon="14.4322948" version="6" timestamp="2021-02-06T12:05:19Z" changeset="98810210" uid="8971394" user="vojtechzaboril"/>
  <node id="539122241" lat="49.9892220" lon="14.4136555" version="1" timestamp="2009-10-23T19:37:19Z" changeset="2932318" uid="17615" user="Petr Dlouhý"/>
  <node id="881232146" lat="49.9764929" lon="14.4032224" version="4" timestamp="2022-02-06T21:29:31Z" changeset="117095364" uid="25867" user="adamos"/>
  <node id="881232317" lat="49.9768661" lon="14.4068964" version="3" timestamp="2018-11-03T21:31:46Z" changeset="64152533" uid="9868" user="Rolf K"/>
  <node id="944501510" lat="49.9844878" lon="14.3975922" version="7" timestamp="2021-02-22T13:10:48Z" changeset="99749440" uid="11276832" user="HaPe-CZ"/>
  <node id="1620998941" lat="49.9819583" lon="14.4057577" version="4" timestamp="2021-02-12T09:10:11Z" changeset="99162372" uid="8971394" user="vojtechzaboril"/>
  <node id="2382822912" lat="49.9857072" lon="14.3950250" version="5" timestamp="2021-10-16T19:39:31Z" changeset="112591006" uid="8971394" user="vojtechzaboril"/>
  <way id="4965324" version="6" timestamp="2022-02-25T21:17:09Z" changeset="117863338" uid="6588887" user="Martin2035">
    <nd ref="32881072"/>
    <nd ref="32881073"/>
    <nd ref="32881080"/>
    <nd ref="32881082"/>
    <nd ref="2382822923"/>
    <nd ref="32881083"/>
    <nd ref="2382822918"/>
    <nd ref="32881084"/>
    <nd ref="32881085"/>
    <nd ref="32881086"/>
    <nd ref="32881078"/>
    <nd ref="539122227"/>
    <nd ref="32881079"/>
    <tag k="highway" v="residential"/>
    <tag k="lanes" v="1"/>
    <tag k="maxspeed" v="30"/>
    <tag k="maxspeed:type" v="CZ:zone30"/>
    <tag k="maxspeed:zone" v="30"/>
    <tag k="name" v="Pod Lesem"/>
  </way>
  <way id="4965326" version="6" timestamp="2022-02-25T21:17:09Z" changeset="117863338" uid="6588887" user="Martin2035">
    <nd ref="256095061"/>
    <nd ref="256095062"/>
    <nd ref="256095063"/>
    <nd ref="539122230"/>
    <nd ref="2382822934"/>
    <nd ref="32881088"/>
    <nd ref="32881087"/>
    <nd ref="32881071"/>
    <nd ref="32881072"/>
    <nd ref="32881093"/>
    <tag k="highway" v="residential"/>
    <tag k="maxspeed" v="30"/>
    <tag k="maxspeed:type" v="CZ:zone30"/>
    <tag k="maxspeed:zone" v="30"/>
    <tag k="name" v="Za Sídlištěm"/>
    <tag k="surface" v="asphalt"/>
  </way>
  <way id="4965327" version="10" timestamp="2022-02-25T21:17:09Z" changeset="117863338" uid="6588887" user="Martin2035">
    <nd ref="267841563"/>
    <nd ref="6726136439"/>
    <nd ref="267841564"/>
    <nd ref="267841565"/>
    <nd ref="267841584"/>
    <nd ref="1140262509"/>
    <nd ref="32881070"/>
    <tag k="highway" v="residential"/>
    <tag k="maxspeed" v="30"/>
    <tag k="maxspeed:type" v="CZ:zone30"/>
    <tag k="maxspeed:zone" v="30"/>
    <tag k="name" v="Na Homoli"/>
  </way>
  <way id="23639185" version="9" timestamp="2022-02-25T21:17:09Z" changeset="117863338" uid="6588887" user="Martin2035">
    <nd ref="256095060"/>
    <nd ref="352906808"/>
    <nd ref="352906811"/>
    <nd ref="352906801"/>
    <nd ref="256094971"/>
    <tag k="highway" v="residential"/>
    <tag k="maxspeed" v="30"/>
    <tag k="maxspeed:type" v="CZ:zone30"/>
    <tag k="maxspeed:zone" v="30"/>
    <tag k="name" v="K Nouzovu"/>
  </way>
  <way id="23639217" version="7" timestamp="2022-02-25T21:17:09Z" changeset="117863338" uid="6588887" user="Martin2035">
    <nd ref="32881078"/>
    <nd ref="32881077"/>
    <nd ref="32881076"/>
    <nd ref="32881075"/>
    <nd ref="32881074"/>
    <nd ref="539122228"/>
    <nd ref="32881073"/>
    <nd ref="506077364"/>
    <nd ref="256095443"/>
    <nd ref="256095444"/>
    <nd ref="256095445"/>
    <nd ref="256095446"/>
    <nd ref="256095447"/>
    <tag k="highway" v="residential"/>
    <tag k="lanes" v="1"/>
    <tag k="maxspeed" v="30"/>
    <tag k="maxspeed:type" v="CZ:zone30"/>
    <tag k="maxspeed:zone" v="30"/>
    <tag k="name" v="Palmetová"/>
  </way>
  <way id="24639690" version="13" timestamp="2024-09-04T12:14:38Z" changeset="156183388" uid="4997045" user="Tomas_J">
    <nd ref="267839237"/>
    <nd ref="1140261202"/>
    <nd ref="267840100"/>
    <nd ref="267840101"/>
    <nd ref="906837756"/>
    <nd ref="7577565808"/>
    <nd ref="267840102"/>
    <nd ref="267840103"/>
    <nd ref="267840104"/>
    <nd ref="7577565807"/>
    <nd ref="267840105"/>
    <nd ref="7385114822"/>
    <tag k="bicycle" v="yes"/>
    <tag k="highway" v="residential"/>
    <tag k="lane_markings" v="no"/>
    <tag k="name" v="U Skladu"/>
    <tag k="smoothness" v="good"/>
    <tag k="surface" v="asphalt"/>
  </way>
  <way id="24639792" version="9" timestamp="2025-03-08T16:42:27Z" changeset="163370998" uid="4997045" user="Tomas_J">
    <nd ref="267840106"/>
    <nd ref="267840757"/>
    <nd ref="267840758"/>
    <nd ref="539100165"/>
    <nd ref="1727403179"/>
    <nd ref="267840759"/>
    <nd ref="539100163"/>
    <nd ref="11968720880"/>
    <nd ref="11968720878"/>
    <nd ref="539100164"/>
    <nd ref="539100171"/>
    <nd ref="2271011070"/>
    <nd ref="539100172"/>
    <nd ref="267840760"/>
    <tag k="highway" v="residential"/>
    <tag k="maxspeed" v="30"/>
    <tag k="maxspeed:type" v="CZ:zone30"/>
    <tag k="maxspeed:zone" v="30"/>
    <tag k="name" v="U Skladu"/>
    <tag k="surface" v="asphalt"/>
  </way>
  <way id="24639804" version="5" timestamp="2023-08-24T07:53:36Z" changeset="140308163" uid="18476707" user="domin224">
    <nd ref="32881070"/>
    <nd ref="352906807"/>
    <nd ref="11140450329"/>
    <nd ref="256095060"/>
    <tag k="highway" v="residential"/>
    <tag k="maxspeed" v="30"/>
    <tag k="maxspeed:type" v="CZ:zone30"/>
    <tag k="maxspeed:zone" v="30"/>
    <tag k="name" v="Krupná"/>
  </way>
  <way id="24639812" version="7" timestamp="2022-02-25T21:17:09Z" changeset="117863338" uid="6588887" user="Martin2035">
    <nd ref="267841584"/>
    <nd ref="267841634"/>
    <nd ref="267841635"/>
    <tag k="highway" v="residential"/>
    <tag k="maxspeed" v="30"/>
    <tag k="maxspeed:type" v="CZ:zone30"/>
    <tag k="maxspeed:zone" v="30"/>
    <tag k="name" v="U Vlečky"/>
  </way>
  <way id="24639830" version="9" timestamp="2022-02-25T21:17:09Z" changeset="117863338" uid="6588887" user="Martin2035">
    <nd ref="267841738"/>
    <nd ref="267842093"/>
    <nd ref="267842094"/>
    <nd ref="267842095"/>
    <nd ref="267842096"/>
    <nd ref="267842097"/>
    <nd ref="7267253159"/>
    <nd ref="267842098"/>
    <nd ref="7267253160"/>
    <tag k="highway" v="residential"/>
    <tag k="lanes" v="1"/>
    <tag k="maxspeed" v="30"/>
    <tag k="maxspeed:type" v="CZ:zone30"/>
    <tag k="maxspeed:zone" v="30"/>
    <tag k="name" v="Na Šabatce"/>
  </way>
  <way id="24639836" version="11" timestamp="2022-02-25T21:17:09Z" changeset="117863338" uid="6588887" user="Martin2035">
    <nd ref="267841738"/>
    <nd ref="7606638425"/>
    <nd ref="1261998149"/>
    <nd ref="267841740"/>
    <nd ref="267841741"/>
    <nd ref="1261998198"/>
    <nd ref="267841742"/>
    <nd ref="1261998244"/>
    <nd ref="267841563"/>
    <tag k="highway" v="residential"/>
    <tag k="lanes" v="2"/>
    <tag k="maxspeed" v="30"/>
    <tag k="maxspeed:type" v="CZ:zone30"/>
    <tag k="maxspeed:zone" v="30"/>
    <tag k="name" v="Okružní"/>
  </way>
  <way id="24639867" version="9" timestamp="2023-08-14T06:53:03Z" changeset="139855592" uid="231749" user="Eino81">
    <nd ref="11113344960"/>
    <nd ref="267842131"/>
    <nd ref="1261998224"/>
    <nd ref="10249042488"/>
    <nd ref="267842132"/>
    <nd ref="1261998255"/>
    <nd ref="267842133"/>
    <nd ref="11037549076"/>
    <nd ref="267842134"/>
    <nd ref="11037549079"/>
    <nd ref="539100154"/>
    <nd ref="11037549073"/>
    <nd ref="539100155"/>
    <nd ref="11037549065"/>
    <nd ref="539100156"/>
    <nd ref="539100157"/>
    <nd ref="11037549064"/>
    <tag k="access" v="private"/>
    <tag k="highway" v="residential"/>
    <tag k="lanes" v="2"/>
    <tag k="maxspeed" v="30"/>
    <tag k="maxspeed:type" v="CZ:zone30"/>
    <tag k="maxspeed:zone" v="30"/>
    <tag k="name" v="Na Šabatce"/>
    <tag k="surface" v="asphalt"/>
  </way>
  <way id="25464840" version="8" timestamp="2025-03-12T18:30:30Z" changeset="163540813" uid="10110065" user="Hydrolog">
    <nd ref="277483572"/>
    <nd ref="277483571"/>
    <nd ref="277483570"/>
    <nd ref="277483569"/>
    <nd ref="277483568"/>
    <nd ref="277483567"/>
    <tag k="highway" v="residential"/>
    <tag k="maxspeed" v="30"/>
    <tag k="maxspeed:type" v="CZ:zone30"/>
    <tag k="maxspeed:zone" v="30"/>
    <tag k="name" v="Nad Teplárnou"/>
    <tag k="oneway" v="no"/>
    <tag k="oneway:bicycle" v="no"/>
    <tag k="surface" v="asphalt"/>
  </way>
  <way id="25464842" version="3" timestamp="2022-02-25T21:17:09Z" changeset="117863338" uid="6588887" user="Martin2035">
    <nd ref="277483567"/>
    <nd ref="277483577"/>
    <nd ref="277483578"/>
    <tag k="highway" v="residential"/>
    <tag k="maxspeed" v="30"/>
    <tag k="maxspeed:type" v="CZ:zone30"/>
    <tag k="maxspeed:zone" v="30"/>
    <tag k="name" v="Nad Vltavou"/>
  </way>
  <way id="31536524" version="3" timestamp="2022-02-25T21:17:09Z" changeset="117863338" uid="6588887" user="Martin2035">
    <nd ref="352906801"/>
    <nd ref="352906802"/>
    <nd ref="352906803"/>
    <nd ref="352906804"/>
    <nd ref="352906805"/>
    <nd ref="352906806"/>
    <nd ref="352906807"/>
    <tag k="highway" v="residential"/>
    <tag k="maxspeed" v="30"/>
    <tag k="maxspeed:type" v="CZ:zone30"/>
    <tag k="maxspeed:zone" v="30"/>
    <tag k="name" v="Na Poustkách"/>
    <tag k="source" v="cuzk:km;uhul:ortofoto"/>
  </way>
  <way id="31536525" version="5" timestamp="2023-08-14T06:52:00Z" changeset="139855562" uid="231749" user="Eino81">
    <nd ref="11113337013"/>
    <nd ref="352906812"/>
    <nd ref="352906810"/>
    <tag k="access" v="private"/>
    <tag k="highway" v="residential"/>
    <tag k="maxspeed" v="30"/>
    <tag k="maxspeed:type" v="CZ:zone30"/>
    <tag k="maxspeed:zone" v="30"/>
    <tag k="name" v="K Nouzovu"/>
    <tag k="source" v="cuzk:km;uhul:ortofoto"/>
  </way>
  <way id="31536526" version="5" timestamp="2023-08-14T06:52:00Z" changeset="139855562" uid="231749" user="Eino81">
    <nd ref="11113337012"/>
    <nd ref="352906812"/>
    <tag k="access" v="private"/>
    <tag k="highway" v="residential"/>
    <tag k="maxspeed" v="30"/>
    <tag k="maxspeed:type" v="CZ:zone30"/>
    <tag k="maxspeed:zone" v="30"/>
    <tag k="name" v="K Nouzovu"/>
    <tag k="source" v="cuzk:km;uhul:ortofoto"/>
  </way>
  <way id="31536527" version="6" timestamp="2023-07-10T15:49:14Z" changeset="138343912" uid="100163" user="Hlav">
    <nd ref="267841636"/>
    <nd ref="11037610248"/>
    <nd ref="267841637"/>
    <nd ref="539100174"/>
    <nd ref="267840760"/>
    <tag k="highway" v="residential"/>
    <tag k="maxspeed" v="30"/>
    <tag k="maxspeed:type" v="CZ:zone30"/>
    <tag k="maxspeed:zone" v="30"/>
    <tag k="name" v="U Skladu"/>
  </way>
  <way id="37434642" version="21" timestamp="2024-08-04T16:23:46Z" changeset="154820072" uid="4997045" user="Tomas_J">
    <nd ref="881232317"/>
    <nd ref="4953397039"/>
    <nd ref="7577565811"/>
    <nd ref="31031156"/>
    <nd ref="31031157"/>
    <nd ref="31031158"/>
    <nd ref="31031159"/>
    <nd ref="7606644200"/>
    <nd ref="31031160"/>
    <nd ref="31031161"/>
    <nd ref="3933673215"/>
    <nd ref="31031162"/>
    <nd ref="2305625518"/>
    <tag k="hgv" v="no"/>
    <tag k="highway" v="tertiary"/>
    <tag k="lane_markings" v="no"/>
    <tag k="maxspeed" v="30"/>
    <tag k="name" v="Branišovská"/>
    <tag k="source:maxspeed" v="zone"/>
    <tag k="surface" v="asphalt"/>
  </way>
  <way id="37434770" version="10" timestamp="2023-10-09T15:30:23Z" changeset="142355249" uid="15107215" user="Bára Soukupová">
    <nd ref="256095062"/>
    <nd ref="539122231"/>
    <nd ref="11251310046"/>
    <nd ref="256094971"/>
    <tag k="highway" v="residential"/>
    <tag k="maxspeed" v="30"/>
    <tag k="maxspeed:type" v="CZ:zone30"/>
    <tag k="maxspeed:zone" v="30"/>
    <tag k="name" v="Palmetová"/>
  </way>
  <way id="38532444" version="46" timestamp="2024-11-13T21:41:58Z" changeset="159108577" uid="8971394" user="vojtechzaboril">
    <nd ref="500367979"/>
    <nd ref="6989736248"/>
    <nd ref="1829493798"/>
    <nd ref="9244282128"/>
    <nd ref="9373321058"/>
    <nd ref="9244282129"/>
    <nd ref="1829493796"/>
    <nd ref="9244282124"/>
    <nd ref="9244282123"/>
    <nd ref="500367882"/>
    <nd ref="9244282119"/>
    <nd ref="1829493789"/>
    <nd ref="9244282121"/>
    <nd ref="250835617"/>
    <nd ref="9244282117"/>
    <nd ref="1829493793"/>
    <nd ref="9244263415"/>
    <nd ref="1829493795"/>
    <nd ref="3942434094"/>
    <nd ref="12338030996"/>
    <nd ref="248763243"/>
    <nd ref="6989745229"/>
    <nd ref="455995699"/>
    <tag k="alt_name" v="Cholupický tunel"/>
    <tag k="alt_name:de" v="Cholupitzer Tunnel"/>
    <tag k="alt_name:en" v="Cholupice Tunnel"/>
    <tag k="highway" v="motorway"/>
    <tag k="incline" v="down"/>
    <tag k="int_ref" v="E 50"/>
    <tag k="lanes" v="2"/>
    <tag k="layer" v="-2"/>
    <tag k="lit" v="yes"/>
    <tag k="maxheight" v="4.5"/>
    <tag k="maxspeed" v="80"/>
    <tag k="maxspeed:variable" v="obstruction"/>
    <tag k="name" v="Komořanský tunel"/>
    <tag k="name:de" v="Komoraner Tunnel"/>
    <tag k="name:en" v="Komorany Tunnel"/>
    <tag k="old_name" v="tunel Cholupice"/>
    <tag k="oneway" v="yes"/>
    <tag k="ref" v="D0"/>
    <tag k="smoothness" v="excellent"/>
    <tag k="source:maxspeed" v="sign"/>
    <tag k="start_date" v="2010"/>
    <tag k="surface" v="asphalt"/>
    <tag k="toll" v="yes"/>
    <tag k="tunnel" v="yes"/>
    <tag k="wikidata" v="Q12029933"/>
    <tag k="wikipedia" v="cs:Komořanský tunel"/>
  </way>
  <way id="40029823" version="29" timestamp="2023-01-25T10:52:14Z" changeset="131689473" uid="2061236" user="Thartek">
    <nd ref="248763242"/>
    <nd ref="9176955052"/>
    <nd ref="1820688750"/>
    <nd ref="8446012545"/>
    <nd ref="8446012544"/>
    <nd ref="1820688699"/>
    <nd ref="944195943"/>
    <tag k="bridge" v="yes"/>
    <tag k="bridge:structure" v="beam"/>
    <tag k="colour:arrow" v="white"/>
    <tag k="colour:back" v="blue"/>
    <tag k="colour:text" v="white"/>
    <tag k="destination" v="Strakonice;Štěchovice;Praha-centrum;Zbraslav"/>
    <tag k="destination:ref" v="4;101;102"/>
    <tag k="highway" v="motorway_link"/>
    <tag k="lanes" v="1"/>
    <tag k="layer" v="2"/>
    <tag k="oneway" v="yes"/>
    <tag k="surface" v="asphalt"/>
  </way>
  <way id="43033352" version="5" timestamp="2024-06-10T10:32:40Z" changeset="152490928" uid="10932047" user="AF HAF KARTOGRAF">
    <nd ref="267840759"/>
    <nd ref="11968720879"/>
    <nd ref="539100169"/>
    <nd ref="539100164"/>
    <tag k="highway" v="residential"/>
    <tag k="maxspeed" v="30"/>
    <tag k="maxspeed:type" v="CZ:zone30"/>
    <tag k="maxspeed:zone" v="30"/>
    <tag k="source" v="cuzk:km;uhul:ortofoto"/>
  </way>
  <way id="43034046" version="3" timestamp="2022-02-25T20:54:16Z" changeset="117862792" uid="6588887" user="Martin2035">
    <nd ref="539122239"/>
    <nd ref="539122241"/>
    <tag k="highway" v="residential"/>
    <tag k="maxspeed" v="30"/>
    <tag k="maxspeed:type" v="CZ:zone30"/>
    <tag k="maxspeed:zone" v="30"/>
    <tag k="source" v="cuzk:km;uhul:ortofoto"/>
  </way>
  <way id="43034047" version="3" timestamp="2022-02-25T20:54:16Z" changeset="117862792" uid="6588887" user="Martin2035">
    <nd ref="539122241"/>
    <nd ref="539122233"/>
    <nd ref="539122234"/>
    <nd ref="539122236"/>
    <nd ref="539122248"/>
    <nd ref="539122249"/>
    <nd ref="539122247"/>
    <tag k="highway" v="residential"/>
    <tag k="maxspeed" v="30"/>
    <tag k="maxspeed:type" v="CZ:zone30"/>
    <tag k="maxspeed:zone" v="30"/>
    <tag k="name" v="Na Komořsku"/>
    <tag k="source" v="cuzk:km;uhul:ortofoto"/>
  </way>
  <way id="43034048" version="2" timestamp="2022-02-25T21:17:09Z" changeset="117863338" uid="6588887" user="Martin2035">
    <nd ref="539122237"/>
    <nd ref="539122238"/>
    <nd ref="539122231"/>
    <tag k="highway" v="residential"/>
    <tag k="maxspeed" v="30"/>
    <tag k="maxspeed:type" v="CZ:zone30"/>
    <tag k="maxspeed:zone" v="30"/>
    <tag k="source" v="cuzk:km;uhul:ortofoto"/>
  </way>
  <way id="74571885" version="3" timestamp="2020-06-09T18:50:25Z" changeset="86422806" uid="1189910" user="Milancer">
    <nd ref="881232146"/>
    <nd ref="6047448344"/>
    <nd ref="881230995"/>
    <nd ref="881231346"/>
    <nd ref="881231131"/>
    <nd ref="881232038"/>
    <tag k="highway" v="residential"/>
    <tag k="name" v="Závist"/>
    <tag k="source" v="cuzk:km;uhul:ortofoto"/>
  </way>
  <way id="79570257" version="22" timestamp="2025-04-04T18:16:41Z" changeset="164523145" uid="22711123" user="AntoninBucanek">
    <nd ref="10617906945"/>
    <nd ref="10617906944"/>
    <nd ref="11113323455"/>
    <nd ref="30002879"/>
    <nd ref="8162402215"/>
    <nd ref="944501538"/>
    <nd ref="2382822913"/>
    <nd ref="32881079"/>
    <nd ref="6312999656"/>
    <nd ref="944501476"/>
    <nd ref="455994242"/>
    <nd ref="944501447"/>
    <nd ref="944501385"/>
    <nd ref="944501415"/>
    <nd ref="455994243"/>
    <nd ref="455994246"/>
    <nd ref="1288422371"/>
    <nd ref="1459282122"/>
    <nd ref="6838389143"/>
    <nd ref="30002880"/>
    <nd ref="6838389144"/>
    <nd ref="944501445"/>
    <nd ref="2509722652"/>
    <nd ref="944501382"/>
    <nd ref="944501429"/>
    <nd ref="4752910115"/>
    <tag k="highway" v="secondary"/>
    <tag k="lanes" v="2"/>
    <tag k="layer" v="1"/>
    <tag k="maxspeed" v="50"/>
    <tag k="name" v="Komořanská"/>
    <tag k="surface" v="asphalt"/>
  </way>
  <way id="79570262" version="5" timestamp="2022-02-25T21:17:09Z" changeset="117863338" uid="6588887" user="Martin2035">
    <nd ref="267841636"/>
    <nd ref="267841851"/>
    <nd ref="267841850"/>
    <nd ref="2270971335"/>
    <nd ref="267841849"/>
    <nd ref="7272610763"/>
    <nd ref="267841848"/>
    <nd ref="539100185"/>
    <nd ref="267841847"/>
    <nd ref="7272610747"/>
    <nd ref="267841846"/>
    <nd ref="539100183"/>
    <nd ref="267841845"/>
    <nd ref="267841761"/>
    <tag k="highway" v="residential"/>
    <tag k="maxspeed" v="30"/>
    <tag k="maxspeed:type" v="CZ:zone30"/>
    <tag k="maxspeed:zone" v="30"/>
    <tag k="name" v="U Vlečky"/>
  </way>
  <way id="79570268" version="4" timestamp="2023-07-10T15:49:14Z" changeset="138343912" uid="100163" user="Hlav">
    <nd ref="267841635"/>
    <nd ref="11037610245"/>
    <nd ref="539100175"/>
    <nd ref="267841636"/>
    <tag k="highway" v="residential"/>
    <tag k="maxspeed" v="30"/>
    <tag k="maxspeed:type" v="CZ:zone30"/>
    <tag k="maxspeed:zone" v="30"/>
    <tag k="name" v="U Vlečky"/>
  </way>
  <way id="79570269" version="5" timestamp="2022-02-25T21:17:09Z" changeset="117863338" uid="6588887" user="Martin2035">
    <nd ref="267841635"/>
    <nd ref="267841761"/>
    <nd ref="1140262520"/>
    <nd ref="267841756"/>
    <tag k="highway" v="residential"/>
    <tag k="maxspeed" v="30"/>
    <tag k="maxspeed:type" v="CZ:zone30"/>
    <tag k="maxspeed:zone" v="30"/>
    <tag k="name" v="Okružní"/>
  </way>
  <way id="88721856" version="6" timestamp="2023-12-10T10:56:39Z" changeset="144960592" uid="3335899" user="GBAB">
    <nd ref="1029883915"/>
    <nd ref="1029892321"/>
    <nd ref="1029885901"/>
    <nd ref="1029889415"/>
    <nd ref="6411599165"/>
    <nd ref="1029892001"/>
    <nd ref="1029889936"/>
    <nd ref="6411599164"/>
    <nd ref="1029892264"/>
    <nd ref="1029885691"/>
    <nd ref="1029889858"/>
    <nd ref="1029884658"/>
    <nd ref="6411599166"/>
    <nd ref="1029888974"/>
    <nd ref="1029891442"/>
    <nd ref="6411599163"/>
    <nd ref="1029883915"/>
    <tag k="building" v="yes"/>
    <tag k="building:colour" v="orange"/>
    <tag k="building:levels" v="4"/>
    <tag k="building:ruian:type" v="19"/>
    <tag k="name" v="ČHMÚ"/>
    <tag k="ref:ruian:building" v="21873739"/>
    <tag k="roof:colour" v="lightgray"/>
    <tag k="roof:shape" v="flat"/>
    <tag k="source" v="cuzk:ruian"/>
  </way>
  <way id="88722049" version="11" timestamp="2024-01-01T18:57:47Z" changeset="145772367" uid="8772934" user="mapperich">
    <nd ref="1029888766"/>
    <nd ref="1029891112"/>
    <nd ref="1029883592"/>
    <nd ref="1029887792"/>
    <nd ref="1029890793"/>
    <nd ref="1029892465"/>
    <nd ref="1029887130"/>
    <nd ref="1029889943"/>
    <nd ref="1029888985"/>
    <nd ref="1029891461"/>
    <nd ref="6726074213"/>
    <nd ref="1029883924"/>
    <nd ref="291503033"/>
    <nd ref="3253627572"/>
    <nd ref="1029888880"/>
    <nd ref="1029891299"/>
    <nd ref="1029883776"/>
    <nd ref="1029892268"/>
    <nd ref="1029885702"/>
    <nd ref="4759739802"/>
    <nd ref="4759739795"/>
    <nd ref="291503098"/>
    <nd ref="4759739796"/>
    <nd ref="4759739797"/>
    <nd ref="1029884385"/>
    <nd ref="4759739798"/>
    <nd ref="4759739799"/>
    <nd ref="1029892417"/>
    <nd ref="3253627589"/>
    <nd ref="1029886626"/>
    <nd ref="1029889772"/>
    <nd ref="1029892181"/>
    <nd ref="1029890316"/>
    <nd ref="1029892377"/>
    <nd ref="1029886280"/>
    <nd ref="1029889663"/>
    <nd ref="3853932676"/>
    <nd ref="1029888766"/>
    <tag k="building" v="castle"/>
    <tag k="building:levels" v="2"/>
    <tag k="building:ruian:type" v="3"/>
    <tag k="building:use" v="office"/>
    <tag k="castle_type" v="stately"/>
    <tag k="height" v="10"/>
    <tag k="historic" v="castle"/>
    <tag k="name" v="zámek Komořany"/>
    <tag k="ref:ruian:building" v="21872295"/>
    <tag k="roof:colour" v="darkgray"/>
    <tag k="roof:height" v="4"/>
    <tag k="roof:material" v="roof_tiles"/>
    <tag k="roof:shape" v="gabled"/>
    <tag k="source" v="cuzk:ruian"/>
    <tag k="wikidata" v="Q12029934"/>
    <tag k="wikimedia_commons" v="Category:Zámek Komořany"/>
    <tag k="wikipedia" v="cs:Komořany (zámek)"/>
  </way>
  <way id="149072506" version="25" timestamp="2024-11-13T21:41:58Z" changeset="159108577" uid="8971394" user="vojtechzaboril">
    <nd ref="1620998941"/>
    <nd ref="6989745228"/>
    <nd ref="1620998940"/>
    <nd ref="12338030995"/>
    <nd ref="3942432010"/>
    <nd ref="500367925"/>
    <nd ref="9244263414"/>
    <nd ref="500367939"/>
    <nd ref="9244263416"/>
    <nd ref="500367944"/>
    <nd ref="9244282120"/>
    <nd ref="500367950"/>
    <nd ref="9244282118"/>
    <nd ref="1620998939"/>
    <nd ref="12338030997"/>
    <nd ref="9244282122"/>
    <nd ref="9244282125"/>
    <nd ref="250835619"/>
    <nd ref="9244282126"/>
    <nd ref="9373321059"/>
    <nd ref="9244282127"/>
    <nd ref="500367973"/>
    <nd ref="6989736247"/>
    <nd ref="1620998942"/>
    <tag k="alt_name" v="Cholupický tunel"/>
    <tag k="alt_name:de" v="Cholupitzer Tunnel"/>
    <tag k="alt_name:en" v="Cholupice Tunnel"/>
    <tag k="highway" v="motorway"/>
    <tag k="incline" v="up"/>
    <tag k="int_ref" v="E 50"/>
    <tag k="lanes" v="3"/>
    <tag k="layer" v="-2"/>
    <tag k="lit" v="yes"/>
    <tag k="maxheight" v="4.5"/>
    <tag k="maxspeed" v="80"/>
    <tag k="maxspeed:variable" v="obstruction"/>
    <tag k="name" v="Komořanský tunel"/>
    <tag k="name:de" v="Komoraner Tunnel"/>
    <tag k="name:en" v="Komorany Tunnel"/>
    <tag k="old_name" v="tunel Cholupice"/>
    <tag k="oneway" v="yes"/>
    <tag k="ref" v="D0"/>
    <tag k="smoothness" v="excellent"/>
    <tag k="source:maxspeed" v="sign"/>
    <tag k="start_date" v="2010"/>
    <tag k="surface" v="asphalt"/>
    <tag k="toll" v="yes"/>
    <tag k="tunnel" v="yes"/>
    <tag k="wikidata" v="Q12029933"/>
    <tag k="wikipedia" v="cs:Komořanský tunel"/>
  </way>
  <way id="161385929" version="17" timestamp="2023-03-16T10:48:34Z" changeset="133743542" uid="8971394" user="vojtechzaboril">
    <nd ref="455995699"/>
    <nd ref="2509722667"/>
    <nd ref="10738962230"/>
    <nd ref="944501550"/>
    <nd ref="481304344"/>
    <tag k="highway" v="motorway"/>
    <tag k="int_ref" v="E 50"/>
    <tag k="lanes" v="2"/>
    <tag k="maxheight" v="4.8"/>
    <tag k="maxspeed" v="80"/>
    <tag k="maxspeed:variable" v="obstruction"/>
    <tag k="name" v="Pražský okruh"/>
    <tag k="name:de" v="Prager Ring"/>
    <tag k="name:en" v="Prague Ring"/>
    <tag k="oneway" v="yes"/>
    <tag k="ref" v="D0"/>
    <tag k="source:maxspeed" v="sign"/>
    <tag k="surface" v="asphalt"/>
    <tag k="toll" v="yes"/>
  </way>
  <way id="161385931" version="23" timestamp="2023-01-25T10:50:42Z" changeset="131689425" uid="2061236" user="Thartek">
    <nd ref="2382822912"/>
    <nd ref="8417633154"/>
    <nd ref="8417635005"/>
    <tag k="bridge" v="yes"/>
    <tag k="bridge:structure" v="beam"/>
    <tag k="highway" v="motorway"/>
    <tag k="int_ref" v="E 50"/>
    <tag k="lanes" v="3"/>
    <tag k="layer" v="2"/>
    <tag k="maxspeed" v="130"/>
    <tag k="maxspeed:variable" v="obstruction"/>
    <tag k="name" v="Pražský okruh"/>
    <tag k="name:de" v="Prager Ring"/>
    <tag k="name:en" v="Prague Ring"/>
    <tag k="oneway" v="yes"/>
    <tag k="placement" v="right_of:1"/>
    <tag k="ref" v="D0"/>
    <tag k="source:maxspeed" v="sign"/>
    <tag k="surface" v="asphalt"/>
    <tag k="toll" v="yes"/>
  </way>
  <way id="171920601" version="13" timestamp="2020-06-01T11:12:11Z" changeset="86043532" uid="1189910" user="Milancer">
    <nd ref="881232317"/>
    <nd ref="7577565810"/>
    <nd ref="7577565809"/>
    <nd ref="4953397038"/>
    <nd ref="31031154"/>
    <nd ref="7577565812"/>
    <nd ref="31031153"/>
    <nd ref="7577565813"/>
    <nd ref="31031152"/>
    <nd ref="31031151"/>
    <nd ref="31031150"/>
    <nd ref="31031149"/>
    <nd ref="4535759376"/>
    <nd ref="31031148"/>
    <nd ref="3933673216"/>
    <nd ref="31031147"/>
    <nd ref="31031146"/>
    <nd ref="3933673217"/>
    <nd ref="31031145"/>
    <nd ref="31031144"/>
    <nd ref="3933673218"/>
    <nd ref="31031143"/>
    <nd ref="31031142"/>
    <nd ref="3933673219"/>
    <nd ref="31031141"/>
    <nd ref="31031139"/>
    <tag k="hgv" v="no"/>
    <tag k="highway" v="tertiary"/>
    <tag k="maxspeed" v="30"/>
    <tag k="name" v="Branišovská"/>
    <tag k="source:maxspeed" v="zone"/>
    <tag k="surface" v="asphalt"/>
  </way>
  <way id="171993317" version="23" timestamp="2023-01-25T10:44:42Z" changeset="131689178" uid="2061236" user="Thartek">
    <nd ref="248763242"/>
    <nd ref="8446012547"/>
    <nd ref="5711556879"/>
    <nd ref="1992396767"/>
    <nd ref="8443264392"/>
    <nd ref="248763241"/>
    <nd ref="3853299245"/>
    <nd ref="3853299249"/>
    <nd ref="5868412472"/>
    <nd ref="1992396775"/>
    <nd ref="5868412473"/>
    <nd ref="1992396781"/>
    <nd ref="8443260200"/>
    <nd ref="1992396782"/>
    <nd ref="633033918"/>
    <tag k="bridge" v="yes"/>
    <tag k="bridge:structure" v="beam"/>
    <tag k="destination" v="Karlovy Vary;Plzeň;letiště"/>
    <tag k="destination:symbol" v="airport"/>
    <tag k="highway" v="motorway"/>
    <tag k="int_ref" v="E 50"/>
    <tag k="lanes" v="2"/>
    <tag k="layer" v="2"/>
    <tag k="maxspeed" v="100"/>
    <tag k="maxspeed:variable" v="obstruction"/>
    <tag k="name" v="Pražský okruh"/>
    <tag k="name:de" v="Prager Ring"/>
    <tag k="name:en" v="Prague Ring"/>
    <tag k="oneway" v="yes"/>
    <tag k="ref" v="D0"/>
    <tag k="source:maxspeed" v="sign"/>
    <tag k="surface" v="asphalt"/>
    <tag k="toll" v="yes"/>
  </way>
  <way id="171993320" version="15" timestamp="2024-03-05T22:51:26Z" changeset="148270843" uid="9291527" user="marekhrabe">
    <nd ref="481304344"/>
    <nd ref="481304342"/>
    <tag k="highway" v="motorway"/>
    <tag k="int_ref" v="E 50"/>
    <tag k="lanes" v="2"/>
    <tag k="layer" v="-1"/>
    <tag k="maxheight" v="4.8"/>
    <tag k="maxspeed" v="80"/>
    <tag k="maxspeed:variable" v="obstruction"/>
    <tag k="name" v="tunel Šabatka"/>
    <tag k="oneway" v="yes"/>
    <tag k="ref" v="D0"/>
    <tag k="source:maxspeed" v="sign"/>
    <tag k="surface" v="asphalt"/>
    <tag k="toll" v="yes"/>
    <tag k="tunnel" v="yes"/>
  </way>
  <way id="171993321" version="14" timestamp="2023-02-18T17:05:44Z" changeset="132722378" uid="10630524" user="Fjana">
    <nd ref="481304342"/>
    <nd ref="10676566390"/>
    <nd ref="4742026450"/>
    <tag k="highway" v="motorway"/>
    <tag k="int_ref" v="E 50"/>
    <tag k="lanes" v="2"/>
    <tag k="maxspeed" v="100"/>
    <tag k="maxspeed:variable" v="obstruction"/>
    <tag k="name" v="Pražský okruh"/>
    <tag k="name:de" v="Prager Ring"/>
    <tag k="name:en" v="Prague Ring"/>
    <tag k="oneway" v="yes"/>
    <tag k="ref" v="D0"/>
    <tag k="source:maxspeed" v="sign"/>
    <tag k="surface" v="asphalt"/>
    <tag k="toll" v="yes"/>
  </way>
  <way id="171993331" version="19" timestamp="2024-03-05T22:51:26Z" changeset="148270843" uid="9291527" user="marekhrabe">
    <nd ref="481304230"/>
    <nd ref="4742026449"/>
    <tag k="highway" v="motorway"/>
    <tag k="int_ref" v="E 50"/>
    <tag k="lanes" v="4"/>
    <tag k="layer" v="-1"/>
    <tag k="maxheight" v="4.8"/>
    <tag k="maxspeed" v="80"/>
    <tag k="maxspeed:variable" v="obstruction"/>
    <tag k="name" v="tunel Šabatka"/>
    <tag k="oneway" v="yes"/>
    <tag k="placement" v="right_of:1"/>
    <tag k="ref" v="D0"/>
    <tag k="source:maxspeed" v="sign"/>
    <tag k="surface" v="asphalt"/>
    <tag k="toll" v="yes"/>
    <tag k="tunnel" v="yes"/>
    <tag k="turn:lanes" v="|||merge_to_left"/>
  </way>
  <way id="171993332" version="16" timestamp="2023-03-16T10:48:34Z" changeset="133743542" uid="8971394" user="vojtechzaboril">
    <nd ref="481304222"/>
    <nd ref="2509722666"/>
    <nd ref="2509722663"/>
    <nd ref="944501418"/>
    <nd ref="1620998941"/>
    <tag k="highway" v="motorway"/>
    <tag k="int_ref" v="E 50"/>
    <tag k="lanes" v="3"/>
    <tag k="maxheight" v="4.8"/>
    <tag k="maxspeed" v="80"/>
    <tag k="maxspeed:variable" v="obstruction"/>
    <tag k="name" v="Pražský okruh"/>
    <tag k="name:de" v="Prager Ring"/>
    <tag k="name:en" v="Prague Ring"/>
    <tag k="oneway" v="yes"/>
    <tag k="ref" v="D0"/>
    <tag k="source:maxspeed" v="sign"/>
    <tag k="surface" v="asphalt"/>
    <tag k="toll" v="yes"/>
  </way>
  <way id="171993333" version="18" timestamp="2023-02-18T17:05:44Z" changeset="132722378" uid="10630524" user="Fjana">
    <nd ref="481304234"/>
    <nd ref="10676566389"/>
    <nd ref="8446010350"/>
    <nd ref="5711556878"/>
    <nd ref="8446010349"/>
    <nd ref="8446010348"/>
    <nd ref="10676566388"/>
    <nd ref="481304230"/>
    <tag k="highway" v="motorway"/>
    <tag k="int_ref" v="E 50"/>
    <tag k="lanes" v="4"/>
    <tag k="maxspeed" v="100"/>
    <tag k="maxspeed:variable" v="obstruction"/>
    <tag k="name" v="Pražský okruh"/>
    <tag k="name:de" v="Prager Ring"/>
    <tag k="name:en" v="Prague Ring"/>
    <tag k="oneway" v="yes"/>
    <tag k="placement" v="right_of:1"/>
    <tag k="ref" v="D0"/>
    <tag k="source:maxspeed" v="sign"/>
    <tag k="surface" v="asphalt"/>
    <tag k="toll" v="yes"/>
    <tag k="turn:lanes" v="|||merge_to_left"/>
  </way>
  <way id="172187368" version="13" timestamp="2023-01-25T10:51:01Z" changeset="131689436" uid="2061236" user="Thartek">
    <nd ref="944501510"/>
    <nd ref="8445247980"/>
    <nd ref="8446010347"/>
    <nd ref="8417633150"/>
    <nd ref="8417635005"/>
    <tag k="bridge" v="yes"/>
    <tag k="bridge:structure" v="beam"/>
    <tag k="highway" v="motorway_link"/>
    <tag k="lanes" v="1"/>
    <tag k="layer" v="2"/>
    <tag k="maxspeed" v="130"/>
    <tag k="oneway" v="yes"/>
    <tag k="surface" v="asphalt"/>
  </way>
  <way id="175153894" version="3" timestamp="2022-02-25T21:17:09Z" changeset="117863338" uid="6588887" user="Martin2035">
    <nd ref="256095447"/>
    <nd ref="256095062"/>
    <tag k="highway" v="residential"/>
    <tag k="maxspeed" v="30"/>
    <tag k="maxspeed:type" v="CZ:zone30"/>
    <tag k="maxspeed:zone" v="30"/>
    <tag k="name" v="Palmetová"/>
  </way>
  <way id="221533522" version="5" timestamp="2024-08-05T21:04:32Z" changeset="154868684" uid="4997045" user="Tomas_J">
    <nd ref="2305625502"/>
    <nd ref="2305625518"/>
    <tag k="highway" v="residential"/>
    <tag k="maxspeed" v="30"/>
    <tag k="maxspeed:type" v="CZ:zone30"/>
    <tag k="name" v="Hudcova"/>
    <tag k="source:maxspeed" v="zone"/>
    <tag k="surface" v="dirt"/>
    <tag k="zone:maxspeed" v="30"/>
  </way>
  <way id="300777241" version="5" timestamp="2023-01-04T13:38:38Z" changeset="130867884" uid="15662873" user="maspav">
    <nd ref="539122241"/>
    <nd ref="539122240"/>
    <nd ref="539122247"/>
    <nd ref="10304731353"/>
    <nd ref="5624573343"/>
    <nd ref="256095231"/>
    <tag k="highway" v="residential"/>
    <tag k="maxspeed" v="30"/>
    <tag k="maxspeed:type" v="CZ:zone30"/>
    <tag k="maxspeed:zone" v="30"/>
    <tag k="name" v="Na Komořsku"/>
    <tag k="source" v="cuzk:km;uhul:ortofoto"/>
  </way>
  <way id="312960735" version="4" timestamp="2023-08-24T07:53:36Z" changeset="140308163" uid="18476707" user="domin224">
    <nd ref="256094971"/>
    <nd ref="256094972"/>
    <nd ref="539122239"/>
    <nd ref="11140450318"/>
    <nd ref="5624573340"/>
    <nd ref="2304190772"/>
    <tag k="highway" v="residential"/>
    <tag k="maxspeed" v="30"/>
    <tag k="maxspeed:type" v="CZ:zone30"/>
    <tag k="maxspeed:zone" v="30"/>
    <tag k="name" v="K Nouzovu"/>
  </way>
  <way id="325017103" version="8" timestamp="2024-08-04T16:23:29Z" changeset="154820072" uid="4997045" user="Tomas_J">
    <nd ref="2305625518"/>
    <nd ref="31031163"/>
    <nd ref="31031164"/>
    <nd ref="881231694"/>
    <nd ref="31031166"/>
    <nd ref="7577565814"/>
    <nd ref="31031169"/>
    <nd ref="31031171"/>
    <nd ref="31031173"/>
    <nd ref="7577565815"/>
    <nd ref="31031174"/>
    <nd ref="31031175"/>
    <nd ref="944501565"/>
    <tag k="hgv" v="no"/>
    <tag k="highway" v="tertiary"/>
    <tag k="lane_markings" v="no"/>
    <tag k="maxspeed" v="30"/>
    <tag k="name" v="Branišovská"/>
    <tag k="source:maxspeed" v="zone"/>
    <tag k="surface" v="asphalt"/>
  </way>
  <way id="421316920" version="3" timestamp="2024-09-04T12:15:05Z" changeset="156183388" uid="4997045" user="Tomas_J">
    <nd ref="539100160"/>
    <nd ref="539100161"/>
    <nd ref="539100162"/>
    <nd ref="267840106"/>
    <tag k="bicycle" v="yes"/>
    <tag k="highway" v="residential"/>
    <tag k="lane_markings" v="no"/>
    <tag k="name" v="U Skladu"/>
    <tag k="smoothness" v="good"/>
    <tag k="surface" v="asphalt"/>
  </way>
  <way id="481267585" version="13" timestamp="2024-03-05T22:51:26Z" changeset="148270843" uid="9291527" user="marekhrabe">
    <nd ref="4742026449"/>
    <nd ref="481304222"/>
    <tag k="highway" v="motorway"/>
    <tag k="int_ref" v="E 50"/>
    <tag k="lanes" v="3"/>
    <tag k="layer" v="-1"/>
    <tag k="maxheight" v="4.8"/>
    <tag k="maxspeed" v="80"/>
    <tag k="maxspeed:variable" v="obstruction"/>
    <tag k="name" v="tunel Šabatka"/>
    <tag k="oneway" v="yes"/>
    <tag k="placement" v="transition"/>
    <tag k="ref" v="D0"/>
    <tag k="source:maxspeed" v="sign"/>
    <tag k="surface" v="asphalt"/>
    <tag k="toll" v="yes"/>
    <tag k="tunnel" v="yes"/>
  </way>
  <way id="481267586" version="8" timestamp="2023-02-18T17:05:44Z" changeset="132722378" uid="10630524" user="Fjana">
    <nd ref="4742026450"/>
    <nd ref="10676566387"/>
    <nd ref="8417633157"/>
    <tag k="highway" v="motorway"/>
    <tag k="int_ref" v="E 50"/>
    <tag k="lanes" v="3"/>
    <tag k="maxspeed" v="100"/>
    <tag k="maxspeed:variable" v="obstruction"/>
    <tag k="name" v="Pražský okruh"/>
    <tag k="name:de" v="Prager Ring"/>
    <tag k="name:en" v="Prague Ring"/>
    <tag k="oneway" v="yes"/>
    <tag k="placement" v="right_of:1"/>
    <tag k="ref" v="D0"/>
    <tag k="source:maxspeed" v="sign"/>
    <tag k="surface" v="asphalt"/>
    <tag k="toll" v="yes"/>
    <tag k="turn:lanes" v="||slight_right"/>
  </way>
  <way id="482467822" version="3" timestamp="2022-02-25T21:17:09Z" changeset="117863338" uid="6588887" user="Martin2035">
    <nd ref="267841715"/>
    <nd ref="6312999672"/>
    <nd ref="1261998144"/>
    <nd ref="9535761351"/>
    <nd ref="539100158"/>
    <nd ref="267841738"/>
    <tag k="highway" v="residential"/>
    <tag k="lanes" v="2"/>
    <tag k="maxspeed" v="30"/>
    <tag k="maxspeed:type" v="CZ:zone30"/>
    <tag k="maxspeed:zone" v="30"/>
    <tag k="name" v="Na Šabatce"/>
  </way>
  <way id="502704789" version="5" timestamp="2025-04-04T18:07:25Z" changeset="164522746" uid="22711123" user="AntoninBucanek">
    <nd ref="31031176"/>
    <nd ref="944501457"/>
    <nd ref="4752910113"/>
    <tag k="destination:forward" v="Zbraslav"/>
    <tag k="highway" v="secondary"/>
    <tag k="lanes" v="2"/>
    <tag k="layer" v="1"/>
    <tag k="maxspeed" v="50"/>
    <tag k="name" v="Komořanská"/>
    <tag k="surface" v="asphalt"/>
  </way>
  <way id="502704790" version="3" timestamp="2025-04-04T18:07:25Z" changeset="164522746" uid="22711123" user="AntoninBucanek">
    <nd ref="4752910115"/>
    <nd ref="944501413"/>
    <nd ref="455995710"/>
    <nd ref="31031176"/>
    <tag k="destination:backward" v="Modřany"/>
    <tag k="highway" v="secondary"/>
    <tag k="lanes" v="2"/>
    <tag k="layer" v="1"/>
    <tag k="maxspeed" v="50"/>
    <tag k="name" v="Komořanská"/>
    <tag k="surface" v="asphalt"/>
  </way>
  <way id="502704791" version="3" timestamp="2025-04-04T18:07:25Z" changeset="164522746" uid="22711123" user="AntoninBucanek">
    <nd ref="455995715"/>
    <nd ref="31031180"/>
    <nd ref="881231847"/>
    <nd ref="30002881"/>
    <nd ref="30002882"/>
    <nd ref="2074600991"/>
    <nd ref="1288422361"/>
    <nd ref="2074600990"/>
    <nd ref="30002883"/>
    <nd ref="437609329"/>
    <tag k="highway" v="secondary"/>
    <tag k="lanes" v="2"/>
    <tag k="layer" v="1"/>
    <tag k="maxspeed" v="50"/>
    <tag k="name" v="Komořanská"/>
    <tag k="surface" v="asphalt"/>
  </way>
  <way id="502704793" version="3" timestamp="2020-03-06T18:03:52Z" changeset="81879997" uid="1189910" user="Milancer">
    <nd ref="944501565"/>
    <nd ref="4930928127"/>
    <nd ref="31031176"/>
    <tag k="destination:backward" v="Točná"/>
    <tag k="hgv" v="no"/>
    <tag k="highway" v="tertiary"/>
    <tag k="maxspeed" v="30"/>
    <tag k="name" v="Branišovská"/>
    <tag k="source:maxspeed" v="zone"/>
    <tag k="surface" v="asphalt"/>
  </way>
  <way id="718852130" version="4" timestamp="2025-03-08T16:42:37Z" changeset="163370998" uid="4997045" user="Tomas_J">
    <nd ref="267841563"/>
    <nd ref="267841645"/>
    <nd ref="267841635"/>
    <tag k="highway" v="residential"/>
    <tag k="lanes" v="2"/>
    <tag k="maxspeed" v="30"/>
    <tag k="maxspeed:type" v="CZ:zone30"/>
    <tag k="maxspeed:zone" v="30"/>
    <tag k="name" v="Okružní"/>
    <tag k="surface" v="asphalt"/>
  </way>
  <way id="789880206" version="2" timestamp="2025-04-08T19:30:29Z" changeset="164695230" uid="4997045" user="Tomas_J">
    <nd ref="7385114821"/>
    <nd ref="539100160"/>
    <tag k="bicycle" v="yes"/>
    <tag k="highway" v="residential"/>
    <tag k="lane_markings" v="no"/>
    <tag k="name" v="U Skladu"/>
    <tag k="smoothness" v="good"/>
    <tag k="surface" v="asphalt"/>
  </way>
  <way id="789880207" version="2" timestamp="2025-05-14T14:18:38Z" changeset="166259764" uid="718054" user="Piskvor">
    <nd ref="7385114822"/>
    <nd ref="7385114821"/>
    <tag k="bicycle" v="yes"/>
    <tag k="bridge" v="yes"/>
    <tag k="bridge:structure" v="beam"/>
    <tag k="highway" v="residential"/>
    <tag k="layer" v="1"/>
    <tag k="name" v="U Skladu"/>
    <tag k="smoothness" v="good"/>
    <tag k="surface" v="asphalt"/>
  </way>
  <way id="814304899" version="3" timestamp="2022-11-23T19:50:13Z" changeset="129295672" uid="16361887" user="8err">
    <nd ref="7267253160"/>
    <nd ref="10212795053"/>
    <nd ref="1727403148"/>
    <nd ref="267842099"/>
    <tag k="highway" v="residential"/>
    <tag k="lanes" v="1"/>
    <tag k="maxspeed" v="30"/>
    <tag k="maxspeed:type" v="CZ:zone30"/>
    <tag k="maxspeed:zone" v="30"/>
    <tag k="name" v="Na Šabatce"/>
  </way>
  <way id="814304900" version="3" timestamp="2022-11-23T19:50:13Z" changeset="129295672" uid="16361887" user="8err">
    <nd ref="10212795059"/>
    <nd ref="1727403147"/>
    <nd ref="1727403143"/>
    <nd ref="1727403141"/>
    <nd ref="1727403137"/>
    <nd ref="1727403129"/>
    <nd ref="1727403125"/>
    <tag k="highway" v="residential"/>
    <tag k="lanes" v="1"/>
    <tag k="maxspeed" v="30"/>
    <tag k="maxspeed:type" v="CZ:zone30"/>
    <tag k="maxspeed:zone" v="30"/>
    <tag k="name" v="Na Šabatce"/>
  </way>
  <way id="845391059" version="4" timestamp="2022-02-25T21:17:09Z" changeset="117863338" uid="6588887" user="Martin2035">
    <nd ref="256095060"/>
    <nd ref="9062165107"/>
    <nd ref="32881071"/>
    <tag k="highway" v="residential"/>
    <tag k="maxspeed" v="30"/>
    <tag k="maxspeed:type" v="CZ:zone30"/>
    <tag k="maxspeed:zone" v="30"/>
    <tag k="name" v="Krupná"/>
  </way>
  <way id="906486675" version="3" timestamp="2023-01-25T10:52:52Z" changeset="131689501" uid="2061236" user="Thartek">
    <nd ref="8417633157"/>
    <nd ref="248763242"/>
    <tag k="bridge" v="yes"/>
    <tag k="bridge:structure" v="beam"/>
    <tag k="highway" v="motorway"/>
    <tag k="int_ref" v="E 50"/>
    <tag k="lanes" v="3"/>
    <tag k="layer" v="2"/>
    <tag k="maxspeed" v="100"/>
    <tag k="maxspeed:variable" v="obstruction"/>
    <tag k="name" v="Pražský okruh"/>
    <tag k="name:de" v="Prager Ring"/>
    <tag k="name:en" v="Prague Ring"/>
    <tag k="oneway" v="yes"/>
    <tag k="placement" v="right_of:1"/>
    <tag k="ref" v="D0"/>
    <tag k="source:maxspeed" v="sign"/>
    <tag k="surface" v="asphalt"/>
    <tag k="toll" v="yes"/>
    <tag k="turn:lanes" v="||slight_right"/>
  </way>
  <way id="906486688" version="3" timestamp="2023-01-25T10:52:32Z" changeset="131689484" uid="2061236" user="Thartek">
    <nd ref="8417635005"/>
    <nd ref="481304234"/>
    <tag k="bridge" v="yes"/>
    <tag k="bridge:structure" v="beam"/>
    <tag k="highway" v="motorway"/>
    <tag k="int_ref" v="E 50"/>
    <tag k="lanes" v="4"/>
    <tag k="layer" v="2"/>
    <tag k="maxspeed" v="100"/>
    <tag k="maxspeed:variable" v="obstruction"/>
    <tag k="name" v="Pražský okruh"/>
    <tag k="name:de" v="Prager Ring"/>
    <tag k="name:en" v="Prague Ring"/>
    <tag k="oneway" v="yes"/>
    <tag k="placement" v="right_of:1"/>
    <tag k="ref" v="D0"/>
    <tag k="source:maxspeed" v="sign"/>
    <tag k="surface" v="asphalt"/>
    <tag k="toll" v="yes"/>
    <tag k="turn:lanes" v="|||merge_to_left"/>
  </way>
  <way id="1116626603" version="1" timestamp="2022-11-23T19:50:13Z" changeset="129295672" uid="16361887" user="8err">
    <nd ref="267842099"/>
    <nd ref="10212795059"/>
    <tag k="highway" v="residential"/>
    <tag k="lanes" v="1"/>
    <tag k="maxspeed" v="30"/>
    <tag k="maxspeed:type" v="CZ:zone30"/>
    <tag k="maxspeed:zone" v="30"/>
    <tag k="name" v="Na Šabatce"/>
  </way>
  <way id="1197879629" version="1" timestamp="2023-08-14T06:52:00Z" changeset="139855562" uid="231749" user="Eino81">
    <nd ref="352906808"/>
    <nd ref="352906809"/>
    <nd ref="11113337013"/>
    <tag k="highway" v="residential"/>
    <tag k="maxspeed" v="30"/>
    <tag k="maxspeed:type" v="CZ:zone30"/>
    <tag k="maxspeed:zone" v="30"/>
    <tag k="name" v="K Nouzovu"/>
    <tag k="source" v="cuzk:km;uhul:ortofoto"/>
  </way>
  <way id="1197879630" version="1" timestamp="2023-08-14T06:52:00Z" changeset="139855562" uid="231749" user="Eino81">
    <nd ref="352906811"/>
    <nd ref="11113337012"/>
    <tag k="highway" v="residential"/>
    <tag k="maxspeed" v="30"/>
    <tag k="maxspeed:type" v="CZ:zone30"/>
    <tag k="maxspeed:zone" v="30"/>
    <tag k="name" v="K Nouzovu"/>
    <tag k="source" v="cuzk:km;uhul:ortofoto"/>
  </way>
  <way id="1197879853" version="1" timestamp="2023-08-14T06:53:03Z" changeset="139855592" uid="231749" user="Eino81">
    <nd ref="267841738"/>
    <nd ref="11113344960"/>
    <tag k="highway" v="residential"/>
    <tag k="lanes" v="2"/>
    <tag k="maxspeed" v="30"/>
    <tag k="maxspeed:type" v="CZ:zone30"/>
    <tag k="maxspeed:zone" v="30"/>
    <tag k="name" v="Na Šabatce"/>
    <tag k="surface" v="asphalt"/>
  </way>
  <way id="1215964444" version="1" timestamp="2023-10-16T09:24:45Z" changeset="142654592" uid="6588887" user="Martin2035">
    <nd ref="277483572"/>
    <nd ref="277483573"/>
    <nd ref="277483574"/>
    <nd ref="277483575"/>
    <tag k="highway" v="residential"/>
    <tag k="maxspeed" v="30"/>
    <tag k="maxspeed:type" v="CZ:zone30"/>
    <tag k="maxspeed:zone" v="30"/>
    <tag k="name" v="Nad Teplárnou"/>
  </way>
  <way id="1215964445" version="1" timestamp="2023-10-16T09:24:45Z" changeset="142654592" uid="6588887" user="Martin2035">
    <nd ref="277483566"/>
    <nd ref="277483567"/>
    <tag k="highway" v="residential"/>
    <tag k="maxspeed" v="30"/>
    <tag k="maxspeed:type" v="CZ:zone30"/>
    <tag k="maxspeed:zone" v="30"/>
    <tag k="name" v="Nad Teplárnou"/>
  </way>
  <way id="1251951499" version="3" timestamp="2025-04-04T18:19:48Z" changeset="164523244" uid="22711123" user="AntoninBucanek">
    <nd ref="4752910113"/>
    <nd ref="455995715"/>
    <tag k="destination:forward" v="Zbraslav"/>
    <tag k="highway" v="secondary"/>
    <tag k="lanes" v="2"/>
    <tag k="layer" v="1"/>
    <tag k="maxspeed" v="50"/>
    <tag k="name" v="Komořanská"/>
    <tag k="surface" v="asphalt"/>
  </way>
  <way id="1374815534" version="1" timestamp="2025-04-04T18:16:41Z" changeset="164523145" uid="22711123" user="AntoninBucanek">
    <nd ref="256094887"/>
    <nd ref="10242060196"/>
    <nd ref="7272610775"/>
    <nd ref="10657826544"/>
    <nd ref="32881070"/>
    <nd ref="12729520208"/>
    <tag k="highway" v="secondary"/>
    <tag k="lanes" v="2"/>
    <tag k="layer" v="1"/>
    <tag k="maxspeed" v="50"/>
    <tag k="name" v="Komořanská"/>
    <tag k="surface" v="asphalt"/>
  </way>
  <way id="1374815535" version="1" timestamp="2025-04-04T18:16:41Z" changeset="164523145" uid="22711123" user="AntoninBucanek">
    <nd ref="12729520208"/>
    <nd ref="1261998217"/>
    <nd ref="267841715"/>
    <nd ref="10617906945"/>
    <tag k="highway" v="secondary"/>
    <tag k="lanes" v="2"/>
    <tag k="layer" v="1"/>
    <tag k="maxspeed" v="30"/>
    <tag k="name" v="Komořanská"/>
    <tag k="surface" v="asphalt"/>
  </way>

</osm>
