<?xml version="1.0" encoding="UTF-8"?>
<osm version="0.6" generator="Overpass API 0.7.62.5 1bd436f1">
<note>The data included in this document is from www.openstreetmap.org. The data is made available under ODbL.</note>
<meta osm_base="2025-05-18T05:37:52Z" areas="2024-12-31T00:49:33Z"/>

  <node id="703039" lat="50.0190831" lon="14.3360428" version="7" timestamp="2021-04-03T14:35:25Z" changeset="102238743" uid="11276832" user="HaPe-CZ"/>
  <node id="30930487" lat="50.0298846" lon="14.3572456" version="2" timestamp="2022-09-16T18:33:25Z" changeset="126274651" uid="1189910" user="Milancer"/>
  <node id="30930525" lat="50.0295743" lon="14.3566174" version="4" timestamp="2018-04-30T17:24:51Z" changeset="58561850" uid="255936" user="NyanSten"/>
  <node id="2282265696" lat="50.0247745" lon="14.3022301" version="2" timestamp="2021-04-03T14:35:25Z" changeset="102238743" uid="11276832" user="HaPe-CZ"/>
  <node id="11950666934" lat="50.0258223" lon="14.3555711" version="1" timestamp="2024-06-01T19:03:27Z" changeset="152135470" uid="2960211" user="demanuel"/>
  <way id="4815492" version="16" timestamp="2023-04-01T14:24:26Z" changeset="134382157" uid="284094" user="woy_cb">
    <nd ref="30930525"/>
    <nd ref="4137968752"/>
    <nd ref="9530271816"/>
    <nd ref="9530274441"/>
    <nd ref="4137968754"/>
    <tag k="highway" v="residential"/>
    <tag k="lanes" v="2"/>
    <tag k="maxspeed" v="40"/>
    <tag k="name" v="U Náhonu"/>
    <tag k="sidewalk:left" v="no"/>
    <tag k="sidewalk:right" v="separate"/>
    <tag k="source:maxspeed" v="zone"/>
    <tag k="surface" v="asphalt"/>
  </way>
  <way id="4815498" version="11" timestamp="2023-04-01T14:24:36Z" changeset="134382157" uid="284094" user="woy_cb">
    <nd ref="4137968754"/>
    <nd ref="30930517"/>
    <nd ref="5588894142"/>
    <nd ref="30930518"/>
    <tag k="highway" v="residential"/>
    <tag k="lane_markings" v="no"/>
    <tag k="maxspeed" v="40"/>
    <tag k="name" v="náměstí Pod Lípou"/>
    <tag k="short_name" v="nám. Pod Lípou"/>
    <tag k="sidewalk:both" v="separate"/>
    <tag k="sorting_name" v="Pod Lípou"/>
    <tag k="source:maxspeed" v="zone"/>
    <tag k="surface" v="asphalt"/>
  </way>
  <way id="4815499" version="10" timestamp="2023-01-08T12:40:40Z" changeset="131012337" uid="12446691" user="RKCZ">
    <nd ref="30930518"/>
    <nd ref="9530271815"/>
    <nd ref="5588894141"/>
    <nd ref="5083611361"/>
    <nd ref="5588894140"/>
    <tag k="highway" v="residential"/>
    <tag k="lane_markings" v="no"/>
    <tag k="maxspeed" v="40"/>
    <tag k="name" v="náměstí Pod Lípou"/>
    <tag k="oneway" v="yes"/>
    <tag k="short_name" v="nám. Pod Lípou"/>
    <tag k="sorting_name" v="Pod Lípou"/>
    <tag k="source:maxspeed" v="zone"/>
    <tag k="surface" v="asphalt"/>
    <tag k="width" v="4.7"/>
  </way>
  <way id="30510739" version="8" timestamp="2023-01-08T12:39:09Z" changeset="131012337" uid="12446691" user="RKCZ">
    <nd ref="30930525"/>
    <nd ref="701301859"/>
    <nd ref="30930487"/>
    <tag k="highway" v="residential"/>
    <tag k="lane_markings" v="no"/>
    <tag k="maxspeed" v="40"/>
    <tag k="name" v="U Náhonu"/>
    <tag k="source:maxspeed" v="zone"/>
    <tag k="source:width" v="ARCore"/>
    <tag k="surface" v="asphalt"/>
    <tag k="width" v="5.7"/>
  </way>
  <way id="34091254" version="6" timestamp="2023-01-01T15:11:25Z" changeset="130752133" uid="2960211" user="demanuel">
    <nd ref="30930487"/>
    <nd ref="701301860"/>
    <nd ref="30930498"/>
    <tag k="highway" v="residential"/>
    <tag k="lane_markings" v="no"/>
    <tag k="maxspeed" v="50"/>
    <tag k="name" v="Za Knotkem"/>
    <tag k="source:maxspeed" v="CZ:urban"/>
    <tag k="surface" v="asphalt"/>
  </way>
  <way id="47011815" version="16" timestamp="2025-03-04T23:07:21Z" changeset="163222826" uid="11545091" user="VladaC">
    <nd ref="30930484"/>
    <nd ref="4137968759"/>
    <nd ref="30930537"/>
    <nd ref="30930483"/>
    <nd ref="30930539"/>
    <nd ref="30930540"/>
    <tag k="highway" v="residential"/>
    <tag k="lanes" v="2"/>
    <tag k="lit" v="yes"/>
    <tag k="maxspeed" v="50"/>
    <tag k="name" v="U Náhonu"/>
    <tag k="sidewalk:left" v="no"/>
    <tag k="sidewalk:right" v="separate"/>
    <tag k="smoothness" v="excellent"/>
    <tag k="source:maxspeed" v="zone"/>
    <tag k="surface" v="asphalt"/>
  </way>
  <way id="102649582" version="12" timestamp="2023-11-17T14:56:57Z" changeset="144142761" uid="746938" user="aloxe">
    <nd ref="30930509"/>
    <nd ref="5339327650"/>
    <nd ref="1185529471"/>
    <nd ref="1185529573"/>
    <nd ref="5339327651"/>
    <nd ref="1899422877"/>
    <nd ref="1185529427"/>
    <nd ref="5339327652"/>
    <nd ref="1185529523"/>
    <nd ref="1776174910"/>
    <nd ref="1185529564"/>
    <nd ref="5516993722"/>
    <nd ref="1185529485"/>
    <nd ref="1185529445"/>
    <nd ref="5083690411"/>
    <nd ref="1776174985"/>
    <nd ref="5083690410"/>
    <nd ref="1185529545"/>
    <nd ref="1185529576"/>
    <nd ref="1776174980"/>
    <nd ref="1776174968"/>
    <nd ref="1776174779"/>
    <tag k="highway" v="residential"/>
    <tag k="lane_markings" v="no"/>
    <tag k="maxspeed" v="40"/>
    <tag k="name" v="Za Knotkem"/>
    <tag k="source:maxspeed" v="zone"/>
    <tag k="surface" v="asphalt"/>
  </way>
  <way id="112301684" version="5" timestamp="2024-03-30T20:01:17Z" changeset="149365661" uid="10932047" user="AF HAF KARTOGRAF">
    <nd ref="1276825992"/>
    <nd ref="1276826423"/>
    <nd ref="1276826476"/>
    <nd ref="1276826671"/>
    <nd ref="1276825992"/>
    <tag k="addr:conscriptionnumber" v="33"/>
    <tag k="addr:country" v="CZ"/>
    <tag k="addr:housenumber" v="33/7"/>
    <tag k="addr:postcode" v="15400"/>
    <tag k="addr:street" v="Průtažní"/>
    <tag k="addr:streetnumber" v="7"/>
    <tag k="building" v="residential"/>
    <tag k="building:flats" v="1"/>
    <tag k="building:levels" v="1"/>
    <tag k="building:ruian:type" v="3"/>
    <tag k="ref:ruian:addr" v="22009191"/>
    <tag k="ref:ruian:building" v="21568821"/>
    <tag k="source" v="cuzk:ruian"/>
  </way>
  <way id="112301690" version="5" timestamp="2024-03-30T20:01:17Z" changeset="149365661" uid="10932047" user="AF HAF KARTOGRAF">
    <nd ref="1276826424"/>
    <nd ref="1276825993"/>
    <nd ref="3747212762"/>
    <nd ref="3747212763"/>
    <nd ref="1276826804"/>
    <nd ref="1276826754"/>
    <nd ref="1276826424"/>
    <tag k="addr:conscriptionnumber" v="122"/>
    <tag k="addr:country" v="CZ"/>
    <tag k="addr:housenumber" v="122/24"/>
    <tag k="addr:postcode" v="15400"/>
    <tag k="addr:street" v="Pod vysokou mezí"/>
    <tag k="addr:streetnumber" v="24"/>
    <tag k="building" v="residential"/>
    <tag k="building:flats" v="1"/>
    <tag k="building:levels" v="1"/>
    <tag k="building:ruian:type" v="3"/>
    <tag k="ref:ruian:addr" v="22010033"/>
    <tag k="ref:ruian:building" v="21569681"/>
    <tag k="source" v="cuzk:ruian"/>
  </way>
  <way id="112301732" version="5" timestamp="2024-03-30T20:01:17Z" changeset="149365661" uid="10932047" user="AF HAF KARTOGRAF">
    <nd ref="1276826018"/>
    <nd ref="1276826695"/>
    <nd ref="1276826642"/>
    <nd ref="1276826454"/>
    <nd ref="3747213629"/>
    <nd ref="3747213625"/>
    <nd ref="3747213626"/>
    <nd ref="3747213630"/>
    <nd ref="1276826018"/>
    <tag k="addr:conscriptionnumber" v="102"/>
    <tag k="addr:country" v="CZ"/>
    <tag k="addr:housenumber" v="102/18"/>
    <tag k="addr:postcode" v="15400"/>
    <tag k="addr:street" v="U náhonu"/>
    <tag k="addr:streetnumber" v="18"/>
    <tag k="building" v="residential"/>
    <tag k="building:flats" v="1"/>
    <tag k="building:levels" v="1"/>
    <tag k="building:ruian:type" v="3"/>
    <tag k="ref:ruian:addr" v="22009841"/>
    <tag k="ref:ruian:building" v="21569495"/>
    <tag k="source" v="cuzk:ruian"/>
  </way>
  <way id="112301778" version="5" timestamp="2024-03-30T20:01:17Z" changeset="149365661" uid="10932047" user="AF HAF KARTOGRAF">
    <nd ref="3747213880"/>
    <nd ref="3747213878"/>
    <nd ref="3747213877"/>
    <nd ref="1276826658"/>
    <nd ref="1276825980"/>
    <nd ref="1276826180"/>
    <nd ref="1276826677"/>
    <nd ref="3747213879"/>
    <nd ref="3747213880"/>
    <tag k="addr:conscriptionnumber" v="8"/>
    <tag k="addr:country" v="CZ"/>
    <tag k="addr:housenumber" v="8/18"/>
    <tag k="addr:postcode" v="15400"/>
    <tag k="addr:street" v="náměstí Pod lípou"/>
    <tag k="addr:streetnumber" v="18"/>
    <tag k="building" v="residential"/>
    <tag k="building:flats" v="2"/>
    <tag k="building:levels" v="1"/>
    <tag k="building:ruian:type" v="3"/>
    <tag k="ref:ruian:addr" v="22008977"/>
    <tag k="ref:ruian:building" v="21568596"/>
    <tag k="source" v="cuzk:ruian"/>
  </way>
  <way id="112301785" version="5" timestamp="2021-02-08T06:43:45Z" changeset="98884811" uid="4997045" user="Tomas_J">
    <nd ref="390708203"/>
    <nd ref="3747213852"/>
    <nd ref="1276826554"/>
    <nd ref="1276826503"/>
    <nd ref="1276826017"/>
    <nd ref="1276826320"/>
    <nd ref="3747213846"/>
    <nd ref="3747213845"/>
    <nd ref="390708203"/>
    <tag k="amenity" v="place_of_worship"/>
    <tag k="building" v="chapel"/>
    <tag k="building:ruian:type" v="19"/>
    <tag k="name" v="svatý Jan Křtitel"/>
    <tag k="official_name" v="Kaple svatého Jana Křtitele"/>
    <tag k="ref:ruian:building" v="46843396"/>
    <tag k="religion" v="christian"/>
    <tag k="source" v="cuzk:ruian"/>
    <tag k="wikidata" v="Q37281438"/>
  </way>
  <way id="112301842" version="6" timestamp="2024-03-30T20:01:17Z" changeset="149365661" uid="10932047" user="AF HAF KARTOGRAF">
    <nd ref="1276826581"/>
    <nd ref="1276826639"/>
    <nd ref="1276826823"/>
    <nd ref="3253066245"/>
    <nd ref="3747213701"/>
    <nd ref="3747213702"/>
    <nd ref="3747213703"/>
    <nd ref="3747213704"/>
    <nd ref="3747213710"/>
    <nd ref="1276826385"/>
    <nd ref="3747213706"/>
    <nd ref="3747213707"/>
    <nd ref="1276826581"/>
    <tag k="addr:conscriptionnumber" v="49"/>
    <tag k="addr:country" v="CZ"/>
    <tag k="addr:housenumber" v="49/13"/>
    <tag k="addr:postcode" v="15400"/>
    <tag k="addr:street" v="U náhonu"/>
    <tag k="addr:streetnumber" v="13"/>
    <tag k="building" v="residential"/>
    <tag k="building:flats" v="1"/>
    <tag k="building:levels" v="1"/>
    <tag k="building:ruian:type" v="3"/>
    <tag k="ref:ruian:addr" v="22009353"/>
    <tag k="ref:ruian:building" v="21568987"/>
    <tag k="source" v="cuzk:ruian"/>
  </way>
  <way id="112301858" version="5" timestamp="2024-03-30T20:01:17Z" changeset="149365661" uid="10932047" user="AF HAF KARTOGRAF">
    <nd ref="1276826921"/>
    <nd ref="1276826571"/>
    <nd ref="3747212770"/>
    <nd ref="3747212769"/>
    <nd ref="1276826354"/>
    <nd ref="2889926504"/>
    <nd ref="2889926516"/>
    <nd ref="1276826250"/>
    <nd ref="1276826921"/>
    <tag k="addr:conscriptionnumber" v="107"/>
    <tag k="addr:country" v="CZ"/>
    <tag k="addr:housenumber" v="107/22"/>
    <tag k="addr:postcode" v="15400"/>
    <tag k="addr:street" v="Kopanská"/>
    <tag k="addr:streetnumber" v="22"/>
    <tag k="building" v="residential"/>
    <tag k="building:flats" v="1"/>
    <tag k="building:levels" v="1"/>
    <tag k="building:ruian:type" v="3"/>
    <tag k="ref:ruian:addr" v="22009892"/>
    <tag k="ref:ruian:building" v="21569541"/>
    <tag k="source" v="cuzk:ruian"/>
  </way>
  <way id="112301910" version="5" timestamp="2024-03-30T20:01:17Z" changeset="149365661" uid="10932047" user="AF HAF KARTOGRAF">
    <nd ref="1276826760"/>
    <nd ref="1276826970"/>
    <nd ref="1276826138"/>
    <nd ref="2889928182"/>
    <nd ref="2889928185"/>
    <nd ref="1276826566"/>
    <nd ref="1276826760"/>
    <tag k="addr:conscriptionnumber" v="112"/>
    <tag k="addr:country" v="CZ"/>
    <tag k="addr:housenumber" v="112/7"/>
    <tag k="addr:postcode" v="15400"/>
    <tag k="addr:street" v="K Zabrkům"/>
    <tag k="addr:streetnumber" v="7"/>
    <tag k="building" v="residential"/>
    <tag k="building:flats" v="2"/>
    <tag k="building:levels" v="1"/>
    <tag k="building:ruian:type" v="3"/>
    <tag k="ref:ruian:addr" v="22009949"/>
    <tag k="ref:ruian:building" v="21569592"/>
    <tag k="source" v="cuzk:ruian"/>
  </way>
  <way id="112301974" version="6" timestamp="2024-03-30T20:01:17Z" changeset="149365661" uid="10932047" user="AF HAF KARTOGRAF">
    <nd ref="1276826195"/>
    <nd ref="1276826861"/>
    <nd ref="3253067696"/>
    <nd ref="5088267174"/>
    <nd ref="5088267175"/>
    <nd ref="5088267176"/>
    <nd ref="5088267173"/>
    <nd ref="1276826613"/>
    <nd ref="1276826195"/>
    <tag k="addr:conscriptionnumber" v="9"/>
    <tag k="addr:country" v="CZ"/>
    <tag k="addr:housenumber" v="9/20"/>
    <tag k="addr:postcode" v="15400"/>
    <tag k="addr:street" v="náměstí Pod lípou"/>
    <tag k="addr:streetnumber" v="20"/>
    <tag k="building" v="residential"/>
    <tag k="building:flats" v="1"/>
    <tag k="building:levels" v="1"/>
    <tag k="building:ruian:type" v="3"/>
    <tag k="ref:ruian:addr" v="22008985"/>
    <tag k="ref:ruian:building" v="21568600"/>
    <tag k="source" v="cuzk:ruian"/>
  </way>
  <way id="112301985" version="6" timestamp="2024-03-30T20:01:17Z" changeset="149365661" uid="10932047" user="AF HAF KARTOGRAF">
    <nd ref="1299519239"/>
    <nd ref="1299519250"/>
    <nd ref="1276826201"/>
    <nd ref="1299519235"/>
    <nd ref="1299519258"/>
    <nd ref="1276825999"/>
    <nd ref="1299519293"/>
    <nd ref="1276826969"/>
    <nd ref="1299519239"/>
    <tag k="addr:conscriptionnumber" v="62"/>
    <tag k="addr:country" v="CZ"/>
    <tag k="addr:housenumber" v="62/25"/>
    <tag k="addr:postcode" v="15400"/>
    <tag k="addr:street" v="U náhonu"/>
    <tag k="addr:streetnumber" v="25"/>
    <tag k="building" v="residential"/>
    <tag k="building:flats" v="1"/>
    <tag k="building:levels" v="1"/>
    <tag k="building:ruian:type" v="3"/>
    <tag k="ref:ruian:addr" v="22009477"/>
    <tag k="ref:ruian:building" v="21569100"/>
    <tag k="source" v="cuzk:ruian"/>
  </way>
  <way id="112301996" version="5" timestamp="2024-03-30T20:01:17Z" changeset="149365661" uid="10932047" user="AF HAF KARTOGRAF">
    <nd ref="3747212814"/>
    <nd ref="3747212816"/>
    <nd ref="3747212815"/>
    <nd ref="1276826137"/>
    <nd ref="3747212817"/>
    <nd ref="3747212822"/>
    <nd ref="1276826810"/>
    <nd ref="1276826622"/>
    <nd ref="1276826565"/>
    <nd ref="3747212813"/>
    <nd ref="3747212814"/>
    <tag k="addr:conscriptionnumber" v="68"/>
    <tag k="addr:country" v="CZ"/>
    <tag k="addr:housenumber" v="68/2"/>
    <tag k="addr:postcode" v="15400"/>
    <tag k="addr:street" v="K lípě"/>
    <tag k="addr:streetnumber" v="2"/>
    <tag k="building" v="residential"/>
    <tag k="building:flats" v="1"/>
    <tag k="building:levels" v="1"/>
    <tag k="building:ruian:type" v="3"/>
    <tag k="ref:ruian:addr" v="22009531"/>
    <tag k="ref:ruian:building" v="21569169"/>
    <tag k="source" v="cuzk:ruian"/>
  </way>
  <way id="112302004" version="5" timestamp="2024-03-30T20:01:17Z" changeset="149365661" uid="10932047" user="AF HAF KARTOGRAF">
    <nd ref="1276826673"/>
    <nd ref="1276826866"/>
    <nd ref="3747213722"/>
    <nd ref="3747213721"/>
    <nd ref="3747213720"/>
    <nd ref="3747213719"/>
    <nd ref="3747213718"/>
    <nd ref="1276826280"/>
    <nd ref="1276826673"/>
    <tag k="addr:conscriptionnumber" v="48"/>
    <tag k="addr:country" v="CZ"/>
    <tag k="addr:housenumber" v="48/11"/>
    <tag k="addr:postcode" v="15400"/>
    <tag k="addr:street" v="U náhonu"/>
    <tag k="addr:streetnumber" v="11"/>
    <tag k="building" v="residential"/>
    <tag k="building:flats" v="1"/>
    <tag k="building:levels" v="1"/>
    <tag k="building:ruian:type" v="3"/>
    <tag k="ref:ruian:addr" v="22009345"/>
    <tag k="ref:ruian:building" v="21568979"/>
    <tag k="source" v="cuzk:ruian"/>
  </way>
  <way id="112302020" version="5" timestamp="2024-03-30T20:01:17Z" changeset="149365661" uid="10932047" user="AF HAF KARTOGRAF">
    <nd ref="1276826027"/>
    <nd ref="3747213650"/>
    <nd ref="3747213649"/>
    <nd ref="1276826636"/>
    <nd ref="1276826446"/>
    <nd ref="1276826010"/>
    <nd ref="1276826027"/>
    <tag k="addr:conscriptionnumber" v="118"/>
    <tag k="addr:country" v="CZ"/>
    <tag k="addr:housenumber" v="118/10"/>
    <tag k="addr:postcode" v="15400"/>
    <tag k="addr:street" v="Zavátá"/>
    <tag k="addr:streetnumber" v="10"/>
    <tag k="building" v="residential"/>
    <tag k="building:flats" v="2"/>
    <tag k="building:levels" v="1"/>
    <tag k="building:ruian:type" v="3"/>
    <tag k="ref:ruian:addr" v="22010009"/>
    <tag k="ref:ruian:building" v="21569657"/>
    <tag k="source" v="cuzk:ruian"/>
  </way>
  <way id="173586531" version="9" timestamp="2023-09-08T10:04:35Z" changeset="140979727" uid="375453" user="Hlad">
    <nd ref="1843748903"/>
    <nd ref="1843748905"/>
    <tag k="bridge" v="yes"/>
    <tag k="highway" v="residential"/>
    <tag k="lane_markings" v="no"/>
    <tag k="layer" v="1"/>
    <tag k="maxspeed" v="40"/>
    <tag k="maxweight:signed" v="no"/>
    <tag k="name" v="K Dobré vodě"/>
    <tag k="oneway" v="no"/>
    <tag k="source:maxspeed" v="zone"/>
    <tag k="surface" v="asphalt"/>
    <tag k="width" v="3"/>
  </way>
  <way id="173586534" version="11" timestamp="2023-09-08T10:04:30Z" changeset="140979722" uid="375453" user="Hlad">
    <nd ref="1843748878"/>
    <nd ref="752175423"/>
    <nd ref="3961660534"/>
    <nd ref="752175362"/>
    <nd ref="3015290484"/>
    <nd ref="752175463"/>
    <nd ref="3015290483"/>
    <nd ref="952372056"/>
    <nd ref="278314970"/>
    <nd ref="752175377"/>
    <nd ref="278176309"/>
    <nd ref="278165253"/>
    <nd ref="278341009"/>
    <nd ref="278319680"/>
    <nd ref="278172306"/>
    <nd ref="278311921"/>
    <nd ref="278331543"/>
    <nd ref="4095878581"/>
    <nd ref="1843748893"/>
    <tag k="check_date:surface" v="2023-09-08"/>
    <tag k="highway" v="residential"/>
    <tag k="maxspeed" v="40"/>
    <tag k="name" v="K Dobré vodě"/>
    <tag k="source:maxspeed" v="zone"/>
    <tag k="surface" v="compacted"/>
  </way>
  <way id="173586540" version="6" timestamp="2025-03-04T23:07:21Z" changeset="163222826" uid="11545091" user="VladaC">
    <nd ref="1776174779"/>
    <nd ref="375791031"/>
    <nd ref="1843748899"/>
    <nd ref="375791060"/>
    <nd ref="12637376706"/>
    <nd ref="375791071"/>
    <nd ref="375791089"/>
    <nd ref="4365936677"/>
    <nd ref="12637376707"/>
    <nd ref="375791093"/>
    <nd ref="12637376710"/>
    <nd ref="375791119"/>
    <nd ref="12637376709"/>
    <nd ref="1843748919"/>
    <nd ref="375791130"/>
    <tag k="highway" v="residential"/>
    <tag k="lane_markings" v="no"/>
    <tag k="maxspeed" v="40"/>
    <tag k="name" v="U Vápenice"/>
    <tag k="source:maxspeed" v="zone"/>
    <tag k="surface" v="asphalt"/>
  </way>
  <way id="173586546" version="10" timestamp="2023-09-08T10:04:36Z" changeset="140979727" uid="375453" user="Hlad">
    <nd ref="8619141223"/>
    <nd ref="1843748921"/>
    <nd ref="1843748920"/>
    <nd ref="1843748913"/>
    <nd ref="1843748903"/>
    <tag k="highway" v="residential"/>
    <tag k="lane_markings" v="no"/>
    <tag k="maxspeed" v="40"/>
    <tag k="name" v="K Dobré vodě"/>
    <tag k="oneway" v="no"/>
    <tag k="source:maxspeed" v="zone"/>
    <tag k="surface" v="asphalt"/>
    <tag k="width" v="3"/>
  </way>
  <way id="218364822" version="19" timestamp="2024-09-16T10:27:09Z" changeset="156681527" uid="8971394" user="vojtechzaboril">
    <nd ref="703039"/>
    <nd ref="8589634633"/>
    <nd ref="8589634632"/>
    <nd ref="8009951911"/>
    <nd ref="8589634631"/>
    <nd ref="8589634630"/>
    <nd ref="8589634629"/>
    <nd ref="8009958965"/>
    <nd ref="8589634628"/>
    <nd ref="320918018"/>
    <nd ref="8589634627"/>
    <nd ref="8589634626"/>
    <nd ref="8589634625"/>
    <nd ref="8009951917"/>
    <nd ref="8589634624"/>
    <nd ref="8589634623"/>
    <nd ref="8009958995"/>
    <nd ref="8589634622"/>
    <nd ref="8589634621"/>
    <nd ref="703036"/>
    <nd ref="8589634620"/>
    <nd ref="8589634619"/>
    <nd ref="8009958982"/>
    <nd ref="8589634618"/>
    <nd ref="8589634617"/>
    <nd ref="8009951948"/>
    <nd ref="8589592116"/>
    <nd ref="8589592115"/>
    <nd ref="966842529"/>
    <nd ref="8589592114"/>
    <nd ref="8009958941"/>
    <nd ref="8589592113"/>
    <nd ref="8009958902"/>
    <nd ref="8589592112"/>
    <nd ref="8589592111"/>
    <nd ref="252067"/>
    <nd ref="8589592110"/>
    <nd ref="8589592109"/>
    <nd ref="8589592108"/>
    <nd ref="8009951982"/>
    <nd ref="8589592107"/>
    <nd ref="252066"/>
    <nd ref="8589592106"/>
    <nd ref="8589592105"/>
    <nd ref="8009958996"/>
    <nd ref="8589592104"/>
    <nd ref="8009951918"/>
    <nd ref="8589592103"/>
    <nd ref="8589592102"/>
    <nd ref="25933712"/>
    <nd ref="8589592101"/>
    <nd ref="8589592100"/>
    <nd ref="8009958974"/>
    <nd ref="8589592099"/>
    <nd ref="8589592098"/>
    <nd ref="8589592097"/>
    <nd ref="25933729"/>
    <nd ref="8589592096"/>
    <nd ref="8589592095"/>
    <nd ref="8589592094"/>
    <nd ref="8009958933"/>
    <nd ref="8589592093"/>
    <nd ref="8589592092"/>
    <nd ref="8589592091"/>
    <nd ref="25933741"/>
    <nd ref="8589592090"/>
    <nd ref="8589592088"/>
    <nd ref="8589592089"/>
    <nd ref="8589592087"/>
    <nd ref="8009951954"/>
    <nd ref="8589592086"/>
    <nd ref="8589592085"/>
    <nd ref="8589592084"/>
    <nd ref="8589592083"/>
    <nd ref="25933758"/>
    <nd ref="8589592082"/>
    <nd ref="8589592081"/>
    <nd ref="8589592080"/>
    <nd ref="8589592077"/>
    <nd ref="8589592076"/>
    <nd ref="8589592075"/>
    <nd ref="8589592074"/>
    <nd ref="25933909"/>
    <nd ref="8589592073"/>
    <nd ref="8589592072"/>
    <nd ref="8589592071"/>
    <nd ref="8589592070"/>
    <nd ref="25934193"/>
    <nd ref="8589592069"/>
    <nd ref="8589592068"/>
    <nd ref="8589592067"/>
    <nd ref="8399261921"/>
    <nd ref="8589592066"/>
    <nd ref="8589592065"/>
    <nd ref="8589592064"/>
    <nd ref="4936821414"/>
    <nd ref="1727478425"/>
    <nd ref="10676566346"/>
    <nd ref="8589592063"/>
    <nd ref="105045930"/>
    <tag k="highway" v="motorway"/>
    <tag k="int_ref" v="E 50"/>
    <tag k="lanes" v="2"/>
    <tag k="maxheight" v="default"/>
    <tag k="maxspeed" v="130"/>
    <tag k="name" v="Pražský okruh"/>
    <tag k="name:de" v="Prager Ring"/>
    <tag k="name:en" v="Prague Ring"/>
    <tag k="oneway" v="yes"/>
    <tag k="ref" v="D0"/>
    <tag k="source:maxspeed" v="CZ:motorway"/>
    <tag k="surface" v="concrete"/>
    <tag k="toll" v="no"/>
    <tag k="toll:hgv" v="yes"/>
  </way>
  <way id="219022353" version="14" timestamp="2021-04-03T14:35:25Z" changeset="102238743" uid="11276832" user="HaPe-CZ">
    <nd ref="2282265696"/>
    <nd ref="4936821415"/>
    <nd ref="8589634748"/>
    <nd ref="8589634747"/>
    <nd ref="8589634746"/>
    <nd ref="8399261922"/>
    <nd ref="8589634745"/>
    <nd ref="8589634744"/>
    <nd ref="8589634743"/>
    <nd ref="8589634742"/>
    <nd ref="8589634741"/>
    <nd ref="25934194"/>
    <nd ref="8589634740"/>
    <nd ref="8589634739"/>
    <nd ref="8589634738"/>
    <nd ref="8589634737"/>
    <nd ref="8589634736"/>
    <nd ref="25933938"/>
    <nd ref="8589634735"/>
    <nd ref="8589634734"/>
    <nd ref="8589634733"/>
    <nd ref="8589634732"/>
    <nd ref="8589634731"/>
    <nd ref="8589634730"/>
    <nd ref="8589634729"/>
    <nd ref="8589634728"/>
    <nd ref="8589634727"/>
    <nd ref="25933765"/>
    <nd ref="8589634726"/>
    <nd ref="8589634725"/>
    <nd ref="8589634724"/>
    <nd ref="8589634723"/>
    <nd ref="8589634722"/>
    <nd ref="8009951975"/>
    <nd ref="8589634721"/>
    <nd ref="8589634720"/>
    <nd ref="8589634719"/>
    <nd ref="8589634718"/>
    <nd ref="25933750"/>
    <nd ref="8009958913"/>
    <nd ref="8589634717"/>
    <nd ref="8589634716"/>
    <nd ref="8589634715"/>
    <nd ref="8589634714"/>
    <nd ref="8009958895"/>
    <nd ref="8589634713"/>
    <nd ref="25933733"/>
    <nd ref="8589634712"/>
    <nd ref="8589634711"/>
    <nd ref="8589634710"/>
    <nd ref="8009958952"/>
    <nd ref="8589634709"/>
    <nd ref="8589634708"/>
    <nd ref="25933724"/>
    <nd ref="8589634707"/>
    <nd ref="8589634706"/>
    <nd ref="8589634705"/>
    <nd ref="8009951939"/>
    <nd ref="8589634704"/>
    <nd ref="8589634703"/>
    <nd ref="21456344"/>
    <nd ref="8589634702"/>
    <nd ref="8589634701"/>
    <nd ref="8009951961"/>
    <nd ref="8589634699"/>
    <nd ref="8589634700"/>
    <nd ref="8589634698"/>
    <nd ref="21456345"/>
    <nd ref="8589634697"/>
    <nd ref="8009958921"/>
    <nd ref="8589634696"/>
    <nd ref="8589634695"/>
    <nd ref="8009958961"/>
    <nd ref="8589634694"/>
    <nd ref="8589634693"/>
    <nd ref="1359421626"/>
    <nd ref="8589634692"/>
    <nd ref="8009951927"/>
    <nd ref="8589634691"/>
    <nd ref="8589634690"/>
    <nd ref="8009951906"/>
    <nd ref="8589634689"/>
    <nd ref="8589634688"/>
    <nd ref="21456346"/>
    <nd ref="8589634687"/>
    <nd ref="8009958973"/>
    <nd ref="8589634685"/>
    <nd ref="8589634686"/>
    <nd ref="8009958951"/>
    <nd ref="8589634684"/>
    <nd ref="8589634683"/>
    <nd ref="320918020"/>
    <nd ref="8589634682"/>
    <nd ref="8009958987"/>
    <nd ref="8589634681"/>
    <nd ref="8589634679"/>
    <nd ref="8589634680"/>
    <nd ref="21456347"/>
    <nd ref="8589634678"/>
    <nd ref="8589634677"/>
    <nd ref="4742092463"/>
    <tag k="highway" v="motorway"/>
    <tag k="int_ref" v="E 50"/>
    <tag k="lanes" v="2"/>
    <tag k="maxheight" v="default"/>
    <tag k="maxspeed" v="130"/>
    <tag k="name" v="Pražský okruh"/>
    <tag k="name:de" v="Prager Ring"/>
    <tag k="name:en" v="Prague Ring"/>
    <tag k="oneway" v="yes"/>
    <tag k="ref" v="D0"/>
    <tag k="source:maxspeed" v="CZ:motorway"/>
    <tag k="surface" v="concrete"/>
    <tag k="toll" v="no"/>
    <tag k="toll:hgv" v="yes"/>
  </way>
  <way id="285325619" version="4" timestamp="2024-03-30T20:10:37Z" changeset="149365661" uid="10932047" user="AF HAF KARTOGRAF">
    <nd ref="2889926529"/>
    <nd ref="2889926545"/>
    <nd ref="2889926547"/>
    <nd ref="2889926564"/>
    <nd ref="2889926567"/>
    <nd ref="3747212777"/>
    <nd ref="3747212766"/>
    <nd ref="2889926487"/>
    <nd ref="2889926484"/>
    <nd ref="2889926528"/>
    <nd ref="2889926529"/>
    <tag k="addr:conscriptionnumber" v="103"/>
    <tag k="addr:country" v="CZ"/>
    <tag k="addr:housenumber" v="103/4"/>
    <tag k="addr:postcode" v="15400"/>
    <tag k="addr:street" v="Pod vysokou mezí"/>
    <tag k="addr:streetnumber" v="4"/>
    <tag k="building" v="residential"/>
    <tag k="building:flats" v="1"/>
    <tag k="building:levels" v="1"/>
    <tag k="building:ruian:type" v="3"/>
    <tag k="ref:ruian:addr" v="22009850"/>
    <tag k="ref:ruian:building" v="21569509"/>
    <tag k="source" v="cuzk:ruian"/>
  </way>
  <way id="285325620" version="4" timestamp="2024-03-30T20:10:37Z" changeset="149365661" uid="10932047" user="AF HAF KARTOGRAF">
    <nd ref="2889926471"/>
    <nd ref="3747212765"/>
    <nd ref="2889926486"/>
    <nd ref="2889926527"/>
    <nd ref="2889926526"/>
    <nd ref="3747212771"/>
    <nd ref="3747212772"/>
    <nd ref="2889926532"/>
    <nd ref="3747212773"/>
    <nd ref="3747212774"/>
    <nd ref="3747212775"/>
    <nd ref="3747212776"/>
    <nd ref="2889926535"/>
    <nd ref="2889926543"/>
    <nd ref="2889926538"/>
    <nd ref="2889926525"/>
    <nd ref="3747212768"/>
    <nd ref="3747212764"/>
    <nd ref="2889926481"/>
    <nd ref="2889926471"/>
    <tag k="addr:conscriptionnumber" v="104"/>
    <tag k="addr:country" v="CZ"/>
    <tag k="addr:housenumber" v="104/6"/>
    <tag k="addr:postcode" v="15400"/>
    <tag k="addr:street" v="Pod vysokou mezí"/>
    <tag k="addr:streetnumber" v="6"/>
    <tag k="building" v="residential"/>
    <tag k="building:flats" v="1"/>
    <tag k="building:levels" v="1"/>
    <tag k="building:ruian:type" v="3"/>
    <tag k="ref:ruian:addr" v="22009868"/>
    <tag k="ref:ruian:building" v="21569517"/>
    <tag k="source" v="cuzk:ruian"/>
  </way>
  <way id="285325621" version="4" timestamp="2024-03-30T20:10:37Z" changeset="149365661" uid="10932047" user="AF HAF KARTOGRAF">
    <nd ref="2889926986"/>
    <nd ref="2889926994"/>
    <nd ref="2889926990"/>
    <nd ref="2889927116"/>
    <nd ref="2889926987"/>
    <nd ref="2889926964"/>
    <nd ref="2889926986"/>
    <tag k="addr:conscriptionnumber" v="110"/>
    <tag k="addr:country" v="CZ"/>
    <tag k="addr:housenumber" v="110/14"/>
    <tag k="addr:postcode" v="15400"/>
    <tag k="addr:street" v="Kopanská"/>
    <tag k="addr:streetnumber" v="14"/>
    <tag k="building" v="residential"/>
    <tag k="building:flats" v="1"/>
    <tag k="building:levels" v="1"/>
    <tag k="building:ruian:type" v="3"/>
    <tag k="ref:ruian:addr" v="22009922"/>
    <tag k="ref:ruian:building" v="21569576"/>
    <tag k="source" v="cuzk:ruian"/>
  </way>
  <way id="285325622" version="4" timestamp="2024-03-30T20:10:37Z" changeset="149365661" uid="10932047" user="AF HAF KARTOGRAF">
    <nd ref="2889927775"/>
    <nd ref="2889927782"/>
    <nd ref="2889927786"/>
    <nd ref="2889927781"/>
    <nd ref="2889927780"/>
    <nd ref="2889927749"/>
    <nd ref="2889927738"/>
    <nd ref="2889927752"/>
    <nd ref="2889927745"/>
    <nd ref="2889927771"/>
    <nd ref="2889927775"/>
    <tag k="addr:conscriptionnumber" v="124"/>
    <tag k="addr:country" v="CZ"/>
    <tag k="addr:housenumber" v="124/1"/>
    <tag k="addr:postcode" v="15400"/>
    <tag k="addr:street" v="Kotovka"/>
    <tag k="addr:streetnumber" v="1"/>
    <tag k="building" v="house"/>
    <tag k="building:flats" v="1"/>
    <tag k="building:levels" v="1"/>
    <tag k="building:ruian:type" v="7"/>
    <tag k="ref:ruian:addr" v="22010050"/>
    <tag k="ref:ruian:building" v="21569703"/>
    <tag k="source" v="cuzk:ruian"/>
  </way>
  <way id="285325623" version="4" timestamp="2024-03-30T20:10:37Z" changeset="149365661" uid="10932047" user="AF HAF KARTOGRAF">
    <nd ref="2889927889"/>
    <nd ref="2889927871"/>
    <nd ref="2889927880"/>
    <nd ref="2889927859"/>
    <nd ref="2889927856"/>
    <nd ref="2889927849"/>
    <nd ref="2889927841"/>
    <nd ref="2889927864"/>
    <nd ref="2889927889"/>
    <tag k="addr:conscriptionnumber" v="2"/>
    <tag k="addr:country" v="CZ"/>
    <tag k="addr:housenumber" v="2/2"/>
    <tag k="addr:postcode" v="15400"/>
    <tag k="addr:street" v="náměstí Pod lípou"/>
    <tag k="addr:streetnumber" v="2"/>
    <tag k="building" v="residential"/>
    <tag k="building:flats" v="1"/>
    <tag k="building:levels" v="1"/>
    <tag k="building:ruian:type" v="3"/>
    <tag k="ref:ruian:addr" v="22008926"/>
    <tag k="ref:ruian:building" v="21568545"/>
    <tag k="source" v="cuzk:ruian"/>
  </way>
  <way id="285325624" version="4" timestamp="2024-03-30T20:10:37Z" changeset="149365661" uid="10932047" user="AF HAF KARTOGRAF">
    <nd ref="2889927707"/>
    <nd ref="2889927710"/>
    <nd ref="2889927700"/>
    <nd ref="2889927693"/>
    <nd ref="2889927707"/>
    <tag k="addr:conscriptionnumber" v="38"/>
    <tag k="addr:country" v="CZ"/>
    <tag k="addr:housenumber" v="38/5"/>
    <tag k="addr:postcode" v="15400"/>
    <tag k="addr:street" v="U smolnic"/>
    <tag k="addr:streetnumber" v="5"/>
    <tag k="building" v="residential"/>
    <tag k="building:flats" v="1"/>
    <tag k="building:levels" v="1"/>
    <tag k="building:ruian:type" v="3"/>
    <tag k="ref:ruian:addr" v="22009248"/>
    <tag k="ref:ruian:building" v="21568871"/>
    <tag k="source" v="cuzk:ruian"/>
  </way>
  <way id="285325625" version="4" timestamp="2024-03-30T20:10:37Z" changeset="149365661" uid="10932047" user="AF HAF KARTOGRAF">
    <nd ref="2889927712"/>
    <nd ref="2889927718"/>
    <nd ref="2889927709"/>
    <nd ref="2889927705"/>
    <nd ref="3747213715"/>
    <nd ref="2889927682"/>
    <nd ref="2889927712"/>
    <tag k="addr:conscriptionnumber" v="39"/>
    <tag k="addr:country" v="CZ"/>
    <tag k="addr:housenumber" v="39/3"/>
    <tag k="addr:postcode" v="15400"/>
    <tag k="addr:street" v="U smolnic"/>
    <tag k="addr:streetnumber" v="3"/>
    <tag k="building" v="house"/>
    <tag k="building:flats" v="1"/>
    <tag k="building:levels" v="1"/>
    <tag k="building:ruian:type" v="7"/>
    <tag k="ref:ruian:addr" v="22009256"/>
    <tag k="ref:ruian:building" v="21568880"/>
    <tag k="source" v="cuzk:ruian"/>
  </way>
  <way id="285325626" version="5" timestamp="2024-03-30T20:10:37Z" changeset="149365661" uid="10932047" user="AF HAF KARTOGRAF">
    <nd ref="2889927663"/>
    <nd ref="2889927660"/>
    <nd ref="2889927685"/>
    <nd ref="2889927683"/>
    <nd ref="2889927668"/>
    <nd ref="2889927666"/>
    <nd ref="2889927677"/>
    <nd ref="2889927673"/>
    <nd ref="2889927690"/>
    <nd ref="2889927696"/>
    <nd ref="2889927702"/>
    <nd ref="2889927687"/>
    <nd ref="2889927678"/>
    <nd ref="2889927663"/>
    <tag k="addr:conscriptionnumber" v="43"/>
    <tag k="addr:country" v="CZ"/>
    <tag k="addr:housenumber" v="43/7"/>
    <tag k="addr:postcode" v="15400"/>
    <tag k="addr:street" v="U smolnic"/>
    <tag k="addr:streetnumber" v="7"/>
    <tag k="building" v="house"/>
    <tag k="building:flats" v="1"/>
    <tag k="building:levels" v="1"/>
    <tag k="building:ruian:type" v="7"/>
    <tag k="ref:ruian:addr" v="22009299"/>
    <tag k="ref:ruian:building" v="21568928"/>
    <tag k="source" v="cuzk:ruian"/>
  </way>
  <way id="285325627" version="4" timestamp="2024-03-30T20:10:37Z" changeset="149365661" uid="10932047" user="AF HAF KARTOGRAF">
    <nd ref="2889927436"/>
    <nd ref="2889927427"/>
    <nd ref="2889927442"/>
    <nd ref="3747213667"/>
    <nd ref="2889927192"/>
    <nd ref="2889927168"/>
    <nd ref="2889927166"/>
    <nd ref="2889927145"/>
    <nd ref="3747213663"/>
    <nd ref="3747213662"/>
    <nd ref="2889927198"/>
    <nd ref="2889927436"/>
    <tag k="addr:conscriptionnumber" v="51"/>
    <tag k="addr:country" v="CZ"/>
    <tag k="addr:housenumber" v="51/8"/>
    <tag k="addr:postcode" v="15400"/>
    <tag k="addr:street" v="Zavátá"/>
    <tag k="addr:streetnumber" v="8"/>
    <tag k="building" v="residential"/>
    <tag k="building:flats" v="3"/>
    <tag k="building:levels" v="2"/>
    <tag k="building:ruian:type" v="3"/>
    <tag k="ref:ruian:addr" v="22009370"/>
    <tag k="ref:ruian:building" v="21569002"/>
    <tag k="source" v="cuzk:ruian"/>
  </way>
  <way id="285325628" version="4" timestamp="2024-03-30T20:10:37Z" changeset="149365661" uid="10932047" user="AF HAF KARTOGRAF">
    <nd ref="2889927655"/>
    <nd ref="2889927653"/>
    <nd ref="2889927609"/>
    <nd ref="2889927610"/>
    <nd ref="2889927612"/>
    <nd ref="2889927613"/>
    <nd ref="2889927624"/>
    <nd ref="2889927623"/>
    <nd ref="2889927642"/>
    <nd ref="2889927640"/>
    <nd ref="2889927655"/>
    <tag k="addr:conscriptionnumber" v="54"/>
    <tag k="addr:country" v="CZ"/>
    <tag k="addr:housenumber" v="54/10"/>
    <tag k="addr:postcode" v="15400"/>
    <tag k="addr:street" v="U náhonu"/>
    <tag k="addr:streetnumber" v="10"/>
    <tag k="building" v="residential"/>
    <tag k="building:flats" v="1"/>
    <tag k="building:levels" v="1"/>
    <tag k="building:ruian:type" v="3"/>
    <tag k="ref:ruian:addr" v="22009396"/>
    <tag k="ref:ruian:building" v="21569029"/>
    <tag k="source" v="cuzk:ruian"/>
  </way>
  <way id="285325629" version="4" timestamp="2024-03-30T20:10:37Z" changeset="149365661" uid="10932047" user="AF HAF KARTOGRAF">
    <nd ref="2889927452"/>
    <nd ref="2889927460"/>
    <nd ref="2889927463"/>
    <nd ref="2889927467"/>
    <nd ref="2889927469"/>
    <nd ref="2889927457"/>
    <nd ref="2889927454"/>
    <nd ref="2889927415"/>
    <nd ref="2889927411"/>
    <nd ref="2889927425"/>
    <nd ref="2889927420"/>
    <nd ref="2889927453"/>
    <nd ref="2889927452"/>
    <tag k="addr:conscriptionnumber" v="57"/>
    <tag k="addr:country" v="CZ"/>
    <tag k="addr:housenumber" v="57/5"/>
    <tag k="addr:postcode" v="15400"/>
    <tag k="addr:street" v="Průtažní"/>
    <tag k="addr:streetnumber" v="5"/>
    <tag k="building" v="residential"/>
    <tag k="building:flats" v="1"/>
    <tag k="building:levels" v="1"/>
    <tag k="building:ruian:type" v="3"/>
    <tag k="ref:ruian:addr" v="22009426"/>
    <tag k="ref:ruian:building" v="21569053"/>
    <tag k="source" v="cuzk:ruian"/>
  </way>
  <way id="285325630" version="4" timestamp="2024-03-30T20:10:37Z" changeset="149365661" uid="10932047" user="AF HAF KARTOGRAF">
    <nd ref="2889926967"/>
    <nd ref="2889927115"/>
    <nd ref="2889927114"/>
    <nd ref="2889926963"/>
    <nd ref="2889926967"/>
    <tag k="addr:conscriptionnumber" v="58"/>
    <tag k="addr:country" v="CZ"/>
    <tag k="addr:housenumber" v="58/16"/>
    <tag k="addr:postcode" v="15400"/>
    <tag k="addr:street" v="U náhonu"/>
    <tag k="addr:streetnumber" v="16"/>
    <tag k="building" v="residential"/>
    <tag k="building:flats" v="1"/>
    <tag k="building:levels" v="1"/>
    <tag k="building:ruian:type" v="3"/>
    <tag k="ref:ruian:addr" v="22009434"/>
    <tag k="ref:ruian:building" v="21569061"/>
    <tag k="source" v="cuzk:ruian"/>
  </way>
  <way id="285325631" version="4" timestamp="2024-03-30T20:10:37Z" changeset="149365661" uid="10932047" user="AF HAF KARTOGRAF">
    <nd ref="2889927163"/>
    <nd ref="2889927177"/>
    <nd ref="2889927178"/>
    <nd ref="2889927419"/>
    <nd ref="2889927416"/>
    <nd ref="2889927160"/>
    <nd ref="2889927163"/>
    <tag k="addr:conscriptionnumber" v="59"/>
    <tag k="addr:country" v="CZ"/>
    <tag k="addr:housenumber" v="59/14"/>
    <tag k="addr:postcode" v="15400"/>
    <tag k="addr:street" v="U náhonu"/>
    <tag k="addr:streetnumber" v="14"/>
    <tag k="building" v="residential"/>
    <tag k="building:flats" v="1"/>
    <tag k="building:levels" v="1"/>
    <tag k="building:ruian:type" v="3"/>
    <tag k="ref:ruian:addr" v="22009442"/>
    <tag k="ref:ruian:building" v="21569070"/>
    <tag k="source" v="cuzk:ruian"/>
  </way>
  <way id="285325632" version="4" timestamp="2024-03-30T20:10:37Z" changeset="149365661" uid="10932047" user="AF HAF KARTOGRAF">
    <nd ref="2889927465"/>
    <nd ref="2889927474"/>
    <nd ref="2889927455"/>
    <nd ref="2889927451"/>
    <nd ref="2889927459"/>
    <nd ref="2889927450"/>
    <nd ref="2889927465"/>
    <tag k="addr:conscriptionnumber" v="60"/>
    <tag k="addr:country" v="CZ"/>
    <tag k="addr:housenumber" v="60/3"/>
    <tag k="addr:postcode" v="15400"/>
    <tag k="addr:street" v="Průtažní"/>
    <tag k="addr:streetnumber" v="3"/>
    <tag k="building" v="residential"/>
    <tag k="building:flats" v="1"/>
    <tag k="building:levels" v="1"/>
    <tag k="building:ruian:type" v="3"/>
    <tag k="ref:ruian:addr" v="22009451"/>
    <tag k="ref:ruian:building" v="21569088"/>
    <tag k="source" v="cuzk:ruian"/>
  </way>
  <way id="285325633" version="4" timestamp="2024-03-30T20:10:37Z" changeset="149365661" uid="10932047" user="AF HAF KARTOGRAF">
    <nd ref="2889927146"/>
    <nd ref="2889927181"/>
    <nd ref="2889927183"/>
    <nd ref="2889927173"/>
    <nd ref="2889927174"/>
    <nd ref="2889927155"/>
    <nd ref="2889927154"/>
    <nd ref="2889927148"/>
    <nd ref="2889927146"/>
    <tag k="addr:conscriptionnumber" v="61"/>
    <tag k="addr:country" v="CZ"/>
    <tag k="addr:housenumber" v="61/6"/>
    <tag k="addr:postcode" v="15400"/>
    <tag k="addr:street" v="Zavátá"/>
    <tag k="addr:streetnumber" v="6"/>
    <tag k="building" v="residential"/>
    <tag k="building:flats" v="1"/>
    <tag k="building:levels" v="1"/>
    <tag k="building:ruian:type" v="3"/>
    <tag k="ref:ruian:addr" v="22009469"/>
    <tag k="ref:ruian:building" v="21569096"/>
    <tag k="source" v="cuzk:ruian"/>
  </way>
  <way id="285325634" version="4" timestamp="2024-03-30T20:10:37Z" changeset="149365661" uid="10932047" user="AF HAF KARTOGRAF">
    <nd ref="2889927101"/>
    <nd ref="2889926983"/>
    <nd ref="3747213639"/>
    <nd ref="2889926976"/>
    <nd ref="2889926969"/>
    <nd ref="2889926975"/>
    <nd ref="2889926968"/>
    <nd ref="3747213640"/>
    <nd ref="3747213641"/>
    <nd ref="2889926974"/>
    <nd ref="2889927000"/>
    <nd ref="2889926977"/>
    <nd ref="2889927101"/>
    <tag k="addr:conscriptionnumber" v="63"/>
    <tag k="addr:country" v="CZ"/>
    <tag k="addr:housenumber" v="63/5"/>
    <tag k="addr:postcode" v="15400"/>
    <tag k="addr:street" v="Zavátá"/>
    <tag k="addr:streetnumber" v="5"/>
    <tag k="building" v="residential"/>
    <tag k="building:flats" v="1"/>
    <tag k="building:levels" v="1"/>
    <tag k="building:ruian:type" v="3"/>
    <tag k="ref:ruian:addr" v="22009485"/>
    <tag k="ref:ruian:building" v="21569118"/>
    <tag k="source" v="cuzk:ruian"/>
  </way>
  <way id="285325635" version="4" timestamp="2024-03-30T20:10:37Z" changeset="149365661" uid="10932047" user="AF HAF KARTOGRAF">
    <nd ref="2889926960"/>
    <nd ref="2889926995"/>
    <nd ref="2889926997"/>
    <nd ref="2889927106"/>
    <nd ref="2889927107"/>
    <nd ref="2889926988"/>
    <nd ref="2889926989"/>
    <nd ref="2889926961"/>
    <nd ref="2889926960"/>
    <tag k="addr:conscriptionnumber" v="64"/>
    <tag k="addr:country" v="CZ"/>
    <tag k="addr:housenumber" v="64/1"/>
    <tag k="addr:postcode" v="15400"/>
    <tag k="addr:street" v="Zavátá"/>
    <tag k="addr:streetnumber" v="1"/>
    <tag k="building" v="residential"/>
    <tag k="building:flats" v="1"/>
    <tag k="building:levels" v="1"/>
    <tag k="building:ruian:type" v="3"/>
    <tag k="ref:ruian:addr" v="22009493"/>
    <tag k="ref:ruian:building" v="21569126"/>
    <tag k="source" v="bing:ortofoto;cuzk:km"/>
    <tag k="source:addr" v="cuzk:ruian"/>
  </way>
  <way id="285325636" version="4" timestamp="2024-03-30T20:10:37Z" changeset="149365661" uid="10932047" user="AF HAF KARTOGRAF">
    <nd ref="2889927150"/>
    <nd ref="2889927175"/>
    <nd ref="2889927176"/>
    <nd ref="2889927186"/>
    <nd ref="2889927190"/>
    <nd ref="2889927151"/>
    <nd ref="2889927150"/>
    <tag k="addr:conscriptionnumber" v="65"/>
    <tag k="addr:country" v="CZ"/>
    <tag k="addr:housenumber" v="65/4"/>
    <tag k="addr:postcode" v="15400"/>
    <tag k="addr:street" v="Zavátá"/>
    <tag k="addr:streetnumber" v="4"/>
    <tag k="building" v="residential"/>
    <tag k="building:flats" v="1"/>
    <tag k="building:levels" v="1"/>
    <tag k="building:ruian:type" v="3"/>
    <tag k="ref:ruian:addr" v="22009507"/>
    <tag k="ref:ruian:building" v="21569134"/>
    <tag k="source" v="cuzk:ruian"/>
  </way>
  <way id="285325637" version="4" timestamp="2024-03-30T20:10:37Z" changeset="149365661" uid="10932047" user="AF HAF KARTOGRAF">
    <nd ref="2889927182"/>
    <nd ref="2889927156"/>
    <nd ref="2889927153"/>
    <nd ref="2889927179"/>
    <nd ref="2889927182"/>
    <tag k="addr:conscriptionnumber" v="66"/>
    <tag k="addr:country" v="CZ"/>
    <tag k="addr:housenumber" v="66/2"/>
    <tag k="addr:postcode" v="15400"/>
    <tag k="addr:street" v="Zavátá"/>
    <tag k="addr:streetnumber" v="2"/>
    <tag k="building" v="residential"/>
    <tag k="building:flats" v="1"/>
    <tag k="building:levels" v="1"/>
    <tag k="building:ruian:type" v="3"/>
    <tag k="ref:ruian:addr" v="22009515"/>
    <tag k="ref:ruian:building" v="21569142"/>
    <tag k="source" v="cuzk:ruian"/>
  </way>
  <way id="285325638" version="4" timestamp="2024-03-30T20:10:37Z" changeset="149365661" uid="10932047" user="AF HAF KARTOGRAF">
    <nd ref="2889926985"/>
    <nd ref="2889926983"/>
    <nd ref="2889927101"/>
    <nd ref="2889927104"/>
    <nd ref="2889926978"/>
    <nd ref="2889926979"/>
    <nd ref="2889926959"/>
    <nd ref="2889926955"/>
    <nd ref="2889926985"/>
    <tag k="addr:conscriptionnumber" v="69"/>
    <tag k="addr:country" v="CZ"/>
    <tag k="addr:housenumber" v="69/3"/>
    <tag k="addr:postcode" v="15400"/>
    <tag k="addr:street" v="Zavátá"/>
    <tag k="addr:streetnumber" v="3"/>
    <tag k="building" v="residential"/>
    <tag k="building:flats" v="1"/>
    <tag k="building:levels" v="1"/>
    <tag k="building:ruian:type" v="3"/>
    <tag k="ref:ruian:addr" v="22009540"/>
    <tag k="ref:ruian:building" v="21569177"/>
    <tag k="source" v="cuzk:ruian"/>
  </way>
  <way id="285325639" version="4" timestamp="2024-03-30T20:10:37Z" changeset="149365661" uid="10932047" user="AF HAF KARTOGRAF">
    <nd ref="2889926706"/>
    <nd ref="2889926729"/>
    <nd ref="2889926726"/>
    <nd ref="2889926738"/>
    <nd ref="2889926733"/>
    <nd ref="2889926731"/>
    <nd ref="2889926730"/>
    <nd ref="2889926705"/>
    <nd ref="2889926706"/>
    <tag k="addr:conscriptionnumber" v="70"/>
    <tag k="addr:country" v="CZ"/>
    <tag k="addr:housenumber" v="70/4"/>
    <tag k="addr:postcode" v="15400"/>
    <tag k="addr:street" v="K lípě"/>
    <tag k="addr:streetnumber" v="4"/>
    <tag k="building" v="residential"/>
    <tag k="building:flats" v="1"/>
    <tag k="building:levels" v="1"/>
    <tag k="building:ruian:type" v="3"/>
    <tag k="ref:ruian:addr" v="22009558"/>
    <tag k="ref:ruian:building" v="21569185"/>
    <tag k="source" v="cuzk:ruian"/>
  </way>
  <way id="285325640" version="4" timestamp="2024-03-30T20:10:37Z" changeset="149365661" uid="10932047" user="AF HAF KARTOGRAF">
    <nd ref="2889926982"/>
    <nd ref="2889926984"/>
    <nd ref="2889926999"/>
    <nd ref="3747213645"/>
    <nd ref="3747213644"/>
    <nd ref="2889927102"/>
    <nd ref="2889926991"/>
    <nd ref="2889926998"/>
    <nd ref="2889926962"/>
    <nd ref="2889926954"/>
    <nd ref="2889926973"/>
    <nd ref="2889926982"/>
    <tag k="addr:conscriptionnumber" v="72"/>
    <tag k="addr:country" v="CZ"/>
    <tag k="addr:housenumber" v="72/7"/>
    <tag k="addr:postcode" v="15400"/>
    <tag k="addr:street" v="Zavátá"/>
    <tag k="addr:streetnumber" v="7"/>
    <tag k="building" v="residential"/>
    <tag k="building:flats" v="1"/>
    <tag k="building:levels" v="1"/>
    <tag k="building:ruian:type" v="3"/>
    <tag k="ref:ruian:addr" v="22009574"/>
    <tag k="ref:ruian:building" v="21569207"/>
    <tag k="source" v="cuzk:ruian"/>
  </way>
  <way id="285325641" version="6" timestamp="2024-03-30T20:10:37Z" changeset="149365661" uid="10932047" user="AF HAF KARTOGRAF">
    <nd ref="2889926661"/>
    <nd ref="2889926663"/>
    <nd ref="2889926655"/>
    <nd ref="2889926634"/>
    <nd ref="2889926628"/>
    <nd ref="2889926661"/>
    <tag k="addr:conscriptionnumber" v="73"/>
    <tag k="addr:country" v="CZ"/>
    <tag k="addr:housenumber" v="73/5"/>
    <tag k="addr:postcode" v="15400"/>
    <tag k="addr:street" v="K lípě"/>
    <tag k="addr:streetnumber" v="5"/>
    <tag k="building" v="residential"/>
    <tag k="building:flats" v="1"/>
    <tag k="building:levels" v="1"/>
    <tag k="building:ruian:type" v="3"/>
    <tag k="ref:ruian:addr" v="22009582"/>
    <tag k="ref:ruian:building" v="21569215"/>
    <tag k="source" v="cuzk:ruian"/>
  </way>
  <way id="285325642" version="4" timestamp="2024-03-30T20:10:37Z" changeset="149365661" uid="10932047" user="AF HAF KARTOGRAF">
    <nd ref="2889926710"/>
    <nd ref="2889926744"/>
    <nd ref="2889926740"/>
    <nd ref="2889926709"/>
    <nd ref="2889926710"/>
    <tag k="addr:conscriptionnumber" v="75"/>
    <tag k="addr:country" v="CZ"/>
    <tag k="addr:housenumber" v="75/8"/>
    <tag k="addr:postcode" v="15400"/>
    <tag k="addr:street" v="K lípě"/>
    <tag k="addr:streetnumber" v="8"/>
    <tag k="building" v="residential"/>
    <tag k="building:flats" v="1"/>
    <tag k="building:levels" v="1"/>
    <tag k="building:ruian:type" v="3"/>
    <tag k="ref:ruian:addr" v="22009604"/>
    <tag k="ref:ruian:building" v="21569231"/>
    <tag k="source" v="cuzk:ruian"/>
  </way>
  <way id="285325643" version="4" timestamp="2024-03-30T20:10:37Z" changeset="149365661" uid="10932047" user="AF HAF KARTOGRAF">
    <nd ref="2889926708"/>
    <nd ref="2889926728"/>
    <nd ref="2889926724"/>
    <nd ref="2889926737"/>
    <nd ref="2889926734"/>
    <nd ref="2889926722"/>
    <nd ref="2889926721"/>
    <nd ref="2889926707"/>
    <nd ref="2889926708"/>
    <tag k="addr:conscriptionnumber" v="77"/>
    <tag k="addr:country" v="CZ"/>
    <tag k="addr:housenumber" v="77/6"/>
    <tag k="addr:postcode" v="15400"/>
    <tag k="addr:street" v="K lípě"/>
    <tag k="addr:streetnumber" v="6"/>
    <tag k="building" v="residential"/>
    <tag k="building:flats" v="1"/>
    <tag k="building:levels" v="1"/>
    <tag k="building:ruian:type" v="3"/>
    <tag k="ref:ruian:addr" v="22009621"/>
    <tag k="ref:ruian:building" v="21569258"/>
    <tag k="source" v="cuzk:ruian"/>
  </way>
  <way id="285325644" version="4" timestamp="2024-03-30T20:10:37Z" changeset="149365661" uid="10932047" user="AF HAF KARTOGRAF">
    <nd ref="2889926716"/>
    <nd ref="2889926753"/>
    <nd ref="2889926749"/>
    <nd ref="2889926765"/>
    <nd ref="2889926762"/>
    <nd ref="2889926746"/>
    <nd ref="2889926745"/>
    <nd ref="2889926714"/>
    <nd ref="2889926716"/>
    <tag k="addr:conscriptionnumber" v="78"/>
    <tag k="addr:country" v="CZ"/>
    <tag k="addr:housenumber" v="78/10"/>
    <tag k="addr:postcode" v="15400"/>
    <tag k="addr:street" v="K lípě"/>
    <tag k="addr:streetnumber" v="10"/>
    <tag k="building" v="residential"/>
    <tag k="building:flats" v="2"/>
    <tag k="building:levels" v="1"/>
    <tag k="building:ruian:type" v="3"/>
    <tag k="ref:ruian:addr" v="22009639"/>
    <tag k="ref:ruian:building" v="21569266"/>
    <tag k="source" v="cuzk:ruian"/>
  </way>
  <way id="285325645" version="4" timestamp="2024-03-30T20:10:37Z" changeset="149365661" uid="10932047" user="AF HAF KARTOGRAF">
    <nd ref="3747212788"/>
    <nd ref="2889926660"/>
    <nd ref="2889926656"/>
    <nd ref="2889926640"/>
    <nd ref="2889926642"/>
    <nd ref="2889926629"/>
    <nd ref="2889926630"/>
    <nd ref="3747212787"/>
    <nd ref="3747212788"/>
    <tag k="addr:conscriptionnumber" v="79"/>
    <tag k="addr:country" v="CZ"/>
    <tag k="addr:housenumber" v="79/3"/>
    <tag k="addr:postcode" v="15400"/>
    <tag k="addr:street" v="K lípě"/>
    <tag k="addr:streetnumber" v="3"/>
    <tag k="building" v="residential"/>
    <tag k="building:flats" v="1"/>
    <tag k="building:levels" v="1"/>
    <tag k="building:ruian:type" v="3"/>
    <tag k="ref:ruian:addr" v="22009647"/>
    <tag k="ref:ruian:building" v="21569274"/>
    <tag k="source" v="cuzk:ruian"/>
  </way>
  <way id="285325646" version="6" timestamp="2024-03-30T20:10:37Z" changeset="149365661" uid="10932047" user="AF HAF KARTOGRAF">
    <nd ref="2889926926"/>
    <nd ref="2889926948"/>
    <nd ref="2889926950"/>
    <nd ref="2889926957"/>
    <nd ref="2889926953"/>
    <nd ref="2889926947"/>
    <nd ref="2889926945"/>
    <nd ref="3253065165"/>
    <nd ref="2889926924"/>
    <nd ref="2889926918"/>
    <nd ref="2889926926"/>
    <tag k="addr:conscriptionnumber" v="80"/>
    <tag k="addr:country" v="CZ"/>
    <tag k="addr:housenumber" v="80/9"/>
    <tag k="addr:postcode" v="15400"/>
    <tag k="addr:street" v="Zavátá"/>
    <tag k="addr:streetnumber" v="9"/>
    <tag k="building" v="residential"/>
    <tag k="building:flats" v="1"/>
    <tag k="building:levels" v="1"/>
    <tag k="building:ruian:type" v="3"/>
    <tag k="ref:ruian:addr" v="22009655"/>
    <tag k="ref:ruian:building" v="21569282"/>
    <tag k="source" v="cuzk:ruian"/>
  </way>
  <way id="285325647" version="4" timestamp="2024-03-30T20:10:37Z" changeset="149365661" uid="10932047" user="AF HAF KARTOGRAF">
    <nd ref="2889926646"/>
    <nd ref="2889926686"/>
    <nd ref="3747212800"/>
    <nd ref="3747212804"/>
    <nd ref="3747212805"/>
    <nd ref="3747212807"/>
    <nd ref="3747212808"/>
    <nd ref="3747212806"/>
    <nd ref="2889926687"/>
    <nd ref="3747212802"/>
    <nd ref="3747212799"/>
    <nd ref="2889926684"/>
    <nd ref="2889926676"/>
    <nd ref="2889926675"/>
    <nd ref="2889926647"/>
    <nd ref="2889926648"/>
    <nd ref="2889926645"/>
    <nd ref="2889926646"/>
    <tag k="addr:conscriptionnumber" v="83"/>
    <tag k="addr:country" v="CZ"/>
    <tag k="addr:housenumber" v="83/9"/>
    <tag k="addr:postcode" v="15400"/>
    <tag k="addr:street" v="K lípě"/>
    <tag k="addr:streetnumber" v="9"/>
    <tag k="building" v="residential"/>
    <tag k="building:flats" v="1"/>
    <tag k="building:levels" v="1"/>
    <tag k="building:ruian:type" v="3"/>
    <tag k="ref:ruian:addr" v="22009671"/>
    <tag k="ref:ruian:building" v="21569312"/>
    <tag k="source" v="cuzk:ruian"/>
  </way>
  <way id="285325648" version="4" timestamp="2024-03-30T20:10:37Z" changeset="149365661" uid="10932047" user="AF HAF KARTOGRAF">
    <nd ref="3747213638"/>
    <nd ref="3747213637"/>
    <nd ref="2889926939"/>
    <nd ref="2889926923"/>
    <nd ref="2889926920"/>
    <nd ref="2889926913"/>
    <nd ref="2889926911"/>
    <nd ref="2889926915"/>
    <nd ref="2889926914"/>
    <nd ref="2889926934"/>
    <nd ref="3747213638"/>
    <tag k="addr:conscriptionnumber" v="84"/>
    <tag k="addr:country" v="CZ"/>
    <tag k="addr:housenumber" v="84/11"/>
    <tag k="addr:postcode" v="15400"/>
    <tag k="addr:street" v="Zavátá"/>
    <tag k="addr:streetnumber" v="11"/>
    <tag k="building" v="residential"/>
    <tag k="building:flats" v="1"/>
    <tag k="building:levels" v="1"/>
    <tag k="building:ruian:type" v="3"/>
    <tag k="ref:ruian:addr" v="22009680"/>
    <tag k="ref:ruian:building" v="21569321"/>
    <tag k="source" v="cuzk:ruian"/>
  </way>
  <way id="285325649" version="4" timestamp="2024-03-30T20:10:37Z" changeset="149365661" uid="10932047" user="AF HAF KARTOGRAF">
    <nd ref="2889926465"/>
    <nd ref="2889926546"/>
    <nd ref="2889926548"/>
    <nd ref="2889926534"/>
    <nd ref="2889926533"/>
    <nd ref="2889926512"/>
    <nd ref="2889926515"/>
    <nd ref="3747212761"/>
    <nd ref="3747212760"/>
    <nd ref="2889926460"/>
    <nd ref="2889926456"/>
    <nd ref="2889926468"/>
    <nd ref="3747212759"/>
    <nd ref="2889926466"/>
    <nd ref="3747212756"/>
    <nd ref="3747212754"/>
    <nd ref="3747212752"/>
    <nd ref="3747212751"/>
    <nd ref="2889926455"/>
    <nd ref="3747212753"/>
    <nd ref="3747212755"/>
    <nd ref="3747212757"/>
    <nd ref="3747212758"/>
    <nd ref="2889926465"/>
    <tag k="addr:conscriptionnumber" v="87"/>
    <tag k="addr:country" v="CZ"/>
    <tag k="addr:housenumber" v="87/8"/>
    <tag k="addr:postcode" v="15400"/>
    <tag k="addr:street" v="Pod vysokou mezí"/>
    <tag k="addr:streetnumber" v="8"/>
    <tag k="building" v="residential"/>
    <tag k="building:flats" v="1"/>
    <tag k="building:levels" v="1"/>
    <tag k="building:ruian:type" v="3"/>
    <tag k="ref:ruian:addr" v="22774963"/>
    <tag k="ref:ruian:building" v="21569355"/>
    <tag k="source" v="cuzk:ruian"/>
  </way>
  <way id="285325650" version="4" timestamp="2024-03-30T20:10:37Z" changeset="149365661" uid="10932047" user="AF HAF KARTOGRAF">
    <nd ref="2889926557"/>
    <nd ref="2889926560"/>
    <nd ref="2889926573"/>
    <nd ref="2889926578"/>
    <nd ref="2889926501"/>
    <nd ref="2889926488"/>
    <nd ref="2889926497"/>
    <nd ref="2889926496"/>
    <nd ref="2889926541"/>
    <nd ref="2889926544"/>
    <nd ref="2889926557"/>
    <tag k="addr:conscriptionnumber" v="88"/>
    <tag k="addr:country" v="CZ"/>
    <tag k="addr:housenumber" v="88/2"/>
    <tag k="addr:postcode" v="15400"/>
    <tag k="addr:street" v="Pod vysokou mezí"/>
    <tag k="addr:streetnumber" v="2"/>
    <tag k="building" v="residential"/>
    <tag k="building:flats" v="1"/>
    <tag k="building:levels" v="1"/>
    <tag k="building:ruian:type" v="3"/>
    <tag k="ref:ruian:addr" v="22009710"/>
    <tag k="ref:ruian:building" v="21569363"/>
    <tag k="source" v="cuzk:ruian"/>
  </way>
  <way id="285325651" version="5" timestamp="2024-03-30T20:10:37Z" changeset="149365661" uid="10932047" user="AF HAF KARTOGRAF">
    <nd ref="3747212783"/>
    <nd ref="2889926641"/>
    <nd ref="2889926639"/>
    <nd ref="3747212789"/>
    <nd ref="2889926650"/>
    <nd ref="2889926649"/>
    <nd ref="3253064983"/>
    <nd ref="3253064982"/>
    <nd ref="3253064966"/>
    <nd ref="3253064967"/>
    <nd ref="2889926601"/>
    <nd ref="3747212779"/>
    <nd ref="3747212780"/>
    <nd ref="2889926604"/>
    <nd ref="3747212784"/>
    <nd ref="3747212783"/>
    <tag k="addr:conscriptionnumber" v="90"/>
    <tag k="addr:country" v="CZ"/>
    <tag k="addr:housenumber" v="90/1"/>
    <tag k="addr:postcode" v="15400"/>
    <tag k="addr:street" v="K lípě"/>
    <tag k="addr:streetnumber" v="1"/>
    <tag k="building" v="residential"/>
    <tag k="building:flats" v="1"/>
    <tag k="building:levels" v="1"/>
    <tag k="building:ruian:type" v="3"/>
    <tag k="ref:ruian:addr" v="22009736"/>
    <tag k="ref:ruian:building" v="21569380"/>
    <tag k="source" v="cuzk:ruian"/>
  </way>
  <way id="285325652" version="4" timestamp="2024-03-30T20:10:37Z" changeset="149365661" uid="10932047" user="AF HAF KARTOGRAF">
    <nd ref="2889926506"/>
    <nd ref="2889926508"/>
    <nd ref="2889926514"/>
    <nd ref="2889926518"/>
    <nd ref="2889926441"/>
    <nd ref="2889926438"/>
    <nd ref="2889926506"/>
    <tag k="addr:conscriptionnumber" v="92"/>
    <tag k="addr:country" v="CZ"/>
    <tag k="addr:housenumber" v="92/16"/>
    <tag k="addr:postcode" v="15400"/>
    <tag k="addr:street" v="Pod vysokou mezí"/>
    <tag k="addr:streetnumber" v="16"/>
    <tag k="building" v="residential"/>
    <tag k="building:flats" v="1"/>
    <tag k="building:levels" v="1"/>
    <tag k="building:ruian:type" v="3"/>
    <tag k="ref:ruian:addr" v="22009744"/>
    <tag k="ref:ruian:building" v="21569398"/>
    <tag k="source" v="cuzk:ruian"/>
  </way>
  <way id="285325653" version="4" timestamp="2024-03-30T20:10:37Z" changeset="149365661" uid="10932047" user="AF HAF KARTOGRAF">
    <nd ref="2889926520"/>
    <nd ref="2889926524"/>
    <nd ref="2889926448"/>
    <nd ref="2889926449"/>
    <nd ref="2889926440"/>
    <nd ref="2889926439"/>
    <nd ref="2889926436"/>
    <nd ref="2889926434"/>
    <nd ref="2889926467"/>
    <nd ref="2889926470"/>
    <nd ref="2889926520"/>
    <tag k="addr:conscriptionnumber" v="93"/>
    <tag k="addr:country" v="CZ"/>
    <tag k="addr:housenumber" v="93/18"/>
    <tag k="addr:postcode" v="15400"/>
    <tag k="addr:street" v="Pod vysokou mezí"/>
    <tag k="addr:streetnumber" v="18"/>
    <tag k="building" v="residential"/>
    <tag k="building:flats" v="2"/>
    <tag k="building:levels" v="1"/>
    <tag k="building:ruian:type" v="3"/>
    <tag k="ref:ruian:addr" v="22009752"/>
    <tag k="ref:ruian:building" v="21569401"/>
    <tag k="source" v="cuzk:ruian"/>
  </way>
  <way id="285325654" version="4" timestamp="2024-03-30T20:10:37Z" changeset="149365661" uid="10932047" user="AF HAF KARTOGRAF">
    <nd ref="2889926482"/>
    <nd ref="2889926480"/>
    <nd ref="2889926459"/>
    <nd ref="3747212750"/>
    <nd ref="3747212749"/>
    <nd ref="3747212747"/>
    <nd ref="3747212748"/>
    <nd ref="2889926453"/>
    <nd ref="2889926502"/>
    <nd ref="2889926507"/>
    <nd ref="2889926482"/>
    <tag k="addr:conscriptionnumber" v="94"/>
    <tag k="addr:country" v="CZ"/>
    <tag k="addr:housenumber" v="94/10"/>
    <tag k="addr:postcode" v="15400"/>
    <tag k="addr:street" v="Pod vysokou mezí"/>
    <tag k="addr:streetnumber" v="10"/>
    <tag k="building" v="residential"/>
    <tag k="building:flats" v="1"/>
    <tag k="building:levels" v="1"/>
    <tag k="building:ruian:type" v="3"/>
    <tag k="ref:ruian:addr" v="22009761"/>
    <tag k="ref:ruian:building" v="21569410"/>
    <tag k="source" v="cuzk:ruian"/>
  </way>
  <way id="285325655" version="4" timestamp="2024-03-30T20:10:37Z" changeset="149365661" uid="10932047" user="AF HAF KARTOGRAF">
    <nd ref="2889926725"/>
    <nd ref="2889926771"/>
    <nd ref="2889926769"/>
    <nd ref="2889926767"/>
    <nd ref="2889926764"/>
    <nd ref="2889926750"/>
    <nd ref="2889926751"/>
    <nd ref="2889926717"/>
    <nd ref="2889926718"/>
    <nd ref="2889926723"/>
    <nd ref="2889926725"/>
    <tag k="addr:conscriptionnumber" v="97"/>
    <tag k="addr:country" v="CZ"/>
    <tag k="addr:housenumber" v="97/12"/>
    <tag k="addr:postcode" v="15400"/>
    <tag k="addr:street" v="K lípě"/>
    <tag k="addr:streetnumber" v="12"/>
    <tag k="building" v="house"/>
    <tag k="building:flats" v="1"/>
    <tag k="building:levels" v="1"/>
    <tag k="building:ruian:type" v="7"/>
    <tag k="ref:ruian:addr" v="22009795"/>
    <tag k="ref:ruian:building" v="21569444"/>
    <tag k="source" v="cuzk:ruian"/>
  </way>
  <way id="285325656" version="4" timestamp="2024-03-30T20:10:37Z" changeset="149365661" uid="10932047" user="AF HAF KARTOGRAF">
    <nd ref="2889926698"/>
    <nd ref="3747212811"/>
    <nd ref="2889926702"/>
    <nd ref="2889926701"/>
    <nd ref="2889926696"/>
    <nd ref="2889926694"/>
    <nd ref="2889926689"/>
    <nd ref="2889926688"/>
    <nd ref="2889926679"/>
    <nd ref="2889926680"/>
    <nd ref="2889926657"/>
    <nd ref="2889926659"/>
    <nd ref="2889926668"/>
    <nd ref="2889926669"/>
    <nd ref="2889926698"/>
    <tag k="addr:conscriptionnumber" v="99"/>
    <tag k="addr:country" v="CZ"/>
    <tag k="addr:housenumber" v="99/13"/>
    <tag k="addr:postcode" v="15400"/>
    <tag k="addr:street" v="K lípě"/>
    <tag k="addr:streetnumber" v="13"/>
    <tag k="building" v="residential"/>
    <tag k="building:flats" v="1"/>
    <tag k="building:levels" v="1"/>
    <tag k="building:ruian:type" v="3"/>
    <tag k="ref:ruian:addr" v="22009817"/>
    <tag k="ref:ruian:building" v="21569461"/>
    <tag k="source" v="cuzk:ruian"/>
  </way>
  <way id="521804996" version="5" timestamp="2024-05-03T12:12:08Z" changeset="150834333" uid="4997045" user="Tomas_J">
    <nd ref="1843748893"/>
    <nd ref="278336731"/>
    <nd ref="278349741"/>
    <nd ref="278180543"/>
    <nd ref="278169770"/>
    <nd ref="278340137"/>
    <nd ref="2271869951"/>
    <nd ref="4095944530"/>
    <nd ref="278182783"/>
    <nd ref="278165257"/>
    <nd ref="278171372"/>
    <nd ref="278342056"/>
    <nd ref="278324765"/>
    <nd ref="278345718"/>
    <nd ref="278319517"/>
    <nd ref="278328141"/>
    <nd ref="752175327"/>
    <nd ref="1843748915"/>
    <nd ref="1843748905"/>
    <tag k="highway" v="residential"/>
    <tag k="lane_markings" v="no"/>
    <tag k="maxspeed" v="40"/>
    <tag k="name" v="K Dobré vodě"/>
    <tag k="oneway" v="no"/>
    <tag k="source:maxspeed" v="zone"/>
    <tag k="surface" v="asphalt"/>
    <tag k="width" v="3"/>
  </way>
  <way id="591366474" version="4" timestamp="2023-01-08T12:40:20Z" changeset="131012337" uid="12446691" user="RKCZ">
    <nd ref="5588894140"/>
    <nd ref="9530271806"/>
    <nd ref="30930525"/>
    <tag k="highway" v="residential"/>
    <tag k="lane_markings" v="no"/>
    <tag k="maxspeed" v="40"/>
    <tag k="name" v="náměstí Pod Lípou"/>
    <tag k="oneway" v="yes"/>
    <tag k="short_name" v="nám. Pod Lípou"/>
    <tag k="sorting_name" v="Pod Lípou"/>
    <tag k="source:maxspeed" v="zone"/>
    <tag k="source:width" v="ARCore"/>
    <tag k="surface" v="asphalt"/>
    <tag k="width" v="4.7"/>
  </way>
  <way id="929402199" version="5" timestamp="2023-09-08T10:04:36Z" changeset="140979727" uid="375453" user="Hlad">
    <nd ref="8619141224"/>
    <nd ref="8619141223"/>
    <tag k="bridge" v="yes"/>
    <tag k="highway" v="residential"/>
    <tag k="lane_markings" v="no"/>
    <tag k="layer" v="1"/>
    <tag k="maxspeed" v="40"/>
    <tag k="maxweight:signed" v="no"/>
    <tag k="name" v="K Dobré vodě"/>
    <tag k="oneway" v="no"/>
    <tag k="source:maxspeed" v="zone"/>
    <tag k="surface" v="asphalt"/>
    <tag k="width" v="3"/>
  </way>
  <way id="929402200" version="5" timestamp="2025-03-04T23:07:21Z" changeset="163222826" uid="11545091" user="VladaC">
    <nd ref="375791130"/>
    <nd ref="12637376708"/>
    <nd ref="8619141224"/>
    <tag k="highway" v="residential"/>
    <tag k="lane_markings" v="no"/>
    <tag k="maxspeed" v="40"/>
    <tag k="name" v="K Dobré vodě"/>
    <tag k="oneway" v="no"/>
    <tag k="source:maxspeed" v="zone"/>
    <tag k="surface" v="asphalt"/>
    <tag k="width" v="4"/>
  </way>
  <way id="1034539800" version="5" timestamp="2023-10-21T14:36:23Z" changeset="142927415" uid="10881771" user="Vokoun">
    <nd ref="30930540"/>
    <nd ref="6945278953"/>
    <nd ref="9466420379"/>
    <tag k="highway" v="residential"/>
    <tag k="lanes" v="2"/>
    <tag k="lit" v="yes"/>
    <tag k="maxspeed" v="30"/>
    <tag k="name" v="U Náhonu"/>
    <tag k="sidewalk:left" v="no"/>
    <tag k="sidewalk:right" v="separate"/>
    <tag k="smoothness" v="excellent"/>
    <tag k="source:maxspeed" v="zone"/>
    <tag k="surface" v="asphalt"/>
  </way>
  <way id="1158982889" version="4" timestamp="2023-10-21T14:36:23Z" changeset="142927415" uid="10881771" user="Vokoun">
    <nd ref="9466420379"/>
    <nd ref="5083741102"/>
    <tag k="highway" v="residential"/>
    <tag k="lanes" v="2"/>
    <tag k="lit" v="yes"/>
    <tag k="maxspeed" v="30"/>
    <tag k="name" v="U Náhonu"/>
    <tag k="sidewalk:both" v="separate"/>
    <tag k="smoothness" v="excellent"/>
    <tag k="source:maxspeed" v="zone"/>
    <tag k="surface" v="asphalt"/>
  </way>
  <way id="1288768179" version="1" timestamp="2024-06-01T19:03:27Z" changeset="152135470" uid="2960211" user="demanuel">
    <nd ref="5083741102"/>
    <nd ref="9466420380"/>
    <nd ref="10218836674"/>
    <nd ref="11950666934"/>
    <tag k="highway" v="residential"/>
    <tag k="lanes" v="2"/>
    <tag k="lit" v="yes"/>
    <tag k="maxspeed" v="50"/>
    <tag k="name" v="U Náhonu"/>
    <tag k="oneway" v="no"/>
    <tag k="source:maxspeed" v="CZ:urban"/>
    <tag k="surface" v="asphalt"/>
    <tag k="vehicle:conditional" v="no"/>
  </way>
  <way id="1356955344" version="2" timestamp="2025-03-13T20:12:57Z" changeset="163586806" uid="1189910" user="Milancer">
    <nd ref="11950666934"/>
    <nd ref="30930542"/>
    <nd ref="12117016854"/>
    <nd ref="11228826049"/>
    <nd ref="11228826050"/>
    <nd ref="12660818118"/>
    <nd ref="30930543"/>
    <nd ref="12660818117"/>
    <nd ref="12660818116"/>
    <nd ref="11177538997"/>
    <nd ref="30930544"/>
    <tag k="highway" v="residential"/>
    <tag k="lanes" v="2"/>
    <tag k="lit" v="yes"/>
    <tag k="maxspeed" v="50"/>
    <tag k="name" v="U Náhonu"/>
    <tag k="oneway" v="no"/>
    <tag k="source:maxspeed" v="CZ:urban"/>
    <tag k="surface" v="asphalt"/>
  </way>
  <way id="1364626713" version="1" timestamp="2025-03-04T23:07:21Z" changeset="163222826" uid="11545091" user="VladaC">
    <nd ref="4137968754"/>
    <nd ref="12637376726"/>
    <nd ref="4137968756"/>
    <nd ref="30930485"/>
    <nd ref="30930484"/>
    <tag k="highway" v="residential"/>
    <tag k="lanes" v="2"/>
    <tag k="lit" v="yes"/>
    <tag k="maxspeed" v="50"/>
    <tag k="name" v="U Náhonu"/>
    <tag k="sidewalk:left" v="no"/>
    <tag k="sidewalk:right" v="separate"/>
    <tag k="smoothness" v="excellent"/>
    <tag k="source:maxspeed" v="zone"/>
    <tag k="surface" v="asphalt"/>
  </way>

</osm>
