<?xml version="1.0" encoding="UTF-8"?>
<osm version="0.6" generator="Overpass API 0.7.62.5 1bd436f1">
<note>The data included in this document is from www.openstreetmap.org. The data is made available under ODbL.</note>
<meta osm_base="2025-05-18T03:35:57Z" areas="2024-12-31T00:49:33Z"/>

  <node id="154976" lat="53.8007485" lon="-1.4078268" version="4" timestamp="2017-05-17T21:25:18Z" changeset="48773568" uid="2773866" user="kreuzschnabel"/>
  <node id="319564" lat="53.7970355" lon="-1.4210954" version="8" timestamp="2012-03-06T20:32:44Z" changeset="10894242" uid="82820" user="Mark_S"/>
  <node id="319567" lat="53.7973148" lon="-1.4209708" version="4" timestamp="2012-03-06T20:32:45Z" changeset="10894242" uid="82820" user="Mark_S"/>
  <node id="319577" lat="53.7995475" lon="-1.4144888" version="8" timestamp="2021-02-14T22:20:09Z" changeset="99268933" uid="61942" user="SomeoneElse">
    <tag k="highway" v="motorway_junction"/>
    <tag k="name" v="Austhorpe"/>
    <tag k="name:signed" v="no"/>
    <tag k="ref" v="46"/>
  </node>
  <node id="20979504" lat="53.7947240" lon="-1.4291440" version="2" timestamp="2009-02-28T16:15:03Z" changeset="701863" uid="45820" user="Paper"/>
  <node id="29688519" lat="53.7989489" lon="-1.4242468" version="6" timestamp="2019-03-26T23:40:39Z" changeset="68567404" uid="1802093" user="Paul Berry"/>
  <node id="30804025" lat="53.7971771" lon="-1.3889347" version="4" timestamp="2021-04-08T08:57:01Z" changeset="102545382" uid="3316592" user="Arthtoach"/>
  <node id="60708059" lat="53.7981930" lon="-1.4205076" version="2" timestamp="2012-01-21T13:12:33Z" changeset="10454874" uid="5926" user="c2r">
    <tag k="odbl" v="clean"/>
  </node>
  <node id="472351022" lat="53.7974910" lon="-1.4300361" version="2" timestamp="2012-11-10T21:26:51Z" changeset="13826094" uid="106831" user="sc71"/>
  <node id="1599846398" lat="53.7928265" lon="-1.4275911" version="4" timestamp="2022-08-26T19:27:35Z" changeset="125420561" uid="4543415" user="The_JF"/>
  <node id="1621260443" lat="53.7963992" lon="-1.4202051" version="5" timestamp="2022-12-30T14:22:22Z" changeset="130689247" uid="705850" user="Cebderby"/>
  <node id="1965687853" lat="53.7988533" lon="-1.4001214" version="2" timestamp="2019-07-06T14:55:00Z" changeset="71961273" uid="10126629" user="ajijohn"/>
  <node id="5041460469" lat="53.7861357" lon="-1.4282323" version="3" timestamp="2021-02-14T22:20:09Z" changeset="99268933" uid="61942" user="SomeoneElse">
    <tag k="highway" v="motorway_junction"/>
    <tag k="name" v="Austhorpe"/>
    <tag k="name:signed" v="no"/>
    <tag k="ref" v="46"/>
  </node>
  <node id="5180740966" lat="53.7981945" lon="-1.4227091" version="5" timestamp="2022-12-30T14:22:22Z" changeset="130689247" uid="705850" user="Cebderby"/>
  <node id="7128389729" lat="53.7981512" lon="-1.4232844" version="1" timestamp="2020-01-13T12:43:57Z" changeset="79516424" uid="4543415" user="The_JF"/>
  <node id="7134748862" lat="53.8009700" lon="-1.4211714" version="2" timestamp="2020-04-02T20:10:50Z" changeset="82998532" uid="5229644" user="Nathan_A_RF"/>
  <way id="6272394" version="19" timestamp="2024-01-22T18:56:44Z" changeset="146565751" uid="16951803" user="Vas111">
    <nd ref="319567"/>
    <nd ref="4860706323"/>
    <nd ref="1574695443"/>
    <nd ref="4860706325"/>
    <nd ref="1574695434"/>
    <nd ref="4860706326"/>
    <nd ref="319568"/>
    <nd ref="4860706328"/>
    <nd ref="319575"/>
    <nd ref="1574695427"/>
    <nd ref="4860706331"/>
    <nd ref="1574695423"/>
    <tag k="carriageway_ref" v="A"/>
    <tag k="highway" v="motorway"/>
    <tag k="lanes" v="3"/>
    <tag k="lit" v="no"/>
    <tag k="maxheight" v="default"/>
    <tag k="maxspeed" v="70 mph"/>
    <tag k="maxspeed:type" v="GB:motorway"/>
    <tag k="national_highways:area" v="DBFO27"/>
    <tag k="oneway" v="yes"/>
    <tag k="operator" v="National Highways"/>
    <tag k="operator:wikidata" v="Q5760006"/>
    <tag k="ref" v="M1"/>
    <tag k="surface" v="asphalt"/>
  </way>
  <way id="6272685" version="24" timestamp="2024-10-07T15:50:40Z" changeset="157588433" uid="5229644" user="Nathan_A_RF">
    <nd ref="1621260360"/>
    <nd ref="10295133374"/>
    <nd ref="1621260348"/>
    <nd ref="6685438313"/>
    <nd ref="1621260349"/>
    <nd ref="1621260423"/>
    <nd ref="1621260417"/>
    <nd ref="1621260410"/>
    <nd ref="1621260408"/>
    <nd ref="10295133388"/>
    <nd ref="10977782998"/>
    <nd ref="10977865605"/>
    <nd ref="10977783004"/>
    <nd ref="10977783003"/>
    <nd ref="10977783002"/>
    <nd ref="10977783001"/>
    <nd ref="10977783000"/>
    <nd ref="10977782999"/>
    <nd ref="1621260392"/>
    <tag k="highway" v="trunk"/>
    <tag k="junction" v="circular"/>
    <tag k="lanes" v="2"/>
    <tag k="lit" v="yes"/>
    <tag k="maxheight:signed" v="no"/>
    <tag k="maxspeed" v="30 mph"/>
    <tag k="oneway" v="yes"/>
    <tag k="sidewalk:left" v="separate"/>
    <tag k="sidewalk:right" v="no"/>
    <tag k="source" v="survey"/>
    <tag k="source_ref" v="GPS"/>
    <tag k="surface" v="asphalt"/>
  </way>
  <way id="8102646" version="24" timestamp="2024-10-07T15:50:40Z" changeset="157588433" uid="5229644" user="Nathan_A_RF">
    <nd ref="5434418729"/>
    <nd ref="1621260401"/>
    <nd ref="10295133385"/>
    <nd ref="1621260466"/>
    <nd ref="1621260461"/>
    <nd ref="1621260351"/>
    <nd ref="6685438312"/>
    <nd ref="60708072"/>
    <nd ref="5434418727"/>
    <nd ref="10295133375"/>
    <nd ref="5434418726"/>
    <tag k="highway" v="trunk"/>
    <tag k="junction" v="circular"/>
    <tag k="lanes" v="2"/>
    <tag k="lit" v="yes"/>
    <tag k="maxheight:signed" v="no"/>
    <tag k="maxspeed" v="30 mph"/>
    <tag k="oneway" v="yes"/>
    <tag k="sidewalk:left" v="separate"/>
    <tag k="sidewalk:right" v="no"/>
    <tag k="source" v="survey"/>
    <tag k="source_ref" v="GPS"/>
    <tag k="surface" v="asphalt"/>
  </way>
  <way id="38177372" version="14" timestamp="2023-02-11T13:06:11Z" changeset="132403818" uid="11965237" user="markbeech">
    <nd ref="30804025"/>
    <nd ref="7661781508"/>
    <nd ref="7661781509"/>
    <nd ref="30810965"/>
    <nd ref="8605822203"/>
    <nd ref="4496358456"/>
    <nd ref="449550815"/>
    <nd ref="449550818"/>
    <nd ref="7044912707"/>
    <nd ref="8176012550"/>
    <nd ref="8176012552"/>
    <nd ref="449550820"/>
    <nd ref="449550822"/>
    <nd ref="449550823"/>
    <nd ref="1965687818"/>
    <nd ref="449550829"/>
    <nd ref="449550830"/>
    <nd ref="1965687820"/>
    <nd ref="449550831"/>
    <nd ref="449550833"/>
    <nd ref="449550834"/>
    <nd ref="1965687842"/>
    <nd ref="6593312349"/>
    <nd ref="1965687853"/>
    <tag k="cycleway:both" v="no"/>
    <tag k="highway" v="unclassified"/>
    <tag k="lane_markings" v="no"/>
    <tag k="lit" v="yes"/>
    <tag k="name" v="Barrowby Lane"/>
    <tag k="sidewalk" v="right"/>
    <tag k="surface" v="asphalt"/>
  </way>
  <way id="39432321" version="11" timestamp="2022-01-23T13:48:01Z" changeset="116500048" uid="4543415" user="The_JF">
    <nd ref="938528735"/>
    <nd ref="2090400664"/>
    <nd ref="2891090220"/>
    <nd ref="472349918"/>
    <nd ref="472351022"/>
    <tag k="highway" v="residential"/>
    <tag k="maxspeed" v="20 mph"/>
    <tag k="name" v="Barrowby Lane"/>
  </way>
  <way id="143905430" version="13" timestamp="2024-01-22T18:56:44Z" changeset="146565751" uid="16951803" user="Vas111">
    <nd ref="154976"/>
    <nd ref="4860706330"/>
    <nd ref="1574695441"/>
    <nd ref="4860706329"/>
    <nd ref="4860706327"/>
    <nd ref="319577"/>
    <nd ref="1574695417"/>
    <nd ref="154977"/>
    <nd ref="1623512097"/>
    <nd ref="1574695426"/>
    <nd ref="4860706324"/>
    <nd ref="319565"/>
    <tag k="carriageway_ref" v="B"/>
    <tag k="highway" v="motorway"/>
    <tag k="lanes" v="3"/>
    <tag k="lit" v="no"/>
    <tag k="maxheight" v="default"/>
    <tag k="maxspeed" v="70 mph"/>
    <tag k="maxspeed:type" v="GB:motorway"/>
    <tag k="national_highways:area" v="DBFO27"/>
    <tag k="oneway" v="yes"/>
    <tag k="operator" v="National Highways"/>
    <tag k="operator:wikidata" v="Q5760006"/>
    <tag k="ref" v="M1"/>
    <tag k="surface" v="asphalt"/>
  </way>
  <way id="143906038" version="10" timestamp="2024-10-07T15:50:40Z" changeset="157588433" uid="5229644" user="Nathan_A_RF">
    <nd ref="60708059"/>
    <nd ref="1599910110"/>
    <nd ref="1574695432"/>
    <nd ref="319568"/>
    <tag k="carriageway_ref" v="K"/>
    <tag k="highway" v="motorway_link"/>
    <tag k="lanes" v="1"/>
    <tag k="lit" v="no"/>
    <tag k="maxspeed" v="70 mph"/>
    <tag k="maxspeed:type" v="GB:motorway"/>
    <tag k="national_highways:area" v="DBFO27"/>
    <tag k="oneway" v="yes"/>
    <tag k="operator" v="National Highways"/>
    <tag k="operator:wikidata" v="Q5760006"/>
    <tag k="ref" v="M1"/>
    <tag k="source" v="survey"/>
    <tag k="source_ref" v="GPS"/>
    <tag k="surface" v="asphalt"/>
  </way>
  <way id="143906431" version="14" timestamp="2024-10-07T15:50:40Z" changeset="157588433" uid="5229644" user="Nathan_A_RF">
    <nd ref="1574701665"/>
    <nd ref="10977865736"/>
    <nd ref="1599910104"/>
    <nd ref="6685438306"/>
    <nd ref="6685438170"/>
    <nd ref="1621260392"/>
    <tag k="carriageway_ref" v="L"/>
    <tag k="highway" v="motorway_link"/>
    <tag k="lanes" v="2"/>
    <tag k="lit" v="no"/>
    <tag k="maxspeed" v="70 mph"/>
    <tag k="maxspeed:type" v="GB:motorway"/>
    <tag k="national_highways:area" v="DBFO27"/>
    <tag k="oneway" v="yes"/>
    <tag k="operator" v="National Highways"/>
    <tag k="operator:wikidata" v="Q5760006"/>
    <tag k="ref" v="M1"/>
    <tag k="source" v="survey"/>
    <tag k="source_ref" v="GPS"/>
    <tag k="surface" v="asphalt"/>
  </way>
  <way id="145733242" version="21" timestamp="2024-01-22T18:56:44Z" changeset="146565751" uid="16951803" user="Vas111">
    <nd ref="319564"/>
    <nd ref="1590900285"/>
    <nd ref="1623512094"/>
    <nd ref="1590900202"/>
    <nd ref="2193136888"/>
    <nd ref="1590900182"/>
    <nd ref="4860706321"/>
    <nd ref="1590900136"/>
    <nd ref="2377558054"/>
    <nd ref="1590900282"/>
    <nd ref="2377558089"/>
    <nd ref="2377558017"/>
    <nd ref="1590900299"/>
    <nd ref="2377558264"/>
    <nd ref="2377558027"/>
    <nd ref="2377558214"/>
    <nd ref="1590900177"/>
    <nd ref="2377558178"/>
    <nd ref="2377558253"/>
    <nd ref="1590900297"/>
    <nd ref="2377558210"/>
    <nd ref="154981"/>
    <nd ref="2377558029"/>
    <nd ref="1590900118"/>
    <nd ref="2377558160"/>
    <nd ref="2377558103"/>
    <nd ref="1590900209"/>
    <nd ref="2377558187"/>
    <nd ref="2377558007"/>
    <nd ref="1590900290"/>
    <nd ref="2377558009"/>
    <nd ref="2377558167"/>
    <nd ref="1590900106"/>
    <nd ref="1590900281"/>
    <nd ref="2377558037"/>
    <nd ref="1590900172"/>
    <nd ref="1590900198"/>
    <nd ref="2377558119"/>
    <nd ref="1590900227"/>
    <nd ref="2377558028"/>
    <nd ref="1590900141"/>
    <nd ref="2377558121"/>
    <nd ref="1590900101"/>
    <nd ref="2377558006"/>
    <nd ref="2377558014"/>
    <nd ref="2377558046"/>
    <nd ref="1590900155"/>
    <nd ref="1590900129"/>
    <nd ref="1590900265"/>
    <nd ref="2377558257"/>
    <nd ref="1590900264"/>
    <nd ref="1590900226"/>
    <nd ref="2377558196"/>
    <nd ref="1590900206"/>
    <nd ref="1590900231"/>
    <nd ref="2377558069"/>
    <nd ref="1590900258"/>
    <nd ref="2377558154"/>
    <nd ref="1590900251"/>
    <nd ref="1590900255"/>
    <nd ref="2377558245"/>
    <nd ref="2377558263"/>
    <nd ref="2377558083"/>
    <tag k="carriageway_ref" v="B"/>
    <tag k="highway" v="motorway"/>
    <tag k="lanes" v="3"/>
    <tag k="lit" v="no"/>
    <tag k="maxheight" v="default"/>
    <tag k="maxspeed" v="70 mph"/>
    <tag k="maxspeed:type" v="GB:motorway"/>
    <tag k="national_highways:area" v="DBFO27"/>
    <tag k="oneway" v="yes"/>
    <tag k="operator" v="National Highways"/>
    <tag k="operator:wikidata" v="Q5760006"/>
    <tag k="ref" v="M1"/>
    <tag k="source" v="Bing"/>
    <tag k="surface" v="asphalt"/>
  </way>
  <way id="146725759" version="18" timestamp="2022-12-30T14:22:22Z" changeset="130689247" uid="705850" user="Cebderby">
    <nd ref="1599846398"/>
    <nd ref="9980439938"/>
    <nd ref="9980439937"/>
    <nd ref="2089142733"/>
    <nd ref="1599846497"/>
    <nd ref="1599846425"/>
    <nd ref="1599846396"/>
    <nd ref="1599846368"/>
    <nd ref="52682000"/>
    <nd ref="6403752133"/>
    <nd ref="52682003"/>
    <nd ref="52682006"/>
    <nd ref="52682008"/>
    <nd ref="1599846337"/>
    <nd ref="1599846485"/>
    <nd ref="1599846313"/>
    <nd ref="1623512112"/>
    <nd ref="10295133373"/>
    <nd ref="5434418317"/>
    <tag k="bicycle" v="no"/>
    <tag k="foot" v="no"/>
    <tag k="highway" v="trunk"/>
    <tag k="lanes" v="2"/>
    <tag k="lit" v="yes"/>
    <tag k="maxspeed" v="40 mph"/>
    <tag k="name" v="Thorpe Park Link Road"/>
    <tag k="not:ref" v="A63"/>
    <tag k="oneway" v="yes"/>
    <tag k="ref" v="A6120"/>
    <tag k="source" v="survey"/>
    <tag k="source_ref" v="GPS"/>
    <tag k="surface" v="asphalt"/>
  </way>
  <way id="146725762" version="19" timestamp="2022-12-30T14:22:22Z" changeset="130689247" uid="705850" user="Cebderby">
    <nd ref="1621260443"/>
    <nd ref="10295133383"/>
    <nd ref="1621260487"/>
    <nd ref="1599846423"/>
    <nd ref="1599846460"/>
    <nd ref="1599846454"/>
    <nd ref="1599846421"/>
    <nd ref="1623512105"/>
    <nd ref="1599846311"/>
    <nd ref="1599846404"/>
    <nd ref="1599846456"/>
    <nd ref="1599846317"/>
    <tag k="bicycle" v="no"/>
    <tag k="foot" v="no"/>
    <tag k="highway" v="trunk"/>
    <tag k="lanes" v="2"/>
    <tag k="lit" v="yes"/>
    <tag k="maxspeed" v="40 mph"/>
    <tag k="name" v="Thorpe Park Link Road"/>
    <tag k="not:ref" v="A63"/>
    <tag k="oneway" v="yes"/>
    <tag k="ref" v="A6120"/>
    <tag k="source" v="survey"/>
    <tag k="source_ref" v="GPS"/>
    <tag k="surface" v="asphalt"/>
  </way>
  <way id="146735423" version="11" timestamp="2024-10-07T15:50:40Z" changeset="157588433" uid="5229644" user="Nathan_A_RF">
    <nd ref="1599910103"/>
    <nd ref="10295133378"/>
    <nd ref="1599910105"/>
    <nd ref="10295133377"/>
    <nd ref="1599910114"/>
    <nd ref="1599910106"/>
    <nd ref="60708059"/>
    <tag k="carriageway_ref" v="K"/>
    <tag k="highway" v="motorway_link"/>
    <tag k="lanes" v="1"/>
    <tag k="lit" v="yes"/>
    <tag k="maxspeed" v="70 mph"/>
    <tag k="maxspeed:type" v="GB:motorway"/>
    <tag k="national_highways:area" v="DBFO27"/>
    <tag k="oneway" v="yes"/>
    <tag k="operator" v="National Highways"/>
    <tag k="operator:wikidata" v="Q5760006"/>
    <tag k="ref" v="M1"/>
    <tag k="source" v="survey"/>
    <tag k="source_ref" v="GPS"/>
    <tag k="surface" v="asphalt"/>
  </way>
  <way id="146735424" version="11" timestamp="2025-04-15T20:09:37Z" changeset="165001800" uid="7666952" user="phodgkin">
    <nd ref="319577"/>
    <nd ref="1599910128"/>
    <nd ref="1599910129"/>
    <nd ref="1599910108"/>
    <nd ref="1599910100"/>
    <nd ref="1574701665"/>
    <tag k="carriageway_ref" v="L"/>
    <tag k="destination" v="Leeds (East)"/>
    <tag k="destination:ref" v="A6120"/>
    <tag k="highway" v="motorway_link"/>
    <tag k="lanes" v="2"/>
    <tag k="lit" v="no"/>
    <tag k="maxspeed" v="70 mph"/>
    <tag k="maxspeed:type" v="GB:motorway"/>
    <tag k="national_highways:area" v="DBFO27"/>
    <tag k="oneway" v="yes"/>
    <tag k="operator" v="National Highways"/>
    <tag k="operator:wikidata" v="Q5760006"/>
    <tag k="ref" v="M1"/>
    <tag k="source" v="survey"/>
    <tag k="source_ref" v="GPS"/>
    <tag k="surface" v="asphalt"/>
  </way>
  <way id="149100716" version="14" timestamp="2023-09-02T21:54:41Z" changeset="140737352" uid="4543415" user="The_JF">
    <nd ref="20979504"/>
    <nd ref="4679035668"/>
    <nd ref="4679035667"/>
    <nd ref="20979505"/>
    <nd ref="1621260398"/>
    <nd ref="2264816685"/>
    <nd ref="20979506"/>
    <nd ref="20979507"/>
    <nd ref="4679035666"/>
    <nd ref="20979508"/>
    <nd ref="2264816751"/>
    <nd ref="11163893579"/>
    <nd ref="11139786828"/>
    <nd ref="20979509"/>
    <nd ref="1621260384"/>
    <nd ref="1621260361"/>
    <nd ref="2089239978"/>
    <nd ref="29688483"/>
    <nd ref="8244325106"/>
    <nd ref="29688506"/>
    <nd ref="1599846366"/>
    <nd ref="29688507"/>
    <nd ref="29688508"/>
    <nd ref="6003267668"/>
    <nd ref="11139786827"/>
    <nd ref="29688509"/>
    <nd ref="6003267669"/>
    <nd ref="1621260350"/>
    <nd ref="11163893580"/>
    <nd ref="29688510"/>
    <nd ref="29688511"/>
    <nd ref="1621260346"/>
    <nd ref="5252384303"/>
    <tag k="abutters" v="industrial"/>
    <tag k="highway" v="unclassified"/>
    <tag k="lanes" v="2"/>
    <tag k="lcn" v="yes"/>
    <tag k="lit" v="yes"/>
    <tag k="maxspeed" v="30 mph"/>
    <tag k="name" v="Century Way"/>
    <tag k="source" v="GPS"/>
    <tag k="surface" v="asphalt"/>
  </way>
  <way id="153675121" version="9" timestamp="2024-01-22T18:56:44Z" changeset="146565751" uid="16951803" user="Vas111">
    <nd ref="319566"/>
    <nd ref="319567"/>
    <tag k="bridge" v="yes"/>
    <tag k="carriageway_ref" v="A"/>
    <tag k="highway" v="motorway"/>
    <tag k="lanes" v="3"/>
    <tag k="layer" v="1"/>
    <tag k="lit" v="no"/>
    <tag k="maxspeed" v="70 mph"/>
    <tag k="maxspeed:type" v="GB:motorway"/>
    <tag k="national_highways:area" v="DBFO27"/>
    <tag k="oneway" v="yes"/>
    <tag k="operator" v="National Highways"/>
    <tag k="operator:wikidata" v="Q5760006"/>
    <tag k="ref" v="M1"/>
    <tag k="surface" v="asphalt"/>
  </way>
  <way id="153675123" version="9" timestamp="2024-01-22T18:56:44Z" changeset="146565751" uid="16951803" user="Vas111">
    <nd ref="319565"/>
    <nd ref="319564"/>
    <tag k="bridge" v="yes"/>
    <tag k="carriageway_ref" v="B"/>
    <tag k="highway" v="motorway"/>
    <tag k="lanes" v="3"/>
    <tag k="layer" v="1"/>
    <tag k="lit" v="no"/>
    <tag k="maxspeed" v="70 mph"/>
    <tag k="maxspeed:type" v="GB:motorway"/>
    <tag k="national_highways:area" v="DBFO27"/>
    <tag k="oneway" v="yes"/>
    <tag k="operator" v="National Highways"/>
    <tag k="operator:wikidata" v="Q5760006"/>
    <tag k="ref" v="M1"/>
    <tag k="surface" v="asphalt"/>
  </way>
  <way id="197150388" version="3" timestamp="2023-07-03T21:31:36Z" changeset="138081315" uid="1802093" user="Paul Berry">
    <nd ref="2074428970"/>
    <nd ref="2074428960"/>
    <nd ref="2074428968"/>
    <nd ref="2074428955"/>
    <nd ref="2074428954"/>
    <nd ref="2074428951"/>
    <nd ref="2074428973"/>
    <nd ref="2074428965"/>
    <nd ref="2074428963"/>
    <nd ref="2074428978"/>
    <nd ref="2074428952"/>
    <nd ref="2074428980"/>
    <nd ref="2074428949"/>
    <nd ref="2074428983"/>
    <nd ref="2074428975"/>
    <nd ref="2074428985"/>
    <nd ref="2074428958"/>
    <nd ref="2074428970"/>
    <tag k="addr:city" v="Leeds"/>
    <tag k="addr:housenumber" v="2175"/>
    <tag k="addr:postcode" v="LS15 8ZB"/>
    <tag k="addr:street" v="Century Way"/>
    <tag k="building" v="office"/>
    <tag k="name" v="Hewlett Construction"/>
  </way>
  <way id="198834789" version="6" timestamp="2025-04-11T22:29:49Z" changeset="164835722" uid="8857" user="philipcullen">
    <nd ref="2089205612"/>
    <nd ref="2089205601"/>
    <nd ref="2089205585"/>
    <nd ref="2089205640"/>
    <nd ref="2089205612"/>
    <tag k="addr:city" v="Leeds"/>
    <tag k="addr:housenumber" v="Component 2150"/>
    <tag k="addr:postcode" v="LS15 8ZB"/>
    <tag k="addr:street" v="Century Way"/>
    <tag k="building" v="yes"/>
    <tag k="ref:GB:uprn" v="72570678;72669155;72669157;72675574;72669156;72675575;72725823;72725824"/>
  </way>
  <way id="198834791" version="4" timestamp="2025-04-11T22:29:49Z" changeset="164835722" uid="8857" user="philipcullen">
    <nd ref="2089205540"/>
    <nd ref="2089205574"/>
    <nd ref="2089205657"/>
    <nd ref="2089205581"/>
    <nd ref="2089205529"/>
    <nd ref="2089205485"/>
    <nd ref="2089205540"/>
    <tag k="addr:city" v="Leeds"/>
    <tag k="addr:housenumber" v="2100"/>
    <tag k="addr:postcode" v="LS15 8ZB"/>
    <tag k="addr:street" v="Century Way"/>
    <tag k="building" v="yes"/>
    <tag k="name" v="to let (previously Republic)"/>
    <tag k="ref:GB:uprn" v="72813112;72761216;72761217;72513089;72813113;72750245;72750244;72776629;72761214;72761247;72761215;72761245;72761246"/>
  </way>
  <way id="198834792" version="5" timestamp="2025-04-11T22:29:49Z" changeset="164835722" uid="8857" user="philipcullen">
    <nd ref="2089205590"/>
    <nd ref="2089205588"/>
    <nd ref="2089205471"/>
    <nd ref="2089205575"/>
    <nd ref="2089205590"/>
    <tag k="addr:city" v="Leeds"/>
    <tag k="addr:housenumber" v="Component 2180"/>
    <tag k="addr:postcode" v="LS15 8ZB"/>
    <tag k="addr:street" v="Century Way"/>
    <tag k="building" v="yes"/>
    <tag k="ref:GB:uprn" v="72734284;72734283;72575399;72734282"/>
  </way>
  <way id="198834793" version="7" timestamp="2025-04-11T22:29:49Z" changeset="164835722" uid="8857" user="philipcullen">
    <nd ref="2089205544"/>
    <nd ref="2090398097"/>
    <nd ref="2089205538"/>
    <nd ref="2089205589"/>
    <nd ref="2089205603"/>
    <nd ref="2089205544"/>
    <tag k="addr:city" v="Leeds"/>
    <tag k="addr:housenumber" v="Component 3100"/>
    <tag k="addr:postcode" v="LS15 8ZB"/>
    <tag k="addr:street" v="Century Way"/>
    <tag k="building" v="office"/>
    <tag k="ref:GB:uprn" v="72777073;72728182;72519399;72745373;72777072"/>
  </way>
  <way id="198834799" version="5" timestamp="2023-07-03T21:31:36Z" changeset="138081315" uid="1802093" user="Paul Berry">
    <nd ref="2089205578"/>
    <nd ref="2089205654"/>
    <nd ref="2089205573"/>
    <nd ref="2089205616"/>
    <nd ref="2089205541"/>
    <nd ref="2089205582"/>
    <nd ref="2089205490"/>
    <nd ref="2089205563"/>
    <nd ref="2089205578"/>
    <tag k="addr:city" v="Leeds"/>
    <tag k="addr:housenumber" v="Component 3125"/>
    <tag k="addr:postcode" v="LS15 8ZB"/>
    <tag k="addr:street" v="Century Way"/>
    <tag k="building" v="office"/>
    <tag k="name" v="Atkins"/>
  </way>
  <way id="198834801" version="7" timestamp="2025-04-11T22:29:49Z" changeset="164835722" uid="8857" user="philipcullen">
    <nd ref="2089205510"/>
    <nd ref="2089205619"/>
    <nd ref="2089205598"/>
    <nd ref="2089205618"/>
    <nd ref="2089205510"/>
    <tag k="addr:city" v="Leeds"/>
    <tag k="addr:housenumber" v="5200"/>
    <tag k="addr:postcode" v="LS15 8ZB"/>
    <tag k="addr:street" v="Century Way"/>
    <tag k="building" v="yes"/>
    <tag k="name" v="Atkins"/>
    <tag k="ref:GB:uprn" v="72519876;72785805;72726404;72726405;72768870;72787345;72787344;72726402;72768868;72726403;72768869;72686260"/>
  </way>
  <way id="198834803" version="5" timestamp="2023-07-03T21:31:36Z" changeset="138081315" uid="1802093" user="Paul Berry">
    <nd ref="2089205615"/>
    <nd ref="2089205539"/>
    <nd ref="2089205602"/>
    <nd ref="2089205523"/>
    <nd ref="2089205647"/>
    <nd ref="2089205552"/>
    <nd ref="2089205615"/>
    <tag k="addr:city" v="Leeds"/>
    <tag k="addr:housenumber" v="2200"/>
    <tag k="addr:postcode" v="LS15 8ZB"/>
    <tag k="addr:street" v="Century Way"/>
    <tag k="building" v="yes"/>
    <tag k="name" v="General Electric"/>
  </way>
  <way id="198834826" version="7" timestamp="2025-04-11T22:29:49Z" changeset="164835722" uid="8857" user="philipcullen">
    <nd ref="2089206052"/>
    <nd ref="2089206044"/>
    <nd ref="2089206056"/>
    <nd ref="2089206042"/>
    <nd ref="2089206050"/>
    <nd ref="2089206054"/>
    <nd ref="2089206048"/>
    <nd ref="2089206046"/>
    <nd ref="2089206032"/>
    <nd ref="2089206034"/>
    <nd ref="2089206052"/>
    <tag k="addr:city" v="Leeds"/>
    <tag k="addr:housenumber" v="3150"/>
    <tag k="addr:postcode" v="LS15 8ZB"/>
    <tag k="addr:street" v="Century Way"/>
    <tag k="building" v="office"/>
    <tag k="ref:GB:uprn" v="72726395;72728297;72651474;72675730;72738521;72720959;72738520;72738522;72675729;72747374;72747373;72747554;72747553"/>
  </way>
  <way id="198975016" version="3" timestamp="2022-01-23T13:48:01Z" changeset="116500048" uid="4543415" user="The_JF">
    <nd ref="2090397842"/>
    <nd ref="2090398061"/>
    <nd ref="2090400664"/>
    <tag k="highway" v="residential"/>
    <tag k="maxspeed" v="20 mph"/>
    <tag k="name" v="Barrowby Lane"/>
  </way>
  <way id="198975198" version="5" timestamp="2023-07-03T21:31:36Z" changeset="138081315" uid="1802093" user="Paul Berry">
    <nd ref="2090400742"/>
    <nd ref="2090400702"/>
    <nd ref="2090400778"/>
    <nd ref="2090400660"/>
    <nd ref="2090400742"/>
    <tag k="addr:city" v="Leeds"/>
    <tag k="addr:housenumber" v="Component 3365-3370"/>
    <tag k="addr:postcode" v="LS15 8ZB"/>
    <tag k="addr:street" v="Century Way"/>
    <tag k="building" v="yes"/>
    <tag k="name" v="Atkins"/>
  </way>
  <way id="198975201" version="6" timestamp="2025-04-11T22:29:49Z" changeset="164835722" uid="8857" user="philipcullen">
    <nd ref="2090400644"/>
    <nd ref="2090400763"/>
    <nd ref="2090400681"/>
    <nd ref="2090400756"/>
    <nd ref="2090400644"/>
    <tag k="addr:city" v="Leeds"/>
    <tag k="addr:housenumber" v="3360"/>
    <tag k="addr:postcode" v="LS15 8ZB"/>
    <tag k="addr:street" v="Century Way"/>
    <tag k="building" v="yes"/>
    <tag k="name" v="Atkins"/>
    <tag k="ref:GB:uprn" v="72520608;72669159;72669158"/>
  </way>
  <way id="198975208" version="5" timestamp="2025-04-11T22:29:49Z" changeset="164835722" uid="8857" user="philipcullen">
    <nd ref="2090400642"/>
    <nd ref="2090400692"/>
    <nd ref="2090400698"/>
    <nd ref="2090400735"/>
    <nd ref="2090400642"/>
    <tag k="addr:city" v="Leeds"/>
    <tag k="addr:housenumber" v="Component 3375"/>
    <tag k="addr:postcode" v="LS15 8ZB"/>
    <tag k="addr:street" v="Century Way"/>
    <tag k="building" v="yes"/>
    <tag k="name" v="Atkins"/>
    <tag k="ref:GB:uprn" v="72520604;72794481;72794482"/>
  </way>
  <way id="198975209" version="6" timestamp="2025-04-11T22:29:49Z" changeset="164835722" uid="8857" user="philipcullen">
    <nd ref="2090400775"/>
    <nd ref="2090400766"/>
    <nd ref="2090400800"/>
    <nd ref="2090400743"/>
    <nd ref="2090400775"/>
    <tag k="addr:city" v="Leeds"/>
    <tag k="addr:housenumber" v="3310"/>
    <tag k="addr:postcode" v="LS15 8ZB"/>
    <tag k="addr:street" v="Century Way"/>
    <tag k="building" v="yes"/>
    <tag k="name" v="Atkins"/>
    <tag k="ref:GB:uprn" v="72520605;72729568;72729569"/>
  </way>
  <way id="236100870" version="5" timestamp="2022-01-23T13:48:01Z" changeset="116500048" uid="4543415" user="The_JF">
    <nd ref="472351022"/>
    <nd ref="472349919"/>
    <nd ref="2891058024"/>
    <nd ref="472349920"/>
    <nd ref="6884482895"/>
    <nd ref="2007182517"/>
    <nd ref="472349921"/>
    <nd ref="938528738"/>
    <nd ref="472349922"/>
    <nd ref="938528741"/>
    <nd ref="940354801"/>
    <nd ref="472349923"/>
    <nd ref="472349924"/>
    <tag k="highway" v="residential"/>
    <tag k="maxspeed" v="20 mph"/>
    <tag k="name" v="Barrowby Lane"/>
    <tag k="surface" v="asphalt"/>
  </way>
  <way id="236102290" version="12" timestamp="2023-08-23T19:35:22Z" changeset="140290863" uid="4543415" user="The_JF">
    <nd ref="5180740957"/>
    <nd ref="1621260463"/>
    <nd ref="6504223234"/>
    <nd ref="11139786835"/>
    <nd ref="5434418312"/>
    <nd ref="7128389729"/>
    <tag k="highway" v="unclassified"/>
    <tag k="lanes" v="1"/>
    <tag k="lcn" v="yes"/>
    <tag k="lit" v="yes"/>
    <tag k="maxspeed" v="30 mph"/>
    <tag k="name" v="Century Way"/>
    <tag k="oneway" v="yes"/>
    <tag k="source" v="GPS;Bing"/>
    <tag k="surface" v="asphalt"/>
  </way>
  <way id="285414703" version="6" timestamp="2022-01-23T13:48:01Z" changeset="116500048" uid="4543415" user="The_JF">
    <nd ref="2891090220"/>
    <nd ref="6211178758"/>
    <nd ref="6211178761"/>
    <nd ref="2891090221"/>
    <tag k="highway" v="residential"/>
    <tag k="maxspeed" v="20 mph"/>
    <tag k="name" v="Barrowby Gardens"/>
    <tag k="postal_code" v="LS15 8FD"/>
    <tag k="surface" v="paving_stones"/>
  </way>
  <way id="332345248" version="7" timestamp="2024-06-14T22:35:36Z" changeset="152700850" uid="1778799" user="SomeoneElse_Revert">
    <nd ref="3394605813"/>
    <nd ref="3394605815"/>
    <nd ref="3394605816"/>
    <nd ref="3394605812"/>
    <nd ref="3394605811"/>
    <nd ref="3394605818"/>
    <nd ref="3394605817"/>
    <nd ref="3394605814"/>
    <nd ref="3394605813"/>
    <tag k="addr:city" v="Leeds"/>
    <tag k="addr:housename" v="Barrowby Carr Cottage"/>
    <tag k="addr:postcode" v="LS15 8FB"/>
    <tag k="addr:street" v="Barrowby Carr Drive"/>
    <tag k="addr:suburb" v="Austhorpe"/>
    <tag k="amenity" v="childcare"/>
    <tag k="building" v="yes"/>
    <tag k="fhrs:id" v="1213540"/>
    <tag k="name" v="Sunbeams"/>
  </way>
  <way id="534133029" version="21" timestamp="2023-06-14T22:33:29Z" changeset="137347154" uid="4543415" user="The_JF">
    <nd ref="5180740966"/>
    <nd ref="5434418316"/>
    <nd ref="5180740958"/>
    <nd ref="10977782997"/>
    <nd ref="6399434222"/>
    <nd ref="5180740961"/>
    <nd ref="7137382920"/>
    <nd ref="5434438234"/>
    <nd ref="7137382925"/>
    <nd ref="5180740963"/>
    <nd ref="5180740962"/>
    <nd ref="7137382932"/>
    <nd ref="5998749343"/>
    <nd ref="5998749359"/>
    <nd ref="6399434232"/>
    <nd ref="4581798811"/>
    <tag k="highway" v="trunk"/>
    <tag k="lanes" v="2"/>
    <tag k="maxspeed" v="40 mph"/>
    <tag k="name" v="William Parkin Way"/>
    <tag k="oneway" v="yes"/>
    <tag k="ref" v="A6120"/>
    <tag k="surface" v="asphalt"/>
  </way>
  <way id="536953346" version="3" timestamp="2021-10-26T17:47:13Z" changeset="113004947" uid="5926" user="c2r">
    <nd ref="5200468841"/>
    <nd ref="5200468842"/>
    <nd ref="5200468843"/>
    <nd ref="5200468844"/>
    <nd ref="5200468841"/>
    <tag k="addr:city" v="Leeds"/>
    <tag k="addr:housenumber" v="Component 3150"/>
    <tag k="addr:postcode" v="LS15 8ZB"/>
    <tag k="addr:street" v="Century Way"/>
    <tag k="building" v="yes"/>
    <tag k="office" v="yes"/>
  </way>
  <way id="633495108" version="10" timestamp="2023-06-14T22:33:29Z" changeset="137347154" uid="4543415" user="The_JF">
    <nd ref="29688519"/>
    <nd ref="1621260397"/>
    <nd ref="1621260468"/>
    <nd ref="8244325113"/>
    <nd ref="8244325107"/>
    <nd ref="5980089944"/>
    <nd ref="8244325108"/>
    <nd ref="8244325112"/>
    <nd ref="6504223235"/>
    <nd ref="10977865747"/>
    <nd ref="5434418319"/>
    <nd ref="5434418320"/>
    <nd ref="5434418310"/>
    <tag k="highway" v="unclassified"/>
    <tag k="lanes" v="2"/>
    <tag k="lcn" v="yes"/>
    <tag k="lit" v="yes"/>
    <tag k="maxspeed" v="30 mph"/>
    <tag k="name" v="Century Way"/>
    <tag k="oneway" v="yes"/>
    <tag k="source" v="GPS;Bing"/>
    <tag k="surface" v="asphalt"/>
  </way>
  <way id="653985840" version="2" timestamp="2018-12-10T15:23:50Z" changeset="65347888" uid="4543415" user="The_JF">
    <nd ref="6128562964"/>
    <nd ref="6128562961"/>
    <tag k="highway" v="residential"/>
    <tag k="maxspeed" v="5 mph"/>
    <tag k="name" v="Thorpe Park Gardens"/>
    <tag k="postal_code" v="LS15 8FD"/>
  </way>
  <way id="653987469" version="4" timestamp="2022-01-23T13:48:01Z" changeset="116500048" uid="4543415" user="The_JF">
    <nd ref="6128591698"/>
    <nd ref="6128562964"/>
    <nd ref="6128562947"/>
    <nd ref="6128562948"/>
    <nd ref="6128562949"/>
    <nd ref="6128562950"/>
    <nd ref="6128562951"/>
    <nd ref="6128562952"/>
    <nd ref="6128562953"/>
    <nd ref="6128562954"/>
    <nd ref="6128591699"/>
    <nd ref="6128591700"/>
    <nd ref="6128591701"/>
    <nd ref="6128562958"/>
    <nd ref="1621260480"/>
    <tag k="highway" v="residential"/>
    <tag k="maxspeed" v="5 mph"/>
    <tag k="name" v="Thorpe Park Gardens"/>
    <tag k="postal_code" v="LS15 8FD"/>
    <tag k="sidewalk:left" v="no"/>
    <tag k="sidewalk:right" v="sidepath"/>
  </way>
  <way id="683192421" version="12" timestamp="2024-10-07T15:50:40Z" changeset="157588433" uid="5229644" user="Nathan_A_RF">
    <nd ref="1621260392"/>
    <nd ref="6403765462"/>
    <nd ref="1621260394"/>
    <nd ref="1621260473"/>
    <nd ref="6403765461"/>
    <nd ref="1621260395"/>
    <nd ref="6403765460"/>
    <nd ref="1621260440"/>
    <nd ref="6403765459"/>
    <nd ref="1621260442"/>
    <nd ref="6403765458"/>
    <nd ref="2140481949"/>
    <nd ref="6685438305"/>
    <nd ref="1621260445"/>
    <nd ref="1621260443"/>
    <tag k="highway" v="trunk"/>
    <tag k="junction" v="circular"/>
    <tag k="lanes" v="3"/>
    <tag k="lit" v="yes"/>
    <tag k="maxspeed" v="30 mph"/>
    <tag k="oneway" v="yes"/>
    <tag k="sidewalk:left" v="separate"/>
    <tag k="sidewalk:right" v="no"/>
    <tag k="source" v="survey"/>
    <tag k="source_ref" v="GPS"/>
    <tag k="surface" v="asphalt"/>
  </way>
  <way id="722276233" version="5" timestamp="2024-01-22T18:56:44Z" changeset="146565751" uid="16951803" user="Vas111">
    <nd ref="5041460469"/>
    <nd ref="5041460467"/>
    <nd ref="1590900157"/>
    <nd ref="2377558173"/>
    <nd ref="2377558231"/>
    <nd ref="1590900158"/>
    <nd ref="2377558059"/>
    <nd ref="319549"/>
    <nd ref="2377558136"/>
    <nd ref="1590900229"/>
    <nd ref="4860701220"/>
    <nd ref="2377558150"/>
    <nd ref="319559"/>
    <nd ref="1574696011"/>
    <nd ref="4860706322"/>
    <nd ref="319560"/>
    <nd ref="3140489849"/>
    <nd ref="319561"/>
    <nd ref="1574696004"/>
    <nd ref="319566"/>
    <tag k="carriageway_ref" v="A"/>
    <tag k="highway" v="motorway"/>
    <tag k="lanes" v="3"/>
    <tag k="lit" v="no"/>
    <tag k="maxheight" v="default"/>
    <tag k="maxspeed" v="70 mph"/>
    <tag k="maxspeed:type" v="GB:motorway"/>
    <tag k="national_highways:area" v="DBFO27"/>
    <tag k="oneway" v="yes"/>
    <tag k="operator" v="National Highways"/>
    <tag k="operator:wikidata" v="Q5760006"/>
    <tag k="ref" v="M1"/>
    <tag k="surface" v="asphalt"/>
  </way>
  <way id="762857437" version="10" timestamp="2024-10-07T15:50:40Z" changeset="157588433" uid="5229644" user="Nathan_A_RF">
    <nd ref="5180740957"/>
    <nd ref="7128389731"/>
    <nd ref="5980089938"/>
    <nd ref="10977865746"/>
    <nd ref="10295133382"/>
    <nd ref="5180740967"/>
    <nd ref="5434418310"/>
    <nd ref="5180740966"/>
    <tag k="highway" v="trunk"/>
    <tag k="junction" v="circular"/>
    <tag k="lanes" v="2"/>
    <tag k="lit" v="yes"/>
    <tag k="maxspeed" v="30 mph"/>
    <tag k="oneway" v="yes"/>
    <tag k="source_ref" v="GPS"/>
    <tag k="surface" v="asphalt"/>
  </way>
  <way id="762857438" version="8" timestamp="2024-10-07T15:50:40Z" changeset="157588433" uid="5229644" user="Nathan_A_RF">
    <nd ref="5434418317"/>
    <nd ref="5434418318"/>
    <nd ref="5180740959"/>
    <nd ref="7128389730"/>
    <nd ref="6775083161"/>
    <nd ref="5180740957"/>
    <tag k="highway" v="trunk"/>
    <tag k="junction" v="circular"/>
    <tag k="lanes" v="2"/>
    <tag k="lit" v="yes"/>
    <tag k="maxspeed" v="30 mph"/>
    <tag k="oneway" v="yes"/>
    <tag k="source_ref" v="GPS"/>
    <tag k="surface" v="asphalt"/>
  </way>
  <way id="762857439" version="3" timestamp="2022-01-23T13:48:01Z" changeset="116500048" uid="4543415" user="The_JF">
    <nd ref="7128389729"/>
    <nd ref="7128389728"/>
    <nd ref="1621260376"/>
    <nd ref="1621260412"/>
    <nd ref="1621260347"/>
    <nd ref="5252384319"/>
    <nd ref="5252384318"/>
    <tag k="highway" v="unclassified"/>
    <tag k="lanes" v="2"/>
    <tag k="lcn" v="yes"/>
    <tag k="lit" v="yes"/>
    <tag k="maxspeed" v="30 mph"/>
    <tag k="name" v="Century Way"/>
    <tag k="oneway" v="yes"/>
    <tag k="source" v="GPS;Bing"/>
    <tag k="surface" v="asphalt"/>
  </way>
  <way id="762857440" version="9" timestamp="2024-10-07T15:50:40Z" changeset="157588433" uid="5229644" user="Nathan_A_RF">
    <nd ref="5998749339"/>
    <nd ref="5180740956"/>
    <nd ref="1599910103"/>
    <tag k="foot" v="no"/>
    <tag k="highway" v="trunk"/>
    <tag k="junction" v="circular"/>
    <tag k="lanes" v="3"/>
    <tag k="lit" v="yes"/>
    <tag k="maxspeed" v="30 mph"/>
    <tag k="oneway" v="yes"/>
    <tag k="sidewalk:left" v="no"/>
    <tag k="sidewalk:right" v="no"/>
    <tag k="source_ref" v="GPS"/>
    <tag k="surface" v="asphalt"/>
  </way>
  <way id="762857441" version="9" timestamp="2024-10-07T15:50:40Z" changeset="157588433" uid="5229644" user="Nathan_A_RF">
    <nd ref="1599910103"/>
    <nd ref="10295133380"/>
    <nd ref="1621260358"/>
    <nd ref="1621260360"/>
    <tag k="foot" v="no"/>
    <tag k="highway" v="trunk"/>
    <tag k="junction" v="circular"/>
    <tag k="lanes" v="2"/>
    <tag k="lit" v="yes"/>
    <tag k="maxspeed" v="30 mph"/>
    <tag k="oneway" v="yes"/>
    <tag k="sidewalk:left" v="no"/>
    <tag k="sidewalk:right" v="no"/>
    <tag k="source_ref" v="GPS"/>
    <tag k="surface" v="asphalt"/>
  </way>
  <way id="763518774" version="10" timestamp="2023-01-14T18:55:50Z" changeset="131275736" uid="4543415" user="The_JF">
    <nd ref="7134748862"/>
    <nd ref="6399434216"/>
    <nd ref="5998749357"/>
    <nd ref="5998749344"/>
    <nd ref="5998749342"/>
    <nd ref="7134748860"/>
    <nd ref="5998749341"/>
    <nd ref="5180740954"/>
    <nd ref="5998749340"/>
    <nd ref="10555122804"/>
    <tag k="highway" v="trunk"/>
    <tag k="lanes" v="2"/>
    <tag k="maxspeed" v="40 mph"/>
    <tag k="name" v="William Parkin Way"/>
    <tag k="oneway" v="yes"/>
    <tag k="ref" v="A6120"/>
    <tag k="surface" v="asphalt"/>
  </way>
  <way id="996682940" version="2" timestamp="2025-02-28T21:52:47Z" changeset="163070609" uid="3235126" user="mot_tom">
    <nd ref="1965687853"/>
    <nd ref="7044912694"/>
    <nd ref="7044899063"/>
    <nd ref="449550835"/>
    <nd ref="559902600"/>
    <nd ref="7044912739"/>
    <nd ref="449550836"/>
    <nd ref="449550837"/>
    <tag k="designation" v="public_bridleway"/>
    <tag k="highway" v="unclassified"/>
    <tag k="name" v="Barrowby Lane"/>
    <tag k="surface" v="compacted"/>
  </way>
  <way id="1091011732" version="6" timestamp="2024-10-07T15:50:40Z" changeset="157588433" uid="5229644" user="Nathan_A_RF">
    <nd ref="5180740966"/>
    <nd ref="10295133381"/>
    <nd ref="5998749338"/>
    <nd ref="10977865744"/>
    <nd ref="6775083160"/>
    <nd ref="10977782996"/>
    <nd ref="5998749339"/>
    <tag k="highway" v="trunk"/>
    <tag k="junction" v="circular"/>
    <tag k="lanes" v="2"/>
    <tag k="lit" v="yes"/>
    <tag k="maxspeed" v="30 mph"/>
    <tag k="oneway" v="yes"/>
    <tag k="source_ref" v="GPS"/>
    <tag k="surface" v="asphalt"/>
  </way>
  <way id="1091011733" version="6" timestamp="2024-10-07T15:50:40Z" changeset="157588433" uid="5229644" user="Nathan_A_RF">
    <nd ref="5434418726"/>
    <nd ref="1621260364"/>
    <nd ref="1621260366"/>
    <nd ref="10295133372"/>
    <nd ref="10977865748"/>
    <nd ref="2140481970"/>
    <nd ref="5434418317"/>
    <tag k="highway" v="trunk"/>
    <tag k="junction" v="circular"/>
    <tag k="lanes" v="2"/>
    <tag k="lit" v="yes"/>
    <tag k="maxspeed" v="30 mph"/>
    <tag k="oneway" v="yes"/>
    <tag k="source_ref" v="GPS"/>
    <tag k="surface" v="asphalt"/>
  </way>
  <way id="1091011734" version="8" timestamp="2024-10-07T15:50:40Z" changeset="157588433" uid="5229644" user="Nathan_A_RF">
    <nd ref="1621260443"/>
    <nd ref="10295133384"/>
    <nd ref="1621260488"/>
    <nd ref="1621260453"/>
    <nd ref="1621260459"/>
    <nd ref="5434418729"/>
    <tag k="highway" v="trunk"/>
    <tag k="junction" v="circular"/>
    <tag k="lanes" v="2"/>
    <tag k="lit" v="yes"/>
    <tag k="maxspeed" v="30 mph"/>
    <tag k="oneway" v="yes"/>
    <tag k="sidewalk:left" v="separate"/>
    <tag k="sidewalk:right" v="no"/>
    <tag k="source" v="survey"/>
    <tag k="source_ref" v="GPS"/>
    <tag k="surface" v="asphalt"/>
  </way>
  <way id="1132019640" version="2" timestamp="2023-06-14T22:33:29Z" changeset="137347154" uid="4543415" user="The_JF">
    <nd ref="10555122804"/>
    <nd ref="10977865749"/>
    <nd ref="5180740965"/>
    <nd ref="10555122807"/>
    <nd ref="8244407950"/>
    <nd ref="6399434219"/>
    <nd ref="5434418315"/>
    <nd ref="10295133379"/>
    <nd ref="5998749339"/>
    <tag k="destination:forward" v="M1;(A1(M));The North|Leeds;Selby;A63;The South|Leeds;Selby;A63;The South"/>
    <tag k="highway" v="trunk"/>
    <tag k="lanes" v="3"/>
    <tag k="maxspeed" v="40 mph"/>
    <tag k="name" v="William Parkin Way"/>
    <tag k="oneway" v="yes"/>
    <tag k="ref" v="A6120"/>
    <tag k="surface" v="asphalt"/>
  </way>

</osm>
