<?xml version="1.0" encoding="UTF-8"?>
<osm version="0.6" generator="Overpass API 0.7.62.5 1bd436f1">
<note>The data included in this document is from www.openstreetmap.org. The data is made available under ODbL.</note>
<meta osm_base="2025-05-18T02:50:12Z" areas="2024-12-31T00:49:33Z"/>

  <node id="26729470" lat="49.9992780" lon="14.3707967" version="1" timestamp="2007-03-24T00:38:42Z" changeset="243506" uid="1066" user="pavel"/>
  <node id="31515050" lat="50.0010975" lon="14.3816854" version="4" timestamp="2024-12-28T15:44:16Z" changeset="160719064" uid="1189910" user="Milancer"/>
  <node id="81918315" lat="50.0001263" lon="14.3689912" version="2" timestamp="2008-01-23T22:09:25Z" changeset="688611" uid="3516" user="BiIbo"/>
  <node id="81918334" lat="49.9967696" lon="14.3675046" version="1" timestamp="2007-10-21T00:44:41Z" changeset="275594" uid="3516" user="BiIbo">
    <tag k="created_by" v="JOSM"/>
  </node>
  <node id="237854904" lat="50.0208052" lon="14.3914656" version="3" timestamp="2021-10-14T18:15:16Z" changeset="112515379" uid="1189910" user="Milancer"/>
  <node id="277483347" lat="50.0035950" lon="14.3964131" version="1" timestamp="2008-07-10T01:56:17Z" changeset="448894" uid="3516" user="BiIbo"/>
  <node id="277483382" lat="50.0015345" lon="14.3974897" version="2" timestamp="2024-04-28T18:10:51Z" changeset="150630687" uid="9291527" user="marekhrabe"/>
  <node id="499510556" lat="50.0148692" lon="14.3714328" version="3" timestamp="2015-04-12T09:14:36Z" changeset="30158720" uid="714609" user="lcapka"/>
  <node id="1456850635" lat="49.9954836" lon="14.3741901" version="2" timestamp="2012-09-05T02:52:25Z" changeset="12989968" uid="488732" user="montardo"/>
  <node id="1824130764" lat="50.0115486" lon="14.3960858" version="2" timestamp="2021-05-24T15:48:30Z" changeset="105237708" uid="6588887" user="Martin2035"/>
  <node id="1836945257" lat="50.0022502" lon="14.3953266" version="1" timestamp="2012-07-24T20:08:09Z" changeset="12475402" uid="109724" user="mapmaniak"/>
  <node id="1899414616" lat="50.0045998" lon="14.3961559" version="2" timestamp="2021-05-31T13:18:19Z" changeset="105626585" uid="100163" user="Hlav">
    <tag k="barrier" v="gate"/>
  </node>
  <node id="4242787453" lat="50.0038561" lon="14.3949483" version="1" timestamp="2016-06-14T12:22:28Z" changeset="40016239" uid="211307" user="Jan Prazak"/>
  <node id="4246023075" lat="50.0182431" lon="14.3904740" version="1" timestamp="2016-06-16T08:40:52Z" changeset="40059645" uid="1189910" user="Milancer"/>
  <node id="4246023081" lat="50.0164718" lon="14.3939798" version="1" timestamp="2016-06-16T08:40:52Z" changeset="40059645" uid="1189910" user="Milancer"/>
  <node id="4963847998" lat="50.0045120" lon="14.3694064" version="1" timestamp="2017-07-11T12:50:34Z" changeset="50201236" uid="255936" user="NyanSten"/>
  <node id="6726649008" lat="50.0130317" lon="14.3942228" version="2" timestamp="2020-01-18T13:58:32Z" changeset="79731639" uid="8971394" user="vojtechzaboril"/>
  <node id="8309122083" lat="50.0182438" lon="14.3925988" version="4" timestamp="2025-03-13T20:12:57Z" changeset="163586806" uid="1189910" user="Milancer"/>
  <way id="4878202" version="11" timestamp="2023-09-22T12:19:16Z" changeset="141602147" uid="231749" user="Eino81">
    <nd ref="31516736"/>
    <nd ref="7141105612"/>
    <nd ref="7141105611"/>
    <nd ref="7141105610"/>
    <nd ref="7141105597"/>
    <nd ref="31516737"/>
    <tag k="bicycle" v="no"/>
    <tag k="highway" v="primary_link"/>
    <tag k="lanes" v="1"/>
    <tag k="maxspeed" v="50"/>
    <tag k="oneway" v="yes"/>
    <tag k="surface" v="asphalt"/>
  </way>
  <way id="8061124" version="9" timestamp="2022-01-17T16:28:29Z" changeset="116261894" uid="100163" user="Hlav">
    <nd ref="26729470"/>
    <nd ref="26729525"/>
    <nd ref="1188924569"/>
    <nd ref="26729526"/>
    <nd ref="26729527"/>
    <nd ref="761657408"/>
    <nd ref="761657557"/>
    <nd ref="26729528"/>
    <nd ref="26729529"/>
    <nd ref="26729530"/>
    <nd ref="761540107"/>
    <nd ref="26729531"/>
    <nd ref="761540148"/>
    <nd ref="26729536"/>
    <nd ref="761540129"/>
    <nd ref="761540121"/>
    <nd ref="761540105"/>
    <nd ref="3687628937"/>
    <nd ref="761540094"/>
    <nd ref="277483488"/>
    <nd ref="26729537"/>
    <tag k="highway" v="residential"/>
    <tag k="motor_vehicle" v="permit"/>
    <tag k="name" v="K Višňovému sadu"/>
  </way>
  <way id="8061125" version="2" timestamp="2022-02-24T11:54:08Z" changeset="117809097" uid="1641564" user="Jakuje">
    <nd ref="60271528"/>
    <nd ref="26729542"/>
    <nd ref="26729540"/>
    <nd ref="26729539"/>
    <nd ref="26729538"/>
    <nd ref="26729536"/>
    <tag k="highway" v="residential"/>
  </way>
  <way id="8061126" version="3" timestamp="2010-06-01T18:34:42Z" changeset="4876427" uid="3516" user="BiIbo">
    <nd ref="26729525"/>
    <nd ref="761540123"/>
    <nd ref="26729541"/>
    <nd ref="761540060"/>
    <nd ref="26729540"/>
    <nd ref="81918302"/>
    <nd ref="81918305"/>
    <nd ref="81918308"/>
    <nd ref="81918310"/>
    <nd ref="761540077"/>
    <nd ref="81918313"/>
    <tag k="highway" v="residential"/>
  </way>
  <way id="8061129" version="11" timestamp="2023-12-16T10:49:28Z" changeset="145179704" uid="20552061" user="CD1850">
    <nd ref="277482843"/>
    <nd ref="277482982"/>
    <nd ref="277482981"/>
    <nd ref="11422542571"/>
    <nd ref="5617999755"/>
    <nd ref="277482980"/>
    <nd ref="8500561357"/>
    <nd ref="8500561358"/>
    <nd ref="8500561344"/>
    <nd ref="26729533"/>
    <nd ref="26729532"/>
    <nd ref="26729534"/>
    <nd ref="761540034"/>
    <nd ref="26729535"/>
    <tag k="highway" v="residential"/>
    <tag k="motor_vehicle" v="permit"/>
    <tag k="name" v="Nad Chuchlí"/>
    <tag k="oneway" v="no"/>
  </way>
  <way id="8378007" version="16" timestamp="2021-03-09T16:31:08Z" changeset="100722644" uid="25867" user="adamos">
    <nd ref="3783176973"/>
    <nd ref="3050205981"/>
    <nd ref="2263121941"/>
    <nd ref="3050205985"/>
    <nd ref="3050205990"/>
    <nd ref="3050205993"/>
    <nd ref="3050205995"/>
    <nd ref="3050205996"/>
    <nd ref="3050205998"/>
    <nd ref="1465014391"/>
    <nd ref="25953375"/>
    <nd ref="25953379"/>
    <nd ref="1839538590"/>
    <nd ref="25953384"/>
    <nd ref="8500561422"/>
    <nd ref="1465014511"/>
    <nd ref="277482816"/>
    <nd ref="8500561421"/>
    <nd ref="277482817"/>
    <nd ref="1839538617"/>
    <nd ref="277482818"/>
    <nd ref="2303490824"/>
    <nd ref="277482819"/>
    <nd ref="1465014513"/>
    <nd ref="277482820"/>
    <nd ref="8500561420"/>
    <nd ref="277482814"/>
    <tag k="highway" v="residential"/>
    <tag k="name" v="Na Hvězdárně"/>
    <tag k="surface" v="asphalt"/>
  </way>
  <way id="8378014" version="7" timestamp="2011-10-13T15:44:50Z" changeset="9548290" uid="528828" user="Ladar">
    <nd ref="74035817"/>
    <nd ref="74035810"/>
    <tag k="highway" v="residential"/>
    <tag k="name" v="U Bažantnice"/>
  </way>
  <way id="9560571" version="3" timestamp="2011-10-13T15:44:47Z" changeset="9548290" uid="528828" user="Ladar">
    <nd ref="74035929"/>
    <nd ref="74035802"/>
    <tag k="highway" v="residential"/>
    <tag k="name" v="Bruntálská"/>
    <tag k="oneway" v="no"/>
  </way>
  <way id="9560574" version="3" timestamp="2011-10-13T15:44:47Z" changeset="9548290" uid="528828" user="Ladar">
    <nd ref="74035802"/>
    <nd ref="74035810"/>
    <tag k="highway" v="residential"/>
    <tag k="name" v="Bruntálská"/>
    <tag k="oneway" v="no"/>
  </way>
  <way id="9560576" version="5" timestamp="2012-07-27T07:53:26Z" changeset="12507923" uid="364739" user="j123b567">
    <nd ref="25953390"/>
    <nd ref="1839538595"/>
    <nd ref="25953384"/>
    <tag k="highway" v="residential"/>
    <tag k="name" v="Nad Libří"/>
  </way>
  <way id="9974860" version="9" timestamp="2019-06-29T06:31:52Z" changeset="71729163" uid="665336" user="Minimalis">
    <nd ref="81918334"/>
    <nd ref="81918337"/>
    <nd ref="1194994159"/>
    <nd ref="81918341"/>
    <nd ref="1194994152"/>
    <nd ref="1126365540"/>
    <nd ref="81918345"/>
    <nd ref="81918349"/>
    <nd ref="81918352"/>
    <nd ref="2223524835"/>
    <nd ref="26729469"/>
    <tag k="highway" v="residential"/>
    <tag k="name" v="Sobětická"/>
  </way>
  <way id="9974861" version="4" timestamp="2013-03-25T23:29:36Z" changeset="15497824" uid="488732" user="montardo">
    <nd ref="81918315"/>
    <nd ref="26729469"/>
    <nd ref="2223524871"/>
    <nd ref="26729470"/>
    <tag k="highway" v="residential"/>
    <tag k="name" v="K Višňovce"/>
  </way>
  <way id="22105088" version="30" timestamp="2023-09-22T12:19:16Z" changeset="141602147" uid="231749" user="Eino81">
    <nd ref="7141105587"/>
    <nd ref="7141105586"/>
    <nd ref="7141101383"/>
    <nd ref="7141105585"/>
    <nd ref="7141101380"/>
    <nd ref="31516749"/>
    <nd ref="7141105603"/>
    <nd ref="31516748"/>
    <nd ref="7141105602"/>
    <nd ref="31516736"/>
    <tag k="bicycle" v="no"/>
    <tag k="highway" v="primary_link"/>
    <tag k="lanes" v="1"/>
    <tag k="maxspeed" v="50"/>
    <tag k="name" v="Dostihová"/>
    <tag k="oneway" v="yes"/>
    <tag k="surface" v="asphalt"/>
    <tag k="turn:lanes" v="right"/>
  </way>
  <way id="22392337" version="23" timestamp="2025-03-05T08:37:12Z" changeset="163234242" uid="718054" user="Piskvor">
    <nd ref="4246023075"/>
    <nd ref="237854911"/>
    <nd ref="8262517075"/>
    <nd ref="8262517065"/>
    <nd ref="8311355382"/>
    <nd ref="2653863612"/>
    <nd ref="237854912"/>
    <tag k="cycleway:both" v="no"/>
    <tag k="highway" v="tertiary"/>
    <tag k="lanes" v="2"/>
    <tag k="lit" v="yes"/>
    <tag k="maxspeed" v="50"/>
    <tag k="name" v="Mezichuchelská"/>
    <tag k="oneway" v="no"/>
    <tag k="shoulder" v="no"/>
    <tag k="sidewalk" v="separate"/>
    <tag k="surface" v="asphalt"/>
  </way>
  <way id="25464596" version="12" timestamp="2021-01-04T00:20:43Z" changeset="96868737" uid="2087700" user="NESClUS">
    <nd ref="277482298"/>
    <nd ref="1469153577"/>
    <nd ref="277482299"/>
    <nd ref="277482300"/>
    <nd ref="1385836979"/>
    <nd ref="277482301"/>
    <tag k="highway" v="residential"/>
    <tag k="name" v="Granátová"/>
    <tag k="source:name" v="nameit/uir-adr"/>
    <tag k="surface" v="asphalt"/>
  </way>
  <way id="25464624" version="6" timestamp="2017-09-06T11:36:19Z" changeset="51778577" uid="255936" user="NyanSten">
    <nd ref="277482578"/>
    <nd ref="1839539017"/>
    <tag k="highway" v="residential"/>
    <tag k="name" v="K Vápence"/>
    <tag k="source:name" v="cuzk:km;survey"/>
  </way>
  <way id="25464628" version="7" timestamp="2024-03-30T16:29:08Z" changeset="149359218" uid="9291527" user="marekhrabe">
    <nd ref="1824130828"/>
    <nd ref="277482666"/>
    <nd ref="11773838926"/>
    <nd ref="277482606"/>
    <tag k="highway" v="residential"/>
    <tag k="name" v="Dolomitová"/>
    <tag k="source:name" v="nameit/uir-adr"/>
  </way>
  <way id="25464629" version="5" timestamp="2012-07-13T12:05:31Z" changeset="12205893" uid="364739" user="j123b567">
    <nd ref="277482619"/>
    <nd ref="277482615"/>
    <tag k="highway" v="residential"/>
    <tag k="name" v="Prodloužená"/>
    <tag k="oneway" v="yes"/>
    <tag k="source:name" v="nameit/uir-adr"/>
  </way>
  <way id="25464630" version="5" timestamp="2023-09-19T18:17:06Z" changeset="141480806" uid="1189910" user="Milancer">
    <nd ref="277482579"/>
    <nd ref="277482628"/>
    <nd ref="277482627"/>
    <nd ref="277482626"/>
    <nd ref="277482625"/>
    <nd ref="11203227199"/>
    <nd ref="277482624"/>
    <tag k="highway" v="residential"/>
    <tag k="name" v="Prodloužená"/>
    <tag k="source:name" v="nameit/uir-adr"/>
  </way>
  <way id="25464631" version="6" timestamp="2012-07-27T07:53:27Z" changeset="12507923" uid="364739" user="j123b567">
    <nd ref="277482629"/>
    <nd ref="1839538988"/>
    <tag k="highway" v="residential"/>
    <tag k="name" v="Pod Akáty"/>
    <tag k="source:name" v="nameit/uir-adr"/>
    <tag k="surface" v="paving_stones"/>
  </way>
  <way id="25464632" version="9" timestamp="2025-03-26T13:10:30Z" changeset="164121376" uid="7698761" user="_Neptun">
    <nd ref="277482636"/>
    <nd ref="11201772123"/>
    <nd ref="31516527"/>
    <tag k="highway" v="residential"/>
    <tag k="name" v="Pod Akáty"/>
    <tag k="oneway" v="yes"/>
    <tag k="source:name" v="nameit/uir-adr"/>
    <tag k="surface" v="asphalt"/>
  </way>
  <way id="25464633" version="4" timestamp="2025-03-26T13:10:36Z" changeset="164121376" uid="7698761" user="_Neptun">
    <nd ref="277482640"/>
    <nd ref="1839538878"/>
    <nd ref="727508816"/>
    <tag k="highway" v="residential"/>
    <tag k="name" v="Starochuchelská"/>
    <tag k="surface" v="asphalt"/>
  </way>
  <way id="25464634" version="11" timestamp="2021-05-01T11:10:05Z" changeset="103951917" uid="13221266" user="danielpeslari">
    <nd ref="277482616"/>
    <nd ref="277482617"/>
    <nd ref="277482618"/>
    <nd ref="277482613"/>
    <nd ref="1839538728"/>
    <nd ref="277482646"/>
    <nd ref="277482647"/>
    <nd ref="277482648"/>
    <nd ref="277482649"/>
    <nd ref="277482650"/>
    <nd ref="1839538729"/>
    <nd ref="277482651"/>
    <nd ref="277482652"/>
    <nd ref="1449211220"/>
    <nd ref="277482653"/>
    <tag k="highway" v="residential"/>
    <tag k="name" v="Na Cihelně"/>
    <tag k="oneway" v="yes"/>
    <tag k="source:name" v="nameit/uir-adr"/>
    <tag k="surface" v="asphalt"/>
  </way>
  <way id="25464636" version="3" timestamp="2009-03-12T00:43:24Z" changeset="792152" uid="3516" user="BiIbo">
    <nd ref="277482619"/>
    <nd ref="277482620"/>
    <tag k="highway" v="residential"/>
    <tag k="name" v="U Černé rokle"/>
    <tag k="source:name" v="nameit/uir-adr"/>
  </way>
  <way id="25464637" version="4" timestamp="2011-10-13T16:40:41Z" changeset="9548290" uid="528828" user="Ladar">
    <nd ref="277482607"/>
    <nd ref="277482619"/>
    <tag k="highway" v="residential"/>
    <tag k="name" v="Prodloužená"/>
    <tag k="oneway" v="yes"/>
    <tag k="source:name" v="nameit/uir-adr"/>
  </way>
  <way id="25464638" version="3" timestamp="2008-11-10T17:41:52Z" changeset="728860" uid="8007" user="vrabcak">
    <nd ref="277482622"/>
    <nd ref="277482654"/>
    <tag k="highway" v="residential"/>
    <tag k="name" v="Spádová"/>
  </way>
  <way id="25464639" version="6" timestamp="2025-03-04T21:11:46Z" changeset="163219775" uid="11545091" user="VladaC">
    <nd ref="12043762754"/>
    <nd ref="12637184096"/>
    <nd ref="277482656"/>
    <nd ref="277482657"/>
    <nd ref="727508747"/>
    <tag k="highway" v="residential"/>
    <tag k="name" v="Starochuchelská"/>
    <tag k="source:name" v="nameit/uir-adr"/>
  </way>
  <way id="25464640" version="13" timestamp="2024-05-25T22:07:45Z" changeset="151829931" uid="469828" user="Lukáš Jelínek">
    <nd ref="277482639"/>
    <nd ref="1824130808"/>
    <nd ref="11933928232"/>
    <nd ref="277482638"/>
    <nd ref="277482637"/>
    <tag k="highway" v="residential"/>
    <tag k="lit" v="yes"/>
    <tag k="name" v="Pod Akáty"/>
    <tag k="oneway" v="yes"/>
    <tag k="sidewalk" v="no"/>
    <tag k="source:name" v="nameit/uir-adr"/>
    <tag k="surface" v="asphalt"/>
  </way>
  <way id="25464641" version="6" timestamp="2023-09-19T08:25:21Z" changeset="141456882" uid="1189910" user="Milancer">
    <nd ref="277482642"/>
    <nd ref="11201772120"/>
    <nd ref="277482789"/>
    <nd ref="277482639"/>
    <tag k="highway" v="residential"/>
    <tag k="motor_vehicle" v="destination"/>
    <tag k="name" v="Na Mrázovce"/>
    <tag k="oneway" v="yes"/>
    <tag k="source:name" v="nameit/uir-adr"/>
  </way>
  <way id="25464642" version="7" timestamp="2025-03-26T13:10:36Z" changeset="164121376" uid="7698761" user="_Neptun">
    <nd ref="277482642"/>
    <nd ref="1839538936"/>
    <nd ref="1465298397"/>
    <tag k="highway" v="residential"/>
    <tag k="name" v="Starochuchelská"/>
    <tag k="source:name" v="nameit/uir-adr"/>
    <tag k="surface" v="asphalt"/>
  </way>
  <way id="25464643" version="7" timestamp="2017-09-06T11:36:20Z" changeset="51778577" uid="255936" user="NyanSten">
    <nd ref="277482603"/>
    <nd ref="277482660"/>
    <nd ref="277482661"/>
    <tag k="highway" v="residential"/>
    <tag k="name" v="K Vápence"/>
    <tag k="source" v="cuzk:km;uhul:ortofoto"/>
    <tag k="source:name" v="nameit/uir-adr"/>
  </way>
  <way id="25464667" version="8" timestamp="2025-03-26T13:10:41Z" changeset="164121376" uid="7698761" user="_Neptun">
    <nd ref="31516741"/>
    <nd ref="1839538846"/>
    <nd ref="8567727974"/>
    <nd ref="727508760"/>
    <tag k="highway" v="residential"/>
    <tag k="name" v="Nad Drahou"/>
    <tag k="source:name" v="nameit/uir-adr"/>
    <tag k="surface" v="asphalt"/>
  </way>
  <way id="25464668" version="10" timestamp="2024-05-25T22:07:45Z" changeset="151829931" uid="469828" user="Lukáš Jelínek">
    <nd ref="277482789"/>
    <nd ref="11933928230"/>
    <nd ref="1824130797"/>
    <nd ref="11933928231"/>
    <nd ref="277482790"/>
    <nd ref="277482791"/>
    <nd ref="277482792"/>
    <nd ref="277482793"/>
    <nd ref="277482794"/>
    <nd ref="277482795"/>
    <nd ref="1465380031"/>
    <nd ref="1839538971"/>
    <nd ref="277482796"/>
    <nd ref="277482797"/>
    <nd ref="1484817193"/>
    <nd ref="277482798"/>
    <nd ref="277482799"/>
    <nd ref="277482800"/>
    <nd ref="761543359"/>
    <nd ref="277482788"/>
    <tag k="highway" v="residential"/>
    <tag k="name" v="Na Mrázovce"/>
    <tag k="oneway" v="yes"/>
  </way>
  <way id="25464672" version="4" timestamp="2022-08-04T12:53:52Z" changeset="124480041" uid="100163" user="Hlav">
    <nd ref="277482821"/>
    <nd ref="74035929"/>
    <nd ref="1465014512"/>
    <nd ref="9931761723"/>
    <nd ref="277482815"/>
    <tag k="highway" v="residential"/>
    <tag k="name" v="Novochuchelská"/>
  </way>
  <way id="25464673" version="6" timestamp="2024-11-02T20:20:07Z" changeset="158675539" uid="1189910" user="Milancer">
    <nd ref="1480392158"/>
    <nd ref="1480392174"/>
    <nd ref="1839538580"/>
    <nd ref="1480392178"/>
    <nd ref="1480392185"/>
    <nd ref="12307910654"/>
    <nd ref="1480392177"/>
    <nd ref="1839538583"/>
    <nd ref="1480392171"/>
    <nd ref="12307910653"/>
    <nd ref="1480392176"/>
    <nd ref="12307910652"/>
    <nd ref="1839538585"/>
    <nd ref="74035817"/>
    <nd ref="277482822"/>
    <tag k="highway" v="residential"/>
    <tag k="name" v="Bílčická"/>
  </way>
  <way id="25464691" version="4" timestamp="2012-05-30T08:11:40Z" changeset="11745970" uid="367303" user="Vaekk">
    <nd ref="26729532"/>
    <nd ref="761540136"/>
    <nd ref="26729531"/>
    <tag k="highway" v="residential"/>
    <tag k="name" v="Jana Ouřady"/>
    <tag k="oneway" v="no"/>
  </way>
  <way id="25464692" version="4" timestamp="2012-05-30T08:11:43Z" changeset="11745970" uid="367303" user="Vaekk">
    <nd ref="26729534"/>
    <nd ref="277482983"/>
    <nd ref="761540039"/>
    <nd ref="26729536"/>
    <tag k="highway" v="residential"/>
    <tag k="name" v="Závodní"/>
    <tag k="oneway" v="no"/>
  </way>
  <way id="25464694" version="4" timestamp="2017-07-11T12:50:35Z" changeset="50201236" uid="255936" user="NyanSten">
    <nd ref="277482846"/>
    <nd ref="761540115"/>
    <nd ref="277482986"/>
    <tag k="access" v="destination"/>
    <tag k="highway" v="residential"/>
    <tag k="maxspeed" v="30"/>
    <tag k="name" v="Štičkova"/>
    <tag k="oneway" v="no"/>
    <tag k="source:maxspeed" v="sign"/>
    <tag k="surface" v="compacted"/>
  </way>
  <way id="25464695" version="6" timestamp="2020-08-26T11:56:55Z" changeset="89970674" uid="597381" user="JirkaChuchle">
    <nd ref="277482980"/>
    <nd ref="277482987"/>
    <nd ref="277482988"/>
    <nd ref="761540071"/>
    <nd ref="277482989"/>
    <nd ref="761540051"/>
    <nd ref="277482990"/>
    <nd ref="277482991"/>
    <nd ref="277482992"/>
    <nd ref="277482993"/>
    <nd ref="277482994"/>
    <nd ref="761657454"/>
    <nd ref="277482995"/>
    <nd ref="277482996"/>
    <nd ref="26729469"/>
    <tag k="highway" v="residential"/>
    <tag k="motor_vehicle" v="permit"/>
    <tag k="name" v="Na Lahovské"/>
  </way>
  <way id="25464696" version="4" timestamp="2012-05-30T08:11:42Z" changeset="11745970" uid="367303" user="Vaekk">
    <nd ref="277482993"/>
    <nd ref="277482997"/>
    <tag k="highway" v="residential"/>
    <tag k="name" v="Polákova"/>
    <tag k="oneway" v="no"/>
  </way>
  <way id="25464704" version="4" timestamp="2017-07-11T12:50:35Z" changeset="50201236" uid="255936" user="NyanSten">
    <nd ref="277482845"/>
    <nd ref="761540113"/>
    <nd ref="761540098"/>
    <nd ref="277483081"/>
    <tag k="access" v="destination"/>
    <tag k="highway" v="residential"/>
    <tag k="maxspeed" v="30"/>
    <tag k="name" v="Josefa Šacha"/>
    <tag k="source:maxspeed" v="sign"/>
    <tag k="surface" v="compacted"/>
  </way>
  <way id="25464705" version="5" timestamp="2017-07-11T12:50:35Z" changeset="50201236" uid="255936" user="NyanSten">
    <nd ref="761540144"/>
    <nd ref="277482844"/>
    <tag k="access" v="destination"/>
    <tag k="highway" v="residential"/>
    <tag k="maxspeed" v="30"/>
    <tag k="name" v="Nad Libeřským potokem"/>
    <tag k="source:maxspeed" v="sign"/>
    <tag k="surface" v="dirt"/>
  </way>
  <way id="25464706" version="3" timestamp="2017-07-11T12:50:35Z" changeset="50201236" uid="255936" user="NyanSten">
    <nd ref="277483085"/>
    <nd ref="277483086"/>
    <tag k="access" v="destination"/>
    <tag k="highway" v="residential"/>
    <tag k="maxspeed" v="30"/>
    <tag k="name" v="Nad Prahou"/>
    <tag k="source:maxspeed" v="sign"/>
    <tag k="surface" v="dirt"/>
  </way>
  <way id="25464708" version="2" timestamp="2012-05-30T08:11:41Z" changeset="11745970" uid="367303" user="Vaekk">
    <nd ref="277483089"/>
    <nd ref="277482997"/>
    <nd ref="277483090"/>
    <tag k="highway" v="residential"/>
    <tag k="name" v="Na Roháčku"/>
  </way>
  <way id="25464744" version="9" timestamp="2022-03-22T13:14:10Z" changeset="118778244" uid="37237" user="pard">
    <nd ref="237854912"/>
    <nd ref="1234027630"/>
    <tag k="highway" v="residential"/>
    <tag k="lit" v="yes"/>
    <tag k="name" v="Starolázeňská"/>
    <tag k="sidewalk" v="no"/>
    <tag k="source:name" v="nameit/uir-adr"/>
    <tag k="surface" v="asphalt"/>
  </way>
  <way id="25464745" version="8" timestamp="2024-01-17T14:30:58Z" changeset="146367503" uid="1189910" user="Milancer">
    <nd ref="277483228"/>
    <nd ref="277483232"/>
    <nd ref="11524899195"/>
    <nd ref="277483233"/>
    <nd ref="360403052"/>
    <nd ref="1234027614"/>
    <tag k="highway" v="residential"/>
    <tag k="name" v="Starolázeňská"/>
    <tag k="source:name" v="nameit/uir-adr"/>
  </way>
  <way id="25464746" version="6" timestamp="2011-02-07T01:40:59Z" changeset="7204886" uid="3516" user="BiIbo">
    <nd ref="277483234"/>
    <nd ref="1140219910"/>
    <tag k="highway" v="residential"/>
    <tag k="name" v="Drážní"/>
    <tag k="source:name" v="nameit/uir-adr"/>
  </way>
  <way id="25464776" version="13" timestamp="2023-09-22T12:19:16Z" changeset="141602147" uid="231749" user="Eino81">
    <nd ref="9022157829"/>
    <nd ref="1561231489"/>
    <nd ref="1561231491"/>
    <nd ref="277483345"/>
    <nd ref="277483346"/>
    <tag k="bicycle" v="no"/>
    <tag k="highway" v="primary_link"/>
    <tag k="lanes" v="1"/>
    <tag k="lit" v="yes"/>
    <tag k="maxspeed" v="50"/>
    <tag k="oneway" v="yes"/>
    <tag k="surface" v="asphalt"/>
  </way>
  <way id="25464777" version="13" timestamp="2023-09-22T12:19:16Z" changeset="141602147" uid="231749" user="Eino81">
    <nd ref="277483346"/>
    <nd ref="9022157827"/>
    <nd ref="277483348"/>
    <nd ref="9022157828"/>
    <nd ref="1561231494"/>
    <nd ref="277483349"/>
    <tag k="bicycle" v="no"/>
    <tag k="highway" v="primary_link"/>
    <tag k="lanes" v="1"/>
    <tag k="lit" v="yes"/>
    <tag k="maxspeed" v="50"/>
    <tag k="oneway" v="yes"/>
    <tag k="surface" v="asphalt"/>
  </way>
  <way id="25464778" version="6" timestamp="2021-05-31T13:18:19Z" changeset="105626585" uid="100163" user="Hlav">
    <nd ref="1899414616"/>
    <nd ref="277483350"/>
    <nd ref="277483351"/>
    <nd ref="277483352"/>
    <nd ref="8785625365"/>
    <nd ref="277483347"/>
    <tag k="highway" v="residential"/>
    <tag k="name" v="K Sádkám"/>
  </way>
  <way id="25464786" version="4" timestamp="2021-05-24T15:48:30Z" changeset="105237708" uid="6588887" user="Martin2035">
    <nd ref="277483346"/>
    <nd ref="277483347"/>
    <tag k="highway" v="residential"/>
    <tag k="name" v="K Sádkám"/>
    <tag k="surface" v="asphalt"/>
  </way>
  <way id="25464821" version="1" timestamp="2008-07-10T02:01:09Z" changeset="448894" uid="3516" user="BiIbo">
    <nd ref="81918310"/>
    <nd ref="277483485"/>
    <nd ref="277483486"/>
    <nd ref="277483487"/>
    <nd ref="277483488"/>
    <tag k="highway" v="residential"/>
  </way>
  <way id="25464822" version="2" timestamp="2010-06-01T18:34:42Z" changeset="4876427" uid="3516" user="BiIbo">
    <nd ref="277483490"/>
    <nd ref="761540133"/>
    <nd ref="277483491"/>
    <nd ref="761540125"/>
    <nd ref="761540142"/>
    <nd ref="277483492"/>
    <nd ref="761540100"/>
    <nd ref="81918313"/>
    <tag k="highway" v="residential"/>
  </way>
  <way id="27130847" version="9" timestamp="2023-08-20T17:56:10Z" changeset="140145022" uid="16361887" user="8err">
    <nd ref="277483347"/>
    <nd ref="761491972"/>
    <nd ref="301901923"/>
    <nd ref="8761761330"/>
    <nd ref="11132454713"/>
    <tag k="highway" v="residential"/>
    <tag k="name" v="K Sádkám"/>
    <tag k="surface" v="asphalt"/>
  </way>
  <way id="27714795" version="4" timestamp="2010-05-09T14:54:15Z" changeset="4649507" uid="29818" user="zub">
    <nd ref="304338057"/>
    <nd ref="727508678"/>
    <tag k="highway" v="residential"/>
    <tag k="name" v="U Závodiště"/>
  </way>
  <way id="28329392" version="6" timestamp="2024-05-25T22:07:45Z" changeset="151829931" uid="469828" user="Lukáš Jelínek">
    <nd ref="31516527"/>
    <nd ref="11201772122"/>
    <nd ref="11201772121"/>
    <nd ref="11933928212"/>
    <nd ref="11933928211"/>
    <nd ref="277482629"/>
    <tag k="highway" v="tertiary"/>
    <tag k="lanes" v="2"/>
    <tag k="name" v="Pod Akáty"/>
    <tag k="surface" v="asphalt"/>
  </way>
  <way id="28329393" version="13" timestamp="2025-03-04T21:11:46Z" changeset="163219775" uid="11545091" user="VladaC">
    <nd ref="277482629"/>
    <nd ref="1839538986"/>
    <nd ref="11933928209"/>
    <nd ref="31516526"/>
    <nd ref="727508768"/>
    <nd ref="1685266162"/>
    <tag k="highway" v="tertiary"/>
    <tag k="name" v="V Dolích"/>
    <tag k="surface" v="asphalt"/>
  </way>
  <way id="31750483" version="11" timestamp="2024-11-08T10:34:14Z" changeset="158889696" uid="100163" user="Hlav">
    <nd ref="3489688164"/>
    <nd ref="3489688165"/>
    <nd ref="3489688162"/>
    <nd ref="3489688168"/>
    <nd ref="12323333271"/>
    <nd ref="3489688167"/>
    <nd ref="3489688170"/>
    <nd ref="3489688171"/>
    <nd ref="3489688172"/>
    <nd ref="3736059675"/>
    <nd ref="3489688169"/>
    <nd ref="3489688166"/>
    <nd ref="3489688163"/>
    <nd ref="3489688158"/>
    <nd ref="3489688159"/>
    <nd ref="3489688160"/>
    <nd ref="3489688147"/>
    <nd ref="3489688146"/>
    <nd ref="3489688144"/>
    <nd ref="3489688141"/>
    <nd ref="3489688142"/>
    <nd ref="3489688143"/>
    <nd ref="3489688145"/>
    <nd ref="3489688148"/>
    <nd ref="3489688149"/>
    <nd ref="3489688150"/>
    <nd ref="3489688161"/>
    <nd ref="3489688152"/>
    <nd ref="3489688151"/>
    <nd ref="3489688153"/>
    <nd ref="3489688154"/>
    <nd ref="3489688155"/>
    <nd ref="3489688156"/>
    <nd ref="3489688157"/>
    <nd ref="3489688164"/>
    <tag k="amenity" v="place_of_worship"/>
    <tag k="building" v="civic"/>
    <tag k="building:architecture" v="baroque"/>
    <tag k="building:colour" v="lightyellow"/>
    <tag k="building:levels" v="1"/>
    <tag k="building:ruian:type" v="15"/>
    <tag k="denomination" v="roman_catholic"/>
    <tag k="diocese" v="Pražská arcidiecéze"/>
    <tag k="height" v="18"/>
    <tag k="heritage" v="3"/>
    <tag k="heritage:operator" v="npu"/>
    <tag k="name" v="svatý Jan Nepomucký"/>
    <tag k="official_name" v="Kostel svatého Jana Nepomuckého"/>
    <tag k="ref:ruian:building" v="49133985"/>
    <tag k="religion" v="christian"/>
    <tag k="roof:colour" v="firebrick"/>
    <tag k="roof:height" v="6"/>
    <tag k="roof:shape" v="gabled"/>
    <tag k="source" v="cuzk:ruian"/>
    <tag k="start_date" v="1729"/>
    <tag k="wikidata" v="Q38187374"/>
    <tag k="wikimedia_commons" v="Category:Church_of_Saint_John_of_Nepomuk_(Chuchelský_háj)"/>
    <tag k="wikipedia" v="cs:Kostel svatého Jana Nepomuckého (Velká Chuchle)"/>
  </way>
  <way id="32111378" version="15" timestamp="2022-03-05T16:50:57Z" changeset="118133368" uid="1189910" user="Milancer">
    <nd ref="237853147"/>
    <nd ref="7522964193"/>
    <nd ref="1140219913"/>
    <nd ref="8531303173"/>
    <nd ref="9556294569"/>
    <nd ref="1140219906"/>
    <tag k="highway" v="tertiary"/>
    <tag k="maxspeed" v="50"/>
    <tag k="name" v="Radotínská"/>
    <tag k="surface" v="asphalt"/>
  </way>
  <way id="32112184" version="1" timestamp="2009-03-14T20:09:09Z" changeset="807112" uid="3516" user="BiIbo">
    <nd ref="360403030"/>
    <nd ref="360403033"/>
    <nd ref="304338057"/>
    <tag k="highway" v="residential"/>
    <tag k="name" v="U Křižovatky"/>
    <tag k="source" v="uhul:ortofoto"/>
  </way>
  <way id="32112185" version="4" timestamp="2012-07-13T12:05:34Z" changeset="12205893" uid="364739" user="j123b567">
    <nd ref="360403036"/>
    <nd ref="1824130778"/>
    <nd ref="360403038"/>
    <nd ref="1421082161"/>
    <nd ref="360403040"/>
    <nd ref="1421082164"/>
    <nd ref="360403043"/>
    <nd ref="360403045"/>
    <nd ref="1421082179"/>
    <tag k="highway" v="residential"/>
    <tag k="name" v="U Zahradnictví"/>
    <tag k="source" v="uhul:ortofoto"/>
  </way>
  <way id="33743743" version="3" timestamp="2013-05-14T08:39:16Z" changeset="16122045" uid="595326" user="viduka">
    <nd ref="277482610"/>
    <nd ref="277482609"/>
    <tag k="highway" v="residential"/>
    <tag k="name" v="náměstí Omladiny"/>
    <tag k="source" v="survey;cuzk:km;uhul:ortofoto"/>
  </way>
  <way id="58700579" version="3" timestamp="2025-03-26T13:10:32Z" changeset="164121376" uid="7698761" user="_Neptun">
    <nd ref="31516528"/>
    <nd ref="11933928214"/>
    <nd ref="11933928213"/>
    <nd ref="727399026"/>
    <nd ref="277482655"/>
    <tag k="highway" v="tertiary"/>
    <tag k="maxspeed" v="30"/>
    <tag k="name" v="Starochuchelská"/>
    <tag k="surface" v="asphalt"/>
  </way>
  <way id="58700584" version="3" timestamp="2025-03-26T13:10:32Z" changeset="164121376" uid="7698761" user="_Neptun">
    <nd ref="277482655"/>
    <nd ref="727508778"/>
    <tag k="highway" v="tertiary"/>
    <tag k="name" v="Starochuchelská"/>
    <tag k="surface" v="asphalt"/>
  </way>
  <way id="58703894" version="3" timestamp="2025-03-26T13:10:32Z" changeset="164121376" uid="7698761" user="_Neptun">
    <nd ref="727436869"/>
    <nd ref="277482610"/>
    <tag k="highway" v="tertiary"/>
    <tag k="name" v="Starochuchelská"/>
    <tag k="surface" v="asphalt"/>
  </way>
  <way id="58705669" version="4" timestamp="2021-11-21T20:15:28Z" changeset="114071828" uid="1189910" user="Milancer">
    <nd ref="499510556"/>
    <nd ref="31516516"/>
    <nd ref="31516515"/>
    <nd ref="31516514"/>
    <nd ref="31516513"/>
    <nd ref="9273027704"/>
    <nd ref="31516512"/>
    <nd ref="31516511"/>
    <nd ref="31516510"/>
    <nd ref="31516509"/>
    <nd ref="9273027703"/>
    <nd ref="31516508"/>
    <nd ref="31516507"/>
    <nd ref="9273027702"/>
    <nd ref="31516506"/>
    <nd ref="31516505"/>
    <nd ref="31516504"/>
    <nd ref="31516503"/>
    <nd ref="31516502"/>
    <nd ref="9273027701"/>
    <nd ref="9273027700"/>
    <nd ref="31516501"/>
    <nd ref="9273027698"/>
    <nd ref="31516500"/>
    <nd ref="9273027697"/>
    <nd ref="31516499"/>
    <tag k="highway" v="tertiary"/>
    <tag k="name" v="V Dolích"/>
  </way>
  <way id="58709454" version="4" timestamp="2025-03-26T13:10:37Z" changeset="164121376" uid="7698761" user="_Neptun">
    <nd ref="727508816"/>
    <nd ref="277482641"/>
    <tag k="bridge" v="yes"/>
    <tag k="highway" v="residential"/>
    <tag k="layer" v="1"/>
    <tag k="name" v="Starochuchelská"/>
    <tag k="surface" v="asphalt"/>
  </way>
  <way id="58709455" version="9" timestamp="2023-12-16T11:14:02Z" changeset="145180523" uid="20552061" user="CD1850">
    <nd ref="761543357"/>
    <nd ref="277482788"/>
    <nd ref="277482787"/>
    <nd ref="1484817194"/>
    <nd ref="11414630789"/>
    <nd ref="277482786"/>
    <nd ref="1484817192"/>
    <nd ref="277482785"/>
    <nd ref="277482784"/>
    <nd ref="277482783"/>
    <nd ref="727508776"/>
    <tag k="highway" v="residential"/>
    <tag k="lit" v="yes"/>
    <tag k="name" v="Nad Drahou"/>
    <tag k="oneway" v="yes"/>
    <tag k="source:name" v="nameit/uir-adr"/>
    <tag k="surface" v="asphalt"/>
  </way>
  <way id="58709457" version="4" timestamp="2012-08-16T12:21:09Z" changeset="12750054" uid="364739" user="j123b567">
    <nd ref="277482587"/>
    <nd ref="1868605762"/>
    <nd ref="1839538842"/>
    <tag k="highway" v="residential"/>
    <tag k="name" v="Dubnická"/>
    <tag k="source:name" v="cuzk:km"/>
  </way>
  <way id="58709458" version="6" timestamp="2022-03-06T13:14:40Z" changeset="118158340" uid="37237" user="pard">
    <nd ref="727508760"/>
    <nd ref="727508776"/>
    <tag k="bridge" v="yes"/>
    <tag k="highway" v="residential"/>
    <tag k="layer" v="1"/>
    <tag k="lit" v="yes"/>
    <tag k="maxweight:signed" v="no"/>
    <tag k="name" v="Nad Drahou"/>
    <tag k="sidewalk" v="no"/>
    <tag k="source:name" v="nameit/uir-adr"/>
    <tag k="surface" v="asphalt"/>
  </way>
  <way id="58709460" version="3" timestamp="2017-09-06T11:36:19Z" changeset="51778577" uid="255936" user="NyanSten">
    <nd ref="727508784"/>
    <nd ref="277482579"/>
    <tag k="highway" v="residential"/>
    <tag k="name" v="K Vápence"/>
    <tag k="source:name" v="cuzk:km;survey"/>
  </way>
  <way id="58709462" version="3" timestamp="2017-09-06T11:36:19Z" changeset="51778577" uid="255936" user="NyanSten">
    <nd ref="727508677"/>
    <nd ref="727508784"/>
    <tag k="bridge" v="yes"/>
    <tag k="highway" v="residential"/>
    <tag k="layer" v="1"/>
    <tag k="name" v="K Vápence"/>
    <tag k="source:name" v="cuzk:km;survey"/>
  </way>
  <way id="58709464" version="2" timestamp="2011-10-13T16:40:43Z" changeset="9548290" uid="528828" user="Ladar">
    <nd ref="277482603"/>
    <nd ref="277482604"/>
    <nd ref="277482605"/>
    <nd ref="277482606"/>
    <tag k="highway" v="residential"/>
    <tag k="name" v="Strmý vrch"/>
    <tag k="source:name" v="nameit/uir-adr"/>
  </way>
  <way id="58709467" version="2" timestamp="2011-09-02T16:14:16Z" changeset="9194217" uid="17615" user="Petr Dlouhý">
    <nd ref="727508678"/>
    <nd ref="1421082149"/>
    <tag k="highway" v="residential"/>
    <tag k="name" v="U Závodiště"/>
  </way>
  <way id="58709468" version="1" timestamp="2010-05-09T14:54:12Z" changeset="4649507" uid="29818" user="zub">
    <nd ref="727508684"/>
    <nd ref="277482609"/>
    <tag k="highway" v="residential"/>
    <tag k="name" v="náměstí Omladiny"/>
    <tag k="source" v="survey;cuzk:km;uhul:ortofoto"/>
  </way>
  <way id="58709471" version="3" timestamp="2025-03-26T13:10:30Z" changeset="164121376" uid="7698761" user="_Neptun">
    <nd ref="727508778"/>
    <nd ref="727508751"/>
    <tag k="bridge" v="yes"/>
    <tag k="highway" v="tertiary"/>
    <tag k="layer" v="1"/>
    <tag k="name" v="Starochuchelská"/>
    <tag k="surface" v="asphalt"/>
  </way>
  <way id="58709473" version="4" timestamp="2024-05-25T22:07:45Z" changeset="151829931" uid="469828" user="Lukáš Jelínek">
    <nd ref="727508743"/>
    <nd ref="727508803"/>
    <nd ref="11933928235"/>
    <nd ref="277482611"/>
    <nd ref="11933928236"/>
    <nd ref="277482613"/>
    <tag k="highway" v="residential"/>
    <tag k="name" v="V Úvoze"/>
    <tag k="oneway" v="yes"/>
    <tag k="source:name" v="nameit/uir-adr"/>
  </way>
  <way id="58709474" version="2" timestamp="2011-05-14T22:40:07Z" changeset="8146662" uid="17615" user="Petr Dlouhý">
    <nd ref="727508696"/>
    <nd ref="304338059"/>
    <tag k="highway" v="residential"/>
    <tag k="name" v="U Závodiště"/>
  </way>
  <way id="58709476" version="4" timestamp="2025-03-26T13:10:36Z" changeset="164121376" uid="7698761" user="_Neptun">
    <nd ref="277482641"/>
    <nd ref="11933928229"/>
    <nd ref="727508744"/>
    <nd ref="277482642"/>
    <tag k="highway" v="residential"/>
    <tag k="name" v="Starochuchelská"/>
    <tag k="surface" v="asphalt"/>
  </way>
  <way id="58709477" version="2" timestamp="2025-03-26T13:10:30Z" changeset="164121376" uid="7698761" user="_Neptun">
    <nd ref="727508751"/>
    <nd ref="31516527"/>
    <tag k="highway" v="tertiary"/>
    <tag k="name" v="Starochuchelská"/>
    <tag k="surface" v="asphalt"/>
  </way>
  <way id="58709479" version="2" timestamp="2018-02-20T15:00:13Z" changeset="56523211" uid="255936" user="NyanSten">
    <nd ref="277482613"/>
    <nd ref="277482665"/>
    <tag k="highway" v="residential"/>
    <tag k="name" v="V Úvoze"/>
    <tag k="source:name" v="nameit/uir-adr"/>
  </way>
  <way id="58712384" version="2" timestamp="2017-09-06T11:36:19Z" changeset="51778577" uid="255936" user="NyanSten">
    <nd ref="727587270"/>
    <nd ref="499510556"/>
    <tag k="highway" v="residential"/>
    <tag k="name" v="V Dolích"/>
    <tag k="source" v="survey;cuzk:km"/>
  </way>
  <way id="58712388" version="2" timestamp="2017-09-06T11:36:19Z" changeset="51778577" uid="255936" user="NyanSten">
    <nd ref="727587396"/>
    <nd ref="727587270"/>
    <tag k="bridge" v="yes"/>
    <tag k="highway" v="residential"/>
    <tag k="layer" v="1"/>
    <tag k="name" v="V Dolích"/>
    <tag k="source" v="survey;cuzk:km"/>
  </way>
  <way id="58712945" version="3" timestamp="2017-09-06T11:36:18Z" changeset="51778577" uid="255936" user="NyanSten">
    <nd ref="727508681"/>
    <nd ref="31516520"/>
    <nd ref="31516519"/>
    <nd ref="1839539028"/>
    <nd ref="31516518"/>
    <nd ref="31516517"/>
    <nd ref="499510556"/>
    <tag k="highway" v="tertiary"/>
    <tag k="name" v="V Dolích"/>
  </way>
  <way id="58712947" version="3" timestamp="2017-09-06T11:36:19Z" changeset="51778577" uid="255936" user="NyanSten">
    <nd ref="277482579"/>
    <nd ref="727508693"/>
    <nd ref="277482580"/>
    <tag k="highway" v="residential"/>
    <tag k="name" v="K Vápence"/>
    <tag k="source:name" v="cuzk:km;survey"/>
  </way>
  <way id="58712949" version="2" timestamp="2011-10-13T16:40:41Z" changeset="9548290" uid="528828" user="Ladar">
    <nd ref="277482624"/>
    <nd ref="277482623"/>
    <tag k="highway" v="residential"/>
    <tag k="name" v="Prodloužená"/>
    <tag k="source:name" v="nameit/uir-adr"/>
  </way>
  <way id="58712950" version="5" timestamp="2025-03-26T13:10:29Z" changeset="164121376" uid="7698761" user="_Neptun">
    <nd ref="277482578"/>
    <nd ref="11933928210"/>
    <nd ref="31516523"/>
    <nd ref="1839539012"/>
    <nd ref="727508804"/>
    <nd ref="31516522"/>
    <nd ref="31516521"/>
    <nd ref="727508681"/>
    <tag k="highway" v="tertiary"/>
    <tag k="name" v="V Dolích"/>
    <tag k="surface" v="asphalt"/>
  </way>
  <way id="60824727" version="4" timestamp="2017-02-28T19:12:28Z" changeset="46475839" uid="2169558" user="JandaM">
    <nd ref="3253126532"/>
    <nd ref="761459050"/>
    <nd ref="761459062"/>
    <nd ref="761459259"/>
    <nd ref="761459320"/>
    <nd ref="3736059007"/>
    <nd ref="3736059008"/>
    <nd ref="761459190"/>
    <nd ref="761458992"/>
    <nd ref="761459220"/>
    <nd ref="761459059"/>
    <nd ref="3736059019"/>
    <nd ref="761459161"/>
    <nd ref="3736059021"/>
    <nd ref="3736059020"/>
    <nd ref="761458949"/>
    <nd ref="761459113"/>
    <nd ref="761459287"/>
    <nd ref="3253126591"/>
    <nd ref="761459074"/>
    <nd ref="3253126553"/>
    <nd ref="3253126554"/>
    <nd ref="761459012"/>
    <nd ref="761459323"/>
    <nd ref="3253126526"/>
    <nd ref="3253126524"/>
    <nd ref="3253126517"/>
    <nd ref="761459101"/>
    <nd ref="3253126502"/>
    <nd ref="761459261"/>
    <nd ref="3253126518"/>
    <nd ref="3253126530"/>
    <nd ref="3253126532"/>
    <tag k="building" v="civic"/>
    <tag k="building:levels" v="1"/>
    <tag k="building:ruian:type" v="15"/>
    <tag k="name" v="ÚMČ"/>
    <tag k="ref:ruian:building" v="21982449"/>
    <tag k="source" v="cuzk:ruian"/>
  </way>
  <way id="60831590" version="4" timestamp="2012-05-30T08:11:42Z" changeset="11745970" uid="367303" user="Vaekk">
    <nd ref="761540121"/>
    <nd ref="761540151"/>
    <tag k="highway" v="residential"/>
    <tag k="name" v="Nikodémova"/>
    <tag k="oneway" v="no"/>
    <tag k="source" v="cuzk:km"/>
  </way>
  <way id="60837603" version="6" timestamp="2014-08-30T10:53:09Z" changeset="25115216" uid="403828" user="Kamenitxan">
    <nd ref="761565776"/>
    <nd ref="1839538780"/>
    <nd ref="761565777"/>
    <nd ref="277482653"/>
    <tag k="highway" v="residential"/>
    <tag k="name" v="náměstí Chuchelských bojovníků"/>
    <tag k="oneway" v="no"/>
    <tag k="short_name" v="nám. Chuchelských Bojovníků"/>
  </way>
  <way id="60838739" version="3" timestamp="2024-01-18T08:11:37Z" changeset="146394064" uid="1189910" user="Milancer">
    <nd ref="761574138"/>
    <nd ref="761573954"/>
    <nd ref="761574173"/>
    <nd ref="761573956"/>
    <nd ref="761574086"/>
    <nd ref="761573865"/>
    <nd ref="761574041"/>
    <nd ref="761574138"/>
    <tag k="building" v="house"/>
    <tag k="building:flats" v="1"/>
    <tag k="building:levels" v="1"/>
    <tag k="building:ruian:type" v="7"/>
    <tag k="name" v="RSK"/>
    <tag k="ref:ruian:building" v="21981540"/>
    <tag k="source" v="cuzk:ruian"/>
  </way>
  <way id="60839360" version="7" timestamp="2023-12-16T10:49:28Z" changeset="145179704" uid="20552061" user="CD1850">
    <nd ref="277482616"/>
    <nd ref="761578485"/>
    <nd ref="1484817188"/>
    <nd ref="761578428"/>
    <nd ref="761578408"/>
    <nd ref="11422542630"/>
    <nd ref="3253125052"/>
    <nd ref="761578437"/>
    <nd ref="3253125006"/>
    <tag k="highway" v="residential"/>
    <tag k="name" v="Na Cihelně"/>
    <tag k="oneway" v="no"/>
    <tag k="source" v="uhul:ortofoto"/>
    <tag k="surface" v="asphalt"/>
  </way>
  <way id="60841235" version="6" timestamp="2015-08-17T08:38:21Z" changeset="33384608" uid="2169558" user="JandaM">
    <nd ref="761619701"/>
    <nd ref="761619741"/>
    <nd ref="761619659"/>
    <nd ref="761619644"/>
    <nd ref="761619701"/>
    <tag k="addr:housenumber" v="ev.114/7"/>
    <tag k="addr:place" v="Velká Chuchle"/>
    <tag k="addr:postcode" v="15900"/>
    <tag k="addr:provisionalnumber" v="114"/>
    <tag k="addr:street" v="Nad Libeřským potokem"/>
    <tag k="addr:streetnumber" v="7"/>
    <tag k="building" v="yes"/>
    <tag k="building:ruian:type" v="8"/>
    <tag k="ref:ruian:addr" v="30973813"/>
    <tag k="ref:ruian:building" v="30464684"/>
    <tag k="source" v="cuzk:ruian"/>
  </way>
  <way id="60841245" version="8" timestamp="2017-07-01T17:49:08Z" changeset="49969783" uid="1942179" user="CzechAddress">
    <nd ref="761619690"/>
    <nd ref="761619727"/>
    <nd ref="761619705"/>
    <nd ref="761619748"/>
    <nd ref="761619645"/>
    <nd ref="761619702"/>
    <nd ref="761619706"/>
    <nd ref="761619749"/>
    <nd ref="761619690"/>
    <tag k="addr:housenumber" v="ev.92/44"/>
    <tag k="addr:place" v="Velká Chuchle"/>
    <tag k="addr:postcode" v="15900"/>
    <tag k="addr:provisionalnumber" v="92"/>
    <tag k="addr:street" v="Na hvězdárně"/>
    <tag k="addr:streetnumber" v="44"/>
    <tag k="building" v="yes"/>
    <tag k="building:levels" v="1"/>
    <tag k="building:ruian:type" v="8"/>
    <tag k="ref:ruian:addr" v="26202077"/>
    <tag k="ref:ruian:building" v="25700588"/>
    <tag k="source" v="cuzk:ruian"/>
    <tag k="start_date" v="2005-09-14"/>
  </way>
  <way id="60841256" version="7" timestamp="2017-07-01T17:49:08Z" changeset="49969783" uid="1942179" user="CzechAddress">
    <nd ref="761619718"/>
    <nd ref="761619721"/>
    <nd ref="761619657"/>
    <nd ref="761619710"/>
    <nd ref="761619756"/>
    <nd ref="761619728"/>
    <nd ref="761619667"/>
    <nd ref="3700717991"/>
    <nd ref="761619720"/>
    <nd ref="761619696"/>
    <nd ref="761619734"/>
    <nd ref="761619674"/>
    <nd ref="761619718"/>
    <tag k="addr:conscriptionnumber" v="483"/>
    <tag k="addr:housenumber" v="483/40"/>
    <tag k="addr:place" v="Velká Chuchle"/>
    <tag k="addr:postcode" v="15900"/>
    <tag k="addr:street" v="Na hvězdárně"/>
    <tag k="addr:streetnumber" v="40"/>
    <tag k="building" v="house"/>
    <tag k="building:flats" v="2"/>
    <tag k="building:levels" v="3"/>
    <tag k="building:ruian:type" v="7"/>
    <tag k="ref:ruian:addr" v="27509702"/>
    <tag k="ref:ruian:building" v="26987015"/>
    <tag k="source" v="cuzk:ruian"/>
    <tag k="start_date" v="2008-05-19"/>
  </way>
  <way id="60841259" version="10" timestamp="2017-07-01T17:49:09Z" changeset="49969783" uid="1942179" user="CzechAddress">
    <nd ref="761619726"/>
    <nd ref="3700717995"/>
    <nd ref="3700717994"/>
    <nd ref="3700717993"/>
    <nd ref="761619714"/>
    <nd ref="761619665"/>
    <nd ref="761619726"/>
    <tag k="addr:housenumber" v="ev.30/38"/>
    <tag k="addr:place" v="Velká Chuchle"/>
    <tag k="addr:postcode" v="15900"/>
    <tag k="addr:provisionalnumber" v="30"/>
    <tag k="addr:street" v="Na hvězdárně"/>
    <tag k="addr:streetnumber" v="38"/>
    <tag k="building" v="yes"/>
    <tag k="building:ruian:type" v="8"/>
    <tag k="ref:ruian:addr" v="27317641"/>
    <tag k="ref:ruian:building" v="26798204"/>
    <tag k="source" v="cuzk:ruian"/>
    <tag k="start_date" v="2007-12-11"/>
  </way>
  <way id="60841261" version="7" timestamp="2017-07-01T17:49:09Z" changeset="49969783" uid="1942179" user="CzechAddress">
    <nd ref="761619670"/>
    <nd ref="761619716"/>
    <nd ref="761619751"/>
    <nd ref="761619691"/>
    <nd ref="3700717992"/>
    <nd ref="761619729"/>
    <nd ref="761619668"/>
    <nd ref="761619676"/>
    <nd ref="761619719"/>
    <nd ref="761619653"/>
    <nd ref="761619707"/>
    <nd ref="761619683"/>
    <nd ref="761619725"/>
    <nd ref="761619662"/>
    <nd ref="3700717996"/>
    <nd ref="761619713"/>
    <nd ref="761619715"/>
    <nd ref="3700717997"/>
    <nd ref="761619678"/>
    <nd ref="761619647"/>
    <nd ref="761619704"/>
    <nd ref="761619745"/>
    <nd ref="761619685"/>
    <nd ref="761619693"/>
    <nd ref="761619731"/>
    <nd ref="761619670"/>
    <tag k="addr:conscriptionnumber" v="452"/>
    <tag k="addr:housenumber" v="452/36"/>
    <tag k="addr:place" v="Velká Chuchle"/>
    <tag k="addr:postcode" v="15900"/>
    <tag k="addr:street" v="Na hvězdárně"/>
    <tag k="addr:streetnumber" v="36"/>
    <tag k="building" v="house"/>
    <tag k="building:flats" v="1"/>
    <tag k="building:levels" v="3"/>
    <tag k="building:ruian:type" v="7"/>
    <tag k="ref:ruian:addr" v="26080338"/>
    <tag k="ref:ruian:building" v="25583107"/>
    <tag k="source" v="cuzk:ruian"/>
    <tag k="start_date" v="2004-12-03"/>
  </way>
  <way id="60843427" version="5" timestamp="2015-08-17T08:38:25Z" changeset="33384608" uid="2169558" user="JandaM">
    <nd ref="761626544"/>
    <nd ref="761626806"/>
    <nd ref="761626431"/>
    <nd ref="761626624"/>
    <nd ref="761626632"/>
    <nd ref="761626913"/>
    <nd ref="761626544"/>
    <tag k="addr:housenumber" v="ev.131/6"/>
    <tag k="addr:place" v="Velká Chuchle"/>
    <tag k="addr:postcode" v="15900"/>
    <tag k="addr:provisionalnumber" v="131"/>
    <tag k="addr:street" v="Štičkova"/>
    <tag k="addr:streetnumber" v="6"/>
    <tag k="building" v="yes"/>
    <tag k="building:ruian:type" v="8"/>
    <tag k="ref:ruian:addr" v="30973970"/>
    <tag k="ref:ruian:building" v="30464846"/>
    <tag k="source" v="cuzk:ruian"/>
  </way>
  <way id="60843431" version="6" timestamp="2016-07-02T15:57:39Z" changeset="40443089" uid="1942179" user="CzechAddress">
    <nd ref="761626584"/>
    <nd ref="761626841"/>
    <nd ref="761626876"/>
    <nd ref="3700717919"/>
    <nd ref="3700717920"/>
    <nd ref="761626514"/>
    <nd ref="761626778"/>
    <nd ref="761626794"/>
    <nd ref="761626658"/>
    <nd ref="761626418"/>
    <nd ref="761626584"/>
    <tag k="addr:housenumber" v="ev.43/4"/>
    <tag k="addr:place" v="Velká Chuchle"/>
    <tag k="addr:postcode" v="15900"/>
    <tag k="addr:provisionalnumber" v="43"/>
    <tag k="addr:street" v="Na Lahovské"/>
    <tag k="addr:streetnumber" v="4"/>
    <tag k="building" v="yes"/>
    <tag k="building:ruian:type" v="8"/>
    <tag k="ref:ruian:addr" v="30973236"/>
    <tag k="ref:ruian:building" v="30464102"/>
    <tag k="source" v="cuzk:ruian"/>
  </way>
  <way id="60843434" version="5" timestamp="2015-08-17T08:38:32Z" changeset="33384608" uid="2169558" user="JandaM">
    <nd ref="761626470"/>
    <nd ref="761626729"/>
    <nd ref="761626434"/>
    <nd ref="761626797"/>
    <nd ref="761626536"/>
    <nd ref="761626459"/>
    <nd ref="761626470"/>
    <tag k="addr:housenumber" v="ev.17"/>
    <tag k="addr:place" v="Velká Chuchle"/>
    <tag k="addr:postcode" v="15900"/>
    <tag k="addr:provisionalnumber" v="17"/>
    <tag k="addr:street" v="Dubnická"/>
    <tag k="building" v="yes"/>
    <tag k="building:levels" v="1"/>
    <tag k="building:ruian:type" v="8"/>
    <tag k="ref:ruian:addr" v="30973066"/>
    <tag k="ref:ruian:building" v="30463921"/>
    <tag k="source" v="cuzk:ruian"/>
  </way>
  <way id="60843435" version="4" timestamp="2015-08-17T08:38:50Z" changeset="33384608" uid="2169558" user="JandaM">
    <nd ref="761626896"/>
    <nd ref="761626773"/>
    <nd ref="761626450"/>
    <nd ref="3700717900"/>
    <nd ref="3700717899"/>
    <nd ref="761626652"/>
    <nd ref="761626896"/>
    <tag k="addr:housenumber" v="ev.80"/>
    <tag k="addr:place" v="Velká Chuchle"/>
    <tag k="addr:postcode" v="15900"/>
    <tag k="addr:provisionalnumber" v="80"/>
    <tag k="addr:street" v="Lahovská"/>
    <tag k="building" v="yes"/>
    <tag k="building:ruian:type" v="8"/>
    <tag k="ref:ruian:addr" v="30973503"/>
    <tag k="ref:ruian:building" v="30464374"/>
    <tag k="source" v="cuzk:ruian"/>
  </way>
  <way id="60843436" version="4" timestamp="2015-08-17T08:38:52Z" changeset="33384608" uid="2169558" user="JandaM">
    <nd ref="761626551"/>
    <nd ref="761626814"/>
    <nd ref="761626833"/>
    <nd ref="761626484"/>
    <nd ref="761626551"/>
    <tag k="addr:housenumber" v="ev.88/2"/>
    <tag k="addr:place" v="Velká Chuchle"/>
    <tag k="addr:postcode" v="15900"/>
    <tag k="addr:provisionalnumber" v="88"/>
    <tag k="addr:street" v="Nad Prahou"/>
    <tag k="addr:streetnumber" v="2"/>
    <tag k="building" v="yes"/>
    <tag k="building:ruian:type" v="8"/>
    <tag k="ref:ruian:addr" v="30973589"/>
    <tag k="ref:ruian:building" v="30464455"/>
    <tag k="source" v="cuzk:ruian"/>
  </way>
  <way id="60843439" version="5" timestamp="2015-08-17T08:38:39Z" changeset="33384608" uid="2169558" user="JandaM">
    <nd ref="3700717941"/>
    <nd ref="761626478"/>
    <nd ref="3700717939"/>
    <nd ref="3700717942"/>
    <nd ref="761626745"/>
    <nd ref="761626437"/>
    <nd ref="761626890"/>
    <nd ref="761626911"/>
    <nd ref="761626541"/>
    <nd ref="761626804"/>
    <nd ref="761626824"/>
    <nd ref="3700717941"/>
    <tag k="addr:housenumber" v="ev.27"/>
    <tag k="addr:place" v="Velká Chuchle"/>
    <tag k="addr:postcode" v="15900"/>
    <tag k="addr:provisionalnumber" v="27"/>
    <tag k="addr:street" v="Na Hvězdárně"/>
    <tag k="building" v="yes"/>
    <tag k="building:ruian:type" v="8"/>
    <tag k="ref:ruian:addr" v="30973121"/>
    <tag k="ref:ruian:building" v="30463998"/>
    <tag k="source" v="cuzk:ruian"/>
  </way>
  <way id="60843441" version="6" timestamp="2015-08-17T08:38:36Z" changeset="33384608" uid="2169558" user="JandaM">
    <nd ref="761626413"/>
    <nd ref="3700717901"/>
    <nd ref="3700717902"/>
    <nd ref="761626571"/>
    <nd ref="761626829"/>
    <nd ref="761626481"/>
    <nd ref="761626432"/>
    <nd ref="761626625"/>
    <nd ref="761626899"/>
    <nd ref="761626524"/>
    <nd ref="761626548"/>
    <nd ref="761626812"/>
    <nd ref="761626413"/>
    <tag k="addr:housenumber" v="ev.20/14"/>
    <tag k="addr:place" v="Velká Chuchle"/>
    <tag k="addr:postcode" v="15900"/>
    <tag k="addr:provisionalnumber" v="20"/>
    <tag k="addr:street" v="Na Lahovské"/>
    <tag k="addr:streetnumber" v="14"/>
    <tag k="building" v="yes"/>
    <tag k="building:ruian:type" v="8"/>
    <tag k="ref:ruian:addr" v="30973082"/>
    <tag k="ref:ruian:building" v="30463955"/>
    <tag k="source" v="cuzk:ruian"/>
  </way>
  <way id="60843445" version="4" timestamp="2015-08-17T08:38:18Z" changeset="33384608" uid="2169558" user="JandaM">
    <nd ref="761626647"/>
    <nd ref="761626501"/>
    <nd ref="761626769"/>
    <nd ref="761626448"/>
    <nd ref="761626647"/>
    <tag k="addr:housenumber" v="ev.100/11"/>
    <tag k="addr:place" v="Velká Chuchle"/>
    <tag k="addr:postcode" v="15900"/>
    <tag k="addr:provisionalnumber" v="100"/>
    <tag k="addr:street" v="Haunerova"/>
    <tag k="addr:streetnumber" v="11"/>
    <tag k="building" v="yes"/>
    <tag k="building:ruian:type" v="8"/>
    <tag k="ref:ruian:addr" v="30973694"/>
    <tag k="ref:ruian:building" v="30464561"/>
    <tag k="source" v="cuzk:ruian"/>
  </way>
  <way id="60843446" version="5" timestamp="2025-04-06T07:46:51Z" changeset="164577605" uid="1125908" user="kwiecpav">
    <nd ref="761626476"/>
    <nd ref="761626923"/>
    <nd ref="761626564"/>
    <nd ref="761626822"/>
    <nd ref="12732619456"/>
    <nd ref="12732619455"/>
    <nd ref="761626476"/>
    <tag k="addr:housenumber" v="ev.2314/17"/>
    <tag k="addr:place" v="Velká Chuchle"/>
    <tag k="addr:postcode" v="15900"/>
    <tag k="addr:provisionalnumber" v="2314"/>
    <tag k="addr:street" v="Štičkova"/>
    <tag k="addr:streetnumber" v="17"/>
    <tag k="building" v="residential"/>
    <tag k="building:ruian:type" v="8"/>
    <tag k="ref:ruian:addr" v="26264293"/>
    <tag k="ref:ruian:building" v="25760904"/>
    <tag k="source" v="cuzk:ruian"/>
    <tag k="start_date" v="2006-01-03"/>
  </way>
  <way id="60843449" version="5" timestamp="2015-08-17T08:38:39Z" changeset="33384608" uid="2169558" user="JandaM">
    <nd ref="761626416"/>
    <nd ref="761626425"/>
    <nd ref="761626614"/>
    <nd ref="761626868"/>
    <nd ref="761626578"/>
    <nd ref="761626837"/>
    <nd ref="761626492"/>
    <nd ref="3700717897"/>
    <nd ref="3700717898"/>
    <nd ref="761626654"/>
    <nd ref="761626416"/>
    <tag k="addr:housenumber" v="ev.24/10"/>
    <tag k="addr:place" v="Velká Chuchle"/>
    <tag k="addr:postcode" v="15900"/>
    <tag k="addr:provisionalnumber" v="24"/>
    <tag k="addr:street" v="Nad Chuchlí"/>
    <tag k="addr:streetnumber" v="10"/>
    <tag k="building" v="yes"/>
    <tag k="building:ruian:type" v="8"/>
    <tag k="ref:ruian:addr" v="30973091"/>
    <tag k="ref:ruian:building" v="30463963"/>
    <tag k="source" v="cuzk:ruian"/>
  </way>
  <way id="60843450" version="5" timestamp="2015-08-17T08:38:49Z" changeset="33384608" uid="2169558" user="JandaM">
    <nd ref="761626782"/>
    <nd ref="761626455"/>
    <nd ref="761626668"/>
    <nd ref="761626420"/>
    <nd ref="761626782"/>
    <tag k="addr:housenumber" v="ev.71/3"/>
    <tag k="addr:place" v="Velká Chuchle"/>
    <tag k="addr:postcode" v="15900"/>
    <tag k="addr:provisionalnumber" v="71"/>
    <tag k="addr:street" v="Haunerova"/>
    <tag k="addr:streetnumber" v="3"/>
    <tag k="building" v="yes"/>
    <tag k="building:ruian:type" v="8"/>
    <tag k="ref:ruian:addr" v="22130047"/>
    <tag k="ref:ruian:building" v="21984034"/>
    <tag k="source" v="cuzk:ruian"/>
  </way>
  <way id="60843451" version="5" timestamp="2015-08-17T08:38:30Z" changeset="33384608" uid="2169558" user="JandaM">
    <nd ref="761626688"/>
    <nd ref="761626428"/>
    <nd ref="761626617"/>
    <nd ref="761626629"/>
    <nd ref="761626688"/>
    <tag k="addr:housenumber" v="ev.158/2"/>
    <tag k="addr:place" v="Velká Chuchle"/>
    <tag k="addr:postcode" v="15900"/>
    <tag k="addr:provisionalnumber" v="158"/>
    <tag k="addr:street" v="Na Lahovské"/>
    <tag k="addr:streetnumber" v="2"/>
    <tag k="building" v="yes"/>
    <tag k="building:ruian:type" v="8"/>
    <tag k="ref:ruian:addr" v="30974178"/>
    <tag k="ref:ruian:building" v="30465044"/>
    <tag k="source" v="cuzk:ruian"/>
  </way>
  <way id="60843457" version="7" timestamp="2015-08-17T08:38:35Z" changeset="33384608" uid="2169558" user="JandaM">
    <nd ref="761626678"/>
    <nd ref="761626612"/>
    <nd ref="761626865"/>
    <nd ref="761626509"/>
    <nd ref="761635063"/>
    <nd ref="761626774"/>
    <nd ref="761626787"/>
    <nd ref="761626464"/>
    <nd ref="761626678"/>
    <tag k="addr:housenumber" v="ev.19/16"/>
    <tag k="addr:place" v="Velká Chuchle"/>
    <tag k="addr:postcode" v="15900"/>
    <tag k="addr:provisionalnumber" v="19"/>
    <tag k="addr:street" v="Na Lahovské"/>
    <tag k="addr:streetnumber" v="16"/>
    <tag k="building" v="yes"/>
    <tag k="building:ruian:type" v="8"/>
    <tag k="ref:ruian:addr" v="30973074"/>
    <tag k="ref:ruian:building" v="30463947"/>
    <tag k="source" v="cuzk:ruian"/>
  </way>
  <way id="60843462" version="7" timestamp="2015-08-17T08:38:16Z" changeset="33384608" uid="2169558" user="JandaM">
    <nd ref="761626675"/>
    <nd ref="761626725"/>
    <nd ref="761626863"/>
    <nd ref="761626507"/>
    <nd ref="761626441"/>
    <nd ref="761626463"/>
    <nd ref="761626675"/>
    <tag k="addr:conscriptionnumber" v="440"/>
    <tag k="addr:housenumber" v="440/18"/>
    <tag k="addr:place" v="Velká Chuchle"/>
    <tag k="addr:postcode" v="15900"/>
    <tag k="addr:street" v="Na Lahovské"/>
    <tag k="addr:streetnumber" v="18"/>
    <tag k="building" v="house"/>
    <tag k="building:flats" v="1"/>
    <tag k="building:levels" v="1"/>
    <tag k="building:ruian:type" v="7"/>
    <tag k="ref:ruian:addr" v="25125206"/>
    <tag k="ref:ruian:building" v="24664821"/>
    <tag k="source" v="cuzk:ruian"/>
    <tag k="start_date" v="1999-10-13"/>
  </way>
  <way id="60843463" version="6" timestamp="2015-08-17T08:38:36Z" changeset="33384608" uid="2169558" user="JandaM">
    <nd ref="761626856"/>
    <nd ref="761626750"/>
    <nd ref="761626439"/>
    <nd ref="761626670"/>
    <nd ref="761626422"/>
    <nd ref="761626605"/>
    <nd ref="761626856"/>
    <tag k="addr:housenumber" v="ev.21/12"/>
    <tag k="addr:place" v="Velká Chuchle"/>
    <tag k="addr:postcode" v="15900"/>
    <tag k="addr:provisionalnumber" v="21"/>
    <tag k="addr:street" v="Na Lahovské"/>
    <tag k="addr:streetnumber" v="12"/>
    <tag k="building" v="yes"/>
    <tag k="building:ruian:type" v="8"/>
    <tag k="ref:ruian:addr" v="28230230"/>
    <tag k="ref:ruian:building" v="27690377"/>
    <tag k="source" v="cuzk:ruian"/>
    <tag k="start_date" v="2010-09-29"/>
  </way>
  <way id="60843464" version="5" timestamp="2015-08-17T08:38:20Z" changeset="33384608" uid="2169558" user="JandaM">
    <nd ref="761626414"/>
    <nd ref="761626574"/>
    <nd ref="761626831"/>
    <nd ref="761626461"/>
    <nd ref="761626414"/>
    <tag k="addr:housenumber" v="ev.110/9"/>
    <tag k="addr:place" v="Velká Chuchle"/>
    <tag k="addr:postcode" v="15900"/>
    <tag k="addr:provisionalnumber" v="110"/>
    <tag k="addr:street" v="Haunerova"/>
    <tag k="addr:streetnumber" v="9"/>
    <tag k="building" v="yes"/>
    <tag k="building:ruian:type" v="8"/>
    <tag k="ref:ruian:addr" v="30973783"/>
    <tag k="ref:ruian:building" v="30464650"/>
    <tag k="source" v="cuzk:ruian"/>
  </way>
  <way id="60843465" version="6" timestamp="2016-07-02T15:57:38Z" changeset="40443089" uid="1942179" user="CzechAddress">
    <nd ref="761626429"/>
    <nd ref="761626620"/>
    <nd ref="761626462"/>
    <nd ref="761626673"/>
    <nd ref="761626429"/>
    <tag k="addr:housenumber" v="ev.156/3"/>
    <tag k="addr:place" v="Velká Chuchle"/>
    <tag k="addr:postcode" v="15900"/>
    <tag k="addr:provisionalnumber" v="156"/>
    <tag k="addr:street" v="Na Lahovské"/>
    <tag k="addr:streetnumber" v="3"/>
    <tag k="building" v="yes"/>
    <tag k="building:ruian:type" v="8"/>
    <tag k="ref:ruian:addr" v="30974160"/>
    <tag k="ref:ruian:building" v="30465036"/>
    <tag k="source" v="cuzk:ruian"/>
  </way>
  <way id="60843466" version="6" timestamp="2015-08-17T08:38:47Z" changeset="33384608" uid="2169558" user="JandaM">
    <nd ref="761626630"/>
    <nd ref="761626556"/>
    <nd ref="761626817"/>
    <nd ref="761626435"/>
    <nd ref="761626630"/>
    <tag k="addr:housenumber" v="ev.60/6"/>
    <tag k="addr:place" v="Velká Chuchle"/>
    <tag k="addr:postcode" v="15900"/>
    <tag k="addr:provisionalnumber" v="60"/>
    <tag k="addr:street" v="Na Lahovské"/>
    <tag k="addr:streetnumber" v="6"/>
    <tag k="building" v="yes"/>
    <tag k="building:ruian:type" v="8"/>
    <tag k="ref:ruian:addr" v="30973368"/>
    <tag k="ref:ruian:building" v="30464234"/>
    <tag k="source" v="cuzk:ruian"/>
  </way>
  <way id="60843713" version="5" timestamp="2015-08-17T08:38:23Z" changeset="33384608" uid="2169558" user="JandaM">
    <nd ref="761635127"/>
    <nd ref="761635080"/>
    <nd ref="761635153"/>
    <nd ref="761635199"/>
    <nd ref="761635203"/>
    <nd ref="761635161"/>
    <nd ref="761635127"/>
    <tag k="addr:housenumber" v="ev.124/1"/>
    <tag k="addr:place" v="Velká Chuchle"/>
    <tag k="addr:postcode" v="15900"/>
    <tag k="addr:provisionalnumber" v="124"/>
    <tag k="addr:street" v="Nad Prahou"/>
    <tag k="addr:streetnumber" v="1"/>
    <tag k="building" v="yes"/>
    <tag k="building:ruian:type" v="8"/>
    <tag k="ref:ruian:addr" v="30973911"/>
    <tag k="ref:ruian:building" v="30464781"/>
    <tag k="source" v="cuzk:ruian"/>
  </way>
  <way id="60843714" version="6" timestamp="2015-08-17T08:38:35Z" changeset="33384608" uid="2169558" user="JandaM">
    <nd ref="761635130"/>
    <nd ref="761635188"/>
    <nd ref="761635167"/>
    <nd ref="761635172"/>
    <nd ref="761635070"/>
    <nd ref="761635045"/>
    <nd ref="761635130"/>
    <tag k="addr:housenumber" v="ev.193/42"/>
    <tag k="addr:place" v="Velká Chuchle"/>
    <tag k="addr:postcode" v="15900"/>
    <tag k="addr:provisionalnumber" v="193"/>
    <tag k="addr:street" v="Na Lahovské"/>
    <tag k="addr:streetnumber" v="42"/>
    <tag k="building" v="yes"/>
    <tag k="building:ruian:type" v="8"/>
    <tag k="ref:ruian:addr" v="30974364"/>
    <tag k="ref:ruian:building" v="30465231"/>
    <tag k="source" v="cuzk:ruian"/>
  </way>
  <way id="60843715" version="4" timestamp="2015-08-17T08:38:44Z" changeset="33384608" uid="2169558" user="JandaM">
    <nd ref="761635192"/>
    <nd ref="761635176"/>
    <nd ref="761635075"/>
    <nd ref="761635151"/>
    <nd ref="761635192"/>
    <tag k="addr:housenumber" v="ev.48/13"/>
    <tag k="addr:place" v="Velká Chuchle"/>
    <tag k="addr:postcode" v="15900"/>
    <tag k="addr:provisionalnumber" v="48"/>
    <tag k="addr:street" v="Haunerova"/>
    <tag k="addr:streetnumber" v="13"/>
    <tag k="building" v="yes"/>
    <tag k="building:ruian:type" v="8"/>
    <tag k="ref:ruian:addr" v="30973279"/>
    <tag k="ref:ruian:building" v="30464145"/>
    <tag k="source" v="cuzk:ruian"/>
  </way>
  <way id="60843716" version="5" timestamp="2015-08-17T08:38:17Z" changeset="33384608" uid="2169558" user="JandaM">
    <nd ref="761635150"/>
    <nd ref="761635051"/>
    <nd ref="761635137"/>
    <nd ref="761635185"/>
    <nd ref="761635099"/>
    <nd ref="761635102"/>
    <nd ref="761635174"/>
    <nd ref="761635073"/>
    <nd ref="761635150"/>
    <tag k="addr:conscriptionnumber" v="455"/>
    <tag k="addr:housenumber" v="455/48"/>
    <tag k="addr:place" v="Velká Chuchle"/>
    <tag k="addr:postcode" v="15900"/>
    <tag k="addr:street" v="Na Lahovské"/>
    <tag k="addr:streetnumber" v="48"/>
    <tag k="building" v="house"/>
    <tag k="building:flats" v="1"/>
    <tag k="building:ruian:type" v="7"/>
    <tag k="ref:ruian:addr" v="26194902"/>
    <tag k="ref:ruian:building" v="25693590"/>
    <tag k="source" v="cuzk:ruian"/>
    <tag k="start_date" v="2005-08-30"/>
  </way>
  <way id="60843717" version="4" timestamp="2015-08-17T08:38:48Z" changeset="33384608" uid="2169558" user="JandaM">
    <nd ref="761635083"/>
    <nd ref="761635157"/>
    <nd ref="761635044"/>
    <nd ref="761635129"/>
    <nd ref="761635139"/>
    <nd ref="761635190"/>
    <nd ref="761635198"/>
    <nd ref="761635113"/>
    <nd ref="761635083"/>
    <tag k="addr:housenumber" v="ev.69/4"/>
    <tag k="addr:place" v="Velká Chuchle"/>
    <tag k="addr:postcode" v="15900"/>
    <tag k="addr:provisionalnumber" v="69"/>
    <tag k="addr:street" v="Štičkova"/>
    <tag k="addr:streetnumber" v="4"/>
    <tag k="building" v="yes"/>
    <tag k="building:ruian:type" v="8"/>
    <tag k="ref:ruian:addr" v="30973422"/>
    <tag k="ref:ruian:building" v="30464293"/>
    <tag k="source" v="cuzk:ruian"/>
  </way>
  <way id="60843723" version="8" timestamp="2020-03-03T09:01:01Z" changeset="81718619" uid="5748" user="pschonmann">
    <nd ref="761635144"/>
    <nd ref="761635118"/>
    <nd ref="761635112"/>
    <nd ref="761635194"/>
    <nd ref="761635144"/>
    <tag k="addr:housenumber" v="38"/>
    <tag k="addr:street" v="Na Lahovské"/>
    <tag k="addr:streetnumber" v="38"/>
    <tag k="building" v="yes"/>
    <tag k="building:ruian:type" v="19"/>
    <tag k="ref:ruian:building" v="49133969"/>
    <tag k="source" v="cuzk:ruian"/>
  </way>
  <way id="60843724" version="5" timestamp="2015-08-17T08:38:35Z" changeset="33384608" uid="2169558" user="JandaM">
    <nd ref="761635171"/>
    <nd ref="761635068"/>
    <nd ref="761635148"/>
    <nd ref="761635201"/>
    <nd ref="761635171"/>
    <tag k="addr:housenumber" v="ev.187/3"/>
    <tag k="addr:place" v="Velká Chuchle"/>
    <tag k="addr:postcode" v="15900"/>
    <tag k="addr:provisionalnumber" v="187"/>
    <tag k="addr:street" v="Nad Prahou"/>
    <tag k="addr:streetnumber" v="3"/>
    <tag k="building" v="yes"/>
    <tag k="building:ruian:type" v="8"/>
    <tag k="ref:ruian:addr" v="30974348"/>
    <tag k="ref:ruian:building" v="30465214"/>
    <tag k="source" v="cuzk:ruian"/>
  </way>
  <way id="60843725" version="6" timestamp="2015-08-17T08:38:16Z" changeset="33384608" uid="2169558" user="JandaM">
    <nd ref="761635195"/>
    <nd ref="761635092"/>
    <nd ref="761635165"/>
    <nd ref="761635168"/>
    <nd ref="761635061"/>
    <nd ref="761635146"/>
    <nd ref="761635195"/>
    <tag k="addr:conscriptionnumber" v="421"/>
    <tag k="addr:housenumber" v="421/46"/>
    <tag k="addr:place" v="Velká Chuchle"/>
    <tag k="addr:postcode" v="15900"/>
    <tag k="addr:street" v="Na Lahovské"/>
    <tag k="addr:streetnumber" v="46"/>
    <tag k="building" v="house"/>
    <tag k="building:flats" v="1"/>
    <tag k="building:ruian:type" v="7"/>
    <tag k="ref:ruian:addr" v="25125249"/>
    <tag k="ref:ruian:building" v="24664863"/>
    <tag k="source" v="cuzk:ruian"/>
    <tag k="start_date" v="1996-11-13"/>
  </way>
  <way id="60843730" version="6" timestamp="2015-08-17T08:38:17Z" changeset="33384608" uid="2169558" user="JandaM">
    <nd ref="761635182"/>
    <nd ref="761635089"/>
    <nd ref="761635095"/>
    <nd ref="3700717835"/>
    <nd ref="761635182"/>
    <tag k="addr:conscriptionnumber" v="447"/>
    <tag k="addr:housenumber" v="447/32"/>
    <tag k="addr:place" v="Velká Chuchle"/>
    <tag k="addr:postcode" v="15900"/>
    <tag k="addr:street" v="Na Lahovské"/>
    <tag k="addr:streetnumber" v="32"/>
    <tag k="building" v="house"/>
    <tag k="building:flats" v="1"/>
    <tag k="building:levels" v="1"/>
    <tag k="building:ruian:type" v="7"/>
    <tag k="ref:ruian:addr" v="25481711"/>
    <tag k="ref:ruian:building" v="25007505"/>
    <tag k="source" v="cuzk:ruian"/>
    <tag k="start_date" v="2001-12-05"/>
  </way>
  <way id="60843904" version="5" timestamp="2015-08-17T08:38:22Z" changeset="33384608" uid="2169558" user="JandaM">
    <nd ref="761642101"/>
    <nd ref="761642233"/>
    <nd ref="761642366"/>
    <nd ref="761642170"/>
    <nd ref="761642090"/>
    <nd ref="761642223"/>
    <nd ref="761642359"/>
    <nd ref="761642208"/>
    <nd ref="761642101"/>
    <tag k="addr:housenumber" v="ev.120/2"/>
    <tag k="addr:place" v="Velká Chuchle"/>
    <tag k="addr:postcode" v="15900"/>
    <tag k="addr:provisionalnumber" v="120"/>
    <tag k="addr:street" v="Jana Ouřady"/>
    <tag k="addr:streetnumber" v="2"/>
    <tag k="building" v="yes"/>
    <tag k="building:ruian:type" v="8"/>
    <tag k="ref:ruian:addr" v="30973872"/>
    <tag k="ref:ruian:building" v="30464749"/>
    <tag k="source" v="cuzk:ruian"/>
  </way>
  <way id="60843906" version="6" timestamp="2024-10-13T22:36:33Z" changeset="157853991" uid="25867" user="adamos">
    <nd ref="761642079"/>
    <nd ref="12249211271"/>
    <nd ref="12249211270"/>
    <nd ref="761642246"/>
    <nd ref="761642376"/>
    <nd ref="761642253"/>
    <nd ref="761642079"/>
    <tag k="addr:housenumber" v="ev.2321/1"/>
    <tag k="addr:place" v="Velká Chuchle"/>
    <tag k="addr:postcode" v="15900"/>
    <tag k="addr:provisionalnumber" v="2321"/>
    <tag k="addr:street" v="V úzké"/>
    <tag k="addr:streetnumber" v="1"/>
    <tag k="building" v="residential"/>
    <tag k="building:ruian:type" v="8"/>
    <tag k="ref:ruian:addr" v="26547490"/>
    <tag k="ref:ruian:building" v="26040140"/>
    <tag k="source" v="cuzk:ruian"/>
    <tag k="start_date" v="2006-05-31"/>
  </way>
  <way id="60843907" version="5" timestamp="2015-08-17T08:38:32Z" changeset="33384608" uid="2169558" user="JandaM">
    <nd ref="761642085"/>
    <nd ref="761642098"/>
    <nd ref="761642231"/>
    <nd ref="761642364"/>
    <nd ref="761642168"/>
    <nd ref="761642124"/>
    <nd ref="761642085"/>
    <tag k="addr:housenumber" v="ev.171/15"/>
    <tag k="addr:place" v="Velká Chuchle"/>
    <tag k="addr:postcode" v="15900"/>
    <tag k="addr:provisionalnumber" v="171"/>
    <tag k="addr:street" v="Na Lahovské"/>
    <tag k="addr:streetnumber" v="15"/>
    <tag k="building" v="yes"/>
    <tag k="building:ruian:type" v="8"/>
    <tag k="ref:ruian:addr" v="30974224"/>
    <tag k="ref:ruian:building" v="30465095"/>
    <tag k="source" v="cuzk:ruian"/>
  </way>
  <way id="60843908" version="5" timestamp="2015-08-17T08:38:47Z" changeset="33384608" uid="2169558" user="JandaM">
    <nd ref="761642206"/>
    <nd ref="761642348"/>
    <nd ref="761642158"/>
    <nd ref="761642313"/>
    <nd ref="761642131"/>
    <nd ref="761642276"/>
    <nd ref="761642206"/>
    <tag k="addr:housenumber" v="ev.63/5"/>
    <tag k="addr:place" v="Velká Chuchle"/>
    <tag k="addr:postcode" v="15900"/>
    <tag k="addr:provisionalnumber" v="63"/>
    <tag k="addr:street" v="Na Lahovské"/>
    <tag k="addr:streetnumber" v="5"/>
    <tag k="building" v="yes"/>
    <tag k="building:ruian:type" v="8"/>
    <tag k="ref:ruian:addr" v="30973384"/>
    <tag k="ref:ruian:building" v="30464251"/>
    <tag k="source" v="cuzk:ruian"/>
  </way>
  <way id="60843912" version="6" timestamp="2015-08-17T08:38:33Z" changeset="33384608" uid="2169558" user="JandaM">
    <nd ref="761642102"/>
    <nd ref="761642237"/>
    <nd ref="761642193"/>
    <nd ref="761642342"/>
    <nd ref="761642154"/>
    <nd ref="761642291"/>
    <nd ref="761642102"/>
    <tag k="addr:housenumber" v="ev.176/3"/>
    <tag k="addr:place" v="Velká Chuchle"/>
    <tag k="addr:postcode" v="15900"/>
    <tag k="addr:provisionalnumber" v="176"/>
    <tag k="addr:street" v="Polákova"/>
    <tag k="addr:streetnumber" v="3"/>
    <tag k="building" v="yes"/>
    <tag k="building:ruian:type" v="8"/>
    <tag k="ref:ruian:addr" v="30974275"/>
    <tag k="ref:ruian:building" v="30465141"/>
    <tag k="source" v="cuzk:ruian"/>
  </way>
  <way id="60843913" version="5" timestamp="2015-08-17T08:38:45Z" changeset="33384608" uid="2169558" user="JandaM">
    <nd ref="761642080"/>
    <nd ref="761642200"/>
    <nd ref="761642175"/>
    <nd ref="761642378"/>
    <nd ref="761642080"/>
    <tag k="addr:housenumber" v="ev.56/6"/>
    <tag k="addr:place" v="Velká Chuchle"/>
    <tag k="addr:postcode" v="15900"/>
    <tag k="addr:provisionalnumber" v="56"/>
    <tag k="addr:street" v="Jana Ouřady"/>
    <tag k="addr:streetnumber" v="6"/>
    <tag k="building" v="yes"/>
    <tag k="building:ruian:type" v="8"/>
    <tag k="ref:ruian:addr" v="22757287"/>
    <tag k="ref:ruian:building" v="21984000"/>
    <tag k="source" v="cuzk:ruian"/>
  </way>
  <way id="60843914" version="5" timestamp="2015-08-17T08:38:48Z" changeset="33384608" uid="2169558" user="JandaM">
    <nd ref="761642347"/>
    <nd ref="761642186"/>
    <nd ref="761642370"/>
    <nd ref="761642286"/>
    <nd ref="761642106"/>
    <nd ref="761642204"/>
    <nd ref="761642347"/>
    <tag k="addr:housenumber" v="ev.65"/>
    <tag k="addr:place" v="Velká Chuchle"/>
    <tag k="addr:postcode" v="15900"/>
    <tag k="addr:provisionalnumber" v="65"/>
    <tag k="addr:street" v="K vápence"/>
    <tag k="building" v="yes"/>
    <tag k="building:ruian:type" v="8"/>
    <tag k="ref:ruian:addr" v="22757309"/>
    <tag k="ref:ruian:building" v="21984026"/>
    <tag k="source" v="cuzk:ruian"/>
  </way>
  <way id="60843915" version="5" timestamp="2015-08-17T08:38:46Z" changeset="33384608" uid="2169558" user="JandaM">
    <nd ref="761642243"/>
    <nd ref="761642372"/>
    <nd ref="761642177"/>
    <nd ref="761642134"/>
    <nd ref="761642092"/>
    <nd ref="761642110"/>
    <nd ref="761642243"/>
    <tag k="addr:housenumber" v="ev.59/8"/>
    <tag k="addr:place" v="Velká Chuchle"/>
    <tag k="addr:postcode" v="15900"/>
    <tag k="addr:provisionalnumber" v="59"/>
    <tag k="addr:street" v="Za brankou"/>
    <tag k="addr:streetnumber" v="8"/>
    <tag k="building" v="yes"/>
    <tag k="building:ruian:type" v="8"/>
    <tag k="ref:ruian:addr" v="30973350"/>
    <tag k="ref:ruian:building" v="30464226"/>
    <tag k="source" v="cuzk:ruian"/>
  </way>
  <way id="60843923" version="5" timestamp="2015-08-17T08:38:33Z" changeset="33384608" uid="2169558" user="JandaM">
    <nd ref="3700717857"/>
    <nd ref="761642324"/>
    <nd ref="761642139"/>
    <nd ref="761642197"/>
    <nd ref="761642215"/>
    <nd ref="761642352"/>
    <nd ref="761642161"/>
    <nd ref="761642307"/>
    <nd ref="761642173"/>
    <nd ref="3700717856"/>
    <nd ref="3700717857"/>
    <tag k="addr:housenumber" v="ev.175/1"/>
    <tag k="addr:place" v="Velká Chuchle"/>
    <tag k="addr:postcode" v="15900"/>
    <tag k="addr:provisionalnumber" v="175"/>
    <tag k="addr:street" v="Polákova"/>
    <tag k="addr:streetnumber" v="1"/>
    <tag k="building" v="yes"/>
    <tag k="building:ruian:type" v="8"/>
    <tag k="ref:ruian:addr" v="30974267"/>
    <tag k="ref:ruian:building" v="30465133"/>
    <tag k="source" v="cuzk:ruian"/>
  </way>
  <way id="60843925" version="6" timestamp="2015-08-17T08:38:51Z" changeset="33384608" uid="2169558" user="JandaM">
    <nd ref="761642251"/>
    <nd ref="761642093"/>
    <nd ref="3700717888"/>
    <nd ref="3700717889"/>
    <nd ref="761642165"/>
    <nd ref="761642121"/>
    <nd ref="761642251"/>
    <tag k="addr:housenumber" v="ev.81/9"/>
    <tag k="addr:place" v="Velká Chuchle"/>
    <tag k="addr:postcode" v="15900"/>
    <tag k="addr:provisionalnumber" v="81"/>
    <tag k="addr:street" v="Na Lahovské"/>
    <tag k="addr:streetnumber" v="9"/>
    <tag k="building" v="house"/>
    <tag k="building:ruian:type" v="8"/>
    <tag k="ref:ruian:addr" v="30973511"/>
    <tag k="ref:ruian:building" v="30464382"/>
    <tag k="source" v="cuzk:ruian"/>
  </way>
  <way id="60843927" version="5" timestamp="2015-08-17T08:38:29Z" changeset="33384608" uid="2169558" user="JandaM">
    <nd ref="761642099"/>
    <nd ref="3700717896"/>
    <nd ref="3700717895"/>
    <nd ref="761642071"/>
    <nd ref="761642188"/>
    <nd ref="3700717892"/>
    <nd ref="3700717890"/>
    <nd ref="761642281"/>
    <nd ref="761642099"/>
    <tag k="addr:housenumber" v="ev.148/4"/>
    <tag k="addr:place" v="Velká Chuchle"/>
    <tag k="addr:postcode" v="15900"/>
    <tag k="addr:provisionalnumber" v="148"/>
    <tag k="addr:street" v="Boříkova"/>
    <tag k="addr:streetnumber" v="4"/>
    <tag k="building" v="yes"/>
    <tag k="building:ruian:type" v="8"/>
    <tag k="ref:ruian:addr" v="30974127"/>
    <tag k="ref:ruian:building" v="30464994"/>
    <tag k="source" v="cuzk:ruian"/>
  </way>
  <way id="60843929" version="5" timestamp="2015-08-17T08:38:48Z" changeset="33384608" uid="2169558" user="JandaM">
    <nd ref="761642297"/>
    <nd ref="761642217"/>
    <nd ref="761642312"/>
    <nd ref="761642354"/>
    <nd ref="761642297"/>
    <tag k="addr:housenumber" v="ev.66/5"/>
    <tag k="addr:place" v="Velká Chuchle"/>
    <tag k="addr:postcode" v="15900"/>
    <tag k="addr:provisionalnumber" v="66"/>
    <tag k="addr:street" v="V úzké"/>
    <tag k="addr:streetnumber" v="5"/>
    <tag k="building" v="yes"/>
    <tag k="building:ruian:type" v="8"/>
    <tag k="ref:ruian:addr" v="30973406"/>
    <tag k="ref:ruian:building" v="30464277"/>
    <tag k="source" v="cuzk:ruian"/>
  </way>
  <way id="60843930" version="6" timestamp="2025-04-06T07:46:51Z" changeset="164577605" uid="1125908" user="kwiecpav">
    <nd ref="761642321"/>
    <nd ref="761642214"/>
    <nd ref="761642230"/>
    <nd ref="761642084"/>
    <nd ref="761642363"/>
    <nd ref="761642166"/>
    <nd ref="761642321"/>
    <tag k="addr:housenumber" v="ev.181/5"/>
    <tag k="addr:place" v="Velká Chuchle"/>
    <tag k="addr:postcode" v="15900"/>
    <tag k="addr:provisionalnumber" v="181"/>
    <tag k="addr:street" v="Polákova"/>
    <tag k="addr:streetnumber" v="5"/>
    <tag k="building" v="residential"/>
    <tag k="building:ruian:type" v="8"/>
    <tag k="ref:ruian:addr" v="30974313"/>
    <tag k="ref:ruian:building" v="30465184"/>
    <tag k="source" v="cuzk:ruian"/>
  </way>
  <way id="60843932" version="5" timestamp="2015-08-17T08:38:32Z" changeset="33384608" uid="2169558" user="JandaM">
    <nd ref="761642160"/>
    <nd ref="761642304"/>
    <nd ref="761642122"/>
    <nd ref="761642195"/>
    <nd ref="761642343"/>
    <nd ref="761642350"/>
    <nd ref="761642160"/>
    <tag k="addr:housenumber" v="ev.172/7"/>
    <tag k="addr:place" v="Velká Chuchle"/>
    <tag k="addr:postcode" v="15900"/>
    <tag k="addr:provisionalnumber" v="172"/>
    <tag k="addr:street" v="Polákova"/>
    <tag k="addr:streetnumber" v="7"/>
    <tag k="building" v="yes"/>
    <tag k="building:ruian:type" v="8"/>
    <tag k="ref:ruian:addr" v="30974232"/>
    <tag k="ref:ruian:building" v="30465109"/>
    <tag k="source" v="cuzk:ruian"/>
  </way>
  <way id="60844051" version="4" timestamp="2015-08-17T08:38:45Z" changeset="33384608" uid="2169558" user="JandaM">
    <nd ref="761645896"/>
    <nd ref="761645898"/>
    <nd ref="761645854"/>
    <nd ref="761645840"/>
    <nd ref="761645874"/>
    <nd ref="761645909"/>
    <nd ref="761645861"/>
    <nd ref="761645863"/>
    <nd ref="761645896"/>
    <tag k="addr:housenumber" v="ev.55/15"/>
    <tag k="addr:place" v="Velká Chuchle"/>
    <tag k="addr:postcode" v="15900"/>
    <tag k="addr:provisionalnumber" v="55"/>
    <tag k="addr:street" v="Jana Ouřady"/>
    <tag k="addr:streetnumber" v="15"/>
    <tag k="building" v="yes"/>
    <tag k="building:ruian:type" v="8"/>
    <tag k="ref:ruian:addr" v="30973333"/>
    <tag k="ref:ruian:building" v="30464200"/>
    <tag k="source" v="cuzk:ruian"/>
  </way>
  <way id="60844055" version="6" timestamp="2015-08-17T08:38:20Z" changeset="33384608" uid="2169558" user="JandaM">
    <nd ref="761645834"/>
    <nd ref="761645883"/>
    <nd ref="761645837"/>
    <nd ref="761645878"/>
    <nd ref="761645834"/>
    <tag k="addr:housenumber" v="ev.111/8"/>
    <tag k="addr:place" v="Velká Chuchle"/>
    <tag k="addr:postcode" v="15900"/>
    <tag k="addr:provisionalnumber" v="111"/>
    <tag k="addr:street" v="Závodní"/>
    <tag k="addr:streetnumber" v="8"/>
    <tag k="building" v="yes"/>
    <tag k="building:ruian:type" v="8"/>
    <tag k="ref:ruian:addr" v="26692988"/>
    <tag k="ref:ruian:building" v="26181649"/>
    <tag k="source" v="cuzk:ruian"/>
    <tag k="start_date" v="2007-03-20"/>
  </way>
  <way id="60844058" version="7" timestamp="2017-01-13T15:15:31Z" changeset="45135985" uid="2169558" user="JandaM">
    <nd ref="761645890"/>
    <nd ref="761645880"/>
    <nd ref="761645845"/>
    <nd ref="761645836"/>
    <nd ref="761645856"/>
    <nd ref="761645868"/>
    <nd ref="761645855"/>
    <nd ref="761645865"/>
    <nd ref="761645882"/>
    <nd ref="761645848"/>
    <nd ref="761645892"/>
    <nd ref="761645899"/>
    <nd ref="761645890"/>
    <tag k="addr:housenumber" v="ev.142/2"/>
    <tag k="addr:place" v="Velká Chuchle"/>
    <tag k="addr:postcode" v="15900"/>
    <tag k="addr:provisionalnumber" v="142"/>
    <tag k="addr:street" v="Závodní"/>
    <tag k="addr:streetnumber" v="2"/>
    <tag k="building" v="house"/>
    <tag k="building:ruian:type" v="8"/>
    <tag k="ref:ruian:addr" v="27604047"/>
    <tag k="ref:ruian:building" v="27080277"/>
    <tag k="source" v="cuzk:ruian"/>
    <tag k="start_date" v="2008-09-17"/>
  </way>
  <way id="60844060" version="5" timestamp="2015-08-17T08:38:49Z" changeset="33384608" uid="2169558" user="JandaM">
    <nd ref="761645884"/>
    <nd ref="761645839"/>
    <nd ref="761645864"/>
    <nd ref="761645849"/>
    <nd ref="761645884"/>
    <tag k="addr:housenumber" v="ev.72/4"/>
    <tag k="addr:place" v="Velká Chuchle"/>
    <tag k="addr:postcode" v="15900"/>
    <tag k="addr:provisionalnumber" v="72"/>
    <tag k="addr:street" v="Závodní"/>
    <tag k="addr:streetnumber" v="4"/>
    <tag k="building" v="yes"/>
    <tag k="building:ruian:type" v="8"/>
    <tag k="ref:ruian:addr" v="30973449"/>
    <tag k="ref:ruian:building" v="30464315"/>
    <tag k="source" v="cuzk:ruian"/>
  </way>
  <way id="60844063" version="4" timestamp="2015-08-17T08:38:54Z" changeset="33384608" uid="2169558" user="JandaM">
    <nd ref="761645876"/>
    <nd ref="761645908"/>
    <nd ref="3700717852"/>
    <nd ref="3700717849"/>
    <nd ref="3700717844"/>
    <nd ref="3700717845"/>
    <nd ref="761645873"/>
    <nd ref="761645887"/>
    <nd ref="761645876"/>
    <tag k="addr:housenumber" v="ev.96/7"/>
    <tag k="addr:place" v="Velká Chuchle"/>
    <tag k="addr:postcode" v="15900"/>
    <tag k="addr:provisionalnumber" v="96"/>
    <tag k="addr:street" v="Jana Ouřady"/>
    <tag k="addr:streetnumber" v="7"/>
    <tag k="building" v="yes"/>
    <tag k="ref:ruian:addr" v="30973651"/>
    <tag k="source" v="cuzk:km"/>
  </way>
  <way id="60844259" version="5" timestamp="2015-08-17T08:38:28Z" changeset="33384608" uid="2169558" user="JandaM">
    <nd ref="761652010"/>
    <nd ref="761651880"/>
    <nd ref="761651965"/>
    <nd ref="761651844"/>
    <nd ref="761652010"/>
    <tag k="addr:housenumber" v="ev.143/18"/>
    <tag k="addr:place" v="Velká Chuchle"/>
    <tag k="addr:postcode" v="15900"/>
    <tag k="addr:provisionalnumber" v="143"/>
    <tag k="addr:street" v="Jana Ouřady"/>
    <tag k="addr:streetnumber" v="18"/>
    <tag k="building" v="yes"/>
    <tag k="building:ruian:type" v="8"/>
    <tag k="ref:ruian:addr" v="30974071"/>
    <tag k="ref:ruian:building" v="30464943"/>
    <tag k="source" v="cuzk:ruian"/>
  </way>
  <way id="60844261" version="6" timestamp="2015-08-17T08:38:40Z" changeset="33384608" uid="2169558" user="JandaM">
    <nd ref="761651979"/>
    <nd ref="761651992"/>
    <nd ref="761652028"/>
    <nd ref="761651888"/>
    <nd ref="761651979"/>
    <tag k="addr:housenumber" v="ev.32/9"/>
    <tag k="addr:place" v="Velká Chuchle"/>
    <tag k="addr:postcode" v="15900"/>
    <tag k="addr:provisionalnumber" v="32"/>
    <tag k="addr:street" v="K višňovému sadu"/>
    <tag k="addr:streetnumber" v="9"/>
    <tag k="building" v="yes"/>
    <tag k="building:ruian:type" v="8"/>
    <tag k="ref:ruian:addr" v="26308428"/>
    <tag k="ref:ruian:building" v="25803905"/>
    <tag k="source" v="cuzk:ruian"/>
  </way>
  <way id="60844263" version="5" timestamp="2015-08-17T08:38:45Z" changeset="33384608" uid="2169558" user="JandaM">
    <nd ref="761651937"/>
    <nd ref="761651959"/>
    <nd ref="761651833"/>
    <nd ref="761651840"/>
    <nd ref="761651937"/>
    <tag k="addr:housenumber" v="ev.54/11"/>
    <tag k="addr:place" v="Velká Chuchle"/>
    <tag k="addr:postcode" v="15900"/>
    <tag k="addr:provisionalnumber" v="54"/>
    <tag k="addr:street" v="Na Roháčku"/>
    <tag k="addr:streetnumber" v="11"/>
    <tag k="building" v="yes"/>
    <tag k="building:ruian:type" v="8"/>
    <tag k="ref:ruian:addr" v="30973325"/>
    <tag k="ref:ruian:building" v="30464196"/>
    <tag k="source" v="cuzk:ruian"/>
  </way>
  <way id="60844266" version="6" timestamp="2015-08-17T08:38:42Z" changeset="33384608" uid="2169558" user="JandaM">
    <nd ref="761651987"/>
    <nd ref="761651868"/>
    <nd ref="761651954"/>
    <nd ref="761652055"/>
    <nd ref="761652013"/>
    <nd ref="761651971"/>
    <nd ref="3700717826"/>
    <nd ref="761651987"/>
    <tag k="addr:housenumber" v="ev.42"/>
    <tag k="addr:place" v="Velká Chuchle"/>
    <tag k="addr:postcode" v="15900"/>
    <tag k="addr:provisionalnumber" v="42"/>
    <tag k="addr:street" v="Lahovská"/>
    <tag k="building" v="yes"/>
    <tag k="building:ruian:type" v="8"/>
    <tag k="ref:ruian:addr" v="30973228"/>
    <tag k="ref:ruian:building" v="30464099"/>
    <tag k="source" v="cuzk:ruian"/>
  </way>
  <way id="60844267" version="6" timestamp="2022-03-03T21:45:59Z" changeset="118071979" uid="1942179" user="CzechAddress">
    <nd ref="761651889"/>
    <nd ref="761651952"/>
    <nd ref="761651865"/>
    <nd ref="761651984"/>
    <nd ref="761651889"/>
    <tag k="addr:housenumber" v="ev.152"/>
    <tag k="addr:place" v="Velká Chuchle"/>
    <tag k="addr:postcode" v="15900"/>
    <tag k="addr:provisionalnumber" v="152"/>
    <tag k="addr:street" v="Jana Ouřady"/>
    <tag k="building" v="yes"/>
    <tag k="building:ruian:type" v="8"/>
    <tag k="ref:ruian:addr" v="30974143"/>
    <tag k="ref:ruian:building" v="30465010"/>
    <tag k="source" v="cuzk:ruian"/>
  </way>
  <way id="60844268" version="6" timestamp="2016-03-25T21:16:43Z" changeset="38071780" uid="1942179" user="CzechAddress">
    <nd ref="761651899"/>
    <nd ref="761651943"/>
    <nd ref="761652042"/>
    <nd ref="761651911"/>
    <nd ref="761652011"/>
    <nd ref="761652035"/>
    <nd ref="761651899"/>
    <tag k="addr:housenumber" v="ev.174/1"/>
    <tag k="addr:place" v="Velká Chuchle"/>
    <tag k="addr:postcode" v="15900"/>
    <tag k="addr:provisionalnumber" v="174"/>
    <tag k="addr:street" v="Na Roháčku"/>
    <tag k="addr:streetnumber" v="1"/>
    <tag k="building" v="yes"/>
    <tag k="building:ruian:type" v="8"/>
    <tag k="ref:ruian:addr" v="30974259"/>
    <tag k="ref:ruian:building" v="30465125"/>
    <tag k="source" v="cuzk:ruian"/>
  </way>
  <way id="60844270" version="5" timestamp="2015-08-17T08:38:28Z" changeset="33384608" uid="2169558" user="JandaM">
    <nd ref="761652005"/>
    <nd ref="761651923"/>
    <nd ref="761652057"/>
    <nd ref="761651877"/>
    <nd ref="761652005"/>
    <tag k="addr:housenumber" v="ev.144/20"/>
    <tag k="addr:place" v="Velká Chuchle"/>
    <tag k="addr:postcode" v="15900"/>
    <tag k="addr:provisionalnumber" v="144"/>
    <tag k="addr:street" v="Jana Ouřady"/>
    <tag k="addr:streetnumber" v="20"/>
    <tag k="building" v="yes"/>
    <tag k="building:ruian:type" v="8"/>
    <tag k="ref:ruian:addr" v="30974089"/>
    <tag k="ref:ruian:building" v="30464951"/>
    <tag k="source" v="cuzk:ruian"/>
  </way>
  <way id="60844279" version="5" timestamp="2020-03-03T09:01:01Z" changeset="81718619" uid="5748" user="pschonmann">
    <nd ref="761651908"/>
    <nd ref="761651872"/>
    <nd ref="761652033"/>
    <nd ref="761651896"/>
    <nd ref="761651908"/>
    <tag k="addr:housenumber" v="17"/>
    <tag k="addr:street" v="Na Roháčku"/>
    <tag k="addr:streetnumber" v="17"/>
    <tag k="building" v="yes"/>
    <tag k="building:ruian:type" v="8"/>
    <tag k="ref:ruian:building" v="42568358"/>
    <tag k="source" v="cuzk:ruian"/>
  </way>
  <way id="60844487" version="5" timestamp="2015-08-17T08:38:51Z" changeset="33384608" uid="2169558" user="JandaM">
    <nd ref="761657416"/>
    <nd ref="761657450"/>
    <nd ref="761657459"/>
    <nd ref="761657559"/>
    <nd ref="761657416"/>
    <tag k="addr:housenumber" v="ev.82/6"/>
    <tag k="addr:place" v="Velká Chuchle"/>
    <tag k="addr:postcode" v="15900"/>
    <tag k="addr:provisionalnumber" v="82"/>
    <tag k="addr:street" v="Polákova"/>
    <tag k="addr:streetnumber" v="6"/>
    <tag k="building" v="yes"/>
    <tag k="building:ruian:type" v="8"/>
    <tag k="ref:ruian:addr" v="30973520"/>
    <tag k="ref:ruian:building" v="30464391"/>
    <tag k="source" v="cuzk:ruian"/>
  </way>
  <way id="60844489" version="6" timestamp="2015-08-17T08:38:44Z" changeset="33384608" uid="2169558" user="JandaM">
    <nd ref="761657545"/>
    <nd ref="761657419"/>
    <nd ref="761657430"/>
    <nd ref="761657447"/>
    <nd ref="761657545"/>
    <tag k="addr:housenumber" v="ev.50/2"/>
    <tag k="addr:place" v="Velká Chuchle"/>
    <tag k="addr:postcode" v="15900"/>
    <tag k="addr:provisionalnumber" v="50"/>
    <tag k="addr:street" v="Polákova"/>
    <tag k="addr:streetnumber" v="2"/>
    <tag k="building" v="yes"/>
    <tag k="building:ruian:type" v="8"/>
    <tag k="ref:ruian:addr" v="30973295"/>
    <tag k="ref:ruian:building" v="30464161"/>
    <tag k="source" v="cuzk:ruian"/>
  </way>
  <way id="60844492" version="5" timestamp="2015-08-17T08:38:49Z" changeset="33384608" uid="2169558" user="JandaM">
    <nd ref="3700713618"/>
    <nd ref="761657530"/>
    <nd ref="761657385"/>
    <nd ref="761657418"/>
    <nd ref="761657426"/>
    <nd ref="3700713618"/>
    <tag k="addr:housenumber" v="ev.76/8"/>
    <tag k="addr:place" v="Velká Chuchle"/>
    <tag k="addr:postcode" v="15900"/>
    <tag k="addr:provisionalnumber" v="76"/>
    <tag k="addr:street" v="Na Roháčku"/>
    <tag k="addr:streetnumber" v="8"/>
    <tag k="building" v="yes"/>
    <tag k="building:ruian:type" v="8"/>
    <tag k="ref:ruian:addr" v="30973465"/>
    <tag k="ref:ruian:building" v="30464331"/>
    <tag k="source" v="cuzk:ruian"/>
  </way>
  <way id="60844493" version="5" timestamp="2015-08-17T08:38:44Z" changeset="33384608" uid="2169558" user="JandaM">
    <nd ref="761657548"/>
    <nd ref="761657413"/>
    <nd ref="761657555"/>
    <nd ref="761657350"/>
    <nd ref="761657548"/>
    <tag k="addr:housenumber" v="ev.51/4"/>
    <tag k="addr:place" v="Velká Chuchle"/>
    <tag k="addr:postcode" v="15900"/>
    <tag k="addr:provisionalnumber" v="51"/>
    <tag k="addr:street" v="Polákova"/>
    <tag k="addr:streetnumber" v="4"/>
    <tag k="building" v="yes"/>
    <tag k="building:ruian:type" v="8"/>
    <tag k="ref:ruian:addr" v="30973309"/>
    <tag k="ref:ruian:building" v="30464170"/>
    <tag k="source" v="cuzk:ruian"/>
  </way>
  <way id="60844708" version="4" timestamp="2017-03-07T10:01:34Z" changeset="46646820" uid="5748" user="pschonmann">
    <nd ref="761662548"/>
    <nd ref="3700713565"/>
    <nd ref="3700713564"/>
    <nd ref="761662448"/>
    <nd ref="761662580"/>
    <nd ref="761662551"/>
    <nd ref="761662548"/>
    <tag k="addr:conscriptionnumber" v="151E"/>
    <tag k="addr:housenumber" v="151E/4"/>
    <tag k="addr:street" v="Nikodémova"/>
    <tag k="addr:streetnumber" v="4"/>
    <tag k="building" v="yes"/>
    <tag k="building:ruian:type" v="8"/>
    <tag k="ref:ruian:building" v="46799621"/>
    <tag k="source" v="cuzk:ruian"/>
  </way>
  <way id="60844709" version="5" timestamp="2015-08-17T08:38:43Z" changeset="33384608" uid="2169558" user="JandaM">
    <nd ref="761662389"/>
    <nd ref="761662403"/>
    <nd ref="761662497"/>
    <nd ref="761662597"/>
    <nd ref="761662389"/>
    <tag k="addr:housenumber" v="ev.46/7"/>
    <tag k="addr:place" v="Velká Chuchle"/>
    <tag k="addr:postcode" v="15900"/>
    <tag k="addr:provisionalnumber" v="46"/>
    <tag k="addr:street" v="Závodní"/>
    <tag k="addr:streetnumber" v="7"/>
    <tag k="building" v="yes"/>
    <tag k="building:ruian:type" v="8"/>
    <tag k="ref:ruian:addr" v="27196291"/>
    <tag k="ref:ruian:building" v="26680246"/>
    <tag k="source" v="cuzk:ruian"/>
    <tag k="start_date" v="2007-11-01"/>
  </way>
  <way id="60844711" version="5" timestamp="2015-08-17T08:38:36Z" changeset="33384608" uid="2169558" user="JandaM">
    <nd ref="761662595"/>
    <nd ref="761662474"/>
    <nd ref="761662577"/>
    <nd ref="3700713556"/>
    <nd ref="3700713555"/>
    <nd ref="761662527"/>
    <nd ref="761662397"/>
    <nd ref="761662494"/>
    <nd ref="761662595"/>
    <tag k="addr:housenumber" v="ev.2/21"/>
    <tag k="addr:place" v="Velká Chuchle"/>
    <tag k="addr:postcode" v="15900"/>
    <tag k="addr:provisionalnumber" v="2"/>
    <tag k="addr:street" v="K višňovému sadu"/>
    <tag k="addr:streetnumber" v="21"/>
    <tag k="building" v="yes"/>
    <tag k="building:ruian:type" v="8"/>
    <tag k="ref:ruian:addr" v="30972931"/>
    <tag k="ref:ruian:building" v="30463793"/>
    <tag k="source" v="cuzk:ruian"/>
  </way>
  <way id="60844714" version="5" timestamp="2015-08-17T08:38:29Z" changeset="33384608" uid="2169558" user="JandaM">
    <nd ref="761662508"/>
    <nd ref="761662468"/>
    <nd ref="761662573"/>
    <nd ref="761662415"/>
    <nd ref="761662508"/>
    <tag k="addr:housenumber" v="ev.149/1"/>
    <tag k="addr:place" v="Velká Chuchle"/>
    <tag k="addr:postcode" v="15900"/>
    <tag k="addr:provisionalnumber" v="149"/>
    <tag k="addr:street" v="Nikodémova"/>
    <tag k="addr:streetnumber" v="1"/>
    <tag k="building" v="yes"/>
    <tag k="building:ruian:type" v="8"/>
    <tag k="ref:ruian:addr" v="30974135"/>
    <tag k="ref:ruian:building" v="30465001"/>
    <tag k="source" v="cuzk:ruian"/>
  </way>
  <way id="60844715" version="6" timestamp="2017-01-13T15:15:31Z" changeset="45135985" uid="2169558" user="JandaM">
    <nd ref="761662391"/>
    <nd ref="761662490"/>
    <nd ref="761662590"/>
    <nd ref="761662458"/>
    <nd ref="761662417"/>
    <nd ref="761662553"/>
    <nd ref="761662520"/>
    <nd ref="761662513"/>
    <nd ref="761662391"/>
    <tag k="addr:conscriptionnumber" v="451"/>
    <tag k="addr:housenumber" v="451/5"/>
    <tag k="addr:place" v="Velká Chuchle"/>
    <tag k="addr:postcode" v="15900"/>
    <tag k="addr:street" v="Nikodémova"/>
    <tag k="addr:streetnumber" v="5"/>
    <tag k="building" v="house"/>
    <tag k="building:flats" v="1"/>
    <tag k="building:levels" v="1"/>
    <tag k="building:ruian:type" v="7"/>
    <tag k="ref:ruian:addr" v="25958810"/>
    <tag k="ref:ruian:building" v="25465228"/>
    <tag k="source" v="cuzk:ruian"/>
    <tag k="start_date" v="2004-03-22"/>
  </way>
  <way id="60844718" version="4" timestamp="2017-03-07T10:01:34Z" changeset="46646820" uid="5748" user="pschonmann">
    <nd ref="761662380"/>
    <nd ref="761662510"/>
    <nd ref="761662440"/>
    <nd ref="3700713563"/>
    <nd ref="3700713562"/>
    <nd ref="761662575"/>
    <nd ref="761662380"/>
    <tag k="addr:conscriptionnumber" v="151E"/>
    <tag k="addr:housenumber" v="151E/2"/>
    <tag k="addr:street" v="Nikodémova"/>
    <tag k="addr:streetnumber" v="2"/>
    <tag k="building" v="yes"/>
    <tag k="building:ruian:type" v="8"/>
    <tag k="ref:ruian:building" v="46799613"/>
    <tag k="source" v="cuzk:ruian"/>
  </way>
  <way id="60844719" version="5" timestamp="2015-08-17T08:38:26Z" changeset="33384608" uid="2169558" user="JandaM">
    <nd ref="761662447"/>
    <nd ref="761662379"/>
    <nd ref="761662476"/>
    <nd ref="761662579"/>
    <nd ref="761662447"/>
    <tag k="addr:housenumber" v="ev.139/3"/>
    <tag k="addr:place" v="Velká Chuchle"/>
    <tag k="addr:postcode" v="15900"/>
    <tag k="addr:provisionalnumber" v="139"/>
    <tag k="addr:street" v="Nikodémova"/>
    <tag k="addr:streetnumber" v="3"/>
    <tag k="building" v="yes"/>
    <tag k="building:ruian:type" v="8"/>
    <tag k="ref:ruian:addr" v="30974046"/>
    <tag k="ref:ruian:building" v="30464919"/>
    <tag k="source" v="cuzk:ruian"/>
  </way>
  <way id="60844720" version="3" timestamp="2017-03-07T10:01:34Z" changeset="46646820" uid="5748" user="pschonmann">
    <nd ref="761662568"/>
    <nd ref="761662426"/>
    <nd ref="761662418"/>
    <nd ref="761662555"/>
    <nd ref="761662568"/>
    <tag k="addr:conscriptionnumber" v="129E"/>
    <tag k="addr:housenumber" v="129E/3"/>
    <tag k="addr:street" v="Závodní"/>
    <tag k="addr:streetnumber" v="3"/>
    <tag k="building" v="yes"/>
    <tag k="source" v="cuzk:km"/>
  </way>
  <way id="60844721" version="6" timestamp="2015-08-17T08:38:27Z" changeset="33384608" uid="2169558" user="JandaM">
    <nd ref="761662396"/>
    <nd ref="761662493"/>
    <nd ref="761662594"/>
    <nd ref="761662461"/>
    <nd ref="761662396"/>
    <tag k="addr:housenumber" v="ev.140/9"/>
    <tag k="addr:place" v="Velká Chuchle"/>
    <tag k="addr:postcode" v="15900"/>
    <tag k="addr:provisionalnumber" v="140"/>
    <tag k="addr:street" v="Závodní"/>
    <tag k="addr:streetnumber" v="9"/>
    <tag k="building" v="yes"/>
    <tag k="building:ruian:type" v="8"/>
    <tag k="ref:ruian:addr" v="30974054"/>
    <tag k="ref:ruian:building" v="30464927"/>
    <tag k="source" v="cuzk:ruian"/>
  </way>
  <way id="60844722" version="6" timestamp="2024-10-09T16:06:57Z" changeset="157679362" uid="1702531" user="lenochod">
    <nd ref="761662502"/>
    <nd ref="761662369"/>
    <nd ref="761662401"/>
    <nd ref="3700713561"/>
    <nd ref="12238645452"/>
    <nd ref="12238645451"/>
    <nd ref="3700713560"/>
    <nd ref="761662412"/>
    <nd ref="761662502"/>
    <tag k="addr:housenumber" v="ev.3/12"/>
    <tag k="addr:place" v="Velká Chuchle"/>
    <tag k="addr:postcode" v="15900"/>
    <tag k="addr:provisionalnumber" v="3"/>
    <tag k="addr:street" v="Nad Radotínem"/>
    <tag k="addr:streetnumber" v="12"/>
    <tag k="building" v="residential"/>
    <tag k="building:ruian:type" v="8"/>
    <tag k="ref:ruian:addr" v="30972949"/>
    <tag k="ref:ruian:building" v="30463807"/>
    <tag k="source" v="cuzk:ruian"/>
  </way>
  <way id="60844724" version="6" timestamp="2015-08-17T08:38:27Z" changeset="33384608" uid="2169558" user="JandaM">
    <nd ref="761662471"/>
    <nd ref="761662533"/>
    <nd ref="761662404"/>
    <nd ref="761662374"/>
    <nd ref="761662471"/>
    <tag k="addr:housenumber" v="ev.141/13"/>
    <tag k="addr:place" v="Velká Chuchle"/>
    <tag k="addr:postcode" v="15900"/>
    <tag k="addr:provisionalnumber" v="141"/>
    <tag k="addr:street" v="Nad Radotínem"/>
    <tag k="addr:streetnumber" v="13"/>
    <tag k="building" v="yes"/>
    <tag k="building:ruian:type" v="8"/>
    <tag k="ref:ruian:addr" v="30974062"/>
    <tag k="ref:ruian:building" v="30464935"/>
    <tag k="source" v="cuzk:ruian"/>
  </way>
  <way id="60844726" version="7" timestamp="2017-07-01T17:49:09Z" changeset="49969783" uid="1942179" user="CzechAddress">
    <nd ref="761662453"/>
    <nd ref="761662385"/>
    <nd ref="3700713570"/>
    <nd ref="3700713571"/>
    <nd ref="761662427"/>
    <nd ref="3700713575"/>
    <nd ref="3700713577"/>
    <nd ref="3700713576"/>
    <nd ref="3700713574"/>
    <nd ref="761662521"/>
    <nd ref="761662392"/>
    <nd ref="761662491"/>
    <nd ref="761662453"/>
    <tag k="addr:housenumber" v="ev.130/15"/>
    <tag k="addr:place" v="Velká Chuchle"/>
    <tag k="addr:postcode" v="15900"/>
    <tag k="addr:provisionalnumber" v="130"/>
    <tag k="addr:street" v="Nad Radotínem"/>
    <tag k="addr:streetnumber" v="15"/>
    <tag k="building" v="yes"/>
    <tag k="building:ruian:type" v="8"/>
    <tag k="ref:ruian:addr" v="26276208"/>
    <tag k="ref:ruian:building" v="25772295"/>
    <tag k="source" v="cuzk:ruian"/>
    <tag k="start_date" v="2006-02-08"/>
  </way>
  <way id="60844728" version="6" timestamp="2015-08-17T08:38:34Z" changeset="33384608" uid="2169558" user="JandaM">
    <nd ref="761662572"/>
    <nd ref="761662528"/>
    <nd ref="761662398"/>
    <nd ref="761662466"/>
    <nd ref="761662572"/>
    <tag k="addr:housenumber" v="ev.186/27"/>
    <tag k="addr:place" v="Velká Chuchle"/>
    <tag k="addr:postcode" v="15900"/>
    <tag k="addr:provisionalnumber" v="186"/>
    <tag k="addr:street" v="K višňovému sadu"/>
    <tag k="addr:streetnumber" v="27"/>
    <tag k="building" v="yes"/>
    <tag k="building:levels" v="1"/>
    <tag k="building:ruian:type" v="8"/>
    <tag k="ref:ruian:addr" v="30974330"/>
    <tag k="ref:ruian:building" v="30465206"/>
    <tag k="source" v="cuzk:ruian"/>
  </way>
  <way id="60844729" version="6" timestamp="2019-06-15T19:28:46Z" changeset="71287123" uid="1942179" user="CzechAddress">
    <nd ref="761662588"/>
    <nd ref="761662596"/>
    <nd ref="761662478"/>
    <nd ref="761662488"/>
    <nd ref="761662588"/>
    <tag k="addr:housenumber" v="ev.2319/25"/>
    <tag k="addr:place" v="Velká Chuchle"/>
    <tag k="addr:postcode" v="15900"/>
    <tag k="addr:provisionalnumber" v="2319"/>
    <tag k="addr:street" v="K višňovému sadu"/>
    <tag k="addr:streetnumber" v="25"/>
    <tag k="building" v="yes"/>
    <tag k="building:ruian:type" v="8"/>
    <tag k="ref:ruian:addr" v="26304431"/>
    <tag k="ref:ruian:building" v="25799924"/>
    <tag k="source" v="cuzk:ruian"/>
    <tag k="start_date" v="2006-04-07"/>
  </way>
  <way id="60844732" version="7" timestamp="2016-07-20T14:20:44Z" changeset="40897424" uid="211307" user="Jan Prazak">
    <nd ref="761662436"/>
    <nd ref="761662525"/>
    <nd ref="761662487"/>
    <nd ref="761662587"/>
    <nd ref="761662436"/>
    <tag k="addr:housenumber" v="5"/>
    <tag k="addr:place" v="Velká Chuchle"/>
    <tag k="addr:postcode" v="15900"/>
    <tag k="addr:provisionalnumber" v="34"/>
    <tag k="addr:street" v="Závodní"/>
    <tag k="building" v="yes"/>
    <tag k="building:ruian:type" v="8"/>
    <tag k="ref:ruian:addr" v="30973155"/>
    <tag k="ref:ruian:building" v="30464021"/>
    <tag k="source" v="cuzk:ruian"/>
  </way>
  <way id="60844736" version="7" timestamp="2024-10-09T16:06:57Z" changeset="157679362" uid="1702531" user="lenochod">
    <nd ref="761662421"/>
    <nd ref="761662500"/>
    <nd ref="761662368"/>
    <nd ref="761662559"/>
    <nd ref="761662421"/>
    <tag k="addr:housenumber" v="ev.58/13"/>
    <tag k="addr:place" v="Velká Chuchle"/>
    <tag k="addr:postcode" v="15900"/>
    <tag k="addr:provisionalnumber" v="58"/>
    <tag k="addr:street" v="K višňovému sadu"/>
    <tag k="addr:streetnumber" v="13"/>
    <tag k="building" v="residential"/>
    <tag k="building:ruian:type" v="8"/>
    <tag k="ref:ruian:addr" v="25158082"/>
    <tag k="ref:ruian:building" v="24696838"/>
    <tag k="source" v="cuzk:ruian"/>
  </way>
  <way id="60844739" version="5" timestamp="2015-08-17T08:38:16Z" changeset="33384608" uid="2169558" user="JandaM">
    <nd ref="3700713549"/>
    <nd ref="3700713548"/>
    <nd ref="761662394"/>
    <nd ref="761662586"/>
    <nd ref="761662454"/>
    <nd ref="3700713551"/>
    <nd ref="3700713552"/>
    <nd ref="761662569"/>
    <nd ref="761662435"/>
    <nd ref="761662523"/>
    <nd ref="3700713549"/>
    <tag k="addr:conscriptionnumber" v="196"/>
    <tag k="addr:housenumber" v="196"/>
    <tag k="addr:place" v="Velká Chuchle"/>
    <tag k="addr:postcode" v="15900"/>
    <tag k="addr:street" v="K višňovému sadu"/>
    <tag k="building" v="house"/>
    <tag k="building:flats" v="1"/>
    <tag k="building:ruian:type" v="7"/>
    <tag k="ref:ruian:addr" v="30972914"/>
    <tag k="ref:ruian:building" v="30463777"/>
    <tag k="source" v="cuzk:ruian"/>
  </way>
  <way id="60844956" version="7" timestamp="2017-01-13T15:15:31Z" changeset="45135985" uid="2169558" user="JandaM">
    <nd ref="4605840709"/>
    <nd ref="761665794"/>
    <nd ref="761665830"/>
    <nd ref="761665791"/>
    <nd ref="761665788"/>
    <nd ref="4605840708"/>
    <nd ref="4605840709"/>
    <tag k="addr:housenumber" v="11"/>
    <tag k="addr:place" v="Velká Chuchle"/>
    <tag k="addr:postcode" v="15900"/>
    <tag k="addr:provisionalnumber" v="118"/>
    <tag k="addr:street" v="Nad Chuchlí"/>
    <tag k="building" v="cabin"/>
    <tag k="building:ruian:type" v="8"/>
    <tag k="ref:ruian:addr" v="30973856"/>
    <tag k="ref:ruian:building" v="30464722"/>
    <tag k="source" v="cuzk:ruian"/>
  </way>
  <way id="60844959" version="6" timestamp="2016-07-20T13:04:02Z" changeset="40895794" uid="211307" user="Jan Prazak">
    <nd ref="761665823"/>
    <nd ref="761665854"/>
    <nd ref="761665795"/>
    <nd ref="761665776"/>
    <nd ref="761665823"/>
    <tag k="addr:housenumber" v="1"/>
    <tag k="addr:place" v="Velká Chuchle"/>
    <tag k="addr:postcode" v="15900"/>
    <tag k="addr:provisionalnumber" v="37"/>
    <tag k="addr:street" v="Nad Radotínem"/>
    <tag k="addr:streetnumber" v="1"/>
    <tag k="building" v="cabin"/>
    <tag k="building:ruian:type" v="8"/>
    <tag k="ref:ruian:addr" v="30973180"/>
    <tag k="ref:ruian:building" v="30464056"/>
    <tag k="source" v="cuzk:ruian"/>
  </way>
  <way id="60844960" version="6" timestamp="2016-07-20T13:04:02Z" changeset="40895794" uid="211307" user="Jan Prazak">
    <nd ref="761665821"/>
    <nd ref="761665773"/>
    <nd ref="761665784"/>
    <nd ref="761665816"/>
    <nd ref="761665821"/>
    <tag k="addr:housenumber" v="16"/>
    <tag k="addr:place" v="Velká Chuchle"/>
    <tag k="addr:postcode" v="15900"/>
    <tag k="addr:provisionalnumber" v="180"/>
    <tag k="addr:street" v="Nad Chuchlí"/>
    <tag k="building" v="cabin"/>
    <tag k="building:ruian:type" v="8"/>
    <tag k="ref:ruian:addr" v="30974305"/>
    <tag k="ref:ruian:building" v="30465176"/>
    <tag k="source" v="cuzk:ruian"/>
  </way>
  <way id="60844961" version="5" timestamp="2015-08-17T08:38:43Z" changeset="33384608" uid="2169558" user="JandaM">
    <nd ref="761665834"/>
    <nd ref="3700717854"/>
    <nd ref="3700717853"/>
    <nd ref="761665857"/>
    <nd ref="761665797"/>
    <nd ref="3700717843"/>
    <nd ref="3700717842"/>
    <nd ref="761665849"/>
    <nd ref="3700717846"/>
    <nd ref="3700717847"/>
    <nd ref="3700717850"/>
    <nd ref="3700717848"/>
    <nd ref="761665834"/>
    <tag k="addr:housenumber" v="ev.45/7"/>
    <tag k="addr:place" v="Velká Chuchle"/>
    <tag k="addr:postcode" v="15900"/>
    <tag k="addr:provisionalnumber" v="45"/>
    <tag k="addr:street" v="Nad Chuchlí"/>
    <tag k="addr:streetnumber" v="7"/>
    <tag k="building" v="yes"/>
    <tag k="building:ruian:type" v="8"/>
    <tag k="ref:ruian:addr" v="30973252"/>
    <tag k="ref:ruian:building" v="30464129"/>
    <tag k="source" v="cuzk:ruian"/>
  </way>
  <way id="60844964" version="8" timestamp="2017-01-13T15:15:32Z" changeset="45135985" uid="2169558" user="JandaM">
    <nd ref="761665793"/>
    <nd ref="761665828"/>
    <nd ref="4605840707"/>
    <nd ref="4605840706"/>
    <nd ref="761665780"/>
    <nd ref="761665851"/>
    <nd ref="4605840705"/>
    <nd ref="4605840704"/>
    <nd ref="761665793"/>
    <tag k="addr:housenumber" v="ev.41/2"/>
    <tag k="addr:place" v="Velká Chuchle"/>
    <tag k="addr:postcode" v="15900"/>
    <tag k="addr:provisionalnumber" v="41"/>
    <tag k="addr:street" v="Nad Radotínem"/>
    <tag k="addr:streetnumber" v="2"/>
    <tag k="building" v="cabin"/>
    <tag k="building:ruian:type" v="8"/>
    <tag k="ref:ruian:addr" v="30973210"/>
    <tag k="ref:ruian:building" v="30464081"/>
    <tag k="source" v="cuzk:ruian"/>
  </way>
  <way id="88375334" version="9" timestamp="2023-09-22T12:19:16Z" changeset="141602147" uid="231749" user="Eino81">
    <nd ref="31516736"/>
    <nd ref="7141105601"/>
    <nd ref="304338057"/>
    <tag k="bicycle" v="no"/>
    <tag k="highway" v="primary_link"/>
    <tag k="lanes" v="2"/>
    <tag k="name" v="Dostihová"/>
    <tag k="note" v="flood wall"/>
    <tag k="proposed:barrier" v="wall"/>
    <tag k="surface" v="asphalt"/>
  </way>
  <way id="98561941" version="3" timestamp="2025-03-26T13:10:40Z" changeset="164121376" uid="7698761" user="_Neptun">
    <nd ref="1140219741"/>
    <nd ref="1140219744"/>
    <tag k="bridge" v="yes"/>
    <tag k="highway" v="residential"/>
    <tag k="layer" v="1"/>
    <tag k="maxweight" v="3"/>
    <tag k="name" v="Kazínská"/>
    <tag k="source" v="cuzk:km"/>
    <tag k="surface" v="asphalt"/>
  </way>
  <way id="98561942" version="3" timestamp="2025-03-26T13:10:40Z" changeset="164121376" uid="7698761" user="_Neptun">
    <nd ref="1140219744"/>
    <nd ref="1421082144"/>
    <nd ref="1140219742"/>
    <tag k="highway" v="residential"/>
    <tag k="name" v="Kazínská"/>
    <tag k="source" v="cuzk:km"/>
    <tag k="surface" v="asphalt"/>
  </way>
  <way id="98562023" version="19" timestamp="2025-03-26T13:10:41Z" changeset="164121376" uid="7698761" user="_Neptun">
    <nd ref="237853147"/>
    <nd ref="9079567696"/>
    <nd ref="9079567764"/>
    <nd ref="2291312056"/>
    <nd ref="1140229982"/>
    <nd ref="10682573637"/>
    <tag k="highway" v="tertiary"/>
    <tag k="lanes" v="2"/>
    <tag k="name" v="Starochuchelská"/>
    <tag k="oneway" v="no"/>
    <tag k="surface" v="asphalt"/>
  </way>
  <way id="113319721" version="10" timestamp="2025-03-05T08:37:12Z" changeset="163234242" uid="718054" user="Piskvor">
    <nd ref="304338057"/>
    <nd ref="1285388919"/>
    <nd ref="360403036"/>
    <tag k="highway" v="tertiary"/>
    <tag k="lanes" v="2"/>
    <tag k="maxspeed" v="50"/>
    <tag k="name" v="Dostihová"/>
    <tag k="note" v="flood wall"/>
    <tag k="oneway" v="no"/>
    <tag k="proposed:barrier" v="wall"/>
    <tag k="sidewalk" v="separate"/>
    <tag k="surface" v="asphalt"/>
  </way>
  <way id="113319723" version="2" timestamp="2011-10-17T13:56:46Z" changeset="9582308" uid="528828" user="Ladar">
    <nd ref="304338059"/>
    <nd ref="360402991"/>
    <tag k="highway" v="residential"/>
    <tag k="name" v="U Závodiště"/>
  </way>
  <way id="124509432" version="6" timestamp="2024-11-02T20:20:07Z" changeset="158675539" uid="1189910" user="Milancer">
    <nd ref="4963847998"/>
    <nd ref="277482848"/>
    <nd ref="277483085"/>
    <nd ref="277482847"/>
    <nd ref="277482846"/>
    <nd ref="4963847999"/>
    <nd ref="277482845"/>
    <nd ref="277482844"/>
    <nd ref="4963848000"/>
    <nd ref="12307910657"/>
    <nd ref="277482843"/>
    <tag k="access" v="destination"/>
    <tag k="highway" v="residential"/>
    <tag k="maxspeed" v="30"/>
    <tag k="motor_vehicle" v="permit"/>
    <tag k="name" v="Na Hvězdárně"/>
    <tag k="source:maxspeed" v="sign"/>
    <tag k="surface" v="asphalt"/>
  </way>
  <way id="125867572" version="4" timestamp="2021-01-11T12:55:39Z" changeset="97308187" uid="718054" user="Piskvor">
    <nd ref="245800216"/>
    <nd ref="1839538879"/>
    <nd ref="727508703"/>
    <nd ref="237853147"/>
    <tag k="highway" v="tertiary"/>
    <tag k="lanes" v="2"/>
    <tag k="maxspeed" v="50"/>
    <tag k="name" v="Starochuchelská"/>
    <tag k="surface" v="asphalt"/>
  </way>
  <way id="128635488" version="3" timestamp="2025-03-05T08:37:12Z" changeset="163234242" uid="718054" user="Piskvor">
    <nd ref="1421082149"/>
    <nd ref="727508696"/>
    <tag k="bridge" v="yes"/>
    <tag k="bridge:structure" v="beam"/>
    <tag k="highway" v="residential"/>
    <tag k="layer" v="1"/>
    <tag k="name" v="U Závodiště"/>
  </way>
  <way id="131564323" version="6" timestamp="2018-02-20T15:00:13Z" changeset="56523211" uid="255936" user="NyanSten">
    <nd ref="1447722488"/>
    <nd ref="277482813"/>
    <tag k="highway" v="residential"/>
    <tag k="name" v="Nad Závodištěm"/>
    <tag k="oneway" v="no"/>
    <tag k="surface" v="asphalt"/>
  </way>
  <way id="131564324" version="8" timestamp="2024-11-17T17:28:15Z" changeset="159252377" uid="231749" user="Eino81">
    <nd ref="1449211227"/>
    <nd ref="1449211205"/>
    <nd ref="1447722490"/>
    <nd ref="1449211221"/>
    <nd ref="1447722488"/>
    <nd ref="1839538660"/>
    <nd ref="1447722485"/>
    <nd ref="1447722482"/>
    <nd ref="1447722484"/>
    <nd ref="12348756998"/>
    <tag k="highway" v="residential"/>
    <tag k="name" v="Nad Závodištěm"/>
  </way>
  <way id="131833394" version="8" timestamp="2022-03-22T13:13:38Z" changeset="118778363" uid="37237" user="pard">
    <nd ref="237854912"/>
    <nd ref="1140219909"/>
    <nd ref="8923234878"/>
    <tag k="cycleway:both" v="no"/>
    <tag k="highway" v="tertiary"/>
    <tag k="lanes" v="2"/>
    <tag k="lit" v="yes"/>
    <tag k="maxspeed" v="50"/>
    <tag k="name" v="Mezichuchelská"/>
    <tag k="oneway" v="no"/>
    <tag k="sidewalk:left" v="separate"/>
    <tag k="sidewalk:right" v="no"/>
    <tag k="surface" v="asphalt"/>
  </way>
  <way id="131834803" version="5" timestamp="2025-03-26T13:10:42Z" changeset="164121376" uid="7698761" user="_Neptun">
    <nd ref="1450286853"/>
    <nd ref="1450286854"/>
    <tag k="highway" v="residential"/>
    <tag k="name" v="U Skály"/>
    <tag k="oneway" v="no"/>
    <tag k="surface" v="asphalt"/>
  </way>
  <way id="133144780" version="4" timestamp="2015-10-12T11:43:21Z" changeset="34588290" uid="1189910" user="Milancer">
    <nd ref="1465014245"/>
    <nd ref="1465014355"/>
    <nd ref="1465014395"/>
    <nd ref="1465014400"/>
    <nd ref="1465014407"/>
    <nd ref="3783177037"/>
    <nd ref="1465014414"/>
    <tag k="access" v="private"/>
    <tag k="highway" v="residential"/>
    <tag k="horse" v="private"/>
    <tag k="name" v="U Bažantnice"/>
    <tag k="source" v="bing:ortofoto"/>
  </way>
  <way id="133170770" version="3" timestamp="2014-08-30T10:53:09Z" changeset="25115216" uid="403828" user="Kamenitxan">
    <nd ref="277482653"/>
    <nd ref="1174062248"/>
    <nd ref="31516532"/>
    <tag k="highway" v="residential"/>
    <tag k="name" v="náměstí Chuchelských bojovníků"/>
    <tag k="oneway" v="no"/>
    <tag k="short_name" v="nám. Chuchelských Bojovníků"/>
    <tag k="source:name" v="nameit/uir-adr"/>
  </way>
  <way id="133170771" version="1" timestamp="2011-10-13T15:44:45Z" changeset="9548290" uid="528828" user="Ladar">
    <nd ref="74035810"/>
    <nd ref="74035932"/>
    <nd ref="74035935"/>
    <nd ref="25953379"/>
    <tag k="highway" v="residential"/>
    <tag k="name" v="U Bažantnice"/>
  </way>
  <way id="133170772" version="2" timestamp="2012-07-27T07:53:29Z" changeset="12507923" uid="364739" user="j123b567">
    <nd ref="1839538944"/>
    <nd ref="1839538957"/>
    <nd ref="1839538972"/>
    <nd ref="277482644"/>
    <tag k="access" v="private"/>
    <tag k="highway" v="residential"/>
    <tag k="name" v="Starochuchelská"/>
    <tag k="source" v="bing"/>
  </way>
  <way id="133170773" version="1" timestamp="2011-10-13T15:44:45Z" changeset="9548290" uid="528828" user="Ladar">
    <nd ref="74035802"/>
    <nd ref="74035925"/>
    <tag k="highway" v="residential"/>
    <tag k="name" v="Nad Libří"/>
  </way>
  <way id="133170774" version="2" timestamp="2012-07-27T07:53:26Z" changeset="12507923" uid="364739" user="j123b567">
    <nd ref="25953384"/>
    <nd ref="1839538592"/>
    <nd ref="74035802"/>
    <tag k="highway" v="residential"/>
    <tag k="name" v="Nad Libří"/>
  </way>
  <way id="133170777" version="5" timestamp="2021-11-21T20:15:28Z" changeset="114071828" uid="1189910" user="Milancer">
    <nd ref="25953379"/>
    <nd ref="1839538587"/>
    <nd ref="25953395"/>
    <nd ref="1824130730"/>
    <nd ref="25953401"/>
    <nd ref="25953408"/>
    <nd ref="1465014414"/>
    <nd ref="25953412"/>
    <nd ref="277482827"/>
    <nd ref="277482828"/>
    <nd ref="277482829"/>
    <nd ref="9273027647"/>
    <nd ref="9273027649"/>
    <nd ref="9273027648"/>
    <nd ref="277482832"/>
    <nd ref="277482833"/>
    <nd ref="277482834"/>
    <nd ref="277482835"/>
    <tag k="highway" v="residential"/>
    <tag k="name" v="U Bažantnice"/>
  </way>
  <way id="133170778" version="5" timestamp="2021-03-27T19:21:24Z" changeset="101851157" uid="1189910" user="Milancer">
    <nd ref="74035925"/>
    <nd ref="277482825"/>
    <tag k="highway" v="residential"/>
    <tag k="name" v="Bílčická"/>
  </way>
  <way id="133173420" version="1" timestamp="2011-10-13T16:40:37Z" changeset="9548290" uid="528828" user="Ladar">
    <nd ref="277482623"/>
    <nd ref="277482622"/>
    <tag k="highway" v="residential"/>
    <tag k="name" v="Prodloužená"/>
    <tag k="source:name" v="nameit/uir-adr"/>
  </way>
  <way id="133173422" version="4" timestamp="2017-09-06T11:36:20Z" changeset="51778577" uid="255936" user="NyanSten">
    <nd ref="277482661"/>
    <nd ref="1839538725"/>
    <nd ref="277482662"/>
    <nd ref="1484801416"/>
    <nd ref="1484801415"/>
    <nd ref="1484801414"/>
    <tag k="access" v="destination"/>
    <tag k="highway" v="residential"/>
    <tag k="name" v="K Vápence"/>
    <tag k="source" v="cuzk:km;uhul:ortofoto"/>
    <tag k="source:name" v="nameit/uir-adr"/>
  </way>
  <way id="133173424" version="1" timestamp="2011-10-13T16:40:37Z" changeset="9548290" uid="528828" user="Ladar">
    <nd ref="277482607"/>
    <nd ref="277482608"/>
    <tag k="highway" v="residential"/>
    <tag k="name" v="Strmý vrch"/>
    <tag k="source:name" v="nameit/uir-adr"/>
  </way>
  <way id="133173427" version="1" timestamp="2011-10-13T16:40:37Z" changeset="9548290" uid="528828" user="Ladar">
    <nd ref="277482606"/>
    <nd ref="277482607"/>
    <tag k="highway" v="residential"/>
    <tag k="name" v="Strmý vrch"/>
    <tag k="source:name" v="nameit/uir-adr"/>
  </way>
  <way id="133173429" version="3" timestamp="2018-05-17T13:55:24Z" changeset="59052124" uid="255936" user="NyanSten">
    <nd ref="1465375376"/>
    <nd ref="1839538791"/>
    <nd ref="1465375363"/>
    <tag k="highway" v="residential"/>
  </way>
  <way id="133173430" version="1" timestamp="2011-10-13T16:40:38Z" changeset="9548290" uid="528828" user="Ladar">
    <nd ref="277482608"/>
    <nd ref="727508684"/>
    <tag k="highway" v="residential"/>
    <tag k="name" v="Strmý vrch"/>
    <tag k="source:name" v="nameit/uir-adr"/>
  </way>
  <way id="133173431" version="1" timestamp="2011-10-13T16:40:38Z" changeset="9548290" uid="528828" user="Ladar">
    <nd ref="277482622"/>
    <nd ref="277482621"/>
    <nd ref="277482607"/>
    <tag k="highway" v="residential"/>
    <tag k="name" v="Prodloužená"/>
    <tag k="source:name" v="nameit/uir-adr"/>
  </way>
  <way id="133173435" version="3" timestamp="2025-03-26T13:10:40Z" changeset="164121376" uid="7698761" user="_Neptun">
    <nd ref="761545229"/>
    <nd ref="9871924022"/>
    <nd ref="1140219741"/>
    <tag k="highway" v="residential"/>
    <tag k="name" v="Kazínská"/>
    <tag k="source" v="cuzk:km"/>
    <tag k="surface" v="asphalt"/>
  </way>
  <way id="133173436" version="1" timestamp="2011-10-13T16:40:39Z" changeset="9548290" uid="528828" user="Ladar">
    <nd ref="277482606"/>
    <nd ref="277482614"/>
    <tag k="highway" v="residential"/>
    <tag k="name" v="Dolomitová"/>
    <tag k="oneway" v="yes"/>
    <tag k="source:name" v="nameit/uir-adr"/>
  </way>
  <way id="133173437" version="3" timestamp="2012-07-27T07:53:26Z" changeset="12507923" uid="364739" user="j123b567">
    <nd ref="277482793"/>
    <nd ref="1478320796"/>
    <nd ref="1465375365"/>
    <nd ref="1465375349"/>
    <nd ref="1465375351"/>
    <nd ref="1465375364"/>
    <nd ref="1465375366"/>
    <tag k="hgv" v="permissive"/>
    <tag k="highway" v="residential"/>
    <tag k="name" v="Na Mrázovce"/>
  </way>
  <way id="133173438" version="2" timestamp="2021-05-01T11:10:05Z" changeset="103951917" uid="13221266" user="danielpeslari">
    <nd ref="277482614"/>
    <nd ref="277482615"/>
    <nd ref="277482616"/>
    <tag k="highway" v="residential"/>
    <tag k="name" v="Dolomitová"/>
    <tag k="oneway" v="yes"/>
    <tag k="source:name" v="nameit/uir-adr"/>
    <tag k="surface" v="asphalt"/>
  </way>
  <way id="133173440" version="5" timestamp="2024-03-30T16:29:08Z" changeset="149359218" uid="9291527" user="marekhrabe">
    <nd ref="277482580"/>
    <nd ref="277482581"/>
    <nd ref="277482582"/>
    <nd ref="1868605777"/>
    <nd ref="277482583"/>
    <nd ref="11773838927"/>
    <nd ref="727508746"/>
    <nd ref="277482584"/>
    <nd ref="277482585"/>
    <nd ref="277482586"/>
    <nd ref="1839538926"/>
    <nd ref="277482587"/>
    <nd ref="277482603"/>
    <tag k="highway" v="residential"/>
    <tag k="name" v="K Vápence"/>
    <tag k="source:name" v="cuzk:km;survey"/>
  </way>
  <way id="133242028" version="11" timestamp="2024-12-28T15:44:16Z" changeset="160719064" uid="1189910" user="Milancer">
    <nd ref="31515050"/>
    <nd ref="9060793556"/>
    <nd ref="12459100666"/>
    <nd ref="2223524951"/>
    <nd ref="31515051"/>
    <nd ref="1168892577"/>
    <nd ref="9658323956"/>
    <nd ref="12459100669"/>
    <nd ref="12459100668"/>
    <nd ref="9650804436"/>
    <nd ref="9556294575"/>
    <nd ref="9556294576"/>
    <nd ref="9556294577"/>
    <nd ref="31515053"/>
    <nd ref="31515054"/>
    <nd ref="1188878100"/>
    <nd ref="9556294578"/>
    <nd ref="30006605"/>
    <tag k="highway" v="tertiary"/>
    <tag k="lanes" v="2"/>
    <tag k="maxheight" v="default"/>
    <tag k="name" v="Radotínská"/>
    <tag k="surface" v="asphalt"/>
  </way>
  <way id="133242033" version="5" timestamp="2023-07-07T08:51:27Z" changeset="138219490" uid="746938" user="aloxe">
    <nd ref="1140219906"/>
    <nd ref="31515043"/>
    <nd ref="1140229953"/>
    <nd ref="31515044"/>
    <nd ref="3920472817"/>
    <tag k="highway" v="tertiary"/>
    <tag k="lanes" v="2"/>
    <tag k="maxspeed" v="50"/>
    <tag k="name" v="Radotínská"/>
    <tag k="surface" v="asphalt"/>
  </way>
  <way id="133242036" version="6" timestamp="2023-07-07T08:51:46Z" changeset="138219490" uid="746938" user="aloxe">
    <nd ref="3920472809"/>
    <nd ref="7931291793"/>
    <nd ref="1140229929"/>
    <nd ref="8587341907"/>
    <nd ref="31515047"/>
    <tag k="highway" v="tertiary"/>
    <tag k="lanes" v="2"/>
    <tag k="maxspeed" v="50"/>
    <tag k="name" v="Radotínská"/>
    <tag k="surface" v="asphalt"/>
  </way>
  <way id="133242038" version="4" timestamp="2023-07-07T08:52:13Z" changeset="138219490" uid="746938" user="aloxe">
    <nd ref="31515047"/>
    <nd ref="1157916557"/>
    <nd ref="3938010908"/>
    <nd ref="31515048"/>
    <tag k="highway" v="tertiary"/>
    <tag k="lanes" v="2"/>
    <tag k="name" v="Radotínská"/>
    <tag k="surface" v="asphalt"/>
  </way>
  <way id="133242040" version="5" timestamp="2023-07-07T08:52:54Z" changeset="138219490" uid="746938" user="aloxe">
    <nd ref="1466555699"/>
    <nd ref="31515049"/>
    <nd ref="8535832286"/>
    <nd ref="31515050"/>
    <tag k="highway" v="tertiary"/>
    <tag k="lanes" v="2"/>
    <tag k="name" v="Radotínská"/>
    <tag k="surface" v="asphalt"/>
  </way>
  <way id="133242041" version="3" timestamp="2016-01-10T17:57:47Z" changeset="36488048" uid="1189910" user="Milancer">
    <nd ref="1466555695"/>
    <nd ref="3938010919"/>
    <nd ref="3938010916"/>
    <nd ref="1466555706"/>
    <nd ref="1466555704"/>
    <nd ref="1466555699"/>
    <tag k="highway" v="residential"/>
    <tag k="name" v="Radotínská"/>
    <tag k="oneway" v="no"/>
  </way>
  <way id="133623111" version="3" timestamp="2025-03-26T13:10:42Z" changeset="164121376" uid="7698761" user="_Neptun">
    <nd ref="1450286854"/>
    <nd ref="1824130770"/>
    <nd ref="277483235"/>
    <tag k="highway" v="residential"/>
    <tag k="name" v="U skály"/>
    <tag k="oneway" v="no"/>
    <tag k="surface" v="asphalt"/>
  </way>
  <way id="133623112" version="1" timestamp="2011-10-17T13:56:44Z" changeset="9582308" uid="528828" user="Ladar">
    <nd ref="360402991"/>
    <nd ref="360404357"/>
    <tag k="highway" v="residential"/>
    <tag k="name" v="U Závodiště"/>
  </way>
  <way id="133623113" version="2" timestamp="2021-01-11T12:55:39Z" changeset="97308187" uid="718054" user="Piskvor">
    <nd ref="277483228"/>
    <nd ref="8311355326"/>
    <nd ref="8311355328"/>
    <nd ref="277483229"/>
    <nd ref="277483230"/>
    <nd ref="277483231"/>
    <tag k="highway" v="residential"/>
    <tag k="name" v="Starolázeňská"/>
    <tag k="source:name" v="nameit/uir-adr"/>
  </way>
  <way id="133623114" version="1" timestamp="2011-10-17T13:56:45Z" changeset="9582308" uid="528828" user="Ladar">
    <nd ref="1421082179"/>
    <nd ref="1421082177"/>
    <nd ref="360403048"/>
    <nd ref="360403050"/>
    <nd ref="360403052"/>
    <tag k="highway" v="residential"/>
    <tag k="name" v="U Zahradnictví"/>
    <tag k="source" v="uhul:ortofoto"/>
  </way>
  <way id="133623115" version="5" timestamp="2025-03-05T08:37:12Z" changeset="163234242" uid="718054" user="Piskvor">
    <nd ref="360403036"/>
    <nd ref="277483235"/>
    <tag k="highway" v="tertiary"/>
    <tag k="lanes" v="2"/>
    <tag k="name" v="Dostihová"/>
    <tag k="oneway" v="no"/>
    <tag k="sidewalk" v="separate"/>
    <tag k="surface" v="asphalt"/>
  </way>
  <way id="133623116" version="1" timestamp="2011-10-17T13:56:45Z" changeset="9582308" uid="528828" user="Ladar">
    <nd ref="1234027614"/>
    <nd ref="1421082168"/>
    <nd ref="277483234"/>
    <tag k="highway" v="residential"/>
    <tag k="name" v="Starolázeňská"/>
    <tag k="source:name" v="nameit/uir-adr"/>
  </way>
  <way id="133623117" version="2" timestamp="2012-07-13T12:05:32Z" changeset="12205893" uid="364739" user="j123b567">
    <nd ref="277483234"/>
    <nd ref="1824130773"/>
    <nd ref="277483235"/>
    <tag k="highway" v="residential"/>
    <tag k="name" v="Starolázeňská"/>
    <tag k="source:name" v="nameit/uir-adr"/>
  </way>
  <way id="134679603" version="4" timestamp="2023-02-06T20:10:01Z" changeset="132174148" uid="10932047" user="AF HAF KARTOGRAF">
    <nd ref="74035810"/>
    <nd ref="1480392162"/>
    <tag k="highway" v="residential"/>
    <tag k="name" v="U Bažantnice"/>
  </way>
  <way id="134679615" version="1" timestamp="2011-10-25T18:58:14Z" changeset="9654430" uid="528828" user="Ladar">
    <nd ref="277482822"/>
    <nd ref="277482823"/>
    <nd ref="277482824"/>
    <nd ref="74035925"/>
    <tag k="highway" v="residential"/>
    <tag k="name" v="Bílčická"/>
  </way>
  <way id="157444487" version="3" timestamp="2024-07-09T15:18:32Z" changeset="153749214" uid="700491" user="David Kříž">
    <nd ref="1696623270"/>
    <nd ref="1696623273"/>
    <nd ref="1696623275"/>
    <nd ref="1696623271"/>
    <nd ref="1696623256"/>
    <nd ref="1696623251"/>
    <nd ref="1696623250"/>
    <nd ref="1696623253"/>
    <nd ref="1696623270"/>
    <tag k="building" v="yes"/>
    <tag k="name" v="Pacoldova vápenka"/>
    <tag k="source" v="cuzk:km"/>
  </way>
  <way id="157444488" version="1" timestamp="2012-03-29T19:11:21Z" changeset="11142511" uid="488732" user="montardo">
    <nd ref="1696623272"/>
    <nd ref="1696623277"/>
    <nd ref="1696623282"/>
    <nd ref="1696623274"/>
    <nd ref="1696623269"/>
    <nd ref="1696623255"/>
    <nd ref="1696623252"/>
    <nd ref="1696623267"/>
    <nd ref="1696623272"/>
    <tag k="building" v="yes"/>
    <tag k="name" v="Pacoldova vápenka"/>
    <tag k="source" v="cuzk:km"/>
  </way>
  <way id="165486737" version="3" timestamp="2017-07-11T12:50:35Z" changeset="50201236" uid="255936" user="NyanSten">
    <nd ref="277482844"/>
    <nd ref="761540046"/>
    <nd ref="761540064"/>
    <nd ref="277483084"/>
    <tag k="access" v="destination"/>
    <tag k="highway" v="residential"/>
    <tag k="maxspeed" v="30"/>
    <tag k="name" v="Holoubkova"/>
    <tag k="source:maxspeed" v="sign"/>
    <tag k="surface" v="compacted"/>
  </way>
  <way id="171381528" version="3" timestamp="2021-03-09T16:31:08Z" changeset="100722644" uid="25867" user="adamos">
    <nd ref="31516740"/>
    <nd ref="277482801"/>
    <nd ref="1824130753"/>
    <nd ref="1484817190"/>
    <nd ref="1504224951"/>
    <nd ref="277482804"/>
    <nd ref="1449211211"/>
    <nd ref="1484817189"/>
    <nd ref="1465014525"/>
    <nd ref="277482805"/>
    <nd ref="8500561411"/>
    <nd ref="277482806"/>
    <nd ref="8500561412"/>
    <nd ref="1480361781"/>
    <nd ref="8500561413"/>
    <nd ref="277482807"/>
    <nd ref="8500561414"/>
    <nd ref="8500561415"/>
    <nd ref="277482808"/>
    <nd ref="277482809"/>
    <nd ref="1480361783"/>
    <nd ref="277482810"/>
    <nd ref="8500561416"/>
    <nd ref="277482811"/>
    <nd ref="1480361780"/>
    <nd ref="8500561417"/>
    <nd ref="1480361782"/>
    <nd ref="277482812"/>
    <nd ref="1839538673"/>
    <nd ref="277482813"/>
    <nd ref="1484817187"/>
    <nd ref="1465014514"/>
    <nd ref="277482814"/>
    <tag k="highway" v="residential"/>
    <tag k="name" v="Na Hvězdárně"/>
    <tag k="oneway" v="no"/>
    <tag k="source:name" v="nameit/uir-adr"/>
  </way>
  <way id="171381529" version="4" timestamp="2022-03-22T13:09:27Z" changeset="118778244" uid="37237" user="pard">
    <nd ref="1824130800"/>
    <nd ref="1234027605"/>
    <nd ref="1140219910"/>
    <nd ref="1824130837"/>
    <tag k="highway" v="residential"/>
    <tag k="lit" v="yes"/>
    <tag k="name" v="U Skály"/>
    <tag k="surface" v="paving_stones"/>
  </way>
  <way id="171381538" version="2" timestamp="2012-07-27T07:53:28Z" changeset="12507923" uid="364739" user="j123b567">
    <nd ref="1824130756"/>
    <nd ref="1839538807"/>
    <nd ref="1480392181"/>
    <tag k="highway" v="residential"/>
    <tag k="name" v="Starochuchelská"/>
  </way>
  <way id="171381540" version="2" timestamp="2012-07-27T07:53:27Z" changeset="12507923" uid="364739" user="j123b567">
    <nd ref="1480392170"/>
    <nd ref="1824130756"/>
    <tag k="bridge" v="yes"/>
    <tag k="highway" v="residential"/>
    <tag k="layer" v="1"/>
    <tag k="name" v="Starochuchelská"/>
  </way>
  <way id="171381550" version="6" timestamp="2023-03-03T18:46:46Z" changeset="133266201" uid="2061236" user="Thartek">
    <nd ref="1824130764"/>
    <nd ref="301898364"/>
    <nd ref="10707588076"/>
    <nd ref="277483372"/>
    <nd ref="277483371"/>
    <nd ref="277483370"/>
    <nd ref="277483241"/>
    <tag k="bicycle" v="yes"/>
    <tag k="foot" v="yes"/>
    <tag k="highway" v="unclassified"/>
    <tag k="smoothness" v="excellent"/>
    <tag k="surface" v="asphalt"/>
  </way>
  <way id="171993335" version="22" timestamp="2024-11-13T21:41:58Z" changeset="159108577" uid="8971394" user="vojtechzaboril">
    <nd ref="1456850635"/>
    <nd ref="6989771186"/>
    <nd ref="12338030988"/>
    <nd ref="9373321060"/>
    <nd ref="12338030994"/>
    <nd ref="12338030993"/>
    <nd ref="12338030992"/>
    <nd ref="1829493846"/>
    <nd ref="12338030991"/>
    <nd ref="12338030990"/>
    <nd ref="12338030989"/>
    <nd ref="8399261954"/>
    <nd ref="12338030950"/>
    <nd ref="12338030949"/>
    <nd ref="12338030948"/>
    <nd ref="1829493849"/>
    <nd ref="12338030947"/>
    <nd ref="12338030946"/>
    <nd ref="1838652753"/>
    <nd ref="2263121917"/>
    <nd ref="1838652755"/>
    <nd ref="12338030954"/>
    <nd ref="12338030953"/>
    <nd ref="1838652757"/>
    <nd ref="12338030952"/>
    <nd ref="12338030951"/>
    <nd ref="1838652761"/>
    <nd ref="12338030968"/>
    <nd ref="12338030967"/>
    <nd ref="12338030966"/>
    <nd ref="12338030965"/>
    <nd ref="12338030964"/>
    <nd ref="1838652764"/>
    <nd ref="12338030963"/>
    <nd ref="12338030962"/>
    <nd ref="1838652763"/>
    <nd ref="12338030974"/>
    <nd ref="1838652758"/>
    <nd ref="478231581"/>
    <nd ref="6989707869"/>
    <nd ref="10219822112"/>
    <nd ref="478231584"/>
    <tag k="alt_name" v="tunel Lochkov"/>
    <tag k="highway" v="motorway"/>
    <tag k="int_ref" v="E 50"/>
    <tag k="lanes" v="3"/>
    <tag k="layer" v="-1"/>
    <tag k="lit" v="yes"/>
    <tag k="maxheight" v="4.5"/>
    <tag k="maxspeed" v="80"/>
    <tag k="maxspeed:variable" v="obstruction"/>
    <tag k="name" v="Lochkovský tunel"/>
    <tag k="name:de" v="Lochkower Tunnel"/>
    <tag k="name:en" v="Lochkov Tunnel"/>
    <tag k="old_name" v="Lahovický tunel"/>
    <tag k="old_name:de" v="Lahowitzer Tunnel"/>
    <tag k="old_name:en" v="Lahovice Tunnel"/>
    <tag k="oneway" v="yes"/>
    <tag k="ref" v="D0"/>
    <tag k="smoothness" v="excellent"/>
    <tag k="source:maxspeed" v="sign"/>
    <tag k="start_date" v="2010"/>
    <tag k="surface" v="asphalt"/>
    <tag k="toll" v="yes"/>
    <tag k="tunnel" v="yes"/>
    <tag k="wikidata" v="Q12033775"/>
    <tag k="wikipedia" v="cs:Lochkovský tunel"/>
  </way>
  <way id="172846351" version="17" timestamp="2024-11-14T12:30:01Z" changeset="159128315" uid="6588887" user="Martin2035">
    <nd ref="1836945257"/>
    <nd ref="10678793254"/>
    <nd ref="1823992530"/>
    <nd ref="277483344"/>
    <tag k="access:lanes" v="yes|yes|no"/>
    <tag k="busway:right" v="lane"/>
    <tag k="cycleway:right" v="share_busway"/>
    <tag k="hgv:12t" v="destination"/>
    <tag k="highway" v="primary"/>
    <tag k="lanes" v="3"/>
    <tag k="lit" v="yes"/>
    <tag k="maxspeed" v="50"/>
    <tag k="name" v="Strakonická"/>
    <tag k="oneway" v="yes"/>
    <tag k="psv:lanes" v="yes|yes|designated"/>
    <tag k="ref" v="4"/>
    <tag k="source:maxspeed" v="sign"/>
    <tag k="surface" v="asphalt"/>
    <tag k="taxi:lanes" v="yes|yes|designated"/>
  </way>
  <way id="173122995" version="1" timestamp="2012-07-27T07:53:12Z" changeset="12507923" uid="364739" user="j123b567">
    <nd ref="1839538712"/>
    <nd ref="277482614"/>
    <tag k="highway" v="residential"/>
    <tag k="name" v="Dolomitová"/>
    <tag k="source" v="cuzk:km"/>
  </way>
  <way id="173122997" version="2" timestamp="2017-09-06T11:36:19Z" changeset="51778577" uid="255936" user="NyanSten">
    <nd ref="1839539017"/>
    <nd ref="727508677"/>
    <tag k="highway" v="residential"/>
    <tag k="name" v="K Vápence"/>
    <tag k="source:name" v="cuzk:km;survey"/>
  </way>
  <way id="173122999" version="2" timestamp="2015-10-12T11:43:11Z" changeset="34588290" uid="1189910" user="Milancer">
    <nd ref="1839538686"/>
    <nd ref="3253125006"/>
    <tag k="highway" v="residential"/>
    <tag k="name" v="Na Cihelně"/>
    <tag k="source" v="cuzk:km;uhul:ortofoto"/>
    <tag k="source:name" v="nameit/uir-adr"/>
  </way>
  <way id="173123001" version="2" timestamp="2024-05-25T22:07:45Z" changeset="151829931" uid="469828" user="Lukáš Jelínek">
    <nd ref="277482644"/>
    <nd ref="1839538975"/>
    <nd ref="11933928221"/>
    <nd ref="277482645"/>
    <nd ref="277482637"/>
    <tag k="highway" v="residential"/>
    <tag k="name" v="Starochuchelská"/>
    <tag k="source:name" v="nameit/uir-adr"/>
  </way>
  <way id="173123002" version="4" timestamp="2024-07-09T15:18:32Z" changeset="153749214" uid="700491" user="David Kříž">
    <nd ref="1839539043"/>
    <nd ref="1839539041"/>
    <nd ref="1839539034"/>
    <nd ref="1839539030"/>
    <nd ref="12043762753"/>
    <nd ref="1839539020"/>
    <tag k="highway" v="residential"/>
    <tag k="name" v="V Dolích"/>
  </way>
  <way id="173123003" version="4" timestamp="2017-09-06T11:36:18Z" changeset="51778577" uid="255936" user="NyanSten">
    <nd ref="1839539013"/>
    <nd ref="3451644694"/>
    <nd ref="2894316456"/>
    <nd ref="1839539032"/>
    <nd ref="1839539036"/>
    <nd ref="1839539042"/>
    <nd ref="1839539043"/>
    <nd ref="727587396"/>
    <tag k="highway" v="residential"/>
    <tag k="name" v="V Dolích"/>
  </way>
  <way id="179556224" version="5" timestamp="2024-11-17T17:23:34Z" changeset="159252193" uid="231749" user="Eino81">
    <nd ref="1466555706"/>
    <nd ref="11776235880"/>
    <nd ref="1899414462"/>
    <nd ref="3938010913"/>
    <nd ref="1899414468"/>
    <tag k="highway" v="residential"/>
  </way>
  <way id="220224418" version="19" timestamp="2024-11-14T12:30:01Z" changeset="159128315" uid="6588887" user="Martin2035">
    <nd ref="277483349"/>
    <nd ref="10703795"/>
    <tag k="access:lanes" v="yes|yes|no"/>
    <tag k="busway:right" v="lane"/>
    <tag k="cycleway:right" v="share_busway"/>
    <tag k="foot" v="yes"/>
    <tag k="hgv:12t" v="destination"/>
    <tag k="highway" v="primary"/>
    <tag k="lanes" v="4"/>
    <tag k="lit" v="yes"/>
    <tag k="maxspeed" v="50"/>
    <tag k="name" v="Strakonická"/>
    <tag k="oneway" v="yes"/>
    <tag k="psv:lanes" v="yes|yes|designated"/>
    <tag k="ref" v="4"/>
    <tag k="sidewalk" v="no"/>
    <tag k="source:maxspeed" v="sign"/>
    <tag k="surface" v="asphalt"/>
    <tag k="taxi:lanes" v="yes|yes|designated"/>
  </way>
  <way id="221315206" version="3" timestamp="2025-03-26T13:10:34Z" changeset="164121376" uid="7698761" user="_Neptun">
    <nd ref="31516740"/>
    <nd ref="1140219742"/>
    <nd ref="31516739"/>
    <nd ref="11933928248"/>
    <nd ref="1465375343"/>
    <nd ref="11933928251"/>
    <nd ref="11933928249"/>
    <nd ref="11933928250"/>
    <nd ref="1421082138"/>
    <nd ref="11933928247"/>
    <nd ref="11933928246"/>
    <nd ref="31516532"/>
    <nd ref="11933928245"/>
    <nd ref="11933928244"/>
    <nd ref="1465014531"/>
    <nd ref="1465014535"/>
    <nd ref="1465375363"/>
    <nd ref="761565776"/>
    <nd ref="1480392181"/>
    <nd ref="1421082142"/>
    <nd ref="11933928238"/>
    <nd ref="1839538821"/>
    <nd ref="31516531"/>
    <nd ref="277482640"/>
    <nd ref="1839538908"/>
    <nd ref="1839538935"/>
    <nd ref="31516530"/>
    <nd ref="727436869"/>
    <tag k="highway" v="tertiary"/>
    <tag k="name" v="Starochuchelská"/>
    <tag k="oneway" v="no"/>
    <tag k="surface" v="asphalt"/>
  </way>
  <way id="221315207" version="3" timestamp="2025-03-26T13:10:32Z" changeset="164121376" uid="7698761" user="_Neptun">
    <nd ref="277482610"/>
    <nd ref="31516529"/>
    <nd ref="11933928216"/>
    <nd ref="11933928215"/>
    <nd ref="727398911"/>
    <nd ref="31516528"/>
    <tag k="highway" v="tertiary"/>
    <tag k="name" v="Starochuchelská"/>
    <tag k="surface" v="asphalt"/>
  </way>
  <way id="221315208" version="1" timestamp="2013-05-14T08:39:13Z" changeset="16122045" uid="595326" user="viduka">
    <nd ref="277482609"/>
    <nd ref="727508743"/>
    <tag k="highway" v="residential"/>
    <tag k="name" v="náměstí Omladiny"/>
    <tag k="source" v="survey;cuzk:km;uhul:ortofoto"/>
  </way>
  <way id="259925619" version="6" timestamp="2025-03-05T08:37:12Z" changeset="163234242" uid="718054" user="Piskvor">
    <nd ref="245800216"/>
    <nd ref="12638188973"/>
    <nd ref="1140219908"/>
    <nd ref="277483235"/>
    <tag k="cycleway:left" v="opposite_lane"/>
    <tag k="highway" v="tertiary"/>
    <tag k="lanes" v="1"/>
    <tag k="name" v="Dostihová"/>
    <tag k="oneway" v="yes"/>
    <tag k="oneway:bicycle" v="no"/>
    <tag k="sidewalk" v="separate"/>
    <tag k="surface" v="asphalt"/>
  </way>
  <way id="259925621" version="1" timestamp="2014-02-04T15:29:59Z" changeset="20374040" uid="17615" user="Petr Dlouhý">
    <nd ref="1234027630"/>
    <nd ref="277483228"/>
    <tag k="highway" v="residential"/>
    <tag k="name" v="Starolázeňská"/>
    <tag k="source:name" v="nameit/uir-adr"/>
  </way>
  <way id="300918038" version="5" timestamp="2021-03-09T16:31:08Z" changeset="100722644" uid="25867" user="adamos">
    <nd ref="3050205993"/>
    <nd ref="3050205987"/>
    <nd ref="8500561370"/>
    <nd ref="3050205980"/>
    <nd ref="3050205986"/>
    <nd ref="3050205988"/>
    <nd ref="8500561371"/>
    <nd ref="3050205995"/>
    <tag k="highway" v="residential"/>
    <tag k="name" v="Adlerova"/>
    <tag k="surface" v="paving_stones"/>
  </way>
  <way id="300918039" version="3" timestamp="2021-03-09T16:31:08Z" changeset="100722644" uid="25867" user="adamos">
    <nd ref="3050205996"/>
    <nd ref="3050205994"/>
    <nd ref="8500561431"/>
    <nd ref="3050205989"/>
    <nd ref="3050205991"/>
    <nd ref="8500561430"/>
    <nd ref="3050205992"/>
    <nd ref="8500561427"/>
    <nd ref="8500561429"/>
    <nd ref="8500561428"/>
    <nd ref="3050205997"/>
    <nd ref="3050205998"/>
    <tag k="highway" v="residential"/>
    <tag k="name" v="Bochníčkova"/>
    <tag k="surface" v="asphalt"/>
  </way>
  <way id="300918040" version="3" timestamp="2021-03-09T16:31:08Z" changeset="100722644" uid="25867" user="adamos">
    <nd ref="3050205990"/>
    <nd ref="8500561425"/>
    <nd ref="3050205984"/>
    <nd ref="3050205979"/>
    <nd ref="3050205977"/>
    <nd ref="3050205974"/>
    <nd ref="8500561426"/>
    <nd ref="3050205982"/>
    <nd ref="8500561369"/>
    <nd ref="3050205985"/>
    <tag k="highway" v="residential"/>
    <tag k="name" v="Ceplechova"/>
    <tag k="surface" v="paving_stones"/>
  </way>
  <way id="300918041" version="3" timestamp="2021-03-09T16:31:08Z" changeset="100722644" uid="25867" user="adamos">
    <nd ref="3050205981"/>
    <nd ref="3050205978"/>
    <nd ref="8500561424"/>
    <nd ref="3050205973"/>
    <nd ref="3050205972"/>
    <nd ref="3050205971"/>
    <nd ref="8500561423"/>
    <nd ref="3050205975"/>
    <nd ref="3050205978"/>
    <tag k="highway" v="residential"/>
    <tag k="name" v="Kopalova"/>
    <tag k="surface" v="paving_stones"/>
  </way>
  <way id="364715742" version="1" timestamp="2015-08-09T03:56:17Z" changeset="33211520" uid="303429" user="Jenda">
    <nd ref="1613381358"/>
    <nd ref="26729535"/>
    <tag k="highway" v="residential"/>
    <tag k="name" v="Nad Radotínem"/>
    <tag k="oneway" v="no"/>
  </way>
  <way id="369859846" version="2" timestamp="2020-03-29T16:04:56Z" changeset="82783791" uid="1189910" user="Milancer">
    <nd ref="3736059642"/>
    <nd ref="3736059639"/>
    <nd ref="3736059637"/>
    <nd ref="3736059636"/>
    <nd ref="3736059633"/>
    <nd ref="3736059640"/>
    <nd ref="3736059642"/>
    <tag k="building" v="yes"/>
    <tag k="building:ruian:type" v="19"/>
    <tag k="name" v="Pacoldova vápenka"/>
    <tag k="ref:ruian:building" v="49125796"/>
    <tag k="source" v="cuzk:ruian"/>
    <tag k="wikidata" v="Q38187382"/>
    <tag k="wikipedia" v="cs:Pacoldova vápenka"/>
  </way>
  <way id="420172679" version="3" timestamp="2023-07-07T12:52:00Z" changeset="138227713" uid="746938" user="aloxe">
    <nd ref="31515048"/>
    <nd ref="1466555699"/>
    <tag k="highway" v="tertiary"/>
    <tag k="lanes" v="2"/>
    <tag k="name" v="Radotínská"/>
    <tag k="surface" v="asphalt"/>
  </way>
  <way id="424920567" version="15" timestamp="2024-03-11T18:43:16Z" changeset="148519070" uid="718054" user="Piskvor">
    <nd ref="4242787453"/>
    <nd ref="2293532993"/>
    <nd ref="1561231455"/>
    <nd ref="301901926"/>
    <nd ref="21714690"/>
    <nd ref="6915678654"/>
    <nd ref="529848619"/>
    <nd ref="1823992514"/>
    <nd ref="1561229907"/>
    <nd ref="21714691"/>
    <nd ref="9022157826"/>
    <tag k="bicycle" v="use_sidepath"/>
    <tag k="destination" v="Strakonice;Slapy;Zbraslav"/>
    <tag k="destination:ref" v="4;101"/>
    <tag k="hgv:12t" v="destination"/>
    <tag k="highway" v="primary"/>
    <tag k="lanes" v="2"/>
    <tag k="lit" v="yes"/>
    <tag k="maxspeed" v="50"/>
    <tag k="name" v="Strakonická"/>
    <tag k="oneway" v="yes"/>
    <tag k="ref" v="4"/>
    <tag k="source:maxspeed" v="sign"/>
    <tag k="surface" v="asphalt"/>
  </way>
  <way id="424921382" version="16" timestamp="2024-11-14T12:30:01Z" changeset="159128315" uid="6588887" user="Martin2035">
    <nd ref="4242795970"/>
    <nd ref="2293532996"/>
    <nd ref="2293533000"/>
    <nd ref="7141101339"/>
    <nd ref="10703797"/>
    <nd ref="1421082157"/>
    <nd ref="6726649008"/>
    <tag k="access:lanes" v="yes|yes|no"/>
    <tag k="busway:right" v="lane"/>
    <tag k="cycleway:right" v="share_busway"/>
    <tag k="foot" v="no"/>
    <tag k="hgv:12t" v="destination"/>
    <tag k="highway" v="primary"/>
    <tag k="lanes" v="3"/>
    <tag k="lit" v="yes"/>
    <tag k="maxspeed" v="80"/>
    <tag k="name" v="Strakonická"/>
    <tag k="oneway" v="yes"/>
    <tag k="psv:lanes" v="yes|yes|designated"/>
    <tag k="ref" v="4"/>
    <tag k="sidewalk" v="no"/>
    <tag k="source" v="Bus lane: http://www.praha.eu/jnp/cz/doprava/mhd/vyhrazeny_pruh_pro_autobusy_na.html#article-rating"/>
    <tag k="source:maxspeed" v="sign"/>
    <tag k="surface" v="asphalt"/>
    <tag k="taxi:lanes" v="yes|yes|designated"/>
  </way>
  <way id="437097429" version="4" timestamp="2018-05-14T17:23:33Z" changeset="58959470" uid="8271135" user="Marek Pospisil">
    <nd ref="277482843"/>
    <nd ref="2297336756"/>
    <nd ref="5617999754"/>
    <nd ref="3783176980"/>
    <tag k="highway" v="residential"/>
    <tag k="name" v="Na Hvězdárně"/>
    <tag k="surface" v="asphalt"/>
  </way>
  <way id="486440526" version="11" timestamp="2024-03-11T18:43:16Z" changeset="148519070" uid="718054" user="Piskvor">
    <nd ref="4790561501"/>
    <nd ref="2293532998"/>
    <nd ref="2293532995"/>
    <nd ref="2293532994"/>
    <nd ref="4242787453"/>
    <tag k="bicycle" v="use_sidepath"/>
    <tag k="cycleway:right" v="no"/>
    <tag k="foot" v="no"/>
    <tag k="hgv:12t" v="destination"/>
    <tag k="highway" v="primary"/>
    <tag k="lanes" v="2"/>
    <tag k="lit" v="yes"/>
    <tag k="maxspeed" v="80"/>
    <tag k="name" v="Strakonická"/>
    <tag k="oneway" v="yes"/>
    <tag k="ref" v="4"/>
    <tag k="sidewalk" v="no"/>
    <tag k="source:maxspeed" v="sign"/>
    <tag k="surface" v="asphalt"/>
  </way>
  <way id="591434327" version="1" timestamp="2018-05-27T22:57:52Z" changeset="59323762" uid="1719518" user="itamas80">
    <nd ref="3783176980"/>
    <nd ref="2263121939"/>
    <nd ref="3783176973"/>
    <tag k="highway" v="residential"/>
    <tag k="name" v="Na Hvězdárně"/>
    <tag k="surface" v="asphalt"/>
  </way>
  <way id="591673597" version="3" timestamp="2023-07-07T08:51:35Z" changeset="138219490" uid="746938" user="aloxe">
    <nd ref="3920472817"/>
    <nd ref="31515045"/>
    <nd ref="9172545028"/>
    <nd ref="1140229963"/>
    <nd ref="3920472809"/>
    <tag k="highway" v="tertiary"/>
    <tag k="lanes" v="2"/>
    <tag k="maxspeed" v="50"/>
    <tag k="name" v="Radotínská"/>
    <tag k="surface" v="asphalt"/>
  </way>
  <way id="591878795" version="9" timestamp="2023-09-22T12:19:16Z" changeset="141602147" uid="231749" user="Eino81">
    <nd ref="31516749"/>
    <nd ref="7141105604"/>
    <nd ref="1824130795"/>
    <nd ref="7141101379"/>
    <nd ref="7141105605"/>
    <nd ref="31516737"/>
    <tag k="bicycle" v="no"/>
    <tag k="highway" v="primary_link"/>
    <tag k="lanes" v="1"/>
    <tag k="lit" v="yes"/>
    <tag k="maxspeed" v="50"/>
    <tag k="oneway" v="yes"/>
    <tag k="surface" v="asphalt"/>
  </way>
  <way id="591878796" version="10" timestamp="2023-09-22T12:19:16Z" changeset="141602147" uid="231749" user="Eino81">
    <nd ref="31516737"/>
    <nd ref="7141105606"/>
    <nd ref="7141105607"/>
    <nd ref="7141105609"/>
    <tag k="bicycle" v="no"/>
    <tag k="highway" v="primary_link"/>
    <tag k="lanes" v="1"/>
    <tag k="lit" v="yes"/>
    <tag k="maxspeed" v="50"/>
    <tag k="oneway" v="yes"/>
    <tag k="surface" v="asphalt"/>
  </way>
  <way id="715769615" version="11" timestamp="2024-11-14T12:30:01Z" changeset="159128315" uid="6588887" user="Martin2035">
    <nd ref="10703795"/>
    <nd ref="4242795970"/>
    <tag k="access:lanes" v="yes|yes|no"/>
    <tag k="busway:right" v="lane"/>
    <tag k="cycleway:right" v="share_busway"/>
    <tag k="foot" v="yes"/>
    <tag k="hgv:12t" v="destination"/>
    <tag k="highway" v="primary"/>
    <tag k="lanes" v="3"/>
    <tag k="lit" v="yes"/>
    <tag k="maxspeed" v="50"/>
    <tag k="name" v="Strakonická"/>
    <tag k="oneway" v="yes"/>
    <tag k="psv:lanes" v="yes|yes|designated"/>
    <tag k="ref" v="4"/>
    <tag k="sidewalk" v="no"/>
    <tag k="source" v="Bus lane: http://www.praha.eu/jnp/cz/doprava/mhd/vyhrazeny_pruh_pro_autobusy_na.html#article-rating"/>
    <tag k="source:maxspeed" v="sign"/>
    <tag k="surface" v="asphalt"/>
    <tag k="taxi:lanes" v="yes|yes|designated"/>
  </way>
  <way id="715769616" version="16" timestamp="2024-11-14T12:30:01Z" changeset="159128315" uid="6588887" user="Martin2035">
    <nd ref="6726649008"/>
    <nd ref="2293533004"/>
    <nd ref="7141105588"/>
    <nd ref="10703798"/>
    <nd ref="1899415134"/>
    <nd ref="1899415190"/>
    <nd ref="10703799"/>
    <nd ref="7841096470"/>
    <tag k="access:lanes" v="yes|yes|no"/>
    <tag k="bicycle" v="yes"/>
    <tag k="busway:right" v="lane"/>
    <tag k="cycleway:right" v="share_busway"/>
    <tag k="foot" v="no"/>
    <tag k="hgv:12t" v="destination"/>
    <tag k="highway" v="primary"/>
    <tag k="lanes" v="3"/>
    <tag k="lit" v="yes"/>
    <tag k="maxspeed" v="80"/>
    <tag k="name" v="Strakonická"/>
    <tag k="oneway" v="yes"/>
    <tag k="psv:lanes" v="yes|yes|designated"/>
    <tag k="ref" v="4"/>
    <tag k="sidewalk" v="no"/>
    <tag k="source:maxspeed" v="sign"/>
    <tag k="surface" v="asphalt"/>
  </way>
  <way id="777663272" version="1" timestamp="2020-03-02T09:22:58Z" changeset="81672949" uid="10345165" user="Jana Šafferová">
    <nd ref="26729470"/>
    <nd ref="2223524833"/>
    <tag k="highway" v="residential"/>
    <tag k="name" v="Kalabisova"/>
  </way>
  <way id="893993463" version="7" timestamp="2025-03-13T20:12:57Z" changeset="163586806" uid="1189910" user="Milancer">
    <nd ref="8309122083"/>
    <nd ref="9273036952"/>
    <nd ref="8262517030"/>
    <nd ref="9273036961"/>
    <nd ref="12660779984"/>
    <nd ref="9273036962"/>
    <nd ref="4246023498"/>
    <nd ref="4246023075"/>
    <tag k="cycleway:both" v="no"/>
    <tag k="highway" v="unclassified"/>
    <tag k="lanes" v="2"/>
    <tag k="surface" v="asphalt"/>
  </way>
  <way id="961275594" version="3" timestamp="2021-11-21T20:15:28Z" changeset="114071828" uid="1189910" user="Milancer">
    <nd ref="237854904"/>
    <nd ref="9273036963"/>
    <nd ref="9172545029"/>
    <nd ref="8309123725"/>
    <nd ref="4246023075"/>
    <tag k="highway" v="tertiary"/>
    <tag k="lanes" v="2"/>
    <tag k="maxspeed" v="50"/>
    <tag k="name" v="Mezichuchelská"/>
    <tag k="oneway" v="no"/>
    <tag k="surface" v="asphalt"/>
  </way>
  <way id="964685785" version="5" timestamp="2024-03-11T18:43:16Z" changeset="148519070" uid="718054" user="Piskvor">
    <nd ref="4246023081"/>
    <nd ref="1899415195"/>
    <nd ref="1899415132"/>
    <nd ref="2293533006"/>
    <tag k="bicycle" v="use_sidepath"/>
    <tag k="hgv:12t" v="destination"/>
    <tag k="highway" v="primary"/>
    <tag k="lanes" v="2"/>
    <tag k="lit" v="yes"/>
    <tag k="maxspeed" v="50"/>
    <tag k="name" v="Strakonická"/>
    <tag k="oneway" v="yes"/>
    <tag k="ref" v="4"/>
    <tag k="source:maxspeed" v="sign"/>
    <tag k="surface" v="asphalt"/>
  </way>
  <way id="964685787" version="4" timestamp="2025-03-05T08:37:12Z" changeset="163234242" uid="718054" user="Piskvor">
    <nd ref="237854915"/>
    <nd ref="1140219907"/>
    <nd ref="277483236"/>
    <nd ref="245800215"/>
    <nd ref="245800218"/>
    <nd ref="245800217"/>
    <nd ref="245800216"/>
    <tag k="highway" v="tertiary"/>
    <tag k="lanes" v="2"/>
    <tag k="lit" v="yes"/>
    <tag k="maxheight" v="default"/>
    <tag k="maxspeed" v="50"/>
    <tag k="name" v="Mezichuchelská"/>
    <tag k="oneway" v="no"/>
    <tag k="sidewalk" v="separate"/>
    <tag k="surface" v="asphalt"/>
  </way>
  <way id="964685788" version="4" timestamp="2022-03-22T13:12:40Z" changeset="118778363" uid="37237" user="pard">
    <nd ref="8923234878"/>
    <nd ref="245800210"/>
    <nd ref="245800211"/>
    <nd ref="1140219912"/>
    <nd ref="8923234879"/>
    <nd ref="245800214"/>
    <nd ref="245800212"/>
    <nd ref="245800213"/>
    <nd ref="237854915"/>
    <tag k="cycleway:both" v="no"/>
    <tag k="highway" v="tertiary"/>
    <tag k="lanes" v="2"/>
    <tag k="lit" v="yes"/>
    <tag k="maxspeed" v="30"/>
    <tag k="name" v="Mezichuchelská"/>
    <tag k="oneway" v="no"/>
    <tag k="sidewalk:left" v="separate"/>
    <tag k="sidewalk:right" v="no"/>
    <tag k="surface" v="asphalt"/>
  </way>
  <way id="974921714" version="4" timestamp="2024-09-25T16:27:09Z" changeset="157091838" uid="25867" user="adamos">
    <nd ref="7141105587"/>
    <nd ref="7141101382"/>
    <nd ref="7141105609"/>
    <tag k="bicycle" v="use_sidepath"/>
    <tag k="hgv:12t" v="destination"/>
    <tag k="highway" v="primary"/>
    <tag k="lanes" v="3"/>
    <tag k="lit" v="yes"/>
    <tag k="maxspeed" v="50"/>
    <tag k="name" v="Strakonická"/>
    <tag k="oneway" v="yes"/>
    <tag k="placement" v="right_of:1"/>
    <tag k="ref" v="4"/>
    <tag k="source:maxspeed" v="sign"/>
    <tag k="turn:lanes" v="||merge_to_left"/>
  </way>
  <way id="974921715" version="5" timestamp="2024-09-25T16:27:09Z" changeset="157091838" uid="25867" user="adamos">
    <nd ref="2293533006"/>
    <nd ref="8262507899"/>
    <tag k="bicycle" v="use_sidepath"/>
    <tag k="hgv:12t" v="destination"/>
    <tag k="highway" v="primary"/>
    <tag k="lanes" v="3"/>
    <tag k="lit" v="yes"/>
    <tag k="maxspeed" v="50"/>
    <tag k="name" v="Strakonická"/>
    <tag k="oneway" v="yes"/>
    <tag k="placement" v="right_of:1"/>
    <tag k="ref" v="4"/>
    <tag k="source:maxspeed" v="sign"/>
    <tag k="surface" v="asphalt"/>
    <tag k="turn:lanes" v="||slight_right"/>
  </way>
  <way id="974922550" version="7" timestamp="2024-11-14T12:30:01Z" changeset="159128315" uid="6588887" user="Martin2035">
    <nd ref="9022157829"/>
    <nd ref="277483349"/>
    <tag k="access:lanes" v="yes|yes|no"/>
    <tag k="busway:right" v="lane"/>
    <tag k="cycleway:right" v="share_busway"/>
    <tag k="foot" v="no"/>
    <tag k="hgv:12t" v="destination"/>
    <tag k="highway" v="primary"/>
    <tag k="lanes" v="3"/>
    <tag k="lit" v="yes"/>
    <tag k="maxspeed" v="50"/>
    <tag k="name" v="Strakonická"/>
    <tag k="oneway" v="yes"/>
    <tag k="psv:lanes" v="yes|yes|designated"/>
    <tag k="ref" v="4"/>
    <tag k="sidewalk" v="no"/>
    <tag k="source:maxspeed" v="sign"/>
    <tag k="surface" v="asphalt"/>
    <tag k="taxi:lanes" v="yes|yes|designated"/>
  </way>
  <way id="974922551" version="6" timestamp="2024-11-14T12:30:01Z" changeset="159128315" uid="6588887" user="Martin2035">
    <nd ref="277483344"/>
    <nd ref="9022157829"/>
    <tag k="access:lanes" v="yes|yes|no"/>
    <tag k="busway:right" v="lane"/>
    <tag k="change:lanes" v="yes|yes|not_right|no"/>
    <tag k="cycleway:right" v="share_busway"/>
    <tag k="hgv:12t" v="destination"/>
    <tag k="highway" v="primary"/>
    <tag k="lanes" v="3"/>
    <tag k="lit" v="yes"/>
    <tag k="maxspeed" v="50"/>
    <tag k="name" v="Strakonická"/>
    <tag k="oneway" v="yes"/>
    <tag k="placement" v="middle_of:2"/>
    <tag k="psv:lanes" v="yes|yes|designated"/>
    <tag k="ref" v="4"/>
    <tag k="sidewalk" v="no"/>
    <tag k="source:maxspeed" v="sign"/>
    <tag k="surface" v="asphalt"/>
    <tag k="taxi:lanes" v="yes|yes|designated"/>
    <tag k="turn:lanes" v="|||slight_right"/>
  </way>
  <way id="1209001892" version="2" timestamp="2024-03-30T16:29:08Z" changeset="149359218" uid="9291527" user="marekhrabe">
    <nd ref="277482639"/>
    <nd ref="761543355"/>
    <nd ref="11773838929"/>
    <nd ref="761543353"/>
    <nd ref="761543356"/>
    <nd ref="761543354"/>
    <nd ref="1480374995"/>
    <nd ref="761543362"/>
    <nd ref="761543361"/>
    <nd ref="761543360"/>
    <nd ref="761543357"/>
    <tag k="highway" v="residential"/>
    <tag k="lit" v="yes"/>
    <tag k="name" v="Pod Akáty"/>
    <tag k="oneway" v="yes"/>
    <tag k="sidewalk" v="no"/>
    <tag k="source:name" v="nameit/uir-adr"/>
    <tag k="surface" v="asphalt"/>
  </way>
  <way id="1277879932" version="1" timestamp="2024-04-28T18:10:51Z" changeset="150630687" uid="9291527" user="marekhrabe">
    <nd ref="277483382"/>
    <nd ref="11862732542"/>
    <nd ref="277483386"/>
    <nd ref="11862732541"/>
    <nd ref="277483385"/>
    <nd ref="11862732539"/>
    <nd ref="11862732540"/>
    <nd ref="277483384"/>
    <nd ref="11862732534"/>
    <nd ref="11862732535"/>
    <nd ref="11862732536"/>
    <nd ref="11862732537"/>
    <nd ref="301901923"/>
    <tag k="highway" v="residential"/>
    <tag k="name" v="K Zahradám"/>
  </way>
  <way id="1318148602" version="1" timestamp="2024-09-25T16:27:09Z" changeset="157091838" uid="25867" user="adamos">
    <nd ref="7141105609"/>
    <nd ref="4790561501"/>
    <tag k="bicycle" v="use_sidepath"/>
    <tag k="hgv:12t" v="destination"/>
    <tag k="highway" v="primary"/>
    <tag k="lanes" v="3"/>
    <tag k="lit" v="yes"/>
    <tag k="maxspeed" v="50"/>
    <tag k="name" v="Strakonická"/>
    <tag k="oneway" v="yes"/>
    <tag k="placement" v="right_of:1"/>
    <tag k="ref" v="4"/>
    <tag k="source:maxspeed" v="sign"/>
    <tag k="turn:lanes" v="||merge_to_left"/>
  </way>
  <way id="1318148603" version="1" timestamp="2024-09-25T16:27:09Z" changeset="157091838" uid="25867" user="adamos">
    <nd ref="8262507899"/>
    <nd ref="7141105587"/>
    <tag k="bicycle" v="use_sidepath"/>
    <tag k="hgv:12t" v="destination"/>
    <tag k="highway" v="primary"/>
    <tag k="lanes" v="3"/>
    <tag k="lit" v="yes"/>
    <tag k="maxspeed" v="50"/>
    <tag k="name" v="Strakonická"/>
    <tag k="oneway" v="yes"/>
    <tag k="placement" v="right_of:1"/>
    <tag k="ref" v="4"/>
    <tag k="source:maxspeed" v="sign"/>
    <tag k="surface" v="asphalt"/>
    <tag k="turn:lanes" v="||slight_right"/>
  </way>
  <way id="1334831496" version="1" timestamp="2024-11-17T17:23:34Z" changeset="159252193" uid="231749" user="Eino81">
    <nd ref="1899414468"/>
    <nd ref="1899414499"/>
    <nd ref="1899414501"/>
    <tag k="access" v="no"/>
    <tag k="highway" v="residential"/>
  </way>
  <way id="1334832205" version="1" timestamp="2024-11-17T17:28:15Z" changeset="159252377" uid="231749" user="Eino81">
    <nd ref="12348756998"/>
    <nd ref="1447722487"/>
    <tag k="access" v="private"/>
    <tag k="highway" v="residential"/>
    <tag k="name" v="Nad Závodištěm"/>
  </way>
  <way id="1364607640" version="2" timestamp="2025-03-26T13:10:31Z" changeset="164121376" uid="7698761" user="_Neptun">
    <nd ref="4137968788"/>
    <nd ref="277482636"/>
    <tag k="highway" v="residential"/>
    <tag k="name" v="Pod Akáty"/>
    <tag k="oneway" v="yes"/>
    <tag k="source:name" v="nameit/uir-adr"/>
    <tag k="surface" v="asphalt"/>
  </way>
  <way id="1364607641" version="1" timestamp="2025-03-04T21:11:46Z" changeset="163219775" uid="11545091" user="VladaC">
    <nd ref="277482637"/>
    <nd ref="12637184085"/>
    <nd ref="4137968788"/>
    <tag k="highway" v="residential"/>
    <tag k="name" v="Pod Akáty"/>
    <tag k="oneway" v="yes"/>
    <tag k="source:name" v="nameit/uir-adr"/>
  </way>
  <way id="1364607642" version="2" timestamp="2025-03-26T13:10:40Z" changeset="164121376" uid="7698761" user="_Neptun">
    <nd ref="10682573637"/>
    <nd ref="1421082146"/>
    <nd ref="31516741"/>
    <nd ref="11414630783"/>
    <nd ref="31516740"/>
    <tag k="highway" v="tertiary"/>
    <tag k="lanes" v="2"/>
    <tag k="name" v="Starochuchelská"/>
    <tag k="oneway" v="no"/>
    <tag k="surface" v="asphalt"/>
  </way>
  <way id="1364607649" version="1" timestamp="2025-03-04T21:11:46Z" changeset="163219775" uid="11545091" user="VladaC">
    <nd ref="277482655"/>
    <nd ref="12043762754"/>
    <tag k="highway" v="residential"/>
    <tag k="name" v="Starochuchelská"/>
    <tag k="source:name" v="nameit/uir-adr"/>
  </way>
  <way id="1364607655" version="1" timestamp="2025-03-04T21:11:46Z" changeset="163219775" uid="11545091" user="VladaC">
    <nd ref="1685266162"/>
    <nd ref="31516525"/>
    <nd ref="11203227200"/>
    <nd ref="277482578"/>
    <tag k="highway" v="tertiary"/>
    <tag k="name" v="V Dolích"/>
    <tag k="surface" v="asphalt"/>
  </way>
  <way id="1383984350" version="1" timestamp="2025-05-06T10:19:46Z" changeset="165884464" uid="16565042" user="BestestGuy">
    <nd ref="277482301"/>
    <nd ref="277482302"/>
    <nd ref="1469153586"/>
    <tag k="highway" v="residential"/>
    <tag k="name" v="Granátová"/>
    <tag k="source:name" v="nameit/uir-adr"/>
    <tag k="surface" v="asphalt"/>
  </way>

</osm>
