<?xml version="1.0" encoding="UTF-8"?>
<osm version="0.6" generator="Overpass API 0.7.62.5 1bd436f1">
<note>The data included in this document is from www.openstreetmap.org. The data is made available under ODbL.</note>
<meta osm_base="2025-05-18T01:26:02Z" areas="2024-12-31T00:49:33Z"/>

  <node id="30624388" lat="52.5666008" lon="13.4641268" version="8" timestamp="2019-03-13T23:27:44Z" changeset="68118250" uid="9451067" user="b-jazz-bot">
    <tag k="bus" v="yes"/>
    <tag k="name" v="Darßer Straße/Roelckestraße"/>
    <tag k="public_transport" v="stop_position"/>
    <tag k="ref:BVG" v="106401"/>
    <tag k="website" v="https://qr.bvg.de/h106401"/>
  </node>
  <node id="30624617" lat="52.5661115" lon="13.4840654" version="6" timestamp="2021-07-05T18:38:09Z" changeset="107455882" uid="17304" user="kartograph"/>
  <node id="30625209" lat="52.5632325" lon="13.4769789" version="4" timestamp="2023-11-26T23:40:55Z" changeset="144488515" uid="9508237" user="momabebra"/>
  <node id="259044772" lat="52.5724402" lon="13.4826543" version="10" timestamp="2023-02-19T13:00:40Z" changeset="132746896" uid="18208051" user="MappiViewer"/>
  <node id="262101190" lat="52.5840332" lon="13.4836905" version="8" timestamp="2023-03-22T12:18:02Z" changeset="133975885" uid="18208051" user="MappiViewer"/>
  <node id="534251596" lat="52.5765212" lon="13.4799000" version="5" timestamp="2022-09-03T10:16:33Z" changeset="125730877" uid="9508237" user="momabebra">
    <tag k="kerb" v="no"/>
  </node>
  <node id="2247071793" lat="52.5847335" lon="13.4611186" version="6" timestamp="2021-08-10T22:46:29Z" changeset="109486397" uid="17304" user="kartograph"/>
  <node id="2522309245" lat="52.5656828" lon="13.4709643" version="1" timestamp="2013-11-06T15:58:11Z" changeset="18749767" uid="1732886" user="stbln"/>
  <node id="2916407473" lat="52.5835295" lon="13.4803421" version="4" timestamp="2022-03-01T06:55:08Z" changeset="117967576" uid="10961311" user="StefanHRT"/>
  <node id="5212492851" lat="52.5681256" lon="13.4573135" version="3" timestamp="2020-07-22T09:23:24Z" changeset="88338285" uid="44217" user="kjon"/>
  <node id="9552374545" lat="52.5966598" lon="13.5054243" version="2" timestamp="2022-07-19T16:54:37Z" changeset="123816762" uid="10961311" user="StefanHRT">
    <tag k="name" v="Berlin"/>
    <tag k="traffic_sign" v="city_limit"/>
    <tag k="traffic_sign:direction" v="forward"/>
  </node>
  <node id="11987042103" lat="52.5867458" lon="13.4657703" version="1" timestamp="2024-06-17T07:29:11Z" changeset="152788920" uid="10961311" user="StefanHRT"/>
  <way id="4783329" version="24" timestamp="2025-02-14T19:10:26Z" changeset="162514895" uid="44217" user="kjon">
    <nd ref="5778373455"/>
    <nd ref="10576164262"/>
    <nd ref="5778373460"/>
    <nd ref="2515370425"/>
    <nd ref="30624419"/>
    <nd ref="320259585"/>
    <tag k="bicycle" v="optional_sidepath"/>
    <tag k="cycleway:both" v="separate"/>
    <tag k="foot" v="use_sidepath"/>
    <tag k="highway" v="primary_link"/>
    <tag k="lane_markings" v="yes"/>
    <tag k="lanes" v="3"/>
    <tag k="lanes:backward" v="2"/>
    <tag k="lanes:forward" v="1"/>
    <tag k="lit" v="yes"/>
    <tag k="maxspeed" v="50"/>
    <tag k="name" v="Piesporter Straße"/>
    <tag k="name:etymology:wikidata" v="Q375762"/>
    <tag k="parking:both" v="no"/>
    <tag k="postal_code" v="13088"/>
    <tag k="sidewalk:left" v="no"/>
    <tag k="sidewalk:right" v="separate"/>
    <tag k="smoothness" v="good"/>
    <tag k="surface" v="concrete"/>
    <tag k="turn:lanes:backward" v="left|through;right"/>
    <tag k="wikidata" v="Q69468310"/>
  </way>
  <way id="4783380" version="22" timestamp="2023-10-22T03:24:21Z" changeset="142948992" uid="10961311" user="StefanHRT">
    <nd ref="10576069755"/>
    <nd ref="2519032809"/>
    <nd ref="2519032888"/>
    <nd ref="2519032881"/>
    <nd ref="6060673415"/>
    <nd ref="30624625"/>
    <nd ref="2519032859"/>
    <nd ref="4552607726"/>
    <nd ref="30624626"/>
    <nd ref="2519032827"/>
    <nd ref="2519032890"/>
    <nd ref="4552607730"/>
    <nd ref="4552607734"/>
    <nd ref="4985177084"/>
    <nd ref="4552607721"/>
    <nd ref="4985177067"/>
    <nd ref="2519032853"/>
    <nd ref="30624627"/>
    <nd ref="2519032878"/>
    <nd ref="10576069769"/>
    <nd ref="2519032868"/>
    <nd ref="2519032901"/>
    <nd ref="30624628"/>
    <nd ref="4552607716"/>
    <nd ref="4552607736"/>
    <nd ref="10576069771"/>
    <nd ref="11280628725"/>
    <nd ref="30624616"/>
    <tag k="cycleway:both" v="no"/>
    <tag k="foot" v="use_sidepath"/>
    <tag k="highway" v="residential"/>
    <tag k="lane_markings" v="no"/>
    <tag k="lit" v="yes"/>
    <tag k="maxspeed:type" v="DE:urban"/>
    <tag k="name" v="Saaler Bogen"/>
    <tag k="name:etymology:wikidata" v="Q672735"/>
    <tag k="name:etymology:wikipedia" v="de:Saal (Vorpommern)"/>
    <tag k="postal_code" v="13051"/>
    <tag k="sidewalk" v="separate"/>
    <tag k="smoothness" v="good"/>
    <tag k="surface" v="asphalt"/>
  </way>
  <way id="6967855" version="33" timestamp="2024-07-04T08:21:42Z" changeset="153532576" uid="9508237" user="momabebra">
    <nd ref="7717926849"/>
    <nd ref="7717926851"/>
    <nd ref="7717926853"/>
    <nd ref="7717926858"/>
    <nd ref="7717926859"/>
    <nd ref="10576260056"/>
    <nd ref="7717926861"/>
    <nd ref="1549553099"/>
    <tag k="bicycle" v="optional_sidepath"/>
    <tag k="cycleway:both" v="separate"/>
    <tag k="foot" v="use_sidepath"/>
    <tag k="highway" v="secondary"/>
    <tag k="lane_markings" v="yes"/>
    <tag k="lanes" v="2"/>
    <tag k="lit" v="yes"/>
    <tag k="maxspeed" v="50"/>
    <tag k="name" v="Darßer Straße"/>
    <tag k="name:etymology:wikidata" v="Q694117"/>
    <tag k="parking:both" v="no"/>
    <tag k="postal_code" v="13088"/>
    <tag k="sidewalk:left" v="no"/>
    <tag k="sidewalk:right" v="separate"/>
    <tag k="smoothness" v="excellent"/>
    <tag k="surface" v="asphalt"/>
    <tag k="wikidata" v="Q68808741"/>
  </way>
  <way id="8116206" version="25" timestamp="2023-11-27T03:32:16Z" changeset="144491369" uid="10961311" user="StefanHRT">
    <nd ref="1549598462"/>
    <nd ref="11280976284"/>
    <nd ref="9934358915"/>
    <nd ref="10576407777"/>
    <nd ref="1549598450"/>
    <nd ref="4000254126"/>
    <tag k="cycleway:both" v="no"/>
    <tag k="foot" v="use_sidepath"/>
    <tag k="highway" v="residential"/>
    <tag k="lane_markings" v="yes"/>
    <tag k="lanes" v="3"/>
    <tag k="lanes:backward" v="2"/>
    <tag k="lanes:forward" v="1"/>
    <tag k="lit" v="yes"/>
    <tag k="maxspeed" v="30"/>
    <tag k="name" v="Schwarzelfenweg"/>
    <tag k="name:etymology:wikidata" v="Q174396"/>
    <tag k="postal_code" v="13088"/>
    <tag k="sidewalk:left" v="no"/>
    <tag k="sidewalk:right" v="separate"/>
    <tag k="smoothness" v="good"/>
    <tag k="surface" v="asphalt"/>
  </way>
  <way id="22973160" version="17" timestamp="2024-08-12T09:34:52Z" changeset="155138657" uid="2912045" user="Pankowradler">
    <nd ref="10576704612"/>
    <nd ref="247636814"/>
    <tag k="cycleway:both" v="no"/>
    <tag k="highway" v="residential"/>
    <tag k="lane_markings" v="no"/>
    <tag k="lit" v="yes"/>
    <tag k="maxspeed" v="30"/>
    <tag k="maxspeed:type" v="DE:zone30"/>
    <tag k="name" v="Haakonweg"/>
    <tag k="name:etymology:wikidata" v="Q316039"/>
    <tag k="oneway" v="yes"/>
    <tag k="postal_code" v="13088"/>
    <tag k="sidewalk:both" v="no"/>
    <tag k="smoothness" v="good"/>
    <tag k="source:maxspeed" v="DE:zone30"/>
    <tag k="surface" v="asphalt"/>
    <tag k="traffic_sign" v="DE:274.1"/>
    <tag k="zone:maxspeed" v="DE:30"/>
  </way>
  <way id="22973168" version="17" timestamp="2023-01-23T14:04:35Z" changeset="131609453" uid="18208051" user="MappiViewer">
    <nd ref="247636814"/>
    <nd ref="9997930182"/>
    <nd ref="1557591290"/>
    <tag k="cycleway:both" v="no"/>
    <tag k="highway" v="residential"/>
    <tag k="lane_markings" v="no"/>
    <tag k="lit" v="yes"/>
    <tag k="maxspeed" v="30"/>
    <tag k="maxspeed:type" v="DE:zone30"/>
    <tag k="name" v="Lichtelfensteg"/>
    <tag k="name:etymology:wikidata" v="Q1751361"/>
    <tag k="postal_code" v="13088"/>
    <tag k="sidewalk:both" v="no"/>
    <tag k="smoothness" v="good"/>
    <tag k="source:maxspeed" v="DE:zone30"/>
    <tag k="surface" v="asphalt"/>
    <tag k="traffic_sign" v="DE:274.1"/>
    <tag k="zone:maxspeed" v="DE:30"/>
  </way>
  <way id="22973174" version="20" timestamp="2023-01-23T12:01:30Z" changeset="131604685" uid="18208051" user="MappiViewer">
    <nd ref="247636817"/>
    <nd ref="1552159013"/>
    <nd ref="9421702844"/>
    <nd ref="10576511097"/>
    <nd ref="1552142547"/>
    <nd ref="247636901"/>
    <nd ref="1552133003"/>
    <nd ref="1552137038"/>
    <nd ref="1549598472"/>
    <nd ref="9421686513"/>
    <nd ref="1557591296"/>
    <tag k="cycleway:both" v="no"/>
    <tag k="highway" v="residential"/>
    <tag k="lane_markings" v="no"/>
    <tag k="lit" v="yes"/>
    <tag k="maxspeed" v="30"/>
    <tag k="maxspeed:type" v="DE:zone30"/>
    <tag k="name" v="Ostaraweg"/>
    <tag k="name:etymology:wikidata" v="Q253056"/>
    <tag k="postal_code" v="13088"/>
    <tag k="sidewalk:both" v="no"/>
    <tag k="smoothness" v="good"/>
    <tag k="source:maxspeed" v="DE:zone30"/>
    <tag k="surface" v="asphalt"/>
    <tag k="traffic_sign" v="DE:274.1"/>
    <tag k="zone:maxspeed" v="DE:30"/>
  </way>
  <way id="22973179" version="12" timestamp="2023-01-23T12:01:30Z" changeset="131604685" uid="18208051" user="MappiViewer">
    <nd ref="1557591290"/>
    <nd ref="247636817"/>
    <nd ref="10576511103"/>
    <nd ref="247636843"/>
    <tag k="cycleway:both" v="no"/>
    <tag k="highway" v="residential"/>
    <tag k="lane_markings" v="no"/>
    <tag k="lit" v="yes"/>
    <tag k="maxspeed" v="30"/>
    <tag k="maxspeed:type" v="DE:zone30"/>
    <tag k="name" v="Lichtelfensteg"/>
    <tag k="name:etymology:wikidata" v="Q1751361"/>
    <tag k="postal_code" v="13088"/>
    <tag k="sidewalk:both" v="no"/>
    <tag k="smoothness" v="good"/>
    <tag k="source:maxspeed" v="DE:zone30"/>
    <tag k="surface" v="asphalt"/>
    <tag k="traffic_sign" v="DE:274.1"/>
    <tag k="zone:maxspeed" v="DE:30"/>
  </way>
  <way id="23008568" version="19" timestamp="2025-03-27T18:24:31Z" changeset="164176967" uid="44217" user="kjon">
    <nd ref="5212492851"/>
    <nd ref="12705375899"/>
    <nd ref="30624573"/>
    <nd ref="4815981778"/>
    <nd ref="443716465"/>
    <nd ref="30624574"/>
    <nd ref="4815981767"/>
    <nd ref="2522309325"/>
    <nd ref="30624575"/>
    <nd ref="443707941"/>
    <nd ref="1554831506"/>
    <tag k="cycleway:both" v="no"/>
    <tag k="highway" v="tertiary"/>
    <tag k="lane_markings" v="no"/>
    <tag k="lit" v="yes"/>
    <tag k="maxspeed" v="30"/>
    <tag k="maxspeed:type" v="sign"/>
    <tag k="name" v="Malchower Straße"/>
    <tag k="name:etymology:wikidata" v="Q563541"/>
    <tag k="note" v="Ergänzungsstraße mit besonderer Bedeutung"/>
    <tag k="postal_code" v="13089"/>
    <tag k="smoothness" v="intermediate"/>
    <tag k="source:maxspeed" v="sign"/>
    <tag k="surface" v="asphalt"/>
  </way>
  <way id="23008576" version="20" timestamp="2023-02-19T11:41:13Z" changeset="132744370" uid="3020814" user="BER319">
    <nd ref="4313424896"/>
    <nd ref="4313424898"/>
    <nd ref="4313424897"/>
    <nd ref="4313424895"/>
    <nd ref="7475567044"/>
    <nd ref="9545584332"/>
    <nd ref="7475567045"/>
    <tag k="cycleway:both" v="no"/>
    <tag k="highway" v="tertiary"/>
    <tag k="lanes" v="2"/>
    <tag k="lit" v="yes"/>
    <tag k="maxspeed" v="50"/>
    <tag k="name" v="Ortnitstraße"/>
    <tag k="name:etymology:wikidata" v="Q1789855"/>
    <tag k="name:etymology:wikipedia" v="de:Ortnit"/>
    <tag k="postal_code" v="13088"/>
    <tag k="sidewalk:left" v="separate"/>
    <tag k="sidewalk:right" v="yes"/>
    <tag k="smoothness" v="excellent"/>
    <tag k="surface" v="asphalt"/>
  </way>
  <way id="23008581" version="23" timestamp="2025-03-27T18:24:31Z" changeset="164176967" uid="44217" user="kjon">
    <nd ref="1554831506"/>
    <nd ref="12705470505"/>
    <nd ref="1557591293"/>
    <nd ref="2522309288"/>
    <nd ref="30624578"/>
    <nd ref="2522309208"/>
    <nd ref="1557591301"/>
    <nd ref="1557591290"/>
    <nd ref="12549636577"/>
    <nd ref="1552142551"/>
    <tag k="cycleway:both" v="no"/>
    <tag k="foot" v="use_sidepath"/>
    <tag k="highway" v="tertiary"/>
    <tag k="lane_markings" v="no"/>
    <tag k="lit" v="yes"/>
    <tag k="maxspeed" v="30"/>
    <tag k="maxspeed:type" v="sign"/>
    <tag k="name" v="Ortnitstraße"/>
    <tag k="name:etymology:wikidata" v="Q1789855"/>
    <tag k="note" v="Ergänzungsstraße mit besonderer Bedeutung"/>
    <tag k="postal_code" v="13088"/>
    <tag k="sidewalk:left" v="no"/>
    <tag k="sidewalk:right" v="separate"/>
    <tag k="smoothness" v="good"/>
    <tag k="source:maxspeed" v="sign"/>
    <tag k="surface" v="asphalt"/>
    <tag k="wikidata" v="Q90774683"/>
  </way>
  <way id="24205990" version="46" timestamp="2024-07-04T08:21:42Z" changeset="153532576" uid="9508237" user="momabebra">
    <nd ref="5910363711"/>
    <nd ref="2916639124"/>
    <nd ref="1549553101"/>
    <tag k="bicycle" v="use_sidepath"/>
    <tag k="cycleway:both" v="separate"/>
    <tag k="foot" v="use_sidepath"/>
    <tag k="highway" v="primary"/>
    <tag k="lane_markings" v="yes"/>
    <tag k="lanes" v="2"/>
    <tag k="lit" v="yes"/>
    <tag k="maxspeed" v="50"/>
    <tag k="name" v="Malchower Chaussee"/>
    <tag k="name:etymology:wikidata" v="Q563541"/>
    <tag k="parking:both" v="no"/>
    <tag k="postal_code" v="13088"/>
    <tag k="ref" v="B 2"/>
    <tag k="sidewalk:both" v="separate"/>
    <tag k="smoothness" v="excellent"/>
    <tag k="surface" v="asphalt"/>
    <tag k="wikidata" v="Q61694362"/>
    <tag k="zone:traffic" v="DE:urban"/>
  </way>
  <way id="29114523" version="25" timestamp="2025-02-14T19:10:26Z" changeset="162514895" uid="44217" user="kjon">
    <nd ref="320259576"/>
    <nd ref="4313424891"/>
    <tag k="bicycle" v="optional_sidepath"/>
    <tag k="cycleway:both" v="separate"/>
    <tag k="foot" v="use_sidepath"/>
    <tag k="highway" v="secondary"/>
    <tag k="lane_markings" v="yes"/>
    <tag k="lanes" v="2"/>
    <tag k="lit" v="yes"/>
    <tag k="maxspeed" v="50"/>
    <tag k="name" v="Darßer Straße"/>
    <tag k="name:etymology:wikidata" v="Q694117"/>
    <tag k="parking:both" v="no"/>
    <tag k="postal_code" v="13088"/>
    <tag k="sidewalk:left" v="separate"/>
    <tag k="sidewalk:right" v="no"/>
    <tag k="smoothness" v="good"/>
    <tag k="surface" v="asphalt"/>
    <tag k="wikidata" v="Q68808741"/>
  </way>
  <way id="30705875" version="25" timestamp="2025-02-14T19:13:52Z" changeset="162514986" uid="44217" user="kjon">
    <nd ref="1557597277"/>
    <nd ref="339585161"/>
    <tag k="bridge" v="yes"/>
    <tag k="cycleway:both" v="separate"/>
    <tag k="foot" v="use_sidepath"/>
    <tag k="highway" v="secondary"/>
    <tag k="lanes" v="2"/>
    <tag k="layer" v="1"/>
    <tag k="lit" v="yes"/>
    <tag k="maxspeed" v="50"/>
    <tag k="maxweight:signed" v="no"/>
    <tag k="name" v="Blankenburger Pflasterweg"/>
    <tag k="name:etymology:wikidata" v="Q693582"/>
    <tag k="parking:both" v="no"/>
    <tag k="postal_code" v="13129"/>
    <tag k="shoulder" v="no"/>
    <tag k="sidewalk:both" v="separate"/>
    <tag k="smoothness" v="good"/>
    <tag k="surface" v="asphalt"/>
    <tag k="wikidata" v="Q68903838"/>
  </way>
  <way id="30705876" version="30" timestamp="2025-02-14T19:13:52Z" changeset="162514986" uid="44217" user="kjon">
    <nd ref="339585161"/>
    <nd ref="1458174948"/>
    <nd ref="8997208467"/>
    <nd ref="4239142608"/>
    <nd ref="320262742"/>
    <nd ref="2916489501"/>
    <nd ref="8997208471"/>
    <nd ref="165736696"/>
    <nd ref="8997208472"/>
    <nd ref="165736697"/>
    <nd ref="8997208476"/>
    <nd ref="8997208475"/>
    <nd ref="8997208474"/>
    <nd ref="2916488396"/>
    <nd ref="6358480040"/>
    <nd ref="165736698"/>
    <nd ref="6358480041"/>
    <nd ref="2916488392"/>
    <nd ref="706377203"/>
    <nd ref="2916407473"/>
    <tag k="cycleway:both" v="separate"/>
    <tag k="foot" v="use_sidepath"/>
    <tag k="highway" v="secondary"/>
    <tag k="lane_markings" v="yes"/>
    <tag k="lanes" v="2"/>
    <tag k="lit" v="yes"/>
    <tag k="maxspeed" v="50"/>
    <tag k="name" v="Blankenburger Pflasterweg"/>
    <tag k="name:etymology:wikidata" v="Q693582"/>
    <tag k="note" v="Übergeordnete Straße, Stufe II"/>
    <tag k="parking:both" v="no"/>
    <tag k="postal_code" v="13129"/>
    <tag k="sidewalk:both" v="separate"/>
    <tag k="smoothness" v="excellent"/>
    <tag k="surface" v="asphalt"/>
    <tag k="wikidata" v="Q68903838"/>
  </way>
  <way id="31099569" version="17" timestamp="2025-02-14T19:10:26Z" changeset="162514895" uid="44217" user="kjon">
    <nd ref="30624394"/>
    <nd ref="30624412"/>
    <nd ref="7125127789"/>
    <tag k="bicycle" v="optional_sidepath"/>
    <tag k="cycleway:both" v="separate"/>
    <tag k="foot" v="use_sidepath"/>
    <tag k="highway" v="secondary"/>
    <tag k="lane_markings" v="yes"/>
    <tag k="lanes" v="2"/>
    <tag k="lit" v="yes"/>
    <tag k="maxspeed" v="50"/>
    <tag k="name" v="Darßer Straße"/>
    <tag k="name:etymology:wikidata" v="Q694117"/>
    <tag k="parking:both" v="no"/>
    <tag k="postal_code" v="13088"/>
    <tag k="sidewalk:left" v="separate"/>
    <tag k="sidewalk:right" v="no"/>
    <tag k="surface" v="asphalt"/>
    <tag k="wikidata" v="Q68808741"/>
  </way>
  <way id="31099623" version="24" timestamp="2025-02-14T19:10:26Z" changeset="162514895" uid="44217" user="kjon">
    <nd ref="30624405"/>
    <nd ref="9192217931"/>
    <nd ref="1557591272"/>
    <tag k="bicycle" v="use_sidepath"/>
    <tag k="cycleway:both" v="separate"/>
    <tag k="foot" v="use_sidepath"/>
    <tag k="highway" v="primary"/>
    <tag k="lane_markings" v="yes"/>
    <tag k="lanes" v="3"/>
    <tag k="lanes:backward" v="2"/>
    <tag k="lanes:forward" v="1"/>
    <tag k="lit" v="yes"/>
    <tag k="maxspeed" v="60"/>
    <tag k="name" v="Malchower Chaussee"/>
    <tag k="name:etymology:wikidata" v="Q563541"/>
    <tag k="parking:both" v="no"/>
    <tag k="postal_code" v="13088"/>
    <tag k="ref" v="B 2"/>
    <tag k="shoulder" v="no"/>
    <tag k="sidewalk:both" v="separate"/>
    <tag k="smoothness" v="excellent"/>
    <tag k="surface" v="asphalt"/>
    <tag k="turn:lanes:backward" v="through|slight_right"/>
    <tag k="turn:lanes:forward" v="through;right"/>
    <tag k="wikidata" v="Q61694362"/>
    <tag k="zone:traffic" v="DE:urban"/>
  </way>
  <way id="31099668" version="35" timestamp="2025-02-14T19:13:52Z" changeset="162514986" uid="44217" user="kjon">
    <nd ref="262101190"/>
    <nd ref="262101263"/>
    <nd ref="3023297673"/>
    <nd ref="5481073640"/>
    <nd ref="4239142675"/>
    <nd ref="5842159454"/>
    <tag k="bicycle" v="use_sidepath"/>
    <tag k="cycleway:both" v="separate"/>
    <tag k="foot" v="use_sidepath"/>
    <tag k="highway" v="primary"/>
    <tag k="lanes" v="2"/>
    <tag k="lit" v="no"/>
    <tag k="maxspeed" v="50"/>
    <tag k="name" v="Bundesstraße 2"/>
    <tag k="parking:both" v="no"/>
    <tag k="postal_code" v="13051"/>
    <tag k="ref" v="B 2"/>
    <tag k="sidewalk:both" v="separate"/>
    <tag k="smoothness" v="intermediate"/>
    <tag k="surface" v="asphalt"/>
    <tag k="zone:traffic" v="DE:urban"/>
  </way>
  <way id="31233019" version="23" timestamp="2025-02-14T19:13:52Z" changeset="162514986" uid="44217" user="kjon">
    <nd ref="5842159454"/>
    <nd ref="968049104"/>
    <nd ref="29421306"/>
    <nd ref="347272286"/>
    <nd ref="347272288"/>
    <tag k="bicycle" v="use_sidepath"/>
    <tag k="cycleway:both" v="separate"/>
    <tag k="foot" v="use_sidepath"/>
    <tag k="highway" v="primary"/>
    <tag k="lanes" v="2"/>
    <tag k="lit" v="no"/>
    <tag k="maxspeed:backward" v="70"/>
    <tag k="maxspeed:forward" v="50"/>
    <tag k="name" v="Bundesstraße 2"/>
    <tag k="parking:both" v="no"/>
    <tag k="postal_code" v="13051"/>
    <tag k="ref" v="B 2"/>
    <tag k="shoulder" v="no"/>
    <tag k="sidewalk:both" v="separate"/>
    <tag k="smoothness" v="good"/>
    <tag k="surface" v="asphalt"/>
    <tag k="zone:traffic" v="DE:urban"/>
  </way>
  <way id="31233020" version="39" timestamp="2025-02-14T19:13:52Z" changeset="162514986" uid="44217" user="kjon">
    <nd ref="347272288"/>
    <nd ref="262185908"/>
    <nd ref="5910363713"/>
    <nd ref="306129125"/>
    <nd ref="262185940"/>
    <nd ref="9223442251"/>
    <nd ref="5842159452"/>
    <tag k="bicycle" v="use_sidepath"/>
    <tag k="cycleway:both" v="separate"/>
    <tag k="foot" v="use_sidepath"/>
    <tag k="highway" v="primary"/>
    <tag k="lanes" v="2"/>
    <tag k="lit" v="no"/>
    <tag k="maxspeed" v="50"/>
    <tag k="maxspeed:backward" v="70"/>
    <tag k="maxspeed:forward" v="50"/>
    <tag k="name" v="Bundesstraße 2"/>
    <tag k="parking:both" v="no"/>
    <tag k="postal_code" v="13051"/>
    <tag k="ref" v="B 2"/>
    <tag k="sidewalk:both" v="separate"/>
    <tag k="smoothness" v="excellent"/>
    <tag k="surface" v="asphalt"/>
    <tag k="zone:traffic" v="DE:urban"/>
  </way>
  <way id="37022828" version="30" timestamp="2025-02-14T19:10:26Z" changeset="162514895" uid="44217" user="kjon">
    <nd ref="7475567046"/>
    <nd ref="7475567043"/>
    <nd ref="259044772"/>
    <tag k="cycleway" v="track"/>
    <tag k="hazard" v="children"/>
    <tag k="highway" v="primary"/>
    <tag k="lanes" v="2"/>
    <tag k="lit" v="yes"/>
    <tag k="maxspeed" v="50"/>
    <tag k="maxspeed:conditional" v="30 @ (Mo-Fr 06:00-18:00)"/>
    <tag k="name" v="Malchower Chaussee"/>
    <tag k="name:etymology:wikidata" v="Q563541"/>
    <tag k="parking:both" v="no"/>
    <tag k="postal_code" v="13051"/>
    <tag k="ref" v="B 2"/>
    <tag k="sidewalk:left" v="yes"/>
    <tag k="sidewalk:left:surface" v="paving_stones"/>
    <tag k="sidewalk:right" v="separate"/>
    <tag k="smoothness" v="excellent"/>
    <tag k="surface" v="asphalt"/>
    <tag k="wikidata" v="Q61694362"/>
    <tag k="zone:traffic" v="DE:urban"/>
  </way>
  <way id="40264014" version="25" timestamp="2025-02-14T19:10:26Z" changeset="162514895" uid="44217" user="kjon">
    <nd ref="30624405"/>
    <nd ref="9168730296"/>
    <nd ref="262099442"/>
    <nd ref="30624414"/>
    <nd ref="8841383282"/>
    <nd ref="320259581"/>
    <nd ref="30624415"/>
    <nd ref="8841383283"/>
    <nd ref="320259579"/>
    <nd ref="8841383280"/>
    <nd ref="30624416"/>
    <nd ref="8841383279"/>
    <nd ref="2519032805"/>
    <nd ref="320259578"/>
    <nd ref="30624417"/>
    <nd ref="2519032867"/>
    <tag k="cycleway:both" v="no"/>
    <tag k="destination" v="Pankow;Hohenschönhausen"/>
    <tag k="foot" v="no"/>
    <tag k="highway" v="primary_link"/>
    <tag k="incline" v="up"/>
    <tag k="lane_markings" v="yes"/>
    <tag k="lanes" v="2"/>
    <tag k="lit" v="yes"/>
    <tag k="maxspeed" v="30"/>
    <tag k="name" v="Darßer Straße"/>
    <tag k="name:etymology:wikidata" v="Q694117"/>
    <tag k="oneway" v="yes"/>
    <tag k="parking:both" v="no"/>
    <tag k="postal_code" v="13088"/>
    <tag k="sidewalk" v="no"/>
    <tag k="smoothness" v="excellent"/>
    <tag k="surface" v="asphalt"/>
    <tag k="wikidata" v="Q68808741"/>
  </way>
  <way id="42990107" version="18" timestamp="2025-03-27T18:24:31Z" changeset="164176967" uid="44217" user="kjon">
    <nd ref="247636904"/>
    <nd ref="12705470513"/>
    <nd ref="2913756804"/>
    <nd ref="12705470519"/>
    <nd ref="2913746767"/>
    <nd ref="12705470516"/>
    <nd ref="2913757304"/>
    <nd ref="1549598445"/>
    <tag k="cycleway:both" v="no"/>
    <tag k="foot" v="use_sidepath"/>
    <tag k="highway" v="tertiary"/>
    <tag k="lane_markings" v="no"/>
    <tag k="lit" v="yes"/>
    <tag k="maxspeed" v="30"/>
    <tag k="name" v="Ortnitstraße"/>
    <tag k="name:etymology:wikidata" v="Q1789855"/>
    <tag k="note" v="Ergänzungsstraße mit besonderer Bedeutung"/>
    <tag k="postal_code" v="13088"/>
    <tag k="sidewalk:left" v="no"/>
    <tag k="sidewalk:right" v="separate"/>
    <tag k="smoothness" v="excellent"/>
    <tag k="surface" v="asphalt"/>
    <tag k="wikidata" v="Q90774683"/>
  </way>
  <way id="42990121" version="19" timestamp="2025-03-27T18:24:31Z" changeset="164176967" uid="44217" user="kjon">
    <nd ref="1549598445"/>
    <nd ref="12705470522"/>
    <nd ref="12705470525"/>
    <nd ref="11378824725"/>
    <nd ref="1549598469"/>
    <tag k="cycleway:both" v="no"/>
    <tag k="foot" v="use_sidepath"/>
    <tag k="highway" v="tertiary"/>
    <tag k="lane_markings" v="no"/>
    <tag k="lit" v="yes"/>
    <tag k="maxspeed" v="30"/>
    <tag k="name" v="Ortnitstraße"/>
    <tag k="name:etymology:wikidata" v="Q1789855"/>
    <tag k="note" v="Ergänzungsstraße mit besonderer Bedeutung"/>
    <tag k="postal_code" v="13088"/>
    <tag k="sidewalk:left" v="no"/>
    <tag k="sidewalk:right" v="separate"/>
    <tag k="smoothness" v="excellent"/>
    <tag k="surface" v="asphalt"/>
    <tag k="wikidata" v="Q90774683"/>
  </way>
  <way id="42990943" version="13" timestamp="2023-01-23T15:22:38Z" changeset="131612406" uid="18208051" user="MappiViewer">
    <nd ref="1549598445"/>
    <nd ref="10576875234"/>
    <nd ref="1549632980"/>
    <nd ref="1549632978"/>
    <nd ref="2522309191"/>
    <nd ref="1552137038"/>
    <nd ref="10576875239"/>
    <nd ref="1552137039"/>
    <tag k="cycleway:both" v="no"/>
    <tag k="highway" v="residential"/>
    <tag k="lane_markings" v="no"/>
    <tag k="lit" v="yes"/>
    <tag k="maxspeed" v="30"/>
    <tag k="maxspeed:type" v="DE:zone30"/>
    <tag k="name" v="Nachtalbenweg"/>
    <tag k="name:etymology:wikidata" v="Q1262457"/>
    <tag k="postal_code" v="13088"/>
    <tag k="sidewalk:both" v="no"/>
    <tag k="smoothness" v="good"/>
    <tag k="source:maxspeed" v="DE:zone30"/>
    <tag k="surface" v="asphalt"/>
    <tag k="traffic_sign" v="DE:274.1"/>
    <tag k="zone:maxspeed" v="DE:30"/>
  </way>
  <way id="45393333" version="14" timestamp="2023-01-23T15:22:38Z" changeset="131612406" uid="18208051" user="MappiViewer">
    <nd ref="1549598493"/>
    <nd ref="577260520"/>
    <nd ref="6909085856"/>
    <nd ref="577260521"/>
    <nd ref="577260522"/>
    <nd ref="577260528"/>
    <nd ref="577260531"/>
    <nd ref="577260534"/>
    <nd ref="577260511"/>
    <tag k="cycleway:both" v="no"/>
    <tag k="highway" v="residential"/>
    <tag k="lane_markings" v="no"/>
    <tag k="lit" v="yes"/>
    <tag k="maxspeed" v="30"/>
    <tag k="maxspeed:type" v="DE:zone30"/>
    <tag k="maxweight" v="2.8"/>
    <tag k="maxweight:conditional" v="none @ destination"/>
    <tag k="name" v="Wanensteig"/>
    <tag k="name:etymology:wikidata" v="Q184826"/>
    <tag k="postal_code" v="13088"/>
    <tag k="sidewalk:both" v="no"/>
    <tag k="source:maxspeed" v="DE:zone30"/>
    <tag k="surface" v="asphalt"/>
    <tag k="traffic_sign" v="DE:274.1"/>
    <tag k="zone:maxspeed" v="DE:30"/>
  </way>
  <way id="70944803" version="18" timestamp="2025-02-14T19:10:26Z" changeset="162514895" uid="44217" user="kjon">
    <nd ref="30624405"/>
    <nd ref="845445578"/>
    <tag k="bicycle" v="use_sidepath"/>
    <tag k="cycleway:both" v="separate"/>
    <tag k="destination:forward" v="Prenzlauer Berg"/>
    <tag k="foot" v="use_sidepath"/>
    <tag k="highway" v="primary"/>
    <tag k="lane_markings" v="yes"/>
    <tag k="lanes" v="2"/>
    <tag k="lit" v="yes"/>
    <tag k="maxspeed:backward" v="60"/>
    <tag k="maxspeed:forward" v="50"/>
    <tag k="name" v="Malchower Chaussee"/>
    <tag k="name:etymology:wikidata" v="Q563541"/>
    <tag k="parking:both" v="no"/>
    <tag k="postal_code" v="13088"/>
    <tag k="ref" v="B 2"/>
    <tag k="sidewalk:both" v="separate"/>
    <tag k="smoothness" v="excellent"/>
    <tag k="surface" v="asphalt"/>
    <tag k="wikidata" v="Q61694362"/>
    <tag k="zone:traffic" v="DE:urban"/>
  </way>
  <way id="79524701" version="19" timestamp="2025-02-14T19:10:26Z" changeset="162514895" uid="44217" user="kjon">
    <nd ref="928263146"/>
    <nd ref="7475567048"/>
    <nd ref="7475567042"/>
    <nd ref="7475567047"/>
    <nd ref="1549660326"/>
    <tag k="bicycle" v="use_sidepath"/>
    <tag k="cycleway:both" v="separate"/>
    <tag k="foot" v="use_sidepath"/>
    <tag k="highway" v="primary"/>
    <tag k="lanes" v="3"/>
    <tag k="lanes:backward" v="1"/>
    <tag k="lanes:forward" v="2"/>
    <tag k="lit" v="yes"/>
    <tag k="maxspeed:backward" v="60"/>
    <tag k="maxspeed:forward" v="50"/>
    <tag k="name" v="Malchower Chaussee"/>
    <tag k="name:etymology:wikidata" v="Q563541"/>
    <tag k="parking:both" v="no"/>
    <tag k="postal_code" v="13088"/>
    <tag k="ref" v="B 2"/>
    <tag k="sidewalk:both" v="separate"/>
    <tag k="smoothness" v="excellent"/>
    <tag k="surface" v="asphalt"/>
    <tag k="turn:lanes:forward" v="left|through"/>
    <tag k="wikidata" v="Q61694362"/>
    <tag k="zone:traffic" v="DE:urban"/>
  </way>
  <way id="119201835" version="16" timestamp="2024-07-04T08:23:05Z" changeset="153532576" uid="9508237" user="momabebra">
    <nd ref="7945513387"/>
    <nd ref="10576407778"/>
    <nd ref="7945513388"/>
    <nd ref="7945513389"/>
    <nd ref="9997930191"/>
    <nd ref="1552142551"/>
    <tag k="cycleway:both" v="no"/>
    <tag k="foot" v="use_sidepath"/>
    <tag k="highway" v="residential"/>
    <tag k="lane_markings" v="no"/>
    <tag k="lit" v="yes"/>
    <tag k="maxspeed" v="30"/>
    <tag k="maxspeed:type" v="DE:zone30"/>
    <tag k="maxweight" v="2.8"/>
    <tag k="maxweight:conditional" v="none @ destination"/>
    <tag k="name" v="Schwarzelfenweg"/>
    <tag k="name:etymology:wikidata" v="Q174396"/>
    <tag k="parking:both" v="no"/>
    <tag k="postal_code" v="13088"/>
    <tag k="sidewalk:left" v="separate"/>
    <tag k="sidewalk:right" v="no"/>
    <tag k="smoothness" v="intermediate"/>
    <tag k="source:maxspeed" v="DE:zone30"/>
    <tag k="surface" v="asphalt"/>
    <tag k="traffic_sign" v="DE:274.1"/>
    <tag k="zone:maxspeed" v="DE:30"/>
  </way>
  <way id="119201856" version="20" timestamp="2024-07-04T08:21:43Z" changeset="153532576" uid="9508237" user="momabebra">
    <nd ref="30624388"/>
    <nd ref="247636644"/>
    <nd ref="4517410577"/>
    <tag k="bicycle" v="optional_sidepath"/>
    <tag k="cycleway:both" v="separate"/>
    <tag k="foot" v="use_sidepath"/>
    <tag k="highway" v="secondary"/>
    <tag k="lane_markings" v="yes"/>
    <tag k="lanes" v="2"/>
    <tag k="lit" v="yes"/>
    <tag k="maxspeed" v="50"/>
    <tag k="name" v="Roelckestraße"/>
    <tag k="name:etymology:wikidata" v="Q1612498"/>
    <tag k="parking:both" v="no"/>
    <tag k="postal_code" v="13088"/>
    <tag k="sidewalk:both" v="separate"/>
    <tag k="smoothness" v="excellent"/>
    <tag k="surface" v="asphalt"/>
    <tag k="wikidata" v="Q1417499"/>
  </way>
  <way id="141574115" version="27" timestamp="2024-10-27T13:32:30Z" changeset="158413330" uid="9508237" user="momabebra">
    <nd ref="1549553104"/>
    <nd ref="8895698431"/>
    <nd ref="12291836876"/>
    <nd ref="10576164861"/>
    <nd ref="1549553107"/>
    <nd ref="12291836875"/>
    <nd ref="2522309318"/>
    <nd ref="2522309303"/>
    <nd ref="345744693"/>
    <nd ref="10576164858"/>
    <tag k="cycleway:both" v="separate"/>
    <tag k="foot" v="use_sidepath"/>
    <tag k="highway" v="residential"/>
    <tag k="lane_markings" v="no"/>
    <tag k="lit" v="yes"/>
    <tag k="maxspeed" v="50"/>
    <tag k="name" v="Nachtalbenweg"/>
    <tag k="name:etymology:wikidata" v="Q1262457"/>
    <tag k="parking:both" v="no"/>
    <tag k="postal_code" v="13088"/>
    <tag k="sidewalk:both" v="separate"/>
    <tag k="smoothness" v="excellent"/>
    <tag k="surface" v="asphalt"/>
  </way>
  <way id="141575936" version="8" timestamp="2023-01-23T15:22:38Z" changeset="131612406" uid="18208051" user="MappiViewer">
    <nd ref="1549598417"/>
    <nd ref="1549598466"/>
    <nd ref="10576875225"/>
    <nd ref="1549598460"/>
    <tag k="cycleway:both" v="no"/>
    <tag k="highway" v="residential"/>
    <tag k="lane_markings" v="no"/>
    <tag k="lit" v="yes"/>
    <tag k="maxspeed" v="30"/>
    <tag k="maxspeed:type" v="DE:zone30"/>
    <tag k="maxweight" v="2.8"/>
    <tag k="maxweight:conditional" v="none @ destination"/>
    <tag k="name" v="Gnomenplatz"/>
    <tag k="name:etymology:wikidata" v="Q188215"/>
    <tag k="postal_code" v="13088"/>
    <tag k="sidewalk:both" v="no"/>
    <tag k="smoothness" v="good"/>
    <tag k="source:maxspeed" v="DE:zone30"/>
    <tag k="surface" v="asphalt"/>
    <tag k="traffic_sign" v="DE:274.1"/>
    <tag k="zone:maxspeed" v="DE:30"/>
  </way>
  <way id="141575939" version="12" timestamp="2023-01-23T16:16:32Z" changeset="131614675" uid="18208051" user="MappiViewer">
    <nd ref="2609994228"/>
    <nd ref="1549598436"/>
    <nd ref="1549598478"/>
    <nd ref="4313424892"/>
    <nd ref="1549598432"/>
    <tag k="cycleway:both" v="no"/>
    <tag k="highway" v="residential"/>
    <tag k="lane_markings" v="no"/>
    <tag k="lit" v="yes"/>
    <tag k="maxspeed" v="30"/>
    <tag k="maxspeed:type" v="DE:zone30"/>
    <tag k="name" v="Tronjepfad"/>
    <tag k="name:etymology:wikidata" v="Q1568447"/>
    <tag k="postal_code" v="13088"/>
    <tag k="sidewalk:both" v="no"/>
    <tag k="smoothness" v="good"/>
    <tag k="source:maxspeed" v="DE:zone30"/>
    <tag k="surface" v="asphalt"/>
    <tag k="traffic_sign" v="DE:274.1"/>
    <tag k="zone:maxspeed" v="DE:30"/>
  </way>
  <way id="141575940" version="10" timestamp="2023-01-23T15:22:38Z" changeset="131612406" uid="18208051" user="MappiViewer">
    <nd ref="1549598445"/>
    <nd ref="9997930187"/>
    <nd ref="577260511"/>
    <nd ref="1549623353"/>
    <nd ref="1549598417"/>
    <tag k="cycleway:both" v="no"/>
    <tag k="highway" v="residential"/>
    <tag k="lane_markings" v="no"/>
    <tag k="lit" v="yes"/>
    <tag k="maxspeed" v="30"/>
    <tag k="maxspeed:type" v="DE:zone30"/>
    <tag k="maxweight" v="2.8"/>
    <tag k="maxweight:conditional" v="none @ destination"/>
    <tag k="name" v="Nachtalbenweg"/>
    <tag k="name:etymology:wikidata" v="Q1262457"/>
    <tag k="postal_code" v="13088"/>
    <tag k="sidewalk:both" v="no"/>
    <tag k="smoothness" v="good"/>
    <tag k="source:maxspeed" v="DE:zone30"/>
    <tag k="surface" v="asphalt"/>
    <tag k="traffic_sign" v="DE:274.1"/>
    <tag k="zone:maxspeed" v="DE:30"/>
  </way>
  <way id="141575941" version="16" timestamp="2024-07-04T08:22:40Z" changeset="153532576" uid="9508237" user="momabebra">
    <nd ref="1549598450"/>
    <nd ref="11378818055"/>
    <nd ref="9934375236"/>
    <nd ref="1549623355"/>
    <nd ref="1549598491"/>
    <nd ref="1549553087"/>
    <nd ref="1549598460"/>
    <tag k="cycleway:both" v="no"/>
    <tag k="highway" v="residential"/>
    <tag k="lane_markings" v="no"/>
    <tag k="lit" v="yes"/>
    <tag k="maxspeed" v="30"/>
    <tag k="maxspeed:type" v="DE:zone30"/>
    <tag k="maxweight" v="2.8"/>
    <tag k="maxweight:conditional" v="none @ destination"/>
    <tag k="name" v="Haakonweg"/>
    <tag k="name:etymology:wikidata" v="Q316039"/>
    <tag k="parking:left" v="no"/>
    <tag k="parking:right" v="on_kerb"/>
    <tag k="parking:right:orientation" v="parallel"/>
    <tag k="postal_code" v="13088"/>
    <tag k="sidewalk:both" v="no"/>
    <tag k="smoothness" v="good"/>
    <tag k="source:maxspeed" v="DE:zone30"/>
    <tag k="surface" v="asphalt"/>
    <tag k="traffic_sign" v="DE:274.1"/>
    <tag k="zone:maxspeed" v="DE:30"/>
  </way>
  <way id="141575942" version="17" timestamp="2025-03-27T18:24:31Z" changeset="164176967" uid="44217" user="kjon">
    <nd ref="1549598412"/>
    <nd ref="1549598472"/>
    <nd ref="1549598496"/>
    <nd ref="1549598494"/>
    <nd ref="1549598432"/>
    <nd ref="12705470526"/>
    <nd ref="1549598469"/>
    <tag k="cycleway:both" v="no"/>
    <tag k="highway" v="residential"/>
    <tag k="lane_markings" v="no"/>
    <tag k="lit" v="yes"/>
    <tag k="maxspeed" v="30"/>
    <tag k="maxspeed:type" v="DE:zone30"/>
    <tag k="name" v="Jötunsteig"/>
    <tag k="name:etymology:wikidata" v="Q210053"/>
    <tag k="postal_code" v="13088"/>
    <tag k="sidewalk:both" v="no"/>
    <tag k="smoothness" v="good"/>
    <tag k="source" v="Geoportal Berlin / Hauskoordinaten"/>
    <tag k="source:maxspeed" v="DE:zone30"/>
    <tag k="surface" v="asphalt"/>
    <tag k="traffic_sign" v="DE:274.1"/>
    <tag k="zone:maxspeed" v="DE:30"/>
  </way>
  <way id="141577316" version="8" timestamp="2023-01-23T15:22:38Z" changeset="131612406" uid="18208051" user="MappiViewer">
    <nd ref="1549598498"/>
    <nd ref="1549598491"/>
    <tag k="cycleway:both" v="no"/>
    <tag k="highway" v="residential"/>
    <tag k="lane_markings" v="no"/>
    <tag k="lit" v="yes"/>
    <tag k="maxspeed" v="30"/>
    <tag k="maxspeed:type" v="DE:zone30"/>
    <tag k="maxweight" v="2.8"/>
    <tag k="maxweight:conditional" v="none @ destination"/>
    <tag k="name" v="Gnomenplatz"/>
    <tag k="name:etymology:wikidata" v="Q188215"/>
    <tag k="postal_code" v="13088"/>
    <tag k="sidewalk:both" v="no"/>
    <tag k="source:maxspeed" v="DE:zone30"/>
    <tag k="surface" v="asphalt"/>
    <tag k="traffic_sign" v="DE:274.1"/>
    <tag k="zone:maxspeed" v="DE:30"/>
  </way>
  <way id="141577317" version="10" timestamp="2023-01-23T18:17:06Z" changeset="131619100" uid="18208051" user="MappiViewer">
    <nd ref="247636904"/>
    <nd ref="9997930190"/>
    <nd ref="1549623349"/>
    <nd ref="1549623347"/>
    <nd ref="1549623355"/>
    <tag k="cycleway:both" v="no"/>
    <tag k="highway" v="residential"/>
    <tag k="lane_markings" v="no"/>
    <tag k="lit" v="yes"/>
    <tag k="maxspeed" v="30"/>
    <tag k="maxspeed:type" v="DE:zone30"/>
    <tag k="maxweight" v="2.8"/>
    <tag k="maxweight:conditional" v="none @ destination"/>
    <tag k="name" v="Helgiweg"/>
    <tag k="name:etymology:wikidata" v="Q155432"/>
    <tag k="name:etymology:wikipedia" v="de:Helgi (Wölsungen)"/>
    <tag k="postal_code" v="13088"/>
    <tag k="sidewalk:both" v="no"/>
    <tag k="smoothness" v="good"/>
    <tag k="source:maxspeed" v="DE:zone30"/>
    <tag k="surface" v="asphalt"/>
    <tag k="traffic_sign" v="DE:274.1"/>
    <tag k="zone:maxspeed" v="DE:30"/>
  </way>
  <way id="141577318" version="8" timestamp="2023-01-23T15:22:38Z" changeset="131612406" uid="18208051" user="MappiViewer">
    <nd ref="1549623353"/>
    <nd ref="1549623349"/>
    <tag k="cycleway:both" v="no"/>
    <tag k="highway" v="residential"/>
    <tag k="lane_markings" v="no"/>
    <tag k="lit" v="yes"/>
    <tag k="maxspeed" v="30"/>
    <tag k="maxspeed:type" v="DE:zone30"/>
    <tag k="maxweight" v="2.8"/>
    <tag k="maxweight:conditional" v="none @ destination"/>
    <tag k="name" v="Osasteig"/>
    <tag k="postal_code" v="13088"/>
    <tag k="sidewalk:both" v="no"/>
    <tag k="smoothness" v="good"/>
    <tag k="source:maxspeed" v="DE:zone30"/>
    <tag k="surface" v="asphalt"/>
    <tag k="traffic_sign" v="DE:274.1"/>
    <tag k="zone:maxspeed" v="DE:30"/>
  </way>
  <way id="141577739" version="9" timestamp="2023-01-23T15:22:38Z" changeset="131612406" uid="18208051" user="MappiViewer">
    <nd ref="1549598436"/>
    <nd ref="1549598494"/>
    <nd ref="10576875235"/>
    <nd ref="1549632980"/>
    <tag k="cycleway:both" v="no"/>
    <tag k="highway" v="residential"/>
    <tag k="lane_markings" v="no"/>
    <tag k="lit" v="yes"/>
    <tag k="maxspeed" v="30"/>
    <tag k="maxspeed:type" v="DE:zone30"/>
    <tag k="name" v="Lindwurmweg"/>
    <tag k="name:etymology:wikidata" v="Q287065"/>
    <tag k="postal_code" v="13088"/>
    <tag k="sidewalk:both" v="no"/>
    <tag k="smoothness" v="good"/>
    <tag k="source:maxspeed" v="DE:zone30"/>
    <tag k="surface" v="asphalt"/>
    <tag k="traffic_sign" v="DE:274.1"/>
    <tag k="zone:maxspeed" v="DE:30"/>
  </way>
  <way id="141577740" version="11" timestamp="2023-05-25T13:09:46Z" changeset="136543588" uid="3020814" user="BER319">
    <nd ref="1549632978"/>
    <nd ref="10576967817"/>
    <nd ref="1549598496"/>
    <nd ref="2609994228"/>
    <tag k="cycleway:both" v="no"/>
    <tag k="highway" v="residential"/>
    <tag k="lane_markings" v="no"/>
    <tag k="lit" v="yes"/>
    <tag k="maxspeed" v="30"/>
    <tag k="maxspeed:type" v="DE:zone30"/>
    <tag k="name" v="Lindwurmweg"/>
    <tag k="name:etymology:wikidata" v="Q287065"/>
    <tag k="postal_code" v="13088"/>
    <tag k="sidewalk:both" v="no"/>
    <tag k="smoothness" v="good"/>
    <tag k="source:maxspeed" v="DE:zone30"/>
    <tag k="surface" v="asphalt"/>
    <tag k="traffic_sign" v="DE:274.1"/>
    <tag k="zone:maxspeed" v="DE:30"/>
  </way>
  <way id="141802166" version="8" timestamp="2023-01-23T18:17:06Z" changeset="131619100" uid="18208051" user="MappiViewer">
    <nd ref="1552133003"/>
    <nd ref="1552133000"/>
    <tag k="cycleway:both" v="no"/>
    <tag k="highway" v="residential"/>
    <tag k="lane_markings" v="no"/>
    <tag k="lit" v="yes"/>
    <tag k="maxspeed" v="30"/>
    <tag k="maxspeed:type" v="DE:zone30"/>
    <tag k="name" v="Helgiweg"/>
    <tag k="name:etymology:wikidata" v="Q155432"/>
    <tag k="name:etymology:wikipedia" v="de:Helgi (Wölsungen)"/>
    <tag k="postal_code" v="13088"/>
    <tag k="sidewalk:both" v="no"/>
    <tag k="smoothness" v="good"/>
    <tag k="source:maxspeed" v="DE:zone30"/>
    <tag k="surface" v="asphalt"/>
    <tag k="traffic_sign" v="DE:274.1"/>
    <tag k="zone:maxspeed" v="DE:30"/>
  </way>
  <way id="141802278" version="9" timestamp="2023-01-23T18:17:06Z" changeset="131619100" uid="18208051" user="MappiViewer">
    <nd ref="1552137041"/>
    <nd ref="247636901"/>
    <tag k="cycleway:both" v="no"/>
    <tag k="highway" v="residential"/>
    <tag k="lane_markings" v="no"/>
    <tag k="lit" v="yes"/>
    <tag k="maxspeed" v="30"/>
    <tag k="maxspeed:type" v="DE:zone30"/>
    <tag k="name" v="Am Heimenstein"/>
    <tag k="name:etymology:wikidata" v="Q1595752"/>
    <tag k="postal_code" v="13088"/>
    <tag k="sidewalk:both" v="no"/>
    <tag k="smoothness" v="good"/>
    <tag k="source:maxspeed" v="DE:zone30"/>
    <tag k="surface" v="asphalt"/>
    <tag k="traffic_sign" v="DE:274.1"/>
    <tag k="zone:maxspeed" v="DE:30"/>
  </way>
  <way id="141802613" version="13" timestamp="2025-02-01T20:09:17Z" changeset="162024647" uid="44217" user="kjon">
    <nd ref="1552142547"/>
    <nd ref="1552142551"/>
    <tag k="cycleway:both" v="no"/>
    <tag k="highway" v="residential"/>
    <tag k="lane_markings" v="no"/>
    <tag k="lit" v="yes"/>
    <tag k="maxspeed" v="30"/>
    <tag k="maxspeed:type" v="DE:zone30"/>
    <tag k="name" v="Schwarzelfenweg"/>
    <tag k="name:etymology:wikidata" v="Q174396"/>
    <tag k="postal_code" v="13088"/>
    <tag k="sidewalk" v="right"/>
    <tag k="sidewalk:right:surface" v="concrete"/>
    <tag k="smoothness" v="good"/>
    <tag k="source:maxspeed" v="DE:zone30"/>
    <tag k="surface" v="asphalt"/>
    <tag k="traffic_sign" v="DE:274.1"/>
    <tag k="zone:maxspeed" v="DE:30"/>
  </way>
  <way id="141804253" version="8" timestamp="2023-01-23T12:28:20Z" changeset="131605774" uid="18208051" user="MappiViewer">
    <nd ref="1549598412"/>
    <nd ref="9606179447"/>
    <nd ref="1552137039"/>
    <nd ref="9606179442"/>
    <nd ref="1552137041"/>
    <nd ref="1552156142"/>
    <tag k="cycleway:both" v="no"/>
    <tag k="highway" v="residential"/>
    <tag k="lane_markings" v="no"/>
    <tag k="lit" v="no"/>
    <tag k="maxspeed" v="30"/>
    <tag k="maxspeed:type" v="DE:zone30"/>
    <tag k="name" v="Am Graben"/>
    <tag k="postal_code" v="13088"/>
    <tag k="sidewalk:both" v="no"/>
    <tag k="smoothness" v="very_bad"/>
    <tag k="source:maxspeed" v="DE:zone30"/>
    <tag k="surface" v="compacted"/>
    <tag k="traffic_sign" v="DE:274.1"/>
    <tag k="zone:maxspeed" v="DE:30"/>
  </way>
  <way id="141805132" version="10" timestamp="2024-06-30T17:00:12Z" changeset="153377830" uid="10961311" user="StefanHRT">
    <nd ref="1552142545"/>
    <nd ref="12023063007"/>
    <nd ref="1552142548"/>
    <tag k="cycleway:both" v="no"/>
    <tag k="highway" v="residential"/>
    <tag k="lane_markings" v="no"/>
    <tag k="lit" v="yes"/>
    <tag k="maxspeed" v="30"/>
    <tag k="maxspeed:type" v="DE:zone30"/>
    <tag k="name" v="Ullerplatz"/>
    <tag k="name:etymology:wikidata" v="Q213479"/>
    <tag k="postal_code" v="13088"/>
    <tag k="sidewalk:both" v="no"/>
    <tag k="smoothness" v="good"/>
    <tag k="source:maxspeed" v="DE:zone30"/>
    <tag k="surface" v="asphalt"/>
    <tag k="traffic_sign" v="DE:274.1"/>
    <tag k="zone:maxspeed" v="DE:30"/>
  </way>
  <way id="141805133" version="9" timestamp="2023-01-23T12:01:30Z" changeset="131604685" uid="18208051" user="MappiViewer">
    <nd ref="247636841"/>
    <nd ref="1552142545"/>
    <nd ref="1552159013"/>
    <tag k="cycleway:both" v="no"/>
    <tag k="highway" v="residential"/>
    <tag k="lane_markings" v="no"/>
    <tag k="lit" v="yes"/>
    <tag k="maxspeed" v="30"/>
    <tag k="maxspeed:type" v="DE:zone30"/>
    <tag k="name" v="Ullerweg"/>
    <tag k="name:etymology:wikidata" v="Q213479"/>
    <tag k="postal_code" v="13088"/>
    <tag k="sidewalk:both" v="no"/>
    <tag k="smoothness" v="good"/>
    <tag k="source:maxspeed" v="DE:zone30"/>
    <tag k="surface" v="asphalt"/>
    <tag k="traffic_sign" v="DE:274.1"/>
    <tag k="zone:maxspeed" v="DE:30"/>
  </way>
  <way id="141806020" version="8" timestamp="2023-01-23T14:04:35Z" changeset="131609453" uid="18208051" user="MappiViewer">
    <nd ref="7726313903"/>
    <nd ref="1583743102"/>
    <nd ref="2877262904"/>
    <nd ref="2877262907"/>
    <nd ref="247636841"/>
    <nd ref="299078074"/>
    <nd ref="1552142550"/>
    <tag k="cycleway:both" v="no"/>
    <tag k="highway" v="residential"/>
    <tag k="lane_markings" v="no"/>
    <tag k="lit" v="no"/>
    <tag k="maxspeed" v="30"/>
    <tag k="maxspeed:type" v="DE:zone30"/>
    <tag k="name" v="Am Graben"/>
    <tag k="postal_code" v="13088"/>
    <tag k="sidewalk:both" v="no"/>
    <tag k="smoothness" v="intermediate"/>
    <tag k="source:maxspeed" v="DE:zone30"/>
    <tag k="surface" v="asphalt"/>
    <tag k="traffic_sign" v="DE:274.1"/>
    <tag k="zone:maxspeed" v="DE:30"/>
  </way>
  <way id="141806547" version="9" timestamp="2023-01-23T12:01:30Z" changeset="131604685" uid="18208051" user="MappiViewer">
    <nd ref="7726313900"/>
    <nd ref="10576511102"/>
    <nd ref="247636843"/>
    <tag k="cycleway:both" v="no"/>
    <tag k="highway" v="residential"/>
    <tag k="lane_markings" v="no"/>
    <tag k="lit" v="yes"/>
    <tag k="maxspeed" v="30"/>
    <tag k="maxspeed:type" v="DE:zone30"/>
    <tag k="name" v="Runenzeile"/>
    <tag k="name:etymology:wikidata" v="Q82996"/>
    <tag k="postal_code" v="13088"/>
    <tag k="sidewalk:both" v="no"/>
    <tag k="source:maxspeed" v="DE:zone30"/>
    <tag k="surface" v="asphalt"/>
    <tag k="traffic_sign" v="DE:274.1"/>
    <tag k="zone:maxspeed" v="DE:30"/>
  </way>
  <way id="141806548" version="9" timestamp="2023-01-23T12:01:30Z" changeset="131604685" uid="18208051" user="MappiViewer">
    <nd ref="1552165001"/>
    <nd ref="247636817"/>
    <tag k="cycleway:both" v="no"/>
    <tag k="highway" v="residential"/>
    <tag k="lane_markings" v="no"/>
    <tag k="lit" v="yes"/>
    <tag k="maxspeed" v="30"/>
    <tag k="maxspeed:type" v="DE:zone30"/>
    <tag k="name" v="Ostaraweg"/>
    <tag k="name:etymology:wikidata" v="Q253056"/>
    <tag k="postal_code" v="13088"/>
    <tag k="sidewalk:both" v="no"/>
    <tag k="smoothness" v="good"/>
    <tag k="source:maxspeed" v="DE:zone30"/>
    <tag k="surface" v="asphalt"/>
    <tag k="traffic_sign" v="DE:274.1"/>
    <tag k="zone:maxspeed" v="DE:30"/>
  </way>
  <way id="142059956" version="15" timestamp="2023-01-23T14:04:35Z" changeset="131609453" uid="18208051" user="MappiViewer">
    <nd ref="7726313903"/>
    <nd ref="7726313900"/>
    <nd ref="1552165001"/>
    <nd ref="1554831505"/>
    <nd ref="2522309284"/>
    <nd ref="2522309305"/>
    <nd ref="7726313906"/>
    <nd ref="10576704601"/>
    <nd ref="1554831504"/>
    <nd ref="10576704608"/>
    <nd ref="1554831506"/>
    <tag k="cycleway:both" v="no"/>
    <tag k="highway" v="residential"/>
    <tag k="lane_markings" v="no"/>
    <tag k="lit" v="yes"/>
    <tag k="maxspeed" v="30"/>
    <tag k="maxspeed:type" v="DE:zone30"/>
    <tag k="name" v="Muspelsteig"/>
    <tag k="name:etymology:wikidata" v="Q675304"/>
    <tag k="oneway" v="no"/>
    <tag k="postal_code" v="13088"/>
    <tag k="sidewalk:both" v="no"/>
    <tag k="smoothness" v="intermediate"/>
    <tag k="source:maxspeed" v="DE:zone30"/>
    <tag k="surface" v="asphalt"/>
    <tag k="traffic_sign" v="DE:274.1"/>
    <tag k="zone:maxspeed" v="DE:30"/>
  </way>
  <way id="142893418" version="16" timestamp="2025-02-14T19:10:26Z" changeset="162514895" uid="44217" user="kjon">
    <nd ref="8895698437"/>
    <nd ref="1556383951"/>
    <tag k="bicycle" v="use_sidepath"/>
    <tag k="cycleway:both" v="separate"/>
    <tag k="foot" v="use_sidepath"/>
    <tag k="highway" v="primary"/>
    <tag k="lane_markings" v="yes"/>
    <tag k="lanes" v="3"/>
    <tag k="lanes:backward" v="1"/>
    <tag k="lanes:forward" v="2"/>
    <tag k="lit" v="yes"/>
    <tag k="maxspeed:backward" v="60"/>
    <tag k="maxspeed:forward" v="50"/>
    <tag k="name" v="Malchower Chaussee"/>
    <tag k="name:etymology:wikidata" v="Q563541"/>
    <tag k="parking:both" v="no"/>
    <tag k="postal_code" v="13088"/>
    <tag k="ref" v="B 2"/>
    <tag k="sidewalk:both" v="separate"/>
    <tag k="smoothness" v="excellent"/>
    <tag k="surface" v="asphalt"/>
    <tag k="turn:lanes:forward" v="left|through"/>
    <tag k="wikidata" v="Q61694362"/>
    <tag k="zone:traffic" v="DE:urban"/>
  </way>
  <way id="142893419" version="18" timestamp="2025-02-14T19:10:26Z" changeset="162514895" uid="44217" user="kjon">
    <nd ref="1557591272"/>
    <nd ref="9192217933"/>
    <nd ref="8895698607"/>
    <nd ref="8895698608"/>
    <nd ref="928263147"/>
    <nd ref="7125102265"/>
    <nd ref="7125102266"/>
    <nd ref="7125102267"/>
    <nd ref="7125102268"/>
    <nd ref="7125102269"/>
    <nd ref="7125102270"/>
    <nd ref="7125102271"/>
    <nd ref="7125102272"/>
    <nd ref="7125102273"/>
    <nd ref="7125102274"/>
    <nd ref="7125102263"/>
    <tag k="bicycle" v="use_sidepath"/>
    <tag k="cycleway:both" v="separate"/>
    <tag k="foot" v="use_sidepath"/>
    <tag k="highway" v="primary"/>
    <tag k="lane_markings" v="yes"/>
    <tag k="lanes" v="2"/>
    <tag k="lit" v="yes"/>
    <tag k="maxspeed" v="60"/>
    <tag k="name" v="Malchower Chaussee"/>
    <tag k="name:etymology:wikidata" v="Q563541"/>
    <tag k="parking:both" v="no"/>
    <tag k="postal_code" v="13088"/>
    <tag k="ref" v="B 2"/>
    <tag k="shoulder" v="no"/>
    <tag k="sidewalk:both" v="separate"/>
    <tag k="smoothness" v="excellent"/>
    <tag k="surface" v="asphalt"/>
    <tag k="wikidata" v="Q61694362"/>
    <tag k="zone:traffic" v="DE:urban"/>
  </way>
  <way id="144887742" version="17" timestamp="2024-07-09T05:58:17Z" changeset="153729394" uid="10961311" user="StefanHRT">
    <nd ref="534251596"/>
    <nd ref="7288188428"/>
    <nd ref="2917740078"/>
    <nd ref="8999575543"/>
    <nd ref="12042878508"/>
    <nd ref="8290442836"/>
    <nd ref="250164853"/>
    <tag k="cycleway:both" v="no"/>
    <tag k="highway" v="unclassified"/>
    <tag k="lane_markings" v="no"/>
    <tag k="lit" v="no"/>
    <tag k="maxspeed:backward" v="30"/>
    <tag k="maxspeed:forward" v="50"/>
    <tag k="maxspeed:forward:conditional" v="30 @ (06:00-18:00)"/>
    <tag k="name" v="Märchenweg"/>
    <tag k="name:etymology:wikidata" v="Q699"/>
    <tag k="postal_code" v="13051"/>
    <tag k="sidewalk" v="no"/>
    <tag k="smoothness" v="intermediate"/>
    <tag k="surface" v="asphalt"/>
  </way>
  <way id="147948799" version="12" timestamp="2023-11-27T03:24:37Z" changeset="144491254" uid="10961311" user="StefanHRT">
    <nd ref="30687247"/>
    <nd ref="11280602653"/>
    <nd ref="10576164268"/>
    <nd ref="10576164267"/>
    <nd ref="1610665947"/>
    <nd ref="3334101373"/>
    <nd ref="10576164273"/>
    <nd ref="3887703844"/>
    <nd ref="3334101363"/>
    <nd ref="3334101382"/>
    <nd ref="10576164277"/>
    <nd ref="10576164275"/>
    <nd ref="10576164279"/>
    <nd ref="1610665948"/>
    <tag k="cycleway:both" v="no"/>
    <tag k="foot" v="use_sidepath"/>
    <tag k="highway" v="residential"/>
    <tag k="lit" v="yes"/>
    <tag k="name" v="Darßer Bogen"/>
    <tag k="name:etymology:wikidata" v="Q694117"/>
    <tag k="name:etymology:wikipedia" v="de:Darß"/>
    <tag k="postal_code" v="13088"/>
    <tag k="sidewalk:both" v="separate"/>
    <tag k="surface" v="asphalt"/>
  </way>
  <way id="176753718" version="11" timestamp="2024-06-17T07:29:11Z" changeset="152788920" uid="10961311" user="StefanHRT">
    <nd ref="11987042103"/>
    <nd ref="165108419"/>
    <tag k="cycleway:both" v="no"/>
    <tag k="highway" v="residential"/>
    <tag k="lane_markings" v="no"/>
    <tag k="lit" v="yes"/>
    <tag k="maxspeed" v="30"/>
    <tag k="maxspeed:type" v="DE:zone30"/>
    <tag k="name" v="Am Fließ"/>
    <tag k="name:etymology:wikidata" v="Q32752393"/>
    <tag k="postal_code" v="13129"/>
    <tag k="sidewalk:both" v="no"/>
    <tag k="smoothness" v="intermediate"/>
    <tag k="source:maxspeed" v="DE:zone30"/>
    <tag k="surface" v="asphalt"/>
    <tag k="traffic_sign" v="DE:274.1[30]"/>
    <tag k="zone:maxspeed" v="DE:30"/>
  </way>
  <way id="179130847" version="8" timestamp="2025-02-20T08:54:16Z" changeset="162730682" uid="66391" user="geozeisig">
    <nd ref="1894691502"/>
    <nd ref="1894691509"/>
    <nd ref="1894691508"/>
    <nd ref="1894691500"/>
    <nd ref="1894691502"/>
    <tag k="addr:city" v="Berlin"/>
    <tag k="addr:housenumber" v="53"/>
    <tag k="addr:postcode" v="13089"/>
    <tag k="addr:street" v="Nelkenweg"/>
    <tag k="addr:suburb" v="Stadtrandsiedlung Malchow"/>
    <tag k="building" v="hut"/>
  </way>
  <way id="179130849" version="8" timestamp="2025-02-20T08:54:16Z" changeset="162730682" uid="66391" user="geozeisig">
    <nd ref="1894691499"/>
    <nd ref="1894691506"/>
    <nd ref="1894691505"/>
    <nd ref="1894691495"/>
    <nd ref="1894691499"/>
    <tag k="addr:city" v="Berlin"/>
    <tag k="addr:housenumber" v="52"/>
    <tag k="addr:postcode" v="13089"/>
    <tag k="addr:street" v="Nelkenweg"/>
    <tag k="addr:suburb" v="Stadtrandsiedlung Malchow"/>
    <tag k="building" v="hut"/>
  </way>
  <way id="194973337" version="6" timestamp="2018-05-30T15:10:49Z" changeset="59401693" uid="4445038" user="sandrow75">
    <nd ref="2913742322"/>
    <nd ref="2913741726"/>
    <nd ref="2913729231"/>
    <nd ref="2913729236"/>
    <nd ref="5651952608"/>
    <nd ref="2913742322"/>
    <tag k="addr:city" v="Berlin"/>
    <tag k="addr:country" v="DE"/>
    <tag k="addr:housenumber" v="201"/>
    <tag k="addr:postcode" v="13088"/>
    <tag k="addr:street" v="Darßer Straße"/>
    <tag k="addr:suburb" v="Stadtrandsiedlung Malchow"/>
    <tag k="building" v="yes"/>
  </way>
  <way id="194973339" version="9" timestamp="2025-03-27T18:24:31Z" changeset="164176967" uid="44217" user="kjon">
    <nd ref="2913742441"/>
    <nd ref="2913729237"/>
    <nd ref="2913730750"/>
    <nd ref="2913741922"/>
    <nd ref="2913741823"/>
    <nd ref="2913743230"/>
    <nd ref="2913742321"/>
    <nd ref="2913741727"/>
    <nd ref="2913730832"/>
    <nd ref="2913743232"/>
    <nd ref="2913741923"/>
    <nd ref="2913742733"/>
    <nd ref="2913742441"/>
    <tag k="addr:city" v="Berlin"/>
    <tag k="addr:country" v="DE"/>
    <tag k="addr:housenumber" v="203"/>
    <tag k="addr:postcode" v="13088"/>
    <tag k="addr:street" v="Darßer Straße"/>
    <tag k="addr:suburb" v="Stadtrandsiedlung Malchow"/>
    <tag k="building" v="public"/>
    <tag k="building:levels" v="3"/>
    <tag k="roof:shape" v="flat"/>
  </way>
  <way id="200198713" version="18" timestamp="2023-10-22T03:24:21Z" changeset="142948992" uid="10961311" user="StefanHRT">
    <nd ref="30625209"/>
    <nd ref="10293118836"/>
    <nd ref="30687271"/>
    <nd ref="4517341798"/>
    <nd ref="11280628700"/>
    <nd ref="11280628704"/>
    <nd ref="1610672694"/>
    <nd ref="2515370517"/>
    <nd ref="1610672693"/>
    <nd ref="1610271451"/>
    <nd ref="2916639405"/>
    <nd ref="1610672692"/>
    <nd ref="1610672691"/>
    <nd ref="11280602655"/>
    <tag k="cycleway:both" v="no"/>
    <tag k="foot" v="use_sidepath"/>
    <tag k="highway" v="tertiary"/>
    <tag k="lanes" v="2"/>
    <tag k="lit" v="yes"/>
    <tag k="maxspeed" v="50"/>
    <tag k="name" v="Piesporter Straße"/>
    <tag k="name:etymology:wikidata" v="Q375762"/>
    <tag k="postal_code" v="13088"/>
    <tag k="sidewalk:both" v="separate"/>
    <tag k="surface" v="asphalt"/>
    <tag k="wikidata" v="Q69468310"/>
  </way>
  <way id="244844790" version="8" timestamp="2019-04-05T19:57:44Z" changeset="68936287" uid="9607" user="hfs">
    <nd ref="3887703866"/>
    <nd ref="3887703816"/>
    <nd ref="3887703813"/>
    <nd ref="3887703830"/>
    <nd ref="3887703829"/>
    <nd ref="3887703851"/>
    <nd ref="3887703866"/>
    <tag k="addr:city" v="Berlin"/>
    <tag k="addr:housenumber" v="1"/>
    <tag k="addr:postcode" v="13088"/>
    <tag k="addr:street" v="Darßer Bogen"/>
    <tag k="building" v="commercial"/>
    <tag k="building:levels" v="2"/>
    <tag k="name" v="Fittkau Metallbau + Kunstschmiede GmbH"/>
    <tag k="phone" v="+49 30 92090101"/>
    <tag k="website" v="https://www.fittkau-metallbau.de/index.php/de/"/>
  </way>
  <way id="244963073" version="7" timestamp="2023-01-23T15:22:38Z" changeset="131612406" uid="18208051" user="MappiViewer">
    <nd ref="2522309197"/>
    <nd ref="2522309191"/>
    <tag k="cycleway:both" v="no"/>
    <tag k="highway" v="residential"/>
    <tag k="lane_markings" v="no"/>
    <tag k="lit" v="yes"/>
    <tag k="maxspeed" v="30"/>
    <tag k="maxspeed:type" v="DE:zone30"/>
    <tag k="name" v="Niflheimweg"/>
    <tag k="name:etymology:wikidata" v="Q176062"/>
    <tag k="name:etymology:wikipedia" v="de:Niflheim"/>
    <tag k="sidewalk:both" v="no"/>
    <tag k="source:maxspeed" v="DE:zone30"/>
    <tag k="surface" v="asphalt"/>
    <tag k="traffic_sign" v="DE:274.1"/>
    <tag k="zone:maxspeed" v="DE:30"/>
  </way>
  <way id="244963077" version="6" timestamp="2019-10-19T14:19:31Z" changeset="75931390" uid="122712" user="johndoe">
    <nd ref="2913742442"/>
    <nd ref="2913742033"/>
    <nd ref="2913729238"/>
    <nd ref="2913742734"/>
    <nd ref="2913743410"/>
    <nd ref="2913742731"/>
    <nd ref="2913742732"/>
    <nd ref="2913741728"/>
    <nd ref="2913743020"/>
    <nd ref="2913743505"/>
    <nd ref="2913742916"/>
    <nd ref="2913742918"/>
    <nd ref="2913742034"/>
    <nd ref="2913742325"/>
    <nd ref="2913742324"/>
    <nd ref="2913742917"/>
    <nd ref="2913742442"/>
    <tag k="building" v="yes"/>
    <tag k="name" v="Stephanus-Werkstätten Berlin Werkstatt Weißensee"/>
  </way>
  <way id="244963089" version="9" timestamp="2021-10-02T12:31:14Z" changeset="111998886" uid="9508237" user="momabebra">
    <nd ref="2913743126"/>
    <nd ref="2913743231"/>
    <nd ref="2913743409"/>
    <nd ref="2913743125"/>
    <nd ref="2913743229"/>
    <nd ref="2913742730"/>
    <nd ref="2913730831"/>
    <nd ref="2913742440"/>
    <nd ref="2913729235"/>
    <nd ref="2913741822"/>
    <nd ref="2913742823"/>
    <nd ref="2913742439"/>
    <nd ref="2913743222"/>
    <nd ref="2913742822"/>
    <nd ref="2913743502"/>
    <nd ref="2913729232"/>
    <nd ref="2913741818"/>
    <nd ref="2913741918"/>
    <nd ref="2913729230"/>
    <nd ref="2913729229"/>
    <nd ref="2913742723"/>
    <nd ref="2913742821"/>
    <nd ref="2913743124"/>
    <nd ref="2913742726"/>
    <nd ref="2913741817"/>
    <nd ref="2913741919"/>
    <nd ref="2913730745"/>
    <nd ref="2913742438"/>
    <nd ref="2913730825"/>
    <nd ref="2913742516"/>
    <nd ref="2913742727"/>
    <nd ref="2913743221"/>
    <nd ref="2913743224"/>
    <nd ref="2913741819"/>
    <nd ref="2913741921"/>
    <nd ref="2913743503"/>
    <nd ref="2913730749"/>
    <nd ref="2913743126"/>
    <tag k="building" v="retail"/>
    <tag k="building:levels" v="3"/>
    <tag k="name" v="Auto &amp; Art"/>
    <tag k="roof:shape" v="flat"/>
  </way>
  <way id="252048028" version="5" timestamp="2024-07-10T05:29:29Z" changeset="153767876" uid="552493" user="lberges">
    <nd ref="2581654540"/>
    <nd ref="2581654542"/>
    <nd ref="2581654544"/>
    <nd ref="2581654546"/>
    <nd ref="2581654540"/>
    <tag k="addr:city" v="Berlin"/>
    <tag k="addr:housenumber" v="45"/>
    <tag k="addr:postcode" v="13088"/>
    <tag k="addr:street" v="Rosenweg"/>
    <tag k="building" v="yes"/>
  </way>
  <way id="252454931" version="7" timestamp="2025-02-20T08:54:16Z" changeset="162730682" uid="66391" user="geozeisig">
    <nd ref="2585073654"/>
    <nd ref="2585073656"/>
    <nd ref="2585073660"/>
    <nd ref="2585073662"/>
    <nd ref="2585073654"/>
    <tag k="addr:city" v="Berlin"/>
    <tag k="addr:housenumber" v="99"/>
    <tag k="addr:postcode" v="13089"/>
    <tag k="addr:street" v="Nelkenweg"/>
    <tag k="addr:suburb" v="Stadtrandsiedlung Malchow"/>
    <tag k="building" v="detached"/>
  </way>
  <way id="252454935" version="7" timestamp="2025-02-20T08:54:16Z" changeset="162730682" uid="66391" user="geozeisig">
    <nd ref="2585073675"/>
    <nd ref="2585073678"/>
    <nd ref="2585073680"/>
    <nd ref="2585073683"/>
    <nd ref="2585073685"/>
    <nd ref="2585073688"/>
    <nd ref="2585073675"/>
    <tag k="addr:city" v="Berlin"/>
    <tag k="addr:housenumber" v="97"/>
    <tag k="addr:postcode" v="13089"/>
    <tag k="addr:street" v="Nelkenweg"/>
    <tag k="addr:suburb" v="Stadtrandsiedlung Malchow"/>
    <tag k="building" v="residential"/>
  </way>
  <way id="252548416" version="7" timestamp="2025-02-20T08:54:16Z" changeset="162730682" uid="66391" user="geozeisig">
    <nd ref="2585784247"/>
    <nd ref="2585784251"/>
    <nd ref="2585784254"/>
    <nd ref="2585784256"/>
    <nd ref="2585784247"/>
    <tag k="addr:city" v="Berlin"/>
    <tag k="addr:housenumber" v="51"/>
    <tag k="addr:postcode" v="13089"/>
    <tag k="addr:street" v="Nelkenweg"/>
    <tag k="addr:suburb" v="Stadtrandsiedlung Malchow"/>
    <tag k="building" v="hut"/>
  </way>
  <way id="252548417" version="7" timestamp="2025-02-20T08:54:16Z" changeset="162730682" uid="66391" user="geozeisig">
    <nd ref="2585784259"/>
    <nd ref="2585784262"/>
    <nd ref="2585784265"/>
    <nd ref="2585784268"/>
    <nd ref="2585784259"/>
    <tag k="addr:city" v="Berlin"/>
    <tag k="addr:housenumber" v="50"/>
    <tag k="addr:postcode" v="13089"/>
    <tag k="addr:street" v="Nelkenweg"/>
    <tag k="addr:suburb" v="Stadtrandsiedlung Malchow"/>
    <tag k="building" v="bungalow"/>
  </way>
  <way id="252548418" version="9" timestamp="2025-02-20T08:54:16Z" changeset="162730682" uid="66391" user="geozeisig">
    <nd ref="2585784271"/>
    <nd ref="2585784274"/>
    <nd ref="2585784277"/>
    <nd ref="2585784280"/>
    <nd ref="2585784271"/>
    <tag k="addr:city" v="Berlin"/>
    <tag k="addr:housenumber" v="48"/>
    <tag k="addr:postcode" v="13089"/>
    <tag k="addr:street" v="Nelkenweg"/>
    <tag k="addr:suburb" v="Stadtrandsiedlung Malchow"/>
    <tag k="building" v="house"/>
    <tag k="building:levels" v="2"/>
    <tag k="ele" v="54"/>
  </way>
  <way id="252548419" version="7" timestamp="2025-02-20T08:54:16Z" changeset="162730682" uid="66391" user="geozeisig">
    <nd ref="2585784283"/>
    <nd ref="2585784286"/>
    <nd ref="2585784287"/>
    <nd ref="2585784290"/>
    <nd ref="2585784283"/>
    <tag k="addr:city" v="Berlin"/>
    <tag k="addr:housenumber" v="47"/>
    <tag k="addr:postcode" v="13089"/>
    <tag k="addr:street" v="Nelkenweg"/>
    <tag k="addr:suburb" v="Stadtrandsiedlung Malchow"/>
    <tag k="building" v="residential"/>
    <tag k="building:levels" v="1"/>
  </way>
  <way id="252548420" version="7" timestamp="2025-02-20T08:54:16Z" changeset="162730682" uid="66391" user="geozeisig">
    <nd ref="2585784292"/>
    <nd ref="2585784294"/>
    <nd ref="2585784296"/>
    <nd ref="2585784299"/>
    <nd ref="2585784292"/>
    <tag k="addr:city" v="Berlin"/>
    <tag k="addr:housenumber" v="46"/>
    <tag k="addr:postcode" v="13089"/>
    <tag k="addr:street" v="Nelkenweg"/>
    <tag k="addr:suburb" v="Stadtrandsiedlung Malchow"/>
    <tag k="building" v="house"/>
  </way>
  <way id="255308852" version="3" timestamp="2015-12-11T14:51:21Z" changeset="35885999" uid="881429" user="atpl_pilot">
    <nd ref="3887703771"/>
    <nd ref="3887703775"/>
    <nd ref="3887703776"/>
    <nd ref="3887703774"/>
    <nd ref="3887703762"/>
    <nd ref="3887703770"/>
    <nd ref="3887699641"/>
    <nd ref="3887699635"/>
    <nd ref="3887699634"/>
    <nd ref="3887699633"/>
    <nd ref="3887703768"/>
    <nd ref="2610042035"/>
    <nd ref="3887703771"/>
    <tag k="addr:city" v="Berlin"/>
    <tag k="addr:country" v="DE"/>
    <tag k="addr:housenumber" v="10"/>
    <tag k="addr:postcode" v="13088"/>
    <tag k="addr:street" v="Darßer Bogen"/>
    <tag k="addr:suburb" v="Stadtrandsiedlung Malchow"/>
    <tag k="building" v="commercial"/>
    <tag k="name" v="Pumpen Würdig"/>
    <tag k="source" v="Geoportal Berlin / Hauskoordinaten"/>
  </way>
  <way id="279127599" version="30" timestamp="2025-02-12T19:53:01Z" changeset="162443374" uid="44217" user="kjon">
    <nd ref="2309787283"/>
    <nd ref="4406453506"/>
    <nd ref="2309787282"/>
    <nd ref="2309787281"/>
    <nd ref="2309787280"/>
    <nd ref="2309787279"/>
    <nd ref="2309787278"/>
    <nd ref="9581110295"/>
    <nd ref="9581110294"/>
    <nd ref="9376313578"/>
    <nd ref="2309787276"/>
    <nd ref="8420599206"/>
    <nd ref="3020982778"/>
    <nd ref="4313424904"/>
    <tag k="bicycle" v="use_sidepath"/>
    <tag k="cycleway:left" v="no"/>
    <tag k="cycleway:right" v="separate"/>
    <tag k="foot" v="use_sidepath"/>
    <tag k="highway" v="unclassified"/>
    <tag k="lanes" v="2"/>
    <tag k="lanes:backward" v="1"/>
    <tag k="lanes:forward" v="1"/>
    <tag k="lit" v="no"/>
    <tag k="maxspeed" v="50"/>
    <tag k="name" v="Am Luchgraben"/>
    <tag k="name:etymology:wikidata" v="Q1873156"/>
    <tag k="name:etymology:wikipedia" v="de:Luch (Landform)"/>
    <tag k="parking:both" v="no"/>
    <tag k="postal_code" v="13125"/>
    <tag k="sidewalk:left" v="no"/>
    <tag k="sidewalk:right" v="separate"/>
    <tag k="smoothness" v="excellent"/>
    <tag k="surface" v="asphalt"/>
  </way>
  <way id="288106825" version="14" timestamp="2025-02-14T19:13:52Z" changeset="162514986" uid="44217" user="kjon">
    <nd ref="2916407473"/>
    <nd ref="692737884"/>
    <nd ref="10753139339"/>
    <nd ref="8157033963"/>
    <nd ref="10753139342"/>
    <nd ref="4313424903"/>
    <tag k="cycleway:both" v="separate"/>
    <tag k="foot" v="use_sidepath"/>
    <tag k="highway" v="secondary"/>
    <tag k="lane_markings" v="yes"/>
    <tag k="lanes" v="2"/>
    <tag k="lit" v="yes"/>
    <tag k="maxspeed" v="50"/>
    <tag k="name" v="Blankenburger Pflasterweg"/>
    <tag k="name:etymology:wikidata" v="Q693582"/>
    <tag k="note" v="Übergeordnete Straße, Stufe II"/>
    <tag k="parking:both" v="no"/>
    <tag k="postal_code" v="13129"/>
    <tag k="sidewalk:both" v="separate"/>
    <tag k="smoothness" v="good"/>
    <tag k="surface" v="asphalt"/>
    <tag k="wikidata" v="Q68903838"/>
  </way>
  <way id="288108041" version="15" timestamp="2025-02-14T19:13:52Z" changeset="162514986" uid="44217" user="kjon">
    <nd ref="2247071793"/>
    <nd ref="165736690"/>
    <nd ref="623121211"/>
    <nd ref="8997208429"/>
    <nd ref="2247071764"/>
    <tag k="cycleway:both" v="separate"/>
    <tag k="foot" v="use_sidepath"/>
    <tag k="highway" v="secondary"/>
    <tag k="lanes" v="2"/>
    <tag k="lit" v="yes"/>
    <tag k="maxspeed" v="50"/>
    <tag k="name" v="Blankenburger Pflasterweg"/>
    <tag k="name:etymology:wikidata" v="Q693582"/>
    <tag k="note" v="Übergeordnete Straße, Stufe II"/>
    <tag k="parking:both" v="no"/>
    <tag k="postal_code" v="13129"/>
    <tag k="sidewalk:both" v="separate"/>
    <tag k="smoothness" v="good"/>
    <tag k="surface" v="asphalt"/>
    <tag k="wikidata" v="Q68903838"/>
  </way>
  <way id="288108042" version="19" timestamp="2025-02-14T19:13:52Z" changeset="162514986" uid="44217" user="kjon">
    <nd ref="2247071764"/>
    <nd ref="623121187"/>
    <nd ref="165736691"/>
    <nd ref="4463110960"/>
    <nd ref="4806015290"/>
    <nd ref="4806015289"/>
    <nd ref="165736692"/>
    <nd ref="9583498855"/>
    <nd ref="9546672771"/>
    <nd ref="8997208446"/>
    <nd ref="165736693"/>
    <nd ref="8997208448"/>
    <nd ref="5266363824"/>
    <nd ref="5266363823"/>
    <nd ref="8997208466"/>
    <nd ref="8997208465"/>
    <nd ref="1557597277"/>
    <tag k="cycleway:both" v="separate"/>
    <tag k="foot" v="use_sidepath"/>
    <tag k="highway" v="secondary"/>
    <tag k="lanes" v="2"/>
    <tag k="lit" v="yes"/>
    <tag k="maxspeed" v="50"/>
    <tag k="name" v="Blankenburger Pflasterweg"/>
    <tag k="name:etymology:wikidata" v="Q693582"/>
    <tag k="note" v="Übergeordnete Straße, Stufe II"/>
    <tag k="parking:both" v="no"/>
    <tag k="postal_code" v="13129"/>
    <tag k="sidewalk:both" v="separate"/>
    <tag k="smoothness" v="good"/>
    <tag k="surface" v="asphalt"/>
    <tag k="wikidata" v="Q68903838"/>
  </way>
  <way id="288125112" version="9" timestamp="2025-02-14T19:10:26Z" changeset="162514895" uid="44217" user="kjon">
    <nd ref="2916639122"/>
    <nd ref="669239417"/>
    <nd ref="669239418"/>
    <nd ref="2916639431"/>
    <nd ref="2916639122"/>
    <tag k="addr:city" v="Berlin"/>
    <tag k="addr:country" v="DE"/>
    <tag k="addr:housenumber" v="1"/>
    <tag k="addr:inclusion" v="actual"/>
    <tag k="addr:postcode" v="13088"/>
    <tag k="addr:street" v="Malchower Chaussee"/>
    <tag k="addr:suburb" v="Stadtrandsiedlung Malchow"/>
    <tag k="amenity" v="fuel"/>
    <tag k="brand" v="star"/>
    <tag k="brand:wikidata" v="Q89432390"/>
    <tag k="brand:wikipedia" v="de:Orlen Deutschland"/>
    <tag k="building" v="retail"/>
    <tag k="compressed_air" v="yes"/>
    <tag k="fuel:HGV_diesel" v="yes"/>
    <tag k="fuel:diesel" v="yes"/>
    <tag k="fuel:e10" v="yes"/>
    <tag k="fuel:lpg" v="yes"/>
    <tag k="fuel:octane_95" v="yes"/>
    <tag k="fuel:octane_98" v="yes"/>
    <tag k="name" v="Star"/>
  </way>
  <way id="298204383" version="7" timestamp="2021-09-21T14:10:32Z" changeset="111499038" uid="12156790" user="Weltenschummler">
    <nd ref="3021040760"/>
    <nd ref="3021040759"/>
    <nd ref="3023179312"/>
    <nd ref="3021040757"/>
    <nd ref="3021040754"/>
    <nd ref="3021040755"/>
    <nd ref="3021040756"/>
    <nd ref="3021040760"/>
    <tag k="amenity" v="shelter"/>
    <tag k="bench" v="no"/>
    <tag k="bin" v="no"/>
    <tag k="building" v="yes"/>
    <tag k="lit" v="no"/>
    <tag k="name" v="Kleine Schräge"/>
    <tag k="shelter_type" v="weather_shelter"/>
    <tag k="wheelchair" v="limited"/>
  </way>
  <way id="298355122" version="10" timestamp="2021-08-11T20:03:42Z" changeset="109535357" uid="17304" user="kartograph">
    <nd ref="1549598469"/>
    <nd ref="8999575596"/>
    <nd ref="8109316354"/>
    <nd ref="8999575592"/>
    <nd ref="1557591295"/>
    <nd ref="8841349684"/>
    <nd ref="706377185"/>
    <nd ref="8841349683"/>
    <nd ref="8999575582"/>
    <nd ref="8999575584"/>
    <nd ref="8999575583"/>
    <nd ref="30624587"/>
    <nd ref="8999575581"/>
    <nd ref="1557591299"/>
    <nd ref="8999575575"/>
    <nd ref="2916407178"/>
    <nd ref="8841349681"/>
    <nd ref="1549660321"/>
    <nd ref="8841349682"/>
    <nd ref="2916407180"/>
    <nd ref="4313424896"/>
    <tag k="cycleway:both" v="no"/>
    <tag k="highway" v="tertiary"/>
    <tag k="lanes" v="2"/>
    <tag k="lit" v="yes"/>
    <tag k="maxspeed" v="50"/>
    <tag k="name" v="Ortnitstraße"/>
    <tag k="name:etymology:wikidata" v="Q1789855"/>
    <tag k="postal_code" v="13088"/>
    <tag k="sidewalk" v="both"/>
    <tag k="smoothness" v="excellent"/>
    <tag k="surface" v="asphalt"/>
    <tag k="wikidata" v="Q90774683"/>
  </way>
  <way id="309834581" version="2" timestamp="2021-06-05T13:43:45Z" changeset="105882995" uid="6617985" user="masix">
    <nd ref="3151745735"/>
    <nd ref="3151745761"/>
    <nd ref="3151745742"/>
    <nd ref="3151745718"/>
    <nd ref="3151745676"/>
    <nd ref="3151745556"/>
    <nd ref="3151745577"/>
    <nd ref="3151745558"/>
    <nd ref="3151745574"/>
    <nd ref="3151745592"/>
    <nd ref="3151745615"/>
    <nd ref="3151745295"/>
    <nd ref="3151745369"/>
    <nd ref="3151745669"/>
    <nd ref="3151745690"/>
    <nd ref="3151745750"/>
    <nd ref="3151745727"/>
    <nd ref="3151745818"/>
    <nd ref="3151745811"/>
    <nd ref="3151745829"/>
    <nd ref="3151745848"/>
    <nd ref="3151745892"/>
    <nd ref="3151745875"/>
    <nd ref="3151745882"/>
    <nd ref="3151745860"/>
    <nd ref="3151745798"/>
    <nd ref="3151745775"/>
    <nd ref="3151745764"/>
    <nd ref="3151745735"/>
    <tag k="building" v="yes"/>
    <tag k="building:levels" v="1"/>
    <tag k="description" v="Vereinshaus und Gaststätte"/>
    <tag k="name" v="Märchenklause"/>
  </way>
  <way id="309834622" version="2" timestamp="2023-01-23T18:17:06Z" changeset="131619100" uid="18208051" user="MappiViewer">
    <nd ref="3151745705"/>
    <nd ref="3151745648"/>
    <nd ref="3151745590"/>
    <nd ref="3151745657"/>
    <nd ref="3151745705"/>
    <tag k="building" v="yes"/>
    <tag k="name" v="Kultur-Büro"/>
  </way>
  <way id="397206975" version="10" timestamp="2023-11-27T03:32:16Z" changeset="144491369" uid="10961311" user="StefanHRT">
    <nd ref="4000254126"/>
    <nd ref="247636986"/>
    <tag k="cycleway:both" v="no"/>
    <tag k="foot" v="use_sidepath"/>
    <tag k="highway" v="residential"/>
    <tag k="lane_markings" v="yes"/>
    <tag k="lanes" v="3"/>
    <tag k="lanes:backward" v="2"/>
    <tag k="lanes:forward" v="1"/>
    <tag k="lit" v="yes"/>
    <tag k="maxspeed" v="30"/>
    <tag k="name" v="Schwarzelfenweg"/>
    <tag k="name:etymology:wikidata" v="Q174396"/>
    <tag k="postal_code" v="13088"/>
    <tag k="sidewalk:left" v="no"/>
    <tag k="sidewalk:right" v="separate"/>
    <tag k="smoothness" v="good"/>
    <tag k="surface" v="asphalt"/>
  </way>
  <way id="432205753" version="17" timestamp="2025-02-12T19:53:01Z" changeset="162443374" uid="44217" user="kjon">
    <nd ref="4313424904"/>
    <nd ref="9552374543"/>
    <nd ref="8290198051"/>
    <tag k="bicycle" v="use_sidepath"/>
    <tag k="cycleway:left" v="no"/>
    <tag k="cycleway:right" v="separate"/>
    <tag k="foot" v="use_sidepath"/>
    <tag k="highway" v="unclassified"/>
    <tag k="lanes" v="3"/>
    <tag k="lanes:backward" v="1"/>
    <tag k="lanes:forward" v="2"/>
    <tag k="lit" v="no"/>
    <tag k="maxspeed" v="50"/>
    <tag k="name" v="Am Luchgraben"/>
    <tag k="name:etymology:wikidata" v="Q1873156"/>
    <tag k="name:etymology:wikipedia" v="de:Luch (Landform)"/>
    <tag k="parking:both" v="no"/>
    <tag k="postal_code" v="13125"/>
    <tag k="sidewalk:left" v="no"/>
    <tag k="sidewalk:right" v="separate"/>
    <tag k="smoothness" v="excellent"/>
    <tag k="surface" v="asphalt"/>
    <tag k="turn:lanes:forward" v="left|right"/>
  </way>
  <way id="432205761" version="14" timestamp="2025-02-14T19:10:26Z" changeset="162514895" uid="44217" user="kjon">
    <nd ref="4313424891"/>
    <nd ref="5778373457"/>
    <nd ref="5778373456"/>
    <nd ref="11280974326"/>
    <nd ref="30624409"/>
    <tag k="bicycle" v="optional_sidepath"/>
    <tag k="cycleway:both" v="separate"/>
    <tag k="foot" v="use_sidepath"/>
    <tag k="highway" v="secondary"/>
    <tag k="lane_markings" v="yes"/>
    <tag k="lanes" v="3"/>
    <tag k="lanes:backward" v="1"/>
    <tag k="lanes:forward" v="2"/>
    <tag k="lit" v="yes"/>
    <tag k="maxspeed" v="50"/>
    <tag k="name" v="Darßer Straße"/>
    <tag k="name:etymology:wikidata" v="Q694117"/>
    <tag k="parking:both" v="no"/>
    <tag k="postal_code" v="13088"/>
    <tag k="sidewalk:left" v="separate"/>
    <tag k="sidewalk:right" v="no"/>
    <tag k="smoothness" v="good"/>
    <tag k="surface" v="asphalt"/>
    <tag k="turn:lanes:forward" v="left|through;right"/>
    <tag k="wikidata" v="Q68808741"/>
  </way>
  <way id="432205762" version="12" timestamp="2025-02-14T19:10:26Z" changeset="162514895" uid="44217" user="kjon">
    <nd ref="4313424889"/>
    <nd ref="4200225196"/>
    <nd ref="4200225197"/>
    <nd ref="10601028851"/>
    <tag k="bicycle" v="optional_sidepath"/>
    <tag k="cycleway:both" v="separate"/>
    <tag k="foot" v="use_sidepath"/>
    <tag k="highway" v="secondary"/>
    <tag k="lane_markings" v="yes"/>
    <tag k="lanes" v="4"/>
    <tag k="lanes:backward" v="1"/>
    <tag k="lanes:forward" v="3"/>
    <tag k="lit" v="yes"/>
    <tag k="maxspeed" v="50"/>
    <tag k="name" v="Darßer Straße"/>
    <tag k="name:etymology:wikidata" v="Q694117"/>
    <tag k="parking:both" v="no"/>
    <tag k="postal_code" v="13051"/>
    <tag k="sidewalk:left" v="no"/>
    <tag k="sidewalk:right" v="separate"/>
    <tag k="smoothness" v="good"/>
    <tag k="surface" v="asphalt"/>
    <tag k="turn:lanes:forward" v="left|through|right"/>
    <tag k="wikidata" v="Q68808741"/>
  </way>
  <way id="432205763" version="13" timestamp="2025-02-14T19:10:26Z" changeset="162514895" uid="44217" user="kjon">
    <nd ref="2519032867"/>
    <nd ref="320259583"/>
    <nd ref="8895698426"/>
    <nd ref="30624418"/>
    <nd ref="1469934809"/>
    <nd ref="9934376727"/>
    <nd ref="11280974343"/>
    <nd ref="30624394"/>
    <tag k="cycleway:both" v="no"/>
    <tag k="foot" v="no"/>
    <tag k="highway" v="primary_link"/>
    <tag k="incline" v="up"/>
    <tag k="lane_markings" v="yes"/>
    <tag k="lanes" v="2"/>
    <tag k="lit" v="yes"/>
    <tag k="maxspeed" v="30"/>
    <tag k="name" v="Darßer Straße"/>
    <tag k="name:etymology:wikidata" v="Q694117"/>
    <tag k="oneway" v="yes"/>
    <tag k="parking:both" v="no"/>
    <tag k="postal_code" v="13088"/>
    <tag k="sidewalk" v="no"/>
    <tag k="smoothness" v="excellent"/>
    <tag k="surface" v="asphalt"/>
    <tag k="turn:lanes" v="left|right"/>
    <tag k="wikidata" v="Q68808741"/>
  </way>
  <way id="432205791" version="16" timestamp="2025-02-14T19:10:26Z" changeset="162514895" uid="44217" user="kjon">
    <nd ref="845445578"/>
    <nd ref="8895698428"/>
    <nd ref="4313424890"/>
    <tag k="bicycle" v="use_sidepath"/>
    <tag k="cycleway:both" v="separate"/>
    <tag k="foot" v="use_sidepath"/>
    <tag k="highway" v="primary"/>
    <tag k="lane_markings" v="yes"/>
    <tag k="lanes" v="2"/>
    <tag k="lanes:backward" v="1"/>
    <tag k="lit" v="yes"/>
    <tag k="maxheight" v="default"/>
    <tag k="maxspeed:backward" v="60"/>
    <tag k="maxspeed:forward" v="50"/>
    <tag k="name" v="Malchower Chaussee"/>
    <tag k="name:etymology:wikidata" v="Q563541"/>
    <tag k="parking:both" v="no"/>
    <tag k="postal_code" v="13088"/>
    <tag k="ref" v="B 2"/>
    <tag k="sidewalk:both" v="separate"/>
    <tag k="smoothness" v="excellent"/>
    <tag k="surface" v="asphalt"/>
    <tag k="wikidata" v="Q61694362"/>
    <tag k="zone:traffic" v="DE:urban"/>
  </way>
  <way id="432205815" version="9" timestamp="2023-10-22T03:24:21Z" changeset="142948992" uid="10961311" user="StefanHRT">
    <nd ref="30687247"/>
    <nd ref="4517354227"/>
    <nd ref="4313424588"/>
    <tag k="cycleway:left" v="no"/>
    <tag k="cycleway:right" v="separate"/>
    <tag k="foot" v="use_sidepath"/>
    <tag k="highway" v="tertiary"/>
    <tag k="lane_markings" v="yes"/>
    <tag k="lanes" v="3"/>
    <tag k="lanes:backward" v="2"/>
    <tag k="lanes:forward" v="1"/>
    <tag k="lit" v="yes"/>
    <tag k="maxspeed" v="50"/>
    <tag k="name" v="Piesporter Straße"/>
    <tag k="name:etymology:wikidata" v="Q375762"/>
    <tag k="postal_code" v="13088"/>
    <tag k="sidewalk:both" v="separate"/>
    <tag k="surface" v="asphalt"/>
    <tag k="turn:lanes:backward" v="left|"/>
    <tag k="wikidata" v="Q69468310"/>
  </way>
  <way id="432205816" version="11" timestamp="2024-09-22T20:07:36Z" changeset="156966917" uid="9004390" user="JasperAl">
    <nd ref="4313424588"/>
    <nd ref="1556383972"/>
    <nd ref="5778373458"/>
    <nd ref="10576164264"/>
    <nd ref="5778373453"/>
    <tag k="cycleway:left" v="lane"/>
    <tag k="cycleway:left:lane" v="advisory"/>
    <tag k="cycleway:right" v="separate"/>
    <tag k="foot" v="use_sidepath"/>
    <tag k="highway" v="tertiary"/>
    <tag k="lane_markings" v="yes"/>
    <tag k="lanes" v="3"/>
    <tag k="lanes:backward" v="1"/>
    <tag k="lanes:forward" v="2"/>
    <tag k="lit" v="yes"/>
    <tag k="maxspeed" v="50"/>
    <tag k="name" v="Piesporter Straße"/>
    <tag k="name:etymology:wikidata" v="Q375762"/>
    <tag k="postal_code" v="13088"/>
    <tag k="sidewalk:both" v="separate"/>
    <tag k="smoothness" v="good"/>
    <tag k="surface" v="asphalt"/>
    <tag k="turn:lanes:forward" v="left|through;right"/>
    <tag k="wikidata" v="Q69468310"/>
  </way>
  <way id="432205817" version="12" timestamp="2025-02-14T19:10:26Z" changeset="162514895" uid="44217" user="kjon">
    <nd ref="320259585"/>
    <nd ref="30624420"/>
    <nd ref="2515370515"/>
    <nd ref="10576164263"/>
    <nd ref="8513158732"/>
    <nd ref="1557591272"/>
    <tag k="bicycle" v="optional_sidepath"/>
    <tag k="cycleway:both" v="separate"/>
    <tag k="foot" v="use_sidepath"/>
    <tag k="highway" v="primary_link"/>
    <tag k="lane_markings" v="yes"/>
    <tag k="lanes" v="2"/>
    <tag k="lanes:backward" v="1"/>
    <tag k="lanes:forward" v="1"/>
    <tag k="lit" v="yes"/>
    <tag k="maxspeed" v="50"/>
    <tag k="name" v="Piesporter Straße"/>
    <tag k="name:etymology:wikidata" v="Q375762"/>
    <tag k="parking:both" v="no"/>
    <tag k="postal_code" v="13088"/>
    <tag k="sidewalk:left" v="no"/>
    <tag k="sidewalk:right" v="separate"/>
    <tag k="smoothness" v="good"/>
    <tag k="surface" v="concrete"/>
    <tag k="turn:lanes:forward" v="right"/>
    <tag k="wikidata" v="Q69468310"/>
  </way>
  <way id="442896912" version="7" timestamp="2025-02-20T08:54:17Z" changeset="162730682" uid="66391" user="geozeisig">
    <nd ref="4405461998"/>
    <nd ref="4405462003"/>
    <nd ref="4405462004"/>
    <nd ref="4405462005"/>
    <nd ref="4405461998"/>
    <tag k="addr:city" v="Berlin"/>
    <tag k="addr:housenumber" v="49a"/>
    <tag k="addr:postcode" v="13089"/>
    <tag k="addr:street" v="Nelkenweg"/>
    <tag k="addr:suburb" v="Stadtrandsiedlung Malchow"/>
    <tag k="building" v="house"/>
    <tag k="building:levels" v="2"/>
  </way>
  <way id="442896913" version="5" timestamp="2025-02-20T08:54:17Z" changeset="162730682" uid="66391" user="geozeisig">
    <nd ref="4405462006"/>
    <nd ref="4405462007"/>
    <nd ref="4405462008"/>
    <nd ref="4405462009"/>
    <nd ref="4405462010"/>
    <nd ref="4405462011"/>
    <nd ref="4405462012"/>
    <nd ref="4405462013"/>
    <nd ref="4405462006"/>
    <tag k="addr:city" v="Berlin"/>
    <tag k="addr:housenumber" v="49"/>
    <tag k="addr:postcode" v="13089"/>
    <tag k="addr:street" v="Nelkenweg"/>
    <tag k="addr:suburb" v="Stadtrandsiedlung Malchow"/>
    <tag k="building" v="house"/>
    <tag k="building:levels" v="2"/>
    <tag k="ele" v="54"/>
    <tag k="source" v="Land Berlin - BA Pankow"/>
  </way>
  <way id="515476200" version="11" timestamp="2025-02-12T19:53:01Z" changeset="162443374" uid="44217" user="kjon">
    <nd ref="8290198051"/>
    <nd ref="1419207876"/>
    <tag k="bicycle" v="use_sidepath"/>
    <tag k="cycleway:left" v="no"/>
    <tag k="cycleway:right" v="separate"/>
    <tag k="foot" v="use_sidepath"/>
    <tag k="highway" v="unclassified"/>
    <tag k="lanes" v="3"/>
    <tag k="lanes:backward" v="1"/>
    <tag k="lanes:forward" v="2"/>
    <tag k="lit" v="no"/>
    <tag k="maxspeed" v="50"/>
    <tag k="name" v="Am Luchgraben"/>
    <tag k="name:etymology:wikidata" v="Q1873156"/>
    <tag k="name:etymology:wikipedia" v="de:Luch (Landform)"/>
    <tag k="parking:both" v="no"/>
    <tag k="postal_code" v="13125"/>
    <tag k="sidewalk:left" v="no"/>
    <tag k="sidewalk:right" v="separate"/>
    <tag k="sidewalk:right:surface" v="asphalt"/>
    <tag k="smoothness" v="excellent"/>
    <tag k="surface" v="asphalt"/>
    <tag k="turn:lanes:forward" v="left|right"/>
  </way>
  <way id="561232825" version="8" timestamp="2023-01-23T15:55:36Z" changeset="131613942" uid="18208051" user="MappiViewer">
    <nd ref="534251596"/>
    <nd ref="1106563198"/>
    <nd ref="1557597284"/>
    <nd ref="275873362"/>
    <nd ref="114093358"/>
    <tag k="cycleway:both" v="no"/>
    <tag k="highway" v="unclassified"/>
    <tag k="lane_markings" v="no"/>
    <tag k="lit" v="no"/>
    <tag k="maxspeed" v="50"/>
    <tag k="maxweight" v="2.8"/>
    <tag k="maxweight:conditional" v="none @ destination"/>
    <tag k="name" v="Märchenweg"/>
    <tag k="name:etymology:wikidata" v="Q699"/>
    <tag k="postal_code" v="13129"/>
    <tag k="sidewalk" v="no"/>
    <tag k="smoothness" v="excellent"/>
    <tag k="surface" v="asphalt"/>
  </way>
  <way id="612964813" version="12" timestamp="2023-09-06T12:09:52Z" changeset="140892476" uid="11963177" user="JeroenvanderGun">
    <nd ref="5842159452"/>
    <nd ref="5910363714"/>
    <nd ref="5842159453"/>
    <nd ref="5842159449"/>
    <nd ref="5842159450"/>
    <nd ref="5842159451"/>
    <nd ref="968049086"/>
    <tag k="bicycle" v="use_sidepath"/>
    <tag k="cycleway:both" v="separate"/>
    <tag k="foot" v="use_sidepath"/>
    <tag k="highway" v="primary"/>
    <tag k="lanes" v="2"/>
    <tag k="lit" v="no"/>
    <tag k="maxspeed" v="70"/>
    <tag k="name" v="Bundesstraße 2"/>
    <tag k="parking:both" v="no"/>
    <tag k="postal_code" v="13051"/>
    <tag k="ref" v="B 2"/>
    <tag k="shoulder" v="no"/>
    <tag k="sidewalk:both" v="separate"/>
    <tag k="smoothness" v="excellent"/>
    <tag k="surface" v="asphalt"/>
    <tag k="zone:traffic" v="DE:urban"/>
  </way>
  <way id="618016530" version="12" timestamp="2025-02-12T19:53:01Z" changeset="162443374" uid="44217" user="kjon">
    <nd ref="5841756378"/>
    <nd ref="4200225189"/>
    <nd ref="4200225190"/>
    <nd ref="9897060611"/>
    <nd ref="1419207876"/>
    <tag k="bicycle" v="use_sidepath"/>
    <tag k="cycleway:both" v="separate"/>
    <tag k="foot" v="use_sidepath"/>
    <tag k="highway" v="primary"/>
    <tag k="lanes" v="3"/>
    <tag k="lanes:backward" v="1"/>
    <tag k="lanes:forward" v="2"/>
    <tag k="lit" v="no"/>
    <tag k="maxspeed" v="50"/>
    <tag k="name" v="Bundesstraße 2"/>
    <tag k="parking:both" v="no"/>
    <tag k="postal_code" v="13051"/>
    <tag k="ref" v="B 2"/>
    <tag k="sidewalk:both" v="separate"/>
    <tag k="smoothness" v="excellent"/>
    <tag k="surface" v="asphalt"/>
    <tag k="turn:lanes:forward" v="left|through"/>
    <tag k="zone:traffic" v="DE:urban"/>
  </way>
  <way id="618056541" version="15" timestamp="2024-06-29T09:31:25Z" changeset="153323879" uid="10961311" user="StefanHRT">
    <nd ref="968049086"/>
    <nd ref="9223442253"/>
    <nd ref="262185948"/>
    <nd ref="5910363715"/>
    <nd ref="9223442254"/>
    <nd ref="1419207869"/>
    <nd ref="9223442252"/>
    <nd ref="11749866096"/>
    <nd ref="3594795005"/>
    <nd ref="262185323"/>
    <nd ref="3594795006"/>
    <nd ref="262185957"/>
    <nd ref="390932654"/>
    <nd ref="5910363716"/>
    <tag k="bicycle" v="use_sidepath"/>
    <tag k="cycleway:both" v="separate"/>
    <tag k="foot" v="use_sidepath"/>
    <tag k="highway" v="primary"/>
    <tag k="lane_markings" v="yes"/>
    <tag k="lanes" v="2"/>
    <tag k="lit" v="no"/>
    <tag k="maxspeed" v="70"/>
    <tag k="name" v="Bundesstraße 2"/>
    <tag k="parking:both" v="no"/>
    <tag k="postal_code" v="13051"/>
    <tag k="ref" v="B 2"/>
    <tag k="shoulder" v="no"/>
    <tag k="sidewalk:both" v="separate"/>
    <tag k="smoothness" v="excellent"/>
    <tag k="surface" v="asphalt"/>
    <tag k="zone:traffic" v="DE:urban"/>
  </way>
  <way id="618056543" version="13" timestamp="2024-10-27T13:32:30Z" changeset="158413330" uid="9508237" user="momabebra">
    <nd ref="2522309245"/>
    <nd ref="2522309338"/>
    <nd ref="2522309317"/>
    <nd ref="7125140037"/>
    <nd ref="1549553101"/>
    <tag k="cycleway:left" v="separate"/>
    <tag k="cycleway:right" v="lane"/>
    <tag k="cycleway:right:lane" v="advisory"/>
    <tag k="foot" v="use_sidepath"/>
    <tag k="highway" v="primary"/>
    <tag k="lane_markings" v="yes"/>
    <tag k="lanes" v="2"/>
    <tag k="lit" v="yes"/>
    <tag k="maxspeed" v="50"/>
    <tag k="name" v="Berliner Allee"/>
    <tag k="name:etymology:wikidata" v="Q64"/>
    <tag k="parking:both" v="no"/>
    <tag k="postal_code" v="13088"/>
    <tag k="ref" v="B 2"/>
    <tag k="sidewalk:both" v="separate"/>
    <tag k="smoothness" v="good"/>
    <tag k="surface" v="asphalt"/>
    <tag k="wikidata" v="Q821393"/>
    <tag k="zone:traffic" v="DE:urban"/>
  </way>
  <way id="626027610" version="11" timestamp="2024-07-04T08:21:42Z" changeset="153532576" uid="9508237" user="momabebra">
    <nd ref="1556383951"/>
    <nd ref="5910363711"/>
    <tag k="bicycle" v="use_sidepath"/>
    <tag k="cycleway:both" v="separate"/>
    <tag k="foot" v="use_sidepath"/>
    <tag k="highway" v="primary"/>
    <tag k="lane_markings" v="yes"/>
    <tag k="lanes" v="2"/>
    <tag k="lanes:backward" v="1"/>
    <tag k="lit" v="yes"/>
    <tag k="maxspeed:backward" v="60"/>
    <tag k="maxspeed:forward" v="50"/>
    <tag k="name" v="Malchower Chaussee"/>
    <tag k="name:etymology:wikidata" v="Q563541"/>
    <tag k="parking:both" v="no"/>
    <tag k="postal_code" v="13088"/>
    <tag k="ref" v="B 2"/>
    <tag k="sidewalk:both" v="separate"/>
    <tag k="smoothness" v="excellent"/>
    <tag k="surface" v="asphalt"/>
    <tag k="wikidata" v="Q61694362"/>
    <tag k="zone:traffic" v="DE:urban"/>
  </way>
  <way id="626027612" version="10" timestamp="2025-02-12T19:53:01Z" changeset="162443374" uid="44217" user="kjon">
    <nd ref="5910363716"/>
    <nd ref="5841756378"/>
    <tag k="bicycle" v="use_sidepath"/>
    <tag k="cycleway:both" v="separate"/>
    <tag k="foot" v="use_sidepath"/>
    <tag k="highway" v="primary"/>
    <tag k="lanes" v="2"/>
    <tag k="lit" v="no"/>
    <tag k="maxspeed" v="50"/>
    <tag k="maxspeed:backward" v="70"/>
    <tag k="maxspeed:forward" v="50"/>
    <tag k="name" v="Bundesstraße 2"/>
    <tag k="parking:both" v="no"/>
    <tag k="postal_code" v="13051"/>
    <tag k="ref" v="B 2"/>
    <tag k="sidewalk:both" v="separate"/>
    <tag k="smoothness" v="excellent"/>
    <tag k="surface" v="asphalt"/>
    <tag k="zone:traffic" v="DE:urban"/>
  </way>
  <way id="762557997" version="13" timestamp="2025-02-14T19:10:26Z" changeset="162514895" uid="44217" user="kjon">
    <nd ref="7125127789"/>
    <nd ref="320259576"/>
    <tag k="bicycle" v="optional_sidepath"/>
    <tag k="bridge" v="yes"/>
    <tag k="bridge:name" v="Darßer Brücke"/>
    <tag k="cycleway:both" v="separate"/>
    <tag k="foot" v="use_sidepath"/>
    <tag k="highway" v="secondary"/>
    <tag k="lane_markings" v="yes"/>
    <tag k="lanes" v="2"/>
    <tag k="layer" v="1"/>
    <tag k="lit" v="yes"/>
    <tag k="maxspeed" v="50"/>
    <tag k="maxweight:signed" v="no"/>
    <tag k="name" v="Darßer Straße"/>
    <tag k="name:etymology:wikidata" v="Q694117"/>
    <tag k="parking:both" v="no"/>
    <tag k="postal_code" v="13088"/>
    <tag k="shoulder" v="no"/>
    <tag k="sidewalk:left" v="separate"/>
    <tag k="sidewalk:right" v="no"/>
    <tag k="surface" v="asphalt"/>
    <tag k="wikidata" v="Q1167029"/>
    <tag k="wikipedia" v="de:Darßer Brücke"/>
  </way>
  <way id="762559574" version="11" timestamp="2025-02-14T19:10:26Z" changeset="162514895" uid="44217" user="kjon">
    <nd ref="7125102263"/>
    <nd ref="7125102262"/>
    <nd ref="7125102261"/>
    <nd ref="7125102260"/>
    <nd ref="2975075552"/>
    <nd ref="928263146"/>
    <tag k="bicycle" v="use_sidepath"/>
    <tag k="cycleway:both" v="separate"/>
    <tag k="foot" v="use_sidepath"/>
    <tag k="highway" v="primary"/>
    <tag k="lanes" v="2"/>
    <tag k="lit" v="yes"/>
    <tag k="maxspeed:backward" v="60"/>
    <tag k="maxspeed:forward" v="50"/>
    <tag k="name" v="Malchower Chaussee"/>
    <tag k="name:etymology:wikidata" v="Q563541"/>
    <tag k="parking:both" v="no"/>
    <tag k="postal_code" v="13088"/>
    <tag k="ref" v="B 2"/>
    <tag k="sidewalk:both" v="separate"/>
    <tag k="smoothness" v="excellent"/>
    <tag k="surface" v="asphalt"/>
    <tag k="wikidata" v="Q61694362"/>
    <tag k="zone:traffic" v="DE:urban"/>
  </way>
  <way id="906787444" version="9" timestamp="2025-02-14T19:10:26Z" changeset="162514895" uid="44217" user="kjon">
    <nd ref="7717926867"/>
    <nd ref="114093157"/>
    <nd ref="2519032905"/>
    <nd ref="2519032900"/>
    <nd ref="30624394"/>
    <tag k="bicycle" v="optional_sidepath"/>
    <tag k="cycleway:both" v="separate"/>
    <tag k="foot" v="use_sidepath"/>
    <tag k="highway" v="secondary"/>
    <tag k="lane_markings" v="yes"/>
    <tag k="lanes" v="2"/>
    <tag k="lit" v="yes"/>
    <tag k="maxspeed" v="50"/>
    <tag k="name" v="Darßer Straße"/>
    <tag k="name:etymology:wikidata" v="Q694117"/>
    <tag k="parking:both" v="no"/>
    <tag k="postal_code" v="13088"/>
    <tag k="sidewalk:left" v="separate"/>
    <tag k="sidewalk:right" v="no"/>
    <tag k="smoothness" v="excellent"/>
    <tag k="surface" v="asphalt"/>
    <tag k="wikidata" v="Q68808741"/>
  </way>
  <way id="910534149" version="9" timestamp="2024-07-04T08:21:43Z" changeset="153532576" uid="9508237" user="momabebra">
    <nd ref="7724556475"/>
    <nd ref="2519032834"/>
    <nd ref="2519032889"/>
    <nd ref="1549598462"/>
    <tag k="bicycle" v="optional_sidepath"/>
    <tag k="cycleway:both" v="separate"/>
    <tag k="foot" v="use_sidepath"/>
    <tag k="highway" v="secondary"/>
    <tag k="lane_markings" v="yes"/>
    <tag k="lanes" v="3"/>
    <tag k="lanes:backward" v="1"/>
    <tag k="lanes:forward" v="2"/>
    <tag k="lit" v="yes"/>
    <tag k="maxspeed" v="50"/>
    <tag k="name" v="Roelckestraße"/>
    <tag k="name:etymology:wikidata" v="Q1612498"/>
    <tag k="parking:both" v="no"/>
    <tag k="postal_code" v="13088"/>
    <tag k="sidewalk:both" v="separate"/>
    <tag k="smoothness" v="excellent"/>
    <tag k="surface" v="asphalt"/>
    <tag k="wikidata" v="Q1417499"/>
  </way>
  <way id="974623533" version="2" timestamp="2023-05-20T13:21:50Z" changeset="136336891" uid="6617985" user="masix">
    <nd ref="9019776362"/>
    <nd ref="9019776363"/>
    <nd ref="9019776364"/>
    <nd ref="9019776365"/>
    <nd ref="2913742337"/>
    <nd ref="2913744405"/>
    <nd ref="2913742236"/>
    <nd ref="9019776362"/>
    <tag k="addr:city" v="Berlin"/>
    <tag k="addr:housenumber" v="14"/>
    <tag k="addr:postcode" v="13088"/>
    <tag k="addr:street" v="Gnomenplatz"/>
    <tag k="building" v="semidetached_house"/>
    <tag k="building:levels" v="2"/>
    <tag k="height" v="5"/>
  </way>
  <way id="1036050868" version="4" timestamp="2024-07-07T09:58:46Z" changeset="153654334" uid="10961311" user="StefanHRT">
    <nd ref="259044772"/>
    <nd ref="4815985197"/>
    <tag k="cycleway:left" v="track"/>
    <tag k="cycleway:right" v="no"/>
    <tag k="hazard" v="children"/>
    <tag k="highway" v="primary"/>
    <tag k="image" v="https://commons.wikimedia.org/wiki/File:Dorfstraße_(Berlin-Malchow).jpg"/>
    <tag k="lanes" v="2"/>
    <tag k="lit" v="yes"/>
    <tag k="maxspeed" v="50"/>
    <tag k="maxspeed:conditional" v="30 @ (Mo-Fr 06:00-18:00)"/>
    <tag k="name" v="Dorfstraße"/>
    <tag k="postal_code" v="13051"/>
    <tag k="ref" v="B 2"/>
    <tag k="sidewalk" v="both"/>
    <tag k="sidewalk:both:surface" v="paving_stones"/>
    <tag k="sidewalk:right:bicycle" v="yes"/>
    <tag k="sidewalk:right:traffic_sign" v="DE:239,1022-10"/>
    <tag k="smoothness" v="excellent"/>
    <tag k="surface" v="asphalt"/>
    <tag k="wikidata" v="Q25089397"/>
    <tag k="wikimedia_commons" v="Category:Dorfstraße (Berlin-Malchow)"/>
    <tag k="wikipedia" v="de:Dorfstraße (Berlin-Malchow)"/>
    <tag k="zone:traffic" v="DE:urban"/>
  </way>
  <way id="1083977916" version="8" timestamp="2025-02-14T19:10:26Z" changeset="162514895" uid="44217" user="kjon">
    <nd ref="30624616"/>
    <nd ref="4313424889"/>
    <tag k="bicycle" v="optional_sidepath"/>
    <tag k="cycleway:both" v="separate"/>
    <tag k="foot" v="use_sidepath"/>
    <tag k="highway" v="secondary"/>
    <tag k="lane_markings" v="yes"/>
    <tag k="lanes" v="2"/>
    <tag k="lit" v="yes"/>
    <tag k="maxspeed" v="50"/>
    <tag k="name" v="Darßer Straße"/>
    <tag k="name:etymology:wikidata" v="Q694117"/>
    <tag k="parking:both" v="no"/>
    <tag k="postal_code" v="13051"/>
    <tag k="sidewalk:left" v="no"/>
    <tag k="sidewalk:right" v="separate"/>
    <tag k="smoothness" v="intermediate"/>
    <tag k="surface" v="concrete"/>
    <tag k="wikidata" v="Q68808741"/>
  </way>
  <way id="1091569975" version="5" timestamp="2025-03-27T18:24:31Z" changeset="164176967" uid="44217" user="kjon">
    <nd ref="1552142551"/>
    <nd ref="12705470510"/>
    <nd ref="12705470507"/>
    <nd ref="1552133000"/>
    <nd ref="247636904"/>
    <tag k="cycleway:both" v="no"/>
    <tag k="foot" v="use_sidepath"/>
    <tag k="highway" v="tertiary"/>
    <tag k="lane_markings" v="no"/>
    <tag k="lit" v="yes"/>
    <tag k="maxspeed" v="30"/>
    <tag k="maxspeed:type" v="sign"/>
    <tag k="name" v="Ortnitstraße"/>
    <tag k="name:etymology:wikidata" v="Q1789855"/>
    <tag k="note" v="Ergänzungsstraße mit besonderer Bedeutung"/>
    <tag k="postal_code" v="13088"/>
    <tag k="sidewalk:left" v="no"/>
    <tag k="sidewalk:right" v="separate"/>
    <tag k="smoothness" v="excellent"/>
    <tag k="source:maxspeed" v="sign"/>
    <tag k="surface" v="asphalt"/>
    <tag k="wikidata" v="Q90774683"/>
  </way>
  <way id="1134440277" version="6" timestamp="2023-11-27T03:24:37Z" changeset="144491254" uid="10961311" user="StefanHRT">
    <nd ref="30624617"/>
    <nd ref="11280628729"/>
    <nd ref="10576069772"/>
    <nd ref="10576069755"/>
    <tag k="cycleway:both" v="no"/>
    <tag k="foot" v="use_sidepath"/>
    <tag k="highway" v="residential"/>
    <tag k="lane_markings" v="no"/>
    <tag k="lit" v="yes"/>
    <tag k="maxspeed:type" v="DE:urban"/>
    <tag k="name" v="Saaler Bogen"/>
    <tag k="name:etymology:wikidata" v="Q672735"/>
    <tag k="name:etymology:wikipedia" v="de:Saal (Vorpommern)"/>
    <tag k="postal_code" v="13051"/>
    <tag k="sidewalk" v="separate"/>
    <tag k="smoothness" v="good"/>
    <tag k="surface" v="concrete"/>
  </way>
  <way id="1134449895" version="5" timestamp="2025-02-14T19:10:26Z" changeset="162514895" uid="44217" user="kjon">
    <nd ref="30624617"/>
    <nd ref="10576164261"/>
    <tag k="bicycle" v="optional_sidepath"/>
    <tag k="cycleway:both" v="separate"/>
    <tag k="foot" v="use_sidepath"/>
    <tag k="highway" v="secondary"/>
    <tag k="lane_markings" v="yes"/>
    <tag k="lanes" v="2"/>
    <tag k="lit" v="yes"/>
    <tag k="maxspeed" v="50"/>
    <tag k="name" v="Darßer Straße"/>
    <tag k="name:etymology:wikidata" v="Q694117"/>
    <tag k="parking:both" v="no"/>
    <tag k="postal_code" v="13051"/>
    <tag k="sidewalk:left" v="no"/>
    <tag k="sidewalk:right" v="separate"/>
    <tag k="smoothness" v="intermediate"/>
    <tag k="surface" v="concrete"/>
    <tag k="wikidata" v="Q68808741"/>
  </way>
  <way id="1134449896" version="5" timestamp="2025-02-14T19:10:26Z" changeset="162514895" uid="44217" user="kjon">
    <nd ref="10576164261"/>
    <nd ref="30624616"/>
    <tag k="bicycle" v="optional_sidepath"/>
    <tag k="cycleway:both" v="separate"/>
    <tag k="foot" v="use_sidepath"/>
    <tag k="highway" v="secondary"/>
    <tag k="lane_markings" v="yes"/>
    <tag k="lanes" v="3"/>
    <tag k="lanes:backward" v="1"/>
    <tag k="lanes:forward" v="2"/>
    <tag k="lit" v="yes"/>
    <tag k="maxspeed" v="50"/>
    <tag k="name" v="Darßer Straße"/>
    <tag k="name:etymology:wikidata" v="Q694117"/>
    <tag k="parking:both" v="no"/>
    <tag k="postal_code" v="13051"/>
    <tag k="sidewalk:left" v="no"/>
    <tag k="sidewalk:right" v="separate"/>
    <tag k="smoothness" v="intermediate"/>
    <tag k="surface" v="concrete"/>
    <tag k="wikidata" v="Q68808741"/>
  </way>
  <way id="1134449897" version="3" timestamp="2024-09-22T20:07:36Z" changeset="156966917" uid="9004390" user="JasperAl">
    <nd ref="5778373453"/>
    <nd ref="11280628710"/>
    <nd ref="30624409"/>
    <tag k="cycleway:left" v="lane"/>
    <tag k="cycleway:left:lane" v="advisory"/>
    <tag k="cycleway:right" v="separate"/>
    <tag k="foot" v="use_sidepath"/>
    <tag k="highway" v="tertiary"/>
    <tag k="lane_markings" v="yes"/>
    <tag k="lanes" v="3"/>
    <tag k="lanes:backward" v="1"/>
    <tag k="lanes:forward" v="2"/>
    <tag k="lit" v="yes"/>
    <tag k="maxspeed" v="50"/>
    <tag k="name" v="Piesporter Straße"/>
    <tag k="name:etymology:wikidata" v="Q375762"/>
    <tag k="postal_code" v="13088"/>
    <tag k="sidewalk:both" v="separate"/>
    <tag k="surface" v="asphalt"/>
    <tag k="turn:lanes:forward" v="left|through;right"/>
    <tag k="wikidata" v="Q69468310"/>
  </way>
  <way id="1134449898" version="6" timestamp="2025-02-14T19:10:26Z" changeset="162514895" uid="44217" user="kjon">
    <nd ref="30624409"/>
    <nd ref="11280861842"/>
    <nd ref="5778373455"/>
    <tag k="bicycle" v="optional_sidepath"/>
    <tag k="cycleway:both" v="separate"/>
    <tag k="foot" v="use_sidepath"/>
    <tag k="highway" v="primary_link"/>
    <tag k="lane_markings" v="yes"/>
    <tag k="lanes" v="3"/>
    <tag k="lanes:backward" v="2"/>
    <tag k="lanes:forward" v="1"/>
    <tag k="lit" v="yes"/>
    <tag k="maxspeed" v="50"/>
    <tag k="name" v="Piesporter Straße"/>
    <tag k="name:etymology:wikidata" v="Q375762"/>
    <tag k="parking:both" v="no"/>
    <tag k="postal_code" v="13088"/>
    <tag k="sidewalk:left" v="no"/>
    <tag k="sidewalk:right" v="separate"/>
    <tag k="smoothness" v="good"/>
    <tag k="surface" v="concrete"/>
    <tag k="turn:lanes:backward" v="left|through;right"/>
    <tag k="wikidata" v="Q69468310"/>
  </way>
  <way id="1134449906" version="7" timestamp="2025-02-14T19:10:26Z" changeset="162514895" uid="44217" user="kjon">
    <nd ref="4313424890"/>
    <nd ref="8895698437"/>
    <tag k="bicycle" v="use_sidepath"/>
    <tag k="cycleway:both" v="separate"/>
    <tag k="foot" v="use_sidepath"/>
    <tag k="highway" v="primary"/>
    <tag k="lane_markings" v="yes"/>
    <tag k="lanes" v="2"/>
    <tag k="lanes:backward" v="1"/>
    <tag k="lit" v="yes"/>
    <tag k="maxspeed:backward" v="60"/>
    <tag k="maxspeed:forward" v="50"/>
    <tag k="name" v="Malchower Chaussee"/>
    <tag k="name:etymology:wikidata" v="Q563541"/>
    <tag k="parking:both" v="no"/>
    <tag k="postal_code" v="13088"/>
    <tag k="ref" v="B 2"/>
    <tag k="sidewalk:both" v="separate"/>
    <tag k="smoothness" v="excellent"/>
    <tag k="surface" v="asphalt"/>
    <tag k="wikidata" v="Q61694362"/>
    <tag k="zone:traffic" v="DE:urban"/>
  </way>
  <way id="1134451839" version="7" timestamp="2024-10-27T13:32:29Z" changeset="158413330" uid="9508237" user="momabebra">
    <nd ref="10576164858"/>
    <nd ref="7125140035"/>
    <nd ref="7125140036"/>
    <nd ref="9694194890"/>
    <nd ref="12291836891"/>
    <tag k="cycleway:both" v="separate"/>
    <tag k="foot" v="use_sidepath"/>
    <tag k="highway" v="residential"/>
    <tag k="lane_markings" v="no"/>
    <tag k="lit" v="yes"/>
    <tag k="maxspeed" v="50"/>
    <tag k="name" v="Nachtalbenweg"/>
    <tag k="name:etymology:wikidata" v="Q1262457"/>
    <tag k="parking:both" v="no"/>
    <tag k="postal_code" v="13088"/>
    <tag k="sidewalk:both" v="separate"/>
    <tag k="smoothness" v="excellent"/>
    <tag k="surface" v="asphalt"/>
  </way>
  <way id="1134451845" version="4" timestamp="2025-02-14T19:10:26Z" changeset="162514895" uid="44217" user="kjon">
    <nd ref="1549553099"/>
    <nd ref="7717926864"/>
    <tag k="bicycle" v="optional_sidepath"/>
    <tag k="cycleway:both" v="separate"/>
    <tag k="foot" v="use_sidepath"/>
    <tag k="highway" v="secondary"/>
    <tag k="lane_markings" v="yes"/>
    <tag k="lanes" v="2"/>
    <tag k="lit" v="yes"/>
    <tag k="maxspeed" v="50"/>
    <tag k="name" v="Darßer Straße"/>
    <tag k="name:etymology:wikidata" v="Q694117"/>
    <tag k="parking:both" v="no"/>
    <tag k="postal_code" v="13088"/>
    <tag k="sidewalk:both" v="separate"/>
    <tag k="smoothness" v="excellent"/>
    <tag k="surface" v="asphalt"/>
    <tag k="wikidata" v="Q68808741"/>
  </way>
  <way id="1134451846" version="5" timestamp="2025-02-14T19:10:26Z" changeset="162514895" uid="44217" user="kjon">
    <nd ref="7717926864"/>
    <nd ref="7717926867"/>
    <tag k="bicycle" v="optional_sidepath"/>
    <tag k="cycleway:both" v="separate"/>
    <tag k="foot" v="use_sidepath"/>
    <tag k="highway" v="secondary"/>
    <tag k="lane_markings" v="yes"/>
    <tag k="lanes" v="3"/>
    <tag k="lanes:backward" v="2"/>
    <tag k="lanes:forward" v="1"/>
    <tag k="lit" v="yes"/>
    <tag k="maxspeed" v="50"/>
    <tag k="name" v="Darßer Straße"/>
    <tag k="name:etymology:wikidata" v="Q694117"/>
    <tag k="parking:both" v="no"/>
    <tag k="postal_code" v="13088"/>
    <tag k="sidewalk:both" v="separate"/>
    <tag k="smoothness" v="excellent"/>
    <tag k="surface" v="asphalt"/>
    <tag k="wikidata" v="Q68808741"/>
  </way>
  <way id="1134459167" version="4" timestamp="2024-07-04T08:21:43Z" changeset="153532576" uid="9508237" user="momabebra">
    <nd ref="1549598462"/>
    <nd ref="7717926849"/>
    <tag k="bicycle" v="optional_sidepath"/>
    <tag k="cycleway:both" v="separate"/>
    <tag k="foot" v="use_sidepath"/>
    <tag k="highway" v="secondary"/>
    <tag k="lane_markings" v="yes"/>
    <tag k="lanes" v="2"/>
    <tag k="lit" v="yes"/>
    <tag k="maxspeed" v="50"/>
    <tag k="name" v="Darßer Straße"/>
    <tag k="name:etymology:wikidata" v="Q694117"/>
    <tag k="parking:both" v="no"/>
    <tag k="postal_code" v="13088"/>
    <tag k="sidewalk:both" v="separate"/>
    <tag k="smoothness" v="excellent"/>
    <tag k="surface" v="asphalt"/>
    <tag k="wikidata" v="Q68808741"/>
  </way>
  <way id="1134474624" version="3" timestamp="2023-11-27T03:32:16Z" changeset="144491369" uid="10961311" user="StefanHRT">
    <nd ref="247636986"/>
    <nd ref="7945513387"/>
    <tag k="cycleway:both" v="no"/>
    <tag k="foot" v="use_sidepath"/>
    <tag k="highway" v="residential"/>
    <tag k="lane_markings" v="no"/>
    <tag k="lit" v="yes"/>
    <tag k="maxspeed" v="30"/>
    <tag k="maxspeed:type" v="DE:zone30"/>
    <tag k="maxweight" v="2.8"/>
    <tag k="maxweight:conditional" v="none @ destination"/>
    <tag k="name" v="Schwarzelfenweg"/>
    <tag k="name:etymology:wikidata" v="Q174396"/>
    <tag k="postal_code" v="13088"/>
    <tag k="sidewalk:left" v="no"/>
    <tag k="sidewalk:right" v="separate"/>
    <tag k="smoothness" v="intermediate"/>
    <tag k="source:maxspeed" v="DE:zone30"/>
    <tag k="surface" v="asphalt"/>
    <tag k="traffic_sign" v="DE:274.1"/>
    <tag k="zone:maxspeed" v="DE:30"/>
  </way>
  <way id="1134511563" version="1" timestamp="2023-01-23T14:04:35Z" changeset="131609453" uid="18208051" user="MappiViewer">
    <nd ref="1554831506"/>
    <nd ref="9997930176"/>
    <nd ref="10576704610"/>
    <nd ref="2913874607"/>
    <nd ref="1837346743"/>
    <tag k="cycleway:both" v="no"/>
    <tag k="highway" v="residential"/>
    <tag k="lane_markings" v="no"/>
    <tag k="lit" v="yes"/>
    <tag k="maxspeed" v="30"/>
    <tag k="maxspeed:type" v="DE:zone30"/>
    <tag k="name" v="Muspelsteig"/>
    <tag k="name:etymology:wikidata" v="Q675304"/>
    <tag k="oneway" v="no"/>
    <tag k="postal_code" v="13088"/>
    <tag k="sidewalk:both" v="no"/>
    <tag k="smoothness" v="intermediate"/>
    <tag k="source:maxspeed" v="DE:zone30"/>
    <tag k="surface" v="concrete"/>
    <tag k="traffic_sign" v="DE:274.1"/>
    <tag k="zone:maxspeed" v="DE:30"/>
  </way>
  <way id="1134511564" version="1" timestamp="2023-01-23T14:04:35Z" changeset="131609453" uid="18208051" user="MappiViewer">
    <nd ref="1837346743"/>
    <nd ref="2913873818"/>
    <nd ref="10576704612"/>
    <tag k="cycleway:both" v="no"/>
    <tag k="highway" v="residential"/>
    <tag k="lane_markings" v="no"/>
    <tag k="lit" v="yes"/>
    <tag k="maxspeed" v="30"/>
    <tag k="maxspeed:type" v="DE:zone30"/>
    <tag k="name" v="Muspelsteig"/>
    <tag k="name:etymology:wikidata" v="Q675304"/>
    <tag k="oneway" v="no"/>
    <tag k="postal_code" v="13088"/>
    <tag k="sidewalk:both" v="no"/>
    <tag k="smoothness" v="intermediate"/>
    <tag k="source:maxspeed" v="DE:zone30"/>
    <tag k="surface" v="asphalt"/>
    <tag k="traffic_sign" v="DE:274.1"/>
    <tag k="zone:maxspeed" v="DE:30"/>
  </way>
  <way id="1134511565" version="3" timestamp="2023-05-25T14:33:25Z" changeset="136547120" uid="3020814" user="BER319">
    <nd ref="247636814"/>
    <nd ref="2843107721"/>
    <nd ref="10926425155"/>
    <nd ref="114093304"/>
    <tag k="cycleway:both" v="no"/>
    <tag k="highway" v="residential"/>
    <tag k="lane_markings" v="no"/>
    <tag k="lit" v="yes"/>
    <tag k="maxspeed" v="30"/>
    <tag k="maxspeed:type" v="DE:zone30"/>
    <tag k="name" v="Haakonweg"/>
    <tag k="name:etymology:wikidata" v="Q316039"/>
    <tag k="oneway" v="yes"/>
    <tag k="postal_code" v="13088"/>
    <tag k="sidewalk:both" v="no"/>
    <tag k="smoothness" v="good"/>
    <tag k="source:maxspeed" v="DE:zone30"/>
    <tag k="surface" v="asphalt"/>
    <tag k="traffic_sign" v="DE:274.1"/>
    <tag k="zone:maxspeed" v="DE:30"/>
  </way>
  <way id="1134530306" version="4" timestamp="2024-07-04T08:21:43Z" changeset="153532576" uid="9508237" user="momabebra">
    <nd ref="4517410577"/>
    <nd ref="2519032914"/>
    <nd ref="2519032874"/>
    <nd ref="7724556475"/>
    <tag k="bicycle" v="optional_sidepath"/>
    <tag k="cycleway:both" v="separate"/>
    <tag k="foot" v="use_sidepath"/>
    <tag k="highway" v="secondary"/>
    <tag k="lane_markings" v="yes"/>
    <tag k="lanes" v="2"/>
    <tag k="lit" v="yes"/>
    <tag k="maxspeed" v="50"/>
    <tag k="name" v="Roelckestraße"/>
    <tag k="name:etymology:wikidata" v="Q1612498"/>
    <tag k="parking:both" v="no"/>
    <tag k="postal_code" v="13088"/>
    <tag k="sidewalk:both" v="separate"/>
    <tag k="smoothness" v="excellent"/>
    <tag k="surface" v="asphalt"/>
    <tag k="wikidata" v="Q1417499"/>
  </way>
  <way id="1134530307" version="1" timestamp="2023-01-23T15:22:38Z" changeset="131612406" uid="18208051" user="MappiViewer">
    <nd ref="1549598498"/>
    <nd ref="1549598417"/>
    <tag k="cycleway:both" v="no"/>
    <tag k="highway" v="residential"/>
    <tag k="lane_markings" v="no"/>
    <tag k="lit" v="yes"/>
    <tag k="maxspeed" v="30"/>
    <tag k="maxspeed:type" v="DE:zone30"/>
    <tag k="maxweight" v="2.8"/>
    <tag k="maxweight:conditional" v="none @ destination"/>
    <tag k="name" v="Nornenweg"/>
    <tag k="name:etymology:wikidata" v="Q204608"/>
    <tag k="postal_code" v="13088"/>
    <tag k="sidewalk:both" v="no"/>
    <tag k="smoothness" v="good"/>
    <tag k="source:maxspeed" v="DE:zone30"/>
    <tag k="surface" v="asphalt"/>
    <tag k="traffic_sign" v="DE:274.1"/>
    <tag k="zone:maxspeed" v="DE:30"/>
  </way>
  <way id="1134542516" version="1" timestamp="2023-01-23T16:16:32Z" changeset="131614675" uid="18208051" user="MappiViewer">
    <nd ref="1549598469"/>
    <nd ref="9997930184"/>
    <nd ref="1549598443"/>
    <nd ref="1549598493"/>
    <nd ref="1549598434"/>
    <nd ref="1549598440"/>
    <nd ref="1549598466"/>
    <tag k="cycleway:both" v="no"/>
    <tag k="highway" v="residential"/>
    <tag k="lane_markings" v="no"/>
    <tag k="lit" v="yes"/>
    <tag k="maxspeed" v="30"/>
    <tag k="maxspeed:type" v="DE:zone30"/>
    <tag k="maxweight" v="2.8"/>
    <tag k="maxweight:conditional" v="none @ destination"/>
    <tag k="name" v="Jötunsteig"/>
    <tag k="name:etymology:wikidata" v="Q210053"/>
    <tag k="postal_code" v="13088"/>
    <tag k="sidewalk:both" v="no"/>
    <tag k="smoothness" v="good"/>
    <tag k="source" v="Geoportal Berlin / Hauskoordinaten"/>
    <tag k="source:maxspeed" v="DE:zone30"/>
    <tag k="surface" v="asphalt"/>
    <tag k="traffic_sign" v="DE:274.1"/>
    <tag k="zone:maxspeed" v="DE:30"/>
  </way>
  <way id="1137220405" version="5" timestamp="2025-02-14T19:10:26Z" changeset="162514895" uid="44217" user="kjon">
    <nd ref="10601028851"/>
    <nd ref="5778373459"/>
    <nd ref="5778373454"/>
    <nd ref="11280602635"/>
    <nd ref="30624409"/>
    <tag k="bicycle" v="optional_sidepath"/>
    <tag k="cycleway:both" v="separate"/>
    <tag k="foot" v="use_sidepath"/>
    <tag k="highway" v="secondary"/>
    <tag k="lane_markings" v="yes"/>
    <tag k="lanes" v="4"/>
    <tag k="lanes:backward" v="1"/>
    <tag k="lanes:forward" v="3"/>
    <tag k="lit" v="yes"/>
    <tag k="maxspeed" v="50"/>
    <tag k="name" v="Darßer Straße"/>
    <tag k="name:etymology:wikidata" v="Q694117"/>
    <tag k="parking:both" v="no"/>
    <tag k="postal_code" v="13051"/>
    <tag k="sidewalk:both" v="separate"/>
    <tag k="smoothness" v="good"/>
    <tag k="surface" v="asphalt"/>
    <tag k="turn:lanes:forward" v="left|through|right"/>
    <tag k="wikidata" v="Q68808741"/>
  </way>
  <way id="1147596099" version="5" timestamp="2025-02-14T19:10:26Z" changeset="162514895" uid="44217" user="kjon">
    <nd ref="1549660326"/>
    <nd ref="7475567046"/>
    <tag k="cycleway" v="track"/>
    <tag k="foot" v="use_sidepath"/>
    <tag k="hazard" v="children"/>
    <tag k="highway" v="primary"/>
    <tag k="lanes" v="2"/>
    <tag k="lit" v="yes"/>
    <tag k="maxspeed" v="50"/>
    <tag k="maxspeed:conditional" v="30 @ (Mo-Fr 06:00-18:00)"/>
    <tag k="name" v="Malchower Chaussee"/>
    <tag k="name:etymology:wikidata" v="Q563541"/>
    <tag k="parking:both" v="no"/>
    <tag k="postal_code" v="13051"/>
    <tag k="ref" v="B 2"/>
    <tag k="sidewalk:both" v="separate"/>
    <tag k="smoothness" v="excellent"/>
    <tag k="surface" v="asphalt"/>
    <tag k="wikidata" v="Q61694362"/>
    <tag k="zone:traffic" v="DE:urban"/>
  </way>
  <way id="1147596104" version="3" timestamp="2023-02-19T12:54:24Z" changeset="132746693" uid="18208051" user="MappiViewer">
    <nd ref="7475567045"/>
    <nd ref="1549660326"/>
    <tag k="cycleway:both" v="lane"/>
    <tag k="cycleway:both:lane" v="advisory"/>
    <tag k="foot" v="use_sidepath"/>
    <tag k="highway" v="tertiary"/>
    <tag k="lanes" v="2"/>
    <tag k="lit" v="yes"/>
    <tag k="maxspeed" v="50"/>
    <tag k="name" v="Ortnitstraße"/>
    <tag k="name:etymology:wikidata" v="Q1789855"/>
    <tag k="name:etymology:wikipedia" v="de:Ortnit"/>
    <tag k="postal_code" v="13088"/>
    <tag k="sidewalk:both" v="separate"/>
    <tag k="smoothness" v="excellent"/>
    <tag k="surface" v="asphalt"/>
  </way>
  <way id="1205473261" version="2" timestamp="2025-02-12T19:53:01Z" changeset="162443374" uid="44217" user="kjon">
    <nd ref="9552374545"/>
    <nd ref="1419207876"/>
    <tag k="bicycle" v="use_sidepath"/>
    <tag k="cycleway:both" v="separate"/>
    <tag k="foot" v="use_sidepath"/>
    <tag k="highway" v="primary"/>
    <tag k="lanes" v="2"/>
    <tag k="lanes:backward" v="1"/>
    <tag k="lit" v="no"/>
    <tag k="maxspeed" v="50"/>
    <tag k="parking:both" v="no"/>
    <tag k="postal_code" v="16356"/>
    <tag k="ref" v="B 2"/>
    <tag k="sidewalk:both" v="separate"/>
    <tag k="smoothness" v="good"/>
    <tag k="surface" v="asphalt"/>
    <tag k="zone:traffic" v="DE:urban"/>
  </way>
  <way id="1217456796" version="2" timestamp="2024-09-22T20:07:35Z" changeset="156966917" uid="9004390" user="JasperAl">
    <nd ref="11280602655"/>
    <nd ref="11280628707"/>
    <nd ref="30687247"/>
    <tag k="cycleway:left" v="no"/>
    <tag k="cycleway:right" v="lane"/>
    <tag k="cycleway:right:lane" v="advisory"/>
    <tag k="foot" v="use_sidepath"/>
    <tag k="highway" v="tertiary"/>
    <tag k="lanes" v="2"/>
    <tag k="lit" v="yes"/>
    <tag k="maxspeed" v="50"/>
    <tag k="name" v="Piesporter Straße"/>
    <tag k="name:etymology:wikidata" v="Q375762"/>
    <tag k="postal_code" v="13088"/>
    <tag k="sidewalk:both" v="separate"/>
    <tag k="surface" v="asphalt"/>
    <tag k="wikidata" v="Q69468310"/>
  </way>
  <way id="1217668594" version="3" timestamp="2024-10-27T13:32:30Z" changeset="158413330" uid="9508237" user="momabebra">
    <nd ref="7717926864"/>
    <nd ref="11280974357"/>
    <nd ref="9934375244"/>
    <nd ref="10576164872"/>
    <nd ref="11282584703"/>
    <tag k="cycleway:both" v="separate"/>
    <tag k="foot" v="use_sidepath"/>
    <tag k="highway" v="residential"/>
    <tag k="lane_markings" v="no"/>
    <tag k="lit" v="yes"/>
    <tag k="maxspeed" v="50"/>
    <tag k="name" v="Nachtalbenweg"/>
    <tag k="name:etymology:wikidata" v="Q1262457"/>
    <tag k="parking:both" v="no"/>
    <tag k="postal_code" v="13088"/>
    <tag k="sidewalk:both" v="separate"/>
    <tag k="smoothness" v="excellent"/>
    <tag k="surface" v="asphalt"/>
  </way>
  <way id="1227070090" version="1" timestamp="2023-11-27T03:24:37Z" changeset="144491254" uid="10961311" user="StefanHRT">
    <nd ref="1610665948"/>
    <nd ref="3887703815"/>
    <nd ref="3887703806"/>
    <nd ref="3334101391"/>
    <nd ref="3887703805"/>
    <nd ref="3887703811"/>
    <nd ref="10576164283"/>
    <nd ref="10576164281"/>
    <nd ref="3887703817"/>
    <nd ref="3887703821"/>
    <nd ref="3887703822"/>
    <nd ref="10576164285"/>
    <nd ref="1610665948"/>
    <tag k="cycleway:both" v="no"/>
    <tag k="foot" v="use_sidepath"/>
    <tag k="highway" v="residential"/>
    <tag k="lit" v="yes"/>
    <tag k="name" v="Darßer Bogen"/>
    <tag k="name:etymology:wikidata" v="Q694117"/>
    <tag k="name:etymology:wikipedia" v="de:Darß"/>
    <tag k="postal_code" v="13088"/>
    <tag k="sidewalk:left" v="no"/>
    <tag k="sidewalk:right" v="separate"/>
    <tag k="surface" v="asphalt"/>
  </way>
  <way id="1328564619" version="2" timestamp="2024-10-27T13:32:30Z" changeset="158413330" uid="9508237" user="momabebra">
    <nd ref="11282584703"/>
    <nd ref="4519260046"/>
    <nd ref="6776659141"/>
    <nd ref="10576164867"/>
    <nd ref="1549553104"/>
    <tag k="cycleway:both" v="separate"/>
    <tag k="foot" v="use_sidepath"/>
    <tag k="highway" v="residential"/>
    <tag k="lane_markings" v="no"/>
    <tag k="lit" v="yes"/>
    <tag k="maxspeed" v="50"/>
    <tag k="name" v="Nachtalbenweg"/>
    <tag k="name:etymology:wikidata" v="Q1262457"/>
    <tag k="parking:both" v="no"/>
    <tag k="postal_code" v="13088"/>
    <tag k="sidewalk:both" v="separate"/>
    <tag k="smoothness" v="excellent"/>
    <tag k="surface" v="asphalt"/>
  </way>
  <way id="1328564623" version="2" timestamp="2024-10-27T13:32:29Z" changeset="158413330" uid="9508237" user="momabebra">
    <nd ref="12291836891"/>
    <nd ref="7125140037"/>
    <tag k="cycleway:both" v="no"/>
    <tag k="foot" v="use_sidepath"/>
    <tag k="highway" v="residential"/>
    <tag k="lane_markings" v="no"/>
    <tag k="lit" v="yes"/>
    <tag k="maxspeed" v="50"/>
    <tag k="name" v="Nachtalbenweg"/>
    <tag k="name:etymology:wikidata" v="Q1262457"/>
    <tag k="parking:both" v="no"/>
    <tag k="postal_code" v="13088"/>
    <tag k="sidewalk:both" v="separate"/>
    <tag k="smoothness" v="excellent"/>
    <tag k="surface" v="asphalt"/>
  </way>
  <way id="1356009314" version="1" timestamp="2025-02-01T20:09:17Z" changeset="162024647" uid="44217" user="kjon">
    <nd ref="1552142550"/>
    <nd ref="1552156142"/>
    <nd ref="1552142548"/>
    <nd ref="10576511106"/>
    <nd ref="1552142547"/>
    <tag k="cycleway:both" v="no"/>
    <tag k="highway" v="residential"/>
    <tag k="lane_markings" v="no"/>
    <tag k="lit" v="yes"/>
    <tag k="maxspeed" v="30"/>
    <tag k="maxspeed:type" v="DE:zone30"/>
    <tag k="name" v="Schwarzelfenweg"/>
    <tag k="name:etymology:wikidata" v="Q174396"/>
    <tag k="postal_code" v="13088"/>
    <tag k="sidewalk" v="right"/>
    <tag k="sidewalk:right:surface" v="concrete"/>
    <tag k="smoothness" v="good"/>
    <tag k="source:maxspeed" v="DE:zone30"/>
    <tag k="surface" v="asphalt"/>
    <tag k="traffic_sign" v="DE:274.1"/>
    <tag k="zone:maxspeed" v="DE:30"/>
  </way>

</osm>
