<?xml version="1.0" encoding="UTF-8"?>
<osm version="0.6" generator="Overpass API 0.7.62.5 1bd436f1">
<note>The data included in this document is from www.openstreetmap.org. The data is made available under ODbL.</note>
<meta osm_base="2025-05-18T07:48:42Z" areas="2024-12-31T00:49:33Z"/>

  <node id="21631646" lat="50.0897867" lon="14.3515109" version="6" timestamp="2022-07-14T09:18:18Z" changeset="123598911" uid="6588887" user="Martin2035"/>
  <node id="21631652" lat="50.0921979" lon="14.3685116" version="5" timestamp="2018-01-02T09:25:22Z" changeset="55094920" uid="1558400" user="Kudej"/>
  <node id="25693791" lat="50.0939486" lon="14.3369918" version="3" timestamp="2015-03-23T17:58:06Z" changeset="29684372" uid="102554" user="Jezevec"/>
  <node id="25693903" lat="50.0888106" lon="14.3470131" version="5" timestamp="2018-01-08T13:12:24Z" changeset="55264401" uid="1558400" user="Kudej"/>
  <node id="25694439" lat="50.0879386" lon="14.3442107" version="7" timestamp="2025-04-12T22:26:22Z" changeset="164874324" uid="4018695" user="ðŸ‡¨ðŸ‡¿ Roman HornÃ­k"/>
  <node id="25694694" lat="50.0887660" lon="14.3407869" version="4" timestamp="2025-04-12T22:26:22Z" changeset="164874324" uid="4018695" user="ðŸ‡¨ðŸ‡¿ Roman HornÃ­k"/>
  <node id="25694711" lat="50.0890773" lon="14.3395958" version="2" timestamp="2008-09-16T18:49:34Z" changeset="647171" uid="17615" user="Petr DlouhÃ½"/>
  <node id="25694843" lat="50.0871307" lon="14.3409894" version="5" timestamp="2021-01-28T12:29:44Z" changeset="98296530" uid="11276832" user="HaPe-CZ"/>
  <node id="25696337" lat="50.0915367" lon="14.3286071" version="4" timestamp="2025-04-12T22:26:22Z" changeset="164874324" uid="4018695" user="ðŸ‡¨ðŸ‡¿ Roman HornÃ­k"/>
  <node id="25696345" lat="50.0907986" lon="14.3289924" version="1" timestamp="2007-02-06T23:17:05Z" changeset="210101" uid="1066" user="pavel"/>
  <node id="25696363" lat="50.0922882" lon="14.3285967" version="3" timestamp="2025-04-12T22:26:22Z" changeset="164874324" uid="4018695" user="ðŸ‡¨ðŸ‡¿ Roman HornÃ­k"/>
  <node id="26804260" lat="50.0949115" lon="14.3528654" version="3" timestamp="2018-05-03T16:55:35Z" changeset="58654008" uid="255936" user="NyanSten"/>
  <node id="28807421" lat="50.0942270" lon="14.3662960" version="3" timestamp="2014-01-18T19:05:05Z" changeset="20071906" uid="1728170" user="george65"/>
  <node id="28807424" lat="50.0930380" lon="14.3663659" version="7" timestamp="2022-01-08T20:46:53Z" changeset="115923226" uid="1189910" user="Milancer"/>
  <node id="31908409" lat="50.0927118" lon="14.3283150" version="6" timestamp="2025-04-12T22:26:22Z" changeset="164874324" uid="4018695" user="ðŸ‡¨ðŸ‡¿ Roman HornÃ­k"/>
  <node id="31908422" lat="50.0927283" lon="14.3284797" version="5" timestamp="2025-04-12T22:26:22Z" changeset="164874324" uid="4018695" user="ðŸ‡¨ðŸ‡¿ Roman HornÃ­k"/>
  <node id="55434861" lat="50.0914134" lon="14.3579020" version="4" timestamp="2018-02-22T13:26:34Z" changeset="56580200" uid="1558400" user="Kudej"/>
  <node id="55435060" lat="50.0914633" lon="14.3575396" version="6" timestamp="2018-02-22T13:26:34Z" changeset="56580200" uid="1558400" user="Kudej"/>
  <node id="60699445" lat="50.0906558" lon="14.3543701" version="5" timestamp="2018-02-23T12:39:33Z" changeset="56608809" uid="1558400" user="Kudej"/>
  <node id="297348116" lat="50.0917397" lon="14.3608032" version="3" timestamp="2018-02-22T13:26:35Z" changeset="56580200" uid="1558400" user="Kudej"/>
  <node id="643971733" lat="50.0931541" lon="14.3310301" version="4" timestamp="2022-02-19T21:32:16Z" changeset="117620228" uid="102554" user="Jezevec"/>
  <node id="673407968" lat="50.0872909" lon="14.3399468" version="4" timestamp="2021-01-28T12:29:44Z" changeset="98296530" uid="11276832" user="HaPe-CZ"/>
  <node id="673407990" lat="50.0870840" lon="14.3401189" version="4" timestamp="2021-01-28T12:29:44Z" changeset="98296530" uid="11276832" user="HaPe-CZ"/>
  <node id="893236194" lat="50.0954849" lon="14.3454552" version="4" timestamp="2024-08-31T14:48:51Z" changeset="156018650" uid="8971394" user="vojtechzaboril"/>
  <node id="1419923450" lat="50.0949703" lon="14.3528141" version="3" timestamp="2025-04-12T16:05:03Z" changeset="164862560" uid="4018695" user="ðŸ‡¨ðŸ‡¿ Roman HornÃ­k"/>
  <node id="1556082571" lat="50.0958937" lon="14.3467111" version="3" timestamp="2017-12-22T09:57:54Z" changeset="54837037" uid="255936" user="NyanSten"/>
  <node id="2627472908" lat="50.0939757" lon="14.3662512" version="2" timestamp="2016-05-04T12:36:31Z" changeset="39095543" uid="10353" user="gorn"/>
  <node id="2675391156" lat="50.0954941" lon="14.3475622" version="6" timestamp="2024-11-12T14:34:52Z" changeset="159053103" uid="8971394" user="vojtechzaboril"/>
  <node id="2939027190" lat="50.0954513" lon="14.3476242" version="6" timestamp="2025-04-12T22:26:22Z" changeset="164874324" uid="4018695" user="ðŸ‡¨ðŸ‡¿ Roman HornÃ­k"/>
  <node id="9828355657" lat="50.0952810" lon="14.3497718" version="2" timestamp="2025-04-12T16:05:03Z" changeset="164862560" uid="4018695" user="ðŸ‡¨ðŸ‡¿ Roman HornÃ­k"/>
  <way id="4078835" version="21" timestamp="2024-11-13T09:08:11Z" changeset="159081924" uid="17639962" user="detective-fiasco">
    <nd ref="21631646"/>
    <nd ref="3893370522"/>
    <nd ref="249524888"/>
    <nd ref="21631647"/>
    <tag k="cycleway:both" v="no"/>
    <tag k="foot" v="no"/>
    <tag k="highway" v="tertiary"/>
    <tag k="lanes" v="2"/>
    <tag k="lit" v="yes"/>
    <tag k="maxspeed" v="50"/>
    <tag k="name" v="Na VÄ›trnÃ­ku"/>
    <tag k="name:de" v="Am WindmÃ¼hle"/>
    <tag k="sidewalk" v="no"/>
    <tag k="surface" v="asphalt"/>
  </way>
  <way id="4391997" version="16" timestamp="2023-02-25T20:57:05Z" changeset="133021919" uid="16806396" user="Honzaiky">
    <nd ref="643971733"/>
    <nd ref="643971732"/>
    <nd ref="3414249110"/>
    <nd ref="9520506151"/>
    <nd ref="9202154526"/>
    <nd ref="5307334173"/>
    <nd ref="5307334178"/>
    <nd ref="26827409"/>
    <nd ref="10693722880"/>
    <tag k="highway" v="residential"/>
    <tag k="maxspeed" v="50"/>
    <tag k="name" v="Do Vozovny"/>
    <tag k="source" v="Bing"/>
    <tag k="source:maxspeed" v="CZ:urban"/>
    <tag k="surface" v="asphalt"/>
  </way>
  <way id="4568709" version="8" timestamp="2023-03-10T10:41:15Z" changeset="133513304" uid="6588887" user="Martin2035">
    <nd ref="28807421"/>
    <nd ref="10717819467"/>
    <nd ref="28807419"/>
    <tag k="highway" v="residential"/>
    <tag k="maxspeed" v="30"/>
    <tag k="maxspeed:type" v="CZ:zone30"/>
    <tag k="name" v="Na DraÄkÃ¡ch"/>
    <tag k="zone:maxspeed" v="30"/>
  </way>
  <way id="4709354" version="12" timestamp="2025-04-12T22:26:22Z" changeset="164874324" uid="4018695" user="ðŸ‡¨ðŸ‡¿ Roman HornÃ­k">
    <nd ref="26804260"/>
    <nd ref="249525979"/>
    <nd ref="1017950973"/>
    <nd ref="26804573"/>
    <nd ref="12750101968"/>
    <nd ref="5594899005"/>
    <nd ref="1680932578"/>
    <nd ref="26804568"/>
    <nd ref="26804567"/>
    <nd ref="2195884263"/>
    <nd ref="486624168"/>
    <nd ref="26804566"/>
    <tag k="hgv" v="no"/>
    <tag k="highway" v="residential"/>
    <tag k="maxspeed" v="30"/>
    <tag k="maxspeed:type" v="CZ:zone30"/>
    <tag k="name" v="V PÅ™ednÃ­m VeleslavÃ­nÄ›"/>
    <tag k="name:de" v="Vorder-Weleslawin"/>
    <tag k="source:maxspeed" v="zone"/>
    <tag k="surface" v="asphalt"/>
    <tag k="zone:maxspeed" v="20"/>
  </way>
  <way id="4711619" version="19" timestamp="2022-11-11T18:36:22Z" changeset="128788488" uid="1221650" user="slukes">
    <nd ref="55435060"/>
    <nd ref="249525012"/>
    <nd ref="3893370527"/>
    <nd ref="28807799"/>
    <tag k="foot" v="no"/>
    <tag k="highway" v="residential"/>
    <tag k="oneway" v="yes"/>
    <tag k="sidewalk:left" v="no"/>
    <tag k="sidewalk:right" v="separate"/>
    <tag k="source" v="CZ:IPRPraha:ortofoto"/>
  </way>
  <way id="4711869" version="11" timestamp="2019-08-02T11:32:42Z" changeset="72935303" uid="10127568" user="michalkaima">
    <nd ref="25696349"/>
    <nd ref="25696363"/>
    <nd ref="5215165148"/>
    <nd ref="5316575223"/>
    <nd ref="31908422"/>
    <tag k="highway" v="residential"/>
    <tag k="maxspeed" v="30"/>
    <tag k="name" v="Za Vokovickou vozovnou"/>
    <tag k="name:de" v="Wokowitzer Wagenhalle"/>
    <tag k="oneway" v="yes"/>
    <tag k="source:maxspeed" v="zone"/>
    <tag k="surface" v="asphalt"/>
  </way>
  <way id="4711897" version="7" timestamp="2024-08-14T07:01:36Z" changeset="155224738" uid="2980245" user="dj314d">
    <nd ref="7800817486"/>
    <nd ref="7800817487"/>
    <nd ref="7800817488"/>
    <nd ref="25693875"/>
    <nd ref="25693877"/>
    <tag k="highway" v="residential"/>
    <tag k="lane_markings" v="no"/>
    <tag k="surface" v="asphalt"/>
  </way>
  <way id="4711898" version="6" timestamp="2022-11-08T13:59:31Z" changeset="128640482" uid="1221650" user="slukes">
    <nd ref="25694711"/>
    <nd ref="25694694"/>
    <tag k="highway" v="residential"/>
    <tag k="maxspeed" v="30"/>
    <tag k="maxspeed:type" v="CZ:zone30"/>
    <tag k="maxspeed:zone" v="30"/>
    <tag k="name" v="Na Souvrati"/>
    <tag k="surface" v="asphalt"/>
  </way>
  <way id="4711929" version="15" timestamp="2025-04-12T22:26:22Z" changeset="164874324" uid="4018695" user="ðŸ‡¨ðŸ‡¿ Roman HornÃ­k">
    <nd ref="25693857"/>
    <nd ref="772355395"/>
    <nd ref="772355421"/>
    <nd ref="25693864"/>
    <nd ref="10778671341"/>
    <nd ref="654249247"/>
    <nd ref="10778671338"/>
    <nd ref="10778671333"/>
    <nd ref="654249215"/>
    <tag k="access" v="destination"/>
    <tag k="highway" v="residential"/>
    <tag k="maxspeed" v="30"/>
    <tag k="maxspeed:type" v="CZ:zone30"/>
    <tag k="name" v="JosÃ© MartÃ­ho"/>
    <tag k="oneway" v="yes"/>
    <tag k="surface" v="asphalt"/>
  </way>
  <way id="4711933" version="16" timestamp="2025-01-15T23:46:42Z" changeset="161398867" uid="17639962" user="detective-fiasco">
    <nd ref="25693984"/>
    <nd ref="1017951344"/>
    <nd ref="2710759994"/>
    <tag k="highway" v="residential"/>
    <tag k="lit" v="yes"/>
    <tag k="maxspeed" v="30"/>
    <tag k="maxspeed:type" v="CZ:zone30"/>
    <tag k="maxspeed:zone" v="30"/>
    <tag k="name" v="ÄŒÃ­lova"/>
    <tag k="sidewalk:both" v="separate"/>
    <tag k="source" v="CZ:IPRPraha:ortofoto"/>
    <tag k="surface" v="asphalt"/>
  </way>
  <way id="4711939" version="11" timestamp="2022-09-18T15:45:07Z" changeset="126335377" uid="12164053" user="barefootstache">
    <nd ref="26804273"/>
    <nd ref="1464977928"/>
    <nd ref="1131823435"/>
    <nd ref="26819009"/>
    <nd ref="1131823473"/>
    <nd ref="1131823606"/>
    <nd ref="1449321226"/>
    <nd ref="26819010"/>
    <nd ref="60684496"/>
    <tag k="highway" v="tertiary"/>
    <tag k="lanes" v="2"/>
    <tag k="lit" v="yes"/>
    <tag k="maxspeed" v="50"/>
    <tag k="name" v="VeleslavÃ­nskÃ¡"/>
    <tag k="name:de" v="Weleslawiner StraÃŸe"/>
    <tag k="source:maxspeed" v="CZ:urban"/>
    <tag k="surface" v="asphalt"/>
  </way>
  <way id="4865757" version="21" timestamp="2025-01-15T23:50:20Z" changeset="161398867" uid="17639962" user="detective-fiasco">
    <nd ref="25694789"/>
    <nd ref="1017951983"/>
    <nd ref="330405042"/>
    <nd ref="25693910"/>
    <nd ref="654249288"/>
    <nd ref="379133907"/>
    <nd ref="369811476"/>
    <nd ref="12192904348"/>
    <nd ref="4615765438"/>
    <nd ref="25693909"/>
    <tag k="highway" v="residential"/>
    <tag k="lit" v="yes"/>
    <tag k="maxspeed" v="30"/>
    <tag k="maxspeed:type" v="CZ:zone30"/>
    <tag k="maxspeed:zone" v="30"/>
    <tag k="name" v="Na Okraji"/>
    <tag k="sidewalk:both" v="separate"/>
    <tag k="source:width" v="ARCore"/>
    <tag k="surface" v="asphalt"/>
    <tag k="width" v="4.9"/>
  </way>
  <way id="4865758" version="10" timestamp="2024-07-31T09:29:39Z" changeset="154639445" uid="2980245" user="dj314d">
    <nd ref="673407968"/>
    <nd ref="8371624628"/>
    <nd ref="673407988"/>
    <nd ref="8371624629"/>
    <nd ref="1106979960"/>
    <nd ref="8371624627"/>
    <nd ref="21631665"/>
    <tag k="highway" v="residential"/>
    <tag k="maxspeed" v="30"/>
    <tag k="maxspeed:type" v="CZ:zone30"/>
    <tag k="maxspeed:zone" v="30"/>
    <tag k="name" v="HeyrovskÃ©ho nÃ¡mÄ›stÃ­"/>
    <tag k="oneway" v="yes"/>
    <tag k="source" v="CZ:IPRPraha:ortofoto"/>
    <tag k="surface" v="asphalt"/>
  </way>
  <way id="4865829" version="20" timestamp="2025-04-12T22:26:22Z" changeset="164874324" uid="4018695" user="ðŸ‡¨ðŸ‡¿ Roman HornÃ­k">
    <nd ref="331325058"/>
    <nd ref="3491144035"/>
    <nd ref="26819340"/>
    <nd ref="5120221043"/>
    <tag k="highway" v="residential"/>
    <tag k="lit" v="yes"/>
    <tag k="maxspeed" v="30"/>
    <tag k="maxspeed:type" v="CZ:zone30"/>
    <tag k="maxspeed:zone" v="30"/>
    <tag k="name" v="Na Okraji"/>
    <tag k="oneway" v="yes"/>
    <tag k="sidewalk:both" v="separate"/>
    <tag k="surface" v="asphalt"/>
  </way>
  <way id="7642560" version="11" timestamp="2025-04-12T22:26:22Z" changeset="164874324" uid="4018695" user="ðŸ‡¨ðŸ‡¿ Roman HornÃ­k">
    <nd ref="26804260"/>
    <nd ref="249525978"/>
    <nd ref="1419923449"/>
    <nd ref="26804864"/>
    <nd ref="26804877"/>
    <nd ref="691065177"/>
    <tag k="foot" v="use_sidepath"/>
    <tag k="highway" v="residential"/>
    <tag k="maxspeed" v="30"/>
    <tag k="maxspeed:type" v="CZ:zone30"/>
    <tag k="name" v="KladenskÃ¡"/>
    <tag k="name:de" v="Kladner StraÃŸe"/>
    <tag k="parking:both" v="yes"/>
    <tag k="parking:both:orientation" v="parallel"/>
    <tag k="parking:condition:both" v="residents;ticket"/>
    <tag k="source:maxspeed" v="zone"/>
    <tag k="surface" v="asphalt"/>
    <tag k="zone:maxspeed" v="20"/>
  </way>
  <way id="7651786" version="33" timestamp="2024-10-06T17:12:50Z" changeset="157550482" uid="598980" user="Daniel BarÃ¡nek">
    <nd ref="21631647"/>
    <nd ref="249524889"/>
    <nd ref="4764851212"/>
    <nd ref="249524893"/>
    <nd ref="959461525"/>
    <nd ref="959461527"/>
    <nd ref="249524895"/>
    <nd ref="25693903"/>
    <nd ref="249524897"/>
    <nd ref="4163473036"/>
    <nd ref="3893370512"/>
    <tag k="cycleway:both" v="no"/>
    <tag k="highway" v="residential"/>
    <tag k="lanes" v="1"/>
    <tag k="lit" v="yes"/>
    <tag k="maxspeed" v="50"/>
    <tag k="name" v="Na PetÅ™inÃ¡ch"/>
    <tag k="name:de" v="Petriner HÃ¶he"/>
    <tag k="oneway" v="yes"/>
    <tag k="parking:both" v="separate"/>
    <tag k="sidewalk:left" v="no"/>
    <tag k="sidewalk:right" v="separate"/>
    <tag k="source:width" v="ARCore"/>
    <tag k="surface" v="asphalt"/>
    <tag k="width" v="7.1"/>
  </way>
  <way id="7653069" version="20" timestamp="2024-09-18T06:59:41Z" changeset="156756875" uid="598980" user="Daniel BarÃ¡nek">
    <nd ref="55451060"/>
    <nd ref="6353801617"/>
    <nd ref="6353801616"/>
    <nd ref="55451064"/>
    <nd ref="297314988"/>
    <nd ref="6353801615"/>
    <nd ref="6353801614"/>
    <nd ref="6353801613"/>
    <nd ref="55451067"/>
    <nd ref="297314994"/>
    <nd ref="297314992"/>
    <nd ref="297314990"/>
    <nd ref="297314995"/>
    <nd ref="296714143"/>
    <nd ref="55451060"/>
    <tag k="addr:conscriptionnumber" v="42"/>
    <tag k="addr:housenumber" v="42"/>
    <tag k="addr:place" v="VeleslavÃ­n"/>
    <tag k="addr:postcode" v="16200"/>
    <tag k="addr:street" v="Nad stanicÃ­"/>
    <tag k="building" v="train_station"/>
    <tag k="building:flats" v="1"/>
    <tag k="building:levels" v="2"/>
    <tag k="building:ruian:type" v="17"/>
    <tag k="ref:ruian:addr" v="22280065"/>
    <tag k="ref:ruian:building" v="22057285"/>
    <tag k="roof:levels" v="1"/>
    <tag k="roof:shape" v="gabled"/>
    <tag k="shelter" v="yes"/>
    <tag k="source" v="cuzk:ruian"/>
    <tag k="start_date" v="1970-06-30"/>
  </way>
  <way id="7723642" version="12" timestamp="2025-04-12T22:26:22Z" changeset="164874324" uid="4018695" user="ðŸ‡¨ðŸ‡¿ Roman HornÃ­k">
    <nd ref="3414139089"/>
    <nd ref="25696363"/>
    <tag k="highway" v="residential"/>
    <tag k="maxspeed" v="30"/>
    <tag k="name" v="JosÃ© MartÃ­ho"/>
    <tag k="oneway" v="yes"/>
    <tag k="source:maxspeed" v="zone"/>
    <tag k="surface" v="asphalt"/>
  </way>
  <way id="8066807" version="6" timestamp="2024-08-14T07:01:38Z" changeset="155224738" uid="2980245" user="dj314d">
    <nd ref="25693872"/>
    <nd ref="471844037"/>
    <nd ref="772356867"/>
    <nd ref="7800817491"/>
    <nd ref="31908407"/>
    <nd ref="7800817490"/>
    <nd ref="25693873"/>
    <tag k="highway" v="residential"/>
    <tag k="lane_markings" v="no"/>
    <tag k="surface" v="asphalt"/>
  </way>
  <way id="8066808" version="10" timestamp="2025-05-15T05:19:36Z" changeset="166285213" uid="598980" user="Daniel BarÃ¡nek">
    <nd ref="25693876"/>
    <nd ref="7800817511"/>
    <nd ref="1612895408"/>
    <nd ref="31908398"/>
    <nd ref="31908400"/>
    <nd ref="379188709"/>
    <nd ref="379188712"/>
    <nd ref="379188717"/>
    <nd ref="967865774"/>
    <nd ref="967865765"/>
    <nd ref="379188686"/>
    <tag k="cycleway:both" v="no"/>
    <tag k="highway" v="residential"/>
    <tag k="lane_markings" v="no"/>
    <tag k="oneway" v="no"/>
    <tag k="surface" v="asphalt"/>
    <tag k="width" v="3.6"/>
  </way>
  <way id="8100096" version="10" timestamp="2017-07-11T20:47:19Z" changeset="50212400" uid="255936" user="NyanSten">
    <nd ref="26804273"/>
    <nd ref="1464977937"/>
    <nd ref="4964627867"/>
    <nd ref="297304147"/>
    <nd ref="60684495"/>
    <tag k="highway" v="residential"/>
    <tag k="maxspeed" v="30"/>
    <tag k="name" v="Pod Dvorem"/>
    <tag k="name:de" v="Hofgrund"/>
    <tag k="source:maxspeed" v="zone"/>
    <tag k="surface" v="asphalt"/>
  </way>
  <way id="8100097" version="13" timestamp="2024-08-05T15:30:02Z" changeset="154856781" uid="2980245" user="dj314d">
    <nd ref="60684496"/>
    <nd ref="11202600125"/>
    <nd ref="370273699"/>
    <nd ref="331041324"/>
    <nd ref="370273698"/>
    <nd ref="60684498"/>
    <tag k="highway" v="tertiary"/>
    <tag k="lanes" v="1"/>
    <tag k="maxspeed" v="50"/>
    <tag k="name" v="VeleslavÃ­nskÃ¡"/>
    <tag k="name:de" v="Weleslawiner StraÃŸe"/>
    <tag k="oneway" v="yes"/>
    <tag k="sidewalk" v="left"/>
    <tag k="source:maxspeed" v="CZ:urban"/>
    <tag k="surface" v="asphalt"/>
  </way>
  <way id="8100098" version="13" timestamp="2021-10-12T07:11:30Z" changeset="112401978" uid="13864" user="Martin Poljak">
    <nd ref="60699451"/>
    <nd ref="1449321225"/>
    <nd ref="60699450"/>
    <nd ref="297304173"/>
    <nd ref="60684503"/>
    <nd ref="60684502"/>
    <nd ref="1449321224"/>
    <nd ref="60684497"/>
    <nd ref="1131823446"/>
    <nd ref="4964627870"/>
    <nd ref="1131823539"/>
    <nd ref="60684496"/>
    <tag k="cycleway:both" v="no"/>
    <tag k="hgv" v="destination"/>
    <tag k="highway" v="residential"/>
    <tag k="maxspeed" v="30"/>
    <tag k="name" v="Nad HradnÃ­m potokem"/>
    <tag k="name:de" v="Burgbachweg"/>
    <tag k="sidewalk" v="left"/>
    <tag k="source:maxspeed" v="zone"/>
    <tag k="surface" v="asphalt"/>
  </way>
  <way id="8100099" version="15" timestamp="2022-09-18T15:44:56Z" changeset="126334562" uid="12164053" user="barefootstache">
    <nd ref="60684498"/>
    <nd ref="60684499"/>
    <nd ref="60684500"/>
    <nd ref="2131064643"/>
    <nd ref="2131064642"/>
    <nd ref="60684501"/>
    <tag k="cycleway:right" v="no"/>
    <tag k="highway" v="tertiary"/>
    <tag k="lane_markings" v="no"/>
    <tag k="lit" v="yes"/>
    <tag k="maxspeed" v="50"/>
    <tag k="name" v="VeleslavÃ­nskÃ¡"/>
    <tag k="name:de" v="Weleslawiner StraÃŸe"/>
    <tag k="oneway" v="yes"/>
    <tag k="sidewalk" v="left"/>
    <tag k="source:maxspeed" v="CZ:urban"/>
    <tag k="surface" v="asphalt"/>
  </way>
  <way id="8100100" version="13" timestamp="2025-04-12T22:26:22Z" changeset="164874324" uid="4018695" user="ðŸ‡¨ðŸ‡¿ Roman HornÃ­k">
    <nd ref="297545825"/>
    <nd ref="297545827"/>
    <nd ref="297545829"/>
    <nd ref="297545830"/>
    <nd ref="848818712"/>
    <nd ref="297545831"/>
    <nd ref="297545832"/>
    <nd ref="297545833"/>
    <nd ref="60684504"/>
    <tag k="highway" v="residential"/>
    <tag k="maxspeed" v="30"/>
    <tag k="maxspeed:type" v="CZ:zone30"/>
    <tag k="maxspeed:zone" v="30"/>
    <tag k="name" v="Na VÄ›trnÃ­ku"/>
    <tag k="name:de" v="Am WindmÃ¼hle"/>
  </way>
  <way id="8100102" version="11" timestamp="2024-09-25T13:42:28Z" changeset="157083372" uid="598980" user="Daniel BarÃ¡nek">
    <nd ref="25693909"/>
    <nd ref="4615765442"/>
    <nd ref="772356847"/>
    <nd ref="772356874"/>
    <nd ref="60684512"/>
    <nd ref="672997290"/>
    <nd ref="772356849"/>
    <nd ref="60684511"/>
    <tag k="highway" v="residential"/>
    <tag k="lit" v="yes"/>
    <tag k="maxspeed" v="30"/>
    <tag k="maxspeed:type" v="CZ:zone30"/>
    <tag k="maxspeed:zone" v="30"/>
    <tag k="name" v="KÅ™enova"/>
    <tag k="sidewalk:both" v="separate"/>
    <tag k="surface" v="asphalt"/>
  </way>
  <way id="8101548" version="16" timestamp="2024-03-11T14:32:01Z" changeset="148509143" uid="15107215" user="BÃ¡ra SoukupovÃ¡">
    <nd ref="60699449"/>
    <nd ref="60699448"/>
    <nd ref="282037195"/>
    <nd ref="60699447"/>
    <nd ref="249525724"/>
    <nd ref="60699445"/>
    <tag k="highway" v="residential"/>
    <tag k="maxspeed" v="30"/>
    <tag k="maxspeed:type" v="CZ:zone30"/>
    <tag k="maxspeed:zone" v="30"/>
    <tag k="name" v="Na VÄ›tru"/>
    <tag k="oneway" v="yes"/>
    <tag k="sidewalk" v="both"/>
  </way>
  <way id="24233271" version="11" timestamp="2022-02-11T16:03:35Z" changeset="117293498" uid="6588887" user="Martin2035">
    <nd ref="297304076"/>
    <nd ref="5120220703"/>
    <nd ref="297304065"/>
    <nd ref="2917463668"/>
    <nd ref="297304057"/>
    <nd ref="5120221032"/>
    <nd ref="297304050"/>
    <nd ref="5120221033"/>
    <nd ref="60684510"/>
    <nd ref="2338681223"/>
    <nd ref="60684509"/>
    <nd ref="2338681222"/>
    <tag k="highway" v="residential"/>
    <tag k="lit" v="yes"/>
    <tag k="maxspeed" v="30"/>
    <tag k="maxspeed:type" v="CZ:zone30"/>
    <tag k="maxspeed:zone" v="30"/>
    <tag k="name" v="Å umberova"/>
    <tag k="oneway" v="yes"/>
    <tag k="source" v="cuzk:km+uhul:ortofoto"/>
  </way>
  <way id="25857793" version="9" timestamp="2017-07-11T20:47:23Z" changeset="50212400" uid="255936" user="NyanSten">
    <nd ref="282036357"/>
    <nd ref="282036358"/>
    <nd ref="282036359"/>
    <nd ref="297304142"/>
    <nd ref="369811560"/>
    <nd ref="282036360"/>
    <nd ref="282036361"/>
    <nd ref="1382181734"/>
    <nd ref="282036362"/>
    <tag k="highway" v="residential"/>
    <tag k="maxspeed" v="30"/>
    <tag k="name" v="Pod PetÅ™inami"/>
    <tag k="name:de" v="Petrinergrund"/>
    <tag k="source:maxspeed" v="zone"/>
    <tag k="surface" v="asphalt"/>
  </way>
  <way id="25857794" version="4" timestamp="2017-07-11T20:47:24Z" changeset="50212400" uid="255936" user="NyanSten">
    <nd ref="282036366"/>
    <nd ref="282036374"/>
    <nd ref="282036376"/>
    <tag k="bicycle" v="yes"/>
    <tag k="highway" v="residential"/>
    <tag k="maxspeed" v="30"/>
    <tag k="motorcar" v="destination"/>
    <tag k="name" v="Pod PetÅ™inami"/>
    <tag k="source:maxspeed" v="zone"/>
    <tag k="surface" v="asphalt"/>
  </way>
  <way id="25857795" version="6" timestamp="2023-11-16T20:32:50Z" changeset="144112117" uid="15107215" user="BÃ¡ra SoukupovÃ¡">
    <nd ref="282036365"/>
    <nd ref="282036366"/>
    <nd ref="282036368"/>
    <nd ref="282036369"/>
    <nd ref="4964627874"/>
    <nd ref="11356935405"/>
    <nd ref="60684498"/>
    <tag k="bicycle" v="yes"/>
    <tag k="highway" v="residential"/>
    <tag k="maxspeed" v="30"/>
    <tag k="motorcar" v="destination"/>
    <tag k="name" v="Pod PetÅ™inami"/>
    <tag k="name:de" v="Petrinergrund"/>
    <tag k="source:maxspeed" v="zone"/>
    <tag k="surface" v="asphalt"/>
  </way>
  <way id="25857833" version="8" timestamp="2025-04-12T16:05:03Z" changeset="164862560" uid="4018695" user="ðŸ‡¨ðŸ‡¿ Roman HornÃ­k">
    <nd ref="26804288"/>
    <nd ref="282036678"/>
    <nd ref="1774486815"/>
    <nd ref="282036679"/>
    <nd ref="60684495"/>
    <tag k="highway" v="residential"/>
    <tag k="maxspeed" v="30"/>
    <tag k="maxweight" v="3.5"/>
    <tag k="name" v="Adamova"/>
    <tag k="oneway" v="yes"/>
    <tag k="sidewalk" v="right"/>
    <tag k="source:maxspeed" v="zone"/>
    <tag k="surface" v="asphalt"/>
  </way>
  <way id="25857917" version="9" timestamp="2022-01-08T18:41:05Z" changeset="115920242" uid="436419" user="wvdp">
    <nd ref="3890546047"/>
    <nd ref="282037140"/>
    <nd ref="3890546052"/>
    <nd ref="3890546049"/>
    <nd ref="3890546051"/>
    <nd ref="3890546053"/>
    <nd ref="282037143"/>
    <nd ref="282037142"/>
    <nd ref="282037141"/>
    <nd ref="3890546048"/>
    <nd ref="3890546047"/>
    <tag k="alt_name" v="SeverokorejskÃ© velvyslanectvÃ­"/>
    <tag k="building" v="residential"/>
    <tag k="building:flats" v="1"/>
    <tag k="building:levels" v="2"/>
    <tag k="building:ruian:type" v="3"/>
    <tag k="country" v="KP"/>
    <tag k="diplomatic" v="embassy"/>
    <tag k="embassy" v="yes"/>
    <tag k="name" v="VelvyslanectvÃ­ KorejskÃ© lidovÄ› demokratickÃ© republiky"/>
    <tag k="name:en" v="Embassy of the Democratic People 's Republic of Korea"/>
    <tag k="office" v="diplomatic"/>
    <tag k="phone" v="+420 235 362 210"/>
    <tag k="ref:ruian:building" v="22060642"/>
    <tag k="source" v="cuzk:ruian"/>
  </way>
  <way id="27096596" version="7" timestamp="2022-02-11T16:03:35Z" changeset="117293498" uid="6588887" user="Martin2035">
    <nd ref="297304080"/>
    <nd ref="2917460443"/>
    <nd ref="2338681208"/>
    <tag k="highway" v="residential"/>
    <tag k="lit" v="yes"/>
    <tag k="maxspeed" v="30"/>
    <tag k="maxspeed:type" v="CZ:zone30"/>
    <tag k="maxspeed:zone" v="30"/>
    <tag k="name" v="Å umberova"/>
    <tag k="source" v="cuzk:km+uhul:ortofoto"/>
  </way>
  <way id="27096597" version="4" timestamp="2017-07-11T20:47:23Z" changeset="50212400" uid="255936" user="NyanSten">
    <nd ref="282036357"/>
    <nd ref="297304089"/>
    <nd ref="297304095"/>
    <tag k="highway" v="residential"/>
    <tag k="maxspeed" v="30"/>
    <tag k="name" v="StÅ™ednÃ­"/>
    <tag k="name:de" v="Mittlere StraÃŸe"/>
    <tag k="source" v="cuzk:km+uhul:ortofoto"/>
    <tag k="source:maxspeed" v="zone"/>
    <tag k="surface" v="asphalt"/>
  </way>
  <way id="27096866" version="6" timestamp="2017-07-11T20:47:23Z" changeset="50212400" uid="255936" user="NyanSten">
    <nd ref="282036362"/>
    <nd ref="1382181735"/>
    <nd ref="297307462"/>
    <nd ref="297307465"/>
    <nd ref="297307468"/>
    <nd ref="297307471"/>
    <nd ref="297307474"/>
    <tag k="highway" v="residential"/>
    <tag k="maxspeed" v="30"/>
    <tag k="source:maxspeed" v="zone"/>
    <tag k="surface" v="asphalt"/>
  </way>
  <way id="27097368" version="12" timestamp="2024-09-25T13:44:28Z" changeset="157083372" uid="598980" user="Daniel BarÃ¡nek">
    <nd ref="21631664"/>
    <nd ref="8371624622"/>
    <nd ref="8371624623"/>
    <nd ref="673407990"/>
    <tag k="cycleway:both" v="no"/>
    <tag k="highway" v="residential"/>
    <tag k="lanes" v="1"/>
    <tag k="lit" v="yes"/>
    <tag k="maxspeed" v="50"/>
    <tag k="name" v="HeyrovskÃ©ho nÃ¡mÄ›stÃ­"/>
    <tag k="oneway" v="yes"/>
    <tag k="surface" v="asphalt"/>
  </way>
  <way id="27098053" version="4" timestamp="2017-07-11T20:47:19Z" changeset="50212400" uid="255936" user="NyanSten">
    <nd ref="4964627869"/>
    <nd ref="297318796"/>
    <nd ref="297318794"/>
    <nd ref="4964627868"/>
    <nd ref="1131823638"/>
    <nd ref="26819009"/>
    <tag k="highway" v="residential"/>
    <tag k="maxspeed" v="30"/>
    <tag k="name" v="U ZÃ¡meÄku"/>
    <tag k="source" v="cuzk:km+uhul:ortofoto"/>
    <tag k="source:maxspeed" v="zone"/>
    <tag k="surface" v="asphalt"/>
  </way>
  <way id="27098054" version="6" timestamp="2021-10-12T07:11:16Z" changeset="112401978" uid="13864" user="Martin Poljak">
    <nd ref="297304173"/>
    <nd ref="370273691"/>
    <tag k="cycleway:both" v="no"/>
    <tag k="hgv" v="destination"/>
    <tag k="highway" v="residential"/>
    <tag k="maxspeed" v="30"/>
    <tag k="name" v="PotoÄnÃ­"/>
    <tag k="name:de" v="Am Burgbach"/>
    <tag k="sidewalk" v="both"/>
    <tag k="source" v="cuzk:km+uhul:ortofoto"/>
    <tag k="source:maxspeed" v="zone"/>
    <tag k="surface" v="asphalt"/>
  </way>
  <way id="27098411" version="6" timestamp="2023-08-07T16:27:53Z" changeset="139573775" uid="12500589" user="tg4567">
    <nd ref="3890546509"/>
    <nd ref="3890546507"/>
    <nd ref="3890546515"/>
    <nd ref="3890546516"/>
    <nd ref="297321490"/>
    <nd ref="297321489"/>
    <nd ref="297321498"/>
    <nd ref="3890546541"/>
    <nd ref="3890546543"/>
    <nd ref="297321496"/>
    <nd ref="3890546538"/>
    <nd ref="3890546535"/>
    <nd ref="3890546528"/>
    <nd ref="3890546529"/>
    <nd ref="3890546520"/>
    <nd ref="3890546519"/>
    <nd ref="297321495"/>
    <nd ref="3890546513"/>
    <nd ref="3890546512"/>
    <nd ref="3890546511"/>
    <nd ref="297321493"/>
    <nd ref="3890546506"/>
    <nd ref="3890546505"/>
    <nd ref="297321492"/>
    <nd ref="3890546504"/>
    <nd ref="3890546503"/>
    <nd ref="3890546509"/>
    <tag k="building" v="yes"/>
    <tag k="building:levels" v="1"/>
    <tag k="building:ruian:type" v="19"/>
    <tag k="historic" v="castle"/>
    <tag k="name" v="zÃ¡mek VeleslavÃ­n"/>
    <tag k="ref:ruian:building" v="22056891"/>
    <tag k="sorting_name" v="VeleslavÃ­n"/>
    <tag k="source" v="cuzk:ruian"/>
    <tag k="wikidata" v="Q11878330"/>
    <tag k="wikimedia_commons" v="Category:VeleslavÃ­n Castle"/>
    <tag k="wikipedia" v="cs:VeleslavÃ­n (zÃ¡mek)"/>
  </way>
  <way id="27098959" version="9" timestamp="2023-11-16T20:32:50Z" changeset="144112117" uid="15107215" user="BÃ¡ra SoukupovÃ¡">
    <nd ref="282036357"/>
    <nd ref="282036353"/>
    <nd ref="282036354"/>
    <nd ref="282036355"/>
    <nd ref="282036356"/>
    <nd ref="4964627894"/>
    <nd ref="1382181738"/>
    <nd ref="4964627893"/>
    <nd ref="297307478"/>
    <nd ref="8745890520"/>
    <nd ref="297325226"/>
    <nd ref="297325228"/>
    <nd ref="1774482995"/>
    <nd ref="297325229"/>
    <nd ref="3889522930"/>
    <nd ref="297325230"/>
    <nd ref="4964627866"/>
    <nd ref="1464977940"/>
    <nd ref="11356935388"/>
    <nd ref="297325231"/>
    <tag k="highway" v="residential"/>
    <tag k="maxspeed" v="30"/>
    <tag k="name" v="StÅ™ednÃ­"/>
    <tag k="name:de" v="Mittlere StraÃŸe"/>
    <tag k="source:maxspeed" v="zone"/>
    <tag k="surface" v="asphalt"/>
  </way>
  <way id="27116004" version="19" timestamp="2023-10-23T14:01:41Z" changeset="143020306" uid="255936" user="NyanSten">
    <nd ref="2939027190"/>
    <nd ref="2675391148"/>
    <tag k="foot" v="use_sidepath"/>
    <tag k="highway" v="tertiary"/>
    <tag k="lanes:backward" v="1"/>
    <tag k="lanes:forward" v="1"/>
    <tag k="maxspeed" v="50"/>
    <tag k="name" v="VeleslavÃ­nskÃ¡"/>
    <tag k="name:de" v="Weleslawiner StraÃŸe"/>
    <tag k="source:maxspeed" v="CZ:urban"/>
    <tag k="surface" v="asphalt"/>
  </way>
  <way id="27116006" version="24" timestamp="2025-04-12T16:05:03Z" changeset="164862560" uid="4018695" user="ðŸ‡¨ðŸ‡¿ Roman HornÃ­k">
    <nd ref="2939027190"/>
    <nd ref="12750101973"/>
    <nd ref="12750101972"/>
    <nd ref="3449320353"/>
    <nd ref="12652510074"/>
    <nd ref="1017951499"/>
    <nd ref="2675391152"/>
    <nd ref="1774486821"/>
    <tag k="foot" v="use_sidepath"/>
    <tag k="highway" v="residential"/>
    <tag k="his:1930-:name" v="KladenskÃ¡"/>
    <tag k="lanes" v="2"/>
    <tag k="maxspeed" v="30"/>
    <tag k="name" v="KladenskÃ¡"/>
    <tag k="name:de" v="Kladner StraÃŸe"/>
    <tag k="parking:condition:right" v="residents;ticket"/>
    <tag k="parking:left" v="no"/>
    <tag k="parking:left:restriction" v="no_parking"/>
    <tag k="parking:right" v="yes"/>
    <tag k="parking:right:orientation" v="parallel"/>
    <tag k="source:maxspeed" v="zone"/>
    <tag k="surface" v="asphalt"/>
  </way>
  <way id="27117638" version="6" timestamp="2024-08-16T06:34:34Z" changeset="155311605" uid="2980245" user="dj314d">
    <nd ref="25693984"/>
    <nd ref="5426185198"/>
    <nd ref="262384798"/>
    <tag k="highway" v="residential"/>
    <tag k="lane_markings" v="no"/>
    <tag k="maxspeed" v="30"/>
    <tag k="maxspeed:type" v="CZ:zone30"/>
    <tag k="name" v="KrÃ¡snÃ©ho"/>
    <tag k="surface" v="asphalt"/>
  </way>
  <way id="27118878" version="5" timestamp="2022-02-18T17:12:53Z" changeset="117574374" uid="6466263" user="zorglubu">
    <nd ref="297532345"/>
    <nd ref="297532347"/>
    <nd ref="297532350"/>
    <nd ref="297532342"/>
    <nd ref="3890546085"/>
    <nd ref="5132915841"/>
    <nd ref="5132915840"/>
    <nd ref="3890546084"/>
    <nd ref="297532345"/>
    <tag k="addr:housenumber" v="236/4"/>
    <tag k="addr:street" v="Na VÄ›tru"/>
    <tag k="building" v="residential"/>
    <tag k="building:flats" v="3"/>
    <tag k="building:ruian:type" v="3"/>
    <tag k="country" v="MK"/>
    <tag k="diplomatic" v="embassy"/>
    <tag k="embassy" v="yes"/>
    <tag k="name" v="VelvyslanectvÃ­ SevernÃ­ Makedonie"/>
    <tag k="name:en" v="Embassy of North Macedonia"/>
    <tag k="name:fr" v="Ambassade de MacÃ©doine du Nord"/>
    <tag k="name:mk" v="ÐÐ¼Ð±Ð°ÑÐ°Ð´Ð° Ð½Ð° Ð ÐµÐ¿ÑƒÐ±Ð»Ð¸ÐºÐ° Ð¡ÐµÐ²ÐµÑ€Ð½Ð° ÐœÐ°ÐºÐµÐ´Ð¾Ð½Ð¸Ñ˜Ð°"/>
    <tag k="name:sq" v="Ambasada e RepublikÃ«s sÃ« MaqedonisÃ« sÃ« Veriut"/>
    <tag k="office" v="diplomatic"/>
    <tag k="phone" v="+420 222521093"/>
    <tag k="ref:ruian:building" v="22059059"/>
    <tag k="source" v="cuzk:ruian"/>
    <tag k="target" v="CZ"/>
    <tag k="website" v="https://prague.mfa.gov.mk"/>
    <tag k="wikidata" v="Q98756118"/>
  </way>
  <way id="30013713" version="8" timestamp="2024-09-21T12:24:05Z" changeset="156908965" uid="598980" user="Daniel BarÃ¡nek">
    <nd ref="60684512"/>
    <nd ref="772356862"/>
    <nd ref="2355302779"/>
    <nd ref="4950815967"/>
    <nd ref="330404249"/>
    <tag k="highway" v="residential"/>
    <tag k="maxspeed" v="30"/>
    <tag k="maxspeed:type" v="CZ:zone30"/>
    <tag k="maxspeed:zone" v="30"/>
    <tag k="name" v="PeÅ¡tukova"/>
    <tag k="sidewalk:both" v="separate"/>
    <tag k="source" v="uhul:ortofoto"/>
    <tag k="surface" v="asphalt"/>
  </way>
  <way id="30013758" version="6" timestamp="2022-02-11T16:03:35Z" changeset="117293498" uid="6588887" user="Martin2035">
    <nd ref="330405011"/>
    <nd ref="379133937"/>
    <nd ref="4361134134"/>
    <nd ref="330405017"/>
    <nd ref="330405022"/>
    <nd ref="379133929"/>
    <nd ref="330405028"/>
    <tag k="highway" v="residential"/>
    <tag k="maxspeed" v="30"/>
    <tag k="maxspeed:type" v="CZ:zone30"/>
    <tag k="maxspeed:zone" v="30"/>
    <tag k="name" v="Na PetÅ™inÃ¡ch"/>
    <tag k="name:de" v="Petriner HÃ¶he"/>
    <tag k="source" v="uhul:ortofoto"/>
  </way>
  <way id="30013759" version="7" timestamp="2022-02-11T16:03:35Z" changeset="117293498" uid="6588887" user="Martin2035">
    <nd ref="330405032"/>
    <nd ref="330405028"/>
    <nd ref="1119700305"/>
    <nd ref="330405037"/>
    <tag k="highway" v="residential"/>
    <tag k="lit" v="yes"/>
    <tag k="maxspeed" v="30"/>
    <tag k="maxspeed:type" v="CZ:zone30"/>
    <tag k="maxspeed:zone" v="30"/>
    <tag k="name" v="Na PetÅ™inÃ¡ch"/>
    <tag k="name:de" v="Petriner HÃ¶he"/>
    <tag k="source" v="uhul:ortofoto"/>
    <tag k="surface" v="asphalt"/>
  </way>
  <way id="30055334" version="5" timestamp="2017-07-11T20:47:22Z" changeset="50212400" uid="255936" user="NyanSten">
    <nd ref="282036364"/>
    <nd ref="1382181733"/>
    <nd ref="331041309"/>
    <nd ref="331041312"/>
    <nd ref="331041314"/>
    <nd ref="331041316"/>
    <nd ref="331041318"/>
    <nd ref="331041321"/>
    <nd ref="331041323"/>
    <tag k="highway" v="residential"/>
    <tag k="maxspeed" v="30"/>
    <tag k="name" v="U ZvoniÄky"/>
    <tag k="name:de" v="Beim GlÃ¶ckel"/>
    <tag k="source" v="cuzk:km"/>
    <tag k="source:maxspeed" v="zone"/>
    <tag k="surface" v="asphalt"/>
  </way>
  <way id="30080758" version="6" timestamp="2024-10-06T17:09:25Z" changeset="157550213" uid="598980" user="Daniel BarÃ¡nek">
    <nd ref="331325058"/>
    <nd ref="1449321209"/>
    <nd ref="331325065"/>
    <nd ref="331325070"/>
    <nd ref="3491144031"/>
    <nd ref="331325074"/>
    <nd ref="331325078"/>
    <nd ref="3491144025"/>
    <nd ref="331325080"/>
    <tag k="highway" v="residential"/>
    <tag k="lit" v="yes"/>
    <tag k="maxspeed" v="30"/>
    <tag k="maxspeed:type" v="CZ:zone30"/>
    <tag k="maxspeed:zone" v="30"/>
    <tag k="name" v="JanouÅ¡kova"/>
    <tag k="surface" v="asphalt"/>
  </way>
  <way id="31134663" version="5" timestamp="2021-05-14T13:06:06Z" changeset="104686491" uid="25867" user="adamos">
    <nd ref="25696363"/>
    <nd ref="25696335"/>
    <tag k="highway" v="residential"/>
    <tag k="maxspeed" v="30"/>
    <tag k="name" v="JosÃ© MartÃ­ho"/>
    <tag k="source:maxspeed" v="zone"/>
    <tag k="surface" v="asphalt"/>
  </way>
  <way id="32147218" version="7" timestamp="2025-01-15T23:49:52Z" changeset="161398867" uid="17639962" user="detective-fiasco">
    <nd ref="959860824"/>
    <nd ref="3491144034"/>
    <nd ref="331325058"/>
    <tag k="highway" v="residential"/>
    <tag k="maxspeed" v="30"/>
    <tag k="maxspeed:type" v="CZ:zone30"/>
    <tag k="maxspeed:zone" v="30"/>
    <tag k="name" v="Na Okraji"/>
    <tag k="oneway" v="yes"/>
    <tag k="sidewalk:both" v="separate"/>
    <tag k="surface" v="asphalt"/>
  </way>
  <way id="32147871" version="7" timestamp="2022-11-08T13:59:35Z" changeset="128640482" uid="1221650" user="slukes">
    <nd ref="25694711"/>
    <nd ref="379147374"/>
    <nd ref="297521715"/>
    <nd ref="297521714"/>
    <nd ref="1017952397"/>
    <nd ref="25694789"/>
    <tag k="highway" v="residential"/>
    <tag k="maxspeed" v="30"/>
    <tag k="maxspeed:type" v="CZ:zone30"/>
    <tag k="maxspeed:zone" v="30"/>
    <tag k="name" v="Na Okraji"/>
    <tag k="oneway" v="yes"/>
    <tag k="oneway:bicycle" v="no"/>
    <tag k="source" v="cuzk:km;local knowledge"/>
    <tag k="surface" v="asphalt"/>
  </way>
  <way id="32147872" version="5" timestamp="2025-04-24T02:57:16Z" changeset="165357804" uid="4018695" user="ðŸ‡¨ðŸ‡¿ Roman HornÃ­k">
    <nd ref="25694711"/>
    <nd ref="12780207186"/>
    <nd ref="25694786"/>
    <nd ref="12271222663"/>
    <nd ref="25694784"/>
    <nd ref="25694721"/>
    <tag k="highway" v="residential"/>
    <tag k="maxspeed" v="30"/>
    <tag k="maxspeed:type" v="CZ:zone30"/>
    <tag k="maxspeed:zone" v="30"/>
    <tag k="name" v="Na Okraji"/>
    <tag k="oneway" v="yes"/>
    <tag k="surface" v="asphalt"/>
  </way>
  <way id="32821550" version="9" timestamp="2022-11-08T14:02:45Z" changeset="128640482" uid="1221650" user="slukes">
    <nd ref="369811651"/>
    <nd ref="369811644"/>
    <nd ref="379147376"/>
    <nd ref="297323801"/>
    <tag k="highway" v="residential"/>
    <tag k="name" v="Nad StanicÃ­"/>
    <tag k="name:de" v="Bahnhofzeile"/>
    <tag k="source" v="cuzk:km+uhul:ortofoto"/>
    <tag k="surface" v="dirt"/>
    <tag k="tracktype" v="grade3"/>
  </way>
  <way id="32841013" version="13" timestamp="2025-04-12T22:26:22Z" changeset="164874324" uid="4018695" user="ðŸ‡¨ðŸ‡¿ Roman HornÃ­k">
    <nd ref="60684501"/>
    <nd ref="12750740507"/>
    <nd ref="297545823"/>
    <nd ref="60699458"/>
    <nd ref="4785045450"/>
    <nd ref="1014570504"/>
    <nd ref="1014570218"/>
    <nd ref="1944023823"/>
    <nd ref="55435060"/>
    <tag k="highway" v="tertiary"/>
    <tag k="lane_markings" v="no"/>
    <tag k="lit" v="yes"/>
    <tag k="maxspeed" v="50"/>
    <tag k="name" v="VeleslavÃ­nskÃ¡"/>
    <tag k="name:de" v="Weleslawiner StraÃŸe"/>
    <tag k="oneway" v="yes"/>
    <tag k="sidewalk:left" v="separate"/>
    <tag k="sidewalk:right" v="no"/>
    <tag k="source:maxspeed" v="CZ:urban"/>
    <tag k="surface" v="asphalt"/>
    <tag k="width" v="3.7"/>
  </way>
  <way id="32871945" version="4" timestamp="2017-07-11T20:47:21Z" changeset="50212400" uid="255936" user="NyanSten">
    <nd ref="297320823"/>
    <nd ref="4964627875"/>
    <nd ref="4964627876"/>
    <nd ref="4964627877"/>
    <nd ref="297320825"/>
    <nd ref="282036365"/>
    <tag k="bicycle" v="yes"/>
    <tag k="highway" v="residential"/>
    <tag k="maxspeed" v="30"/>
    <tag k="motorcar" v="destination"/>
    <tag k="name" v="Pod Okrajem"/>
    <tag k="source:maxspeed" v="zone"/>
    <tag k="surface" v="asphalt"/>
  </way>
  <way id="32871949" version="2" timestamp="2017-07-11T20:47:22Z" changeset="50212400" uid="255936" user="NyanSten">
    <nd ref="282036362"/>
    <nd ref="4964627878"/>
    <tag k="highway" v="residential"/>
    <tag k="maxspeed" v="30"/>
    <tag k="name" v="Pod PetÅ™inami"/>
    <tag k="name:de" v="Petrinergrund"/>
    <tag k="source" v="yahoo:ortofoto"/>
    <tag k="source:maxspeed" v="zone"/>
    <tag k="surface" v="asphalt"/>
  </way>
  <way id="39381101" version="7" timestamp="2023-04-30T07:33:34Z" changeset="135526467" uid="598980" user="Daniel BarÃ¡nek">
    <nd ref="2861855949"/>
    <nd ref="2861855945"/>
    <nd ref="2861855934"/>
    <nd ref="4532834638"/>
    <nd ref="2861855967"/>
    <nd ref="2861855968"/>
    <nd ref="2861856109"/>
    <nd ref="2861856114"/>
    <nd ref="2861856153"/>
    <nd ref="2861856155"/>
    <nd ref="2861856159"/>
    <nd ref="2861856156"/>
    <nd ref="2861856165"/>
    <nd ref="2861856174"/>
    <nd ref="2861856166"/>
    <nd ref="2861856167"/>
    <nd ref="2861856164"/>
    <nd ref="2861856168"/>
    <nd ref="2861856170"/>
    <nd ref="2861856169"/>
    <nd ref="2861856171"/>
    <nd ref="2861856172"/>
    <nd ref="2861856173"/>
    <nd ref="2861856175"/>
    <nd ref="2861856178"/>
    <nd ref="2861856177"/>
    <nd ref="2861856180"/>
    <nd ref="2861856181"/>
    <nd ref="2861856176"/>
    <nd ref="2861856179"/>
    <nd ref="2861856157"/>
    <nd ref="2861856152"/>
    <nd ref="2861856146"/>
    <nd ref="2861856148"/>
    <nd ref="2861856145"/>
    <nd ref="2861856143"/>
    <nd ref="2861856141"/>
    <nd ref="2861856142"/>
    <nd ref="2861856139"/>
    <nd ref="2861856130"/>
    <nd ref="2861856128"/>
    <nd ref="2861856125"/>
    <nd ref="2861856117"/>
    <nd ref="2861856110"/>
    <nd ref="2861856101"/>
    <nd ref="2861855995"/>
    <nd ref="2861855999"/>
    <nd ref="2861856000"/>
    <nd ref="2861855993"/>
    <nd ref="2861855994"/>
    <nd ref="2861855988"/>
    <nd ref="2861855989"/>
    <nd ref="2861856108"/>
    <nd ref="2861856107"/>
    <nd ref="2861855998"/>
    <nd ref="2861855996"/>
    <nd ref="2861855987"/>
    <nd ref="2861855982"/>
    <nd ref="2861855984"/>
    <nd ref="2861855981"/>
    <nd ref="2861855979"/>
    <nd ref="2861855978"/>
    <nd ref="2861855973"/>
    <nd ref="2861855972"/>
    <nd ref="2861855956"/>
    <nd ref="2861855957"/>
    <nd ref="2861855954"/>
    <nd ref="2861855953"/>
    <nd ref="2861855952"/>
    <nd ref="2861855951"/>
    <nd ref="2861855947"/>
    <nd ref="2861855950"/>
    <nd ref="2861855949"/>
    <tag k="addr:city" v="Praha"/>
    <tag k="addr:housenumber" v="2"/>
    <tag k="addr:postcode" v="16200"/>
    <tag k="addr:street" v="JosÃ© MartÃ­ho"/>
    <tag k="building" v="civic"/>
    <tag k="building:flats" v="24"/>
    <tag k="building:levels" v="2"/>
    <tag k="email" v="krystal@centrum-krystal.cz"/>
    <tag k="name" v="Krystal"/>
    <tag k="phone" v="+420 220 563 411"/>
    <tag k="ref:ruian:building" v="22060766"/>
    <tag k="source" v="cuzk:ruian"/>
    <tag k="stars" v="3"/>
    <tag k="tourism" v="hotel"/>
    <tag k="website" v="http://hotel-krystal.eu/"/>
    <tag k="wikidata" v="Q111878099"/>
  </way>
  <way id="42263274" version="11" timestamp="2022-11-11T18:35:43Z" changeset="128788488" uid="1221650" user="slukes">
    <nd ref="1215913613"/>
    <nd ref="1489387460"/>
    <nd ref="249525735"/>
    <nd ref="4859617529"/>
    <nd ref="21631651"/>
    <nd ref="9457888000"/>
    <nd ref="249525023"/>
    <nd ref="249525734"/>
    <nd ref="55435060"/>
    <tag k="cycleway:right" v="shared_lane"/>
    <tag k="cycleway:right:lane" v="pictogram"/>
    <tag k="highway" v="tertiary"/>
    <tag k="lanes" v="1"/>
    <tag k="name" v="Na PetÅ™inÃ¡ch"/>
    <tag k="name:de" v="Petriner HÃ¶he"/>
    <tag k="oneway" v="yes"/>
    <tag k="sidewalk:left" v="no"/>
    <tag k="sidewalk:right" v="separate"/>
    <tag k="surface" v="asphalt"/>
  </way>
  <way id="45284574" version="5" timestamp="2022-12-30T22:34:34Z" changeset="130703469" uid="10932047" user="AF HAF KARTOGRAF">
    <nd ref="575156506"/>
    <nd ref="575156507"/>
    <nd ref="575156452"/>
    <nd ref="575156451"/>
    <nd ref="575156448"/>
    <nd ref="575156450"/>
    <nd ref="5132914981"/>
    <nd ref="3246884162"/>
    <nd ref="575156453"/>
    <nd ref="575156520"/>
    <nd ref="575156519"/>
    <nd ref="575156518"/>
    <nd ref="3246884110"/>
    <nd ref="575156523"/>
    <nd ref="575156521"/>
    <nd ref="575156506"/>
    <tag k="addr:housename" v="HID Global, branch"/>
    <tag k="addr:housenumber" v="30"/>
    <tag k="addr:postcode" v="152 00"/>
    <tag k="addr:street" v="PÅ™edvoje"/>
    <tag k="alt_name" v="HID Global"/>
    <tag k="building" v="residential"/>
    <tag k="building:flats" v="21"/>
    <tag k="building:levels" v="7"/>
    <tag k="building:ruian:type" v="6"/>
    <tag k="name" v="HID Global, branch"/>
    <tag k="ref:ruian:building" v="22061185"/>
    <tag k="source" v="cuzk:ruian"/>
  </way>
  <way id="46984081" version="11" timestamp="2022-09-18T15:44:50Z" changeset="126335304" uid="12164053" user="barefootstache">
    <nd ref="60684501"/>
    <nd ref="360897088"/>
    <nd ref="4964627871"/>
    <nd ref="1449321221"/>
    <nd ref="60699459"/>
    <nd ref="370273724"/>
    <nd ref="7144861581"/>
    <tag k="cycleway:both" v="no"/>
    <tag k="hgv" v="destination"/>
    <tag k="highway" v="residential"/>
    <tag k="maxspeed" v="30"/>
    <tag k="name" v="Pod NovÃ½m lesem"/>
    <tag k="name:de" v="NeuwÃ¤ldergasse"/>
    <tag k="sidewalk" v="left"/>
    <tag k="source:maxspeed" v="zone"/>
    <tag k="surface" v="asphalt"/>
  </way>
  <way id="51277601" version="8" timestamp="2025-04-12T22:26:22Z" changeset="164874324" uid="4018695" user="ðŸ‡¨ðŸ‡¿ Roman HornÃ­k">
    <nd ref="25693857"/>
    <nd ref="31908405"/>
    <nd ref="25693856"/>
    <nd ref="25693872"/>
    <nd ref="772355416"/>
    <nd ref="772355396"/>
    <nd ref="25693855"/>
    <nd ref="31908387"/>
    <nd ref="379188721"/>
    <nd ref="31908389"/>
    <nd ref="379188723"/>
    <nd ref="772355445"/>
    <nd ref="31908392"/>
    <nd ref="787174299"/>
    <nd ref="379188726"/>
    <nd ref="31908396"/>
    <nd ref="7800817486"/>
    <nd ref="25693874"/>
    <nd ref="7800817489"/>
    <nd ref="25693873"/>
    <nd ref="25693876"/>
    <tag k="highway" v="residential"/>
    <tag k="lane_markings" v="no"/>
    <tag k="maxspeed:type" v="CZ:urban"/>
    <tag k="name" v="JosÃ© MartÃ­ho"/>
    <tag k="surface" v="asphalt"/>
  </way>
  <way id="53188405" version="9" timestamp="2025-04-12T22:26:22Z" changeset="164874324" uid="4018695" user="ðŸ‡¨ðŸ‡¿ Roman HornÃ­k">
    <nd ref="249524886"/>
    <nd ref="67012689"/>
    <tag k="cycleway:both" v="no"/>
    <tag k="highway" v="residential"/>
    <tag k="lane_markings" v="no"/>
    <tag k="lit" v="yes"/>
    <tag k="maxspeed:type" v="CZ:urban"/>
    <tag k="name" v="BrunclÃ­kova"/>
    <tag k="source" v="CZ:IPRPraha:ortofoto"/>
    <tag k="surface" v="asphalt"/>
  </way>
  <way id="53189291" version="6" timestamp="2025-05-09T10:57:27Z" changeset="166022347" uid="19652665" user="xigoi">
    <nd ref="60699453"/>
    <nd ref="60699452"/>
    <nd ref="370273690"/>
    <nd ref="60699451"/>
    <tag k="hgv" v="destination"/>
    <tag k="highway" v="residential"/>
    <tag k="maxspeed" v="30"/>
    <tag k="name" v="Na HradnÃ­m vodovodu"/>
    <tag k="oneway" v="no"/>
    <tag k="sidewalk" v="left"/>
    <tag k="source:maxspeed" v="zone"/>
    <tag k="surface" v="asphalt"/>
  </way>
  <way id="53206641" version="7" timestamp="2025-04-24T02:57:16Z" changeset="165357804" uid="4018695" user="ðŸ‡¨ðŸ‡¿ Roman HornÃ­k">
    <nd ref="673407968"/>
    <nd ref="25694618"/>
    <nd ref="25694694"/>
    <tag k="highway" v="residential"/>
    <tag k="maxspeed" v="30"/>
    <tag k="maxspeed:type" v="CZ:zone30"/>
    <tag k="maxspeed:zone" v="30"/>
    <tag k="name" v="PÅ™edvoje"/>
    <tag k="surface" v="asphalt"/>
  </way>
  <way id="53206648" version="8" timestamp="2024-07-31T09:29:38Z" changeset="154639445" uid="2980245" user="dj314d">
    <nd ref="673407990"/>
    <nd ref="8371624626"/>
    <nd ref="8371624625"/>
    <nd ref="8371624624"/>
    <nd ref="673407968"/>
    <tag k="highway" v="residential"/>
    <tag k="maxspeed" v="30"/>
    <tag k="maxspeed:type" v="CZ:zone30"/>
    <tag k="maxspeed:zone" v="30"/>
    <tag k="oneway" v="yes"/>
    <tag k="source" v="CZ:IPRPraha:ortofoto"/>
    <tag k="surface" v="asphalt"/>
  </way>
  <way id="53276585" version="3" timestamp="2021-05-14T13:06:15Z" changeset="104686491" uid="25867" user="adamos">
    <nd ref="25696337"/>
    <nd ref="25696349"/>
    <tag k="highway" v="residential"/>
    <tag k="maxspeed" v="30"/>
    <tag k="name" v="BraÅ¡kovskÃ¡"/>
    <tag k="name:cs" v="BraÅ¡kovskÃ¡"/>
    <tag k="name:de" v="Braschkauer StraÃŸe"/>
    <tag k="source:maxspeed" v="zone"/>
    <tag k="surface" v="asphalt"/>
  </way>
  <way id="53331281" version="6" timestamp="2024-08-05T15:30:03Z" changeset="154856781" uid="2980245" user="dj314d">
    <nd ref="60699445"/>
    <nd ref="249525011"/>
    <nd ref="3893370525"/>
    <nd ref="60699444"/>
    <tag k="highway" v="residential"/>
    <tag k="lane_markings" v="no"/>
    <tag k="sidewalk:left" v="no"/>
    <tag k="sidewalk:right" v="separate"/>
    <tag k="surface" v="asphalt"/>
  </way>
  <way id="61954353" version="6" timestamp="2024-08-14T07:01:04Z" changeset="155224712" uid="2980245" user="dj314d">
    <nd ref="25693857"/>
    <nd ref="1137852837"/>
    <nd ref="1017951644"/>
    <nd ref="25693791"/>
    <tag k="highway" v="residential"/>
    <tag k="surface" v="asphalt"/>
  </way>
  <way id="82426895" version="8" timestamp="2024-09-15T09:16:22Z" changeset="156638988" uid="598980" user="Daniel BarÃ¡nek">
    <nd ref="959461525"/>
    <nd ref="959461535"/>
    <nd ref="959461532"/>
    <nd ref="959461527"/>
    <tag k="cycleway:both" v="no"/>
    <tag k="highway" v="residential"/>
    <tag k="lane_markings" v="no"/>
    <tag k="lit" v="yes"/>
    <tag k="maxspeed" v="50"/>
    <tag k="name" v="Na PetÅ™inÃ¡ch"/>
    <tag k="name:de" v="Petriner HÃ¶he"/>
    <tag k="oneway" v="yes"/>
    <tag k="sidewalk:left" v="no"/>
    <tag k="sidewalk:right" v="separate"/>
    <tag k="surface" v="asphalt"/>
  </way>
  <way id="82427360" version="8" timestamp="2025-04-12T22:26:22Z" changeset="164874324" uid="4018695" user="ðŸ‡¨ðŸ‡¿ Roman HornÃ­k">
    <nd ref="297310329"/>
    <nd ref="5120221049"/>
    <nd ref="5120221050"/>
    <nd ref="12750740513"/>
    <nd ref="5120221048"/>
    <nd ref="12750740512"/>
    <nd ref="5120221047"/>
    <nd ref="297310328"/>
    <nd ref="26819342"/>
    <nd ref="26819341"/>
    <nd ref="12750740511"/>
    <nd ref="12750740510"/>
    <nd ref="5120221046"/>
    <nd ref="12750740509"/>
    <nd ref="5120221044"/>
    <nd ref="1017951869"/>
    <nd ref="26819340"/>
    <tag k="highway" v="residential"/>
    <tag k="maxspeed" v="30"/>
    <tag k="maxspeed:type" v="CZ:zone30"/>
    <tag k="maxspeed:zone" v="30"/>
    <tag k="name" v="MaÅ™Ã­kova"/>
    <tag k="source" v="cuzk:km"/>
    <tag k="surface" v="asphalt"/>
  </way>
  <way id="91535922" version="8" timestamp="2024-10-06T15:33:01Z" changeset="157545970" uid="598980" user="Daniel BarÃ¡nek">
    <nd ref="25694843"/>
    <nd ref="3893370500"/>
    <nd ref="249524885"/>
    <nd ref="67012680"/>
    <tag k="cycleway:both" v="no"/>
    <tag k="highway" v="residential"/>
    <tag k="lane_markings" v="no"/>
    <tag k="maxspeed:type" v="CZ:urban"/>
    <tag k="name" v="U PetÅ™in"/>
    <tag k="sidewalk" v="no"/>
    <tag k="source" v="CZ:IPRPraha:ortofoto"/>
    <tag k="surface" v="asphalt"/>
  </way>
  <way id="91535924" version="10" timestamp="2024-10-06T15:31:53Z" changeset="157545970" uid="598980" user="Daniel BarÃ¡nek">
    <nd ref="67012680"/>
    <nd ref="8371624716"/>
    <nd ref="249524903"/>
    <nd ref="8371624717"/>
    <nd ref="21631649"/>
    <nd ref="8371624715"/>
    <nd ref="21631664"/>
    <tag k="cycleway:both" v="no"/>
    <tag k="highway" v="residential"/>
    <tag k="lanes" v="1"/>
    <tag k="lit" v="yes"/>
    <tag k="maxspeed" v="50"/>
    <tag k="name" v="Na PetÅ™inÃ¡ch"/>
    <tag k="name:de" v="Petriner HÃ¶he"/>
    <tag k="oneway" v="yes"/>
    <tag k="sidewalk:left" v="no"/>
    <tag k="sidewalk:right" v="separate"/>
    <tag k="surface" v="asphalt"/>
  </way>
  <way id="113734145" version="6" timestamp="2022-11-11T18:36:12Z" changeset="128788488" uid="1221650" user="slukes">
    <nd ref="55434861"/>
    <nd ref="3893370528"/>
    <nd ref="249525013"/>
    <nd ref="5429073385"/>
    <nd ref="55435060"/>
    <tag k="foot" v="no"/>
    <tag k="highway" v="residential"/>
    <tag k="oneway" v="yes"/>
    <tag k="sidewalk" v="no"/>
    <tag k="source" v="CZ:IPRPraha:ortofoto"/>
  </way>
  <way id="124022626" version="9" timestamp="2024-10-06T17:07:04Z" changeset="157550213" uid="598980" user="Daniel BarÃ¡nek">
    <nd ref="249525728"/>
    <nd ref="5431262660"/>
    <nd ref="60699445"/>
    <nd ref="249525725"/>
    <nd ref="5431262662"/>
    <nd ref="9949179457"/>
    <nd ref="9949179451"/>
    <nd ref="249524891"/>
    <nd ref="9949179450"/>
    <nd ref="21631647"/>
    <tag k="highway" v="tertiary"/>
    <tag k="lanes" v="1"/>
    <tag k="lit" v="yes"/>
    <tag k="maxspeed" v="50"/>
    <tag k="name" v="Na PetÅ™inÃ¡ch"/>
    <tag k="name:de" v="Petriner HÃ¶he"/>
    <tag k="oneway" v="yes"/>
    <tag k="sidewalk:left" v="no"/>
    <tag k="sidewalk:right" v="separate"/>
    <tag k="surface" v="asphalt"/>
  </way>
  <way id="124107011" version="7" timestamp="2025-04-24T02:57:16Z" changeset="165357804" uid="4018695" user="ðŸ‡¨ðŸ‡¿ Roman HornÃ­k">
    <nd ref="25694694"/>
    <nd ref="3491501604"/>
    <nd ref="25694789"/>
    <tag k="highway" v="residential"/>
    <tag k="lit" v="yes"/>
    <tag k="maxspeed" v="30"/>
    <tag k="maxspeed:type" v="CZ:zone30"/>
    <tag k="maxspeed:zone" v="30"/>
    <tag k="name" v="PÅ™edvoje"/>
    <tag k="sidewalk" v="both"/>
    <tag k="surface" v="asphalt"/>
  </way>
  <way id="124107018" version="4" timestamp="2017-07-11T20:51:05Z" changeset="50212501" uid="255936" user="NyanSten">
    <nd ref="297307474"/>
    <nd ref="1382181736"/>
    <nd ref="4964627883"/>
    <tag k="highway" v="residential"/>
    <tag k="maxspeed" v="30"/>
    <tag k="source:maxspeed" v="zone"/>
    <tag k="surface" v="asphalt"/>
  </way>
  <way id="126271940" version="6" timestamp="2023-03-10T10:41:15Z" changeset="133513304" uid="6588887" user="Martin2035">
    <nd ref="2627472908"/>
    <nd ref="28807421"/>
    <tag k="highway" v="residential"/>
    <tag k="maxspeed" v="30"/>
    <tag k="maxspeed:type" v="CZ:zone30"/>
    <tag k="name" v="Na DraÄkÃ¡ch"/>
    <tag k="source" v="survey"/>
    <tag k="zone:maxspeed" v="30"/>
  </way>
  <way id="127708849" version="3" timestamp="2024-07-30T19:05:57Z" changeset="154620160" uid="2980245" user="dj314d">
    <nd ref="471844043"/>
    <nd ref="379188686"/>
    <tag k="highway" v="residential"/>
    <tag k="lane_markings" v="no"/>
    <tag k="surface" v="paving_stones"/>
  </way>
  <way id="128493440" version="4" timestamp="2025-05-09T11:13:30Z" changeset="166021267" uid="19652665" user="xigoi">
    <nd ref="1419923450"/>
    <nd ref="26804260"/>
    <tag k="highway" v="residential"/>
    <tag k="his:1962-:name" v="AlÅ¾Ã­rskÃ¡"/>
    <tag k="maxspeed" v="30"/>
    <tag k="maxspeed:backward" v="30"/>
    <tag k="maxspeed:forward" v="20"/>
    <tag k="maxspeed:type" v="CZ:zone30"/>
    <tag k="name" v="AlÅ¾Ã­rskÃ¡"/>
    <tag k="source:maxspeed:backward" v="zone"/>
    <tag k="source:maxspeed:forward" v="sign"/>
    <tag k="surface" v="asphalt"/>
    <tag k="zone:maxspeed" v="20"/>
  </way>
  <way id="133140084" version="3" timestamp="2017-07-11T20:47:22Z" changeset="50212400" uid="255936" user="NyanSten">
    <nd ref="282036362"/>
    <nd ref="282036363"/>
    <nd ref="4964627897"/>
    <nd ref="282036364"/>
    <nd ref="282036365"/>
    <tag k="highway" v="residential"/>
    <tag k="maxspeed" v="30"/>
    <tag k="name" v="Pod PetÅ™inami"/>
    <tag k="name:de" v="Petrinergrund"/>
    <tag k="source:maxspeed" v="zone"/>
    <tag k="surface" v="asphalt"/>
  </way>
  <way id="135634101" version="12" timestamp="2024-07-30T06:27:16Z" changeset="154589976" uid="598980" user="Daniel BarÃ¡nek">
    <nd ref="21631652"/>
    <nd ref="1014570253"/>
    <nd ref="249525020"/>
    <nd ref="249525025"/>
    <nd ref="249525018"/>
    <nd ref="370273676"/>
    <nd ref="1215913613"/>
    <tag k="cycleway:right" v="lane"/>
    <tag k="cycleway:right:lane" v="advisory"/>
    <tag k="highway" v="tertiary"/>
    <tag k="lanes" v="1"/>
    <tag k="lit" v="yes"/>
    <tag k="name" v="Na PetÅ™inÃ¡ch"/>
    <tag k="name:de" v="Petriner HÃ¶he"/>
    <tag k="oneway" v="yes"/>
    <tag k="sidewalk:left" v="no"/>
    <tag k="sidewalk:right" v="separate"/>
    <tag k="surface" v="asphalt"/>
  </way>
  <way id="136985055" version="6" timestamp="2024-06-20T15:35:44Z" changeset="152951012" uid="2980245" user="dj314d">
    <nd ref="55435060"/>
    <nd ref="249525728"/>
    <tag k="cycleway" v="shared_lane"/>
    <tag k="highway" v="tertiary"/>
    <tag k="lanes" v="1"/>
    <tag k="name" v="Na PetÅ™inÃ¡ch"/>
    <tag k="name:de" v="Petriner HÃ¶he"/>
    <tag k="oneway" v="yes"/>
    <tag k="sidewalk:left" v="no"/>
    <tag k="sidewalk:right" v="separate"/>
    <tag k="surface" v="asphalt"/>
  </way>
  <way id="136985061" version="7" timestamp="2022-09-18T15:43:52Z" changeset="126334562" uid="12164053" user="barefootstache">
    <nd ref="297348116"/>
    <nd ref="3893370533"/>
    <nd ref="3893370534"/>
    <nd ref="1215913613"/>
    <tag k="highway" v="residential"/>
    <tag k="lit" v="no"/>
    <tag k="sidewalk" v="no"/>
    <tag k="source" v="CZ:IPRPraha:ortofoto"/>
    <tag k="surface" v="asphalt"/>
  </way>
  <way id="142172748" version="16" timestamp="2024-09-27T09:39:06Z" changeset="157162138" uid="17385839" user="Augustlej">
    <nd ref="1556082571"/>
    <nd ref="5299069259"/>
    <nd ref="5299069260"/>
    <nd ref="4696682254"/>
    <tag k="cycleway:right" v="separate"/>
    <tag k="highway" v="primary"/>
    <tag k="lanes" v="2"/>
    <tag k="lit" v="yes"/>
    <tag k="maxspeed" v="60"/>
    <tag k="name" v="EvropskÃ¡"/>
    <tag k="name:ja" v="ã‚¨ãƒ´ãƒ­ãƒ—ã‚¹ã‚«"/>
    <tag k="old_name" v="Leninova"/>
    <tag k="oneway" v="yes"/>
    <tag k="ref" v="7"/>
    <tag k="sidewalk:left" v="no"/>
    <tag k="sidewalk:right" v="separate"/>
    <tag k="smoothness" v="excellent"/>
    <tag k="source:maxspeed" v="sign"/>
    <tag k="surface" v="asphalt"/>
    <tag k="trolley_wire" v="yes"/>
  </way>
  <way id="142172765" version="17" timestamp="2025-04-12T16:05:03Z" changeset="164862560" uid="4018695" user="ðŸ‡¨ðŸ‡¿ Roman HornÃ­k">
    <nd ref="6833276647"/>
    <nd ref="4696682247"/>
    <tag k="access:lanes" v="|no"/>
    <tag k="bicycle:lanes" v="|designated"/>
    <tag k="bus:lanes" v="|designated"/>
    <tag k="busway:right" v="lane"/>
    <tag k="cycleway:left" v="no"/>
    <tag k="cycleway:right" v="share_busway"/>
    <tag k="highway" v="primary"/>
    <tag k="lanes" v="2"/>
    <tag k="lit" v="yes"/>
    <tag k="maxspeed" v="60"/>
    <tag k="name" v="EvropskÃ¡"/>
    <tag k="name:ja" v="ã‚¨ãƒ´ãƒ­ãƒ—ã‚¹ã‚«"/>
    <tag k="old_name" v="Leninova"/>
    <tag k="oneway" v="yes"/>
    <tag k="psv:lanes" v="|designated"/>
    <tag k="ref" v="7"/>
    <tag k="sidewalk:left" v="no"/>
    <tag k="sidewalk:right" v="separate"/>
    <tag k="smoothness" v="good"/>
    <tag k="source:maxspeed" v="sign"/>
    <tag k="surface" v="asphalt"/>
    <tag k="taxi:lanes" v="|designated"/>
    <tag k="trolley_wire" v="yes"/>
  </way>
  <way id="165943740" version="5" timestamp="2023-08-07T16:27:54Z" changeset="139573775" uid="12500589" user="tg4567">
    <nd ref="1774483004"/>
    <nd ref="1774482999"/>
    <nd ref="1774482996"/>
    <nd ref="1774483002"/>
    <nd ref="1774483004"/>
    <tag k="building" v="service"/>
    <tag k="name" v="vodovodnÃ­ domek"/>
    <tag k="wikidata" v="Q38187120"/>
    <tag k="wikimedia_commons" v="Category:Water house in VeleslavÃ­n"/>
  </way>
  <way id="173683222" version="6" timestamp="2022-11-08T14:28:17Z" changeset="128640482" uid="1221650" user="slukes">
    <nd ref="262384798"/>
    <nd ref="60684505"/>
    <nd ref="60684507"/>
    <nd ref="5426185197"/>
    <nd ref="2338681206"/>
    <nd ref="297304083"/>
    <tag k="highway" v="residential"/>
    <tag k="maxspeed" v="30"/>
    <tag k="maxspeed:type" v="CZ:zone30"/>
    <tag k="maxspeed:zone" v="30"/>
    <tag k="name" v="KrÃ¡snÃ©ho"/>
    <tag k="surface" v="asphalt"/>
  </way>
  <way id="173684505" version="6" timestamp="2025-04-12T16:05:03Z" changeset="164862560" uid="4018695" user="ðŸ‡¨ðŸ‡¿ Roman HornÃ­k">
    <nd ref="12750101974"/>
    <nd ref="4964627865"/>
    <nd ref="262384554"/>
    <nd ref="262384555"/>
    <nd ref="262384556"/>
    <nd ref="1844531309"/>
    <tag k="highway" v="residential"/>
    <tag k="maxspeed" v="30"/>
    <tag k="name" v="U Sadu"/>
    <tag k="name:de" v="Am Sterngarten"/>
    <tag k="priority" v="forward"/>
    <tag k="source:maxspeed" v="zone"/>
    <tag k="surface" v="asphalt"/>
  </way>
  <way id="225037823" version="5" timestamp="2017-07-11T20:47:23Z" changeset="50212400" uid="255936" user="NyanSten">
    <nd ref="262384747"/>
    <nd ref="3889522938"/>
    <nd ref="262384748"/>
    <nd ref="262384749"/>
    <nd ref="262384750"/>
    <nd ref="4964627885"/>
    <tag k="access" v="destination"/>
    <tag k="highway" v="residential"/>
    <tag k="incline" v="up"/>
    <tag k="maxspeed" v="30"/>
    <tag k="name" v="U Sadu"/>
    <tag k="name:de" v="Am Sterngarten"/>
    <tag k="source:maxspeed" v="zone"/>
    <tag k="surface" v="sett"/>
  </way>
  <way id="225042519" version="3" timestamp="2022-02-11T16:03:35Z" changeset="117293498" uid="6588887" user="Martin2035">
    <nd ref="2338681208"/>
    <nd ref="297304076"/>
    <nd ref="297304083"/>
    <tag k="highway" v="residential"/>
    <tag k="lit" v="yes"/>
    <tag k="maxspeed" v="30"/>
    <tag k="maxspeed:type" v="CZ:zone30"/>
    <tag k="maxspeed:zone" v="30"/>
    <tag k="name" v="Å umberova"/>
    <tag k="source" v="cuzk:km+uhul:ortofoto"/>
  </way>
  <way id="225042520" version="7" timestamp="2022-11-08T14:27:11Z" changeset="128640482" uid="1221650" user="slukes">
    <nd ref="2338681206"/>
    <nd ref="2338681207"/>
    <nd ref="5120220705"/>
    <nd ref="5120220704"/>
    <nd ref="2338681209"/>
    <nd ref="5120220706"/>
    <nd ref="2338681212"/>
    <nd ref="5997449665"/>
    <nd ref="2338681214"/>
    <nd ref="2338681216"/>
    <nd ref="2338681222"/>
    <tag k="highway" v="residential"/>
    <tag k="maxspeed" v="30"/>
    <tag k="maxspeed:type" v="CZ:zone30"/>
    <tag k="maxspeed:zone" v="30"/>
    <tag k="name" v="Å umberova"/>
    <tag k="oneway" v="yes"/>
    <tag k="surface" v="asphalt"/>
  </way>
  <way id="250298544" version="7" timestamp="2024-09-25T13:44:24Z" changeset="157083372" uid="598980" user="Daniel BarÃ¡nek">
    <nd ref="673407990"/>
    <nd ref="25694636"/>
    <tag k="cycleway:both" v="no"/>
    <tag k="highway" v="residential"/>
    <tag k="lanes" v="1"/>
    <tag k="lit" v="yes"/>
    <tag k="maxspeed" v="50"/>
    <tag k="name" v="HeyrovskÃ©ho nÃ¡mÄ›stÃ­"/>
    <tag k="oneway" v="yes"/>
    <tag k="source" v="CZ:IPRPraha:ortofoto"/>
    <tag k="surface" v="asphalt"/>
  </way>
  <way id="251157035" version="7" timestamp="2025-04-12T22:26:22Z" changeset="164874324" uid="4018695" user="ðŸ‡¨ðŸ‡¿ Roman HornÃ­k">
    <nd ref="654249215"/>
    <nd ref="10778671331"/>
    <tag k="access" v="destination"/>
    <tag k="highway" v="residential"/>
    <tag k="maxspeed" v="30"/>
    <tag k="maxspeed:type" v="CZ:zone30"/>
    <tag k="name" v="JosÃ© MartÃ­ho"/>
    <tag k="oneway" v="yes"/>
    <tag k="surface" v="sett"/>
  </way>
  <way id="265407727" version="9" timestamp="2025-01-15T23:46:26Z" changeset="161398867" uid="17639962" user="detective-fiasco">
    <nd ref="2710759983"/>
    <nd ref="249524896"/>
    <nd ref="25693903"/>
    <tag k="highway" v="residential"/>
    <tag k="lit" v="yes"/>
    <tag k="maxspeed" v="30"/>
    <tag k="maxspeed:type" v="CZ:zone30"/>
    <tag k="maxspeed:zone" v="30"/>
    <tag k="name" v="ÄŒÃ­lova"/>
    <tag k="sidewalk:both" v="separate"/>
    <tag k="source" v="CZ:IPRPraha:ortofoto"/>
    <tag k="surface" v="asphalt"/>
  </way>
  <way id="265407728" version="8" timestamp="2025-01-15T23:46:37Z" changeset="161398867" uid="17639962" user="detective-fiasco">
    <nd ref="2710759994"/>
    <nd ref="2710759989"/>
    <nd ref="2710759985"/>
    <nd ref="2710759983"/>
    <tag k="highway" v="residential"/>
    <tag k="lit" v="yes"/>
    <tag k="maxspeed" v="30"/>
    <tag k="maxspeed:type" v="CZ:zone30"/>
    <tag k="maxspeed:zone" v="30"/>
    <tag k="name" v="ÄŒÃ­lova"/>
    <tag k="oneway" v="yes"/>
    <tag k="sidewalk:left" v="no"/>
    <tag k="sidewalk:right" v="separate"/>
    <tag k="source" v="CZ:IPRPraha:ortofoto"/>
    <tag k="surface" v="asphalt"/>
  </way>
  <way id="288761700" version="14" timestamp="2025-04-12T16:05:03Z" changeset="164862560" uid="4018695" user="ðŸ‡¨ðŸ‡¿ Roman HornÃ­k">
    <nd ref="9828355657"/>
    <nd ref="5318778819"/>
    <nd ref="691082066"/>
    <nd ref="26804264"/>
    <nd ref="1131823500"/>
    <nd ref="12750101970"/>
    <nd ref="26804260"/>
    <tag k="foot" v="use_sidepath"/>
    <tag k="highway" v="residential"/>
    <tag k="his:1930-:name" v="KladenskÃ¡"/>
    <tag k="lanes" v="1"/>
    <tag k="maxspeed" v="30"/>
    <tag k="maxspeed:type" v="CZ:zone30"/>
    <tag k="name" v="KladenskÃ¡"/>
    <tag k="name:de" v="Kladner StraÃŸe"/>
    <tag k="parking:both" v="yes"/>
    <tag k="parking:both:orientation" v="parallel"/>
    <tag k="parking:condition:both" v="residents;ticket"/>
    <tag k="source:maxspeed" v="zone"/>
    <tag k="surface" v="asphalt"/>
    <tag k="zone:maxspeed" v="20"/>
  </way>
  <way id="290395299" version="7" timestamp="2025-01-15T23:46:34Z" changeset="161398867" uid="17639962" user="detective-fiasco">
    <nd ref="2710759983"/>
    <nd ref="2710759987"/>
    <nd ref="2710759992"/>
    <nd ref="2710759994"/>
    <tag k="highway" v="residential"/>
    <tag k="lit" v="yes"/>
    <tag k="maxspeed" v="30"/>
    <tag k="maxspeed:type" v="CZ:zone30"/>
    <tag k="maxspeed:zone" v="30"/>
    <tag k="name" v="ÄŒÃ­lova"/>
    <tag k="oneway" v="yes"/>
    <tag k="sidewalk:left" v="no"/>
    <tag k="sidewalk:right" v="separate"/>
    <tag k="source" v="CZ:IPRPraha:ortofoto"/>
    <tag k="surface" v="asphalt"/>
  </way>
  <way id="315284766" version="5" timestamp="2022-11-08T14:26:15Z" changeset="128640482" uid="1221650" user="slukes">
    <nd ref="2338681222"/>
    <nd ref="60684508"/>
    <nd ref="297304083"/>
    <tag k="highway" v="residential"/>
    <tag k="lit" v="yes"/>
    <tag k="maxspeed" v="30"/>
    <tag k="maxspeed:type" v="CZ:zone30"/>
    <tag k="maxspeed:zone" v="30"/>
    <tag k="name" v="KrÃ¡snÃ©ho"/>
    <tag k="oneway" v="yes"/>
    <tag k="surface" v="asphalt"/>
  </way>
  <way id="319408342" version="9" timestamp="2025-01-15T23:50:02Z" changeset="161398867" uid="17639962" user="detective-fiasco">
    <nd ref="3258193769"/>
    <nd ref="10637222127"/>
    <nd ref="25693984"/>
    <tag k="highway" v="residential"/>
    <tag k="lit" v="yes"/>
    <tag k="maxspeed:backward" v="50"/>
    <tag k="maxspeed:forward" v="30"/>
    <tag k="maxspeed:type" v="CZ:zone30"/>
    <tag k="maxspeed:zone" v="30"/>
    <tag k="name" v="Na Okraji"/>
    <tag k="sidewalk:both" v="separate"/>
    <tag k="surface" v="asphalt"/>
  </way>
  <way id="319408343" version="7" timestamp="2025-01-15T23:50:05Z" changeset="161398867" uid="17639962" user="detective-fiasco">
    <nd ref="25693909"/>
    <nd ref="3258193765"/>
    <tag k="highway" v="residential"/>
    <tag k="maxspeed:backward" v="30"/>
    <tag k="maxspeed:forward" v="50"/>
    <tag k="maxspeed:type" v="CZ:zone30"/>
    <tag k="maxspeed:zone" v="30"/>
    <tag k="name" v="Na Okraji"/>
    <tag k="sidewalk:both" v="separate"/>
    <tag k="surface" v="asphalt"/>
  </way>
  <way id="319408344" version="8" timestamp="2025-01-15T23:50:23Z" changeset="161398867" uid="17639962" user="detective-fiasco">
    <nd ref="3258193765"/>
    <nd ref="3258193768"/>
    <nd ref="3258193766"/>
    <nd ref="1254054322"/>
    <nd ref="3258193767"/>
    <nd ref="9281473173"/>
    <nd ref="3258193769"/>
    <tag k="highway" v="residential"/>
    <tag k="maxspeed" v="30"/>
    <tag k="maxspeed:type" v="CZ:zone30"/>
    <tag k="maxspeed:zone" v="30"/>
    <tag k="name" v="Na Okraji"/>
    <tag k="sidewalk:both" v="separate"/>
    <tag k="surface" v="asphalt"/>
  </way>
  <way id="337869609" version="9" timestamp="2025-04-12T16:05:03Z" changeset="164862560" uid="4018695" user="ðŸ‡¨ðŸ‡¿ Roman HornÃ­k">
    <nd ref="12750101975"/>
    <nd ref="60350933"/>
    <nd ref="12750101974"/>
    <tag k="foot" v="use_sidepath"/>
    <tag k="highway" v="tertiary"/>
    <tag k="lanes" v="2"/>
    <tag k="maxspeed" v="50"/>
    <tag k="name" v="VeleslavÃ­nskÃ¡"/>
    <tag k="name:de" v="Weleslawiner StraÃŸe"/>
    <tag k="source:maxspeed" v="CZ:urban"/>
    <tag k="surface" v="asphalt"/>
  </way>
  <way id="338017823" version="8" timestamp="2023-10-23T14:01:41Z" changeset="143020306" uid="255936" user="NyanSten">
    <nd ref="2675391156"/>
    <nd ref="2939027190"/>
    <tag k="foot" v="use_sidepath"/>
    <tag k="highway" v="tertiary"/>
    <tag k="lanes:backward" v="1"/>
    <tag k="lanes:forward" v="1"/>
    <tag k="maxspeed" v="50"/>
    <tag k="name" v="VeleslavÃ­nskÃ¡"/>
    <tag k="name:de" v="Weleslawiner StraÃŸe"/>
    <tag k="source:maxspeed" v="CZ:urban"/>
    <tag k="surface" v="asphalt"/>
  </way>
  <way id="338111832" version="13" timestamp="2024-09-25T13:43:50Z" changeset="157083372" uid="598980" user="Daniel BarÃ¡nek">
    <nd ref="67012689"/>
    <nd ref="330405037"/>
    <nd ref="8371624727"/>
    <nd ref="67012680"/>
    <tag k="cycleway:both" v="no"/>
    <tag k="highway" v="residential"/>
    <tag k="lanes" v="1"/>
    <tag k="lit" v="yes"/>
    <tag k="maxspeed" v="50"/>
    <tag k="name" v="Na PetÅ™inÃ¡ch"/>
    <tag k="name:de" v="Petriner HÃ¶he"/>
    <tag k="oneway" v="yes"/>
    <tag k="sidewalk:left" v="no"/>
    <tag k="sidewalk:right" v="separate"/>
    <tag k="surface" v="asphalt"/>
  </way>
  <way id="371711159" version="9" timestamp="2025-04-12T16:05:03Z" changeset="164862560" uid="4018695" user="ðŸ‡¨ðŸ‡¿ Roman HornÃ­k">
    <nd ref="2131064647"/>
    <nd ref="12750101967"/>
    <nd ref="60729234"/>
    <nd ref="60729233"/>
    <nd ref="60729232"/>
    <nd ref="60729231"/>
    <nd ref="360897093"/>
    <tag k="hgv" v="destination"/>
    <tag k="highway" v="residential"/>
    <tag k="maxspeed" v="30"/>
    <tag k="name" v="Pod NovÃ½m lesem"/>
    <tag k="name:de" v="NeuwÃ¤ldergasse"/>
    <tag k="source:maxspeed" v="zone"/>
    <tag k="surface" v="asphalt"/>
  </way>
  <way id="371711161" version="7" timestamp="2020-08-04T07:38:10Z" changeset="88913147" uid="8976801" user="majkaz_imports">
    <nd ref="360897093"/>
    <nd ref="60729230"/>
    <nd ref="60729229"/>
    <nd ref="60729228"/>
    <nd ref="60729227"/>
    <nd ref="60699462"/>
    <nd ref="60699461"/>
    <nd ref="60699460"/>
    <nd ref="60699453"/>
    <tag k="hgv" v="destination"/>
    <tag k="highway" v="residential"/>
    <tag k="maxspeed" v="30"/>
    <tag k="name" v="Pod NovÃ½m lesem"/>
    <tag k="name:de" v="NeuwÃ¤ldergasse"/>
    <tag k="source:maxspeed" v="zone"/>
    <tag k="surface" v="asphalt"/>
  </way>
  <way id="383578577" version="4" timestamp="2017-07-11T20:47:23Z" changeset="50212400" uid="255936" user="NyanSten">
    <nd ref="282036349"/>
    <nd ref="282036350"/>
    <nd ref="282036351"/>
    <nd ref="282036352"/>
    <nd ref="297304095"/>
    <tag k="highway" v="residential"/>
    <tag k="maxspeed" v="30"/>
    <tag k="name" v="Nad StanicÃ­"/>
    <tag k="name:de" v="Bahnhofzeile"/>
    <tag k="source" v="cuzk:km+uhul:ortofoto"/>
    <tag k="source:maxspeed" v="zone"/>
    <tag k="surface" v="asphalt"/>
  </way>
  <way id="383578578" version="5" timestamp="2025-04-12T16:05:03Z" changeset="164862560" uid="4018695" user="ðŸ‡¨ðŸ‡¿ Roman HornÃ­k">
    <nd ref="1844531309"/>
    <nd ref="282036348"/>
    <nd ref="282036349"/>
    <tag k="highway" v="residential"/>
    <tag k="maxspeed" v="30"/>
    <tag k="name" v="Nad StanicÃ­"/>
    <tag k="name:de" v="Bahnhofzeile"/>
    <tag k="source" v="cuzk:km+uhul:ortofoto"/>
    <tag k="source:maxspeed" v="zone"/>
    <tag k="surface" v="asphalt"/>
  </way>
  <way id="415305917" version="11" timestamp="2024-09-25T13:43:06Z" changeset="157083372" uid="598980" user="Daniel BarÃ¡nek">
    <nd ref="4163473036"/>
    <nd ref="4163473037"/>
    <nd ref="4163473035"/>
    <nd ref="4163473034"/>
    <tag k="cycleway:both" v="no"/>
    <tag k="highway" v="residential"/>
    <tag k="lane_markings" v="no"/>
    <tag k="lit" v="yes"/>
    <tag k="maxspeed" v="50"/>
    <tag k="name" v="Na PetÅ™inÃ¡ch"/>
    <tag k="name:de" v="Petriner HÃ¶he"/>
    <tag k="oneway" v="yes"/>
    <tag k="sidewalk:left" v="no"/>
    <tag k="sidewalk:right" v="separate"/>
    <tag k="source" v="CZ:IPRPraha:ortofoto"/>
    <tag k="surface" v="asphalt"/>
  </way>
  <way id="415507187" version="4" timestamp="2023-03-10T10:41:15Z" changeset="133513304" uid="6588887" user="Martin2035">
    <nd ref="2627472908"/>
    <nd ref="800385792"/>
    <tag k="highway" v="residential"/>
    <tag k="maxspeed" v="30"/>
    <tag k="maxspeed:type" v="CZ:zone30"/>
    <tag k="zone:maxspeed" v="30"/>
  </way>
  <way id="416858891" version="3" timestamp="2019-04-25T07:22:49Z" changeset="69551863" uid="9667914" user="emteycz">
    <nd ref="4175429296"/>
    <nd ref="4175429298"/>
    <nd ref="4175429299"/>
    <nd ref="297323801"/>
    <tag k="highway" v="residential"/>
    <tag k="name" v="Nad StanicÃ­"/>
    <tag k="name:de" v="Bahnhofzeile"/>
    <tag k="source" v="gps"/>
    <tag k="tracktype" v="grade3"/>
  </way>
  <way id="435811208" version="7" timestamp="2025-04-12T16:05:03Z" changeset="164862560" uid="4018695" user="ðŸ‡¨ðŸ‡¿ Roman HornÃ­k">
    <nd ref="26804288"/>
    <nd ref="4828750238"/>
    <nd ref="1774483010"/>
    <nd ref="26804283"/>
    <nd ref="1774483006"/>
    <nd ref="297325231"/>
    <nd ref="26804278"/>
    <nd ref="1774482984"/>
    <nd ref="26804273"/>
    <tag k="highway" v="tertiary"/>
    <tag k="lanes" v="2"/>
    <tag k="lit" v="yes"/>
    <tag k="maxspeed" v="50"/>
    <tag k="name" v="VeleslavÃ­nskÃ¡"/>
    <tag k="name:de" v="Weleslawiner StraÃŸe"/>
    <tag k="source:maxspeed" v="CZ:urban"/>
    <tag k="surface" v="asphalt"/>
  </way>
  <way id="435811209" version="3" timestamp="2017-07-11T20:47:24Z" changeset="50212400" uid="255936" user="NyanSten">
    <nd ref="1464977942"/>
    <nd ref="1844531309"/>
    <tag k="highway" v="residential"/>
    <tag k="maxspeed" v="30"/>
    <tag k="name" v="Nad StanicÃ­"/>
    <tag k="name:de" v="Bahnhofzeile"/>
    <tag k="source" v="cuzk:km+uhul:ortofoto"/>
    <tag k="source:maxspeed" v="zone"/>
    <tag k="surface" v="asphalt"/>
  </way>
  <way id="438366530" version="6" timestamp="2022-02-11T16:03:35Z" changeset="117293498" uid="6588887" user="Martin2035">
    <nd ref="330405022"/>
    <nd ref="4361134131"/>
    <nd ref="4361134132"/>
    <nd ref="4361134133"/>
    <nd ref="4950815921"/>
    <nd ref="4361134134"/>
    <tag k="highway" v="residential"/>
    <tag k="maxspeed" v="30"/>
    <tag k="maxspeed:type" v="CZ:zone30"/>
    <tag k="maxspeed:zone" v="30"/>
    <tag k="name" v="Na PetÅ™inÃ¡ch"/>
    <tag k="name:de" v="Petriner HÃ¶he"/>
  </way>
  <way id="464063737" version="7" timestamp="2025-01-15T23:46:24Z" changeset="161398867" uid="17639962" user="detective-fiasco">
    <nd ref="25693903"/>
    <nd ref="249524887"/>
    <nd ref="3893370515"/>
    <nd ref="25693904"/>
    <tag k="cycleway:both" v="no"/>
    <tag k="foot" v="no"/>
    <tag k="highway" v="residential"/>
    <tag k="lane_markings" v="no"/>
    <tag k="lit" v="yes"/>
    <tag k="name" v="ÄŒÃ­lova"/>
    <tag k="sidewalk:both" v="separate"/>
    <tag k="surface" v="asphalt"/>
  </way>
  <way id="474649008" version="11" timestamp="2024-10-07T06:37:49Z" changeset="157566769" uid="598980" user="Daniel BarÃ¡nek">
    <nd ref="893236194"/>
    <nd ref="7777720678"/>
    <nd ref="646093264"/>
    <nd ref="3134831406"/>
    <nd ref="26827695"/>
    <tag k="cycleway:right" v="no"/>
    <tag k="highway" v="primary"/>
    <tag k="lanes" v="3"/>
    <tag k="lit" v="yes"/>
    <tag k="maxspeed" v="60"/>
    <tag k="name" v="EvropskÃ¡"/>
    <tag k="name:ja" v="ã‚¨ãƒ´ãƒ­ãƒ—ã‚¹ã‚«"/>
    <tag k="old_name" v="Leninova"/>
    <tag k="oneway" v="yes"/>
    <tag k="placement" v="right_of:2"/>
    <tag k="ref" v="7"/>
    <tag k="sidewalk:left" v="no"/>
    <tag k="sidewalk:right" v="separate"/>
    <tag k="smoothness" v="excellent"/>
    <tag k="source:maxspeed" v="sign"/>
    <tag k="surface" v="asphalt"/>
    <tag k="trolley_wire" v="yes"/>
    <tag k="turn:lanes" v="left|through|through;right"/>
  </way>
  <way id="475997965" version="13" timestamp="2024-10-07T06:40:37Z" changeset="157566968" uid="598980" user="Daniel BarÃ¡nek">
    <nd ref="4696682247"/>
    <nd ref="4696682248"/>
    <tag k="access:lanes" v="|no"/>
    <tag k="bicycle:lanes" v="|designated"/>
    <tag k="bridge" v="yes"/>
    <tag k="bus:lanes" v="|designated"/>
    <tag k="busway:right" v="lane"/>
    <tag k="cycleway:left" v="no"/>
    <tag k="cycleway:right" v="share_busway"/>
    <tag k="highway" v="primary"/>
    <tag k="lanes" v="2"/>
    <tag k="layer" v="1"/>
    <tag k="lit" v="yes"/>
    <tag k="maxspeed" v="60"/>
    <tag k="maxweight:signed" v="no"/>
    <tag k="name" v="EvropskÃ¡"/>
    <tag k="name:ja" v="ã‚¨ãƒ´ãƒ­ãƒ—ã‚¹ã‚«"/>
    <tag k="old_name" v="Leninova"/>
    <tag k="oneway" v="yes"/>
    <tag k="psv:lanes" v="|designated"/>
    <tag k="ref" v="7"/>
    <tag k="sidewalk:left" v="no"/>
    <tag k="sidewalk:right" v="separate"/>
    <tag k="smoothness" v="good"/>
    <tag k="source:maxspeed" v="sign"/>
    <tag k="surface" v="asphalt"/>
    <tag k="taxi:lanes" v="|designated"/>
    <tag k="trolley_wire" v="yes"/>
    <tag k="wikidata" v="Q108262551"/>
  </way>
  <way id="475997966" version="11" timestamp="2025-04-12T16:05:03Z" changeset="164862560" uid="4018695" user="ðŸ‡¨ðŸ‡¿ Roman HornÃ­k">
    <nd ref="4696682248"/>
    <nd ref="893236194"/>
    <tag k="access:lanes" v="|no"/>
    <tag k="bicycle:lanes" v="|designated"/>
    <tag k="bus:lanes" v="|designated"/>
    <tag k="busway:right" v="lane"/>
    <tag k="cycleway:left" v="no"/>
    <tag k="cycleway:right" v="share_busway"/>
    <tag k="highway" v="primary"/>
    <tag k="lanes" v="2"/>
    <tag k="lit" v="yes"/>
    <tag k="maxspeed" v="60"/>
    <tag k="name" v="EvropskÃ¡"/>
    <tag k="name:ja" v="ã‚¨ãƒ´ãƒ­ãƒ—ã‚¹ã‚«"/>
    <tag k="old_name" v="Leninova"/>
    <tag k="oneway" v="yes"/>
    <tag k="psv:lanes" v="|designated"/>
    <tag k="ref" v="7"/>
    <tag k="sidewalk:left" v="no"/>
    <tag k="sidewalk:right" v="separate"/>
    <tag k="smoothness" v="good"/>
    <tag k="source:maxspeed" v="sign"/>
    <tag k="surface" v="asphalt"/>
    <tag k="taxi:lanes" v="|designated"/>
    <tag k="trolley_wire" v="yes"/>
  </way>
  <way id="487491782" version="13" timestamp="2024-10-07T06:41:54Z" changeset="157566968" uid="598980" user="Daniel BarÃ¡nek">
    <nd ref="9520506151"/>
    <nd ref="312630647"/>
    <nd ref="645861298"/>
    <nd ref="11459682293"/>
    <tag k="cycleway:left" v="no"/>
    <tag k="cycleway:right" v="share_busway"/>
    <tag k="highway" v="primary"/>
    <tag k="lanes" v="2"/>
    <tag k="lit" v="yes"/>
    <tag k="maxspeed" v="50"/>
    <tag k="name" v="EvropskÃ¡"/>
    <tag k="name:ja" v="ã‚¨ãƒ´ãƒ­ãƒ—ã‚¹ã‚«"/>
    <tag k="old_name" v="Leninova"/>
    <tag k="oneway" v="yes"/>
    <tag k="ref" v="7"/>
    <tag k="sidewalk:left" v="no"/>
    <tag k="sidewalk:right" v="separate"/>
    <tag k="source:maxspeed" v="sign"/>
    <tag k="surface" v="asphalt"/>
    <tag k="trolley_wire" v="yes"/>
  </way>
  <way id="487491784" version="12" timestamp="2024-10-07T06:42:01Z" changeset="157566968" uid="598980" user="Daniel BarÃ¡nek">
    <nd ref="4799411360"/>
    <nd ref="645861291"/>
    <nd ref="12147905728"/>
    <nd ref="645861288"/>
    <nd ref="5307334162"/>
    <nd ref="312630658"/>
    <nd ref="9520506151"/>
    <tag k="cycleway:left" v="no"/>
    <tag k="cycleway:right" v="share_busway"/>
    <tag k="highway" v="primary"/>
    <tag k="lanes" v="2"/>
    <tag k="lit" v="yes"/>
    <tag k="maxspeed" v="60"/>
    <tag k="name" v="EvropskÃ¡"/>
    <tag k="name:ja" v="ã‚¨ãƒ´ãƒ­ãƒ—ã‚¹ã‚«"/>
    <tag k="old_name" v="Leninova"/>
    <tag k="oneway" v="yes"/>
    <tag k="ref" v="7"/>
    <tag k="sidewalk:left" v="no"/>
    <tag k="sidewalk:right" v="separate"/>
    <tag k="source:maxspeed" v="sign"/>
    <tag k="surface" v="asphalt"/>
    <tag k="trolley_wire" v="yes"/>
    <tag k="turn:lanes" v="through|through;right"/>
  </way>
  <way id="487491788" version="8" timestamp="2024-10-07T06:42:43Z" changeset="157566968" uid="598980" user="Daniel BarÃ¡nek">
    <nd ref="31908409"/>
    <nd ref="31908422"/>
    <tag k="access:lanes" v="|no"/>
    <tag k="bicycle:lanes" v="|designated"/>
    <tag k="bus:lanes" v="|designated"/>
    <tag k="busway:right" v="lane"/>
    <tag k="cycleway:left" v="no"/>
    <tag k="cycleway:right" v="share_busway"/>
    <tag k="highway" v="primary"/>
    <tag k="lanes" v="2"/>
    <tag k="lit" v="yes"/>
    <tag k="maxspeed" v="60"/>
    <tag k="name" v="EvropskÃ¡"/>
    <tag k="name:ja" v="ã‚¨ãƒ´ãƒ­ãƒ—ã‚¹ã‚«"/>
    <tag k="old_name" v="Leninova"/>
    <tag k="oneway" v="yes"/>
    <tag k="psv:lanes" v="|designated"/>
    <tag k="ref" v="7"/>
    <tag k="sidewalk:left" v="no"/>
    <tag k="sidewalk:right" v="separate"/>
    <tag k="source:maxspeed" v="sign"/>
    <tag k="surface" v="asphalt"/>
    <tag k="taxi:lanes" v="|designated"/>
    <tag k="trolley_wire" v="yes"/>
  </way>
  <way id="487491791" version="9" timestamp="2024-10-07T06:42:08Z" changeset="157566968" uid="598980" user="Daniel BarÃ¡nek">
    <nd ref="31908422"/>
    <nd ref="4799411360"/>
    <tag k="access:lanes" v="|no"/>
    <tag k="bicycle:lanes" v="|designated"/>
    <tag k="bus:lanes" v="|designated"/>
    <tag k="busway:right" v="lane"/>
    <tag k="cycleway:left" v="no"/>
    <tag k="cycleway:right" v="share_busway"/>
    <tag k="highway" v="primary"/>
    <tag k="lanes" v="2"/>
    <tag k="lit" v="yes"/>
    <tag k="maxspeed" v="60"/>
    <tag k="name" v="EvropskÃ¡"/>
    <tag k="name:ja" v="ã‚¨ãƒ´ãƒ­ãƒ—ã‚¹ã‚«"/>
    <tag k="old_name" v="Leninova"/>
    <tag k="oneway" v="yes"/>
    <tag k="psv:lanes" v="|designated"/>
    <tag k="ref" v="7"/>
    <tag k="sidewalk:left" v="no"/>
    <tag k="sidewalk:right" v="separate"/>
    <tag k="smoothness" v="good"/>
    <tag k="source:maxspeed" v="sign"/>
    <tag k="surface" v="asphalt"/>
    <tag k="taxi:lanes" v="|designated"/>
    <tag k="trolley_wire" v="yes"/>
  </way>
  <way id="487492269" version="10" timestamp="2024-10-07T06:40:59Z" changeset="157566968" uid="598980" user="Daniel BarÃ¡nek">
    <nd ref="25693791"/>
    <nd ref="471843996"/>
    <nd ref="6833276647"/>
    <tag k="cycleway:both" v="no"/>
    <tag k="highway" v="primary"/>
    <tag k="lanes" v="2"/>
    <tag k="lit" v="yes"/>
    <tag k="maxspeed" v="60"/>
    <tag k="name" v="EvropskÃ¡"/>
    <tag k="name:ja" v="ã‚¨ãƒ´ãƒ­ãƒ—ã‚¹ã‚«"/>
    <tag k="old_name" v="Leninova"/>
    <tag k="oneway" v="yes"/>
    <tag k="ref" v="7"/>
    <tag k="sidewalk:left" v="no"/>
    <tag k="sidewalk:right" v="separate"/>
    <tag k="smoothness" v="good"/>
    <tag k="source:maxspeed" v="sign"/>
    <tag k="surface" v="asphalt"/>
    <tag k="trolley_wire" v="yes"/>
    <tag k="turn:lanes" v="|merge_to_left"/>
  </way>
  <way id="487492270" version="2" timestamp="2024-09-15T20:00:21Z" changeset="156662400" uid="598980" user="Daniel BarÃ¡nek">
    <nd ref="25693791"/>
    <nd ref="242836611"/>
    <nd ref="3414583413"/>
    <nd ref="25693783"/>
    <tag k="highway" v="residential"/>
    <tag k="lit" v="yes"/>
    <tag k="maxspeed" v="50"/>
    <tag k="source:maxspeed" v="CZ:urban"/>
    <tag k="surface" v="asphalt"/>
  </way>
  <way id="487492271" version="8" timestamp="2024-10-07T06:41:05Z" changeset="157566968" uid="598980" user="Daniel BarÃ¡nek">
    <nd ref="4799422570"/>
    <nd ref="1137852819"/>
    <nd ref="12147905732"/>
    <nd ref="471843995"/>
    <nd ref="25693791"/>
    <tag k="cycleway:left" v="no"/>
    <tag k="cycleway:right" v="share_busway"/>
    <tag k="highway" v="primary"/>
    <tag k="lanes" v="2"/>
    <tag k="lit" v="yes"/>
    <tag k="maxspeed" v="60"/>
    <tag k="name" v="EvropskÃ¡"/>
    <tag k="name:ja" v="ã‚¨ãƒ´ãƒ­ãƒ—ã‚¹ã‚«"/>
    <tag k="old_name" v="Leninova"/>
    <tag k="oneway" v="yes"/>
    <tag k="ref" v="7"/>
    <tag k="sidewalk:left" v="no"/>
    <tag k="sidewalk:right" v="separate"/>
    <tag k="source:maxspeed" v="sign"/>
    <tag k="surface" v="asphalt"/>
    <tag k="trolley_wire" v="yes"/>
    <tag k="turn:lanes" v="left;through|through;right"/>
  </way>
  <way id="487492273" version="5" timestamp="2024-09-13T11:05:46Z" changeset="156566021" uid="598980" user="Daniel BarÃ¡nek">
    <nd ref="31908422"/>
    <nd ref="3414154395"/>
    <nd ref="242836614"/>
    <nd ref="31908420"/>
    <tag k="cycleway:both" v="no"/>
    <tag k="highway" v="residential"/>
    <tag k="lane_markings" v="no"/>
    <tag k="maxspeed" v="50"/>
    <tag k="name" v="Za Vokovickou vozovnou"/>
    <tag k="name:cs" v="Za Vokovickou vozovnou"/>
    <tag k="name:de" v="Wokowitzer Wagenhalle"/>
    <tag k="oneway" v="yes"/>
    <tag k="source:maxspeed" v="CZ:urban"/>
    <tag k="surface" v="asphalt"/>
  </way>
  <way id="506806289" version="2" timestamp="2024-07-22T10:15:25Z" changeset="154255025" uid="2286138" user="lezec">
    <nd ref="28807797"/>
    <nd ref="1680932575"/>
    <tag k="highway" v="residential"/>
    <tag k="lane_markings" v="no"/>
    <tag k="maxspeed" v="50"/>
    <tag k="name" v="Nad ZahradnictvÃ­m"/>
    <tag k="source:maxspeed" v="CZ:urban"/>
    <tag k="surface" v="asphalt"/>
  </way>
  <way id="506806294" version="1" timestamp="2017-07-11T20:47:16Z" changeset="50212400" uid="255936" user="NyanSten">
    <nd ref="4964627878"/>
    <nd ref="370273715"/>
    <nd ref="370273716"/>
    <tag k="highway" v="residential"/>
    <tag k="maxspeed" v="30"/>
    <tag k="name" v="Pod PetÅ™inami"/>
    <tag k="name:de" v="Petrinergrund"/>
    <tag k="source" v="yahoo:ortofoto"/>
    <tag k="source:maxspeed" v="zone"/>
    <tag k="surface" v="paving_stones"/>
  </way>
  <way id="506806299" version="1" timestamp="2017-07-11T20:47:16Z" changeset="50212400" uid="255936" user="NyanSten">
    <nd ref="4964627885"/>
    <nd ref="1382181738"/>
    <tag k="access" v="destination"/>
    <tag k="highway" v="residential"/>
    <tag k="incline" v="up"/>
    <tag k="maxspeed" v="30"/>
    <tag k="name" v="U Sadu"/>
    <tag k="name:de" v="Am Sterngarten"/>
    <tag k="source:maxspeed" v="zone"/>
    <tag k="surface" v="asphalt"/>
  </way>
  <way id="506806300" version="1" timestamp="2017-07-11T20:47:17Z" changeset="50212400" uid="255936" user="NyanSten">
    <nd ref="297307474"/>
    <nd ref="4964627895"/>
    <nd ref="297307478"/>
    <tag k="highway" v="residential"/>
    <tag k="maxspeed" v="30"/>
    <tag k="source:maxspeed" v="zone"/>
    <tag k="surface" v="asphalt"/>
  </way>
  <way id="506806302" version="5" timestamp="2025-05-14T14:06:30Z" changeset="166259194" uid="3199858" user="Mateusz Konieczny - bot account">
    <nd ref="297304095"/>
    <nd ref="297304104"/>
    <nd ref="297304111"/>
    <nd ref="297304118"/>
    <nd ref="297304124"/>
    <nd ref="369811732"/>
    <nd ref="297304130"/>
    <nd ref="297304138"/>
    <nd ref="369811448"/>
    <nd ref="297323796"/>
    <nd ref="4964627896"/>
    <nd ref="297323797"/>
    <nd ref="297323798"/>
    <nd ref="369811651"/>
    <tag k="cycleway:both" v="no"/>
    <tag k="highway" v="residential"/>
    <tag k="lit" v="yes"/>
    <tag k="maxspeed" v="30"/>
    <tag k="maxweight" v="3.5"/>
    <tag k="name" v="Nad StanicÃ­"/>
    <tag k="name:de" v="Bahnhofzeile"/>
    <tag k="sidewalk" v="no"/>
    <tag k="source" v="cuzk:km+uhul:ortofoto"/>
    <tag k="source:maxspeed" v="zone"/>
    <tag k="surface" v="asphalt"/>
  </way>
  <way id="506806305" version="1" timestamp="2017-07-11T20:47:17Z" changeset="50212400" uid="255936" user="NyanSten">
    <nd ref="1844531309"/>
    <nd ref="262384747"/>
    <tag k="access" v="destination"/>
    <tag k="highway" v="residential"/>
    <tag k="maxspeed" v="30"/>
    <tag k="name" v="U Sadu"/>
    <tag k="name:de" v="Am Sterngarten"/>
    <tag k="source:maxspeed" v="zone"/>
    <tag k="surface" v="asphalt"/>
  </way>
  <way id="506807447" version="1" timestamp="2017-07-11T20:51:05Z" changeset="50212501" uid="255936" user="NyanSten">
    <nd ref="4964627883"/>
    <nd ref="1382181738"/>
    <tag k="highway" v="residential"/>
    <tag k="maxspeed" v="30"/>
    <tag k="name" v="U Sadu"/>
    <tag k="name:de" v="Am Sterngarten"/>
    <tag k="source:maxspeed" v="zone"/>
    <tag k="surface" v="asphalt"/>
  </way>
  <way id="526550650" version="7" timestamp="2024-11-13T09:08:25Z" changeset="159081924" uid="17639962" user="detective-fiasco">
    <nd ref="249524905"/>
    <nd ref="21631647"/>
    <tag k="highway" v="residential"/>
    <tag k="lit" v="yes"/>
    <tag k="name" v="Na VÄ›trnÃ­ku"/>
    <tag k="name:de" v="Am WindmÃ¼hle"/>
    <tag k="sidewalk" v="no"/>
    <tag k="surface" v="asphalt"/>
  </way>
  <way id="526550652" version="7" timestamp="2025-04-12T22:26:22Z" changeset="164874324" uid="4018695" user="ðŸ‡¨ðŸ‡¿ Roman HornÃ­k">
    <nd ref="60684504"/>
    <nd ref="959860901"/>
    <nd ref="12750740508"/>
    <nd ref="959860842"/>
    <nd ref="9949179456"/>
    <nd ref="9949179452"/>
    <nd ref="249524905"/>
    <tag k="highway" v="residential"/>
    <tag k="lit" v="yes"/>
    <tag k="maxspeed" v="30"/>
    <tag k="maxspeed:type" v="CZ:zone30"/>
    <tag k="maxspeed:zone" v="30"/>
    <tag k="name" v="Na VÄ›trnÃ­ku"/>
    <tag k="name:de" v="Am WindmÃ¼hle"/>
    <tag k="sidewalk:both" v="separate"/>
    <tag k="surface" v="sett"/>
  </way>
  <way id="526550653" version="3" timestamp="2025-01-15T23:49:57Z" changeset="161398867" uid="17639962" user="detective-fiasco">
    <nd ref="60684504"/>
    <nd ref="959860824"/>
    <tag k="highway" v="residential"/>
    <tag k="maxspeed" v="30"/>
    <tag k="maxspeed:type" v="CZ:zone30"/>
    <tag k="maxspeed:zone" v="30"/>
    <tag k="name" v="Na Okraji"/>
    <tag k="oneway" v="yes"/>
    <tag k="sidewalk:both" v="separate"/>
    <tag k="surface" v="sett"/>
  </way>
  <way id="590876419" version="6" timestamp="2024-09-25T13:42:37Z" changeset="157083372" uid="598980" user="Daniel BarÃ¡nek">
    <nd ref="3893370512"/>
    <nd ref="4163473034"/>
    <nd ref="4056217969"/>
    <nd ref="60684511"/>
    <nd ref="5428343625"/>
    <nd ref="786030882"/>
    <nd ref="67012689"/>
    <tag k="cycleway:both" v="no"/>
    <tag k="highway" v="residential"/>
    <tag k="lanes" v="1"/>
    <tag k="lit" v="yes"/>
    <tag k="maxspeed" v="50"/>
    <tag k="name" v="Na PetÅ™inÃ¡ch"/>
    <tag k="name:de" v="Petriner HÃ¶he"/>
    <tag k="oneway" v="yes"/>
    <tag k="sidewalk:left" v="no"/>
    <tag k="sidewalk:right" v="separate"/>
    <tag k="surface" v="asphalt"/>
  </way>
  <way id="635916592" version="4" timestamp="2022-11-08T14:27:07Z" changeset="128640482" uid="1221650" user="slukes">
    <nd ref="5997449665"/>
    <nd ref="5997449666"/>
    <nd ref="5997449667"/>
    <nd ref="5997449668"/>
    <nd ref="2338681216"/>
    <tag k="highway" v="residential"/>
    <tag k="maxspeed" v="30"/>
    <tag k="maxspeed:type" v="CZ:zone30"/>
    <tag k="maxspeed:zone" v="30"/>
    <tag k="name" v="Å umberova"/>
    <tag k="surface" v="asphalt"/>
  </way>
  <way id="709997640" version="3" timestamp="2021-05-14T13:06:19Z" changeset="104686519" uid="25867" user="adamos">
    <nd ref="25696345"/>
    <nd ref="25696349"/>
    <tag k="highway" v="residential"/>
    <tag k="lit" v="yes"/>
    <tag k="maxspeed" v="30"/>
    <tag k="name" v="Za Vokovickou vozovnou"/>
    <tag k="name:de" v="Wokowitzer Wagenhalle"/>
    <tag k="oneway" v="yes"/>
    <tag k="source:maxspeed" v="zone"/>
    <tag k="surface" v="asphalt"/>
  </way>
  <way id="709997641" version="3" timestamp="2020-08-04T07:38:16Z" changeset="88913147" uid="8976801" user="majkaz_imports">
    <nd ref="25696345"/>
    <nd ref="302423391"/>
    <nd ref="25696341"/>
    <nd ref="25696340"/>
    <tag k="highway" v="residential"/>
    <tag k="maxspeed" v="30"/>
    <tag k="name" v="U KolejÃ­"/>
    <tag k="name:de" v="Am Gleis"/>
    <tag k="source:maxspeed" v="zone"/>
    <tag k="surface" v="asphalt"/>
  </way>
  <way id="764883393" version="2" timestamp="2020-08-04T07:38:20Z" changeset="88913147" uid="8976801" user="majkaz_imports">
    <nd ref="7144861581"/>
    <nd ref="60699453"/>
    <tag k="hgv" v="destination"/>
    <tag k="highway" v="residential"/>
    <tag k="maxspeed" v="30"/>
    <tag k="name" v="Pod NovÃ½m lesem"/>
    <tag k="name:de" v="NeuwÃ¤ldergasse"/>
    <tag k="source:maxspeed" v="zone"/>
    <tag k="surface" v="asphalt"/>
  </way>
  <way id="809533155" version="4" timestamp="2025-04-12T16:05:03Z" changeset="164862560" uid="4018695" user="ðŸ‡¨ðŸ‡¿ Roman HornÃ­k">
    <nd ref="28807424"/>
    <nd ref="332454272"/>
    <nd ref="12750101966"/>
    <nd ref="1680932575"/>
    <tag k="hgv" v="destination"/>
    <tag k="highway" v="residential"/>
    <tag k="maxspeed" v="30"/>
    <tag k="maxspeed:type" v="CZ:zone30"/>
    <tag k="name" v="Pod NovÃ½m lesem"/>
    <tag k="name:de" v="NeuwÃ¤ldergasse"/>
    <tag k="source:maxspeed" v="zone"/>
    <tag k="surface" v="asphalt"/>
    <tag k="zone:maxspeed" v="30"/>
  </way>
  <way id="833163199" version="8" timestamp="2024-10-07T06:41:26Z" changeset="157566968" uid="598980" user="Daniel BarÃ¡nek">
    <nd ref="11459682293"/>
    <nd ref="1909037734"/>
    <nd ref="475906279"/>
    <nd ref="250799"/>
    <nd ref="475906276"/>
    <nd ref="475906275"/>
    <nd ref="4799422570"/>
    <tag k="access:lanes" v="|no"/>
    <tag k="bicycle:lanes" v="|designated"/>
    <tag k="bus:lanes" v="|designated"/>
    <tag k="busway:right" v="lane"/>
    <tag k="cycleway:left" v="no"/>
    <tag k="cycleway:right" v="share_busway"/>
    <tag k="highway" v="primary"/>
    <tag k="lanes" v="2"/>
    <tag k="lit" v="yes"/>
    <tag k="maxspeed" v="60"/>
    <tag k="name" v="EvropskÃ¡"/>
    <tag k="name:ja" v="ã‚¨ãƒ´ãƒ­ãƒ—ã‚¹ã‚«"/>
    <tag k="old_name" v="Leninova"/>
    <tag k="oneway" v="yes"/>
    <tag k="psv:lanes" v="|designated"/>
    <tag k="ref" v="7"/>
    <tag k="sidewalk:left" v="no"/>
    <tag k="sidewalk:right" v="separate"/>
    <tag k="smoothness" v="good"/>
    <tag k="source:maxspeed" v="sign"/>
    <tag k="surface" v="asphalt"/>
    <tag k="taxi:lanes" v="|designated"/>
    <tag k="trolley_wire" v="yes"/>
  </way>
  <way id="1100079778" version="1" timestamp="2022-10-03T07:58:54Z" changeset="126922184" uid="9529908" user="ZbynÄ›k Vacek">
    <nd ref="10070389663"/>
    <nd ref="10070389664"/>
    <nd ref="10070389665"/>
    <nd ref="10070389666"/>
    <nd ref="629554959"/>
    <nd ref="629554938"/>
    <nd ref="629554936"/>
    <nd ref="10070389667"/>
    <nd ref="10070389668"/>
    <nd ref="10070389669"/>
    <nd ref="10070389670"/>
    <nd ref="10070389671"/>
    <nd ref="10070389672"/>
    <nd ref="10070389673"/>
    <nd ref="10070389674"/>
    <nd ref="10070389675"/>
    <nd ref="10070389676"/>
    <nd ref="10070389663"/>
    <tag k="addr:city" v="Praha"/>
    <tag k="addr:postcode" v="16200"/>
    <tag k="addr:street" v="JosÃ© MartÃ­ho"/>
    <tag k="building" v="industrial"/>
    <tag k="name" v="ÄŒS Centra sluÅ¾eb ministerstva vnitra"/>
  </way>
  <way id="1260618724" version="1" timestamp="2024-03-11T14:32:01Z" changeset="148509143" uid="15107215" user="BÃ¡ra SoukupovÃ¡">
    <nd ref="60684504"/>
    <nd ref="5120203724"/>
    <nd ref="60699449"/>
    <tag k="highway" v="residential"/>
    <tag k="maxspeed" v="30"/>
    <tag k="maxspeed:type" v="CZ:zone30"/>
    <tag k="maxspeed:zone" v="30"/>
    <tag k="name" v="Na VÄ›tru"/>
    <tag k="oneway" v="no"/>
    <tag k="sidewalk" v="both"/>
  </way>
  <way id="1377006912" version="1" timestamp="2025-04-12T16:05:03Z" changeset="164862560" uid="4018695" user="ðŸ‡¨ðŸ‡¿ Roman HornÃ­k">
    <nd ref="1680932575"/>
    <nd ref="2131064647"/>
    <tag k="hgv" v="destination"/>
    <tag k="highway" v="residential"/>
    <tag k="maxspeed" v="30"/>
    <tag k="name" v="Pod NovÃ½m lesem"/>
    <tag k="name:de" v="NeuwÃ¤ldergasse"/>
    <tag k="source:maxspeed" v="zone"/>
    <tag k="surface" v="asphalt"/>
  </way>
  <way id="1377006914" version="1" timestamp="2025-04-12T16:05:03Z" changeset="164862560" uid="4018695" user="ðŸ‡¨ðŸ‡¿ Roman HornÃ­k">
    <nd ref="12750101974"/>
    <nd ref="26804288"/>
    <tag k="foot" v="use_sidepath"/>
    <tag k="highway" v="tertiary"/>
    <tag k="lanes" v="2"/>
    <tag k="maxspeed" v="50"/>
    <tag k="name" v="VeleslavÃ­nskÃ¡"/>
    <tag k="name:de" v="Weleslawiner StraÃŸe"/>
    <tag k="source:maxspeed" v="CZ:urban"/>
    <tag k="surface" v="asphalt"/>
  </way>
  <way id="1377006915" version="1" timestamp="2025-04-12T16:05:03Z" changeset="164862560" uid="4018695" user="ðŸ‡¨ðŸ‡¿ Roman HornÃ­k">
    <nd ref="2675391148"/>
    <nd ref="12750101975"/>
    <tag k="foot" v="use_sidepath"/>
    <tag k="highway" v="tertiary"/>
    <tag k="lanes" v="2"/>
    <tag k="maxspeed" v="50"/>
    <tag k="name" v="VeleslavÃ­nskÃ¡"/>
    <tag k="name:de" v="Weleslawiner StraÃŸe"/>
    <tag k="source:maxspeed" v="CZ:urban"/>
    <tag k="surface" v="asphalt"/>
  </way>
  <way id="1377079933" version="1" timestamp="2025-04-12T22:26:22Z" changeset="164874324" uid="4018695" user="ðŸ‡¨ðŸ‡¿ Roman HornÃ­k">
    <nd ref="26827409"/>
    <nd ref="3414139089"/>
    <tag k="highway" v="residential"/>
    <tag k="maxspeed" v="30"/>
    <tag k="name" v="JosÃ© MartÃ­ho"/>
    <tag k="oneway" v="yes"/>
    <tag k="source:maxspeed" v="zone"/>
    <tag k="surface" v="asphalt"/>
  </way>
  <way id="1377079935" version="1" timestamp="2025-04-12T22:26:22Z" changeset="164874324" uid="4018695" user="ðŸ‡¨ðŸ‡¿ Roman HornÃ­k">
    <nd ref="10778671331"/>
    <nd ref="12147905730"/>
    <nd ref="5307334160"/>
    <nd ref="26827409"/>
    <tag k="access" v="destination"/>
    <tag k="highway" v="residential"/>
    <tag k="maxspeed" v="30"/>
    <tag k="maxspeed:type" v="CZ:zone30"/>
    <tag k="name" v="JosÃ© MartÃ­ho"/>
    <tag k="oneway" v="yes"/>
    <tag k="surface" v="sett"/>
  </way>
  <way id="1377079953" version="1" timestamp="2025-04-12T22:26:22Z" changeset="164874324" uid="4018695" user="ðŸ‡¨ðŸ‡¿ Roman HornÃ­k">
    <nd ref="25694439"/>
    <nd ref="3893370502"/>
    <nd ref="249524886"/>
    <tag k="cycleway:both" v="no"/>
    <tag k="highway" v="residential"/>
    <tag k="lane_markings" v="no"/>
    <tag k="lit" v="yes"/>
    <tag k="maxspeed:type" v="CZ:urban"/>
    <tag k="name" v="BrunclÃ­kova"/>
    <tag k="source" v="CZ:IPRPraha:ortofoto"/>
    <tag k="surface" v="asphalt"/>
  </way>
  <way id="1377079960" version="1" timestamp="2025-04-12T22:26:22Z" changeset="164874324" uid="4018695" user="ðŸ‡¨ðŸ‡¿ Roman HornÃ­k">
    <nd ref="5120221043"/>
    <nd ref="26819339"/>
    <nd ref="5120221042"/>
    <nd ref="3665664298"/>
    <nd ref="1017951473"/>
    <nd ref="25693984"/>
    <tag k="highway" v="residential"/>
    <tag k="lit" v="yes"/>
    <tag k="maxspeed" v="30"/>
    <tag k="maxspeed:type" v="CZ:zone30"/>
    <tag k="maxspeed:zone" v="30"/>
    <tag k="name" v="Na Okraji"/>
    <tag k="oneway" v="yes"/>
    <tag k="sidewalk:both" v="separate"/>
    <tag k="surface" v="asphalt"/>
  </way>

</osm>
