<?xml version="1.0" encoding="UTF-8"?>
<osm version="0.6" generator="Overpass API 0.7.62.5 1bd436f1">
<note>The data included in this document is from www.openstreetmap.org. The data is made available under ODbL.</note>
<meta osm_base="2025-05-18T05:45:14Z" areas="2024-12-31T00:49:33Z"/>

  <node id="7079866" lat="50.0370227" lon="14.5666500" version="5" timestamp="2025-03-13T21:12:19Z" changeset="163588562" uid="469828" user="Lukáš Jelínek"/>
  <node id="65302183" lat="50.0374050" lon="14.5654370" version="3" timestamp="2008-05-19T15:53:08Z" changeset="479163" uid="3516" user="BiIbo"/>
  <node id="65302209" lat="50.0372057" lon="14.5652638" version="4" timestamp="2010-07-18T10:08:37Z" changeset="5248857" uid="3516" user="BiIbo"/>
  <node id="65328509" lat="50.0403674" lon="14.5558799" version="4" timestamp="2013-11-07T20:43:51Z" changeset="18771624" uid="1708065" user="Salamandr"/>
  <node id="65328511" lat="50.0403820" lon="14.5572778" version="5" timestamp="2013-12-23T07:55:50Z" changeset="19595344" uid="1708065" user="Salamandr"/>
  <node id="65328513" lat="50.0401119" lon="14.5558929" version="6" timestamp="2014-03-15T05:59:06Z" changeset="21111489" uid="1708065" user="Salamandr"/>
  <node id="245561407" lat="50.0543161" lon="14.5458553" version="3" timestamp="2023-12-31T13:00:09Z" changeset="145732209" uid="20160194" user="Milan Tománek"/>
  <node id="774088115" lat="50.0474607" lon="14.5461440" version="2" timestamp="2020-07-02T06:02:50Z" changeset="87431971" uid="3145424" user="vidmann"/>
  <node id="861060532" lat="50.0499104" lon="14.5653812" version="1" timestamp="2010-08-15T10:51:44Z" changeset="5497978" uid="3516" user="BiIbo"/>
  <node id="2380115893" lat="50.0516842" lon="14.5541850" version="2" timestamp="2019-12-23T12:50:01Z" changeset="78773743" uid="8971394" user="vojtechzaboril"/>
  <node id="3440419501" lat="50.0501876" lon="14.5692659" version="2" timestamp="2017-08-03T19:52:15Z" changeset="50817213" uid="3516" user="BiIbo"/>
  <way id="4052206" version="14" timestamp="2015-04-05T15:04:11Z" changeset="29994034" uid="1708065" user="Salamandr">
    <nd ref="65302061"/>
    <nd ref="775247938"/>
    <nd ref="7295947"/>
    <nd ref="823259905"/>
    <nd ref="7296036"/>
    <tag k="highway" v="residential"/>
    <tag k="lanes" v="1"/>
    <tag k="lit" v="yes"/>
    <tag k="maxspeed" v="50"/>
    <tag k="name" v="Holoubkovská"/>
    <tag k="source:maxspeed" v="CZ:urban"/>
    <tag k="surface" v="asphalt"/>
  </way>
  <way id="4052452" version="6" timestamp="2015-05-29T19:51:32Z" changeset="31570986" uid="1708065" user="Salamandr">
    <nd ref="7295964"/>
    <nd ref="3556848284"/>
    <nd ref="7295961"/>
    <nd ref="3556808752"/>
    <nd ref="7295952"/>
    <tag k="highway" v="residential"/>
    <tag k="lanes" v="1"/>
    <tag k="lit" v="yes"/>
    <tag k="maxspeed" v="30"/>
    <tag k="name" v="Kaznějovská"/>
    <tag k="oneway" v="yes"/>
    <tag k="source:maxspeed" v="Visual"/>
    <tag k="surface" v="asphalt"/>
  </way>
  <way id="4052857" version="13" timestamp="2020-10-10T13:30:42Z" changeset="92275806" uid="665336" user="Minimalis">
    <nd ref="7296036"/>
    <nd ref="1897923629"/>
    <nd ref="823259922"/>
    <nd ref="7296019"/>
    <nd ref="1570767605"/>
    <nd ref="7296023"/>
    <nd ref="1570767896"/>
    <nd ref="60725094"/>
    <nd ref="60725109"/>
    <nd ref="889384929"/>
    <nd ref="889380114"/>
    <nd ref="60725111"/>
    <nd ref="60725129"/>
    <nd ref="4490385955"/>
    <nd ref="823259808"/>
    <nd ref="4490385956"/>
    <nd ref="60725131"/>
    <tag k="highway" v="residential"/>
    <tag k="lanes" v="2"/>
    <tag k="lanes:both_ways" v="1"/>
    <tag k="lit" v="yes"/>
    <tag k="maxspeed" v="50"/>
    <tag k="name" v="Na Křečku"/>
    <tag k="source:maxspeed" v="CZ:urban"/>
    <tag k="surface" v="asphalt"/>
  </way>
  <way id="4052976" version="7" timestamp="2014-05-11T06:40:22Z" changeset="22263679" uid="1708065" user="Salamandr">
    <nd ref="7296019"/>
    <nd ref="1570767487"/>
    <nd ref="2849817075"/>
    <tag k="highway" v="residential"/>
    <tag k="lanes" v="1"/>
    <tag k="lit" v="yes"/>
    <tag k="maxspeed" v="50"/>
    <tag k="name" v="U Statku"/>
    <tag k="oneway" v="yes"/>
    <tag k="source:maxspeed" v="CZ:urban"/>
    <tag k="surface" v="asphalt"/>
  </way>
  <way id="4052979" version="16" timestamp="2021-07-30T09:21:28Z" changeset="108877681" uid="718054" user="Piskvor">
    <nd ref="7079708"/>
    <nd ref="65271235"/>
    <tag k="highway" v="tertiary"/>
    <tag k="lanes" v="2"/>
    <tag k="lit" v="yes"/>
    <tag k="maxspeed" v="30"/>
    <tag k="name" v="Milánská"/>
    <tag k="source:maxspeed" v="survey"/>
    <tag k="surface" v="asphalt"/>
  </way>
  <way id="4053121" version="5" timestamp="2014-05-11T20:53:52Z" changeset="22279829" uid="1708065" user="Salamandr">
    <nd ref="7296023"/>
    <nd ref="1570767674"/>
    <nd ref="2849817077"/>
    <tag k="highway" v="residential"/>
    <tag k="lanes" v="1"/>
    <tag k="lit" v="yes"/>
    <tag k="maxspeed" v="50"/>
    <tag k="name" v="Ejpovická"/>
    <tag k="source:maxspeed" v="CZ:urban"/>
    <tag k="surface" v="asphalt"/>
  </way>
  <way id="4053406" version="14" timestamp="2024-02-28T17:48:45Z" changeset="148022477" uid="469828" user="Lukáš Jelínek">
    <nd ref="889384918"/>
    <nd ref="889384941"/>
    <tag k="check_date:surface" v="2022-01-18"/>
    <tag k="cycleway:right" v="no"/>
    <tag k="destination" v="Hostivař"/>
    <tag k="foot" v="yes"/>
    <tag k="highway" v="tertiary"/>
    <tag k="lanes" v="1"/>
    <tag k="lit" v="yes"/>
    <tag k="maxspeed" v="50"/>
    <tag k="name" v="Hornoměcholupská"/>
    <tag k="oneway" v="yes"/>
    <tag k="sidewalk" v="no"/>
    <tag k="smoothness" v="good"/>
    <tag k="source:maxspeed" v="CZ:urban"/>
    <tag k="surface" v="asphalt"/>
  </way>
  <way id="4053584" version="4" timestamp="2014-05-11T06:40:22Z" changeset="22263679" uid="1708065" user="Salamandr">
    <nd ref="7295948"/>
    <nd ref="2849817076"/>
    <tag k="highway" v="residential"/>
    <tag k="lanes" v="1"/>
    <tag k="lit" v="yes"/>
    <tag k="maxspeed" v="50"/>
    <tag k="name" v="Kožlanská"/>
    <tag k="oneway" v="yes"/>
    <tag k="source:maxspeed" v="CZ:urban"/>
    <tag k="surface" v="asphalt"/>
  </way>
  <way id="4053625" version="24" timestamp="2024-03-27T17:52:35Z" changeset="149237311" uid="469828" user="Lukáš Jelínek">
    <nd ref="7296234"/>
    <nd ref="1397679837"/>
    <nd ref="7995015562"/>
    <tag k="cycleway:both" v="no"/>
    <tag k="highway" v="tertiary"/>
    <tag k="lanes" v="2"/>
    <tag k="lanes:backward" v="1"/>
    <tag k="lanes:forward" v="1"/>
    <tag k="lit" v="no"/>
    <tag k="maxspeed" v="50"/>
    <tag k="name" v="K Měcholupům"/>
    <tag k="parking:both" v="no"/>
    <tag k="smoothness" v="good"/>
    <tag k="surface" v="asphalt"/>
  </way>
  <way id="8104410" version="4" timestamp="2017-11-01T08:08:25Z" changeset="53416594" uid="3145424" user="vidmann">
    <nd ref="60725117"/>
    <nd ref="60725119"/>
    <nd ref="5203730530"/>
    <nd ref="1305201034"/>
    <nd ref="60725123"/>
    <tag k="highway" v="residential"/>
    <tag k="oneway" v="yes"/>
  </way>
  <way id="8104411" version="3" timestamp="2014-05-11T08:12:36Z" changeset="22265129" uid="1708065" user="Salamandr">
    <nd ref="60725177"/>
    <nd ref="7296203"/>
    <tag k="highway" v="residential"/>
    <tag k="lanes" v="1"/>
    <tag k="lit" v="yes"/>
    <tag k="maxspeed" v="30"/>
    <tag k="name" v="Na Kameni"/>
    <tag k="oneway" v="yes"/>
    <tag k="source:maxspeed" v="Visual"/>
    <tag k="surface" v="asphalt"/>
  </way>
  <way id="8104415" version="3" timestamp="2016-11-14T10:44:28Z" changeset="43635975" uid="3145424" user="vidmann">
    <nd ref="60725123"/>
    <nd ref="4500210728"/>
    <nd ref="60725125"/>
    <nd ref="4500210729"/>
    <nd ref="823259841"/>
    <nd ref="60725127"/>
    <nd ref="4500210744"/>
    <nd ref="60725111"/>
    <tag k="highway" v="residential"/>
  </way>
  <way id="8104416" version="6" timestamp="2014-05-11T08:12:35Z" changeset="22265129" uid="1708065" user="Salamandr">
    <nd ref="60725180"/>
    <nd ref="775166618"/>
    <nd ref="7296203"/>
    <nd ref="2849879741"/>
    <nd ref="7295967"/>
    <nd ref="60725115"/>
    <nd ref="60725113"/>
    <nd ref="60725111"/>
    <tag k="highway" v="residential"/>
    <tag k="lanes" v="1"/>
    <tag k="lit" v="yes"/>
    <tag k="maxspeed" v="30"/>
    <tag k="name" v="Dačická"/>
    <tag k="oneway" v="yes"/>
    <tag k="source:maxspeed" v="Visual"/>
    <tag k="surface" v="asphalt"/>
  </way>
  <way id="8104417" version="6" timestamp="2019-04-24T12:29:27Z" changeset="69524124" uid="1189910" user="Milancer">
    <nd ref="60725131"/>
    <nd ref="1570769914"/>
    <nd ref="60725134"/>
    <nd ref="60725155"/>
    <nd ref="60725158"/>
    <tag k="highway" v="residential"/>
    <tag k="lanes" v="2"/>
    <tag k="lanes:both_ways" v="1"/>
    <tag k="lit" v="yes"/>
    <tag k="maxspeed" v="50"/>
    <tag k="name" v="Ovesná"/>
    <tag k="source:maxspeed" v="CZ:urban"/>
    <tag k="surface" v="asphalt"/>
  </way>
  <way id="8104420" version="6" timestamp="2015-05-27T19:26:13Z" changeset="31513029" uid="1708065" user="Salamandr">
    <nd ref="2799434840"/>
    <nd ref="2799434185"/>
    <nd ref="2799433245"/>
    <nd ref="2799434148"/>
    <nd ref="2799434840"/>
    <tag k="building" v="yes"/>
    <tag k="building:ruian:type" v="19"/>
    <tag k="email" v="info@albaauto.cz"/>
    <tag k="name" v="Alba auto, s.r.o."/>
    <tag k="opening_hours" v="Mo-Fr 09:00-18:00"/>
    <tag k="phone" v="+420 775 776 775"/>
    <tag k="ref:ruian:building" v="25183583"/>
    <tag k="shop" v="car_repair"/>
    <tag k="source" v="cuzk:ruian"/>
    <tag k="start_date" v="2002-10-08"/>
  </way>
  <way id="8916692" version="12" timestamp="2023-12-23T19:02:59Z" changeset="145445489" uid="20160194" user="Milan Tománek">
    <nd ref="5656428880"/>
    <nd ref="5656428881"/>
    <nd ref="5656428882"/>
    <nd ref="65302061"/>
    <nd ref="65302088"/>
    <nd ref="65302085"/>
    <nd ref="5656428875"/>
    <nd ref="5656428876"/>
    <nd ref="5656428877"/>
    <nd ref="65302082"/>
    <nd ref="775241028"/>
    <nd ref="5656428878"/>
    <nd ref="5656428879"/>
    <nd ref="65302078"/>
    <nd ref="65302075"/>
    <nd ref="65302071"/>
    <nd ref="775241055"/>
    <nd ref="65302066"/>
    <nd ref="65302063"/>
    <nd ref="5656428880"/>
    <tag k="highway" v="residential"/>
    <tag k="junction" v="roundabout"/>
    <tag k="lanes" v="1"/>
    <tag k="lit" v="yes"/>
    <tag k="maxspeed" v="50"/>
    <tag k="name" v="Veronské náměstí"/>
    <tag k="official_name" v="Veronské nám."/>
    <tag k="sidewalk:left" v="no"/>
    <tag k="sidewalk:right" v="separate"/>
    <tag k="source:maxspeed" v="CZ:urban"/>
    <tag k="surface" v="asphalt"/>
  </way>
  <way id="8916693" version="11" timestamp="2023-12-23T19:03:11Z" changeset="145445489" uid="20160194" user="Milan Tománek">
    <nd ref="65302082"/>
    <nd ref="775247949"/>
    <nd ref="65302095"/>
    <nd ref="3495654170"/>
    <tag k="highway" v="residential"/>
    <tag k="lanes" v="1"/>
    <tag k="lit" v="yes"/>
    <tag k="maxspeed" v="50"/>
    <tag k="name" v="Veronské náměstí"/>
    <tag k="official_name" v="Veronské nám."/>
    <tag k="sidewalk:right" v="separate"/>
    <tag k="surface" v="asphalt"/>
  </way>
  <way id="8916695" version="9" timestamp="2018-06-01T13:58:02Z" changeset="59462465" uid="255936" user="NyanSten">
    <nd ref="65302078"/>
    <nd ref="775247951"/>
    <nd ref="3435385441"/>
    <nd ref="65302097"/>
    <tag k="highway" v="residential"/>
    <tag k="name" v="Veronské náměstí"/>
    <tag k="official_name" v="Veronské nám."/>
  </way>
  <way id="8916696" version="10" timestamp="2023-12-23T19:03:48Z" changeset="145445489" uid="20160194" user="Milan Tománek">
    <nd ref="65302142"/>
    <nd ref="3435385427"/>
    <nd ref="3435303860"/>
    <nd ref="65302146"/>
    <nd ref="65302097"/>
    <tag k="highway" v="residential"/>
    <tag k="name" v="Veronské náměstí"/>
    <tag k="official_name" v="Veronské nám."/>
    <tag k="sidewalk:right" v="separate"/>
  </way>
  <way id="8916697" version="10" timestamp="2015-04-04T06:38:17Z" changeset="29965946" uid="1708065" user="Salamandr">
    <nd ref="7079711"/>
    <nd ref="1440168127"/>
    <nd ref="65302148"/>
    <nd ref="65302151"/>
    <nd ref="1145854359"/>
    <nd ref="65302159"/>
    <nd ref="3436565147"/>
    <nd ref="3262981462"/>
    <nd ref="3262981461"/>
    <nd ref="2734607610"/>
    <nd ref="65302163"/>
    <tag k="highway" v="residential"/>
    <tag k="lanes" v="1"/>
    <tag k="lit" v="yes"/>
    <tag k="maxspeed" v="50"/>
    <tag k="name" v="Bolevecká"/>
    <tag k="sidewalk" v="left"/>
    <tag k="surface" v="asphalt"/>
  </way>
  <way id="8916698" version="10" timestamp="2023-12-23T19:02:12Z" changeset="145445489" uid="20160194" user="Milan Tománek">
    <nd ref="65302090"/>
    <nd ref="65302168"/>
    <nd ref="65302173"/>
    <nd ref="775214062"/>
    <nd ref="1145854314"/>
    <nd ref="65302151"/>
    <tag k="highway" v="residential"/>
    <tag k="sidewalk:left" v="separate"/>
  </way>
  <way id="8916702" version="8" timestamp="2025-04-21T14:14:01Z" changeset="165242290" uid="1160334" user="honzaa">
    <nd ref="65302148"/>
    <nd ref="12772250321"/>
    <nd ref="2828972011"/>
    <nd ref="1440168126"/>
    <nd ref="3439388035"/>
    <nd ref="65302179"/>
    <tag k="highway" v="residential"/>
    <tag k="lanes" v="1"/>
    <tag k="lit" v="yes"/>
    <tag k="maxspeed" v="30"/>
    <tag k="name" v="Stadická"/>
    <tag k="sidewalk" v="both"/>
    <tag k="surface" v="asphalt"/>
  </way>
  <way id="8916705" version="11" timestamp="2023-12-22T18:58:19Z" changeset="145416759" uid="20160194" user="Milan Tománek">
    <nd ref="822723155"/>
    <nd ref="1874174007"/>
    <nd ref="3309004399"/>
    <nd ref="822723194"/>
    <nd ref="1874174006"/>
    <nd ref="3309004398"/>
    <nd ref="65302202"/>
    <tag k="highway" v="residential"/>
    <tag k="sidewalk:both" v="separate"/>
  </way>
  <way id="8918491" version="8" timestamp="2023-12-22T18:58:50Z" changeset="145416759" uid="20160194" user="Milan Tománek">
    <nd ref="60725123"/>
    <nd ref="4500210751"/>
    <nd ref="775240978"/>
    <tag k="highway" v="residential"/>
    <tag k="name" v="Janovská"/>
    <tag k="oneway" v="yes"/>
    <tag k="sidewalk:right" v="separate"/>
  </way>
  <way id="8918492" version="4" timestamp="2023-12-22T18:57:37Z" changeset="145416759" uid="20160194" user="Milan Tománek">
    <nd ref="65302183"/>
    <nd ref="5203807665"/>
    <nd ref="65302209"/>
    <tag k="highway" v="residential"/>
    <tag k="sidewalk:right" v="separate"/>
  </way>
  <way id="8918523" version="10" timestamp="2015-02-13T20:43:30Z" changeset="28829963" uid="1708065" user="Salamandr">
    <nd ref="29820809"/>
    <nd ref="745606247"/>
    <nd ref="2457035269"/>
    <nd ref="65328496"/>
    <tag k="highway" v="residential"/>
    <tag k="incline" v="up"/>
    <tag k="lanes" v="2"/>
    <tag k="lit" v="yes"/>
    <tag k="maxspeed" v="50"/>
    <tag k="name" v="Milánská"/>
    <tag k="source:maxspeed" v="CZ:urban"/>
    <tag k="surface" v="asphalt"/>
  </way>
  <way id="8918525" version="8" timestamp="2025-05-03T09:47:15Z" changeset="165750661" uid="1160334" user="honzaa">
    <nd ref="65328509"/>
    <nd ref="65328513"/>
    <tag k="highway" v="residential"/>
    <tag k="lanes" v="2"/>
    <tag k="lit" v="yes"/>
    <tag k="maxspeed" v="50"/>
    <tag k="name" v="Milánská"/>
    <tag k="source:maxspeed" v="CZ:urban"/>
    <tag k="surface" v="asphalt"/>
  </way>
  <way id="8918527" version="10" timestamp="2023-12-22T19:04:35Z" changeset="145416759" uid="20160194" user="Milan Tománek">
    <nd ref="65328496"/>
    <nd ref="65328518"/>
    <tag k="highway" v="residential"/>
    <tag k="lanes" v="2"/>
    <tag k="lit" v="yes"/>
    <tag k="maxspeed" v="50"/>
    <tag k="name" v="Milánská"/>
    <tag k="parking:condition:right" v="free"/>
    <tag k="parking:lane:right" v="parallel"/>
    <tag k="sidewalk:right" v="separate"/>
    <tag k="source:maxspeed" v="CZ:urban"/>
    <tag k="surface" v="asphalt"/>
  </way>
  <way id="8918551" version="10" timestamp="2023-12-22T19:04:42Z" changeset="145416759" uid="20160194" user="Milan Tománek">
    <nd ref="65328496"/>
    <nd ref="745606236"/>
    <nd ref="2457054632"/>
    <tag k="highway" v="residential"/>
    <tag k="lanes" v="1"/>
    <tag k="lit" v="yes"/>
    <tag k="maxspeed" v="50"/>
    <tag k="name" v="Milánská"/>
    <tag k="oneway" v="yes"/>
    <tag k="sidewalk:left" v="separate"/>
    <tag k="source:maxspeed" v="CZ:urban"/>
    <tag k="surface" v="asphalt"/>
  </way>
  <way id="8918567" version="9" timestamp="2024-06-11T08:22:51Z" changeset="152530262" uid="20160194" user="Milan Tománek">
    <nd ref="65328511"/>
    <nd ref="822723220"/>
    <nd ref="7079753"/>
    <tag k="highway" v="residential"/>
    <tag k="lane_markings" v="no"/>
    <tag k="lit" v="yes"/>
    <tag k="maxspeed" v="50"/>
    <tag k="maxspeed:type" v="sign"/>
    <tag k="name" v="Milánská"/>
    <tag k="source:width" v="ARCore"/>
    <tag k="surface" v="asphalt"/>
    <tag k="width" v="7.5"/>
  </way>
  <way id="8918569" version="12" timestamp="2017-08-15T21:45:46Z" changeset="51153353" uid="163896" user="Zbigniew_Cz">
    <nd ref="65344669"/>
    <nd ref="775166722"/>
    <nd ref="65344665"/>
    <nd ref="5017075725"/>
    <nd ref="379075958"/>
    <nd ref="3539751537"/>
    <nd ref="245562460"/>
    <nd ref="5017075723"/>
    <nd ref="65344635"/>
    <tag k="highway" v="residential"/>
    <tag k="lanes" v="1"/>
    <tag k="lit" v="yes"/>
    <tag k="maxspeed" v="30"/>
    <tag k="name" v="Boloňská"/>
    <tag k="surface" v="asphalt"/>
  </way>
  <way id="8918575" version="11" timestamp="2023-12-23T18:59:31Z" changeset="145445489" uid="20160194" user="Milan Tománek">
    <nd ref="65328628"/>
    <nd ref="2845545403"/>
    <nd ref="1145797357"/>
    <nd ref="3589348135"/>
    <nd ref="65328670"/>
    <nd ref="295629893"/>
    <tag k="access" v="yes"/>
    <tag k="highway" v="residential"/>
    <tag k="lanes" v="2"/>
    <tag k="lanes:both_ways" v="1"/>
    <tag k="lit" v="no"/>
    <tag k="maxspeed" v="50"/>
    <tag k="name" v="Evy Olmerové"/>
    <tag k="oneway" v="no"/>
    <tag k="sidewalk:left" v="separate"/>
    <tag k="sidewalk:right" v="no"/>
    <tag k="source" v="local_knowledge"/>
    <tag k="surface" v="asphalt"/>
  </way>
  <way id="8918607" version="9" timestamp="2022-01-26T17:45:24Z" changeset="116632091" uid="469828" user="Lukáš Jelínek">
    <nd ref="65271231"/>
    <nd ref="2828426099"/>
    <nd ref="65328769"/>
    <tag k="highway" v="residential"/>
    <tag k="lane_markings" v="no"/>
    <tag k="lit" v="yes"/>
    <tag k="maxspeed" v="50"/>
    <tag k="name" v="Pod Vartou"/>
    <tag k="source:maxspeed" v="CZ:urban"/>
    <tag k="surface" v="asphalt"/>
  </way>
  <way id="8918624" version="12" timestamp="2018-03-18T14:44:49Z" changeset="57292121" uid="25867" user="adamos">
    <nd ref="65328769"/>
    <nd ref="2828978321"/>
    <nd ref="2829357829"/>
    <nd ref="774077489"/>
    <tag k="highway" v="residential"/>
    <tag k="lit" v="yes"/>
    <tag k="maxspeed" v="50"/>
    <tag k="name" v="Neapolská"/>
    <tag k="source:maxspeed" v="CZ:urban"/>
    <tag k="surface" v="asphalt"/>
  </way>
  <way id="8918627" version="6" timestamp="2014-05-01T12:16:45Z" changeset="22062913" uid="1708065" user="Salamandr">
    <nd ref="291731642"/>
    <nd ref="2457876124"/>
    <nd ref="2457876128"/>
    <nd ref="65328944"/>
    <tag k="highway" v="residential"/>
    <tag k="lanes" v="1"/>
    <tag k="lit" v="yes"/>
    <tag k="maxspeed" v="50"/>
    <tag k="source:maxspeed" v="CZ:urban"/>
    <tag k="surface" v="asphalt"/>
  </way>
  <way id="8918630" version="10" timestamp="2023-12-23T19:00:54Z" changeset="145445489" uid="20160194" user="Milan Tománek">
    <nd ref="65328948"/>
    <nd ref="65328999"/>
    <nd ref="1570785433"/>
    <nd ref="5206243934"/>
    <nd ref="5206244017"/>
    <nd ref="5206244018"/>
    <nd ref="65329052"/>
    <nd ref="65329056"/>
    <nd ref="2829323177"/>
    <nd ref="2829323171"/>
    <nd ref="65329059"/>
    <nd ref="1773429363"/>
    <tag k="highway" v="residential"/>
    <tag k="lanes" v="2"/>
    <tag k="lanes:both_ways" v="1"/>
    <tag k="lit" v="yes"/>
    <tag k="maxspeed" v="50"/>
    <tag k="name" v="Padovská"/>
    <tag k="oneway" v="no"/>
    <tag k="sidewalk:right" v="separate"/>
    <tag k="source:maxspeed" v="CZ:urban"/>
    <tag k="surface" v="asphalt"/>
  </way>
  <way id="8918635" version="8" timestamp="2024-02-22T18:01:27Z" changeset="147783770" uid="20160194" user="Milan Tománek">
    <nd ref="65328949"/>
    <nd ref="11653436860"/>
    <nd ref="65329082"/>
    <nd ref="3479754243"/>
    <nd ref="65329087"/>
    <nd ref="3479754246"/>
    <nd ref="4685603324"/>
    <tag k="highway" v="residential"/>
    <tag k="lanes" v="1"/>
    <tag k="lit" v="yes"/>
    <tag k="maxspeed" v="50"/>
    <tag k="name" v="Nad Přehradou"/>
    <tag k="sidewalk:left" v="separate"/>
    <tag k="source" v="local_knowledge"/>
    <tag k="source:maxspeed" v="CZ:urban"/>
    <tag k="surface" v="asphalt"/>
  </way>
  <way id="8918636" version="10" timestamp="2025-04-18T19:16:41Z" changeset="165127549" uid="1160334" user="honzaa">
    <nd ref="65328944"/>
    <nd ref="65328945"/>
    <nd ref="5206243989"/>
    <nd ref="65328947"/>
    <nd ref="65328948"/>
    <nd ref="65328949"/>
    <nd ref="12766686427"/>
    <nd ref="352789615"/>
    <nd ref="65328950"/>
    <nd ref="5206243413"/>
    <nd ref="65328952"/>
    <tag k="cycleway:both" v="no"/>
    <tag k="highway" v="residential"/>
    <tag k="lanes" v="1"/>
    <tag k="lit" v="yes"/>
    <tag k="maxspeed" v="50"/>
    <tag k="name" v="Nad Přehradou"/>
    <tag k="smoothness" v="good"/>
    <tag k="source:maxspeed" v="CZ:urban"/>
    <tag k="surface" v="asphalt"/>
  </way>
  <way id="8918638" version="5" timestamp="2022-10-26T06:53:23Z" changeset="128067213" uid="469828" user="Lukáš Jelínek">
    <nd ref="65328952"/>
    <nd ref="65328996"/>
    <tag k="cycleway:both" v="no"/>
    <tag k="highway" v="residential"/>
    <tag k="lanes" v="1"/>
    <tag k="lit" v="yes"/>
    <tag k="maxspeed" v="50"/>
    <tag k="name" v="Nad přehradou"/>
    <tag k="source:maxspeed" v="CZ:urban"/>
    <tag k="surface" v="asphalt"/>
  </way>
  <way id="8918640" version="12" timestamp="2023-12-23T19:00:24Z" changeset="145445489" uid="20160194" user="Milan Tománek">
    <nd ref="65328952"/>
    <nd ref="65329120"/>
    <nd ref="2828972009"/>
    <nd ref="2828972010"/>
    <nd ref="2828972013"/>
    <nd ref="65329113"/>
    <nd ref="2828972014"/>
    <nd ref="65329109"/>
    <nd ref="65329104"/>
    <nd ref="2828972016"/>
    <nd ref="65329099"/>
    <nd ref="2828972017"/>
    <nd ref="8428639464"/>
    <nd ref="2828972015"/>
    <nd ref="65329094"/>
    <nd ref="774077493"/>
    <nd ref="2828972012"/>
    <nd ref="65328952"/>
    <tag k="highway" v="residential"/>
    <tag k="lanes" v="1"/>
    <tag k="lit" v="yes"/>
    <tag k="maxspeed" v="50"/>
    <tag k="name" v="Nad Přehradou"/>
    <tag k="oneway" v="yes"/>
    <tag k="sidewalk:left" v="no"/>
    <tag k="sidewalk:right" v="separate"/>
    <tag k="source:maxspeed" v="CZ:urban"/>
    <tag k="surface" v="asphalt"/>
  </way>
  <way id="8919560" version="13" timestamp="2023-12-23T19:04:57Z" changeset="145445489" uid="20160194" user="Milan Tománek">
    <nd ref="60725094"/>
    <nd ref="1570767840"/>
    <nd ref="60725117"/>
    <tag k="highway" v="residential"/>
    <tag k="lanes" v="1"/>
    <tag k="lit" v="yes"/>
    <tag k="maxspeed" v="50"/>
    <tag k="name" v="Parmská"/>
    <tag k="oneway" v="yes"/>
    <tag k="sidewalk:right" v="separate"/>
    <tag k="source:maxspeed" v="CZ:urban"/>
    <tag k="surface" v="asphalt"/>
  </way>
  <way id="8919561" version="7" timestamp="2014-12-14T09:09:39Z" changeset="27452983" uid="527259" user="Vratislav Filler">
    <nd ref="65344612"/>
    <nd ref="2849879740"/>
    <nd ref="3233957126"/>
    <tag k="highway" v="residential"/>
    <tag k="lanes" v="1"/>
    <tag k="lit" v="yes"/>
    <tag k="maxspeed" v="30"/>
    <tag k="name" v="Křimická"/>
    <tag k="source:maxspeed" v="Visual"/>
    <tag k="surface" v="asphalt"/>
  </way>
  <way id="8919562" version="8" timestamp="2023-04-07T09:46:15Z" changeset="134607231" uid="231749" user="Eino81">
    <nd ref="65344665"/>
    <nd ref="1436657995"/>
    <nd ref="775166734"/>
    <nd ref="775166754"/>
    <nd ref="379075956"/>
    <tag k="highway" v="residential"/>
    <tag k="lanes" v="1"/>
    <tag k="lit" v="yes"/>
    <tag k="maxspeed" v="30"/>
    <tag k="surface" v="asphalt"/>
  </way>
  <way id="8919568" version="7" timestamp="2015-05-22T19:37:22Z" changeset="31381623" uid="1708065" user="Salamandr">
    <nd ref="65344635"/>
    <nd ref="65344630"/>
    <nd ref="321061244"/>
    <nd ref="65344628"/>
    <nd ref="775166773"/>
    <nd ref="775166725"/>
    <nd ref="65344623"/>
    <nd ref="1145797350"/>
    <nd ref="65344619"/>
    <nd ref="775166780"/>
    <nd ref="65271242"/>
    <tag k="highway" v="residential"/>
    <tag k="lanes" v="1"/>
    <tag k="lit" v="yes"/>
    <tag k="maxspeed" v="30"/>
    <tag k="name" v="Boloňská"/>
    <tag k="sidewalk" v="right"/>
    <tag k="surface" v="asphalt"/>
  </way>
  <way id="8919569" version="10" timestamp="2018-03-18T14:43:41Z" changeset="57292121" uid="25867" user="adamos">
    <nd ref="65271242"/>
    <nd ref="1421009419"/>
    <tag k="highway" v="residential"/>
    <tag k="lit" v="yes"/>
    <tag k="maxspeed" v="20"/>
    <tag k="maxspeed:type" v="sign"/>
    <tag k="name" v="Dýšinská"/>
    <tag k="surface" v="asphalt"/>
  </way>
  <way id="8919570" version="17" timestamp="2023-04-16T10:08:57Z" changeset="134968313" uid="469828" user="Lukáš Jelínek">
    <nd ref="2799436491"/>
    <nd ref="2799436656"/>
    <nd ref="3559435428"/>
    <nd ref="2799436635"/>
    <nd ref="2799436639"/>
    <nd ref="2799436624"/>
    <nd ref="2799436619"/>
    <nd ref="2799436533"/>
    <nd ref="2799434466"/>
    <nd ref="2799436491"/>
    <tag k="branch" v="spol  s r o "/>
    <tag k="brand" v="Billa"/>
    <tag k="brand:wikidata" v="Q42969493"/>
    <tag k="brand:wikipedia" v="de:Billa"/>
    <tag k="building" v="retail"/>
    <tag k="building:levels" v="1"/>
    <tag k="building:ruian:type" v="10"/>
    <tag k="email" v="info@billa.cz"/>
    <tag k="name" v="Billa"/>
    <tag k="opening_hours" v="Mo-Sa 07:00-21:00;Su 08:00-21:00"/>
    <tag k="phone" v="+420 274 860 983"/>
    <tag k="ref:ruian:building" v="50184024"/>
    <tag k="roof:levels" v="0"/>
    <tag k="roof:shape" v="flat"/>
    <tag k="shop" v="supermarket"/>
    <tag k="source" v="cuzk:ruian"/>
    <tag k="website" v="https://www.billa.cz/"/>
  </way>
  <way id="8919572" version="6" timestamp="2023-07-13T21:26:51Z" changeset="138481262" uid="6588887" user="Martin2035">
    <nd ref="65271263"/>
    <nd ref="65344714"/>
    <nd ref="3556808776"/>
    <nd ref="65344719"/>
    <tag k="highway" v="residential"/>
    <tag k="lanes" v="1"/>
    <tag k="lit" v="yes"/>
    <tag k="maxspeed" v="50"/>
    <tag k="name" v="Ravennská"/>
    <tag k="sidewalk" v="both"/>
    <tag k="surface" v="asphalt"/>
  </way>
  <way id="12244532" version="11" timestamp="2023-03-01T17:53:03Z" changeset="133182149" uid="469828" user="Lukáš Jelínek">
    <nd ref="110920974"/>
    <nd ref="3440400513"/>
    <tag k="bridge" v="yes"/>
    <tag k="cycleway:both" v="no"/>
    <tag k="highway" v="tertiary"/>
    <tag k="lanes" v="2"/>
    <tag k="layer" v="1"/>
    <tag k="lit" v="yes"/>
    <tag k="maxspeed" v="50"/>
    <tag k="name" v="K Měcholupům"/>
    <tag k="parking:both" v="no"/>
    <tag k="sidewalk:left" v="yes"/>
    <tag k="sidewalk:right" v="separate"/>
    <tag k="source:maxspeed" v="CZ:urban"/>
    <tag k="surface" v="asphalt"/>
  </way>
  <way id="22743554" version="5" timestamp="2014-05-11T08:12:36Z" changeset="22265129" uid="1708065" user="Salamandr">
    <nd ref="60725179"/>
    <nd ref="321060294"/>
    <nd ref="60725180"/>
    <tag k="highway" v="residential"/>
    <tag k="lanes" v="1"/>
    <tag k="lit" v="yes"/>
    <tag k="maxspeed" v="30"/>
    <tag k="name" v="Dubská"/>
    <tag k="oneway" v="yes"/>
    <tag k="source:maxspeed" v="Visual"/>
    <tag k="surface" v="asphalt"/>
  </way>
  <way id="22821932" version="7" timestamp="2015-05-30T14:25:00Z" changeset="31585329" uid="1708065" user="Salamandr">
    <nd ref="65344628"/>
    <nd ref="1436657937"/>
    <nd ref="775166683"/>
    <nd ref="775166769"/>
    <nd ref="245562459"/>
    <tag k="highway" v="residential"/>
    <tag k="lanes" v="1"/>
    <tag k="lit" v="yes"/>
    <tag k="maxspeed" v="30"/>
    <tag k="sidewalk" v="right"/>
    <tag k="surface" v="asphalt"/>
  </way>
  <way id="22821933" version="8" timestamp="2023-11-14T10:39:58Z" changeset="144004727" uid="1457631" user="MC79">
    <nd ref="245562460"/>
    <nd ref="1436657964"/>
    <nd ref="3539751533"/>
    <nd ref="11348183485"/>
    <nd ref="775166727"/>
    <nd ref="245562461"/>
    <nd ref="321061234"/>
    <nd ref="321061237"/>
    <tag k="highway" v="residential"/>
    <tag k="lanes" v="1"/>
    <tag k="lit" v="yes"/>
    <tag k="maxspeed" v="30"/>
    <tag k="surface" v="asphalt"/>
  </way>
  <way id="26601985" version="23" timestamp="2015-02-13T20:43:29Z" changeset="28829963" uid="1708065" user="Salamandr">
    <nd ref="291731642"/>
    <nd ref="2457876120"/>
    <nd ref="1145854402"/>
    <nd ref="352793416"/>
    <tag k="highway" v="residential"/>
    <tag k="lanes" v="1"/>
    <tag k="lit" v="yes"/>
    <tag k="maxspeed" v="50"/>
    <tag k="name" v="Livornská"/>
    <tag k="source:maxspeed" v="CZ:urban"/>
    <tag k="surface" v="asphalt"/>
  </way>
  <way id="26974910" version="8" timestamp="2015-04-27T20:17:38Z" changeset="30558821" uid="1708065" user="Salamandr">
    <nd ref="295629891"/>
    <nd ref="295629892"/>
    <nd ref="1145797386"/>
    <nd ref="1145797547"/>
    <nd ref="774077488"/>
    <nd ref="2829323816"/>
    <nd ref="1145797435"/>
    <nd ref="2845495679"/>
    <nd ref="295629893"/>
    <tag k="access" v="yes"/>
    <tag k="highway" v="residential"/>
    <tag k="lanes" v="2"/>
    <tag k="lanes:both_ways" v="1"/>
    <tag k="lit" v="yes"/>
    <tag k="maxspeed" v="50"/>
    <tag k="name" v="R.A. Dvorského"/>
    <tag k="oneway" v="no"/>
    <tag k="source" v="local_knowledge"/>
    <tag k="source:maxspeed" v="CZ:urban"/>
    <tag k="surface" v="asphalt"/>
  </way>
  <way id="29169764" version="10" timestamp="2023-02-05T14:44:55Z" changeset="132111525" uid="469828" user="Lukáš Jelínek">
    <nd ref="245562462"/>
    <nd ref="1145797465"/>
    <nd ref="1145797490"/>
    <tag k="check_date:surface" v="2023-02-05"/>
    <tag k="highway" v="residential"/>
    <tag k="lanes" v="1"/>
    <tag k="lit" v="yes"/>
    <tag k="maxspeed" v="50"/>
    <tag k="name" v="Sudkova"/>
    <tag k="sidewalk:left" v="separate"/>
    <tag k="sidewalk:right" v="no"/>
    <tag k="source" v="cuzk:km"/>
    <tag k="surface" v="asphalt"/>
  </way>
  <way id="29194117" version="4" timestamp="2015-05-29T19:46:10Z" changeset="31570904" uid="1708065" user="Salamandr">
    <nd ref="65344719"/>
    <nd ref="3556808778"/>
    <nd ref="3556808784"/>
    <nd ref="321059280"/>
    <nd ref="3556824469"/>
    <nd ref="321059283"/>
    <tag k="highway" v="residential"/>
    <tag k="lanes" v="1"/>
    <tag k="lit" v="yes"/>
    <tag k="maxspeed" v="50"/>
    <tag k="name" v="Ravennská"/>
    <tag k="sidewalk" v="right"/>
    <tag k="surface" v="asphalt"/>
  </way>
  <way id="29194118" version="9" timestamp="2015-05-29T20:02:40Z" changeset="31571215" uid="1708065" user="Salamandr">
    <nd ref="352806624"/>
    <nd ref="352806623"/>
    <nd ref="352806621"/>
    <nd ref="352806620"/>
    <nd ref="352806619"/>
    <nd ref="352806617"/>
    <nd ref="321060292"/>
    <nd ref="3556865159"/>
    <nd ref="321060290"/>
    <tag k="highway" v="residential"/>
    <tag k="lanes" v="1"/>
    <tag k="lit" v="yes"/>
    <tag k="maxspeed" v="50"/>
    <tag k="name" v="Ravennská"/>
    <tag k="sidewalk" v="right"/>
    <tag k="source" v="cuzk:km"/>
    <tag k="surface" v="asphalt"/>
  </way>
  <way id="31523201" version="10" timestamp="2024-04-12T17:03:16Z" changeset="149920536" uid="20160194" user="Milan Tománek">
    <nd ref="352778683"/>
    <nd ref="352778685"/>
    <tag k="check_date" v="2024-04-12"/>
    <tag k="cycleway:right" v="no"/>
    <tag k="highway" v="tertiary"/>
    <tag k="junction" v="roundabout"/>
    <tag k="lanes" v="1"/>
    <tag k="lit" v="yes"/>
    <tag k="maxspeed" v="50"/>
    <tag k="name" v="Hornoměcholupská"/>
    <tag k="sidewalk:left" v="no"/>
    <tag k="sidewalk:right" v="separate"/>
    <tag k="source:maxspeed" v="CZ:urban"/>
    <tag k="surface" v="asphalt"/>
  </way>
  <way id="31523451" version="8" timestamp="2025-04-18T18:46:36Z" changeset="165126638" uid="1160334" user="honzaa">
    <nd ref="352781038"/>
    <nd ref="7079766028"/>
    <nd ref="7079766027"/>
    <nd ref="352781047"/>
    <tag k="bicycle" v="no"/>
    <tag k="highway" v="residential"/>
  </way>
  <way id="31523467" version="5" timestamp="2024-06-03T22:15:55Z" changeset="152218999" uid="20160194" user="Milan Tománek">
    <nd ref="352781130"/>
    <nd ref="8633214840"/>
    <nd ref="8633214838"/>
    <nd ref="1801980767"/>
    <nd ref="352781132"/>
    <nd ref="352781094"/>
    <tag k="highway" v="residential"/>
    <tag k="name" v="U Golfu"/>
    <tag k="source" v="cuzk:km"/>
  </way>
  <way id="31525634" version="12" timestamp="2024-06-10T08:18:27Z" changeset="152485742" uid="20160194" user="Milan Tománek">
    <nd ref="3559337541"/>
    <nd ref="3559337542"/>
    <nd ref="3559337543"/>
    <nd ref="2799434383"/>
    <nd ref="2799436963"/>
    <nd ref="2799436969"/>
    <nd ref="2799436920"/>
    <nd ref="2799436774"/>
    <nd ref="2799436798"/>
    <nd ref="3559337540"/>
    <nd ref="3559337541"/>
    <tag k="addr:city" v="Praha"/>
    <tag k="addr:housenumber" v="492"/>
    <tag k="addr:postcode" v="10900"/>
    <tag k="addr:street" v="Hornoměcholupská"/>
    <tag k="branch" v="s r o"/>
    <tag k="brand" v="PENNY"/>
    <tag k="brand:wikidata" v="Q284688"/>
    <tag k="brand:wikipedia" v="en:Penny (supermarket)"/>
    <tag k="building" v="retail"/>
    <tag k="building:ruian:type" v="5"/>
    <tag k="email" v="info@penny.cz"/>
    <tag k="name" v="PENNY"/>
    <tag k="opening_hours" v="Mo-Su 07:00-21:00"/>
    <tag k="phone" v="+420 284 096 111"/>
    <tag k="ref:ruian:building" v="24697834"/>
    <tag k="shop" v="supermarket"/>
    <tag k="source" v="cuzk:ruian"/>
    <tag k="start_date" v="1999-12-08"/>
    <tag k="website" v="https://www.penny.cz/"/>
    <tag k="wheelchair" v="yes"/>
  </way>
  <way id="31525635" version="9" timestamp="2021-10-18T05:33:00Z" changeset="112635153" uid="469828" user="Lukáš Jelínek">
    <nd ref="2799436472"/>
    <nd ref="2799434500"/>
    <nd ref="2799436482"/>
    <nd ref="2799436510"/>
    <nd ref="2799436520"/>
    <nd ref="6783068088"/>
    <nd ref="2799436530"/>
    <nd ref="2799436651"/>
    <nd ref="2799436653"/>
    <nd ref="2799436665"/>
    <nd ref="2799436673"/>
    <nd ref="2799436678"/>
    <nd ref="2799436685"/>
    <nd ref="2799436679"/>
    <nd ref="2799432683"/>
    <nd ref="2799432685"/>
    <nd ref="2799432689"/>
    <nd ref="2799432684"/>
    <nd ref="2799432694"/>
    <nd ref="2799436677"/>
    <nd ref="2799436683"/>
    <nd ref="2799436625"/>
    <nd ref="2799436621"/>
    <nd ref="6783068091"/>
    <nd ref="2799436601"/>
    <nd ref="2799436607"/>
    <nd ref="2799436543"/>
    <nd ref="2799436544"/>
    <nd ref="2799436539"/>
    <nd ref="2799436538"/>
    <nd ref="2799436524"/>
    <nd ref="2799436525"/>
    <nd ref="2799436505"/>
    <nd ref="2799436502"/>
    <nd ref="2799436476"/>
    <nd ref="2799436468"/>
    <nd ref="2799436470"/>
    <nd ref="2799436464"/>
    <nd ref="2799436460"/>
    <nd ref="2799436451"/>
    <nd ref="2799436456"/>
    <nd ref="3536711160"/>
    <nd ref="2799436447"/>
    <nd ref="2799436442"/>
    <nd ref="2799434493"/>
    <nd ref="2799436434"/>
    <nd ref="2799434486"/>
    <nd ref="2799434483"/>
    <nd ref="3536711157"/>
    <nd ref="2799434463"/>
    <nd ref="2799434465"/>
    <nd ref="2799434457"/>
    <nd ref="2799434453"/>
    <nd ref="2799436425"/>
    <nd ref="2799434456"/>
    <nd ref="2799434454"/>
    <nd ref="2799434476"/>
    <nd ref="2799434477"/>
    <nd ref="2799434497"/>
    <nd ref="2799434496"/>
    <nd ref="2799436457"/>
    <nd ref="2799436458"/>
    <nd ref="2799436472"/>
    <tag k="building" v="civic"/>
    <tag k="building:levels" v="1"/>
    <tag k="building:ruian:type" v="5"/>
    <tag k="name" v="ÚMČ Praha 15"/>
    <tag k="ref:ruian:building" v="22406182"/>
    <tag k="roof:shape" v="flat"/>
    <tag k="source" v="cuzk:ruian"/>
  </way>
  <way id="31525965" version="5" timestamp="2018-11-06T05:53:40Z" changeset="64219102" uid="1182568" user="Marián Kyral">
    <nd ref="2799438444"/>
    <nd ref="4915427747"/>
    <nd ref="2799438295"/>
    <nd ref="2799438417"/>
    <nd ref="4915427746"/>
    <nd ref="2799438290"/>
    <nd ref="2799438235"/>
    <nd ref="861060481"/>
    <nd ref="4915427748"/>
    <nd ref="2799438297"/>
    <nd ref="4915427740"/>
    <nd ref="2799438444"/>
    <tag k="addr:place" v="Horní Měcholupy"/>
    <tag k="amenity" v="vehicle_inspection"/>
    <tag k="building" v="yes"/>
    <tag k="building:ruian:type" v="19"/>
    <tag k="name" v="AUTO - VESELÝ - STK"/>
    <tag k="opening_hours" v="Mo-Fr 07:00-17:00"/>
    <tag k="operator" v="Veselý"/>
    <tag k="phone" v="+420 274 877 292"/>
    <tag k="ref:ruian:building" v="24834220"/>
    <tag k="safety_inspection" v="yes"/>
    <tag k="source" v="cuzk:ruian"/>
    <tag k="start_date" v="2000-10-25"/>
  </way>
  <way id="33330533" version="3" timestamp="2014-05-11T20:53:52Z" changeset="22279829" uid="1708065" user="Salamandr">
    <nd ref="7295964"/>
    <nd ref="65344612"/>
    <nd ref="7295967"/>
    <tag k="highway" v="residential"/>
    <tag k="lanes" v="1"/>
    <tag k="lit" v="yes"/>
    <tag k="maxspeed" v="30"/>
    <tag k="name" v="Kaznějovská"/>
    <tag k="source:maxspeed" v="Visual"/>
    <tag k="surface" v="asphalt"/>
  </way>
  <way id="33464541" version="2" timestamp="2014-05-11T08:12:36Z" changeset="22265129" uid="1708065" user="Salamandr">
    <nd ref="60725179"/>
    <nd ref="244010554"/>
    <tag k="highway" v="residential"/>
    <tag k="lanes" v="1"/>
    <tag k="lit" v="yes"/>
    <tag k="maxspeed" v="30"/>
    <tag k="name" v="Dubská"/>
    <tag k="source:maxspeed" v="Visual"/>
    <tag k="surface" v="asphalt"/>
  </way>
  <way id="37260533" version="5" timestamp="2024-06-03T22:15:55Z" changeset="152218999" uid="20160194" user="Milan Tománek">
    <nd ref="352778606"/>
    <nd ref="8636215843"/>
    <nd ref="352778605"/>
    <nd ref="8636215841"/>
    <nd ref="8636215842"/>
    <nd ref="8636215840"/>
    <nd ref="352778604"/>
    <tag k="highway" v="residential"/>
    <tag k="name" v="U Golfu"/>
    <tag k="oneway" v="no"/>
    <tag k="source" v="cuzk:km"/>
  </way>
  <way id="37260583" version="11" timestamp="2024-06-03T22:15:55Z" changeset="152218999" uid="20160194" user="Milan Tománek">
    <nd ref="352778606"/>
    <nd ref="8635065531"/>
    <nd ref="434104469"/>
    <nd ref="6278100219"/>
    <nd ref="8636205581"/>
    <nd ref="8636205585"/>
    <nd ref="1801980529"/>
    <nd ref="8636205587"/>
    <nd ref="8636205586"/>
    <nd ref="434104471"/>
    <nd ref="8636205609"/>
    <nd ref="8636280720"/>
    <nd ref="8636205612"/>
    <nd ref="434104472"/>
    <tag k="highway" v="residential"/>
    <tag k="name" v="U Golfu"/>
    <tag k="sidewalk" v="separate"/>
    <tag k="surface" v="paving_stones"/>
  </way>
  <way id="62090714" version="9" timestamp="2019-04-24T11:16:30Z" changeset="69521720" uid="1189910" user="Milancer">
    <nd ref="65302163"/>
    <nd ref="3436548761"/>
    <nd ref="2734607606"/>
    <nd ref="2734607605"/>
    <nd ref="352793409"/>
    <nd ref="774051647"/>
    <nd ref="774051611"/>
    <nd ref="1145854344"/>
    <nd ref="292012576"/>
    <nd ref="1145854430"/>
    <nd ref="352793416"/>
    <tag k="highway" v="residential"/>
    <tag k="lanes" v="1"/>
    <tag k="lit" v="yes"/>
    <tag k="maxspeed" v="50"/>
    <tag k="name" v="Livornská"/>
    <tag k="oneway" v="yes"/>
    <tag k="sidewalk" v="left"/>
    <tag k="source:maxspeed" v="CZ:urban"/>
    <tag k="surface" v="asphalt"/>
  </way>
  <way id="62131367" version="5" timestamp="2023-12-22T18:58:31Z" changeset="145416759" uid="20160194" user="Milan Tománek">
    <nd ref="775240994"/>
    <nd ref="775241020"/>
    <nd ref="65302202"/>
    <tag k="highway" v="residential"/>
    <tag k="name" v="Janovská"/>
    <tag k="sidewalk:right" v="separate"/>
  </way>
  <way id="68335634" version="7" timestamp="2016-11-14T11:35:10Z" changeset="43636998" uid="3145424" user="vidmann">
    <nd ref="2799426498"/>
    <nd ref="2799426496"/>
    <nd ref="2799428146"/>
    <nd ref="2799428154"/>
    <nd ref="2799428158"/>
    <nd ref="2799427983"/>
    <nd ref="2799427986"/>
    <nd ref="2799427996"/>
    <nd ref="2799428201"/>
    <nd ref="2799428205"/>
    <nd ref="2799428218"/>
    <nd ref="2799428216"/>
    <nd ref="2799428212"/>
    <nd ref="2799428222"/>
    <nd ref="2799428033"/>
    <nd ref="2799428029"/>
    <nd ref="2799428208"/>
    <nd ref="2799428210"/>
    <nd ref="2799428207"/>
    <nd ref="2799428206"/>
    <nd ref="2799427998"/>
    <nd ref="2799427987"/>
    <nd ref="2799427979"/>
    <nd ref="2799428159"/>
    <nd ref="2799428156"/>
    <nd ref="2799428160"/>
    <nd ref="2799428157"/>
    <nd ref="2799428138"/>
    <nd ref="2799428139"/>
    <nd ref="2799428136"/>
    <nd ref="2799428133"/>
    <nd ref="2799428134"/>
    <nd ref="2799428123"/>
    <nd ref="2799428124"/>
    <nd ref="2799428110"/>
    <nd ref="2799428108"/>
    <nd ref="2799428109"/>
    <nd ref="2799428111"/>
    <nd ref="2799428112"/>
    <nd ref="2799428103"/>
    <nd ref="2799428101"/>
    <nd ref="2799428105"/>
    <nd ref="2799428104"/>
    <nd ref="2799428102"/>
    <nd ref="2799426469"/>
    <nd ref="2799426468"/>
    <nd ref="2799426465"/>
    <nd ref="2799428024"/>
    <nd ref="2799428022"/>
    <nd ref="2799428017"/>
    <nd ref="2799428009"/>
    <nd ref="2799428015"/>
    <nd ref="2799428007"/>
    <nd ref="2799428002"/>
    <nd ref="2799427800"/>
    <nd ref="2799427791"/>
    <nd ref="1874174026"/>
    <nd ref="2799427969"/>
    <nd ref="2799427779"/>
    <nd ref="2799427970"/>
    <nd ref="2799427971"/>
    <nd ref="2799427795"/>
    <nd ref="2799427799"/>
    <nd ref="2799428001"/>
    <nd ref="2799428006"/>
    <nd ref="2799428008"/>
    <nd ref="2799428018"/>
    <nd ref="2799428023"/>
    <nd ref="2799426462"/>
    <nd ref="2799426500"/>
    <nd ref="2799426498"/>
    <tag k="building" v="residential"/>
    <tag k="building:flats" v="90"/>
    <tag k="building:levels" v="7"/>
    <tag k="building:ruian:type" v="6"/>
    <tag k="name" v="Dům s pečovatelskou službou"/>
    <tag k="ref:ruian:building" v="24539970"/>
    <tag k="source" v="cuzk:ruian"/>
    <tag k="start_date" v="1999-02-03"/>
  </way>
  <way id="68335820" version="5" timestamp="2015-04-03T19:28:10Z" changeset="29958999" uid="1708065" user="Salamandr">
    <nd ref="2799429072"/>
    <nd ref="2799429074"/>
    <nd ref="2799428386"/>
    <nd ref="2799428385"/>
    <nd ref="2799429072"/>
    <tag k="amenity" v="restaurant"/>
    <tag k="building" v="civic"/>
    <tag k="building:levels" v="1"/>
    <tag k="building:ruian:type" v="5"/>
    <tag k="name" v="Hospůdka Parma"/>
    <tag k="opening_hours" v="Mo-Su 00:00-03:00,15:00-24:00"/>
    <tag k="ref:ruian:building" v="24609307"/>
    <tag k="source" v="cuzk:ruian"/>
  </way>
  <way id="81797307" version="6" timestamp="2021-07-29T16:11:32Z" changeset="108836173" uid="218213" user="Tomas CZ">
    <nd ref="65271263"/>
    <nd ref="65271268"/>
    <nd ref="775166796"/>
    <tag k="highway" v="residential"/>
    <tag k="lanes" v="2"/>
    <tag k="lanes:both_ways" v="1"/>
    <tag k="lit" v="yes"/>
    <tag k="maxspeed" v="50"/>
    <tag k="name" v="Ravennská"/>
    <tag k="sidewalk" v="both"/>
    <tag k="surface" v="asphalt"/>
  </way>
  <way id="81797309" version="1" timestamp="2010-10-17T01:10:43Z" changeset="6063171" uid="17615" user="Petr Dlouhý">
    <nd ref="379075917"/>
    <nd ref="297401661"/>
    <tag k="highway" v="residential"/>
    <tag k="name" v="U Statku"/>
    <tag k="oneway" v="yes"/>
  </way>
  <way id="99047429" version="5" timestamp="2024-06-05T12:45:58Z" changeset="152286544" uid="20160194" user="Milan Tománek">
    <nd ref="1145797406"/>
    <nd ref="1145797526"/>
    <nd ref="1145797441"/>
    <nd ref="1145797506"/>
    <nd ref="1145797323"/>
    <nd ref="1145797345"/>
    <nd ref="1145797490"/>
    <tag k="highway" v="residential"/>
    <tag k="lanes" v="1"/>
    <tag k="lit" v="yes"/>
    <tag k="maxspeed" v="50"/>
    <tag k="name" v="Sudkova"/>
    <tag k="oneway" v="yes"/>
    <tag k="sidewalk" v="right"/>
    <tag k="surface" v="asphalt"/>
  </way>
  <way id="99054460" version="12" timestamp="2024-06-21T07:49:18Z" changeset="152980424" uid="20160194" user="Milan Tománek">
    <nd ref="3477183022"/>
    <nd ref="775177737"/>
    <nd ref="1417320862"/>
    <nd ref="1145797501"/>
    <nd ref="245562462"/>
    <tag k="highway" v="residential"/>
    <tag k="lanes" v="1"/>
    <tag k="lit" v="yes"/>
    <tag k="maxspeed" v="50"/>
    <tag k="name" v="Lochotínská"/>
    <tag k="sidewalk:left" v="no"/>
    <tag k="sidewalk:right" v="separate"/>
    <tag k="source:width" v="ARCore"/>
    <tag k="surface" v="asphalt"/>
    <tag k="width" v="5.7"/>
  </way>
  <way id="113684698" version="7" timestamp="2018-03-18T14:47:25Z" changeset="57292121" uid="25867" user="adamos">
    <nd ref="65328511"/>
    <nd ref="2591176802"/>
    <nd ref="1440168125"/>
    <nd ref="2591176804"/>
    <nd ref="1288839627"/>
    <tag k="highway" v="residential"/>
    <tag k="lit" v="yes"/>
    <tag k="maxspeed" v="50"/>
    <tag k="maxspeed:type" v="sign"/>
    <tag k="name" v="Milánská"/>
    <tag k="oneway" v="no"/>
    <tag k="surface" v="asphalt"/>
  </way>
  <way id="128978612" version="5" timestamp="2023-12-23T19:04:05Z" changeset="145445489" uid="20160194" user="Milan Tománek">
    <nd ref="65302142"/>
    <nd ref="65302143"/>
    <tag k="highway" v="residential"/>
    <tag k="name" v="Veronské náměstí"/>
    <tag k="official_name" v="Veronské nám."/>
    <tag k="sidewalk:left" v="separate"/>
  </way>
  <way id="128978613" version="7" timestamp="2023-12-23T19:03:36Z" changeset="145445489" uid="20160194" user="Milan Tománek">
    <nd ref="65302097"/>
    <nd ref="3435303859"/>
    <nd ref="3435385430"/>
    <nd ref="1423923806"/>
    <nd ref="65302137"/>
    <nd ref="65302142"/>
    <tag k="highway" v="residential"/>
    <tag k="name" v="Veronské náměstí"/>
    <tag k="official_name" v="Veronské nám."/>
    <tag k="sidewalk:right" v="separate"/>
  </way>
  <way id="130855714" version="4" timestamp="2019-04-24T11:16:49Z" changeset="69521720" uid="1189910" user="Milancer">
    <nd ref="65302163"/>
    <nd ref="745606264"/>
    <tag k="highway" v="residential"/>
    <tag k="name" v="Livornská"/>
  </way>
  <way id="130855715" version="6" timestamp="2024-06-05T12:45:58Z" changeset="152286544" uid="20160194" user="Milan Tománek">
    <nd ref="774102354"/>
    <nd ref="245562467"/>
    <tag k="check_date:surface" v="2021-07-20"/>
    <tag k="highway" v="residential"/>
    <tag k="lanes" v="1"/>
    <tag k="lit" v="yes"/>
    <tag k="maxspeed" v="50"/>
    <tag k="name" v="Sudkova"/>
    <tag k="oneway" v="yes"/>
    <tag k="sidewalk" v="both"/>
    <tag k="surface" v="asphalt"/>
  </way>
  <way id="130855718" version="14" timestamp="2025-04-21T15:12:53Z" changeset="165245372" uid="1160334" user="honzaa">
    <nd ref="65328513"/>
    <nd ref="763661636"/>
    <nd ref="763661640"/>
    <tag k="highway" v="tertiary"/>
    <tag k="lanes" v="2"/>
    <tag k="lit" v="yes"/>
    <tag k="maxspeed" v="50"/>
    <tag k="name" v="Milánská"/>
    <tag k="sidewalk:both" v="separate"/>
    <tag k="source:maxspeed" v="CZ:urban"/>
    <tag k="surface" v="asphalt"/>
  </way>
  <way id="130855765" version="8" timestamp="2021-04-16T18:06:41Z" changeset="103075388" uid="11276832" user="HaPe-CZ">
    <nd ref="775173592"/>
    <nd ref="352778599"/>
    <nd ref="7675927347"/>
    <nd ref="352778600"/>
    <nd ref="352778601"/>
    <nd ref="8636249286"/>
    <nd ref="352778602"/>
    <nd ref="775173570"/>
    <nd ref="352778603"/>
    <nd ref="8636215839"/>
    <nd ref="3363194302"/>
    <nd ref="352778604"/>
    <tag k="highway" v="residential"/>
    <tag k="name" v="U Golfu"/>
    <tag k="surface" v="asphalt"/>
  </way>
  <way id="143540465" version="7" timestamp="2015-10-10T06:48:34Z" changeset="34543855" uid="1708065" user="Salamandr">
    <nd ref="3033539089"/>
    <nd ref="3033539095"/>
    <nd ref="3033539092"/>
    <nd ref="3033539091"/>
    <nd ref="3033539075"/>
    <nd ref="3033539074"/>
    <nd ref="3033539073"/>
    <nd ref="3033539089"/>
    <tag k="amenity" v="fire_station"/>
    <tag k="building" v="industrial"/>
    <tag k="building:ruian:type" v="16"/>
    <tag k="name" v="Hasiči Horní Počernice"/>
    <tag k="opening_hours" v="24/7"/>
    <tag k="ref:ruian:building" v="49804618"/>
    <tag k="source" v="cuzk:ruian"/>
    <tag k="start_date" v="2013-02-07"/>
  </way>
  <way id="143552585" version="5" timestamp="2015-04-23T06:40:04Z" changeset="30421563" uid="2037651" user="Francois555">
    <nd ref="2799434351"/>
    <nd ref="2799434354"/>
    <nd ref="2799436957"/>
    <nd ref="2799436954"/>
    <nd ref="2799434351"/>
    <tag k="addr:city" v="Praha"/>
    <tag k="addr:housenumber" v="565"/>
    <tag k="addr:postcode" v="10900"/>
    <tag k="addr:street" v="Hornoměcholupská"/>
    <tag k="amenity" v="restaurant"/>
    <tag k="building" v="yes"/>
    <tag k="building:levels" v="1"/>
    <tag k="building:ruian:type" v="19"/>
    <tag k="name" v="Green House"/>
    <tag k="ref:ruian:building" v="25330322"/>
    <tag k="source" v="cuzk:ruian"/>
    <tag k="start_date" v="2003-09-15"/>
  </way>
  <way id="147032902" version="7" timestamp="2025-03-24T08:25:02Z" changeset="164019066" uid="1189910" user="Milancer">
    <nd ref="245562462"/>
    <nd ref="12696008649"/>
    <nd ref="774102354"/>
    <tag k="check_date:surface" v="2023-02-05"/>
    <tag k="highway" v="residential"/>
    <tag k="lanes" v="1"/>
    <tag k="lit" v="yes"/>
    <tag k="maxspeed" v="50"/>
    <tag k="name" v="Sudkova"/>
    <tag k="oneway" v="yes"/>
    <tag k="sidewalk:left" v="no"/>
    <tag k="sidewalk:right" v="separate"/>
    <tag k="surface" v="asphalt"/>
  </way>
  <way id="160945542" version="5" timestamp="2022-01-19T15:09:28Z" changeset="116346514" uid="661742" user="nemca">
    <nd ref="2799436953"/>
    <nd ref="2799437120"/>
    <nd ref="2799437125"/>
    <nd ref="3440419499"/>
    <nd ref="3590708429"/>
    <nd ref="3590708430"/>
    <nd ref="3440419498"/>
    <nd ref="2799437130"/>
    <nd ref="2799434376"/>
    <nd ref="2799432698"/>
    <nd ref="2799436953"/>
    <tag k="building" v="industrial"/>
    <tag k="building:ruian:type" v="1"/>
    <tag k="name" v="Démos trade, a. s."/>
    <tag k="ref:ruian:building" v="46851089"/>
    <tag k="source" v="cuzk:ruian"/>
  </way>
  <way id="169024029" version="10" timestamp="2025-04-18T18:46:36Z" changeset="165126638" uid="1160334" user="honzaa">
    <nd ref="434104472"/>
    <nd ref="8636205613"/>
    <nd ref="8636280719"/>
    <nd ref="8636205610"/>
    <nd ref="10685979535"/>
    <nd ref="8636205616"/>
    <nd ref="1801980554"/>
    <nd ref="8636280718"/>
    <nd ref="8636280717"/>
    <nd ref="12766651199"/>
    <nd ref="2380115880"/>
    <nd ref="8631535361"/>
    <nd ref="1801980560"/>
    <nd ref="1801980562"/>
    <nd ref="8631481989"/>
    <nd ref="7079766023"/>
    <nd ref="8631481988"/>
    <nd ref="1801980583"/>
    <nd ref="1801980767"/>
    <tag k="highway" v="residential"/>
    <tag k="name" v="U Golfu"/>
    <tag k="surface" v="paving_stones"/>
  </way>
  <way id="186114995" version="14" timestamp="2023-04-05T21:42:06Z" changeset="134554808" uid="10932047" user="AF HAF KARTOGRAF">
    <nd ref="4973649261"/>
    <nd ref="2799427573"/>
    <nd ref="2799427574"/>
    <nd ref="2799427549"/>
    <nd ref="2799427547"/>
    <nd ref="2799427516"/>
    <nd ref="2799427521"/>
    <nd ref="2799427535"/>
    <nd ref="2799427536"/>
    <nd ref="4973649260"/>
    <nd ref="4973649261"/>
    <tag k="addr:city" v="Praha"/>
    <tag k="addr:conscriptionnumber" v="653"/>
    <tag k="addr:country" v="CZ"/>
    <tag k="addr:housenumber" v="653/176"/>
    <tag k="addr:place" v="Horní Měcholupy"/>
    <tag k="addr:postcode" v="10900"/>
    <tag k="addr:street" v="Hornoměcholupská"/>
    <tag k="addr:streetnumber" v="176"/>
    <tag k="addr:suburb" v="Praha 15"/>
    <tag k="building" v="residential"/>
    <tag k="building:flats" v="54"/>
    <tag k="building:levels" v="8"/>
    <tag k="building:ruian:type" v="6"/>
    <tag k="ref:ruian:addr" v="73688142"/>
    <tag k="ref:ruian:building" v="53999380"/>
    <tag k="source" v="cuzk:ruian"/>
    <tag k="start_date" v="2013-03-19"/>
  </way>
  <way id="186115973" version="4" timestamp="2024-03-30T20:01:17Z" changeset="149365661" uid="10932047" user="AF HAF KARTOGRAF">
    <nd ref="1968199129"/>
    <nd ref="2370601450"/>
    <nd ref="1968199125"/>
    <nd ref="1968199127"/>
    <nd ref="2370601454"/>
    <nd ref="1968199132"/>
    <nd ref="1968199129"/>
    <tag k="addr:conscriptionnumber" v="398"/>
    <tag k="addr:housenumber" v="398"/>
    <tag k="addr:postcode" v="10900"/>
    <tag k="addr:street" v="Janovská"/>
    <tag k="building" v="residential"/>
    <tag k="building:levels" v="8"/>
    <tag k="ref:ruian:addr" v="22563636"/>
    <tag k="source:addr" v="cuzk:ruian"/>
  </way>
  <way id="186115975" version="4" timestamp="2024-03-30T20:01:17Z" changeset="149365661" uid="10932047" user="AF HAF KARTOGRAF">
    <nd ref="1968199096"/>
    <nd ref="2370601416"/>
    <nd ref="65302355"/>
    <nd ref="65302361"/>
    <nd ref="2370601418"/>
    <nd ref="1968199099"/>
    <nd ref="1968199096"/>
    <tag k="addr:conscriptionnumber" v="402"/>
    <tag k="addr:housenumber" v="402"/>
    <tag k="addr:postcode" v="10900"/>
    <tag k="addr:street" v="Janovská"/>
    <tag k="building" v="residential"/>
    <tag k="building:levels" v="8"/>
    <tag k="ref:ruian:addr" v="22563679"/>
    <tag k="source:addr" v="cuzk:ruian"/>
  </way>
  <way id="186115976" version="5" timestamp="2024-03-30T20:01:17Z" changeset="149365661" uid="10932047" user="AF HAF KARTOGRAF">
    <nd ref="1968199123"/>
    <nd ref="1968199121"/>
    <nd ref="2370601425"/>
    <nd ref="1968199103"/>
    <nd ref="1968199107"/>
    <nd ref="2370601427"/>
    <nd ref="1968199123"/>
    <tag k="addr:city" v="Praha"/>
    <tag k="addr:conscriptionnumber" v="400"/>
    <tag k="addr:country" v="CZ"/>
    <tag k="addr:housenumber" v="400"/>
    <tag k="addr:place" v="Horní Měcholupy"/>
    <tag k="addr:postcode" v="10900"/>
    <tag k="addr:street" v="Janovská"/>
    <tag k="addr:suburb" v="Praha 15"/>
    <tag k="building" v="residential"/>
    <tag k="building:levels" v="8"/>
    <tag k="ref:ruian:addr" v="22563652"/>
    <tag k="source:addr" v="cuzk:ruian"/>
  </way>
  <way id="187772622" version="9" timestamp="2024-02-28T17:54:22Z" changeset="148022890" uid="469828" user="Lukáš Jelínek">
    <nd ref="1984096097"/>
    <nd ref="7296234"/>
    <tag k="cycleway:both" v="no"/>
    <tag k="highway" v="tertiary"/>
    <tag k="lanes" v="2"/>
    <tag k="lit" v="no"/>
    <tag k="maxspeed" v="50"/>
    <tag k="name" v="K Měcholupům"/>
    <tag k="parking:both" v="no"/>
    <tag k="smoothness" v="good"/>
    <tag k="source:maxspeed" v="CZ:urban"/>
    <tag k="surface" v="asphalt"/>
  </way>
  <way id="229407527" version="5" timestamp="2024-06-03T22:15:55Z" changeset="152218999" uid="20160194" user="Milan Tománek">
    <nd ref="2380115893"/>
    <nd ref="2380115897"/>
    <nd ref="7079780596"/>
    <nd ref="7079780595"/>
    <nd ref="7079780594"/>
    <nd ref="7079780593"/>
    <nd ref="7079780592"/>
    <tag k="highway" v="residential"/>
    <tag k="name" v="U Golfu"/>
  </way>
  <way id="229407528" version="4" timestamp="2024-06-03T22:15:55Z" changeset="152218999" uid="20160194" user="Milan Tománek">
    <nd ref="2380115889"/>
    <nd ref="2380115894"/>
    <tag k="highway" v="residential"/>
    <tag k="name" v="U Golfu"/>
  </way>
  <way id="229407529" version="5" timestamp="2024-06-03T22:15:55Z" changeset="152218999" uid="20160194" user="Milan Tománek">
    <nd ref="352781130"/>
    <nd ref="8633214839"/>
    <nd ref="8633214837"/>
    <nd ref="7079780600"/>
    <nd ref="7079780597"/>
    <nd ref="7079780599"/>
    <nd ref="7079780598"/>
    <nd ref="2380115890"/>
    <nd ref="2380115889"/>
    <nd ref="2380115888"/>
    <tag k="highway" v="residential"/>
    <tag k="name" v="U Golfu"/>
  </way>
  <way id="229407530" version="8" timestamp="2024-06-03T22:15:55Z" changeset="152218999" uid="20160194" user="Milan Tománek">
    <nd ref="2380115891"/>
    <nd ref="2380115893"/>
    <nd ref="2380115894"/>
    <nd ref="2380115895"/>
    <tag k="highway" v="residential"/>
    <tag k="name" v="U Golfu"/>
    <tag k="sidewalk" v="no"/>
    <tag k="surface" v="paving_stones"/>
  </way>
  <way id="229407531" version="6" timestamp="2024-06-03T22:15:55Z" changeset="152218999" uid="20160194" user="Milan Tománek">
    <nd ref="1801980767"/>
    <nd ref="2380115888"/>
    <nd ref="2380115891"/>
    <nd ref="7079780592"/>
    <nd ref="2380115896"/>
    <tag k="highway" v="residential"/>
    <tag k="name" v="U Golfu"/>
    <tag k="sidewalk" v="left"/>
    <tag k="surface" v="paving_stones"/>
  </way>
  <way id="231916005" version="14" timestamp="2024-02-03T16:45:16Z" changeset="147026978" uid="2061236" user="Thartek">
    <nd ref="2799435887"/>
    <nd ref="2799436111"/>
    <nd ref="2799435873"/>
    <nd ref="2799435874"/>
    <nd ref="2799435865"/>
    <nd ref="4766246492"/>
    <nd ref="4766246487"/>
    <nd ref="2799435303"/>
    <nd ref="2799435514"/>
    <nd ref="3477183043"/>
    <nd ref="2799435530"/>
    <nd ref="2799435887"/>
    <tag k="addr:city" v="Praha"/>
    <tag k="addr:housenumber" v="656"/>
    <tag k="addr:postcode" v="10900"/>
    <tag k="addr:street" v="Lochotínská"/>
    <tag k="amenity" v="restaurant"/>
    <tag k="building" v="yes"/>
    <tag k="building:levels" v="1"/>
    <tag k="building:ruian:type" v="19"/>
    <tag k="cuisine" v="barbecue;burger;chicken;coffee_shop;diner"/>
    <tag k="email" v="info@pivovar-hostivar.cz"/>
    <tag k="internet_access" v="wlan"/>
    <tag k="microbrewery" v="yes"/>
    <tag k="name" v="Pivovar Hostivar 1"/>
    <tag k="opening_hours" v="Mo-Su 11:00-23:00"/>
    <tag k="phone" v="+420 702 202 903"/>
    <tag k="ref:ruian:building" v="60923652"/>
    <tag k="reservation" v="recommended"/>
    <tag k="smoking" v="no"/>
    <tag k="source" v="cuzk:ruian"/>
    <tag k="start_date" v="2013-09-25"/>
    <tag k="toilets:wheelchair" v="yes"/>
    <tag k="website" v="https://www.pivovar-hostivar.cz/"/>
    <tag k="wheelchair" v="yes"/>
  </way>
  <way id="232478880" version="6" timestamp="2023-12-23T18:59:40Z" changeset="145445489" uid="20160194" user="Milan Tománek">
    <nd ref="295629893"/>
    <nd ref="2408266022"/>
    <nd ref="2829323819"/>
    <nd ref="65328673"/>
    <tag k="access" v="yes"/>
    <tag k="highway" v="residential"/>
    <tag k="incline" v="up"/>
    <tag k="lanes" v="1"/>
    <tag k="lit" v="yes"/>
    <tag k="maxspeed" v="50"/>
    <tag k="name" v="Evy Olmerové"/>
    <tag k="oneway" v="no"/>
    <tag k="sidewalk:left" v="separate"/>
    <tag k="source" v="local_knowledge"/>
    <tag k="surface" v="asphalt"/>
  </way>
  <way id="232478881" version="5" timestamp="2015-04-27T20:25:15Z" changeset="30559057" uid="1708065" user="Salamandr">
    <nd ref="2408266022"/>
    <nd ref="2829323823"/>
    <tag k="highway" v="residential"/>
    <tag k="name" v="Evy Olmerové"/>
  </way>
  <way id="237842762" version="8" timestamp="2023-12-22T19:04:29Z" changeset="145416759" uid="20160194" user="Milan Tománek">
    <nd ref="65328518"/>
    <nd ref="65328521"/>
    <nd ref="65328594"/>
    <tag k="highway" v="residential"/>
    <tag k="lanes" v="2"/>
    <tag k="lit" v="yes"/>
    <tag k="maxspeed" v="50"/>
    <tag k="name" v="Milánská"/>
    <tag k="parking:condition:both" v="free"/>
    <tag k="parking:lane:left" v="perpendicular"/>
    <tag k="parking:lane:right" v="parallel"/>
    <tag k="sidewalk:right" v="separate"/>
    <tag k="source:maxspeed" v="CZ:urban"/>
    <tag k="surface" v="asphalt"/>
  </way>
  <way id="237843552" version="8" timestamp="2023-12-22T18:51:56Z" changeset="145416759" uid="20160194" user="Milan Tománek">
    <nd ref="2457054632"/>
    <nd ref="65328501"/>
    <nd ref="65328506"/>
    <nd ref="745606245"/>
    <nd ref="2529705984"/>
    <nd ref="2523602115"/>
    <tag k="highway" v="residential"/>
    <tag k="lanes" v="1"/>
    <tag k="lit" v="yes"/>
    <tag k="maxspeed" v="50"/>
    <tag k="name" v="Milánská"/>
    <tag k="oneway" v="yes"/>
    <tag k="parking:condition:both" v="free"/>
    <tag k="parking:lane:both" v="perpendicular"/>
    <tag k="parking:lane:both:parallel" v="on_street"/>
    <tag k="sidewalk:left" v="separate"/>
    <tag k="source:maxspeed" v="CZ:urban"/>
    <tag k="surface" v="asphalt"/>
  </way>
  <way id="245111508" version="6" timestamp="2023-12-22T18:52:26Z" changeset="145416759" uid="20160194" user="Milan Tománek">
    <nd ref="2523602117"/>
    <nd ref="2523602463"/>
    <tag k="highway" v="residential"/>
    <tag k="lanes" v="1"/>
    <tag k="lit" v="yes"/>
    <tag k="maxspeed" v="50"/>
    <tag k="name" v="Milánská"/>
    <tag k="oneway" v="yes"/>
    <tag k="parking:condition:both" v="free"/>
    <tag k="parking:lane:both" v="perpendicular"/>
    <tag k="parking:lane:both:parallel" v="on_street"/>
    <tag k="sidewalk:left" v="separate"/>
    <tag k="source:maxspeed" v="CZ:urban"/>
    <tag k="surface" v="asphalt"/>
  </way>
  <way id="245111509" version="6" timestamp="2025-05-03T09:47:15Z" changeset="165750661" uid="1160334" user="honzaa">
    <nd ref="2523602115"/>
    <nd ref="745606241"/>
    <nd ref="65328509"/>
    <tag k="highway" v="residential"/>
    <tag k="lanes" v="1"/>
    <tag k="lit" v="yes"/>
    <tag k="maxspeed" v="50"/>
    <tag k="name" v="Milánská"/>
    <tag k="oneway" v="yes"/>
    <tag k="sidewalk:left" v="separate"/>
    <tag k="source:maxspeed" v="CZ:urban"/>
    <tag k="surface" v="asphalt"/>
  </way>
  <way id="245111555" version="4" timestamp="2018-03-18T14:47:18Z" changeset="57292115" uid="25867" user="adamos">
    <nd ref="2523602463"/>
    <nd ref="65328511"/>
    <tag k="highway" v="residential"/>
    <tag k="lanes" v="1"/>
    <tag k="lit" v="yes"/>
    <tag k="maxspeed" v="50"/>
    <tag k="name" v="Milánská"/>
    <tag k="oneway" v="yes"/>
    <tag k="parking:condition:left" v="free"/>
    <tag k="parking:lane:both:parallel" v="on_street"/>
    <tag k="parking:lane:left" v="perpendicular"/>
    <tag k="source:maxspeed" v="CZ:urban"/>
    <tag k="surface" v="asphalt"/>
  </way>
  <way id="245407548" version="8" timestamp="2023-12-22T18:50:27Z" changeset="145416759" uid="20160194" user="Milan Tománek">
    <nd ref="7079723"/>
    <nd ref="2526169406"/>
    <tag k="cycleway:both" v="no"/>
    <tag k="highway" v="tertiary"/>
    <tag k="lanes" v="2"/>
    <tag k="lit" v="yes"/>
    <tag k="maxspeed" v="50"/>
    <tag k="maxspeed:conditional" v="30 @ (Mo-Fr 06:00-17:00)"/>
    <tag k="name" v="Milánská"/>
    <tag k="sidewalk:both" v="separate"/>
    <tag k="smoothness" v="good"/>
    <tag k="source:maxspeed" v="survey"/>
    <tag k="surface" v="asphalt"/>
  </way>
  <way id="245407550" version="7" timestamp="2023-12-22T18:50:11Z" changeset="145416759" uid="20160194" user="Milan Tománek">
    <nd ref="29820809"/>
    <nd ref="320810958"/>
    <nd ref="2715780874"/>
    <nd ref="7079723"/>
    <tag k="highway" v="tertiary"/>
    <tag k="lanes" v="3"/>
    <tag k="lanes:backward" v="2"/>
    <tag k="lanes:forward" v="1"/>
    <tag k="lit" v="yes"/>
    <tag k="maxspeed" v="50"/>
    <tag k="maxspeed:conditional" v="30 @ (Mo-Fr 06:00-17:00)"/>
    <tag k="name" v="Milánská"/>
    <tag k="sidewalk:both" v="separate"/>
    <tag k="source:maxspeed" v="survey"/>
    <tag k="surface" v="asphalt"/>
    <tag k="turn:lanes:backward" v="left;through|right"/>
  </way>
  <way id="245407551" version="16" timestamp="2025-04-21T14:14:01Z" changeset="165242290" uid="1160334" user="honzaa">
    <nd ref="2526169406"/>
    <nd ref="12772250312"/>
    <nd ref="65271217"/>
    <nd ref="320810962"/>
    <tag k="cycleway:both" v="no"/>
    <tag k="highway" v="tertiary"/>
    <tag k="lanes" v="2"/>
    <tag k="lit" v="yes"/>
    <tag k="maxspeed" v="50"/>
    <tag k="name" v="Milánská"/>
    <tag k="sidewalk:both" v="separate"/>
    <tag k="smoothness" v="good"/>
    <tag k="source:maxspeed" v="CZ:urban"/>
    <tag k="surface" v="asphalt"/>
  </way>
  <way id="245411770" version="6" timestamp="2023-12-22T18:51:04Z" changeset="145416759" uid="20160194" user="Milan Tománek">
    <nd ref="2526204464"/>
    <nd ref="2718550650"/>
    <nd ref="7079724"/>
    <nd ref="2715780873"/>
    <nd ref="763661618"/>
    <nd ref="29820809"/>
    <tag k="highway" v="tertiary"/>
    <tag k="lanes" v="2"/>
    <tag k="lit" v="yes"/>
    <tag k="maxspeed" v="50"/>
    <tag k="maxspeed:conditional" v="30 @ (Mo-Fr 06:00-17:00)"/>
    <tag k="name" v="Milánská"/>
    <tag k="sidewalk:left" v="separate"/>
    <tag k="source:maxspeed" v="survey"/>
    <tag k="surface" v="asphalt"/>
  </way>
  <way id="263318230" version="9" timestamp="2023-10-24T21:15:49Z" changeset="143083875" uid="20160194" user="Milan Tománek">
    <nd ref="2689430832"/>
    <nd ref="352778753"/>
    <nd ref="4819817677"/>
    <nd ref="4819817676"/>
    <nd ref="7079704"/>
    <tag k="cycleway:both" v="no"/>
    <tag k="highway" v="tertiary"/>
    <tag k="lanes" v="2"/>
    <tag k="lit" v="yes"/>
    <tag k="maxspeed" v="50"/>
    <tag k="name" v="Hornoměcholupská"/>
    <tag k="sidewalk:right" v="separate"/>
    <tag k="smoothness" v="intermediate"/>
    <tag k="source:maxspeed" v="CZ:urban"/>
    <tag k="surface" v="asphalt"/>
  </way>
  <way id="263318231" version="8" timestamp="2023-09-07T12:39:59Z" changeset="140938311" uid="469828" user="Lukáš Jelínek">
    <nd ref="352778685"/>
    <nd ref="8632254663"/>
    <nd ref="8632254662"/>
    <nd ref="2689430818"/>
    <nd ref="7995015571"/>
    <tag k="cycleway:right" v="no"/>
    <tag k="highway" v="tertiary"/>
    <tag k="lanes" v="1"/>
    <tag k="lit" v="yes"/>
    <tag k="maxspeed" v="50"/>
    <tag k="name" v="Hornoměcholupská"/>
    <tag k="oneway" v="yes"/>
    <tag k="sidewalk:left" v="no"/>
    <tag k="sidewalk:right" v="separate"/>
    <tag k="smoothness" v="good"/>
    <tag k="source:maxspeed" v="CZ:urban"/>
    <tag k="surface" v="asphalt"/>
  </way>
  <way id="263318232" version="8" timestamp="2023-09-07T12:39:49Z" changeset="140939271" uid="469828" user="Lukáš Jelínek">
    <nd ref="2689430832"/>
    <nd ref="2689430828"/>
    <nd ref="7995015570"/>
    <tag k="cycleway:right" v="no"/>
    <tag k="highway" v="tertiary"/>
    <tag k="lanes" v="1"/>
    <tag k="lit" v="yes"/>
    <tag k="maxspeed" v="50"/>
    <tag k="name" v="Hornoměcholupská"/>
    <tag k="oneway" v="yes"/>
    <tag k="sidewalk" v="right"/>
    <tag k="sidewalk:right:surface" v="asphalt"/>
    <tag k="smoothness" v="good"/>
    <tag k="source:maxspeed" v="CZ:urban"/>
    <tag k="surface" v="asphalt"/>
  </way>
  <way id="263318233" version="5" timestamp="2024-04-12T17:03:43Z" changeset="149920536" uid="20160194" user="Milan Tománek">
    <nd ref="2689430795"/>
    <nd ref="775166775"/>
    <nd ref="1760839608"/>
    <nd ref="29820796"/>
    <nd ref="1145797450"/>
    <nd ref="65271242"/>
    <tag k="check_date" v="2024-04-12"/>
    <tag k="highway" v="tertiary"/>
    <tag k="lanes" v="2"/>
    <tag k="lit" v="yes"/>
    <tag k="maxspeed" v="50"/>
    <tag k="name" v="Milánská"/>
    <tag k="source:maxspeed" v="CZ:urban"/>
    <tag k="surface" v="asphalt"/>
  </way>
  <way id="263318234" version="3" timestamp="2021-07-30T09:21:28Z" changeset="108877681" uid="718054" user="Piskvor">
    <nd ref="2689430793"/>
    <nd ref="29820804"/>
    <tag k="highway" v="tertiary"/>
    <tag k="lanes" v="2"/>
    <tag k="lit" v="yes"/>
    <tag k="maxspeed:backward" v="50"/>
    <tag k="maxspeed:forward" v="30"/>
    <tag k="name" v="Milánská"/>
    <tag k="source:maxspeed" v="CZ:urban"/>
    <tag k="surface" v="asphalt"/>
  </way>
  <way id="263318235" version="6" timestamp="2024-04-12T17:03:24Z" changeset="149920536" uid="20160194" user="Milan Tománek">
    <nd ref="352778637"/>
    <nd ref="8632254650"/>
    <nd ref="8632254652"/>
    <nd ref="8632254651"/>
    <nd ref="2689430813"/>
    <nd ref="2689430811"/>
    <tag k="check_date" v="2024-04-12"/>
    <tag k="cycleway:right" v="no"/>
    <tag k="highway" v="tertiary"/>
    <tag k="lanes" v="1"/>
    <tag k="lit" v="yes"/>
    <tag k="maxspeed" v="50"/>
    <tag k="name" v="Milánská"/>
    <tag k="oneway" v="yes"/>
    <tag k="sidewalk:left" v="no"/>
    <tag k="sidewalk:right" v="separate"/>
    <tag k="source:maxspeed" v="CZ:urban"/>
    <tag k="surface" v="asphalt"/>
  </way>
  <way id="263318236" version="5" timestamp="2024-04-12T17:03:20Z" changeset="149920536" uid="20160194" user="Milan Tománek">
    <nd ref="2689430811"/>
    <nd ref="2689430814"/>
    <nd ref="8632254659"/>
    <nd ref="8632254660"/>
    <nd ref="8632254661"/>
    <nd ref="352778683"/>
    <tag k="check_date" v="2024-04-12"/>
    <tag k="highway" v="tertiary"/>
    <tag k="lanes" v="1"/>
    <tag k="lit" v="yes"/>
    <tag k="maxspeed" v="50"/>
    <tag k="name" v="Milánská"/>
    <tag k="oneway" v="yes"/>
    <tag k="sidewalk" v="separate"/>
    <tag k="source:maxspeed" v="CZ:urban"/>
    <tag k="surface" v="asphalt"/>
  </way>
  <way id="263318237" version="3" timestamp="2021-07-30T09:21:28Z" changeset="108877681" uid="718054" user="Piskvor">
    <nd ref="29820804"/>
    <nd ref="1145854436"/>
    <nd ref="889394510"/>
    <nd ref="7079708"/>
    <tag k="highway" v="tertiary"/>
    <tag k="lanes" v="2"/>
    <tag k="lit" v="yes"/>
    <tag k="maxspeed" v="30"/>
    <tag k="name" v="Milánská"/>
    <tag k="source:maxspeed" v="survey"/>
    <tag k="surface" v="asphalt"/>
  </way>
  <way id="263322643" version="9" timestamp="2024-10-27T15:12:28Z" changeset="158417594" uid="6588887" user="Martin2035">
    <nd ref="245562467"/>
    <nd ref="65271270"/>
    <nd ref="7675927384"/>
    <nd ref="352778598"/>
    <nd ref="7079437"/>
    <tag k="highway" v="tertiary"/>
    <tag k="lanes" v="3"/>
    <tag k="lit" v="yes"/>
    <tag k="maxspeed" v="50"/>
    <tag k="name" v="Hornoměcholupská"/>
    <tag k="sidewalk:both" v="separate"/>
    <tag k="source:maxspeed" v="CZ:urban"/>
    <tag k="surface" v="asphalt"/>
  </way>
  <way id="263322644" version="6" timestamp="2024-02-28T17:40:38Z" changeset="148022477" uid="469828" user="Lukáš Jelínek">
    <nd ref="2689474154"/>
    <nd ref="2843342794"/>
    <nd ref="8632254653"/>
    <nd ref="8632254644"/>
    <nd ref="352778634"/>
    <tag k="highway" v="tertiary"/>
    <tag k="lanes" v="1"/>
    <tag k="lit" v="yes"/>
    <tag k="maxspeed" v="50"/>
    <tag k="name" v="Hornoměcholupská"/>
    <tag k="oneway" v="yes"/>
    <tag k="sidewalk:left" v="no"/>
    <tag k="sidewalk:right" v="separate"/>
    <tag k="smoothness" v="intermediate"/>
    <tag k="source:maxspeed" v="CZ:urban"/>
    <tag k="surface" v="asphalt"/>
  </way>
  <way id="263322645" version="6" timestamp="2024-02-28T17:40:46Z" changeset="148022477" uid="469828" user="Lukáš Jelínek">
    <nd ref="352778633"/>
    <nd ref="8632254645"/>
    <nd ref="8632254654"/>
    <nd ref="8632254646"/>
    <nd ref="2843343604"/>
    <nd ref="8632254666"/>
    <nd ref="2689474151"/>
    <tag k="highway" v="tertiary"/>
    <tag k="lanes" v="1"/>
    <tag k="lit" v="yes"/>
    <tag k="maxspeed" v="50"/>
    <tag k="name" v="Hornoměcholupská"/>
    <tag k="oneway" v="yes"/>
    <tag k="sidewalk:left" v="no"/>
    <tag k="sidewalk:right" v="separate"/>
    <tag k="smoothness" v="intermediate"/>
    <tag k="source:maxspeed" v="CZ:urban"/>
    <tag k="surface" v="asphalt"/>
  </way>
  <way id="263322647" version="4" timestamp="2023-10-24T21:19:14Z" changeset="143083875" uid="20160194" user="Milan Tománek">
    <nd ref="352778741"/>
    <nd ref="2689474151"/>
    <tag k="check_date:surface" v="2021-07-20"/>
    <tag k="highway" v="tertiary"/>
    <tag k="lanes" v="3"/>
    <tag k="lanes:backward" v="2"/>
    <tag k="lanes:forward" v="1"/>
    <tag k="lit" v="yes"/>
    <tag k="maxspeed" v="50"/>
    <tag k="name" v="Hornoměcholupská"/>
    <tag k="sidewalk:both" v="separate"/>
    <tag k="source:maxspeed" v="CZ:urban"/>
    <tag k="surface" v="asphalt"/>
    <tag k="turn:lanes:backward" v="left|through"/>
  </way>
  <way id="263322648" version="4" timestamp="2021-10-17T14:14:54Z" changeset="112613873" uid="469828" user="Lukáš Jelínek">
    <nd ref="2689474151"/>
    <nd ref="2689474154"/>
    <tag k="check_date:surface" v="2021-07-20"/>
    <tag k="highway" v="tertiary"/>
    <tag k="lanes" v="1"/>
    <tag k="lit" v="yes"/>
    <tag k="maxspeed" v="50"/>
    <tag k="name" v="Hornoměcholupská"/>
    <tag k="oneway" v="yes"/>
    <tag k="sidewalk" v="separate"/>
    <tag k="source:maxspeed" v="CZ:urban"/>
    <tag k="surface" v="asphalt"/>
  </way>
  <way id="263325217" version="5" timestamp="2023-10-24T21:19:24Z" changeset="143083875" uid="20160194" user="Milan Tománek">
    <nd ref="2689497432"/>
    <nd ref="2689474082"/>
    <nd ref="2689474135"/>
    <nd ref="352778741"/>
    <tag k="check_date:surface" v="2021-07-20"/>
    <tag k="highway" v="tertiary"/>
    <tag k="lanes" v="2"/>
    <tag k="lit" v="yes"/>
    <tag k="maxspeed" v="50"/>
    <tag k="name" v="Hornoměcholupská"/>
    <tag k="sidewalk:both" v="separate"/>
    <tag k="source:maxspeed" v="CZ:urban"/>
    <tag k="surface" v="asphalt"/>
  </way>
  <way id="263325223" version="8" timestamp="2024-09-04T22:33:10Z" changeset="156206858" uid="20160194" user="Milan Tománek">
    <nd ref="774088115"/>
    <nd ref="7676045948"/>
    <nd ref="7676045947"/>
    <nd ref="774102356"/>
    <nd ref="7676045945"/>
    <nd ref="7676045946"/>
    <nd ref="7676045944"/>
    <nd ref="10599429898"/>
    <nd ref="1145797406"/>
    <nd ref="245562467"/>
    <tag k="highway" v="tertiary"/>
    <tag k="lanes" v="3"/>
    <tag k="lit" v="yes"/>
    <tag k="maxspeed" v="50"/>
    <tag k="name" v="Hornoměcholupská"/>
    <tag k="sidewalk" v="separate"/>
    <tag k="surface" v="asphalt"/>
  </way>
  <way id="263325225" version="8" timestamp="2025-04-18T19:16:41Z" changeset="165127549" uid="1160334" user="honzaa">
    <nd ref="7079437"/>
    <nd ref="7079440"/>
    <nd ref="352778738"/>
    <nd ref="2689497432"/>
    <tag k="check_date:surface" v="2021-07-20"/>
    <tag k="highway" v="tertiary"/>
    <tag k="lanes" v="2"/>
    <tag k="lit" v="yes"/>
    <tag k="maxspeed" v="40"/>
    <tag k="name" v="Hornoměcholupská"/>
    <tag k="sidewalk:both" v="separate"/>
    <tag k="source:maxspeed" v="survey"/>
    <tag k="surface" v="asphalt"/>
  </way>
  <way id="268091158" version="5" timestamp="2024-05-02T17:45:34Z" changeset="150804980" uid="10932047" user="AF HAF KARTOGRAF">
    <nd ref="2799429119"/>
    <nd ref="2799429110"/>
    <nd ref="2799429053"/>
    <nd ref="2799429054"/>
    <nd ref="2799429060"/>
    <nd ref="2799429059"/>
    <nd ref="2799429063"/>
    <nd ref="2799429067"/>
    <nd ref="2799429129"/>
    <nd ref="3436525412"/>
    <nd ref="2799429135"/>
    <nd ref="2799429075"/>
    <nd ref="2799429128"/>
    <nd ref="2799429141"/>
    <nd ref="2799429139"/>
    <nd ref="2799429137"/>
    <nd ref="2799429150"/>
    <nd ref="2799429164"/>
    <nd ref="2799429167"/>
    <nd ref="2799429158"/>
    <nd ref="2799429157"/>
    <nd ref="2799429144"/>
    <nd ref="2799429162"/>
    <nd ref="2799429173"/>
    <nd ref="3436525414"/>
    <nd ref="2799428524"/>
    <nd ref="2799429153"/>
    <nd ref="2799429154"/>
    <nd ref="2799429148"/>
    <nd ref="2799429147"/>
    <nd ref="2799429138"/>
    <nd ref="2799429143"/>
    <nd ref="2799429057"/>
    <nd ref="2799429045"/>
    <nd ref="2799429065"/>
    <nd ref="2799429041"/>
    <nd ref="2799429119"/>
    <tag k="amenity" v="kindergarten"/>
    <tag k="building" v="civic"/>
    <tag k="building:flats" v="1"/>
    <tag k="building:levels" v="1"/>
    <tag k="building:ruian:type" v="3"/>
    <tag k="name" v="Centrum předškolního vzdělávání"/>
    <tag k="ref:ruian:building" v="24609536"/>
    <tag k="source" v="cuzk:ruian"/>
    <tag k="start_date" v="1992-04-24"/>
  </way>
  <way id="277692155" version="4" timestamp="2019-03-12T04:18:11Z" changeset="68047027" uid="9451067" user="b-jazz-bot">
    <nd ref="2821668821"/>
    <nd ref="2821668828"/>
    <nd ref="2821668827"/>
    <nd ref="2821668816"/>
    <nd ref="2821668815"/>
    <nd ref="2821668835"/>
    <nd ref="2821668836"/>
    <nd ref="2821668843"/>
    <nd ref="2821668844"/>
    <nd ref="2821668859"/>
    <nd ref="2821668860"/>
    <nd ref="3257004891"/>
    <nd ref="2821668862"/>
    <nd ref="2821668849"/>
    <nd ref="3257004887"/>
    <nd ref="3257004890"/>
    <nd ref="3257004895"/>
    <nd ref="3257004903"/>
    <nd ref="3257004904"/>
    <nd ref="3257004902"/>
    <nd ref="3257004901"/>
    <nd ref="2684889884"/>
    <nd ref="3257004898"/>
    <nd ref="3257004899"/>
    <nd ref="3257004900"/>
    <nd ref="3257004896"/>
    <nd ref="3257004897"/>
    <nd ref="3257004888"/>
    <nd ref="3257004889"/>
    <nd ref="3257004892"/>
    <nd ref="3257004893"/>
    <nd ref="3257004894"/>
    <nd ref="2821668866"/>
    <nd ref="2821668845"/>
    <nd ref="2821668846"/>
    <nd ref="2821668837"/>
    <nd ref="2821668838"/>
    <nd ref="2821668818"/>
    <nd ref="2821668817"/>
    <nd ref="2821668830"/>
    <nd ref="2821668829"/>
    <nd ref="2821668822"/>
    <nd ref="2821668821"/>
    <tag k="amenity" v="kindergarten"/>
    <tag k="building" v="civic"/>
    <tag k="building:flats" v="1"/>
    <tag k="building:levels" v="1"/>
    <tag k="building:ruian:type" v="5"/>
    <tag k="email" v="blazena.kobrova@ms-slunecnice.cz"/>
    <tag k="fax" v="+420 274 86 91 31"/>
    <tag k="name" v="Soukromá MŠ Slunečnice"/>
    <tag k="phone" v="+420 274 86 75 76"/>
    <tag k="ref:ruian:building" v="22406174"/>
    <tag k="source" v="cuzk:ruian"/>
    <tag k="website" v="https://www.skolickaradost.cz/"/>
  </way>
  <way id="277692162" version="5" timestamp="2024-05-01T09:31:43Z" changeset="150740823" uid="10932047" user="AF HAF KARTOGRAF">
    <nd ref="2821668858"/>
    <nd ref="2821668841"/>
    <nd ref="2821668842"/>
    <nd ref="2821668833"/>
    <nd ref="2821668834"/>
    <nd ref="2821668814"/>
    <nd ref="2821668813"/>
    <nd ref="2821668826"/>
    <nd ref="2821668825"/>
    <nd ref="2821668820"/>
    <nd ref="2821668819"/>
    <nd ref="2821668824"/>
    <nd ref="2821668823"/>
    <nd ref="2821668812"/>
    <nd ref="2821668811"/>
    <nd ref="2821668831"/>
    <nd ref="2821668832"/>
    <nd ref="2821668839"/>
    <nd ref="2821668840"/>
    <nd ref="2821668851"/>
    <nd ref="3256967432"/>
    <nd ref="2821668853"/>
    <nd ref="2821668854"/>
    <nd ref="2821668847"/>
    <nd ref="3256967426"/>
    <nd ref="3256967431"/>
    <nd ref="3256967438"/>
    <nd ref="3256967445"/>
    <nd ref="3256967446"/>
    <nd ref="3256967443"/>
    <nd ref="3256967444"/>
    <nd ref="2684883991"/>
    <nd ref="3256967439"/>
    <nd ref="3256967440"/>
    <nd ref="3256967441"/>
    <nd ref="3256967436"/>
    <nd ref="3256967437"/>
    <nd ref="3256967427"/>
    <nd ref="3256967428"/>
    <nd ref="3256967433"/>
    <nd ref="3256967434"/>
    <nd ref="3256967435"/>
    <nd ref="2821668858"/>
    <tag k="amenity" v="kindergarten"/>
    <tag k="building" v="civic"/>
    <tag k="building:flats" v="1"/>
    <tag k="building:levels" v="1"/>
    <tag k="building:ruian:type" v="5"/>
    <tag k="email" v="ms_milanska472@seznam.cz"/>
    <tag k="name" v="MŠ Škola hrou"/>
    <tag k="phone" v="+420 234 760 690"/>
    <tag k="ref:ruian:building" v="22406166"/>
    <tag k="source" v="cuzk:ruian"/>
    <tag k="website" v="www.ms-skolahrou.cz"/>
  </way>
  <way id="278584732" version="8" timestamp="2024-09-14T21:23:56Z" changeset="156627976" uid="1516345" user="theDagger">
    <nd ref="2829323825"/>
    <nd ref="5017066552"/>
    <nd ref="2829323824"/>
    <tag k="cycleway:both" v="no"/>
    <tag k="highway" v="tertiary"/>
    <tag k="lanes" v="1"/>
    <tag k="lit" v="yes"/>
    <tag k="maxspeed" v="50"/>
    <tag k="name" v="Hornoměcholupská"/>
    <tag k="oneway" v="yes"/>
    <tag k="sidewalk:left" v="no"/>
    <tag k="sidewalk:right" v="separate"/>
    <tag k="smoothness" v="good"/>
    <tag k="source:maxspeed" v="CZ:urban"/>
    <tag k="surface" v="asphalt"/>
    <tag k="turn:lanes" v="right"/>
  </way>
  <way id="278584733" version="7" timestamp="2023-08-01T07:17:13Z" changeset="139283745" uid="469828" user="Lukáš Jelínek">
    <nd ref="2829323825"/>
    <nd ref="110920957"/>
    <nd ref="4819817678"/>
    <nd ref="29820798"/>
    <nd ref="4819817679"/>
    <nd ref="4819817668"/>
    <nd ref="4819817658"/>
    <nd ref="29820797"/>
    <nd ref="2829384286"/>
    <tag k="cycleway:both" v="no"/>
    <tag k="highway" v="tertiary"/>
    <tag k="lanes" v="3"/>
    <tag k="lanes:backward" v="1"/>
    <tag k="lanes:forward" v="2"/>
    <tag k="lit" v="yes"/>
    <tag k="maxspeed" v="50"/>
    <tag k="name" v="Hornoměcholupská"/>
    <tag k="sidewalk" v="separate"/>
    <tag k="smoothness" v="good"/>
    <tag k="source:maxspeed" v="CZ:urban"/>
    <tag k="surface" v="asphalt"/>
  </way>
  <way id="278584734" version="1" timestamp="2014-05-01T16:00:46Z" changeset="22066931" uid="1708065" user="Salamandr">
    <nd ref="65329059"/>
    <nd ref="2829323174"/>
    <nd ref="2829323179"/>
    <tag k="highway" v="residential"/>
    <tag k="lanes" v="1"/>
    <tag k="lit" v="yes"/>
    <tag k="maxspeed" v="50"/>
    <tag k="name" v="Padovská"/>
    <tag k="oneway" v="no"/>
    <tag k="source:maxspeed" v="CZ:urban"/>
    <tag k="surface" v="asphalt"/>
  </way>
  <way id="278591840" version="6" timestamp="2023-08-01T07:18:42Z" changeset="139284492" uid="469828" user="Lukáš Jelínek">
    <nd ref="889384941"/>
    <nd ref="2829323825"/>
    <tag k="check_date:surface" v="2022-01-18"/>
    <tag k="cycleway:both" v="no"/>
    <tag k="destination" v="Hostivař"/>
    <tag k="highway" v="tertiary"/>
    <tag k="lanes" v="2"/>
    <tag k="lit" v="yes"/>
    <tag k="maxspeed" v="50"/>
    <tag k="name" v="Hornoměcholupská"/>
    <tag k="oneway" v="yes"/>
    <tag k="sidewalk" v="separate"/>
    <tag k="smoothness" v="good"/>
    <tag k="source:maxspeed" v="CZ:urban"/>
    <tag k="surface" v="asphalt"/>
  </way>
  <way id="278591843" version="6" timestamp="2023-08-01T07:16:33Z" changeset="139284492" uid="469828" user="Lukáš Jelínek">
    <nd ref="2829384286"/>
    <nd ref="4830112115"/>
    <nd ref="775166799"/>
    <nd ref="4830112116"/>
    <nd ref="7079704"/>
    <tag k="cycleway:both" v="no"/>
    <tag k="highway" v="tertiary"/>
    <tag k="lanes" v="2"/>
    <tag k="lit" v="yes"/>
    <tag k="maxspeed" v="50"/>
    <tag k="name" v="Hornoměcholupská"/>
    <tag k="sidewalk" v="separate"/>
    <tag k="smoothness" v="good"/>
    <tag k="source:maxspeed" v="CZ:urban"/>
    <tag k="surface" v="asphalt"/>
  </way>
  <way id="278591848" version="5" timestamp="2023-10-24T21:09:53Z" changeset="143083875" uid="20160194" user="Milan Tománek">
    <nd ref="2685359858"/>
    <nd ref="8032650097"/>
    <nd ref="110920967"/>
    <nd ref="7080447"/>
    <nd ref="32948097"/>
    <nd ref="3440400510"/>
    <tag k="highway" v="tertiary"/>
    <tag k="lanes" v="2"/>
    <tag k="lanes:backward" v="1"/>
    <tag k="lanes:forward" v="1"/>
    <tag k="lit" v="yes"/>
    <tag k="maxspeed" v="50"/>
    <tag k="name" v="K Měcholupům"/>
    <tag k="sidewalk" v="no"/>
    <tag k="surface" v="asphalt"/>
    <tag k="turn:lanes:backward" v="right"/>
  </way>
  <way id="278591854" version="4" timestamp="2024-02-28T17:49:39Z" changeset="148022477" uid="469828" user="Lukáš Jelínek">
    <nd ref="2685359858"/>
    <nd ref="2829384284"/>
    <tag k="highway" v="tertiary"/>
    <tag k="lanes" v="1"/>
    <tag k="lit" v="yes"/>
    <tag k="maxspeed" v="50"/>
    <tag k="name" v="K Měcholupům"/>
    <tag k="oneway" v="yes"/>
    <tag k="sidewalk:right" v="separate"/>
    <tag k="smoothness" v="good"/>
    <tag k="source:maxspeed" v="CZ:urban"/>
    <tag k="surface" v="asphalt"/>
  </way>
  <way id="278591858" version="5" timestamp="2024-02-28T17:49:28Z" changeset="148022477" uid="469828" user="Lukáš Jelínek">
    <nd ref="2829384285"/>
    <nd ref="2685359858"/>
    <tag k="destination" v="Uhříněves"/>
    <tag k="highway" v="tertiary"/>
    <tag k="lanes" v="1"/>
    <tag k="lit" v="yes"/>
    <tag k="maxspeed" v="50"/>
    <tag k="name" v="K Měcholupům"/>
    <tag k="oneway" v="yes"/>
    <tag k="sidewalk:right" v="separate"/>
    <tag k="smoothness" v="good"/>
    <tag k="source:maxspeed" v="CZ:urban"/>
    <tag k="surface" v="asphalt"/>
  </way>
  <way id="278762065" version="7" timestamp="2024-06-05T19:02:45Z" changeset="152301638" uid="20160194" user="Milan Tománek">
    <nd ref="1436657839"/>
    <nd ref="11958393476"/>
    <nd ref="320809154"/>
    <tag k="highway" v="residential"/>
    <tag k="lit" v="yes"/>
    <tag k="name" v="Sudkova"/>
    <tag k="sidewalk:left" v="separate"/>
    <tag k="sidewalk:right" v="yes"/>
    <tag k="sidewalk:right:surface" v="asphalt"/>
    <tag k="smoothness" v="good"/>
    <tag k="source" v="cuzk:km"/>
    <tag k="surface" v="asphalt"/>
  </way>
  <way id="278781543" version="11" timestamp="2023-12-22T19:01:29Z" changeset="145416759" uid="20160194" user="Milan Tománek">
    <nd ref="861058173"/>
    <nd ref="5100413010"/>
    <nd ref="1570773311"/>
    <nd ref="5100413011"/>
    <nd ref="7080003"/>
    <nd ref="5100413012"/>
    <nd ref="29820800"/>
    <tag k="highway" v="tertiary"/>
    <tag k="lanes" v="2"/>
    <tag k="lanes:backward" v="1"/>
    <tag k="lanes:forward" v="1"/>
    <tag k="lit" v="yes"/>
    <tag k="maxspeed" v="70"/>
    <tag k="name" v="Hornoměcholupská"/>
    <tag k="sidewalk:both" v="separate"/>
    <tag k="surface" v="asphalt"/>
  </way>
  <way id="278781544" version="5" timestamp="2024-09-14T21:23:59Z" changeset="156627976" uid="1516345" user="theDagger">
    <nd ref="2830889509"/>
    <nd ref="60725213"/>
    <nd ref="3440400515"/>
    <nd ref="2830889508"/>
    <tag k="highway" v="tertiary"/>
    <tag k="lanes" v="1"/>
    <tag k="lit" v="yes"/>
    <tag k="maxspeed" v="50"/>
    <tag k="name" v="Hornoměcholupská"/>
    <tag k="oneway" v="yes"/>
    <tag k="sidewalk:left" v="no"/>
    <tag k="sidewalk:right" v="separate"/>
    <tag k="surface" v="asphalt"/>
  </way>
  <way id="278781545" version="4" timestamp="2025-01-03T16:01:33Z" changeset="160955578" uid="469828" user="Lukáš Jelínek">
    <nd ref="2830889508"/>
    <nd ref="2830889506"/>
    <tag k="highway" v="tertiary"/>
    <tag k="lanes" v="2"/>
    <tag k="lit" v="yes"/>
    <tag k="maxspeed" v="50"/>
    <tag k="name" v="Hornoměcholupská"/>
    <tag k="oneway" v="yes"/>
    <tag k="sidewalk:left" v="no"/>
    <tag k="sidewalk:right" v="separate"/>
    <tag k="surface" v="asphalt"/>
  </way>
  <way id="278781546" version="5" timestamp="2020-11-24T11:12:18Z" changeset="94701498" uid="665336" user="Minimalis">
    <nd ref="2830889506"/>
    <nd ref="861058168"/>
    <nd ref="3627709279"/>
    <tag k="highway" v="tertiary"/>
    <tag k="lanes" v="1"/>
    <tag k="lit" v="yes"/>
    <tag k="maxspeed" v="50"/>
    <tag k="name" v="Hornoměcholupská"/>
    <tag k="oneway" v="yes"/>
    <tag k="surface" v="asphalt"/>
  </way>
  <way id="278781547" version="6" timestamp="2024-10-20T22:45:33Z" changeset="158148090" uid="1516345" user="theDagger">
    <nd ref="861058173"/>
    <nd ref="3821623325"/>
    <nd ref="3629561235"/>
    <tag k="check_date:surface" v="2024-10-20"/>
    <tag k="highway" v="tertiary"/>
    <tag k="lanes" v="1"/>
    <tag k="lit" v="yes"/>
    <tag k="maxspeed" v="70"/>
    <tag k="name" v="Hornoměcholupská"/>
    <tag k="oneway" v="yes"/>
    <tag k="surface" v="asphalt"/>
  </way>
  <way id="280283023" version="15" timestamp="2024-02-18T14:07:58Z" changeset="147610512" uid="527259" user="Vratislav Filler">
    <nd ref="3063668151"/>
    <nd ref="2844242830"/>
    <nd ref="4040110445"/>
    <nd ref="4040110446"/>
    <nd ref="4040110447"/>
    <nd ref="4040110448"/>
    <nd ref="2844242833"/>
    <nd ref="4040110449"/>
    <nd ref="4040110450"/>
    <nd ref="4494018271"/>
    <nd ref="2844242834"/>
    <nd ref="4040110451"/>
    <nd ref="4494018270"/>
    <nd ref="2844242835"/>
    <nd ref="5207983039"/>
    <nd ref="4494018281"/>
    <nd ref="2844242836"/>
    <nd ref="4500210757"/>
    <nd ref="4040110453"/>
    <nd ref="4500210758"/>
    <nd ref="4040110454"/>
    <nd ref="2844242837"/>
    <nd ref="5316285636"/>
    <nd ref="4500210759"/>
    <nd ref="4500210760"/>
    <nd ref="4494018282"/>
    <nd ref="7207871509"/>
    <nd ref="4040110455"/>
    <nd ref="2844242839"/>
    <nd ref="4040110456"/>
    <nd ref="4040110457"/>
    <nd ref="5439149480"/>
    <nd ref="4040110458"/>
    <nd ref="2844242840"/>
    <tag k="highway" v="residential"/>
    <tag k="name" v="Mantovská"/>
    <tag k="sidewalk:left" v="separate"/>
  </way>
  <way id="280957547" version="2" timestamp="2014-05-11T20:53:52Z" changeset="22279829" uid="1708065" user="Salamandr">
    <nd ref="2849817077"/>
    <nd ref="7296025"/>
    <nd ref="7295964"/>
    <tag k="highway" v="residential"/>
    <tag k="lanes" v="1"/>
    <tag k="lit" v="yes"/>
    <tag k="maxspeed" v="30"/>
    <tag k="name" v="Ejpovická"/>
    <tag k="source:maxspeed" v="Visual"/>
    <tag k="surface" v="asphalt"/>
  </way>
  <way id="280957548" version="2" timestamp="2015-05-24T14:48:11Z" changeset="31421445" uid="1708065" user="Salamandr">
    <nd ref="2849817076"/>
    <nd ref="7295958"/>
    <nd ref="7296025"/>
    <tag k="highway" v="residential"/>
    <tag k="lanes" v="1"/>
    <tag k="lit" v="yes"/>
    <tag k="maxspeed" v="30"/>
    <tag k="name" v="Kožlanská"/>
    <tag k="oneway" v="yes"/>
    <tag k="source:maxspeed" v="Visual"/>
    <tag k="surface" v="asphalt"/>
  </way>
  <way id="280957549" version="3" timestamp="2015-05-29T19:51:32Z" changeset="31570986" uid="1708065" user="Salamandr">
    <nd ref="2849817075"/>
    <nd ref="7295958"/>
    <nd ref="7295961"/>
    <nd ref="2849817078"/>
    <nd ref="379075917"/>
    <tag k="highway" v="residential"/>
    <tag k="lanes" v="1"/>
    <tag k="lit" v="yes"/>
    <tag k="maxspeed" v="30"/>
    <tag k="name" v="U Statku"/>
    <tag k="oneway" v="yes"/>
    <tag k="sidewalk" v="both"/>
    <tag k="source:maxspeed" v="Visual"/>
    <tag k="surface" v="asphalt"/>
  </way>
  <way id="280964940" version="2" timestamp="2019-04-24T12:33:55Z" changeset="69524124" uid="1189910" user="Milancer">
    <nd ref="60725158"/>
    <nd ref="2849887466"/>
    <nd ref="60725171"/>
    <nd ref="60725176"/>
    <nd ref="60725177"/>
    <nd ref="60725179"/>
    <tag k="highway" v="residential"/>
    <tag k="lanes" v="2"/>
    <tag k="lanes:both_ways" v="1"/>
    <tag k="lit" v="yes"/>
    <tag k="maxspeed" v="30"/>
    <tag k="name" v="Ovesná"/>
    <tag k="source:maxspeed" v="Visual"/>
    <tag k="surface" v="asphalt"/>
  </way>
  <way id="301445205" version="5" timestamp="2023-12-23T19:04:44Z" changeset="145445489" uid="20160194" user="Milan Tománek">
    <nd ref="60725117"/>
    <nd ref="3435432233"/>
    <nd ref="65344503"/>
    <nd ref="3435432887"/>
    <tag k="highway" v="residential"/>
    <tag k="lanes" v="1"/>
    <tag k="lit" v="yes"/>
    <tag k="maxspeed" v="50"/>
    <tag k="name" v="Parmská"/>
    <tag k="oneway" v="no"/>
    <tag k="sidewalk:right" v="separate"/>
    <tag k="source:maxspeed" v="CZ:urban"/>
    <tag k="surface" v="asphalt"/>
  </way>
  <way id="302124174" version="8" timestamp="2024-10-27T15:12:28Z" changeset="158417594" uid="6588887" user="Martin2035">
    <nd ref="2844242831"/>
    <nd ref="65281355"/>
    <nd ref="12291968973"/>
    <nd ref="9451105760"/>
    <nd ref="3788653269"/>
    <nd ref="65281337"/>
    <nd ref="1570766769"/>
    <nd ref="65281335"/>
    <nd ref="3788653268"/>
    <nd ref="3788653267"/>
    <nd ref="3788653266"/>
    <nd ref="1570766763"/>
    <nd ref="3788653265"/>
    <nd ref="3788653264"/>
    <nd ref="7079866"/>
    <tag k="cycleway" v="lane"/>
    <tag k="highway" v="tertiary"/>
    <tag k="lanes" v="2"/>
    <tag k="lit" v="yes"/>
    <tag k="maxspeed" v="50"/>
    <tag k="maxspeed:type" v="sign"/>
    <tag k="name" v="Hornoměcholupská"/>
    <tag k="sidewalk:left" v="no"/>
    <tag k="sidewalk:right" v="separate"/>
    <tag k="smoothness" v="excellent"/>
    <tag k="surface" v="asphalt"/>
  </way>
  <way id="302124176" version="2" timestamp="2023-12-22T18:58:41Z" changeset="145416759" uid="20160194" user="Milan Tománek">
    <nd ref="775240978"/>
    <nd ref="775240994"/>
    <tag k="highway" v="residential"/>
    <tag k="name" v="Janovská"/>
    <tag k="oneway" v="yes"/>
    <tag k="sidewalk:right" v="separate"/>
  </way>
  <way id="302124177" version="1" timestamp="2014-09-06T17:50:34Z" changeset="25271994" uid="527259" user="Vratislav Filler">
    <nd ref="65302183"/>
    <nd ref="7079859"/>
    <tag k="highway" v="residential"/>
    <tag k="name" v="Janovská"/>
  </way>
  <way id="302124178" version="2" timestamp="2023-12-22T18:57:59Z" changeset="145416759" uid="20160194" user="Milan Tománek">
    <nd ref="65302202"/>
    <nd ref="65302195"/>
    <nd ref="65302193"/>
    <nd ref="65302187"/>
    <nd ref="822723170"/>
    <nd ref="65302183"/>
    <tag k="highway" v="residential"/>
    <tag k="name" v="Janovská"/>
    <tag k="sidewalk:right" v="separate"/>
  </way>
  <way id="302124182" version="5" timestamp="2023-12-22T18:57:48Z" changeset="145416759" uid="20160194" user="Milan Tománek">
    <nd ref="65302209"/>
    <nd ref="7079859"/>
    <nd ref="65281247"/>
    <nd ref="11434937609"/>
    <nd ref="4500210722"/>
    <nd ref="822698029"/>
    <nd ref="4500210721"/>
    <nd ref="65281334"/>
    <nd ref="1409826334"/>
    <tag k="highway" v="residential"/>
    <tag k="name" v="Rezlerova"/>
    <tag k="sidewalk:right" v="separate"/>
  </way>
  <way id="302124193" version="2" timestamp="2015-02-21T11:42:01Z" changeset="28996822" uid="2690162" user="Mirek Patek">
    <nd ref="65302202"/>
    <nd ref="65328409"/>
    <nd ref="2844276308"/>
    <nd ref="1570766784"/>
    <nd ref="2844242831"/>
    <tag k="highway" v="residential"/>
  </way>
  <way id="317155575" version="2" timestamp="2021-07-30T09:21:28Z" changeset="108877681" uid="718054" user="Piskvor">
    <nd ref="7079711"/>
    <nd ref="775166645"/>
    <nd ref="65271231"/>
    <nd ref="2828614203"/>
    <nd ref="1145854472"/>
    <nd ref="65271251"/>
    <nd ref="2689430793"/>
    <tag k="highway" v="tertiary"/>
    <tag k="lanes" v="2"/>
    <tag k="lit" v="yes"/>
    <tag k="maxspeed" v="50"/>
    <tag k="name" v="Milánská"/>
    <tag k="source:maxspeed" v="CZ:urban"/>
    <tag k="surface" v="asphalt"/>
  </way>
  <way id="319837302" version="4" timestamp="2023-04-05T21:42:06Z" changeset="134554808" uid="10932047" user="AF HAF KARTOGRAF">
    <nd ref="1968199142"/>
    <nd ref="1968199144"/>
    <nd ref="3263086668"/>
    <nd ref="3263084352"/>
    <nd ref="3263084351"/>
    <nd ref="3263084348"/>
    <nd ref="1968199142"/>
    <tag k="addr:city" v="Praha"/>
    <tag k="addr:conscriptionnumber" v="394"/>
    <tag k="addr:country" v="CZ"/>
    <tag k="addr:housenumber" v="394"/>
    <tag k="addr:place" v="Horní Měcholupy"/>
    <tag k="addr:postcode" v="10900"/>
    <tag k="addr:street" v="Janovská"/>
    <tag k="addr:suburb" v="Praha 15"/>
    <tag k="building" v="residential"/>
    <tag k="building:flats" v="32"/>
    <tag k="building:levels" v="8"/>
    <tag k="building:ruian:type" v="3"/>
    <tag k="ref:ruian:addr" v="22563598"/>
    <tag k="ref:ruian:building" v="22405658"/>
    <tag k="source" v="cuzk:ruian"/>
  </way>
  <way id="319837303" version="4" timestamp="2023-04-05T21:42:06Z" changeset="134554808" uid="10932047" user="AF HAF KARTOGRAF">
    <nd ref="3263084352"/>
    <nd ref="3263084359"/>
    <nd ref="3308416525"/>
    <nd ref="3263084563"/>
    <nd ref="2799427825"/>
    <nd ref="3263084562"/>
    <nd ref="3263084561"/>
    <nd ref="3308416519"/>
    <nd ref="3263084358"/>
    <nd ref="3263084351"/>
    <nd ref="3263084352"/>
    <tag k="addr:city" v="Praha"/>
    <tag k="addr:conscriptionnumber" v="393"/>
    <tag k="addr:country" v="CZ"/>
    <tag k="addr:housenumber" v="393"/>
    <tag k="addr:place" v="Horní Měcholupy"/>
    <tag k="addr:postcode" v="10900"/>
    <tag k="addr:street" v="Janovská"/>
    <tag k="addr:suburb" v="Praha 15"/>
    <tag k="building" v="residential"/>
    <tag k="building:flats" v="32"/>
    <tag k="building:levels" v="8"/>
    <tag k="building:ruian:type" v="3"/>
    <tag k="ref:ruian:addr" v="22563580"/>
    <tag k="ref:ruian:building" v="22405640"/>
    <tag k="source" v="cuzk:ruian"/>
  </way>
  <way id="319837511" version="4" timestamp="2023-04-05T21:42:06Z" changeset="134554808" uid="10932047" user="AF HAF KARTOGRAF">
    <nd ref="4973649262"/>
    <nd ref="4973649263"/>
    <nd ref="3263086664"/>
    <nd ref="1968199134"/>
    <nd ref="1968199136"/>
    <nd ref="3263086665"/>
    <nd ref="4973649262"/>
    <tag k="addr:city" v="Praha"/>
    <tag k="addr:conscriptionnumber" v="396"/>
    <tag k="addr:country" v="CZ"/>
    <tag k="addr:housenumber" v="396"/>
    <tag k="addr:place" v="Horní Měcholupy"/>
    <tag k="addr:postcode" v="10900"/>
    <tag k="addr:street" v="Janovská"/>
    <tag k="addr:suburb" v="Praha 15"/>
    <tag k="building" v="residential"/>
    <tag k="building:flats" v="32"/>
    <tag k="building:levels" v="8"/>
    <tag k="building:ruian:type" v="3"/>
    <tag k="ref:ruian:addr" v="22563610"/>
    <tag k="ref:ruian:building" v="22405682"/>
    <tag k="source" v="cuzk:ruian"/>
  </way>
  <way id="319838311" version="3" timestamp="2023-04-05T21:42:06Z" changeset="134554808" uid="10932047" user="AF HAF KARTOGRAF">
    <nd ref="1968199099"/>
    <nd ref="3263093883"/>
    <nd ref="1968199107"/>
    <nd ref="1968199103"/>
    <nd ref="3263093882"/>
    <nd ref="1968199096"/>
    <nd ref="1968199099"/>
    <tag k="addr:city" v="Praha"/>
    <tag k="addr:conscriptionnumber" v="401"/>
    <tag k="addr:country" v="CZ"/>
    <tag k="addr:housenumber" v="401"/>
    <tag k="addr:place" v="Horní Měcholupy"/>
    <tag k="addr:postcode" v="10900"/>
    <tag k="addr:street" v="Janovská"/>
    <tag k="addr:suburb" v="Praha 15"/>
    <tag k="building" v="residential"/>
    <tag k="building:flats" v="32"/>
    <tag k="building:levels" v="8"/>
    <tag k="building:ruian:type" v="3"/>
    <tag k="ref:ruian:addr" v="22563661"/>
    <tag k="ref:ruian:building" v="22405739"/>
    <tag k="source" v="cuzk:ruian"/>
  </way>
  <way id="319838312" version="3" timestamp="2024-03-30T20:10:37Z" changeset="149365661" uid="10932047" user="AF HAF KARTOGRAF">
    <nd ref="1968199123"/>
    <nd ref="3263093885"/>
    <nd ref="1968199127"/>
    <nd ref="1968199125"/>
    <nd ref="3263093884"/>
    <nd ref="1968199121"/>
    <nd ref="1968199123"/>
    <tag k="addr:conscriptionnumber" v="399"/>
    <tag k="addr:housenumber" v="399"/>
    <tag k="addr:postcode" v="10900"/>
    <tag k="addr:street" v="Janovská"/>
    <tag k="building" v="residential"/>
    <tag k="building:flats" v="32"/>
    <tag k="building:levels" v="8"/>
    <tag k="building:ruian:type" v="3"/>
    <tag k="ref:ruian:addr" v="22563644"/>
    <tag k="ref:ruian:building" v="22405704"/>
    <tag k="source" v="cuzk:ruian"/>
  </way>
  <way id="329436555" version="4" timestamp="2018-01-02T11:30:20Z" changeset="55097983" uid="3145424" user="vidmann">
    <nd ref="2844242839"/>
    <nd ref="4494018316"/>
    <nd ref="4494018313"/>
    <nd ref="4494018304"/>
    <nd ref="4040110452"/>
    <nd ref="4494018268"/>
    <nd ref="4494018370"/>
    <nd ref="2844242830"/>
    <tag k="highway" v="residential"/>
    <tag k="name" v="Modenská"/>
  </way>
  <way id="336503968" version="2" timestamp="2023-12-23T19:04:30Z" changeset="145445489" uid="20160194" user="Milan Tománek">
    <nd ref="3435432887"/>
    <nd ref="1305201035"/>
    <nd ref="65344504"/>
    <nd ref="65344508"/>
    <nd ref="65344512"/>
    <nd ref="65344513"/>
    <nd ref="65344520"/>
    <nd ref="822733419"/>
    <nd ref="65344611"/>
    <nd ref="3309087670"/>
    <nd ref="3309087669"/>
    <nd ref="3309087668"/>
    <nd ref="775219366"/>
    <nd ref="775219371"/>
    <tag k="highway" v="residential"/>
    <tag k="lanes" v="1"/>
    <tag k="lit" v="yes"/>
    <tag k="maxspeed" v="40"/>
    <tag k="name" v="Parmská"/>
    <tag k="oneway" v="no"/>
    <tag k="sidewalk:both" v="separate"/>
    <tag k="surface" v="asphalt"/>
  </way>
  <way id="336854735" version="6" timestamp="2020-10-10T13:30:42Z" changeset="92275806" uid="665336" user="Minimalis">
    <nd ref="7296036"/>
    <nd ref="1897923630"/>
    <nd ref="65302179"/>
    <nd ref="7295948"/>
    <nd ref="1440168132"/>
    <nd ref="321060297"/>
    <tag k="highway" v="residential"/>
    <tag k="lanes" v="2"/>
    <tag k="lanes:both_ways" v="1"/>
    <tag k="lit" v="yes"/>
    <tag k="maxspeed" v="50"/>
    <tag k="name" v="Holoubkovská"/>
    <tag k="sidewalk" v="both"/>
    <tag k="surface" v="asphalt"/>
  </way>
  <way id="336860664" version="3" timestamp="2017-05-27T15:21:45Z" changeset="49027157" uid="102554" user="Jezevec">
    <nd ref="3439446150"/>
    <nd ref="3439446147"/>
    <nd ref="3439446148"/>
    <nd ref="3439446146"/>
    <nd ref="3439446145"/>
    <nd ref="3439446149"/>
    <nd ref="3439446150"/>
    <tag k="addr:conscriptionnumber" v="699"/>
    <tag k="addr:housenumber" v="699"/>
    <tag k="addr:place" v="Horní Měcholupy"/>
    <tag k="addr:postcode" v="10900"/>
    <tag k="addr:street" v="Lochotínská"/>
    <tag k="amenity" v="veterinary"/>
    <tag k="building" v="civic"/>
    <tag k="building:levels" v="2"/>
    <tag k="building:ruian:type" v="15"/>
    <tag k="fixme" v="Aktualni?"/>
    <tag k="name" v="H-Vet - Veterinární klinika pro malá zvířata"/>
    <tag k="opening_hours" v="Mo-Fr 08:00-22:00; Sa,Su 10:00-20:00"/>
    <tag k="phone" v="+420 271 961 092"/>
    <tag k="ref:ruian:addr" v="74444603"/>
    <tag k="ref:ruian:building" v="80955517"/>
    <tag k="source" v="cuzk:ruian"/>
    <tag k="start_date" v="2015-09-10"/>
  </way>
  <way id="336947106" version="2" timestamp="2015-06-30T21:03:08Z" changeset="32318761" uid="1708065" user="Salamandr">
    <nd ref="3440400511"/>
    <nd ref="3440400516"/>
    <nd ref="2830889510"/>
    <nd ref="889384924"/>
    <tag k="highway" v="tertiary"/>
    <tag k="lanes" v="1"/>
    <tag k="lit" v="yes"/>
    <tag k="maxspeed" v="50"/>
    <tag k="name" v="Hornoměcholupská"/>
    <tag k="oneway" v="yes"/>
    <tag k="surface" v="asphalt"/>
    <tag k="turn:lanes" v="right"/>
  </way>
  <way id="336947107" version="4" timestamp="2022-10-31T19:36:08Z" changeset="128314230" uid="469828" user="Lukáš Jelínek">
    <nd ref="3440400510"/>
    <nd ref="1259572247"/>
    <nd ref="110920971"/>
    <nd ref="1436657989"/>
    <nd ref="65281415"/>
    <nd ref="1436657981"/>
    <nd ref="1259572246"/>
    <nd ref="1436657982"/>
    <nd ref="7080445"/>
    <nd ref="1436657992"/>
    <nd ref="110920974"/>
    <tag k="highway" v="tertiary"/>
    <tag k="lanes" v="2"/>
    <tag k="lit" v="yes"/>
    <tag k="maxspeed" v="50"/>
    <tag k="name" v="K Měcholupům"/>
    <tag k="shoulder" v="no"/>
    <tag k="sidewalk" v="no"/>
    <tag k="surface" v="asphalt"/>
  </way>
  <way id="336947108" version="12" timestamp="2024-02-28T17:53:38Z" changeset="148022547" uid="469828" user="Lukáš Jelínek">
    <nd ref="3440400513"/>
    <nd ref="11673167093"/>
    <tag k="bridge" v="yes"/>
    <tag k="cycleway:both" v="no"/>
    <tag k="highway" v="tertiary"/>
    <tag k="lanes" v="2"/>
    <tag k="layer" v="1"/>
    <tag k="lit" v="yes"/>
    <tag k="maxspeed" v="50"/>
    <tag k="maxweightrating" v="12"/>
    <tag k="name" v="K Měcholupům"/>
    <tag k="parking:both" v="no"/>
    <tag k="shoulder" v="no"/>
    <tag k="sidewalk:left" v="yes"/>
    <tag k="sidewalk:left:surface" v="concrete"/>
    <tag k="sidewalk:right" v="separate"/>
    <tag k="smoothness" v="good"/>
    <tag k="source:maxspeed" v="CZ:urban"/>
    <tag k="surface" v="asphalt"/>
  </way>
  <way id="336947664" version="9" timestamp="2023-01-16T20:43:10Z" changeset="131352760" uid="469828" user="Lukáš Jelínek">
    <nd ref="861060532"/>
    <nd ref="1246294630"/>
    <nd ref="861060503"/>
    <nd ref="65369378"/>
    <nd ref="8275551590"/>
    <nd ref="734759289"/>
    <tag k="cycleway:both" v="no"/>
    <tag k="highway" v="tertiary"/>
    <tag k="lanes" v="2"/>
    <tag k="lanes:backward" v="1"/>
    <tag k="lanes:forward" v="1"/>
    <tag k="lit" v="no"/>
    <tag k="maxspeed" v="50"/>
    <tag k="name" v="K Měcholupům"/>
    <tag k="parking:lane:both" v="no"/>
    <tag k="sidewalk:left" v="separate"/>
    <tag k="sidewalk:right" v="no"/>
    <tag k="smoothness" v="good"/>
    <tag k="surface" v="asphalt"/>
  </way>
  <way id="336948801" version="8" timestamp="2023-04-09T18:50:37Z" changeset="134700311" uid="231749" user="Eino81">
    <nd ref="3440419501"/>
    <nd ref="2049722012"/>
    <nd ref="65369340"/>
    <nd ref="65369343"/>
    <nd ref="9272546328"/>
    <nd ref="9272546329"/>
    <nd ref="65369347"/>
    <nd ref="65369352"/>
    <nd ref="244010553"/>
    <nd ref="65369357"/>
    <nd ref="10797436998"/>
    <tag k="cycleway:both" v="no"/>
    <tag k="highway" v="unclassified"/>
    <tag k="lanes" v="2"/>
    <tag k="lanes:backward" v="1"/>
    <tag k="lanes:forward" v="1"/>
    <tag k="lit" v="no"/>
    <tag k="maxspeed" v="50"/>
    <tag k="name" v="Za zastávkou"/>
    <tag k="ref:ruian:street" v="508292"/>
    <tag k="surface" v="asphalt"/>
  </way>
  <way id="342597423" version="7" timestamp="2023-12-23T19:03:20Z" changeset="145445489" uid="20160194" user="Milan Tománek">
    <nd ref="3495654170"/>
    <nd ref="3758577142"/>
    <nd ref="65302090"/>
    <tag k="highway" v="residential"/>
    <tag k="lanes" v="1"/>
    <tag k="lit" v="yes"/>
    <tag k="maxspeed" v="50"/>
    <tag k="name" v="Veronské náměstí"/>
    <tag k="official_name" v="Veronské nám."/>
    <tag k="oneway" v="yes"/>
    <tag k="sidewalk:right" v="separate"/>
    <tag k="surface" v="asphalt"/>
  </way>
  <way id="342597424" version="5" timestamp="2018-06-01T13:58:01Z" changeset="59462465" uid="255936" user="NyanSten">
    <nd ref="65302090"/>
    <nd ref="65302092"/>
    <tag k="highway" v="residential"/>
    <tag k="lanes" v="1"/>
    <tag k="lit" v="yes"/>
    <tag k="maxspeed" v="50"/>
    <tag k="name" v="Veronské náměstí"/>
    <tag k="official_name" v="Veronské nám."/>
    <tag k="surface" v="asphalt"/>
  </way>
  <way id="342597425" version="5" timestamp="2018-06-01T13:58:01Z" changeset="59462465" uid="255936" user="NyanSten">
    <nd ref="65302092"/>
    <nd ref="65302094"/>
    <nd ref="3495654170"/>
    <tag k="highway" v="residential"/>
    <tag k="lanes" v="1"/>
    <tag k="lit" v="yes"/>
    <tag k="maxspeed" v="50"/>
    <tag k="name" v="Veronské náměstí"/>
    <tag k="official_name" v="Veronské nám."/>
    <tag k="oneway" v="yes"/>
    <tag k="surface" v="asphalt"/>
  </way>
  <way id="344738403" version="5" timestamp="2023-09-18T17:07:03Z" changeset="141434373" uid="20160194" user="Milan Tománek">
    <nd ref="65271242"/>
    <nd ref="1145797483"/>
    <tag k="highway" v="tertiary"/>
    <tag k="lanes" v="2"/>
    <tag k="lit" v="yes"/>
    <tag k="maxspeed" v="50"/>
    <tag k="name" v="Milánská"/>
    <tag k="sidewalk:both" v="separate"/>
    <tag k="source:maxspeed" v="CZ:urban"/>
    <tag k="surface" v="asphalt"/>
  </way>
  <way id="349897776" version="1" timestamp="2015-05-29T19:46:08Z" changeset="31570904" uid="1708065" user="Salamandr">
    <nd ref="321059283"/>
    <nd ref="3556808791"/>
    <nd ref="3556808786"/>
    <nd ref="269307258"/>
    <tag k="highway" v="residential"/>
    <tag k="lanes" v="1"/>
    <tag k="lit" v="yes"/>
    <tag k="maxspeed" v="50"/>
    <tag k="name" v="Ravennská"/>
    <tag k="sidewalk" v="right"/>
    <tag k="source" v="cuzk:km"/>
    <tag k="surface" v="asphalt"/>
  </way>
  <way id="349897777" version="1" timestamp="2015-05-29T19:46:08Z" changeset="31570904" uid="1708065" user="Salamandr">
    <nd ref="321060290"/>
    <nd ref="3556809902"/>
    <nd ref="1897923633"/>
    <nd ref="321060288"/>
    <nd ref="297401661"/>
    <nd ref="321059283"/>
    <tag k="highway" v="residential"/>
    <tag k="lanes" v="1"/>
    <tag k="lit" v="yes"/>
    <tag k="maxspeed" v="50"/>
    <tag k="name" v="Ravennská"/>
    <tag k="sidewalk" v="both"/>
    <tag k="source" v="cuzk:km"/>
    <tag k="surface" v="asphalt"/>
  </way>
  <way id="350062154" version="2" timestamp="2015-05-30T14:25:00Z" changeset="31585329" uid="1708065" user="Salamandr">
    <nd ref="3558159293"/>
    <nd ref="3558537913"/>
    <nd ref="245562459"/>
    <nd ref="2334352066"/>
    <nd ref="3558112927"/>
    <tag k="highway" v="residential"/>
    <tag k="lanes" v="1"/>
    <tag k="lit" v="yes"/>
    <tag k="maxspeed" v="30"/>
    <tag k="surface" v="asphalt"/>
  </way>
  <way id="352665276" version="3" timestamp="2018-03-18T14:44:55Z" changeset="57292121" uid="25867" user="adamos">
    <nd ref="774077489"/>
    <nd ref="2828429480"/>
    <nd ref="65328940"/>
    <tag k="highway" v="residential"/>
    <tag k="lit" v="yes"/>
    <tag k="maxspeed" v="50"/>
    <tag k="name" v="Neapolská"/>
    <tag k="sidewalk" v="left"/>
    <tag k="source:maxspeed" v="CZ:urban"/>
    <tag k="surface" v="asphalt"/>
  </way>
  <way id="356885779" version="4" timestamp="2023-12-22T18:50:38Z" changeset="145416759" uid="20160194" user="Milan Tománek">
    <nd ref="320810962"/>
    <nd ref="7995015564"/>
    <nd ref="7995015563"/>
    <nd ref="320810967"/>
    <tag k="highway" v="tertiary"/>
    <tag k="lanes" v="2"/>
    <tag k="lit" v="yes"/>
    <tag k="maxspeed" v="50"/>
    <tag k="name" v="Milánská"/>
    <tag k="sidewalk:both" v="separate"/>
    <tag k="source:maxspeed" v="CZ:urban"/>
    <tag k="surface" v="asphalt"/>
  </way>
  <way id="356885780" version="5" timestamp="2021-07-30T09:21:28Z" changeset="108877681" uid="718054" user="Piskvor">
    <nd ref="320810967"/>
    <nd ref="7079720"/>
    <nd ref="291731642"/>
    <nd ref="5206243944"/>
    <nd ref="320810950"/>
    <nd ref="320810970"/>
    <nd ref="5206243943"/>
    <nd ref="65271219"/>
    <nd ref="2031765565"/>
    <nd ref="1145854354"/>
    <nd ref="320810949"/>
    <nd ref="7079717"/>
    <nd ref="65328996"/>
    <nd ref="774077509"/>
    <nd ref="774077513"/>
    <nd ref="7995015567"/>
    <tag k="highway" v="tertiary"/>
    <tag k="lanes" v="2"/>
    <tag k="lit" v="yes"/>
    <tag k="maxspeed" v="50"/>
    <tag k="name" v="Milánská"/>
    <tag k="source:maxspeed" v="CZ:urban"/>
    <tag k="surface" v="asphalt"/>
  </way>
  <way id="356885781" version="3" timestamp="2023-12-22T18:51:14Z" changeset="145416759" uid="20160194" user="Milan Tománek">
    <nd ref="288080792"/>
    <nd ref="320810954"/>
    <nd ref="2526204464"/>
    <tag k="highway" v="tertiary"/>
    <tag k="lanes" v="2"/>
    <tag k="lit" v="yes"/>
    <tag k="maxspeed" v="50"/>
    <tag k="name" v="Milánská"/>
    <tag k="sidewalk:left" v="separate"/>
    <tag k="source:maxspeed" v="CZ:urban"/>
    <tag k="surface" v="asphalt"/>
  </way>
  <way id="356914202" version="5" timestamp="2024-04-12T17:03:11Z" changeset="149920536" uid="20160194" user="Milan Tománek">
    <nd ref="352778634"/>
    <nd ref="352778637"/>
    <tag k="check_date" v="2024-04-12"/>
    <tag k="cycleway:right" v="no"/>
    <tag k="highway" v="tertiary"/>
    <tag k="junction" v="roundabout"/>
    <tag k="lanes" v="1"/>
    <tag k="lit" v="yes"/>
    <tag k="maxspeed" v="50"/>
    <tag k="name" v="Hornoměcholupská"/>
    <tag k="sidewalk:left" v="no"/>
    <tag k="sidewalk:right" v="separate"/>
    <tag k="source:maxspeed" v="CZ:urban"/>
    <tag k="surface" v="asphalt"/>
  </way>
  <way id="356914205" version="4" timestamp="2023-10-24T21:16:47Z" changeset="143083875" uid="20160194" user="Milan Tománek">
    <nd ref="352778633"/>
    <nd ref="8632254647"/>
    <nd ref="8632254648"/>
    <nd ref="352778625"/>
    <nd ref="352778634"/>
    <tag k="highway" v="tertiary"/>
    <tag k="junction" v="roundabout"/>
    <tag k="lanes" v="1"/>
    <tag k="lit" v="yes"/>
    <tag k="maxspeed" v="50"/>
    <tag k="name" v="Hornoměcholupská"/>
    <tag k="sidewalk:left" v="no"/>
    <tag k="source:maxspeed" v="CZ:urban"/>
    <tag k="surface" v="asphalt"/>
  </way>
  <way id="356914206" version="5" timestamp="2022-03-22T17:55:05Z" changeset="118788851" uid="469828" user="Lukáš Jelínek">
    <nd ref="352778637"/>
    <nd ref="8632254649"/>
    <nd ref="352778627"/>
    <nd ref="8632254658"/>
    <nd ref="352778683"/>
    <tag k="cycleway:right" v="no"/>
    <tag k="highway" v="tertiary"/>
    <tag k="junction" v="roundabout"/>
    <tag k="lanes" v="1"/>
    <tag k="lit" v="yes"/>
    <tag k="maxspeed" v="50"/>
    <tag k="name" v="Hornoměcholupská"/>
    <tag k="sidewalk:left" v="no"/>
    <tag k="sidewalk:right" v="separate"/>
    <tag k="source:maxspeed" v="CZ:urban"/>
    <tag k="surface" v="asphalt"/>
  </way>
  <way id="356914208" version="4" timestamp="2021-11-30T08:00:59Z" changeset="114390982" uid="469828" user="Lukáš Jelínek">
    <nd ref="352778723"/>
    <nd ref="7995015573"/>
    <nd ref="2689430811"/>
    <tag k="highway" v="tertiary"/>
    <tag k="lanes" v="2"/>
    <tag k="lit" v="yes"/>
    <tag k="maxspeed" v="50"/>
    <tag k="name" v="Milánská"/>
    <tag k="sidewalk" v="separate"/>
    <tag k="source:maxspeed" v="CZ:urban"/>
    <tag k="surface" v="asphalt"/>
  </way>
  <way id="356914209" version="4" timestamp="2022-02-02T07:54:57Z" changeset="116900086" uid="469828" user="Lukáš Jelínek">
    <nd ref="1145797483"/>
    <nd ref="7995015572"/>
    <nd ref="352778723"/>
    <tag k="highway" v="tertiary"/>
    <tag k="lanes" v="2"/>
    <tag k="lit" v="yes"/>
    <tag k="maxspeed" v="50"/>
    <tag k="name" v="Milánská"/>
    <tag k="sidewalk" v="separate"/>
    <tag k="source:maxspeed" v="CZ:urban"/>
    <tag k="surface" v="asphalt"/>
  </way>
  <way id="356914210" version="4" timestamp="2022-04-22T13:01:52Z" changeset="120045877" uid="469828" user="Lukáš Jelínek">
    <nd ref="7995015568"/>
    <nd ref="320810948"/>
    <nd ref="1440168128"/>
    <nd ref="7079711"/>
    <tag k="highway" v="tertiary"/>
    <tag k="lanes" v="2"/>
    <tag k="lit" v="yes"/>
    <tag k="maxspeed" v="50"/>
    <tag k="name" v="Milánská"/>
    <tag k="smoothness" v="good"/>
    <tag k="source:maxspeed" v="CZ:urban"/>
    <tag k="surface" v="asphalt"/>
  </way>
  <way id="356914211" version="2" timestamp="2021-07-30T09:21:28Z" changeset="108877681" uid="718054" user="Piskvor">
    <nd ref="65271235"/>
    <nd ref="1759851399"/>
    <nd ref="1145797552"/>
    <nd ref="65271239"/>
    <nd ref="2689430795"/>
    <tag k="highway" v="tertiary"/>
    <tag k="lanes" v="2"/>
    <tag k="lit" v="yes"/>
    <tag k="maxspeed" v="30"/>
    <tag k="name" v="Milánská"/>
    <tag k="source:maxspeed" v="survey"/>
    <tag k="surface" v="asphalt"/>
  </way>
  <way id="356914212" version="5" timestamp="2023-12-23T19:01:28Z" changeset="145445489" uid="20160194" user="Milan Tománek">
    <nd ref="7995015567"/>
    <nd ref="320809549"/>
    <nd ref="774077504"/>
    <nd ref="7079714"/>
    <nd ref="1145854466"/>
    <nd ref="774051632"/>
    <nd ref="65271226"/>
    <nd ref="774077506"/>
    <nd ref="7995015568"/>
    <tag k="highway" v="tertiary"/>
    <tag k="lanes" v="2"/>
    <tag k="lit" v="yes"/>
    <tag k="maxspeed" v="50"/>
    <tag k="name" v="Milánská"/>
    <tag k="sidewalk:left" v="separate"/>
    <tag k="smoothness" v="excellent"/>
    <tag k="source:maxspeed" v="CZ:urban"/>
    <tag k="surface" v="asphalt"/>
  </way>
  <way id="357515481" version="7" timestamp="2024-02-28T17:50:12Z" changeset="148022477" uid="469828" user="Lukáš Jelínek">
    <nd ref="2829323824"/>
    <nd ref="889384923"/>
    <nd ref="889384946"/>
    <nd ref="2829384285"/>
    <tag k="highway" v="tertiary"/>
    <tag k="junction" v="roundabout"/>
    <tag k="lanes" v="1"/>
    <tag k="lit" v="yes"/>
    <tag k="maxspeed" v="50"/>
    <tag k="name" v="Hornoměcholupská"/>
    <tag k="sidewalk:left" v="no"/>
    <tag k="sidewalk:right" v="separate"/>
    <tag k="smoothness" v="good"/>
    <tag k="surface" v="asphalt"/>
  </way>
  <way id="357515482" version="5" timestamp="2023-09-07T12:39:27Z" changeset="140938311" uid="469828" user="Lukáš Jelínek">
    <nd ref="7995015571"/>
    <nd ref="2689430827"/>
    <nd ref="2689430832"/>
    <tag k="cycleway:right" v="no"/>
    <tag k="highway" v="tertiary"/>
    <tag k="lanes" v="1"/>
    <tag k="lit" v="yes"/>
    <tag k="maxspeed" v="50"/>
    <tag k="name" v="Hornoměcholupská"/>
    <tag k="oneway" v="yes"/>
    <tag k="sidewalk:left" v="no"/>
    <tag k="sidewalk:right" v="separate"/>
    <tag k="smoothness" v="good"/>
    <tag k="source:maxspeed" v="CZ:urban"/>
    <tag k="surface" v="asphalt"/>
  </way>
  <way id="357515484" version="6" timestamp="2023-10-24T21:17:31Z" changeset="143083875" uid="20160194" user="Milan Tománek">
    <nd ref="352778685"/>
    <nd ref="352778626"/>
    <nd ref="8632254657"/>
    <nd ref="352778691"/>
    <tag k="highway" v="tertiary"/>
    <tag k="junction" v="roundabout"/>
    <tag k="lanes" v="1"/>
    <tag k="lit" v="yes"/>
    <tag k="maxspeed" v="50"/>
    <tag k="name" v="Hornoměcholupská"/>
    <tag k="sidewalk" v="no"/>
    <tag k="source:maxspeed" v="CZ:urban"/>
    <tag k="surface" v="asphalt"/>
  </way>
  <way id="357515485" version="9" timestamp="2025-04-30T16:24:27Z" changeset="165642027" uid="469828" user="Lukáš Jelínek">
    <nd ref="7995015562"/>
    <nd ref="7995015561"/>
    <tag k="check_date:smoothness" v="2025-04-30"/>
    <tag k="cycleway:both" v="no"/>
    <tag k="highway" v="tertiary"/>
    <tag k="lanes" v="2"/>
    <tag k="lanes:backward" v="1"/>
    <tag k="lanes:forward" v="1"/>
    <tag k="lit" v="no"/>
    <tag k="maxspeed" v="50"/>
    <tag k="name" v="K Měcholupům"/>
    <tag k="parking:lane:both" v="no"/>
    <tag k="sidewalk:both:surface" v="paving_stones"/>
    <tag k="sidewalk:left" v="separate"/>
    <tag k="sidewalk:right" v="yes"/>
    <tag k="smoothness" v="good"/>
    <tag k="surface" v="asphalt"/>
  </way>
  <way id="357515486" version="11" timestamp="2024-08-29T11:55:26Z" changeset="155924867" uid="469828" user="Lukáš Jelínek">
    <nd ref="7995015561"/>
    <nd ref="861060476"/>
    <nd ref="12144098760"/>
    <nd ref="861060532"/>
    <tag k="cycleway:both" v="no"/>
    <tag k="highway" v="tertiary"/>
    <tag k="lanes" v="2"/>
    <tag k="lanes:backward" v="1"/>
    <tag k="lanes:forward" v="1"/>
    <tag k="lit" v="no"/>
    <tag k="maxspeed" v="50"/>
    <tag k="name" v="K Měcholupům"/>
    <tag k="parking:lane:both" v="no"/>
    <tag k="sidewalk:left" v="separate"/>
    <tag k="sidewalk:right" v="yes"/>
    <tag k="sidewalk:right:surface" v="paving_stones"/>
    <tag k="smoothness" v="good"/>
    <tag k="surface" v="asphalt"/>
  </way>
  <way id="357545478" version="3" timestamp="2024-10-20T22:45:33Z" changeset="158148090" uid="1516345" user="theDagger">
    <nd ref="3627709279"/>
    <nd ref="3821623324"/>
    <nd ref="861058173"/>
    <tag k="check_date:surface" v="2024-10-20"/>
    <tag k="highway" v="tertiary"/>
    <tag k="lanes" v="1"/>
    <tag k="lit" v="yes"/>
    <tag k="maxspeed" v="70"/>
    <tag k="name" v="Hornoměcholupská"/>
    <tag k="oneway" v="yes"/>
    <tag k="surface" v="asphalt"/>
  </way>
  <way id="357545479" version="14" timestamp="2025-04-02T17:05:31Z" changeset="164431040" uid="447835" user="xorly">
    <nd ref="5319183449"/>
    <nd ref="1570768083"/>
    <nd ref="4490385875"/>
    <nd ref="5100372393"/>
    <nd ref="2844242844"/>
    <nd ref="2844242840"/>
    <tag k="cycleway" v="lane"/>
    <tag k="cycleway:both" v="lane"/>
    <tag k="cycleway:both:lane" v="exclusive"/>
    <tag k="highway" v="tertiary"/>
    <tag k="lanes" v="2"/>
    <tag k="lit" v="yes"/>
    <tag k="maxspeed" v="50"/>
    <tag k="maxspeed:type" v="sign"/>
    <tag k="name" v="Hornoměcholupská"/>
    <tag k="sidewalk:right" v="separate"/>
    <tag k="surface" v="asphalt"/>
  </way>
  <way id="357838874" version="3" timestamp="2025-01-03T16:01:33Z" changeset="160955578" uid="469828" user="Lukáš Jelínek">
    <nd ref="3629561235"/>
    <nd ref="2830889505"/>
    <nd ref="3440400511"/>
    <tag k="highway" v="tertiary"/>
    <tag k="lanes" v="1"/>
    <tag k="lit" v="yes"/>
    <tag k="maxspeed" v="50"/>
    <tag k="name" v="Hornoměcholupská"/>
    <tag k="oneway" v="yes"/>
    <tag k="surface" v="asphalt"/>
  </way>
  <way id="357838875" version="6" timestamp="2024-10-27T15:12:28Z" changeset="158417594" uid="6588887" user="Martin2035">
    <nd ref="29820800"/>
    <nd ref="1570772583"/>
    <nd ref="4490385953"/>
    <nd ref="29820801"/>
    <nd ref="5100372372"/>
    <nd ref="1570771008"/>
    <nd ref="4490385952"/>
    <nd ref="4490385765"/>
    <nd ref="1729117689"/>
    <nd ref="12291968975"/>
    <nd ref="60725133"/>
    <tag k="highway" v="tertiary"/>
    <tag k="lanes" v="2"/>
    <tag k="lanes:backward" v="1"/>
    <tag k="lanes:forward" v="1"/>
    <tag k="lit" v="yes"/>
    <tag k="maxspeed:backward" v="50"/>
    <tag k="maxspeed:forward" v="70"/>
    <tag k="name" v="Hornoměcholupská"/>
    <tag k="sidewalk:both" v="separate"/>
    <tag k="surface" v="asphalt"/>
  </way>
  <way id="357989484" version="6" timestamp="2023-10-24T21:17:22Z" changeset="143083875" uid="20160194" user="Milan Tománek">
    <nd ref="7995015570"/>
    <nd ref="2689430819"/>
    <nd ref="8632254664"/>
    <nd ref="8632254665"/>
    <nd ref="352778691"/>
    <tag k="highway" v="tertiary"/>
    <tag k="lanes" v="1"/>
    <tag k="lit" v="yes"/>
    <tag k="maxspeed" v="50"/>
    <tag k="name" v="Hornoměcholupská"/>
    <tag k="oneway" v="yes"/>
    <tag k="sidewalk:left" v="no"/>
    <tag k="sidewalk:right" v="separate"/>
    <tag k="smoothness" v="good"/>
    <tag k="source:maxspeed" v="CZ:urban"/>
    <tag k="surface" v="asphalt"/>
  </way>
  <way id="357989498" version="5" timestamp="2023-10-24T21:18:17Z" changeset="143083875" uid="20160194" user="Milan Tománek">
    <nd ref="352778691"/>
    <nd ref="352778694"/>
    <nd ref="8632254656"/>
    <nd ref="352778629"/>
    <nd ref="8632254655"/>
    <nd ref="352778631"/>
    <nd ref="352778633"/>
    <tag k="highway" v="tertiary"/>
    <tag k="junction" v="roundabout"/>
    <tag k="lanes" v="1"/>
    <tag k="lit" v="yes"/>
    <tag k="maxspeed" v="50"/>
    <tag k="name" v="Hornoměcholupská"/>
    <tag k="sidewalk:left" v="no"/>
    <tag k="sidewalk:right" v="separate"/>
    <tag k="source:maxspeed" v="CZ:urban"/>
    <tag k="surface" v="asphalt"/>
  </way>
  <way id="361399540" version="3" timestamp="2021-02-16T11:27:04Z" changeset="99376577" uid="4054181" user="Richard Janda">
    <nd ref="7295952"/>
    <nd ref="8428639512"/>
    <nd ref="8428639511"/>
    <nd ref="65271263"/>
    <tag k="highway" v="residential"/>
    <tag k="lanes" v="2"/>
    <tag k="lanes:both_ways" v="1"/>
    <tag k="lit" v="yes"/>
    <tag k="maxspeed" v="50"/>
    <tag k="name" v="Holoubkovská"/>
    <tag k="sidewalk" v="both"/>
    <tag k="surface" v="asphalt"/>
  </way>
  <way id="361399541" version="2" timestamp="2019-04-24T06:48:39Z" changeset="69513702" uid="1189910" user="Milancer">
    <nd ref="321060297"/>
    <nd ref="7295952"/>
    <tag k="highway" v="residential"/>
    <tag k="lanes" v="2"/>
    <tag k="lanes:both_ways" v="1"/>
    <tag k="lit" v="yes"/>
    <tag k="maxspeed" v="50"/>
    <tag k="name" v="Holoubkovská"/>
    <tag k="sidewalk" v="both"/>
    <tag k="surface" v="asphalt"/>
  </way>
  <way id="376288131" version="2" timestamp="2021-07-30T09:21:28Z" changeset="108877681" uid="718054" user="Piskvor">
    <nd ref="775166796"/>
    <nd ref="29820804"/>
    <tag k="highway" v="residential"/>
    <tag k="lanes" v="2"/>
    <tag k="lanes:both_ways" v="1"/>
    <tag k="lit" v="yes"/>
    <tag k="maxspeed" v="50"/>
    <tag k="name" v="Ravennská"/>
    <tag k="sidewalk" v="both"/>
    <tag k="surface" v="asphalt"/>
  </way>
  <way id="452100481" version="11" timestamp="2022-01-08T15:20:39Z" changeset="115913791" uid="447835" user="xorly">
    <nd ref="4489023548"/>
    <nd ref="5202263940"/>
    <nd ref="4489023547"/>
    <nd ref="4489023546"/>
    <nd ref="4489023545"/>
    <nd ref="4489023541"/>
    <nd ref="4489023544"/>
    <nd ref="5208062135"/>
    <nd ref="4489023548"/>
    <tag k="addr:city" v="Praha"/>
    <tag k="addr:housenumber" v="690"/>
    <tag k="addr:postcode" v="10900"/>
    <tag k="addr:street" v="Hornoměcholupská"/>
    <tag k="brand" v="Kaufland"/>
    <tag k="brand:wikidata" v="Q685967"/>
    <tag k="brand:wikipedia" v="en:Kaufland"/>
    <tag k="building" v="retail"/>
    <tag k="building:levels" v="1"/>
    <tag k="contact:phone" v="+420241734500"/>
    <tag k="contact:website" v="http://www.kaufland.cz/"/>
    <tag k="height" v="8.0"/>
    <tag k="name" v="Kaufland"/>
    <tag k="opening_hours" v="Mo-Su 07:00-22:00"/>
    <tag k="roof:height" v="0.8"/>
    <tag k="roof:shape" v="gabled"/>
    <tag k="shop" v="supermarket"/>
  </way>
  <way id="452245503" version="12" timestamp="2021-08-13T18:24:10Z" changeset="109644041" uid="6322444" user="Rick Richards">
    <nd ref="4490385890"/>
    <nd ref="5100372418"/>
    <nd ref="4490385887"/>
    <nd ref="4543107833"/>
    <nd ref="4490385890"/>
    <tag k="amenity" v="fast_food"/>
    <tag k="brand" v="Bageterie Boulevard"/>
    <tag k="brand:wikidata" v="Q10859823"/>
    <tag k="brand:wikipedia" v="en:Bageterie Boulevard"/>
    <tag k="building" v="civic"/>
    <tag k="building:levels" v="1"/>
    <tag k="cuisine" v="sandwich"/>
    <tag k="email" v="bb_pha_hornomecholupska@bb.cz"/>
    <tag k="name" v="Bageterie Boulevard"/>
    <tag k="opening_hours" v="Mo-Fr 07:00-22:00, Sa-Su 08:00-22:00"/>
    <tag k="outdoor_seating" v="yes"/>
    <tag k="phone" v="+420724647800"/>
    <tag k="roof:shape" v="flat"/>
    <tag k="takeaway" v="yes"/>
    <tag k="website" v="https://www.bb.cz/"/>
    <tag k="wheelchair" v="yes"/>
  </way>
  <way id="452245504" version="11" timestamp="2022-01-08T14:31:55Z" changeset="115912030" uid="447835" user="xorly">
    <nd ref="4490385894"/>
    <nd ref="4543107841"/>
    <nd ref="4943732851"/>
    <nd ref="4943732850"/>
    <nd ref="4943732852"/>
    <nd ref="4943732853"/>
    <nd ref="4943732854"/>
    <nd ref="4490385892"/>
    <nd ref="4943732856"/>
    <nd ref="4943732855"/>
    <nd ref="4490385894"/>
    <tag k="building" v="retail"/>
    <tag k="building:levels" v="1"/>
    <tag k="height" v="8.0"/>
    <tag k="name" v="OC Retail park Hornoměcholupská"/>
    <tag k="opening_hours:signed" v="no"/>
    <tag k="roof:shape" v="flat"/>
    <tag k="shop" v="mall"/>
    <tag k="toilets" v="no"/>
  </way>
  <way id="453249999" version="4" timestamp="2020-02-13T09:08:21Z" changeset="80947432" uid="3145424" user="vidmann">
    <nd ref="4500078221"/>
    <nd ref="4500078220"/>
    <nd ref="4500078219"/>
    <nd ref="4500078218"/>
    <nd ref="4500078221"/>
    <tag k="amenity" v="car_wash"/>
    <tag k="building" v="roof"/>
    <tag k="height" v="3.2"/>
    <tag k="layer" v="1"/>
    <tag k="name" v="Samoobslužná automyčka 24/7"/>
    <tag k="opening_hours" v="24/7"/>
    <tag k="self_service" v="yes"/>
  </way>
  <way id="489766498" version="5" timestamp="2025-04-30T16:18:36Z" changeset="165642172" uid="469828" user="Lukáš Jelínek">
    <nd ref="4819817672"/>
    <nd ref="4819817671"/>
    <nd ref="4819817670"/>
    <nd ref="4819817669"/>
    <nd ref="4819817656"/>
    <nd ref="4819817672"/>
    <tag k="addr:city" v="Praha"/>
    <tag k="addr:housenumber" v="755/115"/>
    <tag k="addr:postcode" v="10900"/>
    <tag k="addr:street" v="Hornoměcholupská"/>
    <tag k="amenity" v="restaurant"/>
    <tag k="building" v="yes"/>
    <tag k="building:levels" v="2"/>
    <tag k="check_date" v="2025-04-30"/>
    <tag k="email" v="h2@pivovar-hostivar.cz"/>
    <tag k="microbrewery" v="yes"/>
    <tag k="name" v="Pivovar Hostivar H2"/>
    <tag k="opening_hours" v="Mo-Fr 07:00-23:00; Sa-Su 08:00-23:00"/>
    <tag k="phone" v="+420702203143"/>
    <tag k="reservation" v="recommended"/>
    <tag k="roof:shape" v="flat"/>
    <tag k="smoking" v="no"/>
    <tag k="website" v="https://www.pivovar-hostivar.cz/"/>
  </way>
  <way id="507958698" version="2" timestamp="2023-04-05T21:42:06Z" changeset="134554808" uid="10932047" user="AF HAF KARTOGRAF">
    <nd ref="4973649260"/>
    <nd ref="2799427857"/>
    <nd ref="2799427856"/>
    <nd ref="2799427822"/>
    <nd ref="2799427823"/>
    <nd ref="2799427587"/>
    <nd ref="2799427586"/>
    <nd ref="4973649261"/>
    <nd ref="4973649260"/>
    <tag k="addr:city" v="Praha"/>
    <tag k="addr:conscriptionnumber" v="653"/>
    <tag k="addr:country" v="CZ"/>
    <tag k="addr:housenumber" v="653/174"/>
    <tag k="addr:place" v="Horní Měcholupy"/>
    <tag k="addr:postcode" v="10900"/>
    <tag k="addr:street" v="Hornoměcholupská"/>
    <tag k="addr:streetnumber" v="174"/>
    <tag k="addr:suburb" v="Praha 15"/>
    <tag k="building" v="residential"/>
    <tag k="building:flats" v="54"/>
    <tag k="building:levels" v="8"/>
    <tag k="building:ruian:type" v="6"/>
    <tag k="ref:ruian:addr" v="42217865"/>
    <tag k="ref:ruian:building" v="53999380"/>
    <tag k="source" v="cuzk:ruian"/>
    <tag k="start_date" v="2013-03-19"/>
  </way>
  <way id="507958699" version="2" timestamp="2024-03-30T20:10:37Z" changeset="149365661" uid="10932047" user="AF HAF KARTOGRAF">
    <nd ref="4973649262"/>
    <nd ref="3263086667"/>
    <nd ref="1968199144"/>
    <nd ref="1968199142"/>
    <nd ref="3263086666"/>
    <nd ref="4973649263"/>
    <nd ref="4973649262"/>
    <tag k="addr:conscriptionnumber" v="395"/>
    <tag k="addr:housenumber" v="395"/>
    <tag k="addr:postcode" v="10900"/>
    <tag k="addr:street" v="Janovská"/>
    <tag k="building" v="residential"/>
    <tag k="building:flats" v="32"/>
    <tag k="building:levels" v="8"/>
    <tag k="building:ruian:type" v="3"/>
    <tag k="ref:ruian:addr" v="22563601"/>
    <tag k="ref:ruian:building" v="22405682"/>
    <tag k="source" v="cuzk:ruian"/>
  </way>
  <way id="507958700" version="2" timestamp="2024-03-30T20:10:37Z" changeset="149365661" uid="10932047" user="AF HAF KARTOGRAF">
    <nd ref="1968199136"/>
    <nd ref="1968199134"/>
    <nd ref="2370601464"/>
    <nd ref="1968199129"/>
    <nd ref="1968199132"/>
    <nd ref="2370601467"/>
    <nd ref="1968199136"/>
    <tag k="addr:conscriptionnumber" v="397"/>
    <tag k="addr:housenumber" v="397"/>
    <tag k="addr:postcode" v="10900"/>
    <tag k="addr:street" v="Janovská"/>
    <tag k="building" v="residential"/>
    <tag k="building:flats" v="32"/>
    <tag k="building:levels" v="8"/>
    <tag k="building:ruian:type" v="3"/>
    <tag k="ref:ruian:addr" v="22563628"/>
    <tag k="ref:ruian:building" v="22405682"/>
    <tag k="source" v="cuzk:ruian"/>
  </way>
  <way id="515960547" version="3" timestamp="2025-04-30T16:16:52Z" changeset="165642027" uid="469828" user="Lukáš Jelínek">
    <nd ref="65344635"/>
    <nd ref="65344673"/>
    <nd ref="3471349547"/>
    <nd ref="65344670"/>
    <nd ref="5017075724"/>
    <nd ref="5017075726"/>
    <nd ref="65344669"/>
    <tag k="check_date:surface" v="2025-04-30"/>
    <tag k="highway" v="residential"/>
    <tag k="lanes" v="1"/>
    <tag k="lit" v="yes"/>
    <tag k="maxspeed" v="30"/>
    <tag k="name" v="Boloňská"/>
    <tag k="smoothness" v="excellent"/>
    <tag k="surface" v="asphalt"/>
  </way>
  <way id="550734471" version="3" timestamp="2024-10-20T22:45:29Z" changeset="158148096" uid="1516345" user="theDagger">
    <nd ref="1409826334"/>
    <nd ref="7079866"/>
    <tag k="highway" v="residential"/>
    <tag k="lane_markings" v="no"/>
    <tag k="name" v="Rezlerova"/>
    <tag k="surface" v="asphalt"/>
  </way>
  <way id="550734473" version="4" timestamp="2023-10-13T12:59:26Z" changeset="142523050" uid="20160194" user="Milan Tománek">
    <nd ref="7079866"/>
    <nd ref="2830902762"/>
    <tag k="cycleway:left" v="lane"/>
    <tag k="cycleway:right" v="shared_lane"/>
    <tag k="highway" v="tertiary"/>
    <tag k="lanes" v="2"/>
    <tag k="lit" v="yes"/>
    <tag k="maxspeed" v="50"/>
    <tag k="maxspeed:type" v="sign"/>
    <tag k="name" v="Hornoměcholupská"/>
    <tag k="surface" v="asphalt"/>
  </way>
  <way id="550734474" version="4" timestamp="2023-12-22T19:01:03Z" changeset="145416759" uid="20160194" user="Milan Tománek">
    <nd ref="60725133"/>
    <nd ref="4543107796"/>
    <tag k="highway" v="tertiary"/>
    <tag k="lanes" v="2"/>
    <tag k="lit" v="yes"/>
    <tag k="maxspeed" v="50"/>
    <tag k="maxspeed:type" v="sign"/>
    <tag k="name" v="Hornoměcholupská"/>
    <tag k="sidewalk:right" v="separate"/>
    <tag k="surface" v="asphalt"/>
  </way>
  <way id="550734475" version="8" timestamp="2024-10-27T15:12:28Z" changeset="158417594" uid="6588887" user="Martin2035">
    <nd ref="4543107796"/>
    <nd ref="12291968974"/>
    <nd ref="5319183449"/>
    <tag k="cycleway:left" v="shared_lane"/>
    <tag k="cycleway:right" v="lane"/>
    <tag k="highway" v="tertiary"/>
    <tag k="lanes" v="2"/>
    <tag k="lit" v="yes"/>
    <tag k="maxspeed" v="50"/>
    <tag k="maxspeed:type" v="sign"/>
    <tag k="name" v="Hornoměcholupská"/>
    <tag k="sidewalk:both" v="separate"/>
    <tag k="smoothness" v="excellent"/>
    <tag k="surface" v="asphalt"/>
  </way>
  <way id="550736824" version="1" timestamp="2018-01-03T23:16:03Z" changeset="55142460" uid="527259" user="Vratislav Filler">
    <nd ref="60725131"/>
    <nd ref="4490385954"/>
    <nd ref="1570769083"/>
    <nd ref="60725133"/>
    <tag k="highway" v="residential"/>
    <tag k="lanes" v="2"/>
    <tag k="lanes:both_ways" v="1"/>
    <tag k="lit" v="yes"/>
    <tag k="maxspeed" v="50"/>
    <tag k="name" v="Na Křečku"/>
    <tag k="source:maxspeed" v="CZ:urban"/>
    <tag k="surface" v="asphalt"/>
  </way>
  <way id="592472459" version="5" timestamp="2024-02-28T17:50:05Z" changeset="148022477" uid="469828" user="Lukáš Jelínek">
    <nd ref="889384924"/>
    <nd ref="8275551575"/>
    <nd ref="889384949"/>
    <nd ref="8275551574"/>
    <nd ref="889384944"/>
    <nd ref="8275551573"/>
    <nd ref="889384904"/>
    <nd ref="8275551572"/>
    <nd ref="889384920"/>
    <nd ref="8275551571"/>
    <nd ref="889384918"/>
    <tag k="cycleway:right" v="no"/>
    <tag k="highway" v="tertiary"/>
    <tag k="junction" v="roundabout"/>
    <tag k="lanes" v="1"/>
    <tag k="lit" v="yes"/>
    <tag k="maxspeed" v="50"/>
    <tag k="name" v="Hornoměcholupská"/>
    <tag k="sidewalk" v="no"/>
    <tag k="smoothness" v="good"/>
    <tag k="surface" v="asphalt"/>
  </way>
  <way id="592472460" version="4" timestamp="2024-02-28T17:49:53Z" changeset="148022477" uid="469828" user="Lukáš Jelínek">
    <nd ref="2830889509"/>
    <nd ref="8275551577"/>
    <nd ref="889384926"/>
    <nd ref="8275551576"/>
    <nd ref="889384924"/>
    <tag k="highway" v="tertiary"/>
    <tag k="junction" v="roundabout"/>
    <tag k="lanes" v="1"/>
    <tag k="lit" v="yes"/>
    <tag k="maxspeed" v="50"/>
    <tag k="name" v="Hornoměcholupská"/>
    <tag k="sidewalk:left" v="no"/>
    <tag k="smoothness" v="good"/>
    <tag k="surface" v="asphalt"/>
  </way>
  <way id="592472461" version="5" timestamp="2024-02-28T17:50:09Z" changeset="148022477" uid="469828" user="Lukáš Jelínek">
    <nd ref="889384918"/>
    <nd ref="8275551570"/>
    <nd ref="889384943"/>
    <nd ref="8275551580"/>
    <nd ref="2829323824"/>
    <tag k="cycleway:right" v="no"/>
    <tag k="highway" v="tertiary"/>
    <tag k="junction" v="roundabout"/>
    <tag k="lanes" v="1"/>
    <tag k="lit" v="yes"/>
    <tag k="maxspeed" v="50"/>
    <tag k="name" v="Hornoměcholupská"/>
    <tag k="sidewalk" v="no"/>
    <tag k="smoothness" v="good"/>
    <tag k="surface" v="asphalt"/>
  </way>
  <way id="592750645" version="5" timestamp="2024-09-14T21:23:56Z" changeset="156627976" uid="1516345" user="theDagger">
    <nd ref="2829384285"/>
    <nd ref="8275551579"/>
    <nd ref="889384950"/>
    <nd ref="8275551578"/>
    <nd ref="2829384284"/>
    <tag k="highway" v="tertiary"/>
    <tag k="junction" v="roundabout"/>
    <tag k="lanes" v="1"/>
    <tag k="lit" v="yes"/>
    <tag k="maxspeed" v="50"/>
    <tag k="name" v="Hornoměcholupská"/>
    <tag k="sidewalk:left" v="no"/>
    <tag k="sidewalk:right" v="separate"/>
    <tag k="smoothness" v="good"/>
    <tag k="surface" v="asphalt"/>
  </way>
  <way id="592750647" version="4" timestamp="2024-02-28T17:49:50Z" changeset="148022477" uid="469828" user="Lukáš Jelínek">
    <nd ref="2829384284"/>
    <nd ref="889384922"/>
    <nd ref="889384909"/>
    <nd ref="2830889509"/>
    <tag k="highway" v="tertiary"/>
    <tag k="junction" v="roundabout"/>
    <tag k="lanes" v="1"/>
    <tag k="lit" v="yes"/>
    <tag k="maxspeed" v="50"/>
    <tag k="name" v="Hornoměcholupská"/>
    <tag k="sidewalk:left" v="no"/>
    <tag k="sidewalk:right" v="separate"/>
    <tag k="smoothness" v="good"/>
    <tag k="surface" v="asphalt"/>
  </way>
  <way id="758104904" version="3" timestamp="2021-04-15T08:51:12Z" changeset="102979659" uid="11276832" user="HaPe-CZ">
    <nd ref="352781047"/>
    <nd ref="7079753756"/>
    <nd ref="7079766025"/>
    <nd ref="8631512856"/>
    <nd ref="7079766024"/>
    <nd ref="8631512855"/>
    <nd ref="2380115896"/>
    <tag k="highway" v="residential"/>
  </way>
  <way id="788676575" version="7" timestamp="2024-09-14T21:16:12Z" changeset="156627979" uid="1516345" user="theDagger">
    <nd ref="7373507473"/>
    <nd ref="9357959227"/>
    <nd ref="7373507474"/>
    <nd ref="7373507475"/>
    <nd ref="7373507476"/>
    <nd ref="7373507477"/>
    <nd ref="9357959224"/>
    <nd ref="7373518503"/>
    <nd ref="7373507473"/>
    <tag k="brand" v="Lidl"/>
    <tag k="brand:wikidata" v="Q151954"/>
    <tag k="brand:wikipedia" v="en:Lidl"/>
    <tag k="building" v="retail"/>
    <tag k="building:levels" v="2"/>
    <tag k="check_date:opening_hours" v="2024-09-14"/>
    <tag k="name" v="Lidl"/>
    <tag k="opening_hours" v="Mo-Sa 07:00-22:00; Su 08:00-22:00"/>
    <tag k="roof:shape" v="flat"/>
    <tag k="shop" v="supermarket"/>
    <tag k="wheelchair" v="yes"/>
  </way>
  <way id="1022609494" version="1" timestamp="2022-01-19T15:09:28Z" changeset="116346514" uid="661742" user="nemca">
    <nd ref="9431271148"/>
    <nd ref="9431271149"/>
    <nd ref="9431271150"/>
    <nd ref="9431271151"/>
    <nd ref="9431271148"/>
    <tag k="building" v="industrial"/>
    <tag k="name" v="JAHEKA s.r.o."/>
  </way>
  <way id="1138056298" version="3" timestamp="2024-06-05T12:44:20Z" changeset="152286487" uid="20160194" user="Milan Tománek">
    <nd ref="1145797490"/>
    <nd ref="11958393477"/>
    <nd ref="1436657839"/>
    <tag k="check_date:surface" v="2023-02-05"/>
    <tag k="highway" v="residential"/>
    <tag k="lanes" v="1"/>
    <tag k="lit" v="yes"/>
    <tag k="maxspeed" v="50"/>
    <tag k="name" v="Sudkova"/>
    <tag k="sidewalk:left" v="separate"/>
    <tag k="sidewalk:right" v="yes"/>
    <tag k="source" v="cuzk:km"/>
    <tag k="surface" v="asphalt"/>
  </way>
  <way id="1160400155" version="1" timestamp="2023-04-07T09:46:15Z" changeset="134607231" uid="231749" user="Eino81">
    <nd ref="379075956"/>
    <nd ref="3617590807"/>
    <nd ref="65344675"/>
    <tag k="access" v="private"/>
    <tag k="highway" v="residential"/>
    <tag k="lanes" v="1"/>
    <tag k="lit" v="yes"/>
    <tag k="maxspeed" v="30"/>
    <tag k="surface" v="asphalt"/>
  </way>
  <way id="1189500596" version="1" timestamp="2023-07-13T21:26:51Z" changeset="138481262" uid="6588887" user="Martin2035">
    <nd ref="65344719"/>
    <nd ref="3556808777"/>
    <nd ref="11045374467"/>
    <nd ref="269307258"/>
    <tag k="highway" v="residential"/>
    <tag k="lanes" v="1"/>
    <tag k="lit" v="yes"/>
    <tag k="maxspeed" v="50"/>
    <tag k="name" v="Ravennská"/>
    <tag k="sidewalk" v="both"/>
    <tag k="surface" v="asphalt"/>
  </way>
  <way id="1249087218" version="1" timestamp="2024-02-11T14:18:44Z" changeset="147329553" uid="9291527" user="marekhrabe">
    <nd ref="65328944"/>
    <nd ref="65329077"/>
    <nd ref="65329063"/>
    <tag k="highway" v="residential"/>
    <tag k="lanes" v="1"/>
    <tag k="lit" v="yes"/>
    <tag k="maxspeed" v="50"/>
    <tag k="name" v="Nad přehradou"/>
    <tag k="source:maxspeed" v="CZ:urban"/>
    <tag k="surface" v="asphalt"/>
  </way>
  <way id="1252016812" version="2" timestamp="2024-09-14T21:24:04Z" changeset="156627975" uid="1516345" user="theDagger">
    <nd ref="2844242831"/>
    <nd ref="4494018372"/>
    <nd ref="3063668151"/>
    <tag k="highway" v="residential"/>
    <tag k="maxspeed" v="30"/>
    <tag k="maxspeed:type" v="CZ:zone30"/>
    <tag k="name" v="Mantovská"/>
    <tag k="sidewalk:left" v="separate"/>
  </way>
  <way id="1255711071" version="1" timestamp="2024-02-28T17:53:33Z" changeset="148022547" uid="469828" user="Lukáš Jelínek">
    <nd ref="11673167093"/>
    <nd ref="1984096097"/>
    <tag k="bridge" v="yes"/>
    <tag k="cycleway:both" v="no"/>
    <tag k="highway" v="tertiary"/>
    <tag k="lanes" v="2"/>
    <tag k="layer" v="1"/>
    <tag k="lit" v="no"/>
    <tag k="maxspeed" v="50"/>
    <tag k="maxweightrating" v="12"/>
    <tag k="name" v="K Měcholupům"/>
    <tag k="parking:both" v="no"/>
    <tag k="shoulder" v="no"/>
    <tag k="sidewalk:left" v="yes"/>
    <tag k="sidewalk:left:surface" v="concrete"/>
    <tag k="sidewalk:right" v="separate"/>
    <tag k="smoothness" v="good"/>
    <tag k="source:maxspeed" v="CZ:urban"/>
    <tag k="surface" v="asphalt"/>
  </way>
  <way id="1278595455" version="2" timestamp="2025-04-18T18:46:36Z" changeset="165126638" uid="1160334" user="honzaa">
    <nd ref="9120012314"/>
    <nd ref="352781034"/>
    <nd ref="352781036"/>
    <nd ref="352781040"/>
    <nd ref="352781038"/>
    <nd ref="352781039"/>
    <tag k="highway" v="residential"/>
    <tag k="lanes" v="1"/>
    <tag k="name" v="U Hostivařského nádraží"/>
    <tag k="sidewalk" v="no"/>
    <tag k="surface" v="asphalt"/>
  </way>
  <way id="1278595456" version="1" timestamp="2024-04-30T19:12:38Z" changeset="150723540" uid="9291527" user="marekhrabe">
    <nd ref="11869770513"/>
    <nd ref="11869770514"/>
    <nd ref="11869770515"/>
    <nd ref="11869770516"/>
    <nd ref="11869770517"/>
    <nd ref="11869770518"/>
    <nd ref="11869770519"/>
    <nd ref="11869770520"/>
    <nd ref="11869770521"/>
    <nd ref="11869770522"/>
    <nd ref="11869770523"/>
    <nd ref="11869770524"/>
    <nd ref="11869770525"/>
    <nd ref="11869770526"/>
    <nd ref="11869770527"/>
    <nd ref="11869770528"/>
    <nd ref="11869770529"/>
    <nd ref="11869770530"/>
    <nd ref="11869770513"/>
    <tag k="building" v="construction"/>
    <tag k="check_date" v="2024-04-30"/>
    <tag k="construction" v="residential"/>
    <tag k="name" v="Zátiší Hostivař"/>
    <tag k="opening_date" v="2025-12-01"/>
    <tag k="website" v="https://zatisi.cz/zatisi-hostivar"/>
  </way>
  <way id="1278595457" version="1" timestamp="2024-04-30T19:12:38Z" changeset="150723540" uid="9291527" user="marekhrabe">
    <nd ref="9120012314"/>
    <nd ref="9120012315"/>
    <nd ref="9120012316"/>
    <tag k="bicycle" v="yes"/>
    <tag k="highway" v="residential"/>
    <tag k="name" v="U Hostivařského nádraží"/>
    <tag k="source" v="uhul:ortofoto"/>
    <tag k="surface" v="paving_stones"/>
  </way>
  <way id="1374209237" version="2" timestamp="2025-04-02T17:05:32Z" changeset="164431040" uid="447835" user="xorly">
    <nd ref="2844242840"/>
    <nd ref="4112791738"/>
    <nd ref="775240993"/>
    <nd ref="12291968972"/>
    <nd ref="2844242831"/>
    <tag k="cycleway" v="lane"/>
    <tag k="cycleway:both" v="lane"/>
    <tag k="cycleway:both:lane" v="exclusive"/>
    <tag k="highway" v="tertiary"/>
    <tag k="lanes" v="2"/>
    <tag k="lit" v="yes"/>
    <tag k="maxspeed" v="50"/>
    <tag k="maxspeed:type" v="sign"/>
    <tag k="name" v="Hornoměcholupská"/>
    <tag k="sidewalk:both" v="separate"/>
    <tag k="surface" v="asphalt"/>
  </way>
  <way id="1378722988" version="2" timestamp="2025-04-20T14:58:28Z" changeset="165198585" uid="474183" user="ratrun">
    <nd ref="245561407"/>
    <nd ref="1690788932"/>
    <nd ref="352781028"/>
    <nd ref="352781030"/>
    <nd ref="352781031"/>
    <nd ref="352781032"/>
    <nd ref="352781033"/>
    <nd ref="9120012314"/>
    <tag k="highway" v="residential"/>
    <tag k="lanes" v="1"/>
    <tag k="name" v="U Hostivařského nádraží"/>
    <tag k="sidewalk" v="no"/>
    <tag k="surface" v="asphalt"/>
  </way>
  <way id="1379324396" version="1" timestamp="2025-04-21T14:14:01Z" changeset="165242290" uid="1160334" user="honzaa">
    <nd ref="745606264"/>
    <nd ref="12772250330"/>
    <nd ref="12772250333"/>
    <nd ref="12772250331"/>
    <nd ref="12772250332"/>
    <nd ref="774051623"/>
    <tag k="highway" v="residential"/>
    <tag k="name" v="Livornská"/>
  </way>
  <way id="1379324397" version="1" timestamp="2025-04-21T14:14:01Z" changeset="165242290" uid="1160334" user="honzaa">
    <nd ref="774051589"/>
    <nd ref="12772250333"/>
    <tag k="highway" v="residential"/>
  </way>
  <way id="1379338571" version="1" timestamp="2025-04-21T15:12:53Z" changeset="165245372" uid="1160334" user="honzaa">
    <nd ref="763661640"/>
    <nd ref="12772380504"/>
    <nd ref="288080792"/>
    <tag k="highway" v="tertiary"/>
    <tag k="lanes" v="2"/>
    <tag k="lit" v="yes"/>
    <tag k="maxspeed" v="50"/>
    <tag k="name" v="Milánská"/>
    <tag k="sidewalk:both" v="separate"/>
    <tag k="source:maxspeed" v="CZ:urban"/>
    <tag k="surface" v="asphalt"/>
  </way>
  <way id="1383230014" version="1" timestamp="2025-05-03T09:47:15Z" changeset="165750661" uid="1160334" user="honzaa">
    <nd ref="65328509"/>
    <nd ref="2523602117"/>
    <tag k="highway" v="residential"/>
    <tag k="lanes" v="1"/>
    <tag k="lit" v="yes"/>
    <tag k="maxspeed" v="50"/>
    <tag k="name" v="Milánská"/>
    <tag k="oneway" v="yes"/>
    <tag k="parking:condition:left" v="free"/>
    <tag k="parking:left" v="yes"/>
    <tag k="parking:left:orientation" v="perpendicular"/>
    <tag k="sidewalk:left" v="separate"/>
    <tag k="source:maxspeed" v="CZ:urban"/>
    <tag k="surface" v="asphalt"/>
  </way>
  <relation id="5218679" version="2" timestamp="2024-05-02T17:45:34Z" changeset="150804980" uid="10932047" user="AF HAF KARTOGRAF">
    <member type="way" ref="143540320" role="outer"/>
    <member type="way" ref="350055480" role="outer"/>
    <member type="way" ref="350055470" role="outer"/>
    <member type="way" ref="350055474" role="outer"/>
    <member type="way" ref="350055481" role="outer"/>
    <member type="way" ref="350055475" role="outer"/>
    <member type="way" ref="350055483" role="outer"/>
    <member type="way" ref="350055478" role="outer"/>
    <tag k="amenity" v="kindergarten"/>
    <tag k="building" v="civic"/>
    <tag k="building:flats" v="1"/>
    <tag k="building:levels" v="1"/>
    <tag k="building:ruian:type" v="5"/>
    <tag k="email" v="msbolonska@iol.cz"/>
    <tag k="name" v="Mateřská škola Boloňská 313"/>
    <tag k="operator" v="MÚ Praha 15"/>
    <tag k="phone" v="+420 271 960 801"/>
    <tag k="ref:ruian:building" v="22404872"/>
    <tag k="type" v="multipolygon"/>
    <tag k="website" v="https://www.msbolonska.cz/"/>
  </relation>
  <relation id="5230868" version="2" timestamp="2020-10-04T18:23:47Z" changeset="91942601" uid="102554" user="Jezevec">
    <member type="way" ref="143542457" role="outer"/>
    <member type="way" ref="350662458" role="outer"/>
    <tag k="addr:city" v="Praha"/>
    <tag k="addr:housenumber" v="571"/>
    <tag k="addr:postcode" v="10900"/>
    <tag k="addr:street" v="Milánská"/>
    <tag k="amenity" v="restaurant"/>
    <tag k="building" v="yes"/>
    <tag k="building:ruian:type" v="19"/>
    <tag k="email" v="info@milano-pizzeria.cz"/>
    <tag k="fax" v="+420 274 870 505"/>
    <tag k="name" v="Pizzeria Milano"/>
    <tag k="opening_hours" v="Mo-Su 11:00-23:00;Fr,Sa 11:00-24:00"/>
    <tag k="phone" v="+420 274 870 505"/>
    <tag k="ref:ruian:building" v="25450247"/>
    <tag k="start_date" v="2004-02-13"/>
    <tag k="type" v="multipolygon"/>
    <tag k="website" v="http://www.milano-pizzeria.cz"/>
  </relation>

</osm>
