<?xml version="1.0" encoding="UTF-8"?>
<osm version="0.6" generator="Overpass API 0.7.62.5 1bd436f1">
<note>The data included in this document is from www.openstreetmap.org. The data is made available under ODbL.</note>
<meta osm_base="2025-05-18T05:46:15Z" areas="2024-12-31T00:49:33Z"/>

  <node id="703039" lat="50.0190831" lon="14.3360428" version="7" timestamp="2021-04-03T14:35:25Z" changeset="102238743" uid="11276832" user="HaPe-CZ"/>
  <node id="7306371" lat="50.0232593" lon="14.3160719" version="3" timestamp="2020-10-15T13:26:22Z" changeset="92525786" uid="873469" user="R3gi"/>
  <node id="21597614" lat="50.0376284" lon="14.2918771" version="4" timestamp="2024-07-08T22:24:09Z" changeset="153723008" uid="25867" user="adamos"/>
  <node id="60271624" lat="50.0346540" lon="14.3139913" version="5" timestamp="2024-01-23T21:59:38Z" changeset="146609941" uid="469828" user="Luk치코 Jel칤nek">
    <tag k="highway" v="traffic_signals"/>
  </node>
  <node id="78598564" lat="50.0214913" lon="14.3070625" version="2" timestamp="2019-01-27T19:06:12Z" changeset="66684896" uid="1189910" user="Milancer"/>
  <node id="245500077" lat="50.0381108" lon="14.3135661" version="3" timestamp="2024-12-11T10:43:46Z" changeset="160163267" uid="21660832" user="okmeow">
    <tag k="junction" v="yes"/>
  </node>
  <node id="245500083" lat="50.0370248" lon="14.3099527" version="2" timestamp="2024-12-11T10:43:46Z" changeset="160163267" uid="21660832" user="okmeow">
    <tag k="junction" v="yes"/>
  </node>
  <node id="344184510" lat="50.0369583" lon="14.2922029" version="4" timestamp="2012-05-19T13:17:51Z" changeset="11642297" uid="367303" user="Vaekk"/>
  <node id="1044123551" lat="50.0391280" lon="14.3139969" version="1" timestamp="2010-12-18T00:59:51Z" changeset="6692365" uid="17615" user="Petr Dlouh칳"/>
  <node id="1487788302" lat="50.0394315" lon="14.3181231" version="3" timestamp="2017-08-06T19:01:43Z" changeset="50891886" uid="3516" user="BiIbo"/>
  <node id="1727478372" lat="50.0235990" lon="14.2976824" version="3" timestamp="2021-04-03T10:30:44Z" changeset="102230267" uid="11276832" user="HaPe-CZ"/>
  <node id="1758379185" lat="50.0391633" lon="14.3015264" version="3" timestamp="2024-07-08T22:24:09Z" changeset="153723008" uid="25867" user="adamos"/>
  <node id="1758402018" lat="50.0387307" lon="14.3009682" version="4" timestamp="2018-11-10T21:44:06Z" changeset="64362642" uid="1189910" user="Milancer"/>
  <node id="2282265696" lat="50.0247745" lon="14.3022301" version="2" timestamp="2021-04-03T14:35:25Z" changeset="102238743" uid="11276832" user="HaPe-CZ"/>
  <node id="2749646548" lat="50.0317721" lon="14.2934610" version="1" timestamp="2014-03-28T13:01:12Z" changeset="21364773" uid="1963170" user="Petr Kolomazn칤k"/>
  <node id="3350509928" lat="50.0272130" lon="14.2898170" version="3" timestamp="2023-03-16T10:25:48Z" changeset="133742600" uid="8971394" user="vojtechzaboril"/>
  <node id="3350509933" lat="50.0274286" lon="14.2890732" version="3" timestamp="2023-03-16T10:25:48Z" changeset="133742600" uid="8971394" user="vojtechzaboril"/>
  <node id="4346958513" lat="50.0397433" lon="14.3225632" version="2" timestamp="2017-08-06T18:57:08Z" changeset="50891886" uid="3516" user="BiIbo"/>
  <node id="4346958519" lat="50.0399937" lon="14.3220693" version="3" timestamp="2024-12-21T18:58:09Z" changeset="160480105" uid="10224968" user="comfyquiettree"/>
  <node id="4743140633" lat="50.0238014" lon="14.2977333" version="2" timestamp="2021-04-03T10:30:44Z" changeset="102230267" uid="11276832" user="HaPe-CZ"/>
  <node id="4743191499" lat="50.0331652" lon="14.2845027" version="3" timestamp="2018-06-01T12:11:30Z" changeset="59459830" uid="255936" user="NyanSten">
    <tag k="name" v="Hlavn칤 m캩sto Praha"/>
    <tag k="traffic_sign" v="city_limit"/>
  </node>
  <way id="4052259" version="13" timestamp="2023-06-10T07:11:36Z" changeset="137161470" uid="10881771" user="Vokoun">
    <nd ref="7306371"/>
    <nd ref="6240247909"/>
    <nd ref="8009958917"/>
    <nd ref="7306477"/>
    <nd ref="6240247910"/>
    <nd ref="6240247911"/>
    <nd ref="25933586"/>
    <nd ref="1233964634"/>
    <nd ref="7306482"/>
    <nd ref="1233964629"/>
    <nd ref="6240247912"/>
    <nd ref="7306485"/>
    <nd ref="7306487"/>
    <nd ref="25934352"/>
    <nd ref="6240247913"/>
    <nd ref="60272128"/>
    <nd ref="7306489"/>
    <nd ref="1921007028"/>
    <tag k="highway" v="tertiary"/>
    <tag k="lane_markings" v="no"/>
    <tag k="maxspeed" v="90"/>
    <tag k="name" v="K Zadn칤 Kopanin캩"/>
    <tag k="note" v="silnice na Zmrzl칤k"/>
    <tag k="smoothness" v="intermediate"/>
    <tag k="surface" v="asphalt"/>
  </way>
  <way id="4076673" version="24" timestamp="2022-12-30T11:36:22Z" changeset="130682952" uid="3516" user="BiIbo">
    <nd ref="7294404"/>
    <nd ref="1884353872"/>
    <nd ref="5018288545"/>
    <nd ref="7504718849"/>
    <nd ref="7294397"/>
    <nd ref="21596998"/>
    <tag k="highway" v="tertiary"/>
    <tag k="lanes" v="2"/>
    <tag k="name" v="콎eporyjsk칠 n치m캩st칤"/>
    <tag k="surface" v="asphalt"/>
  </way>
  <way id="4076674" version="15" timestamp="2019-04-24T11:29:46Z" changeset="69522246" uid="1189910" user="Milancer">
    <nd ref="21596991"/>
    <nd ref="4743140633"/>
    <tag k="destination:forward" v="O콏ech"/>
    <tag k="highway" v="tertiary"/>
    <tag k="maxspeed" v="50"/>
    <tag k="name" v="O콏e코sk치"/>
    <tag k="ref" v="1154"/>
    <tag k="source" v="Yahoo"/>
    <tag k="surface" v="asphalt"/>
  </way>
  <way id="4076675" version="26" timestamp="2022-12-30T13:59:33Z" changeset="130687078" uid="10881771" user="Vokoun">
    <nd ref="21597002"/>
    <nd ref="1843748922"/>
    <nd ref="7504718889"/>
    <nd ref="3027378895"/>
    <nd ref="8930417077"/>
    <nd ref="21597601"/>
    <tag k="highway" v="tertiary"/>
    <tag k="lane_markings" v="no"/>
    <tag k="name" v="콎eporyjsk칠 n치m캩st칤"/>
    <tag k="surface" v="asphalt"/>
  </way>
  <way id="8061146" version="9" timestamp="2025-01-17T10:16:59Z" changeset="161449217" uid="21660832" user="okmeow">
    <nd ref="21597596"/>
    <nd ref="11544687724"/>
    <nd ref="11985485116"/>
    <nd ref="12509033790"/>
    <nd ref="60271634"/>
    <tag k="highway" v="residential"/>
    <tag k="name" v="Pavlovick치"/>
    <tag k="source:name" v="nameit/uir-adr"/>
    <tag k="surface" v="asphalt"/>
  </way>
  <way id="8061147" version="10" timestamp="2024-07-21T18:41:03Z" changeset="154232335" uid="21683308" user="CurlConnoisseur">
    <nd ref="21597595"/>
    <nd ref="8448669631"/>
    <nd ref="9657444126"/>
    <nd ref="429573149"/>
    <tag k="highway" v="residential"/>
    <tag k="lane_markings" v="no"/>
    <tag k="name" v="Hl치vkova"/>
    <tag k="source:name" v="nameit/uir-adr"/>
    <tag k="surface" v="asphalt"/>
  </way>
  <way id="8061148" version="7" timestamp="2017-07-15T21:38:05Z" changeset="50314478" uid="665336" user="Minimalis">
    <nd ref="60271860"/>
    <nd ref="60271861"/>
    <nd ref="60271863"/>
    <nd ref="60271870"/>
    <nd ref="60271878"/>
    <tag k="highway" v="residential"/>
    <tag k="name" v="V코erubsk치"/>
    <tag k="source:name" v="nameit/uir-adr"/>
  </way>
  <way id="8061149" version="4" timestamp="2009-03-05T18:23:07Z" changeset="739570" uid="3516" user="BiIbo">
    <nd ref="245499053"/>
    <nd ref="245499051"/>
    <nd ref="245499049"/>
    <nd ref="60271878"/>
    <tag k="created_by" v="JOSM"/>
    <tag k="highway" v="residential"/>
    <tag k="name" v="Lubeneck치"/>
    <tag k="source:name" v="nameit/uir-adr"/>
  </way>
  <way id="8061150" version="11" timestamp="2019-04-24T07:26:19Z" changeset="69514786" uid="1189910" user="Milancer">
    <nd ref="60271904"/>
    <nd ref="6415878017"/>
    <nd ref="60272094"/>
    <nd ref="243289599"/>
    <tag k="highway" v="residential"/>
    <tag k="name" v="Losinsk치"/>
    <tag k="source:name" v="nameit/uir-adr"/>
  </way>
  <way id="8376899" version="9" timestamp="2017-03-29T19:10:04Z" changeset="47270720" uid="255936" user="NyanSten">
    <nd ref="1045206789"/>
    <nd ref="1049047673"/>
    <nd ref="25927135"/>
    <tag k="highway" v="residential"/>
    <tag k="name" v="KZ치v캩tin치m"/>
    <tag k="source:name" v="nameit/uir-adr"/>
  </way>
  <way id="8376902" version="22" timestamp="2024-07-04T11:19:22Z" changeset="153541642" uid="10932047" user="AF HAF KARTOGRAF">
    <nd ref="25927142"/>
    <nd ref="25927138"/>
    <nd ref="8910188233"/>
    <nd ref="8910188231"/>
    <nd ref="25927133"/>
    <nd ref="6415879288"/>
    <nd ref="429301243"/>
    <nd ref="2987527556"/>
    <nd ref="2987527557"/>
    <nd ref="7306270"/>
    <tag k="highway" v="residential"/>
    <tag k="lit" v="yes"/>
    <tag k="maxweight" v="3.5"/>
    <tag k="maxweight:conditional" v="no @ destination"/>
    <tag k="name" v="KZ치v캩tin치m"/>
    <tag k="source:name" v="nameit/uir-adr"/>
    <tag k="surface" v="asphalt"/>
  </way>
  <way id="8376906" version="7" timestamp="2023-06-18T18:28:41Z" changeset="137488803" uid="231749" user="Eino81">
    <nd ref="10984684285"/>
    <nd ref="346535020"/>
    <nd ref="346535018"/>
    <nd ref="346535017"/>
    <nd ref="346535015"/>
    <nd ref="1066152945"/>
    <nd ref="346535013"/>
    <nd ref="519172783"/>
    <tag k="highway" v="residential"/>
    <tag k="name" v="U Bubce"/>
  </way>
  <way id="8376908" version="10" timestamp="2024-04-29T11:50:29Z" changeset="150659385" uid="21289788" user="alfred476">
    <nd ref="25927240"/>
    <nd ref="3030478768"/>
    <nd ref="3030478766"/>
    <nd ref="25927242"/>
    <nd ref="1046252853"/>
    <nd ref="1046252593"/>
    <nd ref="1046252869"/>
    <nd ref="1046253640"/>
    <nd ref="2271704584"/>
    <nd ref="2134199945"/>
    <nd ref="2134178479"/>
    <tag k="highway" v="unclassified"/>
    <tag k="name" v="Na Po쮂ru"/>
  </way>
  <way id="11732788" version="9" timestamp="2020-11-27T13:35:21Z" changeset="94899352" uid="665336" user="Minimalis">
    <nd ref="7306359"/>
    <nd ref="161586944"/>
    <tag k="bridge" v="yes"/>
    <tag k="bridge:structure" v="beam"/>
    <tag k="highway" v="tertiary"/>
    <tag k="layer" v="1"/>
    <tag k="name" v="K Zadn칤 Kopanin캩"/>
    <tag k="official_name" v="K Zadn칤 Kopanin캩"/>
    <tag k="surface" v="asphalt"/>
  </way>
  <way id="11732791" version="14" timestamp="2024-09-16T10:27:09Z" changeset="156681527" uid="8971394" user="vojtechzaboril">
    <nd ref="4743140630"/>
    <nd ref="8589259073"/>
    <nd ref="8589259072"/>
    <nd ref="8589259071"/>
    <nd ref="8589259070"/>
    <nd ref="8589259069"/>
    <nd ref="8589259068"/>
    <nd ref="8589259067"/>
    <nd ref="8589259066"/>
    <nd ref="8589259065"/>
    <nd ref="8589259064"/>
    <nd ref="8589259063"/>
    <nd ref="7124831842"/>
    <nd ref="8589259042"/>
    <nd ref="8589259033"/>
    <nd ref="8589259032"/>
    <tag k="highway" v="motorway_link"/>
    <tag k="lanes" v="1"/>
    <tag k="maxspeed" v="90"/>
    <tag k="note" v="cant be 130 kmph, as it is not separated from opposite direction traffic"/>
    <tag k="oneway" v="yes"/>
    <tag k="surface" v="asphalt"/>
  </way>
  <way id="11733135" version="14" timestamp="2023-03-16T10:25:48Z" changeset="133742600" uid="8971394" user="vojtechzaboril">
    <nd ref="703077"/>
    <nd ref="10738932877"/>
    <nd ref="7124831811"/>
    <nd ref="7124831812"/>
    <nd ref="8589274199"/>
    <nd ref="3107494144"/>
    <tag k="destination" v="Praha-콎eporyje;O콏ech"/>
    <tag k="highway" v="motorway_link"/>
    <tag k="maxspeed" v="130"/>
    <tag k="maxweight" v="6"/>
    <tag k="oneway" v="yes"/>
    <tag k="surface" v="concrete"/>
  </way>
  <way id="11733138" version="11" timestamp="2024-09-16T10:27:09Z" changeset="156681527" uid="8971394" user="vojtechzaboril">
    <nd ref="105049230"/>
    <nd ref="8589274212"/>
    <nd ref="8589274211"/>
    <nd ref="8589274210"/>
    <nd ref="105049225"/>
    <nd ref="8589274209"/>
    <nd ref="8589274208"/>
    <nd ref="8589274207"/>
    <nd ref="105049219"/>
    <nd ref="8589274206"/>
    <nd ref="8589274205"/>
    <nd ref="105049215"/>
    <nd ref="8589274204"/>
    <nd ref="8589274213"/>
    <nd ref="8589274203"/>
    <nd ref="8589274202"/>
    <nd ref="8589274201"/>
    <nd ref="105049173"/>
    <nd ref="105049169"/>
    <tag k="highway" v="motorway_link"/>
    <tag k="lanes" v="1"/>
    <tag k="maxspeed" v="90"/>
    <tag k="note" v="cant be 130 kmph, as it is not separated from opposite direction traffic"/>
    <tag k="oneway" v="yes"/>
    <tag k="surface" v="asphalt"/>
  </way>
  <way id="11733140" version="12" timestamp="2021-04-03T13:59:37Z" changeset="102237406" uid="11276832" user="HaPe-CZ">
    <nd ref="105049169"/>
    <nd ref="7124831808"/>
    <nd ref="3107494149"/>
    <nd ref="105049172"/>
    <nd ref="7124831807"/>
    <nd ref="3107494147"/>
    <tag k="highway" v="motorway_link"/>
    <tag k="lanes" v="1"/>
    <tag k="maxspeed" v="130"/>
    <tag k="oneway" v="yes"/>
    <tag k="surface" v="asphalt"/>
  </way>
  <way id="11733143" version="10" timestamp="2019-04-24T11:30:08Z" changeset="69522246" uid="1189910" user="Milancer">
    <nd ref="21596991"/>
    <nd ref="4743140632"/>
    <tag k="destination:forward" v="Plze켿;Praha-콎eporyje"/>
    <tag k="highway" v="tertiary"/>
    <tag k="name" v="O콏e코sk치"/>
    <tag k="source" v="Yahoo"/>
    <tag k="surface" v="asphalt"/>
  </way>
  <way id="12543122" version="9" timestamp="2022-08-09T21:19:29Z" changeset="124704017" uid="2960211" user="demanuel">
    <nd ref="7306371"/>
    <nd ref="25927296"/>
    <nd ref="8009958898"/>
    <nd ref="25927297"/>
    <nd ref="8009951978"/>
    <nd ref="25927298"/>
    <nd ref="6240248015"/>
    <nd ref="25927300"/>
    <nd ref="8009951935"/>
    <nd ref="6240248014"/>
    <nd ref="8009951957"/>
    <nd ref="25927303"/>
    <nd ref="1696624325"/>
    <nd ref="8009951915"/>
    <nd ref="25927304"/>
    <nd ref="25927305"/>
    <nd ref="8009958992"/>
    <nd ref="25927306"/>
    <nd ref="8009958970"/>
    <nd ref="8009958949"/>
    <nd ref="25933604"/>
    <nd ref="6240248013"/>
    <nd ref="25933608"/>
    <nd ref="25933778"/>
    <nd ref="6240248012"/>
    <nd ref="25933799"/>
    <nd ref="25933812"/>
    <nd ref="25933833"/>
    <nd ref="25933856"/>
    <nd ref="25933898"/>
    <nd ref="78598630"/>
    <nd ref="78598634"/>
    <nd ref="78598637"/>
    <nd ref="78598641"/>
    <nd ref="78598642"/>
    <nd ref="105039578"/>
    <nd ref="78598643"/>
    <nd ref="78598644"/>
    <tag k="highway" v="tertiary"/>
    <tag k="maxspeed" v="90"/>
    <tag k="name" v="Kㅁustisu"/>
    <tag k="surface" v="asphalt"/>
  </way>
  <way id="16076706" version="8" timestamp="2021-04-03T14:35:25Z" changeset="102238743" uid="11276832" user="HaPe-CZ">
    <nd ref="161586944"/>
    <nd ref="8589592078"/>
    <nd ref="8589592079"/>
    <nd ref="7306371"/>
    <tag k="highway" v="tertiary"/>
    <tag k="name" v="K Zadn칤 Kopanin캩"/>
    <tag k="official_name" v="K Zadn칤 Kopanin캩"/>
    <tag k="surface" v="asphalt"/>
  </way>
  <way id="16076773" version="7" timestamp="2024-09-16T10:27:09Z" changeset="156681527" uid="8971394" user="vojtechzaboril">
    <nd ref="21596992"/>
    <nd ref="12179936485"/>
    <nd ref="21596993"/>
    <tag k="highway" v="tertiary"/>
    <tag k="name" v="O콏e코sk치"/>
    <tag k="source" v="Yahoo"/>
    <tag k="surface" v="asphalt"/>
  </way>
  <way id="16076777" version="5" timestamp="2019-04-24T11:30:11Z" changeset="69522246" uid="1189910" user="Milancer">
    <nd ref="161588460"/>
    <nd ref="21596992"/>
    <tag k="bridge" v="yes"/>
    <tag k="bridge:structure" v="beam"/>
    <tag k="highway" v="tertiary"/>
    <tag k="layer" v="1"/>
    <tag k="name" v="O콏e코sk치"/>
    <tag k="source" v="Yahoo"/>
    <tag k="surface" v="asphalt"/>
  </way>
  <way id="22679339" version="9" timestamp="2019-04-24T07:26:27Z" changeset="69514786" uid="1189910" user="Milancer">
    <nd ref="60271978"/>
    <nd ref="243289598"/>
    <tag k="highway" v="residential"/>
    <tag k="name" v="Milenovsk치"/>
    <tag k="source:name" v="nameit/uir-adr"/>
  </way>
  <way id="22679340" version="9" timestamp="2024-07-13T20:21:09Z" changeset="153908530" uid="21683308" user="CurlConnoisseur">
    <nd ref="243289601"/>
    <nd ref="243289598"/>
    <tag k="highway" v="residential"/>
    <tag k="lane_markings" v="no"/>
    <tag k="name" v="Slatinov치"/>
    <tag k="oneway" v="yes"/>
    <tag k="source:name" v="nameit/uir-adr"/>
    <tag k="surface" v="asphalt"/>
  </way>
  <way id="22819117" version="3" timestamp="2009-03-05T18:24:11Z" changeset="739570" uid="3516" user="BiIbo">
    <nd ref="60271860"/>
    <nd ref="245499053"/>
    <nd ref="245499046"/>
    <tag k="created_by" v="JOSM"/>
    <tag k="highway" v="residential"/>
    <tag k="name" v="Folmavsk치"/>
    <tag k="source:name" v="nameit/uir-adr"/>
  </way>
  <way id="22819118" version="3" timestamp="2009-03-05T18:24:12Z" changeset="739570" uid="3516" user="BiIbo">
    <nd ref="60271861"/>
    <nd ref="245499051"/>
    <nd ref="245499048"/>
    <tag k="created_by" v="JOSM"/>
    <tag k="highway" v="residential"/>
    <tag k="name" v="Stiessova"/>
    <tag k="source:name" v="nameit/uir-adr"/>
  </way>
  <way id="22819122" version="11" timestamp="2019-04-24T07:26:28Z" changeset="69514786" uid="1189910" user="Milancer">
    <nd ref="60271878"/>
    <nd ref="60272010"/>
    <nd ref="1044125026"/>
    <nd ref="60272050"/>
    <nd ref="60272065"/>
    <nd ref="60272074"/>
    <nd ref="60272094"/>
    <tag k="highway" v="residential"/>
    <tag k="name" v="V코erubsk치"/>
    <tag k="source:name" v="nameit/uir-adr"/>
  </way>
  <way id="22819125" version="6" timestamp="2024-03-15T23:01:45Z" changeset="148711664" uid="12080464" user="Vojt캩ch Kade콏치bek">
    <nd ref="245500080"/>
    <nd ref="245500079"/>
    <nd ref="8986054519"/>
    <nd ref="6415878022"/>
    <nd ref="60271627"/>
    <tag k="highway" v="residential"/>
    <tag k="motor_vehicle" v="destination"/>
    <tag k="name" v="Post콏ekovsk치"/>
    <tag k="source:name" v="nameit/uir-adr"/>
  </way>
  <way id="22819127" version="6" timestamp="2024-07-08T22:24:09Z" changeset="153723008" uid="25867" user="adamos">
    <nd ref="245500070"/>
    <nd ref="245500063"/>
    <nd ref="245500071"/>
    <nd ref="245500072"/>
    <nd ref="12042577936"/>
    <nd ref="245500073"/>
    <nd ref="4755304870"/>
    <nd ref="245500074"/>
    <tag k="highway" v="residential"/>
    <tag k="name" v="Drahot칤nsk치"/>
    <tag k="source:name" v="nameit/uir-adr"/>
    <tag k="surface" v="asphalt"/>
  </way>
  <way id="22819128" version="8" timestamp="2024-11-26T14:53:27Z" changeset="159620451" uid="21660832" user="okmeow">
    <nd ref="245500069"/>
    <nd ref="12376426080"/>
    <nd ref="245500075"/>
    <tag k="highway" v="residential"/>
    <tag k="lane_markings" v="no"/>
    <tag k="name" v="Hl치vkova"/>
    <tag k="oneway" v="yes"/>
    <tag k="source:name" v="nameit/uir-adr"/>
    <tag k="surface" v="asphalt"/>
  </way>
  <way id="22819129" version="7" timestamp="2024-10-25T11:09:51Z" changeset="158332268" uid="21660832" user="okmeow">
    <nd ref="60271627"/>
    <nd ref="6415878019"/>
    <nd ref="245500061"/>
    <nd ref="245500063"/>
    <nd ref="245500064"/>
    <nd ref="1045018901"/>
    <nd ref="245500065"/>
    <nd ref="245500067"/>
    <tag k="access" v="no"/>
    <tag k="bicycle" v="yes"/>
    <tag k="foot" v="yes"/>
    <tag k="highway" v="residential"/>
    <tag k="horse" v="yes"/>
    <tag k="motor_vehicle" v="private"/>
    <tag k="name" v="Krte켿sk치"/>
    <tag k="source:name" v="nameit/uir-adr"/>
  </way>
  <way id="22819130" version="5" timestamp="2024-07-08T22:24:09Z" changeset="153723008" uid="25867" user="adamos">
    <nd ref="245500079"/>
    <nd ref="245500078"/>
    <nd ref="12042577937"/>
    <nd ref="245500071"/>
    <nd ref="245500081"/>
    <tag k="highway" v="residential"/>
    <tag k="name" v="Libe캜kova"/>
    <tag k="source:name" v="nameit/uir-adr"/>
    <tag k="surface" v="asphalt"/>
  </way>
  <way id="22819131" version="5" timestamp="2025-04-23T07:10:11Z" changeset="165316538" uid="15312507" user="POI Mapper">
    <nd ref="245500072"/>
    <nd ref="1045024384"/>
    <nd ref="245500082"/>
    <nd ref="245500083"/>
    <tag k="highway" v="residential"/>
    <tag k="name" v="Nedra쬴ck치"/>
    <tag k="source:name" v="nameit/uir-adr"/>
    <tag k="surface" v="asphalt"/>
  </way>
  <way id="22819132" version="15" timestamp="2024-12-14T15:38:50Z" changeset="160283515" uid="21660832" user="okmeow">
    <nd ref="245500083"/>
    <nd ref="12412036265"/>
    <nd ref="245500084"/>
    <nd ref="1045024010"/>
    <nd ref="245500085"/>
    <nd ref="245500086"/>
    <nd ref="11705325383"/>
    <nd ref="245500087"/>
    <nd ref="245500088"/>
    <nd ref="245500089"/>
    <nd ref="245500090"/>
    <nd ref="1045016191"/>
    <nd ref="12376575898"/>
    <nd ref="245500091"/>
    <nd ref="245500092"/>
    <nd ref="11982755527"/>
    <nd ref="6371768315"/>
    <nd ref="2142808503"/>
    <nd ref="12361219939"/>
    <nd ref="12376612301"/>
    <nd ref="1045021875"/>
    <nd ref="11985293754"/>
    <nd ref="245500067"/>
    <tag k="access" v="no"/>
    <tag k="bicycle" v="yes"/>
    <tag k="foot" v="yes"/>
    <tag k="highway" v="residential"/>
    <tag k="horse" v="yes"/>
    <tag k="lanes" v="1"/>
    <tag k="lit" v="yes"/>
    <tag k="maxspeed" v="50"/>
    <tag k="motor_vehicle" v="private"/>
    <tag k="name" v="Pr콢honek"/>
    <tag k="oneway" v="no"/>
    <tag k="source:name" v="nameit/uir-adr"/>
    <tag k="surface" v="asphalt"/>
  </way>
  <way id="22819133" version="11" timestamp="2024-07-08T22:24:09Z" changeset="153723008" uid="25867" user="adamos">
    <nd ref="245500074"/>
    <nd ref="245500095"/>
    <nd ref="6415878018"/>
    <nd ref="245500096"/>
    <nd ref="245500097"/>
    <nd ref="245500098"/>
    <nd ref="245500099"/>
    <nd ref="245500100"/>
    <nd ref="245500101"/>
    <nd ref="245500102"/>
    <nd ref="245500080"/>
    <nd ref="245500103"/>
    <nd ref="1045024348"/>
    <nd ref="1045017912"/>
    <nd ref="1045016626"/>
    <nd ref="1045020627"/>
    <nd ref="1045018445"/>
    <nd ref="8986054635"/>
    <nd ref="1045023076"/>
    <nd ref="8986054620"/>
    <nd ref="8986054598"/>
    <nd ref="8986054624"/>
    <nd ref="1045021288"/>
    <nd ref="7504718895"/>
    <nd ref="1045024736"/>
    <tag k="highway" v="residential"/>
    <tag k="motor_vehicle" v="destination"/>
    <tag k="name" v="Nad Schody"/>
    <tag k="official_name" v="Nad schody"/>
    <tag k="ref:ruian:street" v="489948"/>
  </way>
  <way id="22819134" version="8" timestamp="2025-04-23T07:10:07Z" changeset="165316531" uid="15312507" user="POI Mapper">
    <nd ref="245500067"/>
    <nd ref="245500081"/>
    <nd ref="245500083"/>
    <nd ref="12551330203"/>
    <nd ref="245502083"/>
    <nd ref="245502084"/>
    <nd ref="245502091"/>
    <tag k="access" v="no"/>
    <tag k="bicycle" v="yes"/>
    <tag k="foot" v="yes"/>
    <tag k="highway" v="residential"/>
    <tag k="horse" v="yes"/>
    <tag k="lane_markings" v="no"/>
    <tag k="lanes" v="2"/>
    <tag k="motor_vehicle" v="private"/>
    <tag k="name" v="Radou켿ova"/>
    <tag k="source:name" v="nameit/uir-adr"/>
    <tag k="surface" v="asphalt"/>
  </way>
  <way id="22819135" version="7" timestamp="2024-11-21T08:48:01Z" changeset="159399259" uid="21660832" user="okmeow">
    <nd ref="245500077"/>
    <nd ref="245500104"/>
    <nd ref="12361219936"/>
    <nd ref="245500067"/>
    <tag k="access" v="no"/>
    <tag k="bicycle" v="yes"/>
    <tag k="foot" v="yes"/>
    <tag k="highway" v="residential"/>
    <tag k="horse" v="yes"/>
    <tag k="lane_markings" v="no"/>
    <tag k="motor_vehicle" v="private"/>
    <tag k="name" v="Radou켿ova"/>
    <tag k="source:name" v="nameit/uir-adr"/>
    <tag k="surface" v="asphalt"/>
  </way>
  <way id="22819136" version="8" timestamp="2024-12-14T15:38:50Z" changeset="160283515" uid="21660832" user="okmeow">
    <nd ref="245500077"/>
    <nd ref="11985293753"/>
    <nd ref="12412036271"/>
    <nd ref="245500105"/>
    <tag k="highway" v="residential"/>
    <tag k="lane_markings" v="no"/>
    <tag k="motor_vehicle" v="private"/>
    <tag k="name" v="La쬬nsk치"/>
    <tag k="source:name" v="nameit/uir-adr"/>
    <tag k="surface" v="asphalt"/>
  </way>
  <way id="22819137" version="12" timestamp="2022-12-30T11:38:06Z" changeset="130683014" uid="3516" user="BiIbo">
    <nd ref="245500107"/>
    <nd ref="245500106"/>
    <nd ref="5018288543"/>
    <tag k="highway" v="residential"/>
    <tag k="name" v="KChaloupce"/>
    <tag k="source:name" v="nameit/uir-adr"/>
    <tag k="surface" v="asphalt"/>
  </way>
  <way id="22819138" version="6" timestamp="2019-04-24T07:26:28Z" changeset="69514786" uid="1189910" user="Milancer">
    <nd ref="245500532"/>
    <nd ref="245500534"/>
    <tag k="highway" v="residential"/>
    <tag k="name" v="Lou캜n치"/>
    <tag k="source:name" v="nameit/uir-adr"/>
  </way>
  <way id="22819139" version="6" timestamp="2019-04-24T06:44:24Z" changeset="69513702" uid="1189910" user="Milancer">
    <nd ref="245500530"/>
    <nd ref="245500535"/>
    <nd ref="321379274"/>
    <nd ref="245499049"/>
    <tag k="highway" v="residential"/>
    <tag k="name" v="B칤lovsk치"/>
    <tag k="source:name" v="nameit/uir-adr"/>
  </way>
  <way id="22819140" version="9" timestamp="2019-04-24T07:26:28Z" changeset="69514786" uid="1189910" user="Milancer">
    <nd ref="245500532"/>
    <nd ref="1045092625"/>
    <nd ref="245500537"/>
    <nd ref="2959632527"/>
    <nd ref="245500538"/>
    <tag k="highway" v="residential"/>
    <tag k="name" v="콯ilovsk치"/>
    <tag k="source:name" v="nameit/uir-adr"/>
  </way>
  <way id="22819141" version="7" timestamp="2019-04-24T07:26:28Z" changeset="69514786" uid="1189910" user="Milancer">
    <nd ref="245500551"/>
    <nd ref="245500532"/>
    <tag k="highway" v="residential"/>
    <tag k="name" v="콯ilovsk치"/>
    <tag k="source:name" v="nameit/uir-adr"/>
  </way>
  <way id="22819142" version="5" timestamp="2024-07-13T20:21:40Z" changeset="153908058" uid="21683308" user="CurlConnoisseur">
    <nd ref="245500549"/>
    <nd ref="899323519"/>
    <nd ref="245500551"/>
    <nd ref="245500552"/>
    <nd ref="245500556"/>
    <nd ref="245500554"/>
    <nd ref="60271912"/>
    <tag k="highway" v="residential"/>
    <tag k="name" v="Koterovsk치"/>
    <tag k="source:name" v="nameit/uir-adr"/>
    <tag k="surface" v="asphalt"/>
  </way>
  <way id="22819144" version="6" timestamp="2024-07-13T20:21:23Z" changeset="153908058" uid="21683308" user="CurlConnoisseur">
    <nd ref="245500554"/>
    <nd ref="245500558"/>
    <nd ref="336778108"/>
    <nd ref="336778101"/>
    <tag k="highway" v="residential"/>
    <tag k="name" v="P콏칤dolsk치"/>
    <tag k="source:name" v="nameit/uir-adr"/>
    <tag k="surface" v="asphalt"/>
  </way>
  <way id="22819145" version="3" timestamp="2024-07-13T20:21:21Z" changeset="153908058" uid="21683308" user="CurlConnoisseur">
    <nd ref="245500558"/>
    <nd ref="60271920"/>
    <tag k="highway" v="residential"/>
    <tag k="name" v="Slatinov치"/>
    <tag k="surface" v="asphalt"/>
  </way>
  <way id="22819150" version="4" timestamp="2021-02-23T08:58:21Z" changeset="99807998" uid="6588887" user="Martin2035">
    <nd ref="245501198"/>
    <nd ref="245501199"/>
    <nd ref="245501201"/>
    <nd ref="245501203"/>
    <nd ref="245501205"/>
    <nd ref="245501207"/>
    <tag k="highway" v="residential"/>
    <tag k="maxspeed" v="20"/>
    <tag k="name" v="Na Manou코ce"/>
    <tag k="source:name" v="nameit/uir-adr"/>
  </way>
  <way id="22819151" version="7" timestamp="2021-07-02T08:02:57Z" changeset="107297163" uid="100163" user="Hlav">
    <nd ref="245501209"/>
    <nd ref="8887057292"/>
    <nd ref="245501198"/>
    <tag k="highway" v="residential"/>
    <tag k="name" v="Od 맒oly"/>
    <tag k="official_name" v="Od 코koly"/>
    <tag k="ref:ruian:street" v="489816"/>
  </way>
  <way id="22819153" version="9" timestamp="2020-12-25T20:17:56Z" changeset="96433922" uid="1189910" user="Milancer">
    <nd ref="2162328746"/>
    <nd ref="8260343798"/>
    <nd ref="245501209"/>
    <tag k="highway" v="residential"/>
    <tag k="name" v="Eichlerova"/>
    <tag k="source:name" v="nameit/uir-adr"/>
  </way>
  <way id="22819155" version="9" timestamp="2021-05-07T20:46:08Z" changeset="104340632" uid="6588887" user="Martin2035">
    <nd ref="1838433425"/>
    <nd ref="1838433420"/>
    <nd ref="245501227"/>
    <tag k="highway" v="residential"/>
    <tag k="maxspeed" v="30"/>
    <tag k="maxspeed:type" v="CZ:zone30"/>
    <tag k="maxspeed:zone" v="30"/>
    <tag k="name" v="Drahovsk치"/>
  </way>
  <way id="22819156" version="6" timestamp="2021-07-10T14:30:40Z" changeset="107750374" uid="2718770" user="noirre">
    <nd ref="245501214"/>
    <nd ref="8260343801"/>
    <nd ref="8909858053"/>
    <tag k="highway" v="residential"/>
    <tag k="name" v="콎ep칤kov치"/>
    <tag k="source:name" v="nameit/uir-adr"/>
  </way>
  <way id="22819157" version="5" timestamp="2021-05-07T20:46:08Z" changeset="104340632" uid="6588887" user="Martin2035">
    <nd ref="245501231"/>
    <nd ref="245501250"/>
    <nd ref="1044160075"/>
    <tag k="highway" v="residential"/>
    <tag k="maxspeed" v="30"/>
    <tag k="maxspeed:type" v="CZ:zone30"/>
    <tag k="maxspeed:zone" v="30"/>
    <tag k="name" v="캛ernovick치"/>
    <tag k="source:name" v="nameit/uir-adr"/>
  </way>
  <way id="22819158" version="10" timestamp="2021-05-07T20:46:08Z" changeset="104340632" uid="6588887" user="Martin2035">
    <nd ref="245501222"/>
    <nd ref="8260343807"/>
    <nd ref="1049088986"/>
    <nd ref="245501262"/>
    <tag k="highway" v="residential"/>
    <tag k="maxspeed" v="30"/>
    <tag k="maxspeed:type" v="CZ:zone30"/>
    <tag k="maxspeed:zone" v="30"/>
    <tag k="name" v="Konopova"/>
    <tag k="source:name" v="nameit/uir-adr"/>
  </way>
  <way id="22819159" version="8" timestamp="2021-07-18T09:55:39Z" changeset="108185993" uid="2718770" user="noirre">
    <nd ref="245501273"/>
    <nd ref="8930319806"/>
    <nd ref="245501274"/>
    <nd ref="245501224"/>
    <tag k="highway" v="residential"/>
    <tag k="maxspeed" v="30"/>
    <tag k="maxspeed:type" v="CZ:zone30"/>
    <tag k="maxspeed:zone" v="30"/>
    <tag k="name" v="Dra쬰novsk치"/>
    <tag k="source:name" v="nameit/uir-adr"/>
  </way>
  <way id="22819160" version="6" timestamp="2021-05-07T20:46:08Z" changeset="104340632" uid="6588887" user="Martin2035">
    <nd ref="245501262"/>
    <nd ref="245501268"/>
    <nd ref="245501273"/>
    <tag k="highway" v="residential"/>
    <tag k="maxspeed" v="30"/>
    <tag k="maxspeed:type" v="CZ:zone30"/>
    <tag k="maxspeed:zone" v="30"/>
    <tag k="name" v="Dra쬰novsk치"/>
    <tag k="source:name" v="nameit/uir-adr"/>
  </way>
  <way id="22819163" version="7" timestamp="2023-06-20T08:26:09Z" changeset="137550909" uid="231749" user="Eino81">
    <nd ref="245501823"/>
    <nd ref="8260343842"/>
    <nd ref="245501826"/>
    <tag k="highway" v="residential"/>
    <tag k="name" v="Ve V칳hledu"/>
    <tag k="source:name" v="nameit/uir-adr"/>
    <tag k="surface" v="asphalt"/>
  </way>
  <way id="22819164" version="10" timestamp="2024-12-17T14:40:00Z" changeset="160302829" uid="21660832" user="okmeow">
    <nd ref="245500077"/>
    <nd ref="1044125207"/>
    <nd ref="245501827"/>
    <nd ref="5018572429"/>
    <nd ref="245501829"/>
    <nd ref="1487788298"/>
    <nd ref="12376426071"/>
    <nd ref="1487788299"/>
    <nd ref="12287905615"/>
    <nd ref="12424891310"/>
    <nd ref="1487788301"/>
    <tag k="access" v="no"/>
    <tag k="bicycle" v="yes"/>
    <tag k="foot" v="yes"/>
    <tag k="highway" v="residential"/>
    <tag k="horse" v="yes"/>
    <tag k="lanes" v="2"/>
    <tag k="motor_vehicle" v="private"/>
    <tag k="name" v="Radou켿ova"/>
    <tag k="surface" v="asphalt"/>
  </way>
  <way id="22819172" version="8" timestamp="2024-07-21T18:45:55Z" changeset="154232335" uid="21683308" user="CurlConnoisseur">
    <nd ref="245500069"/>
    <nd ref="245500061"/>
    <nd ref="245500078"/>
    <nd ref="245500074"/>
    <nd ref="245502077"/>
    <nd ref="245502078"/>
    <nd ref="11080474901"/>
    <nd ref="245502080"/>
    <nd ref="519172801"/>
    <nd ref="519172800"/>
    <nd ref="519172799"/>
    <tag k="highway" v="residential"/>
    <tag k="lane_markings" v="no"/>
    <tag k="name" v="Na Vrchu"/>
    <tag k="source:name" v="nameit/uir-adr"/>
    <tag k="surface" v="asphalt"/>
  </way>
  <way id="22819173" version="9" timestamp="2022-08-06T19:48:56Z" changeset="124576116" uid="1189910" user="Milancer">
    <nd ref="21597605"/>
    <nd ref="9936126441"/>
    <tag k="access" v="destination"/>
    <tag k="bicycle" v="yes"/>
    <tag k="foot" v="yes"/>
    <tag k="highway" v="residential"/>
    <tag k="name" v="Ve V칳rech"/>
    <tag k="source:name" v="nameit/uir-adr"/>
    <tag k="surface" v="asphalt"/>
  </way>
  <way id="22819174" version="10" timestamp="2025-04-23T07:25:10Z" changeset="165316531" uid="15312507" user="POI Mapper">
    <nd ref="357706860"/>
    <nd ref="519172802"/>
    <nd ref="357706863"/>
    <nd ref="357706866"/>
    <nd ref="245502098"/>
    <nd ref="245502097"/>
    <nd ref="245502095"/>
    <nd ref="245502094"/>
    <nd ref="245502092"/>
    <nd ref="245502091"/>
    <tag k="access" v="destination"/>
    <tag k="bicycle" v="yes"/>
    <tag k="foot" v="yes"/>
    <tag k="highway" v="residential"/>
    <tag k="lane_markings" v="no"/>
    <tag k="lanes" v="2"/>
    <tag k="lit" v="yes"/>
    <tag k="motor_vehicle" v="destination"/>
    <tag k="name" v="Ve V칳rech"/>
    <tag k="sidewalk" v="no"/>
    <tag k="source:name" v="nameit/uir-adr"/>
    <tag k="surface" v="asphalt"/>
  </way>
  <way id="22819175" version="6" timestamp="2019-04-24T07:26:28Z" changeset="69514786" uid="1189910" user="Milancer">
    <nd ref="245502100"/>
    <nd ref="4972774630"/>
    <nd ref="245502101"/>
    <tag k="highway" v="residential"/>
    <tag k="name" v="Mr치kovsk치"/>
    <tag k="source:name" v="nameit/uir-adr"/>
  </way>
  <way id="29218541" version="7" timestamp="2019-04-24T06:45:02Z" changeset="69513702" uid="1189910" user="Milancer">
    <nd ref="321379274"/>
    <nd ref="321379275"/>
    <nd ref="321379279"/>
    <tag k="highway" v="residential"/>
  </way>
  <way id="29218542" version="12" timestamp="2022-12-29T08:26:27Z" changeset="130632629" uid="10881771" user="Vokoun">
    <nd ref="321379289"/>
    <nd ref="321379291"/>
    <nd ref="2964197653"/>
    <nd ref="321379292"/>
    <nd ref="321379293"/>
    <nd ref="321379294"/>
    <nd ref="321379295"/>
    <nd ref="2960616997"/>
    <nd ref="321379296"/>
    <nd ref="321379297"/>
    <nd ref="6196355999"/>
    <nd ref="321379298"/>
    <tag k="access" v="permissive"/>
    <tag k="bicycle" v="permissive"/>
    <tag k="foot" v="yes"/>
    <tag k="goods" v="yes"/>
    <tag k="hgv" v="no"/>
    <tag k="highway" v="unclassified"/>
    <tag k="lane_markings" v="no"/>
    <tag k="motorcar" v="permissive"/>
    <tag k="motorcycle" v="permissive"/>
    <tag k="psv" v="yes"/>
    <tag k="sidewalk" v="no"/>
    <tag k="surface" v="asphalt"/>
  </way>
  <way id="30510655" version="6" timestamp="2023-12-13T07:18:39Z" changeset="145063170" uid="20373864" user="Pete24">
    <nd ref="336778127"/>
    <nd ref="3024776836"/>
    <nd ref="336778132"/>
    <tag k="highway" v="residential"/>
    <tag k="lane_markings" v="no"/>
    <tag k="motor_vehicle" v="destination"/>
    <tag k="name" v="D캩len치"/>
    <tag k="source" v="cuzk:km"/>
    <tag k="surface" v="asphalt"/>
  </way>
  <way id="30510656" version="10" timestamp="2021-02-23T08:58:21Z" changeset="99807998" uid="6588887" user="Martin2035">
    <nd ref="336778140"/>
    <nd ref="5018465323"/>
    <nd ref="3024750651"/>
    <nd ref="3024776849"/>
    <nd ref="336778144"/>
    <nd ref="5018462308"/>
    <nd ref="4346958505"/>
    <nd ref="5018462312"/>
    <nd ref="4346958506"/>
    <nd ref="5018462317"/>
    <nd ref="5018462314"/>
    <nd ref="5018462313"/>
    <nd ref="4346958507"/>
    <nd ref="4346958508"/>
    <tag k="highway" v="residential"/>
    <tag k="maxspeed" v="30"/>
    <tag k="motor_vehicle" v="destination"/>
    <tag k="name" v="Kakosova"/>
    <tag k="source" v="cuzk:km"/>
    <tag k="surface" v="asphalt"/>
  </way>
  <way id="30954287" version="13" timestamp="2025-02-24T23:09:24Z" changeset="162911400" uid="22521062" user="Honza 游땙">
    <nd ref="346244052"/>
    <nd ref="344184510"/>
    <tag k="highway" v="secondary"/>
    <tag k="maxspeed" v="70"/>
    <tag k="name" v="Poncarova"/>
    <tag k="oneway" v="yes"/>
    <tag k="sidewalk:left" v="no"/>
    <tag k="sidewalk:right" v="separate"/>
    <tag k="source:maxspeed" v="sign"/>
    <tag k="surface" v="asphalt"/>
  </way>
  <way id="31137214" version="8" timestamp="2022-08-06T19:48:56Z" changeset="124576116" uid="1189910" user="Milancer">
    <nd ref="346244030"/>
    <nd ref="1419597186"/>
    <tag k="highway" v="unclassified"/>
    <tag k="name" v="Muzikova"/>
  </way>
  <way id="31148769" version="6" timestamp="2022-12-30T11:43:01Z" changeset="130683014" uid="3516" user="BiIbo">
    <nd ref="245499072"/>
    <nd ref="4097892512"/>
    <tag k="highway" v="residential"/>
    <tag k="layer" v="1"/>
    <tag k="name" v="Ml치dkova"/>
    <tag k="surface" v="asphalt"/>
  </way>
  <way id="31148770" version="11" timestamp="2024-01-31T09:51:45Z" changeset="146896594" uid="718054" user="Piskvor">
    <nd ref="7294414"/>
    <nd ref="11572347296"/>
    <nd ref="245499080"/>
    <nd ref="519172786"/>
    <nd ref="245499079"/>
    <nd ref="25927233"/>
    <nd ref="1776173731"/>
    <nd ref="25927237"/>
    <nd ref="3030478771"/>
    <nd ref="25927238"/>
    <nd ref="3030478769"/>
    <nd ref="25927240"/>
    <tag k="highway" v="residential"/>
    <tag k="name" v="KHol칠mu vrchu"/>
    <tag k="surface" v="asphalt"/>
  </way>
  <way id="31793361" version="12" timestamp="2024-11-26T14:53:27Z" changeset="159620451" uid="21660832" user="okmeow">
    <nd ref="245500075"/>
    <nd ref="60271639"/>
    <nd ref="60271640"/>
    <nd ref="12376426083"/>
    <nd ref="60271641"/>
    <nd ref="5018572426"/>
    <nd ref="60271642"/>
    <nd ref="5018572427"/>
    <nd ref="60271644"/>
    <nd ref="5018572432"/>
    <nd ref="60271654"/>
    <nd ref="1487788302"/>
    <tag k="highway" v="tertiary"/>
    <tag k="name" v="J치chymovsk치"/>
    <tag k="surface" v="asphalt"/>
  </way>
  <way id="31793362" version="2" timestamp="2019-04-19T09:47:54Z" changeset="69371281" uid="665336" user="Minimalis">
    <nd ref="355933836"/>
    <nd ref="6415878023"/>
    <nd ref="60271624"/>
    <tag k="highway" v="residential"/>
    <tag k="name" v="Ke Zdravotn칤mu st콏edisku"/>
    <tag k="official_name" v="Ke zdravotn칤mu st콏edisku"/>
    <tag k="ref:ruian:street" v="500291"/>
    <tag k="source" v="uhul:ortofoto"/>
  </way>
  <way id="31793363" version="12" timestamp="2024-11-26T14:53:27Z" changeset="159620451" uid="21660832" user="okmeow">
    <nd ref="60271624"/>
    <nd ref="1181364126"/>
    <nd ref="8448669628"/>
    <nd ref="8986054561"/>
    <nd ref="355933837"/>
    <nd ref="3027388048"/>
    <nd ref="60271627"/>
    <nd ref="12042577935"/>
    <nd ref="6415878020"/>
    <nd ref="6415878021"/>
    <nd ref="12376426086"/>
    <nd ref="60271634"/>
    <nd ref="60271638"/>
    <nd ref="11985485092"/>
    <nd ref="245500075"/>
    <tag k="highway" v="tertiary"/>
    <tag k="name" v="J치chymovsk치"/>
    <tag k="source" v="uhul:ortofoto"/>
    <tag k="surface" v="asphalt"/>
  </way>
  <way id="31929132" version="12" timestamp="2022-12-30T11:43:02Z" changeset="130683014" uid="3516" user="BiIbo">
    <nd ref="519134367"/>
    <nd ref="346535003"/>
    <nd ref="346535004"/>
    <nd ref="1305592001"/>
    <nd ref="346535005"/>
    <tag k="highway" v="residential"/>
    <tag k="maxspeed" v="30"/>
    <tag k="name" v="Ml치dkova"/>
    <tag k="source:maxspeed" v="sign"/>
    <tag k="surface" v="asphalt"/>
  </way>
  <way id="31929133" version="4" timestamp="2022-12-30T11:41:28Z" changeset="130683014" uid="3516" user="BiIbo">
    <nd ref="245500108"/>
    <nd ref="245499061"/>
    <tag k="bridge" v="yes"/>
    <tag k="highway" v="residential"/>
    <tag k="layer" v="1"/>
    <tag k="maxweight:signed" v="no"/>
    <tag k="name" v="KChaloupce"/>
    <tag k="source:name" v="nameit/uir-adr"/>
    <tag k="surface" v="asphalt"/>
  </way>
  <way id="31929137" version="6" timestamp="2022-12-25T16:30:33Z" changeset="130487766" uid="10881771" user="Vokoun">
    <nd ref="21597000"/>
    <nd ref="357703719"/>
    <nd ref="357703721"/>
    <tag k="cycleway:right" v="no"/>
    <tag k="highway" v="tertiary_link"/>
    <tag k="lanes" v="1"/>
    <tag k="name" v="콎eporyjsk칠 n치m캩st칤"/>
    <tag k="oneway" v="yes"/>
    <tag k="surface" v="asphalt"/>
  </way>
  <way id="31929138" version="13" timestamp="2024-01-23T21:59:38Z" changeset="146609941" uid="469828" user="Luk치코 Jel칤nek">
    <nd ref="21597002"/>
    <nd ref="1045021532"/>
    <nd ref="11544687715"/>
    <nd ref="21597003"/>
    <tag k="highway" v="tertiary"/>
    <tag k="lanes" v="2"/>
    <tag k="name" v="콎eporyjsk칠 n치m캩st칤"/>
    <tag k="sidewalk:both" v="separate"/>
    <tag k="surface" v="asphalt"/>
  </way>
  <way id="31929139" version="7" timestamp="2022-12-30T11:41:29Z" changeset="130682952" uid="3516" user="BiIbo">
    <nd ref="7294404"/>
    <nd ref="519172789"/>
    <nd ref="245499065"/>
    <nd ref="245499067"/>
    <nd ref="3030478783"/>
    <nd ref="7294409"/>
    <nd ref="519172787"/>
    <nd ref="245499069"/>
    <nd ref="519172788"/>
    <nd ref="245499070"/>
    <nd ref="245499072"/>
    <tag k="highway" v="tertiary"/>
    <tag k="lanes" v="2"/>
    <tag k="name" v="Dalejsk치"/>
    <tag k="surface" v="asphalt"/>
  </way>
  <way id="31929161" version="6" timestamp="2025-04-23T07:16:05Z" changeset="165316531" uid="15312507" user="POI Mapper">
    <nd ref="357705916"/>
    <nd ref="357705919"/>
    <tag k="bridge" v="yes"/>
    <tag k="highway" v="tertiary"/>
    <tag k="lanes" v="2"/>
    <tag k="layer" v="1"/>
    <tag k="maxweightrating" v="3.5"/>
    <tag k="name" v="K T콏ebonic콢m"/>
    <tag k="surface" v="asphalt"/>
  </way>
  <way id="32845552" version="9" timestamp="2024-07-04T11:19:22Z" changeset="153541642" uid="10932047" user="AF HAF KARTOGRAF">
    <nd ref="370012246"/>
    <nd ref="370012247"/>
    <nd ref="370012249"/>
    <nd ref="370012252"/>
    <nd ref="4534038997"/>
    <nd ref="370012254"/>
    <nd ref="370012255"/>
    <nd ref="370012257"/>
    <nd ref="370012260"/>
    <nd ref="370012262"/>
    <nd ref="4534038996"/>
    <nd ref="370012265"/>
    <nd ref="370012268"/>
    <nd ref="370012269"/>
    <nd ref="370012271"/>
    <nd ref="370012274"/>
    <nd ref="4534038995"/>
    <nd ref="370012276"/>
    <nd ref="4534038994"/>
    <nd ref="370012278"/>
    <nd ref="370012279"/>
    <nd ref="370012280"/>
    <nd ref="4534038993"/>
    <nd ref="7504707481"/>
    <nd ref="370012237"/>
    <nd ref="1045213002"/>
    <nd ref="370012239"/>
    <nd ref="1045210557"/>
    <nd ref="4534038992"/>
    <nd ref="4534038991"/>
    <nd ref="370012241"/>
    <nd ref="370012244"/>
    <nd ref="4534038990"/>
    <nd ref="4534038989"/>
    <nd ref="370012246"/>
    <tag k="amenity" v="place_of_worship"/>
    <tag k="building" v="civic"/>
    <tag k="building:ruian:type" v="5"/>
    <tag k="name" v="svat칤 Petr a Pavel"/>
    <tag k="ref:ruian:building" v="40476073"/>
    <tag k="religion" v="christian"/>
    <tag k="source" v="cuzk:ruian"/>
    <tag k="wikidata" v="Q29269837"/>
    <tag k="wikipedia" v="cs:Kostel svat칠ho Petra a Pavla (콎eporyje)"/>
  </way>
  <way id="32845962" version="8" timestamp="2021-08-15T02:39:32Z" changeset="109686873" uid="3003739" user="r00tcz">
    <nd ref="357703721"/>
    <nd ref="21596998"/>
    <tag k="highway" v="tertiary"/>
    <tag k="lanes" v="2"/>
    <tag k="name" v="콎eporyjsk칠 n치m캩st칤"/>
    <tag k="source" v="Yahoo"/>
    <tag k="surface" v="asphalt"/>
  </way>
  <way id="32845963" version="10" timestamp="2022-12-29T08:25:07Z" changeset="130632629" uid="10881771" user="Vokoun">
    <nd ref="21597000"/>
    <nd ref="346244014"/>
    <nd ref="519172790"/>
    <tag k="highway" v="tertiary"/>
    <tag k="lanes" v="2"/>
    <tag k="name" v="콎eporyjsk칠 n치m캩st칤"/>
    <tag k="sidewalk:both" v="separate"/>
    <tag k="smoothness" v="excellent"/>
    <tag k="surface" v="asphalt"/>
  </way>
  <way id="32845964" version="19" timestamp="2024-01-23T21:59:38Z" changeset="146609941" uid="469828" user="Luk치코 Jel칤nek">
    <nd ref="60271624"/>
    <nd ref="4057203580"/>
    <nd ref="1181364195"/>
    <nd ref="8448669627"/>
    <nd ref="11544687721"/>
    <nd ref="11544687722"/>
    <nd ref="21597596"/>
    <nd ref="11544687723"/>
    <nd ref="60271859"/>
    <nd ref="11544687725"/>
    <nd ref="11544687726"/>
    <nd ref="21597595"/>
    <nd ref="1181364182"/>
    <nd ref="8448669636"/>
    <nd ref="703090"/>
    <nd ref="243289604"/>
    <nd ref="21597597"/>
    <nd ref="9650694494"/>
    <nd ref="1181364026"/>
    <nd ref="60272116"/>
    <nd ref="336778132"/>
    <nd ref="5018463020"/>
    <nd ref="243289601"/>
    <nd ref="21597598"/>
    <nd ref="5018465322"/>
    <nd ref="703091"/>
    <nd ref="1043921054"/>
    <nd ref="8958016939"/>
    <nd ref="1043920254"/>
    <nd ref="3024796178"/>
    <nd ref="346231504"/>
    <nd ref="1043920786"/>
    <nd ref="346231555"/>
    <nd ref="1181364012"/>
    <nd ref="1043920202"/>
    <nd ref="11381017102"/>
    <nd ref="243289289"/>
    <tag k="highway" v="tertiary"/>
    <tag k="lanes" v="2"/>
    <tag k="maxspeed" v="30"/>
    <tag k="name" v="Sm칤chovsk치"/>
    <tag k="smoothness" v="good"/>
    <tag k="surface" v="asphalt"/>
  </way>
  <way id="32942192" version="14" timestamp="2024-01-31T09:51:45Z" changeset="146896594" uid="718054" user="Piskvor">
    <nd ref="245499072"/>
    <nd ref="3030478781"/>
    <nd ref="519172783"/>
    <nd ref="7294414"/>
    <tag k="hgv" v="destination"/>
    <tag k="highway" v="tertiary"/>
    <tag k="maxheight" v="default"/>
    <tag k="priority" v="forward"/>
    <tag k="surface" v="asphalt"/>
  </way>
  <way id="32942311" version="10" timestamp="2022-12-25T16:30:45Z" changeset="130487766" uid="10881771" user="Vokoun">
    <nd ref="21596998"/>
    <nd ref="8693872933"/>
    <nd ref="21597000"/>
    <tag k="cycleway:both" v="no"/>
    <tag k="highway" v="tertiary"/>
    <tag k="lanes" v="2"/>
    <tag k="name" v="콎eporyjsk칠 n치m캩st칤"/>
    <tag k="surface" v="asphalt"/>
  </way>
  <way id="36888170" version="10" timestamp="2022-12-29T08:25:19Z" changeset="130632629" uid="10881771" user="Vokoun">
    <nd ref="21596999"/>
    <nd ref="357703721"/>
    <tag k="highway" v="tertiary"/>
    <tag k="lanes" v="2"/>
    <tag k="name" v="Nad N치m캩st칤m"/>
    <tag k="sidewalk:both" v="separate"/>
    <tag k="source" v="Yahoo"/>
    <tag k="surface" v="asphalt"/>
  </way>
  <way id="36913194" version="5" timestamp="2022-12-29T08:25:35Z" changeset="130632629" uid="10881771" user="Vokoun">
    <nd ref="429301204"/>
    <nd ref="7504718903"/>
    <nd ref="429301205"/>
    <nd ref="429301206"/>
    <nd ref="429301207"/>
    <nd ref="429301209"/>
    <nd ref="6415878029"/>
    <nd ref="6415878028"/>
    <nd ref="429301211"/>
    <tag k="highway" v="residential"/>
    <tag k="name" v="Na Tr쬴코ti"/>
    <tag k="official_name" v="Na tr쬴코ti"/>
    <tag k="ref:ruian:street" v="500275"/>
    <tag k="sidewalk" v="no"/>
    <tag k="surface" v="paved"/>
    <tag k="width" v="15"/>
  </way>
  <way id="36913195" version="9" timestamp="2024-01-09T07:15:45Z" changeset="146054212" uid="20373864" user="Pete24">
    <nd ref="429301211"/>
    <nd ref="429573151"/>
    <nd ref="429301212"/>
    <nd ref="7404633725"/>
    <nd ref="7504718897"/>
    <nd ref="429301215"/>
    <tag k="highway" v="residential"/>
    <tag k="lane_markings" v="no"/>
    <tag k="name" v="KTr쬴코ti"/>
    <tag k="official_name" v="K tr쬴코ti"/>
    <tag k="ref:ruian:street" v="489824"/>
    <tag k="surface" v="asphalt"/>
    <tag k="width" v="5"/>
  </way>
  <way id="36913196" version="11" timestamp="2024-09-21T07:32:15Z" changeset="156898972" uid="335143" user="Bogomil Shopov - 햄쮏">
    <nd ref="429301217"/>
    <nd ref="429301218"/>
    <nd ref="429301219"/>
    <nd ref="6415879289"/>
    <nd ref="7603402652"/>
    <nd ref="1045208430"/>
    <nd ref="7603402643"/>
    <nd ref="7504718826"/>
    <nd ref="429301221"/>
    <nd ref="6415879290"/>
    <nd ref="429301222"/>
    <nd ref="6415879291"/>
    <nd ref="6415879292"/>
    <nd ref="429301223"/>
    <nd ref="7603402658"/>
    <nd ref="429301225"/>
    <nd ref="429301226"/>
    <nd ref="429301227"/>
    <nd ref="429301228"/>
    <nd ref="429301229"/>
    <nd ref="8618597132"/>
    <nd ref="429301230"/>
    <nd ref="1045209312"/>
    <nd ref="1045210025"/>
    <nd ref="6415879293"/>
    <nd ref="429301231"/>
    <nd ref="6415879294"/>
    <nd ref="429301232"/>
    <nd ref="429301233"/>
    <nd ref="429301234"/>
    <nd ref="429301236"/>
    <nd ref="2987527558"/>
    <nd ref="429301238"/>
    <nd ref="429301239"/>
    <nd ref="429301241"/>
    <nd ref="6415879295"/>
    <nd ref="429301243"/>
    <tag k="cutting" v="no"/>
    <tag k="highway" v="residential"/>
    <tag k="name" v="T캩lov칳chovn치"/>
    <tag k="surface" v="asphalt"/>
  </way>
  <way id="36917216" version="5" timestamp="2021-08-15T00:37:05Z" changeset="109685811" uid="3003739" user="r00tcz">
    <nd ref="429337705"/>
    <nd ref="429337814"/>
    <nd ref="429337707"/>
    <nd ref="429337708"/>
    <nd ref="429337709"/>
    <nd ref="429337710"/>
    <nd ref="429337711"/>
    <nd ref="429337712"/>
    <nd ref="429337713"/>
    <nd ref="6415878084"/>
    <nd ref="429337714"/>
    <nd ref="429337715"/>
    <nd ref="429337716"/>
    <nd ref="429337717"/>
    <nd ref="429337718"/>
    <nd ref="429337719"/>
    <nd ref="429337721"/>
    <tag k="highway" v="residential"/>
    <tag k="lit" v="no"/>
    <tag k="name" v="Pod Zahr치dkami"/>
    <tag k="official_name" v="Pod zahr치dkami"/>
    <tag k="surface" v="asphalt"/>
  </way>
  <way id="36941592" version="4" timestamp="2019-04-19T09:47:55Z" changeset="69371281" uid="665336" user="Minimalis">
    <nd ref="429573151"/>
    <nd ref="429573155"/>
    <nd ref="429573157"/>
    <nd ref="429573158"/>
    <nd ref="429575140"/>
    <tag k="highway" v="residential"/>
    <tag k="name" v="KTr쬴코ti"/>
    <tag k="official_name" v="K tr쬴코ti"/>
    <tag k="ref:ruian:street" v="489824"/>
    <tag k="surface" v="unpaved"/>
  </way>
  <way id="36941794" version="4" timestamp="2019-04-19T09:47:55Z" changeset="69371281" uid="665336" user="Minimalis">
    <nd ref="429575140"/>
    <nd ref="429573161"/>
    <tag k="bridge" v="yes"/>
    <tag k="highway" v="residential"/>
    <tag k="layer" v="1"/>
    <tag k="name" v="KTr쬴코ti"/>
    <tag k="official_name" v="K tr쬴코ti"/>
    <tag k="ref:ruian:street" v="489824"/>
    <tag k="surface" v="unpaved"/>
  </way>
  <way id="41921811" version="5" timestamp="2024-01-31T09:51:45Z" changeset="146896594" uid="718054" user="Piskvor">
    <nd ref="519134365"/>
    <nd ref="519134367"/>
    <tag k="bridge" v="yes"/>
    <tag k="bridge:structure" v="beam"/>
    <tag k="highway" v="residential"/>
    <tag k="layer" v="1"/>
    <tag k="maxweight:signed" v="no"/>
    <tag k="name" v="Ml치dkova"/>
    <tag k="surface" v="asphalt"/>
  </way>
  <way id="41923565" version="4" timestamp="2017-07-15T21:38:10Z" changeset="50314478" uid="665336" user="Minimalis">
    <nd ref="519172791"/>
    <nd ref="21597603"/>
    <nd ref="519172797"/>
    <tag k="highway" v="tertiary"/>
    <tag k="name" v="K T콏ebonic콢m"/>
    <tag k="surface" v="asphalt"/>
  </way>
  <way id="41923567" version="7" timestamp="2022-08-06T19:48:56Z" changeset="124576116" uid="1189910" user="Milancer">
    <nd ref="519172797"/>
    <nd ref="9936126438"/>
    <nd ref="519172798"/>
    <nd ref="21597605"/>
    <tag k="highway" v="tertiary"/>
    <tag k="name" v="K T콏ebonic콢m"/>
    <tag k="surface" v="asphalt"/>
  </way>
  <way id="41923568" version="5" timestamp="2025-04-23T07:15:40Z" changeset="165316531" uid="15312507" user="POI Mapper">
    <nd ref="21597605"/>
    <nd ref="357705916"/>
    <tag k="highway" v="tertiary"/>
    <tag k="lane_markings" v="no"/>
    <tag k="name" v="K T콏ebonic콢m"/>
    <tag k="surface" v="asphalt"/>
  </way>
  <way id="76233710" version="4" timestamp="2019-04-24T07:27:26Z" changeset="69514786" uid="1189910" user="Milancer">
    <nd ref="245500538"/>
    <nd ref="245500540"/>
    <nd ref="245500541"/>
    <nd ref="321379298"/>
    <tag k="highway" v="residential"/>
    <tag k="name" v="Koterovsk치"/>
    <tag k="source:name" v="nameit/uir-adr"/>
  </way>
  <way id="76233715" version="6" timestamp="2024-01-25T11:50:54Z" changeset="146670378" uid="10932047" user="AF HAF KARTOGRAF">
    <nd ref="60271904"/>
    <nd ref="60271912"/>
    <nd ref="60271920"/>
    <nd ref="9650726572"/>
    <nd ref="60271937"/>
    <nd ref="336778111"/>
    <nd ref="60271944"/>
    <nd ref="60271978"/>
    <nd ref="1044123011"/>
    <nd ref="1983617216"/>
    <nd ref="703091"/>
    <tag k="highway" v="residential"/>
    <tag k="name" v="K Velk칠 Ohrad캩"/>
    <tag k="official_name" v="K Velk칠 Ohrad캩"/>
    <tag k="ref:ruian:street" v="489671"/>
  </way>
  <way id="78863656" version="5" timestamp="2017-05-01T17:10:28Z" changeset="48311864" uid="3898588" user="sarimak">
    <nd ref="344184510"/>
    <nd ref="344182022"/>
    <tag k="highway" v="tertiary_link"/>
    <tag k="source" v="cuzk:km"/>
    <tag k="surface" v="asphalt"/>
  </way>
  <way id="78863658" version="10" timestamp="2024-07-08T22:24:09Z" changeset="153723008" uid="25867" user="adamos">
    <nd ref="2395103501"/>
    <nd ref="12042577938"/>
    <nd ref="12042577939"/>
    <nd ref="243486290"/>
    <tag k="access" v="no"/>
    <tag k="highway" v="unclassified"/>
    <tag k="layer" v="-1"/>
  </way>
  <way id="90084265" version="4" timestamp="2021-08-06T15:13:46Z" changeset="109268927" uid="2718770" user="noirre">
    <nd ref="1044127308"/>
    <nd ref="1044126035"/>
    <nd ref="4538260941"/>
    <nd ref="4538260940"/>
    <nd ref="8986054534"/>
    <nd ref="4538260939"/>
    <nd ref="4538260938"/>
    <nd ref="1044122592"/>
    <nd ref="8986048784"/>
    <nd ref="8986048787"/>
    <nd ref="1044124257"/>
    <nd ref="1044127308"/>
    <tag k="building" v="civic"/>
    <tag k="building:flats" v="1"/>
    <tag k="building:levels" v="1"/>
    <tag k="building:ruian:type" v="5"/>
    <tag k="name" v="Sokol 콎eporyje"/>
    <tag k="ref:ruian:building" v="21561460"/>
    <tag k="source" v="cuzk:ruian"/>
  </way>
  <way id="90084281" version="7" timestamp="2024-12-17T14:40:00Z" changeset="160302829" uid="21660832" user="okmeow">
    <nd ref="1044123551"/>
    <nd ref="12424891309"/>
    <nd ref="2142808450"/>
    <nd ref="1044125207"/>
    <tag k="bicycle" v="yes"/>
    <tag k="foot" v="yes"/>
    <tag k="highway" v="residential"/>
    <tag k="horse" v="yes"/>
    <tag k="lanes" v="2"/>
    <tag k="motor_vehicle" v="private"/>
    <tag k="name" v="Jind콏icha Jind콏icha"/>
    <tag k="surface" v="asphalt"/>
  </way>
  <way id="90142648" version="3" timestamp="2021-08-06T15:13:46Z" changeset="109268927" uid="2718770" user="noirre">
    <nd ref="1045015597"/>
    <nd ref="4538260949"/>
    <nd ref="4538260948"/>
    <nd ref="4538260947"/>
    <nd ref="4538260946"/>
    <nd ref="1045024809"/>
    <nd ref="1045017875"/>
    <nd ref="4538260945"/>
    <nd ref="4538260944"/>
    <nd ref="8986054541"/>
    <nd ref="8986054559"/>
    <nd ref="8986054542"/>
    <nd ref="4538260943"/>
    <nd ref="4538260942"/>
    <nd ref="1045022519"/>
    <nd ref="1045015597"/>
    <tag k="building" v="school"/>
    <tag k="building:levels" v="1"/>
    <tag k="building:ruian:type" v="5"/>
    <tag k="name" v="SZU"/>
    <tag k="ref:ruian:building" v="21557331"/>
    <tag k="source" v="cuzk:ruian"/>
  </way>
  <way id="90142729" version="3" timestamp="2017-04-15T07:55:45Z" changeset="47805928" uid="3898588" user="sarimak">
    <nd ref="1045017234"/>
    <nd ref="1045020693"/>
    <nd ref="1045016672"/>
    <nd ref="1045017966"/>
    <nd ref="1045024384"/>
    <tag k="highway" v="residential"/>
    <tag k="name" v="U Hlin칤ku"/>
    <tag k="source" v="bing:ortofoto"/>
    <tag k="surface" v="asphalt"/>
  </way>
  <way id="90142860" version="5" timestamp="2021-09-10T11:14:45Z" changeset="111018298" uid="25867" user="adamos">
    <nd ref="1045023264"/>
    <nd ref="1045016227"/>
    <nd ref="1045015585"/>
    <nd ref="9079207518"/>
    <nd ref="9079207517"/>
    <nd ref="4538260773"/>
    <nd ref="7927731015"/>
    <nd ref="9079207516"/>
    <nd ref="9079207515"/>
    <nd ref="9079207514"/>
    <nd ref="9079207513"/>
    <nd ref="4538260772"/>
    <nd ref="1045020130"/>
    <nd ref="7927731016"/>
    <nd ref="9079207512"/>
    <nd ref="9079207511"/>
    <nd ref="1045023264"/>
    <tag k="addr:conscriptionnumber" v="1289"/>
    <tag k="addr:housenumber" v="1289/8"/>
    <tag k="addr:place" v="콎eporyje"/>
    <tag k="addr:postcode" v="15500"/>
    <tag k="addr:street" v="Libe캜kova"/>
    <tag k="addr:streetnumber" v="8"/>
    <tag k="building" v="residential"/>
    <tag k="building:flats" v="1"/>
    <tag k="building:levels" v="3"/>
    <tag k="building:ruian:type" v="7"/>
    <tag k="ref:ruian:addr" v="80915264"/>
    <tag k="ref:ruian:building" v="101719353"/>
    <tag k="source" v="cuzk:ruian"/>
    <tag k="start_date" v="2020-05-15"/>
  </way>
  <way id="90146839" version="1" timestamp="2010-12-18T14:34:51Z" changeset="6696298" uid="17615" user="Petr Dlouh칳">
    <nd ref="245500552"/>
    <nd ref="1045095978"/>
    <tag k="highway" v="residential"/>
  </way>
  <way id="90157736" version="3" timestamp="2021-07-18T10:15:08Z" changeset="108186641" uid="2718770" user="noirre">
    <nd ref="1045208589"/>
    <nd ref="1045209404"/>
    <nd ref="1045208052"/>
    <nd ref="1045209001"/>
    <nd ref="1045208589"/>
    <tag k="building" v="hotel"/>
    <tag k="building:levels" v="1"/>
    <tag k="building:ruian:type" v="11"/>
    <tag k="name" v="U Sila"/>
    <tag k="ref:ruian:building" v="21563578"/>
    <tag k="source" v="cuzk:ruian"/>
  </way>
  <way id="90157817" version="4" timestamp="2019-04-24T06:45:51Z" changeset="69513702" uid="1189910" user="Milancer">
    <nd ref="321379289"/>
    <nd ref="245499058"/>
    <nd ref="245499059"/>
    <nd ref="3030478791"/>
    <nd ref="357703716"/>
    <tag k="highway" v="residential"/>
    <tag k="name" v="Ebrova"/>
    <tag k="source:name" v="nameit/uir-adr"/>
  </way>
  <way id="90157881" version="4" timestamp="2020-06-08T17:58:00Z" changeset="86366569" uid="4054181" user="Richard Janda">
    <nd ref="1045206689"/>
    <nd ref="1045208359"/>
    <nd ref="3030478793"/>
    <nd ref="7603402680"/>
    <nd ref="1045208897"/>
    <tag k="highway" v="residential"/>
    <tag k="name" v="Nejdkova"/>
  </way>
  <way id="90238736" version="5" timestamp="2022-12-01T09:50:56Z" changeset="129595009" uid="25867" user="adamos">
    <nd ref="4534039364"/>
    <nd ref="4534039363"/>
    <nd ref="1046254245"/>
    <nd ref="1046251914"/>
    <nd ref="4534039362"/>
    <nd ref="1046252296"/>
    <nd ref="4534039361"/>
    <nd ref="1046252151"/>
    <nd ref="4534039364"/>
    <tag k="building" v="school"/>
    <tag k="building:levels" v="2"/>
    <tag k="building:ruian:type" v="15"/>
    <tag k="name" v="J칤delna"/>
    <tag k="ref:ruian:building" v="21561672"/>
    <tag k="source" v="cuzk:ruian"/>
    <tag k="start_date" v="2020-09-30"/>
  </way>
  <way id="90238745" version="5" timestamp="2021-09-13T09:39:13Z" changeset="111134107" uid="1558400" user="Kudej">
    <nd ref="4538307343"/>
    <nd ref="4538307342"/>
    <nd ref="4538307341"/>
    <nd ref="4538307340"/>
    <nd ref="1046253063"/>
    <nd ref="1046252928"/>
    <nd ref="1046252232"/>
    <nd ref="4538307339"/>
    <nd ref="4538307338"/>
    <nd ref="4538307337"/>
    <nd ref="4538307336"/>
    <nd ref="4538307335"/>
    <nd ref="4538307334"/>
    <nd ref="4538307333"/>
    <nd ref="4538307332"/>
    <nd ref="4538307331"/>
    <nd ref="4538307330"/>
    <nd ref="4538307343"/>
    <tag k="building" v="ruins"/>
    <tag k="building:levels" v="1"/>
    <tag k="building:ruian:type" v="3"/>
    <tag k="name" v="Trune캜k콢v ml칳n"/>
    <tag k="ref:ruian:building" v="21556814"/>
    <tag k="source" v="cuzk:ruian"/>
    <tag k="wikidata" v="Q61717404"/>
    <tag k="wikipedia" v="cs:Trune캜k콢v ml칳n"/>
  </way>
  <way id="90238748" version="5" timestamp="2022-12-01T09:50:56Z" changeset="129595009" uid="25867" user="adamos">
    <nd ref="1046252910"/>
    <nd ref="1046253264"/>
    <nd ref="4534039348"/>
    <nd ref="4534039347"/>
    <nd ref="1046252600"/>
    <nd ref="1046252438"/>
    <nd ref="1046252882"/>
    <nd ref="1046253235"/>
    <nd ref="1046253668"/>
    <nd ref="1046253453"/>
    <nd ref="1046253908"/>
    <nd ref="1046254331"/>
    <nd ref="1046254470"/>
    <nd ref="1046252212"/>
    <nd ref="1046252620"/>
    <nd ref="1046253036"/>
    <nd ref="1046252910"/>
    <tag k="building" v="civic"/>
    <tag k="building:flats" v="1"/>
    <tag k="building:levels" v="1"/>
    <tag k="building:ruian:type" v="15"/>
    <tag k="name" v="Mate콏sk치 코kola"/>
    <tag k="ref:ruian:building" v="21563063"/>
    <tag k="roof:shape" v="gabled"/>
    <tag k="source" v="cuzk:ruian"/>
  </way>
  <way id="90238769" version="5" timestamp="2019-04-13T12:14:32Z" changeset="69175279" uid="9529908" user="Zbyn캩k Vacek">
    <nd ref="1046251957"/>
    <nd ref="1046252168"/>
    <nd ref="1046253185"/>
    <nd ref="1046253628"/>
    <nd ref="1046254056"/>
    <nd ref="1046253856"/>
    <nd ref="1046254305"/>
    <nd ref="1046251953"/>
    <nd ref="1046252997"/>
    <nd ref="1046253410"/>
    <nd ref="1046254435"/>
    <nd ref="1046251957"/>
    <tag k="building" v="ruins"/>
    <tag k="name" v="B칳v. v치penka Biskup, Kvis &amp; Kotrba"/>
    <tag k="source" v="cuzk:km"/>
  </way>
  <way id="90430613" version="6" timestamp="2021-08-14T16:32:02Z" changeset="109676280" uid="3003739" user="r00tcz">
    <nd ref="25927133"/>
    <nd ref="25927135"/>
    <nd ref="8929121084"/>
    <tag k="highway" v="residential"/>
    <tag k="lit" v="yes"/>
    <tag k="name" v="KZ치v캩tin치m"/>
    <tag k="source" v="bing:ortofoto"/>
    <tag k="source:name" v="nameit/uir-adr"/>
    <tag k="surface" v="asphalt"/>
  </way>
  <way id="90433936" version="4" timestamp="2024-07-04T11:19:22Z" changeset="153541642" uid="10932047" user="AF HAF KARTOGRAF">
    <nd ref="12033226565"/>
    <nd ref="12033226564"/>
    <nd ref="1049089058"/>
    <nd ref="1049087389"/>
    <nd ref="4534040721"/>
    <nd ref="4534040720"/>
    <nd ref="4534040719"/>
    <nd ref="4534040718"/>
    <nd ref="1049087222"/>
    <nd ref="1049087591"/>
    <nd ref="1049087884"/>
    <nd ref="1049088319"/>
    <nd ref="1049089193"/>
    <nd ref="1049089417"/>
    <nd ref="4534040722"/>
    <nd ref="1049088025"/>
    <nd ref="1049088508"/>
    <nd ref="1049089007"/>
    <nd ref="1049089310"/>
    <nd ref="1049087841"/>
    <nd ref="1049088278"/>
    <nd ref="1049088768"/>
    <nd ref="1049089198"/>
    <nd ref="12033226563"/>
    <nd ref="12033226562"/>
    <nd ref="12033226565"/>
    <tag k="building" v="commercial"/>
    <tag k="building:flats" v="1"/>
    <tag k="building:levels" v="1"/>
    <tag k="building:ruian:type" v="10"/>
    <tag k="name" v="Auto Duba"/>
    <tag k="ref:ruian:building" v="21563608"/>
    <tag k="shop" v="car"/>
    <tag k="source" v="cuzk:ruian"/>
    <tag k="start_date" v="1998-03-11"/>
  </way>
  <way id="92542276" version="18" timestamp="2025-02-24T23:10:11Z" changeset="162911782" uid="22521062" user="Honza 游땙">
    <nd ref="344182022"/>
    <nd ref="9332801515"/>
    <nd ref="1758379168"/>
    <nd ref="4899569015"/>
    <tag k="foot" v="no"/>
    <tag k="highway" v="secondary"/>
    <tag k="lanes" v="2"/>
    <tag k="maxspeed" v="50"/>
    <tag k="name" v="Poncarova"/>
    <tag k="oneway" v="yes"/>
    <tag k="sidewalk" v="no"/>
    <tag k="source:maxspeed" v="sign"/>
    <tag k="surface" v="asphalt"/>
  </way>
  <way id="115597572" version="5" timestamp="2021-08-15T02:39:38Z" changeset="109686873" uid="3003739" user="r00tcz">
    <nd ref="1305591325"/>
    <nd ref="7504718882"/>
    <nd ref="21597001"/>
    <tag k="highway" v="tertiary"/>
    <tag k="lanes" v="2"/>
    <tag k="name" v="콎eporyjsk칠 n치m캩st칤"/>
    <tag k="surface" v="asphalt"/>
  </way>
  <way id="115597579" version="4" timestamp="2024-09-21T07:44:39Z" changeset="156899335" uid="335143" user="Bogomil Shopov - 햄쮏">
    <nd ref="519172790"/>
    <nd ref="1305591325"/>
    <tag k="bridge" v="yes"/>
    <tag k="highway" v="tertiary"/>
    <tag k="lanes" v="2"/>
    <tag k="layer" v="1"/>
    <tag k="maxweight:signed" v="no"/>
    <tag k="name" v="콎eporyjsk칠 n치m캩st칤"/>
    <tag k="surface" v="asphalt"/>
  </way>
  <way id="128488491" version="7" timestamp="2022-12-30T11:38:07Z" changeset="130683014" uid="3516" user="BiIbo">
    <nd ref="245500107"/>
    <nd ref="3030478790"/>
    <nd ref="245500108"/>
    <tag k="highway" v="residential"/>
    <tag k="name" v="KChaloupce"/>
    <tag k="source:name" v="nameit/uir-adr"/>
    <tag k="surface" v="asphalt"/>
  </way>
  <way id="128488492" version="2" timestamp="2024-07-13T20:21:37Z" changeset="153908058" uid="21683308" user="CurlConnoisseur">
    <nd ref="245500546"/>
    <nd ref="245500547"/>
    <nd ref="245500549"/>
    <tag k="highway" v="residential"/>
    <tag k="name" v="Koterovsk치"/>
    <tag k="source:name" v="nameit/uir-adr"/>
    <tag k="surface" v="asphalt"/>
  </way>
  <way id="128488493" version="6" timestamp="2024-07-13T20:21:43Z" changeset="153908058" uid="21683308" user="CurlConnoisseur">
    <nd ref="321379298"/>
    <nd ref="245500543"/>
    <nd ref="245500534"/>
    <nd ref="245500544"/>
    <nd ref="245500546"/>
    <tag k="highway" v="residential"/>
    <tag k="name" v="Koterovsk치"/>
    <tag k="source:name" v="nameit/uir-adr"/>
    <tag k="surface" v="asphalt"/>
  </way>
  <way id="135465062" version="8" timestamp="2024-12-17T14:40:00Z" changeset="160302829" uid="21660832" user="okmeow">
    <nd ref="1487788302"/>
    <nd ref="2142808459"/>
    <nd ref="12424891311"/>
    <nd ref="1487788303"/>
    <tag k="highway" v="residential"/>
    <tag k="lanes" v="2"/>
    <tag k="name" v="Na V칳rovn캩"/>
    <tag k="surface" v="asphalt"/>
  </way>
  <way id="160708157" version="1" timestamp="2012-04-23T08:29:27Z" changeset="11392354" uid="488732" user="montardo">
    <nd ref="1727478372"/>
    <nd ref="1727478370"/>
    <tag k="highway" v="residential"/>
    <tag k="name" v="V칳chodn칤"/>
  </way>
  <way id="164184204" version="12" timestamp="2023-11-25T12:08:41Z" changeset="144438933" uid="10224968" user="comfyquiettree">
    <nd ref="357705919"/>
    <nd ref="3027378871"/>
    <nd ref="1045016176"/>
    <nd ref="1702869563"/>
    <nd ref="1702869598"/>
    <nd ref="21597606"/>
    <nd ref="1045024762"/>
    <nd ref="9420718674"/>
    <nd ref="21597607"/>
    <nd ref="2370631982"/>
    <nd ref="11375161400"/>
    <nd ref="1758379152"/>
    <nd ref="1758379154"/>
    <nd ref="4972774663"/>
    <nd ref="1758379156"/>
    <nd ref="1758379158"/>
    <tag k="highway" v="tertiary"/>
    <tag k="name" v="K T콏ebonic콢m"/>
    <tag k="surface" v="asphalt"/>
  </way>
  <way id="164184205" version="14" timestamp="2025-02-24T22:47:41Z" changeset="162911400" uid="22521062" user="Honza 游땙">
    <nd ref="21597614"/>
    <nd ref="1838689984"/>
    <nd ref="5232759551"/>
    <nd ref="5232759552"/>
    <nd ref="3465906988"/>
    <nd ref="21597617"/>
    <nd ref="3465906989"/>
    <nd ref="3465906991"/>
    <nd ref="21597618"/>
    <nd ref="1838689987"/>
    <nd ref="5232759553"/>
    <nd ref="1838689989"/>
    <nd ref="5232759554"/>
    <nd ref="1838689991"/>
    <nd ref="1838689992"/>
    <nd ref="1838689995"/>
    <nd ref="5232759555"/>
    <nd ref="1838689998"/>
    <nd ref="5232759556"/>
    <nd ref="5232759557"/>
    <nd ref="3752226825"/>
    <nd ref="1838690000"/>
    <nd ref="2736793623"/>
    <nd ref="11860842055"/>
    <nd ref="11860842054"/>
    <nd ref="2736793624"/>
    <nd ref="10295764809"/>
    <nd ref="2736793625"/>
    <nd ref="1838690002"/>
    <nd ref="10295727608"/>
    <nd ref="21597627"/>
    <tag k="highway" v="tertiary"/>
    <tag k="lanes" v="2"/>
    <tag k="maxspeed" v="70"/>
    <tag k="name" v="K먠딴poryj칤m"/>
    <tag k="sidewalk" v="no"/>
    <tag k="source:name" v="cuzk:ruian"/>
    <tag k="surface" v="asphalt"/>
  </way>
  <way id="164184211" version="8" timestamp="2025-02-24T23:06:28Z" changeset="162911400" uid="22521062" user="Honza 游땙">
    <nd ref="1074216399"/>
    <nd ref="1758379171"/>
    <tag k="highway" v="tertiary_link"/>
    <tag k="sidewalk" v="no"/>
    <tag k="surface" v="asphalt"/>
  </way>
  <way id="166949859" version="8" timestamp="2024-02-27T08:55:22Z" changeset="147963084" uid="17615" user="Petr Dlouh칳">
    <nd ref="344184510"/>
    <nd ref="344184512"/>
    <nd ref="1758402017"/>
    <nd ref="1758402015"/>
    <nd ref="344184515"/>
    <nd ref="344184517"/>
    <nd ref="344184518"/>
    <nd ref="344184520"/>
    <nd ref="9642343970"/>
    <nd ref="344184522"/>
    <tag k="highway" v="secondary"/>
    <tag k="lanes" v="2"/>
    <tag k="maxspeed" v="70"/>
    <tag k="name" v="Poncarova"/>
    <tag k="oneway" v="yes"/>
    <tag k="surface" v="asphalt"/>
  </way>
  <way id="173013045" version="2" timestamp="2021-05-07T20:46:08Z" changeset="104340632" uid="6588887" user="Martin2035">
    <nd ref="245501273"/>
    <nd ref="1838433426"/>
    <nd ref="1838433425"/>
    <nd ref="1838433423"/>
    <tag k="highway" v="residential"/>
    <tag k="maxspeed" v="30"/>
    <tag k="maxspeed:type" v="CZ:zone30"/>
    <tag k="maxspeed:zone" v="30"/>
    <tag k="name" v="U Sila"/>
    <tag k="source" v="Bing"/>
  </way>
  <way id="173100957" version="12" timestamp="2023-03-16T10:25:48Z" changeset="133742600" uid="8971394" user="vojtechzaboril">
    <nd ref="21596985"/>
    <nd ref="10738932876"/>
    <nd ref="10738932875"/>
    <nd ref="7124831851"/>
    <nd ref="10738932874"/>
    <nd ref="8589259040"/>
    <nd ref="4803369688"/>
    <tag k="destination" v="O콏ech;Praha-콎eporyje"/>
    <tag k="highway" v="motorway_link"/>
    <tag k="maxspeed" v="130"/>
    <tag k="maxweight" v="6"/>
    <tag k="oneway" v="yes"/>
    <tag k="surface" v="concrete"/>
  </way>
  <way id="178055941" version="2" timestamp="2014-08-20T20:09:19Z" changeset="24895107" uid="714609" user="lcapka">
    <nd ref="7294404"/>
    <nd ref="1884353845"/>
    <nd ref="1884353853"/>
    <nd ref="1884353851"/>
    <nd ref="1884353849"/>
    <tag k="highway" v="residential"/>
    <tag k="name" v="Sousedn칤"/>
  </way>
  <way id="203406871" version="5" timestamp="2024-07-04T11:19:22Z" changeset="153541642" uid="10932047" user="AF HAF KARTOGRAF">
    <nd ref="2134178479"/>
    <nd ref="2134178480"/>
    <tag k="bridge" v="yes"/>
    <tag k="highway" v="unclassified"/>
    <tag k="layer" v="1"/>
  </way>
  <way id="203406872" version="5" timestamp="2024-04-29T11:50:29Z" changeset="150659385" uid="21289788" user="alfred476">
    <nd ref="2134178480"/>
    <nd ref="1046251980"/>
    <tag k="highway" v="unclassified"/>
  </way>
  <way id="204088170" version="7" timestamp="2021-08-15T02:39:27Z" changeset="109686873" uid="3003739" user="r00tcz">
    <nd ref="429301217"/>
    <nd ref="1925785859"/>
    <nd ref="3671260782"/>
    <nd ref="1710678125"/>
    <nd ref="1710678127"/>
    <nd ref="3671260780"/>
    <nd ref="21596999"/>
    <tag k="highway" v="tertiary"/>
    <tag k="lanes" v="2"/>
    <tag k="name" v="O콏e코sk치"/>
    <tag k="source" v="Yahoo"/>
    <tag k="surface" v="asphalt"/>
  </way>
  <way id="206171496" version="3" timestamp="2021-05-07T20:46:08Z" changeset="104340632" uid="6588887" user="Martin2035">
    <nd ref="245501228"/>
    <nd ref="8260343839"/>
    <nd ref="8710797139"/>
    <nd ref="245501207"/>
    <tag k="highway" v="residential"/>
    <tag k="name" v="Drahovsk치"/>
  </way>
  <way id="206171497" version="14" timestamp="2021-07-17T17:40:18Z" changeset="108168596" uid="2718770" user="noirre">
    <nd ref="245501228"/>
    <nd ref="8710797140"/>
    <nd ref="8710797138"/>
    <nd ref="6653389726"/>
    <nd ref="1838433415"/>
    <nd ref="6415878083"/>
    <nd ref="245501214"/>
    <nd ref="245501209"/>
    <nd ref="8887057291"/>
    <nd ref="8929121032"/>
    <nd ref="6296064386"/>
    <nd ref="703081"/>
    <nd ref="8909856547"/>
    <nd ref="25927142"/>
    <nd ref="1419597185"/>
    <nd ref="346244030"/>
    <tag k="highway" v="tertiary"/>
    <tag k="maxspeed" v="30"/>
    <tag k="name" v="O콏e코sk치"/>
    <tag k="source" v="Yahoo"/>
    <tag k="surface" v="asphalt"/>
  </way>
  <way id="206172252" version="3" timestamp="2021-08-24T09:05:22Z" changeset="110159315" uid="25867" user="adamos">
    <nd ref="245501227"/>
    <nd ref="1049043291"/>
    <nd ref="245501224"/>
    <tag k="foot" v="yes"/>
    <tag k="highway" v="residential"/>
    <tag k="maxspeed" v="30"/>
    <tag k="maxspeed:type" v="CZ:zone30"/>
    <tag k="maxspeed:zone" v="30"/>
    <tag k="motor_vehicle" v="designated"/>
    <tag k="name" v="Hor코ovsk치"/>
    <tag k="oneway" v="no"/>
    <tag k="sidewalk" v="separate"/>
    <tag k="source" v="cuzk,ortophoto"/>
    <tag k="surface" v="asphalt"/>
  </way>
  <way id="206172253" version="5" timestamp="2021-08-24T09:05:22Z" changeset="110159315" uid="25867" user="adamos">
    <nd ref="245501224"/>
    <nd ref="8260343810"/>
    <nd ref="245501222"/>
    <tag k="foot" v="yes"/>
    <tag k="highway" v="residential"/>
    <tag k="maxspeed" v="30"/>
    <tag k="maxspeed:type" v="CZ:zone30"/>
    <tag k="maxspeed:zone" v="30"/>
    <tag k="motor_vehicle" v="designated"/>
    <tag k="name" v="Hor코ovsk치"/>
    <tag k="oneway" v="no"/>
    <tag k="sidewalk" v="separate"/>
    <tag k="source" v="cuzk,ortophoto"/>
    <tag k="surface" v="asphalt"/>
  </way>
  <way id="206174769" version="5" timestamp="2021-08-15T02:39:24Z" changeset="109686873" uid="3003739" user="r00tcz">
    <nd ref="346244030"/>
    <nd ref="429301217"/>
    <tag k="highway" v="tertiary"/>
    <tag k="lanes" v="2"/>
    <tag k="name" v="O콏e코sk치"/>
    <tag k="source" v="Yahoo"/>
    <tag k="surface" v="asphalt"/>
  </way>
  <way id="206228762" version="3" timestamp="2021-08-24T09:05:22Z" changeset="110159315" uid="25867" user="adamos">
    <nd ref="245501222"/>
    <nd ref="245501220"/>
    <nd ref="8710797149"/>
    <nd ref="245501214"/>
    <tag k="foot" v="yes"/>
    <tag k="highway" v="residential"/>
    <tag k="maxspeed" v="30"/>
    <tag k="maxspeed:type" v="CZ:zone30"/>
    <tag k="maxspeed:zone" v="30"/>
    <tag k="motor_vehicle" v="designated"/>
    <tag k="name" v="Hor코ovsk치"/>
    <tag k="oneway" v="no"/>
    <tag k="sidewalk" v="separate"/>
    <tag k="source" v="cuzk,ortophoto"/>
    <tag k="surface" v="asphalt"/>
  </way>
  <way id="206709812" version="4" timestamp="2019-04-24T06:46:41Z" changeset="69513702" uid="1189910" user="Milancer">
    <nd ref="60271878"/>
    <nd ref="2955416560"/>
    <nd ref="2955416566"/>
    <nd ref="2955416561"/>
    <nd ref="2955416562"/>
    <nd ref="2955416563"/>
    <nd ref="60271896"/>
    <nd ref="60271904"/>
    <tag k="highway" v="residential"/>
    <tag k="name" v="Lou캜n치"/>
    <tag k="source:name" v="nameit/uir-adr"/>
  </way>
  <way id="218364822" version="19" timestamp="2024-09-16T10:27:09Z" changeset="156681527" uid="8971394" user="vojtechzaboril">
    <nd ref="703039"/>
    <nd ref="8589634633"/>
    <nd ref="8589634632"/>
    <nd ref="8009951911"/>
    <nd ref="8589634631"/>
    <nd ref="8589634630"/>
    <nd ref="8589634629"/>
    <nd ref="8009958965"/>
    <nd ref="8589634628"/>
    <nd ref="320918018"/>
    <nd ref="8589634627"/>
    <nd ref="8589634626"/>
    <nd ref="8589634625"/>
    <nd ref="8009951917"/>
    <nd ref="8589634624"/>
    <nd ref="8589634623"/>
    <nd ref="8009958995"/>
    <nd ref="8589634622"/>
    <nd ref="8589634621"/>
    <nd ref="703036"/>
    <nd ref="8589634620"/>
    <nd ref="8589634619"/>
    <nd ref="8009958982"/>
    <nd ref="8589634618"/>
    <nd ref="8589634617"/>
    <nd ref="8009951948"/>
    <nd ref="8589592116"/>
    <nd ref="8589592115"/>
    <nd ref="966842529"/>
    <nd ref="8589592114"/>
    <nd ref="8009958941"/>
    <nd ref="8589592113"/>
    <nd ref="8009958902"/>
    <nd ref="8589592112"/>
    <nd ref="8589592111"/>
    <nd ref="252067"/>
    <nd ref="8589592110"/>
    <nd ref="8589592109"/>
    <nd ref="8589592108"/>
    <nd ref="8009951982"/>
    <nd ref="8589592107"/>
    <nd ref="252066"/>
    <nd ref="8589592106"/>
    <nd ref="8589592105"/>
    <nd ref="8009958996"/>
    <nd ref="8589592104"/>
    <nd ref="8009951918"/>
    <nd ref="8589592103"/>
    <nd ref="8589592102"/>
    <nd ref="25933712"/>
    <nd ref="8589592101"/>
    <nd ref="8589592100"/>
    <nd ref="8009958974"/>
    <nd ref="8589592099"/>
    <nd ref="8589592098"/>
    <nd ref="8589592097"/>
    <nd ref="25933729"/>
    <nd ref="8589592096"/>
    <nd ref="8589592095"/>
    <nd ref="8589592094"/>
    <nd ref="8009958933"/>
    <nd ref="8589592093"/>
    <nd ref="8589592092"/>
    <nd ref="8589592091"/>
    <nd ref="25933741"/>
    <nd ref="8589592090"/>
    <nd ref="8589592088"/>
    <nd ref="8589592089"/>
    <nd ref="8589592087"/>
    <nd ref="8009951954"/>
    <nd ref="8589592086"/>
    <nd ref="8589592085"/>
    <nd ref="8589592084"/>
    <nd ref="8589592083"/>
    <nd ref="25933758"/>
    <nd ref="8589592082"/>
    <nd ref="8589592081"/>
    <nd ref="8589592080"/>
    <nd ref="8589592077"/>
    <nd ref="8589592076"/>
    <nd ref="8589592075"/>
    <nd ref="8589592074"/>
    <nd ref="25933909"/>
    <nd ref="8589592073"/>
    <nd ref="8589592072"/>
    <nd ref="8589592071"/>
    <nd ref="8589592070"/>
    <nd ref="25934193"/>
    <nd ref="8589592069"/>
    <nd ref="8589592068"/>
    <nd ref="8589592067"/>
    <nd ref="8399261921"/>
    <nd ref="8589592066"/>
    <nd ref="8589592065"/>
    <nd ref="8589592064"/>
    <nd ref="4936821414"/>
    <nd ref="1727478425"/>
    <nd ref="10676566346"/>
    <nd ref="8589592063"/>
    <nd ref="105045930"/>
    <tag k="highway" v="motorway"/>
    <tag k="int_ref" v="E 50"/>
    <tag k="lanes" v="2"/>
    <tag k="maxheight" v="default"/>
    <tag k="maxspeed" v="130"/>
    <tag k="name" v="Pra쬽k칳 okruh"/>
    <tag k="name:de" v="Prager Ring"/>
    <tag k="name:en" v="Prague Ring"/>
    <tag k="oneway" v="yes"/>
    <tag k="ref" v="D0"/>
    <tag k="source:maxspeed" v="CZ:motorway"/>
    <tag k="surface" v="concrete"/>
    <tag k="toll" v="no"/>
    <tag k="toll:hgv" v="yes"/>
  </way>
  <way id="219022353" version="14" timestamp="2021-04-03T14:35:25Z" changeset="102238743" uid="11276832" user="HaPe-CZ">
    <nd ref="2282265696"/>
    <nd ref="4936821415"/>
    <nd ref="8589634748"/>
    <nd ref="8589634747"/>
    <nd ref="8589634746"/>
    <nd ref="8399261922"/>
    <nd ref="8589634745"/>
    <nd ref="8589634744"/>
    <nd ref="8589634743"/>
    <nd ref="8589634742"/>
    <nd ref="8589634741"/>
    <nd ref="25934194"/>
    <nd ref="8589634740"/>
    <nd ref="8589634739"/>
    <nd ref="8589634738"/>
    <nd ref="8589634737"/>
    <nd ref="8589634736"/>
    <nd ref="25933938"/>
    <nd ref="8589634735"/>
    <nd ref="8589634734"/>
    <nd ref="8589634733"/>
    <nd ref="8589634732"/>
    <nd ref="8589634731"/>
    <nd ref="8589634730"/>
    <nd ref="8589634729"/>
    <nd ref="8589634728"/>
    <nd ref="8589634727"/>
    <nd ref="25933765"/>
    <nd ref="8589634726"/>
    <nd ref="8589634725"/>
    <nd ref="8589634724"/>
    <nd ref="8589634723"/>
    <nd ref="8589634722"/>
    <nd ref="8009951975"/>
    <nd ref="8589634721"/>
    <nd ref="8589634720"/>
    <nd ref="8589634719"/>
    <nd ref="8589634718"/>
    <nd ref="25933750"/>
    <nd ref="8009958913"/>
    <nd ref="8589634717"/>
    <nd ref="8589634716"/>
    <nd ref="8589634715"/>
    <nd ref="8589634714"/>
    <nd ref="8009958895"/>
    <nd ref="8589634713"/>
    <nd ref="25933733"/>
    <nd ref="8589634712"/>
    <nd ref="8589634711"/>
    <nd ref="8589634710"/>
    <nd ref="8009958952"/>
    <nd ref="8589634709"/>
    <nd ref="8589634708"/>
    <nd ref="25933724"/>
    <nd ref="8589634707"/>
    <nd ref="8589634706"/>
    <nd ref="8589634705"/>
    <nd ref="8009951939"/>
    <nd ref="8589634704"/>
    <nd ref="8589634703"/>
    <nd ref="21456344"/>
    <nd ref="8589634702"/>
    <nd ref="8589634701"/>
    <nd ref="8009951961"/>
    <nd ref="8589634699"/>
    <nd ref="8589634700"/>
    <nd ref="8589634698"/>
    <nd ref="21456345"/>
    <nd ref="8589634697"/>
    <nd ref="8009958921"/>
    <nd ref="8589634696"/>
    <nd ref="8589634695"/>
    <nd ref="8009958961"/>
    <nd ref="8589634694"/>
    <nd ref="8589634693"/>
    <nd ref="1359421626"/>
    <nd ref="8589634692"/>
    <nd ref="8009951927"/>
    <nd ref="8589634691"/>
    <nd ref="8589634690"/>
    <nd ref="8009951906"/>
    <nd ref="8589634689"/>
    <nd ref="8589634688"/>
    <nd ref="21456346"/>
    <nd ref="8589634687"/>
    <nd ref="8009958973"/>
    <nd ref="8589634685"/>
    <nd ref="8589634686"/>
    <nd ref="8009958951"/>
    <nd ref="8589634684"/>
    <nd ref="8589634683"/>
    <nd ref="320918020"/>
    <nd ref="8589634682"/>
    <nd ref="8009958987"/>
    <nd ref="8589634681"/>
    <nd ref="8589634679"/>
    <nd ref="8589634680"/>
    <nd ref="21456347"/>
    <nd ref="8589634678"/>
    <nd ref="8589634677"/>
    <nd ref="4742092463"/>
    <tag k="highway" v="motorway"/>
    <tag k="int_ref" v="E 50"/>
    <tag k="lanes" v="2"/>
    <tag k="maxheight" v="default"/>
    <tag k="maxspeed" v="130"/>
    <tag k="name" v="Pra쬽k칳 okruh"/>
    <tag k="name:de" v="Prager Ring"/>
    <tag k="name:en" v="Prague Ring"/>
    <tag k="oneway" v="yes"/>
    <tag k="ref" v="D0"/>
    <tag k="source:maxspeed" v="CZ:motorway"/>
    <tag k="surface" v="concrete"/>
    <tag k="toll" v="no"/>
    <tag k="toll:hgv" v="yes"/>
  </way>
  <way id="219695627" version="9" timestamp="2025-02-24T22:47:59Z" changeset="162911400" uid="22521062" user="Honza 游땙">
    <nd ref="21597614"/>
    <nd ref="346244058"/>
    <tag k="highway" v="tertiary"/>
    <tag k="lanes" v="2"/>
    <tag k="name" v="K먠딴poryj칤m"/>
    <tag k="sidewalk" v="left"/>
    <tag k="source:name" v="cuzk:ruian"/>
    <tag k="surface" v="asphalt"/>
  </way>
  <way id="220875588" version="5" timestamp="2021-08-24T09:05:22Z" changeset="110159315" uid="25867" user="adamos">
    <nd ref="2076704815"/>
    <nd ref="2076704848"/>
    <nd ref="542887368"/>
    <nd ref="4384515688"/>
    <nd ref="542887371"/>
    <nd ref="542887369"/>
    <nd ref="542887373"/>
    <nd ref="542887372"/>
    <nd ref="542887375"/>
    <nd ref="542887379"/>
    <nd ref="8945079597"/>
    <nd ref="542887378"/>
    <nd ref="245501227"/>
    <tag k="foot" v="yes"/>
    <tag k="highway" v="residential"/>
    <tag k="maxspeed" v="30"/>
    <tag k="maxspeed:type" v="CZ:zone30"/>
    <tag k="maxspeed:zone" v="30"/>
    <tag k="motor_vehicle" v="designated"/>
    <tag k="name" v="Hor코ovsk치"/>
    <tag k="oneway" v="no"/>
    <tag k="sidewalk" v="separate"/>
    <tag k="source" v="cuzk,ortophoto"/>
    <tag k="surface" v="asphalt"/>
  </way>
  <way id="228377299" version="9" timestamp="2025-02-24T23:09:20Z" changeset="162911400" uid="22521062" user="Honza 游땙">
    <nd ref="1758379171"/>
    <nd ref="9332801516"/>
    <nd ref="346244052"/>
    <tag k="highway" v="secondary"/>
    <tag k="lanes" v="2"/>
    <tag k="maxspeed" v="70"/>
    <tag k="name" v="Poncarova"/>
    <tag k="oneway" v="yes"/>
    <tag k="sidewalk:left" v="no"/>
    <tag k="sidewalk:right" v="separate"/>
    <tag k="surface" v="asphalt"/>
  </way>
  <way id="229962106" version="6" timestamp="2020-12-25T20:17:56Z" changeset="96433922" uid="1189910" user="Milancer">
    <nd ref="245502100"/>
    <nd ref="1049044233"/>
    <tag k="highway" v="tertiary"/>
    <tag k="maxspeed" v="30"/>
    <tag k="name" v="O콏e코sk치"/>
    <tag k="source" v="Yahoo"/>
    <tag k="surface" v="asphalt"/>
  </way>
  <way id="231103562" version="13" timestamp="2025-02-24T23:10:03Z" changeset="162911782" uid="22521062" user="Honza 游땙">
    <nd ref="1074216399"/>
    <nd ref="2475769784"/>
    <nd ref="4899569019"/>
    <nd ref="9332821220"/>
    <nd ref="2475769788"/>
    <nd ref="2475769790"/>
    <nd ref="1758379176"/>
    <nd ref="1758402018"/>
    <tag k="foot" v="no"/>
    <tag k="highway" v="secondary"/>
    <tag k="lanes" v="2"/>
    <tag k="maxspeed" v="70"/>
    <tag k="name" v="Poncarova"/>
    <tag k="oneway" v="yes"/>
    <tag k="sidewalk" v="no"/>
    <tag k="surface" v="asphalt"/>
  </way>
  <way id="239807723" version="9" timestamp="2025-02-24T23:04:34Z" changeset="162911400" uid="22521062" user="Honza 游땙">
    <nd ref="1758402018"/>
    <nd ref="12042577941"/>
    <nd ref="1758379183"/>
    <tag k="bridge" v="yes"/>
    <tag k="bridge:structure" v="beam"/>
    <tag k="highway" v="secondary"/>
    <tag k="lanes" v="2"/>
    <tag k="layer" v="1"/>
    <tag k="name" v="Poncarova"/>
    <tag k="oneway" v="yes"/>
    <tag k="sidewalk" v="no"/>
    <tag k="surface" v="asphalt"/>
  </way>
  <way id="239807724" version="10" timestamp="2025-02-24T23:07:02Z" changeset="162911400" uid="22521062" user="Honza 游땙">
    <nd ref="1758379185"/>
    <nd ref="12042577942"/>
    <nd ref="1758402019"/>
    <tag k="bridge" v="yes"/>
    <tag k="bridge:structure" v="beam"/>
    <tag k="highway" v="secondary"/>
    <tag k="lanes" v="2"/>
    <tag k="layer" v="1"/>
    <tag k="maxspeed" v="70"/>
    <tag k="maxspeed:type" v="sign"/>
    <tag k="name" v="Poncarova"/>
    <tag k="oneway" v="yes"/>
    <tag k="sidewalk" v="no"/>
    <tag k="surface" v="asphalt"/>
  </way>
  <way id="239807725" version="13" timestamp="2025-02-24T23:10:00Z" changeset="162911782" uid="22521062" user="Honza 游땙">
    <nd ref="1758402019"/>
    <nd ref="2370619271"/>
    <nd ref="2503642940"/>
    <nd ref="2370619267"/>
    <nd ref="9332821219"/>
    <nd ref="2475769786"/>
    <nd ref="1758379171"/>
    <tag k="foot" v="no"/>
    <tag k="highway" v="secondary"/>
    <tag k="lanes" v="2"/>
    <tag k="maxspeed" v="50"/>
    <tag k="name" v="Poncarova"/>
    <tag k="oneway" v="yes"/>
    <tag k="sidewalk" v="no"/>
    <tag k="surface" v="asphalt"/>
  </way>
  <way id="239807728" version="5" timestamp="2024-07-08T22:24:09Z" changeset="153723008" uid="25867" user="adamos">
    <nd ref="346244054"/>
    <nd ref="21597613"/>
    <nd ref="7573189210"/>
    <nd ref="21597614"/>
    <tag k="access" v="no"/>
    <tag k="highway" v="unclassified"/>
    <tag k="surface" v="asphalt"/>
  </way>
  <way id="242923295" version="6" timestamp="2025-02-24T23:06:32Z" changeset="162911400" uid="22521062" user="Honza 游땙">
    <nd ref="2503644889"/>
    <nd ref="1074216399"/>
    <tag k="bicycle" v="no"/>
    <tag k="highway" v="tertiary"/>
    <tag k="name" v="K T콏ebonic콢m"/>
    <tag k="sidewalk" v="no"/>
    <tag k="surface" v="asphalt"/>
  </way>
  <way id="242923297" version="6" timestamp="2018-05-25T21:15:35Z" changeset="59282501" uid="1719518" user="itamas80">
    <nd ref="1758379158"/>
    <nd ref="1758379160"/>
    <nd ref="1758379161"/>
    <nd ref="4972774646"/>
    <nd ref="1758379163"/>
    <nd ref="4899569017"/>
    <tag k="highway" v="tertiary"/>
    <tag k="name" v="K T콏ebonic콢m"/>
    <tag k="surface" v="asphalt"/>
  </way>
  <way id="242923302" version="3" timestamp="2017-04-14T15:31:07Z" changeset="47783338" uid="3898588" user="sarimak">
    <nd ref="346244058"/>
    <nd ref="344184510"/>
    <tag k="highway" v="tertiary"/>
    <tag k="name" v="K먠딴poryj칤m"/>
    <tag k="surface" v="asphalt"/>
  </way>
  <way id="264310491" version="10" timestamp="2024-11-26T14:53:27Z" changeset="159620451" uid="21660832" user="okmeow">
    <nd ref="429301204"/>
    <nd ref="11544687716"/>
    <nd ref="11544687717"/>
    <nd ref="703088"/>
    <nd ref="11544687718"/>
    <nd ref="11544687719"/>
    <nd ref="21597005"/>
    <nd ref="703089"/>
    <nd ref="11544687720"/>
    <nd ref="8448669626"/>
    <nd ref="12376426097"/>
    <nd ref="60271624"/>
    <tag k="highway" v="tertiary"/>
    <tag k="lanes" v="2"/>
    <tag k="name" v="Sm칤chovsk치"/>
    <tag k="sidewalk:left" v="separate"/>
    <tag k="sidewalk:right" v="yes"/>
    <tag k="surface" v="asphalt"/>
  </way>
  <way id="298588592" version="4" timestamp="2024-07-13T20:05:38Z" changeset="153908058" uid="21683308" user="CurlConnoisseur">
    <nd ref="336778117"/>
    <nd ref="5018465321"/>
    <nd ref="3024776844"/>
    <nd ref="3024776845"/>
    <nd ref="3024776846"/>
    <tag k="highway" v="residential"/>
    <tag k="maxspeed" v="20"/>
    <tag k="motor_vehicle" v="destination"/>
    <tag k="name" v="Wiesenthalova"/>
    <tag k="surface" v="asphalt"/>
  </way>
  <way id="298588596" version="3" timestamp="2024-07-21T19:58:36Z" changeset="154232384" uid="21683308" user="CurlConnoisseur">
    <nd ref="3024776854"/>
    <nd ref="3024776853"/>
    <nd ref="3024776852"/>
    <nd ref="3024776851"/>
    <nd ref="3024776850"/>
    <nd ref="3024776855"/>
    <nd ref="3024776849"/>
    <nd ref="3024776857"/>
    <tag k="check_date:surface" v="2024-07-21"/>
    <tag k="highway" v="residential"/>
    <tag k="maxspeed" v="30"/>
    <tag k="motor_vehicle" v="destination"/>
    <tag k="name" v="Kakosova"/>
    <tag k="surface" v="asphalt"/>
  </way>
  <way id="298588597" version="4" timestamp="2025-01-18T23:35:32Z" changeset="161509204" uid="1673364" user="Rastislav Wartiak">
    <nd ref="336778127"/>
    <nd ref="3024750643"/>
    <nd ref="5018535573"/>
    <nd ref="336778140"/>
    <nd ref="5018535577"/>
    <nd ref="336778137"/>
    <tag k="check_date:surface" v="2024-07-21"/>
    <tag k="highway" v="residential"/>
    <tag k="maxspeed" v="30"/>
    <tag k="motor_vehicle" v="destination"/>
    <tag k="name" v="D캩len치"/>
    <tag k="source" v="cuzk:km"/>
    <tag k="surface" v="asphalt"/>
  </way>
  <way id="298799569" version="4" timestamp="2024-04-26T19:21:31Z" changeset="150554248" uid="9291527" user="marekhrabe">
    <nd ref="2749646548"/>
    <nd ref="10707495881"/>
    <nd ref="344182034"/>
    <nd ref="2749646631"/>
    <nd ref="2749646635"/>
    <nd ref="344182032"/>
    <nd ref="344182030"/>
    <nd ref="2749646662"/>
    <nd ref="2749646667"/>
    <nd ref="344182024"/>
    <nd ref="344182027"/>
    <nd ref="344182029"/>
    <nd ref="243486290"/>
    <nd ref="1758379158"/>
    <tag k="highway" v="tertiary"/>
    <tag k="name" v="KBeton치rn캩"/>
    <tag k="source" v="uhul:ortofoto"/>
  </way>
  <way id="298799572" version="2" timestamp="2021-07-18T10:15:08Z" changeset="108186641" uid="2718770" user="noirre">
    <nd ref="3027378871"/>
    <nd ref="1702869496"/>
    <nd ref="3027378872"/>
    <nd ref="3027378873"/>
    <nd ref="3027378874"/>
    <nd ref="3027378875"/>
    <nd ref="3027378876"/>
    <nd ref="3027378877"/>
    <nd ref="8930359323"/>
    <nd ref="3027378878"/>
    <nd ref="8930359322"/>
    <nd ref="3027378879"/>
    <nd ref="3027378880"/>
    <nd ref="8930359321"/>
    <nd ref="8930359332"/>
    <nd ref="3027378881"/>
    <tag k="highway" v="residential"/>
    <tag k="name" v="U V칳kupn칤ho st콏ediska"/>
    <tag k="surface" v="asphalt"/>
  </way>
  <way id="298799578" version="4" timestamp="2018-05-22T17:19:20Z" changeset="59186738" uid="255936" user="NyanSten">
    <nd ref="3027378872"/>
    <nd ref="3027378885"/>
    <nd ref="3027378887"/>
    <tag k="highway" v="residential"/>
    <tag k="name" v="KVelk칠mu dvoru"/>
    <tag k="surface" v="asphalt"/>
  </way>
  <way id="298799580" version="4" timestamp="2018-05-22T17:19:20Z" changeset="59186738" uid="255936" user="NyanSten">
    <nd ref="3027378887"/>
    <nd ref="3027378886"/>
    <tag k="highway" v="residential"/>
    <tag k="name" v="KVelk칠mu dvoru"/>
    <tag k="surface" v="unpaved"/>
  </way>
  <way id="298799585" version="3" timestamp="2024-07-04T11:19:22Z" changeset="153541642" uid="10932047" user="AF HAF KARTOGRAF">
    <nd ref="3027378889"/>
    <nd ref="3027378890"/>
    <nd ref="3027378891"/>
    <nd ref="3027378892"/>
    <nd ref="3027378893"/>
    <nd ref="3027378894"/>
    <nd ref="3027378895"/>
    <tag k="highway" v="residential"/>
    <tag k="name" v="KVelk칠mu dvoru"/>
    <tag k="surface" v="unpaved"/>
  </way>
  <way id="299116118" version="2" timestamp="2017-03-25T20:22:40Z" changeset="47161886" uid="255936" user="NyanSten">
    <nd ref="357703716"/>
    <nd ref="245499061"/>
    <tag k="highway" v="residential"/>
    <tag k="name" v="KChaloupce"/>
    <tag k="source:name" v="nameit/uir-adr"/>
  </way>
  <way id="322195606" version="3" timestamp="2019-04-24T06:47:41Z" changeset="69513702" uid="1189910" user="Milancer">
    <nd ref="357703716"/>
    <nd ref="1045211843"/>
    <nd ref="3030478789"/>
    <nd ref="1045212556"/>
    <tag k="highway" v="residential"/>
    <tag k="name" v="Ebrova"/>
    <tag k="source:name" v="nameit/uir-adr"/>
  </way>
  <way id="328240273" version="13" timestamp="2023-03-16T10:25:48Z" changeset="133742600" uid="8971394" user="vojtechzaboril">
    <nd ref="3350509926"/>
    <nd ref="8589259002"/>
    <nd ref="8589259003"/>
    <nd ref="3350509919"/>
    <nd ref="4803372017"/>
    <tag k="highway" v="motorway"/>
    <tag k="int_ref" v="E 50"/>
    <tag k="lanes" v="2"/>
    <tag k="maxspeed" v="130"/>
    <tag k="name" v="Pra쬽k칳 okruh"/>
    <tag k="name:de" v="Prager Ring"/>
    <tag k="name:en" v="Prague Ring"/>
    <tag k="oneway" v="yes"/>
    <tag k="ref" v="D0"/>
    <tag k="source:maxspeed" v="CZ:motorway"/>
    <tag k="surface" v="asphalt"/>
    <tag k="toll" v="no"/>
    <tag k="toll:hgv" v="yes"/>
  </way>
  <way id="328240274" version="13" timestamp="2023-03-16T10:25:48Z" changeset="133742600" uid="8971394" user="vojtechzaboril">
    <nd ref="3350509928"/>
    <nd ref="8589278776"/>
    <nd ref="3350509934"/>
    <tag k="bridge" v="yes"/>
    <tag k="bridge:structure" v="beam"/>
    <tag k="highway" v="motorway"/>
    <tag k="int_ref" v="E 50"/>
    <tag k="lanes" v="2"/>
    <tag k="layer" v="1"/>
    <tag k="maxspeed" v="130"/>
    <tag k="name" v="Pra쬽k칳 okruh"/>
    <tag k="name:de" v="Prager Ring"/>
    <tag k="name:en" v="Prague Ring"/>
    <tag k="oneway" v="yes"/>
    <tag k="ref" v="D0"/>
    <tag k="source:maxspeed" v="CZ:motorway"/>
    <tag k="surface" v="asphalt"/>
    <tag k="toll" v="no"/>
    <tag k="toll:hgv" v="yes"/>
  </way>
  <way id="328240275" version="12" timestamp="2023-03-16T10:25:48Z" changeset="133742600" uid="8971394" user="vojtechzaboril">
    <nd ref="3350509933"/>
    <nd ref="10738932867"/>
    <nd ref="3350509926"/>
    <tag k="bridge" v="yes"/>
    <tag k="bridge:structure" v="beam"/>
    <tag k="highway" v="motorway"/>
    <tag k="int_ref" v="E 50"/>
    <tag k="lanes" v="2"/>
    <tag k="layer" v="1"/>
    <tag k="maxspeed" v="130"/>
    <tag k="name" v="Pra쬽k칳 okruh"/>
    <tag k="name:de" v="Prager Ring"/>
    <tag k="name:en" v="Prague Ring"/>
    <tag k="oneway" v="yes"/>
    <tag k="ref" v="D0"/>
    <tag k="source:maxspeed" v="CZ:motorway"/>
    <tag k="surface" v="asphalt"/>
    <tag k="toll" v="no"/>
    <tag k="toll:hgv" v="yes"/>
  </way>
  <way id="351523731" version="4" timestamp="2023-06-18T18:27:38Z" changeset="137488781" uid="231749" user="Eino81">
    <nd ref="1884353846"/>
    <nd ref="3573196113"/>
    <nd ref="2499166521"/>
    <nd ref="3573196111"/>
    <nd ref="1884353870"/>
    <nd ref="9936126446"/>
    <nd ref="1884353856"/>
    <tag k="highway" v="residential"/>
    <tag k="name" v="Hasi캜콢"/>
  </way>
  <way id="351523732" version="4" timestamp="2024-07-04T11:19:22Z" changeset="153541642" uid="10932047" user="AF HAF KARTOGRAF">
    <nd ref="3573196102"/>
    <nd ref="4534037785"/>
    <nd ref="4534037784"/>
    <nd ref="3573196109"/>
    <nd ref="3573196110"/>
    <nd ref="3573196103"/>
    <nd ref="3573196102"/>
    <tag k="addr:conscriptionnumber" v="1081"/>
    <tag k="addr:housenumber" v="1081/3a"/>
    <tag k="addr:place" v="콎eporyje"/>
    <tag k="addr:postcode" v="15500"/>
    <tag k="addr:street" v="Hasi캜콢"/>
    <tag k="addr:streetnumber" v="3a"/>
    <tag k="amenity" v="fire_station"/>
    <tag k="building" v="civic"/>
    <tag k="building:ruian:type" v="5"/>
    <tag k="name" v="SDH 콎eporyje"/>
    <tag k="ref:ruian:addr" v="28487460"/>
    <tag k="ref:ruian:building" v="27940942"/>
    <tag k="source" v="cuzk:ruian"/>
    <tag k="start_date" v="2011-06-22"/>
    <tag k="website" v="https://www.sdhreporyje.info/"/>
  </way>
  <way id="351523736" version="3" timestamp="2020-05-10T23:17:04Z" changeset="84990009" uid="2718770" user="noirre">
    <nd ref="7294397"/>
    <nd ref="7504718847"/>
    <nd ref="3573196122"/>
    <nd ref="3573196121"/>
    <nd ref="3573196113"/>
    <tag k="highway" v="residential"/>
  </way>
  <way id="354780624" version="5" timestamp="2024-07-13T20:21:18Z" changeset="153908530" uid="21683308" user="CurlConnoisseur">
    <nd ref="243289598"/>
    <nd ref="60271920"/>
    <tag k="highway" v="residential"/>
    <tag k="lane_markings" v="no"/>
    <tag k="name" v="Slatinov치"/>
    <tag k="source:name" v="nameit/uir-adr"/>
    <tag k="surface" v="asphalt"/>
  </way>
  <way id="354782343" version="4" timestamp="2022-12-30T11:44:39Z" changeset="130683014" uid="3516" user="BiIbo">
    <nd ref="346535005"/>
    <nd ref="346535006"/>
    <nd ref="4095944545"/>
    <nd ref="2961552813"/>
    <nd ref="346535011"/>
    <nd ref="346535007"/>
    <nd ref="346535008"/>
    <nd ref="346535009"/>
    <nd ref="4095944544"/>
    <nd ref="9031580930"/>
    <tag k="highway" v="residential"/>
    <tag k="maxspeed" v="30"/>
    <tag k="name" v="Ml치dkova"/>
    <tag k="source:maxspeed" v="sign"/>
    <tag k="surface" v="asphalt"/>
  </way>
  <way id="375508676" version="4" timestamp="2023-10-18T06:04:02Z" changeset="142743729" uid="20373864" user="Pete24">
    <nd ref="243289599"/>
    <nd ref="60272116"/>
    <tag k="highway" v="residential"/>
    <tag k="name" v="Losinsk치"/>
    <tag k="source:name" v="nameit/uir-adr"/>
    <tag k="surface" v="asphalt"/>
  </way>
  <way id="378628532" version="5" timestamp="2020-11-27T13:35:21Z" changeset="94899352" uid="665336" user="Minimalis">
    <nd ref="7294414"/>
    <nd ref="519172784"/>
    <tag k="highway" v="tertiary"/>
    <tag k="surface" v="asphalt"/>
  </way>
  <way id="378628534" version="12" timestamp="2023-06-10T07:11:36Z" changeset="137161469" uid="10881771" user="Vokoun">
    <nd ref="519172784"/>
    <nd ref="245499074"/>
    <nd ref="519172785"/>
    <nd ref="7294422"/>
    <nd ref="245499075"/>
    <nd ref="245499077"/>
    <nd ref="7294426"/>
    <nd ref="1046253369"/>
    <nd ref="6415879285"/>
    <nd ref="6240248016"/>
    <nd ref="6415879286"/>
    <nd ref="7306270"/>
    <nd ref="6415879287"/>
    <nd ref="1046253153"/>
    <nd ref="429337705"/>
    <nd ref="7306278"/>
    <nd ref="1233964631"/>
    <nd ref="7306289"/>
    <nd ref="1049099200"/>
    <nd ref="1049099104"/>
    <nd ref="8009958957"/>
    <nd ref="7306299"/>
    <nd ref="8009958978"/>
    <nd ref="1049099103"/>
    <nd ref="8009951902"/>
    <nd ref="7306308"/>
    <nd ref="8009958937"/>
    <nd ref="25927260"/>
    <nd ref="1776172806"/>
    <nd ref="7306332"/>
    <nd ref="8009951923"/>
    <nd ref="1049099116"/>
    <nd ref="8009951944"/>
    <nd ref="7306349"/>
    <nd ref="8009951966"/>
    <nd ref="1049099228"/>
    <nd ref="8009958887"/>
    <nd ref="25927264"/>
    <nd ref="8009958907"/>
    <nd ref="1049099106"/>
    <nd ref="7306359"/>
    <tag k="highway" v="tertiary"/>
    <tag k="lanes" v="2"/>
    <tag k="name" v="K Zadn칤 Kopanin캩"/>
    <tag k="surface" v="asphalt"/>
  </way>
  <way id="379871762" version="3" timestamp="2025-03-06T09:28:33Z" changeset="163276028" uid="15312507" user="POI Mapper">
    <nd ref="1487788302"/>
    <nd ref="245501830"/>
    <nd ref="60271673"/>
    <nd ref="3055146186"/>
    <tag k="highway" v="tertiary"/>
    <tag k="lanes" v="3"/>
    <tag k="lanes:backward" v="1"/>
    <tag k="lanes:forward" v="2"/>
    <tag k="name" v="J치chymovsk치"/>
    <tag k="surface" v="asphalt"/>
  </way>
  <way id="405474437" version="4" timestamp="2024-07-21T18:45:42Z" changeset="154232335" uid="21683308" user="CurlConnoisseur">
    <nd ref="245500069"/>
    <nd ref="245500070"/>
    <tag k="highway" v="residential"/>
    <tag k="lane_markings" v="no"/>
    <tag k="name" v="Hl치vkova"/>
    <tag k="source:name" v="nameit/uir-adr"/>
    <tag k="surface" v="asphalt"/>
  </way>
  <way id="405474438" version="3" timestamp="2024-07-21T18:45:48Z" changeset="154232335" uid="21683308" user="CurlConnoisseur">
    <nd ref="245500070"/>
    <nd ref="245500076"/>
    <nd ref="245500077"/>
    <tag k="highway" v="residential"/>
    <tag k="lane_markings" v="no"/>
    <tag k="name" v="Hl치vkova"/>
    <tag k="source:name" v="nameit/uir-adr"/>
    <tag k="surface" v="asphalt"/>
  </way>
  <way id="407754287" version="2" timestamp="2022-12-30T11:43:01Z" changeset="130683014" uid="3516" user="BiIbo">
    <nd ref="4097892512"/>
    <nd ref="519134365"/>
    <tag k="highway" v="residential"/>
    <tag k="layer" v="1"/>
    <tag k="name" v="Ml치dkova"/>
    <tag k="surface" v="asphalt"/>
  </way>
  <way id="407754291" version="8" timestamp="2022-12-29T08:25:01Z" changeset="130632629" uid="10881771" user="Vokoun">
    <nd ref="21597001"/>
    <nd ref="7504718883"/>
    <nd ref="429301215"/>
    <nd ref="7404633724"/>
    <nd ref="21597002"/>
    <tag k="highway" v="tertiary"/>
    <tag k="lanes" v="2"/>
    <tag k="name" v="콎eporyjsk칠 n치m캩st칤"/>
    <tag k="sidewalk:both" v="separate"/>
    <tag k="surface" v="asphalt"/>
  </way>
  <way id="433268332" version="4" timestamp="2019-04-24T07:29:20Z" changeset="69514786" uid="1189910" user="Milancer">
    <nd ref="243289598"/>
    <nd ref="243289599"/>
    <tag k="highway" v="residential"/>
    <tag k="name" v="Milenovsk치"/>
    <tag k="source:name" v="nameit/uir-adr"/>
  </way>
  <way id="436834431" version="7" timestamp="2025-01-18T23:35:32Z" changeset="161509204" uid="1673364" user="Rastislav Wartiak">
    <nd ref="4346958519"/>
    <nd ref="4346958518"/>
    <nd ref="12439100342"/>
    <nd ref="12439100343"/>
    <nd ref="5018562117"/>
    <nd ref="12439100344"/>
    <nd ref="5018562115"/>
    <nd ref="4346958513"/>
    <tag k="highway" v="residential"/>
    <tag k="lane_markings" v="no"/>
    <tag k="motor_vehicle" v="destination"/>
    <tag k="name" v="Kakosova"/>
    <tag k="oneway" v="yes"/>
    <tag k="surface" v="asphalt"/>
  </way>
  <way id="457231049" version="2" timestamp="2022-07-02T22:36:08Z" changeset="123135253" uid="2923211" user="AlesBernasek">
    <nd ref="4534040746"/>
    <nd ref="4534040745"/>
    <nd ref="4534040744"/>
    <nd ref="4534040743"/>
    <nd ref="4534040746"/>
    <tag k="addr:city" v="Praha"/>
    <tag k="addr:housenumber" v="972"/>
    <tag k="addr:postcode" v="15500"/>
    <tag k="addr:street" v="O콏e코sk치"/>
    <tag k="amenity" v="car_wash"/>
    <tag k="building" v="yes"/>
    <tag k="building:ruian:type" v="5"/>
    <tag k="operator" v="FATO Plus s.r.o."/>
    <tag k="payment:cash" v="yes"/>
    <tag k="payment:contactless" v="yes"/>
    <tag k="ref:ruian:building" v="43402348"/>
    <tag k="self_service" v="yes"/>
    <tag k="source" v="cuzk:ruian"/>
  </way>
  <way id="481376389" version="10" timestamp="2023-03-16T10:25:48Z" changeset="133742600" uid="8971394" user="vojtechzaboril">
    <nd ref="105045930"/>
    <nd ref="10676566347"/>
    <nd ref="8589592062"/>
    <nd ref="8589278759"/>
    <nd ref="10676566342"/>
    <nd ref="703077"/>
    <tag k="highway" v="motorway"/>
    <tag k="int_ref" v="E 50"/>
    <tag k="lanes" v="3"/>
    <tag k="maxheight" v="default"/>
    <tag k="maxspeed" v="130"/>
    <tag k="name" v="Pra쬽k칳 okruh"/>
    <tag k="name:de" v="Prager Ring"/>
    <tag k="name:en" v="Prague Ring"/>
    <tag k="oneway" v="yes"/>
    <tag k="placement" v="right_of:1"/>
    <tag k="ref" v="D0"/>
    <tag k="source:maxspeed" v="CZ:motorway"/>
    <tag k="surface" v="concrete"/>
    <tag k="toll" v="no"/>
    <tag k="toll:hgv" v="yes"/>
    <tag k="turn:lanes" v="||slight_right"/>
  </way>
  <way id="481376390" version="9" timestamp="2023-03-16T10:25:48Z" changeset="133742600" uid="8971394" user="vojtechzaboril">
    <nd ref="703077"/>
    <nd ref="7124831813"/>
    <nd ref="10676566339"/>
    <nd ref="7124831804"/>
    <nd ref="4743157125"/>
    <nd ref="105045937"/>
    <tag k="destination" v="Chomutov;Karlovy Vary;Plze켿;九 leti코t캩"/>
    <tag k="highway" v="motorway"/>
    <tag k="int_ref" v="E 50"/>
    <tag k="lanes" v="2"/>
    <tag k="maxspeed" v="130"/>
    <tag k="name" v="Pra쬽k칳 okruh"/>
    <tag k="name:de" v="Prager Ring"/>
    <tag k="name:en" v="Prague Ring"/>
    <tag k="oneway" v="yes"/>
    <tag k="ref" v="D0"/>
    <tag k="source:maxspeed" v="CZ:motorway"/>
    <tag k="surface" v="concrete"/>
    <tag k="toll" v="no"/>
    <tag k="toll:hgv" v="yes"/>
  </way>
  <way id="481376391" version="2" timestamp="2017-05-01T17:13:22Z" changeset="48311864" uid="3898588" user="sarimak">
    <nd ref="105049236"/>
    <nd ref="4743140628"/>
    <tag k="destination:forward" v="Praha-콎eporyje"/>
    <tag k="highway" v="tertiary"/>
    <tag k="name" v="O콏e코sk치"/>
    <tag k="source" v="Yahoo"/>
    <tag k="surface" v="asphalt"/>
  </way>
  <way id="481376394" version="5" timestamp="2021-08-31T16:57:25Z" changeset="110524248" uid="2718770" user="noirre">
    <nd ref="2076704791"/>
    <nd ref="4860750354"/>
    <nd ref="5237003562"/>
    <nd ref="4860750351"/>
    <nd ref="9051419463"/>
    <nd ref="245502100"/>
    <tag k="highway" v="tertiary"/>
    <tag k="name" v="O콏e코sk치"/>
    <tag k="source" v="Yahoo"/>
    <tag k="surface" v="asphalt"/>
  </way>
  <way id="481376396" version="5" timestamp="2024-09-16T10:27:09Z" changeset="156681527" uid="8971394" user="vojtechzaboril">
    <nd ref="8589278733"/>
    <nd ref="8589278734"/>
    <nd ref="8589278739"/>
    <nd ref="8589278738"/>
    <nd ref="8589278737"/>
    <nd ref="8589278736"/>
    <nd ref="8589278735"/>
    <nd ref="4743140626"/>
    <nd ref="21596993"/>
    <tag k="bicycle" v="no"/>
    <tag k="destination" v="O콏ech"/>
    <tag k="highway" v="motorway_link"/>
    <tag k="lanes" v="1"/>
    <tag k="oneway" v="yes"/>
  </way>
  <way id="481376399" version="4" timestamp="2024-09-16T10:27:09Z" changeset="156681527" uid="8971394" user="vojtechzaboril">
    <nd ref="4743140628"/>
    <nd ref="8589278750"/>
    <nd ref="4743140629"/>
    <nd ref="8589278749"/>
    <nd ref="8589278748"/>
    <nd ref="8589278747"/>
    <nd ref="8589278746"/>
    <nd ref="8589278745"/>
    <nd ref="105049230"/>
    <tag k="bicycle" v="no"/>
    <tag k="destination" v="Plze켿"/>
    <tag k="highway" v="motorway_link"/>
    <tag k="oneway" v="yes"/>
  </way>
  <way id="481376401" version="6" timestamp="2024-09-16T10:27:09Z" changeset="156681527" uid="8971394" user="vojtechzaboril">
    <nd ref="8589278734"/>
    <nd ref="8589278740"/>
    <nd ref="105049234"/>
    <nd ref="8589278741"/>
    <nd ref="8589278742"/>
    <nd ref="105049236"/>
    <tag k="bicycle" v="no"/>
    <tag k="destination" v="Plze켿"/>
    <tag k="highway" v="motorway_link"/>
    <tag k="lanes" v="1"/>
    <tag k="oneway" v="yes"/>
  </way>
  <way id="481376403" version="3" timestamp="2021-04-03T10:42:40Z" changeset="102230688" uid="11276832" user="HaPe-CZ">
    <nd ref="21596993"/>
    <nd ref="8589278744"/>
    <nd ref="8589278743"/>
    <nd ref="21596994"/>
    <nd ref="105049236"/>
    <tag k="destination:backward" v="O콏ech"/>
    <tag k="highway" v="tertiary"/>
    <tag k="name" v="O콏e코sk치"/>
    <tag k="source" v="Yahoo"/>
    <tag k="surface" v="asphalt"/>
  </way>
  <way id="481376406" version="2" timestamp="2017-05-01T17:13:18Z" changeset="48311864" uid="3898588" user="sarimak">
    <nd ref="4743140628"/>
    <nd ref="21596995"/>
    <nd ref="2076704791"/>
    <tag k="highway" v="tertiary"/>
    <tag k="name" v="O콏e코sk치"/>
    <tag k="source" v="Yahoo"/>
    <tag k="surface" v="asphalt"/>
  </way>
  <way id="481376409" version="7" timestamp="2023-03-16T10:25:48Z" changeset="133742600" uid="8971394" user="vojtechzaboril">
    <nd ref="105045928"/>
    <nd ref="10738932879"/>
    <nd ref="8589634750"/>
    <nd ref="10676566348"/>
    <nd ref="8589634749"/>
    <nd ref="2282265696"/>
    <tag k="highway" v="motorway"/>
    <tag k="int_ref" v="E 50"/>
    <tag k="lanes" v="3"/>
    <tag k="maxspeed" v="130"/>
    <tag k="name" v="Pra쬽k칳 okruh"/>
    <tag k="name:de" v="Prager Ring"/>
    <tag k="name:en" v="Prague Ring"/>
    <tag k="oneway" v="yes"/>
    <tag k="placement" v="right_of:1"/>
    <tag k="ref" v="D0"/>
    <tag k="source:maxspeed" v="CZ:motorway"/>
    <tag k="surface" v="concrete"/>
    <tag k="toll" v="no"/>
    <tag k="toll:hgv" v="yes"/>
    <tag k="turn:lanes" v="||merge_to_left"/>
  </way>
  <way id="481376411" version="8" timestamp="2023-03-16T10:25:48Z" changeset="133742600" uid="8971394" user="vojtechzaboril">
    <nd ref="21596985"/>
    <nd ref="10676566340"/>
    <nd ref="8589259023"/>
    <nd ref="8589259024"/>
    <nd ref="105045928"/>
    <tag k="destination" v="Hradec Kr치lov칠;Brno;Strakonice"/>
    <tag k="highway" v="motorway"/>
    <tag k="int_ref" v="E 50"/>
    <tag k="lanes" v="2"/>
    <tag k="maxspeed" v="130"/>
    <tag k="name" v="Pra쬽k칳 okruh"/>
    <tag k="name:de" v="Prager Ring"/>
    <tag k="name:en" v="Prague Ring"/>
    <tag k="oneway" v="yes"/>
    <tag k="ref" v="D0"/>
    <tag k="source:maxspeed" v="CZ:motorway"/>
    <tag k="surface" v="concrete"/>
    <tag k="toll" v="no"/>
    <tag k="toll:hgv" v="yes"/>
  </way>
  <way id="481376412" version="12" timestamp="2024-09-16T10:27:09Z" changeset="156681527" uid="8971394" user="vojtechzaboril">
    <nd ref="7124831806"/>
    <nd ref="10676566333"/>
    <nd ref="8589259017"/>
    <nd ref="105045938"/>
    <nd ref="8589259018"/>
    <nd ref="7124831805"/>
    <nd ref="8589259021"/>
    <nd ref="10676566341"/>
    <nd ref="8589259020"/>
    <nd ref="10738932878"/>
    <nd ref="21596985"/>
    <tag k="highway" v="motorway"/>
    <tag k="int_ref" v="E 50"/>
    <tag k="lanes" v="3"/>
    <tag k="maxheight" v="default"/>
    <tag k="maxspeed" v="130"/>
    <tag k="name" v="Pra쬽k칳 okruh"/>
    <tag k="name:de" v="Prager Ring"/>
    <tag k="name:en" v="Prague Ring"/>
    <tag k="oneway" v="yes"/>
    <tag k="placement" v="right_of:1"/>
    <tag k="ref" v="D0"/>
    <tag k="source:maxspeed" v="CZ:motorway"/>
    <tag k="surface" v="concrete"/>
    <tag k="toll" v="no"/>
    <tag k="toll:hgv" v="yes"/>
    <tag k="turn:lanes" v="||slight_right"/>
  </way>
  <way id="481376413" version="5" timestamp="2024-09-16T10:27:09Z" changeset="156681527" uid="8971394" user="vojtechzaboril">
    <nd ref="8589259091"/>
    <nd ref="8589259090"/>
    <nd ref="7124831834"/>
    <nd ref="7124831839"/>
    <nd ref="8589259092"/>
    <nd ref="4743140631"/>
    <nd ref="8589259093"/>
    <nd ref="7124831838"/>
    <nd ref="4743140632"/>
    <tag k="bicycle" v="no"/>
    <tag k="destination" v="Praha-콎eporyje"/>
    <tag k="highway" v="motorway_link"/>
    <tag k="oneway" v="yes"/>
  </way>
  <way id="481376414" version="6" timestamp="2024-09-16T10:27:09Z" changeset="156681527" uid="8971394" user="vojtechzaboril">
    <nd ref="4743140633"/>
    <nd ref="7124831837"/>
    <nd ref="4743140634"/>
    <nd ref="8589259095"/>
    <nd ref="7124831836"/>
    <nd ref="8589259094"/>
    <nd ref="7124831835"/>
    <nd ref="8589547787"/>
    <tag k="bicycle" v="no"/>
    <tag k="destination" v="Praha-Radot칤n"/>
    <tag k="highway" v="motorway_link"/>
    <tag k="oneway" v="yes"/>
  </way>
  <way id="481376415" version="5" timestamp="2024-09-16T10:27:09Z" changeset="156681527" uid="8971394" user="vojtechzaboril">
    <nd ref="21596991"/>
    <nd ref="8589259098"/>
    <nd ref="8589259099"/>
    <nd ref="8589259088"/>
    <nd ref="8589547787"/>
    <tag k="bicycle" v="no"/>
    <tag k="destination:forward" v="Praha-Radot칤n;Praha-Bran칤k"/>
    <tag k="highway" v="motorway_link"/>
    <tag k="oneway" v="yes"/>
  </way>
  <way id="481376416" version="4" timestamp="2019-04-24T11:34:14Z" changeset="69522246" uid="1189910" user="Milancer">
    <nd ref="4743140633"/>
    <nd ref="1727478372"/>
    <nd ref="3049269534"/>
    <tag k="highway" v="tertiary"/>
    <tag k="maxspeed" v="50"/>
    <tag k="name" v="O콏e코sk치"/>
    <tag k="ref" v="1154"/>
    <tag k="source" v="Yahoo"/>
    <tag k="surface" v="asphalt"/>
  </way>
  <way id="481376417" version="4" timestamp="2019-04-24T11:34:14Z" changeset="69522246" uid="1189910" user="Milancer">
    <nd ref="4743140632"/>
    <nd ref="161588460"/>
    <tag k="highway" v="tertiary"/>
    <tag k="name" v="O콏e코sk치"/>
    <tag k="source" v="Yahoo"/>
    <tag k="surface" v="asphalt"/>
  </way>
  <way id="481377698" version="7" timestamp="2023-03-16T10:25:48Z" changeset="133742600" uid="8971394" user="vojtechzaboril">
    <nd ref="105045937"/>
    <nd ref="8589278760"/>
    <nd ref="10738932873"/>
    <nd ref="344162313"/>
    <nd ref="8589278762"/>
    <nd ref="8589278763"/>
    <nd ref="7124831800"/>
    <nd ref="8589278764"/>
    <nd ref="252064"/>
    <tag k="highway" v="motorway"/>
    <tag k="int_ref" v="E 50"/>
    <tag k="lanes" v="3"/>
    <tag k="maxspeed" v="130"/>
    <tag k="name" v="Pra쬽k칳 okruh"/>
    <tag k="name:de" v="Prager Ring"/>
    <tag k="name:en" v="Prague Ring"/>
    <tag k="oneway" v="yes"/>
    <tag k="placement" v="right_of:1"/>
    <tag k="ref" v="D0"/>
    <tag k="source:maxspeed" v="CZ:motorway"/>
    <tag k="surface" v="concrete"/>
    <tag k="toll" v="no"/>
    <tag k="toll:hgv" v="yes"/>
    <tag k="turn:lanes" v="||merge_to_left"/>
  </way>
  <way id="481377699" version="5" timestamp="2021-04-03T10:42:40Z" changeset="102230688" uid="11276832" user="HaPe-CZ">
    <nd ref="252064"/>
    <nd ref="8589278765"/>
    <nd ref="8589278766"/>
    <nd ref="8589278767"/>
    <nd ref="8589278768"/>
    <nd ref="105045980"/>
    <nd ref="8589278769"/>
    <nd ref="8589278770"/>
    <nd ref="8589278771"/>
    <nd ref="344162317"/>
    <nd ref="8589278772"/>
    <nd ref="8589278774"/>
    <nd ref="3350509922"/>
    <tag k="highway" v="motorway"/>
    <tag k="int_ref" v="E 50"/>
    <tag k="lanes" v="2"/>
    <tag k="maxspeed" v="130"/>
    <tag k="name" v="Pra쬽k칳 okruh"/>
    <tag k="name:de" v="Prager Ring"/>
    <tag k="name:en" v="Prague Ring"/>
    <tag k="oneway" v="yes"/>
    <tag k="ref" v="D0"/>
    <tag k="source:maxspeed" v="CZ:motorway"/>
    <tag k="surface" v="concrete"/>
    <tag k="toll" v="no"/>
    <tag k="toll:hgv" v="yes"/>
  </way>
  <way id="481380652" version="6" timestamp="2024-02-27T08:55:22Z" changeset="147963084" uid="17615" user="Petr Dlouh칳">
    <nd ref="4743191499"/>
    <nd ref="293484142"/>
    <nd ref="9642343969"/>
    <nd ref="344184523"/>
    <nd ref="293484146"/>
    <nd ref="344184526"/>
    <nd ref="293484151"/>
    <nd ref="344184528"/>
    <nd ref="344184530"/>
    <nd ref="293484156"/>
    <nd ref="344182022"/>
    <tag k="highway" v="secondary"/>
    <tag k="maxspeed" v="70"/>
    <tag k="name" v="Poncarova"/>
    <tag k="oneway" v="yes"/>
    <tag k="source:maxspeed" v="sign"/>
    <tag k="surface" v="asphalt"/>
  </way>
  <way id="482730771" version="7" timestamp="2024-01-23T21:59:38Z" changeset="146609941" uid="469828" user="Luk치코 Jel칤nek">
    <nd ref="21597601"/>
    <nd ref="1045023833"/>
    <nd ref="11544687714"/>
    <nd ref="1045208897"/>
    <nd ref="7603402675"/>
    <nd ref="11544687713"/>
    <nd ref="7603402673"/>
    <nd ref="519172791"/>
    <tag k="highway" v="tertiary"/>
    <tag k="name" v="K T콏ebonic콢m"/>
    <tag k="surface" v="asphalt"/>
  </way>
  <way id="482730772" version="7" timestamp="2023-10-18T06:04:01Z" changeset="142743725" uid="20373864" user="Pete24">
    <nd ref="21597003"/>
    <nd ref="7504718905"/>
    <nd ref="1045024736"/>
    <nd ref="429301204"/>
    <tag k="highway" v="tertiary"/>
    <tag k="lanes" v="2"/>
    <tag k="name" v="Sm칤chovsk치"/>
    <tag k="sidewalk:both" v="separate"/>
    <tag k="surface" v="asphalt"/>
  </way>
  <way id="487952382" version="4" timestamp="2021-04-03T13:59:37Z" changeset="102237406" uid="11276832" user="HaPe-CZ">
    <nd ref="3107494144"/>
    <nd ref="8589274198"/>
    <nd ref="105049168"/>
    <nd ref="8589274197"/>
    <nd ref="7124831809"/>
    <nd ref="3107494148"/>
    <nd ref="8589274196"/>
    <nd ref="7124831810"/>
    <tag k="highway" v="motorway_link"/>
    <tag k="lanes" v="1"/>
    <tag k="maxspeed" v="130"/>
    <tag k="maxweight" v="6"/>
    <tag k="oneway" v="yes"/>
    <tag k="surface" v="asphalt"/>
  </way>
  <way id="487952383" version="3" timestamp="2023-03-16T10:25:48Z" changeset="133742600" uid="8971394" user="vojtechzaboril">
    <nd ref="3107494147"/>
    <nd ref="3107494146"/>
    <nd ref="7124831803"/>
    <nd ref="7124831802"/>
    <nd ref="105045937"/>
    <tag k="highway" v="motorway_link"/>
    <tag k="lanes" v="1"/>
    <tag k="maxspeed" v="130"/>
    <tag k="oneway" v="yes"/>
    <tag k="surface" v="concrete"/>
  </way>
  <way id="487952384" version="6" timestamp="2024-09-16T10:27:09Z" changeset="156681527" uid="8971394" user="vojtechzaboril">
    <nd ref="4803369688"/>
    <nd ref="8589259039"/>
    <nd ref="1839289430"/>
    <nd ref="8589259038"/>
    <nd ref="7124831849"/>
    <nd ref="8589259037"/>
    <nd ref="4803369689"/>
    <nd ref="8589259036"/>
    <nd ref="7124831848"/>
    <nd ref="8589259035"/>
    <nd ref="8589259034"/>
    <nd ref="8589259062"/>
    <nd ref="8589259074"/>
    <nd ref="8589259075"/>
    <nd ref="8589259076"/>
    <nd ref="8589259077"/>
    <nd ref="8589259078"/>
    <nd ref="8589259079"/>
    <nd ref="8589259080"/>
    <nd ref="8589259081"/>
    <nd ref="8589259082"/>
    <nd ref="8589259083"/>
    <nd ref="8589259084"/>
    <nd ref="8589259085"/>
    <nd ref="8589259086"/>
    <nd ref="8589259087"/>
    <nd ref="8589259091"/>
    <nd ref="8589259089"/>
    <nd ref="8589259097"/>
    <nd ref="8589259096"/>
    <nd ref="21596991"/>
    <tag k="bicycle" v="no"/>
    <tag k="highway" v="motorway_link"/>
    <tag k="lanes" v="1"/>
    <tag k="maxspeed" v="90"/>
    <tag k="maxweight" v="6"/>
    <tag k="oneway" v="yes"/>
    <tag k="surface" v="asphalt"/>
  </way>
  <way id="487952385" version="5" timestamp="2024-06-07T05:40:53Z" changeset="152358241" uid="20481875" user="NotAFedISwear">
    <nd ref="2989480222"/>
    <nd ref="8589259028"/>
    <nd ref="7124831844"/>
    <nd ref="105045928"/>
    <tag k="highway" v="motorway_link"/>
    <tag k="lanes" v="1"/>
    <tag k="maxspeed" v="130"/>
    <tag k="oneway" v="yes"/>
    <tag k="surface" v="concrete"/>
  </way>
  <way id="487952724" version="4" timestamp="2021-04-03T10:42:40Z" changeset="102230688" uid="11276832" user="HaPe-CZ">
    <nd ref="3350509922"/>
    <nd ref="8589278773"/>
    <nd ref="8589278775"/>
    <nd ref="3350509928"/>
    <tag k="highway" v="motorway"/>
    <tag k="int_ref" v="E 50"/>
    <tag k="lanes" v="2"/>
    <tag k="maxspeed" v="130"/>
    <tag k="name" v="Pra쬽k칳 okruh"/>
    <tag k="name:de" v="Prager Ring"/>
    <tag k="name:en" v="Prague Ring"/>
    <tag k="oneway" v="yes"/>
    <tag k="ref" v="D0"/>
    <tag k="source:maxspeed" v="CZ:motorway"/>
    <tag k="surface" v="asphalt"/>
    <tag k="toll" v="no"/>
    <tag k="toll:hgv" v="yes"/>
  </way>
  <way id="487952725" version="8" timestamp="2024-09-16T10:27:09Z" changeset="156681527" uid="8971394" user="vojtechzaboril">
    <nd ref="4803372017"/>
    <nd ref="344162316"/>
    <nd ref="8589259004"/>
    <nd ref="8589259005"/>
    <nd ref="8589259006"/>
    <nd ref="105045983"/>
    <nd ref="8589259007"/>
    <nd ref="8589259008"/>
    <nd ref="8589259009"/>
    <nd ref="8589259010"/>
    <nd ref="21456342"/>
    <nd ref="8589259011"/>
    <nd ref="8589259012"/>
    <nd ref="7124831801"/>
    <nd ref="10676566335"/>
    <nd ref="8589259013"/>
    <nd ref="8589259014"/>
    <nd ref="344162314"/>
    <nd ref="10738932872"/>
    <nd ref="8589259016"/>
    <nd ref="7124831806"/>
    <tag k="highway" v="motorway"/>
    <tag k="int_ref" v="E 50"/>
    <tag k="lanes" v="2"/>
    <tag k="maxspeed" v="130"/>
    <tag k="name" v="Pra쬽k칳 okruh"/>
    <tag k="name:de" v="Prager Ring"/>
    <tag k="name:en" v="Prague Ring"/>
    <tag k="oneway" v="yes"/>
    <tag k="ref" v="D0"/>
    <tag k="source:maxspeed" v="CZ:motorway"/>
    <tag k="surface" v="concrete"/>
    <tag k="toll" v="no"/>
    <tag k="toll:hgv" v="yes"/>
  </way>
  <way id="498563246" version="5" timestamp="2025-02-24T23:06:30Z" changeset="162911400" uid="22521062" user="Honza 游땙">
    <nd ref="4899569015"/>
    <nd ref="4899569016"/>
    <nd ref="9332821217"/>
    <nd ref="4899569017"/>
    <tag k="highway" v="secondary_link"/>
    <tag k="oneway" v="yes"/>
    <tag k="sidewalk" v="no"/>
  </way>
  <way id="498563247" version="6" timestamp="2025-02-24T23:06:45Z" changeset="162911400" uid="22521062" user="Honza 游땙">
    <nd ref="4899569017"/>
    <nd ref="9332821218"/>
    <nd ref="11589884657"/>
    <nd ref="4899569018"/>
    <tag k="highway" v="secondary_link"/>
    <tag k="oneway" v="yes"/>
    <tag k="sidewalk:left" v="no"/>
    <tag k="sidewalk:right" v="separate"/>
  </way>
  <way id="507852720" version="5" timestamp="2024-01-09T07:15:45Z" changeset="146054212" uid="20373864" user="Pete24">
    <nd ref="60271859"/>
    <nd ref="8448669629"/>
    <nd ref="8448669630"/>
    <nd ref="60271860"/>
    <tag k="highway" v="residential"/>
    <tag k="lane_markings" v="no"/>
    <tag k="name" v="n치m캩st칤 U Lva"/>
    <tag k="sidewalk" v="both"/>
    <tag k="source:name" v="nameit/uir-adr"/>
    <tag k="surface" v="asphalt"/>
  </way>
  <way id="576245765" version="3" timestamp="2021-04-11T19:14:23Z" changeset="102753129" uid="1189910" user="Milancer">
    <nd ref="78598564"/>
    <nd ref="78598561"/>
    <nd ref="78598558"/>
    <nd ref="78598554"/>
    <nd ref="25927294"/>
    <nd ref="25927292"/>
    <nd ref="8618597133"/>
    <nd ref="25927290"/>
    <nd ref="25927289"/>
    <nd ref="7306378"/>
    <nd ref="6240247908"/>
    <nd ref="7306371"/>
    <tag k="highway" v="tertiary"/>
    <tag k="maxspeed" v="90"/>
    <tag k="ref" v="6002"/>
  </way>
  <way id="591081905" version="3" timestamp="2025-02-24T23:06:41Z" changeset="162911400" uid="22521062" user="Honza 游땙">
    <nd ref="4899569017"/>
    <nd ref="2503644889"/>
    <tag k="bicycle" v="no"/>
    <tag k="highway" v="tertiary"/>
    <tag k="name" v="K T콏ebonic콢m"/>
    <tag k="sidewalk" v="no"/>
    <tag k="surface" v="asphalt"/>
  </way>
  <way id="591081906" version="4" timestamp="2025-02-24T23:06:25Z" changeset="162911400" uid="22521062" user="Honza 游땙">
    <nd ref="4899569015"/>
    <nd ref="1074216399"/>
    <tag k="highway" v="secondary"/>
    <tag k="lanes" v="2"/>
    <tag k="maxspeed" v="50"/>
    <tag k="name" v="Poncarova"/>
    <tag k="oneway" v="yes"/>
    <tag k="sidewalk" v="no"/>
    <tag k="source:maxspeed" v="sign"/>
    <tag k="surface" v="asphalt"/>
  </way>
  <way id="684749805" version="1" timestamp="2019-04-19T09:47:42Z" changeset="69371281" uid="665336" user="Minimalis">
    <nd ref="4384491284"/>
    <nd ref="4972774631"/>
    <nd ref="245502100"/>
    <tag k="bicycle" v="yes"/>
    <tag k="foot" v="yes"/>
    <tag k="highway" v="residential"/>
    <tag k="horse" v="no"/>
    <tag k="motor_vehicle" v="no"/>
    <tag k="name" v="Neffova"/>
  </way>
  <way id="869734142" version="2" timestamp="2022-12-30T11:38:06Z" changeset="130683014" uid="3516" user="BiIbo">
    <nd ref="5018288543"/>
    <nd ref="7294404"/>
    <tag k="highway" v="residential"/>
    <tag k="name" v="KChaloupce"/>
    <tag k="source:name" v="nameit/uir-adr"/>
    <tag k="surface" v="asphalt"/>
  </way>
  <way id="888476454" version="2" timestamp="2021-05-07T20:46:08Z" changeset="104340632" uid="6588887" user="Martin2035">
    <nd ref="1049044233"/>
    <nd ref="8710797148"/>
    <nd ref="8710797147"/>
    <nd ref="245501823"/>
    <nd ref="8710797146"/>
    <nd ref="6240247829"/>
    <nd ref="8710797137"/>
    <nd ref="245501228"/>
    <tag k="highway" v="tertiary"/>
    <tag k="maxspeed" v="30"/>
    <tag k="name" v="O콏e코sk치"/>
    <tag k="source" v="Yahoo"/>
    <tag k="surface" v="asphalt"/>
  </way>
  <way id="888476455" version="1" timestamp="2020-12-25T20:17:56Z" changeset="96433922" uid="1189910" user="Milancer">
    <nd ref="8260343847"/>
    <nd ref="245501228"/>
    <tag k="highway" v="residential"/>
    <tag k="name" v="Drahovsk치"/>
  </way>
  <way id="888476456" version="2" timestamp="2021-05-07T20:46:08Z" changeset="104340632" uid="6588887" user="Martin2035">
    <nd ref="8260343847"/>
    <nd ref="245501257"/>
    <nd ref="3030478780"/>
    <nd ref="245501231"/>
    <nd ref="245501234"/>
    <nd ref="245501240"/>
    <nd ref="245501245"/>
    <nd ref="245501227"/>
    <tag k="highway" v="residential"/>
    <tag k="maxspeed" v="30"/>
    <tag k="maxspeed:type" v="CZ:zone30"/>
    <tag k="maxspeed:zone" v="30"/>
    <tag k="name" v="Drahovsk치"/>
  </way>
  <way id="909923958" version="4" timestamp="2022-11-19T21:27:19Z" changeset="129138801" uid="469828" user="Luk치코 Jel칤nek">
    <nd ref="245501198"/>
    <nd ref="10202702823"/>
    <nd ref="8929121070"/>
    <nd ref="8910188235"/>
    <nd ref="8448669621"/>
    <tag k="highway" v="residential"/>
    <tag k="name" v="Na Manou코ce"/>
    <tag k="oneway" v="yes"/>
    <tag k="source:name" v="nameit/uir-adr"/>
    <tag k="surface" v="asphalt"/>
  </way>
  <way id="909923959" version="3" timestamp="2023-11-09T15:01:51Z" changeset="143826607" uid="20575053" user="OpenStreetMapMartin">
    <nd ref="8448669621"/>
    <nd ref="25927138"/>
    <tag k="highway" v="residential"/>
    <tag k="lit" v="yes"/>
    <tag k="name" v="Na Manou코ce"/>
    <tag k="oneway" v="no"/>
    <tag k="source:name" v="nameit/uir-adr"/>
    <tag k="surface" v="asphalt"/>
  </way>
  <way id="909923962" version="3" timestamp="2024-12-21T18:58:09Z" changeset="160480105" uid="10224968" user="comfyquiettree">
    <nd ref="4346958508"/>
    <nd ref="4346958509"/>
    <nd ref="5018462626"/>
    <nd ref="4346958510"/>
    <nd ref="5018462629"/>
    <nd ref="4346958511"/>
    <nd ref="4346958512"/>
    <nd ref="4346958513"/>
    <tag k="highway" v="residential"/>
    <tag k="lane_markings" v="no"/>
    <tag k="motor_vehicle" v="destination"/>
    <tag k="name" v="Kakosova"/>
    <tag k="source" v="cuzk:km"/>
    <tag k="surface" v="asphalt"/>
  </way>
  <way id="925509794" version="5" timestamp="2024-10-21T12:18:59Z" changeset="158167262" uid="8971394" user="vojtechzaboril">
    <nd ref="7124831810"/>
    <nd ref="8589274195"/>
    <nd ref="8589274214"/>
    <nd ref="8589274215"/>
    <nd ref="8589274216"/>
    <nd ref="8589278717"/>
    <nd ref="8589278718"/>
    <nd ref="8589278719"/>
    <nd ref="8589278720"/>
    <nd ref="8589278721"/>
    <nd ref="8589278722"/>
    <nd ref="8589278723"/>
    <nd ref="8589278724"/>
    <nd ref="8589278725"/>
    <nd ref="8589278726"/>
    <nd ref="8589278727"/>
    <nd ref="8589278728"/>
    <nd ref="8589278729"/>
    <nd ref="8589278730"/>
    <nd ref="8589278731"/>
    <nd ref="8589278732"/>
    <nd ref="8589278733"/>
    <tag k="bicycle" v="no"/>
    <tag k="cycleway:right" v="no"/>
    <tag k="highway" v="motorway_link"/>
    <tag k="lanes" v="1"/>
    <tag k="maxspeed" v="90"/>
    <tag k="maxweight" v="6"/>
    <tag k="oneway" v="yes"/>
    <tag k="surface" v="asphalt"/>
  </way>
  <way id="925509795" version="3" timestamp="2024-09-16T10:27:09Z" changeset="156681527" uid="8971394" user="vojtechzaboril">
    <nd ref="105049236"/>
    <nd ref="8589278755"/>
    <nd ref="8589278756"/>
    <nd ref="8589278751"/>
    <nd ref="8589278752"/>
    <nd ref="8589278753"/>
    <nd ref="8589278754"/>
    <nd ref="8589278745"/>
    <tag k="bicycle" v="no"/>
    <tag k="highway" v="motorway_link"/>
    <tag k="oneway" v="yes"/>
  </way>
  <way id="925542586" version="2" timestamp="2024-09-16T10:27:09Z" changeset="156681527" uid="8971394" user="vojtechzaboril">
    <nd ref="8589547787"/>
    <nd ref="4743140630"/>
    <tag k="highway" v="motorway_link"/>
    <tag k="lanes" v="1"/>
    <tag k="maxspeed" v="90"/>
    <tag k="oneway" v="yes"/>
    <tag k="surface" v="asphalt"/>
  </way>
  <way id="963217270" version="1" timestamp="2021-07-10T14:30:40Z" changeset="107750374" uid="2718770" user="noirre">
    <nd ref="8909858053"/>
    <nd ref="1049089314"/>
    <nd ref="245501216"/>
    <tag k="highway" v="residential"/>
    <tag k="name" v="콎ep칤kov치"/>
    <tag k="source:name" v="nameit/uir-adr"/>
    <tag k="surface" v="unpaved"/>
  </way>
  <way id="963253358" version="1" timestamp="2021-07-10T18:41:05Z" changeset="107758728" uid="2718770" user="noirre">
    <nd ref="8910188277"/>
    <nd ref="8910188278"/>
    <nd ref="8910188279"/>
    <nd ref="8910188280"/>
    <nd ref="8910188277"/>
    <tag k="amenity" v="community_centre"/>
    <tag k="building" v="yes"/>
    <tag k="name" v="Bubec"/>
  </way>
  <way id="970933437" version="1" timestamp="2021-08-06T15:13:46Z" changeset="109268927" uid="2718770" user="noirre">
    <nd ref="8986048784"/>
    <nd ref="8986048785"/>
    <nd ref="8986048786"/>
    <nd ref="8986048787"/>
    <nd ref="8986048784"/>
    <tag k="amenity" v="restaurant"/>
    <tag k="building" v="yes"/>
    <tag k="name" v="콎epryjsk치 Sokolovna"/>
  </way>
  <way id="1050920438" version="4" timestamp="2024-07-21T18:43:27Z" changeset="154232467" uid="21683308" user="CurlConnoisseur">
    <nd ref="9657444126"/>
    <nd ref="9657444125"/>
    <nd ref="9657444124"/>
    <nd ref="9657444123"/>
    <tag k="highway" v="residential"/>
    <tag k="lane_markings" v="no"/>
    <tag k="name" v="Hl치vkova"/>
    <tag k="surface" v="paving_stones"/>
  </way>
  <way id="1084304853" version="1" timestamp="2022-08-06T19:48:56Z" changeset="124576116" uid="1189910" user="Milancer">
    <nd ref="1419597186"/>
    <nd ref="8448669640"/>
    <nd ref="346244032"/>
    <nd ref="346244034"/>
    <nd ref="346244036"/>
    <nd ref="346244038"/>
    <nd ref="346244040"/>
    <tag k="highway" v="unclassified"/>
    <tag k="name" v="Muzikova"/>
  </way>
  <way id="1084304855" version="6" timestamp="2025-04-23T07:22:52Z" changeset="165316531" uid="15312507" user="POI Mapper">
    <nd ref="9936126441"/>
    <nd ref="3030478795"/>
    <nd ref="519172799"/>
    <nd ref="346244043"/>
    <nd ref="245502081"/>
    <nd ref="245502089"/>
    <nd ref="245502087"/>
    <nd ref="245502086"/>
    <nd ref="245502091"/>
    <tag k="access" v="destination"/>
    <tag k="bicycle" v="yes"/>
    <tag k="foot" v="yes"/>
    <tag k="highway" v="residential"/>
    <tag k="lane_markings" v="no"/>
    <tag k="name" v="Ve V칳rech"/>
    <tag k="source:name" v="nameit/uir-adr"/>
    <tag k="surface" v="asphalt"/>
  </way>
  <way id="1182962218" version="1" timestamp="2023-06-18T18:27:38Z" changeset="137488781" uid="231749" user="Eino81">
    <nd ref="1884353856"/>
    <nd ref="1884353854"/>
    <nd ref="1884353852"/>
    <nd ref="1884353850"/>
    <tag k="access" v="private"/>
    <tag k="highway" v="residential"/>
    <tag k="name" v="Hasi캜콢"/>
  </way>
  <way id="1182962256" version="1" timestamp="2023-06-18T18:28:41Z" changeset="137488803" uid="231749" user="Eino81">
    <nd ref="346535021"/>
    <nd ref="10984684285"/>
    <tag k="access" v="private"/>
    <tag k="highway" v="residential"/>
    <tag k="name" v="U Bubce"/>
  </way>
  <way id="1193712873" version="1" timestamp="2023-08-01T09:11:21Z" changeset="139289568" uid="9291527" user="marekhrabe">
    <nd ref="11080474900"/>
    <nd ref="11080474901"/>
    <tag k="highway" v="residential"/>
    <tag k="name" v="U Hlin칤ku"/>
    <tag k="surface" v="asphalt"/>
  </way>
  <way id="1226691721" version="2" timestamp="2025-02-24T23:09:37Z" changeset="162911400" uid="22521062" user="Honza 游땙">
    <nd ref="4899569018"/>
    <nd ref="4899569019"/>
    <tag k="highway" v="secondary_link"/>
    <tag k="oneway" v="yes"/>
    <tag k="sidewalk" v="no"/>
  </way>
  <way id="1292617179" version="3" timestamp="2025-02-23T10:38:10Z" changeset="162845665" uid="22521062" user="Honza 游땙">
    <nd ref="11982854754"/>
    <nd ref="11982854755"/>
    <nd ref="11982854756"/>
    <nd ref="11982854757"/>
    <nd ref="11982854758"/>
    <nd ref="11982854759"/>
    <nd ref="11982854754"/>
    <tag k="addr:housenumber" v="1553/31"/>
    <tag k="addr:postcode" v="15500"/>
    <tag k="addr:street" v="Radou켿ova"/>
    <tag k="building" v="yes"/>
    <tag k="building:levels" v="3"/>
  </way>
  <way id="1292830757" version="1" timestamp="2024-06-16T11:25:31Z" changeset="152756319" uid="1189910" user="Milancer">
    <nd ref="21597596"/>
    <nd ref="1045208902"/>
    <nd ref="60271844"/>
    <nd ref="245499054"/>
    <nd ref="495469122"/>
    <nd ref="245499056"/>
    <nd ref="321379289"/>
    <tag k="highway" v="residential"/>
    <tag k="name" v="Rudoltick치"/>
    <tag k="source:name" v="nameit/uir-adr"/>
    <tag k="surface" v="asphalt"/>
  </way>
  <way id="1315890679" version="1" timestamp="2024-09-16T10:27:09Z" changeset="156681527" uid="8971394" user="vojtechzaboril">
    <nd ref="8589259032"/>
    <nd ref="7124831847"/>
    <nd ref="8589259031"/>
    <nd ref="2989480221"/>
    <nd ref="8589259030"/>
    <nd ref="7124831846"/>
    <nd ref="8589259029"/>
    <nd ref="7124831845"/>
    <nd ref="2989480222"/>
    <tag k="highway" v="motorway_link"/>
    <tag k="lanes" v="1"/>
    <tag k="maxspeed" v="130"/>
    <tag k="oneway" v="yes"/>
    <tag k="surface" v="asphalt"/>
  </way>
  <way id="1344588980" version="1" timestamp="2024-12-21T18:58:09Z" changeset="160480105" uid="10224968" user="comfyquiettree">
    <nd ref="4346958513"/>
    <nd ref="5018562114"/>
    <nd ref="4346958514"/>
    <nd ref="5018562118"/>
    <nd ref="4346958515"/>
    <tag k="highway" v="residential"/>
    <tag k="lane_markings" v="no"/>
    <tag k="motor_vehicle" v="destination"/>
    <tag k="name" v="Kakosova"/>
    <tag k="oneway" v="yes"/>
    <tag k="source" v="cuzk:km"/>
    <tag k="surface" v="asphalt"/>
  </way>

</osm>
