<?xml version="1.0" encoding="UTF-8"?>
<osm version="0.6" generator="Overpass API 0.7.62.5 1bd436f1">
<note>The data included in this document is from www.openstreetmap.org. The data is made available under ODbL.</note>
<meta osm_base="2025-05-18T03:39:19Z" areas="2024-12-31T00:49:33Z"/>

  <node id="13807328" lat="53.8748589" lon="-1.4438027" version="4" timestamp="2019-12-12T12:35:35Z" changeset="78317244" uid="3316592" user="Arthtoach"/>
  <node id="685149231" lat="53.8751092" lon="-1.4435454" version="3" timestamp="2010-10-02T20:42:08Z" changeset="5939628" uid="135339" user="mplusplus"/>
  <node id="935615248" lat="53.8767527" lon="-1.4657348" version="2" timestamp="2012-10-31T23:42:57Z" changeset="13705671" uid="792198" user="haveyougotanypets"/>
  <node id="935630493" lat="53.8663880" lon="-1.4740904" version="2" timestamp="2012-02-01T09:54:03Z" changeset="10557142" uid="308" user="MichaelCollinson"/>
  <node id="935630652" lat="53.8661121" lon="-1.4750226" version="3" timestamp="2014-11-12T07:48:41Z" changeset="26729069" uid="493595" user="Yorvik Prestigitator"/>
  <node id="935672032" lat="53.8599263" lon="-1.4704921" version="1" timestamp="2010-10-02T20:46:46Z" changeset="5939669" uid="135339" user="mplusplus"/>
  <node id="1614128628" lat="53.8682097" lon="-1.4678632" version="2" timestamp="2019-06-22T12:18:46Z" changeset="71508449" uid="3316592" user="Arthtoach"/>
  <node id="1614128649" lat="53.8676345" lon="-1.4279376" version="2" timestamp="2012-11-24T13:39:24Z" changeset="14012210" uid="792198" user="haveyougotanypets"/>
  <node id="1944700889" lat="53.8621467" lon="-1.4527331" version="2" timestamp="2012-12-10T20:33:21Z" changeset="14230919" uid="792198" user="haveyougotanypets"/>
  <way id="58685252" version="7" timestamp="2020-05-25T21:31:56Z" changeset="85733667" uid="4543415" user="The_JF">
    <nd ref="1614128657"/>
    <nd ref="2060601033"/>
    <tag k="foot" v="designated"/>
    <tag k="highway" v="unclassified"/>
  </way>
  <way id="58757431" version="3" timestamp="2012-10-31T23:42:57Z" changeset="13705671" uid="792198" user="haveyougotanypets">
    <nd ref="13807328"/>
    <nd ref="935666475"/>
    <nd ref="935666329"/>
    <nd ref="728191978"/>
    <nd ref="935665956"/>
    <nd ref="1991675424"/>
    <nd ref="1991675303"/>
    <nd ref="728191988"/>
    <tag k="highway" v="residential"/>
    <tag k="name" v="Wayside Mount"/>
  </way>
  <way id="65289119" version="12" timestamp="2021-08-27T19:29:39Z" changeset="110356618" uid="4543415" user="The_JF">
    <nd ref="1614128628"/>
    <nd ref="248045191"/>
    <nd ref="248045192"/>
    <nd ref="248045193"/>
    <nd ref="248045194"/>
    <nd ref="248045195"/>
    <nd ref="1614128617"/>
    <nd ref="7165098345"/>
    <nd ref="248045198"/>
    <nd ref="248045199"/>
    <nd ref="9041658856"/>
    <nd ref="9041658857"/>
    <nd ref="248045200"/>
    <nd ref="9041658871"/>
    <nd ref="9041658919"/>
    <nd ref="2466268480"/>
    <nd ref="9041658891"/>
    <nd ref="1614128604"/>
    <nd ref="1614128609"/>
    <nd ref="2011559166"/>
    <nd ref="2000600122"/>
    <tag k="highway" v="unclassified"/>
    <tag k="name" v="Syke Lane"/>
    <tag k="source" v="OS OpenData StreetView"/>
    <tag k="surface" v="asphalt"/>
  </way>
  <way id="80195735" version="8" timestamp="2020-08-03T12:23:52Z" changeset="88876906" uid="308" user="MichaelCollinson">
    <nd ref="935630493"/>
    <nd ref="7557260799"/>
    <nd ref="935630518"/>
    <nd ref="7780924946"/>
    <nd ref="7780924759"/>
    <nd ref="7780924739"/>
    <nd ref="936565528"/>
    <nd ref="7780924851"/>
    <nd ref="7780925030"/>
    <nd ref="6766079110"/>
    <nd ref="7780924895"/>
    <nd ref="6766079117"/>
    <nd ref="6543945252"/>
    <nd ref="935630502"/>
    <nd ref="6766079118"/>
    <nd ref="6766079301"/>
    <nd ref="7780924820"/>
    <nd ref="6766079256"/>
    <nd ref="7780924829"/>
    <nd ref="6766079092"/>
    <nd ref="6766079188"/>
    <nd ref="6766079186"/>
    <nd ref="6766079175"/>
    <nd ref="6766057920"/>
    <nd ref="935665805"/>
    <nd ref="6766079160"/>
    <nd ref="6766079134"/>
    <nd ref="6766057969"/>
    <nd ref="6766057957"/>
    <nd ref="935666035"/>
    <nd ref="936565743"/>
    <nd ref="935666142"/>
    <nd ref="936565971"/>
    <nd ref="936565531"/>
    <nd ref="935666469"/>
    <nd ref="935630644"/>
    <tag k="highway" v="unclassified"/>
    <tag k="name" v="Ling Lane"/>
    <tag k="source" v="OS OpenData StreetView;survey"/>
    <tag k="surface" v="asphalt"/>
  </way>
  <way id="80195737" version="16" timestamp="2020-06-02T16:58:28Z" changeset="86090351" uid="10807044" user="Wibblejunior">
    <nd ref="1614128628"/>
    <nd ref="935630575"/>
    <nd ref="6564545295"/>
    <nd ref="935630518"/>
    <nd ref="936565809"/>
    <nd ref="935630600"/>
    <nd ref="5537512976"/>
    <nd ref="2062445025"/>
    <nd ref="935630554"/>
    <nd ref="935630489"/>
    <nd ref="935630642"/>
    <nd ref="935630572"/>
    <nd ref="935630527"/>
    <nd ref="6565518053"/>
    <nd ref="3182311065"/>
    <nd ref="935630460"/>
    <nd ref="6766177365"/>
    <nd ref="6766177366"/>
    <nd ref="6766177367"/>
    <nd ref="6766177368"/>
    <nd ref="935630597"/>
    <nd ref="6766177369"/>
    <nd ref="6766177370"/>
    <nd ref="6766177371"/>
    <nd ref="6766177372"/>
    <nd ref="3461279280"/>
    <nd ref="935630550"/>
    <tag k="highway" v="unclassified"/>
    <tag k="lanes" v="2"/>
    <tag k="name" v="Bay Horse Lane"/>
    <tag k="source" v="OS OpenData StreetView"/>
    <tag k="surface" v="asphalt"/>
  </way>
  <way id="80197434" version="3" timestamp="2019-12-12T12:45:40Z" changeset="78317709" uid="3316592" user="Arthtoach">
    <nd ref="935666223"/>
    <nd ref="935666065"/>
    <tag k="highway" v="residential"/>
    <tag k="name" v="Moss Syke"/>
    <tag k="source" v="OS OpenData StreetView"/>
    <tag k="surface" v="asphalt"/>
  </way>
  <way id="80197443" version="4" timestamp="2019-09-01T16:54:11Z" changeset="73977756" uid="3316592" user="Arthtoach">
    <nd ref="935666236"/>
    <nd ref="935665860"/>
    <nd ref="935665715"/>
    <nd ref="6764416164"/>
    <nd ref="6764416165"/>
    <nd ref="6764416166"/>
    <nd ref="6764416167"/>
    <nd ref="6764416172"/>
    <nd ref="6764416174"/>
    <nd ref="6764416173"/>
    <nd ref="6764416175"/>
    <nd ref="6764416171"/>
    <nd ref="935665711"/>
    <nd ref="6764416170"/>
    <nd ref="6764416176"/>
    <nd ref="6764416168"/>
    <nd ref="6764416169"/>
    <nd ref="935666435"/>
    <nd ref="935666142"/>
    <tag k="highway" v="residential"/>
    <tag k="name" v="The Firs"/>
    <tag k="source" v="OS OpenData StreetView"/>
    <tag k="surface" v="asphalt"/>
  </way>
  <way id="80197453" version="3" timestamp="2019-12-14T11:29:50Z" changeset="78405343" uid="3316592" user="Arthtoach">
    <nd ref="935665727"/>
    <nd ref="935665561"/>
    <nd ref="935666373"/>
    <nd ref="935665999"/>
    <nd ref="935665527"/>
    <nd ref="935666338"/>
    <nd ref="935665983"/>
    <nd ref="935665617"/>
    <nd ref="935666407"/>
    <nd ref="935666078"/>
    <tag k="highway" v="residential"/>
    <tag k="name" v="The Meadow"/>
    <tag k="source" v="OS OpenData StreetView"/>
    <tag k="surface" v="asphalt"/>
  </way>
  <way id="80197455" version="3" timestamp="2019-12-12T12:45:40Z" changeset="78317709" uid="3316592" user="Arthtoach">
    <nd ref="935666165"/>
    <nd ref="935666031"/>
    <nd ref="935665659"/>
    <nd ref="935666422"/>
    <tag k="highway" v="residential"/>
    <tag k="name" v="Stonefield"/>
    <tag k="source" v="OS OpenData StreetView"/>
    <tag k="surface" v="asphalt"/>
  </way>
  <way id="80197461" version="3" timestamp="2019-12-12T12:45:40Z" changeset="78317709" uid="3316592" user="Arthtoach">
    <nd ref="935666210"/>
    <nd ref="935665838"/>
    <nd ref="935666495"/>
    <tag k="highway" v="residential"/>
    <tag k="name" v="Green Way"/>
    <tag k="source" v="OS OpenData StreetView"/>
    <tag k="surface" v="asphalt"/>
  </way>
  <way id="80197463" version="3" timestamp="2019-12-12T12:45:40Z" changeset="78317709" uid="3316592" user="Arthtoach">
    <nd ref="935666477"/>
    <nd ref="935666147"/>
    <nd ref="935665783"/>
    <nd ref="935666472"/>
    <nd ref="935666260"/>
    <nd ref="935665885"/>
    <tag k="highway" v="residential"/>
    <tag k="name" v="North Hill"/>
    <tag k="source" v="OS OpenData StreetView"/>
    <tag k="surface" v="asphalt"/>
  </way>
  <way id="80197473" version="2" timestamp="2010-10-03T13:59:00Z" changeset="5944378" uid="135339" user="mplusplus">
    <nd ref="935666332"/>
    <nd ref="935666470"/>
    <nd ref="935665979"/>
    <tag k="highway" v="residential"/>
    <tag k="name" v="Hellwood Lane"/>
    <tag k="source" v="OS OpenData StreetView"/>
  </way>
  <way id="80197477" version="3" timestamp="2019-06-22T12:18:46Z" changeset="71508449" uid="3316592" user="Arthtoach">
    <nd ref="935666464"/>
    <nd ref="6564507534"/>
    <nd ref="6564507533"/>
    <nd ref="935665936"/>
    <nd ref="6564507530"/>
    <nd ref="935665599"/>
    <nd ref="6564507529"/>
    <nd ref="935666289"/>
    <nd ref="6564507528"/>
    <nd ref="6564507527"/>
    <nd ref="935665898"/>
    <nd ref="935665573"/>
    <nd ref="935666377"/>
    <nd ref="935666042"/>
    <tag k="highway" v="residential"/>
    <tag k="name" v="Fern Chase"/>
    <tag k="source" v="OS OpenData StreetView"/>
  </way>
  <way id="80197485" version="3" timestamp="2019-12-12T12:45:40Z" changeset="78317709" uid="3316592" user="Arthtoach">
    <nd ref="935665622"/>
    <nd ref="935666082"/>
    <nd ref="935665725"/>
    <tag k="highway" v="residential"/>
    <tag k="name" v="Green View"/>
    <tag k="source" v="OS OpenData StreetView"/>
    <tag k="surface" v="asphalt"/>
  </way>
  <way id="80197489" version="4" timestamp="2019-09-01T16:47:26Z" changeset="73977576" uid="3316592" user="Arthtoach">
    <nd ref="935666035"/>
    <nd ref="6764332751"/>
    <nd ref="6764332750"/>
    <nd ref="935665663"/>
    <nd ref="6764332749"/>
    <nd ref="935666361"/>
    <nd ref="6764332748"/>
    <nd ref="935665990"/>
    <nd ref="935666004"/>
    <nd ref="935665646"/>
    <nd ref="6764332747"/>
    <nd ref="935666414"/>
    <nd ref="935666088"/>
    <nd ref="935666447"/>
    <tag k="highway" v="residential"/>
    <tag k="name" v="Heather Vale"/>
    <tag k="source" v="OS OpenData StreetView"/>
    <tag k="surface" v="asphalt"/>
  </way>
  <way id="80197492" version="3" timestamp="2019-06-22T12:18:46Z" changeset="71508449" uid="3316592" user="Arthtoach">
    <nd ref="935665936"/>
    <nd ref="6564507532"/>
    <nd ref="6564507531"/>
    <nd ref="935665668"/>
    <tag k="highway" v="residential"/>
    <tag k="name" v="Fern Croft"/>
    <tag k="source" v="OS OpenData StreetView"/>
  </way>
  <way id="80197497" version="4" timestamp="2019-09-01T16:54:11Z" changeset="73977756" uid="3316592" user="Arthtoach">
    <nd ref="935666152"/>
    <nd ref="6764416162"/>
    <nd ref="6764416163"/>
    <nd ref="935665715"/>
    <tag k="highway" v="residential"/>
    <tag k="name" v="The Firs"/>
    <tag k="source" v="OS OpenData StreetView"/>
    <tag k="surface" v="asphalt"/>
  </way>
  <way id="80197501" version="3" timestamp="2019-12-14T11:29:50Z" changeset="78405343" uid="3316592" user="Arthtoach">
    <nd ref="936632133"/>
    <nd ref="935665702"/>
    <nd ref="935666431"/>
    <tag k="highway" v="residential"/>
    <tag k="name" v="Woodlands Close"/>
    <tag k="source" v="OS OpenData StreetView"/>
    <tag k="surface" v="asphalt"/>
  </way>
  <way id="80197504" version="4" timestamp="2020-12-30T09:59:23Z" changeset="96657302" uid="11734032" user="daitv">
    <nd ref="935630575"/>
    <nd ref="935665773"/>
    <nd ref="6564507544"/>
    <nd ref="6564507543"/>
    <nd ref="935666464"/>
    <nd ref="6564507542"/>
    <nd ref="935666227"/>
    <nd ref="6564507541"/>
    <nd ref="6564507540"/>
    <nd ref="8273491343"/>
    <nd ref="935665754"/>
    <nd ref="6564507539"/>
    <nd ref="935666454"/>
    <nd ref="6564507538"/>
    <nd ref="6564507537"/>
    <nd ref="935666179"/>
    <nd ref="935665817"/>
    <nd ref="6564507535"/>
    <nd ref="6564507536"/>
    <nd ref="935666486"/>
    <nd ref="935666303"/>
    <tag k="highway" v="residential"/>
    <tag k="name" v="Fern Way"/>
    <tag k="source" v="OS OpenData StreetView"/>
  </way>
  <way id="80197509" version="8" timestamp="2021-08-27T19:29:39Z" changeset="110356618" uid="4543415" user="The_JF">
    <nd ref="248045193"/>
    <nd ref="6764313001"/>
    <nd ref="6764312990"/>
    <nd ref="6764313012"/>
    <nd ref="6764313002"/>
    <nd ref="6564507524"/>
    <nd ref="935665850"/>
    <nd ref="6764283719"/>
    <nd ref="6564507525"/>
    <nd ref="6764283708"/>
    <nd ref="935665519"/>
    <nd ref="6764283707"/>
    <nd ref="6764313043"/>
    <nd ref="6564507526"/>
    <nd ref="6764283698"/>
    <nd ref="935630655"/>
    <tag k="alt_name" v="Definitive Bridleway SCARCROFT 11"/>
    <tag k="bicycle" v="yes"/>
    <tag k="designation" v="public_bridleway"/>
    <tag k="foot" v="designated"/>
    <tag k="highway" v="residential"/>
    <tag k="horse" v="designated"/>
    <tag k="motor_vehicle" v="private"/>
    <tag k="name" v="Bracken Park"/>
    <tag k="prow_ref" v="SCARCROFT BP 11"/>
    <tag k="source" v="OS OpenData StreetView;survey"/>
    <tag k="surface" v="asphalt"/>
  </way>
  <way id="80197514" version="4" timestamp="2019-09-01T16:43:01Z" changeset="73977454" uid="3316592" user="Arthtoach">
    <nd ref="935666429"/>
    <nd ref="935665569"/>
    <nd ref="935666298"/>
    <tag k="highway" v="residential"/>
    <tag k="name" v="The Glade"/>
    <tag k="source" v="OS OpenData StreetView"/>
    <tag k="surface" v="asphalt"/>
  </way>
  <way id="80197519" version="4" timestamp="2019-09-01T16:43:01Z" changeset="73977454" uid="3316592" user="Arthtoach">
    <nd ref="935665805"/>
    <nd ref="935666478"/>
    <nd ref="6764368143"/>
    <nd ref="935666271"/>
    <nd ref="6764368142"/>
    <nd ref="6764368141"/>
    <nd ref="6764368140"/>
    <nd ref="6764368139"/>
    <nd ref="935665894"/>
    <nd ref="6764368138"/>
    <nd ref="935665569"/>
    <tag k="highway" v="residential"/>
    <tag k="name" v="The Glade"/>
    <tag k="source" v="OS OpenData StreetView"/>
    <tag k="surface" v="asphalt"/>
  </way>
  <way id="80197523" version="4" timestamp="2019-12-14T11:29:50Z" changeset="78405343" uid="3316592" user="Arthtoach">
    <nd ref="935666452"/>
    <nd ref="935666388"/>
    <nd ref="7056356123"/>
    <nd ref="7056356124"/>
    <nd ref="7056356125"/>
    <nd ref="7056356126"/>
    <nd ref="7056356127"/>
    <nd ref="7056356128"/>
    <nd ref="936632133"/>
    <tag k="highway" v="residential"/>
    <tag k="name" v="Woodlands Park"/>
    <tag k="source" v="OS OpenData StreetView"/>
    <tag k="surface" v="paving_stones"/>
  </way>
  <way id="80197524" version="3" timestamp="2019-09-01T10:41:02Z" changeset="73969816" uid="3316592" user="Arthtoach">
    <nd ref="935666004"/>
    <nd ref="935665530"/>
    <tag k="highway" v="residential"/>
    <tag k="name" v="Heather Vale"/>
    <tag k="source" v="OS OpenData StreetView"/>
    <tag k="surface" v="asphalt"/>
  </way>
  <way id="80197525" version="3" timestamp="2019-12-12T12:45:40Z" changeset="78317709" uid="3316592" user="Arthtoach">
    <nd ref="935665641"/>
    <nd ref="935666413"/>
    <nd ref="935666086"/>
    <tag k="highway" v="residential"/>
    <tag k="name" v="Scarcroft Court"/>
    <tag k="source" v="OS OpenData StreetView"/>
    <tag k="surface" v="asphalt"/>
  </way>
  <way id="80197527" version="3" timestamp="2019-12-15T09:03:39Z" changeset="78424598" uid="3316592" user="Arthtoach">
    <nd ref="935666470"/>
    <nd ref="935666255"/>
    <nd ref="7057641254"/>
    <nd ref="7057641253"/>
    <nd ref="935665882"/>
    <nd ref="7057641252"/>
    <nd ref="935665535"/>
    <nd ref="935666357"/>
    <nd ref="935665847"/>
    <nd ref="935665979"/>
    <tag k="highway" v="residential"/>
    <tag k="name" v="Manor Park"/>
    <tag k="source" v="OS OpenData StreetView"/>
  </way>
  <way id="80197535" version="3" timestamp="2019-12-12T12:45:40Z" changeset="78317709" uid="3316592" user="Arthtoach">
    <nd ref="935666368"/>
    <nd ref="935666477"/>
    <nd ref="935665996"/>
    <tag k="highway" v="residential"/>
    <tag k="name" v="The Croft"/>
    <tag k="source" v="OS OpenData StreetView"/>
    <tag k="surface" v="asphalt"/>
  </way>
  <way id="80197538" version="3" timestamp="2019-09-01T10:41:02Z" changeset="73969816" uid="3316592" user="Arthtoach">
    <nd ref="935666411"/>
    <nd ref="935666264"/>
    <tag k="highway" v="residential"/>
    <tag k="name" v="The Firs"/>
    <tag k="source" v="OS OpenData StreetView"/>
    <tag k="surface" v="asphalt"/>
  </way>
  <way id="80197539" version="3" timestamp="2019-12-12T12:45:40Z" changeset="78317709" uid="3316592" user="Arthtoach">
    <nd ref="935666445"/>
    <nd ref="935665622"/>
    <nd ref="935666412"/>
    <tag k="highway" v="residential"/>
    <tag k="name" v="Green View"/>
    <tag k="source" v="OS OpenData StreetView"/>
    <tag k="surface" v="asphalt"/>
  </way>
  <way id="80197543" version="3" timestamp="2019-12-12T12:45:40Z" changeset="78317709" uid="3316592" user="Arthtoach">
    <nd ref="248045213"/>
    <nd ref="935666308"/>
    <nd ref="935665947"/>
    <tag k="highway" v="residential"/>
    <tag k="name" v="Malthouse Close"/>
    <tag k="source" v="OS OpenData StreetView"/>
    <tag k="surface" v="asphalt"/>
  </way>
  <way id="80197545" version="4" timestamp="2019-09-01T16:54:11Z" changeset="73977756" uid="3316592" user="Arthtoach">
    <nd ref="935666342"/>
    <nd ref="935666236"/>
    <nd ref="6764416161"/>
    <nd ref="935666152"/>
    <nd ref="935666264"/>
    <nd ref="935665786"/>
    <tag k="highway" v="residential"/>
    <tag k="name" v="The Firs"/>
    <tag k="source" v="OS OpenData StreetView"/>
    <tag k="surface" v="asphalt"/>
  </way>
  <way id="80197552" version="6" timestamp="2019-12-14T11:29:50Z" changeset="78405343" uid="3316592" user="Arthtoach">
    <nd ref="935665579"/>
    <nd ref="935666458"/>
    <nd ref="3577264876"/>
    <nd ref="935666107"/>
    <nd ref="935665748"/>
    <nd ref="935666449"/>
    <nd ref="935666170"/>
    <nd ref="935665811"/>
    <nd ref="935666482"/>
    <nd ref="3577264878"/>
    <nd ref="935666293"/>
    <nd ref="7056356116"/>
    <tag k="highway" v="residential"/>
    <tag k="name" v="Syke Green"/>
    <tag k="source" v="OS OpenData StreetView"/>
    <tag k="surface" v="asphalt"/>
  </way>
  <way id="80197557" version="2" timestamp="2010-10-03T13:58:51Z" changeset="5944378" uid="135339" user="mplusplus">
    <nd ref="935666469"/>
    <nd ref="935666251"/>
    <tag k="highway" v="residential"/>
    <tag k="name" v="Heather Gardens"/>
    <tag k="source" v="OS OpenData StreetView"/>
  </way>
  <way id="80197785" version="4" timestamp="2020-11-24T11:28:00Z" changeset="94702534" uid="11558580" user="jaabhil">
    <nd ref="935630572"/>
    <nd ref="935672040"/>
    <nd ref="935671995"/>
    <nd ref="935672071"/>
    <nd ref="8157939689"/>
    <nd ref="6510885464"/>
    <nd ref="935672032"/>
    <tag k="highway" v="unclassified"/>
    <tag k="name" v="Brandon Crescent"/>
    <tag k="source" v="OS OpenData StreetView"/>
    <tag k="source:name" v="OS_OpenData_Locator"/>
  </way>
  <way id="80243587" version="3" timestamp="2019-12-15T09:03:39Z" changeset="78424598" uid="3316592" user="Arthtoach">
    <nd ref="936565739"/>
    <nd ref="936565952"/>
    <nd ref="7057662494"/>
    <nd ref="7057662493"/>
    <nd ref="7057662495"/>
    <nd ref="7057662474"/>
    <nd ref="936565601"/>
    <tag k="highway" v="residential"/>
    <tag k="name" v="Larch Wood"/>
    <tag k="source" v="OS OpenData StreetView"/>
  </way>
  <way id="80249915" version="2" timestamp="2019-12-12T12:45:40Z" changeset="78317709" uid="3316592" user="Arthtoach">
    <nd ref="935666308"/>
    <nd ref="936632135"/>
    <tag k="highway" v="residential"/>
    <tag k="name" v="Malthouse Close"/>
    <tag k="source" v="OS OpenData StreetView"/>
    <tag k="surface" v="asphalt"/>
  </way>
  <way id="80249917" version="2" timestamp="2019-12-14T11:29:50Z" changeset="78405343" uid="3316592" user="Arthtoach">
    <nd ref="935666373"/>
    <nd ref="936632147"/>
    <tag k="highway" v="residential"/>
    <tag k="name" v="The Meadow"/>
    <tag k="source" v="OS OpenData StreetView"/>
    <tag k="surface" v="asphalt"/>
  </way>
  <way id="80249918" version="6" timestamp="2020-12-30T09:59:23Z" changeset="96657302" uid="11734032" user="daitv">
    <nd ref="935630493"/>
    <nd ref="6564507521"/>
    <nd ref="6564507520"/>
    <nd ref="2062457699"/>
    <nd ref="6564545362"/>
    <nd ref="6564507523"/>
    <nd ref="8273491325"/>
    <nd ref="6564507522"/>
    <nd ref="1614128628"/>
    <tag k="highway" v="unclassified"/>
    <tag k="name" v="Arena Park"/>
    <tag k="source" v="OS OpenData StreetView"/>
  </way>
  <way id="80249919" version="2" timestamp="2019-12-14T11:29:50Z" changeset="78405343" uid="3316592" user="Arthtoach">
    <nd ref="935665702"/>
    <nd ref="935666119"/>
    <tag k="highway" v="residential"/>
    <tag k="name" v="Woodlands Close"/>
    <tag k="source" v="OS OpenData StreetView"/>
    <tag k="surface" v="asphalt"/>
  </way>
  <way id="80249922" version="6" timestamp="2020-05-25T21:31:56Z" changeset="85733667" uid="4543415" user="The_JF">
    <nd ref="935630652"/>
    <nd ref="935672036"/>
    <nd ref="2062445051"/>
    <nd ref="935672006"/>
    <nd ref="2064738335"/>
    <nd ref="2064738506"/>
    <nd ref="935672095"/>
    <nd ref="935672062"/>
    <nd ref="935672025"/>
    <nd ref="935671986"/>
    <nd ref="935630642"/>
    <tag k="highway" v="unclassified"/>
    <tag k="lanes" v="2"/>
    <tag k="name" v="Brandon Lane"/>
    <tag k="source" v="OS OpenData StreetView"/>
  </way>
  <way id="148303542" version="2" timestamp="2020-05-23T09:43:24Z" changeset="85645982" uid="3316592" user="Arthtoach">
    <nd ref="1614128670"/>
    <nd ref="7550996533"/>
    <nd ref="1614128666"/>
    <tag k="highway" v="unclassified"/>
    <tag k="name" v="Thorner Lane"/>
    <tag k="source" v="GPS;OS_OpenData_StreetView"/>
    <tag k="surface" v="asphalt"/>
  </way>
  <way id="148303544" version="13" timestamp="2024-06-17T14:09:02Z" changeset="152805446" uid="145231" user="woodpeck_repair">
    <nd ref="1614128649"/>
    <nd ref="1614128613"/>
    <nd ref="1614128666"/>
    <nd ref="7550996534"/>
    <nd ref="967758211"/>
    <nd ref="7550996535"/>
    <nd ref="2029938838"/>
    <nd ref="1614128635"/>
    <nd ref="1614128634"/>
    <nd ref="7550996536"/>
    <nd ref="7550996537"/>
    <nd ref="1614128633"/>
    <nd ref="1614128631"/>
    <nd ref="2029974926"/>
    <nd ref="7550996538"/>
    <nd ref="7550996539"/>
    <nd ref="1614128629"/>
    <nd ref="1614128681"/>
    <nd ref="2029974669"/>
    <nd ref="7550996541"/>
    <nd ref="7550996542"/>
    <nd ref="7550996540"/>
    <nd ref="1614128619"/>
    <nd ref="7550996543"/>
    <nd ref="1614128679"/>
    <nd ref="7550996544"/>
    <nd ref="2029938971"/>
    <nd ref="1614128677"/>
    <nd ref="2009546481"/>
    <nd ref="88889650"/>
    <nd ref="11278094193"/>
    <nd ref="1614128676"/>
    <nd ref="7550996545"/>
    <nd ref="7550996546"/>
    <nd ref="1614128675"/>
    <nd ref="7550996547"/>
    <nd ref="1614128674"/>
    <nd ref="7550996548"/>
    <nd ref="7550996549"/>
    <nd ref="1614128667"/>
    <nd ref="7550996550"/>
    <nd ref="1614128669"/>
    <nd ref="1614128671"/>
    <nd ref="1614128673"/>
    <tag k="highway" v="tertiary"/>
    <tag k="name" v="Milner Lane"/>
    <tag k="source" v="OS_OpenData_StreetView"/>
    <tag k="surface" v="asphalt"/>
  </way>
  <way id="148303547" version="11" timestamp="2020-05-25T21:31:56Z" changeset="85733667" uid="4543415" user="The_JF">
    <nd ref="1614128649"/>
    <nd ref="1614128670"/>
    <nd ref="7550996532"/>
    <nd ref="1614128659"/>
    <nd ref="7550996526"/>
    <nd ref="7550996527"/>
    <nd ref="2029987848"/>
    <nd ref="7550996528"/>
    <nd ref="7550996529"/>
    <nd ref="7550996530"/>
    <nd ref="7550996531"/>
    <nd ref="7550996525"/>
    <nd ref="1614128605"/>
    <nd ref="1614128630"/>
    <nd ref="967756807"/>
    <nd ref="7557260778"/>
    <tag k="highway" v="unclassified"/>
    <tag k="name" v="Thorner Lane"/>
    <tag k="source" v="GPS;OS_OpenData_StreetView"/>
    <tag k="surface" v="asphalt"/>
  </way>
  <way id="148303548" version="16" timestamp="2024-06-17T14:09:00Z" changeset="152805446" uid="145231" user="woodpeck_repair">
    <nd ref="1614128649"/>
    <nd ref="1614128640"/>
    <nd ref="1614128642"/>
    <nd ref="1614128643"/>
    <nd ref="1614128644"/>
    <nd ref="1614128646"/>
    <nd ref="1614128648"/>
    <nd ref="1977037327"/>
    <nd ref="1614128652"/>
    <nd ref="1614128653"/>
    <nd ref="1614128654"/>
    <nd ref="6803106800"/>
    <nd ref="7551042868"/>
    <nd ref="7551042869"/>
    <nd ref="1614128614"/>
    <nd ref="1614128615"/>
    <nd ref="1977037239"/>
    <nd ref="1614128618"/>
    <nd ref="7551042892"/>
    <nd ref="11035673574"/>
    <nd ref="1614128620"/>
    <nd ref="7551042854"/>
    <nd ref="7551042891"/>
    <nd ref="1614128622"/>
    <nd ref="3577257675"/>
    <nd ref="7551103739"/>
    <nd ref="7551103738"/>
    <nd ref="7551103737"/>
    <nd ref="3577257674"/>
    <nd ref="1614128637"/>
    <nd ref="7553253033"/>
    <nd ref="7553253039"/>
    <nd ref="3577257672"/>
    <nd ref="30814836"/>
    <tag k="highway" v="tertiary"/>
    <tag k="name" v="Milner Lane"/>
    <tag k="source" v="GPS;OS_OpenData_StreetView"/>
    <tag k="surface" v="asphalt"/>
  </way>
  <way id="184033110" version="13" timestamp="2024-09-08T21:28:29Z" changeset="156369867" uid="4543415" user="The_JF">
    <nd ref="1944700889"/>
    <nd ref="671483375"/>
    <nd ref="6787498286"/>
    <nd ref="6766191327"/>
    <nd ref="2061560526"/>
    <nd ref="6766191330"/>
    <nd ref="2061560403"/>
    <nd ref="13807324"/>
    <nd ref="2061560424"/>
    <nd ref="2061560471"/>
    <nd ref="1660766305"/>
    <nd ref="13807323"/>
    <nd ref="13807322"/>
    <nd ref="6766195250"/>
    <nd ref="6766195253"/>
    <nd ref="6766195251"/>
    <nd ref="6766195252"/>
    <nd ref="3181473238"/>
    <nd ref="3181473242"/>
    <nd ref="3181473214"/>
    <nd ref="13807321"/>
    <nd ref="9086075205"/>
    <nd ref="9086075207"/>
    <tag k="bicycle" v="yes"/>
    <tag k="foot" v="yes"/>
    <tag k="highway" v="primary"/>
    <tag k="lanes" v="2"/>
    <tag k="maxspeed" v="50 mph"/>
    <tag k="name" v="Wetherby Road"/>
    <tag k="oneway" v="no"/>
    <tag k="ref" v="A58"/>
    <tag k="surface" v="asphalt"/>
  </way>
  <way id="188542187" version="13" timestamp="2025-01-28T21:48:11Z" changeset="161874948" uid="11606276" user="matty817">
    <nd ref="1991675486"/>
    <nd ref="7056341536"/>
    <nd ref="7056341535"/>
    <nd ref="1991675530"/>
    <nd ref="1991675606"/>
    <nd ref="1991675480"/>
    <nd ref="1991675250"/>
    <nd ref="1991675400"/>
    <nd ref="1991675251"/>
    <nd ref="1991675246"/>
    <nd ref="1991675489"/>
    <nd ref="7056341534"/>
    <nd ref="7056341537"/>
    <nd ref="1991675486"/>
    <tag k="addr:city" v="Leeds"/>
    <tag k="addr:postcode" v="LS14 3AT"/>
    <tag k="addr:street" v="Wetherby Road"/>
    <tag k="amenity" v="pub"/>
    <tag k="brand" v="Vintage Inns"/>
    <tag k="brand:wikidata" v="Q87067899"/>
    <tag k="building" v="yes"/>
    <tag k="check_date" v="2024-08-20"/>
    <tag k="check_date:opening_hours" v="2024-08-20"/>
    <tag k="contact:website" v="https://www.vintageinn.co.uk/restaurants/yorkshire/thenewinnscarcroft"/>
    <tag k="fhrs:id" v="321621"/>
    <tag k="name" v="The New Inn"/>
    <tag k="opening_hours" v="Mo-We 11:30-22:00; Th-Sa 11:30-23:00; Su 11:30-22:00"/>
    <tag k="source:addr" v="FHRS Open Data"/>
    <tag k="wikidata" v="Q61924007"/>
  </way>
  <way id="189058474" version="5" timestamp="2020-05-25T21:31:56Z" changeset="85733667" uid="4543415" user="The_JF">
    <nd ref="935672032"/>
    <nd ref="935672002"/>
    <nd ref="7557260806"/>
    <nd ref="6564543122"/>
    <nd ref="7557260802"/>
    <nd ref="935672079"/>
    <nd ref="935672060"/>
    <nd ref="6468207174"/>
    <nd ref="935672022"/>
    <nd ref="6468207172"/>
    <nd ref="935671984"/>
    <nd ref="935672057"/>
    <nd ref="6468203442"/>
    <nd ref="935672021"/>
    <tag k="highway" v="unclassified"/>
    <tag k="source" v="OS OpenData StreetView"/>
  </way>
  <way id="189827750" version="4" timestamp="2020-01-03T15:18:55Z" changeset="79161597" uid="10252541" user="thadad">
    <nd ref="248045213"/>
    <nd ref="935666210"/>
    <nd ref="7104812575"/>
    <nd ref="3577264879"/>
    <nd ref="248044862"/>
    <tag k="highway" v="unclassified"/>
    <tag k="name" v="Syke Lane"/>
    <tag k="source" v="OS OpenData StreetView"/>
    <tag k="surface" v="asphalt"/>
  </way>
  <way id="189827758" version="5" timestamp="2021-01-13T15:26:07Z" changeset="97451326" uid="384887" user="robw">
    <nd ref="685149231"/>
    <nd ref="13807328"/>
    <tag k="bicycle" v="yes"/>
    <tag k="foot" v="yes"/>
    <tag k="highway" v="primary"/>
    <tag k="lanes" v="2"/>
    <tag k="maxspeed" v="30 mph"/>
    <tag k="name" v="Wetherby Road"/>
    <tag k="oneway" v="no"/>
    <tag k="ref" v="A58"/>
    <tag k="surface" v="asphalt"/>
  </way>
  <way id="189827759" version="12" timestamp="2024-09-08T21:28:29Z" changeset="156369867" uid="4543415" user="The_JF">
    <nd ref="13807328"/>
    <nd ref="935666368"/>
    <nd ref="935666445"/>
    <nd ref="248044862"/>
    <nd ref="3577264877"/>
    <nd ref="13807327"/>
    <nd ref="936565462"/>
    <nd ref="936565580"/>
    <nd ref="6538717446"/>
    <nd ref="9041626941"/>
    <nd ref="9041626942"/>
    <nd ref="671483333"/>
    <nd ref="9041626935"/>
    <nd ref="936565739"/>
    <nd ref="9041626927"/>
    <nd ref="6593093196"/>
    <nd ref="935666332"/>
    <nd ref="935630644"/>
    <nd ref="13807326"/>
    <nd ref="936565471"/>
    <nd ref="936565587"/>
    <nd ref="936565486"/>
    <nd ref="6766137163"/>
    <nd ref="936565921"/>
    <nd ref="13807325"/>
    <nd ref="1944700889"/>
    <tag k="bicycle" v="yes"/>
    <tag k="foot" v="yes"/>
    <tag k="highway" v="primary"/>
    <tag k="lanes" v="2"/>
    <tag k="maxspeed" v="30 mph"/>
    <tag k="name" v="Wetherby Road"/>
    <tag k="oneway" v="no"/>
    <tag k="ref" v="A58"/>
    <tag k="sidewalk" v="both"/>
    <tag k="surface" v="asphalt"/>
  </way>
  <way id="189827763" version="3" timestamp="2019-12-12T12:45:40Z" changeset="78317709" uid="3316592" user="Arthtoach">
    <nd ref="2000600122"/>
    <nd ref="935666223"/>
    <nd ref="935666433"/>
    <nd ref="7051927731"/>
    <nd ref="935665738"/>
    <nd ref="248045213"/>
    <tag k="highway" v="unclassified"/>
    <tag k="name" v="Syke Lane"/>
    <tag k="source" v="OS OpenData StreetView"/>
    <tag k="surface" v="asphalt"/>
  </way>
  <way id="189827764" version="7" timestamp="2021-07-27T10:09:15Z" changeset="108678903" uid="10455645" user="viplavm">
    <nd ref="935615248"/>
    <nd ref="935615731"/>
    <nd ref="6564540090"/>
    <nd ref="935615491"/>
    <nd ref="6564540091"/>
    <nd ref="935615236"/>
    <nd ref="8953747348"/>
    <nd ref="8953747353"/>
    <nd ref="2013639179"/>
    <nd ref="936565627"/>
    <nd ref="935615537"/>
    <nd ref="935615340"/>
    <nd ref="7988089616"/>
    <nd ref="2013639181"/>
    <nd ref="935615881"/>
    <nd ref="1446852884"/>
    <nd ref="935615630"/>
    <nd ref="1446853104"/>
    <nd ref="935615383"/>
    <nd ref="1446852905"/>
    <nd ref="1446853183"/>
    <nd ref="6564507517"/>
    <nd ref="935615099"/>
    <nd ref="6564507518"/>
    <nd ref="6564507519"/>
    <nd ref="2012239070"/>
    <nd ref="935615550"/>
    <nd ref="1614128628"/>
    <tag k="highway" v="unclassified"/>
    <tag k="name" v="Blackmoor Lane"/>
    <tag k="source" v="OS OpenData StreetView"/>
  </way>
  <way id="190516248" version="3" timestamp="2018-06-11T14:05:02Z" changeset="59743727" uid="592" user="JonS">
    <nd ref="2011559138"/>
    <nd ref="2011559145"/>
    <nd ref="2011565440"/>
    <nd ref="2011565437"/>
    <nd ref="2011565439"/>
    <nd ref="2011565441"/>
    <nd ref="2011559126"/>
    <nd ref="2011559119"/>
    <nd ref="2011559113"/>
    <nd ref="2011559173"/>
    <nd ref="2011559138"/>
    <tag k="addr:city" v="Leeds"/>
    <tag k="addr:postcode" v="LS14 3BQ"/>
    <tag k="addr:street" v="Syke Lane"/>
    <tag k="addr:suburb" v="Scarcroft"/>
    <tag k="building" v="yes"/>
    <tag k="fhrs:id" v="320829"/>
    <tag k="name" v="Scarcroft Golf Club"/>
  </way>
  <way id="195633111" version="2" timestamp="2023-06-27T16:01:54Z" changeset="137842325" uid="19701437" user="LezB">
    <nd ref="2060586271"/>
    <nd ref="2060586079"/>
    <nd ref="2060586322"/>
    <nd ref="2060586157"/>
    <nd ref="2060585993"/>
    <nd ref="2060585983"/>
    <nd ref="2060586015"/>
    <nd ref="2060585967"/>
    <nd ref="2060586238"/>
    <nd ref="2060586042"/>
    <nd ref="2060586190"/>
    <nd ref="2060585810"/>
    <nd ref="2060586271"/>
    <tag k="addr:city" v="Leeds"/>
    <tag k="addr:housename" v="Scarcroft Cricket Club"/>
    <tag k="addr:postcode" v="LS14 3JQ"/>
    <tag k="addr:street" v="Wetherby Road"/>
    <tag k="building" v="yes"/>
    <tag k="name" v="Scarcroft Cricket Club"/>
  </way>
  <way id="195739198" version="5" timestamp="2024-06-14T22:35:20Z" changeset="152700850" uid="1778799" user="SomeoneElse_Revert">
    <nd ref="2060652266"/>
    <nd ref="6766191355"/>
    <nd ref="6766191356"/>
    <nd ref="2061560303"/>
    <nd ref="2060652266"/>
    <tag k="addr:city" v="Leeds"/>
    <tag k="addr:housename" v="Beechgrove Farm"/>
    <tag k="addr:postcode" v="LS14 3HQ"/>
    <tag k="addr:street" v="Wetherby Road"/>
    <tag k="addr:suburb" v="Scarcroft"/>
    <tag k="amenity" v="ice_cream"/>
    <tag k="building" v="retail"/>
    <tag k="fhrs:id" v="1080067"/>
    <tag k="name" v="The Milk Churn"/>
  </way>
  <way id="312371876" version="4" timestamp="2020-02-29T16:10:24Z" changeset="81623765" uid="3316592" user="Arthtoach">
    <nd ref="1614128636"/>
    <nd ref="7253000055"/>
    <nd ref="2064738432"/>
    <nd ref="1614128638"/>
    <tag k="highway" v="unclassified"/>
    <tag k="name" v="Thorner Lane"/>
    <tag k="source" v="GPS;OS_OpenData_StreetView"/>
    <tag k="surface" v="asphalt"/>
  </way>
  <way id="352754576" version="4" timestamp="2020-09-28T11:06:31Z" changeset="91635987" uid="11734152" user="baggg">
    <nd ref="1614128638"/>
    <nd ref="1614128663"/>
    <nd ref="1614128661"/>
    <nd ref="2064738347"/>
    <nd ref="1614128651"/>
    <nd ref="1614128607"/>
    <nd ref="2064738366"/>
    <nd ref="7950842618"/>
    <nd ref="1614128645"/>
    <nd ref="1614128650"/>
    <nd ref="935666078"/>
    <nd ref="6590135900"/>
    <nd ref="936565927"/>
    <nd ref="935665641"/>
    <nd ref="935666422"/>
    <nd ref="248044862"/>
    <tag k="highway" v="unclassified"/>
    <tag k="name" v="Thorner Lane"/>
    <tag k="source" v="GPS;OS_OpenData_StreetView"/>
    <tag k="surface" v="asphalt"/>
  </way>
  <way id="352755154" version="4" timestamp="2020-02-29T16:10:24Z" changeset="81623765" uid="3316592" user="Arthtoach">
    <nd ref="3378141571"/>
    <nd ref="7253000064"/>
    <nd ref="7253000063"/>
    <nd ref="1614128610"/>
    <nd ref="7253000062"/>
    <nd ref="1614128682"/>
    <nd ref="7253000061"/>
    <nd ref="7253000060"/>
    <nd ref="1614128612"/>
    <nd ref="7253000059"/>
    <nd ref="1614128660"/>
    <nd ref="7253000058"/>
    <nd ref="7253000057"/>
    <nd ref="6407745686"/>
    <tag k="highway" v="unclassified"/>
    <tag k="name" v="Thorner Lane"/>
    <tag k="source" v="GPS;OS_OpenData_StreetView"/>
    <tag k="surface" v="asphalt"/>
  </way>
  <way id="352755155" version="3" timestamp="2020-05-25T21:31:56Z" changeset="85733667" uid="4543415" user="The_JF">
    <nd ref="685504986"/>
    <nd ref="6881643171"/>
    <nd ref="727273192"/>
    <nd ref="3378141575"/>
    <tag k="foot" v="designated"/>
    <tag k="highway" v="unclassified"/>
    <tag k="motor_vehicle" v="private"/>
  </way>
  <way id="352755156" version="1" timestamp="2015-06-10T08:13:55Z" changeset="31863385" uid="2629998" user="barb-andmike">
    <nd ref="3378141575"/>
    <nd ref="727273202"/>
    <nd ref="727273149"/>
    <tag k="highway" v="unclassified"/>
  </way>
  <way id="646592238" version="2" timestamp="2023-05-07T04:29:50Z" changeset="135797005" uid="493595" user="Yorvik Prestigitator">
    <nd ref="6074718093"/>
    <nd ref="6074718092"/>
    <nd ref="6074718091"/>
    <nd ref="6074718090"/>
    <nd ref="6074718089"/>
    <nd ref="10874999397"/>
    <nd ref="6074718085"/>
    <nd ref="6074718088"/>
    <nd ref="6074718087"/>
    <nd ref="6074718086"/>
    <nd ref="6074718093"/>
    <tag k="addr:city" v="Leeds"/>
    <tag k="addr:postcode" v="LS14 3BN"/>
    <tag k="addr:street" v="Wetherby Road"/>
    <tag k="addr:suburb" v="Scarcroft"/>
    <tag k="amenity" v="community_centre"/>
    <tag k="building" v="public"/>
    <tag k="community_centre" v="village_hall"/>
    <tag k="name" v="Scarcroft Village Hall"/>
  </way>
  <way id="688260367" version="2" timestamp="2020-02-29T16:10:24Z" changeset="81623765" uid="3316592" user="Arthtoach">
    <nd ref="6407745686"/>
    <nd ref="7253000056"/>
    <nd ref="1614128636"/>
    <tag k="bridge" v="yes"/>
    <tag k="highway" v="unclassified"/>
    <tag k="layer" v="1"/>
    <tag k="name" v="Thorner Lane"/>
    <tag k="source" v="GPS;OS_OpenData_StreetView"/>
    <tag k="surface" v="asphalt"/>
  </way>
  <way id="696298463" version="3" timestamp="2023-10-09T07:23:52Z" changeset="142335383" uid="7436199" user="aleksaJov">
    <nd ref="7056356117"/>
    <nd ref="6538717450"/>
    <nd ref="6538717451"/>
    <nd ref="6538717452"/>
    <nd ref="6538717453"/>
    <nd ref="6538717454"/>
    <tag k="highway" v="residential"/>
    <tag k="name" v="Castle Court"/>
    <tag k="surface" v="paving_stones"/>
  </way>
  <way id="723124307" version="2" timestamp="2019-12-12T12:45:40Z" changeset="78317709" uid="3316592" user="Arthtoach">
    <nd ref="6782659870"/>
    <nd ref="6782659871"/>
    <nd ref="6782659872"/>
    <tag k="highway" v="residential"/>
    <tag k="surface" v="asphalt"/>
  </way>
  <way id="754892199" version="2" timestamp="2020-06-07T23:11:55Z" changeset="86321789" uid="10310438" user="Beetec">
    <nd ref="7051927731"/>
    <nd ref="7051927730"/>
    <nd ref="7051927727"/>
    <nd ref="7051927729"/>
    <nd ref="7051927726"/>
    <nd ref="7051927728"/>
    <nd ref="7051927723"/>
    <nd ref="7051927725"/>
    <nd ref="7051927722"/>
    <nd ref="7051927724"/>
    <nd ref="7600939718"/>
    <nd ref="7051927721"/>
    <tag k="highway" v="residential"/>
    <tag k="name" v="Bracken Chase"/>
    <tag k="oneway" v="no"/>
  </way>
  <way id="754892200" version="1" timestamp="2019-12-12T12:45:40Z" changeset="78317709" uid="3316592" user="Arthtoach">
    <nd ref="935665947"/>
    <nd ref="935665610"/>
    <tag k="highway" v="residential"/>
    <tag k="name" v="Malthouse Close"/>
    <tag k="source" v="OS OpenData StreetView"/>
  </way>
  <way id="754893911" version="3" timestamp="2023-07-03T21:28:52Z" changeset="138081255" uid="1802093" user="Paul Berry">
    <nd ref="7051936631"/>
    <nd ref="7051936630"/>
    <nd ref="7051936629"/>
    <nd ref="7051936632"/>
    <nd ref="7051936638"/>
    <nd ref="7051936636"/>
    <nd ref="7051936635"/>
    <nd ref="7051936634"/>
    <nd ref="7051936633"/>
    <nd ref="7051936637"/>
    <nd ref="7051936631"/>
    <tag k="addr:city" v="Leeds"/>
    <tag k="addr:housenumber" v="9"/>
    <tag k="addr:postcode" v="LS14 3FD"/>
    <tag k="addr:street" v="Bracken Chase"/>
    <tag k="building" v="house"/>
  </way>
  <way id="754893912" version="4" timestamp="2023-07-03T21:28:52Z" changeset="138081255" uid="1802093" user="Paul Berry">
    <nd ref="7051936644"/>
    <nd ref="7051936642"/>
    <nd ref="7051936641"/>
    <nd ref="7051936640"/>
    <nd ref="7051936639"/>
    <nd ref="7051936643"/>
    <nd ref="7051936644"/>
    <tag k="addr:city" v="Leeds"/>
    <tag k="addr:housenumber" v="8"/>
    <tag k="addr:postcode" v="LS14 3FD"/>
    <tag k="addr:street" v="Bracken Chase"/>
    <tag k="building" v="house"/>
  </way>
  <way id="754893913" version="3" timestamp="2023-07-03T21:28:52Z" changeset="138081255" uid="1802093" user="Paul Berry">
    <nd ref="7051936645"/>
    <nd ref="7051936648"/>
    <nd ref="7051936649"/>
    <nd ref="7051936650"/>
    <nd ref="7051936651"/>
    <nd ref="7051936652"/>
    <nd ref="7051936647"/>
    <nd ref="7051936646"/>
    <nd ref="7051936645"/>
    <tag k="addr:city" v="Leeds"/>
    <tag k="addr:housenumber" v="7"/>
    <tag k="addr:postcode" v="LS14 3FD"/>
    <tag k="addr:street" v="Bracken Chase"/>
    <tag k="building" v="house"/>
  </way>
  <way id="754893914" version="3" timestamp="2023-07-03T21:28:52Z" changeset="138081255" uid="1802093" user="Paul Berry">
    <nd ref="7051936658"/>
    <nd ref="7051936657"/>
    <nd ref="7051936653"/>
    <nd ref="7051936654"/>
    <nd ref="7051936655"/>
    <nd ref="7051936656"/>
    <nd ref="7051936658"/>
    <tag k="addr:city" v="Leeds"/>
    <tag k="addr:housenumber" v="6"/>
    <tag k="addr:postcode" v="LS14 3FD"/>
    <tag k="addr:street" v="Bracken Chase"/>
    <tag k="building" v="house"/>
  </way>
  <way id="754893915" version="3" timestamp="2023-07-03T21:28:52Z" changeset="138081255" uid="1802093" user="Paul Berry">
    <nd ref="7051936662"/>
    <nd ref="7051936659"/>
    <nd ref="7051936660"/>
    <nd ref="7051936661"/>
    <nd ref="7051936662"/>
    <tag k="addr:city" v="Leeds"/>
    <tag k="addr:housenumber" v="5"/>
    <tag k="addr:postcode" v="LS14 3FD"/>
    <tag k="addr:street" v="Bracken Chase"/>
    <tag k="building" v="house"/>
  </way>
  <way id="754893916" version="3" timestamp="2023-07-03T21:28:52Z" changeset="138081255" uid="1802093" user="Paul Berry">
    <nd ref="7051936666"/>
    <nd ref="7051936663"/>
    <nd ref="7051936664"/>
    <nd ref="7051936665"/>
    <nd ref="7051936666"/>
    <tag k="addr:city" v="Leeds"/>
    <tag k="addr:housenumber" v="4"/>
    <tag k="addr:postcode" v="LS14 3FD"/>
    <tag k="addr:street" v="Bracken Chase"/>
    <tag k="building" v="house"/>
  </way>
  <way id="754893917" version="3" timestamp="2023-07-03T21:28:52Z" changeset="138081255" uid="1802093" user="Paul Berry">
    <nd ref="7051936670"/>
    <nd ref="7051936667"/>
    <nd ref="7051936668"/>
    <nd ref="7051936669"/>
    <nd ref="7051936670"/>
    <tag k="addr:city" v="Leeds"/>
    <tag k="addr:housenumber" v="3"/>
    <tag k="addr:postcode" v="LS14 3FD"/>
    <tag k="addr:street" v="Bracken Chase"/>
    <tag k="building" v="house"/>
  </way>
  <way id="754893918" version="3" timestamp="2023-07-03T21:28:52Z" changeset="138081255" uid="1802093" user="Paul Berry">
    <nd ref="7051936674"/>
    <nd ref="7051936671"/>
    <nd ref="7051936672"/>
    <nd ref="7051936673"/>
    <nd ref="7051936674"/>
    <tag k="addr:city" v="Leeds"/>
    <tag k="addr:housenumber" v="2"/>
    <tag k="addr:postcode" v="LS14 3FD"/>
    <tag k="addr:street" v="Bracken Chase"/>
    <tag k="building" v="house"/>
  </way>
  <way id="754893919" version="3" timestamp="2023-07-03T21:28:52Z" changeset="138081255" uid="1802093" user="Paul Berry">
    <nd ref="7051936678"/>
    <nd ref="7051936677"/>
    <nd ref="7051936676"/>
    <nd ref="7051936675"/>
    <nd ref="7051936678"/>
    <tag k="addr:city" v="Leeds"/>
    <tag k="addr:housenumber" v="1"/>
    <tag k="addr:postcode" v="LS14 3FD"/>
    <tag k="addr:street" v="Bracken Chase"/>
    <tag k="building" v="house"/>
  </way>
  <way id="755416182" version="1" timestamp="2019-12-14T11:29:50Z" changeset="78405343" uid="3316592" user="Arthtoach">
    <nd ref="935666293"/>
    <nd ref="3577264880"/>
    <nd ref="935666119"/>
    <nd ref="935666420"/>
    <nd ref="935666104"/>
    <nd ref="6782659870"/>
    <nd ref="935665738"/>
    <tag k="highway" v="residential"/>
    <tag k="name" v="Syke Green"/>
    <tag k="source" v="OS OpenData StreetView"/>
    <tag k="surface" v="asphalt"/>
  </way>
  <way id="755416183" version="2" timestamp="2023-10-09T07:23:52Z" changeset="142335383" uid="7436199" user="aleksaJov">
    <nd ref="6538717446"/>
    <nd ref="6538717447"/>
    <nd ref="6538717448"/>
    <nd ref="6538717449"/>
    <nd ref="7056356117"/>
    <tag k="highway" v="residential"/>
    <tag k="name" v="Castle Court"/>
    <tag k="surface" v="asphalt"/>
  </way>
  <way id="755416184" version="1" timestamp="2019-12-14T11:29:50Z" changeset="78405343" uid="3316592" user="Arthtoach">
    <nd ref="2011559135"/>
    <nd ref="7056356120"/>
    <nd ref="2011559159"/>
    <nd ref="2011559161"/>
    <nd ref="7056356121"/>
    <nd ref="2011559176"/>
    <nd ref="7056356122"/>
    <nd ref="935666452"/>
    <tag k="highway" v="residential"/>
    <tag k="name" v="Woodlands Park"/>
    <tag k="surface" v="asphalt"/>
  </way>
  <way id="777297249" version="4" timestamp="2024-06-14T22:35:24Z" changeset="152700850" uid="1778799" user="SomeoneElse_Revert">
    <nd ref="7253000079"/>
    <nd ref="7253000078"/>
    <nd ref="7253000077"/>
    <nd ref="7253000076"/>
    <nd ref="7253000075"/>
    <nd ref="7253000074"/>
    <nd ref="7253000080"/>
    <nd ref="7253000081"/>
    <nd ref="7253040388"/>
    <nd ref="7253040389"/>
    <nd ref="7253040387"/>
    <nd ref="7253040385"/>
    <nd ref="7253000084"/>
    <nd ref="7253000083"/>
    <nd ref="7253000082"/>
    <nd ref="7253040386"/>
    <nd ref="7253000073"/>
    <nd ref="7253000079"/>
    <tag k="building" v="yes"/>
    <tag k="historic" v="house"/>
    <tag k="name" v="Moat Hall"/>
    <tag k="source:name" v="NLS-OS-1st_Series"/>
  </way>
  <way id="802996221" version="3" timestamp="2021-08-27T19:29:39Z" changeset="110356618" uid="4543415" user="The_JF">
    <nd ref="7511454518"/>
    <nd ref="935666323"/>
    <nd ref="6764313045"/>
    <nd ref="6764313024"/>
    <nd ref="6764313036"/>
    <nd ref="6764313109"/>
    <nd ref="6764313025"/>
    <nd ref="6764313037"/>
    <nd ref="935630655"/>
    <tag k="alt_name" v="Definitive Bridleway SCARCROFT 11"/>
    <tag k="bicycle" v="yes"/>
    <tag k="designation" v="public_bridleway"/>
    <tag k="foot" v="designated"/>
    <tag k="highway" v="residential"/>
    <tag k="horse" v="designated"/>
    <tag k="motor_vehicle" v="private"/>
    <tag k="name" v="Bracken Park"/>
    <tag k="prow_ref" v="SCARCROFT BP 11"/>
    <tag k="source" v="OS OpenData StreetView;survey"/>
    <tag k="surface" v="asphalt"/>
  </way>
  <way id="808165617" version="1" timestamp="2020-05-25T21:31:56Z" changeset="85733667" uid="4543415" user="The_JF">
    <nd ref="7557260776"/>
    <nd ref="1614128672"/>
    <nd ref="1614128602"/>
    <nd ref="7253000068"/>
    <nd ref="1614128657"/>
    <nd ref="2060600944"/>
    <nd ref="7253000067"/>
    <nd ref="1614128656"/>
    <nd ref="1614128601"/>
    <nd ref="7253000066"/>
    <nd ref="1614128603"/>
    <nd ref="1614128655"/>
    <nd ref="2060601036"/>
    <nd ref="7253000065"/>
    <nd ref="3378141571"/>
    <tag k="highway" v="unclassified"/>
    <tag k="name" v="Thorner Lane"/>
    <tag k="source" v="GPS;OS_OpenData_StreetView"/>
    <tag k="surface" v="asphalt"/>
  </way>
  <way id="808165618" version="1" timestamp="2020-05-25T21:31:56Z" changeset="85733667" uid="4543415" user="The_JF">
    <nd ref="7557260778"/>
    <nd ref="7557260776"/>
    <tag k="bridge" v="yes"/>
    <tag k="highway" v="unclassified"/>
    <tag k="layer" v="1"/>
    <tag k="name" v="Thorner Lane"/>
    <tag k="source" v="GPS;OS_OpenData_StreetView"/>
    <tag k="surface" v="asphalt"/>
  </way>
  <way id="808165619" version="1" timestamp="2020-05-25T21:31:56Z" changeset="85733667" uid="4543415" user="The_JF">
    <nd ref="2060601033"/>
    <nd ref="685504986"/>
    <tag k="foot" v="designated"/>
    <tag k="highway" v="unclassified"/>
    <tag k="motor_vehicle" v="private"/>
  </way>
  <way id="833509264" version="1" timestamp="2020-08-03T12:23:52Z" changeset="88876906" uid="308" user="MichaelCollinson">
    <nd ref="935630655"/>
    <nd ref="6764283697"/>
    <nd ref="6764283684"/>
    <nd ref="6764283683"/>
    <nd ref="6764313106"/>
    <nd ref="6764313105"/>
    <nd ref="935666140"/>
    <nd ref="6764283671"/>
    <nd ref="6764283660"/>
    <nd ref="935665781"/>
    <nd ref="6764313094"/>
    <nd ref="6764283620"/>
    <nd ref="6764283613"/>
    <nd ref="6764283605"/>
    <nd ref="6764313093"/>
    <nd ref="6764283604"/>
    <nd ref="6764313073"/>
    <nd ref="6764283594"/>
    <nd ref="6764313083"/>
    <nd ref="935666467"/>
    <nd ref="6764283562"/>
    <nd ref="935666248"/>
    <nd ref="6764283563"/>
    <nd ref="935665858"/>
    <nd ref="6764283536"/>
    <nd ref="935666460"/>
    <nd ref="6764283564"/>
    <nd ref="6764283547"/>
    <nd ref="6764283565"/>
    <nd ref="6764283523"/>
    <nd ref="6764283566"/>
    <nd ref="6764283571"/>
    <nd ref="6764283567"/>
    <nd ref="6764283513"/>
    <nd ref="6764283568"/>
    <nd ref="6764283490"/>
    <nd ref="6764283569"/>
    <nd ref="6764283570"/>
    <nd ref="935666213"/>
    <nd ref="935665841"/>
    <nd ref="6764209379"/>
    <nd ref="6764313071"/>
    <nd ref="6764283489"/>
    <nd ref="6764209359"/>
    <nd ref="6764313070"/>
    <nd ref="6764209368"/>
    <nd ref="6764313059"/>
    <nd ref="6764313048"/>
    <nd ref="6764313058"/>
    <nd ref="935666497"/>
    <nd ref="6764313047"/>
    <nd ref="935666323"/>
    <tag k="access" v="private"/>
    <tag k="highway" v="residential"/>
    <tag k="name" v="Bracken Park"/>
    <tag k="source" v="OS OpenData StreetView"/>
    <tag k="surface" v="asphalt"/>
  </way>
  <way id="1120964095" version="1" timestamp="2022-12-11T10:12:31Z" changeset="129957332" uid="17953623" user="TheGateHouse">
    <nd ref="10252922160"/>
    <nd ref="10252922161"/>
    <nd ref="10252922162"/>
    <nd ref="10252922163"/>
    <nd ref="10252922160"/>
    <tag k="addr:city" v="Leeds"/>
    <tag k="addr:housename" v="The Gate House"/>
    <tag k="addr:postcode" v="LS14 3HJ"/>
    <tag k="addr:street" v="Wetherby Road"/>
    <tag k="building" v="house"/>
    <tag k="building:levels" v="1"/>
    <tag k="height" v="3.8"/>
    <tag k="image" v="https://photos.app.goo.gl/iECgx144RwttjR4h9"/>
    <tag k="name" v="The Gate House"/>
    <tag k="source" v="survey;local knowledge"/>
  </way>

</osm>
