<?xml version="1.0" encoding="UTF-8"?>
<osm version="0.6" generator="Overpass API 0.7.62.5 1bd436f1">
<note>The data included in this document is from www.openstreetmap.org. The data is made available under ODbL.</note>
<meta osm_base="2025-05-18T03:38:17Z" areas="2024-12-31T00:49:33Z"/>

  <node id="1560077" lat="53.9099426" lon="-1.3835855" version="7" timestamp="2022-05-09T18:28:20Z" changeset="120761235" uid="2773866" user="kreuzschnabel">
    <tag k="highway" v="motorway_junction"/>
    <tag k="name" v="Grange Moor Roundabout"/>
    <tag k="ref" v="45"/>
    <tag k="source:name" v="OS OpenData StreetView"/>
  </node>
  <node id="29581618" lat="53.9061015" lon="-1.3644521" version="4" timestamp="2021-09-03T18:12:48Z" changeset="110690832" uid="3316592" user="Arthtoach"/>
  <node id="29581640" lat="53.9106539" lon="-1.3844035" version="4" timestamp="2022-05-09T18:28:20Z" changeset="120761235" uid="2773866" user="kreuzschnabel"/>
  <node id="30804466" lat="53.8993900" lon="-1.3496907" version="4" timestamp="2021-11-16T11:55:06Z" changeset="113848720" uid="3316592" user="Arthtoach"/>
  <node id="30804467" lat="53.8998119" lon="-1.3455303" version="2" timestamp="2012-10-19T21:18:22Z" changeset="13561981" uid="106831" user="sc71"/>
  <node id="30804471" lat="53.9008988" lon="-1.3410558" version="3" timestamp="2014-12-11T18:20:24Z" changeset="27403924" uid="493595" user="Yorvik Prestigitator"/>
  <node id="30813882" lat="53.9064348" lon="-1.3435835" version="4" timestamp="2025-02-13T20:24:16Z" changeset="162480088" uid="11606276" user="matty817"/>
  <node id="330526975" lat="53.8971887" lon="-1.3241582" version="2" timestamp="2023-03-27T18:31:33Z" changeset="134190168" uid="3316592" user="Arthtoach"/>
  <node id="1576108694" lat="53.9064622" lon="-1.3785378" version="2" timestamp="2021-06-07T19:13:29Z" changeset="105991117" uid="3316592" user="Arthtoach"/>
  <node id="1576108740" lat="53.9065052" lon="-1.3781002" version="2" timestamp="2021-06-07T19:13:29Z" changeset="105991117" uid="3316592" user="Arthtoach"/>
  <node id="1581182876" lat="53.9066637" lon="-1.3763966" version="2" timestamp="2017-05-26T15:00:34Z" changeset="49004875" uid="2773866" user="kreuzschnabel"/>
  <node id="1581182908" lat="53.9054712" lon="-1.3768868" version="2" timestamp="2021-06-07T19:13:29Z" changeset="105991117" uid="3316592" user="Arthtoach"/>
  <node id="7102835618" lat="53.9007533" lon="-1.3420211" version="2" timestamp="2022-10-27T10:53:36Z" changeset="128123382" uid="3316592" user="Arthtoach"/>
  <node id="8518350336" lat="53.9084292" lon="-1.3814917" version="2" timestamp="2022-05-09T18:28:20Z" changeset="120761235" uid="2773866" user="kreuzschnabel"/>
  <node id="10132364409" lat="53.8944643" lon="-1.3428263" version="1" timestamp="2022-10-27T11:07:19Z" changeset="128123951" uid="3316592" user="Arthtoach"/>
  <node id="10132378409" lat="53.9006566" lon="-1.3430002" version="1" timestamp="2022-10-27T10:53:36Z" changeset="128123382" uid="3316592" user="Arthtoach"/>
  <way id="4647588" version="22" timestamp="2023-03-21T19:11:38Z" changeset="133953490" uid="3316592" user="Arthtoach">
    <nd ref="29581588"/>
    <nd ref="3230197758"/>
    <nd ref="7013544396"/>
    <nd ref="6586364414"/>
    <nd ref="6586364398"/>
    <nd ref="908258054"/>
    <nd ref="8957585761"/>
    <nd ref="29581587"/>
    <nd ref="1135207197"/>
    <nd ref="2637618155"/>
    <nd ref="29581584"/>
    <tag k="highway" v="primary"/>
    <tag k="lanes" v="2"/>
    <tag k="maxspeed" v="30 mph"/>
    <tag k="name" v="High Street"/>
    <tag k="ref" v="A659"/>
    <tag k="source" v="survey"/>
    <tag k="surface" v="asphalt"/>
  </way>
  <way id="4648764" version="24" timestamp="2023-01-15T21:48:57Z" changeset="131315523" uid="4543415" user="The_JF">
    <nd ref="29581604"/>
    <nd ref="10557749926"/>
    <nd ref="1876496858"/>
    <nd ref="345178241"/>
    <tag k="abutters" v="retail"/>
    <tag k="highway" v="primary"/>
    <tag k="lanes" v="2"/>
    <tag k="maxspeed" v="30 mph"/>
    <tag k="name" v="High Street"/>
    <tag k="ref" v="A659"/>
    <tag k="source" v="survey"/>
    <tag k="surface" v="asphalt"/>
  </way>
  <way id="4648766" version="6" timestamp="2024-06-14T22:35:41Z" changeset="152700850" uid="1778799" user="SomeoneElse_Revert">
    <nd ref="29581607"/>
    <nd ref="29581608"/>
    <nd ref="29581609"/>
    <nd ref="29581600"/>
    <tag k="abutters" v="residential"/>
    <tag k="highway" v="residential"/>
    <tag k="name" v="Royal Terrace"/>
    <tag k="source" v="survey"/>
    <tag k="surface" v="asphalt"/>
  </way>
  <way id="4801367" version="20" timestamp="2024-06-17T20:17:28Z" changeset="152818627" uid="20112387" user="Anton Khorev (repair)">
    <nd ref="30804467"/>
    <nd ref="908257515"/>
    <nd ref="1952806165"/>
    <nd ref="1952806168"/>
    <nd ref="30804468"/>
    <tag k="highway" v="tertiary"/>
    <tag k="name" v="Clifford Road"/>
    <tag k="sidewalk" v="both"/>
    <tag k="surface" v="asphalt"/>
  </way>
  <way id="4801368" version="18" timestamp="2024-06-17T20:17:36Z" changeset="152818627" uid="20112387" user="Anton Khorev (repair)">
    <nd ref="30804468"/>
    <nd ref="1877885880"/>
    <nd ref="1923405575"/>
    <nd ref="1923405578"/>
    <nd ref="1923405579"/>
    <nd ref="1923405580"/>
    <nd ref="10132378409"/>
    <nd ref="908258589"/>
    <nd ref="7102835618"/>
    <nd ref="9879528250"/>
    <nd ref="30804470"/>
    <nd ref="30804471"/>
    <tag k="highway" v="tertiary"/>
    <tag k="name" v="Grove Road"/>
    <tag k="sidewalk" v="left"/>
    <tag k="surface" v="asphalt"/>
  </way>
  <way id="4801723" version="12" timestamp="2025-05-07T09:55:44Z" changeset="165930334" uid="22849301" user="MattyOh">
    <nd ref="30813879"/>
    <nd ref="685970607"/>
    <tag k="highway" v="tertiary"/>
    <tag k="lanes" v="2"/>
    <tag k="maxspeed" v="20 mph"/>
    <tag k="maxspeed:type" v="GB:zone20"/>
    <tag k="name" v="Bridge Road"/>
    <tag k="surface" v="asphalt"/>
  </way>
  <way id="4801724" version="9" timestamp="2025-05-07T09:55:44Z" changeset="165930334" uid="22849301" user="MattyOh">
    <nd ref="30813882"/>
    <nd ref="12585984074"/>
    <nd ref="30813879"/>
    <tag k="bridge" v="yes"/>
    <tag k="hgv" v="destination"/>
    <tag k="highway" v="tertiary"/>
    <tag k="lanes" v="1"/>
    <tag k="layer" v="1"/>
    <tag k="maxspeed" v="20 mph"/>
    <tag k="maxspeed:advisory" v="15 mph"/>
    <tag k="maxspeed:type" v="GB:zone20"/>
    <tag k="maxweight" v="7.5"/>
    <tag k="narrow" v="yes"/>
    <tag k="sidewalk" v="right"/>
    <tag k="surface" v="asphalt"/>
  </way>
  <way id="4801725" version="24" timestamp="2024-06-17T20:17:28Z" changeset="152818627" uid="20112387" user="Anton Khorev (repair)">
    <nd ref="29581618"/>
    <nd ref="9060894211"/>
    <nd ref="7888739188"/>
    <nd ref="10557749924"/>
    <nd ref="1877423368"/>
    <nd ref="30814256"/>
    <nd ref="9060926375"/>
    <nd ref="9060926376"/>
    <nd ref="9060926377"/>
    <nd ref="30814259"/>
    <nd ref="9060926378"/>
    <nd ref="908257369"/>
    <nd ref="30814263"/>
    <nd ref="10557749923"/>
    <nd ref="908258123"/>
    <nd ref="908258295"/>
    <nd ref="908257968"/>
    <nd ref="9060926379"/>
    <nd ref="3933321988"/>
    <nd ref="30814270"/>
    <nd ref="9060926384"/>
    <nd ref="30814272"/>
    <nd ref="10133774243"/>
    <nd ref="9257858626"/>
    <nd ref="9257858637"/>
    <nd ref="1877402958"/>
    <nd ref="30814274"/>
    <nd ref="1889069429"/>
    <nd ref="30814276"/>
    <nd ref="1889069427"/>
    <nd ref="30814400"/>
    <nd ref="9256365194"/>
    <nd ref="10133774242"/>
    <nd ref="30814402"/>
    <nd ref="1974330328"/>
    <tag k="highway" v="tertiary"/>
    <tag k="lanes" v="2"/>
    <tag k="name" v="Clifford Moor Road"/>
    <tag k="surface" v="asphalt"/>
  </way>
  <way id="23659241" version="17" timestamp="2022-10-28T19:14:06Z" changeset="128188142" uid="13666626" user="RedAuburn">
    <nd ref="1560072"/>
    <nd ref="1576108740"/>
    <tag k="bridge" v="yes"/>
    <tag k="carriageway_ref" v="B"/>
    <tag k="highway" v="motorway"/>
    <tag k="int_ref" v="E 15"/>
    <tag k="lanes" v="3"/>
    <tag k="layer" v="1"/>
    <tag k="lit" v="no"/>
    <tag k="maxspeed" v="70 mph"/>
    <tag k="maxspeed:type" v="GB:motorway"/>
    <tag k="national_highways:area" v="DBFO33"/>
    <tag k="oneway" v="yes"/>
    <tag k="operator" v="National Highways"/>
    <tag k="operator:wikidata" v="Q5760006"/>
    <tag k="ref" v="A1(M)"/>
    <tag k="shoulder" v="left"/>
    <tag k="surface" v="asphalt"/>
  </way>
  <way id="23659243" version="19" timestamp="2022-10-28T19:14:06Z" changeset="128188142" uid="13666626" user="RedAuburn">
    <nd ref="1581182908"/>
    <nd ref="1554665"/>
    <nd ref="8821873066"/>
    <nd ref="1554669"/>
    <nd ref="1576108738"/>
    <nd ref="1554569"/>
    <nd ref="1576108695"/>
    <nd ref="5668819891"/>
    <nd ref="1554574"/>
    <nd ref="5668819892"/>
    <nd ref="5668819894"/>
    <nd ref="1554577"/>
    <nd ref="5668819897"/>
    <nd ref="1554490"/>
    <tag k="carriageway_ref" v="B"/>
    <tag k="highway" v="motorway"/>
    <tag k="int_ref" v="E 15"/>
    <tag k="lanes" v="3"/>
    <tag k="lit" v="no"/>
    <tag k="maxspeed" v="70 mph"/>
    <tag k="maxspeed:type" v="GB:motorway"/>
    <tag k="national_highways:area" v="DBFO33"/>
    <tag k="oneway" v="yes"/>
    <tag k="operator" v="National Highways"/>
    <tag k="operator:wikidata" v="Q5760006"/>
    <tag k="ref" v="A1(M)"/>
    <tag k="shoulder" v="left"/>
    <tag k="surface" v="asphalt"/>
  </way>
  <way id="54448377" version="2" timestamp="2012-10-25T20:32:26Z" changeset="13631872" uid="106831" user="sc71">
    <nd ref="685970604"/>
    <nd ref="685970595"/>
    <tag k="highway" v="residential"/>
    <tag k="name" v="Pine Tree Avenue"/>
    <tag k="source:name" v="OS_OpenData_Locator"/>
  </way>
  <way id="54448378" version="4" timestamp="2022-08-05T18:33:06Z" changeset="124535521" uid="3316592" user="Arthtoach">
    <nd ref="685970596"/>
    <nd ref="9934295099"/>
    <nd ref="9934307422"/>
    <nd ref="685970597"/>
    <tag k="highway" v="residential"/>
    <tag k="name" v="Spa Lane"/>
    <tag k="name:source" v="survey"/>
    <tag k="surface" v="asphalt"/>
  </way>
  <way id="77126940" version="3" timestamp="2021-11-13T10:43:53Z" changeset="113725653" uid="3316592" user="Arthtoach">
    <nd ref="908257727"/>
    <nd ref="908257410"/>
    <tag k="highway" v="residential"/>
    <tag k="name" v="Jackdaw Lane"/>
    <tag k="name:source" v="survey"/>
    <tag k="source" v="OS OpenData StreetView"/>
    <tag k="surface" v="asphalt"/>
  </way>
  <way id="77126941" version="2" timestamp="2011-06-26T21:41:39Z" changeset="8556911" uid="61607" user="skylark">
    <nd ref="908257491"/>
    <nd ref="908257715"/>
    <tag k="highway" v="residential"/>
    <tag k="name" v="Greystone Close"/>
    <tag k="name:source" v="survey"/>
    <tag k="source" v="OS OpenData StreetView"/>
  </way>
  <way id="77126943" version="3" timestamp="2021-11-13T10:43:53Z" changeset="113725653" uid="3316592" user="Arthtoach">
    <nd ref="908258485"/>
    <nd ref="908257723"/>
    <nd ref="908257261"/>
    <tag k="highway" v="residential"/>
    <tag k="name" v="Rosedale Rise"/>
    <tag k="source" v="OS OpenData StreetView"/>
    <tag k="surface" v="asphalt"/>
  </way>
  <way id="77126944" version="3" timestamp="2014-12-11T18:20:27Z" changeset="27403924" uid="493595" user="Yorvik Prestigitator">
    <nd ref="908257298"/>
    <nd ref="908258298"/>
    <nd ref="908257842"/>
    <nd ref="3230197778"/>
    <tag k="highway" v="residential"/>
    <tag k="name" v="Green Lea Close"/>
    <tag k="source" v="OS OpenData StreetView"/>
    <tag k="source:name" v="OS_OpenData_Locator"/>
  </way>
  <way id="77126945" version="5" timestamp="2021-11-16T10:57:01Z" changeset="113846049" uid="3316592" user="Arthtoach">
    <nd ref="908258565"/>
    <nd ref="9256148161"/>
    <nd ref="9256148159"/>
    <nd ref="9256148158"/>
    <nd ref="908258080"/>
    <nd ref="9256148160"/>
    <nd ref="908257303"/>
    <nd ref="9256148155"/>
    <nd ref="9256148156"/>
    <nd ref="9256148157"/>
    <nd ref="4060916133"/>
    <nd ref="9256148154"/>
    <nd ref="9256148153"/>
    <nd ref="908258315"/>
    <nd ref="908257851"/>
    <tag k="highway" v="residential"/>
    <tag k="name" v="Ivy Lane"/>
    <tag k="name:source" v="Ivy Lane"/>
    <tag k="source" v="OS OpenData StreetView"/>
    <tag k="surface" v="asphalt"/>
  </way>
  <way id="77126947" version="3" timestamp="2012-10-25T20:32:23Z" changeset="13631872" uid="106831" user="sc71">
    <nd ref="908257403"/>
    <nd ref="908257741"/>
    <nd ref="908257322"/>
    <tag k="highway" v="residential"/>
    <tag k="name" v="Grove Gardens"/>
    <tag k="source" v="OS OpenData StreetView"/>
    <tag k="source:name" v="OS_OpenData_Locator"/>
  </way>
  <way id="77126948" version="5" timestamp="2021-09-04T09:46:11Z" changeset="110708941" uid="3316592" user="Arthtoach">
    <nd ref="908257820"/>
    <nd ref="9061972145"/>
    <nd ref="1929762957"/>
    <nd ref="9061972146"/>
    <nd ref="908258592"/>
    <tag k="highway" v="residential"/>
    <tag k="name" v="Nursery Way"/>
    <tag k="source" v="OS OpenData StreetView"/>
    <tag k="source:name" v="OS_OpenData_Locator"/>
    <tag k="surface" v="asphalt"/>
  </way>
  <way id="77126951" version="5" timestamp="2021-11-15T15:02:49Z" changeset="113809588" uid="3316592" user="Arthtoach">
    <nd ref="908258448"/>
    <nd ref="908257752"/>
    <nd ref="9253586319"/>
    <nd ref="9253586322"/>
    <nd ref="9253586323"/>
    <nd ref="9253586321"/>
    <nd ref="9253586320"/>
    <nd ref="908257338"/>
    <nd ref="1876496843"/>
    <nd ref="908258335"/>
    <tag k="highway" v="residential"/>
    <tag k="name" v="Westwood Way"/>
    <tag k="name:source" v="survey"/>
    <tag k="source" v="OS OpenData StreetView"/>
    <tag k="surface" v="asphalt"/>
  </way>
  <way id="77126952" version="4" timestamp="2021-11-16T10:57:01Z" changeset="113846049" uid="3316592" user="Arthtoach">
    <nd ref="9256148212"/>
    <nd ref="9256184121"/>
    <nd ref="908257744"/>
    <nd ref="9256184123"/>
    <nd ref="9256184122"/>
    <nd ref="908258320"/>
    <tag k="highway" v="residential"/>
    <tag k="name" v="Oaks Lane"/>
    <tag k="source" v="OS OpenData StreetView"/>
    <tag k="surface" v="asphalt"/>
  </way>
  <way id="77126954" version="4" timestamp="2021-11-13T09:39:38Z" changeset="113723836" uid="3316592" user="Arthtoach">
    <nd ref="908257374"/>
    <nd ref="908258125"/>
    <nd ref="9247882941"/>
    <nd ref="9247882940"/>
    <nd ref="908258363"/>
    <nd ref="908257936"/>
    <tag k="highway" v="residential"/>
    <tag k="name" v="Parkfield Drive"/>
    <tag k="source" v="OS OpenData StreetView"/>
    <tag k="surface" v="asphalt"/>
  </way>
  <way id="77126956" version="4" timestamp="2022-07-10T19:13:12Z" changeset="123444175" uid="3316592" user="Arthtoach">
    <nd ref="908257590"/>
    <nd ref="1923420127"/>
    <nd ref="908258354"/>
    <nd ref="908257909"/>
    <tag k="highway" v="residential"/>
    <tag k="name" v="Grove Place"/>
    <tag k="source" v="OS OpenData StreetView"/>
    <tag k="surface" v="asphalt"/>
  </way>
  <way id="77126957" version="2" timestamp="2012-10-25T20:32:25Z" changeset="13631872" uid="106831" user="sc71">
    <nd ref="908257689"/>
    <nd ref="908258555"/>
    <nd ref="908258109"/>
    <tag k="highway" v="residential"/>
    <tag k="name" v="Holly Bush Court"/>
    <tag k="source" v="OS OpenData StreetView"/>
  </way>
  <way id="77126959" version="4" timestamp="2022-10-27T10:53:36Z" changeset="128123382" uid="3316592" user="Arthtoach">
    <nd ref="908257725"/>
    <nd ref="908257263"/>
    <nd ref="3230197804"/>
    <nd ref="908258266"/>
    <nd ref="908257816"/>
    <nd ref="908257389"/>
    <nd ref="908258368"/>
    <nd ref="908258319"/>
    <nd ref="908257802"/>
    <tag k="highway" v="residential"/>
    <tag k="name" v="Grove Crescent South"/>
    <tag k="source" v="OS OpenData StreetView"/>
    <tag k="surface" v="asphalt"/>
  </way>
  <way id="77126960" version="6" timestamp="2021-11-12T16:55:12Z" changeset="113704463" uid="3316592" user="Arthtoach">
    <nd ref="908258508"/>
    <nd ref="908257258"/>
    <nd ref="9246192632"/>
    <nd ref="908258260"/>
    <nd ref="9246192633"/>
    <nd ref="9246192634"/>
    <nd ref="9246192635"/>
    <nd ref="908258127"/>
    <nd ref="908257659"/>
    <nd ref="908258148"/>
    <nd ref="908258529"/>
    <nd ref="908258488"/>
    <nd ref="9246172114"/>
    <nd ref="9246172113"/>
    <nd ref="9246172112"/>
    <nd ref="908258022"/>
    <nd ref="9246550102"/>
    <nd ref="908257611"/>
    <tag k="highway" v="residential"/>
    <tag k="name" v="West End"/>
    <tag k="source" v="OS OpenData StreetView"/>
    <tag k="surface" v="asphalt"/>
  </way>
  <way id="77126962" version="2" timestamp="2012-10-25T20:32:24Z" changeset="13631872" uid="106831" user="sc71">
    <nd ref="908258102"/>
    <nd ref="908257688"/>
    <tag k="highway" v="residential"/>
    <tag k="name" v="Hall Close"/>
    <tag k="source" v="OS OpenData StreetView"/>
    <tag k="source:name" v="OS_OpenData_Locator"/>
  </way>
  <way id="77126963" version="3" timestamp="2021-09-03T18:38:29Z" changeset="110691664" uid="3316592" user="Arthtoach">
    <nd ref="908257480"/>
    <nd ref="9060926359"/>
    <nd ref="9060926357"/>
    <nd ref="908257706"/>
    <nd ref="9060926356"/>
    <nd ref="9060926355"/>
    <nd ref="9060926358"/>
    <nd ref="908257234"/>
    <tag k="highway" v="residential"/>
    <tag k="name" v="Ling Croft"/>
    <tag k="source" v="OS OpenData StreetView"/>
    <tag k="surface" v="asphalt"/>
  </way>
  <way id="77126966" version="3" timestamp="2021-11-16T11:09:31Z" changeset="113846625" uid="3316592" user="Arthtoach">
    <nd ref="908258107"/>
    <nd ref="908258263"/>
    <nd ref="9256156308"/>
    <nd ref="908257810"/>
    <tag k="highway" v="residential"/>
    <tag k="source" v="OS OpenData StreetView"/>
    <tag k="surface" v="asphalt"/>
  </way>
  <way id="77126969" version="6" timestamp="2021-11-15T13:26:12Z" changeset="113805684" uid="3316592" user="Arthtoach">
    <nd ref="908257968"/>
    <nd ref="908257546"/>
    <nd ref="9253316821"/>
    <nd ref="9253316820"/>
    <nd ref="9253316822"/>
    <nd ref="908258252"/>
    <nd ref="908258490"/>
    <nd ref="908258487"/>
    <nd ref="908257342"/>
    <nd ref="908258232"/>
    <nd ref="908258536"/>
    <nd ref="9253250905"/>
    <nd ref="9253250906"/>
    <nd ref="9253250904"/>
    <nd ref="9253250903"/>
    <nd ref="908258083"/>
    <tag k="highway" v="residential"/>
    <tag k="name" v="St John's View"/>
    <tag k="source" v="OS OpenData StreetView"/>
    <tag k="surface" v="asphalt"/>
  </way>
  <way id="77126972" version="11" timestamp="2022-07-10T19:13:12Z" changeset="123444175" uid="3316592" user="Arthtoach">
    <nd ref="908257812"/>
    <nd ref="1946267940"/>
    <nd ref="1927319755"/>
    <nd ref="1927319754"/>
    <nd ref="1946267937"/>
    <nd ref="1946267935"/>
    <nd ref="1927319753"/>
    <nd ref="908257429"/>
    <nd ref="1946267933"/>
    <tag k="highway" v="residential"/>
    <tag k="name" v="Beeches End"/>
    <tag k="sidewalk" v="both"/>
    <tag k="source" v="OS OpenData StreetView"/>
    <tag k="surface" v="asphalt"/>
  </way>
  <way id="77126973" version="3" timestamp="2021-09-03T18:38:29Z" changeset="110691664" uid="3316592" user="Arthtoach">
    <nd ref="908257580"/>
    <nd ref="9060926386"/>
    <tag k="highway" v="residential"/>
    <tag k="name" v="Moor End Gardens"/>
    <tag k="source" v="OS OpenData StreetView"/>
    <tag k="source:name" v="OS_OpenData_Locator"/>
    <tag k="surface" v="paving_stones"/>
  </way>
  <way id="77126974" version="3" timestamp="2021-09-03T18:38:29Z" changeset="110691664" uid="3316592" user="Arthtoach">
    <nd ref="908257930"/>
    <nd ref="908257342"/>
    <tag k="highway" v="residential"/>
    <tag k="name" v="Queen's Road"/>
    <tag k="source" v="OS OpenData StreetView"/>
    <tag k="surface" v="asphalt"/>
  </way>
  <way id="77126976" version="5" timestamp="2022-07-11T17:39:25Z" changeset="123485488" uid="3316592" user="Arthtoach">
    <nd ref="908257704"/>
    <nd ref="9881539510"/>
    <nd ref="3557381793"/>
    <nd ref="908257231"/>
    <tag k="highway" v="residential"/>
    <tag k="name" v="Lee Orchards"/>
    <tag k="source" v="OS OpenData StreetView"/>
    <tag k="surface" v="asphalt"/>
  </way>
  <way id="77126977" version="2" timestamp="2021-11-12T13:40:54Z" changeset="113697264" uid="3316592" user="Arthtoach">
    <nd ref="908258529"/>
    <nd ref="908258071"/>
    <tag k="highway" v="residential"/>
    <tag k="source" v="OS OpenData StreetView"/>
    <tag k="surface" v="asphalt"/>
  </way>
  <way id="77126979" version="5" timestamp="2021-09-05T08:16:38Z" changeset="110739633" uid="3316592" user="Arthtoach">
    <nd ref="908257608"/>
    <nd ref="9063604682"/>
    <nd ref="4664212155"/>
    <nd ref="908257266"/>
    <nd ref="908258268"/>
    <tag k="highway" v="residential"/>
    <tag k="name" v="Chestnut Grove"/>
    <tag k="source" v="OS OpenData StreetView"/>
    <tag k="surface" v="asphalt"/>
  </way>
  <way id="77126981" version="5" timestamp="2021-09-03T18:38:29Z" changeset="110691664" uid="3316592" user="Arthtoach">
    <nd ref="9060912413"/>
    <nd ref="6145606458"/>
    <nd ref="9060926328"/>
    <nd ref="9060926327"/>
    <nd ref="9060926326"/>
    <nd ref="6145606460"/>
    <nd ref="9060926325"/>
    <nd ref="9060926324"/>
    <nd ref="9060926323"/>
    <nd ref="908257872"/>
    <nd ref="9060912414"/>
    <tag k="highway" v="residential"/>
    <tag k="name" v="Heath Drive"/>
    <tag k="sidewalk:left" v="separate"/>
    <tag k="sidewalk:right" v="yes"/>
    <tag k="source" v="OS OpenData StreetView"/>
    <tag k="surface" v="asphalt"/>
  </way>
  <way id="77126982" version="4" timestamp="2022-09-29T20:24:33Z" changeset="126797471" uid="4543415" user="The_JF">
    <nd ref="908258195"/>
    <nd ref="908258445"/>
    <nd ref="908257982"/>
    <nd ref="908257556"/>
    <tag k="highway" v="residential"/>
    <tag k="maxspeed" v="20 mph"/>
    <tag k="name" v="The Close"/>
    <tag k="source" v="OS OpenData StreetView"/>
    <tag k="surface" v="asphalt"/>
  </way>
  <way id="77126984" version="5" timestamp="2021-11-16T10:57:01Z" changeset="113846049" uid="3316592" user="Arthtoach">
    <nd ref="9256184198"/>
    <nd ref="908257963"/>
    <tag k="highway" v="residential"/>
    <tag k="name" v="Fieldhead Court"/>
    <tag k="source" v="OS OpenData StreetView"/>
    <tag k="source:name" v="OS_OpenData_Locator"/>
    <tag k="surface" v="asphalt"/>
  </way>
  <way id="77126985" version="4" timestamp="2022-10-27T10:53:36Z" changeset="128123382" uid="3316592" user="Arthtoach">
    <nd ref="908257932"/>
    <nd ref="908257511"/>
    <nd ref="908258501"/>
    <nd ref="3230197792"/>
    <nd ref="908258047"/>
    <nd ref="908257802"/>
    <nd ref="29581606"/>
    <tag k="highway" v="residential"/>
    <tag k="name" v="Grove Crescent"/>
    <tag k="source" v="OS OpenData StreetView"/>
    <tag k="surface" v="asphalt"/>
  </way>
  <way id="77126986" version="4" timestamp="2021-11-13T09:39:38Z" changeset="113723836" uid="3316592" user="Arthtoach">
    <nd ref="908258114"/>
    <nd ref="9247882939"/>
    <nd ref="9247882938"/>
    <nd ref="908258340"/>
    <nd ref="908257902"/>
    <tag k="highway" v="residential"/>
    <tag k="name" v="Bownas Road"/>
    <tag k="source" v="OS OpenData StreetView"/>
    <tag k="surface" v="asphalt"/>
  </way>
  <way id="77126988" version="2" timestamp="2021-11-12T13:40:54Z" changeset="113697264" uid="3316592" user="Arthtoach">
    <nd ref="908257911"/>
    <nd ref="908257495"/>
    <tag k="highway" v="residential"/>
    <tag k="source" v="OS OpenData StreetView"/>
    <tag k="surface" v="asphalt"/>
  </way>
  <way id="77126989" version="3" timestamp="2021-09-03T18:38:29Z" changeset="110691664" uid="3316592" user="Arthtoach">
    <nd ref="908258526"/>
    <nd ref="908258048"/>
    <nd ref="9060912398"/>
    <nd ref="9060912399"/>
    <nd ref="9060912395"/>
    <nd ref="908257635"/>
    <nd ref="9060912396"/>
    <nd ref="9060912397"/>
    <nd ref="908258590"/>
    <nd ref="908258144"/>
    <tag k="highway" v="residential"/>
    <tag k="name" v="Carleton Close"/>
    <tag k="source" v="OS OpenData StreetView"/>
    <tag k="source:name" v="OS_OpenData_Locator"/>
    <tag k="surface" v="asphalt"/>
  </way>
  <way id="77126990" version="6" timestamp="2022-01-05T20:52:10Z" changeset="115812474" uid="3545710" user="David Day">
    <nd ref="29581616"/>
    <nd ref="908257513"/>
    <nd ref="4664212156"/>
    <nd ref="4664212157"/>
    <nd ref="9247868308"/>
    <nd ref="9395336305"/>
    <nd ref="908257212"/>
    <tag k="highway" v="residential"/>
    <tag k="name" v="Holly Road"/>
    <tag k="source" v="OS OpenData StreetView"/>
    <tag k="surface" v="asphalt"/>
  </way>
  <way id="77126992" version="3" timestamp="2021-11-13T10:43:53Z" changeset="113725653" uid="3316592" user="Arthtoach">
    <nd ref="908257667"/>
    <nd ref="908257844"/>
    <tag k="highway" v="residential"/>
    <tag k="name" v="Rievaulx Close"/>
    <tag k="source" v="OS OpenData StreetView"/>
    <tag k="source:name" v="OS_OpenData_Locator"/>
    <tag k="surface" v="asphalt"/>
  </way>
  <way id="77126993" version="3" timestamp="2021-11-12T13:40:54Z" changeset="113697264" uid="3316592" user="Arthtoach">
    <nd ref="345178240"/>
    <nd ref="908257453"/>
    <nd ref="908258456"/>
    <nd ref="908258008"/>
    <tag k="highway" v="residential"/>
    <tag k="name" v="Church Mews"/>
    <tag k="source" v="OS OpenData StreetView"/>
    <tag k="surface" v="asphalt"/>
  </way>
  <way id="77126994" version="4" timestamp="2021-11-16T11:44:56Z" changeset="113848287" uid="3316592" user="Arthtoach">
    <nd ref="908257914"/>
    <nd ref="908257255"/>
    <nd ref="9256306505"/>
    <nd ref="9256306506"/>
    <nd ref="9256306507"/>
    <nd ref="9256306510"/>
    <nd ref="9256306508"/>
    <nd ref="9256306509"/>
    <nd ref="908258259"/>
    <nd ref="908258359"/>
    <nd ref="908257631"/>
    <nd ref="9256306511"/>
    <nd ref="9256306512"/>
    <nd ref="9256306513"/>
    <nd ref="908258574"/>
    <tag k="highway" v="residential"/>
    <tag k="name" v="Egglestone Square"/>
    <tag k="source" v="OS OpenData StreetView"/>
    <tag k="surface" v="asphalt"/>
  </way>
  <way id="77126996" version="4" timestamp="2021-11-12T13:40:54Z" changeset="113697264" uid="3316592" user="Arthtoach">
    <nd ref="908258527"/>
    <nd ref="908257838"/>
    <tag k="highway" v="residential"/>
    <tag k="name" v="Whitham Close"/>
    <tag k="name:source" v="survey"/>
    <tag k="source" v="OS OpenData StreetView"/>
    <tag k="surface" v="asphalt"/>
  </way>
  <way id="77126999" version="3" timestamp="2021-09-03T18:38:29Z" changeset="110691664" uid="3316592" user="Arthtoach">
    <nd ref="908258078"/>
    <nd ref="908258526"/>
    <nd ref="9060912394"/>
    <nd ref="9060912393"/>
    <nd ref="908257399"/>
    <nd ref="30814263"/>
    <tag k="highway" v="residential"/>
    <tag k="name" v="Carleton Drive"/>
    <tag k="source" v="OS OpenData StreetView"/>
    <tag k="surface" v="asphalt"/>
  </way>
  <way id="77127000" version="4" timestamp="2021-11-15T14:56:28Z" changeset="113809293" uid="3316592" user="Arthtoach">
    <nd ref="908257393"/>
    <nd ref="908257654"/>
    <nd ref="9253578130"/>
    <nd ref="9253578129"/>
    <nd ref="9253578128"/>
    <nd ref="908258150"/>
    <nd ref="9253578127"/>
    <nd ref="9253578126"/>
    <nd ref="9253578125"/>
    <nd ref="908257734"/>
    <nd ref="908257294"/>
    <tag k="highway" v="residential"/>
    <tag k="name" v="Woodlea"/>
    <tag k="name:source" v="survey"/>
    <tag k="source" v="OS OpenData StreetView"/>
    <tag k="surface" v="asphalt"/>
  </way>
  <way id="77127001" version="5" timestamp="2021-11-12T13:48:22Z" changeset="113697505" uid="3316592" user="Arthtoach">
    <nd ref="908257659"/>
    <nd ref="7102621467"/>
    <nd ref="908258625"/>
    <nd ref="9246192631"/>
    <nd ref="9246192628"/>
    <nd ref="7102621470"/>
    <nd ref="9246192629"/>
    <nd ref="9246192630"/>
    <nd ref="908258180"/>
    <nd ref="908257736"/>
    <nd ref="9246192627"/>
    <nd ref="9246192626"/>
    <nd ref="908258587"/>
    <tag k="highway" v="residential"/>
    <tag k="name" v="The Copse"/>
    <tag k="source" v="OS OpenData StreetView"/>
    <tag k="surface" v="asphalt"/>
  </way>
  <way id="77127003" version="6" timestamp="2023-03-22T18:43:53Z" changeset="133991567" uid="3316592" user="Arthtoach">
    <nd ref="908257420"/>
    <nd ref="8273138690"/>
    <nd ref="908258413"/>
    <nd ref="10754088586"/>
    <nd ref="10754088585"/>
    <nd ref="908257973"/>
    <nd ref="10754088584"/>
    <nd ref="3230197733"/>
    <nd ref="908257550"/>
    <nd ref="10754088583"/>
    <nd ref="10754088582"/>
    <nd ref="908258385"/>
    <nd ref="10754088580"/>
    <nd ref="908257942"/>
    <nd ref="10754088581"/>
    <nd ref="908257516"/>
    <nd ref="10754088579"/>
    <nd ref="3230197820"/>
    <nd ref="10754088576"/>
    <nd ref="908258530"/>
    <nd ref="10754088577"/>
    <nd ref="10754088578"/>
    <nd ref="908258073"/>
    <nd ref="908258177"/>
    <nd ref="908258606"/>
    <nd ref="908257657"/>
    <nd ref="908258054"/>
    <tag k="highway" v="residential"/>
    <tag k="name" v="River View"/>
    <tag k="source" v="OS OpenData StreetView"/>
    <tag k="surface" v="asphalt"/>
  </way>
  <way id="77127005" version="6" timestamp="2021-11-15T15:34:17Z" changeset="113810846" uid="3316592" user="Arthtoach">
    <nd ref="908257222"/>
    <nd ref="9253673880"/>
    <nd ref="9253673881"/>
    <nd ref="9253673882"/>
    <nd ref="908258015"/>
    <nd ref="9253673883"/>
    <nd ref="908257690"/>
    <nd ref="9253673884"/>
    <nd ref="908257668"/>
    <nd ref="9253673885"/>
    <nd ref="1877396317"/>
    <nd ref="908257203"/>
    <nd ref="9253673886"/>
    <nd ref="9253673888"/>
    <nd ref="908258185"/>
    <nd ref="9253673887"/>
    <nd ref="908258448"/>
    <nd ref="908257838"/>
    <nd ref="908257393"/>
    <nd ref="908258100"/>
    <nd ref="2528375192"/>
    <nd ref="908257687"/>
    <nd ref="29581605"/>
    <tag k="highway" v="residential"/>
    <tag k="name" v="Westwood Way"/>
    <tag k="source" v="OS OpenData StreetView"/>
    <tag k="surface" v="asphalt"/>
  </way>
  <way id="77127008" version="3" timestamp="2013-01-01T18:00:07Z" changeset="14489879" uid="163608" user="Madwort">
    <nd ref="908257306"/>
    <nd ref="908258318"/>
    <nd ref="2091278256"/>
    <nd ref="908258321"/>
    <nd ref="908257867"/>
    <tag k="highway" v="residential"/>
    <tag k="name" v="Spa Mews"/>
    <tag k="source" v="OS OpenData StreetView"/>
    <tag k="source:name" v="OS_OpenData_Locator"/>
  </way>
  <way id="77127009" version="15" timestamp="2024-06-17T20:17:28Z" changeset="152818627" uid="20112387" user="Anton Khorev (repair)">
    <nd ref="345178238"/>
    <nd ref="1877396300"/>
    <nd ref="908257222"/>
    <nd ref="908258130"/>
    <nd ref="1876496834"/>
    <nd ref="908257721"/>
    <nd ref="908258366"/>
    <nd ref="908258044"/>
    <nd ref="9060926380"/>
    <nd ref="9060926381"/>
    <nd ref="30814270"/>
    <tag k="highway" v="tertiary"/>
    <tag k="name" v="Primrose Lane"/>
    <tag k="sidewalk" v="right"/>
    <tag k="source" v="OS OpenData StreetView"/>
    <tag k="surface" v="asphalt"/>
  </way>
  <way id="77127011" version="6" timestamp="2021-11-12T16:55:12Z" changeset="113704463" uid="3316592" user="Arthtoach">
    <nd ref="908258488"/>
    <nd ref="9246172115"/>
    <nd ref="7102621442"/>
    <nd ref="9246550101"/>
    <nd ref="908257911"/>
    <nd ref="908257370"/>
    <nd ref="9246192654"/>
    <nd ref="9246192655"/>
    <nd ref="9246192656"/>
    <nd ref="908257766"/>
    <tag k="highway" v="residential"/>
    <tag k="name" v="West Dale"/>
    <tag k="source" v="OS OpenData StreetView"/>
    <tag k="surface" v="asphalt"/>
  </way>
  <way id="77127013" version="3" timestamp="2021-09-03T18:38:29Z" changeset="110691664" uid="3316592" user="Arthtoach">
    <nd ref="908258232"/>
    <nd ref="908257778"/>
    <tag k="highway" v="residential"/>
    <tag k="name" v="Beech Road"/>
    <tag k="source" v="OS OpenData StreetView"/>
    <tag k="surface" v="asphalt"/>
  </way>
  <way id="77127015" version="7" timestamp="2022-07-10T19:13:12Z" changeset="123444175" uid="3316592" user="Arthtoach">
    <nd ref="908258589"/>
    <nd ref="908258140"/>
    <nd ref="1923405597"/>
    <nd ref="1923405599"/>
    <nd ref="1923405607"/>
    <nd ref="1876496830"/>
    <nd ref="1923405608"/>
    <nd ref="908257865"/>
    <tag k="highway" v="residential"/>
    <tag k="name" v="Chestnut End"/>
    <tag k="not:name" v="Chesnut End"/>
    <tag k="not:name:note" v="The street sign says &quot;Chestnut&quot; not &quot;Chesnut&quot;"/>
    <tag k="oneway" v="no"/>
    <tag k="sidewalk" v="both"/>
    <tag k="source" v="OS OpenData StreetView"/>
    <tag k="surface" v="asphalt"/>
  </way>
  <way id="77127016" version="4" timestamp="2023-03-22T18:43:53Z" changeset="133991567" uid="3316592" user="Arthtoach">
    <nd ref="908257542"/>
    <nd ref="908257737"/>
    <nd ref="10754088682"/>
    <nd ref="10754088681"/>
    <nd ref="908257304"/>
    <nd ref="10754088680"/>
    <nd ref="10754088679"/>
    <nd ref="908258317"/>
    <nd ref="908257420"/>
    <nd ref="908258177"/>
    <tag k="highway" v="residential"/>
    <tag k="name" v="River View"/>
    <tag k="source" v="OS OpenData StreetView"/>
    <tag k="surface" v="asphalt"/>
  </way>
  <way id="77127017" version="5" timestamp="2022-10-27T09:54:39Z" changeset="128121001" uid="3316592" user="Arthtoach">
    <nd ref="908257578"/>
    <nd ref="908258337"/>
    <nd ref="10132283189"/>
    <nd ref="908257901"/>
    <tag k="highway" v="residential"/>
    <tag k="name" v="St Mary's Street"/>
    <tag k="source" v="OS OpenData StreetView"/>
    <tag k="surface" v="asphalt"/>
  </way>
  <way id="77127018" version="3" timestamp="2021-11-16T11:44:56Z" changeset="113848287" uid="3316592" user="Arthtoach">
    <nd ref="908257372"/>
    <nd ref="908258359"/>
    <tag k="highway" v="residential"/>
    <tag k="source" v="OS OpenData StreetView"/>
    <tag k="surface" v="asphalt"/>
  </way>
  <way id="77127021" version="6" timestamp="2021-09-03T18:38:29Z" changeset="110691664" uid="3316592" user="Arthtoach">
    <nd ref="9060876699"/>
    <nd ref="908257732"/>
    <nd ref="908258224"/>
    <nd ref="9060926382"/>
    <nd ref="9060926383"/>
    <nd ref="9060926385"/>
    <nd ref="9060926384"/>
    <tag k="highway" v="residential"/>
    <tag k="name" v="Winnow Lane"/>
    <tag k="source" v="OS OpenData StreetView"/>
    <tag k="source:name" v="OS_OpenData_Locator"/>
    <tag k="surface" v="asphalt"/>
  </way>
  <way id="77127023" version="2" timestamp="2022-10-27T10:53:36Z" changeset="128123382" uid="3316592" user="Arthtoach">
    <nd ref="908258501"/>
    <nd ref="908258319"/>
    <tag k="highway" v="residential"/>
    <tag k="source" v="OS OpenData StreetView"/>
    <tag k="surface" v="asphalt"/>
  </way>
  <way id="77127025" version="5" timestamp="2021-11-16T11:17:52Z" changeset="113847013" uid="3316592" user="Arthtoach">
    <nd ref="908257877"/>
    <nd ref="9256236855"/>
    <nd ref="1876496842"/>
    <nd ref="9256236854"/>
    <nd ref="9256236853"/>
    <nd ref="908258105"/>
    <tag k="highway" v="residential"/>
    <tag k="name" v="Chaly Fields"/>
    <tag k="source" v="OS OpenData StreetView"/>
    <tag k="surface" v="paving_stones"/>
  </way>
  <way id="77127026" version="5" timestamp="2021-11-16T10:57:01Z" changeset="113846049" uid="3316592" user="Arthtoach">
    <nd ref="908258069"/>
    <nd ref="9256184201"/>
    <nd ref="9256184199"/>
    <nd ref="9256184198"/>
    <nd ref="908257396"/>
    <nd ref="9256184200"/>
    <nd ref="908258401"/>
    <tag k="highway" v="residential"/>
    <tag k="name" v="Fieldhead Court"/>
    <tag k="source" v="OS OpenData StreetView"/>
    <tag k="source:name" v="OS_OpenData_Locator"/>
    <tag k="surface" v="asphalt"/>
  </way>
  <way id="77127027" version="8" timestamp="2022-07-10T19:13:12Z" changeset="123444175" uid="3316592" user="Arthtoach">
    <nd ref="908257429"/>
    <nd ref="908257970"/>
    <nd ref="1927798398"/>
    <nd ref="1927798391"/>
    <nd ref="908257547"/>
    <nd ref="908258547"/>
    <nd ref="1927798370"/>
    <nd ref="908258230"/>
    <nd ref="1927798330"/>
    <nd ref="908257774"/>
    <tag k="highway" v="residential"/>
    <tag k="name" v="Lime Tree Gardens"/>
    <tag k="sidewalk" v="no"/>
    <tag k="source" v="OS OpenData StreetView"/>
    <tag k="surface" v="asphalt"/>
  </way>
  <way id="77127029" version="6" timestamp="2021-11-12T13:48:22Z" changeset="113697505" uid="3316592" user="Arthtoach">
    <nd ref="29581614"/>
    <nd ref="9246192661"/>
    <nd ref="9246192660"/>
    <nd ref="1911617889"/>
    <nd ref="908258213"/>
    <nd ref="908257965"/>
    <nd ref="9246192675"/>
    <nd ref="9246192676"/>
    <nd ref="9246192674"/>
    <nd ref="908257693"/>
    <nd ref="908257225"/>
    <nd ref="9246192672"/>
    <nd ref="9246192673"/>
    <nd ref="908258221"/>
    <nd ref="9246192671"/>
    <nd ref="9246192670"/>
    <nd ref="908257770"/>
    <nd ref="9246192669"/>
    <nd ref="908257358"/>
    <nd ref="9246192668"/>
    <nd ref="908258341"/>
    <nd ref="908257903"/>
    <nd ref="9246192666"/>
    <nd ref="9246192665"/>
    <nd ref="908257486"/>
    <nd ref="9246192664"/>
    <nd ref="908258323"/>
    <nd ref="9246192663"/>
    <nd ref="908257870"/>
    <nd ref="9060894198"/>
    <nd ref="9060894196"/>
    <nd ref="9060894197"/>
    <nd ref="908257441"/>
    <tag k="highway" v="residential"/>
    <tag k="name" v="Deepdale Lane"/>
    <tag k="source" v="OS OpenData StreetView"/>
    <tag k="surface" v="asphalt"/>
  </way>
  <way id="77127031" version="8" timestamp="2022-10-27T10:53:36Z" changeset="128123382" uid="3316592" user="Arthtoach">
    <nd ref="30804471"/>
    <nd ref="3230197791"/>
    <nd ref="908257298"/>
    <nd ref="908257932"/>
    <nd ref="3230197805"/>
    <nd ref="908257725"/>
    <nd ref="7102835641"/>
    <nd ref="1920063889"/>
    <nd ref="1920063826"/>
    <nd ref="908257484"/>
    <nd ref="908258135"/>
    <nd ref="908258577"/>
    <nd ref="2093539626"/>
    <nd ref="2528375180"/>
    <nd ref="2528375165"/>
    <nd ref="908257708"/>
    <tag k="highway" v="residential"/>
    <tag k="name" v="Green Lane"/>
    <tag k="source" v="OS OpenData StreetView"/>
    <tag k="surface" v="asphalt"/>
  </way>
  <way id="77127033" version="4" timestamp="2021-11-13T09:39:38Z" changeset="113723836" uid="3316592" user="Arthtoach">
    <nd ref="908257250"/>
    <nd ref="9247882937"/>
    <nd ref="9247882936"/>
    <nd ref="9247882935"/>
    <nd ref="9247882931"/>
    <nd ref="9247882934"/>
    <nd ref="9247882932"/>
    <nd ref="908257902"/>
    <nd ref="9247882933"/>
    <nd ref="908257768"/>
    <nd ref="908258125"/>
    <tag k="highway" v="residential"/>
    <tag k="name" v="Hayfield Avenue"/>
    <tag k="source" v="OS OpenData StreetView"/>
    <tag k="surface" v="asphalt"/>
  </way>
  <way id="77127034" version="3" timestamp="2021-11-12T13:40:54Z" changeset="113697264" uid="3316592" user="Arthtoach">
    <nd ref="908257582"/>
    <nd ref="908257768"/>
    <tag k="highway" v="residential"/>
    <tag k="name" v="Meadow Close"/>
    <tag k="name:source" v="survey"/>
    <tag k="source" v="OS OpenData StreetView"/>
    <tag k="surface" v="asphalt"/>
  </way>
  <way id="77127035" version="5" timestamp="2024-01-13T14:36:57Z" changeset="146216515" uid="5229644" user="Nathan_A_RF">
    <nd ref="908257637"/>
    <nd ref="9881517888"/>
    <nd ref="9881517887"/>
    <nd ref="9881517886"/>
    <nd ref="9881517885"/>
    <nd ref="908258594"/>
    <nd ref="908258600"/>
    <nd ref="9881517884"/>
    <nd ref="908258160"/>
    <tag k="highway" v="residential"/>
    <tag k="maxspeed" v="20 mph"/>
    <tag k="maxspeed:type" v="GB:zone20"/>
    <tag k="name" v="Bridge Close"/>
    <tag k="source" v="OS OpenData StreetView"/>
    <tag k="source:name" v="OS_OpenData_Locator"/>
  </way>
  <way id="77127037" version="2" timestamp="2021-11-12T13:40:54Z" changeset="113697264" uid="3316592" user="Arthtoach">
    <nd ref="908257370"/>
    <nd ref="908258356"/>
    <tag k="highway" v="residential"/>
    <tag k="source" v="OS OpenData StreetView"/>
    <tag k="surface" v="asphalt"/>
  </way>
  <way id="77127038" version="3" timestamp="2023-03-21T19:19:51Z" changeset="133953701" uid="3316592" user="Arthtoach">
    <nd ref="908257291"/>
    <nd ref="908258291"/>
    <nd ref="10751515425"/>
    <nd ref="10751515419"/>
    <nd ref="10751515424"/>
    <nd ref="10751515423"/>
    <nd ref="10751515422"/>
    <nd ref="10751515421"/>
    <nd ref="10751515420"/>
    <tag k="highway" v="residential"/>
    <tag k="name" v="Riverdale Gardens"/>
  </way>
  <way id="77127039" version="7" timestamp="2022-10-27T10:10:17Z" changeset="128121668" uid="3316592" user="Arthtoach">
    <nd ref="908258553"/>
    <nd ref="6289615901"/>
    <nd ref="908257556"/>
    <nd ref="908257301"/>
    <nd ref="10132303761"/>
    <nd ref="10132303762"/>
    <nd ref="10132303760"/>
    <nd ref="10132303759"/>
    <nd ref="908258301"/>
    <nd ref="9395340823"/>
    <nd ref="908257847"/>
    <nd ref="10132303757"/>
    <nd ref="10132303756"/>
    <nd ref="10132303758"/>
    <nd ref="10132303755"/>
    <nd ref="10132303754"/>
    <nd ref="908258408"/>
    <tag k="highway" v="residential"/>
    <tag k="maxspeed" v="20 mph"/>
    <tag k="name" v="Stables Lane"/>
    <tag k="source" v="OS OpenData StreetView"/>
    <tag k="surface" v="asphalt"/>
  </way>
  <way id="77127041" version="5" timestamp="2022-07-10T19:22:08Z" changeset="123444467" uid="3316592" user="Arthtoach">
    <nd ref="908258532"/>
    <nd ref="908258075"/>
    <nd ref="908257663"/>
    <nd ref="7908758447"/>
    <nd ref="908257200"/>
    <nd ref="908258184"/>
    <nd ref="9879528263"/>
    <nd ref="908257739"/>
    <tag k="highway" v="residential"/>
    <tag k="name" v="Hall Mews"/>
    <tag k="source" v="OS OpenData StreetView"/>
    <tag k="surface" v="asphalt"/>
  </way>
  <way id="77127042" version="4" timestamp="2021-11-16T10:57:01Z" changeset="113846049" uid="3316592" user="Arthtoach">
    <nd ref="908257523"/>
    <nd ref="9256184205"/>
    <nd ref="9256184206"/>
    <nd ref="9256184207"/>
    <nd ref="908257963"/>
    <nd ref="9256184204"/>
    <nd ref="9256184203"/>
    <nd ref="9256184202"/>
    <nd ref="908258534"/>
    <nd ref="9256148158"/>
    <tag k="highway" v="residential"/>
    <tag k="name" v="Fieldhead Paddock"/>
    <tag k="name:source" v="survey"/>
    <tag k="source" v="OS OpenData StreetView"/>
    <tag k="surface" v="asphalt"/>
  </way>
  <way id="77127044" version="4" timestamp="2021-09-03T18:38:29Z" changeset="110691664" uid="3316592" user="Arthtoach">
    <nd ref="908257706"/>
    <nd ref="9060926362"/>
    <nd ref="9060926360"/>
    <nd ref="9060926361"/>
    <nd ref="908257555"/>
    <nd ref="908258552"/>
    <nd ref="9060926363"/>
    <nd ref="9060926365"/>
    <nd ref="9060926364"/>
    <nd ref="908258104"/>
    <nd ref="908258227"/>
    <nd ref="908257713"/>
    <nd ref="9060926330"/>
    <tag k="highway" v="residential"/>
    <tag k="name" v="Moor Side"/>
    <tag k="source" v="OS OpenData StreetView"/>
    <tag k="surface" v="asphalt"/>
  </way>
  <way id="77127045" version="6" timestamp="2021-11-16T11:09:31Z" changeset="113846625" uid="3316592" user="Arthtoach">
    <nd ref="908257559"/>
    <nd ref="9256156311"/>
    <nd ref="9256156310"/>
    <nd ref="9256156309"/>
    <nd ref="1911620281"/>
    <nd ref="1911620274"/>
    <nd ref="9256156312"/>
    <nd ref="1911620270"/>
    <nd ref="908257376"/>
    <nd ref="9256156314"/>
    <nd ref="9256156313"/>
    <nd ref="9256156315"/>
    <nd ref="3933321987"/>
    <nd ref="908258366"/>
    <tag k="highway" v="residential"/>
    <tag k="name" v="Bolton Way"/>
    <tag k="source" v="OS OpenData StreetView"/>
    <tag k="surface" v="asphalt"/>
  </way>
  <way id="77127046" version="2" timestamp="2012-10-25T20:32:21Z" changeset="13631872" uid="106831" user="sc71">
    <nd ref="908257335"/>
    <nd ref="908257874"/>
    <nd ref="908257622"/>
    <nd ref="908258570"/>
    <tag k="highway" v="residential"/>
    <tag k="name" v="Appletree Close"/>
    <tag k="source" v="OS OpenData StreetView"/>
    <tag k="source:name" v="OS_OpenData_Locator"/>
  </way>
  <way id="77127048" version="3" timestamp="2021-09-03T18:38:29Z" changeset="110691664" uid="3316592" user="Arthtoach">
    <nd ref="908257521"/>
    <nd ref="908258295"/>
    <tag k="highway" v="residential"/>
    <tag k="name" v="Woodside Road"/>
    <tag k="source" v="OS OpenData StreetView"/>
    <tag k="source:name" v="OS_OpenData_Locator"/>
    <tag k="surface" v="asphalt"/>
  </way>
  <way id="77127049" version="4" timestamp="2021-11-12T13:40:54Z" changeset="113697264" uid="3316592" user="Arthtoach">
    <nd ref="908258097"/>
    <nd ref="7654264076"/>
    <nd ref="908257433"/>
    <nd ref="908258439"/>
    <tag k="highway" v="residential"/>
    <tag k="name" v="Chestnut Avenue"/>
    <tag k="source" v="OS OpenData StreetView"/>
    <tag k="surface" v="asphalt"/>
  </way>
  <way id="77127051" version="4" timestamp="2021-11-16T11:09:31Z" changeset="113846625" uid="3316592" user="Arthtoach">
    <nd ref="908257702"/>
    <nd ref="908257880"/>
    <nd ref="9256215023"/>
    <nd ref="9256215024"/>
    <nd ref="9256215025"/>
    <nd ref="908257476"/>
    <tag k="highway" v="residential"/>
    <tag k="name" v="Jervaulx Close"/>
    <tag k="source" v="OS OpenData StreetView"/>
    <tag k="surface" v="asphalt"/>
  </way>
  <way id="77127052" version="9" timestamp="2022-01-05T20:52:10Z" changeset="115812474" uid="3545710" user="David Day">
    <nd ref="908258252"/>
    <nd ref="908257780"/>
    <nd ref="9256215027"/>
    <nd ref="9256215028"/>
    <nd ref="9256215026"/>
    <nd ref="9256215029"/>
    <nd ref="908257702"/>
    <nd ref="908258574"/>
    <nd ref="9256215009"/>
    <nd ref="9256215007"/>
    <nd ref="9256215008"/>
    <nd ref="9256215006"/>
    <nd ref="9256215005"/>
    <nd ref="908258003"/>
    <nd ref="9256214951"/>
    <nd ref="9256214952"/>
    <nd ref="1974330339"/>
    <nd ref="9256214950"/>
    <nd ref="9256214946"/>
    <nd ref="908257559"/>
    <nd ref="9256214947"/>
    <nd ref="9256214948"/>
    <nd ref="9256214949"/>
    <nd ref="908258554"/>
    <nd ref="1911620284"/>
    <nd ref="908258107"/>
    <nd ref="9256156307"/>
    <nd ref="9256156306"/>
    <nd ref="1911398122"/>
    <nd ref="908257695"/>
    <nd ref="9256156305"/>
    <nd ref="908257851"/>
    <nd ref="9256156304"/>
    <nd ref="908257227"/>
    <nd ref="9395336307"/>
    <nd ref="9256156303"/>
    <nd ref="9256156302"/>
    <nd ref="908257667"/>
    <nd ref="9256156301"/>
    <nd ref="4060916134"/>
    <nd ref="9256156300"/>
    <nd ref="908258485"/>
    <nd ref="1911398105"/>
    <nd ref="908258130"/>
    <tag k="highway" v="residential"/>
    <tag k="name" v="Fountains Avenue"/>
    <tag k="name:source" v="survey"/>
    <tag k="source" v="OS OpenData StreetView"/>
    <tag k="surface" v="asphalt"/>
  </way>
  <way id="77127054" version="5" timestamp="2022-07-11T17:39:25Z" changeset="123485488" uid="3316592" user="Arthtoach">
    <nd ref="908258094"/>
    <nd ref="4925273594"/>
    <nd ref="9881539513"/>
    <nd ref="9881539512"/>
    <nd ref="908257685"/>
    <nd ref="908257214"/>
    <nd ref="908258192"/>
    <tag k="highway" v="residential"/>
    <tag k="name" v="Lynton Avenue"/>
    <tag k="name:source" v="survey"/>
    <tag k="source" v="OS OpenData StreetView"/>
    <tag k="surface" v="asphalt"/>
  </way>
  <way id="77127057" version="3" timestamp="2021-09-03T18:38:29Z" changeset="110691664" uid="3316592" user="Arthtoach">
    <nd ref="908257363"/>
    <nd ref="908258078"/>
    <nd ref="908258557"/>
    <nd ref="9060926351"/>
    <nd ref="9060926352"/>
    <nd ref="9060926350"/>
    <nd ref="9060926349"/>
    <nd ref="908258117"/>
    <nd ref="908257713"/>
    <tag k="highway" v="residential"/>
    <tag k="name" v="Bramble Avenue"/>
    <tag k="source" v="OS OpenData StreetView"/>
    <tag k="surface" v="asphalt"/>
  </way>
  <way id="77127058" version="4" timestamp="2021-11-15T13:20:13Z" changeset="113805463" uid="3316592" user="Arthtoach">
    <nd ref="908258037"/>
    <nd ref="908257616"/>
    <nd ref="9253296459"/>
    <nd ref="9253296458"/>
    <nd ref="908258569"/>
    <nd ref="908258123"/>
    <tag k="highway" v="residential"/>
    <tag k="name" v="Wickham Avenue"/>
    <tag k="source" v="OS OpenData StreetView"/>
    <tag k="surface" v="asphalt"/>
  </way>
  <way id="77127060" version="3" timestamp="2021-09-03T18:38:29Z" changeset="110691664" uid="3316592" user="Arthtoach">
    <nd ref="908258227"/>
    <nd ref="9060926367"/>
    <nd ref="9060926366"/>
    <nd ref="908257587"/>
    <nd ref="908257480"/>
    <nd ref="9060926368"/>
    <nd ref="9060926369"/>
    <nd ref="908257369"/>
    <tag k="highway" v="residential"/>
    <tag k="name" v="Heathfield Lane"/>
    <tag k="source" v="OS OpenData StreetView"/>
    <tag k="surface" v="asphalt"/>
  </way>
  <way id="77127061" version="4" timestamp="2021-11-15T13:26:12Z" changeset="113805684" uid="3316592" user="Arthtoach">
    <nd ref="908258487"/>
    <nd ref="908258019"/>
    <nd ref="9253296314"/>
    <nd ref="9253296315"/>
    <nd ref="9253296316"/>
    <nd ref="9253316819"/>
    <nd ref="9253316817"/>
    <nd ref="9253316818"/>
    <nd ref="908257585"/>
    <nd ref="9253296312"/>
    <nd ref="9253296311"/>
    <nd ref="9253296313"/>
    <nd ref="9253296310"/>
    <nd ref="908258558"/>
    <nd ref="908258565"/>
    <nd ref="9253296306"/>
    <nd ref="9253296307"/>
    <nd ref="9253296309"/>
    <nd ref="9253296308"/>
    <nd ref="908258120"/>
    <nd ref="9253296305"/>
    <nd ref="9253296303"/>
    <nd ref="9253296304"/>
    <nd ref="908257719"/>
    <nd ref="908257727"/>
    <nd ref="908257250"/>
    <nd ref="908258257"/>
    <nd ref="908257805"/>
    <tag k="highway" v="residential"/>
    <tag k="name" v="Clarendon Road"/>
    <tag k="name:source" v="survey"/>
    <tag k="source" v="OS OpenData StreetView"/>
    <tag k="surface" v="asphalt"/>
  </way>
  <way id="77127063" version="6" timestamp="2021-11-12T13:48:22Z" changeset="113697505" uid="3316592" user="Arthtoach">
    <nd ref="908258213"/>
    <nd ref="9246192659"/>
    <nd ref="9246192658"/>
    <nd ref="9246192657"/>
    <nd ref="908257766"/>
    <nd ref="9246192653"/>
    <nd ref="9246192652"/>
    <nd ref="9246192651"/>
    <nd ref="9246192650"/>
    <nd ref="908257340"/>
    <nd ref="908258496"/>
    <nd ref="908258336"/>
    <nd ref="9246192648"/>
    <nd ref="9246192647"/>
    <nd ref="9246192646"/>
    <nd ref="908258041"/>
    <nd ref="9246192645"/>
    <nd ref="9246192644"/>
    <nd ref="9246192643"/>
    <nd ref="9246192642"/>
    <nd ref="9246192641"/>
    <nd ref="6904922185"/>
    <nd ref="9246192640"/>
    <nd ref="9246192639"/>
    <nd ref="908258571"/>
    <nd ref="9246192636"/>
    <nd ref="9246192637"/>
    <nd ref="9246192638"/>
    <nd ref="908258127"/>
    <tag k="highway" v="residential"/>
    <tag k="name" v="West Avenue"/>
    <tag k="source" v="OS OpenData StreetView"/>
    <tag k="surface" v="asphalt"/>
  </way>
  <way id="77127065" version="4" timestamp="2021-11-16T11:09:31Z" changeset="113846625" uid="3316592" user="Arthtoach">
    <nd ref="908258003"/>
    <nd ref="908257661"/>
    <nd ref="9256215003"/>
    <nd ref="9256215002"/>
    <nd ref="9256215004"/>
    <nd ref="9256215001"/>
    <nd ref="9256215000"/>
    <nd ref="908258182"/>
    <tag k="highway" v="residential"/>
    <tag k="name" v="Byland Close"/>
    <tag k="source" v="OS OpenData StreetView"/>
    <tag k="surface" v="asphalt"/>
  </way>
  <way id="77127066" version="10" timestamp="2021-11-13T09:32:07Z" changeset="113723616" uid="3316592" user="Arthtoach">
    <nd ref="908258371"/>
    <nd ref="9063611932"/>
    <nd ref="908257939"/>
    <nd ref="4664212154"/>
    <nd ref="9063604657"/>
    <nd ref="9063604659"/>
    <nd ref="908258268"/>
    <nd ref="9063611812"/>
    <nd ref="908258293"/>
    <nd ref="9061972149"/>
    <nd ref="908257820"/>
    <nd ref="9061972148"/>
    <nd ref="9061972147"/>
    <nd ref="908257934"/>
    <nd ref="9247868257"/>
    <nd ref="9247868258"/>
    <nd ref="908257513"/>
    <tag k="highway" v="residential"/>
    <tag k="name" v="Holly Road"/>
    <tag k="source" v="OS OpenData StreetView"/>
    <tag k="surface" v="asphalt"/>
  </way>
  <way id="81249297" version="20" timestamp="2024-06-17T20:17:36Z" changeset="152818627" uid="20112387" user="Anton Khorev (repair)">
    <nd ref="30804466"/>
    <nd ref="6885958947"/>
    <nd ref="345178237"/>
    <nd ref="9879528259"/>
    <nd ref="908257772"/>
    <nd ref="1911621605"/>
    <nd ref="9879528258"/>
    <nd ref="908257438"/>
    <nd ref="345178238"/>
    <nd ref="9253673897"/>
    <nd ref="9253673898"/>
    <nd ref="9253673896"/>
    <nd ref="908257335"/>
    <nd ref="9253673895"/>
    <nd ref="9247961657"/>
    <nd ref="1983515628"/>
    <nd ref="1876496854"/>
    <nd ref="345178240"/>
    <nd ref="9881539518"/>
    <nd ref="9881539519"/>
    <nd ref="345178241"/>
    <tag k="highway" v="tertiary"/>
    <tag k="lanes" v="2"/>
    <tag k="name" v="Church Street"/>
    <tag k="surface" v="asphalt"/>
  </way>
  <way id="95068585" version="3" timestamp="2022-09-27T20:46:13Z" changeset="126713634" uid="2014259" user="nickjohnston">
    <nd ref="1135207197"/>
    <nd ref="1135207184"/>
    <nd ref="1135207215"/>
    <nd ref="1135207205"/>
    <nd ref="1135207257"/>
    <nd ref="1135207232"/>
    <nd ref="1135207190"/>
    <nd ref="1135207176"/>
    <tag k="highway" v="residential"/>
    <tag k="name" v="Gas Works Lane"/>
    <tag k="surface" v="compacted"/>
  </way>
  <way id="119243574" version="12" timestamp="2023-03-22T19:18:26Z" changeset="133993093" uid="3316592" user="Arthtoach">
    <nd ref="29581584"/>
    <nd ref="10754132571"/>
    <nd ref="10751487986"/>
    <nd ref="2637618145"/>
    <nd ref="1340505379"/>
    <nd ref="1784752666"/>
    <nd ref="10751487985"/>
    <nd ref="7976302580"/>
    <nd ref="3230197789"/>
    <nd ref="10751487984"/>
    <nd ref="29581581"/>
    <nd ref="2528375188"/>
    <tag k="highway" v="primary"/>
    <tag k="lanes" v="2"/>
    <tag k="maxspeed" v="60 mph"/>
    <tag k="name" v="High Street"/>
    <tag k="ref" v="A659"/>
    <tag k="source" v="survey"/>
    <tag k="source:name" v="OS_OpenData_Locator"/>
    <tag k="surface" v="asphalt"/>
  </way>
  <way id="119243576" version="10" timestamp="2021-09-03T18:38:29Z" changeset="110691664" uid="3316592" user="Arthtoach">
    <nd ref="29581619"/>
    <nd ref="1877780872"/>
    <nd ref="9060735956"/>
    <nd ref="908258338"/>
    <nd ref="7888739185"/>
    <nd ref="7888739186"/>
    <nd ref="7888739187"/>
    <nd ref="29581618"/>
    <tag k="cycleway:both" v="no"/>
    <tag k="highway" v="primary"/>
    <tag k="maxspeed" v="30 mph"/>
    <tag k="name" v="High Street"/>
    <tag k="ref" v="A659"/>
    <tag k="source" v="survey"/>
    <tag k="surface" v="asphalt"/>
  </way>
  <way id="144024484" version="10" timestamp="2022-10-28T19:14:58Z" changeset="128188196" uid="13666626" user="RedAuburn">
    <nd ref="1576108694"/>
    <nd ref="1560071"/>
    <tag k="bridge" v="yes"/>
    <tag k="carriageway_ref" v="A"/>
    <tag k="highway" v="motorway"/>
    <tag k="int_ref" v="E 15"/>
    <tag k="lanes" v="3"/>
    <tag k="layer" v="1"/>
    <tag k="lit" v="no"/>
    <tag k="maxspeed" v="70 mph"/>
    <tag k="maxspeed:type" v="GB:motorway"/>
    <tag k="national_highways:area" v="DBFO33"/>
    <tag k="oneway" v="yes"/>
    <tag k="operator" v="National Highways"/>
    <tag k="operator:wikidata" v="Q5760006"/>
    <tag k="ref" v="A1(M)"/>
    <tag k="shoulder" v="left"/>
    <tag k="surface" v="asphalt"/>
  </way>
  <way id="144024486" version="10" timestamp="2022-10-28T19:14:58Z" changeset="128188196" uid="13666626" user="RedAuburn">
    <nd ref="1576108740"/>
    <nd ref="1576108741"/>
    <tag k="carriageway_ref" v="B"/>
    <tag k="embankment" v="yes"/>
    <tag k="highway" v="motorway"/>
    <tag k="int_ref" v="E 15"/>
    <tag k="lanes" v="3"/>
    <tag k="layer" v="1"/>
    <tag k="lit" v="no"/>
    <tag k="maxspeed" v="70 mph"/>
    <tag k="maxspeed:type" v="GB:motorway"/>
    <tag k="national_highways:area" v="DBFO33"/>
    <tag k="oneway" v="yes"/>
    <tag k="operator" v="National Highways"/>
    <tag k="operator:wikidata" v="Q5760006"/>
    <tag k="ref" v="A1(M)"/>
    <tag k="shoulder" v="left"/>
    <tag k="surface" v="asphalt"/>
  </way>
  <way id="144573593" version="13" timestamp="2024-09-05T11:16:07Z" changeset="156225847" uid="6397757" user="TomJeffs">
    <nd ref="1560077"/>
    <nd ref="1581182874"/>
    <nd ref="1581182969"/>
    <nd ref="9727645369"/>
    <nd ref="1581183002"/>
    <nd ref="1581182936"/>
    <tag k="destination" v="Wetherby;Otley"/>
    <tag k="destination:ref" v="A659"/>
    <tag k="highway" v="motorway_link"/>
    <tag k="maxspeed" v="70 mph"/>
    <tag k="maxspeed:type" v="GB:motorway"/>
    <tag k="national_highways:area" v="DBFO33"/>
    <tag k="oneway" v="yes"/>
    <tag k="operator" v="National Highways"/>
    <tag k="operator:wikidata" v="Q5760006"/>
    <tag k="shoulder" v="no"/>
    <tag k="source" v="Bing"/>
    <tag k="surface" v="asphalt"/>
  </way>
  <way id="144573597" version="6" timestamp="2024-10-07T10:15:57Z" changeset="157574856" uid="111135" user="Pete Owens">
    <nd ref="1581182906"/>
    <nd ref="1581182959"/>
    <nd ref="8818783456"/>
    <nd ref="1581182881"/>
    <nd ref="472344011"/>
    <tag k="highway" v="primary"/>
    <tag k="maxspeed" v="40 mph"/>
    <tag k="oneway" v="yes"/>
    <tag k="ref" v="A659"/>
    <tag k="source" v="survey"/>
    <tag k="surface" v="asphalt"/>
  </way>
  <way id="144573601" version="10" timestamp="2023-04-11T08:48:14Z" changeset="134763451" uid="3244052" user="MapperTwo">
    <nd ref="1581182876"/>
    <nd ref="1581183006"/>
    <nd ref="4878690372"/>
    <nd ref="4878690373"/>
    <nd ref="1581182906"/>
    <nd ref="1581183031"/>
    <nd ref="4878690374"/>
    <nd ref="4878690375"/>
    <nd ref="1581183030"/>
    <nd ref="4878690376"/>
    <nd ref="1581183038"/>
    <nd ref="4878690377"/>
    <nd ref="1581182930"/>
    <nd ref="4878690378"/>
    <nd ref="1581182877"/>
    <nd ref="4878690379"/>
    <nd ref="9233997237"/>
    <nd ref="687485001"/>
    <nd ref="9233997236"/>
    <nd ref="4878690384"/>
    <nd ref="4878690383"/>
    <nd ref="1581183034"/>
    <nd ref="4878690382"/>
    <nd ref="1581183027"/>
    <nd ref="4878690381"/>
    <nd ref="1581182968"/>
    <nd ref="4878690380"/>
    <nd ref="29581623"/>
    <nd ref="2528375182"/>
    <nd ref="4878690390"/>
    <nd ref="4878690389"/>
    <nd ref="1581182921"/>
    <nd ref="1581182854"/>
    <nd ref="4878690388"/>
    <nd ref="1581182923"/>
    <nd ref="4878690387"/>
    <nd ref="1581182964"/>
    <nd ref="4878690386"/>
    <nd ref="4878690385"/>
    <nd ref="1581183044"/>
    <nd ref="7692351048"/>
    <nd ref="1581182956"/>
    <nd ref="1581183009"/>
    <nd ref="4878690371"/>
    <nd ref="1581182876"/>
    <tag k="highway" v="primary"/>
    <tag k="junction" v="roundabout"/>
    <tag k="maxspeed" v="40 mph"/>
    <tag k="name" v="Grange Moor Roundabout"/>
    <tag k="oneway" v="yes"/>
    <tag k="ref" v="A659"/>
    <tag k="source" v="survey"/>
    <tag k="source:name" v="OS OpenData StreetView"/>
    <tag k="surface" v="asphalt"/>
  </way>
  <way id="144573603" version="7" timestamp="2021-09-03T18:38:29Z" changeset="110691664" uid="3316592" user="Arthtoach">
    <nd ref="29581619"/>
    <nd ref="1969729932"/>
    <tag k="cycleway:both" v="no"/>
    <tag k="highway" v="primary"/>
    <tag k="maxspeed" v="30 mph"/>
    <tag k="name" v="Moor End"/>
    <tag k="ref" v="A659"/>
    <tag k="source" v="survey"/>
    <tag k="surface" v="asphalt"/>
  </way>
  <way id="144573604" version="12" timestamp="2022-10-28T19:14:58Z" changeset="128188196" uid="13666626" user="RedAuburn">
    <nd ref="4878690366"/>
    <nd ref="1581182952"/>
    <nd ref="4878690334"/>
    <nd ref="1581182902"/>
    <nd ref="4878690335"/>
    <nd ref="1554569"/>
    <tag k="destination" v="The SOUTH"/>
    <tag k="destination:ref" v="A1(M)"/>
    <tag k="highway" v="motorway_link"/>
    <tag k="lanes" v="1"/>
    <tag k="maxspeed" v="70 mph"/>
    <tag k="maxspeed:type" v="GB:motorway"/>
    <tag k="national_highways:area" v="DBFO33"/>
    <tag k="oneway" v="yes"/>
    <tag k="operator" v="National Highways"/>
    <tag k="operator:wikidata" v="Q5760006"/>
    <tag k="shoulder" v="left"/>
    <tag k="source" v="Bing"/>
    <tag k="surface" v="asphalt"/>
  </way>
  <way id="144573605" version="6" timestamp="2024-10-07T10:15:57Z" changeset="157574856" uid="111135" user="Pete Owens">
    <nd ref="472344011"/>
    <nd ref="1581182919"/>
    <nd ref="8818783455"/>
    <nd ref="1581182893"/>
    <nd ref="1581183030"/>
    <tag k="highway" v="primary"/>
    <tag k="maxspeed" v="40 mph"/>
    <tag k="oneway" v="yes"/>
    <tag k="ref" v="A659"/>
    <tag k="source" v="survey"/>
    <tag k="surface" v="asphalt"/>
  </way>
  <way id="167063956" version="11" timestamp="2025-05-07T09:55:44Z" changeset="165930334" uid="22849301" user="MattyOh">
    <nd ref="685970607"/>
    <nd ref="1891418533"/>
    <nd ref="10557749927"/>
    <nd ref="908257637"/>
    <nd ref="3557381799"/>
    <nd ref="685970603"/>
    <nd ref="3557381805"/>
    <nd ref="29581599"/>
    <tag k="highway" v="tertiary"/>
    <tag k="lanes" v="2"/>
    <tag k="maxspeed" v="20 mph"/>
    <tag k="maxspeed:type" v="GB:zone20"/>
    <tag k="name" v="Bridge Road"/>
    <tag k="surface" v="asphalt"/>
  </way>
  <way id="177199472" version="4" timestamp="2022-07-11T17:39:25Z" changeset="123485488" uid="3316592" user="Arthtoach">
    <nd ref="1876496858"/>
    <nd ref="9881539429"/>
    <nd ref="1876496859"/>
    <nd ref="9395336283"/>
    <nd ref="1876496860"/>
    <nd ref="1876496862"/>
    <nd ref="1876496863"/>
    <tag k="highway" v="residential"/>
    <tag k="name" v="Holgate Lane"/>
    <tag k="source:name" v="OS_OpenData_Locator"/>
  </way>
  <way id="177285719" version="11" timestamp="2024-06-17T20:17:25Z" changeset="152818627" uid="20112387" user="Anton Khorev (repair)">
    <nd ref="5975789197"/>
    <nd ref="1877409014"/>
    <nd ref="9934307574"/>
    <nd ref="9934307573"/>
    <nd ref="1877409020"/>
    <nd ref="9934307572"/>
    <nd ref="9934307577"/>
    <nd ref="9934307512"/>
    <nd ref="9934307576"/>
    <nd ref="9934307575"/>
    <nd ref="1877409016"/>
    <nd ref="9934307513"/>
    <nd ref="9934307571"/>
    <nd ref="9934307570"/>
    <nd ref="1877409012"/>
    <nd ref="5975789200"/>
    <nd ref="5975789199"/>
    <nd ref="9611887020"/>
    <nd ref="5975789198"/>
    <nd ref="5975789197"/>
    <tag k="addr:city" v="Wetherby"/>
    <tag k="addr:housenumber" v="199"/>
    <tag k="addr:postcode" v="LS23 6AA"/>
    <tag k="addr:street" v="High Street"/>
    <tag k="addr:suburb" v="Boston Spa"/>
    <tag k="amenity" v="community_centre"/>
    <tag k="building" v="public"/>
    <tag k="community_centre" v="village_hall"/>
    <tag k="name" v="Boston Spa Village Hall"/>
  </way>
  <way id="177340308" version="11" timestamp="2024-06-17T20:17:28Z" changeset="152818627" uid="20112387" user="Anton Khorev (repair)">
    <nd ref="9934307426"/>
    <nd ref="9934307425"/>
    <nd ref="9934307424"/>
    <nd ref="9934307429"/>
    <nd ref="9934307427"/>
    <nd ref="9934307440"/>
    <nd ref="9934307439"/>
    <nd ref="1877888980"/>
    <nd ref="9934307423"/>
    <nd ref="1877888973"/>
    <nd ref="1877888977"/>
    <nd ref="9934307438"/>
    <nd ref="9934307432"/>
    <nd ref="9934307431"/>
    <nd ref="9934307434"/>
    <nd ref="9934307433"/>
    <nd ref="9934307435"/>
    <nd ref="9934307436"/>
    <nd ref="9934307437"/>
    <nd ref="9934307441"/>
    <nd ref="9934307430"/>
    <nd ref="9934307428"/>
    <nd ref="1877888988"/>
    <nd ref="9934307426"/>
    <tag k="addr:city" v="Wetherby"/>
    <tag k="addr:postcode" v="LS23 6AA"/>
    <tag k="addr:street" v="Spa Lane"/>
    <tag k="addr:suburb" v="Boston Spa"/>
    <tag k="amenity" v="place_of_worship"/>
    <tag k="building" v="church"/>
    <tag k="denomination" v="methodist"/>
    <tag k="fhrs:id" v="555777"/>
    <tag k="name" v="Boston Spa Methodist Church"/>
    <tag k="religion" v="christian"/>
    <tag k="wikidata" v="Q26428452"/>
  </way>
  <way id="178497115" version="10" timestamp="2024-06-17T20:17:36Z" changeset="152818627" uid="20112387" user="Anton Khorev (repair)">
    <nd ref="1888457190"/>
    <nd ref="1888457195"/>
    <nd ref="1888457194"/>
    <nd ref="1888457197"/>
    <nd ref="1888457193"/>
    <nd ref="9934295103"/>
    <nd ref="1888457192"/>
    <nd ref="9934295104"/>
    <nd ref="1888457190"/>
    <tag k="addr:city" v="Wetherby"/>
    <tag k="addr:housenumber" v="205"/>
    <tag k="addr:postcode" v="LS23 6PY"/>
    <tag k="addr:street" v="High Street"/>
    <tag k="addr:suburb" v="Boston Spa"/>
    <tag k="amenity" v="doctors"/>
    <tag k="building" v="yes"/>
    <tag k="healthcare" v="doctor"/>
    <tag k="name" v="Spa Surgery"/>
  </way>
  <way id="178780331" version="10" timestamp="2024-06-17T20:17:32Z" changeset="152818627" uid="20112387" user="Anton Khorev (repair)">
    <nd ref="30814225"/>
    <nd ref="1891417783"/>
    <nd ref="1891417776"/>
    <nd ref="1891417771"/>
    <nd ref="3557381794"/>
    <nd ref="30814225"/>
    <tag k="addr:city" v="Wetherby"/>
    <tag k="addr:postcode" v="LS23 6BH"/>
    <tag k="addr:street" v="High Street"/>
    <tag k="addr:suburb" v="Boston Spa"/>
    <tag k="amenity" v="library"/>
    <tag k="building" v="public"/>
    <tag k="internet_access" v="wlan"/>
    <tag k="internet_access:fee" v="no"/>
    <tag k="name" v="Boston Spa Library"/>
    <tag k="phone" v="+44 1937 845239"/>
    <tag k="wheelchair" v="yes"/>
    <tag k="wikidata" v="Q42892164"/>
  </way>
  <way id="178780462" version="3" timestamp="2023-07-09T14:24:48Z" changeset="138298718" uid="3235126" user="mot_tom">
    <nd ref="685970604"/>
    <nd ref="1891418528"/>
    <nd ref="1891418530"/>
    <nd ref="1891418532"/>
    <nd ref="1891418533"/>
    <tag k="access" v="private"/>
    <tag k="highway" v="residential"/>
    <tag k="name" v="Pine Tree Avenue"/>
    <tag k="source:name" v="OS_OpenData_Locator"/>
  </way>
  <way id="181588952" version="4" timestamp="2022-08-05T18:33:06Z" changeset="124535521" uid="3316592" user="Arthtoach">
    <nd ref="1920011865"/>
    <nd ref="1920011863"/>
    <nd ref="9934307599"/>
    <nd ref="1920011854"/>
    <nd ref="9934307578"/>
    <nd ref="1920011857"/>
    <nd ref="1920011860"/>
    <nd ref="1920011861"/>
    <nd ref="1920011864"/>
    <nd ref="1920011862"/>
    <nd ref="1920011865"/>
    <tag k="addr:housenumber" v="197"/>
    <tag k="addr:street" v="High Street"/>
    <tag k="building" v="house"/>
  </way>
  <way id="181782894" version="3" timestamp="2022-07-10T19:22:08Z" changeset="123444467" uid="3316592" user="Arthtoach">
    <nd ref="1922044748"/>
    <nd ref="1922044737"/>
    <nd ref="1922044738"/>
    <nd ref="1922044750"/>
    <nd ref="1922044748"/>
    <tag k="addr:housenumber" v="14"/>
    <tag k="addr:street" v="Beeches End"/>
    <tag k="building" v="house"/>
    <tag k="source" v="bing"/>
  </way>
  <way id="181782895" version="3" timestamp="2012-09-22T14:39:42Z" changeset="13208031" uid="163608" user="Madwort">
    <nd ref="1922044697"/>
    <nd ref="1922044674"/>
    <nd ref="1922044672"/>
    <nd ref="1922044694"/>
    <nd ref="1922044697"/>
    <tag k="addr:housenumber" v="11"/>
    <tag k="addr:street" v="Pine Tree Avenue"/>
    <tag k="building" v="house"/>
    <tag k="source" v="bing"/>
  </way>
  <way id="181782898" version="3" timestamp="2012-09-22T14:39:42Z" changeset="13208031" uid="163608" user="Madwort">
    <nd ref="1922044768"/>
    <nd ref="1922044769"/>
    <nd ref="1922044764"/>
    <nd ref="1922044763"/>
    <nd ref="1922044768"/>
    <tag k="addr:housenumber" v="12"/>
    <tag k="addr:street" v="Beeches End"/>
    <tag k="building" v="house"/>
    <tag k="source" v="bing"/>
  </way>
  <way id="181782903" version="3" timestamp="2023-08-15T19:18:03Z" changeset="139931063" uid="1802093" user="Paul Berry">
    <nd ref="1922044707"/>
    <nd ref="1922044708"/>
    <nd ref="1922044695"/>
    <nd ref="1922044690"/>
    <nd ref="1922044707"/>
    <tag k="addr:city" v="Wetherby"/>
    <tag k="addr:housenumber" v="5"/>
    <tag k="addr:postcode" v="LS23 6JG"/>
    <tag k="addr:street" v="Chestnut End"/>
    <tag k="addr:suburb" v="Boston Spa"/>
    <tag k="building" v="house"/>
    <tag k="source" v="bing"/>
  </way>
  <way id="181782904" version="3" timestamp="2012-09-22T14:39:46Z" changeset="13208031" uid="163608" user="Madwort">
    <nd ref="1922044740"/>
    <nd ref="1922044727"/>
    <nd ref="1922044728"/>
    <nd ref="1922044741"/>
    <nd ref="1922044740"/>
    <tag k="addr:housenumber" v="5"/>
    <tag k="addr:street" v="Pine Tree Avenue"/>
    <tag k="building" v="house"/>
    <tag k="source" v="bing"/>
  </way>
  <way id="181782906" version="3" timestamp="2012-09-22T14:39:42Z" changeset="13208031" uid="163608" user="Madwort">
    <nd ref="1922044715"/>
    <nd ref="1922044700"/>
    <nd ref="1922044703"/>
    <nd ref="1922044716"/>
    <nd ref="1922044715"/>
    <tag k="addr:housenumber" v="10"/>
    <tag k="addr:street" v="Pine Tree Avenue"/>
    <tag k="building" v="house"/>
    <tag k="source" v="bing"/>
  </way>
  <way id="181782908" version="3" timestamp="2012-09-22T14:39:47Z" changeset="13208031" uid="163608" user="Madwort">
    <nd ref="1922044724"/>
    <nd ref="1922044718"/>
    <nd ref="1922044720"/>
    <nd ref="1922044726"/>
    <nd ref="1922044724"/>
    <tag k="addr:housenumber" v="8"/>
    <tag k="addr:street" v="Pine Tree Avenue"/>
    <tag k="building" v="house"/>
    <tag k="source" v="bing"/>
  </way>
  <way id="181782909" version="3" timestamp="2012-09-22T14:39:48Z" changeset="13208031" uid="163608" user="Madwort">
    <nd ref="1922044701"/>
    <nd ref="1922044704"/>
    <nd ref="1922044680"/>
    <nd ref="1922044678"/>
    <nd ref="1922044701"/>
    <tag k="addr:housenumber" v="9"/>
    <tag k="addr:street" v="Pine Tree Avenue"/>
    <tag k="building" v="house"/>
    <tag k="source" v="bing"/>
  </way>
  <way id="181782911" version="3" timestamp="2012-09-22T14:39:41Z" changeset="13208031" uid="163608" user="Madwort">
    <nd ref="1922044769"/>
    <nd ref="1922044770"/>
    <nd ref="1922044765"/>
    <nd ref="1922044764"/>
    <nd ref="1922044769"/>
    <tag k="addr:housenumber" v="10"/>
    <tag k="addr:street" v="Beeches End"/>
    <tag k="building" v="house"/>
    <tag k="source" v="bing"/>
  </way>
  <way id="181782912" version="3" timestamp="2012-09-22T14:39:43Z" changeset="13208031" uid="163608" user="Madwort">
    <nd ref="1922044767"/>
    <nd ref="1922044760"/>
    <nd ref="1922044759"/>
    <nd ref="1922044766"/>
    <nd ref="1922044767"/>
    <tag k="addr:housenumber" v="18"/>
    <tag k="addr:street" v="Beeches End"/>
    <tag k="building" v="house"/>
    <tag k="source" v="bing"/>
  </way>
  <way id="181782914" version="4" timestamp="2022-07-10T19:22:08Z" changeset="123444467" uid="3316592" user="Arthtoach">
    <nd ref="1922044631"/>
    <nd ref="1922044651"/>
    <nd ref="1922060904"/>
    <nd ref="1922044655"/>
    <nd ref="1922044635"/>
    <nd ref="1922060898"/>
    <nd ref="1922044631"/>
    <tag k="addr:housenumber" v="68"/>
    <tag k="addr:street" v="Grove Road"/>
    <tag k="building" v="house"/>
    <tag k="source" v="bing"/>
  </way>
  <way id="181782916" version="4" timestamp="2012-09-22T14:39:45Z" changeset="13208031" uid="163608" user="Madwort">
    <nd ref="1922044747"/>
    <nd ref="1922044734"/>
    <nd ref="1922044733"/>
    <nd ref="1924118503"/>
    <nd ref="1922044746"/>
    <nd ref="1922044747"/>
    <tag k="addr:housenumber" v="3"/>
    <tag k="addr:street" v="Pine Tree Avenue"/>
    <tag k="building" v="house"/>
    <tag k="source" v="bing"/>
  </way>
  <way id="181782918" version="3" timestamp="2022-07-10T19:22:08Z" changeset="123444467" uid="3316592" user="Arthtoach">
    <nd ref="1922044618"/>
    <nd ref="1922044629"/>
    <nd ref="1922044602"/>
    <nd ref="1922044598"/>
    <nd ref="1922044618"/>
    <tag k="addr:housenumber" v="72"/>
    <tag k="addr:street" v="Grove Road"/>
    <tag k="building" v="house"/>
    <tag k="source" v="bing"/>
  </way>
  <way id="181782920" version="4" timestamp="2023-08-15T19:18:03Z" changeset="139931063" uid="1802093" user="Paul Berry">
    <nd ref="1922044656"/>
    <nd ref="1922044658"/>
    <nd ref="1922060906"/>
    <nd ref="1922044643"/>
    <nd ref="1922044637"/>
    <nd ref="1922044656"/>
    <tag k="addr:city" v="Wetherby"/>
    <tag k="addr:housenumber" v="1"/>
    <tag k="addr:postcode" v="LS23 6JG"/>
    <tag k="addr:street" v="Chestnut End"/>
    <tag k="addr:suburb" v="Boston Spa"/>
    <tag k="building" v="house"/>
    <tag k="source" v="bing"/>
  </way>
  <way id="181782921" version="3" timestamp="2012-09-22T14:39:45Z" changeset="13208031" uid="163608" user="Madwort">
    <nd ref="1922044608"/>
    <nd ref="1922044592"/>
    <nd ref="1922044590"/>
    <nd ref="1922044600"/>
    <nd ref="1922044608"/>
    <tag k="addr:housenumber" v="31"/>
    <tag k="addr:street" v="Clifford Moor Road"/>
    <tag k="building" v="house"/>
    <tag k="source" v="bing"/>
  </way>
  <way id="181782922" version="4" timestamp="2023-08-15T19:18:03Z" changeset="139931063" uid="1802093" user="Paul Berry">
    <nd ref="1922044723"/>
    <nd ref="1922044717"/>
    <nd ref="1922044719"/>
    <nd ref="1922044725"/>
    <nd ref="1922060948"/>
    <nd ref="1922044723"/>
    <tag k="addr:city" v="Wetherby"/>
    <tag k="addr:housenumber" v="4"/>
    <tag k="addr:postcode" v="LS23 6JG"/>
    <tag k="addr:street" v="Chestnut End"/>
    <tag k="addr:suburb" v="Boston Spa"/>
    <tag k="building" v="house"/>
    <tag k="source" v="bing"/>
  </way>
  <way id="181782923" version="3" timestamp="2012-09-22T14:39:45Z" changeset="13208031" uid="163608" user="Madwort">
    <nd ref="1922044625"/>
    <nd ref="1922044647"/>
    <nd ref="1922044642"/>
    <nd ref="1922044620"/>
    <nd ref="1922044625"/>
    <tag k="addr:housenumber" v="29"/>
    <tag k="addr:street" v="Clifford Moor Road"/>
    <tag k="building" v="house"/>
    <tag k="source" v="bing"/>
  </way>
  <way id="181782925" version="4" timestamp="2012-09-22T14:39:41Z" changeset="13208031" uid="163608" user="Madwort">
    <nd ref="1922044762"/>
    <nd ref="1922044761"/>
    <nd ref="1922044757"/>
    <nd ref="1922044758"/>
    <nd ref="1924118536"/>
    <nd ref="1922044762"/>
    <tag k="addr:housenumber" v="1"/>
    <tag k="addr:street" v="Pine Tree Avenue"/>
    <tag k="building" v="house"/>
    <tag k="source" v="bing"/>
  </way>
  <way id="181782926" version="3" timestamp="2023-08-15T19:18:03Z" changeset="139931063" uid="1802093" user="Paul Berry">
    <nd ref="1922044756"/>
    <nd ref="1922044744"/>
    <nd ref="1922044743"/>
    <nd ref="1922044755"/>
    <nd ref="1922044756"/>
    <tag k="addr:city" v="Wetherby"/>
    <tag k="addr:housenumber" v="6"/>
    <tag k="addr:postcode" v="LS23 6JG"/>
    <tag k="addr:street" v="Chestnut End"/>
    <tag k="addr:suburb" v="Boston Spa"/>
    <tag k="building" v="house"/>
    <tag k="source" v="bing"/>
  </way>
  <way id="181782931" version="3" timestamp="2012-09-22T14:39:47Z" changeset="13208031" uid="163608" user="Madwort">
    <nd ref="1922044730"/>
    <nd ref="1922044722"/>
    <nd ref="1922044721"/>
    <nd ref="1922044729"/>
    <nd ref="1922044730"/>
    <tag k="addr:housenumber" v="7"/>
    <tag k="addr:street" v="Pine Tree Avenue"/>
    <tag k="building" v="house"/>
    <tag k="source" v="bing"/>
  </way>
  <way id="181782932" version="3" timestamp="2023-08-15T19:18:03Z" changeset="139931063" uid="1802093" user="Paul Berry">
    <nd ref="1922044709"/>
    <nd ref="1922044691"/>
    <nd ref="1922044693"/>
    <nd ref="1922044685"/>
    <nd ref="1922044689"/>
    <nd ref="1922044712"/>
    <nd ref="1922044709"/>
    <tag k="addr:city" v="Wetherby"/>
    <tag k="addr:housenumber" v="2"/>
    <tag k="addr:postcode" v="LS23 6JG"/>
    <tag k="addr:street" v="Chestnut End"/>
    <tag k="addr:suburb" v="Boston Spa"/>
    <tag k="building" v="house"/>
    <tag k="source" v="bing"/>
  </way>
  <way id="181782933" version="3" timestamp="2023-08-15T19:18:03Z" changeset="139931063" uid="1802093" user="Paul Berry">
    <nd ref="1922044690"/>
    <nd ref="1922044687"/>
    <nd ref="1922044684"/>
    <nd ref="1922044682"/>
    <nd ref="1922044705"/>
    <nd ref="1922044707"/>
    <nd ref="1922044690"/>
    <tag k="addr:city" v="Wetherby"/>
    <tag k="addr:housenumber" v="7"/>
    <tag k="addr:postcode" v="LS23 6JG"/>
    <tag k="addr:street" v="Chestnut End"/>
    <tag k="addr:suburb" v="Boston Spa"/>
    <tag k="building" v="house"/>
    <tag k="source" v="bing"/>
  </way>
  <way id="181782934" version="3" timestamp="2023-08-15T19:18:03Z" changeset="139931063" uid="1802093" user="Paul Berry">
    <nd ref="1922044751"/>
    <nd ref="1922044749"/>
    <nd ref="1922044731"/>
    <nd ref="1922044732"/>
    <nd ref="1922044735"/>
    <nd ref="1922044736"/>
    <nd ref="1922044751"/>
    <tag k="addr:city" v="Wetherby"/>
    <tag k="addr:housenumber" v="8"/>
    <tag k="addr:postcode" v="LS23 6JG"/>
    <tag k="addr:street" v="Chestnut End"/>
    <tag k="addr:suburb" v="Boston Spa"/>
    <tag k="building" v="house"/>
    <tag k="source" v="bing"/>
  </way>
  <way id="181782935" version="3" timestamp="2022-07-10T19:22:08Z" changeset="123444467" uid="3316592" user="Arthtoach">
    <nd ref="1922044649"/>
    <nd ref="1922044610"/>
    <nd ref="1922044612"/>
    <nd ref="1922044627"/>
    <nd ref="1922044633"/>
    <nd ref="1922044645"/>
    <nd ref="1922044639"/>
    <nd ref="1922044653"/>
    <nd ref="1922044649"/>
    <tag k="addr:housenumber" v="70"/>
    <tag k="addr:street" v="Grove Road"/>
    <tag k="building" v="house"/>
    <tag k="source" v="bing"/>
  </way>
  <way id="181782936" version="3" timestamp="2022-07-10T19:22:08Z" changeset="123444467" uid="3316592" user="Arthtoach">
    <nd ref="1922044623"/>
    <nd ref="1922044621"/>
    <nd ref="1922044596"/>
    <nd ref="1922044594"/>
    <nd ref="1922044604"/>
    <nd ref="1922044606"/>
    <nd ref="1922044616"/>
    <nd ref="1922044614"/>
    <nd ref="1922044623"/>
    <tag k="addr:housenumber" v="74"/>
    <tag k="addr:street" v="Grove Road"/>
    <tag k="building" v="house"/>
    <tag k="source" v="bing"/>
  </way>
  <way id="181782940" version="3" timestamp="2023-08-15T19:18:03Z" changeset="139931063" uid="1802093" user="Paul Berry">
    <nd ref="1922044699"/>
    <nd ref="1922044713"/>
    <nd ref="1922044710"/>
    <nd ref="1922044692"/>
    <nd ref="1922044696"/>
    <nd ref="1922044686"/>
    <nd ref="1922044688"/>
    <nd ref="1922044698"/>
    <nd ref="1922044699"/>
    <tag k="addr:city" v="Wetherby"/>
    <tag k="addr:housenumber" v="3"/>
    <tag k="addr:postcode" v="LS23 6JG"/>
    <tag k="addr:street" v="Chestnut End"/>
    <tag k="addr:suburb" v="Boston Spa"/>
    <tag k="building" v="house"/>
    <tag k="source" v="bing"/>
  </way>
  <way id="181791529" version="3" timestamp="2022-07-10T19:22:08Z" changeset="123444467" uid="3316592" user="Arthtoach">
    <nd ref="1922044750"/>
    <nd ref="1922060963"/>
    <nd ref="1922060958"/>
    <nd ref="1922044738"/>
    <nd ref="1922044750"/>
    <tag k="addr:housenumber" v="16"/>
    <tag k="addr:street" v="Beeches End"/>
    <tag k="building" v="house"/>
  </way>
  <way id="182046128" version="3" timestamp="2012-09-22T14:39:43Z" changeset="13208031" uid="163608" user="Madwort">
    <nd ref="1923898937"/>
    <nd ref="1923898942"/>
    <nd ref="1923898931"/>
    <nd ref="1923898932"/>
    <nd ref="1923898926"/>
    <nd ref="1923898924"/>
    <nd ref="1923898928"/>
    <nd ref="1923898927"/>
    <nd ref="1923898930"/>
    <nd ref="1923898929"/>
    <nd ref="1923898937"/>
    <tag k="addr:housenumber" v="20"/>
    <tag k="addr:street" v="Beeches End"/>
    <tag k="building" v="house"/>
  </way>
  <way id="182072179" version="3" timestamp="2012-09-22T14:39:42Z" changeset="13208031" uid="163608" user="Madwort">
    <nd ref="1924118682"/>
    <nd ref="1924118658"/>
    <nd ref="1924118656"/>
    <nd ref="1924118680"/>
    <nd ref="1924118682"/>
    <tag k="addr:housenumber" v="11"/>
    <tag k="addr:street" v="Beeches End"/>
    <tag k="building" v="house"/>
  </way>
  <way id="182072180" version="3" timestamp="2012-09-22T14:39:42Z" changeset="13208031" uid="163608" user="Madwort">
    <nd ref="1924118701"/>
    <nd ref="1924118665"/>
    <nd ref="1924118663"/>
    <nd ref="1924118696"/>
    <nd ref="1924118701"/>
    <tag k="addr:housenumber" v="13"/>
    <tag k="addr:street" v="Beeches End"/>
    <tag k="building" v="house"/>
  </way>
  <way id="182072184" version="3" timestamp="2012-09-22T14:39:44Z" changeset="13208031" uid="163608" user="Madwort">
    <nd ref="1924118620"/>
    <nd ref="1924118594"/>
    <nd ref="1924118588"/>
    <nd ref="1924118614"/>
    <nd ref="1924118620"/>
    <tag k="addr:housenumber" v="23"/>
    <tag k="addr:street" v="Beeches End"/>
    <tag k="building" v="house"/>
  </way>
  <way id="182072187" version="3" timestamp="2012-09-22T14:39:47Z" changeset="13208031" uid="163608" user="Madwort">
    <nd ref="1924118726"/>
    <nd ref="1924118671"/>
    <nd ref="1924118667"/>
    <nd ref="1924118723"/>
    <nd ref="1924118726"/>
    <tag k="addr:housenumber" v="9"/>
    <tag k="addr:street" v="Beeches End"/>
    <tag k="building" v="house"/>
  </way>
  <way id="182072188" version="3" timestamp="2012-09-22T14:39:44Z" changeset="13208031" uid="163608" user="Madwort">
    <nd ref="1924118659"/>
    <nd ref="1924118675"/>
    <nd ref="1924118694"/>
    <nd ref="1924118661"/>
    <nd ref="1924118659"/>
    <tag k="addr:housenumber" v="21"/>
    <tag k="addr:street" v="Beeches End"/>
    <tag k="building" v="house"/>
  </way>
  <way id="182072190" version="3" timestamp="2012-09-22T14:39:42Z" changeset="13208031" uid="163608" user="Madwort">
    <nd ref="1924118673"/>
    <nd ref="1924118641"/>
    <nd ref="1924118637"/>
    <nd ref="1924118652"/>
    <nd ref="1924118669"/>
    <nd ref="1924118673"/>
    <tag k="addr:housenumber" v="17"/>
    <tag k="addr:street" v="Beeches End"/>
    <tag k="building" v="house"/>
  </way>
  <way id="182072191" version="3" timestamp="2012-09-22T14:39:47Z" changeset="13208031" uid="163608" user="Madwort">
    <nd ref="1924118580"/>
    <nd ref="1924118569"/>
    <nd ref="1924118556"/>
    <nd ref="1924118540"/>
    <nd ref="1924118565"/>
    <nd ref="1924118574"/>
    <nd ref="1924118580"/>
    <tag k="addr:housenumber" v="8"/>
    <tag k="addr:street" v="Beeches End"/>
    <tag k="building" v="house"/>
  </way>
  <way id="182179874" version="3" timestamp="2012-09-22T14:39:44Z" changeset="13208031" uid="163608" user="Madwort">
    <nd ref="1925246294"/>
    <nd ref="1925246289"/>
    <nd ref="1925246287"/>
    <nd ref="1925246293"/>
    <nd ref="1925246294"/>
    <tag k="addr:housenumber" v="25"/>
    <tag k="addr:street" v="Clifford Moor Road"/>
    <tag k="building" v="house"/>
  </way>
  <way id="182179877" version="4" timestamp="2012-09-22T14:39:43Z" changeset="13208031" uid="163608" user="Madwort">
    <nd ref="1925246515"/>
    <nd ref="1925246498"/>
    <nd ref="1925246496"/>
    <nd ref="1925246508"/>
    <nd ref="1925256622"/>
    <nd ref="1925246515"/>
    <tag k="addr:housenumber" v="2"/>
    <tag k="addr:street" v="Beeches End"/>
    <tag k="building" v="house"/>
  </way>
  <way id="182179878" version="4" timestamp="2012-09-22T14:39:48Z" changeset="13208031" uid="163608" user="Madwort">
    <nd ref="1925246427"/>
    <nd ref="1925246423"/>
    <nd ref="1925246421"/>
    <nd ref="1925246426"/>
    <nd ref="1925246427"/>
    <tag k="addr:housenumber" v="2"/>
    <tag k="addr:street" v="Pine Tree Avenue"/>
    <tag k="building" v="house"/>
    <tag k="name" v="Pine Tree Cottage"/>
  </way>
  <way id="182179879" version="4" timestamp="2012-09-22T14:39:42Z" changeset="13208031" uid="163608" user="Madwort">
    <nd ref="1925246432"/>
    <nd ref="1925256594"/>
    <nd ref="1925246425"/>
    <nd ref="1925246424"/>
    <nd ref="1925246430"/>
    <nd ref="1925246432"/>
    <tag k="addr:housenumber" v="17"/>
    <tag k="addr:street" v="Clifford Moor Road"/>
    <tag k="building" v="house"/>
  </way>
  <way id="182179880" version="3" timestamp="2012-09-22T14:39:46Z" changeset="13208031" uid="163608" user="Madwort">
    <nd ref="1925246536"/>
    <nd ref="1925246538"/>
    <nd ref="1925246526"/>
    <nd ref="1925246523"/>
    <nd ref="1925246536"/>
    <tag k="addr:housenumber" v="5"/>
    <tag k="addr:street" v="Beeches End"/>
    <tag k="building" v="house"/>
  </way>
  <way id="182179881" version="3" timestamp="2012-09-22T14:39:46Z" changeset="13208031" uid="163608" user="Madwort">
    <nd ref="1925246419"/>
    <nd ref="1925246368"/>
    <nd ref="1925246364"/>
    <nd ref="1925246417"/>
    <nd ref="1925246419"/>
    <tag k="addr:housenumber" v="4"/>
    <tag k="addr:street" v="Pine Tree Avenue"/>
    <tag k="building" v="house"/>
  </way>
  <way id="182179882" version="3" timestamp="2012-09-22T14:39:46Z" changeset="13208031" uid="163608" user="Madwort">
    <nd ref="1925246368"/>
    <nd ref="1925246347"/>
    <nd ref="1925246346"/>
    <nd ref="1925246364"/>
    <nd ref="1925246368"/>
    <tag k="addr:housenumber" v="6"/>
    <tag k="addr:street" v="Pine Tree Avenue"/>
    <tag k="building" v="house"/>
  </way>
  <way id="182179883" version="3" timestamp="2012-09-22T14:39:44Z" changeset="13208031" uid="163608" user="Madwort">
    <nd ref="1925246328"/>
    <nd ref="1925246300"/>
    <nd ref="1925246297"/>
    <nd ref="1925246305"/>
    <nd ref="1925246328"/>
    <tag k="addr:housenumber" v="23"/>
    <tag k="addr:street" v="Clifford Moor Road"/>
    <tag k="building" v="house"/>
  </way>
  <way id="182179886" version="4" timestamp="2012-09-22T14:39:45Z" changeset="13208031" uid="163608" user="Madwort">
    <nd ref="1925246504"/>
    <nd ref="1925246491"/>
    <nd ref="1925246452"/>
    <nd ref="1925246502"/>
    <nd ref="1925256621"/>
    <nd ref="1925246504"/>
    <tag k="addr:housenumber" v="4"/>
    <tag k="addr:street" v="Beeches End"/>
    <tag k="building" v="house"/>
  </way>
  <way id="182179887" version="4" timestamp="2012-09-22T14:39:44Z" changeset="13208031" uid="163608" user="Madwort">
    <nd ref="1925246350"/>
    <nd ref="1925256553"/>
    <nd ref="1925246345"/>
    <nd ref="1925246344"/>
    <nd ref="1925246348"/>
    <nd ref="1925246350"/>
    <tag k="addr:housenumber" v="21"/>
    <tag k="addr:street" v="Clifford Moor Road"/>
    <tag k="building" v="house"/>
  </way>
  <way id="182179889" version="4" timestamp="2012-10-12T13:37:36Z" changeset="13467209" uid="163608" user="Madwort">
    <nd ref="1925246449"/>
    <nd ref="1925246438"/>
    <nd ref="1925246435"/>
    <nd ref="1925246445"/>
    <nd ref="1960629170"/>
    <nd ref="1925246449"/>
    <tag k="addr:housenumber" v="6"/>
    <tag k="addr:street" v="Beeches End"/>
    <tag k="building" v="house"/>
  </way>
  <way id="182179890" version="2" timestamp="2012-09-22T11:48:07Z" changeset="13206497" uid="163608" user="Madwort">
    <nd ref="1925246510"/>
    <nd ref="1925246494"/>
    <nd ref="1925246442"/>
    <nd ref="1925246500"/>
    <nd ref="1925246510"/>
    <tag k="addr:housenumber" v="15"/>
    <tag k="addr:street" v="Clifford Moor Road"/>
    <tag k="building" v="house"/>
  </way>
  <way id="182179891" version="3" timestamp="2012-09-22T14:39:43Z" changeset="13208031" uid="163608" user="Madwort">
    <nd ref="1925246411"/>
    <nd ref="1925246407"/>
    <nd ref="1925246371"/>
    <nd ref="1925246414"/>
    <nd ref="1925246411"/>
    <tag k="addr:housenumber" v="19"/>
    <tag k="addr:street" v="Clifford Moor Road"/>
    <tag k="building" v="house"/>
  </way>
  <way id="182179893" version="4" timestamp="2012-09-22T14:39:46Z" changeset="13208031" uid="163608" user="Madwort">
    <nd ref="1925246533"/>
    <nd ref="1925246520"/>
    <nd ref="1925246518"/>
    <nd ref="1925267149"/>
    <nd ref="1925246529"/>
    <nd ref="1925246533"/>
    <tag k="addr:housenumber" v="7"/>
    <tag k="addr:street" v="Beeches End"/>
    <tag k="building" v="house"/>
  </way>
  <way id="182179894" version="3" timestamp="2012-09-22T14:39:45Z" changeset="13208031" uid="163608" user="Madwort">
    <nd ref="1925246271"/>
    <nd ref="1925246262"/>
    <nd ref="1925246261"/>
    <nd ref="1925246269"/>
    <nd ref="1925246271"/>
    <tag k="addr:housenumber" v="27"/>
    <tag k="addr:street" v="Clifford Moor Road"/>
    <tag k="building" v="house"/>
  </way>
  <way id="182181369" version="3" timestamp="2012-09-22T14:39:43Z" changeset="13208031" uid="163608" user="Madwort">
    <nd ref="1925262279"/>
    <nd ref="1925262262"/>
    <nd ref="1925262246"/>
    <nd ref="1925262276"/>
    <nd ref="1925262279"/>
    <tag k="addr:housenumber" v="19"/>
    <tag k="addr:street" v="Beeches End"/>
    <tag k="building" v="house"/>
  </way>
  <way id="182370358" version="1" timestamp="2012-09-22T12:03:09Z" changeset="13206639" uid="163608" user="Madwort">
    <nd ref="1927149588"/>
    <nd ref="1927149576"/>
    <nd ref="1927149573"/>
    <nd ref="1927149586"/>
    <nd ref="1927149588"/>
    <tag k="building" v="apartments"/>
    <tag k="name" v="Asherton Grove"/>
  </way>
  <way id="182370360" version="2" timestamp="2012-09-22T14:39:41Z" changeset="13208031" uid="163608" user="Madwort">
    <nd ref="1927149577"/>
    <nd ref="1927149580"/>
    <nd ref="1927149581"/>
    <nd ref="1927149579"/>
    <nd ref="1927149577"/>
    <tag k="addr:street" v="Clifford Moor Road"/>
    <tag k="building" v="house"/>
    <tag k="name" v="Carmel"/>
  </way>
  <way id="182370362" version="2" timestamp="2012-09-22T14:39:41Z" changeset="13208031" uid="163608" user="Madwort">
    <nd ref="1927149584"/>
    <nd ref="1927149591"/>
    <nd ref="1927149594"/>
    <nd ref="1927149595"/>
    <nd ref="1927149596"/>
    <nd ref="1927149593"/>
    <nd ref="1927149592"/>
    <nd ref="1927149590"/>
    <nd ref="1927149589"/>
    <nd ref="1927149585"/>
    <nd ref="1927149584"/>
    <tag k="addr:street" v="Clifford Moor Road"/>
    <tag k="building" v="house"/>
    <tag k="name" v="Green Drift"/>
  </way>
  <way id="182370363" version="9" timestamp="2024-06-17T20:17:28Z" changeset="152818627" uid="20112387" user="Anton Khorev (repair)">
    <nd ref="10132283159"/>
    <nd ref="10132283161"/>
    <nd ref="9915296060"/>
    <nd ref="10132283158"/>
    <nd ref="10132283159"/>
    <tag k="addr:city" v="Wetherby"/>
    <tag k="addr:housenumber" v="168"/>
    <tag k="addr:postcode" v="LS23 6BW"/>
    <tag k="addr:street" v="High Street"/>
    <tag k="addr:suburb" v="Boston Spa"/>
    <tag k="amenity" v="fast_food"/>
    <tag k="building" v="retail"/>
    <tag k="cuisine" v="fish_and_chips"/>
    <tag k="fhrs:id" v="1070583"/>
    <tag k="name" v="Spa Fisheries"/>
  </way>
  <way id="182370365" version="3" timestamp="2022-10-27T10:19:04Z" changeset="128121989" uid="3316592" user="Arthtoach">
    <nd ref="1927149597"/>
    <nd ref="1927149598"/>
    <nd ref="1927149600"/>
    <nd ref="1927149599"/>
    <nd ref="1927149597"/>
    <tag k="addr:housenumber" v="192"/>
    <tag k="addr:street" v="High Street"/>
    <tag k="building" v="commercial"/>
  </way>
  <way id="182370367" version="3" timestamp="2022-10-27T10:19:04Z" changeset="128121989" uid="3316592" user="Arthtoach">
    <nd ref="1927149582"/>
    <nd ref="1927149580"/>
    <nd ref="1927149581"/>
    <nd ref="10132321578"/>
    <nd ref="10132321577"/>
    <nd ref="10132321576"/>
    <nd ref="1927149582"/>
    <tag k="addr:street" v="Clifford Moor Road"/>
    <tag k="building" v="house"/>
    <tag k="name" v="Oxford Lodge"/>
  </way>
  <way id="182370369" version="2" timestamp="2012-09-22T14:39:48Z" changeset="13208031" uid="163608" user="Madwort">
    <nd ref="1927149572"/>
    <nd ref="1927149570"/>
    <nd ref="1927149571"/>
    <nd ref="1927149578"/>
    <nd ref="1927149572"/>
    <tag k="addr:street" v="Clifford Moor Road"/>
    <tag k="building" v="house"/>
    <tag k="name" v="Oxford Villa"/>
  </way>
  <way id="182388155" version="2" timestamp="2012-09-22T14:39:41Z" changeset="13208031" uid="163608" user="Madwort">
    <nd ref="1927319768"/>
    <nd ref="1927319764"/>
    <nd ref="1927319763"/>
    <nd ref="1927319766"/>
    <nd ref="1927319768"/>
    <tag k="addr:housenumber" v="1"/>
    <tag k="addr:street" v="Beeches End"/>
    <tag k="building" v="house"/>
  </way>
  <way id="182388156" version="2" timestamp="2012-09-22T14:39:45Z" changeset="13208031" uid="163608" user="Madwort">
    <nd ref="1927319766"/>
    <nd ref="1927319765"/>
    <nd ref="1927319762"/>
    <nd ref="1927319763"/>
    <nd ref="1927319766"/>
    <tag k="addr:housenumber" v="3"/>
    <tag k="addr:street" v="Beeches End"/>
    <tag k="building" v="house"/>
  </way>
  <way id="182427733" version="3" timestamp="2022-07-10T19:22:08Z" changeset="123444467" uid="3316592" user="Arthtoach">
    <nd ref="1927767921"/>
    <nd ref="1927767915"/>
    <nd ref="1927767895"/>
    <nd ref="1927767900"/>
    <nd ref="1927767921"/>
    <tag k="addr:housenumber" v="3"/>
    <tag k="addr:street" v="Hall Close"/>
    <tag k="building" v="house"/>
  </way>
  <way id="182427736" version="3" timestamp="2022-07-10T19:22:08Z" changeset="123444467" uid="3316592" user="Arthtoach">
    <nd ref="1927767925"/>
    <nd ref="1927767904"/>
    <nd ref="1927767900"/>
    <nd ref="1927767921"/>
    <nd ref="1927767925"/>
    <tag k="addr:housenumber" v="1"/>
    <tag k="addr:street" v="Hall Close"/>
    <tag k="building" v="house"/>
  </way>
  <way id="182427737" version="3" timestamp="2022-07-10T19:22:08Z" changeset="123444467" uid="3316592" user="Arthtoach">
    <nd ref="1927767908"/>
    <nd ref="1927767906"/>
    <nd ref="1927767871"/>
    <nd ref="1927767876"/>
    <nd ref="1927767908"/>
    <tag k="addr:housenumber" v="7"/>
    <tag k="addr:street" v="Hall Close"/>
    <tag k="building" v="house"/>
  </way>
  <way id="182427738" version="3" timestamp="2022-07-10T19:22:08Z" changeset="123444467" uid="3316592" user="Arthtoach">
    <nd ref="1927767910"/>
    <nd ref="1927767893"/>
    <nd ref="1927767876"/>
    <nd ref="1927767908"/>
    <nd ref="1927767910"/>
    <tag k="addr:housenumber" v="5"/>
    <tag k="addr:street" v="Hall Close"/>
    <tag k="building" v="house"/>
  </way>
  <way id="182427742" version="3" timestamp="2022-07-10T19:22:08Z" changeset="123444467" uid="3316592" user="Arthtoach">
    <nd ref="1927767799"/>
    <nd ref="1927767802"/>
    <nd ref="1927767775"/>
    <nd ref="1927767765"/>
    <nd ref="1927767799"/>
    <tag k="addr:housenumber" v="6"/>
    <tag k="addr:street" v="Hall Close"/>
    <tag k="building" v="house"/>
  </way>
  <way id="182427743" version="3" timestamp="2022-07-10T19:22:08Z" changeset="123444467" uid="3316592" user="Arthtoach">
    <nd ref="1927767823"/>
    <nd ref="1927767826"/>
    <nd ref="1927767791"/>
    <nd ref="1927767787"/>
    <nd ref="1927767823"/>
    <tag k="addr:housenumber" v="2"/>
    <tag k="addr:street" v="Hall Close"/>
    <tag k="building" v="house"/>
  </way>
  <way id="182427744" version="3" timestamp="2022-07-10T19:22:08Z" changeset="123444467" uid="3316592" user="Arthtoach">
    <nd ref="1927767799"/>
    <nd ref="1927767765"/>
    <nd ref="1927767756"/>
    <nd ref="1927767796"/>
    <nd ref="1927767799"/>
    <tag k="addr:housenumber" v="8"/>
    <tag k="addr:street" v="Hall Close"/>
    <tag k="building" v="house"/>
  </way>
  <way id="182427745" version="3" timestamp="2022-07-10T19:22:08Z" changeset="123444467" uid="3316592" user="Arthtoach">
    <nd ref="1927767805"/>
    <nd ref="1927767823"/>
    <nd ref="1927767787"/>
    <nd ref="1927767783"/>
    <nd ref="1927767805"/>
    <tag k="addr:housenumber" v="4"/>
    <tag k="addr:street" v="Hall Close"/>
    <tag k="building" v="house"/>
  </way>
  <way id="182439037" version="12" timestamp="2025-01-28T21:26:03Z" changeset="161874301" uid="11606276" user="matty817">
    <nd ref="30810999"/>
    <nd ref="1927883166"/>
    <nd ref="1927883188"/>
    <nd ref="1927883185"/>
    <nd ref="1927883192"/>
    <nd ref="1927883198"/>
    <nd ref="1927883201"/>
    <nd ref="10754109716"/>
    <nd ref="10754109715"/>
    <nd ref="10754109714"/>
    <nd ref="9915288402"/>
    <nd ref="30810999"/>
    <tag k="addr:city" v="Wetherby"/>
    <tag k="addr:housenumber" v="286"/>
    <tag k="addr:postcode" v="LS23 6AJ"/>
    <tag k="addr:street" v="High Street"/>
    <tag k="addr:suburb" v="Boston Spa"/>
    <tag k="amenity" v="pub"/>
    <tag k="building" v="retail"/>
    <tag k="fhrs:id" v="1017911"/>
    <tag k="name" v="The Fox and Hounds"/>
    <tag k="wikidata" v="Q61923981"/>
  </way>
  <way id="182439707" version="10" timestamp="2024-06-17T20:17:32Z" changeset="152818627" uid="20112387" user="Anton Khorev (repair)">
    <nd ref="1927888911"/>
    <nd ref="1927888906"/>
    <nd ref="1920011889"/>
    <nd ref="30814229"/>
    <nd ref="1920011891"/>
    <nd ref="1927888905"/>
    <nd ref="9881539430"/>
    <nd ref="1920011893"/>
    <nd ref="1927888907"/>
    <nd ref="9881539432"/>
    <nd ref="9881539431"/>
    <nd ref="9881539439"/>
    <nd ref="9881539434"/>
    <nd ref="9881539433"/>
    <nd ref="9881539436"/>
    <nd ref="9881539437"/>
    <nd ref="9881539435"/>
    <nd ref="9881539438"/>
    <nd ref="1920011894"/>
    <nd ref="1927888910"/>
    <nd ref="1927888911"/>
    <tag k="amenity" v="place_of_worship"/>
    <tag k="building" v="church"/>
    <tag k="denomination" v="anglican"/>
    <tag k="name" v="St Mary's Church"/>
    <tag k="religion" v="christian"/>
    <tag k="wikidata" v="Q24039465"/>
    <tag k="wikipedia" v="en:St Mary the Virgin Church, Boston Spa"/>
  </way>
  <way id="182613725" version="3" timestamp="2023-03-22T18:53:19Z" changeset="133991935" uid="3316592" user="Arthtoach">
    <nd ref="1927883165"/>
    <nd ref="1929749774"/>
    <nd ref="1929749782"/>
    <nd ref="10754109719"/>
    <nd ref="10754109718"/>
    <nd ref="10754109717"/>
    <nd ref="1927883165"/>
    <tag k="addr:housenumber" v="2"/>
    <tag k="addr:street" v="Grove Road"/>
    <tag k="building" v="house"/>
  </way>
  <way id="182613726" version="2" timestamp="2022-07-27T18:03:50Z" changeset="124152527" uid="3316592" user="Arthtoach">
    <nd ref="1929749765"/>
    <nd ref="1929749768"/>
    <nd ref="1929749756"/>
    <nd ref="1929749754"/>
    <nd ref="1929749765"/>
    <tag k="addr:housenumber" v="28"/>
    <tag k="addr:street" v="Grove Road"/>
    <tag k="building" v="house"/>
  </way>
  <way id="182613727" version="3" timestamp="2022-07-27T18:03:50Z" changeset="124152527" uid="3316592" user="Arthtoach">
    <nd ref="2091255617"/>
    <nd ref="1929749762"/>
    <nd ref="1929749752"/>
    <nd ref="2091255615"/>
    <nd ref="2091255617"/>
    <tag k="addr:housenumber" v="30"/>
    <tag k="addr:street" v="Grove Road"/>
    <tag k="building" v="house"/>
  </way>
  <way id="182613729" version="2" timestamp="2022-07-27T18:03:50Z" changeset="124152527" uid="3316592" user="Arthtoach">
    <nd ref="1929749774"/>
    <nd ref="1929749771"/>
    <nd ref="1929749778"/>
    <nd ref="1929749782"/>
    <nd ref="1929749774"/>
    <tag k="addr:housenumber" v="4"/>
    <tag k="addr:street" v="Grove Road"/>
    <tag k="building" v="house"/>
  </way>
  <way id="182977966" version="3" timestamp="2022-07-10T19:13:12Z" changeset="123444175" uid="3316592" user="Arthtoach">
    <nd ref="1923420125"/>
    <nd ref="1983515588"/>
    <nd ref="908257590"/>
    <nd ref="908257689"/>
    <nd ref="908257216"/>
    <nd ref="908258217"/>
    <tag k="highway" v="residential"/>
    <tag k="name" v="The Square"/>
    <tag k="source" v="OS OpenData StreetView"/>
    <tag k="surface" v="asphalt"/>
  </way>
  <way id="182978647" version="3" timestamp="2021-09-03T18:12:48Z" changeset="110690832" uid="3316592" user="Arthtoach">
    <nd ref="908257441"/>
    <nd ref="7888725081"/>
    <nd ref="908258450"/>
    <nd ref="7888725082"/>
    <nd ref="7888739189"/>
    <nd ref="7888725083"/>
    <nd ref="9060894210"/>
    <tag k="highway" v="residential"/>
    <tag k="name" v="Leys Lane"/>
    <tag k="source" v="OS OpenData StreetView"/>
    <tag k="surface" v="asphalt"/>
  </way>
  <way id="182978648" version="1" timestamp="2012-09-26T09:04:41Z" changeset="13256656" uid="163608" user="Madwort">
    <nd ref="908258083"/>
    <nd ref="908257682"/>
    <tag k="highway" v="residential"/>
    <tag k="name" v="Park Road"/>
    <tag k="source" v="OS OpenData StreetView"/>
  </way>
  <way id="182978650" version="5" timestamp="2021-11-15T13:20:13Z" changeset="113805463" uid="3316592" user="Arthtoach">
    <nd ref="908257682"/>
    <nd ref="908257212"/>
    <nd ref="908258189"/>
    <nd ref="908257608"/>
    <nd ref="908257778"/>
    <nd ref="908257930"/>
    <nd ref="9063604690"/>
    <nd ref="908258371"/>
    <nd ref="908257904"/>
    <nd ref="9253296460"/>
    <nd ref="9253296462"/>
    <nd ref="9253296461"/>
    <nd ref="908257488"/>
    <nd ref="908258037"/>
    <tag k="highway" v="residential"/>
    <tag k="name" v="Wickham Avenue"/>
    <tag k="source" v="OS OpenData StreetView"/>
    <tag k="surface" v="asphalt"/>
  </way>
  <way id="184763351" version="3" timestamp="2022-07-10T19:13:12Z" changeset="123444175" uid="3316592" user="Arthtoach">
    <nd ref="1946267933"/>
    <nd ref="1936741664"/>
    <nd ref="1923405617"/>
    <nd ref="1946267928"/>
    <nd ref="908258433"/>
    <nd ref="1923898951"/>
    <nd ref="1876496837"/>
    <nd ref="1923406167"/>
    <nd ref="1923405616"/>
    <nd ref="908257977"/>
    <nd ref="1923406168"/>
    <nd ref="908257552"/>
    <nd ref="1923406170"/>
    <nd ref="908258549"/>
    <tag k="highway" v="residential"/>
    <tag k="name" v="Beeches End"/>
    <tag k="sidewalk" v="no"/>
    <tag k="source" v="OS OpenData StreetView"/>
    <tag k="surface" v="asphalt"/>
  </way>
  <way id="184763354" version="1" timestamp="2012-10-08T16:21:16Z" changeset="13414720" uid="163608" user="Madwort">
    <nd ref="1876496830"/>
    <nd ref="1952758485"/>
    <tag k="highway" v="residential"/>
    <tag k="name" v="Chestnut End"/>
    <tag k="sidewalk" v="both"/>
  </way>
  <way id="184763356" version="10" timestamp="2024-06-17T14:08:58Z" changeset="152805446" uid="145231" user="woodpeck_repair">
    <nd ref="30804471"/>
    <nd ref="30804472"/>
    <nd ref="908258217"/>
    <nd ref="29581606"/>
    <nd ref="908257403"/>
    <nd ref="3230197801"/>
    <nd ref="29581588"/>
    <tag k="highway" v="tertiary"/>
    <tag k="name" v="Grove Road"/>
    <tag k="sidewalk" v="both"/>
    <tag k="surface" v="asphalt"/>
  </way>
  <way id="184763553" version="10" timestamp="2024-06-17T14:08:58Z" changeset="152805446" uid="145231" user="woodpeck_repair">
    <nd ref="30804468"/>
    <nd ref="1923405582"/>
    <nd ref="1927798302"/>
    <nd ref="1925256537"/>
    <nd ref="1946281104"/>
    <nd ref="1925256545"/>
    <nd ref="1946267910"/>
    <nd ref="1925256561"/>
    <nd ref="1925256577"/>
    <nd ref="1925256581"/>
    <nd ref="1877393590"/>
    <nd ref="1946267939"/>
    <nd ref="908257812"/>
    <tag k="highway" v="tertiary"/>
    <tag k="name" v="Clifford Road"/>
    <tag k="sidewalk" v="right"/>
    <tag k="surface" v="asphalt"/>
  </way>
  <way id="184763554" version="9" timestamp="2024-06-17T14:08:58Z" changeset="152805446" uid="145231" user="woodpeck_repair">
    <nd ref="908257812"/>
    <nd ref="1946267958"/>
    <nd ref="908258532"/>
    <tag k="highway" v="tertiary"/>
    <tag k="name" v="Clifford Road"/>
    <tag k="sidewalk" v="both"/>
    <tag k="surface" v="asphalt"/>
  </way>
  <way id="184763555" version="11" timestamp="2024-06-17T14:08:58Z" changeset="152805446" uid="145231" user="woodpeck_repair">
    <nd ref="908258532"/>
    <nd ref="908258102"/>
    <nd ref="1946267966"/>
    <nd ref="1946267969"/>
    <nd ref="2094724227"/>
    <nd ref="1946267977"/>
    <nd ref="1946267980"/>
    <nd ref="908257306"/>
    <nd ref="30810995"/>
    <tag k="highway" v="tertiary"/>
    <tag k="name" v="Clifford Road"/>
    <tag k="sidewalk" v="left"/>
    <tag k="surface" v="asphalt"/>
  </way>
  <way id="186291543" version="7" timestamp="2024-10-07T10:15:57Z" changeset="157574856" uid="111135" user="Pete Owens">
    <nd ref="1969729932"/>
    <nd ref="1877780875"/>
    <nd ref="6907883024"/>
    <nd ref="1581182986"/>
    <nd ref="6907883022"/>
    <nd ref="1581182966"/>
    <nd ref="12231452139"/>
    <nd ref="472344011"/>
    <tag k="cycleway:both" v="no"/>
    <tag k="highway" v="primary"/>
    <tag k="maxspeed" v="40 mph"/>
    <tag k="name" v="Moor End"/>
    <tag k="ref" v="A659"/>
    <tag k="source" v="survey"/>
    <tag k="surface" v="asphalt"/>
  </way>
  <way id="186691805" version="9" timestamp="2024-06-17T14:09:02Z" changeset="152805446" uid="145231" user="woodpeck_repair">
    <nd ref="908257708"/>
    <nd ref="330526916"/>
    <nd ref="10759175559"/>
    <nd ref="330526917"/>
    <nd ref="10759175558"/>
    <nd ref="330526919"/>
    <nd ref="1911680851"/>
    <nd ref="7580672951"/>
    <tag k="highway" v="tertiary"/>
    <tag k="name" v="Bar Lane"/>
    <tag k="source:name" v="OS_OpenData_Locator"/>
    <tag k="surface" v="asphalt"/>
  </way>
  <way id="187420967" version="5" timestamp="2024-06-14T22:35:22Z" changeset="152700850" uid="1778799" user="SomeoneElse_Revert">
    <nd ref="9881539411"/>
    <nd ref="1981162096"/>
    <nd ref="1981162090"/>
    <nd ref="1981162092"/>
    <nd ref="1981162094"/>
    <nd ref="1981162095"/>
    <nd ref="9881539410"/>
    <nd ref="9881539409"/>
    <nd ref="9881539411"/>
    <tag k="building" v="yes"/>
    <tag k="name" v="Boston Spa Garage"/>
    <tag k="shop" v="car_repair"/>
  </way>
  <way id="187719085" version="2" timestamp="2021-11-12T13:40:54Z" changeset="113697264" uid="3316592" user="Arthtoach">
    <nd ref="908257453"/>
    <nd ref="1983515636"/>
    <tag k="highway" v="residential"/>
    <tag k="name" v="Church Mews"/>
    <tag k="source" v="bing"/>
    <tag k="surface" v="asphalt"/>
  </way>
  <way id="187719086" version="2" timestamp="2021-11-12T13:40:54Z" changeset="113697264" uid="3316592" user="Arthtoach">
    <nd ref="1983515640"/>
    <nd ref="1983515636"/>
    <nd ref="1983515631"/>
    <tag k="highway" v="residential"/>
    <tag k="name" v="Church Mews"/>
    <tag k="source" v="bing"/>
    <tag k="surface" v="asphalt"/>
  </way>
  <way id="187719087" version="2" timestamp="2021-09-03T18:38:29Z" changeset="110691664" uid="3316592" user="Arthtoach">
    <nd ref="908258037"/>
    <nd ref="908258490"/>
    <tag k="highway" v="residential"/>
    <tag k="name" v="Helmsley Road"/>
    <tag k="source" v="OS OpenData StreetView"/>
    <tag k="source:name" v="OS_OpenData_Locator"/>
    <tag k="surface" v="asphalt"/>
  </way>
  <way id="187719090" version="2" timestamp="2022-07-10T19:13:12Z" changeset="123444175" uid="3316592" user="Arthtoach">
    <nd ref="1983515628"/>
    <nd ref="1983515626"/>
    <tag k="highway" v="residential"/>
    <tag k="name" v="Lime Tree Avenue"/>
    <tag k="source" v="bing"/>
    <tag k="source:name" v="OS_OpenData_Locator"/>
    <tag k="surface" v="asphalt"/>
  </way>
  <way id="187719095" version="3" timestamp="2021-11-13T09:32:07Z" changeset="113723616" uid="3316592" user="Arthtoach">
    <nd ref="908257513"/>
    <nd ref="9247868256"/>
    <nd ref="1929762961"/>
    <nd ref="908257808"/>
    <tag k="highway" v="residential"/>
    <tag k="name" v="Wickham Close"/>
    <tag k="source" v="OS OpenData StreetView"/>
    <tag k="source:name" v="OS_OpenData_Locator"/>
    <tag k="surface" v="asphalt"/>
  </way>
  <way id="198801151" version="1" timestamp="2012-12-30T18:45:36Z" changeset="14468201" uid="163608" user="Madwort">
    <nd ref="2088892372"/>
    <nd ref="2088892367"/>
    <nd ref="2088892370"/>
    <nd ref="2088892374"/>
    <nd ref="2088892372"/>
    <tag k="addr:housenumber" v="1"/>
    <tag k="addr:street" v="Grove Terrace"/>
    <tag k="building" v="house"/>
  </way>
  <way id="199083545" version="2" timestamp="2022-07-27T18:03:50Z" changeset="124152527" uid="3316592" user="Arthtoach">
    <nd ref="2091255638"/>
    <nd ref="2091255636"/>
    <nd ref="2091255627"/>
    <nd ref="2091255629"/>
    <nd ref="2091255638"/>
    <tag k="addr:housenumber" v="10"/>
    <tag k="addr:street" v="Grove Road"/>
    <tag k="building" v="house"/>
  </way>
  <way id="199083546" version="3" timestamp="2023-03-22T18:53:19Z" changeset="133991935" uid="3316592" user="Arthtoach">
    <nd ref="10754109722"/>
    <nd ref="10754109723"/>
    <nd ref="2091255636"/>
    <nd ref="2091255627"/>
    <nd ref="2091255624"/>
    <nd ref="10754109722"/>
    <tag k="addr:housenumber" v="12"/>
    <tag k="addr:street" v="Grove Road"/>
    <tag k="building" v="house"/>
  </way>
  <way id="199083547" version="2" timestamp="2022-07-27T18:03:50Z" changeset="124152527" uid="3316592" user="Arthtoach">
    <nd ref="2091255635"/>
    <nd ref="2091255633"/>
    <nd ref="2091255622"/>
    <nd ref="2091255625"/>
    <nd ref="2091255635"/>
    <tag k="addr:housenumber" v="14"/>
    <tag k="addr:street" v="Grove Road"/>
    <tag k="building" v="house"/>
  </way>
  <way id="199083548" version="2" timestamp="2022-07-27T18:03:50Z" changeset="124152527" uid="3316592" user="Arthtoach">
    <nd ref="2091255633"/>
    <nd ref="2091255632"/>
    <nd ref="2091255621"/>
    <nd ref="2091255622"/>
    <nd ref="2091255633"/>
    <tag k="addr:housenumber" v="16"/>
    <tag k="addr:street" v="Grove Road"/>
    <tag k="building" v="house"/>
  </way>
  <way id="199083549" version="2" timestamp="2022-07-27T18:03:50Z" changeset="124152527" uid="3316592" user="Arthtoach">
    <nd ref="2091255632"/>
    <nd ref="2091255630"/>
    <nd ref="2091255620"/>
    <nd ref="2091255621"/>
    <nd ref="2091255632"/>
    <tag k="addr:housenumber" v="18"/>
    <tag k="addr:street" v="Grove Road"/>
    <tag k="building" v="house"/>
  </way>
  <way id="199083550" version="2" timestamp="2022-07-27T18:03:50Z" changeset="124152527" uid="3316592" user="Arthtoach">
    <nd ref="2091255630"/>
    <nd ref="2091255628"/>
    <nd ref="2091255619"/>
    <nd ref="2091255620"/>
    <nd ref="2091255630"/>
    <tag k="addr:housenumber" v="20"/>
    <tag k="addr:street" v="Grove Road"/>
    <tag k="building" v="house"/>
  </way>
  <way id="199083551" version="2" timestamp="2022-07-27T18:03:50Z" changeset="124152527" uid="3316592" user="Arthtoach">
    <nd ref="2091255628"/>
    <nd ref="2091255626"/>
    <nd ref="2091255618"/>
    <nd ref="2091255619"/>
    <nd ref="2091255628"/>
    <tag k="addr:housenumber" v="22"/>
    <tag k="addr:street" v="Grove Road"/>
    <tag k="building" v="house"/>
  </way>
  <way id="199083552" version="2" timestamp="2022-07-27T18:03:50Z" changeset="124152527" uid="3316592" user="Arthtoach">
    <nd ref="2091255626"/>
    <nd ref="2091255623"/>
    <nd ref="2091255616"/>
    <nd ref="2091255618"/>
    <nd ref="2091255626"/>
    <tag k="addr:housenumber" v="24"/>
    <tag k="addr:street" v="Grove Road"/>
    <tag k="building" v="house"/>
  </way>
  <way id="199083553" version="2" timestamp="2022-07-27T18:03:50Z" changeset="124152527" uid="3316592" user="Arthtoach">
    <nd ref="2091255623"/>
    <nd ref="1929749768"/>
    <nd ref="1929749756"/>
    <nd ref="2091255616"/>
    <nd ref="2091255623"/>
    <tag k="addr:housenumber" v="26"/>
    <tag k="addr:street" v="Grove Road"/>
    <tag k="building" v="house"/>
  </way>
  <way id="199083554" version="2" timestamp="2022-07-27T18:03:50Z" changeset="124152527" uid="3316592" user="Arthtoach">
    <nd ref="2091255615"/>
    <nd ref="1929749728"/>
    <nd ref="1929749758"/>
    <nd ref="2091255617"/>
    <nd ref="2091255615"/>
    <tag k="addr:housenumber" v="32"/>
    <tag k="addr:street" v="Grove Road"/>
    <tag k="building" v="house"/>
  </way>
  <way id="199083555" version="2" timestamp="2022-07-27T18:03:50Z" changeset="124152527" uid="3316592" user="Arthtoach">
    <nd ref="2091255631"/>
    <nd ref="1929749771"/>
    <nd ref="1929749778"/>
    <nd ref="2091255639"/>
    <nd ref="2091255631"/>
    <tag k="addr:housenumber" v="6"/>
    <tag k="addr:street" v="Grove Road"/>
    <tag k="building" v="house"/>
  </way>
  <way id="199083556" version="3" timestamp="2023-03-22T18:53:19Z" changeset="133991935" uid="3316592" user="Arthtoach">
    <nd ref="2091255638"/>
    <nd ref="10754109720"/>
    <nd ref="10754109721"/>
    <nd ref="2091255639"/>
    <nd ref="2091255631"/>
    <nd ref="2091255629"/>
    <nd ref="2091255638"/>
    <tag k="addr:housenumber" v="8"/>
    <tag k="addr:street" v="Grove Road"/>
    <tag k="building" v="house"/>
  </way>
  <way id="199086318" version="4" timestamp="2023-08-15T19:18:03Z" changeset="139931063" uid="1802093" user="Paul Berry">
    <nd ref="2091278242"/>
    <nd ref="2091278239"/>
    <nd ref="2091278243"/>
    <nd ref="2091278215"/>
    <nd ref="2091278214"/>
    <nd ref="2091278204"/>
    <nd ref="2091278198"/>
    <nd ref="2091278209"/>
    <nd ref="2091278212"/>
    <nd ref="2091278225"/>
    <nd ref="2091278213"/>
    <nd ref="2091278218"/>
    <nd ref="2091278205"/>
    <nd ref="2091278221"/>
    <nd ref="2091278233"/>
    <nd ref="2091278235"/>
    <nd ref="2091278242"/>
    <tag k="addr:city" v="Wetherby"/>
    <tag k="addr:postcode" v="LS23 6AD"/>
    <tag k="addr:suburb" v="Boston Spa"/>
    <tag k="building" v="office"/>
    <tag k="name" v="Boston Hall"/>
    <tag k="wikidata" v="Q26428438"/>
    <tag k="wikipedia" v="en:Boston Hall, Boston Spa"/>
  </way>
  <way id="199086330" version="4" timestamp="2023-08-15T19:18:03Z" changeset="139931063" uid="1802093" user="Paul Berry">
    <nd ref="2091278249"/>
    <nd ref="2091278254"/>
    <nd ref="2091278250"/>
    <nd ref="2091278261"/>
    <nd ref="2091278264"/>
    <nd ref="2091278260"/>
    <nd ref="2091278259"/>
    <nd ref="2091278251"/>
    <nd ref="2091278240"/>
    <nd ref="2091278237"/>
    <nd ref="2091278249"/>
    <tag k="addr:city" v="Wetherby"/>
    <tag k="addr:housename" v="Boston House"/>
    <tag k="addr:housenumber" v="214"/>
    <tag k="addr:postcode" v="LS23 6AD"/>
    <tag k="addr:street" v="High Street"/>
    <tag k="addr:suburb" v="Boston Spa"/>
    <tag k="building" v="office"/>
    <tag k="name" v="Boston House"/>
  </way>
  <way id="199091225" version="3" timestamp="2022-07-10T19:22:08Z" changeset="123444467" uid="3316592" user="Arthtoach">
    <nd ref="2091319892"/>
    <nd ref="2091319888"/>
    <nd ref="2091319889"/>
    <nd ref="2091319894"/>
    <nd ref="2091319892"/>
    <tag k="addr:housenumber" v="56"/>
    <tag k="addr:street" v="Grove Road"/>
    <tag k="building" v="house"/>
  </way>
  <way id="199316530" version="3" timestamp="2021-09-03T18:38:29Z" changeset="110691664" uid="3316592" user="Arthtoach">
    <nd ref="2093264099"/>
    <nd ref="2093264096"/>
    <nd ref="9060926339"/>
    <nd ref="9060926340"/>
    <nd ref="2093264097"/>
    <nd ref="2093264101"/>
    <nd ref="2093264098"/>
    <nd ref="2093264100"/>
    <nd ref="2093264099"/>
    <tag k="addr:housenumber" v="10"/>
    <tag k="addr:street" v="Moor Side"/>
    <tag k="building" v="house"/>
  </way>
  <way id="199354251" version="10" timestamp="2024-06-14T22:35:26Z" changeset="152700850" uid="1778799" user="SomeoneElse_Revert">
    <nd ref="9881517891"/>
    <nd ref="1891417750"/>
    <nd ref="2093561812"/>
    <nd ref="9881517889"/>
    <nd ref="9881517891"/>
    <tag k="addr:city" v="Wetherby"/>
    <tag k="addr:housenumber" v="175"/>
    <tag k="addr:postcode" v="LS23 6BH"/>
    <tag k="addr:street" v="High Street"/>
    <tag k="addr:suburb" v="Boston Spa"/>
    <tag k="amenity" v="pub"/>
    <tag k="building" v="commercial"/>
    <tag k="fhrs:id" v="1454111"/>
    <tag k="floor:material" v="wood"/>
    <tag k="food" v="At least pies"/>
    <tag k="name" v="Salt"/>
    <tag k="outdoor_seating" v="yes"/>
    <tag k="real_ale" v="2 Ossett, lots of Salt craft."/>
    <tag k="wheelchair" v="yes"/>
    <tag k="wheelchair:description" v="All access flat"/>
  </way>
  <way id="199354255" version="6" timestamp="2024-06-14T22:35:28Z" changeset="152700850" uid="1778799" user="SomeoneElse_Revert">
    <nd ref="2093561760"/>
    <nd ref="2093561755"/>
    <nd ref="2284004396"/>
    <nd ref="2093561749"/>
    <nd ref="2093561751"/>
    <nd ref="2093561753"/>
    <nd ref="2093561760"/>
    <tag k="addr:city" v="Wetherby"/>
    <tag k="addr:housenumber" v="188a"/>
    <tag k="addr:postcode" v="LS23 6BT"/>
    <tag k="addr:street" v="High Street"/>
    <tag k="addr:suburb" v="Boston Spa"/>
    <tag k="amenity" v="restaurant"/>
    <tag k="building" v="commercial"/>
    <tag k="cuisine" v="indian"/>
    <tag k="fhrs:id" v="950759"/>
    <tag k="name" v="Ali's Kitchen"/>
    <tag k="takeaway" v="yes"/>
  </way>
  <way id="206817413" version="16" timestamp="2025-02-05T09:08:51Z" changeset="162156557" uid="15273669" user="sivannap">
    <nd ref="29581618"/>
    <nd ref="9060894210"/>
    <nd ref="9060926374"/>
    <nd ref="1929762959"/>
    <nd ref="9060926373"/>
    <nd ref="29581617"/>
    <nd ref="9060926372"/>
    <nd ref="9060926371"/>
    <nd ref="29581616"/>
    <nd ref="9060926370"/>
    <nd ref="1929762969"/>
    <nd ref="29581615"/>
    <nd ref="7102621436"/>
    <nd ref="29581614"/>
    <nd ref="908257936"/>
    <nd ref="6586521923"/>
    <nd ref="9247891665"/>
    <nd ref="29581613"/>
    <nd ref="9247891666"/>
    <nd ref="7102621439"/>
    <nd ref="30814231"/>
    <nd ref="908257805"/>
    <nd ref="29581612"/>
    <nd ref="12558501637"/>
    <nd ref="10557749925"/>
    <nd ref="908258439"/>
    <nd ref="6510893916"/>
    <nd ref="7813028162"/>
    <nd ref="29581611"/>
    <nd ref="2772560737"/>
    <nd ref="9881539515"/>
    <nd ref="4925273602"/>
    <nd ref="29581610"/>
    <nd ref="7102621479"/>
    <nd ref="6586625004"/>
    <nd ref="908258320"/>
    <nd ref="2772560721"/>
    <nd ref="84848647"/>
    <nd ref="9881539514"/>
    <nd ref="29581605"/>
    <nd ref="9881539516"/>
    <nd ref="2772560689"/>
    <nd ref="2772560687"/>
    <nd ref="9246575460"/>
    <nd ref="29581604"/>
    <tag k="highway" v="primary"/>
    <tag k="lanes" v="2"/>
    <tag k="maxspeed" v="30 mph"/>
    <tag k="name" v="High Street"/>
    <tag k="ref" v="A659"/>
    <tag k="source" v="survey"/>
    <tag k="surface" v="asphalt"/>
  </way>
  <way id="206817427" version="11" timestamp="2023-03-21T19:19:51Z" changeset="133953701" uid="3316592" user="Arthtoach">
    <nd ref="9934307617"/>
    <nd ref="29581598"/>
    <nd ref="1920011846"/>
    <nd ref="30810995"/>
    <nd ref="29581597"/>
    <nd ref="1877888964"/>
    <nd ref="1927374280"/>
    <nd ref="685970596"/>
    <nd ref="29581596"/>
    <nd ref="1983515609"/>
    <nd ref="29581595"/>
    <nd ref="1983515607"/>
    <nd ref="1923900092"/>
    <nd ref="7936564454"/>
    <nd ref="1875990785"/>
    <nd ref="29581593"/>
    <nd ref="908257715"/>
    <nd ref="9915296018"/>
    <nd ref="1983515598"/>
    <nd ref="29581591"/>
    <nd ref="908257291"/>
    <nd ref="10751515398"/>
    <nd ref="29581590"/>
    <nd ref="9069726020"/>
    <nd ref="6549131069"/>
    <nd ref="10751487987"/>
    <nd ref="29581588"/>
    <tag k="abutters" v="retail"/>
    <tag k="highway" v="primary"/>
    <tag k="lanes" v="2"/>
    <tag k="maxspeed" v="30 mph"/>
    <tag k="name" v="High Street"/>
    <tag k="ref" v="A659"/>
    <tag k="source" v="survey"/>
    <tag k="surface" v="asphalt"/>
  </way>
  <way id="215865011" version="4" timestamp="2022-10-25T15:37:04Z" changeset="128046008" uid="3316592" user="Arthtoach">
    <nd ref="2252918477"/>
    <nd ref="5975789205"/>
    <nd ref="2252918489"/>
    <nd ref="2252918481"/>
    <nd ref="10128316871"/>
    <nd ref="10128316872"/>
    <nd ref="10128316870"/>
    <nd ref="10128316869"/>
    <nd ref="2252918477"/>
    <tag k="addr:housenumber" v="130"/>
    <tag k="addr:street" v="High Street"/>
    <tag k="building" v="commercial"/>
  </way>
  <way id="215865012" version="3" timestamp="2022-10-25T15:37:04Z" changeset="128046008" uid="3316592" user="Arthtoach">
    <nd ref="10128316870"/>
    <nd ref="10128316873"/>
    <nd ref="10128316867"/>
    <nd ref="10128316869"/>
    <nd ref="10128316870"/>
    <tag k="addr:housenumber" v="132"/>
    <tag k="addr:street" v="High Street"/>
    <tag k="building" v="commercial"/>
  </way>
  <way id="215865013" version="7" timestamp="2024-06-14T22:35:26Z" changeset="152700850" uid="1778799" user="SomeoneElse_Revert">
    <nd ref="10128316842"/>
    <nd ref="10128316864"/>
    <nd ref="10128316863"/>
    <nd ref="10128316865"/>
    <nd ref="10128316867"/>
    <nd ref="10128316873"/>
    <nd ref="2252918483"/>
    <nd ref="2252918474"/>
    <nd ref="10128316866"/>
    <nd ref="10128316859"/>
    <nd ref="10128316862"/>
    <nd ref="10128316842"/>
    <tag k="addr:city" v="Wetherby"/>
    <tag k="addr:housenumber" v="134"/>
    <tag k="addr:postcode" v="LS23 6BW"/>
    <tag k="addr:street" v="High Street"/>
    <tag k="addr:suburb" v="Boston Spa"/>
    <tag k="amenity" v="restaurant"/>
    <tag k="building" v="commercial"/>
    <tag k="fhrs:id" v="1193327"/>
    <tag k="name" v="Da Carlo"/>
    <tag k="old_name" v="Deli Caffe"/>
  </way>
  <way id="215865014" version="2" timestamp="2021-11-13T10:42:09Z" changeset="113725591" uid="3316592" user="Arthtoach">
    <nd ref="2252918456"/>
    <nd ref="2252918455"/>
    <nd ref="2252918451"/>
    <nd ref="2252918454"/>
    <nd ref="2252918442"/>
    <nd ref="2252918445"/>
    <nd ref="2252918456"/>
    <tag k="addr:housenumber" v="15"/>
    <tag k="addr:street" v="Church Street"/>
    <tag k="building" v="house"/>
  </way>
  <way id="215865015" version="2" timestamp="2021-11-15T15:02:49Z" changeset="113809588" uid="3316592" user="Arthtoach">
    <nd ref="2252918435"/>
    <nd ref="2252918428"/>
    <nd ref="2252918427"/>
    <nd ref="2252918430"/>
    <nd ref="2252918433"/>
    <nd ref="2252918432"/>
    <nd ref="2252918435"/>
    <tag k="addr:housenumber" v="27"/>
    <tag k="addr:street" v="Church Street"/>
    <tag k="building" v="school"/>
  </way>
  <way id="215865017" version="3" timestamp="2022-08-22T10:15:26Z" changeset="125219439" uid="3316592" user="Arthtoach">
    <nd ref="9969609861"/>
    <nd ref="2252918444"/>
    <nd ref="9969609859"/>
    <nd ref="2252918453"/>
    <nd ref="9969609862"/>
    <nd ref="9969609861"/>
    <tag k="addr:housenumber" v="30"/>
    <tag k="addr:street" v="Church Street"/>
    <tag k="building" v="house"/>
  </way>
  <way id="215865018" version="3" timestamp="2022-08-22T10:15:26Z" changeset="125219439" uid="3316592" user="Arthtoach">
    <nd ref="9969609862"/>
    <nd ref="2252918439"/>
    <nd ref="9969609870"/>
    <nd ref="9969609869"/>
    <nd ref="2252918437"/>
    <nd ref="2252918438"/>
    <nd ref="2252918447"/>
    <nd ref="9969609863"/>
    <nd ref="9969609864"/>
    <nd ref="9969609865"/>
    <nd ref="9969609861"/>
    <nd ref="9969609862"/>
    <tag k="addr:housenumber" v="32"/>
    <tag k="addr:street" v="Church Street"/>
    <tag k="building" v="house"/>
  </way>
  <way id="215875429" version="2" timestamp="2022-10-27T10:53:36Z" changeset="128123382" uid="3316592" user="Arthtoach">
    <nd ref="2252997511"/>
    <nd ref="2252997509"/>
    <nd ref="2252997502"/>
    <nd ref="2252997504"/>
    <nd ref="2252997511"/>
    <tag k="addr:housenumber" v="1"/>
    <tag k="addr:street" v="Grove Crescent South"/>
    <tag k="building" v="house"/>
  </way>
  <way id="215875430" version="2" timestamp="2022-10-27T10:53:36Z" changeset="128123382" uid="3316592" user="Arthtoach">
    <nd ref="2252997492"/>
    <nd ref="2252997490"/>
    <nd ref="2252997491"/>
    <nd ref="2252997493"/>
    <nd ref="2252997492"/>
    <tag k="addr:housenumber" v="2"/>
    <tag k="addr:street" v="Grove Crescent South"/>
    <tag k="building" v="house"/>
  </way>
  <way id="215875431" version="2" timestamp="2022-10-27T10:53:36Z" changeset="128123382" uid="3316592" user="Arthtoach">
    <nd ref="2252997509"/>
    <nd ref="2252997506"/>
    <nd ref="2252997500"/>
    <nd ref="2252997502"/>
    <nd ref="2252997509"/>
    <tag k="addr:housenumber" v="3"/>
    <tag k="addr:street" v="Grove Crescent South"/>
    <tag k="building" v="house"/>
  </way>
  <way id="215875433" version="2" timestamp="2022-10-27T10:53:36Z" changeset="128123382" uid="3316592" user="Arthtoach">
    <nd ref="2252997496"/>
    <nd ref="2252997492"/>
    <nd ref="2252997493"/>
    <nd ref="2252997498"/>
    <nd ref="2252997496"/>
    <tag k="addr:housenumber" v="4"/>
    <tag k="addr:street" v="Grove Crescent South"/>
    <tag k="building" v="house"/>
  </way>
  <way id="219204433" version="9" timestamp="2024-06-14T22:35:15Z" changeset="152700850" uid="1778799" user="SomeoneElse_Revert">
    <nd ref="10132283200"/>
    <nd ref="2284002671"/>
    <nd ref="2284002668"/>
    <nd ref="10132283203"/>
    <nd ref="10132283202"/>
    <nd ref="10132283195"/>
    <nd ref="10132283196"/>
    <nd ref="10132283200"/>
    <tag k="addr:city" v="Wetherby"/>
    <tag k="addr:housenumber" v="150"/>
    <tag k="addr:postcode" v="LS23 6BW"/>
    <tag k="addr:street" v="High Street"/>
    <tag k="addr:suburb" v="Boston Spa"/>
    <tag k="brand" v="Londis"/>
    <tag k="brand:wikidata" v="Q21008564"/>
    <tag k="brand:wikipedia" v="en:Londis (United Kingdom)"/>
    <tag k="building" v="yes"/>
    <tag k="designation" v="Stevens (Paper Shop)"/>
    <tag k="fhrs:id" v="1625398"/>
    <tag k="name" v="Londis"/>
    <tag k="shop" v="convenience"/>
  </way>
  <way id="219204434" version="10" timestamp="2024-06-14T22:35:20Z" changeset="152700850" uid="1778799" user="SomeoneElse_Revert">
    <nd ref="10132283141"/>
    <nd ref="10132283142"/>
    <nd ref="10132283143"/>
    <nd ref="2284002674"/>
    <nd ref="10132283147"/>
    <nd ref="10132283149"/>
    <nd ref="2284002669"/>
    <nd ref="10132283148"/>
    <nd ref="2284002672"/>
    <nd ref="10132283146"/>
    <nd ref="10132283145"/>
    <nd ref="10132283144"/>
    <nd ref="10132283141"/>
    <tag k="addr:city" v="Wetherby"/>
    <tag k="addr:housenumber" v="182"/>
    <tag k="addr:postcode" v="LS23 6BT"/>
    <tag k="addr:street" v="High Street"/>
    <tag k="addr:suburb" v="Boston Spa"/>
    <tag k="brand" v="Costcutter"/>
    <tag k="brand:wikidata" v="Q5175072"/>
    <tag k="brand:wikipedia" v="en:Costcutter"/>
    <tag k="building" v="retail"/>
    <tag k="contact:website" v="https://store-locator.costcutter.co.uk/costcutter-a2438b1cdb4f"/>
    <tag k="fhrs:id" v="321280"/>
    <tag k="name" v="Costcutter"/>
    <tag k="note" v="fhrs reports the postcode as &quot;LS23 6BT&quot;. The costcutter website reports &quot;LS23 6AA&quot; - that's incorrect as its the postcode for the odd side of the street."/>
    <tag k="shop" v="supermarket"/>
    <tag k="source:addr" v="FHRS Open Data"/>
  </way>
  <way id="219204589" version="9" timestamp="2024-06-14T22:35:45Z" changeset="152700850" uid="1778799" user="SomeoneElse_Revert">
    <nd ref="10132310749"/>
    <nd ref="2284004396"/>
    <nd ref="2093561755"/>
    <nd ref="2284004394"/>
    <nd ref="10132310747"/>
    <nd ref="10132310748"/>
    <nd ref="10132310749"/>
    <tag k="addr:city" v="Wetherby"/>
    <tag k="addr:housenumber" v="190"/>
    <tag k="addr:postcode" v="LS23 6BT"/>
    <tag k="addr:street" v="High Street"/>
    <tag k="addr:suburb" v="Boston Spa"/>
    <tag k="amenity" v="pharmacy"/>
    <tag k="brand" v="Cohens Chemist"/>
    <tag k="brand:wikidata" v="Q107998495"/>
    <tag k="building" v="yes"/>
    <tag k="dispensing" v="yes"/>
    <tag k="fhrs:id" v="322099"/>
    <tag k="healthcare" v="pharmacy"/>
    <tag k="name" v="Cohens Chemist"/>
  </way>
  <way id="245686547" version="2" timestamp="2023-03-27T18:31:33Z" changeset="134190168" uid="3316592" user="Arthtoach">
    <nd ref="2528375188"/>
    <nd ref="2528375186"/>
    <tag k="bridge" v="yes"/>
    <tag k="highway" v="primary"/>
    <tag k="lanes" v="2"/>
    <tag k="layer" v="1"/>
    <tag k="maxspeed" v="60 mph"/>
    <tag k="name" v="High Street"/>
    <tag k="ref" v="A659"/>
    <tag k="source" v="survey"/>
    <tag k="source:name" v="OS_OpenData_Locator"/>
    <tag k="surface" v="asphalt"/>
  </way>
  <way id="245686548" version="2" timestamp="2023-03-27T18:31:33Z" changeset="134190168" uid="3316592" user="Arthtoach">
    <nd ref="2528375186"/>
    <nd ref="1911680872"/>
    <nd ref="1927442598"/>
    <nd ref="10766939034"/>
    <nd ref="29581579"/>
    <nd ref="29581578"/>
    <nd ref="10766939033"/>
    <nd ref="29581577"/>
    <nd ref="330526975"/>
    <tag k="highway" v="primary"/>
    <tag k="lanes" v="2"/>
    <tag k="maxspeed" v="60 mph"/>
    <tag k="name" v="High Street"/>
    <tag k="ref" v="A659"/>
    <tag k="source" v="survey"/>
    <tag k="source:name" v="OS_OpenData_Locator"/>
    <tag k="surface" v="asphalt"/>
  </way>
  <way id="272308973" version="5" timestamp="2021-11-12T17:40:05Z" changeset="113705865" uid="3316592" user="Arthtoach">
    <nd ref="2772560769"/>
    <nd ref="2772560777"/>
    <nd ref="9246178966"/>
    <nd ref="9246178967"/>
    <nd ref="2772560766"/>
    <nd ref="4925273611"/>
    <nd ref="9246178946"/>
    <nd ref="9246178948"/>
    <nd ref="9246178947"/>
    <nd ref="9246178949"/>
    <nd ref="9246610956"/>
    <nd ref="7102835607"/>
    <nd ref="2772560748"/>
    <nd ref="2772560752"/>
    <tag k="highway" v="residential"/>
    <tag k="name" v="Church Fields Close"/>
    <tag k="surface" v="paving_stones"/>
  </way>
  <way id="272308976" version="2" timestamp="2021-11-13T09:58:34Z" changeset="113724367" uid="3316592" user="Arthtoach">
    <nd ref="2772560723"/>
    <nd ref="2772560717"/>
    <nd ref="9247907265"/>
    <nd ref="2772560713"/>
    <nd ref="2772560706"/>
    <nd ref="2772560704"/>
    <nd ref="2772560702"/>
    <nd ref="2772560723"/>
    <tag k="addr:housenumber" v="94"/>
    <tag k="addr:street" v="High Street"/>
    <tag k="building" v="house"/>
  </way>
  <way id="272308977" version="2" timestamp="2021-11-13T09:58:34Z" changeset="113724367" uid="3316592" user="Arthtoach">
    <nd ref="2772560694"/>
    <nd ref="9247907260"/>
    <nd ref="9247907259"/>
    <nd ref="2772560700"/>
    <nd ref="2772560694"/>
    <tag k="addr:housenumber" v="96"/>
    <tag k="addr:street" v="High Street"/>
    <tag k="building" v="house"/>
  </way>
  <way id="272308979" version="2" timestamp="2021-11-12T13:40:54Z" changeset="113697264" uid="3316592" user="Arthtoach">
    <nd ref="2772560766"/>
    <nd ref="9246178977"/>
    <tag k="highway" v="residential"/>
    <tag k="surface" v="paving_stones"/>
  </way>
  <way id="272308980" version="6" timestamp="2021-11-12T13:40:54Z" changeset="113697264" uid="3316592" user="Arthtoach">
    <nd ref="9246178937"/>
    <nd ref="9246178939"/>
    <nd ref="9246178938"/>
    <nd ref="4925273609"/>
    <nd ref="9246178940"/>
    <nd ref="4925273596"/>
    <nd ref="9246178941"/>
    <nd ref="4925273598"/>
    <nd ref="9246178926"/>
    <tag k="highway" v="residential"/>
    <tag k="name" v="Oxclose Road"/>
    <tag k="surface" v="asphalt"/>
  </way>
  <way id="272308982" version="3" timestamp="2021-11-12T17:17:32Z" changeset="113705168" uid="3316592" user="Arthtoach">
    <nd ref="2772560687"/>
    <nd ref="2772560698"/>
    <nd ref="9246178989"/>
    <nd ref="9246178991"/>
    <nd ref="9246178992"/>
    <nd ref="9246575462"/>
    <nd ref="9246178990"/>
    <nd ref="9246178988"/>
    <nd ref="2772560708"/>
    <nd ref="2772560728"/>
    <tag k="highway" v="residential"/>
    <tag k="surface" v="asphalt"/>
  </way>
  <way id="298834512" version="3" timestamp="2023-03-22T19:18:26Z" changeset="133993093" uid="3316592" user="Arthtoach">
    <nd ref="3027880074"/>
    <nd ref="10754212978"/>
    <nd ref="10754212979"/>
    <nd ref="3027880072"/>
    <nd ref="3027880073"/>
    <nd ref="3027880071"/>
    <nd ref="10754212980"/>
    <nd ref="10754212981"/>
    <nd ref="3027880074"/>
    <tag k="addr:housenumber" v="67"/>
    <tag k="addr:street" v="Green Lane"/>
    <tag k="building" v="house"/>
  </way>
  <way id="304746290" version="7" timestamp="2022-07-11T17:39:25Z" changeset="123485488" uid="3316592" user="Arthtoach">
    <nd ref="345178241"/>
    <nd ref="1981162082"/>
    <nd ref="9881539517"/>
    <nd ref="1981162074"/>
    <nd ref="1977763848"/>
    <nd ref="908258094"/>
    <nd ref="1983515658"/>
    <nd ref="9881539511"/>
    <nd ref="908257901"/>
    <nd ref="908257704"/>
    <nd ref="9881539509"/>
    <nd ref="29581601"/>
    <nd ref="7908758442"/>
    <nd ref="29581600"/>
    <nd ref="3557381807"/>
    <nd ref="3557381803"/>
    <nd ref="29581599"/>
    <tag k="abutters" v="retail"/>
    <tag k="highway" v="primary"/>
    <tag k="lanes" v="2"/>
    <tag k="maxspeed" v="30 mph"/>
    <tag k="name" v="High Street"/>
    <tag k="ref" v="A659"/>
    <tag k="source" v="survey"/>
    <tag k="surface" v="asphalt"/>
  </way>
  <way id="501846167" version="2" timestamp="2021-11-12T13:40:54Z" changeset="113697264" uid="3316592" user="Arthtoach">
    <nd ref="4925273590"/>
    <nd ref="9246178936"/>
    <nd ref="9246178935"/>
    <nd ref="9246178934"/>
    <nd ref="9246178933"/>
    <tag k="highway" v="residential"/>
    <tag k="name" v="Oxclose Walk"/>
    <tag k="surface" v="paving_stones"/>
  </way>
  <way id="501846168" version="2" timestamp="2021-11-12T13:40:54Z" changeset="113697264" uid="3316592" user="Arthtoach">
    <nd ref="4925273603"/>
    <nd ref="4925273613"/>
    <nd ref="4925273606"/>
    <nd ref="2772560755"/>
    <tag k="highway" v="residential"/>
    <tag k="name" v="Hampole Way"/>
    <tag k="source:name" v="OS_OpenData_Locator"/>
    <tag k="surface" v="paving_stones"/>
  </way>
  <way id="501846169" version="2" timestamp="2021-11-12T13:40:54Z" changeset="113697264" uid="3316592" user="Arthtoach">
    <nd ref="4925273601"/>
    <nd ref="4925273600"/>
    <tag k="highway" v="residential"/>
    <tag k="name" v="Tow Bank Close"/>
    <tag k="surface" v="paving_stones"/>
  </way>
  <way id="501846170" version="3" timestamp="2021-11-12T17:17:32Z" changeset="113705168" uid="3316592" user="Arthtoach">
    <nd ref="4925273614"/>
    <nd ref="4925273600"/>
    <nd ref="4925273597"/>
    <nd ref="9246178944"/>
    <nd ref="9246178945"/>
    <nd ref="4925273608"/>
    <nd ref="4925273604"/>
    <nd ref="2772560782"/>
    <nd ref="9246178970"/>
    <nd ref="9246575490"/>
    <nd ref="9246178969"/>
    <nd ref="9246178968"/>
    <nd ref="2772560769"/>
    <nd ref="9246178971"/>
    <nd ref="4925273589"/>
    <nd ref="9246178958"/>
    <nd ref="9246178959"/>
    <nd ref="9246178960"/>
    <nd ref="9246178963"/>
    <nd ref="9246178961"/>
    <nd ref="9246178962"/>
    <nd ref="9246178964"/>
    <tag k="highway" v="residential"/>
    <tag k="name" v="Hampole Way"/>
    <tag k="surface" v="asphalt"/>
  </way>
  <way id="501846171" version="2" timestamp="2021-11-12T13:40:54Z" changeset="113697264" uid="3316592" user="Arthtoach">
    <nd ref="4925273599"/>
    <nd ref="4925273603"/>
    <tag k="highway" v="residential"/>
    <tag k="name" v="Hampole Road"/>
    <tag k="surface" v="paving_stones"/>
  </way>
  <way id="633012581" version="5" timestamp="2022-10-25T15:37:04Z" changeset="128046008" uid="3316592" user="Arthtoach">
    <nd ref="5975789207"/>
    <nd ref="5975789206"/>
    <nd ref="10128316872"/>
    <nd ref="10128316871"/>
    <nd ref="5975789208"/>
    <nd ref="5975789204"/>
    <nd ref="10128316868"/>
    <nd ref="5975789207"/>
    <tag k="addr:street" v="High Street"/>
    <tag k="amenity" v="pub"/>
    <tag k="building" v="commercial"/>
    <tag k="name" v="The Crown Hotel"/>
  </way>
  <way id="633012582" version="2" timestamp="2023-08-15T19:18:03Z" changeset="139931063" uid="1802093" user="Paul Berry">
    <nd ref="5975789222"/>
    <nd ref="5975789221"/>
    <nd ref="5975789220"/>
    <nd ref="5975789219"/>
    <nd ref="5975789218"/>
    <nd ref="5975789217"/>
    <nd ref="5975789216"/>
    <nd ref="5975789215"/>
    <nd ref="5975789214"/>
    <nd ref="5975789213"/>
    <nd ref="5975789212"/>
    <nd ref="5975789211"/>
    <nd ref="5975789222"/>
    <tag k="addr:city" v="Wetherby"/>
    <tag k="addr:housename" v="Errol House"/>
    <tag k="addr:housenumber" v="155"/>
    <tag k="addr:postcode" v="LS23 6BH"/>
    <tag k="addr:street" v="High Street"/>
    <tag k="addr:suburb" v="Boston Spa"/>
    <tag k="amenity" v="social_facility"/>
    <tag k="building" v="yes"/>
    <tag k="fhrs:id" v="467422"/>
    <tag k="name" v="Errol House"/>
    <tag k="social_facility" v="assisted_living"/>
  </way>
  <way id="671328736" version="5" timestamp="2023-08-15T19:18:03Z" changeset="139931063" uid="1802093" user="Paul Berry">
    <nd ref="9934307664"/>
    <nd ref="9934307667"/>
    <nd ref="9934307666"/>
    <nd ref="9934307662"/>
    <nd ref="9934307665"/>
    <nd ref="6286866435"/>
    <nd ref="6286866432"/>
    <nd ref="6286866433"/>
    <nd ref="6286866434"/>
    <nd ref="9934307663"/>
    <nd ref="9934307664"/>
    <tag k="addr:city" v="Wetherby"/>
    <tag k="addr:housenumber" v="179"/>
    <tag k="addr:postcode" v="LS23 6AA"/>
    <tag k="addr:street" v="High Street"/>
    <tag k="addr:suburb" v="Boston Spa"/>
    <tag k="amenity" v="cafe"/>
    <tag k="building" v="yes"/>
    <tag k="fhrs:id" v="1052960"/>
    <tag k="name" v="Tom Foolery"/>
  </way>
  <way id="671661836" version="4" timestamp="2022-10-27T10:10:17Z" changeset="128121668" uid="3316592" user="Arthtoach">
    <nd ref="6289615901"/>
    <nd ref="6289615902"/>
    <nd ref="10132303783"/>
    <nd ref="6503003286"/>
    <nd ref="6503003287"/>
    <nd ref="6503003288"/>
    <nd ref="9395340822"/>
    <nd ref="6503003289"/>
    <nd ref="6503003286"/>
    <tag k="highway" v="residential"/>
  </way>
  <way id="692671712" version="2" timestamp="2022-10-27T10:10:17Z" changeset="128121668" uid="3316592" user="Arthtoach">
    <nd ref="6503003287"/>
    <nd ref="6503003293"/>
    <tag k="highway" v="residential"/>
  </way>
  <way id="692671713" version="2" timestamp="2022-10-27T10:10:17Z" changeset="128121668" uid="3316592" user="Arthtoach">
    <nd ref="6503003293"/>
    <nd ref="6503003291"/>
    <tag k="access" v="private"/>
    <tag k="highway" v="residential"/>
  </way>
  <way id="693502922" version="5" timestamp="2021-11-12T17:02:41Z" changeset="113704724" uid="3316592" user="Arthtoach">
    <nd ref="6510893916"/>
    <nd ref="6510893917"/>
    <nd ref="6510893918"/>
    <nd ref="6586625020"/>
    <nd ref="6510893920"/>
    <nd ref="6510893921"/>
    <nd ref="8941907847"/>
    <nd ref="8941907855"/>
    <nd ref="8941907848"/>
    <nd ref="9246556971"/>
    <nd ref="8941907849"/>
    <nd ref="8941907850"/>
    <nd ref="9246556970"/>
    <nd ref="8941907851"/>
    <nd ref="8941907853"/>
    <nd ref="8941907854"/>
    <nd ref="8941907852"/>
    <tag k="highway" v="residential"/>
    <tag k="surface" v="asphalt"/>
  </way>
  <way id="693502923" version="2" timestamp="2021-11-12T13:40:54Z" changeset="113697264" uid="3316592" user="Arthtoach">
    <nd ref="6510893922"/>
    <nd ref="9246178927"/>
    <tag k="highway" v="residential"/>
    <tag k="surface" v="paving_stones"/>
  </way>
  <way id="697306027" version="1" timestamp="2019-06-15T11:08:08Z" changeset="71277138" uid="9310284" user="mudunur">
    <nd ref="6549131069"/>
    <nd ref="6549131070"/>
    <tag k="highway" v="residential"/>
  </way>
  <way id="701328629" version="4" timestamp="2021-11-12T17:02:41Z" changeset="113704724" uid="3316592" user="Arthtoach">
    <nd ref="6588855790"/>
    <nd ref="9246556985"/>
    <nd ref="6588855791"/>
    <nd ref="9246556986"/>
    <nd ref="9246556988"/>
    <nd ref="9246556987"/>
    <nd ref="6586625013"/>
    <nd ref="6586625019"/>
    <nd ref="6586625015"/>
    <nd ref="6586625016"/>
    <nd ref="6586625017"/>
    <nd ref="6586625018"/>
    <tag k="highway" v="residential"/>
    <tag k="surface" v="asphalt"/>
  </way>
  <way id="701328630" version="2" timestamp="2021-11-12T13:40:54Z" changeset="113697264" uid="3316592" user="Arthtoach">
    <nd ref="6586625019"/>
    <nd ref="6586625020"/>
    <tag k="highway" v="residential"/>
    <tag k="surface" v="asphalt"/>
  </way>
  <way id="708821369" version="2" timestamp="2023-08-15T19:18:03Z" changeset="139931063" uid="1802093" user="Paul Berry">
    <nd ref="6660650059"/>
    <nd ref="6660650058"/>
    <nd ref="6660650057"/>
    <nd ref="6660650056"/>
    <nd ref="6660650055"/>
    <nd ref="6660650054"/>
    <nd ref="6660650059"/>
    <tag k="addr:city" v="Wetherby"/>
    <tag k="addr:postcode" v="LS23 6DB"/>
    <tag k="addr:street" v="Clifford Road"/>
    <tag k="addr:suburb" v="Boston Spa"/>
    <tag k="amenity" v="kindergarten"/>
    <tag k="building" v="yes"/>
    <tag k="fhrs:id" v="537074"/>
    <tag k="name" v="Twinkles Day Nursery"/>
  </way>
  <way id="737504974" version="3" timestamp="2021-11-12T13:48:22Z" changeset="113697505" uid="3316592" user="Arthtoach">
    <nd ref="908258071"/>
    <nd ref="6904911277"/>
    <nd ref="6904911278"/>
    <nd ref="6904911279"/>
    <nd ref="6904911282"/>
    <nd ref="6904911280"/>
    <nd ref="6904911283"/>
    <nd ref="6904911281"/>
    <nd ref="908258587"/>
    <tag k="highway" v="residential"/>
    <tag k="surface" v="asphalt"/>
  </way>
  <way id="737504975" version="3" timestamp="2021-11-12T13:48:22Z" changeset="113697505" uid="3316592" user="Arthtoach">
    <nd ref="6904911284"/>
    <nd ref="6904922185"/>
    <tag k="highway" v="residential"/>
    <tag k="surface" v="asphalt"/>
  </way>
  <way id="760341239" version="5" timestamp="2023-09-04T07:03:01Z" changeset="140788673" uid="9357577" user="MajaMaravic">
    <nd ref="7102835618"/>
    <nd ref="7102835619"/>
    <nd ref="10132378500"/>
    <nd ref="10132378501"/>
    <nd ref="10132378502"/>
    <nd ref="10132378507"/>
    <nd ref="10132378503"/>
    <nd ref="10132378504"/>
    <nd ref="10132378505"/>
    <nd ref="10132378506"/>
    <nd ref="7102835620"/>
    <nd ref="10132375306"/>
    <nd ref="10132378335"/>
    <nd ref="7102835621"/>
    <nd ref="10132378490"/>
    <nd ref="10132378492"/>
    <nd ref="10132378491"/>
    <nd ref="10132378493"/>
    <nd ref="10132378488"/>
    <nd ref="7102835622"/>
    <nd ref="10132378487"/>
    <nd ref="10132378489"/>
    <nd ref="10132378417"/>
    <nd ref="10132396790"/>
    <nd ref="7102835623"/>
    <nd ref="10132378482"/>
    <nd ref="10132378485"/>
    <nd ref="10132378483"/>
    <nd ref="10132378484"/>
    <nd ref="10132378486"/>
    <nd ref="7102835624"/>
    <tag k="highway" v="residential"/>
    <tag k="name" v="Thwaite Road"/>
    <tag k="surface" v="asphalt"/>
  </way>
  <way id="810796882" version="9" timestamp="2024-06-17T14:09:03Z" changeset="152805446" uid="145231" user="woodpeck_repair">
    <nd ref="330526921"/>
    <nd ref="10759175557"/>
    <nd ref="330526925"/>
    <nd ref="10759175556"/>
    <nd ref="330526929"/>
    <nd ref="1875995192"/>
    <nd ref="330526931"/>
    <nd ref="10759175555"/>
    <nd ref="10759175554"/>
    <nd ref="330526934"/>
    <nd ref="330526937"/>
    <nd ref="10759175553"/>
    <nd ref="10759175552"/>
    <nd ref="330526941"/>
    <nd ref="10759175550"/>
    <nd ref="10759175551"/>
    <nd ref="330526946"/>
    <nd ref="330526950"/>
    <nd ref="330526953"/>
    <nd ref="330526957"/>
    <nd ref="330526959"/>
    <nd ref="1911674378"/>
    <nd ref="330526960"/>
    <nd ref="330526963"/>
    <nd ref="330526965"/>
    <nd ref="330526966"/>
    <nd ref="330526968"/>
    <nd ref="1911674379"/>
    <nd ref="330526969"/>
    <nd ref="330526971"/>
    <nd ref="330526972"/>
    <nd ref="10766939032"/>
    <nd ref="330526974"/>
    <nd ref="330526975"/>
    <tag k="highway" v="tertiary"/>
    <tag k="name" v="Bar Lane"/>
    <tag k="source:name" v="OS_OpenData_Locator"/>
    <tag k="surface" v="asphalt"/>
  </way>
  <way id="810796883" version="8" timestamp="2024-06-17T14:09:02Z" changeset="152805446" uid="145231" user="woodpeck_repair">
    <nd ref="7580672951"/>
    <nd ref="330526921"/>
    <tag k="bridge" v="yes"/>
    <tag k="highway" v="tertiary"/>
    <tag k="layer" v="1"/>
    <tag k="name" v="Bar Lane"/>
    <tag k="source:name" v="OS_OpenData_Locator"/>
    <tag k="surface" v="asphalt"/>
  </way>
  <way id="917127121" version="5" timestamp="2022-10-28T19:16:02Z" changeset="128188221" uid="13666626" user="RedAuburn">
    <nd ref="29581640"/>
    <nd ref="9727645364"/>
    <nd ref="1560077"/>
    <nd ref="9727645370"/>
    <nd ref="1576108697"/>
    <nd ref="1560076"/>
    <nd ref="9727645371"/>
    <nd ref="8518350335"/>
    <tag k="carriageway_ref" v="B"/>
    <tag k="highway" v="motorway"/>
    <tag k="int_ref" v="E 15"/>
    <tag k="lanes" v="3"/>
    <tag k="lit" v="no"/>
    <tag k="maxspeed" v="70 mph"/>
    <tag k="maxspeed:type" v="GB:motorway"/>
    <tag k="national_highways:area" v="DBFO33"/>
    <tag k="oneway" v="yes"/>
    <tag k="operator" v="National Highways"/>
    <tag k="operator:wikidata" v="Q5760006"/>
    <tag k="ref" v="A1(M)"/>
    <tag k="shoulder" v="no"/>
    <tag k="surface" v="asphalt"/>
  </way>
  <way id="917127122" version="5" timestamp="2022-10-28T19:16:02Z" changeset="128188221" uid="13666626" user="RedAuburn">
    <nd ref="8518350335"/>
    <nd ref="9727645380"/>
    <nd ref="1560073"/>
    <nd ref="1576108716"/>
    <nd ref="9727645382"/>
    <nd ref="1560072"/>
    <tag k="carriageway_ref" v="B"/>
    <tag k="highway" v="motorway"/>
    <tag k="int_ref" v="E 15"/>
    <tag k="lanes" v="3"/>
    <tag k="lit" v="no"/>
    <tag k="maxspeed" v="70 mph"/>
    <tag k="maxspeed:type" v="GB:motorway"/>
    <tag k="national_highways:area" v="DBFO33"/>
    <tag k="oneway" v="yes"/>
    <tag k="operator" v="National Highways"/>
    <tag k="operator:wikidata" v="Q5760006"/>
    <tag k="ref" v="A1(M)"/>
    <tag k="shoulder" v="left"/>
    <tag k="surface" v="asphalt"/>
  </way>
  <way id="917127123" version="7" timestamp="2022-10-28T19:16:02Z" changeset="128188221" uid="13666626" user="RedAuburn">
    <nd ref="1560071"/>
    <nd ref="8818783400"/>
    <nd ref="1576108691"/>
    <nd ref="9727645381"/>
    <nd ref="1560069"/>
    <nd ref="8518350336"/>
    <tag k="carriageway_ref" v="A"/>
    <tag k="highway" v="motorway"/>
    <tag k="int_ref" v="E 15"/>
    <tag k="lanes" v="3"/>
    <tag k="lit" v="no"/>
    <tag k="maxspeed" v="70 mph"/>
    <tag k="maxspeed:type" v="GB:motorway"/>
    <tag k="national_highways:area" v="DBFO33"/>
    <tag k="oneway" v="yes"/>
    <tag k="operator" v="National Highways"/>
    <tag k="operator:wikidata" v="Q5760006"/>
    <tag k="ref" v="A1(M)"/>
    <tag k="shoulder" v="left"/>
    <tag k="surface" v="asphalt"/>
  </way>
  <way id="917127124" version="5" timestamp="2022-10-28T19:16:02Z" changeset="128188221" uid="13666626" user="RedAuburn">
    <nd ref="8518350336"/>
    <nd ref="9727645372"/>
    <nd ref="9727645373"/>
    <nd ref="9727645374"/>
    <nd ref="9727645375"/>
    <nd ref="1560066"/>
    <nd ref="1560061"/>
    <nd ref="1326929086"/>
    <nd ref="9727645363"/>
    <nd ref="1326929033"/>
    <tag k="carriageway_ref" v="A"/>
    <tag k="highway" v="motorway"/>
    <tag k="int_ref" v="E 15"/>
    <tag k="lanes" v="3"/>
    <tag k="lit" v="no"/>
    <tag k="maxspeed" v="70 mph"/>
    <tag k="maxspeed:type" v="GB:motorway"/>
    <tag k="national_highways:area" v="DBFO33"/>
    <tag k="oneway" v="yes"/>
    <tag k="operator" v="National Highways"/>
    <tag k="operator:wikidata" v="Q5760006"/>
    <tag k="ref" v="A1(M)"/>
    <tag k="shoulder" v="no"/>
    <tag k="surface" v="asphalt"/>
  </way>
  <way id="953113780" version="5" timestamp="2024-09-05T11:16:07Z" changeset="156225847" uid="6397757" user="TomJeffs">
    <nd ref="1581183040"/>
    <nd ref="1581182858"/>
    <nd ref="4878690366"/>
    <tag k="destination" v="The SOUTH"/>
    <tag k="destination:ref" v="A1(M)"/>
    <tag k="highway" v="motorway_link"/>
    <tag k="lanes" v="1"/>
    <tag k="maxspeed" v="70 mph"/>
    <tag k="maxspeed:type" v="GB:motorway"/>
    <tag k="national_highways:area" v="DBFO33"/>
    <tag k="oneway" v="yes"/>
    <tag k="operator" v="National Highways"/>
    <tag k="operator:wikidata" v="Q5760006"/>
    <tag k="shoulder" v="no"/>
    <tag k="source" v="Bing"/>
    <tag k="surface" v="asphalt"/>
  </way>
  <way id="979394389" version="1" timestamp="2021-09-03T18:38:29Z" changeset="110691664" uid="3316592" user="Arthtoach">
    <nd ref="9060912412"/>
    <nd ref="9060912413"/>
    <tag k="highway" v="residential"/>
    <tag k="name" v="Heath Drive"/>
    <tag k="source" v="OS OpenData StreetView"/>
    <tag k="surface" v="asphalt"/>
  </way>
  <way id="979394390" version="1" timestamp="2021-09-03T18:38:29Z" changeset="110691664" uid="3316592" user="Arthtoach">
    <nd ref="908257732"/>
    <nd ref="908257576"/>
    <nd ref="908257521"/>
    <nd ref="9060912411"/>
    <tag k="highway" v="residential"/>
    <tag k="name" v="Heath Drive"/>
    <tag k="source" v="OS OpenData StreetView"/>
    <tag k="surface" v="asphalt"/>
  </way>
  <way id="979394392" version="1" timestamp="2021-09-03T18:38:29Z" changeset="110691664" uid="3316592" user="Arthtoach">
    <nd ref="9060912414"/>
    <nd ref="908257447"/>
    <nd ref="9060912390"/>
    <nd ref="908258453"/>
    <nd ref="9060912391"/>
    <nd ref="9060912392"/>
    <nd ref="908258005"/>
    <nd ref="908257576"/>
    <tag k="highway" v="residential"/>
    <tag k="name" v="Heath Drive"/>
    <tag k="source" v="OS OpenData StreetView"/>
    <tag k="surface" v="asphalt"/>
  </way>
  <way id="979394393" version="1" timestamp="2021-09-03T18:38:29Z" changeset="110691664" uid="3316592" user="Arthtoach">
    <nd ref="9060912411"/>
    <nd ref="908258051"/>
    <nd ref="9060912410"/>
    <nd ref="9060912409"/>
    <nd ref="6145606456"/>
    <nd ref="9060912408"/>
    <nd ref="9060912407"/>
    <nd ref="6145606457"/>
    <nd ref="9060912412"/>
    <tag k="highway" v="residential"/>
    <tag k="name" v="Heath Drive"/>
    <tag k="sidewalk:left" v="separate"/>
    <tag k="sidewalk:right" v="yes"/>
    <tag k="source" v="OS OpenData StreetView"/>
    <tag k="surface" v="asphalt"/>
  </way>
  <way id="979394396" version="1" timestamp="2021-09-03T18:38:29Z" changeset="110691664" uid="3316592" user="Arthtoach">
    <nd ref="9060926329"/>
    <nd ref="2093264087"/>
    <nd ref="908257363"/>
    <nd ref="908257872"/>
    <tag k="highway" v="residential"/>
    <tag k="name" v="Moor Side"/>
    <tag k="source" v="OS OpenData StreetView"/>
    <tag k="surface" v="asphalt"/>
  </way>
  <way id="979394397" version="1" timestamp="2021-09-03T18:38:29Z" changeset="110691664" uid="3316592" user="Arthtoach">
    <nd ref="9060926330"/>
    <nd ref="908257876"/>
    <nd ref="9060926343"/>
    <nd ref="9060926344"/>
    <nd ref="9060926345"/>
    <nd ref="908258460"/>
    <nd ref="9060926346"/>
    <nd ref="9060926347"/>
    <nd ref="9060926348"/>
    <nd ref="908258012"/>
    <nd ref="9060926329"/>
    <tag k="highway" v="residential"/>
    <tag k="name" v="Moor Side"/>
    <tag k="sidewalk:left" v="separate"/>
    <tag k="sidewalk:right" v="yes"/>
    <tag k="source" v="OS OpenData StreetView"/>
    <tag k="surface" v="asphalt"/>
  </way>
  <way id="979394400" version="1" timestamp="2021-09-03T18:38:29Z" changeset="110691664" uid="3316592" user="Arthtoach">
    <nd ref="9060926386"/>
    <nd ref="908258338"/>
    <tag k="highway" v="residential"/>
    <tag k="name" v="Moor End Gardens"/>
    <tag k="source" v="OS OpenData StreetView"/>
    <tag k="source:name" v="OS_OpenData_Locator"/>
    <tag k="surface" v="asphalt"/>
  </way>
  <way id="1001765855" version="2" timestamp="2021-11-12T17:17:32Z" changeset="113705168" uid="3316592" user="Arthtoach">
    <nd ref="2772560737"/>
    <nd ref="9246575394"/>
    <nd ref="9246178922"/>
    <tag k="highway" v="residential"/>
    <tag k="name" v="Oxclose Road"/>
    <tag k="surface" v="asphalt"/>
  </way>
  <way id="1001765856" version="1" timestamp="2021-11-12T13:40:54Z" changeset="113697264" uid="3316592" user="Arthtoach">
    <nd ref="4925273603"/>
    <nd ref="4925273614"/>
    <tag k="highway" v="residential"/>
    <tag k="name" v="Hampole Way"/>
    <tag k="surface" v="paving_stones"/>
  </way>
  <way id="1001765857" version="1" timestamp="2021-11-12T13:40:54Z" changeset="113697264" uid="3316592" user="Arthtoach">
    <nd ref="4925273598"/>
    <nd ref="4925273590"/>
    <tag k="highway" v="residential"/>
    <tag k="name" v="Oxclose Walk"/>
    <tag k="surface" v="asphalt"/>
  </way>
  <way id="1001765861" version="1" timestamp="2021-11-12T13:40:54Z" changeset="113697264" uid="3316592" user="Arthtoach">
    <nd ref="9246178926"/>
    <nd ref="6510893922"/>
    <nd ref="7998555402"/>
    <tag k="highway" v="residential"/>
    <tag k="name" v="Oxclose Road"/>
    <tag k="surface" v="paving_stones"/>
  </way>
  <way id="1001765863" version="1" timestamp="2021-11-12T13:40:54Z" changeset="113697264" uid="3316592" user="Arthtoach">
    <nd ref="9246178922"/>
    <nd ref="2772560755"/>
    <nd ref="9246178923"/>
    <nd ref="4925273595"/>
    <nd ref="9246178937"/>
    <tag k="highway" v="residential"/>
    <tag k="name" v="Oxclose Road"/>
    <tag k="surface" v="paving_stones"/>
  </way>
  <way id="1001765866" version="1" timestamp="2021-11-12T13:40:54Z" changeset="113697264" uid="3316592" user="Arthtoach">
    <nd ref="9246178965"/>
    <nd ref="2772560752"/>
    <nd ref="9246178964"/>
    <tag k="highway" v="residential"/>
    <tag k="name" v="Hampole Way"/>
    <tag k="surface" v="paving_stones"/>
  </way>
  <way id="1001765867" version="1" timestamp="2021-11-12T13:40:54Z" changeset="113697264" uid="3316592" user="Arthtoach">
    <nd ref="84848647"/>
    <nd ref="9246178957"/>
    <nd ref="2772560735"/>
    <nd ref="9246178965"/>
    <tag k="highway" v="residential"/>
    <tag k="name" v="Hampole Way"/>
    <tag k="surface" v="asphalt"/>
  </way>
  <way id="1001767473" version="1" timestamp="2021-11-12T13:48:22Z" changeset="113697505" uid="3316592" user="Arthtoach">
    <nd ref="9246192650"/>
    <nd ref="9246192649"/>
    <tag k="highway" v="residential"/>
    <tag k="surface" v="asphalt"/>
  </way>
  <way id="1001994902" version="1" timestamp="2021-11-13T10:43:53Z" changeset="113725653" uid="3316592" user="Arthtoach">
    <nd ref="908258105"/>
    <nd ref="9247931108"/>
    <nd ref="9247931107"/>
    <nd ref="908257690"/>
    <tag k="highway" v="residential"/>
    <tag k="name" v="Chaly Fields"/>
    <tag k="source" v="OS OpenData StreetView"/>
    <tag k="surface" v="asphalt"/>
  </way>
  <way id="1077506465" version="1" timestamp="2022-07-10T19:22:08Z" changeset="123444467" uid="3316592" user="Arthtoach">
    <nd ref="9879528263"/>
    <nd ref="9879528262"/>
    <tag k="highway" v="residential"/>
    <tag k="name" v="Hall Mews"/>
    <tag k="surface" v="asphalt"/>
  </way>
  <way id="1098926315" version="1" timestamp="2022-09-29T20:24:33Z" changeset="126797471" uid="4543415" user="The_JF">
    <nd ref="29581599"/>
    <nd ref="1876496851"/>
    <nd ref="908258553"/>
    <nd ref="685970595"/>
    <nd ref="9934307616"/>
    <nd ref="9934307617"/>
    <tag k="abutters" v="retail"/>
    <tag k="highway" v="primary"/>
    <tag k="lanes" v="2"/>
    <tag k="maxspeed" v="20 mph"/>
    <tag k="name" v="High Street"/>
    <tag k="ref" v="A659"/>
    <tag k="source" v="survey"/>
    <tag k="surface" v="asphalt"/>
  </way>
  <way id="1107352127" version="1" timestamp="2022-10-27T10:53:36Z" changeset="128123382" uid="3316592" user="Arthtoach">
    <nd ref="10132378409"/>
    <nd ref="10132378408"/>
    <nd ref="10132378406"/>
    <nd ref="10132378405"/>
    <nd ref="10132378404"/>
    <nd ref="10132378407"/>
    <nd ref="10132378403"/>
    <nd ref="10132378402"/>
    <nd ref="10132378401"/>
    <tag k="highway" v="residential"/>
    <tag k="surface" v="asphalt"/>
  </way>
  <way id="1107354728" version="1" timestamp="2022-10-27T11:07:19Z" changeset="128123951" uid="3316592" user="Arthtoach">
    <nd ref="10132364409"/>
    <nd ref="330526906"/>
    <nd ref="8095428495"/>
    <nd ref="330526907"/>
    <nd ref="330526909"/>
    <nd ref="766859006"/>
    <nd ref="330526910"/>
    <nd ref="330526912"/>
    <nd ref="330526913"/>
    <nd ref="908257708"/>
    <tag k="highway" v="tertiary"/>
    <tag k="name" v="High Street"/>
    <tag k="surface" v="asphalt"/>
  </way>
  <way id="1156126874" version="1" timestamp="2023-03-21T19:19:51Z" changeset="133953701" uid="3316592" user="Arthtoach">
    <nd ref="10751515419"/>
    <nd ref="10751515418"/>
    <tag k="highway" v="residential"/>
    <tag k="name" v="Riverdale Gardens"/>
  </way>
  <way id="1157755547" version="1" timestamp="2023-03-27T18:31:33Z" changeset="134190168" uid="3316592" user="Arthtoach">
    <nd ref="330526975"/>
    <nd ref="10766939031"/>
    <nd ref="29581576"/>
    <nd ref="29581575"/>
    <nd ref="10766939030"/>
    <nd ref="2262973698"/>
    <nd ref="1977057148"/>
    <nd ref="2262973670"/>
    <nd ref="2262973702"/>
    <nd ref="2255337926"/>
    <tag k="highway" v="primary"/>
    <tag k="lanes" v="2"/>
    <tag k="maxspeed" v="60 mph"/>
    <tag k="ref" v="A659"/>
    <tag k="source" v="survey"/>
    <tag k="surface" v="asphalt"/>
  </way>
  <way id="1313467863" version="2" timestamp="2024-09-26T11:46:24Z" changeset="157124548" uid="5229644" user="Nathan_A_RF">
    <nd ref="1581182936"/>
    <nd ref="472344009"/>
    <nd ref="1581182928"/>
    <nd ref="8818783416"/>
    <nd ref="1581182956"/>
    <tag k="destination" v="Wetherby;Otley"/>
    <tag k="destination:ref" v="A659"/>
    <tag k="highway" v="motorway_link"/>
    <tag k="oneway" v="yes"/>
    <tag k="shoulder" v="no"/>
    <tag k="source" v="Bing"/>
    <tag k="surface" v="asphalt"/>
  </way>
  <way id="1313467864" version="2" timestamp="2024-09-26T11:46:24Z" changeset="157124548" uid="5229644" user="Nathan_A_RF">
    <nd ref="1581183038"/>
    <nd ref="4878690369"/>
    <nd ref="1581183040"/>
    <tag k="destination" v="The SOUTH"/>
    <tag k="highway" v="motorway_link"/>
    <tag k="lanes" v="1"/>
    <tag k="oneway" v="yes"/>
    <tag k="shoulder" v="no"/>
    <tag k="source" v="Bing"/>
    <tag k="surface" v="asphalt"/>
  </way>

</osm>
