<?xml version="1.0" encoding="UTF-8"?>
<osm version="0.6" generator="Overpass API 0.7.62.5 1bd436f1">
<note>The data included in this document is from www.openstreetmap.org. The data is made available under ODbL.</note>
<meta osm_base="2025-05-18T01:41:38Z" areas="2024-12-31T00:49:33Z"/>

  <node id="27324643" lat="52.5014677" lon="13.1793095" version="5" timestamp="2024-11-09T20:25:58Z" changeset="158947979" uid="44217" user="kjon"/>
  <node id="29846064" lat="52.4894867" lon="13.1409680" version="3" timestamp="2021-11-27T14:54:27Z" changeset="114297268" uid="10961311" user="StefanHRT"/>
  <node id="259535735" lat="52.5056500" lon="13.1638502" version="12" timestamp="2021-12-17T13:11:51Z" changeset="115056413" uid="2557626" user="fischNchips">
    <tag k="bicycle" v="yes"/>
    <tag k="button_operated" v="yes"/>
    <tag k="crossing" v="traffic_signals"/>
    <tag k="crossing:island" v="no"/>
    <tag k="highway" v="crossing"/>
    <tag k="tactile_paving" v="yes"/>
    <tag k="traffic_signals:sound" v="yes"/>
    <tag k="traffic_signals:vibration" v="yes"/>
  </node>
  <node id="266779227" lat="52.4704286" lon="13.1693694" version="4" timestamp="2019-10-14T12:49:53Z" changeset="75665529" uid="175760" user="famosm"/>
  <way id="7739797" version="11" timestamp="2023-02-27T17:17:39Z" changeset="133096611" uid="2807324" user="bwbuz">
    <nd ref="260822087"/>
    <nd ref="434094808"/>
    <nd ref="395051994"/>
    <nd ref="260822086"/>
    <tag k="highway" v="residential"/>
    <tag k="lit" v="yes"/>
    <tag k="maxspeed" v="30"/>
    <tag k="maxspeed:type" v="DE:zone30"/>
    <tag k="name" v="Am Ortsrand"/>
    <tag k="postal_code" v="14089"/>
    <tag k="smoothness" v="bad"/>
    <tag k="surface" v="compacted"/>
  </way>
  <way id="7740377" version="17" timestamp="2023-02-27T14:04:59Z" changeset="133083060" uid="2807324" user="bwbuz">
    <nd ref="56420493"/>
    <nd ref="7761005252"/>
    <nd ref="56420499"/>
    <nd ref="8484723470"/>
    <nd ref="10159252149"/>
    <nd ref="1369218796"/>
    <nd ref="1369211949"/>
    <nd ref="8852129353"/>
    <nd ref="1369218793"/>
    <nd ref="434104267"/>
    <nd ref="8598544978"/>
    <tag k="highway" v="residential"/>
    <tag k="maxspeed" v="30"/>
    <tag k="maxspeed:type" v="DE:zone30"/>
    <tag k="name" v="Am Kinderdorf"/>
    <tag k="name:etymology:wikidata" v="Q2637467"/>
    <tag k="name:etymology:wikipedia" v="de:Albert-Schweitzer-Kinderdorf"/>
    <tag k="postal_code" v="14089"/>
  </way>
  <way id="7740380" version="14" timestamp="2023-09-16T14:55:27Z" changeset="141346585" uid="7370308" user="Traktorbek">
    <nd ref="11047831720"/>
    <nd ref="56420499"/>
    <nd ref="10946769044"/>
    <nd ref="260281773"/>
    <nd ref="10946769056"/>
    <nd ref="1369218797"/>
    <nd ref="11047831719"/>
    <nd ref="7491768620"/>
    <nd ref="260281774"/>
    <nd ref="11047831718"/>
    <nd ref="260281775"/>
    <nd ref="6248004646"/>
    <nd ref="260281777"/>
    <nd ref="5902132067"/>
    <nd ref="260280730"/>
    <tag k="highway" v="residential"/>
    <tag k="lit" v="yes"/>
    <tag k="maxspeed" v="30"/>
    <tag k="maxspeed:type" v="DE:zone30"/>
    <tag k="name" v="Am Berghang"/>
    <tag k="postal_code" v="14089"/>
    <tag k="source:width" v="ARCore"/>
    <tag k="surface" v="asphalt"/>
    <tag k="width" v="5.8"/>
  </way>
  <way id="7740381" version="12" timestamp="2024-12-04T21:33:17Z" changeset="159934480" uid="44217" user="kjon">
    <nd ref="301784825"/>
    <nd ref="6924341060"/>
    <nd ref="56420493"/>
    <nd ref="6796026535"/>
    <nd ref="56420496"/>
    <tag k="highway" v="residential"/>
    <tag k="lanes" v="1"/>
    <tag k="lit" v="yes"/>
    <tag k="maxspeed" v="30"/>
    <tag k="name" v="Melsunger Straße"/>
    <tag k="name:etymology:wikidata" v="Q552495"/>
    <tag k="postal_code" v="14089"/>
    <tag k="surface" v="paved"/>
  </way>
  <way id="23137192" version="20" timestamp="2022-09-13T18:15:32Z" changeset="126146604" uid="10630643" user="janolezab">
    <nd ref="29846064"/>
    <nd ref="2831327139"/>
    <nd ref="9935553115"/>
    <nd ref="260474360"/>
    <tag k="bicycle" v="use_sidepath"/>
    <tag k="foot" v="use_sidepath"/>
    <tag k="highway" v="primary"/>
    <tag k="lanes" v="2"/>
    <tag k="lit" v="no"/>
    <tag k="maxspeed" v="70"/>
    <tag k="name" v="Potsdamer Chaussee"/>
    <tag k="name:etymology:wikidata" v="Q1711"/>
    <tag k="postal_code" v="14089"/>
    <tag k="ref" v="B 2"/>
    <tag k="shoulder" v="no"/>
    <tag k="smoothness" v="excellent"/>
    <tag k="surface" v="asphalt"/>
  </way>
  <way id="23945258" version="13" timestamp="2023-02-27T17:21:36Z" changeset="133096775" uid="2807324" user="bwbuz">
    <nd ref="259567106"/>
    <nd ref="5538102533"/>
    <tag k="highway" v="residential"/>
    <tag k="lane_markings" v="no"/>
    <tag k="lit" v="yes"/>
    <tag k="maxspeed" v="50"/>
    <tag k="maxspeed:type" v="DE:urban"/>
    <tag k="name" v="Maximilian-Kolbe-Straße"/>
    <tag k="name:etymology:wikidata" v="Q153850"/>
    <tag k="name:etymology:wikipedia" v="de:Maximilian Kolbe"/>
    <tag k="postal_code" v="14089"/>
    <tag k="smoothness" v="excellent"/>
    <tag k="surface" v="asphalt"/>
  </way>
  <way id="24004493" version="14" timestamp="2023-08-01T07:26:03Z" changeset="139284927" uid="9508237" user="momabebra">
    <nd ref="260280734"/>
    <nd ref="7049277236"/>
    <nd ref="6796026508"/>
    <nd ref="27324669"/>
    <tag k="highway" v="residential"/>
    <tag k="lit" v="yes"/>
    <tag k="maxspeed" v="30"/>
    <tag k="name" v="Plievierstraße"/>
    <tag k="name:etymology:wikidata" v="Q77328"/>
    <tag k="postal_code" v="14089"/>
    <tag k="sidewalk:left" v="separate"/>
    <tag k="surface" v="asphalt"/>
  </way>
  <way id="24004627" version="27" timestamp="2024-12-04T21:33:17Z" changeset="159934480" uid="44217" user="kjon">
    <nd ref="10697212030"/>
    <nd ref="7761005250"/>
    <nd ref="7491768622"/>
    <nd ref="8291819055"/>
    <nd ref="7505495291"/>
    <nd ref="260280730"/>
    <nd ref="8332963651"/>
    <nd ref="260280734"/>
    <nd ref="5302562762"/>
    <nd ref="638942987"/>
    <nd ref="12396764136"/>
    <nd ref="6248004985"/>
    <nd ref="11289767494"/>
    <nd ref="1326048798"/>
    <nd ref="1223835035"/>
    <nd ref="11047831727"/>
    <nd ref="6248004988"/>
    <nd ref="10697171587"/>
    <tag k="highway" v="residential"/>
    <tag k="lit" v="yes"/>
    <tag k="maxspeed" v="30"/>
    <tag k="maxspeed:type" v="DE:zone30"/>
    <tag k="name" v="Buchwaldzeile"/>
    <tag k="name:etymology:wikidata" v="Q4421"/>
    <tag k="name:etymology:wikipedia" v="de:Wald"/>
    <tag k="postal_code" v="14089"/>
    <tag k="surface" v="sett"/>
  </way>
  <way id="24004628" version="39" timestamp="2023-08-28T17:17:41Z" changeset="140505364" uid="10961311" user="StefanHRT">
    <nd ref="27324684"/>
    <nd ref="6796026510"/>
    <nd ref="6248004989"/>
    <nd ref="8615036632"/>
    <nd ref="11040177351"/>
    <nd ref="6907920596"/>
    <nd ref="2520792820"/>
    <nd ref="1986163222"/>
    <nd ref="3988411820"/>
    <nd ref="3988411819"/>
    <nd ref="260287954"/>
    <nd ref="260287956"/>
    <nd ref="4428184970"/>
    <nd ref="260287957"/>
    <nd ref="260454848"/>
    <nd ref="301784852"/>
    <nd ref="260470286"/>
    <nd ref="260470287"/>
    <nd ref="301784878"/>
    <nd ref="9288287257"/>
    <nd ref="300667818"/>
    <nd ref="3988411834"/>
    <nd ref="10682918426"/>
    <nd ref="3988411833"/>
    <nd ref="260470288"/>
    <nd ref="3988412314"/>
    <nd ref="7422885668"/>
    <nd ref="260470289"/>
    <nd ref="9288287259"/>
    <nd ref="260470290"/>
    <nd ref="9288287260"/>
    <nd ref="260470291"/>
    <nd ref="2676675246"/>
    <tag k="cycleway:both" v="no"/>
    <tag k="highway" v="unclassified"/>
    <tag k="lane_markings" v="no"/>
    <tag k="maxspeed" v="50"/>
    <tag k="maxspeed:type" v="DE:urban"/>
    <tag k="name" v="Groß-Glienicker Weg"/>
    <tag k="name:etymology:wikidata" v="Q878722"/>
    <tag k="postal_code" v="14089"/>
    <tag k="surface" v="asphalt"/>
  </way>
  <way id="24033646" version="29" timestamp="2021-10-28T14:29:35Z" changeset="113085416" uid="10630643" user="janolezab">
    <nd ref="259567105"/>
    <nd ref="27324663"/>
    <nd ref="3234894752"/>
    <nd ref="6784842816"/>
    <nd ref="27324664"/>
    <nd ref="7242274172"/>
    <nd ref="56420491"/>
    <nd ref="7478413156"/>
    <nd ref="3988412328"/>
    <nd ref="3988411832"/>
    <nd ref="5902132000"/>
    <nd ref="3988411831"/>
    <nd ref="6795984679"/>
    <nd ref="7049277235"/>
    <nd ref="27324669"/>
    <tag k="cycleway" v="separate"/>
    <tag k="highway" v="secondary"/>
    <tag k="lanes" v="2"/>
    <tag k="lit" v="yes"/>
    <tag k="maxspeed" v="50"/>
    <tag k="name" v="Alt-Gatow"/>
    <tag k="name:etymology:wikidata" v="Q515832"/>
    <tag k="name:etymology:wikipedia" v="de:Gatow"/>
    <tag k="postal_code" v="14089"/>
    <tag k="sidewalk" v="separate"/>
    <tag k="surface" v="asphalt"/>
  </way>
  <way id="24033655" version="42" timestamp="2023-08-01T07:25:29Z" changeset="139284927" uid="9508237" user="momabebra">
    <nd ref="27324691"/>
    <nd ref="7504224881"/>
    <nd ref="2752297561"/>
    <nd ref="3476992257"/>
    <nd ref="3476992255"/>
    <nd ref="8477508793"/>
    <nd ref="7473589257"/>
    <nd ref="27324692"/>
    <nd ref="7473589258"/>
    <nd ref="7473589255"/>
    <nd ref="3988411845"/>
    <nd ref="3988411844"/>
    <nd ref="3476992250"/>
    <nd ref="4898356313"/>
    <nd ref="9552107236"/>
    <nd ref="1199958852"/>
    <nd ref="9552107237"/>
    <nd ref="9552107238"/>
    <nd ref="1199957394"/>
    <nd ref="3988411824"/>
    <nd ref="266779227"/>
    <tag k="highway" v="secondary"/>
    <tag k="lanes" v="2"/>
    <tag k="lit" v="yes"/>
    <tag k="maxspeed" v="50"/>
    <tag k="name" v="Kladower Damm"/>
    <tag k="name:etymology:wikidata" v="Q519632"/>
    <tag k="name:etymology:wikipedia" v="de:Berlin-Kladow"/>
    <tag k="postal_code" v="14089"/>
    <tag k="sidewalk:left" v="separate"/>
    <tag k="smoothness" v="good"/>
    <tag k="surface" v="asphalt"/>
  </way>
  <way id="24033673" version="21" timestamp="2025-02-09T17:37:46Z" changeset="162323177" uid="8708244" user="felixeee">
    <nd ref="260648077"/>
    <nd ref="260648078"/>
    <nd ref="260648079"/>
    <nd ref="260648080"/>
    <nd ref="260648081"/>
    <nd ref="260648082"/>
    <nd ref="8615032450"/>
    <tag k="cycleway:both" v="no"/>
    <tag k="highway" v="residential"/>
    <tag k="lit" v="yes"/>
    <tag k="maxspeed" v="50"/>
    <tag k="maxspeed:type" v="DE:urban"/>
    <tag k="name" v="Alt-Gatow"/>
    <tag k="name:etymology:wikidata" v="Q515832"/>
    <tag k="name:etymology:wikipedia" v="de:Gatow"/>
    <tag k="postal_code" v="14089"/>
    <tag k="sidewalk" v="right"/>
    <tag k="surface" v="asphalt"/>
  </way>
  <way id="24049810" version="15" timestamp="2023-02-27T14:09:58Z" changeset="133083060" uid="2807324" user="bwbuz">
    <nd ref="414009347"/>
    <nd ref="8487953858"/>
    <nd ref="9282158328"/>
    <nd ref="260822083"/>
    <tag k="highway" v="residential"/>
    <tag k="lit" v="yes"/>
    <tag k="maxspeed" v="30"/>
    <tag k="maxspeed:type" v="DE:zone30"/>
    <tag k="name" v="Pfirsichweg"/>
    <tag k="name:etymology:wikidata" v="Q13189"/>
    <tag k="oneway" v="yes"/>
    <tag k="oneway:bicycle" v="no"/>
    <tag k="postal_code" v="14089"/>
    <tag k="surface" v="asphalt"/>
  </way>
  <way id="24049811" version="8" timestamp="2023-02-27T14:11:22Z" changeset="133083060" uid="2807324" user="bwbuz">
    <nd ref="260822084"/>
    <nd ref="260822083"/>
    <tag k="highway" v="residential"/>
    <tag k="lit" v="yes"/>
    <tag k="maxspeed" v="30"/>
    <tag k="maxspeed:type" v="DE:zone30"/>
    <tag k="name" v="Bardeyweg"/>
    <tag k="name:etymology:wikidata" v="Q98000162"/>
    <tag k="postal_code" v="14089"/>
  </way>
  <way id="24534606" version="20" timestamp="2023-07-11T10:57:25Z" changeset="138374922" uid="10961311" user="StefanHRT">
    <nd ref="10697111356"/>
    <nd ref="9552107244"/>
    <nd ref="273120747"/>
    <nd ref="9552107246"/>
    <nd ref="9552107247"/>
    <nd ref="6991497591"/>
    <nd ref="5750479671"/>
    <nd ref="273120732"/>
    <tag k="highway" v="residential"/>
    <tag k="maxspeed" v="30"/>
    <tag k="maxspeed:type" v="DE:zone30"/>
    <tag k="name" v="Breitehornweg"/>
    <tag k="postal_code" v="14089"/>
    <tag k="source:maxspeed" v="DE:zone30"/>
    <tag k="surface" v="asphalt"/>
  </way>
  <way id="25095142" version="14" timestamp="2024-11-09T01:31:16Z" changeset="158917028" uid="2927605" user="alamero">
    <nd ref="273120732"/>
    <nd ref="12324842260"/>
    <nd ref="4380283479"/>
    <tag k="highway" v="residential"/>
    <tag k="maxspeed" v="30"/>
    <tag k="maxspeed:type" v="DE:zone30"/>
    <tag k="name" v="Waldschluchtpfad"/>
    <tag k="postal_code" v="14089"/>
    <tag k="source:maxspeed" v="DE:zone30"/>
    <tag k="surface" v="asphalt"/>
  </way>
  <way id="25095143" version="10" timestamp="2024-12-04T21:04:10Z" changeset="159933770" uid="44217" user="kjon">
    <nd ref="273120747"/>
    <nd ref="3040753138"/>
    <nd ref="273120751"/>
    <nd ref="273120752"/>
    <nd ref="273120753"/>
    <nd ref="273120754"/>
    <nd ref="12396732764"/>
    <nd ref="12396732766"/>
    <nd ref="273120755"/>
    <nd ref="12396732760"/>
    <nd ref="273120764"/>
    <nd ref="652427033"/>
    <nd ref="273120765"/>
    <tag k="highway" v="residential"/>
    <tag k="maxspeed" v="30"/>
    <tag k="maxspeed:type" v="DE:zone30"/>
    <tag k="name" v="Im Eulengrund"/>
    <tag k="name:etymology:wikidata" v="Q25222"/>
    <tag k="name:etymology:wikipedia" v="de:Eulen"/>
    <tag k="postal_code" v="14089"/>
    <tag k="source:maxspeed" v="DE:zone30"/>
  </way>
  <way id="25095144" version="12" timestamp="2024-12-04T21:04:10Z" changeset="159933770" uid="44217" user="kjon">
    <nd ref="11455539431"/>
    <nd ref="8982795822"/>
    <nd ref="273120766"/>
    <nd ref="273120767"/>
    <nd ref="12396732769"/>
    <nd ref="12396732768"/>
    <nd ref="273120753"/>
    <tag k="highway" v="residential"/>
    <tag k="maxspeed" v="30"/>
    <tag k="maxspeed:type" v="DE:zone30"/>
    <tag k="name" v="Marquardter Weg"/>
    <tag k="name:etymology:wikidata" v="Q896887"/>
    <tag k="postal_code" v="14089"/>
    <tag k="source:maxspeed" v="DE:zone30"/>
    <tag k="surface" v="asphalt"/>
  </way>
  <way id="25095145" version="7" timestamp="2024-12-04T21:04:10Z" changeset="159933770" uid="44217" user="kjon">
    <nd ref="273120766"/>
    <nd ref="273120768"/>
    <nd ref="12396732767"/>
    <nd ref="273120769"/>
    <nd ref="273120754"/>
    <tag k="highway" v="residential"/>
    <tag k="maxspeed" v="30"/>
    <tag k="maxspeed:type" v="DE:zone30"/>
    <tag k="name" v="Marquardter Weg"/>
    <tag k="name:etymology:wikidata" v="Q896887"/>
    <tag k="postal_code" v="14089"/>
    <tag k="source:maxspeed" v="DE:zone30"/>
  </way>
  <way id="25095146" version="8" timestamp="2024-12-04T21:04:10Z" changeset="159933770" uid="44217" user="kjon">
    <nd ref="273120755"/>
    <nd ref="12396732765"/>
    <nd ref="12396732761"/>
    <nd ref="273120770"/>
    <nd ref="12396732762"/>
    <nd ref="273120771"/>
    <nd ref="12396732763"/>
    <nd ref="273120772"/>
    <nd ref="12396732759"/>
    <nd ref="273120773"/>
    <nd ref="273120774"/>
    <nd ref="11039561167"/>
    <nd ref="273120775"/>
    <tag k="highway" v="residential"/>
    <tag k="lit" v="yes"/>
    <tag k="maxspeed" v="30"/>
    <tag k="maxspeed:type" v="DE:zone30"/>
    <tag k="name" v="Hochwaldsteig"/>
    <tag k="name:etymology:wikidata" v="Q238804"/>
    <tag k="postal_code" v="14089"/>
    <tag k="source:maxspeed" v="DE:zone30"/>
  </way>
  <way id="25095148" version="8" timestamp="2024-12-04T21:04:10Z" changeset="159933770" uid="44217" user="kjon">
    <nd ref="273120776"/>
    <nd ref="273120787"/>
    <nd ref="273120796"/>
    <nd ref="273120772"/>
    <nd ref="12396732748"/>
    <nd ref="273120797"/>
    <nd ref="652427032"/>
    <nd ref="12396732747"/>
    <nd ref="273120798"/>
    <tag k="highway" v="residential"/>
    <tag k="maxspeed" v="30"/>
    <tag k="maxspeed:type" v="DE:zone30"/>
    <tag k="name" v="Am Kiefernhang"/>
    <tag k="name:etymology:wikidata" v="Q12024"/>
    <tag k="name:etymology:wikipedia" v="de:Kiefern"/>
    <tag k="postal_code" v="14089"/>
    <tag k="source:maxspeed" v="DE:zone30"/>
  </way>
  <way id="25095151" version="10" timestamp="2024-12-04T21:04:10Z" changeset="159933770" uid="44217" user="kjon">
    <nd ref="273120804"/>
    <nd ref="273120806"/>
    <nd ref="273120775"/>
    <nd ref="7760902798"/>
    <nd ref="273120807"/>
    <tag k="highway" v="residential"/>
    <tag k="lit" v="yes"/>
    <tag k="maxspeed" v="30"/>
    <tag k="maxspeed:type" v="DE:zone30"/>
    <tag k="name" v="Karlsbergallee"/>
    <tag k="name:etymology:wikidata" v="Q1733899"/>
    <tag k="postal_code" v="14089"/>
    <tag k="source:maxspeed" v="DE:zone30"/>
  </way>
  <way id="25095154" version="10" timestamp="2024-12-04T21:04:10Z" changeset="159933770" uid="44217" user="kjon">
    <nd ref="273120807"/>
    <nd ref="12396732756"/>
    <nd ref="12396732758"/>
    <nd ref="12396732755"/>
    <nd ref="12396732757"/>
    <nd ref="12396732754"/>
    <nd ref="273120810"/>
    <nd ref="12396732752"/>
    <nd ref="12396732751"/>
    <nd ref="12396732750"/>
    <nd ref="12396732749"/>
    <nd ref="12396732790"/>
    <nd ref="11039561168"/>
    <nd ref="273120797"/>
    <tag k="highway" v="residential"/>
    <tag k="lit" v="yes"/>
    <tag k="maxspeed" v="30"/>
    <tag k="maxspeed:type" v="DE:zone30"/>
    <tag k="name" v="Besingweg"/>
    <tag k="name:etymology:wikidata" v="Q5413585"/>
    <tag k="name:etymology:wikipedia" v="de:Heidelbeere"/>
    <tag k="postal_code" v="14089"/>
    <tag k="source:maxspeed" v="DE:zone30"/>
  </way>
  <way id="25095156" version="12" timestamp="2024-12-04T21:04:10Z" changeset="159933770" uid="44217" user="kjon">
    <nd ref="27324692"/>
    <nd ref="414009352"/>
    <nd ref="7473589256"/>
    <nd ref="273120765"/>
    <nd ref="273120825"/>
    <nd ref="12396732746"/>
    <nd ref="273120798"/>
    <nd ref="12396732798"/>
    <nd ref="12396732802"/>
    <nd ref="273120827"/>
    <tag k="highway" v="residential"/>
    <tag k="lit" v="yes"/>
    <tag k="maxspeed" v="30"/>
    <tag k="maxspeed:type" v="DE:zone30"/>
    <tag k="name" v="Hellebergeweg"/>
    <tag k="name:etymology:wikidata" v="Q30758730"/>
    <tag k="postal_code" v="14089"/>
    <tag k="source:maxspeed" v="DE:zone30"/>
    <tag k="surface" v="concrete:plates"/>
  </way>
  <way id="25095158" version="16" timestamp="2024-12-04T21:04:10Z" changeset="159933770" uid="44217" user="kjon">
    <nd ref="273120827"/>
    <nd ref="12396732800"/>
    <nd ref="12396732801"/>
    <nd ref="12396732797"/>
    <nd ref="6744545417"/>
    <nd ref="273120835"/>
    <nd ref="7166207683"/>
    <nd ref="2918572949"/>
    <nd ref="9847815483"/>
    <nd ref="8239838602"/>
    <nd ref="1913664896"/>
    <nd ref="273120836"/>
    <tag k="highway" v="residential"/>
    <tag k="lit" v="yes"/>
    <tag k="maxspeed" v="30"/>
    <tag k="maxspeed:type" v="DE:zone30"/>
    <tag k="name" v="Krielower Weg"/>
    <tag k="name:etymology:wikidata" v="Q1788894"/>
    <tag k="postal_code" v="14089"/>
    <tag k="source:maxspeed" v="DE:zone30"/>
    <tag k="surface" v="ground"/>
  </way>
  <way id="25095159" version="7" timestamp="2023-07-11T10:57:25Z" changeset="138374922" uid="10961311" user="StefanHRT">
    <nd ref="273120835"/>
    <nd ref="273120837"/>
    <nd ref="273120838"/>
    <nd ref="11039561170"/>
    <nd ref="273120839"/>
    <tag k="highway" v="residential"/>
    <tag k="lit" v="yes"/>
    <tag k="maxspeed" v="30"/>
    <tag k="maxspeed:type" v="DE:zone30"/>
    <tag k="name" v="Uetzer Steig"/>
    <tag k="name:etymology:wikidata" v="Q938053"/>
    <tag k="postal_code" v="14089"/>
    <tag k="source:maxspeed" v="DE:zone30"/>
  </way>
  <way id="25095161" version="11" timestamp="2023-07-12T04:12:44Z" changeset="138403348" uid="10961311" user="StefanHRT">
    <nd ref="273120825"/>
    <nd ref="273120839"/>
    <nd ref="6862395970"/>
    <nd ref="6744519950"/>
    <nd ref="11039561172"/>
    <nd ref="11039561173"/>
    <nd ref="11041568671"/>
    <tag k="highway" v="residential"/>
    <tag k="lit" v="yes"/>
    <tag k="maxspeed" v="30"/>
    <tag k="maxspeed:type" v="DE:zone30"/>
    <tag k="name" v="Havelmatensteig"/>
    <tag k="name:etymology:wikidata" v="Q1434274"/>
    <tag k="name:etymology:wikipedia" v="de:Flurname"/>
    <tag k="postal_code" v="14089"/>
    <tag k="source:maxspeed" v="DE:zone30"/>
  </way>
  <way id="25332937" version="9" timestamp="2023-08-01T07:26:50Z" changeset="139284927" uid="9508237" user="momabebra">
    <nd ref="56414772"/>
    <nd ref="276022961"/>
    <nd ref="276022398"/>
    <tag k="highway" v="residential"/>
    <tag k="lit" v="yes"/>
    <tag k="maxspeed" v="30"/>
    <tag k="maxspeed:type" v="DE:zone30"/>
    <tag k="name" v="Gatower Straße"/>
    <tag k="name:etymology:wikidata" v="Q515832"/>
    <tag k="name:etymology:wikipedia" v="de:Gatow"/>
    <tag k="oneway" v="yes"/>
    <tag k="postal_code" v="14089"/>
    <tag k="sidewalk:right" v="separate"/>
  </way>
  <way id="25332938" version="10" timestamp="2024-11-09T20:30:43Z" changeset="158948080" uid="44217" user="kjon">
    <nd ref="276022401"/>
    <nd ref="276022963"/>
    <nd ref="12327444185"/>
    <nd ref="12327444184"/>
    <nd ref="276022962"/>
    <tag k="highway" v="residential"/>
    <tag k="lit" v="yes"/>
    <tag k="maxspeed" v="30"/>
    <tag k="maxspeed:type" v="DE:zone30"/>
    <tag k="name" v="Gatower Straße"/>
    <tag k="name:etymology:wikidata" v="Q515832"/>
    <tag k="name:etymology:wikipedia" v="de:Gatow"/>
    <tag k="oneway" v="yes"/>
    <tag k="postal_code" v="14089"/>
  </way>
  <way id="25377511" version="6" timestamp="2023-02-27T14:14:53Z" changeset="133083060" uid="2807324" user="bwbuz">
    <nd ref="2904395803"/>
    <nd ref="276022412"/>
    <nd ref="2904395010"/>
    <nd ref="2904382011"/>
    <nd ref="276022415"/>
    <nd ref="276022418"/>
    <nd ref="276022427"/>
    <nd ref="276022430"/>
    <nd ref="276022434"/>
    <nd ref="276022437"/>
    <nd ref="9282158383"/>
    <tag k="access" v="yes"/>
    <tag k="highway" v="residential"/>
    <tag k="lit" v="yes"/>
    <tag k="maxspeed" v="30"/>
    <tag k="maxspeed:type" v="DE:zone30"/>
    <tag k="name" v="Rothenbücherweg"/>
    <tag k="postal_code" v="14089"/>
    <tag k="surface" v="paving_stones"/>
  </way>
  <way id="25527290" version="18" timestamp="2022-09-13T18:16:08Z" changeset="126146604" uid="10630643" user="janolezab">
    <nd ref="259567106"/>
    <nd ref="5538100903"/>
    <nd ref="9288287229"/>
    <nd ref="9288287228"/>
    <nd ref="9288287227"/>
    <nd ref="9288287230"/>
    <nd ref="9288287231"/>
    <nd ref="29846063"/>
    <nd ref="7310111250"/>
    <nd ref="7417696962"/>
    <nd ref="9589909196"/>
    <nd ref="29846064"/>
    <tag k="cycleway" v="no"/>
    <tag k="highway" v="primary"/>
    <tag k="lanes" v="2"/>
    <tag k="lit" v="no"/>
    <tag k="maxspeed" v="70"/>
    <tag k="name" v="Potsdamer Chaussee"/>
    <tag k="name:etymology:wikidata" v="Q1711"/>
    <tag k="postal_code" v="14089"/>
    <tag k="ref" v="B 2"/>
    <tag k="shoulder" v="no"/>
    <tag k="sidewalk" v="no"/>
    <tag k="smoothness" v="excellent"/>
    <tag k="surface" v="asphalt"/>
  </way>
  <way id="25527291" version="13" timestamp="2023-02-27T17:21:36Z" changeset="133096775" uid="2807324" user="bwbuz">
    <nd ref="278199680"/>
    <nd ref="7760899033"/>
    <nd ref="6070680598"/>
    <nd ref="6070680604"/>
    <nd ref="6070680601"/>
    <nd ref="259567116"/>
    <nd ref="259567107"/>
    <nd ref="430326125"/>
    <tag k="highway" v="residential"/>
    <tag k="lane_markings" v="no"/>
    <tag k="lit" v="yes"/>
    <tag k="maxspeed" v="50"/>
    <tag k="maxspeed:type" v="DE:urban"/>
    <tag k="name" v="Maximilian-Kolbe-Straße"/>
    <tag k="name:etymology:wikidata" v="Q153850"/>
    <tag k="name:etymology:wikipedia" v="de:Maximilian Kolbe"/>
    <tag k="postal_code" v="14089"/>
    <tag k="smoothness" v="good"/>
    <tag k="surface" v="asphalt"/>
  </way>
  <way id="25620097" version="12" timestamp="2023-07-11T17:53:42Z" changeset="138390529" uid="10961311" user="StefanHRT">
    <nd ref="11040177346"/>
    <nd ref="6744595089"/>
    <nd ref="11040177332"/>
    <tag k="highway" v="residential"/>
    <tag k="maxspeed" v="50"/>
    <tag k="maxspeed:type" v="DE:urban"/>
    <tag k="name" v="Straße 264"/>
    <tag k="postal_code" v="14089"/>
    <tag k="surface" v="unpaved"/>
  </way>
  <way id="33116304" version="30" timestamp="2024-11-09T20:30:43Z" changeset="158948080" uid="44217" user="kjon">
    <nd ref="259544892"/>
    <nd ref="301784547"/>
    <nd ref="259570894"/>
    <nd ref="3988411822"/>
    <nd ref="12327448093"/>
    <nd ref="12327448090"/>
    <nd ref="12327448089"/>
    <nd ref="12327448091"/>
    <nd ref="6909778803"/>
    <nd ref="3988411821"/>
    <nd ref="8710759840"/>
    <nd ref="12327444171"/>
    <nd ref="2904382009"/>
    <nd ref="276022968"/>
    <nd ref="194572815"/>
    <nd ref="6996260463"/>
    <nd ref="2598757013"/>
    <nd ref="650025790"/>
    <nd ref="276022962"/>
    <tag k="cycleway:left" v="no"/>
    <tag k="cycleway:right" v="lane"/>
    <tag k="cycleway:right:lane" v="advisory"/>
    <tag k="highway" v="secondary"/>
    <tag k="lanes" v="2"/>
    <tag k="lit" v="yes"/>
    <tag k="maxspeed" v="50"/>
    <tag k="name" v="Gatower Straße"/>
    <tag k="name:etymology:wikidata" v="Q515832"/>
    <tag k="name:etymology:wikipedia" v="de:Gatow"/>
    <tag k="postal_code" v="14089"/>
    <tag k="sidewalk" v="both"/>
    <tag k="sidewalk:left:bicycle" v="yes"/>
    <tag k="sidewalk:left:surface" v="concrete:plates"/>
    <tag k="sidewalk:right:surface" v="paving_stones"/>
    <tag k="surface" v="asphalt"/>
  </way>
  <way id="33116346" version="14" timestamp="2022-08-06T13:39:42Z" changeset="124562764" uid="10121078" user="klnkengi">
    <nd ref="29846061"/>
    <nd ref="9935588159"/>
    <nd ref="259535775"/>
    <nd ref="259567114"/>
    <nd ref="259567113"/>
    <nd ref="8596210032"/>
    <nd ref="1373916588"/>
    <nd ref="3989990727"/>
    <nd ref="5538100902"/>
    <nd ref="5538100901"/>
    <nd ref="259567106"/>
    <tag k="bicycle" v="use_sidepath"/>
    <tag k="foot" v="use_sidepath"/>
    <tag k="highway" v="primary"/>
    <tag k="lanes" v="2"/>
    <tag k="lit" v="no"/>
    <tag k="maxspeed" v="70"/>
    <tag k="name" v="Potsdamer Chaussee"/>
    <tag k="name:etymology:wikidata" v="Q1711"/>
    <tag k="postal_code" v="14089"/>
    <tag k="ref" v="B 2"/>
    <tag k="surface" v="asphalt"/>
  </way>
  <way id="34403176" version="4" timestamp="2022-06-24T10:27:04Z" changeset="122796429" uid="1497225" user="kartonage">
    <nd ref="2903340333"/>
    <nd ref="435405670"/>
    <nd ref="2903342310"/>
    <nd ref="2903342610"/>
    <nd ref="2903339123"/>
    <nd ref="2903338816"/>
    <nd ref="2903342704"/>
    <nd ref="2903342702"/>
    <nd ref="2903339820"/>
    <nd ref="2903340422"/>
    <nd ref="2903340227"/>
    <nd ref="2903342605"/>
    <nd ref="2903339122"/>
    <nd ref="2903338822"/>
    <nd ref="2903339728"/>
    <nd ref="2903342311"/>
    <nd ref="2903340333"/>
    <tag k="addr:city" v="Berlin"/>
    <tag k="addr:housenumber" v="30"/>
    <tag k="addr:postcode" v="14089"/>
    <tag k="addr:street" v="Am Havelufer"/>
    <tag k="addr:suburb" v="Gatow"/>
    <tag k="building" v="yes"/>
    <tag k="heritage" v="4"/>
    <tag k="heritage:operator" v="lda"/>
    <tag k="lda:criteria" v="Baudenkmal"/>
    <tag k="ref:lda" v="09085574"/>
    <tag k="start_date" v="1919"/>
  </way>
  <way id="37346186" version="4" timestamp="2024-11-12T07:02:35Z" changeset="159037628" uid="66391" user="geozeisig">
    <nd ref="2903332475"/>
    <nd ref="2903331375"/>
    <nd ref="2903335805"/>
    <nd ref="2903335120"/>
    <nd ref="2903334254"/>
    <nd ref="3035080886"/>
    <nd ref="2903334162"/>
    <nd ref="2903334176"/>
    <nd ref="2903332475"/>
    <tag k="addr:city" v="Berlin"/>
    <tag k="addr:country" v="DE"/>
    <tag k="addr:housenumber" v="21"/>
    <tag k="addr:postcode" v="14089"/>
    <tag k="addr:street" v="Rothenbücherweg"/>
    <tag k="addr:suburb" v="Gatow"/>
    <tag k="building" v="yes"/>
    <tag k="heritage" v="4"/>
    <tag k="heritage:operator" v="lda"/>
    <tag k="lda:criteria" v="Baudenkmal"/>
    <tag k="ref:lda" v="09085457"/>
    <tag k="source" v="Geoportal Berlin / Hauskoordinaten"/>
    <tag k="start_date" v="1900"/>
  </way>
  <way id="37638501" version="11" timestamp="2023-08-28T17:17:41Z" changeset="140505364" uid="10961311" user="StefanHRT">
    <nd ref="10697151427"/>
    <nd ref="278134954"/>
    <nd ref="3988411843"/>
    <tag k="highway" v="residential"/>
    <tag k="maxspeed" v="20"/>
    <tag k="maxspeed:type" v="sign"/>
    <tag k="name" v="Groß-Glienicker Weg"/>
    <tag k="name:etymology:wikidata" v="Q878722"/>
    <tag k="postal_code" v="14089"/>
    <tag k="surface" v="asphalt"/>
    <tag k="traffic_sign" v="DE:250,1020-30"/>
    <tag k="vehicle" v="destination"/>
  </way>
  <way id="37638502" version="12" timestamp="2021-04-10T14:26:18Z" changeset="102701153" uid="10121078" user="klnkengi">
    <nd ref="27324672"/>
    <nd ref="2854855103"/>
    <nd ref="27324674"/>
    <nd ref="2854855101"/>
    <nd ref="27324676"/>
    <nd ref="2854855002"/>
    <nd ref="27324682"/>
    <nd ref="3988411812"/>
    <nd ref="2854855001"/>
    <nd ref="260647891"/>
    <tag k="cycleway:left" v="lane"/>
    <tag k="highway" v="secondary"/>
    <tag k="lit" v="yes"/>
    <tag k="maxspeed" v="50"/>
    <tag k="maxspeed:conditional" v="30 @ (Mo-Fr 06:00-18:00)"/>
    <tag k="name" v="Alt-Gatow"/>
    <tag k="name:etymology:wikidata" v="Q515832"/>
    <tag k="name:etymology:wikipedia" v="de:Gatow"/>
    <tag k="postal_code" v="14089"/>
    <tag k="sidewalk" v="separate"/>
    <tag k="surface" v="asphalt"/>
  </way>
  <way id="37638503" version="35" timestamp="2024-12-01T10:00:24Z" changeset="159799816" uid="44217" user="kjon">
    <nd ref="266779227"/>
    <nd ref="3988411823"/>
    <nd ref="7503845210"/>
    <nd ref="300662681"/>
    <nd ref="3988411826"/>
    <nd ref="6744207212"/>
    <nd ref="3988411825"/>
    <nd ref="320030867"/>
    <nd ref="432469227"/>
    <nd ref="3988411842"/>
    <nd ref="6705173775"/>
    <nd ref="1369666639"/>
    <nd ref="248181045"/>
    <nd ref="27324695"/>
    <nd ref="3988411841"/>
    <nd ref="3988411851"/>
    <nd ref="27324696"/>
    <nd ref="3535283847"/>
    <nd ref="3988411850"/>
    <nd ref="248181058"/>
    <nd ref="12387834170"/>
    <nd ref="12387834168"/>
    <nd ref="12387834169"/>
    <nd ref="413998381"/>
    <nd ref="3598106020"/>
    <nd ref="3808587509"/>
    <nd ref="27324697"/>
    <tag k="highway" v="secondary"/>
    <tag k="lanes" v="2"/>
    <tag k="lit" v="yes"/>
    <tag k="maxspeed" v="50"/>
    <tag k="name" v="Kladower Damm"/>
    <tag k="name:etymology:wikidata" v="Q519632"/>
    <tag k="name:etymology:wikipedia" v="de:Berlin-Kladow"/>
    <tag k="postal_code" v="14089"/>
    <tag k="sidewalk:left" v="separate"/>
    <tag k="sidewalk:right" v="yes"/>
    <tag k="smoothness" v="good"/>
    <tag k="surface" v="asphalt"/>
  </way>
  <way id="38282494" version="13" timestamp="2025-03-01T14:53:53Z" changeset="163091119" uid="44217" user="kjon">
    <nd ref="259535735"/>
    <nd ref="12628535796"/>
    <nd ref="259535762"/>
    <nd ref="3825037782"/>
    <nd ref="9935588156"/>
    <nd ref="29846061"/>
    <tag k="bicycle" v="use_sidepath"/>
    <tag k="cycleway:left" v="separate"/>
    <tag k="foot" v="use_sidepath"/>
    <tag k="highway" v="primary"/>
    <tag k="lanes" v="2"/>
    <tag k="lit" v="no"/>
    <tag k="maxspeed" v="70"/>
    <tag k="name" v="Potsdamer Chaussee"/>
    <tag k="name:etymology:wikidata" v="Q1711"/>
    <tag k="postal_code" v="13593"/>
    <tag k="ref" v="B 2"/>
    <tag k="shoulder" v="no"/>
    <tag k="sidewalk:left" v="separate"/>
    <tag k="sidewalk:right" v="no"/>
    <tag k="smoothness" v="excellent"/>
    <tag k="surface" v="asphalt"/>
  </way>
  <way id="38436984" version="5" timestamp="2023-02-15T09:29:47Z" changeset="132572470" uid="8970395" user="!MRGBoss">
    <nd ref="454412690"/>
    <nd ref="454412696"/>
    <nd ref="454412699"/>
    <nd ref="454412702"/>
    <nd ref="454412690"/>
    <tag k="building" v="yes"/>
    <tag k="contact:website" v="https://spandau.dlrg.de"/>
    <tag k="emergency" v="lifeguard"/>
    <tag k="emergency_service" v="water"/>
    <tag k="name" v="Wasserrettungsstation Große Badewiese"/>
    <tag k="operator" v="Deutsche Lebens-Rettungs-Gesellschaft"/>
    <tag k="operator:short" v="DLRG"/>
    <tag k="operator:wikidata" v="Q871679"/>
  </way>
  <way id="48230567" version="9" timestamp="2024-11-09T20:30:43Z" changeset="158948080" uid="44217" user="kjon">
    <nd ref="260822086"/>
    <nd ref="395051978"/>
    <nd ref="434079892"/>
    <nd ref="7760776498"/>
    <nd ref="9282158354"/>
    <nd ref="434079888"/>
    <nd ref="7760776496"/>
    <nd ref="413426931"/>
    <nd ref="276022395"/>
    <nd ref="276022398"/>
    <nd ref="276022401"/>
    <nd ref="12327444187"/>
    <nd ref="2904395706"/>
    <nd ref="2904395906"/>
    <nd ref="276022405"/>
    <nd ref="276022409"/>
    <nd ref="2904395803"/>
    <tag k="highway" v="residential"/>
    <tag k="lit" v="yes"/>
    <tag k="maxspeed" v="30"/>
    <tag k="maxspeed:type" v="DE:zone30"/>
    <tag k="name" v="Rothenbücherweg"/>
    <tag k="postal_code" v="14089"/>
    <tag k="surface" v="paving_stones"/>
  </way>
  <way id="48230572" version="5" timestamp="2023-02-27T14:11:16Z" changeset="133083060" uid="2807324" user="bwbuz">
    <nd ref="260822083"/>
    <nd ref="260822088"/>
    <tag k="highway" v="residential"/>
    <tag k="lit" v="yes"/>
    <tag k="maxspeed" v="30"/>
    <tag k="maxspeed:type" v="DE:zone30"/>
    <tag k="name" v="Bardeyweg"/>
    <tag k="name:etymology:wikidata" v="Q98000162"/>
    <tag k="postal_code" v="14089"/>
  </way>
  <way id="48230573" version="7" timestamp="2023-02-27T17:14:57Z" changeset="133096498" uid="2807324" user="bwbuz">
    <nd ref="27324660"/>
    <nd ref="414009347"/>
    <tag k="highway" v="residential"/>
    <tag k="lit" v="yes"/>
    <tag k="maxspeed" v="50"/>
    <tag k="maxspeed:type" v="DE:urban"/>
    <tag k="name" v="Pfirsichweg"/>
    <tag k="name:etymology:wikidata" v="Q13189"/>
    <tag k="oneway" v="yes"/>
    <tag k="oneway:bicycle" v="no"/>
    <tag k="postal_code" v="14089"/>
  </way>
  <way id="48230574" version="4" timestamp="2023-02-27T14:12:14Z" changeset="133083060" uid="2807324" user="bwbuz">
    <nd ref="260822084"/>
    <nd ref="434094793"/>
    <nd ref="434094796"/>
    <nd ref="434094806"/>
    <nd ref="260822086"/>
    <tag k="highway" v="residential"/>
    <tag k="lit" v="yes"/>
    <tag k="maxspeed" v="30"/>
    <tag k="maxspeed:type" v="DE:zone30"/>
    <tag k="name" v="Rothenbücherweg"/>
    <tag k="postal_code" v="14089"/>
    <tag k="smoothness" v="bad"/>
    <tag k="surface" v="asphalt"/>
  </way>
  <way id="50981254" version="4" timestamp="2024-11-12T07:02:35Z" changeset="159037628" uid="66391" user="geozeisig">
    <nd ref="2903330798"/>
    <nd ref="2903332441"/>
    <nd ref="2903330785"/>
    <nd ref="2903330778"/>
    <nd ref="2903334227"/>
    <nd ref="2903330775"/>
    <nd ref="2903330773"/>
    <nd ref="2903334117"/>
    <nd ref="2903331347"/>
    <nd ref="2903331271"/>
    <nd ref="2903334318"/>
    <nd ref="2903332422"/>
    <nd ref="2903330760"/>
    <nd ref="2903330768"/>
    <nd ref="2903334112"/>
    <nd ref="2903334211"/>
    <nd ref="2903334212"/>
    <nd ref="2903334122"/>
    <nd ref="2903334213"/>
    <nd ref="2903334217"/>
    <nd ref="2903334123"/>
    <nd ref="2903334223"/>
    <nd ref="2903330774"/>
    <nd ref="2903330681"/>
    <nd ref="2903332434"/>
    <nd ref="2903334124"/>
    <nd ref="2903331354"/>
    <nd ref="2903331356"/>
    <nd ref="2903330791"/>
    <nd ref="2903334136"/>
    <nd ref="2903334324"/>
    <nd ref="2903330793"/>
    <nd ref="2903330795"/>
    <nd ref="2903330685"/>
    <nd ref="2903330687"/>
    <nd ref="2903334142"/>
    <nd ref="2903330798"/>
    <tag k="addr:city" v="Berlin"/>
    <tag k="addr:housenumber" v="2"/>
    <tag k="addr:postcode" v="14089"/>
    <tag k="addr:street" v="Rothenbücherweg"/>
    <tag k="addr:suburb" v="Gatow"/>
    <tag k="building" v="yes"/>
  </way>
  <way id="50981255" version="5" timestamp="2024-11-12T07:02:35Z" changeset="159037628" uid="66391" user="geozeisig">
    <nd ref="2903335146"/>
    <nd ref="2903331283"/>
    <nd ref="2903335142"/>
    <nd ref="2903331075"/>
    <nd ref="2903335135"/>
    <nd ref="3035082460"/>
    <nd ref="2903335130"/>
    <nd ref="2903335806"/>
    <nd ref="2903335807"/>
    <nd ref="2903334328"/>
    <nd ref="2903332461"/>
    <nd ref="2903334172"/>
    <nd ref="2903332480"/>
    <nd ref="2903335823"/>
    <nd ref="2903334333"/>
    <nd ref="2903331076"/>
    <nd ref="2903336609"/>
    <nd ref="2903331084"/>
    <nd ref="2903335149"/>
    <nd ref="2903335640"/>
    <nd ref="2903331086"/>
    <nd ref="2903331083"/>
    <nd ref="2903335146"/>
    <tag k="addr:city" v="Berlin"/>
    <tag k="addr:country" v="DE"/>
    <tag k="addr:housenumber" v="4"/>
    <tag k="addr:postcode" v="14089"/>
    <tag k="addr:street" v="Rothenbücherweg"/>
    <tag k="addr:suburb" v="Gatow"/>
    <tag k="building" v="yes"/>
    <tag k="source" v="Geoportal Berlin / Hauskoordinaten"/>
  </way>
  <way id="50981644" version="8" timestamp="2025-03-22T12:52:56Z" changeset="163946205" uid="449980" user="mahundt">
    <nd ref="650028513"/>
    <nd ref="650028510"/>
    <nd ref="650028504"/>
    <nd ref="1369211946"/>
    <nd ref="2854718935"/>
    <nd ref="650028513"/>
    <tag k="addr:city" v="Berlin"/>
    <tag k="addr:country" v="DE"/>
    <tag k="addr:housenumber" v="23"/>
    <tag k="addr:postcode" v="14089"/>
    <tag k="addr:street" v="Am Kinderdorf"/>
    <tag k="addr:suburb" v="Gatow"/>
    <tag k="amenity" v="school"/>
    <tag k="building" v="yes"/>
    <tag k="building:levels" v="2"/>
    <tag k="name" v="Grundschule am Windmühlenberg"/>
    <tag k="ref" v="05G24"/>
    <tag k="source" v="Geoportal Berlin / Hauskoordinaten"/>
    <tag k="website" v="https://schuleamwindmuehlenberg.de"/>
  </way>
  <way id="51138437" version="8" timestamp="2023-07-15T17:45:05Z" changeset="138553934" uid="10961311" user="StefanHRT">
    <nd ref="8598544978"/>
    <nd ref="8598544996"/>
    <nd ref="9850634252"/>
    <nd ref="6248004623"/>
    <nd ref="6248004988"/>
    <tag k="highway" v="residential"/>
    <tag k="maxspeed" v="30"/>
    <tag k="maxspeed:type" v="DE:zone30"/>
    <tag k="name" v="Weiter Blick"/>
    <tag k="postal_code" v="14089"/>
    <tag k="surface" v="paving_stones"/>
    <tag k="traffic_sign" v="DE:250,1020-30"/>
    <tag k="vehicle" v="destination"/>
  </way>
  <way id="51138968" version="8" timestamp="2023-07-11T10:57:25Z" changeset="138374922" uid="10961311" user="StefanHRT">
    <nd ref="11039561169"/>
    <nd ref="652427033"/>
    <tag k="highway" v="residential"/>
    <tag k="maxspeed" v="30"/>
    <tag k="maxspeed:type" v="DE:zone30"/>
    <tag k="name" v="Hellebergeplatz"/>
    <tag k="name:etymology:wikidata" v="Q30758730"/>
    <tag k="smoothness" v="very_bad"/>
    <tag k="source:maxspeed" v="DE:zone30"/>
    <tag k="surface" v="dirt"/>
  </way>
  <way id="60219329" version="17" timestamp="2024-11-12T07:02:36Z" changeset="159037628" uid="66391" user="geozeisig">
    <nd ref="747991173"/>
    <nd ref="747990860"/>
    <nd ref="5302562792"/>
    <nd ref="5302562793"/>
    <nd ref="5302562794"/>
    <nd ref="5302562789"/>
    <nd ref="5302562788"/>
    <nd ref="5302562786"/>
    <nd ref="5302562787"/>
    <nd ref="5302562790"/>
    <nd ref="747991141"/>
    <nd ref="5302562795"/>
    <nd ref="5302562781"/>
    <nd ref="5302562791"/>
    <nd ref="5302562779"/>
    <nd ref="747991046"/>
    <nd ref="5302562784"/>
    <nd ref="5302562785"/>
    <nd ref="5302562783"/>
    <nd ref="5302562782"/>
    <nd ref="747991173"/>
    <tag k="addr:city" v="Berlin"/>
    <tag k="addr:housenumber" v="50"/>
    <tag k="addr:postcode" v="14089"/>
    <tag k="addr:street" v="Alt-Gatow"/>
    <tag k="addr:suburb" v="Gatow"/>
    <tag k="brand" v="Netto Marken-Discount"/>
    <tag k="brand:wikidata" v="Q879858"/>
    <tag k="brand:wikipedia" v="de:Netto Marken-Discount"/>
    <tag k="building" v="retail"/>
    <tag k="building:levels" v="2"/>
    <tag k="check_date:opening_hours" v="2024-06-16"/>
    <tag k="name" v="Netto Marken-Discount"/>
    <tag k="opening_hours" v="Mo-Sa 07:00-21:00"/>
    <tag k="payment:cash" v="yes"/>
    <tag k="payment:credit_cards" v="yes"/>
    <tag k="payment:mastercard" v="yes"/>
    <tag k="roof:levels" v="1"/>
    <tag k="shop" v="supermarket"/>
    <tag k="toilets:wheelchair" v="no"/>
    <tag k="website" v="https://www.netto-online.de/filialen/Berlin-Spandau/Alt-Gatow-48-50/7753/"/>
    <tag k="wheelchair" v="yes"/>
  </way>
  <way id="117765483" version="2" timestamp="2023-11-04T23:44:03Z" changeset="143633695" uid="9451067" user="b-jazz-bot">
    <nd ref="1326048799"/>
    <nd ref="1326048785"/>
    <nd ref="1326048791"/>
    <nd ref="1326048793"/>
    <nd ref="1326048799"/>
    <tag k="building" v="yes"/>
    <tag k="name" v="Vierfelderhof"/>
    <tag k="website" v="https://www.vierfelderhof.de/"/>
  </way>
  <way id="117765488" version="9" timestamp="2023-08-28T17:17:41Z" changeset="140505364" uid="10961311" user="StefanHRT">
    <nd ref="260470292"/>
    <nd ref="260470293"/>
    <nd ref="9288287261"/>
    <nd ref="9288287264"/>
    <nd ref="260470294"/>
    <nd ref="9288287263"/>
    <nd ref="10697151427"/>
    <tag k="highway" v="unclassified"/>
    <tag k="maxspeed" v="50"/>
    <tag k="maxspeed:type" v="DE:urban"/>
    <tag k="name" v="Groß-Glienicker Weg"/>
    <tag k="name:etymology:wikidata" v="Q878722"/>
    <tag k="postal_code" v="14089"/>
    <tag k="surface" v="asphalt"/>
    <tag k="traffic_sign" v="DE:250,1020-30"/>
    <tag k="vehicle" v="destination"/>
  </way>
  <way id="117765489" version="11" timestamp="2024-06-17T15:17:05Z" changeset="152807680" uid="21641717" user="KUNO PASCHUNKE">
    <nd ref="2854755461"/>
    <nd ref="1326048807"/>
    <nd ref="5902107795"/>
    <nd ref="5902107794"/>
    <nd ref="1326048803"/>
    <nd ref="5902107796"/>
    <nd ref="5902107797"/>
    <nd ref="5902107798"/>
    <nd ref="5902107799"/>
    <nd ref="1326048792"/>
    <nd ref="5902107800"/>
    <nd ref="1397159572"/>
    <nd ref="2854755461"/>
    <tag k="addr:city" v="Berlin"/>
    <tag k="addr:country" v="DE"/>
    <tag k="addr:housenumber" v="32"/>
    <tag k="addr:postcode" v="14089"/>
    <tag k="addr:street" v="Alt-Gatow"/>
    <tag k="addr:suburb" v="Gatow"/>
    <tag k="amenity" v="place_of_worship"/>
    <tag k="building" v="church"/>
    <tag k="check_date" v="2024-06-17"/>
    <tag k="contact:email" v="gemeindebuero@dorfkirche-gatow.de"/>
    <tag k="contact:phone" v="+49 30 3618095"/>
    <tag k="contact:website" v="https://dorfkirchengemeinde-gatow-de.jimdo.com/"/>
    <tag k="denomination" v="protestant"/>
    <tag k="heritage" v="4"/>
    <tag k="heritage:operator" v="lda"/>
    <tag k="lda:criteria" v="Baudenkmal"/>
    <tag k="name" v="Dorfkirche Gatow"/>
    <tag k="operator" v="Evangelische Dorfkirchengemeinde Gatow"/>
    <tag k="ref:lda" v="09080621"/>
    <tag k="religion" v="christian"/>
    <tag k="seamark:landmark:category" v="tower"/>
    <tag k="seamark:landmark:conspicuity" v="conspicuous"/>
    <tag k="seamark:landmark:function" v="church"/>
    <tag k="seamark:type" v="landmark"/>
    <tag k="start_date" v="1301"/>
    <tag k="wikidata" v="Q1244292"/>
    <tag k="wikipedia" v="de:Dorfkirche Gatow"/>
  </way>
  <way id="123046107" version="10" timestamp="2021-10-28T15:03:56Z" changeset="113085416" uid="10630643" user="janolezab">
    <nd ref="27324660"/>
    <nd ref="3234894756"/>
    <nd ref="4389414285"/>
    <nd ref="4389414397"/>
    <nd ref="4389414392"/>
    <nd ref="259567105"/>
    <tag k="cycleway" v="separate"/>
    <tag k="highway" v="secondary"/>
    <tag k="lanes" v="2"/>
    <tag k="lit" v="yes"/>
    <tag k="maxspeed" v="50"/>
    <tag k="name" v="Gatower Straße"/>
    <tag k="name:etymology:wikidata" v="Q515832"/>
    <tag k="name:etymology:wikipedia" v="de:Gatow"/>
    <tag k="postal_code" v="14089"/>
    <tag k="sidewalk" v="separate"/>
    <tag k="surface" v="asphalt"/>
  </way>
  <way id="125542247" version="2" timestamp="2014-05-24T06:18:05Z" changeset="22517210" uid="10549" user="toaster">
    <nd ref="1394080223"/>
    <nd ref="1394080248"/>
    <nd ref="1394080112"/>
    <nd ref="1394080102"/>
    <nd ref="1394080124"/>
    <nd ref="1394080106"/>
    <nd ref="1394080152"/>
    <nd ref="1394080166"/>
    <nd ref="1394080223"/>
    <tag k="building" v="hospital"/>
    <tag k="name" v="Haus 14"/>
  </way>
  <way id="125542248" version="2" timestamp="2014-05-24T06:18:05Z" changeset="22517210" uid="10549" user="toaster">
    <nd ref="1394080374"/>
    <nd ref="1394080359"/>
    <nd ref="1394080349"/>
    <nd ref="1394080376"/>
    <nd ref="1394080393"/>
    <nd ref="1394080377"/>
    <nd ref="1394080374"/>
    <tag k="building" v="hospital"/>
    <tag k="name" v="Haus 8"/>
  </way>
  <way id="125542250" version="3" timestamp="2017-04-22T22:10:21Z" changeset="48046249" uid="5715884" user="virpone">
    <nd ref="1394080367"/>
    <nd ref="1394080332"/>
    <nd ref="1394080302"/>
    <nd ref="1394080342"/>
    <nd ref="1394080367"/>
    <tag k="building" v="hospital"/>
    <tag k="building:levels" v="2"/>
    <tag k="name" v="Haus 4"/>
    <tag k="roof:levels" v="0"/>
  </way>
  <way id="125542251" version="2" timestamp="2014-05-24T06:18:06Z" changeset="22517210" uid="10549" user="toaster">
    <nd ref="1394080131"/>
    <nd ref="1394080127"/>
    <nd ref="1394080066"/>
    <nd ref="1394080077"/>
    <nd ref="1394080131"/>
    <tag k="building" v="yes"/>
    <tag k="name" v="19"/>
  </way>
  <way id="125542252" version="2" timestamp="2014-05-24T06:18:05Z" changeset="22517210" uid="10549" user="toaster">
    <nd ref="2877251761"/>
    <nd ref="1394080112"/>
    <nd ref="1394080080"/>
    <nd ref="2877251759"/>
    <nd ref="2877251761"/>
    <tag k="building" v="hospital"/>
    <tag k="name" v="Haus 2"/>
  </way>
  <way id="125542253" version="2" timestamp="2014-05-24T06:18:05Z" changeset="22517210" uid="10549" user="toaster">
    <nd ref="1394080046"/>
    <nd ref="1394080042"/>
    <nd ref="1394080061"/>
    <nd ref="1394080102"/>
    <nd ref="1394080046"/>
    <tag k="building" v="hospital"/>
    <tag k="name" v="Haus 3"/>
  </way>
  <way id="125542254" version="2" timestamp="2014-05-24T06:18:06Z" changeset="22517210" uid="10549" user="toaster">
    <nd ref="1394080132"/>
    <nd ref="1394080108"/>
    <nd ref="1394080084"/>
    <nd ref="1394080104"/>
    <nd ref="1394080132"/>
    <tag k="building" v="yes"/>
    <tag k="name" v="19a"/>
  </way>
  <way id="125542258" version="2" timestamp="2014-05-24T06:18:05Z" changeset="22517210" uid="10549" user="toaster">
    <nd ref="1394080392"/>
    <nd ref="1394080394"/>
    <nd ref="1394080391"/>
    <nd ref="1394080389"/>
    <nd ref="1394080392"/>
    <tag k="building" v="yes"/>
    <tag k="name" v="Haus 16"/>
  </way>
  <way id="125542259" version="2" timestamp="2014-05-24T06:18:06Z" changeset="22517210" uid="10549" user="toaster">
    <nd ref="1394080184"/>
    <nd ref="1394080171"/>
    <nd ref="1394080134"/>
    <nd ref="1394080148"/>
    <nd ref="1394080184"/>
    <tag k="building" v="yes"/>
    <tag k="name" v="18"/>
  </way>
  <way id="125542260" version="2" timestamp="2014-05-24T06:18:05Z" changeset="22517210" uid="10549" user="toaster">
    <nd ref="1394080266"/>
    <nd ref="1394080201"/>
    <nd ref="1394080129"/>
    <nd ref="1394080223"/>
    <nd ref="1394080266"/>
    <tag k="building" v="hospital"/>
    <tag k="name" v="Haus 6"/>
  </way>
  <way id="125542261" version="4" timestamp="2018-04-10T06:06:59Z" changeset="57960274" uid="5715884" user="virpone">
    <nd ref="1394080319"/>
    <nd ref="1394080281"/>
    <nd ref="1394080248"/>
    <nd ref="1394080295"/>
    <nd ref="1394080319"/>
    <tag k="addr:housename" v="Haus 5"/>
    <tag k="building" v="hospital"/>
    <tag k="building:levels" v="2"/>
    <tag k="name" v="Haus 5"/>
  </way>
  <way id="125542263" version="2" timestamp="2014-05-24T06:18:05Z" changeset="22517210" uid="10549" user="toaster">
    <nd ref="1394080295"/>
    <nd ref="1394080302"/>
    <nd ref="1394080332"/>
    <nd ref="1394080340"/>
    <nd ref="1394080329"/>
    <nd ref="1394080319"/>
    <nd ref="1394080295"/>
    <tag k="building" v="hospital"/>
    <tag k="name" v="Haus 4a"/>
  </way>
  <way id="125542265" version="2" timestamp="2014-05-24T06:18:05Z" changeset="22517210" uid="10549" user="toaster">
    <nd ref="1394080310"/>
    <nd ref="1394080317"/>
    <nd ref="1394080289"/>
    <nd ref="1394080299"/>
    <nd ref="1394080283"/>
    <nd ref="1394080270"/>
    <nd ref="1394080297"/>
    <nd ref="1394080293"/>
    <nd ref="1394080310"/>
    <tag k="building" v="hospital"/>
    <tag k="name" v="Haus 13"/>
  </way>
  <way id="125542266" version="2" timestamp="2014-05-24T06:18:04Z" changeset="22517210" uid="10549" user="toaster">
    <nd ref="1394080361"/>
    <nd ref="1394080358"/>
    <nd ref="1394080365"/>
    <nd ref="1394080363"/>
    <nd ref="1394080356"/>
    <nd ref="1394080348"/>
    <nd ref="1394080327"/>
    <nd ref="1394080335"/>
    <nd ref="1394080361"/>
    <tag k="building" v="hospital"/>
    <tag k="name" v="Haus 12"/>
  </way>
  <way id="128132507" version="2" timestamp="2019-04-13T16:12:31Z" changeset="69181431" uid="66391" user="geozeisig">
    <nd ref="2854755456"/>
    <nd ref="1416629495"/>
    <nd ref="1416629482"/>
    <nd ref="1416629486"/>
    <nd ref="2854755456"/>
    <tag k="addr:city" v="Berlin"/>
    <tag k="addr:country" v="DE"/>
    <tag k="addr:housenumber" v="31"/>
    <tag k="addr:postcode" v="14089"/>
    <tag k="addr:street" v="Alt-Gatow"/>
    <tag k="addr:suburb" v="Gatow"/>
    <tag k="building" v="yes"/>
    <tag k="heritage" v="4"/>
    <tag k="heritage:operator" v="lda"/>
    <tag k="lda:criteria" v="Baudenkmal"/>
    <tag k="old_name" v="Wirtshaus Gatow"/>
    <tag k="ref:lda" v="09085412"/>
    <tag k="source" v="Geoportal Berlin / Hauskoordinaten"/>
    <tag k="start_date" v="1903"/>
  </way>
  <way id="128132541" version="3" timestamp="2019-04-13T16:12:31Z" changeset="69181431" uid="66391" user="geozeisig">
    <nd ref="6402528589"/>
    <nd ref="1416629913"/>
    <nd ref="5902142924"/>
    <nd ref="2854758502"/>
    <nd ref="1416629917"/>
    <nd ref="6402528588"/>
    <nd ref="6402528589"/>
    <tag k="addr:city" v="Berlin"/>
    <tag k="addr:country" v="DE"/>
    <tag k="addr:housenumber" v="25"/>
    <tag k="addr:postcode" v="14089"/>
    <tag k="addr:street" v="Alt-Gatow"/>
    <tag k="addr:suburb" v="Gatow"/>
    <tag k="building" v="yes"/>
    <tag k="heritage" v="4"/>
    <tag k="heritage:operator" v="lda"/>
    <tag k="lda:criteria" v="Baudenkmal"/>
    <tag k="ref:lda" v="09080626"/>
    <tag k="source" v="Geoportal Berlin / Hauskoordinaten"/>
    <tag k="start_date" v="1888"/>
  </way>
  <way id="161698969" version="6" timestamp="2023-02-05T14:25:41Z" changeset="132110925" uid="554225" user="Pewtah">
    <nd ref="1736594439"/>
    <nd ref="1736594437"/>
    <nd ref="1736594438"/>
    <nd ref="1736594440"/>
    <nd ref="1736594439"/>
    <tag k="addr:city" v="Berlin"/>
    <tag k="addr:housenumber" v="26"/>
    <tag k="addr:postcode" v="14089"/>
    <tag k="addr:street" v="Krielower Weg"/>
    <tag k="addr:suburb" v="Gatow"/>
    <tag k="amenity" v="restaurant"/>
    <tag k="building" v="yes"/>
    <tag k="cuisine" v="italian"/>
    <tag k="name" v="Restaurant Machiavelli"/>
    <tag k="phone" v="+49-30-40303306"/>
    <tag k="source" v="Geoportal Berlin / Hauskoordinaten"/>
    <tag k="toilets:wheelchair" v="yes"/>
    <tag k="wheelchair" v="yes"/>
  </way>
  <way id="187986190" version="10" timestamp="2023-07-28T05:00:52Z" changeset="139115995" uid="10961311" user="StefanHRT">
    <nd ref="11040177332"/>
    <nd ref="9288287330"/>
    <nd ref="1986163222"/>
    <tag k="highway" v="unclassified"/>
    <tag k="maxspeed" v="50"/>
    <tag k="maxspeed:type" v="DE:urban"/>
    <tag k="name" v="Annenweg"/>
    <tag k="name:etymology:wikidata" v="Q564684"/>
    <tag k="name:etymology:wikipedia" v="de:Anne"/>
    <tag k="postal_code" v="14089"/>
    <tag k="surface" v="asphalt"/>
    <tag k="vehicle" v="forestry"/>
  </way>
  <way id="191327398" version="2" timestamp="2015-10-29T07:46:02Z" changeset="34942814" uid="66391" user="geozeisig">
    <nd ref="2019196602"/>
    <nd ref="2019196604"/>
    <nd ref="2854758137"/>
    <nd ref="2019196597"/>
    <nd ref="2019196602"/>
    <tag k="addr:city" v="Berlin"/>
    <tag k="addr:country" v="DE"/>
    <tag k="addr:housenumber" v="6K"/>
    <tag k="addr:postcode" v="14089"/>
    <tag k="addr:street" v="Alt-Gatow"/>
    <tag k="addr:suburb" v="Gatow"/>
    <tag k="building" v="yes"/>
    <tag k="source" v="Geoportal Berlin / Hauskoordinaten"/>
  </way>
  <way id="191327400" version="2" timestamp="2015-10-29T07:46:02Z" changeset="34942814" uid="66391" user="geozeisig">
    <nd ref="2019196588"/>
    <nd ref="2019196589"/>
    <nd ref="2019196587"/>
    <nd ref="2854787525"/>
    <nd ref="2019196588"/>
    <tag k="addr:city" v="Berlin"/>
    <tag k="addr:country" v="DE"/>
    <tag k="addr:housenumber" v="9"/>
    <tag k="addr:postcode" v="14089"/>
    <tag k="addr:street" v="Alt-Gatow"/>
    <tag k="addr:suburb" v="Gatow"/>
    <tag k="building" v="yes"/>
    <tag k="source" v="Geoportal Berlin / Hauskoordinaten"/>
  </way>
  <way id="191327402" version="3" timestamp="2018-09-12T15:20:03Z" changeset="62524109" uid="4445038" user="sandrow75">
    <nd ref="2019196570"/>
    <nd ref="2854757501"/>
    <nd ref="2019196566"/>
    <nd ref="5902107768"/>
    <nd ref="2019196572"/>
    <nd ref="5902107772"/>
    <nd ref="2019196570"/>
    <tag k="addr:city" v="Berlin"/>
    <tag k="addr:country" v="DE"/>
    <tag k="addr:housenumber" v="23"/>
    <tag k="addr:postcode" v="14089"/>
    <tag k="addr:street" v="Buchwaldzeile"/>
    <tag k="addr:suburb" v="Gatow"/>
    <tag k="building" v="yes"/>
    <tag k="source" v="Geoportal Berlin / Hauskoordinaten"/>
  </way>
  <way id="191327411" version="2" timestamp="2015-10-29T07:45:57Z" changeset="34942814" uid="66391" user="geozeisig">
    <nd ref="3807993665"/>
    <nd ref="2019196615"/>
    <nd ref="2019196613"/>
    <nd ref="2019196614"/>
    <nd ref="2019196619"/>
    <nd ref="2854750343"/>
    <nd ref="3807993665"/>
    <tag k="addr:city" v="Berlin"/>
    <tag k="addr:country" v="DE"/>
    <tag k="addr:housenumber" v="2"/>
    <tag k="addr:postcode" v="14089"/>
    <tag k="addr:street" v="Buchwaldzeile"/>
    <tag k="addr:suburb" v="Gatow"/>
    <tag k="building" v="yes"/>
    <tag k="source" v="Geoportal Berlin / Hauskoordinaten"/>
  </way>
  <way id="191327419" version="4" timestamp="2023-08-30T20:38:22Z" changeset="140607424" uid="15073840" user="dwormanns">
    <nd ref="2903331264"/>
    <nd ref="2903334108"/>
    <nd ref="11157814137"/>
    <nd ref="11157814140"/>
    <nd ref="2903334102"/>
    <nd ref="2903330440"/>
    <nd ref="2903331264"/>
    <tag k="addr:city" v="Berlin"/>
    <tag k="addr:housenumber" v="33"/>
    <tag k="addr:postcode" v="14089"/>
    <tag k="addr:street" v="Jürgen-Schramm-Straße"/>
    <tag k="building" v="yes"/>
    <tag k="building:colour" v="#fffcf0"/>
    <tag k="building:levels" v="2"/>
    <tag k="height" v="6"/>
    <tag k="roof:colour" v="#565252"/>
  </way>
  <way id="192356703" version="3" timestamp="2019-04-13T16:12:32Z" changeset="69181431" uid="66391" user="geozeisig">
    <nd ref="2029140894"/>
    <nd ref="2029140896"/>
    <nd ref="5302562671"/>
    <nd ref="5302562668"/>
    <nd ref="5302562667"/>
    <nd ref="5302562669"/>
    <nd ref="5302562670"/>
    <nd ref="5302562666"/>
    <nd ref="2029140893"/>
    <nd ref="5302562662"/>
    <nd ref="5302562663"/>
    <nd ref="5302562665"/>
    <nd ref="5302562664"/>
    <nd ref="2854781636"/>
    <nd ref="2029140894"/>
    <tag k="addr:city" v="Berlin"/>
    <tag k="addr:country" v="DE"/>
    <tag k="addr:housenumber" v="65"/>
    <tag k="addr:postcode" v="14089"/>
    <tag k="addr:street" v="Alt-Gatow"/>
    <tag k="addr:suburb" v="Gatow"/>
    <tag k="building" v="yes"/>
    <tag k="source" v="Geoportal Berlin / Hauskoordinaten"/>
  </way>
  <way id="192356705" version="3" timestamp="2023-09-16T15:01:23Z" changeset="141346501" uid="7370308" user="Traktorbek">
    <nd ref="2029140968"/>
    <nd ref="2029140974"/>
    <nd ref="2029140961"/>
    <nd ref="2854774360"/>
    <nd ref="2029140968"/>
    <tag k="addr:city" v="Berlin"/>
    <tag k="addr:country" v="DE"/>
    <tag k="addr:housenumber" v="51B"/>
    <tag k="addr:postcode" v="14089"/>
    <tag k="addr:street" v="Alt-Gatow"/>
    <tag k="addr:suburb" v="Gatow"/>
    <tag k="building" v="detached"/>
    <tag k="heritage" v="4"/>
    <tag k="heritage:operator" v="lda"/>
    <tag k="lda:criteria" v="Baudenkmal"/>
    <tag k="ref:lda" v="09085415"/>
    <tag k="source" v="Geoportal Berlin / Hauskoordinaten"/>
  </way>
  <way id="192356717" version="3" timestamp="2019-04-13T16:12:32Z" changeset="69181431" uid="66391" user="geozeisig">
    <nd ref="2029140887"/>
    <nd ref="2029140888"/>
    <nd ref="2029140885"/>
    <nd ref="5302562660"/>
    <nd ref="5302562661"/>
    <nd ref="2854758597"/>
    <nd ref="2029140887"/>
    <tag k="addr:city" v="Berlin"/>
    <tag k="addr:country" v="DE"/>
    <tag k="addr:housenumber" v="67"/>
    <tag k="addr:postcode" v="14089"/>
    <tag k="addr:street" v="Alt-Gatow"/>
    <tag k="addr:suburb" v="Gatow"/>
    <tag k="building" v="yes"/>
    <tag k="heritage" v="4"/>
    <tag k="heritage:operator" v="lda"/>
    <tag k="lda:criteria" v="Baudenkmal"/>
    <tag k="ref:lda" v="09085417"/>
    <tag k="source" v="Geoportal Berlin / Hauskoordinaten"/>
    <tag k="start_date" v="1845"/>
  </way>
  <way id="192356726" version="2" timestamp="2019-04-13T16:12:32Z" changeset="69181431" uid="66391" user="geozeisig">
    <nd ref="2029140872"/>
    <nd ref="2854781647"/>
    <nd ref="2029140874"/>
    <nd ref="2029140869"/>
    <nd ref="2029140872"/>
    <tag k="addr:city" v="Berlin"/>
    <tag k="addr:country" v="DE"/>
    <tag k="addr:housenumber" v="69"/>
    <tag k="addr:postcode" v="14089"/>
    <tag k="addr:street" v="Alt-Gatow"/>
    <tag k="addr:suburb" v="Gatow"/>
    <tag k="building" v="yes"/>
    <tag k="heritage" v="4"/>
    <tag k="heritage:operator" v="lda"/>
    <tag k="lda:criteria" v="Baudenkmal"/>
    <tag k="ref:lda" v="09085418"/>
    <tag k="source" v="Geoportal Berlin / Hauskoordinaten"/>
    <tag k="start_date" v="1882"/>
  </way>
  <way id="192356732" version="8" timestamp="2024-06-21T15:49:10Z" changeset="152998644" uid="21641717" user="KUNO PASCHUNKE">
    <nd ref="2029140867"/>
    <nd ref="2029140864"/>
    <nd ref="2029140858"/>
    <nd ref="2029140861"/>
    <nd ref="2029140867"/>
    <tag k="addr:city" v="Berlin"/>
    <tag k="addr:housenumber" v="8"/>
    <tag k="addr:postcode" v="14089"/>
    <tag k="addr:street" v="Am Wiesenhaus"/>
    <tag k="amenity" v="restaurant"/>
    <tag k="building" v="yes"/>
    <tag k="contact:phone" v="+49 30 3624198"/>
    <tag k="contact:website" v="http://kleine-badewiese-gatow.weebly.com/"/>
    <tag k="cuisine" v="german"/>
    <tag k="delivery" v="no"/>
    <tag k="email" v="info@kleine-badewiese.de"/>
    <tag k="name" v="Kleine Badewiese"/>
    <tag k="opening_hours" v="Apr-Dec: We-Su,PH 12:00-21:00"/>
    <tag k="outdoor_seating" v="yes"/>
    <tag k="toilets:wheelchair" v="no"/>
    <tag k="wheelchair" v="yes"/>
  </way>
  <way id="196764720" version="4" timestamp="2024-11-12T07:02:36Z" changeset="159037628" uid="66391" user="geozeisig">
    <nd ref="2070559965"/>
    <nd ref="2070559963"/>
    <nd ref="2854725430"/>
    <nd ref="2070559961"/>
    <nd ref="2070559965"/>
    <tag k="addr:city" v="Berlin"/>
    <tag k="addr:country" v="DE"/>
    <tag k="addr:housenumber" v="16"/>
    <tag k="addr:postcode" v="14089"/>
    <tag k="addr:street" v="Hochwaldsteig"/>
    <tag k="addr:suburb" v="Gatow"/>
    <tag k="building" v="yes"/>
    <tag k="source" v="Geoportal Berlin / Hauskoordinaten"/>
  </way>
  <way id="197358484" version="4" timestamp="2019-08-25T19:16:59Z" changeset="73724879" uid="9508237" user="momabebra">
    <nd ref="2854773719"/>
    <nd ref="6744536349"/>
    <nd ref="6744536348"/>
    <nd ref="2076087535"/>
    <nd ref="3234834671"/>
    <nd ref="2076087523"/>
    <nd ref="2076087526"/>
    <nd ref="2076087514"/>
    <nd ref="2076087517"/>
    <nd ref="2076087529"/>
    <nd ref="2076087532"/>
    <nd ref="2854773719"/>
    <tag k="addr:city" v="Berlin"/>
    <tag k="addr:housenumber" v="45"/>
    <tag k="addr:postcode" v="14089"/>
    <tag k="addr:street" v="Kladower Damm"/>
    <tag k="addr:suburb" v="Gatow"/>
    <tag k="amenity" v="community_centre"/>
    <tag k="building" v="yes"/>
    <tag k="club" v="sport"/>
    <tag k="community_centre" v="club_home"/>
    <tag k="contact:phone" v="+49 30 3611855"/>
    <tag k="contact:website" v="http://www.psb-24.de/"/>
    <tag k="name" v="Pro Sport Berlin 24"/>
    <tag k="operator" v="Pro Sport Berlin 24 e.V."/>
    <tag k="source" v="Geoportal Berlin / Hauskoordinaten"/>
    <tag k="sport" v="rowing"/>
  </way>
  <way id="198563982" version="4" timestamp="2024-12-04T21:33:17Z" changeset="159934480" uid="44217" user="kjon">
    <nd ref="12396764168"/>
    <nd ref="12396764174"/>
    <nd ref="434098014"/>
    <nd ref="6796026505"/>
    <nd ref="259567105"/>
    <tag k="highway" v="residential"/>
    <tag k="lit" v="yes"/>
    <tag k="maxspeed" v="10"/>
    <tag k="name" v="Straße 265"/>
    <tag k="postal_code" v="14089"/>
    <tag k="surface" v="unpaved"/>
  </way>
  <way id="203349164" version="3" timestamp="2024-11-12T07:02:36Z" changeset="159037628" uid="66391" user="geozeisig">
    <nd ref="2133628232"/>
    <nd ref="2133628235"/>
    <nd ref="2133628230"/>
    <nd ref="2133628236"/>
    <nd ref="2133628232"/>
    <tag k="addr:country" v="DE"/>
    <tag k="addr:housenumber" v="14A"/>
    <tag k="addr:postcode" v="14089"/>
    <tag k="addr:street" v="Hochwaldsteig"/>
    <tag k="addr:suburb" v="Gatow"/>
    <tag k="building" v="yes"/>
  </way>
  <way id="203349165" version="3" timestamp="2024-11-12T07:02:36Z" changeset="159037628" uid="66391" user="geozeisig">
    <nd ref="2133628231"/>
    <nd ref="2133628226"/>
    <nd ref="2854738023"/>
    <nd ref="2133628228"/>
    <nd ref="2133628237"/>
    <nd ref="2133628229"/>
    <nd ref="2133628234"/>
    <nd ref="2133628227"/>
    <nd ref="2133628231"/>
    <tag k="addr:city" v="Berlin"/>
    <tag k="addr:country" v="DE"/>
    <tag k="addr:housenumber" v="15"/>
    <tag k="addr:postcode" v="14089"/>
    <tag k="addr:street" v="Hochwaldsteig"/>
    <tag k="addr:suburb" v="Gatow"/>
    <tag k="building" v="yes"/>
    <tag k="source" v="Geoportal Berlin / Hauskoordinaten"/>
  </way>
  <way id="203349219" version="4" timestamp="2015-10-29T07:45:56Z" changeset="34942814" uid="66391" user="geozeisig">
    <nd ref="2133628623"/>
    <nd ref="2133628625"/>
    <nd ref="2133628622"/>
    <nd ref="2854724558"/>
    <nd ref="2133628623"/>
    <tag k="addr:city" v="Berlin"/>
    <tag k="addr:country" v="DE"/>
    <tag k="addr:housenumber" v="12"/>
    <tag k="addr:postcode" v="14089"/>
    <tag k="addr:street" v="Hochwaldsteig"/>
    <tag k="addr:suburb" v="Gatow"/>
    <tag k="building" v="yes"/>
    <tag k="source" v="Geoportal Berlin / Hauskoordinaten"/>
  </way>
  <way id="203358807" version="2" timestamp="2015-10-29T07:45:56Z" changeset="34942814" uid="66391" user="geozeisig">
    <nd ref="2133710814"/>
    <nd ref="2133710773"/>
    <nd ref="2133710799"/>
    <nd ref="2133710812"/>
    <nd ref="2133710814"/>
    <tag k="addr:city" v="Berlin"/>
    <tag k="addr:country" v="DE"/>
    <tag k="addr:housenumber" v="14"/>
    <tag k="addr:postcode" v="14089"/>
    <tag k="addr:street" v="Hochwaldsteig"/>
    <tag k="addr:suburb" v="Gatow"/>
    <tag k="building" v="yes"/>
    <tag k="source" v="Geoportal Berlin / Hauskoordinaten"/>
  </way>
  <way id="203358808" version="2" timestamp="2024-11-12T07:02:36Z" changeset="159037628" uid="66391" user="geozeisig">
    <nd ref="2133710882"/>
    <nd ref="2854724761"/>
    <nd ref="2133710803"/>
    <nd ref="2133710756"/>
    <nd ref="2133710781"/>
    <nd ref="2133710866"/>
    <nd ref="2133710872"/>
    <nd ref="2133710762"/>
    <nd ref="2133710798"/>
    <nd ref="2133710870"/>
    <nd ref="2133710827"/>
    <nd ref="2133710834"/>
    <nd ref="2133710823"/>
    <nd ref="2133710778"/>
    <nd ref="2133710770"/>
    <nd ref="2133710867"/>
    <nd ref="2133710882"/>
    <tag k="addr:city" v="Berlin"/>
    <tag k="addr:housenumber" v="13"/>
    <tag k="addr:postcode" v="14089"/>
    <tag k="addr:street" v="Hochwaldsteig"/>
    <tag k="addr:suburb" v="Gatow"/>
    <tag k="building" v="yes"/>
    <tag k="source" v="Geoportal Berlin / Hauskoordinaten"/>
  </way>
  <way id="203358816" version="2" timestamp="2015-10-29T07:45:56Z" changeset="34942814" uid="66391" user="geozeisig">
    <nd ref="2854732662"/>
    <nd ref="2133710815"/>
    <nd ref="2133710825"/>
    <nd ref="2133710820"/>
    <nd ref="2854732662"/>
    <tag k="addr:city" v="Berlin"/>
    <tag k="addr:country" v="DE"/>
    <tag k="addr:housenumber" v="14A"/>
    <tag k="addr:postcode" v="14089"/>
    <tag k="addr:street" v="Waldschluchtpfad"/>
    <tag k="addr:suburb" v="Gatow"/>
    <tag k="building" v="yes"/>
    <tag k="source" v="Geoportal Berlin / Hauskoordinaten"/>
  </way>
  <way id="203358817" version="3" timestamp="2024-11-12T07:02:36Z" changeset="159037628" uid="66391" user="geozeisig">
    <nd ref="2133710765"/>
    <nd ref="2133710854"/>
    <nd ref="2854758171"/>
    <nd ref="2133710818"/>
    <nd ref="2133710765"/>
    <tag k="addr:city" v="Berlin"/>
    <tag k="addr:housenumber" v="9"/>
    <tag k="addr:postcode" v="14089"/>
    <tag k="addr:street" v="Hochwaldsteig"/>
    <tag k="addr:suburb" v="Gatow"/>
    <tag k="building" v="yes"/>
    <tag k="source" v="Geoportal Berlin / Hauskoordinaten"/>
  </way>
  <way id="203358828" version="2" timestamp="2019-01-15T11:01:27Z" changeset="66328236" uid="66391" user="geozeisig">
    <nd ref="2133710881"/>
    <nd ref="2133710811"/>
    <nd ref="2854747211"/>
    <nd ref="2133710786"/>
    <nd ref="2133710881"/>
    <tag k="addr:city" v="Berlin"/>
    <tag k="addr:housenumber" v="18"/>
    <tag k="addr:postcode" v="14089"/>
    <tag k="addr:street" v="Hochwaldsteig"/>
    <tag k="addr:suburb" v="Gatow"/>
    <tag k="building" v="yes"/>
    <tag k="heritage" v="4"/>
    <tag k="heritage:operator" v="lda"/>
    <tag k="lda:criteria" v="Baudenkmal"/>
    <tag k="old_name" v="Haus Wist"/>
    <tag k="ref:lda" v="09012506"/>
    <tag k="source" v="Geoportal Berlin / Hauskoordinaten"/>
  </way>
  <way id="225000900" version="2" timestamp="2014-05-13T18:40:56Z" changeset="22319070" uid="290680" user="wheelmap_visitor">
    <nd ref="2338316809"/>
    <nd ref="2338316810"/>
    <nd ref="2338316812"/>
    <nd ref="2338316811"/>
    <nd ref="2338316809"/>
    <tag k="amenity" v="place_of_worship"/>
    <tag k="building" v="yes"/>
    <tag k="name" v="Wat Pah Bodhi-Dhamm"/>
    <tag k="religion" v="buddhist"/>
    <tag k="website" v="http://www.wat-pah-bodhi-dhamm.de/"/>
    <tag k="wheelchair" v="no"/>
  </way>
  <way id="244668274" version="4" timestamp="2024-11-12T07:02:36Z" changeset="159037628" uid="66391" user="geozeisig">
    <nd ref="2519620571"/>
    <nd ref="2519620572"/>
    <nd ref="2519620573"/>
    <nd ref="2519620574"/>
    <nd ref="2519620571"/>
    <tag k="addr:city" v="Berlin"/>
    <tag k="addr:country" v="DE"/>
    <tag k="addr:housenumber" v="30"/>
    <tag k="addr:postcode" v="14089"/>
    <tag k="addr:street" v="Alt-Gatow"/>
    <tag k="addr:suburb" v="Gatow"/>
    <tag k="building" v="yes"/>
    <tag k="name" v="Alte Feuerwache"/>
  </way>
  <way id="244668680" version="4" timestamp="2024-06-26T23:25:11Z" changeset="153223810" uid="9511207" user="Friednauerin">
    <nd ref="2519623165"/>
    <nd ref="5302562724"/>
    <nd ref="5302562725"/>
    <nd ref="5302562723"/>
    <nd ref="5302562722"/>
    <nd ref="2519623166"/>
    <nd ref="2854775451"/>
    <nd ref="5302562731"/>
    <nd ref="5302562733"/>
    <nd ref="5302562732"/>
    <nd ref="2519623167"/>
    <nd ref="5302562728"/>
    <nd ref="5302562729"/>
    <nd ref="5302562726"/>
    <nd ref="5302562727"/>
    <nd ref="2519623168"/>
    <nd ref="2519623165"/>
    <tag k="addr:city" v="Berlin"/>
    <tag k="addr:country" v="DE"/>
    <tag k="addr:housenumber" v="56"/>
    <tag k="addr:postcode" v="14089"/>
    <tag k="addr:street" v="Alt-Gatow"/>
    <tag k="addr:suburb" v="Gatow"/>
    <tag k="building" v="yes"/>
    <tag k="source" v="Geoportal Berlin / Hauskoordinaten"/>
  </way>
  <way id="244668723" version="12" timestamp="2025-03-02T21:29:40Z" changeset="163138900" uid="22112094" user="Holger A W">
    <nd ref="2519623963"/>
    <nd ref="2519623964"/>
    <nd ref="2519623965"/>
    <nd ref="2519623966"/>
    <nd ref="2519623967"/>
    <nd ref="2519623968"/>
    <nd ref="2519623969"/>
    <nd ref="2869065975"/>
    <nd ref="2519623970"/>
    <nd ref="2519623971"/>
    <nd ref="2519623972"/>
    <nd ref="12629154165"/>
    <nd ref="2519623974"/>
    <nd ref="2519623963"/>
    <tag k="building" v="house"/>
    <tag k="club" v="sport"/>
    <tag k="email" v="info@pcwiking.de"/>
    <tag k="leisure" v="sports_centre"/>
    <tag k="name" v="Paddel-Club Wiking e.V."/>
    <tag k="sport" v="canoe"/>
    <tag k="website" v="https://www.pcwiking.de/"/>
  </way>
  <way id="244668741" version="3" timestamp="2024-11-12T07:02:36Z" changeset="159037628" uid="66391" user="geozeisig">
    <nd ref="3035085460"/>
    <nd ref="2519624077"/>
    <nd ref="2519624078"/>
    <nd ref="2519624079"/>
    <nd ref="3035085460"/>
    <tag k="addr:city" v="Berlin"/>
    <tag k="addr:country" v="DE"/>
    <tag k="addr:housenumber" v="9"/>
    <tag k="addr:postcode" v="14089"/>
    <tag k="addr:street" v="Rothenbücherweg"/>
    <tag k="addr:suburb" v="Gatow"/>
    <tag k="building" v="yes"/>
    <tag k="heritage" v="4"/>
    <tag k="heritage:operator" v="lda"/>
    <tag k="lda:criteria" v="Baudenkmal"/>
    <tag k="ref:lda" v="09085765"/>
    <tag k="source" v="Geoportal Berlin / Hauskoordinaten"/>
    <tag k="start_date" v="1845"/>
  </way>
  <way id="244806505" version="3" timestamp="2019-04-14T06:08:30Z" changeset="69193787" uid="66391" user="geozeisig">
    <nd ref="2903332458"/>
    <nd ref="2855463301"/>
    <nd ref="2903335102"/>
    <nd ref="2903335115"/>
    <nd ref="2903332458"/>
    <tag k="addr:city" v="Berlin"/>
    <tag k="addr:country" v="DE"/>
    <tag k="addr:housenumber" v="313"/>
    <tag k="addr:postcode" v="14089"/>
    <tag k="addr:street" v="Gatower Straße"/>
    <tag k="addr:suburb" v="Gatow"/>
    <tag k="building" v="yes"/>
    <tag k="source" v="Geoportal Berlin / Hauskoordinaten"/>
  </way>
  <way id="244806701" version="2" timestamp="2015-10-29T07:46:05Z" changeset="34942814" uid="66391" user="geozeisig">
    <nd ref="2520787186"/>
    <nd ref="2520787189"/>
    <nd ref="2854774346"/>
    <nd ref="2520787195"/>
    <nd ref="2520787198"/>
    <nd ref="2520787201"/>
    <nd ref="2520787204"/>
    <nd ref="2520787207"/>
    <nd ref="2520787209"/>
    <nd ref="2520787211"/>
    <nd ref="330599010"/>
    <nd ref="2520787186"/>
    <tag k="addr:city" v="Berlin"/>
    <tag k="addr:country" v="DE"/>
    <tag k="addr:housenumber" v="5-7"/>
    <tag k="addr:postcode" v="14089"/>
    <tag k="addr:street" v="Alt-Gatow"/>
    <tag k="addr:suburb" v="Gatow"/>
    <tag k="building" v="yes"/>
    <tag k="name" v="Wassersportheim"/>
    <tag k="source" v="Geoportal Berlin / Hauskoordinaten"/>
  </way>
  <way id="244807177" version="2" timestamp="2019-04-13T16:12:32Z" changeset="69181431" uid="66391" user="geozeisig">
    <nd ref="2520790590"/>
    <nd ref="2854758392"/>
    <nd ref="2520790592"/>
    <nd ref="2520790593"/>
    <nd ref="2520790590"/>
    <tag k="addr:city" v="Berlin"/>
    <tag k="addr:country" v="DE"/>
    <tag k="addr:housenumber" v="35"/>
    <tag k="addr:postcode" v="14089"/>
    <tag k="addr:street" v="Alt-Gatow"/>
    <tag k="addr:suburb" v="Gatow"/>
    <tag k="building" v="yes"/>
    <tag k="heritage" v="4"/>
    <tag k="heritage:operator" v="lda"/>
    <tag k="lda:criteria" v="Baudenkmal"/>
    <tag k="ref:lda" v="09080621"/>
    <tag k="source" v="Geoportal Berlin / Hauskoordinaten"/>
    <tag k="start_date" v="1910"/>
  </way>
  <way id="244807178" version="4" timestamp="2023-03-18T11:17:16Z" changeset="133815690" uid="10630643" user="janolezab">
    <nd ref="2520790594"/>
    <nd ref="2854769313"/>
    <nd ref="2520790596"/>
    <nd ref="2520790597"/>
    <nd ref="2520790594"/>
    <tag k="addr:city" v="Berlin"/>
    <tag k="addr:country" v="DE"/>
    <tag k="addr:housenumber" v="37"/>
    <tag k="addr:postcode" v="14089"/>
    <tag k="addr:street" v="Alt-Gatow"/>
    <tag k="addr:suburb" v="Gatow"/>
    <tag k="building" v="detached"/>
    <tag k="heritage" v="4"/>
    <tag k="heritage:operator" v="lda"/>
    <tag k="lda:criteria" v="Baudenkmal"/>
    <tag k="ref:lda" v="09085414"/>
    <tag k="source" v="Geoportal Berlin / Hauskoordinaten"/>
    <tag k="start_date" v="1894"/>
    <tag k="wikidata" v="Q114979991"/>
  </way>
  <way id="244807184" version="2" timestamp="2019-01-15T14:24:35Z" changeset="66333444" uid="39288" user="rolandmwagner">
    <nd ref="2520790629"/>
    <nd ref="2520790630"/>
    <nd ref="2520790631"/>
    <nd ref="2520790632"/>
    <nd ref="2520790629"/>
    <tag k="addr:city" v="Berlin"/>
    <tag k="addr:country" v="DE"/>
    <tag k="addr:housenumber" v="53"/>
    <tag k="addr:postcode" v="14089"/>
    <tag k="addr:street" v="Alt-Gatow"/>
    <tag k="addr:suburb" v="Gatow"/>
    <tag k="building" v="house"/>
    <tag k="source" v="Geoportal Berlin / Hauskoordinaten"/>
  </way>
  <way id="244807185" version="3" timestamp="2019-04-13T16:12:33Z" changeset="69181431" uid="66391" user="geozeisig">
    <nd ref="2520790633"/>
    <nd ref="2854775020"/>
    <nd ref="5302562735"/>
    <nd ref="2520790634"/>
    <nd ref="2520790635"/>
    <nd ref="2520790636"/>
    <nd ref="2520790633"/>
    <tag k="addr:city" v="Berlin"/>
    <tag k="addr:country" v="DE"/>
    <tag k="addr:housenumber" v="49"/>
    <tag k="addr:postcode" v="14089"/>
    <tag k="addr:street" v="Buchwaldzeile"/>
    <tag k="addr:suburb" v="Gatow"/>
    <tag k="building" v="yes"/>
    <tag k="source" v="Geoportal Berlin / Hauskoordinaten"/>
  </way>
  <way id="244807462" version="10" timestamp="2023-07-11T17:53:42Z" changeset="138390529" uid="10961311" user="StefanHRT">
    <nd ref="11040177332"/>
    <nd ref="11040177333"/>
    <nd ref="11040177343"/>
    <nd ref="11040177341"/>
    <nd ref="11040177338"/>
    <nd ref="11040177336"/>
    <nd ref="7761018910"/>
    <nd ref="11040177349"/>
    <nd ref="11040177350"/>
    <nd ref="2520792820"/>
    <tag k="highway" v="residential"/>
    <tag k="maxspeed" v="50"/>
    <tag k="maxspeed:type" v="DE:urban"/>
    <tag k="name" v="Straße 264"/>
    <tag k="oneway" v="no"/>
  </way>
  <way id="244808433" version="2" timestamp="2019-04-13T16:12:33Z" changeset="69181431" uid="66391" user="geozeisig">
    <nd ref="2854746068"/>
    <nd ref="2520802492"/>
    <nd ref="2520802493"/>
    <nd ref="2520802494"/>
    <nd ref="2854746068"/>
    <tag k="addr:city" v="Berlin"/>
    <tag k="addr:country" v="DE"/>
    <tag k="addr:housenumber" v="2"/>
    <tag k="addr:postcode" v="14089"/>
    <tag k="addr:street" v="Groß-Glienicker Weg"/>
    <tag k="addr:suburb" v="Gatow"/>
    <tag k="building" v="yes"/>
    <tag k="source" v="Geoportal Berlin / Hauskoordinaten"/>
  </way>
  <way id="244808442" version="2" timestamp="2019-04-13T16:12:33Z" changeset="69181431" uid="66391" user="geozeisig">
    <nd ref="2520802515"/>
    <nd ref="2854774367"/>
    <nd ref="2520802517"/>
    <nd ref="2520802518"/>
    <nd ref="2520802515"/>
    <tag k="addr:city" v="Berlin"/>
    <tag k="addr:country" v="DE"/>
    <tag k="addr:housenumber" v="54-56"/>
    <tag k="addr:postcode" v="14089"/>
    <tag k="addr:street" v="Buchwaldzeile"/>
    <tag k="addr:suburb" v="Gatow"/>
    <tag k="building" v="yes"/>
    <tag k="heritage" v="4"/>
    <tag k="heritage:operator" v="lda"/>
    <tag k="lda:criteria" v="Baudenkmal"/>
    <tag k="ref:lda" v="09085501"/>
    <tag k="source" v="Geoportal Berlin / Hauskoordinaten"/>
    <tag k="start_date" v="1860"/>
  </way>
  <way id="244808905" version="4" timestamp="2025-04-19T13:17:10Z" changeset="165153554" uid="418040" user="Supaplex030">
    <nd ref="2520806828"/>
    <nd ref="2520806829"/>
    <nd ref="2520806830"/>
    <nd ref="2520806831"/>
    <nd ref="5302562761"/>
    <nd ref="5302562760"/>
    <nd ref="2520806832"/>
    <nd ref="2520806833"/>
    <nd ref="2520806834"/>
    <nd ref="2520806835"/>
    <nd ref="2520806836"/>
    <nd ref="2520806837"/>
    <nd ref="2520806838"/>
    <nd ref="2520806839"/>
    <nd ref="2520806840"/>
    <nd ref="2520806841"/>
    <nd ref="2520806828"/>
    <tag k="addr:city" v="Berlin"/>
    <tag k="addr:country" v="DE"/>
    <tag k="addr:housenumber" v="3"/>
    <tag k="addr:postcode" v="14089"/>
    <tag k="addr:street" v="Plievierstraße"/>
    <tag k="addr:suburb" v="Gatow"/>
    <tag k="amenity" v="community_centre"/>
    <tag k="building" v="yes"/>
    <tag k="community_centre:for" v="neighbourhood"/>
    <tag k="contact:phone" v="+49 30 67394094"/>
    <tag k="name" v="Nachbarschaftshaus an der Havel"/>
    <tag k="opening_hours" v="Mo-Fr 10:00-16:00"/>
  </way>
  <way id="244808910" version="2" timestamp="2015-10-29T07:46:01Z" changeset="34942814" uid="66391" user="geozeisig">
    <nd ref="2520806858"/>
    <nd ref="2520806859"/>
    <nd ref="2520806860"/>
    <nd ref="2520806861"/>
    <nd ref="2520806862"/>
    <nd ref="2854766520"/>
    <nd ref="2520806858"/>
    <tag k="addr:city" v="Berlin"/>
    <tag k="addr:country" v="DE"/>
    <tag k="addr:housenumber" v="38"/>
    <tag k="addr:postcode" v="14089"/>
    <tag k="addr:street" v="Buchwaldzeile"/>
    <tag k="addr:suburb" v="Gatow"/>
    <tag k="building" v="yes"/>
    <tag k="source" v="Geoportal Berlin / Hauskoordinaten"/>
  </way>
  <way id="244808915" version="3" timestamp="2019-04-13T16:12:33Z" changeset="69181431" uid="66391" user="geozeisig">
    <nd ref="2854755490"/>
    <nd ref="2520806881"/>
    <nd ref="2520806882"/>
    <nd ref="5302562737"/>
    <nd ref="2854755490"/>
    <tag k="addr:city" v="Berlin"/>
    <tag k="addr:country" v="DE"/>
    <tag k="addr:housenumber" v="43"/>
    <tag k="addr:postcode" v="14089"/>
    <tag k="addr:street" v="Buchwaldzeile"/>
    <tag k="addr:suburb" v="Gatow"/>
    <tag k="building" v="yes"/>
    <tag k="source" v="Geoportal Berlin / Hauskoordinaten"/>
  </way>
  <way id="244808916" version="3" timestamp="2019-04-13T16:12:33Z" changeset="69181431" uid="66391" user="geozeisig">
    <nd ref="2520806885"/>
    <nd ref="2520806886"/>
    <nd ref="2854770834"/>
    <nd ref="5302562736"/>
    <nd ref="2520806885"/>
    <tag k="addr:city" v="Berlin"/>
    <tag k="addr:country" v="DE"/>
    <tag k="addr:housenumber" v="45"/>
    <tag k="addr:postcode" v="14089"/>
    <tag k="addr:street" v="Buchwaldzeile"/>
    <tag k="addr:suburb" v="Gatow"/>
    <tag k="building" v="yes"/>
    <tag k="source" v="Geoportal Berlin / Hauskoordinaten"/>
  </way>
  <way id="244809029" version="3" timestamp="2019-04-14T06:08:30Z" changeset="69193787" uid="66391" user="geozeisig">
    <nd ref="2903346029"/>
    <nd ref="2903347904"/>
    <nd ref="2903346315"/>
    <nd ref="2854726105"/>
    <nd ref="2903346029"/>
    <tag k="addr:city" v="Berlin"/>
    <tag k="addr:country" v="DE"/>
    <tag k="addr:housenumber" v="10"/>
    <tag k="addr:postcode" v="14089"/>
    <tag k="addr:street" v="Kurt-Marzahn-Straße"/>
    <tag k="addr:suburb" v="Gatow"/>
    <tag k="building" v="yes"/>
    <tag k="source" v="Geoportal Berlin / Hauskoordinaten"/>
  </way>
  <way id="244810957" version="3" timestamp="2019-04-14T06:08:30Z" changeset="69193787" uid="66391" user="geozeisig">
    <nd ref="2903345714"/>
    <nd ref="2903339738"/>
    <nd ref="2903346311"/>
    <nd ref="2903345913"/>
    <nd ref="2903340143"/>
    <nd ref="2903346511"/>
    <nd ref="2903346308"/>
    <nd ref="2903345710"/>
    <nd ref="2903346014"/>
    <nd ref="2903346114"/>
    <nd ref="2855462305"/>
    <nd ref="2903346020"/>
    <nd ref="2903345714"/>
    <tag k="addr:city" v="Berlin"/>
    <tag k="addr:country" v="DE"/>
    <tag k="addr:housenumber" v="296"/>
    <tag k="addr:postcode" v="14089"/>
    <tag k="addr:street" v="Gatower Straße"/>
    <tag k="addr:suburb" v="Gatow"/>
    <tag k="building" v="yes"/>
    <tag k="source" v="Geoportal Berlin / Hauskoordinaten"/>
  </way>
  <way id="244810958" version="3" timestamp="2019-04-14T06:08:30Z" changeset="69193787" uid="66391" user="geozeisig">
    <nd ref="2903339532"/>
    <nd ref="2903340323"/>
    <nd ref="2903340324"/>
    <nd ref="2903339725"/>
    <nd ref="2903339830"/>
    <nd ref="2903340629"/>
    <nd ref="2855461605"/>
    <nd ref="2903341824"/>
    <nd ref="2903339532"/>
    <tag k="addr:city" v="Berlin"/>
    <tag k="addr:country" v="DE"/>
    <tag k="addr:housenumber" v="301"/>
    <tag k="addr:postcode" v="14089"/>
    <tag k="addr:street" v="Gatower Straße"/>
    <tag k="addr:suburb" v="Gatow"/>
    <tag k="building" v="yes"/>
    <tag k="heritage" v="4"/>
    <tag k="heritage:operator" v="lda"/>
    <tag k="lda:criteria" v="Baudenkmal"/>
    <tag k="ref:lda" v="09085575"/>
    <tag k="source" v="Geoportal Berlin / Hauskoordinaten"/>
    <tag k="start_date" v="1892"/>
  </way>
  <way id="244817836" version="2" timestamp="2015-10-29T07:45:57Z" changeset="34942814" uid="66391" user="geozeisig">
    <nd ref="2854725740"/>
    <nd ref="2520890990"/>
    <nd ref="2520890992"/>
    <nd ref="2520890994"/>
    <nd ref="2854725740"/>
    <tag k="addr:city" v="Berlin"/>
    <tag k="addr:country" v="DE"/>
    <tag k="addr:housenumber" v="20"/>
    <tag k="addr:postcode" v="14089"/>
    <tag k="addr:street" v="Alt-Gatow"/>
    <tag k="addr:suburb" v="Gatow"/>
    <tag k="building" v="yes"/>
    <tag k="source" v="Geoportal Berlin / Hauskoordinaten"/>
  </way>
  <way id="244820166" version="2" timestamp="2015-10-29T07:46:00Z" changeset="34942814" uid="66391" user="geozeisig">
    <nd ref="3807993587"/>
    <nd ref="2520912161"/>
    <nd ref="2520912162"/>
    <nd ref="2520912163"/>
    <nd ref="3807993586"/>
    <nd ref="2520912159"/>
    <nd ref="2520912160"/>
    <nd ref="2854757855"/>
    <nd ref="3807993587"/>
    <tag k="addr:city" v="Berlin"/>
    <tag k="addr:country" v="DE"/>
    <tag k="addr:housenumber" v="37"/>
    <tag k="addr:postcode" v="14089"/>
    <tag k="addr:street" v="Kladower Damm"/>
    <tag k="addr:suburb" v="Gatow"/>
    <tag k="building" v="yes"/>
    <tag k="source" v="Geoportal Berlin / Hauskoordinaten"/>
  </way>
  <way id="244820168" version="2" timestamp="2015-10-29T07:46:00Z" changeset="34942814" uid="66391" user="geozeisig">
    <nd ref="2520912165"/>
    <nd ref="2520912166"/>
    <nd ref="2854766911"/>
    <nd ref="2520912168"/>
    <nd ref="2520912165"/>
    <tag k="addr:city" v="Berlin"/>
    <tag k="addr:country" v="DE"/>
    <tag k="addr:housenumber" v="37A"/>
    <tag k="addr:postcode" v="14089"/>
    <tag k="addr:street" v="Kladower Damm"/>
    <tag k="addr:suburb" v="Gatow"/>
    <tag k="building" v="yes"/>
    <tag k="source" v="Geoportal Berlin / Hauskoordinaten"/>
  </way>
  <way id="244820169" version="2" timestamp="2015-10-29T07:46:00Z" changeset="34942814" uid="66391" user="geozeisig">
    <nd ref="2520912169"/>
    <nd ref="2520912170"/>
    <nd ref="2854757289"/>
    <nd ref="2520912172"/>
    <nd ref="2520912169"/>
    <tag k="addr:city" v="Berlin"/>
    <tag k="addr:country" v="DE"/>
    <tag k="addr:housenumber" v="37B"/>
    <tag k="addr:postcode" v="14089"/>
    <tag k="addr:street" v="Kladower Damm"/>
    <tag k="addr:suburb" v="Gatow"/>
    <tag k="building" v="yes"/>
    <tag k="source" v="Geoportal Berlin / Hauskoordinaten"/>
  </way>
  <way id="244820170" version="2" timestamp="2015-10-29T07:46:00Z" changeset="34942814" uid="66391" user="geozeisig">
    <nd ref="2520912173"/>
    <nd ref="2520912174"/>
    <nd ref="2854766913"/>
    <nd ref="2520912176"/>
    <nd ref="2520912173"/>
    <tag k="addr:city" v="Berlin"/>
    <tag k="addr:country" v="DE"/>
    <tag k="addr:housenumber" v="37C"/>
    <tag k="addr:postcode" v="14089"/>
    <tag k="addr:street" v="Kladower Damm"/>
    <tag k="addr:suburb" v="Gatow"/>
    <tag k="building" v="yes"/>
    <tag k="source" v="Geoportal Berlin / Hauskoordinaten"/>
  </way>
  <way id="244820171" version="2" timestamp="2015-10-29T07:46:01Z" changeset="34942814" uid="66391" user="geozeisig">
    <nd ref="2520912177"/>
    <nd ref="2520912178"/>
    <nd ref="2854754859"/>
    <nd ref="2520912180"/>
    <nd ref="2520912177"/>
    <tag k="addr:city" v="Berlin"/>
    <tag k="addr:country" v="DE"/>
    <tag k="addr:housenumber" v="37D"/>
    <tag k="addr:postcode" v="14089"/>
    <tag k="addr:street" v="Kladower Damm"/>
    <tag k="addr:suburb" v="Gatow"/>
    <tag k="building" v="yes"/>
    <tag k="source" v="Geoportal Berlin / Hauskoordinaten"/>
  </way>
  <way id="244820172" version="2" timestamp="2015-10-29T07:46:01Z" changeset="34942814" uid="66391" user="geozeisig">
    <nd ref="2520912181"/>
    <nd ref="2520912182"/>
    <nd ref="2520912183"/>
    <nd ref="2854766914"/>
    <nd ref="2520912181"/>
    <tag k="addr:city" v="Berlin"/>
    <tag k="addr:country" v="DE"/>
    <tag k="addr:housenumber" v="37E"/>
    <tag k="addr:postcode" v="14089"/>
    <tag k="addr:street" v="Kladower Damm"/>
    <tag k="addr:suburb" v="Gatow"/>
    <tag k="building" v="yes"/>
    <tag k="source" v="Geoportal Berlin / Hauskoordinaten"/>
  </way>
  <way id="244820173" version="2" timestamp="2015-10-29T07:46:01Z" changeset="34942814" uid="66391" user="geozeisig">
    <nd ref="2520912185"/>
    <nd ref="2520912186"/>
    <nd ref="2520912187"/>
    <nd ref="2854766915"/>
    <nd ref="2520912185"/>
    <tag k="addr:city" v="Berlin"/>
    <tag k="addr:country" v="DE"/>
    <tag k="addr:housenumber" v="37F"/>
    <tag k="addr:postcode" v="14089"/>
    <tag k="addr:street" v="Kladower Damm"/>
    <tag k="addr:suburb" v="Gatow"/>
    <tag k="building" v="yes"/>
    <tag k="source" v="Geoportal Berlin / Hauskoordinaten"/>
  </way>
  <way id="244820174" version="2" timestamp="2015-10-29T07:46:01Z" changeset="34942814" uid="66391" user="geozeisig">
    <nd ref="2520912189"/>
    <nd ref="2520912190"/>
    <nd ref="2520912191"/>
    <nd ref="2854757859"/>
    <nd ref="2520912189"/>
    <tag k="addr:city" v="Berlin"/>
    <tag k="addr:country" v="DE"/>
    <tag k="addr:housenumber" v="37G"/>
    <tag k="addr:postcode" v="14089"/>
    <tag k="addr:street" v="Kladower Damm"/>
    <tag k="addr:suburb" v="Gatow"/>
    <tag k="building" v="yes"/>
    <tag k="source" v="Geoportal Berlin / Hauskoordinaten"/>
  </way>
  <way id="244820191" version="2" timestamp="2019-07-31T13:34:37Z" changeset="72857335" uid="1468248" user="PantherStrix">
    <nd ref="2520912266"/>
    <nd ref="2520912267"/>
    <nd ref="2520912269"/>
    <nd ref="2520912270"/>
    <nd ref="2520912266"/>
    <tag k="addr:city" v="Berlin"/>
    <tag k="addr:housenumber" v="55"/>
    <tag k="addr:postcode" v="14089"/>
    <tag k="addr:street" v="Kladower Damm"/>
    <tag k="addr:suburb" v="Gatow"/>
    <tag k="building" v="bungalow"/>
    <tag k="roof:shape" v="gabled"/>
    <tag k="source" v="Geoportal Berlin / Hauskoordinaten"/>
  </way>
  <way id="244820206" version="6" timestamp="2024-11-12T07:02:36Z" changeset="159037628" uid="66391" user="geozeisig">
    <nd ref="2520912355"/>
    <nd ref="2520912356"/>
    <nd ref="12106619869"/>
    <nd ref="12106619870"/>
    <nd ref="12106619871"/>
    <nd ref="12106619872"/>
    <nd ref="12106619873"/>
    <nd ref="12106619874"/>
    <nd ref="2520912357"/>
    <nd ref="2854726607"/>
    <nd ref="2520912355"/>
    <tag k="addr:city" v="Berlin"/>
    <tag k="addr:country" v="DE"/>
    <tag k="addr:housenumber" v="100"/>
    <tag k="addr:postcode" v="14089"/>
    <tag k="addr:street" v="Kladower Damm"/>
    <tag k="addr:suburb" v="Gatow"/>
    <tag k="amenity" v="restaurant"/>
    <tag k="building" v="yes"/>
    <tag k="cuisine" v="burger;steak_house;barbecue"/>
    <tag k="diet:meat" v="yes"/>
    <tag k="diet:omnivore" v="yes"/>
    <tag k="name" v="Goldhorn-Beefclub"/>
    <tag k="phone" v="+49 30 75941273"/>
    <tag k="source" v="Geoportal Berlin / Hauskoordinaten"/>
    <tag k="website" v="https://www.goldhorn-beefclub.de/speisekarte.php"/>
  </way>
  <way id="244820211" version="2" timestamp="2017-12-13T08:38:21Z" changeset="54589058" uid="66391" user="geozeisig">
    <nd ref="2520912375"/>
    <nd ref="2520912376"/>
    <nd ref="2854724992"/>
    <nd ref="2520912378"/>
    <nd ref="2520912375"/>
    <tag k="addr:city" v="Berlin"/>
    <tag k="addr:country" v="DE"/>
    <tag k="addr:housenumber" v="15"/>
    <tag k="addr:postcode" v="14089"/>
    <tag k="addr:street" v="Havelmatensteig"/>
    <tag k="addr:suburb" v="Gatow"/>
    <tag k="building" v="yes"/>
    <tag k="source" v="Geoportal Berlin / Hauskoordinaten"/>
  </way>
  <way id="244821623" version="4" timestamp="2024-11-12T07:02:36Z" changeset="159037628" uid="66391" user="geozeisig">
    <nd ref="2520926099"/>
    <nd ref="2520926100"/>
    <nd ref="2520926102"/>
    <nd ref="2520926103"/>
    <nd ref="2520926099"/>
    <tag k="addr:city" v="Berlin"/>
    <tag k="addr:country" v="DE"/>
    <tag k="addr:housenumber" v="1"/>
    <tag k="addr:postcode" v="14089"/>
    <tag k="addr:street" v="Marquardter Weg"/>
    <tag k="addr:suburb" v="Gatow"/>
    <tag k="building" v="yes"/>
  </way>
  <way id="244821644" version="2" timestamp="2015-10-29T07:45:59Z" changeset="34942814" uid="66391" user="geozeisig">
    <nd ref="2520926238"/>
    <nd ref="2854757991"/>
    <nd ref="2520926240"/>
    <nd ref="2520926242"/>
    <nd ref="2520926238"/>
    <tag k="addr:city" v="Berlin"/>
    <tag k="addr:country" v="DE"/>
    <tag k="addr:housenumber" v="3"/>
    <tag k="addr:postcode" v="14089"/>
    <tag k="addr:street" v="Krielower Weg"/>
    <tag k="addr:suburb" v="Gatow"/>
    <tag k="building" v="yes"/>
    <tag k="source" v="Geoportal Berlin / Hauskoordinaten"/>
  </way>
  <way id="244821655" version="2" timestamp="2019-04-13T07:01:59Z" changeset="69169589" uid="66391" user="geozeisig">
    <nd ref="2520926303"/>
    <nd ref="2520926304"/>
    <nd ref="2854757105"/>
    <nd ref="2520926306"/>
    <nd ref="2520926303"/>
    <tag k="addr:city" v="Berlin"/>
    <tag k="addr:housenumber" v="23"/>
    <tag k="addr:postcode" v="14089"/>
    <tag k="addr:street" v="Hellebergeweg"/>
    <tag k="addr:suburb" v="Gatow"/>
    <tag k="building" v="yes"/>
    <tag k="source" v="Geoportal Berlin / Hauskoordinaten"/>
  </way>
  <way id="244821656" version="2" timestamp="2019-04-13T07:01:59Z" changeset="69169589" uid="66391" user="geozeisig">
    <nd ref="2520926307"/>
    <nd ref="2520926308"/>
    <nd ref="2854758329"/>
    <nd ref="2520926310"/>
    <nd ref="2520926307"/>
    <tag k="addr:city" v="Berlin"/>
    <tag k="addr:housenumber" v="27"/>
    <tag k="addr:postcode" v="14089"/>
    <tag k="addr:street" v="Hellebergeweg"/>
    <tag k="addr:suburb" v="Gatow"/>
    <tag k="building" v="yes"/>
    <tag k="source" v="Geoportal Berlin / Hauskoordinaten"/>
  </way>
  <way id="244821657" version="2" timestamp="2015-10-29T07:46:02Z" changeset="34942814" uid="66391" user="geozeisig">
    <nd ref="2520926311"/>
    <nd ref="2854766262"/>
    <nd ref="2520926313"/>
    <nd ref="2520926314"/>
    <nd ref="2520926311"/>
    <tag k="addr:city" v="Berlin"/>
    <tag k="addr:country" v="DE"/>
    <tag k="addr:housenumber" v="5"/>
    <tag k="addr:postcode" v="14089"/>
    <tag k="addr:street" v="Krielower Weg"/>
    <tag k="addr:suburb" v="Gatow"/>
    <tag k="building" v="yes"/>
    <tag k="source" v="Geoportal Berlin / Hauskoordinaten"/>
  </way>
  <way id="244821658" version="2" timestamp="2019-04-13T07:01:59Z" changeset="69169589" uid="66391" user="geozeisig">
    <nd ref="2520926315"/>
    <nd ref="2854726137"/>
    <nd ref="2520926317"/>
    <nd ref="2520926318"/>
    <nd ref="2520926315"/>
    <tag k="addr:city" v="Berlin"/>
    <tag k="addr:housenumber" v="21"/>
    <tag k="addr:postcode" v="14089"/>
    <tag k="addr:street" v="Hellebergeweg"/>
    <tag k="addr:suburb" v="Gatow"/>
    <tag k="building" v="yes"/>
    <tag k="source" v="Geoportal Berlin / Hauskoordinaten"/>
  </way>
  <way id="244821664" version="3" timestamp="2019-08-25T18:46:35Z" changeset="73724341" uid="9508237" user="momabebra">
    <nd ref="2520926349"/>
    <nd ref="6744545416"/>
    <nd ref="6744545415"/>
    <nd ref="2854724707"/>
    <nd ref="2520926351"/>
    <nd ref="2520926352"/>
    <nd ref="2520926349"/>
    <tag k="addr:city" v="Berlin"/>
    <tag k="addr:country" v="DE"/>
    <tag k="addr:housenumber" v="10"/>
    <tag k="addr:postcode" v="14089"/>
    <tag k="addr:street" v="Uetzer Steig"/>
    <tag k="addr:suburb" v="Gatow"/>
    <tag k="building" v="yes"/>
    <tag k="source" v="Geoportal Berlin / Hauskoordinaten"/>
  </way>
  <way id="244821666" version="3" timestamp="2019-08-25T18:46:35Z" changeset="73724341" uid="9508237" user="momabebra">
    <nd ref="2854725700"/>
    <nd ref="6744545405"/>
    <nd ref="6744545406"/>
    <nd ref="2520926358"/>
    <nd ref="2520926359"/>
    <nd ref="2520926360"/>
    <nd ref="2854725700"/>
    <tag k="addr:city" v="Berlin"/>
    <tag k="addr:country" v="DE"/>
    <tag k="addr:housenumber" v="16"/>
    <tag k="addr:postcode" v="14089"/>
    <tag k="addr:street" v="Uetzer Steig"/>
    <tag k="addr:suburb" v="Gatow"/>
    <tag k="building" v="yes"/>
    <tag k="source" v="Geoportal Berlin / Hauskoordinaten"/>
  </way>
  <way id="244821673" version="2" timestamp="2015-10-29T07:46:03Z" changeset="34942814" uid="66391" user="geozeisig">
    <nd ref="2854804901"/>
    <nd ref="2520926386"/>
    <nd ref="2520926387"/>
    <nd ref="2520926388"/>
    <nd ref="2854804901"/>
    <tag k="addr:city" v="Berlin"/>
    <tag k="addr:country" v="DE"/>
    <tag k="addr:housenumber" v="9A"/>
    <tag k="addr:postcode" v="14089"/>
    <tag k="addr:street" v="Im Eulengrund"/>
    <tag k="addr:suburb" v="Gatow"/>
    <tag k="building" v="yes"/>
    <tag k="source" v="Geoportal Berlin / Hauskoordinaten"/>
  </way>
  <way id="244821680" version="2" timestamp="2015-10-29T07:46:03Z" changeset="34942814" uid="66391" user="geozeisig">
    <nd ref="2520926428"/>
    <nd ref="2520926429"/>
    <nd ref="2520926430"/>
    <nd ref="2854792439"/>
    <nd ref="2520926428"/>
    <tag k="addr:city" v="Berlin"/>
    <tag k="addr:country" v="DE"/>
    <tag k="addr:housenumber" v="9"/>
    <tag k="addr:postcode" v="14089"/>
    <tag k="addr:street" v="Im Eulengrund"/>
    <tag k="addr:suburb" v="Gatow"/>
    <tag k="building" v="yes"/>
    <tag k="source" v="Geoportal Berlin / Hauskoordinaten"/>
  </way>
  <way id="244821682" version="2" timestamp="2019-01-15T11:01:27Z" changeset="66328236" uid="66391" user="geozeisig">
    <nd ref="2520926436"/>
    <nd ref="2520926437"/>
    <nd ref="2854746006"/>
    <nd ref="2520926439"/>
    <nd ref="2520926436"/>
    <tag k="addr:city" v="Berlin"/>
    <tag k="addr:housenumber" v="18"/>
    <tag k="addr:postcode" v="14089"/>
    <tag k="addr:street" v="Am Kiefernhang"/>
    <tag k="addr:suburb" v="Gatow"/>
    <tag k="building" v="yes"/>
    <tag k="source" v="Geoportal Berlin / Hauskoordinaten"/>
  </way>
  <way id="244821683" version="2" timestamp="2015-10-29T07:45:59Z" changeset="34942814" uid="66391" user="geozeisig">
    <nd ref="2520926441"/>
    <nd ref="2520926442"/>
    <nd ref="2854757107"/>
    <nd ref="2520926444"/>
    <nd ref="2520926441"/>
    <tag k="addr:city" v="Berlin"/>
    <tag k="addr:country" v="DE"/>
    <tag k="addr:housenumber" v="23"/>
    <tag k="addr:postcode" v="14089"/>
    <tag k="addr:street" v="Im Eulengrund"/>
    <tag k="addr:suburb" v="Gatow"/>
    <tag k="building" v="yes"/>
    <tag k="source" v="Geoportal Berlin / Hauskoordinaten"/>
  </way>
  <way id="244821684" version="2" timestamp="2019-01-15T11:01:27Z" changeset="66328236" uid="66391" user="geozeisig">
    <nd ref="2854725196"/>
    <nd ref="2520926446"/>
    <nd ref="2520926447"/>
    <nd ref="2520926449"/>
    <nd ref="2854725196"/>
    <tag k="addr:city" v="Berlin"/>
    <tag k="addr:housenumber" v="17"/>
    <tag k="addr:postcode" v="14089"/>
    <tag k="addr:street" v="Im Eulengrund"/>
    <tag k="addr:suburb" v="Gatow"/>
    <tag k="building" v="yes"/>
    <tag k="heritage" v="4"/>
    <tag k="heritage:operator" v="lda"/>
    <tag k="lda:criteria" v="Baudenkmal"/>
    <tag k="old_name" v="Haus Simon"/>
    <tag k="ref:lda" v="09085614"/>
    <tag k="source" v="Geoportal Berlin / Hauskoordinaten"/>
  </way>
  <way id="244821687" version="2" timestamp="2019-01-15T11:01:28Z" changeset="66328236" uid="66391" user="geozeisig">
    <nd ref="2520926466"/>
    <nd ref="2854759107"/>
    <nd ref="2520926468"/>
    <nd ref="2520926469"/>
    <nd ref="2520926466"/>
    <tag k="addr:city" v="Berlin"/>
    <tag k="addr:housenumber" v="26"/>
    <tag k="addr:postcode" v="14089"/>
    <tag k="addr:street" v="Am Kiefernhang"/>
    <tag k="addr:suburb" v="Gatow"/>
    <tag k="building" v="yes"/>
    <tag k="source" v="Geoportal Berlin / Hauskoordinaten"/>
  </way>
  <way id="244821689" version="2" timestamp="2015-10-29T07:45:59Z" changeset="34942814" uid="66391" user="geozeisig">
    <nd ref="2520926474"/>
    <nd ref="2854757235"/>
    <nd ref="2520926476"/>
    <nd ref="2520926477"/>
    <nd ref="2520926474"/>
    <tag k="addr:city" v="Berlin"/>
    <tag k="addr:country" v="DE"/>
    <tag k="addr:housenumber" v="28"/>
    <tag k="addr:inclusion" v="potential"/>
    <tag k="addr:postcode" v="14089"/>
    <tag k="addr:street" v="Waldschluchtpfad"/>
    <tag k="addr:suburb" v="Gatow"/>
    <tag k="building" v="yes"/>
    <tag k="source" v="Geoportal Berlin / Hauskoordinaten"/>
  </way>
  <way id="244821706" version="2" timestamp="2019-07-31T13:34:37Z" changeset="72857335" uid="1468248" user="PantherStrix">
    <nd ref="2520926630"/>
    <nd ref="2520926631"/>
    <nd ref="2520926632"/>
    <nd ref="2520926633"/>
    <nd ref="2520926630"/>
    <tag k="addr:city" v="Berlin"/>
    <tag k="addr:housenumber" v="17C"/>
    <tag k="addr:postcode" v="14089"/>
    <tag k="addr:street" v="Uetzer Steig"/>
    <tag k="addr:suburb" v="Gatow"/>
    <tag k="building" v="detached"/>
    <tag k="roof:shape" v="half-hipped"/>
    <tag k="source" v="Geoportal Berlin / Hauskoordinaten"/>
  </way>
  <way id="244821712" version="3" timestamp="2019-07-31T13:34:37Z" changeset="72857335" uid="1468248" user="PantherStrix">
    <nd ref="2520926654"/>
    <nd ref="2520926655"/>
    <nd ref="2520926656"/>
    <nd ref="2520926657"/>
    <nd ref="3807993576"/>
    <nd ref="2854750366"/>
    <nd ref="2520926654"/>
    <tag k="addr:city" v="Berlin"/>
    <tag k="addr:country" v="DE"/>
    <tag k="addr:housenumber" v="20"/>
    <tag k="addr:postcode" v="14089"/>
    <tag k="addr:street" v="Havelmatensteig"/>
    <tag k="addr:suburb" v="Gatow"/>
    <tag k="building" v="detached"/>
    <tag k="source" v="Geoportal Berlin / Hauskoordinaten"/>
  </way>
  <way id="244822594" version="2" timestamp="2019-07-31T13:34:37Z" changeset="72857335" uid="1468248" user="PantherStrix">
    <nd ref="2520934082"/>
    <nd ref="2520934085"/>
    <nd ref="2520934088"/>
    <nd ref="2520934091"/>
    <nd ref="2520934082"/>
    <tag k="addr:city" v="Berlin"/>
    <tag k="addr:housenumber" v="19C"/>
    <tag k="addr:postcode" v="14089"/>
    <tag k="addr:street" v="Uetzer Steig"/>
    <tag k="addr:suburb" v="Gatow"/>
    <tag k="building" v="detached"/>
    <tag k="source" v="Geoportal Berlin / Hauskoordinaten"/>
  </way>
  <way id="244822596" version="2" timestamp="2019-07-31T13:34:37Z" changeset="72857335" uid="1468248" user="PantherStrix">
    <nd ref="2520934094"/>
    <nd ref="2520934106"/>
    <nd ref="2520934108"/>
    <nd ref="6665768016"/>
    <nd ref="6665768019"/>
    <nd ref="2520934111"/>
    <nd ref="2520934094"/>
    <tag k="addr:city" v="Berlin"/>
    <tag k="addr:housenumber" v="24"/>
    <tag k="addr:postcode" v="14089"/>
    <tag k="addr:street" v="Krielower Weg"/>
    <tag k="addr:suburb" v="Gatow"/>
    <tag k="building" v="detached"/>
    <tag k="roof:shape" v="half-hipped"/>
    <tag k="source" v="Geoportal Berlin / Hauskoordinaten"/>
  </way>
  <way id="244822597" version="2" timestamp="2019-07-31T13:34:37Z" changeset="72857335" uid="1468248" user="PantherStrix">
    <nd ref="2520934114"/>
    <nd ref="6665768032"/>
    <nd ref="2520934117"/>
    <nd ref="6665768031"/>
    <nd ref="2520934120"/>
    <nd ref="2520934124"/>
    <nd ref="2520934114"/>
    <tag k="addr:city" v="Berlin"/>
    <tag k="addr:housenumber" v="20B"/>
    <tag k="addr:postcode" v="14089"/>
    <tag k="addr:street" v="Krielower Weg"/>
    <tag k="addr:suburb" v="Gatow"/>
    <tag k="building" v="detached"/>
    <tag k="roof:shape" v="pyramidal"/>
    <tag k="source" v="Geoportal Berlin / Hauskoordinaten"/>
  </way>
  <way id="244822598" version="2" timestamp="2019-07-31T13:34:37Z" changeset="72857335" uid="1468248" user="PantherStrix">
    <nd ref="2520934127"/>
    <nd ref="2520934129"/>
    <nd ref="2520934132"/>
    <nd ref="2520934135"/>
    <nd ref="2520934127"/>
    <tag k="addr:city" v="Berlin"/>
    <tag k="addr:housenumber" v="18B"/>
    <tag k="addr:postcode" v="14089"/>
    <tag k="addr:street" v="Krielower Weg"/>
    <tag k="addr:suburb" v="Gatow"/>
    <tag k="building" v="detached"/>
    <tag k="source" v="Geoportal Berlin / Hauskoordinaten"/>
  </way>
  <way id="244822639" version="4" timestamp="2019-07-31T13:34:37Z" changeset="72857335" uid="1468248" user="PantherStrix">
    <nd ref="2854723420"/>
    <nd ref="2520934283"/>
    <nd ref="2520934284"/>
    <nd ref="2520934285"/>
    <nd ref="2854723420"/>
    <tag k="addr:city" v="Berlin"/>
    <tag k="addr:country" v="DE"/>
    <tag k="addr:housenumber" v="22"/>
    <tag k="addr:postcode" v="14089"/>
    <tag k="addr:street" v="Havelmatensteig"/>
    <tag k="addr:suburb" v="Gatow"/>
    <tag k="building" v="detached"/>
    <tag k="heritage" v="4"/>
    <tag k="heritage:operator" v="lda"/>
    <tag k="lda:criteria" v="Baudenkmal"/>
    <tag k="old_name" v="Haus Neitzke"/>
    <tag k="ref:lda" v="09085597"/>
    <tag k="source" v="Geoportal Berlin / Hauskoordinaten"/>
  </way>
  <way id="244822722" version="2" timestamp="2015-10-29T07:45:59Z" changeset="34942814" uid="66391" user="geozeisig">
    <nd ref="2854758711"/>
    <nd ref="2520934652"/>
    <nd ref="2520934653"/>
    <nd ref="2520934654"/>
    <nd ref="2854758711"/>
    <tag k="addr:city" v="Berlin"/>
    <tag k="addr:country" v="DE"/>
    <tag k="addr:housenumber" v="26"/>
    <tag k="addr:postcode" v="14089"/>
    <tag k="addr:street" v="Uetzer Steig"/>
    <tag k="addr:suburb" v="Gatow"/>
    <tag k="building" v="yes"/>
    <tag k="source" v="Geoportal Berlin / Hauskoordinaten"/>
  </way>
  <way id="244822723" version="2" timestamp="2015-10-29T07:45:58Z" changeset="34942814" uid="66391" user="geozeisig">
    <nd ref="2520934655"/>
    <nd ref="2854756203"/>
    <nd ref="2520934657"/>
    <nd ref="2520934658"/>
    <nd ref="2520934655"/>
    <tag k="addr:city" v="Berlin"/>
    <tag k="addr:country" v="DE"/>
    <tag k="addr:housenumber" v="22"/>
    <tag k="addr:postcode" v="14089"/>
    <tag k="addr:street" v="Uetzer Steig"/>
    <tag k="addr:suburb" v="Gatow"/>
    <tag k="building" v="yes"/>
    <tag k="source" v="Geoportal Berlin / Hauskoordinaten"/>
  </way>
  <way id="244823713" version="4" timestamp="2024-12-11T15:10:17Z" changeset="160172836" uid="2927605" user="alamero">
    <nd ref="2520960128"/>
    <nd ref="12324348089"/>
    <nd ref="2520960130"/>
    <nd ref="12324348088"/>
    <nd ref="12324348087"/>
    <nd ref="12324348086"/>
    <nd ref="12324348085"/>
    <nd ref="12324348084"/>
    <nd ref="12324348083"/>
    <nd ref="12324348082"/>
    <nd ref="12324348081"/>
    <nd ref="12324348080"/>
    <nd ref="12324348079"/>
    <nd ref="12324348078"/>
    <nd ref="12324348077"/>
    <nd ref="12324348076"/>
    <nd ref="12324348075"/>
    <nd ref="12412777328"/>
    <nd ref="2854774355"/>
    <nd ref="2520960133"/>
    <nd ref="12324405504"/>
    <nd ref="12324405503"/>
    <nd ref="12324405502"/>
    <nd ref="12324405501"/>
    <nd ref="12324348100"/>
    <nd ref="12324348099"/>
    <nd ref="12324348098"/>
    <nd ref="12324348097"/>
    <nd ref="12324348096"/>
    <nd ref="12324348095"/>
    <nd ref="12324348094"/>
    <nd ref="12324348093"/>
    <nd ref="12324348092"/>
    <nd ref="12324348091"/>
    <nd ref="12324348090"/>
    <nd ref="2520960128"/>
    <tag k="addr:city" v="Berlin"/>
    <tag k="addr:housenumber" v="51"/>
    <tag k="addr:postcode" v="14089"/>
    <tag k="addr:street" v="Breitehornweg"/>
    <tag k="addr:suburb" v="Gatow"/>
    <tag k="building" v="yes"/>
    <tag k="source" v="Geoportal Berlin / Hauskoordinaten"/>
  </way>
  <way id="244823715" version="5" timestamp="2024-12-11T15:10:17Z" changeset="160172836" uid="2927605" user="alamero">
    <nd ref="2854775455"/>
    <nd ref="2520960135"/>
    <nd ref="2520960137"/>
    <nd ref="2520960141"/>
    <nd ref="12412777319"/>
    <nd ref="12324405530"/>
    <nd ref="2520960138"/>
    <nd ref="12324822471"/>
    <nd ref="2854775455"/>
    <tag k="addr:city" v="Berlin"/>
    <tag k="addr:housenumber" v="54"/>
    <tag k="addr:postcode" v="14089"/>
    <tag k="addr:street" v="Breitehornweg"/>
    <tag k="addr:suburb" v="Gatow"/>
    <tag k="building" v="yes"/>
    <tag k="heritage" v="4"/>
    <tag k="heritage:operator" v="lda"/>
    <tag k="lda:criteria" v="Baudenkmal"/>
    <tag k="old_name" v="Auslandshaus der Hitlerjugend"/>
    <tag k="ref:lda" v="09085469"/>
    <tag k="source" v="Geoportal Berlin / Hauskoordinaten"/>
  </way>
  <way id="244914635" version="2" timestamp="2015-10-29T07:45:55Z" changeset="34942814" uid="66391" user="geozeisig">
    <nd ref="2854724546"/>
    <nd ref="2521872230"/>
    <nd ref="2521872231"/>
    <nd ref="2521872232"/>
    <nd ref="2854724546"/>
    <tag k="addr:city" v="Berlin"/>
    <tag k="addr:country" v="DE"/>
    <tag k="addr:housenumber" v="11B"/>
    <tag k="addr:postcode" v="14089"/>
    <tag k="addr:street" v="Kladower Damm"/>
    <tag k="addr:suburb" v="Gatow"/>
    <tag k="building" v="yes"/>
    <tag k="source" v="Geoportal Berlin / Hauskoordinaten"/>
  </way>
  <way id="283909978" version="1" timestamp="2014-05-24T06:18:03Z" changeset="22517210" uid="10549" user="toaster">
    <nd ref="2877251763"/>
    <nd ref="2877251760"/>
    <nd ref="1394080250"/>
    <nd ref="1394080285"/>
    <nd ref="2877251763"/>
    <tag k="building" v="hospital"/>
    <tag k="name" v="Haus 1"/>
  </way>
  <way id="283909979" version="1" timestamp="2014-05-24T06:18:03Z" changeset="22517210" uid="10549" user="toaster">
    <nd ref="2877251759"/>
    <nd ref="2877251760"/>
    <nd ref="2877251763"/>
    <nd ref="2877251764"/>
    <nd ref="2877251762"/>
    <nd ref="2877251761"/>
    <nd ref="2877251759"/>
    <tag k="building" v="hospital"/>
    <tag k="name" v="Haus 1a"/>
  </way>
  <way id="283909980" version="1" timestamp="2014-05-24T06:18:03Z" changeset="22517210" uid="10549" user="toaster">
    <nd ref="1394080112"/>
    <nd ref="1394080080"/>
    <nd ref="1394080061"/>
    <nd ref="1394080102"/>
    <nd ref="1394080112"/>
    <tag k="building" v="hospital"/>
    <tag k="name" v="Haus 2a"/>
  </way>
  <way id="283909981" version="1" timestamp="2014-05-24T06:18:03Z" changeset="22517210" uid="10549" user="toaster">
    <nd ref="1394080223"/>
    <nd ref="1394080248"/>
    <nd ref="1394080281"/>
    <nd ref="1394080287"/>
    <nd ref="1394080272"/>
    <nd ref="1394080266"/>
    <nd ref="1394080223"/>
    <tag k="building" v="hospital"/>
    <tag k="name" v="Haus 5a"/>
  </way>
  <way id="283909982" version="1" timestamp="2014-05-24T06:18:04Z" changeset="22517210" uid="10549" user="toaster">
    <nd ref="1394080374"/>
    <nd ref="1394080373"/>
    <nd ref="1394080378"/>
    <nd ref="1394080351"/>
    <nd ref="1394080357"/>
    <nd ref="1394080346"/>
    <nd ref="1394080344"/>
    <nd ref="1394080339"/>
    <nd ref="1394080306"/>
    <nd ref="1394080324"/>
    <nd ref="1394080312"/>
    <nd ref="1394080316"/>
    <nd ref="1394080330"/>
    <nd ref="1394080359"/>
    <nd ref="1394080374"/>
    <tag k="building" v="hospital"/>
    <tag k="name" v="Haus 7"/>
  </way>
  <way id="286663932" version="2" timestamp="2019-04-14T06:08:30Z" changeset="69193787" uid="66391" user="geozeisig">
    <nd ref="2903344824"/>
    <nd ref="2903346513"/>
    <nd ref="2903345712"/>
    <nd ref="2854726653"/>
    <nd ref="2903344824"/>
    <tag k="addr:city" v="Berlin"/>
    <tag k="addr:country" v="DE"/>
    <tag k="addr:housenumber" v="12"/>
    <tag k="addr:postcode" v="14089"/>
    <tag k="addr:street" v="Kurt-Marzahn-Straße"/>
    <tag k="addr:suburb" v="Gatow"/>
    <tag k="building" v="yes"/>
    <tag k="source" v="Geoportal Berlin / Hauskoordinaten"/>
  </way>
  <way id="286663967" version="3" timestamp="2024-11-12T07:02:36Z" changeset="159037628" uid="66391" user="geozeisig">
    <nd ref="2903348748"/>
    <nd ref="2903348649"/>
    <nd ref="2903349344"/>
    <nd ref="2903348747"/>
    <nd ref="2903348832"/>
    <nd ref="2903349715"/>
    <nd ref="3035084334"/>
    <nd ref="2903349830"/>
    <nd ref="2903348748"/>
    <tag k="addr:city" v="Berlin"/>
    <tag k="addr:housenumber" v="59"/>
    <tag k="addr:postcode" v="14089"/>
    <tag k="addr:street" v="Rothenbücherweg"/>
    <tag k="addr:suburb" v="Gatow"/>
    <tag k="building" v="yes"/>
    <tag k="source" v="Geoportal Berlin / Hauskoordinaten"/>
  </way>
  <way id="286663973" version="4" timestamp="2024-11-12T07:02:36Z" changeset="159037628" uid="66391" user="geozeisig">
    <nd ref="2903330621"/>
    <nd ref="2903331201"/>
    <nd ref="2903331204"/>
    <nd ref="2903331009"/>
    <nd ref="2903331007"/>
    <nd ref="2903330611"/>
    <nd ref="2903330610"/>
    <nd ref="2903330808"/>
    <nd ref="2903330911"/>
    <nd ref="2903331019"/>
    <nd ref="2903330915"/>
    <nd ref="2903330918"/>
    <nd ref="2903330621"/>
    <tag k="addr:city" v="Berlin"/>
    <tag k="addr:housenumber" v="9-11"/>
    <tag k="addr:postcode" v="14089"/>
    <tag k="addr:street" v="Pfirsichweg"/>
    <tag k="addr:suburb" v="Gatow"/>
    <tag k="building" v="yes"/>
    <tag k="club" v="sport"/>
    <tag k="leisure" v="sports_centre"/>
    <tag k="name" v="Ruderverein Collegia 1895"/>
    <tag k="phone" v="+49 (0)30 361 1234"/>
    <tag k="sport" v="rowing"/>
    <tag k="website" v="https://www.rv-collegia.de/"/>
  </way>
  <way id="286664096" version="4" timestamp="2024-11-12T07:02:36Z" changeset="159037628" uid="66391" user="geozeisig">
    <nd ref="2903351910"/>
    <nd ref="2903347861"/>
    <nd ref="2903346362"/>
    <nd ref="2903348745"/>
    <nd ref="2903351908"/>
    <nd ref="2903348744"/>
    <nd ref="2903349826"/>
    <nd ref="2903342655"/>
    <nd ref="2903349939"/>
    <nd ref="2903350027"/>
    <nd ref="2903349644"/>
    <nd ref="2903348642"/>
    <nd ref="3035083519"/>
    <nd ref="2903342652"/>
    <nd ref="2903345381"/>
    <nd ref="2903347736"/>
    <nd ref="2903350026"/>
    <nd ref="2903348643"/>
    <nd ref="2903352101"/>
    <nd ref="2903349825"/>
    <nd ref="2903342656"/>
    <nd ref="2903351705"/>
    <nd ref="2903350028"/>
    <nd ref="2903351910"/>
    <tag k="addr:city" v="Berlin"/>
    <tag k="addr:country" v="DE"/>
    <tag k="addr:housenumber" v="57"/>
    <tag k="addr:postcode" v="14089"/>
    <tag k="addr:street" v="Rothenbücherweg"/>
    <tag k="addr:suburb" v="Gatow"/>
    <tag k="building" v="yes"/>
    <tag k="heritage" v="4"/>
    <tag k="heritage:operator" v="lda"/>
    <tag k="lda:criteria" v="Baudenkmal"/>
    <tag k="ref:lda" v="09085766"/>
    <tag k="source" v="Geoportal Berlin / Hauskoordinaten"/>
    <tag k="start_date" v="1960"/>
    <tag k="wikidata" v="Q61767858"/>
  </way>
  <way id="286664150" version="3" timestamp="2024-11-12T07:02:36Z" changeset="159037628" uid="66391" user="geozeisig">
    <nd ref="2903334128"/>
    <nd ref="2903334315"/>
    <nd ref="2903330769"/>
    <nd ref="3035080212"/>
    <nd ref="2903334128"/>
    <tag k="addr:city" v="Berlin"/>
    <tag k="addr:country" v="DE"/>
    <tag k="addr:housenumber" v="19"/>
    <tag k="addr:postcode" v="14089"/>
    <tag k="addr:street" v="Rothenbücherweg"/>
    <tag k="addr:suburb" v="Gatow"/>
    <tag k="building" v="yes"/>
    <tag k="heritage" v="4"/>
    <tag k="heritage:operator" v="lda"/>
    <tag k="lda:criteria" v="Baudenkmal"/>
    <tag k="ref:lda" v="09085764"/>
    <tag k="source" v="Geoportal Berlin / Hauskoordinaten"/>
    <tag k="start_date" v="1845"/>
  </way>
  <way id="286664179" version="2" timestamp="2019-04-14T06:08:31Z" changeset="69193787" uid="66391" user="geozeisig">
    <nd ref="2903346516"/>
    <nd ref="2903346307"/>
    <nd ref="2903346509"/>
    <nd ref="2854757503"/>
    <nd ref="2903346516"/>
    <tag k="addr:city" v="Berlin"/>
    <tag k="addr:country" v="DE"/>
    <tag k="addr:housenumber" v="23"/>
    <tag k="addr:postcode" v="14089"/>
    <tag k="addr:street" v="Emil-Basdeck-Straße"/>
    <tag k="addr:suburb" v="Gatow"/>
    <tag k="building" v="yes"/>
    <tag k="source" v="Geoportal Berlin / Hauskoordinaten"/>
  </way>
  <way id="286664386" version="3" timestamp="2024-04-27T04:38:29Z" changeset="150563692" uid="173981" user="biketeur">
    <nd ref="2903331379"/>
    <nd ref="2854776414"/>
    <nd ref="2903332452"/>
    <nd ref="2903334329"/>
    <nd ref="2903331379"/>
    <tag k="addr:city" v="Berlin"/>
    <tag k="addr:country" v="DE"/>
    <tag k="addr:housenumber" v="5"/>
    <tag k="addr:postcode" v="14089"/>
    <tag k="addr:street" v="Bardeyweg"/>
    <tag k="addr:suburb" v="Gatow"/>
    <tag k="building" v="semidetached_house"/>
    <tag k="heritage" v="4"/>
    <tag k="heritage:operator" v="lda"/>
    <tag k="lda:criteria" v="Baudenkmal"/>
    <tag k="ref:lda" v="09085455"/>
    <tag k="source" v="Geoportal Berlin / Hauskoordinaten"/>
    <tag k="start_date" v="1902"/>
  </way>
  <way id="286664554" version="3" timestamp="2024-04-27T04:38:29Z" changeset="150563692" uid="173981" user="biketeur">
    <nd ref="2903334329"/>
    <nd ref="2903332452"/>
    <nd ref="2854784711"/>
    <nd ref="2903335614"/>
    <nd ref="2903334329"/>
    <tag k="addr:city" v="Berlin"/>
    <tag k="addr:country" v="DE"/>
    <tag k="addr:housenumber" v="7"/>
    <tag k="addr:postcode" v="14089"/>
    <tag k="addr:street" v="Bardeyweg"/>
    <tag k="addr:suburb" v="Gatow"/>
    <tag k="building" v="semidetached_house"/>
    <tag k="heritage" v="4"/>
    <tag k="heritage:operator" v="lda"/>
    <tag k="lda:criteria" v="Baudenkmal"/>
    <tag k="ref:lda" v="09085456"/>
    <tag k="source" v="Geoportal Berlin / Hauskoordinaten"/>
    <tag k="start_date" v="1902"/>
  </way>
  <way id="286665022" version="2" timestamp="2019-04-14T06:08:34Z" changeset="69193787" uid="66391" user="geozeisig">
    <nd ref="2903349343"/>
    <nd ref="2903352901"/>
    <nd ref="2903352106"/>
    <nd ref="2903349719"/>
    <nd ref="2855462101"/>
    <nd ref="2903352201"/>
    <nd ref="2903349646"/>
    <nd ref="2903349717"/>
    <nd ref="2903352502"/>
    <nd ref="2903349343"/>
    <tag k="addr:city" v="Berlin"/>
    <tag k="addr:country" v="DE"/>
    <tag k="addr:housenumber" v="235H"/>
    <tag k="addr:postcode" v="14089"/>
    <tag k="addr:street" v="Gatower Straße"/>
    <tag k="addr:suburb" v="Gatow"/>
    <tag k="building" v="yes"/>
    <tag k="heritage" v="4"/>
    <tag k="heritage:operator" v="lda"/>
    <tag k="lda:criteria" v="Baudenkmal"/>
    <tag k="name" v="Villa Rothenbücher"/>
    <tag k="ref:lda" v="09085767"/>
    <tag k="source" v="Geoportal Berlin / Hauskoordinaten"/>
    <tag k="start_date" v="1890"/>
  </way>
  <way id="286665168" version="2" timestamp="2019-04-14T06:08:34Z" changeset="69193787" uid="66391" user="geozeisig">
    <nd ref="2903330506"/>
    <nd ref="2903330504"/>
    <nd ref="2854773746"/>
    <nd ref="2903330505"/>
    <nd ref="2903330506"/>
    <tag k="addr:city" v="Berlin"/>
    <tag k="addr:country" v="DE"/>
    <tag k="addr:housenumber" v="5"/>
    <tag k="addr:postcode" v="14089"/>
    <tag k="addr:street" v="Jürgen-Schramm-Straße"/>
    <tag k="addr:suburb" v="Gatow"/>
    <tag k="building" v="yes"/>
    <tag k="source" v="Geoportal Berlin / Hauskoordinaten"/>
  </way>
  <way id="332268073" version="4" timestamp="2023-02-27T14:04:46Z" changeset="133083060" uid="2807324" user="bwbuz">
    <nd ref="8598544978"/>
    <nd ref="8598544982"/>
    <nd ref="3393835340"/>
    <tag k="highway" v="residential"/>
    <tag k="maxspeed" v="30"/>
    <tag k="maxspeed:type" v="DE:zone30"/>
    <tag k="name" v="Weiter Blick"/>
    <tag k="postal_code" v="14089"/>
  </way>
  <way id="349291410" version="2" timestamp="2020-01-22T12:55:49Z" changeset="79917679" uid="9508237" user="momabebra">
    <nd ref="3551950712"/>
    <nd ref="3551950713"/>
    <nd ref="3551950708"/>
    <nd ref="3551950707"/>
    <nd ref="3551950706"/>
    <nd ref="3551950705"/>
    <nd ref="3551950712"/>
    <tag k="addr:city" v="Berlin"/>
    <tag k="addr:country" v="DE"/>
    <tag k="addr:housenumber" v="120"/>
    <tag k="addr:inclusion" v="actual"/>
    <tag k="addr:postcode" v="14089"/>
    <tag k="addr:street" v="Groß-Glienicker Weg"/>
    <tag k="addr:suburb" v="Gatow"/>
    <tag k="building" v="yes"/>
    <tag k="source" v="Geoportal Berlin / Hauskoordinaten"/>
  </way>
  <way id="377429585" version="2" timestamp="2019-01-15T11:01:29Z" changeset="66328236" uid="66391" user="geozeisig">
    <nd ref="3807993284"/>
    <nd ref="3807993293"/>
    <nd ref="2854757979"/>
    <nd ref="3807993295"/>
    <nd ref="3807993284"/>
    <tag k="addr:city" v="Berlin"/>
    <tag k="addr:housenumber" v="3"/>
    <tag k="addr:postcode" v="14089"/>
    <tag k="addr:street" v="Hellebergeplatz"/>
    <tag k="addr:suburb" v="Gatow"/>
    <tag k="building" v="yes"/>
    <tag k="source" v="Geoportal Berlin / Hauskoordinaten"/>
  </way>
  <way id="377429586" version="2" timestamp="2019-07-31T13:34:37Z" changeset="72857335" uid="1468248" user="PantherStrix">
    <nd ref="3807993513"/>
    <nd ref="3807993511"/>
    <nd ref="3807993581"/>
    <nd ref="3807993582"/>
    <nd ref="3807993513"/>
    <tag k="addr:city" v="Berlin"/>
    <tag k="addr:housenumber" v="19G"/>
    <tag k="addr:postcode" v="14089"/>
    <tag k="addr:street" v="Uetzer Steig"/>
    <tag k="addr:suburb" v="Gatow"/>
    <tag k="building" v="detached"/>
    <tag k="source" v="Geoportal Berlin / Hauskoordinaten"/>
  </way>
  <way id="377429598" version="2" timestamp="2019-07-31T13:34:37Z" changeset="72857335" uid="1468248" user="PantherStrix">
    <nd ref="3807993489"/>
    <nd ref="3807993486"/>
    <nd ref="3807993485"/>
    <nd ref="3807993488"/>
    <nd ref="3807993489"/>
    <tag k="addr:city" v="Berlin"/>
    <tag k="addr:housenumber" v="17"/>
    <tag k="addr:postcode" v="14089"/>
    <tag k="addr:street" v="Krielower Weg"/>
    <tag k="addr:suburb" v="Gatow"/>
    <tag k="building" v="detached"/>
    <tag k="roof:shape" v="gabled"/>
    <tag k="source" v="Geoportal Berlin / Hauskoordinaten"/>
  </way>
  <way id="377429607" version="2" timestamp="2019-07-31T13:34:37Z" changeset="72857335" uid="1468248" user="PantherStrix">
    <nd ref="3807993495"/>
    <nd ref="3807993498"/>
    <nd ref="3807993566"/>
    <nd ref="3807993504"/>
    <nd ref="3807993495"/>
    <tag k="addr:city" v="Berlin"/>
    <tag k="addr:housenumber" v="19"/>
    <tag k="addr:postcode" v="14089"/>
    <tag k="addr:street" v="Krielower Weg"/>
    <tag k="addr:suburb" v="Gatow"/>
    <tag k="building" v="detached"/>
    <tag k="source" v="Geoportal Berlin / Hauskoordinaten"/>
  </way>
  <way id="377429623" version="2" timestamp="2019-01-15T11:01:29Z" changeset="66328236" uid="66391" user="geozeisig">
    <nd ref="3807992846"/>
    <nd ref="2854755920"/>
    <nd ref="3807992836"/>
    <nd ref="3807992849"/>
    <nd ref="3807992846"/>
    <tag k="addr:city" v="Berlin"/>
    <tag k="addr:housenumber" v="33B"/>
    <tag k="addr:postcode" v="14089"/>
    <tag k="addr:street" v="Karlsbergallee"/>
    <tag k="addr:suburb" v="Gatow"/>
    <tag k="building" v="yes"/>
    <tag k="heritage" v="4"/>
    <tag k="heritage:operator" v="lda"/>
    <tag k="lda:criteria" v="Baudenkmal"/>
    <tag k="old_name" v="Haus Dr. Taegen"/>
    <tag k="ref:lda" v="09085630"/>
    <tag k="source" v="Geoportal Berlin / Hauskoordinaten"/>
  </way>
  <way id="377429627" version="2" timestamp="2019-01-15T11:01:29Z" changeset="66328236" uid="66391" user="geozeisig">
    <nd ref="3807993057"/>
    <nd ref="2854755003"/>
    <nd ref="3807992942"/>
    <nd ref="3807992953"/>
    <nd ref="3807993057"/>
    <tag k="addr:city" v="Berlin"/>
    <tag k="addr:housenumber" v="22"/>
    <tag k="addr:postcode" v="14089"/>
    <tag k="addr:street" v="Am Kiefernhang"/>
    <tag k="addr:suburb" v="Gatow"/>
    <tag k="building" v="yes"/>
    <tag k="heritage" v="4"/>
    <tag k="heritage:operator" v="lda"/>
    <tag k="lda:criteria" v="Baudenkmal"/>
    <tag k="ref:lda" v="09085442"/>
    <tag k="source" v="Geoportal Berlin / Hauskoordinaten"/>
  </way>
  <way id="377429631" version="2" timestamp="2019-07-31T13:34:37Z" changeset="72857335" uid="1468248" user="PantherStrix">
    <nd ref="3807993507"/>
    <nd ref="3807993512"/>
    <nd ref="3807993509"/>
    <nd ref="3807993506"/>
    <nd ref="3807993507"/>
    <tag k="addr:city" v="Berlin"/>
    <tag k="addr:housenumber" v="25"/>
    <tag k="addr:postcode" v="14089"/>
    <tag k="addr:street" v="Krielower Weg"/>
    <tag k="addr:suburb" v="Gatow"/>
    <tag k="building" v="detached"/>
    <tag k="source" v="Geoportal Berlin / Hauskoordinaten"/>
  </way>
  <way id="377429643" version="2" timestamp="2019-07-31T13:34:37Z" changeset="72857335" uid="1468248" user="PantherStrix">
    <nd ref="3807993570"/>
    <nd ref="3807993572"/>
    <nd ref="3807993579"/>
    <nd ref="3807993578"/>
    <nd ref="3807993570"/>
    <tag k="addr:city" v="Berlin"/>
    <tag k="addr:housenumber" v="24C"/>
    <tag k="addr:postcode" v="14089"/>
    <tag k="addr:street" v="Krielower Weg"/>
    <tag k="addr:suburb" v="Gatow"/>
    <tag k="building" v="detached"/>
    <tag k="roof:shape" v="gabled"/>
    <tag k="source" v="Geoportal Berlin / Hauskoordinaten"/>
  </way>
  <way id="377429651" version="2" timestamp="2019-01-15T11:01:29Z" changeset="66328236" uid="66391" user="geozeisig">
    <nd ref="3807993327"/>
    <nd ref="2854725402"/>
    <nd ref="3807993326"/>
    <nd ref="3807993332"/>
    <nd ref="3807993327"/>
    <tag k="addr:city" v="Berlin"/>
    <tag k="addr:housenumber" v="1"/>
    <tag k="addr:postcode" v="14089"/>
    <tag k="addr:street" v="Im Eulengrund"/>
    <tag k="addr:suburb" v="Gatow"/>
    <tag k="building" v="yes"/>
    <tag k="source" v="Geoportal Berlin / Hauskoordinaten"/>
  </way>
  <way id="377429676" version="2" timestamp="2019-07-31T13:34:37Z" changeset="72857335" uid="1468248" user="PantherStrix">
    <nd ref="3807993571"/>
    <nd ref="3807993502"/>
    <nd ref="3807993503"/>
    <nd ref="3807993573"/>
    <nd ref="3807993571"/>
    <tag k="addr:city" v="Berlin"/>
    <tag k="addr:housenumber" v="19F"/>
    <tag k="addr:postcode" v="14089"/>
    <tag k="addr:street" v="Uetzer Steig"/>
    <tag k="addr:suburb" v="Gatow"/>
    <tag k="building" v="detached"/>
    <tag k="roof:shape" v="half-hipped"/>
    <tag k="source" v="Geoportal Berlin / Hauskoordinaten"/>
  </way>
  <way id="377429678" version="2" timestamp="2019-01-15T11:01:29Z" changeset="66328236" uid="66391" user="geozeisig">
    <nd ref="3807993421"/>
    <nd ref="3807993412"/>
    <nd ref="3807993413"/>
    <nd ref="2854758090"/>
    <nd ref="3807993421"/>
    <tag k="addr:city" v="Berlin"/>
    <tag k="addr:housenumber" v="4"/>
    <tag k="addr:postcode" v="14089"/>
    <tag k="addr:street" v="Uetzer Steig"/>
    <tag k="addr:suburb" v="Gatow"/>
    <tag k="building" v="yes"/>
    <tag k="heritage" v="4"/>
    <tag k="heritage:operator" v="lda"/>
    <tag k="lda:criteria" v="Baudenkmal"/>
    <tag k="old_name" v="Haus Teich"/>
    <tag k="ref:lda" v="09085821"/>
    <tag k="source" v="Geoportal Berlin / Hauskoordinaten"/>
  </way>
  <way id="377429687" version="3" timestamp="2024-05-05T02:23:31Z" changeset="150902999" uid="173981" user="biketeur">
    <nd ref="3807993477"/>
    <nd ref="3807993561"/>
    <nd ref="3807993466"/>
    <nd ref="3807993480"/>
    <nd ref="3807993477"/>
    <tag k="addr:city" v="Berlin"/>
    <tag k="addr:housenumber" v="14A"/>
    <tag k="addr:postcode" v="14089"/>
    <tag k="addr:street" v="Havelmatensteig"/>
    <tag k="addr:suburb" v="Gatow"/>
    <tag k="building" v="semidetached_house"/>
    <tag k="source" v="Geoportal Berlin / Hauskoordinaten"/>
  </way>
  <way id="377429689" version="2" timestamp="2019-07-31T13:34:37Z" changeset="72857335" uid="1468248" user="PantherStrix">
    <nd ref="3807993518"/>
    <nd ref="3807993514"/>
    <nd ref="3807993580"/>
    <nd ref="3807993585"/>
    <nd ref="3807993518"/>
    <tag k="addr:city" v="Berlin"/>
    <tag k="addr:housenumber" v="19E"/>
    <tag k="addr:postcode" v="14089"/>
    <tag k="addr:street" v="Uetzer Steig"/>
    <tag k="addr:suburb" v="Gatow"/>
    <tag k="building" v="detached"/>
    <tag k="source" v="Geoportal Berlin / Hauskoordinaten"/>
  </way>
  <way id="377429692" version="2" timestamp="2019-07-31T13:34:37Z" changeset="72857335" uid="1468248" user="PantherStrix">
    <nd ref="3807993481"/>
    <nd ref="3807993470"/>
    <nd ref="3807993473"/>
    <nd ref="3807993482"/>
    <nd ref="3807993481"/>
    <tag k="addr:city" v="Berlin"/>
    <tag k="addr:housenumber" v="22B"/>
    <tag k="addr:postcode" v="14089"/>
    <tag k="addr:street" v="Krielower Weg"/>
    <tag k="addr:suburb" v="Gatow"/>
    <tag k="building" v="detached"/>
    <tag k="source" v="Geoportal Berlin / Hauskoordinaten"/>
  </way>
  <way id="377429700" version="2" timestamp="2019-07-31T13:34:37Z" changeset="72857335" uid="1468248" user="PantherStrix">
    <nd ref="3807993492"/>
    <nd ref="3807993491"/>
    <nd ref="3807993497"/>
    <nd ref="3807993501"/>
    <nd ref="3807993492"/>
    <tag k="addr:city" v="Berlin"/>
    <tag k="addr:housenumber" v="19D"/>
    <tag k="addr:postcode" v="14089"/>
    <tag k="addr:street" v="Uetzer Steig"/>
    <tag k="addr:suburb" v="Gatow"/>
    <tag k="building" v="detached"/>
    <tag k="source" v="Geoportal Berlin / Hauskoordinaten"/>
  </way>
  <way id="377429719" version="2" timestamp="2019-07-31T13:34:37Z" changeset="72857335" uid="1468248" user="PantherStrix">
    <nd ref="3807993568"/>
    <nd ref="3807993569"/>
    <nd ref="3807993575"/>
    <nd ref="3807993574"/>
    <nd ref="3807993568"/>
    <tag k="addr:city" v="Berlin"/>
    <tag k="addr:housenumber" v="21"/>
    <tag k="addr:postcode" v="14089"/>
    <tag k="addr:street" v="Krielower Weg"/>
    <tag k="addr:suburb" v="Gatow"/>
    <tag k="building" v="detached"/>
    <tag k="roof:shape" v="gabled"/>
    <tag k="source" v="Geoportal Berlin / Hauskoordinaten"/>
  </way>
  <way id="377429741" version="1" timestamp="2015-10-29T07:45:47Z" changeset="34942814" uid="66391" user="geozeisig">
    <nd ref="3807993603"/>
    <nd ref="3807993600"/>
    <nd ref="2854726528"/>
    <nd ref="3807993602"/>
    <nd ref="3807993603"/>
    <tag k="addr:city" v="Berlin"/>
    <tag k="addr:country" v="DE"/>
    <tag k="addr:housenumber" v="11"/>
    <tag k="addr:postcode" v="14089"/>
    <tag k="addr:street" v="Kladower Damm"/>
    <tag k="addr:suburb" v="Gatow"/>
    <tag k="building" v="yes"/>
    <tag k="source" v="Geoportal Berlin / Hauskoordinaten"/>
  </way>
  <way id="377429742" version="4" timestamp="2024-04-27T04:38:14Z" changeset="150563693" uid="173981" user="biketeur">
    <nd ref="3807993290"/>
    <nd ref="3807993294"/>
    <nd ref="2854726632"/>
    <nd ref="3807993292"/>
    <nd ref="3807993289"/>
    <nd ref="3807993290"/>
    <tag k="addr:city" v="Berlin"/>
    <tag k="addr:country" v="DE"/>
    <tag k="addr:housenumber" v="119"/>
    <tag k="addr:postcode" v="14089"/>
    <tag k="addr:street" v="Kladower Damm"/>
    <tag k="addr:suburb" v="Gatow"/>
    <tag k="building" v="house"/>
    <tag k="building:levels" v="2"/>
    <tag k="roof:levels" v="1"/>
    <tag k="roof:shape" v="gabled"/>
    <tag k="source" v="Geoportal Berlin / Hauskoordinaten"/>
  </way>
  <way id="377429743" version="4" timestamp="2024-04-27T04:38:14Z" changeset="150563693" uid="173981" user="biketeur">
    <nd ref="3807993291"/>
    <nd ref="3807993286"/>
    <nd ref="3807993283"/>
    <nd ref="3807993290"/>
    <nd ref="3807993294"/>
    <nd ref="2854724833"/>
    <nd ref="3807993291"/>
    <tag k="addr:city" v="Berlin"/>
    <tag k="addr:country" v="DE"/>
    <tag k="addr:housenumber" v="119A"/>
    <tag k="addr:postcode" v="14089"/>
    <tag k="addr:street" v="Kladower Damm"/>
    <tag k="addr:suburb" v="Gatow"/>
    <tag k="building" v="house"/>
    <tag k="building:levels" v="2"/>
    <tag k="roof:levels" v="1"/>
    <tag k="roof:shape" v="gabled"/>
    <tag k="source" v="Geoportal Berlin / Hauskoordinaten"/>
  </way>
  <way id="377429744" version="4" timestamp="2024-04-27T04:38:14Z" changeset="150563693" uid="173981" user="biketeur">
    <nd ref="3807993282"/>
    <nd ref="3807993288"/>
    <nd ref="2854724538"/>
    <nd ref="3807993291"/>
    <nd ref="3807993286"/>
    <nd ref="3807993280"/>
    <nd ref="3807993282"/>
    <tag k="addr:city" v="Berlin"/>
    <tag k="addr:country" v="DE"/>
    <tag k="addr:housenumber" v="119B"/>
    <tag k="addr:postcode" v="14089"/>
    <tag k="addr:street" v="Kladower Damm"/>
    <tag k="addr:suburb" v="Gatow"/>
    <tag k="building" v="house"/>
    <tag k="building:levels" v="2"/>
    <tag k="roof:levels" v="1"/>
    <tag k="roof:shape" v="gabled"/>
    <tag k="source" v="Geoportal Berlin / Hauskoordinaten"/>
  </way>
  <way id="377429745" version="4" timestamp="2024-04-27T04:38:14Z" changeset="150563693" uid="173981" user="biketeur">
    <nd ref="3807993281"/>
    <nd ref="3807993279"/>
    <nd ref="3807993277"/>
    <nd ref="3807993282"/>
    <nd ref="3807993288"/>
    <nd ref="2854724539"/>
    <nd ref="3807993281"/>
    <tag k="addr:city" v="Berlin"/>
    <tag k="addr:country" v="DE"/>
    <tag k="addr:housenumber" v="119C"/>
    <tag k="addr:postcode" v="14089"/>
    <tag k="addr:street" v="Kladower Damm"/>
    <tag k="addr:suburb" v="Gatow"/>
    <tag k="building" v="house"/>
    <tag k="building:levels" v="2"/>
    <tag k="roof:levels" v="1"/>
    <tag k="roof:shape" v="gabled"/>
    <tag k="source" v="Geoportal Berlin / Hauskoordinaten"/>
  </way>
  <way id="377429746" version="4" timestamp="2024-04-27T04:38:13Z" changeset="150563693" uid="173981" user="biketeur">
    <nd ref="2854724835"/>
    <nd ref="3807993285"/>
    <nd ref="3807993281"/>
    <nd ref="3807993279"/>
    <nd ref="3807993276"/>
    <nd ref="2854724835"/>
    <tag k="addr:city" v="Berlin"/>
    <tag k="addr:country" v="DE"/>
    <tag k="addr:housenumber" v="119D"/>
    <tag k="addr:postcode" v="14089"/>
    <tag k="addr:street" v="Kladower Damm"/>
    <tag k="addr:suburb" v="Gatow"/>
    <tag k="building" v="house"/>
    <tag k="building:levels" v="2"/>
    <tag k="roof:levels" v="1"/>
    <tag k="roof:shape" v="gabled"/>
    <tag k="source" v="Geoportal Berlin / Hauskoordinaten"/>
  </way>
  <way id="377429747" version="1" timestamp="2015-10-29T07:45:49Z" changeset="34942814" uid="66391" user="geozeisig">
    <nd ref="2133710825"/>
    <nd ref="2133710820"/>
    <nd ref="3807992921"/>
    <nd ref="2854724795"/>
    <nd ref="2133710825"/>
    <tag k="addr:city" v="Berlin"/>
    <tag k="addr:country" v="DE"/>
    <tag k="addr:housenumber" v="14"/>
    <tag k="addr:postcode" v="14089"/>
    <tag k="addr:street" v="Waldschluchtpfad"/>
    <tag k="addr:suburb" v="Gatow"/>
    <tag k="building" v="yes"/>
    <tag k="source" v="Geoportal Berlin / Hauskoordinaten"/>
  </way>
  <way id="377429748" version="1" timestamp="2015-10-29T07:45:49Z" changeset="34942814" uid="66391" user="geozeisig">
    <nd ref="3807993663"/>
    <nd ref="3807993659"/>
    <nd ref="3807993658"/>
    <nd ref="2854738078"/>
    <nd ref="3807993663"/>
    <tag k="addr:city" v="Berlin"/>
    <tag k="addr:country" v="DE"/>
    <tag k="addr:housenumber" v="18"/>
    <tag k="addr:postcode" v="14089"/>
    <tag k="addr:street" v="Alt-Gatow"/>
    <tag k="addr:suburb" v="Gatow"/>
    <tag k="building" v="yes"/>
    <tag k="source" v="Geoportal Berlin / Hauskoordinaten"/>
  </way>
  <way id="377429749" version="1" timestamp="2015-10-29T07:45:49Z" changeset="34942814" uid="66391" user="geozeisig">
    <nd ref="3807993386"/>
    <nd ref="3807993402"/>
    <nd ref="2854740957"/>
    <nd ref="3807993388"/>
    <nd ref="3807993386"/>
    <tag k="addr:city" v="Berlin"/>
    <tag k="addr:country" v="DE"/>
    <tag k="addr:housenumber" v="18"/>
    <tag k="addr:postcode" v="14089"/>
    <tag k="addr:street" v="Uetzer Steig"/>
    <tag k="addr:suburb" v="Gatow"/>
    <tag k="building" v="yes"/>
    <tag k="source" v="Geoportal Berlin / Hauskoordinaten"/>
  </way>
  <way id="377429750" version="1" timestamp="2015-10-29T07:45:49Z" changeset="34942814" uid="66391" user="geozeisig">
    <nd ref="3807993660"/>
    <nd ref="2854747217"/>
    <nd ref="3807993661"/>
    <nd ref="3807993662"/>
    <nd ref="3807993660"/>
    <tag k="addr:city" v="Berlin"/>
    <tag k="addr:country" v="DE"/>
    <tag k="addr:housenumber" v="18A"/>
    <tag k="addr:postcode" v="14089"/>
    <tag k="addr:street" v="Alt-Gatow"/>
    <tag k="addr:suburb" v="Gatow"/>
    <tag k="building" v="yes"/>
    <tag k="source" v="Geoportal Berlin / Hauskoordinaten"/>
  </way>
  <way id="377429751" version="2" timestamp="2019-07-31T13:34:37Z" changeset="72857335" uid="1468248" user="PantherStrix">
    <nd ref="3807993577"/>
    <nd ref="3807993583"/>
    <nd ref="2854750320"/>
    <nd ref="3807993508"/>
    <nd ref="3807993510"/>
    <nd ref="3807993517"/>
    <nd ref="3807993515"/>
    <nd ref="3807993577"/>
    <tag k="addr:city" v="Berlin"/>
    <tag k="addr:country" v="DE"/>
    <tag k="addr:housenumber" v="19H"/>
    <tag k="addr:postcode" v="14089"/>
    <tag k="addr:street" v="Uetzer Steig"/>
    <tag k="addr:suburb" v="Gatow"/>
    <tag k="building" v="detached"/>
    <tag k="source" v="Geoportal Berlin / Hauskoordinaten"/>
  </way>
  <way id="377429752" version="1" timestamp="2015-10-29T07:45:50Z" changeset="34942814" uid="66391" user="geozeisig">
    <nd ref="3807993307"/>
    <nd ref="3807993301"/>
    <nd ref="2854747251"/>
    <nd ref="3807993298"/>
    <nd ref="3807993310"/>
    <nd ref="3807993307"/>
    <tag k="addr:city" v="Berlin"/>
    <tag k="addr:country" v="DE"/>
    <tag k="addr:housenumber" v="2"/>
    <tag k="addr:postcode" v="14089"/>
    <tag k="addr:street" v="Krielower Weg"/>
    <tag k="addr:suburb" v="Gatow"/>
    <tag k="building" v="yes"/>
    <tag k="source" v="Geoportal Berlin / Hauskoordinaten"/>
  </way>
  <way id="377429753" version="2" timestamp="2019-08-25T18:46:35Z" changeset="73724341" uid="9508237" user="momabebra">
    <nd ref="3807993400"/>
    <nd ref="2854747272"/>
    <nd ref="3807993386"/>
    <nd ref="3807993402"/>
    <nd ref="6744545404"/>
    <nd ref="6744545403"/>
    <nd ref="3807993400"/>
    <tag k="addr:city" v="Berlin"/>
    <tag k="addr:country" v="DE"/>
    <tag k="addr:housenumber" v="20"/>
    <tag k="addr:postcode" v="14089"/>
    <tag k="addr:street" v="Uetzer Steig"/>
    <tag k="addr:suburb" v="Gatow"/>
    <tag k="building" v="yes"/>
    <tag k="source" v="Geoportal Berlin / Hauskoordinaten"/>
  </way>
  <way id="377429754" version="1" timestamp="2015-10-29T07:45:50Z" changeset="34942814" uid="66391" user="geozeisig">
    <nd ref="2854750381"/>
    <nd ref="3807993656"/>
    <nd ref="3807993655"/>
    <nd ref="3807993657"/>
    <nd ref="2854750381"/>
    <tag k="addr:city" v="Berlin"/>
    <tag k="addr:country" v="DE"/>
    <tag k="addr:housenumber" v="20A"/>
    <tag k="addr:postcode" v="14089"/>
    <tag k="addr:street" v="Alt-Gatow"/>
    <tag k="addr:suburb" v="Gatow"/>
    <tag k="building" v="yes"/>
    <tag k="source" v="Geoportal Berlin / Hauskoordinaten"/>
  </way>
  <way id="377429755" version="2" timestamp="2019-07-31T13:34:37Z" changeset="72857335" uid="1468248" user="PantherStrix">
    <nd ref="3807993584"/>
    <nd ref="3807993519"/>
    <nd ref="3807993516"/>
    <nd ref="2854755911"/>
    <nd ref="3807993584"/>
    <tag k="addr:city" v="Berlin"/>
    <tag k="addr:country" v="DE"/>
    <tag k="addr:housenumber" v="23"/>
    <tag k="addr:postcode" v="14089"/>
    <tag k="addr:street" v="Krielower Weg"/>
    <tag k="addr:suburb" v="Gatow"/>
    <tag k="building" v="detached"/>
    <tag k="roof:shape" v="gabled"/>
    <tag k="source" v="Geoportal Berlin / Hauskoordinaten"/>
  </way>
  <way id="377429756" version="1" timestamp="2015-10-29T07:45:50Z" changeset="34942814" uid="66391" user="geozeisig">
    <nd ref="3807993397"/>
    <nd ref="3807993384"/>
    <nd ref="3807993387"/>
    <nd ref="2854723443"/>
    <nd ref="3807993397"/>
    <tag k="addr:city" v="Berlin"/>
    <tag k="addr:country" v="DE"/>
    <tag k="addr:housenumber" v="24"/>
    <tag k="addr:postcode" v="14089"/>
    <tag k="addr:street" v="Uetzer Steig"/>
    <tag k="addr:suburb" v="Gatow"/>
    <tag k="building" v="yes"/>
    <tag k="source" v="Geoportal Berlin / Hauskoordinaten"/>
  </way>
  <way id="377429757" version="1" timestamp="2015-10-29T07:45:50Z" changeset="34942814" uid="66391" user="geozeisig">
    <nd ref="2854758509"/>
    <nd ref="3807992808"/>
    <nd ref="3807992809"/>
    <nd ref="3807992816"/>
    <nd ref="2854758509"/>
    <tag k="addr:city" v="Berlin"/>
    <tag k="addr:country" v="DE"/>
    <tag k="addr:housenumber" v="26"/>
    <tag k="addr:inclusion" v="potential"/>
    <tag k="addr:postcode" v="14089"/>
    <tag k="addr:street" v="Waldschluchtpfad"/>
    <tag k="addr:suburb" v="Gatow"/>
    <tag k="building" v="yes"/>
    <tag k="source" v="Geoportal Berlin / Hauskoordinaten"/>
  </way>
  <way id="377429758" version="1" timestamp="2015-10-29T07:45:51Z" changeset="34942814" uid="66391" user="geozeisig">
    <nd ref="3807993307"/>
    <nd ref="3807993301"/>
    <nd ref="2854757965"/>
    <nd ref="3807993311"/>
    <nd ref="3807993315"/>
    <nd ref="3807993307"/>
    <tag k="addr:city" v="Berlin"/>
    <tag k="addr:country" v="DE"/>
    <tag k="addr:housenumber" v="2A"/>
    <tag k="addr:postcode" v="14089"/>
    <tag k="addr:street" v="Krielower Weg"/>
    <tag k="addr:suburb" v="Gatow"/>
    <tag k="building" v="yes"/>
    <tag k="source" v="Geoportal Berlin / Hauskoordinaten"/>
  </way>
  <way id="377429759" version="1" timestamp="2015-10-29T07:45:51Z" changeset="34942814" uid="66391" user="geozeisig">
    <nd ref="3807993309"/>
    <nd ref="3807993303"/>
    <nd ref="3807993297"/>
    <nd ref="3807993300"/>
    <nd ref="2854755426"/>
    <nd ref="3807993309"/>
    <tag k="addr:city" v="Berlin"/>
    <tag k="addr:country" v="DE"/>
    <tag k="addr:housenumber" v="2B"/>
    <tag k="addr:postcode" v="14089"/>
    <tag k="addr:street" v="Krielower Weg"/>
    <tag k="addr:suburb" v="Gatow"/>
    <tag k="building" v="yes"/>
    <tag k="source" v="Geoportal Berlin / Hauskoordinaten"/>
  </way>
  <way id="377429761" version="1" timestamp="2015-10-29T07:45:51Z" changeset="34942814" uid="66391" user="geozeisig">
    <nd ref="3807993309"/>
    <nd ref="3807993303"/>
    <nd ref="2854758360"/>
    <nd ref="3807993314"/>
    <nd ref="3807993317"/>
    <nd ref="3807993309"/>
    <tag k="addr:city" v="Berlin"/>
    <tag k="addr:country" v="DE"/>
    <tag k="addr:housenumber" v="2C"/>
    <tag k="addr:postcode" v="14089"/>
    <tag k="addr:street" v="Krielower Weg"/>
    <tag k="addr:suburb" v="Gatow"/>
    <tag k="building" v="yes"/>
    <tag k="source" v="Geoportal Berlin / Hauskoordinaten"/>
  </way>
  <way id="377429762" version="1" timestamp="2015-10-29T07:45:51Z" changeset="34942814" uid="66391" user="geozeisig">
    <nd ref="3807993172"/>
    <nd ref="3807993163"/>
    <nd ref="3807993151"/>
    <nd ref="2854754879"/>
    <nd ref="3807993172"/>
    <tag k="addr:city" v="Berlin"/>
    <tag k="addr:country" v="DE"/>
    <tag k="addr:housenumber" v="3A"/>
    <tag k="addr:postcode" v="14089"/>
    <tag k="addr:street" v="Hochwaldsteig"/>
    <tag k="addr:suburb" v="Gatow"/>
    <tag k="building" v="yes"/>
    <tag k="source" v="Geoportal Berlin / Hauskoordinaten"/>
  </way>
  <way id="377429763" version="1" timestamp="2015-10-29T07:45:51Z" changeset="34942814" uid="66391" user="geozeisig">
    <nd ref="3807993354"/>
    <nd ref="2854766534"/>
    <nd ref="3807993348"/>
    <nd ref="3807993356"/>
    <nd ref="3807993354"/>
    <tag k="addr:city" v="Berlin"/>
    <tag k="addr:country" v="DE"/>
    <tag k="addr:housenumber" v="4"/>
    <tag k="addr:postcode" v="14089"/>
    <tag k="addr:street" v="Krielower Weg"/>
    <tag k="addr:suburb" v="Gatow"/>
    <tag k="building" v="yes"/>
    <tag k="source" v="Geoportal Berlin / Hauskoordinaten"/>
  </way>
  <way id="377429764" version="1" timestamp="2015-10-29T07:45:52Z" changeset="34942814" uid="66391" user="geozeisig">
    <nd ref="3807993369"/>
    <nd ref="3807993370"/>
    <nd ref="3807993364"/>
    <nd ref="2854759767"/>
    <nd ref="3807993369"/>
    <tag k="addr:city" v="Berlin"/>
    <tag k="addr:country" v="DE"/>
    <tag k="addr:housenumber" v="4A"/>
    <tag k="addr:postcode" v="14089"/>
    <tag k="addr:street" v="Krielower Weg"/>
    <tag k="addr:suburb" v="Gatow"/>
    <tag k="building" v="yes"/>
    <tag k="source" v="Geoportal Berlin / Hauskoordinaten"/>
  </way>
  <way id="377429765" version="2" timestamp="2018-09-12T15:46:33Z" changeset="62524822" uid="4445038" user="sandrow75">
    <nd ref="2854773052"/>
    <nd ref="3807993611"/>
    <nd ref="3807993612"/>
    <nd ref="3807993613"/>
    <nd ref="2854773052"/>
    <tag k="addr:city" v="Berlin"/>
    <tag k="addr:country" v="DE"/>
    <tag k="addr:housenumber" v="5"/>
    <tag k="addr:postcode" v="14089"/>
    <tag k="addr:street" v="An den Berggärten"/>
    <tag k="addr:suburb" v="Gatow"/>
    <tag k="building" v="yes"/>
    <tag k="image" v="http://commons.wikimedia.org/wiki/File:An_den_Bergg%C3%A4rten_%28Spand%29_Bockwindm%C3%BChle.jpg"/>
    <tag k="man_made" v="windmill"/>
    <tag k="name" v="Bockwindmühle"/>
    <tag k="source" v="Geoportal Berlin / Hauskoordinaten"/>
  </way>
  <way id="377429766" version="1" timestamp="2015-10-29T07:45:52Z" changeset="34942814" uid="66391" user="geozeisig">
    <nd ref="3807993525"/>
    <nd ref="3807993523"/>
    <nd ref="2854780404"/>
    <nd ref="3807993524"/>
    <nd ref="3807993525"/>
    <tag k="addr:city" v="Berlin"/>
    <tag k="addr:country" v="DE"/>
    <tag k="addr:housenumber" v="55A"/>
    <tag k="addr:postcode" v="14089"/>
    <tag k="addr:street" v="Kladower Damm"/>
    <tag k="addr:suburb" v="Gatow"/>
    <tag k="building" v="yes"/>
    <tag k="source" v="Geoportal Berlin / Hauskoordinaten"/>
  </way>
  <way id="377429768" version="1" timestamp="2015-10-29T07:45:53Z" changeset="34942814" uid="66391" user="geozeisig">
    <nd ref="3807993635"/>
    <nd ref="3807993638"/>
    <nd ref="3807993636"/>
    <nd ref="2854758106"/>
    <nd ref="3807993634"/>
    <nd ref="3807993635"/>
    <tag k="addr:city" v="Berlin"/>
    <tag k="addr:country" v="DE"/>
    <tag k="addr:housenumber" v="6"/>
    <tag k="addr:postcode" v="14089"/>
    <tag k="addr:street" v="Am Berghang"/>
    <tag k="addr:suburb" v="Gatow"/>
    <tag k="building" v="yes"/>
    <tag k="source" v="Geoportal Berlin / Hauskoordinaten"/>
  </way>
  <way id="377429769" version="1" timestamp="2015-10-29T07:45:53Z" changeset="34942814" uid="66391" user="geozeisig">
    <nd ref="2854781619"/>
    <nd ref="3807993380"/>
    <nd ref="3807993381"/>
    <nd ref="3807993375"/>
    <nd ref="2854781619"/>
    <tag k="addr:city" v="Berlin"/>
    <tag k="addr:country" v="DE"/>
    <tag k="addr:housenumber" v="6"/>
    <tag k="addr:postcode" v="14089"/>
    <tag k="addr:street" v="Krielower Weg"/>
    <tag k="addr:suburb" v="Gatow"/>
    <tag k="building" v="yes"/>
    <tag k="source" v="Geoportal Berlin / Hauskoordinaten"/>
  </way>
  <way id="377429770" version="1" timestamp="2015-10-29T07:45:53Z" changeset="34942814" uid="66391" user="geozeisig">
    <nd ref="3807993637"/>
    <nd ref="3807993635"/>
    <nd ref="3807993638"/>
    <nd ref="2854775066"/>
    <nd ref="3807993637"/>
    <tag k="addr:city" v="Berlin"/>
    <tag k="addr:country" v="DE"/>
    <tag k="addr:housenumber" v="6A"/>
    <tag k="addr:postcode" v="14089"/>
    <tag k="addr:street" v="Am Berghang"/>
    <tag k="addr:suburb" v="Gatow"/>
    <tag k="building" v="yes"/>
    <tag k="source" v="Geoportal Berlin / Hauskoordinaten"/>
  </way>
  <way id="377429771" version="1" timestamp="2015-10-29T07:45:53Z" changeset="34942814" uid="66391" user="geozeisig">
    <nd ref="2019196602"/>
    <nd ref="2019196604"/>
    <nd ref="2854787516"/>
    <nd ref="3807993664"/>
    <nd ref="2019196602"/>
    <tag k="addr:city" v="Berlin"/>
    <tag k="addr:country" v="DE"/>
    <tag k="addr:housenumber" v="6J"/>
    <tag k="addr:postcode" v="14089"/>
    <tag k="addr:street" v="Alt-Gatow"/>
    <tag k="addr:suburb" v="Gatow"/>
    <tag k="building" v="yes"/>
    <tag k="source" v="Geoportal Berlin / Hauskoordinaten"/>
  </way>
  <way id="377429772" version="1" timestamp="2015-10-29T07:45:54Z" changeset="34942814" uid="66391" user="geozeisig">
    <nd ref="2854782658"/>
    <nd ref="3807993391"/>
    <nd ref="3807993399"/>
    <nd ref="3807993396"/>
    <nd ref="2854782658"/>
    <tag k="addr:city" v="Berlin"/>
    <tag k="addr:country" v="DE"/>
    <tag k="addr:housenumber" v="8"/>
    <tag k="addr:postcode" v="14089"/>
    <tag k="addr:street" v="Krielower Weg"/>
    <tag k="addr:suburb" v="Gatow"/>
    <tag k="building" v="yes"/>
    <tag k="source" v="Geoportal Berlin / Hauskoordinaten"/>
  </way>
  <way id="464691321" version="4" timestamp="2023-02-27T13:24:31Z" changeset="133083060" uid="2807324" user="bwbuz">
    <nd ref="8561365851"/>
    <nd ref="273120733"/>
    <nd ref="3040753145"/>
    <nd ref="1394080269"/>
    <tag k="highway" v="residential"/>
    <tag k="maxspeed" v="30"/>
    <tag k="maxspeed:type" v="DE:zone30"/>
    <tag k="name" v="Waldschluchtpfad"/>
    <tag k="postal_code" v="14089"/>
    <tag k="surface" v="asphalt"/>
  </way>
  <way id="464693803" version="7" timestamp="2023-08-28T17:17:41Z" changeset="140505364" uid="10961311" user="StefanHRT">
    <nd ref="3988411843"/>
    <nd ref="278134958"/>
    <tag k="highway" v="residential"/>
    <tag k="maxspeed" v="20"/>
    <tag k="maxspeed:type" v="sign"/>
    <tag k="name" v="Groß-Glienicker Weg"/>
    <tag k="name:etymology:wikidata" v="Q878722"/>
    <tag k="postal_code" v="14089"/>
    <tag k="surface" v="asphalt"/>
    <tag k="traffic_sign" v="DE:250,1020-30"/>
    <tag k="vehicle" v="destination"/>
  </way>
  <way id="464693999" version="8" timestamp="2023-08-28T17:17:41Z" changeset="140505364" uid="10961311" user="StefanHRT">
    <nd ref="278134958"/>
    <nd ref="260469126"/>
    <nd ref="260469105"/>
    <tag k="highway" v="residential"/>
    <tag k="maxspeed" v="20"/>
    <tag k="maxspeed:type" v="sign"/>
    <tag k="name" v="Groß-Glienicker Weg"/>
    <tag k="name:etymology:wikidata" v="Q878722"/>
    <tag k="postal_code" v="14089"/>
    <tag k="sidewalk" v="no"/>
    <tag k="smoothness" v="excellent"/>
    <tag k="surface" v="asphalt"/>
    <tag k="traffic_sign" v="DE:250,1020-30"/>
    <tag k="vehicle" v="destination"/>
  </way>
  <way id="472091207" version="5" timestamp="2021-10-28T14:50:24Z" changeset="113085416" uid="10630643" user="janolezab">
    <nd ref="260647891"/>
    <nd ref="27324684"/>
    <tag k="cycleway:left" v="lane"/>
    <tag k="highway" v="secondary"/>
    <tag k="lanes" v="2"/>
    <tag k="lit" v="yes"/>
    <tag k="maxspeed" v="50"/>
    <tag k="name" v="Alt-Gatow"/>
    <tag k="name:etymology:wikidata" v="Q515832"/>
    <tag k="name:etymology:wikipedia" v="de:Gatow"/>
    <tag k="postal_code" v="14089"/>
    <tag k="sidewalk" v="separate"/>
    <tag k="surface" v="asphalt"/>
  </way>
  <way id="546528540" version="2" timestamp="2019-08-25T19:04:30Z" changeset="73724640" uid="9508237" user="momabebra">
    <nd ref="5281595631"/>
    <nd ref="6744519930"/>
    <nd ref="6744519931"/>
    <nd ref="6744519941"/>
    <nd ref="6744519932"/>
    <nd ref="6744519933"/>
    <nd ref="5281595629"/>
    <nd ref="5281595630"/>
    <nd ref="6744519935"/>
    <nd ref="6744519934"/>
    <nd ref="2854725460"/>
    <nd ref="5281595631"/>
    <tag k="addr:city" v="Berlin"/>
    <tag k="addr:country" v="DE"/>
    <tag k="addr:housenumber" v="17B"/>
    <tag k="addr:inclusion" v="potential"/>
    <tag k="addr:postcode" v="14089"/>
    <tag k="addr:street" v="Havelmatensteig"/>
    <tag k="addr:suburb" v="Gatow"/>
    <tag k="building" v="yes"/>
    <tag k="source" v="Geoportal Berlin / Hauskoordinaten"/>
  </way>
  <way id="546528541" version="2" timestamp="2019-08-25T19:04:30Z" changeset="73724640" uid="9508237" user="momabebra">
    <nd ref="5281595633"/>
    <nd ref="5281595634"/>
    <nd ref="5281595632"/>
    <nd ref="6744519949"/>
    <nd ref="2854725450"/>
    <nd ref="6744519939"/>
    <nd ref="6744519938"/>
    <nd ref="5281595633"/>
    <tag k="addr:city" v="Berlin"/>
    <tag k="addr:country" v="DE"/>
    <tag k="addr:housenumber" v="17"/>
    <tag k="addr:inclusion" v="potential"/>
    <tag k="addr:postcode" v="14089"/>
    <tag k="addr:street" v="Havelmatensteig"/>
    <tag k="addr:suburb" v="Gatow"/>
    <tag k="building" v="yes"/>
    <tag k="source" v="Geoportal Berlin / Hauskoordinaten"/>
  </way>
  <way id="546528542" version="2" timestamp="2019-08-25T19:04:30Z" changeset="73724640" uid="9508237" user="momabebra">
    <nd ref="2854726095"/>
    <nd ref="6744519937"/>
    <nd ref="6744519936"/>
    <nd ref="5281595633"/>
    <nd ref="5281595634"/>
    <nd ref="5281595635"/>
    <nd ref="6744519940"/>
    <nd ref="2854726095"/>
    <tag k="addr:city" v="Berlin"/>
    <tag k="addr:country" v="DE"/>
    <tag k="addr:housenumber" v="17A"/>
    <tag k="addr:inclusion" v="potential"/>
    <tag k="addr:postcode" v="14089"/>
    <tag k="addr:street" v="Havelmatensteig"/>
    <tag k="addr:suburb" v="Gatow"/>
    <tag k="building" v="yes"/>
    <tag k="source" v="Geoportal Berlin / Hauskoordinaten"/>
  </way>
  <way id="546528543" version="2" timestamp="2019-07-31T13:34:37Z" changeset="72857335" uid="1468248" user="PantherStrix">
    <nd ref="5281595639"/>
    <nd ref="5281595638"/>
    <nd ref="5281595637"/>
    <nd ref="5281595636"/>
    <nd ref="5281595639"/>
    <tag k="addr:city" v="Berlin"/>
    <tag k="addr:housenumber" v="20A"/>
    <tag k="addr:postcode" v="14089"/>
    <tag k="addr:street" v="Krielower Weg"/>
    <tag k="addr:suburb" v="Gatow"/>
    <tag k="building" v="yes"/>
    <tag k="source" v="Geoportal Berlin / Hauskoordinaten"/>
  </way>
  <way id="546528544" version="2" timestamp="2019-07-31T13:34:37Z" changeset="72857335" uid="1468248" user="PantherStrix">
    <nd ref="5281595643"/>
    <nd ref="5281595642"/>
    <nd ref="5281595641"/>
    <nd ref="5281595640"/>
    <nd ref="5281595643"/>
    <tag k="addr:city" v="Berlin"/>
    <tag k="addr:housenumber" v="28"/>
    <tag k="addr:postcode" v="14089"/>
    <tag k="addr:street" v="Krielower Weg"/>
    <tag k="addr:suburb" v="Gatow"/>
    <tag k="building" v="detached"/>
    <tag k="roof:shape" v="gabled"/>
    <tag k="source" v="Geoportal Berlin / Hauskoordinaten"/>
  </way>
  <way id="546528552" version="2" timestamp="2019-04-13T07:01:59Z" changeset="69169589" uid="66391" user="geozeisig">
    <nd ref="5281596029"/>
    <nd ref="2854757908"/>
    <nd ref="5281596027"/>
    <nd ref="5281596026"/>
    <nd ref="5281596029"/>
    <tag k="addr:city" v="Berlin"/>
    <tag k="addr:housenumber" v="25"/>
    <tag k="addr:postcode" v="14089"/>
    <tag k="addr:street" v="Hellebergeweg"/>
    <tag k="addr:suburb" v="Gatow"/>
    <tag k="building" v="yes"/>
    <tag k="source" v="Geoportal Berlin / Hauskoordinaten"/>
  </way>
  <way id="548910337" version="2" timestamp="2024-06-16T05:49:34Z" changeset="152745203" uid="21641717" user="KUNO PASCHUNKE">
    <nd ref="5302562624"/>
    <nd ref="5302562623"/>
    <nd ref="5302562622"/>
    <nd ref="5302562621"/>
    <nd ref="5302562220"/>
    <nd ref="5302562219"/>
    <nd ref="5302562218"/>
    <nd ref="5302562217"/>
    <nd ref="5302562160"/>
    <nd ref="5302562216"/>
    <nd ref="5302562215"/>
    <nd ref="5302562214"/>
    <nd ref="5302562156"/>
    <nd ref="5302562213"/>
    <nd ref="5302562212"/>
    <nd ref="5302562211"/>
    <nd ref="5302562210"/>
    <nd ref="5302562209"/>
    <nd ref="5302562208"/>
    <nd ref="5302562207"/>
    <nd ref="5302562624"/>
    <tag k="addr:city" v="Berlin"/>
    <tag k="addr:country" v="DE"/>
    <tag k="addr:housenumber" v="71"/>
    <tag k="addr:postcode" v="14089"/>
    <tag k="addr:street" v="Alt-Gatow"/>
    <tag k="addr:suburb" v="Gatow"/>
    <tag k="amenity" v="restaurant"/>
    <tag k="building" v="yes"/>
    <tag k="name" v="Osteria Pizzeria Castelli Romani"/>
    <tag k="opening_hours" v="We-Mo,PH 12:00-24:00"/>
    <tag k="source" v="Geoportal Berlin / Hauskoordinaten"/>
    <tag k="toilets:wheelchair" v="no"/>
    <tag k="wheelchair" v="no"/>
  </way>
  <way id="548910363" version="4" timestamp="2025-01-27T03:01:51Z" changeset="161802236" uid="11676875" user="aw_1910">
    <nd ref="5302562716"/>
    <nd ref="2854782676"/>
    <nd ref="5302562714"/>
    <nd ref="5302562713"/>
    <nd ref="5302562716"/>
    <tag k="addr:city" v="Berlin"/>
    <tag k="addr:country" v="DE"/>
    <tag k="addr:housenumber" v="9"/>
    <tag k="addr:postcode" v="14089"/>
    <tag k="addr:street" v="Am Wiesenhaus"/>
    <tag k="addr:suburb" v="Gatow"/>
    <tag k="building" v="yes"/>
    <tag k="contact:facebook" v="https://www.facebook.com/DRK-Wasserrettungsstation-Alt-Gatow-333188050108391/"/>
    <tag k="description" v="Der Wasserrettungsdienst findet überwiegend in den Sommermonaten statt."/>
    <tag k="emergency" v="lifeguard"/>
    <tag k="lifeguard" v="base"/>
    <tag k="name" v="Wasserrettungsstation Alt-Gatow"/>
    <tag k="operator" v="Deutsches Rotes Kreuz e.V."/>
  </way>
  <way id="558577577" version="2" timestamp="2024-12-11T15:10:17Z" changeset="160172836" uid="2927605" user="alamero">
    <nd ref="5387339688"/>
    <nd ref="5387339687"/>
    <nd ref="5387339686"/>
    <nd ref="5387339685"/>
    <nd ref="12412777353"/>
    <nd ref="5387339688"/>
    <tag k="building" v="yes"/>
    <tag k="name" v="Teehaus"/>
  </way>
  <way id="577787563" version="9" timestamp="2023-02-27T17:21:36Z" changeset="133096775" uid="2807324" user="bwbuz">
    <nd ref="5538102533"/>
    <nd ref="5538100900"/>
    <nd ref="278199680"/>
    <tag k="cycleway:both" v="lane"/>
    <tag k="cycleway:both:lane" v="advisory"/>
    <tag k="highway" v="residential"/>
    <tag k="lane_markings" v="no"/>
    <tag k="lit" v="yes"/>
    <tag k="maxspeed" v="50"/>
    <tag k="maxspeed:type" v="DE:urban"/>
    <tag k="name" v="Maximilian-Kolbe-Straße"/>
    <tag k="name:etymology:wikidata" v="Q153850"/>
    <tag k="name:etymology:wikipedia" v="de:Maximilian Kolbe"/>
    <tag k="postal_code" v="14089"/>
    <tag k="smoothness" v="excellent"/>
    <tag k="surface" v="asphalt"/>
  </way>
  <way id="625096983" version="2" timestamp="2019-09-14T16:17:36Z" changeset="74478187" uid="10299811" user="moritz_dorn">
    <nd ref="5902108075"/>
    <nd ref="5902108074"/>
    <nd ref="5902108073"/>
    <nd ref="5902108072"/>
    <nd ref="5902108071"/>
    <nd ref="5902108070"/>
    <nd ref="5902108069"/>
    <nd ref="5902108068"/>
    <nd ref="5902108067"/>
    <nd ref="5902108066"/>
    <nd ref="5902108065"/>
    <nd ref="5902108064"/>
    <nd ref="5902108063"/>
    <nd ref="5902108062"/>
    <nd ref="5902108061"/>
    <nd ref="5902108060"/>
    <nd ref="5902108075"/>
    <tag k="addr:city" v="Berlin"/>
    <tag k="addr:housenumber" v="3a"/>
    <tag k="addr:postcode" v="14089"/>
    <tag k="addr:street" v="Melsunger Straße"/>
    <tag k="building" v="house"/>
    <tag k="building:levels" v="4"/>
    <tag k="building:levels:underground" v="1"/>
    <tag k="height" v="10"/>
    <tag k="roof:colour" v="red"/>
    <tag k="smoking" v="outside"/>
    <tag k="start_date" v="2001"/>
    <tag k="wheelchair" v="no"/>
  </way>
  <way id="663461549" version="2" timestamp="2020-04-13T10:44:22Z" changeset="83470527" uid="4798255" user="tecmap15">
    <nd ref="3807993308"/>
    <nd ref="6210053263"/>
    <nd ref="6210053264"/>
    <nd ref="3807993302"/>
    <nd ref="3807993308"/>
    <tag k="addr:city" v="Berlin"/>
    <tag k="addr:country" v="DE"/>
    <tag k="addr:housenumber" v="2"/>
    <tag k="addr:postcode" v="14089"/>
    <tag k="addr:street" v="Hellebergeplatz"/>
    <tag k="building" v="yes"/>
    <tag k="heritage" v="4"/>
    <tag k="heritage:operator" v="lda"/>
    <tag k="lda:criteria" v="Baudenkmal"/>
    <tag k="old_name" v="Haus Kisse"/>
    <tag k="ref:lda" v="09085601"/>
  </way>
  <way id="663502516" version="2" timestamp="2022-08-17T07:27:16Z" changeset="125003109" uid="66391" user="geozeisig">
    <nd ref="6210384691"/>
    <nd ref="6210384692"/>
    <nd ref="6210384693"/>
    <nd ref="6210384694"/>
    <nd ref="6210384691"/>
    <tag k="addr:city" v="Berlin"/>
    <tag k="addr:housenumber" v="10"/>
    <tag k="addr:postcode" v="14089"/>
    <tag k="addr:street" v="Am Ortsrand"/>
    <tag k="addr:suburb" v="Gatow"/>
    <tag k="building" v="house"/>
  </way>
  <way id="683563073" version="1" timestamp="2019-04-13T16:12:28Z" changeset="69181431" uid="66391" user="geozeisig">
    <nd ref="6402528588"/>
    <nd ref="1416629914"/>
    <nd ref="2854758414"/>
    <nd ref="6402528589"/>
    <nd ref="6402528588"/>
    <tag k="addr:city" v="Berlin"/>
    <tag k="addr:country" v="DE"/>
    <tag k="addr:housenumber" v="27"/>
    <tag k="addr:postcode" v="14089"/>
    <tag k="addr:street" v="Alt-Gatow"/>
    <tag k="addr:suburb" v="Gatow"/>
    <tag k="building" v="yes"/>
    <tag k="heritage" v="4"/>
    <tag k="heritage:operator" v="lda"/>
    <tag k="lda:criteria" v="Baudenkmal"/>
    <tag k="ref:lda" v="09080626"/>
    <tag k="source" v="Geoportal Berlin / Hauskoordinaten"/>
    <tag k="start_date" v="1888"/>
  </way>
  <way id="683563075" version="1" timestamp="2019-04-13T16:12:29Z" changeset="69181431" uid="66391" user="geozeisig">
    <nd ref="6402528597"/>
    <nd ref="6402528594"/>
    <nd ref="6402528595"/>
    <nd ref="6402528596"/>
    <nd ref="6402528597"/>
    <tag k="addr:city" v="Berlin"/>
    <tag k="addr:country" v="DE"/>
    <tag k="addr:housenumber" v="7"/>
    <tag k="addr:postcode" v="14089"/>
    <tag k="addr:street" v="Weiter Blick"/>
    <tag k="addr:suburb" v="Gatow"/>
    <tag k="building" v="yes"/>
    <tag k="source" v="Geoportal Berlin / Hauskoordinaten"/>
  </way>
  <way id="690918763" version="9" timestamp="2021-11-25T05:45:17Z" changeset="114206065" uid="10961311" user="StefanHRT">
    <nd ref="260822087"/>
    <nd ref="6840148626"/>
    <nd ref="260822088"/>
    <nd ref="7760776500"/>
    <nd ref="3988411853"/>
    <nd ref="3988411852"/>
    <nd ref="434098008"/>
    <tag k="highway" v="secondary"/>
    <tag k="lanes" v="2"/>
    <tag k="lit" v="yes"/>
    <tag k="maxspeed" v="50"/>
    <tag k="name" v="Gatower Straße"/>
    <tag k="name:etymology:wikidata" v="Q515832"/>
    <tag k="name:etymology:wikipedia" v="de:Gatow"/>
    <tag k="postal_code" v="14089"/>
    <tag k="sidewalk" v="both"/>
    <tag k="sidewalk:both:bicycle" v="yes"/>
    <tag k="surface" v="asphalt"/>
  </way>
  <way id="692616655" version="11" timestamp="2024-11-09T20:25:58Z" changeset="158947979" uid="44217" user="kjon">
    <nd ref="27324643"/>
    <nd ref="8710759823"/>
    <nd ref="27324645"/>
    <nd ref="8710759827"/>
    <nd ref="27324647"/>
    <nd ref="2904573501"/>
    <nd ref="8710759830"/>
    <nd ref="27324650"/>
    <nd ref="7761017425"/>
    <nd ref="259544892"/>
    <tag k="cycleway:left" v="no"/>
    <tag k="cycleway:left:bicycle" v="yes"/>
    <tag k="cycleway:right" v="lane"/>
    <tag k="cycleway:right:lane" v="advisory"/>
    <tag k="highway" v="secondary"/>
    <tag k="lanes" v="2"/>
    <tag k="lit" v="yes"/>
    <tag k="maxspeed" v="50"/>
    <tag k="name" v="Gatower Straße"/>
    <tag k="name:etymology:wikidata" v="Q515832"/>
    <tag k="postal_code" v="13595"/>
    <tag k="sidewalk" v="both"/>
    <tag k="sidewalk:left:surface" v="concrete"/>
    <tag k="sidewalk:right:surface" v="paving_stones"/>
    <tag k="smoothness" v="good"/>
    <tag k="surface" v="asphalt"/>
  </way>
  <way id="692616656" version="8" timestamp="2023-08-01T07:26:43Z" changeset="139284927" uid="9508237" user="momabebra">
    <nd ref="6502392828"/>
    <nd ref="435386762"/>
    <nd ref="3988411828"/>
    <nd ref="3988411827"/>
    <nd ref="395053880"/>
    <tag k="cycleway:left" v="no"/>
    <tag k="cycleway:right" v="lane"/>
    <tag k="cycleway:right:lane" v="advisory"/>
    <tag k="highway" v="secondary"/>
    <tag k="lanes" v="2"/>
    <tag k="lit" v="yes"/>
    <tag k="maxspeed" v="50"/>
    <tag k="name" v="Gatower Straße"/>
    <tag k="name:etymology:wikidata" v="Q515832"/>
    <tag k="name:etymology:wikipedia" v="de:Gatow"/>
    <tag k="postal_code" v="14089"/>
    <tag k="sidewalk:left" v="separate"/>
    <tag k="sidewalk:left:bicycle" v="yes"/>
    <tag k="sidewalk:left:surface" v="concrete:plates"/>
    <tag k="sidewalk:right" v="yes"/>
    <tag k="sidewalk:right:surface" v="paving_stones"/>
    <tag k="surface" v="asphalt"/>
  </way>
  <way id="692616657" version="6" timestamp="2023-12-26T13:33:19Z" changeset="145534514" uid="11324420" user="Jes9043">
    <nd ref="276022962"/>
    <nd ref="56414772"/>
    <nd ref="3587541981"/>
    <nd ref="6502392828"/>
    <tag k="cycleway" v="lane"/>
    <tag k="highway" v="secondary"/>
    <tag k="lanes" v="2"/>
    <tag k="lanes:backward" v="1"/>
    <tag k="lanes:forward" v="1"/>
    <tag k="lit" v="yes"/>
    <tag k="maxspeed" v="50"/>
    <tag k="name" v="Gatower Straße"/>
    <tag k="name:etymology:wikidata" v="Q515832"/>
    <tag k="name:etymology:wikipedia" v="de:Gatow"/>
    <tag k="postal_code" v="14089"/>
    <tag k="sidewalk" v="both"/>
    <tag k="surface" v="asphalt"/>
  </way>
  <way id="692616658" version="10" timestamp="2022-06-26T11:10:58Z" changeset="122863687" uid="10961311" user="StefanHRT">
    <nd ref="27324684"/>
    <nd ref="6914681901"/>
    <nd ref="3988411811"/>
    <nd ref="7760853671"/>
    <nd ref="6588780329"/>
    <nd ref="6588780326"/>
    <nd ref="6583757702"/>
    <nd ref="6583826755"/>
    <nd ref="6583757727"/>
    <nd ref="6583826748"/>
    <nd ref="6583757695"/>
    <nd ref="6583757706"/>
    <nd ref="6583826751"/>
    <nd ref="6583757731"/>
    <nd ref="6583757720"/>
    <nd ref="3988411818"/>
    <nd ref="3988411817"/>
    <nd ref="9847815486"/>
    <nd ref="276025753"/>
    <tag k="cycleway:left" v="lane"/>
    <tag k="highway" v="secondary"/>
    <tag k="lanes" v="2"/>
    <tag k="lit" v="yes"/>
    <tag k="maxspeed" v="50"/>
    <tag k="name" v="Kladower Damm"/>
    <tag k="name:etymology:wikidata" v="Q519632"/>
    <tag k="name:etymology:wikipedia" v="de:Berlin-Kladow"/>
    <tag k="postal_code" v="14089"/>
    <tag k="sidewalk" v="separate"/>
    <tag k="surface" v="asphalt"/>
  </way>
  <way id="709240463" version="2" timestamp="2019-10-14T21:32:45Z" changeset="75689224" uid="175760" user="famosm">
    <nd ref="3807993520"/>
    <nd ref="6665768006"/>
    <nd ref="6665768005"/>
    <nd ref="2338290095"/>
    <nd ref="6665768008"/>
    <nd ref="6665767988"/>
    <nd ref="6665768007"/>
    <nd ref="5281595202"/>
    <nd ref="5281595201"/>
    <nd ref="5281595200"/>
    <nd ref="5281595199"/>
    <nd ref="2338290092"/>
    <nd ref="2338290091"/>
    <nd ref="6665768010"/>
    <nd ref="6665768011"/>
    <nd ref="3807993522"/>
    <nd ref="2854756276"/>
    <nd ref="6665767987"/>
    <nd ref="3807993520"/>
    <tag k="addr:city" v="Berlin"/>
    <tag k="addr:country" v="DE"/>
    <tag k="addr:housenumber" v="57"/>
    <tag k="addr:postcode" v="14089"/>
    <tag k="addr:street" v="Kladower Damm"/>
    <tag k="addr:suburb" v="Gatow"/>
    <tag k="amenity" v="community_centre"/>
    <tag k="building" v="farm"/>
    <tag k="building:material" v="brick;wood"/>
    <tag k="building:use" v="commercial"/>
    <tag k="community_centre" v="environment_centre"/>
    <tag k="contact:email" v="info@umwelt-bildungszentrum.de"/>
    <tag k="contact:facebook" v="https://www.facebook.com/Umwelt.Bildungszentrum.Berlin"/>
    <tag k="contact:instagram" v="https://www.instagram.com/umweltbildungszentrum_berlin/"/>
    <tag k="contact:phone" v="+49 30 200 96400"/>
    <tag k="contact:website" v="https://www.umwelt-bildungszentrum.de/"/>
    <tag k="name" v="Umwelt-Bildungszentrum Berlin"/>
    <tag k="old_name" v="Bauerngut Havelmathen"/>
    <tag k="operator" v="UBB Umwelt-Bildungszentrum Berlin gGmbH"/>
    <tag k="short_name" v="UBB"/>
    <tag k="start_date" v="2014-08"/>
    <tag k="wheelchair" v="yes"/>
  </way>
  <way id="709240467" version="1" timestamp="2019-07-31T13:34:37Z" changeset="72857335" uid="1468248" user="PantherStrix">
    <nd ref="6665768039"/>
    <nd ref="6665768038"/>
    <nd ref="6665768037"/>
    <nd ref="2520926644"/>
    <nd ref="2520926645"/>
    <nd ref="6665768036"/>
    <nd ref="6665768041"/>
    <nd ref="6665768040"/>
    <nd ref="6665768039"/>
    <tag k="addr:city" v="Berlin"/>
    <tag k="addr:housenumber" v="18"/>
    <tag k="addr:postcode" v="14089"/>
    <tag k="addr:street" v="Havelmatensteig"/>
    <tag k="addr:suburb" v="Gatow"/>
    <tag k="building" v="detached"/>
    <tag k="roof:shape" v="flat"/>
    <tag k="source" v="Geoportal Berlin / Hauskoordinaten"/>
  </way>
  <way id="913050757" version="1" timestamp="2021-03-03T06:42:02Z" changeset="100323779" uid="66391" user="geozeisig">
    <nd ref="8481820261"/>
    <nd ref="8481820260"/>
    <nd ref="8481820259"/>
    <nd ref="8481820256"/>
    <nd ref="8481820257"/>
    <nd ref="8481820258"/>
    <nd ref="8481820261"/>
    <tag k="addr:city" v="Berlin"/>
    <tag k="addr:housenumber" v="16"/>
    <tag k="addr:postcode" v="14089"/>
    <tag k="addr:street" v="Havelmatensteig"/>
    <tag k="addr:suburb" v="Gatow"/>
    <tag k="building" v="yes"/>
    <tag k="source" v="Geoportal Berlin / Hauskoordinaten"/>
  </way>
  <way id="913050765" version="1" timestamp="2021-03-03T06:42:02Z" changeset="100323779" uid="66391" user="geozeisig">
    <nd ref="8481810771"/>
    <nd ref="8481810770"/>
    <nd ref="8481810769"/>
    <nd ref="8481810768"/>
    <nd ref="8481810771"/>
    <tag k="addr:city" v="Berlin"/>
    <tag k="addr:housenumber" v="12A"/>
    <tag k="addr:postcode" v="14089"/>
    <tag k="addr:street" v="Im Eulengrund"/>
    <tag k="addr:suburb" v="Gatow"/>
    <tag k="building" v="yes"/>
  </way>
  <way id="913053260" version="2" timestamp="2025-04-05T16:46:40Z" changeset="164559963" uid="4798255" user="tecmap15">
    <nd ref="8481846346"/>
    <nd ref="8481846347"/>
    <nd ref="8481846344"/>
    <nd ref="8481846345"/>
    <nd ref="2854726087"/>
    <nd ref="8481846346"/>
    <tag k="addr:city" v="Berlin"/>
    <tag k="addr:country" v="DE"/>
    <tag k="addr:housenumber" v="17"/>
    <tag k="addr:postcode" v="14089"/>
    <tag k="addr:street" v="Künstlerweg"/>
    <tag k="addr:suburb" v="Gatow"/>
    <tag k="building" v="yes"/>
    <tag k="source" v="Geoportal Berlin / Hauskoordinaten"/>
  </way>
  <way id="913053261" version="2" timestamp="2025-04-05T16:46:40Z" changeset="164559963" uid="4798255" user="tecmap15">
    <nd ref="8481846349"/>
    <nd ref="8481846346"/>
    <nd ref="8481846347"/>
    <nd ref="8481846348"/>
    <nd ref="8481846349"/>
    <tag k="addr:city" v="Berlin"/>
    <tag k="addr:country" v="DE"/>
    <tag k="addr:housenumber" v="19"/>
    <tag k="addr:postcode" v="14089"/>
    <tag k="addr:street" v="Künstlerweg"/>
    <tag k="addr:suburb" v="Gatow"/>
    <tag k="building" v="yes"/>
    <tag k="source" v="Geoportal Berlin / Hauskoordinaten"/>
  </way>
  <way id="922216178" version="2" timestamp="2023-02-27T13:24:23Z" changeset="133083060" uid="2807324" user="bwbuz">
    <nd ref="4380283479"/>
    <nd ref="8561365851"/>
    <tag k="highway" v="residential"/>
    <tag k="maxspeed" v="30"/>
    <tag k="maxspeed:type" v="DE:zone30"/>
    <tag k="name" v="Waldschluchtpfad"/>
    <tag k="postal_code" v="14089"/>
    <tag k="surface" v="asphalt"/>
  </way>
  <way id="928653205" version="2" timestamp="2021-10-28T15:03:58Z" changeset="113085416" uid="10630643" user="janolezab">
    <nd ref="395053880"/>
    <nd ref="56414825"/>
    <nd ref="260822087"/>
    <tag k="highway" v="secondary"/>
    <tag k="lanes" v="2"/>
    <tag k="lit" v="yes"/>
    <tag k="maxspeed" v="50"/>
    <tag k="name" v="Gatower Straße"/>
    <tag k="name:etymology:wikidata" v="Q515832"/>
    <tag k="name:etymology:wikipedia" v="de:Gatow"/>
    <tag k="postal_code" v="14089"/>
    <tag k="sidewalk" v="both"/>
    <tag k="sidewalk:both:bicycle" v="yes"/>
    <tag k="surface" v="asphalt"/>
  </way>
  <way id="928653208" version="3" timestamp="2021-11-25T05:45:17Z" changeset="114206065" uid="10961311" user="StefanHRT">
    <nd ref="434098008"/>
    <nd ref="27324660"/>
    <tag k="highway" v="secondary"/>
    <tag k="lit" v="yes"/>
    <tag k="maxspeed" v="50"/>
    <tag k="name" v="Gatower Straße"/>
    <tag k="name:etymology:wikidata" v="Q515832"/>
    <tag k="name:etymology:wikipedia" v="de:Gatow"/>
    <tag k="postal_code" v="14089"/>
    <tag k="sidewalk" v="both"/>
    <tag k="sidewalk:both:bicycle" v="yes"/>
    <tag k="surface" v="asphalt"/>
  </way>
  <way id="928653216" version="2" timestamp="2022-12-27T14:05:58Z" changeset="130558991" uid="10630643" user="janolezab">
    <nd ref="273117088"/>
    <nd ref="27324690"/>
    <nd ref="27324691"/>
    <tag k="cycleway:left" v="lane"/>
    <tag k="highway" v="secondary"/>
    <tag k="lanes" v="2"/>
    <tag k="lit" v="yes"/>
    <tag k="maxspeed" v="50"/>
    <tag k="name" v="Kladower Damm"/>
    <tag k="name:etymology:wikidata" v="Q519632"/>
    <tag k="name:etymology:wikipedia" v="de:Berlin-Kladow"/>
    <tag k="postal_code" v="14089"/>
    <tag k="sidewalk" v="separate"/>
    <tag k="surface" v="asphalt"/>
  </way>
  <way id="928653217" version="1" timestamp="2021-04-09T21:06:14Z" changeset="102670667" uid="10121078" user="klnkengi">
    <nd ref="276025753"/>
    <nd ref="273117088"/>
    <tag k="cycleway:left" v="lane"/>
    <tag k="highway" v="secondary"/>
    <tag k="lit" v="yes"/>
    <tag k="maxspeed" v="50"/>
    <tag k="name" v="Kladower Damm"/>
    <tag k="name:etymology:wikidata" v="Q519632"/>
    <tag k="name:etymology:wikipedia" v="de:Berlin-Kladow"/>
    <tag k="postal_code" v="14089"/>
    <tag k="sidewalk" v="separate"/>
    <tag k="surface" v="asphalt"/>
  </way>
  <way id="928877896" version="8" timestamp="2023-12-26T13:34:57Z" changeset="145534514" uid="11324420" user="Jes9043">
    <nd ref="8615032450"/>
    <nd ref="1369234858"/>
    <nd ref="414009348"/>
    <nd ref="27324672"/>
    <tag k="highway" v="residential"/>
    <tag k="lane_markings" v="no"/>
    <tag k="lit" v="yes"/>
    <tag k="maxspeed" v="50"/>
    <tag k="maxspeed:type" v="DE:urban"/>
    <tag k="name" v="Alt-Gatow"/>
    <tag k="name:etymology:wikidata" v="Q515832"/>
    <tag k="name:etymology:wikipedia" v="de:Gatow"/>
    <tag k="oneway" v="yes"/>
    <tag k="postal_code" v="14089"/>
    <tag k="sidewalk:right" v="yes"/>
    <tag k="surface" v="asphalt"/>
  </way>
  <way id="928877897" version="2" timestamp="2021-10-28T14:39:22Z" changeset="113085416" uid="10630643" user="janolezab">
    <nd ref="27324669"/>
    <nd ref="7049277234"/>
    <nd ref="6795984681"/>
    <nd ref="5302562771"/>
    <nd ref="2854854904"/>
    <nd ref="7760879180"/>
    <nd ref="27324670"/>
    <nd ref="2854854903"/>
    <nd ref="27324672"/>
    <tag k="cycleway" v="separate"/>
    <tag k="highway" v="secondary"/>
    <tag k="lanes" v="2"/>
    <tag k="lit" v="yes"/>
    <tag k="maxspeed" v="50"/>
    <tag k="maxspeed:conditional" v="30 @ (Mo-Fr 06:00-18:00)"/>
    <tag k="name" v="Alt-Gatow"/>
    <tag k="name:etymology:wikidata" v="Q515832"/>
    <tag k="name:etymology:wikipedia" v="de:Gatow"/>
    <tag k="postal_code" v="14089"/>
    <tag k="sidewalk" v="separate"/>
    <tag k="surface" v="asphalt"/>
  </way>
  <way id="1073531797" version="3" timestamp="2023-02-28T17:59:10Z" changeset="133140086" uid="2807324" user="bwbuz">
    <nd ref="273120732"/>
    <nd ref="7498142956"/>
    <nd ref="276028498"/>
    <nd ref="7498142963"/>
    <tag k="highway" v="residential"/>
    <tag k="lit" v="yes"/>
    <tag k="maxspeed" v="30"/>
    <tag k="maxspeed:type" v="DE:zone30"/>
    <tag k="name" v="Breitehornweg"/>
    <tag k="postal_code" v="14089"/>
    <tag k="source:maxspeed" v="DE:zone30"/>
  </way>
  <way id="1149892153" version="3" timestamp="2023-02-27T17:45:42Z" changeset="133097681" uid="2807324" user="bwbuz">
    <nd ref="266779227"/>
    <nd ref="9552107243"/>
    <nd ref="4292863689"/>
    <nd ref="4380283468"/>
    <nd ref="10697111356"/>
    <tag k="highway" v="residential"/>
    <tag k="maxspeed" v="50"/>
    <tag k="maxspeed:type" v="DE:urban"/>
    <tag k="name" v="Breitehornweg"/>
    <tag k="postal_code" v="14089"/>
    <tag k="surface" v="asphalt"/>
  </way>
  <way id="1149899969" version="3" timestamp="2023-02-27T17:47:00Z" changeset="133097727" uid="2807324" user="bwbuz">
    <nd ref="10697171587"/>
    <nd ref="6248004989"/>
    <tag k="highway" v="residential"/>
    <tag k="lit" v="yes"/>
    <tag k="maxspeed" v="50"/>
    <tag k="maxspeed:type" v="DE:urban"/>
    <tag k="name" v="Buchwaldzeile"/>
    <tag k="name:etymology:wikidata" v="Q4421"/>
    <tag k="name:etymology:wikipedia" v="de:Wald"/>
    <tag k="postal_code" v="14089"/>
    <tag k="surface" v="sett"/>
  </way>
  <way id="1149900712" version="3" timestamp="2024-12-04T21:33:17Z" changeset="159934480" uid="44217" user="kjon">
    <nd ref="12396764168"/>
    <nd ref="12396764167"/>
    <nd ref="12396764165"/>
    <nd ref="12396764164"/>
    <nd ref="12396764162"/>
    <nd ref="12396764160"/>
    <nd ref="56420496"/>
    <nd ref="12396764149"/>
    <nd ref="10697212030"/>
    <tag k="highway" v="residential"/>
    <tag k="lit" v="yes"/>
    <tag k="maxspeed" v="10"/>
    <tag k="maxspeed:type" v="DE:zone10"/>
    <tag k="name" v="Buchwaldzeile"/>
    <tag k="name:etymology:wikidata" v="Q4421"/>
    <tag k="name:etymology:wikipedia" v="de:Wald"/>
    <tag k="postal_code" v="14089"/>
    <tag k="surface" v="sett"/>
  </way>
  <way id="1189808097" version="1" timestamp="2023-07-15T10:14:47Z" changeset="138538417" uid="10961311" user="StefanHRT">
    <nd ref="1369218800"/>
    <nd ref="56420536"/>
    <nd ref="11047831720"/>
    <tag k="highway" v="residential"/>
    <tag k="lit" v="yes"/>
    <tag k="maxspeed" v="30"/>
    <tag k="maxspeed:type" v="DE:zone30"/>
    <tag k="name" v="Am Berghang"/>
    <tag k="postal_code" v="14089"/>
    <tag k="smoothness" v="bad"/>
    <tag k="surface" v="sett"/>
  </way>
  <way id="1202880787" version="1" timestamp="2023-08-28T17:17:41Z" changeset="140505364" uid="10961311" user="StefanHRT">
    <nd ref="2676675246"/>
    <nd ref="260470292"/>
    <tag k="cycleway:both" v="no"/>
    <tag k="highway" v="unclassified"/>
    <tag k="lane_markings" v="no"/>
    <tag k="maxspeed" v="50"/>
    <tag k="maxspeed:type" v="DE:urban"/>
    <tag k="name" v="Groß-Glienicker Weg"/>
    <tag k="name:etymology:wikidata" v="Q878722"/>
    <tag k="postal_code" v="14089"/>
    <tag k="surface" v="asphalt"/>
    <tag k="traffic_sign" v="DE:250,1020-30"/>
    <tag k="vehicle" v="destination"/>
  </way>
  <way id="1202880788" version="1" timestamp="2023-08-28T17:17:41Z" changeset="140505364" uid="10961311" user="StefanHRT">
    <nd ref="11151140962"/>
    <nd ref="11047935825"/>
    <nd ref="260469105"/>
    <tag k="highway" v="residential"/>
    <tag k="maxspeed" v="20"/>
    <tag k="name" v="Außenweg"/>
    <tag k="postal_code" v="14089"/>
    <tag k="surface" v="asphalt"/>
    <tag k="traffic_sign" v="DE:250,1020-30"/>
    <tag k="vehicle" v="destination"/>
  </way>
  <way id="1203784938" version="2" timestamp="2023-08-30T20:39:53Z" changeset="140607469" uid="15073840" user="dwormanns">
    <nd ref="11157814137"/>
    <nd ref="11157814138"/>
    <nd ref="11157814139"/>
    <nd ref="11157814140"/>
    <nd ref="11157814137"/>
    <tag k="building" v="house"/>
    <tag k="building:colour" v="#fffcf0"/>
    <tag k="building:levels" v="1"/>
    <tag k="height" v="3"/>
    <tag k="name" v="Wintergarten"/>
    <tag k="roof:colour" v="#565252"/>
  </way>
  <way id="1234288154" version="2" timestamp="2023-12-26T13:36:51Z" changeset="145534456" uid="11324420" user="Jes9043">
    <nd ref="9552107236"/>
    <nd ref="414009353"/>
    <nd ref="11455539431"/>
    <tag k="highway" v="residential"/>
    <tag k="maxspeed" v="30"/>
    <tag k="maxspeed:type" v="DE:zone30"/>
    <tag k="name" v="Marquardter Weg"/>
    <tag k="name:etymology:wikidata" v="Q896887"/>
    <tag k="postal_code" v="14089"/>
    <tag k="source:maxspeed" v="DE:zone30"/>
    <tag k="surface" v="sett"/>
  </way>
  <way id="1340162206" version="1" timestamp="2024-12-04T21:33:17Z" changeset="159934480" uid="44217" user="kjon">
    <nd ref="12396764165"/>
    <nd ref="12396764172"/>
    <nd ref="12396764173"/>
    <nd ref="12396764174"/>
    <tag k="highway" v="residential"/>
    <tag k="lit" v="yes"/>
    <tag k="maxspeed" v="10"/>
    <tag k="name" v="Straße 265"/>
    <tag k="postal_code" v="14089"/>
    <tag k="surface" v="unpaved"/>
  </way>
  <way id="1358385329" version="1" timestamp="2025-02-09T17:37:46Z" changeset="162323177" uid="8708244" user="felixeee">
    <nd ref="525429180"/>
    <nd ref="9213060362"/>
    <nd ref="9213060361"/>
    <nd ref="3988411813"/>
    <nd ref="5961421854"/>
    <nd ref="260648077"/>
    <tag k="cycleway:both" v="no"/>
    <tag k="highway" v="residential"/>
    <tag k="lit" v="yes"/>
    <tag k="maxspeed" v="50"/>
    <tag k="maxspeed:type" v="DE:urban"/>
    <tag k="name" v="Alt-Gatow"/>
    <tag k="name:etymology:wikidata" v="Q515832"/>
    <tag k="name:etymology:wikipedia" v="de:Gatow"/>
    <tag k="postal_code" v="14089"/>
    <tag k="sidewalk" v="right"/>
    <tag k="surface" v="asphalt"/>
  </way>
  <way id="1358385330" version="1" timestamp="2025-02-09T17:37:46Z" changeset="162323177" uid="8708244" user="felixeee">
    <nd ref="260647891"/>
    <nd ref="525429180"/>
    <tag k="cycleway:both" v="no"/>
    <tag k="highway" v="residential"/>
    <tag k="lit" v="yes"/>
    <tag k="maxspeed" v="50"/>
    <tag k="maxspeed:type" v="DE:urban"/>
    <tag k="name" v="Alt-Gatow"/>
    <tag k="name:etymology:wikidata" v="Q515832"/>
    <tag k="name:etymology:wikipedia" v="de:Gatow"/>
    <tag k="postal_code" v="14089"/>
    <tag k="sidewalk" v="right"/>
    <tag k="surface" v="asphalt"/>
  </way>

</osm>
