<?xml version="1.0" encoding="UTF-8"?>
<osm version="0.6" generator="Overpass API 0.7.62.5 1bd436f1">
<note>The data included in this document is from www.openstreetmap.org. The data is made available under ODbL.</note>
<meta osm_base="2025-05-18T05:46:15Z" areas="2024-12-31T00:49:33Z"/>

  <node id="7783979" lat="50.0469241" lon="14.6151963" version="3" timestamp="2012-02-15T21:34:00Z" changeset="10696780" uid="8007" user="vrabcak"/>
  <node id="7784042" lat="50.0413340" lon="14.6274035" version="2" timestamp="2011-05-17T16:57:32Z" changeset="8173637" uid="17615" user="Petr DlouhÃ½"/>
  <node id="29447072" lat="50.0570485" lon="14.6252105" version="2" timestamp="2009-03-29T14:42:26Z" changeset="867555" uid="3516" user="BiIbo"/>
  <node id="29447149" lat="50.0504130" lon="14.6222919" version="3" timestamp="2017-09-13T17:57:57Z" changeset="52011158" uid="3516" user="BiIbo"/>
  <node id="1626024347" lat="50.0628315" lon="14.6198225" version="2" timestamp="2024-06-12T22:34:31Z" changeset="152607376" uid="469828" user="LukÃ¡Å¡ JelÃ­nek"/>
  <node id="1634563545" lat="50.0457633" lon="14.6184377" version="1" timestamp="2012-02-15T21:33:47Z" changeset="10696780" uid="8007" user="vrabcak"/>
  <way id="4634977" version="16" timestamp="2023-10-17T17:55:00Z" changeset="142724013" uid="718054" user="Piskvor">
    <nd ref="29447072"/>
    <nd ref="5103783265"/>
    <nd ref="29447089"/>
    <nd ref="366937785"/>
    <nd ref="29447112"/>
    <nd ref="366905620"/>
    <nd ref="29447115"/>
    <nd ref="29447120"/>
    <tag k="highway" v="tertiary"/>
    <tag k="lane_markings" v="no"/>
    <tag k="maxspeed" v="50"/>
    <tag k="name" v="Pod Jankovem"/>
    <tag k="source:maxspeed" v="CZ:urban"/>
    <tag k="surface" v="asphalt"/>
  </way>
  <way id="5084468" version="13" timestamp="2025-03-15T22:29:55Z" changeset="163669756" uid="4018695" user="ðŸ‡¨ðŸ‡¿ Roman HornÃ­k">
    <nd ref="5103778725"/>
    <nd ref="5103778724"/>
    <nd ref="34595846"/>
    <nd ref="1453964646"/>
    <nd ref="12334391493"/>
    <nd ref="893957934"/>
    <nd ref="1453964481"/>
    <nd ref="34595848"/>
    <tag k="highway" v="tertiary"/>
    <tag k="lane_markings" v="no"/>
    <tag k="name" v="Pod MarkÃ©tou"/>
    <tag k="surface" v="asphalt"/>
  </way>
  <way id="5084469" version="11" timestamp="2025-03-15T22:29:55Z" changeset="163669756" uid="4018695" user="ðŸ‡¨ðŸ‡¿ Roman HornÃ­k">
    <nd ref="7784042"/>
    <nd ref="1289207490"/>
    <nd ref="34595850"/>
    <nd ref="1289207800"/>
    <nd ref="34595852"/>
    <nd ref="12478225124"/>
    <nd ref="34595854"/>
    <nd ref="1289207566"/>
    <nd ref="34595855"/>
    <nd ref="3468963472"/>
    <nd ref="1289207761"/>
    <nd ref="34595857"/>
    <nd ref="1289207635"/>
    <nd ref="34595859"/>
    <nd ref="34595861"/>
    <nd ref="3468963460"/>
    <nd ref="34595863"/>
    <nd ref="5103778723"/>
    <nd ref="12669074177"/>
    <tag k="highway" v="tertiary"/>
    <tag k="name" v="Pod MarkÃ©tou"/>
  </way>
  <way id="35458275" version="5" timestamp="2025-03-20T15:21:39Z" changeset="163867992" uid="11545091" user="VladaC">
    <nd ref="415862850"/>
    <nd ref="415862851"/>
    <nd ref="415862852"/>
    <nd ref="11888695702"/>
    <nd ref="415862853"/>
    <nd ref="11888695701"/>
    <nd ref="11888695699"/>
    <nd ref="11888695700"/>
    <nd ref="415862854"/>
    <nd ref="11888695698"/>
    <nd ref="415862855"/>
    <nd ref="11888695697"/>
    <tag k="highway" v="residential"/>
    <tag k="name" v="Pod PÅ™ehradou"/>
  </way>
  <way id="35458276" version="4" timestamp="2011-10-03T17:13:59Z" changeset="9462127" uid="72020" user="Petr1868">
    <nd ref="1213987522"/>
    <nd ref="1453964805"/>
    <nd ref="34595846"/>
    <tag k="highway" v="residential"/>
    <tag k="name" v="KÅ™esadlova"/>
  </way>
  <way id="35458314" version="5" timestamp="2025-03-20T15:21:39Z" changeset="163867992" uid="11545091" user="VladaC">
    <nd ref="3947362662"/>
    <nd ref="415863217"/>
    <nd ref="415863218"/>
    <tag k="highway" v="residential"/>
    <tag k="lane_markings" v="no"/>
    <tag k="name" v="PÅ™edpolnÃ­"/>
    <tag k="surface" v="asphalt"/>
  </way>
  <way id="35458315" version="3" timestamp="2023-10-27T07:46:00Z" changeset="143197765" uid="13864" user="Martin Poljak">
    <nd ref="34595814"/>
    <nd ref="415863219"/>
    <tag k="highway" v="residential"/>
    <tag k="lane_markings" v="no"/>
    <tag k="name" v="U KolodÄ›j"/>
    <tag k="surface" v="asphalt"/>
  </way>
  <way id="35458316" version="6" timestamp="2025-03-20T15:21:39Z" changeset="163867992" uid="11545091" user="VladaC">
    <nd ref="415863221"/>
    <nd ref="8249436494"/>
    <nd ref="12669074187"/>
    <nd ref="12669074192"/>
    <nd ref="12669074193"/>
    <nd ref="415863220"/>
    <nd ref="415863225"/>
    <nd ref="8249436491"/>
    <nd ref="12669074188"/>
    <nd ref="12669074189"/>
    <nd ref="12669074190"/>
    <nd ref="12669074191"/>
    <nd ref="415863224"/>
    <nd ref="415863223"/>
    <nd ref="415863221"/>
    <tag k="highway" v="residential"/>
    <tag k="junction" v="roundabout"/>
  </way>
  <way id="35458317" version="4" timestamp="2025-03-15T22:29:55Z" changeset="163669756" uid="4018695" user="ðŸ‡¨ðŸ‡¿ Roman HornÃ­k">
    <nd ref="415863219"/>
    <nd ref="12669074186"/>
    <nd ref="9433400544"/>
    <nd ref="12669074185"/>
    <nd ref="12669074196"/>
    <nd ref="415863218"/>
    <nd ref="12669074195"/>
    <nd ref="415863220"/>
    <tag k="highway" v="residential"/>
    <tag k="name" v="PÅ™ed Oborou"/>
  </way>
  <way id="75720137" version="11" timestamp="2023-10-27T07:47:06Z" changeset="143197765" uid="13864" user="Martin Poljak">
    <nd ref="29447120"/>
    <nd ref="3947362674"/>
    <nd ref="1169867982"/>
    <nd ref="5103778743"/>
    <nd ref="5103778740"/>
    <nd ref="29447140"/>
    <tag k="highway" v="tertiary"/>
    <tag k="lane_markings" v="no"/>
    <tag k="maxspeed" v="30"/>
    <tag k="maxspeed:type" v="sign"/>
    <tag k="name" v="Pod Jankovem"/>
    <tag k="surface" v="asphalt"/>
  </way>
  <way id="75720138" version="8" timestamp="2024-11-12T11:23:44Z" changeset="159045807" uid="718054" user="Piskvor">
    <nd ref="29447149"/>
    <nd ref="5103778729"/>
    <nd ref="1169868550"/>
    <nd ref="5103778727"/>
    <nd ref="29447172"/>
    <nd ref="12334391482"/>
    <nd ref="11631658821"/>
    <nd ref="1634563573"/>
    <nd ref="1169868561"/>
    <nd ref="1634563568"/>
    <nd ref="1634563560"/>
    <nd ref="1634563558"/>
    <nd ref="6393563605"/>
    <nd ref="1634563556"/>
    <nd ref="1634563555"/>
    <nd ref="1634563553"/>
    <nd ref="1634563551"/>
    <nd ref="29447252"/>
    <nd ref="1169868577"/>
    <nd ref="7783979"/>
    <tag k="highway" v="tertiary"/>
    <tag k="maxspeed" v="50"/>
    <tag k="source:maxspeed" v="CZ:urban"/>
    <tag k="surface" v="asphalt"/>
  </way>
  <way id="105364654" version="2" timestamp="2012-05-05T07:00:07Z" changeset="11504643" uid="555376" user="sloupini">
    <nd ref="1213987475"/>
    <nd ref="1213987522"/>
    <nd ref="1213987552"/>
    <tag k="highway" v="residential"/>
    <tag k="name" v="BlaÅ¾kova"/>
  </way>
  <way id="105364677" version="1" timestamp="2011-03-22T22:01:56Z" changeset="7641946" uid="8007" user="vrabcak">
    <nd ref="34595846"/>
    <nd ref="415862859"/>
    <nd ref="415862860"/>
    <nd ref="415862861"/>
    <tag k="highway" v="residential"/>
    <tag k="name" v="Ke KrÃ¡lovicÅ¯m"/>
  </way>
  <way id="118484337" version="9" timestamp="2025-03-15T22:29:55Z" changeset="163669756" uid="4018695" user="ðŸ‡¨ðŸ‡¿ Roman HornÃ­k">
    <nd ref="11292623810"/>
    <nd ref="11292623805"/>
    <nd ref="1289207740"/>
    <nd ref="6162046544"/>
    <nd ref="11292623813"/>
    <nd ref="12669074182"/>
    <nd ref="12669074181"/>
    <nd ref="12669074180"/>
    <nd ref="29447149"/>
    <tag k="highway" v="tertiary"/>
    <tag k="lane_markings" v="no"/>
    <tag k="maxspeed:type" v="CZ:urban50"/>
    <tag k="name" v="Pod Jankovem"/>
    <tag k="surface" v="asphalt"/>
  </way>
  <way id="132113453" version="4" timestamp="2019-04-14T11:27:59Z" changeset="69199841" uid="527259" user="Vratislav Filler">
    <nd ref="1453967484"/>
    <nd ref="5103778742"/>
    <nd ref="1453967720"/>
    <nd ref="5103778744"/>
    <nd ref="1453968053"/>
    <nd ref="1453968148"/>
    <nd ref="1453968220"/>
    <nd ref="1453968347"/>
    <nd ref="1453968343"/>
    <nd ref="1453968306"/>
    <nd ref="1453968058"/>
    <nd ref="1453967804"/>
    <nd ref="5103778741"/>
    <nd ref="1453967435"/>
    <tag k="highway" v="residential"/>
    <tag k="name" v="Do Podkovy"/>
    <tag k="source" v="lpis"/>
  </way>
  <way id="132113454" version="2" timestamp="2023-01-15T18:22:33Z" changeset="131309006" uid="231749" user="Eino81">
    <nd ref="1453964640"/>
    <nd ref="1453964646"/>
    <tag k="access" v="private"/>
    <tag k="highway" v="residential"/>
  </way>
  <way id="132113455" version="2" timestamp="2012-05-05T07:00:07Z" changeset="11504643" uid="555376" user="sloupini">
    <nd ref="1453965049"/>
    <nd ref="1453964805"/>
    <tag k="highway" v="residential"/>
    <tag k="name" v="Fischlova"/>
  </way>
  <way id="132113457" version="5" timestamp="2024-04-05T15:03:26Z" changeset="149619582" uid="10932047" user="AF HAF KARTOGRAF">
    <nd ref="1453966729"/>
    <nd ref="1453966625"/>
    <nd ref="1453966614"/>
    <nd ref="1453966596"/>
    <nd ref="1453966601"/>
    <nd ref="1453966539"/>
    <nd ref="1453966572"/>
    <nd ref="1453966694"/>
    <nd ref="1453966676"/>
    <nd ref="1453966743"/>
    <nd ref="1453966729"/>
    <tag k="addr:conscriptionnumber" v="32"/>
    <tag k="addr:housenumber" v="32"/>
    <tag k="addr:place" v="HÃ¡jek u UhÅ™Ã­nÄ›vsi"/>
    <tag k="addr:postcode" v="10400"/>
    <tag k="addr:street" v="Pod MarkÃ©tou"/>
    <tag k="building" v="residential"/>
    <tag k="building:flats" v="2"/>
    <tag k="building:levels" v="1"/>
    <tag k="building:ruian:type" v="3"/>
    <tag k="ref:ruian:addr" v="22559272"/>
    <tag k="ref:ruian:building" v="21586161"/>
    <tag k="source" v="cuzk:ruian"/>
  </way>
  <way id="132113458" version="5" timestamp="2024-04-05T15:03:26Z" changeset="149619582" uid="10932047" user="AF HAF KARTOGRAF">
    <nd ref="1453967399"/>
    <nd ref="1453967388"/>
    <nd ref="1453967343"/>
    <nd ref="1453967354"/>
    <nd ref="1453967260"/>
    <nd ref="1453967287"/>
    <nd ref="4324913133"/>
    <nd ref="1453967325"/>
    <nd ref="4324913137"/>
    <nd ref="1453967352"/>
    <nd ref="1453967389"/>
    <nd ref="1453967384"/>
    <nd ref="9642989534"/>
    <nd ref="9642989533"/>
    <nd ref="1453967399"/>
    <tag k="addr:conscriptionnumber" v="107"/>
    <tag k="addr:housenumber" v="107"/>
    <tag k="addr:place" v="HÃ¡jek u UhÅ™Ã­nÄ›vsi"/>
    <tag k="addr:postcode" v="10400"/>
    <tag k="addr:street" v="PÅ™ed oborou"/>
    <tag k="building" v="house"/>
    <tag k="building:flats" v="1"/>
    <tag k="building:levels" v="2"/>
    <tag k="building:ruian:type" v="7"/>
    <tag k="ref:ruian:addr" v="25606476"/>
    <tag k="ref:ruian:building" v="25125508"/>
    <tag k="source" v="cuzk:ruian"/>
    <tag k="start_date" v="2002-05-27"/>
  </way>
  <way id="132113459" version="4" timestamp="2024-04-05T15:03:26Z" changeset="149619582" uid="10932047" user="AF HAF KARTOGRAF">
    <nd ref="1453967138"/>
    <nd ref="1453967194"/>
    <nd ref="1453967321"/>
    <nd ref="1453967320"/>
    <nd ref="1453967368"/>
    <nd ref="1453967336"/>
    <nd ref="1453967281"/>
    <nd ref="1453967285"/>
    <nd ref="1453967170"/>
    <nd ref="1453967190"/>
    <nd ref="1453967138"/>
    <tag k="addr:conscriptionnumber" v="147"/>
    <tag k="addr:housenumber" v="147"/>
    <tag k="addr:place" v="HÃ¡jek u UhÅ™Ã­nÄ›vsi"/>
    <tag k="addr:postcode" v="10400"/>
    <tag k="addr:street" v="Pod MarkÃ©tou"/>
    <tag k="building" v="house"/>
    <tag k="building:flats" v="2"/>
    <tag k="building:levels" v="2"/>
    <tag k="building:ruian:type" v="7"/>
    <tag k="ref:ruian:addr" v="27989411"/>
    <tag k="ref:ruian:building" v="27456293"/>
    <tag k="source" v="cuzk:ruian"/>
    <tag k="start_date" v="2009-11-18"/>
  </way>
  <way id="132113460" version="6" timestamp="2024-04-05T15:03:26Z" changeset="149619582" uid="10932047" user="AF HAF KARTOGRAF">
    <nd ref="6773900205"/>
    <nd ref="1453967226"/>
    <nd ref="1453967204"/>
    <nd ref="1453967067"/>
    <nd ref="1453967102"/>
    <nd ref="1453967256"/>
    <nd ref="1453967232"/>
    <nd ref="4324913091"/>
    <nd ref="4324913090"/>
    <nd ref="6773900204"/>
    <nd ref="6773900203"/>
    <nd ref="6773900202"/>
    <nd ref="6773900201"/>
    <nd ref="6773900200"/>
    <nd ref="6773900205"/>
    <tag k="addr:conscriptionnumber" v="45"/>
    <tag k="addr:housenumber" v="45"/>
    <tag k="addr:place" v="HÃ¡jek u UhÅ™Ã­nÄ›vsi"/>
    <tag k="addr:postcode" v="10400"/>
    <tag k="addr:street" v="Pod Jankovem"/>
    <tag k="building" v="residential"/>
    <tag k="building:flats" v="1"/>
    <tag k="building:levels" v="1"/>
    <tag k="building:ruian:type" v="3"/>
    <tag k="ref:ruian:addr" v="22559400"/>
    <tag k="ref:ruian:building" v="21586292"/>
    <tag k="source" v="cuzk:ruian"/>
  </way>
  <way id="132113461" version="4" timestamp="2024-04-05T15:03:26Z" changeset="149619582" uid="10932047" user="AF HAF KARTOGRAF">
    <nd ref="1453966696"/>
    <nd ref="1453966796"/>
    <nd ref="1453966751"/>
    <nd ref="1453966475"/>
    <nd ref="1453966504"/>
    <nd ref="1453966528"/>
    <nd ref="1453966517"/>
    <nd ref="1453966573"/>
    <nd ref="1453966586"/>
    <nd ref="1453966680"/>
    <nd ref="1453966696"/>
    <tag k="addr:conscriptionnumber" v="110"/>
    <tag k="addr:housenumber" v="110"/>
    <tag k="addr:place" v="HÃ¡jek u UhÅ™Ã­nÄ›vsi"/>
    <tag k="addr:postcode" v="10400"/>
    <tag k="addr:street" v="PÅ™edpolnÃ­"/>
    <tag k="building" v="residential"/>
    <tag k="building:flats" v="1"/>
    <tag k="building:levels" v="1"/>
    <tag k="building:ruian:type" v="3"/>
    <tag k="ref:ruian:addr" v="26264951"/>
    <tag k="ref:ruian:building" v="25761501"/>
    <tag k="source" v="cuzk:ruian"/>
    <tag k="start_date" v="2006-01-17"/>
  </way>
  <way id="132113462" version="4" timestamp="2024-04-05T15:03:26Z" changeset="149619582" uid="10932047" user="AF HAF KARTOGRAF">
    <nd ref="1453967339"/>
    <nd ref="4324913140"/>
    <nd ref="1453967365"/>
    <nd ref="1453967351"/>
    <nd ref="1453967357"/>
    <nd ref="4324913142"/>
    <nd ref="1453967371"/>
    <nd ref="1453967383"/>
    <nd ref="1453967428"/>
    <nd ref="1453967410"/>
    <nd ref="1453967424"/>
    <nd ref="1453967412"/>
    <nd ref="1453967339"/>
    <tag k="addr:conscriptionnumber" v="100"/>
    <tag k="addr:housenumber" v="100"/>
    <tag k="addr:place" v="HÃ¡jek u UhÅ™Ã­nÄ›vsi"/>
    <tag k="addr:postcode" v="10400"/>
    <tag k="addr:street" v="PÅ™ed oborou"/>
    <tag k="building" v="house"/>
    <tag k="building:flats" v="1"/>
    <tag k="building:levels" v="2"/>
    <tag k="building:ruian:type" v="7"/>
    <tag k="ref:ruian:addr" v="25601075"/>
    <tag k="ref:ruian:building" v="25120603"/>
    <tag k="source" v="cuzk:ruian"/>
    <tag k="start_date" v="2002-05-24"/>
  </way>
  <way id="132113468" version="4" timestamp="2024-04-05T15:03:26Z" changeset="149619582" uid="10932047" user="AF HAF KARTOGRAF">
    <nd ref="1453966183"/>
    <nd ref="1453966194"/>
    <nd ref="1453966170"/>
    <nd ref="1453966044"/>
    <nd ref="1453966083"/>
    <nd ref="1453966032"/>
    <nd ref="1453966046"/>
    <nd ref="1453966214"/>
    <nd ref="1453966183"/>
    <tag k="addr:conscriptionnumber" v="108"/>
    <tag k="addr:housenumber" v="108"/>
    <tag k="addr:place" v="HÃ¡jek u UhÅ™Ã­nÄ›vsi"/>
    <tag k="addr:postcode" v="10400"/>
    <tag k="addr:street" v="PÅ™edpolnÃ­"/>
    <tag k="building" v="house"/>
    <tag k="building:flats" v="1"/>
    <tag k="building:levels" v="1"/>
    <tag k="building:ruian:type" v="7"/>
    <tag k="ref:ruian:addr" v="25699342"/>
    <tag k="ref:ruian:building" v="25212371"/>
    <tag k="source" v="cuzk:ruian"/>
    <tag k="start_date" v="2002-12-12"/>
  </way>
  <way id="132113469" version="5" timestamp="2024-04-05T15:03:26Z" changeset="149619582" uid="10932047" user="AF HAF KARTOGRAF">
    <nd ref="1453966935"/>
    <nd ref="1453966869"/>
    <nd ref="4324913083"/>
    <nd ref="4324913082"/>
    <nd ref="1453966890"/>
    <nd ref="1453966985"/>
    <nd ref="1453966955"/>
    <nd ref="1453966958"/>
    <nd ref="1453967016"/>
    <nd ref="1453967018"/>
    <nd ref="1453966935"/>
    <tag k="addr:conscriptionnumber" v="62"/>
    <tag k="addr:housenumber" v="62"/>
    <tag k="addr:place" v="HÃ¡jek u UhÅ™Ã­nÄ›vsi"/>
    <tag k="addr:postcode" v="10400"/>
    <tag k="addr:street" v="Pod MarkÃ©tou"/>
    <tag k="building" v="house"/>
    <tag k="building:flats" v="3"/>
    <tag k="building:levels" v="1"/>
    <tag k="building:ruian:type" v="7"/>
    <tag k="ref:ruian:addr" v="22559574"/>
    <tag k="ref:ruian:building" v="21586462"/>
    <tag k="source" v="cuzk:ruian"/>
  </way>
  <way id="132113473" version="5" timestamp="2024-04-05T15:03:26Z" changeset="149619582" uid="10932047" user="AF HAF KARTOGRAF">
    <nd ref="4324912995"/>
    <nd ref="1453966442"/>
    <nd ref="1453966781"/>
    <nd ref="1453966749"/>
    <nd ref="1453966723"/>
    <nd ref="1453966707"/>
    <nd ref="1453966643"/>
    <nd ref="1453966646"/>
    <nd ref="1453966462"/>
    <nd ref="1453966460"/>
    <nd ref="1453966436"/>
    <nd ref="4324912998"/>
    <nd ref="4324912996"/>
    <nd ref="4324912995"/>
    <tag k="addr:conscriptionnumber" v="40"/>
    <tag k="addr:housenumber" v="40"/>
    <tag k="addr:place" v="HÃ¡jek u UhÅ™Ã­nÄ›vsi"/>
    <tag k="addr:postcode" v="10400"/>
    <tag k="addr:street" v="Pod MarkÃ©tou"/>
    <tag k="building" v="residential"/>
    <tag k="building:flats" v="2"/>
    <tag k="building:levels" v="1"/>
    <tag k="building:ruian:type" v="3"/>
    <tag k="ref:ruian:addr" v="22559353"/>
    <tag k="ref:ruian:building" v="21586241"/>
    <tag k="source" v="cuzk:ruian"/>
  </way>
  <way id="132113475" version="4" timestamp="2024-04-05T15:03:26Z" changeset="149619582" uid="10932047" user="AF HAF KARTOGRAF">
    <nd ref="4324913127"/>
    <nd ref="4324913126"/>
    <nd ref="1453967224"/>
    <nd ref="1453967027"/>
    <nd ref="1453967059"/>
    <nd ref="1453967014"/>
    <nd ref="1453967053"/>
    <nd ref="1453967084"/>
    <nd ref="1453967126"/>
    <nd ref="1453967159"/>
    <nd ref="1453967189"/>
    <nd ref="1453967279"/>
    <nd ref="4324913127"/>
    <tag k="addr:conscriptionnumber" v="103"/>
    <tag k="addr:housenumber" v="103"/>
    <tag k="addr:place" v="HÃ¡jek u UhÅ™Ã­nÄ›vsi"/>
    <tag k="addr:postcode" v="10400"/>
    <tag k="addr:street" v="PÅ™ed oborou"/>
    <tag k="building" v="house"/>
    <tag k="building:flats" v="1"/>
    <tag k="building:levels" v="2"/>
    <tag k="building:ruian:type" v="7"/>
    <tag k="ref:ruian:addr" v="25606247"/>
    <tag k="ref:ruian:building" v="25125281"/>
    <tag k="source" v="cuzk:ruian"/>
    <tag k="start_date" v="2002-06-19"/>
  </way>
  <way id="132113478" version="4" timestamp="2024-04-05T15:03:26Z" changeset="149619582" uid="10932047" user="AF HAF KARTOGRAF">
    <nd ref="1453967930"/>
    <nd ref="1453967932"/>
    <nd ref="1453967914"/>
    <nd ref="1453967931"/>
    <nd ref="1453967946"/>
    <nd ref="1453967950"/>
    <nd ref="1453967990"/>
    <nd ref="1453967979"/>
    <nd ref="1453967991"/>
    <nd ref="1453967977"/>
    <nd ref="4324913233"/>
    <nd ref="4324913232"/>
    <nd ref="1453967930"/>
    <tag k="addr:conscriptionnumber" v="208"/>
    <tag k="addr:housenumber" v="208"/>
    <tag k="addr:place" v="HÃ¡jek u UhÅ™Ã­nÄ›vsi"/>
    <tag k="addr:postcode" v="10400"/>
    <tag k="addr:street" v="PÅ™ed oborou"/>
    <tag k="building" v="house"/>
    <tag k="building:flats" v="1"/>
    <tag k="building:levels" v="2"/>
    <tag k="building:ruian:type" v="7"/>
    <tag k="ref:ruian:addr" v="71042229"/>
    <tag k="ref:ruian:building" v="71286039"/>
    <tag k="source" v="cuzk:ruian"/>
    <tag k="start_date" v="2013-12-07"/>
  </way>
  <way id="132113482" version="4" timestamp="2024-04-05T15:03:26Z" changeset="149619582" uid="10932047" user="AF HAF KARTOGRAF">
    <nd ref="1453967353"/>
    <nd ref="1453967335"/>
    <nd ref="1453967369"/>
    <nd ref="1453967355"/>
    <nd ref="1453967289"/>
    <nd ref="1453967303"/>
    <nd ref="1453967160"/>
    <nd ref="1453967200"/>
    <nd ref="1453967259"/>
    <nd ref="1453967280"/>
    <nd ref="1453967295"/>
    <nd ref="1453967353"/>
    <tag k="addr:conscriptionnumber" v="101"/>
    <tag k="addr:housenumber" v="101"/>
    <tag k="addr:place" v="HÃ¡jek u UhÅ™Ã­nÄ›vsi"/>
    <tag k="addr:postcode" v="10400"/>
    <tag k="addr:street" v="PÅ™ed oborou"/>
    <tag k="building" v="house"/>
    <tag k="building:flats" v="1"/>
    <tag k="building:levels" v="2"/>
    <tag k="building:ruian:type" v="7"/>
    <tag k="ref:ruian:addr" v="25602896"/>
    <tag k="ref:ruian:building" v="25122061"/>
    <tag k="source" v="cuzk:ruian"/>
    <tag k="start_date" v="2002-06-12"/>
  </way>
  <way id="132113484" version="4" timestamp="2024-04-05T15:03:26Z" changeset="149619582" uid="10932047" user="AF HAF KARTOGRAF">
    <nd ref="1453966887"/>
    <nd ref="1453966864"/>
    <nd ref="1453966818"/>
    <nd ref="4324913077"/>
    <nd ref="4324913078"/>
    <nd ref="1453966768"/>
    <nd ref="1453966678"/>
    <nd ref="4324913058"/>
    <nd ref="1453966674"/>
    <nd ref="1453966654"/>
    <nd ref="1453966635"/>
    <nd ref="1453966660"/>
    <nd ref="1453966701"/>
    <nd ref="1453966709"/>
    <nd ref="1453966887"/>
    <tag k="addr:conscriptionnumber" v="102"/>
    <tag k="addr:housenumber" v="102"/>
    <tag k="addr:place" v="HÃ¡jek u UhÅ™Ã­nÄ›vsi"/>
    <tag k="addr:postcode" v="10400"/>
    <tag k="addr:street" v="PÅ™ed oborou"/>
    <tag k="building" v="house"/>
    <tag k="building:flats" v="1"/>
    <tag k="building:levels" v="2"/>
    <tag k="building:ruian:type" v="7"/>
    <tag k="ref:ruian:addr" v="25602900"/>
    <tag k="ref:ruian:building" v="25122070"/>
    <tag k="source" v="cuzk:ruian"/>
    <tag k="start_date" v="2002-06-12"/>
  </way>
  <way id="132113488" version="4" timestamp="2024-04-05T15:03:26Z" changeset="149619582" uid="10932047" user="AF HAF KARTOGRAF">
    <nd ref="1453966916"/>
    <nd ref="1453966917"/>
    <nd ref="1453966842"/>
    <nd ref="1453966861"/>
    <nd ref="1453966884"/>
    <nd ref="4324913089"/>
    <nd ref="1453966932"/>
    <nd ref="1453966936"/>
    <nd ref="1453967062"/>
    <nd ref="1453967010"/>
    <nd ref="1453967100"/>
    <nd ref="1453967031"/>
    <nd ref="1453966916"/>
    <tag k="addr:conscriptionnumber" v="106"/>
    <tag k="addr:housenumber" v="106"/>
    <tag k="addr:place" v="HÃ¡jek u UhÅ™Ã­nÄ›vsi"/>
    <tag k="addr:postcode" v="10400"/>
    <tag k="addr:street" v="PÅ™ed oborou"/>
    <tag k="building" v="house"/>
    <tag k="building:flats" v="1"/>
    <tag k="building:levels" v="2"/>
    <tag k="building:ruian:type" v="7"/>
    <tag k="ref:ruian:addr" v="25606468"/>
    <tag k="ref:ruian:building" v="25125494"/>
    <tag k="source" v="cuzk:ruian"/>
    <tag k="start_date" v="2002-06-24"/>
  </way>
  <way id="132113496" version="3" timestamp="2022-01-20T12:11:25Z" changeset="116383155" uid="13552526" user="KingCZE">
    <nd ref="1453964593"/>
    <nd ref="1453964592"/>
    <nd ref="1453964589"/>
    <nd ref="1453964588"/>
    <nd ref="1453964585"/>
    <nd ref="1453964583"/>
    <nd ref="1453964578"/>
    <nd ref="1453964579"/>
    <nd ref="1453964571"/>
    <nd ref="1453964573"/>
    <nd ref="1453964587"/>
    <nd ref="1453964586"/>
    <nd ref="4324912493"/>
    <nd ref="4324912494"/>
    <nd ref="1453964593"/>
    <tag k="addr:city" v="Praha 22 - HÃ¡jek"/>
    <tag k="addr:conscriptionnumber" v="99"/>
    <tag k="addr:housenumber" v="99"/>
    <tag k="addr:place" v="HÃ¡jek u UhÅ™Ã­nÄ›vsi"/>
    <tag k="addr:postcode" v="10400"/>
    <tag k="addr:street" v="Pod MarkÃ©tou"/>
    <tag k="building" v="house"/>
    <tag k="building:flats" v="1"/>
    <tag k="building:levels" v="2"/>
    <tag k="building:ruian:type" v="7"/>
    <tag k="ref:ruian:addr" v="25515004"/>
    <tag k="ref:ruian:building" v="25039741"/>
    <tag k="source" v="cuzk:ruian"/>
    <tag k="start_date" v="2002-02-04"/>
  </way>
  <way id="132113497" version="5" timestamp="2024-04-05T15:03:26Z" changeset="149619582" uid="10932047" user="AF HAF KARTOGRAF">
    <nd ref="1453964650"/>
    <nd ref="1453964651"/>
    <nd ref="1453964643"/>
    <nd ref="1453964649"/>
    <nd ref="1453964652"/>
    <nd ref="1453964655"/>
    <nd ref="1453964670"/>
    <nd ref="1453964672"/>
    <nd ref="1453964679"/>
    <nd ref="1453964677"/>
    <nd ref="1453964668"/>
    <nd ref="1453964666"/>
    <nd ref="1453964650"/>
    <tag k="addr:conscriptionnumber" v="158"/>
    <tag k="addr:housenumber" v="158"/>
    <tag k="addr:place" v="HÃ¡jek u UhÅ™Ã­nÄ›vsi"/>
    <tag k="addr:postcode" v="10400"/>
    <tag k="addr:street" v="Pod MarkÃ©tou"/>
    <tag k="building" v="house"/>
    <tag k="building:ruian:type" v="7"/>
    <tag k="ref:ruian:addr" v="28414152"/>
    <tag k="ref:ruian:building" v="27872271"/>
    <tag k="source" v="cuzk:ruian"/>
    <tag k="start_date" v="2011-05-19"/>
  </way>
  <way id="132113498" version="4" timestamp="2024-04-05T15:03:26Z" changeset="149619582" uid="10932047" user="AF HAF KARTOGRAF">
    <nd ref="1453967305"/>
    <nd ref="1453967229"/>
    <nd ref="1453967236"/>
    <nd ref="1453967090"/>
    <nd ref="1453967129"/>
    <nd ref="1453967077"/>
    <nd ref="1453967128"/>
    <nd ref="1453967158"/>
    <nd ref="1453967165"/>
    <nd ref="1453967306"/>
    <nd ref="4324913132"/>
    <nd ref="4324913131"/>
    <nd ref="1453967267"/>
    <nd ref="1453967322"/>
    <nd ref="1453967305"/>
    <tag k="addr:conscriptionnumber" v="105"/>
    <tag k="addr:housenumber" v="105"/>
    <tag k="addr:place" v="HÃ¡jek u UhÅ™Ã­nÄ›vsi"/>
    <tag k="addr:postcode" v="10400"/>
    <tag k="addr:street" v="PÅ™ed oborou"/>
    <tag k="building" v="house"/>
    <tag k="building:flats" v="1"/>
    <tag k="building:levels" v="2"/>
    <tag k="building:ruian:type" v="7"/>
    <tag k="ref:ruian:addr" v="25606263"/>
    <tag k="ref:ruian:building" v="25125303"/>
    <tag k="source" v="cuzk:ruian"/>
    <tag k="start_date" v="2002-06-19"/>
  </way>
  <way id="132113503" version="5" timestamp="2024-04-05T15:03:26Z" changeset="149619582" uid="10932047" user="AF HAF KARTOGRAF">
    <nd ref="4324913264"/>
    <nd ref="4324913266"/>
    <nd ref="1453968304"/>
    <nd ref="1453968283"/>
    <nd ref="1453968287"/>
    <nd ref="1453968269"/>
    <nd ref="1453968311"/>
    <nd ref="1453968266"/>
    <nd ref="1453968241"/>
    <nd ref="1453968228"/>
    <nd ref="1453968204"/>
    <nd ref="4324913259"/>
    <nd ref="1453968249"/>
    <nd ref="1453968243"/>
    <nd ref="1453968208"/>
    <nd ref="1453968215"/>
    <nd ref="1453968263"/>
    <nd ref="4324913264"/>
    <tag k="addr:conscriptionnumber" v="203"/>
    <tag k="addr:housenumber" v="203/19"/>
    <tag k="addr:place" v="HÃ¡jek u UhÅ™Ã­nÄ›vsi"/>
    <tag k="addr:postcode" v="10400"/>
    <tag k="addr:street" v="Do podkovy"/>
    <tag k="addr:streetnumber" v="19"/>
    <tag k="building" v="house"/>
    <tag k="building:flats" v="1"/>
    <tag k="building:levels" v="2"/>
    <tag k="building:ruian:type" v="7"/>
    <tag k="ref:ruian:addr" v="42805589"/>
    <tag k="ref:ruian:building" v="59934158"/>
    <tag k="source" v="cuzk:ruian"/>
    <tag k="start_date" v="2013-10-22"/>
  </way>
  <way id="132113516" version="4" timestamp="2024-04-05T15:03:26Z" changeset="149619582" uid="10932047" user="AF HAF KARTOGRAF">
    <nd ref="1453967444"/>
    <nd ref="1453967449"/>
    <nd ref="1453967490"/>
    <nd ref="1453967470"/>
    <nd ref="1453967444"/>
    <tag k="addr:conscriptionnumber" v="238"/>
    <tag k="addr:housenumber" v="238"/>
    <tag k="addr:place" v="HÃ¡jek u UhÅ™Ã­nÄ›vsi"/>
    <tag k="addr:postcode" v="10400"/>
    <tag k="addr:street" v="PÅ™ed oborou"/>
    <tag k="building" v="house"/>
    <tag k="building:flats" v="1"/>
    <tag k="building:levels" v="2"/>
    <tag k="building:ruian:type" v="7"/>
    <tag k="ref:ruian:addr" v="79593810"/>
    <tag k="ref:ruian:building" v="97913146"/>
    <tag k="source" v="cuzk:ruian"/>
    <tag k="start_date" v="2018-10-01"/>
  </way>
  <way id="132113519" version="6" timestamp="2024-04-05T15:03:26Z" changeset="149619582" uid="10932047" user="AF HAF KARTOGRAF">
    <nd ref="4324912963"/>
    <nd ref="1453966415"/>
    <nd ref="4324912948"/>
    <nd ref="4324912950"/>
    <nd ref="1453966418"/>
    <nd ref="4324912968"/>
    <nd ref="4324912977"/>
    <nd ref="4324912980"/>
    <nd ref="1453966500"/>
    <nd ref="1453966481"/>
    <nd ref="4324913014"/>
    <nd ref="4324913013"/>
    <nd ref="4324912991"/>
    <nd ref="4324912989"/>
    <nd ref="4324912963"/>
    <tag k="addr:conscriptionnumber" v="37"/>
    <tag k="addr:housenumber" v="37"/>
    <tag k="addr:place" v="HÃ¡jek u UhÅ™Ã­nÄ›vsi"/>
    <tag k="addr:postcode" v="10400"/>
    <tag k="addr:street" v="Pod MarkÃ©tou"/>
    <tag k="building" v="residential"/>
    <tag k="building:flats" v="2"/>
    <tag k="building:levels" v="1"/>
    <tag k="building:ruian:type" v="7"/>
    <tag k="ref:ruian:addr" v="22559329"/>
    <tag k="ref:ruian:building" v="21586217"/>
    <tag k="source" v="cuzk:ruian"/>
  </way>
  <way id="132113520" version="6" timestamp="2024-04-05T15:03:26Z" changeset="149619582" uid="10932047" user="AF HAF KARTOGRAF">
    <nd ref="1453966727"/>
    <nd ref="1453966914"/>
    <nd ref="1453966908"/>
    <nd ref="1453966703"/>
    <nd ref="1453966727"/>
    <tag k="addr:conscriptionnumber" v="42"/>
    <tag k="addr:housenumber" v="42"/>
    <tag k="addr:place" v="HÃ¡jek u UhÅ™Ã­nÄ›vsi"/>
    <tag k="addr:postcode" v="10400"/>
    <tag k="addr:street" v="Pod MarkÃ©tou"/>
    <tag k="building" v="residential"/>
    <tag k="building:flats" v="1"/>
    <tag k="building:levels" v="1"/>
    <tag k="building:ruian:type" v="3"/>
    <tag k="ref:ruian:addr" v="22559370"/>
    <tag k="ref:ruian:building" v="21586268"/>
    <tag k="source" v="cuzk:ruian"/>
  </way>
  <way id="132113521" version="4" timestamp="2024-04-05T15:03:26Z" changeset="149619582" uid="10932047" user="AF HAF KARTOGRAF">
    <nd ref="1453966982"/>
    <nd ref="1453967108"/>
    <nd ref="1453967263"/>
    <nd ref="1453967196"/>
    <nd ref="1453966982"/>
    <tag k="addr:conscriptionnumber" v="112"/>
    <tag k="addr:housenumber" v="112"/>
    <tag k="addr:place" v="HÃ¡jek u UhÅ™Ã­nÄ›vsi"/>
    <tag k="addr:postcode" v="10400"/>
    <tag k="addr:street" v="U KolodÄ›j"/>
    <tag k="addr:suburb" v="Praha 22 - HÃ¡jek"/>
    <tag k="building" v="house"/>
    <tag k="building:flats" v="1"/>
    <tag k="building:levels" v="3"/>
    <tag k="building:ruian:type" v="7"/>
    <tag k="ref:ruian:addr" v="26557819"/>
    <tag k="ref:ruian:building" v="26050188"/>
    <tag k="source" v="cuzk:ruian"/>
    <tag k="start_date" v="2006-07-18"/>
  </way>
  <way id="132113531" version="5" timestamp="2022-12-03T12:50:57Z" changeset="129675203" uid="1942179" user="CzechAddress">
    <nd ref="1453967385"/>
    <nd ref="4324913149"/>
    <nd ref="1453967373"/>
    <nd ref="4324913141"/>
    <nd ref="4324913135"/>
    <nd ref="4324913136"/>
    <nd ref="1453967308"/>
    <nd ref="1453967323"/>
    <nd ref="1453967385"/>
    <tag k="addr:city" v="Praha"/>
    <tag k="addr:conscriptionnumber" v="58"/>
    <tag k="addr:housenumber" v="58"/>
    <tag k="addr:place" v="HÃ¡jek u UhÅ™Ã­nÄ›vsi"/>
    <tag k="addr:postcode" v="10400"/>
    <tag k="addr:street" v="PÅ™edpolnÃ­"/>
    <tag k="building" v="residential"/>
    <tag k="building:flats" v="1"/>
    <tag k="building:levels" v="1"/>
    <tag k="building:ruian:type" v="7"/>
    <tag k="ref:ruian:addr" v="22559531"/>
    <tag k="ref:ruian:building" v="21586420"/>
    <tag k="source" v="cuzk:ruian"/>
  </way>
  <way id="132113540" version="4" timestamp="2022-04-05T11:34:11Z" changeset="119340017" uid="72020" user="Petr1868">
    <nd ref="1453964505"/>
    <nd ref="4324912480"/>
    <nd ref="4324912484"/>
    <nd ref="4324912485"/>
    <nd ref="4324912491"/>
    <nd ref="1453964508"/>
    <nd ref="1453964547"/>
    <nd ref="1453964550"/>
    <nd ref="4324912492"/>
    <nd ref="1453964505"/>
    <tag k="addr:city" v="Praha 22 - HÃ¡jek"/>
    <tag k="addr:conscriptionnumber" v="116"/>
    <tag k="addr:housenumber" v="116"/>
    <tag k="addr:place" v="HÃ¡jek u UhÅ™Ã­nÄ›vsi"/>
    <tag k="addr:postcode" v="10400"/>
    <tag k="addr:street" v="U MarkÃ©ty"/>
    <tag k="building" v="house"/>
    <tag k="building:flats" v="1"/>
    <tag k="building:levels" v="2"/>
    <tag k="building:ruian:type" v="7"/>
    <tag k="ref:ruian:addr" v="26629569"/>
    <tag k="ref:ruian:building" v="26120631"/>
    <tag k="source" v="cuzk:ruian"/>
    <tag k="start_date" v="2006-10-10"/>
  </way>
  <way id="132113544" version="5" timestamp="2024-04-05T15:03:26Z" changeset="149619582" uid="10932047" user="AF HAF KARTOGRAF">
    <nd ref="1453967714"/>
    <nd ref="1453967807"/>
    <nd ref="1453967767"/>
    <nd ref="1453967670"/>
    <nd ref="1453967714"/>
    <tag k="addr:conscriptionnumber" v="59"/>
    <tag k="addr:housenumber" v="59"/>
    <tag k="addr:place" v="HÃ¡jek u UhÅ™Ã­nÄ›vsi"/>
    <tag k="addr:postcode" v="10400"/>
    <tag k="addr:street" v="U KolodÄ›j"/>
    <tag k="building" v="residential"/>
    <tag k="building:flats" v="1"/>
    <tag k="building:levels" v="1"/>
    <tag k="building:ruian:type" v="3"/>
    <tag k="ref:ruian:addr" v="22559540"/>
    <tag k="ref:ruian:building" v="21586438"/>
    <tag k="source" v="cuzk:ruian"/>
  </way>
  <way id="132113566" version="4" timestamp="2024-04-05T15:03:26Z" changeset="149619582" uid="10932047" user="AF HAF KARTOGRAF">
    <nd ref="1453967894"/>
    <nd ref="1453967900"/>
    <nd ref="1453967964"/>
    <nd ref="1453967947"/>
    <nd ref="1453967894"/>
    <tag k="addr:conscriptionnumber" v="145"/>
    <tag k="addr:housenumber" v="145"/>
    <tag k="addr:place" v="HÃ¡jek u UhÅ™Ã­nÄ›vsi"/>
    <tag k="addr:postcode" v="10400"/>
    <tag k="addr:street" v="PÅ™ed oborou"/>
    <tag k="building" v="house"/>
    <tag k="building:flats" v="1"/>
    <tag k="building:levels" v="2"/>
    <tag k="building:ruian:type" v="7"/>
    <tag k="ref:ruian:addr" v="27813843"/>
    <tag k="ref:ruian:building" v="27284905"/>
    <tag k="source" v="cuzk:ruian"/>
    <tag k="start_date" v="2009-05-19"/>
  </way>
  <way id="132113577" version="6" timestamp="2024-04-05T15:03:26Z" changeset="149619582" uid="10932047" user="AF HAF KARTOGRAF">
    <nd ref="1453966450"/>
    <nd ref="1453966419"/>
    <nd ref="1453966454"/>
    <nd ref="1453966498"/>
    <nd ref="1453966450"/>
    <tag k="addr:conscriptionnumber" v="51"/>
    <tag k="addr:housenumber" v="51"/>
    <tag k="addr:place" v="HÃ¡jek u UhÅ™Ã­nÄ›vsi"/>
    <tag k="addr:postcode" v="10400"/>
    <tag k="addr:street" v="Pod Jankovem"/>
    <tag k="building" v="residential"/>
    <tag k="building:flats" v="1"/>
    <tag k="building:levels" v="1"/>
    <tag k="building:ruian:type" v="7"/>
    <tag k="ref:ruian:addr" v="22559469"/>
    <tag k="ref:ruian:building" v="21586357"/>
    <tag k="source" v="cuzk:ruian"/>
  </way>
  <way id="132113579" version="5" timestamp="2022-04-05T11:34:11Z" changeset="119340017" uid="72020" user="Petr1868">
    <nd ref="1453967227"/>
    <nd ref="1453967257"/>
    <nd ref="9642989526"/>
    <nd ref="9642989525"/>
    <nd ref="9642989524"/>
    <nd ref="9642989523"/>
    <nd ref="9642989522"/>
    <nd ref="9642989521"/>
    <nd ref="1453967334"/>
    <nd ref="9642989520"/>
    <nd ref="1453967319"/>
    <nd ref="1453967227"/>
    <tag k="addr:city" v="Praha"/>
    <tag k="addr:conscriptionnumber" v="74"/>
    <tag k="addr:housenumber" v="74"/>
    <tag k="addr:place" v="HÃ¡jek u UhÅ™Ã­nÄ›vsi"/>
    <tag k="addr:postcode" v="10400"/>
    <tag k="addr:street" v="Pod MarkÃ©tou"/>
    <tag k="building" v="residential"/>
    <tag k="building:flats" v="1"/>
    <tag k="building:levels" v="2"/>
    <tag k="building:ruian:type" v="7"/>
    <tag k="ref:ruian:addr" v="22559698"/>
    <tag k="ref:ruian:building" v="21586586"/>
    <tag k="source" v="cuzk:ruian"/>
    <tag k="start_date" v="1978-01-17"/>
  </way>
  <way id="132113588" version="5" timestamp="2024-04-05T15:03:26Z" changeset="149619582" uid="10932047" user="AF HAF KARTOGRAF">
    <nd ref="1453966602"/>
    <nd ref="1453966559"/>
    <nd ref="1453966470"/>
    <nd ref="1453966487"/>
    <nd ref="1453966602"/>
    <tag k="addr:conscriptionnumber" v="50"/>
    <tag k="addr:housenumber" v="50"/>
    <tag k="addr:place" v="HÃ¡jek u UhÅ™Ã­nÄ›vsi"/>
    <tag k="addr:postcode" v="10400"/>
    <tag k="addr:street" v="Pod Jankovem"/>
    <tag k="building" v="residential"/>
    <tag k="building:flats" v="1"/>
    <tag k="building:levels" v="1"/>
    <tag k="building:ruian:type" v="3"/>
    <tag k="ref:ruian:addr" v="22559451"/>
    <tag k="ref:ruian:building" v="21586349"/>
    <tag k="source" v="cuzk:ruian"/>
  </way>
  <way id="132113595" version="4" timestamp="2024-04-05T15:03:26Z" changeset="149619582" uid="10932047" user="AF HAF KARTOGRAF">
    <nd ref="1453966820"/>
    <nd ref="1453966792"/>
    <nd ref="4324913070"/>
    <nd ref="1453966684"/>
    <nd ref="1453966725"/>
    <nd ref="1453966820"/>
    <tag k="addr:conscriptionnumber" v="61"/>
    <tag k="addr:housenumber" v="61"/>
    <tag k="addr:place" v="HÃ¡jek u UhÅ™Ã­nÄ›vsi"/>
    <tag k="addr:postcode" v="10400"/>
    <tag k="addr:street" v="Pod MarkÃ©tou"/>
    <tag k="building" v="house"/>
    <tag k="building:flats" v="1"/>
    <tag k="building:levels" v="1"/>
    <tag k="building:ruian:type" v="7"/>
    <tag k="ref:ruian:addr" v="22559566"/>
    <tag k="ref:ruian:building" v="21586454"/>
    <tag k="source" v="cuzk:ruian"/>
  </way>
  <way id="132113613" version="3" timestamp="2022-01-20T12:05:58Z" changeset="116382888" uid="13552526" user="KingCZE">
    <nd ref="1453964508"/>
    <nd ref="1453964548"/>
    <nd ref="1453964494"/>
    <nd ref="4324912486"/>
    <nd ref="4324912482"/>
    <nd ref="1453964491"/>
    <nd ref="1453964522"/>
    <nd ref="1453964556"/>
    <nd ref="1453964547"/>
    <nd ref="1453964508"/>
    <tag k="addr:city" v="Praha 22 - HÃ¡jek"/>
    <tag k="addr:conscriptionnumber" v="115"/>
    <tag k="addr:housenumber" v="115"/>
    <tag k="addr:place" v="HÃ¡jek u UhÅ™Ã­nÄ›vsi"/>
    <tag k="addr:postcode" v="10400"/>
    <tag k="addr:street" v="U MarkÃ©ty"/>
    <tag k="building" v="house"/>
    <tag k="building:flats" v="1"/>
    <tag k="building:levels" v="2"/>
    <tag k="building:ruian:type" v="7"/>
    <tag k="ref:ruian:addr" v="26629551"/>
    <tag k="ref:ruian:building" v="26120623"/>
    <tag k="source" v="cuzk:ruian"/>
    <tag k="start_date" v="2006-10-10"/>
  </way>
  <way id="132113614" version="4" timestamp="2024-04-05T15:03:26Z" changeset="149619582" uid="10932047" user="AF HAF KARTOGRAF">
    <nd ref="1453964657"/>
    <nd ref="1453964658"/>
    <nd ref="1453964653"/>
    <nd ref="1453964642"/>
    <nd ref="1453964638"/>
    <nd ref="1453964657"/>
    <tag k="addr:conscriptionnumber" v="171"/>
    <tag k="addr:housenumber" v="171"/>
    <tag k="addr:place" v="HÃ¡jek u UhÅ™Ã­nÄ›vsi"/>
    <tag k="addr:postcode" v="10400"/>
    <tag k="addr:street" v="BlaÅ¾kova"/>
    <tag k="building" v="house"/>
    <tag k="building:flats" v="2"/>
    <tag k="building:ruian:type" v="7"/>
    <tag k="ref:ruian:addr" v="40744833"/>
    <tag k="ref:ruian:building" v="51062887"/>
    <tag k="source" v="cuzk:ruian"/>
  </way>
  <way id="132113615" version="5" timestamp="2022-04-05T11:34:11Z" changeset="119340017" uid="72020" user="Petr1868">
    <nd ref="1453967801"/>
    <nd ref="1453967811"/>
    <nd ref="1453967817"/>
    <nd ref="1453967863"/>
    <nd ref="1453967842"/>
    <nd ref="1453967763"/>
    <nd ref="1453967801"/>
    <tag k="addr:city" v="Praha"/>
    <tag k="addr:conscriptionnumber" v="67"/>
    <tag k="addr:housenumber" v="67"/>
    <tag k="addr:place" v="HÃ¡jek u UhÅ™Ã­nÄ›vsi"/>
    <tag k="addr:postcode" v="10400"/>
    <tag k="addr:street" v="Pod Jankovem"/>
    <tag k="building" v="residential"/>
    <tag k="building:flats" v="2"/>
    <tag k="building:levels" v="1"/>
    <tag k="building:ruian:type" v="7"/>
    <tag k="ref:ruian:addr" v="22559621"/>
    <tag k="ref:ruian:building" v="21586519"/>
    <tag k="source" v="cuzk:ruian"/>
    <tag k="start_date" v="1972-12-20"/>
  </way>
  <way id="132113616" version="4" timestamp="2024-04-05T15:03:26Z" changeset="149619582" uid="10932047" user="AF HAF KARTOGRAF">
    <nd ref="1453967898"/>
    <nd ref="1453967891"/>
    <nd ref="1453967803"/>
    <nd ref="1453967820"/>
    <nd ref="1453967844"/>
    <nd ref="1453967848"/>
    <nd ref="1453967898"/>
    <tag k="addr:conscriptionnumber" v="164"/>
    <tag k="addr:housenumber" v="164"/>
    <tag k="addr:place" v="HÃ¡jek u UhÅ™Ã­nÄ›vsi"/>
    <tag k="addr:postcode" v="10400"/>
    <tag k="addr:street" v="PÅ™ed oborou"/>
    <tag k="building" v="house"/>
    <tag k="building:flats" v="1"/>
    <tag k="building:ruian:type" v="7"/>
    <tag k="ref:ruian:addr" v="40297331"/>
    <tag k="ref:ruian:building" v="50609041"/>
    <tag k="source" v="cuzk:ruian"/>
  </way>
  <way id="132113618" version="6" timestamp="2024-04-05T15:03:26Z" changeset="149619582" uid="10932047" user="AF HAF KARTOGRAF">
    <nd ref="1453967425"/>
    <nd ref="1453967417"/>
    <nd ref="1453967404"/>
    <nd ref="1453967374"/>
    <nd ref="4324913147"/>
    <nd ref="4324913146"/>
    <nd ref="1453967387"/>
    <nd ref="1453967429"/>
    <nd ref="1453967425"/>
    <tag k="addr:conscriptionnumber" v="76"/>
    <tag k="addr:housenumber" v="76"/>
    <tag k="addr:postcode" v="10400"/>
    <tag k="addr:street" v="U KolodÄ›j"/>
    <tag k="addr:suburb" v="Praha 22 - HÃ¡jek"/>
    <tag k="building" v="residential"/>
    <tag k="building:flats" v="1"/>
    <tag k="building:levels" v="2"/>
    <tag k="building:ruian:type" v="7"/>
    <tag k="ref:ruian:addr" v="22559710"/>
    <tag k="ref:ruian:building" v="21586608"/>
    <tag k="source" v="cuzk:ruian"/>
    <tag k="start_date" v="1978-11-23"/>
  </way>
  <way id="132113619" version="4" timestamp="2024-04-05T15:03:26Z" changeset="149619582" uid="10932047" user="AF HAF KARTOGRAF">
    <nd ref="1453968179"/>
    <nd ref="1453968173"/>
    <nd ref="1453968211"/>
    <nd ref="4324913255"/>
    <nd ref="4324913254"/>
    <nd ref="1453968213"/>
    <nd ref="1453968217"/>
    <nd ref="1453968226"/>
    <nd ref="1453968179"/>
    <tag k="addr:conscriptionnumber" v="218"/>
    <tag k="addr:housenumber" v="218/23"/>
    <tag k="addr:place" v="HÃ¡jek u UhÅ™Ã­nÄ›vsi"/>
    <tag k="addr:postcode" v="10400"/>
    <tag k="addr:street" v="Do podkovy"/>
    <tag k="addr:streetnumber" v="23"/>
    <tag k="building" v="house"/>
    <tag k="building:flats" v="1"/>
    <tag k="building:levels" v="2"/>
    <tag k="building:ruian:type" v="7"/>
    <tag k="ref:ruian:addr" v="73083089"/>
    <tag k="ref:ruian:building" v="78444870"/>
    <tag k="source" v="cuzk:ruian"/>
    <tag k="start_date" v="2014-08-21"/>
  </way>
  <way id="132113624" version="4" timestamp="2024-04-05T15:03:26Z" changeset="149619582" uid="10932047" user="AF HAF KARTOGRAF">
    <nd ref="1453968194"/>
    <nd ref="1453968179"/>
    <nd ref="1453968226"/>
    <nd ref="1453968235"/>
    <nd ref="1453968224"/>
    <nd ref="4324913256"/>
    <nd ref="4324913258"/>
    <nd ref="1453968237"/>
    <nd ref="1453968194"/>
    <tag k="addr:conscriptionnumber" v="179"/>
    <tag k="addr:housenumber" v="179/21"/>
    <tag k="addr:place" v="HÃ¡jek u UhÅ™Ã­nÄ›vsi"/>
    <tag k="addr:postcode" v="10400"/>
    <tag k="addr:street" v="Do podkovy"/>
    <tag k="addr:streetnumber" v="21"/>
    <tag k="building" v="house"/>
    <tag k="building:flats" v="1"/>
    <tag k="building:ruian:type" v="7"/>
    <tag k="ref:ruian:addr" v="40845770"/>
    <tag k="ref:ruian:building" v="51169703"/>
    <tag k="source" v="cuzk:ruian"/>
  </way>
  <way id="132113626" version="5" timestamp="2024-04-05T15:03:26Z" changeset="149619582" uid="10932047" user="AF HAF KARTOGRAF">
    <nd ref="1453966404"/>
    <nd ref="1453966395"/>
    <nd ref="1453966397"/>
    <nd ref="1453966351"/>
    <nd ref="1453966349"/>
    <nd ref="1453966405"/>
    <nd ref="1453966404"/>
    <tag k="addr:conscriptionnumber" v="72"/>
    <tag k="addr:housenumber" v="72"/>
    <tag k="addr:place" v="HÃ¡jek u UhÅ™Ã­nÄ›vsi"/>
    <tag k="addr:postcode" v="10400"/>
    <tag k="addr:street" v="Pod Jankovem"/>
    <tag k="building" v="residential"/>
    <tag k="building:flats" v="1"/>
    <tag k="building:levels" v="1"/>
    <tag k="building:ruian:type" v="3"/>
    <tag k="ref:ruian:addr" v="22559671"/>
    <tag k="ref:ruian:building" v="21586560"/>
    <tag k="source" v="cuzk:ruian"/>
  </way>
  <way id="132113629" version="5" timestamp="2024-04-05T15:03:26Z" changeset="149619582" uid="10932047" user="AF HAF KARTOGRAF">
    <nd ref="1453966489"/>
    <nd ref="1453966510"/>
    <nd ref="1453966570"/>
    <nd ref="4324913029"/>
    <nd ref="4324913039"/>
    <nd ref="4324913040"/>
    <nd ref="1453966429"/>
    <nd ref="1453966420"/>
    <nd ref="1453966489"/>
    <tag k="addr:conscriptionnumber" v="91"/>
    <tag k="addr:housenumber" v="91"/>
    <tag k="addr:place" v="HÃ¡jek u UhÅ™Ã­nÄ›vsi"/>
    <tag k="addr:postcode" v="10400"/>
    <tag k="addr:street" v="PÅ™edpolnÃ­"/>
    <tag k="building" v="residential"/>
    <tag k="building:flats" v="1"/>
    <tag k="building:levels" v="1"/>
    <tag k="building:ruian:type" v="3"/>
    <tag k="ref:ruian:addr" v="22695800"/>
    <tag k="ref:ruian:building" v="21586748"/>
    <tag k="source" v="cuzk:ruian"/>
  </way>
  <way id="132113635" version="6" timestamp="2024-04-05T15:03:26Z" changeset="149619582" uid="10932047" user="AF HAF KARTOGRAF">
    <nd ref="1453967622"/>
    <nd ref="1453967576"/>
    <nd ref="1453967613"/>
    <nd ref="1453967744"/>
    <nd ref="1453967701"/>
    <nd ref="1453967624"/>
    <nd ref="1453967622"/>
    <tag k="addr:conscriptionnumber" v="85"/>
    <tag k="addr:housenumber" v="85"/>
    <tag k="addr:place" v="HÃ¡jek u UhÅ™Ã­nÄ›vsi"/>
    <tag k="addr:postcode" v="10400"/>
    <tag k="addr:street" v="Pod Jankovem"/>
    <tag k="building" v="house"/>
    <tag k="building:flats" v="2"/>
    <tag k="building:levels" v="2"/>
    <tag k="building:ruian:type" v="7"/>
    <tag k="ref:ruian:addr" v="22559809"/>
    <tag k="ref:ruian:building" v="21586691"/>
    <tag k="source" v="cuzk:ruian"/>
    <tag k="start_date" v="2016-12-06"/>
  </way>
  <way id="132113639" version="4" timestamp="2024-04-05T15:03:26Z" changeset="149619582" uid="10932047" user="AF HAF KARTOGRAF">
    <nd ref="1453967952"/>
    <nd ref="1453967968"/>
    <nd ref="1453967966"/>
    <nd ref="1453968004"/>
    <nd ref="1453967985"/>
    <nd ref="1453967933"/>
    <nd ref="1453967952"/>
    <tag k="addr:conscriptionnumber" v="210"/>
    <tag k="addr:housenumber" v="210/31"/>
    <tag k="addr:place" v="HÃ¡jek u UhÅ™Ã­nÄ›vsi"/>
    <tag k="addr:postcode" v="10400"/>
    <tag k="addr:street" v="Do podkovy"/>
    <tag k="addr:streetnumber" v="31"/>
    <tag k="building" v="house"/>
    <tag k="building:flats" v="1"/>
    <tag k="building:levels" v="2"/>
    <tag k="building:ruian:type" v="7"/>
    <tag k="ref:ruian:addr" v="72515732"/>
    <tag k="ref:ruian:building" v="77889266"/>
    <tag k="source" v="cuzk:ruian"/>
    <tag k="start_date" v="2014-03-14"/>
  </way>
  <way id="132113644" version="6" timestamp="2024-04-05T15:03:26Z" changeset="149619582" uid="10932047" user="AF HAF KARTOGRAF">
    <nd ref="9642989513"/>
    <nd ref="1453966822"/>
    <nd ref="9642989512"/>
    <nd ref="1453966992"/>
    <nd ref="1453966963"/>
    <nd ref="9642989511"/>
    <nd ref="9642989510"/>
    <nd ref="9642989509"/>
    <nd ref="9642989508"/>
    <nd ref="9642989507"/>
    <nd ref="9642989506"/>
    <nd ref="9642989505"/>
    <nd ref="9642989504"/>
    <nd ref="1453966784"/>
    <nd ref="1453966792"/>
    <nd ref="9642989503"/>
    <nd ref="9642989513"/>
    <tag k="addr:conscriptionnumber" v="43"/>
    <tag k="addr:housenumber" v="43"/>
    <tag k="addr:place" v="HÃ¡jek u UhÅ™Ã­nÄ›vsi"/>
    <tag k="addr:postcode" v="10400"/>
    <tag k="addr:street" v="Pod MarkÃ©tou"/>
    <tag k="building" v="residential"/>
    <tag k="building:flats" v="1"/>
    <tag k="building:levels" v="1"/>
    <tag k="building:ruian:type" v="7"/>
    <tag k="ref:ruian:addr" v="22559388"/>
    <tag k="ref:ruian:building" v="21586276"/>
    <tag k="source" v="cuzk:ruian"/>
  </way>
  <way id="132113646" version="6" timestamp="2024-04-05T15:03:26Z" changeset="149619582" uid="10932047" user="AF HAF KARTOGRAF">
    <nd ref="1453967605"/>
    <nd ref="1453967634"/>
    <nd ref="1453967729"/>
    <nd ref="1453967715"/>
    <nd ref="1453967697"/>
    <nd ref="1453967672"/>
    <nd ref="1453967543"/>
    <nd ref="1453967561"/>
    <nd ref="1453967605"/>
    <tag k="addr:conscriptionnumber" v="56"/>
    <tag k="addr:housenumber" v="56"/>
    <tag k="addr:place" v="HÃ¡jek u UhÅ™Ã­nÄ›vsi"/>
    <tag k="addr:postcode" v="10400"/>
    <tag k="addr:street" v="PÅ™ed oborou"/>
    <tag k="building" v="residential"/>
    <tag k="building:flats" v="2"/>
    <tag k="building:levels" v="1"/>
    <tag k="building:ruian:type" v="3"/>
    <tag k="ref:ruian:addr" v="22559515"/>
    <tag k="ref:ruian:building" v="21586403"/>
    <tag k="source" v="cuzk:ruian"/>
  </way>
  <way id="132113649" version="6" timestamp="2024-04-05T15:03:26Z" changeset="149619582" uid="10932047" user="AF HAF KARTOGRAF">
    <nd ref="1453967431"/>
    <nd ref="1453967443"/>
    <nd ref="1453967438"/>
    <nd ref="1453967421"/>
    <nd ref="1453967431"/>
    <tag k="addr:conscriptionnumber" v="78"/>
    <tag k="addr:housenumber" v="78"/>
    <tag k="addr:place" v="HÃ¡jek u UhÅ™Ã­nÄ›vsi"/>
    <tag k="addr:postcode" v="10400"/>
    <tag k="addr:street" v="U KolodÄ›j"/>
    <tag k="building" v="house"/>
    <tag k="building:flats" v="1"/>
    <tag k="building:levels" v="2"/>
    <tag k="building:ruian:type" v="7"/>
    <tag k="ref:ruian:addr" v="22559736"/>
    <tag k="ref:ruian:building" v="21586624"/>
    <tag k="source" v="cuzk:ruian"/>
    <tag k="start_date" v="1979-08-08"/>
  </way>
  <way id="132113650" version="5" timestamp="2024-04-05T15:03:26Z" changeset="149619582" uid="10932047" user="AF HAF KARTOGRAF">
    <nd ref="4324913040"/>
    <nd ref="1453966429"/>
    <nd ref="1453966449"/>
    <nd ref="1453966535"/>
    <nd ref="1453966518"/>
    <nd ref="1453966593"/>
    <nd ref="1453966585"/>
    <nd ref="9642989088"/>
    <nd ref="4324913040"/>
    <tag k="addr:conscriptionnumber" v="90"/>
    <tag k="addr:housenumber" v="90"/>
    <tag k="addr:place" v="HÃ¡jek u UhÅ™Ã­nÄ›vsi"/>
    <tag k="addr:postcode" v="10400"/>
    <tag k="addr:street" v="PÅ™edpolnÃ­"/>
    <tag k="building" v="residential"/>
    <tag k="building:flats" v="1"/>
    <tag k="building:levels" v="1"/>
    <tag k="building:ruian:type" v="3"/>
    <tag k="ref:ruian:addr" v="22695796"/>
    <tag k="ref:ruian:building" v="21586730"/>
    <tag k="source" v="cuzk:ruian"/>
  </way>
  <way id="132113652" version="4" timestamp="2024-04-05T15:03:26Z" changeset="149619582" uid="10932047" user="AF HAF KARTOGRAF">
    <nd ref="1453967718"/>
    <nd ref="1453967750"/>
    <nd ref="1453967747"/>
    <nd ref="1453967787"/>
    <nd ref="1453967758"/>
    <nd ref="1453967664"/>
    <nd ref="1453967718"/>
    <tag k="addr:conscriptionnumber" v="211"/>
    <tag k="addr:housenumber" v="211/8"/>
    <tag k="addr:place" v="HÃ¡jek u UhÅ™Ã­nÄ›vsi"/>
    <tag k="addr:postcode" v="10400"/>
    <tag k="addr:street" v="Do podkovy"/>
    <tag k="addr:streetnumber" v="8"/>
    <tag k="building" v="house"/>
    <tag k="building:flats" v="1"/>
    <tag k="building:levels" v="2"/>
    <tag k="building:ruian:type" v="7"/>
    <tag k="ref:ruian:addr" v="72677287"/>
    <tag k="ref:ruian:building" v="78054478"/>
    <tag k="source" v="cuzk:ruian"/>
    <tag k="start_date" v="2014-03-31"/>
  </way>
  <way id="132113654" version="4" timestamp="2024-04-05T15:03:26Z" changeset="149619582" uid="10932047" user="AF HAF KARTOGRAF">
    <nd ref="1453967664"/>
    <nd ref="1453967574"/>
    <nd ref="1453967617"/>
    <nd ref="1453967679"/>
    <nd ref="1453967682"/>
    <nd ref="1453967718"/>
    <nd ref="1453967664"/>
    <tag k="addr:conscriptionnumber" v="221"/>
    <tag k="addr:housenumber" v="221/6"/>
    <tag k="addr:place" v="HÃ¡jek u UhÅ™Ã­nÄ›vsi"/>
    <tag k="addr:postcode" v="10400"/>
    <tag k="addr:street" v="Do podkovy"/>
    <tag k="addr:streetnumber" v="6"/>
    <tag k="building" v="house"/>
    <tag k="building:flats" v="1"/>
    <tag k="building:levels" v="2"/>
    <tag k="building:ruian:type" v="7"/>
    <tag k="ref:ruian:addr" v="73585068"/>
    <tag k="ref:ruian:building" v="79586490"/>
    <tag k="source" v="cuzk:ruian"/>
    <tag k="start_date" v="2015-03-19"/>
  </way>
  <way id="132113656" version="4" timestamp="2024-04-05T15:03:26Z" changeset="149619582" uid="10932047" user="AF HAF KARTOGRAF">
    <nd ref="1453967952"/>
    <nd ref="1453967933"/>
    <nd ref="1453967882"/>
    <nd ref="1453967896"/>
    <nd ref="1453967918"/>
    <nd ref="1453967920"/>
    <nd ref="1453967952"/>
    <tag k="addr:conscriptionnumber" v="219"/>
    <tag k="addr:housenumber" v="219/33"/>
    <tag k="addr:place" v="HÃ¡jek u UhÅ™Ã­nÄ›vsi"/>
    <tag k="addr:postcode" v="10400"/>
    <tag k="addr:street" v="Do podkovy"/>
    <tag k="addr:streetnumber" v="33"/>
    <tag k="building" v="house"/>
    <tag k="building:flats" v="1"/>
    <tag k="building:levels" v="2"/>
    <tag k="building:ruian:type" v="7"/>
    <tag k="ref:ruian:addr" v="73083003"/>
    <tag k="ref:ruian:building" v="78444586"/>
    <tag k="source" v="cuzk:ruian"/>
    <tag k="start_date" v="2014-08-21"/>
  </way>
  <way id="132113659" version="5" timestamp="2024-04-05T15:03:26Z" changeset="149619582" uid="10932047" user="AF HAF KARTOGRAF">
    <nd ref="1453967467"/>
    <nd ref="1453967432"/>
    <nd ref="1453967434"/>
    <nd ref="1453967446"/>
    <nd ref="1453967447"/>
    <nd ref="1453967469"/>
    <nd ref="1453967467"/>
    <tag k="addr:conscriptionnumber" v="73"/>
    <tag k="addr:housenumber" v="73"/>
    <tag k="addr:place" v="HÃ¡jek u UhÅ™Ã­nÄ›vsi"/>
    <tag k="addr:postcode" v="10400"/>
    <tag k="addr:street" v="Pod Jankovem"/>
    <tag k="building" v="house"/>
    <tag k="building:flats" v="1"/>
    <tag k="building:levels" v="2"/>
    <tag k="building:ruian:type" v="7"/>
    <tag k="ref:ruian:addr" v="22559680"/>
    <tag k="ref:ruian:building" v="21586578"/>
    <tag k="source" v="cuzk:ruian"/>
    <tag k="start_date" v="2013-10-12"/>
  </way>
  <way id="132113662" version="5" timestamp="2024-04-05T15:03:26Z" changeset="149619582" uid="10932047" user="AF HAF KARTOGRAF">
    <nd ref="1453967513"/>
    <nd ref="1453967453"/>
    <nd ref="1453967463"/>
    <nd ref="1453967545"/>
    <nd ref="1453967538"/>
    <nd ref="1453967526"/>
    <nd ref="1453967513"/>
    <tag k="addr:conscriptionnumber" v="55"/>
    <tag k="addr:housenumber" v="55"/>
    <tag k="addr:place" v="HÃ¡jek u UhÅ™Ã­nÄ›vsi"/>
    <tag k="addr:postcode" v="10400"/>
    <tag k="addr:street" v="PÅ™ed oborou"/>
    <tag k="building" v="house"/>
    <tag k="building:flats" v="2"/>
    <tag k="building:levels" v="1"/>
    <tag k="building:ruian:type" v="7"/>
    <tag k="ref:ruian:addr" v="22559507"/>
    <tag k="ref:ruian:building" v="21586390"/>
    <tag k="source" v="cuzk:ruian"/>
  </way>
  <way id="132113663" version="5" timestamp="2024-04-05T15:03:26Z" changeset="149619582" uid="10932047" user="AF HAF KARTOGRAF">
    <nd ref="1453967430"/>
    <nd ref="1453967416"/>
    <nd ref="1453967324"/>
    <nd ref="1453967338"/>
    <nd ref="1453967386"/>
    <nd ref="1453967397"/>
    <nd ref="1453967430"/>
    <tag k="addr:conscriptionnumber" v="75"/>
    <tag k="addr:housenumber" v="75"/>
    <tag k="addr:place" v="HÃ¡jek u UhÅ™Ã­nÄ›vsi"/>
    <tag k="addr:postcode" v="10400"/>
    <tag k="addr:street" v="Pod MarkÃ©tou"/>
    <tag k="building" v="residential"/>
    <tag k="building:flats" v="1"/>
    <tag k="building:levels" v="1"/>
    <tag k="building:ruian:type" v="3"/>
    <tag k="ref:ruian:addr" v="22559701"/>
    <tag k="ref:ruian:building" v="21586594"/>
    <tag k="source" v="cuzk:ruian"/>
  </way>
  <way id="132113664" version="3" timestamp="2022-01-20T12:05:58Z" changeset="116382888" uid="13552526" user="KingCZE">
    <nd ref="1453964506"/>
    <nd ref="1453964489"/>
    <nd ref="4324912483"/>
    <nd ref="4324912479"/>
    <nd ref="1453964487"/>
    <nd ref="1453964520"/>
    <nd ref="1453964549"/>
    <nd ref="1453964545"/>
    <nd ref="1453964504"/>
    <nd ref="1453964506"/>
    <tag k="addr:city" v="Praha 22 - HÃ¡jek"/>
    <tag k="addr:conscriptionnumber" v="126"/>
    <tag k="addr:housenumber" v="126"/>
    <tag k="addr:place" v="HÃ¡jek u UhÅ™Ã­nÄ›vsi"/>
    <tag k="addr:postcode" v="10400"/>
    <tag k="addr:street" v="U MarkÃ©ty"/>
    <tag k="building" v="house"/>
    <tag k="building:flats" v="1"/>
    <tag k="building:levels" v="2"/>
    <tag k="building:ruian:type" v="7"/>
    <tag k="ref:ruian:addr" v="27131360"/>
    <tag k="ref:ruian:building" v="26616556"/>
    <tag k="source" v="cuzk:ruian"/>
    <tag k="start_date" v="2007-09-04"/>
  </way>
  <way id="132113665" version="4" timestamp="2024-04-05T15:03:26Z" changeset="149619582" uid="10932047" user="AF HAF KARTOGRAF">
    <nd ref="1453966814"/>
    <nd ref="1453966875"/>
    <nd ref="1453966855"/>
    <nd ref="9031581379"/>
    <nd ref="9031581378"/>
    <nd ref="9031581377"/>
    <nd ref="9031581376"/>
    <nd ref="1453966606"/>
    <nd ref="1453966621"/>
    <nd ref="9031581375"/>
    <nd ref="9031581374"/>
    <nd ref="9031581373"/>
    <nd ref="1453966682"/>
    <nd ref="1453966835"/>
    <nd ref="1453966814"/>
    <tag k="addr:conscriptionnumber" v="111"/>
    <tag k="addr:housenumber" v="111"/>
    <tag k="addr:place" v="HÃ¡jek u UhÅ™Ã­nÄ›vsi"/>
    <tag k="addr:postcode" v="10400"/>
    <tag k="addr:street" v="Pod Jankovem"/>
    <tag k="building" v="house"/>
    <tag k="building:flats" v="1"/>
    <tag k="building:levels" v="3"/>
    <tag k="building:ruian:type" v="7"/>
    <tag k="ref:ruian:addr" v="26308517"/>
    <tag k="ref:ruian:building" v="25803999"/>
    <tag k="source" v="cuzk:ruian"/>
    <tag k="start_date" v="2006-04-19"/>
  </way>
  <way id="132113666" version="3" timestamp="2022-01-20T12:05:58Z" changeset="116382888" uid="13552526" user="KingCZE">
    <nd ref="4324912478"/>
    <nd ref="4324912481"/>
    <nd ref="1453964488"/>
    <nd ref="1453964507"/>
    <nd ref="1453964504"/>
    <nd ref="1453964545"/>
    <nd ref="1453964531"/>
    <nd ref="1453964517"/>
    <nd ref="1453964486"/>
    <nd ref="4324912478"/>
    <tag k="addr:city" v="Praha 22 - HÃ¡jek"/>
    <tag k="addr:conscriptionnumber" v="127"/>
    <tag k="addr:housenumber" v="127"/>
    <tag k="addr:place" v="HÃ¡jek u UhÅ™Ã­nÄ›vsi"/>
    <tag k="addr:postcode" v="10400"/>
    <tag k="addr:street" v="U MarkÃ©ty"/>
    <tag k="building" v="house"/>
    <tag k="building:flats" v="1"/>
    <tag k="building:levels" v="2"/>
    <tag k="building:ruian:type" v="7"/>
    <tag k="ref:ruian:addr" v="27211371"/>
    <tag k="ref:ruian:building" v="26694204"/>
    <tag k="source" v="cuzk:ruian"/>
    <tag k="start_date" v="2007-11-09"/>
  </way>
  <way id="132113667" version="3" timestamp="2022-01-20T12:05:58Z" changeset="116382888" uid="13552526" user="KingCZE">
    <nd ref="4324912462"/>
    <nd ref="4324912464"/>
    <nd ref="1453964446"/>
    <nd ref="1453964412"/>
    <nd ref="1453964392"/>
    <nd ref="1453964393"/>
    <nd ref="1453964428"/>
    <nd ref="1453964427"/>
    <nd ref="1453964441"/>
    <nd ref="4324912462"/>
    <tag k="addr:conscriptionnumber" v="124"/>
    <tag k="addr:housenumber" v="124"/>
    <tag k="addr:place" v="HÃ¡jek u UhÅ™Ã­nÄ›vsi"/>
    <tag k="addr:postcode" v="10400"/>
    <tag k="addr:street" v="U MarkÃ©ty"/>
    <tag k="building" v="house"/>
    <tag k="building:flats" v="1"/>
    <tag k="building:levels" v="2"/>
    <tag k="building:ruian:type" v="7"/>
    <tag k="ref:ruian:addr" v="27131343"/>
    <tag k="ref:ruian:building" v="26616530"/>
    <tag k="source" v="cuzk:ruian"/>
    <tag k="start_date" v="2007-09-04"/>
  </way>
  <way id="132113668" version="3" timestamp="2022-01-20T12:05:58Z" changeset="116382888" uid="13552526" user="KingCZE">
    <nd ref="1453964501"/>
    <nd ref="1453964529"/>
    <nd ref="1453964565"/>
    <nd ref="1453964563"/>
    <nd ref="1453964516"/>
    <nd ref="1453964513"/>
    <nd ref="1453964502"/>
    <nd ref="4324912490"/>
    <nd ref="4324912488"/>
    <nd ref="1453964501"/>
    <tag k="addr:city" v="Praha 22 - HÃ¡jek"/>
    <tag k="addr:conscriptionnumber" v="113"/>
    <tag k="addr:housenumber" v="113"/>
    <tag k="addr:place" v="HÃ¡jek u UhÅ™Ã­nÄ›vsi"/>
    <tag k="addr:postcode" v="10400"/>
    <tag k="addr:street" v="U MarkÃ©ty"/>
    <tag k="building" v="house"/>
    <tag k="building:flats" v="1"/>
    <tag k="building:levels" v="2"/>
    <tag k="building:ruian:type" v="7"/>
    <tag k="ref:ruian:addr" v="26629534"/>
    <tag k="ref:ruian:building" v="26120607"/>
    <tag k="source" v="cuzk:ruian"/>
    <tag k="start_date" v="2006-10-10"/>
  </way>
  <way id="132113669" version="3" timestamp="2022-01-20T12:05:58Z" changeset="116382888" uid="13552526" user="KingCZE">
    <nd ref="1453964465"/>
    <nd ref="1453964443"/>
    <nd ref="1453964445"/>
    <nd ref="1453964407"/>
    <nd ref="1453964396"/>
    <nd ref="1453964419"/>
    <nd ref="1453964464"/>
    <nd ref="4324912471"/>
    <nd ref="4324912469"/>
    <nd ref="1453964465"/>
    <tag k="addr:city" v="Praha 22 - HÃ¡jek"/>
    <tag k="addr:conscriptionnumber" v="125"/>
    <tag k="addr:housenumber" v="125"/>
    <tag k="addr:place" v="HÃ¡jek u UhÅ™Ã­nÄ›vsi"/>
    <tag k="addr:postcode" v="10400"/>
    <tag k="addr:street" v="U MarkÃ©ty"/>
    <tag k="building" v="house"/>
    <tag k="building:flats" v="1"/>
    <tag k="building:levels" v="2"/>
    <tag k="building:ruian:type" v="7"/>
    <tag k="ref:ruian:addr" v="27131351"/>
    <tag k="ref:ruian:building" v="26616548"/>
    <tag k="source" v="cuzk:ruian"/>
    <tag k="start_date" v="2007-09-04"/>
  </way>
  <way id="132113671" version="7" timestamp="2024-04-05T15:03:26Z" changeset="149619582" uid="10932047" user="AF HAF KARTOGRAF">
    <nd ref="1453966820"/>
    <nd ref="1453966725"/>
    <nd ref="1453966759"/>
    <nd ref="6773900204"/>
    <nd ref="4324913090"/>
    <nd ref="4324913095"/>
    <nd ref="4324913094"/>
    <nd ref="1453967225"/>
    <nd ref="1453967192"/>
    <nd ref="1453966845"/>
    <nd ref="1453966820"/>
    <tag k="addr:conscriptionnumber" v="44"/>
    <tag k="addr:housenumber" v="44"/>
    <tag k="addr:place" v="HÃ¡jek u UhÅ™Ã­nÄ›vsi"/>
    <tag k="addr:postcode" v="10400"/>
    <tag k="addr:street" v="Pod MarkÃ©tou"/>
    <tag k="building" v="residential"/>
    <tag k="building:flats" v="2"/>
    <tag k="building:levels" v="1"/>
    <tag k="building:ruian:type" v="3"/>
    <tag k="ref:ruian:addr" v="22559396"/>
    <tag k="ref:ruian:building" v="21586284"/>
    <tag k="source" v="cuzk:ruian"/>
  </way>
  <way id="132113673" version="3" timestamp="2022-01-20T12:05:58Z" changeset="116382888" uid="13552526" user="KingCZE">
    <nd ref="4324912474"/>
    <nd ref="1453964472"/>
    <nd ref="1453964422"/>
    <nd ref="1453964406"/>
    <nd ref="1453964408"/>
    <nd ref="1453964453"/>
    <nd ref="1453964447"/>
    <nd ref="1453964468"/>
    <nd ref="4324912472"/>
    <nd ref="4324912474"/>
    <tag k="addr:city" v="Praha 22 - HÃ¡jek"/>
    <tag k="addr:conscriptionnumber" v="118"/>
    <tag k="addr:housenumber" v="118"/>
    <tag k="addr:place" v="HÃ¡jek u UhÅ™Ã­nÄ›vsi"/>
    <tag k="addr:postcode" v="10400"/>
    <tag k="addr:street" v="U MarkÃ©ty"/>
    <tag k="building" v="house"/>
    <tag k="building:flats" v="1"/>
    <tag k="building:levels" v="2"/>
    <tag k="building:ruian:type" v="7"/>
    <tag k="ref:ruian:addr" v="26629585"/>
    <tag k="ref:ruian:building" v="26120658"/>
    <tag k="source" v="cuzk:ruian"/>
    <tag k="start_date" v="2006-10-10"/>
  </way>
  <way id="132113674" version="3" timestamp="2022-01-20T12:05:58Z" changeset="116382888" uid="13552526" user="KingCZE">
    <nd ref="1453964525"/>
    <nd ref="1453964493"/>
    <nd ref="4324912487"/>
    <nd ref="4324912489"/>
    <nd ref="1453964503"/>
    <nd ref="1453964515"/>
    <nd ref="1453964516"/>
    <nd ref="1453964563"/>
    <nd ref="1453964560"/>
    <nd ref="1453964525"/>
    <tag k="addr:city" v="Praha 22 - HÃ¡jek"/>
    <tag k="addr:conscriptionnumber" v="114"/>
    <tag k="addr:housenumber" v="114"/>
    <tag k="addr:place" v="HÃ¡jek u UhÅ™Ã­nÄ›vsi"/>
    <tag k="addr:postcode" v="10400"/>
    <tag k="addr:street" v="U MarkÃ©ty"/>
    <tag k="building" v="house"/>
    <tag k="building:flats" v="1"/>
    <tag k="building:levels" v="2"/>
    <tag k="building:ruian:type" v="7"/>
    <tag k="ref:ruian:addr" v="26629542"/>
    <tag k="ref:ruian:building" v="26120615"/>
    <tag k="source" v="cuzk:ruian"/>
    <tag k="start_date" v="2006-10-10"/>
  </way>
  <way id="132113675" version="3" timestamp="2022-01-20T12:05:58Z" changeset="116382888" uid="13552526" user="KingCZE">
    <nd ref="1453964411"/>
    <nd ref="1453964407"/>
    <nd ref="1453964445"/>
    <nd ref="1453964448"/>
    <nd ref="1453964470"/>
    <nd ref="4324912475"/>
    <nd ref="4324912477"/>
    <nd ref="1453964476"/>
    <nd ref="1453964425"/>
    <nd ref="1453964411"/>
    <tag k="addr:city" v="Praha 22 - HÃ¡jek"/>
    <tag k="addr:conscriptionnumber" v="128"/>
    <tag k="addr:housenumber" v="128"/>
    <tag k="addr:place" v="HÃ¡jek u UhÅ™Ã­nÄ›vsi"/>
    <tag k="addr:postcode" v="10400"/>
    <tag k="addr:street" v="U MarkÃ©ty"/>
    <tag k="building" v="house"/>
    <tag k="building:flats" v="1"/>
    <tag k="building:levels" v="3"/>
    <tag k="building:ruian:type" v="7"/>
    <tag k="ref:ruian:addr" v="27211380"/>
    <tag k="ref:ruian:building" v="26694212"/>
    <tag k="source" v="cuzk:ruian"/>
    <tag k="start_date" v="2007-11-09"/>
  </way>
  <way id="132113677" version="3" timestamp="2022-01-20T12:05:58Z" changeset="116382888" uid="13552526" user="KingCZE">
    <nd ref="4324912473"/>
    <nd ref="1453964467"/>
    <nd ref="1453964450"/>
    <nd ref="1453964453"/>
    <nd ref="1453964408"/>
    <nd ref="1453964410"/>
    <nd ref="1453964423"/>
    <nd ref="1453964475"/>
    <nd ref="4324912476"/>
    <nd ref="4324912473"/>
    <tag k="addr:city" v="Praha 22 - HÃ¡jek"/>
    <tag k="addr:conscriptionnumber" v="117"/>
    <tag k="addr:housenumber" v="117"/>
    <tag k="addr:place" v="HÃ¡jek u UhÅ™Ã­nÄ›vsi"/>
    <tag k="addr:postcode" v="10400"/>
    <tag k="addr:street" v="U MarkÃ©ty"/>
    <tag k="building" v="house"/>
    <tag k="building:flats" v="1"/>
    <tag k="building:levels" v="2"/>
    <tag k="building:ruian:type" v="7"/>
    <tag k="ref:ruian:addr" v="26629577"/>
    <tag k="ref:ruian:building" v="26120640"/>
    <tag k="source" v="cuzk:ruian"/>
    <tag k="start_date" v="2006-10-10"/>
  </way>
  <way id="132113678" version="3" timestamp="2022-01-20T12:05:58Z" changeset="116382888" uid="13552526" user="KingCZE">
    <nd ref="4324912463"/>
    <nd ref="1453964444"/>
    <nd ref="1453964431"/>
    <nd ref="1453964428"/>
    <nd ref="1453964393"/>
    <nd ref="1453964394"/>
    <nd ref="1453964413"/>
    <nd ref="1453964459"/>
    <nd ref="4324912465"/>
    <nd ref="4324912463"/>
    <tag k="addr:city" v="Praha 22 - HÃ¡jek"/>
    <tag k="addr:conscriptionnumber" v="123"/>
    <tag k="addr:housenumber" v="123"/>
    <tag k="addr:place" v="HÃ¡jek u UhÅ™Ã­nÄ›vsi"/>
    <tag k="addr:postcode" v="10400"/>
    <tag k="addr:street" v="U MarkÃ©ty"/>
    <tag k="building" v="house"/>
    <tag k="building:flats" v="1"/>
    <tag k="building:levels" v="2"/>
    <tag k="building:ruian:type" v="7"/>
    <tag k="ref:ruian:addr" v="27131335"/>
    <tag k="ref:ruian:building" v="26616521"/>
    <tag k="source" v="cuzk:ruian"/>
    <tag k="start_date" v="2007-09-04"/>
  </way>
  <way id="132113680" version="3" timestamp="2022-01-20T12:05:58Z" changeset="116382888" uid="13552526" user="KingCZE">
    <nd ref="1453964398"/>
    <nd ref="1453964405"/>
    <nd ref="1453964420"/>
    <nd ref="1453964466"/>
    <nd ref="4324912470"/>
    <nd ref="4324912467"/>
    <nd ref="1453964461"/>
    <nd ref="1453964435"/>
    <nd ref="1453964433"/>
    <nd ref="1453964398"/>
    <tag k="addr:city" v="Praha 22 - HÃ¡jek"/>
    <tag k="addr:conscriptionnumber" v="119"/>
    <tag k="addr:housenumber" v="119"/>
    <tag k="addr:place" v="HÃ¡jek u UhÅ™Ã­nÄ›vsi"/>
    <tag k="addr:postcode" v="10400"/>
    <tag k="addr:street" v="U MarkÃ©ty"/>
    <tag k="building" v="house"/>
    <tag k="building:flats" v="1"/>
    <tag k="building:levels" v="2"/>
    <tag k="building:ruian:type" v="7"/>
    <tag k="ref:ruian:addr" v="26629593"/>
    <tag k="ref:ruian:building" v="26120666"/>
    <tag k="source" v="cuzk:ruian"/>
    <tag k="start_date" v="2006-10-10"/>
  </way>
  <way id="132113682" version="4" timestamp="2024-04-05T15:03:26Z" changeset="149619582" uid="10932047" user="AF HAF KARTOGRAF">
    <nd ref="1453967157"/>
    <nd ref="1453967104"/>
    <nd ref="1453967131"/>
    <nd ref="1453967127"/>
    <nd ref="4324913120"/>
    <nd ref="4324913118"/>
    <nd ref="4324913115"/>
    <nd ref="4324913112"/>
    <nd ref="4324913098"/>
    <nd ref="1453966937"/>
    <nd ref="1453966915"/>
    <nd ref="1453966940"/>
    <nd ref="1453967157"/>
    <tag k="addr:conscriptionnumber" v="65"/>
    <tag k="addr:housenumber" v="65"/>
    <tag k="addr:place" v="HÃ¡jek u UhÅ™Ã­nÄ›vsi"/>
    <tag k="addr:postcode" v="10400"/>
    <tag k="addr:street" v="Pod MarkÃ©tou"/>
    <tag k="building" v="residential"/>
    <tag k="building:flats" v="1"/>
    <tag k="building:levels" v="1"/>
    <tag k="building:ruian:type" v="3"/>
    <tag k="ref:ruian:addr" v="22559604"/>
    <tag k="ref:ruian:building" v="21586497"/>
    <tag k="source" v="cuzk:ruian"/>
  </way>
  <way id="132113683" version="3" timestamp="2022-01-20T12:05:58Z" changeset="116382888" uid="13552526" user="KingCZE">
    <nd ref="4324912468"/>
    <nd ref="1453964462"/>
    <nd ref="1453964417"/>
    <nd ref="1453964395"/>
    <nd ref="1453964398"/>
    <nd ref="1453964433"/>
    <nd ref="1453964432"/>
    <nd ref="1453964454"/>
    <nd ref="4324912466"/>
    <nd ref="4324912468"/>
    <tag k="addr:city" v="Praha 22 - HÃ¡jek"/>
    <tag k="addr:conscriptionnumber" v="120"/>
    <tag k="addr:housenumber" v="120"/>
    <tag k="addr:place" v="HÃ¡jek u UhÅ™Ã­nÄ›vsi"/>
    <tag k="addr:postcode" v="10400"/>
    <tag k="addr:street" v="U MarkÃ©ty"/>
    <tag k="building" v="house"/>
    <tag k="building:flats" v="1"/>
    <tag k="building:levels" v="2"/>
    <tag k="building:ruian:type" v="7"/>
    <tag k="ref:ruian:addr" v="26629607"/>
    <tag k="ref:ruian:building" v="26120674"/>
    <tag k="source" v="cuzk:ruian"/>
    <tag k="start_date" v="2006-10-10"/>
  </way>
  <way id="132113684" version="4" timestamp="2024-04-05T15:03:26Z" changeset="149619582" uid="10932047" user="AF HAF KARTOGRAF">
    <nd ref="1453966286"/>
    <nd ref="1453966180"/>
    <nd ref="1453966196"/>
    <nd ref="1453966263"/>
    <nd ref="4324912916"/>
    <nd ref="1453966271"/>
    <nd ref="4324912921"/>
    <nd ref="1453966278"/>
    <nd ref="4324912922"/>
    <nd ref="1453966285"/>
    <nd ref="1453966295"/>
    <nd ref="1453966286"/>
    <tag k="addr:conscriptionnumber" v="96"/>
    <tag k="addr:housenumber" v="96"/>
    <tag k="addr:place" v="HÃ¡jek u UhÅ™Ã­nÄ›vsi"/>
    <tag k="addr:postcode" v="10400"/>
    <tag k="addr:street" v="PÅ™edpolnÃ­"/>
    <tag k="building" v="residential"/>
    <tag k="building:flats" v="1"/>
    <tag k="building:levels" v="1"/>
    <tag k="building:ruian:type" v="3"/>
    <tag k="ref:ruian:addr" v="25017896"/>
    <tag k="ref:ruian:building" v="24563609"/>
    <tag k="source" v="cuzk:ruian"/>
  </way>
  <way id="132113685" version="5" timestamp="2024-04-05T15:03:26Z" changeset="149619582" uid="10932047" user="AF HAF KARTOGRAF">
    <nd ref="1453966387"/>
    <nd ref="1453966327"/>
    <nd ref="1453966328"/>
    <nd ref="1453966355"/>
    <nd ref="1453966356"/>
    <nd ref="1453966373"/>
    <nd ref="1453966375"/>
    <nd ref="1453966400"/>
    <nd ref="1453966387"/>
    <tag k="addr:conscriptionnumber" v="79"/>
    <tag k="addr:housenumber" v="79"/>
    <tag k="addr:place" v="HÃ¡jek u UhÅ™Ã­nÄ›vsi"/>
    <tag k="addr:postcode" v="10400"/>
    <tag k="addr:street" v="Pod MarkÃ©tou"/>
    <tag k="building" v="house"/>
    <tag k="building:flats" v="1"/>
    <tag k="building:levels" v="1"/>
    <tag k="building:ruian:type" v="7"/>
    <tag k="ref:ruian:addr" v="22559744"/>
    <tag k="ref:ruian:building" v="21586632"/>
    <tag k="source" v="cuzk:ruian"/>
  </way>
  <way id="132113687" version="4" timestamp="2024-04-05T15:03:26Z" changeset="149619582" uid="10932047" user="AF HAF KARTOGRAF">
    <nd ref="1453966663"/>
    <nd ref="1453966721"/>
    <nd ref="1453966798"/>
    <nd ref="1453966881"/>
    <nd ref="1453966799"/>
    <nd ref="1453966766"/>
    <nd ref="1453966619"/>
    <nd ref="1453966537"/>
    <nd ref="1453966663"/>
    <tag k="addr:conscriptionnumber" v="104"/>
    <tag k="addr:housenumber" v="104"/>
    <tag k="addr:place" v="HÃ¡jek u UhÅ™Ã­nÄ›vsi"/>
    <tag k="addr:postcode" v="10400"/>
    <tag k="addr:street" v="PÅ™ed oborou"/>
    <tag k="building" v="house"/>
    <tag k="building:flats" v="1"/>
    <tag k="building:levels" v="3"/>
    <tag k="building:ruian:type" v="7"/>
    <tag k="ref:ruian:addr" v="25606255"/>
    <tag k="ref:ruian:building" v="25125290"/>
    <tag k="source" v="cuzk:ruian"/>
    <tag k="start_date" v="2002-06-19"/>
  </way>
  <way id="132113688" version="5" timestamp="2024-04-05T15:03:26Z" changeset="149619582" uid="10932047" user="AF HAF KARTOGRAF">
    <nd ref="1453966254"/>
    <nd ref="1453966272"/>
    <nd ref="1453966275"/>
    <nd ref="1453966309"/>
    <nd ref="1453966321"/>
    <nd ref="1453966238"/>
    <nd ref="1453966227"/>
    <nd ref="1453966255"/>
    <nd ref="1453966254"/>
    <tag k="addr:conscriptionnumber" v="82"/>
    <tag k="addr:housenumber" v="82"/>
    <tag k="addr:place" v="HÃ¡jek u UhÅ™Ã­nÄ›vsi"/>
    <tag k="addr:postcode" v="10400"/>
    <tag k="addr:street" v="Pod MarkÃ©tou"/>
    <tag k="building" v="residential"/>
    <tag k="building:flats" v="2"/>
    <tag k="building:levels" v="3"/>
    <tag k="building:ruian:type" v="7"/>
    <tag k="ref:ruian:addr" v="22559779"/>
    <tag k="ref:ruian:building" v="21586667"/>
    <tag k="source" v="cuzk:ruian"/>
    <tag k="start_date" v="1980-11-28"/>
  </way>
  <way id="132113689" version="5" timestamp="2024-04-05T15:03:26Z" changeset="149619582" uid="10932047" user="AF HAF KARTOGRAF">
    <nd ref="1453965939"/>
    <nd ref="1453966164"/>
    <nd ref="1453966178"/>
    <nd ref="1453966106"/>
    <nd ref="1453966093"/>
    <nd ref="1453966011"/>
    <nd ref="1453966025"/>
    <nd ref="1453965957"/>
    <nd ref="1453965939"/>
    <tag k="addr:conscriptionnumber" v="7"/>
    <tag k="addr:housenumber" v="7"/>
    <tag k="addr:place" v="HÃ¡jek u UhÅ™Ã­nÄ›vsi"/>
    <tag k="addr:postcode" v="10400"/>
    <tag k="addr:street" v="Pod MarkÃ©tou"/>
    <tag k="building" v="house"/>
    <tag k="building:flats" v="1"/>
    <tag k="building:levels" v="2"/>
    <tag k="building:ruian:type" v="7"/>
    <tag k="ref:ruian:addr" v="22559051"/>
    <tag k="ref:ruian:building" v="21585920"/>
    <tag k="source" v="cuzk:ruian"/>
  </way>
  <way id="132113690" version="4" timestamp="2024-04-05T15:03:26Z" changeset="149619582" uid="10932047" user="AF HAF KARTOGRAF">
    <nd ref="1453968040"/>
    <nd ref="1453967998"/>
    <nd ref="1453968012"/>
    <nd ref="1453968025"/>
    <nd ref="1453968024"/>
    <nd ref="1453968038"/>
    <nd ref="1453968039"/>
    <nd ref="1453968055"/>
    <nd ref="1453968040"/>
    <tag k="addr:conscriptionnumber" v="230"/>
    <tag k="addr:housenumber" v="230/14"/>
    <tag k="addr:place" v="HÃ¡jek u UhÅ™Ã­nÄ›vsi"/>
    <tag k="addr:postcode" v="10400"/>
    <tag k="addr:street" v="Do podkovy"/>
    <tag k="addr:streetnumber" v="14"/>
    <tag k="building" v="house"/>
    <tag k="building:flats" v="1"/>
    <tag k="building:levels" v="2"/>
    <tag k="building:ruian:type" v="7"/>
    <tag k="ref:ruian:addr" v="77640179"/>
    <tag k="ref:ruian:building" v="90942388"/>
    <tag k="source" v="cuzk:ruian"/>
    <tag k="start_date" v="2017-08-16"/>
  </way>
  <way id="132113693" version="5" timestamp="2024-04-05T15:03:26Z" changeset="149619582" uid="10932047" user="AF HAF KARTOGRAF">
    <nd ref="1453967978"/>
    <nd ref="1453967965"/>
    <nd ref="1453967935"/>
    <nd ref="1453967937"/>
    <nd ref="1453967916"/>
    <nd ref="1453967915"/>
    <nd ref="1453967902"/>
    <nd ref="4324913226"/>
    <nd ref="1453967917"/>
    <nd ref="1453967978"/>
    <tag k="addr:conscriptionnumber" v="220"/>
    <tag k="addr:housenumber" v="220/11"/>
    <tag k="addr:place" v="HÃ¡jek u UhÅ™Ã­nÄ›vsi"/>
    <tag k="addr:postcode" v="10400"/>
    <tag k="addr:street" v="Do podkovy"/>
    <tag k="addr:streetnumber" v="11"/>
    <tag k="building" v="house"/>
    <tag k="building:flats" v="1"/>
    <tag k="building:levels" v="2"/>
    <tag k="building:ruian:type" v="7"/>
    <tag k="ref:ruian:addr" v="73268607"/>
    <tag k="ref:ruian:building" v="78911842"/>
    <tag k="source" v="cuzk:ruian"/>
    <tag k="start_date" v="2016-10-27"/>
  </way>
  <way id="132113696" version="4" timestamp="2024-04-05T15:03:26Z" changeset="149619582" uid="10932047" user="AF HAF KARTOGRAF">
    <nd ref="1453967457"/>
    <nd ref="1453967436"/>
    <nd ref="1453967445"/>
    <nd ref="1453967458"/>
    <nd ref="1453967456"/>
    <nd ref="1453967461"/>
    <nd ref="1453967464"/>
    <nd ref="1453967474"/>
    <nd ref="1453967457"/>
    <tag k="addr:conscriptionnumber" v="173"/>
    <tag k="addr:housenumber" v="173/2"/>
    <tag k="addr:place" v="HÃ¡jek u UhÅ™Ã­nÄ›vsi"/>
    <tag k="addr:postcode" v="10400"/>
    <tag k="addr:street" v="Do podkovy"/>
    <tag k="addr:streetnumber" v="2"/>
    <tag k="building" v="house"/>
    <tag k="building:flats" v="1"/>
    <tag k="building:ruian:type" v="7"/>
    <tag k="ref:ruian:addr" v="40781518"/>
    <tag k="ref:ruian:building" v="51102331"/>
    <tag k="source" v="cuzk:ruian"/>
  </way>
  <way id="132113698" version="5" timestamp="2024-04-05T15:03:26Z" changeset="149619582" uid="10932047" user="AF HAF KARTOGRAF">
    <nd ref="1453968119"/>
    <nd ref="1453968146"/>
    <nd ref="1453968199"/>
    <nd ref="1453968192"/>
    <nd ref="1453968201"/>
    <nd ref="1453968186"/>
    <nd ref="1453968163"/>
    <nd ref="1453968161"/>
    <nd ref="1453968119"/>
    <tag k="addr:conscriptionnumber" v="213"/>
    <tag k="addr:housenumber" v="213/32"/>
    <tag k="addr:place" v="HÃ¡jek u UhÅ™Ã­nÄ›vsi"/>
    <tag k="addr:postcode" v="10400"/>
    <tag k="addr:street" v="Do podkovy"/>
    <tag k="addr:streetnumber" v="32"/>
    <tag k="building" v="house"/>
    <tag k="building:flats" v="1"/>
    <tag k="building:levels" v="2"/>
    <tag k="building:ruian:type" v="7"/>
    <tag k="ref:ruian:addr" v="72850108"/>
    <tag k="ref:ruian:building" v="78171113"/>
    <tag k="source" v="cuzk:ruian"/>
    <tag k="start_date" v="2014-05-31"/>
  </way>
  <way id="132113699" version="4" timestamp="2022-07-10T13:10:32Z" changeset="123431809" uid="1942179" user="CzechAddress">
    <nd ref="1453966393"/>
    <nd ref="1453966361"/>
    <nd ref="1453966377"/>
    <nd ref="1453966381"/>
    <nd ref="1453966383"/>
    <nd ref="1453966403"/>
    <nd ref="1453966401"/>
    <nd ref="1453966406"/>
    <nd ref="1453966393"/>
    <tag k="addr:city" v="Praha"/>
    <tag k="addr:conscriptionnumber" v="66"/>
    <tag k="addr:housenumber" v="66"/>
    <tag k="addr:place" v="HÃ¡jek u UhÅ™Ã­nÄ›vsi"/>
    <tag k="addr:postcode" v="10400"/>
    <tag k="addr:street" v="Pod Jankovem"/>
    <tag k="building" v="residential"/>
    <tag k="building:flats" v="1"/>
    <tag k="building:levels" v="1"/>
    <tag k="building:ruian:type" v="3"/>
    <tag k="ref:ruian:addr" v="22559612"/>
    <tag k="ref:ruian:building" v="21586501"/>
    <tag k="source" v="cuzk:ruian"/>
  </way>
  <way id="132113700" version="3" timestamp="2024-04-05T15:03:26Z" changeset="149619582" uid="10932047" user="AF HAF KARTOGRAF">
    <nd ref="1453968055"/>
    <nd ref="2824522505"/>
    <nd ref="4324913240"/>
    <nd ref="1453968081"/>
    <nd ref="1453968083"/>
    <nd ref="1453968099"/>
    <nd ref="1453968100"/>
    <nd ref="1453968107"/>
    <nd ref="1453968101"/>
    <nd ref="1453968040"/>
    <nd ref="1453968055"/>
    <tag k="addr:conscriptionnumber" v="181"/>
    <tag k="addr:housenumber" v="181/16"/>
    <tag k="addr:place" v="HÃ¡jek u UhÅ™Ã­nÄ›vsi"/>
    <tag k="addr:postcode" v="10400"/>
    <tag k="addr:street" v="Do podkovy"/>
    <tag k="addr:streetnumber" v="16"/>
    <tag k="building" v="house"/>
    <tag k="building:flats" v="1"/>
    <tag k="building:ruian:type" v="7"/>
    <tag k="ref:ruian:addr" v="40930319"/>
    <tag k="ref:ruian:building" v="51240653"/>
    <tag k="source" v="cuzk:ruian"/>
  </way>
  <way id="132113701" version="4" timestamp="2024-04-05T15:03:26Z" changeset="149619582" uid="10932047" user="AF HAF KARTOGRAF">
    <nd ref="4324913212"/>
    <nd ref="1453967776"/>
    <nd ref="1453967775"/>
    <nd ref="1453967761"/>
    <nd ref="1453967760"/>
    <nd ref="1453967746"/>
    <nd ref="1453967752"/>
    <nd ref="1453967826"/>
    <nd ref="4324913212"/>
    <tag k="addr:conscriptionnumber" v="178"/>
    <tag k="addr:housenumber" v="178/42"/>
    <tag k="addr:place" v="HÃ¡jek u UhÅ™Ã­nÄ›vsi"/>
    <tag k="addr:postcode" v="10400"/>
    <tag k="addr:street" v="Do podkovy"/>
    <tag k="addr:streetnumber" v="42"/>
    <tag k="building" v="house"/>
    <tag k="building:flats" v="1"/>
    <tag k="building:ruian:type" v="7"/>
    <tag k="ref:ruian:addr" v="40814807"/>
    <tag k="ref:ruian:building" v="51138379"/>
    <tag k="source" v="cuzk:ruian"/>
  </way>
  <way id="132113704" version="4" timestamp="2024-04-05T15:03:26Z" changeset="149619582" uid="10932047" user="AF HAF KARTOGRAF">
    <nd ref="1453968166"/>
    <nd ref="1453968157"/>
    <nd ref="1453968130"/>
    <nd ref="1453968134"/>
    <nd ref="1453968104"/>
    <nd ref="1453968116"/>
    <nd ref="1453968154"/>
    <nd ref="1453968151"/>
    <nd ref="1453968166"/>
    <tag k="addr:conscriptionnumber" v="205"/>
    <tag k="addr:housenumber" v="205/17"/>
    <tag k="addr:place" v="HÃ¡jek u UhÅ™Ã­nÄ›vsi"/>
    <tag k="addr:postcode" v="10400"/>
    <tag k="addr:street" v="Do podkovy"/>
    <tag k="addr:streetnumber" v="17"/>
    <tag k="building" v="house"/>
    <tag k="building:flats" v="1"/>
    <tag k="building:levels" v="2"/>
    <tag k="building:ruian:type" v="7"/>
    <tag k="ref:ruian:addr" v="70847088"/>
    <tag k="ref:ruian:building" v="70535825"/>
    <tag k="source" v="cuzk:ruian"/>
    <tag k="start_date" v="2013-12-11"/>
  </way>
  <way id="132113705" version="4" timestamp="2023-06-04T13:54:30Z" changeset="136934231" uid="1942179" user="CzechAddress">
    <nd ref="1453966745"/>
    <nd ref="1453966650"/>
    <nd ref="1453966604"/>
    <nd ref="1453966627"/>
    <nd ref="1453966608"/>
    <nd ref="1453966622"/>
    <nd ref="1453966644"/>
    <nd ref="1453966670"/>
    <nd ref="1453966745"/>
    <tag k="addr:city" v="Praha"/>
    <tag k="addr:conscriptionnumber" v="48"/>
    <tag k="addr:housenumber" v="48"/>
    <tag k="addr:place" v="HÃ¡jek u UhÅ™Ã­nÄ›vsi"/>
    <tag k="addr:postcode" v="10400"/>
    <tag k="addr:street" v="Pod Jankovem"/>
    <tag k="building" v="residential"/>
    <tag k="building:flats" v="1"/>
    <tag k="building:levels" v="1"/>
    <tag k="building:ruian:type" v="3"/>
    <tag k="ref:ruian:addr" v="22559434"/>
    <tag k="ref:ruian:building" v="21586322"/>
    <tag k="source" v="cuzk:ruian"/>
  </way>
  <way id="132113708" version="3" timestamp="2022-01-20T12:11:25Z" changeset="116383155" uid="13552526" user="KingCZE">
    <nd ref="1453964582"/>
    <nd ref="1453964581"/>
    <nd ref="1453964590"/>
    <nd ref="1453964591"/>
    <nd ref="1453964570"/>
    <nd ref="1453964568"/>
    <nd ref="1453964577"/>
    <nd ref="1453964576"/>
    <nd ref="1453964582"/>
    <tag k="addr:city" v="Praha 22 - HÃ¡jek"/>
    <tag k="addr:conscriptionnumber" v="152"/>
    <tag k="addr:housenumber" v="152"/>
    <tag k="addr:place" v="HÃ¡jek u UhÅ™Ã­nÄ›vsi"/>
    <tag k="addr:postcode" v="10400"/>
    <tag k="addr:street" v="Pod MarkÃ©tou"/>
    <tag k="building" v="house"/>
    <tag k="building:ruian:type" v="7"/>
    <tag k="ref:ruian:addr" v="28235983"/>
    <tag k="ref:ruian:building" v="27696065"/>
    <tag k="source" v="cuzk:ruian"/>
    <tag k="start_date" v="2010-10-06"/>
  </way>
  <way id="132113716" version="4" timestamp="2024-04-05T15:03:26Z" changeset="149619582" uid="10932047" user="AF HAF KARTOGRAF">
    <nd ref="1453968122"/>
    <nd ref="1453968135"/>
    <nd ref="1453968137"/>
    <nd ref="1453968164"/>
    <nd ref="1453968150"/>
    <nd ref="1453968101"/>
    <nd ref="1453968107"/>
    <nd ref="1453968132"/>
    <nd ref="1453968122"/>
    <tag k="addr:conscriptionnumber" v="195"/>
    <tag k="addr:housenumber" v="195/18"/>
    <tag k="addr:place" v="HÃ¡jek u UhÅ™Ã­nÄ›vsi"/>
    <tag k="addr:postcode" v="10400"/>
    <tag k="addr:street" v="Do podkovy"/>
    <tag k="addr:streetnumber" v="18"/>
    <tag k="building" v="house"/>
    <tag k="building:flats" v="1"/>
    <tag k="building:levels" v="2"/>
    <tag k="building:ruian:type" v="7"/>
    <tag k="ref:ruian:addr" v="42211867"/>
    <tag k="ref:ruian:building" v="53990501"/>
    <tag k="source" v="cuzk:ruian"/>
    <tag k="start_date" v="2013-03-08"/>
  </way>
  <way id="132113720" version="5" timestamp="2024-04-05T15:03:26Z" changeset="149619582" uid="10932047" user="AF HAF KARTOGRAF">
    <nd ref="1453966705"/>
    <nd ref="1453966610"/>
    <nd ref="1453966630"/>
    <nd ref="1453966858"/>
    <nd ref="1453966840"/>
    <nd ref="1453966774"/>
    <nd ref="1453966762"/>
    <nd ref="1453966699"/>
    <nd ref="1453966705"/>
    <tag k="addr:conscriptionnumber" v="41"/>
    <tag k="addr:housenumber" v="41"/>
    <tag k="addr:place" v="HÃ¡jek u UhÅ™Ã­nÄ›vsi"/>
    <tag k="addr:postcode" v="10400"/>
    <tag k="addr:street" v="Pod MarkÃ©tou"/>
    <tag k="building" v="residential"/>
    <tag k="building:flats" v="1"/>
    <tag k="building:levels" v="1"/>
    <tag k="building:ruian:type" v="3"/>
    <tag k="ref:ruian:addr" v="22559361"/>
    <tag k="ref:ruian:building" v="21586250"/>
    <tag k="source" v="cuzk:ruian"/>
  </way>
  <way id="132113721" version="4" timestamp="2024-04-05T15:03:26Z" changeset="149619582" uid="10932047" user="AF HAF KARTOGRAF">
    <nd ref="1453968086"/>
    <nd ref="1453968069"/>
    <nd ref="1453968041"/>
    <nd ref="1453968042"/>
    <nd ref="1453968020"/>
    <nd ref="1453968031"/>
    <nd ref="1453968059"/>
    <nd ref="1453968056"/>
    <nd ref="1453968086"/>
    <tag k="addr:conscriptionnumber" v="175"/>
    <tag k="addr:housenumber" v="175/34"/>
    <tag k="addr:place" v="HÃ¡jek u UhÅ™Ã­nÄ›vsi"/>
    <tag k="addr:postcode" v="10400"/>
    <tag k="addr:street" v="Do podkovy"/>
    <tag k="addr:streetnumber" v="34"/>
    <tag k="building" v="house"/>
    <tag k="building:flats" v="1"/>
    <tag k="building:ruian:type" v="7"/>
    <tag k="ref:ruian:addr" v="40783081"/>
    <tag k="ref:ruian:building" v="51104253"/>
    <tag k="source" v="cuzk:ruian"/>
  </way>
  <way id="132113722" version="5" timestamp="2024-04-05T15:03:26Z" changeset="149619582" uid="10932047" user="AF HAF KARTOGRAF">
    <nd ref="1453967590"/>
    <nd ref="1453967569"/>
    <nd ref="1453967555"/>
    <nd ref="1453967466"/>
    <nd ref="1453967473"/>
    <nd ref="1453967505"/>
    <nd ref="4324913186"/>
    <nd ref="1453967571"/>
    <nd ref="1453967600"/>
    <nd ref="1453967590"/>
    <tag k="addr:conscriptionnumber" v="198"/>
    <tag k="addr:housenumber" v="198"/>
    <tag k="addr:place" v="HÃ¡jek u UhÅ™Ã­nÄ›vsi"/>
    <tag k="addr:postcode" v="10400"/>
    <tag k="addr:street" v="PÅ™ed oborou"/>
    <tag k="building" v="house"/>
    <tag k="building:flats" v="1"/>
    <tag k="building:levels" v="1"/>
    <tag k="building:ruian:type" v="7"/>
    <tag k="ref:ruian:addr" v="42398525"/>
    <tag k="ref:ruian:building" v="54236266"/>
    <tag k="source" v="cuzk:ruian"/>
    <tag k="start_date" v="2013-03-27"/>
  </way>
  <way id="132113724" version="5" timestamp="2024-04-05T15:03:26Z" changeset="149619582" uid="10932047" user="AF HAF KARTOGRAF">
    <nd ref="1453968238"/>
    <nd ref="1453968206"/>
    <nd ref="1453968210"/>
    <nd ref="1453968197"/>
    <nd ref="1453968202"/>
    <nd ref="1453968223"/>
    <nd ref="1453968218"/>
    <nd ref="1453968259"/>
    <nd ref="1453968238"/>
    <tag k="addr:conscriptionnumber" v="193"/>
    <tag k="addr:housenumber" v="193/20"/>
    <tag k="addr:place" v="HÃ¡jek u UhÅ™Ã­nÄ›vsi"/>
    <tag k="addr:postcode" v="10400"/>
    <tag k="addr:street" v="Do podkovy"/>
    <tag k="addr:streetnumber" v="20"/>
    <tag k="building" v="house"/>
    <tag k="building:flats" v="1"/>
    <tag k="building:levels" v="2"/>
    <tag k="building:ruian:type" v="7"/>
    <tag k="ref:ruian:addr" v="42162777"/>
    <tag k="ref:ruian:building" v="53931939"/>
    <tag k="source" v="cuzk:ruian"/>
    <tag k="start_date" v="2013-02-26"/>
  </way>
  <way id="132113725" version="4" timestamp="2024-04-05T15:03:26Z" changeset="149619582" uid="10932047" user="AF HAF KARTOGRAF">
    <nd ref="1453967472"/>
    <nd ref="1453967462"/>
    <nd ref="1453967459"/>
    <nd ref="1453967452"/>
    <nd ref="1453967433"/>
    <nd ref="1453967441"/>
    <nd ref="1453967451"/>
    <nd ref="1453967454"/>
    <nd ref="1453967472"/>
    <tag k="addr:conscriptionnumber" v="146"/>
    <tag k="addr:housenumber" v="146"/>
    <tag k="addr:place" v="HÃ¡jek u UhÅ™Ã­nÄ›vsi"/>
    <tag k="addr:postcode" v="10400"/>
    <tag k="addr:street" v="U KolodÄ›j"/>
    <tag k="building" v="house"/>
    <tag k="building:flats" v="1"/>
    <tag k="building:levels" v="2"/>
    <tag k="building:ruian:type" v="7"/>
    <tag k="ref:ruian:addr" v="27849287"/>
    <tag k="ref:ruian:building" v="27319679"/>
    <tag k="source" v="cuzk:ruian"/>
    <tag k="start_date" v="2009-07-08"/>
  </way>
  <way id="132113726" version="4" timestamp="2024-04-05T15:03:26Z" changeset="149619582" uid="10932047" user="AF HAF KARTOGRAF">
    <nd ref="1453967867"/>
    <nd ref="1453967865"/>
    <nd ref="1453967859"/>
    <nd ref="1453967871"/>
    <nd ref="1453967917"/>
    <nd ref="4324913226"/>
    <nd ref="1453967883"/>
    <nd ref="1453967890"/>
    <nd ref="1453967867"/>
    <tag k="addr:conscriptionnumber" v="177"/>
    <tag k="addr:housenumber" v="177/9"/>
    <tag k="addr:place" v="HÃ¡jek u UhÅ™Ã­nÄ›vsi"/>
    <tag k="addr:postcode" v="10400"/>
    <tag k="addr:street" v="Do podkovy"/>
    <tag k="addr:streetnumber" v="9"/>
    <tag k="building" v="house"/>
    <tag k="building:flats" v="1"/>
    <tag k="building:ruian:type" v="7"/>
    <tag k="ref:ruian:addr" v="40783316"/>
    <tag k="ref:ruian:building" v="51104458"/>
    <tag k="source" v="cuzk:ruian"/>
  </way>
  <way id="132113728" version="5" timestamp="2024-04-05T15:03:26Z" changeset="149619582" uid="10932047" user="AF HAF KARTOGRAF">
    <nd ref="1453966269"/>
    <nd ref="1453966300"/>
    <nd ref="1453966297"/>
    <nd ref="1453966337"/>
    <nd ref="1453966342"/>
    <nd ref="1453966243"/>
    <nd ref="10674969624"/>
    <nd ref="10674969623"/>
    <nd ref="10674969622"/>
    <nd ref="1453966240"/>
    <nd ref="1453966268"/>
    <nd ref="1453966269"/>
    <tag k="addr:conscriptionnumber" v="83"/>
    <tag k="addr:housenumber" v="83"/>
    <tag k="addr:place" v="HÃ¡jek u UhÅ™Ã­nÄ›vsi"/>
    <tag k="addr:postcode" v="10400"/>
    <tag k="addr:street" v="Pod Jankovem"/>
    <tag k="building" v="residential"/>
    <tag k="building:flats" v="1"/>
    <tag k="building:levels" v="3"/>
    <tag k="building:ruian:type" v="7"/>
    <tag k="ref:ruian:addr" v="22559787"/>
    <tag k="ref:ruian:building" v="21586675"/>
    <tag k="source" v="cuzk:ruian"/>
    <tag k="start_date" v="1988-01-07"/>
  </way>
  <way id="132113730" version="5" timestamp="2024-04-05T15:03:26Z" changeset="149619582" uid="10932047" user="AF HAF KARTOGRAF">
    <nd ref="1453967903"/>
    <nd ref="4324913216"/>
    <nd ref="4324913217"/>
    <nd ref="4324913213"/>
    <nd ref="4324913218"/>
    <nd ref="4324913221"/>
    <nd ref="1453967866"/>
    <nd ref="1453967919"/>
    <nd ref="1453967903"/>
    <tag k="addr:conscriptionnumber" v="226"/>
    <tag k="addr:housenumber" v="226/10"/>
    <tag k="addr:place" v="HÃ¡jek u UhÅ™Ã­nÄ›vsi"/>
    <tag k="addr:postcode" v="10400"/>
    <tag k="addr:street" v="Do podkovy"/>
    <tag k="addr:streetnumber" v="10"/>
    <tag k="building" v="house"/>
    <tag k="building:flats" v="1"/>
    <tag k="building:levels" v="2"/>
    <tag k="building:ruian:type" v="7"/>
    <tag k="ref:ruian:addr" v="74124463"/>
    <tag k="ref:ruian:building" v="80323456"/>
    <tag k="source" v="cuzk:ruian"/>
    <tag k="start_date" v="2015-09-01"/>
  </way>
  <way id="132113732" version="4" timestamp="2024-04-05T15:03:26Z" changeset="149619582" uid="10932047" user="AF HAF KARTOGRAF">
    <nd ref="1453967651"/>
    <nd ref="1453967602"/>
    <nd ref="1453967645"/>
    <nd ref="1453967711"/>
    <nd ref="1453967700"/>
    <nd ref="1453967732"/>
    <nd ref="1453967684"/>
    <nd ref="1453967643"/>
    <nd ref="1453967651"/>
    <tag k="addr:conscriptionnumber" v="217"/>
    <tag k="addr:housenumber" v="217/5"/>
    <tag k="addr:place" v="HÃ¡jek u UhÅ™Ã­nÄ›vsi"/>
    <tag k="addr:postcode" v="10400"/>
    <tag k="addr:street" v="Do podkovy"/>
    <tag k="addr:streetnumber" v="5"/>
    <tag k="building" v="house"/>
    <tag k="building:flats" v="1"/>
    <tag k="building:levels" v="2"/>
    <tag k="building:ruian:type" v="7"/>
    <tag k="ref:ruian:addr" v="72971789"/>
    <tag k="ref:ruian:building" v="78301971"/>
    <tag k="source" v="cuzk:ruian"/>
    <tag k="start_date" v="2014-07-01"/>
  </way>
  <way id="132113734" version="4" timestamp="2024-04-05T15:03:26Z" changeset="149619582" uid="10932047" user="AF HAF KARTOGRAF">
    <nd ref="1453967786"/>
    <nd ref="1453967784"/>
    <nd ref="1453967794"/>
    <nd ref="1453967797"/>
    <nd ref="1453967832"/>
    <nd ref="1453967809"/>
    <nd ref="1453967743"/>
    <nd ref="1453967759"/>
    <nd ref="1453967786"/>
    <tag k="addr:conscriptionnumber" v="201"/>
    <tag k="addr:housenumber" v="201/35"/>
    <tag k="addr:place" v="HÃ¡jek u UhÅ™Ã­nÄ›vsi"/>
    <tag k="addr:postcode" v="10400"/>
    <tag k="addr:street" v="Do podkovy"/>
    <tag k="addr:streetnumber" v="35"/>
    <tag k="building" v="house"/>
    <tag k="building:flats" v="1"/>
    <tag k="building:levels" v="2"/>
    <tag k="building:ruian:type" v="7"/>
    <tag k="ref:ruian:addr" v="42728070"/>
    <tag k="ref:ruian:building" v="54613761"/>
    <tag k="source" v="cuzk:ruian"/>
    <tag k="start_date" v="2013-09-27"/>
  </way>
  <way id="132113739" version="5" timestamp="2024-04-05T15:03:26Z" changeset="149619582" uid="10932047" user="AF HAF KARTOGRAF">
    <nd ref="1453966354"/>
    <nd ref="1453966323"/>
    <nd ref="1453966315"/>
    <nd ref="1453966289"/>
    <nd ref="1453966291"/>
    <nd ref="1453966252"/>
    <nd ref="1453966243"/>
    <nd ref="1453966342"/>
    <nd ref="1453966354"/>
    <tag k="addr:conscriptionnumber" v="84"/>
    <tag k="addr:housenumber" v="84"/>
    <tag k="addr:place" v="HÃ¡jek u UhÅ™Ã­nÄ›vsi"/>
    <tag k="addr:postcode" v="10400"/>
    <tag k="addr:street" v="Pod Jankovem"/>
    <tag k="building" v="residential"/>
    <tag k="building:flats" v="1"/>
    <tag k="building:levels" v="3"/>
    <tag k="building:ruian:type" v="7"/>
    <tag k="ref:ruian:addr" v="22559795"/>
    <tag k="ref:ruian:building" v="21586683"/>
    <tag k="source" v="cuzk:ruian"/>
    <tag k="start_date" v="1988-01-06"/>
  </way>
  <way id="132113741" version="4" timestamp="2024-04-05T15:03:26Z" changeset="149619582" uid="10932047" user="AF HAF KARTOGRAF">
    <nd ref="4324913205"/>
    <nd ref="1453967667"/>
    <nd ref="1453967638"/>
    <nd ref="1453967542"/>
    <nd ref="1453967573"/>
    <nd ref="1453967619"/>
    <nd ref="1453967615"/>
    <nd ref="1453967631"/>
    <nd ref="1453967636"/>
    <nd ref="4324913205"/>
    <tag k="addr:conscriptionnumber" v="202"/>
    <tag k="addr:housenumber" v="202/39"/>
    <tag k="addr:place" v="HÃ¡jek u UhÅ™Ã­nÄ›vsi"/>
    <tag k="addr:postcode" v="10400"/>
    <tag k="addr:street" v="Do podkovy"/>
    <tag k="addr:streetnumber" v="39"/>
    <tag k="building" v="house"/>
    <tag k="building:flats" v="1"/>
    <tag k="building:levels" v="2"/>
    <tag k="building:ruian:type" v="7"/>
    <tag k="ref:ruian:addr" v="42785243"/>
    <tag k="ref:ruian:building" v="54692903"/>
    <tag k="source" v="cuzk:ruian"/>
    <tag k="start_date" v="2013-10-16"/>
  </way>
  <way id="132113746" version="3" timestamp="2022-01-20T12:11:25Z" changeset="116383155" uid="13552526" user="KingCZE">
    <nd ref="1453964605"/>
    <nd ref="1453964606"/>
    <nd ref="1453964608"/>
    <nd ref="1453964607"/>
    <nd ref="1453964603"/>
    <nd ref="1453964604"/>
    <nd ref="1453964599"/>
    <nd ref="1453964601"/>
    <nd ref="1453964605"/>
    <tag k="addr:city" v="Praha 22 - HÃ¡jek"/>
    <tag k="addr:conscriptionnumber" v="63"/>
    <tag k="addr:housenumber" v="63"/>
    <tag k="addr:place" v="HÃ¡jek"/>
    <tag k="addr:postcode" v="10400"/>
    <tag k="addr:street" v="Pod MarkÃ©tou"/>
    <tag k="building" v="residential"/>
    <tag k="building:flats" v="1"/>
    <tag k="building:levels" v="1"/>
    <tag k="building:ruian:type" v="3"/>
    <tag k="ref:ruian:addr" v="22559582"/>
    <tag k="ref:ruian:building" v="21586471"/>
    <tag k="source" v="cuzk:ruian"/>
  </way>
  <way id="132113747" version="5" timestamp="2024-04-05T15:03:26Z" changeset="149619582" uid="10932047" user="AF HAF KARTOGRAF">
    <nd ref="1453968238"/>
    <nd ref="1453968259"/>
    <nd ref="1453968286"/>
    <nd ref="1453968289"/>
    <nd ref="1453968313"/>
    <nd ref="1453968309"/>
    <nd ref="1453968284"/>
    <nd ref="1453968274"/>
    <nd ref="1453968238"/>
    <tag k="addr:conscriptionnumber" v="189"/>
    <tag k="addr:housenumber" v="189/22"/>
    <tag k="addr:place" v="HÃ¡jek u UhÅ™Ã­nÄ›vsi"/>
    <tag k="addr:postcode" v="10400"/>
    <tag k="addr:street" v="Do podkovy"/>
    <tag k="addr:streetnumber" v="22"/>
    <tag k="building" v="house"/>
    <tag k="building:flats" v="1"/>
    <tag k="building:levels" v="2"/>
    <tag k="building:ruian:type" v="7"/>
    <tag k="ref:ruian:addr" v="41910257"/>
    <tag k="ref:ruian:building" v="53757149"/>
    <tag k="source" v="cuzk:ruian"/>
    <tag k="start_date" v="2013-01-16"/>
  </way>
  <way id="132113750" version="4" timestamp="2023-06-04T13:54:30Z" changeset="136934231" uid="1942179" user="CzechAddress">
    <nd ref="1453967607"/>
    <nd ref="1453967592"/>
    <nd ref="1453967482"/>
    <nd ref="1453967491"/>
    <nd ref="1453967481"/>
    <nd ref="1453967483"/>
    <nd ref="1453967496"/>
    <nd ref="1453967497"/>
    <nd ref="1453967607"/>
    <tag k="addr:city" v="Praha"/>
    <tag k="addr:conscriptionnumber" v="57"/>
    <tag k="addr:housenumber" v="57"/>
    <tag k="addr:place" v="HÃ¡jek u UhÅ™Ã­nÄ›vsi"/>
    <tag k="addr:postcode" v="10400"/>
    <tag k="addr:street" v="U KolodÄ›j"/>
    <tag k="building" v="house"/>
    <tag k="building:flats" v="1"/>
    <tag k="building:levels" v="1"/>
    <tag k="building:ruian:type" v="7"/>
    <tag k="ref:ruian:addr" v="22559523"/>
    <tag k="ref:ruian:building" v="21586411"/>
    <tag k="source" v="cuzk:ruian"/>
  </way>
  <way id="132113753" version="4" timestamp="2024-03-30T20:01:17Z" changeset="149365661" uid="10932047" user="AF HAF KARTOGRAF">
    <nd ref="1453964608"/>
    <nd ref="1453964618"/>
    <nd ref="1453964620"/>
    <nd ref="1453964624"/>
    <nd ref="1453964622"/>
    <nd ref="1453964611"/>
    <nd ref="1453964609"/>
    <nd ref="1453964607"/>
    <nd ref="1453964608"/>
    <tag k="addr:city" v="Praha 22 - HÃ¡jek"/>
    <tag k="addr:conscriptionnumber" v="64"/>
    <tag k="addr:housenumber" v="64"/>
    <tag k="addr:postcode" v="10400"/>
    <tag k="addr:street" v="Pod MarkÃ©tou"/>
    <tag k="building" v="residential"/>
    <tag k="building:flats" v="1"/>
    <tag k="building:levels" v="1"/>
    <tag k="building:ruian:type" v="3"/>
    <tag k="ref:ruian:addr" v="22559591"/>
    <tag k="ref:ruian:building" v="21586489"/>
    <tag k="source" v="cuzk:ruian"/>
  </way>
  <way id="132113757" version="6" timestamp="2024-07-12T20:47:27Z" changeset="153871860" uid="9451067" user="b-jazz-bot">
    <nd ref="1453967654"/>
    <nd ref="1453967752"/>
    <nd ref="1453967746"/>
    <nd ref="1453967703"/>
    <nd ref="1453967712"/>
    <nd ref="1453967696"/>
    <nd ref="1453967689"/>
    <nd ref="1453967639"/>
    <nd ref="1453967654"/>
    <tag k="addr:conscriptionnumber" v="176"/>
    <tag k="addr:housenumber" v="176/44"/>
    <tag k="addr:place" v="HÃ¡jek u UhÅ™Ã­nÄ›vsi"/>
    <tag k="addr:postcode" v="10400"/>
    <tag k="addr:street" v="Do podkovy"/>
    <tag k="addr:streetnumber" v="44"/>
    <tag k="building" v="house"/>
    <tag k="building:flats" v="1"/>
    <tag k="building:levels" v="2"/>
    <tag k="building:ruian:type" v="7"/>
    <tag k="name" v="ELSA Consulting s.r.o."/>
    <tag k="office" v="architect"/>
    <tag k="phone" v="+420777157734"/>
    <tag k="ref:ruian:addr" v="40783219"/>
    <tag k="ref:ruian:building" v="51103931"/>
    <tag k="source" v="cuzk:ruian"/>
    <tag k="website" v="https://www.elsaconsulting.eu/"/>
  </way>
  <way id="132113758" version="6" timestamp="2024-04-05T15:03:26Z" changeset="149619582" uid="10932047" user="AF HAF KARTOGRAF">
    <nd ref="1453967505"/>
    <nd ref="1453967528"/>
    <nd ref="1453967587"/>
    <nd ref="1453967585"/>
    <nd ref="1453967598"/>
    <nd ref="1453967589"/>
    <nd ref="1453967572"/>
    <nd ref="1453967571"/>
    <nd ref="4324913186"/>
    <nd ref="1453967505"/>
    <tag k="addr:conscriptionnumber" v="54"/>
    <tag k="addr:housenumber" v="54"/>
    <tag k="addr:place" v="HÃ¡jek u UhÅ™Ã­nÄ›vsi"/>
    <tag k="addr:postcode" v="10400"/>
    <tag k="addr:street" v="PÅ™ed oborou"/>
    <tag k="building" v="residential"/>
    <tag k="building:flats" v="1"/>
    <tag k="building:levels" v="1"/>
    <tag k="building:ruian:type" v="7"/>
    <tag k="ref:ruian:addr" v="22559493"/>
    <tag k="ref:ruian:building" v="21586381"/>
    <tag k="source" v="cuzk:ruian"/>
  </way>
  <way id="132113760" version="4" timestamp="2024-04-05T15:03:26Z" changeset="149619582" uid="10932047" user="AF HAF KARTOGRAF">
    <nd ref="1453967457"/>
    <nd ref="1453967474"/>
    <nd ref="1453967495"/>
    <nd ref="1453967493"/>
    <nd ref="1453967508"/>
    <nd ref="1453967511"/>
    <nd ref="1453967547"/>
    <nd ref="1453967512"/>
    <nd ref="1453967457"/>
    <tag k="addr:conscriptionnumber" v="174"/>
    <tag k="addr:housenumber" v="174/4"/>
    <tag k="addr:place" v="HÃ¡jek u UhÅ™Ã­nÄ›vsi"/>
    <tag k="addr:postcode" v="10400"/>
    <tag k="addr:street" v="Do podkovy"/>
    <tag k="addr:streetnumber" v="4"/>
    <tag k="building" v="house"/>
    <tag k="building:flats" v="1"/>
    <tag k="building:ruian:type" v="7"/>
    <tag k="ref:ruian:addr" v="40778541"/>
    <tag k="ref:ruian:building" v="51099268"/>
    <tag k="source" v="cuzk:ruian"/>
  </way>
  <way id="132113763" version="4" timestamp="2024-04-05T15:03:26Z" changeset="149619582" uid="10932047" user="AF HAF KARTOGRAF">
    <nd ref="1453967667"/>
    <nd ref="1453967717"/>
    <nd ref="1453967716"/>
    <nd ref="1453967728"/>
    <nd ref="1453967731"/>
    <nd ref="1453967759"/>
    <nd ref="1453967743"/>
    <nd ref="1453967638"/>
    <nd ref="1453967667"/>
    <tag k="addr:conscriptionnumber" v="182"/>
    <tag k="addr:housenumber" v="182/37"/>
    <tag k="addr:place" v="HÃ¡jek u UhÅ™Ã­nÄ›vsi"/>
    <tag k="addr:postcode" v="10400"/>
    <tag k="addr:street" v="Do podkovy"/>
    <tag k="addr:streetnumber" v="37"/>
    <tag k="building" v="house"/>
    <tag k="building:flats" v="1"/>
    <tag k="building:ruian:type" v="7"/>
    <tag k="ref:ruian:addr" v="40930530"/>
    <tag k="ref:ruian:building" v="51240572"/>
    <tag k="source" v="cuzk:ruian"/>
  </way>
  <way id="132113764" version="4" timestamp="2024-04-05T15:03:26Z" changeset="149619582" uid="10932047" user="AF HAF KARTOGRAF">
    <nd ref="1453967791"/>
    <nd ref="1453967819"/>
    <nd ref="1453967871"/>
    <nd ref="1453967859"/>
    <nd ref="1453967834"/>
    <nd ref="1453967835"/>
    <nd ref="1453967828"/>
    <nd ref="1453967824"/>
    <nd ref="1453967791"/>
    <tag k="addr:conscriptionnumber" v="184"/>
    <tag k="addr:housenumber" v="184/7"/>
    <tag k="addr:place" v="HÃ¡jek u UhÅ™Ã­nÄ›vsi"/>
    <tag k="addr:postcode" v="10400"/>
    <tag k="addr:street" v="Do podkovy"/>
    <tag k="addr:streetnumber" v="7"/>
    <tag k="building" v="house"/>
    <tag k="building:flats" v="1"/>
    <tag k="building:levels" v="2"/>
    <tag k="building:ruian:type" v="7"/>
    <tag k="ref:ruian:addr" v="41236416"/>
    <tag k="ref:ruian:building" v="51551152"/>
    <tag k="source" v="cuzk:ruian"/>
    <tag k="start_date" v="2012-08-23"/>
  </way>
  <way id="132113765" version="5" timestamp="2024-04-05T15:03:26Z" changeset="149619582" uid="10932047" user="AF HAF KARTOGRAF">
    <nd ref="1453967551"/>
    <nd ref="1453967575"/>
    <nd ref="1453967653"/>
    <nd ref="1453967647"/>
    <nd ref="1453967662"/>
    <nd ref="1453967649"/>
    <nd ref="1453967633"/>
    <nd ref="1453967623"/>
    <nd ref="1453967551"/>
    <tag k="addr:conscriptionnumber" v="52"/>
    <tag k="addr:housenumber" v="52"/>
    <tag k="addr:place" v="HÃ¡jek u UhÅ™Ã­nÄ›vsi"/>
    <tag k="addr:postcode" v="10400"/>
    <tag k="addr:street" v="PÅ™ed oborou"/>
    <tag k="building" v="residential"/>
    <tag k="building:flats" v="1"/>
    <tag k="building:levels" v="1"/>
    <tag k="building:ruian:type" v="3"/>
    <tag k="ref:ruian:addr" v="22559477"/>
    <tag k="ref:ruian:building" v="21586365"/>
    <tag k="source" v="cuzk:ruian"/>
  </way>
  <way id="132113768" version="5" timestamp="2024-04-05T15:03:26Z" changeset="149619582" uid="10932047" user="AF HAF KARTOGRAF">
    <nd ref="1453967995"/>
    <nd ref="1453967993"/>
    <nd ref="1453967976"/>
    <nd ref="1453967954"/>
    <nd ref="1453967948"/>
    <nd ref="1453967912"/>
    <nd ref="1453967945"/>
    <nd ref="1453967961"/>
    <nd ref="1453967963"/>
    <nd ref="1453967995"/>
    <tag k="addr:conscriptionnumber" v="190"/>
    <tag k="addr:housenumber" v="190/38"/>
    <tag k="addr:place" v="HÃ¡jek u UhÅ™Ã­nÄ›vsi"/>
    <tag k="addr:postcode" v="10400"/>
    <tag k="addr:street" v="Do podkovy"/>
    <tag k="addr:streetnumber" v="38"/>
    <tag k="building" v="house"/>
    <tag k="building:flats" v="1"/>
    <tag k="building:levels" v="2"/>
    <tag k="building:ruian:type" v="7"/>
    <tag k="ref:ruian:addr" v="41999819"/>
    <tag k="ref:ruian:building" v="53822684"/>
    <tag k="source" v="cuzk:ruian"/>
    <tag k="start_date" v="2013-01-23"/>
  </way>
  <way id="132113769" version="4" timestamp="2024-04-05T15:03:26Z" changeset="149619582" uid="10932047" user="AF HAF KARTOGRAF">
    <nd ref="1453968057"/>
    <nd ref="1453968085"/>
    <nd ref="1453968090"/>
    <nd ref="1453968116"/>
    <nd ref="1453968104"/>
    <nd ref="1453968073"/>
    <nd ref="1453968071"/>
    <nd ref="1453968044"/>
    <nd ref="1453968054"/>
    <nd ref="1453968057"/>
    <tag k="addr:conscriptionnumber" v="197"/>
    <tag k="addr:housenumber" v="197/15"/>
    <tag k="addr:place" v="HÃ¡jek u UhÅ™Ã­nÄ›vsi"/>
    <tag k="addr:postcode" v="10400"/>
    <tag k="addr:street" v="Do podkovy"/>
    <tag k="addr:streetnumber" v="15"/>
    <tag k="building" v="house"/>
    <tag k="building:flats" v="1"/>
    <tag k="building:levels" v="2"/>
    <tag k="building:ruian:type" v="7"/>
    <tag k="ref:ruian:addr" v="42327083"/>
    <tag k="ref:ruian:building" v="54141613"/>
    <tag k="source" v="cuzk:ruian"/>
    <tag k="start_date" v="2013-05-03"/>
  </way>
  <way id="132113771" version="4" timestamp="2024-04-05T15:03:26Z" changeset="149619582" uid="10932047" user="AF HAF KARTOGRAF">
    <nd ref="1453967475"/>
    <nd ref="1453967460"/>
    <nd ref="1453967476"/>
    <nd ref="1453967506"/>
    <nd ref="1453967510"/>
    <nd ref="1453967559"/>
    <nd ref="1453967553"/>
    <nd ref="1453967527"/>
    <nd ref="1453967478"/>
    <nd ref="1453967475"/>
    <tag k="addr:conscriptionnumber" v="172"/>
    <tag k="addr:housenumber" v="172/1"/>
    <tag k="addr:place" v="HÃ¡jek u UhÅ™Ã­nÄ›vsi"/>
    <tag k="addr:postcode" v="10400"/>
    <tag k="addr:street" v="Do podkovy"/>
    <tag k="addr:streetnumber" v="1"/>
    <tag k="building" v="house"/>
    <tag k="building:flats" v="1"/>
    <tag k="building:ruian:type" v="7"/>
    <tag k="ref:ruian:addr" v="40775097"/>
    <tag k="ref:ruian:building" v="51094908"/>
    <tag k="source" v="cuzk:ruian"/>
  </way>
  <way id="132113772" version="4" timestamp="2024-04-05T15:03:26Z" changeset="149619582" uid="10932047" user="AF HAF KARTOGRAF">
    <nd ref="1453967993"/>
    <nd ref="1453968010"/>
    <nd ref="1453968009"/>
    <nd ref="1453968031"/>
    <nd ref="1453968020"/>
    <nd ref="1453968005"/>
    <nd ref="1453967997"/>
    <nd ref="1453967975"/>
    <nd ref="1453967976"/>
    <nd ref="1453967993"/>
    <tag k="addr:conscriptionnumber" v="200"/>
    <tag k="addr:housenumber" v="200/36"/>
    <tag k="addr:place" v="HÃ¡jek u UhÅ™Ã­nÄ›vsi"/>
    <tag k="addr:postcode" v="10400"/>
    <tag k="addr:street" v="Do podkovy"/>
    <tag k="addr:streetnumber" v="36"/>
    <tag k="building" v="house"/>
    <tag k="building:flats" v="1"/>
    <tag k="building:levels" v="2"/>
    <tag k="building:ruian:type" v="7"/>
    <tag k="ref:ruian:addr" v="42654963"/>
    <tag k="ref:ruian:building" v="54525799"/>
    <tag k="source" v="cuzk:ruian"/>
    <tag k="start_date" v="2013-07-31"/>
  </way>
  <way id="132113774" version="4" timestamp="2024-04-05T15:03:26Z" changeset="149619582" uid="10932047" user="AF HAF KARTOGRAF">
    <nd ref="1453968171"/>
    <nd ref="1453968169"/>
    <nd ref="1453968142"/>
    <nd ref="1453968152"/>
    <nd ref="1453968176"/>
    <nd ref="1453968178"/>
    <nd ref="1453968196"/>
    <nd ref="1453968181"/>
    <nd ref="1453968171"/>
    <tag k="addr:conscriptionnumber" v="214"/>
    <tag k="addr:housenumber" v="214/25"/>
    <tag k="addr:place" v="HÃ¡jek u UhÅ™Ã­nÄ›vsi"/>
    <tag k="addr:postcode" v="10400"/>
    <tag k="addr:street" v="Do podkovy"/>
    <tag k="addr:streetnumber" v="25"/>
    <tag k="building" v="house"/>
    <tag k="building:flats" v="1"/>
    <tag k="building:levels" v="2"/>
    <tag k="building:ruian:type" v="7"/>
    <tag k="ref:ruian:addr" v="72851252"/>
    <tag k="ref:ruian:building" v="78172730"/>
    <tag k="source" v="cuzk:ruian"/>
    <tag k="start_date" v="2014-06-06"/>
  </way>
  <way id="132113775" version="4" timestamp="2024-04-05T15:03:26Z" changeset="149619582" uid="10932047" user="AF HAF KARTOGRAF">
    <nd ref="1453967851"/>
    <nd ref="1453967840"/>
    <nd ref="1453967836"/>
    <nd ref="1453967815"/>
    <nd ref="4324913212"/>
    <nd ref="1453967826"/>
    <nd ref="1453967892"/>
    <nd ref="1453967879"/>
    <nd ref="1453967852"/>
    <nd ref="1453967851"/>
    <tag k="addr:conscriptionnumber" v="196"/>
    <tag k="addr:housenumber" v="196/40"/>
    <tag k="addr:place" v="HÃ¡jek u UhÅ™Ã­nÄ›vsi"/>
    <tag k="addr:postcode" v="10400"/>
    <tag k="addr:street" v="Do podkovy"/>
    <tag k="addr:streetnumber" v="40"/>
    <tag k="building" v="house"/>
    <tag k="building:flats" v="1"/>
    <tag k="building:levels" v="2"/>
    <tag k="building:ruian:type" v="7"/>
    <tag k="ref:ruian:addr" v="42307244"/>
    <tag k="ref:ruian:building" v="54114951"/>
    <tag k="source" v="cuzk:ruian"/>
    <tag k="start_date" v="2013-04-26"/>
  </way>
  <way id="132113776" version="4" timestamp="2024-04-05T15:03:26Z" changeset="149619582" uid="10932047" user="AF HAF KARTOGRAF">
    <nd ref="1453967553"/>
    <nd ref="1453967583"/>
    <nd ref="1453967591"/>
    <nd ref="1453967645"/>
    <nd ref="1453967602"/>
    <nd ref="1453967558"/>
    <nd ref="1453967549"/>
    <nd ref="1453967520"/>
    <nd ref="1453967527"/>
    <nd ref="1453967553"/>
    <tag k="addr:conscriptionnumber" v="209"/>
    <tag k="addr:housenumber" v="209/3"/>
    <tag k="addr:place" v="HÃ¡jek u UhÅ™Ã­nÄ›vsi"/>
    <tag k="addr:postcode" v="10400"/>
    <tag k="addr:street" v="Do podkovy"/>
    <tag k="addr:streetnumber" v="3"/>
    <tag k="building" v="house"/>
    <tag k="building:flats" v="1"/>
    <tag k="building:levels" v="2"/>
    <tag k="building:ruian:type" v="7"/>
    <tag k="ref:ruian:addr" v="71150820"/>
    <tag k="ref:ruian:building" v="73928062"/>
    <tag k="source" v="cuzk:ruian"/>
    <tag k="start_date" v="2013-12-31"/>
  </way>
  <way id="132113777" version="5" timestamp="2024-04-05T15:03:26Z" changeset="149619582" uid="10932047" user="AF HAF KARTOGRAF">
    <nd ref="1453968006"/>
    <nd ref="1453968014"/>
    <nd ref="1453968029"/>
    <nd ref="1453968037"/>
    <nd ref="1453968067"/>
    <nd ref="1453968057"/>
    <nd ref="1453968054"/>
    <nd ref="1453968023"/>
    <nd ref="1453968022"/>
    <nd ref="1453968006"/>
    <tag k="addr:conscriptionnumber" v="191"/>
    <tag k="addr:housenumber" v="191/13"/>
    <tag k="addr:place" v="HÃ¡jek u UhÅ™Ã­nÄ›vsi"/>
    <tag k="addr:postcode" v="10400"/>
    <tag k="addr:street" v="Do podkovy"/>
    <tag k="addr:streetnumber" v="13"/>
    <tag k="building" v="house"/>
    <tag k="building:flats" v="1"/>
    <tag k="building:levels" v="2"/>
    <tag k="building:ruian:type" v="7"/>
    <tag k="ref:ruian:addr" v="42150914"/>
    <tag k="ref:ruian:building" v="53919645"/>
    <tag k="source" v="cuzk:ruian"/>
    <tag k="start_date" v="2013-03-02"/>
  </way>
  <way id="132113778" version="4" timestamp="2024-04-05T15:03:26Z" changeset="149619582" uid="10932047" user="AF HAF KARTOGRAF">
    <nd ref="1453968052"/>
    <nd ref="1453968072"/>
    <nd ref="1453968070"/>
    <nd ref="1453968103"/>
    <nd ref="1453968088"/>
    <nd ref="1453968027"/>
    <nd ref="1453968052"/>
    <tag k="addr:conscriptionnumber" v="183"/>
    <tag k="addr:housenumber" v="183/29"/>
    <tag k="addr:place" v="HÃ¡jek u UhÅ™Ã­nÄ›vsi"/>
    <tag k="addr:postcode" v="10400"/>
    <tag k="addr:street" v="Do podkovy"/>
    <tag k="addr:streetnumber" v="29"/>
    <tag k="building" v="house"/>
    <tag k="building:flats" v="1"/>
    <tag k="building:levels" v="2"/>
    <tag k="building:ruian:type" v="7"/>
    <tag k="ref:ruian:addr" v="41053699"/>
    <tag k="ref:ruian:building" v="51366819"/>
    <tag k="source" v="cuzk:ruian"/>
    <tag k="start_date" v="2012-06-29"/>
  </way>
  <way id="149660640" version="8" timestamp="2024-06-12T22:34:31Z" changeset="152607376" uid="469828" user="LukÃ¡Å¡ JelÃ­nek">
    <nd ref="1626024347"/>
    <nd ref="11976660139"/>
    <nd ref="29447001"/>
    <nd ref="11976660140"/>
    <nd ref="1332601447"/>
    <tag k="highway" v="tertiary"/>
    <tag k="lanes" v="2"/>
    <tag k="lit" v="no"/>
    <tag k="maxspeed" v="70"/>
    <tag k="maxspeed:type" v="sign"/>
    <tag k="name" v="KÂ DubÄi"/>
    <tag k="surface" v="asphalt"/>
  </way>
  <way id="150557706" version="6" timestamp="2025-03-11T19:32:30Z" changeset="163499661" uid="718054" user="Piskvor">
    <nd ref="1634563545"/>
    <nd ref="1634563544"/>
    <nd ref="1634563543"/>
    <nd ref="1634563542"/>
    <nd ref="1634563541"/>
    <nd ref="1634563540"/>
    <nd ref="1634563539"/>
    <nd ref="1634563538"/>
    <nd ref="1634563537"/>
    <nd ref="1634563536"/>
    <nd ref="1634563534"/>
    <nd ref="1634563526"/>
    <nd ref="1634563524"/>
    <nd ref="1634563522"/>
    <nd ref="1634563520"/>
    <nd ref="1634563518"/>
    <nd ref="1634563516"/>
    <nd ref="1634563514"/>
    <nd ref="1289207656"/>
    <nd ref="7784042"/>
    <tag k="highway" v="unclassified"/>
    <tag k="lanes" v="1"/>
    <tag k="motor_vehicle" v="private"/>
    <tag k="smoothness" v="good"/>
    <tag k="surface" v="asphalt"/>
  </way>
  <way id="167039242" version="5" timestamp="2024-04-05T15:03:26Z" changeset="149619582" uid="10932047" user="AF HAF KARTOGRAF">
    <nd ref="1784433961"/>
    <nd ref="1784433965"/>
    <nd ref="1784433964"/>
    <nd ref="1784433966"/>
    <nd ref="1784433963"/>
    <nd ref="1784433958"/>
    <nd ref="1784433959"/>
    <nd ref="1784433960"/>
    <nd ref="1784433961"/>
    <tag k="addr:conscriptionnumber" v="192"/>
    <tag k="addr:housenumber" v="192"/>
    <tag k="addr:place" v="HÃ¡jek u UhÅ™Ã­nÄ›vsi"/>
    <tag k="addr:postcode" v="10400"/>
    <tag k="addr:street" v="BlaÅ¾kova"/>
    <tag k="building" v="house"/>
    <tag k="building:flats" v="1"/>
    <tag k="building:levels" v="2"/>
    <tag k="building:ruian:type" v="7"/>
    <tag k="ref:ruian:addr" v="42149967"/>
    <tag k="ref:ruian:building" v="53918975"/>
    <tag k="source" v="cuzk:ruian"/>
    <tag k="start_date" v="2013-02-13"/>
  </way>
  <way id="169138162" version="4" timestamp="2024-04-05T15:03:26Z" changeset="149619582" uid="10932047" user="AF HAF KARTOGRAF">
    <nd ref="4324913230"/>
    <nd ref="4324913231"/>
    <nd ref="1803047852"/>
    <nd ref="1803047850"/>
    <nd ref="1803047849"/>
    <nd ref="1803047843"/>
    <nd ref="1803047844"/>
    <nd ref="1803047842"/>
    <nd ref="4324913214"/>
    <nd ref="4324913219"/>
    <nd ref="1803047846"/>
    <nd ref="1803047847"/>
    <nd ref="1803047848"/>
    <nd ref="1803047853"/>
    <nd ref="4324913230"/>
    <tag k="addr:conscriptionnumber" v="180"/>
    <tag k="addr:housenumber" v="180"/>
    <tag k="addr:place" v="HÃ¡jek u UhÅ™Ã­nÄ›vsi"/>
    <tag k="addr:postcode" v="10400"/>
    <tag k="addr:street" v="PÅ™ed oborou"/>
    <tag k="building" v="house"/>
    <tag k="building:flats" v="1"/>
    <tag k="building:ruian:type" v="7"/>
    <tag k="ref:ruian:addr" v="40881768"/>
    <tag k="ref:ruian:building" v="51196301"/>
    <tag k="source" v="cuzk:ruian"/>
  </way>
  <way id="237170718" version="1" timestamp="2013-09-09T00:58:18Z" changeset="17742497" uid="3516" user="BiIbo">
    <nd ref="2451180686"/>
    <nd ref="2451180683"/>
    <tag k="highway" v="residential"/>
  </way>
  <way id="237170719" version="2" timestamp="2019-08-07T09:34:08Z" changeset="73101275" uid="25867" user="adamos">
    <nd ref="2451180690"/>
    <nd ref="2451180688"/>
    <tag k="highway" v="residential"/>
  </way>
  <way id="278022251" version="4" timestamp="2024-04-05T15:03:26Z" changeset="149619582" uid="10932047" user="AF HAF KARTOGRAF">
    <nd ref="2824520403"/>
    <nd ref="2824520398"/>
    <nd ref="2824520399"/>
    <nd ref="2824520395"/>
    <nd ref="2824520396"/>
    <nd ref="2824520389"/>
    <nd ref="2824520390"/>
    <nd ref="2824520407"/>
    <nd ref="2824520405"/>
    <nd ref="2824520404"/>
    <nd ref="2824520403"/>
    <tag k="addr:conscriptionnumber" v="186"/>
    <tag k="addr:housenumber" v="186"/>
    <tag k="addr:place" v="HÃ¡jek u UhÅ™Ã­nÄ›vsi"/>
    <tag k="addr:postcode" v="10400"/>
    <tag k="addr:street" v="BlaÅ¾kova"/>
    <tag k="building" v="house"/>
    <tag k="building:flats" v="1"/>
    <tag k="building:levels" v="2"/>
    <tag k="building:ruian:type" v="7"/>
    <tag k="ref:ruian:addr" v="41540689"/>
    <tag k="ref:ruian:building" v="51908433"/>
    <tag k="source" v="cuzk:ruian"/>
    <tag k="start_date" v="2012-10-29"/>
  </way>
  <way id="278022255" version="5" timestamp="2024-04-05T15:03:26Z" changeset="149619582" uid="10932047" user="AF HAF KARTOGRAF">
    <nd ref="2824520393"/>
    <nd ref="2824520397"/>
    <nd ref="2824520402"/>
    <nd ref="2824520406"/>
    <nd ref="2824520400"/>
    <nd ref="2824520401"/>
    <nd ref="2824520394"/>
    <nd ref="2824520391"/>
    <nd ref="2824520384"/>
    <nd ref="2824520381"/>
    <nd ref="2824520387"/>
    <nd ref="2824520385"/>
    <nd ref="2824520393"/>
    <tag k="addr:conscriptionnumber" v="187"/>
    <tag k="addr:housenumber" v="187"/>
    <tag k="addr:place" v="HÃ¡jek u UhÅ™Ã­nÄ›vsi"/>
    <tag k="addr:postcode" v="10400"/>
    <tag k="addr:street" v="BlaÅ¾kova"/>
    <tag k="building" v="house"/>
    <tag k="building:flats" v="2"/>
    <tag k="building:levels" v="2"/>
    <tag k="building:ruian:type" v="7"/>
    <tag k="ref:ruian:addr" v="41560515"/>
    <tag k="ref:ruian:building" v="51933551"/>
    <tag k="source" v="cuzk:ruian"/>
    <tag k="start_date" v="2018-01-31"/>
  </way>
  <way id="278022256" version="4" timestamp="2024-04-05T15:03:26Z" changeset="149619582" uid="10932047" user="AF HAF KARTOGRAF">
    <nd ref="2824520499"/>
    <nd ref="2824520498"/>
    <nd ref="2824520501"/>
    <nd ref="2824520503"/>
    <nd ref="2824520500"/>
    <nd ref="2824520502"/>
    <nd ref="2824520504"/>
    <nd ref="2824520505"/>
    <nd ref="2824520508"/>
    <nd ref="2824520507"/>
    <nd ref="2824520509"/>
    <nd ref="2824520506"/>
    <nd ref="2824520499"/>
    <tag k="addr:conscriptionnumber" v="49"/>
    <tag k="addr:housenumber" v="49"/>
    <tag k="addr:place" v="HÃ¡jek u UhÅ™Ã­nÄ›vsi"/>
    <tag k="addr:postcode" v="10400"/>
    <tag k="addr:street" v="PÅ™edpolnÃ­"/>
    <tag k="building" v="farm_auxiliary"/>
    <tag k="building:flats" v="2"/>
    <tag k="building:levels" v="1"/>
    <tag k="building:ruian:type" v="2"/>
    <tag k="ref:ruian:addr" v="22559442"/>
    <tag k="ref:ruian:building" v="21586331"/>
    <tag k="source" v="cuzk:ruian"/>
  </way>
  <way id="278022294" version="4" timestamp="2024-04-05T15:03:26Z" changeset="149619582" uid="10932047" user="AF HAF KARTOGRAF">
    <nd ref="2824520535"/>
    <nd ref="2824520534"/>
    <nd ref="2824520529"/>
    <nd ref="2824520531"/>
    <nd ref="2824520528"/>
    <nd ref="2824520530"/>
    <nd ref="2824520532"/>
    <nd ref="2824520533"/>
    <nd ref="2824520535"/>
    <tag k="addr:conscriptionnumber" v="204"/>
    <tag k="addr:housenumber" v="204"/>
    <tag k="addr:place" v="HÃ¡jek u UhÅ™Ã­nÄ›vsi"/>
    <tag k="addr:postcode" v="10400"/>
    <tag k="addr:street" v="PÅ™ed oborou"/>
    <tag k="building" v="house"/>
    <tag k="building:flats" v="1"/>
    <tag k="building:levels" v="2"/>
    <tag k="building:ruian:type" v="7"/>
    <tag k="ref:ruian:addr" v="70860513"/>
    <tag k="ref:ruian:building" v="70963983"/>
    <tag k="source" v="cuzk:ruian"/>
    <tag k="start_date" v="2011-12-31"/>
  </way>
  <way id="391526044" version="2" timestamp="2025-03-20T15:21:39Z" changeset="163867992" uid="11545091" user="VladaC">
    <nd ref="3947362662"/>
    <nd ref="12684952639"/>
    <nd ref="3947362663"/>
    <nd ref="12684952635"/>
    <nd ref="12684952634"/>
    <nd ref="3947362664"/>
    <nd ref="12684952632"/>
    <nd ref="3947362665"/>
    <nd ref="12684952630"/>
    <nd ref="12684952628"/>
    <nd ref="3947362666"/>
    <tag k="highway" v="residential"/>
    <tag k="name" v="PÅ™edpolnÃ­"/>
  </way>
  <way id="391526047" version="4" timestamp="2025-03-15T22:29:55Z" changeset="163669756" uid="4018695" user="ðŸ‡¨ðŸ‡¿ Roman HornÃ­k">
    <nd ref="415863219"/>
    <nd ref="12669074184"/>
    <nd ref="9433400542"/>
    <nd ref="12669074183"/>
    <nd ref="3947362674"/>
    <tag k="highway" v="residential"/>
  </way>
  <way id="434335443" version="3" timestamp="2024-04-05T15:03:26Z" changeset="149619582" uid="10932047" user="AF HAF KARTOGRAF">
    <nd ref="4324912499"/>
    <nd ref="4324912501"/>
    <nd ref="4324912504"/>
    <nd ref="4324912503"/>
    <nd ref="4324912500"/>
    <nd ref="4324912502"/>
    <nd ref="4324912498"/>
    <nd ref="4324912497"/>
    <nd ref="4324912495"/>
    <nd ref="4324912496"/>
    <nd ref="4324912499"/>
    <tag k="addr:conscriptionnumber" v="222"/>
    <tag k="addr:housenumber" v="222"/>
    <tag k="addr:place" v="HÃ¡jek u UhÅ™Ã­nÄ›vsi"/>
    <tag k="addr:postcode" v="10400"/>
    <tag k="addr:street" v="Pod MarkÃ©tou"/>
    <tag k="building" v="house"/>
    <tag k="building:flats" v="1"/>
    <tag k="building:levels" v="2"/>
    <tag k="building:ruian:type" v="7"/>
    <tag k="ref:ruian:addr" v="73618616"/>
    <tag k="ref:ruian:building" v="79635776"/>
    <tag k="source" v="cuzk:ruian"/>
    <tag k="start_date" v="2015-03-20"/>
  </way>
  <way id="434335455" version="5" timestamp="2024-04-05T15:03:26Z" changeset="149619582" uid="10932047" user="AF HAF KARTOGRAF">
    <nd ref="4324913043"/>
    <nd ref="4324913036"/>
    <nd ref="4324912994"/>
    <nd ref="4324913007"/>
    <nd ref="4324913043"/>
    <tag k="addr:conscriptionnumber" v="38"/>
    <tag k="addr:housenumber" v="38"/>
    <tag k="addr:place" v="HÃ¡jek u UhÅ™Ã­nÄ›vsi"/>
    <tag k="addr:postcode" v="10400"/>
    <tag k="addr:street" v="Pod MarkÃ©tou"/>
    <tag k="building" v="residential"/>
    <tag k="building:flats" v="2"/>
    <tag k="building:levels" v="1"/>
    <tag k="building:ruian:type" v="7"/>
    <tag k="ref:ruian:addr" v="22559337"/>
    <tag k="ref:ruian:building" v="21586225"/>
    <tag k="source" v="cuzk:ruian"/>
    <tag k="start_date" v="1924-12-31"/>
  </way>
  <way id="434335476" version="3" timestamp="2024-04-05T15:03:26Z" changeset="149619582" uid="10932047" user="AF HAF KARTOGRAF">
    <nd ref="4324912505"/>
    <nd ref="4324912506"/>
    <nd ref="4324912507"/>
    <nd ref="4324912508"/>
    <nd ref="4324912510"/>
    <nd ref="4324912509"/>
    <nd ref="4324912505"/>
    <tag k="addr:conscriptionnumber" v="216"/>
    <tag k="addr:housenumber" v="216"/>
    <tag k="addr:place" v="HÃ¡jek u UhÅ™Ã­nÄ›vsi"/>
    <tag k="addr:postcode" v="10400"/>
    <tag k="addr:street" v="Pod MarkÃ©tou"/>
    <tag k="building" v="house"/>
    <tag k="building:flats" v="1"/>
    <tag k="building:levels" v="1"/>
    <tag k="building:ruian:type" v="7"/>
    <tag k="ref:ruian:addr" v="72952695"/>
    <tag k="ref:ruian:building" v="78278911"/>
    <tag k="source" v="cuzk:ruian"/>
    <tag k="start_date" v="2014-06-25"/>
  </way>
  <way id="434335479" version="3" timestamp="2024-04-05T15:03:26Z" changeset="149619582" uid="10932047" user="AF HAF KARTOGRAF">
    <nd ref="1453968142"/>
    <nd ref="1453968088"/>
    <nd ref="1453968103"/>
    <nd ref="4324913245"/>
    <nd ref="4324913246"/>
    <nd ref="4324913247"/>
    <nd ref="1453968152"/>
    <nd ref="1453968142"/>
    <tag k="addr:conscriptionnumber" v="207"/>
    <tag k="addr:housenumber" v="207/27"/>
    <tag k="addr:place" v="HÃ¡jek u UhÅ™Ã­nÄ›vsi"/>
    <tag k="addr:postcode" v="10400"/>
    <tag k="addr:street" v="Do podkovy"/>
    <tag k="addr:streetnumber" v="27"/>
    <tag k="building" v="house"/>
    <tag k="building:flats" v="1"/>
    <tag k="building:levels" v="2"/>
    <tag k="building:ruian:type" v="7"/>
    <tag k="ref:ruian:addr" v="70858268"/>
    <tag k="ref:ruian:building" v="70961506"/>
    <tag k="source" v="cuzk:ruian"/>
    <tag k="start_date" v="2013-11-29"/>
  </way>
  <way id="434335496" version="2" timestamp="2022-01-20T12:11:25Z" changeset="116383155" uid="13552526" user="KingCZE">
    <nd ref="4324912890"/>
    <nd ref="4324912788"/>
    <nd ref="4324912895"/>
    <nd ref="4324912893"/>
    <nd ref="4324912772"/>
    <nd ref="4324912763"/>
    <nd ref="4324912765"/>
    <nd ref="4324912770"/>
    <nd ref="4324912771"/>
    <nd ref="4324912890"/>
    <tag k="addr:city" v="Praha 22 - HÃ¡jek"/>
    <tag k="addr:conscriptionnumber" v="224"/>
    <tag k="addr:housenumber" v="224"/>
    <tag k="addr:place" v="HÃ¡jek"/>
    <tag k="addr:postcode" v="10400"/>
    <tag k="addr:street" v="PÅ™edpolnÃ­"/>
    <tag k="building" v="house"/>
    <tag k="building:flats" v="1"/>
    <tag k="building:levels" v="3"/>
    <tag k="building:ruian:type" v="7"/>
    <tag k="ref:ruian:addr" v="73909424"/>
    <tag k="ref:ruian:building" v="80032249"/>
    <tag k="source" v="cuzk:ruian"/>
    <tag k="start_date" v="2015-05-29"/>
  </way>
  <way id="462572190" version="3" timestamp="2024-04-05T15:03:26Z" changeset="149619582" uid="10932047" user="AF HAF KARTOGRAF">
    <nd ref="4579521393"/>
    <nd ref="4579521392"/>
    <nd ref="4579521391"/>
    <nd ref="4579521390"/>
    <nd ref="4579521393"/>
    <tag k="addr:conscriptionnumber" v="228"/>
    <tag k="addr:housenumber" v="228"/>
    <tag k="addr:place" v="HÃ¡jek u UhÅ™Ã­nÄ›vsi"/>
    <tag k="addr:postcode" v="10400"/>
    <tag k="addr:street" v="BlaÅ¾kova"/>
    <tag k="building" v="house"/>
    <tag k="building:flats" v="1"/>
    <tag k="building:levels" v="2"/>
    <tag k="building:ruian:type" v="7"/>
    <tag k="ref:ruian:addr" v="75537800"/>
    <tag k="ref:ruian:building" v="87211904"/>
    <tag k="source" v="cuzk:ruian"/>
    <tag k="start_date" v="2016-10-27"/>
  </way>
  <way id="562507579" version="3" timestamp="2024-04-05T15:03:26Z" changeset="149619582" uid="10932047" user="AF HAF KARTOGRAF">
    <nd ref="5422667316"/>
    <nd ref="5422667315"/>
    <nd ref="5422667314"/>
    <nd ref="1453967903"/>
    <nd ref="1453967919"/>
    <nd ref="5422667313"/>
    <nd ref="5422667312"/>
    <nd ref="5422667311"/>
    <nd ref="5422667316"/>
    <tag k="addr:conscriptionnumber" v="227"/>
    <tag k="addr:housenumber" v="227/12"/>
    <tag k="addr:place" v="HÃ¡jek u UhÅ™Ã­nÄ›vsi"/>
    <tag k="addr:postcode" v="10400"/>
    <tag k="addr:street" v="Do podkovy"/>
    <tag k="addr:streetnumber" v="12"/>
    <tag k="building" v="house"/>
    <tag k="building:flats" v="1"/>
    <tag k="building:levels" v="2"/>
    <tag k="building:ruian:type" v="7"/>
    <tag k="ref:ruian:addr" v="74141015"/>
    <tag k="ref:ruian:building" v="80349226"/>
    <tag k="source" v="cuzk:ruian"/>
    <tag k="start_date" v="2015-09-01"/>
  </way>
  <way id="592432665" version="3" timestamp="2023-10-27T07:43:43Z" changeset="143197765" uid="13864" user="Martin Poljak">
    <nd ref="415862845"/>
    <nd ref="5103778730"/>
    <nd ref="34595824"/>
    <tag k="highway" v="tertiary"/>
    <tag k="lane_markings" v="no"/>
    <tag k="name" v="Pod MarkÃ©tou"/>
    <tag k="surface" v="asphalt"/>
  </way>
  <way id="592432666" version="6" timestamp="2025-03-20T15:21:39Z" changeset="163867992" uid="11545091" user="VladaC">
    <nd ref="29447140"/>
    <nd ref="5103778739"/>
    <nd ref="12669074179"/>
    <nd ref="34595814"/>
    <nd ref="12669074178"/>
    <nd ref="34595816"/>
    <nd ref="12684951576"/>
    <nd ref="34595818"/>
    <nd ref="6690635097"/>
    <nd ref="12684952636"/>
    <nd ref="415863216"/>
    <nd ref="34595820"/>
    <tag k="highway" v="tertiary"/>
    <tag k="lane_markings" v="no"/>
    <tag k="name" v="Pod MarkÃ©tou"/>
    <tag k="surface" v="asphalt"/>
  </way>
  <way id="683684170" version="1" timestamp="2019-04-14T11:27:59Z" changeset="69199841" uid="527259" user="Vratislav Filler">
    <nd ref="29447140"/>
    <nd ref="1453967435"/>
    <nd ref="1453967484"/>
    <tag k="highway" v="residential"/>
    <tag k="name" v="Do Podkovy"/>
    <tag k="source" v="lpis"/>
  </way>
  <way id="975940103" version="3" timestamp="2024-04-05T15:03:26Z" changeset="149619582" uid="10932047" user="AF HAF KARTOGRAF">
    <nd ref="9031581389"/>
    <nd ref="9031581388"/>
    <nd ref="9031581387"/>
    <nd ref="9031581386"/>
    <nd ref="9031581385"/>
    <nd ref="9031581384"/>
    <nd ref="9031581383"/>
    <nd ref="9031581382"/>
    <nd ref="9031581381"/>
    <nd ref="9031581380"/>
    <nd ref="9031581389"/>
    <tag k="addr:conscriptionnumber" v="206"/>
    <tag k="addr:housenumber" v="206"/>
    <tag k="addr:place" v="HÃ¡jek u UhÅ™Ã­nÄ›vsi"/>
    <tag k="addr:postcode" v="10400"/>
    <tag k="addr:street" v="Pod Jankovem"/>
    <tag k="building" v="yes"/>
    <tag k="building:levels" v="2"/>
    <tag k="building:ruian:type" v="19"/>
    <tag k="ref:ruian:addr" v="70846227"/>
    <tag k="ref:ruian:building" v="70513902"/>
    <tag k="source" v="cuzk:ruian"/>
    <tag k="start_date" v="2013-12-03"/>
  </way>
  <way id="1017449529" version="3" timestamp="2022-04-05T11:34:11Z" changeset="119340017" uid="72020" user="Petr1868">
    <nd ref="9384579870"/>
    <nd ref="9384579869"/>
    <nd ref="9384579868"/>
    <nd ref="9384579867"/>
    <nd ref="9384579870"/>
    <tag k="addr:city" v="Praha 22 - HÃ¡jek"/>
    <tag k="addr:conscriptionnumber" v="241"/>
    <tag k="addr:housenumber" v="241"/>
    <tag k="addr:place" v="HÃ¡jek u UhÅ™Ã­nÄ›vsi"/>
    <tag k="addr:postcode" v="10400"/>
    <tag k="addr:street" v="U MarkÃ©ty"/>
    <tag k="building" v="house"/>
    <tag k="building:flats" v="1"/>
    <tag k="building:levels" v="1"/>
    <tag k="building:ruian:type" v="7"/>
    <tag k="ref:ruian:addr" v="81723644"/>
    <tag k="ref:ruian:building" v="104472618"/>
    <tag k="source" v="cuzk:ruian"/>
    <tag k="start_date" v="2021-03-17"/>
  </way>
  <way id="1017449530" version="3" timestamp="2023-12-01T11:59:27Z" changeset="144659639" uid="25867" user="adamos">
    <nd ref="9384579878"/>
    <nd ref="9384579877"/>
    <nd ref="9384579876"/>
    <nd ref="9384579875"/>
    <nd ref="9384579874"/>
    <nd ref="9384579873"/>
    <nd ref="11387562337"/>
    <nd ref="11387562336"/>
    <nd ref="9384579872"/>
    <nd ref="9384579871"/>
    <nd ref="9384579878"/>
    <tag k="addr:city" v="Praha 22 - HÃ¡jek"/>
    <tag k="addr:conscriptionnumber" v="240"/>
    <tag k="addr:housenumber" v="240"/>
    <tag k="addr:place" v="HÃ¡jek u UhÅ™Ã­nÄ›vsi"/>
    <tag k="addr:postcode" v="10400"/>
    <tag k="addr:street" v="U MarkÃ©ty"/>
    <tag k="building" v="house"/>
    <tag k="building:flats" v="1"/>
    <tag k="building:levels" v="2"/>
    <tag k="building:ruian:type" v="7"/>
    <tag k="ref:ruian:addr" v="81720459"/>
    <tag k="ref:ruian:building" v="104470305"/>
    <tag k="source" v="cuzk:ruian"/>
    <tag k="start_date" v="2021-03-05"/>
  </way>
  <way id="1333193027" version="1" timestamp="2024-11-12T11:23:44Z" changeset="159045807" uid="718054" user="Piskvor">
    <nd ref="12334391466"/>
    <nd ref="11888695693"/>
    <nd ref="415862859"/>
    <tag k="highway" v="residential"/>
    <tag k="name" v="Pod PÅ™ehradou"/>
  </way>
  <way id="1333193029" version="1" timestamp="2024-11-12T11:23:44Z" changeset="159045807" uid="718054" user="Piskvor">
    <nd ref="415862857"/>
    <nd ref="11888695695"/>
    <nd ref="415862858"/>
    <nd ref="11888695694"/>
    <nd ref="12334391467"/>
    <tag k="highway" v="residential"/>
    <tag k="name" v="Pod PÅ™ehradou"/>
  </way>
  <way id="1333193030" version="1" timestamp="2024-11-12T11:23:44Z" changeset="159045807" uid="718054" user="Piskvor">
    <nd ref="11888695697"/>
    <nd ref="415862856"/>
    <nd ref="11888695696"/>
    <nd ref="415862857"/>
    <tag k="highway" v="residential"/>
    <tag k="name" v="Pod PÅ™ehradou"/>
    <tag k="traffic_calming" v="table"/>
  </way>
  <way id="1366300321" version="1" timestamp="2025-03-11T19:32:30Z" changeset="163499661" uid="718054" user="Piskvor">
    <nd ref="7783979"/>
    <nd ref="1634563550"/>
    <nd ref="1634563548"/>
    <nd ref="1634563547"/>
    <nd ref="1634563546"/>
    <nd ref="1634563545"/>
    <tag k="highway" v="unclassified"/>
    <tag k="lanes" v="1"/>
    <tag k="motor_vehicle" v="private"/>
    <tag k="smoothness" v="good"/>
    <tag k="surface" v="asphalt"/>
  </way>
  <way id="1367991741" version="1" timestamp="2025-03-15T22:29:55Z" changeset="163669756" uid="4018695" user="ðŸ‡¨ðŸ‡¿ Roman HornÃ­k">
    <nd ref="34595824"/>
    <nd ref="11294421115"/>
    <nd ref="11294421109"/>
    <nd ref="5103778728"/>
    <nd ref="11294421075"/>
    <nd ref="3934176706"/>
    <nd ref="5103778726"/>
    <nd ref="11294421114"/>
    <nd ref="11294421076"/>
    <nd ref="34595829"/>
    <nd ref="12669074176"/>
    <nd ref="12669074175"/>
    <nd ref="5103778725"/>
    <tag k="highway" v="tertiary"/>
    <tag k="lane_markings" v="no"/>
    <tag k="name" v="Pod MarkÃ©tou"/>
    <tag k="surface" v="asphalt"/>
  </way>
  <way id="1367991742" version="1" timestamp="2025-03-15T22:29:55Z" changeset="163669756" uid="4018695" user="ðŸ‡¨ðŸ‡¿ Roman HornÃ­k">
    <nd ref="12669074177"/>
    <nd ref="34595848"/>
    <tag k="highway" v="tertiary"/>
    <tag k="name" v="Pod MarkÃ©tou"/>
  </way>
  <way id="1367991743" version="1" timestamp="2025-03-15T22:29:55Z" changeset="163669756" uid="4018695" user="ðŸ‡¨ðŸ‡¿ Roman HornÃ­k">
    <nd ref="29447140"/>
    <nd ref="2451180688"/>
    <nd ref="11292623810"/>
    <tag k="highway" v="tertiary"/>
    <tag k="lane_markings" v="no"/>
    <tag k="maxspeed:type" v="CZ:urban50"/>
    <tag k="name" v="Pod Jankovem"/>
    <tag k="surface" v="asphalt"/>
  </way>
  <way id="1369687598" version="1" timestamp="2025-03-20T15:21:39Z" changeset="163867992" uid="11545091" user="VladaC">
    <nd ref="34595820"/>
    <nd ref="12684951577"/>
    <nd ref="34595822"/>
    <tag k="highway" v="tertiary"/>
    <tag k="lane_markings" v="no"/>
    <tag k="name" v="Pod MarkÃ©tou"/>
    <tag k="surface" v="asphalt"/>
  </way>
  <way id="1369687605" version="1" timestamp="2025-03-20T15:21:39Z" changeset="163867992" uid="11545091" user="VladaC">
    <nd ref="3947362662"/>
    <nd ref="12684952638"/>
    <nd ref="12684952637"/>
    <nd ref="12684952636"/>
    <tag k="highway" v="residential"/>
    <tag k="name" v="PÅ™edpolnÃ­"/>
  </way>
  <way id="1369687606" version="1" timestamp="2025-03-20T15:21:39Z" changeset="163867992" uid="11545091" user="VladaC">
    <nd ref="34595820"/>
    <nd ref="3947362662"/>
    <tag k="highway" v="residential"/>
    <tag k="lane_markings" v="no"/>
    <tag k="name" v="PÅ™edpolnÃ­"/>
    <tag k="surface" v="asphalt"/>
  </way>
  <way id="1369687607" version="1" timestamp="2025-03-20T15:21:39Z" changeset="163867992" uid="11545091" user="VladaC">
    <nd ref="34595822"/>
    <nd ref="415862845"/>
    <tag k="highway" v="tertiary"/>
    <tag k="lane_markings" v="no"/>
    <tag k="name" v="Pod MarkÃ©tou"/>
    <tag k="surface" v="asphalt"/>
  </way>
  <way id="1369687608" version="1" timestamp="2025-03-20T15:21:39Z" changeset="163867992" uid="11545091" user="VladaC">
    <nd ref="34595822"/>
    <nd ref="415862846"/>
    <nd ref="11888695706"/>
    <nd ref="415862847"/>
    <nd ref="11888695705"/>
    <nd ref="415862848"/>
    <nd ref="11888695704"/>
    <nd ref="415862849"/>
    <nd ref="11888695703"/>
    <nd ref="415862850"/>
    <tag k="highway" v="residential"/>
    <tag k="name" v="Pod PÅ™ehradou"/>
  </way>

</osm>
