<?xml version="1.0" encoding="UTF-8"?>
<osm version="0.6" generator="Overpass API 0.7.62.5 1bd436f1">
<note>The data included in this document is from www.openstreetmap.org. The data is made available under ODbL.</note>
<meta osm_base="2025-05-18T05:18:36Z" areas="2024-12-31T00:49:33Z"/>

  <node id="350822" lat="53.7455934" lon="-1.6334177" version="10" timestamp="2015-11-13T14:47:16Z" changeset="35285716" uid="2068507" user="Daveymorrisuk">
    <tag k="highway" v="motorway_junction"/>
    <tag k="name" v="Gildersome Interchange"/>
  </node>
  <node id="350831" lat="53.7472778" lon="-1.6321624" version="9" timestamp="2012-07-20T23:15:03Z" changeset="12395814" uid="21264" user="Pobice"/>
  <node id="18485745" lat="53.7485214" lon="-1.6305174" version="6" timestamp="2022-06-16T15:31:59Z" changeset="122469869" uid="14674603" user="ALRam"/>
  <node id="18485751" lat="53.7469514" lon="-1.6260794" version="2" timestamp="2017-01-19T00:34:03Z" changeset="45285977" uid="2330" user="LeedsTracker"/>
  <node id="18577373" lat="53.7460477" lon="-1.6407504" version="7" timestamp="2018-07-09T23:46:00Z" changeset="60555363" uid="2700471" user="JayCBR"/>
  <node id="19033280" lat="53.7492514" lon="-1.6352272" version="9" timestamp="2018-07-09T23:45:59Z" changeset="60555363" uid="2700471" user="JayCBR"/>
  <node id="247761199" lat="53.7469070" lon="-1.6382339" version="10" timestamp="2022-07-10T10:04:38Z" changeset="123425987" uid="178626" user="Rovastar"/>
  <node id="247782109" lat="53.7486358" lon="-1.6369195" version="5" timestamp="2022-07-10T10:04:38Z" changeset="123425987" uid="178626" user="Rovastar"/>
  <node id="269189809" lat="53.7540526" lon="-1.6149444" version="2" timestamp="2009-05-15T20:46:23Z" changeset="1203784" uid="106831" user="sc71">
    <tag k="created_by" v="JOSM"/>
  </node>
  <node id="350215638" lat="53.7500372" lon="-1.6343175" version="5" timestamp="2018-07-09T23:46:00Z" changeset="60555363" uid="2700471" user="JayCBR"/>
  <node id="350219738" lat="53.7476594" lon="-1.6383854" version="3" timestamp="2012-01-07T23:54:22Z" changeset="10327164" uid="2330" user="LeedsTracker"/>
  <node id="350219749" lat="53.7474635" lon="-1.6374286" version="3" timestamp="2012-01-07T23:54:22Z" changeset="10327164" uid="2330" user="LeedsTracker"/>
  <node id="350221261" lat="53.7450756" lon="-1.6290340" version="2" timestamp="2009-03-13T14:35:28Z" changeset="803051" uid="90757" user="MaFt"/>
  <node id="350221266" lat="53.7454089" lon="-1.6292352" version="2" timestamp="2011-01-21T20:44:00Z" changeset="7044389" uid="21264" user="Pobice"/>
  <node id="360837693" lat="53.7630502" lon="-1.6402110" version="9" timestamp="2015-10-10T23:43:54Z" changeset="34560139" uid="2330" user="LeedsTracker"/>
  <node id="386215930" lat="53.7493042" lon="-1.6353298" version="5" timestamp="2018-07-09T23:46:00Z" changeset="60555363" uid="2700471" user="JayCBR"/>
  <node id="392097264" lat="53.7487494" lon="-1.6361648" version="2" timestamp="2009-05-13T20:13:03Z" changeset="1178800" uid="21264" user="Pobice"/>
  <node id="401769934" lat="53.7640203" lon="-1.6404435" version="2" timestamp="2015-10-10T23:43:54Z" changeset="34560139" uid="2330" user="LeedsTracker"/>
  <node id="401769957" lat="53.7689489" lon="-1.6360294" version="2" timestamp="2015-10-10T23:43:54Z" changeset="34560139" uid="2330" user="LeedsTracker"/>
  <node id="401770006" lat="53.7632516" lon="-1.6402558" version="2" timestamp="2015-10-10T23:43:54Z" changeset="34560139" uid="2330" user="LeedsTracker"/>
  <node id="413252711" lat="53.7482766" lon="-1.6366348" version="3" timestamp="2022-06-12T22:19:35Z" changeset="122299527" uid="13341565" user="Falsernet"/>
  <node id="413408961" lat="53.7508476" lon="-1.6386241" version="2" timestamp="2016-01-03T19:23:22Z" changeset="36345608" uid="45399" user="pmailkeey"/>
  <node id="413408971" lat="53.7502411" lon="-1.6356832" version="2" timestamp="2016-01-03T19:29:39Z" changeset="36345709" uid="45399" user="pmailkeey"/>
  <node id="413408990" lat="53.7497009" lon="-1.6389765" version="2" timestamp="2012-12-01T15:51:39Z" changeset="14113249" uid="21264" user="Pobice"/>
  <node id="441334922" lat="53.7683431" lon="-1.5975093" version="3" timestamp="2014-03-19T20:12:52Z" changeset="21198996" uid="21264" user="Pobice"/>
  <node id="1599672793" lat="53.7624385" lon="-1.5991749" version="1" timestamp="2012-01-21T10:15:29Z" changeset="10453575" uid="5926" user="c2r"/>
  <node id="2924576319" lat="53.7488811" lon="-1.6194819" version="1" timestamp="2014-06-20T11:27:25Z" changeset="23042114" uid="1639277" user="The Trautbec"/>
  <node id="3925906313" lat="53.7507890" lon="-1.6382201" version="1" timestamp="2016-01-03T19:23:21Z" changeset="36345608" uid="45399" user="pmailkeey"/>
  <node id="5750379385" lat="53.7477759" lon="-1.6376574" version="1" timestamp="2018-07-09T23:45:55Z" changeset="60555363" uid="2700471" user="JayCBR"/>
  <node id="5750379409" lat="53.7494934" lon="-1.6355912" version="1" timestamp="2018-07-09T23:45:55Z" changeset="60555363" uid="2700471" user="JayCBR"/>
  <way id="3747666" version="20" timestamp="2024-01-14T13:44:54Z" changeset="146245413" uid="592" user="JonS">
    <nd ref="18577373"/>
    <nd ref="4552430305"/>
    <nd ref="1581832299"/>
    <nd ref="354055953"/>
    <nd ref="18577374"/>
    <nd ref="1581832333"/>
    <nd ref="354055955"/>
    <nd ref="3038983900"/>
    <nd ref="4552430307"/>
    <nd ref="18577375"/>
    <nd ref="18577364"/>
    <nd ref="1113758761"/>
    <nd ref="270839148"/>
    <nd ref="18485915"/>
    <nd ref="5750379387"/>
    <nd ref="5750379385"/>
    <tag k="destination:lanes" v="Bradford (A650);Leeds (M621)|Leeds A62"/>
    <tag k="foot" v="no"/>
    <tag k="highway" v="trunk"/>
    <tag k="lanes" v="2"/>
    <tag k="lit" v="yes"/>
    <tag k="maxheight" v="default"/>
    <tag k="maxspeed" v="30 mph"/>
    <tag k="name" v="Gelderd Road"/>
    <tag k="oneway" v="yes"/>
    <tag k="ref" v="A62"/>
    <tag k="sidewalk" v="no"/>
    <tag k="surface" v="asphalt"/>
    <tag k="turn:lanes" v="through|through;slight_right"/>
  </way>
  <way id="3747667" version="16" timestamp="2019-07-02T15:14:28Z" changeset="71826108" uid="7409020" user="krinkov76239">
    <nd ref="18578400"/>
    <nd ref="4552427275"/>
    <nd ref="4552427272"/>
    <nd ref="1593485731"/>
    <nd ref="5750379393"/>
    <nd ref="5750379417"/>
    <nd ref="18485918"/>
    <tag k="destination:lanes" v="Ponterfract (M62)|Batley (A62)|Manchester (M62);Batley (A62)"/>
    <tag k="highway" v="trunk"/>
    <tag k="lanes" v="3"/>
    <tag k="lit" v="yes"/>
    <tag k="maxspeed" v="30 mph"/>
    <tag k="mkgmap:flare-check" v="no"/>
    <tag k="oneway" v="yes"/>
    <tag k="surface" v="asphalt"/>
  </way>
  <way id="3805729" version="17" timestamp="2019-07-02T15:14:28Z" changeset="71826108" uid="7409020" user="krinkov76239">
    <nd ref="350215638"/>
    <nd ref="2044071326"/>
    <nd ref="1593485817"/>
    <nd ref="19033286"/>
    <nd ref="4552427274"/>
    <tag k="destination:lanes" v="Morley (A650)|Leeds (M621);Morley (A650)|Leeds (M621);Manchester;Halifax;Batley (A62)"/>
    <tag k="highway" v="trunk"/>
    <tag k="junction" v="circular"/>
    <tag k="lanes" v="3"/>
    <tag k="lit" v="yes"/>
    <tag k="maxspeed" v="30 mph"/>
    <tag k="oneway" v="yes"/>
    <tag k="sidewalk" v="mapped"/>
    <tag k="surface" v="asphalt"/>
  </way>
  <way id="4374190" version="18" timestamp="2022-06-16T15:31:59Z" changeset="122469869" uid="14674603" user="ALRam">
    <nd ref="2632713180"/>
    <nd ref="18485744"/>
    <nd ref="6590717995"/>
    <nd ref="1593485728"/>
    <nd ref="9822986960"/>
    <tag k="highway" v="primary"/>
    <tag k="lanes" v="2"/>
    <tag k="lit" v="yes"/>
    <tag k="maxspeed" v="30 mph"/>
    <tag k="name" v="Wakefield Road"/>
    <tag k="oneway" v="yes"/>
    <tag k="ref" v="A650"/>
    <tag k="source:name" v="OS_OpenData_Locator"/>
    <tag k="surface" v="asphalt"/>
  </way>
  <way id="22959913" version="15" timestamp="2024-01-14T14:13:27Z" changeset="146246345" uid="592" user="JonS">
    <nd ref="21099197"/>
    <nd ref="247384018"/>
    <nd ref="5484605816"/>
    <nd ref="403206579"/>
    <nd ref="7558440053"/>
    <nd ref="705970905"/>
    <nd ref="705970908"/>
    <nd ref="1847205622"/>
    <nd ref="403206568"/>
    <nd ref="3329377650"/>
    <nd ref="269189809"/>
    <tag k="highway" v="secondary"/>
    <tag k="lanes" v="2"/>
    <tag k="lit" v="yes"/>
    <tag k="maxspeed" v="30 mph"/>
    <tag k="name" v="Asquith Avenue"/>
    <tag k="ref" v="B6126"/>
    <tag k="surface" v="asphalt"/>
  </way>
  <way id="22982969" version="25" timestamp="2022-10-28T19:14:02Z" changeset="128188142" uid="13666626" user="RedAuburn">
    <nd ref="350822"/>
    <nd ref="247761200"/>
    <nd ref="270839171"/>
    <nd ref="9878592494"/>
    <nd ref="9878592493"/>
    <nd ref="247761199"/>
    <tag k="highway" v="motorway"/>
    <tag k="lanes" v="2"/>
    <tag k="lit" v="yes"/>
    <tag k="maxspeed" v="70 mph"/>
    <tag k="maxspeed:type" v="GB:motorway"/>
    <tag k="national_highways:area" v="12"/>
    <tag k="oneway" v="yes"/>
    <tag k="operator" v="National Highways"/>
    <tag k="operator:wikidata" v="Q5760006"/>
    <tag k="ref" v="M621"/>
    <tag k="surface" v="asphalt"/>
  </way>
  <way id="22984866" version="23" timestamp="2022-10-28T19:14:02Z" changeset="128188142" uid="13666626" user="RedAuburn">
    <nd ref="321854"/>
    <nd ref="1581832335"/>
    <nd ref="1581832345"/>
    <nd ref="1581832371"/>
    <nd ref="247782204"/>
    <nd ref="247782203"/>
    <nd ref="247782202"/>
    <nd ref="7738994952"/>
    <nd ref="2632708922"/>
    <tag k="destination:ref" v="A62"/>
    <tag k="highway" v="motorway_link"/>
    <tag k="lanes" v="2"/>
    <tag k="maxspeed" v="70 mph"/>
    <tag k="maxspeed:type" v="GB:motorway"/>
    <tag k="national_highways:area" v="12"/>
    <tag k="oneway" v="yes"/>
    <tag k="operator" v="National Highways"/>
    <tag k="operator:wikidata" v="Q5760006"/>
    <tag k="ref" v="M62"/>
    <tag k="surface" v="asphalt"/>
  </way>
  <way id="22984883" version="24" timestamp="2022-10-28T19:14:02Z" changeset="128188142" uid="13666626" user="RedAuburn">
    <nd ref="247782277"/>
    <nd ref="9878592485"/>
    <nd ref="9878592484"/>
    <nd ref="9813324561"/>
    <nd ref="2632708915"/>
    <nd ref="247782278"/>
    <nd ref="247782279"/>
    <tag k="destination" v="Hull;Pontefract"/>
    <tag k="highway" v="motorway_link"/>
    <tag k="lanes" v="1"/>
    <tag k="lit" v="yes"/>
    <tag k="maxspeed" v="70 mph"/>
    <tag k="maxspeed:type" v="GB:motorway"/>
    <tag k="national_highways:area" v="12"/>
    <tag k="oneway" v="yes"/>
    <tag k="operator" v="National Highways"/>
    <tag k="operator:wikidata" v="Q5760006"/>
    <tag k="surface" v="asphalt"/>
  </way>
  <way id="24772016" version="4" timestamp="2018-03-18T17:30:24Z" changeset="57296612" uid="3316592" user="Arthtoach">
    <nd ref="269189809"/>
    <nd ref="269189808"/>
    <tag k="bridge" v="yes"/>
    <tag k="highway" v="secondary"/>
    <tag k="layer" v="1"/>
    <tag k="lit" v="yes"/>
    <tag k="maxspeed" v="30 mph"/>
    <tag k="name" v="Asquith Avenue"/>
    <tag k="ref" v="B6126"/>
  </way>
  <way id="24924230" version="11" timestamp="2022-06-16T15:31:59Z" changeset="122469869" uid="14674603" user="ALRam">
    <nd ref="9822986961"/>
    <nd ref="1593485717"/>
    <nd ref="2632708920"/>
    <nd ref="1593485730"/>
    <nd ref="1593485745"/>
    <tag k="highway" v="primary"/>
    <tag k="lanes" v="2"/>
    <tag k="lit" v="yes"/>
    <tag k="maxspeed" v="30 mph"/>
    <tag k="name" v="Wakefield Road"/>
    <tag k="oneway" v="yes"/>
    <tag k="ref" v="A650"/>
    <tag k="source" v="Bing; Survey"/>
    <tag k="surface" v="asphalt"/>
  </way>
  <way id="24924231" version="16" timestamp="2022-10-28T19:14:06Z" changeset="128188142" uid="13666626" user="RedAuburn">
    <nd ref="247761199"/>
    <nd ref="270839170"/>
    <tag k="bridge" v="yes"/>
    <tag k="highway" v="motorway"/>
    <tag k="lanes" v="2"/>
    <tag k="layer" v="1"/>
    <tag k="lit" v="yes"/>
    <tag k="maxspeed" v="70 mph"/>
    <tag k="maxspeed:type" v="GB:motorway"/>
    <tag k="national_highways:area" v="12"/>
    <tag k="oneway" v="yes"/>
    <tag k="operator" v="National Highways"/>
    <tag k="operator:wikidata" v="Q5760006"/>
    <tag k="ref" v="M621"/>
    <tag k="surface" v="concrete"/>
  </way>
  <way id="27392296" version="13" timestamp="2022-11-19T23:43:44Z" changeset="129141066" uid="25766" user="PaulT">
    <nd ref="401770163"/>
    <nd ref="401769905"/>
    <nd ref="360837711"/>
    <nd ref="401770167"/>
    <nd ref="401769894"/>
    <nd ref="300706755"/>
    <nd ref="401770178"/>
    <nd ref="401769897"/>
    <nd ref="401770192"/>
    <nd ref="401769874"/>
    <nd ref="401769846"/>
    <nd ref="401769843"/>
    <nd ref="401770111"/>
    <nd ref="2068761865"/>
    <nd ref="2924572771"/>
    <nd ref="8994768260"/>
    <nd ref="1916265427"/>
    <tag k="highway" v="secondary"/>
    <tag k="maxspeed" v="30 mph"/>
    <tag k="name" v="Church Street"/>
    <tag k="ref" v="B6126"/>
    <tag k="sidewalk" v="both"/>
    <tag k="surface" v="asphalt"/>
  </way>
  <way id="28047007" version="18" timestamp="2022-10-28T19:14:11Z" changeset="128188142" uid="13666626" user="RedAuburn">
    <nd ref="350822"/>
    <nd ref="1359853608"/>
    <nd ref="1359853618"/>
    <nd ref="18577380"/>
    <nd ref="1280611312"/>
    <nd ref="18577379"/>
    <nd ref="1280611341"/>
    <nd ref="18577378"/>
    <nd ref="1280611265"/>
    <nd ref="7738994951"/>
    <nd ref="18577377"/>
    <tag k="highway" v="motorway_link"/>
    <tag k="lanes" v="2"/>
    <tag k="lit" v="yes"/>
    <tag k="maxspeed" v="70 mph"/>
    <tag k="maxspeed:type" v="GB:motorway"/>
    <tag k="national_highways:area" v="12"/>
    <tag k="not:name" v="Gelderd Road"/>
    <tag k="not:name:note" v="The OS Opendata Locator claims that Gelderd Road is in this space. It's definately the M62 slip road! Gelderd road is further west and runs NE to SW"/>
    <tag k="oneway" v="yes"/>
    <tag k="operator" v="National Highways"/>
    <tag k="operator:wikidata" v="Q5760006"/>
    <tag k="ref" v="M621"/>
    <tag k="surface" v="asphalt"/>
  </way>
  <way id="28047009" version="21" timestamp="2022-10-30T23:33:33Z" changeset="128267492" uid="3560" user="Firefishy">
    <nd ref="350831"/>
    <nd ref="1832620222"/>
    <nd ref="1832620221"/>
    <nd ref="774704221"/>
    <nd ref="1832620220"/>
    <nd ref="350832"/>
    <nd ref="1832620219"/>
    <nd ref="350833"/>
    <nd ref="774704219"/>
    <nd ref="350838"/>
    <nd ref="774704215"/>
    <nd ref="403206563"/>
    <nd ref="2926391804"/>
    <nd ref="350839"/>
    <nd ref="774704213"/>
    <nd ref="350840"/>
    <nd ref="774704223"/>
    <nd ref="350841"/>
    <nd ref="718980185"/>
    <nd ref="350843"/>
    <nd ref="350842"/>
    <nd ref="1599676038"/>
    <nd ref="350845"/>
    <nd ref="403206573"/>
    <nd ref="2926391805"/>
    <nd ref="1599672827"/>
    <nd ref="1599672821"/>
    <nd ref="269189811"/>
    <nd ref="350874"/>
    <nd ref="1161856159"/>
    <nd ref="350876"/>
    <nd ref="350878"/>
    <nd ref="1280611269"/>
    <nd ref="350880"/>
    <nd ref="350882"/>
    <nd ref="5515852004"/>
    <nd ref="350884"/>
    <nd ref="1599672790"/>
    <tag k="carriageway_ref" v="A"/>
    <tag k="highway" v="motorway"/>
    <tag k="lanes" v="2"/>
    <tag k="lit" v="yes"/>
    <tag k="maxspeed" v="70 mph"/>
    <tag k="national_highways:area" v="12"/>
    <tag k="oneway" v="yes"/>
    <tag k="operator" v="National Highways"/>
    <tag k="operator:wikidata" v="Q5760006"/>
    <tag k="ref" v="M621"/>
    <tag k="surface" v="asphalt"/>
  </way>
  <way id="31416532" version="15" timestamp="2019-07-02T15:14:28Z" changeset="71826108" uid="7409020" user="krinkov76239">
    <nd ref="5467877496"/>
    <nd ref="5750379407"/>
    <nd ref="392133679"/>
    <nd ref="350215638"/>
    <tag k="highway" v="primary"/>
    <tag k="lanes" v="2"/>
    <tag k="lit" v="yes"/>
    <tag k="maxspeed" v="30 mph"/>
    <tag k="mkgmap:flare-check" v="no"/>
    <tag k="name" v="Gelderd Road"/>
    <tag k="oneway" v="yes"/>
    <tag k="ref" v="A62"/>
    <tag k="surface" v="asphalt"/>
  </way>
  <way id="31416811" version="13" timestamp="2022-10-28T19:14:16Z" changeset="128188162" uid="13666626" user="RedAuburn">
    <nd ref="350219749"/>
    <nd ref="350219739"/>
    <tag k="bridge" v="yes"/>
    <tag k="carriageway_ref" v="B"/>
    <tag k="construction:active_traffic_management" v="yes"/>
    <tag k="highway" v="motorway"/>
    <tag k="int_ref" v="E 20;E 22"/>
    <tag k="lanes" v="3"/>
    <tag k="layer" v="1"/>
    <tag k="maxspeed" v="70 mph"/>
    <tag k="maxspeed:type" v="GB:motorway"/>
    <tag k="maxspeed:variable" v="yes"/>
    <tag k="national_highways:area" v="12"/>
    <tag k="oneway" v="yes"/>
    <tag k="operator" v="National Highways"/>
    <tag k="operator:wikidata" v="Q5760006"/>
    <tag k="ref" v="M62"/>
    <tag k="surface" v="concrete"/>
  </way>
  <way id="31416817" version="13" timestamp="2022-10-28T19:14:16Z" changeset="128188162" uid="13666626" user="RedAuburn">
    <nd ref="350219738"/>
    <nd ref="350219745"/>
    <tag k="bridge" v="yes"/>
    <tag k="carriageway_ref" v="A"/>
    <tag k="construction:active_traffic_management" v="yes"/>
    <tag k="highway" v="motorway"/>
    <tag k="int_ref" v="E 20;E 22"/>
    <tag k="lanes" v="3"/>
    <tag k="layer" v="1"/>
    <tag k="maxspeed" v="70 mph"/>
    <tag k="maxspeed:type" v="GB:motorway"/>
    <tag k="maxspeed:variable" v="yes"/>
    <tag k="national_highways:area" v="12"/>
    <tag k="oneway" v="yes"/>
    <tag k="operator" v="National Highways"/>
    <tag k="operator:wikidata" v="Q5760006"/>
    <tag k="ref" v="M62"/>
    <tag k="surface" v="concrete"/>
  </way>
  <way id="31416819" version="16" timestamp="2022-10-28T19:14:16Z" changeset="128188162" uid="13666626" user="RedAuburn">
    <nd ref="350219745"/>
    <nd ref="321861"/>
    <nd ref="1581832408"/>
    <nd ref="270839155"/>
    <nd ref="1581832381"/>
    <nd ref="1581832376"/>
    <nd ref="1581832343"/>
    <nd ref="1581832305"/>
    <nd ref="1581832301"/>
    <nd ref="321855"/>
    <nd ref="321851"/>
    <nd ref="350221266"/>
    <tag k="carriageway_ref" v="A"/>
    <tag k="construction:active_traffic_management" v="yes"/>
    <tag k="highway" v="motorway"/>
    <tag k="int_ref" v="E 20;E 22"/>
    <tag k="lanes" v="3"/>
    <tag k="lit" v="yes"/>
    <tag k="maxspeed" v="70 mph"/>
    <tag k="maxspeed:type" v="GB:motorway"/>
    <tag k="maxspeed:variable" v="yes"/>
    <tag k="national_highways:area" v="12"/>
    <tag k="oneway" v="yes"/>
    <tag k="operator" v="National Highways"/>
    <tag k="operator:wikidata" v="Q5760006"/>
    <tag k="ref" v="M62"/>
    <tag k="surface" v="asphalt"/>
  </way>
  <way id="31416822" version="11" timestamp="2022-10-28T19:14:16Z" changeset="128188162" uid="13666626" user="RedAuburn">
    <nd ref="247782109"/>
    <nd ref="9878592489"/>
    <nd ref="9878592490"/>
    <nd ref="350219730"/>
    <tag k="bridge" v="yes"/>
    <tag k="highway" v="motorway"/>
    <tag k="lanes" v="2"/>
    <tag k="layer" v="1"/>
    <tag k="lit" v="yes"/>
    <tag k="maxspeed" v="70 mph"/>
    <tag k="national_highways:area" v="12"/>
    <tag k="oneway" v="yes"/>
    <tag k="operator" v="National Highways"/>
    <tag k="operator:wikidata" v="Q5760006"/>
    <tag k="ref" v="M621"/>
    <tag k="surface" v="concrete"/>
  </way>
  <way id="31416826" version="12" timestamp="2022-10-28T19:14:16Z" changeset="128188162" uid="13666626" user="RedAuburn">
    <nd ref="350219730"/>
    <nd ref="9878592491"/>
    <nd ref="247782110"/>
    <nd ref="9878592492"/>
    <nd ref="774704177"/>
    <nd ref="247782111"/>
    <nd ref="350831"/>
    <tag k="highway" v="motorway"/>
    <tag k="lanes" v="2"/>
    <tag k="lit" v="yes"/>
    <tag k="maxspeed" v="70 mph"/>
    <tag k="national_highways:area" v="12"/>
    <tag k="oneway" v="yes"/>
    <tag k="operator" v="National Highways"/>
    <tag k="operator:wikidata" v="Q5760006"/>
    <tag k="ref" v="M621"/>
    <tag k="surface" v="asphalt"/>
  </way>
  <way id="31416960" version="15" timestamp="2022-10-30T23:33:33Z" changeset="128267492" uid="3560" user="Firefishy">
    <nd ref="350221266"/>
    <nd ref="350221270"/>
    <tag k="bridge" v="yes"/>
    <tag k="carriageway_ref" v="A"/>
    <tag k="construction:active_traffic_management" v="yes"/>
    <tag k="highway" v="motorway"/>
    <tag k="int_ref" v="E 20;E 22"/>
    <tag k="lanes" v="3"/>
    <tag k="layer" v="1"/>
    <tag k="maxspeed" v="70 mph"/>
    <tag k="maxspeed:type" v="GB:motorway"/>
    <tag k="maxspeed:variable" v="yes"/>
    <tag k="national_highways:area" v="12"/>
    <tag k="oneway" v="yes"/>
    <tag k="operator" v="National Highways"/>
    <tag k="operator:wikidata" v="Q5760006"/>
    <tag k="ref" v="M62"/>
    <tag k="surface" v="asphalt"/>
  </way>
  <way id="31416963" version="14" timestamp="2022-10-30T23:33:33Z" changeset="128267492" uid="3560" user="Firefishy">
    <nd ref="350221261"/>
    <nd ref="321850"/>
    <tag k="bridge" v="yes"/>
    <tag k="carriageway_ref" v="B"/>
    <tag k="construction:active_traffic_management" v="yes"/>
    <tag k="highway" v="motorway"/>
    <tag k="int_ref" v="E 20;E 22"/>
    <tag k="lanes" v="3"/>
    <tag k="layer" v="1"/>
    <tag k="maxspeed" v="70 mph"/>
    <tag k="maxspeed:type" v="GB:motorway"/>
    <tag k="maxspeed:variable" v="yes"/>
    <tag k="national_highways:area" v="12"/>
    <tag k="oneway" v="yes"/>
    <tag k="operator" v="National Highways"/>
    <tag k="operator:wikidata" v="Q5760006"/>
    <tag k="ref" v="M62"/>
    <tag k="surface" v="asphalt"/>
  </way>
  <way id="31416964" version="17" timestamp="2022-10-28T19:14:16Z" changeset="128188162" uid="13666626" user="RedAuburn">
    <nd ref="321850"/>
    <nd ref="1581832262"/>
    <nd ref="1581832292"/>
    <nd ref="1581832296"/>
    <nd ref="321852"/>
    <nd ref="321854"/>
    <nd ref="1581832337"/>
    <nd ref="1581832365"/>
    <nd ref="1581832374"/>
    <nd ref="270839154"/>
    <nd ref="1581832385"/>
    <nd ref="321860"/>
    <nd ref="350219749"/>
    <tag k="carriageway_ref" v="B"/>
    <tag k="construction:active_traffic_management" v="yes"/>
    <tag k="highway" v="motorway"/>
    <tag k="int_ref" v="E 20;E 22"/>
    <tag k="lanes" v="3"/>
    <tag k="lit" v="yes"/>
    <tag k="maxspeed" v="70 mph"/>
    <tag k="maxspeed:type" v="GB:motorway"/>
    <tag k="maxspeed:variable" v="yes"/>
    <tag k="national_highways:area" v="12"/>
    <tag k="oneway" v="yes"/>
    <tag k="operator" v="National Highways"/>
    <tag k="operator:wikidata" v="Q5760006"/>
    <tag k="ref" v="M62"/>
    <tag k="surface" v="asphalt"/>
  </way>
  <way id="31876164" version="19" timestamp="2022-10-30T23:33:33Z" changeset="128267492" uid="3560" user="Firefishy">
    <nd ref="2924576319"/>
    <nd ref="718980177"/>
    <nd ref="350837"/>
    <nd ref="350836"/>
    <nd ref="350835"/>
    <nd ref="1591475675"/>
    <nd ref="1591475673"/>
    <nd ref="247761611"/>
    <nd ref="350823"/>
    <nd ref="2431259722"/>
    <tag k="carriageway_ref" v="B"/>
    <tag k="highway" v="motorway"/>
    <tag k="lanes" v="2"/>
    <tag k="lit" v="yes"/>
    <tag k="maxspeed" v="70 mph"/>
    <tag k="maxspeed:type" v="GB:motorway"/>
    <tag k="national_highways:area" v="12"/>
    <tag k="oneway" v="yes"/>
    <tag k="operator" v="National Highways"/>
    <tag k="operator:wikidata" v="Q5760006"/>
    <tag k="ref" v="M621"/>
    <tag k="surface" v="asphalt"/>
  </way>
  <way id="32142216" version="9" timestamp="2023-03-18T14:25:18Z" changeset="133825069" uid="313905" user="Nette">
    <nd ref="360837693"/>
    <nd ref="5405504885"/>
    <nd ref="401770142"/>
    <nd ref="401769917"/>
    <nd ref="3781488731"/>
    <nd ref="360837696"/>
    <nd ref="360837699"/>
    <nd ref="3781488688"/>
    <nd ref="360837701"/>
    <nd ref="3781488682"/>
    <nd ref="3781488677"/>
    <nd ref="360837705"/>
    <nd ref="3781488671"/>
    <nd ref="360837706"/>
    <nd ref="401769884"/>
    <nd ref="5405504886"/>
    <nd ref="360837708"/>
    <nd ref="401770163"/>
    <tag k="highway" v="secondary"/>
    <tag k="lanes" v="2"/>
    <tag k="maxspeed" v="30 mph"/>
    <tag k="name" v="Scott Green"/>
    <tag k="ref" v="B6126"/>
    <tag k="surface" v="asphalt"/>
  </way>
  <way id="32142260" version="13" timestamp="2024-01-14T12:30:04Z" changeset="146241085" uid="592" user="JonS">
    <nd ref="3925712029"/>
    <nd ref="403097223"/>
    <nd ref="403097242"/>
    <nd ref="410937088"/>
    <nd ref="403097253"/>
    <nd ref="309127220"/>
    <nd ref="401769802"/>
    <nd ref="3632290680"/>
    <nd ref="403097222"/>
    <nd ref="401769806"/>
    <nd ref="401769817"/>
    <nd ref="401769763"/>
    <nd ref="401769769"/>
    <nd ref="410920453"/>
    <nd ref="309127222"/>
    <nd ref="401349027"/>
    <nd ref="410920458"/>
    <nd ref="401769760"/>
    <nd ref="360843108"/>
    <nd ref="2068675313"/>
    <nd ref="410920474"/>
    <nd ref="309127218"/>
    <nd ref="309127217"/>
    <nd ref="401769711"/>
    <tag k="highway" v="secondary"/>
    <tag k="lanes" v="2"/>
    <tag k="maxspeed" v="20 mph"/>
    <tag k="name" v="Town Street"/>
    <tag k="ref" v="B6126"/>
    <tag k="surface" v="asphalt"/>
  </way>
  <way id="32142352" version="4" timestamp="2016-03-09T00:32:04Z" changeset="37698494" uid="2330" user="LeedsTracker">
    <nd ref="360841004"/>
    <nd ref="360841005"/>
    <nd ref="401349106"/>
    <nd ref="360841006"/>
    <nd ref="4049360007"/>
    <nd ref="360841007"/>
    <nd ref="4049360003"/>
    <nd ref="360841009"/>
    <nd ref="4049360002"/>
    <nd ref="360841010"/>
    <nd ref="4049360004"/>
    <nd ref="360841011"/>
    <nd ref="3632290899"/>
    <nd ref="360840501"/>
    <tag k="highway" v="residential"/>
    <tag k="name" v="Reedsdale Gardens"/>
  </way>
  <way id="32142378" version="3" timestamp="2018-03-11T16:03:04Z" changeset="57086047" uid="3316592" user="Arthtoach">
    <nd ref="360841575"/>
    <nd ref="360841579"/>
    <nd ref="5471144237"/>
    <nd ref="5471144238"/>
    <nd ref="5471144239"/>
    <nd ref="5471144240"/>
    <nd ref="360841580"/>
    <nd ref="360841582"/>
    <tag k="highway" v="residential"/>
    <tag k="name" v="Briarfield Gardens"/>
    <tag k="not:name" v="Brierfield Gardens"/>
    <tag k="not:name:note" v="The sign at the Junction with Street Lane is &quot;Briarfield Gardens&quot; with an &quot;a&quot; not &quot;e&quot;"/>
  </way>
  <way id="32142482" version="11" timestamp="2024-06-17T20:17:25Z" changeset="152818627" uid="20112387" user="Anton Khorev (repair)">
    <nd ref="360843108"/>
    <nd ref="401769744"/>
    <nd ref="401769734"/>
    <nd ref="401769720"/>
    <nd ref="401349003"/>
    <nd ref="401348998"/>
    <nd ref="401769728"/>
    <nd ref="360843117"/>
    <nd ref="360843122"/>
    <tag k="created_by" v="Potlatch 0.10f"/>
    <tag k="highway" v="tertiary"/>
    <tag k="name" v="College Road"/>
  </way>
  <way id="32142522" version="10" timestamp="2021-07-16T08:47:48Z" changeset="108102023" uid="10192134" user="mathpras">
    <nd ref="401349120"/>
    <nd ref="6590223010"/>
    <nd ref="401349119"/>
    <nd ref="401349118"/>
    <nd ref="4617406137"/>
    <nd ref="401349117"/>
    <nd ref="8315082545"/>
    <nd ref="8646245147"/>
    <nd ref="401349116"/>
    <nd ref="4617406135"/>
    <nd ref="401349115"/>
    <nd ref="4617406132"/>
    <nd ref="8925954950"/>
    <nd ref="8370080345"/>
    <nd ref="7291161243"/>
    <nd ref="6590223016"/>
    <nd ref="401349114"/>
    <nd ref="4617406131"/>
    <nd ref="6784440270"/>
    <nd ref="360843557"/>
    <nd ref="360843562"/>
    <tag k="highway" v="unclassified"/>
    <tag k="name" v="Forsyth Gelderd Point"/>
  </way>
  <way id="33757425" version="14" timestamp="2024-01-14T14:07:20Z" changeset="146246314" uid="592" user="JonS">
    <nd ref="386215930"/>
    <nd ref="1593485819"/>
    <nd ref="19033282"/>
    <tag k="destination" v="Leeds"/>
    <tag k="foot" v="no"/>
    <tag k="highway" v="primary"/>
    <tag k="lanes" v="2"/>
    <tag k="lit" v="yes"/>
    <tag k="maxspeed" v="30 mph"/>
    <tag k="name" v="Gelderd Road"/>
    <tag k="oneway" v="yes"/>
    <tag k="ref" v="A62"/>
    <tag k="sidewalk" v="no"/>
    <tag k="surface" v="asphalt"/>
  </way>
  <way id="33757426" version="11" timestamp="2019-07-02T15:14:28Z" changeset="71826108" uid="7409020" user="krinkov76239">
    <nd ref="5467877496"/>
    <nd ref="5750379408"/>
    <nd ref="5750379410"/>
    <nd ref="1593485822"/>
    <nd ref="4552427274"/>
    <tag k="highway" v="primary_link"/>
    <tag k="lanes" v="2"/>
    <tag k="lit" v="yes"/>
    <tag k="maxspeed" v="30 mph"/>
    <tag k="mkgmap:flare-check" v="no"/>
    <tag k="motorcar" v="yes"/>
    <tag k="oneway" v="yes"/>
    <tag k="surface" v="asphalt"/>
  </way>
  <way id="34185975" version="12" timestamp="2019-07-02T15:14:28Z" changeset="71826108" uid="7409020" user="krinkov76239">
    <nd ref="19033282"/>
    <nd ref="2044071334"/>
    <nd ref="21099203"/>
    <tag k="destination" v="Leeds"/>
    <tag k="highway" v="primary"/>
    <tag k="lanes" v="2"/>
    <tag k="lit" v="yes"/>
    <tag k="maxspeed" v="30 mph"/>
    <tag k="mkgmap:flare-check" v="no"/>
    <tag k="name" v="Gelderd Road"/>
    <tag k="oneway" v="yes"/>
    <tag k="ref" v="A62"/>
    <tag k="surface" v="asphalt"/>
  </way>
  <way id="34185976" version="9" timestamp="2019-07-02T15:14:28Z" changeset="71826108" uid="7409020" user="krinkov76239">
    <nd ref="350215638"/>
    <nd ref="1593485769"/>
    <nd ref="19033280"/>
    <tag k="highway" v="primary"/>
    <tag k="lanes" v="2"/>
    <tag k="lit" v="yes"/>
    <tag k="maxspeed" v="30 mph"/>
    <tag k="name" v="Gelderd Road"/>
    <tag k="oneway" v="yes"/>
    <tag k="ref" v="A62"/>
    <tag k="sidewalk" v="mapped"/>
    <tag k="surface" v="asphalt"/>
  </way>
  <way id="34185977" version="15" timestamp="2023-12-24T19:17:03Z" changeset="145478199" uid="387349" user="indofraiser">
    <nd ref="19033280"/>
    <nd ref="18485918"/>
    <tag k="foot" v="no"/>
    <tag k="highway" v="primary"/>
    <tag k="lanes" v="2"/>
    <tag k="lit" v="yes"/>
    <tag k="maxspeed" v="30 mph"/>
    <tag k="name" v="Gelderd Road"/>
    <tag k="oneway" v="yes"/>
    <tag k="ref" v="A62"/>
    <tag k="sidewalk" v="left"/>
    <tag k="surface" v="asphalt"/>
  </way>
  <way id="34185978" version="10" timestamp="2019-07-02T15:14:28Z" changeset="71826108" uid="7409020" user="krinkov76239">
    <nd ref="19033280"/>
    <nd ref="386215930"/>
    <tag k="destination:lanes" v="Bradford (A650)|Morley (A650);Leeds (A62)"/>
    <tag k="highway" v="trunk"/>
    <tag k="junction" v="circular"/>
    <tag k="lanes" v="2"/>
    <tag k="lit" v="yes"/>
    <tag k="maxspeed" v="30 mph"/>
    <tag k="oneway" v="yes"/>
    <tag k="surface" v="asphalt"/>
  </way>
  <way id="34185980" version="12" timestamp="2019-07-02T15:14:28Z" changeset="71826108" uid="7409020" user="krinkov76239">
    <nd ref="19033282"/>
    <nd ref="350215638"/>
    <tag k="destination:lanes" v="Morley (A650)|Leeds (M621);Morley (A650)|Leeds (M621);Manchester;Halifax;Batley (A62)"/>
    <tag k="highway" v="trunk"/>
    <tag k="junction" v="circular"/>
    <tag k="lanes" v="3"/>
    <tag k="lit" v="yes"/>
    <tag k="maxspeed" v="30 mph"/>
    <tag k="oneway" v="yes"/>
    <tag k="sidewalk" v="right"/>
    <tag k="surface" v="asphalt"/>
  </way>
  <way id="34426576" version="11" timestamp="2022-10-28T19:14:20Z" changeset="128188162" uid="13666626" user="RedAuburn">
    <nd ref="392097264"/>
    <nd ref="5750379388"/>
    <nd ref="386257588"/>
    <tag k="destination" v="Huddersfield;Batley"/>
    <tag k="highway" v="trunk_link"/>
    <tag k="lanes" v="1"/>
    <tag k="lit" v="yes"/>
    <tag k="national_highways:area" v="12"/>
    <tag k="oneway" v="yes"/>
    <tag k="operator" v="National Highways"/>
    <tag k="operator:wikidata" v="Q5760006"/>
    <tag k="surface" v="asphalt"/>
  </way>
  <way id="34570471" version="4" timestamp="2023-06-19T16:35:10Z" changeset="137527451" uid="705850" user="Cebderby">
    <nd ref="401323280"/>
    <nd ref="10989862777"/>
    <nd ref="401323281"/>
    <nd ref="10989862776"/>
    <nd ref="1897167735"/>
    <nd ref="401323282"/>
    <nd ref="401323283"/>
    <nd ref="10989862779"/>
    <tag k="highway" v="unclassified"/>
    <tag k="lit" v="yes"/>
    <tag k="maxspeed" v="30 mph"/>
    <tag k="name" v="Turnberry Park Road"/>
  </way>
  <way id="34570476" version="3" timestamp="2018-03-11T20:08:35Z" changeset="57092307" uid="3316592" user="Arthtoach">
    <nd ref="401323298"/>
    <nd ref="401323299"/>
    <tag k="highway" v="residential"/>
    <tag k="name" v="Croft House Way"/>
  </way>
  <way id="34570477" version="3" timestamp="2018-03-11T20:08:35Z" changeset="57092307" uid="3316592" user="Arthtoach">
    <nd ref="401323300"/>
    <nd ref="401323299"/>
    <nd ref="401323301"/>
    <tag k="highway" v="residential"/>
    <tag k="name" v="Croft House Way"/>
  </way>
  <way id="34570478" version="7" timestamp="2019-07-04T10:46:36Z" changeset="71892040" uid="10124015" user="bharathn">
    <nd ref="18485751"/>
    <nd ref="1916264015"/>
    <nd ref="2066265696"/>
    <nd ref="401323330"/>
    <nd ref="6586092868"/>
    <nd ref="401323303"/>
    <nd ref="401323304"/>
    <nd ref="401323305"/>
    <nd ref="401323306"/>
    <nd ref="3334704050"/>
    <nd ref="6588598058"/>
    <nd ref="401323308"/>
    <tag k="highway" v="unclassified"/>
    <tag k="maxspeed" v="30 mph"/>
    <tag k="name" v="Nepshaw Lane South"/>
  </way>
  <way id="34570479" version="7" timestamp="2021-04-14T22:24:31Z" changeset="102954470" uid="2330" user="LeedsTracker">
    <nd ref="401323308"/>
    <nd ref="3176755717"/>
    <nd ref="401323309"/>
    <nd ref="3329377645"/>
    <nd ref="3329377647"/>
    <nd ref="3176755718"/>
    <nd ref="401323310"/>
    <nd ref="8630370849"/>
    <nd ref="3176755719"/>
    <nd ref="3329377648"/>
    <nd ref="3334704051"/>
    <tag k="highway" v="unclassified"/>
    <tag k="name" v="Nepshaw Lane North"/>
    <tag k="surface" v="gravel"/>
  </way>
  <way id="34570480" version="3" timestamp="2021-01-12T13:17:15Z" changeset="97376512" uid="10457692" user="pravallg">
    <nd ref="401323305"/>
    <nd ref="6587779082"/>
    <nd ref="401323314"/>
    <nd ref="8315058102"/>
    <nd ref="401323313"/>
    <tag k="highway" v="unclassified"/>
    <tag k="name" v="Nepshaw Lane South"/>
  </way>
  <way id="34570481" version="1" timestamp="2009-05-15T20:46:18Z" changeset="1203784" uid="106831" user="sc71">
    <nd ref="401323314"/>
    <nd ref="401323315"/>
    <tag k="highway" v="unclassified"/>
    <tag k="name" v="Nepshaw Lane South"/>
  </way>
  <way id="34570483" version="5" timestamp="2021-06-29T12:43:17Z" changeset="107149242" uid="10455640" user="madnikhi">
    <nd ref="401323318"/>
    <nd ref="401323319"/>
    <nd ref="401323320"/>
    <nd ref="6588383195"/>
    <nd ref="7199513371"/>
    <nd ref="6588383197"/>
    <nd ref="7199513368"/>
    <nd ref="8874971489"/>
    <nd ref="401323321"/>
    <nd ref="401323322"/>
    <nd ref="1916264818"/>
    <nd ref="401323323"/>
    <tag k="highway" v="unclassified"/>
    <tag k="name" v="Gildersome Spur"/>
  </way>
  <way id="34570484" version="1" timestamp="2009-05-15T20:46:18Z" changeset="1203784" uid="106831" user="sc71">
    <nd ref="401323321"/>
    <nd ref="401323324"/>
    <nd ref="401323325"/>
    <tag k="highway" v="unclassified"/>
    <tag k="name" v="Gildersome Spur"/>
  </way>
  <way id="34570485" version="4" timestamp="2021-04-20T04:13:32Z" changeset="103232779" uid="10170576" user="sabodige">
    <nd ref="401323319"/>
    <nd ref="4617406139"/>
    <nd ref="4617406138"/>
    <nd ref="401323326"/>
    <nd ref="6787581748"/>
    <nd ref="8645827033"/>
    <nd ref="401323327"/>
    <tag k="highway" v="unclassified"/>
    <tag k="name" v="Thistle Way"/>
  </way>
  <way id="34570486" version="4" timestamp="2021-02-10T02:59:09Z" changeset="99007842" uid="11734033" user="saiguru">
    <nd ref="401323328"/>
    <nd ref="8410458549"/>
    <nd ref="401323327"/>
    <nd ref="401323330"/>
    <tag k="highway" v="unclassified"/>
    <tag k="name" v="Stone Pits Lane"/>
    <tag k="source:name" v="OS_OpenData_Locator"/>
  </way>
  <way id="34572247" version="2" timestamp="2018-03-17T14:09:18Z" changeset="57267809" uid="3316592" user="Arthtoach">
    <nd ref="5484599571"/>
    <nd ref="401348988"/>
    <nd ref="401348989"/>
    <tag k="highway" v="residential"/>
    <tag k="name" v="Hadleys Court"/>
  </way>
  <way id="34572248" version="1" timestamp="2009-05-15T22:02:44Z" changeset="1204556" uid="106831" user="sc71">
    <nd ref="401348988"/>
    <nd ref="401348990"/>
    <tag k="highway" v="residential"/>
    <tag k="name" v="Hadleys Court"/>
  </way>
  <way id="34572249" version="2" timestamp="2018-03-17T13:59:22Z" changeset="57267544" uid="3316592" user="Arthtoach">
    <nd ref="401348991"/>
    <nd ref="401348996"/>
    <nd ref="401348992"/>
    <nd ref="401348993"/>
    <nd ref="5484565452"/>
    <nd ref="401348994"/>
    <nd ref="401348995"/>
    <nd ref="401348992"/>
    <tag k="highway" v="unclassified"/>
    <tag k="name" v="Deanhurt Park"/>
  </way>
  <way id="34572252" version="5" timestamp="2021-07-18T16:55:35Z" changeset="108200197" uid="490248" user="johndarm">
    <nd ref="401349003"/>
    <nd ref="401349004"/>
    <nd ref="5471179450"/>
    <nd ref="5471179451"/>
    <nd ref="5471179452"/>
    <nd ref="401769785"/>
    <nd ref="401349005"/>
    <nd ref="401349006"/>
    <nd ref="8930940924"/>
    <nd ref="5471179454"/>
    <nd ref="5471179453"/>
    <nd ref="401349018"/>
    <nd ref="401769787"/>
    <nd ref="401349007"/>
    <nd ref="401349008"/>
    <nd ref="5471172573"/>
    <nd ref="401349009"/>
    <nd ref="401349010"/>
    <nd ref="401349011"/>
    <nd ref="401349012"/>
    <tag k="highway" v="residential"/>
    <tag k="name" v="Parkway"/>
  </way>
  <way id="34572253" version="1" timestamp="2009-05-15T22:02:44Z" changeset="1204556" uid="106831" user="sc71">
    <nd ref="401349005"/>
    <nd ref="401349013"/>
    <tag k="highway" v="residential"/>
    <tag k="name" v="Park Grove"/>
  </way>
  <way id="34572254" version="1" timestamp="2009-05-15T22:02:44Z" changeset="1204556" uid="106831" user="sc71">
    <nd ref="401349014"/>
    <nd ref="401349013"/>
    <nd ref="401349015"/>
    <tag k="highway" v="residential"/>
    <tag k="name" v="Park Grove"/>
  </way>
  <way id="34572258" version="2" timestamp="2018-03-11T16:19:16Z" changeset="57086533" uid="3316592" user="Arthtoach">
    <nd ref="401349020"/>
    <nd ref="401349022"/>
    <nd ref="5471172621"/>
    <tag k="highway" v="residential"/>
    <tag k="name" v="Field Park Grange"/>
  </way>
  <way id="34572259" version="5" timestamp="2018-03-11T16:19:16Z" changeset="57086533" uid="3316592" user="Arthtoach">
    <nd ref="401349022"/>
    <nd ref="5471172622"/>
    <nd ref="3632292147"/>
    <nd ref="401349023"/>
    <nd ref="5471172623"/>
    <nd ref="5471172624"/>
    <nd ref="401349024"/>
    <nd ref="5471172625"/>
    <nd ref="2924576317"/>
    <nd ref="5471172626"/>
    <nd ref="401349025"/>
    <nd ref="5471172627"/>
    <nd ref="401349026"/>
    <tag k="highway" v="residential"/>
    <tag k="name" v="Field Park Grange"/>
  </way>
  <way id="34572261" version="2" timestamp="2018-03-11T16:19:16Z" changeset="57086533" uid="3316592" user="Arthtoach">
    <nd ref="401349033"/>
    <nd ref="5471172613"/>
    <nd ref="5471172612"/>
    <nd ref="401349036"/>
    <nd ref="401349037"/>
    <nd ref="401349038"/>
    <tag k="highway" v="residential"/>
    <tag k="name" v="Vicarage Avenue"/>
  </way>
  <way id="34572262" version="1" timestamp="2009-05-15T22:02:45Z" changeset="1204556" uid="106831" user="sc71">
    <nd ref="401349039"/>
    <nd ref="401349036"/>
    <nd ref="401349040"/>
    <tag k="highway" v="residential"/>
    <tag k="name" v="Vicarage Avenue"/>
  </way>
  <way id="34572263" version="1" timestamp="2009-05-15T22:02:45Z" changeset="1204556" uid="106831" user="sc71">
    <nd ref="401349041"/>
    <nd ref="401349037"/>
    <nd ref="401349042"/>
    <tag k="highway" v="residential"/>
    <tag k="name" v="Vicarage Avenue"/>
  </way>
  <way id="34572265" version="1" timestamp="2009-05-15T22:02:45Z" changeset="1204556" uid="106831" user="sc71">
    <nd ref="401349034"/>
    <nd ref="401349045"/>
    <nd ref="401349046"/>
    <nd ref="401349047"/>
    <tag k="highway" v="residential"/>
    <tag k="name" v="Finkle Court"/>
  </way>
  <way id="34572266" version="23" timestamp="2024-06-17T20:17:28Z" changeset="152818627" uid="20112387" user="Anton Khorev (repair)">
    <nd ref="401349043"/>
    <nd ref="401349070"/>
    <nd ref="360841582"/>
    <nd ref="2068231147"/>
    <nd ref="401349074"/>
    <nd ref="2068231148"/>
    <nd ref="401349035"/>
    <nd ref="2068231149"/>
    <nd ref="401349080"/>
    <tag k="cycleway:both" v="no"/>
    <tag k="highway" v="tertiary"/>
    <tag k="lanes" v="2"/>
    <tag k="lit" v="yes"/>
    <tag k="maxspeed" v="20 mph"/>
    <tag k="name" v="Street Lane"/>
    <tag k="sidewalk" v="both"/>
    <tag k="surface" v="asphalt"/>
  </way>
  <way id="34572268" version="4" timestamp="2021-01-17T19:34:24Z" changeset="97650231" uid="1802093" user="Paul Berry">
    <nd ref="309127225"/>
    <nd ref="2058715077"/>
    <nd ref="8331429954"/>
    <nd ref="401349053"/>
    <nd ref="2058715062"/>
    <nd ref="8331429953"/>
    <tag k="highway" v="residential"/>
    <tag k="name" v="East View"/>
  </way>
  <way id="34572272" version="1" timestamp="2009-05-15T22:02:46Z" changeset="1204556" uid="106831" user="sc71">
    <nd ref="401349074"/>
    <nd ref="401349075"/>
    <nd ref="401349076"/>
    <tag k="highway" v="residential"/>
    <tag k="name" v="Birchfield Avenue"/>
  </way>
  <way id="34572274" version="4" timestamp="2012-12-09T20:53:37Z" changeset="14218667" uid="21264" user="Pobice">
    <nd ref="401349080"/>
    <nd ref="2058767867"/>
    <tag k="highway" v="residential"/>
    <tag k="lanes" v="1"/>
    <tag k="name" v="Woodhead Lane"/>
    <tag k="sidewalk" v="no"/>
  </way>
  <way id="34572277" version="3" timestamp="2018-03-09T17:55:28Z" changeset="57039199" uid="3316592" user="Arthtoach">
    <nd ref="401349091"/>
    <nd ref="4049359999"/>
    <nd ref="401349092"/>
    <nd ref="401349094"/>
    <nd ref="401349101"/>
    <nd ref="401349090"/>
    <nd ref="401349095"/>
    <nd ref="401349098"/>
    <nd ref="4049360000"/>
    <nd ref="401349096"/>
    <nd ref="401349097"/>
    <tag k="highway" v="residential"/>
    <tag k="name" v="Flossmore Way"/>
  </way>
  <way id="34572278" version="1" timestamp="2009-05-15T22:02:46Z" changeset="1204556" uid="106831" user="sc71">
    <nd ref="401349098"/>
    <nd ref="401349099"/>
    <tag k="highway" v="residential"/>
    <tag k="name" v="Flossmore Way"/>
  </way>
  <way id="34572280" version="2" timestamp="2016-03-09T00:32:04Z" changeset="37698494" uid="2330" user="LeedsTracker">
    <nd ref="401349106"/>
    <nd ref="401349107"/>
    <nd ref="4049360001"/>
    <nd ref="401349108"/>
    <nd ref="401349109"/>
    <tag k="highway" v="residential"/>
    <tag k="name" v="Reedsdale Avenue"/>
  </way>
  <way id="34572281" version="2" timestamp="2016-03-09T00:32:04Z" changeset="37698494" uid="2330" user="LeedsTracker">
    <nd ref="360841011"/>
    <nd ref="4049360005"/>
    <nd ref="4049360006"/>
    <nd ref="401349110"/>
    <tag k="highway" v="residential"/>
    <tag k="name" v="Reedsdale Drive"/>
  </way>
  <way id="34572284" version="3" timestamp="2019-06-21T05:33:11Z" changeset="71468377" uid="8446889" user="nimmalab">
    <nd ref="401349115"/>
    <nd ref="4617406134"/>
    <nd ref="401349121"/>
    <nd ref="4617406133"/>
    <nd ref="6562218993"/>
    <nd ref="401349122"/>
    <tag k="highway" v="unclassified"/>
    <tag k="name" v="Forsyth Gelderd Point"/>
  </way>
  <way id="34572285" version="3" timestamp="2021-07-16T08:47:48Z" changeset="108102023" uid="10192134" user="mathpras">
    <nd ref="401349118"/>
    <nd ref="4617406136"/>
    <nd ref="8925954953"/>
    <nd ref="401349123"/>
    <tag k="highway" v="unclassified"/>
    <tag k="name" v="Forsyth Gelderd Point"/>
  </way>
  <way id="34572286" version="2" timestamp="2023-12-24T19:17:56Z" changeset="145478215" uid="387349" user="indofraiser">
    <nd ref="401349119"/>
    <nd ref="401349124"/>
    <tag k="access" v="private"/>
    <tag k="highway" v="unclassified"/>
    <tag k="name" v="Forsyth Gelderd Point"/>
  </way>
  <way id="34601318" version="1" timestamp="2009-05-16T18:15:25Z" changeset="1212998" uid="106831" user="sc71">
    <nd ref="401769687"/>
    <nd ref="401769689"/>
    <nd ref="401769691"/>
    <nd ref="401769701"/>
    <tag k="highway" v="residential"/>
    <tag k="name" v="Deanhurst Gardens"/>
  </way>
  <way id="34601319" version="1" timestamp="2009-05-16T18:15:25Z" changeset="1212998" uid="106831" user="sc71">
    <nd ref="401769689"/>
    <nd ref="401769703"/>
    <tag k="highway" v="residential"/>
    <tag k="name" v="Deanhurst Gardens"/>
  </way>
  <way id="34601320" version="1" timestamp="2009-05-16T18:15:25Z" changeset="1212998" uid="106831" user="sc71">
    <nd ref="401769704"/>
    <nd ref="401769706"/>
    <nd ref="401769707"/>
    <nd ref="401769709"/>
    <tag k="highway" v="residential"/>
    <tag k="name" v="Yarra Court"/>
  </way>
  <way id="34601321" version="2" timestamp="2015-07-03T02:35:09Z" changeset="32378172" uid="493595" user="Yorvik Prestigitator">
    <nd ref="401769711"/>
    <nd ref="401769712"/>
    <nd ref="3632292155"/>
    <nd ref="401769714"/>
    <tag k="highway" v="residential"/>
    <tag k="name" v="Branch End"/>
  </way>
  <way id="34601322" version="7" timestamp="2024-01-14T12:29:42Z" changeset="146242722" uid="592" user="JonS">
    <nd ref="401769711"/>
    <nd ref="403097407"/>
    <nd ref="2068675279"/>
    <nd ref="309127212"/>
    <nd ref="2068675255"/>
    <nd ref="309127213"/>
    <nd ref="2068675249"/>
    <nd ref="401769704"/>
    <nd ref="309127215"/>
    <tag k="highway" v="secondary"/>
    <tag k="lanes" v="2"/>
    <tag k="lit" v="yes"/>
    <tag k="maxspeed" v="30 mph"/>
    <tag k="name" v="Branch End"/>
    <tag k="ref" v="B6126"/>
    <tag k="sidewalk" v="right"/>
    <tag k="surface" v="asphalt"/>
  </way>
  <way id="34601323" version="3" timestamp="2018-03-17T14:03:26Z" changeset="57267639" uid="3316592" user="Arthtoach">
    <nd ref="309127218"/>
    <nd ref="2068675295"/>
    <nd ref="2068675261"/>
    <nd ref="401769715"/>
    <nd ref="401769717"/>
    <nd ref="5484584813"/>
    <nd ref="401769719"/>
    <tag k="highway" v="residential"/>
    <tag k="name" v="Kenilworth Gardens"/>
  </way>
  <way id="34601324" version="2" timestamp="2018-03-17T14:03:26Z" changeset="57267639" uid="3316592" user="Arthtoach">
    <nd ref="401769720"/>
    <nd ref="401769722"/>
    <nd ref="401769723"/>
    <nd ref="5484584815"/>
    <nd ref="5484584816"/>
    <nd ref="401769725"/>
    <nd ref="5484584817"/>
    <nd ref="401769727"/>
    <nd ref="5484584814"/>
    <nd ref="401769719"/>
    <tag k="highway" v="residential"/>
    <tag k="name" v="Kenilworth Avenue"/>
  </way>
  <way id="34601325" version="2" timestamp="2018-03-17T13:59:22Z" changeset="57267544" uid="3316592" user="Arthtoach">
    <nd ref="401769728"/>
    <nd ref="401769730"/>
    <nd ref="5484565480"/>
    <nd ref="401769733"/>
    <tag k="highway" v="residential"/>
    <tag k="name" v="College Court"/>
  </way>
  <way id="34601326" version="2" timestamp="2015-07-03T02:27:29Z" changeset="32378133" uid="493595" user="Yorvik Prestigitator">
    <nd ref="401769734"/>
    <nd ref="401769736"/>
    <nd ref="401769738"/>
    <nd ref="3632290665"/>
    <nd ref="401769741"/>
    <nd ref="401769761"/>
    <nd ref="401769739"/>
    <nd ref="401769741"/>
    <tag k="highway" v="residential"/>
    <tag k="name" v="Turton Vale"/>
  </way>
  <way id="34601327" version="1" timestamp="2009-05-16T18:15:25Z" changeset="1212998" uid="106831" user="sc71">
    <nd ref="401769738"/>
    <nd ref="401769743"/>
    <tag k="highway" v="residential"/>
    <tag k="name" v="Turton Vale"/>
  </way>
  <way id="34601328" version="1" timestamp="2009-05-16T18:15:25Z" changeset="1212998" uid="106831" user="sc71">
    <nd ref="401769744"/>
    <nd ref="401769746"/>
    <nd ref="401769748"/>
    <nd ref="401769749"/>
    <nd ref="401769751"/>
    <nd ref="401769753"/>
    <tag k="highway" v="residential"/>
    <tag k="name" v="Turton Green"/>
  </way>
  <way id="34601329" version="1" timestamp="2009-05-16T18:15:25Z" changeset="1212998" uid="106831" user="sc71">
    <nd ref="401769749"/>
    <nd ref="401769755"/>
    <nd ref="401769756"/>
    <nd ref="401769758"/>
    <tag k="highway" v="residential"/>
    <tag k="name" v="Turton Green"/>
  </way>
  <way id="34601335" version="5" timestamp="2022-11-19T23:47:38Z" changeset="129141066" uid="25766" user="PaulT">
    <nd ref="401769785"/>
    <nd ref="5471179455"/>
    <nd ref="5471179456"/>
    <nd ref="1709184073"/>
    <nd ref="401349029"/>
    <tag k="highway" v="residential"/>
    <tag k="name" v="The Nooks"/>
    <tag k="sidewalk" v="both"/>
    <tag k="surface" v="asphalt"/>
  </way>
  <way id="34601336" version="2" timestamp="2018-03-11T16:26:24Z" changeset="57086723" uid="3316592" user="Arthtoach">
    <nd ref="401769787"/>
    <nd ref="401769789"/>
    <nd ref="5471179535"/>
    <nd ref="5471179534"/>
    <nd ref="401769790"/>
    <nd ref="5471179533"/>
    <nd ref="401769792"/>
    <nd ref="5471179532"/>
    <nd ref="401769794"/>
    <nd ref="5471179531"/>
    <nd ref="401769795"/>
    <nd ref="401349007"/>
    <tag k="highway" v="residential"/>
    <tag k="name" v="Park Crescent"/>
  </way>
  <way id="34601343" version="3" timestamp="2023-03-18T14:25:21Z" changeset="133825077" uid="313905" user="Nette">
    <nd ref="401769846"/>
    <nd ref="401769848"/>
    <nd ref="401769849"/>
    <nd ref="2065424170"/>
    <nd ref="401769851"/>
    <nd ref="401769853"/>
    <nd ref="401769854"/>
    <nd ref="401769856"/>
    <nd ref="401769858"/>
    <nd ref="401769859"/>
    <nd ref="401769861"/>
    <nd ref="401769863"/>
    <nd ref="401769865"/>
    <tag k="highway" v="residential"/>
    <tag k="maxspeed" v="20 mph"/>
    <tag k="maxspeed:type" v="sign"/>
    <tag k="name" v="Churchgate"/>
  </way>
  <way id="34601345" version="1" timestamp="2009-05-16T18:15:26Z" changeset="1212998" uid="106831" user="sc71">
    <nd ref="401769863"/>
    <nd ref="401769866"/>
    <tag k="highway" v="residential"/>
    <tag k="name" v="Churchgate"/>
  </way>
  <way id="34601347" version="9" timestamp="2025-01-25T21:38:05Z" changeset="161762066" uid="25766" user="PaulT">
    <nd ref="401769874"/>
    <nd ref="2068761863"/>
    <nd ref="401769876"/>
    <nd ref="2065424173"/>
    <nd ref="401769877"/>
    <nd ref="401769879"/>
    <nd ref="2058767938"/>
    <nd ref="401769882"/>
    <nd ref="2058767940"/>
    <nd ref="401769881"/>
    <tag k="cycleway:both" v="no"/>
    <tag k="highway" v="residential"/>
    <tag k="lane_markings" v="no"/>
    <tag k="lit" v="yes"/>
    <tag k="maxspeed" v="30 mph"/>
    <tag k="name" v="Ashwood Drive"/>
    <tag k="sidewalk" v="both"/>
    <tag k="surface" v="asphalt"/>
  </way>
  <way id="34601348" version="6" timestamp="2022-03-05T21:35:09Z" changeset="118141256" uid="25766" user="PaulT">
    <nd ref="401769884"/>
    <nd ref="401769881"/>
    <tag k="cycleway:both" v="no"/>
    <tag k="highway" v="residential"/>
    <tag k="lane_markings" v="no"/>
    <tag k="maxspeed" v="30 mph"/>
    <tag k="name" v="Greenfield Avenue"/>
    <tag k="sidewalk" v="both"/>
    <tag k="surface" v="asphalt"/>
  </way>
  <way id="34601349" version="6" timestamp="2022-11-19T23:45:08Z" changeset="129141082" uid="25766" user="PaulT">
    <nd ref="401769876"/>
    <nd ref="401769887"/>
    <nd ref="401769889"/>
    <nd ref="401769890"/>
    <tag k="cycleway:both" v="no"/>
    <tag k="highway" v="residential"/>
    <tag k="lit" v="yes"/>
    <tag k="maxspeed:type" v="GB:nsl_restricted"/>
    <tag k="name" v="Ashwood Grove"/>
    <tag k="sidewalk" v="both"/>
    <tag k="surface" v="asphalt"/>
  </way>
  <way id="34601350" version="6" timestamp="2022-11-19T23:46:00Z" changeset="129141082" uid="25766" user="PaulT">
    <nd ref="401769879"/>
    <nd ref="401769892"/>
    <tag k="cycleway:both" v="no"/>
    <tag k="highway" v="residential"/>
    <tag k="lit" v="yes"/>
    <tag k="maxspeed:type" v="GB:nsl_restricted"/>
    <tag k="name" v="Ashwood Drive"/>
    <tag k="sidewalk" v="both"/>
    <tag k="surface" v="asphalt"/>
  </way>
  <way id="34601352" version="1" timestamp="2009-05-16T18:15:27Z" changeset="1212998" uid="106831" user="sc71">
    <nd ref="300706755"/>
    <nd ref="401769899"/>
    <nd ref="401769901"/>
    <nd ref="401769902"/>
    <tag k="highway" v="residential"/>
    <tag k="name" v="Church Gardens"/>
  </way>
  <way id="34601353" version="1" timestamp="2009-05-16T18:15:27Z" changeset="1212998" uid="106831" user="sc71">
    <nd ref="401769899"/>
    <nd ref="401769904"/>
    <tag k="highway" v="residential"/>
    <tag k="name" v="Church Gardens"/>
  </way>
  <way id="34601354" version="1" timestamp="2009-05-16T18:15:27Z" changeset="1212998" uid="106831" user="sc71">
    <nd ref="401769905"/>
    <nd ref="401769907"/>
    <nd ref="401769909"/>
    <nd ref="401769911"/>
    <nd ref="401769912"/>
    <nd ref="401769914"/>
    <tag k="highway" v="residential"/>
    <tag k="name" v="West End"/>
  </way>
  <way id="34601355" version="1" timestamp="2009-05-16T18:15:27Z" changeset="1212998" uid="106831" user="sc71">
    <nd ref="360837708"/>
    <nd ref="401769915"/>
    <tag k="highway" v="residential"/>
    <tag k="name" v="Greenfield Drive"/>
  </way>
  <way id="34601356" version="4" timestamp="2022-03-05T21:52:16Z" changeset="118141119" uid="25766" user="PaulT">
    <nd ref="360837706"/>
    <nd ref="401769921"/>
    <tag k="highway" v="residential"/>
    <tag k="lit" v="no"/>
    <tag k="name" v="Ashwood Parade"/>
    <tag k="sidewalk" v="both"/>
    <tag k="surface" v="asphalt"/>
  </way>
  <way id="34601357" version="4" timestamp="2022-03-05T21:50:42Z" changeset="118141119" uid="25766" user="PaulT">
    <nd ref="360837705"/>
    <nd ref="401769921"/>
    <nd ref="401769924"/>
    <nd ref="401769926"/>
    <nd ref="401769927"/>
    <tag k="highway" v="residential"/>
    <tag k="lit" v="yes"/>
    <tag k="name" v="Ashwood Gardens"/>
    <tag k="sidewalk" v="both"/>
    <tag k="surface" v="asphalt"/>
  </way>
  <way id="34601358" version="1" timestamp="2009-05-16T18:15:27Z" changeset="1212998" uid="106831" user="sc71">
    <nd ref="401769926"/>
    <nd ref="401769929"/>
    <nd ref="401769931"/>
    <tag k="highway" v="residential"/>
    <tag k="name" v="Ashwood Gardens"/>
  </way>
  <way id="34601360" version="9" timestamp="2023-01-31T15:25:02Z" changeset="131926621" uid="3235126" user="mot_tom">
    <nd ref="401769934"/>
    <nd ref="410937109"/>
    <nd ref="8273938459"/>
    <nd ref="10596544920"/>
    <nd ref="10596544918"/>
    <nd ref="10596544916"/>
    <nd ref="10596544913"/>
    <nd ref="413408762"/>
    <nd ref="5403225307"/>
    <nd ref="401769939"/>
    <nd ref="401769941"/>
    <nd ref="1709213489"/>
    <nd ref="3781488832"/>
    <nd ref="401769942"/>
    <nd ref="413408800"/>
    <nd ref="401769944"/>
    <nd ref="401769946"/>
    <tag k="highway" v="unclassified"/>
    <tag k="name" v="New Lane"/>
    <tag k="surface" v="asphalt"/>
  </way>
  <way id="34601363" version="13" timestamp="2025-04-13T14:38:58Z" changeset="164898405" uid="2330" user="LeedsTracker">
    <nd ref="401769957"/>
    <nd ref="12752454722"/>
    <nd ref="360837675"/>
    <nd ref="3781489356"/>
    <nd ref="413408779"/>
    <nd ref="360837676"/>
    <nd ref="3781489348"/>
    <nd ref="413408781"/>
    <nd ref="401769919"/>
    <nd ref="401769953"/>
    <nd ref="360837679"/>
    <nd ref="2920128039"/>
    <nd ref="2920128042"/>
    <nd ref="401769950"/>
    <nd ref="7902344636"/>
    <nd ref="360837685"/>
    <nd ref="3781488970"/>
    <nd ref="3781488919"/>
    <nd ref="360837687"/>
    <nd ref="410937114"/>
    <nd ref="5405545316"/>
    <nd ref="5405545309"/>
    <nd ref="401769958"/>
    <nd ref="401769948"/>
    <nd ref="8273938443"/>
    <nd ref="401769960"/>
    <nd ref="5405545315"/>
    <nd ref="401769934"/>
    <nd ref="410937107"/>
    <nd ref="401769932"/>
    <nd ref="401770004"/>
    <nd ref="401770006"/>
    <nd ref="360837693"/>
    <tag k="highway" v="secondary"/>
    <tag k="lanes" v="2"/>
    <tag k="name" v="Gildersome Lane"/>
    <tag k="ref" v="B6126"/>
    <tag k="surface" v="asphalt"/>
  </way>
  <way id="34601364" version="3" timestamp="2020-12-30T12:36:09Z" changeset="96667594" uid="10252551" user="amanura">
    <nd ref="401769960"/>
    <nd ref="8273939620"/>
    <nd ref="401769962"/>
    <nd ref="8273938474"/>
    <nd ref="401769964"/>
    <nd ref="8273938476"/>
    <nd ref="8273938475"/>
    <nd ref="8273938477"/>
    <nd ref="8273938478"/>
    <nd ref="401769965"/>
    <nd ref="8273938479"/>
    <nd ref="8273938480"/>
    <nd ref="8273938481"/>
    <nd ref="401769967"/>
    <nd ref="8273938482"/>
    <nd ref="401769969"/>
    <nd ref="5405545319"/>
    <tag k="highway" v="residential"/>
    <tag k="name" v="Suffield Road"/>
  </way>
  <way id="34601365" version="3" timestamp="2020-12-30T12:36:09Z" changeset="96667594" uid="10252551" user="amanura">
    <nd ref="401769962"/>
    <nd ref="8273938506"/>
    <nd ref="401769972"/>
    <nd ref="6593177068"/>
    <nd ref="8273938505"/>
    <nd ref="401769974"/>
    <nd ref="8273938504"/>
    <nd ref="8273938503"/>
    <nd ref="8273938502"/>
    <nd ref="8273938501"/>
    <nd ref="401769975"/>
    <nd ref="8273938500"/>
    <nd ref="401769977"/>
    <nd ref="8273938499"/>
    <nd ref="8273938498"/>
    <nd ref="401769979"/>
    <nd ref="8273938497"/>
    <nd ref="8273938496"/>
    <nd ref="8273938495"/>
    <nd ref="8273938494"/>
    <nd ref="8273938493"/>
    <nd ref="8273938492"/>
    <nd ref="8273938511"/>
    <nd ref="8273938491"/>
    <nd ref="8273938490"/>
    <nd ref="401769969"/>
    <tag k="highway" v="residential"/>
    <tag k="name" v="Suffield Crescent"/>
  </way>
  <way id="34601366" version="2" timestamp="2020-12-30T12:36:09Z" changeset="96667594" uid="10252551" user="amanura">
    <nd ref="8273938489"/>
    <nd ref="8273938487"/>
    <nd ref="8273938486"/>
    <nd ref="8273938485"/>
    <nd ref="401769980"/>
    <nd ref="8273938484"/>
    <nd ref="8273938483"/>
    <nd ref="401769969"/>
    <tag k="highway" v="residential"/>
    <tag k="name" v="Suffield Drive"/>
  </way>
  <way id="34601367" version="1" timestamp="2009-05-16T18:15:27Z" changeset="1212998" uid="106831" user="sc71">
    <nd ref="401769965"/>
    <nd ref="401769982"/>
    <tag k="highway" v="residential"/>
    <tag k="name" v="Suffield Close"/>
  </way>
  <way id="34601370" version="4" timestamp="2018-02-11T15:54:47Z" changeset="56266863" uid="3316592" user="Arthtoach">
    <nd ref="401770006"/>
    <nd ref="401770007"/>
    <nd ref="5405511881"/>
    <nd ref="401770009"/>
    <nd ref="401770011"/>
    <nd ref="4569592167"/>
    <nd ref="401770013"/>
    <nd ref="401770014"/>
    <nd ref="401770016"/>
    <nd ref="401770018"/>
    <nd ref="401770019"/>
    <tag k="highway" v="residential"/>
    <tag k="name" v="Moorland Avenue"/>
  </way>
  <way id="34601371" version="3" timestamp="2018-02-11T16:02:34Z" changeset="56267036" uid="3316592" user="Arthtoach">
    <nd ref="401770007"/>
    <nd ref="401770021"/>
    <nd ref="5405526939"/>
    <nd ref="401770023"/>
    <nd ref="401770024"/>
    <tag k="highway" v="residential"/>
    <tag k="name" v="Moorland Crescent"/>
  </way>
  <way id="34601372" version="4" timestamp="2020-09-13T08:36:38Z" changeset="90812975" uid="8499540" user="OwenBerg">
    <nd ref="401770146"/>
    <nd ref="401770009"/>
    <nd ref="401770026"/>
    <nd ref="4569592169"/>
    <nd ref="401770028"/>
    <nd ref="4569592168"/>
    <nd ref="401770029"/>
    <nd ref="401770031"/>
    <nd ref="7902344644"/>
    <nd ref="401769999"/>
    <tag k="highway" v="residential"/>
    <tag k="name" v="Moorland Close"/>
  </way>
  <way id="34601373" version="6" timestamp="2020-09-13T08:36:38Z" changeset="90812975" uid="8499540" user="OwenBerg">
    <nd ref="401770014"/>
    <nd ref="401770033"/>
    <nd ref="3781488822"/>
    <nd ref="401770034"/>
    <nd ref="3781488827"/>
    <nd ref="401770036"/>
    <nd ref="7902344652"/>
    <nd ref="401770038"/>
    <nd ref="7169657108"/>
    <nd ref="401770039"/>
    <nd ref="401770041"/>
    <nd ref="401770043"/>
    <nd ref="3781488814"/>
    <nd ref="401770044"/>
    <nd ref="3781488798"/>
    <nd ref="401770046"/>
    <nd ref="3781488739"/>
    <nd ref="401770048"/>
    <nd ref="5451851190"/>
    <nd ref="401770050"/>
    <nd ref="3781488685"/>
    <nd ref="3781488681"/>
    <nd ref="401770051"/>
    <nd ref="3781488673"/>
    <nd ref="401770053"/>
    <nd ref="401770055"/>
    <nd ref="401770056"/>
    <nd ref="5453362233"/>
    <nd ref="401770058"/>
    <tag k="highway" v="residential"/>
    <tag k="name" v="Springbank Road"/>
  </way>
  <way id="34601375" version="3" timestamp="2015-10-10T23:43:47Z" changeset="34560139" uid="2330" user="LeedsTracker">
    <nd ref="401770044"/>
    <nd ref="401770061"/>
    <nd ref="3781488810"/>
    <nd ref="401770063"/>
    <nd ref="3781488799"/>
    <nd ref="3781488794"/>
    <nd ref="401770065"/>
    <nd ref="3781488764"/>
    <nd ref="401770066"/>
    <nd ref="401770069"/>
    <nd ref="2080323273"/>
    <nd ref="401770071"/>
    <nd ref="401770048"/>
    <tag k="highway" v="residential"/>
    <tag k="name" v="Springbank Crescent"/>
  </way>
  <way id="34601378" version="3" timestamp="2015-10-10T23:43:46Z" changeset="34560139" uid="2330" user="LeedsTracker">
    <nd ref="401770071"/>
    <nd ref="401770077"/>
    <nd ref="401770079"/>
    <nd ref="2080323260"/>
    <nd ref="401770081"/>
    <nd ref="401770089"/>
    <nd ref="401770084"/>
    <nd ref="3781488665"/>
    <nd ref="2080323252"/>
    <nd ref="401770085"/>
    <nd ref="401770087"/>
    <nd ref="401770056"/>
    <tag k="highway" v="residential"/>
    <tag k="name" v="Springbank Avenue"/>
  </way>
  <way id="34601380" version="1" timestamp="2009-05-16T18:15:28Z" changeset="1212998" uid="106831" user="sc71">
    <nd ref="401770085"/>
    <nd ref="401770092"/>
    <tag k="highway" v="residential"/>
    <tag k="name" v="Springbank Avenue"/>
  </way>
  <way id="34601381" version="1" timestamp="2009-05-16T18:15:28Z" changeset="1212998" uid="106831" user="sc71">
    <nd ref="401770087"/>
    <nd ref="401770094"/>
    <tag k="highway" v="residential"/>
    <tag k="name" v="Springbank Avenue"/>
  </way>
  <way id="34601382" version="3" timestamp="2018-03-03T18:53:54Z" changeset="56854525" uid="3316592" user="Arthtoach">
    <nd ref="401770055"/>
    <nd ref="401770096"/>
    <nd ref="401770097"/>
    <nd ref="5451851191"/>
    <nd ref="3781488703"/>
    <nd ref="401770099"/>
    <nd ref="401770101"/>
    <nd ref="401770103"/>
    <nd ref="401770115"/>
    <nd ref="401770039"/>
    <tag k="highway" v="residential"/>
    <tag k="name" v="Church Avenue"/>
  </way>
  <way id="34601383" version="1" timestamp="2009-05-16T18:15:28Z" changeset="1212998" uid="106831" user="sc71">
    <nd ref="401770097"/>
    <nd ref="401770105"/>
    <tag k="highway" v="residential"/>
    <tag k="name" v="Church Avenue"/>
  </way>
  <way id="34601384" version="6" timestamp="2022-03-05T21:41:15Z" changeset="118141119" uid="25766" user="PaulT">
    <nd ref="401770038"/>
    <nd ref="401770107"/>
    <nd ref="401770019"/>
    <nd ref="401770116"/>
    <nd ref="401770105"/>
    <nd ref="3781487954"/>
    <nd ref="401770109"/>
    <nd ref="401770111"/>
    <tag k="highway" v="residential"/>
    <tag k="lit" v="yes"/>
    <tag k="name" v="Spring Avenue"/>
    <tag k="sidewalk" v="both"/>
    <tag k="surface" v="asphalt"/>
  </way>
  <way id="34601387" version="2" timestamp="2015-10-10T23:43:46Z" changeset="34560139" uid="2330" user="LeedsTracker">
    <nd ref="401770018"/>
    <nd ref="401770124"/>
    <nd ref="3781488763"/>
    <nd ref="3781488750"/>
    <nd ref="401770125"/>
    <nd ref="401770127"/>
    <nd ref="3781488700"/>
    <nd ref="401770129"/>
    <nd ref="3781488697"/>
    <nd ref="401770130"/>
    <nd ref="3781488699"/>
    <nd ref="401770132"/>
    <nd ref="401770134"/>
    <nd ref="401770135"/>
    <nd ref="3781488691"/>
    <nd ref="401770137"/>
    <nd ref="3781488692"/>
    <nd ref="401770139"/>
    <nd ref="3781488694"/>
    <nd ref="401770140"/>
    <nd ref="3781488733"/>
    <nd ref="3781488745"/>
    <nd ref="401770141"/>
    <tag k="highway" v="residential"/>
    <tag k="name" v="Scott Green Crescent"/>
  </way>
  <way id="34601388" version="2" timestamp="2015-10-10T23:43:46Z" changeset="34560139" uid="2330" user="LeedsTracker">
    <nd ref="401770142"/>
    <nd ref="401770143"/>
    <nd ref="3781488776"/>
    <nd ref="401770141"/>
    <nd ref="401770144"/>
    <nd ref="3781488755"/>
    <nd ref="401770145"/>
    <nd ref="401770146"/>
    <nd ref="401770147"/>
    <nd ref="401770154"/>
    <nd ref="401770156"/>
    <nd ref="3781488779"/>
    <nd ref="401770124"/>
    <tag k="highway" v="residential"/>
    <tag k="name" v="Scott Green Drive"/>
  </way>
  <way id="34601389" version="2" timestamp="2015-10-10T23:43:46Z" changeset="34560139" uid="2330" user="LeedsTracker">
    <nd ref="401770145"/>
    <nd ref="3781488732"/>
    <nd ref="401770157"/>
    <nd ref="401770134"/>
    <tag k="highway" v="residential"/>
    <tag k="name" v="Scott Green Mount"/>
  </way>
  <way id="34601390" version="1" timestamp="2009-05-16T18:15:29Z" changeset="1212998" uid="106831" user="sc71">
    <nd ref="401770147"/>
    <nd ref="401770130"/>
    <tag k="highway" v="residential"/>
    <tag k="name" v="Scott Green View"/>
  </way>
  <way id="34601391" version="1" timestamp="2009-05-16T18:15:29Z" changeset="1212998" uid="106831" user="sc71">
    <nd ref="401770156"/>
    <nd ref="401770159"/>
    <tag k="highway" v="residential"/>
    <tag k="name" v="Scott Green Grove"/>
  </way>
  <way id="34601392" version="1" timestamp="2009-05-16T18:15:29Z" changeset="1212998" uid="106831" user="sc71">
    <nd ref="360837711"/>
    <nd ref="401770164"/>
    <nd ref="401770166"/>
    <tag k="highway" v="residential"/>
    <tag k="name" v="Mount Pleasant"/>
  </way>
  <way id="34601393" version="2" timestamp="2023-06-19T13:00:44Z" changeset="137518431" uid="387349" user="indofraiser">
    <nd ref="401770167"/>
    <nd ref="401770169"/>
    <nd ref="401770171"/>
    <nd ref="401770173"/>
    <nd ref="401770174"/>
    <tag k="access" v="private"/>
    <tag k="highway" v="residential"/>
    <tag k="name" v="Chapel View"/>
  </way>
  <way id="34601394" version="1" timestamp="2009-05-16T18:15:29Z" changeset="1212998" uid="106831" user="sc71">
    <nd ref="401770178"/>
    <nd ref="401770179"/>
    <nd ref="401770181"/>
    <nd ref="401770183"/>
    <nd ref="401770184"/>
    <nd ref="401770186"/>
    <nd ref="401770188"/>
    <tag k="highway" v="residential"/>
    <tag k="name" v="Sunrise Court"/>
  </way>
  <way id="34601395" version="2" timestamp="2016-12-23T23:22:27Z" changeset="44635834" uid="2330" user="LeedsTracker">
    <nd ref="401770192"/>
    <nd ref="4569592177"/>
    <nd ref="401770193"/>
    <nd ref="401770195"/>
    <nd ref="4569592170"/>
    <nd ref="401770197"/>
    <nd ref="401770204"/>
    <nd ref="401770198"/>
    <nd ref="4569592176"/>
    <nd ref="4569592175"/>
    <nd ref="401770200"/>
    <nd ref="4569592174"/>
    <nd ref="4569592173"/>
    <nd ref="4569592171"/>
    <nd ref="4569592172"/>
    <nd ref="401770202"/>
    <nd ref="401770197"/>
    <tag k="highway" v="residential"/>
    <tag k="name" v="Moorfield"/>
  </way>
  <way id="34650989" version="2" timestamp="2014-06-20T11:20:23Z" changeset="23041998" uid="1639277" user="The Trautbec">
    <nd ref="403097223"/>
    <nd ref="403097225"/>
    <nd ref="403097227"/>
    <nd ref="403097229"/>
    <nd ref="2924572792"/>
    <nd ref="403097231"/>
    <nd ref="403097232"/>
    <nd ref="403097240"/>
    <nd ref="403097236"/>
    <nd ref="403097238"/>
    <tag k="highway" v="residential"/>
    <tag k="name" v="Forest Bank"/>
  </way>
  <way id="34650992" version="5" timestamp="2024-01-14T14:11:17Z" changeset="146246345" uid="592" user="JonS">
    <nd ref="403097253"/>
    <nd ref="3632290689"/>
    <nd ref="403097256"/>
    <tag k="highway" v="residential"/>
    <tag k="maxspeed" v="20 mph"/>
    <tag k="name" v="Mill Lane"/>
    <tag k="surface" v="asphalt"/>
  </way>
  <way id="34650993" version="2" timestamp="2012-12-23T19:20:07Z" changeset="14382138" uid="21264" user="Pobice">
    <nd ref="403097256"/>
    <nd ref="403097262"/>
    <nd ref="403097264"/>
    <nd ref="403097266"/>
    <tag k="highway" v="residential"/>
    <tag k="maxspeed" v="30 mph"/>
    <tag k="name" v="Greenside Court"/>
  </way>
  <way id="34650995" version="2" timestamp="2018-03-04T07:09:01Z" changeset="56863836" uid="3316592" user="Arthtoach">
    <nd ref="403097258"/>
    <nd ref="5453331134"/>
    <nd ref="403097282"/>
    <nd ref="403097284"/>
    <tag k="highway" v="residential"/>
    <tag k="name" v="Mill Garth"/>
  </way>
  <way id="34650996" version="2" timestamp="2009-05-25T14:26:59Z" changeset="1316452" uid="106831" user="sc71">
    <nd ref="410920458"/>
    <nd ref="410920459"/>
    <nd ref="410920464"/>
    <tag k="highway" v="residential"/>
    <tag k="name" v="Harthill Parade"/>
  </way>
  <way id="34650997" version="1" timestamp="2009-05-17T17:38:57Z" changeset="1225020" uid="106831" user="sc71">
    <nd ref="403097311"/>
    <nd ref="403097313"/>
    <nd ref="403097315"/>
    <nd ref="401770091"/>
    <tag k="highway" v="residential"/>
    <tag k="name" v="Spring View"/>
  </way>
  <way id="34650998" version="1" timestamp="2009-05-17T17:38:57Z" changeset="1225020" uid="106831" user="sc71">
    <nd ref="403097294"/>
    <nd ref="403097335"/>
    <tag k="highway" v="residential"/>
    <tag k="name" v="Mill Croft"/>
  </way>
  <way id="34650999" version="1" timestamp="2009-05-17T17:38:57Z" changeset="1225020" uid="106831" user="sc71">
    <nd ref="403097338"/>
    <nd ref="403097335"/>
    <nd ref="403097341"/>
    <tag k="highway" v="residential"/>
    <tag k="name" v="Mill Croft"/>
  </way>
  <way id="34651002" version="2" timestamp="2012-12-15T18:55:15Z" changeset="14284676" uid="21264" user="Pobice">
    <nd ref="403097292"/>
    <nd ref="403097354"/>
    <nd ref="403097358"/>
    <tag k="designation" v="public_footpath"/>
    <tag k="highway" v="residential"/>
    <tag k="name" v="Harthill Lane"/>
  </way>
  <way id="34651003" version="1" timestamp="2009-05-17T17:38:58Z" changeset="1225020" uid="106831" user="sc71">
    <nd ref="403097354"/>
    <nd ref="403097360"/>
    <nd ref="403097364"/>
    <tag k="highway" v="residential"/>
    <tag k="name" v="Harthill Close"/>
  </way>
  <way id="34651004" version="2" timestamp="2018-03-17T08:50:59Z" changeset="57262076" uid="3316592" user="Arthtoach">
    <nd ref="403097288"/>
    <nd ref="5484119205"/>
    <nd ref="403097367"/>
    <nd ref="5484119206"/>
    <nd ref="5484119207"/>
    <nd ref="5484119208"/>
    <nd ref="5484119209"/>
    <nd ref="5484119210"/>
    <nd ref="403097370"/>
    <tag k="highway" v="residential"/>
    <tag k="name" v="Harthill Rise"/>
  </way>
  <way id="34651005" version="3" timestamp="2018-03-17T08:50:59Z" changeset="57262076" uid="3316592" user="Arthtoach">
    <nd ref="410920474"/>
    <nd ref="410920475"/>
    <nd ref="5484119220"/>
    <nd ref="410920476"/>
    <nd ref="410920479"/>
    <nd ref="5484119221"/>
    <nd ref="410920477"/>
    <nd ref="5484119219"/>
    <nd ref="410920478"/>
    <nd ref="5484119218"/>
    <nd ref="5484119217"/>
    <nd ref="410920480"/>
    <nd ref="5484119216"/>
    <nd ref="410920481"/>
    <nd ref="403097382"/>
    <nd ref="5484119215"/>
    <nd ref="403097370"/>
    <nd ref="5484119214"/>
    <nd ref="403097372"/>
    <nd ref="5484119213"/>
    <nd ref="403097375"/>
    <nd ref="403097379"/>
    <tag k="highway" v="residential"/>
    <tag k="name" v="Harthill"/>
  </way>
  <way id="34651006" version="1" timestamp="2009-05-17T17:38:59Z" changeset="1225020" uid="106831" user="sc71">
    <nd ref="403097367"/>
    <nd ref="403097385"/>
    <tag k="highway" v="residential"/>
    <tag k="name" v="Harthill Rise"/>
  </way>
  <way id="34651007" version="4" timestamp="2018-03-17T08:57:46Z" changeset="57262157" uid="3316592" user="Arthtoach">
    <nd ref="403097407"/>
    <nd ref="5484138894"/>
    <nd ref="403097410"/>
    <nd ref="5484138895"/>
    <nd ref="410920487"/>
    <nd ref="5484138896"/>
    <nd ref="403097395"/>
    <nd ref="5484138897"/>
    <nd ref="5484138898"/>
    <nd ref="403097392"/>
    <nd ref="5484138899"/>
    <nd ref="5484138900"/>
    <nd ref="403097389"/>
    <nd ref="5484138901"/>
    <nd ref="5484138902"/>
    <nd ref="403097386"/>
    <nd ref="5484119212"/>
    <nd ref="5484119211"/>
    <nd ref="403097372"/>
    <tag k="highway" v="residential"/>
    <tag k="name" v="Highfield Drive"/>
  </way>
  <way id="34651008" version="3" timestamp="2018-03-17T08:57:46Z" changeset="57262157" uid="3316592" user="Arthtoach">
    <nd ref="5484138893"/>
    <nd ref="5484138892"/>
    <nd ref="403097395"/>
    <tag k="highway" v="residential"/>
    <tag k="name" v="Highfield Gardens"/>
  </way>
  <way id="34651009" version="2" timestamp="2009-05-25T14:27:00Z" changeset="1316452" uid="106831" user="sc71">
    <nd ref="403097410"/>
    <nd ref="403097412"/>
    <nd ref="410920488"/>
    <nd ref="410920499"/>
    <tag k="highway" v="residential"/>
    <tag k="name" v="Hawthorne Close"/>
  </way>
  <way id="35035982" version="4" timestamp="2018-03-03T18:53:54Z" changeset="56854525" uid="3316592" user="Arthtoach">
    <nd ref="403097260"/>
    <nd ref="2068675325"/>
    <nd ref="403097288"/>
    <nd ref="403097290"/>
    <nd ref="403097292"/>
    <nd ref="403097294"/>
    <nd ref="403097296"/>
    <nd ref="2080323251"/>
    <nd ref="403097298"/>
    <nd ref="403097300"/>
    <nd ref="5451851150"/>
    <nd ref="401770091"/>
    <tag k="highway" v="residential"/>
    <tag k="name" v="Spring View"/>
  </way>
  <way id="35035983" version="1" timestamp="2009-05-25T14:26:57Z" changeset="1316452" uid="106831" user="sc71">
    <nd ref="410920463"/>
    <nd ref="410920464"/>
    <tag k="highway" v="residential"/>
    <tag k="name" v="Harthill Avenue"/>
  </way>
  <way id="35035984" version="2" timestamp="2015-07-03T02:27:29Z" changeset="32378133" uid="493595" user="Yorvik Prestigitator">
    <nd ref="410920459"/>
    <nd ref="410920465"/>
    <nd ref="410920466"/>
    <tag k="highway" v="residential"/>
    <tag k="name" v="Graham Walk"/>
  </way>
  <way id="35035985" version="1" timestamp="2009-05-25T14:26:57Z" changeset="1316452" uid="106831" user="sc71">
    <nd ref="410920464"/>
    <nd ref="410920455"/>
    <nd ref="410920460"/>
    <nd ref="403097286"/>
    <nd ref="403097260"/>
    <tag k="highway" v="residential"/>
    <tag k="name" v="Town End"/>
  </way>
  <way id="35035986" version="2" timestamp="2018-03-17T08:50:59Z" changeset="57262076" uid="3316592" user="Arthtoach">
    <nd ref="410920478"/>
    <nd ref="5484119166"/>
    <nd ref="5484119165"/>
    <nd ref="410920482"/>
    <nd ref="410920483"/>
    <nd ref="5484119164"/>
    <nd ref="410920484"/>
    <tag k="highway" v="residential"/>
    <tag k="name" v="Harthill Paddock"/>
  </way>
  <way id="35035989" version="2" timestamp="2012-12-15T18:55:15Z" changeset="14284676" uid="21264" user="Pobice">
    <nd ref="309127215"/>
    <nd ref="2068675248"/>
    <nd ref="410920503"/>
    <nd ref="410920504"/>
    <nd ref="410920505"/>
    <nd ref="410920507"/>
    <nd ref="410920506"/>
    <tag k="highway" v="residential"/>
    <tag k="name" v="Hawthorne Drive"/>
  </way>
  <way id="35035990" version="1" timestamp="2009-05-25T14:26:57Z" changeset="1316452" uid="106831" user="sc71">
    <nd ref="410920507"/>
    <nd ref="410920508"/>
    <tag k="highway" v="residential"/>
    <tag k="name" v="Hawthorne Drive"/>
  </way>
  <way id="35035991" version="1" timestamp="2009-05-25T14:26:57Z" changeset="1316452" uid="106831" user="sc71">
    <nd ref="410920505"/>
    <nd ref="410920509"/>
    <nd ref="410920510"/>
    <tag k="highway" v="residential"/>
    <tag k="name" v="Hawthorne View"/>
  </way>
  <way id="35035992" version="1" timestamp="2009-05-25T14:26:57Z" changeset="1316452" uid="106831" user="sc71">
    <nd ref="410920509"/>
    <nd ref="410920511"/>
    <tag k="highway" v="residential"/>
    <tag k="name" v="Hawthorne View"/>
  </way>
  <way id="35035993" version="1" timestamp="2009-05-25T14:26:58Z" changeset="1316452" uid="106831" user="sc71">
    <nd ref="410920512"/>
    <nd ref="410920513"/>
    <nd ref="410920514"/>
    <nd ref="410920515"/>
    <nd ref="410920522"/>
    <nd ref="410920516"/>
    <tag k="highway" v="residential"/>
    <tag k="name" v="Highfield Close"/>
  </way>
  <way id="35035994" version="1" timestamp="2009-05-25T14:26:58Z" changeset="1316452" uid="106831" user="sc71">
    <nd ref="410920515"/>
    <nd ref="410920517"/>
    <tag k="highway" v="residential"/>
    <tag k="name" v="Highfield Close"/>
  </way>
  <way id="35035995" version="2" timestamp="2012-04-09T21:01:21Z" changeset="11245511" uid="106831" user="sc71">
    <nd ref="410920518"/>
    <nd ref="410920519"/>
    <nd ref="410920520"/>
    <nd ref="410920521"/>
    <nd ref="410920522"/>
    <tag k="highway" v="residential"/>
    <tag k="name" v="Highfield View"/>
  </way>
  <way id="35035996" version="2" timestamp="2012-04-09T21:01:21Z" changeset="11245511" uid="106831" user="sc71">
    <nd ref="410920519"/>
    <nd ref="410920523"/>
    <nd ref="410920524"/>
    <nd ref="410920525"/>
    <tag k="highway" v="residential"/>
    <tag k="name" v="Highfield View"/>
  </way>
  <way id="35223819" version="15" timestamp="2022-10-28T19:14:20Z" changeset="128188162" uid="13666626" user="RedAuburn">
    <nd ref="413252711"/>
    <nd ref="350556092"/>
    <nd ref="9878592483"/>
    <nd ref="247782279"/>
    <tag k="destination" v="Hull;Pontefract"/>
    <tag k="highway" v="motorway_link"/>
    <tag k="lanes" v="1"/>
    <tag k="maxspeed" v="70 mph"/>
    <tag k="maxspeed:type" v="GB:motorway"/>
    <tag k="national_highways:area" v="12"/>
    <tag k="oneway" v="yes"/>
    <tag k="operator" v="National Highways"/>
    <tag k="operator:wikidata" v="Q5760006"/>
    <tag k="surface" v="asphalt"/>
  </way>
  <way id="35223820" version="16" timestamp="2024-01-14T13:45:10Z" changeset="146245438" uid="592" user="JonS">
    <nd ref="413252711"/>
    <nd ref="9813324560"/>
    <nd ref="247782201"/>
    <nd ref="18485919"/>
    <nd ref="1113758793"/>
    <nd ref="18577365"/>
    <tag k="highway" v="trunk"/>
    <tag k="lanes" v="2"/>
    <tag k="lit" v="yes"/>
    <tag k="maxheight" v="default"/>
    <tag k="maxspeed" v="30 mph"/>
    <tag k="name" v="Gelderd Road"/>
    <tag k="oneway" v="yes"/>
    <tag k="ref" v="A62"/>
    <tag k="sidewalk" v="left"/>
    <tag k="surface" v="asphalt"/>
  </way>
  <way id="35267940" version="5" timestamp="2016-04-07T08:50:08Z" changeset="38374230" uid="76002" user="salix01">
    <nd ref="413408971"/>
    <nd ref="413408976"/>
    <nd ref="3925917586"/>
    <nd ref="3925917589"/>
    <nd ref="3925917588"/>
    <nd ref="3925917587"/>
    <nd ref="3925917592"/>
    <nd ref="3925917591"/>
    <nd ref="413408975"/>
    <nd ref="3925917593"/>
    <nd ref="4006470163"/>
    <nd ref="3925906311"/>
    <nd ref="3925906313"/>
    <tag k="highway" v="residential"/>
    <tag k="name" v="Bradford Road"/>
    <tag k="oneway" v="yes"/>
  </way>
  <way id="35267941" version="2" timestamp="2016-01-03T19:23:22Z" changeset="36345608" uid="45399" user="pmailkeey">
    <nd ref="413408961"/>
    <nd ref="413408962"/>
    <nd ref="413408963"/>
    <nd ref="413408964"/>
    <nd ref="3925906312"/>
    <nd ref="413408965"/>
    <nd ref="413408967"/>
    <tag k="highway" v="residential"/>
    <tag k="name" v="Wakefield Road"/>
    <tag k="oneway" v="yes"/>
  </way>
  <way id="48818441" version="6" timestamp="2024-01-14T12:29:01Z" changeset="146242722" uid="592" user="JonS">
    <nd ref="619367265"/>
    <nd ref="410937133"/>
    <nd ref="403097163"/>
    <nd ref="403097165"/>
    <tag k="highway" v="primary"/>
    <tag k="lanes" v="2"/>
    <tag k="lit" v="yes"/>
    <tag k="maxspeed" v="40 mph"/>
    <tag k="motorcar" v="yes"/>
    <tag k="name" v="Gelderd Road"/>
    <tag k="ref" v="A62"/>
    <tag k="sidewalk" v="right"/>
    <tag k="surface" v="asphalt"/>
  </way>
  <way id="48818442" version="9" timestamp="2020-08-23T19:16:31Z" changeset="89819273" uid="73934" user="hlo281">
    <nd ref="1916264867"/>
    <nd ref="5750379368"/>
    <tag k="highway" v="primary"/>
    <tag k="lanes" v="1"/>
    <tag k="lit" v="yes"/>
    <tag k="maxspeed" v="30 mph"/>
    <tag k="motorcar" v="yes"/>
    <tag k="name" v="Gelderd Road"/>
    <tag k="oneway" v="yes"/>
    <tag k="ref" v="A62"/>
    <tag k="surface" v="asphalt"/>
  </way>
  <way id="48818443" version="5" timestamp="2024-01-14T12:28:13Z" changeset="146242722" uid="592" user="JonS">
    <nd ref="441334875"/>
    <nd ref="403097109"/>
    <nd ref="21099193"/>
    <nd ref="1634917070"/>
    <nd ref="1634917069"/>
    <nd ref="1634917068"/>
    <nd ref="403097181"/>
    <nd ref="410920536"/>
    <nd ref="619367265"/>
    <tag k="highway" v="primary"/>
    <tag k="lanes" v="2"/>
    <tag k="lanes:left" v="2"/>
    <tag k="lanes:right" v="1"/>
    <tag k="lit" v="yes"/>
    <tag k="maxspeed" v="50 mph"/>
    <tag k="motorcar" v="yes"/>
    <tag k="name" v="Gelderd Road"/>
    <tag k="ref" v="A62"/>
    <tag k="sidewalk" v="right"/>
    <tag k="surface" v="asphalt"/>
  </way>
  <way id="55166965" version="9" timestamp="2020-01-06T12:51:41Z" changeset="79248812" uid="10219372" user="saisuri">
    <nd ref="18485745"/>
    <nd ref="5471552980"/>
    <nd ref="18485746"/>
    <nd ref="6499312723"/>
    <nd ref="401323316"/>
    <nd ref="18485747"/>
    <nd ref="401323318"/>
    <nd ref="18485748"/>
    <nd ref="401323280"/>
    <nd ref="1897167741"/>
    <nd ref="403206626"/>
    <nd ref="7112105898"/>
    <nd ref="18485750"/>
    <nd ref="401323298"/>
    <nd ref="18485751"/>
    <nd ref="18485752"/>
    <tag k="highway" v="primary"/>
    <tag k="lit" v="yes"/>
    <tag k="maxspeed" v="40 mph"/>
    <tag k="name" v="Wakefield Road"/>
    <tag k="ref" v="A650"/>
    <tag k="source:name" v="OS_OpenData_Locator"/>
    <tag k="surface" v="asphalt"/>
  </way>
  <way id="146708829" version="8" timestamp="2022-10-30T23:33:33Z" changeset="128267492" uid="3560" user="Firefishy">
    <nd ref="1599672793"/>
    <nd ref="350893"/>
    <nd ref="1599672797"/>
    <nd ref="350894"/>
    <nd ref="1599672814"/>
    <nd ref="1599672803"/>
    <nd ref="350896"/>
    <nd ref="350898"/>
    <nd ref="403097071"/>
    <tag k="carriageway_ref" v="A"/>
    <tag k="highway" v="motorway"/>
    <tag k="lanes" v="2"/>
    <tag k="lit" v="yes"/>
    <tag k="maxspeed" v="70 mph"/>
    <tag k="national_highways:area" v="12"/>
    <tag k="oneway" v="yes"/>
    <tag k="operator" v="National Highways"/>
    <tag k="operator:wikidata" v="Q5760006"/>
    <tag k="ref" v="M621"/>
    <tag k="surface" v="asphalt"/>
  </way>
  <way id="146708833" version="8" timestamp="2022-10-30T23:33:33Z" changeset="128267492" uid="3560" user="Firefishy">
    <nd ref="1599672790"/>
    <nd ref="1599672793"/>
    <tag k="bridge" v="yes"/>
    <tag k="carriageway_ref" v="A"/>
    <tag k="highway" v="motorway"/>
    <tag k="lanes" v="2"/>
    <tag k="layer" v="1"/>
    <tag k="lit" v="yes"/>
    <tag k="maxspeed" v="70 mph"/>
    <tag k="national_highways:area" v="12"/>
    <tag k="oneway" v="yes"/>
    <tag k="operator" v="National Highways"/>
    <tag k="operator:wikidata" v="Q5760006"/>
    <tag k="ref" v="M621"/>
    <tag k="surface" v="asphalt"/>
  </way>
  <way id="158777361" version="2" timestamp="2018-03-11T16:26:25Z" changeset="57086723" uid="3316592" user="Arthtoach">
    <nd ref="1709184073"/>
    <nd ref="1709184071"/>
    <nd ref="1709184069"/>
    <nd ref="5471179469"/>
    <nd ref="1709184067"/>
    <nd ref="1709184065"/>
    <nd ref="1709184064"/>
    <nd ref="1709184060"/>
    <nd ref="5471179470"/>
    <nd ref="1709184061"/>
    <tag k="highway" v="residential"/>
    <tag k="name" v="Ash Close"/>
  </way>
  <way id="181175645" version="2" timestamp="2020-10-31T11:01:51Z" changeset="93332850" uid="10149683" user="WakefieldMapper">
    <nd ref="1916264176"/>
    <nd ref="1916264183"/>
    <nd ref="1916264332"/>
    <nd ref="1916264353"/>
    <nd ref="1916264375"/>
    <nd ref="1916264379"/>
    <nd ref="1916264217"/>
    <nd ref="1916264209"/>
    <nd ref="1916264163"/>
    <nd ref="1916264110"/>
    <nd ref="1916264121"/>
    <nd ref="1916264116"/>
    <nd ref="1916264176"/>
    <tag k="building" v="commercial"/>
    <tag k="name" v="West Yorkshire Joint Services"/>
  </way>
  <way id="181175658" version="4" timestamp="2024-06-14T22:35:15Z" changeset="152700850" uid="1778799" user="SomeoneElse_Revert">
    <nd ref="1916265046"/>
    <nd ref="1916265073"/>
    <nd ref="1916265026"/>
    <nd ref="1916265030"/>
    <nd ref="1916265075"/>
    <nd ref="1916265091"/>
    <nd ref="1916265034"/>
    <nd ref="1916265000"/>
    <nd ref="1916265004"/>
    <nd ref="1916264990"/>
    <nd ref="1916265011"/>
    <nd ref="1916265022"/>
    <nd ref="1916265038"/>
    <nd ref="1916265046"/>
    <tag k="building" v="retail"/>
    <tag k="name" v="The Bathroom House"/>
    <tag k="shop" v="bathroom_furnishing"/>
  </way>
  <way id="181175666" version="2" timestamp="2020-10-31T10:51:45Z" changeset="93332464" uid="10149683" user="WakefieldMapper">
    <nd ref="1916264387"/>
    <nd ref="1916264263"/>
    <nd ref="1916264242"/>
    <nd ref="1916264187"/>
    <nd ref="1916264179"/>
    <nd ref="1916264133"/>
    <nd ref="1916264139"/>
    <nd ref="1916264098"/>
    <nd ref="1916264118"/>
    <nd ref="1916264100"/>
    <nd ref="1916264116"/>
    <nd ref="1916264176"/>
    <nd ref="1916264239"/>
    <nd ref="1916264211"/>
    <nd ref="1916264258"/>
    <nd ref="1916264266"/>
    <nd ref="1916264424"/>
    <nd ref="1916264387"/>
    <tag k="building" v="commercial"/>
    <tag k="name" v="West Yorkshire Business Hive"/>
  </way>
  <way id="181175712" version="7" timestamp="2025-04-06T11:46:17Z" changeset="164586600" uid="8857" user="philipcullen">
    <nd ref="1916264963"/>
    <nd ref="1916264980"/>
    <nd ref="1916264924"/>
    <nd ref="1916264918"/>
    <nd ref="1916264963"/>
    <tag k="addr:city" v="Leeds"/>
    <tag k="addr:housename" v="Overland Park"/>
    <tag k="addr:postcode" v="LS27 7FE"/>
    <tag k="addr:street" v="Gelderd Road"/>
    <tag k="addr:suburb" v="Gildersome"/>
    <tag k="addr:unit" v="14"/>
    <tag k="building" v="retail"/>
    <tag k="fhrs:id" v="687556"/>
    <tag k="name" v="JTF Mega Discount Warehouse"/>
    <tag k="ref:GB:uprn" v="72356784"/>
    <tag k="shop" v="houseware"/>
  </way>
  <way id="181175720" version="3" timestamp="2025-04-06T11:46:17Z" changeset="164586600" uid="8857" user="philipcullen">
    <nd ref="1916264421"/>
    <nd ref="1916264439"/>
    <nd ref="1916264375"/>
    <nd ref="1916264361"/>
    <nd ref="1916264421"/>
    <tag k="building" v="industrial"/>
    <tag k="name" v="West Yorkshire Calibration Services"/>
    <tag k="ref:GB:uprn" v="72751924"/>
  </way>
  <way id="181175769" version="4" timestamp="2024-06-14T22:35:45Z" changeset="152700850" uid="1778799" user="SomeoneElse_Revert">
    <nd ref="1916265032"/>
    <nd ref="1916264984"/>
    <nd ref="1916264982"/>
    <nd ref="1916265008"/>
    <nd ref="1916265024"/>
    <nd ref="1916265032"/>
    <tag k="building" v="retail"/>
    <tag k="name" v="Jordan Bikes"/>
    <tag k="shop" v="motorcycle"/>
  </way>
  <way id="181175798" version="2" timestamp="2017-01-19T00:34:09Z" changeset="45285977" uid="2330" user="LeedsTracker">
    <nd ref="1916265028"/>
    <nd ref="1916265069"/>
    <nd ref="1916265010"/>
    <nd ref="1916264994"/>
    <nd ref="1916265002"/>
    <nd ref="1916264996"/>
    <nd ref="1916265006"/>
    <nd ref="1916264998"/>
    <nd ref="1916265028"/>
    <tag k="building" v="commercial"/>
    <tag k="name" v="Trimble House"/>
  </way>
  <way id="182620848" version="8" timestamp="2024-01-14T12:35:02Z" changeset="146241282" uid="592" user="JonS">
    <nd ref="18485918"/>
    <nd ref="395540078"/>
    <nd ref="386257588"/>
    <nd ref="247782277"/>
    <nd ref="9813324562"/>
    <nd ref="413252711"/>
    <tag k="foot" v="no"/>
    <tag k="highway" v="trunk"/>
    <tag k="lanes" v="2"/>
    <tag k="lit" v="yes"/>
    <tag k="maxheight" v="default"/>
    <tag k="maxspeed" v="30 mph"/>
    <tag k="name" v="Gelderd Road"/>
    <tag k="oneway" v="yes"/>
    <tag k="ref" v="A62"/>
    <tag k="sidewalk" v="left"/>
    <tag k="surface" v="asphalt"/>
  </way>
  <way id="195430850" version="1" timestamp="2012-12-09T20:53:36Z" changeset="14218667" uid="21264" user="Pobice">
    <nd ref="2058767867"/>
    <nd ref="401349102"/>
    <nd ref="401349081"/>
    <tag k="highway" v="residential"/>
    <tag k="lanes" v="1"/>
    <tag k="name" v="Woodhead Lane"/>
    <tag k="sidewalk" v="left"/>
  </way>
  <way id="196187612" version="4" timestamp="2023-03-18T14:25:21Z" changeset="133825069" uid="313905" user="Nette">
    <nd ref="1916265427"/>
    <nd ref="401770208"/>
    <tag k="highway" v="secondary"/>
    <tag k="lanes" v="2"/>
    <tag k="maxspeed" v="20 mph"/>
    <tag k="name" v="Church Street"/>
    <tag k="ref" v="B6126"/>
    <tag k="surface" v="asphalt"/>
  </way>
  <way id="196543090" version="6" timestamp="2023-11-15T08:40:13Z" changeset="144040774" uid="3951648" user="rskedgell">
    <nd ref="300557657"/>
    <nd ref="300557656"/>
    <nd ref="300557655"/>
    <nd ref="5750379372"/>
    <nd ref="300557654"/>
    <tag k="destination:lanes" v="Leeds (A62);Morley (A650)|Leeds (M621);Morley (A650)|Leeds (M621);Manchester;Hull;Batley (A62)"/>
    <tag k="highway" v="trunk"/>
    <tag k="lanes" v="3"/>
    <tag k="maxspeed" v="40 mph"/>
    <tag k="oneway" v="yes"/>
    <tag k="ref" v="A650"/>
    <tag k="sidewalk" v="no"/>
    <tag k="surface" v="asphalt"/>
  </way>
  <way id="196543091" version="3" timestamp="2019-07-02T15:14:28Z" changeset="71826108" uid="7409020" user="krinkov76239">
    <nd ref="413408990"/>
    <nd ref="300557663"/>
    <nd ref="2068626042"/>
    <nd ref="300557657"/>
    <tag k="highway" v="trunk"/>
    <tag k="lanes" v="2"/>
    <tag k="maxspeed" v="40 mph"/>
    <tag k="oneway" v="yes"/>
    <tag k="ref" v="A650"/>
    <tag k="surface" v="asphalt"/>
  </way>
  <way id="196547757" version="3" timestamp="2024-01-14T14:12:48Z" changeset="146246345" uid="592" user="JonS">
    <nd ref="309127215"/>
    <nd ref="401769687"/>
    <nd ref="410920512"/>
    <nd ref="309127209"/>
    <nd ref="21099197"/>
    <tag k="highway" v="secondary"/>
    <tag k="lanes" v="2"/>
    <tag k="lit" v="yes"/>
    <tag k="maxspeed" v="30 mph"/>
    <tag k="name" v="Branch End"/>
    <tag k="ref" v="B6126"/>
    <tag k="surface" v="asphalt"/>
  </way>
  <way id="197837733" version="1" timestamp="2012-12-23T19:20:06Z" changeset="14382138" uid="21264" user="Pobice">
    <nd ref="2080323249"/>
    <nd ref="2080323247"/>
    <tag k="highway" v="residential"/>
    <tag k="name" v="Mill Fold"/>
  </way>
  <way id="197837734" version="1" timestamp="2012-12-23T19:20:06Z" changeset="14382138" uid="21264" user="Pobice">
    <nd ref="403097256"/>
    <nd ref="403097269"/>
    <nd ref="2080323249"/>
    <nd ref="403097258"/>
    <nd ref="2068675315"/>
    <nd ref="2068675319"/>
    <nd ref="403097260"/>
    <tag k="highway" v="residential"/>
    <tag k="maxspeed" v="30 mph"/>
    <tag k="name" v="Mill Lane"/>
  </way>
  <way id="197837735" version="3" timestamp="2018-03-01T06:31:50Z" changeset="56776926" uid="3316592" user="Arthtoach">
    <nd ref="401770091"/>
    <nd ref="403097302"/>
    <nd ref="401770075"/>
    <nd ref="401770072"/>
    <nd ref="2080323275"/>
    <nd ref="2080323279"/>
    <nd ref="403097304"/>
    <nd ref="403097306"/>
    <nd ref="403097308"/>
    <nd ref="5444502851"/>
    <nd ref="403097309"/>
    <nd ref="403097317"/>
    <nd ref="403097332"/>
    <nd ref="5444474743"/>
    <tag k="highway" v="residential"/>
    <tag k="lanes" v="1"/>
    <tag k="name" v="Spring View"/>
    <tag k="sidewalk" v="no"/>
  </way>
  <way id="235018594" version="8" timestamp="2022-10-30T23:33:33Z" changeset="128267492" uid="3560" user="Firefishy">
    <nd ref="2431259722"/>
    <nd ref="403206609"/>
    <nd ref="1280611279"/>
    <nd ref="1280611356"/>
    <nd ref="3834386769"/>
    <nd ref="1280611331"/>
    <nd ref="1280611277"/>
    <nd ref="350822"/>
    <tag k="carriageway_ref" v="B"/>
    <tag k="highway" v="motorway"/>
    <tag k="lanes" v="2"/>
    <tag k="lit" v="yes"/>
    <tag k="maxspeed" v="70 mph"/>
    <tag k="maxspeed:type" v="GB:motorway"/>
    <tag k="national_highways:area" v="12"/>
    <tag k="oneway" v="yes"/>
    <tag k="operator" v="National Highways"/>
    <tag k="operator:wikidata" v="Q5760006"/>
    <tag k="ref" v="M621"/>
    <tag k="surface" v="asphalt"/>
  </way>
  <way id="267283975" version="5" timestamp="2024-01-14T12:27:29Z" changeset="146242722" uid="592" user="JonS">
    <nd ref="403097083"/>
    <nd ref="2727540377"/>
    <nd ref="403097205"/>
    <nd ref="8483504633"/>
    <nd ref="21099189"/>
    <nd ref="1634918174"/>
    <nd ref="1634918176"/>
    <nd ref="441334881"/>
    <nd ref="441334879"/>
    <nd ref="7247681029"/>
    <nd ref="441334878"/>
    <nd ref="403097214"/>
    <nd ref="1634918177"/>
    <nd ref="441334875"/>
    <tag k="highway" v="primary"/>
    <tag k="lanes" v="2"/>
    <tag k="lit" v="yes"/>
    <tag k="maxspeed" v="50 mph"/>
    <tag k="motorcar" v="yes"/>
    <tag k="name" v="Gelderd Road"/>
    <tag k="ref" v="A62"/>
    <tag k="sidewalk" v="right"/>
    <tag k="surface" v="asphalt"/>
  </way>
  <way id="267283977" version="9" timestamp="2021-07-18T16:55:35Z" changeset="108200197" uid="490248" user="johndarm">
    <nd ref="21099198"/>
    <nd ref="403206575"/>
    <nd ref="410937080"/>
    <nd ref="5484599560"/>
    <nd ref="410937077"/>
    <nd ref="401348987"/>
    <nd ref="6590643601"/>
    <nd ref="401348991"/>
    <nd ref="7558440080"/>
    <nd ref="410937070"/>
    <nd ref="360843122"/>
    <nd ref="401348999"/>
    <nd ref="8930904616"/>
    <nd ref="401349016"/>
    <nd ref="401349017"/>
    <nd ref="21099200"/>
    <nd ref="360843562"/>
    <nd ref="401349026"/>
    <nd ref="410937064"/>
    <nd ref="401349125"/>
    <nd ref="401349120"/>
    <tag k="highway" v="primary"/>
    <tag k="lit" v="yes"/>
    <tag k="maxspeed" v="40 mph"/>
    <tag k="motorcar" v="yes"/>
    <tag k="name" v="Gelderd Road"/>
    <tag k="ref" v="A62"/>
    <tag k="sidewalk" v="right"/>
  </way>
  <way id="267283979" version="3" timestamp="2024-01-14T14:15:21Z" changeset="146246397" uid="592" user="JonS">
    <nd ref="441334922"/>
    <nd ref="441334918"/>
    <nd ref="441334914"/>
    <nd ref="21099187"/>
    <nd ref="403097100"/>
    <nd ref="441334883"/>
    <nd ref="1830066610"/>
    <nd ref="403097083"/>
    <tag k="highway" v="primary"/>
    <tag k="lanes" v="2"/>
    <tag k="lit" v="yes"/>
    <tag k="maxspeed" v="50 mph"/>
    <tag k="motorcar" v="yes"/>
    <tag k="name" v="Gelderd Road"/>
    <tag k="ref" v="A62"/>
    <tag k="surface" v="asphalt"/>
  </way>
  <way id="283134010" version="5" timestamp="2024-06-14T22:35:20Z" changeset="152700850" uid="1778799" user="SomeoneElse_Revert">
    <nd ref="2870478991"/>
    <nd ref="5550688289"/>
    <nd ref="5550688288"/>
    <nd ref="2870478990"/>
    <nd ref="2870478991"/>
    <tag k="addr:city" v="Leeds"/>
    <tag k="addr:housenumber" v="130"/>
    <tag k="addr:postcode" v="LS27 7JB"/>
    <tag k="addr:street" v="street Lane"/>
    <tag k="amenity" v="fast_food"/>
    <tag k="building" v="commercial"/>
    <tag k="cuisine" v="chinese"/>
    <tag k="fhrs:id" v="1012355"/>
    <tag k="name" v="Just Wok"/>
    <tag k="smoking" v="no"/>
  </way>
  <way id="283134132" version="5" timestamp="2024-06-14T22:35:28Z" changeset="152700850" uid="1778799" user="SomeoneElse_Revert">
    <nd ref="2870479922"/>
    <nd ref="6331294913"/>
    <nd ref="6331294912"/>
    <nd ref="2870479921"/>
    <nd ref="2870479922"/>
    <tag k="addr:city" v="Leeds"/>
    <tag k="addr:housenumber" v="120b"/>
    <tag k="addr:postcode" v="LS27 7JB"/>
    <tag k="addr:street" v="Street Lane"/>
    <tag k="amenity" v="fast_food"/>
    <tag k="building" v="retail"/>
    <tag k="cuisine" v="indian"/>
    <tag k="fhrs:id" v="916357"/>
    <tag k="fixme:addr3" v="Morley"/>
    <tag k="name" v="Indian Spice"/>
  </way>
  <way id="283134612" version="10" timestamp="2025-04-06T11:46:17Z" changeset="164586600" uid="8857" user="philipcullen">
    <nd ref="2870481532"/>
    <nd ref="2870481533"/>
    <nd ref="2870481534"/>
    <nd ref="2870481535"/>
    <nd ref="2870481536"/>
    <nd ref="2870481537"/>
    <nd ref="2870481532"/>
    <tag k="addr:city" v="Leeds"/>
    <tag k="addr:postcode" v="LS27 7HX"/>
    <tag k="addr:street" v="Street Lane"/>
    <tag k="addr:suburb" v="Morley"/>
    <tag k="amenity" v="pub"/>
    <tag k="building" v="yes"/>
    <tag k="fhrs:id" v="320731"/>
    <tag k="name" v="Gildersome Conservative Club"/>
    <tag k="ref:GB:uprn" v="72556818"/>
    <tag k="wikidata" v="Q61861758"/>
  </way>
  <way id="283134968" version="7" timestamp="2024-07-15T22:33:09Z" changeset="153991674" uid="21425661" user="CjMalone">
    <nd ref="2870478517"/>
    <nd ref="3632290907"/>
    <nd ref="2870478518"/>
    <nd ref="2870478519"/>
    <nd ref="2870478520"/>
    <nd ref="2870478517"/>
    <tag k="addr:city" v="Leeds"/>
    <tag k="addr:housenumber" v="94-96"/>
    <tag k="addr:postcode" v="LS27 7EL"/>
    <tag k="addr:street" v="Finkle Lane"/>
    <tag k="addr:suburb" v="Morley"/>
    <tag k="alt_name" v="Co-op"/>
    <tag k="brand" v="The Co-operative Food"/>
    <tag k="brand:wikidata" v="Q107617274"/>
    <tag k="building" v="supermarket"/>
    <tag k="check_date" v="2024-07-15"/>
    <tag k="check_date:opening_hours" v="2024-07-15"/>
    <tag k="fhrs:id" v="320725"/>
    <tag k="name" v="The Co-operative Food"/>
    <tag k="opening_hours" v="Mo-Su 06:00-22:00"/>
    <tag k="operator" v="The Co-operative Group"/>
    <tag k="operator:wikidata" v="Q117202"/>
    <tag k="shop" v="supermarket"/>
    <tag k="website" v="https://www.coop.co.uk/store-finder/LS27-7DX/gildersome"/>
  </way>
  <way id="309969315" version="10" timestamp="2022-10-28T19:15:24Z" changeset="128188196" uid="13666626" user="RedAuburn">
    <nd ref="247782279"/>
    <nd ref="9878592480"/>
    <nd ref="9878592481"/>
    <nd ref="1581832421"/>
    <nd ref="9878592479"/>
    <nd ref="9878592478"/>
    <nd ref="9878592477"/>
    <nd ref="674869549"/>
    <nd ref="1581832403"/>
    <nd ref="1581832369"/>
    <nd ref="1581832330"/>
    <nd ref="1581832304"/>
    <nd ref="321855"/>
    <tag k="destination" v="Hull;Pontefract"/>
    <tag k="destination:ref" v="M62"/>
    <tag k="highway" v="motorway_link"/>
    <tag k="lanes" v="1"/>
    <tag k="lit" v="yes"/>
    <tag k="maxspeed" v="70 mph"/>
    <tag k="maxspeed:type" v="GB:motorway"/>
    <tag k="national_highways:area" v="12"/>
    <tag k="oneway" v="yes"/>
    <tag k="operator" v="National Highways"/>
    <tag k="operator:wikidata" v="Q5760006"/>
    <tag k="surface" v="asphalt"/>
  </way>
  <way id="309969317" version="7" timestamp="2022-10-28T19:15:24Z" changeset="128188196" uid="13666626" user="RedAuburn">
    <nd ref="2632708922"/>
    <nd ref="1581832379"/>
    <nd ref="247782201"/>
    <tag k="highway" v="motorway_link"/>
    <tag k="lanes" v="2"/>
    <tag k="maxspeed" v="70 mph"/>
    <tag k="maxspeed:type" v="GB:motorway"/>
    <tag k="national_highways:area" v="12"/>
    <tag k="oneway" v="yes"/>
    <tag k="operator" v="National Highways"/>
    <tag k="operator:wikidata" v="Q5760006"/>
    <tag k="surface" v="asphalt"/>
  </way>
  <way id="326795335" version="3" timestamp="2019-07-04T06:16:42Z" changeset="71883662" uid="8369523" user="unnsyeda">
    <nd ref="3334704051"/>
    <nd ref="5484667461"/>
    <nd ref="401323311"/>
    <nd ref="401323312"/>
    <nd ref="6588123781"/>
    <nd ref="3329377649"/>
    <nd ref="3329377650"/>
    <tag k="highway" v="unclassified"/>
    <tag k="name" v="Nepshaw Lane North"/>
  </way>
  <way id="333180828" version="9" timestamp="2024-01-14T14:09:26Z" changeset="146246397" uid="592" user="JonS">
    <nd ref="401349027"/>
    <nd ref="5471193037"/>
    <nd ref="401349028"/>
    <nd ref="401769779"/>
    <nd ref="401349029"/>
    <nd ref="2924572802"/>
    <nd ref="401349030"/>
    <nd ref="3632290930"/>
    <nd ref="401349031"/>
    <nd ref="410937081"/>
    <nd ref="3367004144"/>
    <nd ref="3632290929"/>
    <nd ref="401349032"/>
    <nd ref="3632290897"/>
    <nd ref="5467902105"/>
    <nd ref="401349012"/>
    <nd ref="401349033"/>
    <nd ref="5471172614"/>
    <nd ref="3632290686"/>
    <nd ref="401349034"/>
    <nd ref="401349035"/>
    <tag k="highway" v="residential"/>
    <tag k="lane_markings" v="no"/>
    <tag k="name" v="Finkle Lane"/>
    <tag k="sidewalk" v="both"/>
    <tag k="surface" v="asphalt"/>
  </way>
  <way id="352654208" version="10" timestamp="2024-06-17T14:08:58Z" changeset="152805446" uid="145231" user="woodpeck_repair">
    <nd ref="309127225"/>
    <nd ref="2058715080"/>
    <nd ref="309127224"/>
    <nd ref="300706742"/>
    <nd ref="2068231144"/>
    <nd ref="300706745"/>
    <nd ref="2068231145"/>
    <nd ref="2068231146"/>
    <nd ref="401349043"/>
    <tag k="highway" v="tertiary"/>
    <tag k="lanes" v="2"/>
    <tag k="lit" v="yes"/>
    <tag k="maxspeed" v="30 mph"/>
    <tag k="name" v="East View"/>
    <tag k="sidewalk" v="both"/>
    <tag k="surface" v="asphalt"/>
  </way>
  <way id="352654209" version="12" timestamp="2024-06-17T14:09:00Z" changeset="152805446" uid="145231" user="woodpeck_repair">
    <nd ref="401349080"/>
    <nd ref="401349111"/>
    <nd ref="401349091"/>
    <nd ref="3632290928"/>
    <nd ref="2068761860"/>
    <nd ref="3367004154"/>
    <nd ref="401769824"/>
    <nd ref="3632290923"/>
    <nd ref="360840501"/>
    <nd ref="2065424157"/>
    <nd ref="3632290681"/>
    <nd ref="401769822"/>
    <nd ref="2924572773"/>
    <tag k="cycleway:both" v="no"/>
    <tag k="highway" v="tertiary"/>
    <tag k="lanes" v="2"/>
    <tag k="lit" v="yes"/>
    <tag k="maxspeed" v="20 mph"/>
    <tag k="name" v="Street Lane"/>
    <tag k="sidewalk" v="both"/>
    <tag k="surface" v="asphalt"/>
  </way>
  <way id="389398669" version="4" timestamp="2024-02-26T11:39:45Z" changeset="147928092" uid="13841144" user="Flamen_Sru">
    <nd ref="3925711998"/>
    <nd ref="3925711999"/>
    <nd ref="3925712000"/>
    <nd ref="3925712001"/>
    <nd ref="11664982656"/>
    <nd ref="401770208"/>
    <tag k="highway" v="secondary"/>
    <tag k="name" v="Church Street"/>
    <tag k="oneway" v="yes"/>
    <tag k="ref" v="B6126"/>
    <tag k="surface" v="asphalt"/>
  </way>
  <way id="389398670" version="5" timestamp="2024-02-26T12:11:02Z" changeset="147929205" uid="13841144" user="Flamen_Sru">
    <nd ref="11665069545"/>
    <nd ref="3925711998"/>
    <tag k="highway" v="secondary"/>
    <tag k="name" v="Church Street"/>
    <tag k="oneway" v="yes"/>
    <tag k="ref" v="B6126"/>
    <tag k="surface" v="asphalt"/>
  </way>
  <way id="389398672" version="4" timestamp="2024-02-26T11:39:45Z" changeset="147928092" uid="13841144" user="Flamen_Sru">
    <nd ref="3925712029"/>
    <nd ref="11664982659"/>
    <nd ref="3925712030"/>
    <nd ref="3925712031"/>
    <nd ref="3925712032"/>
    <tag k="highway" v="secondary"/>
    <tag k="name" v="Town Street"/>
    <tag k="oneway" v="yes"/>
    <tag k="ref" v="B6126"/>
    <tag k="surface" v="asphalt"/>
  </way>
  <way id="389398673" version="4" timestamp="2024-02-26T11:39:45Z" changeset="147928092" uid="13841144" user="Flamen_Sru">
    <nd ref="3925712032"/>
    <nd ref="3925712006"/>
    <tag k="highway" v="secondary"/>
    <tag k="name" v="Town Street"/>
    <tag k="oneway" v="yes"/>
    <tag k="ref" v="B6126"/>
    <tag k="surface" v="asphalt"/>
  </way>
  <way id="389398674" version="11" timestamp="2024-06-17T14:08:58Z" changeset="152805446" uid="145231" user="woodpeck_repair">
    <nd ref="2924572773"/>
    <nd ref="3925712035"/>
    <nd ref="3925712036"/>
    <nd ref="11665069557"/>
    <tag k="highway" v="tertiary"/>
    <tag k="name" v="Street Lane"/>
    <tag k="oneway" v="yes"/>
    <tag k="surface" v="asphalt"/>
  </way>
  <way id="389398676" version="10" timestamp="2024-06-17T14:09:00Z" changeset="152805446" uid="145231" user="woodpeck_repair">
    <nd ref="11665069557"/>
    <nd ref="11665069556"/>
    <tag k="highway" v="tertiary"/>
    <tag k="name" v="Street Lane"/>
    <tag k="oneway" v="yes"/>
    <tag k="surface" v="asphalt"/>
  </way>
  <way id="389416903" version="4" timestamp="2018-02-11T14:11:09Z" changeset="56264456" uid="3316592" user="Arthtoach">
    <nd ref="3925906313"/>
    <nd ref="3925906309"/>
    <nd ref="413408967"/>
    <nd ref="3925917594"/>
    <nd ref="3925917618"/>
    <nd ref="413408969"/>
    <nd ref="413409013"/>
    <nd ref="3925917590"/>
    <nd ref="413408971"/>
    <tag k="highway" v="residential"/>
    <tag k="name" v="Bradford Road"/>
    <tag k="oneway" v="yes"/>
  </way>
  <way id="389418061" version="2" timestamp="2016-02-14T22:34:21Z" changeset="37213917" uid="1802093" user="Paul Berry">
    <nd ref="3925917591"/>
    <nd ref="413409013"/>
    <tag k="highway" v="residential"/>
    <tag k="name" v="Bradford Road"/>
  </way>
  <way id="397858785" version="2" timestamp="2023-12-24T19:15:26Z" changeset="145478171" uid="387349" user="indofraiser">
    <nd ref="3925917593"/>
    <nd ref="413408985"/>
    <nd ref="413408987"/>
    <tag k="access" v="private"/>
    <tag k="highway" v="residential"/>
    <tag k="name" v="The Tithings"/>
  </way>
  <way id="412412172" version="4" timestamp="2024-06-14T22:35:20Z" changeset="152700850" uid="1778799" user="SomeoneElse_Revert">
    <nd ref="4138458429"/>
    <nd ref="4138458427"/>
    <nd ref="4138458426"/>
    <nd ref="4138458428"/>
    <nd ref="4138458429"/>
    <tag k="addr:city" v="Leeds"/>
    <tag k="addr:housename" v="Overland Park"/>
    <tag k="addr:housenumber" v="Unit 4"/>
    <tag k="addr:postcode" v="LS27 7FE"/>
    <tag k="addr:street" v="Gelderd Road"/>
    <tag k="building" v="industrial"/>
    <tag k="industrial" v="warehouse"/>
    <tag k="name" v="Metal Supermarkets"/>
    <tag k="shop" v="trade"/>
    <tag k="trade" v="metal"/>
  </way>
  <way id="459383283" version="4" timestamp="2019-07-02T15:14:28Z" changeset="71826108" uid="7409020" user="krinkov76239">
    <nd ref="4552427274"/>
    <nd ref="19033295"/>
    <nd ref="1593485792"/>
    <nd ref="19033294"/>
    <nd ref="2044071271"/>
    <nd ref="5750379622"/>
    <nd ref="19033290"/>
    <tag k="destination:lanes" v="Leeds (M621)|Leeds (M621);Pontefract;Hull|Manchester;Halifax;Batley (A62);Bradford (A650)"/>
    <tag k="highway" v="trunk"/>
    <tag k="junction" v="circular"/>
    <tag k="lanes" v="3"/>
    <tag k="lit" v="yes"/>
    <tag k="maxspeed" v="30 mph"/>
    <tag k="oneway" v="yes"/>
    <tag k="sidewalk" v="mapped"/>
    <tag k="surface" v="asphalt"/>
  </way>
  <way id="542855999" version="2" timestamp="2018-02-11T14:11:09Z" changeset="56264456" uid="3316592" user="Arthtoach">
    <nd ref="3925917594"/>
    <nd ref="4006470163"/>
    <tag k="highway" v="residential"/>
    <tag k="name" v="Bradford Road"/>
  </way>
  <way id="560515601" version="5" timestamp="2025-04-06T11:46:17Z" changeset="164586600" uid="8857" user="philipcullen">
    <nd ref="5405481598"/>
    <nd ref="5550688283"/>
    <nd ref="5550688282"/>
    <nd ref="5405481597"/>
    <nd ref="5405481598"/>
    <tag k="addr:city" v="Leeds"/>
    <tag k="addr:housenumber" v="1"/>
    <tag k="addr:postcode" v="LS27 7AR"/>
    <tag k="addr:street" v="Ashwood Parade"/>
    <tag k="addr:suburb" v="Gildersome"/>
    <tag k="building" v="yes"/>
    <tag k="fhrs:id" v="1039040"/>
    <tag k="name" v="Patels Off Licence"/>
    <tag k="ref:GB:uprn" v="72722049;72354345"/>
    <tag k="shop" v="convenience"/>
  </way>
  <way id="566183536" version="5" timestamp="2025-04-06T11:46:17Z" changeset="164586600" uid="8857" user="philipcullen">
    <nd ref="5451844424"/>
    <nd ref="401770206"/>
    <nd ref="5451844425"/>
    <nd ref="5451844426"/>
    <nd ref="5451844427"/>
    <nd ref="5451844420"/>
    <nd ref="5451844422"/>
    <nd ref="5451844421"/>
    <nd ref="5451844419"/>
    <nd ref="5451844423"/>
    <nd ref="5451844424"/>
    <tag k="addr:city" v="Leeds"/>
    <tag k="addr:postcode" v="LS27 7AE"/>
    <tag k="addr:street" v="Church Street"/>
    <tag k="addr:suburb" v="Morley"/>
    <tag k="amenity" v="pub"/>
    <tag k="building" v="commercial"/>
    <tag k="fhrs:id" v="320724"/>
    <tag k="name" v="The New Inn"/>
    <tag k="ref:GB:uprn" v="72354515;72722082"/>
    <tag k="wikidata" v="Q61923988"/>
  </way>
  <way id="566183593" version="1" timestamp="2018-03-03T18:50:53Z" changeset="56854437" uid="3316592" user="Arthtoach">
    <nd ref="5451844614"/>
    <nd ref="5451844613"/>
    <nd ref="5451844612"/>
    <nd ref="401770190"/>
    <nd ref="5451844611"/>
    <nd ref="5451844619"/>
    <nd ref="5451844608"/>
    <nd ref="5451844616"/>
    <nd ref="5451844615"/>
    <nd ref="5451844609"/>
    <nd ref="5451844618"/>
    <nd ref="5451844617"/>
    <nd ref="5451844620"/>
    <nd ref="5451844610"/>
    <nd ref="5451844614"/>
    <tag k="amenity" v="place_of_worship"/>
    <tag k="building" v="yes"/>
    <tag k="denomination" v="baptist"/>
    <tag k="name" v="Gildersome Baptist Church"/>
    <tag k="religion" v="christian"/>
  </way>
  <way id="566268485" version="2" timestamp="2025-04-06T11:46:17Z" changeset="164586600" uid="8857" user="philipcullen">
    <nd ref="5453299211"/>
    <nd ref="5453299210"/>
    <nd ref="5453299209"/>
    <nd ref="410920472"/>
    <nd ref="5453299211"/>
    <tag k="amenity" v="place_of_worship"/>
    <tag k="building" v="yes"/>
    <tag k="denomination" v="methodist"/>
    <tag k="name" v="Greenside Methodist Church"/>
    <tag k="ref:GB:uprn" v="72556838"/>
    <tag k="religion" v="christian"/>
  </way>
  <way id="566272841" version="5" timestamp="2025-04-06T11:46:17Z" changeset="164586600" uid="8857" user="philipcullen">
    <nd ref="5453379032"/>
    <nd ref="5453379036"/>
    <nd ref="5453379033"/>
    <nd ref="5453379031"/>
    <nd ref="5453379032"/>
    <tag k="addr:housenumber" v="4"/>
    <tag k="addr:street" v="Ashwood Drive"/>
    <tag k="building" v="house"/>
    <tag k="building:levels" v="1"/>
    <tag k="ref:GB:uprn" v="72354256"/>
    <tag k="roof:levels" v="1"/>
  </way>
  <way id="566272843" version="5" timestamp="2025-04-06T11:46:17Z" changeset="164586600" uid="8857" user="philipcullen">
    <nd ref="5453379038"/>
    <nd ref="5453379042"/>
    <nd ref="5453379039"/>
    <nd ref="5453379037"/>
    <nd ref="5453379038"/>
    <tag k="addr:housenumber" v="8"/>
    <tag k="addr:street" v="Ashwood Drive"/>
    <tag k="building" v="house"/>
    <tag k="building:levels" v="1"/>
    <tag k="ref:GB:uprn" v="72354260"/>
    <tag k="roof:levels" v="0"/>
  </way>
  <way id="566272844" version="5" timestamp="2025-04-06T11:46:17Z" changeset="164586600" uid="8857" user="philipcullen">
    <nd ref="5453379042"/>
    <nd ref="5453379041"/>
    <nd ref="5453379040"/>
    <nd ref="5453379039"/>
    <nd ref="5453379042"/>
    <tag k="addr:housenumber" v="6"/>
    <tag k="addr:street" v="Ashwood Drive"/>
    <tag k="building" v="house"/>
    <tag k="building:levels" v="1"/>
    <tag k="ref:GB:uprn" v="72354258"/>
    <tag k="roof:levels" v="0"/>
  </way>
  <way id="566272845" version="5" timestamp="2025-04-06T11:46:17Z" changeset="164586600" uid="8857" user="philipcullen">
    <nd ref="5453379048"/>
    <nd ref="5453379050"/>
    <nd ref="5453379043"/>
    <nd ref="5453379045"/>
    <nd ref="5453379044"/>
    <nd ref="5453379049"/>
    <nd ref="5453379048"/>
    <tag k="addr:housenumber" v="10"/>
    <tag k="addr:street" v="Ashwood Drive"/>
    <tag k="building" v="house"/>
    <tag k="building:levels" v="1"/>
    <tag k="ref:GB:uprn" v="72354262"/>
    <tag k="roof:levels" v="0"/>
  </way>
  <way id="566273640" version="4" timestamp="2025-04-06T11:46:17Z" changeset="164586600" uid="8857" user="philipcullen">
    <nd ref="5453394821"/>
    <nd ref="5453394822"/>
    <nd ref="5453394837"/>
    <nd ref="5453394826"/>
    <nd ref="401769841"/>
    <nd ref="5453394829"/>
    <nd ref="5453394830"/>
    <nd ref="5453394828"/>
    <nd ref="5453394825"/>
    <nd ref="5453394832"/>
    <nd ref="5453394831"/>
    <nd ref="5453394835"/>
    <nd ref="5453394836"/>
    <nd ref="5453394834"/>
    <nd ref="5453394833"/>
    <nd ref="5453394824"/>
    <nd ref="5453394823"/>
    <nd ref="5453394839"/>
    <nd ref="5453394840"/>
    <nd ref="5453394838"/>
    <nd ref="5453394827"/>
    <nd ref="5453394821"/>
    <tag k="addr:city" v="Leeds"/>
    <tag k="addr:postcode" v="LS27 7AF"/>
    <tag k="addr:street" v="Church Street"/>
    <tag k="addr:suburb" v="Gildersome"/>
    <tag k="amenity" v="place_of_worship"/>
    <tag k="building" v="yes"/>
    <tag k="denomination" v="anglican"/>
    <tag k="fhrs:id" v="715343"/>
    <tag k="name" v="St Peter's Church"/>
    <tag k="ref:GB:uprn" v="72354506"/>
    <tag k="religion" v="christian"/>
    <tag k="wikidata" v="Q105104129"/>
  </way>
  <way id="566274676" version="5" timestamp="2025-04-06T11:46:17Z" changeset="164586600" uid="8857" user="philipcullen">
    <nd ref="5453423802"/>
    <nd ref="5453423801"/>
    <nd ref="5453423804"/>
    <nd ref="5453423803"/>
    <nd ref="5453423806"/>
    <nd ref="5453423802"/>
    <tag k="addr:housenumber" v="7"/>
    <tag k="addr:street" v="Ashwood Drive"/>
    <tag k="building" v="house"/>
    <tag k="building:levels" v="1"/>
    <tag k="ref:GB:uprn" v="72354259"/>
    <tag k="roof:levels" v="1"/>
  </way>
  <way id="566274677" version="5" timestamp="2025-04-06T11:46:17Z" changeset="164586600" uid="8857" user="philipcullen">
    <nd ref="5453423798"/>
    <nd ref="5453423799"/>
    <nd ref="5453423800"/>
    <nd ref="5453423805"/>
    <nd ref="5453423803"/>
    <nd ref="5453423804"/>
    <nd ref="5453423798"/>
    <tag k="addr:housenumber" v="9"/>
    <tag k="addr:street" v="Ashwood Drive"/>
    <tag k="building" v="house"/>
    <tag k="building:levels" v="1"/>
    <tag k="ref:GB:uprn" v="72354261"/>
    <tag k="roof:levels" v="1"/>
  </way>
  <way id="566274679" version="4" timestamp="2025-04-06T11:46:17Z" changeset="164586600" uid="8857" user="philipcullen">
    <nd ref="5453423811"/>
    <nd ref="5453423808"/>
    <nd ref="5453423807"/>
    <nd ref="5453423810"/>
    <nd ref="5453423811"/>
    <tag k="addr:housenumber" v="11"/>
    <tag k="addr:street" v="Ashwood Drive"/>
    <tag k="building" v="house"/>
    <tag k="ref:GB:uprn" v="72354263"/>
  </way>
  <way id="568331980" version="2" timestamp="2019-07-02T15:14:28Z" changeset="71826108" uid="7409020" user="krinkov76239">
    <nd ref="5467877485"/>
    <nd ref="1916264867"/>
    <tag k="highway" v="primary"/>
    <tag k="lanes" v="2"/>
    <tag k="lit" v="yes"/>
    <tag k="maxspeed" v="30 mph"/>
    <tag k="motorcar" v="yes"/>
    <tag k="name" v="Gelderd Road"/>
    <tag k="oneway" v="yes"/>
    <tag k="ref" v="A62"/>
    <tag k="surface" v="asphalt"/>
    <tag k="turn:lanes" v="through|right"/>
  </way>
  <way id="568331984" version="3" timestamp="2020-10-31T13:17:57Z" changeset="93337907" uid="10149683" user="WakefieldMapper">
    <nd ref="21099203"/>
    <nd ref="8068776826"/>
    <nd ref="5467877485"/>
    <tag k="highway" v="primary"/>
    <tag k="lanes" v="1"/>
    <tag k="lit" v="yes"/>
    <tag k="maxspeed" v="30 mph"/>
    <tag k="motorcar" v="yes"/>
    <tag k="name" v="Gelderd Road"/>
    <tag k="oneway" v="yes"/>
    <tag k="ref" v="A62"/>
    <tag k="surface" v="asphalt"/>
  </way>
  <way id="568331989" version="1" timestamp="2018-03-09T18:12:07Z" changeset="57039658" uid="3316592" user="Arthtoach">
    <nd ref="5467877486"/>
    <nd ref="5467877487"/>
    <tag k="highway" v="primary"/>
    <tag k="lanes" v="2"/>
    <tag k="lit" v="yes"/>
    <tag k="maxspeed" v="30 mph"/>
    <tag k="motorcar" v="yes"/>
    <tag k="name" v="Gelderd Road"/>
    <tag k="oneway" v="yes"/>
    <tag k="ref" v="A62"/>
    <tag k="turn:lanes" v="through|right"/>
  </way>
  <way id="568331990" version="2" timestamp="2021-08-19T04:16:07Z" changeset="109905287" uid="13860086" user="veyarlag">
    <nd ref="5467877487"/>
    <nd ref="5467864680"/>
    <nd ref="9018800731"/>
    <nd ref="5467877492"/>
    <tag k="highway" v="primary"/>
    <tag k="lanes" v="1"/>
    <tag k="lit" v="yes"/>
    <tag k="maxspeed" v="30 mph"/>
    <tag k="motorcar" v="yes"/>
    <tag k="name" v="Gelderd Road"/>
    <tag k="oneway" v="yes"/>
    <tag k="ref" v="A62"/>
  </way>
  <way id="568331991" version="2" timestamp="2019-07-02T15:14:28Z" changeset="71826108" uid="7409020" user="krinkov76239">
    <nd ref="5467877488"/>
    <nd ref="5467877496"/>
    <tag k="highway" v="primary"/>
    <tag k="lanes" v="2"/>
    <tag k="lit" v="yes"/>
    <tag k="maxspeed" v="30 mph"/>
    <tag k="motorcar" v="yes"/>
    <tag k="name" v="Gelderd Road"/>
    <tag k="oneway" v="yes"/>
    <tag k="ref" v="A62"/>
    <tag k="surface" v="asphalt"/>
  </way>
  <way id="568331992" version="2" timestamp="2020-10-31T13:17:57Z" changeset="93337907" uid="10149683" user="WakefieldMapper">
    <nd ref="5467877490"/>
    <nd ref="8068776840"/>
    <nd ref="8068776819"/>
    <nd ref="8068776841"/>
    <nd ref="21099202"/>
    <tag k="highway" v="primary"/>
    <tag k="lanes" v="2"/>
    <tag k="lit" v="yes"/>
    <tag k="maxspeed" v="30 mph"/>
    <tag k="motorcar" v="yes"/>
    <tag k="name" v="Gelderd Road"/>
    <tag k="oneway" v="yes"/>
    <tag k="ref" v="A62"/>
    <tag k="turn:lanes" v="through|right"/>
  </way>
  <way id="568331993" version="2" timestamp="2020-10-31T13:17:57Z" changeset="93337907" uid="10149683" user="WakefieldMapper">
    <nd ref="5467877492"/>
    <nd ref="5467877491"/>
    <nd ref="8068776844"/>
    <nd ref="8068776839"/>
    <nd ref="5467877490"/>
    <tag k="highway" v="primary"/>
    <tag k="lanes" v="1"/>
    <tag k="lit" v="yes"/>
    <tag k="maxspeed" v="30 mph"/>
    <tag k="motorcar" v="yes"/>
    <tag k="name" v="Gelderd Road"/>
    <tag k="oneway" v="yes"/>
    <tag k="ref" v="A62"/>
  </way>
  <way id="568331994" version="3" timestamp="2020-10-31T13:17:57Z" changeset="93337907" uid="10149683" user="WakefieldMapper">
    <nd ref="21099202"/>
    <nd ref="8068776832"/>
    <nd ref="5467877489"/>
    <tag k="highway" v="primary"/>
    <tag k="lanes" v="1"/>
    <tag k="lit" v="yes"/>
    <tag k="maxspeed" v="30 mph"/>
    <tag k="motorcar" v="yes"/>
    <tag k="name" v="Gelderd Road"/>
    <tag k="oneway" v="yes"/>
    <tag k="ref" v="A62"/>
    <tag k="surface" v="asphalt"/>
  </way>
  <way id="568331995" version="2" timestamp="2021-08-19T04:16:07Z" changeset="109905287" uid="13860086" user="veyarlag">
    <nd ref="401349120"/>
    <nd ref="3367004143"/>
    <nd ref="9018800737"/>
    <nd ref="5467877492"/>
    <tag k="highway" v="primary"/>
    <tag k="lanes" v="2"/>
    <tag k="lit" v="yes"/>
    <tag k="maxspeed" v="30 mph"/>
    <tag k="motorcar" v="yes"/>
    <tag k="name" v="Gelderd Road"/>
    <tag k="ref" v="A62"/>
  </way>
  <way id="568333638" version="1" timestamp="2018-03-09T18:18:36Z" changeset="57039856" uid="3316592" user="Arthtoach">
    <nd ref="401349075"/>
    <nd ref="401349077"/>
    <tag k="highway" v="residential"/>
    <tag k="name" v="Birchfield Avenue"/>
  </way>
  <way id="568335887" version="2" timestamp="2018-04-13T16:56:18Z" changeset="58070078" uid="592" user="JonS">
    <nd ref="5467902037"/>
    <nd ref="5467902046"/>
    <nd ref="5467902045"/>
    <nd ref="5467902047"/>
    <nd ref="5467902038"/>
    <nd ref="5467902043"/>
    <nd ref="5467902044"/>
    <nd ref="5467902039"/>
    <nd ref="5467902040"/>
    <nd ref="5467902054"/>
    <nd ref="5467902035"/>
    <nd ref="5467902051"/>
    <nd ref="5467902052"/>
    <nd ref="5467902050"/>
    <nd ref="5467902034"/>
    <nd ref="5467902053"/>
    <nd ref="5467902036"/>
    <nd ref="5467902049"/>
    <nd ref="5467902048"/>
    <nd ref="5467902041"/>
    <nd ref="5467902055"/>
    <nd ref="5467902042"/>
    <nd ref="5467902037"/>
    <tag k="addr:city" v="Leeds"/>
    <tag k="addr:postcode" v="LS27 7EB"/>
    <tag k="addr:street" v="Finkle Lane"/>
    <tag k="addr:suburb" v="Gildersome"/>
    <tag k="building" v="yes"/>
    <tag k="fhrs:id" v="322612"/>
    <tag k="name" v="The Grove"/>
  </way>
  <way id="568335889" version="3" timestamp="2023-09-03T22:39:22Z" changeset="140779406" uid="6816132" user="CjMalone">
    <nd ref="5467902067"/>
    <nd ref="5467902066"/>
    <nd ref="5467902065"/>
    <nd ref="3632290684"/>
    <nd ref="5467902067"/>
    <tag k="addr:city" v="Leeds"/>
    <tag k="addr:housenumber" v="25"/>
    <tag k="addr:postcode" v="LS27 7DX"/>
    <tag k="addr:street" v="Finkle Lane"/>
    <tag k="addr:suburb" v="Gildersome"/>
    <tag k="amenity" v="pharmacy"/>
    <tag k="brand" v="Well Pharmacy"/>
    <tag k="brand:wikidata" v="Q7726524"/>
    <tag k="building" v="retail"/>
    <tag k="healthcare" v="pharmacy"/>
    <tag k="name" v="Well Pharmacy"/>
    <tag k="website" v="https://finder.well.co.uk/store/gildersome-finkle-lane"/>
  </way>
  <way id="568335936" version="4" timestamp="2025-04-06T11:46:17Z" changeset="164586600" uid="8857" user="philipcullen">
    <nd ref="5467902409"/>
    <nd ref="5467902413"/>
    <nd ref="5467902410"/>
    <nd ref="5467902408"/>
    <nd ref="5467902409"/>
    <tag k="addr:housenumber" v="67"/>
    <tag k="addr:street" v="Street Lane"/>
    <tag k="building" v="house"/>
    <tag k="ref:GB:uprn" v="72356057"/>
  </way>
  <way id="568335937" version="4" timestamp="2025-04-06T11:46:17Z" changeset="164586600" uid="8857" user="philipcullen">
    <nd ref="5467902412"/>
    <nd ref="5467902409"/>
    <nd ref="5467902408"/>
    <nd ref="5467902411"/>
    <nd ref="5467902412"/>
    <tag k="addr:housenumber" v="65"/>
    <tag k="addr:street" v="Street Lane"/>
    <tag k="building" v="house"/>
    <tag k="ref:GB:uprn" v="72356053"/>
  </way>
  <way id="568725124" version="4" timestamp="2025-04-06T11:46:17Z" changeset="164586600" uid="8857" user="philipcullen">
    <nd ref="5471145557"/>
    <nd ref="5471145549"/>
    <nd ref="5471145562"/>
    <nd ref="5471145550"/>
    <nd ref="5471145558"/>
    <nd ref="5471145547"/>
    <nd ref="5471145560"/>
    <nd ref="5471145561"/>
    <nd ref="5471145559"/>
    <nd ref="5471145551"/>
    <nd ref="5471145552"/>
    <nd ref="5471145553"/>
    <nd ref="5471145554"/>
    <nd ref="5471145548"/>
    <nd ref="5471145556"/>
    <nd ref="5471145555"/>
    <nd ref="5471145557"/>
    <tag k="addr:city" v="Leeds"/>
    <tag k="addr:postcode" v="LS27 7HR"/>
    <tag k="addr:street" v="Street Lane"/>
    <tag k="addr:suburb" v="Gildersome"/>
    <tag k="amenity" v="social_facility"/>
    <tag k="building" v="yes"/>
    <tag k="fhrs:id" v="1204455"/>
    <tag k="name" v="Stone Gables Residential Home"/>
    <tag k="ref:GB:uprn" v="72541951"/>
    <tag k="social_facility" v="nursing_home"/>
  </way>
  <way id="568729298" version="2" timestamp="2025-04-06T11:46:17Z" changeset="164586600" uid="8857" user="philipcullen">
    <nd ref="3632290677"/>
    <nd ref="5471179610"/>
    <nd ref="5471179609"/>
    <nd ref="5471179608"/>
    <nd ref="3632290677"/>
    <tag k="amenity" v="doctors"/>
    <tag k="building" v="yes"/>
    <tag k="name" v="Gildersome Health Centre"/>
    <tag k="ref:GB:uprn" v="72564606"/>
  </way>
  <way id="568730031" version="3" timestamp="2025-04-06T11:46:17Z" changeset="164586600" uid="8857" user="philipcullen">
    <nd ref="5471186866"/>
    <nd ref="5471186863"/>
    <nd ref="5471186864"/>
    <nd ref="5471186865"/>
    <nd ref="5471186866"/>
    <tag k="addr:city" v="Leeds"/>
    <tag k="addr:housenumber" v="22"/>
    <tag k="addr:postcode" v="LS27 7EL"/>
    <tag k="addr:street" v="Finkle Lane"/>
    <tag k="addr:suburb" v="Gildersome"/>
    <tag k="amenity" v="kindergarten"/>
    <tag k="building" v="yes"/>
    <tag k="fhrs:id" v="321534"/>
    <tag k="name" v="Kaleidoscope Day Nursery"/>
    <tag k="ref:GB:uprn" v="72532842"/>
  </way>
  <way id="568773481" version="6" timestamp="2022-10-28T19:15:46Z" changeset="128188221" uid="13666626" user="RedAuburn">
    <nd ref="5471591791"/>
    <nd ref="1832620233"/>
    <nd ref="350830"/>
    <nd ref="350831"/>
    <tag k="destination" v="Leeds (A621)"/>
    <tag k="destination:ref" v="M621"/>
    <tag k="highway" v="motorway_link"/>
    <tag k="lanes" v="1"/>
    <tag k="lit" v="yes"/>
    <tag k="maxspeed" v="70 mph"/>
    <tag k="national_highways:area" v="12"/>
    <tag k="oneway" v="yes"/>
    <tag k="operator" v="National Highways"/>
    <tag k="operator:wikidata" v="Q5760006"/>
    <tag k="ref" v="M621"/>
    <tag k="surface" v="asphalt"/>
  </way>
  <way id="570467620" version="8" timestamp="2025-04-06T11:46:17Z" changeset="164586600" uid="8857" user="philipcullen">
    <nd ref="5484523824"/>
    <nd ref="5484523831"/>
    <nd ref="5484523823"/>
    <nd ref="5484523828"/>
    <nd ref="5484523829"/>
    <nd ref="5484523822"/>
    <nd ref="5484523821"/>
    <nd ref="5484523827"/>
    <nd ref="5484523826"/>
    <nd ref="410920529"/>
    <nd ref="5484523830"/>
    <nd ref="5484523825"/>
    <nd ref="5484523833"/>
    <nd ref="5484523834"/>
    <nd ref="5484523835"/>
    <nd ref="5484523832"/>
    <nd ref="5484523824"/>
    <tag k="addr:city" v="Leeds"/>
    <tag k="addr:postcode" v="LS27 7ES"/>
    <tag k="addr:street" v="Town Street"/>
    <tag k="amenity" v="pub"/>
    <tag k="building" v="yes"/>
    <tag k="fhrs:id" v="1096899"/>
    <tag k="name" v="Old Griffin Head"/>
    <tag k="operator" v="Stonegate"/>
    <tag k="operator:wikidata" v="Q7619176"/>
    <tag k="ref:GB:uprn" v="72543113;72722052"/>
    <tag k="website" v="https://www.craftunionpubs.com/old-griffin-head-gildersome"/>
    <tag k="wikidata" v="Q61923991"/>
  </way>
  <way id="570474549" version="1" timestamp="2018-03-17T14:09:17Z" changeset="57267809" uid="3316592" user="Arthtoach">
    <nd ref="5484599572"/>
    <nd ref="5484599571"/>
    <tag k="highway" v="residential"/>
    <tag k="name" v="Hadleys Court"/>
    <tag k="tunnel" v="building_passage"/>
  </way>
  <way id="570474550" version="1" timestamp="2018-03-17T14:09:17Z" changeset="57267809" uid="3316592" user="Arthtoach">
    <nd ref="401348987"/>
    <nd ref="5484599572"/>
    <tag k="highway" v="residential"/>
    <tag k="name" v="Hadleys Court"/>
  </way>
  <way id="570475340" version="6" timestamp="2025-04-06T11:46:17Z" changeset="164586600" uid="8857" user="philipcullen">
    <nd ref="5484605853"/>
    <nd ref="5484605857"/>
    <nd ref="5484605858"/>
    <nd ref="300706757"/>
    <nd ref="5484605852"/>
    <nd ref="5484605854"/>
    <nd ref="5484605855"/>
    <nd ref="5484605856"/>
    <nd ref="5484605859"/>
    <nd ref="5484605860"/>
    <nd ref="5484605853"/>
    <tag k="addr:city" v="Leeds"/>
    <tag k="addr:postcode" v="LS27 7LL"/>
    <tag k="addr:street" v="Gelderd Road"/>
    <tag k="addr:suburb" v="Morley"/>
    <tag k="amenity" v="pub"/>
    <tag k="brand" v="Greene King"/>
    <tag k="brand:wikidata" v="Q5564162"/>
    <tag k="building" v="yes"/>
    <tag k="fhrs:id" v="1003014"/>
    <tag k="name" v="The Gildersome Arms"/>
    <tag k="ref:GB:uprn" v="72562373;72533052"/>
    <tag k="website" v="https://www.greeneking.co.uk/pubs/west-yorkshire/gildersome-arms"/>
    <tag k="wikidata" v="Q61923982"/>
  </way>
  <way id="570476230" version="2" timestamp="2024-01-14T14:12:37Z" changeset="146246345" uid="592" user="JonS">
    <nd ref="403097219"/>
    <nd ref="21099196"/>
    <nd ref="21099197"/>
    <tag k="highway" v="primary"/>
    <tag k="lanes:backward" v="1"/>
    <tag k="lanes:forward" v="2"/>
    <tag k="lit" v="yes"/>
    <tag k="maxspeed" v="40 mph"/>
    <tag k="motorcar" v="yes"/>
    <tag k="name" v="Gelderd Road"/>
    <tag k="ref" v="A62"/>
    <tag k="sidewalk" v="right"/>
    <tag k="surface" v="asphalt"/>
    <tag k="turn:lanes:forward" v="left;through|right"/>
  </way>
  <way id="570476231" version="1" timestamp="2018-03-17T14:18:19Z" changeset="57268029" uid="3316592" user="Arthtoach">
    <nd ref="21099197"/>
    <nd ref="5484605869"/>
    <nd ref="5484605813"/>
    <nd ref="21099198"/>
    <tag k="highway" v="primary"/>
    <tag k="lanes:backward" v="2"/>
    <tag k="lanes:forward" v="1"/>
    <tag k="lit" v="yes"/>
    <tag k="maxspeed" v="40 mph"/>
    <tag k="motorcar" v="yes"/>
    <tag k="name" v="Gelderd Road"/>
    <tag k="ref" v="A62"/>
    <tag k="sidewalk" v="right"/>
    <tag k="turn:lanes:backward" v="left;through|right"/>
  </way>
  <way id="570476232" version="4" timestamp="2024-01-14T12:29:23Z" changeset="146242722" uid="592" user="JonS">
    <nd ref="403097165"/>
    <nd ref="403097156"/>
    <nd ref="6590440823"/>
    <nd ref="403097219"/>
    <tag k="highway" v="primary"/>
    <tag k="lanes" v="2"/>
    <tag k="lit" v="yes"/>
    <tag k="maxspeed" v="40 mph"/>
    <tag k="motorcar" v="yes"/>
    <tag k="name" v="Gelderd Road"/>
    <tag k="ref" v="A62"/>
    <tag k="sidewalk" v="right"/>
    <tag k="surface" v="asphalt"/>
  </way>
  <way id="579627324" version="2" timestamp="2025-04-06T11:46:17Z" changeset="164586600" uid="8857" user="philipcullen">
    <nd ref="5550688281"/>
    <nd ref="5405481599"/>
    <nd ref="5405481596"/>
    <nd ref="5550688280"/>
    <nd ref="5550688281"/>
    <tag k="addr:city" v="Leeds"/>
    <tag k="addr:housenumber" v="3"/>
    <tag k="addr:postcode" v="LS27 7AR"/>
    <tag k="addr:street" v="Ashwood Parade"/>
    <tag k="addr:suburb" v="Gildersome"/>
    <tag k="building" v="yes"/>
    <tag k="ref:GB:uprn" v="72354347"/>
  </way>
  <way id="579627325" version="2" timestamp="2025-04-06T11:46:17Z" changeset="164586600" uid="8857" user="philipcullen">
    <nd ref="5550688283"/>
    <nd ref="5550688281"/>
    <nd ref="5550688280"/>
    <nd ref="5550688282"/>
    <nd ref="5550688283"/>
    <tag k="addr:city" v="Leeds"/>
    <tag k="addr:housenumber" v="2"/>
    <tag k="addr:postcode" v="LS27 7AR"/>
    <tag k="addr:street" v="Ashwood Parade"/>
    <tag k="addr:suburb" v="Gildersome"/>
    <tag k="building" v="yes"/>
    <tag k="ref:GB:uprn" v="72722048;72354346"/>
  </way>
  <way id="579627327" version="2" timestamp="2019-03-11T16:02:39Z" changeset="68028042" uid="592" user="JonS">
    <nd ref="5550688289"/>
    <nd ref="5550688287"/>
    <nd ref="5550688286"/>
    <nd ref="5550688288"/>
    <nd ref="5550688289"/>
    <tag k="addr:city" v="Leeds"/>
    <tag k="addr:housenumber" v="132-134"/>
    <tag k="addr:postcode" v="LS27 7JB"/>
    <tag k="addr:street" v="street Lane"/>
    <tag k="building" v="commercial"/>
    <tag k="name" v="Lima Accountancy"/>
    <tag k="office" v="accountant"/>
    <tag k="smoking" v="no"/>
  </way>
  <way id="606509912" version="2" timestamp="2019-07-02T15:14:28Z" changeset="71826108" uid="7409020" user="krinkov76239">
    <nd ref="1593485745"/>
    <nd ref="1593485762"/>
    <nd ref="2783759441"/>
    <nd ref="5750379355"/>
    <nd ref="5750379356"/>
    <nd ref="270839146"/>
    <nd ref="2044071266"/>
    <nd ref="270839147"/>
    <nd ref="19033290"/>
    <tag k="highway" v="primary"/>
    <tag k="lanes" v="2"/>
    <tag k="lit" v="yes"/>
    <tag k="maxspeed" v="30 mph"/>
    <tag k="name" v="Wakefield Road"/>
    <tag k="oneway" v="yes"/>
    <tag k="ref" v="A650"/>
    <tag k="source" v="Bing; Survey"/>
    <tag k="surface" v="asphalt"/>
  </way>
  <way id="606509916" version="2" timestamp="2019-07-02T15:14:28Z" changeset="71826108" uid="7409020" user="krinkov76239">
    <nd ref="19033290"/>
    <nd ref="19033296"/>
    <nd ref="18578400"/>
    <tag k="highway" v="trunk"/>
    <tag k="junction" v="circular"/>
    <tag k="lanes" v="5"/>
    <tag k="lit" v="yes"/>
    <tag k="maxspeed" v="30 mph"/>
    <tag k="oneway" v="yes"/>
    <tag k="sidewalk" v="mapped"/>
    <tag k="surface" v="asphalt"/>
  </way>
  <way id="606509917" version="10" timestamp="2024-06-17T14:08:58Z" changeset="152805446" uid="145231" user="woodpeck_repair">
    <nd ref="5750379406"/>
    <nd ref="5750379621"/>
    <nd ref="8068826435"/>
    <nd ref="5467877493"/>
    <tag k="highway" v="tertiary"/>
    <tag k="lit" v="yes"/>
    <tag k="maxspeed" v="30 mph"/>
    <tag k="name" v="Street Lane"/>
    <tag k="oneway" v="yes"/>
    <tag k="surface" v="asphalt"/>
  </way>
  <way id="606509920" version="3" timestamp="2024-01-14T14:07:34Z" changeset="146246314" uid="592" user="JonS">
    <nd ref="300557654"/>
    <nd ref="19033291"/>
    <nd ref="19033293"/>
    <nd ref="19033284"/>
    <nd ref="4552427273"/>
    <nd ref="1593485831"/>
    <nd ref="19033282"/>
    <tag k="destination:lanes" v="Morley (A650)|Leeds (M621);Morley (A650)|Leeds (M621);Manchester;Halifax;Batley (A62)"/>
    <tag k="foot" v="no"/>
    <tag k="highway" v="trunk"/>
    <tag k="junction" v="circular"/>
    <tag k="lanes" v="3"/>
    <tag k="lit" v="yes"/>
    <tag k="maxspeed" v="30 mph"/>
    <tag k="oneway" v="yes"/>
    <tag k="sidewalk" v="no"/>
    <tag k="surface" v="asphalt"/>
  </way>
  <way id="606509921" version="4" timestamp="2022-10-28T19:15:46Z" changeset="128188221" uid="13666626" user="RedAuburn">
    <nd ref="19033290"/>
    <nd ref="5750379367"/>
    <nd ref="5750379381"/>
    <nd ref="5750379365"/>
    <nd ref="247760453"/>
    <nd ref="1832620235"/>
    <nd ref="350828"/>
    <nd ref="5471591791"/>
    <tag k="destination" v="Leeds (A621)"/>
    <tag k="highway" v="motorway_link"/>
    <tag k="lanes" v="2"/>
    <tag k="lit" v="yes"/>
    <tag k="maxspeed" v="70 mph"/>
    <tag k="national_highways:area" v="12"/>
    <tag k="oneway" v="yes"/>
    <tag k="operator" v="National Highways"/>
    <tag k="operator:wikidata" v="Q5760006"/>
    <tag k="ref" v="M621"/>
    <tag k="surface" v="asphalt"/>
  </way>
  <way id="606509922" version="2" timestamp="2019-07-02T15:14:28Z" changeset="71826108" uid="7409020" user="krinkov76239">
    <nd ref="18578400"/>
    <nd ref="4552427269"/>
    <nd ref="4552427277"/>
    <nd ref="1593485747"/>
    <nd ref="19033280"/>
    <tag k="destination:lanes" v="Bradford (A650)|Morley (A650);Leeds (A62)"/>
    <tag k="highway" v="trunk"/>
    <tag k="junction" v="circular"/>
    <tag k="lanes" v="2"/>
    <tag k="lit" v="yes"/>
    <tag k="maxspeed" v="30 mph"/>
    <tag k="oneway" v="yes"/>
    <tag k="sidewalk" v="mapped"/>
    <tag k="surface" v="asphalt"/>
  </way>
  <way id="606509927" version="6" timestamp="2022-10-28T19:15:46Z" changeset="128188221" uid="13666626" user="RedAuburn">
    <nd ref="5750379385"/>
    <nd ref="5750379358"/>
    <nd ref="5750379364"/>
    <nd ref="5750379386"/>
    <nd ref="5750379392"/>
    <nd ref="350556091"/>
    <nd ref="9813324563"/>
    <nd ref="413252711"/>
    <tag k="destination" v="Hull;Pontefract"/>
    <tag k="highway" v="trunk_link"/>
    <tag k="lanes" v="1"/>
    <tag k="maxspeed" v="70 mph"/>
    <tag k="maxspeed:type" v="GB:nsl_dual"/>
    <tag k="national_highways:area" v="12"/>
    <tag k="oneway" v="yes"/>
    <tag k="operator" v="National Highways"/>
    <tag k="operator:wikidata" v="Q5760006"/>
    <tag k="ref" v="A62"/>
    <tag k="source" v="estimate"/>
    <tag k="surface" v="asphalt"/>
  </way>
  <way id="606509931" version="3" timestamp="2024-01-14T14:07:38Z" changeset="146246314" uid="592" user="JonS">
    <nd ref="5750379409"/>
    <nd ref="5750379376"/>
    <nd ref="4552427271"/>
    <nd ref="309127231"/>
    <nd ref="2044071308"/>
    <nd ref="1593485815"/>
    <nd ref="300557654"/>
    <tag k="destination:lanes" v="Leeds (A62)|Morley (A650)|Leeds (M621);Morley (A650)"/>
    <tag k="foot" v="no"/>
    <tag k="highway" v="trunk"/>
    <tag k="junction" v="circular"/>
    <tag k="lanes" v="3"/>
    <tag k="lit" v="yes"/>
    <tag k="maxspeed" v="30 mph"/>
    <tag k="oneway" v="yes"/>
    <tag k="sidewalk" v="no"/>
    <tag k="surface" v="asphalt"/>
  </way>
  <way id="606509942" version="9" timestamp="2024-06-17T14:08:58Z" changeset="152805446" uid="145231" user="woodpeck_repair">
    <nd ref="5750379368"/>
    <nd ref="5750379374"/>
    <nd ref="5750379406"/>
    <tag k="highway" v="tertiary"/>
    <tag k="lit" v="yes"/>
    <tag k="maxspeed" v="30 mph"/>
    <tag k="name" v="Street Lane"/>
    <tag k="oneway" v="yes"/>
    <tag k="surface" v="asphalt"/>
  </way>
  <way id="606509958" version="2" timestamp="2019-07-02T15:14:28Z" changeset="71826108" uid="7409020" user="krinkov76239">
    <nd ref="300557654"/>
    <nd ref="5750379397"/>
    <nd ref="5750379394"/>
    <nd ref="5750379380"/>
    <nd ref="1593485833"/>
    <nd ref="1593485835"/>
    <nd ref="21099203"/>
    <tag k="destination" v="Leeds"/>
    <tag k="highway" v="primary_link"/>
    <tag k="lanes" v="1"/>
    <tag k="lit" v="yes"/>
    <tag k="maxspeed" v="30 mph"/>
    <tag k="mkgmap:flare-check" v="no"/>
    <tag k="motorcar" v="yes"/>
    <tag k="oneway" v="yes"/>
    <tag k="surface" v="asphalt"/>
  </way>
  <way id="606509962" version="8" timestamp="2024-06-17T14:08:58Z" changeset="152805446" uid="145231" user="woodpeck_repair">
    <nd ref="5467877493"/>
    <nd ref="5750379416"/>
    <nd ref="8068776824"/>
    <nd ref="21099202"/>
    <tag k="highway" v="tertiary"/>
    <tag k="oneway" v="yes"/>
  </way>
  <way id="606509964" version="8" timestamp="2024-06-17T14:09:00Z" changeset="152805446" uid="145231" user="woodpeck_repair">
    <nd ref="5750379406"/>
    <nd ref="309127227"/>
    <nd ref="309127225"/>
    <tag k="highway" v="tertiary"/>
    <tag k="lanes" v="2"/>
    <tag k="lit" v="yes"/>
    <tag k="maxspeed" v="30 mph"/>
    <tag k="name" v="Street Lane"/>
    <tag k="surface" v="asphalt"/>
  </way>
  <way id="651499020" version="3" timestamp="2025-04-06T11:46:25Z" changeset="164586609" uid="8857" user="philipcullen">
    <nd ref="6109122103"/>
    <nd ref="6109122102"/>
    <nd ref="6109122101"/>
    <nd ref="6109122100"/>
    <nd ref="6109122103"/>
    <tag k="addr:city" v="Leeds"/>
    <tag k="addr:housenumber" v="104"/>
    <tag k="addr:postcode" v="LS27 7ND"/>
    <tag k="addr:street" v="Gelderd Road"/>
    <tag k="addr:suburb" v="Gildersome"/>
    <tag k="amenity" v="cafe"/>
    <tag k="building" v="yes"/>
    <tag k="fhrs:id" v="877774"/>
    <tag k="name" v="The Workshop Cafe"/>
    <tag k="ref:GB:uprn" v="72760625"/>
  </way>
  <way id="676051997" version="2" timestamp="2024-01-14T12:31:58Z" changeset="146243064" uid="592" user="JonS">
    <nd ref="6331294905"/>
    <nd ref="6331294904"/>
    <nd ref="6331294903"/>
    <nd ref="6331294902"/>
    <nd ref="6331294905"/>
    <tag k="amenity" v="place_of_worship"/>
    <tag k="building" v="yes"/>
    <tag k="check_date" v="2024-01-14"/>
    <tag k="denomination" v="quaker"/>
    <tag k="name" v="Friends Meeting House"/>
    <tag k="religion" v="christian"/>
  </way>
  <way id="676051998" version="3" timestamp="2024-01-04T17:54:24Z" changeset="145891893" uid="84263" user="Robert Whittaker">
    <nd ref="6331294907"/>
    <nd ref="2870479919"/>
    <nd ref="2870479920"/>
    <nd ref="6331294906"/>
    <nd ref="6331294907"/>
    <tag k="addr:city" v="Leeds"/>
    <tag k="addr:housenumber" v="128"/>
    <tag k="addr:postcode" v="LS27 7JB"/>
    <tag k="addr:street" v="Street Lane"/>
    <tag k="addr:suburb" v="Gildersome"/>
    <tag k="amenity" v="cafe"/>
    <tag k="building" v="retail"/>
    <tag k="fhrs:id" v="1357286"/>
    <tag k="name" v="Sorella"/>
  </way>
  <way id="676051999" version="1" timestamp="2019-03-11T16:02:36Z" changeset="68028042" uid="592" user="JonS">
    <nd ref="6331294909"/>
    <nd ref="6331294907"/>
    <nd ref="6331294906"/>
    <nd ref="6331294908"/>
    <nd ref="6331294909"/>
    <tag k="addr:city" v="Leeds"/>
    <tag k="addr:housenumber" v="126"/>
    <tag k="addr:postcode" v="LS27 7JB"/>
    <tag k="addr:street" v="Street Lane"/>
    <tag k="addr:suburb" v="Gildersome"/>
    <tag k="building" v="retail"/>
    <tag k="disused:amenity" v="post_office"/>
    <tag k="old_name" v="Gildersome Post Office"/>
  </way>
  <way id="676052000" version="4" timestamp="2025-04-06T11:46:25Z" changeset="164586609" uid="8857" user="philipcullen">
    <nd ref="6331294911"/>
    <nd ref="6331294909"/>
    <nd ref="6331294908"/>
    <nd ref="6331294910"/>
    <nd ref="6331294911"/>
    <tag k="addr:city" v="Leeds"/>
    <tag k="addr:housenumber" v="124"/>
    <tag k="addr:postcode" v="LS27 7JB"/>
    <tag k="addr:street" v="Street Lane"/>
    <tag k="addr:suburb" v="Gildersome"/>
    <tag k="building" v="retail"/>
    <tag k="name" v="Crabtree &amp; Son"/>
    <tag k="ref:GB:uprn" v="72356101;72722058"/>
    <tag k="shop" v="funeral_directors"/>
  </way>
  <way id="676052001" version="4" timestamp="2025-04-06T11:46:25Z" changeset="164586609" uid="8857" user="philipcullen">
    <nd ref="6331294913"/>
    <nd ref="6331294911"/>
    <nd ref="6331294910"/>
    <nd ref="6331294912"/>
    <nd ref="6331294913"/>
    <tag k="building" v="retail"/>
    <tag k="name" v="Tigaki Hair Studio"/>
    <tag k="ref:GB:uprn" v="72356094;72722668"/>
    <tag k="shop" v="hairdresser"/>
  </way>
  <way id="702087006" version="1" timestamp="2019-07-06T13:20:23Z" changeset="71959217" uid="10126629" user="ajijohn">
    <nd ref="6593177068"/>
    <nd ref="6593177069"/>
    <tag k="highway" v="residential"/>
  </way>
  <way id="808307485" version="1" timestamp="2020-05-26T08:13:02Z" changeset="85754201" uid="9902286" user="di5order">
    <nd ref="7558440053"/>
    <nd ref="7558440054"/>
    <nd ref="7558440055"/>
    <nd ref="7558440056"/>
    <nd ref="7558440057"/>
    <nd ref="7558440058"/>
    <nd ref="7558440059"/>
    <nd ref="7558440060"/>
    <nd ref="7558477813"/>
    <nd ref="7558440061"/>
    <nd ref="7558477791"/>
    <nd ref="7558440062"/>
    <nd ref="7558440063"/>
    <nd ref="7558440064"/>
    <nd ref="7558440065"/>
    <nd ref="7558440066"/>
    <nd ref="7558440067"/>
    <nd ref="7558440068"/>
    <nd ref="7558440069"/>
    <nd ref="7558440070"/>
    <nd ref="7558477793"/>
    <nd ref="7558440071"/>
    <nd ref="7558477802"/>
    <nd ref="7558440072"/>
    <nd ref="7558477795"/>
    <nd ref="7558440073"/>
    <nd ref="7558440074"/>
    <nd ref="7558440075"/>
    <nd ref="7558440076"/>
    <nd ref="7558440077"/>
    <nd ref="7558440078"/>
    <nd ref="7558440079"/>
    <nd ref="7558440080"/>
    <tag k="highway" v="unclassified"/>
  </way>
  <way id="808307486" version="1" timestamp="2020-05-26T08:13:02Z" changeset="85754201" uid="9902286" user="di5order">
    <nd ref="7558440067"/>
    <nd ref="7558440081"/>
    <nd ref="7558477797"/>
    <nd ref="7558440082"/>
    <nd ref="7558440083"/>
    <nd ref="7558440084"/>
    <nd ref="7558477785"/>
    <nd ref="7558477786"/>
    <nd ref="7558477787"/>
    <nd ref="7558477788"/>
    <nd ref="7558477789"/>
    <nd ref="7558477790"/>
    <tag k="highway" v="unclassified"/>
  </way>
  <way id="839932539" version="1" timestamp="2020-08-23T19:16:31Z" changeset="89819273" uid="73934" user="hlo281">
    <nd ref="5467877493"/>
    <nd ref="5467877486"/>
    <tag k="highway" v="primary"/>
    <tag k="lanes" v="1"/>
    <tag k="lit" v="yes"/>
    <tag k="maxspeed" v="30 mph"/>
    <tag k="motorcar" v="yes"/>
    <tag k="name" v="Gelderd Road"/>
    <tag k="oneway" v="yes"/>
    <tag k="ref" v="A62"/>
    <tag k="surface" v="asphalt"/>
  </way>
  <way id="839932546" version="2" timestamp="2022-03-06T10:49:48Z" changeset="118153624" uid="25766" user="PaulT">
    <nd ref="5750379368"/>
    <nd ref="5467877493"/>
    <tag k="highway" v="primary"/>
    <tag k="lanes" v="1"/>
    <tag k="lit" v="yes"/>
    <tag k="maxspeed" v="30 mph"/>
    <tag k="motorcar" v="yes"/>
    <tag k="name" v="Gelderd Road"/>
    <tag k="oneway" v="yes"/>
    <tag k="ref" v="A62"/>
    <tag k="sidewalk" v="left"/>
    <tag k="surface" v="asphalt"/>
  </way>
  <way id="865649540" version="1" timestamp="2020-10-31T13:17:57Z" changeset="93337907" uid="10149683" user="WakefieldMapper">
    <nd ref="8068776819"/>
    <nd ref="8068776820"/>
    <nd ref="8068776821"/>
    <nd ref="5750379416"/>
    <tag k="highway" v="primary"/>
    <tag k="lit" v="yes"/>
    <tag k="maxspeed" v="30 mph"/>
    <tag k="motorcar" v="yes"/>
    <tag k="name" v="Gelderd Road"/>
    <tag k="oneway" v="yes"/>
    <tag k="ref" v="A62"/>
  </way>
  <way id="865649541" version="2" timestamp="2020-10-31T13:49:30Z" changeset="93338832" uid="10149683" user="WakefieldMapper">
    <nd ref="5750379416"/>
    <nd ref="8068776823"/>
    <nd ref="8068776822"/>
    <nd ref="8068826434"/>
    <nd ref="5750379368"/>
    <tag k="highway" v="primary"/>
    <tag k="lit" v="yes"/>
    <tag k="maxspeed" v="30 mph"/>
    <tag k="motorcar" v="yes"/>
    <tag k="name" v="Gelderd Road"/>
    <tag k="oneway" v="yes"/>
    <tag k="ref" v="A62"/>
  </way>
  <way id="865649542" version="1" timestamp="2020-10-31T13:17:57Z" changeset="93337907" uid="10149683" user="WakefieldMapper">
    <nd ref="5467877489"/>
    <nd ref="8068776825"/>
    <nd ref="5467877488"/>
    <tag k="highway" v="primary"/>
    <tag k="lanes" v="1"/>
    <tag k="lit" v="yes"/>
    <tag k="maxspeed" v="30 mph"/>
    <tag k="motorcar" v="yes"/>
    <tag k="name" v="Gelderd Road"/>
    <tag k="oneway" v="yes"/>
    <tag k="ref" v="A62"/>
    <tag k="surface" v="asphalt"/>
  </way>
  <way id="865649543" version="3" timestamp="2024-01-14T14:07:52Z" changeset="146246345" uid="592" user="JonS">
    <nd ref="8068776825"/>
    <nd ref="8068776828"/>
    <nd ref="8068826437"/>
    <nd ref="1916264867"/>
    <tag k="highway" v="primary"/>
    <tag k="lit" v="yes"/>
    <tag k="maxspeed" v="30 mph"/>
    <tag k="motorcar" v="yes"/>
    <tag k="name" v="Gelderd Road"/>
    <tag k="oneway" v="yes"/>
    <tag k="ref" v="A62"/>
    <tag k="surface" v="asphalt"/>
  </way>
  <way id="865649544" version="3" timestamp="2024-01-14T12:34:03Z" changeset="146241085" uid="592" user="JonS">
    <nd ref="8068776826"/>
    <nd ref="8068776827"/>
    <nd ref="8068826438"/>
    <nd ref="8068776828"/>
    <tag k="highway" v="primary"/>
    <tag k="lit" v="yes"/>
    <tag k="maxspeed" v="30 mph"/>
    <tag k="motorcar" v="yes"/>
    <tag k="name" v="Gelderd Road"/>
    <tag k="oneway" v="yes"/>
    <tag k="ref" v="A62"/>
    <tag k="surface" v="asphalt"/>
  </way>
  <way id="865649545" version="3" timestamp="2024-01-14T12:34:00Z" changeset="146241085" uid="592" user="JonS">
    <nd ref="8068776828"/>
    <nd ref="8068776829"/>
    <nd ref="8068776830"/>
    <nd ref="8068776831"/>
    <nd ref="8068826436"/>
    <nd ref="8068776832"/>
    <tag k="highway" v="primary"/>
    <tag k="lit" v="yes"/>
    <tag k="maxspeed" v="30 mph"/>
    <tag k="motorcar" v="yes"/>
    <tag k="name" v="Gelderd Road"/>
    <tag k="oneway" v="yes"/>
    <tag k="ref" v="A62"/>
    <tag k="surface" v="asphalt"/>
  </way>
  <way id="865649547" version="1" timestamp="2020-10-31T13:17:57Z" changeset="93337907" uid="10149683" user="WakefieldMapper">
    <nd ref="5467877486"/>
    <nd ref="8068776836"/>
    <nd ref="8068776837"/>
    <nd ref="8068776838"/>
    <nd ref="5467877490"/>
    <tag k="highway" v="primary"/>
    <tag k="lanes" v="2"/>
    <tag k="lit" v="yes"/>
    <tag k="maxspeed" v="30 mph"/>
    <tag k="motorcar" v="yes"/>
    <tag k="name" v="Gelderd Road"/>
    <tag k="oneway" v="yes"/>
    <tag k="ref" v="A62"/>
  </way>
  <way id="896290490" version="1" timestamp="2021-01-17T19:34:24Z" changeset="97650231" uid="1802093" user="Paul Berry">
    <nd ref="8331429953"/>
    <nd ref="401349060"/>
    <tag k="highway" v="residential"/>
    <tag k="name" v="Street Lane"/>
  </way>
  <way id="896290491" version="1" timestamp="2021-01-17T19:34:24Z" changeset="97650231" uid="1802093" user="Paul Berry">
    <nd ref="4552427274"/>
    <nd ref="1634916815"/>
    <nd ref="19033304"/>
    <nd ref="1593485777"/>
    <nd ref="2632713180"/>
    <tag k="highway" v="primary"/>
    <tag k="lanes" v="2"/>
    <tag k="lit" v="yes"/>
    <tag k="maxspeed" v="30 mph"/>
    <tag k="name" v="Wakefield Road"/>
    <tag k="oneway" v="yes"/>
    <tag k="ref" v="A650"/>
    <tag k="source:name" v="OS_OpenData_Locator"/>
    <tag k="surface" v="asphalt"/>
  </way>
  <way id="896290494" version="1" timestamp="2021-01-17T19:34:24Z" changeset="97650231" uid="1802093" user="Paul Berry">
    <nd ref="8331429952"/>
    <nd ref="8331429953"/>
    <tag k="highway" v="residential"/>
    <tag k="name" v="Street Lane"/>
  </way>
  <way id="1070349030" version="1" timestamp="2022-06-16T15:31:59Z" changeset="122469869" uid="14674603" user="ALRam">
    <nd ref="9822986960"/>
    <nd ref="9822986961"/>
    <tag k="highway" v="primary_link"/>
    <tag k="oneway" v="no"/>
  </way>
  <way id="1070349031" version="1" timestamp="2022-06-16T15:31:59Z" changeset="122469869" uid="14674603" user="ALRam">
    <nd ref="18485745"/>
    <nd ref="9822986958"/>
    <nd ref="9822986961"/>
    <tag k="highway" v="primary"/>
    <tag k="lanes" v="2"/>
    <tag k="lit" v="yes"/>
    <tag k="maxspeed" v="30 mph"/>
    <tag k="name" v="Wakefield Road"/>
    <tag k="oneway" v="yes"/>
    <tag k="ref" v="A650"/>
    <tag k="source" v="Bing; Survey"/>
    <tag k="surface" v="asphalt"/>
  </way>
  <way id="1070349032" version="1" timestamp="2022-06-16T15:31:59Z" changeset="122469869" uid="14674603" user="ALRam">
    <nd ref="9822986960"/>
    <nd ref="9822986959"/>
    <nd ref="18485745"/>
    <tag k="highway" v="primary"/>
    <tag k="lanes" v="2"/>
    <tag k="lit" v="yes"/>
    <tag k="maxspeed" v="30 mph"/>
    <tag k="name" v="Wakefield Road"/>
    <tag k="oneway" v="yes"/>
    <tag k="ref" v="A650"/>
    <tag k="source:name" v="OS_OpenData_Locator"/>
    <tag k="surface" v="asphalt"/>
  </way>
  <way id="1115382957" version="2" timestamp="2025-04-06T11:46:25Z" changeset="164586609" uid="8857" user="philipcullen">
    <nd ref="10200680192"/>
    <nd ref="10200680193"/>
    <nd ref="10200680201"/>
    <nd ref="10200680194"/>
    <nd ref="10200680191"/>
    <nd ref="10200680195"/>
    <nd ref="10200680192"/>
    <tag k="addr:city" v="Leeds"/>
    <tag k="addr:housenumber" v="13"/>
    <tag k="addr:postcode" v="LS27 7HR"/>
    <tag k="addr:street" v="Street Lane"/>
    <tag k="building" v="residential"/>
    <tag k="ref:GB:uprn" v="72356003"/>
  </way>
  <way id="1115382958" version="2" timestamp="2025-04-06T11:46:25Z" changeset="164586609" uid="8857" user="philipcullen">
    <nd ref="10200680192"/>
    <nd ref="10200680195"/>
    <nd ref="10200680196"/>
    <nd ref="10200680190"/>
    <nd ref="10200680192"/>
    <tag k="addr:city" v="Leeds"/>
    <tag k="addr:housenumber" v="11"/>
    <tag k="addr:postcode" v="LS27 7HR"/>
    <tag k="addr:street" v="Street Lane"/>
    <tag k="building" v="residential"/>
    <tag k="ref:GB:uprn" v="72356001"/>
  </way>
  <way id="1115382959" version="2" timestamp="2025-04-06T11:46:25Z" changeset="164586609" uid="8857" user="philipcullen">
    <nd ref="10200680191"/>
    <nd ref="10200680195"/>
    <nd ref="10200680196"/>
    <nd ref="10200680189"/>
    <nd ref="10200680191"/>
    <tag k="addr:city" v="Leeds"/>
    <tag k="addr:housenumber" v="9"/>
    <tag k="addr:postcode" v="LS27 7HR"/>
    <tag k="addr:street" v="Street Lane"/>
    <tag k="building" v="residential"/>
    <tag k="ref:GB:uprn" v="72355998"/>
  </way>
  <way id="1115382960" version="2" timestamp="2025-04-06T11:46:25Z" changeset="164586609" uid="8857" user="philipcullen">
    <nd ref="5471145750"/>
    <nd ref="10200680190"/>
    <nd ref="10200680196"/>
    <nd ref="10200680197"/>
    <nd ref="5471145750"/>
    <tag k="addr:city" v="Leeds"/>
    <tag k="addr:housenumber" v="7"/>
    <tag k="addr:postcode" v="LS27 7HR"/>
    <tag k="addr:street" v="Street Lane"/>
    <tag k="building" v="residential"/>
    <tag k="ref:GB:uprn" v="72355995"/>
  </way>
  <way id="1115382961" version="2" timestamp="2025-04-06T11:46:25Z" changeset="164586609" uid="8857" user="philipcullen">
    <nd ref="10200680196"/>
    <nd ref="10200680189"/>
    <nd ref="10200680198"/>
    <nd ref="10200680197"/>
    <nd ref="10200680196"/>
    <tag k="addr:city" v="Leeds"/>
    <tag k="addr:housenumber" v="5"/>
    <tag k="addr:postcode" v="LS27 7HR"/>
    <tag k="addr:street" v="Street Lane"/>
    <tag k="building" v="residential"/>
    <tag k="ref:GB:uprn" v="72355992"/>
  </way>
  <way id="1115382962" version="2" timestamp="2025-04-06T11:46:25Z" changeset="164586609" uid="8857" user="philipcullen">
    <nd ref="10200680193"/>
    <nd ref="10200680199"/>
    <nd ref="10200680200"/>
    <nd ref="10200680201"/>
    <nd ref="10200680193"/>
    <tag k="addr:city" v="Leeds"/>
    <tag k="addr:housenumber" v="120"/>
    <tag k="addr:postcode" v="LS27 7HR"/>
    <tag k="addr:street" v="Finkle Lane"/>
    <tag k="building" v="residential"/>
    <tag k="ref:GB:uprn" v="72354714"/>
  </way>
  <way id="1115382963" version="2" timestamp="2025-04-06T11:46:25Z" changeset="164586609" uid="8857" user="philipcullen">
    <nd ref="10200680194"/>
    <nd ref="10200680201"/>
    <nd ref="10200680200"/>
    <nd ref="10200680202"/>
    <nd ref="10200680194"/>
    <tag k="addr:city" v="Leeds"/>
    <tag k="addr:housenumber" v="13A"/>
    <tag k="addr:postcode" v="LS27 7HR"/>
    <tag k="addr:street" v="Street Lane"/>
    <tag k="building" v="residential"/>
    <tag k="ref:GB:uprn" v="72563029"/>
  </way>
  <way id="1115382964" version="2" timestamp="2025-04-06T11:46:25Z" changeset="164586609" uid="8857" user="philipcullen">
    <nd ref="10200680203"/>
    <nd ref="10200680205"/>
    <nd ref="10200680206"/>
    <nd ref="10200680207"/>
    <nd ref="10200680208"/>
    <nd ref="10200680204"/>
    <nd ref="10200680203"/>
    <tag k="addr:city" v="Leeds"/>
    <tag k="addr:housenumber" v="118A"/>
    <tag k="addr:postcode" v="LS27 7HR"/>
    <tag k="addr:street" v="Finkle Lane"/>
    <tag k="building" v="residential"/>
    <tag k="ref:GB:uprn" v="72514397"/>
  </way>
  <way id="1115382965" version="2" timestamp="2025-04-06T11:46:25Z" changeset="164586609" uid="8857" user="philipcullen">
    <nd ref="10200680203"/>
    <nd ref="10200680209"/>
    <nd ref="10200680210"/>
    <nd ref="10200680211"/>
    <nd ref="10200680212"/>
    <nd ref="10200680204"/>
    <nd ref="10200680203"/>
    <tag k="addr:city" v="Leeds"/>
    <tag k="addr:housenumber" v="1"/>
    <tag k="addr:postcode" v="LS27 7HR"/>
    <tag k="addr:street" v="Finkle Court"/>
    <tag k="building" v="residential"/>
    <tag k="ref:GB:uprn" v="72514398"/>
  </way>
  <way id="1183446674" version="1" timestamp="2023-06-19T16:35:10Z" changeset="137527451" uid="705850" user="Cebderby">
    <nd ref="401323283"/>
    <nd ref="10989862778"/>
    <tag k="highway" v="unclassified"/>
    <tag k="name" v="Turnberry Park Road"/>
  </way>
  <way id="1254852488" version="1" timestamp="2024-02-26T11:39:45Z" changeset="147928092" uid="13841144" user="Flamen_Sru">
    <nd ref="11664982662"/>
    <nd ref="3925712033"/>
    <nd ref="3925712034"/>
    <nd ref="11664982658"/>
    <nd ref="3925712029"/>
    <tag k="highway" v="secondary"/>
    <tag k="name" v="Town Street"/>
    <tag k="oneway" v="yes"/>
    <tag k="ref" v="B6126"/>
    <tag k="surface" v="asphalt"/>
  </way>
  <way id="1254852489" version="2" timestamp="2024-02-26T12:11:02Z" changeset="147929205" uid="13841144" user="Flamen_Sru">
    <nd ref="11665069555"/>
    <nd ref="3925712038"/>
    <nd ref="3925712039"/>
    <nd ref="2924572773"/>
    <tag k="highway" v="tertiary"/>
    <tag k="name" v="Street Lane"/>
    <tag k="oneway" v="yes"/>
    <tag k="surface" v="asphalt"/>
  </way>
  <way id="1254852490" version="1" timestamp="2024-02-26T11:39:45Z" changeset="147928092" uid="13841144" user="Flamen_Sru">
    <nd ref="401770208"/>
    <nd ref="11664982657"/>
    <nd ref="3925712002"/>
    <nd ref="3925712004"/>
    <nd ref="3925712003"/>
    <nd ref="11664982660"/>
    <tag k="highway" v="secondary"/>
    <tag k="name" v="Church Street"/>
    <tag k="oneway" v="yes"/>
    <tag k="ref" v="B6126"/>
    <tag k="surface" v="asphalt"/>
  </way>
  <way id="1254852491" version="2" timestamp="2024-02-26T12:11:02Z" changeset="147929205" uid="13841144" user="Flamen_Sru">
    <nd ref="11665069550"/>
    <nd ref="11665069555"/>
    <tag k="highway" v="tertiary"/>
    <tag k="name" v="Street Lane"/>
    <tag k="oneway" v="yes"/>
    <tag k="surface" v="asphalt"/>
  </way>
  <way id="1254852492" version="2" timestamp="2024-02-26T12:11:02Z" changeset="147929205" uid="13841144" user="Flamen_Sru">
    <nd ref="11665069544"/>
    <nd ref="11664982662"/>
    <tag k="highway" v="secondary"/>
    <tag k="name" v="Town Street"/>
    <tag k="oneway" v="yes"/>
    <tag k="ref" v="B6126"/>
    <tag k="surface" v="asphalt"/>
  </way>
  <way id="1254852493" version="1" timestamp="2024-02-26T11:39:45Z" changeset="147928092" uid="13841144" user="Flamen_Sru">
    <nd ref="11664982660"/>
    <nd ref="11664982661"/>
    <tag k="highway" v="secondary"/>
    <tag k="name" v="Church Street"/>
    <tag k="oneway" v="yes"/>
    <tag k="ref" v="B6126"/>
    <tag k="surface" v="asphalt"/>
  </way>
  <way id="1254859638" version="1" timestamp="2024-02-26T12:11:02Z" changeset="147929205" uid="13841144" user="Flamen_Sru">
    <nd ref="11665069544"/>
    <nd ref="11665069554"/>
    <nd ref="11665069549"/>
    <nd ref="11665069543"/>
    <nd ref="3925712006"/>
    <tag k="highway" v="secondary"/>
    <tag k="junction" v="roundabout"/>
  </way>
  <way id="1254859639" version="1" timestamp="2024-02-26T12:11:02Z" changeset="147929205" uid="13841144" user="Flamen_Sru">
    <nd ref="11665069550"/>
    <nd ref="11665069551"/>
    <nd ref="11665069553"/>
    <nd ref="11665069556"/>
    <tag k="highway" v="secondary"/>
    <tag k="junction" v="roundabout"/>
  </way>
  <way id="1254859640" version="1" timestamp="2024-02-26T12:11:02Z" changeset="147929205" uid="13841144" user="Flamen_Sru">
    <nd ref="3925712006"/>
    <nd ref="11665069550"/>
    <tag k="highway" v="secondary"/>
    <tag k="junction" v="roundabout"/>
  </way>
  <way id="1254859641" version="1" timestamp="2024-02-26T12:11:02Z" changeset="147929205" uid="13841144" user="Flamen_Sru">
    <nd ref="11665069556"/>
    <nd ref="11665069545"/>
    <nd ref="11665069546"/>
    <nd ref="11665069547"/>
    <nd ref="11664982661"/>
    <nd ref="11665069548"/>
    <nd ref="11665069552"/>
    <nd ref="11665069544"/>
    <tag k="highway" v="secondary"/>
    <tag k="junction" v="roundabout"/>
  </way>

</osm>
