<?xml version="1.0" encoding="UTF-8"?>
<osm version="0.6" generator="Overpass API 0.7.62.5 1bd436f1">
<note>The data included in this document is from www.openstreetmap.org. The data is made available under ODbL.</note>
<meta osm_base="2025-05-18T05:37:52Z" areas="2024-12-31T00:49:33Z"/>

  <node id="26729470" lat="49.9992780" lon="14.3707967" version="1" timestamp="2007-03-24T00:38:42Z" changeset="243506" uid="1066" user="pavel"/>
  <node id="31515050" lat="50.0010975" lon="14.3816854" version="4" timestamp="2024-12-28T15:44:16Z" changeset="160719064" uid="1189910" user="Milancer"/>
  <node id="81918328" lat="49.9970585" lon="14.3659111" version="3" timestamp="2011-03-07T18:29:30Z" changeset="7487069" uid="162736" user="honzour"/>
  <node id="81918334" lat="49.9967696" lon="14.3675046" version="1" timestamp="2007-10-21T00:44:41Z" changeset="275594" uid="3516" user="BiIbo">
    <tag k="created_by" v="JOSM"/>
  </node>
  <node id="248763236" lat="49.9989678" lon="14.3554563" version="6" timestamp="2020-01-11T19:39:33Z" changeset="79459224" uid="8971394" user="vojtechzaboril"/>
  <node id="250835613" lat="49.9950349" lon="14.3742140" version="7" timestamp="2020-04-08T11:23:05Z" changeset="83250282" uid="8971394" user="vojtechzaboril"/>
  <node id="302397150" lat="49.9938963" lon="14.3892527" version="2" timestamp="2021-05-24T15:48:30Z" changeset="105237708" uid="6588887" user="Martin2035"/>
  <node id="593540434" lat="49.9774302" lon="14.3330342" version="3" timestamp="2012-03-21T23:50:36Z" changeset="11058417" uid="488732" user="montardo"/>
  <node id="633033918" lat="49.9882319" lon="14.3889086" version="13" timestamp="2021-10-16T19:39:31Z" changeset="112591006" uid="8971394" user="vojtechzaboril"/>
  <node id="1420335427" lat="49.9984073" lon="14.3411798" version="2" timestamp="2018-05-26T15:25:29Z" changeset="59296335" uid="1719518" user="itamas80"/>
  <node id="1456850635" lat="49.9954836" lon="14.3741901" version="2" timestamp="2012-09-05T02:52:25Z" changeset="12989968" uid="488732" user="montardo"/>
  <node id="8521578181" lat="49.9950337" lon="14.3444210" version="1" timestamp="2021-03-15T17:29:03Z" changeset="101066412" uid="4382951" user="VSA_">
    <tag k="building" v="bunker"/>
    <tag k="bunker_type" v="observation"/>
    <tag k="military" v="bunker"/>
    <tag k="name" v="Pozorovatelna CO Radotín"/>
  </node>
  <node id="8905116537" lat="49.9675229" lon="14.3316318" version="1" timestamp="2021-07-08T19:13:21Z" changeset="107656556" uid="718054" user="Piskvor"/>
  <node id="11420003069" lat="49.9989141" lon="14.3187085" version="1" timestamp="2023-12-15T10:36:12Z" changeset="145145142" uid="20552061" user="CD1850"/>
  <way id="4272667" version="22" timestamp="2023-09-02T17:18:34Z" changeset="140729077" uid="6588887" user="Martin2035">
    <nd ref="25697610"/>
    <nd ref="3930001104"/>
    <nd ref="11163318933"/>
    <nd ref="81937016"/>
    <tag k="highway" v="secondary"/>
    <tag k="lanes" v="2"/>
    <tag k="name" v="náměstí Osvoboditelů"/>
    <tag k="ref" v="101;115"/>
    <tag k="sidewalk:left" v="no"/>
    <tag k="sidewalk:right" v="separate"/>
    <tag k="sorting_name" v="Osvoboditelů"/>
    <tag k="surface" v="asphalt"/>
  </way>
  <way id="4272669" version="18" timestamp="2024-06-14T16:59:56Z" changeset="152689662" uid="10932047" user="AF HAF KARTOGRAF">
    <nd ref="81937014"/>
    <nd ref="836725292"/>
    <nd ref="11981299607"/>
    <nd ref="1126324504"/>
    <nd ref="8587341914"/>
    <nd ref="11981299644"/>
    <nd ref="11981299691"/>
    <nd ref="2704713834"/>
    <nd ref="2704713831"/>
    <nd ref="11981299693"/>
    <nd ref="25697608"/>
    <tag k="highway" v="secondary"/>
    <tag k="maxweight" v="12"/>
    <tag k="name" v="náměstí Osvoboditelů"/>
    <tag k="ref" v="599"/>
    <tag k="sorting_name" v="Osvoboditelů"/>
    <tag k="surface" v="asphalt"/>
  </way>
  <way id="4704661" version="8" timestamp="2024-01-22T10:06:10Z" changeset="146545819" uid="25867" user="adamos">
    <nd ref="25953995"/>
    <nd ref="60270980"/>
    <nd ref="60270978"/>
    <nd ref="60270977"/>
    <nd ref="60270976"/>
    <nd ref="60270975"/>
    <nd ref="60270974"/>
    <nd ref="60270973"/>
    <nd ref="9000791854"/>
    <nd ref="60270972"/>
    <nd ref="60270971"/>
    <nd ref="9000791853"/>
    <nd ref="346909355"/>
    <nd ref="1240225633"/>
    <tag k="highway" v="tertiary"/>
    <tag k="lane_markings" v="no"/>
    <tag k="name" v="Na Cikánce"/>
    <tag k="surface" v="asphalt"/>
  </way>
  <way id="4704663" version="4" timestamp="2023-11-04T14:22:46Z" changeset="143615040" uid="1744853" user="amunak">
    <nd ref="26729362"/>
    <nd ref="26729361"/>
    <nd ref="26729360"/>
    <nd ref="26729359"/>
    <tag k="highway" v="residential"/>
    <tag k="name" v="Jarkovská"/>
    <tag k="surface" v="asphalt"/>
  </way>
  <way id="4713357" version="13" timestamp="2023-09-19T17:47:36Z" changeset="141479802" uid="1189910" user="Milancer">
    <nd ref="30006604"/>
    <nd ref="11203210230"/>
    <nd ref="3351934246"/>
    <nd ref="3351934248"/>
    <nd ref="9532251364"/>
    <nd ref="9650804422"/>
    <nd ref="395446927"/>
    <nd ref="1140244173"/>
    <nd ref="1140244317"/>
    <nd ref="30006605"/>
    <tag k="highway" v="tertiary"/>
    <tag k="maxheight" v="default"/>
    <tag k="name" v="Přeštínská"/>
    <tag k="oneway" v="no"/>
  </way>
  <way id="4878128" version="8" timestamp="2023-07-07T08:55:08Z" changeset="138219490" uid="746938" user="aloxe">
    <nd ref="30006606"/>
    <nd ref="1141592321"/>
    <nd ref="288118509"/>
    <nd ref="31515464"/>
    <tag k="highway" v="tertiary"/>
    <tag k="lanes" v="2"/>
    <tag k="name" v="Vrážská"/>
    <tag k="surface" v="asphalt"/>
  </way>
  <way id="4878130" version="6" timestamp="2009-09-08T14:50:31Z" changeset="2414304" uid="17615" user="Petr Dlouhý">
    <nd ref="31515466"/>
    <nd ref="386722232"/>
    <tag k="highway" v="residential"/>
    <tag k="name" v="Věštínská"/>
  </way>
  <way id="4878145" version="21" timestamp="2025-01-28T20:16:23Z" changeset="161872262" uid="2061236" user="Thartek">
    <nd ref="31515681"/>
    <nd ref="288138957"/>
    <nd ref="297204365"/>
    <tag k="cycleway:both" v="no"/>
    <tag k="highway" v="tertiary"/>
    <tag k="lanes" v="2"/>
    <tag k="lit" v="yes"/>
    <tag k="maxspeed" v="50"/>
    <tag k="maxspeed:type" v="CZ:zone50"/>
    <tag k="name" v="Vrážská"/>
    <tag k="sidewalk:both" v="separate"/>
    <tag k="smoothness" v="good"/>
    <tag k="surface" v="asphalt"/>
  </way>
  <way id="8150517" version="3" timestamp="2023-11-04T14:22:38Z" changeset="143615040" uid="1744853" user="amunak">
    <nd ref="346909370"/>
    <nd ref="26709205"/>
    <tag k="created_by" v="JOSM"/>
    <tag k="highway" v="residential"/>
    <tag k="surface" v="asphalt"/>
  </way>
  <way id="9526142" version="20" timestamp="2022-02-14T17:46:47Z" changeset="117403470" uid="25561" user="Gobik">
    <nd ref="8905116537"/>
    <nd ref="1170140682"/>
    <nd ref="73345451"/>
    <nd ref="1202430844"/>
    <nd ref="73493171"/>
    <nd ref="287475620"/>
    <nd ref="3002112369"/>
    <nd ref="73436497"/>
    <nd ref="1110063479"/>
    <nd ref="73377780"/>
    <nd ref="73326373"/>
    <nd ref="73427608"/>
    <nd ref="73364107"/>
    <nd ref="73317052"/>
    <nd ref="73470598"/>
    <nd ref="386727143"/>
    <tag k="cycleway:both" v="no"/>
    <tag k="highway" v="secondary"/>
    <tag k="lanes" v="2"/>
    <tag k="maxspeed" v="90"/>
    <tag k="name" v="Radotínská"/>
    <tag k="ref" v="115"/>
    <tag k="source:maxspeed" v="CZ:rural"/>
    <tag k="surface" v="asphalt"/>
  </way>
  <way id="9974857" version="6" timestamp="2019-07-28T06:11:57Z" changeset="72730124" uid="665336" user="Minimalis">
    <nd ref="81918328"/>
    <nd ref="81921224"/>
    <nd ref="81918331"/>
    <nd ref="81921227"/>
    <nd ref="6654448523"/>
    <nd ref="81921231"/>
    <nd ref="346916016"/>
    <nd ref="6654448529"/>
    <nd ref="847175925"/>
    <tag k="highway" v="residential"/>
    <tag k="name" v="Strážovská"/>
  </way>
  <way id="9974860" version="9" timestamp="2019-06-29T06:31:52Z" changeset="71729163" uid="665336" user="Minimalis">
    <nd ref="81918334"/>
    <nd ref="81918337"/>
    <nd ref="1194994159"/>
    <nd ref="81918341"/>
    <nd ref="1194994152"/>
    <nd ref="1126365540"/>
    <nd ref="81918345"/>
    <nd ref="81918349"/>
    <nd ref="81918352"/>
    <nd ref="2223524835"/>
    <nd ref="26729469"/>
    <tag k="highway" v="residential"/>
    <tag k="name" v="Sobětická"/>
  </way>
  <way id="9975193" version="5" timestamp="2022-11-19T23:53:50Z" changeset="129141203" uid="469828" user="Lukáš Jelínek">
    <nd ref="277483495"/>
    <nd ref="10202925656"/>
    <nd ref="277483494"/>
    <nd ref="277483493"/>
    <nd ref="81918334"/>
    <nd ref="81918331"/>
    <tag k="highway" v="residential"/>
    <tag k="name" v="Solná"/>
  </way>
  <way id="9975194" version="4" timestamp="2011-08-04T09:08:52Z" changeset="8917520" uid="471093" user="wirrkorrk">
    <nd ref="81921132"/>
    <nd ref="81921137"/>
    <tag k="highway" v="residential"/>
    <tag k="name" v="Strunkovská"/>
    <tag k="oneway" v="yes"/>
  </way>
  <way id="9975195" version="5" timestamp="2019-08-21T19:53:20Z" changeset="73595065" uid="665336" user="Minimalis">
    <nd ref="81921137"/>
    <nd ref="81921141"/>
    <nd ref="6733316276"/>
    <nd ref="6733316275"/>
    <nd ref="6733316274"/>
    <nd ref="6733316273"/>
    <nd ref="6733316272"/>
    <nd ref="6733316271"/>
    <nd ref="6733316270"/>
    <tag k="highway" v="residential"/>
    <tag k="name" v="Minerální"/>
    <tag k="ref:ruian:street" v="495646"/>
    <tag k="source" v="cuzk:ruian"/>
  </way>
  <way id="9975848" version="5" timestamp="2023-12-15T19:42:57Z" changeset="145163960" uid="20552061" user="CD1850">
    <nd ref="81921378"/>
    <nd ref="81928221"/>
    <nd ref="81928227"/>
    <nd ref="81928232"/>
    <nd ref="81928236"/>
    <nd ref="288253778"/>
    <nd ref="11420972524"/>
    <nd ref="81928241"/>
    <tag k="highway" v="residential"/>
    <tag k="name" v="Na Říháku"/>
  </way>
  <way id="9975850" version="5" timestamp="2020-12-05T18:21:24Z" changeset="95343874" uid="1189910" user="Milancer">
    <nd ref="81928246"/>
    <nd ref="81921313"/>
    <tag k="access" v="destination"/>
    <tag k="highway" v="residential"/>
    <tag k="incline" v="20%"/>
    <tag k="name" v="Štěrková"/>
  </way>
  <way id="9975851" version="4" timestamp="2012-03-21T23:49:07Z" changeset="11058417" uid="488732" user="montardo">
    <nd ref="81921310"/>
    <nd ref="81928251"/>
    <nd ref="81928253"/>
    <nd ref="1685265951"/>
    <nd ref="81928257"/>
    <nd ref="81928263"/>
    <tag k="highway" v="residential"/>
    <tag k="name" v="Pod Lahovskou"/>
  </way>
  <way id="9975852" version="7" timestamp="2019-04-24T11:15:29Z" changeset="69521720" uid="1189910" user="Milancer">
    <nd ref="81921308"/>
    <nd ref="81928267"/>
    <nd ref="81928270"/>
    <nd ref="81928297"/>
    <nd ref="3930001153"/>
    <nd ref="81928298"/>
    <nd ref="81928300"/>
    <nd ref="3930001165"/>
    <nd ref="81928302"/>
    <nd ref="277483499"/>
    <tag k="highway" v="residential"/>
    <tag k="name" v="Plánická"/>
  </way>
  <way id="9975855" version="5" timestamp="2011-10-13T11:25:05Z" changeset="9546289" uid="17615" user="Petr Dlouhý">
    <nd ref="81928263"/>
    <nd ref="81928246"/>
    <tag k="highway" v="residential"/>
    <tag k="name" v="U Sanatoria"/>
    <tag k="oneway" v="yes"/>
  </way>
  <way id="9975857" version="7" timestamp="2022-11-26T19:14:01Z" changeset="129412828" uid="6588887" user="Martin2035">
    <nd ref="81928341"/>
    <nd ref="1100421584"/>
    <nd ref="81928351"/>
    <nd ref="9356120543"/>
    <nd ref="81921400"/>
    <tag k="highway" v="residential"/>
    <tag k="maxspeed" v="30"/>
    <tag k="maxspeed:type" v="CZ:zone30"/>
    <tag k="name" v="Na Betonce"/>
    <tag k="oneway" v="yes"/>
    <tag k="zone:maxspeed" v="30"/>
  </way>
  <way id="9975858" version="6" timestamp="2022-11-26T19:14:01Z" changeset="129412828" uid="6588887" user="Martin2035">
    <nd ref="81921403"/>
    <nd ref="9356120548"/>
    <nd ref="81928342"/>
    <tag k="highway" v="residential"/>
    <tag k="maxspeed" v="30"/>
    <tag k="maxspeed:type" v="CZ:zone30"/>
    <tag k="name" v="Slinková"/>
    <tag k="oneway" v="yes"/>
    <tag k="zone:maxspeed" v="30"/>
  </way>
  <way id="9975859" version="5" timestamp="2022-11-26T19:14:01Z" changeset="129412828" uid="6588887" user="Martin2035">
    <nd ref="81928351"/>
    <nd ref="81928349"/>
    <nd ref="81928340"/>
    <tag k="highway" v="residential"/>
    <tag k="maxspeed" v="30"/>
    <tag k="maxspeed:type" v="CZ:zone30"/>
    <tag k="name" v="Jaspisová"/>
    <tag k="oneway" v="yes"/>
    <tag k="zone:maxspeed" v="30"/>
  </way>
  <way id="9975860" version="5" timestamp="2022-11-26T19:14:01Z" changeset="129412828" uid="6588887" user="Martin2035">
    <nd ref="81928337"/>
    <nd ref="81928353"/>
    <tag k="hgv" v="destination"/>
    <tag k="highway" v="residential"/>
    <tag k="maxspeed" v="30"/>
    <tag k="maxspeed:type" v="CZ:zone30"/>
    <tag k="name" v="Achátová"/>
    <tag k="oneway" v="yes"/>
    <tag k="surface" v="paving_stones"/>
    <tag k="zone:maxspeed" v="30"/>
  </way>
  <way id="9975864" version="7" timestamp="2022-11-26T19:14:01Z" changeset="129412828" uid="6588887" user="Martin2035">
    <nd ref="81921398"/>
    <nd ref="81928353"/>
    <nd ref="81928357"/>
    <tag k="highway" v="residential"/>
    <tag k="maxspeed" v="30"/>
    <tag k="maxspeed:type" v="CZ:zone30"/>
    <tag k="name" v="Ametystová"/>
    <tag k="oneway" v="yes"/>
    <tag k="zone:maxspeed" v="30"/>
  </way>
  <way id="9976214" version="5" timestamp="2010-08-17T05:23:28Z" changeset="5514558" uid="162736" user="honzour">
    <nd ref="81928357"/>
    <nd ref="288137327"/>
    <nd ref="81932064"/>
    <tag k="highway" v="residential"/>
    <tag k="name" v="Vykoukových"/>
    <tag k="oneway" v="yes"/>
  </way>
  <way id="9976216" version="6" timestamp="2022-11-26T19:14:01Z" changeset="129412828" uid="6588887" user="Martin2035">
    <nd ref="30006609"/>
    <nd ref="288137328"/>
    <nd ref="81928365"/>
    <tag k="highway" v="residential"/>
    <tag k="maxspeed" v="30"/>
    <tag k="maxspeed:type" v="CZ:zone30"/>
    <tag k="name" v="Grafitová"/>
    <tag k="oneway" v="yes"/>
    <tag k="zone:maxspeed" v="30"/>
  </way>
  <way id="9976217" version="6" timestamp="2022-11-26T19:14:01Z" changeset="129412828" uid="6588887" user="Martin2035">
    <nd ref="81928428"/>
    <nd ref="81928335"/>
    <tag k="highway" v="residential"/>
    <tag k="maxspeed" v="30"/>
    <tag k="maxspeed:type" v="CZ:zone30"/>
    <tag k="name" v="U Vápenky"/>
    <tag k="oneway" v="no"/>
    <tag k="zone:maxspeed" v="30"/>
  </way>
  <way id="9976218" version="6" timestamp="2022-11-26T19:14:01Z" changeset="129412828" uid="6588887" user="Martin2035">
    <nd ref="81928332"/>
    <nd ref="288131959"/>
    <tag k="highway" v="residential"/>
    <tag k="maxspeed" v="30"/>
    <tag k="maxspeed:type" v="CZ:zone30"/>
    <tag k="name" v="Býšovská"/>
    <tag k="oneway" v="no"/>
    <tag k="zone:maxspeed" v="30"/>
  </way>
  <way id="9976219" version="5" timestamp="2022-11-26T19:14:01Z" changeset="129412828" uid="6588887" user="Martin2035">
    <nd ref="81932071"/>
    <nd ref="81932067"/>
    <nd ref="288131968"/>
    <tag k="highway" v="residential"/>
    <tag k="maxspeed" v="30"/>
    <tag k="maxspeed:type" v="CZ:zone30"/>
    <tag k="name" v="Štěrková"/>
    <tag k="zone:maxspeed" v="30"/>
  </way>
  <way id="9976235" version="7" timestamp="2022-11-06T18:46:34Z" changeset="128566762" uid="1189910" user="Milancer">
    <nd ref="81932085"/>
    <nd ref="9532251369"/>
    <tag k="highway" v="residential"/>
    <tag k="name" v="Vinohrady"/>
    <tag k="oneway" v="yes"/>
  </way>
  <way id="9976236" version="6" timestamp="2022-11-26T19:14:01Z" changeset="129412828" uid="6588887" user="Martin2035">
    <nd ref="81928446"/>
    <nd ref="81932087"/>
    <nd ref="81932091"/>
    <nd ref="81932134"/>
    <nd ref="81932136"/>
    <nd ref="81932139"/>
    <nd ref="81932143"/>
    <tag k="highway" v="residential"/>
    <tag k="maxspeed" v="30"/>
    <tag k="maxspeed:type" v="CZ:zone30"/>
    <tag k="name" v="Topasová"/>
    <tag k="zone:maxspeed" v="30"/>
  </way>
  <way id="9976237" version="6" timestamp="2022-03-05T16:50:57Z" changeset="118133368" uid="1189910" user="Milancer">
    <nd ref="81932074"/>
    <nd ref="9556294579"/>
    <nd ref="81932247"/>
    <nd ref="3930001151"/>
    <nd ref="3930001154"/>
    <nd ref="81932250"/>
    <tag k="highway" v="residential"/>
    <tag k="name" v="Živcová"/>
  </way>
  <way id="9976244" version="4" timestamp="2011-02-21T14:12:29Z" changeset="7354119" uid="162736" user="honzour">
    <nd ref="81932275"/>
    <nd ref="81932147"/>
    <nd ref="1165142441"/>
    <nd ref="1165142507"/>
    <nd ref="81932276"/>
    <tag k="highway" v="residential"/>
    <tag k="name" v="Radkovská"/>
  </way>
  <way id="9976735" version="33" timestamp="2023-08-31T08:15:58Z" changeset="140622479" uid="10545359" user="kainloma">
    <nd ref="81928341"/>
    <nd ref="1100421588"/>
    <nd ref="831215582"/>
    <nd ref="1813385698"/>
    <nd ref="1084099257"/>
    <nd ref="7573380591"/>
    <nd ref="861317382"/>
    <nd ref="7472071039"/>
    <nd ref="11158553811"/>
    <nd ref="7522951680"/>
    <nd ref="835538741"/>
    <nd ref="10246635246"/>
    <tag k="highway" v="residential"/>
    <tag k="name" v="Na Betonce"/>
    <tag k="surface" v="asphalt"/>
  </way>
  <way id="22678009" version="11" timestamp="2023-11-04T14:23:30Z" changeset="143615040" uid="1744853" user="amunak">
    <nd ref="26729359"/>
    <nd ref="1099215877"/>
    <nd ref="1685265945"/>
    <nd ref="243260902"/>
    <nd ref="1685265937"/>
    <nd ref="243260907"/>
    <nd ref="866080700"/>
    <nd ref="847175839"/>
    <nd ref="847151030"/>
    <nd ref="243260911"/>
    <tag k="highway" v="residential"/>
    <tag k="name" v="V Edenu"/>
    <tag k="surface" v="asphalt"/>
  </way>
  <way id="22678011" version="3" timestamp="2010-07-29T05:38:08Z" changeset="5343803" uid="162736" user="honzour">
    <nd ref="243260937"/>
    <nd ref="243260907"/>
    <tag k="highway" v="residential"/>
    <tag k="name" v="Kejnická"/>
  </way>
  <way id="22678013" version="2" timestamp="2009-02-17T18:21:02Z" changeset="510012" uid="8007" user="vrabcak">
    <nd ref="26709219"/>
    <nd ref="25697596"/>
    <tag k="created_by" v="JOSM"/>
    <tag k="highway" v="residential"/>
    <tag k="name" v="Častonická"/>
  </way>
  <way id="22678014" version="4" timestamp="2023-11-04T14:22:52Z" changeset="143615040" uid="1744853" user="amunak">
    <nd ref="26729359"/>
    <nd ref="1685265947"/>
    <nd ref="26729358"/>
    <nd ref="26729357"/>
    <tag k="highway" v="residential"/>
    <tag k="name" v="Slavičí"/>
    <tag k="surface" v="asphalt"/>
  </way>
  <way id="22678513" version="3" timestamp="2010-07-24T18:46:29Z" changeset="5306201" uid="162736" user="honzour">
    <nd ref="243273210"/>
    <nd ref="243273211"/>
    <tag k="highway" v="residential"/>
    <tag k="name" v="Vápenná"/>
  </way>
  <way id="22678516" version="5" timestamp="2012-07-17T17:16:07Z" changeset="12269431" uid="527259" user="Vratislav Filler">
    <nd ref="243273221"/>
    <nd ref="243273232"/>
    <tag k="highway" v="residential"/>
    <tag k="name" v="Otínská"/>
  </way>
  <way id="22678517" version="5" timestamp="2012-07-17T17:16:07Z" changeset="12269431" uid="527259" user="Vratislav Filler">
    <nd ref="243273232"/>
    <nd ref="243273236"/>
    <nd ref="243273240"/>
    <nd ref="243273229"/>
    <tag k="highway" v="residential"/>
    <tag k="name" v="Otínská"/>
  </way>
  <way id="22678609" version="3" timestamp="2008-09-15T13:18:46Z" changeset="638620" uid="8612" user="Kubajz">
    <nd ref="31515497"/>
    <nd ref="297204357"/>
    <tag k="highway" v="residential"/>
    <tag k="name" v="Kraslická"/>
  </way>
  <way id="22678611" version="11" timestamp="2025-01-28T20:16:23Z" changeset="161872262" uid="2061236" user="Thartek">
    <nd ref="297204354"/>
    <nd ref="12146147326"/>
    <nd ref="346909477"/>
    <nd ref="346909471"/>
    <nd ref="386722224"/>
    <nd ref="976526322"/>
    <nd ref="31515498"/>
    <tag k="highway" v="residential"/>
    <tag k="name" v="Věštínská"/>
    <tag k="oneway" v="yes"/>
  </way>
  <way id="22678612" version="20" timestamp="2025-01-30T11:46:44Z" changeset="161934107" uid="17639962" user="detective-fiasco">
    <nd ref="31515681"/>
    <nd ref="12539855040"/>
    <nd ref="12539855039"/>
    <nd ref="12539855038"/>
    <nd ref="10246635247"/>
    <nd ref="1400700641"/>
    <nd ref="1135208675"/>
    <nd ref="1135208681"/>
    <tag k="highway" v="tertiary"/>
    <tag k="lanes" v="2"/>
    <tag k="lit" v="yes"/>
    <tag k="maxspeed:type" v="CZ:urban"/>
    <tag k="name" v="Vrážská"/>
    <tag k="oneway" v="no"/>
    <tag k="sidewalk:both" v="separate"/>
    <tag k="smoothness" v="excellent"/>
    <tag k="surface" v="asphalt"/>
  </way>
  <way id="25418510" version="8" timestamp="2024-07-12T20:15:03Z" changeset="153870940" uid="18482278" user="Someone1212">
    <nd ref="31515466"/>
    <nd ref="489587153"/>
    <nd ref="31515465"/>
    <nd ref="12050013181"/>
    <nd ref="31515464"/>
    <tag k="cycleway" v="opposite_lane"/>
    <tag k="highway" v="residential"/>
    <tag k="name" v="U Jankovky"/>
    <tag k="oneway" v="yes"/>
    <tag k="oneway:bicycle" v="no"/>
  </way>
  <way id="25418526" version="11" timestamp="2024-12-21T21:49:23Z" changeset="160484463" uid="17639962" user="detective-fiasco">
    <nd ref="31515499"/>
    <nd ref="5590654672"/>
    <nd ref="31515500"/>
    <nd ref="9532251358"/>
    <nd ref="31515501"/>
    <nd ref="31515502"/>
    <nd ref="6653396256"/>
    <nd ref="12439656491"/>
    <nd ref="31515504"/>
    <nd ref="31515526"/>
    <nd ref="12157926676"/>
    <nd ref="31515464"/>
    <tag k="cycleway:both" v="no"/>
    <tag k="highway" v="tertiary"/>
    <tag k="lanes" v="2"/>
    <tag k="name" v="Vrážská"/>
    <tag k="surface" v="asphalt"/>
  </way>
  <way id="25612306" version="6" timestamp="2022-11-26T19:14:01Z" changeset="129412828" uid="6588887" user="Martin2035">
    <nd ref="81921378"/>
    <nd ref="81921382"/>
    <nd ref="288132270"/>
    <nd ref="81921387"/>
    <nd ref="81921392"/>
    <nd ref="1135097261"/>
    <nd ref="81921398"/>
    <tag k="highway" v="residential"/>
    <tag k="maxspeed" v="30"/>
    <tag k="maxspeed:type" v="CZ:zone30"/>
    <tag k="name" v="Strážovská"/>
    <tag k="zone:maxspeed" v="30"/>
  </way>
  <way id="25612307" version="11" timestamp="2022-11-26T19:14:01Z" changeset="129412828" uid="6588887" user="Martin2035">
    <nd ref="81928341"/>
    <nd ref="1100421586"/>
    <nd ref="81928342"/>
    <nd ref="835701888"/>
    <nd ref="30006612"/>
    <tag k="highway" v="residential"/>
    <tag k="maxspeed" v="30"/>
    <tag k="maxspeed:type" v="CZ:zone30"/>
    <tag k="name" v="Prvomájová"/>
    <tag k="surface" v="asphalt"/>
    <tag k="zone:maxspeed" v="30"/>
  </way>
  <way id="26301391" version="3" timestamp="2022-11-26T19:14:01Z" changeset="129412828" uid="6588887" user="Martin2035">
    <nd ref="288131959"/>
    <nd ref="288131960"/>
    <nd ref="288131963"/>
    <nd ref="288131966"/>
    <nd ref="288131968"/>
    <tag k="highway" v="residential"/>
    <tag k="maxspeed" v="30"/>
    <tag k="maxspeed:type" v="CZ:zone30"/>
    <tag k="name" v="Čedičová"/>
    <tag k="zone:maxspeed" v="30"/>
  </way>
  <way id="26307119" version="7" timestamp="2024-12-28T15:44:16Z" changeset="160719064" uid="1189910" user="Milancer">
    <nd ref="288191331"/>
    <nd ref="12459100692"/>
    <nd ref="288191382"/>
    <tag k="highway" v="residential"/>
    <tag k="name" v="Ježdíkova"/>
    <tag k="oneway" v="yes"/>
    <tag k="smoothness" v="excellent"/>
    <tag k="surface" v="paving_stones"/>
  </way>
  <way id="26307130" version="11" timestamp="2024-04-14T07:44:43Z" changeset="149978774" uid="335143" user="Bogomil Shopov - Бого">
    <nd ref="288191382"/>
    <nd ref="288191335"/>
    <tag k="highway" v="residential"/>
    <tag k="lane_markings" v="no"/>
    <tag k="lit" v="no"/>
    <tag k="name" v="Felberova"/>
    <tag k="oneway" v="yes"/>
    <tag k="parking:left" v="no"/>
    <tag k="parking:right" v="lane"/>
    <tag k="parking:right:orientation" v="parallel"/>
    <tag k="sidewalk" v="both"/>
    <tag k="surface" v="paving_stones"/>
    <tag k="width" v="5"/>
  </way>
  <way id="26311507" version="12" timestamp="2024-04-26T19:09:51Z" changeset="150553852" uid="6588887" user="Martin2035">
    <nd ref="288253940"/>
    <nd ref="288253951"/>
    <nd ref="288191338"/>
    <tag k="highway" v="residential"/>
    <tag k="lane_markings" v="no"/>
    <tag k="lit" v="yes"/>
    <tag k="name" v="K Lázním"/>
    <tag k="note" v="oneway:bicycle=no since 2024"/>
    <tag k="oneway" v="yes"/>
    <tag k="oneway:bicycle" v="no"/>
    <tag k="parking:both" v="no"/>
    <tag k="sidewalk" v="both"/>
    <tag k="surface" v="paving_stones"/>
    <tag k="width" v="6"/>
  </way>
  <way id="26311510" version="11" timestamp="2024-10-05T21:42:53Z" changeset="157518586" uid="573826" user="LeoBardonaro">
    <nd ref="288253951"/>
    <nd ref="288253950"/>
    <nd ref="1236492847"/>
    <nd ref="288253945"/>
    <nd ref="288191339"/>
    <tag k="highway" v="residential"/>
    <tag k="lane_markings" v="no"/>
    <tag k="lit" v="yes"/>
    <tag k="name" v="K Lázním"/>
    <tag k="oneway" v="yes"/>
    <tag k="sidewalk" v="no"/>
    <tag k="surface" v="asphalt"/>
    <tag k="width" v="4"/>
  </way>
  <way id="26311512" version="11" timestamp="2024-04-14T07:17:11Z" changeset="149978876" uid="335143" user="Bogomil Shopov - Бого">
    <nd ref="288191532"/>
    <nd ref="288191336"/>
    <tag k="highway" v="residential"/>
    <tag k="lane_markings" v="no"/>
    <tag k="lit" v="yes"/>
    <tag k="maxspeed:type" v="CZ:urban"/>
    <tag k="name" v="Zítkova"/>
    <tag k="oneway" v="yes"/>
    <tag k="parking:left" v="no"/>
    <tag k="parking:right" v="lane"/>
    <tag k="parking:right:orientation" v="parallel"/>
    <tag k="sidewalk" v="both"/>
    <tag k="surface" v="asphalt"/>
    <tag k="width" v="6.4"/>
  </way>
  <way id="26311513" version="5" timestamp="2023-07-18T07:41:46Z" changeset="138653238" uid="10881771" user="Vokoun">
    <nd ref="288191337"/>
    <nd ref="288253929"/>
    <tag k="highway" v="residential"/>
    <tag k="name" v="Macháčkova"/>
    <tag k="oneway" v="yes"/>
    <tag k="smoothness" v="good"/>
    <tag k="surface" v="paving_stones"/>
  </way>
  <way id="26311516" version="2" timestamp="2011-02-21T11:19:04Z" changeset="7352549" uid="162736" user="honzour">
    <nd ref="287026564"/>
    <nd ref="288253789"/>
    <nd ref="288253837"/>
    <nd ref="1164875702"/>
    <nd ref="1164875875"/>
    <tag k="highway" v="residential"/>
  </way>
  <way id="26311525" version="2" timestamp="2008-08-16T10:08:47Z" changeset="273749" uid="8007" user="vrabcak">
    <nd ref="288253958"/>
    <nd ref="288253953"/>
    <nd ref="288253959"/>
    <nd ref="288253979"/>
    <tag k="highway" v="residential"/>
    <tag k="name" v="Na Rymáni"/>
  </way>
  <way id="26311526" version="11" timestamp="2024-11-18T10:01:13Z" changeset="159275413" uid="6516034" user="gwselke">
    <nd ref="288253850"/>
    <nd ref="288253991"/>
    <nd ref="288253983"/>
    <nd ref="11816330558"/>
    <nd ref="11816123407"/>
    <nd ref="5590654646"/>
    <nd ref="288253990"/>
    <tag k="highway" v="residential"/>
    <tag k="lane_markings" v="no"/>
    <tag k="name" v="Ke Zděři"/>
    <tag k="parking:left" v="on_kerb"/>
    <tag k="parking:left:orientation" v="parallel"/>
    <tag k="parking:right" v="no"/>
    <tag k="surface" v="asphalt"/>
  </way>
  <way id="26311528" version="5" timestamp="2022-07-10T16:51:11Z" changeset="123439965" uid="8648934" user="MapManMap">
    <nd ref="288253959"/>
    <nd ref="288253991"/>
    <tag k="highway" v="residential"/>
    <tag k="lit" v="yes"/>
    <tag k="name" v="K Berounce"/>
    <tag k="sidewalk" v="both"/>
    <tag k="surface" v="paving_stones"/>
  </way>
  <way id="26311532" version="2" timestamp="2019-02-22T17:23:36Z" changeset="67473838" uid="665336" user="Minimalis">
    <nd ref="288253979"/>
    <nd ref="288253983"/>
    <tag k="highway" v="residential"/>
    <tag k="name" v="Stadiónová"/>
  </way>
  <way id="26323736" version="4" timestamp="2011-10-14T03:34:19Z" changeset="9552333" uid="528828" user="Ladar">
    <nd ref="31515466"/>
    <nd ref="1125742999"/>
    <tag k="highway" v="residential"/>
    <tag k="name" v="Věštínská"/>
  </way>
  <way id="26323741" version="16" timestamp="2024-04-14T07:18:42Z" changeset="149978876" uid="335143" user="Bogomil Shopov - Бого">
    <nd ref="288191334"/>
    <nd ref="11246248644"/>
    <nd ref="1400700636"/>
    <nd ref="288191335"/>
    <tag k="highway" v="residential"/>
    <tag k="lanes" v="2"/>
    <tag k="lit" v="no"/>
    <tag k="name" v="Loučanská"/>
    <tag k="parking:both" v="no"/>
    <tag k="sidewalk:left" v="separate"/>
    <tag k="sidewalk:right" v="yes"/>
    <tag k="surface" v="asphalt"/>
  </way>
  <way id="26323744" version="10" timestamp="2022-12-25T14:08:39Z" changeset="130481122" uid="10881771" user="Vokoun">
    <nd ref="288191339"/>
    <nd ref="1958324231"/>
    <nd ref="5066804985"/>
    <nd ref="1114544088"/>
    <nd ref="4504102669"/>
    <nd ref="4504102665"/>
    <nd ref="288191340"/>
    <tag k="highway" v="residential"/>
    <tag k="lanes" v="2"/>
    <tag k="name" v="K Lázním"/>
    <tag k="surface" v="asphalt"/>
  </way>
  <way id="27088752" version="5" timestamp="2025-01-28T20:16:23Z" changeset="161872262" uid="2061236" user="Thartek">
    <nd ref="297204352"/>
    <nd ref="12146108470"/>
    <nd ref="31515680"/>
    <tag k="highway" v="residential"/>
    <tag k="name" v="Nýřanská"/>
    <tag k="oneway" v="yes"/>
  </way>
  <way id="27088754" version="5" timestamp="2025-01-28T20:16:23Z" changeset="161872262" uid="2061236" user="Thartek">
    <nd ref="297204354"/>
    <nd ref="12146108471"/>
    <nd ref="297204355"/>
    <tag k="highway" v="residential"/>
    <tag k="name" v="Zbynická"/>
    <tag k="oneway" v="yes"/>
  </way>
  <way id="27088758" version="3" timestamp="2022-11-26T19:14:01Z" changeset="129412828" uid="6588887" user="Martin2035">
    <nd ref="288131968"/>
    <nd ref="81928442"/>
    <tag k="highway" v="residential"/>
    <tag k="incline" v="15%"/>
    <tag k="maxspeed" v="30"/>
    <tag k="maxspeed:type" v="CZ:zone30"/>
    <tag k="name" v="Štěrková"/>
    <tag k="oneway" v="yes"/>
    <tag k="zone:maxspeed" v="30"/>
  </way>
  <way id="27088760" version="3" timestamp="2022-11-26T19:14:01Z" changeset="129412828" uid="6588887" user="Martin2035">
    <nd ref="81928442"/>
    <nd ref="81928444"/>
    <nd ref="81928446"/>
    <tag k="highway" v="residential"/>
    <tag k="maxspeed" v="30"/>
    <tag k="maxspeed:type" v="CZ:zone30"/>
    <tag k="name" v="Štěrková"/>
    <tag k="zone:maxspeed" v="30"/>
  </way>
  <way id="27547085" version="10" timestamp="2021-05-24T15:48:30Z" changeset="105237708" uid="6588887" user="Martin2035">
    <nd ref="302397150"/>
    <nd ref="25697630"/>
    <nd ref="1285287220"/>
    <nd ref="1565245202"/>
    <nd ref="277483530"/>
    <nd ref="1166952743"/>
    <nd ref="25697631"/>
    <nd ref="899415206"/>
    <tag k="cycleway:right" v="lane"/>
    <tag k="highway" v="secondary"/>
    <tag k="lanes" v="2"/>
    <tag k="maxspeed" v="50"/>
    <tag k="name" v="Výpadová"/>
    <tag k="ref" v="101;115"/>
    <tag k="source:maxspeed" v="sign"/>
    <tag k="surface" v="asphalt"/>
  </way>
  <way id="27547088" version="7" timestamp="2021-09-19T20:58:44Z" changeset="111424384" uid="748291" user="Prot D">
    <nd ref="302397246"/>
    <nd ref="302397247"/>
    <nd ref="8663127232"/>
    <nd ref="302397248"/>
    <tag k="bicycle" v="yes"/>
    <tag k="highway" v="residential"/>
    <tag k="name" v="Šárovo kolo"/>
    <tag k="smoothness" v="excellent"/>
    <tag k="surface" v="asphalt"/>
  </way>
  <way id="27547090" version="6" timestamp="2020-10-03T20:21:27Z" changeset="91913982" uid="6588887" user="Martin2035">
    <nd ref="302397267"/>
    <nd ref="7970305221"/>
    <nd ref="7970305218"/>
    <nd ref="7970305223"/>
    <nd ref="7970305230"/>
    <nd ref="6403995218"/>
    <nd ref="1899412089"/>
    <tag k="highway" v="residential"/>
    <tag k="name" v="Šárovo kolo"/>
  </way>
  <way id="27590127" version="13" timestamp="2024-04-14T07:43:37Z" changeset="149978809" uid="335143" user="Bogomil Shopov - Бого">
    <nd ref="31515706"/>
    <nd ref="861199423"/>
    <nd ref="7970305187"/>
    <tag k="foot" v="yes"/>
    <tag k="highway" v="residential"/>
    <tag k="lane_markings" v="no"/>
    <tag k="name" v="náměstí Sv. Petra a Pavla"/>
    <tag k="sidewalk" v="left"/>
    <tag k="surface" v="sett"/>
  </way>
  <way id="31171233" version="3" timestamp="2023-11-04T14:22:14Z" changeset="143615040" uid="1744853" user="amunak">
    <nd ref="346909370"/>
    <nd ref="26709219"/>
    <nd ref="847177251"/>
    <nd ref="243260950"/>
    <tag k="highway" v="residential"/>
    <tag k="name" v="Ledvická"/>
    <tag k="surface" v="asphalt"/>
  </way>
  <way id="31171472" version="3" timestamp="2022-11-26T19:14:01Z" changeset="129412828" uid="6588887" user="Martin2035">
    <nd ref="81928428"/>
    <nd ref="81928431"/>
    <nd ref="81928434"/>
    <nd ref="81928437"/>
    <nd ref="9949193399"/>
    <nd ref="81928440"/>
    <nd ref="81928442"/>
    <tag k="highway" v="residential"/>
    <tag k="maxspeed" v="30"/>
    <tag k="maxspeed:type" v="CZ:zone30"/>
    <tag k="name" v="Ametystová"/>
    <tag k="zone:maxspeed" v="30"/>
  </way>
  <way id="31171474" version="4" timestamp="2022-11-26T19:14:01Z" changeset="129412828" uid="6588887" user="Martin2035">
    <nd ref="81928446"/>
    <nd ref="3930001137"/>
    <nd ref="81928448"/>
    <nd ref="81928451"/>
    <nd ref="81928453"/>
    <nd ref="3930001139"/>
    <nd ref="81928456"/>
    <nd ref="81928460"/>
    <nd ref="3930001141"/>
    <nd ref="81928324"/>
    <tag k="access" v="destination"/>
    <tag k="highway" v="residential"/>
    <tag k="incline" v="18%"/>
    <tag k="maxspeed" v="30"/>
    <tag k="maxspeed:type" v="CZ:zone30"/>
    <tag k="name" v="Štěrková"/>
    <tag k="zone:maxspeed" v="30"/>
  </way>
  <way id="31171477" version="1" timestamp="2009-02-17T18:33:00Z" changeset="510012" uid="8007" user="vrabcak">
    <nd ref="81928263"/>
    <nd ref="81932074"/>
    <tag k="created_by" v="JOSM"/>
    <tag k="highway" v="residential"/>
    <tag k="name" v="U Sanatoria"/>
  </way>
  <way id="31171479" version="5" timestamp="2020-08-04T07:37:52Z" changeset="88913147" uid="8976801" user="majkaz_imports">
    <nd ref="2223524833"/>
    <nd ref="1188924571"/>
    <nd ref="1188924562"/>
    <nd ref="1188924575"/>
    <nd ref="1188924565"/>
    <tag k="highway" v="residential"/>
    <tag k="name" v="Kalabisova"/>
  </way>
  <way id="32942193" version="15" timestamp="2023-06-09T18:22:44Z" changeset="137148885" uid="10881771" user="Vokoun">
    <nd ref="25697587"/>
    <nd ref="10758282740"/>
    <nd ref="25697588"/>
    <nd ref="1167379038"/>
    <nd ref="25697589"/>
    <nd ref="10162736941"/>
    <nd ref="25697590"/>
    <nd ref="1167379017"/>
    <nd ref="1167378991"/>
    <nd ref="25697591"/>
    <nd ref="1167379018"/>
    <nd ref="7316216204"/>
    <nd ref="1167379086"/>
    <nd ref="1128025577"/>
    <nd ref="25697592"/>
    <tag k="highway" v="secondary"/>
    <tag k="lanes" v="2"/>
    <tag k="maxspeed:type" v="CZ:urban"/>
    <tag k="maxweight" v="12"/>
    <tag k="name" v="K Cementárně"/>
    <tag k="ref" v="599"/>
    <tag k="surface" v="asphalt"/>
  </way>
  <way id="32942194" version="6" timestamp="2023-06-09T18:22:46Z" changeset="137148874" uid="10881771" user="Vokoun">
    <nd ref="243273210"/>
    <nd ref="761843607"/>
    <tag k="bridge" v="yes"/>
    <tag k="highway" v="secondary"/>
    <tag k="layer" v="1"/>
    <tag k="name" v="K Cementárně"/>
    <tag k="ref" v="599"/>
    <tag k="surface" v="asphalt"/>
  </way>
  <way id="32942196" version="1" timestamp="2009-04-08T23:14:14Z" changeset="343869" uid="17615" user="Petr Dlouhý">
    <nd ref="370947574"/>
    <nd ref="370947575"/>
    <tag k="highway" v="residential"/>
    <tag k="name" v="Hadravská"/>
    <tag k="source" v="cuzk:km"/>
  </way>
  <way id="32942197" version="1" timestamp="2009-04-08T23:14:14Z" changeset="343869" uid="17615" user="Petr Dlouhý">
    <nd ref="370947576"/>
    <nd ref="370947578"/>
    <nd ref="370947575"/>
    <tag k="highway" v="residential"/>
    <tag k="name" v="Hadravská"/>
    <tag k="source" v="cuzk:km"/>
  </way>
  <way id="32942198" version="3" timestamp="2017-10-19T12:41:20Z" changeset="53067685" uid="100163" user="Hlav">
    <nd ref="370947575"/>
    <nd ref="370947579"/>
    <nd ref="370947581"/>
    <nd ref="1128025537"/>
    <nd ref="25697605"/>
    <tag k="highway" v="residential"/>
    <tag k="lit" v="yes"/>
    <tag k="name" v="Hadravská"/>
    <tag k="source" v="cuzk:km"/>
  </way>
  <way id="32942199" version="7" timestamp="2024-12-28T15:44:16Z" changeset="160719064" uid="1189910" user="Milancer">
    <nd ref="1950705410"/>
    <nd ref="370947582"/>
    <nd ref="9532251553"/>
    <nd ref="370947583"/>
    <nd ref="12459100696"/>
    <nd ref="370947584"/>
    <nd ref="11698999751"/>
    <nd ref="370947585"/>
    <tag k="highway" v="residential"/>
    <tag k="name" v="Pod Velkým Hájem"/>
  </way>
  <way id="33776232" version="8" timestamp="2025-01-30T11:46:44Z" changeset="161934107" uid="17639962" user="detective-fiasco">
    <nd ref="25697614"/>
    <nd ref="1142894917"/>
    <nd ref="11201742128"/>
    <tag k="highway" v="residential"/>
    <tag k="name" v="K Přívozu"/>
    <tag k="parking:left" v="no"/>
    <tag k="parking:right" v="lane"/>
    <tag k="parking:right:orientation" v="parallel"/>
    <tag k="source" v="cuzk:km;uhul:ortofoto"/>
    <tag k="surface" v="paving_stones"/>
  </way>
  <way id="33776233" version="3" timestamp="2011-08-16T07:34:17Z" changeset="9034017" uid="17615" user="Petr Dlouhý">
    <nd ref="31515495"/>
    <nd ref="386722230"/>
    <tag k="highway" v="residential"/>
    <tag k="name" v="V Parníku"/>
    <tag k="oneway" v="yes"/>
    <tag k="source" v="cuzk:km;uhul:ortofoto"/>
  </way>
  <way id="33776234" version="5" timestamp="2014-02-19T12:23:31Z" changeset="20655168" uid="17615" user="Petr Dlouhý">
    <nd ref="386722234"/>
    <nd ref="2679527661"/>
    <nd ref="386722232"/>
    <tag k="highway" v="residential"/>
    <tag k="name" v="Na Benátkách"/>
    <tag k="oneway" v="yes"/>
    <tag k="source" v="cuzk:km;uhul:ortofoto"/>
  </way>
  <way id="33776467" version="6" timestamp="2023-02-21T08:03:27Z" changeset="132822705" uid="1189910" user="Milancer">
    <nd ref="386727143"/>
    <nd ref="386727144"/>
    <nd ref="386727145"/>
    <nd ref="386727199"/>
    <nd ref="4512524496"/>
    <nd ref="10682573625"/>
    <nd ref="386727146"/>
    <tag k="bicycle" v="yes"/>
    <tag k="foot" v="yes"/>
    <tag k="highway" v="unclassified"/>
    <tag k="motorcar" v="private"/>
    <tag k="source" v="cuzk:km;uhul:ortofoto"/>
  </way>
  <way id="33776469" version="6" timestamp="2021-03-25T20:42:53Z" changeset="101744253" uid="1189910" user="Milancer">
    <nd ref="288253959"/>
    <nd ref="386727172"/>
    <nd ref="386727196"/>
    <nd ref="1778001975"/>
    <tag k="highway" v="unclassified"/>
    <tag k="name" v="K Berounce"/>
    <tag k="source" v="cuzk:km;uhul:ortofoto"/>
  </way>
  <way id="33776470" version="3" timestamp="2022-12-29T08:31:18Z" changeset="130632629" uid="10881771" user="Vokoun">
    <nd ref="386727180"/>
    <nd ref="386727184"/>
    <nd ref="386727185"/>
    <nd ref="386727186"/>
    <nd ref="386727187"/>
    <nd ref="386727188"/>
    <nd ref="386727189"/>
    <nd ref="386727190"/>
    <nd ref="1285287086"/>
    <tag k="highway" v="unclassified"/>
    <tag k="sidewalk" v="no"/>
    <tag k="source" v="cuzk:km;uhul:ortofoto"/>
  </way>
  <way id="33776472" version="2" timestamp="2023-06-12T06:50:07Z" changeset="137229978" uid="231749" user="Eino81">
    <nd ref="386727196"/>
    <nd ref="386727197"/>
    <nd ref="10970277029"/>
    <tag k="highway" v="unclassified"/>
    <tag k="source" v="cuzk:km;uhul:ortofoto"/>
  </way>
  <way id="34420693" version="5" timestamp="2023-11-02T23:20:13Z" changeset="143552232" uid="9451067" user="b-jazz-bot">
    <nd ref="395446913"/>
    <nd ref="2504343475"/>
    <nd ref="395446917"/>
    <nd ref="395446920"/>
    <nd ref="395446924"/>
    <nd ref="395446913"/>
    <tag k="building" v="yes"/>
    <tag k="email" v="info@kart-centrum.cz"/>
    <tag k="name" v="Kart Centrum"/>
    <tag k="opening_hours" v="10:00-24:00"/>
    <tag k="operator" v="Exces Super Bike Club v AČR, o. s."/>
    <tag k="phone" v="+420 774 002 001"/>
    <tag k="sport" v="karting"/>
    <tag k="website" v="https://www.kart-centrum.cz/"/>
  </way>
  <way id="39364494" version="14" timestamp="2023-10-07T17:08:20Z" changeset="142277573" uid="1189910" user="Milancer">
    <nd ref="30006604"/>
    <nd ref="3351934245"/>
    <nd ref="9650772709"/>
    <nd ref="761842882"/>
    <nd ref="9650787256"/>
    <nd ref="761842890"/>
    <nd ref="11246248663"/>
    <nd ref="761842889"/>
    <nd ref="11246248664"/>
    <nd ref="761842902"/>
    <tag k="highway" v="secondary"/>
    <tag k="lanes" v="2"/>
    <tag k="lit" v="yes"/>
    <tag k="maxspeed" v="50"/>
    <tag k="name" v="Výpadová"/>
    <tag k="ref" v="101;115"/>
    <tag k="source:maxspeed" v="sign"/>
    <tag k="surface" v="asphalt"/>
  </way>
  <way id="39364495" version="12" timestamp="2024-12-28T15:44:16Z" changeset="160719064" uid="1189910" user="Milancer">
    <nd ref="30006605"/>
    <nd ref="12459100673"/>
    <nd ref="1140244170"/>
    <nd ref="12459100674"/>
    <nd ref="9660362191"/>
    <nd ref="10707568519"/>
    <nd ref="1141592334"/>
    <nd ref="12459100675"/>
    <nd ref="30006606"/>
    <tag k="highway" v="tertiary"/>
    <tag k="lanes" v="2"/>
    <tag k="maxheight" v="default"/>
    <tag k="name" v="Vrážská"/>
    <tag k="surface" v="asphalt"/>
  </way>
  <way id="39871833" version="38" timestamp="2025-04-16T07:41:45Z" changeset="165014963" uid="8971394" user="vojtechzaboril">
    <nd ref="248763236"/>
    <nd ref="1027276826"/>
    <nd ref="6989707870"/>
    <nd ref="478231554"/>
    <nd ref="478231555"/>
    <nd ref="12338030973"/>
    <nd ref="12338030972"/>
    <nd ref="12338030971"/>
    <nd ref="1829493853"/>
    <nd ref="12338030970"/>
    <nd ref="12338030969"/>
    <nd ref="1829493864"/>
    <nd ref="12338030961"/>
    <nd ref="12338030960"/>
    <nd ref="12338030959"/>
    <nd ref="12338030958"/>
    <nd ref="1829493852"/>
    <nd ref="12338030957"/>
    <nd ref="12338030956"/>
    <nd ref="12338030955"/>
    <nd ref="1829493851"/>
    <nd ref="1829493850"/>
    <nd ref="12338030983"/>
    <nd ref="12338030982"/>
    <nd ref="12338030981"/>
    <nd ref="12338030980"/>
    <nd ref="1829493848"/>
    <nd ref="12338030979"/>
    <nd ref="12338030978"/>
    <nd ref="12338030977"/>
    <nd ref="12338030976"/>
    <nd ref="12338030975"/>
    <nd ref="8399261953"/>
    <nd ref="12338030986"/>
    <nd ref="12338030985"/>
    <nd ref="1829493844"/>
    <nd ref="12338030984"/>
    <nd ref="12338030987"/>
    <nd ref="1829493839"/>
    <nd ref="6989771185"/>
    <nd ref="1188878101"/>
    <tag k="alt_name" v="tunel Lochkov"/>
    <tag k="highway" v="motorway"/>
    <tag k="int_ref" v="E 50"/>
    <tag k="lanes" v="2"/>
    <tag k="layer" v="-1"/>
    <tag k="lit" v="yes"/>
    <tag k="maxheight" v="4.5"/>
    <tag k="maxspeed" v="80"/>
    <tag k="maxspeed:variable" v="obstruction"/>
    <tag k="name" v="Lochkovský tunel"/>
    <tag k="name:de" v="Lochkower Tunnel"/>
    <tag k="name:en" v="Lochkov Tunnel"/>
    <tag k="old_name" v="Lahovický tunel"/>
    <tag k="old_name:de" v="Lahowitzer Tunnel"/>
    <tag k="old_name:en" v="Lahovice Tunnel"/>
    <tag k="oneway" v="yes"/>
    <tag k="ref" v="D0"/>
    <tag k="smoothness" v="excellent"/>
    <tag k="source:maxspeed" v="sign"/>
    <tag k="start_date" v="2010"/>
    <tag k="surface" v="asphalt"/>
    <tag k="toll" v="yes"/>
    <tag k="tunnel" v="yes"/>
    <tag k="wikidata" v="Q12033775"/>
    <tag k="wikipedia" v="cs:Lochkovský tunel"/>
  </way>
  <way id="40029816" version="40" timestamp="2023-01-25T10:39:52Z" changeset="131688986" uid="2061236" user="Thartek">
    <nd ref="250835613"/>
    <nd ref="3351934260"/>
    <nd ref="481304323"/>
    <nd ref="3351934255"/>
    <nd ref="1820703806"/>
    <nd ref="1027277519"/>
    <nd ref="1456850630"/>
    <nd ref="3351934247"/>
    <nd ref="1820703844"/>
    <nd ref="3351934244"/>
    <nd ref="481304302"/>
    <nd ref="6045854229"/>
    <nd ref="481304289"/>
    <nd ref="6045854228"/>
    <nd ref="1829493831"/>
    <nd ref="6045854226"/>
    <nd ref="481304285"/>
    <nd ref="6045854225"/>
    <nd ref="481304278"/>
    <nd ref="5868412480"/>
    <nd ref="6045854224"/>
    <nd ref="9176955050"/>
    <tag k="bridge" v="yes"/>
    <tag k="bridge:structure" v="beam"/>
    <tag k="highway" v="motorway"/>
    <tag k="int_ref" v="E 50"/>
    <tag k="lanes" v="2"/>
    <tag k="layer" v="2"/>
    <tag k="maxspeed" v="100"/>
    <tag k="maxspeed:variable" v="obstruction"/>
    <tag k="name" v="Pražský okruh"/>
    <tag k="name:de" v="Prager Ring"/>
    <tag k="name:en" v="Prague Ring"/>
    <tag k="oneway" v="yes"/>
    <tag k="ref" v="D0"/>
    <tag k="source:maxspeed" v="sign"/>
    <tag k="surface" v="asphalt"/>
    <tag k="toll" v="yes"/>
  </way>
  <way id="40437157" version="1" timestamp="2009-09-08T14:50:27Z" changeset="2414304" uid="17615" user="Petr Dlouhý">
    <nd ref="297204357"/>
    <nd ref="489587155"/>
    <nd ref="489587156"/>
    <nd ref="489587157"/>
    <nd ref="386722230"/>
    <tag k="highway" v="residential"/>
    <tag k="source" v="cuzk:km;uhul:ortofoto"/>
  </way>
  <way id="40437159" version="2" timestamp="2012-07-30T09:28:37Z" changeset="12545339" uid="527259" user="Vratislav Filler">
    <nd ref="386722230"/>
    <nd ref="386722234"/>
    <tag k="highway" v="residential"/>
    <tag k="name" v="Výpadová"/>
    <tag k="source" v="cuzk:km;uhul:ortofoto"/>
  </way>
  <way id="40437160" version="2" timestamp="2012-07-30T09:28:37Z" changeset="12545339" uid="527259" user="Vratislav Filler">
    <nd ref="489587160"/>
    <nd ref="489587158"/>
    <nd ref="489587159"/>
    <tag k="highway" v="residential"/>
    <tag k="name" v="Výpadová"/>
    <tag k="source" v="cuzk:km;uhul:ortofoto"/>
  </way>
  <way id="40437161" version="2" timestamp="2012-07-30T09:28:37Z" changeset="12545339" uid="527259" user="Vratislav Filler">
    <nd ref="386722234"/>
    <nd ref="489587160"/>
    <tag k="highway" v="residential"/>
    <tag k="name" v="Výpadová"/>
    <tag k="source" v="cuzk:km;uhul:ortofoto"/>
  </way>
  <way id="40437162" version="1" timestamp="2009-09-08T14:50:29Z" changeset="2414304" uid="17615" user="Petr Dlouhý">
    <nd ref="386722232"/>
    <nd ref="31515495"/>
    <tag k="highway" v="residential"/>
    <tag k="name" v="Věštínská"/>
  </way>
  <way id="40987000" version="11" timestamp="2023-06-09T18:22:45Z" changeset="137148862" uid="10881771" user="Vokoun">
    <nd ref="1167379002"/>
    <nd ref="25697594"/>
    <nd ref="1167388190"/>
    <nd ref="1128025563"/>
    <nd ref="25697595"/>
    <tag k="highway" v="secondary"/>
    <tag k="maxspeed:type" v="CZ:urban"/>
    <tag k="name" v="K Cementárně"/>
    <tag k="surface" v="asphalt"/>
  </way>
  <way id="40987002" version="12" timestamp="2022-12-25T14:06:04Z" changeset="130481207" uid="10881771" user="Vokoun">
    <nd ref="9167570420"/>
    <nd ref="60270953"/>
    <nd ref="26709381"/>
    <nd ref="1167388136"/>
    <nd ref="26709365"/>
    <nd ref="6945279137"/>
    <nd ref="26709360"/>
    <nd ref="6945279138"/>
    <nd ref="26709355"/>
    <nd ref="6945279139"/>
    <nd ref="6945279140"/>
    <nd ref="26709345"/>
    <nd ref="6945279141"/>
    <nd ref="26709330"/>
    <nd ref="1167388132"/>
    <nd ref="6945279142"/>
    <nd ref="6945279143"/>
    <nd ref="26709329"/>
    <nd ref="975028201"/>
    <nd ref="6945279144"/>
    <nd ref="26709328"/>
    <nd ref="26709320"/>
    <nd ref="26709306"/>
    <tag k="cycleway:both" v="no"/>
    <tag k="highway" v="tertiary"/>
    <tag k="lane_markings" v="no"/>
    <tag k="name" v="Na Cikánce"/>
    <tag k="surface" v="asphalt"/>
  </way>
  <way id="40987004" version="8" timestamp="2023-06-09T18:22:47Z" changeset="137148862" uid="10881771" user="Vokoun">
    <nd ref="9000791890"/>
    <nd ref="1167388089"/>
    <nd ref="60270969"/>
    <nd ref="1167388058"/>
    <nd ref="60270968"/>
    <nd ref="1167388203"/>
    <nd ref="60270967"/>
    <nd ref="1828873275"/>
    <nd ref="1167388167"/>
    <nd ref="60270956"/>
    <nd ref="1828873274"/>
    <nd ref="60270955"/>
    <nd ref="1167388187"/>
    <tag k="highway" v="tertiary"/>
    <tag k="lane_markings" v="no"/>
    <tag k="maxspeed:type" v="CZ:urban"/>
    <tag k="name" v="Na Cikánce"/>
    <tag k="surface" v="asphalt"/>
  </way>
  <way id="46892978" version="8" timestamp="2022-01-02T19:42:08Z" changeset="115683455" uid="1189910" user="Milancer">
    <nd ref="81937014"/>
    <nd ref="836725258"/>
    <nd ref="1828855175"/>
    <nd ref="9356120481"/>
    <tag k="highway" v="residential"/>
    <tag k="name" v="Na Výšince"/>
    <tag k="source" v="cuzk:km;uhul:ortofoto"/>
  </way>
  <way id="46893365" version="6" timestamp="2019-07-27T17:05:42Z" changeset="72721070" uid="665336" user="Minimalis">
    <nd ref="598676893"/>
    <nd ref="598676887"/>
    <nd ref="598676890"/>
    <nd ref="598676882"/>
    <nd ref="6653396243"/>
    <nd ref="6653396242"/>
    <nd ref="598676883"/>
    <nd ref="6653396241"/>
    <nd ref="598676884"/>
    <nd ref="598676888"/>
    <nd ref="1167614877"/>
    <nd ref="60271248"/>
    <tag k="highway" v="residential"/>
    <tag k="name" v="Kolová"/>
    <tag k="source" v="cuzk:km;uhul:ortofoto"/>
  </way>
  <way id="46893366" version="5" timestamp="2022-02-24T11:54:08Z" changeset="117809097" uid="1641564" user="Jakuje">
    <nd ref="598676908"/>
    <nd ref="598676909"/>
    <nd ref="598676910"/>
    <nd ref="6653396240"/>
    <nd ref="6653396239"/>
    <nd ref="598676899"/>
    <nd ref="1209144923"/>
    <nd ref="1209144995"/>
    <nd ref="598676880"/>
    <nd ref="9532251318"/>
    <nd ref="598676857"/>
    <tag k="highway" v="residential"/>
    <tag k="name" v="Dehtínská"/>
    <tag k="source" v="cuzk:km;uhul:ortofoto"/>
  </way>
  <way id="46893367" version="8" timestamp="2021-12-21T16:58:16Z" changeset="115218410" uid="13633789" user="tter">
    <nd ref="598676857"/>
    <nd ref="598676875"/>
    <nd ref="598676876"/>
    <nd ref="598676877"/>
    <nd ref="598676878"/>
    <nd ref="9356117639"/>
    <nd ref="1209144935"/>
    <nd ref="598676881"/>
    <nd ref="6653396238"/>
    <nd ref="6653396237"/>
    <nd ref="598676891"/>
    <nd ref="6653396236"/>
    <nd ref="6653396235"/>
    <nd ref="598676905"/>
    <nd ref="6653396234"/>
    <nd ref="598676906"/>
    <nd ref="6653396233"/>
    <nd ref="598676907"/>
    <nd ref="598676893"/>
    <tag k="highway" v="residential"/>
    <tag k="name" v="Na Viničkách"/>
    <tag k="source" v="cuzk:km;uhul:ortofoto"/>
  </way>
  <way id="46893368" version="5" timestamp="2012-09-26T09:14:37Z" changeset="13256761" uid="364739" user="j123b567">
    <nd ref="598676874"/>
    <nd ref="598676896"/>
    <nd ref="1143338572"/>
    <nd ref="598676897"/>
    <nd ref="598676900"/>
    <nd ref="598676901"/>
    <nd ref="598676902"/>
    <nd ref="1143340749"/>
    <nd ref="598676903"/>
    <tag k="highway" v="residential"/>
    <tag k="name" v="Zdická"/>
  </way>
  <way id="46893369" version="3" timestamp="2012-09-26T09:14:37Z" changeset="13256761" uid="364739" user="j123b567">
    <nd ref="598676871"/>
    <nd ref="1209144969"/>
    <nd ref="598676872"/>
    <tag k="highway" v="residential"/>
    <tag k="name" v="Zdická"/>
    <tag k="source" v="cuzk:km;uhul:ortofoto"/>
  </way>
  <way id="46893370" version="4" timestamp="2023-01-04T12:23:29Z" changeset="130864823" uid="15662873" user="maspav">
    <nd ref="598676874"/>
    <nd ref="10304636708"/>
    <nd ref="598676872"/>
    <nd ref="10304642911"/>
    <nd ref="598676873"/>
    <tag k="highway" v="residential"/>
    <tag k="name" v="Vojetická"/>
    <tag k="source" v="cuzk:km;uhul:ortofoto"/>
  </way>
  <way id="46893371" version="3" timestamp="2012-09-26T09:14:37Z" changeset="13256761" uid="364739" user="j123b567">
    <nd ref="598676858"/>
    <nd ref="598676865"/>
    <nd ref="598676870"/>
    <nd ref="598676871"/>
    <tag k="highway" v="residential"/>
    <tag k="name" v="Zdická"/>
    <tag k="source" v="cuzk:km;uhul:ortofoto"/>
  </way>
  <way id="46893373" version="3" timestamp="2019-02-22T17:23:36Z" changeset="67473838" uid="665336" user="Minimalis">
    <nd ref="598676890"/>
    <nd ref="598676892"/>
    <nd ref="598676881"/>
    <tag k="highway" v="residential"/>
    <tag k="name" v="Příbramská"/>
    <tag k="source" v="cuzk:km;uhul:ortofoto"/>
  </way>
  <way id="46893374" version="6" timestamp="2020-08-04T07:37:57Z" changeset="88913147" uid="8976801" user="majkaz_imports">
    <nd ref="1143340752"/>
    <nd ref="1143340773"/>
    <nd ref="1143340742"/>
    <nd ref="598676886"/>
    <nd ref="598676892"/>
    <tag k="highway" v="residential"/>
    <tag k="name" v="Lošetická"/>
    <tag k="source" v="cuzk:km;uhul:ortofoto"/>
  </way>
  <way id="46893376" version="3" timestamp="2024-10-06T09:51:16Z" changeset="157531491" uid="1457631" user="MC79">
    <nd ref="598676923"/>
    <nd ref="598676924"/>
    <nd ref="598676925"/>
    <nd ref="598676916"/>
    <nd ref="598676911"/>
    <tag k="highway" v="residential"/>
    <tag k="name" v="Sídliště"/>
    <tag k="source" v="cuzk:km;uhul:ortofoto"/>
    <tag k="surface" v="asphalt"/>
  </way>
  <way id="46893377" version="7" timestamp="2024-10-06T09:51:12Z" changeset="157531491" uid="1457631" user="MC79">
    <nd ref="598676912"/>
    <nd ref="10304636707"/>
    <nd ref="10304636704"/>
    <nd ref="1126324502"/>
    <nd ref="9356120359"/>
    <nd ref="598676919"/>
    <nd ref="598676920"/>
    <nd ref="598676921"/>
    <tag k="highway" v="residential"/>
    <tag k="name" v="Sídliště"/>
    <tag k="source" v="cuzk:km;uhul:ortofoto"/>
    <tag k="surface" v="asphalt"/>
  </way>
  <way id="46893378" version="4" timestamp="2021-12-21T16:58:16Z" changeset="115218410" uid="13633789" user="tter">
    <nd ref="598676918"/>
    <nd ref="1143338575"/>
    <nd ref="598676908"/>
    <nd ref="9356117695"/>
    <nd ref="598676904"/>
    <tag k="highway" v="residential"/>
    <tag k="name" v="Kolová"/>
    <tag k="source" v="cuzk:km;uhul:ortofoto"/>
  </way>
  <way id="46893379" version="7" timestamp="2021-12-21T16:58:16Z" changeset="115218410" uid="13633789" user="tter">
    <nd ref="598676912"/>
    <nd ref="1143340743"/>
    <nd ref="598676911"/>
    <nd ref="1158444745"/>
    <nd ref="9356120386"/>
    <nd ref="598676917"/>
    <nd ref="598676915"/>
    <tag k="highway" v="residential"/>
    <tag k="name" v="Týřovická"/>
    <tag k="source" v="cuzk:km;uhul:ortofoto"/>
  </way>
  <way id="46893380" version="6" timestamp="2024-10-06T16:49:18Z" changeset="157549423" uid="1457631" user="MC79">
    <nd ref="288254074"/>
    <nd ref="12230014397"/>
    <nd ref="12230014398"/>
    <nd ref="598676931"/>
    <nd ref="12230014396"/>
    <nd ref="1126324478"/>
    <nd ref="12230014393"/>
    <nd ref="12230014394"/>
    <nd ref="598676932"/>
    <nd ref="12230014395"/>
    <nd ref="12229177038"/>
    <nd ref="598676933"/>
    <tag k="highway" v="residential"/>
    <tag k="name" v="U Starého stadiónu"/>
    <tag k="source" v="cuzk:km;uhul:ortofoto"/>
  </way>
  <way id="46893381" version="10" timestamp="2024-10-06T16:49:18Z" changeset="157549423" uid="1457631" user="MC79">
    <nd ref="598676930"/>
    <nd ref="1126324495"/>
    <nd ref="598676928"/>
    <nd ref="598676929"/>
    <nd ref="1126324496"/>
    <nd ref="1236492852"/>
    <nd ref="598676926"/>
    <nd ref="598676927"/>
    <nd ref="1126324571"/>
    <nd ref="1126324459"/>
    <nd ref="9356120371"/>
    <nd ref="598676923"/>
    <tag k="highway" v="residential"/>
    <tag k="name" v="Sídliště"/>
    <tag k="source" v="cuzk:km;uhul:ortofoto"/>
    <tag k="surface" v="asphalt"/>
  </way>
  <way id="48102752" version="5" timestamp="2025-01-30T11:46:44Z" changeset="161934107" uid="17639962" user="detective-fiasco">
    <nd ref="386722223"/>
    <nd ref="1143336350"/>
    <nd ref="1143336242"/>
    <nd ref="12539822198"/>
    <nd ref="386722222"/>
    <nd ref="12539822197"/>
    <nd ref="12539855003"/>
    <nd ref="12543554880"/>
    <tag k="highway" v="residential"/>
    <tag k="name" v="Tachovská"/>
  </way>
  <way id="48102754" version="2" timestamp="2025-01-28T20:16:23Z" changeset="161872262" uid="2061236" user="Thartek">
    <nd ref="297204355"/>
    <nd ref="297204352"/>
    <tag k="highway" v="residential"/>
    <tag k="name" v="Tachovská"/>
    <tag k="oneway" v="yes"/>
  </way>
  <way id="60857667" version="3" timestamp="2017-06-22T21:23:45Z" changeset="49757410" uid="255936" user="NyanSten">
    <nd ref="831021592"/>
    <nd ref="81937012"/>
    <nd ref="836725241"/>
    <tag k="highway" v="residential"/>
    <tag k="name" v="náměstí Osvoboditelů"/>
    <tag k="sorting_name" v="Osvoboditelů"/>
  </way>
  <way id="60857676" version="6" timestamp="2017-10-19T12:41:20Z" changeset="53067685" uid="100163" user="Hlav">
    <nd ref="346909395"/>
    <nd ref="25697605"/>
    <tag k="highway" v="secondary"/>
    <tag k="lit" v="yes"/>
    <tag k="name" v="Pod Klapicí"/>
    <tag k="ref" v="599"/>
  </way>
  <way id="60857677" version="5" timestamp="2022-03-05T17:03:35Z" changeset="118133873" uid="1189910" user="Milancer">
    <nd ref="761842890"/>
    <nd ref="761842886"/>
    <nd ref="761842898"/>
    <nd ref="761842895"/>
    <nd ref="2223524712"/>
    <nd ref="761842899"/>
    <nd ref="9556354050"/>
    <nd ref="761842884"/>
    <nd ref="761842908"/>
    <tag k="highway" v="residential"/>
    <tag k="source" v="uhul:ortofoto"/>
  </way>
  <way id="60857678" version="4" timestamp="2023-06-09T18:22:56Z" changeset="137148874" uid="10881771" user="Vokoun">
    <nd ref="346909394"/>
    <nd ref="346909395"/>
    <tag k="bridge" v="yes"/>
    <tag k="highway" v="secondary"/>
    <tag k="layer" v="1"/>
    <tag k="lit" v="yes"/>
    <tag k="name" v="K Cementárně"/>
    <tag k="ref" v="599"/>
    <tag k="surface" v="asphalt"/>
  </way>
  <way id="60857679" version="4" timestamp="2024-03-07T13:44:46Z" changeset="148342721" uid="9291527" user="marekhrabe">
    <nd ref="81928340"/>
    <nd ref="8567727921"/>
    <tag k="highway" v="residential"/>
    <tag k="name" v="Jaspisová"/>
    <tag k="surface" v="paving_stones"/>
  </way>
  <way id="60857769" version="3" timestamp="2021-09-16T06:36:50Z" changeset="111272635" uid="582893" user="zorancz">
    <nd ref="761843608"/>
    <nd ref="761843606"/>
    <tag k="bridge" v="yes"/>
    <tag k="hgv" v="no"/>
    <tag k="highway" v="residential"/>
    <tag k="layer" v="1"/>
    <tag k="name" v="Prvomájová"/>
    <tag k="surface" v="asphalt"/>
  </way>
  <way id="60857770" version="14" timestamp="2022-09-07T18:28:04Z" changeset="125913317" uid="1189910" user="Milancer">
    <nd ref="761843607"/>
    <nd ref="26709205"/>
    <tag k="highway" v="secondary"/>
    <tag k="lit" v="yes"/>
    <tag k="name" v="K Cementárně"/>
    <tag k="ref" v="599"/>
  </way>
  <way id="60857773" version="2" timestamp="2021-09-16T06:36:23Z" changeset="111272635" uid="582893" user="zorancz">
    <nd ref="761843606"/>
    <nd ref="30006610"/>
    <tag k="highway" v="residential"/>
    <tag k="name" v="Prvomájová"/>
    <tag k="surface" v="asphalt"/>
  </way>
  <way id="69304798" version="16" timestamp="2024-10-06T16:49:18Z" changeset="157549423" uid="1457631" user="MC79">
    <nd ref="243273214"/>
    <nd ref="60271268"/>
    <nd ref="12230014512"/>
    <nd ref="12230014546"/>
    <nd ref="60271269"/>
    <nd ref="9356120452"/>
    <nd ref="60271270"/>
    <nd ref="9918994418"/>
    <nd ref="598676936"/>
    <nd ref="60271271"/>
    <nd ref="598670837"/>
    <nd ref="1685265787"/>
    <tag k="highway" v="secondary"/>
    <tag k="lanes" v="2"/>
    <tag k="name" v="Karlická"/>
    <tag k="ref" v="101;115"/>
    <tag k="surface" v="asphalt"/>
  </way>
  <way id="69304800" version="9" timestamp="2024-10-06T16:49:18Z" changeset="157549423" uid="1457631" user="MC79">
    <nd ref="73311166"/>
    <nd ref="1099227003"/>
    <nd ref="73465662"/>
    <nd ref="1099232531"/>
    <nd ref="73425391"/>
    <nd ref="73375101"/>
    <nd ref="12230014523"/>
    <nd ref="73313449"/>
    <nd ref="12230014524"/>
    <nd ref="12230014525"/>
    <nd ref="598676930"/>
    <tag k="highway" v="secondary"/>
    <tag k="lanes" v="2"/>
    <tag k="name" v="Karlická"/>
    <tag k="ref" v="115"/>
    <tag k="source" v="HELP SERVICE - REMOTE SENSING spol. s r.o. http://www.bnhelp.cz"/>
    <tag k="surface" v="asphalt"/>
  </way>
  <way id="69305066" version="9" timestamp="2025-02-24T12:54:45Z" changeset="162891554" uid="718054" user="Piskvor">
    <nd ref="73460845"/>
    <nd ref="73448474"/>
    <nd ref="1143340770"/>
    <nd ref="73394808"/>
    <nd ref="73348078"/>
    <nd ref="10087868128"/>
    <nd ref="73494500"/>
    <nd ref="73438233"/>
    <nd ref="73380733"/>
    <nd ref="73332167"/>
    <nd ref="598676903"/>
    <tag k="highway" v="secondary"/>
    <tag k="lanes" v="2"/>
    <tag k="maxspeed:type" v="CZ:urban"/>
    <tag k="name" v="Karlická"/>
    <tag k="ref" v="115"/>
    <tag k="source" v="HELP SERVICE - REMOTE SENSING spol. s r.o. http://www.bnhelp.cz"/>
    <tag k="surface" v="asphalt"/>
  </way>
  <way id="69366281" version="2" timestamp="2021-12-21T16:58:16Z" changeset="115218410" uid="13633789" user="tter">
    <nd ref="831207321"/>
    <nd ref="9356120558"/>
    <nd ref="831207328"/>
    <tag k="highway" v="residential"/>
  </way>
  <way id="69463656" version="4" timestamp="2017-05-29T13:59:02Z" changeset="49074570" uid="718054" user="Piskvor">
    <nd ref="243273211"/>
    <nd ref="243273213"/>
    <tag k="highway" v="residential"/>
    <tag k="name" v="U Učiliště"/>
  </way>
  <way id="69756651" version="11" timestamp="2024-12-28T15:44:16Z" changeset="160719064" uid="1189910" user="Milancer">
    <nd ref="834474099"/>
    <nd ref="834474151"/>
    <nd ref="12459100654"/>
    <nd ref="12459100655"/>
    <nd ref="834474157"/>
    <nd ref="834474117"/>
    <nd ref="12459100653"/>
    <nd ref="1899411714"/>
    <nd ref="1899411703"/>
    <nd ref="12459100649"/>
    <nd ref="12459100650"/>
    <nd ref="834474099"/>
    <tag k="addr:city" v="Radotín"/>
    <tag k="addr:housenumber" v="1372"/>
    <tag k="addr:postcode" v="15300"/>
    <tag k="addr:street" v="Náměstí Osvoboditelů"/>
    <tag k="brand" v="Albert"/>
    <tag k="brand:wikidata" v="Q9144241"/>
    <tag k="brand:wikipedia" v="cs:Albert (obchodní řetězec)"/>
    <tag k="building" v="civic"/>
    <tag k="building:levels" v="1"/>
    <tag k="building:ruian:type" v="5"/>
    <tag k="email" v="info@ahold.cz"/>
    <tag k="name" v="Albert"/>
    <tag k="phone" v="+420 800 402 402"/>
    <tag k="ref:ruian:building" v="21639060"/>
    <tag k="shop" v="supermarket"/>
    <tag k="source" v="cuzk:ruian"/>
    <tag k="website" v="https://www.albert.cz/"/>
  </way>
  <way id="69918072" version="9" timestamp="2021-10-12T14:19:07Z" changeset="112420472" uid="10932047" user="AF HAF KARTOGRAF">
    <nd ref="4605830384"/>
    <nd ref="3825670167"/>
    <nd ref="3825670168"/>
    <nd ref="4605830383"/>
    <nd ref="4605830382"/>
    <nd ref="4605830381"/>
    <nd ref="4605830380"/>
    <nd ref="835727259"/>
    <nd ref="835727146"/>
    <nd ref="835727357"/>
    <nd ref="835727231"/>
    <nd ref="4605830379"/>
    <nd ref="4605830378"/>
    <nd ref="4605830377"/>
    <nd ref="4605830376"/>
    <nd ref="835727353"/>
    <nd ref="835727190"/>
    <nd ref="2939368000"/>
    <nd ref="835727398"/>
    <nd ref="4605830375"/>
    <nd ref="4605830374"/>
    <nd ref="4605830373"/>
    <nd ref="4605830384"/>
    <tag k="building" v="industrial"/>
    <tag k="building:ruian:type" v="1"/>
    <tag k="frequency" v="50"/>
    <tag k="location" v="indoor"/>
    <tag k="name" v="Lochkov"/>
    <tag k="operator" v="PRE"/>
    <tag k="operator:wikidata" v="Q15870812"/>
    <tag k="operator:wikipedia" v="cs:Pražská energetika"/>
    <tag k="power" v="substation"/>
    <tag k="ref" v="TS9938"/>
    <tag k="ref:ruian:building" v="46890262"/>
    <tag k="source" v="cuzk:ruian"/>
    <tag k="start_date" v="1998-11-11"/>
    <tag k="substation" v="industrial"/>
    <tag k="transformer" v="distribution"/>
    <tag k="voltage" v="110000;22000;400"/>
  </way>
  <way id="69918073" version="4" timestamp="2021-02-08T06:42:25Z" changeset="98884811" uid="4997045" user="Tomas_J">
    <nd ref="835727299"/>
    <nd ref="1114544085"/>
    <nd ref="835727404"/>
    <nd ref="1114544118"/>
    <nd ref="835727236"/>
    <nd ref="1114544098"/>
    <nd ref="835727124"/>
    <nd ref="1114544130"/>
    <nd ref="835727314"/>
    <nd ref="1114544157"/>
    <nd ref="835727193"/>
    <nd ref="1114544093"/>
    <nd ref="835727423"/>
    <nd ref="1114544079"/>
    <nd ref="835727293"/>
    <nd ref="1114544111"/>
    <nd ref="835727299"/>
    <tag k="building" v="yes"/>
    <tag k="man_made" v="works"/>
    <tag k="name" v="Cementárna Radotín"/>
    <tag k="wikidata" v="Q25906041"/>
  </way>
  <way id="71153343" version="3" timestamp="2022-01-17T16:36:33Z" changeset="116262192" uid="100163" user="Hlav">
    <nd ref="861076907"/>
    <nd ref="847175990"/>
    <nd ref="847175992"/>
    <nd ref="9425917060"/>
    <nd ref="847175925"/>
    <tag k="highway" v="residential"/>
    <tag k="name" v="Strunkovská"/>
  </way>
  <way id="71153786" version="6" timestamp="2023-12-15T16:57:45Z" changeset="145158973" uid="20552061" user="CD1850">
    <nd ref="1685265941"/>
    <nd ref="243260934"/>
    <nd ref="243260937"/>
    <nd ref="243260946"/>
    <tag k="highway" v="residential"/>
    <tag k="name" v="Safírová"/>
    <tag k="surface" v="asphalt"/>
  </way>
  <way id="72536221" version="3" timestamp="2019-07-28T06:11:57Z" changeset="72730124" uid="665336" user="Minimalis">
    <nd ref="81921137"/>
    <nd ref="6654448522"/>
    <nd ref="81921220"/>
    <nd ref="81921224"/>
    <tag k="highway" v="residential"/>
    <tag k="name" v="Minerální"/>
    <tag k="oneway" v="yes"/>
  </way>
  <way id="72593819" version="4" timestamp="2012-07-17T01:27:22Z" changeset="12254730" uid="722137" user="OSMF Redaction Account">
    <nd ref="861578513"/>
    <nd ref="963649678"/>
    <tag k="bridge" v="yes"/>
    <tag k="highway" v="residential"/>
    <tag k="layer" v="1"/>
    <tag k="motor_vehicle" v="no"/>
    <tag k="name" v="Na Výšince"/>
  </way>
  <way id="72842592" version="2" timestamp="2015-11-14T11:31:56Z" changeset="35304216" uid="5748" user="pschonmann">
    <nd ref="864337952"/>
    <nd ref="864337941"/>
    <nd ref="3835566453"/>
    <nd ref="3835566455"/>
    <nd ref="3835566419"/>
    <nd ref="3835566414"/>
    <nd ref="864337948"/>
    <nd ref="864337949"/>
    <nd ref="3835566370"/>
    <nd ref="3835566369"/>
    <nd ref="864337952"/>
    <tag k="amenity" v="place_of_worship"/>
    <tag k="building" v="yes"/>
    <tag k="building:levels" v="1"/>
    <tag k="building:ruian:type" v="19"/>
    <tag k="denomination" v="evangelical"/>
    <tag k="name" v="Farní sbor Českobratrské církve evangelické"/>
    <tag k="ref:ruian:building" v="21632341"/>
    <tag k="religion" v="christian"/>
    <tag k="source" v="cuzk:ruian"/>
  </way>
  <way id="73076964" version="1" timestamp="2010-08-18T19:33:41Z" changeset="5529801" uid="162736" user="honzour">
    <nd ref="243260954"/>
    <nd ref="243260950"/>
    <tag k="highway" v="residential"/>
  </way>
  <way id="74548902" version="6" timestamp="2024-06-13T20:33:05Z" changeset="152649514" uid="10932047" user="AF HAF KARTOGRAF">
    <nd ref="880994495"/>
    <nd ref="880994594"/>
    <nd ref="880994336"/>
    <nd ref="880994969"/>
    <nd ref="880994698"/>
    <nd ref="880994522"/>
    <nd ref="880994210"/>
    <nd ref="880994868"/>
    <nd ref="880994626"/>
    <nd ref="880994435"/>
    <nd ref="880994495"/>
    <tag k="brand" v="Penny"/>
    <tag k="brand:wikidata" v="Q284688"/>
    <tag k="brand:wikipedia" v="en:Penny (supermarket)"/>
    <tag k="building" v="commercial"/>
    <tag k="building:levels" v="1"/>
    <tag k="building:ruian:type" v="10"/>
    <tag k="name" v="PENNY"/>
    <tag k="ref:ruian:building" v="24978795"/>
    <tag k="shop" v="supermarket"/>
    <tag k="source" v="cuzk:ruian"/>
    <tag k="start_date" v="2001-10-03"/>
  </way>
  <way id="76767590" version="5" timestamp="2025-04-20T11:18:23Z" changeset="165188588" uid="558173" user="prófa">
    <nd ref="860533373"/>
    <nd ref="12459100636"/>
    <nd ref="60271202"/>
    <tag k="highway" v="secondary"/>
    <tag k="lanes" v="2"/>
    <tag k="ref" v="101"/>
    <tag k="surface" v="asphalt"/>
  </way>
  <way id="82797226" version="3" timestamp="2022-02-24T11:54:08Z" changeset="117809097" uid="1641564" user="Jakuje">
    <nd ref="963649678"/>
    <nd ref="9532251342"/>
    <nd ref="243273232"/>
    <tag k="highway" v="residential"/>
    <tag k="name" v="Na Výšince"/>
  </way>
  <way id="83895856" version="1" timestamp="2010-11-04T12:47:59Z" changeset="6288267" uid="366903" user="jirkafish">
    <nd ref="31515495"/>
    <nd ref="386722238"/>
    <nd ref="31515496"/>
    <nd ref="31515497"/>
    <tag k="highway" v="residential"/>
    <tag k="name" v="Věštínská"/>
  </way>
  <way id="83895857" version="2" timestamp="2022-02-24T11:54:08Z" changeset="117809097" uid="1641564" user="Jakuje">
    <nd ref="31515498"/>
    <nd ref="976526335"/>
    <nd ref="9532251353"/>
    <nd ref="31515497"/>
    <tag k="highway" v="residential"/>
    <tag k="name" v="Věštínská"/>
    <tag k="oneway" v="yes"/>
  </way>
  <way id="85407600" version="10" timestamp="2022-12-29T08:30:52Z" changeset="130632629" uid="10881771" user="Vokoun">
    <nd ref="25697602"/>
    <nd ref="1685265897"/>
    <nd ref="25697603"/>
    <nd ref="10162616605"/>
    <nd ref="346909391"/>
    <nd ref="10162616606"/>
    <nd ref="3930001112"/>
    <nd ref="10162616607"/>
    <nd ref="5644738952"/>
    <nd ref="346909394"/>
    <tag k="highway" v="secondary"/>
    <tag k="lit" v="yes"/>
    <tag k="name" v="Pod Klapicí"/>
    <tag k="ref" v="599"/>
    <tag k="sidewalk" v="both"/>
    <tag k="surface" v="asphalt"/>
  </way>
  <way id="85594555" version="17" timestamp="2024-12-28T15:44:16Z" changeset="160719064" uid="1189910" user="Milancer">
    <nd ref="1899412333"/>
    <nd ref="11375715345"/>
    <nd ref="25697621"/>
    <nd ref="11246248656"/>
    <nd ref="11246248655"/>
    <nd ref="10096134030"/>
    <nd ref="25697622"/>
    <nd ref="1125147832"/>
    <nd ref="395446934"/>
    <nd ref="12459100685"/>
    <nd ref="395446938"/>
    <nd ref="25697623"/>
    <nd ref="9949232528"/>
    <nd ref="395448764"/>
    <nd ref="25697624"/>
    <nd ref="1125743000"/>
    <nd ref="1125742998"/>
    <nd ref="395448778"/>
    <nd ref="3938010982"/>
    <nd ref="25697625"/>
    <nd ref="395446940"/>
    <nd ref="3938010954"/>
    <nd ref="1142895019"/>
    <nd ref="30006604"/>
    <tag k="highway" v="secondary"/>
    <tag k="lanes" v="2"/>
    <tag k="lit" v="yes"/>
    <tag k="maxheight" v="default"/>
    <tag k="maxspeed" v="50"/>
    <tag k="name" v="Výpadová"/>
    <tag k="ref" v="101;115"/>
    <tag k="source:maxspeed" v="sign"/>
    <tag k="surface" v="asphalt"/>
  </way>
  <way id="88375320" version="11" timestamp="2024-06-14T16:59:56Z" changeset="152689662" uid="10932047" user="AF HAF KARTOGRAF">
    <nd ref="3930001105"/>
    <nd ref="25697609"/>
    <nd ref="3930001102"/>
    <nd ref="3930001100"/>
    <nd ref="25697610"/>
    <tag k="highway" v="secondary"/>
    <tag k="lanes" v="2"/>
    <tag k="name" v="náměstí Osvoboditelů"/>
    <tag k="oneway" v="no"/>
    <tag k="ref" v="101;115"/>
    <tag k="sidewalk:left" v="no"/>
    <tag k="sidewalk:right" v="separate"/>
    <tag k="sorting_name" v="Osvoboditelů"/>
    <tag k="surface" v="asphalt"/>
  </way>
  <way id="93512473" version="7" timestamp="2024-04-14T07:17:46Z" changeset="149978929" uid="335143" user="Bogomil Shopov - Бого">
    <nd ref="1084089046"/>
    <nd ref="4605840755"/>
    <nd ref="4605840754"/>
    <nd ref="1084089064"/>
    <nd ref="1084089214"/>
    <nd ref="4605840753"/>
    <nd ref="4605840752"/>
    <nd ref="1084089136"/>
    <nd ref="1084089046"/>
    <tag k="amenity" v="library"/>
    <tag k="building" v="civic"/>
    <tag k="building:levels" v="1"/>
    <tag k="building:ruian:type" v="5"/>
    <tag k="check_date:opening_hours" v="2024-04-14"/>
    <tag k="name" v="Místní knihovna Radotín"/>
    <tag k="opening_hours" v="Mo,We,Th 09:00-12:00,13:00-18:00"/>
    <tag k="ref:ruian:building" v="24561100"/>
    <tag k="source" v="cuzk:ruian"/>
    <tag k="wikidata" v="Q12039256"/>
  </way>
  <way id="93515725" version="3" timestamp="2024-06-13T20:33:05Z" changeset="152649514" uid="10932047" user="AF HAF KARTOGRAF">
    <nd ref="3832794995"/>
    <nd ref="3835566682"/>
    <nd ref="1084123635"/>
    <nd ref="1084123794"/>
    <nd ref="1084123674"/>
    <nd ref="1084123864"/>
    <nd ref="1084123599"/>
    <nd ref="1084123830"/>
    <nd ref="1084123487"/>
    <nd ref="1084123703"/>
    <nd ref="3835566738"/>
    <nd ref="3835566735"/>
    <nd ref="1084123844"/>
    <nd ref="1084123802"/>
    <nd ref="3832794995"/>
    <tag k="amenity" v="school"/>
    <tag k="building" v="industrial"/>
    <tag k="building:levels" v="1"/>
    <tag k="building:ruian:type" v="16"/>
    <tag k="email" v="sou@klapice.cz"/>
    <tag k="name" v="Střední odborné učiliště, Praha - Radotín"/>
    <tag k="official_name" v="Střední odborné učiliště, Praha - Radotín"/>
    <tag k="phone" v="+420257899901"/>
    <tag k="ref" v="108023087"/>
    <tag k="ref:redizo" v="600005585"/>
    <tag k="ref:ruian:building" v="21626049"/>
    <tag k="source" v="cuzk:ruian"/>
    <tag k="website" v="https://www.klapice.cz/"/>
    <tag k="wikidata" v="Q57582672"/>
  </way>
  <way id="93558001" version="3" timestamp="2015-11-14T11:31:58Z" changeset="35304216" uid="5748" user="pschonmann">
    <nd ref="1085235236"/>
    <nd ref="1085235175"/>
    <nd ref="1085235213"/>
    <nd ref="1085235223"/>
    <nd ref="1085235172"/>
    <nd ref="1085235191"/>
    <nd ref="1085235113"/>
    <nd ref="1085235129"/>
    <nd ref="1085235236"/>
    <tag k="building" v="civic"/>
    <tag k="building:ruian:type" v="15"/>
    <tag k="name" v="Squash"/>
    <tag k="ref:ruian:building" v="24561282"/>
    <tag k="source" v="cuzk:ruian"/>
    <tag k="start_date" v="1996-11-22"/>
    <tag k="tourism" v="hotel"/>
  </way>
  <way id="96666194" version="8" timestamp="2024-10-06T16:49:18Z" changeset="157549423" uid="1457631" user="MC79">
    <nd ref="1119584108"/>
    <nd ref="3835564962"/>
    <nd ref="1119584079"/>
    <nd ref="1119584057"/>
    <nd ref="1119584135"/>
    <nd ref="1119584091"/>
    <nd ref="1119584068"/>
    <nd ref="3835564874"/>
    <nd ref="1119584121"/>
    <nd ref="8396916656"/>
    <nd ref="8396916652"/>
    <nd ref="1119584108"/>
    <tag k="addr:city" v="Praha 5"/>
    <tag k="addr:conscriptionnumber" v="829"/>
    <tag k="addr:housenumber" v="829/7"/>
    <tag k="addr:street" v="U Starého stadionu"/>
    <tag k="addr:streetnumber" v="7"/>
    <tag k="building" v="yes"/>
    <tag k="building:ruian:type" v="19"/>
    <tag k="check_date" v="2024-10-06"/>
    <tag k="ref:ruian:building" v="48987093"/>
    <tag k="source" v="cuzk:ruian"/>
  </way>
  <way id="97122559" version="5" timestamp="2024-04-14T07:29:04Z" changeset="149979268" uid="335143" user="Bogomil Shopov - Бого">
    <nd ref="1125147574"/>
    <nd ref="1125147543"/>
    <nd ref="1125147737"/>
    <nd ref="1125147860"/>
    <nd ref="1125147625"/>
    <nd ref="1125147585"/>
    <nd ref="1125147574"/>
    <tag k="amenity" v="pub"/>
    <tag k="building" v="yes"/>
    <tag k="indoor_seating" v="yes"/>
    <tag k="name" v="U Ondřeje"/>
    <tag k="outdoor_seating" v="yes"/>
  </way>
  <way id="97183314" version="2" timestamp="2015-11-14T11:31:58Z" changeset="35304216" uid="5748" user="pschonmann">
    <nd ref="3835570856"/>
    <nd ref="3835570866"/>
    <nd ref="1125742915"/>
    <nd ref="1125742899"/>
    <nd ref="3835570875"/>
    <nd ref="3835570878"/>
    <nd ref="3835570871"/>
    <nd ref="3835570868"/>
    <nd ref="1125743033"/>
    <nd ref="1125743084"/>
    <nd ref="3835570849"/>
    <nd ref="3835570843"/>
    <nd ref="3835570856"/>
    <tag k="amenity" v="restaurant"/>
    <tag k="building" v="residential"/>
    <tag k="building:flats" v="5"/>
    <tag k="building:levels" v="1"/>
    <tag k="building:ruian:type" v="3"/>
    <tag k="name" v="U Vodáka"/>
    <tag k="ref:ruian:building" v="21635731"/>
    <tag k="source" v="cuzk:ruian"/>
  </way>
  <way id="97183324" version="4" timestamp="2017-05-29T13:59:02Z" changeset="49074570" uid="718054" user="Piskvor">
    <nd ref="25697622"/>
    <nd ref="1899412653"/>
    <nd ref="1899412666"/>
    <nd ref="1899412730"/>
    <nd ref="1899412791"/>
    <nd ref="1899412856"/>
    <tag k="highway" v="residential"/>
  </way>
  <way id="97233690" version="7" timestamp="2024-10-06T16:49:18Z" changeset="157549423" uid="1457631" user="MC79">
    <nd ref="3835564731"/>
    <nd ref="3835564733"/>
    <nd ref="1126324426"/>
    <nd ref="12230014392"/>
    <nd ref="1126324475"/>
    <nd ref="3835564761"/>
    <nd ref="3835564759"/>
    <nd ref="1126324569"/>
    <nd ref="3835564670"/>
    <nd ref="3835564665"/>
    <nd ref="1126324451"/>
    <nd ref="3835564731"/>
    <tag k="building" v="civic"/>
    <tag k="building:levels" v="2"/>
    <tag k="building:ruian:type" v="15"/>
    <tag k="check_date" v="2024-10-06"/>
    <tag k="email" v="info@halaradotin.cz"/>
    <tag k="internet_access" v="wlan"/>
    <tag k="internet_access:fee" v="no"/>
    <tag k="leisure" v="sports_centre"/>
    <tag k="name" v="Sportovní hala Radotín"/>
    <tag k="operator" v="Radotínská, o.p.s."/>
    <tag k="phone" v="+420 608 262 805"/>
    <tag k="ref:ruian:building" v="27481735"/>
    <tag k="ref:vatin" v="CZ28973950"/>
    <tag k="source" v="cuzk:ruian"/>
    <tag k="sport" v="multi;climbing;basketball;athletics"/>
    <tag k="start_date" v="2009-12-14"/>
    <tag k="website" v="https://www.halaradotin.cz"/>
    <tag k="wheelchair" v="yes"/>
  </way>
  <way id="97397638" version="3" timestamp="2023-06-09T18:22:43Z" changeset="137148874" uid="10881771" user="Vokoun">
    <nd ref="26709306"/>
    <nd ref="1128025559"/>
    <tag k="bridge" v="yes"/>
    <tag k="highway" v="tertiary"/>
    <tag k="layer" v="1"/>
    <tag k="name" v="Na Cikánce"/>
    <tag k="surface" v="asphalt"/>
  </way>
  <way id="97397640" version="3" timestamp="2023-06-09T18:22:47Z" changeset="137148885" uid="10881771" user="Vokoun">
    <nd ref="1128025559"/>
    <nd ref="25697587"/>
    <tag k="highway" v="tertiary"/>
    <tag k="lane_markings" v="no"/>
    <tag k="name" v="Na Cikánce"/>
    <tag k="surface" v="asphalt"/>
  </way>
  <way id="98086181" version="3" timestamp="2015-11-14T11:31:57Z" changeset="35304216" uid="5748" user="pschonmann">
    <nd ref="3835567303"/>
    <nd ref="3835567316"/>
    <nd ref="1135097251"/>
    <nd ref="1899412799"/>
    <nd ref="1899412824"/>
    <nd ref="1899412836"/>
    <nd ref="1899412834"/>
    <nd ref="1135097256"/>
    <nd ref="1135097271"/>
    <nd ref="1899412736"/>
    <nd ref="1899412745"/>
    <nd ref="1899412740"/>
    <nd ref="1899412776"/>
    <nd ref="1135097243"/>
    <nd ref="3835567303"/>
    <tag k="building" v="yes"/>
    <tag k="building:levels" v="1"/>
    <tag k="building:ruian:type" v="19"/>
    <tag k="leisure" v="sports_centre"/>
    <tag k="name" v="Sokolovna"/>
    <tag k="ref:ruian:building" v="21631883"/>
    <tag k="source" v="cuzk:ruian"/>
  </way>
  <way id="98093866" version="9" timestamp="2025-02-24T12:54:45Z" changeset="162891554" uid="718054" user="Piskvor">
    <nd ref="1135208686"/>
    <nd ref="12536392330"/>
    <nd ref="2704713826"/>
    <nd ref="1135208689"/>
    <nd ref="1135208692"/>
    <nd ref="1135208681"/>
    <tag k="destination:name" v="Vrážská"/>
    <tag k="highway" v="residential"/>
    <tag k="lit" v="yes"/>
    <tag k="oneway" v="yes"/>
    <tag k="surface" v="asphalt"/>
  </way>
  <way id="98791278" version="5" timestamp="2015-11-14T11:31:58Z" changeset="35304216" uid="5748" user="pschonmann">
    <nd ref="1142870506"/>
    <nd ref="1142870610"/>
    <nd ref="1142870721"/>
    <nd ref="3835565038"/>
    <nd ref="1142870545"/>
    <nd ref="1142870481"/>
    <nd ref="1142870757"/>
    <nd ref="1142870774"/>
    <nd ref="1142870506"/>
    <tag k="amenity" v="school"/>
    <tag k="building" v="residential"/>
    <tag k="building:levels" v="1"/>
    <tag k="building:ruian:type" v="3"/>
    <tag k="name" v="Základní umělecká škola Klementa Slavického"/>
    <tag k="ref:ruian:building" v="21626391"/>
    <tag k="source" v="cuzk:ruian"/>
  </way>
  <way id="98796930" version="4" timestamp="2012-09-05T02:50:15Z" changeset="12989968" uid="488732" user="montardo">
    <nd ref="243275033"/>
    <nd ref="1143336265"/>
    <nd ref="31515498"/>
    <nd ref="1222712385"/>
    <nd ref="31515499"/>
    <tag k="highway" v="residential"/>
    <tag k="name" v="Matějovského"/>
    <tag k="oneway" v="yes"/>
  </way>
  <way id="98837358" version="3" timestamp="2021-12-21T16:58:16Z" changeset="115218410" uid="13633789" user="tter">
    <nd ref="1143338580"/>
    <nd ref="9356117703"/>
    <nd ref="1143338583"/>
    <tag k="highway" v="residential"/>
    <tag k="name" v="U Viniček"/>
  </way>
  <way id="98837359" version="3" timestamp="2024-03-07T13:41:01Z" changeset="148342524" uid="9291527" user="marekhrabe">
    <nd ref="1143338572"/>
    <nd ref="9532251323"/>
    <nd ref="1143338569"/>
    <tag k="highway" v="residential"/>
    <tag k="name" v="Zadovská"/>
  </way>
  <way id="98837405" version="2" timestamp="2012-09-26T09:14:37Z" changeset="13256761" uid="364739" user="j123b567">
    <nd ref="598676903"/>
    <nd ref="1143340746"/>
    <nd ref="1143340766"/>
    <nd ref="1143340745"/>
    <nd ref="1143340739"/>
    <nd ref="1143340755"/>
    <tag k="highway" v="residential"/>
  </way>
  <way id="100234755" version="1" timestamp="2011-02-18T07:21:28Z" changeset="7319870" uid="162736" user="honzour">
    <nd ref="288253953"/>
    <nd ref="288253850"/>
    <tag k="highway" v="residential"/>
    <tag k="name" v="Chrobolská"/>
  </way>
  <way id="100694379" version="3" timestamp="2015-11-14T11:31:56Z" changeset="35304216" uid="5748" user="pschonmann">
    <nd ref="1164020329"/>
    <nd ref="1164020104"/>
    <nd ref="3835563729"/>
    <nd ref="3835563734"/>
    <nd ref="1164020009"/>
    <nd ref="1164019997"/>
    <nd ref="3835563770"/>
    <nd ref="3835563781"/>
    <nd ref="1164020329"/>
    <tag k="amenity" v="restaurant"/>
    <tag k="building" v="residential"/>
    <tag k="building:flats" v="3"/>
    <tag k="building:levels" v="2"/>
    <tag k="building:ruian:type" v="3"/>
    <tag k="name" v="Na Viničkách"/>
    <tag k="ref:ruian:building" v="21631204"/>
    <tag k="source" v="cuzk:ruian"/>
  </way>
  <way id="101140613" version="3" timestamp="2020-10-03T20:21:27Z" changeset="91913982" uid="6588887" user="Martin2035">
    <nd ref="302397247"/>
    <nd ref="1167619348"/>
    <nd ref="1167619324"/>
    <tag k="highway" v="residential"/>
    <tag k="surface" v="asphalt"/>
  </way>
  <way id="102777195" version="9" timestamp="2025-02-24T12:54:45Z" changeset="162891554" uid="718054" user="Piskvor">
    <nd ref="1164006805"/>
    <nd ref="60271255"/>
    <nd ref="12459100646"/>
    <nd ref="3930001091"/>
    <nd ref="60271257"/>
    <nd ref="12459100645"/>
    <nd ref="60271258"/>
    <nd ref="1187013069"/>
    <nd ref="60271259"/>
    <nd ref="1126326752"/>
    <nd ref="1707698937"/>
    <nd ref="243273244"/>
    <nd ref="60271260"/>
    <nd ref="12459100644"/>
    <nd ref="12459100643"/>
    <nd ref="6653396210"/>
    <nd ref="60271262"/>
    <nd ref="9356120437"/>
    <nd ref="1099227005"/>
    <nd ref="60271264"/>
    <nd ref="1143340753"/>
    <nd ref="1143340759"/>
    <nd ref="1143340750"/>
    <nd ref="9532240101"/>
    <nd ref="9532251319"/>
    <nd ref="60271267"/>
    <nd ref="243273214"/>
    <tag k="highway" v="secondary"/>
    <tag k="name" v="Zderazská"/>
    <tag k="ref" v="101"/>
    <tag k="surface" v="asphalt"/>
  </way>
  <way id="102777203" version="8" timestamp="2024-12-28T15:44:16Z" changeset="160719064" uid="1189910" user="Milancer">
    <nd ref="60271230"/>
    <nd ref="12459100629"/>
    <nd ref="1531752335"/>
    <nd ref="1685265757"/>
    <nd ref="60271231"/>
    <nd ref="3930001078"/>
    <nd ref="12459100628"/>
    <nd ref="60271232"/>
    <nd ref="12459100627"/>
    <nd ref="1531752305"/>
    <nd ref="12459100626"/>
    <nd ref="60271233"/>
    <nd ref="12459100625"/>
    <nd ref="3930001085"/>
    <nd ref="60271234"/>
    <nd ref="3930001086"/>
    <nd ref="12459100623"/>
    <nd ref="12459100624"/>
    <nd ref="60271236"/>
    <nd ref="1187013065"/>
    <nd ref="12459100622"/>
    <nd ref="60271237"/>
    <nd ref="12459100621"/>
    <nd ref="3930001084"/>
    <nd ref="12459100620"/>
    <nd ref="60271240"/>
    <nd ref="12459100619"/>
    <nd ref="3930001083"/>
    <nd ref="60271242"/>
    <nd ref="1531755422"/>
    <nd ref="3930001080"/>
    <nd ref="12459100618"/>
    <nd ref="60271243"/>
    <nd ref="3930001079"/>
    <nd ref="1531752303"/>
    <nd ref="60271244"/>
    <nd ref="3930001081"/>
    <nd ref="12459100617"/>
    <nd ref="60271245"/>
    <nd ref="12459100616"/>
    <nd ref="3930001082"/>
    <nd ref="12459100615"/>
    <nd ref="598676885"/>
    <nd ref="60271246"/>
    <nd ref="12459100614"/>
    <nd ref="12459100613"/>
    <nd ref="60271248"/>
    <nd ref="3930001087"/>
    <nd ref="12459100611"/>
    <nd ref="12459100612"/>
    <nd ref="7522951657"/>
    <nd ref="598676889"/>
    <nd ref="12459100608"/>
    <nd ref="3930001088"/>
    <nd ref="60271252"/>
    <nd ref="3930001089"/>
    <nd ref="12459100610"/>
    <nd ref="12459100609"/>
    <nd ref="598676895"/>
    <nd ref="60271254"/>
    <nd ref="3930001090"/>
    <nd ref="1164006805"/>
    <tag k="highway" v="secondary"/>
    <tag k="maxspeed" v="40"/>
    <tag k="name" v="Zderazská"/>
    <tag k="ref" v="101"/>
  </way>
  <way id="103409322" version="1" timestamp="2011-03-09T13:36:42Z" changeset="7504104" uid="162736" user="honzour">
    <nd ref="1194122829"/>
    <nd ref="1194122820"/>
    <nd ref="1194122825"/>
    <nd ref="1194122831"/>
    <nd ref="1194122829"/>
    <tag k="building" v="yes"/>
    <tag k="name" v="vodoměr"/>
  </way>
  <way id="104670621" version="2" timestamp="2021-01-01T15:46:39Z" changeset="96777188" uid="1975460" user="Youngjan">
    <nd ref="1207367126"/>
    <nd ref="1207367044"/>
    <nd ref="1207367119"/>
    <nd ref="1207367083"/>
    <nd ref="1207366990"/>
    <nd ref="1207367121"/>
    <nd ref="1207367126"/>
    <tag k="building" v="yes"/>
    <tag k="name" v="Kynologické cvičiště"/>
  </way>
  <way id="104835932" version="2" timestamp="2019-02-22T17:23:37Z" changeset="67473838" uid="665336" user="Minimalis">
    <nd ref="598676868"/>
    <nd ref="598676862"/>
    <nd ref="6296127329"/>
    <nd ref="598676859"/>
    <nd ref="6296127328"/>
    <nd ref="598676860"/>
    <nd ref="6296127327"/>
    <nd ref="598676863"/>
    <nd ref="598676861"/>
    <nd ref="1209145007"/>
    <nd ref="1209144960"/>
    <nd ref="1209144922"/>
    <tag k="highway" v="residential"/>
    <tag k="name" v="Javořická"/>
    <tag k="source" v="cuzk:km;uhul:ortofoto"/>
  </way>
  <way id="124512065" version="5" timestamp="2020-12-05T18:21:24Z" changeset="95343874" uid="1189910" user="Milancer">
    <nd ref="847175925"/>
    <nd ref="81921290"/>
    <nd ref="1126365459"/>
    <nd ref="81921292"/>
    <nd ref="81921293"/>
    <nd ref="1126365482"/>
    <nd ref="81921295"/>
    <nd ref="81921297"/>
    <nd ref="81921299"/>
    <nd ref="81921302"/>
    <nd ref="81921305"/>
    <nd ref="2223524626"/>
    <nd ref="81921308"/>
    <nd ref="81921310"/>
    <tag k="highway" v="residential"/>
    <tag k="incline" v="-17%"/>
    <tag k="maxspeed:forward" v="30"/>
    <tag k="name" v="Strážovská"/>
    <tag k="surface" v="cobblestone"/>
  </way>
  <way id="124513087" version="2" timestamp="2013-03-25T23:29:38Z" changeset="15497824" uid="488732" user="montardo">
    <nd ref="81918331"/>
    <nd ref="2223524757"/>
    <nd ref="81921132"/>
    <tag k="highway" v="residential"/>
    <tag k="name" v="Solná"/>
    <tag k="oneway" v="yes"/>
  </way>
  <way id="126328806" version="5" timestamp="2021-09-16T06:35:42Z" changeset="111272635" uid="582893" user="zorancz">
    <nd ref="25697605"/>
    <nd ref="30006610"/>
    <tag k="highway" v="secondary"/>
    <tag k="lit" v="yes"/>
    <tag k="name" v="Pod Klapicí"/>
    <tag k="ref" v="599"/>
    <tag k="sidewalk" v="right"/>
    <tag k="surface" v="asphalt"/>
  </way>
  <way id="126328807" version="5" timestamp="2023-01-04T15:24:42Z" changeset="130871746" uid="10881771" user="Vokoun">
    <nd ref="30006610"/>
    <nd ref="9356120503"/>
    <nd ref="9356120497"/>
    <nd ref="81937014"/>
    <tag k="highway" v="secondary"/>
    <tag k="lit" v="yes"/>
    <tag k="name" v="Pod Klapicí"/>
    <tag k="ref" v="599"/>
    <tag k="surface" v="asphalt"/>
  </way>
  <way id="128800802" version="4" timestamp="2023-06-09T18:22:43Z" changeset="137148874" uid="10881771" user="Vokoun">
    <nd ref="1420335427"/>
    <nd ref="1168847519"/>
    <nd ref="25697587"/>
    <tag k="highway" v="secondary"/>
    <tag k="maxspeed" v="50"/>
    <tag k="name" v="K Cementárně"/>
    <tag k="ref" v="599"/>
    <tag k="source:maxspeed" v="sign"/>
    <tag k="surface" v="asphalt"/>
  </way>
  <way id="130057412" version="8" timestamp="2024-04-14T07:49:55Z" changeset="149979915" uid="335143" user="Bogomil Shopov - Бого">
    <nd ref="288253929"/>
    <nd ref="288253940"/>
    <tag k="cycleway:left" v="no"/>
    <tag k="highway" v="residential"/>
    <tag k="lane_markings" v="no"/>
    <tag k="maxspeed:type" v="CZ:urban"/>
    <tag k="name" v="Ke Zděři"/>
    <tag k="oneway" v="yes"/>
    <tag k="oneway:bicycle" v="no"/>
    <tag k="parking:left" v="lane"/>
    <tag k="parking:left:orientation" v="parallel"/>
    <tag k="parking:right" v="no"/>
    <tag k="sidewalk" v="left"/>
    <tag k="surface" v="paving_stones"/>
  </way>
  <way id="130057413" version="9" timestamp="2024-04-14T07:48:22Z" changeset="149978876" uid="335143" user="Bogomil Shopov - Бого">
    <nd ref="288253929"/>
    <nd ref="288191532"/>
    <tag k="highway" v="residential"/>
    <tag k="lane_markings" v="no"/>
    <tag k="lit" v="yes"/>
    <tag k="maxspeed:type" v="CZ:urban"/>
    <tag k="name" v="Ke Zděři"/>
    <tag k="oneway" v="yes"/>
    <tag k="oneway:bicycle" v="no"/>
    <tag k="parking:left" v="no"/>
    <tag k="parking:right" v="lane"/>
    <tag k="parking:right:orientation" v="parallel"/>
    <tag k="sidewalk" v="right"/>
    <tag k="surface" v="paving_stones"/>
    <tag k="width" v="6"/>
  </way>
  <way id="132430424" version="12" timestamp="2023-01-25T10:39:07Z" changeset="131688961" uid="2061236" user="Thartek">
    <nd ref="1188878101"/>
    <nd ref="4752954511"/>
    <nd ref="250835613"/>
    <tag k="highway" v="motorway"/>
    <tag k="int_ref" v="E 50"/>
    <tag k="lanes" v="2"/>
    <tag k="maxheight" v="4.5"/>
    <tag k="maxspeed" v="80"/>
    <tag k="maxspeed:variable" v="obstruction"/>
    <tag k="name" v="Pražský okruh"/>
    <tag k="name:de" v="Prager Ring"/>
    <tag k="name:en" v="Prague Ring"/>
    <tag k="oneway" v="yes"/>
    <tag k="ref" v="D0"/>
    <tag k="source:maxspeed" v="sign"/>
    <tag k="surface" v="asphalt"/>
    <tag k="toll" v="yes"/>
  </way>
  <way id="133145475" version="4" timestamp="2023-09-02T17:18:34Z" changeset="140729077" uid="6588887" user="Martin2035">
    <nd ref="81928329"/>
    <nd ref="81928345"/>
    <nd ref="30006608"/>
    <nd ref="7002879850"/>
    <nd ref="81928347"/>
    <nd ref="81928332"/>
    <nd ref="81928335"/>
    <nd ref="30006609"/>
    <nd ref="288137368"/>
    <nd ref="1100421600"/>
    <nd ref="288137346"/>
    <nd ref="81932064"/>
    <nd ref="81928337"/>
    <nd ref="81928340"/>
    <nd ref="1100421569"/>
    <nd ref="1100421580"/>
    <nd ref="81928341"/>
    <tag k="highway" v="residential"/>
    <tag k="lanes" v="2"/>
    <tag k="maxspeed" v="30"/>
    <tag k="maxspeed:type" v="CZ:zone30"/>
    <tag k="name" v="Prvomájová"/>
    <tag k="surface" v="asphalt"/>
    <tag k="zone:maxspeed" v="30"/>
  </way>
  <way id="133145480" version="1" timestamp="2011-10-13T11:25:03Z" changeset="9546289" uid="17615" user="Petr Dlouhý">
    <nd ref="81921313"/>
    <nd ref="81921378"/>
    <tag k="highway" v="residential"/>
    <tag k="name" v="Strážovská"/>
  </way>
  <way id="133145482" version="1" timestamp="2011-10-13T11:25:03Z" changeset="9546289" uid="17615" user="Petr Dlouhý">
    <nd ref="81928246"/>
    <nd ref="81928324"/>
    <tag k="highway" v="residential"/>
    <tag k="name" v="U Sanatoria"/>
    <tag k="oneway" v="yes"/>
  </way>
  <way id="133145483" version="2" timestamp="2022-11-26T19:14:01Z" changeset="129412828" uid="6588887" user="Martin2035">
    <nd ref="81928324"/>
    <nd ref="81928320"/>
    <nd ref="81928316"/>
    <nd ref="81928312"/>
    <nd ref="81928308"/>
    <nd ref="81921382"/>
    <tag k="highway" v="residential"/>
    <tag k="maxspeed" v="30"/>
    <tag k="maxspeed:type" v="CZ:zone30"/>
    <tag k="name" v="U Sanatoria"/>
    <tag k="oneway" v="yes"/>
    <tag k="zone:maxspeed" v="30"/>
  </way>
  <way id="133242025" version="3" timestamp="2023-11-25T19:49:46Z" changeset="144451815" uid="18482278" user="Someone1212">
    <nd ref="1125742999"/>
    <nd ref="1125743032"/>
    <nd ref="1899412327"/>
    <nd ref="11375715344"/>
    <nd ref="11375715345"/>
    <tag k="highway" v="residential"/>
    <tag k="maxspeed" v="30"/>
    <tag k="name" v="Věštínská"/>
  </way>
  <way id="133242028" version="11" timestamp="2024-12-28T15:44:16Z" changeset="160719064" uid="1189910" user="Milancer">
    <nd ref="31515050"/>
    <nd ref="9060793556"/>
    <nd ref="12459100666"/>
    <nd ref="2223524951"/>
    <nd ref="31515051"/>
    <nd ref="1168892577"/>
    <nd ref="9658323956"/>
    <nd ref="12459100669"/>
    <nd ref="12459100668"/>
    <nd ref="9650804436"/>
    <nd ref="9556294575"/>
    <nd ref="9556294576"/>
    <nd ref="9556294577"/>
    <nd ref="31515053"/>
    <nd ref="31515054"/>
    <nd ref="1188878100"/>
    <nd ref="9556294578"/>
    <nd ref="30006605"/>
    <tag k="highway" v="tertiary"/>
    <tag k="lanes" v="2"/>
    <tag k="maxheight" v="default"/>
    <tag k="name" v="Radotínská"/>
    <tag k="surface" v="asphalt"/>
  </way>
  <way id="133242030" version="8" timestamp="2023-10-07T17:08:20Z" changeset="142277573" uid="1189910" user="Milancer">
    <nd ref="761842902"/>
    <nd ref="2223524698"/>
    <nd ref="11246248665"/>
    <nd ref="25697628"/>
    <nd ref="9556354061"/>
    <nd ref="761842907"/>
    <nd ref="9556354060"/>
    <nd ref="25697629"/>
    <nd ref="9556354062"/>
    <nd ref="761842901"/>
    <nd ref="6691349400"/>
    <tag k="cycleway:both" v="no"/>
    <tag k="highway" v="secondary"/>
    <tag k="lanes" v="2"/>
    <tag k="maxspeed" v="80"/>
    <tag k="name" v="Výpadová"/>
    <tag k="ref" v="101;115"/>
    <tag k="source:maxspeed" v="sign"/>
    <tag k="surface" v="asphalt"/>
  </way>
  <way id="133242035" version="3" timestamp="2025-02-23T16:19:23Z" changeset="162859615" uid="718054" user="Piskvor">
    <nd ref="1899412089"/>
    <nd ref="1899412333"/>
    <tag k="highway" v="secondary"/>
    <tag k="maxspeed" v="30"/>
    <tag k="name" v="Výpadová"/>
    <tag k="ref" v="101;115"/>
    <tag k="surface" v="asphalt"/>
  </way>
  <way id="140773785" version="13" timestamp="2023-09-02T17:18:34Z" changeset="140729077" uid="6588887" user="Martin2035">
    <nd ref="81937016"/>
    <nd ref="11163318934"/>
    <nd ref="1236492853"/>
    <nd ref="25697611"/>
    <nd ref="8197038966"/>
    <nd ref="761842897"/>
    <nd ref="7522964190"/>
    <nd ref="25697612"/>
    <nd ref="761842891"/>
    <nd ref="1135208687"/>
    <tag k="highway" v="secondary"/>
    <tag k="lanes" v="2"/>
    <tag k="maxheight" v="4.2"/>
    <tag k="name" v="Výpadová"/>
    <tag k="ref" v="101;115"/>
    <tag k="sidewalk:left" v="no"/>
    <tag k="sidewalk:right" v="separate"/>
    <tag k="surface" v="asphalt"/>
  </way>
  <way id="171927656" version="5" timestamp="2024-10-31T12:57:33Z" changeset="158580460" uid="21375820" user="Onebutton">
    <nd ref="288191382"/>
    <nd ref="11435546513"/>
    <nd ref="11435546514"/>
    <nd ref="288191490"/>
    <tag k="highway" v="residential"/>
    <tag k="lane_markings" v="no"/>
    <tag k="name" v="Felberova"/>
    <tag k="smoothness" v="excellent"/>
    <tag k="surface" v="paving_stones"/>
  </way>
  <way id="171927657" version="2" timestamp="2024-12-28T15:44:16Z" changeset="160719064" uid="1189910" user="Milancer">
    <nd ref="243273214"/>
    <nd ref="1099232530"/>
    <nd ref="243273220"/>
    <nd ref="243273221"/>
    <nd ref="243273223"/>
    <nd ref="12459100753"/>
    <nd ref="12459100754"/>
    <nd ref="243273225"/>
    <nd ref="243273229"/>
    <tag k="highway" v="residential"/>
    <tag k="name" v="Jelenovská"/>
  </way>
  <way id="171927659" version="6" timestamp="2021-12-21T16:58:16Z" changeset="115218410" uid="13633789" user="tter">
    <nd ref="243273229"/>
    <nd ref="243273241"/>
    <nd ref="243273242"/>
    <nd ref="243273243"/>
    <nd ref="1127716579"/>
    <nd ref="9356120424"/>
    <nd ref="243273244"/>
    <tag k="highway" v="residential"/>
    <tag k="name" v="Otínská"/>
  </way>
  <way id="171927660" version="10" timestamp="2024-04-14T07:41:06Z" changeset="149978774" uid="335143" user="Bogomil Shopov - Бого">
    <nd ref="288191334"/>
    <nd ref="288191333"/>
    <nd ref="9918994420"/>
    <nd ref="4167969622"/>
    <nd ref="288191331"/>
    <tag k="highway" v="residential"/>
    <tag k="lanes" v="2"/>
    <tag k="lit" v="yes"/>
    <tag k="name" v="Václava Balého"/>
    <tag k="parking:both" v="lane"/>
    <tag k="parking:both:orientation" v="parallel"/>
    <tag k="sidewalk:left" v="yes"/>
    <tag k="sidewalk:right" v="separate"/>
    <tag k="surface" v="asphalt"/>
  </way>
  <way id="171927661" version="5" timestamp="2025-01-28T20:16:23Z" changeset="161872262" uid="2061236" user="Thartek">
    <nd ref="31515681"/>
    <nd ref="12539855043"/>
    <nd ref="12539855042"/>
    <nd ref="12539855044"/>
    <nd ref="12539855041"/>
    <nd ref="7970305210"/>
    <nd ref="31515680"/>
    <tag k="highway" v="residential"/>
    <tag k="lit" v="yes"/>
    <tag k="name" v="Věštínská"/>
  </way>
  <way id="171928501" version="7" timestamp="2025-05-02T13:26:09Z" changeset="165719674" uid="558173" user="prófa">
    <nd ref="60271202"/>
    <nd ref="1685265743"/>
    <nd ref="12459100634"/>
    <nd ref="3930001057"/>
    <nd ref="60271203"/>
    <nd ref="12459100633"/>
    <nd ref="12459100632"/>
    <nd ref="60271204"/>
    <nd ref="12459100631"/>
    <nd ref="1910482072"/>
    <nd ref="60271205"/>
    <nd ref="3930001072"/>
    <nd ref="60271215"/>
    <nd ref="12459100630"/>
    <nd ref="1910482073"/>
    <nd ref="60271227"/>
    <nd ref="60271230"/>
    <tag k="highway" v="secondary"/>
    <tag k="lanes" v="2"/>
    <tag k="ref" v="101"/>
    <tag k="surface" v="asphalt"/>
  </way>
  <way id="171993323" version="12" timestamp="2023-01-25T10:39:29Z" changeset="131688977" uid="2061236" user="Thartek">
    <nd ref="478231564"/>
    <nd ref="4752954510"/>
    <nd ref="1456850635"/>
    <tag k="highway" v="motorway"/>
    <tag k="int_ref" v="E 50"/>
    <tag k="lanes" v="3"/>
    <tag k="maxspeed" v="80"/>
    <tag k="maxspeed:variable" v="obstruction"/>
    <tag k="name" v="Pražský okruh"/>
    <tag k="name:de" v="Prager Ring"/>
    <tag k="name:en" v="Prague Ring"/>
    <tag k="oneway" v="yes"/>
    <tag k="ref" v="D0"/>
    <tag k="source:maxspeed" v="sign"/>
    <tag k="surface" v="asphalt"/>
    <tag k="toll" v="yes"/>
  </way>
  <way id="171993335" version="22" timestamp="2024-11-13T21:41:58Z" changeset="159108577" uid="8971394" user="vojtechzaboril">
    <nd ref="1456850635"/>
    <nd ref="6989771186"/>
    <nd ref="12338030988"/>
    <nd ref="9373321060"/>
    <nd ref="12338030994"/>
    <nd ref="12338030993"/>
    <nd ref="12338030992"/>
    <nd ref="1829493846"/>
    <nd ref="12338030991"/>
    <nd ref="12338030990"/>
    <nd ref="12338030989"/>
    <nd ref="8399261954"/>
    <nd ref="12338030950"/>
    <nd ref="12338030949"/>
    <nd ref="12338030948"/>
    <nd ref="1829493849"/>
    <nd ref="12338030947"/>
    <nd ref="12338030946"/>
    <nd ref="1838652753"/>
    <nd ref="2263121917"/>
    <nd ref="1838652755"/>
    <nd ref="12338030954"/>
    <nd ref="12338030953"/>
    <nd ref="1838652757"/>
    <nd ref="12338030952"/>
    <nd ref="12338030951"/>
    <nd ref="1838652761"/>
    <nd ref="12338030968"/>
    <nd ref="12338030967"/>
    <nd ref="12338030966"/>
    <nd ref="12338030965"/>
    <nd ref="12338030964"/>
    <nd ref="1838652764"/>
    <nd ref="12338030963"/>
    <nd ref="12338030962"/>
    <nd ref="1838652763"/>
    <nd ref="12338030974"/>
    <nd ref="1838652758"/>
    <nd ref="478231581"/>
    <nd ref="6989707869"/>
    <nd ref="10219822112"/>
    <nd ref="478231584"/>
    <tag k="alt_name" v="tunel Lochkov"/>
    <tag k="highway" v="motorway"/>
    <tag k="int_ref" v="E 50"/>
    <tag k="lanes" v="3"/>
    <tag k="layer" v="-1"/>
    <tag k="lit" v="yes"/>
    <tag k="maxheight" v="4.5"/>
    <tag k="maxspeed" v="80"/>
    <tag k="maxspeed:variable" v="obstruction"/>
    <tag k="name" v="Lochkovský tunel"/>
    <tag k="name:de" v="Lochkower Tunnel"/>
    <tag k="name:en" v="Lochkov Tunnel"/>
    <tag k="old_name" v="Lahovický tunel"/>
    <tag k="old_name:de" v="Lahowitzer Tunnel"/>
    <tag k="old_name:en" v="Lahovice Tunnel"/>
    <tag k="oneway" v="yes"/>
    <tag k="ref" v="D0"/>
    <tag k="smoothness" v="excellent"/>
    <tag k="source:maxspeed" v="sign"/>
    <tag k="start_date" v="2010"/>
    <tag k="surface" v="asphalt"/>
    <tag k="toll" v="yes"/>
    <tag k="tunnel" v="yes"/>
    <tag k="wikidata" v="Q12033775"/>
    <tag k="wikipedia" v="cs:Lochkovský tunel"/>
  </way>
  <way id="172187367" version="15" timestamp="2023-01-25T10:39:52Z" changeset="131688986" uid="2061236" user="Thartek">
    <nd ref="633033918"/>
    <nd ref="9176955051"/>
    <nd ref="248763240"/>
    <nd ref="3351934242"/>
    <nd ref="6045854227"/>
    <nd ref="1456850628"/>
    <nd ref="1456850629"/>
    <nd ref="6045854230"/>
    <nd ref="248763239"/>
    <nd ref="1820703851"/>
    <nd ref="1820703785"/>
    <nd ref="250835610"/>
    <nd ref="1456850631"/>
    <nd ref="1027279554"/>
    <nd ref="3351934254"/>
    <nd ref="1820703847"/>
    <nd ref="481304337"/>
    <nd ref="3351934261"/>
    <nd ref="10219822111"/>
    <nd ref="478231564"/>
    <tag k="bridge" v="yes"/>
    <tag k="bridge:structure" v="beam"/>
    <tag k="highway" v="motorway"/>
    <tag k="int_ref" v="E 50"/>
    <tag k="lanes" v="3"/>
    <tag k="layer" v="2"/>
    <tag k="maxspeed" v="100"/>
    <tag k="maxspeed:variable" v="obstruction"/>
    <tag k="name" v="Pražský okruh"/>
    <tag k="name:de" v="Prager Ring"/>
    <tag k="name:en" v="Prague Ring"/>
    <tag k="oneway" v="yes"/>
    <tag k="placement" v="right_of:1"/>
    <tag k="ref" v="D0"/>
    <tag k="source:maxspeed" v="sign"/>
    <tag k="surface" v="asphalt"/>
    <tag k="toll" v="yes"/>
  </way>
  <way id="179554568" version="6" timestamp="2024-06-25T18:04:45Z" changeset="153168874" uid="10881771" user="Vokoun">
    <nd ref="1899410358"/>
    <nd ref="1899410349"/>
    <nd ref="3835564502"/>
    <nd ref="3835564503"/>
    <nd ref="1899410367"/>
    <nd ref="1899410368"/>
    <nd ref="3835564512"/>
    <nd ref="3835564516"/>
    <nd ref="3835564521"/>
    <nd ref="3835564518"/>
    <nd ref="3835564529"/>
    <nd ref="3835564532"/>
    <nd ref="3835564536"/>
    <nd ref="3835564534"/>
    <nd ref="3835564540"/>
    <nd ref="3835564542"/>
    <nd ref="3835564546"/>
    <nd ref="3835564545"/>
    <nd ref="1899410389"/>
    <nd ref="1899410391"/>
    <nd ref="1899410404"/>
    <nd ref="3835564544"/>
    <nd ref="3835564547"/>
    <nd ref="835710191"/>
    <nd ref="3835564437"/>
    <nd ref="3835564435"/>
    <nd ref="3835564430"/>
    <nd ref="3835564431"/>
    <nd ref="1899410330"/>
    <nd ref="3835564448"/>
    <nd ref="3835564451"/>
    <nd ref="1899410345"/>
    <nd ref="1899410358"/>
    <tag k="amenity" v="school"/>
    <tag k="building" v="civic"/>
    <tag k="building:flats" v="1"/>
    <tag k="building:levels" v="1"/>
    <tag k="building:ruian:type" v="5"/>
    <tag k="email" v="sekretariat@gop.cz"/>
    <tag k="name" v="Gymnázium Oty Pavla"/>
    <tag k="official_name" v="Gymnázium Oty Pavla, Praha 5, Loučanská 520"/>
    <tag k="operator" v="HLAVNÍ MĚSTO PRAHA"/>
    <tag k="phone" v="+420257910111"/>
    <tag k="ref" v="61384992"/>
    <tag k="ref:redizo" v="600005500"/>
    <tag k="ref:ruian:building" v="21630909"/>
    <tag k="source" v="cuzk:ruian"/>
    <tag k="website" v="https://www.gop.cz/"/>
    <tag k="wikidata" v="Q57581285"/>
  </way>
  <way id="179554570" version="1" timestamp="2012-09-05T02:45:44Z" changeset="12989968" uid="488732" user="montardo">
    <nd ref="346916022"/>
    <nd ref="1899414305"/>
    <tag k="highway" v="residential"/>
    <tag k="name" v="Kalabisova"/>
  </way>
  <way id="179554571" version="12" timestamp="2024-04-14T07:15:20Z" changeset="149978876" uid="335143" user="Bogomil Shopov - Бого">
    <nd ref="288191337"/>
    <nd ref="1141577163"/>
    <nd ref="1141577232"/>
    <nd ref="288191338"/>
    <tag k="highway" v="residential"/>
    <tag k="lanes" v="2"/>
    <tag k="lit" v="yes"/>
    <tag k="name" v="Loučanská"/>
    <tag k="parking:left" v="lane"/>
    <tag k="parking:left:orientation" v="parallel"/>
    <tag k="parking:right" v="no"/>
    <tag k="sidewalk:left" v="separate"/>
    <tag k="sidewalk:right" v="yes"/>
    <tag k="surface" v="asphalt"/>
  </way>
  <way id="179554594" version="4" timestamp="2021-02-08T06:45:08Z" changeset="98884811" uid="4997045" user="Tomas_J">
    <nd ref="3835564740"/>
    <nd ref="3835564727"/>
    <nd ref="3835564724"/>
    <nd ref="1899410413"/>
    <nd ref="1899410398"/>
    <nd ref="1899410408"/>
    <nd ref="1899410411"/>
    <nd ref="1899410431"/>
    <nd ref="1899410426"/>
    <nd ref="1899410405"/>
    <nd ref="1899410424"/>
    <nd ref="1899410410"/>
    <nd ref="1899410439"/>
    <nd ref="1899410449"/>
    <nd ref="3835564738"/>
    <nd ref="3835564740"/>
    <tag k="building" v="school"/>
    <tag k="building:flats" v="1"/>
    <tag k="building:levels" v="4"/>
    <tag k="building:ruian:type" v="5"/>
    <tag k="name" v="Základní škola Praha - Radotín"/>
    <tag k="ref:ruian:building" v="21626782"/>
    <tag k="source" v="cuzk:ruian"/>
    <tag k="wikidata" v="Q57577516"/>
  </way>
  <way id="179554741" version="5" timestamp="2019-03-12T02:40:27Z" changeset="68045280" uid="9451067" user="b-jazz-bot">
    <nd ref="1899411324"/>
    <nd ref="1899411326"/>
    <nd ref="1899411194"/>
    <nd ref="1899411191"/>
    <nd ref="1899411202"/>
    <nd ref="1899411200"/>
    <nd ref="1899411258"/>
    <nd ref="1899411260"/>
    <nd ref="1899411285"/>
    <nd ref="1899411282"/>
    <nd ref="1899411291"/>
    <nd ref="1899411312"/>
    <nd ref="1899411324"/>
    <tag k="building" v="civic"/>
    <tag k="building:levels" v="1"/>
    <tag k="building:ruian:type" v="15"/>
    <tag k="name" v="kulturní středisko U koruny"/>
    <tag k="ref:ruian:building" v="21626260"/>
    <tag k="source" v="cuzk:ruian"/>
    <tag k="website" v="https://www.ukoruny.net/"/>
  </way>
  <way id="179555174" version="3" timestamp="2020-05-15T13:47:35Z" changeset="85265155" uid="1189910" user="Milancer">
    <nd ref="1899413593"/>
    <nd ref="1899413568"/>
    <nd ref="6025003483"/>
    <nd ref="6025003482"/>
    <nd ref="6025003481"/>
    <nd ref="6025003480"/>
    <nd ref="6025003479"/>
    <nd ref="6025003478"/>
    <nd ref="6025003477"/>
    <nd ref="6025003476"/>
    <nd ref="1899413560"/>
    <nd ref="1899413590"/>
    <nd ref="1899413593"/>
    <tag k="building" v="yes"/>
    <tag k="building:ruian:type" v="19"/>
    <tag k="name" v="Elzed"/>
    <tag k="ref:ruian:building" v="21634815"/>
    <tag k="shop" v="electronics"/>
    <tag k="source" v="cuzk:ruian"/>
  </way>
  <way id="179555593" version="3" timestamp="2023-05-21T13:33:13Z" changeset="136372583" uid="1241495" user="6erle">
    <nd ref="1899413119"/>
    <nd ref="1899413120"/>
    <nd ref="1899413081"/>
    <nd ref="1899413075"/>
    <nd ref="1899413061"/>
    <nd ref="1899413033"/>
    <nd ref="1899413059"/>
    <nd ref="1899413057"/>
    <nd ref="1899413027"/>
    <nd ref="1899413012"/>
    <nd ref="1899413024"/>
    <nd ref="1899413021"/>
    <nd ref="1899413008"/>
    <nd ref="1899412993"/>
    <nd ref="1899412999"/>
    <nd ref="1899412996"/>
    <nd ref="1899412990"/>
    <nd ref="1899412975"/>
    <nd ref="1899412981"/>
    <nd ref="1899412972"/>
    <nd ref="1899412958"/>
    <nd ref="1899412948"/>
    <nd ref="1899412956"/>
    <nd ref="1899412952"/>
    <nd ref="1899412934"/>
    <nd ref="1899412922"/>
    <nd ref="1899412931"/>
    <nd ref="1899412928"/>
    <nd ref="1899412919"/>
    <nd ref="1899412907"/>
    <nd ref="1899412913"/>
    <nd ref="1899412910"/>
    <nd ref="1899413030"/>
    <nd ref="1899413062"/>
    <nd ref="1899413036"/>
    <nd ref="1899413090"/>
    <nd ref="3835567925"/>
    <nd ref="3835567926"/>
    <nd ref="1899413154"/>
    <nd ref="1899413172"/>
    <nd ref="1899413151"/>
    <nd ref="1899413148"/>
    <nd ref="1899413121"/>
    <nd ref="1899413122"/>
    <nd ref="1899413110"/>
    <nd ref="1899413118"/>
    <nd ref="1899413119"/>
    <tag k="building" v="civic"/>
    <tag k="building:flats" v="1"/>
    <tag k="building:levels" v="1"/>
    <tag k="building:ruian:type" v="5"/>
    <tag k="name" v="Mateřská škola Praha - Radotín „Kulíšek“"/>
    <tag k="ref:ruian:building" v="21637857"/>
    <tag k="source" v="cuzk:ruian"/>
  </way>
  <way id="179555872" version="7" timestamp="2025-03-13T20:12:57Z" changeset="163586806" uid="1189910" user="Milancer">
    <nd ref="1899413630"/>
    <nd ref="1899413520"/>
    <nd ref="1899413588"/>
    <nd ref="1899413570"/>
    <nd ref="1899413596"/>
    <nd ref="11203227170"/>
    <nd ref="11203227169"/>
    <nd ref="1899413669"/>
    <nd ref="1899413630"/>
    <tag k="building" v="warehouse"/>
    <tag k="building:ruian:type" v="12"/>
    <tag k="height" v="12"/>
    <tag k="layer" v="1"/>
    <tag k="name" v="Kondor"/>
    <tag k="ref:ruian:building" v="49694367"/>
    <tag k="source" v="cuzk:ruian"/>
  </way>
  <way id="179556189" version="6" timestamp="2024-04-14T07:26:48Z" changeset="149979198" uid="335143" user="Bogomil Shopov - Бого">
    <nd ref="1899410443"/>
    <nd ref="1899410450"/>
    <nd ref="1899410448"/>
    <nd ref="1899410462"/>
    <nd ref="1899410464"/>
    <nd ref="3379575660"/>
    <nd ref="3835564812"/>
    <nd ref="3835564810"/>
    <nd ref="3835564796"/>
    <nd ref="3835564791"/>
    <nd ref="3835564787"/>
    <nd ref="3835564785"/>
    <nd ref="1899410446"/>
    <nd ref="1899410447"/>
    <nd ref="1899410445"/>
    <nd ref="1899410444"/>
    <nd ref="1899410442"/>
    <nd ref="3379575656"/>
    <nd ref="1899410433"/>
    <nd ref="3379575657"/>
    <nd ref="1899410435"/>
    <nd ref="1899410441"/>
    <nd ref="3379575658"/>
    <nd ref="3379575659"/>
    <nd ref="1899410443"/>
    <tag k="amenity" v="place_of_worship"/>
    <tag k="building" v="church"/>
    <tag k="building:ruian:type" v="5"/>
    <tag k="check_date" v="2024-04-14"/>
    <tag k="denomination" v="roman_catholic"/>
    <tag k="height" v="10"/>
    <tag k="name" v="svatý Petr a Pavel"/>
    <tag k="ref:ruian:building" v="46851721"/>
    <tag k="religion" v="christian"/>
    <tag k="source" v="cuzk:ruian"/>
  </way>
  <way id="182793477" version="9" timestamp="2023-06-09T18:22:46Z" changeset="137148862" uid="10881771" user="Vokoun">
    <nd ref="1171650352"/>
    <nd ref="25953967"/>
    <nd ref="8569724790"/>
    <nd ref="1171650278"/>
    <nd ref="8569724789"/>
    <nd ref="25953968"/>
    <nd ref="1171650243"/>
    <nd ref="8569724787"/>
    <nd ref="25953988"/>
    <nd ref="8569724788"/>
    <nd ref="8569724786"/>
    <nd ref="25953989"/>
    <nd ref="25953990"/>
    <nd ref="1171650351"/>
    <tag k="highway" v="tertiary"/>
    <tag k="lane_markings" v="no"/>
    <tag k="lit" v="yes"/>
    <tag k="maxspeed" v="30"/>
    <tag k="maxspeed:type" v="sign"/>
    <tag k="name" v="Na Cikánce"/>
    <tag k="smoothness" v="excellent"/>
    <tag k="surface" v="asphalt"/>
  </way>
  <way id="182979215" version="1" timestamp="2012-09-26T09:14:36Z" changeset="13256761" uid="364739" user="j123b567">
    <nd ref="598676871"/>
    <nd ref="598676868"/>
    <nd ref="598676866"/>
    <tag k="highway" v="residential"/>
    <tag k="name" v="Javořická"/>
    <tag k="source" v="cuzk:km;uhul:ortofoto"/>
  </way>
  <way id="183176132" version="7" timestamp="2024-09-03T10:48:27Z" changeset="156136434" uid="1189910" user="Milancer">
    <nd ref="1828855175"/>
    <nd ref="9532251368"/>
    <nd ref="9356120482"/>
    <nd ref="598670835"/>
    <nd ref="598670836"/>
    <nd ref="11981299646"/>
    <nd ref="12153497405"/>
    <tag k="highway" v="residential"/>
    <tag k="name" v="náměstí Osvoboditelů"/>
    <tag k="sorting_name" v="Osvoboditelů"/>
    <tag k="source" v="cuzk:km;uhul:ortofoto"/>
  </way>
  <way id="185273073" version="3" timestamp="2022-02-24T11:54:08Z" changeset="117809097" uid="1641564" user="Jakuje">
    <nd ref="1958324222"/>
    <nd ref="1958324220"/>
    <nd ref="1958324219"/>
    <nd ref="1958324221"/>
    <nd ref="1958324222"/>
    <tag k="addr:city" v="Praha"/>
    <tag k="addr:housenumber" v="8"/>
    <tag k="addr:postcode" v="15300"/>
    <tag k="addr:street" v="K Lázním"/>
    <tag k="amenity" v="fast_food"/>
    <tag k="building" v="yes"/>
    <tag k="cuisine" v="burger"/>
    <tag k="drive_through" v="no"/>
    <tag k="name" v="Beach Arena Radotín"/>
    <tag k="website" v="https://www.facebook.com/BeachArenaRadotin"/>
  </way>
  <way id="204833407" version="10" timestamp="2025-03-13T20:12:57Z" changeset="163586806" uid="1189910" user="Milancer">
    <nd ref="297204365"/>
    <nd ref="12543554900"/>
    <nd ref="346909478"/>
    <nd ref="346909469"/>
    <nd ref="288137354"/>
    <nd ref="31515499"/>
    <tag k="highway" v="tertiary"/>
    <tag k="lanes" v="2"/>
    <tag k="lit" v="yes"/>
    <tag k="name" v="Vrážská"/>
    <tag k="sidewalk:both" v="separate"/>
    <tag k="smoothness" v="good"/>
    <tag k="surface" v="asphalt"/>
  </way>
  <way id="212506046" version="3" timestamp="2024-02-24T18:54:10Z" changeset="147867238" uid="231749" user="Eino81">
    <nd ref="2223524740"/>
    <nd ref="2223524748"/>
    <nd ref="2223524752"/>
    <nd ref="2223524758"/>
    <nd ref="6654448524"/>
    <tag k="access" v="private"/>
    <tag k="highway" v="residential"/>
    <tag k="name" v="Strážovská"/>
  </way>
  <way id="234094548" version="3" timestamp="2022-12-25T14:08:43Z" changeset="130481122" uid="10881771" user="Vokoun">
    <nd ref="386727182"/>
    <nd ref="5066804943"/>
    <nd ref="386727183"/>
    <nd ref="288191340"/>
    <tag k="highway" v="unclassified"/>
    <tag k="lanes" v="2"/>
    <tag k="name" v="K Lázním"/>
    <tag k="source" v="cuzk:km;uhul:ortofoto"/>
    <tag k="surface" v="asphalt"/>
  </way>
  <way id="234094549" version="2" timestamp="2024-10-31T12:51:26Z" changeset="158580224" uid="21375820" user="Onebutton">
    <nd ref="386727146"/>
    <nd ref="386727150"/>
    <tag k="bicycle" v="yes"/>
    <tag k="foot" v="yes"/>
    <tag k="highway" v="unclassified"/>
    <tag k="motorcar" v="private"/>
    <tag k="source" v="cuzk:km;uhul:ortofoto"/>
    <tag k="surface" v="asphalt"/>
  </way>
  <way id="234094552" version="1" timestamp="2013-08-19T11:06:44Z" changeset="17409364" uid="17615" user="Petr Dlouhý">
    <nd ref="386727150"/>
    <nd ref="386727155"/>
    <nd ref="386727156"/>
    <nd ref="288253958"/>
    <tag k="bicycle" v="yes"/>
    <tag k="foot" v="yes"/>
    <tag k="highway" v="unclassified"/>
    <tag k="motorcar" v="private"/>
    <tag k="source" v="cuzk:km;uhul:ortofoto"/>
  </way>
  <way id="272390622" version="4" timestamp="2023-06-12T06:46:11Z" changeset="137229809" uid="231749" user="Eino81">
    <nd ref="593540434"/>
    <nd ref="2773339628"/>
    <tag k="highway" v="residential"/>
    <tag k="name" v="Nýrská"/>
  </way>
  <way id="282882780" version="2" timestamp="2022-11-26T19:14:01Z" changeset="129412828" uid="6588887" user="Martin2035">
    <nd ref="81928434"/>
    <nd ref="288131959"/>
    <tag k="highway" v="residential"/>
    <tag k="maxspeed" v="30"/>
    <tag k="maxspeed:type" v="CZ:zone30"/>
    <tag k="name" v="Býšovská"/>
    <tag k="oneway" v="yes"/>
    <tag k="zone:maxspeed" v="30"/>
  </way>
  <way id="282883104" version="2" timestamp="2022-11-26T19:14:01Z" changeset="129412828" uid="6588887" user="Martin2035">
    <nd ref="81928357"/>
    <nd ref="1100421565"/>
    <nd ref="81928361"/>
    <nd ref="288133360"/>
    <nd ref="81928365"/>
    <nd ref="288132269"/>
    <nd ref="81928367"/>
    <nd ref="81928428"/>
    <tag k="highway" v="residential"/>
    <tag k="maxspeed" v="30"/>
    <tag k="maxspeed:type" v="CZ:zone30"/>
    <tag k="name" v="Ametystová"/>
    <tag k="oneway" v="no"/>
    <tag k="zone:maxspeed" v="30"/>
  </way>
  <way id="333044600" version="2" timestamp="2016-01-10T17:57:49Z" changeset="36488048" uid="1189910" user="Milancer">
    <nd ref="1899412856"/>
    <nd ref="1899413107"/>
    <nd ref="1899413157"/>
    <nd ref="1125743019"/>
    <nd ref="3938010999"/>
    <nd ref="1125742952"/>
    <nd ref="1125742914"/>
    <nd ref="1125742998"/>
    <tag k="highway" v="residential"/>
  </way>
  <way id="342611303" version="1" timestamp="2015-05-03T20:35:54Z" changeset="30759391" uid="714609" user="lcapka">
    <nd ref="81921310"/>
    <nd ref="81921313"/>
    <tag k="highway" v="residential"/>
    <tag k="incline" v="down"/>
    <tag k="name" v="Strážovská"/>
    <tag k="surface" v="asphalt"/>
  </way>
  <way id="380214596" version="6" timestamp="2024-10-06T16:49:18Z" changeset="157549423" uid="1457631" user="MC79">
    <nd ref="1529157899"/>
    <nd ref="3835566154"/>
    <nd ref="3835566036"/>
    <nd ref="3835566046"/>
    <nd ref="3835566026"/>
    <nd ref="3835566027"/>
    <nd ref="3835565954"/>
    <nd ref="3835565891"/>
    <nd ref="12230014382"/>
    <nd ref="12230014381"/>
    <nd ref="3835566120"/>
    <nd ref="12230014380"/>
    <nd ref="1529157899"/>
    <tag k="addr:conscriptionnumber" v="1507"/>
    <tag k="addr:housenumber" v="1507"/>
    <tag k="addr:place" v="Radotín"/>
    <tag k="addr:postcode" v="15300"/>
    <tag k="addr:street" v="Vrážská"/>
    <tag k="brand" v="Billa"/>
    <tag k="brand:wikidata" v="Q42969493"/>
    <tag k="brand:wikipedia" v="de:Billa"/>
    <tag k="building" v="retail"/>
    <tag k="building:levels" v="1"/>
    <tag k="name" v="Billa"/>
    <tag k="opening_hours" v="Mo-Sa 07:00-21:00; Su 08:00-21:00"/>
    <tag k="payment:cards" v="yes"/>
    <tag k="payment:cash" v="yes"/>
    <tag k="payment:contactless" v="yes"/>
    <tag k="ref:ruian:building" v="24825484"/>
    <tag k="shop" v="supermarket"/>
    <tag k="source" v="cuzk:ruian"/>
    <tag k="start_date" v="2000-10-04"/>
    <tag k="wheelchair" v="yes"/>
  </way>
  <way id="389842142" version="4" timestamp="2023-06-09T18:22:55Z" changeset="137148874" uid="10881771" user="Vokoun">
    <nd ref="386727180"/>
    <nd ref="1778001946"/>
    <nd ref="386727181"/>
    <nd ref="386727182"/>
    <tag k="highway" v="unclassified"/>
    <tag k="lanes" v="2"/>
    <tag k="name" v="K Lázním"/>
    <tag k="sidewalk" v="no"/>
    <tag k="source" v="cuzk:km;uhul:ortofoto"/>
    <tag k="surface" v="asphalt"/>
  </way>
  <way id="392764780" version="1" timestamp="2016-01-22T12:51:13Z" changeset="36738408" uid="403828" user="Kamenitxan">
    <nd ref="73311166"/>
    <nd ref="598676912"/>
    <tag k="highway" v="residential"/>
    <tag k="name" v="Týřovická"/>
    <tag k="source" v="cuzk:km;uhul:ortofoto"/>
  </way>
  <way id="475771421" version="5" timestamp="2023-01-04T15:30:02Z" changeset="130871895" uid="10881771" user="Vokoun">
    <nd ref="1171650351"/>
    <nd ref="6378024295"/>
    <nd ref="25953991"/>
    <nd ref="25953992"/>
    <nd ref="1347029693"/>
    <tag k="highway" v="tertiary"/>
    <tag k="lane_markings" v="no"/>
    <tag k="name" v="Na Cikánce"/>
    <tag k="surface" v="asphalt"/>
  </way>
  <way id="475771423" version="3" timestamp="2023-01-04T15:29:37Z" changeset="130871895" uid="10881771" user="Vokoun">
    <nd ref="1347029693"/>
    <nd ref="25953993"/>
    <nd ref="1347029703"/>
    <nd ref="1736153345"/>
    <nd ref="1347029659"/>
    <nd ref="25953994"/>
    <nd ref="25953995"/>
    <tag k="highway" v="tertiary"/>
    <tag k="lane_markings" v="no"/>
    <tag k="name" v="Na Cikánce"/>
    <tag k="surface" v="asphalt"/>
  </way>
  <way id="502777029" version="1" timestamp="2017-06-22T21:23:41Z" changeset="49757410" uid="255936" user="NyanSten">
    <nd ref="761842896"/>
    <nd ref="81937014"/>
    <tag k="highway" v="residential"/>
    <tag k="name" v="náměstí Osvoboditelů"/>
    <tag k="sorting_name" v="Osvoboditelů"/>
  </way>
  <way id="502777030" version="1" timestamp="2017-06-22T21:23:41Z" changeset="49757410" uid="255936" user="NyanSten">
    <nd ref="836725241"/>
    <nd ref="761842896"/>
    <tag k="bridge" v="yes"/>
    <tag k="highway" v="residential"/>
    <tag k="layer" v="1"/>
    <tag k="name" v="náměstí Osvoboditelů"/>
    <tag k="sorting_name" v="Osvoboditelů"/>
    <tag k="source" v="uhul:ortofoto;survey"/>
  </way>
  <way id="502777031" version="4" timestamp="2025-02-24T12:54:45Z" changeset="162891554" uid="718054" user="Piskvor">
    <nd ref="1685265787"/>
    <nd ref="60271272"/>
    <nd ref="11981299662"/>
    <nd ref="11981299663"/>
    <nd ref="11981299664"/>
    <nd ref="2704713814"/>
    <nd ref="2704713817"/>
    <nd ref="836725273"/>
    <nd ref="11981299660"/>
    <nd ref="25697608"/>
    <tag k="highway" v="secondary"/>
    <tag k="name" v="náměstí Osvoboditelů"/>
    <tag k="ref" v="101;115"/>
    <tag k="sorting_name" v="Osvoboditelů"/>
    <tag k="surface" v="asphalt"/>
  </way>
  <way id="591277792" version="2" timestamp="2020-11-27T08:19:26Z" changeset="94881130" uid="6588887" user="Martin2035">
    <nd ref="297204364"/>
    <nd ref="297204354"/>
    <tag k="highway" v="residential"/>
    <tag k="name" v="Věštínská"/>
    <tag k="oneway" v="yes"/>
  </way>
  <way id="591277794" version="1" timestamp="2018-05-26T22:44:58Z" changeset="59303038" uid="1719518" user="itamas80">
    <nd ref="81932147"/>
    <nd ref="81932074"/>
    <tag k="highway" v="residential"/>
    <tag k="name" v="Živcová"/>
  </way>
  <way id="591277795" version="1" timestamp="2018-05-26T22:44:58Z" changeset="59303038" uid="1719518" user="itamas80">
    <nd ref="81932143"/>
    <nd ref="81932147"/>
    <tag k="highway" v="residential"/>
    <tag k="name" v="Živcová"/>
  </way>
  <way id="591277796" version="1" timestamp="2018-05-26T22:44:58Z" changeset="59303038" uid="1719518" user="itamas80">
    <nd ref="81932143"/>
    <nd ref="81932256"/>
    <nd ref="81932261"/>
    <nd ref="81932264"/>
    <nd ref="81932269"/>
    <nd ref="81932274"/>
    <nd ref="81932275"/>
    <tag k="highway" v="residential"/>
    <tag k="name" v="Topasová"/>
  </way>
  <way id="591277797" version="4" timestamp="2022-11-26T19:14:01Z" changeset="129412828" uid="6588887" user="Martin2035">
    <nd ref="81921398"/>
    <nd ref="9356120540"/>
    <nd ref="7472071031"/>
    <nd ref="81921400"/>
    <nd ref="81921403"/>
    <nd ref="81932085"/>
    <nd ref="9356120531"/>
    <nd ref="25697602"/>
    <tag k="highway" v="residential"/>
    <tag k="maxspeed" v="30"/>
    <tag k="maxspeed:type" v="CZ:zone30"/>
    <tag k="name" v="Strážovská"/>
    <tag k="zone:maxspeed" v="30"/>
  </way>
  <way id="591673598" version="4" timestamp="2024-10-06T16:49:18Z" changeset="157549423" uid="1457631" user="MC79">
    <nd ref="598676930"/>
    <nd ref="146593508"/>
    <nd ref="12230014555"/>
    <nd ref="243273214"/>
    <tag k="highway" v="secondary"/>
    <tag k="lanes" v="2"/>
    <tag k="name" v="Karlická"/>
    <tag k="ref" v="115"/>
    <tag k="source" v="HELP SERVICE - REMOTE SENSING spol. s r.o. http://www.bnhelp.cz"/>
    <tag k="surface" v="asphalt"/>
  </way>
  <way id="591673599" version="2" timestamp="2023-07-07T12:37:16Z" changeset="138227709" uid="746938" user="aloxe">
    <nd ref="598676921"/>
    <nd ref="598676923"/>
    <tag k="highway" v="residential"/>
    <tag k="name" v="Sídliště"/>
    <tag k="source" v="cuzk:km;uhul:ortofoto"/>
    <tag k="surface" v="asphalt"/>
  </way>
  <way id="618221024" version="1" timestamp="2018-08-20T10:08:47Z" changeset="61817965" uid="718054" user="Piskvor">
    <nd ref="1708609753"/>
    <nd ref="297204352"/>
    <tag k="highway" v="residential"/>
    <tag k="name" v="Tachovská"/>
  </way>
  <way id="620183094" version="3" timestamp="2022-02-14T18:18:44Z" changeset="117403033" uid="25561" user="Gobik">
    <nd ref="598676903"/>
    <nd ref="1143340758"/>
    <nd ref="5508935830"/>
    <nd ref="73485985"/>
    <nd ref="73441849"/>
    <nd ref="1143340756"/>
    <nd ref="73311166"/>
    <tag k="highway" v="secondary"/>
    <tag k="lanes" v="2"/>
    <tag k="name" v="Karlická"/>
    <tag k="ref" v="115"/>
    <tag k="source" v="HELP SERVICE - REMOTE SENSING spol. s r.o. http://www.bnhelp.cz"/>
    <tag k="surface" v="asphalt"/>
  </way>
  <way id="620183097" version="1" timestamp="2018-08-26T22:24:22Z" changeset="62017429" uid="1719518" user="itamas80">
    <nd ref="598676856"/>
    <nd ref="598676857"/>
    <tag k="highway" v="residential"/>
    <tag k="name" v="Na Viničkách"/>
    <tag k="source" v="cuzk:km;uhul:ortofoto"/>
  </way>
  <way id="620183099" version="1" timestamp="2018-08-26T22:24:22Z" changeset="62017429" uid="1719518" user="itamas80">
    <nd ref="598676873"/>
    <nd ref="598676869"/>
    <nd ref="598676864"/>
    <nd ref="598676854"/>
    <nd ref="598676855"/>
    <nd ref="598676856"/>
    <tag k="highway" v="residential"/>
    <tag k="name" v="Na Viničkách"/>
    <tag k="source" v="cuzk:km;uhul:ortofoto"/>
  </way>
  <way id="620183102" version="1" timestamp="2018-08-26T22:24:22Z" changeset="62017429" uid="1719518" user="itamas80">
    <nd ref="598676867"/>
    <nd ref="598676874"/>
    <tag k="highway" v="residential"/>
    <tag k="name" v="Vojetická"/>
    <tag k="source" v="cuzk:km;uhul:ortofoto"/>
  </way>
  <way id="620183104" version="1" timestamp="2018-08-26T22:24:22Z" changeset="62017429" uid="1719518" user="itamas80">
    <nd ref="598676904"/>
    <nd ref="5508935829"/>
    <nd ref="598676898"/>
    <nd ref="1209144961"/>
    <nd ref="1143338569"/>
    <nd ref="598676879"/>
    <nd ref="598676873"/>
    <tag k="highway" v="residential"/>
    <tag k="name" v="Na Viničkách"/>
    <tag k="source" v="cuzk:km;uhul:ortofoto"/>
  </way>
  <way id="620183107" version="2" timestamp="2022-02-24T11:54:08Z" changeset="117809097" uid="1641564" user="Jakuje">
    <nd ref="598676918"/>
    <nd ref="9532251332"/>
    <nd ref="598676893"/>
    <tag k="highway" v="residential"/>
    <tag k="name" v="Kolová"/>
    <tag k="source" v="cuzk:km;uhul:ortofoto"/>
  </way>
  <way id="620183109" version="3" timestamp="2024-06-13T20:33:05Z" changeset="152649514" uid="10932047" user="AF HAF KARTOGRAF">
    <nd ref="73311166"/>
    <nd ref="598676913"/>
    <nd ref="598676914"/>
    <nd ref="1143338580"/>
    <nd ref="598676904"/>
    <tag k="highway" v="residential"/>
    <tag k="name" v="Na Viničkách"/>
    <tag k="source" v="cuzk:km;uhul:ortofoto"/>
  </way>
  <way id="620357623" version="9" timestamp="2024-04-14T07:16:24Z" changeset="149978876" uid="335143" user="Bogomil Shopov - Бого">
    <nd ref="288191335"/>
    <nd ref="7970229570"/>
    <nd ref="7970229572"/>
    <nd ref="288191336"/>
    <nd ref="7970229571"/>
    <nd ref="288191337"/>
    <tag k="hazard" v="children"/>
    <tag k="highway" v="residential"/>
    <tag k="lanes" v="2"/>
    <tag k="lit" v="yes"/>
    <tag k="name" v="Loučanská"/>
    <tag k="parking:left" v="no"/>
    <tag k="parking:right" v="lane"/>
    <tag k="parking:right:orientation" v="parallel"/>
    <tag k="sidewalk:left" v="separate"/>
    <tag k="sidewalk:right" v="yes"/>
    <tag k="surface" v="asphalt"/>
  </way>
  <way id="672352878" version="1" timestamp="2019-02-22T17:23:34Z" changeset="67473838" uid="665336" user="Minimalis">
    <nd ref="598676894"/>
    <nd ref="6296127326"/>
    <nd ref="598676890"/>
    <tag k="highway" v="residential"/>
    <tag k="name" v="Na Krupičárně"/>
    <tag k="source" v="cuzk:km;uhul:ortofoto"/>
  </way>
  <way id="711723890" version="4" timestamp="2023-05-20T16:07:07Z" changeset="136343892" uid="746938" user="aloxe">
    <nd ref="6691349400"/>
    <nd ref="8761724505"/>
    <tag k="highway" v="secondary"/>
    <tag k="lane_markings" v="yes"/>
    <tag k="lit" v="no"/>
    <tag k="maxspeed" v="80"/>
    <tag k="maxspeed:forward" v="50"/>
    <tag k="name" v="Výpadová"/>
    <tag k="ref" v="101;115"/>
    <tag k="source:maxspeed" v="sign"/>
    <tag k="surface" v="asphalt"/>
  </way>
  <way id="730794583" version="4" timestamp="2023-07-18T07:41:50Z" changeset="138653235" uid="10881771" user="Vokoun">
    <nd ref="288191338"/>
    <nd ref="1236492857"/>
    <nd ref="288191339"/>
    <tag k="highway" v="residential"/>
    <tag k="lanes" v="2"/>
    <tag k="lit" v="yes"/>
    <tag k="name" v="K Lázním"/>
    <tag k="surface" v="asphalt"/>
  </way>
  <way id="777663271" version="1" timestamp="2020-03-02T09:22:58Z" changeset="81672949" uid="10345165" user="Jana Šafferová">
    <nd ref="1188924565"/>
    <nd ref="346916022"/>
    <tag k="highway" v="residential"/>
    <tag k="name" v="Kalabisova"/>
  </way>
  <way id="777663272" version="1" timestamp="2020-03-02T09:22:58Z" changeset="81672949" uid="10345165" user="Jana Šafferová">
    <nd ref="26729470"/>
    <nd ref="2223524833"/>
    <tag k="highway" v="residential"/>
    <tag k="name" v="Kalabisova"/>
  </way>
  <way id="798933779" version="4" timestamp="2022-11-26T19:14:01Z" changeset="129412828" uid="6588887" user="Martin2035">
    <nd ref="761843608"/>
    <nd ref="831207321"/>
    <nd ref="1685265849"/>
    <nd ref="30006612"/>
    <tag k="highway" v="residential"/>
    <tag k="maxspeed" v="30"/>
    <tag k="maxspeed:type" v="CZ:zone30"/>
    <tag k="name" v="Prvomájová"/>
    <tag k="oneway" v="no"/>
    <tag k="surface" v="asphalt"/>
    <tag k="zone:maxspeed" v="30"/>
  </way>
  <way id="798933780" version="4" timestamp="2023-09-02T17:18:34Z" changeset="140729077" uid="6588887" user="Martin2035">
    <nd ref="7472071038"/>
    <nd ref="7472071073"/>
    <nd ref="7472071036"/>
    <nd ref="7472071035"/>
    <nd ref="11158553813"/>
    <nd ref="11158553814"/>
    <nd ref="1084099142"/>
    <nd ref="81937009"/>
    <nd ref="1084099199"/>
    <nd ref="1428329145"/>
    <nd ref="11163318944"/>
    <nd ref="836725279"/>
    <nd ref="1081635786"/>
    <nd ref="836725244"/>
    <nd ref="1084099178"/>
    <nd ref="1081635792"/>
    <nd ref="81937010"/>
    <nd ref="963649688"/>
    <nd ref="831021592"/>
    <tag k="highway" v="residential"/>
    <tag k="lanes" v="1"/>
    <tag k="name" v="Náměstí Osvoboditelů"/>
    <tag k="oneway" v="yes"/>
    <tag k="sorting_name" v="Osvoboditelů"/>
    <tag k="surface" v="asphalt"/>
  </way>
  <way id="798933781" version="3" timestamp="2021-09-13T14:44:02Z" changeset="111148549" uid="1189910" user="Milancer">
    <nd ref="7472071039"/>
    <nd ref="7472071046"/>
    <nd ref="7472071071"/>
    <nd ref="7472071038"/>
    <tag k="highway" v="residential"/>
    <tag k="name" v="Náměstí Osvoboditelů"/>
    <tag k="surface" v="asphalt"/>
  </way>
  <way id="804282363" version="3" timestamp="2025-01-30T11:46:44Z" changeset="161934107" uid="17639962" user="detective-fiasco">
    <nd ref="12543554883"/>
    <nd ref="9055726175"/>
    <nd ref="1135208678"/>
    <tag k="highway" v="residential"/>
    <tag k="lit" v="yes"/>
    <tag k="maxweight" v="6"/>
    <tag k="name" v="Horymírovo náměstí"/>
    <tag k="oneway" v="no"/>
    <tag k="surface" v="asphalt"/>
  </way>
  <way id="804282364" version="3" timestamp="2023-07-07T08:54:52Z" changeset="138219077" uid="746938" user="aloxe">
    <nd ref="30006606"/>
    <nd ref="10246635265"/>
    <tag k="highway" v="residential"/>
    <tag k="name" v="Prvomájová"/>
    <tag k="surface" v="asphalt"/>
  </way>
  <way id="820241046" version="1" timestamp="2020-06-27T19:54:27Z" changeset="87234511" uid="2923211" user="AlesBernasek">
    <nd ref="7659228821"/>
    <nd ref="7659228822"/>
    <nd ref="7659228823"/>
    <nd ref="7659228824"/>
    <nd ref="7659228821"/>
    <tag k="amenity" v="fast_food"/>
    <tag k="building" v="yes"/>
    <tag k="drive_through" v="no"/>
    <tag k="name" v="Trilobit bar"/>
    <tag k="operator" v="Restaurace Musa"/>
  </way>
  <way id="854656433" version="2" timestamp="2021-04-24T21:11:52Z" changeset="103553229" uid="6588887" user="Martin2035">
    <nd ref="302397248"/>
    <nd ref="302397267"/>
    <tag k="bicycle" v="yes"/>
    <tag k="highway" v="residential"/>
    <tag k="name" v="Šárovo kolo"/>
    <tag k="surface" v="asphalt"/>
  </way>
  <way id="882820826" version="6" timestamp="2025-01-30T11:46:44Z" changeset="161934107" uid="17639962" user="detective-fiasco">
    <nd ref="31515683"/>
    <nd ref="9927555079"/>
    <nd ref="2704713798"/>
    <nd ref="1400700638"/>
    <nd ref="10096134029"/>
    <tag k="highway" v="residential"/>
    <tag k="lanes" v="2"/>
    <tag k="name" v="Václava Balého"/>
    <tag k="surface" v="asphalt"/>
  </way>
  <way id="882820827" version="11" timestamp="2025-01-30T11:46:44Z" changeset="161934107" uid="17639962" user="detective-fiasco">
    <nd ref="31515683"/>
    <nd ref="1135208695"/>
    <nd ref="81937017"/>
    <nd ref="2704713808"/>
    <nd ref="12536392331"/>
    <nd ref="12536392332"/>
    <nd ref="1135208686"/>
    <tag k="highway" v="secondary"/>
    <tag k="lanes" v="2"/>
    <tag k="lit" v="yes"/>
    <tag k="maxspeed:type" v="CZ:urban"/>
    <tag k="name" v="Výpadová"/>
    <tag k="parking:both" v="no"/>
    <tag k="ref" v="101;115"/>
    <tag k="sidewalk" v="both"/>
    <tag k="surface" v="asphalt"/>
  </way>
  <way id="946523384" version="1" timestamp="2021-05-24T15:48:30Z" changeset="105237708" uid="6588887" user="Martin2035">
    <nd ref="8761724505"/>
    <nd ref="302397150"/>
    <tag k="cycleway:right" v="lane"/>
    <tag k="highway" v="secondary"/>
    <tag k="maxspeed" v="80"/>
    <tag k="maxspeed:forward" v="50"/>
    <tag k="name" v="Výpadová"/>
    <tag k="ref" v="101;115"/>
    <tag k="source:maxspeed" v="sign"/>
  </way>
  <way id="962691029" version="5" timestamp="2022-02-14T17:46:46Z" changeset="117403035" uid="25561" user="Gobik">
    <nd ref="386727143"/>
    <nd ref="73414877"/>
    <nd ref="73350120"/>
    <nd ref="73302896"/>
    <nd ref="2291311237"/>
    <nd ref="73460845"/>
    <tag k="cycleway:both" v="no"/>
    <tag k="highway" v="secondary"/>
    <tag k="lanes" v="2"/>
    <tag k="lit" v="no"/>
    <tag k="maxspeed" v="50"/>
    <tag k="name" v="Radotínská"/>
    <tag k="ref" v="115"/>
    <tag k="sidewalk" v="no"/>
    <tag k="source:maxspeed" v="CZ:urban"/>
    <tag k="surface" v="asphalt"/>
  </way>
  <way id="972505138" version="2" timestamp="2023-06-09T18:22:43Z" changeset="137148874" uid="10881771" user="Vokoun">
    <nd ref="1240225633"/>
    <nd ref="9000791891"/>
    <tag k="highway" v="tertiary"/>
    <tag k="name" v="Na Cikánce"/>
    <tag k="surface" v="asphalt"/>
  </way>
  <way id="972505139" version="2" timestamp="2023-06-09T18:22:43Z" changeset="137148874" uid="10881771" user="Vokoun">
    <nd ref="9000791891"/>
    <nd ref="9000791890"/>
    <tag k="bridge" v="yes"/>
    <tag k="highway" v="tertiary"/>
    <tag k="layer" v="1"/>
    <tag k="name" v="Na Cikánce"/>
    <tag k="surface" v="asphalt"/>
  </way>
  <way id="978677682" version="4" timestamp="2023-12-15T10:36:12Z" changeset="145145142" uid="20552061" user="CD1850">
    <nd ref="499510516"/>
    <nd ref="25953958"/>
    <nd ref="25953960"/>
    <nd ref="25953961"/>
    <nd ref="701748439"/>
    <nd ref="25953964"/>
    <nd ref="25953966"/>
    <nd ref="1171650357"/>
    <nd ref="1171650352"/>
    <tag k="highway" v="tertiary"/>
    <tag k="lane_markings" v="no"/>
    <tag k="lit" v="no"/>
    <tag k="maxspeed" v="30"/>
    <tag k="maxspeed:type" v="sign"/>
    <tag k="name" v="Na Cikánce"/>
    <tag k="smoothness" v="excellent"/>
    <tag k="surface" v="asphalt"/>
  </way>
  <way id="992229095" version="1" timestamp="2021-10-12T14:19:07Z" changeset="112420472" uid="10932047" user="AF HAF KARTOGRAF">
    <nd ref="1167388187"/>
    <nd ref="60270954"/>
    <nd ref="9167570421"/>
    <tag k="highway" v="tertiary"/>
    <tag k="name" v="Na Cikánce"/>
    <tag k="surface" v="asphalt"/>
  </way>
  <way id="992229096" version="1" timestamp="2021-10-12T14:19:07Z" changeset="112420472" uid="10932047" user="AF HAF KARTOGRAF">
    <nd ref="9167570421"/>
    <nd ref="9167570420"/>
    <tag k="bridge" v="yes"/>
    <tag k="highway" v="tertiary"/>
    <tag k="layer" v="1"/>
    <tag k="name" v="Na Cikánce"/>
    <tag k="surface" v="asphalt"/>
  </way>
  <way id="992229103" version="2" timestamp="2023-06-09T18:22:44Z" changeset="137148874" uid="10881771" user="Vokoun">
    <nd ref="25697593"/>
    <nd ref="9167570428"/>
    <tag k="highway" v="secondary"/>
    <tag k="name" v="K Cementárně"/>
    <tag k="surface" v="asphalt"/>
  </way>
  <way id="992229104" version="2" timestamp="2023-06-09T18:22:45Z" changeset="137148874" uid="10881771" user="Vokoun">
    <nd ref="9167570428"/>
    <nd ref="1167379002"/>
    <tag k="bridge" v="yes"/>
    <tag k="highway" v="secondary"/>
    <tag k="layer" v="1"/>
    <tag k="name" v="K Cementárně"/>
    <tag k="surface" v="asphalt"/>
  </way>
  <way id="1015247585" version="1" timestamp="2021-12-25T12:45:56Z" changeset="115359385" uid="1189910" user="Milancer">
    <nd ref="7970305187"/>
    <nd ref="288191334"/>
    <tag k="foot" v="yes"/>
    <tag k="highway" v="residential"/>
    <tag k="name" v="náměstí Sv. Petra a Pavla"/>
    <tag k="wikidata" v="Q45259035"/>
  </way>
  <way id="1017645560" version="2" timestamp="2022-02-24T11:54:08Z" changeset="117809097" uid="1641564" user="Jakuje">
    <nd ref="9356120481"/>
    <nd ref="9532251320"/>
    <nd ref="861578513"/>
    <tag k="highway" v="residential"/>
    <tag k="name" v="Na Výšince"/>
    <tag k="source" v="cuzk:km;uhul:ortofoto"/>
  </way>
  <way id="1021999159" version="2" timestamp="2024-02-24T18:54:10Z" changeset="147867238" uid="231749" user="Eino81">
    <nd ref="2223524758"/>
    <nd ref="9425917047"/>
    <nd ref="9425917048"/>
    <nd ref="9425917049"/>
    <tag k="access" v="private"/>
    <tag k="highway" v="residential"/>
    <tag k="name" v="Strážovská"/>
  </way>
  <way id="1092690719" version="12" timestamp="2024-10-05T21:42:53Z" changeset="157518586" uid="573826" user="LeoBardonaro">
    <nd ref="288253940"/>
    <nd ref="11816123408"/>
    <nd ref="288253990"/>
    <tag k="highway" v="residential"/>
    <tag k="lane_markings" v="no"/>
    <tag k="lit" v="no"/>
    <tag k="maxspeed:type" v="CZ:urban"/>
    <tag k="name" v="Ke Zděři"/>
    <tag k="oneway" v="yes"/>
    <tag k="parking:left" v="no"/>
    <tag k="parking:right" v="on_kerb"/>
    <tag k="parking:right:orientation" v="parallel"/>
    <tag k="sidewalk" v="left"/>
    <tag k="surface" v="asphalt"/>
    <tag k="width" v="4"/>
  </way>
  <way id="1092690720" version="5" timestamp="2024-10-06T16:49:18Z" changeset="157549423" uid="1457631" user="MC79">
    <nd ref="598676933"/>
    <nd ref="598676935"/>
    <nd ref="12230014541"/>
    <nd ref="836725236"/>
    <tag k="highway" v="residential"/>
    <tag k="name" v="U Starého stadiónu"/>
    <tag k="sidewalk" v="both"/>
    <tag k="source" v="cuzk:km;uhul:ortofoto"/>
    <tag k="surface" v="asphalt"/>
  </way>
  <way id="1092690722" version="2" timestamp="2024-03-05T22:27:06Z" changeset="148270326" uid="9291527" user="marekhrabe">
    <nd ref="836725236"/>
    <nd ref="598676936"/>
    <tag k="highway" v="residential"/>
    <tag k="name" v="U Starého stadiónu"/>
    <tag k="source" v="cuzk:km;uhul:ortofoto"/>
  </way>
  <way id="1092690727" version="3" timestamp="2023-06-09T18:22:45Z" changeset="137148874" uid="10881771" user="Vokoun">
    <nd ref="25697595"/>
    <nd ref="1167829906"/>
    <nd ref="1128025574"/>
    <nd ref="243273210"/>
    <tag k="highway" v="secondary"/>
    <tag k="maxspeed:type" v="CZ:urban"/>
    <tag k="name" v="K Cementárně"/>
    <tag k="surface" v="asphalt"/>
  </way>
  <way id="1092690728" version="5" timestamp="2024-12-28T15:44:16Z" changeset="160719064" uid="1189910" user="Milancer">
    <nd ref="26709205"/>
    <nd ref="25697596"/>
    <nd ref="25697597"/>
    <nd ref="867310378"/>
    <nd ref="346909380"/>
    <nd ref="243260946"/>
    <nd ref="370947585"/>
    <nd ref="346909386"/>
    <nd ref="12459100697"/>
    <nd ref="847176014"/>
    <nd ref="12459100698"/>
    <nd ref="243260911"/>
    <nd ref="847151021"/>
    <nd ref="1685265921"/>
    <nd ref="25697601"/>
    <nd ref="847151016"/>
    <nd ref="847151028"/>
    <nd ref="10707568567"/>
    <nd ref="11420847001"/>
    <nd ref="1167614855"/>
    <nd ref="1099260782"/>
    <nd ref="25697602"/>
    <tag k="highway" v="secondary"/>
    <tag k="lit" v="yes"/>
    <tag k="name" v="K Cementárně"/>
    <tag k="ref" v="599"/>
    <tag k="surface" v="asphalt"/>
  </way>
  <way id="1092804688" version="3" timestamp="2023-06-09T18:22:44Z" changeset="137148874" uid="10881771" user="Vokoun">
    <nd ref="25697592"/>
    <nd ref="10758282741"/>
    <nd ref="7316216205"/>
    <nd ref="1167388208"/>
    <nd ref="25697593"/>
    <tag k="highway" v="secondary"/>
    <tag k="maxweight" v="12"/>
    <tag k="name" v="K Cementárně"/>
    <tag k="ref" v="599"/>
    <tag k="surface" v="asphalt"/>
  </way>
  <way id="1110819706" version="2" timestamp="2022-11-26T19:14:01Z" changeset="129412828" uid="6588887" user="Martin2035">
    <nd ref="9532251369"/>
    <nd ref="81932082"/>
    <nd ref="81932078"/>
    <nd ref="1347031799"/>
    <nd ref="30006612"/>
    <tag k="highway" v="residential"/>
    <tag k="maxspeed" v="30"/>
    <tag k="maxspeed:type" v="CZ:zone30"/>
    <tag k="name" v="Vinohrady"/>
    <tag k="oneway" v="yes"/>
    <tag k="zone:maxspeed" v="30"/>
  </way>
  <way id="1120325117" version="2" timestamp="2024-12-28T15:44:16Z" changeset="160719064" uid="1189910" user="Milancer">
    <nd ref="30006607"/>
    <nd ref="7522964192"/>
    <nd ref="12459100679"/>
    <nd ref="287026564"/>
    <nd ref="10246635266"/>
    <nd ref="81928329"/>
    <tag k="highway" v="residential"/>
    <tag k="name" v="Prvomájová"/>
  </way>
  <way id="1120325118" version="2" timestamp="2023-07-07T08:54:55Z" changeset="138219077" uid="746938" user="aloxe">
    <nd ref="10246635265"/>
    <nd ref="30006607"/>
    <tag k="highway" v="residential"/>
    <tag k="layer" v="-1"/>
    <tag k="maxheight" v="4.2"/>
    <tag k="name" v="Prvomájová"/>
    <tag k="start_date" v="2022-12-09"/>
    <tag k="surface" v="asphalt"/>
    <tag k="tunnel" v="yes"/>
  </way>
  <way id="1133160582" version="3" timestamp="2024-04-19T18:16:23Z" changeset="150236346" uid="9291527" user="marekhrabe">
    <nd ref="1950705412"/>
    <nd ref="1950705413"/>
    <nd ref="1950705411"/>
    <nd ref="1950705409"/>
    <nd ref="1950705408"/>
    <tag k="highway" v="residential"/>
    <tag k="name" v="Pod Velkým Hájem"/>
  </way>
  <way id="1133160583" version="3" timestamp="2024-04-19T18:16:23Z" changeset="150236346" uid="9291527" user="marekhrabe">
    <nd ref="1950705408"/>
    <nd ref="1950705410"/>
    <nd ref="1950705412"/>
    <tag k="highway" v="residential"/>
    <tag k="name" v="Pod Velkým Hájem"/>
  </way>
  <way id="1174536078" version="5" timestamp="2025-01-30T11:46:44Z" changeset="161934107" uid="17639962" user="detective-fiasco">
    <nd ref="1135208687"/>
    <nd ref="31515692"/>
    <nd ref="12459100660"/>
    <tag k="highway" v="secondary"/>
    <tag k="lanes" v="2"/>
    <tag k="maxheight" v="4.2"/>
    <tag k="maxspeed:type" v="CZ:urban"/>
    <tag k="name" v="Výpadová"/>
    <tag k="ref" v="101;115"/>
    <tag k="sidewalk" v="no"/>
    <tag k="surface" v="asphalt"/>
  </way>
  <way id="1181268517" version="1" timestamp="2023-06-12T06:50:07Z" changeset="137229978" uid="231749" user="Eino81">
    <nd ref="10970277029"/>
    <nd ref="386727198"/>
    <tag k="access" v="private"/>
    <tag k="highway" v="unclassified"/>
    <tag k="source" v="cuzk:km;uhul:ortofoto"/>
  </way>
  <way id="1188494374" version="1" timestamp="2023-07-09T18:54:05Z" changeset="138308016" uid="231749" user="Eino81">
    <nd ref="11036012291"/>
    <nd ref="386722238"/>
    <tag k="highway" v="residential"/>
    <tag k="name" v="Vrážská"/>
    <tag k="source" v="cuzk:km;uhul:ortofoto"/>
  </way>
  <way id="1226769005" version="1" timestamp="2023-11-25T19:49:46Z" changeset="144451815" uid="18482278" user="Someone1212">
    <nd ref="1899412327"/>
    <nd ref="11375715346"/>
    <nd ref="11375715347"/>
    <nd ref="11375715348"/>
    <nd ref="1899412089"/>
    <tag k="highway" v="residential"/>
    <tag k="name" v="Věštínská"/>
  </way>
  <way id="1231424147" version="1" timestamp="2023-12-15T16:57:45Z" changeset="145158973" uid="20552061" user="CD1850">
    <nd ref="243260916"/>
    <nd ref="26729362"/>
    <nd ref="243260921"/>
    <nd ref="243260927"/>
    <nd ref="11420679307"/>
    <tag k="highway" v="residential"/>
    <tag k="name" v="Safírová"/>
    <tag k="surface" v="asphalt"/>
  </way>
  <way id="1231424148" version="1" timestamp="2023-12-15T16:57:45Z" changeset="145158973" uid="20552061" user="CD1850">
    <nd ref="11420679307"/>
    <nd ref="1685265941"/>
    <tag k="bridge" v="yes"/>
    <tag k="highway" v="residential"/>
    <tag k="layer" v="1"/>
    <tag k="name" v="Safírová"/>
    <tag k="surface" v="asphalt"/>
  </way>
  <way id="1232743997" version="1" timestamp="2023-12-20T18:36:53Z" changeset="145342068" uid="6588887" user="Martin2035">
    <nd ref="11435546516"/>
    <nd ref="11435546517"/>
    <nd ref="11435546518"/>
    <nd ref="11435546519"/>
    <nd ref="11435546516"/>
    <tag k="access" v="yes"/>
    <tag k="amenity" v="bicycle_parking"/>
    <tag k="bicycle_parking" v="shed"/>
    <tag k="bike_ride" v="yes"/>
    <tag k="building" v="yes"/>
    <tag k="capacity" v="40"/>
    <tag k="check_date" v="2023-12"/>
    <tag k="colour" v="black"/>
    <tag k="covered" v="yes"/>
    <tag k="fee" v="no"/>
    <tag k="indoor" v="no"/>
    <tag k="lit" v="yes"/>
    <tag k="name" v="Kolárna Praha-Radotín"/>
    <tag k="operator" v="Správa železnic, Praha"/>
    <tag k="operator:type" v="public"/>
    <tag k="source" v="local knowledge"/>
    <tag k="start_date" v="2023"/>
  </way>
  <way id="1254373612" version="1" timestamp="2024-02-24T18:54:10Z" changeset="147867238" uid="231749" user="Eino81">
    <nd ref="6654448524"/>
    <nd ref="346916016"/>
    <tag k="highway" v="residential"/>
    <tag k="name" v="Strážovská"/>
  </way>
  <way id="1257993187" version="4" timestamp="2024-10-06T16:50:25Z" changeset="157549493" uid="1457631" user="MC79">
    <nd ref="598676934"/>
    <nd ref="12229970783"/>
    <nd ref="1546283825"/>
    <nd ref="598676933"/>
    <tag k="highway" v="residential"/>
    <tag k="name" v="U Starého stadiónu"/>
    <tag k="sidewalk" v="no"/>
    <tag k="source" v="cuzk:km;uhul:ortofoto"/>
    <tag k="surface" v="asphalt"/>
  </way>
  <way id="1258667452" version="1" timestamp="2024-03-07T13:44:46Z" changeset="148342721" uid="9291527" user="marekhrabe">
    <nd ref="8567727921"/>
    <nd ref="11163318955"/>
    <nd ref="761842904"/>
    <tag k="highway" v="residential"/>
    <tag k="name" v="Vindyšova"/>
    <tag k="surface" v="paving_stones"/>
  </way>
  <way id="1267971522" version="1" timestamp="2024-03-31T20:21:40Z" changeset="149407017" uid="9291527" user="marekhrabe">
    <nd ref="6733316272"/>
    <nd ref="11776281593"/>
    <tag k="highway" v="residential"/>
  </way>
  <way id="1283371822" version="1" timestamp="2024-05-15T19:21:59Z" changeset="151378016" uid="11545091" user="VladaC">
    <nd ref="11420003069"/>
    <nd ref="499510516"/>
    <tag k="highway" v="tertiary"/>
    <tag k="lane_markings" v="no"/>
    <tag k="lit" v="no"/>
    <tag k="name" v="Na Cikánce"/>
    <tag k="smoothness" v="excellent"/>
    <tag k="surface" v="asphalt"/>
  </way>
  <way id="1292431023" version="2" timestamp="2025-02-24T12:54:45Z" changeset="162891554" uid="718054" user="Piskvor">
    <nd ref="1685265787"/>
    <nd ref="11981299666"/>
    <nd ref="11981299667"/>
    <nd ref="11981299706"/>
    <nd ref="11981299668"/>
    <nd ref="11981299705"/>
    <nd ref="11981299669"/>
    <nd ref="11981299670"/>
    <nd ref="11981299671"/>
    <nd ref="11981299672"/>
    <nd ref="3930001105"/>
    <tag k="highway" v="secondary_link"/>
    <tag k="oneway" v="yes"/>
    <tag k="surface" v="asphalt"/>
  </way>
  <way id="1292431025" version="1" timestamp="2024-06-14T16:59:56Z" changeset="152689662" uid="10932047" user="AF HAF KARTOGRAF">
    <nd ref="25697608"/>
    <nd ref="836725266"/>
    <nd ref="2704713823"/>
    <nd ref="346909442"/>
    <nd ref="11981299608"/>
    <nd ref="3930001105"/>
    <tag k="highway" v="secondary"/>
    <tag k="lanes" v="2"/>
    <tag k="name" v="náměstí Osvoboditelů"/>
    <tag k="oneway" v="no"/>
    <tag k="ref" v="101;115"/>
    <tag k="sidewalk:left" v="no"/>
    <tag k="sidewalk:right" v="separate"/>
    <tag k="sorting_name" v="Osvoboditelů"/>
    <tag k="surface" v="asphalt"/>
  </way>
  <way id="1352107674" version="3" timestamp="2025-04-20T11:18:35Z" changeset="165188588" uid="558173" user="prófa">
    <nd ref="593540434"/>
    <nd ref="1685265747"/>
    <nd ref="12459100642"/>
    <nd ref="12459100641"/>
    <nd ref="12459100638"/>
    <nd ref="60271200"/>
    <nd ref="12459100637"/>
    <nd ref="4100569946"/>
    <nd ref="860533373"/>
    <tag k="highway" v="secondary"/>
    <tag k="lanes" v="2"/>
    <tag k="ref" v="101"/>
    <tag k="surface" v="asphalt"/>
  </way>
  <way id="1354661383" version="1" timestamp="2025-01-27T14:59:09Z" changeset="161821954" uid="17639962" user="detective-fiasco">
    <nd ref="12459100660"/>
    <nd ref="12536392336"/>
    <nd ref="12536392338"/>
    <nd ref="12536392337"/>
    <nd ref="10096134029"/>
    <tag k="highway" v="residential"/>
    <tag k="oneway" v="yes"/>
    <tag k="surface" v="asphalt"/>
  </way>
  <way id="1355007665" version="1" timestamp="2025-01-28T20:16:23Z" changeset="161872262" uid="2061236" user="Thartek">
    <nd ref="31515680"/>
    <nd ref="297204364"/>
    <tag k="highway" v="residential"/>
    <tag k="lit" v="yes"/>
    <tag k="name" v="Věštínská"/>
    <tag k="oneway" v="yes"/>
  </way>
  <way id="1355358919" version="1" timestamp="2025-01-30T11:46:44Z" changeset="161934107" uid="17639962" user="detective-fiasco">
    <nd ref="12543554880"/>
    <nd ref="297204355"/>
    <tag k="highway" v="residential"/>
    <tag k="name" v="Tachovská"/>
    <tag k="oneway" v="yes"/>
  </way>
  <way id="1355358920" version="1" timestamp="2025-01-30T11:46:44Z" changeset="161934107" uid="17639962" user="detective-fiasco">
    <nd ref="12459100660"/>
    <nd ref="1400700639"/>
    <nd ref="25697613"/>
    <nd ref="2704713811"/>
    <nd ref="31515683"/>
    <tag k="highway" v="secondary"/>
    <tag k="lanes" v="2"/>
    <tag k="maxheight" v="4.2"/>
    <tag k="maxspeed:type" v="CZ:urban"/>
    <tag k="name" v="Výpadová"/>
    <tag k="ref" v="101;115"/>
    <tag k="sidewalk" v="no"/>
    <tag k="surface" v="asphalt"/>
  </way>
  <way id="1355358921" version="1" timestamp="2025-01-30T11:46:44Z" changeset="161934107" uid="17639962" user="detective-fiasco">
    <nd ref="1135208678"/>
    <nd ref="288191331"/>
    <tag k="highway" v="residential"/>
    <tag k="lanes" v="2"/>
    <tag k="name" v="Václava Balého"/>
    <tag k="surface" v="asphalt"/>
  </way>
  <way id="1355358922" version="1" timestamp="2025-01-30T11:46:44Z" changeset="161934107" uid="17639962" user="detective-fiasco">
    <nd ref="10096134029"/>
    <nd ref="1135208678"/>
    <tag k="highway" v="residential"/>
    <tag k="lanes" v="2"/>
    <tag k="name" v="Václava Balého"/>
    <tag k="surface" v="asphalt"/>
  </way>
  <way id="1355358923" version="1" timestamp="2025-01-30T11:46:44Z" changeset="161934107" uid="17639962" user="detective-fiasco">
    <nd ref="1135208681"/>
    <nd ref="1400700640"/>
    <nd ref="81937015"/>
    <nd ref="2704713828"/>
    <nd ref="1135208679"/>
    <nd ref="9927555078"/>
    <nd ref="31515683"/>
    <tag k="highway" v="tertiary"/>
    <tag k="lanes" v="2"/>
    <tag k="lit" v="yes"/>
    <tag k="maxspeed:type" v="CZ:urban"/>
    <tag k="name" v="Vrážská"/>
    <tag k="oneway" v="no"/>
    <tag k="sidewalk:both" v="separate"/>
    <tag k="smoothness" v="excellent"/>
    <tag k="surface" v="asphalt"/>
  </way>
  <way id="1355358924" version="1" timestamp="2025-01-30T11:46:44Z" changeset="161934107" uid="17639962" user="detective-fiasco">
    <nd ref="1135208686"/>
    <nd ref="12459100661"/>
    <nd ref="25697614"/>
    <tag k="highway" v="secondary"/>
    <tag k="lanes" v="2"/>
    <tag k="lit" v="yes"/>
    <tag k="maxspeed:type" v="CZ:urban"/>
    <tag k="name" v="Výpadová"/>
    <tag k="parking:both" v="no"/>
    <tag k="ref" v="101;115"/>
    <tag k="sidewalk" v="both"/>
    <tag k="surface" v="asphalt"/>
  </way>
  <way id="1355358925" version="1" timestamp="2025-01-30T11:46:44Z" changeset="161934107" uid="17639962" user="detective-fiasco">
    <nd ref="25697614"/>
    <nd ref="12543562915"/>
    <nd ref="6151532737"/>
    <nd ref="25697615"/>
    <nd ref="6151532736"/>
    <nd ref="7677980594"/>
    <nd ref="489587168"/>
    <nd ref="12459100691"/>
    <nd ref="1285287156"/>
    <nd ref="12459100690"/>
    <nd ref="12459100688"/>
    <nd ref="25697616"/>
    <nd ref="12459100689"/>
    <nd ref="25697617"/>
    <nd ref="11201759242"/>
    <nd ref="11201759243"/>
    <nd ref="386722223"/>
    <nd ref="11201759245"/>
    <nd ref="243275033"/>
    <nd ref="243275026"/>
    <nd ref="25697618"/>
    <nd ref="297204362"/>
    <nd ref="1142895025"/>
    <nd ref="25697619"/>
    <nd ref="489587164"/>
    <nd ref="297204360"/>
    <nd ref="12459100687"/>
    <nd ref="12459100686"/>
    <nd ref="297204361"/>
    <nd ref="1125147656"/>
    <nd ref="1899412089"/>
    <tag k="highway" v="secondary"/>
    <tag k="lanes" v="2"/>
    <tag k="lit" v="yes"/>
    <tag k="maxspeed:type" v="CZ:urban"/>
    <tag k="name" v="Výpadová"/>
    <tag k="parking:both" v="no"/>
    <tag k="ref" v="101;115"/>
    <tag k="sidewalk" v="both"/>
    <tag k="surface" v="asphalt"/>
  </way>
  <way id="1355358926" version="1" timestamp="2025-01-30T11:46:44Z" changeset="161934107" uid="17639962" user="detective-fiasco">
    <nd ref="11201742128"/>
    <nd ref="386722226"/>
    <nd ref="386722227"/>
    <nd ref="1128017183"/>
    <nd ref="302397319"/>
    <tag k="highway" v="residential"/>
    <tag k="name" v="K Přívozu"/>
    <tag k="parking:left" v="no"/>
    <tag k="parking:right" v="lane"/>
    <tag k="parking:right:orientation" v="parallel"/>
    <tag k="source" v="cuzk:km;uhul:ortofoto"/>
    <tag k="surface" v="paving_stones"/>
  </way>
  <way id="1355358927" version="1" timestamp="2025-01-30T11:46:44Z" changeset="161934107" uid="17639962" user="detective-fiasco">
    <nd ref="1135208687"/>
    <nd ref="1135208690"/>
    <nd ref="12543554883"/>
    <tag k="highway" v="residential"/>
    <tag k="lit" v="yes"/>
    <tag k="maxweight" v="6"/>
    <tag k="name" v="Horymírovo náměstí"/>
    <tag k="oneway" v="yes"/>
    <tag k="surface" v="asphalt"/>
  </way>

</osm>
